ZipCode,county,state,Adult,Retirement,Geriatric
35005,Jefferson County,AL,82.35294117647058,NA,NA
35020,Jefferson County,AL,18.30065359477124,NA,NA
35023,Jefferson County,AL,NA,NA,56.25
35085,Chilton County,AL,NA,84.7328244274809,NA
35218,Jefferson County,AL,NA,86.25954198473282,NA
36109,Montgomery County,AL,NA,58.3206106870229,NA
36207,Calhoun County,AL,NA,90.99236641221374,NA
99517,Anchorage Municipality,AK,63.39869281045751,NA,NA
99701,Fairbanks North Star Borough,AK,37.58169934640523,NA,NA
99801,Juneau City and Borough,AK,NA,NA,78.83064516129032
85006,Maricopa County,AZ,44.771241830065364,NA,NA
85013,Maricopa County,AZ,50.65359477124183,NA,NA
85016,Maricopa County,AZ,NA,80.61068702290076,NA
85201,Maricopa County,AZ,NA,NA,66.93548387096774
85225,Maricopa County,AZ,43.13725490196079,26.717557251908396,NA
85283,Maricopa County,AZ,NA,25.34351145038168,NA
85286,Maricopa County,AZ,NA,73.58778625954199,NA
85304,Maricopa County,AZ,53.26797385620915,NA,NA
85367,Yuma County,AZ,NA,NA,40.524193548387096
85381,Maricopa County,AZ,63.725490196078425,NA,NA
85607,Cochise County,AZ,NA,NA,57.45967741935484
85634,Pima County,AZ,25.49019607843137,NA,NA
85714,Pima County,AZ,NA,NA,69.55645161290323
85716,Pima County,AZ,22.54901960784314,NA,NA
85735,Pima County,AZ,67.64705882352942,NA,NA
85743,Pima County,AZ,NA,26.412213740458014,NA
85750,Pima County,AZ,67.3202614379085,NA,NA
86040,Coconino County,AZ,NA,NA,83.46774193548387
86045,Coconino County,AZ,29.08496732026144,NA,NA
86327,Yavapai County,AZ,90.52287581699346,NA,NA
86404,Mohave County,AZ,NA,79.23664122137404,NA
86503,Apache County,AZ,NA,77.55725190839695,NA
86510,Navajo County,AZ,58.82352941176471,NA,NA
86556,Apache County,AZ,NA,99.38931297709924,NA
71603,Jefferson County,AR,NA,NA,26.008064516129032
71655,Drew County,AR,NA,63.969465648854964,NA
71909,Garland County,AR,NA,NA,64.11290322580645
72032,Faulkner County,AR,NA,90.22900763358778,NA
72114,Pulaski County,AR,NA,NA,99.79838709677419
72117,Pulaski County,AR,79.41176470588235,NA,NA
72150,Grant County,AR,80.06535947712419,NA,NA
72204,Pulaski County,AR,NA,92.82442748091603,NA
72205,Pulaski County,AR,NA,80.91603053435115,67.33870967741935
72211,Pulaski County,AR,81.69934640522875,NA,NA
72212,Pulaski County,AR,NA,NA,76.81451612903226
72501,Independence County,AR,36.27450980392157,NA,NA
72802,Pope County,AR,NA,60.76335877862596,NA
72949,Franklin County,AR,NA,81.37404580152672,NA
90004,Los Angeles County,CA,NA,36.79389312977099,NA
90006,Los Angeles County,CA,NA,55.87786259541985,NA
90022,Los Angeles County,CA,NA,NA,25.201612903225808
90035,Los Angeles County,CA,NA,35.26717557251908,NA
90057,Los Angeles County,CA,39.54248366013072,NA,NA
90064,Los Angeles County,CA,NA,NA,24.596774193548388
90065,Los Angeles County,CA,57.18954248366013,NA,NA
90066,Los Angeles County,CA,NA,29.770992366412212,NA
90250,Los Angeles County,CA,28.104575163398692,NA,NA
90270,Los Angeles County,CA,83.98692810457517,NA,NA
90301,Los Angeles County,CA,37.254901960784316,NA,NA
90620,Orange County,CA,NA,34.65648854961832,NA
90638,Los Angeles County,CA,NA,36.030534351145036,NA
90650,Los Angeles County,CA,NA,14.961832061068703,NA
90660,Los Angeles County,CA,NA,NA,81.45161290322581
90805,Los Angeles County,CA,NA,22.900763358778626,NA
91105,Los Angeles County,CA,NA,61.52671755725191,NA
91325,Los Angeles County,CA,NA,NA,54.03225806451613
91331,Los Angeles County,CA,NA,18.3206106870229,NA
91335,Los Angeles County,CA,NA,31.90839694656489,NA
91356,Los Angeles County,CA,NA,NA,57.66129032258065
91405,Los Angeles County,CA,NA,42.13740458015267,NA
91731,Los Angeles County,CA,NA,56.030534351145036,NA
91784,San Bernardino County,CA,88.88888888888889,NA,NA
91911,San Diego County,CA,NA,17.709923664122137,NA
92119,San Diego County,CA,NA,NA,39.516129032258064
92122,San Diego County,CA,NA,NA,50.403225806451616
92126,San Diego County,CA,NA,30.839694656488547,NA
92129,San Diego County,CA,59.80392156862745,NA,NA
92154,San Diego County,CA,87.58169934640523,NA,NA
92223,Riverside County,CA,NA,83.05343511450381,NA
92231,Imperial County,CA,NA,NA,32.86290322580645
92270,Riverside County,CA,NA,NA,3.225806451612903
92336,San Bernardino County,CA,13.398692810457517,NA,NA
92354,San Bernardino County,CA,NA,67.32824427480915,NA
92376,San Bernardino County,CA,NA,16.335877862595417,NA
92410,San Bernardino County,CA,35.947712418300654,NA,NA
92530,Riverside County,CA,80.3921568627451,NA,NA
92549,Riverside County,CA,NA,NA,91.73387096774194
92584,Riverside County,CA,NA,54.50381679389314,NA
92603,Orange County,CA,NA,86.10687022900764,NA
92604,Orange County,CA,NA,58.16793893129771,NA
92625,Orange County,CA,NA,NA,48.58870967741936
92626,Orange County,CA,NA,43.51145038167939,NA
92630,Orange County,CA,NA,NA,60.68548387096774
92637,Orange County,CA,NA,63.51145038167939,NA
92657,Orange County,CA,NA,96.6412213740458,NA
92683,Orange County,CA,NA,19.389312977099237,NA
92688,Orange County,CA,NA,NA,79.23387096774194
92692,Orange County,CA,NA,NA,10.483870967741936
92832,Orange County,CA,NA,85.19083969465649,NA
92840,Orange County,CA,NA,68.70229007633588,NA
92843,Orange County,CA,NA,97.40458015267176,NA
92868,Orange County,CA,NA,NA,96.37096774193549
92870,Orange County,CA,94.77124183006535,22.748091603053435,NA
92880,Riverside County,CA,NA,80.30534351145037,NA
92881,Riverside County,CA,NA,71.90839694656489,NA
93003,Ventura County,CA,20.588235294117645,NA,NA
93305,Kern County,CA,NA,54.19847328244275,NA
93446,San Luis Obispo County,CA,31.045751633986928,NA,NA
93463,Santa Barbara County,CA,NA,95.57251908396947,NA
93543,Los Angeles County,CA,85.94771241830065,NA,NA
93550,Los Angeles County,CA,NA,NA,53.2258064516129
93614,Madera County,CA,NA,78.01526717557252,NA
93638,Madera County,CA,NA,45.954198473282446,NA
93720,Fresno County,CA,NA,NA,46.774193548387096
93725,Fresno County,CA,NA,72.36641221374046,NA
94002,San Mateo County,CA,NA,NA,44.556451612903224
94014,San Mateo County,CA,NA,26.564885496183205,NA
94025,San Mateo County,CA,NA,67.78625954198473,NA
94043,Santa Clara County,CA,73.8562091503268,64.42748091603053,NA
94044,San Mateo County,CA,NA,NA,40.32258064516129
94061,San Mateo County,CA,NA,50.0763358778626,NA
94062,San Mateo County,CA,NA,48.2442748091603,74.19354838709677
94086,Santa Clara County,CA,83.00653594771242,NA,NA
94107,San Francisco County,CA,NA,NA,89.11290322580645
94109,San Francisco County,CA,NA,42.595419847328245,NA
94116,San Francisco County,CA,NA,34.50381679389313,42.13709677419355
94118,San Francisco County,CA,NA,67.17557251908397,NA
94121,San Francisco County,CA,NA,37.86259541984733,NA
94131,San Francisco County,CA,NA,95.41984732824427,NA
94133,San Francisco County,CA,NA,NA,27.82258064516129
94134,San Francisco County,CA,NA,58.01526717557252,NA
94306,Santa Clara County,CA,NA,64.27480916030535,NA
94404,San Mateo County,CA,NA,93.89312977099237,NA
94541,Alameda County,CA,27.77777777777778,NA,NA
94551,Alameda County,CA,NA,49.61832061068702,NA
94553,Contra Costa County,CA,NA,NA,43.95161290322581
94555,Alameda County,CA,NA,98.01526717557252,70.36290322580645
94559,Napa County,CA,NA,NA,47.78225806451613
94578,Alameda County,CA,NA,88.70229007633587,NA
94580,Alameda County,CA,NA,NA,56.451612903225815
94601,Alameda County,CA,47.05882352941176,NA,NA
94611,Alameda County,CA,NA,NA,31.653225806451612
94618,Alameda County,CA,NA,NA,85.08064516129032
94619,Alameda County,CA,NA,56.33587786259542,NA
94621,Alameda County,CA,NA,NA,70.56451612903226
94947,Marin County,CA,NA,NA,29.233870967741936
94949,Marin County,CA,NA,88.3969465648855,NA
94952,Sonoma County,CA,77.12418300653596,NA,NA
94954,Sonoma County,CA,NA,NA,31.25
95023,San Benito County,CA,NA,NA,44.95967741935484
95037,Santa Clara County,CA,NA,NA,91.12903225806451
95070,Santa Clara County,CA,NA,NA,20.161290322580644
95076,Santa Cruz County,CA,NA,68.3969465648855,NA
95121,Santa Clara County,CA,NA,NA,53.0241935483871
95125,Santa Clara County,CA,NA,53.89312977099237,27.419354838709676
95126,Santa Clara County,CA,NA,NA,61.49193548387096
95131,Santa Clara County,CA,NA,83.51145038167938,NA
95220,San Joaquin County,CA,NA,91.90839694656489,NA
95320,San Joaquin County,CA,72.87581699346404,NA,NA
95355,Stanislaus County,CA,NA,9.465648854961833,NA
95357,Stanislaus County,CA,93.79084967320262,NA,NA
95405,Sonoma County,CA,89.86928104575163,NA,NA
95608,Sacramento County,CA,NA,19.541984732824428,NA
95624,Sacramento County,CA,NA,24.732824427480914,NA
95628,Sacramento County,CA,NA,NA,27.21774193548387
95630,Sacramento County,CA,NA,17.099236641221374,NA
95695,Yolo County,CA,NA,NA,83.06451612903226
95747,Placer County,CA,NA,NA,78.62903225806451
95814,Sacramento County,CA,NA,NA,84.07258064516128
95817,Sacramento County,CA,NA,65.0381679389313,NA
95822,Sacramento County,CA,NA,41.832061068702295,NA
95835,Sacramento County,CA,67.97385620915033,NA,NA
95864,Sacramento County,CA,NA,NA,41.935483870967744
95926,Butte County,CA,NA,NA,34.67741935483871
96073,Shasta County,CA,NA,NA,99.39516129032258
96080,Tehama County,CA,NA,25.80152671755725,NA
96094,Siskiyou County,CA,NA,NA,82.86290322580645
80004,Jefferson County,CO,NA,NA,38.104838709677416
80015,Arapahoe County,CO,22.875816993464053,NA,55.64516129032258
80016,Arapahoe County,CO,NA,17.557251908396946,NA
80020,Broomfield County,CO,NA,NA,35.28225806451613
80113,Arapahoe County,CO,60.78431372549019,NA,NA
80127,Jefferson County,CO,NA,47.17557251908397,NA
80138,Douglas County,CO,NA,61.06870229007634,NA
80204,Denver County,CO,NA,58.473282442748086,NA
80205,Denver County,CO,16.99346405228758,95.87786259541986,NA
80206,Denver County,CO,87.90849673202614,NA,NA
80210,Denver County,CO,NA,NA,85.48387096774194
80215,Jefferson County,CO,NA,92.21374045801527,NA
80218,Denver County,CO,NA,76.94656488549619,NA
80219,Denver County,CO,NA,21.52671755725191,NA
80220,Denver County,CO,NA,60.45801526717557,90.32258064516128
80228,Jefferson County,CO,56.5359477124183,52.97709923664122,68.54838709677419
80229,Adams County,CO,46.40522875816993,41.06870229007634,NA
80303,Boulder County,CO,NA,NA,59.4758064516129
80401,Jefferson County,CO,NA,47.93893129770993,NA
80504,Boulder County,CO,64.70588235294117,NA,NA
06001,Hartford County,CT,NA,86.71755725190839,NA
06084,Tolland County,CT,NA,NA,80.04032258064517
06112,Hartford County,CT,NA,NA,58.87096774193549
06114,Hartford County,CT,NA,74.65648854961832,NA
06424,Middlesex County,CT,77.45098039215686,NA,NA
06460,New Haven County,CT,NA,15.725190839694655,NA
06473,New Haven County,CT,NA,94.9618320610687,NA
06478,New Haven County,CT,NA,59.083969465648856,NA
06516,New Haven County,CT,NA,4.122137404580153,NA
06801,Fairfield County,CT,NA,52.36641221374045,NA
06810,Fairfield County,CT,NA,NA,59.67741935483871
06812,Fairfield County,CT,98.36601307189542,NA,NA
06840,Fairfield County,CT,NA,73.12977099236642,61.89516129032258
19808,New Castle County,DE,NA,21.22137404580153,NA
19946,Kent County,DE,95.42483660130719,NA,NA
32129,Volusia County,FL,NA,NA,38.50806451612903
32207,Duval County,FL,NA,11.450381679389313,NA
32216,Duval County,FL,NA,NA,28.830645161290324
32218,Duval County,FL,6.862745098039216,NA,NA
32219,Duval County,FL,84.640522875817,62.59541984732825,NA
32308,Leon County,FL,73.20261437908496,59.38931297709924,NA
32327,Wakulla County,FL,NA,81.5267175572519,NA
32448,Jackson County,FL,60.130718954248366,NA,NA
32504,Escambia County,FL,NA,27.022900763358777,NA
32563,Santa Rosa County,FL,NA,23.053435114503817,NA
32570,Santa Rosa County,FL,NA,NA,40.92741935483871
32606,Alachua County,FL,NA,NA,5.443548387096774
32828,Orange County,FL,NA,57.404580152671755,NA
32927,Brevard County,FL,54.90196078431373,NA,NA
32955,Brevard County,FL,NA,NA,11.29032258064516
33010,Miami-Dade County,FL,NA,39.84732824427481,NA
33012,Miami-Dade County,FL,NA,NA,5.241935483870968
33014,Miami-Dade County,FL,NA,68.09160305343511,25.60483870967742
33016,Miami-Dade County,FL,96.73202614379085,98.1679389312977,NA
33021,Broward County,FL,49.01960784313725,NA,NA
33028,Broward County,FL,NA,78.77862595419847,NA
33029,Broward County,FL,NA,92.06106870229007,NA
33065,Broward County,FL,NA,NA,35.483870967741936
33127,Miami-Dade County,FL,NA,61.98473282442748,NA
33131,Miami-Dade County,FL,NA,NA,97.17741935483872
33134,Miami-Dade County,FL,76.1437908496732,NA,62.5
33135,Miami-Dade County,FL,NA,NA,25
33136,Miami-Dade County,FL,51.633986928104584,NA,NA
33139,Miami-Dade County,FL,82.6797385620915,NA,12.5
33143,Miami-Dade County,FL,NA,NA,41.53225806451613
33145,Miami-Dade County,FL,NA,90.53435114503817,NA
33150,Miami-Dade County,FL,52.614379084967325,NA,90.7258064516129
33155,Miami-Dade County,FL,NA,NA,72.17741935483872
33156,Miami-Dade County,FL,NA,52.67175572519084,NA
33157,Miami-Dade County,FL,NA,NA,23.790322580645164
33160,Miami-Dade County,FL,NA,NA,17.338709677419356
33161,Miami-Dade County,FL,NA,75.72519083969466,NA
33166,Miami-Dade County,FL,NA,NA,47.983870967741936
33167,Miami-Dade County,FL,NA,NA,78.0241935483871
33172,Miami-Dade County,FL,NA,90.38167938931298,NA
33176,Miami-Dade County,FL,NA,NA,27.62096774193548
33178,Miami-Dade County,FL,NA,91.45038167938931,NA
33180,Miami-Dade County,FL,NA,43.358778625954194,NA
33184,Miami-Dade County,FL,NA,65.95419847328245,NA
33301,Broward County,FL,NA,85.95419847328245,NA
33311,Broward County,FL,10.130718954248366,NA,NA
33314,Broward County,FL,NA,NA,97.58064516129032
33319,Broward County,FL,NA,NA,78.2258064516129
33428,Palm Beach County,FL,NA,NA,17.540322580645164
33431,Palm Beach County,FL,NA,51.29770992366412,NA
33545,Pasco County,FL,85.62091503267973,NA,NA
33610,Hillsborough County,FL,18.627450980392158,NA,NA
33615,Hillsborough County,FL,32.6797385620915,NA,NA
33619,Hillsborough County,FL,NA,36.33587786259542,NA
33771,Pinellas County,FL,NA,30.99236641221374,NA
33774,Pinellas County,FL,NA,65.34351145038167,NA
33852,Highlands County,FL,NA,NA,7.459677419354839
34102,Collier County,FL,NA,NA,52.21774193548387
34109,Collier County,FL,NA,80.45801526717557,NA
34203,Manatee County,FL,NA,NA,16.532258064516128
34208,Manatee County,FL,NA,47.02290076335878,NA
34231,Sarasota County,FL,NA,NA,67.94354838709677
34235,Sarasota County,FL,92.81045751633987,NA,NA
34242,Sarasota County,FL,NA,NA,49.596774193548384
34269,DeSoto County,FL,NA,NA,97.37903225806451
34470,Marion County,FL,51.9607843137255,NA,NA
34474,Marion County,FL,62.745098039215684,NA,NA
34677,Pinellas County,FL,NA,75.26717557251908,NA
34761,Orange County,FL,NA,40.15267175572519,NA
34952,St. Lucie County,FL,29.08496732026144,NA,8.266129032258064
30040,Forsyth County,GA,30.718954248366014,NA,NA
30064,Cobb County,GA,NA,33.43511450381679,NA
30075,Fulton County,GA,NA,NA,43.145161290322584
30096,Gwinnett County,GA,NA,28.854961832061072,NA
30127,Cobb County,GA,NA,62.74809160305344,NA
30143,Pickens County,GA,NA,34.19847328244275,NA
30157,Paulding County,GA,NA,25.0381679389313,NA
30224,Spalding County,GA,NA,NA,57.25806451612904
30228,Henry County,GA,NA,57.099236641221374,NA
30238,Clayton County,GA,88.56209150326796,NA,NA
30312,Fulton County,GA,NA,78.32061068702289,NA
30814,Columbia County,GA,NA,NA,69.95967741935483
30824,McDuffie County,GA,NA,NA,88.50806451612904
30830,Burke County,GA,NA,82.90076335877863,NA
30901,Richmond County,GA,NA,98.47328244274809,NA
30906,Richmond County,GA,NA,49.31297709923664,NA
30907,Columbia County,GA,NA,NA,62.903225806451616
31027,Laurens County,GA,NA,82.59541984732824,NA
31064,Jasper County,GA,NA,74.80916030534351,NA
31537,Charlton County,GA,NA,NA,87.5
31907,Muscogee County,GA,NA,3.969465648854962,NA
96701,Honolulu County,HI,NA,NA,9.879032258064516
96782,Honolulu County,HI,NA,23.66412213740458,NA
96789,Honolulu County,HI,NA,NA,70.96774193548387
96813,Honolulu County,HI,NA,33.587786259541986,NA
96815,Honolulu County,HI,NA,93.43511450381679,NA
96819,Honolulu County,HI,NA,NA,23.588709677419356
96825,Honolulu County,HI,NA,NA,5.64516129032258
96826,Honolulu County,HI,NA,79.8473282442748,NA
83638,Valley County,ID,NA,99.54198473282443,NA
83646,Ada County,ID,42.810457516339866,NA,NA
83661,Payette County,ID,NA,NA,75.20161290322581
83709,Ada County,ID,NA,5.801526717557252,NA
83716,Ada County,ID,NA,39.083969465648856,NA
83858,Kootenai County,ID,NA,NA,58.46774193548387
60004,Cook County,IL,NA,NA,75.60483870967742
60026,Cook County,IL,NA,74.9618320610687,NA
60031,Lake County,IL,NA,21.679389312977097,NA
60048,Lake County,IL,NA,25.64885496183206,NA
60062,Cook County,IL,NA,NA,1.0080645161290323
60083,Lake County,IL,NA,NA,64.71774193548387
60091,Cook County,IL,NA,NA,85.28225806451613
60093,Cook County,IL,NA,48.091603053435115,72.58064516129032
60099,Lake County,IL,NA,40.30534351145038,NA
60101,DuPage County,IL,NA,21.374045801526716,NA
60123,Kane County,IL,NA,15.419847328244273,NA
60148,DuPage County,IL,NA,6.870229007633588,NA
60153,Cook County,IL,NA,NA,77.21774193548387
60160,Cook County,IL,NA,66.25954198473283,NA
60402,Cook County,IL,41.50326797385621,NA,NA
60403,Will County,IL,NA,38.47328244274809,NA
60406,Cook County,IL,97.7124183006536,88.54961832061069,NA
60415,Cook County,IL,NA,70.83969465648855,NA
60419,Cook County,IL,NA,67.93893129770993,NA
60425,Cook County,IL,NA,98.3206106870229,NA
60429,Cook County,IL,NA,95.1145038167939,NA
60430,Cook County,IL,NA,NA,41.733870967741936
60435,Will County,IL,13.725490196078432,NA,NA
60445,Cook County,IL,NA,49.00763358778626,NA
60446,Will County,IL,NA,36.18320610687023,NA
60457,Cook County,IL,NA,NA,76.20967741935483
60462,Cook County,IL,NA,6.7175572519083975,NA
60469,Cook County,IL,99.34640522875817,NA,NA
60477,Cook County,IL,NA,NA,11.895161290322582
60478,Cook County,IL,98.0392156862745,NA,NA
60510,Kane County,IL,38.56209150326798,NA,NA
60513,Cook County,IL,NA,NA,80.84677419354838
60515,DuPage County,IL,NA,66.7175572519084,NA
60516,DuPage County,IL,NA,NA,34.87903225806452
60532,DuPage County,IL,NA,NA,42.33870967741936
60608,Cook County,IL,15.686274509803921,NA,NA
60609,Cook County,IL,38.88888888888889,NA,NA
60611,Cook County,IL,57.51633986928104,NA,NA
60612,Cook County,IL,23.52941176470588,NA,NA
60613,Cook County,IL,NA,32.06106870229007,NA
60615,Cook County,IL,NA,94.04580152671755,NA
60618,Cook County,IL,NA,19.236641221374047,NA
60620,Cook County,IL,NA,NA,5.040322580645161
60623,Cook County,IL,70.58823529411765,NA,NA
60624,Cook County,IL,NA,25.954198473282442,NA
60629,Cook County,IL,NA,4.885496183206107,NA
60634,Cook County,IL,NA,NA,36.29032258064516
60636,Cook County,IL,NA,NA,24.39516129032258
60637,Cook County,IL,NA,12.51908396946565,NA
60638,Cook County,IL,NA,NA,6.451612903225806
60642,Cook County,IL,NA,88.2442748091603,NA
60707,Cook County,IL,NA,71.45038167938931,NA
60827,Cook County,IL,NA,NA,82.25806451612904
60914,Kankakee County,IL,NA,NA,86.29032258064517
60957,Ford County,IL,NA,NA,99.59677419354838
61021,Lee County,IL,NA,32.213740458015266,NA
61032,Stephenson County,IL,NA,NA,80.24193548387096
61080,Winnebago County,IL,NA,NA,82.05645161290323
61081,Whiteside County,IL,NA,15.267175572519085,4.032258064516129
61103,Winnebago County,IL,55.22875816993464,NA,NA
61108,Winnebago County,IL,NA,24.12213740458015,NA
61114,Winnebago County,IL,NA,65.19083969465649,NA
61201,Rock Island County,IL,NA,29.16030534351145,NA
61231,Mercer County,IL,99.67320261437908,NA,NA
61401,Knox County,IL,NA,28.396946564885496,NA
61550,Tazewell County,IL,NA,NA,43.54838709677419
61802,Champaign County,IL,NA,29.465648854961835,46.57258064516129
61856,Piatt County,IL,NA,NA,70.16129032258065
61938,Coles County,IL,47.712418300653596,NA,NA
61944,Edgar County,IL,NA,89.00763358778626,NA
62521,Macon County,IL,NA,NA,28.024193548387093
62650,Morgan County,IL,NA,31.14503816793893,NA
62704,Sangamon County,IL,NA,NA,15.120967741935484
46012,Madison County,IN,NA,NA,32.056451612903224
46113,Marion County,IN,87.25490196078431,NA,NA
46323,Lake County,IN,NA,17.404580152671755,NA
46385,Porter County,IN,10.457516339869281,NA,NA
46410,Lake County,IN,NA,5.038167938931298,NA
46514,Elkhart County,IN,NA,21.83206106870229,NA
46628,St. Joseph County,IN,50.98039215686274,NA,NA
47250,Jefferson County,IN,NA,NA,55.04032258064516
47374,Wayne County,IN,7.8431372549019605,NA,NA
47446,Lawrence County,IN,NA,NA,71.57258064516128
47802,Vigo County,IN,NA,39.23664122137404,NA
47905,Tippecanoe County,IN,NA,NA,16.93548387096774
50219,Marion County,IA,86.27450980392157,NA,NA
50265,Polk County,IA,41.17647058823529,NA,NA
50316,Polk County,IA,NA,NA,99.19354838709677
50317,Polk County,IA,16.666666666666664,NA,NA
50322,Polk County,IA,NA,53.43511450381679,NA
50401,Cerro Gordo County,IA,NA,NA,1.8145161290322582
50644,Buchanan County,IA,NA,NA,73.79032258064517
50701,Black Hawk County,IA,NA,24.274809160305345,NA
51501,Pottawattamie County,IA,NA,11.145038167938932,NA
52057,Delaware County,IA,NA,76.03053435114504,NA
52060,Jackson County,IA,97.38562091503267,NA,NA
52101,Winneshiek County,IA,NA,NA,29.63709677419355
52241,Johnson County,IA,48.366013071895424,NA,NA
52246,Johnson County,IA,NA,60.152671755725194,31.85483870967742
52317,Johnson County,IA,78.10457516339869,70.07633587786259,NA
52402,Linn County,IA,NA,24.580152671755727,NA
52403,Linn County,IA,NA,70.83969465648855,NA
52601,Des Moines County,IA,NA,75.87786259541984,NA
52748,Scott County,IA,84.31372549019608,NA,NA
52761,Muscatine County,IA,NA,12.213740458015266,NA
66213,Johnson County,KS,NA,46.412213740458014,NA
67601,Ellis County,KS,NA,18.16793893129771,NA
67701,Thomas County,KS,NA,NA,79.03225806451613
40059,Jefferson County,KY,NA,NA,65.7258064516129
40216,Jefferson County,KY,12.418300653594772,NA,NA
40391,Clark County,KY,NA,12.366412213740457,NA
41031,Harrison County,KY,NA,NA,56.85483870967742
41101,Boyd County,KY,22.22222222222222,NA,NA
41501,Pike County,KY,NA,13.435114503816795,NA
41572,Pike County,KY,NA,93.74045801526718,NA
70003,Jefferson Parish,LA,NA,3.6641221374045805,NA
70072,Jefferson Parish,LA,56.86274509803921,NA,NA
70117,Orleans Parish,LA,NA,16.946564885496183,NA
70122,Orleans Parish,LA,8.823529411764707,NA,51.00806451612904
70125,Orleans Parish,LA,NA,NA,98.38709677419355
70126,Orleans Parish,LA,NA,NA,68.75
70128,Orleans Parish,LA,NA,79.38931297709924,NA
70301,Lafourche Parish,LA,NA,36.48854961832061,NA
70360,Terrebonne Parish,LA,NA,NA,37.70161290322581
70394,Lafourche Parish,LA,NA,63.05343511450382,NA
70435,St. Tammany Parish,LA,24.183006535947712,NA,NA
70441,St. Helena Parish,LA,NA,NA,72.78225806451613
70471,St. Tammany Parish,LA,NA,20.30534351145038,NA
70529,Lafayette Parish,LA,50.326797385620914,NA,NA
70563,Iberia Parish,LA,NA,58.62595419847329,NA
70805,East Baton Rouge Parish,LA,36.60130718954248,NA,NA
70806,East Baton Rouge Parish,LA,NA,NA,37.903225806451616
70807,East Baton Rouge Parish,LA,17.320261437908496,NA,NA
70810,East Baton Rouge Parish,LA,NA,NA,91.93548387096774
71037,Bossier Parish,LA,NA,78.93129770992367,NA
71103,Caddo Parish,LA,54.248366013071895,NA,NA
71106,Caddo Parish,LA,9.15032679738562,NA,49.79838709677419
71111,Bossier Parish,LA,8.49673202614379,NA,NA
71203,Ouachita Parish,LA,NA,23.206106870229007,NA
71263,West Carroll Parish,LA,NA,NA,53.83064516129033
71301,Rapides Parish,LA,NA,32.51908396946565,NA
71457,Natchitoches Parish,LA,NA,NA,33.66935483870967
04038,Cumberland County,ME,55.88235294117647,NA,NA
04062,Cumberland County,ME,NA,NA,67.13709677419355
04401,Penobscot County,ME,NA,31.297709923664126,1.411290322580645
04730,Aroostook County,ME,NA,NA,63.50806451612904
04736,Aroostook County,ME,NA,41.52671755725191,NA
04742,Aroostook County,ME,NA,NA,94.75806451612904
04769,Aroostook County,ME,61.76470588235294,42.74809160305343,82.45967741935483
04849,Waldo County,ME,NA,95.26717557251908,NA
20736,Calvert County,MD,NA,92.67175572519083,NA
20745,Prince George's County,MD,NA,NA,81.25
20770,Prince George's County,MD,NA,NA,88.10483870967742
20816,Montgomery County,MD,NA,90.99236641221374,NA
20852,Montgomery County,MD,74.83660130718954,NA,NA
20866,Montgomery County,MD,95.75163398692811,NA,NA
20878,Montgomery County,MD,NA,56.641221374045806,NA
20906,Montgomery County,MD,NA,37.404580152671755,NA
21015,Harford County,MD,NA,NA,51.41129032258065
21042,Howard County,MD,NA,53.58778625954198,NA
21045,Howard County,MD,NA,86.8702290076336,NA
21050,Harford County,MD,NA,88.85496183206106,NA
21078,Harford County,MD,51.307189542483655,NA,NA
21122,Anne Arundel County,MD,11.76470588235294,NA,NA
21133,Baltimore County,MD,NA,NA,39.71774193548387
21136,Baltimore County,MD,NA,47.786259541984734,NA
21157,Carroll County,MD,NA,44.274809160305345,NA
21208,Baltimore County,MD,NA,NA,45.766129032258064
21215,Baltimore city,MD,77.77777777777779,NA,NA
21217,Baltimore city,MD,26.143790849673206,NA,NA
21218,Baltimore city,MD,NA,NA,30.846774193548388
21222,Baltimore County,MD,NA,2.2900763358778624,NA
21234,Baltimore County,MD,NA,8.854961832061068,6.048387096774194
21239,Baltimore city,MD,NA,70.83969465648855,NA
21911,Cecil County,MD,NA,NA,57.86290322580645
21921,Cecil County,MD,19.934640522875817,NA,NA
01077,Hampden County,MA,NA,NA,74.39516129032258
01107,Hampden County,MA,NA,53.12977099236641,NA
01462,Worcester County,MA,NA,65.80152671755725,NA
01510,Worcester County,MA,NA,11.603053435114504,NA
01536,Worcester County,MA,99.01960784313727,NA,NA
01588,Worcester County,MA,NA,38.3206106870229,NA
01602,Worcester County,MA,33.006535947712415,NA,NA
01603,Worcester County,MA,NA,2.4427480916030535,NA
01604,Worcester County,MA,NA,35.41984732824427,NA
01609,Worcester County,MA,21.895424836601308,NA,NA
01701,Middlesex County,MA,NA,NA,35.685483870967744
01730,Middlesex County,MA,NA,NA,90.92741935483872
01760,Middlesex County,MA,NA,8.244274809160306,NA
01772,Worcester County,MA,NA,76.4885496183206,NA
01778,Middlesex County,MA,NA,NA,56.048387096774185
01801,Middlesex County,MA,NA,0.7633587786259541,NA
01803,Middlesex County,MA,NA,NA,19.758064516129032
01821,Middlesex County,MA,NA,NA,8.870967741935484
01852,Middlesex County,MA,NA,1.2213740458015268,NA
01862,Middlesex County,MA,NA,NA,66.33064516129032
01867,Middlesex County,MA,NA,9.770992366412214,NA
01876,Middlesex County,MA,NA,51.7557251908397,NA
01879,Middlesex County,MA,32.35294117647059,NA,NA
01880,Middlesex County,MA,NA,50.53435114503817,NA
01886,Middlesex County,MA,26.47058823529412,NA,NA
01905,Essex County,MA,39.21568627450981,NA,90.12096774193549
01906,Essex County,MA,NA,NA,32.25806451612903
01915,Essex County,MA,NA,0.9160305343511451,28.42741935483871
01923,Essex County,MA,NA,NA,2.82258064516129
01930,Essex County,MA,NA,0.45801526717557256,NA
01938,Essex County,MA,NA,76.79389312977099,NA
01949,Essex County,MA,NA,61.37404580152672,NA
01960,Essex County,MA,NA,0.15267175572519084,21.572580645161292
01970,Essex County,MA,2.941176470588235,NA,NA
02030,Norfolk County,MA,NA,97.55725190839695,NA
02035,Norfolk County,MA,35.294117647058826,NA,NA
02038,Norfolk County,MA,NA,NA,74.39516129032258
02048,Bristol County,MA,NA,NA,79.83870967741935
02090,Norfolk County,MA,NA,NA,69.15322580645162
02115,Suffolk County,MA,NA,NA,44.75806451612903
02118,Suffolk County,MA,NA,0.3053435114503817,30.443548387096776
02119,Suffolk County,MA,0.6535947712418301,NA,87.90322580645162
02120,Suffolk County,MA,NA,67.63358778625954,NA
02122,Suffolk County,MA,NA,96.18320610687023,NA
02124,Suffolk County,MA,0,NA,62.298387096774185
02126,Suffolk County,MA,NA,NA,18.548387096774192
02127,Suffolk County,MA,NA,NA,13.508064516129032
02128,Suffolk County,MA,1.9607843137254901,NA,30.040322580645164
02130,Suffolk County,MA,NA,1.3740458015267176,4.838709677419355
02131,Suffolk County,MA,NA,27.328244274809162,23.387096774193548
02132,Suffolk County,MA,NA,NA,62.701612903225815
02135,Suffolk County,MA,75.81699346405229,70.68702290076337,2.0161290322580645
02136,Suffolk County,MA,3.9215686274509802,NA,NA
02138,Middlesex County,MA,NA,79.54198473282442,45.16129032258064
02140,Middlesex County,MA,NA,41.221374045801525,27.016129032258064
02143,Middlesex County,MA,NA,40.458015267175576,18.14516129032258
02148,Middlesex County,MA,NA,4.2748091603053435,NA
02149,Middlesex County,MA,0.9803921568627451,NA,17.943548387096776
02151,Suffolk County,MA,62.41830065359477,NA,NA
02171,Norfolk County,MA,NA,50.839694656488554,NA
02184,Norfolk County,MA,NA,NA,36.08870967741936
02190,Norfolk County,MA,NA,NA,54.233870967741936
02191,Norfolk County,MA,63.0718954248366,NA,NA
02301,Plymouth County,MA,0.32679738562091504,NA,NA
02332,Plymouth County,MA,NA,NA,50.60483870967742
02343,Norfolk County,MA,NA,64.8854961832061,NA
02359,Plymouth County,MA,NA,90.83969465648855,NA
02446,Norfolk County,MA,23.856209150326798,7.633587786259542,NA
02451,Middlesex County,MA,NA,69.46564885496184,NA
02458,Middlesex County,MA,NA,NA,43.75
02461,Middlesex County,MA,79.73856209150327,NA,NA
02467,Norfolk County,MA,NA,28.091603053435115,77.41935483870968
02474,Middlesex County,MA,NA,23.81679389312977,42.54032258064516
02492,Norfolk County,MA,31.699346405228756,NA,NA
02493,Middlesex County,MA,NA,NA,53.42741935483871
02494,Norfolk County,MA,NA,NA,44.354838709677416
02563,Barnstable County,MA,98.69281045751634,NA,NA
02703,Bristol County,MA,NA,NA,31.451612903225808
02740,Bristol County,MA,NA,NA,0.4032258064516129
02760,Bristol County,MA,15.359477124183007,83.81679389312977,NA
02777,Bristol County,MA,NA,85.64885496183207,NA
02780,Bristol County,MA,NA,NA,69.75806451612904
48015,Macomb County,MI,NA,92.97709923664122,NA
48026,Macomb County,MI,NA,71.7557251908397,NA
48033,Oakland County,MI,44.11764705882353,NA,NA
48035,Macomb County,MI,NA,NA,38.306451612903224
48036,Macomb County,MI,NA,NA,18.14516129032258
48038,Macomb County,MI,NA,5.9541984732824424,NA
48066,Macomb County,MI,NA,9.007633587786259,NA
48076,Oakland County,MI,NA,74.50381679389312,NA
48081,Macomb County,MI,NA,NA,16.33064516129032
48103,Washtenaw County,MI,NA,46.56488549618321,59.07258064516129
48104,Washtenaw County,MI,NA,NA,78.42741935483872
48105,Washtenaw County,MI,NA,NA,38.70967741935484
48111,Wayne County,MI,NA,72.97709923664122,NA
48124,Wayne County,MI,NA,56.18320610687023,NA
48127,Wayne County,MI,NA,NA,33.46774193548387
48130,Washtenaw County,MI,NA,68.85496183206106,NA
48150,Wayne County,MI,NA,NA,45.96774193548387
48154,Wayne County,MI,NA,8.091603053435115,63.306451612903224
48162,Monroe County,MI,NA,NA,15.725806451612904
48165,Oakland County,MI,NA,85.34351145038168,NA
48168,Wayne County,MI,NA,69.61832061068702,NA
48170,Wayne County,MI,46.07843137254902,3.3587786259541987,NA
48174,Wayne County,MI,NA,14.656488549618322,NA
48180,Wayne County,MI,NA,1.6793893129770994,20.967741935483872
48184,Wayne County,MI,NA,NA,86.89516129032258
48185,Wayne County,MI,NA,NA,7.862903225806452
48186,Wayne County,MI,NA,NA,89.71774193548387
48187,Wayne County,MI,NA,19.083969465648856,8.064516129032258
48197,Washtenaw County,MI,NA,NA,49.395161290322584
48203,Wayne County,MI,NA,54.351145038167935,NA
48204,Wayne County,MI,13.071895424836603,NA,77.82258064516128
48213,Wayne County,MI,NA,NA,52.016129032258064
48217,Wayne County,MI,NA,77.55725190839695,NA
48219,Wayne County,MI,NA,2.900763358778626,NA
48223,Wayne County,MI,NA,NA,55.443548387096776
48224,Wayne County,MI,NA,NA,86.49193548387096
48225,Wayne County,MI,NA,NA,87.09677419354838
48227,Wayne County,MI,NA,75.57251908396947,NA
48235,Wayne County,MI,4.248366013071895,NA,NA
48236,Wayne County,MI,NA,NA,12.298387096774194
48239,Wayne County,MI,NA,10.229007633587786,NA
48240,Wayne County,MI,NA,NA,76.61290322580645
48301,Oakland County,MI,NA,69.00763358778626,NA
48302,Oakland County,MI,NA,45.038167938931295,NA
48304,Oakland County,MI,NA,77.86259541984732,NA
48312,Macomb County,MI,NA,NA,9.07258064516129
48323,Oakland County,MI,NA,41.98473282442748,NA
48327,Oakland County,MI,NA,NA,94.15322580645162
48329,Oakland County,MI,35.62091503267974,NA,NA
48334,Oakland County,MI,56.209150326797385,NA,NA
48342,Oakland County,MI,19.607843137254903,NA,NA
48357,Oakland County,MI,NA,NA,90.5241935483871
48381,Oakland County,MI,NA,NA,75.40322580645162
48382,Oakland County,MI,NA,67.02290076335878,NA
48612,Gladwin County,MI,NA,44.58015267175573,NA
48638,Saginaw County,MI,NA,84.12213740458016,NA
48744,Tuscola County,MI,NA,NA,84.67741935483872
48801,Gratiot County,MI,NA,NA,63.70967741935484
48823,Ingham County,MI,NA,26.259541984732827,NA
48854,Ingham County,MI,NA,51.6030534351145,NA
48917,Eaton County,MI,NA,NA,12.701612903225806
49247,Lenawee County,MI,NA,63.358778625954194,NA
49286,Lenawee County,MI,NA,NA,39.11290322580645
49319,Kent County,MI,NA,NA,47.37903225806452
49509,Kent County,MI,NA,NA,52.41935483870967
49601,Wexford County,MI,NA,48.396946564885496,NA
49855,Marquette County,MI,19.28104575163399,NA,NA
49938,Gogebic County,MI,NA,NA,92.13709677419355
55014,Anoka County,MN,NA,65.49618320610688,NA
55016,Washington County,MN,NA,56.94656488549619,NA
55077,Dakota County,MN,NA,NA,72.37903225806451
55079,Chisago County,MN,91.50326797385621,NA,NA
55104,Ramsey County,MN,NA,38.01526717557252,NA
55112,Ramsey County,MN,NA,24.885496183206108,NA
55124,Dakota County,MN,39.54248366013072,NA,NA
55126,Ramsey County,MN,NA,NA,80.64516129032258
55304,Anoka County,MN,NA,72.51908396946564,NA
55331,Hennepin County,MN,NA,NA,97.78225806451613
55369,Hennepin County,MN,NA,43.05343511450382,NA
55406,Hennepin County,MN,NA,58.778625954198475,NA
55408,Hennepin County,MN,40.52287581699346,NA,NA
55418,Hennepin County,MN,NA,34.045801526717554,48.185483870967744
55421,Anoka County,MN,54.57516339869281,NA,NA
55439,Hennepin County,MN,NA,99.84732824427482,NA
55443,Hennepin County,MN,33.66013071895425,NA,NA
55805,St. Louis County,MN,NA,64.58015267175573,NA
55812,St. Louis County,MN,NA,NA,89.91935483870968
55901,Olmsted County,MN,NA,NA,61.693548387096776
55902,Olmsted County,MN,NA,NA,89.11290322580645
55912,Mower County,MN,NA,NA,1.2096774193548387
55987,Winona County,MN,NA,NA,16.733870967741936
56013,Faribault County,MN,NA,93.58778625954199,87.29838709677419
56031,Martin County,MN,NA,NA,13.306451612903224
56097,Faribault County,MN,NA,97.55725190839695,NA
56258,Lyon County,MN,NA,50.68702290076336,91.53225806451613
56301,Stearns County,MN,NA,65.49618320610688,NA
56501,Becker County,MN,NA,NA,86.08870967741935
56537,Otter Tail County,MN,NA,NA,48.79032258064516
56560,Clay County,MN,NA,NA,1.6129032258064515
56601,Beltrami County,MN,NA,29.923664122137406,29.838709677419356
38632,DeSoto County,MS,NA,61.221374045801525,NA
39325,Lauderdale County,MS,NA,78.47328244274809,NA
39470,Pearl River County,MS,91.83006535947712,NA,NA
63021,St. Louis County,MO,NA,NA,8.46774193548387
63040,St. Louis County,MO,NA,90.07633587786259,NA
63042,St. Louis County,MO,NA,NA,65.32258064516128
63077,Franklin County,MO,70.26143790849673,NA,NA
63090,Franklin County,MO,NA,NA,43.346774193548384
63136,St. Louis County,MO,NA,10.534351145038167,NA
63139,St. Louis city,MO,69.6078431372549,NA,NA
63141,St. Louis County,MO,NA,68.54961832061068,NA
63334,Pike County,MO,NA,84.27480916030534,NA
64056,Jackson County,MO,29.73856209150327,NA,NA
64076,Lafayette County,MO,NA,NA,79.43548387096774
64108,Jackson County,MO,93.4640522875817,NA,NA
64111,Jackson County,MO,30.065359477124183,NA,NA
64119,Clay County,MO,NA,20.15267175572519,NA
64124,Jackson County,MO,71.56862745098039,NA,NA
64128,Jackson County,MO,52.94117647058824,28.702290076335878,NA
64131,Jackson County,MO,NA,32.97709923664122,NA
64151,Platte County,MO,33.98692810457516,NA,NA
64505,Buchanan County,MO,NA,22.595419847328245,NA
65020,Camden County,MO,NA,NA,53.62903225806451
65340,Saline County,MO,NA,56.48854961832062,NA
65802,Greene County,MO,15.032679738562091,NA,NA
59101,Yellowstone County,MT,NA,NA,45.564516129032256
59102,Yellowstone County,MT,NA,5.4961832061068705,NA
59715,Gallatin County,MT,NA,33.2824427480916,NA
59802,Missoula County,MT,83.33333333333334,NA,NA
68025,Dodge County,NE,66.66666666666666,NA,NA
68107,Douglas County,NE,NA,51.908396946564885,NA
68112,Douglas County,NE,80.71895424836602,NA,NA
68114,Douglas County,NE,NA,NA,45.96774193548387
68134,Douglas County,NE,NA,53.74045801526718,NA
68516,Lancaster County,NE,NA,44.88549618320611,NA
68601,Platte County,NE,NA,NA,52.82258064516129
68767,Pierce County,NE,100,NA,NA
89108,Clark County,NV,NA,38.62595419847328,NA
89123,Clark County,NV,NA,30.53435114503817,NA
89431,Washoe County,NV,24.836601307189543,NA,NA
89509,Washoe County,NV,NA,42.13740458015267,NA
03054,Hillsborough County,NH,NA,78.62595419847328,NA
03060,Hillsborough County,NH,NA,59.083969465648856,NA
03087,Rockingham County,NH,NA,NA,93.34677419354838
03570,Coos County,NH,NA,92.51908396946565,NA
03755,Grafton County,NH,NA,NA,83.26612903225806
03820,Strafford County,NH,NA,NA,13.104838709677418
03842,Rockingham County,NH,NA,94.19847328244275,NA
03867,Strafford County,NH,NA,NA,48.38709677419355
03868,Strafford County,NH,NA,93.12977099236642,NA
07024,Bergen County,NJ,NA,40,NA
07076,Union County,NJ,NA,72.67175572519083,NA
07083,Union County,NJ,20.915032679738562,NA,NA
07424,Passaic County,NJ,NA,50.38167938931297,NA
07661,Bergen County,NJ,NA,NA,72.98387096774194
08003,Camden County,NJ,NA,NA,54.233870967741936
08053,Burlington County,NJ,NA,24.427480916030532,NA
08081,Camden County,NJ,NA,8.702290076335878,NA
08083,Camden County,NJ,NA,NA,92.33870967741935
08401,Atlantic County,NJ,NA,NA,22.983870967741936
08540,Mercer County,NJ,NA,NA,30.241935483870968
08723,Ocean County,NJ,NA,21.068702290076335,NA
08857,Middlesex County,NJ,64.37908496732027,NA,NA
87102,Bernalillo County,NM,NA,46.25954198473283,NA
87105,Bernalillo County,NM,24.509803921568626,NA,NA
87106,Bernalillo County,NM,NA,39.541984732824424,55.24193548387096
87107,Bernalillo County,NM,NA,55.11450381679389,NA
87108,Bernalillo County,NM,9.477124183006536,NA,NA
87109,Bernalillo County,NM,NA,82.13740458015268,NA
87110,Bernalillo County,NM,NA,9.923664122137405,NA
87111,Bernalillo County,NM,NA,41.6793893129771,NA
87112,Bernalillo County,NM,17.647058823529413,NA,6.653225806451612
87121,Bernalillo County,NM,7.516339869281046,NA,NA
87123,Bernalillo County,NM,NA,27.633587786259543,NA
87323,McKinley County,NM,NA,97.25190839694656,NA
87327,Cibola County,NM,65.68627450980392,NA,NA
87401,San Juan County,NM,NA,NA,34.87903225806452
87420,San Juan County,NM,NA,61.52671755725191,NA
87501,Santa Fe County,NM,NA,62.13740458015267,NA
87505,Santa Fe County,NM,NA,NA,11.491935483870968
87532,Santa Fe County,NM,NA,41.37404580152671,NA
88005,Doa Ana County,NM,NA,NA,46.37096774193548
88101,Curry County,NM,NA,7.480916030534352,NA
10002,New York County,NY,NA,NA,47.58064516129033
10009,New York County,NY,NA,5.190839694656488,NA
10021,New York County,NY,NA,NA,18.951612903225808
10025,New York County,NY,NA,NA,3.024193548387097
10026,New York County,NY,NA,NA,34.475806451612904
10028,New York County,NY,NA,29.00763358778626,NA
10029,New York County,NY,NA,NA,0.8064516129032258
10032,New York County,NY,NA,32.36641221374046,NA
10034,New York County,NY,NA,16.030534351145036,NA
10035,New York County,NY,NA,9.31297709923664,NA
10036,New York County,NY,NA,45.49618320610687,NA
10039,New York County,NY,33.33333333333333,NA,NA
10303,Richmond County,NY,NA,43.66412213740458,NA
10314,Richmond County,NY,43.4640522875817,NA,NA
10451,Bronx County,NY,NA,NA,71.16935483870968
10453,Bronx County,NY,2.6143790849673203,NA,NA
10454,Bronx County,NY,NA,94.80916030534351,NA
10456,Bronx County,NY,1.3071895424836601,11.297709923664122,21.16935483870968
10457,Bronx County,NY,NA,20,10.685483870967742
10459,Bronx County,NY,NA,NA,26.61290322580645
10460,Bronx County,NY,3.594771241830065,NA,11.088709677419354
10461,Bronx County,NY,41.830065359477125,NA,NA
10462,Bronx County,NY,NA,46.717557251908396,7.661290322580645
10463,Bronx County,NY,10.784313725490197,NA,NA
10468,Bronx County,NY,NA,2.1374045801526718,NA
10469,Bronx County,NY,23.202614379084967,NA,NA
10470,Bronx County,NY,53.92156862745098,NA,NA
10473,Bronx County,NY,NA,30.38167938931298,NA
10977,Rockland County,NY,NA,NA,50.201612903225815
10990,Orange County,NY,NA,NA,40.12096774193548
11003,Nassau County,NY,58.82352941176471,NA,NA
11021,Nassau County,NY,NA,89.31297709923665,NA
11102,Queens County,NY,NA,NA,82.66129032258065
11203,Kings County,NY,NA,29.312977099236644,NA
11206,Kings County,NY,4.901960784313726,NA,NA
11207,Kings County,NY,2.287581699346405,NA,NA
11208,Kings County,NY,NA,13.129770992366414,NA
11211,Kings County,NY,NA,18.62595419847328,NA
11212,Kings County,NY,NA,NA,7.258064516129033
11216,Kings County,NY,NA,8.549618320610687,NA
11221,Kings County,NY,NA,3.816793893129771,61.29032258064516
11223,Kings County,NY,93.13725490196079,NA,NA
11226,Kings County,NY,NA,2.595419847328244,10.887096774193548
11233,Kings County,NY,3.2679738562091507,NA,NA
11235,Kings County,NY,NA,46.87022900763359,NA
11237,Kings County,NY,NA,64.73282442748092,NA
11354,Queens County,NY,NA,NA,24.193548387096776
11355,Queens County,NY,NA,NA,65.12096774193549
11367,Queens County,NY,NA,84.885496183206115,NA
11373,Queens County,NY,NA,15.572519083969466,NA
11377,Queens County,NY,NA,NA,21.975806451612904
11411,Queens County,NY,NA,70.53435114503816,NA
11414,Queens County,NY,NA,85.49618320610686,NA
11419,Queens County,NY,NA,NA,42.943548387096776
11420,Queens County,NY,NA,66.87022900763358,NA
11422,Queens County,NY,NA,NA,60.483870967741936
11426,Queens County,NY,NA,NA,62.903225806451616
11427,Queens County,NY,NA,86.41221374045801,NA
11428,Queens County,NY,NA,NA,71.7741935483871
11432,Queens County,NY,NA,7.938931297709924,NA
11434,Queens County,NY,17.973856209150327,NA,NA
11576,Nassau County,NY,NA,96.79389312977099,NA
11691,Queens County,NY,12.091503267973856,NA,NA
11701,Suffolk County,NY,NA,NA,36.49193548387097
11705,Suffolk County,NY,NA,NA,96.57258064516128
11710,Nassau County,NY,NA,NA,33.266129032258064
11743,Suffolk County,NY,NA,NA,15.32258064516129
11791,Nassau County,NY,NA,76.94656488549619,94.55645161290323
12043,Schoharie County,NY,NA,NA,95.96774193548387
12498,Ulster County,NY,NA,89.46564885496183,NA
12566,Ulster County,NY,NA,NA,94.35483870967742
13158,Cortland County,NY,NA,100,NA
13348,Otsego County,NY,NA,96.4885496183206,NA
13357,Herkimer County,NY,38.23529411764706,NA,NA
13365,Herkimer County,NY,NA,63.664122137404576,NA
13411,Chenango County,NY,76.79738562091504,96.94656488549617,NA
13478,Oneida County,NY,91.17647058823529,NA,NA
13617,St. Lawrence County,NY,NA,32.671755725190835,NA
13733,Chenango County,NY,NA,56.79389312977099,NA
13753,Delaware County,NY,NA,NA,100
13820,Otsego County,NY,NA,NA,17.137096774193548
13827,Tioga County,NY,NA,31.603053435114504,NA
13905,Broome County,NY,NA,5.343511450381679,NA
14006,Erie County,NY,NA,NA,84.2741935483871
14075,Erie County,NY,NA,7.022900763358779,NA
14214,Erie County,NY,NA,NA,75
14216,Erie County,NY,NA,37.55725190839695,NA
14225,Erie County,NY,65.359477124183,NA,NA
14304,Niagara County,NY,NA,NA,15.524193548387096
14423,Livingston County,NY,86.9281045751634,NA,NA
14450,Monroe County,NY,NA,44.12213740458015,NA
14467,Monroe County,NY,NA,NA,81.65322580645162
14472,Monroe County,NY,NA,27.78625954198473,NA
14534,Monroe County,NY,NA,1.5267175572519083,NA
14559,Monroe County,NY,14.705882352941178,NA,NA
14609,Monroe County,NY,NA,NA,20.362903225806452
14612,Monroe County,NY,NA,NA,30.846774193548388
14613,Monroe County,NY,NA,31.755725190839694,NA
14618,Monroe County,NY,NA,12.061068702290076,NA
14620,Monroe County,NY,NA,15.877862595419847,NA
14623,Monroe County,NY,NA,20.763358778625953,NA
14626,Monroe County,NY,5.228758169934641,NA,33.064516129032256
14760,Cattaraugus County,NY,NA,12.67175572519084,NA
14873,Steuben County,NY,96.40522875816994,NA,NA
27011,Yadkin County,NC,NA,NA,81.04838709677419
27012,Forsyth County,NC,NA,4.427480916030534,65.7258064516129
27028,Davie County,NC,NA,NA,19.556451612903224
27048,Rockingham County,NC,70.91503267973856,NA,NA
27101,Forsyth County,NC,NA,87.48091603053435,NA
27103,Forsyth County,NC,NA,NA,30.64516129032258
27105,Forsyth County,NC,4.57516339869281,NA,NA
27106,Forsyth County,NC,NA,NA,13.709677419354838
27127,Forsyth County,NC,18.954248366013072,NA,NA
27217,Alamance County,NC,NA,10.687022900763358,NA
27262,Guilford County,NC,42.15686274509804,NA,75.80645161290323
27265,Guilford County,NC,NA,13.740458015267176,NA
27278,Orange County,NC,NA,NA,17.741935483870968
27284,Forsyth County,NC,NA,14.198473282442748,3.4274193548387095
27350,Randolph County,NC,NA,89.61832061068702,NA
27360,Davidson County,NC,6.209150326797386,NA,NA
27511,Wake County,NC,NA,NA,34.274193548387096
27516,Orange County,NC,NA,NA,55.846774193548384
27517,Orange County,NC,NA,NA,51.81451612903226
27523,Wake County,NC,NA,98.77862595419847,NA
27526,Wake County,NC,NA,20.916030534351147,NA
27565,Granville County,NC,NA,18.015267175572518,NA
27572,Person County,NC,NA,81.22137404580153,NA
27604,Wake County,NC,NA,70.38167938931298,NA
27615,Wake County,NC,NA,NA,14.31451612903226
27703,Durham County,NC,NA,40.76335877862595,NA
27705,Durham County,NC,25.163398692810457,NA,NA
27713,Durham County,NC,94.44444444444444,NA,NA
27803,Nash County,NC,76.47058823529412,NA,NA
27856,Nash County,NC,NA,59.541984732824424,NA
27870,Halifax County,NC,NA,77.40458015267176,NA
27882,Nash County,NC,NA,99.69465648854961,NA
28037,Lincoln County,NC,62.091503267973856,NA,NA
28043,Rutherford County,NC,NA,38.16793893129771,NA
28052,Gaston County,NC,NA,25.190839694656486,NA
28073,Cleveland County,NC,NA,87.32824427480917,NA
28079,Union County,NC,NA,75.1145038167939,NA
28120,Gaston County,NC,NA,44.58015267175573,NA
28127,Stanly County,NC,92.15686274509804,NA,NA
28146,Rowan County,NC,34.967320261437905,NA,NA
28150,Cleveland County,NC,NA,97.86259541984734,NA
28152,Cleveland County,NC,95.09803921568627,NA,NA
28173,Union County,NC,NA,NA,39.314516129032256
28212,Mecklenburg County,NC,NA,NA,61.08870967741935
28216,Mecklenburg County,NC,NA,14.656488549618322,NA
28277,Mecklenburg County,NC,NA,17.862595419847327,NA
28411,New Hanover County,NC,NA,36.79389312977099,NA
28422,Brunswick County,NC,NA,87.63358778625954,NA
28425,Pender County,NC,NA,97.09923664122138,NA
28469,Brunswick County,NC,97.05882352941177,NA,NA
28470,Brunswick County,NC,NA,66.10687022900763,NA
28501,Lenoir County,NC,NA,42.44274809160306,NA
28504,Lenoir County,NC,NA,82.74809160305342,NA
28625,Iredell County,NC,49.34640522875817,NA,NA
28659,Wilkes County,NC,NA,75.41984732824427,68.34677419354838
28677,Iredell County,NC,NA,19.84732824427481,NA
28711,Buncombe County,NC,NA,NA,64.31451612903226
28721,Haywood County,NC,NA,89.77099236641222,NA
28791,Henderson County,NC,NA,58.93129770992367,NA
28792,Henderson County,NC,64.05228758169935,38.93129770992366,NA
58075,Richland County,ND,NA,91.7557251908397,NA
58078,Cass County,ND,NA,14.045801526717558,NA
58201,Grand Forks County,ND,NA,50.99236641221374,NA
58554,Morton County,ND,NA,NA,10.28225806451613
58701,Ward County,ND,NA,NA,76.41129032258065
58703,Ward County,ND,NA,40.61068702290076,NA
43015,Delaware County,OH,NA,NA,28.62903225806452
43055,Licking County,OH,NA,12.977099236641221,4.435483870967742
43081,Franklin County,OH,NA,10.839694656488549,NA
43085,Franklin County,OH,NA,57.709923664122144,NA
43140,Madison County,OH,NA,NA,79.63709677419355
43160,Fayette County,OH,NA,NA,23.991935483870968
43206,Franklin County,OH,NA,NA,57.056451612903224
43207,Franklin County,OH,16.33986928104575,NA,19.35483870967742
43214,Franklin County,OH,NA,NA,45.36290322580645
43219,Franklin County,OH,NA,33.12977099236642,NA
43224,Franklin County,OH,NA,14.50381679389313,NA
43227,Franklin County,OH,NA,36.6412213740458,NA
43229,Franklin County,OH,31.372549019607842,NA,NA
43231,Franklin County,OH,47.385620915032675,NA,NA
43232,Franklin County,OH,7.18954248366013,NA,NA
43235,Franklin County,OH,NA,33.74045801526718,NA
43351,Wyandot County,OH,NA,48.54961832061069,NA
43402,Wood County,OH,NA,NA,18.75
43512,Defiance County,OH,NA,5.648854961832061,NA
43560,Lucas County,OH,NA,NA,24.596774193548388
44001,Lorain County,OH,NA,NA,54.83870967741935
44004,Ashtabula County,OH,NA,19.69465648854962,2.620967741935484
44011,Lorain County,OH,NA,57.099236641221374,NA
44017,Cuyahoga County,OH,NA,34.65648854961832,NA
44022,Cuyahoga County,OH,NA,NA,20.766129032258064
44030,Ashtabula County,OH,NA,NA,36.895161290322584
44035,Lorain County,OH,NA,1.984732824427481,14.112903225806454
44039,Lorain County,OH,11.11111111111111,3.2061068702290076,NA
44053,Lorain County,OH,NA,NA,83.87096774193549
44054,Lorain County,OH,NA,88.09160305343512,NA
44060,Lake County,OH,NA,8.396946564885496,NA
44067,Summit County,OH,NA,49.770992366412216,83.66935483870968
44070,Cuyahoga County,OH,NA,48.854961832061065,5.846774193548387
44074,Lorain County,OH,NA,45.80152671755725,NA
44089,Erie County,OH,NA,10.076335877862595,NA
44094,Lake County,OH,NA,NA,2.217741935483871
44095,Lake County,OH,NA,NA,6.25
44102,Cuyahoga County,OH,1.6339869281045754,NA,13.911290322580644
44104,Cuyahoga County,OH,NA,51.45038167938931,50.806451612903224
44105,Cuyahoga County,OH,NA,7.328244274809161,NA
44106,Cuyahoga County,OH,NA,94.35114503816794,NA
44111,Cuyahoga County,OH,NA,69.92366412213741,NA
44118,Cuyahoga County,OH,16.013071895424837,NA,NA
44120,Cuyahoga County,OH,5.555555555555555,NA,NA
44122,Cuyahoga County,OH,NA,NA,0.6048387096774194
44123,Cuyahoga County,OH,NA,22.442748091603054,NA
44124,Cuyahoga County,OH,NA,3.0534351145038165,20.56451612903226
44134,Cuyahoga County,OH,11.437908496732026,NA,NA
44135,Cuyahoga County,OH,NA,NA,25.403225806451612
44136,Cuyahoga County,OH,NA,NA,14.919354838709678
44140,Cuyahoga County,OH,NA,60.61068702290077,32.66129032258064
44145,Cuyahoga County,OH,NA,NA,4.637096774193548
44146,Cuyahoga County,OH,NA,NA,86.69354838709677
44212,Medina County,OH,5.88235294117647,0.6106870229007634,NA
44224,Summit County,OH,NA,35.725190839694655,9.475806451612904
44236,Summit County,OH,NA,NA,93.14516129032258
44286,Summit County,OH,NA,NA,92.54032258064517
44320,Summit County,OH,NA,49.16030534351145,NA
44333,Summit County,OH,NA,NA,36.693548387096776
44440,Trumbull County,OH,NA,81.06870229007633,NA
44890,Huron County,OH,NA,81.83206106870229,NA
44906,Richland County,OH,NA,45.19083969465649,NA
45011,Butler County,OH,NA,3.5114503816793894,NA
45102,Clermont County,OH,NA,54.961832061068705,NA
45140,Clermont County,OH,27.124183006535947,15.114503816793892,NA
45215,Hamilton County,OH,28.75816993464052,34.35114503816794,NA
45305,Greene County,OH,NA,79.08396946564885,NA
45385,Greene County,OH,NA,NA,8.669354838709678
45424,Montgomery County,OH,NA,10.381679389312977,NA
45459,Montgomery County,OH,NA,20.458015267175572,NA
45601,Ross County,OH,NA,NA,0
45804,Allen County,OH,NA,81.98473282442748,NA
45875,Putnam County,OH,68.95424836601308,NA,NA
73034,Oklahoma County,OK,NA,13.587786259541984,NA
73036,Canadian County,OK,42.48366013071895,NA,NA
73162,Oklahoma County,OK,NA,16.793893129770993,NA
73507,Comanche County,OK,NA,28.24427480916031,NA
74012,Tulsa County,OK,NA,42.900763358778626,NA
74354,Ottawa County,OK,NA,45.648854961832065,NA
74447,Okmulgee County,OK,66.99346405228758,NA,NA
74601,Kay County,OK,NA,52.82442748091603,NA
74948,Sequoyah County,OK,NA,NA,64.91935483870968
97002,Marion County,OR,NA,NA,92.94354838709677
97013,Clackamas County,OR,NA,87.63358778625954,NA
97034,Clackamas County,OR,81.37254901960785,NA,NA
97070,Clackamas County,OR,NA,NA,32.45967741935484
97086,Clackamas County,OR,79.08496732026144,NA,NA
97206,Multnomah County,OR,45.42483660130719,55.41984732824427,NA
97210,Multnomah County,OR,NA,NA,93.54838709677419
97214,Multnomah County,OR,71.89542483660131,NA,NA
97219,Multnomah County,OR,NA,60.152671755725194,NA
97225,Washington County,OR,NA,63.969465648854964,NA
97239,Multnomah County,OR,NA,NA,56.653225806451616
97267,Clackamas County,OR,NA,NA,21.370967741935484
97301,Marion County,OR,NA,23.51145038167939,NA
97303,Marion County,OR,43.790849673202615,44.274809160305345,NA
97321,Linn County,OR,32.02614379084967,NA,NA
97322,Linn County,OR,NA,12.82442748091603,9.274193548387096
97351,Polk County,OR,NA,NA,94.95967741935483
97352,Marion County,OR,92.48366013071896,NA,NA
97386,Linn County,OR,86.60130718954248,NA,NA
97838,Umatilla County,OR,49.673202614379086,NA,NA
15063,Washington County,PA,NA,94.65648854961832,NA
15065,Allegheny County,PA,NA,NA,41.33064516129033
15207,Allegheny County,PA,60.45751633986928,NA,NA
15213,Allegheny County,PA,69.28104575163398,NA,NA
15227,Allegheny County,PA,NA,20.610687022900763,NA
15425,Fayette County,PA,NA,22.137404580152673,NA
15601,Westmoreland County,PA,NA,13.282442748091603,NA
15650,Westmoreland County,PA,NA,NA,10.080645161290322
15656,Westmoreland County,PA,72.22222222222221,NA,NA
15748,Indiana County,PA,NA,NA,80.44354838709677
15801,Clearfield County,PA,NA,31.45038167938931,23.18548387096774
15902,Cambria County,PA,NA,NA,96.9758064516129
16001,Butler County,PA,NA,1.8320610687022902,NA
16365,Warren County,PA,NA,NA,29.435483870967744
16833,Clearfield County,PA,NA,54.656488549618324,NA
16866,Centre County,PA,NA,67.48091603053436,NA
17022,Lancaster County,PA,NA,NA,50
17033,Dauphin County,PA,34.64052287581699,NA,NA
17036,Dauphin County,PA,NA,11.908396946564885,NA
17042,Lebanon County,PA,8.169934640522875,NA,NA
17110,Dauphin County,PA,NA,NA,40.725806451612904
17112,Dauphin County,PA,NA,6.564885496183207,NA
17201,Franklin County,PA,14.052287581699346,NA,NA
17325,Adams County,PA,NA,6.412213740458015,NA
17345,York County,PA,NA,71.6030534351145,NA
17362,York County,PA,NA,NA,46.975806451612904
17404,York County,PA,NA,NA,47.17741935483871
17545,Lancaster County,PA,45.751633986928105,NA,NA
17552,Lancaster County,PA,NA,33.89312977099237,NA
17756,Lycoming County,PA,NA,NA,72.98387096774194
17801,Northumberland County,PA,88.23529411764706,NA,NA
17821,Montour County,PA,NA,NA,77.01612903225806
17824,Northumberland County,PA,NA,NA,58.06451612903226
17837,Union County,PA,NA,38.778625954198475,NA
17857,Northumberland County,PA,NA,NA,60.08064516129033
17870,Snyder County,PA,90.19607843137256,NA,NA
17963,Schuylkill County,PA,NA,73.74045801526718,NA
17972,Schuylkill County,PA,NA,NA,59.87903225806451
18018,Lehigh County,PA,NA,9.618320610687023,NA
18020,Northampton County,PA,45.09803921568628,NA,NA
18102,Lehigh County,PA,NA,NA,22.379032258064516
18444,Lackawanna County,PA,NA,NA,60.88709677419355
18612,Luzerne County,PA,57.51633986928104,NA,NA
18661,Luzerne County,PA,NA,72.21374045801527,NA
18702,Luzerne County,PA,NA,83.66412213740459,NA
18704,Luzerne County,PA,21.568627450980394,NA,NA
18708,Luzerne County,PA,NA,76.18320610687023,NA
18901,Bucks County,PA,NA,23.358778625954198,11.693548387096774
19008,Delaware County,PA,52.28758169934641,NA,NA
19010,Delaware County,PA,NA,39.69465648854962,71.9758064516129
19023,Delaware County,PA,NA,52.06106870229008,NA
19027,Montgomery County,PA,NA,32.82442748091603,NA
19031,Montgomery County,PA,96.07843137254902,NA,NA
19041,Delaware County,PA,NA,NA,95.56451612903226
19063,Delaware County,PA,NA,NA,12.096774193548388
19064,Delaware County,PA,NA,NA,68.14516129032258
19111,Philadelphia County,PA,6.535947712418301,6.259541984732825,NA
19121,Philadelphia County,PA,NA,NA,91.33064516129032
19129,Philadelphia County,PA,NA,84.27480916030534,NA
19132,Philadelphia County,PA,30.392156862745097,NA,NA
19145,Philadelphia County,PA,NA,11.755725190839694,NA
19154,Philadelphia County,PA,NA,17.099236641221374,NA
19406,Montgomery County,PA,NA,34.961832061068705,NA
19426,Montgomery County,PA,36.9281045751634,NA,NA
19522,Berks County,PA,NA,NA,51.20967741935484
02818,Kent County,RI,65.68627450980392,NA,NA
02865,Providence County,RI,NA,54.045801526717554,NA
02871,Newport County,RI,NA,69.16030534351145,NA
02907,Providence County,RI,40.849673202614376,NA,NA
02915,Providence County,RI,NA,NA,64.31451612903226
02917,Providence County,RI,NA,72.82442748091603,NA
29301,Spartanburg County,SC,NA,35.57251908396947,NA
29306,Spartanburg County,SC,NA,63.20610687022901,NA
29334,Spartanburg County,SC,NA,92.36641221374046,NA
29356,Spartanburg County,SC,NA,69.77099236641222,NA
29407,Charleston County,SC,40.19607843137255,43.20610687022901,NA
29601,Greenville County,SC,69.93464052287581,NA,NA
29607,Greenville County,SC,NA,NA,25.806451612903224
29710,York County,SC,58.496732026143796,NA,NA
29715,York County,SC,NA,69.31297709923663,NA
29801,Aiken County,SC,NA,45.343511450381676,NA
29841,Aiken County,SC,NA,27.022900763358777,NA
57042,Lake County,SD,NA,43.969465648854964,NA
57104,Minnehaha County,SD,NA,30.68702290076336,NA
37013,Davidson County,TN,NA,16.48854961832061,NA
37027,Williamson County,TN,NA,21.984732824427482,19.153225806451612
37040,Montgomery County,TN,NA,29.61832061068702,NA
37160,Bedford County,TN,NA,90.68702290076335,NA
37172,Robertson County,TN,48.03921568627451,NA,NA
37186,Sumner County,TN,NA,NA,81.85483870967742
37204,Davidson County,TN,NA,82.44274809160305,NA
37211,Davidson County,TN,NA,18.931297709923665,NA
37212,Davidson County,TN,NA,93.2824427480916,NA
37303,McMinn County,TN,71.24183006535948,NA,NA
37377,Hamilton County,TN,NA,NA,48.99193548387097
37388,Coffee County,TN,NA,NA,76.00806451612904
37934,Knox County,TN,NA,40.916030534351144,NA
38105,Shelby County,TN,85.29411764705883,NA,NA
38310,McNairy County,TN,NA,76.94656488549619,NA
38401,Maury County,TN,NA,NA,21.774193548387096
75007,Denton County,TX,NA,23.969465648854964,NA
75024,Collin County,TX,NA,73.2824427480916,NA
75039,Dallas County,TX,NA,99.08396946564886,NA
75051,Dallas County,TX,72.54901960784314,NA,NA
75080,Dallas County,TX,59.47712418300654,NA,NA
75082,Collin County,TX,74.18300653594771,NA,NA
75181,Dallas County,TX,NA,74.04580152671755,NA
75204,Dallas County,TX,NA,63.81679389312978,NA
75252,Collin County,TX,NA,NA,49.193548387096776
75604,Gregg County,TX,NA,54.80916030534351,NA
75703,Smith County,TX,NA,4.732824427480916,37.096774193548384
75709,Smith County,TX,NA,79.69465648854963,NA
75754,Van Zandt County,TX,NA,99.23664122137404,98.79032258064517
75763,Anderson County,TX,NA,NA,66.12903225806451
75766,Cherokee County,TX,NA,NA,69.35483870967742
75771,Smith County,TX,NA,NA,16.129032258064516
75791,Smith County,TX,NA,NA,84.4758064516129
75801,Anderson County,TX,NA,NA,98.58870967741935
76002,Tarrant County,TX,NA,NA,97.98387096774194
76021,Tarrant County,TX,NA,37.55725190839695,NA
76051,Tarrant County,TX,NA,66.41221374045801,NA
76063,Tarrant County,TX,NA,80.76335877862594,NA
76105,Tarrant County,TX,NA,NA,70.76612903225806
76110,Tarrant County,TX,NA,47.32824427480916,NA
76116,Tarrant County,TX,27.450980392156865,NA,NA
76135,Tarrant County,TX,NA,60,NA
76209,Denton County,TX,NA,NA,73.38709677419355
76448,Eastland County,TX,NA,NA,85.68548387096774
76501,Bell County,TX,74.50980392156863,7.175572519083969,NA
76502,Bell County,TX,20.26143790849673,NA,0.20161290322580644
76571,Bell County,TX,NA,82.29007633587786,NA
76708,McLennan County,TX,NA,NA,67.74193548387096
77011,Harris County,TX,NA,89.16030534351145,NA
77016,Harris County,TX,NA,37.099236641221374,NA
77081,Harris County,TX,NA,91.29770992366413,NA
77083,Harris County,TX,NA,26.106870229007633,NA
77320,Walker County,TX,NA,NA,96.7741935483871
77327,Liberty County,TX,NA,72.06106870229007,NA
77355,Montgomery County,TX,NA,NA,68.95161290322581
77373,Harris County,TX,NA,NA,66.53225806451613
77449,Harris County,TX,NA,NA,51.61290322580645
77459,Fort Bend County,TX,26.797385620915033,NA,NA
77479,Fort Bend County,TX,NA,18.473282442748094,NA
77510,Galveston County,TX,NA,59.69465648854961,NA
77550,Galveston County,TX,NA,13.893129770992365,7.056451612903227
77551,Galveston County,TX,NA,NA,26.411290322580644
77573,Galveston County,TX,NA,4.580152671755725,22.782258064516128
77575,Liberty County,TX,65.0326797385621,NA,NA
77587,Harris County,TX,78.43137254901961,NA,NA
77590,Galveston County,TX,44.44444444444444,NA,NA
77662,Orange County,TX,46.73202614379085,NA,NA
77713,Jefferson County,TX,NA,NA,88.30645161290323
77803,Brazos County,TX,NA,NA,63.91129032258065
77845,Brazos County,TX,12.745098039215685,NA,NA
78046,Webb County,TX,NA,25.49618320610687,NA
78242,Bexar County,TX,NA,66.5648854961832,NA
78253,Bexar County,TX,58.16993464052288,NA,NA
78363,Kleberg County,TX,NA,NA,59.2741935483871
78584,Starr County,TX,NA,51.14503816793893,NA
78586,Cameron County,TX,NA,43.81679389312977,NA
78840,Val Verde County,TX,NA,NA,9.67741935483871
79106,Potter County,TX,55.55555555555556,NA,NA
79403,Lubbock County,TX,NA,47.48091603053435,NA
79412,Lubbock County,TX,NA,86.56488549618321,71.16935483870968
79701,Midland County,TX,NA,59.84732824427481,NA
79924,El Paso County,TX,NA,NA,22.177419354838708
84014,Davis County,UT,NA,76.33587786259542,NA
84062,Utah County,UT,89.2156862745098,NA,NA
84070,Salt Lake County,UT,NA,55.57251908396946,NA
84074,Tooele County,UT,NA,52.06106870229008,NA
84093,Salt Lake County,UT,NA,47.63358778625954,NA
84095,Salt Lake County,UT,NA,NA,39.91935483870967
84102,Salt Lake County,UT,NA,NA,95.16129032258065
84106,Salt Lake County,UT,NA,NA,26.008064516129032
84107,Salt Lake County,UT,NA,NA,62.096774193548384
84109,Salt Lake County,UT,84.9673202614379,NA,NA
84117,Salt Lake County,UT,NA,85.0381679389313,93.75
84120,Salt Lake County,UT,NA,NA,84.87903225806451
84121,Salt Lake County,UT,NA,NA,19.959677419354836
84124,Salt Lake County,UT,NA,NA,96.16935483870968
05346,Windham County,VT,NA,95.72519083969465,NA
05452,Chittenden County,VT,NA,87.17557251908397,42.54032258064516
05701,Rutland County,VT,NA,NA,14.717741935483872
05733,Rutland County,VT,NA,NA,73.58870967741935
05753,Addison County,VT,NA,70.22900763358778,NA
20171,Fairfax County,VA,NA,68.24427480916032,NA
22041,Fairfax County,VA,NA,62.90076335877862,NA
22572,Richmond County,VA,NA,83.20610687022901,NA
22601,Winchester city,VA,61.111111111111114,NA,NA
22602,Frederick County,VA,NA,NA,77.62096774193549
22630,Warren County,VA,NA,NA,66.73387096774194
22821,Rockingham County,VA,NA,NA,95.36290322580645
22902,Charlottesville city,VA,NA,80,NA
22903,Charlottesville city,VA,NA,84.58015267175573,NA
22911,Albemarle County,VA,NA,57.709923664122144,NA
23024,Louisa County,VA,89.54248366013073,NA,NA
23093,Louisa County,VA,61.43790849673203,NA,NA
23188,James City County,VA,NA,2.7480916030534353,NA
23222,Richmond city,VA,NA,27.480916030534353,NA
23224,Richmond city,VA,14.37908496732026,NA,NA
23417,Accomack County,VA,NA,NA,89.51612903225806
23430,Isle of Wight County,VA,NA,NA,35.88709677419355
23451,Virginia Beach city,VA,NA,14.351145038167939,NA
23464,Virginia Beach city,VA,21.241830065359476,NA,NA
23805,Petersburg city,VA,53.59477124183007,NA,NA
23836,Chesterfield County,VA,NA,80.1526717557252,NA
23936,Buckingham County,VA,NA,73.89312977099237,NA
24014,Roanoke city,VA,68.30065359477125,NA,NA
24401,Staunton city,VA,NA,7.786259541984733,6.854838709677419
24450,Rockbridge County,VA,73.52941176470588,49.46564885496183,NA
24531,Pittsylvania County,VA,94.11764705882352,NA,NA
24541,Danville city,VA,66.33986928104575,NA,NA
24656,Buchanan County,VA,90.84967320261438,NA,NA
98006,King County,WA,NA,27.938931297709924,NA
98023,King County,WA,NA,NA,58.266129032258064
98028,King County,WA,NA,NA,88.70967741935483
98029,King County,WA,NA,98.93129770992365,NA
98033,King County,WA,NA,28.549618320610687,NA
98036,Snohomish County,WA,48.69281045751634,NA,34.07258064516129
98057,King County,WA,NA,60.91603053435114,NA
98058,King County,WA,NA,85.80152671755725,NA
98072,King County,WA,83.66013071895425,NA,54.63709677419355
98092,King County,WA,28.431372549019606,NA,NA
98103,King County,WA,NA,NA,44.153225806451616
98105,King County,WA,NA,NA,52.41935483870967
98108,King County,WA,NA,83.96946564885496,NA
98133,King County,WA,NA,NA,41.12903225806452
98146,King County,WA,NA,62.44274809160305,NA
98168,King County,WA,34.31372549019608,NA,NA
98177,King County,WA,NA,53.282442748091604,NA
98198,King County,WA,NA,98.62595419847328,NA
98258,Snohomish County,WA,NA,46.10687022900763,NA
98335,Pierce County,WA,NA,NA,87.70161290322581
98407,Pierce County,WA,68.62745098039215,NA,NA
98498,Pierce County,WA,NA,50.229007633587784,NA
98502,Thurston County,WA,NA,61.832061068702295,NA
98506,Thurston County,WA,75.16339869281046,NA,NA
98584,Mason County,WA,NA,18.778625954198475,29.03225806451613
98660,Clark County,WA,NA,83.3587786259542,NA
98801,Chelan County,WA,NA,52.519083969465655,85.88709677419355
98841,Okanogan County,WA,NA,NA,92.74193548387096
99202,Spokane County,WA,NA,NA,98.18548387096774
99223,Spokane County,WA,NA,87.93893129770993,NA
99353,Benton County,WA,NA,55.267175572519086,NA
20019,District of Columbia,DC,NA,6.106870229007633,NA
24740,Mercer County,WV,NA,62.29007633587786,NA
25404,Berkeley County,WV,NA,71.29770992366412,NA
26301,Harrison County,WV,NA,10.992366412213741,22.58064516129032
26501,Monongalia County,WV,NA,76.6412213740458,NA
26554,Marion County,WV,NA,NA,3.6290322580645165
53029,Waukesha County,WI,NA,96.03053435114504,NA
53040,Washington County,WI,NA,NA,93.95161290322581
53051,Waukesha County,WI,NA,73.43511450381679,60.28225806451613
53081,Sheboygan County,WI,NA,22.290076335877863,NA
53089,Waukesha County,WI,NA,94.50381679389312,NA
53094,Jefferson County,WI,NA,NA,28.225806451612907
53115,Walworth County,WI,50,37.25190839694656,NA
53122,Waukesha County,WI,NA,NA,95.56451612903226
53126,Racine County,WI,78.75816993464052,NA,NA
53142,Kenosha County,WI,NA,NA,33.87096774193548
53146,Waukesha County,WI,NA,NA,73.99193548387096
53147,Walworth County,WI,NA,35.11450381679389,NA
53190,Walworth County,WI,NA,96.33587786259542,NA
53208,Milwaukee County,WI,NA,26.87022900763359,NA
53209,Milwaukee County,WI,75.49019607843137,NA,37.5
53210,Milwaukee County,WI,NA,49.92366412213741,NA
53215,Milwaukee County,WI,25.816993464052292,NA,NA
53218,Milwaukee County,WI,9.803921568627452,NA,88.91129032258065
53406,Racine County,WI,81.04575163398692,NA,37.29838709677419
53511,Rock County,WI,NA,0,NA
53527,Dane County,WI,NA,NA,67.54032258064517
53534,Rock County,WI,NA,NA,58.66935483870967
53538,Jefferson County,WI,NA,NA,74.79838709677419
53545,Rock County,WI,37.908496732026144,NA,NA
53562,Dane County,WI,NA,57.55725190839694,NA
53566,Green County,WI,NA,NA,12.903225806451612
53572,Dane County,WI,NA,89.92366412213741,NA
53581,Richland County,WI,NA,NA,65.5241935483871
53590,Dane County,WI,NA,39.38931297709924,26.61290322580645
53704,Dane County,WI,NA,16.18320610687023,NA
53705,Dane County,WI,NA,74.19847328244275,14.516129032258066
53718,Dane County,WI,NA,86.8702290076336,NA
53813,Grant County,WI,NA,91.6030534351145,NA
53963,Dodge County,WI,NA,NA,98.99193548387096
54016,St. Croix County,WI,NA,74.35114503816794,NA
54313,Brown County,WI,NA,30.229007633587784,NA
54467,Portage County,WI,NA,35.87786259541985,NA
54481,Portage County,WI,NA,16.6412213740458,NA
54601,La Crosse County,WI,NA,1.0687022900763359,4.233870967741935
54603,La Crosse County,WI,NA,NA,15.92741935483871
54630,Trempealeau County,WI,NA,81.67938931297711,NA
54650,La Crosse County,WI,NA,9.007633587786259,3.8306451612903225
54880,Douglas County,WI,NA,NA,2.4193548387096775
54911,Outagamie County,WI,NA,55.72519083969466,NA
54937,Fond du Lac County,WI,NA,48.70229007633588,NA
54956,Winnebago County,WI,NA,30.076335877862597,NA
82414,Park County,WY,NA,NA,38.91129032258064
82609,Natrona County,WY,82.02614379084967,NA,NA
82716,Campbell County,WY,NA,78.16793893129771,NA
