ZipCode,county,state,Retirement
35242,Shelby County,AL,12.272727272727273
35620,Limestone County,AL,72.27272727272728
85023,Maricopa County,AZ,56.36363636363636
85040,Maricopa County,AZ,55.00000000000001
85308,Maricopa County,AZ,16.818181818181817
85704,Pima County,AZ,33.18181818181819
85715,Pima County,AZ,55.90909090909091
86005,Coconino County,AZ,84.0909090909091
86409,Mohave County,AZ,5.454545454545454
72542,Sharp County,AR,91.36363636363637
72616,Carroll County,AR,72.27272727272728
90036,Los Angeles County,CA,47.72727272727273
90731,Los Angeles County,CA,26.36363636363636
91316,Los Angeles County,CA,52.72727272727272
91711,Los Angeles County,CA,95.9090909090909
91911,San Diego County,CA,73.63636363636363
92104,San Diego County,CA,38.18181818181819
92117,San Diego County,CA,75.45454545454545
92284,San Bernardino County,CA,28.18181818181818
92363,San Bernardino County,CA,68.63636363636364
92548,Riverside County,CA,88.18181818181819
92586,Riverside County,CA,48.18181818181818
92708,Orange County,CA,15
93117,Santa Barbara County,CA,66.81818181818183
93257,Tulare County,CA,24.545454545454547
93277,Tulare County,CA,52.27272727272727
93610,Madera County,CA,75.9090909090909
93648,Fresno County,CA,95
94547,Contra Costa County,CA,67.27272727272727
94550,Alameda County,CA,38.63636363636363
94603,Alameda County,CA,53.63636363636364
95037,Santa Clara County,CA,35.90909090909091
95076,Santa Cruz County,CA,18.181818181818183
95370,Tuolumne County,CA,25.90909090909091
95762,El Dorado County,CA,64.54545454545455
80123,Jefferson County,CO,71.36363636363636
80127,Jefferson County,CO,50
80247,Arapahoe County,CO,49.54545454545455
80521,Larimer County,CO,92.27272727272727
80538,Larimer County,CO,8.181818181818182
80904,El Paso County,CO,79.54545454545455
81226,Fremont County,CO,81.36363636363636
81650,Garfield County,CO,80
81652,Garfield County,CO,96.81818181818181
06010,Hartford County,CT,3.1818181818181817
06897,Fairfield County,CT,67.72727272727272
32024,Columbia County,FL,42.27272727272727
32117,Volusia County,FL,51.36363636363637
32444,Bay County,FL,57.72727272727273
33056,Miami-Dade County,FL,82.72727272727273
33131,Miami-Dade County,FL,93.63636363636364
33701,Pinellas County,FL,60.45454545454545
33770,Pinellas County,FL,54.54545454545454
33904,Lee County,FL,17.727272727272727
33919,Lee County,FL,13.18181818181818
34209,Manatee County,FL,23.18181818181818
30052,Walton County,GA,78.63636363636364
30534,Dawson County,GA,36.81818181818181
39828,Grady County,GA,65.45454545454545
96744,Honolulu County,HI,3.6363636363636362
83442,Jefferson County,ID,97.72727272727273
83619,Payette County,ID,64.0909090909091
60045,Lake County,IL,25.454545454545453
60106,DuPage County,IL,58.18181818181818
60171,Cook County,IL,94.0909090909091
60174,Kane County,IL,39.54545454545455
60193,Cook County,IL,9.545454545454547
60429,Cook County,IL,79.0909090909091
60450,Grundy County,IL,89.0909090909091
60502,DuPage County,IL,84.54545454545455
60515,DuPage County,IL,37.27272727272727
60561,DuPage County,IL,35
60636,Cook County,IL,69.54545454545455
61115,Winnebago County,IL,28.636363636363637
61240,Rock Island County,IL,99.0909090909091
46341,Porter County,IN,59.09090909090909
46368,Porter County,IN,1.3636363636363635
46923,Carroll County,IN,99.54545454545455
47362,Henry County,IN,10.454545454545453
47374,Wayne County,IN,74.54545454545455
50613,Black Hawk County,IA,47.27272727272727
52136,Howard County,IA,86.81818181818181
52761,Muscatine County,IA,11.818181818181818
66209,Johnson County,KS,44.54545454545455
66212,Johnson County,KS,14.545454545454545
40218,Jefferson County,KY,40
70043,St. Bernard Parish,LA,81.81818181818183
70130,Orleans Parish,LA,98.63636363636363
70570,St. Landry Parish,LA,59.54545454545455
70726,Livingston Parish,LA,85
70754,Livingston Parish,LA,74.0909090909091
71263,West Carroll Parish,LA,94.54545454545455
21228,Baltimore County,MD,45
01570,Worcester County,MA,5
01702,Middlesex County,MA,88.63636363636364
01854,Middlesex County,MA,6.363636363636363
01906,Essex County,MA,8.636363636363637
02021,Norfolk County,MA,62.272727272727266
02150,Suffolk County,MA,0.9090909090909091
02467,Norfolk County,MA,32.27272727272727
02724,Bristol County,MA,32.72727272727273
02726,Bristol County,MA,31.818181818181817
48066,Macomb County,MI,7.727272727272727
48105,Washtenaw County,MI,14.09090909090909
48128,Wayne County,MI,70
48154,Wayne County,MI,7.2727272727272725
48162,Monroe County,MI,4.545454545454546
48187,Wayne County,MI,19.545454545454547
48609,Saginaw County,MI,58.63636363636363
48632,Clare County,MI,90.45454545454545
48708,Bay County,MI,69.0909090909091
49091,St. Joseph County,MI,39.09090909090909
49783,Chippewa County,MI,21.363636363636363
49913,Houghton County,MI,63.63636363636363
55105,Ramsey County,MN,60
55128,Washington County,MN,53.18181818181819
55129,Washington County,MN,92.72727272727272
55304,Anoka County,MN,44.09090909090909
55413,Hennepin County,MN,48.63636363636364
55792,St. Louis County,MN,33.63636363636363
39507,Harrison County,MS,36.36363636363637
63010,Jefferson County,MO,27.727272727272727
65203,Boone County,MO,42.72727272727273
59718,Gallatin County,MT,85.45454545454545
68803,Hall County,NE,50.45454545454545
89149,Clark County,NV,50.45454545454545
07055,Passaic County,NJ,4.090909090909091
07522,Passaic County,NJ,62.272727272727266
07762,Monmouth County,NJ,91.81818181818183
10029,New York County,NY,0
10044,New York County,NY,90
10310,Richmond County,NY,41.36363636363637
10458,Bronx County,NY,0.45454545454545453
10462,Bronx County,NY,49.09090909090909
10509,Putnam County,NY,76.81818181818181
11220,Kings County,NY,26.81818181818182
11354,Queens County,NY,35.45454545454545
11357,Queens County,NY,46.36363636363636
11432,Queens County,NY,37.72727272727273
11433,Queens County,NY,30.454545454545457
12205,Albany County,NY,43.63636363636363
12901,Clinton County,NY,30
13021,Cayuga County,NY,2.272727272727273
13669,St. Lawrence County,NY,23.636363636363637
14103,Orleans County,NY,70.45454545454545
14489,Wayne County,NY,61.81818181818181
14534,Monroe County,NY,1.8181818181818181
14850,Tompkins County,NY,34.54545454545455
28625,Iredell County,NC,19.090909090909093
28786,Haywood County,NC,18.636363636363637
43512,Defiance County,OH,5.909090909090909
43604,Lucas County,OH,51.81818181818182
44133,Cuyahoga County,OH,11.363636363636363
44221,Summit County,OH,17.272727272727273
44241,Portage County,OH,22.272727272727273
44405,Mahoning County,OH,61.36363636363637
44440,Trumbull County,OH,95.45454545454545
44641,Stark County,OH,98.18181818181819
44647,Stark County,OH,43.18181818181818
44662,Stark County,OH,56.81818181818182
45133,Highland County,OH,21.818181818181817
45240,Hamilton County,OH,45.45454545454545
45249,Hamilton County,OH,77.72727272727272
45371,Miami County,OH,20.909090909090907
45503,Clark County,OH,10.909090909090908
45662,Scioto County,OH,2.727272727272727
45710,Athens County,OH,97.27272727272728
74344,Delaware County,OK,71.81818181818181
97219,Multnomah County,OR,31.363636363636367
97361,Polk County,OR,80.45454545454545
97386,Linn County,OR,40.45454545454545
15110,Allegheny County,PA,85.9090909090909
15202,Allegheny County,PA,66.36363636363637
15208,Allegheny County,PA,96.36363636363636
15218,Allegheny County,PA,90.9090909090909
17104,Dauphin County,PA,65
17837,Union County,PA,40.909090909090914
17870,Snyder County,PA,60.909090909090914
19029,Delaware County,PA,100
19134,Philadelphia County,PA,12.727272727272727
19390,Chester County,PA,57.27272727272727
19464,Montgomery County,PA,6.8181818181818175
02864,Providence County,RI,16.363636363636363
29303,Spartanburg County,SC,55.45454545454545
29349,Spartanburg County,SC,20
29360,Laurens County,SC,65.9090909090909
29388,Spartanburg County,SC,70.9090909090909
29582,Horry County,SC,75
29681,Greenville County,SC,13.636363636363635
57006,Brookings County,SD,41.81818181818181
37745,Greene County,TN,25
38135,Shelby County,TN,87.27272727272727
38574,Putnam County,TN,63.18181818181819
75050,Dallas County,TX,83.18181818181817
75063,Dallas County,TX,80.45454545454545
75228,Dallas County,TX,20.454545454545457
75561,Bowie County,TX,89.54545454545455
76522,Coryell County,TX,10
77351,Polk County,TX,24.09090909090909
77356,Montgomery County,TX,78.18181818181819
77581,Brazoria County,TX,22.727272727272727
77703,Jefferson County,TX,86.36363636363636
78201,Bexar County,TX,54.090909090909086
79110,Randall County,TX,76.36363636363637
79720,Howard County,TX,73.18181818181819
84060,Summit County,UT,82.27272727272728
23320,Chesapeake city,VA,15.909090909090908
23321,Chesapeake city,VA,34.090909090909086
23455,Virginia Beach city,VA,9.090909090909092
23901,Prince Edward County,VA,93.18181818181817
24014,Roanoke city,VA,30.909090909090907
98208,Snohomish County,WA,27.27272727272727
98541,Grays Harbor County,WA,77.27272727272727
98682,Clark County,WA,45.909090909090914
98802,Douglas County,WA,29.545454545454547
25701,Cabell County,WV,15.454545454545453
53081,Sheboygan County,WI,68.18181818181817
53143,Kenosha County,WI,29.09090909090909
54467,Portage County,WI,87.72727272727273
54868,Barron County,WI,46.81818181818182
82201,Platte County,WY,83.63636363636363
