ZipCode,county,state,Adult,Retirement,Geriatric
35010,Tallapoosa County,AL,NA,NA,32.22222222222222
35057,Cullman County,AL,NA,80.76923076923077,NA
35117,Jefferson County,AL,91.57706093189965,NA,NA
35120,St. Clair County,AL,NA,NA,97.03703703703704
35150,Talladega County,AL,42.11469534050179,NA,NA
35204,Jefferson County,AL,NA,67.19457013574662,NA
35242,Shelby County,AL,32.795698924731184,NA,NA
35501,Walker County,AL,NA,81.90045248868778,NA
35603,Morgan County,AL,NA,NA,30.37037037037037
35630,Lauderdale County,AL,NA,36.199095022624434,NA
35634,Lauderdale County,AL,NA,NA,92.96296296296296
35645,Lauderdale County,AL,73.65591397849462,NA,NA
35802,Madison County,AL,NA,65.61085972850678,NA
35903,Etowah County,AL,NA,30.542986425339368,NA
35951,Marshall County,AL,66.84587813620072,NA,NA
36272,Calhoun County,AL,50,NA,NA
36301,Houston County,AL,NA,11.990950226244344,NA
36420,Covington County,AL,56.63082437275986,NA,NA
36460,Monroe County,AL,NA,NA,91.48148148148148
36502,Escambia County,AL,46.59498207885305,NA,NA
36545,Clarke County,AL,NA,86.87782805429865,NA
36617,Mobile County,AL,NA,85.06787330316742,NA
36863,Chambers County,AL,80.46594982078852,NA,NA
99603,Kenai Peninsula Borough,AK,79.74910394265234,NA,NA
99835,Sitka City and Borough,AK,62.18637992831542,NA,NA
99901,Ketchikan Gateway Borough,AK,43.90681003584229,NA,NA
85007,Maricopa County,AZ,NA,NA,75.92592592592592
85012,Maricopa County,AZ,87.81362007168458,NA,NA
85023,Maricopa County,AZ,NA,61.085972850678736,NA
85142,Maricopa County,AZ,12.007168458781361,26.69683257918552,NA
85206,Maricopa County,AZ,NA,32.35294117647059,12.592592592592592
85210,Maricopa County,AZ,57.70609318996416,NA,NA
85323,Maricopa County,AZ,33.33333333333333,NA,NA
85326,Maricopa County,AZ,NA,75.56561085972851,NA
85383,Maricopa County,AZ,NA,37.55656108597285,NA
85629,Pima County,AZ,NA,NA,94.44444444444444
85658,Pima County,AZ,NA,65.38461538461539,NA
85718,Pima County,AZ,NA,NA,57.407407407407405
85739,Pinal County,AZ,67.02508960573476,NA,NA
85747,Pima County,AZ,NA,80.31674208144797,NA
86005,Coconino County,AZ,NA,90.49773755656109,NA
86303,Yavapai County,AZ,NA,NA,53.70370370370371
86326,Yavapai County,AZ,NA,NA,21.85185185185185
86401,Mohave County,AZ,NA,NA,48.148148148148145
86406,Mohave County,AZ,NA,62.66968325791855,NA
86426,Mohave County,AZ,NA,55.203619909502265,NA
71635,Ashley County,AR,NA,60.633484162895925,NA
71801,Hempstead County,AR,89.96415770609319,NA,NA
72227,Pulaski County,AR,NA,NA,59.25925925925925
72450,Greene County,AR,NA,25.791855203619914,NA
72653,Baxter County,AR,NA,NA,11.11111111111111
72704,Washington County,AR,81.36200716845879,NA,NA
72730,Washington County,AR,NA,NA,95.92592592592592
90005,Los Angeles County,CA,NA,75.3393665158371,NA
90011,Los Angeles County,CA,NA,46.380090497737555,NA
90022,Los Angeles County,CA,69.53405017921148,NA,NA
90036,Los Angeles County,CA,NA,NA,33.7037037037037
90045,Los Angeles County,CA,65.41218637992831,NA,NA
90220,Los Angeles County,CA,34.229390681003586,NA,NA
90247,Los Angeles County,CA,NA,51.58371040723983,NA
90262,Los Angeles County,CA,35.483870967741936,NA,NA
90270,Los Angeles County,CA,87.09677419354838,NA,NA
90501,Los Angeles County,CA,50.89605734767025,59.04977375565611,NA
91214,Los Angeles County,CA,NA,76.47058823529412,NA
91335,Los Angeles County,CA,31.72043010752688,NA,NA
91601,Los Angeles County,CA,NA,NA,71.48148148148148
91607,Los Angeles County,CA,NA,93.21266968325791,NA
91702,Los Angeles County,CA,32.437275985663085,NA,NA
91733,Los Angeles County,CA,67.74193548387096,NA,NA
91744,Los Angeles County,CA,52.1505376344086,NA,NA
91745,Los Angeles County,CA,68.27956989247312,NA,NA
91764,San Bernardino County,CA,37.634408602150536,NA,NA
91784,San Bernardino County,CA,74.55197132616487,NA,NA
91789,Los Angeles County,CA,NA,62.217194570135746,NA
92024,San Diego County,CA,42.831541218637994,NA,NA
92065,San Diego County,CA,51.971326164874554,NA,NA
92081,San Diego County,CA,NA,NA,79.62962962962963
92105,San Diego County,CA,18.45878136200717,NA,NA
92114,San Diego County,CA,NA,NA,31.851851851851855
92122,San Diego County,CA,74.73118279569893,67.64705882352942,NA
92126,San Diego County,CA,NA,69.00452488687783,NA
92223,Riverside County,CA,NA,74.8868778280543,NA
92307,San Bernardino County,CA,29.211469534050178,NA,NA
92345,San Bernardino County,CA,11.827956989247312,NA,NA
92359,San Bernardino County,CA,NA,NA,98.51851851851852
92374,San Bernardino County,CA,45.69892473118279,NA,NA
92404,San Bernardino County,CA,50.358422939068106,NA,NA
92563,Riverside County,CA,34.40860215053764,NA,NA
92567,Riverside County,CA,NA,NA,99.62962962962963
92584,Riverside County,CA,NA,59.72850678733032,NA
92604,Orange County,CA,NA,64.02714932126696,NA
92610,Orange County,CA,91.93548387096774,NA,NA
92649,Orange County,CA,57.52688172043011,NA,NA
92673,Orange County,CA,67.56272401433692,NA,NA
92691,Orange County,CA,NA,20.361990950226243,NA
92807,Orange County,CA,NA,73.52941176470588,NA
92832,Orange County,CA,NA,67.42081447963801,NA
92841,Orange County,CA,76.52329749103941,NA,NA
92870,Orange County,CA,NA,22.850678733031675,NA
92880,Riverside County,CA,NA,56.56108597285068,NA
93110,Santa Barbara County,CA,NA,86.42533936651584,NA
93215,Kern County,CA,85.66308243727599,NA,NA
93274,Tulare County,CA,7.168458781362006,NA,NA
93308,Kern County,CA,78.85304659498208,NA,NA
93309,Kern County,CA,NA,30.995475113122172,NA
93455,Santa Barbara County,CA,NA,31.221719457013574,NA
93555,Kern County,CA,25.806451612903224,17.873303167420815,NA
93706,Fresno County,CA,23.835125448028673,NA,NA
94044,San Mateo County,CA,NA,NA,45.55555555555556
94122,San Francisco County,CA,89.24731182795699,NA,NA
94127,San Francisco County,CA,NA,89.14027149321268,NA
94131,San Francisco County,CA,65.59139784946237,NA,NA
94134,San Francisco County,CA,40.32258064516129,NA,31.11111111111111
94301,Santa Clara County,CA,NA,NA,64.44444444444444
94306,Santa Clara County,CA,87.27598566308244,NA,NA
94403,San Mateo County,CA,NA,NA,95.55555555555556
94501,Alameda County,CA,NA,NA,25.185185185185183
94520,Contra Costa County,CA,67.38351254480287,NA,NA
94526,Contra Costa County,CA,NA,NA,48.148148148148145
94531,Contra Costa County,CA,NA,89.36651583710407,NA
94534,Solano County,CA,NA,NA,43.333333333333336
94539,Alameda County,CA,84.76702508960572,NA,NA
94551,Alameda County,CA,NA,54.07239819004525,NA
94578,Alameda County,CA,NA,NA,76.29629629629629
94580,Alameda County,CA,NA,94.79638009049773,NA
94607,Alameda County,CA,NA,NA,72.96296296296296
94806,Contra Costa County,CA,NA,NA,22.962962962962962
94941,Marin County,CA,75.08960573476703,NA,NA
95032,Santa Clara County,CA,NA,95.24886877828054,NA
95119,Santa Clara County,CA,NA,NA,93.7037037037037
95131,Santa Clara County,CA,NA,86.19909502262443,NA
95205,San Joaquin County,CA,NA,NA,75.18518518518519
95207,San Joaquin County,CA,22.759856630824373,NA,NA
95240,San Joaquin County,CA,48.5663082437276,46.60633484162896,NA
95242,San Joaquin County,CA,NA,54.29864253393665,NA
95301,Merced County,CA,NA,64.25339366515837,NA
95307,Stanislaus County,CA,NA,47.963800904977376,NA
95338,Mariposa County,CA,87.63440860215054,NA,NA
95357,Stanislaus County,CA,86.55913978494624,NA,NA
95370,Tuolumne County,CA,61.469534050179206,NA,NA
95470,Mendocino County,CA,NA,96.15384615384616,NA
95501,Humboldt County,CA,54.83870967741935,NA,NA
95618,Yolo County,CA,NA,NA,64.81481481481481
95648,Placer County,CA,NA,25.1131221719457,NA
95742,Sacramento County,CA,94.26523297491039,NA,NA
95747,Placer County,CA,NA,NA,10.74074074074074
95825,Sacramento County,CA,52.508960573476706,NA,NA
95842,Sacramento County,CA,NA,NA,77.4074074074074
95932,Colusa County,CA,NA,83.93665158371041,NA
95963,Glenn County,CA,74.91039426523297,NA,NA
95969,Butte County,CA,80.82437275985663,NA,NA
96001,Shasta County,CA,21.50537634408602,NA,NA
96021,Tehama County,CA,77.24014336917563,NA,NA
96022,Tehama County,CA,82.61648745519713,NA,NA
96080,Tehama County,CA,NA,NA,45.18518518518518
96094,Siskiyou County,CA,95.16129032258065,NA,NA
96161,Nevada County,CA,NA,91.17647058823529,NA
80021,Jefferson County,CO,NA,NA,65.55555555555556
80031,Adams County,CO,40.50179211469534,NA,NA
80126,Douglas County,CO,54.659498207885306,NA,NA
80218,Denver County,CO,62.365591397849464,NA,NA
80525,Larimer County,CO,NA,63.57466063348416,NA
80526,Larimer County,CO,70.43010752688173,NA,NA
80538,Larimer County,CO,14.336917562724013,6.334841628959276,NA
80751,Logan County,CO,44.982078853046595,NA,NA
81001,Pueblo County,CO,22.401433691756274,NA,NA
81082,Las Animas County,CO,NA,NA,57.03703703703704
81201,Chaffee County,CO,84.22939068100358,NA,NA
81321,Montezuma County,CO,NA,NA,52.22222222222223
81521,Mesa County,CO,NA,NA,72.5925925925926
06010,Hartford County,CT,NA,1.583710407239819,NA
06019,Hartford County,CT,NA,98.19004524886877,NA
06029,Tolland County,CT,NA,NA,55.925925925925924
06042,Hartford County,CT,NA,46.15384615384615,NA
06051,Hartford County,CT,4.301075268817205,16.968325791855204,NA
06106,Hartford County,CT,6.093189964157706,NA,NA
06118,Hartford County,CT,25.985663082437277,NA,NA
06238,Tolland County,CT,70.96774193548387,NA,NA
06410,New Haven County,CT,90.32258064516128,NA,NA
06457,Middlesex County,CT,9.498207885304659,39.366515837104075,NA
06460,New Haven County,CT,NA,12.669683257918551,NA
06484,Fairfield County,CT,NA,66.7420814479638,18.88888888888889
06488,New Haven County,CT,NA,NA,13.333333333333334
06492,New Haven County,CT,NA,NA,5.9259259259259265
06512,New Haven County,CT,NA,60.40723981900452,NA
06513,New Haven County,CT,5.017921146953405,NA,NA
06515,New Haven County,CT,30.286738351254485,NA,42.96296296296296
06516,New Haven County,CT,8.24372759856631,NA,NA
06604,Fairfield County,CT,NA,38.009049773755656,NA
06710,New Haven County,CT,60.39426523297491,NA,NA
06801,Fairfield County,CT,NA,NA,65.18518518518519
06902,Fairfield County,CT,21.863799283154123,NA,NA
19702,New Castle County,DE,16.48745519713262,NA,NA
19703,New Castle County,DE,61.82795698924731,NA,NA
19709,New Castle County,DE,21.14695340501792,NA,NA
19720,New Castle County,DE,17.921146953405017,NA,NA
19805,New Castle County,DE,3.225806451612903,NA,NA
19943,Kent County,DE,NA,70.13574660633483,NA
19963,Sussex County,DE,NA,37.55656108597285,NA
32063,Baker County,FL,NA,NA,87.4074074074074
32097,Nassau County,FL,NA,36.199095022624434,NA
32118,Volusia County,FL,NA,65.83710407239819,NA
32207,Duval County,FL,NA,NA,56.2962962962963
32209,Duval County,FL,5.376344086021505,NA,NA
32224,Duval County,FL,60.752688172043015,NA,NA
32303,Leon County,FL,NA,46.83257918552036,NA
32312,Leon County,FL,NA,58.371040723981906,NA
32404,Bay County,FL,25.268817204301076,NA,NA
32409,Bay County,FL,77.59856630824373,NA,NA
32433,Walton County,FL,61.29032258064516,NA,NA
32444,Bay County,FL,70.60931899641577,NA,NA
32459,Walton County,FL,66.48745519713262,NA,67.03703703703704
32460,Jackson County,FL,NA,NA,97.77777777777777
32503,Escambia County,FL,NA,10.633484162895927,NA
32504,Escambia County,FL,53.2258064516129,NA,NA
32535,Escambia County,FL,NA,78.28054298642535,NA
32570,Santa Rosa County,FL,NA,3.8461538461538463,NA
32720,Volusia County,FL,NA,NA,30
32725,Volusia County,FL,NA,NA,39.62962962962963
32757,Lake County,FL,NA,29.411764705882355,NA
32801,Orange County,FL,NA,97.73755656108597,NA
32824,Orange County,FL,45.340501792114694,NA,NA
32958,Indian River County,FL,NA,9.049773755656108,NA
32968,Indian River County,FL,NA,NA,74.44444444444444
33012,Miami-Dade County,FL,NA,22.171945701357465,NA
33021,Broward County,FL,NA,NA,5.555555555555555
33026,Broward County,FL,86.02150537634408,NA,NA
33125,Miami-Dade County,FL,NA,NA,11.851851851851853
33135,Miami-Dade County,FL,NA,72.62443438914026,NA
33157,Miami-Dade County,FL,NA,58.82352941176471,NA
33178,Miami-Dade County,FL,NA,78.05429864253394,NA
33183,Miami-Dade County,FL,80.64516129032258,NA,NA
33185,Miami-Dade County,FL,NA,71.49321266968326,NA
33311,Broward County,FL,8.064516129032258,NA,NA
33314,Broward County,FL,NA,80.99547511312217,NA
33412,Palm Beach County,FL,NA,NA,86.66666666666667
33437,Palm Beach County,FL,82.79569892473118,NA,NA
33442,Broward County,FL,NA,NA,10.37037037037037
33446,Palm Beach County,FL,NA,NA,4.444444444444445
33478,Palm Beach County,FL,NA,85.06787330316742,NA
33603,Hillsborough County,FL,NA,90.9502262443439,NA
33607,Hillsborough County,FL,54.3010752688172,NA,NA
33756,Pinellas County,FL,48.38709677419355,NA,NA
33805,Polk County,FL,NA,35.52036199095023,NA
33837,Polk County,FL,NA,NA,62.96296296296296
33904,Lee County,FL,NA,14.25339366515837,NA
33947,Charlotte County,FL,NA,77.82805429864254,NA
33983,Charlotte County,FL,NA,NA,61.48148148148148
34108,Collier County,FL,NA,57.01357466063348,NA
34201,Manatee County,FL,NA,NA,76.66666666666667
34221,Manatee County,FL,39.96415770609319,27.37556561085973,NA
34231,Sarasota County,FL,NA,NA,4.814814814814815
34232,Sarasota County,FL,NA,33.710407239819006,NA
34234,Sarasota County,FL,NA,NA,44.074074074074076
34235,Sarasota County,FL,84.76702508960572,NA,NA
34655,Pasco County,FL,NA,26.244343891402718,NA
34714,Lake County,FL,75.62724014336918,NA,NA
34715,Lake County,FL,57.168458781362006,NA,NA
34747,Osceola County,FL,NA,60.18099547511312,NA
34758,Osceola County,FL,NA,50.2262443438914,NA
34786,Orange County,FL,NA,50.678733031674206,NA
34982,St. Lucie County,FL,NA,38.23529411764706,NA
34997,Martin County,FL,NA,NA,31.48148148148148
30040,Forsyth County,GA,26.881720430107524,NA,NA
30041,Forsyth County,GA,29.39068100358423,NA,NA
30047,Gwinnett County,GA,85.84229390681004,NA,NA
30062,Cobb County,GA,45.51971326164875,NA,NA
30080,Cobb County,GA,55.017921146953405,NA,NA
30083,DeKalb County,GA,NA,33.03167420814479,NA
30096,Gwinnett County,GA,27.956989247311824,NA,NA
30101,Cobb County,GA,27.598566308243726,NA,NA
30102,Cherokee County,GA,49.10394265232975,NA,NA
30115,Cherokee County,GA,41.21863799283154,NA,NA
30116,Carroll County,GA,NA,79.63800904977376,NA
30125,Polk County,GA,38.35125448028674,NA,NA
30127,Cobb County,GA,52.68817204301075,NA,NA
30143,Pickens County,GA,NA,NA,41.48148148148148
30157,Paulding County,GA,77.77777777777779,NA,NA
30281,Henry County,GA,NA,NA,49.25925925925926
30314,Fulton County,GA,NA,NA,54.074074074074076
30350,Fulton County,GA,NA,NA,66.66666666666666
30401,Emanuel County,GA,72.93906810035843,NA,NA
30461,Bulloch County,GA,77.24014336917563,NA,NA
30707,Walker County,GA,44.2652329749104,NA,NA
30728,Walker County,GA,38.70967741935484,NA,NA
30809,Columbia County,GA,37.096774193548384,9.95475113122172,NA
30907,Columbia County,GA,26.523297491039425,NA,NA
31024,Putnam County,GA,NA,40.95022624434389,NA
31047,Houston County,GA,NA,80.54298642533936,NA
31632,Lowndes County,GA,83.69175627240143,NA,NA
31707,Dougherty County,GA,NA,41.6289592760181,NA
31730,Mitchell County,GA,NA,NA,88.88888888888889
31833,Troup County,GA,79.39068100358423,NA,NA
31903,Muscogee County,GA,NA,NA,62.22222222222222
39819,Decatur County,GA,NA,NA,70.74074074074073
96720,Hawaii County,HI,35.12544802867383,NA,NA
96782,Honolulu County,HI,37.45519713261648,NA,NA
96789,Honolulu County,HI,NA,5.429864253393665,NA
96814,Honolulu County,HI,71.50537634408603,NA,NA
96818,Honolulu County,HI,NA,NA,35.18518518518518
96822,Honolulu County,HI,NA,56.10859728506787,NA
83211,Power County,ID,NA,NA,94.81481481481482
83301,Twin Falls County,ID,NA,NA,0
83422,Teton County,ID,NA,99.3212669683258,NA
83440,Madison County,ID,72.40143369175627,NA,NA
83501,Nez Perce County,ID,NA,NA,6.296296296296296
83686,Canyon County,ID,NA,NA,3.7037037037037033
83704,Ada County,ID,50.179211469534046,NA,NA
60010,Lake County,IL,41.03942652329749,NA,NA
60030,Lake County,IL,NA,76.696832579185525,NA
60045,Lake County,IL,NA,NA,15.555555555555555
60046,Lake County,IL,39.784946236559136,NA,NA
60050,McHenry County,IL,72.58064516129032,33.93665158371041,NA
60126,DuPage County,IL,NA,20.588235294117645,NA
60142,McHenry County,IL,NA,8.144796380090497,19.62962962962963
60152,McHenry County,IL,NA,53.39366515837104,NA
60174,Kane County,IL,77.95698924731182,NA,NA
60426,Cook County,IL,NA,24.660633484162897,NA
60430,Cook County,IL,NA,51.80995475113123,NA
60431,Will County,IL,74.37275985663082,NA,NA
60441,Will County,IL,NA,28.733031674208142,NA
60449,Will County,IL,NA,NA,96.29629629629629
60504,DuPage County,IL,NA,61.53846153846154,NA
60525,Cook County,IL,NA,NA,15.925925925925927
60527,DuPage County,IL,NA,7.918552036199094,NA
60543,Kendall County,IL,70.07168458781362,NA,NA
60565,DuPage County,IL,31.899641577060933,NA,NA
60607,Cook County,IL,93.9068100358423,NA,NA
60611,Cook County,IL,58.24372759856631,NA,NA
60612,Cook County,IL,NA,NA,81.48148148148148
60619,Cook County,IL,7.347670250896058,NA,NA
60620,Cook County,IL,NA,2.262443438914027,NA
60629,Cook County,IL,NA,2.7149321266968327,NA
60646,Cook County,IL,NA,NA,29.259259259259256
60655,Cook County,IL,29.92831541218638,NA,NA
60657,Cook County,IL,21.32616487455197,NA,NA
60660,Cook County,IL,NA,12.44343891402715,NA
60804,Cook County,IL,20.60931899641577,NA,NA
61021,Lee County,IL,33.15412186379928,NA,NA
61025,Jo Daviess County,IL,NA,NA,97.77777777777777
61071,Whiteside County,IL,NA,NA,14.444444444444443
61073,Winnebago County,IL,NA,40.723981900452486,NA
61074,Carroll County,IL,91.21863799283155,NA,NA
61081,Whiteside County,IL,NA,NA,3.3333333333333335
61108,Winnebago County,IL,NA,NA,28.888888888888886
61111,Winnebago County,IL,53.04659498207885,NA,NA
61356,Bureau County,IL,76.70250896057348,NA,NA
61554,Tazewell County,IL,NA,NA,8.518518518518519
61607,Peoria County,IL,NA,NA,71.11111111111111
61611,Tazewell County,IL,NA,NA,49.629629629629626
62401,Effingham County,IL,NA,NA,36.2962962962963
62704,Sangamon County,IL,NA,30.316742081447963,NA
62859,Hamilton County,IL,NA,NA,84.44444444444444
62896,Franklin County,IL,92.831541218638,NA,NA
62959,Williamson County,IL,NA,NA,20.37037037037037
46013,Madison County,IN,NA,NA,34.44444444444444
46034,Hamilton County,IN,NA,NA,85.92592592592592
46052,Boone County,IN,NA,49.7737556561086,NA
46176,Shelby County,IN,17.20430107526882,NA,NA
46203,Marion County,IN,NA,NA,30.74074074074074
46205,Marion County,IN,37.992831541218635,NA,NA
46208,Marion County,IN,36.02150537634409,NA,NA
46220,Marion County,IN,NA,47.511312217194565,NA
46229,Marion County,IN,NA,NA,42.22222222222222
46303,Lake County,IN,NA,41.8552036199095,NA
46341,Porter County,IN,65.23297491039428,NA,NA
46375,Lake County,IN,33.691756272401435,NA,NA
46516,Elkhart County,IN,18.100358422939067,NA,NA
46517,Elkhart County,IN,51.61290322580645,NA,NA
46795,LaGrange County,IN,NA,83.2579185520362,NA
46818,Allen County,IN,NA,47.737556561085974,NA
46902,Howard County,IN,NA,2.48868778280543,NA
46953,Grant County,IN,NA,NA,84.07407407407408
47111,Clark County,IN,NA,NA,70.37037037037037
47201,Bartholomew County,IN,NA,NA,16.666666666666664
47408,Monroe County,IN,96.23655913978494,NA,NA
47610,Warrick County,IN,93.36917562724014,NA,NA
47715,Vanderburgh County,IN,NA,40.27149321266968,NA
50213,Clarke County,IA,79.92831541218638,NA,NA
50701,Black Hawk County,IA,NA,25.565610859728505,NA
51104,Woodbury County,IA,47.31182795698925,NA,NA
51503,Pottawattamie County,IA,NA,NA,28.51851851851852
52001,Dubuque County,IA,16.48745519713262,NA,NA
52101,Winneshiek County,IA,97.67025089605734,NA,NA
52302,Linn County,IA,22.22222222222222,NA,NA
52601,Des Moines County,IA,NA,11.312217194570136,NA
52632,Lee County,IA,41.75627240143369,NA,NA
66207,Johnson County,KS,NA,NA,45.925925925925924
66209,Johnson County,KS,NA,NA,35.92592592592593
66216,Johnson County,KS,NA,83.48416289592761,NA
66508,Marshall County,KS,NA,98.86877828054298,NA
66604,Shawnee County,KS,49.82078853046595,NA,NA
66609,Shawnee County,KS,94.80286738351255,NA,NA
66614,Shawnee County,KS,NA,17.420814479638008,NA
67544,Barton County,KS,99.6415770609319,NA,NA
67601,Ellis County,KS,86.37992831541219,NA,NA
67846,Finney County,KS,NA,NA,24.074074074074073
40014,Oldham County,KY,90.86021505376344,NA,NA
40065,Shelby County,KY,NA,31.447963800904976,86.29629629629629
40165,Bullitt County,KY,45.878136200716845,NA,51.11111111111111
40204,Jefferson County,KY,NA,NA,80
40216,Jefferson County,KY,NA,9.502262443438914,NA
40218,Jefferson County,KY,15.591397849462366,NA,NA
40220,Jefferson County,KY,39.247311827956985,18.099547511312217,NA
40223,Jefferson County,KY,NA,45.47511312217195,NA
40291,Jefferson County,KY,18.996415770609318,NA,NA
40391,Clark County,KY,10.21505376344086,NA,NA
40744,Laurel County,KY,NA,56.10859728506787,NA
40831,Harlan County,KY,74.01433691756273,NA,NA
40965,Bell County,KY,NA,31.90045248868778,85.18518518518519
41056,Mason County,KY,NA,NA,60.370370370370374
41175,Greenup County,KY,NA,85.52036199095022,NA
42003,McCracken County,KY,NA,NA,34.074074074074076
42029,Marshall County,KY,NA,87.33031674208145,NA
42071,Calloway County,KY,NA,43.89140271493213,NA
42211,Trigg County,KY,64.15770609318996,47.28506787330316,NA
42240,Christian County,KY,7.526881720430108,NA,NA
42567,Pulaski County,KY,88.70967741935483,NA,NA
70001,Jefferson Parish,LA,5.197132616487455,NA,NA
70043,St. Bernard Parish,LA,16.129032258064516,NA,NA
70094,Jefferson Parish,LA,6.451612903225806,NA,NA
70117,Orleans Parish,LA,5.734767025089606,NA,NA
70339,Assumption Parish,LA,NA,81.67420814479638,NA
70437,St. Tammany Parish,LA,NA,NA,90
70512,St. Landry Parish,LA,66.12903225806451,NA,NA
70546,Jefferson Davis Parish,LA,29.749103942652326,NA,NA
70578,Acadia Parish,LA,NA,42.76018099547511,NA
70586,Evangeline Parish,LA,16.845878136200717,NA,NA
70706,Livingston Parish,LA,34.05017921146953,NA,NA
70722,East Feliciana Parish,LA,NA,92.98642533936652,NA
70805,East Baton Rouge Parish,LA,NA,28.50678733031674,NA
71112,Bossier Parish,LA,NA,23.52941176470588,NA
71295,Franklin Parish,LA,NA,55.88235294117647,NA
71409,Rapides Parish,LA,91.39784946236558,NA,NA
71457,Natchitoches Parish,LA,NA,24.43438914027149,NA
04011,Cumberland County,ME,NA,26.923076923076923,NA
04037,Oxford County,ME,NA,99.77375565610859,NA
04062,Cumberland County,ME,NA,48.86877828054298,NA
04102,Cumberland County,ME,35.66308243727598,NA,NA
04769,Aroostook County,ME,NA,NA,18.51851851851852
04938,Franklin County,ME,53.76344086021505,NA,NA
20659,St. Mary's County,MD,63.799283154121866,NA,NA
20906,Montgomery County,MD,NA,NA,13.703703703703704
21035,Anne Arundel County,MD,NA,92.76018099547511,NA
21042,Howard County,MD,NA,57.9185520361991,NA
21045,Howard County,MD,NA,69.23076923076923,NA
21048,Carroll County,MD,93.1899641577061,NA,NA
21061,Anne Arundel County,MD,11.469534050179211,NA,NA
21158,Carroll County,MD,NA,66.51583710407239,NA
21209,Baltimore County,MD,64.51612903225806,NA,NA
21215,Baltimore city,MD,NA,NA,42.592592592592595
21217,Baltimore city,MD,NA,14.93212669683258,NA
21221,Baltimore County,MD,NA,83.0316742081448,NA
21502,Allegany County,MD,NA,17.194570135746606,NA
21769,Frederick County,MD,NA,92.53393665158372,NA
21811,Worcester County,MD,NA,62.89592760180995,NA
01002,Hampshire County,MA,NA,NA,59.62962962962963
01201,Berkshire County,MA,0,NA,NA
01463,Middlesex County,MA,47.132616487455195,NA,NA
01464,Middlesex County,MA,70.25089605734766,NA,NA
01504,Worcester County,MA,90.68100358422939,NA,NA
01507,Worcester County,MA,40.681003584229394,NA,NA
01510,Worcester County,MA,NA,NA,40.74074074074074
01550,Worcester County,MA,NA,2.0361990950226243,NA
01569,Worcester County,MA,36.91756272401434,NA,NA
01606,Worcester County,MA,NA,NA,44.81481481481481
01607,Worcester County,MA,15.053763440860216,NA,NA
01612,Worcester County,MA,98.74551971326166,NA,NA
01742,Middlesex County,MA,82.97491039426524,NA,NA
01801,Middlesex County,MA,NA,NA,0.7407407407407408
01906,Essex County,MA,3.046594982078853,NA,NA
01945,Essex County,MA,NA,NA,90.74074074074075
02048,Bristol County,MA,NA,48.41628959276018,NA
02052,Norfolk County,MA,64.15770609318996,NA,NA
02062,Norfolk County,MA,NA,43.43891402714932,NA
02081,Norfolk County,MA,23.297491039426525,NA,NA
02113,Suffolk County,MA,98.38709677419355,NA,NA
02126,Suffolk County,MA,0.7168458781362007,NA,NA
02139,Middlesex County,MA,0.17921146953405018,NA,NA
02149,Middlesex County,MA,NA,50,NA
02155,Middlesex County,MA,NA,NA,0.3703703703703704
02169,Norfolk County,MA,0.5376344086021506,4.298642533936651,NA
02186,Norfolk County,MA,92.65232974910394,NA,NA
02343,Norfolk County,MA,NA,NA,87.77777777777777
02382,Plymouth County,MA,89.78494623655914,NA,NA
02453,Middlesex County,MA,NA,11.085972850678733,NA
02458,Middlesex County,MA,49.283154121863795,NA,NA
02459,Middlesex County,MA,46.236559139784944,NA,NA
02474,Middlesex County,MA,NA,NA,12.962962962962962
02703,Bristol County,MA,1.0752688172043012,NA,NA
02721,Bristol County,MA,NA,3.167420814479638,NA
02740,Bristol County,MA,1.4336917562724014,NA,NA
02745,Bristol County,MA,NA,6.108597285067873,NA
48049,St. Clair County,MI,NA,95.92760180995475,NA
48060,St. Clair County,MI,NA,30.76923076923077,NA
48066,Macomb County,MI,19.35483870967742,NA,NA
48072,Oakland County,MI,53.76344086021505,NA,NA
48098,Oakland County,MI,61.648745519713266,70.58823529411765,NA
48124,Wayne County,MI,NA,23.30316742081448,NA
48150,Wayne County,MI,28.49462365591398,NA,NA
48152,Wayne County,MI,NA,NA,9.25925925925926
48161,Monroe County,MI,8.960573476702509,NA,NA
48169,Livingston County,MI,NA,NA,38.148148148148145
48182,Monroe County,MI,NA,42.30769230769231,NA
48183,Wayne County,MI,NA,4.524886877828054,12.222222222222221
48185,Wayne County,MI,6.989247311827956,NA,7.4074074074074066
48186,Wayne County,MI,NA,NA,60
48187,Wayne County,MI,NA,1.3574660633484164,NA
48221,Wayne County,MI,68.10035842293907,NA,NA
48228,Wayne County,MI,13.620071684587815,NA,NA
48240,Wayne County,MI,20.967741935483872,NA,NA
48313,Macomb County,MI,NA,NA,22.59259259259259
48315,Macomb County,MI,NA,NA,29.629629629629626
48316,Macomb County,MI,NA,45.022624434389144,NA
48328,Oakland County,MI,39.42652329749104,NA,NA
48329,Oakland County,MI,34.587813620071685,19.230769230769234,NA
48429,Shiawassee County,MI,65.94982078853047,NA,NA
48451,Genesee County,MI,NA,76.01809954751131,NA
48519,Genesee County,MI,NA,NA,85.55555555555556
48532,Genesee County,MI,39.60573476702509,NA,NA
48604,Saginaw County,MI,91.93548387096774,NA,NA
48612,Gladwin County,MI,62.903225806451616,NA,NA
48617,Clare County,MI,NA,64.47963800904978,NA
48625,Clare County,MI,NA,20.13574660633484,NA
48629,Roscommon County,MI,NA,68.55203619909503,NA
48657,Midland County,MI,NA,67.87330316742081,NA
48723,Tuscola County,MI,29.03225806451613,23.755656108597282,NA
48730,Iosco County,MI,96.7741935483871,NA,NA
48750,Iosco County,MI,NA,62.44343891402715,NA
48843,Livingston County,MI,14.516129032258066,NA,NA
48848,Shiawassee County,MI,NA,75.7918552036199,NA
48906,Ingham County,MI,14.874551971326163,NA,36.666666666666664
49001,Kalamazoo County,MI,NA,55.65610859728507,NA
49006,Kalamazoo County,MI,NA,63.348416289592755,NA
49014,Calhoun County,MI,20.07168458781362,NA,NA
49017,Calhoun County,MI,30.64516129032258,24.8868778280543,NA
49048,Kalamazoo County,MI,51.25448028673835,NA,NA
49058,Barry County,MI,87.45519713261649,NA,NA
49065,Van Buren County,MI,NA,NA,95.18518518518519
49120,Berrien County,MI,NA,11.538461538461538,NA
49203,Jackson County,MI,9.13978494623656,NA,NA
49441,Muskegon County,MI,NA,NA,1.8518518518518516
49442,Muskegon County,MI,36.73835125448029,NA,NA
49444,Muskegon County,MI,36.37992831541219,NA,NA
49519,Kent County,MI,67.20430107526882,NA,NA
49525,Kent County,MI,NA,NA,82.96296296296296
49721,Cheboygan County,MI,NA,NA,40.370370370370374
49801,Dickinson County,MI,NA,41.40271493212669,NA
49829,Delta County,MI,NA,65.15837104072398,NA
49837,Delta County,MI,55.19713261648745,NA,NA
49854,Schoolcraft County,MI,NA,NA,63.70370370370371
49858,Menominee County,MI,NA,NA,63.33333333333333
55014,Anoka County,MN,NA,69.45701357466064,NA
55041,Wabasha County,MN,NA,NA,55.55555555555556
55066,Goodhue County,MN,NA,NA,11.481481481481481
55124,Dakota County,MN,NA,39.81900452488688,NA
55303,Anoka County,MN,NA,34.841628959276015,NA
55316,Hennepin County,MN,NA,98.64253393665159,NA
55376,Wright County,MN,86.73835125448028,NA,NA
55412,Hennepin County,MN,NA,NA,69.62962962962963
55416,Hennepin County,MN,NA,NA,41.11111111111111
55417,Hennepin County,MN,NA,50.90497737556561,NA
55422,Hennepin County,MN,31.00358422939068,NA,NA
55445,Hennepin County,MN,80.10752688172043,NA,NA
55446,Hennepin County,MN,NA,NA,75.55555555555556
55811,St. Louis County,MN,64.87455197132617,NA,NA
55987,Winona County,MN,10.03584229390681,NA,1.4814814814814816
56258,Lyon County,MN,NA,NA,47.03703703703704
56267,Stevens County,MN,NA,54.97737556561086,NA
56364,Morrison County,MN,97.4910394265233,NA,NA
56468,Crow Wing County,MN,99.2831541218638,NA,NA
56515,Otter Tail County,MN,NA,88.00904977375565,NA
56537,Otter Tail County,MN,NA,40.04524886877828,NA
38834,Alcorn County,MS,NA,25.339366515837103,NA
38846,Alcorn County,MS,99.46236559139786,NA,NA
38901,Grenada County,MS,NA,NA,44.074074074074076
38930,Leflore County,MS,40.86021505376344,NA,67.4074074074074
39042,Rankin County,MS,NA,66.289592760181,NA
39170,Hinds County,MS,NA,87.78280542986425,NA
39301,Lauderdale County,MS,19.71326164874552,NA,NA
39350,Neshoba County,MS,27.060931899641577,NA,NA
39440,Jones County,MS,NA,57.692307692307686,NA
39466,Pearl River County,MS,60.93189964157706,NA,57.77777777777777
39581,Jackson County,MS,80.28673835125448,NA,NA
39705,Lowndes County,MS,68.45878136200717,NA,NA
63020,Jefferson County,MO,NA,91.6289592760181,NA
63069,Franklin County,MO,78.67383512544804,NA,NA
63116,St. Louis city,MO,35.842293906810035,NA,NA
63122,St. Louis County,MO,NA,NA,9.62962962962963
63129,St. Louis County,MO,76.88172043010752,NA,NA
63136,St. Louis County,MO,8.24372759856631,NA,NA
63303,St. Charles County,MO,24.014336917562723,NA,NA
63304,St. Charles County,MO,30.824372759856633,NA,NA
63334,Pike County,MO,NA,NA,90.37037037037037
63376,St. Charles County,MO,11.648745519713263,NA,NA
63845,Mississippi County,MO,NA,74.43438914027149,NA
64030,Jackson County,MO,NA,53.84615384615385,NA
64050,Jackson County,MO,16.30824372759857,NA,NA
64052,Jackson County,MO,12.186379928315413,NA,NA
64057,Jackson County,MO,92.47311827956989,NA,NA
64068,Clay County,MO,NA,4.97737556561086,NA
64081,Jackson County,MO,47.67025089605735,NA,NA
64093,Johnson County,MO,36.200716845878134,NA,NA
64119,Clay County,MO,12.365591397849462,NA,NA
64134,Jackson County,MO,NA,36.65158371040724,NA
64151,Platte County,MO,32.25806451612903,NA,NA
64157,Clay County,MO,34.946236559139784,NA,NA
64601,Livingston County,MO,NA,76.2443438914027,NA
64701,Cass County,MO,NA,61.76470588235294,NA
65202,Boone County,MO,12.903225806451612,NA,NA
65542,Texas County,MO,NA,NA,91.11111111111111
65560,Dent County,MO,NA,52.03619909502263,NA
59701,Silver Bow County,MT,NA,38.91402714932127,NA
59802,Missoula County,MT,86.20071684587813,NA,NA
59828,Ravalli County,MT,NA,82.35294117647058,NA
59917,Lincoln County,MT,NA,79.18552036199095,NA
68105,Douglas County,NE,69.35483870967742,NA,NA
68117,Douglas County,NE,NA,87.55656108597285,NA
68122,Douglas County,NE,NA,88.46153846153845,NA
68152,Douglas County,NE,NA,88.23529411764706,NA
69101,Lincoln County,NE,24.551971326164875,NA,NA
89138,Clark County,NV,NA,94.57013574660633,NA
89141,Clark County,NV,79.03225806451613,NA,NA
89147,Clark County,NV,NA,50.452488687782804,NA
89434,Washoe County,NV,NA,NA,72.22222222222221
89460,Douglas County,NV,NA,48.64253393665158,NA
89511,Washoe County,NV,NA,63.80090497737556,NA
89521,Washoe County,NV,52.32974910394266,33.257918552036195,NA
89523,Washoe County,NV,55.55555555555556,NA,NA
03054,Hillsborough County,NH,NA,14.479638009049776,NA
03842,Rockingham County,NH,72.75985663082437,NA,NA
07013,Passaic County,NJ,42.65232974910394,NA,NA
07044,Essex County,NJ,NA,85.74660633484163,NA
07047,Hudson County,NJ,NA,9.276018099547512,NA
07054,Morris County,NJ,NA,34.61538461538461,NA
07060,Union County,NJ,NA,21.040723981900452,NA
07067,Middlesex County,NJ,NA,73.7556561085973,NA
07087,Hudson County,NJ,3.584229390681003,NA,NA
07095,Middlesex County,NJ,41.39784946236559,NA,NA
07307,Hudson County,NJ,13.261648745519713,NA,NA
07503,Passaic County,NJ,71.68458781362007,NA,NA
07524,Passaic County,NJ,30.46594982078853,NA,NA
07735,Monmouth County,NJ,66.30824372759857,NA,NA
07860,Sussex County,NJ,60.93189964157706,NA,NA
08002,Camden County,NJ,22.939068100358423,NA,NA
08079,Salem County,NJ,NA,47.05882352941176,NA
08085,Gloucester County,NJ,24.731182795698924,NA,NA
08225,Atlantic County,NJ,NA,NA,88.14814814814815
08234,Atlantic County,NJ,4.838709677419355,NA,NA
08244,Atlantic County,NJ,NA,98.41628959276018,NA
08540,Mercer County,NJ,NA,35.97285067873303,NA
08817,Middlesex County,NJ,22.043010752688172,NA,NA
08830,Middlesex County,NJ,73.83512544802868,NA,NA
08848,Hunterdon County,NJ,NA,84.38914027149322,NA
08857,Middlesex County,NJ,9.67741935483871,NA,NA
87059,Bernalillo County,NM,NA,81.22171945701358,NA
87109,Bernalillo County,NM,NA,79.41176470588235,NA
87122,Bernalillo County,NM,NA,95.47511312217195,NA
87124,Sandoval County,NM,NA,7.013574660633484,NA
87313,McKinley County,NM,NA,95.02262443438913,NA
87417,San Juan County,NM,NA,99.5475113122172,NA
87506,Santa Fe County,NM,95.51971326164875,NA,NA
87532,Santa Fe County,NM,NA,NA,54.81481481481482
87544,Los Alamos County,NM,NA,59.502262443438916,NA
88007,Doa Ana County,NM,58.78136200716846,NA,NA
88101,Curry County,NM,NA,NA,6.666666666666667
88210,Eddy County,NM,NA,61.990950226244344,NA
88220,Eddy County,NM,21.68458781362007,NA,NA
10021,New York County,NY,NA,26.018099547511316,NA
10022,New York County,NY,NA,NA,25.185185185185183
10044,New York County,NY,NA,NA,87.03703703703704
10314,Richmond County,NY,43.01075268817204,NA,NA
10454,Bronx County,NY,28.673835125448026,NA,NA
10470,Bronx County,NY,NA,NA,74.07407407407408
10473,Bronx County,NY,5.555555555555555,NA,NA
10923,Rockland County,NY,NA,NA,98.88888888888889
10940,Orange County,NY,17.562724014336915,NA,NA
11214,Kings County,NY,17.025089605734767,NA,NA
11218,Kings County,NY,NA,NA,35.55555555555556
11225,Kings County,NY,NA,NA,32.592592592592595
11233,Kings County,NY,2.1505376344086025,NA,NA
11354,Queens County,NY,48.924731182795696,NA,NA
11355,Queens County,NY,NA,NA,17.40740740740741
11358,Queens County,NY,NA,58.144796380090504,NA
11421,Queens County,NY,34.76702508960574,NA,NA
11557,Nassau County,NY,NA,NA,89.62962962962962
11691,Queens County,NY,10.75268817204301,NA,NA
11731,Suffolk County,NY,84.58781362007169,NA,NA
11740,Suffolk County,NY,NA,91.4027149321267,NA
12065,Saratoga County,NY,24.372759856630825,NA,NA
12184,Columbia County,NY,NA,84.16289592760181,NA
12306,Schenectady County,NY,33.691756272401435,NA,NA
12534,Columbia County,NY,NA,17.647058823529413,17.037037037037038
12803,Saratoga County,NY,68.99641577060932,NA,NA
12986,Franklin County,NY,NA,76.92307692307693,NA
13036,Oswego County,NY,NA,80.09049773755656,NA
13165,Seneca County,NY,27.77777777777778,NA,NA
13212,Onondaga County,NY,NA,58.59728506787331,NA
13413,Oneida County,NY,NA,NA,27.037037037037038
13440,Oneida County,NY,NA,NA,8.88888888888889
13452,Montgomery County,NY,85.48387096774194,NA,NA
13617,St. Lawrence County,NY,NA,35.294117647058826,NA
13619,Jefferson County,NY,78.13620071684588,NA,NA
13625,St. Lawrence County,NY,97.84946236559139,NA,NA
13676,St. Lawrence County,NY,32.97491039426524,NA,NA
13797,Broome County,NY,96.05734767025089,NA,NA
14006,Erie County,NY,NA,85.97285067873304,NA
14020,Genesee County,NY,NA,NA,28.14814814814815
14048,Chautauqua County,NY,37.81362007168459,42.081447963800905,NA
14070,Erie County,NY,NA,88.91402714932126,NA
14075,Erie County,NY,10.39426523297491,NA,NA
14085,Erie County,NY,85.12544802867383,NA,NA
14086,Erie County,NY,NA,73.303167420814475,NA
14094,Niagara County,NY,2.3297491039426523,NA,NA
14127,Erie County,NY,NA,NA,56.666666666666664
14208,Erie County,NY,NA,27.149321266968325,NA
14218,Erie County,NY,19.892473118279568,NA,NA
14224,Erie County,NY,6.810035842293908,6.561085972850679,NA
14305,Niagara County,NY,NA,35.06787330316742,NA
14411,Orleans County,NY,28.136200716845877,NA,NA
14424,Ontario County,NY,2.867383512544803,NA,NA
14425,Ontario County,NY,50.358422939068106,NA,NA
14432,Ontario County,NY,NA,51.13122171945701,NA
14502,Wayne County,NY,28.31541218637993,NA,NA
14505,Wayne County,NY,NA,71.04072398190046,NA
14513,Wayne County,NY,NA,22.39819004524887,NA
14551,Wayne County,NY,50.7168458781362,NA,NA
14564,Ontario County,NY,20.43010752688172,NA,NA
14605,Monroe County,NY,10.931899641577061,NA,NA
14618,Monroe County,NY,17.741935483870968,NA,NA
14621,Monroe County,NY,0.8960573476702508,NA,NA
14626,Monroe County,NY,3.405017921146954,NA,NA
14779,Cattaraugus County,NY,NA,82.57918552036199,NA
14810,Steuben County,NY,32.61648745519714,NA,NA
14830,Steuben County,NY,24.193548387096776,NA,NA
14850,Tompkins County,NY,6.272401433691756,NA,NA
14880,Allegany County,NY,96.95340501792114,NA,NA
14891,Schuyler County,NY,92.29390681003584,NA,NA
27023,Forsyth County,NC,NA,59.276018099547514,NA
27239,Davidson County,NC,68.63799283154121,NA,NA
27288,Rockingham County,NC,44.80286738351255,21.71945701357466,NA
27330,Lee County,NC,23.476702508960575,NA,NA
27407,Guilford County,NC,20.25089605734767,NA,NA
27408,Guilford County,NC,87.81362007168458,NA,NA
27509,Granville County,NC,NA,90.27149321266968,NA
27520,Johnston County,NC,NA,NA,52.59259259259259
27526,Wake County,NC,62.00716845878136,NA,NA
27539,Wake County,NC,NA,64.70588235294117,NA
27545,Wake County,NC,76.16487455197132,NA,NA
27546,Harnett County,NC,62.54480286738351,NA,NA
27549,Franklin County,NC,NA,NA,38.88888888888889
27557,Nash County,NC,NA,NA,93.33333333333333
27604,Wake County,NC,NA,41.17647058823529,NA
27614,Wake County,NC,NA,82.80542986425338,NA
27803,Nash County,NC,NA,45.248868778280546,NA
27909,Pasquotank County,NC,14.695340501792115,NA,NA
28052,Gaston County,NC,NA,NA,46.666666666666664
28173,Union County,NC,40.14336917562724,NA,NA
28174,Union County,NC,NA,87.10407239819004,NA
28227,Mecklenburg County,NC,NA,13.34841628959276,NA
28301,Cumberland County,NC,38.35125448028674,NA,NA
28352,Scotland County,NC,26.344086021505376,NA,NA
28364,Robeson County,NC,46.0573476702509,NA,NA
28384,Bladen County,NC,NA,77.14932126696833,NA
28401,New Hanover County,NC,NA,32.80542986425339,NA
28411,New Hanover County,NC,NA,NA,50
28461,Brunswick County,NC,NA,NA,18.14814814814815
28602,Catawba County,NC,22.58064516129032,NA,NA
28612,Burke County,NC,94.08602150537635,56.78733031674208,NA
28625,Iredell County,NC,NA,16.289592760180994,NA
28658,Catawba County,NC,NA,73.98190045248869,NA
28694,Ashe County,NC,98.02867383512545,NA,NA
28704,Buncombe County,NC,68.81720430107528,NA,NA
28714,Yancey County,NC,NA,NA,61.85185185185185
28752,McDowell County,NC,48.2078853046595,NA,NA
28792,Henderson County,NC,32.07885304659498,NA,NA
28904,Clay County,NC,98.56630824372759,NA,NA
58072,Barnes County,ND,91.75627240143369,NA,NA
58103,Cass County,ND,NA,NA,1.1111111111111112
58104,Cass County,ND,NA,NA,2.9629629629629632
58701,Ward County,ND,37.27598566308244,NA,NA
43017,Franklin County,OH,62.72401433691756,NA,NA
43054,Franklin County,OH,NA,NA,99.25925925925925
43055,Licking County,OH,1.7921146953405016,NA,NA
43068,Franklin County,OH,NA,7.6923076923076925,NA
43102,Fairfield County,OH,NA,100,NA
43130,Fairfield County,OH,1.971326164874552,16.515837104072396,NA
43227,Franklin County,OH,NA,NA,41.85185185185185
43402,Wood County,OH,NA,78.73303167420815,NA
43449,Ottawa County,OH,71.14695340501792,NA,NA
43465,Wood County,OH,81.00358422939068,NA,NA
43512,Defiance County,OH,NA,NA,16.296296296296298
43526,Defiance County,OH,88.5304659498208,89.81900452488688,NA
43560,Lucas County,OH,25.627240143369175,NA,83.33333333333334
43605,Lucas County,OH,NA,NA,79.25925925925927
43609,Lucas County,OH,NA,39.59276018099548,NA
43611,Lucas County,OH,15.949820788530467,NA,55.18518518518518
43615,Lucas County,OH,NA,2.941176470588235,NA
43617,Lucas County,OH,89.42652329749103,NA,NA
43920,Columbiana County,OH,35.30465949820788,NA,NA
43935,Belmont County,OH,NA,NA,68.88888888888889
43952,Jefferson County,OH,8.781362007168457,NA,NA
44022,Cuyahoga County,OH,NA,NA,21.11111111111111
44035,Lorain County,OH,NA,0.904977375565611,NA
44044,Lorain County,OH,NA,38.68778280542987,NA
44052,Lorain County,OH,2.5089605734767026,NA,NA
44060,Lake County,OH,7.706093189964158,NA,NA
44102,Cuyahoga County,OH,0.35842293906810035,NA,NA
44104,Cuyahoga County,OH,NA,55.42986425339367,NA
44116,Cuyahoga County,OH,NA,28.28054298642534,NA
44120,Cuyahoga County,OH,NA,19.683257918552037,NA
44131,Cuyahoga County,OH,44.44444444444444,NA,NA
44138,Cuyahoga County,OH,NA,22.624434389140273,NA
44144,Cuyahoga County,OH,NA,5.203619909502263,NA
44145,Cuyahoga County,OH,18.817204301075268,NA,NA
44149,Cuyahoga County,OH,NA,13.800904977375566,NA
44202,Portage County,OH,33.33333333333333,NA,NA
44236,Summit County,OH,82.43727598566308,NA,NA
44256,Medina County,OH,4.480286738351254,NA,NA
44266,Portage County,OH,11.11111111111111,NA,NA
44280,Medina County,OH,NA,NA,74.81481481481481
44301,Summit County,OH,31.182795698924732,NA,NA
44306,Summit County,OH,NA,34.38914027149321,NA
44312,Summit County,OH,NA,NA,61.111111111111114
44321,Summit County,OH,79.56989247311827,NA,NA
44333,Summit County,OH,71.86379928315412,NA,NA
44413,Columbiana County,OH,75.26881720430107,NA,NA
44460,Columbiana County,OH,NA,5.88235294117647,NA
44471,Mahoning County,OH,NA,NA,82.5925925925926
44511,Mahoning County,OH,NA,32.57918552036199,NA
44514,Mahoning County,OH,NA,30.09049773755656,NA
44601,Stark County,OH,7.885304659498208,NA,NA
44615,Carroll County,OH,77.06093189964157,NA,NA
44691,Wayne County,OH,NA,3.619909502262444,NA
44709,Stark County,OH,NA,NA,60.74074074074074
44870,Erie County,OH,63.620071684587806,NA,NA
44875,Richland County,OH,72.93906810035843,NA,NA
44907,Richland County,OH,41.935483870967744,NA,NA
45005,Warren County,OH,NA,52.94117647058824,NA
45040,Warren County,OH,NA,81.44796380090497,NA
45050,Butler County,OH,90.50179211469535,NA,NA
45069,Butler County,OH,NA,15.158371040723981,NA
45171,Brown County,OH,NA,NA,88.51851851851852
45176,Clermont County,OH,88.88888888888889,NA,NA
45209,Hamilton County,OH,93.54838709677419,NA,NA
45213,Hamilton County,OH,NA,NA,77.03703703703704
45238,Hamilton County,OH,15.770609318996415,NA,NA
45241,Hamilton County,OH,71.32616487455196,71.71945701357465,NA
45309,Montgomery County,OH,NA,84.61538461538461,47.77777777777778
45318,Miami County,OH,93.72759856630825,NA,NA
45410,Montgomery County,OH,44.623655913978496,NA,NA
45426,Montgomery County,OH,NA,36.65158371040724,NA
45690,Pike County,OH,NA,12.895927601809957,NA
45801,Allen County,OH,NA,21.49321266968326,NA
45832,Van Wert County,OH,94.98207885304659,NA,NA
45840,Hancock County,OH,2.6881720430107525,NA,NA
73044,Logan County,OK,53.584229390681,NA,NA
73072,Cleveland County,OK,78.49462365591397,NA,NA
73099,Canadian County,OK,15.232974910394265,NA,NA
73135,Oklahoma County,OK,NA,82.12669683257919,NA
73142,Oklahoma County,OK,98.2078853046595,NA,NA
73401,Carter County,OK,15.412186379928317,NA,NA
73533,Stephens County,OK,56.81003584229391,NA,NA
73703,Garfield County,OK,NA,14.027149321266968,NA
73801,Woodward County,OK,64.69534050179212,NA,NA
74006,Washington County,OK,NA,NA,32.96296296296296
74016,Rogers County,OK,95.87813620071685,NA,NA
74033,Tulsa County,OK,NA,89.59276018099548,NA
74066,Creek County,OK,NA,37.33031674208145,NA
74133,Tulsa County,OK,NA,18.32579185520362,NA
74354,Ottawa County,OK,82.07885304659499,NA,NA
74441,Cherokee County,OK,NA,95.70135746606336,NA
74604,Kay County,OK,NA,84.61538461538461,NA
74801,Pottawatomie County,OK,NA,NA,43.333333333333336
74953,Le Flore County,OK,83.51254480286738,NA,NA
97008,Washington County,OR,59.49820788530465,NA,NA
97031,Hood River County,OR,70.60931899641577,NA,NA
97089,Clackamas County,OR,NA,78.95927601809954,NA
97128,Yamhill County,OR,19.53405017921147,NA,26.666666666666668
97223,Washington County,OR,29.56989247311828,NA,NA
97229,Washington County,OR,NA,37.10407239819005,NA
97304,Polk County,OR,58.96057347670251,NA,NA
97330,Benton County,OR,NA,26.47058823529412,NA
97411,Coos County,OR,83.87096774193549,NA,NA
97479,Douglas County,OR,NA,54.29864253393665,NA
97520,Jackson County,OR,NA,49.095022624434385,NA
97527,Josephine County,OR,NA,16.7420814479638,23.333333333333332
97850,Union County,OR,NA,27.601809954751133,NA
15001,Beaver County,PA,55.376344086021504,52.71493212669684,NA
15025,Allegheny County,PA,NA,48.19004524886878,NA
15132,Allegheny County,PA,13.799283154121863,NA,NA
15143,Allegheny County,PA,75.80645161290323,NA,NA
15217,Allegheny County,PA,85.30465949820788,NA,NA
15236,Allegheny County,PA,48.74551971326165,NA,NA
15241,Allegheny County,PA,76.34408602150538,NA,NA
15301,Washington County,PA,NA,3.3936651583710407,NA
15342,Washington County,PA,NA,92.3076923076923,NA
15401,Fayette County,PA,NA,NA,7.777777777777778
15417,Fayette County,PA,NA,83.710407239819,NA
15501,Somerset County,PA,NA,97.51131221719457,NA
15658,Westmoreland County,PA,78.13620071684588,NA,NA
15906,Cambria County,PA,58.24372759856631,NA,NA
16001,Butler County,PA,3.942652329749104,NA,NA
16056,Butler County,PA,NA,NA,73.33333333333333
16101,Lawrence County,PA,NA,NA,2.2222222222222223
16148,Mercer County,PA,NA,19.457013574660635,NA
16226,Armstrong County,PA,69.53405017921148,NA,NA
16365,Warren County,PA,NA,66.9683257918552,NA
16502,Erie County,PA,45.16129032258064,NA,NA
16507,Erie County,PA,NA,96.83257918552036,NA
16510,Erie County,PA,NA,NA,23.703703703703706
16511,Erie County,PA,NA,86.42533936651584,NA
16686,Blair County,PA,60.0358422939068,NA,NA
16801,Centre County,PA,NA,NA,14.074074074074074
16823,Centre County,PA,NA,NA,20
16830,Clearfield County,PA,NA,66.06334841628959,NA
16833,Clearfield County,PA,NA,59.95475113122172,NA
17013,Cumberland County,PA,20.78853046594982,NA,NA
17033,Dauphin County,PA,NA,18.552036199095024,NA
17042,Lebanon County,PA,57.8853046594982,NA,NA
17050,Cumberland County,PA,NA,7.46606334841629,NA
17110,Dauphin County,PA,47.491039426523294,NA,NA
17222,Franklin County,PA,NA,NA,71.85185185185186
17347,York County,PA,NA,73.07692307692307,NA
17403,York County,PA,NA,1.809954751131222,19.25925925925926
17777,Northumberland County,PA,NA,78.50678733031674,NA
17842,Snyder County,PA,81.89964157706093,NA,NA
17870,Snyder County,PA,NA,29.86425339366516,NA
17963,Schuylkill County,PA,NA,NA,82.22222222222221
18015,Northampton County,PA,10.39426523297491,NA,NA
18020,Northampton County,PA,NA,NA,26.296296296296294
18045,Northampton County,PA,NA,12.217194570135746,NA
18102,Lehigh County,PA,1.6129032258064515,NA,NA
18103,Lehigh County,PA,6.630824372759856,NA,NA
18202,Luzerne County,PA,NA,NA,50.37037037037037
18411,Lackawanna County,PA,NA,NA,27.77777777777778
18444,Lackawanna County,PA,60.215053763440864,NA,NA
18508,Lackawanna County,PA,NA,NA,78.88888888888889
18702,Luzerne County,PA,8.60215053763441,NA,37.407407407407405
18704,Luzerne County,PA,17.38351254480287,NA,NA
18707,Luzerne County,PA,59.13978494623656,NA,NA
18925,Bucks County,PA,94.6236559139785,NA,NA
19002,Montgomery County,PA,NA,NA,80.74074074074075
19010,Delaware County,PA,58.602150537634415,NA,NA
19013,Delaware County,PA,NA,NA,34.81481481481482
19030,Bucks County,PA,79.21146953405018,NA,NA
19038,Montgomery County,PA,NA,24.20814479638009,NA
19047,Bucks County,PA,59.13978494623656,NA,NA
19064,Delaware County,PA,NA,45.70135746606335,NA
19083,Delaware County,PA,NA,NA,24.814814814814813
19086,Delaware County,PA,NA,90.72398190045249,NA
19087,Chester County,PA,NA,60.85972850678733,NA
19103,Philadelphia County,PA,NA,NA,24.444444444444443
19104,Philadelphia County,PA,12.724014336917563,NA,NA
19111,Philadelphia County,PA,4.121863799283155,NA,NA
19119,Philadelphia County,PA,25.089605734767023,15.610859728506787,NA
19139,Philadelphia County,PA,4.659498207885305,NA,20.74074074074074
19147,Philadelphia County,PA,NA,NA,89.25925925925927
19150,Philadelphia County,PA,NA,23.076923076923077,NA
19154,Philadelphia County,PA,47.67025089605735,14.705882352941178,NA
19344,Chester County,PA,82.25806451612904,NA,NA
19363,Chester County,PA,NA,NA,58.14814814814815
19380,Chester County,PA,NA,53.16742081447964,4.074074074074074
19382,Chester County,PA,NA,6.787330316742081,NA
19401,Montgomery County,PA,NA,19.90950226244344,NA
19403,Montgomery County,PA,NA,4.072398190045249,NA
19454,Montgomery County,PA,75.44802867383513,NA,NA
19539,Berks County,PA,NA,99.09502262443439,NA
19601,Berks County,PA,3.763440860215054,NA,NA
19606,Berks County,PA,12.544802867383511,NA,NA
19610,Berks County,PA,NA,NA,27.40740740740741
02816,Kent County,RI,NA,NA,64.07407407407408
02879,Washington County,RI,NA,70.36199095022624,NA
02889,Kent County,RI,25.448028673835125,NA,NA
02895,Providence County,RI,14.157706093189965,NA,NA
02914,Providence County,RI,NA,NA,25.185185185185183
02919,Providence County,RI,NA,29.638009049773757,NA
02920,Providence County,RI,NA,NA,10
29072,Lexington County,SC,27.419354838709676,NA,NA
29203,Richland County,SC,39.06810035842294,18.552036199095024,NA
29212,Lexington County,SC,NA,43.21266968325792,NA
29407,Charleston County,SC,NA,9.728506787330318,NA
29431,Berkeley County,SC,NA,93.89140271493213,NA
29461,Berkeley County,SC,NA,33.257918552036195,NA
29466,Charleston County,SC,50.89605734767025,NA,NA
29486,Berkeley County,SC,59.85663082437276,NA,NA
29540,Darlington County,SC,96.415770609319,NA,NA
29655,Anderson County,SC,NA,79.86425339366517,NA
29672,Oconee County,SC,NA,68.32579185520362,NA
29715,York County,SC,67.92114695340501,NA,NA
29732,York County,SC,NA,61.31221719457014,NA
29841,Aiken County,SC,NA,29.185520361990953,NA
29860,Edgefield County,SC,NA,69.68325791855203,NA
29927,Jasper County,SC,100,NA,NA
57106,Minnehaha County,SD,57.34767025089605,NA,NA
57252,Grant County,SD,NA,NA,83.7037037037037
37055,Dickson County,TN,NA,42.53393665158371,NA
37087,Wilson County,TN,18.27956989247312,NA,NA
37205,Davidson County,TN,NA,NA,22.22222222222222
37215,Davidson County,TN,NA,63.12217194570135,NA
37363,Hamilton County,TN,NA,74.6606334841629,NA
37379,Hamilton County,TN,42.473118279569896,NA,NA
37664,Sullivan County,TN,55.91397849462365,NA,NA
37738,Sevier County,TN,NA,93.43891402714932,NA
37804,Blount County,TN,NA,16.063348416289593,NA
37846,Loudon County,TN,97.31182795698925,NA,NA
37874,Monroe County,TN,NA,52.03619909502263,58.51851851851851
37876,Sevier County,TN,NA,NA,40
37923,Knox County,TN,NA,40.497737556561084,NA
38012,Haywood County,TN,NA,NA,97.4074074074074
38017,Shelby County,TN,46.95340501792115,52.488687782805435,NA
38114,Shelby County,TN,23.655913978494624,NA,NA
38138,Shelby County,TN,NA,NA,48.888888888888886
38301,Madison County,TN,NA,13.574660633484163,NA
38401,Maury County,TN,51.792114695340494,35.74660633484163,NA
38478,Giles County,TN,58.06451612903226,NA,NA
38483,Lawrence County,TN,NA,91.8552036199095,NA
38544,Putnam County,TN,66.48745519713262,NA,NA
38570,Overton County,TN,NA,NA,77.77777777777779
38583,White County,TN,NA,64.70588235294117,NA
75034,Denton County,TX,38.88888888888889,NA,NA
75048,Dallas County,TX,74.01433691756273,NA,NA
75065,Denton County,TX,NA,97.05882352941177,NA
75070,Collin County,TX,NA,NA,17.77777777777778
75119,Ellis County,TX,56.272401433691755,NA,NA
75161,Kaufman County,TX,NA,NA,94.07407407407408
75189,Rockwall County,TX,NA,77.60180995475113,NA
75217,Dallas County,TX,11.11111111111111,NA,NA
75231,Dallas County,TX,46.774193548387096,NA,NA
75244,Dallas County,TX,89.96415770609319,NA,NA
75563,Cass County,TX,NA,94.34389140271493,NA
75773,Wood County,TX,NA,NA,14.814814814814813
76006,Tarrant County,TX,NA,NA,78.51851851851852
76016,Tarrant County,TX,NA,NA,37.03703703703704
76067,Palo Pinto County,TX,55.55555555555556,57.23981900452488,NA
76105,Tarrant County,TX,54.121863799283155,NA,NA
76115,Tarrant County,TX,NA,97.96380090497738,NA
76118,Tarrant County,TX,NA,NA,78.14814814814814
76140,Tarrant County,TX,NA,44.11764705882353,NA
76244,Tarrant County,TX,26.16487455197133,NA,NA
76248,Tarrant County,TX,65.77060931899642,43.665158371040725,NA
76310,Wichita County,TX,72.22222222222221,NA,NA
76365,Clay County,TX,NA,94.11764705882352,NA
76541,Bell County,TX,NA,44.34389140271493,NA
76667,Limestone County,TX,NA,NA,51.48148148148148
77004,Harris County,TX,NA,44.57013574660634,NA
77011,Harris County,TX,84.05017921146953,NA,NA
77024,Harris County,TX,63.261648745519715,NA,NA
77036,Harris County,TX,NA,21.945701357466064,NA
77063,Harris County,TX,NA,71.94570135746606,NA
77070,Harris County,TX,47.67025089605735,NA,NA
77077,Harris County,TX,NA,32.126696832579185,NA
77083,Harris County,TX,43.18996415770609,NA,NA
77095,Harris County,TX,NA,10.180995475113122,NA
77346,Harris County,TX,56.09318996415771,NA,NA
77351,Polk County,TX,NA,20.81447963800905,NA
77354,Montgomery County,TX,51.4336917562724,NA,NA
77357,Montgomery County,TX,NA,74.2081447963801,NA
77375,Harris County,TX,23.118279569892472,NA,NA
77379,Harris County,TX,NA,NA,46.2962962962963
77380,Montgomery County,TX,73.29749103942652,NA,NA
77386,Montgomery County,TX,NA,88.68778280542986,NA
77441,Fort Bend County,TX,96.95340501792114,NA,NA
77494,Fort Bend County,TX,NA,11.76470588235294,38.51851851851852
77535,Liberty County,TX,41.57706093189964,NA,NA
77541,Brazoria County,TX,NA,NA,84.81481481481481
77546,Galveston County,TX,60.57347670250897,NA,NA
77566,Brazoria County,TX,81.18279569892472,NA,NA
77581,Brazoria County,TX,NA,57.466063348416284,NA
77583,Brazoria County,TX,53.40501792114696,NA,NA
77630,Orange County,TX,NA,34.16289592760181,NA
77840,Brazos County,TX,46.415770609319,NA,NA
77879,Burleson County,TX,NA,69.90950226244344,NA
78043,Webb County,TX,43.36917562724014,NA,NA
78045,Webb County,TX,NA,NA,66.2962962962963
78052,Atascosa County,TX,NA,97.28506787330316,NA
78109,Bexar County,TX,NA,NA,81.11111111111111
78207,Bexar County,TX,NA,10.633484162895927,NA
78239,Bexar County,TX,63.261648745519715,NA,NA
78247,Bexar County,TX,NA,NA,73.70370370370371
78260,Bexar County,TX,83.33333333333334,NA,NA
78572,Hidalgo County,TX,NA,72.39819004524887,NA
78619,Hays County,TX,99.82078853046595,NA,NA
78626,Williamson County,TX,59.67741935483871,NA,NA
78721,Travis County,TX,NA,NA,91.85185185185185
78728,Travis County,TX,81.54121863799283,NA,NA
78748,Travis County,TX,72.04301075268818,NA,NA
79106,Potter County,TX,NA,72.17194570135746,NA
79109,Randall County,TX,NA,44.57013574660634,NA
79119,Randall County,TX,95.51971326164875,NA,NA
79336,Hockley County,TX,NA,NA,68.51851851851852
79382,Lubbock County,TX,NA,96.15384615384616,NA
79407,Lubbock County,TX,49.6415770609319,NA,NA
79606,Taylor County,TX,NA,NA,33.33333333333333
79761,Ector County,TX,52.867383512544805,NA,NA
84015,Davis County,UT,NA,NA,67.77777777777779
84094,Salt Lake County,UT,88.35125448028674,NA,NA
84104,Salt Lake County,UT,NA,68.77828054298642,NA
84107,Salt Lake County,UT,42.29390681003584,NA,NA
84129,,UT,30.107526881720432,NA,NA
84337,Box Elder County,UT,NA,NA,100
84648,Juab County,UT,99.10394265232975,NA,NA
84651,Utah County,UT,NA,93.66515837104072,NA
84770,Washington County,UT,NA,27.828054298642535,7.037037037037037
05403,Chittenden County,VT,63.97849462365591,NA,NA
05701,Rutland County,VT,NA,NA,15.185185185185185
20181,Prince William County,VA,NA,96.60633484162896,NA
22031,Fairfax County,VA,NA,77.14932126696833,NA
22066,Fairfax County,VA,NA,NA,81.85185185185185
22314,Alexandria city,VA,31.36200716845878,NA,NA
22407,Spotsylvania County,VA,NA,15.837104072398189,NA
22802,Harrisonburg city,VA,24.910394265232974,NA,NA
22815,Rockingham County,VA,NA,NA,58.88888888888889
22960,Orange County,VA,NA,NA,70
22963,Fluvanna County,VA,NA,51.35746606334841,NA
23113,Chesterfield County,VA,NA,NA,51.85185185185185
23116,Hanover County,VA,NA,NA,54.44444444444444
23451,Virginia Beach city,VA,NA,NA,2.5925925925925926
23454,Virginia Beach city,VA,NA,8.3710407239819,NA
23462,Virginia Beach city,VA,NA,NA,65.92592592592592
23513,Norfolk city,VA,19.17562724014337,NA,NA
23666,Hampton city,VA,13.082437275985665,NA,NA
23838,Chesterfield County,VA,NA,NA,92.5925925925926
24014,Roanoke city,VA,68.99641577060932,NA,NA
24015,Roanoke city,VA,NA,75.1131221719457,NA
24018,Roanoke County,VA,49.46236559139785,NA,NA
24073,Montgomery County,VA,44.086021505376344,NA,NA
24084,Pulaski County,VA,81.54121863799283,NA,NA
24153,Salem city,VA,NA,15.384615384615385,NA
24201,Bristol city,VA,75.80645161290323,NA,NA
24228,Dickenson County,VA,NA,NA,47.40740740740741
24266,Russell County,VA,95.3405017921147,NA,NA
24401,Staunton city,VA,NA,4.751131221719457,NA
24501,Lynchburg city,VA,NA,39.14027149321267,NA
24540,Danville city,VA,28.85304659498208,NA,NA
24620,Buchanan County,VA,96.59498207885304,NA,NA
98004,King County,WA,NA,NA,39.25925925925926
98027,King County,WA,NA,42.98642533936652,NA
98031,King County,WA,43.54838709677419,NA,NA
98038,King County,WA,NA,NA,53.333333333333336
98105,King County,WA,83.15412186379928,NA,NA
98110,Kitsap County,WA,NA,70.81447963800905,NA
98117,King County,WA,63.08243727598566,NA,NA
98178,King County,WA,56.98924731182796,NA,NA
98198,King County,WA,NA,28.054298642533936,NA
98249,Island County,WA,NA,NA,80.37037037037037
98270,Snohomish County,WA,NA,31.674208144796378,NA
98273,Skagit County,WA,NA,NA,8.148148148148149
98290,Snohomish County,WA,NA,49.321266968325794,NA
98296,Snohomish County,WA,NA,68.09954751131222,NA
98346,Kitsap County,WA,NA,NA,96.66666666666667
98375,Pierce County,WA,54.48028673835126,NA,NA
98499,Pierce County,WA,NA,53.39366515837104,NA
98844,Okanogan County,WA,NA,NA,92.22222222222223
98948,Yakima County,WA,89.6057347670251,NA,NA
99337,Benton County,WA,27.24014336917563,NA,NA
99353,Benton County,WA,NA,NA,62.59259259259259
99362,Walla Walla County,WA,NA,8.597285067873303,NA
20011,District of Columbia,DC,9.85663082437276,NA,NA
24701,Mercer County,WV,NA,28.733031674208142,NA
25177,Kanawha County,WV,43.727598566308245,NA,NA
25314,Kanawha County,WV,56.451612903225815,NA,NA
25506,Lincoln County,WV,93.01075268817203,NA,NA
25514,Wayne County,WV,94.44444444444444,NA,NA
26003,Ohio County,WV,NA,1.1312217194570136,NA
26034,Hancock County,WV,91.0394265232975,NA,NA
26301,Harrison County,WV,73.47670250896059,NA,NA
26554,Marion County,WV,NA,0.22624434389140274,NA
26757,Hampshire County,WV,89.06810035842294,NA,NA
53029,Waukesha County,WI,65.05376344086021,NA,NA
53066,Waukesha County,WI,NA,8.823529411764707,NA
53098,Dodge County,WI,NA,NA,52.59259259259259
53115,Walworth County,WI,NA,72.85067873303167,NA
53128,Walworth County,WI,69.89247311827957,NA,NA
53140,Kenosha County,WI,13.440860215053762,NA,NA
53177,Racine County,WI,NA,NA,68.14814814814815
53209,Milwaukee County,WI,NA,0.4524886877828055,NA
53210,Milwaukee County,WI,9.31899641577061,NA,NA
53211,Milwaukee County,WI,NA,21.266968325791854,NA
53214,Milwaukee County,WI,13.978494623655912,NA,NA
53215,Milwaukee County,WI,5.913978494623656,NA,NA
53217,Milwaukee County,WI,NA,NA,50.74074074074074
53218,Milwaukee County,WI,NA,7.239819004524888,NA
53220,Milwaukee County,WI,NA,23.981900452488688,NA
53227,Milwaukee County,WI,36.55913978494624,NA,NA
53406,Racine County,WI,NA,0.6787330316742082,NA
53511,Rock County,WI,1.2544802867383513,0,NA
53538,Jefferson County,WI,NA,71.26696832579185,NA
53546,Rock County,WI,18.63799283154122,NA,NA
53955,Columbia County,WI,98.9247311827957,NA,NA
54241,Manitowoc County,WI,86.91756272401435,NA,NA
54303,Brown County,WI,NA,90.04524886877829,NA
54409,Langlade County,WI,38.17204301075269,NA,NA
54481,Portage County,WI,NA,13.122171945701359,NA
54494,Wood County,WI,31.54121863799283,NA,NA
54650,La Crosse County,WI,NA,5.656108597285068,NA
54656,Monroe County,WI,NA,NA,21.48148148148148
54669,La Crosse County,WI,88.17204301075269,49.547511312217196,NA
54701,Eau Claire County,WI,NA,NA,37.77777777777778
54720,Eau Claire County,WI,NA,92.0814479638009,NA
54729,Chippewa County,WI,NA,19.004524886877828,NA
54868,Barron County,WI,NA,45.92760180995475,NA
54914,Outagamie County,WI,NA,54.75113122171946,NA
54935,Fond du Lac County,WI,NA,10.407239819004525,5.185185185185185
54952,Winnebago County,WI,NA,38.46153846153847,NA
54956,Winnebago County,WI,26.70250896057348,NA,NA
82718,Campbell County,WY,84.40860215053763,NA,NA
82801,Sheridan County,WY,NA,NA,69.25925925925925
