ZipCode,county,state,Adult
35005,Jefferson County,AL,85.01742160278745
35120,St. Clair County,AL,63.76306620209059
35206,Jefferson County,AL,86.41114982578398
35208,Jefferson County,AL,74.73867595818815
35226,Jefferson County,AL,79.96515679442508
35405,Tuscaloosa County,AL,14.285714285714285
35661,Colbert County,AL,68.98954703832753
36083,Macon County,AL,97.38675958188153
36274,Randolph County,AL,82.57839721254355
36854,Chambers County,AL,65.33101045296166
85035,Maricopa County,AZ,52.09059233449478
85283,Maricopa County,AZ,54.70383275261324
85296,Maricopa County,AZ,40.94076655052265
85301,Maricopa County,AZ,30.139372822299652
85641,Pima County,AZ,84.49477351916377
85719,Pima County,AZ,70.55749128919861
72653,Baxter County,AR,48.954703832752614
90405,Los Angeles County,CA,86.93379790940766
90640,Los Angeles County,CA,41.81184668989547
91351,Los Angeles County,CA,67.94425087108013
91362,Ventura County,CA,69.1637630662021
91941,San Diego County,CA,61.32404181184668
92069,San Diego County,CA,73.17073170731707
92113,San Diego County,CA,31.18466898954704
93012,Ventura County,CA,71.77700348432056
93555,Kern County,CA,31.881533101045296
94025,San Mateo County,CA,53.65853658536586
94086,Santa Clara County,CA,63.41463414634146
94103,San Francisco County,CA,17.770034843205575
94118,San Francisco County,CA,83.62369337979094
94121,San Francisco County,CA,75.60975609756098
94124,San Francisco County,CA,31.70731707317073
94158,San Francisco County,CA,95.1219512195122
94552,Alameda County,CA,92.1602787456446
94558,Napa County,CA,38.153310104529616
94589,Solano County,CA,62.02090592334495
94928,Sonoma County,CA,64.80836236933798
94954,Sonoma County,CA,80.8362369337979
95023,San Benito County,CA,34.84320557491289
95111,Santa Clara County,CA,45.29616724738676
95128,Santa Clara County,CA,72.99651567944251
95404,Sonoma County,CA,75.26132404181185
95603,Placer County,CA,71.42857142857143
95621,Sacramento County,CA,48.43205574912892
95823,Sacramento County,CA,17.59581881533101
80011,Arapahoe County,CO,12.89198606271777
80014,Arapahoe County,CO,38.850174216027874
80239,Denver County,CO,30.836236933797913
80701,Morgan County,CO,29.094076655052266
06010,Hartford County,CT,19.686411149825783
06037,Hartford County,CT,76.82926829268293
06112,Hartford County,CT,23.34494773519164
06119,Hartford County,CT,83.44947735191639
06415,New London County,CT,58.01393728222997
06489,Hartford County,CT,37.45644599303136
19701,New Castle County,DE,63.41463414634146
19805,New Castle County,DE,6.2717770034843205
32210,Duval County,FL,8.536585365853659
32822,Orange County,FL,26.82926829268293
33138,Miami-Dade County,FL,74.56445993031359
33570,Hillsborough County,FL,67.42160278745645
30040,Forsyth County,GA,33.44947735191638
30144,Cobb County,GA,42.33449477351917
30311,Fulton County,GA,21.951219512195124
30319,DeKalb County,GA,75.08710801393728
30507,Hall County,GA,48.78048780487805
30517,Jackson County,GA,95.29616724738676
30535,Habersham County,GA,93.90243902439023
30549,Jackson County,GA,51.56794425087108
30558,Jackson County,GA,98.60627177700349
31757,Thomas County,GA,76.30662020905923
39819,Decatur County,GA,82.22996515679442
83301,Twin Falls County,ID,7.665505226480835
60014,McHenry County,IL,31.3588850174216
60077,Cook County,IL,62.54355400696864
60081,McHenry County,IL,74.0418118466899
60115,DeKalb County,IL,46.51567944250871
60156,McHenry County,IL,42.508710801393725
60181,DuPage County,IL,37.10801393728223
60416,Grundy County,IL,64.28571428571429
60612,Cook County,IL,26.132404181184672
60619,Cook County,IL,63.2404181184669
60637,Cook County,IL,21.951219512195124
60646,Cook County,IL,54.00696864111498
60914,Kankakee County,IL,40.59233449477352
61310,Lee County,IL,98.08362369337979
62521,Macon County,IL,18.29268292682927
62702,Sangamon County,IL,33.10104529616725
46033,Hamilton County,IN,65.85365853658537
46072,Tipton County,IN,81.18466898954703
46074,Hamilton County,IN,87.8048780487805
46234,Marion County,IN,64.45993031358886
46250,Marion County,IN,81.3588850174216
46268,Marion County,IN,50
46368,Porter County,IN,6.097560975609756
46385,Porter County,IN,12.543554006968641
46408,Lake County,IN,51.91637630662021
47620,Posey County,IN,89.89547038327527
52317,Johnson County,IA,55.92334494773519
66214,Johnson County,KS,90.2439024390244
67546,McPherson County,KS,100
41164,Carter County,KY,69.86062717770035
41635,Floyd County,KY,96.16724738675958
42001,McCracken County,KY,36.7595818815331
42003,McCracken County,KY,21.254355400696863
42431,Hopkins County,KY,29.790940766550523
70130,Orleans Parish,LA,86.7595818815331
70346,Ascension Parish,LA,79.44250871080139
70422,Tangipahoa Parish,LA,32.22996515679443
70447,St. Tammany Parish,LA,61.14982578397212
70726,Livingston Parish,LA,4.529616724738676
70734,Ascension Parish,LA,88.85017421602788
70767,West Baton Rouge Parish,LA,51.393728222996515
70769,Ascension Parish,LA,15.505226480836237
70810,East Baton Rouge Parish,LA,13.763066202090593
70811,East Baton Rouge Parish,LA,34.146341463414636
70815,East Baton Rouge Parish,LA,21.951219512195124
70816,East Baton Rouge Parish,LA,10.801393728222997
70820,East Baton Rouge Parish,LA,79.09407665505228
04105,Cumberland County,ME,94.5993031358885
04841,Knox County,ME,78.397212543554
04950,Somerset County,ME,77.87456445993031
20707,Prince George's County,MD,88.32752613240417
20743,Prince George's County,MD,71.25435540069687
20877,Montgomery County,MD,80.48780487804879
01010,Hampden County,MA,99.65156794425087
01104,Hampden County,MA,16.202090592334496
01201,Berkshire County,MA,0.34843205574912894
01440,Worcester County,MA,4.70383275261324
01463,Middlesex County,MA,50.34843205574913
01527,Worcester County,MA,90.06968641114983
01602,Worcester County,MA,54.181184668989545
01610,Worcester County,MA,2.4390243902439024
01742,Middlesex County,MA,57.8397212543554
01752,Middlesex County,MA,6.794425087108014
01801,Middlesex County,MA,3.6585365853658534
01824,Middlesex County,MA,41.46341463414634
01826,Middlesex County,MA,8.885017421602788
01850,Middlesex County,MA,38.32752613240418
01851,Middlesex County,MA,5.052264808362369
01852,Middlesex County,MA,0.6968641114982579
01905,Essex County,MA,4.355400696864112
01915,Essex County,MA,18.118466898954704
01930,Essex County,MA,25.261324041811843
01945,Essex County,MA,46.68989547038328
01960,Essex County,MA,21.777003484320556
01970,Essex County,MA,12.020905923344948
02021,Norfolk County,MA,81.70731707317073
02035,Norfolk County,MA,40.069686411149824
02038,Norfolk County,MA,19.16376306620209
02062,Norfolk County,MA,20.209059233449477
02109,Suffolk County,MA,96.86411149825784
02119,Suffolk County,MA,0.5226480836236934
02121,Suffolk County,MA,1.3937282229965158
02125,Suffolk County,MA,1.5679442508710801
02127,Suffolk County,MA,4.181184668989547
02128,Suffolk County,MA,1.2195121951219512
02129,Suffolk County,MA,25.435540069686414
02145,Middlesex County,MA,9.40766550522648
02148,Middlesex County,MA,0
02149,Middlesex County,MA,1.0452961672473868
02150,Suffolk County,MA,9.233449477351916
02169,Norfolk County,MA,1.7421602787456445
02176,Middlesex County,MA,37.10801393728223
02191,Norfolk County,MA,66.72473867595818
02301,Plymouth County,MA,2.961672473867596
02360,Plymouth County,MA,11.846689895470384
02364,Plymouth County,MA,56.271777003484324
02420,Middlesex County,MA,83.97212543554006
02451,Middlesex County,MA,32.40418118466899
02453,Middlesex County,MA,14.80836236933798
02472,Middlesex County,MA,12.195121951219512
02702,Bristol County,MA,90.76655052264809
02703,Bristol County,MA,24.390243902439025
02720,Bristol County,MA,0.8710801393728222
02721,Bristol County,MA,1.9163763066202089
02724,Bristol County,MA,7.8397212543554
02726,Bristol County,MA,90.41811846689896
02740,Bristol County,MA,0.17421602787456447
02743,Bristol County,MA,59.23344947735192
02748,Bristol County,MA,75.43554006968641
02771,Bristol County,MA,84.66898954703834
02777,Bristol County,MA,13.240418118466899
02779,Bristol County,MA,94.42508710801394
02790,Bristol County,MA,57.491289198606275
48005,Macomb County,MI,92.33449477351915
48009,Oakland County,MI,55.92334494773519
48021,Macomb County,MI,43.37979094076655
48025,Oakland County,MI,82.75261324041811
48026,Macomb County,MI,42.68292682926829
48038,Macomb County,MI,18.989547038327526
48042,Macomb County,MI,29.268292682926827
48044,Macomb County,MI,13.414634146341465
48047,Macomb County,MI,19.860627177700348
48060,St. Clair County,MI,24.041811846689896
48065,Macomb County,MI,79.26829268292683
48070,Oakland County,MI,94.07665505226481
48071,Oakland County,MI,32.926829268292686
48073,Oakland County,MI,36.062717770034844
48083,Oakland County,MI,60.10452961672473
48084,Oakland County,MI,81.8815331010453
48085,Oakland County,MI,37.63066202090592
48088,Macomb County,MI,49.825783972125436
48093,Macomb County,MI,27.177700348432055
48098,Oakland County,MI,62.19512195121951
48127,Wayne County,MI,17.94425087108014
48135,Wayne County,MI,29.965156794425084
48141,Wayne County,MI,14.45993031358885
48146,Wayne County,MI,14.111498257839722
48160,Washtenaw County,MI,76.13240418118467
48185,Wayne County,MI,10.627177700348431
48188,Wayne County,MI,18.466898954703833
48189,Washtenaw County,MI,63.06620209059234
48195,Wayne County,MI,59.93031358885017
48203,Wayne County,MI,21.428571428571427
48212,Wayne County,MI,15.33101045296167
48221,Wayne County,MI,10.452961672473867
48224,Wayne County,MI,5.400696864111499
48236,Wayne County,MI,67.07317073170732
48302,Oakland County,MI,74.91289198606272
48306,Oakland County,MI,86.58536585365853
48307,Oakland County,MI,24.738675958188153
48309,Oakland County,MI,70.03484320557492
48310,Macomb County,MI,22.64808362369338
48322,Oakland County,MI,47.90940766550523
48331,Oakland County,MI,43.55400696864111
48371,Oakland County,MI,43.72822299651568
48390,Oakland County,MI,74.21602787456446
48412,Lapeer County,MI,94.25087108013938
48429,Shiawassee County,MI,67.59581881533101
48458,Genesee County,MI,37.80487804878049
48505,Genesee County,MI,24.56445993031359
48603,Saginaw County,MI,17.421602787456447
48642,Midland County,MI,26.480836236933797
48723,Tuscola County,MI,34.66898954703833
48801,Gratiot County,MI,52.4390243902439
48838,Montcalm County,MI,68.46689895470384
48840,Ingham County,MI,82.40418118466899
48842,Ingham County,MI,44.94773519163763
48854,Ingham County,MI,54.35540069686411
48858,Isabella County,MI,11.32404181184669
49015,Calhoun County,MI,23.170731707317074
49037,Calhoun County,MI,21.0801393728223
49048,Kalamazoo County,MI,23.86759581881533
49202,Jackson County,MI,39.89547038327526
49221,Lenawee County,MI,8.362369337979095
49286,Lenawee County,MI,59.059233449477354
49306,Kent County,MI,87.63066202090593
49326,Kent County,MI,98.95470383275261
49331,Kent County,MI,54.87804878048781
49341,Kent County,MI,35.714285714285715
49349,Newaygo County,MI,61.672473867595826
49404,Ottawa County,MI,88.67595818815332
49415,Muskegon County,MI,87.45644599303137
49417,Ottawa County,MI,24.041811846689896
49426,Ottawa County,MI,75.60975609756098
49431,Mason County,MI,69.68641114982579
49441,Muskegon County,MI,46.864111498257834
49456,Ottawa County,MI,49.65156794425087
49461,Muskegon County,MI,77.87456445993031
49503,Kent County,MI,44.599303135888505
49505,Kent County,MI,30.48780487804878
49506,Kent County,MI,60.801393728223
49508,Kent County,MI,50.174216027874564
49519,Kent County,MI,22.99651567944251
49660,Manistee County,MI,45.47038327526132
49665,Osceola County,MI,98.95470383275261
49707,Alpena County,MI,37.97909407665505
49720,Charlevoix County,MI,84.8432055749129
49855,Marquette County,MI,20.38327526132404
55423,Hennepin County,MN,73.86759581881533
55428,Hennepin County,MN,27.00348432055749
55746,St. Louis County,MN,31.53310104529617
39094,Leake County,MS,96.51567944250871
63113,St. Louis city,MO,67.59581881533101
63120,St. Louis city,MO,67.24738675958189
64079,Platte County,MO,60.278745644599304
64113,Jackson County,MO,70.90592334494772
65804,Greene County,MO,36.23693379790941
59716,Gallatin County,MT,99.30313588850174
59808,Missoula County,MT,87.10801393728222
59911,Flathead County,MT,96.68989547038328
68803,Hall County,NE,89.54703832752612
89139,Clark County,NV,78.9198606271777
03053,Rockingham County,NH,33.79790940766551
03060,Hillsborough County,NH,11.67247386759582
03062,Hillsborough County,NH,24.912891986062718
03076,Hillsborough County,NH,87.2822299651568
03102,Hillsborough County,NH,56.79442508710801
03103,Hillsborough County,NH,11.149825783972126
03281,Hillsborough County,NH,93.37979094076655
03598,Coos County,NH,99.82578397212544
03766,Grafton County,NH,79.79094076655052
03773,Sullivan County,NH,83.27526132404182
07026,Bergen County,NJ,50.522648083623686
07103,Essex County,NJ,12.717770034843207
07111,Essex County,NJ,3.484320557491289
07302,Hudson County,NJ,92.50871080139372
08043,Camden County,NJ,48.606271777003485
08054,Burlington County,NJ,77.17770034843205
08210,Cape May County,NJ,44.25087108013937
08332,Cumberland County,NJ,3.8327526132404177
08611,Mercer County,NJ,31.010452961672474
08812,Middlesex County,NJ,73.34494773519164
08869,Somerset County,NJ,76.4808362369338
87004,Sandoval County,NM,76.65505226480836
87015,Santa Fe County,NM,93.72822299651567
87102,Bernalillo County,NM,28.9198606271777
87105,Bernalillo County,NM,8.188153310104529
87106,Bernalillo County,NM,57.3170731707317
87107,Bernalillo County,NM,39.54703832752614
87110,Bernalillo County,NM,17.247386759581882
87111,Bernalillo County,NM,44.42508710801394
87112,Bernalillo County,NM,20.034843205574912
87114,Bernalillo County,NM,56.44599303135889
87120,Bernalillo County,NM,41.63763066202091
87121,Bernalillo County,NM,8.710801393728223
87124,Sandoval County,NM,16.376306620209057
87402,San Juan County,NM,86.06271777003485
88340,Otero County,NM,88.50174216027874
10005,New York County,NY,95.99303135888502
10018,New York County,NY,89.19860627177701
10034,New York County,NY,40.41811846689895
10452,Bronx County,NY,2.7874564459930316
10453,Bronx County,NY,3.1358885017421603
10456,Bronx County,NY,5.7491289198606275
10457,Bronx County,NY,2.6132404181184667
10458,Bronx County,NY,9.059233449477352
10459,Bronx County,NY,9.75609756097561
10462,Bronx County,NY,33.972125435540065
10463,Bronx County,NY,66.89895470383276
10467,Bronx County,NY,9.930313588850174
10468,Bronx County,NY,42.857142857142854
10708,Westchester County,NY,91.1149825783972
11207,Kings County,NY,2.264808362369338
11212,Kings County,NY,3.3101045296167246
11213,Kings County,NY,59.756097560975604
11237,Kings County,NY,59.58188153310105
11249,Kings County,NY,69.51219512195121
11368,Queens County,NY,12.369337979094077
11369,Queens County,NY,58.88501742160279
11385,Queens County,NY,15.156794425087108
11577,Nassau County,NY,91.28919860627178
11590,Nassau County,NY,51.045296167247386
11757,Suffolk County,NY,48.08362369337979
12053,Schenectady County,NY,94.94773519163763
12072,Montgomery County,NY,97.73519163763066
12095,Fulton County,NY,49.47735191637631
12801,Warren County,NY,27.35191637630662
12804,Warren County,NY,13.588850174216027
13041,Onondaga County,NY,73.69337979094077
13206,Onondaga County,NY,30.66202090592334
13323,Oneida County,NY,72.12543554006969
13335,Otsego County,NY,90.94076655052264
13460,Chenango County,NY,81.01045296167247
13668,St. Lawrence County,NY,97.5609756097561
13850,Broome County,NY,50.87108013937283
13865,Broome County,NY,52.613240418118465
13905,Broome County,NY,4.878048780487805
14006,Erie County,NY,70.73170731707317
14009,Wyoming County,NY,85.54006968641114
14020,Genesee County,NY,62.7177700348432
14032,Erie County,NY,85.71428571428571
14048,Chautauqua County,NY,73.5191637630662
14103,Orleans County,NY,49.30313588850174
14150,Erie County,NY,10.975609756097562
14207,Erie County,NY,38.501742160278745
14223,Erie County,NY,35.01742160278746
14224,Erie County,NY,32.05574912891986
14411,Orleans County,NY,33.62369337979094
14420,Monroe County,NY,50.696864111498265
14428,Monroe County,NY,78.57142857142857
14450,Monroe County,NY,40.76655052264808
14468,Monroe County,NY,23.693379790940767
14472,Monroe County,NY,79.61672473867596
14505,Wayne County,NY,86.23693379790942
14513,Wayne County,NY,10.278745644599303
14519,Wayne County,NY,58.536585365853654
14521,Seneca County,NY,90.59233449477352
14526,Monroe County,NY,68.29268292682927
14548,Ontario County,NY,68.1184668989547
14559,Monroe County,NY,44.77351916376306
14564,Ontario County,NY,26.480836236933797
14580,Monroe County,NY,35.36585365853659
14586,Monroe County,NY,39.198606271777
14606,Monroe County,NY,5.923344947735192
14607,Monroe County,NY,25.609756097560975
14608,Monroe County,NY,47.386759581881535
14609,Monroe County,NY,47.5609756097561
14610,Monroe County,NY,36.41114982578397
14613,Monroe County,NY,16.550522648083625
14616,Monroe County,NY,53.484320557491294
14617,Monroe County,NY,11.498257839721255
14620,Monroe County,NY,33.27526132404181
14621,Monroe County,NY,20.557491289198605
14623,Monroe County,NY,52.78745644599303
14626,Monroe County,NY,6.620209059233449
14727,Allegany County,NY,77.00348432055749
14755,Cattaraugus County,NY,95.81881533101046
14760,Cattaraugus County,NY,42.1602787456446
14807,Steuben County,NY,93.03135888501743
14843,Steuben County,NY,28.222996515679444
14895,Allegany County,NY,35.54006968641115
27103,Forsyth County,NC,20.905923344947734
27235,Guilford County,NC,99.30313588850174
27239,Davidson County,NC,71.0801393728223
27288,Rockingham County,NC,19.51219512195122
27295,Davidson County,NC,8.013937282229964
27312,Chatham County,NC,66.37630662020906
27407,Guilford County,NC,25.78397212543554
27455,Guilford County,NC,53.83275261324042
27517,Orange County,NC,57.14285714285714
27703,Durham County,NC,15.853658536585366
27705,Durham County,NC,28.745644599303137
27822,Wilson County,NC,85.71428571428571
28403,New Hanover County,NC,95.47038327526133
28466,Duplin County,NC,72.64808362369338
28681,Alexander County,NC,27.700348432055748
28716,Haywood County,NC,54.52961672473867
28734,Macon County,NC,52.264808362369344
43055,Licking County,OH,16.72473867595819
43315,Morrow County,OH,66.55052264808361
43450,Wood County,OH,98.25783972125436
43542,Lucas County,OH,98.25783972125436
43558,Fulton County,OH,58.71080139372822
43605,Lucas County,OH,5.574912891986063
43615,Lucas County,OH,7.491289198606271
43616,Lucas County,OH,18.641114982578397
43724,Noble County,OH,92.85714285714286
43938,Jefferson County,OH,55.57491289198606
43953,Jefferson County,OH,39.198606271777
44004,Ashtabula County,OH,5.2264808362369335
44011,Lorain County,OH,36.933797909407666
44067,Summit County,OH,83.10104529616724
44077,Lake County,OH,6.968641114982578
44094,Lake County,OH,25.087108013937282
44102,Cuyahoga County,OH,7.317073170731707
44103,Cuyahoga County,OH,41.289198606271775
44109,Cuyahoga County,OH,2.0905923344947737
44111,Cuyahoga County,OH,16.02787456445993
44112,Cuyahoga County,OH,13.066202090592336
44121,Cuyahoga County,OH,82.92682926829268
44123,Cuyahoga County,OH,34.494773519163765
44125,Cuyahoga County,OH,4.006968641114982
44130,Cuyahoga County,OH,29.442508710801395
44256,Medina County,OH,27.874564459930312
44281,Medina County,OH,58.18815331010453
44507,Mahoning County,OH,55.749128919860624
44511,Mahoning County,OH,30.313588850174217
44805,Ashland County,OH,18.81533101045296
44870,Erie County,OH,19.337979094076655
44907,Richland County,OH,46.34146341463415
45011,Butler County,OH,21.602787456445995
45014,Butler County,OH,20.73170731707317
45040,Warren County,OH,38.501742160278745
45133,Highland County,OH,28.04878048780488
45239,Hamilton County,OH,22.822299651567945
45304,Darke County,OH,89.72125435540069
45769,Meigs County,OH,66.02787456445994
74820,Pontotoc County,OK,82.05574912891987
97116,Washington County,OR,80.31358885017421
97211,Multnomah County,OR,49.12891986062718
97219,Multnomah County,OR,62.36933797909408
97232,Multnomah County,OR,94.77351916376307
97266,Multnomah County,OR,39.02439024390244
97321,Linn County,OR,34.3205574912892
97471,Douglas County,OR,53.31010452961672
15071,Allegheny County,PA,83.7979094076655
15090,Allegheny County,PA,91.98606271777004
15132,Allegheny County,PA,16.898954703832754
15146,Allegheny County,PA,51.742160278745644
15227,Allegheny County,PA,43.90243902439025
15317,Washington County,PA,35.88850174216028
15670,Westmoreland County,PA,98.78048780487805
15931,Cambria County,PA,72.47386759581882
16001,Butler County,PA,7.142857142857142
16601,Blair County,PA,14.982578397212542
16701,McKean County,PA,53.13588850174216
16823,Centre County,PA,28.397212543554005
16828,Centre County,PA,89.37282229965156
16858,Clearfield County,PA,96.34146341463415
16870,Centre County,PA,89.02439024390245
17042,Lebanon County,PA,9.581881533101045
17044,Mifflin County,PA,63.937282229965156
17050,Cumberland County,PA,29.61672473867596
17370,York County,PA,91.63763066202091
17403,York County,PA,6.445993031358885
17728,Lycoming County,PA,87.97909407665504
17737,Lycoming County,PA,91.81184668989548
17801,Northumberland County,PA,27.526132404181187
17821,Montour County,PA,60.97560975609756
17824,Northumberland County,PA,96.86411149825784
17844,Union County,PA,75.9581881533101
17866,Northumberland County,PA,65.6794425087108
18222,Luzerne County,PA,84.14634146341463
18466,Monroe County,PA,58.36236933797909
18510,Lackawanna County,PA,68.81533101045297
18634,Luzerne County,PA,77.70034843205575
18640,Luzerne County,PA,48.257839721254356
18661,Luzerne County,PA,84.3205574912892
18707,Luzerne County,PA,91.46341463414635
19063,Delaware County,PA,28.57142857142857
19064,Delaware County,PA,45.818815331010455
19114,Philadelphia County,PA,25.78397212543554
19124,Philadelphia County,PA,14.634146341463413
19134,Philadelphia County,PA,23.519163763066203
19136,Philadelphia County,PA,45.64459930313589
19317,Delaware County,PA,97.90940766550523
19390,Chester County,PA,81.53310104529616
19608,Berks County,PA,65.1567944250871
02837,Newport County,RI,97.21254355400697
02857,Providence County,RI,88.15331010452961
02871,Newport County,RI,65.50522648083623
02878,Newport County,RI,80.48780487804879
02879,Washington County,RI,71.602787456446
02904,Providence County,RI,40.243902439024396
02909,Providence County,RI,72.82229965156795
02919,Providence County,RI,46.16724738675958
29154,Sumter County,SC,55.22648083623694
29203,Richland County,SC,44.076655052264805
29410,Berkeley County,SC,78.22299651567944
57783,Lawrence County,SD,74.39024390243902
37013,Davidson County,TN,43.20557491289199
37015,Cheatham County,TN,62.89198606271778
37027,Williamson County,TN,45.99303135888502
37064,Williamson County,TN,51.045296167247386
37066,Sumner County,TN,15.6794425087108
37067,Williamson County,TN,85.19163763066202
37101,Humphreys County,TN,77.35191637630662
37115,Davidson County,TN,17.073170731707318
37127,Rutherford County,TN,64.63414634146342
37138,Davidson County,TN,55.052264808362374
37160,Bedford County,TN,26.306620209059233
37206,Davidson County,TN,41.11498257839721
37212,Davidson County,TN,93.20557491289199
37214,Davidson County,TN,61.846689895470384
37217,Davidson County,TN,47.73519163763066
37331,McMinn County,TN,78.74564459930313
38401,Maury County,TN,36.58536585365854
75035,Collin County,TX,45.1219512195122
75093,Collin County,TX,52.961672473867594
75201,Dallas County,TX,80.13937282229965
75901,Angelina County,TX,43.031358885017426
76801,Brown County,TX,56.968641114982574
77502,Harris County,TX,56.62020905923345
77546,Galveston County,TX,32.752613240418114
77802,Brazos County,TX,32.57839721254355
84111,Salt Lake County,UT,77.52613240418118
84116,Salt Lake County,UT,35.19163763066202
84119,Salt Lake County,UT,47.038327526132406
05301,Windham County,VT,64.11149825783971
05403,Chittenden County,VT,66.02787456445994
05443,Addison County,VT,95.64459930313589
05641,Washington County,VT,39.721254355400696
22408,Spotsylvania County,VA,68.6411149825784
22901,Albemarle County,VA,69.33797909407666
24014,Roanoke city,VA,71.77700348432056
24148,Henry County,VA,85.36585365853658
98031,King County,WA,47.21254355400697
98122,King County,WA,60.62717770034843
98372,Pierce County,WA,61.49825783972126
98373,Pierce County,WA,72.29965156794425
20011,District of Columbia,DC,13.937282229965156
25314,Kanawha County,WV,57.491289198606275
25414,Jefferson County,WV,64.98257839721255
25504,Cabell County,WV,59.40766550522648
25541,Cabell County,WV,70.20905923344948
26508,Monongalia County,WV,10.104529616724738
53179,Kenosha County,WI,70.20905923344948
53209,Milwaukee County,WI,22.473867595818817
53545,Rock County,WI,41.98606271777003
53572,Dane County,WI,92.6829268292683
54017,St. Croix County,WI,55.22648083623694
54837,Polk County,WI,93.55400696864112
54961,Waupaca County,WI,60.45296167247387
