ZipCode,county,state,Youth,Pediatric
35020,Jefferson County,AL,15.290178571428573,NA
35150,Talladega County,AL,NA,65.16129032258064
35214,Jefferson County,AL,72.87946428571429,NA
35401,Tuscaloosa County,AL,NA,66.77419354838709
35601,Morgan County,AL,20.982142857142858,NA
35748,Madison County,AL,96.875,NA
36250,Calhoun County,AL,82.47767857142857,NA
36532,Baldwin County,AL,40.625,NA
36560,Mobile County,AL,NA,88.06451612903226
36605,Mobile County,AL,29.017857142857146,52.25806451612903
36606,Mobile County,AL,65.40178571428571,NA
36608,Mobile County,AL,35.267857142857146,NA
36618,Mobile County,AL,NA,91.93548387096774
36867,Russell County,AL,67.96875,NA
99503,Anchorage Municipality,AK,NA,75.80645161290323
99508,Anchorage Municipality,AK,NA,23.387096774193548
85003,Maricopa County,AZ,NA,83.22580645161291
85008,Maricopa County,AZ,NA,47.74193548387097
85015,Maricopa County,AZ,69.64285714285714,55.16129032258065
85019,Maricopa County,AZ,NA,35.16129032258065
85029,Maricopa County,AZ,10.9375,NA
85032,Maricopa County,AZ,NA,46.774193548387096
85040,Maricopa County,AZ,28.236607142857146,NA
85041,Maricopa County,AZ,NA,5.64516129032258
85053,Maricopa County,AZ,36.495535714285715,NA
85123,Pinal County,AZ,38.839285714285715,NA
85131,Pinal County,AZ,77.45535714285714,NA
85201,Maricopa County,AZ,15.401785714285715,NA
85204,Maricopa County,AZ,NA,30.967741935483872
85213,Maricopa County,AZ,38.392857142857146,NA
85225,Maricopa County,AZ,9.821428571428571,NA
85283,Maricopa County,AZ,NA,38.87096774193549
85297,Maricopa County,AZ,39.732142857142854,NA
85303,Maricopa County,AZ,NA,40.96774193548387
85364,Yuma County,AZ,20.3125,NA
85501,Gila County,AZ,69.19642857142857,NA
85653,Pima County,AZ,NA,82.9032258064516
85705,Pima County,AZ,NA,25.967741935483872
85710,Pima County,AZ,NA,28.870967741935484
85711,Pima County,AZ,NA,63.70967741935484
85741,Pima County,AZ,NA,48.54838709677419
85937,Navajo County,AZ,NA,95.3225806451613
72209,Pulaski County,AR,80.58035714285714,NA
90011,Los Angeles County,CA,NA,8.709677419354838
90017,Los Angeles County,CA,91.62946428571429,NA
90018,Los Angeles County,CA,NA,56.935483870967744
90022,Los Angeles County,CA,35.60267857142857,NA
90037,Los Angeles County,CA,28.45982142857143,NA
90044,Los Angeles County,CA,NA,5
90047,Los Angeles County,CA,57.14285714285714,NA
90059,Los Angeles County,CA,NA,63.70967741935484
90262,Los Angeles County,CA,NA,22.903225806451612
90650,Los Angeles County,CA,NA,27.258064516129032
90660,Los Angeles County,CA,48.660714285714285,NA
91104,Los Angeles County,CA,NA,84.35483870967741
91364,Los Angeles County,CA,85.82589285714286,NA
91601,Los Angeles County,CA,80.02232142857143,NA
91605,Los Angeles County,CA,NA,60.967741935483865
91702,Los Angeles County,CA,40.848214285714285,NA
91942,San Diego County,CA,68.30357142857143,NA
92064,San Diego County,CA,43.41517857142857,NA
92083,San Diego County,CA,46.54017857142857,NA
92129,San Diego County,CA,NA,86.93548387096774
92220,Riverside County,CA,79.12946428571429,NA
92316,San Bernardino County,CA,74.66517857142857,NA
92336,San Bernardino County,CA,17.633928571428573,NA
92344,San Bernardino County,CA,74.66517857142857,NA
92405,San Bernardino County,CA,56.25,NA
92407,San Bernardino County,CA,38.392857142857146,NA
92505,Riverside County,CA,64.95535714285714,NA
92553,Riverside County,CA,NA,16.129032258064516
92570,Riverside County,CA,NA,66.77419354838709
92590,Riverside County,CA,99.44196428571429,NA
92630,Orange County,CA,69.75446428571429,NA
92701,Orange County,CA,63.50446428571429,NA
92805,Orange County,CA,26.22767857142857,NA
92841,Orange County,CA,58.70535714285714,NA
92868,Orange County,CA,NA,77.58064516129032
93015,Ventura County,CA,63.16964285714286,NA
93036,Ventura County,CA,75.11160714285714,NA
93041,Ventura County,CA,94.75446428571429,NA
93219,Tulare County,CA,88.95089285714286,NA
93230,Kings County,CA,54.6875,NA
93234,Fresno County,CA,NA,73.38709677419355
93274,Tulare County,CA,24.776785714285715,NA
93277,Tulare County,CA,35.379464285714285,NA
93313,Kern County,CA,NA,70.48387096774194
93434,Santa Barbara County,CA,92.74553571428571,NA
93436,Santa Barbara County,CA,NA,37.74193548387097
93444,San Luis Obispo County,CA,NA,42.90322580645161
93458,Santa Barbara County,CA,NA,6.451612903225806
93534,Los Angeles County,CA,NA,54.677419354838705
93612,Fresno County,CA,NA,41.4516129032258
93618,Tulare County,CA,44.53125,NA
93637,Madera County,CA,32.36607142857143,NA
93648,Fresno County,CA,NA,20.806451612903228
93657,Fresno County,CA,33.035714285714285,NA
93702,Fresno County,CA,NA,9.838709677419356
93705,Fresno County,CA,21.205357142857142,64.03225806451613
93722,Fresno County,CA,3.459821428571429,21.774193548387096
93723,Fresno County,CA,79.57589285714286,NA
93725,Fresno County,CA,49.776785714285715,NA
93727,Fresno County,CA,10.825892857142858,NA
94086,Santa Clara County,CA,NA,82.74193548387096
94114,San Francisco County,CA,87.5,NA
94541,Alameda County,CA,NA,35.64516129032258
94544,Alameda County,CA,NA,20
94578,Alameda County,CA,NA,34.193548387096776
94705,Alameda County,CA,89.17410714285714,NA
95337,San Joaquin County,CA,NA,78.87096774193549
95351,Stanislaus County,CA,NA,40.806451612903224
95354,Stanislaus County,CA,55.46875,NA
95476,Sonoma County,CA,85.60267857142857,NA
95757,Sacramento County,CA,71.98660714285714,NA
95818,Sacramento County,CA,NA,98.22580645161291
95835,Sacramento County,CA,70.64732142857143,NA
96001,Shasta County,CA,51.5625,NA
80015,Arapahoe County,CO,6.25,NA
80018,Arapahoe County,CO,78.57142857142857,NA
80022,Adams County,CO,10.602678571428571,NA
80112,Arapahoe County,CO,49.776785714285715,NA
80524,Larimer County,CO,NA,28.548387096774192
80906,El Paso County,CO,84.375,65.16129032258064
80909,El Paso County,CO,42.075892857142854,NA
80910,El Paso County,CO,59.59821428571429,NA
80915,El Paso County,CO,31.026785714285715,NA
81504,Mesa County,CO,NA,65
81620,Eagle County,CO,NA,98.38709677419355
06010,Hartford County,CT,5.357142857142857,NA
06053,Hartford County,CT,NA,14.193548387096774
06106,Hartford County,CT,9.486607142857142,NA
06281,Windham County,CT,68.30357142857143,NA
06511,New Haven County,CT,NA,8.548387096774194
06515,New Haven County,CT,43.41517857142857,NA
06519,New Haven County,CT,30.245535714285715,NA
06614,Fairfield County,CT,52.23214285714286,NA
06705,New Haven County,CT,NA,40.96774193548387
06710,New Haven County,CT,64.73214285714286,NA
06811,Fairfield County,CT,72.54464285714286,NA
06851,Fairfield County,CT,NA,87.41935483870968
06902,Fairfield County,CT,29.910714285714285,17.096774193548388
19702,New Castle County,DE,15.066964285714285,NA
19720,New Castle County,DE,9.375,NA
19801,New Castle County,DE,NA,50.483870967741936
19802,New Castle County,DE,NA,62.096774193548384
19804,New Castle County,DE,66.62946428571429,NA
32046,Nassau County,FL,47.544642857142854,NA
32114,Volusia County,FL,42.299107142857146,NA
32117,Volusia County,FL,73.77232142857143,NA
32119,Volusia County,FL,52.67857142857143,NA
32127,Volusia County,FL,NA,64.03225806451613
32209,Duval County,FL,NA,20
32210,Duval County,FL,12.946428571428573,15.806451612903224
32216,Duval County,FL,NA,68.2258064516129
32218,Duval County,FL,14.508928571428573,NA
32224,Duval County,FL,NA,90.80645161290323
32254,Duval County,FL,49.330357142857146,NA
32305,Leon County,FL,67.29910714285714,NA
32312,Leon County,FL,86.16071428571429,NA
32348,Taylor County,FL,77.67857142857143,NA
32401,Bay County,FL,61.49553571428571,NA
32448,Jackson County,FL,84.59821428571429,NA
32460,Jackson County,FL,98.54910714285714,NA
32566,Santa Rosa County,FL,47.32142857142857,NA
32569,Okaloosa County,FL,97.54464285714286,NA
32608,Alachua County,FL,NA,88.2258064516129
32653,Alachua County,FL,8.705357142857142,NA
32656,Clay County,FL,68.75,NA
32703,Orange County,FL,NA,60.967741935483865
32724,Volusia County,FL,33.92857142857143,NA
32763,Volusia County,FL,86.83035714285714,NA
32784,Lake County,FL,82.14285714285714,NA
32808,Orange County,FL,4.799107142857143,12.903225806451612
32809,Orange County,FL,NA,58.225806451612904
32810,Orange County,FL,NA,38.064516129032256
32818,Orange County,FL,20.758928571428573,NA
33009,Broward County,FL,68.08035714285714,63.064516129032256
33010,Miami-Dade County,FL,NA,29.354838709677416
33012,Miami-Dade County,FL,86.49553571428571,55.16129032258065
33013,Miami-Dade County,FL,NA,37.096774193548384
33014,Miami-Dade County,FL,76.89732142857143,NA
33015,Miami-Dade County,FL,NA,15.645161290322582
33016,Miami-Dade County,FL,37.05357142857143,NA
33023,Broward County,FL,19.53125,73.38709677419355
33025,Broward County,FL,56.91964285714286,NA
33029,Broward County,FL,83.70535714285714,NA
33034,Miami-Dade County,FL,NA,42.74193548387097
33035,Miami-Dade County,FL,NA,62.25806451612903
33040,Monroe County,FL,60.60267857142857,NA
33054,Miami-Dade County,FL,NA,22.096774193548388
33055,Miami-Dade County,FL,27.79017857142857,69.19354838709677
33060,Broward County,FL,44.08482142857143,46.45161290322581
33064,Broward County,FL,NA,22.419354838709676
33068,Broward County,FL,NA,57.41935483870968
33125,Miami-Dade County,FL,27.79017857142857,29.516129032258064
33126,Miami-Dade County,FL,55.80357142857143,NA
33127,Miami-Dade County,FL,62.72321428571429,38.70967741935484
33128,Miami-Dade County,FL,NA,62.25806451612903
33130,Miami-Dade County,FL,64.39732142857143,NA
33135,Miami-Dade County,FL,NA,67.25806451612904
33138,Miami-Dade County,FL,NA,81.29032258064515
33139,Miami-Dade County,FL,82.36607142857143,NA
33142,Miami-Dade County,FL,19.196428571428573,47.096774193548384
33144,Miami-Dade County,FL,NA,82.09677419354838
33145,Miami-Dade County,FL,NA,86.61290322580645
33150,Miami-Dade County,FL,53.125,70
33157,Miami-Dade County,FL,16.071428571428573,18.548387096774192
33161,Miami-Dade County,FL,NA,41.774193548387096
33165,Miami-Dade County,FL,35.044642857142854,32.09677419354839
33167,Miami-Dade County,FL,NA,47.25806451612903
33168,Miami-Dade County,FL,83.25892857142857,NA
33169,Miami-Dade County,FL,38.392857142857146,NA
33174,Miami-Dade County,FL,NA,88.38709677419355
33175,Miami-Dade County,FL,22.209821428571427,30
33177,Miami-Dade County,FL,NA,18.870967741935484
33181,Miami-Dade County,FL,NA,81.61290322580645
33183,Miami-Dade County,FL,NA,39.83870967741935
33184,Miami-Dade County,FL,65.84821428571429,NA
33185,Miami-Dade County,FL,59.15178571428571,NA
33186,Miami-Dade County,FL,3.7946428571428568,49.193548387096776
33189,Miami-Dade County,FL,74.66517857142857,60.483870967741936
33190,Miami-Dade County,FL,NA,60.483870967741936
33311,Broward County,FL,24.107142857142858,4.838709677419355
33312,Broward County,FL,NA,33.70967741935484
33313,Broward County,FL,41.40625,16.451612903225808
33317,Broward County,FL,60.60267857142857,NA
33351,Broward County,FL,50.78125,NA
33401,Palm Beach County,FL,44.97767857142857,NA
33407,Palm Beach County,FL,25.33482142857143,NA
33415,Palm Beach County,FL,NA,21.129032258064516
33417,Palm Beach County,FL,67.07589285714286,NA
33458,Palm Beach County,FL,41.183035714285715,NA
33461,Palm Beach County,FL,NA,41.612903225806456
33511,Hillsborough County,FL,NA,81.7741935483871
33527,Hillsborough County,FL,53.125,NA
33534,Hillsborough County,FL,NA,60.967741935483865
33541,Pasco County,FL,95.75892857142857,NA
33544,Pasco County,FL,NA,68.2258064516129
33598,Hillsborough County,FL,84.82142857142857,70
33605,Hillsborough County,FL,40.95982142857143,NA
33610,Hillsborough County,FL,8.816964285714286,17.258064516129032
33612,Hillsborough County,FL,13.392857142857142,NA
33614,Hillsborough County,FL,38.169642857142854,NA
33615,Hillsborough County,FL,NA,39.35483870967742
33702,Pinellas County,FL,NA,83.87096774193549
33710,Pinellas County,FL,NA,93.2258064516129
33711,Pinellas County,FL,NA,85.48387096774194
33801,Polk County,FL,NA,30.64516129032258
33805,Polk County,FL,NA,23.06451612903226
33809,Polk County,FL,NA,71.29032258064515
33812,Polk County,FL,NA,93.70967741935485
33830,Polk County,FL,30.245535714285715,NA
33880,Polk County,FL,38.28125,NA
33905,Lee County,FL,58.25892857142857,NA
33916,Lee County,FL,63.95089285714286,40.483870967741936
33917,Lee County,FL,59.15178571428571,NA
33971,Lee County,FL,NA,28.548387096774192
33976,Lee County,FL,77.23214285714286,NA
33981,Charlotte County,FL,81.36160714285714,NA
34112,Collier County,FL,87.83482142857143,NA
34119,Collier County,FL,NA,26.129032258064516
34142,Collier County,FL,36.607142857142854,NA
34221,Manatee County,FL,NA,72.09677419354838
34420,Marion County,FL,NA,69.19354838709677
34472,Marion County,FL,63.05803571428571,NA
34476,Marion County,FL,NA,89.03225806451613
34482,Marion County,FL,68.30357142857143,NA
34606,Hernando County,FL,65.84821428571429,NA
34689,Pinellas County,FL,88.28125,NA
34711,Lake County,FL,40.625,NA
34741,Osceola County,FL,NA,21.935483870967744
34744,Osceola County,FL,21.651785714285715,18.064516129032256
34769,Osceola County,FL,NA,60.967741935483865
34947,St. Lucie County,FL,61.04910714285714,75.48387096774194
34956,Martin County,FL,92.74553571428571,NA
34982,St. Lucie County,FL,41.517857142857146,NA
34983,St. Lucie County,FL,22.991071428571427,NA
30014,Newton County,GA,NA,84.19354838709677
30041,Forsyth County,GA,23.549107142857142,NA
30043,Gwinnett County,GA,30.691964285714285,NA
30058,DeKalb County,GA,NA,37.58064516129032
30062,Cobb County,GA,NA,78.87096774193549
30067,Cobb County,GA,NA,75.80645161290323
30078,Gwinnett County,GA,89.73214285714286,NA
30083,DeKalb County,GA,15.625,NA
30093,Gwinnett County,GA,NA,45.645161290322584
30101,Cobb County,GA,NA,80.96774193548387
30116,Carroll County,GA,NA,83.22580645161291
30126,Cobb County,GA,NA,68.70967741935485
30134,Douglas County,GA,NA,45.96774193548387
30135,Douglas County,GA,NA,41.29032258064516
30168,Cobb County,GA,47.879464285714285,65.16129032258064
30241,Troup County,GA,NA,75.80645161290323
30252,Henry County,GA,NA,85.16129032258064
30257,Lamar County,GA,97.87946428571429,NA
30291,Fulton County,GA,NA,66.12903225806451
30294,DeKalb County,GA,46.54017857142857,67.74193548387096
30296,Clayton County,GA,NA,57.41935483870968
30308,Fulton County,GA,NA,99.51612903225806
30310,Fulton County,GA,42.63392857142857,NA
30311,Fulton County,GA,76.67410714285714,NA
30312,Fulton County,GA,NA,75.16129032258064
30317,DeKalb County,GA,NA,96.12903225806451
30318,Fulton County,GA,26.004464285714285,NA
30319,DeKalb County,GA,74.33035714285714,NA
30331,Fulton County,GA,10.15625,26.129032258064516
30341,DeKalb County,GA,64.73214285714286,NA
30344,Fulton County,GA,61.27232142857143,44.67741935483871
30349,Fulton County,GA,34.598214285714285,33.225806451612904
30461,Bulloch County,GA,62.94642857142857,NA
30531,Habersham County,GA,NA,90.48387096774194
30635,Elbert County,GA,NA,93.87096774193549
30725,Walker County,GA,93.30357142857143,NA
30736,Catoosa County,GA,19.642857142857142,NA
30747,Chattooga County,GA,90.84821428571429,NA
30809,Columbia County,GA,31.361607142857146,NA
30824,McDuffie County,GA,61.49553571428571,NA
30904,Richmond County,GA,42.745535714285715,NA
30906,Richmond County,GA,NA,22.096774193548388
31021,Laurens County,GA,52.67857142857143,NA
31030,Peach County,GA,89.50892857142857,NA
31061,Baldwin County,GA,44.754464285714285,65.16129032258064
31088,Houston County,GA,58.48214285714286,NA
31204,Bibb County,GA,34.04017857142857,NA
31217,Bibb County,GA,NA,77.90322580645162
31404,Chatham County,GA,49.107142857142854,NA
31405,Chatham County,GA,68.86160714285714,NA
31501,Ware County,GA,63.83928571428571,NA
31605,Lowndes County,GA,NA,94.51612903225806
31709,Sumter County,GA,80.91517857142857,NA
31768,Colquitt County,GA,NA,68.70967741935485
31903,Muscogee County,GA,NA,64.83870967741936
39840,Randolph County,GA,88.05803571428571,NA
96792,Honolulu County,HI,20.089285714285715,NA
96814,Honolulu County,HI,89.62053571428571,NA
83634,Ada County,ID,NA,78.38709677419354
60046,Lake County,IL,47.767857142857146,NA
60048,Lake County,IL,47.544642857142854,NA
60133,Cook County,IL,65.17857142857143,NA
60185,DuPage County,IL,15.178571428571427,NA
60409,Cook County,IL,42.410714285714285,NA
60410,Will County,IL,43.75,NA
60417,Will County,IL,81.69642857142857,NA
60471,Cook County,IL,97.09821428571429,NA
60526,Cook County,IL,29.24107142857143,NA
60538,Kendall County,IL,34.933035714285715,NA
60631,Cook County,IL,56.69642857142857,NA
60637,Cook County,IL,33.035714285714285,NA
60638,Cook County,IL,17.299107142857142,NA
60639,Cook County,IL,6.026785714285714,NA
60646,Cook County,IL,62.38839285714286,NA
60656,Cook County,IL,67.29910714285714,NA
60714,Cook County,IL,86.83035714285714,NA
61071,Whiteside County,IL,53.68303571428571,NA
61244,Rock Island County,IL,80.13392857142857,NA
61944,Edgar County,IL,74.21875,NA
62707,Sangamon County,IL,NA,98.38709677419355
46013,Madison County,IN,45.3125,NA
46033,Hamilton County,IN,70.20089285714286,NA
46143,Johnson County,IN,26.450892857142854,NA
46176,Shelby County,IN,NA,59.03225806451613
46201,Marion County,IN,NA,49.67741935483871
46214,Marion County,IN,54.91071428571429,80
46217,Marion County,IN,57.70089285714286,NA
46218,Marion County,IN,NA,23.387096774193548
46219,Marion County,IN,38.392857142857146,NA
46224,Marion County,IN,25.111607142857146,NA
46226,Marion County,IN,17.522321428571427,NA
46227,Marion County,IN,NA,47.90322580645161
46235,Marion County,IN,NA,66.77419354838709
46237,Marion County,IN,NA,90.80645161290323
46260,Marion County,IN,54.12946428571429,45.96774193548387
46312,Lake County,IN,NA,40
46324,Lake County,IN,25.33482142857143,NA
46350,LaPorte County,IN,11.049107142857142,NA
46360,LaPorte County,IN,0.8928571428571428,NA
46368,Porter County,IN,1.3392857142857142,NA
46375,Lake County,IN,12.723214285714285,NA
46406,Lake County,IN,56.69642857142857,NA
46408,Lake County,IN,39.84375,NA
46410,Lake County,IN,16.294642857142858,NA
46516,Elkhart County,IN,38.839285714285715,NA
46526,Elkhart County,IN,61.83035714285714,NA
46534,Starke County,IN,57.14285714285714,NA
46544,St. Joseph County,IN,NA,64.35483870967742
46545,St. Joseph County,IN,72.54464285714286,NA
46732,Noble County,IN,97.99107142857143,NA
46755,Noble County,IN,42.1875,NA
46761,LaGrange County,IN,82.70089285714286,NA
46806,Allen County,IN,NA,29.193548387096772
47138,Scott County,IN,90.51339285714286,NA
47330,Wayne County,IN,96.20535714285714,NA
47356,Henry County,IN,99.10714285714286,NA
47362,Henry County,IN,NA,60.967741935483865
47390,Randolph County,IN,NA,93.2258064516129
47586,Perry County,IN,82.25446428571429,NA
47711,Vanderburgh County,IN,51.5625,NA
47802,Vigo County,IN,NA,38.064516129032256
50003,Dallas County,IA,96.09375,NA
50009,Polk County,IA,NA,79.83870967741935
50158,Marshall County,IA,39.285714285714285,NA
50265,Polk County,IA,NA,88.70967741935483
50314,Polk County,IA,NA,72.09677419354838
50327,Polk County,IA,NA,77.09677419354838
51031,Plymouth County,IA,NA,74.51612903225806
51104,Woodbury County,IA,NA,80
51250,Sioux County,IA,NA,99.19354838709677
52060,Jackson County,IA,83.70535714285714,NA
52501,Wapello County,IA,36.049107142857146,NA
52732,Clinton County,IA,27.00892857142857,NA
52804,Scott County,IA,40.17857142857143,NA
66002,Atchison County,KS,76.00446428571429,NA
66112,Wyandotte County,KS,88.95089285714286,NA
67005,Cowley County,KS,87.61160714285714,NA
40031,Oldham County,KY,NA,84.35483870967741
40065,Shelby County,KY,59.82142857142857,NA
40162,Hardin County,KY,NA,95.96774193548387
40203,Jefferson County,KY,20.3125,NA
40206,Jefferson County,KY,87.38839285714286,NA
40210,Jefferson County,KY,52.12053571428571,NA
40211,Jefferson County,KY,NA,71.29032258064515
40212,Jefferson County,KY,57.47767857142857,NA
40214,Jefferson County,KY,NA,32.09677419354839
40216,Jefferson County,KY,15.848214285714285,24.032258064516128
40218,Jefferson County,KY,59.59821428571429,NA
40219,Jefferson County,KY,24.441964285714285,73.22580645161291
40229,Jefferson County,KY,NA,50
40291,Jefferson County,KY,NA,53.87096774193548
40313,Rowan County,KY,98.21428571428571,NA
40422,Boyle County,KY,NA,70
40456,Rockcastle County,KY,90.625,NA
40475,Madison County,KY,30.46875,15.806451612903224
40502,Fayette County,KY,70.20089285714286,NA
40515,Fayette County,KY,73.10267857142857,NA
40741,Laurel County,KY,49.330357142857146,NA
41030,Grant County,KY,88.05803571428571,NA
41042,Boone County,KY,12.276785714285714,NA
41144,Greenup County,KY,76.33928571428571,NA
41240,Johnson County,KY,NA,81.93548387096774
42220,Todd County,KY,83.59375,NA
42320,Ohio County,KY,50.89285714285714,NA
70003,Jefferson Parish,LA,3.013392857142857,NA
70006,Jefferson Parish,LA,90.40178571428571,NA
70058,Jefferson Parish,LA,NA,44.354838709677416
70072,Jefferson Parish,LA,NA,3.870967741935484
70094,Jefferson Parish,LA,NA,14.516129032258066
70113,Orleans Parish,LA,90.73660714285714,NA
70115,Orleans Parish,LA,NA,82.58064516129032
70119,Orleans Parish,LA,34.151785714285715,NA
70126,Orleans Parish,LA,NA,65.80645161290323
70127,Orleans Parish,LA,1.8973214285714284,NA
70128,Orleans Parish,LA,16.629464285714285,NA
70342,St. Mary Parish,LA,NA,93.87096774193549
70403,Tangipahoa Parish,LA,69.97767857142857,NA
70426,Washington Parish,LA,NA,74.19354838709677
70438,Washington Parish,LA,28.013392857142854,NA
70454,Tangipahoa Parish,LA,6.4732142857142865,NA
70458,St. Tammany Parish,LA,51.5625,13.225806451612904
70471,St. Tammany Parish,LA,NA,83.70967741935483
70501,Lafayette Parish,LA,NA,74.03225806451613
70506,Lafayette Parish,LA,8.035714285714286,NA
70510,Vermilion Parish,LA,6.8080357142857135,68.06451612903226
70532,Jefferson Davis Parish,LA,NA,99.35483870967742
70544,Iberia Parish,LA,NA,40
70570,St. Landry Parish,LA,NA,26.7741935483871
70582,St. Martin Parish,LA,NA,29.03225806451613
70607,Calcasieu Parish,LA,71.09375,NA
70722,East Feliciana Parish,LA,NA,87.90322580645162
70814,East Baton Rouge Parish,LA,NA,78.38709677419354
70816,East Baton Rouge Parish,LA,NA,9.35483870967742
71107,Caddo Parish,LA,NA,24.838709677419356
71111,Bossier Parish,LA,64.39732142857143,NA
71254,East Carroll Parish,LA,90.95982142857143,NA
71446,Vernon Parish,LA,94.86607142857143,NA
04005,York County,ME,19.866071428571427,NA
04073,York County,ME,NA,30
04268,Oxford County,ME,NA,81.45161290322581
04270,Oxford County,ME,NA,77.74193548387098
04330,Kennebec County,ME,NA,57.41935483870968
04463,Piscataquis County,ME,NA,90.80645161290323
20706,Prince George's County,MD,70.75892857142857,NA
21133,Baltimore County,MD,NA,100
21158,Carroll County,MD,83.25892857142857,NA
21224,Baltimore city,MD,34.263392857142854,NA
01005,Worcester County,MA,95.64732142857143,NA
01109,Hampden County,MA,NA,9.516129032258064
01201,Berkshire County,MA,1.7857142857142856,NA
01420,Worcester County,MA,74.55357142857143,NA
01610,Worcester County,MA,NA,0.6451612903225806
01702,Middlesex County,MA,NA,5.32258064516129
01760,Middlesex County,MA,77.90178571428571,NA
01841,Essex County,MA,0.11160714285714285,NA
01843,Essex County,MA,NA,6.612903225806452
01960,Essex County,MA,62.05357142857143,NA
02072,Norfolk County,MA,43.30357142857143,NA
02118,Suffolk County,MA,3.2366071428571432,NA
02121,Suffolk County,MA,NA,0.8064516129032258
02129,Suffolk County,MA,64.39732142857143,NA
02131,Suffolk County,MA,27.34375,NA
02140,Middlesex County,MA,36.27232142857143,NA
02143,Middlesex County,MA,18.080357142857142,NA
02149,Middlesex County,MA,48.660714285714285,NA
02150,Suffolk County,MA,NA,26.451612903225808
02151,Suffolk County,MA,10.602678571428571,NA
02155,Middlesex County,MA,2.7901785714285716,NA
02171,Norfolk County,MA,NA,11.29032258064516
02301,Plymouth County,MA,NA,23.870967741935484
02459,Middlesex County,MA,55.24553571428571,NA
02601,Barnstable County,MA,NA,79.51612903225806
02723,Bristol County,MA,7.5892857142857135,NA
02724,Bristol County,MA,18.526785714285715,NA
02740,Bristol County,MA,0.6696428571428571,NA
02760,Bristol County,MA,21.875,NA
48038,Macomb County,MI,17.633928571428573,92.58064516129032
48060,St. Clair County,MI,9.263392857142858,32.74193548387097
48079,St. Clair County,MI,NA,95.48387096774194
48089,Macomb County,MI,5.580357142857143,27.258064516129032
48093,Macomb County,MI,89.84375,86.29032258064517
48103,Washtenaw County,MI,22.544642857142858,NA
48104,Washtenaw County,MI,85.37946428571429,NA
48116,Livingston County,MI,26.674107142857146,NA
48126,Wayne County,MI,NA,36.935483870967744
48134,Wayne County,MI,31.919642857142854,NA
48141,Wayne County,MI,16.964285714285715,13.548387096774196
48164,Wayne County,MI,93.30357142857143,NA
48168,Wayne County,MI,34.70982142857143,NA
48192,Wayne County,MI,26.674107142857146,NA
48198,Washtenaw County,MI,NA,15.32258064516129
48201,Wayne County,MI,60.04464285714286,75.16129032258064
48205,Wayne County,MI,4.241071428571429,10.967741935483872
48207,Wayne County,MI,50.55803571428571,NA
48209,Wayne County,MI,25.111607142857146,55.483870967741936
48212,Wayne County,MI,21.540178571428573,49.516129032258064
48213,Wayne County,MI,39.955357142857146,NA
48214,Wayne County,MI,46.316964285714285,NA
48219,Wayne County,MI,NA,59.51612903225807
48221,Wayne County,MI,29.464285714285715,22.58064516129032
48224,Wayne County,MI,NA,57.25806451612904
48227,Wayne County,MI,49.776785714285715,NA
48228,Wayne County,MI,NA,3.7096774193548385
48234,Wayne County,MI,NA,35.483870967741936
48235,Wayne County,MI,30.91517857142857,32.41935483870968
48238,Wayne County,MI,37.388392857142854,29.516129032258064
48239,Wayne County,MI,NA,37.41935483870968
48312,Macomb County,MI,NA,92.74193548387096
48331,Oakland County,MI,71.42857142857143,NA
48340,Oakland County,MI,17.075892857142858,NA
48375,Oakland County,MI,74.66517857142857,NA
48430,Genesee County,MI,39.620535714285715,NA
48504,Genesee County,MI,11.383928571428571,NA
48505,Genesee County,MI,64.28571428571429,NA
48506,Genesee County,MI,53.125,NA
48529,Genesee County,MI,NA,83.06451612903226
48532,Genesee County,MI,63.16964285714286,NA
48601,Saginaw County,MI,0.33482142857142855,NA
48809,Ionia County,MI,68.08035714285714,NA
48838,Montcalm County,MI,48.549107142857146,NA
48843,Livingston County,MI,2.1205357142857144,NA
48850,Montcalm County,MI,98.77232142857143,NA
48884,Montcalm County,MI,98.77232142857143,NA
49053,Kalamazoo County,MI,93.86160714285714,NA
49221,Lenawee County,MI,NA,55.80645161290323
49236,Lenawee County,MI,95.87053571428571,NA
49301,Kent County,MI,72.76785714285714,NA
49423,Ottawa County,MI,NA,42.90322580645161
49426,Ottawa County,MI,24.888392857142858,NA
49431,Mason County,MI,NA,35
49442,Muskegon County,MI,2.232142857142857,13.38709677419355
49506,Kent County,MI,46.54017857142857,NA
49507,Kent County,MI,1.1160714285714286,NA
49508,Kent County,MI,23.883928571428573,NA
49519,Kent County,MI,24.330357142857142,NA
49546,Kent County,MI,62.27678571428571,NA
49849,Marquette County,MI,82.70089285714286,NA
49931,Houghton County,MI,80.80357142857143,NA
55033,Dakota County,MN,76.5625,NA
55073,Washington County,MN,99.33035714285714,NA
55116,Ramsey County,MN,87.27678571428571,NA
55125,Washington County,MN,NA,69.19354838709677
55130,Ramsey County,MN,32.03125,NA
55347,Hennepin County,MN,36.27232142857143,NA
55378,Scott County,MN,39.285714285714285,NA
55404,Hennepin County,MN,5.803571428571429,NA
55407,Hennepin County,MN,5.245535714285714,3.064516129032258
55409,Hennepin County,MN,NA,90
55411,Hennepin County,MN,NA,25.483870967741932
55412,Hennepin County,MN,NA,42.58064516129032
55442,Hennepin County,MN,96.875,NA
55443,Hennepin County,MN,NA,64.35483870967742
55709,Itasca County,MN,89.39732142857143,NA
55901,Olmsted County,MN,NA,54.19354838709678
55904,Olmsted County,MN,NA,63.38709677419355
55947,Houston County,MN,NA,95.48387096774194
56560,Clay County,MN,0.78125,NA
38654,DeSoto County,MS,27.455357142857146,NA
38852,Tishomingo County,MS,NA,83.54838709677419
39209,Hinds County,MS,18.415178571428573,NA
39530,Harrison County,MS,97.09821428571429,NA
39563,Jackson County,MS,78.125,NA
39666,Pike County,MS,70.42410714285714,NA
39759,Oktibbeha County,MS,45.64732142857143,NA
63033,St. Louis County,MO,NA,33.387096774193544
63042,St. Louis County,MO,49.330357142857146,71.29032258064515
63077,Franklin County,MO,69.08482142857143,NA
63106,St. Louis city,MO,NA,56.612903225806456
63112,St. Louis city,MO,NA,66.45161290322581
63115,St. Louis city,MO,NA,30.64516129032258
63118,St. Louis city,MO,NA,51.935483870967744
63133,St. Louis County,MO,80.58035714285714,NA
63136,St. Louis County,MO,NA,53.5483870967742
63137,St. Louis County,MO,27.00892857142857,35.32258064516129
63138,St. Louis County,MO,76.45089285714286,NA
63301,St. Charles County,MO,13.727678571428573,NA
63389,Lincoln County,MO,86.49553571428571,NA
63869,New Madrid County,MO,97.99107142857143,NA
64024,Clay County,MO,31.138392857142854,NA
64030,Jackson County,MO,9.709821428571429,NA
64052,Jackson County,MO,20.758928571428573,NA
64055,Jackson County,MO,NA,64.35483870967742
64067,Lafayette County,MO,NA,94.83870967741936
64127,Jackson County,MO,40.17857142857143,76.77419354838709
64128,Jackson County,MO,52.45535714285714,27.903225806451616
64129,Jackson County,MO,NA,91.61290322580645
64130,Jackson County,MO,41.85267857142857,NA
64132,Jackson County,MO,NA,59.51612903225807
64133,Jackson County,MO,NA,21.612903225806452
64134,Jackson County,MO,27.455357142857146,NA
64503,Buchanan County,MO,NA,62.74193548387097
64744,Cedar County,MO,80.91517857142857,NA
64776,St. Clair County,MO,98.66071428571429,NA
64801,Jasper County,MO,NA,42.25806451612903
64834,Jasper County,MO,73.10267857142857,NA
64836,Jasper County,MO,NA,45.16129032258064
64870,Jasper County,MO,50.33482142857143,NA
65202,Boone County,MO,NA,6.935483870967742
65332,Pettis County,MO,100,NA
65351,Saline County,MO,95.08928571428571,NA
65583,Pulaski County,MO,91.62946428571429,NA
65613,Polk County,MO,62.5,NA
65746,Webster County,MO,91.96428571428571,NA
65757,Greene County,MO,94.64285714285714,NA
65781,Greene County,MO,91.40625,NA
68111,Douglas County,NE,36.160714285714285,NA
68776,Dakota County,NE,78.125,NA
69001,Red Willow County,NE,96.42857142857143,NA
89101,Clark County,NV,44.754464285714285,59.354838709677416
89121,Clark County,NV,47.32142857142857,NA
89123,Clark County,NV,NA,98.06451612903226
89139,Clark County,NV,NA,96.61290322580646
89801,Elko County,NV,71.65178571428571,NA
03103,Hillsborough County,NH,2.0089285714285716,NA
03104,Hillsborough County,NH,NA,56.12903225806451
03835,Strafford County,NH,79.6875,NA
07008,Middlesex County,NJ,38.839285714285715,NA
07010,Bergen County,NJ,NA,97.58064516129032
07016,Union County,NJ,78.45982142857143,NA
07042,Essex County,NJ,91.85267857142857,NA
07102,Essex County,NJ,89.95535714285714,NA
07103,Essex County,NJ,82.03125,NA
07104,Essex County,NJ,3.125,NA
07105,Essex County,NJ,NA,92.0967741935484
07106,Essex County,NJ,33.370535714285715,NA
07201,Union County,NJ,52.23214285714286,NA
07306,Hudson County,NJ,56.02678571428571,NA
07424,Passaic County,NJ,93.63839285714286,NA
07501,Passaic County,NJ,NA,21.29032258064516
07513,Passaic County,NJ,96.65178571428571,NA
07728,Monmouth County,NJ,56.13839285714286,NA
07747,Monmouth County,NJ,91.96428571428571,NA
08030,Camden County,NJ,63.39285714285714,NA
08034,Camden County,NJ,NA,99.83870967741936
08084,Camden County,NJ,88.61607142857143,NA
08090,Gloucester County,NJ,95.08928571428571,NA
08096,Gloucester County,NJ,NA,7.419354838709677
08105,Camden County,NJ,75.78125,NA
08107,Camden County,NJ,NA,89.03225806451613
08302,Cumberland County,NJ,NA,46.61290322580645
08618,Mercer County,NJ,NA,2.4193548387096775
08619,Mercer County,NJ,NA,50.967741935483865
08629,Mercer County,NJ,NA,97.74193548387096
08753,Ocean County,NJ,8.59375,NA
08846,Middlesex County,NJ,NA,98.87096774193549
08873,Somerset County,NJ,18.973214285714285,NA
08901,Middlesex County,NJ,20.089285714285715,14.838709677419354
87102,Bernalillo County,NM,NA,86.7741935483871
87107,Bernalillo County,NM,45.3125,NA
87108,Bernalillo County,NM,NA,15
87114,Bernalillo County,NM,13.169642857142858,NA
87529,Taos County,NM,NA,98.70967741935483
88005,Doa Ana County,NM,NA,45.96774193548387
88007,Doa Ana County,NM,54.01785714285714,NA
88063,Doa Ana County,NM,NA,73.38709677419355
88081,Otero County,NM,NA,43.87096774193549
88101,Curry County,NM,5.691964285714286,NA
88231,Lea County,NM,94.19642857142857,NA
88240,Lea County,NM,11.160714285714286,NA
10009,New York County,NY,39.50892857142857,NA
10016,New York County,NY,NA,92.25806451612904
10026,New York County,NY,36.607142857142854,NA
10029,New York County,NY,NA,3.387096774193549
10030,New York County,NY,71.98660714285714,45.483870967741936
10031,New York County,NY,NA,32.41935483870968
10032,New York County,NY,23.549107142857142,5.967741935483871
10033,New York County,NY,NA,14.35483870967742
10034,New York County,NY,32.8125,NA
10035,New York County,NY,NA,19.193548387096772
10037,New York County,NY,72.32142857142857,40.64516129032258
10039,New York County,NY,91.51785714285714,10.64516129032258
10040,New York County,NY,48.88392857142857,NA
10301,Richmond County,NY,66.85267857142857,NA
10303,Richmond County,NY,NA,16.29032258064516
10304,Richmond County,NY,12.053571428571429,NA
10310,Richmond County,NY,44.97767857142857,NA
10451,Bronx County,NY,5.46875,52.09677419354839
10452,Bronx County,NY,15.848214285714285,0.16129032258064516
10453,Bronx County,NY,6.919642857142858,0.967741935483871
10454,Bronx County,NY,8.258928571428571,1.2903225806451613
10455,Bronx County,NY,11.495535714285714,NA
10456,Bronx County,NY,14.285714285714285,2.0967741935483875
10457,Bronx County,NY,0.5580357142857143,11.612903225806452
10458,Bronx County,NY,NA,2.741935483870968
10459,Bronx County,NY,NA,3.5483870967741935
10460,Bronx County,NY,NA,8.064516129032258
10461,Bronx County,NY,24.21875,NA
10462,Bronx County,NY,NA,2.258064516129032
10466,Bronx County,NY,NA,1.6129032258064515
10467,Bronx County,NY,NA,2.5806451612903225
10472,Bronx County,NY,57.03125,1.7741935483870968
10473,Bronx County,NY,2.6785714285714284,17.903225806451616
10552,Westchester County,NY,73.99553571428571,NA
10701,Westchester County,NY,66.51785714285714,1.935483870967742
10705,Westchester County,NY,63.72767857142857,12.258064516129032
11003,Nassau County,NY,71.65178571428571,NA
11201,Kings County,NY,NA,52.58064516129032
11203,Kings County,NY,43.638392857142854,34.516129032258064
11204,Kings County,NY,21.651785714285715,15.32258064516129
11206,Kings County,NY,57.92410714285714,NA
11207,Kings County,NY,49.66517857142857,43.70967741935484
11208,Kings County,NY,13.839285714285715,NA
11211,Kings County,NY,NA,6.129032258064516
11212,Kings County,NY,48.214285714285715,20.483870967741936
11213,Kings County,NY,75.66964285714286,NA
11214,Kings County,NY,NA,37.74193548387097
11218,Kings County,NY,NA,53.2258064516129
11219,Kings County,NY,NA,1.129032258064516
11220,Kings County,NY,0,0
11221,Kings County,NY,NA,17.580645161290324
11223,Kings County,NY,28.90625,NA
11226,Kings County,NY,29.24107142857143,NA
11229,Kings County,NY,53.125,NA
11233,Kings County,NY,NA,4.516129032258064
11234,Kings County,NY,37.388392857142854,NA
11236,Kings County,NY,NA,13.548387096774196
11237,Kings County,NY,62.83482142857143,6.290322580645161
11355,Queens County,NY,NA,4.193548387096775
11357,Queens County,NY,93.08035714285714,NA
11358,Queens County,NY,NA,72.09677419354838
11367,Queens County,NY,NA,20.64516129032258
11368,Queens County,NY,28.348214285714285,NA
11370,Queens County,NY,66.18303571428571,NA
11372,Queens County,NY,78.79464285714286,28.387096774193548
11373,Queens County,NY,33.705357142857146,18.225806451612904
11377,Queens County,NY,54.35267857142857,11.129032258064516
11385,Queens County,NY,8.147321428571429,NA
11416,Queens County,NY,87.83482142857143,NA
11419,Queens County,NY,59.93303571428571,19.032258064516128
11428,Queens County,NY,94.08482142857143,NA
11432,Queens County,NY,46.54017857142857,8.38709677419355
11433,Queens County,NY,49.21875,19.35483870967742
11434,Queens County,NY,23.995535714285715,NA
11501,Nassau County,NY,NA,96.45161290322581
11550,Nassau County,NY,23.4375,39.19354838709677
11575,Nassau County,NY,84.70982142857143,NA
11590,Nassau County,NY,48.4375,NA
11701,Suffolk County,NY,NA,62.58064516129033
11706,Suffolk County,NY,NA,19.516129032258064
11717,Suffolk County,NY,NA,6.612903225806452
11752,Suffolk County,NY,NA,97.41935483870968
11772,Suffolk County,NY,NA,33.387096774193544
11789,Suffolk County,NY,NA,89.35483870967742
11793,Nassau County,NY,NA,99.67741935483872
11798,Suffolk County,NY,74.44196428571429,NA
11951,Suffolk County,NY,71.20535714285714,NA
12010,Montgomery County,NY,NA,7.580645161290322
12043,Schoharie County,NY,77.23214285714286,NA
12047,Albany County,NY,48.325892857142854,59.51612903225807
12553,Orange County,NY,NA,97.90322580645162
12759,Sullivan County,NY,NA,94.19354838709677
13021,Cayuga County,NY,NA,71.93548387096774
13031,Onondaga County,NY,79.46428571428571,NA
13069,Oswego County,NY,NA,48.38709677419355
13146,Wayne County,NY,98.77232142857143,NA
13320,Otsego County,NY,97.32142857142857,NA
13440,Oneida County,NY,8.928571428571429,NA
13601,Jefferson County,NY,9.040178571428571,NA
13648,Lewis County,NY,91.96428571428571,NA
13815,Chenango County,NY,32.36607142857143,NA
13856,Delaware County,NY,50.66964285714286,NA
14048,Chautauqua County,NY,NA,66.45161290322581
14094,Niagara County,NY,7.924107142857142,NA
14213,Erie County,NY,51.22767857142857,NA
14215,Erie County,NY,35.714285714285715,NA
14216,Erie County,NY,NA,86.93548387096774
14220,Erie County,NY,NA,51.45161290322581
14222,Erie County,NY,46.42857142857143,NA
14305,Niagara County,NY,24.665178571428573,NA
14411,Orleans County,NY,46.986607142857146,NA
14420,Monroe County,NY,17.857142857142858,NA
14425,Ontario County,NY,NA,89.35483870967742
14525,Genesee County,NY,90.95982142857143,NA
14605,Monroe County,NY,31.361607142857146,NA
14609,Monroe County,NY,NA,4.354838709677419
14621,Monroe County,NY,2.455357142857143,7.258064516129033
14757,Chautauqua County,NY,96.76339285714286,NA
14883,Tioga County,NY,86.83035714285714,NA
27006,Davie County,NC,NA,94.35483870967742
27030,Surry County,NC,NA,16.612903225806452
27101,Forsyth County,NC,NA,44.516129032258064
27103,Forsyth County,NC,42.96875,NA
27105,Forsyth County,NC,2.9017857142857144,10.161290322580644
27106,Forsyth County,NC,13.058035714285715,NA
27107,Forsyth County,NC,NA,23.70967741935484
27215,Alamance County,NC,16.629464285714285,NA
27253,Alamance County,NC,38.839285714285715,NA
27265,Guilford County,NC,NA,60.483870967741936
27311,Caswell County,NC,99.55357142857143,NA
27379,Caswell County,NC,93.30357142857143,NA
27406,Guilford County,NC,7.477678571428571,NA
27407,Guilford County,NC,NA,69.03225806451613
27408,Guilford County,NC,89.17410714285714,NA
27501,Harnett County,NC,NA,87.41935483870968
27505,Harnett County,NC,98.21428571428571,NA
27524,Johnston County,NC,75.44642857142857,NA
27565,Granville County,NC,NA,41.774193548387096
27609,Wake County,NC,32.8125,NA
27613,Wake County,NC,83.14732142857143,NA
27615,Wake County,NC,66.18303571428571,NA
27616,Wake County,NC,NA,36.774193548387096
27703,Durham County,NC,20.647321428571427,NA
27704,Durham County,NC,6.138392857142857,NA
27834,Pitt County,NC,NA,11.935483870967742
27874,Halifax County,NC,97.43303571428571,NA
27891,Nash County,NC,80.46875,NA
27893,Wilson County,NC,NA,59.51612903225807
27909,Pasquotank County,NC,18.973214285714285,NA
28016,Gaston County,NC,69.19642857142857,NA
28025,Cabarrus County,NC,NA,36.45161290322581
28054,Gaston County,NC,NA,58.225806451612904
28086,Cleveland County,NC,60.04464285714286,44.67741935483871
28105,Mecklenburg County,NC,NA,84.35483870967741
28202,Mecklenburg County,NC,97.54464285714286,NA
28205,Mecklenburg County,NC,NA,54.516129032258064
28206,Mecklenburg County,NC,NA,53.387096774193544
28208,Mecklenburg County,NC,8.482142857142858,14.677419354838708
28209,Mecklenburg County,NC,NA,94.83870967741936
28210,Mecklenburg County,NC,NA,58.225806451612904
28211,Mecklenburg County,NC,46.09375,60.967741935483865
28213,Mecklenburg County,NC,22.991071428571427,NA
28215,Mecklenburg County,NC,NA,11.451612903225806
28216,Mecklenburg County,NC,NA,42.096774193548384
28217,Mecklenburg County,NC,NA,67.25806451612904
28227,Mecklenburg County,NC,NA,25
28277,Mecklenburg County,NC,40.95982142857143,NA
28303,Cumberland County,NC,34.375,NA
28306,Bladen County,NC,28.794642857142854,NA
28311,Cumberland County,NC,NA,43.87096774193549
28312,Cumberland County,NC,75.89285714285714,NA
28314,Cumberland County,NC,5.022321428571429,NA
28358,Robeson County,NC,NA,43.87096774193549
28371,Robeson County,NC,88.28125,NA
28377,Robeson County,NC,94.53125,NA
28383,Robeson County,NC,85.04464285714286,NA
28384,Bladen County,NC,85.49107142857143,NA
28387,Moore County,NC,65.17857142857143,NA
28390,Harnett County,NC,73.10267857142857,NA
28405,New Hanover County,NC,86.38392857142857,NA
28429,New Hanover County,NC,86.83035714285714,NA
28610,Catawba County,NC,57.70089285714286,NA
28630,Caldwell County,NC,76.00446428571429,NA
28655,Burke County,NC,NA,36.12903225806451
28677,Iredell County,NC,30.13392857142857,NA
28716,Haywood County,NC,NA,63.064516129032256
28734,Macon County,NC,30.691964285714285,NA
58078,Cass County,ND,NA,19.516129032258064
58504,Burleigh County,ND,NA,96.12903225806451
43015,Delaware County,OH,7.366071428571429,NA
43017,Franklin County,OH,NA,30.967741935483872
43040,Union County,OH,41.964285714285715,25.645161290322584
43068,Franklin County,OH,3.6830357142857144,30.967741935483872
43081,Franklin County,OH,NA,30.967741935483872
43110,Franklin County,OH,NA,48.87096774193548
43112,Fairfield County,OH,99.55357142857143,NA
43119,Franklin County,OH,17.1875,NA
43125,Franklin County,OH,27.455357142857146,NA
43147,Fairfield County,OH,28.125,NA
43204,Franklin County,OH,26.339285714285715,0.3225806451612903
43207,Franklin County,OH,NA,0.4838709677419355
43211,Franklin County,OH,65.625,2.903225806451613
43219,Franklin County,OH,NA,12.419354838709678
43224,Franklin County,OH,10.491071428571429,NA
43227,Franklin County,OH,17.410714285714285,NA
43228,Franklin County,OH,3.571428571428571,5.483870967741936
43229,Franklin County,OH,1.5625,21.451612903225804
43231,Franklin County,OH,NA,27.580645161290324
43232,Franklin County,OH,NA,4.032258064516129
43302,Marion County,OH,25.669642857142854,8.225806451612904
43311,Logan County,OH,56.58482142857143,NA
43315,Morrow County,OH,58.92857142857143,NA
43420,Sandusky County,OH,2.34375,NA
43506,Williams County,OH,67.07589285714286,NA
43537,Lucas County,OH,59.48660714285714,NA
43545,Henry County,OH,NA,56.12903225806451
43569,Wood County,OH,99.77678571428571,NA
43609,Lucas County,OH,NA,50.16129032258064
43612,Lucas County,OH,21.09375,NA
43701,Muskingum County,OH,0.2232142857142857,NA
43812,Coshocton County,OH,14.397321428571427,45.322580645161295
43920,Columbiana County,OH,NA,36.12903225806451
43953,Jefferson County,OH,57.36607142857143,NA
44004,Ashtabula County,OH,NA,25.645161290322584
44044,Lorain County,OH,55.58035714285714,NA
44052,Lorain County,OH,2.5669642857142856,NA
44055,Lorain County,OH,1.5625,NA
44070,Cuyahoga County,OH,NA,22.58064516129032
44090,Lorain County,OH,33.816964285714285,NA
44094,Lake County,OH,32.142857142857146,NA
44103,Cuyahoga County,OH,58.14732142857143,NA
44104,Cuyahoga County,OH,14.732142857142858,NA
44105,Cuyahoga County,OH,45.982142857142854,NA
44106,Cuyahoga County,OH,NA,38.064516129032256
44109,Cuyahoga County,OH,NA,1.4516129032258065
44111,Cuyahoga County,OH,11.830357142857142,NA
44122,Cuyahoga County,OH,NA,59.03225806451613
44123,Cuyahoga County,OH,NA,55.96774193548387
44125,Cuyahoga County,OH,16.629464285714285,12.580645161290322
44127,Cuyahoga County,OH,NA,51.45161290322581
44128,Cuyahoga County,OH,NA,5.64516129032258
44129,Cuyahoga County,OH,NA,28.225806451612907
44132,Cuyahoga County,OH,40.401785714285715,NA
44135,Cuyahoga County,OH,NA,3.225806451612903
44137,Cuyahoga County,OH,15.401785714285715,NA
44142,Cuyahoga County,OH,NA,78.70967741935485
44143,Cuyahoga County,OH,52.90178571428571,NA
44231,Portage County,OH,90.95982142857143,NA
44240,Portage County,OH,NA,32.74193548387097
44254,Medina County,OH,NA,77.90322580645162
44278,Summit County,OH,83.03571428571429,NA
44305,Summit County,OH,NA,14.032258064516128
44306,Summit County,OH,31.69642857142857,NA
44307,Summit County,OH,60.9375,NA
44310,Summit County,OH,23.214285714285715,NA
44312,Summit County,OH,35.825892857142854,NA
44321,Summit County,OH,71.98660714285714,NA
44408,Columbiana County,OH,88.72767857142857,NA
44413,Columbiana County,OH,67.63392857142857,NA
44425,Trumbull County,OH,22.65625,NA
44509,Mahoning County,OH,NA,75.64516129032258
44511,Mahoning County,OH,26.004464285714285,NA
44515,Mahoning County,OH,21.205357142857142,NA
44622,Tuscarawas County,OH,39.955357142857146,NA
44646,Stark County,OH,44.419642857142854,NA
44647,Stark County,OH,NA,54.677419354838705
44805,Ashland County,OH,13.504464285714285,NA
44814,Erie County,OH,86.49553571428571,NA
44820,Crawford County,OH,33.482142857142854,NA
44839,Erie County,OH,72.87946428571429,NA
44870,Erie County,OH,NA,33.70967741935484
44903,Richland County,OH,26.450892857142854,NA
44905,Richland County,OH,47.20982142857143,NA
45011,Butler County,OH,0.4464285714285714,12.741935483870966
45014,Butler County,OH,12.053571428571429,9.67741935483871
45039,Warren County,OH,56.25,NA
45040,Warren County,OH,NA,38.064516129032256
45044,Butler County,OH,NA,5.161290322580645
45067,Butler County,OH,NA,56.935483870967744
45103,Clermont County,OH,28.57142857142857,NA
45133,Highland County,OH,14.84375,NA
45140,Clermont County,OH,8.370535714285714,NA
45150,Clermont County,OH,37.83482142857143,NA
45152,Warren County,OH,NA,48.70967741935484
45157,Clermont County,OH,82.70089285714286,NA
45207,Hamilton County,OH,NA,50.967741935483865
45212,Hamilton County,OH,42.410714285714285,NA
45213,Hamilton County,OH,NA,85.48387096774194
45214,Hamilton County,OH,73.99553571428571,NA
45229,Hamilton County,OH,NA,24.193548387096776
45231,Hamilton County,OH,34.82142857142857,NA
45237,Hamilton County,OH,NA,17.419354838709676
45238,Hamilton County,OH,5.803571428571429,NA
45239,Hamilton County,OH,22.209821428571427,NA
45241,Hamilton County,OH,NA,73.87096774193549
45304,Darke County,OH,91.96428571428571,NA
45331,Darke County,OH,70.42410714285714,NA
45404,Montgomery County,OH,NA,77.41935483870968
45405,Montgomery County,OH,19.754464285714285,NA
45406,Montgomery County,OH,NA,16.93548387096774
45415,Montgomery County,OH,59.15178571428571,NA
45417,Montgomery County,OH,16.517857142857142,NA
45420,Montgomery County,OH,60.04464285714286,NA
45424,Montgomery County,OH,4.6875,4.67741935483871
45426,Montgomery County,OH,36.941964285714285,NA
45429,Montgomery County,OH,33.482142857142854,NA
45439,Montgomery County,OH,78.90625,NA
45459,Montgomery County,OH,NA,38.87096774193549
45503,Clark County,OH,NA,18.70967741935484
45640,Jackson County,OH,NA,16.612903225806452
45692,Jackson County,OH,41.517857142857146,NA
45694,Scioto County,OH,NA,51.45161290322581
45701,Athens County,OH,56.25,NA
45710,Athens County,OH,84.04017857142857,NA
45805,Allen County,OH,37.388392857142854,NA
45844,Putnam County,OH,90.95982142857143,NA
73068,Cleveland County,OK,73.88392857142857,NA
73122,Oklahoma County,OK,76.00446428571429,NA
74010,Creek County,OK,62.5,NA
74059,Payne County,OK,93.86160714285714,NA
74344,Delaware County,OK,80.35714285714286,NA
74365,Mayes County,OK,93.75,NA
74538,Coal County,OK,97.54464285714286,NA
74801,Pottawatomie County,OK,NA,62.903225806451616
74804,Pottawatomie County,OK,NA,74.51612903225806
74948,Sequoyah County,OK,75.11160714285714,NA
74955,Sequoyah County,OK,44.08482142857143,NA
97030,Multnomah County,OR,33.25892857142857,NA
97051,Columbia County,OR,68.97321428571429,NA
97058,Wasco County,OR,52.00892857142857,NA
97217,Multnomah County,OR,NA,79.51612903225806
97218,Multnomah County,OR,85.04464285714286,NA
97304,Polk County,OR,NA,80.64516129032258
97355,Linn County,OR,20.535714285714285,NA
97838,Umatilla County,OR,24.888392857142858,NA
97914,Malheur County,OR,53.57142857142857,NA
15062,Westmoreland County,PA,NA,86.45161290322581
15120,Allegheny County,PA,NA,86.93548387096774
15204,Allegheny County,PA,31.58482142857143,NA
15221,Allegheny County,PA,NA,50.32258064516129
15222,Allegheny County,PA,94.19642857142857,NA
15320,Greene County,PA,95.42410714285714,NA
15436,Fayette County,PA,99.21875,NA
15601,Westmoreland County,PA,NA,32.74193548387097
16001,Butler County,PA,19.308035714285715,NA
16146,Mercer County,PA,58.92857142857143,NA
16407,Erie County,PA,71.20535714285714,NA
16508,Erie County,PA,46.09375,NA
17036,Dauphin County,PA,4.575892857142857,NA
17066,Huntingdon County,PA,90.29017857142857,NA
17821,Montour County,PA,29.575892857142854,NA
17824,Northumberland County,PA,83.70535714285714,NA
17972,Schuylkill County,PA,67.63392857142857,NA
18042,Northampton County,PA,NA,19.516129032258064
18072,Northampton County,PA,NA,90.80645161290323
18102,Lehigh County,PA,9.486607142857142,29.838709677419356
18104,Lehigh County,PA,19.308035714285715,NA
18109,Lehigh County,PA,NA,56.612903225806456
18428,Pike County,PA,NA,89.35483870967742
18706,Luzerne County,PA,63.50446428571429,NA
18947,Bucks County,PA,92.41071428571429,NA
19002,Montgomery County,PA,60.04464285714286,NA
19013,Delaware County,PA,14.620535714285715,10.32258064516129
19018,Delaware County,PA,NA,92.74193548387096
19022,Delaware County,PA,NA,96.61290322580646
19023,Delaware County,PA,66.40625,NA
19036,Delaware County,PA,84.04017857142857,NA
19082,Delaware County,PA,16.071428571428573,NA
19111,Philadelphia County,PA,10.379464285714286,34.193548387096776
19115,Philadelphia County,PA,43.861607142857146,NA
19119,Philadelphia County,PA,81.36160714285714,NA
19120,Philadelphia County,PA,4.910714285714286,10.64516129032258
19121,Philadelphia County,PA,NA,27.903225806451616
19122,Philadelphia County,PA,NA,70.96774193548387
19124,Philadelphia County,PA,4.017857142857143,34.83870967741935
19126,Philadelphia County,PA,53.68303571428571,NA
19129,Philadelphia County,PA,96.20535714285714,NA
19131,Philadelphia County,PA,12.276785714285714,35.64516129032258
19132,Philadelphia County,PA,NA,20.32258064516129
19133,Philadelphia County,PA,45.870535714285715,24.193548387096776
19134,Philadelphia County,PA,NA,11.935483870967742
19135,Philadelphia County,PA,17.857142857142858,NA
19139,Philadelphia County,PA,37.276785714285715,NA
19140,Philadelphia County,PA,29.129464285714285,55.64516129032258
19141,Philadelphia County,PA,NA,39.35483870967742
19142,Philadelphia County,PA,58.37053571428571,NA
19143,Philadelphia County,PA,12.611607142857142,9.193548387096774
19144,Philadelphia County,PA,43.191964285714285,66.29032258064517
19146,Philadelphia County,PA,NA,57.41935483870968
19148,Philadelphia County,PA,13.504464285714285,NA
19149,Philadelphia County,PA,NA,50.967741935483865
19151,Philadelphia County,PA,NA,47.90322580645161
19154,Philadelphia County,PA,47.879464285714285,80.64516129032258
19401,Montgomery County,PA,68.30357142857143,NA
19512,Berks County,PA,55.02232142857143,NA
19601,Berks County,PA,3.7946428571428568,NA
19604,Berks County,PA,NA,7.903225806451612
19606,Berks County,PA,NA,52.25806451612903
29048,Orangeburg County,SC,NA,96.61290322580646
29138,Saluda County,SC,NA,99.03225806451613
29169,Lexington County,SC,NA,80.3225806451613
29210,Richland County,SC,NA,72.74193548387096
29356,Spartanburg County,SC,92.63392857142857,NA
29360,Laurens County,SC,50.11160714285714,NA
29379,Union County,SC,88.83928571428571,NA
29406,Charleston County,SC,23.772321428571427,NA
29407,Charleston County,SC,NA,58.225806451612904
29418,Charleston County,SC,55.24553571428571,NA
29445,Berkeley County,SC,11.272321428571429,49.03225806451613
29461,Berkeley County,SC,NA,47.25806451612903
29483,Dorchester County,SC,NA,37.096774193548384
29488,Colleton County,SC,NA,36.45161290322581
29512,Marlboro County,SC,57.47767857142857,NA
29536,Dillon County,SC,84.93303571428571,NA
29565,Dillon County,SC,95.53571428571429,NA
29569,Horry County,SC,61.04910714285714,NA
29579,Horry County,SC,77.00892857142857,NA
29605,Greenville County,SC,NA,65.80645161290323
29611,Greenville County,SC,NA,75
29615,Greenville County,SC,NA,97.25806451612902
29626,Anderson County,SC,61.27232142857143,NA
29707,Lancaster County,SC,93.08035714285714,NA
37022,Sumner County,TN,90.17857142857143,NA
37110,Warren County,TN,NA,49.193548387096776
37115,Davidson County,TN,18.191964285714285,NA
37130,Rutherford County,TN,21.205357142857142,NA
37208,Davidson County,TN,NA,57.41935483870968
37212,Davidson County,TN,89.95535714285714,NA
37214,Davidson County,TN,78.68303571428571,NA
37216,Davidson County,TN,NA,85.48387096774194
37218,Davidson County,TN,10.044642857142858,NA
37380,Marion County,TN,94.97767857142857,NA
37407,Hamilton County,TN,76.67410714285714,NA
37411,Hamilton County,TN,78.34821428571429,NA
37650,Unicoi County,TN,65.84821428571429,NA
37663,Sullivan County,TN,55.91517857142857,NA
37716,Anderson County,TN,18.526785714285715,NA
37764,Sevier County,TN,NA,67.74193548387096
37830,Anderson County,TN,NA,67.25806451612904
37854,Roane County,TN,63.95089285714286,NA
37863,Sevier County,TN,NA,78.87096774193549
37865,Sevier County,TN,NA,89.35483870967742
37876,Sevier County,TN,NA,69.19354838709677
37912,Knox County,TN,NA,45.645161290322584
37918,Knox County,TN,11.830357142857142,42.90322580645161
37919,Knox County,TN,44.308035714285715,NA
37921,Knox County,TN,15.625,30
37931,Knox County,TN,29.575892857142854,NA
37934,Knox County,TN,45.64732142857143,NA
38011,Tipton County,TN,NA,93.2258064516129
38024,Dyer County,TN,NA,47.58064516129033
38063,Lauderdale County,TN,NA,74.51612903225806
38109,Shelby County,TN,4.241071428571429,NA
38111,Shelby County,TN,30.580357142857146,23.06451612903226
38115,Shelby County,TN,1.0044642857142858,NA
38116,Shelby County,TN,9.151785714285714,18.225806451612904
38127,Shelby County,TN,23.214285714285715,7.741935483870968
38128,Shelby County,TN,12.5,10.32258064516129
38135,Shelby County,TN,78.01339285714286,NA
38372,Hardin County,TN,NA,80.3225806451613
38464,Lawrence County,TN,51.00446428571429,NA
38485,Wayne County,TN,NA,92.25806451612904
38506,Putnam County,TN,55.69196428571429,NA
38572,Cumberland County,TN,84.04017857142857,NA
75042,Dallas County,TX,52.56696428571429,NA
75048,Dallas County,TX,41.183035714285715,NA
75052,Dallas County,TX,13.950892857142858,NA
75063,Dallas County,TX,NA,71.29032258064515
75065,Denton County,TX,81.80803571428571,NA
75067,Denton County,TX,14.174107142857142,NA
75092,Grayson County,TX,64.17410714285714,NA
75110,Navarro County,TX,NA,26.61290322580645
75115,Dallas County,TX,51.11607142857143,NA
75149,Dallas County,TX,4.017857142857143,NA
75150,Dallas County,TX,22.433035714285715,NA
75154,Ellis County,TX,54.35267857142857,NA
75159,Dallas County,TX,NA,77.09677419354838
75181,Dallas County,TX,87.61160714285714,NA
75208,Dallas County,TX,65.73660714285714,NA
75212,Dallas County,TX,NA,24.677419354838708
75216,Dallas County,TX,6.4732142857142865,13.064516129032258
75217,Dallas County,TX,NA,31.774193548387096
75224,Dallas County,TX,37.16517857142857,NA
75227,Dallas County,TX,5.022321428571429,NA
75228,Dallas County,TX,6.4732142857142865,NA
75231,Dallas County,TX,NA,33.70967741935484
75236,Dallas County,TX,NA,34.67741935483871
75241,Dallas County,TX,27.232142857142854,NA
75253,Dallas County,TX,NA,49.67741935483871
75428,Hunt County,TX,NA,94.83870967741936
75455,Titus County,TX,58.03571428571429,NA
75501,Bowie County,TX,32.142857142857146,NA
75602,Gregg County,TX,21.986607142857142,NA
75638,Morris County,TX,NA,72.74193548387096
75701,Smith County,TX,28.57142857142857,50.645161290322584
75702,Smith County,TX,NA,39.35483870967742
75831,Leon County,TX,94.19642857142857,NA
75904,Angelina County,TX,54.79910714285714,NA
75956,Jasper County,TX,NA,90
76009,Johnson County,TX,NA,52.58064516129032
76028,Johnson County,TX,9.933035714285714,NA
76033,Johnson County,TX,NA,42.41935483870968
76040,Tarrant County,TX,43.861607142857146,NA
76058,Johnson County,TX,NA,60.322580645161295
76082,Parker County,TX,NA,85.48387096774194
76085,Parker County,TX,77.67857142857143,NA
76102,Tarrant County,TX,88.50446428571429,NA
76104,Tarrant County,TX,NA,42.90322580645161
76106,Tarrant County,TX,NA,9.032258064516128
76108,Tarrant County,TX,31.138392857142854,NA
76109,Tarrant County,TX,78.90625,NA
76114,Tarrant County,TX,NA,60.16129032258064
76118,Tarrant County,TX,NA,90.80645161290323
76119,Tarrant County,TX,NA,7.096774193548387
76123,Tarrant County,TX,22.767857142857142,NA
76207,Denton County,TX,NA,90
76258,Denton County,TX,95.08928571428571,NA
76384,Wilbarger County,TX,79.12946428571429,NA
76437,Eastland County,TX,92.52232142857143,NA
76522,Coryell County,TX,11.71875,NA
76541,Bell County,TX,51.5625,NA
76548,Bell County,TX,30.02232142857143,NA
76549,Bell County,TX,7.142857142857142,NA
76667,Limestone County,TX,47.879464285714285,NA
76704,McLennan County,TX,98.4375,NA
76707,McLennan County,TX,10.267857142857142,NA
77016,Harris County,TX,NA,60.967741935483865
77025,Harris County,TX,58.70535714285714,NA
77034,Harris County,TX,22.879464285714285,NA
77042,Harris County,TX,50.33482142857143,76.45161290322581
77048,Harris County,TX,77.45535714285714,NA
77066,Harris County,TX,55.02232142857143,NA
77080,Harris County,TX,NA,68.54838709677419
77083,Harris County,TX,NA,74.35483870967742
77090,Harris County,TX,53.01339285714286,NA
77099,Harris County,TX,36.607142857142854,NA
77302,Montgomery County,TX,82.47767857142857,NA
77379,Harris County,TX,11.495535714285714,NA
77396,Harris County,TX,NA,35.64516129032258
77450,Harris County,TX,NA,80.96774193548387
77471,Fort Bend County,TX,NA,50.645161290322584
77506,Harris County,TX,46.986607142857146,NA
77511,Brazoria County,TX,7.700892857142858,NA
77551,Galveston County,TX,NA,45
77563,Galveston County,TX,73.4375,NA
77703,Jefferson County,TX,NA,54.35483870967742
77705,Jefferson County,TX,70.87053571428571,NA
77807,Brazos County,TX,69.19642857142857,NA
77833,Washington County,TX,32.700892857142854,NA
77901,Victoria County,TX,48.995535714285715,27.09677419354839
77905,Victoria County,TX,NA,88.70967741935483
78015,Bexar County,TX,85.60267857142857,NA
78026,Atascosa County,TX,92.74553571428571,NA
78041,Webb County,TX,31.69642857142857,NA
78043,Webb County,TX,6.361607142857142,NA
78052,Atascosa County,TX,83.25892857142857,NA
78148,Bexar County,TX,80.13392857142857,NA
78155,Guadalupe County,TX,37.83482142857143,NA
78207,Bexar County,TX,58.59375,NA
78210,Bexar County,TX,67.52232142857143,NA
78211,Bexar County,TX,NA,26.93548387096774
78216,Bexar County,TX,40.401785714285715,NA
78219,Bexar County,TX,75.11160714285714,58.225806451612904
78220,Bexar County,TX,54.57589285714286,52.58064516129032
78223,Bexar County,TX,NA,17.580645161290324
78228,Bexar County,TX,3.3482142857142856,NA
78229,Bexar County,TX,53.68303571428571,NA
78237,Bexar County,TX,18.861607142857142,8.709677419354838
78247,Bexar County,TX,35.9375,NA
78249,Bexar County,TX,NA,54.677419354838705
78264,Bexar County,TX,71.42857142857143,NA
78384,Duval County,TX,86.16071428571429,NA
78387,San Patricio County,TX,NA,85.16129032258064
78408,Nueces County,TX,75.44642857142857,NA
78411,Nueces County,TX,NA,53.70967741935484
78413,Nueces County,TX,51.22767857142857,63.54838709677419
78414,Nueces County,TX,45.535714285714285,NA
78415,Nueces County,TX,13.950892857142858,NA
78541,Hidalgo County,TX,77.12053571428571,NA
78552,Cameron County,TX,61.94196428571429,NA
78582,Starr County,TX,44.97767857142857,NA
78593,Cameron County,TX,NA,97.09677419354838
78596,Hidalgo County,TX,42.96875,NA
78602,Bastrop County,TX,66.85267857142857,53.87096774193548
78645,Travis County,TX,86.04910714285714,NA
78660,Travis County,TX,54.12946428571429,NA
78666,Hays County,TX,16.40625,NA
78717,Williamson County,TX,80.91517857142857,NA
78754,Travis County,TX,NA,76.45161290322581
78801,Uvalde County,TX,73.66071428571429,NA
79102,Potter County,TX,NA,91.77419354838709
79106,Potter County,TX,50.22321428571429,NA
79107,Potter County,TX,14.955357142857142,NA
79108,Potter County,TX,NA,84.35483870967741
79404,Lubbock County,TX,NA,75.80645161290323
79413,Lubbock County,TX,7.8125,NA
79601,Taylor County,TX,NA,31.61290322580645
79701,Midland County,TX,35.379464285714285,NA
79706,Midland County,TX,25.558035714285715,NA
79735,Pecos County,TX,61.49553571428571,NA
79763,Ector County,TX,12.834821428571427,NA
79849,El Paso County,TX,72.32142857142857,NA
79901,El Paso County,TX,NA,76.77419354838709
79907,El Paso County,TX,29.799107142857146,NA
79912,El Paso County,TX,NA,25
79915,El Paso County,TX,NA,15.161290322580644
79925,El Paso County,TX,NA,20.967741935483872
79935,El Paso County,TX,37.83482142857143,NA
79938,El Paso County,TX,NA,10
84087,Davis County,UT,79.6875,NA
84088,Salt Lake County,UT,19.866071428571427,NA
22042,Fairfax County,VA,42.745535714285715,NA
22304,Alexandria city,VA,34.375,NA
22310,Fairfax County,VA,60.82589285714286,NA
22657,Shenandoah County,VA,60.04464285714286,NA
23111,Hanover County,VA,NA,46.774193548387096
23188,James City County,VA,69.97767857142857,NA
23236,Chesterfield County,VA,NA,92.74193548387096
23320,Chesapeake city,VA,NA,42.90322580645161
23435,Suffolk city,VA,22.098214285714285,NA
23502,Norfolk city,VA,69.19642857142857,NA
23509,Norfolk city,VA,NA,70.96774193548387
23601,Newport News city,VA,41.74107142857143,NA
23607,Newport News city,VA,69.75446428571429,NA
23663,Hampton city,VA,NA,56.12903225806451
23704,Portsmouth city,VA,70.87053571428571,NA
23803,Petersburg city,VA,NA,24.193548387096776
23851,Franklin city,VA,65.06696428571429,NA
23890,Sussex County,VA,95.98214285714286,NA
24153,Salem city,VA,66.74107142857143,NA
24179,Roanoke County,VA,NA,69.19354838709677
24219,Wise County,VA,NA,52.58064516129032
24260,Russell County,VA,73.4375,NA
24315,Bland County,VA,96.42857142857143,NA
24450,Rockbridge County,VA,NA,90.48387096774194
24502,Lynchburg city,VA,NA,84.35483870967741
24541,Danville city,VA,NA,70.48387096774194
24557,Pittsylvania County,VA,NA,88.38709677419355
98056,King County,WA,NA,85.48387096774194
98168,King County,WA,NA,82.09677419354838
98225,Whatcom County,WA,79.6875,NA
98273,Skagit County,WA,NA,25
98274,Skagit County,WA,NA,87.74193548387098
98312,Kitsap County,WA,NA,82.09677419354838
98329,Pierce County,WA,79.35267857142857,NA
98516,Thurston County,WA,NA,95.48387096774194
98532,Lewis County,WA,84.48660714285714,NA
98541,Grays Harbor County,WA,NA,94.51612903225806
98580,Pierce County,WA,81.25,NA
98902,Yakima County,WA,44.53125,31.93548387096774
98930,Yakima County,WA,NA,77.90322580645162
99301,Franklin County,WA,1.1160714285714286,NA
20001,District of Columbia,DC,26.89732142857143,72.74193548387096
20017,District of Columbia,DC,67.63392857142857,NA
20020,District of Columbia,DC,NA,11.774193548387096
20032,District of Columbia,DC,NA,27.741935483870968
24747,Mercer County,WV,99.88839285714286,NA
26101,Wood County,WV,NA,30.483870967741932
26105,Wood County,WV,81.36160714285714,NA
26554,Marion County,WV,13.28125,NA
53095,Washington County,WI,24.441964285714285,NA
53132,Milwaukee County,WI,32.36607142857143,NA
53151,Waukesha County,WI,37.723214285714285,NA
53172,Milwaukee County,WI,62.16517857142857,NA
53208,Milwaukee County,WI,25.892857142857146,NA
53212,Milwaukee County,WI,18.75,NA
53215,Milwaukee County,WI,1.4508928571428572,NA
53216,Milwaukee County,WI,4.464285714285714,13.548387096774196
53221,Milwaukee County,WI,25.78125,NA
53225,Milwaukee County,WI,7.03125,NA
53226,Milwaukee County,WI,71.65178571428571,NA
53406,Racine County,WI,7.2544642857142865,NA
53511,Rock County,WI,NA,40.32258064516129
53546,Rock County,WI,NA,72.09677419354838
53548,Rock County,WI,NA,78.87096774193549
53590,Dane County,WI,18.303571428571427,NA
54023,St. Croix County,WI,85.82589285714286,NA
54153,Oconto County,WI,81.80803571428571,NA
54157,Marinette County,WI,85.04464285714286,NA
54302,Brown County,WI,NA,70.48387096774194
54304,Brown County,WI,51.22767857142857,NA
54313,Brown County,WI,65.40178571428571,NA
54409,Langlade County,WI,NA,47.90322580645161
54481,Portage County,WI,35.15625,NA
54729,Chippewa County,WI,NA,83.87096774193549
