ZipCode,county,state,Adult,Retirement,Geriatric
35040,Shelby County,AL,72.07207207207207,NA,NA
35080,Shelby County,AL,57.65765765765766,NA,NA
35111,Tuscaloosa County,AL,NA,NA,55.670103092783506
35215,Jefferson County,AL,9.60960960960961,NA,NA
35226,Jefferson County,AL,NA,20.178041543026705,NA
35235,Jefferson County,AL,NA,76.55786350148368,NA
35404,Tuscaloosa County,AL,NA,NA,93.29896907216495
35406,Tuscaloosa County,AL,NA,98.51632047477746,NA
35453,Tuscaloosa County,AL,NA,63.798219584569736,NA
35475,Tuscaloosa County,AL,NA,87.24035608308606,NA
35476,Tuscaloosa County,AL,NA,NA,96.3917525773196
35490,Tuscaloosa County,AL,95.7957957957958,NA,NA
35570,Marion County,AL,NA,NA,47.42268041237113
35594,Marion County,AL,NA,NA,98.96907216494846
35630,Lauderdale County,AL,NA,31.750741839762615,NA
35634,Lauderdale County,AL,84.08408408408408,NA,91.23711340206185
35650,Lawrence County,AL,55.85585585585585,NA,NA
35654,Franklin County,AL,NA,NA,90.72164948453609
35661,Colbert County,AL,62.76276276276276,NA,53.09278350515464
35759,Madison County,AL,NA,97.92284866468842,NA
35801,Madison County,AL,NA,29.376854599406528,NA
35811,Madison County,AL,82.58258258258259,NA,NA
35962,DeKalb County,AL,96.09609609609609,NA,NA
36093,Elmore County,AL,70.57057057057057,NA,NA
36303,Houston County,AL,NA,NA,45.876288659793815
36310,Henry County,AL,NA,NA,97.9381443298969
36330,Coffee County,AL,46.846846846846844,NA,NA
36345,Henry County,AL,74.47447447447448,NA,NA
36426,Escambia County,AL,NA,NA,61.855670103092784
36535,Baldwin County,AL,NA,19.584569732937684,NA
36542,Baldwin County,AL,NA,61.42433234421365,NA
36567,Baldwin County,AL,NA,NA,77.31958762886599
36572,Mobile County,AL,95.1951951951952,NA,NA
36610,Mobile County,AL,NA,94.65875370919882,NA
36695,Mobile County,AL,35.43543543543544,NA,NA
99709,Fairbanks North Star Borough,AK,61.86186186186187,NA,71.64948453608247
85042,Maricopa County,AZ,28.52852852852853,NA,NA
85050,Maricopa County,AZ,NA,77.74480712166172,NA
85209,Maricopa County,AZ,NA,23.44213649851632,NA
85210,Maricopa County,AZ,24.924924924924923,NA,NA
85255,Maricopa County,AZ,NA,40.0593471810089,NA
85258,Maricopa County,AZ,63.66366366366366,NA,NA
85260,Maricopa County,AZ,NA,36.795252225519285,NA
85658,Pima County,AZ,NA,NA,85.56701030927834
85710,Pima County,AZ,9.90990990990991,NA,NA
85739,Pinal County,AZ,NA,26.409495548961427,NA
85756,Pima County,AZ,NA,58.753709198813056,NA
86326,Yavapai County,AZ,NA,21.068249258160236,NA
86327,Yavapai County,AZ,NA,58.45697329376854,NA
71602,Jefferson County,AR,60.36036036036037,NA,NA
71701,Ouachita County,AR,69.66966966966966,NA,NA
71852,Howard County,AR,78.67867867867868,NA,NA
71913,Garland County,AR,NA,23.738872403560833,NA
71953,Polk County,AR,NA,NA,35.051546391752574
72067,Cleburne County,AR,NA,98.81305637982196,NA
72088,Van Buren County,AR,NA,100,NA
72143,White County,AR,NA,NA,6.185567010309279
72227,Pulaski County,AR,67.56756756756756,NA,NA
72315,Mississippi County,AR,NA,45.40059347181009,NA
72712,Benton County,AR,NA,NA,65.97938144329896
72904,Sebastian County,AR,58.55855855855856,NA,NA
90047,Los Angeles County,CA,18.01801801801802,NA,NA
90232,Los Angeles County,CA,97.5975975975976,NA,NA
90245,Los Angeles County,CA,NA,95.84569732937686,NA
90503,Los Angeles County,CA,NA,70.91988130563797,NA
90713,Los Angeles County,CA,NA,NA,64.94845360824742
91306,Los Angeles County,CA,NA,NA,43.29896907216495
92019,San Diego County,CA,NA,43.62017804154303,NA
92020,San Diego County,CA,NA,NA,30.412371134020617
92024,San Diego County,CA,42.04204204204204,NA,NA
92129,San Diego County,CA,NA,NA,43.81443298969072
92131,San Diego County,CA,NA,NA,75.25773195876289
92211,Riverside County,CA,NA,9.495548961424333,NA
92270,Riverside County,CA,80.48048048048048,NA,NA
92284,San Bernardino County,CA,NA,24.629080118694365,NA
92570,Riverside County,CA,NA,72.70029673590504,NA
92651,Orange County,CA,NA,43.32344213649852,NA
92801,Orange County,CA,NA,29.970326409495552,NA
92886,Orange County,CA,NA,NA,53.608247422680414
93021,Ventura County,CA,NA,NA,70.10309278350515
93257,Tulare County,CA,NA,70.02967359050444,NA
93308,Kern County,CA,NA,27.89317507418398,NA
93312,Kern County,CA,40.24024024024024,NA,NA
93454,Santa Barbara County,CA,NA,43.916913946587535,NA
93562,San Bernardino County,CA,NA,97.62611275964392,NA
93722,Fresno County,CA,35.43543543543544,NA,NA
93924,Monterey County,CA,97.2972972972973,NA,NA
94131,San Francisco County,CA,NA,88.4272997032641,NA
94301,Santa Clara County,CA,NA,NA,54.63917525773196
94506,Contra Costa County,CA,NA,69.73293768545994,NA
94538,Alameda County,CA,NA,41.246290801186944,NA
94546,Alameda County,CA,51.95195195195195,NA,NA
94601,Alameda County,CA,NA,35.60830860534125,NA
94901,Marin County,CA,54.65465465465466,NA,NA
94925,Marin County,CA,92.49249249249249,NA,NA
94941,Marin County,CA,NA,38.57566765578635,NA
95023,San Benito County,CA,NA,79.52522255192879,NA
95076,Santa Cruz County,CA,NA,NA,31.443298969072163
95240,San Joaquin County,CA,17.71771771771772,NA,NA
95361,Stanislaus County,CA,NA,27.596439169139465,NA
95366,San Joaquin County,CA,NA,75.96439169139467,NA
95492,Sonoma County,CA,83.78378378378379,NA,NA
95610,Sacramento County,CA,46.246246246246244,NA,NA
95628,Sacramento County,CA,NA,NA,22.68041237113402
95642,Amador County,CA,NA,NA,72.16494845360825
95765,Placer County,CA,NA,NA,57.73195876288659
95949,Nevada County,CA,NA,47.47774480712167,NA
95991,Sutter County,CA,NA,NA,38.144329896907216
80014,Arapahoe County,CO,33.933933933933936,24.03560830860534,NA
80108,Douglas County,CO,48.94894894894895,NA,NA
80134,Douglas County,CO,57.95795795795796,NA,NA
80226,Jefferson County,CO,48.64864864864865,NA,NA
80249,Denver County,CO,36.93693693693694,NA,NA
80631,Weld County,CO,NA,NA,73.19587628865979
81212,Fremont County,CO,NA,51.038575667655785,NA
81507,Mesa County,CO,87.08708708708708,NA,NA
06010,Hartford County,CT,NA,2.6706231454005933,NA
06114,Hartford County,CT,18.61861861861862,NA,NA
06241,Windham County,CT,60.66066066066066,NA,NA
06450,New Haven County,CT,NA,11.869436201780417,NA
06489,Hartford County,CT,NA,NA,7.731958762886598
06492,New Haven County,CT,NA,11.572700296735905,NA
06516,New Haven County,CT,8.408408408408409,NA,NA
06518,New Haven County,CT,NA,90.80118694362018,NA
06605,Fairfield County,CT,NA,NA,68.04123711340206
06811,Fairfield County,CT,46.546546546546544,NA,NA
06855,Fairfield County,CT,NA,NA,88.65979381443299
06880,Fairfield County,CT,71.77177177177178,NA,NA
06902,Fairfield County,CT,22.52252252252252,NA,NA
06905,Fairfield County,CT,90.39039039039038,NA,NA
19966,Sussex County,DE,NA,8.605341246290802,NA
32034,Nassau County,FL,50.750750750750754,NA,NA
32082,St. Johns County,FL,79.57957957957959,NA,NA
32209,Duval County,FL,NA,13.94658753709199,NA
32501,Escambia County,FL,54.95495495495496,NA,NA
32514,Escambia County,FL,NA,13.649851632047477,NA
32526,Escambia County,FL,NA,NA,34.5360824742268
32539,Okaloosa County,FL,41.44144144144144,NA,NA
32606,Alachua County,FL,NA,74.4807121661721,NA
32720,Volusia County,FL,NA,82.49258160237389,NA
32778,Lake County,FL,81.68168168168168,NA,NA
32832,Orange County,FL,NA,88.72403560830861,NA
32953,Brevard County,FL,80.78078078078079,NA,NA
33156,Miami-Dade County,FL,NA,NA,42.2680412371134
33175,Miami-Dade County,FL,NA,NA,46.391752577319586
33185,Miami-Dade County,FL,NA,NA,62.88659793814433
33196,Miami-Dade County,FL,NA,59.05044510385756,NA
33308,Broward County,FL,NA,14.836795252225517,NA
33417,Palm Beach County,FL,NA,NA,20.618556701030926
33431,Palm Beach County,FL,NA,53.11572700296736,NA
33432,Palm Beach County,FL,NA,NA,25.257731958762886
33616,Hillsborough County,FL,86.18618618618619,NA,NA
33764,Pinellas County,FL,NA,NA,89.69072164948454
33909,Lee County,FL,43.84384384384384,NA,NA
33912,Lee County,FL,NA,NA,80.9278350515464
33914,Lee County,FL,NA,45.6973293768546,NA
34110,Collier County,FL,NA,47.774480712166174,NA
34275,Sarasota County,FL,NA,26.112759643916917,NA
34429,Citrus County,FL,NA,84.56973293768546,NA
34731,Lake County,FL,NA,NA,79.89690721649485
34990,Martin County,FL,NA,NA,2.0618556701030926
30004,Fulton County,GA,NA,32.34421364985163,NA
30019,Gwinnett County,GA,NA,37.388724035608305,NA
30045,Gwinnett County,GA,57.05705705705706,NA,NA
30078,Gwinnett County,GA,59.15915915915916,71.81008902077151,NA
30122,Douglas County,GA,NA,68.24925816023739,NA
30126,Cobb County,GA,44.74474474474475,NA,NA
30180,Carroll County,GA,25.225225225225223,NA,NA
30223,Spalding County,GA,NA,81.30563798219585,NA
30305,Fulton County,GA,NA,68.5459940652819,NA
30312,Fulton County,GA,NA,48.96142433234421,NA
30329,DeKalb County,GA,NA,NA,60.30927835051546
30345,DeKalb County,GA,NA,NA,81.95876288659794
30427,Tattnall County,GA,82.88288288288288,NA,NA
30518,Gwinnett County,GA,NA,NA,40.20618556701031
30577,Stephens County,GA,84.38438438438438,NA,NA
30677,Oconee County,GA,87.68768768768768,NA,NA
30725,Walker County,GA,91.29129129129129,NA,NA
30824,McDuffie County,GA,NA,NA,68.55670103092784
31021,Laurens County,GA,40.54054054054054,NA,NA
31024,Putnam County,GA,NA,NA,27.835051546391753
31029,Monroe County,GA,NA,73.59050445103857,NA
31092,Dooly County,GA,NA,89.02077151335311,NA
31210,Bibb County,GA,NA,54.89614243323442,NA
31308,Bryan County,GA,93.3933933933934,NA,NA
31791,Worth County,GA,NA,57.86350148367953,NA
31904,Muscogee County,GA,32.432432432432435,NA,NA
31909,Muscogee County,GA,NA,NA,29.896907216494846
96706,Honolulu County,HI,NA,12.166172106824925,NA
96707,Honolulu County,HI,NA,28.486646884272997,NA
96782,Honolulu County,HI,NA,72.10682492581603,NA
83350,Minidoka County,ID,NA,60.83086053412463,NA
83402,Bonneville County,ID,NA,96.73590504451039,NA
83815,Kootenai County,ID,NA,18.694362017804153,NA
83835,Kootenai County,ID,NA,33.82789317507419,NA
83854,Kootenai County,ID,NA,55.19287833827893,NA
60005,Cook County,IL,56.15615615615616,NA,NA
60089,Lake County,IL,40.84084084084084,NA,NA
60164,Cook County,IL,NA,NA,51.546391752577314
60188,DuPage County,IL,20.42042042042042,NA,NA
60194,Cook County,IL,NA,NA,39.69072164948454
60411,Cook County,IL,15.015015015015015,NA,NA
60417,Will County,IL,60.96096096096096,NA,NA
60435,Will County,IL,NA,94.06528189910979,NA
60439,Cook County,IL,NA,17.50741839762611,NA
60440,Will County,IL,NA,45.103857566765576,NA
60455,Cook County,IL,NA,86.94362017804154,NA
60463,Cook County,IL,NA,73.29376854599407,NA
60525,Cook County,IL,NA,13.056379821958458,NA
60609,Cook County,IL,NA,NA,19.587628865979383
60643,Cook County,IL,NA,3.5608308605341246,NA
60649,Cook County,IL,NA,NA,17.010309278350515
60707,Cook County,IL,NA,NA,9.278350515463918
60950,Kankakee County,IL,88.28828828828829,NA,NA
61065,Boone County,IL,66.06606606606607,NA,NA
61554,Tazewell County,IL,31.23123123123123,78.63501483679525,NA
61802,Champaign County,IL,NA,NA,59.79381443298969
61920,Coles County,IL,55.25525525525525,NA,NA
61938,Coles County,IL,NA,NA,59.27835051546392
62002,Madison County,IL,NA,53.41246290801187,NA
62062,Madison County,IL,95.4954954954955,NA,NA
62095,Madison County,IL,NA,93.17507418397626,NA
62234,Madison County,IL,NA,41.246290801186944,NA
62254,St. Clair County,IL,NA,92.28486646884274,NA
62298,Monroe County,IL,NA,NA,60.824742268041234
62526,Macon County,IL,12.312312312312311,NA,NA
62966,Jackson County,IL,NA,NA,34.02061855670103
46001,Madison County,IN,NA,91.69139465875371,NA
46069,Hamilton County,IN,NA,NA,98.4536082474227
46077,Boone County,IN,NA,NA,50
46122,Hendricks County,IN,NA,67.06231454005935,NA
46124,Johnson County,IN,78.37837837837837,NA,NA
46217,Marion County,IN,NA,NA,37.628865979381445
46250,Marion County,IN,NA,85.16320474777447,NA
46342,Lake County,IN,5.7057057057057055,NA,NA
46375,Lake County,IN,NA,16.023738872403563,NA
46383,Porter County,IN,NA,5.637982195845697,NA
46405,Lake County,IN,41.74174174174174,NA,NA
46544,St. Joseph County,IN,NA,79.82195845697329,NA
46806,Allen County,IN,NA,35.90504451038576,NA
46818,Allen County,IN,NA,42.433234421364986,NA
46902,Howard County,IN,3.003003003003003,3.2640949554896146,NA
46952,Grant County,IN,NA,NA,18.556701030927837
47150,Floyd County,IN,79.27927927927928,NA,NA
47167,Washington County,IN,73.27327327327328,NA,NA
47265,Jennings County,IN,NA,64.39169139465875,NA
47403,Monroe County,IN,83.18318318318319,53.70919881305638,NA
47725,Vanderburgh County,IN,NA,NA,67.5257731958763
47842,Vermillion County,IN,NA,64.09495548961425,NA
47905,Tippecanoe County,IN,42.64264264264264,NA,NA
50595,Hamilton County,IA,72.67267267267268,NA,NA
50801,Union County,IA,NA,NA,70.61855670103093
51351,Dickinson County,IA,NA,NA,74.74226804123711
51503,Pottawattamie County,IA,NA,4.154302670623145,NA
52003,Dubuque County,IA,NA,86.05341246290801,NA
52240,Johnson County,IA,NA,NA,24.22680412371134
52402,Linn County,IA,NA,95.25222551928783,NA
52501,Wapello County,IA,NA,27.299703264094955,NA
52761,Muscatine County,IA,12.012012012012011,NA,NA
66007,Leavenworth County,KS,NA,81.89910979228486,NA
66049,Douglas County,KS,NA,34.124629080118694,NA
66062,Johnson County,KS,10.51051051051051,NA,NA
66064,Miami County,KS,NA,NA,78.35051546391753
66104,Wyandotte County,KS,29.72972972972973,NA,NA
66109,Wyandotte County,KS,NA,NA,28.350515463917525
66221,Johnson County,KS,65.76576576576578,NA,NA
66606,Shawnee County,KS,NA,79.22848664688428,NA
66611,Shawnee County,KS,NA,NA,62.371134020618555
67005,Cowley County,KS,76.57657657657657,NA,NA
67401,Saline County,KS,21.92192192192192,NA,NA
67420,Mitchell County,KS,98.7987987987988,97.3293768545994,NA
67460,McPherson County,KS,73.87387387387388,NA,NA
67637,Ellis County,KS,98.49849849849849,NA,NA
67846,Finney County,KS,24.324324324324326,NA,NA
40059,Jefferson County,KY,NA,84.86646884272997,NA
40165,Bullitt County,KY,16.516516516516518,NA,NA
40208,Jefferson County,KY,49.849849849849846,NA,NA
40215,Jefferson County,KY,20.12012012012012,NA,NA
40219,Jefferson County,KY,14.114114114114114,NA,NA
40228,Jefferson County,KY,NA,NA,56.18556701030928
40258,Jefferson County,KY,24.624624624624623,NA,40.72164948453608
40356,Jessamine County,KY,45.34534534534534,NA,NA
40769,Whitley County,KY,35.13513513513514,NA,NA
41091,Boone County,KY,NA,62.61127596439169,NA
41169,Greenup County,KY,98.1981981981982,NA,NA
42301,Daviess County,KY,NA,10.682492581602373,NA
42330,Muhlenberg County,KY,65.46546546546547,NA,NA
42345,Muhlenberg County,KY,NA,NA,52.0618556701031
70065,Jefferson Parish,LA,NA,NA,1.0309278350515463
70127,Orleans Parish,LA,NA,NA,94.84536082474226
70301,Lafourche Parish,LA,16.816816816816818,NA,NA
70401,Tangipahoa Parish,LA,NA,33.23442136498516,NA
70508,Lafayette Parish,LA,17.117117117117118,54.00593471810089,NA
70510,Vermilion Parish,LA,38.43843843843844,NA,NA
70529,Lafayette Parish,LA,NA,94.3620178041543,NA
70546,Jefferson Davis Parish,LA,NA,57.27002967359051,NA
70726,Livingston Parish,LA,NA,8.011869436201781,NA
70769,Ascension Parish,LA,10.21021021021021,NA,NA
70785,Livingston Parish,LA,NA,NA,50
71105,Caddo Parish,LA,NA,42.13649851632047,NA
71107,Caddo Parish,LA,NA,NA,24.742268041237114
71108,Caddo Parish,LA,NA,NA,88.14432989690721
71111,Bossier Parish,LA,NA,13.056379821958458,NA
04401,Penobscot County,ME,2.1021021021021022,NA,NA
21085,Harford County,MD,66.36636636636636,NA,NA
21403,Anne Arundel County,MD,61.261261261261254,NA,NA
01201,Berkshire County,MA,1.2012012012012012,NA,NA
01226,Berkshire County,MA,NA,83.67952522255193,NA
01463,Middlesex County,MA,69.36936936936937,NA,NA
01545,Worcester County,MA,NA,15.133531157270031,NA
01605,Worcester County,MA,37.53753753753754,NA,NA
01742,Middlesex County,MA,NA,35.01483679525222,NA
01844,Essex County,MA,NA,2.967359050445104,NA
01852,Middlesex County,MA,0,NA,NA
02052,Norfolk County,MA,NA,56.97329376854599,NA
02125,Suffolk County,MA,3.303303303303303,NA,NA
02127,Suffolk County,MA,1.5015015015015014,NA,NA
02132,Suffolk County,MA,12.912912912912914,NA,NA
02148,Middlesex County,MA,NA,0,NA
02169,Norfolk County,MA,3.903903903903904,NA,NA
02302,Plymouth County,MA,NA,NA,56.70103092783505
02382,Plymouth County,MA,NA,52.52225519287834,NA
02446,Norfolk County,MA,21.02102102102102,NA,NA
02472,Middlesex County,MA,8.108108108108109,NA,NA
02536,Barnstable County,MA,NA,12.759643916913946,NA
02740,Bristol County,MA,NA,0.2967359050445104,NA
02780,Bristol County,MA,NA,14.243323442136498,NA
48066,Macomb County,MI,2.4024024024024024,NA,NA
48111,Wayne County,MI,7.5075075075075075,NA,NA
48114,Livingston County,MI,NA,24.33234421364985,NA
48141,Wayne County,MI,9.30930930930931,NA,NA
48144,Monroe County,MI,NA,72.99703264094956,NA
48176,Washtenaw County,MI,NA,NA,82.9896907216495
48206,Wayne County,MI,NA,59.940652818991104,NA
48212,Wayne County,MI,NA,12.462908011869436,NA
48340,Oakland County,MI,NA,30.86053412462908,NA
48386,Oakland County,MI,NA,39.46587537091988,NA
48430,Genesee County,MI,NA,19.287833827893174,NA
48433,Genesee County,MI,NA,19.881305637982198,NA
48458,Genesee County,MI,NA,NA,48.96907216494845
48601,Saginaw County,MI,1.8018018018018018,NA,NA
48603,Saginaw County,MI,NA,NA,10.309278350515463
48622,Clare County,MI,68.16816816816817,NA,NA
48657,Midland County,MI,NA,62.31454005934718,NA
48661,Ogemaw County,MI,54.35435435435435,NA,NA
48706,Bay County,MI,31.53153153153153,NA,NA
48734,Saginaw County,MI,82.28228228228228,NA,NA
48739,Iosco County,MI,NA,NA,79.38144329896907
48867,Shiawassee County,MI,7.807807807807808,NA,NA
48883,Isabella County,MI,85.58558558558559,NA,NA
49230,Jackson County,MI,NA,NA,95.36082474226805
49247,Lenawee County,MI,NA,NA,86.08247422680412
49306,Kent County,MI,84.68468468468468,NA,NA
49421,Oceana County,MI,76.87687687687688,NA,NA
49428,Ottawa County,MI,NA,28.18991097922849,NA
49508,Kent County,MI,6.006006006006006,NA,8.24742268041237
49509,Kent County,MI,NA,15.727002967359049,NA
55051,Kanabec County,MN,NA,66.46884272997032,NA
55123,Dakota County,MN,76.27627627627628,NA,NA
55371,Mille Lacs County,MN,NA,65.57863501483679,NA
55731,St. Louis County,MN,96.3963963963964,NA,NA
55901,Olmsted County,MN,27.927927927927925,NA,NA
56001,Blue Earth County,MN,NA,31.15727002967359,NA
56345,Morrison County,MN,NA,96.439169139465875,NA
56353,Mille Lacs County,MN,97.8978978978979,NA,NA
56425,Crow Wing County,MN,94.29429429429429,NA,NA
56470,Hubbard County,MN,63.36336336336337,NA,NA
56716,Polk County,MN,32.13213213213213,NA,NA
39440,Jones County,MS,NA,89.91097922848664,NA
39443,Jones County,MS,96.996996996997,NA,NA
39560,Harrison County,MS,NA,37.0919881305638,NA
39573,Stone County,MS,NA,78.93175074183976,NA
39740,Lowndes County,MS,94.8948948948949,NA,NA
63023,Jefferson County,MO,NA,97.03264094955489,NA
63033,St. Louis County,MO,NA,62.01780415430267,NA
63050,Jefferson County,MO,NA,64.98516320474778,NA
63124,St. Louis County,MO,NA,NA,29.381443298969074
63366,St. Charles County,MO,13.213213213213212,NA,NA
63552,Macon County,MO,75.07507507507508,NA,NA
63628,St. Francois County,MO,NA,60.23738872403561,NA
63650,Iron County,MO,NA,NA,75.77319587628865
63935,Ripley County,MO,53.753753753753756,NA,NA
64052,Jackson County,MO,NA,32.34421364985163,NA
64055,Jackson County,MO,NA,7.418397626112759,NA
64057,Jackson County,MO,NA,46.29080118694362,NA
64063,Jackson County,MO,39.93993993993994,NA,87.62886597938144
64109,Jackson County,MO,29.429429429429426,NA,NA
64114,Jackson County,MO,NA,37.98219584569733,NA
64116,Clay County,MO,26.126126126126124,NA,NA
64151,Platte County,MO,NA,16.61721068249258,NA
64152,Platte County,MO,21.32132132132132,NA,NA
64156,Clay County,MO,NA,99.70326409495549,NA
64503,Buchanan County,MO,57.35735735735735,NA,NA
64506,Buchanan County,MO,NA,6.824925816023739,NA
64507,Buchanan County,MO,28.22822822822823,35.311572700296736,NA
64801,Jasper County,MO,NA,44.80712166172107,NA
64804,Jasper County,MO,NA,NA,12.371134020618557
65325,Benton County,MO,99.09909909909909,NA,NA
65355,Benton County,MO,52.552552552552555,NA,NA
65802,Greene County,MO,11.11111111111111,NA,NA
59270,Richland County,MT,93.993993993994,NA,NA
59501,Hill County,MT,NA,83.38278931750742,NA
59602,Lewis and Clark County,MT,NA,NA,32.47422680412371
59917,Lincoln County,MT,NA,NA,90.20618556701031
68007,Douglas County,NE,NA,96.14243323442136,NA
68137,Douglas County,NE,51.651651651651655,NA,NA
89139,Clark County,NV,69.96996996996997,NA,NA
89410,Douglas County,NV,NA,NA,92.26804123711341
89434,Washoe County,NV,44.44444444444444,NA,NA
89445,Humboldt County,NV,72.37237237237237,NA,NA
89451,Washoe County,NV,NA,83.97626112759644,NA
89512,Washoe County,NV,NA,43.02670623145401,NA
89701,Carson City,NV,NA,40.35608308605341,NA
03063,Hillsborough County,NH,NA,69.43620178041543,NA
03301,Merrimack County,NH,NA,NA,3.0927835051546393
03878,Strafford County,NH,NA,NA,61.34020618556701
07005,Morris County,NJ,NA,NA,71.1340206185567
07081,Union County,NJ,NA,73.88724035608308,NA
07302,Hudson County,NJ,88.58858858858859,NA,NA
07470,Passaic County,NJ,NA,3.857566765578635,NA
07631,Bergen County,NJ,30.630630630630627,NA,NA
07644,Bergen County,NJ,NA,98.21958456973294,NA
07740,Monmouth County,NJ,7.207207207207207,NA,NA
07866,Morris County,NJ,NA,39.762611275964396,NA
08046,Burlington County,NJ,63.96396396396396,NA,NA
08079,Salem County,NJ,NA,94.95548961424333,NA
08360,Cumberland County,NJ,0.6006006006006006,NA,NA
08755,Ocean County,NJ,NA,NA,9.793814432989691
08816,Middlesex County,NJ,36.03603603603604,NA,NA
87111,Bernalillo County,NM,2.7027027027027026,NA,NA
88061,Grant County,NM,NA,64.68842729970326,NA
10011,New York County,NY,NA,17.210682492581604,NA
10016,New York County,NY,NA,NA,21.1340206185567
10024,New York County,NY,NA,NA,2.5773195876288657
10029,New York County,NY,NA,0.5934718100890208,NA
10456,Bronx County,NY,NA,NA,20.103092783505154
10460,Bronx County,NY,13.513513513513514,NA,NA
10466,Bronx County,NY,23.123123123123122,NA,11.34020618556701
10530,Westchester County,NY,NA,80.1186943620178,NA
10601,Westchester County,NY,NA,80.71216617210682,NA
11238,Kings County,NY,52.85285285285285,NA,NA
11373,Queens County,NY,15.915915915915916,NA,NA
11706,Suffolk County,NY,23.723723723723726,NA,NA
11714,Nassau County,NY,NA,NA,45.36082474226804
11729,Suffolk County,NY,NA,57.566765578635014,NA
11742,Suffolk County,NY,91.5915915915916,NA,NA
11746,Suffolk County,NY,49.549549549549546,NA,NA
11942,Suffolk County,NY,NA,NA,93.81443298969072
12010,Montgomery County,NY,NA,NA,5.670103092783505
12078,Fulton County,NY,4.504504504504505,NA,NA
12118,Saratoga County,NY,NA,50.74183976261127,NA
12303,Schenectady County,NY,39.33933933933934,NA,NA
12306,Schenectady County,NY,NA,NA,39.175257731958766
12953,Franklin County,NY,19.21921921921922,NA,NA
13082,Madison County,NY,87.98798798798799,NA,NA
13126,Oswego County,NY,NA,6.231454005934718,NA
13211,Onondaga County,NY,73.87387387387388,NA,NA
13348,Otsego County,NY,93.69369369369369,NA,NA
13865,Broome County,NY,48.048048048048045,NA,NA
14304,Niagara County,NY,5.105105105105105,NA,NA
14502,Wayne County,NY,NA,46.29080118694362,NA
14616,Monroe County,NY,NA,7.71513353115727,NA
14621,Monroe County,NY,NA,2.0771513353115725,NA
14626,Monroe County,NY,NA,NA,6.701030927835052
14779,Cattaraugus County,NY,NA,81.00890207715133,NA
14787,Chautauqua County,NY,NA,87.53709198813057,NA
14870,Steuben County,NY,58.25825825825825,NA,NA
27025,Rockingham County,NC,NA,NA,85.05154639175258
27263,Randolph County,NC,44.74474474474475,NA,NA
27295,Davidson County,NC,NA,85.7566765578635,NA
27302,Alamance County,NC,NA,11.275964391691394,NA
27306,Montgomery County,NC,67.26726726726727,NA,NA
27330,Lee County,NC,23.423423423423422,NA,NA
27517,Orange County,NC,NA,24.92581602373887,NA
27521,Harnett County,NC,NA,91.98813056379822,NA
27587,Wake County,NC,66.66666666666666,NA,NA
27828,Pitt County,NC,85.88588588588588,NA,NA
27889,Beaufort County,NC,NA,21.364985163204746,NA
27891,Nash County,NC,NA,91.3946587537092,NA
28043,Rutherford County,NC,NA,NA,41.75257731958763
28056,Gaston County,NC,NA,44.510385756676556,NA
28114,Rutherford County,NC,NA,93.47181008902076,NA
28117,Iredell County,NC,NA,28.783382789317507,NA
28146,Rowan County,NC,34.234234234234236,NA,NA
28207,Mecklenburg County,NC,NA,78.33827893175074,NA
28227,Mecklenburg County,NC,NA,15.43026706231454,NA
28277,Mecklenburg County,NC,NA,17.804154302670625,NA
28314,Cumberland County,NC,87.38738738738738,NA,NA
28320,Bladen County,NC,NA,70.62314540059347,NA
28328,Sampson County,NC,36.33633633633634,NA,NA
28466,Duplin County,NC,NA,67.65578635014838,NA
28557,Carteret County,NC,NA,38.27893175074184,NA
28612,Burke County,NC,NA,NA,83.50515463917526
28613,Catawba County,NC,41.14114114114114,NA,NA
28638,Caldwell County,NC,NA,NA,74.22680412371135
28645,Caldwell County,NC,NA,0.8902077151335311,NA
28659,Wilkes County,NC,22.22222222222222,NA,NA
28677,Iredell County,NC,17.417417417417415,NA,NA
28694,Ashe County,NC,NA,65.28189910979229,NA
28721,Haywood County,NC,NA,89.31750741839762,NA
28787,Buncombe County,NC,NA,69.13946587537092,NA
28791,Henderson County,NC,NA,NA,15.979381443298967
28792,Henderson County,NC,NA,NA,0
28904,Clay County,NC,NA,62.908011869436194,NA
58501,Burleigh County,ND,NA,25.816023738872403,NA
58504,Burleigh County,ND,86.48648648648648,NA,NA
58701,Ward County,ND,36.93693693693694,NA,NA
43011,Knox County,OH,NA,86.35014836795251,NA
43026,Franklin County,OH,21.62162162162162,NA,NA
43040,Union County,OH,27.32732732732733,NA,NA
43130,Fairfield County,OH,NA,2.3738872403560833,NA
43204,Franklin County,OH,NA,42.72997032640949,NA
43223,Franklin County,OH,6.306306306306306,NA,NA
43452,Ottawa County,OH,68.76876876876878,NA,NA
43460,Wood County,OH,NA,NA,81.44329896907216
43516,Henry County,OH,100,NA,NA
43537,Lucas County,OH,NA,NA,23.195876288659793
43543,Williams County,OH,NA,NA,66.49484536082474
43551,Wood County,OH,43.54354354354354,NA,NA
43560,Lucas County,OH,27.027027027027028,NA,NA
43609,Lucas County,OH,NA,36.20178041543027,NA
43612,Lucas County,OH,22.822822822822822,NA,NA
43614,Lucas County,OH,38.73873873873874,NA,NA
43616,Lucas County,OH,14.414414414414415,10.979228486646884,NA
43731,Perry County,OH,NA,NA,94.3298969072165
44052,Lorain County,OH,NA,1.7804154302670623,NA
44060,Lake County,OH,NA,1.1869436201780417,NA
44062,Geauga County,OH,NA,NA,82.4742268041237
44081,Lake County,OH,NA,77.44807121661721,NA
44109,Cuyahoga County,OH,0.3003003003003003,NA,NA
44116,Cuyahoga County,OH,NA,NA,4.639175257731959
44125,Cuyahoga County,OH,NA,10.089020771513352,NA
44131,Cuyahoga County,OH,NA,NA,3.608247422680412
44147,Cuyahoga County,OH,47.44744744744745,NA,NA
44216,Summit County,OH,NA,91.0979228486647,NA
44231,Portage County,OH,NA,83.97626112759644,NA
44254,Medina County,OH,NA,71.2166172106825,NA
44270,Wayne County,OH,NA,NA,76.28865979381443
44301,Summit County,OH,NA,50.14836795252226,NA
44420,Trumbull County,OH,NA,48.367952522255194,NA
44481,Trumbull County,OH,NA,NA,67.0103092783505
44646,Stark County,OH,NA,40.94955489614243,NA
44685,Summit County,OH,69.06906906906907,NA,NA
44721,Stark County,OH,NA,NA,63.4020618556701
44805,Ashland County,OH,14.714714714714713,5.341246290801187,1.5463917525773196
44811,Sandusky County,OH,33.033033033033036,NA,NA
44813,Richland County,OH,70.27027027027027,NA,NA
44830,Seneca County,OH,NA,75.66765578635015,NA
44903,Richland County,OH,NA,NA,38.659793814432994
45005,Warren County,OH,NA,16.320474777448073,NA
45040,Warren County,OH,33.33333333333333,NA,NA
45044,Butler County,OH,5.405405405405405,NA,NA
45157,Clermont County,OH,NA,NA,92.78350515463917
45206,Hamilton County,OH,53.453453453453456,NA,NA
45239,Hamilton County,OH,47.147147147147145,NA,NA
45344,Clark County,OH,NA,45.99406528189911,NA
45365,Shelby County,OH,NA,NA,54.123711340206185
45371,Miami County,OH,NA,NA,30.927835051546392
45638,Lawrence County,OH,4.804804804804805,NA,NA
45640,Jackson County,OH,6.906906906906906,5.934718100890208,NA
45662,Scioto County,OH,NA,NA,21.649484536082475
45669,Lawrence County,OH,19.51951951951952,NA,NA
45680,Lawrence County,OH,13.813813813813812,NA,NA
45891,Van Wert County,OH,NA,NA,26.288659793814436
73013,Oklahoma County,OK,NA,NA,11.855670103092782
73034,Oklahoma County,OK,NA,NA,58.76288659793815
73064,Canadian County,OK,50.45045045045045,NA,NA
73089,Grady County,OK,NA,60.534124629080125,NA
73108,Oklahoma County,OK,62.46246246246246,NA,NA
73129,Oklahoma County,OK,72.97297297297297,NA,NA
73139,Oklahoma County,OK,54.054054054054056,NA,NA
73170,Cleveland County,OK,NA,14.540059347181009,7.216494845360824
73401,Carter County,OK,15.315315315315313,NA,NA
73443,Carter County,OK,89.4894894894895,NA,NA
73448,Love County,OK,81.08108108108108,NA,NA
73601,Custer County,OK,61.86186186186187,NA,NA
73701,Garfield County,OK,45.94594594594595,NA,NA
74003,Osage County,OK,61.56156156156156,NA,NA
74006,Washington County,OK,NA,NA,26.804123711340207
74012,Tulsa County,OK,26.426426426426424,NA,NA
74014,Wagoner County,OK,NA,NA,44.329896907216494
74016,Rogers County,OK,92.7927927927928,NA,NA
74126,Tulsa County,OK,NA,81.60237388724035,NA
74135,Tulsa County,OK,NA,NA,32.98969072164948
74352,Mayes County,OK,NA,NA,86.5979381443299
74464,Cherokee County,OK,NA,52.22551928783383,NA
97009,Clackamas County,OR,NA,75.37091988130564,NA
97022,Clackamas County,OR,94.5945945945946,NA,NA
97070,Clackamas County,OR,NA,82.19584569732937,NA
97080,Multnomah County,OR,26.726726726726728,NA,NA
97089,Clackamas County,OR,NA,73.88724035608308,NA
97128,Yamhill County,OR,19.81981981981982,NA,NA
97205,Multnomah County,OR,NA,NA,79.89690721649485
97212,Multnomah County,OR,NA,67.35905044510386,NA
97223,Washington County,OR,NA,22.551928783382788,NA
97230,Multnomah County,OR,NA,NA,15.463917525773196
97304,Polk County,OR,78.97897897897897,NA,NA
97321,Linn County,OR,NA,22.255192878338278,NA
97411,Coos County,OR,NA,63.50148367952523,NA
97470,Douglas County,OR,31.83183183183183,NA,NA
97603,Klamath County,OR,NA,51.632047477744806,NA
97754,Crook County,OR,NA,20.474777448071215,NA
15001,Beaver County,PA,65.16516516516516,NA,NA
15022,Washington County,PA,77.17717717717719,NA,NA
15473,Fayette County,PA,NA,NA,78.8659793814433
15601,Westmoreland County,PA,3.6036036036036037,NA,NA
16023,Butler County,PA,93.09309309309309,NA,NA
16101,Lawrence County,PA,NA,6.528189910979229,NA
16150,Mercer County,PA,64.86486486486487,NA,NA
16301,Venango County,PA,47.74774774774775,NA,NA
16314,Crawford County,PA,90.69069069069069,NA,NA
16830,Clearfield County,PA,30.33033033033033,NA,NA
16947,Bradford County,PA,89.1891891891892,NA,NA
17020,Perry County,PA,75.67567567567568,NA,NA
17403,York County,PA,NA,NA,47.93814432989691
17551,Lancaster County,PA,NA,86.35014836795251,NA
18014,Northampton County,PA,NA,32.047477744807125,NA
18032,Lehigh County,PA,NA,NA,63.91752577319587
18049,Lehigh County,PA,44.14414414414414,NA,NA
18064,Northampton County,PA,43.24324324324324,NA,NA
18102,Lehigh County,PA,0.9009009009009009,NA,NA
18104,Lehigh County,PA,NA,66.17210682492582,NA
18201,Luzerne County,PA,20.72072072072072,NA,NA
18210,Carbon County,PA,NA,67.95252225519289,NA
18411,Lackawanna County,PA,NA,52.818991097922854,NA
18603,Columbia County,PA,NA,16.913946587537094,NA
18702,Luzerne County,PA,NA,4.747774480712167,NA
18951,Bucks County,PA,NA,49.25816023738873,NA
19023,Delaware County,PA,30.930930930930934,NA,NA
19030,Bucks County,PA,70.87087087087087,NA,NA
19047,Bucks County,PA,NA,NA,69.58762886597938
19067,Bucks County,PA,NA,7.121661721068249,NA
19078,Delaware County,PA,84.98498498498499,NA,NA
19082,Delaware County,PA,56.45645645645646,NA,NA
19111,Philadelphia County,PA,NA,26.706231454005934,NA
19124,Philadelphia County,PA,NA,58.160237388724035,NA
19143,Philadelphia County,PA,9.00900900900901,NA,NA
19150,Philadelphia County,PA,NA,21.958456973293767,NA
19311,Chester County,PA,NA,90.50445103857567,NA
19422,Montgomery County,PA,NA,33.531157270029674,NA
19465,Chester County,PA,51.051051051051054,NA,NA
19606,Berks County,PA,NA,5.044510385756676,NA
02842,Newport County,RI,NA,49.554896142433236,NA
02893,Kent County,RI,NA,56.083086053412465,NA
02908,Providence County,RI,NA,34.124629080118694,NA
29016,Richland County,SC,NA,70.32640949554896,NA
29169,Lexington County,SC,55.55555555555556,NA,41.23711340206185
29203,Richland County,SC,NA,NA,31.958762886597935
29302,Spartanburg County,SC,NA,88.13056379821958,NA
29388,Spartanburg County,SC,NA,74.77744807121661,NA
29412,Charleston County,SC,NA,68.84272997032642,NA
29483,Dorchester County,SC,48.348348348348345,NA,46.90721649484536
29506,Florence County,SC,NA,NA,72.68041237113401
29541,Florence County,SC,NA,85.45994065281899,NA
29566,Horry County,SC,NA,47.18100890207715,NA
29575,Horry County,SC,NA,NA,96.90721649484536
29588,Horry County,SC,36.63663663663664,NA,NA
29687,Greenville County,SC,NA,NA,64.43298969072166
29692,Laurens County,SC,88.58858858858859,NA,NA
29732,York County,SC,NA,21.66172106824926,NA
29803,Aiken County,SC,NA,9.792284866468842,NA
57042,Lake County,SD,NA,NA,37.11340206185567
57078,Yankton County,SD,64.26426426426426,NA,NA
57110,Minnehaha County,SD,53.153153153153156,NA,NA
57702,Pennington County,SD,NA,NA,8.762886597938143
37015,Cheatham County,TN,NA,NA,77.31958762886599
37083,Macon County,TN,NA,63.20474777448071,NA
37122,Wilson County,TN,NA,23.14540059347181,NA
37207,Davidson County,TN,58.85885885885885,NA,NA
37215,Davidson County,TN,NA,NA,36.08247422680412
37380,Marion County,TN,73.57357357357357,NA,NA
37615,Washington County,TN,NA,56.37982195845698,NA
37643,Carter County,TN,NA,34.718100890207715,NA
37660,Sullivan County,TN,52.25225225225225,8.30860534124629,10.824742268041238
37745,Greene County,TN,27.32732732732733,NA,NA
37771,Loudon County,TN,NA,54.3026706231454,NA
37801,Blount County,TN,NA,NA,27.31958762886598
37917,Knox County,TN,18.31831831831832,NA,NA
37918,Knox County,TN,16.216216216216218,NA,NA
37922,Knox County,TN,78.07807807807808,NA,NA
38024,Dyer County,TN,25.825825825825827,NA,NA
38105,Shelby County,TN,NA,NA,97.42268041237114
38340,Chester County,TN,NA,93.76854599406528,NA
38351,Henderson County,TN,51.35135135135135,NA,NA
75039,Dallas County,TX,75.37537537537537,NA,NA
75070,Collin County,TX,NA,NA,16.49484536082474
75082,Collin County,TX,NA,37.68545994065282,NA
75089,Dallas County,TX,59.45945945945946,NA,NA
75104,Dallas County,TX,NA,75.07418397626114,NA
75115,Dallas County,TX,24.024024024024023,NA,NA
75205,Dallas County,TX,NA,65.8753709198813,NA
75228,Dallas County,TX,6.606606606606606,NA,NA
75240,Dallas County,TX,NA,72.40356083086054,NA
75249,Dallas County,TX,64.56456456456456,NA,NA
75604,Gregg County,TX,NA,55.78635014836796,NA
75605,Gregg County,TX,NA,NA,25.773195876288657
75633,Panola County,TX,NA,51.92878338278932,NA
75652,Rusk County,TX,NA,NA,65.4639175257732
75709,Smith County,TX,NA,78.04154302670622,NA
75844,Houston County,TX,92.1921921921922,NA,NA
75979,Tyler County,TX,96.69669669669669,NA,NA
76028,Johnson County,TX,11.411411411411411,NA,13.917525773195877
76039,Tarrant County,TX,38.13813813813814,NA,NA
76049,Hood County,TX,NA,18.991097922848667,22.164948453608247
76051,Tarrant County,TX,33.633633633633636,NA,NA
76058,Johnson County,TX,NA,89.61424332344214,NA
76063,Tarrant County,TX,NA,NA,17.525773195876287
76084,Johnson County,TX,86.78678678678679,NA,NA
76108,Tarrant County,TX,39.63963963963964,22.8486646884273,NA
76112,Tarrant County,TX,15.615615615615615,NA,NA
76116,Tarrant County,TX,NA,NA,19.072164948453608
76137,Tarrant County,TX,75.97597597597597,NA,NA
76240,Cooke County,TX,NA,31.454005934718097,NA
76244,Tarrant County,TX,NA,76.8545994065282,NA
76401,Erath County,TX,NA,46.88427299703264,NA
76504,Bell County,TX,NA,NA,23.711340206185564
76645,Hill County,TX,NA,61.42433234421365,NA
77020,Harris County,TX,NA,77.1513353115727,NA
77065,Harris County,TX,NA,38.87240356083086,NA
77083,Harris County,TX,42.34234234234234,NA,NA
77345,Harris County,TX,81.38138138138137,NA,NA
77401,Harris County,TX,NA,NA,73.71134020618557
77429,Harris County,TX,12.612612612612612,4.451038575667656,NA
77445,Waller County,TX,NA,NA,84.5360824742268
77450,Harris County,TX,79.87987987987988,NA,NA
77477,Fort Bend County,TX,77.77777777777779,NA,NA
77502,Harris County,TX,NA,55.48961424332344,NA
77503,Harris County,TX,71.17117117117117,NA,NA
77551,Galveston County,TX,28.82882882882883,NA,NA
77584,Brazoria County,TX,37.83783783783784,NA,NA
77587,Harris County,TX,74.77477477477478,NA,NA
77627,Jefferson County,TX,NA,99.40652818991099,NA
77706,Jefferson County,TX,NA,30.56379821958457,NA
78040,Webb County,TX,42.94294294294294,NA,NA
78041,Webb County,TX,NA,20.77151335311573,NA
78542,Hidalgo County,TX,NA,25.519287833827892,NA
78572,Hidalgo County,TX,NA,NA,4.123711340206185
78577,Hidalgo County,TX,NA,NA,12.886597938144329
78582,Starr County,TX,NA,39.16913946587537,NA
78628,Williamson County,TX,NA,NA,0.5154639175257731
78666,Hays County,TX,NA,32.93768545994065,NA
78728,Travis County,TX,NA,95.54896142433235,NA
79109,Randall County,TX,NA,NA,84.02061855670104
79119,Randall County,TX,NA,NA,76.80412371134021
79603,Taylor County,TX,NA,30.267062314540063,NA
79849,El Paso County,TX,NA,90.20771513353115,NA
79936,El Paso County,TX,NA,NA,36.597938144329895
84015,Davis County,UT,NA,44.21364985163205,NA
84043,Utah County,UT,45.645645645645644,NA,NA
84044,Salt Lake County,UT,NA,61.12759643916914,NA
84058,Utah County,UT,NA,NA,69.0721649484536
84074,Tooele County,UT,4.2042042042042045,NA,NA
84088,Salt Lake County,UT,NA,48.6646884272997,NA
84302,Box Elder County,UT,71.47147147147147,NA,NA
84333,Cache County,UT,99.69969969969969,NA,NA
84337,Box Elder County,UT,89.7897897897898,NA,100
84403,Weber County,UT,NA,NA,51.03092783505154
84501,Carbon County,UT,90.09009009009009,NA,NA
84664,Utah County,UT,NA,NA,95.87628865979381
05701,Rutland County,VT,NA,NA,14.432989690721648
22042,Fairfax County,VA,NA,71.51335311572701,NA
22046,Falls Church city,VA,83.48348348348348,NA,NA
22308,Fairfax County,VA,NA,76.26112759643917,NA
22812,Rockingham County,VA,NA,80.41543026706232,NA
22980,Waynesboro city,VA,68.46846846846847,NA,NA
23009,King William County,VA,NA,92.87833827893175,NA
23111,Hanover County,VA,49.249249249249246,NA,NA
23113,Chesterfield County,VA,81.68168168168168,NA,NA
23139,Powhatan County,VA,NA,NA,42.2680412371134
23226,Richmond city,VA,NA,56.676557863501486,NA
23231,Henrico County,VA,25.525525525525527,NA,NA
23452,Virginia Beach city,VA,NA,NA,33.50515463917525
23455,Virginia Beach city,VA,NA,9.198813056379821,NA
23456,Virginia Beach city,VA,NA,10.385756676557865,NA
23704,Portsmouth city,VA,30.03003003003003,NA,NA
23832,Chesterfield County,VA,NA,NA,56.70103092783505
24228,Dickenson County,VA,NA,48.07121661721068,NA
24256,Dickenson County,VA,NA,NA,91.75257731958763
24301,Pulaski County,VA,NA,51.038575667655785,NA
24343,Carroll County,VA,66.96696696696696,NA,NA
24401,Staunton city,VA,NA,NA,5.154639175257731
98001,King County,WA,NA,36.49851632047478,55.154639175257735
98020,Snohomish County,WA,NA,NA,28.865979381443296
98024,King County,WA,NA,99.10979228486647,NA
98027,King County,WA,NA,NA,48.45360824742268
98052,King County,WA,NA,54.59940652818991,NA
98168,King County,WA,NA,27.002967359050444,NA
98198,King County,WA,NA,25.222551928783382,NA
98221,Skagit County,WA,60.06006006006006,NA,NA
98223,Snohomish County,WA,56.75675675675676,18.397626112759642,NA
98225,Whatcom County,WA,NA,40.652818991097924,NA
98226,Whatcom County,WA,NA,NA,13.402061855670103
98257,Skagit County,WA,NA,83.08605341246292,NA
98270,Snohomish County,WA,50.150150150150154,NA,NA
98444,Pierce County,WA,NA,59.34718100890207,NA
98625,Cowlitz County,WA,NA,NA,99.48453608247422
98626,Cowlitz County,WA,NA,NA,44.84536082474227
98686,Clark County,WA,NA,82.7893175074184,NA
98802,Douglas County,WA,NA,NA,18.04123711340206
98851,Grant County,WA,NA,92.58160237388724,NA
98902,Yakima County,WA,29.129129129129126,NA,14.948453608247423
98942,Yakima County,WA,NA,59.34718100890207,NA
99354,Benton County,WA,67.86786786786787,NA,NA
20009,District of Columbia,DC,NA,41.839762611275965,NA
25177,Kanawha County,WV,NA,29.673590504451035,NA
25428,Berkeley County,WV,59.75975975975976,NA,NA
25962,Greenbrier County,WV,90.990990990991,NA,NA
26241,Randolph County,WV,32.732732732732735,NA,NA
26288,Webster County,WV,77.47747747747748,NA,NA
26554,Marion County,WV,NA,1.483679525222552,NA
53029,Waukesha County,WI,NA,NA,87.11340206185567
53074,Ozaukee County,WI,NA,66.76557863501483,NA
53090,Washington County,WI,NA,NA,52.57731958762887
53095,Washington County,WI,NA,18.100890207715135,NA
53097,Ozaukee County,WI,NA,NA,58.24742268041238
53104,Kenosha County,WI,NA,87.83382789317507,NA
53179,Kenosha County,WI,63.06306306306306,NA,NA
53188,Waukesha County,WI,NA,49.85163204747774,NA
53190,Walworth County,WI,85.28528528528528,NA,NA
53208,Milwaukee County,WI,11.411411411411411,NA,NA
53210,Milwaukee County,WI,8.708708708708707,NA,NA
53218,Milwaukee County,WI,NA,8.902077151335313,NA
53219,Milwaukee County,WI,18.91891891891892,NA,NA
53225,Milwaukee County,WI,80.18018018018019,NA,NA
53704,Dane County,WI,10.81081081081081,NA,NA
53711,Dane County,WI,34.83483483483483,NA,NA
53913,Sauk County,WI,39.03903903903904,NA,NA
54121,Florence County,WI,91.8918918918919,NA,NA
54208,Brown County,WI,99.3993993993994,NA,NA
54220,Manitowoc County,WI,NA,50.445103857566764,NA
54313,Brown County,WI,NA,29.080118694362017,NA
54501,Oneida County,WI,NA,NA,89.17525773195877
54729,Chippewa County,WI,34.234234234234236,NA,NA
54902,Winnebago County,WI,NA,NA,35.56701030927835
54915,Outagamie County,WI,NA,NA,49.48453608247423
