ZipCode,county,state,Adult,Retirement,Geriatric
35022,Jefferson County,AL,22.463768115942027,NA,NA
35120,St. Clair County,AL,NA,75.81483230987246,NA
35127,Jefferson County,AL,62.450592885375485,38.73405762871989,NA
35150,Talladega County,AL,23.91304347826087,NA,NA
35151,Talladega County,AL,NA,68.16249409541804,NA
35173,Jefferson County,AL,NA,23.00425129900803,NA
35179,Cullman County,AL,NA,61.360415682569666,NA
35180,Jefferson County,AL,47.43083003952569,NA,NA
35205,Jefferson County,AL,NA,72.50826641473783,NA
35213,Jefferson County,AL,69.03820816864295,44.16627302786963,NA
35216,Jefferson County,AL,NA,NA,33.116883116883116
35218,Jefferson County,AL,NA,83.84506376948512,NA
35223,Jefferson County,AL,NA,54.65281058101087,NA
35234,Jefferson County,AL,77.2068511198946,NA,72.07792207792207
35235,Jefferson County,AL,NA,59.99055266887105,NA
35401,Tuscaloosa County,AL,NA,81.43599433160132,NA
35404,Tuscaloosa County,AL,54.28194993412385,90.26924893717525,NA
35405,Tuscaloosa County,AL,NA,NA,99.02597402597402
35453,Tuscaloosa County,AL,NA,71.04393008974964,NA
35476,Tuscaloosa County,AL,65.41501976284584,NA,99.24242424242425
35570,Marion County,AL,45.45454545454545,NA,NA
35601,Morgan County,AL,41.17259552042161,NA,NA
35603,Morgan County,AL,NA,NA,19.805194805194805
35611,Limestone County,AL,NA,39.58431743032593,NA
35640,Morgan County,AL,NA,48.65375531412376,NA
35646,Colbert County,AL,79.5125164690382,NA,NA
35648,Lauderdale County,AL,NA,96.03212092583846,NA
35653,Franklin County,AL,NA,NA,73.37662337662337
35660,Colbert County,AL,NA,65.1393481341521,NA
35748,Madison County,AL,NA,NA,91.12554112554112
35758,Madison County,AL,NA,73.3112895606991,NA
35761,Madison County,AL,53.62318840579711,82.05007085498347,NA
35801,Madison County,AL,NA,NA,29.653679653679653
35803,Madison County,AL,66.99604743083005,NA,NA
35903,Etowah County,AL,NA,16.863486065186585,NA
35956,Etowah County,AL,NA,58.715162966461975,NA
35957,Marshall County,AL,NA,63.81672177609825,NA
36037,Butler County,AL,NA,41.47378365611715,NA
36043,Montgomery County,AL,91.04084321475626,NA,NA
36066,Autauga County,AL,NA,NA,40.04329004329004
36067,Autauga County,AL,20.421607378129117,NA,NA
36092,Elmore County,AL,NA,34.76617855455834,NA
36109,Montgomery County,AL,NA,NA,62.878787878787875
36251,Clay County,AL,NA,NA,90.47619047619048
36264,Cleburne County,AL,NA,65.70618800188946,NA
36303,Houston County,AL,NA,66.03684459140294,NA
36305,Houston County,AL,NA,43.2687765706188,NA
36360,Dale County,AL,NA,20.784128483703356,NA
36420,Covington County,AL,34.7167325428195,NA,NA
36421,Covington County,AL,NA,54.27491733585262,NA
36460,Monroe County,AL,NA,78.64903164855929,NA
36541,Mobile County,AL,NA,59.80160604629192,NA
36575,Mobile County,AL,62.71409749670619,NA,NA
36617,Mobile County,AL,74.24242424242425,NA,NA
36619,Mobile County,AL,NA,47.567312234293816,NA
36693,Mobile County,AL,NA,40.43457723193198,NA
36695,Mobile County,AL,19.499341238471672,17.335852621634388,61.14718614718615
36732,Marengo County,AL,NA,72.0831365139348,NA
36744,Hale County,AL,74.17654808959156,99.33868682097308,NA
99504,Anchorage Municipality,AK,10.67193675889328,NA,NA
99507,Anchorage Municipality,AK,19.1699604743083,NA,NA
99508,Anchorage Municipality,AK,8.62977602108037,21.49267831837506,NA
99603,Kenai Peninsula Borough,AK,NA,80.34955125177137,NA
99654,Matanuska-Susitna Borough,AK,NA,23.99622106754842,NA
99709,Fairbanks North Star Borough,AK,42.7536231884058,NA,NA
99712,Fairbanks North Star Borough,AK,97.4308300395257,NA,NA
99801,Juneau City and Borough,AK,31.027667984189723,NA,NA
85006,Maricopa County,AZ,NA,NA,73.05194805194806
85013,Maricopa County,AZ,31.0935441370224,NA,NA
85015,Maricopa County,AZ,NA,31.41237600377893,NA
85018,Maricopa County,AZ,NA,22.106754841757205,NA
85020,Maricopa County,AZ,NA,47.14218233349079,NA
85024,Maricopa County,AZ,NA,57.203589985829005,NA
85027,Maricopa County,AZ,NA,34.8606518658479,NA
85029,Maricopa County,AZ,NA,24.37411431270666,NA
85037,Maricopa County,AZ,13.175230566534916,NA,NA
85040,Maricopa County,AZ,47.62845849802372,NA,NA
85041,Maricopa County,AZ,NA,89.93859234766178,NA
85048,Maricopa County,AZ,NA,43.174303259329236,68.29004329004329
85050,Maricopa County,AZ,NA,61.17146905999056,NA
85122,Pinal County,AZ,18.24769433465086,7.179971658006614,19.696969696969695
85139,Pinal County,AZ,59.354413702239796,NA,NA
85143,Pinal County,AZ,61.06719367588933,NA,NA
85201,Maricopa County,AZ,26.613965744400524,NA,NA
85202,Maricopa County,AZ,NA,NA,64.93506493506493
85203,Maricopa County,AZ,NA,NA,52.056277056277054
85205,Maricopa County,AZ,15.019762845849801,NA,NA
85206,Maricopa County,AZ,NA,17.61927255550307,6.926406926406926
85207,Maricopa County,AZ,13.768115942028986,41.75720358998583,NA
85210,Maricopa County,AZ,NA,NA,78.57142857142857
85212,Maricopa County,AZ,73.5836627140975,NA,NA
85215,Maricopa County,AZ,61.396574440052696,NA,NA
85224,Maricopa County,AZ,NA,54.085970713273504,37.33766233766234
85226,Maricopa County,AZ,NA,70.52432687765706,NA
85233,Maricopa County,AZ,NA,33.91591875295229,67.96536796536796
85234,Maricopa County,AZ,43.54413702239789,NA,NA
85250,Maricopa County,AZ,NA,66.22579121398205,NA
85251,Maricopa County,AZ,NA,NA,56.6017316017316
85253,Maricopa County,AZ,NA,74.63391591875296,NA
85254,Maricopa County,AZ,78.32674571805006,NA,NA
85258,Maricopa County,AZ,NA,NA,23.376623376623375
85263,Maricopa County,AZ,NA,84.64808691544638,NA
85296,Maricopa County,AZ,19.104084321475625,NA,NA
85301,Maricopa County,AZ,11.725955204216074,NA,NA
85302,Maricopa County,AZ,13.24110671936759,NA,NA
85308,Maricopa County,AZ,44.99341238471673,NA,NA
85331,Maricopa County,AZ,79.2490118577075,NA,NA
85338,Maricopa County,AZ,NA,26.169107227208315,NA
85344,La Paz County,AZ,NA,19.555975436939065,NA
85351,Maricopa County,AZ,NA,NA,0.3246753246753247
85367,Yuma County,AZ,NA,NA,5.952380952380952
85373,Maricopa County,AZ,NA,NA,11.796536796536797
85374,Maricopa County,AZ,29.117259552042164,10.155880963627775,NA
85375,Maricopa County,AZ,NA,12.470477090222012,7.683982683982683
85377,Maricopa County,AZ,NA,NA,79.32900432900432
85382,Maricopa County,AZ,NA,NA,81.70995670995671
85383,Maricopa County,AZ,63.899868247694336,NA,NA
85387,Maricopa County,AZ,88.80105401844533,NA,67.64069264069265
85395,Maricopa County,AZ,51.84453227931489,27.1610769957487,54.97835497835498
85396,Maricopa County,AZ,NA,80.39678790741615,NA
85602,Cochise County,AZ,NA,59.80160604629192,NA
85629,Pima County,AZ,NA,81.10533774208785,NA
85635,Cochise County,AZ,NA,NA,22.727272727272727
85641,Pima County,AZ,37.483530961791836,NA,NA
85704,Pima County,AZ,NA,44.024563060935286,NA
85705,Pima County,AZ,NA,19.272555503070382,NA
85712,Pima County,AZ,NA,27.350023618327825,NA
85716,Pima County,AZ,NA,NA,84.4155844155844
85730,Pima County,AZ,13.899868247694336,NA,NA
85737,Pima County,AZ,NA,NA,31.16883116883117
85745,Pima County,AZ,NA,10.014170996693435,NA
85749,Pima County,AZ,56.916996047430835,21.68162494095418,NA
86004,Coconino County,AZ,NA,7.605101558809636,NA
86035,Coconino County,AZ,NA,94.0009447331129,NA
86301,Yavapai County,AZ,NA,16.580066131317903,NA
86303,Yavapai County,AZ,NA,53.3774208786018,NA
86314,Yavapai County,AZ,29.446640316205535,NA,6.6017316017316015
86322,Yavapai County,AZ,NA,41.89891355692017,NA
86323,Yavapai County,AZ,70.2239789196311,NA,NA
86406,Mohave County,AZ,89.26218708827405,NA,NA
86409,Mohave County,AZ,NA,50.11809163911195,NA
71602,Jefferson County,AR,NA,49.74019839395371,NA
71635,Ashley County,AR,NA,NA,78.24675324675324
71653,Chicot County,AR,NA,80.7746811525744,NA
71901,Garland County,AR,NA,26.73594709494568,NA
71913,Garland County,AR,NA,NA,8.008658008658008
72143,White County,AR,21.409749670619235,NA,NA
72150,Grant County,AR,60.079051383399204,NA,NA
72204,Pulaski County,AR,NA,44.63863958431743,NA
72205,Pulaski County,AR,57.64163372859025,NA,NA
72206,Pulaski County,AR,34.05797101449276,NA,NA
72401,Craighead County,AR,NA,42.18233349078886,NA
72455,Randolph County,AR,NA,NA,69.04761904761905
72521,Sharp County,AR,NA,NA,83.98268398268398
72730,Washington County,AR,NA,83.98677373641947,NA
72756,Benton County,AR,NA,NA,47.61904761904761
72764,Washington County,AR,21.80500658761528,35.75814832309872,53.78787878787878
72774,Washington County,AR,NA,78.64903164855929,NA
72801,Pope County,AR,NA,82.47520075578649,NA
72802,Pope County,AR,NA,78.22390174775626,NA
72901,Sebastian County,AR,59.28853754940712,NA,NA
72927,Logan County,AR,NA,60.79357581483231,NA
72936,Sebastian County,AR,53.03030303030303,NA,NA
72956,Crawford County,AR,NA,42.70193670288144,NA
90002,Los Angeles County,CA,39.657444005270094,NA,NA
90008,Los Angeles County,CA,NA,97.59093056211621,48.80952380952381
90019,Los Angeles County,CA,88.6034255599473,15.11572980632971,NA
90022,Los Angeles County,CA,NA,76.42890883325461,NA
90026,Los Angeles County,CA,28.985507246376812,65.61171469059991,NA
90031,Los Angeles County,CA,79.97364953886694,NA,NA
90035,Los Angeles County,CA,NA,NA,72.2943722943723
90036,Los Angeles County,CA,NA,55.07794048181389,53.57142857142857
90041,Los Angeles County,CA,52.042160737812914,NA,NA
90043,Los Angeles County,CA,NA,12.18705715635333,55.519480519480524
90044,Los Angeles County,CA,NA,NA,24.675324675324674
90046,Los Angeles County,CA,NA,71.32735002361834,NA
90047,Los Angeles County,CA,NA,7.368918280585735,NA
90061,Los Angeles County,CA,49.143610013175234,NA,NA
90062,Los Angeles County,CA,NA,NA,79.97835497835499
90063,Los Angeles County,CA,NA,80.30231459612659,68.18181818181817
90064,Los Angeles County,CA,55.072463768115945,NA,61.58008658008658
90210,Los Angeles County,CA,NA,90.08030231459612,NA
90212,Los Angeles County,CA,NA,NA,83.98268398268398
90230,Los Angeles County,CA,NA,57.86490316485593,NA
90232,Los Angeles County,CA,81.29117259552042,NA,NA
90249,Los Angeles County,CA,NA,40.103920642418515,NA
90250,Los Angeles County,CA,NA,14.170996693434104,NA
90255,Los Angeles County,CA,NA,77.23193197921587,NA
90260,Los Angeles County,CA,NA,84.41190363722248,NA
90274,Los Angeles County,CA,68.11594202898551,NA,NA
90280,Los Angeles County,CA,NA,48.88993859234766,72.40259740259741
90301,Los Angeles County,CA,NA,82.38072744449693,NA
90404,Los Angeles County,CA,20.158102766798418,36.84459140292867,NA
90503,Los Angeles County,CA,31.422924901185773,NA,NA
90601,Los Angeles County,CA,NA,44.30798299480397,NA
90603,Los Angeles County,CA,58.498023715415016,60.46291922531884,NA
90606,Los Angeles County,CA,NA,64.95040151157299,NA
90630,Orange County,CA,NA,93.52857817666509,70.77922077922078
90631,Orange County,CA,NA,9.211147850732168,15.151515151515152
90660,Los Angeles County,CA,NA,47.66178554558337,NA
90680,Orange County,CA,74.63768115942028,NA,NA
90703,Los Angeles County,CA,NA,NA,24.458874458874458
90710,Los Angeles County,CA,NA,42.04062352385451,NA
90712,Los Angeles County,CA,62.845849802371546,81.4832309872461,NA
90731,Los Angeles County,CA,NA,NA,65.15151515151516
90732,Los Angeles County,CA,NA,43.41048653755314,NA
90740,Orange County,CA,NA,25.69674067076051,60.71428571428571
90803,Los Angeles County,CA,NA,76.99574870099197,NA
90804,Los Angeles County,CA,NA,96.97685403873406,NA
90805,Los Angeles County,CA,NA,NA,38.63636363636363
90807,Los Angeles County,CA,32.41106719367589,NA,NA
90813,Los Angeles County,CA,NA,88.66320264525271,NA
91001,Los Angeles County,CA,36.89064558629776,NA,NA
91006,Los Angeles County,CA,98.61660079051383,NA,NA
91007,Los Angeles County,CA,75.8893280632411,NA,NA
91010,Los Angeles County,CA,NA,42.37128011336797,NA
91030,Los Angeles County,CA,NA,76.9485120453472,NA
91040,Los Angeles County,CA,NA,43.5049598488427,NA
91104,Los Angeles County,CA,27.27272727272727,NA,NA
91106,Los Angeles County,CA,NA,61.785545583372695,NA
91107,Los Angeles County,CA,NA,30.184222957014644,NA
91201,Los Angeles County,CA,81.81818181818183,46.19744922059518,NA
91203,Los Angeles County,CA,NA,86.82097307510628,NA
91205,Los Angeles County,CA,NA,71.65800661313179,NA
91206,Los Angeles County,CA,73.38603425559947,NA,6.2770562770562766
91304,Los Angeles County,CA,NA,60.03778932451582,NA
91307,Los Angeles County,CA,NA,NA,42.099567099567096
91311,Los Angeles County,CA,NA,59.65989607935758,NA
91320,Ventura County,CA,NA,NA,64.82683982683982
91331,Los Angeles County,CA,NA,10.250354274917337,NA
91335,Los Angeles County,CA,88.20816864295125,NA,NA
91343,Los Angeles County,CA,NA,29.570146433632498,NA
91344,Los Angeles County,CA,66.66666666666666,NA,43.3982683982684
91352,Los Angeles County,CA,NA,25.885687293339632,NA
91360,Ventura County,CA,41.699604743083,NA,NA
91361,Ventura County,CA,NA,41.37931034482759,NA
91364,Los Angeles County,CA,95.98155467720684,NA,NA
91387,Los Angeles County,CA,NA,66.36750118091639,NA
91602,Los Angeles County,CA,78.52437417654808,NA,NA
91607,Los Angeles County,CA,NA,NA,24.242424242424242
91701,San Bernardino County,CA,37.61528326745718,NA,NA
91706,Los Angeles County,CA,13.504611330698287,NA,NA
91709,San Bernardino County,CA,NA,NA,84.95670995670996
91711,Los Angeles County,CA,NA,NA,13.095238095238097
91722,Los Angeles County,CA,NA,36.93906471421823,NA
91723,Los Angeles County,CA,92.81949934123847,NA,NA
91730,San Bernardino County,CA,NA,20.40623523854511,NA
91731,Los Angeles County,CA,NA,84.78979688238073,NA
91732,Los Angeles County,CA,72.39789196310934,NA,NA
91739,San Bernardino County,CA,NA,41.66273027869627,NA
91740,Los Angeles County,CA,NA,33.44355219650449,NA
91741,Los Angeles County,CA,NA,31.648559282002836,NA
91744,Los Angeles County,CA,NA,14.974019839395373,NA
91745,Los Angeles County,CA,NA,NA,50.75757575757576
91746,Los Angeles County,CA,54.413702239789195,59.80160604629192,NA
91750,Los Angeles County,CA,NA,NA,89.6103896103896
91752,Riverside County,CA,NA,NA,68.83116883116884
91754,Los Angeles County,CA,NA,64.66698157770429,NA
91763,San Bernardino County,CA,NA,NA,46.320346320346324
91764,San Bernardino County,CA,86.23188405797102,NA,NA
91765,Los Angeles County,CA,NA,86.3013698630137,NA
91766,Los Angeles County,CA,NA,NA,56.060606060606055
91770,Los Angeles County,CA,96.6403162055336,NA,NA
91773,Los Angeles County,CA,NA,NA,35.38961038961039
91780,Los Angeles County,CA,66.86429512516469,NA,63.095238095238095
91784,San Bernardino County,CA,NA,29.097779877184692,NA
91786,San Bernardino County,CA,58.30039525691699,NA,29.545454545454547
91790,Los Angeles County,CA,NA,84.88427019367029,24.891774891774894
91792,Los Angeles County,CA,68.57707509881423,NA,NA
91913,San Diego County,CA,50.790513833992094,NA,NA
91932,San Diego County,CA,NA,62.87198866320265,NA
91942,San Diego County,CA,NA,53.18847425602268,NA
91945,San Diego County,CA,39.59156785243742,47.897968823807275,NA
91950,San Diego County,CA,NA,63.013698630136986,NA
91977,San Diego County,CA,NA,67.83183750590457,NA
92008,San Diego County,CA,NA,40.81247047709022,NA
92014,San Diego County,CA,NA,90.31648559282003,NA
92019,San Diego County,CA,28.722002635046113,NA,NA
92020,San Diego County,CA,NA,4.393008974964572,NA
92024,San Diego County,CA,NA,54.22768068020785,NA
92056,San Diego County,CA,NA,NA,33.00865800865801
92057,San Diego County,CA,36.29776021080369,NA,NA
92064,San Diego County,CA,56.9828722002635,NA,NA
92065,San Diego County,CA,NA,43.930089749645724,NA
92078,San Diego County,CA,NA,29.8063297118564,NA
92082,San Diego County,CA,NA,87.86017949929145,NA
92101,San Diego County,CA,NA,5.38497874350496,NA
92107,San Diego County,CA,45.78392621870883,94.94567784600851,NA
92109,San Diego County,CA,NA,35.38025507794048,NA
92113,San Diego County,CA,73.71541501976284,NA,NA
92115,San Diego County,CA,17.85243741765481,85.12045347189418,NA
92116,San Diego County,CA,NA,85.64005668398677,NA
92117,San Diego County,CA,36.29776021080369,NA,68.5064935064935
92118,San Diego County,CA,NA,NA,26.515151515151516
92122,San Diego County,CA,71.93675889328063,NA,NA
92124,San Diego County,CA,NA,52.24374114312707,NA
92126,San Diego County,CA,27.66798418972332,NA,74.02597402597402
92128,San Diego County,CA,NA,NA,6.1688311688311686
92129,San Diego County,CA,61.98945981554678,29.711856400566838,NA
92211,Riverside County,CA,69.6969696969697,NA,NA
92220,Riverside County,CA,NA,67.312234293812,49.35064935064935
92223,Riverside County,CA,NA,23.382144544166273,NA
92230,Riverside County,CA,NA,99.85829003306566,NA
92234,Riverside County,CA,NA,61.59659896079358,NA
92236,Riverside County,CA,65.87615283267458,NA,NA
92240,Riverside County,CA,NA,64.38356164383562,NA
92253,Riverside County,CA,NA,5.148795465281058,NA
92260,Riverside County,CA,NA,NA,79.43722943722943
92264,Riverside County,CA,NA,90.93056211620217,NA
92277,San Bernardino County,CA,NA,40.43457723193198,NA
92284,San Bernardino County,CA,38.47167325428195,NA,NA
92316,San Bernardino County,CA,32.674571805006586,NA,NA
92324,San Bernardino County,CA,NA,23.145961265942372,NA
92325,San Bernardino County,CA,87.68115942028986,NA,NA
92335,San Bernardino County,CA,60.80368906455863,30.987246102975906,NA
92336,San Bernardino County,CA,NA,32.16816249409542,NA
92345,San Bernardino County,CA,NA,30.278696268304206,18.073593073593074
92371,San Bernardino County,CA,NA,74.35049598488426,NA
92376,San Bernardino County,CA,34.32147562582345,31.506849315068493,NA
92382,San Bernardino County,CA,NA,92.25318847425602,NA
92392,San Bernardino County,CA,NA,75.67312234293811,42.099567099567096
92399,San Bernardino County,CA,NA,11.384034010392066,NA
92405,San Bernardino County,CA,NA,55.739253660840816,75.54112554112554
92407,San Bernardino County,CA,NA,71.61076995748701,NA
92410,San Bernardino County,CA,58.82740447957839,NA,NA
92501,Riverside County,CA,NA,NA,69.8051948051948
92503,Riverside County,CA,9.354413702239789,52.999527633443556,NA
92504,Riverside County,CA,NA,33.77420878601795,NA
92509,Riverside County,CA,NA,20.973075106282472,NA
92530,Riverside County,CA,NA,36.46669815777043,NA
92543,Riverside County,CA,23.45191040843215,NA,38.311688311688314
92551,Riverside County,CA,68.37944664031622,NA,NA
92562,Riverside County,CA,NA,46.764289088332546,NA
92571,Riverside County,CA,49.86824769433465,NA,NA
92584,Riverside County,CA,NA,84.12848370335381,NA
92585,Riverside County,CA,57.971014492753625,NA,NA
92586,Riverside County,CA,NA,70.09919697685405,NA
92591,Riverside County,CA,85.7707509881423,NA,NA
92592,Riverside County,CA,15.612648221343871,68.20973075106282,42.74891774891775
92614,Orange County,CA,40.05270092226614,NA,NA
92626,Orange County,CA,NA,26.641473783656117,NA
92646,Orange County,CA,NA,49.456778460085026,NA
92647,Orange County,CA,10.935441370223979,11.714690599905527,NA
92648,Orange County,CA,15.41501976284585,12.801133679735473,NA
92651,Orange County,CA,NA,NA,89.93506493506493
92656,Orange County,CA,44.79578392621871,NA,NA
92672,Orange County,CA,45.52042160737813,NA,NA
92677,Orange County,CA,NA,23.429381199811054,NA
92683,Orange County,CA,62.25296442687747,NA,NA
92688,Orange County,CA,21.21212121212121,NA,NA
92691,Orange County,CA,NA,37.17524799244213,NA
92692,Orange County,CA,63.24110671936759,13.745866792631082,NA
92694,Orange County,CA,36.16600790513834,NA,NA
92701,Orange County,CA,94.46640316205533,NA,NA
92708,Orange County,CA,61.26482213438735,NA,NA
92801,Orange County,CA,19.235836627140976,87.90741615493623,NA
92804,Orange County,CA,NA,51.062824752007565,60.930735930735935
92805,Orange County,CA,38.27404479578392,NA,NA
92807,Orange County,CA,NA,22.72083136513935,NA
92821,Orange County,CA,85.44137022397892,NA,NA
92831,Orange County,CA,NA,25.50779404818139,NA
92866,Orange County,CA,NA,91.30845536136042,NA
92867,Orange County,CA,38.80105401844533,NA,NA
92868,Orange County,CA,43.08300395256917,NA,NA
92870,Orange County,CA,NA,13.226263580538497,9.523809523809524
92880,Riverside County,CA,NA,34.95512517713746,NA
92881,Riverside County,CA,NA,52.29097779877184,NA
92883,Riverside County,CA,NA,67.50118091639112,95.67099567099568
93010,Ventura County,CA,19.30171277997365,NA,NA
93012,Ventura County,CA,NA,53.802550779404825,NA
93015,Ventura County,CA,NA,58.6679263108172,NA
93033,Ventura County,CA,6.0606060606060606,NA,NA
93036,Ventura County,CA,NA,71.56353330184223,NA
93065,Ventura County,CA,53.75494071146245,NA,NA
93110,Santa Barbara County,CA,NA,68.30420406235238,NA
93111,Santa Barbara County,CA,NA,76.14548889938592,NA
93221,Tulare County,CA,NA,54.60557392536608,NA
93230,Kings County,CA,NA,8.549834671705243,NA
93249,Kern County,CA,98.88010540184453,NA,NA
93257,Tulare County,CA,NA,NA,44.58874458874459
93274,Tulare County,CA,NA,NA,72.18614718614718
93292,Tulare County,CA,NA,NA,41.34199134199134
93304,Kern County,CA,NA,55.12517713745867,NA
93306,Kern County,CA,94.00527009222661,NA,93.83116883116884
93308,Kern County,CA,15.151515151515152,69.39064714218233,NA
93314,Kern County,CA,78.19499341238472,NA,NA
93405,San Luis Obispo County,CA,NA,69.43788379782711,NA
93420,San Luis Obispo County,CA,NA,28.200283419933868,NA
93436,Santa Barbara County,CA,NA,NA,54.32900432900433
93454,Santa Barbara County,CA,NA,29.097779877184692,72.61904761904762
93534,Los Angeles County,CA,NA,21.35096835144072,NA
93535,Los Angeles County,CA,NA,21.256495040151158,NA
93611,Fresno County,CA,NA,63.39159187529523,NA
93618,Tulare County,CA,NA,NA,63.095238095238095
93703,Fresno County,CA,NA,38.40340103920642,NA
93704,Fresno County,CA,32.41106719367589,NA,NA
93705,Fresno County,CA,18.774703557312254,NA,NA
93710,Fresno County,CA,65.15151515151516,NA,NA
93720,Fresno County,CA,19.03820816864295,NA,NA
93906,Monterey County,CA,NA,NA,32.03463203463203
93930,Monterey County,CA,NA,90.45819555975437,NA
93940,Monterey County,CA,NA,NA,13.96103896103896
94024,Santa Clara County,CA,81.68642951251647,NA,NA
94025,San Mateo County,CA,NA,20.12281530467643,NA
94040,Santa Clara County,CA,55.467720685111985,NA,NA
94043,Santa Clara County,CA,52.30566534914362,NA,38.41991341991342
94066,San Mateo County,CA,NA,5.904581955597544,NA
94086,Santa Clara County,CA,NA,75.9565422768068,NA
94087,Santa Clara County,CA,57.64163372859025,NA,NA
94089,Santa Clara County,CA,78.91963109354414,NA,NA
94102,San Francisco County,CA,NA,3.920642418516769,NA
94103,San Francisco County,CA,6.258234519104085,9.58904109589041,NA
94109,San Francisco County,CA,NA,53.944260746339154,2.272727272727273
94110,San Francisco County,CA,NA,NA,16.341991341991342
94111,San Francisco County,CA,NA,NA,76.19047619047619
94115,San Francisco County,CA,30.632411067193676,NA,NA
94116,San Francisco County,CA,NA,48.51204534718942,NA
94132,San Francisco County,CA,NA,NA,58.44155844155844
94134,San Francisco County,CA,84.91436100131752,NA,NA
94303,San Mateo County,CA,NA,NA,18.939393939393938
94306,Santa Clara County,CA,NA,NA,40.25974025974026
94501,Alameda County,CA,NA,76.09825224374114,NA
94507,Contra Costa County,CA,NA,48.60651865847898,NA
94510,Solano County,CA,NA,88.80491261218705,NA
94513,Contra Costa County,CA,NA,65.09211147850732,NA
94515,Napa County,CA,NA,92.5366084081247,NA
94518,Contra Costa County,CA,NA,NA,41.883116883116884
94519,Contra Costa County,CA,NA,NA,87.22943722943724
94520,Contra Costa County,CA,44.334650856389985,NA,NA
94521,Contra Costa County,CA,NA,89.4189891355692,NA
94530,Contra Costa County,CA,NA,88.28530940009446,NA
94531,Contra Costa County,CA,44.72990777338603,NA,NA
94533,Solano County,CA,NA,NA,86.68831168831169
94536,Alameda County,CA,NA,12.23429381199811,NA
94541,Alameda County,CA,NA,82.75862068965517,NA
94545,Alameda County,CA,NA,80.25507794048181,NA
94546,Alameda County,CA,NA,67.02881435994331,70.12987012987013
94550,Alameda County,CA,NA,20.31176192725555,38.961038961038966
94553,Contra Costa County,CA,NA,84.27019367028814,32.7922077922078
94555,Alameda County,CA,NA,79.82994803967878,NA
94558,Napa County,CA,72.13438735177866,NA,1.7316017316017316
94564,Contra Costa County,CA,NA,93.05621162021728,NA
94568,Alameda County,CA,82.21343873517787,NA,NA
94578,Alameda County,CA,NA,73.35852621634388,NA
94580,Alameda County,CA,56.258234519104086,86.5375531412376,NA
94582,Contra Costa County,CA,83.9262187088274,NA,NA
94583,Contra Costa County,CA,58.36627140974967,NA,NA
94585,Solano County,CA,NA,81.81388757675957,NA
94587,Alameda County,CA,NA,52.85781766650921,8.874458874458876
94588,Alameda County,CA,NA,50.259801606046295,NA
94589,Solano County,CA,NA,58.195559754369384,NA
94590,Solano County,CA,15.744400527009223,NA,NA
94595,Contra Costa County,CA,NA,31.9792158715163,NA
94598,Contra Costa County,CA,NA,NA,46.64502164502164
94605,Alameda County,CA,12.51646903820817,NA,NA
94607,Alameda County,CA,NA,76.6650921114785,NA
94611,Alameda County,CA,NA,38.11998110533774,NA
94618,Alameda County,CA,NA,NA,77.16450216450217
94901,Marin County,CA,79.05138339920948,50.49598488427019,NA
94928,Sonoma County,CA,NA,25.64950401511573,NA
94941,Marin County,CA,NA,52.432687765706184,NA
94952,Sonoma County,CA,NA,95.08738781294285,NA
94965,Marin County,CA,NA,95.51251771374586,NA
95008,Santa Clara County,CA,42.68774703557312,NA,NA
95014,Santa Clara County,CA,95.91567852437419,NA,NA
95035,Santa Clara County,CA,80.8300395256917,NA,NA
95051,Santa Clara County,CA,27.733860342555992,NA,NA
95066,Santa Cruz County,CA,NA,NA,72.72727272727273
95076,Santa Cruz County,CA,NA,60.32120925838451,NA
95117,Santa Clara County,CA,NA,49.22059518186113,NA
95118,Santa Clara County,CA,41.10671936758894,35.94709494567784,NA
95120,Santa Clara County,CA,NA,NA,23.376623376623375
95122,Santa Clara County,CA,28.52437417654809,NA,NA
95127,Santa Clara County,CA,24.50592885375494,NA,NA
95131,Santa Clara County,CA,58.498023715415016,NA,NA
95134,Santa Clara County,CA,56.52173913043478,NA,NA
95136,Santa Clara County,CA,98.35309617918313,86.01794992914502,NA
95138,Santa Clara County,CA,NA,68.30420406235238,NA
95206,San Joaquin County,CA,NA,15.588096362777515,NA
95207,San Joaquin County,CA,10.606060606060606,NA,NA
95212,San Joaquin County,CA,96.50856389986825,NA,NA
95220,San Joaquin County,CA,NA,NA,67.20779220779221
95307,Stanislaus County,CA,NA,76.52338214454416,NA
95316,Stanislaus County,CA,NA,94.04818138875768,NA
95327,Tuolumne County,CA,NA,NA,93.61471861471861
95330,San Joaquin County,CA,NA,NA,79.004329004329
95336,San Joaquin County,CA,NA,37.22248464808692,NA
95340,Merced County,CA,75.29644268774703,32.07368918280586,NA
95351,Stanislaus County,CA,NA,50.7321681624941,NA
95354,Stanislaus County,CA,NA,37.033538025507795,NA
95355,Stanislaus County,CA,NA,70.05196032120926,NA
95358,Stanislaus County,CA,NA,30.70382616910723,NA
95361,Stanislaus County,CA,25.164690382081687,NA,NA
95366,San Joaquin County,CA,85.04611330698287,NA,NA
95376,San Joaquin County,CA,NA,19.697685403873404,NA
95380,Stanislaus County,CA,NA,35.14407179971658,NA
95401,Sonoma County,CA,NA,84.36466698157771,NA
95404,Sonoma County,CA,71.08036890645586,NA,NA
95409,Sonoma County,CA,NA,30.0425129900803,NA
95437,Mendocino County,CA,NA,NA,21.428571428571427
95448,Sonoma County,CA,NA,92.11147850732169,NA
95492,Sonoma County,CA,NA,NA,32.25108225108225
95503,Humboldt County,CA,76.61396574440053,NA,NA
95519,Humboldt County,CA,NA,30.987246102975906,NA
95605,Yolo County,CA,72.85902503293808,NA,NA
95608,Sacramento County,CA,23.583662714097496,10.86443079829948,NA
95610,Sacramento County,CA,NA,NA,30.1948051948052
95616,Yolo County,CA,NA,93.90647142182334,NA
95621,Sacramento County,CA,NA,NA,16.558441558441558
95624,Sacramento County,CA,NA,14.548889938592346,NA
95628,Sacramento County,CA,NA,74.01983939537081,NA
95630,Sacramento County,CA,84.12384716732542,32.735002361832784,NA
95632,Sacramento County,CA,NA,84.83703353802551,NA
95648,Placer County,CA,NA,NA,45.887445887445885
95660,Sacramento County,CA,NA,37.88379782711384,NA
95662,Sacramento County,CA,NA,42.087860179499295,NA
95666,Amador County,CA,NA,NA,69.37229437229438
95667,El Dorado County,CA,NA,1.9839395370807749,NA
95670,Sacramento County,CA,NA,45.961265942371284,NA
95678,Placer County,CA,NA,18.56400566839868,NA
95682,El Dorado County,CA,NA,NA,16.558441558441558
95687,Solano County,CA,22.134387351778656,NA,NA
95688,Solano County,CA,NA,76.47614548889938,NA
95757,Sacramento County,CA,54.1501976284585,64.00566839867737,NA
95762,El Dorado County,CA,NA,NA,29.329004329004327
95765,Placer County,CA,NA,79.78271138403402,NA
95820,Sacramento County,CA,NA,NA,66.77489177489177
95821,Sacramento County,CA,NA,70.00472366556448,NA
95822,Sacramento County,CA,NA,NA,86.58008658008657
95825,Sacramento County,CA,NA,44.355219650448745,27.380952380952383
95827,Sacramento County,CA,46.113306982872196,NA,NA
95828,Sacramento County,CA,NA,NA,82.90043290043289
95835,Sacramento County,CA,NA,NA,35.60606060606061
95901,Yuba County,CA,11.989459815546773,NA,NA
95928,Butte County,CA,NA,62.39962210675484,NA
95945,Nevada County,CA,NA,NA,17.965367965367964
95948,Butte County,CA,NA,NA,83.54978354978356
95949,Nevada County,CA,NA,31.128956069910252,NA
95969,Butte County,CA,NA,35.71091166745394,NA
95973,Butte County,CA,NA,87.71846953235712,NA
95988,Glenn County,CA,NA,93.71752479924422,NA
95993,Sutter County,CA,NA,73.87812942843647,65.36796536796537
96001,Shasta County,CA,10.408432147562582,NA,NA
96055,Tehama County,CA,NA,93.48134152102031,NA
96150,El Dorado County,CA,NA,69.95748700991969,NA
80005,Jefferson County,CO,74.50592885375494,86.11242324043458,NA
80010,Arapahoe County,CO,8.893280632411066,NA,NA
80012,Arapahoe County,CO,NA,16.43835616438356,41.01731601731602
80013,Arapahoe County,CO,5.006587615283268,NA,NA
80014,Arapahoe County,CO,NA,NA,65.6926406926407
80015,Arapahoe County,CO,8.563899868247695,NA,NA
80016,Arapahoe County,CO,NA,9.777987718469532,NA
80017,Arapahoe County,CO,NA,29.42843646669816,NA
80020,Broomfield County,CO,NA,86.15965989607936,NA
80021,Jefferson County,CO,39.723320158102766,NA,NA
80026,Boulder County,CO,NA,29.948039678790746,NA
80030,Adams County,CO,74.96706192358367,NA,NA
80031,Adams County,CO,NA,37.080774681152576,NA
80104,Douglas County,CO,36.03425559947299,NA,NA
80108,Douglas County,CO,68.51119894598156,64.9031648559282,NA
80109,Douglas County,CO,NA,68.7293339631554,NA
80111,Arapahoe County,CO,48.94598155467721,NA,NA
80118,Douglas County,CO,NA,90.5999055266887,NA
80120,Arapahoe County,CO,NA,NA,88.41991341991343
80126,Douglas County,CO,32.740447957839265,NA,NA
80130,Douglas County,CO,93.34650856389986,NA,NA
80134,Douglas County,CO,NA,72.41379310344827,NA
80206,Denver County,CO,70.2239789196311,NA,NA
80209,Denver County,CO,77.27272727272727,NA,NA
80214,Jefferson County,CO,25.09881422924901,NA,NA
80219,Denver County,CO,2.371541501976284,NA,NA
80222,Denver County,CO,51.11989459815547,NA,NA
80229,Adams County,CO,NA,74.96457250826641,NA
80237,Denver County,CO,NA,65.32829475673122,NA
80249,Denver County,CO,47.16732542819499,NA,NA
80260,Adams County,CO,NA,39.39537080774681,NA
80401,Jefferson County,CO,NA,71.23287671232876,NA
80439,Jefferson County,CO,59.94729907773386,NA,NA
80501,Boulder County,CO,9.81554677206851,NA,NA
80503,Boulder County,CO,NA,92.77279168634861,NA
80521,Larimer County,CO,69.433465085639,NA,NA
80525,Larimer County,CO,61.462450592885375,24.232404345772316,NA
80538,Larimer County,CO,NA,NA,49.891774891774894
80550,Weld County,CO,16.53491436100132,53.75531412376004,NA
80631,Weld County,CO,NA,14.501653282947569,NA
80634,Weld County,CO,NA,19.414265470004725,NA
80701,Morgan County,CO,80.96179183135705,NA,NA
80831,El Paso County,CO,NA,50.968351440717996,NA
80904,El Paso County,CO,NA,41.70996693434105,NA
80905,El Paso County,CO,44.532279314888015,NA,NA
80906,El Paso County,CO,NA,51.34624468587624,NA
80911,El Paso County,CO,NA,NA,39.935064935064936
80916,El Paso County,CO,NA,NA,73.7012987012987
80920,El Paso County,CO,73.97891963109355,40.00944733112895,NA
80923,El Paso County,CO,40.57971014492754,NA,NA
81001,Pueblo County,CO,34.7167325428195,NA,NA
81003,Pueblo County,CO,46.047430830039524,NA,NA
81004,Pueblo County,CO,NA,44.11903637222485,NA
81006,Pueblo County,CO,NA,73.40576287198867,NA
81101,Alamosa County,CO,26.745718050065875,NA,NA
81122,La Plata County,CO,NA,NA,96.21212121212122
81303,La Plata County,CO,NA,67.7846008502598,NA
81401,Montrose County,CO,NA,93.00897496457252,NA
81403,Montrose County,CO,NA,56.06991025035427,NA
81413,Delta County,CO,NA,88.89938592347661,NA
81428,Delta County,CO,NA,NA,99.67532467532467
81503,Mesa County,CO,NA,98.01606046291923,NA
81507,Mesa County,CO,85.17786561264822,NA,NA
81521,Mesa County,CO,NA,NA,79.54545454545455
06026,Hartford County,CT,NA,83.4199338686821,NA
06033,Hartford County,CT,61.59420289855072,NA,NA
06040,Hartford County,CT,NA,10.628247520075579,17.424242424242426
06051,Hartford County,CT,21.870882740447957,NA,NA
06067,Hartford County,CT,69.36758893280633,NA,NA
06070,Hartford County,CT,57.509881422924906,NA,NA
06105,Hartford County,CT,83.59683794466403,NA,NA
06111,Hartford County,CT,NA,53.235710911667454,NA
06112,Hartford County,CT,8.36627140974967,33.53802550779405,NA
06114,Hartford County,CT,30.039525691699602,NA,NA
06117,Hartford County,CT,50.131752305665344,NA,NA
06248,Tolland County,CT,NA,98.5356636750118,NA
06255,Windham County,CT,NA,91.54463863958432,NA
06401,New Haven County,CT,NA,40.81247047709022,NA
06405,New Haven County,CT,24.769433465085637,NA,NA
06410,New Haven County,CT,NA,75.0118091639112,NA
06417,Middlesex County,CT,NA,83.23098724610297,NA
06443,New Haven County,CT,NA,79.12139820500708,NA
06450,New Haven County,CT,2.8326745718050064,NA,NA
06457,Middlesex County,CT,4.216073781291173,50.07085498346717,NA
06460,New Haven County,CT,16.13965744400527,NA,NA
06461,New Haven County,CT,NA,53.6136041568257,NA
06478,New Haven County,CT,NA,42.22957014643363,76.83982683982684
06489,Hartford County,CT,42.028985507246375,NA,NA
06498,Middlesex County,CT,NA,62.77751535191308,NA
06511,New Haven County,CT,2.1739130434782608,24.18516769012754,74.45887445887446
06512,New Haven County,CT,35.63899868247694,NA,NA
06513,New Haven County,CT,NA,21.965044874822862,43.073593073593074
06514,New Haven County,CT,NA,18.233349078885215,NA
06516,New Haven County,CT,NA,26.547000472366555,31.277056277056275
06606,Fairfield County,CT,NA,NA,26.190476190476193
06608,Fairfield County,CT,42.35836627140975,NA,NA
06614,Fairfield County,CT,NA,NA,18.614718614718615
06615,Fairfield County,CT,NA,87.2461029759093,NA
06704,New Haven County,CT,NA,NA,75.32467532467533
06705,New Haven County,CT,NA,94.61502125649504,NA
06756,Litchfield County,CT,NA,98.67737364194615,NA
06776,Litchfield County,CT,NA,46.1502125649504,NA
06786,Litchfield County,CT,NA,NA,83.008658008658
06787,Litchfield County,CT,57.509881422924906,91.40292867264998,NA
06811,Fairfield County,CT,NA,67.64289088332546,NA
06824,Fairfield County,CT,NA,NA,42.532467532467535
06840,Fairfield County,CT,95.19104084321476,NA,74.56709956709958
06850,Fairfield County,CT,NA,20.642418516769013,NA
06890,Fairfield County,CT,NA,88.61596598960794,NA
06896,Fairfield County,CT,NA,NA,65.80086580086581
06902,Fairfield County,CT,34.25559947299078,6.329711856400568,3.0303030303030303
19701,New Castle County,DE,14.756258234519104,9.447331128956069,NA
19709,New Castle County,DE,NA,35.52196504487482,19.913419913419915
19711,New Castle County,DE,NA,5.8573452999527635,NA
19720,New Castle County,DE,NA,1.2753897024090695,NA
19803,New Castle County,DE,NA,NA,66.88311688311688
19809,New Castle County,DE,NA,41.80444024563061,NA
19939,Sussex County,DE,NA,58.715162966461975,NA
19950,Sussex County,DE,NA,92.01700519603212,NA
19962,Kent County,DE,53.29380764163373,NA,NA
19966,Sussex County,DE,NA,72.98063297118564,NA
19968,Sussex County,DE,NA,27.397260273972602,NA
19977,Kent County,DE,11.6600790513834,NA,NA
32003,Clay County,FL,38.14229249011858,NA,NA
32024,Columbia County,FL,NA,52.33821445441663,NA
32034,Nassau County,FL,NA,5.054322153991498,NA
32068,Clay County,FL,NA,5.290505432215399,NA
32084,St. Johns County,FL,16.27140974967062,NA,NA
32092,St. Johns County,FL,NA,22.62635805384979,NA
32110,Flagler County,FL,NA,60.79357581483231,NA
32141,Volusia County,FL,NA,32.2153991497402,NA
32162,Sumter County,FL,67.45718050065877,61.21870571563534,NA
32168,Volusia County,FL,NA,NA,80.51948051948052
32176,Volusia County,FL,NA,97.30751062824751,NA
32208,Duval County,FL,0.592885375494071,NA,NA
32210,Duval County,FL,62.582345191040844,NA,NA
32211,Duval County,FL,49.34123847167326,NA,NA
32218,Duval County,FL,72.06851119894598,NA,NA
32219,Duval County,FL,27.931488801054016,NA,NA
32224,Duval County,FL,37.878787878787875,NA,NA
32233,Duval County,FL,49.60474308300395,NA,NA
32246,Duval County,FL,NA,38.214454416627305,NA
32250,Duval County,FL,NA,17.997165800661314,NA
32257,Duval County,FL,37.08827404479578,NA,62.55411255411255
32258,Duval County,FL,35.2437417654809,NA,NA
32259,St. Johns County,FL,NA,21.114785073216815,NA
32303,Leon County,FL,73.91304347826086,NA,NA
32305,Leon County,FL,NA,98.06329711856401,NA
32317,Leon County,FL,NA,69.86301369863014,NA
32333,Gadsden County,FL,NA,93.43410486537553,NA
32347,Taylor County,FL,NA,90.97779877184695,NA
32351,Gadsden County,FL,NA,NA,97.18614718614718
32404,Bay County,FL,NA,11.950873878129428,NA
32405,Bay County,FL,NA,69.10722720831365,NA
32444,Bay County,FL,47.69433465085639,NA,60.497835497835496
32448,Jackson County,FL,NA,78.8379782711384,NA
32459,Walton County,FL,NA,17.38308927727917,NA
32503,Escambia County,FL,NA,NA,11.688311688311687
32514,Escambia County,FL,NA,7.841284837033538,NA
32534,Escambia County,FL,27.40447957839262,85.87623996221068,NA
32536,Okaloosa County,FL,75.16469038208169,NA,NA
32539,Okaloosa County,FL,NA,41.37931034482759,NA
32548,Okaloosa County,FL,NA,NA,91.88311688311688
32563,Santa Rosa County,FL,NA,13.320736891828059,NA
32566,Santa Rosa County,FL,NA,12.517713745866793,NA
32578,Okaloosa County,FL,NA,34.718941898913556,NA
32579,Okaloosa County,FL,NA,66.83986773736419,NA
32606,Alachua County,FL,NA,57.534246575342465,NA
32608,Alachua County,FL,4.150197628458498,NA,NA
32656,Clay County,FL,NA,39.01747756258857,NA
32666,Putnam County,FL,NA,67.97354747283893,NA
32669,Alachua County,FL,45.586297760210805,NA,NA
32702,Lake County,FL,NA,79.49929145016533,NA
32712,Orange County,FL,NA,82.1917808219178,NA
32714,Seminole County,FL,44.334650856389985,43.07982994803968,NA
32724,Volusia County,FL,NA,13.226263580538497,NA
32725,Volusia County,FL,93.2806324110672,NA,NA
32750,Seminole County,FL,NA,32.4515824279641,NA
32751,Orange County,FL,NA,32.357109116674536,NA
32757,Lake County,FL,NA,16.20217288615966,NA
32765,Seminole County,FL,NA,52.52716107699575,33.65800865800866
32766,Seminole County,FL,82.08168642951252,NA,NA
32778,Lake County,FL,NA,15.304676428908834,NA
32792,Orange County,FL,NA,77.09022201228153,NA
32803,Orange County,FL,NA,80.58573452999528,NA
32805,Orange County,FL,NA,NA,51.19047619047619
32808,Orange County,FL,61.6600790513834,NA,NA
32809,Orange County,FL,30.303030303030305,NA,NA
32810,Orange County,FL,94.66403162055336,36.18327822390175,NA
32818,Orange County,FL,NA,82.0028341993387,NA
32819,Orange County,FL,NA,85.78176665092111,NA
32822,Orange County,FL,NA,NA,21.96969696969697
32825,Orange County,FL,43.21475625823452,8.786017949929144,NA
32828,Orange County,FL,21.541501976284586,NA,NA
32829,Orange County,FL,55.13833992094862,NA,NA
32836,Orange County,FL,76.02108036890645,NA,NA
32839,Orange County,FL,NA,89.32451582427964,NA
32901,Brevard County,FL,NA,28.625413320736893,14.502164502164502
32927,Brevard County,FL,NA,NA,71.32034632034632
32935,Brevard County,FL,NA,53.33018422295701,15.043290043290044
32952,Brevard County,FL,NA,NA,12.229437229437229
32953,Brevard County,FL,NA,70.1936702881436,NA
32955,Brevard County,FL,NA,13.131790269248938,NA
32958,Indian River County,FL,NA,NA,4.004329004329004
32960,Indian River County,FL,NA,23.665564478034955,NA
32967,Indian River County,FL,NA,30.514879546528107,NA
33004,Broward County,FL,75.69169960474308,NA,NA
33009,Broward County,FL,NA,NA,29.87012987012987
33015,Miami-Dade County,FL,NA,68.91828058573452,NA
33019,Broward County,FL,NA,60.0850259801606,NA
33020,Broward County,FL,NA,15.068493150684931,NA
33021,Broward County,FL,NA,39.15918752952291,3.1385281385281383
33023,Broward County,FL,9.288537549407115,NA,NA
33024,Broward County,FL,NA,81.15257439773264,NA
33025,Broward County,FL,99.07773386034255,NA,NA
33029,Broward County,FL,39.920948616600796,42.843646669815776,NA
33043,Monroe County,FL,93.47826086956522,NA,NA
33063,Broward County,FL,NA,16.15493623051488,NA
33064,Broward County,FL,21.73913043478261,NA,8.333333333333332
33068,Broward County,FL,NA,32.64052905054322,NA
33076,Broward County,FL,NA,44.68587623996221,NA
33125,Miami-Dade County,FL,NA,NA,6.0606060606060606
33131,Miami-Dade County,FL,76.35046113306983,NA,NA
33133,Miami-Dade County,FL,NA,88.2380727444497,NA
33135,Miami-Dade County,FL,NA,50.35427491733585,NA
33137,Miami-Dade County,FL,NA,66.0840812470477,NA
33139,Miami-Dade County,FL,NA,59.18752952290978,NA
33144,Miami-Dade County,FL,62.31884057971014,NA,NA
33147,Miami-Dade County,FL,18.31357048748353,NA,28.13852813852814
33155,Miami-Dade County,FL,NA,17.76098252243741,NA
33156,Miami-Dade County,FL,58.89328063241107,NA,NA
33162,Miami-Dade County,FL,NA,90.03306565895134,NA
33168,Miami-Dade County,FL,NA,73.16957959376477,NA
33172,Miami-Dade County,FL,NA,NA,59.41558441558441
33173,Miami-Dade County,FL,60.54018445322793,NA,NA
33175,Miami-Dade County,FL,NA,13.65139348134152,NA
33176,Miami-Dade County,FL,NA,63.013698630136986,NA
33178,Miami-Dade County,FL,NA,56.06991025035427,NA
33179,Miami-Dade County,FL,NA,43.07982994803968,NA
33183,Miami-Dade County,FL,77.733860342556,NA,NA
33185,Miami-Dade County,FL,NA,49.078885214926785,56.493506493506494
33189,Miami-Dade County,FL,NA,NA,77.7056277056277
33305,Broward County,FL,72.13438735177866,54.27491733585262,NA
33311,Broward County,FL,3.8866930171278,11.384034010392066,NA
33312,Broward County,FL,19.828722002635047,10.392064241851678,NA
33322,Broward County,FL,NA,17.24137931034483,7.467532467532467
33325,Broward County,FL,NA,78.88521492678319,NA
33326,Broward County,FL,NA,NA,36.14718614718615
33327,Broward County,FL,NA,NA,73.80952380952381
33328,Broward County,FL,NA,55.55030703826169,NA
33334,Broward County,FL,NA,31.837505904581953,NA
33401,Palm Beach County,FL,NA,51.11006140765234,NA
33411,Palm Beach County,FL,NA,11.761927255550306,NA
33417,Palm Beach County,FL,62.055335968379445,NA,NA
33418,Palm Beach County,FL,NA,16.06046291922532,96.32034632034632
33428,Palm Beach County,FL,60.86956521739131,NA,10.714285714285714
33431,Palm Beach County,FL,NA,62.163438828530936,45.02164502164502
33433,Palm Beach County,FL,NA,81.90836088804913,NA
33434,Palm Beach County,FL,NA,NA,21.861471861471863
33435,Palm Beach County,FL,NA,36.0415682569674,NA
33436,Palm Beach County,FL,35.83662714097497,NA,NA
33437,Palm Beach County,FL,NA,10.439300897496457,0
33444,Palm Beach County,FL,NA,71.84695323571091,NA
33445,Palm Beach County,FL,NA,43.693906471421826,NA
33455,Martin County,FL,NA,12.848370335380254,NA
33458,Palm Beach County,FL,95.8498023715415,NA,NA
33467,Palm Beach County,FL,36.42951251646904,NA,NA
33472,Palm Beach County,FL,NA,NA,44.8051948051948
33480,Palm Beach County,FL,NA,NA,26.2987012987013
33484,Palm Beach County,FL,NA,90.74161549362304,NA
33486,Palm Beach County,FL,NA,30.60935285781767,NA
33510,Hillsborough County,FL,NA,60.0850259801606,NA
33525,Pasco County,FL,NA,25.55503070382617,NA
33540,Pasco County,FL,NA,73.0751062824752,NA
33541,Pasco County,FL,NA,NA,85.4978354978355
33543,Pasco County,FL,60.86956521739131,NA,NA
33549,Hillsborough County,FL,82.41106719367589,NA,NA
33556,Hillsborough County,FL,NA,92.34766178554558,NA
33558,Hillsborough County,FL,NA,56.35333018422296,NA
33566,Hillsborough County,FL,92.29249011857708,98.58290033065659,66.34199134199135
33570,Hillsborough County,FL,NA,NA,51.082251082251084
33573,Hillsborough County,FL,NA,NA,90.5844155844156
33578,Hillsborough County,FL,NA,38.30892772791687,83.87445887445888
33579,Hillsborough County,FL,NA,55.55030703826169,NA
33584,Hillsborough County,FL,71.73913043478261,NA,NA
33602,Hillsborough County,FL,NA,77.56258856872932,NA
33604,Hillsborough County,FL,12.187088274044795,NA,NA
33610,Hillsborough County,FL,94.0711462450593,NA,NA
33617,Hillsborough County,FL,NA,19.2253188474256,92.85714285714286
33618,Hillsborough County,FL,NA,57.487009919697684,NA
33619,Hillsborough County,FL,NA,NA,96.96969696969697
33629,Hillsborough County,FL,71.47562582345192,97.68540387340576,NA
33635,Hillsborough County,FL,NA,45.53613604156826,NA
33637,Hillsborough County,FL,98.68247694334651,NA,NA
33703,Pinellas County,FL,NA,NA,68.61471861471861
33705,Pinellas County,FL,NA,88.9466225791214,NA
33713,Pinellas County,FL,NA,NA,65.47619047619048
33714,Pinellas County,FL,NA,46.85876239962211,NA
33756,Pinellas County,FL,NA,50.0236183278224,NA
33760,Pinellas County,FL,55.99472990777339,NA,NA
33761,Pinellas County,FL,NA,48.88993859234766,NA
33764,Pinellas County,FL,25.889328063241106,NA,NA
33770,Pinellas County,FL,37.15415019762846,NA,NA
33772,Pinellas County,FL,NA,49.50401511572981,NA
33782,Pinellas County,FL,46.31093544137022,NA,37.01298701298701
33801,Polk County,FL,NA,NA,41.66666666666667
33803,Polk County,FL,NA,74.77562588568729,NA
33805,Polk County,FL,23.18840579710145,NA,NA
33809,Polk County,FL,90.11857707509881,NA,NA
33810,Polk County,FL,14.295125164690381,86.44307982994805,NA
33811,Polk County,FL,69.82872200263505,48.0869154463864,NA
33823,Polk County,FL,79.31488801054019,27.113840340103923,NA
33825,Highlands County,FL,70.09222661396575,NA,NA
33837,Polk County,FL,NA,29.90080302314596,NA
33843,Polk County,FL,NA,NA,53.67965367965368
33852,Highlands County,FL,NA,10.67548417572036,NA
33859,Polk County,FL,NA,45.20547945205479,NA
33870,Highlands County,FL,16.007905138339922,NA,NA
33872,Highlands County,FL,NA,NA,44.37229437229438
33875,Highlands County,FL,NA,NA,32.35930735930736
33881,Polk County,FL,86.36363636363636,NA,NA
33898,Polk County,FL,NA,79.64100141709966,34.95670995670996
33901,Lee County,FL,59.22266139657444,NA,NA
33903,Lee County,FL,NA,NA,18.506493506493506
33904,Lee County,FL,NA,32.262635805384974,NA
33905,Lee County,FL,NA,NA,30.844155844155846
33907,Lee County,FL,29.71014492753623,NA,41.55844155844156
33908,Lee County,FL,NA,17.47756258856873,NA
33909,Lee County,FL,51.515151515151516,NA,NA
33916,Lee County,FL,NA,47.094945677846006,NA
33917,Lee County,FL,32.87220026350462,34.43552196504488,NA
33919,Lee County,FL,37.8129117259552,NA,NA
33936,Lee County,FL,NA,40.67076051015588,NA
33948,Charlotte County,FL,NA,50.59045819555975,NA
33950,Charlotte County,FL,NA,85.35663675011808,NA
33954,Charlotte County,FL,NA,82.61691072272083,85.93073593073593
33955,Charlotte County,FL,NA,78.03495512517713,NA
33967,Lee County,FL,37.74703557312253,NA,NA
33973,Lee County,FL,NA,71.42182333490788,NA
33990,Lee County,FL,NA,73.5947094945678,NA
34105,Collier County,FL,NA,48.79546528105811,NA
34110,Collier County,FL,NA,NA,34.84848484848485
34112,Collier County,FL,NA,20.500708549834673,13.636363636363635
34114,Collier County,FL,NA,85.07321681624941,NA
34116,Collier County,FL,29.907773386034254,NA,NA
34120,Collier County,FL,NA,25.271610769957487,NA
34145,Collier County,FL,NA,68.44591402928673,NA
34203,Manatee County,FL,NA,11.856400566839868,NA
34205,Manatee County,FL,96.83794466403161,NA,NA
34207,Manatee County,FL,34.84848484848485,NA,NA
34208,Manatee County,FL,83.99209486166008,NA,NA
34209,Manatee County,FL,NA,52.90505432215399,15.259740259740258
34210,Manatee County,FL,66.66666666666666,NA,NA
34219,Manatee County,FL,61.133069828722,NA,NA
34231,Sarasota County,FL,33.99209486166008,NA,2.5974025974025974
34234,Sarasota County,FL,23.91304347826087,NA,28.78787878787879
34235,Sarasota County,FL,NA,37.411431270666036,NA
34236,Sarasota County,FL,NA,91.68634860651866,NA
34238,Sarasota County,FL,97.03557312252964,65.23382144544166,NA
34240,Sarasota County,FL,84.32147562582345,NA,NA
34266,DeSoto County,FL,20.61923583662714,NA,NA
34293,Sarasota County,FL,90.84321475625823,67.35947094945678,31.70995670995671
34433,Citrus County,FL,92.09486166007905,NA,NA
34434,Citrus County,FL,99.27536231884058,NA,NA
34446,Citrus County,FL,NA,NA,69.48051948051948
34461,Citrus County,FL,64.29512516469038,NA,NA
34471,Marion County,FL,NA,28.29475673122343,NA
34473,Marion County,FL,NA,81.86112423240435,NA
34476,Marion County,FL,NA,72.93339631554086,NA
34479,Marion County,FL,NA,62.210675484175724,NA
34482,Marion County,FL,NA,88.52149267831837,NA
34607,Hernando County,FL,NA,53.04676428908833,NA
34608,Hernando County,FL,22.266139657444008,NA,NA
34613,Hernando County,FL,NA,NA,76.40692640692642
34638,Pasco County,FL,NA,98.72461029759093,NA
34652,Pasco County,FL,NA,33.34907888521493,NA
34655,Pasco County,FL,94.26877470355731,14.643363249881908,NA
34667,Pasco County,FL,NA,15.493623051487953,14.285714285714285
34683,Pinellas County,FL,NA,29.381199811053378,34.307359307359306
34688,Pinellas County,FL,NA,91.92253188474257,NA
34691,Pasco County,FL,NA,NA,58.549783549783555
34695,Pinellas County,FL,NA,47.61454888993859,84.3073593073593
34698,Pinellas County,FL,NA,37.60037789324516,NA
34711,Lake County,FL,67.19367588932806,NA,NA
34736,Lake County,FL,51.91040843214756,NA,NA
34741,Osceola County,FL,NA,97.16580066131318,NA
34746,Osceola County,FL,20.55335968379447,70.38261691072272,NA
34747,Osceola County,FL,NA,96.55172413793103,NA
34748,Lake County,FL,NA,NA,0.8658008658008658
34758,Osceola County,FL,11.264822134387352,NA,NA
34761,Orange County,FL,93.41238471673255,NA,NA
34772,Osceola County,FL,NA,44.87482286254133,NA
34786,Orange County,FL,80.03952569169961,30.467642890883322,NA
34787,Orange County,FL,52.635046113306984,NA,95.56277056277057
34947,St. Lucie County,FL,34.4532279314888,NA,NA
34953,St. Lucie County,FL,NA,18.80018894662258,NA
34957,Martin County,FL,76.81159420289855,NA,NA
34982,St. Lucie County,FL,NA,64.1946150212565,NA
34990,Martin County,FL,65.2832674571805,NA,NA
34997,Martin County,FL,41.30434782608695,4.487482286254133,NA
30004,Fulton County,GA,25.296442687747035,NA,NA
30005,Fulton County,GA,NA,75.484175720359,NA
30014,Newton County,GA,69.89459815546772,NA,NA
30017,Gwinnett County,GA,43.41238471673255,NA,NA
30019,Gwinnett County,GA,22.727272727272727,22.81530467642891,NA
30022,Fulton County,GA,NA,69.0127538970241,NA
30035,DeKalb County,GA,37.285902503293805,NA,NA
30039,Gwinnett County,GA,NA,61.454888993859235,NA
30041,Forsyth County,GA,NA,NA,68.72294372294373
30043,Gwinnett County,GA,60.60606060606061,NA,NA
30044,Gwinnett County,GA,NA,57.77042985356636,NA
30052,Walton County,GA,63.70223978919631,NA,NA
30058,DeKalb County,GA,9.947299077733861,NA,NA
30062,Cobb County,GA,NA,8.171941426547,NA
30064,Cobb County,GA,40.974967061923586,47.37836561171469,NA
30066,Cobb County,GA,55.533596837944664,NA,NA
30067,Cobb County,GA,39.723320158102766,NA,NA
30078,Gwinnett County,GA,NA,26.73594709494568,NA
30084,DeKalb County,GA,NA,41.237600377893244,NA
30094,Rockdale County,GA,NA,NA,46.103896103896105
30096,Gwinnett County,GA,14.295125164690381,NA,NA
30101,Cobb County,GA,14.09749670619236,81.9555975436939,NA
30106,Cobb County,GA,44.86166007905138,NA,NA
30108,Carroll County,GA,64.95388669301713,NA,NA
30110,Haralson County,GA,77.86561264822134,NA,NA
30114,Cherokee County,GA,NA,NA,57.57575757575758
30127,Cobb County,GA,46.50856389986825,NA,NA
30134,Douglas County,GA,NA,17.66650921114785,NA
30135,Douglas County,GA,6.91699604743083,NA,NA
30141,Paulding County,GA,46.3768115942029,NA,NA
30143,Pickens County,GA,NA,20.02834199338687,NA
30165,Floyd County,GA,13.306982872200262,NA,25.865800865800864
30176,Haralson County,GA,NA,69.34341048653755,83.76623376623377
30182,Carroll County,GA,98.41897233201581,NA,NA
30183,Cherokee County,GA,NA,96.36277751535192,NA
30187,Douglas County,GA,56.060606060606055,NA,NA
30188,Cherokee County,GA,11.067193675889328,58.99858290033065,NA
30220,Coweta County,GA,94.79578392621872,NA,NA
30236,Clayton County,GA,17.786561264822133,NA,NA
30238,Clayton County,GA,33.59683794466403,NA,NA
30240,Troup County,GA,13.570487483530963,NA,NA
30241,Troup County,GA,NA,NA,58.333333333333336
30248,Henry County,GA,37.68115942028986,NA,NA
30252,Henry County,GA,62.97760210803689,NA,NA
30253,Henry County,GA,38.537549407114625,NA,30.08658008658009
30260,Clayton County,GA,71.40974967061923,40.71799716580066,NA
30263,Coweta County,GA,5.270092226613966,7.227208313651394,NA
30265,Coweta County,GA,32.54281949934124,NA,NA
30281,Henry County,GA,NA,61.12423240434577,NA
30290,Fayette County,GA,NA,72.27208313651393,NA
30309,Fulton County,GA,NA,97.07132735002362,NA
30310,Fulton County,GA,NA,NA,36.47186147186147
30319,DeKalb County,GA,NA,35.19130845536136,NA
30329,DeKalb County,GA,NA,64.80869154463863,NA
30331,Fulton County,GA,NA,75.72035899858291,10.930735930735931
30339,Cobb County,GA,NA,59.3764761454889,NA
30340,DeKalb County,GA,NA,84.64808691544638,NA
30341,DeKalb County,GA,79.90777338603425,NA,NA
30344,Fulton County,GA,NA,23.240434577231934,NA
30349,Fulton County,GA,NA,6.518658478979688,NA
30474,Toombs County,GA,NA,51.676901275389696,NA
30506,Hall County,GA,16.798418972332016,NA,NA
30507,Hall County,GA,26.877470355731226,NA,NA
30510,Habersham County,GA,78.39262187088273,NA,NA
30513,Fannin County,GA,54.74308300395256,NA,NA
30519,Gwinnett County,GA,NA,61.64383561643836,NA
30533,Lumpkin County,GA,43.873517786561266,27.775153519130846,NA
30542,Hall County,GA,33.33333333333333,NA,NA
30546,Towns County,GA,NA,47.18941898913557,NA
30553,Franklin County,GA,NA,80.7274444969296,NA
30582,Towns County,GA,NA,NA,61.68831168831169
30605,Clarke County,GA,NA,89.60793575814833,NA
30635,Elbert County,GA,NA,40.57628719886632,NA
30655,Walton County,GA,NA,68.87104393008975,NA
30680,Barrow County,GA,59.09090909090909,12.564950401511574,NA
30721,Whitfield County,GA,12.384716732542818,NA,NA
30728,Walker County,GA,NA,NA,55.086580086580085
30813,Columbia County,GA,NA,NA,48.16017316017316
30824,McDuffie County,GA,NA,57.109116674539436,NA
30830,Burke County,GA,33.53096179183136,NA,NA
30904,Richmond County,GA,19.63109354413702,NA,NA
30906,Richmond County,GA,NA,17.57203589985829,NA
30907,Columbia County,GA,NA,6.188001889466226,NA
30909,Richmond County,GA,NA,NA,17.316017316017316
31015,Crisp County,GA,NA,81.71941426547001,NA
31021,Laurens County,GA,22.92490118577075,NA,NA
31023,Dodge County,GA,53.49143610013175,NA,NA
31024,Putnam County,GA,NA,22.531884742560226,21.1038961038961
31031,Wilkinson County,GA,NA,NA,87.01298701298701
31061,Baldwin County,GA,16.205533596837945,NA,NA
31069,Houston County,GA,24.308300395256918,NA,NA
31204,Bibb County,GA,NA,42.465753424657535,NA
31206,Bibb County,GA,NA,31.648559282002836,NA
31220,Bibb County,GA,78.72200263504612,NA,NA
31324,Bryan County,GA,NA,49.078885214926785,NA
31405,Chatham County,GA,31.291172595520422,89.23004251299008,NA
31411,Chatham County,GA,NA,53.04676428908833,49.458874458874455
31522,Glynn County,GA,76.9433465085639,NA,NA
31523,Glynn County,GA,81.42292490118577,50.40151157298063,NA
31525,Glynn County,GA,32.081686429512516,NA,57.14285714285714
31558,Camden County,GA,79.44664031620553,NA,NA
31601,Lowndes County,GA,38.01054018445323,NA,NA
31634,Clinch County,GA,NA,72.6027397260274,NA
31635,Lanier County,GA,NA,NA,100
31701,Dougherty County,GA,NA,89.74964572508266,NA
31705,Dougherty County,GA,NA,83.75059045819556,NA
31709,Sumter County,GA,NA,92.48937175247993,NA
31714,Turner County,GA,NA,71.70524326877657,NA
31763,Lee County,GA,NA,44.44969296173831,NA
31768,Colquitt County,GA,NA,59.282002834199346,NA
31779,Mitchell County,GA,NA,NA,94.58874458874459
31788,Colquitt County,GA,NA,82.9475673122343,NA
31792,Thomas County,GA,59.74967061923584,87.76570618800189,NA
31794,Tift County,GA,75.6258234519104,33.20736891828059,NA
31833,Troup County,GA,NA,88.42701936702882,NA
31903,Muscogee County,GA,NA,26.027397260273972,47.07792207792208
31904,Muscogee County,GA,42.621870882740446,89.08833254605574,NA
31907,Muscogee County,GA,NA,1.3226263580538498,NA
31909,Muscogee County,GA,22.990777338603426,NA,NA
96701,Honolulu County,HI,NA,32.54605573925366,NA
96706,Honolulu County,HI,87.22002635046113,43.977326405290505,NA
96707,Honolulu County,HI,20.421607378129117,NA,41.23376623376623
96717,Honolulu County,HI,96.57444005270092,NA,NA
96720,Hawaii County,HI,78.26086956521739,NA,NA
96732,Maui County,HI,96.77206851119895,NA,91.01731601731602
96740,Hawaii County,HI,NA,NA,99.56709956709958
96744,Honolulu County,HI,NA,1.0392064241851677,1.6233766233766231
96749,Hawaii County,HI,NA,97.30751062824751,92.31601731601732
96750,Hawaii County,HI,NA,NA,91.34199134199135
96756,Kauai County,HI,NA,78.64903164855929,NA
96778,Hawaii County,HI,NA,42.512990080302316,NA
96782,Honolulu County,HI,NA,13.934813415210204,NA
96792,Honolulu County,HI,NA,13.50968351440718,NA
96797,Honolulu County,HI,4.545454545454546,NA,NA
96813,Honolulu County,HI,NA,63.2026452527161,NA
96815,Honolulu County,HI,76.6798418972332,14.83230987246103,NA
96817,Honolulu County,HI,58.23451910408433,NA,NA
96818,Honolulu County,HI,33.46508563899868,NA,NA
96821,Honolulu County,HI,NA,NA,9.740259740259742
96822,Honolulu County,HI,23.3201581027668,NA,NA
96825,Honolulu County,HI,NA,18.327822390174774,NA
83201,Bannock County,ID,NA,50.212564950401514,NA
83204,Bannock County,ID,NA,NA,91.55844155844156
83274,Bingham County,ID,NA,NA,97.40259740259741
83301,Twin Falls County,ID,57.905138339920946,NA,NA
83316,Twin Falls County,ID,NA,43.316013226263586,NA
83318,Cassia County,ID,NA,NA,29.22077922077922
83330,Gooding County,ID,NA,NA,59.19913419913419
83338,Jerome County,ID,NA,14.265470004723666,NA
83350,Minidoka County,ID,NA,69.43788379782711,NA
83402,Bonneville County,ID,NA,NA,82.79220779220779
83406,Bonneville County,ID,43.741765480895914,NA,NA
83442,Jefferson County,ID,25.625823451910406,NA,NA
83455,Teton County,ID,94.40052700922266,NA,NA
83501,Nez Perce County,ID,NA,96.22106754841757,21.753246753246753
83536,Idaho County,ID,NA,61.69107227208313,NA
83616,Ada County,ID,NA,60.88804912612187,NA
83617,Gem County,ID,71.34387351778656,NA,NA
83634,Ada County,ID,NA,76.71232876712328,NA
83644,Canyon County,ID,NA,31.884742560226737,NA
83646,Ada County,ID,NA,54.93623051487955,NA
83647,Elmore County,ID,52.569169960474305,NA,NA
83686,Canyon County,ID,18.31357048748353,NA,16.99134199134199
83687,Canyon County,ID,76.48221343873519,NA,NA
83702,Ada County,ID,NA,77.46811525743978,NA
83704,Ada County,ID,NA,76.05101558809636,NA
83705,Ada County,ID,NA,77.70429853566367,NA
83706,Ada County,ID,NA,12.706660368445913,NA
83709,Ada County,ID,NA,2.503542749173359,NA
83713,Ada County,ID,98.48484848484848,87.57675956542276,NA
83714,Ada County,ID,53.82081686429513,NA,NA
83716,Ada County,ID,86.56126482213439,NA,NA
83801,Kootenai County,ID,NA,89.1828058573453,NA
83815,Kootenai County,ID,NA,NA,37.77056277056277
83843,Latah County,ID,93.0171277997365,NA,NA
83864,Bonner County,ID,48.68247694334651,NA,NA
60002,Lake County,IL,NA,NA,69.91341991341992
60004,Cook County,IL,NA,23.28767123287671,NA
60005,Cook County,IL,NA,NA,51.83982683982684
60013,McHenry County,IL,36.56126482213439,NA,NA
60015,Lake County,IL,38.866930171278,NA,NA
60016,Cook County,IL,NA,NA,44.047619047619044
60018,Cook County,IL,41.370223978919626,NA,NA
60025,Cook County,IL,26.416337285902504,2.69248937175248,NA
60030,Lake County,IL,26.08695652173913,NA,NA
60045,Lake County,IL,59.617918313570485,87.34057628719887,NA
60047,Lake County,IL,NA,12.32876712328767,NA
60060,Lake County,IL,NA,8.12470477090222,34.1991341991342
60062,Cook County,IL,22.859025032938078,NA,0.10822510822510822
60067,Cook County,IL,NA,10.76995748700992,NA
60070,Cook County,IL,NA,NA,81.81818181818183
60074,Cook County,IL,25.296442687747035,NA,NA
60076,Cook County,IL,NA,13.131790269248938,NA
60077,Cook County,IL,97.95783926218708,NA,NA
60083,Lake County,IL,92.35836627140975,NA,NA
60089,Lake County,IL,NA,41.332073689182806,NA
60093,Cook County,IL,NA,30.987246102975906,17.74891774891775
60108,DuPage County,IL,NA,15.871516296646199,53.78787878787878
60133,Cook County,IL,90.31620553359684,NA,NA
60137,DuPage County,IL,19.565217391304348,NA,NA
60140,Kane County,IL,51.18577075098815,NA,NA
60154,Cook County,IL,NA,NA,22.61904761904762
60156,McHenry County,IL,NA,37.7420878601795,NA
60164,Cook County,IL,NA,NA,44.48051948051948
60169,Cook County,IL,NA,33.20736891828059,NA
60174,Kane County,IL,NA,80.96362777515353,NA
60178,DeKalb County,IL,NA,NA,39.39393939393939
60181,DuPage County,IL,17.193675889328063,17.194142654700048,NA
60191,DuPage County,IL,NA,NA,37.44588744588744
60193,Cook County,IL,NA,5.47945205479452,NA
60304,Cook County,IL,36.75889328063241,NA,NA
60422,Cook County,IL,62.97760210803689,NA,NA
60426,Cook County,IL,NA,13.887576759565423,NA
60431,Will County,IL,24.110671936758894,NA,NA
60435,Will County,IL,NA,60.60462919225319,NA
60445,Cook County,IL,NA,NA,54.87012987012987
60448,Will County,IL,82.74044795783925,NA,NA
60449,Will County,IL,NA,NA,73.26839826839827
60450,Grundy County,IL,68.44532279314888,NA,NA
60453,Cook County,IL,NA,4.7236655644780345,3.571428571428571
60458,Cook County,IL,60.408432147562586,NA,NA
60459,Cook County,IL,NA,34.10486537553141,NA
60462,Cook County,IL,NA,17.099669343410486,NA
60465,Cook County,IL,56.78524374176548,33.01842229570147,NA
60467,Cook County,IL,31.88405797101449,NA,NA
60477,Cook County,IL,NA,87.0099196976854,NA
60481,Will County,IL,NA,62.58856872933396,NA
60491,Will County,IL,NA,NA,87.55411255411255
60502,DuPage County,IL,NA,NA,70.995670995671
60510,Kane County,IL,NA,NA,40.58441558441558
60515,DuPage County,IL,49.93412384716733,63.2026452527161,NA
60516,DuPage County,IL,89.6574440052701,NA,NA
60517,DuPage County,IL,NA,76.1927255550307,NA
60527,DuPage County,IL,58.10276679841897,NA,9.848484848484848
60534,Cook County,IL,77.07509881422925,NA,NA
60540,DuPage County,IL,79.57839262187089,90.1275389702409,NA
60543,Kendall County,IL,NA,55.50307038261691,NA
60544,Will County,IL,80.23715415019763,NA,NA
60548,DeKalb County,IL,60.86956521739131,NA,NA
60560,Kendall County,IL,26.48221343873518,NA,NA
60561,DuPage County,IL,NA,17.71374586679263,NA
60565,DuPage County,IL,17.32542819499341,74.16154936230515,33.22510822510822
60585,Will County,IL,NA,75.24799244213509,NA
60601,Cook County,IL,82.80632411067194,NA,NA
60608,Cook County,IL,NA,45.63060935285782,NA
60612,Cook County,IL,31.818181818181817,NA,NA
60615,Cook County,IL,NA,9.30562116202173,NA
60616,Cook County,IL,NA,40.151157298063296,NA
60617,Cook County,IL,NA,0.8030231459612659,NA
60618,Cook County,IL,NA,10.72272083136514,NA
60619,Cook County,IL,NA,2.314596126594237,NA
60620,Cook County,IL,NA,13.36797354747284,63.095238095238095
60623,Cook County,IL,31.422924901185773,6.8493150684931505,NA
60625,Cook County,IL,NA,7.8885214926783185,NA
60626,Cook County,IL,NA,3.9678790741615497,NA
60628,Cook County,IL,16.73254281949934,14.926783183750592,NA
60629,Cook County,IL,NA,15.446386395843174,NA
60631,Cook County,IL,NA,29.42843646669816,NA
60632,Cook County,IL,NA,NA,19.155844155844157
60636,Cook County,IL,NA,NA,16.017316017316016
60640,Cook County,IL,4.743083003952568,4.156825696740671,5.303030303030303
60641,Cook County,IL,NA,8.786017949929144,70.23809523809523
60643,Cook County,IL,NA,27.30278696268304,NA
60651,Cook County,IL,52.10803689064558,NA,NA
60655,Cook County,IL,NA,17.80821917808219,NA
60657,Cook County,IL,34.12384716732543,NA,NA
60714,Cook County,IL,NA,NA,60.17316017316018
60804,Cook County,IL,9.552042160737813,NA,NA
60901,Kankakee County,IL,8.102766798418973,NA,84.52380952380952
60915,Kankakee County,IL,NA,40.34010392064242,NA
60950,Kankakee County,IL,NA,44.49692961738309,NA
61008,Boone County,IL,NA,NA,97.07792207792207
61019,Stephenson County,IL,NA,73.50023618327822,NA
61032,Stephenson County,IL,NA,49.031648559282004,NA
61048,Stephenson County,IL,NA,73.73641946150212,NA
61068,Ogle County,IL,NA,32.97118564005668,NA
61103,Winnebago County,IL,NA,29.711856400566838,NA
61108,Winnebago County,IL,NA,NA,48.917748917748916
61109,Winnebago County,IL,53.62318840579711,NA,NA
61111,Winnebago County,IL,31.752305665349144,NA,NA
61244,Rock Island County,IL,NA,NA,70.88744588744589
61265,Rock Island County,IL,NA,NA,8.982683982683982
61356,Bureau County,IL,53.03030303030303,NA,NA
61401,Knox County,IL,40.51383399209486,NA,12.662337662337661
61525,Peoria County,IL,NA,NA,78.78787878787878
61604,Peoria County,IL,50.2635046113307,NA,NA
61704,McLean County,IL,NA,52.81058101086443,43.83116883116883
61727,De Witt County,IL,NA,50.82664147378365,NA
61856,Piatt County,IL,NA,NA,30.519480519480517
61874,Champaign County,IL,NA,NA,31.38528138528138
61951,Moultrie County,IL,73.97891963109355,NA,NA
62040,Madison County,IL,NA,5.526688710439301,NA
62204,St. Clair County,IL,NA,86.39584317430325,NA
62207,St. Clair County,IL,NA,79.3103448275862,NA
62220,St. Clair County,IL,NA,48.700991969768545,NA
62230,Clinton County,IL,NA,NA,54.65367965367965
62231,Clinton County,IL,NA,NA,68.93939393939394
62233,Randolph County,IL,NA,NA,80.3030303030303
62249,Madison County,IL,NA,NA,23.051948051948052
62278,Randolph County,IL,NA,89.46622579121399,NA
62294,Madison County,IL,77.60210803689066,NA,NA
62401,Effingham County,IL,NA,62.06896551724138,NA
62526,Macon County,IL,79.38076416337286,4.06235238545111,NA
62702,Sangamon County,IL,NA,48.79546528105811,78.46320346320347
62711,Sangamon County,IL,NA,NA,31.601731601731604
62712,Sangamon County,IL,NA,NA,85.17316017316018
62951,Williamson County,IL,NA,89.84411903637223,NA
46012,Madison County,IN,NA,11.147850732168163,NA
46017,Madison County,IN,NA,55.40859707132735,NA
46033,Hamilton County,IN,NA,16.910722720831366,NA
46036,Madison County,IN,NA,NA,97.72727272727273
46074,Hamilton County,IN,NA,39.82050070854983,NA
46123,Hendricks County,IN,NA,24.515824279641002,NA
46135,Putnam County,IN,NA,41.14312706660368,NA
46151,Morgan County,IN,NA,36.277751535191314,80.73593073593074
46163,Hancock County,IN,88.93280632411067,NA,NA
46217,Marion County,IN,NA,17.52479924421351,NA
46219,Marion County,IN,24.37417654808959,NA,8.54978354978355
46220,Marion County,IN,NA,NA,36.904761904761905
46221,Marion County,IN,16.666666666666664,NA,NA
46224,Marion County,IN,17.391304347826086,NA,NA
46226,Marion County,IN,6.126482213438735,NA,NA
46231,Marion County,IN,NA,44.78034955125177,NA
46236,Marion County,IN,NA,57.62871988663203,NA
46237,Marion County,IN,NA,23.618327822390174,NA
46241,Marion County,IN,48.55072463768116,NA,NA
46268,Marion County,IN,NA,NA,20.88744588744589
46304,Porter County,IN,50.922266139657445,NA,NA
46307,Lake County,IN,0.922266139657444,NA,NA
46322,Lake County,IN,NA,39.48984411903637,NA
46360,LaPorte County,IN,NA,2.456306093528578,NA
46368,Porter County,IN,NA,8.502598016060462,NA
46375,Lake County,IN,17.918313570487484,NA,NA
46383,Porter County,IN,4.3478260869565215,NA,NA
46392,Jasper County,IN,68.70882740447958,NA,NA
46410,Lake County,IN,NA,2.220122815304676,NA
46501,Marshall County,IN,86.16600790513834,NA,NA
46514,Elkhart County,IN,16.469038208168644,12.423240434577231,NA
46526,Elkhart County,IN,NA,84.08124704770901,NA
46540,Elkhart County,IN,71.14624505928853,NA,NA
46544,St. Joseph County,IN,NA,35.474728389230044,NA
46545,St. Joseph County,IN,NA,NA,29.004329004329005
46574,St. Joseph County,IN,NA,98.63013698630137,NA
46614,St. Joseph County,IN,NA,61.88001889466226,NA
46701,Noble County,IN,NA,52.00755786490316,NA
46750,Huntington County,IN,NA,NA,15.909090909090908
46804,Allen County,IN,74.44005270092227,NA,NA
46814,Allen County,IN,61.33069828722003,NA,82.46753246753246
46816,Allen County,IN,NA,30.136986301369863,NA
46818,Allen County,IN,NA,54.98346717052433,NA
46835,Allen County,IN,18.642951251646902,24.32687765706188,NA
46845,Allen County,IN,NA,26.9248937175248,NA
46901,Howard County,IN,0.9881422924901186,28.814359943316013,NA
46902,Howard County,IN,NA,14.029286726499764,NA
46947,Cass County,IN,NA,6.424185167690127,NA
46970,Miami County,IN,NA,NA,23.051948051948052
46992,Wabash County,IN,NA,NA,44.26406926406926
47040,Ohio County,IN,NA,NA,96.64502164502164
47119,Floyd County,IN,NA,NA,70.45454545454545
47130,Clark County,IN,NA,2.7869626830420406,22.943722943722943
47150,Floyd County,IN,NA,20.17005196032121,NA
47172,Clark County,IN,NA,78.08219178082192,88.2034632034632
47201,Bartholomew County,IN,24.04479578392622,NA,NA
47250,Jefferson County,IN,NA,64.76145488899387,85.3896103896104
47265,Jennings County,IN,NA,71.18564005668398,NA
47274,Jackson County,IN,NA,NA,67.09956709956711
47304,Delaware County,IN,NA,23.854511100614076,NA
47336,Jay County,IN,98.55072463768117,NA,NA
47348,Blackford County,IN,NA,36.702881435994335,NA
47374,Wayne County,IN,11.133069828722004,55.36136041568257,NA
47421,Lawrence County,IN,NA,10.297590930562116,NA
47446,Lawrence County,IN,NA,91.02503542749173,NA
47567,Pike County,IN,NA,NA,74.35064935064936
47601,Warrick County,IN,NA,24.0434577231932,NA
47711,Vanderburgh County,IN,NA,NA,12.337662337662337
47803,Vigo County,IN,40.184453227931485,NA,NA
47804,Vigo County,IN,75.49407114624506,73.12234293811997,NA
47885,Vigo County,IN,NA,50.921114785073215,NA
47933,Montgomery County,IN,NA,NA,18.181818181818183
47960,White County,IN,68.11594202898551,NA,NA
50010,Story County,IA,NA,91.82805857345299,NA
50129,Greene County,IA,NA,NA,79.54545454545455
50131,Polk County,IA,57.180500658761524,NA,NA
50158,Marshall County,IA,NA,86.0651865847898,NA
50314,Polk County,IA,NA,91.96976854038735,NA
50315,Polk County,IA,NA,54.463863958431745,NA
50316,Polk County,IA,24.637681159420293,NA,NA
50322,Polk County,IA,NA,63.43882853094001,NA
50323,Dallas County,IA,97.10144927536231,NA,NA
51002,Buena Vista County,IA,99.40711462450594,NA,NA
51360,Dickinson County,IA,NA,NA,66.45021645021644
51501,Pottawattamie County,IA,1.5151515151515151,NA,NA
51503,Pottawattamie County,IA,NA,2.0784128483703355,NA
51534,Mills County,IA,76.74571805006588,NA,NA
51632,Page County,IA,NA,NA,98.05194805194806
52003,Dubuque County,IA,NA,84.31743032593293,NA
52057,Delaware County,IA,NA,77.420878601795,NA
52240,Johnson County,IA,NA,11.006140765233821,NA
52245,Johnson County,IA,NA,22.484648086915445,NA
52302,Linn County,IA,10.540184453227932,NA,NA
52310,Jones County,IA,NA,NA,74.24242424242425
52328,Linn County,IA,94.99341238471673,NA,NA
52349,Benton County,IA,50.988142292490124,NA,NA
52361,Iowa County,IA,99.67061923583663,NA,NA
52402,Linn County,IA,NA,40.24563060935286,NA
52405,Linn County,IA,22.66139657444005,67.92631081719415,NA
52501,Wapello County,IA,27.140974967061926,81.0108644307983,NA
52627,Lee County,IA,NA,54.03873405762872,NA
52655,Des Moines County,IA,NA,60.46291922531884,NA
52722,Scott County,IA,NA,89.04109589041096,NA
52732,Clinton County,IA,34.980237154150196,NA,NA
52748,Scott County,IA,65.61264822134387,91.68634860651866,NA
52761,Muscatine County,IA,NA,69.05999055266886,NA
52772,Cedar County,IA,NA,NA,86.47186147186147
52803,Scott County,IA,NA,32.87671232876712,55.62770562770562
66047,Douglas County,KS,66.46903820816864,NA,NA
66048,Leavenworth County,KS,NA,55.12517713745867,NA
66061,Johnson County,KS,NA,2.3618327822390173,NA
66062,Johnson County,KS,80.10540184453228,79.92442135096836,NA
66067,Franklin County,KS,95.12516469038208,NA,NA
66071,Miami County,KS,NA,89.65517241379311,NA
66083,Johnson County,KS,NA,87.43504959848842,NA
66203,Johnson County,KS,59.48616600790514,NA,NA
66204,Johnson County,KS,NA,90.8360888049126,NA
66207,Johnson County,KS,61.79183135704874,NA,NA
66208,Johnson County,KS,62.77997364953887,NA,NA
66210,Johnson County,KS,NA,44.96929617383089,NA
66213,Johnson County,KS,96.9038208168643,NA,NA
66221,Johnson County,KS,97.23320158102767,91.49740198393954,NA
66226,Johnson County,KS,NA,95.74870099196977,NA
66502,Riley County,KS,NA,87.95465281058101,NA
66610,Shawnee County,KS,NA,67.50118091639112,NA
66701,Bourbon County,KS,67.78656126482213,NA,NA
66720,Neosho County,KS,NA,52.76334435521966,NA
66801,Lyon County,KS,NA,NA,20.562770562770563
66839,Coffey County,KS,NA,91.5918752952291,NA
67060,Sedgwick County,KS,NA,75.86206896551724,NA
67124,Pratt County,KS,70.61923583662714,NA,NA
67152,Sumner County,KS,NA,65.42276806802079,NA
67156,Cowley County,KS,55.79710144927537,NA,35.28138528138528
67203,Sedgwick County,KS,49.40711462450593,NA,NA
67207,Sedgwick County,KS,NA,58.29003306565895,NA
67208,Sedgwick County,KS,NA,68.06802078412848,NA
67212,Sedgwick County,KS,41.76548089591568,33.44355219650449,NA
67230,Sedgwick County,KS,NA,NA,85.82251082251082
67235,Sedgwick County,KS,83.6627140974967,NA,NA
67301,Montgomery County,KS,NA,NA,57.25108225108225
67357,Labette County,KS,NA,38.92300425129901,NA
67410,Dickinson County,KS,NA,71.89418989135568,NA
67601,Ellis County,KS,24.637681159420293,33.53802550779405,NA
40013,Nelson County,KY,63.109354413702235,NA,NA
40023,Jefferson County,KY,93.741765480895907,NA,NA
40065,Shelby County,KY,24.571805006587617,17.005196032120924,NA
40118,Jefferson County,KY,NA,42.32404345772319,NA
40162,Hardin County,KY,NA,76.33443552196505,NA
40165,Bullitt County,KY,27.07509881422925,NA,NA
40204,Jefferson County,KY,NA,NA,69.04761904761905
40205,Jefferson County,KY,59.81554677206851,NA,NA
40207,Jefferson County,KY,NA,18.705715635333018,NA
40208,Jefferson County,KY,57.2463768115942,NA,NA
40210,Jefferson County,KY,NA,36.32498819083609,NA
40211,Jefferson County,KY,NA,49.64572508266415,NA
40213,Jefferson County,KY,19.894598155467722,98.44119036372226,NA
40214,Jefferson County,KY,30.8300395256917,NA,NA
40215,Jefferson County,KY,89.98682476943345,NA,NA
40216,Jefferson County,KY,NA,26.216343882853092,NA
40219,Jefferson County,KY,76.1528326745718,NA,92.96536796536796
40220,Jefferson County,KY,NA,52.054794520547944,NA
40222,Jefferson County,KY,NA,NA,79.11255411255411
40223,Jefferson County,KY,86.42951251646905,NA,NA
40228,Jefferson County,KY,44.07114624505929,NA,NA
40229,Jefferson County,KY,NA,11.147850732168163,NA
40242,Jefferson County,KY,NA,NA,85.71428571428571
40243,Jefferson County,KY,NA,60.98252243741143,NA
40272,Jefferson County,KY,NA,48.3230987246103,NA
40299,Jefferson County,KY,45.65217391304348,64.24185167690128,NA
40311,Nicholas County,KY,NA,NA,67.96536796536796
40324,Scott County,KY,40.843214756258234,NA,25.108225108225106
40330,Mercer County,KY,59.025032938076414,NA,NA
40356,Jessamine County,KY,NA,13.415210203117619,NA
40360,Bath County,KY,42.226613965744406,76.99574870099197,NA
40361,Bourbon County,KY,20.816864295125164,NA,NA
40380,Powell County,KY,50.329380764163375,NA,NA
40383,Woodford County,KY,NA,53.282947567312235,NA
40391,Clark County,KY,NA,7.132735002361833,NA
40403,Madison County,KY,71.87088274044797,NA,NA
40444,Garrard County,KY,NA,60.273972602739725,NA
40456,Rockcastle County,KY,51.515151515151516,47.850732168162494,NA
40475,Madison County,KY,NA,NA,43.83116883116883
40484,Lincoln County,KY,NA,63.62777515351913,NA
40503,Fayette County,KY,NA,NA,20.77922077922078
40504,Fayette County,KY,NA,NA,89.82683982683982
40508,Fayette County,KY,19.367588932806324,NA,NA
40517,Fayette County,KY,NA,NA,32.57575757575758
40741,Laurel County,KY,79.18313570487484,66.27302786962683,90.15151515151516
40769,Whitley County,KY,NA,35.23854511100614,NA
40873,Harlan County,KY,NA,99.95276334435522,NA
41042,Boone County,KY,NA,3.4955125177137463,NA
41071,Campbell County,KY,63.63636363636363,NA,NA
41075,Campbell County,KY,NA,NA,45.45454545454545
41076,Campbell County,KY,88.66930171277997,NA,NA
41339,Breathitt County,KY,NA,NA,88.85281385281385
41465,Magoffin County,KY,NA,NA,90.25974025974025
41501,Pike County,KY,39.130434782608695,NA,NA
41653,Floyd County,KY,27.4703557312253,NA,NA
41701,Perry County,KY,80.566534914361,NA,NA
42066,Graves County,KY,NA,NA,23.809523809523807
42129,Metcalfe County,KY,NA,41.99338686820973,NA
42211,Trigg County,KY,NA,NA,40.692640692640694
42240,Christian County,KY,3.293807641633729,NA,NA
42261,Butler County,KY,NA,NA,84.74025974025975
42303,Daviess County,KY,NA,73.547472838923,13.852813852813853
42330,Muhlenberg County,KY,NA,NA,98.37662337662337
42348,Hancock County,KY,89.19631093544137,NA,NA
42431,Hopkins County,KY,NA,15.682569674067077,NA
42459,Union County,KY,78.65612648221344,NA,NA
42602,Clinton County,KY,NA,NA,64.06926406926407
42629,Russell County,KY,NA,78.41284837033538,NA
42633,Wayne County,KY,NA,47.66178554558337,NA
42653,McCreary County,KY,NA,NA,92.20779220779221
42701,Hardin County,KY,5.928853754940711,22.957014643363248,NA
42717,Cumberland County,KY,88.14229249011858,NA,NA
42718,Taylor County,KY,84.65085638998683,22.579121398205007,NA
42728,Adair County,KY,NA,NA,95.34632034632034
42743,Green County,KY,68.84057971014492,NA,NA
42754,Grayson County,KY,NA,22.248464808691544,NA
70001,Jefferson Parish,LA,NA,85.45111006140765,NA
70002,Jefferson Parish,LA,NA,18.091639111950876,NA
70005,Jefferson Parish,LA,74.30830039525692,NA,NA
70043,St. Bernard Parish,LA,NA,69.91025035427492,NA
70065,Jefferson Parish,LA,1.9104084321475625,11.053377420878602,NA
70068,St. John the Baptist Parish,LA,NA,67.59565422768068,NA
70072,Jefferson Parish,LA,NA,1.086443079829948,3.67965367965368
70075,St. Bernard Parish,LA,73.3201581027668,NA,NA
70094,Jefferson Parish,LA,NA,81.53046764289088,NA
70116,Orleans Parish,LA,NA,NA,56.38528138528138
70117,Orleans Parish,LA,NA,9.636277751535191,NA
70118,Orleans Parish,LA,57.04874835309618,NA,NA
70125,Orleans Parish,LA,NA,91.21398205007085,NA
70130,Orleans Parish,LA,NA,20.26452527161077,NA
70131,Orleans Parish,LA,NA,NA,36.36363636363637
70345,Lafourche Parish,LA,83.13570487483531,NA,NA
70360,Terrebonne Parish,LA,5.7312252964426875,94.14265470004723,NA
70390,Assumption Parish,LA,80.3030303030303,NA,NA
70392,St. Mary Parish,LA,NA,51.4407179971658,NA
70420,St. Tammany Parish,LA,NA,47.94520547945205,NA
70422,Tangipahoa Parish,LA,NA,24.279641001417097,NA
70433,St. Tammany Parish,LA,NA,NA,2.7056277056277054
70437,St. Tammany Parish,LA,87.15415019762845,NA,NA
70448,St. Tammany Parish,LA,62.38471673254282,NA,NA
70452,St. Tammany Parish,LA,33.860342555994734,NA,NA
70454,Tangipahoa Parish,LA,NA,80.11336797354748,NA
70458,St. Tammany Parish,LA,NA,1.5588096362777515,NA
70461,St. Tammany Parish,LA,8.234519104084322,NA,NA
70506,Lafayette Parish,LA,13.70223978919631,NA,17.64069264069264
70508,Lafayette Parish,LA,NA,10.95890410958904,NA
70510,Vermilion Parish,LA,5.138339920948617,NA,NA
70512,St. Landry Parish,LA,66.79841897233202,NA,NA
70548,Vermilion Parish,LA,91.43610013175231,NA,NA
70605,Calcasieu Parish,LA,8.761528326745719,NA,23.809523809523807
70634,Beauregard Parish,LA,NA,21.6343882853094,NA
70663,Calcasieu Parish,LA,67.65480895915678,NA,NA
70760,Pointe Coupee Parish,LA,51.05401844532279,NA,NA
70785,Livingston Parish,LA,NA,NA,42.857142857142854
70808,East Baton Rouge Parish,LA,NA,78.50732168162494,NA
70816,East Baton Rouge Parish,LA,NA,NA,25.324675324675322
71037,Bossier Parish,LA,NA,72.69721303731696,NA
71106,Caddo Parish,LA,NA,7.321681624940954,NA
71108,Caddo Parish,LA,20.75098814229249,84.55361360415682,NA
71109,Caddo Parish,LA,NA,14.407179971658007,NA
71111,Bossier Parish,LA,NA,28.908833254605575,NA
71118,Caddo Parish,LA,10.342555994729906,NA,NA
71232,Richland Parish,LA,NA,NA,58.00865800865801
71282,Madison Parish,LA,NA,66.55644780349552,NA
71291,Ouachita Parish,LA,NA,17.146905999055267,15.69264069264069
71303,Rapides Parish,LA,NA,51.29900803023146,NA
71457,Natchitoches Parish,LA,NA,13.840340103920642,NA
04002,York County,ME,86.95652173913044,NA,NA
04038,Cumberland County,ME,34.58498023715415,NA,NA
04039,Cumberland County,ME,78.52437417654808,NA,NA
04072,York County,ME,22.793148880105402,NA,NA
04073,York County,ME,12.25296442687747,NA,NA
04086,Sagadahoc County,ME,NA,NA,34.41558441558442
04093,York County,ME,NA,93.95370807746811,NA
04103,Cumberland County,ME,NA,37.64761454888994,NA
04105,Cumberland County,ME,NA,58.431743032593296,NA
04107,Cumberland County,ME,93.93939393939394,NA,NA
04240,Androscoggin County,ME,6.851119894598155,NA,NA
04250,Androscoggin County,ME,NA,85.26216343882854,NA
04330,Kennebec County,ME,NA,46.57534246575342,NA
04345,Kennebec County,ME,53.359683794466406,78.55455833726973,NA
04462,Penobscot County,ME,64.82213438735178,NA,NA
04730,Aroostook County,ME,NA,56.92017005196032,NA
04769,Aroostook County,ME,64.69038208168642,NA,NA
04841,Knox County,ME,NA,93.29239489844119,NA
04937,Somerset County,ME,NA,NA,61.471861471861466
04950,Somerset County,ME,NA,73.16957959376477,NA
20613,Prince George's County,MD,87.08827404479578,NA,NA
20619,St. Mary's County,MD,NA,68.77657061880019,NA
20646,Charles County,MD,91.17259552042161,NA,NA
20650,St. Mary's County,MD,NA,99.00803023145961,NA
20657,Calvert County,MD,NA,62.919225318847424,NA
20659,St. Mary's County,MD,NA,84.17572035899859,NA
20695,Charles County,MD,91.56785243741766,NA,NA
20707,Prince George's County,MD,NA,61.92725555030704,NA
20716,Prince George's County,MD,90.38208168642952,64.57250826641474,NA
20723,Howard County,MD,60.27667984189723,NA,NA
20735,Prince George's County,MD,37.417654808959156,NA,NA
20744,Prince George's County,MD,54.347826086956516,77.94048181388757,NA
20746,Prince George's County,MD,94.20289855072464,NA,NA
20774,Prince George's County,MD,52.23978919631094,74.44496929617384,NA
20817,Montgomery County,MD,97.10144927536231,NA,NA
20854,Montgomery County,MD,NA,19.03637222484648,NA
20878,Montgomery County,MD,NA,39.63155408597071,NA
20895,Montgomery County,MD,89.85507246376811,NA,NA
20901,Montgomery County,MD,NA,NA,79.54545454545455
20906,Montgomery County,MD,NA,21.823334907888523,NA
21009,Harford County,MD,76.21870882740448,NA,NA
21015,Harford County,MD,NA,37.5059045819556,NA
21040,Harford County,MD,91.30434782608695,NA,NA
21043,Howard County,MD,93.87351778656127,NA,NA
21044,Howard County,MD,80.69828722002636,NA,NA
21050,Harford County,MD,NA,50.82664147378365,NA
21078,Harford County,MD,NA,31.884742560226737,NA
21084,Harford County,MD,NA,92.39489844119036,NA
21085,Harford County,MD,NA,NA,60.064935064935064
21087,Baltimore County,MD,NA,94.37883797827114,NA
21090,Anne Arundel County,MD,NA,77.13745866792631,NA
21093,Baltimore County,MD,NA,55.975436939064714,NA
21117,Baltimore County,MD,NA,40.19839395370808,NA
21120,Baltimore County,MD,NA,85.49834671705243,NA
21122,Anne Arundel County,MD,NA,28.625413320736893,NA
21133,Baltimore County,MD,86.69301712779973,NA,NA
21136,Baltimore County,MD,NA,30.562116202172884,NA
21144,Anne Arundel County,MD,36.824769433465086,NA,NA
21157,Carroll County,MD,NA,NA,14.61038961038961
21206,Baltimore city,MD,NA,6.8493150684931505,NA
21209,Baltimore County,MD,41.50197628458498,NA,NA
21214,Baltimore city,MD,39.32806324110672,NA,NA
21215,Baltimore city,MD,4.479578392621871,39.726027397260275,NA
21217,Baltimore city,MD,11.396574440052701,NA,NA
21218,Baltimore city,MD,NA,NA,39.61038961038961
21220,Baltimore County,MD,NA,17.43032593292395,NA
21223,Baltimore city,MD,59.15678524374176,NA,NA
21228,Baltimore County,MD,NA,NA,7.142857142857142
21239,Baltimore city,MD,NA,10.911667453944261,NA
21401,Anne Arundel County,MD,NA,NA,13.311688311688311
21403,Anne Arundel County,MD,77.33860342555995,NA,NA
21702,Frederick County,MD,NA,44.68587623996221,33.874458874458874
21771,Frederick County,MD,85.96837944664031,NA,NA
21776,Carroll County,MD,NA,85.40387340576288,NA
21783,Washington County,MD,77.4703557312253,NA,NA
21784,Carroll County,MD,NA,37.26972130373169,NA
21797,Howard County,MD,84.25559947299077,NA,NA
21801,Wicomico County,MD,NA,65.28105810108644,NA
21811,Worcester County,MD,NA,NA,12.121212121212121
21830,Wicomico County,MD,NA,93.67028814359944,NA
21875,Wicomico County,MD,NA,79.82994803967878,NA
21921,Cecil County,MD,NA,33.67973547472839,NA
01013,Hampden County,MA,NA,NA,12.878787878787879
01020,Hampden County,MA,NA,67.73736419461503,NA
01027,Hampshire County,MA,NA,23.476617855455835,NA
01030,Hampden County,MA,NA,48.275862068965516,NA
01060,Hampshire County,MA,NA,56.92017005196032,NA
01073,Hampshire County,MA,62.64822134387352,NA,NA
01075,Hampshire County,MA,87.28590250329381,NA,NA
01085,Hampden County,MA,0.7246376811594203,NA,NA
01089,Hampden County,MA,10.276679841897234,16.343882853094,NA
01106,Hampden County,MA,NA,NA,82.35930735930735
01118,Hampden County,MA,14.492753623188406,NA,NA
01119,Hampden County,MA,NA,55.40859707132735,NA
01201,Berkshire County,MA,NA,0.04723665564478035,NA
01331,Worcester County,MA,NA,18.61124232404346,NA
01364,Franklin County,MA,NA,NA,96.86147186147186
01420,Worcester County,MA,NA,91.11950873878129,3.2467532467532463
01430,Worcester County,MA,NA,76.38167217760983,NA
01451,Worcester County,MA,NA,66.88710439300898,NA
01453,Worcester County,MA,NA,3.306565895134624,37.55411255411256
01460,Middlesex County,MA,NA,NA,53.35497835497836
01469,Middlesex County,MA,75.23056653491436,NA,NA
01534,Worcester County,MA,NA,99.14974019839396,NA
01536,Worcester County,MA,NA,NA,72.72727272727273
01541,Worcester County,MA,93.08300395256917,NA,NA
01545,Worcester County,MA,30.237154150197625,NA,NA
01581,Worcester County,MA,18.9064558629776,NA,46.86147186147186
01604,Worcester County,MA,0.32938076416337286,0.7085498346717053,NA
01605,Worcester County,MA,0.6587615283267457,NA,NA
01606,Worcester County,MA,NA,47.472838923004254,NA
01609,Worcester County,MA,NA,89.56069910250353,NA
01610,Worcester County,MA,NA,98.39395370807746,NA
01701,Middlesex County,MA,NA,NA,5.086580086580087
01748,Middlesex County,MA,27.009222661396574,NA,NA
01749,Middlesex County,MA,9.749670619235836,NA,NA
01760,Middlesex County,MA,5.072463768115942,74.58667926310817,NA
01773,Middlesex County,MA,NA,69.29617383089277,NA
01776,Middlesex County,MA,51.515151515151516,23.854511100614076,NA
01778,Middlesex County,MA,NA,29.23948984411904,NA
01801,Middlesex County,MA,NA,6.188001889466226,NA
01824,Middlesex County,MA,NA,3.6372224846480865,93.93939393939394
01830,Essex County,MA,12.97760210803689,NA,NA
01832,Essex County,MA,NA,70.99669343410486,NA
01833,Essex County,MA,NA,NA,77.27272727272727
01841,Essex County,MA,0,NA,NA
01844,Essex County,MA,NA,13.037316957959376,NA
01852,Middlesex County,MA,NA,NA,12.445887445887447
01854,Middlesex County,MA,80.17127799736495,NA,NA
01876,Middlesex County,MA,NA,0.8502598016060462,NA
01886,Middlesex County,MA,85.90250329380764,NA,NA
01890,Middlesex County,MA,NA,NA,61.904761904761905
01904,Essex County,MA,NA,NA,19.480519480519483
01907,Essex County,MA,NA,18.375059045819555,NA
01913,Essex County,MA,NA,5.196032120925839,NA
01930,Essex County,MA,1.7127799736495388,NA,NA
01938,Essex County,MA,NA,31.128956069910252,NA
01949,Essex County,MA,29.57839262187088,NA,NA
01960,Essex County,MA,NA,50.44874822862542,NA
01970,Essex County,MA,NA,NA,93.5064935064935
02021,Norfolk County,MA,NA,78.79074161549362,25.432900432900436
02026,Norfolk County,MA,NA,8.738781294284365,8.766233766233766
02035,Norfolk County,MA,18.511198945981555,NA,NA
02038,Norfolk County,MA,NA,8.408124704770902,NA
02072,Norfolk County,MA,18.57707509881423,NA,NA
02111,Suffolk County,MA,NA,NA,20.12987012987013
02114,Suffolk County,MA,NA,NA,93.3982683982684
02115,Suffolk County,MA,NA,1.8422295701464337,92.64069264069265
02116,Suffolk County,MA,NA,12.612187057156355,NA
02119,Suffolk County,MA,0.06587615283267458,NA,NA
02121,Suffolk County,MA,NA,33.112895606991025,NA
02122,Suffolk County,MA,5.401844532279315,NA,NA
02124,Suffolk County,MA,2.5691699604743086,NA,NA
02125,Suffolk County,MA,56.851119894598156,NA,NA
02127,Suffolk County,MA,NA,48.3230987246103,NA
02130,Suffolk County,MA,NA,NA,2.1645021645021645
02132,Suffolk County,MA,NA,0.5668398677373643,NA
02134,Suffolk County,MA,NA,61.92725555030704,NA
02138,Middlesex County,MA,NA,3.117619272555503,53.46320346320347
02139,Middlesex County,MA,40.77733860342556,NA,NA
02148,Middlesex County,MA,NA,1.4170996693434106,NA
02149,Middlesex County,MA,NA,NA,50.324675324675326
02151,Suffolk County,MA,NA,0,NA
02152,Suffolk County,MA,91.89723320158103,NA,NA
02170,Norfolk County,MA,NA,NA,17.0995670995671
02184,Norfolk County,MA,NA,NA,25.649350649350648
02186,Norfolk County,MA,NA,14.73783656117147,NA
02188,Norfolk County,MA,NA,21.3982050070855,NA
02190,Norfolk County,MA,NA,NA,42.099567099567096
02330,Plymouth County,MA,NA,NA,54.65367965367965
02332,Plymouth County,MA,50.461133069828726,NA,NA
02341,Plymouth County,MA,NA,NA,83.11688311688312
02364,Plymouth County,MA,32.740447957839265,NA,NA
02368,Norfolk County,MA,NA,NA,97.94372294372295
02420,Middlesex County,MA,90.44795783926219,NA,NA
02458,Middlesex County,MA,NA,NA,32.467532467532465
02460,Middlesex County,MA,NA,NA,81.38528138528139
02465,Middlesex County,MA,NA,NA,97.61904761904762
02467,Norfolk County,MA,55.86297760210803,NA,NA
02474,Middlesex County,MA,6.521739130434782,39.442607463391596,NA
02476,Middlesex County,MA,NA,15.162966461974491,NA
02478,Middlesex County,MA,50.72463768115942,NA,NA
02481,Norfolk County,MA,NA,88.14359943316013,NA
02482,Norfolk County,MA,72.85902503293808,NA,NA
02536,Barnstable County,MA,84.18972332015811,7.652338214454417,NA
02568,Dukes County,MA,NA,97.96882380727445,NA
02631,Barnstable County,MA,59.81554677206851,NA,NA
02649,Barnstable County,MA,NA,15.635333018422296,NA
02653,Barnstable County,MA,NA,98.91355692017005,NA
02664,Barnstable County,MA,NA,NA,77.59740259740259
02673,Barnstable County,MA,NA,NA,77.81385281385282
02703,Bristol County,MA,3.7549407114624502,5.8101086443079835,NA
02744,Bristol County,MA,5.33596837944664,NA,NA
02748,Bristol County,MA,NA,NA,17.532467532467532
02767,Bristol County,MA,12.911725955204217,74.25602267359471,NA
02769,Bristol County,MA,28.78787878787879,NA,NA
02771,Bristol County,MA,22.266139657444008,NA,NA
02779,Bristol County,MA,95.71805006587614,NA,NA
48001,St. Clair County,MI,47.299077733860344,NA,NA
48030,Oakland County,MI,25.559947299077734,NA,NA
48044,Macomb County,MI,NA,33.34907888521493,NA
48047,Macomb County,MI,6.719367588932807,NA,NA
48059,St. Clair County,MI,NA,25.602267359470947,NA
48060,St. Clair County,MI,8.49802371541502,2.834199338686821,NA
48066,Macomb County,MI,51.449275362318836,NA,NA
48072,Oakland County,MI,NA,NA,41.125541125541126
48073,Oakland County,MI,NA,18.84742560226736,NA
48082,Macomb County,MI,NA,NA,71.75324675324676
48085,Oakland County,MI,42.16073781291173,42.56022673594709,NA
48091,Macomb County,MI,NA,8.597071327350024,NA
48092,Macomb County,MI,16.600790513833992,75.15351913084554,NA
48094,Macomb County,MI,NA,71.23287671232876,NA
48098,Oakland County,MI,NA,19.98110533774209,NA
48103,Washtenaw County,MI,NA,0.3778932451582428,NA
48111,Wayne County,MI,3.557312252964427,NA,64.28571428571429
48114,Livingston County,MI,58.16864295125165,NA,NA
48116,Livingston County,MI,NA,81.67217760982523,NA
48127,Wayne County,MI,6.324110671936759,NA,NA
48130,Washtenaw County,MI,92.22661396574439,NA,NA
48134,Wayne County,MI,40.44795783926219,NA,NA
48135,Wayne County,MI,NA,13.793103448275861,NA
48146,Wayne County,MI,83.46508563899869,NA,NA
48152,Wayne County,MI,NA,NA,5.735930735930736
48154,Wayne County,MI,NA,71.94142654700048,3.463203463203463
48169,Livingston County,MI,NA,16.721776098252246,92.42424242424242
48173,Wayne County,MI,NA,48.3230987246103,NA
48174,Wayne County,MI,NA,NA,27.056277056277057
48178,Oakland County,MI,NA,28.153046764289087,NA
48180,Wayne County,MI,NA,9.116674539442608,13.203463203463203
48186,Wayne County,MI,3.0303030303030303,NA,NA
48188,Wayne County,MI,76.28458498023716,NA,NA
48197,Washtenaw County,MI,NA,0.6613131790269249,NA
48203,Wayne County,MI,NA,78.17666509211148,NA
48205,Wayne County,MI,1.844532279314888,NA,NA
48219,Wayne County,MI,NA,23.334907888521492,NA
48224,Wayne County,MI,NA,11.525743977326405,40.8008658008658
48225,Wayne County,MI,NA,68.96551724137932,NA
48234,Wayne County,MI,4.413702239789196,8.2664147378365609,NA
48235,Wayne County,MI,NA,82.28625413320736,NA
48236,Wayne County,MI,NA,28.956069910250353,6.3852813852813854
48237,Oakland County,MI,NA,NA,51.73160173160173
48238,Wayne County,MI,2.437417654808959,NA,NA
48239,Wayne County,MI,NA,40.29286726499764,NA
48240,Wayne County,MI,NA,36.08880491261219,66.01731601731602
48302,Oakland County,MI,NA,27.633443552196507,NA
48304,Oakland County,MI,44.466403162055336,NA,NA
48306,Oakland County,MI,NA,NA,59.63203463203464
48307,Oakland County,MI,NA,11.99811053377421,NA
48313,Macomb County,MI,39.064558629776016,NA,NA
48315,Macomb County,MI,23.715415019762844,10.533774208786017,NA
48316,Macomb County,MI,NA,75.90930562116202,NA
48317,Macomb County,MI,NA,NA,46.42857142857143
48327,Oakland County,MI,NA,52.19650448748229,NA
48328,Oakland County,MI,NA,93.76476145488898,24.350649350649352
48329,Oakland County,MI,NA,36.51393481341521,NA
48331,Oakland County,MI,NA,11.809163911195087,NA
48334,Oakland County,MI,NA,NA,28.13852813852814
48335,Oakland County,MI,NA,NA,55.73593073593074
48340,Oakland County,MI,21.014492753623188,NA,NA
48341,Oakland County,MI,NA,25.082664147378363,NA
48348,Oakland County,MI,NA,26.452527161076993,NA
48362,Oakland County,MI,NA,61.54936230514879,NA
48371,Oakland County,MI,NA,28.719886632026455,NA
48383,Oakland County,MI,NA,98.48842701936704,NA
48420,Genesee County,MI,67.25955204216075,93.2451582427964,NA
48430,Genesee County,MI,NA,73.97260273972603,NA
48433,Genesee County,MI,NA,NA,89.39393939393939
48442,Oakland County,MI,NA,86.7737364194615,NA
48446,Lapeer County,MI,7.114624505928854,13.556920170051962,NA
48455,Lapeer County,MI,NA,81.19981105337743,NA
48503,Genesee County,MI,NA,NA,53.03030303030303
48506,Genesee County,MI,12.450592885375494,NA,NA
48509,Genesee County,MI,97.76021080368906,NA,NA
48603,Saginaw County,MI,NA,5.007085498346718,NA
48612,Gladwin County,MI,NA,27.397260273972602,NA
48616,Saginaw County,MI,35.573122529644266,NA,NA
48617,Clare County,MI,NA,NA,51.40692640692641
48623,Saginaw County,MI,26.284584980237153,NA,NA
48625,Clare County,MI,NA,96.1738308927728,NA
48629,Roscommon County,MI,NA,45.6778460085026,NA
48640,Midland County,MI,NA,56.44780349551252,2.813852813852814
48703,Arenac County,MI,NA,69.43788379782711,NA
48706,Bay County,MI,4.0184453227931485,18.469532357109117,NA
48723,Tuscola County,MI,14.953886693017127,NA,NA
48734,Saginaw County,MI,NA,87.62399622106754,54.22077922077923
48801,Gratiot County,MI,55.73122529644269,NA,NA
48813,Eaton County,MI,21.936758893280633,NA,NA
48817,Shiawassee County,MI,NA,85.8290033065659,NA
48837,Eaton County,MI,NA,46.6225791213982,NA
48838,Montcalm County,MI,72.72727272727273,NA,NA
48858,Isabella County,MI,72.39789196310934,NA,NA
48864,Ingham County,MI,49.80237154150198,NA,NA
48867,Shiawassee County,MI,3.689064558629776,73.7836561171469,NA
48906,Ingham County,MI,25.03293807641634,NA,NA
48910,Ingham County,MI,NA,NA,23.26839826839827
48911,Ingham County,MI,15.349143610013174,NA,NA
49004,Kalamazoo County,MI,NA,81.62494095418045,NA
49007,Kalamazoo County,MI,48.94598155467721,NA,NA
49008,Kalamazoo County,MI,NA,58.99858290033065,NA
49009,Kalamazoo County,MI,39.85507246376812,4.581955597543693,NA
49014,Calhoun County,MI,69.1699604743083,NA,NA
49017,Calhoun County,MI,NA,14.076523382144543,NA
49024,Kalamazoo County,MI,38.537549407114625,NA,NA
49045,Van Buren County,MI,NA,90.36372224846481,NA
49048,Kalamazoo County,MI,86.10013175230566,69.81577704298536,NA
49072,St. Joseph County,MI,NA,97.73264052905054,NA
49090,Van Buren County,MI,83.33333333333334,23.00425129900803,NA
49099,St. Joseph County,MI,NA,74.63391591875296,NA
49106,Berrien County,MI,79.05138339920948,NA,NA
49201,Jackson County,MI,44.20289855072464,NA,4.761904761904762
49203,Jackson County,MI,NA,NA,4.978354978354979
49221,Lenawee County,MI,1.7786561264822136,2.550779404818139,NA
49228,Lenawee County,MI,NA,NA,83.33333333333334
49230,Jackson County,MI,NA,55.92820028341994,NA
49242,Hillsdale County,MI,29.38076416337286,NA,NA
49253,Lenawee County,MI,90.57971014492753,NA,NA
49285,Ingham County,MI,NA,93.15068493150685,NA
49316,Kent County,MI,NA,27.727916863486062,NA
49333,Barry County,MI,46.772068511198945,NA,NA
49341,Kent County,MI,64.62450592885376,NA,NA
49346,Mecosta County,MI,NA,46.95323571091167,NA
49349,Newaygo County,MI,NA,52.62163438828531,NA
49401,Ottawa County,MI,86.4953886693017,94.85120453471895,NA
49404,Ottawa County,MI,NA,75.05904581955598,NA
49412,Newaygo County,MI,43.34650856389987,NA,NA
49423,Ottawa County,MI,NA,4.7709022201228155,NA
49428,Ottawa County,MI,NA,NA,65.04329004329004
49441,Muskegon County,MI,NA,NA,0.974025974025974
49456,Ottawa County,MI,NA,57.203589985829005,14.06926406926407
49461,Muskegon County,MI,NA,70.33538025507794,NA
49508,Kent County,MI,2.766798418972332,NA,NA
49525,Kent County,MI,NA,NA,26.731601731601735
49534,Kent County,MI,NA,NA,35.93073593073593
49546,Kent County,MI,NA,45.34718941898914,NA
49601,Wexford County,MI,NA,58.715162966461975,NA
49649,Grand Traverse County,MI,NA,94.331601322626355,NA
49665,Osceola County,MI,NA,78.97968823807274,NA
49677,Osceola County,MI,NA,NA,45.12987012987013
49686,Grand Traverse County,MI,NA,NA,11.363636363636363
49707,Alpena County,MI,NA,NA,9.090909090909092
49727,Charlevoix County,MI,NA,NA,95.23809523809523
49829,Delta County,MI,NA,58.053849787435055,NA
49858,Menominee County,MI,NA,NA,48.484848484848484
55006,Isanti County,MN,95.5862977602108,NA,NA
55016,Washington County,MN,NA,40.00944733112895,NA
55021,Rice County,MN,NA,50.68493150684932,NA
55033,Dakota County,MN,17.061923583662715,NA,NA
55038,Washington County,MN,NA,81.38875767595654,NA
55056,Chisago County,MN,NA,63.43882853094001,NA
55060,Steele County,MN,47.56258234519104,17.052432687765705,NA
55076,Dakota County,MN,39.52569169960474,NA,NA
55104,Ramsey County,MN,70.7509881422925,NA,NA
55109,Ramsey County,MN,NA,16.24940954180444,NA
55110,Ramsey County,MN,NA,21.020311761927253,NA
55118,Dakota County,MN,NA,67.26499763816722,70.23809523809523
55119,Ramsey County,MN,40.909090909090914,NA,NA
55124,Dakota County,MN,NA,NA,34.41558441558442
55125,Washington County,MN,63.83399209486166,NA,26.83982683982684
55126,Ramsey County,MN,40.250329380764164,NA,45.67099567099567
55127,Ramsey County,MN,78.45849802371542,NA,NA
55128,Washington County,MN,NA,34.52999527633443,NA
55305,Hennepin County,MN,76.81159420289855,NA,NA
55320,Wright County,MN,NA,78.41284837033538,NA
55330,Sherburne County,MN,NA,22.72083136513935,NA
55331,Hennepin County,MN,68.9064558629776,NA,NA
55337,Dakota County,MN,67.98418972332016,NA,20.238095238095237
55343,Hennepin County,MN,NA,22.81530467642891,NA
55344,Hennepin County,MN,NA,75.76759565422768,NA
55347,Hennepin County,MN,67.98418972332016,NA,NA
55376,Wright County,MN,92.95125164690383,NA,NA
55379,Scott County,MN,NA,82.90033065658952,NA
55406,Hennepin County,MN,NA,15.824279641001418,NA
55408,Hennepin County,MN,NA,23.807274444969295,NA
55417,Hennepin County,MN,NA,90.55266887104393,NA
55419,Hennepin County,MN,74.83530961791831,NA,NA
55420,Hennepin County,MN,NA,63.34435521965045,NA
55421,Anoka County,MN,10.079051383399209,27.869626830420408,NA
55423,Hennepin County,MN,48.22134387351779,NA,24.134199134199132
55424,Hennepin County,MN,NA,94.75673122342938,NA
55429,Hennepin County,MN,64.09749670619236,NA,NA
55433,Anoka County,MN,NA,NA,30.1948051948052
55434,Anoka County,MN,NA,NA,87.66233766233766
55435,Hennepin County,MN,81.3570487483531,NA,NA
55441,Hennepin County,MN,NA,NA,58.11688311688312
55442,Hennepin County,MN,57.44400527009223,86.72649976381672,NA
55444,Hennepin County,MN,NA,89.13556920170052,NA
55447,Hennepin County,MN,NA,92.63108171941427,NA
55448,Anoka County,MN,24.242424242424242,NA,NA
55734,St. Louis County,MN,NA,NA,49.134199134199136
55744,Itasca County,MN,NA,3.6844591402928675,21.1038961038961
55807,St. Louis County,MN,NA,34.24657534246575,NA
55901,Olmsted County,MN,NA,NA,32.900432900432904
55912,Mower County,MN,NA,1.7005196032120924,NA
55976,Olmsted County,MN,NA,72.50826641473783,NA
55987,Winona County,MN,NA,1.1809163911195086,NA
56007,Freeborn County,MN,54.08432147562582,NA,NA
56031,Martin County,MN,NA,NA,87.12121212121212
56044,Sibley County,MN,NA,99.48039678790742,NA
56069,Le Sueur County,MN,92.02898550724638,NA,NA
56150,Jackson County,MN,99.86824769433466,NA,NA
56172,Murray County,MN,NA,94.23712801133681,NA
56220,Yellow Medicine County,MN,96.1133069828722,NA,NA
56265,Chippewa County,MN,NA,79.97165800661314,NA
56301,Stearns County,MN,26.679841897233203,NA,NA
56303,Stearns County,MN,17.523056653491437,NA,NA
56308,Douglas County,MN,NA,6.9910250354274925,NA
56320,Stearns County,MN,95.52042160737813,NA,NA
56353,Mille Lacs County,MN,NA,NA,93.18181818181817
56374,Stearns County,MN,NA,91.26121870571563,NA
56377,Stearns County,MN,82.6086956521739,NA,NA
56378,Stearns County,MN,NA,91.63911195087387,47.18614718614719
56387,Stearns County,MN,NA,NA,62.01298701298701
56401,Crow Wing County,MN,NA,NA,34.74025974025974
56431,Aitkin County,MN,NA,23.948984411903638,92.74891774891775
56464,Wadena County,MN,NA,72.74444969296174,NA
56470,Hubbard County,MN,45.8498023715415,NA,NA
56482,Wadena County,MN,NA,35.852621634388285,24.025974025974026
56501,Becker County,MN,NA,41.00141709966935,NA
56511,Becker County,MN,NA,99.81105337742088,NA
56540,Polk County,MN,NA,97.8271138403401,NA
56573,Otter Tail County,MN,41.23847167325428,NA,NA
56636,Itasca County,MN,NA,49.74019839395371,NA
56649,Koochiching County,MN,NA,36.65564478034955,NA
56701,Pennington County,MN,9.22266139657444,NA,NA
56751,Roseau County,MN,NA,99.90552668871044,NA
38635,Marshall County,MS,52.37154150197628,82.09730751062824,NA
38637,DeSoto County,MS,NA,NA,94.6969696969697
38655,Lafayette County,MS,NA,45.6778460085026,NA
38676,Tunica County,MS,NA,95.46528105810108,NA
38824,Prentiss County,MS,NA,NA,58.76623376623377
38829,Prentiss County,MS,54.9407114624506,NA,NA
38834,Alcorn County,MS,NA,65.84789796882382,NA
39042,Rankin County,MS,NA,43.646669815777045,NA
39046,Madison County,MS,NA,73.26405290505433,NA
39051,Leake County,MS,NA,40.34010392064242,NA
39056,Hinds County,MS,92.4901185770751,NA,NA
39059,Copiah County,MS,NA,63.2026452527161,NA
39074,Scott County,MS,48.484848484848484,NA,NA
39110,Madison County,MS,NA,39.53708077468116,75
39114,Simpson County,MS,NA,72.88615965989608,NA
39145,Rankin County,MS,NA,89.70240906943788,NA
39157,Madison County,MS,45.3227931488801,NA,NA
39168,Smith County,MS,NA,83.23098724610297,NA
39183,Warren County,MS,66.0737812911726,NA,NA
39305,Lauderdale County,MS,NA,33.77420878601795,NA
39426,Pearl River County,MS,NA,65.94237128011336,NA
39429,Marion County,MS,NA,NA,47.72727272727273
39439,Jasper County,MS,75.03293807641633,NA,87.22943722943724
39443,Jones County,MS,NA,90.41095890410958,NA
39452,George County,MS,NA,37.364194615021255,NA
39465,Forrest County,MS,48.418972332015805,NA,NA
39466,Pearl River County,MS,NA,NA,12.987012987012985
39501,Harrison County,MS,8.959156785243742,NA,NA
39503,Harrison County,MS,NA,1.653282947567312,NA
39520,Hancock County,MS,NA,94.18989135569201,NA
39532,Harrison County,MS,NA,34.01039206424185,NA
39553,Jackson County,MS,53.16205533596838,84.45914029286726,NA
39560,Harrison County,MS,37.15415019762846,NA,NA
39564,Jackson County,MS,NA,NA,50
39581,Jackson County,MS,NA,95.27633443552197,NA
39601,Lincoln County,MS,NA,25.743977326405293,27.48917748917749
39641,Walthall County,MS,NA,NA,99.78354978354979
39652,Pike County,MS,NA,57.62871988663203,NA
39702,Lowndes County,MS,21.34387351778656,NA,NA
39730,Monroe County,MS,NA,NA,45.45454545454545
63011,St. Louis County,MO,NA,32.829475673122346,NA
63012,Jefferson County,MO,NA,65.94237128011336,NA
63016,Jefferson County,MO,NA,68.06802078412848,NA
63021,St. Louis County,MO,NA,71.3745866792631,NA
63026,St. Louis County,MO,NA,26.310817194142654,NA
63028,Jefferson County,MO,NA,12.990080302314597,32.142857142857146
63031,St. Louis County,MO,30.89591567852437,NA,4.329004329004329
63042,St. Louis County,MO,NA,21.823334907888523,NA
63051,Jefferson County,MO,NA,45.53613604156826,NA
63069,Franklin County,MO,75.75757575757575,39.01747756258857,NA
63105,St. Louis County,MO,NA,77.98771846953235,NA
63107,St. Louis city,MO,78.12911725955203,NA,NA
63109,St. Louis city,MO,NA,84.45914029286726,NA
63110,St. Louis city,MO,NA,NA,57.03463203463204
63113,St. Louis city,MO,NA,47.047709022201225,NA
63114,St. Louis County,MO,13.043478260869565,16.816249409541804,NA
63118,St. Louis city,MO,NA,NA,67.31601731601732
63120,St. Louis city,MO,42.42424242424242,NA,NA
63122,St. Louis County,MO,NA,13.60415682569674,NA
63123,St. Louis County,MO,21.080368906455863,NA,NA
63124,St. Louis County,MO,NA,56.06991025035427,NA
63126,St. Louis County,MO,NA,NA,63.961038961038966
63128,St. Louis County,MO,51.25164690382081,NA,NA
63129,St. Louis County,MO,NA,35.61643835616438,NA
63133,St. Louis County,MO,NA,NA,95.12987012987013
63136,St. Louis County,MO,3.9525691699604746,5.573925366084081,22.4025974025974
63137,St. Louis County,MO,NA,24.799244213509684,NA
63139,St. Louis city,MO,NA,NA,91.23376623376623
63143,St. Louis County,MO,NA,78.3656117146906,NA
63147,St. Louis city,MO,62.1870882740448,NA,NA
63301,St. Charles County,MO,NA,1.36986301369863,NA
63303,St. Charles County,MO,35.77075098814229,NA,4.653679653679654
63362,Lincoln County,MO,86.69301712779973,NA,NA
63383,Warren County,MO,NA,NA,61.79653679653679
63385,St. Charles County,MO,NA,7.274444969296173,NA
63401,Marion County,MO,NA,NA,59.74025974025974
63552,Macon County,MO,58.43214756258235,NA,NA
63601,St. Francois County,MO,NA,62.210675484175724,NA
63640,St. Francois County,MO,63.306982872200265,NA,NA
63645,Madison County,MO,NA,NA,39.71861471861472
63650,Iron County,MO,NA,76.57061880018895,NA
63670,Ste. Genevieve County,MO,37.94466403162055,NA,NA
63701,Cape Girardeau County,MO,NA,22.012281530467643,NA
63703,Cape Girardeau County,MO,NA,50.7321681624941,NA
63764,Bollinger County,MO,NA,NA,79.97835497835499
63801,Scott County,MO,NA,42.13509683514407,NA
63901,Butler County,MO,NA,71.09116674539443,NA
64015,Jackson County,MO,6.455862977602108,88.75767595654229,31.060606060606062
64016,Jackson County,MO,91.76548089591567,NA,NA
64024,Clay County,MO,NA,20.02834199338687,NA
64029,Jackson County,MO,22.59552042160738,NA,NA
64034,Jackson County,MO,NA,88.09636277751535,NA
64050,Jackson County,MO,7.575757575757576,NA,NA
64060,Clay County,MO,97.62845849802372,43.5049598488427,NA
64062,Ray County,MO,98.28722002635047,NA,NA
64064,Jackson County,MO,32.93807641633729,83.46717052432687,NA
64068,Clay County,MO,NA,34.81341521020312,NA
64079,Platte County,MO,73.18840579710145,85.73452999527633,NA
64082,Jackson County,MO,NA,74.87009919697685,NA
64083,Cass County,MO,NA,NA,65.5844155844156
64111,Jackson County,MO,88.73517786561264,NA,NA
64112,Jackson County,MO,93.67588932806325,NA,NA
64113,Jackson County,MO,NA,42.93811998110534,NA
64114,Jackson County,MO,81.94993412384717,51.91308455361361,NA
64116,Clay County,MO,90.71146245059289,NA,NA
64118,Clay County,MO,12.714097496706191,19.839395370807747,NA
64123,Jackson County,MO,26.021080368906457,NA,NA
64124,Jackson County,MO,NA,68.4931506849315,NA
64127,Jackson County,MO,3.0961791831357046,NA,NA
64130,Jackson County,MO,15.678524374176547,51.53519130845537,NA
64131,Jackson County,MO,65.81027667984189,NA,NA
64133,Jackson County,MO,NA,2.172886159659896,NA
64137,Jackson County,MO,52.96442687747036,NA,NA
64152,Platte County,MO,9.156785243741766,76.9012753897024,NA
64154,Platte County,MO,73.51778656126481,95.9376476145489,NA
64155,Clay County,MO,11.528326745718049,94.66225791213982,NA
64156,Clay County,MO,92.7536231884058,NA,NA
64454,Clinton County,MO,94.92753623188406,NA,NA
64468,Nodaway County,MO,43.67588932806324,NA,NA
64469,DeKalb County,MO,99.4729907773386,NA,NA
64506,Buchanan County,MO,NA,3.7789324515824276,NA
64507,Buchanan County,MO,38.3399209486166,NA,NA
64601,Livingston County,MO,83.399209486166,NA,NA
64701,Cass County,MO,26.21870882740448,NA,NA
64747,Cass County,MO,NA,92.0642418516769,NA
64759,Barton County,MO,NA,NA,57.7922077922078
64801,Jasper County,MO,25.428194993412383,NA,NA
64804,Jasper County,MO,NA,21.44544166273028,97.83549783549783
64836,Jasper County,MO,31.554677206851117,NA,NA
65018,Moniteau County,MO,NA,99.71658006613133,NA
65020,Camden County,MO,NA,46.90599905526689,68.29004329004329
65079,Camden County,MO,NA,72.3665564478035,NA
65201,Boone County,MO,NA,NA,38.63636363636363
65233,Cooper County,MO,NA,NA,58.98268398268398
65301,Pettis County,MO,NA,4.629192253188474,NA
65336,Johnson County,MO,NA,99.7638167217761,NA
65355,Benton County,MO,81.88405797101449,NA,NA
65401,Phelps County,MO,NA,83.656117146906,NA
65605,Lawrence County,MO,NA,78.27113840340104,NA
65625,Barry County,MO,NA,NA,58.549783549783555
65686,Stone County,MO,NA,89.98582900330656,NA
65689,Texas County,MO,NA,82.2390174775626,NA
65721,Christian County,MO,NA,41.52102031176192,NA
65807,Greene County,MO,NA,NA,4.220779220779221
59102,Yellowstone County,MT,NA,73.64194615021256,NA
59405,Cascade County,MT,15.942028985507244,NA,NA
59427,Glacier County,MT,NA,98.86632026452527,NA
59601,Lewis and Clark County,MT,NA,NA,14.826839826839826
59701,Silver Bow County,MT,NA,21.256495040151158,NA
59715,Gallatin County,MT,NA,47.33112895606991,NA
59718,Gallatin County,MT,46.44268774703557,NA,NA
59741,Gallatin County,MT,82.93807641633728,NA,NA
59801,Missoula County,MT,NA,NA,88.31168831168831
59847,Missoula County,MT,NA,83.79782711384034,NA
59901,Flathead County,MT,17.72068511198946,NA,0.4329004329004329
59911,Flathead County,MT,92.88537549407114,39.11195087387813,NA
59912,Flathead County,MT,72.00263504611331,NA,NA
59923,Lincoln County,MT,NA,NA,72.94372294372295
59937,Flathead County,MT,NA,85.16769012753898,94.37229437229438
68107,Douglas County,NE,NA,62.683042040623526,51.62337662337663
68111,Douglas County,NE,NA,71.51629664619745,NA
68114,Douglas County,NE,57.31225296442688,NA,NA
68116,Douglas County,NE,NA,65.65895134624469,NA
68117,Douglas County,NE,76.02108036890645,NA,NA
68122,Douglas County,NE,NA,93.33963155408597,NA
68131,Douglas County,NE,NA,NA,98.59307359307358
68132,Douglas County,NE,NA,NA,95.02164502164501
68134,Douglas County,NE,NA,63.58053849787435,NA
68135,Douglas County,NE,49.143610013175234,NA,NA
68138,Sarpy County,NE,NA,74.35049598488426,NA
68144,Douglas County,NE,68.6429512516469,NA,NA
68147,Sarpy County,NE,85.37549407114624,87.05715635333019,NA
68154,Douglas County,NE,NA,29.617383089277276,NA
68502,Lancaster County,NE,48.08959156785244,NA,NA
68506,Lancaster County,NE,NA,56.87293339631554,NA
68845,Buffalo County,NE,63.109354413702235,NA,NA
68901,Adams County,NE,NA,25.31884742560227,NA
69153,Keith County,NE,NA,83.04204062352385,NA
89110,Clark County,NV,9.683794466403162,NA,NA
89129,Clark County,NV,NA,22.390174775625884,NA
89138,Clark County,NV,85.63899868247694,77.6570618800189,NA
89141,Clark County,NV,55.92885375494071,NA,NA
89147,Clark County,NV,24.176548089591567,NA,NA
89403,Lyon County,NV,NA,21.72886159659896,NA
89406,Churchill County,NV,NA,43.74114312706661,NA
89431,Washoe County,NV,NA,NA,18.398268398268396
89433,Washoe County,NV,NA,37.93103448275862,NA
89436,Washoe County,NV,NA,6.80207841284837,NA
89509,Washoe County,NV,NA,25.460557392536607,NA
89512,Washoe County,NV,NA,55.314123760037795,NA
89523,Washoe County,NV,33.926218708827406,NA,NA
89815,Elko County,NV,NA,NA,95.77922077922078
03031,Hillsborough County,NH,56.258234519104086,43.78837978271138,NA
03051,Hillsborough County,NH,35.507246376811594,NA,NA
03053,Rockingham County,NH,NA,38.63958431743033,NA
03054,Hillsborough County,NH,67.12779973649539,NA,NA
03055,Hillsborough County,NH,NA,NA,30.41125541125541
03060,Hillsborough County,NH,3.4255599472990776,6.376948512045347,NA
03079,Rockingham County,NH,NA,68.2569674067076,NA
03103,Hillsborough County,NH,2.898550724637681,NA,NA
03104,Hillsborough County,NH,NA,7.557864903164855,NA
03446,Cheshire County,NH,NA,NA,47.72727272727273
03561,Grafton County,NH,NA,88.85214926783183,NA
03801,Rockingham County,NH,NA,75.53141237600379,66.55844155844156
03824,Strafford County,NH,NA,61.92725555030704,66.88311688311688
03835,Strafford County,NH,NA,NA,70.995670995671
03842,Rockingham County,NH,49.077733860342555,NA,NA
03848,Rockingham County,NH,72.66139657444005,NA,NA
03867,Strafford County,NH,60.408432147562586,57.06188001889466,93.72294372294373
03868,Strafford County,NH,NA,99.38592347661785,NA
03870,Rockingham County,NH,NA,66.88710439300898,NA
03878,Strafford County,NH,NA,46.10297590930562,NA
03884,Strafford County,NH,100,NA,NA
07003,Essex County,NJ,NA,15.540859707132734,NA
07006,Essex County,NJ,81.22529644268775,NA,NA
07010,Bergen County,NJ,NA,67.45394426074634,62.77056277056276
07016,Union County,NJ,NA,25.177137458667925,NA
07020,Bergen County,NJ,64.75625823451911,NA,NA
07024,Bergen County,NJ,NA,NA,29.978354978354975
07027,Union County,NJ,NA,NA,84.63203463203463
07032,Hudson County,NJ,94.86166007905138,70.14643363249881,NA
07034,Morris County,NJ,53.49143610013175,NA,NA
07036,Union County,NJ,NA,NA,82.14285714285714
07039,Essex County,NJ,NA,NA,74.67532467532467
07043,Essex County,NJ,96.31093544137023,NA,NA
07054,Morris County,NJ,NA,18.7529522909778,NA
07055,Passaic County,NJ,NA,1.228153046764289,NA
07057,Bergen County,NJ,NA,82.42796410014172,NA
07059,Somerset County,NJ,99.01185770750988,NA,NA
07079,Essex County,NJ,NA,98.11053377420879,NA
07081,Union County,NJ,NA,97.44922059518186,50.86580086580087
07087,Hudson County,NJ,NA,NA,21.536796536796537
07090,Union County,NJ,NA,44.21350968351441,NA
07093,Hudson County,NJ,70.35573122529645,NA,3.896103896103896
07103,Essex County,NJ,NA,75.10628247520076,NA
07104,Essex County,NJ,NA,NA,62.44588744588745
07106,Essex County,NJ,77.14097496706192,NA,NA
07109,Essex County,NJ,7.04874835309618,NA,NA
07111,Essex County,NJ,0.461133069828722,NA,14.177489177489178
07112,Essex County,NJ,1.6469038208168645,NA,NA
07305,Hudson County,NJ,NA,75.34246575342466,NA
07307,Hudson County,NJ,22.002635046113305,NA,NA
07410,Bergen County,NJ,NA,14.73783656117147,NA
07417,Bergen County,NJ,NA,98.81908360888049,NA
07430,Bergen County,NJ,44.26877470355731,NA,NA
07452,Bergen County,NJ,NA,96.59896079357581,NA
07456,Passaic County,NJ,NA,92.44213509683514,NA
07461,Sussex County,NJ,NA,38.82853094000945,NA
07480,Passaic County,NJ,37.02239789196311,NA,NA
07506,Passaic County,NJ,NA,36.89182805857345,NA
07522,Passaic County,NJ,2.30566534914361,NA,NA
07601,Bergen County,NJ,3.1620553359683794,3.164855928200284,10.38961038961039
07631,Bergen County,NJ,NA,12.895606991025035,NA
07642,Bergen County,NJ,NA,NA,98.48484848484848
07652,Bergen County,NJ,NA,NA,6.70995670995671
07666,Bergen County,NJ,NA,66.69815777042986,NA
07670,Bergen County,NJ,97.69433465085639,NA,46.42857142857143
07701,Monmouth County,NJ,NA,19.461502125649506,NA
07712,Monmouth County,NJ,1.4492753623188406,3.0231459612659424,NA
07724,Monmouth County,NJ,54.54545454545454,47.42560226735947,NA
07728,Monmouth County,NJ,NA,86.63202645252717,NA
07738,Monmouth County,NJ,NA,100,NA
07740,Monmouth County,NJ,NA,3.8261691072272086,NA
07746,Monmouth County,NJ,56.7193675889328,NA,NA
07755,Monmouth County,NJ,NA,NA,74.02597402597402
07760,Monmouth County,NJ,75.75757575757575,NA,NA
07825,Warren County,NJ,NA,74.77562588568729,NA
07836,Morris County,NJ,99.53886693017128,NA,NA
07840,Warren County,NJ,19.367588932806324,NA,NA
07857,Morris County,NJ,96.37681159420289,NA,NA
07863,Warren County,NJ,89.59156785243742,NA,NA
07866,Morris County,NJ,NA,24.988190836088805,NA
07869,Morris County,NJ,NA,NA,85.28138528138528
07871,Sussex County,NJ,NA,NA,69.26406926406926
07920,Somerset County,NJ,NA,96.45725082664147,NA
07921,Somerset County,NJ,71.27799736495388,NA,NA
07936,Morris County,NJ,70.88274044795784,62.39962210675484,NA
07950,Morris County,NJ,NA,51.771374586679265,66.66666666666666
07974,Union County,NJ,NA,90.45819555975437,NA
08003,Camden County,NJ,NA,22.67359470949457,42.099567099567096
08020,Gloucester County,NJ,95.0592885375494,NA,NA
08028,Gloucester County,NJ,8.695652173913043,NA,NA
08031,Camden County,NJ,50.19762845849802,NA,NA
08033,Camden County,NJ,NA,NA,50.43290043290043
08037,Atlantic County,NJ,NA,NA,14.71861471861472
08046,Burlington County,NJ,3.227931488801054,NA,NA
08054,Burlington County,NJ,NA,7.794048181388757,NA
08057,Burlington County,NJ,NA,34.671705243268775,44.15584415584416
08060,Burlington County,NJ,NA,96.69343410486537,NA
08081,Camden County,NJ,NA,4.251299008030231,NA
08083,Camden County,NJ,NA,49.88190836088805,NA
08096,Gloucester County,NJ,NA,NA,10.497835497835498
08105,Camden County,NJ,0.5270092226613966,6.707605101558809,NA
08107,Camden County,NJ,NA,80.86915446386396,NA
08108,Camden County,NJ,NA,34.57723193197921,75.64935064935064
08201,Atlantic County,NJ,35.046113306982875,NA,NA
08234,Atlantic County,NJ,92.42424242424242,NA,NA
08260,Cape May County,NJ,NA,NA,46.86147186147186
08302,Cumberland County,NJ,NA,5.715635333018422,NA
08505,Burlington County,NJ,NA,86.86820973075106,48.701298701298704
08540,Mercer County,NJ,21.541501976284586,NA,NA
08550,Mercer County,NJ,90.77733860342556,NA,NA
08648,Mercer County,NJ,NA,21.823334907888523,NA
08723,Ocean County,NJ,NA,12.281530467642892,NA
08724,Ocean County,NJ,19.696969696969695,30.845536136041567,NA
08753,Ocean County,NJ,NA,95.65422768068021,NA
08755,Ocean County,NJ,NA,10.581010864430798,NA
08758,Ocean County,NJ,NA,48.18138875767596,NA
08817,Middlesex County,NJ,NA,12.376003778932452,NA
08827,Hunterdon County,NJ,NA,80.06613131790269,NA
08830,Middlesex County,NJ,NA,43.78837978271138,NA
08831,Middlesex County,NJ,NA,21.587151629664618,NA
08846,Middlesex County,NJ,69.76284584980237,NA,NA
08850,Middlesex County,NJ,85.5072463768116,NA,NA
08861,Middlesex County,NJ,37.351778656126484,NA,NA
08865,Warren County,NJ,NA,5.621162021728861,NA
08869,Somerset County,NJ,50.856389986824766,NA,NA
08873,Somerset County,NJ,NA,NA,12.770562770562771
08882,Middlesex County,NJ,NA,NA,64.71861471861472
87043,Sandoval County,NM,NA,NA,78.13852813852814
87106,Bernalillo County,NM,10.474308300395258,NA,NA
87107,Bernalillo County,NM,NA,95.79593764761455,NA
87110,Bernalillo County,NM,5.994729907773387,NA,NA
87112,Bernalillo County,NM,NA,22.437411431270665,NA
87121,Bernalillo County,NM,1.9762845849802373,NA,49.02597402597403
87401,San Juan County,NM,8.300395256916996,NA,NA
87505,Santa Fe County,NM,NA,66.65092111478508,NA
88005,Doa Ana County,NM,NA,NA,35.4978354978355
88061,Grant County,NM,NA,80.16060462919225,NA
88101,Curry County,NM,81.75230566534914,82.85309400094474,NA
88240,Lea County,NM,NA,61.029759093056214,NA
88260,Lea County,NM,NA,73.68918280585734,NA
88310,Otero County,NM,NA,1.9839395370807749,NA
10002,New York County,NY,NA,11.620217288615967,82.57575757575758
10003,New York County,NY,NA,99.10250354274918,12.554112554112553
10010,New York County,NY,NA,36.60840812470477,NA
10011,New York County,NY,NA,32.92394898441191,94.48051948051948
10014,New York County,NY,93.14888010540184,NA,NA
10017,New York County,NY,99.34123847167325,NA,NA
10021,New York County,NY,NA,14.596126594237127,79.22077922077922
10022,New York County,NY,NA,86.96268304204062,NA
10023,New York County,NY,NA,91.3556920170052,NA
10024,New York County,NY,88.99868247694334,NA,NA
10025,New York County,NY,13.636363636363635,85.92347661785546,NA
10029,New York County,NY,0.1976284584980237,62.30514879546528,NA
10030,New York County,NY,NA,57.81766650921115,NA
10032,New York County,NY,NA,NA,2.922077922077922
10035,New York County,NY,NA,20.831365139348136,NA
10039,New York County,NY,17.25955204216074,NA,NA
10040,New York County,NY,NA,68.68209730751063,NA
10044,New York County,NY,98.88010540184453,NA,NA
10065,New York County,NY,69.10408432147563,96.92961738308927,30.627705627705627
10301,Richmond County,NY,28.39262187088274,42.37128011336797,NA
10303,Richmond County,NY,93.8076416337286,NA,NA
10306,Richmond County,NY,32.21343873517787,8.880491261218705,NA
10310,Richmond County,NY,NA,23.523854511100613,NA
10314,Richmond County,NY,68.31357048748353,27.538970240906945,3.787878787878788
10451,Bronx County,NY,84.98023715415019,NA,NA
10452,Bronx County,NY,NA,4.440245630609352,NA
10462,Bronx County,NY,NA,62.82475200755786,NA
10463,Bronx County,NY,NA,NA,1.2987012987012987
10465,Bronx County,NY,65.54677206851119,21.49267831837506,NA
10466,Bronx County,NY,NA,42.27680680207841,NA
10468,Bronx County,NY,NA,95.60699102503543,NA
10469,Bronx County,NY,NA,19.13084553613604,NA
10470,Bronx County,NY,33.72859025032938,NA,58.98268398268398
10472,Bronx County,NY,NA,0.6140765233821445,NA
10475,Bronx County,NY,12.582345191040844,NA,NA
10528,Westchester County,NY,76.4163372859025,NA,NA
10547,Westchester County,NY,74.76943346508564,NA,NA
10552,Westchester County,NY,NA,NA,55.41125541125541
10598,Westchester County,NY,NA,96.83514407179972,NA
10601,Westchester County,NY,65.61264822134387,94.80396787907416,NA
10603,Westchester County,NY,89.32806324110672,NA,NA
10701,Westchester County,NY,NA,1.7477562588568731,NA
10705,Westchester County,NY,54.479578392621875,NA,20.454545454545457
10708,Westchester County,NY,NA,60.69910250354275,NA
10801,Westchester County,NY,NA,45.4416627302787,NA
10901,Rockland County,NY,NA,69.76854038734058,NA
10920,Rockland County,NY,NA,96.8823807274445,NA
10954,Rockland County,NY,95.45454545454545,NA,NA
10965,Rockland County,NY,96.70619235836627,NA,NA
10989,Rockland County,NY,NA,90.78885214926783,NA
10992,Orange County,NY,NA,73.02786962683042,NA
11030,Nassau County,NY,NA,98.96079357581483,NA
11102,Queens County,NY,54.80895915678524,NA,NA
11105,Queens County,NY,NA,60.651865847897966,NA
11201,Kings County,NY,NA,11.289560699102504,NA
11204,Kings County,NY,NA,NA,23.593073593073594
11206,Kings County,NY,NA,0.33065658951346244,NA
11207,Kings County,NY,2.2397891963109355,0.23618327822390173,NA
11209,Kings County,NY,NA,NA,8.116883116883116
11212,Kings County,NY,NA,85.97071327350024,4.112554112554113
11214,Kings County,NY,NA,24.752007557864903,4.870129870129871
11217,Kings County,NY,49.7364953886693,NA,NA
11218,Kings County,NY,NA,NA,87.44588744588745
11219,Kings County,NY,NA,10.8171941426547,7.900432900432901
11220,Kings County,NY,NA,2.1256495040151155,NA
11223,Kings County,NY,10.079051383399209,NA,76.08225108225109
11224,Kings County,NY,NA,NA,37.98701298701299
11225,Kings County,NY,NA,82.80585734529996,52.27272727272727
11228,Kings County,NY,NA,NA,36.25541125541126
11229,Kings County,NY,NA,NA,73.16017316017316
11230,Kings County,NY,NA,5.243268776570618,NA
11233,Kings County,NY,NA,NA,27.81385281385281
11234,Kings County,NY,33.00395256916996,72.1303731695796,9.956709956709958
11235,Kings County,NY,NA,NA,93.07359307359307
11238,Kings County,NY,NA,7.7468115257439765,NA
11354,Queens County,NY,97.82608695652173,NA,NA
11355,Queens County,NY,14.69038208168643,NA,NA
11364,Queens County,NY,75.36231884057972,NA,NA
11367,Queens County,NY,75.09881422924902,27.869626830420408,NA
11370,Queens County,NY,NA,NA,45.77922077922078
11373,Queens County,NY,73.64953886693017,NA,59.74025974025974
11374,Queens County,NY,47.03557312252965,NA,NA
11375,Queens County,NY,NA,16.769012753897027,76.94805194805194
11378,Queens County,NY,NA,NA,97.2943722943723
11379,Queens County,NY,NA,38.11998110533774,NA
11385,Queens County,NY,NA,6.140765233821446,NA
11411,Queens County,NY,88.40579710144928,NA,NA
11423,Queens County,NY,NA,26.499763816721778,NA
11426,Queens County,NY,NA,94.28436466698157,NA
11435,Queens County,NY,5.665349143610013,NA,NA
11542,Nassau County,NY,39.920948616600796,NA,NA
11552,Nassau County,NY,NA,51.62966461974492,NA
11554,Nassau County,NY,NA,80.63297118564006,46.21212121212121
11575,Nassau County,NY,19.76284584980237,NA,NA
11581,Nassau County,NY,NA,67.69012753897024,NA
11692,Queens County,NY,81.02766798418972,NA,NA
11706,Suffolk County,NY,50,NA,11.580086580086581
11710,Nassau County,NY,NA,99.5276334435522,NA
11725,Suffolk County,NY,NA,69.62683042040624,NA
11726,Suffolk County,NY,NA,90.8833254605574,NA
11727,Suffolk County,NY,97.89196310935442,59.70713273500237,NA
11729,Suffolk County,NY,NA,39.82050070854983,76.19047619047619
11741,Suffolk County,NY,50.65876152832674,44.21350968351441,NA
11743,Suffolk County,NY,NA,96.31554085970713,NA
11746,Suffolk County,NY,NA,NA,91.77489177489177
11747,Suffolk County,NY,86.62714097496706,NA,NA
11754,Suffolk County,NY,NA,61.785545583372695,NA
11756,Nassau County,NY,NA,71.75247992442135,NA
11772,Suffolk County,NY,NA,55.266887104393014,NA
11776,Suffolk County,NY,NA,35.0968351440718,NA
11783,Nassau County,NY,88.53754940711462,NA,NA
11788,Suffolk County,NY,NA,92.72555503070382,NA
11789,Suffolk County,NY,NA,NA,79.87012987012987
11793,Nassau County,NY,95.65217391304348,NA,NA
11937,Suffolk County,NY,NA,NA,84.84848484848484
11961,Suffolk County,NY,NA,NA,55.3030303030303
12019,Saratoga County,NY,NA,NA,53.03030303030303
12095,Fulton County,NY,NA,17.949929145016533,NA
12144,Rensselaer County,NY,23.517786561264824,NA,NA
12180,Rensselaer County,NY,41.9631093544137,NA,NA
12183,Albany County,NY,NA,99.0552668871044,NA
12203,Albany County,NY,NA,51.58242796410014,NA
12205,Albany County,NY,NA,24.893717524799243,NA
12211,Albany County,NY,NA,94.52054794520548,NA
12302,Schenectady County,NY,90.51383399209486,NA,NA
12401,Ulster County,NY,10.013175230566535,NA,NA
12414,Greene County,NY,NA,20.925838450637695,NA
12508,Dutchess County,NY,NA,82.56967406707605,NA
12553,Orange County,NY,NA,70.47709022201228,NA
12564,Dutchess County,NY,NA,NA,99.89177489177489
12701,Sullivan County,NY,27.33860342555995,NA,NA
12803,Saratoga County,NY,NA,86.34860651865847,NA
12804,Warren County,NY,NA,70.85498346717053,NA
12832,Washington County,NY,NA,97.54369390647142,NA
12835,Saratoga County,NY,NA,99.2914501653283,NA
12839,Washington County,NY,NA,29.050543221539915,NA
12866,Saratoga County,NY,NA,NA,5.51948051948052
12887,Washington County,NY,NA,64.99763816721776,NA
12901,Clinton County,NY,NA,2.5980160604629194,NA
12946,Essex County,NY,89.45981554677206,NA,NA
12953,Franklin County,NY,NA,NA,16.233766233766232
12983,Franklin County,NY,90.25032938076416,NA,NA
13033,Cayuga County,NY,NA,92.82002834199339,NA
13041,Onondaga County,NY,47.82608695652174,NA,NA
13057,Onondaga County,NY,30.698287220026348,NA,NA
13066,Onondaga County,NY,NA,33.160132262635805,NA
13069,Oswego County,NY,NA,NA,33.44155844155844
13073,Tompkins County,NY,NA,45.25271610769958,NA
13104,Onondaga County,NY,NA,26.59423712801134,NA
13126,Oswego County,NY,9.420289855072465,NA,NA
13135,Oswego County,NY,87.8129117259552,NA,NA
13148,Seneca County,NY,87.48353096179183,43.45772319319792,NA
13166,Cayuga County,NY,58.76152832674572,NA,NA
13205,Onondaga County,NY,25.230566534914363,NA,NA
13210,Onondaga County,NY,20.223978919631094,NA,67.74891774891775
13215,Onondaga County,NY,NA,59.518186112423244,NA
13224,Onondaga County,NY,NA,57.39253660840813,NA
13308,Oneida County,NY,NA,82.61691072272083,NA
13323,Oneida County,NY,46.57444005270092,98.34671705243268,NA
13326,Otsego County,NY,96.44268774703558,NA,NA
13340,Herkimer County,NY,NA,70.80774681152575,NA
13413,Oneida County,NY,30.039525691699602,69.24893717524799,NA
13421,Madison County,NY,36.231884057971016,NA,NA
13461,Oneida County,NY,73.78129117259552,NA,NA
13492,Oneida County,NY,NA,30.089749645725085,NA
13601,Jefferson County,NY,NA,32.78223901747756,10.606060606060606
13646,St. Lawrence County,NY,95.32279314888011,NA,NA
13662,St. Lawrence County,NY,NA,8.644307982994803,NA
13746,Broome County,NY,93.21475625823452,NA,NA
13811,Tioga County,NY,NA,76.75956542276808,NA
13815,Chenango County,NY,NA,28.43646669815777,NA
13850,Broome County,NY,7.7733860342556,NA,NA
13856,Delaware County,NY,NA,20.21728861596599,NA
13862,Broome County,NY,70.42160737812911,NA,NA
13865,Broome County,NY,NA,46.00850259801606,NA
13901,Broome County,NY,NA,1.7949929145016534,NA
14006,Erie County,NY,NA,76.80680207841284,NA
14020,Genesee County,NY,NA,44.827586206896555,NA
14031,Erie County,NY,NA,51.11006140765234,NA
14043,Erie County,NY,43.47826086956522,97.40198393953709,NA
14052,Erie County,NY,NA,33.63249881908361,NA
14057,Erie County,NY,57.11462450592886,NA,NA
14063,Chautauqua County,NY,NA,28.861596598960794,NA
14075,Erie County,NY,4.6772068511198945,66.13131790269249,NA
14094,Niagara County,NY,91.9631093544137,NA,NA
14105,Niagara County,NY,NA,62.06896551724138,NA
14120,Niagara County,NY,2.1080368906455864,3.4955125177137463,16.125541125541126
14127,Erie County,NY,7.378129117259552,NA,NA
14150,Erie County,NY,74.3741765480896,93.10344827586206,NA
14201,Erie County,NY,NA,47.99244213509684,NA
14202,Erie County,NY,NA,99.43316013226263,NA
14206,Erie County,NY,NA,55.83372697213037,81.16883116883116
14207,Erie County,NY,NA,46.48086915446387,NA
14208,Erie County,NY,92.62187088274044,NA,55.086580086580085
14213,Erie County,NY,NA,67.12328767123287,NA
14214,Erie County,NY,66.40316205533597,93.19792158715163,NA
14215,Erie County,NY,NA,18.94189891355692,NA
14216,Erie County,NY,55.20421607378129,NA,69.48051948051948
14217,Erie County,NY,NA,50.543221539914974,NA
14218,Erie County,NY,NA,66.41473783656117,NA
14220,Erie County,NY,6.653491436100131,NA,NA
14221,Erie County,NY,NA,NA,8.54978354978355
14224,Erie County,NY,90.6455862977602,NA,NA
14225,Erie County,NY,NA,9.022201228153047,NA
14226,Erie County,NY,NA,63.91119508738782,49.56709956709957
14227,Erie County,NY,36.49538866930172,40.52905054322154,NA
14304,Niagara County,NY,NA,64.61974492205952,NA
14305,Niagara County,NY,2.7009222661396577,NA,NA
14414,Livingston County,NY,NA,98.25224374114313,NA
14416,Genesee County,NY,NA,69.15446386395843,NA
14420,Monroe County,NY,NA,NA,37.66233766233766
14422,Genesee County,NY,NA,83.84506376948512,NA
14424,Ontario County,NY,NA,0.1889466225791214,NA
14432,Ontario County,NY,NA,30.94000944733113,NA
14437,Livingston County,NY,NA,NA,51.94805194805194
14450,Monroe County,NY,1.3175230566534915,36.93906471421823,3.354978354978355
14456,Ontario County,NY,31.225296442687743,2.6452527161076995,NA
14487,Livingston County,NY,75.55994729907773,NA,NA
14502,Wayne County,NY,14.624505928853754,NA,NA
14513,Wayne County,NY,2.503293807641634,NA,NA
14526,Monroe County,NY,42.81949934123847,NA,NA
14527,Yates County,NY,38.866930171278,15.257439773264053,NA
14534,Monroe County,NY,3.3596837944664033,19.886632026452528,NA
14559,Monroe County,NY,NA,11.336797354747285,NA
14564,Ontario County,NY,32.27931488801054,NA,NA
14568,Wayne County,NY,NA,77.32640529050543,NA
14572,Steuben County,NY,58.629776021080374,NA,NA
14580,Monroe County,NY,NA,8.691544638639584,NA
14586,Monroe County,NY,NA,69.15446386395843,NA
14589,Wayne County,NY,45.718050065876156,NA,NA
14591,Wyoming County,NY,91.10671936758892,NA,NA
14606,Monroe County,NY,NA,6.660368445914029,NA
14607,Monroe County,NY,NA,24.65753424657534,NA
14609,Monroe County,NY,0.13175230566534915,NA,NA
14611,Monroe County,NY,NA,59.943316013226266,NA
14616,Monroe County,NY,NA,20.736891828058575,NA
14618,Monroe County,NY,7.971014492753622,42.89088332546056,NA
14620,Monroe County,NY,NA,NA,26.623376623376622
14624,Monroe County,NY,NA,0.7557864903164856,NA
14626,Monroe County,NY,NA,1.5588096362777515,NA
14701,Chautauqua County,NY,NA,20.453471894189892,NA
14716,Chautauqua County,NY,NA,91.87529522909777,NA
14737,Cattaraugus County,NY,NA,89.891355692017,NA
14760,Cattaraugus County,NY,60.73781291172595,NA,NA
14801,Steuben County,NY,NA,95.8904109589041,NA
14814,Chemung County,NY,NA,94.42607463391593,NA
14850,Tompkins County,NY,NA,2.975909305621162,NA
14870,Steuben County,NY,NA,79.02692489371752,NA
14871,Chemung County,NY,NA,NA,78.78787878787878
14895,Allegany County,NY,NA,NA,71.64502164502164
27012,Forsyth County,NC,NA,27.680680207841284,4.545454545454546
27018,Yadkin County,NC,NA,49.31506849315068,NA
27020,Yadkin County,NC,48.74835309617918,NA,NA
27030,Surry County,NC,NA,NA,0.5411255411255411
27041,Surry County,NC,NA,NA,90.9090909090909
27103,Forsyth County,NC,27.602108036890645,21.209258384506377,NA
27104,Forsyth County,NC,NA,3.259329239489844,NA
27105,Forsyth County,NC,1.1198945981554678,51.251771374586674,NA
27127,Forsyth County,NC,NA,29.192253188474254,NA
27215,Alamance County,NC,NA,NA,5.627705627705628
27217,Alamance County,NC,NA,5.668398677373642,97.51082251082252
27253,Alamance County,NC,83.86034255599472,9.258384506376949,NA
27260,Guilford County,NC,11.330698287220025,31.27066603684459,NA
27262,Guilford County,NC,71.60737812911727,NA,NA
27265,Guilford County,NC,NA,83.93953708077468,NA
27284,Forsyth County,NC,3.491436100131752,0.4251299008030231,NA
27292,Davidson County,NC,42.88537549407115,NA,NA
27295,Davidson County,NC,NA,53.42465753424658,NA
27301,Guilford County,NC,NA,58.29003306565895,NA
27312,Chatham County,NC,NA,10.061407652338215,NA
27330,Lee County,NC,10.869565217391305,NA,NA
27332,Lee County,NC,NA,25.980160604629194,NA
27349,Alamance County,NC,NA,94.56778460085026,NA
27360,Davidson County,NC,32.015810276679844,NA,NA
27406,Guilford County,NC,22.529644268774703,NA,NA
27407,Guilford County,NC,31.68642951251647,NA,NA
27455,Guilford County,NC,NA,78.1294284364667,NA
27503,Durham County,NC,NA,96.50448748228625,NA
27504,Johnston County,NC,NA,81.76665092111477,NA
27510,Orange County,NC,NA,55.64478034955125,NA
27514,Orange County,NC,NA,58.620689655172406,NA
27518,Wake County,NC,NA,NA,86.25541125541125
27523,Wake County,NC,NA,NA,88.63636363636364
27525,Franklin County,NC,NA,65.89513462446858,NA
27526,Wake County,NC,14.295125164690381,12.139820500708549,NA
27527,Johnston County,NC,48.35309617918313,NA,NA
27542,Johnston County,NC,NA,53.56636750118091,NA
27549,Franklin County,NC,11.198945981554678,45.77231931979216,NA
27565,Granville County,NC,NA,61.31317902692489,NA
27572,Person County,NC,NA,87.48228625413321,NA
27577,Johnston County,NC,NA,NA,16.450216450216452
27587,Wake County,NC,NA,4.8653755314123766,NA
27591,Wake County,NC,NA,NA,50.10822510822511
27592,Wake County,NC,NA,49.409541804440245,NA
27597,Wake County,NC,94.59815546772069,37.69485120453472,NA
27603,Wake County,NC,NA,14.643363249881908,NA
27612,Wake County,NC,NA,49.97638167217761,NA
27614,Wake County,NC,NA,72.03589985829004,NA
27616,Wake County,NC,NA,72.22484648086916,NA
27617,Wake County,NC,NA,51.20453471894189,NA
27703,Durham County,NC,NA,5.951818611242324,NA
27704,Durham County,NC,NA,15.965989607935757,NA
27705,Durham County,NC,NA,88.56872933396316,NA
27707,Durham County,NC,64.2292490118577,80.68020784128484,NA
27713,Durham County,NC,NA,NA,10.822510822510822
27807,Nash County,NC,87.35177865612648,NA,NA
27863,Wayne County,NC,NA,49.50401511572981,NA
27870,Halifax County,NC,NA,74.3032593292395,NA
27886,Edgecombe County,NC,NA,53.8497874350496,NA
27893,Wilson County,NC,7.246376811594203,NA,NA
27896,Wilson County,NC,NA,NA,55.84415584415584
27909,Pasquotank County,NC,NA,7.038261691072272,NA
27910,Hertford County,NC,23.056653491436098,NA,49.78354978354979
27948,Dare County,NC,40.38208168642951,NA,NA
27949,Dare County,NC,NA,56.35333018422296,NA
28012,Gaston County,NC,NA,59.518186112423244,NA
28027,Cabarrus County,NC,NA,NA,15.367965367965366
28056,Gaston County,NC,NA,NA,64.6103896103896
28079,Union County,NC,55.27009222661397,NA,NA
28081,Cabarrus County,NC,NA,29.522909777987717,NA
28083,Cabarrus County,NC,NA,11.99811053377421,NA
28086,Cleveland County,NC,12.648221343873518,NA,NA
28104,Union County,NC,NA,48.03967879074161,NA
28117,Iredell County,NC,85.57312252964427,NA,NA
28124,Cabarrus County,NC,59.94729907773386,NA,NA
28139,Rutherford County,NC,21.14624505928854,NA,NA
28144,Rowan County,NC,NA,17.85545583372697,NA
28163,Stanly County,NC,NA,88.42701936702882,NA
28168,Lincoln County,NC,85.30961791831358,NA,NA
28207,Mecklenburg County,NC,86.29776021080369,NA,NA
28215,Mecklenburg County,NC,7.4440052700922275,NA,NA
28216,Mecklenburg County,NC,NA,NA,48.37662337662338
28227,Mecklenburg County,NC,33.201581027667984,NA,NA
28273,Mecklenburg County,NC,NA,49.17335852621634,NA
28277,Mecklenburg County,NC,NA,9.966934341048654,NA
28301,Cumberland County,NC,NA,92.15871516296646,66.23376623376623
28306,Bladen County,NC,42.95125164690382,47.23665564478035,NA
28312,Cumberland County,NC,66.27140974967062,NA,59.19913419913419
28315,Moore County,NC,NA,53.660840812470475,NA
28327,Moore County,NC,48.81422924901186,NA,NA
28328,Sampson County,NC,19.960474308300398,NA,NA
28334,Sampson County,NC,NA,42.65470004723665,NA
28337,Bladen County,NC,NA,39.82050070854983,NA
28348,Cumberland County,NC,NA,22.059518186112424,NA
28351,Scotland County,NC,89.13043478260869,NA,NA
28358,Robeson County,NC,7.8392621870882735,59.140292867264996,NA
28360,Robeson County,NC,76.9433465085639,NA,NA
28364,Robeson County,NC,82.27931488801053,80.5384978743505,NA
28366,Sampson County,NC,NA,97.49645725082664,NA
28376,Hoke County,NC,16.798418972332016,NA,NA
28379,Richmond County,NC,NA,NA,75.86580086580086
28384,Bladen County,NC,64.03162055335969,NA,NA
28386,Robeson County,NC,NA,87.67123287671232,NA
28390,Harnett County,NC,NA,43.599433160132264,NA
28401,New Hanover County,NC,NA,NA,80.41125541125541
28405,New Hanover County,NC,NA,17.24137931034483,NA
28411,New Hanover County,NC,47.10144927536232,NA,NA
28429,New Hanover County,NC,NA,59.32923948984412,NA
28443,Pender County,NC,NA,35.899858290033066,NA
28445,Onslow County,NC,80.43478260869566,64.71421823334907,NA
28451,Brunswick County,NC,15.876152832674572,NA,29.329004329004327
28463,Columbus County,NC,81.0935441370224,NA,NA
28512,Carteret County,NC,NA,95.1818611242324,NA
28513,Pitt County,NC,83.6627140974967,NA,NA
28516,Carteret County,NC,99.14361001317523,NA,NA
28539,Onslow County,NC,NA,70.71327350023618,NA
28555,Onslow County,NC,NA,75.62588568729333,NA
28562,Craven County,NC,NA,11.903637222484647,NA
28586,Craven County,NC,NA,57.912139820500705,NA
28594,Carteret County,NC,99.60474308300395,NA,NA
28604,Watauga County,NC,NA,46.669815777042984,NA
28610,Catawba County,NC,NA,NA,94.04761904761905
28613,Catawba County,NC,23.78129117259552,NA,NA
28642,Yadkin County,NC,NA,51.39348134152102,NA
28645,Caldwell County,NC,9.617918313570488,3.8734057628719882,38.20346320346321
28657,Avery County,NC,NA,42.60746339159188,NA
28675,Alleghany County,NC,NA,95.4180444024563,NA
28677,Iredell County,NC,NA,11.242324043457723,NA
28678,Alexander County,NC,NA,72.64997638167218,NA
28681,Alexander County,NC,NA,NA,78.03030303030303
28690,Burke County,NC,NA,NA,53.03030303030303
28694,Ashe County,NC,NA,48.700991969768545,NA
28734,Macon County,NC,NA,4.534718941898914,NA
28752,McDowell County,NC,NA,7.699574870099197,18.72294372294372
28753,Madison County,NC,NA,88.04912612187057,NA
28782,Polk County,NC,91.23847167325428,NA,NA
28791,Henderson County,NC,NA,15.918752952290976,NA
28792,Henderson County,NC,17.654808959156785,NA,NA
28803,Buncombe County,NC,NA,91.78082191780823,NA
28904,Clay County,NC,NA,46.291922531884744,NA
58072,Barnes County,ND,NA,NA,85.06493506493507
58201,Grand Forks County,ND,NA,NA,11.147186147186147
58318,Bottineau County,ND,NA,96.26830420406235,NA
58341,Wells County,ND,NA,98.11053377420879,NA
58401,Stutsman County,ND,NA,71.46905999055267,NA
58501,Burleigh County,ND,32.608695652173914,NA,NA
58554,Morton County,ND,46.9038208168643,NA,NA
58601,Stark County,ND,26.15283267457181,NA,NA
58703,Ward County,ND,51.38339920948617,NA,NA
43004,Franklin County,OH,87.41765480895916,NA,NA
43021,Delaware County,OH,NA,61.40765233821446,NA
43055,Licking County,OH,31.620553359683797,0.28341993386868214,NA
43056,Licking County,OH,21.673254281949934,NA,NA
43062,Licking County,OH,NA,59.23476617855455,NA
43068,Franklin County,OH,20.28985507246377,51.96032120925839,NA
43072,Champaign County,OH,89.52569169960475,NA,NA
43074,Delaware County,OH,58.036890645586304,NA,NA
43123,Franklin County,OH,NA,NA,7.251082251082251
43140,Madison County,OH,20.948616600790515,18.186112423240434,43.506493506493506
43147,Fairfield County,OH,12.121212121212121,NA,NA
43205,Franklin County,OH,27.79973649538867,NA,NA
43206,Franklin County,OH,39.45981554677207,NA,NA
43207,Franklin County,OH,0.7905138339920948,3.3538025507794047,NA
43211,Franklin County,OH,47.95783926218709,NA,NA
43220,Franklin County,OH,NA,NA,28.030303030303028
43221,Franklin County,OH,NA,23.145961265942372,NA
43223,Franklin County,OH,27.997364953886695,39.96221067548418,NA
43224,Franklin County,OH,NA,74.53944260746339,NA
43229,Franklin County,OH,NA,4.818138875767596,NA
43230,Franklin County,OH,NA,79.26310817194143,NA
43231,Franklin County,OH,NA,83.32546055739255,NA
43235,Franklin County,OH,NA,71.75247992442135,87.77056277056276
43302,Marion County,OH,41.89723320158103,NA,57.683982683982684
43326,Hardin County,OH,68.24769433465086,NA,NA
43334,Morrow County,OH,54.01844532279315,NA,NA
43338,Morrow County,OH,NA,NA,69.6969696969697
43431,Sandusky County,OH,89.9209486166008,NA,NA
43465,Wood County,OH,77.79973649538867,NA,NA
43506,Williams County,OH,12.318840579710146,39.773264052905056,NA
43551,Wood County,OH,NA,3.401039206424185,NA
43558,Fulton County,OH,NA,NA,70.67099567099568
43605,Lucas County,OH,66.93017127799736,NA,NA
43607,Lucas County,OH,2.9644268774703555,NA,NA
43608,Lucas County,OH,4.61133069828722,NA,NA
43612,Lucas County,OH,NA,32.02645252716108,NA
43614,Lucas County,OH,5.204216073781291,NA,12.012987012987013
43615,Lucas County,OH,NA,NA,64.39393939393939
43623,Lucas County,OH,NA,14.312706660368447,NA
43701,Muskingum County,OH,NA,74.72838923004251,21.645021645021643
43724,Noble County,OH,NA,NA,98.16017316017316
43725,Guernsey County,OH,42.29249011857708,3.731695795937648,NA
43756,Morgan County,OH,NA,NA,93.29004329004329
43793,Monroe County,OH,92.68774703557312,NA,NA
43812,Coshocton County,OH,NA,4.01511572980633,NA
43912,Belmont County,OH,NA,57.959376476145486,NA
43938,Jefferson County,OH,32.14756258234519,NA,NA
43953,Jefferson County,OH,NA,NA,25.757575757575758
44004,Ashtabula County,OH,7.180500658761528,NA,NA
44011,Lorain County,OH,NA,NA,49.24242424242424
44012,Lorain County,OH,NA,3.589985829003307,NA
44035,Lorain County,OH,NA,49.362305148795464,NA
44039,Lorain County,OH,NA,NA,2.4891774891774894
44050,Lorain County,OH,NA,56.77846008502598,NA
44053,Lorain County,OH,4.281949934123848,NA,NA
44054,Lorain County,OH,NA,NA,33.874458874458874
44055,Lorain County,OH,NA,10.203117619272556,NA
44057,Lake County,OH,NA,9.352857817666509,NA
44060,Lake County,OH,NA,36.7973547472839,NA
44062,Geauga County,OH,74.1106719367589,NA,NA
44077,Lake County,OH,NA,0.8974964572508267,0.21645021645021645
44081,Lake County,OH,NA,60.69910250354275,NA
44087,Summit County,OH,77.99736495388669,NA,NA
44092,Lake County,OH,25.757575757575758,NA,NA
44094,Lake County,OH,NA,14.83230987246103,NA
44105,Cuyahoga County,OH,0.2635046113306983,0.14170996693434107,NA
44108,Cuyahoga County,OH,NA,2.8814359943316012,NA
44109,Cuyahoga County,OH,NA,70.76051015588097,NA
44110,Cuyahoga County,OH,NA,4.345772319319792,NA
44111,Cuyahoga County,OH,NA,10.486537553141236,34.090909090909086
44112,Cuyahoga County,OH,NA,NA,11.471861471861471
44119,Cuyahoga County,OH,NA,68.63486065186585,NA
44120,Cuyahoga County,OH,NA,0.9919697685403874,NA
44121,Cuyahoga County,OH,4.940711462450593,NA,14.393939393939394
44122,Cuyahoga County,OH,NA,2.267359470949457,NA
44123,Cuyahoga County,OH,14.888010540184455,13.084553613604157,NA
44124,Cuyahoga County,OH,NA,0.9447331128956069,NA
44128,Cuyahoga County,OH,1.251646903820817,0.5196032120925839,0.7575757575757576
44129,Cuyahoga County,OH,NA,7.982994803967879,NA
44130,Cuyahoga County,OH,NA,NA,4.437229437229438
44132,Cuyahoga County,OH,NA,56.63675011809164,NA
44143,Cuyahoga County,OH,NA,7.463391591875296,10.173160173160174
44144,Cuyahoga County,OH,NA,19.93386868209731,NA
44145,Cuyahoga County,OH,NA,41.85167690127539,NA
44149,Cuyahoga County,OH,25.757575757575758,NA,33.549783549783555
44202,Portage County,OH,73.0566534914361,NA,NA
44203,Summit County,OH,NA,NA,22.835497835497836
44212,Medina County,OH,20.092226613965742,72.74444969296174,NA
44216,Summit County,OH,NA,39.25366084081247,NA
44231,Portage County,OH,88.27404479578392,NA,NA
44266,Portage County,OH,NA,NA,40.15151515151515
44305,Summit County,OH,NA,NA,43.61471861471862
44312,Summit County,OH,NA,5.101558809636278,NA
44313,Summit County,OH,NA,NA,9.415584415584416
44319,Summit County,OH,NA,NA,13.528138528138529
44440,Trumbull County,OH,NA,63.62777515351913,NA
44446,Trumbull County,OH,NA,8.974964572508267,NA
44484,Trumbull County,OH,NA,6.943788379782712,NA
44485,Trumbull County,OH,29.97364953886693,NA,NA
44505,Mahoning County,OH,66.53491436100131,NA,NA
44511,Mahoning County,OH,11.791831357048748,NA,NA
44512,Mahoning County,OH,NA,NA,10.064935064935066
44514,Mahoning County,OH,NA,16.627302786962684,NA
44515,Mahoning County,OH,NA,24.610297590930564,NA
44601,Stark County,OH,3.6231884057971016,NA,NA
44641,Stark County,OH,NA,26.87765706188002,NA
44672,Mahoning County,OH,NA,57.34529995276334,NA
44680,Tuscarawas County,OH,NA,84.22295701464336,NA
44691,Wayne County,OH,NA,16.532829475673122,NA
44708,Stark County,OH,14.756258234519104,NA,NA
44709,Stark County,OH,NA,27.869626830420408,NA
44720,Stark County,OH,NA,NA,35.064935064935064
44805,Ashland County,OH,NA,30.79829948039679,1.83982683982684
44820,Crawford County,OH,NA,NA,71.42857142857143
44824,Erie County,OH,NA,NA,98.26839826839827
44857,Huron County,OH,NA,4.10958904109589,NA
44890,Huron County,OH,49.670619235836625,NA,NA
44903,Richland County,OH,63.50461133069829,82.52243741143127,NA
44907,Richland County,OH,23.583662714097496,NA,NA
45005,Warren County,OH,18.972332015810274,NA,NA
45011,Butler County,OH,1.185770750988142,NA,6.926406926406926
45013,Butler County,OH,1.5810276679841897,1.1336797354747286,NA
45014,Butler County,OH,NA,34.48275862068966,NA
45030,Hamilton County,OH,NA,32.262635805384974,NA
45036,Warren County,OH,NA,40.76523382144544,NA
45039,Warren County,OH,80.63241106719367,NA,NA
45044,Butler County,OH,NA,NA,11.904761904761903
45052,Hamilton County,OH,NA,95.37080774681152,NA
45066,Warren County,OH,40.71146245059288,NA,NA
45068,Warren County,OH,NA,98.20500708549834,NA
45069,Butler County,OH,35.177865612648226,NA,NA
45103,Clermont County,OH,54.21607378129117,38.497874350495984,NA
45140,Clermont County,OH,72.7931488801054,NA,NA
45154,Brown County,OH,NA,64.24185167690128,NA
45177,Clinton County,OH,11.923583662714098,NA,NA
45205,Hamilton County,OH,82.47694334650856,NA,NA
45208,Hamilton County,OH,62.121212121212125,NA,NA
45215,Hamilton County,OH,NA,NA,22.4025974025974
45216,Hamilton County,OH,NA,43.174303259329236,NA
45227,Hamilton County,OH,NA,89.27727916863486,NA
45232,Hamilton County,OH,NA,88.00188946622579,NA
45242,Hamilton County,OH,NA,NA,29.004329004329005
45243,Hamilton County,OH,NA,NA,52.81385281385281
45244,Hamilton County,OH,NA,27.20831365139348,NA
45246,Hamilton County,OH,NA,44.54416627302787,NA
45247,Hamilton County,OH,NA,NA,19.047619047619047
45248,Hamilton County,OH,NA,NA,15.476190476190476
45305,Greene County,OH,NA,78.93245158242796,NA
45308,Darke County,OH,94.53227931488802,NA,NA
45320,Preble County,OH,63.37285902503294,NA,NA
45323,Clark County,OH,NA,96.07935758148322,NA
45342,Montgomery County,OH,NA,39.678790741615494,NA
45356,Miami County,OH,NA,42.796410014171,NA
45365,Shelby County,OH,23.847167325428195,NA,NA
45368,Clark County,OH,72.33201581027669,NA,NA
45371,Miami County,OH,NA,11.100614076523382,NA
45387,Greene County,OH,NA,NA,90.80086580086581
45405,Montgomery County,OH,NA,54.36939064714218,NA
45406,Montgomery County,OH,NA,NA,44.91341991341991
45417,Montgomery County,OH,18.44532279314888,NA,NA
45431,Montgomery County,OH,28.063241106719367,NA,NA
45432,Greene County,OH,NA,36.41946150212565,NA
45458,Montgomery County,OH,NA,NA,19.264069264069263
45503,Clark County,OH,4.084321475625823,NA,NA
45640,Jackson County,OH,77.93148880105402,NA,7.35930735930736
45648,Scioto County,OH,NA,10.344827586206897,NA
45661,Pike County,OH,NA,53.47189418989136,NA
45662,Scioto County,OH,NA,NA,2.0562770562770565
45669,Lawrence County,OH,46.24505928853755,NA,NA
45714,Washington County,OH,NA,31.554085970713274,54.004329004329
45750,Washington County,OH,0.8563899868247694,58.715162966461975,91.45021645021644
45822,Mercer County,OH,21.277997364953887,NA,NA
45830,Putnam County,OH,NA,94.4733112895607,NA
45832,Van Wert County,OH,79.71014492753623,NA,NA
45874,Van Wert County,OH,95.32279314888011,NA,NA
45895,Auglaize County,OH,NA,70.42985356636751,26.948051948051948
73012,Oklahoma County,OK,29.64426877470356,NA,NA
73034,Oklahoma County,OK,NA,7.9357581483230994,NA
73077,Noble County,OK,NA,NA,56.81818181818182
73099,Canadian County,OK,6.587615283267458,3.2120925838450636,NA
73109,Oklahoma County,OK,NA,NA,52.27272727272727
73111,Oklahoma County,OK,NA,41.0958904109589,NA
73120,Oklahoma County,OK,NA,15.777042985356637,NA
73160,Cleveland County,OK,NA,2.409069437883798,NA
73170,Cleveland County,OK,NA,8.07746811525744,5.194805194805195
73401,Carter County,OK,25.691699604743086,NA,NA
73521,Jackson County,OK,NA,37.31695795937648,NA
73942,Texas County,OK,96.04743083003953,99.62210675484175,NA
74011,Tulsa County,OK,43.741765480895914,NA,NA
74019,Rogers County,OK,NA,34.341048653755315,NA
74020,Pawnee County,OK,66.13965744400528,58.9041095890411,NA
74036,Rogers County,OK,NA,55.880963627775145,NA
74063,Tulsa County,OK,NA,91.45016532829476,37.121212121212125
74066,Creek County,OK,NA,NA,38.85281385281385
74115,Tulsa County,OK,NA,48.0869154463864,NA
74133,Tulsa County,OK,42.55599472990777,11.572980632971186,NA
74137,Tulsa County,OK,NA,NA,58.22510822510822
74301,Craig County,OK,NA,NA,52.922077922077925
74352,Mayes County,OK,NA,77.79877184695324,NA
74354,Ottawa County,OK,33.39920948616601,NA,NA
74361,Mayes County,OK,NA,67.83183750590457,NA
74401,Muskogee County,OK,NA,NA,74.89177489177489
74403,Muskogee County,OK,84.84848484848484,NA,NA
74462,Haskell County,OK,NA,64.47803495512517,NA
74501,Pittsburg County,OK,NA,28.483703353802554,NA
74571,Le Flore County,OK,NA,68.4931506849315,NA
74601,Kay County,OK,NA,35.99433160132263,NA
74728,McCurtain County,OK,NA,NA,62.66233766233766
74743,Choctaw County,OK,NA,81.57770429853566,NA
74820,Pontotoc County,OK,NA,42.98535663675012,NA
74848,Hughes County,OK,NA,54.65281058101087,NA
74960,Adair County,OK,NA,65.75342465753424,NA
97007,Washington County,OR,NA,95.04015115729806,NA
97013,Clackamas County,OR,38.0764163372859,NA,90.36796536796537
97023,Clackamas County,OR,NA,70.28814359943316,NA
97030,Multnomah County,OR,91.50197628458498,NA,NA
97031,Hood River County,OR,NA,NA,98.91774891774891
97034,Clackamas County,OR,96.96969696969697,NA,NA
97035,Clackamas County,OR,NA,NA,54.112554112554115
97038,Clackamas County,OR,NA,90.17477562588569,NA
97045,Clackamas County,OR,42.094861660079054,61.69107227208313,NA
97048,Columbia County,OR,70.15810276679841,NA,NA
97056,Columbia County,OR,69.96047430830039,NA,NA
97068,Clackamas County,OR,NA,63.53330184222957,42.857142857142854
97080,Multnomah County,OR,NA,34.624468587623994,NA
97086,Clackamas County,OR,33.794466403162055,NA,NA
97124,Washington County,OR,14.229249011857709,NA,NA
97128,Yamhill County,OR,82.54281949934123,NA,NA
97140,Washington County,OR,61.19894598155467,NA,NA
97141,Tillamook County,OR,41.76548089591568,NA,NA
97201,Multnomah County,OR,NA,NA,57.7922077922078
97203,Multnomah County,OR,23.254281949934125,NA,NA
97206,Multnomah County,OR,NA,NA,25.216450216450216
97210,Multnomah County,OR,NA,91.02503542749173,NA
97212,Multnomah County,OR,NA,NA,73.91774891774891
97213,Multnomah County,OR,NA,75.20075578649032,NA
97216,Multnomah County,OR,NA,94.89844119036373,NA
97221,Multnomah County,OR,NA,NA,75.10822510822511
97223,Washington County,OR,15.480895915678525,NA,NA
97229,Washington County,OR,NA,NA,28.354978354978357
97232,Multnomah County,OR,79.7760210803689,56.92017005196032,NA
97236,Multnomah County,OR,47.76021080368906,NA,81.27705627705627
97239,Multnomah County,OR,NA,NA,94.91341991341992
97305,Marion County,OR,NA,30.325932923948983,NA
97322,Linn County,OR,NA,63.72224846480869,NA
97338,Polk County,OR,28.65612648221344,74.20878601794992,88.09523809523809
97351,Polk County,OR,NA,86.25413320736892,NA
97394,Lincoln County,OR,NA,83.13651393481342,NA
97420,Coos County,OR,NA,23.712801133679736,NA
97443,Douglas County,OR,NA,99.19697685403874,NA
97457,Douglas County,OR,NA,50.968351440717996,NA
97459,Coos County,OR,NA,99.2442135096835,59.41558441558441
97462,Douglas County,OR,NA,95.13462446858763,NA
97471,Douglas County,OR,NA,61.26594237128011,NA
97477,Lane County,OR,72.99077733860344,NA,NA
97478,Lane County,OR,61.85770750988142,27.397260273972602,NA
97501,Jackson County,OR,NA,6.093528578176665,NA
97504,Jackson County,OR,NA,NA,2.380952380952381
97526,Josephine County,OR,NA,18.516769012753898,NA
97603,Klamath County,OR,9.090909090909092,NA,77.48917748917748
97801,Umatilla County,OR,NA,NA,11.03896103896104
97814,Baker County,OR,NA,79.68823807274445,NA
97838,Umatilla County,OR,45.12516469038208,NA,NA
97862,Umatilla County,OR,NA,NA,55.952380952380956
97914,Malheur County,OR,NA,NA,36.038961038961034
15001,Beaver County,PA,87.94466403162056,NA,NA
15003,Beaver County,PA,NA,64.99763816721776,NA
15010,Beaver County,PA,NA,56.022673594709495,NA
15012,Westmoreland County,PA,40.11857707509881,NA,NA
15021,Washington County,PA,NA,NA,87.87878787878788
15025,Allegheny County,PA,NA,28.341993386868207,NA
15042,Beaver County,PA,NA,NA,78.57142857142857
15068,Westmoreland County,PA,NA,NA,33.76623376623377
15071,Allegheny County,PA,NA,NA,99.35064935064936
15106,Allegheny County,PA,NA,38.73405762871989,NA
15116,Allegheny County,PA,83.00395256916995,NA,NA
15135,Allegheny County,PA,NA,92.20595181861124,NA
15146,Allegheny County,PA,55.006587615283266,NA,NA
15201,Allegheny County,PA,74.50592885375494,NA,NA
15204,Allegheny County,PA,NA,66.88710439300898,NA
15206,Allegheny County,PA,NA,36.37222484648087,NA
15215,Allegheny County,PA,79.57839262187089,NA,48.05194805194805
15216,Allegheny County,PA,35.2437417654809,NA,NA
15223,Allegheny County,PA,66.13965744400528,NA,NA
15241,Allegheny County,PA,52.37154150197628,NA,38.095238095238095
15320,Greene County,PA,85.70487483530962,NA,NA
15330,Washington County,PA,NA,NA,78.35497835497836
15367,Washington County,PA,78.78787878787878,NA,NA
15401,Fayette County,PA,NA,2.73972602739726,NA
15501,Somerset County,PA,35.37549407114625,NA,NA
15601,Westmoreland County,PA,NA,37.83656117146906,NA
15613,Westmoreland County,PA,NA,NA,21.1038961038961
15626,Westmoreland County,PA,NA,NA,80.84415584415584
15642,Westmoreland County,PA,NA,17.997165800661314,NA
15650,Westmoreland County,PA,7.312252964426877,NA,NA
15666,Westmoreland County,PA,31.949934123847168,83.60888049126122,NA
15683,Westmoreland County,PA,NA,65.375531412376,NA
15717,Indiana County,PA,86.03425559947298,NA,NA
15905,Cambria County,PA,29.314888010540187,19.792158715162966,NA
15906,Cambria County,PA,NA,45.06376948512045,NA
16001,Butler County,PA,40.316205533596836,NA,NA
16002,Butler County,PA,35.90250329380764,20.31176192725555,NA
16057,Butler County,PA,NA,NA,76.73160173160173
16125,Mercer County,PA,NA,NA,5.844155844155844
16137,Mercer County,PA,NA,18.138875767595657,NA
16146,Mercer County,PA,NA,23.712801133679736,NA
16201,Armstrong County,PA,NA,5.7628719886632025,9.307359307359308
16214,Clarion County,PA,NA,45.25271610769958,NA
16226,Armstrong County,PA,NA,NA,47.4025974025974
16323,Venango County,PA,NA,19.319792158715163,NA
16365,Warren County,PA,NA,59.470949456778456,NA
16417,Erie County,PA,NA,70.24090694378839,NA
16428,Erie County,PA,NA,88.19083608880491,NA
16510,Erie County,PA,NA,75.43693906471421,NA
16601,Blair County,PA,NA,NA,61.038961038961034
16602,Blair County,PA,NA,26.405290505432216,14.826839826839826
16652,Huntingdon County,PA,NA,49.92914501653283,NA
16701,McKean County,PA,NA,38.4506376948512,NA
16827,Centre County,PA,NA,68.58762399622107,NA
16947,Bradford County,PA,NA,86.91544638639584,NA
17003,Lebanon County,PA,28.85375494071146,NA,NA
17013,Cumberland County,PA,NA,66.50921114785073,NA
17015,Cumberland County,PA,51.77865612648221,59.423712801133675,91.66666666666666
17022,Lancaster County,PA,8.168642951251647,NA,NA
17025,Cumberland County,PA,NA,34.95512517713746,NA
17038,Lebanon County,PA,NA,96.69343410486537,NA
17042,Lebanon County,PA,24.835309617918313,NA,NA
17044,Mifflin County,PA,NA,19.508738781294284,NA
17050,Cumberland County,PA,NA,5.33774208786018,NA
17057,Dauphin County,PA,NA,31.60132262635805,NA
17067,Lebanon County,PA,42.95125164690382,NA,NA
17078,Lebanon County,PA,8.36627140974967,NA,40.36796536796537
17109,Dauphin County,PA,NA,87.29333963155409,NA
17110,Dauphin County,PA,NA,14.974019839395373,NA
17111,Dauphin County,PA,NA,NA,26.406926406926406
17113,Dauphin County,PA,NA,NA,83.44155844155844
17202,Franklin County,PA,70.4874835309618,9.163911195087387,NA
17225,Franklin County,PA,61.72595520421608,NA,39.5021645021645
17241,Cumberland County,PA,NA,NA,86.03896103896103
17257,Cumberland County,PA,35.96837944664031,NA,NA
17268,Franklin County,PA,NA,NA,9.632034632034632
17315,York County,PA,NA,NA,59.95670995670995
17320,Adams County,PA,87.74703557312253,85.54558337269721,NA
17325,Adams County,PA,12.055335968379447,NA,NA
17331,York County,PA,NA,28.57817666509211,NA
17356,York County,PA,16.337285902503293,NA,NA
17362,York County,PA,NA,NA,35.714285714285715
17368,York County,PA,54.61133069828722,NA,NA
17403,York County,PA,1.383399209486166,24.137931034482758,NA
17406,York County,PA,46.179183135704875,NA,NA
17545,Lancaster County,PA,NA,81.29428436466698,NA
17557,Lancaster County,PA,75.42819499341239,NA,NA
17566,Lancaster County,PA,63.76811594202898,NA,NA
17578,Lancaster County,PA,NA,76.61785545583373,NA
17701,Lycoming County,PA,10.80368906455863,3.070382616910723,NA
17728,Lycoming County,PA,82.80632411067194,NA,NA
17754,Lycoming County,PA,NA,NA,19.37229437229437
17777,Northumberland County,PA,NA,56.731223429381195,NA
17801,Northumberland County,PA,NA,11.478507321681624,NA
17815,Columbia County,PA,NA,90.6471421823335,NA
17821,Montour County,PA,NA,57.15635333018422,NA
17824,Northumberland County,PA,NA,97.21303731695797,NA
17857,Northumberland County,PA,NA,NA,50.43290043290043
17901,Schuylkill County,PA,13.10935441370224,73.83089277279169,NA
17921,Schuylkill County,PA,NA,65.42276806802079,NA
17960,Schuylkill County,PA,90.1844532279315,NA,NA
17972,Schuylkill County,PA,NA,36.18327822390175,NA
18017,Northampton County,PA,NA,NA,1.406926406926407
18040,Northampton County,PA,46.70619235836627,25.129900803023148,28.57142857142857
18041,Montgomery County,PA,98.22134387351778,NA,NA
18064,Northampton County,PA,NA,38.68682097307511,NA
18067,Northampton County,PA,23.122529644268774,NA,NA
18103,Lehigh County,PA,NA,2.9286726499763818,92.53246753246754
18104,Lehigh County,PA,NA,29.003306565895137,NA
18109,Lehigh County,PA,53.22793148880105,NA,NA
18201,Luzerne County,PA,NA,NA,52.056277056277054
18202,Luzerne County,PA,NA,24.515824279641002,NA
18302,Monroe County,PA,33.06982872200264,NA,NA
18343,Northampton County,PA,99.2094861660079,NA,NA
18360,Monroe County,PA,15.085638998682477,NA,NA
18407,Lackawanna County,PA,NA,NA,63.528138528138534
18411,Lackawanna County,PA,83.20158102766798,34.388285309400096,NA
18424,Lackawanna County,PA,NA,NA,82.68398268398268
18466,Monroe County,PA,60.21080368906456,NA,NA
18505,Lackawanna County,PA,NA,NA,98.7012987012987
18610,Monroe County,PA,90.97496706192358,NA,NA
18641,Luzerne County,PA,NA,47.80349551251771,NA
18704,Luzerne County,PA,7.905138339920949,NA,NA
18801,Susquehanna County,PA,56.58761528326745,NA,NA
18901,Bucks County,PA,28.129117259552043,NA,NA
18944,Bucks County,PA,89.06455862977603,NA,NA
18954,Bucks County,PA,NA,53.991497401983935,NA
18966,Bucks County,PA,NA,6.046291922531885,6.493506493506493
18974,Bucks County,PA,NA,NA,1.1904761904761905
19002,Montgomery County,PA,NA,12.09258384506377,NA
19013,Delaware County,PA,NA,NA,22.07792207792208
19015,Delaware County,PA,47.299077733860344,NA,76.51515151515152
19018,Delaware County,PA,14.558629776021082,NA,NA
19020,Bucks County,PA,NA,4.959848842701937,NA
19026,Delaware County,PA,NA,46.055739253660846,NA
19033,Delaware County,PA,NA,88.99385923476618,NA
19050,Delaware County,PA,15.5467720685112,54.794520547945204,NA
19056,Bucks County,PA,30.434782608695656,NA,NA
19057,Bucks County,PA,17.45718050065876,NA,NA
19067,Bucks County,PA,NA,4.204062352385451,NA
19072,Montgomery County,PA,NA,99.66934341048653,89.71861471861472
19073,Delaware County,PA,NA,18.894662257912138,NA
19079,Delaware County,PA,45.19104084321476,NA,NA
19082,Delaware County,PA,5.467720685111989,NA,NA
19090,Montgomery County,PA,NA,27.775153519130846,NA
19104,Philadelphia County,PA,NA,9.730751062824753,NA
19106,Philadelphia County,PA,NA,NA,43.290043290043286
19116,Philadelphia County,PA,84.78260869565217,56.4950401511573,NA
19118,Philadelphia County,PA,NA,52.10203117619272,NA
19120,Philadelphia County,PA,NA,33.86868209730751,NA
19121,Philadelphia County,PA,4.808959156785244,94.66225791213982,NA
19124,Philadelphia County,PA,88.866930171278,NA,NA
19130,Philadelphia County,PA,NA,19.17808219178082,NA
19131,Philadelphia County,PA,NA,NA,5.411255411255411
19132,Philadelphia County,PA,53.42555994729907,81.34152102031176,NA
19135,Philadelphia County,PA,NA,20.689655172413794,NA
19138,Philadelphia County,PA,NA,NA,18.83116883116883
19141,Philadelphia County,PA,NA,NA,67.42424242424242
19145,Philadelphia County,PA,16.99604743083004,6.471421823334908,NA
19148,Philadelphia County,PA,18.050065876152832,28.767123287671232,NA
19149,Philadelphia County,PA,NA,16.43835616438356,NA
19151,Philadelphia County,PA,25.889328063241106,NA,NA
19152,Philadelphia County,PA,NA,NA,7.575757575757576
19154,Philadelphia County,PA,7.707509881422925,9.683514407179972,20.238095238095237
19341,Chester County,PA,NA,NA,39.06926406926407
19344,Chester County,PA,NA,58.52621634388285,NA
19348,Chester County,PA,NA,NA,52.489177489177486
19350,Chester County,PA,NA,68.30420406235238,NA
19382,Chester County,PA,66.3372859025033,NA,NA
19401,Montgomery County,PA,18.84057971014493,NA,NA
19403,Montgomery County,PA,NA,33.065658951346244,NA
19406,Montgomery County,PA,NA,NA,37.878787878787875
19422,Montgomery County,PA,57.839262187088266,NA,NA
19446,Montgomery County,PA,NA,8.21917808219178,89.5021645021645
19460,Chester County,PA,NA,12.753897024090694,95.45454545454545
19464,Montgomery County,PA,2.635046113306983,NA,NA
19508,Berks County,PA,NA,NA,60.28138528138528
19518,Berks County,PA,30.500658761528328,NA,NA
19525,Montgomery County,PA,NA,68.77657061880019,58.87445887445888
19560,Berks County,PA,NA,NA,98.80952380952381
19607,Berks County,PA,NA,84.93150684931507,NA
19608,Berks County,PA,NA,38.214454416627305,NA
02840,Newport County,RI,64.82213438735178,NA,86.36363636363636
02852,Washington County,RI,NA,41.615493623051485,NA
02861,Providence County,RI,NA,NA,23.7012987012987
02864,Providence County,RI,NA,8.927727916863486,NA
02865,Providence County,RI,47.43083003952569,NA,NA
02878,Newport County,RI,NA,NA,83.65800865800865
02888,Kent County,RI,NA,79.40481813887577,NA
02889,Kent County,RI,12.779973649538867,9.825224374114311,NA
02891,Washington County,RI,NA,40.6235238545111,NA
02895,Providence County,RI,NA,15.210203117619272,NA
02906,Providence County,RI,NA,25.36608408124705,64.17748917748918
02914,Providence County,RI,NA,NA,62.22943722943724
02917,Providence County,RI,NA,53.8497874350496,95.995670995671
29016,Richland County,SC,54.80895915678524,NA,NA
29033,Lexington County,SC,65.21739130434783,NA,NA
29069,Darlington County,SC,NA,72.8389230042513,NA
29072,Lexington County,SC,13.965744400527008,NA,NA
29078,Kershaw County,SC,NA,48.18138875767596,NA
29102,Clarendon County,SC,NA,33.963155408597075,NA
29138,Saluda County,SC,NA,51.676901275389696,NA
29161,Florence County,SC,71.21212121212122,NA,80.62770562770562
29206,Richland County,SC,NA,54.085970713273504,NA
29210,Richland County,SC,NA,32.40434577231932,NA
29301,Spartanburg County,SC,17.588932806324113,NA,NA
29306,Spartanburg County,SC,NA,45.488899385923474,NA
29307,Spartanburg County,SC,87.54940711462451,46.81152574397733,NA
29412,Charleston County,SC,NA,35.66367501180917,NA
29420,Dorchester County,SC,55.27009222661397,NA,NA
29445,Berkeley County,SC,NA,14.407179971658007,NA
29449,Charleston County,SC,NA,53.660840812470475,NA
29470,Charleston County,SC,84.7167325428195,NA,NA
29485,Dorchester County,SC,NA,60.17949929145017,NA
29501,Florence County,SC,NA,NA,25.865800865800864
29505,Florence County,SC,67.91831357048748,NA,30.952380952380953
29506,Florence County,SC,NA,34.19933868682097,NA
29510,Georgetown County,SC,NA,86.15965989607936,NA
29511,Horry County,SC,87.02239789196311,NA,NA
29512,Marlboro County,SC,60.14492753623188,41.52102031176192,NA
29526,Horry County,SC,NA,5.951818611242324,NA
29532,Darlington County,SC,40.64558629776021,NA,NA
29550,Darlington County,SC,NA,NA,27.164502164502164
29560,Florence County,SC,55.59947299077734,NA,NA
29566,Horry County,SC,NA,NA,41.883116883116884
29588,Horry County,SC,20.685111989459813,NA,NA
29605,Greenville County,SC,NA,27.255550307038263,50.649350649350644
29615,Greenville County,SC,NA,21.020311761927253,41.77489177489178
29625,Anderson County,SC,NA,NA,63.85281385281385
29630,Pickens County,SC,NA,NA,73.59307359307358
29645,Laurens County,SC,NA,NA,96.1038961038961
29651,Greenville County,SC,10.210803689064559,NA,NA
29670,Anderson County,SC,NA,95.98488427019367,NA
29671,Pickens County,SC,NA,NA,77.92207792207793
29678,Oconee County,SC,NA,70.61880018894662,NA
29680,Greenville County,SC,NA,59.70713273500237,NA
29681,Greenville County,SC,NA,29.853566367501184,56.27705627705628
29693,Oconee County,SC,NA,NA,31.926406926406926
29706,Chester County,SC,NA,37.789324515824276,NA
29707,Lancaster County,SC,NA,NA,15.584415584415584
29710,York County,SC,NA,30.23145961265942,NA
29732,York County,SC,NA,38.92300425129901,NA
29745,York County,SC,NA,32.4515824279641,NA
29801,Aiken County,SC,NA,28.10581010864431,NA
29810,Allendale County,SC,NA,82.33349078885215,NA
29829,Aiken County,SC,60.342555994729906,NA,NA
29860,Edgefield County,SC,NA,NA,56.16883116883117
29906,Beaufort County,SC,NA,63.81672177609825,NA
29909,Beaufort County,SC,NA,9.022201228153047,NA
29910,Beaufort County,SC,NA,49.83467170524327,NA
29926,Beaufort County,SC,NA,76.80680207841284,NA
57005,Minnehaha County,SD,NA,NA,45.23809523809524
57032,Lincoln County,SD,86.8247694334651,NA,NA
57078,Yankton County,SD,48.08959156785244,37.93103448275862,NA
57103,Minnehaha County,SD,NA,1.5115729806329712,NA
57104,Minnehaha County,SD,65.08563899868248,NA,NA
57105,Minnehaha County,SD,NA,96.41001417099669,NA
57106,Minnehaha County,SD,35.44137022397892,NA,NA
57201,Codington County,SD,90.05270092226614,NA,NA
57301,Davison County,SD,NA,90.22201228153047,16.883116883116884
57350,Beadle County,SD,82.6745718050066,NA,27.81385281385281
57401,Brown County,SD,NA,4.6764289088332545,NA
57701,Pennington County,SD,69.56521739130434,67.0760510155881,NA
57702,Pennington County,SD,97.56258234519105,9.541804440245631,NA
57703,Pennington County,SD,NA,96.12659423712802,NA
57747,Fall River County,SD,NA,83.70335380255078,NA
37013,Davidson County,TN,NA,31.648559282002836,NA
37027,Williamson County,TN,NA,64.10014170996693,NA
37042,Montgomery County,TN,NA,NA,89.06926406926407
37043,Montgomery County,TN,NA,NA,28.8961038961039
37055,Dickson County,TN,NA,52.66887104393009,NA
37064,Williamson County,TN,NA,8.2664147378365609,NA
37066,Sumner County,TN,NA,4.912612187057156,NA
37072,Davidson County,TN,NA,40.81247047709022,NA
37075,Sumner County,TN,NA,NA,27.27272727272727
37086,Rutherford County,TN,NA,85.02598016060463,NA
37122,Wilson County,TN,NA,14.218233349078885,NA
37127,Rutherford County,TN,64.55862977602108,NA,NA
37128,Rutherford County,TN,NA,84.6008502598016,NA
37129,Rutherford County,TN,29.512516469038207,NA,NA
37135,Williamson County,TN,98.15546772068511,NA,NA
37160,Bedford County,TN,NA,46.339159187529525,NA
37166,DeKalb County,TN,NA,NA,45.995670995671
37167,Rutherford County,TN,NA,13.982050070854985,NA
37174,Williamson County,TN,NA,80.91639111950873,NA
37179,Williamson County,TN,NA,82.61691072272083,NA
37205,Davidson County,TN,80.36890645586297,NA,NA
37215,Davidson County,TN,NA,41.14312706660368,NA
37221,Davidson County,TN,43.93939393939394,NA,NA
37303,McMinn County,TN,50.06587615283268,NA,NA
37312,Bradley County,TN,25.494071146245062,NA,NA
37327,Sequatchie County,TN,24.90118577075099,NA,NA
37334,Lincoln County,TN,46.96969696969697,NA,NA
37341,Hamilton County,TN,NA,77.37364194615022,NA
37363,Hamilton County,TN,NA,74.11431270666037,NA
37367,Bledsoe County,TN,NA,NA,54.43722943722944
37387,Grundy County,TN,NA,72.46102975909305,NA
37388,Coffee County,TN,NA,NA,65.80086580086581
37398,Franklin County,TN,NA,NA,61.25541125541125
37620,Sullivan County,TN,NA,NA,38.52813852813853
37641,Greene County,TN,88.0764163372859,NA,NA
37686,Sullivan County,TN,NA,66.32026452527161,NA
37701,Blount County,TN,48.023715415019765,NA,NA
37705,Anderson County,TN,NA,73.92536608408125,NA
37725,Jefferson County,TN,NA,64.05290505432215,NA
37737,Blount County,TN,NA,NA,99.13419913419914
37743,Greene County,TN,NA,NA,49.67532467532468
37745,Greene County,TN,NA,64.33632498819084,NA
37766,Campbell County,TN,NA,NA,67.85714285714286
37771,Loudon County,TN,NA,35.23854511100614,NA
37774,Loudon County,TN,NA,NA,75.21645021645021
37801,Blount County,TN,7.5098814229249005,NA,NA
37803,Blount County,TN,17.984189723320156,NA,NA
37813,Hamblen County,TN,NA,41.04865375531412,NA
37830,Anderson County,TN,NA,54.511100614076526,NA
37840,Roane County,TN,NA,33.72697213037317,NA
37841,Scott County,TN,52.50329380764164,NA,NA
37865,Sevier County,TN,NA,NA,24.567099567099568
37879,Claiborne County,TN,33.13570487483531,NA,NA
37885,Monroe County,TN,NA,61.454888993859235,NA
37890,Jefferson County,TN,NA,NA,95.88744588744589
37917,Knox County,TN,8.036890645586297,NA,NA
37919,Knox County,TN,NA,20.54794520547945,NA
37920,Knox County,TN,22.200263504611332,NA,NA
37922,Knox County,TN,35.11198945981555,NA,NA
38008,Hardeman County,TN,NA,85.592820028342,NA
38024,Dyer County,TN,61.528326745718054,NA,NA
38068,Fayette County,TN,NA,95.55975436939065,NA
38104,Shelby County,TN,49.4729907773386,NA,NA
38109,Shelby County,TN,NA,58.47897968823808,NA
38116,Shelby County,TN,31.291172595520422,NA,40.909090909090914
38117,Shelby County,TN,NA,95.70146433632499,NA
38125,Shelby County,TN,34.18972332015811,NA,NA
38128,Shelby County,TN,9.486166007905137,NA,51.19047619047619
38139,Shelby County,TN,NA,NA,62.98701298701299
38225,Weakley County,TN,NA,97.63816721776098,NA
38230,Weakley County,TN,NA,97.26027397260275,NA
38305,Madison County,TN,NA,6.282475200755787,NA
38351,Henderson County,TN,NA,NA,27.5974025974026
38401,Maury County,TN,3.820816864295125,35.569201700519606,13.744588744588745
38501,Putnam County,TN,NA,93.85923476617856,NA
38506,Putnam County,TN,NA,36.136041568256964,NA
38556,Fentress County,TN,NA,22.342938119981106,NA
38571,Cumberland County,TN,34.91436100131752,NA,NA
38581,Warren County,TN,65.94202898550725,NA,NA
38583,White County,TN,52.70092226613966,NA,NA
75006,Dallas County,TX,28.26086956521739,NA,NA
75007,Denton County,TX,29.051383399209485,NA,NA
75019,Dallas County,TX,34.387351778656125,NA,NA
75032,Rockwall County,TX,97.49670619235836,NA,NA
75033,,TX,NA,45.914029286726496,NA
75051,Dallas County,TX,NA,56.306093528578174,NA
75056,Denton County,TX,42.490118577075094,NA,NA
75067,Denton County,TX,NA,19.083608880491262,NA
75070,Collin County,TX,28.326745718050066,NA,NA
75077,Denton County,TX,65.34914361001317,81.05810108644307,NA
75081,Dallas County,TX,48.28722002635046,NA,NA
75089,Dallas County,TX,NA,45.77231931979216,NA
75092,Grayson County,TX,67.45718050065877,NA,NA
75098,Collin County,TX,NA,NA,81.4935064935065
75103,Van Zandt County,TX,NA,70.94945677846009,NA
75104,Dallas County,TX,NA,16.39111950873878,NA
75115,Dallas County,TX,NA,82.994803967879065,NA
75119,Ellis County,TX,NA,46.339159187529525,NA
75149,Dallas County,TX,NA,16.29664619744922,NA
75150,Dallas County,TX,11.594202898550725,NA,NA
75154,Ellis County,TX,NA,23.523854511100613,NA
75160,Kaufman County,TX,77.53623188405797,60.226735947094944,NA
75189,Rockwall County,TX,27.536231884057973,NA,NA
75204,Dallas County,TX,NA,79.21587151629664,NA
75214,Dallas County,TX,26.745718050065875,NA,NA
75215,Dallas County,TX,NA,NA,41.450216450216445
75217,Dallas County,TX,4.874835309617918,NA,NA
75230,Dallas County,TX,NA,NA,36.688311688311686
75231,Dallas County,TX,66.600790513834,42.70193670288144,NA
75236,Dallas County,TX,85.24374176548089,NA,90.6926406926407
75237,Dallas County,TX,NA,51.771374586679265,NA
75241,Dallas County,TX,11.462450592885375,NA,NA
75401,Hunt County,TX,NA,37.55314123760038,NA
75409,Collin County,TX,NA,65.51724137931035,NA
75454,Collin County,TX,80.89591567852437,NA,NA
75455,Titus County,TX,NA,NA,36.79653679653679
75503,Bowie County,TX,NA,79.73547472838924,NA
75650,Harrison County,TX,75.95520421607378,NA,NA
75657,Marion County,TX,NA,72.17760982522438,NA
75662,Gregg County,TX,NA,NA,60.82251082251082
75672,Harrison County,TX,NA,66.55644780349552,NA
75766,Cherokee County,TX,NA,49.2678318375059,NA
75773,Wood County,TX,91.83135704874836,NA,NA
75785,Cherokee County,TX,NA,86.58478979688238,NA
75791,Smith County,TX,NA,24.799244213509684,NA
75831,Leon County,TX,NA,97.02409069437884,NA
75860,Freestone County,TX,NA,73.40576287198867,NA
75935,Shelby County,TX,74.90118577075098,56.06991025035427,NA
75964,Nacogdoches County,TX,NA,51.4407179971658,NA
75965,Nacogdoches County,TX,46.837944664031625,NA,NA
75966,Newton County,TX,83.26745718050066,NA,NA
75979,Tyler County,TX,65.01976284584981,NA,NA
76014,Tarrant County,TX,30.368906455862977,NA,NA
76016,Tarrant County,TX,NA,38.592347661785546,NA
76017,Tarrant County,TX,NA,44.07179971658007,NA
76018,Tarrant County,TX,36.95652173913043,NA,NA
76021,Tarrant County,TX,NA,22.201228153046763,NA
76028,Johnson County,TX,5.862977602108037,NA,NA
76036,Tarrant County,TX,NA,63.769485120453474,NA
76048,Hood County,TX,78.85375494071147,17.902692489371752,NA
76065,Ellis County,TX,49.538866930171274,19.367028814359944,NA
76085,Parker County,TX,NA,63.9584317430326,NA
76105,Tarrant County,TX,NA,54.18044402456306,NA
76109,Tarrant County,TX,NA,58.9041095890411,NA
76114,Tarrant County,TX,73.25428194993412,NA,NA
76116,Tarrant County,TX,11.857707509881422,7.416154936230515,NA
76120,Tarrant County,TX,NA,62.30514879546528,NA
76123,Tarrant County,TX,NA,78.31837505904582,NA
76134,Tarrant County,TX,14.031620553359684,NA,NA
76179,Tarrant County,TX,16.073781291172594,NA,NA
76180,Tarrant County,TX,50.59288537549407,NA,NA
76226,Denton County,TX,NA,41.946150212564945,NA
76240,Cooke County,TX,70.94861660079052,NA,NA
76244,Tarrant County,TX,13.438735177865613,NA,NA
76248,Tarrant County,TX,NA,52.952290977798775,NA
76704,McLennan County,TX,NA,90.69437883797828,NA
76706,McLennan County,TX,NA,52.574397732640534,NA
76712,McLennan County,TX,NA,22.295701464336325,NA
76904,Tom Green County,TX,NA,NA,51.515151515151516
77005,Harris County,TX,NA,34.90788852149268,NA
77008,Harris County,TX,NA,48.88993859234766,NA
77016,Harris County,TX,NA,65.18658478979688,NA
77018,Harris County,TX,51.91040843214756,NA,NA
77022,Harris County,TX,NA,59.518186112423244,NA
77027,Harris County,TX,NA,81.2470477090222,NA
77030,Harris County,TX,NA,89.37175247992442,NA
77033,Harris County,TX,NA,NA,27.705627705627705
77034,Harris County,TX,NA,43.0325932923949,NA
77035,Harris County,TX,24.440052700922266,NA,NA
77036,Harris County,TX,33.26745718050066,12.659423712801136,39.17748917748918
77040,Harris County,TX,NA,86.67926310817194,NA
77042,Harris County,TX,NA,79.45205479452055,NA
77047,Harris County,TX,60.67193675889329,NA,NA
77053,Fort Bend County,TX,NA,35.42749173358526,NA
77054,Harris County,TX,83.06982872200264,NA,NA
77056,Harris County,TX,94.33465085638998,NA,NA
77057,Harris County,TX,46.6403162055336,NA,NA
77061,Harris County,TX,NA,NA,82.25108225108225
77063,Harris County,TX,44.13702239789196,NA,NA
77065,Harris County,TX,NA,24.0434577231932,NA
77069,Harris County,TX,NA,95.22909777987718,NA
77070,Harris County,TX,85.04611330698287,13.415210203117619,NA
77072,Harris County,TX,NA,31.41237600377893,NA
77075,Harris County,TX,88.01054018445322,NA,NA
77077,Harris County,TX,NA,60.41568256967407,NA
77079,Harris County,TX,93.54413702239789,37.45866792631082,NA
77083,Harris County,TX,50.5270092226614,15.399149740198395,NA
77084,Harris County,TX,NA,38.02550779404818,NA
77087,Harris County,TX,NA,62.54133207368918,NA
77088,Harris County,TX,NA,18.375059045819555,NA
77090,Harris County,TX,NA,74.06707605101559,NA
77092,Harris County,TX,35.70487483530962,NA,NA
77095,Harris County,TX,NA,69.43788379782711,NA
77099,Harris County,TX,71.01449275362319,20.878601794992914,NA
77303,Montgomery County,TX,78.06324110671937,NA,NA
77304,Montgomery County,TX,NA,NA,39.285714285714285
77306,Montgomery County,TX,NA,57.534246575342465,NA
77316,Montgomery County,TX,52.76679841897233,NA,NA
77336,Harris County,TX,NA,95.32357109116674,NA
77339,Harris County,TX,36.100131752305664,77.60982522437412,NA
77346,Harris County,TX,49.275362318840585,NA,62.33766233766234
77354,Montgomery County,TX,NA,25.79121398205007,NA
77356,Montgomery County,TX,NA,49.50401511572981,NA
77373,Harris County,TX,15.810276679841898,NA,NA
77377,Harris County,TX,65.48089591567853,60.935285781766645,NA
77381,Montgomery County,TX,NA,19.650448748228623,NA
77382,Montgomery County,TX,77.66798418972331,NA,NA
77384,Montgomery County,TX,NA,83.08927727916864,NA
77386,Montgomery County,TX,44.532279314888015,29.948039678790746,NA
77388,Harris County,TX,52.83267457180501,71.13840340103921,NA
77389,Harris County,TX,71.54150197628458,NA,NA
77401,Harris County,TX,84.51910408432147,NA,NA
77429,Harris County,TX,NA,70.6660368445914,NA
77433,Harris County,TX,6.192358366271409,NA,NA
77437,Wharton County,TX,NA,66.41473783656117,NA
77447,Harris County,TX,NA,67.17052432687765,NA
77449,Harris County,TX,5.533596837944664,NA,NA
77450,Harris County,TX,NA,34.15210203117619,NA
77459,Fort Bend County,TX,NA,6.613131790269248,NA
77461,Fort Bend County,TX,NA,NA,87.98701298701299
77471,Fort Bend County,TX,NA,NA,64.5021645021645
77478,Fort Bend County,TX,NA,29.3339631554086,NA
77479,Fort Bend County,TX,16.40316205533597,NA,NA
77484,Waller County,TX,NA,57.72319319792159,NA
77494,Fort Bend County,TX,92.16073781291173,NA,83.22510822510823
77498,Fort Bend County,TX,34.4532279314888,93.81199811053378,NA
77503,Harris County,TX,NA,NA,71.86147186147186
77511,Brazoria County,TX,7.64163372859025,NA,85.60606060606061
77520,Harris County,TX,78.98550724637681,NA,NA
77523,Chambers County,TX,73.45191040843216,NA,NA
77531,Brazoria County,TX,NA,NA,61.25541125541125
77532,Harris County,TX,NA,96.78790741615494,NA
77539,Galveston County,TX,NA,25.177137458667925,22.294372294372295
77545,Fort Bend County,TX,45.98155467720685,NA,NA
77551,Galveston County,TX,69.63109354413703,NA,NA
77566,Brazoria County,TX,NA,26.310817194142654,NA
77571,Harris County,TX,15.151515151515152,NA,NA
77573,Galveston County,TX,89.72332015810277,1.8894662257912138,NA
77581,Brazoria County,TX,NA,11.667453944260746,NA
77584,Brazoria County,TX,47.233201581027664,NA,NA
77591,Galveston County,TX,NA,92.82002834199339,NA
77598,Harris County,TX,NA,64.14737836561171,NA
77611,Orange County,TX,NA,62.919225318847424,NA
77630,Orange County,TX,NA,96.6461974492206,73.48484848484848
77632,Orange County,TX,NA,88.33254605573926,NA
77665,Chambers County,TX,NA,82.14454416627302,NA
77706,Jefferson County,TX,30.171277997364953,62.4940954180444,NA
77802,Brazos County,TX,13.372859025032938,NA,NA
77803,Brazos County,TX,NA,25.413320736891826,NA
77807,Brazos County,TX,84.05797101449275,NA,NA
77840,Brazos County,TX,NA,46.52810581010864,NA
77845,Brazos County,TX,NA,1.9367028814359941,NA
77879,Burleson County,TX,NA,47.28389230042513,NA
77901,Victoria County,TX,NA,52.38545111006141,NA
77904,Victoria County,TX,NA,19.744922059518185,NA
77905,Victoria County,TX,NA,NA,52.5974025974026
77979,Calhoun County,TX,NA,NA,43.073593073593074
77995,Lavaca County,TX,NA,51.86584789796882,NA
78022,Live Oak County,TX,NA,NA,88.52813852813853
78028,Kerr County,TX,21.47562582345191,NA,NA
78155,Guadalupe County,TX,NA,43.88285309400094,NA
78202,Bexar County,TX,NA,NA,81.92640692640693
78207,Bexar County,TX,9.881422924901186,NA,NA
78209,Bexar County,TX,65.74440052700923,NA,NA
78222,Bexar County,TX,44.66403162055336,NA,NA
78228,Bexar County,TX,NA,45.06376948512045,NA
78232,Bexar County,TX,NA,24.893717524799243,NA
78237,Bexar County,TX,NA,NA,39.71861471861472
78240,Bexar County,TX,NA,38.82853094000945,NA
78242,Bexar County,TX,29.77602108036891,NA,NA
78247,Bexar County,TX,NA,38.02550779404818,NA
78259,Bexar County,TX,NA,87.81294284364667,NA
78336,San Patricio County,TX,NA,76.00377893245158,NA
78380,Nueces County,TX,NA,44.92205951818612,NA
78382,Aransas County,TX,NA,93.57581483230987,NA
78410,Nueces County,TX,NA,NA,91.991341991342
78411,Nueces County,TX,NA,84.03401039206425,NA
78414,Nueces County,TX,81.15942028985508,NA,NA
78415,Nueces County,TX,NA,30.892772791686347,NA
78416,Nueces County,TX,97.29907773386034,NA,NA
78501,Hidalgo County,TX,28.919631093544133,NA,NA
78503,Hidalgo County,TX,84.45322793148881,60.36844591402929,NA
78504,Hidalgo County,TX,NA,26.121870571563534,NA
78516,Hidalgo County,TX,NA,58.195559754369384,NA
78539,Hidalgo County,TX,NA,NA,35.064935064935064
78541,Hidalgo County,TX,68.77470355731225,NA,NA
78572,Hidalgo County,TX,NA,50.165328294756726,NA
78574,Hidalgo County,TX,20.35573122529644,NA,NA
78577,Hidalgo County,TX,NA,NA,6.8181818181818175
78582,Starr County,TX,45.91567852437418,NA,NA
78617,Travis County,TX,52.17391304347826,NA,NA
78639,Llano County,TX,NA,25.885687293339632,NA
78640,Hays County,TX,NA,22.909777987718467,NA
78665,Williamson County,TX,NA,77.51535191308456,NA
78676,Hays County,TX,NA,48.559282002834195,NA
78681,Williamson County,TX,NA,61.07699574870099,NA
78703,Travis County,TX,NA,70.90222012281531,NA
78705,Travis County,TX,94.13702239789197,NA,NA
78729,Williamson County,TX,NA,57.39253660840813,NA
78750,Travis County,TX,NA,54.511100614076526,NA
78759,Travis County,TX,56.45586297760211,NA,NA
79102,Potter County,TX,99.7364953886693,NA,NA
79109,Randall County,TX,NA,NA,65.25974025974025
79323,Yoakum County,TX,76.54808959156784,88.37978271138404,NA
79331,Dawson County,TX,89.78919631093544,NA,NA
79336,Hockley County,TX,48.88010540184453,NA,NA
79403,Lubbock County,TX,91.63372859025033,92.96173830892774,NA
79404,Lubbock County,TX,53.952569169960476,NA,NA
79412,Lubbock County,TX,74.70355731225297,NA,NA
79416,Lubbock County,TX,NA,79.97165800661314,NA
79423,Lubbock County,TX,56.192358366271414,36.75011809163911,NA
79424,Lubbock County,TX,NA,70.57156353330184,67.53246753246754
79549,Scurry County,TX,NA,87.10439300897497,NA
79556,Nolan County,TX,NA,58.29003306565895,NA
79762,Ector County,TX,NA,NA,82.03463203463204
79764,Ector County,TX,71.67325428194994,NA,NA
79772,Reeves County,TX,NA,53.14123760037789,NA
79835,El Paso County,TX,79.84189723320159,NA,NA
79912,El Paso County,TX,38.998682476943344,NA,NA
79915,El Paso County,TX,NA,NA,9.199134199134198
79925,El Paso County,TX,NA,31.365139348134154,NA
84003,Utah County,UT,26.35046113306983,NA,50.21645021645021
84010,Davis County,UT,NA,97.87435049598488,15.800865800865802
84014,Davis County,UT,NA,58.10108644307983,NA
84015,Davis County,UT,59.55204216073782,56.25885687293339,NA
84029,Tooele County,UT,37.54940711462451,NA,NA
84044,Salt Lake County,UT,NA,NA,70.45454545454545
84047,Salt Lake County,UT,14.09749670619236,27.01936702881436,NA
84050,Morgan County,UT,NA,69.62683042040624,NA
84054,Davis County,UT,NA,NA,70.995670995671
84057,Utah County,UT,67.85243741765481,NA,NA
84058,Utah County,UT,85.83662714097497,NA,NA
84066,Duchesne County,UT,39.26218708827404,64.47803495512517,NA
84074,Tooele County,UT,NA,35.23854511100614,20.02164502164502
84081,Salt Lake County,UT,NA,37.080774681152576,NA
84084,Salt Lake County,UT,28.19499341238472,NA,NA
84087,Davis County,UT,NA,87.19886632026453,NA
84088,Salt Lake County,UT,NA,32.12092583845064,NA
84092,Salt Lake County,UT,44.00527009222661,NA,56.709956709956714
84093,Salt Lake County,UT,NA,30.373169579593768,NA
84098,Summit County,UT,NA,55.739253660840816,NA
84106,Salt Lake County,UT,NA,NA,47.4025974025974
84109,Salt Lake County,UT,NA,31.790269248937175,NA
84115,Salt Lake County,UT,NA,47.00047236655645,NA
84116,Salt Lake County,UT,NA,46.19744922059518,NA
84118,Salt Lake County,UT,30.96179183135705,NA,NA
84119,Salt Lake County,UT,NA,49.692961738308924,NA
84121,Salt Lake County,UT,63.965744400527015,NA,NA
84123,Salt Lake County,UT,80.76416337285902,NA,75.75757575757575
84124,Salt Lake County,UT,93.61001317523056,NA,NA
84129,,UT,NA,16.1076995748701,NA
84404,Weber County,UT,NA,NA,74.78354978354979
84414,Weber County,UT,NA,77.89324515824279,NA
84501,Carbon County,UT,NA,60.46291922531884,NA
84604,Utah County,UT,67.06192358366272,NA,NA
84770,Washington County,UT,22.002635046113305,NA,NA
84790,Washington County,UT,27.140974967061926,NA,19.58874458874459
05060,Orange County,VT,NA,54.888993859234766,NA
05089,Windsor County,VT,NA,75.38970240906944,NA
05468,Chittenden County,VT,NA,NA,46.75324675324675
05488,Franklin County,VT,NA,75.29522909777988,NA
05602,Washington County,VT,41.370223978919626,NA,36.47186147186147
05661,Lamoille County,VT,96.24505928853755,NA,NA
05701,Rutland County,VT,NA,5.43221539914974,NA
05733,Rutland County,VT,NA,NA,63.63636363636363
05855,Orleans County,VT,NA,56.63675011809164,NA
20111,Prince William County,VA,NA,NA,60.3896103896104
20120,Fairfax County,VA,70.55335968379447,NA,NA
20121,Fairfax County,VA,91.699604743083,NA,NA
20147,Loudoun County,VA,94.72990777338603,NA,NA
20170,Fairfax County,VA,95.78392621870883,NA,NA
20171,Fairfax County,VA,97.36495388669302,NA,NA
20176,Loudoun County,VA,56.126482213438734,NA,NA
22003,Fairfax County,VA,17.12779973649539,NA,NA
22015,Fairfax County,VA,NA,28.011336797354748,NA
22030,Fairfax County,VA,16.930171277997367,NA,29.761904761904763
22033,Fairfax County,VA,39.39393939393939,NA,NA
22041,Fairfax County,VA,NA,87.38781294284365,NA
22046,Falls Church city,VA,NA,95.84317430325933,NA
22066,Fairfax County,VA,NA,62.63580538497875,NA
22101,Fairfax County,VA,NA,55.692017005196035,NA
22124,Fairfax County,VA,NA,54.84175720358998,NA
22150,Fairfax County,VA,NA,44.96929617383089,94.15584415584416
22151,Fairfax County,VA,NA,NA,77.05627705627705
22193,Prince William County,VA,NA,NA,28.463203463203463
22201,Arlington County,VA,38.669301712779976,NA,NA
22204,Arlington County,VA,15.2832674571805,NA,NA
22205,Arlington County,VA,NA,NA,94.26406926406926
22207,Arlington County,VA,70.68511198945981,NA,NA
22301,Alexandria city,VA,51.515151515151516,84.97874350495985,NA
22304,Alexandria city,VA,NA,46.669815777042984,NA
22305,Alexandria city,VA,NA,89.51346244685877,NA
22315,Fairfax County,VA,NA,39.348134152102034,NA
22407,Spotsylvania County,VA,NA,9.919697685403873,NA
22508,Orange County,VA,NA,NA,96.75324675324676
22801,Harrisonburg city,VA,NA,19.555975436939065,44.696969696969695
22821,Rockingham County,VA,NA,89.79688238072745,NA
22835,Page County,VA,NA,31.27066603684459,NA
22901,Albemarle County,VA,NA,67.17052432687765,57.35930735930735
22939,Augusta County,VA,NA,92.5366084081247,NA
22942,Louisa County,VA,NA,48.46480869154463,NA
22980,Waynesboro city,VA,NA,14.359943316013227,NA
23059,Henrico County,VA,NA,83.37269721303731,NA
23060,Henrico County,VA,NA,34.01039206424185,60.60606060606061
23112,Chesterfield County,VA,NA,NA,28.679653679653676
23114,Chesterfield County,VA,70.02635046113306,NA,NA
23139,Powhatan County,VA,NA,28.53094000944733,NA
23168,James City County,VA,67.65480895915678,NA,NA
23185,James City County,VA,20.816864295125164,1.4643363249881909,NA
23188,James City County,VA,84.38735177865613,NA,NA
23223,Henrico County,VA,32.34519104084321,NA,NA
23225,Richmond city,VA,6.785243741765481,NA,NA
23226,Richmond city,VA,NA,38.545111006140765,NA
23228,Henrico County,VA,31.15942028985507,NA,NA
23294,Henrico County,VA,NA,92.91450165328294,NA
23314,Isle of Wight County,VA,NA,77.18469532357109,NA
23323,Chesapeake city,VA,44.86166007905138,NA,NA
23324,Chesapeake city,VA,NA,NA,25.541125541125542
23430,Isle of Wight County,VA,NA,87.529522909778,NA
23435,Suffolk city,VA,29.841897233201582,NA,NA
23452,Virginia Beach city,VA,10.935441370223979,NA,NA
23453,Virginia Beach city,VA,NA,NA,45.23809523809524
23456,Virginia Beach city,VA,NA,22.153991497401986,NA
23487,Isle of Wight County,VA,72.5296442687747,NA,77.38095238095238
23503,Norfolk city,VA,29.249011857707508,NA,NA
23504,Norfolk city,VA,13.768115942028986,NA,NA
23661,Hampton city,VA,41.567852437417656,NA,NA
23666,Hampton city,VA,5.599472990777339,NA,25
23704,Portsmouth city,VA,NA,NA,75.97402597402598
23707,Portsmouth city,VA,NA,21.77609825224374,NA
23831,Chesterfield County,VA,47.891963109354414,44.54416627302787,31.493506493506494
23838,Chesterfield County,VA,NA,NA,63.095238095238095
23860,Hopewell city,VA,NA,57.29806329711856,NA
23868,Brunswick County,VA,73.12252964426878,NA,NA
23901,Prince Edward County,VA,63.43873517786561,NA,NA
23936,Buckingham County,VA,NA,54.74728389230042,NA
23944,Lunenburg County,VA,NA,NA,62.121212121212125
23970,Mecklenburg County,VA,NA,80.44402456306094,NA
24012,Roanoke city,VA,NA,NA,22.18614718614719
24055,Henry County,VA,NA,79.54652810581011,NA
24060,Montgomery County,VA,87.87878787878788,NA,NA
24078,Henry County,VA,NA,65.80066131317903,NA
24112,Henry County,VA,NA,NA,50.97402597402597
24121,Bedford County,VA,67.45718050065877,NA,NA
24153,Salem city,VA,NA,9.872461029759092,NA
24171,Patrick County,VA,NA,67.40670760510156,NA
24201,Bristol city,VA,NA,24.704770902220123,NA
24210,Washington County,VA,NA,26.216343882853092,NA
24211,Washington County,VA,59.354413702239796,NA,NA
24219,Wise County,VA,23.386034255599473,NA,NA
24244,Scott County,VA,64.16337285902503,NA,NA
24251,Scott County,VA,NA,NA,72.51082251082252
24501,Lynchburg city,VA,NA,85.68729333963155,NA
24517,Campbell County,VA,NA,NA,63.74458874458875
24540,Danville city,VA,NA,15.729806329711856,NA
24556,Bedford County,VA,99.93412384716733,NA,NA
24630,Tazewell County,VA,NA,NA,76.62337662337663
98001,King County,WA,83.53096179183136,NA,NA
98003,King County,WA,64.42687747035573,NA,NA
98004,King County,WA,NA,79.07416154936232,NA
98006,King County,WA,36.62714097496706,59.09305621162022,NA
98007,King County,WA,NA,NA,66.12554112554112
98012,Snohomish County,WA,41.63372859025033,56.542276806802086,NA
98022,King County,WA,38.669301712779976,NA,NA
98023,King County,WA,NA,8.03023145961266,47.18614718614719
98026,Snohomish County,WA,NA,75.57864903164855,86.14718614718615
98029,King County,WA,NA,40.81247047709022,NA
98032,King County,WA,NA,26.73594709494568,NA
98033,King County,WA,82.34519104084322,93.38686820973075,NA
98034,King County,WA,18.050065876152832,7.510628247520075,NA
98036,Snohomish County,WA,29.117259552042164,NA,NA
98040,King County,WA,NA,NA,94.8051948051948
98042,King County,WA,NA,25.035427491733586,NA
98052,King County,WA,NA,63.10817194142655,NA
98055,King County,WA,NA,45.86679263108172,NA
98056,King County,WA,NA,35.75814832309872,NA
98058,King County,WA,NA,NA,24.783549783549784
98074,King County,WA,88.3399209486166,NA,NA
98075,King County,WA,NA,86.49031648559283,NA
98077,King County,WA,92.55599472990778,NA,NA
98101,King County,WA,NA,NA,56.926406926406926
98102,King County,WA,71.80500658761528,NA,NA
98103,King County,WA,28.590250329380762,NA,NA
98106,King County,WA,64.36100131752306,NA,NA
98108,King County,WA,72.5296442687747,NA,NA
98112,King County,WA,NA,NA,48.268398268398265
98118,King County,WA,91.37022397891963,18.9891355692017,NA
98119,King County,WA,98.02371541501977,NA,NA
98146,King County,WA,39.19631093544137,NA,NA
98148,King County,WA,81.48880105401844,NA,NA
98168,King County,WA,43.280632411067195,NA,NA
98177,King County,WA,NA,36.561171469059985,NA
98188,King County,WA,NA,83.56164383561644,NA
98201,Snohomish County,WA,NA,28.38923004251299,NA
98203,Snohomish County,WA,NA,79.59376476145489,NA
98204,Snohomish County,WA,38.20816864295125,NA,NA
98208,Snohomish County,WA,66.00790513833992,15.304676428908834,NA
98221,Skagit County,WA,NA,NA,10.281385281385282
98223,Snohomish County,WA,NA,10.108644307982996,NA
98225,Whatcom County,WA,59.683794466403164,53.47189418989136,NA
98257,Skagit County,WA,NA,66.17855455833727,NA
98264,Whatcom County,WA,NA,88.71043930089749,NA
98270,Snohomish County,WA,8.827404479578393,44.402456306093526,NA
98271,Snohomish County,WA,NA,NA,43.722943722943725
98273,Skagit County,WA,89.39393939393939,8.455361360415683,NA
98274,Skagit County,WA,NA,NA,20.995670995670995
98275,Snohomish County,WA,NA,47.52007557864903,NA
98277,Island County,WA,NA,14.076523382144543,NA
98282,Island County,WA,NA,NA,32.57575757575758
98284,Skagit County,WA,NA,79.16863486065186,NA
98290,Snohomish County,WA,NA,29.286726499763816,NA
98296,Snohomish County,WA,27.865612648221344,NA,NA
98310,Kitsap County,WA,45.059288537549406,NA,NA
98312,Kitsap County,WA,NA,39.20642418516769,NA
98329,Pierce County,WA,52.83267457180501,NA,NA
98338,Pierce County,WA,55.27009222661397,NA,NA
98346,Kitsap County,WA,81.48880105401844,NA,NA
98362,Clallam County,WA,NA,4.251299008030231,NA
98366,Kitsap County,WA,NA,77.84600850259802,NA
98371,Pierce County,WA,NA,34.24657534246575,NA
98372,Pierce County,WA,NA,92.3004251299008,NA
98373,Pierce County,WA,NA,47.75625885687293,NA
98383,Kitsap County,WA,NA,33.20736891828059,NA
98391,Pierce County,WA,6.982872200263504,7.085498346717052,NA
98404,Pierce County,WA,NA,74.91733585262163,NA
98503,Thurston County,WA,NA,30.656589513462446,NA
98506,Thurston County,WA,NA,50.63769485120454,NA
98516,Thurston County,WA,NA,80.82191780821918,NA
98520,Grays Harbor County,WA,NA,28.011336797354748,42.64069264069264
98531,Lewis County,WA,NA,NA,25.865800865800864
98532,Lewis County,WA,69.23583662714098,NA,NA
98604,Clark County,WA,43.148880105401844,NA,NA
97003,NA,NA,NA,NA,71.53679653679653
98620,Klickitat County,WA,NA,78.60179499291449,NA
98626,Cowlitz County,WA,82.01581027667984,16.957959376476143,NA
98629,Clark County,WA,NA,NA,84.19913419913419
98642,Clark County,WA,NA,63.15540859707133,NA
98662,Clark County,WA,NA,64.85592820028342,NA
98663,Clark County,WA,NA,56.77846008502598,NA
98665,Clark County,WA,NA,52.10203117619272,NA
98672,Klickitat County,WA,98.81422924901186,NA,81.4935064935065
98683,Clark County,WA,63.570487483530954,NA,NA
98684,Clark County,WA,NA,NA,88.96103896103897
98801,Chelan County,WA,95.25691699604744,68.0207841284837,89.28571428571429
98826,Chelan County,WA,NA,NA,90.04329004329004
98837,Grant County,WA,NA,NA,13.311688311688311
98902,Yakima County,WA,NA,13.65139348134152,NA
98908,Yakima County,WA,NA,NA,33.33333333333333
98930,Yakima County,WA,NA,98.29948039678791,NA
98942,Yakima County,WA,53.82081686429513,NA,NA
99019,Spokane County,WA,NA,77.75153519130845,NA
99021,Spokane County,WA,81.48880105401844,NA,NA
99201,Spokane County,WA,64.4927536231884,NA,NA
99203,Spokane County,WA,61.9235836627141,46.339159187529525,NA
99205,Spokane County,WA,NA,29.66461974492206,NA
99208,Spokane County,WA,62.516469038208164,NA,NA
99217,Spokane County,WA,56.258234519104086,NA,NA
99301,Franklin County,WA,NA,3.4482758620689653,NA
99320,Benton County,WA,82.14756258234519,85.26216343882854,NA
99336,Benton County,WA,NA,0.47236655644780345,NA
99337,Benton County,WA,NA,55.219650448748226,NA
99352,Benton County,WA,NA,NA,1.5151515151515151
99353,Benton County,WA,NA,NA,47.72727272727273
20001,District of Columbia,DC,NA,30.70382616910723,NA
20002,District of Columbia,DC,12.845849802371543,20.59518186112423,NA
20007,District of Columbia,DC,NA,43.316013226263586,NA
20008,District of Columbia,DC,NA,NA,81.06060606060606
20009,District of Columbia,DC,57.378129117259554,26.972130373169577,89.17748917748918
20010,District of Columbia,DC,NA,94.99291450165327,NA
20011,District of Columbia,DC,18.050065876152832,NA,NA
20019,District of Columbia,DC,NA,76.28719886632027,NA
20020,District of Columbia,DC,1.0540184453227932,NA,18.29004329004329
25015,Kanawha County,WV,NA,71.98866320264526,NA
25177,Kanawha County,WV,6.389986824769434,NA,NA
25271,Jackson County,WV,45.3227931488801,NA,NA
25312,Kanawha County,WV,NA,NA,75.43290043290042
25313,Kanawha County,WV,30.764163372859027,84.74256022673595,NA
25414,Jefferson County,WV,NA,50.259801606046295,NA
25504,Cabell County,WV,NA,94.09541804440245,NA
25530,Wayne County,WV,50.39525691699605,58.10108644307983,NA
25550,Mason County,WV,NA,45.158242796410015,NA
25704,Wayne County,WV,NA,NA,34.63203463203463
25840,Fayette County,WV,NA,56.58951346244686,NA
25901,Fayette County,WV,28.458498023715418,NA,NA
26034,Hancock County,WV,NA,91.11950873878129,NA
26062,Hancock County,WV,5.797101449275362,NA,NA
26070,Brooke County,WV,NA,NA,96.42857142857143
26201,Upshur County,WV,NA,97.77987718469532,NA
26301,Harrison County,WV,NA,NA,80.95238095238095
26330,Harrison County,WV,NA,58.52621634388285,NA
26505,Monongalia County,WV,NA,34.95512517713746,NA
26508,Monongalia County,WV,NA,16.674539442607465,NA
26554,Marion County,WV,34.58498023715415,18.65847897968824,NA
26757,Hampshire County,WV,NA,NA,96.53679653679653
53027,Washington County,WI,NA,27.01936702881436,NA
53037,Washington County,WI,98.74835309617919,NA,NA
53039,Dodge County,WI,NA,97.92158715162967,NA
53040,Washington County,WI,NA,72.27208313651393,99.45887445887446
53051,Waukesha County,WI,NA,39.25366084081247,30.735930735930733
53058,Waukesha County,WI,88.40579710144928,NA,NA
53066,Waukesha County,WI,NA,6.707605101558809,NA
53072,Waukesha County,WI,NA,66.74539442607464,NA
53081,Sheboygan County,WI,NA,38.35616438356164,NA
53092,Ozaukee County,WI,NA,23.09872461029759,NA
53094,Jefferson County,WI,24.967061923583664,NA,NA
53098,Dodge County,WI,77.40447957839262,NA,NA
53110,Milwaukee County,WI,NA,NA,20.67099567099567
53126,Racine County,WI,84.58498023715416,45.34718941898914,NA
53128,Walworth County,WI,83.79446640316206,92.67831837505905,NA
53132,Milwaukee County,WI,70.81686429512516,NA,NA
53139,Racine County,WI,96.17918313570487,NA,NA
53140,Kenosha County,WI,NA,12.895606991025035,48.59307359307359
53142,Kenosha County,WI,54.6772068511199,NA,NA
53143,Kenosha County,WI,NA,58.006613131790274,54.54545454545454
53144,Kenosha County,WI,NA,16.01322626358054,NA
53146,Waukesha County,WI,NA,64.4307982994804,NA
53147,Walworth County,WI,NA,77.27916863486065,37.121212121212125
53151,Waukesha County,WI,NA,83.18375059045819,NA
53154,Milwaukee County,WI,NA,52.71610769957486,NA
53158,Kenosha County,WI,58.959156785243735,NA,NA
53181,Kenosha County,WI,38.405797101449274,80.20784128483703,NA
53185,Racine County,WI,90.9090909090909,32.687765706188,NA
53188,Waukesha County,WI,NA,9.49456778460085,NA
53202,Milwaukee County,WI,55.66534914361001,NA,NA
53205,Milwaukee County,WI,67.3913043478261,28.24752007557865,NA
53209,Milwaukee County,WI,36.693017127799735,NA,NA
53211,Milwaukee County,WI,67.3254281949934,NA,NA
53213,Milwaukee County,WI,NA,85.21492678318376,NA
53214,Milwaukee County,WI,NA,74.49220595181862,16.774891774891778
53215,Milwaukee County,WI,2.0421607378129116,NA,NA
53217,Milwaukee County,WI,19.960474308300398,NA,NA
53219,Milwaukee County,WI,NA,6.565895134624469,7.792207792207792
53220,Milwaukee County,WI,NA,NA,71.96969696969697
53221,Milwaukee County,WI,9.025032938076416,NA,31.818181818181817
53223,Milwaukee County,WI,NA,NA,8.225108225108226
53224,Milwaukee County,WI,NA,31.223429381199814,NA
53225,Milwaukee County,WI,56.65349143610013,NA,NA
53226,Milwaukee County,WI,NA,18.280585734529993,NA
53227,Milwaukee County,WI,NA,NA,57.467532467532465
53228,Milwaukee County,WI,NA,26.074633915918753,80.1948051948052
53233,Milwaukee County,WI,NA,97.11856400566839,NA
53402,Racine County,WI,NA,NA,0.6493506493506493
53403,Racine County,WI,18.708827404479578,NA,NA
53405,Racine County,WI,NA,54.41662730278696,NA
53406,Racine County,WI,NA,9.352857817666509,NA
53511,Rock County,WI,0.3952569169960474,0.0944733112895607,1.0822510822510822
53549,Jefferson County,WI,51.25164690382081,NA,NA
53562,Dane County,WI,NA,NA,17.20779220779221
53563,Rock County,WI,58.69565217391305,NA,NA
53590,Dane County,WI,48.55072463768116,NA,17.857142857142858
53593,Dane County,WI,62.845849802371546,NA,NA
53703,Dane County,WI,NA,99.57487009919697,NA
53705,Dane County,WI,NA,NA,52.70562770562771
53711,Dane County,WI,NA,8.2664147378365609,8.441558441558442
53913,Sauk County,WI,NA,32.54605573925366,NA
53959,Sauk County,WI,NA,24.46858762399622,NA
53965,Sauk County,WI,69.49934123847167,52.479924421350965,NA
54141,Oconto County,WI,99.80237154150198,NA,NA
54143,Marinette County,WI,30.500658761528328,NA,NA
54153,Oconto County,WI,73.8471673254282,NA,NA
54162,Brown County,WI,NA,93.62305148795465,NA
54166,Shawano County,WI,NA,30.373169579593768,NA
54217,Kewaunee County,WI,NA,79.35758148323099,NA
54241,Manitowoc County,WI,40.974967061923586,NA,NA
54302,Brown County,WI,NA,80.49126121870572,NA
54304,Brown County,WI,10.737812911725955,69.7213037316958,NA
54311,Brown County,WI,NA,41.284837033538025,NA
54401,Marathon County,WI,22.397891963109355,NA,NA
54403,Marathon County,WI,26.9433465085639,NA,NA
54457,Wood County,WI,NA,76.23996221067549,86.90476190476191
54482,Portage County,WI,NA,66.7926310817194,NA
54487,Lincoln County,WI,NA,24.42135096835144,70.02164502164501
54494,Wood County,WI,86.89064558629777,87.15162966461975,40.476190476190474
54501,Oneida County,WI,NA,NA,11.255411255411255
54521,Vilas County,WI,NA,NA,35.82251082251082
54548,Oneida County,WI,NA,NA,92.09956709956711
54601,La Crosse County,WI,NA,NA,1.948051948051948
54636,La Crosse County,WI,43.61001317523056,NA,NA
54751,Dunn County,WI,45.25691699604743,NA,NA
54768,Chippewa County,WI,87.61528326745717,NA,NA
54806,Ashland County,WI,NA,54.98346717052433,NA
54829,Barron County,WI,NA,62.73027869626831,NA
54868,Barron County,WI,NA,26.6887104393009,NA
54880,Douglas County,WI,NA,25.838450637694848,NA
54902,Winnebago County,WI,33.6627140974967,NA,NA
54904,Winnebago County,WI,98.08959156785244,NA,NA
54913,Outagamie County,WI,80.43478260869566,NA,NA
54914,Outagamie County,WI,72.266139657444,NA,NA
54929,Waupaca County,WI,69.30171277997364,NA,NA
54935,Fond du Lac County,WI,NA,NA,88.74458874458875
54937,Fond du Lac County,WI,26.48221343873518,NA,NA
54952,Winnebago County,WI,NA,21.162021728861596,NA
54963,Winnebago County,WI,NA,83.51440717997166,NA
54981,Waupaca County,WI,NA,27.586206896551722,NA
54982,Waushara County,WI,NA,NA,86.7965367965368
54986,Winnebago County,WI,NA,65.51724137931035,NA
82240,Goshen County,WY,68.9064558629776,NA,NA
82401,Washakie County,WY,NA,98.77184695323571,NA
82501,Fremont County,WY,57.7733860342556,NA,NA
