ZipCode,county,state,Adult,Retirement,Geriatric
35005,Jefferson County,AL,NA,91.20879120879121,NA
35022,Jefferson County,AL,NA,12.967032967032969,NA
35063,Walker County,AL,97.82608695652173,NA,NA
35096,Talladega County,AL,NA,NA,88.74458874458875
35175,Marshall County,AL,NA,88.57142857142857,NA
35210,Jefferson County,AL,NA,52.52747252747253,NA
35215,Jefferson County,AL,55.65217391304348,NA,NA
35404,Tuscaloosa County,AL,79.56521739130434,NA,NA
35553,Winston County,AL,92.6086956521739,NA,NA
35650,Lawrence County,AL,43.04347826086957,NA,NA
35802,Madison County,AL,NA,50.10989010989011,NA
35806,Madison County,AL,NA,NA,50.649350649350644
35811,Madison County,AL,NA,33.4065934065934,NA
35950,Marshall County,AL,NA,94.94505494505493,NA
36330,Coffee County,AL,34.78260869565217,NA,NA
36360,Dale County,AL,NA,NA,48.05194805194805
36801,Lee County,AL,48.69565217391305,NA,NA
36875,Russell County,AL,NA,73.62637362637363,NA
85023,Maricopa County,AZ,NA,NA,57.14285714285714
85122,Pinal County,AZ,NA,NA,22.943722943722943
85128,Pinal County,AZ,NA,NA,91.34199134199135
85194,Pinal County,AZ,NA,75.16483516483517,NA
85286,Maricopa County,AZ,NA,61.31868131868132,NA
85345,Maricopa County,AZ,NA,NA,33.33333333333333
85361,Maricopa County,AZ,NA,87.03296703296704,NA
85710,Pima County,AZ,NA,12.307692307692308,NA
85712,Pima County,AZ,42.173913043478265,35.824175824175825,NA
85713,Pima County,AZ,NA,64.17582417582418,NA
85730,Pima County,AZ,74.78260869565217,NA,NA
86040,Coconino County,AZ,NA,NA,82.68398268398268
71854,Miller County,AR,NA,NA,28.13852813852814
72012,White County,AR,NA,NA,97.83549783549783
72601,Boone County,AR,42.608695652173914,NA,NA
90026,Los Angeles County,CA,NA,NA,20.77922077922078
90032,Los Angeles County,CA,64.78260869565217,NA,NA
90039,Los Angeles County,CA,NA,62.1978021978022,NA
90040,Los Angeles County,CA,NA,99.78021978021978,NA
90045,Los Angeles County,CA,NA,43.2967032967033,NA
90201,Los Angeles County,CA,NA,27.912087912087912,NA
90220,Los Angeles County,CA,23.91304347826087,NA,NA
90605,Los Angeles County,CA,NA,NA,54.112554112554115
90606,Los Angeles County,CA,41.30434782608695,NA,NA
90703,Los Angeles County,CA,NA,25.494505494505493,NA
90805,Los Angeles County,CA,NA,18.24175824175824,NA
90808,Los Angeles County,CA,NA,33.18681318681318,NA
90810,Los Angeles County,CA,44.34782608695652,NA,NA
91107,Los Angeles County,CA,NA,99.12087912087912,NA
91202,Los Angeles County,CA,NA,NA,21.645021645021643
91331,Los Angeles County,CA,NA,NA,26.83982683982684
91343,Los Angeles County,CA,90,NA,NA
91402,Los Angeles County,CA,NA,NA,25.108225108225106
91740,Los Angeles County,CA,NA,75.6043956043956,NA
91754,Los Angeles County,CA,NA,47.03296703296703,NA
91775,Los Angeles County,CA,NA,NA,68.3982683982684
91784,San Bernardino County,CA,NA,37.142857142857146,NA
91910,San Diego County,CA,NA,NA,9.523809523809524
91942,San Diego County,CA,NA,33.84615384615385,NA
91977,San Diego County,CA,NA,NA,29.004329004329005
92020,San Diego County,CA,NA,6.593406593406594,NA
92057,San Diego County,CA,68.26086956521739,NA,NA
92078,San Diego County,CA,NA,38.02197802197802,NA
92082,San Diego County,CA,NA,97.36263736263736,NA
92101,San Diego County,CA,NA,58.24175824175825,NA
92129,San Diego County,CA,NA,NA,42.857142857142854
92324,San Bernardino County,CA,15.65217391304348,NA,NA
92335,San Bernardino County,CA,NA,11.868131868131867,NA
92395,San Bernardino County,CA,NA,34.065934065934066,NA
92591,Riverside County,CA,36.52173913043478,NA,NA
92625,Orange County,CA,NA,NA,90.9090909090909
92683,Orange County,CA,NA,NA,3.896103896103896
92802,Orange County,CA,66.08695652173913,NA,NA
92868,Orange County,CA,NA,79.78021978021978,NA
92881,Riverside County,CA,NA,85.49450549450549,NA
93023,Ventura County,CA,NA,46.15384615384615,NA
93111,Santa Barbara County,CA,NA,NA,82.25108225108225
93305,Kern County,CA,NA,67.6923076923077,NA
93458,Santa Barbara County,CA,NA,NA,42.42424242424242
93536,Los Angeles County,CA,61.73913043478261,NA,NA
93940,Monterey County,CA,NA,NA,16.883116883116884
94061,San Mateo County,CA,NA,41.53846153846154,NA
94066,San Mateo County,CA,32.608695652173914,8.131868131868131,NA
94105,San Francisco County,CA,NA,92.3076923076923,NA
94110,San Francisco County,CA,NA,6.813186813186813,NA
94117,San Francisco County,CA,NA,72.52747252747253,NA
94122,San Francisco County,CA,NA,89.01098901098901,NA
94131,San Francisco County,CA,52.60869565217391,NA,NA
94501,Alameda County,CA,NA,NA,79.65367965367966
94509,Contra Costa County,CA,18.26086956521739,NA,NA
94510,Solano County,CA,NA,NA,62.33766233766234
94541,Alameda County,CA,NA,14.725274725274726,69.26406926406926
94558,Napa County,CA,NA,NA,2.1645021645021645
94619,Alameda County,CA,NA,NA,71.42857142857143
94710,Alameda County,CA,NA,96.92307692307692,NA
94804,Contra Costa County,CA,NA,NA,35.064935064935064
94952,Sonoma County,CA,NA,28.57142857142857,NA
94954,Sonoma County,CA,NA,91.86813186813187,NA
95301,Merced County,CA,34.78260869565217,NA,NA
95327,Tuolumne County,CA,NA,NA,38.095238095238095
95376,San Joaquin County,CA,NA,85.93406593406593,NA
95437,Mendocino County,CA,NA,59.120879120879124,NA
95476,Sonoma County,CA,81.30434782608695,NA,NA
95667,El Dorado County,CA,NA,NA,10.822510822510822
95683,Sacramento County,CA,NA,81.75824175824175,NA
95926,Butte County,CA,NA,NA,78.78787878787878
96021,Tehama County,CA,NA,NA,95.23809523809523
96150,El Dorado County,CA,NA,NA,78.35497835497836
80013,Arapahoe County,CO,NA,17.36263736263736,NA
80106,El Paso County,CO,NA,96.04395604395604,NA
80122,Arapahoe County,CO,NA,NA,44.58874458874459
80130,Douglas County,CO,NA,65.05494505494505,NA
80249,Denver County,CO,27.391304347826086,NA,NA
80521,Larimer County,CO,96.52173913043478,NA,NA
80922,El Paso County,CO,NA,60.65934065934066,NA
80923,El Paso County,CO,50.43478260869565,NA,NA
81050,Otero County,CO,NA,66.37362637362637,NA
06418,New Haven County,CT,NA,98.02197802197801,NA
06437,New Haven County,CT,NA,19.560439560439562,NA
06443,New Haven County,CT,NA,NA,97.40259740259741
06450,New Haven County,CT,3.0434782608695654,NA,NA
06460,New Haven County,CT,NA,40,NA
06492,New Haven County,CT,41.73913043478261,NA,NA
06498,Middlesex County,CT,NA,66.8131868131868,NA
06512,New Haven County,CT,67.3913043478261,NA,NA
06516,New Haven County,CT,NA,3.076923076923077,NA
06610,Fairfield County,CT,20.869565217391305,NA,NA
06880,Fairfield County,CT,NA,49.23076923076923,NA
19713,New Castle County,DE,NA,22.857142857142858,NA
19808,New Castle County,DE,NA,16.923076923076923,NA
32011,Nassau County,FL,NA,44.175824175824175,NA
32060,Suwannee County,FL,NA,NA,49.35064935064935
32080,St. Johns County,FL,NA,74.72527472527473,NA
32137,Flagler County,FL,NA,NA,4.761904761904762
32162,Sumter County,FL,NA,1.9780219780219779,NA
32164,Flagler County,FL,25.65217391304348,NA,NA
32174,Volusia County,FL,NA,34.285714285714285,NA
32210,Duval County,FL,NA,42.857142857142854,NA
32211,Duval County,FL,NA,33.62637362637363,NA
32244,Duval County,FL,2.608695652173913,NA,NA
32301,Leon County,FL,NA,57.14285714285714,NA
32351,Gadsden County,FL,NA,NA,93.5064935064935
32504,Escambia County,FL,NA,NA,89.6103896103896
32550,Walton County,FL,NA,NA,96.96969696969697
32615,Alachua County,FL,NA,83.73626373626374,NA
32703,Orange County,FL,94.34782608695652,14.285714285714285,NA
32738,Volusia County,FL,NA,27.032967032967033,NA
32807,Orange County,FL,NA,NA,34.1991341991342
32810,Orange County,FL,NA,67.25274725274726,NA
32821,Orange County,FL,NA,86.37362637362638,NA
32836,Orange County,FL,NA,68.13186813186813,NA
32901,Brevard County,FL,NA,NA,17.74891774891775
32904,Brevard County,FL,NA,60.879120879120876,NA
32931,Brevard County,FL,NA,96.7032967032967,NA
33026,Broward County,FL,NA,NA,41.99134199134199
33027,Broward County,FL,60.43478260869565,29.010989010989015,NA
33033,Miami-Dade County,FL,NA,NA,49.78354978354979
33064,Broward County,FL,NA,13.626373626373626,NA
33133,Miami-Dade County,FL,NA,NA,24.675324675324674
33157,Miami-Dade County,FL,NA,45.27472527472528,NA
33162,Miami-Dade County,FL,NA,48.35164835164835,NA
33165,Miami-Dade County,FL,75.65217391304347,NA,NA
33175,Miami-Dade County,FL,NA,18.9010989010989,NA
33401,Palm Beach County,FL,NA,58.02197802197803,NA
33409,Palm Beach County,FL,NA,69.67032967032966,NA
33414,Palm Beach County,FL,NA,32.967032967032964,NA
33418,Palm Beach County,FL,99.56521739130434,NA,NA
33426,Palm Beach County,FL,65.65217391304347,NA,NA
33433,Palm Beach County,FL,NA,16.043956043956044,NA
33446,Palm Beach County,FL,NA,NA,55.41125541125541
33458,Palm Beach County,FL,20,NA,NA
33543,Pasco County,FL,NA,47.25274725274725,NA
33573,Hillsborough County,FL,NA,44.83516483516484,NA
33598,Hillsborough County,FL,NA,55.604395604395606,NA
33604,Hillsborough County,FL,NA,30.10989010989011,NA
33708,Pinellas County,FL,NA,71.64835164835165,NA
33709,Pinellas County,FL,91.73913043478261,43.956043956043956,NA
33713,Pinellas County,FL,NA,NA,74.45887445887446
33771,Pinellas County,FL,NA,25.274725274725274,NA
33774,Pinellas County,FL,NA,82.85714285714286,NA
33777,Pinellas County,FL,NA,NA,59.74025974025974
33809,Polk County,FL,NA,40.21978021978022,NA
33903,Lee County,FL,NA,84.83516483516483,NA
34112,Collier County,FL,NA,27.252747252747252,16.017316017316016
34238,Sarasota County,FL,NA,29.230769230769234,NA
34287,Sarasota County,FL,NA,50.54945054945055,NA
34436,Citrus County,FL,NA,63.95604395604395,85.28138528138528
34609,Hernando County,FL,87.39130434782608,NA,NA
34652,Pasco County,FL,NA,NA,38.52813852813853
34691,Pasco County,FL,NA,63.51648351648351,NA
34736,Lake County,FL,NA,74.28571428571429,NA
34744,Osceola County,FL,47.391304347826086,NA,NA
34772,Osceola County,FL,NA,NA,67.96536796536796
34974,Okeechobee County,FL,NA,57.802197802197796,NA
30021,DeKalb County,GA,63.91304347826087,78.24175824175825,NA
30044,Gwinnett County,GA,NA,38.46153846153847,NA
30066,Cobb County,GA,NA,20.87912087912088,28.57142857142857
30127,Cobb County,GA,12.608695652173912,NA,NA
30180,Carroll County,GA,NA,27.472527472527474,NA
30228,Henry County,GA,NA,NA,58.44155844155844
30240,Troup County,GA,45.65217391304348,NA,NA
30512,Union County,GA,NA,38.681318681318686,NA
30534,Dawson County,GA,NA,25.71428571428571,NA
30582,Towns County,GA,NA,NA,70.995670995671
30601,Clarke County,GA,57.391304347826086,NA,NA
30755,Whitfield County,GA,51.30434782608696,NA,NA
31322,Chatham County,GA,NA,58.46153846153847,NA
31329,Effingham County,GA,NA,80.21978021978022,NA
31707,Dougherty County,GA,NA,NA,44.15584415584416
31750,Ben Hill County,GA,NA,22.41758241758242,NA
31794,Tift County,GA,21.73913043478261,NA,NA
31907,Muscogee County,GA,6.086956521739131,NA,NA
96720,Hawaii County,HI,24.782608695652176,20,NA
96750,Hawaii County,HI,NA,79.12087912087912,NA
96817,Honolulu County,HI,48.26086956521739,NA,NA
83442,Jefferson County,ID,NA,NA,68.83116883116884
83501,Nez Perce County,ID,NA,NA,80.08658008658008
83644,Canyon County,ID,NA,87.47252747252747,NA
83686,Canyon County,ID,NA,56.7032967032967,NA
83843,Latah County,ID,NA,75.82417582417582,NA
83854,Kootenai County,ID,NA,NA,15.151515151515152
60025,Cook County,IL,NA,3.9560439560439558,NA
60047,Lake County,IL,NA,17.142857142857142,NA
60050,McHenry County,IL,NA,NA,45.02164502164502
60062,Cook County,IL,69.1304347826087,NA,NA
60067,Cook County,IL,NA,83.07692307692308,NA
60076,Cook County,IL,NA,18.021978021978022,NA
60077,Cook County,IL,NA,NA,83.11688311688312
60103,DuPage County,IL,NA,19.12087912087912,NA
60135,DeKalb County,IL,NA,80.87912087912088,NA
60137,DuPage County,IL,NA,23.296703296703296,NA
60181,DuPage County,IL,NA,23.736263736263734,NA
60419,Cook County,IL,NA,NA,47.61904761904761
60477,Cook County,IL,NA,50.989010989010985,NA
60526,Cook County,IL,NA,NA,35.93073593073593
60560,Kendall County,IL,NA,NA,58.87445887445888
60612,Cook County,IL,39.130434782608695,23.956043956043956,NA
60615,Cook County,IL,NA,86.5934065934066,NA
60616,Cook County,IL,NA,30.98901098901099,NA
60625,Cook County,IL,NA,37.362637362637365,NA
60628,Cook County,IL,NA,NA,1.2987012987012987
60641,Cook County,IL,NA,55.16483516483517,NA
60645,Cook County,IL,67.82608695652173,NA,NA
60649,Cook County,IL,NA,NA,14.285714285714285
60652,Cook County,IL,NA,NA,41.55844155844156
60654,Cook County,IL,NA,82.41758241758241,NA
60655,Cook County,IL,NA,52.74725274725275,NA
60657,Cook County,IL,NA,36.043956043956044,NA
60950,Kankakee County,IL,NA,51.868131868131876,NA
61008,Boone County,IL,NA,15.164835164835164,NA
61109,Winnebago County,IL,NA,NA,50.21645021645021
61550,Tazewell County,IL,NA,NA,38.961038961038966
61853,Champaign County,IL,NA,NA,25.97402597402597
61866,Champaign County,IL,NA,NA,56.709956709956714
62034,Madison County,IL,NA,61.97802197802198,NA
62208,St. Clair County,IL,NA,NA,52.38095238095239
62526,Macon County,IL,NA,5.714285714285714,NA
62821,White County,IL,76.08695652173914,NA,NA
62960,Massac County,IL,NA,NA,43.722943722943725
62966,Jackson County,IL,NA,NA,90.47619047619048
46135,Putnam County,IN,NA,NA,34.63203463203463
46143,Johnson County,IN,19.565217391304348,NA,NA
46218,Marion County,IN,6.956521739130435,NA,20.346320346320347
46222,Marion County,IN,NA,21.53846153846154,NA
46256,Marion County,IN,59.130434782608695,NA,NA
46307,Lake County,IN,0,NA,NA
46342,Lake County,IN,NA,9.89010989010989,NA
46356,Lake County,IN,NA,54.285714285714285,NA
46516,Elkhart County,IN,NA,29.450549450549453,NA
46706,DeKalb County,IN,NA,NA,61.471861471861466
46793,DeKalb County,IN,98.69565217391305,NA,NA
46804,Allen County,IN,NA,20.21978021978022,NA
46806,Allen County,IN,NA,NA,64.06926406926407
46835,Allen County,IN,54.78260869565217,NA,NA
46953,Grant County,IN,NA,8.35164835164835,NA
46970,Miami County,IN,NA,46.37362637362637,NA
46975,Fulton County,IN,NA,NA,53.67965367965368
47042,Ripley County,IN,93.47826086956522,NA,NA
47060,Dearborn County,IN,NA,93.4065934065934,NA
47130,Clark County,IN,NA,4.175824175824175,NA
47150,Floyd County,IN,NA,NA,19.047619047619047
47240,Decatur County,IN,NA,NA,22.51082251082251
47374,Wayne County,IN,NA,20.439560439560438,NA
47501,Daviess County,IN,NA,NA,18.614718614718615
47620,Posey County,IN,NA,NA,60.60606060606061
47714,Vanderburgh County,IN,NA,56.92307692307692,NA
50511,Kossuth County,IA,75.21739130434783,NA,NA
52205,Jones County,IA,NA,67.03296703296702,NA
52240,Johnson County,IA,98.26086956521739,NA,NA
52632,Lee County,IA,NA,26.593406593406595,NA
52803,Scott County,IA,NA,41.318681318681314,NA
66062,Johnson County,KS,NA,NA,80.95238095238095
66067,Franklin County,KS,NA,NA,37.22943722943723
66617,Shawnee County,KS,NA,83.51648351648352,NA
67337,Montgomery County,KS,NA,NA,65.36796536796537
40004,Nelson County,KY,13.91304347826087,NA,NA
40033,Marion County,KY,NA,53.62637362637363,NA
40165,Bullitt County,KY,9.565217391304348,NA,NA
40212,Jefferson County,KY,80.8695652173913,NA,NA
40391,Clark County,KY,NA,9.45054945054945,NA
40444,Garrard County,KY,46.52173913043478,NA,NA
40701,Whitley County,KY,29.130434782608695,NA,NA
41051,Kenton County,KY,28.695652173913043,NA,NA
42025,Marshall County,KY,NA,81.53846153846153,NA
70006,Jefferson Parish,LA,38.69565217391304,NA,NA
70065,Jefferson Parish,LA,1.3043478260869565,NA,NA
70115,Orleans Parish,LA,NA,NA,36.79653679653679
70119,Orleans Parish,LA,NA,5.4945054945054945,NA
70461,St. Tammany Parish,LA,11.73913043478261,15.604395604395604,NA
70560,Iberia Parish,LA,0.8695652173913043,NA,NA
70814,East Baton Rouge Parish,LA,NA,81.0989010989011,NA
71360,Rapides Parish,LA,7.82608695652174,NA,NA
04268,Oxford County,ME,NA,NA,74.45887445887446
20708,Prince George's County,MD,NA,57.36263736263736,NA
20744,Prince George's County,MD,NA,NA,43.290043290043286
20774,Prince George's County,MD,NA,71.20879120879121,NA
20854,Montgomery County,MD,51.73913043478261,NA,29.43722943722944
20877,Montgomery County,MD,NA,NA,51.082251082251084
21012,Anne Arundel County,MD,NA,NA,64.93506493506493
21044,Howard County,MD,NA,NA,61.038961038961034
21061,Anne Arundel County,MD,NA,70.98901098901099,NA
21090,Anne Arundel County,MD,NA,62.637362637362635,NA
21093,Baltimore County,MD,NA,NA,5.627705627705628
21221,Baltimore County,MD,15.217391304347828,NA,NA
21227,Baltimore County,MD,NA,NA,76.62337662337663
21236,Baltimore County,MD,NA,NA,21.21212121212121
21401,Anne Arundel County,MD,NA,24.395604395604394,NA
21629,Caroline County,MD,NA,78.02197802197803,NA
21673,Talbot County,MD,NA,96.26373626373626,NA
21740,Washington County,MD,13.043478260869565,NA,NA
21742,Washington County,MD,NA,54.505494505494504,NA
21921,Cecil County,MD,10,NA,NA
01118,Hampden County,MA,NA,86.81318681318682,NA
01570,Worcester County,MA,NA,2.857142857142857,NA
01720,Middlesex County,MA,25.217391304347824,NA,NA
01721,Middlesex County,MA,NA,28.79120879120879,NA
01803,Middlesex County,MA,40.869565217391305,21.75824175824176,NA
01834,Essex County,MA,NA,93.62637362637362,NA
01852,Middlesex County,MA,NA,78.9010989010989,NA
01876,Middlesex County,MA,4.3478260869565215,2.197802197802198,NA
01921,Essex County,MA,66.52173913043478,NA,NA
01930,Essex County,MA,NA,NA,96.1038961038961
01960,Essex County,MA,NA,4.835164835164836,NA
02062,Norfolk County,MA,NA,NA,96.53679653679653
02116,Suffolk County,MA,NA,NA,12.987012987012985
02119,Suffolk County,MA,NA,0.21978021978021978,NA
02120,Suffolk County,MA,1.7391304347826086,NA,NA
02125,Suffolk County,MA,NA,0.8791208791208791,NA
02127,Suffolk County,MA,NA,45.494505494505496,NA
02169,Norfolk County,MA,NA,NA,0.4329004329004329
02184,Norfolk County,MA,NA,NA,33.76623376623377
02301,Plymouth County,MA,NA,0,NA
02324,Plymouth County,MA,NA,NA,45.45454545454545
02346,Plymouth County,MA,NA,34.72527472527472,NA
02571,Plymouth County,MA,8.695652173913043,NA,NA
02639,Barnstable County,MA,NA,NA,63.20346320346321
02745,Bristol County,MA,0.43478260869565216,NA,NA
48021,Macomb County,MI,7.391304347826087,65.93406593406593,NA
48054,St. Clair County,MI,NA,54.72527472527473,NA
48091,Macomb County,MI,NA,11.428571428571429,NA
48118,Washtenaw County,MI,NA,74.50549450549451,NA
48146,Wayne County,MI,NA,11.648351648351648,NA
48170,Wayne County,MI,NA,64.61538461538461,NA
48186,Wayne County,MI,3.91304347826087,8.571428571428571,18.181818181818183
48188,Wayne County,MI,NA,54.94505494505495,NA
48193,Wayne County,MI,NA,NA,35.4978354978355
48221,Wayne County,MI,NA,NA,66.23376623376623
48236,Wayne County,MI,NA,NA,9.090909090909092
48310,Macomb County,MI,NA,61.0989010989011,NA
48314,Macomb County,MI,NA,NA,19.913419913419915
48315,Macomb County,MI,NA,14.945054945054945,NA
48322,Oakland County,MI,31.30434782608696,NA,NA
48329,Oakland County,MI,54.347826086956516,NA,NA
48381,Oakland County,MI,NA,NA,98.7012987012987
48446,Lapeer County,MI,52.17391304347826,NA,NA
48532,Genesee County,MI,NA,29.89010989010989,NA
48603,Saginaw County,MI,30.434782608695656,NA,NA
48625,Clare County,MI,NA,60,NA
48632,Clare County,MI,NA,NA,94.8051948051948
48706,Bay County,MI,76.52173913043478,NA,NA
48827,Eaton County,MI,NA,81.97802197802197,NA
48838,Montcalm County,MI,23.47826086956522,NA,NA
48910,Ingham County,MI,8.26086956521739,NA,NA
49090,Van Buren County,MI,NA,31.648351648351646,NA
49230,Jackson County,MI,86.52173913043478,NA,NA
49247,Lenawee County,MI,NA,53.18681318681319,NA
49519,Kent County,MI,NA,NA,61.904761904761905
49783,Chippewa County,MI,86.08695652173914,NA,NA
49801,Dickinson County,MI,NA,31.208791208791208,NA
49802,Dickinson County,MI,62.60869565217392,NA,NA
49866,Marquette County,MI,43.913043478260875,NA,NA
49953,Ontonagon County,MI,NA,NA,87.87878787878788
55033,Dakota County,MN,NA,43.07692307692308,NA
55042,Washington County,MN,NA,93.18681318681318,NA
55066,Goodhue County,MN,NA,14.505494505494507,NA
55073,Washington County,MN,96.08695652173913,NA,NA
55109,Ramsey County,MN,NA,NA,58.00865800865801
55117,Ramsey County,MN,10.869565217391305,NA,NA
55119,Ramsey County,MN,NA,52.96703296703297,NA
55121,Dakota County,MN,82.17391304347827,NA,NA
55127,Ramsey County,MN,84.78260869565217,NA,NA
55128,Washington County,MN,NA,82.63736263736263,NA
55302,Wright County,MN,NA,78.46153846153847,NA
55330,Sherburne County,MN,NA,80.43956043956044,NA
55347,Hennepin County,MN,NA,70.32967032967034,NA
55355,Meeker County,MN,NA,95.38461538461539,NA
55428,Hennepin County,MN,NA,24.835164835164836,NA
55807,St. Louis County,MN,NA,42.1978021978022,NA
55902,Olmsted County,MN,NA,NA,56.27705627705628
56011,Scott County,MN,72.60869565217392,NA,NA
38654,DeSoto County,MS,NA,45.714285714285715,NA
38672,DeSoto County,MS,NA,NA,83.98268398268398
39180,Warren County,MS,NA,37.582417582417584,NA
39209,Hinds County,MS,NA,36.7032967032967,NA
39439,Jasper County,MS,NA,NA,93.07359307359307
39503,Harrison County,MS,28.26086956521739,NA,NA
39520,Hancock County,MS,89.13043478260869,NA,NA
63021,St. Louis County,MO,NA,84.17582417582418,NA
63033,St. Louis County,MO,NA,36.48351648351648,NA
63044,St. Louis County,MO,NA,NA,92.64069264069265
63108,St. Louis city,MO,38.26086956521739,NA,NA
63121,St. Louis County,MO,NA,38.24175824175824,NA
63129,St. Louis County,MO,NA,NA,6.493506493506493
63385,St. Charles County,MO,NA,9.6703296703296715,NA
64055,Jackson County,MO,4.782608695652174,NA,NA
64067,Lafayette County,MO,NA,66.15384615384615,NA
64068,Clay County,MO,NA,90.98901098901099,NA
64079,Platte County,MO,NA,NA,75.75757575757575
64081,Jackson County,MO,34.34782608695652,NA,NA
64114,Jackson County,MO,26.956521739130434,32.527472527472526,NA
64116,Clay County,MO,NA,NA,94.37229437229438
64506,Buchanan County,MO,13.478260869565217,NA,NA
64870,Jasper County,MO,74.34782608695653,NA,NA
65078,Morgan County,MO,95.21739130434783,NA,NA
65201,Boone County,MO,NA,48.57142857142857,NA
65340,Saline County,MO,26.08695652173913,NA,NA
65355,Benton County,MO,NA,15.824175824175823,NA
65616,Taney County,MO,27.82608695652174,NA,NA
65648,Greene County,MO,NA,NA,87.01298701298701
65804,Greene County,MO,NA,25.934065934065938,NA
59802,Missoula County,MT,NA,67.91208791208791,NA
68022,Douglas County,NE,NA,65.71428571428571,NA
89121,Clark County,NV,NA,23.076923076923077,NA
89128,Clark County,NV,NA,54.065934065934066,NA
89436,Washoe County,NV,60.86956521739131,NA,NA
03038,Rockingham County,NH,NA,71.42857142857143,NA
03055,Hillsborough County,NH,NA,36.92307692307693,NA
03063,Hillsborough County,NH,NA,71.86813186813187,32.467532467532465
03106,Merrimack County,NH,NA,NA,93.93939393939394
03825,Strafford County,NH,NA,88.13186813186813,NA
03865,Rockingham County,NH,NA,55.824175824175825,NA
07003,Essex County,NJ,NA,NA,77.92207792207793
07004,Essex County,NJ,84.34782608695653,NA,NA
07030,Hudson County,NJ,NA,72.08791208791209,NA
07032,Hudson County,NJ,17.391304347826086,NA,NA
07043,Essex County,NJ,NA,74.94505494505495,NA
07050,Essex County,NJ,NA,NA,77.48917748917748
07076,Union County,NJ,81.73913043478261,NA,NA
07109,Essex County,NJ,NA,NA,23.376623376623375
07442,Passaic County,NJ,NA,NA,74.02597402597402
07502,Passaic County,NJ,NA,55.38461538461539,NA
07508,Passaic County,NJ,NA,89.23076923076924,NA
07644,Bergen County,NJ,NA,NA,73.16017316017316
07652,Bergen County,NJ,NA,19.78021978021978,NA
07656,Bergen County,NJ,NA,NA,75.75757575757575
07746,Monmouth County,NJ,NA,NA,59.307359307359306
07840,Warren County,NJ,NA,98.24175824175823,77.05627705627705
07849,Morris County,NJ,83.91304347826087,NA,NA
07920,Somerset County,NJ,NA,96.48351648351648,NA
07922,Union County,NJ,NA,85.05494505494505,NA
08003,Camden County,NJ,NA,NA,48.484848484848484
08010,Burlington County,NJ,NA,60.21978021978022,NA
08021,Camden County,NJ,NA,6.373626373626373,NA
08048,Burlington County,NJ,NA,68.57142857142857,NA
08093,Gloucester County,NJ,NA,76.703296703296715,NA
08312,Gloucester County,NJ,NA,77.14285714285715,NA
08360,Cumberland County,NJ,NA,7.032967032967033,NA
08527,Ocean County,NJ,6.521739130434782,NA,NA
08540,Mercer County,NJ,NA,NA,26.406926406926406
08619,Mercer County,NJ,NA,43.73626373626374,NA
08731,Ocean County,NJ,57.826086956521735,NA,NA
08742,Ocean County,NJ,NA,NA,27.27272727272727
08801,Hunterdon County,NJ,NA,NA,71.42857142857143
08810,Middlesex County,NJ,NA,100,NA
08822,Hunterdon County,NJ,19.130434782608695,NA,NA
08886,Warren County,NJ,NA,NA,92.20779220779221
87120,Bernalillo County,NM,NA,NA,51.515151515151516
87501,Santa Fe County,NM,NA,52.307692307692314,NA
87505,Santa Fe County,NM,NA,4.835164835164836,NA
88063,Doa Ana County,NM,80.43478260869566,NA,NA
10002,New York County,NY,NA,2.6373626373626373,NA
10014,New York County,NY,NA,NA,54.54545454545454
10019,New York County,NY,NA,68.79120879120879,NA
10024,New York County,NY,NA,18.461538461538463,NA
10031,New York County,NY,40.43478260869565,NA,NA
10035,New York County,NY,2.1739130434782608,NA,NA
10305,Richmond County,NY,NA,NA,95.67099567099568
10457,Bronx County,NY,NA,NA,7.35930735930736
10469,Bronx County,NY,NA,5.274725274725275,NA
10523,Westchester County,NY,NA,NA,85.71428571428571
10550,Westchester County,NY,NA,17.582417582417584,NA
10598,Westchester County,NY,NA,NA,30.303030303030305
10704,Westchester County,NY,NA,NA,40.692640692640694
10941,Orange County,NY,62.17391304347826,NA,NA
11040,Nassau County,NY,NA,NA,90.04329004329004
11103,Queens County,NY,NA,95.16483516483515,NA
11104,Queens County,NY,NA,NA,75.32467532467533
11208,Kings County,NY,NA,1.3186813186813187,NA
11214,Kings County,NY,NA,NA,5.194805194805195
11216,Kings County,NY,NA,6.153846153846154,NA
11217,Kings County,NY,29.565217391304348,NA,NA
11223,Kings County,NY,NA,NA,4.329004329004329
11224,Kings County,NY,71.73913043478261,64.3956043956044,NA
11229,Kings County,NY,NA,NA,17.316017316017316
11234,Kings County,NY,14.782608695652174,NA,NA
11370,Queens County,NY,NA,NA,52.81385281385281
11375,Queens County,NY,NA,NA,72.2943722943723
11385,Queens County,NY,NA,NA,31.16883116883117
11432,Queens County,NY,NA,5.934065934065933,NA
11433,Queens County,NY,NA,NA,24.242424242424242
11501,Nassau County,NY,89.56521739130436,NA,NA
11542,Nassau County,NY,NA,40.43956043956044,NA
11575,Nassau County,NY,56.52173913043478,NA,NA
11580,Nassau County,NY,68.69565217391305,NA,NA
11721,Suffolk County,NY,NA,99.34065934065934,NA
11731,Suffolk County,NY,NA,NA,55.84415584415584
11741,Suffolk County,NY,NA,50.76923076923077,NA
11743,Suffolk County,NY,NA,NA,98.26839826839827
11746,Suffolk County,NY,NA,NA,36.36363636363637
11752,Suffolk County,NY,NA,85.71428571428571,NA
11755,Suffolk County,NY,NA,NA,99.13419913419914
11764,Suffolk County,NY,NA,NA,100
11768,Suffolk County,NY,NA,95.82417582417582,NA
11791,Nassau County,NY,92.6086956521739,NA,NA
11933,Suffolk County,NY,NA,NA,99.56709956709958
11946,Suffolk County,NY,NA,89.45054945054946,NA
11949,Suffolk County,NY,86.95652173913044,NA,NA
11963,Suffolk County,NY,NA,92.08791208791209,NA
12037,Columbia County,NY,NA,NA,83.54978354978356
12144,Rensselaer County,NY,NA,NA,47.18614718614719
12303,Schenectady County,NY,NA,NA,29.87012987012987
12401,Ulster County,NY,16.956521739130434,NA,NA
12533,Dutchess County,NY,NA,69.89010989010988,NA
12603,Dutchess County,NY,NA,NA,31.601731601731604
12804,Warren County,NY,NA,32.30769230769231,NA
12866,Saratoga County,NY,NA,7.9120879120879115,NA
13021,Cayuga County,NY,NA,1.7582417582417582,NA
13082,Madison County,NY,NA,90.32967032967034,NA
13152,Onondaga County,NY,NA,65.27472527472527,NA
13205,Onondaga County,NY,50.8695652173913,NA,NA
13210,Onondaga County,NY,26.521739130434785,NA,NA
13403,Oneida County,NY,NA,56.48351648351648,NA
13601,Jefferson County,NY,NA,13.406593406593407,NA
13642,St. Lawrence County,NY,53.91304347826087,NA,NA
13760,Broome County,NY,NA,0.43956043956043955,NA
14036,Genesee County,NY,70.43478260869566,NA,NA
14040,Genesee County,NY,NA,94.06593406593406,NA
14043,Erie County,NY,NA,21.978021978021978,NA
14075,Erie County,NY,NA,41.97802197802198,NA
14127,Erie County,NY,33.91304347826087,11.20879120879121,NA
14207,Erie County,NY,5.6521739130434785,NA,NA
14216,Erie County,NY,21.304347826086957,NA,NA
14435,Livingston County,NY,NA,81.31868131868131,NA
14502,Wayne County,NY,NA,NA,83.98268398268398
14580,Monroe County,NY,NA,NA,45.887445887445885
14612,Monroe County,NY,NA,59.34065934065934,NA
14616,Monroe County,NY,12.173913043478262,NA,NA
14624,Monroe County,NY,NA,13.186813186813188,NA
14716,Chautauqua County,NY,94.78260869565217,NA,NA
27105,Forsyth County,NC,NA,42.417582417582416,NA
27258,Alamance County,NC,NA,64.83516483516483,NA
27262,Guilford County,NC,30,NA,NA
27265,Guilford County,NC,NA,10.76923076923077,NA
27288,Rockingham County,NC,NA,46.59340659340659,NA
27320,Rockingham County,NC,NA,NA,2.5974025974025974
27330,Lee County,NC,NA,18.681318681318682,NA
27350,Randolph County,NC,NA,76.26373626373626,NA
27360,Davidson County,NC,NA,3.7362637362637363,8.225108225108226
27376,Moore County,NC,NA,83.95604395604396,NA
27403,Guilford County,NC,NA,98.9010989010989,NA
27406,Guilford County,NC,NA,77.58241758241759,NA
27501,Harnett County,NC,93.91304347826087,NA,NA
27502,Wake County,NC,NA,30.32967032967033,NA
27516,Orange County,NC,NA,9.010989010989011,NA
27519,Wake County,NC,37.391304347826086,NA,NA
27539,Wake County,NC,NA,97.14285714285714,NA
27592,Wake County,NC,59.56521739130435,NA,NA
27604,Wake County,NC,24.347826086956523,NA,NA
27610,Wake County,NC,NA,41.75824175824176,NA
27616,Wake County,NC,NA,NA,66.66666666666666
27707,Durham County,NC,NA,63.07692307692307,NA
27803,Nash County,NC,NA,34.94505494505494,NA
27822,Wilson County,NC,NA,93.84615384615384,NA
27831,Northampton County,NC,NA,90.10989010989012,NA
27870,Halifax County,NC,NA,76.92307692307693,NA
27948,Dare County,NC,NA,53.84615384615385,NA
27959,Dare County,NC,NA,99.56043956043956,NA
28043,Rutherford County,NC,NA,30.54945054945055,NA
28054,Gaston County,NC,14.347826086956522,NA,NA
28079,Union County,NC,36.08695652173913,NA,NA
28083,Cabarrus County,NC,NA,16.483516483516482,NA
28212,Mecklenburg County,NC,NA,43.51648351648352,NA
28270,Mecklenburg County,NC,47.82608695652174,NA,NA
28328,Sampson County,NC,NA,16.7032967032967,NA
28348,Cumberland County,NC,NA,29.67032967032967,NA
28405,New Hanover County,NC,NA,51.64835164835166,NA
28425,Pender County,NC,NA,NA,70.56277056277057
28467,Brunswick County,NC,NA,NA,59.74025974025974
28513,Pitt County,NC,65.21739130434783,NA,NA
28607,Watauga County,NC,NA,27.912087912087912,NA
28675,Alleghany County,NC,NA,39.34065934065934,NA
28721,Haywood County,NC,82.6086956521739,NA,NA
28752,McDowell County,NC,10.434782608695652,NA,NA
28792,Henderson County,NC,NA,NA,7.792207792207792
43062,Licking County,OH,70.86956521739131,NA,NA
43110,Franklin County,OH,NA,48.79120879120879,NA
43207,Franklin County,OH,NA,NA,14.71861471861472
43214,Franklin County,OH,36.95652173913043,NA,NA
43219,Franklin County,OH,NA,26.153846153846157,NA
43224,Franklin County,OH,NA,NA,54.97835497835498
43228,Franklin County,OH,NA,9.230769230769232,NA
43230,Franklin County,OH,NA,10.54945054945055,NA
43420,Sandusky County,OH,NA,39.56043956043956,NA
43512,Defiance County,OH,NA,NA,10.38961038961039
43606,Lucas County,OH,NA,NA,72.72727272727273
43953,Jefferson County,OH,NA,70.1098901098901,NA
44077,Lake County,OH,NA,2.417582417582418,NA
44105,Cuyahoga County,OH,NA,0.6593406593406593,NA
44109,Cuyahoga County,OH,NA,1.5384615384615385,NA
44112,Cuyahoga County,OH,NA,3.5164835164835164,NA
44124,Cuyahoga County,OH,20.434782608695652,NA,NA
44149,Cuyahoga County,OH,NA,12.747252747252746,NA
44260,Portage County,OH,NA,45.934065934065934,NA
44266,Portage County,OH,NA,25.054945054945055,NA
44273,Medina County,OH,NA,62.417582417582416,NA
44301,Summit County,OH,NA,40.65934065934066,NA
44312,Summit County,OH,NA,7.472527472527473,NA
44313,Summit County,OH,NA,NA,11.688311688311687
44425,Trumbull County,OH,23.043478260869566,NA,NA
44514,Mahoning County,OH,NA,22.63736263736264,NA
44707,Stark County,OH,46.08695652173913,NA,NA
44903,Richland County,OH,NA,NA,37.66233766233766
45013,Butler County,OH,NA,NA,22.07792207792208
45036,Warren County,OH,16.08695652173913,NA,NA
45206,Hamilton County,OH,NA,92.52747252747253,NA
45211,Hamilton County,OH,NA,NA,63.63636363636363
45244,Hamilton County,OH,NA,73.18681318681318,NA
45323,Clark County,OH,91.30434782608695,NA,NA
45371,Miami County,OH,NA,83.2967032967033,NA
45377,Montgomery County,OH,58.26086956521739,NA,NA
45439,Montgomery County,OH,NA,59.78021978021978,NA
45440,Montgomery County,OH,NA,87.6923076923077,NA
45601,Ross County,OH,NA,NA,0
73003,Oklahoma County,OK,69.56521739130434,NA,NA
73072,Cleveland County,OK,NA,20.659340659340657,NA
73098,Garvin County,OK,NA,87.91208791208791,NA
73130,Oklahoma County,OK,NA,35.38461538461539,NA
73162,Oklahoma County,OK,NA,88.79120879120879,NA
74055,Tulsa County,OK,NA,49.67032967032967,NA
74105,Tulsa County,OK,NA,36.26373626373626,NA
97013,Clackamas County,OR,45.21739130434783,NA,NA
97051,Columbia County,OR,50,NA,NA
97071,Marion County,OR,NA,NA,86.14718614718615
97128,Yamhill County,OR,NA,21.0989010989011,NA
97201,Multnomah County,OR,NA,77.36263736263737,NA
97202,Multnomah County,OR,NA,NA,69.6969696969697
97212,Multnomah County,OR,NA,NA,81.38528138528139
97222,Clackamas County,OR,22.608695652173914,NA,NA
97229,Washington County,OR,NA,26.813186813186814,NA
97230,Multnomah County,OR,NA,10.329670329670328,NA
97233,Multnomah County,OR,NA,26.373626373626376,NA
97338,Polk County,OR,NA,58.901098901098905,NA
97355,Linn County,OR,78.26086956521739,NA,NA
97362,Marion County,OR,90.43478260869566,NA,NA
97402,Lane County,OR,NA,NA,6.926406926406926
97471,Douglas County,OR,NA,4.615384615384616,NA
97487,Lane County,OR,NA,98.68131868131869,NA
97504,Jackson County,OR,NA,NA,3.463203463203463
97703,Deschutes County,OR,100,NA,NA
15010,Beaver County,PA,17.82608695652174,NA,NA
15033,Washington County,PA,87.82608695652175,NA,NA
15045,Allegheny County,PA,NA,76.04395604395604,NA
15219,Allegheny County,PA,NA,38.901098901098905,NA
15235,Allegheny County,PA,83.47826086956522,NA,NA
15425,Fayette County,PA,NA,46.81318681318681,NA
16117,Lawrence County,PA,40,NA,NA
16502,Erie County,PA,31.73913043478261,NA,NA
16801,Centre County,PA,60,NA,NA
16915,Potter County,PA,NA,51.868131868131876,NA
17013,Cumberland County,PA,16.52173913043478,NA,NA
17033,Dauphin County,PA,NA,44.395604395604394,NA
17038,Lebanon County,PA,NA,97.58241758241758,NA
17074,Perry County,PA,78.69565217391305,NA,NA
17320,Adams County,PA,NA,NA,88.31168831168831
17331,York County,PA,NA,1.098901098901099,NA
17815,Columbia County,PA,NA,91.42857142857143,NA
17821,Montour County,PA,NA,10.989010989010989,NA
18088,Northampton County,PA,NA,47.25274725274725,NA
18104,Lehigh County,PA,9.130434782608695,NA,NA
18201,Luzerne County,PA,NA,NA,25.541125541125542
18964,Montgomery County,PA,NA,67.47252747252747,NA
19014,Delaware County,PA,NA,NA,39.39393939393939
19056,Bucks County,PA,NA,47.69230769230769,NA
19061,Delaware County,PA,NA,NA,46.75324675324675
19072,Montgomery County,PA,NA,NA,91.77489177489177
19106,Philadelphia County,PA,NA,50.32967032967033,NA
19115,Philadelphia County,PA,NA,NA,9.956709956709958
19132,Philadelphia County,PA,3.4782608695652173,NA,NA
19134,Philadelphia County,PA,NA,37.582417582417584,NA
19148,Philadelphia County,PA,NA,10.10989010989011,NA
19149,Philadelphia County,PA,NA,72.96703296703296,NA
19152,Philadelphia County,PA,NA,66.59340659340658,NA
19462,Montgomery County,PA,70,NA,NA
19468,Montgomery County,PA,NA,NA,39.82683982683983
19475,Chester County,PA,NA,NA,62.77056277056276
02863,Providence County,RI,NA,69.45054945054945,NA
02879,Washington County,RI,NA,NA,27.705627705627705
02919,Providence County,RI,NA,22.197802197802197,NA
29033,Lexington County,SC,NA,65.27472527472527,NA
29115,Orangeburg County,SC,NA,53.40659340659341,NA
29154,Sumter County,SC,39.565217391304344,NA,NA
29229,Richland County,SC,NA,NA,40.25974025974026
29485,Dorchester County,SC,NA,51.208791208791204,NA
29550,Darlington County,SC,NA,16.263736263736263,NA
29576,Horry County,SC,NA,NA,12.554112554112553
29615,Greenville County,SC,NA,28.35164835164835,NA
29645,Laurens County,SC,NA,97.8021978021978,NA
29657,Pickens County,SC,NA,47.91208791208791,NA
29661,Greenville County,SC,NA,91.64835164835165,NA
29669,Anderson County,SC,NA,94.28571428571428,NA
29687,Greenville County,SC,NA,NA,13.41991341991342
29720,Lancaster County,SC,33.04347826086956,NA,NA
29745,York County,SC,NA,NA,64.5021645021645
29803,Aiken County,SC,NA,7.252747252747254,NA
29926,Beaufort County,SC,NA,NA,30.735930735930733
57103,Minnehaha County,SD,NA,3.296703296703297,NA
57110,Minnehaha County,SD,NA,49.45054945054945,NA
57301,Davison County,SD,NA,85.27472527472527,NA
57703,Pennington County,SD,79.13043478260869,NA,NA
37073,Robertson County,TN,NA,56.26373626373626,NA
37127,Rutherford County,TN,NA,61.53846153846154,NA
37129,Rutherford County,TN,11.304347826086957,NA,NA
37186,Sumner County,TN,88.69565217391305,NA,NA
37211,Davidson County,TN,NA,15.384615384615385,NA
37379,Hamilton County,TN,30.869565217391305,NA,NA
37385,Monroe County,TN,76.95652173913044,NA,NA
37415,Hamilton County,TN,NA,44.61538461538462,NA
37601,Washington County,TN,NA,8.791208791208792,NA
37617,Sullivan County,TN,NA,72.3076923076923,NA
37618,Sullivan County,TN,73.47826086956522,NA,NA
37643,Carter County,TN,NA,NA,15.584415584415584
37650,Unicoi County,TN,NA,35.16483516483517,NA
37725,Jefferson County,TN,72.17391304347827,NA,NA
37745,Greene County,TN,44.78260869565218,NA,NA
37766,Campbell County,TN,NA,19.340659340659343,NA
37774,Loudon County,TN,33.47826086956522,NA,NA
37863,Sevier County,TN,66.95652173913044,NA,NA
38301,Madison County,TN,NA,12.527472527472527,NA
38372,Hardin County,TN,NA,90.76923076923077,NA
38401,Maury County,TN,NA,NA,16.450216450216452
38583,White County,TN,92.17391304347827,NA,NA
75071,Collin County,TX,49.56521739130435,NA,NA
75115,Dallas County,TX,NA,NA,19.480519480519483
75116,Dallas County,TX,NA,84.3956043956044,NA
75148,Henderson County,TX,NA,NA,65.80086580086581
75154,Ellis County,TX,NA,NA,86.58008658008657
75243,Dallas County,TX,NA,34.505494505494504,NA
75503,Bowie County,TX,71.30434782608695,NA,NA
75765,Wood County,TX,NA,60.43956043956044,NA
75966,Newton County,TX,NA,95.6043956043956,NA
76002,Tarrant County,TX,NA,70.76923076923077,NA
76016,Tarrant County,TX,NA,17.802197802197803,NA
76087,Parker County,TX,NA,32.08791208791209,NA
76119,Tarrant County,TX,NA,27.692307692307693,NA
76126,Tarrant County,TX,NA,75.38461538461539,NA
76424,Stephens County,TX,NA,NA,80.51948051948052
77013,Harris County,TX,NA,78.46153846153847,NA
77014,Harris County,TX,46.95652173913044,NA,NA
77016,Harris County,TX,85.21739130434783,NA,NA
77018,Harris County,TX,32.17391304347826,NA,NA
77035,Harris County,TX,95.65217391304348,NA,NA
77054,Harris County,TX,63.47826086956522,NA,NA
77063,Harris County,TX,55.21739130434783,NA,NA
77074,Harris County,TX,64.34782608695652,NA,NA
77077,Harris County,TX,NA,NA,32.900432900432904
77079,Harris County,TX,NA,NA,46.320346320346324
77080,Harris County,TX,NA,73.84615384615385,NA
77082,Harris County,TX,NA,NA,51.515151515151516
77089,Harris County,TX,NA,24.615384615384617,NA
77091,Harris County,TX,NA,NA,48.917748917748916
77099,Harris County,TX,NA,79.34065934065934,NA
77338,Harris County,TX,NA,NA,84.84848484848484
77381,Montgomery County,TX,56.086956521739125,NA,NA
77396,Harris County,TX,NA,NA,73.59307359307358
77461,Fort Bend County,TX,NA,79.56043956043956,NA
77477,Fort Bend County,TX,NA,59.56043956043956,NA
77478,Fort Bend County,TX,NA,74.06593406593407,NA
77489,Fort Bend County,TX,NA,NA,67.09956709956711
77505,Harris County,TX,NA,49.01098901098901,NA
77563,Galveston County,TX,61.30434782608696,NA,NA
77584,Brazoria County,TX,43.47826086956522,NA,NA
77845,Brazos County,TX,56.95652173913044,NA,NA
78212,Bexar County,TX,NA,NA,70.12987012987013
78214,Bexar County,TX,53.04347826086957,NA,NA
78230,Bexar County,TX,NA,45.05494505494506,NA
78249,Bexar County,TX,73.91304347826086,NA,NA
78384,Duval County,TX,NA,88.35164835164835,NA
78413,Nueces County,TX,NA,84.61538461538461,NA
78415,Nueces County,TX,NA,39.120879120879124,NA
78541,Hidalgo County,TX,NA,90.54945054945055,NA
78574,Hidalgo County,TX,NA,NA,67.53246753246754
78599,Hidalgo County,TX,NA,NA,79.22077922077922
78640,Hays County,TX,NA,31.428571428571427,NA
78665,Williamson County,TX,NA,63.29670329670329,NA
78731,Travis County,TX,NA,72.52747252747253,NA
78754,Travis County,TX,77.82608695652173,NA,NA
78861,Medina County,TX,NA,68.35164835164835,NA
79119,Randall County,TX,NA,94.5054945054945,NA
79416,Lubbock County,TX,NA,NA,23.809523809523807
79424,Lubbock County,TX,NA,57.58241758241758,NA
79766,Ector County,TX,77.39130434782608,NA,NA
79915,El Paso County,TX,NA,NA,11.255411255411255
79936,El Paso County,TX,49.130434782608695,14.065934065934066,NA
84003,Utah County,UT,NA,48.13186813186813,NA
84054,Davis County,UT,NA,58.681318681318686,NA
84065,Salt Lake County,UT,58.69565217391305,NA,NA
84084,Salt Lake County,UT,NA,30.76923076923077,NA
20170,Fairfax County,VA,53.47826086956522,NA,NA
20176,Loudoun County,VA,NA,69.01098901098901,NA
20186,Fauquier County,VA,99.1304347826087,NA,NA
22191,Prince William County,VA,NA,73.4065934065934,NA
22192,Prince William County,VA,NA,80.65934065934066,NA
22405,Stafford County,VA,NA,41.098901098901095,NA
22407,Spotsylvania County,VA,NA,13.846153846153847,NA
22443,Westmoreland County,VA,NA,69.23076923076923,NA
22580,Caroline County,VA,90.43478260869566,NA,NA
22980,Waynesboro city,VA,NA,NA,1.7316017316017316
23139,Powhatan County,VA,80,NA,41.125541125541126
23229,Henrico County,VA,NA,32.527472527472526,NA
23455,Virginia Beach city,VA,NA,NA,12.121212121212121
23663,Hampton city,VA,NA,NA,57.57575757575758
23666,Hampton city,VA,NA,NA,32.03463203463203
23872,Dinwiddie County,VA,NA,98.46153846153847,NA
24012,Roanoke city,VA,22.17391304347826,NA,NA
24348,Grayson County,VA,NA,87.25274725274726,NA
24477,Augusta County,VA,NA,NA,53.246753246753244
24540,Danville city,VA,NA,62.857142857142854,NA
98008,King County,WA,NA,81.97802197802197,NA
98026,Snohomish County,WA,NA,24.175824175824175,NA
98033,King County,WA,NA,23.516483516483515,NA
98059,King County,WA,NA,63.73626373626373,NA
98102,King County,WA,NA,51.42857142857142,NA
98115,King County,WA,NA,86.15384615384616,NA
98133,King County,WA,NA,NA,8.658008658008658
98146,King County,WA,96.95652173913044,NA,NA
98225,Whatcom County,WA,83.04347826086956,NA,NA
98248,Whatcom County,WA,NA,70.54945054945055,NA
98261,San Juan County,WA,NA,92.74725274725274,NA
98282,Island County,WA,NA,NA,89.17748917748918
98354,Pierce County,WA,NA,56.043956043956044,NA
98368,Jefferson County,WA,85.65217391304348,NA,NA
98422,Pierce County,WA,NA,49.89010989010989,NA
98445,Pierce County,WA,NA,NA,87.44588744588745
98597,Thurston County,WA,NA,77.80219780219781,NA
98902,Yakima County,WA,NA,89.8901098901099,NA
99223,Spokane County,WA,NA,40.879120879120876,NA
25801,Raleigh County,WV,NA,7.6923076923076925,NA
25901,Fayette County,WV,34.78260869565217,NA,NA
26101,Wood County,WV,NA,4.395604395604396,NA
26452,Lewis County,WV,NA,92.96703296703296,NA
26505,Monongalia County,WV,NA,NA,13.852813852813853
26554,Marion County,WV,NA,NA,0.8658008658008658
53086,Washington County,WI,NA,76.48351648351648,NA
53092,Ozaukee County,WI,NA,31.868131868131865,NA
53115,Walworth County,WI,37.826086956521735,NA,NA
53210,Milwaukee County,WI,5.217391304347826,NA,NA
53215,Milwaukee County,WI,NA,NA,6.0606060606060606
53224,Milwaukee County,WI,NA,39.78021978021978,NA
53533,Iowa County,WI,NA,89.67032967032968,NA
53704,Dane County,WI,NA,12.087912087912088,NA
54115,Brown County,WI,63.04347826086957,NA,NA
54426,Marathon County,WI,NA,94.72527472527472,NA
54449,Wood County,WI,73.04347826086956,NA,NA
54494,Wood County,WI,NA,42.637362637362635,NA
54601,La Crosse County,WI,NA,NA,3.0303030303030303
54650,La Crosse County,WI,NA,NA,81.81818181818183
54656,Monroe County,WI,NA,80,NA
54661,Trempealeau County,WI,88.26086956521739,NA,NA
54806,Ashland County,WI,NA,61.75824175824176,NA
54901,Winnebago County,WI,NA,21.318681318681318,NA
54914,Outagamie County,WI,18.695652173913043,NA,NA
54961,Waupaca County,WI,NA,35.604395604395606,NA
82401,Washakie County,WY,97.3913043478261,NA,NA
