ZipCode,county,state,Adult,Retirement,Geriatric
35022,Jefferson County,AL,NA,40.93097913322632,NA
35034,Bibb County,AL,NA,NA,96.53179190751445
35150,Talladega County,AL,27.113702623906704,NA,NA
35242,Shelby County,AL,NA,35.63402889245586,NA
35404,Tuscaloosa County,AL,NA,25.20064205457464,NA
35405,Tuscaloosa County,AL,NA,79.45425361155698,NA
35601,Morgan County,AL,NA,38.84430176565008,NA
35603,Morgan County,AL,NA,NA,24.85549132947977
35758,Madison County,AL,NA,30.01605136436597,NA
36054,Elmore County,AL,NA,52.32744783306581,NA
36066,Autauga County,AL,62.973760932944614,NA,NA
36109,Montgomery County,AL,NA,NA,85.83815028901735
36420,Covington County,AL,38.775510204081634,NA,NA
36421,Covington County,AL,NA,79.61476725521669,56.358381502890175
36526,Baldwin County,AL,NA,31.13964686998395,NA
36618,Mobile County,AL,NA,72.23113964686998,NA
36701,Dallas County,AL,NA,NA,82.65895953757226
36870,Lee County,AL,NA,77.04654895666133,NA
85020,Maricopa County,AZ,NA,NA,36.99421965317919
85024,Maricopa County,AZ,NA,NA,92.48554913294798
85086,Maricopa County,AZ,93.58600583090379,NA,NA
85122,Pinal County,AZ,35.8600583090379,NA,NA
85128,Pinal County,AZ,NA,NA,73.98843930635837
85203,Maricopa County,AZ,53.06122448979592,40.44943820224719,NA
85204,Maricopa County,AZ,29.737609329446062,NA,NA
85248,Maricopa County,AZ,NA,91.17174959871589,NA
85345,Maricopa County,AZ,NA,8.346709470304976,30.63583815028902
85351,Maricopa County,AZ,NA,7.3836276083467105,NA
85365,Yuma County,AZ,NA,14.767255216693421,NA
85373,Maricopa County,AZ,82.21574344023324,NA,NA
85383,Maricopa County,AZ,NA,57.62439807383628,NA
85390,Maricopa County,AZ,NA,51.68539325842697,NA
85546,Graham County,AZ,34.98542274052478,NA,NA
85718,Pima County,AZ,NA,NA,80.34682080924856
85739,Pinal County,AZ,94.75218658892129,NA,NA
85743,Pima County,AZ,84.8396501457726,NA,NA
85750,Pima County,AZ,51.02040816326531,NA,NA
85757,Pima County,AZ,NA,42.69662921348314,NA
85924,Apache County,AZ,NA,95.18459069020867,NA
86401,Mohave County,AZ,NA,NA,34.68208092485549
71603,Jefferson County,AR,22.157434402332363,NA,NA
72007,Lonoke County,AR,NA,90.85072231139647,NA
72143,White County,AR,NA,NA,4.624277456647398
72476,Lawrence County,AR,NA,78.81219903691814,NA
72704,Washington County,AR,NA,67.57624398073835,NA
72764,Washington County,AR,24.198250728862973,NA,NA
72801,Pope County,AR,NA,98.5553772070626,NA
72823,Pope County,AR,NA,76.40449438202246,NA
90025,Los Angeles County,CA,NA,76.56500802568218,NA
90027,Los Angeles County,CA,NA,43.33868378812199,NA
90029,Los Angeles County,CA,NA,NA,31.213872832369944
90039,Los Angeles County,CA,NA,87.31942215088283,NA
90040,Los Angeles County,CA,NA,93.25842696629213,NA
90042,Los Angeles County,CA,NA,NA,75.72254335260115
90201,Los Angeles County,CA,NA,NA,45.664739884393065
90249,Los Angeles County,CA,63.26530612244898,NA,NA
90266,Los Angeles County,CA,NA,81.54093097913324,NA
90630,Orange County,CA,32.94460641399417,NA,NA
90703,Los Angeles County,CA,NA,75.60192616372392,NA
90808,Los Angeles County,CA,NA,83.94863563402889,NA
90813,Los Angeles County,CA,NA,37.56019261637239,NA
91016,Los Angeles County,CA,41.98250728862974,NA,NA
91030,Los Angeles County,CA,NA,80.89887640449437,71.67630057803468
91107,Los Angeles County,CA,NA,65.32905296950241,NA
91201,Los Angeles County,CA,NA,54.574638844301774,NA
91311,Los Angeles County,CA,NA,41.091492776886035,NA
91343,Los Angeles County,CA,35.56851311953353,NA,60.69364161849711
91367,Los Angeles County,CA,NA,39.48635634028893,16.184971098265898
91402,Los Angeles County,CA,NA,26.64526484751204,NA
91423,Los Angeles County,CA,72.30320699708454,46.869983948635635,NA
91504,Los Angeles County,CA,NA,NA,62.138728323699425
91709,San Bernardino County,CA,NA,NA,33.23699421965318
91710,San Bernardino County,CA,23.9067055393586,NA,NA
91739,San Bernardino County,CA,NA,48.47512038523274,NA
91741,Los Angeles County,CA,62.390670553935855,40.77046548956662,NA
91750,Los Angeles County,CA,81.63265306122449,NA,NA
91754,Los Angeles County,CA,NA,71.74959871589085,NA
91761,San Bernardino County,CA,76.38483965014578,NA,NA
91765,Los Angeles County,CA,48.97959183673469,NA,NA
91770,Los Angeles County,CA,35.27696793002916,NA,NA
91910,San Diego County,CA,15.743440233236154,NA,NA
91945,San Diego County,CA,45.18950437317784,NA,NA
91977,San Diego County,CA,NA,21.990369181380416,NA
92014,San Diego County,CA,NA,69.02086677367576,NA
92115,San Diego County,CA,NA,89.7271268057785,NA
92126,San Diego County,CA,NA,68.69983948635634,34.971098265895954
92131,San Diego County,CA,NA,60.99518459069021,NA
92203,Riverside County,CA,75.51020408163265,NA,NA
92243,Imperial County,CA,NA,NA,47.10982658959538
92336,San Bernardino County,CA,NA,87.1589085072231,NA
92345,San Bernardino County,CA,5.247813411078718,11.075441412520064,NA
92374,San Bernardino County,CA,90.37900874635568,NA,NA
92399,San Bernardino County,CA,NA,15.569823434991974,NA
92407,San Bernardino County,CA,NA,NA,76.58959537572254
92506,Riverside County,CA,NA,32.42375601926163,NA
92532,Riverside County,CA,93.00291545189503,NA,NA
92544,Riverside County,CA,NA,NA,50.57803468208093
92555,Riverside County,CA,44.606413994169095,NA,NA
92612,Orange County,CA,NA,68.0577849117175,NA
92630,Orange County,CA,NA,80.25682182985554,NA
92648,Orange County,CA,NA,NA,17.63005780346821
92651,Orange County,CA,NA,NA,99.71098265895954
92656,Orange County,CA,NA,NA,92.77456647398844
92663,Orange County,CA,NA,99.19743178170144,NA
92677,Orange County,CA,NA,31.942215088282506,NA
92691,Orange County,CA,NA,17.014446227929376,NA
92804,Orange County,CA,NA,69.34189406099517,NA
92807,Orange County,CA,NA,31.30016051364366,NA
92841,Orange County,CA,NA,49.919743178170144,NA
92880,Riverside County,CA,12.82798833819242,NA,NA
93012,Ventura County,CA,NA,62.11878009630819,NA
93013,Santa Barbara County,CA,91.83673469387756,NA,NA
93021,Ventura County,CA,44.89795918367347,NA,NA
93033,Ventura County,CA,NA,NA,49.71098265895954
93111,Santa Barbara County,CA,NA,NA,53.46820809248555
93212,Kings County,CA,NA,72.71268057784911,NA
93221,Tulare County,CA,NA,97.1107544141252,NA
93245,Kings County,CA,NA,56.5008025682183,NA
93277,Tulare County,CA,16.034985422740526,NA,NA
93305,Kern County,CA,NA,44.301765650080256,NA
93312,Kern County,CA,25.65597667638484,NA,NA
93422,San Luis Obispo County,CA,NA,35.63402889245586,NA
93552,Los Angeles County,CA,NA,79.7752808988764,NA
94115,San Francisco County,CA,59.475218658892125,NA,NA
94132,San Francisco County,CA,NA,NA,32.080924855491325
94303,San Mateo County,CA,59.183673469387756,NA,NA
94509,Contra Costa County,CA,12.244897959183673,NA,NA
94520,Contra Costa County,CA,NA,NA,57.80346820809249
94521,Contra Costa County,CA,92.12827988338192,NA,NA
94541,Alameda County,CA,NA,13.964686998394862,NA
94544,Alameda County,CA,NA,NA,18.20809248554913
94547,Contra Costa County,CA,NA,60.35313001605136,NA
94553,Contra Costa County,CA,NA,NA,65.02890173410405
94558,Napa County,CA,96.20991253644316,NA,NA
94560,Alameda County,CA,NA,37.07865168539326,NA
94563,Contra Costa County,CA,NA,NA,67.63005780346822
94564,Contra Costa County,CA,NA,51.04333868378812,NA
94566,Alameda County,CA,NA,29.534510433386842,NA
94589,Solano County,CA,NA,NA,34.104046242774565
94591,Solano County,CA,NA,NA,16.76300578034682
94601,Alameda County,CA,NA,84.59069020866774,NA
94618,Alameda County,CA,NA,78.330658105939,NA
94619,Alameda County,CA,NA,NA,65.3179190751445
94904,Marin County,CA,NA,NA,56.64739884393064
94949,Marin County,CA,NA,85.07223113964687,NA
95037,Santa Clara County,CA,NA,25.04012841091493,NA
95123,Santa Clara County,CA,NA,NA,55.202312138728324
95125,Santa Clara County,CA,NA,NA,22.254335260115607
95212,San Joaquin County,CA,82.21574344023324,NA,NA
95240,San Joaquin County,CA,31.778425655976676,NA,NA
95252,Calaveras County,CA,NA,NA,93.35260115606935
95327,Tuolumne County,CA,NA,NA,97.97687861271676
95341,Merced County,CA,42.27405247813411,NA,NA
95355,Stanislaus County,CA,4.373177842565598,6.260032102728733,NA
95356,Stanislaus County,CA,NA,NA,72.83236994219652
95380,Stanislaus County,CA,NA,69.82343499197432,NA
95383,Tuolumne County,CA,NA,NA,81.21387283236994
95453,Lake County,CA,NA,NA,88.4393063583815
95482,Mendocino County,CA,NA,47.19101123595505,NA
95632,Sacramento County,CA,NA,98.87640449438202,NA
95667,El Dorado County,CA,NA,NA,10.404624277456648
95687,Solano County,CA,85.71428571428571,44.46227929373997,NA
95747,Placer County,CA,NA,NA,8.38150289017341
95821,Sacramento County,CA,NA,74.79935794542536,NA
95826,Sacramento County,CA,NA,NA,44.21965317919075
95827,Sacramento County,CA,70.26239067055393,NA,NA
95901,Yuba County,CA,64.72303206997084,NA,NA
95926,Butte County,CA,NA,NA,58.38150289017341
95932,Colusa County,CA,NA,70.9470304975923,NA
95965,Butte County,CA,NA,23.434991974317818,32.947976878612714
96001,Shasta County,CA,NA,37.881219903691814,NA
80012,Arapahoe County,CO,25.072886297376094,NA,15.606936416184972
80015,Arapahoe County,CO,NA,16.37239165329053,NA
80016,Arapahoe County,CO,13.702623906705538,NA,NA
80210,Denver County,CO,NA,42.21508828250401,NA
80223,Denver County,CO,NA,68.86035313001605,NA
80231,Denver County,CO,72.01166180758017,NA,NA
80237,Denver County,CO,NA,72.3916532905297,NA
80249,Denver County,CO,70.8454810495627,NA,NA
80439,Jefferson County,CO,NA,NA,77.74566473988439
80615,Weld County,CO,65.88921282798835,NA,NA
80634,Weld County,CO,2.0408163265306123,11.878009630818621,NA
80911,El Paso County,CO,28.57142857142857,NA,NA
80923,El Paso County,CO,46.647230320699705,NA,67.05202312138728
81005,Pueblo County,CO,NA,18.940609951845907,NA
81007,Pueblo County,CO,NA,NA,42.77456647398844
06082,Hartford County,CT,NA,92.45585874799357,NA
06095,Hartford County,CT,NA,22.632423756019264,NA
06096,Hartford County,CT,NA,NA,64.16184971098265
06105,Hartford County,CT,39.067055393586,NA,NA
06111,Hartford County,CT,NA,33.86837881219903,NA
06114,Hartford County,CT,48.68804664723032,NA,NA
06118,Hartford County,CT,15.451895043731778,NA,NA
06410,New Haven County,CT,NA,32.58426966292135,NA
06413,Middlesex County,CT,NA,NA,37.283236994219656
06437,New Haven County,CT,NA,63.40288924558587,NA
06451,New Haven County,CT,NA,29.85553772070626,NA
06460,New Haven County,CT,NA,66.45264847512038,NA
06478,New Haven County,CT,NA,NA,86.70520231213872
06484,Fairfield County,CT,NA,NA,13.294797687861271
06512,New Haven County,CT,NA,71.26805778491172,12.427745664739884
06518,New Haven County,CT,NA,NA,26.589595375722542
06519,New Haven County,CT,NA,33.70786516853933,NA
06614,Fairfield County,CT,NA,25.36115569823435,NA
06704,New Haven County,CT,NA,NA,36.41618497109826
06708,New Haven County,CT,13.411078717201166,NA,NA
06787,Litchfield County,CT,NA,NA,57.22543352601156
06810,Fairfield County,CT,NA,43.17817014446228,NA
06811,Fairfield County,CT,NA,77.52808988764045,12.716763005780345
06851,Fairfield County,CT,98.25072886297376,NA,NA
19709,New Castle County,DE,NA,89.08507223113965,NA
19711,New Castle County,DE,NA,8.025682182985554,NA
19805,New Castle County,DE,NA,6.902086677367576,NA
19904,Kent County,DE,6.705539358600583,NA,52.601156069364166
19977,Kent County,DE,40.524781341107875,NA,NA
32034,Nassau County,FL,NA,30.337078651685395,NA
32063,Baker County,FL,NA,66.29213483146067,NA
32086,St. Johns County,FL,NA,NA,10.115606936416185
32117,Volusia County,FL,20.99125364431487,NA,NA
32162,Sumter County,FL,NA,1.1235955056179776,NA
32164,Flagler County,FL,NA,82.18298555377207,NA
32168,Volusia County,FL,NA,56.17977528089888,NA
32174,Volusia County,FL,NA,NA,6.069364161849711
32208,Duval County,FL,22.740524781341108,NA,NA
32327,Wakulla County,FL,59.475218658892125,NA,NA
32459,Walton County,FL,68.5131195335277,67.41573033707866,NA
32533,Escambia County,FL,NA,91.3322632423756,NA
32566,Santa Rosa County,FL,NA,NA,25.14450867052023
32570,Santa Rosa County,FL,41.39941690962099,NA,33.52601156069364
32578,Okaloosa County,FL,NA,42.375601926163725,NA
32606,Alachua County,FL,NA,21.669341894060995,NA
32640,Putnam County,FL,43.731778425655975,NA,NA
32707,Seminole County,FL,50.72886297376093,NA,NA
32714,Seminole County,FL,NA,49.75922953451043,NA
32725,Volusia County,FL,NA,30.17656500802568,NA
32746,Seminole County,FL,37.02623906705539,NA,NA
32803,Orange County,FL,NA,76.72552166934189,NA
32808,Orange County,FL,NA,19.42215088282504,NA
32809,Orange County,FL,33.52769679300292,NA,NA
32822,Orange County,FL,NA,19.903691813804173,NA
32825,Orange County,FL,20.11661807580175,NA,NA
32837,Orange County,FL,37.90087463556851,NA,NA
32926,Brevard County,FL,NA,35.15248796147672,NA
32953,Brevard County,FL,NA,15.08828250401284,NA
33012,Miami-Dade County,FL,57.14285714285714,NA,NA
33056,Miami-Dade County,FL,NA,NA,37.861271676300575
33073,Broward County,FL,NA,62.60032102728732,NA
33076,Broward County,FL,NA,NA,95.08670520231213
33140,Miami-Dade County,FL,81.34110787172013,NA,NA
33156,Miami-Dade County,FL,NA,43.01765650080257,NA
33157,Miami-Dade County,FL,NA,16.853932584269664,NA
33173,Miami-Dade County,FL,NA,NA,44.797687861271676
33178,Miami-Dade County,FL,54.81049562682215,NA,NA
33180,Miami-Dade County,FL,NA,NA,39.017341040462426
33186,Miami-Dade County,FL,81.04956268221575,NA,NA
33311,Broward County,FL,NA,15.569823434991974,NA
33312,Broward County,FL,22.448979591836736,80.73836276083468,NA
33319,Broward County,FL,NA,NA,14.450867052023122
33321,Broward County,FL,NA,47.03049759229535,NA
33325,Broward County,FL,74.9271137026239,NA,NA
33409,Palm Beach County,FL,NA,85.553772070626,NA
33433,Palm Beach County,FL,NA,NA,43.0635838150289
33442,Broward County,FL,NA,NA,7.225433526011561
33463,Palm Beach County,FL,NA,99.67897271268058,NA
33472,Palm Beach County,FL,NA,NA,64.45086705202311
33511,Hillsborough County,FL,NA,48.796147672552166,NA
33558,Hillsborough County,FL,NA,64.84751203852326,NA
33592,Hillsborough County,FL,79.30029154518951,NA,NA
33604,Hillsborough County,FL,NA,30.658105939004816,NA
33609,Hillsborough County,FL,NA,43.98073836276083,NA
33612,Hillsborough County,FL,53.352769679300295,NA,NA
33619,Hillsborough County,FL,NA,NA,97.6878612716763
33626,Hillsborough County,FL,79.00874635568513,NA,NA
33637,Hillsborough County,FL,NA,NA,82.08092485549133
33705,Pinellas County,FL,17.20116618075802,NA,NA
33711,Pinellas County,FL,NA,92.61637239165329,NA
33774,Pinellas County,FL,54.81049562682215,NA,NA
33811,Polk County,FL,52.76967930029155,NA,NA
33903,Lee County,FL,NA,24.398073836276083,NA
33904,Lee County,FL,24.78134110787172,NA,NA
33914,Lee County,FL,66.47230320699708,NA,NA
33950,Charlotte County,FL,NA,23.595505617977526,NA
33966,Lee County,FL,NA,72.71268057784911,NA
34112,Collier County,FL,NA,28.57142857142857,NA
34114,Collier County,FL,64.1399416909621,95.6661316211878,NA
34207,Manatee County,FL,NA,NA,41.90751445086705
34224,Charlotte County,FL,NA,NA,86.1271676300578
34231,Sarasota County,FL,NA,NA,3.1791907514450863
34233,Sarasota County,FL,NA,37.7207062600321,NA
34238,Sarasota County,FL,63.84839650145773,NA,NA
34293,Sarasota County,FL,NA,NA,19.36416184971098
34607,Hernando County,FL,NA,61.31621187800963,NA
34653,Pasco County,FL,18.075801749271136,NA,NA
34655,Pasco County,FL,NA,20.545746388443018,NA
34667,Pasco County,FL,NA,21.187800963081862,NA
34668,Pasco County,FL,NA,16.693418940609952,NA
34684,Pinellas County,FL,NA,35.47351524879615,9.53757225433526
34690,Pasco County,FL,NA,NA,67.91907514450867
34698,Pinellas County,FL,NA,17.49598715890851,13.583815028901732
34786,Orange County,FL,NA,93.57945425361156,NA
34787,Orange County,FL,NA,16.211878009630816,NA
34947,St. Lucie County,FL,NA,65.81059390048154,NA
34957,Martin County,FL,60.34985422740525,NA,NA
34982,St. Lucie County,FL,NA,71.107544141252,NA
34984,St. Lucie County,FL,NA,89.56661316211878,NA
30014,Newton County,GA,NA,83.62760834670947,NA
30019,Gwinnett County,GA,25.94752186588921,NA,37.57225433526011
30043,Gwinnett County,GA,NA,9.791332263242374,NA
30067,Cobb County,GA,NA,53.93258426966292,NA
30078,Gwinnett County,GA,NA,79.93579454253612,NA
30093,Gwinnett County,GA,41.10787172011662,NA,NA
30127,Cobb County,GA,10.204081632653061,NA,NA
30161,Floyd County,GA,11.078717201166182,NA,NA
30215,Fayette County,GA,NA,26.324237560192614,NA
30224,Spalding County,GA,37.02623906705539,40.28892455858748,NA
30268,Fulton County,GA,NA,60.03210272873194,NA
30286,Upson County,GA,NA,NA,45.3757225433526
30292,Pike County,GA,79.88338192419825,NA,NA
30310,Fulton County,GA,NA,12.038523274478331,NA
30315,Fulton County,GA,NA,73.19422150882825,NA
30319,DeKalb County,GA,NA,NA,78.03468208092485
30342,Fulton County,GA,NA,86.35634028892456,NA
30540,Gilmer County,GA,NA,32.263242375601926,NA
30542,Hall County,GA,NA,31.781701444622794,NA
30554,Hall County,GA,88.92128279883383,NA,NA
30606,Clarke County,GA,NA,77.36757624398074,NA
30735,Gordon County,GA,NA,NA,79.1907514450867
30736,Catoosa County,GA,5.830903790087463,NA,NA
30740,Whitfield County,GA,85.13119533527697,NA,NA
30809,Columbia County,GA,NA,51.52487961476726,NA
31023,Dodge County,GA,57.7259475218659,NA,NA
31061,Baldwin County,GA,46.93877551020408,NA,NA
31406,Chatham County,GA,NA,22.47191011235955,NA
31707,Dougherty County,GA,NA,NA,39.884393063583815
31719,Sumter County,GA,NA,87.96147672552166,80.63583815028902
96701,Honolulu County,HI,21.574344023323615,NA,NA
96706,Honolulu County,HI,NA,8.828250401284109,NA
96750,Hawaii County,HI,NA,NA,89.30635838150289
96818,Honolulu County,HI,NA,25.52166934189406,NA
96822,Honolulu County,HI,NA,14.285714285714285,NA
83402,Bonneville County,ID,NA,63.88443017656501,NA
83616,Ada County,ID,34.11078717201166,NA,NA
83703,Ada County,ID,NA,NA,81.5028901734104
83704,Ada County,ID,NA,NA,1.4450867052023122
83835,Kootenai County,ID,NA,27.768860353130016,NA
83858,Kootenai County,ID,NA,74.63884430176564,NA
60047,Lake County,IL,NA,17.656500802568218,NA
60051,McHenry County,IL,NA,20.706260032102726,NA
60056,Cook County,IL,NA,10.914927768860354,NA
60090,Cook County,IL,NA,65.48956661316213,13.872832369942195
60091,Cook County,IL,NA,61.15569823434992,NA
60110,Kane County,IL,NA,46.70947030497592,NA
60115,DeKalb County,IL,NA,23.274478330658106,NA
60123,Kane County,IL,NA,79.13322632423755,NA
60134,Kane County,IL,NA,NA,68.4971098265896
60140,Kane County,IL,NA,55.21669341894061,NA
60187,DuPage County,IL,NA,28.08988764044944,NA
60188,DuPage County,IL,NA,71.42857142857143,NA
60202,Cook County,IL,78.4256559766764,NA,NA
60409,Cook County,IL,18.658892128279884,NA,NA
60431,Will County,IL,NA,73.67576243980739,NA
60462,Cook County,IL,83.6734693877551,NA,NA
60463,Cook County,IL,NA,74.47833065810595,NA
60466,Cook County,IL,NA,68.21829855537722,NA
60473,Cook County,IL,NA,NA,22.832369942196532
60475,Will County,IL,62.68221574344023,NA,NA
60478,Cook County,IL,NA,NA,39.30635838150289
60525,Cook County,IL,NA,64.36597110754414,NA
60608,Cook County,IL,NA,NA,4.913294797687861
60612,Cook County,IL,NA,24.23756019261637,NA
60628,Cook County,IL,NA,2.4077046548956664,NA
60629,Cook County,IL,NA,69.98394863563404,NA
60633,Cook County,IL,NA,52.96950240770465,NA
60636,Cook County,IL,21.282798833819243,NA,NA
60637,Cook County,IL,NA,52.00642054574639,NA
60645,Cook County,IL,23.61516034985423,NA,NA
60649,Cook County,IL,NA,NA,15.028901734104046
60651,Cook County,IL,NA,NA,40.7514450867052
60655,Cook County,IL,NA,24.719101123595504,NA
60901,Kankakee County,IL,NA,NA,87.57225433526011
61102,Winnebago County,IL,42.857142857142854,NA,NA
61107,Winnebago County,IL,NA,NA,16.473988439306357
61109,Winnebago County,IL,NA,NA,48.554913294797686
61201,Rock Island County,IL,NA,24.077046548956663,NA
61301,LaSalle County,IL,NA,NA,51.73410404624278
61455,McDonough County,IL,NA,50.7223113964687,NA
61520,Fulton County,IL,NA,NA,26.878612716763005
61607,Peoria County,IL,63.55685131195335,NA,NA
61701,McLean County,IL,NA,22.150882825040128,NA
61853,Champaign County,IL,NA,75.92295345104334,NA
61938,Coles County,IL,31.486880466472307,NA,NA
62012,Macoupin County,IL,NA,62.43980738362761,NA
62052,Jersey County,IL,NA,66.6131621187801,NA
62095,Madison County,IL,65.01457725947522,NA,NA
62220,St. Clair County,IL,NA,58.10593900481541,NA
62226,St. Clair County,IL,NA,NA,22.54335260115607
62298,Monroe County,IL,NA,NA,56.06936416184971
62301,Adams County,IL,NA,28.731942215088285,NA
62521,Macon County,IL,28.86297376093295,5.9390048154093105,NA
62565,Shelby County,IL,NA,NA,63.005780346820806
62703,Sangamon County,IL,NA,49.59871589085072,NA
62837,Wayne County,IL,NA,NA,55.78034682080924
46163,Hancock County,IN,86.29737609329446,NA,NA
46234,Marion County,IN,NA,39.64686998394863,NA
46236,Marion County,IN,NA,38.68378812199037,NA
46312,Lake County,IN,9.037900874635568,NA,NA
46368,Porter County,IN,2.623906705539359,NA,NA
46375,Lake County,IN,75.21865889212827,NA,NA
46710,Noble County,IN,NA,93.73996789727127,NA
46755,Noble County,IN,71.7201166180758,NA,NA
47130,Clark County,IN,NA,22.792937399678973,NA
47203,Bartholomew County,IN,NA,43.659711075441415,36.70520231213873
47374,Wayne County,IN,NA,NA,9.826589595375722
47802,Vigo County,IN,NA,NA,29.76878612716763
47834,Clay County,IN,NA,76.24398073836277,NA
47905,Tippecanoe County,IN,28.279883381924197,NA,NA
47932,Fountain County,IN,75.80174927113703,NA,NA
50266,Polk County,IA,NA,NA,82.08092485549133
50320,Polk County,IA,NA,51.36436597110754,NA
50536,Palo Alto County,IA,NA,97.59229534510433,NA
50613,Black Hawk County,IA,NA,NA,2.023121387283237
51250,Sioux County,IA,NA,NA,38.15028901734104
51537,Shelby County,IA,NA,NA,67.05202312138728
52240,Johnson County,IA,NA,14.606741573033707,NA
52245,Johnson County,IA,NA,59.71107544141252,NA
52353,Washington County,IA,NA,NA,49.421965317919074
52402,Linn County,IA,NA,20.064205457463885,NA
52403,Linn County,IA,NA,NA,80.05780346820809
52405,Linn County,IA,NA,NA,83.23699421965318
52501,Wapello County,IA,7.871720116618077,NA,NA
52804,Scott County,IA,NA,27.12680577849117,NA
66049,Douglas County,KS,NA,96.95024077046548,NA
66104,Wyandotte County,KS,NA,91.65329052969501,NA
66109,Wyandotte County,KS,NA,66.13162118780096,NA
66213,Johnson County,KS,NA,64.52648475120385,NA
66215,Johnson County,KS,56.85131195335277,NA,NA
66221,Johnson County,KS,NA,64.68699839486356,NA
67203,Sedgwick County,KS,NA,53.77207062600321,NA
67217,Sedgwick County,KS,NA,62.60032102728732,NA
67801,Ford County,KS,NA,46.22792937399679,NA
40019,Henry County,KY,NA,99.51845906902086,NA
40165,Bullitt County,KY,7.580174927113703,NA,NA
40175,Hardin County,KY,NA,54.89566613162119,NA
40211,Jefferson County,KY,NA,29.373996789727126,NA
40220,Jefferson County,KY,NA,15.569823434991974,NA
40229,Jefferson County,KY,NA,15.248796147672552,NA
40243,Jefferson County,KY,67.93002915451895,NA,NA
40330,Mercer County,KY,NA,NA,98.84393063583815
40391,Clark County,KY,NA,8.667736757624397,NA
40741,Laurel County,KY,NA,NA,92.1965317919075
41006,Pendleton County,KY,NA,NA,84.10404624277457
41031,Harrison County,KY,NA,96.46869983948636,NA
41042,Boone County,KY,NA,55.53772070626003,NA
41102,Boyd County,KY,11.661807580174926,NA,NA
41224,Martin County,KY,61.51603498542274,NA,NA
41314,Owsley County,KY,NA,91.49277688603532,NA
41339,Breathitt County,KY,33.23615160349854,NA,NA
41465,Magoffin County,KY,NA,54.41412520064205,NA
42003,McCracken County,KY,8.16326530612245,NA,NA
42211,Trigg County,KY,NA,35.313001605136435,NA
42330,Muhlenberg County,KY,NA,95.34510433386838,NA
42567,Pulaski County,KY,68.22157434402332,NA,NA
42749,Hart County,KY,NA,94.86356340288926,NA
70058,Jefferson Parish,LA,NA,NA,33.81502890173411
70122,Orleans Parish,LA,NA,60.67415730337079,NA
70126,Orleans Parish,LA,NA,NA,17.63005780346821
70452,St. Tammany Parish,LA,11.370262390670554,NA,NA
70454,Tangipahoa Parish,LA,4.664723032069971,NA,NA
70506,Lafayette Parish,LA,NA,66.93418940609952,NA
70512,St. Landry Parish,LA,91.54518950437318,NA,NA
70560,Iberia Parish,LA,1.749271137026239,NA,NA
70563,Iberia Parish,LA,NA,96.78972712680579,NA
70605,Calcasieu Parish,LA,NA,82.5040128410915,NA
70706,Livingston Parish,LA,NA,90.0481540930979,NA
70714,East Baton Rouge Parish,LA,13.994169096209912,NA,NA
70739,East Baton Rouge Parish,LA,92.4198250728863,NA,NA
71107,Caddo Parish,LA,NA,90.69020866773675,NA
71111,Bossier Parish,LA,NA,9.630818619582666,NA
71115,Caddo Parish,LA,NA,85.07223113964687,NA
71129,Caddo Parish,LA,NA,52.1669341894061,NA
71270,Lincoln Parish,LA,NA,85.39325842696628,NA
71342,La Salle Parish,LA,NA,NA,73.121387283237
04062,Cumberland County,ME,NA,NA,59.53757225433526
04074,Cumberland County,ME,49.85422740524781,NA,NA
04092,Cumberland County,ME,NA,21.829855537720707,NA
04105,Cumberland County,ME,NA,NA,80.92485549132948
04240,Androscoggin County,ME,NA,86.9983948635634,NA
04462,Penobscot County,ME,89.79591836734694,NA,NA
04901,Kennebec County,ME,NA,34.99197431781702,NA
04937,Somerset County,ME,NA,NA,79.76878612716763
20602,Charles County,MD,77.25947521865889,NA,NA
20705,Prince George's County,MD,61.224489795918366,NA,NA
20735,Prince George's County,MD,42.565597667638485,54.09309791332263,NA
20743,Prince George's County,MD,23.03206997084548,NA,NA
20886,Montgomery County,MD,NA,NA,89.88439306358381
20901,Montgomery County,MD,NA,NA,45.08670520231214
20910,Montgomery County,MD,NA,81.70144462279293,NA
21009,Harford County,MD,NA,NA,85.26011560693641
21218,Baltimore city,MD,NA,NA,70.52023121387283
21224,Baltimore city,MD,8.746355685131196,56.66131621187801,NA
21403,Anne Arundel County,MD,67.3469387755102,NA,NA
21532,Allegany County,MD,NA,87.47993579454254,NA
21921,Cecil County,MD,NA,73.03370786516854,NA
01020,Hampden County,MA,58.89212827988338,NA,NA
01085,Hampden County,MA,NA,NA,29.190751445086704
01370,Franklin County,MA,NA,NA,94.79768786127167
01430,Worcester County,MA,NA,63.56340288924559,NA
01440,Worcester County,MA,NA,NA,8.092485549132949
01460,Middlesex County,MA,NA,NA,54.33526011560693
01527,Worcester County,MA,NA,21.34831460674157,NA
01532,Worcester County,MA,NA,NA,43.641618497109825
01570,Worcester County,MA,NA,1.9261637239165328,NA
01604,Worcester County,MA,NA,NA,1.1560693641618496
01720,Middlesex County,MA,21.865889212827987,NA,NA
01841,Essex County,MA,0.2915451895043732,NA,NA
01844,Essex County,MA,NA,NA,2.601156069364162
01876,Middlesex County,MA,4.081632653061225,NA,NA
01915,Essex County,MA,16.909620991253643,NA,0.2890173410404624
01960,Essex County,MA,NA,4.49438202247191,NA
02081,Norfolk County,MA,12.536443148688047,NA,NA
02118,Suffolk County,MA,0.5830903790087464,NA,NA
02126,Suffolk County,MA,NA,2.247191011235955,NA
02127,Suffolk County,MA,NA,27.608346709470304,NA
02128,Suffolk County,MA,NA,NA,42.48554913294797
02148,Middlesex County,MA,NA,0.32102728731942215,NA
02149,Middlesex County,MA,NA,73.51524879614767,NA
02301,Plymouth County,MA,0,7.223113964686998,NA
02302,Plymouth County,MA,NA,NA,3.4682080924855487
02360,Plymouth County,MA,NA,NA,0.5780346820809248
02370,Plymouth County,MA,30.612244897959183,NA,NA
02453,Middlesex County,MA,NA,38.362760834670944,NA
02492,Norfolk County,MA,NA,21.508828250401287,NA
02540,Barnstable County,MA,NA,76.88603531300161,NA
02648,Barnstable County,MA,NA,NA,100
02780,Bristol County,MA,NA,45.585874799357946,NA
48038,Macomb County,MI,NA,3.0497592295345104,NA
48042,Macomb County,MI,NA,NA,23.699421965317917
48047,Macomb County,MI,7.288629737609329,NA,NA
48062,Macomb County,MI,66.1807580174927,NA,NA
48072,Oakland County,MI,NA,NA,46.24277456647399
48073,Oakland County,MI,NA,25.842696629213485,NA
48074,St. Clair County,MI,NA,56.66131621187801,NA
48080,Macomb County,MI,NA,9.470304975922954,NA
48091,Macomb County,MI,NA,39.96789727126806,NA
48092,Macomb County,MI,NA,NA,54.6242774566474
48094,Macomb County,MI,NA,39.807383627608345,NA
48098,Oakland County,MI,NA,26.96629213483146,NA
48103,Washtenaw County,MI,NA,0.8025682182985553,NA
48105,Washtenaw County,MI,NA,38.20224719101123,NA
48116,Livingston County,MI,NA,92.93739967897271,NA
48120,Wayne County,MI,55.68513119533528,NA,NA
48130,Washtenaw County,MI,NA,29.213483146067414,NA
48152,Wayne County,MI,NA,3.8523274478330656,5.780346820809249
48170,Wayne County,MI,NA,1.7656500802568218,NA
48186,Wayne County,MI,3.498542274052478,NA,NA
48188,Wayne County,MI,90.96209912536443,NA,NA
48192,Wayne County,MI,51.60349854227405,NA,NA
48228,Wayne County,MI,NA,4.975922953451043,NA
48236,Wayne County,MI,73.76093294460642,NA,8.670520231213873
48240,Wayne County,MI,NA,70.14446227929373,NA
48307,Oakland County,MI,NA,NA,38.72832369942196
48310,Macomb County,MI,NA,50.56179775280899,NA
48322,Oakland County,MI,NA,5.457463884430177,NA
48331,Oakland County,MI,NA,95.82664526484751,NA
48335,Oakland County,MI,NA,66.77367576243981,28.61271676300578
48381,Oakland County,MI,NA,NA,40.46242774566474
48386,Oakland County,MI,46.06413994169096,NA,NA
48433,Genesee County,MI,36.15160349854227,NA,NA
48532,Genesee County,MI,NA,30.497592295345104,NA
48640,Midland County,MI,NA,10.112359550561797,NA
48730,Iosco County,MI,NA,NA,81.79190751445087
48817,Shiawassee County,MI,NA,68.37881219903691,NA
48842,Ingham County,MI,24.489795918367346,NA,NA
49009,Kalamazoo County,MI,89.50437317784257,NA,NA
49010,Allegan County,MI,NA,62.2792937399679,NA
49058,Barry County,MI,NA,71.91011235955057,NA
49083,Kalamazoo County,MI,92.71137026239067,NA,NA
49337,Newaygo County,MI,51.89504373177842,NA,NA
49508,Kent County,MI,NA,NA,5.491329479768786
55057,Rice County,MN,NA,48.31460674157304,NA
55066,Goodhue County,MN,NA,13.804173354735152,NA
55073,Washington County,MN,95.33527696793003,NA,NA
55112,Ramsey County,MN,NA,20.38523274478331,NA
55123,Dakota County,MN,NA,NA,78.90173410404624
55127,Ramsey County,MN,49.27113702623907,NA,NA
55311,Hennepin County,MN,NA,51.20385232744783,NA
55330,Sherburne County,MN,NA,31.30016051364366,NA
55355,Meeker County,MN,NA,60.51364365971108,NA
55359,Hennepin County,MN,87.46355685131195,NA,NA
55371,Mille Lacs County,MN,NA,NA,72.25433526011561
55378,Scott County,MN,40.2332361516035,NA,NA
55423,Hennepin County,MN,NA,98.23434991974318,NA
55430,Hennepin County,MN,NA,26.003210272873194,NA
55804,St. Louis County,MN,NA,57.46388443017657,NA
55904,Olmsted County,MN,NA,28.892455858747994,57.51445086705203
55917,Steele County,MN,95.04373177842565,NA,NA
56273,Kandiyohi County,MN,NA,NA,97.39884393063583
56308,Douglas County,MN,NA,93.41894060995185,NA
56649,Koochiching County,MN,NA,84.43017656500803,NA
38671,DeSoto County,MS,NA,41.41252006420545,NA
38834,Alcorn County,MS,NA,19.58266452648475,NA
38901,Grenada County,MS,41.690962099125365,NA,NA
39183,Warren County,MS,NA,NA,66.1849710982659
39301,Lauderdale County,MS,NA,36.27608346709471,NA
39439,Jasper County,MS,NA,NA,84.97109826589595
39564,Jackson County,MS,NA,NA,23.121387283236995
63010,Jefferson County,MO,NA,NA,17.341040462427745
63069,Franklin County,MO,NA,45.26484751203853,NA
63074,St. Louis County,MO,NA,41.25200642054575,NA
63119,St. Louis County,MO,NA,NA,31.502890173410403
63129,St. Louis County,MO,NA,NA,6.358381502890173
63136,St. Louis County,MO,NA,7.54414125200642,NA
63143,St. Louis County,MO,NA,82.8250401284109,NA
63385,St. Charles County,MO,NA,8.98876404494382,NA
63640,St. Francois County,MO,26.82215743440233,NA,NA
63670,Ste. Genevieve County,MO,NA,NA,96.82080924855492
64052,Jackson County,MO,86.88046647230321,NA,NA
64057,Jackson County,MO,NA,75.4414125200642,NA
64064,Jackson County,MO,NA,35.95505617977528,NA
64111,Jackson County,MO,NA,36.11556982343499,NA
64113,Jackson County,MO,50.14577259475219,NA,NA
64118,Clay County,MO,NA,5.136436597110754,53.75722543352601
64127,Jackson County,MO,NA,27.12680577849117,NA
64151,Platte County,MO,NA,12.841091492776885,NA
64157,Clay County,MO,NA,93.90048154093098,NA
64505,Buchanan County,MO,NA,18.780096308186195,NA
64601,Livingston County,MO,NA,NA,21.67630057803468
64804,Jasper County,MO,NA,NA,9.248554913294797
65301,Pettis County,MO,NA,5.617977528089887,NA
65355,Benton County,MO,NA,42.857142857142854,NA
65613,Polk County,MO,NA,26.80577849117175,NA
65616,Taney County,MO,NA,25.52166934189406,NA
65672,Taney County,MO,91.25364431486881,NA,NA
59230,Valley County,MT,NA,NA,79.47976878612717
59425,Pondera County,MT,NA,94.0609951845907,NA
59501,Hill County,MT,NA,NA,94.21965317919076
59601,Lewis and Clark County,MT,NA,NA,18.786127167630056
59722,Powell County,MT,NA,NA,99.42196531791907
59802,Missoula County,MT,NA,70.78651685393258,NA
68005,Sarpy County,NE,NA,52.80898876404494,NA
68130,Douglas County,NE,NA,77.68860353130016,NA
68131,Douglas County,NE,NA,NA,95.37572254335261
68310,Gage County,NE,NA,NA,13.005780346820808
68502,Lancaster County,NE,NA,58.26645264847512,NA
69101,Lincoln County,NE,87.75510204081633,NA,NA
89431,Washoe County,NV,NA,NA,21.965317919075144
89503,Washoe County,NV,NA,33.22632423756019,NA
89511,Washoe County,NV,47.23032069970846,NA,NA
89703,Carson City,NV,76.96793002915452,NA,NA
03038,Rockingham County,NH,NA,12.520064205457466,NA
03079,Rockingham County,NH,NA,13.162118780096307,NA
03801,Rockingham County,NH,NA,33.386837881219904,NA
03825,Strafford County,NH,NA,64.20545746388443,NA
03848,Rockingham County,NH,55.39358600583091,NA,NA
07002,Hudson County,NJ,NA,49.43820224719101,NA
07040,Essex County,NJ,NA,47.512038523274484,NA
07050,Essex County,NJ,5.539358600583091,NA,46.24277456647399
07052,Essex County,NJ,NA,NA,43.93063583815029
07055,Passaic County,NJ,NA,44.78330658105939,NA
07059,Somerset County,NJ,99.12536443148689,NA,NA
07071,Bergen County,NJ,NA,59.87158908507223,NA
07076,Union County,NJ,83.96501457725948,NA,NA
07087,Hudson County,NJ,NA,3.210272873194221,NA
07202,Union County,NJ,NA,NA,90.46242774566474
07204,Union County,NJ,NA,99.03691813804173,NA
07305,Hudson County,NJ,NA,NA,24.566473988439306
07410,Bergen County,NJ,NA,NA,28.32369942196532
07442,Passaic County,NJ,NA,NA,68.78612716763006
07512,Passaic County,NJ,NA,81.2199036918138,NA
07646,Bergen County,NJ,NA,53.29052969502408,NA
07675,Bergen County,NJ,NA,NA,30.057803468208093
07731,Monmouth County,NJ,NA,30.818619582664525,NA
07762,Monmouth County,NJ,85.42274052478133,NA,NA
07840,Warren County,NJ,NA,98.3948635634029,NA
07866,Morris County,NJ,NA,88.12199036918138,NA
07920,Somerset County,NJ,NA,97.91332263242376,NA
08003,Camden County,NJ,NA,NA,47.687861271676304
08005,Ocean County,NJ,34.69387755102041,NA,NA
08021,Camden County,NJ,NA,NA,27.74566473988439
08043,Camden County,NJ,NA,17.97752808988764,NA
08054,Burlington County,NJ,14.285714285714285,NA,14.16184971098266
08108,Camden County,NJ,NA,69.18138041733548,NA
08302,Cumberland County,NJ,NA,7.865168539325842,NA
08505,Burlington County,NJ,NA,70.46548956661316,NA
08648,Mercer County,NJ,NA,NA,41.32947976878613
08724,Ocean County,NJ,NA,11.556982343499197,NA
08753,Ocean County,NJ,8.454810495626822,2.568218298555377,NA
08805,Somerset County,NJ,NA,97.43178170144462,NA
08817,Middlesex County,NJ,NA,NA,74.56647398843931
08859,Middlesex County,NJ,NA,47.67255216693419,NA
08861,Middlesex County,NJ,0.8746355685131195,NA,NA
08867,Hunterdon County,NJ,99.70845481049562,NA,NA
08902,Middlesex County,NJ,96.7930029154519,NA,NA
87111,Bernalillo County,NM,NA,NA,4.046242774566474
87120,Bernalillo County,NM,NA,36.75762439807384,NA
88012,Doa Ana County,NM,NA,75.28089887640449,NA
88352,Otero County,NM,NA,63.08186195826645,NA
10009,New York County,NY,NA,38.04173354735153,NA
10011,New York County,NY,NA,13.32263242375602,NA
10014,New York County,NY,94.16909620991254,NA,NA
10019,New York County,NY,67.05539358600583,NA,19.942196531791907
10021,New York County,NY,NA,20.224719101123593,44.21965317919075
10023,New York County,NY,NA,NA,94.50867052023122
10035,New York County,NY,30.903790087463555,NA,NA
10038,New York County,NY,89.21282798833819,NA,NA
10040,New York County,NY,NA,41.73354735152488,NA
10065,New York County,NY,NA,NA,93.0635838150289
10305,Richmond County,NY,NA,12.199036918138042,NA
10306,Richmond County,NY,60.932944606414,NA,NA
10312,Richmond County,NY,56.559766763848394,NA,NA
10451,Bronx County,NY,NA,4.333868378812198,NA
10452,Bronx County,NY,NA,0.6420545746388443,8.959537572254336
10467,Bronx County,NY,NA,NA,10.982658959537572
10470,Bronx County,NY,NA,45.42536115569823,NA
10530,Westchester County,NY,NA,NA,70.8092485549133
10543,Westchester County,NY,NA,NA,63.29479768786127
10547,Westchester County,NY,97.08454810495627,NA,NA
10550,Westchester County,NY,NA,18.619582664526487,NA
10552,Westchester County,NY,NA,65.65008025682182,NA
10566,Westchester County,NY,74.05247813411079,NA,NA
10603,Westchester County,NY,NA,61.63723916532905,NA
10701,Westchester County,NY,NA,2.086677367576244,49.13294797687861
10705,Westchester County,NY,58.309037900874635,NA,NA
10994,Rockland County,NY,NA,90.52969502407706,NA
11040,Nassau County,NY,NA,55.85874799357945,NA
11050,Nassau County,NY,NA,NA,69.36416184971098
11102,Queens County,NY,32.6530612244898,NA,NA
11103,Queens County,NY,NA,48.154093097913325,NA
11203,Kings County,NY,NA,3.6918138041733553,NA
11206,Kings County,NY,NA,NA,69.65317919075144
11207,Kings County,NY,88.0466472303207,NA,6.9364161849710975
11210,Kings County,NY,NA,NA,55.49132947976878
11216,Kings County,NY,NA,44.141252006420544,NA
11218,Kings County,NY,NA,NA,78.32369942196532
11230,Kings County,NY,NA,45.90690208667737,NA
11231,Kings County,NY,NA,61.95826645264848,NA
11235,Kings County,NY,NA,10.593900481540931,NA
11355,Queens County,NY,45.481049562682216,NA,11.560693641618498
11358,Queens County,NY,NA,43.4991974317817,NA
11362,Queens County,NY,NA,NA,60.40462427745664
11373,Queens County,NY,6.997084548104956,NA,48.26589595375722
11375,Queens County,NY,NA,NA,4.335260115606936
11412,Queens County,NY,NA,NA,34.39306358381503
11414,Queens County,NY,NA,NA,41.61849710982659
11550,Nassau County,NY,NA,13.001605136436597,NA
11554,Nassau County,NY,NA,94.3820224719101,NA
11563,Nassau County,NY,NA,NA,85.26011560693641
11566,Nassau County,NY,NA,100,NA
11701,Suffolk County,NY,NA,50.24077046548957,NA
11710,Nassau County,NY,NA,71.58908507223114,NA
11720,Suffolk County,NY,NA,NA,25.43352601156069
11727,Suffolk County,NY,NA,NA,98.26589595375722
11729,Suffolk County,NY,NA,88.4430176565008,87.861271676300575
11738,Suffolk County,NY,97.37609329446065,NA,NA
11743,Suffolk County,NY,NA,39.00481540930979,NA
11747,Suffolk County,NY,NA,NA,42.19653179190752
11779,Suffolk County,NY,NA,NA,95.66473988439307
12524,Dutchess County,NY,NA,78.1701444622793,NA
12538,Dutchess County,NY,NA,NA,43.35260115606936
12571,Dutchess County,NY,NA,83.78812199036918,NA
12572,Dutchess County,NY,NA,81.05939004815409,NA
12901,Clinton County,NY,NA,2.889245585874799,NA
13066,Onondaga County,NY,50.437317784256564,NA,NA
13111,Cayuga County,NY,NA,91.97431781701445,NA
13148,Seneca County,NY,NA,NA,58.95953757225434
13152,Onondaga County,NY,NA,83.30658105939006,NA
13209,Onondaga County,NY,NA,56.66131621187801,NA
13210,Onondaga County,NY,NA,NA,71.38728323699422
13219,Onondaga County,NY,NA,38.52327447833066,NA
13340,Herkimer County,NY,83.38192419825073,NA,NA
13403,Oneida County,NY,NA,58.42696629213483,NA
13440,Oneida County,NY,1.1661807580174928,NA,NA
13676,St. Lawrence County,NY,19.825072886297377,NA,NA
13820,Otsego County,NY,NA,86.19582664526484,NA
13838,Delaware County,NY,NA,82.6645264847512,NA
13905,Broome County,NY,NA,2.7287319422150884,NA
14031,Erie County,NY,97.95918367346938,NA,NA
14032,Erie County,NY,66.76384839650146,NA,NA
14036,Genesee County,NY,69.67930029154519,NA,NA
14070,Erie County,NY,79.59183673469387,NA,NA
14075,Erie County,NY,NA,4.173354735152488,NA
14120,Niagara County,NY,71.13702623906705,NA,NA
14132,Niagara County,NY,NA,65.1685393258427,NA
14150,Erie County,NY,NA,78.65168539325843,NA
14223,Erie County,NY,NA,29.69502407704655,NA
14411,Orleans County,NY,NA,31.621187800963078,NA
14432,Ontario County,NY,NA,NA,88.15028901734104
14559,Monroe County,NY,NA,15.409309791332262,NA
14611,Monroe County,NY,17.49271137026239,NA,NA
14616,Monroe County,NY,NA,28.892455858747994,NA
14617,Monroe County,NY,3.7900874635568513,NA,NA
14618,Monroe County,NY,NA,8.186195826645266,NA
14760,Cattaraugus County,NY,NA,NA,71.96531791907515
14845,Chemung County,NY,NA,48.635634028892454,90.17341040462428
14850,Tompkins County,NY,NA,3.5313001605136436,NA
14883,Tioga County,NY,NA,96.62921348314607,NA
14891,Schuyler County,NY,74.34402332361516,NA,NA
27027,Rockingham County,NC,NA,NA,76.878612716763
27030,Surry County,NC,NA,0.9630818619582664,NA
27104,Forsyth County,NC,17.784256559766764,NA,NA
27106,Forsyth County,NC,NA,1.6051364365971106,25.722543352601157
27107,Forsyth County,NC,NA,87.80096308186197,NA
27215,Alamance County,NC,NA,NA,5.202312138728324
27239,Davidson County,NC,NA,78.97271268057786,NA
27249,Guilford County,NC,NA,48.95666131621188,NA
27262,Guilford County,NC,NA,NA,41.040462427745666
27263,Randolph County,NC,NA,41.57303370786517,NA
27292,Davidson County,NC,72.59475218658892,NA,NA
27295,Davidson County,NC,58.01749271137027,75.76243980738363,NA
27317,Randolph County,NC,NA,57.62439807383628,NA
27330,Lee County,NC,NA,NA,75.43352601156069
27501,Harnett County,NC,62.09912536443149,62.92134831460674,NA
27502,Wake County,NC,45.77259475218659,NA,NA
27510,Orange County,NC,NA,NA,91.32947976878613
27513,Wake County,NC,NA,NA,69.07514450867052
27534,Wayne County,NC,NA,40.12841091492777,NA
27537,Vance County,NC,NA,NA,91.61849710982659
27549,Franklin County,NC,13.119533527696792,NA,NA
27587,Wake County,NC,NA,72.07062600321026,NA
27592,Wake County,NC,53.64431486880466,NA,NA
27616,Wake County,NC,NA,27.768860353130016,NA
27707,Durham County,NC,73.46938775510205,NA,NA
27801,Edgecombe County,NC,NA,NA,71.09826589595376
27804,Nash County,NC,NA,28.08988764044944,30.924855491329478
27807,Nash County,NC,78.71720116618076,NA,NA
27893,Wilson County,NC,NA,18.45906902086677,NA
27910,Hertford County,NC,26.53061224489796,NA,NA
28034,Gaston County,NC,29.154518950437318,NA,NA
28037,Lincoln County,NC,96.50145772594753,NA,NA
28086,Cleveland County,NC,NA,79.29373996789727,NA
28117,Iredell County,NC,18.367346938775512,NA,NA
28120,Gaston County,NC,NA,NA,53.179190751445084
28205,Mecklenburg County,NC,NA,NA,76.30057803468208
28270,Mecklenburg County,NC,95.91836734693877,NA,NA
28273,Mecklenburg County,NC,NA,NA,95.95375722543352
28312,Cumberland County,NC,NA,36.43659711075441,NA
28314,Cumberland County,NC,47.8134110787172,NA,NA
28333,Wayne County,NC,48.10495626822158,NA,NA
28358,Robeson County,NC,NA,50.08025682182986,NA
28365,Wayne County,NC,NA,59.069020866773684,NA
28405,New Hanover County,NC,NA,23.91653290529695,NA
28411,New Hanover County,NC,52.47813411078717,NA,NA
28451,Brunswick County,NC,NA,19.101123595505616,NA
28540,Onslow County,NC,NA,64.04494382022472,NA
28570,Carteret County,NC,NA,80.41733547351525,NA
28574,Onslow County,NC,NA,69.5024077046549,NA
28657,Avery County,NC,NA,49.2776886035313,NA
28697,Wilkes County,NC,NA,NA,50
28734,Macon County,NC,9.329446064139942,NA,NA
28792,Henderson County,NC,19.24198250728863,NA,0
28803,Buncombe County,NC,NA,NA,20.23121387283237
43004,Franklin County,OH,27.988338192419825,NA,NA
43017,Franklin County,OH,NA,57.30337078651685,NA
43056,Licking County,OH,88.33819241982506,NA,NA
43125,Franklin County,OH,NA,45.74638844301766,NA
43162,Madison County,OH,NA,59.22953451043339,NA
43206,Franklin County,OH,NA,42.53611556982344,NA
43223,Franklin County,OH,3.206997084548105,NA,NA
43224,Franklin County,OH,NA,55.53772070626003,NA
43230,Franklin County,OH,NA,9.951845906902086,NA
43302,Marion County,OH,1.4577259475218658,NA,NA
43452,Ottawa County,OH,30.32069970845481,NA,NA
43537,Lucas County,OH,NA,90.36918138041734,NA
43551,Wood County,OH,NA,4.654895666131622,NA
43609,Lucas County,OH,NA,NA,63.58381502890174
43611,Lucas County,OH,76.67638483965014,NA,NA
43623,Lucas County,OH,NA,63.7239165329053,NA
43812,Coshocton County,OH,NA,4.815409309791333,NA
43938,Jefferson County,OH,NA,92.776886035313,NA
43952,Jefferson County,OH,NA,47.8330658105939,NA
44035,Lorain County,OH,NA,0,NA
44087,Summit County,OH,NA,10.754414125200643,NA
44120,Cuyahoga County,OH,NA,1.4446227929373996,NA
44121,Cuyahoga County,OH,NA,8.507223113964688,NA
44128,Cuyahoga County,OH,2.3323615160349855,NA,NA
44134,Cuyahoga County,OH,NA,NA,2.312138728323699
44135,Cuyahoga County,OH,NA,83.46709470304975,NA
44140,Cuyahoga County,OH,NA,50.40128410914928,NA
44144,Cuyahoga County,OH,6.122448979591836,NA,NA
44146,Cuyahoga County,OH,NA,69.66292134831461,NA
44202,Portage County,OH,NA,NA,50.86705202312138
44203,Summit County,OH,NA,5.778491171749598,NA
44278,Summit County,OH,77.55102040816327,NA,NA
44301,Summit County,OH,NA,67.25521669341894,NA
44471,Mahoning County,OH,38.48396501457726,NA,NA
44683,Tuscarawas County,OH,NA,60.8346709470305,NA
44708,Stark County,OH,NA,NA,14.739884393063585
44805,Ashland County,OH,NA,NA,1.7341040462427744
45002,Hamilton County,OH,NA,53.13001605136437,NA
45044,Butler County,OH,2.9154518950437316,NA,NA
45066,Warren County,OH,NA,80.57784911717496,NA
45102,Clermont County,OH,NA,NA,62.71676300578035
45150,Clermont County,OH,23.323615160349853,NA,NA
45177,Clinton County,OH,NA,NA,65.60693641618496
45208,Hamilton County,OH,65.3061224489796,NA,NA
45215,Hamilton County,OH,NA,NA,27.167630057803464
45238,Hamilton County,OH,NA,11.396468699839486,NA
45239,Hamilton County,OH,NA,NA,32.65895953757225
45240,Hamilton County,OH,NA,34.51043338683788,NA
45320,Preble County,OH,NA,28.41091492776886,NA
45331,Darke County,OH,NA,19.26163723916533,NA
45365,Shelby County,OH,NA,9.309791332263243,NA
45458,Montgomery County,OH,NA,NA,23.98843930635838
45503,Clark County,OH,NA,34.51043338683788,NA
45601,Ross County,OH,NA,0.16051364365971107,NA
45628,Ross County,OH,NA,91.81380417335474,NA
45701,Athens County,OH,NA,NA,58.67052023121387
45840,Hancock County,OH,NA,1.2841091492776886,NA
45895,Auglaize County,OH,NA,24.879614767255216,NA
73005,Caddo County,OK,NA,NA,66.47398843930635
73018,Grady County,OK,NA,75.12038523274478,NA
73064,Canadian County,OK,NA,34.18940609951846,NA
73068,Cleveland County,OK,NA,86.8378812199037,NA
73078,Canadian County,OK,NA,65.97110754414125,NA
73111,Oklahoma County,OK,NA,NA,83.8150289017341
73120,Oklahoma County,OK,NA,65.00802568218299,NA
73165,Cleveland County,OK,97.667638483965,NA,NA
73533,Stephens County,OK,11.9533527696793,NA,NA
74011,Tulsa County,OK,69.09620991253644,NA,NA
74012,Tulsa County,OK,NA,NA,6.6473988439306355
74019,Rogers County,OK,68.80466472303208,NA,NA
74105,Tulsa County,OK,NA,36.91813804173354,NA
74128,Tulsa County,OK,NA,70.62600321027287,NA
97013,Clackamas County,OR,43.440233236151606,NA,NA
97034,Clackamas County,OR,NA,NA,29.47976878612717
97045,Clackamas County,OR,NA,NA,11.271676300578035
97123,Washington County,OR,NA,10.43338683788122,NA
97128,Yamhill County,OR,10.495626822157435,NA,NA
97141,Tillamook County,OR,47.23032069970846,NA,NA
97224,Washington County,OR,NA,NA,24.277456647398843
97225,Washington County,OR,NA,NA,77.45664739884393
97302,Marion County,OR,NA,93.09791332263242,NA
97322,Linn County,OR,NA,9.149277688603531,NA
97355,Linn County,OR,44.02332361516035,3.3707865168539324,NA
97401,Lane County,OR,NA,55.85874799357945,NA
97402,Lane County,OR,NA,NA,7.514450867052023
97405,Lane County,OR,NA,NA,39.59537572254335
97408,Lane County,OR,80.17492711370262,NA,NA
97487,Lane County,OR,NA,87.64044943820225,NA
97520,Jackson County,OR,NA,37.39967897271268,NA
97701,Deschutes County,OR,NA,95.98715890850723,NA
97703,Deschutes County,OR,99.41690962099126,NA,NA
97756,Deschutes County,OR,NA,14.446227929373997,NA
97838,Umatilla County,OR,49.56268221574344,NA,NA
15010,Beaver County,PA,NA,NA,10.69364161849711
15022,Washington County,PA,NA,NA,52.89017341040463
15025,Allegheny County,PA,33.819241982507286,NA,NA
15063,Washington County,PA,NA,58.90850722311396,NA
15085,Westmoreland County,PA,NA,78.49117174959872,NA
15106,Allegheny County,PA,NA,45.10433386837881,NA
15120,Allegheny County,PA,NA,NA,28.901734104046245
15135,Allegheny County,PA,NA,99.35794542536117,NA
15206,Allegheny County,PA,NA,16.051364365971107,NA
15213,Allegheny County,PA,NA,NA,90.7514450867052
15221,Allegheny County,PA,65.59766763848397,NA,NA
15235,Allegheny County,PA,71.42857142857143,NA,NA
15236,Allegheny County,PA,32.36151603498542,NA,NA
15642,Westmoreland County,PA,NA,NA,26.300578034682083
15650,Westmoreland County,PA,31.195335276967928,NA,7.803468208092486
15825,Jefferson County,PA,NA,73.83627608346708,NA
16002,Butler County,PA,74.63556851311954,NA,NA
16037,Butler County,PA,95.6268221574344,NA,NA
16063,Butler County,PA,NA,NA,48.84393063583815
16148,Mercer County,PA,NA,NA,74.85549132947978
16601,Blair County,PA,NA,NA,19.653179190751445
16901,Tioga County,PA,NA,98.7158908507223,NA
17022,Lancaster County,PA,NA,11.235955056179774,NA
17042,Lebanon County,PA,88.62973760932945,NA,NA
17057,Dauphin County,PA,NA,12.359550561797752,NA
17320,Adams County,PA,NA,NA,76.01156069364163
17322,York County,PA,77.84256559766763,NA,NA
17404,York County,PA,NA,NA,38.4393063583815
17701,Lycoming County,PA,NA,4.012841091492777,NA
17901,Schuylkill County,PA,NA,22.31139646869984,NA
18055,Northampton County,PA,NA,NA,84.6820809248555
18091,Northampton County,PA,NA,86.67736757624398,NA
18104,Lehigh County,PA,NA,47.351524879614765,NA
18202,Luzerne County,PA,NA,32.90529695024077,NA
18510,Lackawanna County,PA,NA,NA,59.82658959537572
18634,Luzerne County,PA,NA,33.06581059390048,NA
18708,Luzerne County,PA,100,NA,NA
18848,Bradford County,PA,81.92419825072886,NA,NA
18944,Bucks County,PA,37.60932944606414,NA,NA
18951,Bucks County,PA,NA,NA,23.121387283236995
18966,Bucks County,PA,NA,NA,64.73988439306359
19001,Montgomery County,PA,NA,37.23916532905297,NA
19014,Delaware County,PA,NA,NA,35.83815028901734
19015,Delaware County,PA,NA,34.34991974317817,NA
19018,Delaware County,PA,16.61807580174927,NA,NA
19020,Bucks County,PA,NA,7.062600321027287,NA
19056,Bucks County,PA,NA,88.28250401284109,NA
19057,Bucks County,PA,18.950437317784257,NA,NA
19085,Delaware County,PA,NA,NA,82.94797687861272
19090,Montgomery County,PA,NA,74.31781701444623,NA
19116,Philadelphia County,PA,NA,10.272873194221509,NA
19119,Philadelphia County,PA,NA,NA,60.982658959537574
19120,Philadelphia County,PA,9.620991253644315,NA,NA
19121,Philadelphia County,PA,NA,18.298555377207062,NA
19136,Philadelphia County,PA,NA,21.02728731942215,NA
19138,Philadelphia County,PA,NA,17.335473515248793,NA
19141,Philadelphia County,PA,NA,73.35473515248796,NA
19144,Philadelphia County,PA,NA,NA,47.97687861271676
19154,Philadelphia County,PA,NA,NA,26.011560693641616
19422,Montgomery County,PA,NA,27.447833065810595,NA
19468,Montgomery County,PA,54.22740524781341,NA,36.127167630057805
19525,Montgomery County,PA,NA,NA,78.61271676300578
19601,Berks County,PA,55.97667638483965,NA,NA
02813,Washington County,RI,NA,50.7223113964687,NA
02861,Providence County,RI,NA,NA,72.54335260115607
02864,Providence County,RI,86.58892128279884,89.8876404494382,NA
02889,Kent County,RI,NA,13.48314606741573,NA
02891,Washington County,RI,NA,NA,18.497109826589593
02896,Providence County,RI,NA,NA,62.138728323699425
02905,Providence County,RI,27.405247813411076,NA,NA
02914,Providence County,RI,NA,NA,65.89595375722543
29020,Kershaw County,SC,NA,26.003210272873194,NA
29306,Spartanburg County,SC,NA,53.6115569823435,NA
29360,Laurens County,SC,54.518950437317784,NA,NA
29412,Charleston County,SC,NA,14.92776886035313,NA
29445,Berkeley County,SC,NA,19.743178170144464,NA
29485,Dorchester County,SC,NA,82.98555377207063,NA
29526,Horry County,SC,NA,NA,51.15606936416185
29532,Darlington County,SC,NA,40.6099518459069,NA
29569,Horry County,SC,NA,44.62279293739968,NA
29627,Anderson County,SC,NA,43.82022471910113,NA
29644,Greenville County,SC,NA,46.54895666131621,NA
29645,Laurens County,SC,NA,61.79775280898876,NA
29671,Pickens County,SC,NA,46.3884430176565,NA
29732,York County,SC,NA,88.92455858747994,NA
29910,Beaufort County,SC,NA,58.74799357945425,NA
57106,Minnehaha County,SD,39.94169096209912,41.89406099518459,NA
57108,Lincoln County,SD,90.67055393586006,NA,NA
57110,Minnehaha County,SD,36.44314868804665,NA,NA
57301,Davison County,SD,NA,90.20866773675762,NA
37043,Montgomery County,TN,NA,NA,84.39306358381504
37048,Sumner County,TN,90.0874635568513,NA,NA
37148,Sumner County,TN,26.239067055393583,NA,NA
37214,Davidson County,TN,NA,NA,52.02312138728323
37334,Lincoln County,TN,70.55393586005832,NA,NA
37650,Unicoi County,TN,NA,34.831460674157306,NA
37660,Sullivan County,TN,NA,6.420545746388442,NA
37663,Sullivan County,TN,NA,NA,60.115606936416185
37743,Greene County,TN,27.696793002915456,NA,NA
37745,Greene County,TN,NA,18.138041733547354,NA
37748,Roane County,TN,NA,NA,32.369942196531795
37830,Anderson County,TN,14.577259475218659,NA,NA
37918,Knox County,TN,NA,NA,46.82080924855491
38109,Shelby County,TN,NA,11.717495987158909,NA
38138,Shelby County,TN,NA,NA,35.54913294797688
38260,Obion County,TN,NA,88.76404494382022,NA
38372,Hardin County,TN,NA,74.95987158908507,NA
38556,Fentress County,TN,NA,30.97913322632424,NA
75035,Collin County,TX,NA,39.00481540930979,NA
75040,Dallas County,TX,NA,NA,15.895953757225435
75043,Dallas County,TX,NA,80.09630818619583,NA
75067,Denton County,TX,NA,NA,60.982658959537574
75074,Collin County,TX,NA,67.89727126805778,NA
75082,Collin County,TX,NA,32.102728731942214,NA
75110,Navarro County,TX,NA,36.43659711075441,NA
75115,Dallas County,TX,NA,59.55056179775281,20.520231213872833
75143,Henderson County,TX,NA,NA,74.27745664739885
75211,Dallas County,TX,NA,17.656500802568218,NA
75227,Dallas County,TX,10.787172011661808,NA,NA
75228,Dallas County,TX,NA,NA,21.38728323699422
75238,Dallas County,TX,NA,51.84590690208668,NA
75407,Collin County,TX,NA,55.37720706260032,NA
75672,Harrison County,TX,NA,96.14767255216692,NA
75703,Smith County,TX,NA,NA,0.8670520231213872
75766,Cherokee County,TX,NA,82.02247191011236,NA
75783,Wood County,TX,NA,22.953451043338685,NA
75860,Freestone County,TX,93.87755102040816,NA,NA
75966,Newton County,TX,NA,98.07383627608347,NA
76008,Parker County,TX,60.05830903790087,NA,NA
76017,Tarrant County,TX,NA,23.113964686998393,NA
76063,Tarrant County,TX,NA,NA,15.31791907514451
76067,Palo Pinto County,TX,36.734693877551024,NA,NA
76248,Tarrant County,TX,NA,33.547351524879616,NA
77025,Harris County,TX,51.02040816326531,NA,NA
77028,Harris County,TX,34.40233236151604,NA,NA
77035,Harris County,TX,73.17784256559767,NA,NA
77044,Harris County,TX,NA,46.06741573033708,NA
77054,Harris County,TX,98.83381924198251,NA,NA
77056,Harris County,TX,NA,NA,96.24277456647398
77063,Harris County,TX,69.38775510204081,NA,NA
77077,Harris County,TX,NA,52.64847512038523,NA
77083,Harris County,TX,NA,47.99357945425361,NA
77092,Harris County,TX,64.43148688046647,NA,NA
77301,Montgomery County,TX,NA,NA,66.76300578034682
77306,Montgomery County,TX,NA,81.38041733547352,NA
77339,Harris County,TX,40.816326530612244,NA,NA
77377,Harris County,TX,NA,67.73675762439807,NA
77379,Harris County,TX,NA,NA,63.8728323699422
77389,Harris County,TX,NA,NA,69.94219653179191
77459,Fort Bend County,TX,NA,34.02889245585875,NA
77477,Fort Bend County,TX,39.35860058309038,NA,NA
77479,Fort Bend County,TX,NA,92.29534510433388,NA
77484,Waller County,TX,NA,81.70144462279293,NA
77503,Harris County,TX,NA,73.99678972712681,NA
77511,Brazoria County,TX,NA,NA,58.092485549132945
77551,Galveston County,TX,16.3265306122449,NA,NA
77573,Galveston County,TX,4.956268221574344,NA,NA
77713,Jefferson County,TX,61.80758017492711,NA,NA
77836,Burleson County,TX,NA,39.00481540930979,NA
77904,Victoria County,TX,NA,NA,21.09826589595376
77995,Lavaca County,TX,NA,60.19261637239165,NA
78014,La Salle County,TX,98.54227405247813,NA,NA
78025,Kerr County,TX,NA,82.34349919743178,NA
78108,Guadalupe County,TX,NA,59.3900481540931,NA
78124,Guadalupe County,TX,NA,84.91171749598716,NA
78239,Bexar County,TX,NA,54.09309791332263,NA
78249,Bexar County,TX,43.14868804664723,NA,NA
78253,Bexar County,TX,NA,56.34028892455859,NA
78266,Comal County,TX,NA,83.14606741573034,NA
78384,Duval County,TX,NA,NA,86.41618497109826
78408,Nueces County,TX,84.54810495626822,NA,NA
78520,Cameron County,TX,39.650145772594755,NA,NA
78521,Cameron County,TX,20.408163265306122,58.58747993579454,NA
78566,Cameron County,TX,NA,86.51685393258427,NA
78584,Starr County,TX,NA,42.0545746388443,NA
78596,Hidalgo County,TX,NA,NA,27.45664739884393
78611,Burnet County,TX,NA,NA,12.138728323699421
78613,Williamson County,TX,20.699708454810494,NA,NA
78620,Hays County,TX,NA,NA,83.52601156069365
78676,Hays County,TX,NA,57.9454253611557,NA
78681,Williamson County,TX,72.8862973760933,53.45104333868379,NA
78703,Travis County,TX,NA,97.75280898876404,NA
78734,Travis County,TX,NA,NA,59.2485549132948
78741,Travis County,TX,NA,NA,70.23121387283237
78745,Travis County,TX,78.134110787172,NA,91.90751445086705
78750,Travis County,TX,NA,63.242375601926156,NA
78754,Travis County,TX,83.09037900874635,NA,NA
78759,Travis County,TX,NA,NA,28.034682080924856
79412,Lubbock County,TX,44.31486880466473,NA,NA
79423,Lubbock County,TX,NA,16.53290529695024,NA
79705,Midland County,TX,NA,55.0561797752809,NA
79936,El Paso County,TX,6.41399416909621,NA,NA
84010,Davis County,UT,NA,NA,19.07514450867052
84044,Salt Lake County,UT,76.0932944606414,NA,NA
84065,Salt Lake County,UT,NA,NA,54.91329479768786
84084,Salt Lake County,UT,NA,78.00963081861958,NA
84093,Salt Lake County,UT,82.79883381924198,NA,NA
84108,Salt Lake County,UT,NA,NA,87.28323699421965
84118,Salt Lake County,UT,9.912536443148689,NA,NA
84124,Salt Lake County,UT,60.64139941690962,NA,NA
84701,Sevier County,UT,NA,NA,97.10982658959537
05089,Windsor County,VT,NA,NA,73.41040462427746
05753,Addison County,VT,NA,77.84911717495987,NA
20169,Prince William County,VA,NA,NA,73.69942196531792
22182,Fairfax County,VA,NA,84.1091492776886,NA
22191,Prince William County,VA,NA,23.756019261637242,NA
22401,Fredericksburg city,VA,NA,84.75120385232745,NA
22406,Stafford County,VA,NA,NA,68.20809248554913
22407,Spotsylvania County,VA,NA,77.20706260032102,NA
22630,Warren County,VA,15.160349854227405,NA,NA
22727,Madison County,VA,NA,89.24558587479936,NA
22802,Harrisonburg city,VA,NA,94.22150882825039,NA
22903,Charlottesville city,VA,NA,14.125200642054574,NA
22911,Albemarle County,VA,84.25655976676384,NA,NA
23141,New Kent County,VA,NA,68.53932584269663,NA
23224,Richmond city,VA,NA,52.487961476725516,NA
23226,Richmond city,VA,NA,44.9438202247191,NA
23229,Henrico County,VA,69.97084548104957,NA,NA
23233,Henrico County,VA,NA,95.50561797752809,NA
23294,Henrico County,VA,NA,74.15730337078652,NA
23452,Virginia Beach city,VA,NA,6.099518459069021,NA
23454,Virginia Beach city,VA,NA,NA,2.8901734104046244
23455,Virginia Beach city,VA,NA,6.741573033707865,NA
23704,Portsmouth city,VA,NA,85.71428571428571,NA
23707,Portsmouth city,VA,NA,NA,88.72832369942196
24015,Roanoke city,VA,NA,NA,60.982658959537574
24017,Roanoke city,VA,14.868804664723031,NA,NA
24201,Bristol city,VA,29.44606413994169,NA,NA
24503,Lynchburg city,VA,86.0058309037901,NA,NA
24523,Bedford County,VA,NA,NA,56.936416184971094
24541,Danville city,VA,NA,24.558587479935795,NA
24586,Pittsylvania County,VA,80.466472303207,NA,NA
24630,Tazewell County,VA,NA,61.47672552166934,NA
98003,King County,WA,NA,70.30497592295345,NA
98006,King County,WA,NA,NA,89.01734104046243
98019,King County,WA,NA,94.54253611556982,NA
98034,King County,WA,48.39650145772595,NA,NA
98037,Snohomish County,WA,NA,NA,50.28901734104046
98070,King County,WA,NA,92.13483146067416,NA
98087,Snohomish County,WA,32.06997084548105,NA,NA
98101,King County,WA,NA,NA,30.057803468208093
98109,King County,WA,NA,94.70304975922953,NA
98110,Kitsap County,WA,NA,NA,47.398843930635834
98117,King County,WA,46.06413994169096,NA,NA
98125,King County,WA,NA,26.484751203852326,NA
98208,Snohomish County,WA,NA,20.86677367576244,NA
98223,Snohomish County,WA,NA,13.643659711075443,NA
98232,Skagit County,WA,NA,72.55216693418942,NA
98247,Whatcom County,WA,NA,89.40609951845907,NA
98250,San Juan County,WA,NA,NA,86.9942196531792
98264,Whatcom County,WA,NA,95.02407704654897,NA
98270,Snohomish County,WA,NA,67.09470304975923,NA
98282,Island County,WA,NA,NA,35.26011560693642
98296,Snohomish County,WA,94.46064139941691,NA,NA
98329,Pierce County,WA,57.434402332361515,NA,NA
98362,Clallam County,WA,NA,5.296950240770466,3.7572254335260116
98444,Pierce County,WA,NA,49.11717495987159,NA
98465,Pierce County,WA,NA,84.1091492776886,NA
98506,Thurston County,WA,NA,NA,60.982658959537574
98532,Lewis County,WA,52.1865889212828,NA,NA
98607,Clark County,WA,NA,NA,99.13294797687861
98674,Cowlitz County,WA,NA,NA,75.14450867052022
98683,Clark County,WA,NA,57.14285714285714,NA
99004,Spokane County,WA,NA,91.01123595505618,NA
99006,Spokane County,WA,NA,NA,77.16763005780348
99203,Spokane County,WA,NA,54.73515248796148,NA
99344,Adams County,WA,NA,NA,93.9306358381503
20005,District of Columbia,DC,67.63848396501457,NA,NA
20015,District of Columbia,DC,93.29446064139941,NA,NA
25271,Jackson County,WV,NA,NA,51.445086705202314
25560,Putnam County,WV,NA,76.08346709470305,NA
25901,Fayette County,WV,87.17201166180757,NA,NA
26104,Wood County,WV,NA,NA,17.052023121387283
26201,Upshur County,WV,NA,12.680577849117174,NA
26241,Randolph County,WV,19.533527696793,NA,NA
26330,Harrison County,WV,30.029154518950435,NA,NA
53040,Washington County,WI,NA,88.60353130016051,NA
53121,Walworth County,WI,NA,NA,40.17341040462428
53154,Milwaukee County,WI,NA,86.03531300160515,NA
53189,Waukesha County,WI,NA,NA,31.79190751445087
53191,Walworth County,WI,NA,96.30818619582665,NA
53206,Milwaukee County,WI,NA,7.704654895666131,NA
53209,Milwaukee County,WI,58.60058309037901,NA,NA
53214,Milwaukee County,WI,NA,NA,20.809248554913296
53218,Milwaukee County,WI,NA,6.5810593900481535,NA
53220,Milwaukee County,WI,NA,NA,11.849710982658959
53402,Racine County,WI,NA,NA,52.312138728323696
53511,Rock County,WI,NA,0.4815409309791332,NA
53549,Jefferson County,WI,NA,97.27126805778491,NA
53562,Dane County,WI,NA,NA,93.64161849710982
53705,Dane County,WI,NA,NA,89.59537572254335
53716,Dane County,WI,56.268221574344025,NA,NA
53954,Columbia County,WI,80.75801749271136,NA,NA
53959,Sauk County,WI,NA,32.74478330658106,NA
54022,Pierce County,WI,38.19241982507289,NA,NA
54401,Marathon County,WI,25.364431486880466,NA,NA
54409,Langlade County,WI,NA,17.174959871589085,NA
54456,Clark County,WI,NA,NA,91.04046242774567
54494,Wood County,WI,NA,85.87479935794543,NA
54534,Iron County,WI,NA,99.83948635634029,NA
54911,Outagamie County,WI,NA,NA,54.04624277456648
54963,Winnebago County,WI,53.93586005830904,NA,NA
82443,Hot Springs County,WY,NA,NA,98.55491329479769
82604,Natrona County,WY,NA,NA,45.95375722543353
