ZipCode,county,state,Adult,Retirement,Geriatric
35005,Jefferson County,AL,NA,NA,76.88172043010752
35022,Jefferson County,AL,28.924598269468483,NA,NA
35077,Cullman County,AL,NA,53.62739408009286,NA
35115,Shelby County,AL,NA,49.56471271038886,NA
35120,St. Clair County,AL,NA,62.100986651189785,NA
35128,St. Clair County,AL,NA,55.5426581543819,NA
35150,Talladega County,AL,NA,NA,39.03225806451613
35210,Jefferson County,AL,NA,52.40858966918166,NA
35213,Jefferson County,AL,NA,51.30586186883343,NA
35222,Jefferson County,AL,80.46971569839307,NA,NA
35235,Jefferson County,AL,NA,NA,80.21505376344086
35244,Jefferson County,AL,NA,30.52814857806152,NA
35401,Tuscaloosa County,AL,44.37577255871446,NA,NA
35453,Tuscaloosa County,AL,NA,54.904236796285545,NA
35475,Tuscaloosa County,AL,NA,83.16889146836913,NA
35476,Tuscaloosa County,AL,82.81829419035847,NA,NA
35504,Walker County,AL,NA,50.37724898432966,NA
35570,Marion County,AL,NA,79.74463145676147,NA
35603,Morgan County,AL,NA,NA,20.107526881720432
35613,Limestone County,AL,31.025957972805934,NA,NA
35674,Colbert County,AL,25.339925834363413,NA,NA
35758,Madison County,AL,NA,NA,23.225806451612904
35768,Jackson County,AL,NA,41.38131166569936,NA
35810,Madison County,AL,NA,13.813116656993616,16.7741935483871
35951,Marshall County,AL,NA,NA,61.29032258064516
35952,Etowah County,AL,75.15451174289247,NA,NA
36066,Autauga County,AL,77.75030902348578,NA,NA
36093,Elmore County,AL,NA,NA,68.38709677419355
36111,Montgomery County,AL,NA,NA,65.80645161290323
36116,Montgomery County,AL,13.8442521631644,NA,NA
36206,Calhoun County,AL,NA,NA,66.02150537634408
36274,Randolph County,AL,NA,96.92396982008125,NA
36305,Houston County,AL,43.75772558714463,NA,NA
36322,Dale County,AL,NA,NA,81.0752688172043
36345,Henry County,AL,NA,69.99419616947186,NA
36420,Covington County,AL,67.86155747836835,NA,NA
36567,Baldwin County,AL,NA,NA,50.967741935483865
36571,Mobile County,AL,NA,NA,75.26881720430107
36587,Mobile County,AL,64.02966625463536,NA,NA
36603,Mobile County,AL,NA,85.43238537434706,NA
36608,Mobile County,AL,33.49814585908529,NA,NA
36701,Dallas County,AL,45.982694684796044,NA,NA
36726,Wilcox County,AL,NA,NA,87.8494623655914
36832,Lee County,AL,NA,NA,98.70967741935483
99502,Anchorage Municipality,AK,NA,64.36448055716774,NA
99508,Anchorage Municipality,AK,NA,27.336041787579802,NA
99516,Anchorage Municipality,AK,NA,NA,89.13978494623656
99577,Anchorage Municipality,AK,59.20889987639061,NA,NA
99623,,AK,NA,97.56239117817759,NA
85003,Maricopa County,AZ,NA,80.32501450957632,NA
85007,Maricopa County,AZ,NA,22.925130586186885,NA
85009,Maricopa County,AZ,NA,17.46952988972722,NA
85015,Maricopa County,AZ,NA,38.7695879280325,NA
85020,Maricopa County,AZ,NA,23.91178177597214,NA
85021,Maricopa County,AZ,NA,23.38943702843877,NA
85022,Maricopa County,AZ,NA,18.86244921648288,38.064516129032256
85033,Maricopa County,AZ,NA,59.547301218804414,NA
85037,Maricopa County,AZ,NA,49.04236796285548,NA
85040,Maricopa County,AZ,NA,42.77423099245502,NA
85043,Maricopa County,AZ,NA,50.319210679048176,NA
85051,Maricopa County,AZ,NA,57.22576900754498,NA
85054,Maricopa County,AZ,NA,98.54904236796285,NA
85118,Pinal County,AZ,NA,51.8282066163668,NA
85120,Pinal County,AZ,31.1495673671199,NA,NA
85140,Pinal County,AZ,25.21631644004944,NA,NA
85203,Maricopa County,AZ,NA,38.53743470690656,52.795698924731184
85204,Maricopa County,AZ,59.82694684796045,19.26871735345328,NA
85205,Maricopa County,AZ,NA,16.48287869994196,NA
85207,Maricopa County,AZ,17.79975278121137,NA,NA
85208,Maricopa County,AZ,NA,58.61868833430064,NA
85209,Maricopa County,AZ,NA,46.77887405687754,NA
85225,Maricopa County,AZ,8.15822002472188,NA,NA
85233,Maricopa County,AZ,NA,41.43934997098085,NA
85253,Maricopa County,AZ,NA,60.88218224027858,NA
85257,Maricopa County,AZ,52.90482076637824,92.6291352292513,NA
85258,Maricopa County,AZ,NA,NA,82.15053763440861
85281,Maricopa County,AZ,25.46353522867738,NA,NA
85286,Maricopa County,AZ,NA,63.377829367382475,NA
85297,Maricopa County,AZ,NA,70.34242600116076,NA
85301,Maricopa County,AZ,NA,NA,20.107526881720432
85303,Maricopa County,AZ,NA,78.46778874056878,NA
85304,Maricopa County,AZ,NA,51.131746952988976,NA
85306,Maricopa County,AZ,NA,NA,45.483870967741936
85308,Maricopa County,AZ,NA,NA,27.419354838709676
85345,Maricopa County,AZ,NA,6.558328496807893,NA
85367,Yuma County,AZ,70.21013597033374,NA,NA
85374,Maricopa County,AZ,NA,11.54962275101567,NA
85375,Maricopa County,AZ,NA,NA,0.5376344086021506
85381,Maricopa County,AZ,NA,NA,34.193548387096776
85390,Maricopa County,AZ,NA,NA,54.086021505376344
85621,Santa Cruz County,AZ,80.96415327564895,NA,NA
85704,Pima County,AZ,NA,20.37144515380151,NA
85705,Pima County,AZ,2.4721878862793574,NA,NA
85710,Pima County,AZ,NA,9.982588508415555,NA
85713,Pima County,AZ,NA,4.933255948926291,16.666666666666664
85714,Pima County,AZ,NA,NA,60.752688172043015
85750,Pima County,AZ,52.90482076637824,NA,NA
85755,Pima County,AZ,NA,NA,24.623655913978496
86004,Coconino County,AZ,NA,7.951247823563552,NA
86305,Yavapai County,AZ,NA,24.260011607661056,NA
86314,Yavapai County,AZ,NA,15.031921067904817,NA
86401,Mohave County,AZ,68.8504326328801,44.631456761462566,NA
86406,Mohave County,AZ,NA,16.94718514219385,NA
86409,Mohave County,AZ,NA,75.1015670342426,NA
86442,Mohave County,AZ,NA,NA,15.698924731182796
71730,Union County,AR,NA,19.38479396401625,NA
71854,Miller County,AR,NA,74.52118398142774,NA
71909,Garland County,AR,NA,NA,10.75268817204301
71923,Clark County,AR,NA,89.43702843876959,NA
72022,Saline County,AR,74.41285537700865,49.15844457341846,NA
72023,Lonoke County,AR,NA,18.746372605919905,NA
72031,Van Buren County,AR,NA,NA,72.25806451612902
72058,Faulkner County,AR,69.34487021013597,NA,NA
72104,Hot Spring County,AR,NA,NA,70.21505376344086
72160,Arkansas County,AR,NA,65.98955310504934,NA
72209,Pulaski County,AR,NA,54.43993035403366,NA
72404,Craighead County,AR,37.45364647713226,NA,NA
72542,Sharp County,AR,NA,NA,86.98924731182795
72543,Cleburne County,AR,NA,48.11375507835171,NA
72601,Boone County,AR,NA,84.15554265815437,NA
72687,Marion County,AR,NA,99.36157864190366,NA
72715,Benton County,AR,79.85166872682325,47.70748694138131,43.655913978494624
72756,Benton County,AR,NA,24.666279744631456,NA
72761,Benton County,AR,NA,77.48113755078352,NA
72774,Washington County,AR,NA,91.52640742890308,NA
72916,Sebastian County,AR,NA,NA,87.09677419354838
72927,Logan County,AR,NA,69.23969820081254,NA
72956,Crawford County,AR,37.94808405438813,NA,NA
90011,Los Angeles County,CA,NA,34.47475333720255,NA
90022,Los Angeles County,CA,82.07663782447466,NA,NA
90024,Los Angeles County,CA,NA,NA,54.516129032258064
90027,Los Angeles County,CA,NA,NA,13.655913978494624
90032,Los Angeles County,CA,76.26699629171817,NA,NA
90039,Los Angeles County,CA,NA,65.11897852582705,NA
90040,Los Angeles County,CA,NA,97.91062100986652,NA
90042,Los Angeles County,CA,77.99752781211372,NA,21.935483870967744
90046,Los Angeles County,CA,NA,72.78003482298317,NA
90047,Los Angeles County,CA,NA,7.4289030760301795,NA
90049,Los Angeles County,CA,NA,NA,16.344086021505376
90062,Los Angeles County,CA,NA,NA,42.473118279569896
90063,Los Angeles County,CA,65.14215080346106,NA,NA
90201,Los Angeles County,CA,NA,26.05919907138712,42.25806451612903
90220,Los Angeles County,CA,NA,NA,29.24731182795699
90221,Los Angeles County,CA,NA,25.536854323853742,NA
90230,Los Angeles County,CA,NA,37.43470690655833,NA
90241,Los Angeles County,CA,41.161928306551296,NA,NA
90247,Los Angeles County,CA,65.51297898640297,67.49854904236796,92.36559139784947
90248,Los Angeles County,CA,80.34610630407911,NA,NA
90250,Los Angeles County,CA,NA,46.60475914103308,NA
90277,Los Angeles County,CA,NA,22.518862449216485,NA
90278,Los Angeles County,CA,NA,41.497388276262335,NA
90280,Los Angeles County,CA,21.878862793572313,NA,NA
90301,Los Angeles County,CA,NA,62.333139872315726,NA
90302,Los Angeles County,CA,NA,68.07893209518282,NA
90404,Los Angeles County,CA,NA,87.40568775391758,NA
90501,Los Angeles County,CA,36.83559950556242,NA,NA
90601,Los Angeles County,CA,NA,51.36390017411492,NA
90603,Los Angeles County,CA,NA,40.452698781195586,NA
90606,Los Angeles County,CA,NA,46.02437608821822,NA
90620,Orange County,CA,89.36959208899876,72.31572838073129,NA
90703,Los Angeles County,CA,NA,23.50551363900174,27.09677419354839
90706,Los Angeles County,CA,NA,72.19965177016832,NA
90712,Los Angeles County,CA,NA,86.01276842716192,NA
90715,Los Angeles County,CA,NA,61.984910040626815,NA
90716,Los Angeles County,CA,NA,87.69587928032502,NA
90744,Los Angeles County,CA,NA,44.97968659315148,51.50537634408602
90745,Los Angeles County,CA,NA,21.18398142774231,NA
90803,Los Angeles County,CA,NA,35.86767266395821,NA
90804,Los Angeles County,CA,60.44499381953028,49.68078932095183,NA
90805,Los Angeles County,CA,11.124845488257108,NA,NA
90808,Los Angeles County,CA,NA,31.108531630876378,NA
91001,Los Angeles County,CA,NA,NA,59.03225806451613
91006,Los Angeles County,CA,NA,68.65931514799767,NA
91007,Los Angeles County,CA,NA,91.99071387115497,NA
91011,Los Angeles County,CA,94.80840543881335,NA,NA
91042,Los Angeles County,CA,59.33250927070457,NA,NA
91201,Los Angeles County,CA,NA,77.88740568775393,NA
91301,Los Angeles County,CA,NA,59.37318630295996,NA
91304,Los Angeles County,CA,NA,39.93035403366222,NA
91306,Los Angeles County,CA,30.407911001236094,38.131166569936155,NA
91320,Ventura County,CA,NA,NA,37.95698924731183
91325,Los Angeles County,CA,NA,52.35055136390018,NA
91326,Los Angeles County,CA,83.55995055624228,NA,32.68817204301075
91331,Los Angeles County,CA,NA,11.665699361578643,23.763440860215056
91342,Los Angeles County,CA,55.624227441285534,NA,NA
91350,Los Angeles County,CA,49.07292954264524,NA,NA
91355,Los Angeles County,CA,56.36588380716935,NA,NA
91402,Los Angeles County,CA,NA,55.36854323853744,21.72043010752688
91504,Los Angeles County,CA,NA,55.8908879860708,NA
91505,Los Angeles County,CA,NA,NA,55.80645161290323
91604,Los Angeles County,CA,NA,45.61810795124782,NA
91701,San Bernardino County,CA,NA,20.023215322112595,NA
91702,Los Angeles County,CA,75.0309023485785,32.03714451538015,NA
91709,San Bernardino County,CA,23.73300370828183,NA,NA
91710,San Bernardino County,CA,NA,11.897852582704585,NA
91711,Los Angeles County,CA,NA,52.6407428903076,NA
91723,Los Angeles County,CA,65.63658838071693,NA,NA
91730,San Bernardino County,CA,NA,25.59489262913523,NA
91732,Los Angeles County,CA,NA,NA,86.7741935483871
91741,Los Angeles County,CA,NA,39.291932675565874,NA
91744,Los Angeles County,CA,52.78121137206428,48.28786999419617,NA
91750,Los Angeles County,CA,NA,30.702263493905978,NA
91754,Los Angeles County,CA,NA,NA,17.419354838709676
91762,San Bernardino County,CA,NA,36.15786419036564,NA
91764,San Bernardino County,CA,NA,46.952988972722,NA
91765,Los Angeles County,CA,NA,70.92280905397563,NA
91766,Los Angeles County,CA,NA,NA,25.806451612903224
91770,Los Angeles County,CA,38.19530284301607,62.565293093441674,NA
91773,Los Angeles County,CA,NA,19.67498549042368,NA
91780,Los Angeles County,CA,NA,82.58850841555426,NA
91784,San Bernardino County,CA,57.849196538936965,NA,NA
91786,San Bernardino County,CA,NA,70.74869413813116,NA
91791,Los Angeles County,CA,NA,37.26059199071387,NA
91792,Los Angeles County,CA,NA,95.29889727219965,NA
91911,San Diego County,CA,NA,NA,6.666666666666667
91913,San Diego County,CA,58.590852904820764,NA,75.48387096774194
91942,San Diego County,CA,NA,75.68195008705746,NA
91977,San Diego County,CA,NA,66.45385954730122,NA
91978,San Diego County,CA,93.94313967861557,NA,NA
92014,San Diego County,CA,NA,70.51654091700522,NA
92019,San Diego County,CA,NA,35.40336622170633,NA
92020,San Diego County,CA,NA,4.2948345908299475,NA
92024,San Diego County,CA,72.43510506798516,NA,NA
92026,San Diego County,CA,NA,82.76262333139871,NA
92040,San Diego County,CA,NA,17.17933836331979,NA
92054,San Diego County,CA,32.756489493201485,48.52002321532211,NA
92057,San Diego County,CA,42.89245982694685,NA,NA
92071,San Diego County,CA,16.81087762669963,NA,NA
92075,San Diego County,CA,NA,NA,99.67741935483872
92101,San Diego County,CA,9.765142150803461,29.193267556587347,NA
92111,San Diego County,CA,68.23238566131026,NA,NA
92120,San Diego County,CA,NA,56.761462565293094,NA
92122,San Diego County,CA,NA,52.698781195589085,NA
92124,San Diego County,CA,NA,80.67324434126523,NA
92154,San Diego County,CA,NA,NA,37.204301075268816
92201,Riverside County,CA,NA,NA,50.752688172043015
92220,Riverside County,CA,NA,NA,18.817204301075268
92236,Riverside County,CA,59.95055624227441,NA,NA
92253,Riverside County,CA,NA,5.3395240858966915,NA
92260,Riverside County,CA,NA,NA,0.7526881720430108
92264,Riverside County,CA,NA,NA,12.043010752688172
92274,Riverside County,CA,80.84054388133498,NA,NA
92277,San Bernardino County,CA,NA,94.19616947185142,NA
92301,San Bernardino County,CA,23.60939431396786,NA,NA
92308,San Bernardino County,CA,NA,90.82994776552525,60.43010752688171
92314,San Bernardino County,CA,NA,NA,75.80645161290323
92324,San Bernardino County,CA,13.22620519159456,NA,48.494623655913976
92325,San Bernardino County,CA,72.68232385661311,NA,NA
92335,San Bernardino County,CA,81.45859085290482,55.19442832269298,NA
92336,San Bernardino County,CA,42.15080346106304,10.44689495066744,NA
92374,San Bernardino County,CA,NA,49.33255948926291,NA
92392,San Bernardino County,CA,64.40049443757727,NA,NA
92399,San Bernardino County,CA,NA,13.290771909460245,NA
92410,San Bernardino County,CA,23.23856613102596,NA,NA
92506,Riverside County,CA,57.231149567367126,NA,40.53763440860215
92507,Riverside County,CA,NA,NA,46.98924731182796
92532,Riverside County,CA,77.62669962917181,NA,NA
92551,Riverside County,CA,51.9159456118665,NA,NA
92553,Riverside County,CA,NA,84.38769587928033,34.40860215053764
92563,Riverside County,CA,NA,NA,33.44086021505376
92571,Riverside County,CA,NA,42.07777132907719,NA
92582,Riverside County,CA,57.972805933250925,NA,NA
92584,Riverside County,CA,33.62175525339926,NA,NA
92591,Riverside County,CA,36.711990111248454,NA,NA
92602,Orange County,CA,NA,82.12420197330238,NA
92603,Orange County,CA,NA,77.65525246662797,NA
92606,Orange County,CA,67.98516687268233,NA,NA
92630,Orange County,CA,NA,11.085316308763785,NA
92637,Orange County,CA,NA,22.344747533372026,NA
92646,Orange County,CA,NA,26.349390597794542,NA
92647,Orange County,CA,NA,43.64480557167731,11.29032258064516
92653,Orange County,CA,NA,NA,65.26881720430107
92675,Orange County,CA,NA,33.77829367382472,NA
92691,Orange County,CA,NA,NA,36.45161290322581
92708,Orange County,CA,NA,9.34416715031921,NA
92780,Orange County,CA,26.823238566131025,NA,NA
92801,Orange County,CA,NA,23.21532211259431,NA
92806,Orange County,CA,69.71569839307787,NA,NA
92807,Orange County,CA,NA,29.367382472431803,NA
92808,Orange County,CA,NA,69.23969820081254,NA
92833,Orange County,CA,NA,20.951828206616366,NA
92843,Orange County,CA,NA,40.684852002321534,NA
92867,Orange County,CA,44.9938195302843,NA,81.29032258064515
92869,Orange County,CA,NA,36.3319791062101,NA
92880,Riverside County,CA,14.833127317676142,42.426001160766106,NA
92881,Riverside County,CA,NA,60.76610562971562,NA
92882,Riverside County,CA,NA,56.7034242600116,49.56989247311828
93003,Ventura County,CA,NA,13.116656993615786,11.182795698924732
93004,Ventura County,CA,NA,38.07312826465467,NA
93015,Ventura County,CA,NA,67.3244341265235,NA
93033,Ventura County,CA,7.911001236093942,NA,NA
93065,Ventura County,CA,NA,13.000580383052815,NA
93117,Santa Barbara County,CA,NA,NA,89.03225806451613
93215,Kern County,CA,44.6229913473424,NA,NA
93306,Kern County,CA,13.597033374536466,NA,NA
93312,Kern County,CA,83.0655129789864,NA,NA
93313,Kern County,CA,NA,88.91468369123622,NA
93405,San Luis Obispo County,CA,NA,NA,59.354838709677416
93422,San Luis Obispo County,CA,NA,35.17121300058038,NA
93454,Santa Barbara County,CA,NA,65.00290191526408,73.54838709677419
93555,Kern County,CA,16.563658838071692,13.000580383052815,NA
93611,Fresno County,CA,NA,24.60824143934997,NA
93619,Fresno County,CA,31.1495673671199,NA,NA
93638,Madera County,CA,NA,35.5194428322693,NA
93647,Tulare County,CA,81.21137206427689,NA,NA
93706,Fresno County,CA,41.5327564894932,NA,NA
93720,Fresno County,CA,NA,17.06326175275682,NA
93901,Monterey County,CA,NA,57.86419036564132,NA
93906,Monterey County,CA,NA,31.863029599535693,NA
93908,Monterey County,CA,NA,71.09692396982008,NA
93923,Monterey County,CA,NA,NA,87.63440860215054
93960,Monterey County,CA,87.14462299134735,92.74521183981427,NA
94014,San Mateo County,CA,NA,NA,7.526881720430108
94015,San Mateo County,CA,NA,NA,50.645161290322584
94024,Santa Clara County,CA,NA,NA,74.3010752688172
94043,Santa Clara County,CA,NA,77.9454439930354,39.56989247311828
94044,San Mateo County,CA,NA,18.514219384793964,NA
94061,San Mateo County,CA,66.62546353522868,NA,NA
94062,San Mateo County,CA,NA,NA,37.31182795698925
94080,San Mateo County,CA,NA,4.004643064422519,2.3655913978494625
94085,Santa Clara County,CA,74.78368355995056,NA,NA
94109,San Francisco County,CA,19.530284301606923,6.616366802089379,3.978494623655914
94110,San Francisco County,CA,NA,NA,17.741935483870968
94112,San Francisco County,CA,NA,NA,3.010752688172043
94118,San Francisco County,CA,NA,78.87405687753918,NA
94121,San Francisco County,CA,NA,73.53453279164248,NA
94124,San Francisco County,CA,NA,NA,38.60215053763441
94127,San Francisco County,CA,NA,78.58386535113175,NA
94131,San Francisco County,CA,86.89740420271941,NA,NA
94403,San Mateo County,CA,NA,NA,9.032258064516128
94404,San Mateo County,CA,57.60197775030902,NA,NA
94501,Alameda County,CA,NA,NA,18.064516129032256
94506,Contra Costa County,CA,NA,61.288450377248985,NA
94509,Contra Costa County,CA,14.585908529048208,NA,NA
94513,Contra Costa County,CA,NA,NA,21.182795698924732
94518,Contra Costa County,CA,NA,NA,69.35483870967742
94531,Contra Costa County,CA,NA,NA,33.33333333333333
94534,Solano County,CA,NA,33.31398723157284,NA
94538,Alameda County,CA,NA,32.90771909460244,NA
94539,Alameda County,CA,NA,NA,30
94541,Alameda County,CA,NA,12.071967498549043,NA
94544,Alameda County,CA,NA,7.080673244341265,15.591397849462366
94547,Contra Costa County,CA,NA,60.824143934997096,NA
94563,Contra Costa County,CA,NA,66.16366802089378,NA
94564,Contra Costa County,CA,NA,50.89959373186302,NA
94565,Contra Costa County,CA,NA,4.352872896111434,NA
94571,Solano County,CA,NA,47.99767846778874,NA
94572,Contra Costa County,CA,NA,92.45502031340685,NA
94574,Napa County,CA,NA,NA,59.46236559139785
94577,Alameda County,CA,26.57601977750309,NA,26.666666666666668
94578,Alameda County,CA,NA,NA,93.33333333333333
94579,Alameda County,CA,NA,61.69471851421938,NA
94587,Alameda County,CA,25.95797280593325,NA,NA
94588,Alameda County,CA,NA,NA,47.204301075268816
94589,Solano County,CA,NA,66.9762042948346,NA
94590,Solano County,CA,NA,17.933836331979105,NA
94591,Solano County,CA,NA,28.438769587928032,NA
94595,Contra Costa County,CA,NA,39.756239117817756,28.279569892473116
94598,Contra Costa County,CA,NA,70.5745792222867,86.88172043010752
94607,Alameda County,CA,NA,82.4724318049913,NA
94610,Alameda County,CA,49.69097651421508,54.7301218804411,72.79569892473118
94704,Alameda County,CA,NA,NA,95.80645161290322
94705,Alameda County,CA,NA,95.00870574579223,NA
94709,Alameda County,CA,NA,NA,89.46236559139786
94901,Marin County,CA,NA,27.91642484039466,NA
94945,Marin County,CA,NA,88.1601857225769,NA
94952,Sonoma County,CA,61.68108776266996,26.40742890307603,NA
94954,Sonoma County,CA,NA,82.4143934997098,22.365591397849464
95005,Santa Cruz County,CA,93.8195302843016,NA,NA
95010,Santa Cruz County,CA,86.15574783683559,77.82936738247244,NA
95035,Santa Clara County,CA,NA,35.75159605339524,NA
95050,Santa Clara County,CA,NA,45.90829947765525,NA
95066,Santa Cruz County,CA,NA,NA,73.9784946236559
95073,Santa Cruz County,CA,NA,NA,76.55913978494624
95111,Santa Clara County,CA,27.6885043263288,NA,NA
95116,Santa Clara County,CA,NA,NA,44.40860215053763
95117,Santa Clara County,CA,NA,57.22576900754498,NA
95120,Santa Clara County,CA,NA,38.7695879280325,NA
95123,Santa Clara County,CA,NA,94.54439930354035,NA
95124,Santa Clara County,CA,80.09888751545118,27.045850261172372,NA
95125,Santa Clara County,CA,NA,NA,18.70967741935484
95132,Santa Clara County,CA,NA,52.11839814277424,NA
95204,San Joaquin County,CA,NA,54.091700522344745,NA
95209,San Joaquin County,CA,81.58220024721878,NA,NA
95240,San Joaquin County,CA,NA,34.64886825304701,NA
95336,San Joaquin County,CA,47.83683559950556,NA,NA
95340,Merced County,CA,NA,39.81427742309925,NA
95341,Merced County,CA,43.51050679851669,NA,NA
95354,Stanislaus County,CA,NA,44.10911201392919,NA
95355,Stanislaus County,CA,NA,45.85026117237377,NA
95357,Stanislaus County,CA,NA,64.24840394660475,NA
95358,Stanislaus County,CA,NA,78.52582704585026,NA
95361,Stanislaus County,CA,NA,20.60359837492745,NA
95367,Stanislaus County,CA,NA,63.2617527568195,NA
95380,Stanislaus County,CA,19.03584672435105,12.826465467208358,NA
95437,Mendocino County,CA,NA,74.34706906558328,NA
95446,Sonoma County,CA,NA,93.67382472431804,NA
95448,Sonoma County,CA,NA,34.24260011607661,NA
95470,Mendocino County,CA,NA,85.60650029019152,NA
95472,Sonoma County,CA,69.83930778739185,NA,NA
95476,Sonoma County,CA,NA,24.78235635519443,NA
95602,Placer County,CA,NA,NA,68.60215053763442
95608,Sacramento County,CA,29.54264524103832,94.02205455600696,NA
95621,Sacramento County,CA,NA,25.47881601857226,81.82795698924731
95624,Sacramento County,CA,NA,16.77307022634939,NA
95660,Sacramento County,CA,29.78986402966625,NA,NA
95667,El Dorado County,CA,22.126081582200246,NA,NA
95677,Placer County,CA,66.37824474660074,NA,NA
95678,Placer County,CA,NA,54.32385374347069,NA
95687,Solano County,CA,NA,44.34126523505514,NA
95688,Solano County,CA,50.679851668726826,NA,NA
95693,Sacramento County,CA,NA,94.6604759141033,NA
95695,Yolo County,CA,51.1742892459827,84.44573418456181,NA
95747,Placer County,CA,NA,NA,7.741935483870968
95762,El Dorado County,CA,38.31891223733004,NA,NA
95765,Placer County,CA,NA,54.96227510156704,52.25806451612903
95776,Yolo County,CA,NA,73.12826465467208,NA
95817,Sacramento County,CA,NA,54.43993035403366,NA
95820,Sacramento County,CA,NA,NA,40.43010752688172
95821,Sacramento County,CA,NA,76.78467788740568,NA
95822,Sacramento County,CA,NA,NA,16.989247311827956
95825,Sacramento County,CA,NA,NA,29.78494623655914
95826,Sacramento County,CA,41.03831891223733,NA,NA
95827,Sacramento County,CA,NA,55.36854323853744,NA
95828,Sacramento County,CA,NA,22.11259431224608,NA
95831,Sacramento County,CA,43.13967861557478,38.42135809634359,NA
95834,Sacramento County,CA,NA,65.17701683110853,NA
95838,Sacramento County,CA,NA,78.00348229831688,NA
95901,Yuba County,CA,15.822002472187885,NA,47.634408602150536
95926,Butte County,CA,NA,17.817759721416135,87.95698924731182
95928,Butte County,CA,NA,NA,98.27956989247312
95945,Nevada County,CA,NA,26.69762042948346,NA
95948,Butte County,CA,NA,NA,49.78494623655914
95959,Nevada County,CA,NA,93.78990133488102,NA
95969,Butte County,CA,NA,80.49912942542078,NA
95991,Sutter County,CA,NA,NA,31.182795698924732
96002,Shasta County,CA,NA,NA,33.5483870967742
96021,Tehama County,CA,NA,NA,94.94623655913979
96064,Siskiyou County,CA,NA,89.32095182820662,NA
96080,Tehama County,CA,NA,48.46198491004063,NA
96150,El Dorado County,CA,NA,NA,85.59139784946237
96161,Nevada County,CA,NA,59.199071387115495,67.20430107526882
80002,Jefferson County,CO,NA,62.97156123041208,NA
80012,Arapahoe County,CO,NA,50.493325594892625,57.634408602150536
80023,Broomfield County,CO,NA,NA,63.11827956989248
80107,Elbert County,CO,NA,65.17701683110853,NA
80108,Douglas County,CO,37.20642768850433,NA,NA
80113,Arapahoe County,CO,NA,66.56993615786419,NA
80120,Arapahoe County,CO,NA,78.40975043528728,NA
80122,Arapahoe County,CO,NA,40.85896691816599,39.35483870967742
80123,Jefferson County,CO,NA,NA,25.591397849462368
80126,Douglas County,CO,NA,44.631456761462566,64.19354838709678
80127,Jefferson County,CO,NA,37.26059199071387,NA
80134,Douglas County,CO,NA,NA,45.69892473118279
80215,Jefferson County,CO,NA,67.15031921067904,NA
80228,Jefferson County,CO,93.4487021013597,43.47069065583285,59.13978494623656
80229,Adams County,CO,68.72682323856613,61.11433546140452,56.774193548387096
80249,Denver County,CO,26.45241038318912,NA,NA
80260,Adams County,CO,35.97033374536465,NA,NA
80504,Boulder County,CO,22.249690976514216,46.5467208357516,NA
80524,Larimer County,CO,NA,75.27568195008706,NA
80525,Larimer County,CO,NA,31.050493325594893,NA
80526,Larimer County,CO,NA,23.157283807312826,NA
80537,Larimer County,CO,NA,9.170052234474753,NA
80538,Larimer County,CO,NA,45.03772489843297,NA
80549,Larimer County,CO,NA,NA,87.52688172043011
80601,Adams County,CO,NA,27.68427161926872,58.602150537634415
80621,Weld County,CO,60.69221260815822,NA,81.93548387096774
80631,Weld County,CO,5.562422744128554,NA,NA
80701,Morgan County,CO,14.709517923362176,NA,NA
80915,El Paso County,CO,NA,NA,50.53763440860215
80919,El Paso County,CO,NA,69.64596633778294,NA
80922,El Paso County,CO,NA,86.9413813116657,NA
81004,Pueblo County,CO,NA,NA,35.80645161290323
81122,La Plata County,CO,NA,NA,86.45161290322581
81303,La Plata County,CO,NA,75.44979686593152,NA
81504,Mesa County,CO,NA,42.65815438189205,NA
81505,Mesa County,CO,NA,97.1561230412072,NA
81521,Mesa County,CO,NA,96.86593151479977,57.41935483870968
81625,Moffat County,CO,56.736711990111246,NA,NA
81650,Garfield County,CO,NA,90.94602437608822,NA
06001,Hartford County,CT,NA,NA,41.075268817204304
06035,Hartford County,CT,NA,NA,76.55913978494624
06037,Hartford County,CT,NA,NA,32.15053763440861
06042,Hartford County,CT,NA,92.91932675565874,NA
06043,Tolland County,CT,NA,NA,88.9247311827957
06051,Hartford County,CT,27.441285537700864,NA,NA
06082,Hartford County,CT,NA,53.56935577481138,NA
06084,Tolland County,CT,NA,83.57515960533952,NA
06110,Hartford County,CT,NA,NA,63.655913978494624
06401,New Haven County,CT,NA,NA,38.70967741935484
06410,New Haven County,CT,NA,NA,30.86021505376344
06450,New Haven County,CT,NA,76.43644805571678,NA
06451,New Haven County,CT,NA,NA,90.64516129032259
06457,Middlesex County,CT,4.944375772558715,NA,NA
06473,New Haven County,CT,NA,21.648287869994196,NA
06475,Middlesex County,CT,NA,87.7539175856065,36.88172043010753
06479,Hartford County,CT,68.97404202719407,NA,NA
06484,Fairfield County,CT,NA,NA,56.236559139784944
06492,New Haven County,CT,14.215080346106305,NA,NA
06511,New Haven County,CT,NA,75.04352872896112,NA
06512,New Haven County,CT,15.57478368355995,NA,NA
06513,New Haven County,CT,NA,5.049332559489263,NA
06514,New Haven County,CT,NA,NA,26.7741935483871
06515,New Haven County,CT,NA,NA,30.430107526881724
06517,New Haven County,CT,NA,31.804991294254208,NA
06614,Fairfield County,CT,43.63411619283066,78.06152060359838,NA
06615,Fairfield County,CT,NA,NA,63.11827956989248
06705,New Haven County,CT,75.64894932014833,NA,NA
06706,New Haven County,CT,NA,NA,92.79569892473118
06786,Litchfield County,CT,NA,67.67266395821242,NA
06811,Fairfield County,CT,NA,18.57225769007545,NA
06824,Fairfield County,CT,55.25339925834364,NA,NA
06850,Fairfield County,CT,NA,96.63377829367383,NA
06903,Fairfield County,CT,NA,97.67846778874056,96.12903225806451
06906,Fairfield County,CT,NA,87.17353453279163,NA
19703,New Castle County,DE,NA,55.13639001741149,NA
19711,New Castle County,DE,NA,NA,13.870967741935484
19720,New Castle County,DE,NA,15.089959373186304,6.021505376344086
19804,New Castle County,DE,19.65389369592089,NA,NA
19805,New Castle County,DE,NA,4.991294254207777,NA
19809,New Castle County,DE,81.08776266996291,NA,NA
19810,New Castle County,DE,NA,NA,23.548387096774192
19901,Kent County,DE,NA,NA,17.634408602150536
19904,Kent County,DE,73.42398022249691,NA,NA
19938,Kent County,DE,NA,47.24318049912943,NA
19947,Sussex County,DE,33.74536464771323,NA,40.10752688172043
19952,Kent County,DE,69.221260815822,NA,NA
19963,Sussex County,DE,NA,NA,78.27956989247312
19966,Sussex County,DE,NA,4.7011027278003485,NA
32033,St. Johns County,FL,NA,NA,77.95698924731182
32034,Nassau County,FL,NA,5.107370864770749,NA
32040,Baker County,FL,NA,83.34300638421358,NA
32082,St. Johns County,FL,NA,NA,62.903225806451616
32092,St. Johns County,FL,NA,59.663377829367384,NA
32110,Flagler County,FL,54.38813349814586,NA,NA
32117,Volusia County,FL,50.92707045735476,NA,26.451612903225808
32162,Sumter County,FL,NA,81.1955890887986,NA
32164,Flagler County,FL,51.545117428924605,9.170052234474753,NA
32168,Volusia County,FL,NA,NA,21.0752688172043
32169,Volusia County,FL,NA,95.1247823563552,45.053763440860216
32176,Volusia County,FL,NA,NA,41.50537634408602
32208,Duval County,FL,35.228677379480835,NA,NA
32211,Duval County,FL,NA,31.572838073128263,NA
32223,Duval County,FL,NA,23.737666860127685,NA
32224,Duval County,FL,NA,32.50145095763204,NA
32250,Duval County,FL,71.9406674907293,NA,NA
32259,St. Johns County,FL,NA,90.13348810214742,NA
32305,Leon County,FL,NA,NA,64.08602150537635
32308,Leon County,FL,NA,49.50667440510737,NA
32309,Leon County,FL,NA,55.484619849100405,NA
32310,Leon County,FL,NA,NA,75.91397849462366
32312,Leon County,FL,NA,NA,43.44086021505376
32348,Taylor County,FL,NA,NA,86.02150537634408
32413,Bay County,FL,98.26946847960446,NA,NA
32425,Holmes County,FL,NA,43.70284387695879,NA
32433,Walton County,FL,NA,29.831688914683692,NA
32444,Bay County,FL,NA,47.53337202553685,NA
32459,Walton County,FL,NA,90.71387115496228,NA
32504,Escambia County,FL,NA,19.326755658734765,NA
32505,Escambia County,FL,NA,87.81195589088799,NA
32533,Escambia County,FL,NA,12.768427161926871,NA
32534,Escambia County,FL,NA,34.76494486360998,34.73118279569892
32535,Escambia County,FL,98.64029666254636,NA,NA
32539,Okaloosa County,FL,NA,18.16598955310505,NA
32541,Okaloosa County,FL,NA,NA,20.75268817204301
32570,Santa Rosa County,FL,NA,20.48752176436448,NA
32571,Santa Rosa County,FL,NA,8.821822402785838,NA
32578,Okaloosa County,FL,NA,12.6523505513639,NA
32605,Alachua County,FL,NA,NA,17.526881720430108
32640,Putnam County,FL,71.19901112484548,NA,NA
32680,Dixie County,FL,NA,81.48578061520604,NA
32702,Lake County,FL,NA,NA,72.36559139784946
32703,Orange County,FL,NA,11.375507835171213,NA
32707,Seminole County,FL,NA,45.32791642484039,NA
32726,Lake County,FL,NA,66.1056297156123,NA
32751,Orange County,FL,NA,40.104468949506675,89.35483870967742
32776,Lake County,FL,NA,91.12013929193267,80.96774193548387
32780,Brevard County,FL,NA,NA,4.623655913978494
32792,Orange County,FL,NA,77.77132907719094,NA
32796,Brevard County,FL,NA,75.56587347649449,NA
32804,Orange County,FL,NA,58.61868833430064,NA
32805,Orange County,FL,NA,31.979106210098667,NA
32807,Orange County,FL,34.9814585908529,NA,NA
32808,Orange County,FL,NA,16.018572257690074,NA
32812,Orange County,FL,54.017305315203956,NA,NA
32817,Orange County,FL,NA,52.06035983749274,61.72043010752688
32818,Orange County,FL,NA,39.291932675565874,NA
32822,Orange County,FL,NA,84.67788740568776,NA
32825,Orange County,FL,NA,9.866511897852583,NA
32839,Orange County,FL,NA,28.728961114335462,NA
32901,Brevard County,FL,NA,35.34532791642484,NA
32905,Brevard County,FL,NA,34.53279164248404,23.978494623655912
32926,Brevard County,FL,NA,33.43006384213581,NA
32962,Indian River County,FL,NA,73.99883923389437,NA
32963,Indian River County,FL,NA,NA,11.397849462365592
32967,Indian River County,FL,NA,37.782936738247244,NA
32976,Brevard County,FL,NA,NA,57.8494623655914
33004,Broward County,FL,NA,56.3551944283227,NA
33009,Broward County,FL,NA,76.26233313987231,7.956989247311828
33013,Miami-Dade County,FL,NA,NA,18.064516129032256
33024,Broward County,FL,20.519159456118665,63.43586767266396,NA
33026,Broward County,FL,NA,44.92164828786999,NA
33027,Broward County,FL,NA,27.742309924550202,NA
33028,Broward County,FL,NA,NA,56.12903225806451
33029,Broward County,FL,46.35352286773795,49.91294254207777,NA
33032,Miami-Dade County,FL,58.4672435105068,NA,NA
33034,Miami-Dade County,FL,NA,NA,75.91397849462366
33035,Miami-Dade County,FL,NA,90.65583284968078,NA
33043,Monroe County,FL,89.61681087762669,NA,NA
33062,Broward County,FL,NA,66.22170632617528,NA
33063,Broward County,FL,NA,19.616947185142195,NA
33067,Broward County,FL,NA,64.42251886244922,NA
33069,Broward County,FL,NA,NA,52.903225806451616
33070,Monroe County,FL,NA,80.90539756239117,NA
33126,Miami-Dade County,FL,76.88504326328801,NA,NA
33131,Miami-Dade County,FL,NA,87.86999419616947,NA
33139,Miami-Dade County,FL,NA,38.711549622751015,NA
33141,Miami-Dade County,FL,NA,55.77481137550784,20.967741935483872
33142,Miami-Dade County,FL,NA,NA,41.82795698924731
33145,Miami-Dade County,FL,NA,NA,22.473118279569892
33161,Miami-Dade County,FL,25.092707045735473,NA,NA
33168,Miami-Dade County,FL,NA,58.502611723737665,NA
33180,Miami-Dade County,FL,NA,91.4103308183401,NA
33182,Miami-Dade County,FL,NA,NA,65.3763440860215
33186,Miami-Dade County,FL,NA,22.17063261752757,NA
33301,Broward County,FL,NA,53.62739408009286,NA
33312,Broward County,FL,24.969097651421507,41.55542658154382,NA
33314,Broward County,FL,NA,41.78757980266976,NA
33328,Broward County,FL,NA,64.65467208357516,NA
33351,Broward County,FL,NA,46.66279744631457,NA
33408,Palm Beach County,FL,99.01112484548825,NA,NA
33414,Palm Beach County,FL,96.16810877626699,NA,NA
33417,Palm Beach County,FL,NA,44.16715031921068,NA
33418,Palm Beach County,FL,NA,19.15264074289031,59.89247311827957
33431,Palm Beach County,FL,NA,93.84793964016251,45.376344086021504
33433,Palm Beach County,FL,NA,13.34881021474173,NA
33442,Broward County,FL,NA,24.956471271038886,NA
33458,Palm Beach County,FL,NA,46.31456761462565,NA
33470,Palm Beach County,FL,NA,68.25304701102728,NA
33484,Palm Beach County,FL,NA,20.89378990133488,NA
33510,Hillsborough County,FL,NA,NA,86.55913978494624
33511,Hillsborough County,FL,NA,18.920487521764365,NA
33513,Sumter County,FL,NA,NA,68.27956989247312
33540,Pasco County,FL,NA,58.270458502611724,NA
33541,Pasco County,FL,NA,55.65873476494486,NA
33542,Pasco County,FL,NA,37.202553685432385,NA
33559,Hillsborough County,FL,NA,97.44631456761462,NA
33563,Hillsborough County,FL,NA,73.24434126523506,NA
33570,Hillsborough County,FL,NA,71.0388856645386,96.55913978494624
33573,Hillsborough County,FL,NA,NA,14.838709677419354
33598,Hillsborough County,FL,NA,NA,97.95698924731184
33606,Hillsborough County,FL,NA,NA,64.94623655913978
33609,Hillsborough County,FL,NA,71.96749854904236,NA
33610,Hillsborough County,FL,NA,72.95414973882762,NA
33612,Hillsborough County,FL,75.27812113720643,NA,NA
33615,Hillsborough County,FL,20.148331273176762,69.99419616947186,NA
33619,Hillsborough County,FL,NA,NA,95.48387096774194
33624,Hillsborough County,FL,NA,33.60417875798027,NA
33625,Hillsborough County,FL,44.746600741656366,NA,NA
33626,Hillsborough County,FL,NA,NA,63.87096774193548
33637,Hillsborough County,FL,NA,NA,97.74193548387096
33647,Hillsborough County,FL,NA,76.26233313987231,NA
33701,Pinellas County,FL,94.31396786155747,NA,NA
33704,Pinellas County,FL,NA,67.49854904236796,NA
33709,Pinellas County,FL,NA,NA,38.494623655913976
33711,Pinellas County,FL,NA,NA,93.2258064516129
33712,Pinellas County,FL,NA,93.20951828206616,NA
33761,Pinellas County,FL,NA,56.81950087057458,NA
33764,Pinellas County,FL,31.89122373300371,NA,NA
33767,Pinellas County,FL,NA,NA,63.655913978494624
33770,Pinellas County,FL,NA,95.99535693557748,NA
33774,Pinellas County,FL,57.972805933250925,NA,NA
33781,Pinellas County,FL,36.21755253399258,NA,NA
33785,Pinellas County,FL,NA,91.29425420777714,NA
33803,Polk County,FL,NA,71.90946024376088,NA
33811,Polk County,FL,54.14091470951793,NA,NA
33813,Polk County,FL,NA,NA,88.38709677419355
33815,Polk County,FL,78.98640296662546,NA,NA
33825,Highlands County,FL,NA,NA,16.236559139784944
33830,Polk County,FL,NA,33.72025536854324,NA
33843,Polk County,FL,83.18912237330038,NA,NA
33859,Polk County,FL,NA,95.5310504933256,61.82795698924731
33860,Polk County,FL,46.22991347342398,49.91294254207777,NA
33870,Highlands County,FL,NA,19.50087057457922,NA
33873,Hardee County,FL,NA,NA,40.75268817204301
33876,Highlands County,FL,NA,NA,84.08602150537634
33881,Polk County,FL,NA,NA,11.0752688172043
33884,Polk County,FL,NA,NA,20.43010752688172
33896,Polk County,FL,99.50556242274413,NA,NA
33919,Lee County,FL,NA,36.273940800928614,NA
33920,Lee County,FL,NA,85.7225769007545,NA
33928,Lee County,FL,NA,22.054556006964596,NA
33931,Lee County,FL,96.41532756489494,NA,NA
33936,Lee County,FL,NA,48.05571677307023,NA
33948,Charlotte County,FL,NA,91.4683691236216,NA
33952,Charlotte County,FL,NA,70.40046430644226,NA
34108,Collier County,FL,NA,71.56123041207196,NA
34110,Collier County,FL,84.30160692212608,NA,NA
34112,Collier County,FL,NA,72.2576900754498,59.24731182795699
34116,Collier County,FL,NA,47.30121880441091,NA
34134,Lee County,FL,NA,NA,72.04301075268818
34202,Manatee County,FL,76.5142150803461,83.51712130005804,71.50537634408603
34203,Manatee County,FL,NA,13.813116656993616,NA
34208,Manatee County,FL,18.046971569839307,NA,NA
34210,Manatee County,FL,NA,51.59605339524086,NA
34222,Manatee County,FL,NA,86.5351131746953,NA
34229,Sarasota County,FL,79.97527812113721,NA,NA
34237,Sarasota County,FL,NA,56.181079512478235,NA
34238,Sarasota County,FL,NA,NA,24.408602150537632
34242,Sarasota County,FL,NA,69.47185142193848,NA
34287,Sarasota County,FL,NA,80.73128264654672,NA
34292,Sarasota County,FL,NA,NA,9.35483870967742
34293,Sarasota County,FL,36.58838071693449,3.8305281485780616,NA
34428,Citrus County,FL,NA,NA,73.01075268817205
34432,Marion County,FL,NA,88.9727219965177,NA
34452,Citrus County,FL,NA,NA,59.46236559139785
34461,Citrus County,FL,NA,73.76668601276842,NA
34465,Citrus County,FL,NA,49.62275101567034,NA
34472,Marion County,FL,54.75896168108776,40.3946604759141,NA
34606,Hernando County,FL,NA,28.32269297736506,NA
34608,Hernando County,FL,28.553770086526576,NA,NA
34609,Hernando County,FL,NA,63.6680208937899,NA
34639,Pasco County,FL,NA,43.00638421358096,NA
34655,Pasco County,FL,93.57231149567366,16.88914683691236,NA
34667,Pasco County,FL,NA,NA,16.021505376344088
34684,Pinellas County,FL,NA,35.1131746952989,NA
34685,Pinellas County,FL,NA,86.47707486941381,NA
34689,Pinellas County,FL,NA,87.46372605919908,NA
34698,Pinellas County,FL,NA,14.451538015089959,NA
34714,Lake County,FL,98.76390605686032,NA,NA
34736,Lake County,FL,NA,NA,67.0967741935484
34748,Lake County,FL,NA,NA,1.5053763440860215
34759,Polk County,FL,NA,NA,50.10752688172043
34786,Orange County,FL,NA,37.666860127684274,NA
34787,Orange County,FL,16.9344870210136,NA,NA
34946,St. Lucie County,FL,66.74907292954263,NA,NA
34953,St. Lucie County,FL,3.4610630407911,NA,NA
34982,St. Lucie County,FL,NA,26.1172373766686,NA
34984,St. Lucie County,FL,NA,60.99825885084156,NA
34996,Martin County,FL,NA,51.4219384793964,79.35483870967742
30019,Gwinnett County,GA,29.171817058096416,29.483459082994777,NA
30030,DeKalb County,GA,NA,44.86360998258851,NA
30034,DeKalb County,GA,NA,62.27510156703424,NA
30044,Gwinnett County,GA,NA,9.112013929193267,NA
30045,Gwinnett County,GA,NA,58.966918165989554,NA
30047,Gwinnett County,GA,NA,NA,59.67741935483871
30052,Walton County,GA,NA,4.81717933836332,NA
30062,Cobb County,GA,NA,NA,51.182795698924735
30066,Cobb County,GA,61.557478368356,NA,NA
30075,Fulton County,GA,NA,NA,34.623655913978496
30096,Gwinnett County,GA,18.665018541409147,NA,14.301075268817204
30101,Cobb County,GA,NA,17.87579802669762,NA
30107,Cherokee County,GA,78.61557478368356,NA,NA
30114,Cherokee County,GA,NA,NA,28.602150537634408
30116,Carroll County,GA,87.88627935723115,NA,NA
30122,Douglas County,GA,NA,60.18572257690076,NA
30125,Polk County,GA,NA,32.50145095763204,NA
30132,Paulding County,GA,NA,26.233313987231572,NA
30135,Douglas County,GA,NA,93.73186302959954,NA
30144,Cobb County,GA,25.834363411619282,37.60882182240279,NA
30157,Paulding County,GA,NA,64.71271038885664,NA
30165,Floyd County,GA,NA,19.733023795705165,NA
30180,Carroll County,GA,NA,25.76900754497969,NA
30214,Fayette County,GA,NA,29.135229251305862,NA
30217,Heard County,GA,53.27564894932016,NA,NA
30240,Troup County,GA,NA,73.65060940220546,NA
30241,Troup County,GA,19.283065512978986,NA,NA
30252,Henry County,GA,NA,66.74405107370865,NA
30253,Henry County,GA,NA,NA,33.11827956989247
30263,Coweta County,GA,NA,83.86535113174696,52.365591397849464
30274,Clayton County,GA,56.983930778739186,59.25710969239698,NA
30281,Henry County,GA,NA,69.93615786419036,NA
30296,Clayton County,GA,NA,58.09634358676726,NA
30328,Fulton County,GA,NA,NA,23.655913978494624
30329,DeKalb County,GA,NA,NA,53.87096774193548
30340,DeKalb County,GA,NA,NA,52.04301075268817
30342,Fulton County,GA,84.79604449938195,NA,NA
30344,Fulton County,GA,NA,29.889727219965177,60.967741935483865
30439,Candler County,GA,NA,65.93151479976784,NA
30467,Screven County,GA,NA,49.10040626813697,NA
30501,Hall County,GA,NA,53.39524085896692,NA
30504,Hall County,GA,NA,NA,66.98924731182797
30506,Hall County,GA,63.535228677379486,12.884503772489845,35.376344086021504
30518,Gwinnett County,GA,NA,NA,34.30107526881721
30519,Gwinnett County,GA,NA,77.48113755078352,NA
30548,Jackson County,GA,NA,NA,51.29032258064517
30642,Greene County,GA,NA,48.69413813116657,NA
30643,Hart County,GA,NA,88.27626233313988,NA
30655,Walton County,GA,NA,NA,43.763440860215056
30705,Murray County,GA,NA,29.251305861868833,NA
30707,Walker County,GA,NA,48.34590829947766,NA
30736,Catoosa County,GA,7.416563658838071,NA,NA
30809,Columbia County,GA,NA,34.06848520023215,NA
30904,Richmond County,GA,24.2274412855377,NA,NA
30906,Richmond County,GA,4.8207663782447465,NA,13.010752688172042
31030,Peach County,GA,NA,58.7928032501451,NA
31079,Wilcox County,GA,95.05562422744129,NA,NA
31093,Houston County,GA,NA,NA,32.043010752688176
31312,Effingham County,GA,NA,NA,99.56989247311829
31324,Bryan County,GA,NA,NA,100
31329,Effingham County,GA,NA,95.82124201973302,NA
31401,Chatham County,GA,NA,63.726059199071386,NA
31408,Chatham County,GA,NA,NA,98.6021505376344
31410,Chatham County,GA,NA,90.01741149158444,NA
31411,Chatham County,GA,NA,61.69471851421938,NA
31419,Chatham County,GA,NA,96.51770168311086,NA
31503,Ware County,GA,NA,NA,84.94623655913979
31510,Bacon County,GA,NA,81.36970400464307,NA
31520,Glynn County,GA,NA,42.83226929773651,NA
31525,Glynn County,GA,38.93695920889987,NA,NA
31545,Wayne County,GA,NA,40.04643064422519,NA
31558,Camden County,GA,NA,51.53801508995938,NA
31705,Dougherty County,GA,NA,17.933836331979105,42.58064516129032
31707,Dougherty County,GA,NA,87.63784097504353,NA
31721,Dougherty County,GA,NA,89.20487521764365,NA
31794,Tift County,GA,NA,11.201392919326755,NA
31820,Muscogee County,GA,91.71817058096416,72.37376668601276,NA
31904,Muscogee County,GA,NA,41.2071967498549,NA
31906,Muscogee County,GA,NA,NA,70.53763440860214
39828,Grady County,GA,77.50309023485785,NA,NA
96706,Honolulu County,HI,NA,33.95240858966918,NA
96720,Hawaii County,HI,23.48578491965389,NA,NA
96744,Honolulu County,HI,NA,NA,3.5483870967741935
96746,Kauai County,HI,51.050679851668725,NA,NA
96749,Hawaii County,HI,NA,NA,84.19354838709677
96761,Maui County,HI,NA,88.04410911201393,NA
96768,Maui County,HI,NA,96.57573998839234,NA
96792,Honolulu County,HI,30.778739184178,NA,NA
96797,Honolulu County,HI,5.438813349814586,NA,NA
96815,Honolulu County,HI,NA,NA,43.87096774193549
96816,Honolulu County,HI,NA,10.621009866511898,NA
96817,Honolulu County,HI,NA,3.5983749274521184,4.301075268817205
96822,Honolulu County,HI,NA,59.72141613464886,NA
96825,Honolulu County,HI,NA,NA,4.193548387096775
83301,Twin Falls County,ID,NA,32.84968078932095,NA
83440,Madison County,ID,88.87515451174289,NA,NA
83501,Nez Perce County,ID,NA,85.66453859547302,NA
83607,Canyon County,ID,28.30655129789864,77.1329077190946,NA
83672,Washington County,ID,NA,NA,48.70967741935484
83702,Ada County,ID,21.137206427688504,NA,NA
83705,Ada County,ID,NA,67.03424260011607,NA
83706,Ada County,ID,NA,NA,85.16129032258064
83709,Ada County,ID,NA,NA,19.35483870967742
83714,Ada County,ID,NA,90.88798607080673,NA
83815,Kootenai County,ID,NA,NA,12.365591397849462
83864,Bonner County,ID,NA,38.53743470690656,NA
60002,Lake County,IL,NA,82.29831688914683,NA
60004,Cook County,IL,NA,78.23563551944284,NA
60008,Cook County,IL,NA,45.21183981427742,NA
60010,Lake County,IL,NA,8.009286128845037,NA
60018,Cook County,IL,NA,26.755658734764943,NA
60044,Lake County,IL,70.70457354758962,74.6952988972722,NA
60046,Lake County,IL,NA,NA,34.73118279569892
60048,Lake County,IL,NA,17.411491584445734,54.946236559139784
60051,McHenry County,IL,NA,17.295414973882764,NA
60060,Lake County,IL,NA,9.053975623911782,NA
60061,Lake County,IL,NA,67.09228090539756,NA
60067,Cook County,IL,NA,84.79396401625073,NA
60077,Cook County,IL,45.24103831891224,NA,NA
60083,Lake County,IL,NA,90.42367962855484,NA
60085,Lake County,IL,NA,68.77539175856066,NA
60089,Lake County,IL,NA,89.55310504933256,NA
60091,Cook County,IL,NA,NA,11.827956989247312
60093,Cook County,IL,NA,NA,63.33333333333333
60098,McHenry County,IL,NA,8.415554265815437,NA
60102,McHenry County,IL,NA,NA,37.526881720430104
60126,DuPage County,IL,NA,NA,4.731182795698925
60130,Cook County,IL,NA,52.524666279744636,82.36559139784946
60172,DuPage County,IL,NA,60.53395240858966,44.516129032258064
60175,Kane County,IL,NA,NA,98.38709677419355
60177,Kane County,IL,44.128553770086526,NA,NA
60188,DuPage County,IL,NA,14.857806152060359,NA
60189,DuPage County,IL,NA,NA,23.010752688172044
60193,Cook County,IL,NA,5.629715612304121,20.86021505376344
60201,Cook County,IL,NA,94.08009286128845,24.516129032258064
60302,Cook County,IL,23.856613102595798,NA,NA
60304,Cook County,IL,NA,NA,56.98924731182796
60401,Will County,IL,NA,NA,68.81720430107528
60403,Will County,IL,NA,80.15089959373186,NA
60411,Cook County,IL,NA,6.0940220545560075,NA
60419,Cook County,IL,NA,25.42077771329077,NA
60420,Livingston County,IL,NA,NA,70.43010752688173
60426,Cook County,IL,NA,63.55194428322692,NA
60428,Cook County,IL,NA,NA,45.913978494623656
60436,Will County,IL,NA,43.29657573998839,NA
60440,Will County,IL,NA,NA,77.52688172043011
60443,Cook County,IL,NA,26.81369704004643,NA
60447,Grundy County,IL,NA,60.591990713871155,NA
60453,Cook County,IL,NA,NA,5.161290322580645
60467,Cook County,IL,NA,NA,11.720430107526882
60477,Cook County,IL,18.294190358467244,34.12652350551364,NA
60487,Cook County,IL,NA,29.367382472431803,NA
60503,Will County,IL,98.14585908529048,NA,NA
60504,DuPage County,IL,53.52286773794809,NA,NA
60517,DuPage County,IL,29.419035846724352,54.2658154381892,NA
60526,Cook County,IL,89.61681087762669,NA,NA
60532,DuPage County,IL,34.857849196538936,NA,NA
60543,Kendall County,IL,NA,35.577481137550784,NA
60544,Will County,IL,NA,46.48868253047011,NA
60545,Kendall County,IL,53.15203955500618,NA,NA
60558,Cook County,IL,95.92088998763906,NA,71.29032258064515
60560,Kendall County,IL,NA,41.149158444573416,NA
60608,Cook County,IL,28.182941903584673,35.98374927452118,45.26881720430108
60615,Cook County,IL,NA,79.10621009866512,NA
60616,Cook County,IL,NA,5.513639001741149,NA
60617,Cook County,IL,NA,12.420197330237958,NA
60619,Cook County,IL,NA,NA,10.86021505376344
60621,Cook County,IL,NA,22.460824143934996,NA
60625,Cook County,IL,NA,8.183401044689495,NA
60630,Cook County,IL,NA,6.848520023215323,35.483870967741936
60633,Cook County,IL,NA,52.40858966918166,NA
60638,Cook County,IL,25.58714462299135,NA,NA
60639,Cook County,IL,NA,NA,31.72043010752688
60643,Cook County,IL,NA,1.625072547881602,NA
60644,Cook County,IL,5.19159456118665,NA,NA
60649,Cook County,IL,NA,4.7011027278003485,14.086021505376344
60652,Cook County,IL,NA,63.31979106210098,NA
60655,Cook County,IL,NA,21.47417295414974,NA
60657,Cook County,IL,74.1656365883807,NA,NA
60659,Cook County,IL,NA,18.224027858386535,NA
60804,Cook County,IL,12.978986402966624,NA,NA
60901,Kankakee County,IL,NA,7.719094602437609,NA
60942,Vermilion County,IL,NA,73.8827626233314,62.688172043010745
61008,Boone County,IL,NA,12.53627394080093,NA
61068,Ogle County,IL,NA,40.917005223447475,NA
61073,Winnebago County,IL,NA,NA,66.55913978494624
61081,Whiteside County,IL,NA,NA,3.225806451612903
61102,Winnebago County,IL,70.82818294190358,NA,NA
61107,Winnebago County,IL,NA,NA,58.49462365591398
61111,Winnebago County,IL,94.93201483312733,NA,NA
61201,Rock Island County,IL,27.317676143386898,NA,NA
61265,Rock Island County,IL,NA,68.83343006384214,NA
61342,LaSalle County,IL,NA,35.69355774811376,NA
61520,Fulton County,IL,NA,NA,23.010752688172044
61554,Tazewell County,IL,NA,6.3842135809634355,85.48387096774194
61605,Peoria County,IL,NA,NA,77.31182795698925
61704,McLean County,IL,28.059332509270707,NA,NA
61727,De Witt County,IL,NA,NA,36.02150537634409
61761,McLean County,IL,NA,30.354033662217063,NA
61821,Champaign County,IL,59.08529048207664,NA,NA
61822,Champaign County,IL,NA,38.015089959373185,NA
61832,Vermilion County,IL,NA,6.035983749274521,NA
61920,Coles County,IL,NA,NA,73.9784946236559
61944,Edgar County,IL,NA,70.86477074869414,NA
61953,Douglas County,IL,85.29048207663782,NA,NA
62025,Madison County,IL,NA,31.22460824143935,NA
62040,Madison County,IL,NA,5.803830528148578,NA
62220,St. Clair County,IL,NA,79.2222867092281,NA
62226,St. Clair County,IL,59.5797280593325,18.04991294254208,NA
62557,Christian County,IL,90.3584672435105,NA,NA
62568,Christian County,IL,NA,43.35461404526988,NA
62629,Sangamon County,IL,NA,76.49448636099827,NA
62644,Mason County,IL,NA,87.3476494486361,NA
62702,Sangamon County,IL,NA,25.88508415554266,NA
62806,Edwards County,IL,90.48207663782448,NA,NA
62812,Franklin County,IL,NA,44.51538015089959,NA
62864,Jefferson County,IL,NA,28.786999419616947,NA
62881,Marion County,IL,NA,NA,33.5483870967742
62896,Franklin County,IL,NA,21.822402785838655,NA
46016,Madison County,IN,NA,88.68253047011028,NA
46033,Hamilton County,IN,NA,NA,32.47311827956989
46038,Hamilton County,IN,NA,69.12362159024956,NA
46107,Marion County,IN,72.18788627935723,NA,NA
46131,Johnson County,IN,NA,66.04759141033082,NA
46143,Johnson County,IN,NA,NA,5.053763440860215
46151,Morgan County,IN,60.321384425216316,NA,NA
46203,Marion County,IN,NA,8.067324434126522,NA
46218,Marion County,IN,NA,91.58444573418456,NA
46219,Marion County,IN,NA,91.23621590249564,NA
46229,Marion County,IN,NA,NA,57.52688172043011
46237,Marion County,IN,39.060568603213845,30.412071967498548,NA
46320,Lake County,IN,24.721878862793574,NA,NA
46322,Lake County,IN,NA,NA,9.46236559139785
46324,Lake County,IN,NA,17.75972141613465,NA
46350,LaPorte County,IN,NA,24.434126523505515,NA
46360,LaPorte County,IN,NA,37.899013348810215,NA
46373,Lake County,IN,NA,57.05165409170052,NA
46375,Lake County,IN,22.49690976514215,10.272780034822983,NA
46408,Lake County,IN,36.093943139678615,NA,80.43010752688173
46410,Lake County,IN,NA,36.390017411491584,18.064516129032256
46554,St. Joseph County,IN,NA,95.35693557748114,NA
46619,St. Joseph County,IN,41.28553770086526,NA,NA
46628,St. Joseph County,IN,NA,36.970400464306444,NA
46723,Whitley County,IN,NA,NA,86.66666666666667
46755,Noble County,IN,NA,NA,49.13978494623656
46761,LaGrange County,IN,NA,92.97736506094022,NA
46807,Allen County,IN,NA,47.82356355194428,NA
46808,Allen County,IN,NA,47.70748694138131,NA
46809,Allen County,IN,42.76885043263288,NA,NA
46901,Howard County,IN,NA,64.59663377829368,NA
46902,Howard County,IN,NA,NA,5.913978494623656
46979,Howard County,IN,NA,93.4416715031921,NA
47025,Dearborn County,IN,NA,NA,43.54838709677419
47060,Dearborn County,IN,NA,93.0354033662217,NA
47129,Clark County,IN,40.17305315203956,89.7852582704585,NA
47203,Bartholomew County,IN,NA,89.66918165989554,NA
47302,Delaware County,IN,11.61928306551298,NA,NA
47331,Fayette County,IN,NA,NA,27.8494623655914
47374,Wayne County,IN,NA,56.99361578641904,0.8602150537634409
47396,Delaware County,IN,NA,81.89204875217644,NA
47454,Orange County,IN,NA,NA,90.32258064516128
47591,Knox County,IN,NA,16.715031921067904,NA
47803,Vigo County,IN,NA,80.20893789901335,NA
47805,Vigo County,IN,82.57107540173052,NA,NA
47842,Vermillion County,IN,NA,90.36564132327337,NA
50129,Greene County,IA,NA,NA,79.24731182795699
50208,Jasper County,IA,NA,NA,36.12903225806451
50501,Webster County,IA,16.440049443757726,NA,NA
50511,Kossuth County,IA,NA,61.984910040626815,NA
50644,Buchanan County,IA,65.26576019777504,NA,NA
50701,Black Hawk County,IA,NA,16.192687173534534,NA
51503,Pottawattamie County,IA,NA,1.9733023795705165,NA
51534,Mills County,IA,NA,58.850841555426584,NA
51537,Shelby County,IA,53.399258343634116,NA,NA
52101,Winneshiek County,IA,56.24227441285537,NA,NA
52172,Allamakee County,IA,NA,79.28032501450957,NA
52241,Johnson County,IA,35.84672435105068,NA,NA
52302,Linn County,IA,91.10012360939432,NA,NA
52349,Benton County,IA,58.96168108776267,NA,NA
52353,Washington County,IA,65.88380716934486,NA,NA
52402,Linn County,IA,39.18417799752781,NA,NA
52404,Linn County,IA,NA,NA,21.935483870967744
52405,Linn County,IA,NA,NA,33.5483870967742
52632,Lee County,IA,NA,71.79338363319792,NA
52742,Clinton County,IA,NA,86.36099825885084,NA
52748,Scott County,IA,73.91841779975277,NA,NA
66030,Johnson County,KS,NA,85.25827045850262,NA
66043,Leavenworth County,KS,NA,80.90539756239117,NA
66048,Leavenworth County,KS,22.62051915945612,NA,NA
66049,Douglas County,KS,89.49320148331273,NA,NA
66061,Johnson County,KS,12.855377008652658,19.09460243760882,NA
66062,Johnson County,KS,NA,NA,79.13978494623656
66102,Wyandotte County,KS,NA,30.644225188624493,NA
66106,Wyandotte County,KS,NA,51.65409170052234,NA
66109,Wyandotte County,KS,NA,NA,22.903225806451612
66112,Wyandotte County,KS,87.39184177997528,NA,NA
66202,Johnson County,KS,NA,NA,84.83870967741936
66204,Johnson County,KS,NA,93.15147997678469,NA
66208,Johnson County,KS,71.07540173053152,NA,NA
66209,Johnson County,KS,NA,32.09518282066164,NA
66212,Johnson County,KS,NA,78.35171213000581,NA
66217,Johnson County,KS,NA,90.1915264074289,NA
66221,Johnson County,KS,NA,65.40917005223447,NA
66441,Geary County,KS,NA,NA,67.20430107526882
66609,Shawnee County,KS,NA,86.1288450377249,NA
66762,Crawford County,KS,97.15698393077874,NA,NA
66801,Lyon County,KS,38.68974042027194,NA,21.827956989247312
66901,Cloud County,KS,NA,78.93209518282066,NA
67010,Butler County,KS,NA,NA,90
67206,Sedgwick County,KS,NA,85.95473012188044,NA
67214,Sedgwick County,KS,55.12978986402967,NA,NA
67230,Sedgwick County,KS,NA,89.3789901334881,NA
67901,Seward County,KS,NA,60.4178757980267,NA
40004,Nelson County,KY,12.237330037082819,NA,NA
40047,Bullitt County,KY,NA,NA,84.3010752688172
40065,Shelby County,KY,NA,20.60359837492745,83.54838709677419
40069,Washington County,KY,99.75278121137207,NA,80.75268817204301
40071,Spencer County,KY,NA,39.175856065002904,NA
40160,Hardin County,KY,22.867737948084056,40.97504352872896,NA
40162,Hardin County,KY,NA,82.06616366802089,NA
40165,Bullitt County,KY,9.517923362175525,NA,96.7741935483871
40203,Jefferson County,KY,14.462299134734241,59.6053395240859,NA
40204,Jefferson County,KY,NA,NA,69.56989247311827
40205,Jefferson County,KY,NA,27.51015670342426,NA
40208,Jefferson County,KY,63.78244746600742,NA,NA
40210,Jefferson County,KY,NA,43.52872896111434,NA
40211,Jefferson County,KY,8.776266996291717,NA,NA
40212,Jefferson County,KY,NA,57.690075449796865,NA
40214,Jefferson County,KY,NA,9.460243760882182,NA
40215,Jefferson County,KY,NA,32.26929773650609,NA
40216,Jefferson County,KY,NA,62.913522925130586,51.82795698924731
40219,Jefferson County,KY,72.80593325092707,NA,NA
40220,Jefferson County,KY,NA,43.238537434706906,NA
40223,Jefferson County,KY,83.80716934487022,NA,NA
40229,Jefferson County,KY,76.1433868974042,NA,NA
40291,Jefferson County,KY,37.08281829419035,NA,24.193548387096776
40312,Powell County,KY,NA,71.61926871735346,NA
40342,Anderson County,KY,24.84548825710754,NA,NA
40356,Jessamine County,KY,NA,15.322112594312246,NA
40383,Woodford County,KY,NA,31.92106790481718,NA
40403,Madison County,KY,15.080346106304079,NA,NA
40484,Lincoln County,KY,54.51174289245982,NA,NA
40505,Fayette County,KY,NA,52.87289611143354,NA
40701,Whitley County,KY,NA,7.138711549622751,18.387096774193548
41018,Kenton County,KY,NA,17.06326175275682,NA
41031,Harrison County,KY,NA,58.734764944863606,NA
41042,Boone County,KY,3.3374536464771323,3.5403366221706327,NA
41048,Boone County,KY,NA,73.8827626233314,NA
41091,Boone County,KY,NA,53.10504933255948,NA
41230,Lawrence County,KY,NA,62.15902495647128,NA
42003,McCracken County,KY,NA,38.30528148578062,NA
42025,Marshall County,KY,32.63288009888752,NA,NA
42101,Warren County,KY,4.326328800988875,9.576320371445155,NA
42104,Warren County,KY,31.520395550061803,34.53279164248404,NA
42240,Christian County,KY,3.955500618046971,NA,NA
42303,Daviess County,KY,NA,12.188044109112015,NA
42345,Muhlenberg County,KY,NA,51.18978525827046,NA
42420,Henderson County,KY,NA,34.35867672663958,NA
42539,Casey County,KY,NA,NA,95.05376344086022
42544,Pulaski County,KY,NA,65.17701683110853,NA
42701,Hardin County,KY,NA,5.745792222867093,NA
42717,Cumberland County,KY,42.52163164400494,59.779454439930355,NA
42718,Taylor County,KY,NA,89.95937318630295,NA
42728,Adair County,KY,40.42027194066749,NA,NA
42754,Grayson County,KY,NA,28.61288450377249,NA
70001,Jefferson Parish,LA,NA,NA,31.182795698924732
70002,Jefferson Parish,LA,NA,81.60185722576901,NA
70006,Jefferson Parish,LA,NA,32.09518282066164,NA
70062,Jefferson Parish,LA,NA,20.77771329077191,NA
70065,Jefferson Parish,LA,NA,1.044689495066744,3.3333333333333335
70068,St. John the Baptist Parish,LA,NA,95.8792803250145,NA
70070,St. Charles Parish,LA,NA,51.712130005803836,NA
70072,Jefferson Parish,LA,NA,NA,53.5483870967742
70117,Orleans Parish,LA,NA,NA,35.053763440860216
70119,Orleans Parish,LA,NA,55.07835171213,NA
70122,Orleans Parish,LA,16.31644004944376,NA,NA
70123,Jefferson Parish,LA,11.866501854140916,NA,NA
70127,Orleans Parish,LA,NA,NA,75.59139784946237
70345,Lafourche Parish,LA,61.804697156983934,NA,NA
70392,St. Mary Parish,LA,NA,60.127684271619266,NA
70427,Washington Parish,LA,10.012360939431398,NA,NA
70448,St. Tammany Parish,LA,NA,NA,79.6774193548387
70454,Tangipahoa Parish,LA,NA,5.165409170052235,NA
70461,St. Tammany Parish,LA,NA,59.83749274521184,NA
70462,Livingston Parish,LA,NA,99.30354033662218,NA
70506,Lafayette Parish,LA,NA,NA,47.8494623655914
70508,Lafayette Parish,LA,34.73423980222497,NA,NA
70563,Iberia Parish,LA,NA,49.21648287869994,NA
70601,Calcasieu Parish,LA,0.9888751545117428,66.56993615786419,NA
70605,Calcasieu Parish,LA,NA,87.92803250145096,NA
70656,Vernon Parish,LA,73.79480840543881,NA,NA
70737,Ascension Parish,LA,NA,39.640162507254786,NA
70769,Ascension Parish,LA,NA,27.10388856645386,NA
70775,West Feliciana Parish,LA,54.75896168108776,NA,NA
70802,East Baton Rouge Parish,LA,NA,30.005803830528148,NA
70806,East Baton Rouge Parish,LA,NA,57.109692396982005,NA
70807,East Baton Rouge Parish,LA,NA,NA,56.88172043010753
70808,East Baton Rouge Parish,LA,NA,29.773650609402207,NA
70815,East Baton Rouge Parish,LA,NA,26.87173534532792,NA
70816,East Baton Rouge Parish,LA,NA,23.09924550203134,NA
70817,East Baton Rouge Parish,LA,NA,9.402205455600697,NA
71108,Caddo Parish,LA,6.551297898640297,30.702263493905978,NA
71109,Caddo Parish,LA,NA,16.540917005223445,NA
71112,Bossier Parish,LA,8.529048207663783,NA,NA
71115,Caddo Parish,LA,NA,73.12826465467208,NA
71119,Caddo Parish,LA,70.95179233621755,NA,NA
71291,Ouachita Parish,LA,NA,21.009866511897854,NA
71302,Rapides Parish,LA,NA,NA,66.12903225806451
71342,La Salle Parish,LA,NA,NA,70.75268817204301
71457,Natchitoches Parish,LA,NA,85.89669181659896,NA
03904,York County,ME,NA,71.27103888566454,NA
03908,York County,ME,NA,43.934997098084736,NA
04062,Cumberland County,ME,NA,NA,57.31182795698925
04072,York County,ME,NA,12.013929193267558,NA
04092,Cumberland County,ME,29.295426452410382,NA,NA
04103,Cumberland County,ME,NA,NA,11.505376344086022
04240,Androscoggin County,ME,1.4833127317676145,NA,NA
04268,Oxford County,ME,NA,NA,66.55913978494624
04270,Oxford County,ME,54.26452410383189,NA,NA
04280,Androscoggin County,ME,NA,98.3749274521184,NA
04281,Oxford County,ME,NA,93.26755658734764,NA
04401,Penobscot County,ME,1.3597033374536465,NA,NA
04457,Penobscot County,ME,NA,56.58734764944864,NA
04976,Somerset County,ME,10.3831891223733,NA,NA
20619,St. Mary's County,MD,87.02101359703337,NA,NA
20636,St. Mary's County,MD,90.72929542645241,NA,NA
20646,Charles County,MD,NA,NA,88.06451612903226
20743,Prince George's County,MD,NA,NA,39.462365591397855
20746,Prince George's County,MD,48.8257107540173,NA,NA
20774,Prince George's County,MD,NA,80.8473592571097,NA
20814,Montgomery County,MD,NA,87.11549622751016,NA
20854,Montgomery County,MD,48.57849196538937,NA,NA
20906,Montgomery County,MD,NA,28.20661636680209,9.13978494623656
21014,Harford County,MD,78.86279357231149,NA,NA
21043,Howard County,MD,NA,88.5664538595473,NA
21044,Howard County,MD,98.51668726823239,NA,NA
21046,Howard County,MD,79.35723114956737,NA,NA
21048,Carroll County,MD,NA,NA,88.70967741935483
21050,Harford County,MD,NA,59.25710969239698,NA
21061,Anne Arundel County,MD,NA,17.58560650029019,NA
21076,Anne Arundel County,MD,NA,74.81137550783518,NA
21090,Anne Arundel County,MD,NA,65.75739988392338,NA
21093,Baltimore County,MD,31.89122373300371,NA,NA
21108,Anne Arundel County,MD,NA,NA,66.34408602150538
21122,Anne Arundel County,MD,NA,7.544979686593152,NA
21157,Carroll County,MD,63.90605686032138,NA,NA
21204,Baltimore County,MD,54.51174289245982,63.726059199071386,NA
21206,Baltimore city,MD,NA,6.674405107370865,NA
21214,Baltimore city,MD,45.364647713226205,NA,NA
21215,Baltimore city,MD,NA,73.53453279164248,7.096774193548387
21218,Baltimore city,MD,6.30407911001236,NA,NA
21224,Baltimore city,MD,NA,24.78235635519443,NA
21228,Baltimore County,MD,NA,6.7324434126523505,NA
21401,Anne Arundel County,MD,NA,52.98897272199652,NA
21403,Anne Arundel County,MD,NA,NA,48.38709677419355
21502,Allegany County,MD,NA,NA,5.591397849462366
21701,Frederick County,MD,NA,46.25652930934417,30.64516129032258
21750,Washington County,MD,NA,90.24956471271038,NA
21783,Washington County,MD,90.85290482076638,NA,NA
21784,Carroll County,MD,NA,NA,91.82795698924731
21787,Carroll County,MD,NA,NA,92.25806451612904
21811,Worcester County,MD,NA,NA,14.408602150537634
01001,Hampden County,MA,NA,NA,28.387096774193548
01020,Hampden County,MA,85.7849196538937,NA,NA
01028,Hampden County,MA,NA,16.134648868253045,37.74193548387097
01075,Hampshire County,MA,98.02224969097651,NA,NA
01085,Hampden County,MA,NA,NA,55.483870967741936
01104,Hampden County,MA,NA,NA,2.4731182795698925
01118,Hampden County,MA,NA,NA,87.20430107526882
01201,Berkshire County,MA,0.12360939431396785,NA,NA
01225,Berkshire County,MA,NA,91.06210098665119,NA
01373,Franklin County,MA,NA,NA,94.73118279569891
01440,Worcester County,MA,NA,27.858386535113173,NA
01462,Worcester County,MA,38.813349814585905,NA,NA
01469,Middlesex County,MA,NA,NA,99.89247311827957
01475,Worcester County,MA,NA,38.18920487521764,NA
01501,Worcester County,MA,NA,22.98316889146837,NA
01524,Worcester County,MA,NA,NA,99.13978494623656
01562,Worcester County,MA,NA,60.011607661056296,NA
01581,Worcester County,MA,NA,41.26523505513639,NA
01606,Worcester County,MA,NA,67.7307022634939,NA
01773,Middlesex County,MA,NA,76.49448636099827,NA
01801,Middlesex County,MA,NA,0.3482298316889147,21.50537634408602
01821,Middlesex County,MA,NA,0.522344747533372,NA
01824,Middlesex County,MA,NA,23.737666860127685,NA
01826,Middlesex County,MA,NA,1.2188044109112013,69.46236559139784
01830,Essex County,MA,NA,NA,27.204301075268816
01834,Essex County,MA,NA,94.77655252466629,NA
01843,Essex County,MA,1.9777503090234856,10.562971561230412,NA
01845,Essex County,MA,NA,32.96575739988392,NA
01850,Middlesex County,MA,NA,12.071967498549043,NA
01862,Middlesex County,MA,NA,36.62217063261753,NA
01863,Middlesex County,MA,98.39307787391843,NA,NA
01864,Middlesex County,MA,NA,55.31050493325594,NA
01876,Middlesex County,MA,NA,0.9866511897852582,6.451612903225806
01879,Middlesex County,MA,NA,NA,73.22580645161291
01880,Middlesex County,MA,NA,22.80905397562391,NA
01915,Essex County,MA,19.15945611866502,61.46256529309344,0.43010752688172044
01930,Essex County,MA,NA,43.87695879280325,NA
01938,Essex County,MA,NA,9.75043528728961,NA
01944,Essex County,MA,NA,NA,82.68817204301075
01960,Essex County,MA,40.91470951792336,0.11607661056297155,NA
01970,Essex County,MA,NA,79.6285548461985,NA
02021,Norfolk County,MA,NA,21.30005803830528,NA
02048,Bristol County,MA,NA,64.4805571677307,NA
02050,Plymouth County,MA,NA,15.554265815438189,NA
02062,Norfolk County,MA,33.25092707045735,NA,13.548387096774196
02066,Plymouth County,MA,NA,33.54614045269878,NA
02067,Norfolk County,MA,NA,26.58154381892049,NA
02115,Suffolk County,MA,NA,1.6831108531630876,NA
02118,Suffolk County,MA,1.1124845488257107,NA,NA
02119,Suffolk County,MA,0.2472187886279357,0,NA
02121,Suffolk County,MA,NA,NA,4.516129032258064
02124,Suffolk County,MA,NA,NA,10
02126,Suffolk County,MA,NA,1.7411491584445733,NA
02127,Suffolk County,MA,NA,NA,9.247311827956988
02130,Suffolk County,MA,NA,NA,3.870967741935484
02131,Suffolk County,MA,NA,2.1474172954149737,32.903225806451616
02135,Suffolk County,MA,NA,NA,0.6451612903225806
02138,Middlesex County,MA,NA,NA,82.58064516129032
02143,Middlesex County,MA,3.2138442521631645,NA,NA
02148,Middlesex County,MA,12.11372064276885,51.015670342426,68.9247311827957
02149,Middlesex County,MA,1.73053152039555,NA,NA
02151,Suffolk County,MA,NA,NA,0.10752688172043011
02152,Suffolk County,MA,NA,4.178757980266976,NA
02155,Middlesex County,MA,NA,0.17411491584445735,NA
02184,Norfolk County,MA,NA,4.236796285548462,NA
02188,Norfolk County,MA,NA,NA,54.83870967741935
02301,Plymouth County,MA,0,NA,NA
02332,Plymouth County,MA,NA,48.984329657574,NA
02341,Plymouth County,MA,NA,83.05281485780615,NA
02343,Norfolk County,MA,NA,54.38189204875218,NA
02368,Norfolk County,MA,NA,2.4956471271038887,NA
02421,Middlesex County,MA,NA,NA,10.10752688172043
02445,Norfolk County,MA,NA,23.621590249564715,NA
02446,Norfolk County,MA,NA,3.4242600116076614,NA
02451,Middlesex County,MA,16.68726823238566,NA,NA
02452,Middlesex County,MA,NA,28.49680789320952,NA
02459,Middlesex County,MA,NA,14.625652930934416,NA
02472,Middlesex County,MA,NA,24.027858386535115,53.333333333333336
02476,Middlesex County,MA,NA,17.35345327916425,31.397849462365592
02478,Middlesex County,MA,NA,15.844457341845619,NA
02481,Norfolk County,MA,NA,NA,97.84946236559139
02536,Barnstable County,MA,NA,NA,10.43010752688172
02537,Barnstable County,MA,75.7725587144623,NA,NA
02540,Barnstable County,MA,NA,NA,91.39784946236558
02554,Nantucket County,MA,NA,NA,74.6236559139785
02556,Barnstable County,MA,NA,89.72721996517701,NA
02571,Plymouth County,MA,NA,26.98781195589089,54.3010752688172
02632,Barnstable County,MA,NA,36.506094022054555,NA
02657,Barnstable County,MA,99.6291718170581,NA,NA
02664,Barnstable County,MA,NA,96.40162507254789,NA
02723,Bristol County,MA,1.8541409147095178,NA,NA
02743,Bristol County,MA,NA,NA,59.67741935483871
02748,Bristol County,MA,NA,69.52988972721997,NA
02769,Bristol County,MA,NA,NA,54.73118279569893
02771,Bristol County,MA,28.553770086526576,NA,49.46236559139785
48009,Oakland County,MI,77.13226205191594,NA,NA
48044,Macomb County,MI,NA,3.1340684852002325,NA
48047,Macomb County,MI,9.147095179233622,NA,NA
48060,St. Clair County,MI,NA,2.4376088218224026,NA
48062,Macomb County,MI,71.81705809641534,68.42716192687173,NA
48064,St. Clair County,MI,NA,94.54439930354035,NA
48067,Oakland County,MI,NA,61.636680208937896,89.56989247311829
48071,Oakland County,MI,NA,55.716773070226346,NA
48076,Oakland County,MI,NA,82.64654672083576,NA
48083,Oakland County,MI,NA,NA,26.559139784946233
48089,Macomb County,MI,NA,15.26407428903076,NA
48092,Macomb County,MI,NA,14.16134648868253,NA
48093,Macomb County,MI,NA,26.523505513639,NA
48095,Macomb County,MI,91.34734239802225,NA,79.46236559139786
48101,Wayne County,MI,NA,NA,16.881720430107528
48103,Washtenaw County,MI,NA,35.86767266395821,NA
48104,Washtenaw County,MI,NA,NA,42.04301075268817
48105,Washtenaw County,MI,NA,8.93789901334881,29.89247311827957
48111,Wayne County,MI,NA,81.77597214161347,NA
48116,Livingston County,MI,NA,9.63435867672664,8.817204301075268
48117,Monroe County,MI,NA,87.28961114335462,NA
48120,Wayne County,MI,79.48084054388134,NA,NA
48124,Wayne County,MI,NA,15.438189204875219,NA
48134,Wayne County,MI,NA,33.19791062100987,NA
48141,Wayne County,MI,NA,10.04062681369704,NA
48146,Wayne County,MI,NA,9.518282066163668,NA
48152,Wayne County,MI,NA,2.901915264074289,NA
48154,Wayne County,MI,16.19283065512979,4.062681369704005,41.612903225806456
48165,Oakland County,MI,63.658838071693445,NA,NA
48168,Wayne County,MI,NA,NA,22.258064516129032
48169,Livingston County,MI,82.20024721878862,NA,NA
48170,Wayne County,MI,NA,1.3348810214741729,NA
48176,Washtenaw County,MI,NA,64.0742890307603,NA
48180,Wayne County,MI,NA,10.098665118978525,72.90322580645162
48185,Wayne County,MI,NA,3.4822983168891466,NA
48186,Wayne County,MI,45.11742892459827,NA,NA
48189,Washtenaw County,MI,NA,NA,56.666666666666664
48191,Washtenaw County,MI,NA,79.45443993035404,NA
48193,Wayne County,MI,NA,NA,29.56989247311828
48195,Wayne County,MI,NA,5.571677307022635,NA
48197,Washtenaw County,MI,72.3114956736712,39.5821242019733,NA
48198,Washtenaw County,MI,22.00247218788628,NA,NA
48201,Wayne County,MI,NA,85.25827045850262,NA
48203,Wayne County,MI,NA,61.520603598374926,NA
48204,Wayne County,MI,6.427688504326329,NA,NA
48212,Wayne County,MI,NA,34.99709808473593,NA
48213,Wayne County,MI,NA,17.237376668601275,NA
48214,Wayne County,MI,12.60815822002472,NA,NA
48219,Wayne County,MI,NA,NA,90.21505376344085
48225,Wayne County,MI,NA,50.66744051073708,NA
48227,Wayne County,MI,NA,NA,46.98924731182796
48228,Wayne County,MI,NA,NA,26.344086021505376
48230,Wayne County,MI,NA,25.36273940800929,NA
48235,Wayne County,MI,NA,68.31108531630876,NA
48237,Oakland County,MI,NA,11.781775972141613,52.68817204301075
48238,Wayne County,MI,NA,9.924550203134068,NA
48312,Macomb County,MI,NA,NA,6.559139784946237
48313,Macomb County,MI,18.541409147095177,NA,NA
48322,Oakland County,MI,NA,94.42832269297736,NA
48323,Oakland County,MI,NA,94.13813116656993,NA
48326,Oakland County,MI,NA,70.45850261172374,NA
48341,Oakland County,MI,NA,75.507835171213,NA
48348,Oakland County,MI,NA,NA,46.45161290322581
48362,Oakland County,MI,NA,70.1683110853163,NA
48375,Oakland County,MI,NA,39.00174114915844,NA
48380,Oakland County,MI,NA,NA,71.61290322580646
48386,Oakland County,MI,72.92954264524104,NA,NA
48390,Oakland County,MI,NA,NA,90.43010752688173
48420,Genesee County,MI,NA,31.514799767846778,NA
48439,Genesee County,MI,NA,NA,9.67741935483871
48451,Genesee County,MI,NA,NA,73.54838709677419
48457,Genesee County,MI,NA,72.6639582124202,NA
48458,Genesee County,MI,NA,NA,43.01075268817204
48473,Genesee County,MI,NA,28.032501450957632,NA
48506,Genesee County,MI,16.069221260815823,NA,NA
48507,Genesee County,MI,NA,84.03946604759142,96.23655913978494
48616,Saginaw County,MI,41.65636588380717,NA,NA
48623,Saginaw County,MI,NA,90.77190946024376,NA
48624,Gladwin County,MI,27.812113720642767,NA,70.64516129032258
48625,Clare County,MI,NA,14.16134648868253,NA
48632,Clare County,MI,NA,NA,84.6236559139785
48638,Saginaw County,MI,NA,NA,46.344086021505376
48703,Arenac County,MI,96.29171817058096,NA,NA
48730,Iosco County,MI,NA,NA,98.9247311827957
48750,Iosco County,MI,NA,73.76668601276842,NA
48756,Ogemaw County,MI,NA,NA,88.49462365591397
48836,Livingston County,MI,NA,69.12362159024956,77.20430107526882
48840,Ingham County,MI,NA,NA,46.55913978494623
48843,Livingston County,MI,NA,NA,6.989247311827956
48855,Livingston County,MI,NA,36.56413232733604,NA
48858,Isabella County,MI,NA,3.3081834010446896,NA
48864,Ingham County,MI,NA,35.22925130586187,NA
48867,Shiawassee County,MI,NA,3.7144515380150898,6.236559139784946
48879,Clinton County,MI,37.7008652657602,NA,NA
48911,Ingham County,MI,NA,66.33778293673825,NA
48917,Eaton County,MI,23.980222496909764,NA,NA
49009,Kalamazoo County,MI,NA,57.1677307022635,NA
49017,Calhoun County,MI,82.94190358467245,NA,NA
49036,Branch County,MI,62.17552533992583,NA,NA
49057,Van Buren County,MI,NA,NA,95.16129032258065
49067,Cass County,MI,97.6514215080346,NA,NA
49091,St. Joseph County,MI,NA,26.17527568195009,NA
49097,Kalamazoo County,MI,49.567367119901114,NA,NA
49106,Berrien County,MI,NA,NA,83.22580645161291
49201,Jackson County,MI,5.686032138442522,NA,NA
49203,Jackson County,MI,48.331273176761435,3.946604759141033,6.344086021505377
49253,Lenawee County,MI,92.95426452410383,NA,NA
49269,Jackson County,MI,NA,NA,93.44086021505376
49316,Kent County,MI,38.0716934487021,NA,NA
49319,Kent County,MI,20.64276885043263,NA,NA
49327,Newaygo County,MI,NA,NA,84.51612903225806
49331,Kent County,MI,37.33003708281829,NA,NA
49337,Newaygo County,MI,NA,NA,64.73118279569893
49341,Kent County,MI,NA,16.308763784097504,NA
49343,Kent County,MI,NA,68.9495066744051,NA
49415,Muskegon County,MI,NA,62.97156123041208,NA
49421,Oceana County,MI,NA,96.45966337782936,NA
49423,Ottawa County,MI,NA,4.585026117237376,NA
49424,Ottawa County,MI,NA,6.964596633778293,NA
49445,Muskegon County,MI,26.081582200247215,13.232733604178758,NA
49460,Ottawa County,MI,NA,67.3244341265235,NA
49461,Muskegon County,MI,NA,52.75681950087058,NA
49464,Ottawa County,MI,39.55500618046972,NA,NA
49508,Kent County,MI,NA,NA,47.204301075268816
49525,Kent County,MI,52.41038318912238,15.728380731282646,NA
49534,Kent County,MI,97.89864029666255,NA,NA
49546,Kent County,MI,NA,69.58792803250145,NA
49548,Kent County,MI,NA,77.19094602437609,NA
49615,Antrim County,MI,NA,80.7893209518282,NA
49646,Kalkaska County,MI,NA,63.20371445153802,NA
49651,Missaukee County,MI,NA,NA,74.40860215053763
49685,Grand Traverse County,MI,66.00741656365884,37.02843876958793,NA
49686,Grand Traverse County,MI,NA,47.53337202553685,NA
49738,Crawford County,MI,NA,NA,71.61290322580646
49756,Montmorency County,MI,NA,NA,82.9032258064516
49765,Presque Isle County,MI,NA,64.13232733604178,NA
49783,Chippewa County,MI,40.296662546353524,NA,NA
49802,Dickinson County,MI,60.44499381953028,77.24898432965757,NA
49855,Marquette County,MI,NA,NA,46.88172043010753
49938,Gogebic County,MI,78.24474660074165,NA,NA
55008,Isanti County,MN,NA,NA,78.06451612903226
55016,Washington County,MN,NA,47.30121880441091,NA
55021,Rice County,MN,27.19406674907293,NA,NA
55041,Wabasha County,MN,NA,50.78351712130006,NA
55060,Steele County,MN,NA,51.4219384793964,NA
55066,Goodhue County,MN,NA,11.607661056297156,8.172043010752688
55068,Dakota County,MN,NA,NA,92.15053763440861
55076,Dakota County,MN,NA,42.94834590829948,76.12903225806451
55104,Ramsey County,MN,34.610630407911,NA,NA
55106,Ramsey County,MN,NA,47.41729541497388,NA
55107,Ramsey County,MN,NA,55.8908879860708,NA
55109,Ramsey County,MN,NA,NA,21.29032258064516
55110,Ramsey County,MN,NA,NA,26.881720430107524
55118,Dakota County,MN,NA,30.992455020313407,61.61290322580645
55119,Ramsey County,MN,8.899876390605685,21.648287869994196,31.0752688172043
55125,Washington County,MN,NA,NA,57.204301075268816
55126,Ramsey County,MN,NA,NA,46.12903225806452
55302,Wright County,MN,NA,NA,78.38709677419354
55304,Anoka County,MN,30.160692212608158,NA,NA
55313,Wright County,MN,41.409147095179236,NA,NA
55331,Hennepin County,MN,76.63782447466008,NA,NA
55337,Dakota County,MN,NA,NA,80.64516129032258
55343,Hennepin County,MN,NA,29.483459082994777,NA
55346,Hennepin County,MN,75.4017305315204,NA,NA
55360,Carver County,MN,96.04449938195303,NA,NA
55369,Hennepin County,MN,24.598269468479607,NA,NA
55371,Mille Lacs County,MN,64.6477132262052,56.81950087057458,NA
55372,Scott County,MN,46.10630407911001,NA,NA
55379,Scott County,MN,NA,34.01044689495067,NA
55386,Carver County,MN,86.65018541409147,NA,NA
55389,Meeker County,MN,NA,99.82588508415554,NA
55404,Hennepin County,MN,NA,72.14161346488682,28.70967741935484
55407,Hennepin County,MN,NA,3.1921067904817177,NA
55417,Hennepin County,MN,NA,37.782936738247244,NA
55418,Hennepin County,MN,NA,25.130586186883342,NA
55425,Hennepin County,MN,NA,NA,89.24731182795699
55428,Hennepin County,MN,NA,54.03366221706326,NA
55429,Hennepin County,MN,30.902348578491967,NA,NA
55433,Anoka County,MN,NA,NA,89.89247311827957
55435,Hennepin County,MN,NA,NA,46.236559139784944
55438,Hennepin County,MN,NA,62.333139872315726,NA
55446,Hennepin County,MN,NA,94.95066744051074,NA
55448,Anoka County,MN,NA,46.08241439349971,NA
55454,Hennepin County,MN,70.45735475896167,NA,NA
55731,St. Louis County,MN,NA,92.74521183981427,NA
55902,Olmsted County,MN,NA,NA,51.075268817204304
55912,Mower County,MN,NA,1.5670342426001163,6.129032258064516
55987,Winona County,MN,NA,1.2768427161926872,NA
56007,Freeborn County,MN,NA,26.00116076610563,NA
56024,Blue Earth County,MN,NA,98.54904236796285,NA
56073,Brown County,MN,NA,NA,2.043010752688172
56101,Cottonwood County,MN,NA,NA,94.3010752688172
56178,Lincoln County,MN,96.5389369592089,NA,NA
56258,Lyon County,MN,NA,97.38827626233314,NA
56288,Kandiyohi County,MN,NA,81.83401044689495,NA
56352,Stearns County,MN,74.41285537700865,NA,NA
56425,Crow Wing County,MN,NA,57.22576900754498,NA
56464,Wadena County,MN,74.41285537700865,NA,NA
56472,Crow Wing County,MN,55.006180469715694,NA,NA
56477,Wadena County,MN,NA,99.24550203134068,NA
56601,Beltrami County,MN,NA,0.4643064422518862,NA
38801,Lee County,MS,28.43016069221261,NA,NA
38851,Chickasaw County,MS,NA,NA,80
38965,Yalobusha County,MS,NA,94.48636099825886,NA
39042,Rankin County,MS,NA,76.37840975043528,NA
39047,Rankin County,MS,NA,30.412071967498548,NA
39051,Leake County,MS,NA,47.47533372025537,NA
39069,Jefferson County,MS,92.21260815822002,NA,NA
39180,Warren County,MS,NA,NA,27.741935483870968
39212,Hinds County,MS,NA,NA,61.39784946236559
39213,Hinds County,MS,NA,38.7695879280325,NA
39350,Neshoba County,MS,NA,20.313406848520025,NA
39367,Wayne County,MS,NA,49.85490423679629,NA
39402,Lamar County,MS,NA,42.193847939640165,NA
39452,George County,MS,NA,86.41903656413233,NA
39465,Forrest County,MS,NA,64.8868253047011,NA
39470,Pearl River County,MS,NA,NA,50
39507,Harrison County,MS,NA,NA,8.494623655913978
39520,Hancock County,MS,NA,27.51015670342426,NA
39560,Harrison County,MS,NA,5.397562391178178,NA
39562,Jackson County,MS,84.91965389369592,34.82298316889147,NA
39564,Jackson County,MS,NA,NA,19.13978494623656
39567,Jackson County,MS,NA,44.39930354033662,NA
39574,Harrison County,MS,NA,NA,65.16129032258064
39666,Pike County,MS,NA,85.54846198491003,NA
39702,Lowndes County,MS,26.94684796044499,NA,38.387096774193544
39773,Clay County,MS,NA,94.31224608241439,NA
63010,Jefferson County,MO,28.80098887515451,NA,NA
63017,St. Louis County,MO,NA,NA,1.935483870967742
63020,Jefferson County,MO,NA,59.83749274521184,NA
63025,St. Louis County,MO,85.90852904820765,NA,NA
63090,Franklin County,MO,NA,36.91236215902496,NA
63105,St. Louis County,MO,85.66131025957972,NA,NA
63108,St. Louis city,MO,NA,40.62681369704005,NA
63118,St. Louis city,MO,NA,NA,96.45161290322581
63119,St. Louis County,MO,NA,NA,45.806451612903224
63122,St. Louis County,MO,NA,NA,7.419354838709677
63125,St. Louis County,MO,NA,NA,10.53763440860215
63128,St. Louis County,MO,NA,14.335461404526988,5.698924731182796
63129,St. Louis County,MO,34.48702101359704,NA,NA
63130,St. Louis County,MO,NA,NA,75.16129032258064
63136,St. Louis County,MO,NA,NA,53.76344086021505
63301,St. Charles County,MO,NA,1.4509576320371445,NA
63304,St. Charles County,MO,20.7663782447466,8.473592571096924,NA
63379,Lincoln County,MO,NA,19.79106210098665,NA
63385,St. Charles County,MO,50.43263288009888,7.196749854904237,NA
63390,Warren County,MO,NA,NA,53.44086021505377
63775,Perry County,MO,NA,24.143934997098086,NA
63841,Stoddard County,MO,38.31891223733004,NA,NA
63857,Dunklin County,MO,NA,38.65351131746953,NA
63863,Dunklin County,MO,NA,95.937318630296,NA
64015,Jackson County,MO,NA,NA,60.967741935483865
64024,Clay County,MO,NA,92.39698200812536,40.96774193548387
64030,Jackson County,MO,NA,10.911201392919327,91.61290322580645
64050,Jackson County,MO,NA,NA,94.83870967741936
64052,Jackson County,MO,NA,25.07254788160186,NA
64056,Jackson County,MO,17.18170580964153,NA,NA
64060,Clay County,MO,NA,NA,95.3763440860215
64063,Jackson County,MO,NA,27.91642484039466,NA
64064,Jackson County,MO,NA,76.90075449796866,NA
64075,Jackson County,MO,NA,51.8282066163668,NA
64076,Lafayette County,MO,NA,NA,85.69892473118279
64079,Platte County,MO,NA,NA,92.68817204301075
64082,Jackson County,MO,NA,97.27219965177017,NA
64085,Ray County,MO,NA,75.33372025536855,NA
64089,Clay County,MO,NA,NA,83.76344086021506
64111,Jackson County,MO,80.59332509270705,35.28728961114335,NA
64113,Jackson County,MO,NA,99.5937318630296,NA
64119,Clay County,MO,NA,13.522925130586186,NA
64131,Jackson County,MO,48.084054388133495,NA,NA
64133,Jackson County,MO,NA,NA,20.537634408602152
64152,Platte County,MO,NA,78.7579802669762,NA
64485,Andrew County,MO,NA,46.72083575159605,NA
64503,Buchanan County,MO,17.3053152039555,NA,NA
64506,Buchanan County,MO,38.56613102595797,3.8885664538595472,NA
64735,Henry County,MO,NA,60.591990713871155,NA
64801,Jasper County,MO,NA,8.53163087637841,NA
64836,Jasper County,MO,11.742892459826946,18.97852582704585,NA
65020,Camden County,MO,NA,54.672083575159604,NA
65251,Callaway County,MO,NA,NA,38.924731182795696
65301,Pettis County,MO,NA,NA,52.58064516129032
65483,Texas County,MO,NA,75.9141033081834,NA
65608,Douglas County,MO,92.83065512978986,NA,NA
65706,Webster County,MO,NA,NA,91.29032258064517
65746,Webster County,MO,NA,NA,81.50537634408602
65802,Greene County,MO,7.045735475896168,NA,NA
65803,Greene County,MO,NA,32.32733604178758,NA
65804,Greene County,MO,47.09517923362176,NA,NA
65807,Greene County,MO,NA,NA,5.806451612903226
59601,Lewis and Clark County,MT,NA,NA,16.559139784946236
59701,Silver Bow County,MT,NA,26.87173534532792,NA
59711,Deer Lodge County,MT,NA,NA,47.52688172043011
59801,Missoula County,MT,NA,89.61114335461404,NA
59803,Missoula County,MT,NA,NA,58.70967741935483
59804,Missoula County,MT,NA,NA,99.24731182795699
59833,Ravalli County,MT,NA,91.874637260592,NA
59860,Lake County,MT,NA,NA,52.473118279569896
59923,Lincoln County,MT,NA,41.033081834010446,NA
68005,Sarpy County,NE,NA,52.29251305861868,NA
68025,Dodge County,NE,NA,15.902495647127104,NA
68064,Douglas County,NE,NA,96.3435867672664,NA
68114,Douglas County,NE,NA,65.58328496807894,NA
68118,Douglas County,NE,NA,82.8206616366802,NA
68127,Douglas County,NE,52.03955500618047,NA,NA
68134,Douglas County,NE,NA,81.07951247823564,NA
68164,Douglas County,NE,NA,NA,77.74193548387098
68506,Lancaster County,NE,NA,82.8786999419617,NA
69101,Lincoln County,NE,79.72805933250928,NA,9.56989247311828
69153,Keith County,NE,NA,63.958212420197334,NA
69301,Box Butte County,NE,NA,77.48113755078352,NA
89101,Clark County,NV,NA,75.79802669762043,NA
89106,Clark County,NV,NA,53.33720255368544,NA
89108,Clark County,NV,14.338689740420271,NA,26.021505376344084
89117,Clark County,NV,24.103831891223734,NA,NA
89121,Clark County,NV,NA,NA,24.086021505376344
89131,Clark County,NV,NA,NA,60.86021505376345
89144,Clark County,NV,NA,73.0702263493906,NA
89146,Clark County,NV,NA,70.1683110853163,NA
89406,Churchill County,NV,79.23362175525341,NA,NA
89434,Washoe County,NV,NA,NA,56.344086021505376
89436,Washoe County,NV,NA,32.675565873476494,NA
89460,Douglas County,NV,NA,NA,39.56989247311828
89502,Washoe County,NV,12.73176761433869,NA,NA
89511,Washoe County,NV,48.20766378244747,NA,NA
89523,Washoe County,NV,40.66749072929542,NA,NA
89701,Carson City,NV,27.935723114956733,NA,NA
03042,Rockingham County,NH,NA,NA,79.56989247311827
03049,Hillsborough County,NH,NA,56.93557748113756,NA
03060,Hillsborough County,NH,46.600741656365884,NA,NA
03063,Hillsborough County,NH,59.703337453646476,NA,NA
03076,Hillsborough County,NH,34.2398022249691,NA,NA
03077,Rockingham County,NH,NA,78.11955890887987,NA
03103,Hillsborough County,NH,NA,5.6877539175856064,NA
03253,Belknap County,NH,NA,57.74811375507836,NA
03446,Cheshire County,NH,NA,NA,47.74193548387097
03773,Sullivan County,NH,NA,NA,62.473118279569896
03848,Rockingham County,NH,58.590852904820764,NA,NA
07002,Hudson County,NJ,0.7416563658838072,88.21822402785838,NA
07006,Essex County,NJ,NA,36.04178757980267,97.20430107526882
07011,Passaic County,NJ,NA,NA,27.63440860215054
07013,Passaic County,NJ,NA,NA,92.58064516129032
07016,Union County,NJ,NA,NA,56.55913978494623
07022,Bergen County,NJ,NA,56.297156123041205,NA
07024,Bergen County,NJ,NA,NA,8.064516129032258
07030,Hudson County,NJ,NA,18.45618107951248,NA
07035,Morris County,NJ,73.54758961681088,NA,NA
07036,Union County,NJ,NA,NA,23.440860215053764
07039,Essex County,NJ,13.102595797280594,NA,NA
07043,Essex County,NJ,96.66254635352287,99.53569355774812,NA
07052,Essex County,NJ,NA,8.995937318630295,NA
07054,Morris County,NJ,NA,23.621590249564715,NA
07060,Union County,NJ,NA,14.683691236215902,NA
07065,Union County,NJ,NA,71.09692396982008,NA
07066,Union County,NJ,NA,77.30702263493906,NA
07076,Union County,NJ,NA,96.16947185142195,NA
07078,Essex County,NJ,NA,NA,96.88172043010753
07079,Essex County,NJ,NA,NA,88.49462365591397
07083,Union County,NJ,60.93943139678616,66.5118978525827,NA
07092,Union County,NJ,65.01854140914709,NA,NA
07093,Hudson County,NJ,3.8318912237330034,NA,NA
07095,Middlesex County,NJ,91.84177997527813,NA,NA
07103,Essex County,NJ,NA,81.13755078351713,NA
07111,Essex County,NJ,5.067985166872682,NA,NA
07203,Union County,NJ,17.058096415327565,NA,NA
07204,Union County,NJ,NA,99.41961694718515,NA
07205,Union County,NJ,NA,NA,95.26881720430107
07302,Hudson County,NJ,NA,85.49042367962856,NA
07421,Passaic County,NJ,NA,80.09286128845038,NA
07430,Bergen County,NJ,NA,39.46604759141033,NA
07432,Bergen County,NJ,NA,NA,65.48387096774194
07436,Bergen County,NJ,NA,NA,62.473118279569896
07442,Passaic County,NJ,NA,NA,65.48387096774194
07444,Morris County,NJ,NA,NA,29.139784946236556
07446,Bergen County,NJ,NA,NA,80.86021505376344
07456,Passaic County,NJ,NA,81.42774230992455,NA
07461,Sussex County,NJ,92.08899876390606,45.96633778293674,NA
07480,Passaic County,NJ,NA,58.502611723737665,NA
07502,Passaic County,NJ,NA,56.3551944283227,NA
07504,Passaic County,NJ,NA,62.217063261752756,NA
07601,Bergen County,NJ,3.7082818294190356,86.07080673244342,NA
07605,Bergen County,NJ,100,NA,83.65591397849462
07628,Bergen County,NJ,NA,NA,63.01075268817205
07645,Bergen County,NJ,94.56118665018542,NA,NA
07647,Bergen County,NJ,NA,99.94196169471851,NA
07650,Bergen County,NJ,NA,NA,53.97849462365591
07666,Bergen County,NJ,NA,30.121880441091122,NA
07676,Bergen County,NJ,NA,NA,66.34408602150538
07716,Monmouth County,NJ,NA,76.14625652930934,82.25806451612904
07724,Monmouth County,NJ,NA,24.31804991294254,NA
07727,Monmouth County,NJ,NA,NA,94.19354838709677
07728,Monmouth County,NJ,NA,36.44805571677307,NA
07734,Monmouth County,NJ,NA,57.22576900754498,NA
07739,Monmouth County,NJ,NA,99.12942542077772,NA
07740,Monmouth County,NJ,NA,42.89030760301799,91.72043010752688
07746,Monmouth County,NJ,62.79357231149567,NA,NA
07801,Morris County,NJ,NA,NA,58.17204301075268
07840,Warren County,NJ,NA,99.1874637260592,97.09677419354838
07849,Morris County,NJ,87.63906056860321,NA,NA
07866,Morris County,NJ,NA,31.456761462565293,NA
07876,Morris County,NJ,NA,75.73998839233894,NA
07882,Warren County,NJ,39.80222496909765,43.58676726639582,NA
07901,Union County,NJ,NA,NA,61.82795698924731
07920,Somerset County,NJ,NA,81.95008705745792,NA
07922,Union County,NJ,NA,NA,73.54838709677419
07945,Morris County,NJ,82.32385661310259,NA,NA
07960,Morris County,NJ,NA,77.01683110853163,NA
08002,Camden County,NJ,NA,31.746952988972723,NA
08003,Camden County,NJ,NA,NA,15.161290322580644
08008,Ocean County,NJ,NA,NA,75.6989247311828
08009,Camden County,NJ,44.25216316440049,NA,NA
08021,Camden County,NJ,0.3708281829419036,NA,NA
08033,Camden County,NJ,NA,48.34590829947766,NA
08034,Camden County,NJ,NA,33.02379570516541,NA
08036,Burlington County,NJ,NA,NA,77.09677419354838
08048,Burlington County,NJ,NA,NA,99.35483870967742
08054,Burlington County,NJ,15.945611866501855,NA,13.333333333333334
08061,Gloucester County,NJ,88.75154511742892,NA,NA
08068,Burlington County,NJ,NA,NA,78.92473118279571
08077,Burlington County,NJ,NA,75.15960533952408,69.78494623655914
08080,Gloucester County,NJ,63.28800988875154,NA,NA
08087,Ocean County,NJ,NA,89.14683691236216,NA
08088,Burlington County,NJ,36.46477132262052,NA,NA
08092,Ocean County,NJ,95.7972805933251,NA,NA
08096,Gloucester County,NJ,2.843016069221261,NA,12.795698924731184
08105,Camden County,NJ,NA,NA,35.59139784946236
08110,Camden County,NJ,32.26205191594561,NA,NA
08203,Atlantic County,NJ,NA,NA,64.83870967741936
08204,Cape May County,NJ,NA,89.84329657573998,NA
08215,Atlantic County,NJ,NA,NA,69.56989247311827
08244,Atlantic County,NJ,NA,NA,95.91397849462365
08330,Atlantic County,NJ,NA,19.96517701683111,NA
08402,Atlantic County,NJ,78.61557478368356,NA,NA
08520,Mercer County,NJ,NA,74.05687753917586,NA
08527,Ocean County,NJ,NA,86.99941961694718,NA
08540,Mercer County,NJ,NA,24.724318049912945,90.10752688172043
08618,Mercer County,NJ,0.6180469715698393,NA,NA
08721,Ocean County,NJ,91.59456118665018,NA,NA
08724,Ocean County,NJ,88.50432632880099,NA,NA
08734,Ocean County,NJ,70.08652657601978,NA,NA
08753,Ocean County,NJ,NA,79.91874637260592,NA
08755,Ocean County,NJ,NA,41.90365641323273,NA
08757,Ocean County,NJ,NA,NA,0.21505376344086022
08759,Ocean County,NJ,90.97651421508036,NA,NA
08801,Hunterdon County,NJ,NA,NA,93.76344086021506
08805,Somerset County,NJ,NA,97.968659315148,NA
08816,Middlesex County,NJ,NA,47.06906558328497,NA
08817,Middlesex County,NJ,NA,97.04004643064422,NA
08822,Hunterdon County,NJ,41.77997527812114,NA,NA
08831,Middlesex County,NJ,88.38071693448703,46.140452698781196,NA
08833,Hunterdon County,NJ,NA,98.20081253627394,NA
08854,Middlesex County,NJ,NA,NA,19.247311827956988
08872,Middlesex County,NJ,NA,NA,61.18279569892473
08873,Somerset County,NJ,NA,61.92687173534532,NA
08876,Somerset County,NJ,91.47095179233622,NA,NA
08879,Middlesex County,NJ,NA,NA,85.3763440860215
08882,Middlesex County,NJ,NA,67.7307022634939,NA
08901,Middlesex County,NJ,3.0902348578491967,NA,NA
87001,Sandoval County,NM,84.54882571075402,NA,NA
87059,Bernalillo County,NM,NA,70.6326175275682,NA
87107,Bernalillo County,NM,NA,45.32791642484039,NA
87109,Bernalillo County,NM,NA,NA,32.795698924731184
87114,Bernalillo County,NM,NA,NA,19.78494623655914
87121,Bernalillo County,NM,NA,2.6697620429483457,NA
87124,Sandoval County,NM,NA,NA,50.43010752688172
87532,Santa Fe County,NM,NA,31.572838073128263,NA
87544,Los Alamos County,NM,NA,44.39930354033662,NA
88001,Doa Ana County,NM,NA,NA,37.8494623655914
88005,Doa Ana County,NM,NA,28.786999419616947,NA
88101,Curry County,NM,5.933250927070458,NA,NA
88201,Chaves County,NM,24.2274412855377,NA,NA
88220,Eddy County,NM,NA,14.741729541497389,62.1505376344086
88240,Lea County,NM,NA,11.14335461404527,NA
88310,Otero County,NM,NA,1.9152640742890308,NA
10002,New York County,NY,NA,1.1027278003482297,NA
10010,New York County,NY,NA,NA,89.78494623655914
10011,New York County,NY,NA,95.70516540917005,NA
10016,New York County,NY,NA,NA,62.795698924731184
10022,New York County,NY,NA,78.29367382472432,NA
10024,New York County,NY,NA,15.496227510156704,38.27956989247312
10025,New York County,NY,NA,94.2542077771329,1.6129032258064515
10028,New York County,NY,NA,81.2536273940801,97.5268817204301
10029,New York County,NY,NA,0.05803830528148578,NA
10030,New York County,NY,NA,49.3905977945444,NA
10039,New York County,NY,NA,98.72315728380731,NA
10040,New York County,NY,NA,86.82530470110272,NA
10065,New York County,NY,NA,47.12710388856645,NA
10301,Richmond County,NY,10.259579728059332,NA,40.64516129032258
10303,Richmond County,NY,NA,34.12652350551364,NA
10304,Richmond County,NY,97.52781211372064,71.8514219384794,NA
10305,Richmond County,NY,NA,56.00696459663378,NA
10306,Richmond County,NY,88.99876390605687,NA,79.89247311827957
10308,Richmond County,NY,NA,41.845618107951246,NA
10312,Richmond County,NY,59.45611866501854,NA,NA
10314,Richmond County,NY,NA,92.57109692396982,NA
10452,Bronx County,NY,NA,14.567614625652931,NA
10456,Bronx County,NY,NA,30.876378409750437,NA
10457,Bronx County,NY,NA,NA,33.01075268817204
10458,Bronx County,NY,NA,NA,42.90322580645161
10459,Bronx County,NY,NA,27.80034822983169,NA
10461,Bronx County,NY,91.22373300370829,NA,NA
10462,Bronx County,NY,NA,NA,94.6236559139785
10463,Bronx County,NY,NA,1.7991874637260592,2.258064516129032
10466,Bronx County,NY,62.05191594561187,NA,7.849462365591398
10467,Bronx County,NY,NA,NA,1.0752688172043012
10469,Bronx County,NY,2.1013597033374536,NA,NA
10470,Bronx County,NY,66.87268232385661,NA,NA
10471,Bronx County,NY,NA,97.62042948345908,NA
10472,Bronx County,NY,NA,0.5803830528148578,NA
10512,Putnam County,NY,NA,95.41497388276262,NA
10520,Westchester County,NY,NA,98.7811955890888,NA
10523,Westchester County,NY,NA,98.66511897852583,NA
10524,Putnam County,NY,NA,NA,95.6989247311828
10536,Westchester County,NY,NA,99.88392338943703,NA
10550,Westchester County,NY,NA,15.206035983749274,NA
10562,Westchester County,NY,NA,50.2031340684852,NA
10573,Westchester County,NY,NA,51.712130005803836,NA
10580,Westchester County,NY,NA,NA,26.236559139784948
10701,Westchester County,NY,0.865265760197775,NA,NA
10704,Westchester County,NY,NA,NA,36.55913978494624
10705,Westchester County,NY,6.180469715698393,18.04991294254208,NA
10708,Westchester County,NY,NA,NA,98.17204301075269
10801,Westchester County,NY,NA,84.27161926871736,NA
10804,Westchester County,NY,99.38195302843016,77.36506094022054,NA
10923,Rockland County,NY,NA,NA,70
10950,Orange County,NY,51.668726823238565,NA,NA
10956,Rockland County,NY,NA,NA,18.602150537634408
10962,Rockland County,NY,NA,NA,85.26881720430107
10970,Rockland County,NY,NA,NA,98.06451612903226
10977,Rockland County,NY,NA,NA,66.88172043010752
10994,Rockland County,NY,NA,95.18282066163668,NA
11103,Queens County,NY,NA,48.92629135229251,NA
11105,Queens County,NY,NA,NA,84.73118279569893
11106,Queens County,NY,NA,85.780615206035975,NA
11201,Kings County,NY,NA,13.174695298897271,NA
11203,Kings County,NY,NA,73.41845618107952,NA
11204,Kings County,NY,93.69592088998763,70.1683110853163,NA
11205,Kings County,NY,NA,98.08473592571096,NA
11206,Kings County,NY,NA,0.4062681369704005,NA
11208,Kings County,NY,NA,7.661056297156123,13.225806451612904
11209,Kings County,NY,NA,92.86128845037724,NA
11211,Kings County,NY,9.270704573547588,NA,NA
11212,Kings County,NY,30.53152039555006,25.246662797446312,NA
11213,Kings County,NY,NA,NA,20.537634408602152
11214,Kings County,NY,NA,49.27452118398143,NA
11216,Kings County,NY,NA,75.97214161346488,NA
11218,Kings County,NY,97.28059332509271,NA,5.483870967741936
11220,Kings County,NY,NA,NA,10.967741935483872
11222,Kings County,NY,NA,NA,53.2258064516129
11223,Kings County,NY,NA,NA,5.268817204301075
11224,Kings County,NY,NA,NA,90.75268817204301
11225,Kings County,NY,42.27441285537701,NA,NA
11226,Kings County,NY,NA,42.01973302379571,NA
11228,Kings County,NY,NA,NA,37.41935483870968
11229,Kings County,NY,NA,42.13580963435868,NA
11230,Kings County,NY,89.86402966625462,NA,NA
11234,Kings County,NY,NA,NA,12.258064516129032
11235,Kings County,NY,NA,73.30237957051654,42.68817204301075
11239,Kings County,NY,NA,NA,25.376344086021508
11249,Kings County,NY,NA,NA,54.40860215053763
11354,Queens County,NY,NA,22.40278583865351,NA
11355,Queens County,NY,89.2459826946848,40.27858386535113,NA
11360,Queens County,NY,NA,NA,82.04301075268818
11362,Queens County,NY,NA,NA,96.02150537634408
11365,Queens County,NY,NA,61.868833430063845,NA
11366,Queens County,NY,NA,NA,85.05376344086022
11372,Queens County,NY,NA,14.103308183401046,NA
11373,Queens County,NY,NA,NA,15.483870967741936
11374,Queens County,NY,NA,16.018572257690074,15.806451612903224
11375,Queens County,NY,NA,20.255368543238536,NA
11379,Queens County,NY,NA,45.50203134068485,NA
11385,Queens County,NY,5.80964153275649,31.166569936157863,26.881720430107524
11413,Queens County,NY,76.01977750309024,NA,NA
11418,Queens County,NY,NA,NA,34.516129032258064
11420,Queens County,NY,NA,24.550203134068486,NA
11423,Queens County,NY,NA,63.08763784097504,NA
11427,Queens County,NY,NA,NA,51.935483870967744
11434,Queens County,NY,85.53770086526576,NA,NA
11501,Nassau County,NY,65.389369592089,NA,NA
11510,Nassau County,NY,NA,30.295995356935578,NA
11542,Nassau County,NY,NA,96.05339524085896,NA
11550,Nassau County,NY,7.5401730531520395,39.69820081253627,25.6989247311828
11552,Nassau County,NY,NA,NA,42.365591397849464
11553,Nassau County,NY,NA,52.17643644805572,NA
11554,Nassau County,NY,NA,35.05513639001741,NA
11563,Nassau County,NY,NA,92.22286709228091,NA
11566,Nassau County,NY,77.87391841779974,97.09808473592571,NA
11575,Nassau County,NY,NA,93.38363319791063,NA
11579,Nassau County,NY,NA,NA,92.47311827956989
11581,Nassau County,NY,NA,96.28554846198492,NA
11590,Nassau County,NY,35.475896168108775,21.06790481717934,NA
11691,Queens County,NY,NA,NA,14.946236559139786
11706,Suffolk County,NY,NA,23.50551363900174,87.74193548387098
11710,Nassau County,NY,99.2583436341162,NA,95.59139784946237
11720,Suffolk County,NY,NA,NA,97.41935483870968
11725,Suffolk County,NY,47.46600741656366,NA,96.66666666666667
11727,Suffolk County,NY,47.21878862793572,NA,NA
11729,Suffolk County,NY,60.07416563658838,82.35635519442832,37.096774193548384
11731,Suffolk County,NY,NA,98.89727219965178,NA
11746,Suffolk County,NY,NA,30.237957051654092,NA
11755,Suffolk County,NY,NA,NA,99.03225806451613
11757,Suffolk County,NY,NA,33.02379570516541,18.9247311827957
11768,Suffolk County,NY,NA,96.7498549042368,NA
11772,Suffolk County,NY,NA,16.36680208937899,NA
11777,Suffolk County,NY,NA,61.2304120719675,NA
11778,Suffolk County,NY,NA,85.02611723737667,NA
11779,Suffolk County,NY,NA,NA,28.172043010752688
11780,Suffolk County,NY,NA,NA,48.70967741935484
11784,Suffolk County,NY,NA,84.5037724898433,NA
11790,Suffolk County,NY,NA,NA,55.483870967741936
11793,Nassau County,NY,NA,NA,98.49462365591398
11940,Suffolk County,NY,NA,NA,81.39784946236558
11952,Suffolk County,NY,NA,NA,99.78494623655914
11961,Suffolk County,NY,NA,91.70052234474754,NA
12010,Montgomery County,NY,NA,2.379570516540917,NA
12033,Rensselaer County,NY,NA,90.30760301799188,NA
12068,Montgomery County,NY,NA,95.41497388276262,NA
12122,Schoharie County,NY,57.47836835599506,NA,NA
12159,Albany County,NY,94.19035846724351,NA,NA
12180,Rensselaer County,NY,1.6069221260815822,NA,NA
12204,Albany County,NY,NA,97.85258270458502,NA
12205,Albany County,NY,NA,NA,32.365591397849464
12508,Dutchess County,NY,NA,96.98200812536274,NA
12534,Columbia County,NY,NA,12.478235635519443,NA
12550,Orange County,NY,NA,71.27103888566454,NA
12570,Dutchess County,NY,NA,NA,99.46236559139786
12572,Dutchess County,NY,73.17676143386898,NA,NA
12590,Dutchess County,NY,40.79110012360939,49.68078932095183,36.88172043010753
12701,Sullivan County,NY,NA,54.20777713290772,NA
12801,Warren County,NY,NA,46.77887405687754,NA
12803,Saratoga County,NY,NA,71.38711549622752,NA
12804,Warren County,NY,5.315203955500618,30.179918746372607,62.25806451612903
12832,Washington County,NY,NA,73.36041787579802,NA
12834,Washington County,NY,NA,79.04817179338363,NA
12866,Saratoga County,NY,NA,47.18514219384794,NA
12887,Washington County,NY,94.6847960444994,NA,NA
12986,Franklin County,NY,NA,98.43296575739988,NA
13032,Madison County,NY,NA,32.61752756819501,NA
13052,Madison County,NY,88.62793572311496,NA,NA
13069,Oswego County,NY,NA,6.268136970400465,NA
13090,Onondaga County,NY,50.06180469715699,NA,NA
13126,Oswego County,NY,NA,NA,8.60215053763441
13140,Cayuga County,NY,NA,83.22692977365061,NA
13142,Oswego County,NY,NA,78.64190365641323,NA
13214,Onondaga County,NY,69.34487021013597,NA,NA
13215,Onondaga County,NY,NA,83.80731282646546,NA
13309,Oneida County,NY,52.53399258343634,NA,NA
13323,Oneida County,NY,NA,66.74405107370865,NA
13413,Oneida County,NY,NA,NA,18.387096774193548
13440,Oneida County,NY,1.2360939431396787,NA,NA
13460,Chenango County,NY,62.91718170580965,NA,NA
13492,Oneida County,NY,90.60568603213845,37.02843876958793,NA
13748,Broome County,NY,97.40420271940667,NA,NA
13760,Broome County,NY,NA,2.8438769587928032,NA
13827,Tioga County,NY,14.956736711990112,NA,NA
13850,Broome County,NY,49.93819530284301,NA,NA
13905,Broome County,NY,NA,2.0313406848520024,2.5806451612903225
14043,Erie County,NY,NA,NA,68.06451612903226
14057,Erie County,NY,NA,71.445153801509,NA
14070,Erie County,NY,62.422744128553774,78.17759721416134,NA
14075,Erie County,NY,NA,3.0179918746372607,NA
14085,Erie County,NY,NA,97.50435287289612,NA
14086,Erie County,NY,NA,NA,72.58064516129032
14092,Niagara County,NY,NA,NA,36.774193548387096
14120,Niagara County,NY,NA,23.447475333720256,NA
14150,Erie County,NY,NA,2.5536854323853744,NA
14201,Erie County,NY,NA,NA,77.63440860215054
14206,Erie County,NY,8.65265760197775,NA,NA
14209,Erie County,NY,NA,58.386535113174695,NA
14211,Erie County,NY,23.11495673671199,NA,NA
14218,Erie County,NY,NA,29.889727219965177,NA
14221,Erie County,NY,NA,0.9286128845037724,NA
14224,Erie County,NY,NA,26.465467208357516,NA
14225,Erie County,NY,NA,38.94370284387696,33.225806451612904
14226,Erie County,NY,NA,25.82704585026117,NA
14228,Erie County,NY,35.59950556242274,NA,NA
14304,Niagara County,NY,2.966625463535229,1.3929193267556588,NA
14428,Monroe County,NY,NA,41.96169471851422,NA
14450,Monroe County,NY,NA,80.0348229831689,NA
14456,Ontario County,NY,92.58343634116193,2.2054556006964594,NA
14467,Monroe County,NY,NA,NA,46.774193548387096
14468,Monroe County,NY,NA,12.710388856645386,NA
14513,Wayne County,NY,NA,15.147997678467789,NA
14519,Wayne County,NY,NA,NA,63.44086021505376
14532,Ontario County,NY,67.49072929542646,NA,NA
14534,Monroe County,NY,NA,74.46314567614625,NA
14564,Ontario County,NY,80.09888751545118,NA,NA
14580,Monroe County,NY,55.87144622991347,NA,NA
14609,Monroe County,NY,NA,18.804410911201394,14.623655913978496
14610,Monroe County,NY,NA,84.32965757399884,NA
14612,Monroe County,NY,9.394313967861558,8.879860708067325,67.95698924731182
14615,Monroe County,NY,NA,22.57690075449797,NA
14616,Monroe County,NY,NA,NA,19.67741935483871
14617,Monroe County,NY,NA,1.8572257690075449,22.688172043010752
14618,Monroe County,NY,10.630407911001235,NA,NA
14622,Monroe County,NY,NA,11.95589088798607,NA
14624,Monroe County,NY,NA,0.6384213580963436,NA
14701,Chautauqua County,NY,NA,NA,9.89247311827957
14710,Chautauqua County,NY,86.15574783683559,NA,NA
14727,Allegany County,NY,NA,64.8868253047011,NA
14755,Cattaraugus County,NY,86.77379480840544,NA,NA
14760,Cattaraugus County,NY,NA,7.254788160185723,NA
14830,Steuben County,NY,NA,20.545560069645965,NA
14843,Steuben County,NY,78.36835599505562,NA,NA
14850,Tompkins County,NY,NA,40.336622170632616,NA
14895,Allegany County,NY,NA,80.61520603598375,NA
27020,Yadkin County,NC,55.74783683559951,NA,NA
27021,Stokes County,NC,29.04820766378245,NA,NA
27030,Surry County,NC,4.07911001236094,NA,NA
27048,Rockingham County,NC,NA,75.21764364480558,NA
27052,Stokes County,NC,NA,NA,96.34408602150538
27053,Stokes County,NC,NA,85.08415554265815,NA
27104,Forsyth County,NC,NA,NA,3.4408602150537635
27107,Forsyth County,NC,2.719406674907293,NA,NA
27127,Forsyth County,NC,NA,17.527568195008705,NA
27205,Randolph County,NC,NA,63.90017411491584,NA
27214,Guilford County,NC,NA,NA,61.505376344086024
27215,Alamance County,NC,NA,38.479396401625074,NA
27217,Alamance County,NC,NA,5.977945443993035,NA
27262,Guilford County,NC,30.284301606922128,45.26987811955891,NA
27278,Orange County,NC,NA,7.370864770748694,NA
27282,Guilford County,NC,NA,NA,51.3978494623656
27295,Davidson County,NC,2.595797280593325,NA,1.827956989247312
27312,Chatham County,NC,NA,11.4335461404527,NA
27317,Randolph County,NC,NA,56.52930934416715,NA
27358,Guilford County,NC,NA,76.84271619268718,NA
27360,Davidson County,NC,2.3485784919653896,NA,NA
27377,Guilford County,NC,NA,55.02031340684852,NA
27513,Wake County,NC,NA,93.32559489262914,NA
27518,Wake County,NC,NA,NA,60.215053763440864
27520,Johnston County,NC,NA,77.42309924550203,NA
27526,Wake County,NC,NA,44.22518862449216,57.74193548387097
27530,Wayne County,NC,NA,13.406848520023216,NA
27536,Vance County,NC,46.72435105067985,NA,NA
27537,Vance County,NC,NA,17.58560650029019,NA
27539,Wake County,NC,NA,75.56587347649449,NA
27540,Wake County,NC,NA,37.1445153801509,NA
27546,Harnett County,NC,NA,65.40917005223447,NA
27565,Granville County,NC,NA,NA,19.56989247311828
27569,Johnston County,NC,86.40296662546353,NA,NA
27574,Person County,NC,NA,40.220545560069645,NA
27577,Johnston County,NC,NA,21.532211259431225,NA
27597,Wake County,NC,37.57725587144623,NA,NA
27604,Wake County,NC,NA,29.01915264074289,NA
27607,Wake County,NC,NA,62.68136970400464,NA
27609,Wake County,NC,25.710754017305316,53.97562391178178,NA
27610,Wake County,NC,NA,2.959953569355775,NA
27617,Wake County,NC,NA,NA,71.82795698924731
27703,Durham County,NC,6.798516687268233,6.152060359837493,NA
27704,Durham County,NC,NA,NA,26.129032258064516
27712,Durham County,NC,NA,NA,71.18279569892472
27713,Durham County,NC,NA,NA,13.118279569892474
27801,Edgecombe County,NC,NA,71.50319210679048,NA
27803,Nash County,NC,NA,32.675565873476494,NA
27834,Pitt County,NC,4.449938195302843,NA,NA
27858,Pitt County,NC,NA,NA,38.81720430107527
27863,Wayne County,NC,NA,79.570516540917,NA
27870,Halifax County,NC,NA,50.78351712130006,NA
27889,Beaufort County,NC,21.38442521631644,NA,21.612903225806452
27948,Dare County,NC,NA,NA,74.83870967741936
28025,Cabarrus County,NC,NA,8.24143934997098,7.526881720430108
28034,Gaston County,NC,32.88009888751545,NA,NA
28037,Lincoln County,NC,46.97156983930778,NA,NA
28078,Mecklenburg County,NC,NA,22.17063261752757,NA
28079,Union County,NC,NA,NA,73.44086021505376
28083,Cabarrus County,NC,62.66996291718171,85.20023215322112,NA
28092,Lincoln County,NC,NA,7.312826465467208,NA
28120,Gaston County,NC,NA,NA,50.10752688172043
28124,Cabarrus County,NC,NA,82.12420197330238,NA
28127,Stanly County,NC,NA,NA,78.38709677419354
28211,Mecklenburg County,NC,21.26081582200247,NA,NA
28217,Mecklenburg County,NC,NA,53.74347069065584,NA
28226,Mecklenburg County,NC,NA,NA,24.838709677419356
28227,Mecklenburg County,NC,NA,10.214741729541498,NA
28269,Mecklenburg County,NC,NA,74.75333720255368,NA
28270,Mecklenburg County,NC,45.85908529048208,NA,NA
28306,Bladen County,NC,87.26823238566132,NA,88.81720430107526
28315,Moore County,NC,NA,86.76726639582124,NA
28318,Sampson County,NC,NA,86.18688334300639,NA
28320,Bladen County,NC,NA,86.65118978525828,NA
28371,Robeson County,NC,NA,93.96401625072548,NA
28376,Hoke County,NC,20.88998763906057,NA,NA
28377,Robeson County,NC,NA,NA,88.27956989247312
28382,Sampson County,NC,NA,88.85664538595474,NA
28390,Harnett County,NC,NA,50.6094022054556,NA
28401,New Hanover County,NC,NA,21.88044109112014,NA
28409,New Hanover County,NC,NA,74.2890307603018,NA
28460,Onslow County,NC,NA,65.17701683110853,NA
28463,Columbus County,NC,NA,59.37318630295996,NA
28555,Onslow County,NC,NA,81.54381892048752,NA
28562,Craven County,NC,NA,13.929193267556586,NA
28584,Carteret County,NC,NA,96.22751015670342,NA
28586,Craven County,NC,NA,66.56993615786419,NA
28594,Carteret County,NC,NA,88.9727219965177,NA
28601,Catawba County,NC,33.127317676143385,NA,NA
28602,Catawba County,NC,NA,29.657573998839233,NA
28605,Watauga County,NC,NA,85.37434706906558,NA
28621,Surry County,NC,NA,83.57515960533952,NA
28659,Wilkes County,NC,NA,74.98549042367962,NA
28704,Buncombe County,NC,NA,85.83865351131746,41.18279569892473
28734,Macon County,NC,NA,NA,3.763440860215054
28739,Henderson County,NC,NA,NA,30.53763440860215
28752,McDowell County,NC,10.135970333745364,NA,NA
28792,Henderson County,NC,49.44375772558715,NA,NA
28806,Buncombe County,NC,NA,NA,25.053763440860216
58104,Cass County,ND,96.9097651421508,6.4422518862449225,NA
58203,Grand Forks County,ND,NA,44.28322692977365,NA
58301,Ramsey County,ND,NA,50.02901915264074,NA
58504,Burleigh County,ND,84.05438813349815,NA,NA
58601,Stark County,ND,NA,53.10504933255948,NA
58701,Ward County,ND,6.6749072929542645,NA,NA
58854,McKenzie County,ND,95.30284301606922,NA,NA
43015,Delaware County,OH,NA,3.3662217063261752,4.408602150537634
43017,Franklin County,OH,NA,NA,25.268817204301076
43028,Knox County,OH,NA,NA,28.9247311827957
43031,Licking County,OH,NA,76.03017991874637,NA
43055,Licking County,OH,NA,58.44457341845618,NA
43056,Licking County,OH,NA,25.3047011027278,NA
43065,Delaware County,OH,NA,18.97852582704585,NA
43074,Delaware County,OH,83.31273176761434,NA,NA
43076,Perry County,OH,67.11990111248454,NA,NA
43110,Franklin County,OH,NA,60.30179918746372,NA
43113,Pickaway County,OH,NA,62.8554846198491,NA
43123,Franklin County,OH,NA,24.8984329657574,NA
43130,Fairfield County,OH,NA,0.812536273940801,NA
43146,Pickaway County,OH,NA,74.81137550783518,NA
43147,Fairfield County,OH,NA,17.005223447475334,35.913978494623656
43202,Franklin County,OH,63.040791100123606,NA,NA
43205,Franklin County,OH,34.36341161928306,NA,NA
43207,Franklin County,OH,NA,41.729541497388276,NA
43213,Franklin County,OH,NA,NA,31.505376344086024
43219,Franklin County,OH,NA,24.143934997098086,NA
43222,Franklin County,OH,NA,82.93673824724318,NA
43223,Franklin County,OH,71.56983930778739,NA,NA
43227,Franklin County,OH,15.080346106304079,27.39408009286129,NA
43229,Franklin County,OH,NA,76.726639582124207,NA
43230,Franklin County,OH,NA,8.299477655252467,NA
43231,Franklin County,OH,NA,NA,66.23655913978494
43235,Franklin County,OH,34.11619283065513,89.49506674405107,NA
43302,Marion County,OH,9.641532756489493,0.8705745792222866,NA
43311,Logan County,OH,NA,25.01450957632037,NA
43402,Wood County,OH,NA,36.68020893789901,NA
43452,Ottawa County,OH,NA,53.859547301218804,NA
43502,Fulton County,OH,69.5920889987639,NA,NA
43512,Defiance County,OH,NA,2.089378990133488,NA
43560,Lucas County,OH,NA,8.763784097504352,NA
43605,Lucas County,OH,NA,14.277423099245501,NA
43612,Lucas County,OH,NA,68.5432385374347,NA
43615,Lucas County,OH,2.2249690976514214,NA,NA
43701,Muskingum County,OH,0.4944375772558714,NA,NA
43723,Guernsey County,OH,NA,88.33430063842135,NA
43725,Guernsey County,OH,NA,3.772489843296576,NA
43764,Perry County,OH,NA,NA,72.47311827956989
43812,Coshocton County,OH,NA,NA,8.709677419354838
43920,Columbiana County,OH,NA,5.861868833430064,NA
43952,Jefferson County,OH,4.697156983930779,NA,NA
44011,Lorain County,OH,NA,16.36680208937899,49.24731182795699
44022,Cuyahoga County,OH,NA,18.28206616366802,NA
44028,Lorain County,OH,NA,NA,93.11827956989247
44035,Lorain County,OH,NA,4.526987811955891,NA
44044,Lorain County,OH,NA,NA,85.91397849462365
44052,Lorain County,OH,NA,0.6964596633778294,NA
44053,Lorain County,OH,NA,2.727800348229832,NA
44054,Lorain County,OH,NA,NA,82.47311827956989
44057,Lake County,OH,NA,10.388856645385955,NA
44060,Lake County,OH,20.024721878862795,NA,NA
44070,Cuyahoga County,OH,NA,76.20429483459083,NA
44087,Summit County,OH,NA,NA,55.91397849462365
44106,Cuyahoga County,OH,NA,NA,15.053763440860216
44107,Cuyahoga County,OH,NA,13.75507835171213,NA
44108,Cuyahoga County,OH,67.24351050679851,2.61172373766686,NA
44109,Cuyahoga County,OH,NA,NA,21.397849462365592
44110,Cuyahoga County,OH,NA,NA,31.93548387096774
44111,Cuyahoga County,OH,NA,82.70458502611724,10.32258064516129
44112,Cuyahoga County,OH,NA,79.86070806732444,13.763440860215054
44117,Cuyahoga County,OH,NA,NA,31.61290322580645
44118,Cuyahoga County,OH,NA,5.91990713871155,NA
44122,Cuyahoga County,OH,NA,NA,0
44124,Cuyahoga County,OH,NA,60.708067324434126,24.731182795698924
44131,Cuyahoga County,OH,NA,NA,4.946236559139785
44132,Cuyahoga County,OH,NA,NA,30.32258064516129
44136,Cuyahoga County,OH,NA,4.410911201392919,NA
44143,Cuyahoga County,OH,NA,7.83517121300058,1.3978494623655915
44144,Cuyahoga County,OH,NA,78.99013348810215,NA
44203,Summit County,OH,NA,83.11085316308764,NA
44212,Medina County,OH,NA,0.2901915264074289,NA
44240,Portage County,OH,NA,NA,14.731182795698924
44266,Portage County,OH,NA,41.613464886825305,NA
44270,Wayne County,OH,NA,83.98142774230992,NA
44273,Medina County,OH,NA,65.40917005223447,NA
44281,Medina County,OH,NA,NA,40.86021505376344
44320,Summit County,OH,10.754017305315204,NA,NA
44403,Trumbull County,OH,NA,61.34648868253048,NA
44425,Trumbull County,OH,NA,NA,34.946236559139784
44438,Trumbull County,OH,78.12113720642769,NA,NA
44446,Trumbull County,OH,NA,86.18688334300639,NA
44460,Columbiana County,OH,13.349814585908529,4.468949506674405,NA
44481,Trumbull County,OH,NA,23.969820081253626,NA
44484,Trumbull County,OH,NA,6.790481717933837,NA
44485,Trumbull County,OH,NA,86.30295995356936,NA
44622,Tuscarawas County,OH,NA,NA,13.978494623655912
44662,Stark County,OH,NA,45.79222286709228,NA
44683,Tuscarawas County,OH,NA,61.11433546140452,NA
44685,Summit County,OH,NA,14.915844457341846,NA
44691,Wayne County,OH,NA,86.88334300638422,NA
44805,Ashland County,OH,NA,NA,17.956989247311828
44813,Richland County,OH,NA,68.9495066744051,NA
44820,Crawford County,OH,68.4796044499382,NA,NA
44833,Crawford County,OH,NA,10.679048171793383,NA
44870,Erie County,OH,53.64647713226205,NA,4.731182795698925
44903,Richland County,OH,11.495673671199011,NA,NA
44905,Richland County,OH,NA,NA,49.03225806451613
45002,Hamilton County,OH,NA,77.07486941381312,NA
45005,Warren County,OH,NA,10.33081834010447,NA
45014,Butler County,OH,NA,12.362159024956473,NA
45044,Butler County,OH,NA,51.24782356355194,NA
45069,Butler County,OH,NA,57.806152060359835,NA
45102,Clermont County,OH,53.64647713226205,NA,NA
45103,Clermont County,OH,NA,45.7341845618108,NA
45121,Brown County,OH,NA,NA,69.03225806451613
45123,Highland County,OH,NA,74.17295414973883,NA
45202,Hamilton County,OH,NA,NA,69.89247311827957
45208,Hamilton County,OH,70.45735475896167,NA,NA
45231,Hamilton County,OH,NA,NA,9.78494623655914
45237,Hamilton County,OH,NA,14.741729541497389,NA
45244,Hamilton County,OH,NA,NA,58.27956989247311
45248,Hamilton County,OH,NA,NA,17.311827956989248
45251,Hamilton County,OH,39.678615574783684,NA,NA
45252,Hamilton County,OH,NA,94.83459082994776,NA
45255,Hamilton County,OH,75.89616810877627,NA,NA
45324,Greene County,OH,NA,39.988392338943704,NA
45335,Greene County,OH,NA,79.68659315147998,NA
45342,Montgomery County,OH,7.169344870210136,NA,NA
45403,Montgomery County,OH,NA,63.609982588508416,NA
45414,Montgomery County,OH,NA,NA,36.344086021505376
45415,Montgomery County,OH,NA,45.32791642484039,NA
45417,Montgomery County,OH,22.991347342398022,NA,NA
45601,Ross County,OH,NA,6.32617527568195,NA
45619,Lawrence County,OH,NA,42.36796285548462,NA
45638,Lawrence County,OH,15.327564894932014,NA,NA
45662,Scioto County,OH,NA,11.317469529889728,NA
45690,Pike County,OH,10.877626699629172,NA,NA
45710,Athens County,OH,NA,66.9181659895531,NA
45714,Washington County,OH,NA,74.57922228670922,NA
45750,Washington County,OH,NA,0.2321532211259431,1.2903225806451613
45801,Allen County,OH,NA,NA,29.03225806451613
45804,Allen County,OH,NA,NA,44.3010752688172
45822,Mercer County,OH,NA,NA,15.913978494623656
45840,Hancock County,OH,NA,12.94254207777133,NA
45850,Allen County,OH,98.8875154511743,NA,NA
45895,Auglaize County,OH,NA,81.71793383633198,NA
73034,Oklahoma County,OK,NA,35.80963435867673,NA
73064,Canadian County,OK,NA,32.32733604178758,NA
73099,Canadian County,OK,NA,3.250145095763204,NA
73116,Oklahoma County,OK,NA,NA,55.16129032258065
73130,Oklahoma County,OK,NA,NA,93.54838709677419
73507,Comanche County,OK,NA,NA,19.462365591397848
73644,Beckham County,OK,NA,NA,79.78494623655914
73701,Garfield County,OK,NA,22.69297736506094,NA
73703,Garfield County,OK,NA,10.504933255948927,NA
73942,Texas County,OK,61.928306551297894,NA,NA
74012,Tulsa County,OK,NA,32.79164248403947,7.311827956989248
74019,Rogers County,OK,NA,41.67150319210679,NA
74037,Tulsa County,OK,NA,93.905977945444,NA
74104,Tulsa County,OK,NA,NA,84.3010752688172
74105,Tulsa County,OK,NA,98.49100406268137,NA
74133,Tulsa County,OK,21.508034610630407,NA,8.279569892473118
74136,Tulsa County,OK,NA,NA,80
74352,Mayes County,OK,NA,NA,79.03225806451613
74462,Haskell County,OK,NA,72.54788160185723,NA
74547,Pittsburg County,OK,NA,98.02669762042949,NA
74745,McCurtain County,OK,48.702101359703335,NA,NA
74820,Pontotoc County,OK,NA,19.55890887986071,NA
74834,Lincoln County,OK,NA,84.21358096343586,NA
74955,Sequoyah County,OK,43.88133498145859,NA,NA
74960,Adair County,OK,80.716934487021,NA,NA
97002,Marion County,OR,NA,NA,94.40860215053763
97005,Washington County,OR,36.341161928306555,NA,NA
97008,Washington County,OR,NA,NA,27.956989247311824
97030,Multnomah County,OR,NA,10.85316308763784,NA
97034,Clackamas County,OR,91.96538936959209,NA,NA
97035,Clackamas County,OR,NA,48.75217643644806,NA
97051,Columbia County,OR,NA,93.0934416715032,NA
97055,Clackamas County,OR,NA,39.05977945443993,NA
97058,Wasco County,OR,29.54264524103832,NA,29.462365591397848
97062,Washington County,OR,NA,90.53975623911782,NA
97070,Clackamas County,OR,NA,99.01334881021474,NA
97103,Clatsop County,OR,NA,34.82298316889147,NA
97123,Washington County,OR,NA,36.79628554846198,NA
97201,Multnomah County,OR,NA,NA,97.63440860215053
97202,Multnomah County,OR,99.87639060568603,NA,NA
97211,Multnomah County,OR,33.00370828182942,NA,NA
97214,Multnomah County,OR,NA,66.27974463145677,NA
97224,Washington County,OR,NA,24.37608821822403,NA
97225,Washington County,OR,57.231149567367126,NA,NA
97230,Multnomah County,OR,NA,72.60591990713871,NA
97304,Polk County,OR,69.83930778739185,NA,NA
97321,Linn County,OR,61.06304079110012,NA,NA
97355,Linn County,OR,NA,20.719674985490425,NA
97381,Marion County,OR,NA,50.08705745792222,NA
97391,Lincoln County,OR,NA,99.65177016831109,NA
97401,Lane County,OR,NA,NA,28.70967741935484
97404,Lane County,OR,NA,36.15786419036564,NA
97411,Coos County,OR,68.60321384425217,NA,NA
97457,Douglas County,OR,NA,97.73650609402206,NA
97459,Coos County,OR,NA,89.26291352292513,NA
97471,Douglas County,OR,NA,3.0760301799187464,NA
97477,Lane County,OR,NA,20.429483459082995,NA
97479,Douglas County,OR,NA,69.64596633778294,NA
97504,Jackson County,OR,NA,6.906558328496808,NA
97527,Josephine County,OR,NA,11.8398142774231,NA
97603,Klamath County,OR,12.484548825710753,NA,3.118279569892473
97741,Jefferson County,OR,NA,79.33836331979106,NA
97814,Baker County,OR,NA,32.21125943122461,NA
97838,Umatilla County,OR,NA,56.12304120719674,NA
97850,Union County,OR,NA,18.57225769007545,NA
15001,Beaver County,PA,NA,10.156703424260012,NA
15010,Beaver County,PA,13.967861557478367,65.06094022054556,NA
15037,Allegheny County,PA,95.67367119901112,NA,NA
15057,Washington County,PA,62.54635352286774,NA,NA
15063,Washington County,PA,NA,58.09634358676726,NA
15071,Allegheny County,PA,NA,NA,88.17204301075269
15085,Westmoreland County,PA,NA,NA,67.20430107526882
15108,Allegheny County,PA,NA,NA,86.23655913978494
15120,Allegheny County,PA,NA,62.565293093441674,NA
15136,Allegheny County,PA,NA,90.5977945443993,NA
15137,Allegheny County,PA,NA,91.8165989553105,NA
15201,Allegheny County,PA,NA,67.3244341265235,NA
15209,Allegheny County,PA,NA,54.7301218804411,NA
15210,Allegheny County,PA,NA,30.586186883343007,NA
15212,Allegheny County,PA,NA,27.278003482298317,NA
15215,Allegheny County,PA,NA,NA,48.064516129032256
15216,Allegheny County,PA,NA,39.524085896691815,NA
15218,Allegheny County,PA,NA,45.03772489843297,44.623655913978496
15219,Allegheny County,PA,NA,NA,73.11827956989248
15221,Allegheny County,PA,NA,NA,12.688172043010754
15223,Allegheny County,PA,NA,NA,60.322580645161295
15234,Allegheny County,PA,NA,58.270458502611724,NA
15236,Allegheny County,PA,61.186650185414095,NA,NA
15237,Allegheny County,PA,NA,45.67614625652931,4.086021505376344
15301,Washington County,PA,NA,2.2634939059779455,NA
15317,Washington County,PA,20.395550061804695,NA,NA
15501,Somerset County,PA,NA,36.09982588508416,NA
15601,Westmoreland County,PA,NA,7.893209518282066,NA
15627,Westmoreland County,PA,64.89493201483313,NA,NA
15642,Westmoreland County,PA,NA,NA,22.688172043010752
15650,Westmoreland County,PA,NA,56.23911781775972,NA
15656,Westmoreland County,PA,89.12237330037082,50.72547881601858,NA
15690,Westmoreland County,PA,NA,67.96285548461984,NA
15728,Indiana County,PA,NA,97.21416134648868,NA
15824,Jefferson County,PA,NA,72.83807312826465,NA
15904,Cambria County,PA,72.06427688504327,NA,NA
16001,Butler County,PA,NA,NA,2.795698924731183
16037,Butler County,PA,97.03337453646476,NA,NA
16063,Butler County,PA,NA,NA,44.086021505376344
16066,Butler County,PA,NA,28.20661636680209,NA
16101,Lawrence County,PA,NA,23.853743470690656,NA
16105,Lawrence County,PA,NA,50.95763203714452,NA
16137,Mercer County,PA,NA,21.88044109112014,NA
16146,Mercer County,PA,NA,NA,66.77419354838709
16316,Crawford County,PA,85.41409147095179,NA,NA
16354,Crawford County,PA,NA,51.94428322692978,NA
16403,Crawford County,PA,77.37948084054388,NA,NA
16504,Erie County,PA,45.73547589616811,NA,NA
16602,Blair County,PA,9.023485784919654,33.4881021474173,NA
16735,McKean County,PA,NA,NA,42.68817204301075
16801,Centre County,PA,55.99505562422744,NA,NA
16830,Clearfield County,PA,NA,NA,12.903225806451612
17013,Cumberland County,PA,13.349814585908529,NA,NA
17020,Perry County,PA,NA,NA,74.83870967741936
17033,Dauphin County,PA,22.373300370828183,NA,NA
17038,Lebanon County,PA,NA,88.9727219965177,NA
17044,Mifflin County,PA,NA,24.434126523505515,NA
17050,Cumberland County,PA,NA,5.455600696459664,NA
17057,Dauphin County,PA,NA,39.23389437028439,33.97849462365591
17065,Cumberland County,PA,NA,88.04410911201393,NA
17066,Huntingdon County,PA,NA,NA,64.19354838709678
17073,Lebanon County,PA,89.9876390605686,NA,NA
17078,Lebanon County,PA,11.00123609394314,NA,NA
17329,York County,PA,NA,95.58908879860708,NA
17331,York County,PA,NA,87.23157283807312,0.967741935483871
17340,Adams County,PA,NA,65.64132327336041,NA
17349,York County,PA,NA,80.44109112013929,NA
17402,York County,PA,NA,29.30934416715032,NA
17403,York County,PA,NA,1.1607661056297156,NA
17517,Lancaster County,PA,NA,92.51305861868833,NA
17545,Lancaster County,PA,32.38566131025958,NA,NA
17552,Lancaster County,PA,NA,55.83284968078932,NA
17584,Lancaster County,PA,NA,NA,32.58064516129032
17701,Lycoming County,PA,NA,91.35229251305861,NA
17745,Clinton County,PA,NA,34.24260011607661,NA
17777,Northumberland County,PA,NA,65.75739988392338,NA
17815,Columbia County,PA,NA,30.818340104468948,NA
17837,Union County,PA,NA,NA,86.34408602150538
17851,Northumberland County,PA,88.1334981458591,NA,NA
17872,Northumberland County,PA,NA,26.29135229251306,NA
18014,Northampton County,PA,NA,NA,33.87096774193548
18020,Northampton County,PA,NA,20.139291932675565,NA
18032,Lehigh County,PA,NA,61.81079512478236,NA
18052,Lehigh County,PA,12.360939431396787,22.8670922809054,16.451612903225808
18055,Northampton County,PA,NA,79.39640162507254,NA
18062,Lehigh County,PA,33.8689740420272,NA,NA
18064,Northampton County,PA,58.22002472187886,NA,41.935483870967744
18067,Northampton County,PA,56.61310259579728,NA,NA
18088,Northampton County,PA,76.39060568603215,46.37260591990714,NA
18102,Lehigh County,PA,NA,NA,16.129032258064516
18103,Lehigh County,PA,NA,40.16250725478816,NA
18109,Lehigh County,PA,17.428924598269468,NA,NA
18222,Luzerne County,PA,NA,54.84619849100406,NA
18235,Carbon County,PA,NA,49.68078932095183,NA
18301,Monroe County,PA,NA,20.19733023795705,NA
18302,Monroe County,PA,94.06674907292954,NA,NA
18328,Pike County,PA,NA,80.32501450957632,NA
18421,Susquehanna County,PA,NA,NA,67.63440860215054
18444,Lackawanna County,PA,NA,57.573998839233894,NA
18466,Monroe County,PA,84.42521631644006,NA,NA
18603,Columbia County,PA,NA,10.795124782356355,NA
18640,Luzerne County,PA,NA,NA,83.97849462365592
18641,Luzerne County,PA,NA,94.7185142193848,NA
18708,Luzerne County,PA,90.23485784919654,NA,NA
18848,Bradford County,PA,83.43634116192831,NA,NA
18902,Bucks County,PA,NA,NA,97.31182795698925
18914,Bucks County,PA,NA,NA,50.32258064516129
18929,Bucks County,PA,NA,NA,68.70967741935485
18938,Bucks County,PA,NA,NA,43.333333333333336
18966,Bucks County,PA,NA,6.210098665118979,NA
18976,Bucks County,PA,64.27688504326329,NA,NA
19006,Montgomery County,PA,93.20148331273177,53.047011027278,NA
19008,Delaware County,PA,NA,25.652930934416716,NA
19010,Delaware County,PA,NA,30.063842135809633,NA
19012,Montgomery County,PA,NA,74.81137550783518,NA
19013,Delaware County,PA,NA,7.603017991874637,NA
19014,Delaware County,PA,NA,74.11491584445734,NA
19020,Bucks County,PA,NA,28.090539756239117,NA
19023,Delaware County,PA,NA,42.65815438189205,NA
19027,Montgomery County,PA,NA,NA,81.18279569892472
19033,Delaware County,PA,NA,66.33778293673825,NA
19038,Montgomery County,PA,NA,82.0081253627394,NA
19040,Montgomery County,PA,NA,33.37202553685432,NA
19046,Montgomery County,PA,NA,46.43064422518862,NA
19057,Bucks County,PA,21.631644004944377,NA,NA
19061,Delaware County,PA,19.901112484548825,27.161926871735346,NA
19063,Delaware County,PA,NA,6.500290191526408,NA
19067,Bucks County,PA,NA,4.12071967498549,NA
19075,Montgomery County,PA,NA,84.85200232153221,NA
19079,Delaware County,PA,51.1742892459827,NA,NA
19081,Delaware County,PA,NA,98.95531050493325,NA
19095,Montgomery County,PA,NA,NA,96.98924731182795
19104,Philadelphia County,PA,NA,10.911201392919327,NA
19106,Philadelphia County,PA,NA,83.40104468949507,43.97849462365591
19107,Philadelphia County,PA,NA,NA,67.52688172043011
19111,Philadelphia County,PA,NA,50.261172373766684,NA
19114,Philadelphia County,PA,53.89369592088998,NA,87.31182795698925
19115,Philadelphia County,PA,72.55871446229914,NA,8.9247311827957
19119,Philadelphia County,PA,NA,79.74463145676147,NA
19120,Philadelphia County,PA,11.248454882571075,NA,NA
19125,Philadelphia County,PA,NA,42.60011607661056,NA
19126,Philadelphia County,PA,NA,33.77829367382472,70.3225806451613
19128,Philadelphia County,PA,11.990111248454882,NA,NA
19131,Philadelphia County,PA,3.584672435105068,NA,6.774193548387098
19132,Philadelphia County,PA,17.552533992583434,9.286128845037725,NA
19136,Philadelphia County,PA,NA,17.701683110853164,NA
19140,Philadelphia County,PA,NA,4.875217643644805,71.07526881720429
19141,Philadelphia County,PA,NA,9.808473592571097,22.58064516129032
19143,Philadelphia County,PA,39.925834363411624,NA,NA
19144,Philadelphia County,PA,NA,NA,15.376344086021506
19150,Philadelphia County,PA,NA,87.98607080673244,28.49462365591398
19152,Philadelphia County,PA,NA,99.70980847359257,35.16129032258065
19154,Philadelphia County,PA,NA,40.51073708647707,NA
19320,Chester County,PA,24.474660074165637,NA,NA
19335,Chester County,PA,NA,8.12536273940801,NA
19341,Chester County,PA,NA,NA,40.32258064516129
19344,Chester County,PA,NA,67.15031921067904,NA
19380,Chester County,PA,29.913473423980225,NA,3.655913978494624
19382,Chester County,PA,NA,4.643064422518862,NA
19401,Montgomery County,PA,NA,14.045269878119559,NA
19403,Montgomery County,PA,NA,21.59024956471271,NA
19426,Montgomery County,PA,NA,20.835751596053395,NA
19438,Montgomery County,PA,NA,NA,23.333333333333332
19446,Montgomery County,PA,49.196538936959215,NA,NA
19460,Chester County,PA,NA,90.07544979686594,NA
19462,Montgomery County,PA,NA,NA,41.72043010752688
19468,Montgomery County,PA,56.86032138442522,96.69181659895531,NA
19504,Berks County,PA,NA,93.4997098084736,NA
19512,Berks County,PA,NA,38.24724318049913,NA
19525,Montgomery County,PA,NA,33.13987231572838,NA
19604,Berks County,PA,7.663782447466007,NA,NA
19606,Berks County,PA,NA,NA,13.440860215053762
19611,Berks County,PA,NA,88.33430063842135,NA
02813,Washington County,RI,NA,NA,92.04301075268818
02816,Kent County,RI,NA,8.647707486941382,NA
02857,Providence County,RI,NA,NA,93.87096774193549
02871,Newport County,RI,NA,27.161926871735346,NA
02886,Kent County,RI,65.7601977750309,NA,NA
02889,Kent County,RI,NA,94.37028438769588,NA
02893,Kent County,RI,NA,14.973882762623331,NA
02895,Providence County,RI,8.034610630407911,NA,NA
02904,Providence County,RI,23.362175525339925,11.723737666860128,NA
02908,Providence County,RI,NA,25.7109692396982,NA
02917,Providence County,RI,NA,62.333139872315726,NA
02919,Providence County,RI,88.00988875154512,NA,NA
02921,Providence County,RI,NA,NA,58.924731182795696
29016,Richland County,SC,61.310259579728054,NA,NA
29073,Lexington County,SC,NA,NA,35.59139784946236
29078,Kershaw County,SC,NA,NA,62.365591397849464
29108,Newberry County,SC,42.52163164400494,NA,NA
29127,Newberry County,SC,NA,NA,70.86021505376344
29153,Sumter County,SC,NA,NA,48.27956989247312
29161,Florence County,SC,NA,NA,80.3225806451613
29205,Richland County,SC,61.43386897404203,NA,NA
29212,Lexington County,SC,47.96044499381953,NA,NA
29369,Spartanburg County,SC,55.25339925834364,NA,NA
29372,Spartanburg County,SC,NA,NA,91.93548387096774
29420,Dorchester County,SC,NA,NA,73.54838709677419
29440,Georgetown County,SC,NA,33.8943702843877,NA
29445,Berkeley County,SC,NA,16.540917005223445,NA
29456,Dorchester County,SC,93.0778739184178,NA,NA
29464,Charleston County,SC,NA,NA,11.612903225806452
29477,Dorchester County,SC,NA,88.33430063842135,NA
29485,Dorchester County,SC,45.611866501854145,NA,NA
29488,Colleton County,SC,NA,NA,39.89247311827957
29501,Florence County,SC,21.755253399258343,9.692396982008125,NA
29505,Florence County,SC,NA,NA,34.086021505376344
29510,Georgetown County,SC,NA,70.69065583284969,71.3978494623656
29532,Darlington County,SC,NA,39.11781775972142,NA
29550,Darlington County,SC,NA,NA,91.50537634408602
29575,Horry County,SC,NA,NA,36.666666666666664
29579,Horry County,SC,NA,22.69297736506094,30
29582,Horry County,SC,NA,NA,45.053763440860216
29588,Horry County,SC,26.328800988875155,NA,NA
29601,Greenville County,SC,56.118665018541414,NA,NA
29607,Greenville County,SC,NA,NA,17.8494623655914
29611,Greenville County,SC,8.405438813349814,NA,NA
29625,Anderson County,SC,90.11124845488257,NA,NA
29630,Pickens County,SC,NA,67.96285548461984,NA
29640,Pickens County,SC,NA,44.80557167730702,NA
29644,Greenville County,SC,NA,47.88160185722577,NA
29645,Laurens County,SC,NA,97.79454439930355,NA
29676,Oconee County,SC,NA,60.88218224027858,NA
29678,Oconee County,SC,NA,22.57690075449797,NA
29681,Greenville County,SC,NA,NA,77.84946236559139
29687,Greenville County,SC,49.32014833127318,NA,NA
29691,Oconee County,SC,NA,70.9808473592571,NA
29715,York County,SC,NA,58.21242019733024,NA
29720,Lancaster County,SC,9.88875154511743,NA,NA
29732,York County,SC,NA,NA,44.086021505376344
29745,York County,SC,39.30778739184178,NA,NA
29801,Aiken County,SC,NA,NA,35.26881720430107
29910,Beaufort County,SC,NA,91.75856065002903,NA
29926,Beaufort County,SC,NA,NA,55.6989247311828
29927,Jasper County,SC,NA,NA,63.54838709677419
29928,Beaufort County,SC,NA,75.33372025536855,NA
57042,Lake County,SD,NA,34.41671503192107,NA
57103,Minnehaha County,SD,42.027194066749075,NA,NA
57104,Minnehaha County,SD,NA,84.61984910040627,NA
57201,Codington County,SD,NA,NA,62.043010752688176
57252,Grant County,SD,NA,76.95879280325015,NA
57401,Brown County,SD,11.372064276885045,NA,NA
57701,Pennington County,SD,NA,39.408009286128845,NA
57719,Pennington County,SD,NA,NA,78.17204301075269
37043,Montgomery County,TN,NA,13.697040046430645,NA
37048,Sumner County,TN,NA,NA,93.97849462365592
37062,Williamson County,TN,NA,69.23969820081254,NA
37076,Davidson County,TN,NA,21.18398142774231,NA
37166,DeKalb County,TN,NA,43.70284387695879,NA
37211,Davidson County,TN,NA,12.594312246082415,NA
37215,Davidson County,TN,NA,48.86825304701103,NA
37221,Davidson County,TN,NA,48.1717933836332,25.483870967741932
37303,McMinn County,TN,NA,61.57864190365642,30.86021505376344
37321,Rhea County,TN,NA,72.43180499129426,NA
37322,Meigs County,TN,NA,67.90481717933837,NA
37327,Sequatchie County,TN,NA,NA,68.49462365591398
37379,Hamilton County,TN,NA,68.1369704004643,NA
37385,Monroe County,TN,64.15327564894932,NA,NA
37388,Coffee County,TN,NA,31.282646546720837,NA
37398,Franklin County,TN,NA,NA,75.3763440860215
37416,Hamilton County,TN,NA,40.684852002321534,NA
37421,Hamilton County,TN,NA,66.86012768427162,NA
37604,Washington County,TN,NA,42.48403946604759,NA
37620,Sullivan County,TN,NA,NA,12.580645161290322
37643,Carter County,TN,NA,NA,14.193548387096774
37692,Unicoi County,TN,NA,79.1642484039466,NA
37725,Jefferson County,TN,NA,NA,56.02150537634408
37743,Greene County,TN,8.281829419035846,NA,NA
37748,Roane County,TN,NA,NA,30.752688172043012
37752,Claiborne County,TN,NA,NA,78.81720430107528
37763,Roane County,TN,NA,84.0975043528729,NA
37774,Loudon County,TN,96.78615574783683,NA,NA
37803,Blount County,TN,NA,7.7771329077190945,12.473118279569892
37804,Blount County,TN,NA,11.259431224608242,NA
37840,Roane County,TN,NA,41.32327336041788,NA
37857,Hawkins County,TN,NA,28.903076030179918,NA
37876,Sevier County,TN,NA,14.393499709808474,27.526881720430108
37887,Morgan County,TN,NA,64.53859547301218,NA
37890,Jefferson County,TN,NA,68.89146836912361,NA
37921,Knox County,TN,NA,71.09692396982008,NA
37923,Knox County,TN,NA,28.961114335461403,NA
38008,Hardeman County,TN,NA,NA,57.95698924731183
38019,Tipton County,TN,NA,NA,58.27956989247311
38116,Shelby County,TN,NA,21.416134648868255,NA
38122,Shelby County,TN,NA,54.61404526987812,NA
38256,Henry County,TN,NA,86.70922809053975,NA
38363,Decatur County,TN,NA,NA,70.86021505376344
38478,Giles County,TN,NA,NA,47.956989247311824
38506,Putnam County,TN,NA,43.35461404526988,NA
38549,Pickett County,TN,NA,83.92338943702843,NA
75006,Dallas County,TX,NA,18.39814277423099,NA
75022,Denton County,TX,NA,67.15031921067904,NA
75028,Denton County,TX,NA,57.5159605339524,NA
75033,,TX,NA,NA,56.344086021505376
75052,Dallas County,TX,36.95920889987639,NA,NA
75060,Dallas County,TX,NA,73.476494486361,NA
75062,Dallas County,TX,NA,22.17063261752757,NA
75063,Dallas County,TX,43.38689740420272,NA,NA
75068,Denton County,TX,NA,NA,52.1505376344086
75074,Collin County,TX,NA,NA,46.02150537634409
75075,Collin County,TX,NA,84.73592571096924,NA
75078,Collin County,TX,NA,78.69994196169472,NA
75080,Dallas County,TX,70.33374536464771,NA,NA
75092,Grayson County,TX,NA,37.43470690655833,NA
75093,Collin County,TX,NA,21.88044109112014,NA
75104,Dallas County,TX,NA,19.849100406268136,57.95698924731183
75134,Dallas County,TX,NA,59.082994776552525,NA
75154,Ellis County,TX,NA,80.55716773070226,NA
75160,Kaufman County,TX,48.8257107540173,NA,NA
75169,Van Zandt County,TX,NA,53.22112594312246,NA
75181,Dallas County,TX,40.54388133498146,NA,NA
75216,Dallas County,TX,4.202719406674907,NA,NA
75218,Dallas County,TX,NA,46.19849100406268,NA
75220,Dallas County,TX,NA,62.68136970400464,NA
75229,Dallas County,TX,NA,76.66860127684272,NA
75232,Dallas County,TX,NA,NA,70
75233,Dallas County,TX,NA,68.19500870574579,NA
75235,Dallas County,TX,52.65760197775031,NA,NA
75249,Dallas County,TX,NA,76.61056297156124,NA
75252,Collin County,TX,NA,43.99303540336622,NA
75287,Denton County,TX,30.03708281829419,NA,NA
75407,Collin County,TX,47.46600741656366,NA,NA
75455,Titus County,TX,40.04944375772559,NA,NA
75501,Bowie County,TX,NA,NA,36.236559139784944
75503,Bowie County,TX,NA,42.542077771329076,NA
75563,Cass County,TX,NA,90.94602437608822,NA
75602,Gregg County,TX,NA,NA,81.50537634408602
75645,Upshur County,TX,NA,NA,78.6021505376344
75692,Harrison County,TX,NA,89.90133488102148,NA
75762,Smith County,TX,NA,68.36912362159025,NA
75801,Anderson County,TX,NA,56.00696459663378,NA
75803,Anderson County,TX,NA,36.7382472431805,NA
75840,Freestone County,TX,NA,65.75739988392338,NA
75901,Angelina County,TX,26.081582200247215,59.48926291352292,NA
75935,Shelby County,TX,NA,95.24085896691817,72.04301075268818
75961,Nacogdoches County,TX,NA,61.34648868253048,NA
75964,Nacogdoches County,TX,NA,80.26697620429483,NA
75965,Nacogdoches County,TX,NA,NA,45.59139784946237
76002,Tarrant County,TX,NA,48.5780615206036,94.51612903225806
76009,Johnson County,TX,47.46600741656366,NA,NA
76011,Tarrant County,TX,67.98516687268233,NA,NA
76012,Tarrant County,TX,NA,79.51247823563551,NA
76016,Tarrant County,TX,NA,NA,24.838709677419356
76017,Tarrant County,TX,NA,68.48520023215322,NA
76021,Tarrant County,TX,NA,28.554846198491003,NA
76028,Johnson County,TX,44.00494437577256,15.96053395240859,NA
76050,Johnson County,TX,NA,NA,86.12903225806451
76053,Tarrant County,TX,57.10754017305315,NA,NA
76063,Tarrant County,TX,33.37453646477132,NA,NA
76073,Wise County,TX,85.90852904820765,NA,NA
76109,Tarrant County,TX,NA,67.49854904236796,NA
76116,Tarrant County,TX,15.698393077873918,NA,NA
76118,Tarrant County,TX,NA,NA,93.01075268817203
76131,Tarrant County,TX,NA,74.63726059199072,NA
76133,Tarrant County,TX,NA,NA,17.20430107526882
76140,Tarrant County,TX,NA,NA,54.19354838709678
76255,Montague County,TX,NA,88.62449216482878,NA
76266,Denton County,TX,NA,81.31166569936158,NA
76301,Wichita County,TX,35.35228677379481,NA,NA
76458,Jack County,TX,NA,NA,92.90322580645162
76502,Bell County,TX,NA,NA,2.1505376344086025
76528,Coryell County,TX,NA,8.357515960533952,NA
76543,Bell County,TX,NA,NA,23.870967741935484
76692,Hill County,TX,NA,44.631456761462566,44.946236559139784
76710,McLennan County,TX,NA,31.572838073128263,10.53763440860215
76856,Mason County,TX,NA,99.47765525246662,NA
77004,Harris County,TX,NA,32.32733604178758,NA
77007,Harris County,TX,NA,55.60069645966338,NA
77008,Harris County,TX,NA,NA,48.17204301075269
77014,Harris County,TX,44.87021013597033,NA,NA
77015,Harris County,TX,71.44622991347343,NA,49.354838709677416
77021,Harris County,TX,84.67243510506799,NA,NA
77022,Harris County,TX,NA,NA,39.784946236559136
77026,Harris County,TX,NA,NA,50.86021505376343
77027,Harris County,TX,NA,59.02495647127104,80.53763440860216
77028,Harris County,TX,63.16440049443758,NA,NA
77038,Harris County,TX,64.77132262051916,NA,NA
77041,Harris County,TX,NA,83.45908299477655,NA
77047,Harris County,TX,NA,60.06964596633778,NA
77056,Harris County,TX,60.81582200247219,NA,NA
77057,Harris County,TX,NA,NA,90.96774193548387
77061,Harris County,TX,NA,NA,91.18279569892474
77062,Harris County,TX,81.33498145859085,NA,NA
77063,Harris County,TX,50.803461063040785,NA,NA
77065,Harris County,TX,81.95302843016069,NA,NA
77068,Harris County,TX,83.68355995055624,NA,NA
77070,Harris County,TX,35.10506798516687,15.322112594312246,NA
77072,Harris County,TX,93.32509270704573,NA,NA
77074,Harris County,TX,62.2991347342398,NA,NA
77077,Harris County,TX,74.04202719406675,NA,NA
77079,Harris County,TX,NA,NA,39.89247311827957
77080,Harris County,TX,NA,52.58270458502612,NA
77083,Harris County,TX,NA,48.81021474172954,NA
77087,Harris County,TX,69.09765142150803,NA,NA
77089,Harris County,TX,NA,77.65525246662797,NA
77090,Harris County,TX,NA,84.96807893209518,NA
77091,Harris County,TX,67.36711990111249,NA,NA
77098,Harris County,TX,77.00865265760197,NA,NA
77318,Montgomery County,TX,NA,NA,65.91397849462366
77338,Harris County,TX,NA,NA,78.70967741935485
77346,Harris County,TX,14.091470951792337,NA,NA
77356,Montgomery County,TX,NA,57.573998839233894,NA
77357,Montgomery County,TX,47.21878862793572,NA,NA
77362,Montgomery County,TX,85.04326328800988,NA,NA
77373,Harris County,TX,20.27194066749073,NA,NA
77379,Harris County,TX,NA,29.715612304120718,NA
77382,Montgomery County,TX,NA,47.93964016250725,NA
77386,Montgomery County,TX,NA,36.79628554846198,NA
77388,Harris County,TX,33.8689740420272,NA,NA
77406,Fort Bend County,TX,NA,83.2849680789321,NA
77414,Matagorda County,TX,NA,60.243760882182244,NA
77422,Brazoria County,TX,NA,58.850841555426584,NA
77429,Harris County,TX,7.787391841779975,NA,NA
77449,Harris County,TX,6.9221260815822,NA,NA
77471,Fort Bend County,TX,55.500618046971574,NA,NA
77474,Austin County,TX,NA,70.11027278003482,NA
77478,Fort Bend County,TX,NA,NA,65.48387096774194
77479,Fort Bend County,TX,NA,94.89262913522926,NA
77494,Fort Bend County,TX,NA,55.19442832269298,NA
77498,Fort Bend County,TX,67.7379480840544,NA,44.623655913978496
77503,Harris County,TX,NA,50.55136390017412,NA
77505,Harris County,TX,NA,74.23099245502031,48.60215053763441
77511,Brazoria County,TX,NA,7.022634939059779,NA
77518,Galveston County,TX,NA,98.31688914683691,NA
77520,Harris County,TX,32.509270704573545,NA,NA
77521,Harris County,TX,19.77750309023486,69.06558328496808,NA
77532,Harris County,TX,30.655129789864027,NA,NA
77541,Brazoria County,TX,NA,42.25188624492165,NA
77545,Fort Bend County,TX,52.16316440049443,NA,NA
77550,Galveston County,TX,NA,8.53163087637841,NA
77551,Galveston County,TX,18.170580964153277,NA,NA
77562,Harris County,TX,NA,NA,93.65591397849462
77571,Harris County,TX,46.47713226205192,NA,40.215053763440864
77584,Brazoria County,TX,42.398022249690975,84.9100406268137,NA
77591,Galveston County,TX,NA,76.08821822402786,NA
77630,Orange County,TX,NA,23.331398723157285,NA
77642,Jefferson County,TX,NA,53.511317469529885,NA
77662,Orange County,TX,NA,NA,42.1505376344086
77706,Jefferson County,TX,NA,91.17817759721416,NA
77713,Jefferson County,TX,NA,NA,63.87096774193548
77802,Brazos County,TX,76.76143386897404,NA,NA
77836,Burleson County,TX,NA,37.26059199071387,NA
77840,Brazos County,TX,60.07416563658838,NA,NA
77845,Brazos County,TX,73.67119901112484,NA,29.677419354838708
77901,Victoria County,TX,NA,NA,19.032258064516128
77904,Victoria County,TX,56.48949320148331,NA,NA
77979,Calhoun County,TX,NA,91.93267556587348,NA
77995,Lavaca County,TX,NA,60.359837492745214,NA
78006,Kendall County,TX,NA,44.051073708647706,NA
78009,Medina County,TX,NA,NA,85.80645161290322
78041,Webb County,TX,26.699629171817058,NA,20
78063,Bandera County,TX,NA,NA,83.33333333333334
78070,Comal County,TX,NA,NA,74.73118279569893
78102,Bee County,TX,NA,57.86419036564132,NA
78148,Bexar County,TX,73.30037082818293,NA,NA
78209,Bexar County,TX,NA,NA,74.19354838709677
78211,Bexar County,TX,66.5018541409147,NA,NA
78223,Bexar County,TX,NA,20.08125362739408,NA
78247,Bexar County,TX,NA,45.15380150899594,NA
78264,Bexar County,TX,NA,NA,64.6236559139785
78332,Jim Wells County,TX,46.84796044499382,49.44863609982589,NA
78362,San Patricio County,TX,79.48084054388134,NA,NA
78373,Nueces County,TX,NA,95.0667440510737,NA
78411,Nueces County,TX,NA,54.091700522344745,NA
78521,Cameron County,TX,NA,40.568775391758564,NA
78537,Hidalgo County,TX,NA,27.452118398142773,NA
78542,Hidalgo County,TX,NA,NA,38.17204301075269
78559,Cameron County,TX,NA,71.73534532791642,NA
78573,Hidalgo County,TX,NA,82.53047011027277,NA
78582,Starr County,TX,NA,30.934416715031922,NA
78583,Cameron County,TX,NA,NA,76.34408602150538
78611,Burnet County,TX,NA,NA,11.935483870967742
78620,Hays County,TX,NA,NA,69.13978494623656
78628,Williamson County,TX,NA,NA,1.7204301075268817
78640,Hays County,TX,NA,29.599535693557748,NA
78642,Williamson County,TX,NA,72.02553685432386,NA
78666,Hays County,TX,NA,25.18862449216483,NA
78702,Travis County,TX,81.70580964153275,NA,NA
78723,Travis County,TX,NA,57.86419036564132,NA
78731,Travis County,TX,NA,NA,57.096774193548384
78750,Travis County,TX,NA,63.726059199071386,NA
78840,Val Verde County,TX,NA,11.027278003482298,NA
78852,Maverick County,TX,NA,28.148578061520602,NA
79119,Randall County,TX,NA,70.74869413813116,NA
79339,Lamb County,TX,NA,88.79860708067324,NA
79382,Lubbock County,TX,NA,NA,98.81720430107526
79403,Lubbock County,TX,NA,37.5507835171213,NA
79412,Lubbock County,TX,44.49938195302843,NA,NA
79413,Lubbock County,TX,NA,NA,24.193548387096776
79415,Lubbock County,TX,NA,95.76320371445154,NA
79416,Lubbock County,TX,NA,NA,20.32258064516129
79424,Lubbock County,TX,NA,47.01102727800348,NA
79762,Ector County,TX,19.406674907292953,NA,NA
79765,Ector County,TX,85.16687268232386,NA,NA
79835,El Paso County,TX,92.45982694684795,NA,NA
79905,El Paso County,TX,NA,43.06442251886245,NA
79912,El Paso County,TX,18.41779975278121,NA,NA
79924,El Paso County,TX,32.138442521631646,NA,NA
79927,El Paso County,TX,41.90358467243511,46.89495066744051,NA
84020,Salt Lake County,UT,86.52657601977751,NA,NA
84029,Tooele County,UT,NA,69.413813116657,NA
84043,Utah County,UT,NA,53.279164248403944,NA
84054,Davis County,UT,NA,59.83749274521184,NA
84057,Utah County,UT,88.25710754017305,NA,NA
84065,Salt Lake County,UT,NA,33.66221706326175,NA
84093,Salt Lake County,UT,66.25463535228677,NA,NA
84095,Salt Lake County,UT,71.69344870210136,18.68833430063842,NA
84107,Salt Lake County,UT,NA,75.85606500290191,NA
84108,Salt Lake County,UT,NA,69.64596633778294,NA
84119,Salt Lake County,UT,NA,58.03830528148578,NA
84120,Salt Lake County,UT,NA,42.25188624492165,NA
84414,Weber County,UT,58.34363411619283,NA,NA
84790,Washington County,UT,NA,NA,19.892473118279568
05089,Windsor County,VT,NA,NA,94.08602150537635
05301,Windham County,VT,NA,19.38479396401625,NA
05468,Chittenden County,VT,52.16316440049443,NA,NA
20170,Fairfax County,VA,NA,64.19036564132328,NA
22003,Fairfax County,VA,NA,NA,37.634408602150536
22025,Prince William County,VA,NA,NA,69.24731182795699
22030,Fairfax County,VA,21.013597033374538,50.43528728961114,32.15053763440861
22031,Fairfax County,VA,NA,64.24840394660475,NA
22033,Fairfax County,VA,NA,48.22983168891468,NA
22039,Fairfax County,VA,67.61433868974042,92.28090539756239,NA
22043,Fairfax County,VA,NA,65.6993615786419,87.41935483870968
22101,Fairfax County,VA,NA,64.82878699941962,NA
22124,Fairfax County,VA,74.90729295426452,NA,NA
22151,Fairfax County,VA,NA,NA,77.31182795698925
22152,Fairfax County,VA,NA,53.4532791642484,NA
22182,Fairfax County,VA,50.55624227441285,NA,NA
22306,Fairfax County,VA,NA,34.64886825304701,NA
22314,Alexandria city,VA,NA,37.666860127684274,NA
22405,Stafford County,VA,43.016069221260814,40.684852002321534,43.11827956989247
22553,Spotsylvania County,VA,NA,NA,83.33333333333334
22556,Stafford County,VA,NA,54.556006964596634,NA
22625,Frederick County,VA,NA,99.76784677887406,NA
22657,Shenandoah County,VA,39.431396786155744,NA,NA
22812,Rockingham County,VA,NA,85.14219384793964,NA
22942,Louisa County,VA,NA,NA,76.45161290322581
22947,Albemarle County,VA,NA,NA,73.22580645161291
23113,Chesterfield County,VA,NA,39.872315728380734,NA
23116,Hanover County,VA,NA,79.97678467788741,NA
23185,James City County,VA,NA,NA,0.3225806451612903
23225,Richmond city,VA,NA,NA,22.1505376344086
23233,Henrico County,VA,NA,NA,53.01075268817205
23234,Chesterfield County,VA,NA,81.6598955310505,NA
23237,Chesterfield County,VA,NA,45.50203134068485,NA
23322,Chesapeake city,VA,NA,NA,12.150537634408602
23324,Chesapeake city,VA,NA,41.09112013929193,NA
23430,Isle of Wight County,VA,51.79233621755254,21.648287869994196,NA
23434,Suffolk city,VA,NA,NA,10.21505376344086
23455,Virginia Beach city,VA,NA,27.626233313987232,NA
23456,Virginia Beach city,VA,NA,5.165409170052235,NA
23504,Norfolk city,VA,17.79975278121137,NA,NA
23505,Norfolk city,VA,NA,52.75681950087058,NA
23704,Portsmouth city,VA,NA,NA,53.65591397849462
23831,Chesterfield County,VA,26.94684796044499,21.125943122460825,NA
23860,Hopewell city,VA,NA,18.28206616366802,49.78494623655914
23936,Buckingham County,VA,NA,92.33894370284388,NA
24014,Roanoke city,VA,NA,19.907138711549624,48.70967741935484
24018,Roanoke County,VA,NA,NA,7.204301075268817
24087,Montgomery County,VA,NA,91.64248403946604,NA
24112,Henry County,VA,NA,8.705745792222867,NA
24301,Pulaski County,VA,NA,88.74056877539176,NA
24330,Grayson County,VA,83.80716934487022,NA,NA
24382,Wythe County,VA,NA,NA,55.376344086021504
24401,Staunton city,VA,NA,3.656413232733604,5.376344086021505
24503,Lynchburg city,VA,75.52533992583437,NA,NA
24540,Danville city,VA,NA,87.52176436448056,NA
24550,Campbell County,VA,NA,NA,72.68817204301075
98003,King County,WA,NA,13.406848520023216,NA
98006,King County,WA,NA,67.84677887405688,NA
98019,King County,WA,NA,NA,89.56989247311829
98021,Snohomish County,WA,97.77503090234858,35.46140452698781,NA
98023,King County,WA,NA,72.89611143354614,NA
98024,King County,WA,95.55006180469717,NA,NA
98029,King County,WA,NA,48.5780615206036,NA
98030,King County,WA,NA,29.077190946024377,NA
98032,King County,WA,31.767614338689743,NA,NA
98033,King County,WA,48.4548825710754,NA,NA
98034,King County,WA,22.62051915945612,35.63551944283227,NA
98045,King County,WA,NA,88.33430063842135,NA
98052,King County,WA,NA,43.18049912942542,NA
98053,King County,WA,NA,72.72199651770168,NA
98056,King County,WA,NA,NA,46.666666666666664
98058,King County,WA,NA,13.987231572838073,27.311827956989248
98059,King County,WA,NA,19.210679048171794,NA
98102,King County,WA,57.60197775030902,NA,NA
98103,King County,WA,35.723114956736715,28.670922809053977,81.72043010752688
98104,King County,WA,87.51545117428925,NA,NA
98106,King County,WA,NA,52.93093441671503,76.98924731182795
98107,King County,WA,NA,53.80150899593732,NA
98121,King County,WA,NA,51.073708647707484,NA
98122,King County,WA,43.13967861557478,NA,NA
98126,King County,WA,92.7070457354759,NA,NA
98148,King County,WA,NA,98.83923389437028,NA
98166,King County,WA,NA,NA,65.05376344086021
98203,Snohomish County,WA,NA,82.24027858386536,NA
98208,Snohomish County,WA,13.720642768850432,NA,NA
98223,Snohomish County,WA,NA,11.491584445734185,NA
98232,Skagit County,WA,NA,96.80789320951828,NA
98260,Island County,WA,NA,82.99477655252467,NA
98270,Snohomish County,WA,NA,51.94428322692978,NA
98272,Snohomish County,WA,NA,31.398723157283808,NA
98275,Snohomish County,WA,NA,90.48171793383634,NA
98282,Island County,WA,NA,28.380731282646547,NA
98290,Snohomish County,WA,58.838071693448704,NA,NA
98368,Jefferson County,WA,NA,63.14567614625653,NA
98383,Kitsap County,WA,NA,NA,55.16129032258065
98404,Pierce County,WA,NA,NA,59.89247311827957
98407,Pierce County,WA,NA,96.11143354614046,NA
98408,Pierce County,WA,NA,43.818920487521765,51.72043010752688
98444,Pierce County,WA,NA,86.59315147997678,NA
98466,Pierce County,WA,NA,24.0858966918166,NA
98501,Thurston County,WA,NA,25.943122460824142,NA
98503,Thurston County,WA,NA,37.9570516540917,NA
98506,Thurston County,WA,NA,59.082994776552525,NA
98528,Mason County,WA,NA,NA,58.817204301075265
98531,Lewis County,WA,NA,NA,28.064516129032256
98548,Mason County,WA,NA,NA,83.01075268817203
98563,Grays Harbor County,WA,NA,72.08357515960535,NA
98584,Mason County,WA,NA,12.304120719674986,NA
98597,Thurston County,WA,NA,92.10679048171794,NA
98604,Clark County,WA,NA,57.457922228670924,NA
98612,Wahkiakum County,WA,NA,83.74927452118398,NA
98620,Klickitat County,WA,NA,52.17643644805572,NA
98632,Cowlitz County,WA,NA,2.321532211259431,14.516129032258066
98665,Clark County,WA,NA,60.475914103308185,NA
98682,Clark County,WA,NA,33.25594892629135,54.946236559139784
98801,Chelan County,WA,NA,43.122460824143936,NA
98837,Grant County,WA,64.52410383189122,NA,NA
98840,Okanogan County,WA,92.21260815822002,NA,NA
98841,Okanogan County,WA,NA,NA,91.0752688172043
98851,Grant County,WA,NA,93.4997098084736,NA
98902,Yakima County,WA,NA,15.67034242600116,NA
98948,Yakima County,WA,NA,99.07138711549622,NA
99019,Spokane County,WA,87.76266996291719,NA,NA
99037,Spokane County,WA,84.17799752781211,NA,NA
99202,Spokane County,WA,NA,56.64538595473012,NA
99207,Spokane County,WA,37.824474660074166,NA,NA
99216,Spokane County,WA,NA,63.493905977945445,NA
99324,Walla Walla County,WA,99.13473423980223,NA,NA
99338,Benton County,WA,NA,21.358096343586766,NA
99352,Benton County,WA,NA,NA,2.6881720430107525
99354,Benton County,WA,NA,NA,15.268817204301074
20002,District of Columbia,DC,NA,NA,30.215053763440856
20003,District of Columbia,DC,63.41161928306551,NA,NA
20011,District of Columbia,DC,NA,7.486941381311666,NA
20015,District of Columbia,DC,NA,69.87811955890888,76.77419354838709
20018,District of Columbia,DC,31.64400494437577,16.65699361578642,NA
20024,District of Columbia,DC,NA,73.70864770748695,NA
20037,District of Columbia,DC,NA,NA,68.06451612903226
25143,Kanawha County,WV,NA,53.859547301218804,NA
25177,Kanawha County,WV,NA,23.041207196749856,NA
25271,Jackson County,WV,51.42150803461063,NA,NA
25306,Kanawha County,WV,NA,71.67730702263493,NA
25312,Kanawha County,WV,NA,NA,53.118279569892465
25313,Kanawha County,WV,NA,38.363319791062104,NA
25801,Raleigh County,WV,NA,5.281485780615206,NA
26101,Wood County,WV,NA,2.7858386535113175,NA
26104,Wood County,WV,95.17923362175526,NA,NA
26201,Upshur County,WV,NA,56.47127103888566,39.13978494623656
26301,Harrison County,WV,4.573547589616811,NA,NA
26330,Harrison County,WV,NA,50.14509576320372,NA
26426,Harrison County,WV,NA,64.01625072547881,NA
26505,Monongalia County,WV,6.056860321384425,NA,NA
26554,Marion County,WV,NA,23.2733604178758,NA
26726,Mineral County,WV,NA,NA,47.204301075268816
53010,Fond du Lac County,WI,NA,92.16482878699942,NA
53014,Calumet County,WI,NA,97.33023795705165,NA
53022,Washington County,WI,NA,NA,43.225806451612904
53024,Ozaukee County,WI,NA,92.04875217643644,NA
53027,Washington County,WI,NA,NA,54.623655913978496
53051,Waukesha County,WI,NA,15.728380731282646,8.38709677419355
53066,Waukesha County,WI,NA,62.50725478816018,NA
53073,Sheboygan County,WI,NA,NA,60.537634408602145
53081,Sheboygan County,WI,NA,NA,17.096774193548388
53083,Sheboygan County,WI,NA,93.61578641903657,NA
53110,Milwaukee County,WI,NA,NA,67.74193548387096
53121,Walworth County,WI,NA,NA,90.86021505376344
53126,Racine County,WI,66.13102595797281,NA,NA
53132,Milwaukee County,WI,NA,81.02147417295414,NA
53140,Kenosha County,WI,7.292954264524104,NA,NA
53146,Waukesha County,WI,NA,72.48984329657574,64.40860215053763
53154,Milwaukee County,WI,NA,31.34068485200232,NA
53172,Milwaukee County,WI,81.82941903584673,NA,NA
53182,Racine County,WI,49.81458590852905,NA,NA
53186,Waukesha County,WI,NA,NA,76.23655913978494
53188,Waukesha County,WI,82.6946847960445,68.71735345327916,NA
53189,Waukesha County,WI,NA,NA,83.87096774193549
53206,Milwaukee County,WI,NA,87.05745792222868,NA
53211,Milwaukee County,WI,50.185414091470946,NA,NA
53215,Milwaukee County,WI,NA,1.5089959373186304,6.881720430107527
53216,Milwaukee County,WI,18.912237330037083,NA,31.827956989247312
53221,Milwaukee County,WI,NA,13.580963435867673,NA
53223,Milwaukee County,WI,10.506798516687269,NA,NA
53225,Milwaukee County,WI,NA,26.58154381892049,49.56989247311828
53227,Milwaukee County,WI,NA,NA,41.39784946236559
53228,Milwaukee County,WI,NA,62.797446314567615,NA
53402,Racine County,WI,NA,0.7544979686593152,1.1827956989247312
53403,Racine County,WI,NA,64.77074869413813,NA
53406,Racine County,WI,NA,NA,29.354838709677416
53511,Rock County,WI,NA,73.01218804410911,NA
53533,Iowa County,WI,NA,NA,82.79569892473118
53546,Rock County,WI,NA,16.831108531630875,25.161290322580644
53548,Rock County,WI,NA,16.25072547881602,NA
53563,Rock County,WI,NA,61.05629715612304,83.11827956989248
53566,Green County,WI,NA,12.188044109112015,NA
53590,Dane County,WI,27.564894932014834,NA,NA
53704,Dane County,WI,NA,74.34706906558328,NA
53705,Dane County,WI,NA,95.64712710388856,NA
53718,Dane County,WI,NA,NA,75.05376344086021
53719,Dane County,WI,NA,NA,44.623655913978496
53913,Sauk County,WI,NA,10.73708647707487,NA
54022,Pierce County,WI,NA,NA,60.537634408602145
54139,Oconto County,WI,NA,87.57980266976205,NA
54166,Shawano County,WI,77.25587144622992,NA,NA
54235,Door County,WI,NA,15.612304120719674,NA
54302,Brown County,WI,NA,NA,41.29032258064516
54304,Brown County,WI,68.35599505562423,NA,NA
54313,Brown County,WI,45.48825710754018,NA,NA
54401,Marathon County,WI,NA,NA,67.84946236559139
54409,Langlade County,WI,NA,44.57341845618108,NA
54426,Marathon County,WI,NA,98.25885084155543,NA
54448,Marathon County,WI,NA,98.14277423099246,NA
54457,Wood County,WI,NA,NA,51.50537634408602
54494,Wood County,WI,NA,83.69123621590249,NA
54552,Price County,WI,NA,NA,60.10752688172043
54555,Price County,WI,NA,NA,64.51612903225806
54650,La Crosse County,WI,NA,NA,2.903225806451613
54660,Monroe County,WI,NA,NA,74.51612903225806
54701,Eau Claire County,WI,31.396786155747836,14.509576320371446,25.913978494623656
54724,Chippewa County,WI,NA,NA,71.93548387096774
54729,Chippewa County,WI,NA,13.639001741149158,NA
54868,Barron County,WI,50.30902348578492,NA,NA
54880,Douglas County,WI,74.28924598269468,NA,NA
54901,Winnebago County,WI,18.788627935723117,NA,NA
54914,Outagamie County,WI,15.451174289245984,69.8200812536274,NA
54923,Green Lake County,WI,79.11001236093944,NA,NA
54935,Fond du Lac County,WI,NA,34.93905977945444,39.247311827956985
54937,Fond du Lac County,WI,NA,78.81601857225769,NA
54940,Waupaca County,WI,NA,100,NA
54944,Outagamie County,WI,NA,NA,90.53763440860216
54952,Winnebago County,WI,82.44746600741657,NA,NA
54956,Winnebago County,WI,17.676143386897404,84.56181079512479,NA
54971,Fond du Lac County,WI,73.053152039555,NA,NA
54986,Winnebago County,WI,NA,92.6871735345328,NA
82001,Laramie County,WY,NA,47.53337202553685,NA
82401,Washakie County,WY,78.49196538936958,NA,NA
82443,Hot Springs County,WY,95.42645241038319,NA,NA
82604,Natrona County,WY,66.99629171817058,NA,NA
82609,Natrona County,WY,71.32262051915946,NA,NA
82716,Campbell County,WY,NA,68.6012768427162,NA
82901,Sweetwater County,WY,94.43757725587145,NA,NA
