ZipCode,county,state,Adult,Retirement,Geriatric
35124,Shelby County,AL,NA,33.13609467455622,NA
35555,Fayette County,AL,NA,50.4930966469428,NA
35616,Colbert County,AL,NA,73.76725838264299,NA
35630,Lauderdale County,AL,NA,32.34714003944773,NA
35769,Jackson County,AL,77.25118483412322,NA,NA
36426,Escambia County,AL,46.76145339652449,NA,NA
36551,Baldwin County,AL,NA,78.50098619329388,NA
36869,Russell County,AL,45.33965244865718,NA,NA
99501,Anchorage Municipality,AK,NA,59.76331360946746,NA
99503,Anchorage Municipality,AK,80.56872037914692,NA,NA
99504,Anchorage Municipality,AK,93.68088467614534,NA,NA
99508,Anchorage Municipality,AK,70.14218009478674,97.63313609467455,NA
99517,Anchorage Municipality,AK,51.18483412322274,NA,NA
99518,Anchorage Municipality,AK,94.62875197472354,NA,NA
99577,Anchorage Municipality,AK,NA,99.21104536489152,NA
99645,Matanuska-Susitna Borough,AK,NA,57.1992110453649,NA
85015,Maricopa County,AZ,18.009478672985782,NA,NA
85023,Maricopa County,AZ,25.27646129541864,NA,NA
85122,Pinal County,AZ,NA,NA,23.17596566523605
85204,Maricopa County,AZ,NA,26.627218934911244,NA
85253,Maricopa County,AZ,95.41864139020537,NA,NA
85258,Maricopa County,AZ,NA,81.65680473372781,NA
85260,Maricopa County,AZ,NA,35.700197238658774,NA
85353,Maricopa County,AZ,30.647709320695103,NA,NA
85396,Maricopa County,AZ,70.30015797788309,NA,NA
85705,Pima County,AZ,18.48341232227488,NA,NA
85713,Pima County,AZ,6.31911532385466,NA,NA
85714,Pima County,AZ,53.712480252764614,NA,NA
85741,Pima County,AZ,NA,39.8422090729783,NA
85757,Pima County,AZ,NA,47.73175542406312,NA
86322,Yavapai County,AZ,44.23380726698262,NA,NA
86326,Yavapai County,AZ,NA,49.5069033530572,NA
86401,Mohave County,AZ,80.41074249605056,NA,NA
86409,Mohave County,AZ,8.214849921011059,3.5502958579881656,NA
71909,Garland County,AR,NA,57.59368836291914,9.012875536480687
72117,Pulaski County,AR,44.86571879936809,NA,NA
72758,Benton County,AR,48.49921011058452,NA,NA
72762,Washington County,AR,NA,51.87376725838264,NA
72958,Scott County,AR,59.71563981042654,NA,NA
90040,Los Angeles County,CA,80.72669826224329,NA,NA
90201,Los Angeles County,CA,NA,33.33333333333333,45.06437768240343
90241,Los Angeles County,CA,45.023696682464454,NA,NA
90280,Los Angeles County,CA,NA,NA,34.763948497854074
90503,Los Angeles County,CA,75.98736176935229,NA,NA
90603,Los Angeles County,CA,NA,NA,37.76824034334764
90604,Los Angeles County,CA,46.287519747235386,NA,NA
90712,Los Angeles County,CA,NA,43.98422090729783,NA
90808,Los Angeles County,CA,47.39336492890995,NA,NA
91701,San Bernardino County,CA,62.40126382306477,NA,NA
91710,San Bernardino County,CA,NA,16.962524654832347,NA
91786,San Bernardino County,CA,30.01579778830964,NA,NA
92065,San Diego County,CA,42.812006319115326,NA,NA
92211,Riverside County,CA,NA,9.072978303747535,NA
92316,San Bernardino County,CA,NA,68.44181459566076,NA
92345,San Bernardino County,CA,NA,NA,21.45922746781116
92373,San Bernardino County,CA,55.92417061611374,NA,NA
92399,San Bernardino County,CA,NA,18.93491124260355,NA
92407,San Bernardino County,CA,16.74565560821485,NA,NA
92505,Riverside County,CA,NA,44.37869822485207,NA
92506,Riverside County,CA,NA,38.06706114398422,NA
92629,Orange County,CA,61.92733017377567,NA,NA
92708,Orange County,CA,69.03633491311216,NA,NA
92833,Orange County,CA,NA,28.79684418145957,NA
92870,Orange County,CA,NA,21.696252465483234,NA
93030,Ventura County,CA,NA,NA,54.93562231759657
93033,Ventura County,CA,10.268562401263823,63.116370808678504,NA
93036,Ventura County,CA,51.342812006319114,NA,NA
93041,Ventura County,CA,95.57661927330173,NA,NA
93274,Tulare County,CA,NA,16.765285996055226,NA
93291,Tulare County,CA,58.60979462875198,NA,NA
93304,Kern County,CA,22.748815165876778,NA,NA
93402,San Luis Obispo County,CA,88.78357030015798,67.25838264299803,NA
93405,San Luis Obispo County,CA,60.505529225908376,NA,NA
93433,San Luis Obispo County,CA,NA,97.2386587771203,NA
93460,Santa Barbara County,CA,100,NA,NA
94117,San Francisco County,CA,NA,90.3353057199211,NA
94123,San Francisco County,CA,NA,NA,72.53218884120172
94509,Contra Costa County,CA,NA,NA,13.733905579399142
94583,Contra Costa County,CA,NA,91.51873767258382,NA
95020,Santa Clara County,CA,53.23854660347551,NA,NA
95035,Santa Clara County,CA,75.67140600315956,NA,NA
95120,Santa Clara County,CA,NA,44.57593688362919,NA
95336,San Joaquin County,CA,NA,NA,21.030042918454935
95350,Stanislaus County,CA,17.69352290679305,NA,NA
95354,Stanislaus County,CA,30.963665086887836,NA,NA
95363,Stanislaus County,CA,49.92101105845181,NA,NA
95437,Mendocino County,CA,NA,37.278106508875744,NA
95519,Humboldt County,CA,78.51500789889415,NA,NA
95608,Sacramento County,CA,NA,NA,6.437768240343347
95648,Placer County,CA,NA,NA,6.866952789699571
95660,Sacramento County,CA,NA,49.90138067061144,NA
95666,Amador County,CA,NA,72.58382642998028,NA
95823,Sacramento County,CA,10.90047393364929,NA,NA
95841,Sacramento County,CA,69.66824644549763,NA,NA
95959,Nevada County,CA,NA,NA,50.64377682403433
95965,Butte County,CA,17.377567140600316,NA,NA
96067,Siskiyou County,CA,88.94154818325435,NA,NA
80010,Arapahoe County,CO,54.818325434439174,NA,NA
80020,Broomfield County,CO,NA,78.10650887573965,NA
80022,Adams County,CO,69.51026856240127,NA,NA
80027,Boulder County,CO,NA,NA,66.52360515021459
80207,Denver County,CO,38.2306477093207,NA,NA
80210,Denver County,CO,45.33965244865718,NA,NA
80230,Denver County,CO,81.20063191153238,NA,NA
80233,Adams County,CO,NA,79.28994082840237,NA
80241,Adams County,CO,45.65560821484992,NA,NA
80526,Larimer County,CO,NA,NA,30.472103004291846
80538,Larimer County,CO,NA,8.086785009861932,NA
80631,Weld County,CO,8.372827804107425,NA,NA
80634,Weld County,CO,73.77567140600317,NA,NA
80817,El Paso County,CO,89.25750394944708,NA,NA
80909,El Paso County,CO,23.22274881516588,NA,NA
81004,Pueblo County,CO,NA,28.59960552268245,NA
81007,Pueblo County,CO,NA,37.47534516765286,NA
81504,Mesa County,CO,28.278041074249604,NA,NA
81601,Garfield County,CO,NA,85.60157790927022,NA
81625,Moffat County,CO,35.70300157977883,NA,NA
06010,Hartford County,CT,NA,18.14595660749507,NA
06110,Hartford County,CT,NA,77.12031558185404,NA
06255,Windham County,CT,NA,80.27613412228797,NA
06401,New Haven County,CT,28.436018957345972,NA,NA
06492,New Haven County,CT,20.063191153238545,NA,NA
06512,New Haven County,CT,21.642969984202214,NA,NA
06610,Fairfield County,CT,24.960505529225905,NA,NA
19709,New Castle County,DE,19.589257503949447,NA,NA
19804,New Castle County,DE,26.38230647709321,NA,NA
19808,New Castle County,DE,NA,20.710059171597635,NA
19904,Kent County,DE,12.164296998420221,NA,NA
32097,Nassau County,FL,NA,71.59763313609467,NA
32210,Duval County,FL,3.7914691943127963,NA,NA
32217,Duval County,FL,NA,40.63116370808679,NA
32224,Duval County,FL,NA,90.53254437869822,NA
32226,Duval County,FL,NA,47.928994082840234,NA
32250,Duval County,FL,NA,NA,24.463519313304722
32464,Holmes County,FL,82.46445497630332,NA,NA
32526,Escambia County,FL,NA,9.270216962524655,NA
32656,Clay County,FL,NA,NA,51.50214592274678
32707,Seminole County,FL,NA,51.08481262327417,NA
33312,Broward County,FL,32.069510268562404,NA,NA
33408,Palm Beach County,FL,NA,NA,33.047210300429185
33841,Polk County,FL,NA,80.6706114398422,NA
33898,Polk County,FL,NA,58.57988165680473,NA
33908,Lee County,FL,NA,5.128205128205128,NA
33912,Lee County,FL,70.93206951026856,NA,NA
33935,Hendry County,FL,NA,NA,87.98283261802575
34240,Sarasota County,FL,NA,88.3629191321499,NA
34953,St. Lucie County,FL,5.371248025276461,NA,NA
34996,Martin County,FL,NA,56.01577909270217,NA
30013,Rockdale County,GA,40.44233807266983,NA,NA
30043,Gwinnett County,GA,60.03159557661928,NA,NA
30052,Walton County,GA,NA,51.87376725838264,NA
30215,Fayette County,GA,49.92101105845181,NA,NA
30248,Henry County,GA,NA,NA,60.08583690987125
30252,Henry County,GA,35.07109004739337,NA,NA
30290,Fayette County,GA,99.21011058451816,NA,NA
30512,Union County,GA,NA,43.58974358974359,NA
30519,Gwinnett County,GA,NA,30.17751479289941,NA
30705,Murray County,GA,27.17219589257504,NA,NA
31312,Effingham County,GA,66.0347551342812,NA,NA
31605,Lowndes County,GA,NA,66.07495069033531,NA
31639,Berrien County,GA,65.71879936808847,NA,NA
31904,Muscogee County,GA,84.51816745655609,NA,11.158798283261802
31907,Muscogee County,GA,NA,39.447731755424066,NA
96797,Honolulu County,HI,7.898894154818326,6.31163708086785,NA
96816,Honolulu County,HI,84.99210110584518,NA,NA
96825,Honolulu County,HI,NA,NA,22.746781115879827
83401,Bonneville County,ID,NA,NA,40.343347639484975
83406,Bonneville County,ID,NA,61.34122287968442,NA
83445,Fremont County,ID,NA,86.98224852071006,NA
83607,Canyon County,ID,NA,29.585798816568047,NA
83616,Ada County,ID,NA,10.256410256410255,NA
83642,Ada County,ID,42.49605055292259,NA,NA
83651,Canyon County,ID,16.27172195892575,11.242603550295858,NA
83686,Canyon County,ID,NA,42.60355029585799,2.575107296137339
83703,Ada County,ID,NA,84.41814595660749,NA
83704,Ada County,ID,NA,2.564102564102564,NA
83705,Ada County,ID,96.6824644549763,NA,NA
60005,Cook County,IL,NA,NA,24.892703862660944
60025,Cook County,IL,38.54660347551343,NA,NA
60047,Lake County,IL,NA,21.301775147928996,NA
60053,Cook County,IL,64.45497630331754,NA,NA
60073,Lake County,IL,52.76461295418642,NA,NA
60107,Cook County,IL,43.75987361769352,NA,NA
60124,Kane County,IL,NA,27.021696252465482,NA
60140,Kane County,IL,NA,58.18540433925049,NA
60148,DuPage County,IL,NA,5.719921104536489,NA
60187,DuPage County,IL,57.030015797788316,NA,NA
60441,Will County,IL,21.484992101105846,NA,33.047210300429185
60451,Will County,IL,NA,14.398422090729785,NA
60478,Cook County,IL,NA,NA,39.91416309012876
60543,Kendall County,IL,NA,41.61735700197239,NA
60565,DuPage County,IL,29.067930489731435,NA,NA
60614,Cook County,IL,20.85308056872038,NA,NA
60625,Cook County,IL,NA,42.40631163708087,NA
60647,Cook County,IL,7.109004739336493,NA,NA
61455,McDonough County,IL,71.87993680884675,NA,NA
61554,Tazewell County,IL,NA,11.045364891518737,NA
61603,Peoria County,IL,54.02843601895735,NA,NA
61611,Tazewell County,IL,NA,37.67258382642998,NA
61761,McLean County,IL,NA,37.08086785009862,NA
61822,Champaign County,IL,90.52132701421802,NA,NA
61832,Vermilion County,IL,9.004739336492891,NA,NA
61853,Champaign County,IL,NA,NA,25.321888412017167
62454,Crawford County,IL,NA,63.31360946745562,NA
62650,Morgan County,IL,NA,30.96646942800789,NA
46013,Madison County,IN,31.753554502369667,NA,NA
46173,Rush County,IN,47.077409162717224,NA,NA
46219,Marion County,IN,NA,17.159763313609467,NA
46234,Marion County,IN,92.73301737756714,NA,NA
46235,Marion County,IN,NA,58.777120315581854,NA
46307,Lake County,IN,NA,NA,1.7167381974248928
46321,Lake County,IN,32.38546603475513,NA,NA
46322,Lake County,IN,NA,22.485207100591715,NA
46323,Lake County,IN,NA,15.779092702169626,NA
46373,Lake County,IN,NA,33.53057199211045,NA
46375,Lake County,IN,NA,14.990138067061142,NA
46410,Lake County,IN,6.6350710900473935,NA,NA
47265,Jennings County,IN,22.274881516587676,NA,NA
47304,Delaware County,IN,66.5086887835703,NA,NA
50036,Boone County,IA,NA,NA,20.171673819742487
50265,Polk County,IA,85.15007898894154,NA,NA
50309,Polk County,IA,48.34123222748815,NA,NA
50401,Cerro Gordo County,IA,36.65086887835703,NA,NA
50701,Black Hawk County,IA,NA,NA,41.201716738197426
51537,Shelby County,IA,NA,NA,38.62660944206009
52577,Mahaska County,IA,NA,NA,19.313304721030043
52722,Scott County,IA,NA,75.7396449704142,NA
52748,Scott County,IA,72.1958925750395,NA,NA
52753,Scott County,IA,88.30963665086888,NA,NA
52756,Scott County,IA,99.36808846761454,NA,NA
52803,Scott County,IA,32.859399684044234,NA,NA
52804,Scott County,IA,53.55450236966824,NA,NA
66025,Douglas County,KS,NA,86.78500986193293,NA
66208,Johnson County,KS,NA,43.786982248520715,NA
66209,Johnson County,KS,NA,NA,26.609442060085836
67207,Sedgwick County,KS,NA,68.83629191321499,NA
67871,Scott County,KS,52.60663507109005,NA,NA
40078,Washington County,KY,96.2085308056872,NA,NA
40228,Jefferson County,KY,NA,56.60749506903353,NA
40324,Scott County,KY,37.598736176935226,NA,NA
40351,Rowan County,KY,20.537124802527646,NA,NA
40356,Jessamine County,KY,NA,21.893491124260358,NA
40422,Boyle County,KY,74.40758293838863,NA,NA
40484,Lincoln County,KY,84.04423380726699,NA,NA
40489,Lincoln County,KY,95.89257503949446,NA,NA
40505,Fayette County,KY,NA,NA,46.78111587982833
40511,Fayette County,KY,34.913112164297,NA,NA
40515,Fayette County,KY,43.127962085308056,NA,NA
41139,Greenup County,KY,NA,48.91518737672584,NA
41143,Carter County,KY,NA,43.39250493096647,NA
41501,Pike County,KY,10.110584518167457,84.02366863905326,NA
41514,Pike County,KY,80.25276461295418,NA,NA
42256,Logan County,KY,71.56398104265402,NA,NA
42276,Logan County,KY,NA,50.69033530571993,NA
42701,Hardin County,KY,NA,52.85996055226825,NA
42718,Taylor County,KY,NA,NA,7.296137339055794
70053,Jefferson Parish,LA,NA,51.4792899408284,NA
70131,Orleans Parish,LA,NA,NA,39.05579399141631
70403,Tangipahoa Parish,LA,NA,28.402366863905325,NA
70433,St. Tammany Parish,LA,77.40916271721959,NA,NA
70544,Iberia Parish,LA,NA,63.70808678500987,NA
70586,Evangeline Parish,LA,NA,34.51676528599605,NA
70706,Livingston Parish,LA,52.44865718799369,NA,NA
70769,Ascension Parish,LA,NA,35.108481262327416,NA
70791,East Baton Rouge Parish,LA,NA,27.613412228796847,NA
70808,East Baton Rouge Parish,LA,39.178515007898895,NA,NA
71295,Franklin Parish,LA,NA,NA,65.66523605150213
03901,York County,ME,92.10110584518168,NA,NA
03904,York County,ME,NA,47.53451676528599,NA
03908,York County,ME,82.62243285939968,NA,NA
03909,York County,ME,96.84044233807268,NA,91.84549356223177
04002,York County,ME,63.6650868878357,76.72583826429981,NA
04005,York County,ME,83.88625592417061,4.733727810650888,81.11587982832617
04009,Cumberland County,ME,85.78199052132702,91.91321499013807,NA
04011,Cumberland County,ME,89.0995260663507,NA,43.776824034334766
04021,Cumberland County,ME,NA,NA,66.95278969957081
04038,Cumberland County,ME,82.93838862559242,NA,NA
04043,York County,ME,51.65876777251185,98.81656804733728,54.077253218884124
04046,York County,ME,91.4691943127962,81.85404339250493,58.798283261802574
04062,Cumberland County,ME,NA,42.01183431952663,NA
04064,York County,ME,62.24328593996841,38.65877712031558,NA
04071,Cumberland County,ME,87.99368088467614,NA,NA
04072,York County,ME,35.229067930489734,80.86785009861933,28.32618025751073
04073,York County,ME,NA,70.61143984220908,NA
04074,Cumberland County,ME,NA,87.17948717948718,NA
04079,Cumberland County,ME,99.0521327014218,77.7120315581854,NA
04083,York County,ME,83.41232227488152,NA,NA
04086,Sagadahoc County,ME,64.92890995260665,92.3076923076923,NA
04090,York County,ME,72.03791469194313,56.213017751479285,NA
04092,Cumberland County,ME,81.99052132701422,NA,NA
04096,Cumberland County,ME,89.57345971563981,75.34516765285996,NA
04101,Cumberland County,ME,32.70142180094787,NA,42.06008583690987
04103,Cumberland County,ME,20.221169036334913,48.717948717948715,10.72961373390558
04106,Cumberland County,ME,32.22748815165877,59.171597633136095,NA
04210,Androscoggin County,ME,18.167456556082147,NA,NA
04222,Androscoggin County,ME,98.42022116903634,NA,NA
04239,Franklin County,ME,NA,70.80867850098619,NA
04240,Androscoggin County,ME,56.39810426540285,17.554240631163708,NA
04270,Oxford County,ME,NA,78.89546351084813,64.37768240343348
04330,Kennebec County,ME,89.25750394944708,86.58777120315581,79.82832618025752
04350,Kennebec County,ME,NA,96.25246548323472,NA
04401,Penobscot County,ME,65.40284360189574,71.20315581854044,44.63519313304721
04412,Penobscot County,ME,73.1437598736177,NA,NA
04426,Piscataquis County,ME,91.15323854660348,NA,NA
04429,Penobscot County,ME,NA,89.74358974358975,NA
04444,Penobscot County,ME,NA,90.13806706114399,NA
04530,Sagadahoc County,ME,NA,40.828402366863905,49.78540772532189
04605,Hancock County,ME,NA,51.28205128205128,63.94849785407726
04742,Aroostook County,ME,81.51658767772511,57.001972386587774,51.072961373390555
04769,Aroostook County,ME,NA,NA,12.875536480686694
04856,Knox County,ME,NA,NA,85.83690987124464
04901,Kennebec County,ME,4.739336492890995,22.090729783037474,3.862660944206009
04917,Kennebec County,ME,98.73617693522907,78.30374753451676,NA
04937,Somerset County,ME,NA,54.437869822485204,94.84978540772532
04963,Kennebec County,ME,49.28909952606635,NA,NA
04976,Somerset County,ME,15.323854660347552,NA,NA
21117,Baltimore County,MD,NA,24.06311637080868,NA
21613,Dorchester County,MD,57.187993680884674,NA,NA
21722,Washington County,MD,93.04897314375987,NA,NA
21801,Wicomico County,MD,NA,72.97830374753451,NA
21811,Worcester County,MD,NA,NA,17.167381974248926
01020,Hampden County,MA,19.431279620853083,NA,NA
01040,Hampden County,MA,0,NA,NA
01151,Hampden County,MA,NA,85.4043392504931,NA
01201,Berkshire County,MA,19.90521327014218,71.40039447731755,22.317596566523605
01238,Berkshire County,MA,NA,57.396449704142015,68.6695278969957
01247,Berkshire County,MA,NA,9.664694280078894,18.4549356223176
01267,Berkshire County,MA,NA,59.96055226824457,NA
01301,Franklin County,MA,NA,72.7810650887574,NA
01364,Franklin County,MA,41.39020537124802,NA,NA
01420,Worcester County,MA,47.867298578199055,NA,NA
01452,Worcester County,MA,NA,99.80276134122288,NA
01520,Worcester County,MA,NA,44.18145956607495,NA
01529,Worcester County,MA,96.52448657187995,NA,NA
01535,Worcester County,MA,NA,97.43589743589743,NA
01562,Worcester County,MA,25.75039494470774,NA,NA
01568,Worcester County,MA,58.767772511848335,NA,NA
01588,Worcester County,MA,NA,35.8974358974359,NA
01746,Middlesex County,MA,86.57187993680886,NA,NA
01757,Worcester County,MA,75.19747235387045,NA,NA
01760,Middlesex County,MA,91.78515007898895,NA,NA
01778,Middlesex County,MA,NA,88.56015779092702,NA
01821,Middlesex County,MA,4.581358609794629,NA,NA
01826,Middlesex County,MA,36.334913112164294,NA,NA
01830,Essex County,MA,NA,7.100591715976331,NA
01834,Essex County,MA,90.99526066350711,NA,NA
01835,Essex County,MA,29.85781990521327,NA,NA
01867,Middlesex County,MA,NA,9.664694280078894,NA
01960,Essex County,MA,NA,0.19723865877712032,NA
02019,Norfolk County,MA,33.4913112164297,NA,95.708154506437765
02026,Norfolk County,MA,NA,NA,9.44206008583691
02053,Norfolk County,MA,42.18009478672986,NA,NA
02081,Norfolk County,MA,68.24644549763033,NA,NA
02119,Suffolk County,MA,0.1579778830963665,NA,NA
02125,Suffolk County,MA,0.7898894154818324,NA,NA
02132,Suffolk County,MA,NA,0.591715976331361,NA
02134,Suffolk County,MA,10.42654028436019,NA,NA
02143,Middlesex County,MA,NA,NA,14.592274678111588
02149,Middlesex County,MA,7.740916271721959,NA,NA
02155,Middlesex County,MA,NA,NA,69.09871244635193
02176,Middlesex County,MA,6.79304897314376,NA,NA
02360,Plymouth County,MA,15.797788309636651,NA,NA
02370,Plymouth County,MA,13.58609794628752,NA,NA
02446,Norfolk County,MA,71.09004739336493,NA,NA
02472,Middlesex County,MA,42.812006319115326,NA,NA
02556,Barnstable County,MA,96.36650868878357,NA,NA
02631,Barnstable County,MA,NA,41.222879684418146,NA
02675,Barnstable County,MA,NA,81.06508875739645,NA
02721,Bristol County,MA,0.9478672985781991,NA,NA
02723,Bristol County,MA,NA,42.209072978303745,NA
02724,Bristol County,MA,3.15955766192733,55.22682445759369,4.291845493562231
02770,Plymouth County,MA,85.30805687203792,NA,NA
02780,Bristol County,MA,0.47393364928909953,NA,NA
48001,St. Clair County,MI,55.76619273301737,NA,NA
48005,Macomb County,MI,NA,96.05522682445759,NA
48009,Oakland County,MI,NA,83.82642998027613,NA
48023,St. Clair County,MI,81.67456556082149,NA,90.55793991416309
48026,Macomb County,MI,NA,74.35897435897436,NA
48035,Macomb County,MI,54.976303317535546,52.26824457593688,NA
48036,Macomb County,MI,NA,25.83826429980276,NA
48038,Macomb County,MI,60.66350710900474,4.536489151873767,3.4334763948497855
48039,St. Clair County,MI,84.83412322274881,NA,NA
48042,Macomb County,MI,20.69510268562401,NA,NA
48043,Macomb County,MI,91.62717219589257,81.4595660749507,52.36051502145923
48044,Macomb County,MI,7.5829383886255926,NA,NA
48045,Macomb County,MI,61.61137440758294,14.595660749506903,32.61802575107296
48047,Macomb County,MI,12.954186413902052,13.609467455621301,NA
48048,Macomb County,MI,NA,89.15187376725838,88.41201716738198
48051,Macomb County,MI,47.23538704581359,33.92504930966469,NA
48062,Macomb County,MI,69.66824644549763,NA,NA
48065,Macomb County,MI,63.82306477093207,NA,NA
48066,Macomb County,MI,2.3696682464454977,7.6923076923076925,31.330472103004293
48067,Oakland County,MI,NA,74.7534516765286,NA
48081,Macomb County,MI,NA,51.67652859960552,NA
48083,Oakland County,MI,NA,NA,29.613733905579398
48085,Oakland County,MI,28.436018957345972,NA,NA
48089,Macomb County,MI,7.424960505529225,NA,39.48497854077253
48091,Macomb County,MI,5.845181674565561,NA,NA
48092,Macomb County,MI,27.488151658767773,20.118343195266274,NA
48094,Macomb County,MI,43.91785150078989,NA,NA
48096,Macomb County,MI,96.99842022116904,NA,NA
48104,Washtenaw County,MI,64.29699842022117,NA,NA
48134,Wayne County,MI,25.59241706161137,NA,NA
48144,Monroe County,MI,94.7867298578199,NA,NA
48165,Oakland County,MI,NA,94.47731755424064,NA
48167,Oakland County,MI,NA,25.04930966469428,NA
48170,Wayne County,MI,NA,2.1696252465483234,NA
48178,Oakland County,MI,NA,12.22879684418146,NA
48182,Monroe County,MI,NA,94.28007889546352,NA
48183,Wayne County,MI,NA,6.11439842209073,NA
48184,Wayne County,MI,NA,22.287968441814595,NA
48186,Wayne County,MI,NA,38.8560157790927,NA
48187,Wayne County,MI,NA,1.7751479289940828,NA
48193,Wayne County,MI,NA,52.46548323471401,NA
48197,Washtenaw County,MI,NA,0.7889546351084813,NA
48204,Wayne County,MI,NA,70.01972386587771,NA
48205,Wayne County,MI,NA,13.806706114398423,NA
48212,Wayne County,MI,NA,12.03155818540434,NA
48213,Wayne County,MI,9.47867298578199,NA,NA
48215,Wayne County,MI,33.80726698262243,NA,NA
48221,Wayne County,MI,4.897314375987362,NA,NA
48234,Wayne County,MI,NA,NA,50.21459227467812
48240,Wayne County,MI,19.273301737756714,NA,NA
48306,Oakland County,MI,NA,21.104536489151872,NA
48309,Oakland County,MI,31.27962085308057,NA,NA
48312,Macomb County,MI,23.538704581358612,NA,NA
48313,Macomb County,MI,NA,20.907297830374755,NA
48314,Macomb County,MI,71.24802527646129,NA,NA
48316,Macomb County,MI,35.8609794628752,39.25049309664694,NA
48317,Macomb County,MI,NA,62.91913214990138,NA
48323,Oakland County,MI,97.6303317535545,NA,NA
48326,Oakland County,MI,NA,NA,76.39484978540773
48328,Oakland County,MI,NA,NA,72.96137339055794
48329,Oakland County,MI,NA,19.32938856015779,NA
48340,Oakland County,MI,83.72827804107425,58.97435897435898,30.042918454935624
48341,Oakland County,MI,27.33017377567141,NA,NA
48342,Oakland County,MI,14.06003159557662,59.56607495069034,NA
48346,Oakland County,MI,NA,NA,36.48068669527897
48350,Oakland County,MI,83.25434439178515,NA,NA
48367,Oakland County,MI,NA,99.21104536489152,NA
48420,Genesee County,MI,40.91627172195892,NA,NA
48423,Genesee County,MI,NA,19.92110453648915,NA
48430,Genesee County,MI,23.696682464454977,NA,NA
48439,Genesee County,MI,11.216429699842022,NA,NA
48450,Sanilac County,MI,88.62559241706161,NA,NA
48506,Genesee County,MI,NA,34.9112426035503,NA
48507,Genesee County,MI,8.846761453396525,29.388560157790927,NA
48529,Genesee County,MI,79.93680884676145,NA,NA
48616,Saginaw County,MI,45.813586097946285,NA,NA
48631,Bay County,MI,NA,65.87771203155819,NA
48708,Bay County,MI,NA,7.297830374753452,NA
48730,Iosco County,MI,87.83570300157977,NA,NA
48732,Bay County,MI,44.70774091627172,NA,NA
48813,Eaton County,MI,NA,15.581854043392504,NA
48820,Clinton County,MI,56.08214849921011,NA,43.34763948497854
48823,Ingham County,MI,31.595576619273302,NA,NA
48827,Eaton County,MI,NA,30.37475345167653,70.3862660944206
48831,Clinton County,MI,92.89099526066352,NA,NA
48840,Ingham County,MI,NA,NA,85.40772532188842
48842,Ingham County,MI,34.4391785150079,NA,84.12017167381974
48854,Ingham County,MI,43.28593996840443,NA,51.931330472103
48858,Isabella County,MI,5.529225908372828,NA,NA
48864,Ingham County,MI,77.88309636650868,NA,NA
48875,Ionia County,MI,65.87677725118483,63.510848126232744,NA
48879,Clinton County,MI,NA,74.95069033530572,NA
48888,Montcalm County,MI,NA,96.84418145956607,NA
48895,Ingham County,MI,NA,NA,87.55364806866953
48906,Ingham County,MI,37.124802527646125,NA,NA
48910,Ingham County,MI,9.95260663507109,12.42603550295858,59.227467811158796
48911,Ingham County,MI,6.003159557661927,14.201183431952662,NA
48912,Ingham County,MI,NA,NA,83.69098712446352
49001,Kalamazoo County,MI,19.747235387045812,NA,NA
49008,Kalamazoo County,MI,NA,NA,71.24463519313305
49009,Kalamazoo County,MI,10.742496050552923,NA,NA
49036,Branch County,MI,NA,85.79881656804734,NA
49037,Calhoun County,MI,NA,NA,96.56652360515021
49055,Van Buren County,MI,NA,62.52465483234714,NA
49080,Allegan County,MI,NA,63.905325443786985,NA
49083,Kalamazoo County,MI,NA,55.62130177514793,NA
49093,St. Joseph County,MI,NA,NA,28.75536480686695
49201,Jackson County,MI,NA,4.142011834319527,NA
49202,Jackson County,MI,NA,29.191321499013807,NA
49315,Kent County,MI,NA,NA,34.33476394849785
49316,Kent County,MI,NA,NA,48.068669527896994
49319,Kent County,MI,27.014218009478675,97.0414201183432,NA
49333,Barry County,MI,54.976303317535546,NA,NA
49341,Kent County,MI,85.93996840442338,NA,NA
49348,Allegan County,MI,30.33175355450237,NA,NA
49404,Ottawa County,MI,97.78830963665087,NA,NA
49412,Newaygo County,MI,52.13270142180095,NA,NA
49415,Muskegon County,MI,72.82780410742497,NA,73.8197424892704
49417,Ottawa County,MI,16.113744075829384,46.548323471400394,NA
49418,Kent County,MI,57.50394944707741,NA,NA
49419,Allegan County,MI,73.93364928909952,NA,NA
49424,Ottawa County,MI,14.375987361769353,NA,NA
49426,Ottawa County,MI,NA,34.12228796844182,NA
49441,Muskegon County,MI,NA,3.155818540433925,NA
49442,Muskegon County,MI,2.527646129541864,60.552268244575934,27.896995708154503
49444,Muskegon County,MI,8.688783570300158,19.13214990138067,47.63948497854077
49456,Ottawa County,MI,62.08530805687204,NA,NA
49457,Muskegon County,MI,NA,61.1439842209073,NA
49460,Ottawa County,MI,NA,NA,78.11158798283262
49461,Muskegon County,MI,NA,NA,73.39055793991416
49504,Kent County,MI,39.494470774091624,NA,NA
49507,Kent County,MI,NA,NA,37.33905579399141
49508,Kent County,MI,24.01263823064771,NA,NA
49548,Kent County,MI,50.86887835703001,13.017751479289942,NA
49765,Presque Isle County,MI,NA,66.86390532544378,NA
49855,Marquette County,MI,13.744075829383887,NA,NA
49913,Houghton County,MI,NA,85.79881656804734,NA
55041,Wabasha County,MN,73.1437598736177,NA,NA
55068,Dakota County,MN,NA,91.3214990138067,NA
55105,Ramsey County,MN,98.89415481832543,NA,NA
55108,Ramsey County,MN,87.67772511848341,NA,NA
55112,Ramsey County,MN,59.71563981042654,NA,NA
55119,Ramsey County,MN,90.20537124802527,NA,NA
55317,Carver County,MN,65.086887835703,NA,NA
55337,Dakota County,MN,31.911532385466035,NA,NA
55343,Hennepin County,MN,83.09636650868877,NA,NA
55401,Hennepin County,MN,51.81674565560821,NA,NA
55403,Hennepin County,MN,45.97156398104265,NA,NA
55404,Hennepin County,MN,94.47077409162718,NA,NA
55406,Hennepin County,MN,NA,NA,95.27896995708154
55407,Hennepin County,MN,77.09320695102686,95.06903353057199,NA
55408,Hennepin County,MN,88.46761453396525,NA,NA
55412,Hennepin County,MN,8.530805687203792,NA,NA
55417,Hennepin County,MN,42.65402843601896,NA,NA
55421,Anoka County,MN,89.73143759873618,NA,NA
55423,Hennepin County,MN,NA,NA,87.1244635193133
55426,Hennepin County,MN,98.10426540284361,NA,NA
55429,Hennepin County,MN,78.35703001579779,NA,NA
55430,Hennepin County,MN,85.46603475513427,31.755424063116372,NA
55432,Anoka County,MN,21.80094786729858,NA,NA
55442,Hennepin County,MN,NA,94.67455621301775,NA
55444,Hennepin County,MN,NA,80.4733727810651,NA
55445,Hennepin County,MN,NA,100,NA
55447,Hennepin County,MN,NA,50.887573964497044,NA
55454,Hennepin County,MN,97.31437598736177,NA,NA
55720,Carlton County,MN,NA,NA,62.231759656652365
55744,Itasca County,MN,40.758293838862556,31.163708086785007,NA
55811,St. Louis County,MN,NA,NA,15.450643776824036
55947,Houston County,MN,68.08846761453397,49.5069033530572,NA
56001,Blue Earth County,MN,NA,NA,78.96995708154506
56031,Martin County,MN,NA,NA,7.725321888412018
56164,Pipestone County,MN,NA,NA,100
56229,Lyon County,MN,98.42022116903634,NA,NA
56345,Morrison County,MN,NA,34.714003944773175,NA
56401,Crow Wing County,MN,87.36176935229068,83.4319526627219,NA
56425,Crow Wing County,MN,NA,79.88165680473372,NA
56431,Aitkin County,MN,NA,86.3905325443787,NA
56472,Crow Wing County,MN,56.71406003159558,91.12426035502959,NA
56482,Wadena County,MN,NA,48.12623274161736,NA
56501,Becker County,MN,57.97788309636651,74.16173570019724,NA
56537,Otter Tail County,MN,NA,NA,1.2875536480686696
56560,Clay County,MN,1.579778830963665,3.353057199211045,61.37339055793991
56573,Otter Tail County,MN,86.41390205371248,NA,56.22317596566524
56701,Pennington County,MN,66.35071090047393,87.96844181459566,NA
56716,Polk County,MN,29.225908372827803,NA,NA
39120,Adams County,MS,60.18957345971564,NA,NA
39170,Hinds County,MS,84.20221169036336,NA,NA
39180,Warren County,MS,60.97946287519748,NA,NA
39218,Rankin County,MS,93.20695102685625,NA,NA
39401,Forrest County,MS,29.6998420221169,NA,NA
39437,Jones County,MS,49.447077409162716,NA,NA
63128,St. Louis County,MO,NA,20.315581854043394,NA
63146,St. Louis County,MO,NA,NA,5.579399141630901
63304,St. Charles County,MO,NA,13.41222879684418,NA
63368,St. Charles County,MO,37.44075829383886,NA,NA
63703,Cape Girardeau County,MO,NA,NA,89.27038626609442
63780,Scott County,MO,NA,NA,71.67381974248927
63901,Butler County,MO,12.63823064770932,NA,NA
64015,Jackson County,MO,11.532385466034755,NA,NA
64016,Jackson County,MO,NA,99.60552268244575,NA
64024,Clay County,MO,16.903633491311215,NA,NA
64050,Jackson County,MO,14.533965244865717,93.49112426035504,NA
64052,Jackson County,MO,55.60821484992101,NA,NA
64055,Jackson County,MO,28.751974723538705,NA,NA
64057,Jackson County,MO,94.94470774091627,43.19526627218935,NA
64060,Clay County,MO,NA,NA,90.12875536480686
64063,Jackson County,MO,58.13586097946287,NA,NA
64064,Jackson County,MO,NA,NA,97.85407725321889
64081,Jackson County,MO,40.28436018957346,NA,NA
64093,Johnson County,MO,32.5434439178515,NA,NA
64118,Clay County,MO,38.862559241706165,NA,NA
64119,Clay County,MO,72.66982622432859,NA,NA
64124,Jackson County,MO,78.19905213270142,NA,NA
64130,Jackson County,MO,48.81516587677725,NA,NA
64133,Jackson County,MO,82.78041074249604,NA,NA
64134,Jackson County,MO,49.60505529225908,NA,NA
64138,Jackson County,MO,58.451816745655606,83.03747534516765,NA
64429,Clinton County,MO,NA,45.956607495069036,NA
64801,Jasper County,MO,11.690363349131122,NA,NA
65078,Morgan County,MO,90.83728278041075,NA,NA
65203,Boone County,MO,78.67298578199052,10.453648915187378,NA
65270,Randolph County,MO,49.13112164296998,36.68639053254438,NA
65613,Polk County,MO,69.19431279620854,NA,NA
65656,Stone County,MO,NA,79.6844181459566,NA
65706,Webster County,MO,68.8783570300158,NA,NA
65738,Greene County,MO,NA,68.24457593688363,NA
65810,Greene County,MO,NA,55.02958579881657,NA
59102,Yellowstone County,MT,NA,62.327416173570015,NA
59457,Fergus County,MT,NA,NA,25.75107296137339
59901,Flathead County,MT,NA,NA,82.40343347639485
59917,Lincoln County,MT,NA,84.81262327416174,NA
68152,Douglas County,NE,95.73459715639811,NA,NA
68803,Hall County,NE,NA,45.75936883629191,NA
69101,Lincoln County,NE,NA,NA,55.793991416309005
89134,Clark County,NV,67.29857819905213,NA,NA
89460,Douglas County,NV,NA,41.81459566074951,NA
03051,Hillsborough County,NH,NA,16.56804733727811,NA
03055,Hillsborough County,NH,41.54818325434439,NA,NA
03102,Hillsborough County,NH,19.11532385466035,NA,NA
03104,Hillsborough County,NH,12.480252764612953,NA,NA
03246,Belknap County,NH,NA,29.980276134122285,NA
03253,Belknap County,NH,NA,NA,68.24034334763948
03458,Hillsborough County,NH,NA,90.92702169625247,35.1931330472103
03773,Sullivan County,NH,NA,57.98816568047337,NA
03824,Strafford County,NH,95.10268562401264,NA,NA
03842,Rockingham County,NH,NA,27.416173570019726,NA
03860,Carroll County,NH,99.84202211690362,95.66074950690336,52.78969957081545
03862,Rockingham County,NH,NA,93.88560157790927,NA
03867,Strafford County,NH,NA,54.043392504930964,NA
07011,Passaic County,NJ,NA,53.25443786982249,NA
07081,Union County,NJ,73.93364928909952,NA,NA
07306,Hudson County,NJ,NA,NA,90.98712446351931
07407,Bergen County,NJ,93.52290679304897,NA,NA
07424,Passaic County,NJ,34.59715639810427,NA,NA
07480,Passaic County,NJ,47.55134281200632,NA,NA
07677,Bergen County,NJ,96.99842022116904,NA,NA
07726,Monmouth County,NJ,27.804107424960506,NA,NA
07950,Morris County,NJ,NA,NA,42.91845493562232
07960,Morris County,NJ,18.325434439178515,NA,NA
08003,Camden County,NJ,NA,NA,18.025751072961373
08005,Ocean County,NJ,17.851500789889414,NA,NA
08104,Camden County,NJ,1.1058451816745656,NA,NA
08401,Atlantic County,NJ,0.631911532385466,NA,NA
08722,Ocean County,NJ,44.07582938388626,NA,NA
87105,Bernalillo County,NM,3.6334913112164293,NA,NA
87112,Bernalillo County,NM,13.112164296998422,NA,NA
87508,Santa Fe County,NM,NA,45.16765285996055,NA
10021,New York County,NY,NA,NA,15.021459227467812
10036,New York County,NY,34.28120063191153,NA,NA
10040,New York County,NY,NA,46.942800788954635,NA
10453,Bronx County,NY,25.118483412322274,7.495069033530571,NA
10455,Bronx County,NY,NA,36.09467455621302,NA
10456,Bronx County,NY,NA,0,NA
10457,Bronx County,NY,48.02527646129542,41.42011834319527,NA
10458,Bronx County,NY,4.107424960505529,39.64497041420118,NA
10459,Bronx County,NY,NA,8.678500986193294,NA
10463,Bronx County,NY,NA,67.65285996055226,NA
10468,Bronx County,NY,NA,15.976331360946746,NA
10469,Bronx County,NY,64.77093206951027,NA,NA
10473,Bronx County,NY,NA,6.508875739644971,NA
11004,Queens County,NY,NA,76.92307692307693,NA
11205,Kings County,NY,11.058451816745656,NA,NA
11211,Kings County,NY,NA,17.159763313609467,NA
11220,Kings County,NY,NA,25.443786982248522,NA
11365,Queens County,NY,NA,NA,57.08154506437768
11413,Queens County,NY,NA,36.489151873767256,NA
11590,Nassau County,NY,NA,95.26627218934911,NA
11691,Queens County,NY,30.48973143759874,32.149901380670606,NA
11692,Queens County,NY,43.44391785150079,NA,NA
11694,Queens County,NY,NA,71.00591715976331,NA
11709,Nassau County,NY,NA,NA,98.28326180257511
11753,Nassau County,NY,NA,NA,94.4206008583691
11767,Suffolk County,NY,NA,95.85798816568047,NA
11768,Suffolk County,NY,NA,NA,80.25751072961373
11772,Suffolk County,NY,NA,23.86587771203156,NA
11901,Suffolk County,NY,NA,NA,97.42489270386267
11933,Suffolk County,NY,NA,NA,58.36909871244635
11935,Suffolk County,NY,NA,NA,81.97424892703863
11937,Suffolk County,NY,NA,77.31755424063115,NA
11940,Suffolk County,NY,NA,98.0276134122288,84.97854077253218
11949,Suffolk County,NY,78.04107424960506,NA,NA
11951,Suffolk County,NY,NA,NA,86.69527896995707
11952,Suffolk County,NY,NA,92.70216962524654,NA
12020,Saratoga County,NY,18.64139020537125,NA,NA
12144,Rensselaer County,NY,NA,64.1025641025641,NA
12186,Albany County,NY,98.26224328593996,NA,NA
12832,Washington County,NY,NA,73.37278106508876,65.23605150214593
12866,Saratoga County,NY,NA,10.059171597633137,NA
12901,Clinton County,NY,2.0537124802527646,26.82445759368836,NA
12916,Franklin County,NY,NA,95.46351084812623,NA
12926,Franklin County,NY,NA,88.95463510848126,NA
12946,Essex County,NY,NA,49.30966469428008,NA
13027,Onondaga County,NY,12.322274881516588,NA,NA
13040,Cortland County,NY,76.14533965244867,NA,NA
13045,Cortland County,NY,3.4755134281200633,NA,NA
13069,Oswego County,NY,38.704581358609794,NA,NA
13074,Oswego County,NY,66.66666666666666,NA,NA
13159,Onondaga County,NY,72.98578199052133,NA,NA
13326,Otsego County,NY,NA,NA,27.038626609442062
13340,Herkimer County,NY,NA,58.38264299802761,NA
13348,Otsego County,NY,87.20379146919431,NA,NA
13357,Herkimer County,NY,33.175355450236964,NA,NA
13413,Oneida County,NY,NA,28.205128205128204,NA
13439,Otsego County,NY,91.9431279620853,NA,NA
13613,St. Lawrence County,NY,NA,89.94082840236686,NA
13760,Broome County,NY,36.808846761453395,NA,0.4291845493562232
13778,Chenango County,NY,NA,NA,93.13304721030042
13790,Broome County,NY,NA,32.938856015779095,NA
13795,Broome County,NY,86.25592417061611,NA,NA
13820,Otsego County,NY,76.4612954186414,31.952662721893493,NA
13830,Chenango County,NY,73.61769352290679,NA,NA
13833,Broome County,NY,61.45339652448657,NA,NA
13850,Broome County,NY,14.84992101105845,23.274161735700197,NA
13901,Broome County,NY,18.95734597156398,99.0138067061144,NA
13905,Broome County,NY,1.4218009478672986,NA,NA
14005,Genesee County,NY,NA,94.87179487179486,NA
14020,Genesee County,NY,10.584518167456556,NA,21.888412017167383
14058,Genesee County,NY,74.88151658767772,NA,NA
14072,Erie County,NY,36.96682464454976,NA,NA
14075,Erie County,NY,53.08056872037915,NA,NA
14094,Niagara County,NY,12.796208530805686,54.63510848126233,NA
14108,Niagara County,NY,NA,69.42800788954635,NA
14120,Niagara County,NY,4.265402843601896,NA,NA
14136,Chautauqua County,NY,76.61927330173775,78.69822485207101,NA
14167,Wyoming County,NY,96.05055292259084,NA,NA
14210,Erie County,NY,NA,NA,67.38197424892704
14218,Erie County,NY,NA,36.883629191321496,NA
14220,Erie County,NY,NA,24.2603550295858,NA
14227,Erie County,NY,NA,24.45759368836292,NA
14304,Niagara County,NY,4.423380726698262,NA,9.871244635193133
14305,Niagara County,NY,5.213270142180095,31.558185404339252,NA
14420,Monroe County,NY,14.691943127962084,NA,NA
14424,Ontario County,NY,1.7377567140600316,NA,NA
14510,Livingston County,NY,NA,NA,69.52789699570815
14527,Yates County,NY,24.644549763033176,NA,NA
14569,Wyoming County,NY,52.922590837282776,NA,NA
14612,Monroe County,NY,28.12006319115324,NA,NA
14622,Monroe County,NY,22.59083728278041,NA,NA
14716,Chautauqua County,NY,NA,94.0828402366864,NA
14826,Steuben County,NY,93.8388625592417,NA,NA
14830,Steuben County,NY,22.432859399684045,NA,NA
14845,Chemung County,NY,15.481832543443918,NA,NA
14850,Tompkins County,NY,NA,5.325443786982249,NA
14886,Tompkins County,NY,51.026856240126385,54.83234714003945,NA
14891,Schuyler County,NY,60.34755134281201,NA,NA
27011,Yadkin County,NC,71.40600315955766,NA,NA
27052,Stokes County,NC,NA,NA,48.927038626609445
27055,Yadkin County,NC,82.14849921011059,NA,NA
27292,Davidson County,NC,20.379146919431278,NA,NA
27542,Johnston County,NC,NA,65.28599605522683,NA
27612,Wake County,NC,78.83096366508688,NA,NA
27617,Wake County,NC,NA,62.721893491124256,NA
28166,Iredell County,NC,65.5608214849921,NA,NA
28360,Robeson County,NC,65.24486571879937,NA,NA
28364,Robeson County,NC,39.02053712480253,NA,NA
28374,Moore County,NC,NA,69.23076923076923,NA
28409,New Hanover County,NC,35.229067930489734,NA,NA
28451,Brunswick County,NC,26.698262243285942,NA,NA
28645,Caldwell County,NC,3.3175355450236967,NA,NA
28711,Buncombe County,NC,73.45971563981043,NA,NA
28719,Jackson County,NC,63.191153238546605,NA,NA
28734,Macon County,NC,NA,7.889546351084813,NA
28777,Mitchell County,NC,NA,NA,59.65665236051502
28785,Haywood County,NC,NA,56.80473372781065,NA
58078,Cass County,ND,23.85466034755134,42.998027613412226,NA
58103,Cass County,ND,6.477093206951026,61.53846153846154,99.14163090128756
58104,Cass County,ND,91.31121642969984,75.14792899408283,NA
58701,Ward County,ND,NA,8.481262327416173,NA
43015,Delaware County,OH,13.902053712480253,NA,NA
43040,Union County,OH,NA,NA,20.600858369098713
43078,Champaign County,OH,NA,60.946745562130175,NA
43081,Franklin County,OH,20.85308056872038,NA,NA
43119,Franklin County,OH,46.60347551342812,NA,NA
43123,Franklin County,OH,NA,NA,54.506437768240346
43235,Franklin County,OH,62.875197472353875,NA,NA
43357,Logan County,OH,NA,NA,57.5107296137339
43402,Wood County,OH,NA,42.80078895463511,NA
43512,Defiance County,OH,NA,3.7475345167652856,NA
43551,Wood County,OH,12.006319115323855,47.337278106508876,NA
43558,Fulton County,OH,68.56240126382306,NA,NA
43560,Lucas County,OH,92.25908372827804,NA,NA
43606,Lucas County,OH,42.022116903633496,NA,NA
43608,Lucas County,OH,61.29541864139021,NA,NA
43612,Lucas County,OH,NA,45.562130177514796,NA
43613,Lucas County,OH,55.45023696682464,NA,NA
43614,Lucas County,OH,33.965244865718795,NA,NA
43615,Lucas County,OH,2.6856240126382307,NA,NA
43724,Noble County,OH,NA,64.89151873767258,NA
43907,Harrison County,OH,62.55924170616114,NA,NA
43920,Columbiana County,OH,NA,NA,8.583690987124463
44001,Lorain County,OH,48.973143759873615,2.7613412228796843,NA
44004,Ashtabula County,OH,NA,NA,0.8583690987124464
44011,Lorain County,OH,NA,83.62919132149902,NA
44012,Lorain County,OH,90.36334913112164,NA,NA
44024,Geauga County,OH,40.12638230647709,NA,NA
44035,Lorain County,OH,0.315955766192733,1.183431952662722,NA
44044,Lorain County,OH,74.565560821485,NA,NA
44052,Lorain County,OH,NA,1.3806706114398422,NA
44053,Lorain County,OH,28.90995260663507,5.522682445759369,NA
44055,Lorain County,OH,30.80568720379147,NA,NA
44087,Summit County,OH,70.7740916271722,NA,NA
44094,Lake County,OH,NA,60.35502958579882,NA
44095,Lake County,OH,66.9826224328594,NA,NA
44107,Cuyahoga County,OH,NA,37.8698224852071,NA
44112,Cuyahoga County,OH,NA,NA,43.776824034334766
44118,Cuyahoga County,OH,34.75513428120063,84.22090729783037,NA
44120,Cuyahoga County,OH,16.429699842022117,1.9723865877712032,NA
44121,Cuyahoga County,OH,NA,NA,46.3519313304721
44122,Cuyahoga County,OH,NA,26.429980276134124,60.94420600858369
44124,Cuyahoga County,OH,82.30647709320695,NA,17.59656652360515
44129,Cuyahoga County,OH,NA,90.72978303747534,NA
44130,Cuyahoga County,OH,21.169036334913113,NA,0
44134,Cuyahoga County,OH,7.266982622432859,NA,NA
44138,Cuyahoga County,OH,30.173775671406005,NA,NA
44139,Cuyahoga County,OH,NA,11.834319526627219,NA
44141,Cuyahoga County,OH,69.66824644549763,NA,NA
44143,Cuyahoga County,OH,31.437598736176938,12.82051282051282,NA
44145,Cuyahoga County,OH,NA,NA,3.004291845493562
44147,Cuyahoga County,OH,NA,27.218934911242602,NA
44201,Portage County,OH,78.98894154818325,NA,NA
44202,Portage County,OH,94.15481832543445,NA,NA
44231,Portage County,OH,93.36492890995261,NA,NA
44236,Summit County,OH,NA,20.51282051282051,NA
44256,Medina County,OH,NA,0.39447731755424065,NA
44281,Medina County,OH,NA,NA,14.163090128755366
44287,Wayne County,OH,69.3522906793049,NA,NA
44288,Portage County,OH,NA,93.29388560157791,NA
44310,Summit County,OH,NA,19.723865877712033,NA
44410,Trumbull County,OH,NA,23.668639053254438,79.39914163090128
44425,Trumbull County,OH,86.7298578199052,NA,NA
44438,Trumbull County,OH,58.29383886255924,NA,NA
44446,Trumbull County,OH,NA,44.57593688362919,NA
44460,Columbiana County,OH,44.54976303317535,NA,NA
44481,Trumbull County,OH,24.486571879936808,NA,NA
44483,Trumbull County,OH,15.165876777251185,NA,NA
44484,Trumbull County,OH,NA,11.439842209072978,NA
44485,Trumbull County,OH,15.639810426540285,30.57199211045365,NA
44514,Mahoning County,OH,NA,28.007889546351084,NA
44615,Carroll County,OH,NA,45.36489151873767,60.08583690987125
44646,Stark County,OH,NA,NA,15.879828326180256
44662,Stark County,OH,61.61137440758294,NA,NA
44805,Ashland County,OH,11.374407582938389,4.339250493096647,NA
44827,Crawford County,OH,NA,82.44575936883629,NA
44903,Richland County,OH,17.061611374407583,NA,NA
45002,Hamilton County,OH,NA,NA,78.54077253218884
45005,Warren County,OH,NA,15.187376725838265,NA
45036,Warren County,OH,NA,24.85207100591716,NA
45044,Butler County,OH,5.055292259083728,NA,NA
45068,Warren County,OH,NA,NA,81.54506437768241
45102,Clermont County,OH,33.33333333333333,NA,NA
45140,Clermont County,OH,22.11690363349131,NA,19.742489270386265
45240,Hamilton County,OH,NA,NA,41.63090128755365
45305,Greene County,OH,NA,NA,74.2489270386266
45315,Montgomery County,OH,NA,76.33136094674556,NA
45320,Preble County,OH,59.08372827804107,NA,NA
45324,Greene County,OH,33.0173775671406,NA,NA
45335,Greene County,OH,80.88467614533965,NA,NA
45342,Montgomery County,OH,NA,9.467455621301776,NA
45344,Clark County,OH,NA,NA,55.36480686695279
45347,Preble County,OH,63.507109004739334,NA,NA
45371,Miami County,OH,67.4565560821485,18.54043392504931,27.467811158798284
45373,Miami County,OH,6.161137440758294,NA,NA
45377,Montgomery County,OH,NA,NA,84.54935622317596
45381,Preble County,OH,NA,NA,69.95708154506438
45402,Montgomery County,OH,NA,69.62524654832347,NA
45403,Montgomery County,OH,33.649289099526065,NA,NA
45404,Montgomery County,OH,NA,76.52859960552269,NA
45405,Montgomery County,OH,46.287519747235386,NA,NA
45406,Montgomery County,OH,NA,NA,47.21030042918455
45410,Montgomery County,OH,NA,85.00986193293886,NA
45416,Montgomery County,OH,NA,NA,96.13733905579399
45417,Montgomery County,OH,NA,NA,23.605150214592275
45424,Montgomery County,OH,9.162717219589258,NA,45.493562231759654
45426,Montgomery County,OH,NA,71.99211045364892,42.48927038626609
45431,Montgomery County,OH,NA,NA,32.18884120171674
45449,Montgomery County,OH,NA,NA,36.05150214592275
45459,Montgomery County,OH,NA,19.526627218934912,12.446351931330472
45614,Gallia County,OH,64.6129541864139,NA,NA
45631,Gallia County,OH,NA,87.3767258382643,4.721030042918455
45638,Lawrence County,OH,NA,2.9585798816568047,NA
45640,Jackson County,OH,NA,29.78303747534517,NA
45692,Jackson County,OH,80.09478672985783,NA,NA
45694,Scioto County,OH,25.908372827804104,NA,NA
45714,Washington County,OH,16.587677725118482,NA,26.180257510729614
45750,Washington County,OH,36.492890995260666,NA,NA
45769,Meigs County,OH,50.71090047393365,83.23471400394477,NA
45784,Washington County,OH,59.241706161137444,NA,NA
45804,Allen County,OH,9.636650868878357,NA,NA
45805,Allen County,OH,11.848341232227488,NA,NA
45827,Putnam County,OH,95.260663507109,NA,NA
73005,Caddo County,OK,NA,92.50493096646942,NA
73013,Oklahoma County,OK,NA,8.875739644970414,NA
73034,Oklahoma County,OK,26.066350710900476,NA,NA
73099,Canadian County,OK,NA,NA,16.738197424892704
73103,Oklahoma County,OK,97.47235387045814,NA,NA
73120,Oklahoma County,OK,NA,26.035502958579883,NA
73139,Oklahoma County,OK,NA,53.84615384615385,NA
73160,Cleveland County,OK,NA,3.9447731755424065,NA
73170,Cleveland County,OK,NA,14.003944773175542,NA
74006,Washington County,OK,67.93048973143759,NA,NA
74010,Creek County,OK,NA,NA,80.68669527896995
74012,Tulsa County,OK,23.06477093206951,NA,NA
74016,Rogers County,OK,NA,82.05128205128204,NA
74036,Rogers County,OK,61.137440758293835,NA,NA
74037,Tulsa County,OK,NA,87.57396449704143,NA
74055,Tulsa County,OK,NA,81.26232741617358,NA
74106,Tulsa County,OK,NA,61.735700197238664,NA
74107,Tulsa County,OK,NA,NA,67.81115879828327
74129,Tulsa County,OK,NA,84.61538461538461,NA
74132,Tulsa County,OK,NA,75.93688362919131,NA
74136,Tulsa County,OK,NA,NA,24.034334763948497
74361,Mayes County,OK,51.50078988941548,NA,NA
74365,Mayes County,OK,87.51974723538704,NA,NA
74426,McIntosh County,OK,79.62085308056872,NA,NA
74441,Cherokee County,OK,86.88783570300158,NA,NA
74447,Okmulgee County,OK,NA,NA,36.9098712446352
74464,Cherokee County,OK,31.121642969984205,16.370808678500985,NA
74501,Pittsburg County,OK,NA,NA,72.1030042918455
74525,Atoka County,OK,85.62401263823065,NA,NA
74571,Le Flore County,OK,NA,75.54240631163708,NA
74728,McCurtain County,OK,NA,72.18934911242604,NA
74745,McCurtain County,OK,NA,NA,74.2489270386266
74848,Hughes County,OK,NA,66.46942800788955,NA
74857,Cleveland County,OK,NA,NA,77.25321888412017
74953,Le Flore County,OK,NA,67.85009861932939,NA
74960,Adair County,OK,24.170616113744074,NA,NA
97005,Washington County,OR,NA,79.48717948717949,NA
97031,Hood River County,OR,56.08214849921011,NA,NA
97045,Clackamas County,OR,NA,NA,40.772532188841204
97051,Columbia County,OR,NA,82.64299802761342,NA
97056,Columbia County,OR,56.55608214849921,NA,NA
97058,Wasco County,OR,36.018957345971565,NA,NA
97068,Clackamas County,OR,NA,71.7948717948718,NA
97080,Multnomah County,OR,NA,17.94871794871795,NA
97141,Tillamook County,OR,72.35387045813586,NA,NA
97206,Multnomah County,OR,60.821484992101105,NA,NA
97211,Multnomah County,OR,NA,70.41420118343196,NA
97213,Multnomah County,OR,83.57030015797788,NA,NA
97223,Washington County,OR,26.224328593996844,NA,96.99570815450643
97236,Multnomah County,OR,NA,25.2465483234714,NA
97267,Clackamas County,OR,NA,NA,63.0901287553648
97302,Marion County,OR,37.598736176935226,NA,53.21888412017167
97321,Linn County,OR,63.98104265402843,NA,NA
97322,Linn County,OR,38.072669826224335,NA,NA
97333,Benton County,OR,NA,73.76725838264299,92.27467811158799
97355,Linn County,OR,NA,4.930966469428008,NA
97365,Lincoln County,OR,NA,61.93293885601578,NA
97367,Lincoln County,OR,90.67930489731437,NA,NA
97386,Linn County,OR,NA,36.29191321499014,NA
97415,Curry County,OR,NA,23.471400394477318,NA
97426,Lane County,OR,NA,64.69428007889546,NA
97444,Curry County,OR,NA,64.49704142011834,NA
97501,Jackson County,OR,8.056872037914692,NA,NA
97527,Josephine County,OR,39.652448657187996,NA,NA
97601,Klamath County,OR,NA,10.650887573964498,NA
97818,Morrow County,OR,75.19747235387045,NA,NA
15202,Allegheny County,PA,66.0347551342812,NA,NA
15212,Allegheny County,PA,22.906793048973142,NA,NA
15241,Allegheny County,PA,NA,52.662721893491124,NA
15317,Washington County,PA,26.856240126382307,NA,NA
15601,Westmoreland County,PA,18.799368088467613,NA,NA
15650,Westmoreland County,PA,39.81042654028436,NA,NA
15801,Clearfield County,PA,90.04739336492891,NA,2.1459227467811157
15853,Elk County,PA,48.657187993680886,NA,NA
15946,Cambria County,PA,75.51342812006318,NA,NA
16101,Lawrence County,PA,NA,31.360946745562128,NA
16102,Lawrence County,PA,NA,NA,91.41630901287554
16105,Lawrence County,PA,NA,NA,8.15450643776824
16201,Armstrong County,PA,29.383886255924168,NA,NA
16601,Blair County,PA,75.03949447077409,NA,NA
16602,Blair County,PA,84.67614533965245,NA,NA
16648,Blair County,PA,48.183254344391784,NA,NA
16693,Blair County,PA,79.62085308056872,NA,NA
16833,Clearfield County,PA,NA,49.112426035502956,NA
16901,Tioga County,PA,54.502369668246445,NA,NA
17022,Lancaster County,PA,53.87045813586098,68.63905325443787,11.587982832618025
17104,Dauphin County,PA,NA,NA,75.53648068669528
17111,Dauphin County,PA,15.00789889415482,NA,NA
17233,Fulton County,PA,67.61453396524486,NA,NA
17236,Franklin County,PA,74.72353870458136,NA,NA
17331,York County,PA,NA,12.6232741617357,NA
17545,Lancaster County,PA,38.388625592417064,NA,NA
17701,Lycoming County,PA,3.949447077409163,5.9171597633136095,NA
17752,Lycoming County,PA,79.30489731437599,NA,NA
17756,Lycoming County,PA,NA,28.79684418145957,NA
17824,Northumberland County,PA,NA,NA,86.26609442060087
17960,Schuylkill County,PA,NA,NA,89.69957081545064
18014,Northampton County,PA,NA,NA,35.622317596566525
18015,Northampton County,PA,NA,NA,88.8412017167382
18017,Northampton County,PA,NA,NA,92.7038626609442
18018,Lehigh County,PA,NA,NA,63.519313304721024
18036,Lehigh County,PA,NA,88.75739644970415,99.57081545064378
18037,Lehigh County,PA,NA,NA,70.81545064377683
18040,Northampton County,PA,94.3127962085308,NA,NA
18042,Northampton County,PA,NA,26.232741617357004,NA
18064,Northampton County,PA,NA,NA,76.82403433476395
18067,Northampton County,PA,35.54502369668246,NA,33.90557939914164
18071,Carbon County,PA,43.60189573459716,NA,NA
18080,Lehigh County,PA,NA,98.22485207100591,NA
18104,Lehigh County,PA,NA,NA,82.83261802575107
18201,Luzerne County,PA,NA,87.77120315581854,77.6824034334764
18224,Luzerne County,PA,92.41706161137441,NA,NA
18302,Monroe County,PA,NA,54.24063116370809,NA
18411,Lackawanna County,PA,NA,47.14003944773176,NA
18512,Lackawanna County,PA,50.39494470774092,NA,NA
18634,Luzerne County,PA,NA,NA,45.92274678111588
18642,Luzerne County,PA,NA,68.04733727810651,NA
18901,Bucks County,PA,39.968404423380726,NA,NA
18902,Bucks County,PA,76.93522906793049,NA,NA
18944,Bucks County,PA,NA,NA,38.197424892703864
19066,Montgomery County,PA,70.61611374407583,NA,NA
19067,Bucks County,PA,17.535545023696685,NA,NA
19111,Philadelphia County,PA,3.0015797788309637,NA,NA
19128,Philadelphia County,PA,NA,25.64102564102564,NA
19134,Philadelphia County,PA,1.8957345971563981,NA,NA
19143,Philadelphia County,PA,1.263823064770932,NA,NA
19147,Philadelphia County,PA,17.21958925750395,NA,NA
19382,Chester County,PA,14.06003159557662,8.284023668639055,NA
19518,Berks County,PA,NA,46.74556213017752,NA
19526,Berks County,PA,57.50394944707741,50.09861932938856,NA
19539,Berks County,PA,93.99684044233807,NA,NA
19601,Berks County,PA,2.211690363349131,13.214990138067062,NA
02816,Kent County,RI,24.80252764612954,NA,NA
29360,Laurens County,SC,36.17693522906793,NA,NA
29642,Pickens County,SC,NA,15.384615384615385,NA
57104,Minnehaha County,SD,NA,6.903353057199212,NA
57106,Minnehaha County,SD,NA,6.70611439842209,NA
57108,Lincoln County,SD,NA,18.34319526627219,NA
57401,Brown County,SD,42.338072669826225,NA,NA
57719,Pennington County,SD,NA,46.15384615384615,NA
37086,Rutherford County,TN,41.23222748815166,NA,NA
37188,Robertson County,TN,NA,64.29980276134121,NA
37664,Sullivan County,TN,NA,67.45562130177515,NA
37766,Campbell County,TN,NA,22.682445759368836,NA
37803,Blount County,TN,52.29067930489732,NA,NA
37804,Blount County,TN,26.540284360189574,NA,NA
37807,Union County,TN,57.345971563981045,NA,NA
37865,Sevier County,TN,NA,39.053254437869825,NA
37890,Jefferson County,TN,NA,70.21696252465483,NA
37920,Knox County,TN,NA,14.792899408284024,NA
37921,Knox County,TN,NA,NA,64.37768240343348
37922,Knox County,TN,NA,44.97041420118343,NA
37932,Knox County,TN,NA,55.22682445759369,NA
38382,Gibson County,TN,81.04265402843602,NA,NA
75007,Denton County,TX,NA,22.682445759368836,NA
75020,Grayson County,TX,41.864139020537124,NA,NA
75050,Dallas County,TX,NA,92.89940828402366,NA
75115,Dallas County,TX,NA,17.75147928994083,NA
75137,Dallas County,TX,NA,82.84023668639054,NA
75165,Ellis County,TX,NA,53.05719921104537,NA
75237,Dallas County,TX,79.14691943127961,NA,NA
75418,Fannin County,TX,NA,59.36883629191322,NA
75474,Hunt County,TX,49.763033175355446,NA,NA
75703,Smith County,TX,29.541864139020536,NA,NA
75707,Smith County,TX,NA,69.0335305719921,NA
75791,Smith County,TX,51.97472353870458,NA,NA
76010,Tarrant County,TX,54.18641390205371,NA,NA
76022,Tarrant County,TX,NA,69.8224852071006,NA
76039,Tarrant County,TX,NA,73.57001972386587,NA
76058,Johnson County,TX,68.72037914691943,NA,NA
76063,Tarrant County,TX,13.428120063191153,40.23668639053255,16.30901287553648
76114,Tarrant County,TX,37.91469194312796,NA,NA
76131,Tarrant County,TX,NA,NA,93.56223175965665
76258,Denton County,TX,81.83254344391784,NA,NA
76305,Wichita County,TX,NA,85.20710059171599,NA
76513,Bell County,TX,NA,11.637080867850099,NA
76520,Milam County,TX,NA,66.66666666666666,NA
76543,Bell County,TX,NA,NA,5.150214592274678
76661,Falls County,TX,NA,98.61932938856016,NA
77004,Harris County,TX,25.434439178515007,NA,NA
77006,Harris County,TX,NA,91.71597633136095,NA
77016,Harris County,TX,NA,35.30571992110454,NA
77043,Harris County,TX,89.88941548183254,66.27218934911244,NA
77057,Harris County,TX,NA,48.32347140039448,NA
77096,Harris County,TX,79.46287519747234,NA,NA
77338,Harris County,TX,NA,50.09861932938856,NA
77365,Montgomery County,TX,NA,73.17554240631164,NA
77388,Harris County,TX,62.7172195892575,NA,NA
77389,Harris County,TX,45.18167456556082,NA,NA
77429,Harris County,TX,9.794628751974724,NA,NA
77471,Fort Bend County,TX,57.81990521327014,NA,NA
77504,Harris County,TX,53.396524486571884,NA,NA
77511,Brazoria County,TX,NA,NA,12.017167381974248
77535,Liberty County,TX,NA,40.433925049309664,NA
77584,Brazoria County,TX,46.12954186413902,NA,NA
77662,Orange County,TX,39.33649289099526,NA,NA
77803,Brazos County,TX,24.328593996840443,NA,NA
77964,Lavaca County,TX,NA,60.15779092702169,NA
78550,Cameron County,TX,NA,60.74950690335306,NA
78570,Hidalgo County,TX,56.872037914691944,NA,NA
78703,Travis County,TX,87.04581358609794,NA,NA
78723,Travis County,TX,70.45813586097947,NA,NA
78726,Travis County,TX,NA,96.64694280078896,NA
79930,El Paso County,TX,NA,62.1301775147929,NA
79936,El Paso County,TX,NA,16.173570019723865,NA
84108,Salt Lake County,UT,NA,NA,30.90128755364807
84119,Salt Lake County,UT,NA,NA,31.759656652360512
84121,Salt Lake County,UT,59.55766192733017,NA,NA
84651,Utah County,UT,58.92575039494471,NA,NA
05443,Addison County,VT,NA,88.16568047337277,NA
05488,Franklin County,VT,68.4044233807267,NA,NA
20191,Fairfax County,VA,NA,76.13412228796844,NA
22407,Spotsylvania County,VA,NA,46.35108481262327,NA
22602,Frederick County,VA,44.39178515007899,NA,NA
22901,Albemarle County,VA,NA,NA,49.35622317596567
22902,Charlottesville city,VA,46.91943127962085,NA,NA
22903,Charlottesville city,VA,NA,NA,29.184549356223176
22960,Orange County,VA,NA,53.4516765285996,NA
22963,Fluvanna County,VA,63.34913112164296,NA,NA
23117,Louisa County,VA,67.77251184834124,NA,NA
23223,Henrico County,VA,2.843601895734597,NA,NA
23227,Henrico County,VA,NA,NA,53.648068669527895
23229,Henrico County,VA,54.34439178515008,NA,NA
23238,Henrico County,VA,74.24960505529225,NA,NA
23452,Virginia Beach city,VA,NA,NA,6.008583690987124
23669,Hampton city,VA,21.32701421800948,NA,NA
24012,Roanoke city,VA,77.72511848341233,NA,NA
24014,Roanoke city,VA,54.66034755134282,NA,NA
24064,Botetourt County,VA,86.09794628751975,NA,NA
24124,Giles County,VA,NA,NA,93.99141630901288
24370,Smyth County,VA,66.66666666666666,NA,NA
24421,Augusta County,VA,NA,72.38658777120315,NA
24422,Alleghany County,VA,84.36018957345972,NA,NA
98011,King County,WA,NA,89.3491124260355,NA
98012,Snohomish County,WA,27.96208530805687,NA,NA
98020,Snohomish County,WA,NA,48.5207100591716,NA
98040,King County,WA,77.56714060031595,NA,NA
98042,King County,WA,NA,10.848126232741617,NA
98052,King County,WA,NA,18.73767258382643,NA
98055,King County,WA,NA,77.51479289940828,NA
98074,King County,WA,72.51184834123224,NA,NA
98102,King County,WA,59.3996840442338,NA,NA
98121,King County,WA,NA,55.62130177514793,NA
98155,King County,WA,NA,82.24852071005917,NA
98221,Skagit County,WA,50.55292259083728,NA,13.304721030042918
98223,Snohomish County,WA,23.380726698262244,NA,NA
98248,Whatcom County,WA,NA,53.64891518737672,NA
98272,Snohomish County,WA,NA,38.46153846153847,NA
98274,Skagit County,WA,NA,NA,56.65236051502146
98282,Island County,WA,NA,35.50295857988166,NA
98284,Skagit County,WA,NA,23.076923076923077,NA
98292,Snohomish County,WA,NA,NA,48.497854077253216
98332,Pierce County,WA,76.14533965244867,NA,NA
98346,Kitsap County,WA,99.52606635071089,NA,NA
98363,Clallam County,WA,55.29225908372828,NA,NA
98387,Pierce County,WA,21.958925750394943,NA,NA
98422,Pierce County,WA,49.92101105845181,NA,NA
98502,Thurston County,WA,81.35860979462876,NA,NA
98611,Cowlitz County,WA,99.68404423380727,NA,NA
98625,Cowlitz County,WA,NA,92.1104536489152,NA
98632,Cowlitz County,WA,NA,89.54635108481263,NA
98661,Clark County,WA,NA,33.72781065088758,62.66094420600859
98662,Clark County,WA,64.13902053712481,NA,NA
98685,Clark County,WA,76.61927330173775,NA,NA
98855,Okanogan County,WA,75.67140600315956,NA,NA
98944,Yakima County,WA,47.55134281200632,NA,NA
99037,Spokane County,WA,NA,86.19329388560158,NA
99354,Benton County,WA,37.2827804107425,NA,NA
20007,District of Columbia,DC,NA,NA,57.93991416309014
20009,District of Columbia,DC,NA,40.03944773175542,NA
24801,McDowell County,WV,NA,93.68836291913215,NA
24901,Greenbrier County,WV,NA,56.41025641025641,NA
25143,Kanawha County,WV,NA,57.79092702169625,NA
25387,Kanawha County,WV,NA,65.08875739644971,NA
25401,Berkeley County,WV,NA,30.76923076923077,NA
25419,Berkeley County,WV,67.14060031595577,NA,NA
25526,Putnam County,WV,NA,34.319526627218934,NA
25541,Cabell County,WV,NA,65.48323471400394,NA
25550,Mason County,WV,NA,NA,61.80257510729614
26003,Ohio County,WV,NA,1.5779092702169626,NA
26164,Jackson County,WV,NA,74.55621301775149,NA
26452,Lewis County,WV,NA,NA,75.9656652360515
53022,Washington County,WI,NA,77.90927021696253,NA
53066,Waukesha County,WI,NA,NA,18.88412017167382
53080,Ozaukee County,WI,NA,98.42209072978304,NA
53081,Sheboygan County,WI,41.07424960505529,NA,NA
53105,Racine County,WI,NA,38.26429980276134,NA
53140,Kenosha County,WI,NA,21.499013806706113,NA
53204,Milwaukee County,WI,NA,32.544378698224854,NA
53209,Milwaukee County,WI,NA,79.09270216962526,NA
53210,Milwaukee County,WI,6.9510268562401265,NA,NA
53216,Milwaukee County,WI,5.687203791469194,NA,NA
53225,Milwaukee County,WI,9.320695102685624,80.07889546351085,NA
53406,Racine County,WI,13.270142180094787,NA,NA
53511,Rock County,WI,63.03317535545023,NA,NA
53538,Jefferson County,WI,NA,32.74161735700197,NA
53545,Rock County,WI,88.15165876777252,NA,NA
53546,Rock County,WI,15.955766192733018,24.65483234714004,NA
53705,Dane County,WI,NA,41.02564102564102,NA
53950,Juneau County,WI,NA,97.83037475345168,NA
54002,St. Croix County,WI,NA,93.09664694280079,NA
54015,St. Croix County,WI,92.57503949447077,NA,NA
54114,Marinette County,WI,NA,67.0611439842209,NA
54115,Brown County,WI,40.60031595576619,NA,NA
54156,Marinette County,WI,97.94628751974723,NA,NA
54220,Manitowoc County,WI,41.70616113744076,0.9861932938856016,75.10729613733905
54409,Langlade County,WI,34.12322274881517,NA,NA
54601,La Crosse County,WI,27.64612954186414,27.810650887573964,NA
54603,La Crosse County,WI,NA,65.68047337278107,10.300429184549357
54630,Trempealeau County,WI,NA,NA,98.71244635193133
54656,Monroe County,WI,NA,NA,83.2618025751073
54660,Monroe County,WI,NA,96.44970414201184,NA
54880,Douglas County,WI,NA,2.366863905325444,NA
82435,Park County,WY,71.7219589257504,NA,NA
82609,Natrona County,WY,NA,NA,66.09442060085837
