ZipCode,county,state,Adult,Retirement,Geriatric
35005,Jefferson County,AL,71.25748502994011,NA,NA
35146,St. Clair County,AL,NA,NA,84.98023715415019
35205,Jefferson County,AL,54.79041916167665,NA,NA
35475,Tuscaloosa County,AL,42.21556886227545,NA,NA
35769,Jackson County,AL,79.04191616766467,NA,NA
36092,Elmore County,AL,NA,47.53747323340471,NA
36375,Geneva County,AL,62.874251497005986,NA,NA
36560,Mobile County,AL,98.20359281437125,NA,NA
36869,Russell County,AL,46.40718562874252,NA,NA
99501,Anchorage Municipality,AK,74.8502994011976,78.80085653104925,NA
99502,Anchorage Municipality,AK,44.16167664670659,NA,NA
99503,Anchorage Municipality,AK,63.622754491017965,NA,NA
99504,Anchorage Municipality,AK,NA,NA,48.616600790513836
99507,Anchorage Municipality,AK,82.33532934131736,NA,NA
99508,Anchorage Municipality,AK,71.55688622754491,97.00214132762312,52.569169960474305
99518,Anchorage Municipality,AK,93.562874251497007,NA,NA
99576,Dillingham Census Area,AK,83.23353293413174,NA,NA
99577,Anchorage Municipality,AK,93.26347305389223,98.92933618843684,NA
99835,Sitka City and Borough,AK,82.78443113772454,NA,NA
85015,Maricopa County,AZ,41.76646706586826,NA,NA
85022,Maricopa County,AZ,58.68263473053892,NA,NA
85031,Maricopa County,AZ,NA,56.53104925053534,NA
85210,Maricopa County,AZ,NA,48.60813704496788,NA
85248,Maricopa County,AZ,NA,55.46038543897216,NA
85281,Maricopa County,AZ,82.93413173652695,NA,NA
85304,Maricopa County,AZ,78.74251497005989,NA,NA
85353,Maricopa County,AZ,26.646706586826348,NA,NA
85396,Maricopa County,AZ,71.8562874251497,NA,NA
85622,Pima County,AZ,NA,NA,71.93675889328063
85714,Pima County,AZ,27.694610778443113,49.46466809421842,NA
85741,Pima County,AZ,26.19760479041916,NA,NA
85745,Pima County,AZ,NA,17.77301927194861,NA
85746,Pima County,AZ,NA,35.33190578158458,NA
85756,Pima County,AZ,NA,NA,63.63636363636363
86305,Yavapai County,AZ,NA,32.97644539614561,NA
86314,Yavapai County,AZ,NA,NA,6.324110671936759
86322,Yavapai County,AZ,43.56287425149701,NA,NA
86401,Mohave County,AZ,63.17365269461078,7.708779443254818,NA
86409,Mohave County,AZ,44.91017964071856,4.496788008565311,NA
71854,Miller County,AR,NA,NA,26.48221343873518
71913,Garland County,AR,31.137724550898206,26.552462526766597,NA
72010,White County,AR,68.11377245508982,NA,NA
72034,Faulkner County,AR,43.26347305389221,NA,10.67193675889328
72762,Washington County,AR,NA,50.74946466809421,NA
72927,Logan County,AR,NA,NA,74.70355731225297
90040,Los Angeles County,CA,83.08383233532935,NA,NA
90201,Los Angeles County,CA,NA,34.90364025695932,NA
90241,Los Angeles County,CA,69.16167664670658,NA,87.74703557312253
90242,Los Angeles County,CA,NA,NA,37.15415019762846
90262,Los Angeles County,CA,NA,NA,50.59288537549407
90302,Los Angeles County,CA,NA,69.16488222698072,NA
90604,Los Angeles County,CA,47.90419161676647,NA,NA
90712,Los Angeles County,CA,NA,43.46895074946467,NA
90804,Los Angeles County,CA,37.12574850299401,NA,NA
90808,Los Angeles County,CA,48.35329341317365,NA,NA
91942,San Diego County,CA,52.544910179640716,NA,NA
92065,San Diego County,CA,40.5688622754491,NA,NA
92211,Riverside County,CA,NA,69.37901498929337,NA
92313,San Bernardino County,CA,NA,76.017130620985,NA
92316,San Bernardino County,CA,43.862275449101794,NA,NA
92337,San Bernardino County,CA,NA,64.88222698072805,NA
92345,San Bernardino County,CA,NA,NA,21.73913043478261
92376,San Bernardino County,CA,NA,15.845824411134904,NA
92508,Riverside County,CA,70.05988023952095,NA,NA
92553,Riverside County,CA,49.8502994011976,NA,NA
92868,Orange County,CA,53.443113772455085,NA,NA
92880,Riverside County,CA,NA,47.75160599571734,NA
93004,Ventura County,CA,47.00598802395209,NA,NA
93023,Ventura County,CA,79.64071856287424,NA,NA
93030,Ventura County,CA,NA,21.841541755888652,23.715415019762844
93033,Ventura County,CA,8.383233532934131,9.635974304068522,NA
93230,Kings County,CA,40.86826347305389,NA,NA
93291,Tulare County,CA,59.281437125748504,NA,NA
93292,Tulare County,CA,NA,31.049250535331907,NA
93304,Kern County,CA,18.862275449101794,NA,NA
93433,San Luis Obispo County,CA,NA,95.71734475374733,NA
93454,Santa Barbara County,CA,74.10179640718563,NA,NA
93458,Santa Barbara County,CA,36.52694610778443,NA,NA
94065,San Mateo County,CA,NA,82.86937901498929,NA
94066,San Mateo County,CA,NA,NA,6.719367588932807
94102,San Francisco County,CA,6.137724550898203,NA,NA
94114,San Francisco County,CA,91.1676646706587,NA,NA
94117,San Francisco County,CA,NA,86.29550321199143,NA
94123,San Francisco County,CA,NA,NA,49.80237154150198
94558,Napa County,CA,NA,7.066381156316917,NA
94568,Alameda County,CA,45.209580838323355,NA,NA
94590,Solano County,CA,NA,52.46252676659529,NA
94928,Sonoma County,CA,NA,39.61456102783726,NA
95336,San Joaquin County,CA,NA,NA,20.158102766798418
95521,Humboldt County,CA,NA,69.593147751606,NA
95660,Sacramento County,CA,NA,NA,53.75494071146245
95948,Butte County,CA,NA,72.80513918629549,NA
95954,Butte County,CA,33.532934131736525,NA,NA
80010,Arapahoe County,CO,41.91616766467065,NA,78.26086956521739
80011,Arapahoe County,CO,42.51497005988024,31.905781584582442,NA
80015,Arapahoe County,CO,55.98802395209581,NA,NA
80020,Broomfield County,CO,36.67664670658682,NA,NA
80124,Douglas County,CO,95.50898203592814,NA,NA
80205,Denver County,CO,NA,32.11991434689507,NA
80229,Adams County,CO,NA,88.86509635974305,NA
80230,Denver County,CO,95.35928143712576,NA,NA
80233,Adams County,CO,NA,44.53961456102783,NA
80526,Larimer County,CO,NA,NA,29.249011857707508
80634,Weld County,CO,54.34131736526946,NA,NA
81004,Pueblo County,CO,NA,29.336188436830835,NA
81226,Fremont County,CO,NA,89.50749464668094,NA
81321,Montezuma County,CO,55.688622754491014,NA,NA
81503,Mesa County,CO,75,NA,NA
81505,Mesa County,CO,77.69461077844312,NA,NA
81625,Moffat County,CO,32.18562874251497,NA,NA
06010,Hartford County,CT,NA,20.12847965738758,NA
06106,Hartford County,CT,3.592814371257485,NA,NA
06107,Hartford County,CT,NA,NA,45.45454545454545
06110,Hartford County,CT,NA,77.08779443254818,NA
06237,Tolland County,CT,NA,87.58029978586723,NA
06415,New London County,CT,NA,79.01498929336188,NA
06437,New Haven County,CT,52.09580838323353,NA,NA
06450,New Haven County,CT,4.341317365269461,NA,NA
06488,New Haven County,CT,NA,NA,36.75889328063241
06790,Litchfield County,CT,4.491017964071856,NA,NA
06905,Fairfield County,CT,NA,NA,35.177865612648226
19709,New Castle County,DE,16.91616766467066,NA,NA
19711,New Castle County,DE,NA,NA,11.857707509881422
32024,Columbia County,FL,NA,38.11563169164882,NA
32034,Nassau County,FL,NA,NA,10.276679841897234
32060,Suwannee County,FL,44.76047904191617,NA,NA
32092,St. Johns County,FL,NA,37.47323340471092,NA
32129,Volusia County,FL,NA,58.67237687366167,NA
32219,Duval County,FL,37.72455089820359,NA,98.81422924901186
32257,Duval County,FL,19.46107784431138,NA,NA
32440,Jackson County,FL,81.58682634730539,NA,NA
32666,Putnam County,FL,NA,NA,79.84189723320159
32780,Brevard County,FL,NA,17.34475374732334,NA
32955,Brevard County,FL,41.31736526946108,NA,NA
33019,Broward County,FL,93.41317365269461,NA,NA
33023,Broward County,FL,15.868263473053892,NA,NA
33169,Miami-Dade County,FL,34.58083832335329,NA,NA
33436,Palm Beach County,FL,47.30538922155689,NA,NA
33714,Pinellas County,FL,46.706586826347305,NA,NA
33715,Pinellas County,FL,NA,NA,84.58498023715416
33841,Polk County,FL,NA,79.87152034261243,NA
33908,Lee County,FL,NA,29.550321199143468,NA
33952,Charlotte County,FL,NA,30.83511777301927,NA
33966,Lee County,FL,NA,74.51820128479658,NA
34240,Sarasota County,FL,NA,89.29336188436831,NA
34275,Sarasota County,FL,NA,27.40899357601713,NA
34609,Hernando County,FL,25.449101796407188,NA,NA
34655,Pasco County,FL,27.245508982035926,NA,NA
34974,Okeechobee County,FL,45.958083832335326,NA,NA
34996,Martin County,FL,NA,56.102783725910065,NA
30019,Gwinnett County,GA,32.035928143712574,NA,NA
30043,Gwinnett County,GA,61.07784431137725,NA,NA
30052,Walton County,GA,NA,68.73661670235546,NA
30062,Cobb County,GA,35.32934131736527,14.346895074946467,NA
30134,Douglas County,GA,19.610778443113773,NA,NA
30157,Paulding County,GA,20.808383233532936,NA,NA
30165,Floyd County,GA,NA,28.26552462526767,NA
30215,Fayette County,GA,73.35329341317365,NA,NA
30290,Fayette County,GA,98.05389221556887,NA,NA
30349,Fulton County,GA,NA,11.349036402569594,NA
30434,Jefferson County,GA,93.8622754491018,NA,NA
30506,Hall County,GA,23.802395209580837,NA,NA
30519,Gwinnett County,GA,NA,30.19271948608137,NA
30542,Hall County,GA,NA,37.687366167023555,NA
30909,Richmond County,GA,NA,44.11134903640257,NA
31069,Houston County,GA,33.38323353293413,NA,NA
31419,Chatham County,GA,28.892215568862273,NA,NA
31757,Thomas County,GA,61.227544910179645,NA,NA
31793,Tift County,GA,NA,NA,75.49407114624506
31907,Muscogee County,GA,NA,2.569593147751606,NA
96744,Honolulu County,HI,NA,2.141327623126338,NA
96755,Hawaii County,HI,NA,93.57601713062098,NA
96786,Honolulu County,HI,28.143712574850298,NA,NA
96795,Honolulu County,HI,NA,67.88008565310493,NA
96813,Honolulu County,HI,NA,33.40471092077088,NA
96822,Honolulu County,HI,NA,47.32334047109208,NA
96825,Honolulu County,HI,45.50898203592814,NA,NA
83201,Bannock County,ID,NA,NA,27.66798418972332
83301,Twin Falls County,ID,NA,11.777301927194861,NA
83401,Bonneville County,ID,37.4251497005988,NA,NA
83406,Bonneville County,ID,54.64071856287425,NA,NA
83442,Jefferson County,ID,NA,63.811563169164884,NA
83634,Ada County,ID,99.55089820359282,NA,NA
83642,Ada County,ID,64.67065868263472,NA,NA
83651,Canyon County,ID,81.437125748502993,11.563169164882227,NA
83686,Canyon County,ID,NA,4.282655246252676,18.57707509881423
83703,Ada County,ID,NA,51.82012847965739,NA
83704,Ada County,ID,40.119760479041915,NA,NA
83705,Ada County,ID,84.13173652694611,14.775160599571734,NA
60018,Cook County,IL,NA,NA,65.21739130434783
60025,Cook County,IL,35.778443113772454,NA,NA
60047,Lake County,IL,NA,22.483940042826553,NA
60056,Cook County,IL,NA,NA,3.9525691699604746
60062,Cook County,IL,NA,NA,15.810276679841898
60073,Lake County,IL,54.191616766467064,NA,NA
60102,McHenry County,IL,NA,38.75802997858672,NA
60124,Kane County,IL,NA,27.62312633832976,NA
60435,Will County,IL,NA,10.06423982869379,NA
60461,Cook County,IL,NA,77.51605995717344,NA
60471,Cook County,IL,NA,76.44539614561027,NA
60478,Cook County,IL,NA,NA,42.68774703557312
60517,DuPage County,IL,59.88023952095808,NA,NA
60527,DuPage County,IL,44.01197604790419,NA,NA
60565,DuPage County,IL,24.40119760479042,NA,NA
60637,Cook County,IL,12.275449101796406,NA,NA
60643,Cook County,IL,NA,2.9978586723768736,NA
60645,Cook County,IL,30.08982035928144,NA,NA
60660,Cook County,IL,21.107784431137723,NA,NA
61101,Winnebago County,IL,87.12574850299401,NA,NA
61104,Winnebago County,IL,85.77844311377245,NA,NA
61108,Winnebago County,IL,NA,NA,22.529644268774703
61455,McDonough County,IL,73.65269461077844,NA,NA
61614,Peoria County,IL,NA,NA,18.181818181818183
61832,Vermilion County,IL,7.18562874251497,NA,NA
61853,Champaign County,IL,NA,NA,24.50592885375494
62016,Greene County,IL,98.50299401197606,NA,NA
62056,Montgomery County,IL,75.1497005988024,NA,NA
62062,Madison County,IL,NA,NA,86.16600790513834
62420,Clark County,IL,NA,91.86295503211991,NA
62656,Logan County,IL,NA,90.14989293361884,NA
62812,Franklin County,IL,67.81437125748504,NA,NA
62832,Perry County,IL,72.0059880239521,NA,NA
62966,Jackson County,IL,NA,NA,30.039525691699602
46181,Johnson County,IN,NA,NA,88.53754940711462
46307,Lake County,IN,NA,NA,1.9762845849802373
46312,Lake County,IN,13.323353293413174,NA,NA
46322,Lake County,IN,19.311377245508982,24.62526766595289,NA
46323,Lake County,IN,45.359281437125745,NA,NA
46360,LaPorte County,IN,NA,NA,12.648221343873518
46375,Lake County,IN,26.047904191616766,NA,NA
46408,Lake County,IN,NA,83.29764453961455,NA
47129,Clark County,IN,44.61077844311377,NA,NA
47462,Lawrence County,IN,95.80838323353294,NA,NA
47532,Dubois County,IN,94.61077844311377,NA,NA
47712,Vanderburgh County,IN,44.31137724550898,NA,NA
50009,Polk County,IA,NA,73.44753747323341,NA
50036,Boone County,IA,NA,NA,17.391304347826086
50220,Dallas County,IA,60.02994011976048,NA,NA
50265,Polk County,IA,85.17964071856288,NA,NA
50309,Polk County,IA,49.40119760479042,NA,NA
50313,Polk County,IA,NA,54.603854389721626,NA
50315,Polk County,IA,NA,24.197002141327623,NA
50401,Cerro Gordo County,IA,8.682634730538922,NA,NA
50701,Black Hawk County,IA,NA,NA,7.905138339920949
51537,Shelby County,IA,NA,NA,40.316205533596836
52353,Washington County,IA,NA,63.16916488222698,NA
52627,Lee County,IA,36.82634730538922,NA,NA
52722,Scott County,IA,NA,28.051391862955033,NA
52756,Scott County,IA,98.80239520958084,NA,NA
52804,Scott County,IA,54.94011976047904,NA,NA
66083,Johnson County,KS,89.07185628742515,NA,NA
66227,Johnson County,KS,91.61676646706587,NA,NA
67207,Sedgwick County,KS,NA,91.00642398286938,NA
67213,Sedgwick County,KS,NA,72.37687366167023,NA
67337,Montgomery County,KS,76.49700598802394,NA,NA
67357,Labette County,KS,40.41916167664671,NA,NA
40324,Scott County,KY,9.73053892215569,NA,NA
40351,Rowan County,KY,46.25748502994012,NA,NA
40422,Boyle County,KY,93.11377245508982,NA,NA
40489,Lincoln County,KY,95.65868263473054,NA,NA
40729,Laurel County,KY,NA,73.01927194860814,NA
41101,Boyd County,KY,NA,18.843683083511777,NA
41171,Elliott County,KY,86.37724550898204,NA,NA
41175,Greenup County,KY,75.2994011976048,NA,NA
41501,Pike County,KY,8.233532934131736,56.3169164882227,NA
42503,Pulaski County,KY,35.47904191616767,NA,NA
70131,Orleans Parish,LA,NA,NA,41.89723320158103
70420,St. Tammany Parish,LA,59.4311377245509,NA,NA
70433,St. Tammany Parish,LA,79.19161676646706,NA,NA
70546,Jefferson Davis Parish,LA,NA,50.96359743040685,NA
71301,Rapides Parish,LA,NA,32.33404710920771,NA
03901,York County,ME,94.01197604790418,NA,NA
03904,York County,ME,NA,72.1627408993576,NA
03908,York County,ME,86.22754491017965,NA,NA
03909,York County,ME,92.51497005988024,NA,90.51383399209486
04002,York County,ME,NA,83.5117773019272,NA
04005,York County,ME,79.79041916167665,4.925053533190578,80.23715415019763
04009,Cumberland County,ME,91.46706586826348,69.80728051391864,NA
04011,Cumberland County,ME,90.26946107784431,NA,47.82608695652174
04021,Cumberland County,ME,85.77844311377245,NA,67.58893280632411
04038,Cumberland County,ME,45.808383233532936,NA,NA
04043,York County,ME,53.1437125748503,95.93147751605996,NA
04046,York County,ME,98.65269461077844,88.0085653104925,NA
04055,Cumberland County,ME,87.72455089820359,NA,NA
04062,Cumberland County,ME,NA,41.54175588865097,NA
04064,York County,ME,82.18562874251496,38.97216274089936,83.00395256916995
04071,Cumberland County,ME,89.52095808383234,NA,NA
04072,York County,ME,59.58083832335329,47.109207708779444,72.72727272727273
04073,York County,ME,18.7125748502994,88.22269807280514,NA
04074,Cumberland County,ME,NA,90.36402569593149,NA
04079,Cumberland County,ME,97.75449101796407,77.30192719486081,NA
04086,Sagadahoc County,ME,84.28143712574851,94.43254817987152,NA
04090,York County,ME,52.24550898203593,81.5845824411135,NA
04092,Cumberland County,ME,87.57485029940119,NA,NA
04096,Cumberland County,ME,NA,75.37473233404711,NA
04101,Cumberland County,ME,56.43712574850299,24.839400428265524,43.47826086956522
04102,Cumberland County,ME,76.64670658682635,NA,NA
04103,Cumberland County,ME,46.10778443113773,NA,8.300395256916996
04106,Cumberland County,ME,NA,33.190578158458244,NA
04210,Androscoggin County,ME,65.86826347305389,NA,NA
04222,Androscoggin County,ME,97.15568862275448,NA,NA
04240,Androscoggin County,ME,69.91017964071857,19.271948608137045,NA
04270,Oxford County,ME,NA,59.314775160599574,63.24110671936759
04281,Oxford County,ME,64.37125748502994,NA,NA
04330,Kennebec County,ME,82.48502994011976,86.0813704496788,79.05138339920948
04345,Kennebec County,ME,37.5748502994012,45.610278372591004,NA
04350,Kennebec County,ME,NA,97.64453961456103,NA
04401,Penobscot County,ME,71.10778443113772,75.80299785867237,35.96837944664031
04429,Penobscot County,ME,NA,95.28907922912205,81.02766798418972
04444,Penobscot County,ME,NA,55.88865096359743,94.86166007905138
04468,Penobscot County,ME,96.10778443113772,NA,NA
04530,Sagadahoc County,ME,NA,40.899357601713064,NA
04572,Lincoln County,ME,56.73652694610778,NA,NA
04578,Lincoln County,ME,NA,82.65524625267666,NA
04605,Hancock County,ME,NA,50.32119914346895,62.450592885375485
04742,Aroostook County,ME,NA,NA,53.359683794466406
04856,Knox County,ME,NA,NA,86.95652173913044
04901,Kennebec County,ME,NA,23.554603854389722,22.92490118577075
04917,Kennebec County,ME,98.35329341317365,77.73019271948608,NA
04937,Somerset County,ME,48.50299401197605,53.319057815845824,93.67588932806325
04938,Franklin County,ME,NA,49.25053533190578,NA
04963,Kennebec County,ME,50.898203592814376,NA,NA
04976,Somerset County,ME,38.47305389221557,NA,NA
20639,Calvert County,MD,67.96407185628742,NA,NA
20747,Prince George's County,MD,63.47305389221557,NA,NA
21230,Baltimore city,MD,29.640718562874252,NA,NA
21613,Dorchester County,MD,90.11976047904191,NA,NA
01007,Hampshire County,MA,41.467065868263475,NA,NA
01151,Hampden County,MA,NA,97.4304068522484,NA
01201,Berkshire County,MA,28.29341317365269,74.94646680942184,35.573122529644266
01226,Berkshire County,MA,64.07185628742515,NA,NA
01238,Berkshire County,MA,NA,56.9593147751606,NA
01247,Berkshire County,MA,4.640718562874251,NA,NA
01301,Franklin County,MA,NA,79.65738758029978,NA
01420,Worcester County,MA,26.94610778443114,1.284796573875803,NA
01452,Worcester County,MA,NA,99.3576017130621,NA
01534,Worcester County,MA,87.87425149700599,NA,NA
01568,Worcester County,MA,80.08982035928143,NA,NA
01610,Worcester County,MA,NA,3.4261241970021414,NA
01701,Middlesex County,MA,7.335329341317365,NA,NA
01721,Middlesex County,MA,NA,84.79657387580299,NA
01756,Worcester County,MA,81.58682634730539,NA,NA
01757,Worcester County,MA,76.34730538922156,NA,NA
01760,Middlesex County,MA,89.97005988023952,NA,NA
01778,Middlesex County,MA,NA,90.5781584582441,NA
01826,Middlesex County,MA,32.93413173652694,NA,NA
01835,Essex County,MA,25.748502994011975,NA,NA
01844,Essex County,MA,0.7485029940119761,NA,NA
01867,Middlesex County,MA,21.407185628742514,NA,NA
01876,Middlesex County,MA,5.239520958083832,NA,NA
01880,Middlesex County,MA,94.46107784431138,NA,NA
01906,Essex County,MA,2.095808383233533,NA,NA
01960,Essex County,MA,NA,0.4282655246252677,NA
02019,Norfolk County,MA,NA,NA,95.65217391304348
02021,Norfolk County,MA,24.251497005988025,NA,NA
02048,Bristol County,MA,16.017964071856287,NA,NA
02121,Suffolk County,MA,NA,0.21413276231263384,NA
02127,Suffolk County,MA,0.8982035928143712,NA,NA
02149,Middlesex County,MA,18.41317365269461,NA,NA
02155,Middlesex County,MA,NA,NA,64.03162055335969
02301,Plymouth County,MA,0.4491017964071856,NA,NA
02302,Plymouth County,MA,76.79640718562875,NA,NA
02360,Plymouth County,MA,0.5988023952095809,0,NA
02420,Middlesex County,MA,94.16167664670658,NA,NA
02446,Norfolk County,MA,15.568862275449103,31.47751605995717,NA
02451,Middlesex County,MA,NA,46.895074946466806,NA
02458,Middlesex County,MA,NA,66.80942184154176,NA
02460,Middlesex County,MA,83.68263473053892,NA,NA
02556,Barnstable County,MA,NA,92.29122055674517,NA
02563,Barnstable County,MA,NA,48.17987152034261,NA
02719,Bristol County,MA,NA,NA,33.99209486166008
02721,Bristol County,MA,2.9940119760479043,NA,NA
02723,Bristol County,MA,12.574850299401197,3.854389721627409,NA
02724,Bristol County,MA,2.245508982035928,54.603854389721626,NA
02726,Bristol County,MA,23.053892215568865,NA,NA
02777,Bristol County,MA,NA,NA,30.8300395256917
48001,St. Clair County,MI,57.48502994011976,78.58672376873662,NA
48003,Lapeer County,MI,76.04790419161677,NA,NA
48005,Macomb County,MI,92.36526946107784,92.07708779443254,93.2806324110672
48009,Oakland County,MI,NA,74.30406852248393,NA
48015,Macomb County,MI,47.30538922155689,46.680942184154176,NA
48021,Macomb County,MI,7.0359281437125745,NA,NA
48023,St. Clair County,MI,84.88023952095809,NA,90.11857707509881
48026,Macomb County,MI,70.20958083832335,74.7323340471092,NA
48030,Oakland County,MI,34.880239520958085,NA,NA
48033,Oakland County,MI,61.377245508982035,NA,NA
48035,Macomb County,MI,77.39520958083833,73.87580299785867,61.26482213438735
48036,Macomb County,MI,21.706586826347305,67.23768736616702,70.7509881422925
48038,Macomb County,MI,34.281437125748504,NA,39.920948616600796
48041,St. Clair County,MI,91.91616766467065,NA,NA
48042,Macomb County,MI,17.21556886227545,NA,54.9407114624506
48043,Macomb County,MI,66.91616766467065,71.94860813704497,92.88537549407114
48044,Macomb County,MI,6.287425149700598,29.978586723768736,16.99604743083004
48045,Macomb County,MI,70.65868263473054,15.203426124197003,60.079051383399204
48047,Macomb County,MI,10.029940119760479,42.61241970021413,71.54150197628458
48048,Macomb County,MI,62.4251497005988,78.37259100642399,96.83794466403161
48051,Macomb County,MI,48.20359281437126,60.599571734475376,69.96047430830039
48054,St. Clair County,MI,NA,NA,57.31225296442688
48060,St. Clair County,MI,NA,5.567451820128479,NA
48062,Macomb County,MI,NA,NA,75.8893280632411
48066,Macomb County,MI,14.820359281437126,35.11777301927195,50.19762845849802
48067,Oakland County,MI,NA,81.79871520342613,NA
48071,Oakland County,MI,20.059880239520957,NA,NA
48072,Oakland County,MI,NA,44.96788008565311,NA
48076,Oakland County,MI,53.59281437125748,NA,NA
48079,St. Clair County,MI,52.39520958083832,49.892933618843685,NA
48080,Macomb County,MI,NA,13.49036402569593,20.158102766798418
48081,Macomb County,MI,NA,NA,8.695652173913043
48082,Macomb County,MI,39.221556886227546,60.17130620985011,21.34387351778656
48084,Oakland County,MI,NA,65.31049250535332,NA
48085,Oakland County,MI,NA,27.194860813704498,NA
48088,Macomb County,MI,74.25149700598801,NA,NA
48089,Macomb County,MI,NA,23.126338329764454,42.29249011857708
48091,Macomb County,MI,21.856287425149702,14.989293361884368,NA
48093,Macomb County,MI,15.718562874251496,35.974304068522486,NA
48094,Macomb County,MI,42.964071856287426,NA,NA
48096,Macomb County,MI,96.55688622754491,NA,NA
48101,Wayne County,MI,18.263473053892216,NA,NA
48103,Washtenaw County,MI,NA,1.070663811563169,NA
48118,Washtenaw County,MI,65.11976047904191,NA,NA
48144,Monroe County,MI,93.7125748502994,NA,NA
48165,Oakland County,MI,NA,95.50321199143468,NA
48178,Oakland County,MI,NA,12.633832976445397,NA
48182,Monroe County,MI,NA,95.07494646680942,NA
48184,Wayne County,MI,NA,24.411134903640257,NA
48189,Washtenaw County,MI,50.1497005988024,NA,NA
48193,Wayne County,MI,NA,51.39186295503212,NA
48197,Washtenaw County,MI,NA,16.488222698072803,NA
48212,Wayne County,MI,NA,40.68522483940043,NA
48221,Wayne County,MI,3.8922155688622757,NA,NA
48223,Wayne County,MI,NA,36.83083511777302,NA
48224,Wayne County,MI,11.526946107784433,NA,NA
48230,Wayne County,MI,NA,33.61884368308351,NA
48234,Wayne County,MI,NA,NA,18.972332015810274
48240,Wayne County,MI,16.61676646706587,NA,NA
48301,Oakland County,MI,NA,61.02783725910065,NA
48304,Oakland County,MI,NA,44.3254817987152,NA
48310,Macomb County,MI,13.023952095808383,NA,NA
48312,Macomb County,MI,19.760479041916167,NA,NA
48313,Macomb County,MI,NA,22.269807280513916,NA
48315,Macomb County,MI,60.17964071856288,NA,NA
48316,Macomb County,MI,NA,39.82869379014989,NA
48317,Macomb County,MI,17.365269461077844,84.1541755888651,NA
48323,Oakland County,MI,99.10179640718563,64.45396145610277,NA
48326,Oakland County,MI,NA,NA,78.65612648221344
48328,Oakland County,MI,NA,28.693790149892934,59.683794466403164
48329,Oakland County,MI,NA,20.985010706638114,NA
48340,Oakland County,MI,90.71856287425149,72.59100642398288,NA
48341,Oakland County,MI,23.502994011976046,63.597430406852254,NA
48342,Oakland County,MI,11.22754491017964,33.83297644539615,NA
48346,Oakland County,MI,30.688622754491018,NA,NA
48348,Oakland County,MI,NA,NA,52.17391304347826
48423,Genesee County,MI,25,NA,NA
48444,Lapeer County,MI,69.61077844311377,NA,NA
48601,Saginaw County,MI,9.431137724550897,NA,NA
48602,Saginaw County,MI,15.419161676646706,NA,NA
48611,Bay County,MI,NA,NA,60.47430830039525
48617,Clare County,MI,59.73053892215569,53.104925053533194,NA
48625,Clare County,MI,22.45508982035928,NA,NA
48708,Bay County,MI,24.550898203592812,NA,NA
48732,Bay County,MI,NA,NA,47.03557312252965
48759,Huron County,MI,66.76646706586826,NA,NA
48813,Eaton County,MI,NA,16.70235546038544,58.89328063241107
48820,Clinton County,MI,57.784431137724546,NA,47.43083003952569
48823,Ingham County,MI,NA,NA,31.620553359683797
48827,Eaton County,MI,NA,30.406852248394006,NA
48840,Ingham County,MI,NA,75.16059957173448,86.56126482213439
48842,Ingham County,MI,31.437125748502993,NA,73.91304347826086
48854,Ingham County,MI,65.41916167664671,NA,NA
48864,Ingham County,MI,60.32934131736527,NA,52.96442687747036
48875,Ionia County,MI,66.46706586826348,81.15631691648822,NA
48888,Montcalm County,MI,NA,98.07280513918629,NA
48910,Ingham County,MI,8.08383233532934,13.062098501070663,73.51778656126481
48911,Ingham County,MI,5.089820359281437,14.132762312633835,NA
48912,Ingham County,MI,NA,57.17344753747323,62.055335968379445
48917,Eaton County,MI,NA,49.67880085653105,36.36363636363637
49002,Kalamazoo County,MI,NA,NA,22.134387351778656
49009,Kalamazoo County,MI,72.45508982035929,NA,NA
49010,Allegan County,MI,35.92814371257485,NA,NA
49015,Calhoun County,MI,39.67065868263473,NA,NA
49036,Branch County,MI,NA,NA,24.110671936758894
49046,Barry County,MI,74.40119760479041,NA,NA
49048,Kalamazoo County,MI,14.071856287425149,NA,NA
49058,Barry County,MI,23.952095808383234,NA,NA
49112,Cass County,MI,NA,NA,90.9090909090909
49120,Berrien County,MI,NA,42.82655246252677,NA
49201,Jackson County,MI,NA,43.25481798715203,NA
49202,Jackson County,MI,54.49101796407185,NA,NA
49224,Calhoun County,MI,NA,NA,64.82213438735178
49251,Ingham County,MI,78.89221556886228,NA,NA
49269,Jackson County,MI,NA,NA,81.42292490118577
49315,Kent County,MI,NA,NA,33.201581027667984
49316,Kent County,MI,NA,NA,51.38339920948617
49319,Kent County,MI,NA,73.23340471092077,NA
49329,Montcalm County,MI,96.40718562874252,NA,NA
49331,Kent County,MI,NA,39.186295503211994,NA
49333,Barry County,MI,57.035928143712574,NA,NA
49348,Allegan County,MI,54.041916167664674,NA,62.845849802371546
49415,Muskegon County,MI,NA,NA,76.28458498023716
49417,Ottawa County,MI,89.37125748502994,56.74518201284796,NA
49419,Allegan County,MI,92.96407185628742,NA,NA
49423,Ottawa County,MI,49.550898203592816,NA,NA
49426,Ottawa County,MI,NA,60.81370449678801,NA
49441,Muskegon County,MI,60.778443113772454,3.640256959314775,NA
49442,Muskegon County,MI,NA,26.33832976445396,27.27272727272727
49444,Muskegon County,MI,NA,20.770877944325484,66.40316205533597
49456,Ottawa County,MI,NA,NA,14.624505928853754
49461,Muskegon County,MI,NA,NA,74.30830039525692
49508,Kent County,MI,20.359281437125748,89.07922912205566,NA
49525,Kent County,MI,29.191616766467064,NA,32.41106719367589
49548,Kent County,MI,NA,41.7558886509636,NA
49601,Wexford County,MI,39.07185628742515,NA,NA
49686,Grand Traverse County,MI,NA,25.481798715203425,NA
49696,Grand Traverse County,MI,NA,61.45610278372591,NA
49855,Marquette County,MI,10.928143712574851,NA,NA
49858,Menominee County,MI,66.01796407185628,NA,NA
55045,Chisago County,MN,NA,61.88436830835118,NA
55056,Chisago County,MN,67.21556886227546,NA,NA
55068,Dakota County,MN,NA,84.58244111349036,NA
55112,Ramsey County,MN,72.30538922155688,NA,NA
55117,Ramsey County,MN,NA,36.61670235546038,NA
55119,Ramsey County,MN,35.17964071856288,NA,NA
55125,Washington County,MN,33.23353293413174,NA,NA
55336,McLeod County,MN,NA,NA,41.10671936758894
55337,Dakota County,MN,28.592814371257486,NA,NA
55343,Hennepin County,MN,92.66467065868264,NA,NA
55403,Hennepin County,MN,86.82634730538922,NA,NA
55404,Hennepin County,MN,78.59281437125748,NA,NA
55406,Hennepin County,MN,95.05988023952095,NA,94.46640316205533
55407,Hennepin County,MN,NA,96.57387580299786,NA
55408,Hennepin County,MN,49.101796407185624,NA,NA
55411,Hennepin County,MN,NA,97.85867237687366,NA
55412,Hennepin County,MN,28.443113772455092,NA,NA
55415,Hennepin County,MN,59.13173652694611,NA,NA
55417,Hennepin County,MN,64.97005988023952,NA,NA
55418,Hennepin County,MN,72.15568862275448,NA,NA
55421,Anoka County,MN,16.766467065868262,NA,NA
55423,Hennepin County,MN,NA,NA,83.79446640316206
55426,Hennepin County,MN,72.90419161676647,NA,NA
55429,Hennepin County,MN,68.562874251497007,NA,NA
55430,Hennepin County,MN,84.4311377245509,NA,NA
55442,Hennepin County,MN,NA,94.00428265524626,NA
55445,Hennepin County,MN,NA,100,NA
55454,Hennepin County,MN,97.60479041916167,NA,NA
55709,Itasca County,MN,94.76047904191617,NA,NA
55720,Carlton County,MN,NA,NA,61.6600790513834
55733,Carlton County,MN,99.8502994011976,NA,NA
55744,Itasca County,MN,53.74251497005989,80.72805139186295,NA
55746,St. Louis County,MN,85.47904191616766,NA,NA
55806,St. Louis County,MN,78.2934131736527,NA,NA
55947,Houston County,MN,86.67664670658682,NA,NA
56001,Blue Earth County,MN,NA,NA,40.71146245059288
56007,Freeborn County,MN,12.125748502994012,NA,NA
56164,Pipestone County,MN,NA,NA,100
56229,Lyon County,MN,97.15568862275448,NA,NA
56401,Crow Wing County,MN,80.53892215568862,80.94218415417559,NA
56425,Crow Wing County,MN,NA,60.38543897216274,NA
56431,Aitkin County,MN,NA,38.32976445396146,NA
56470,Hubbard County,MN,55.83832335329342,NA,NA
56472,Crow Wing County,MN,NA,91.22055674518201,NA
56501,Becker County,MN,NA,52.24839400428265,NA
56560,Clay County,MN,9.131736526946108,NA,NA
56636,Itasca County,MN,NA,79.44325481798715,NA
56701,Pennington County,MN,89.22155688622755,87.79443254817987,58.10276679841897
56716,Polk County,MN,52.99401197604791,NA,NA
38829,Prentiss County,MS,63.92215568862275,NA,NA
39170,Hinds County,MS,86.97604790419162,NA,NA
39218,Rankin County,MS,73.80239520958084,NA,NA
63028,Jefferson County,MO,NA,NA,37.94466403162055
63089,Franklin County,MO,NA,86.93790149892934,NA
63122,St. Louis County,MO,NA,NA,5.533596837944664
63126,St. Louis County,MO,NA,NA,41.50197628458498
63368,St. Charles County,MO,34.13173652694611,NA,NA
63703,Cape Girardeau County,MO,48.80239520958084,NA,NA
63755,Cape Girardeau County,MO,NA,NA,28.85375494071146
63845,Mississippi County,MO,NA,62.31263383297645,NA
64015,Jackson County,MO,9.281437125748502,NA,NA
64016,Jackson County,MO,NA,99.57173447537473,NA
64050,Jackson County,MO,11.976047904191617,85.4389721627409,NA
64052,Jackson County,MO,57.33532934131736,NA,NA
64057,Jackson County,MO,95.20958083832335,NA,NA
64060,Clay County,MO,NA,NA,98.41897233201581
64063,Jackson County,MO,58.982035928143716,NA,NA
64064,Jackson County,MO,NA,NA,97.62845849802372
64079,Platte County,MO,NA,93.14775160599572,NA
64116,Clay County,MO,NA,37.901498929336185,NA
64117,Clay County,MO,78.1437125748503,NA,NA
64118,Clay County,MO,36.07784431137724,NA,NA
64119,Clay County,MO,74.55089820359282,NA,NA
64124,Jackson County,MO,80.688622754491007,NA,NA
64127,Jackson County,MO,20.958083832335326,NA,NA
64130,Jackson County,MO,39.82035928143712,NA,NA
64133,Jackson County,MO,3.143712574850299,NA,NA
64134,Jackson County,MO,51.047904191616766,NA,NA
64138,Jackson County,MO,7.784431137724551,86.7237687366167,NA
64151,Platte County,MO,24.850299401197603,NA,NA
64429,Clinton County,MO,NA,45.182012847965744,NA
64503,Buchanan County,MO,NA,NA,37.54940711462451
64601,Livingston County,MO,NA,NA,19.76284584980237
64735,Henry County,MO,27.395209580838326,NA,NA
65202,Boone County,MO,7.634730538922156,NA,NA
65203,Boone County,MO,81.88622754491018,10.492505353319057,NA
65251,Callaway County,MO,23.502994011976046,NA,NA
65270,Randolph County,MO,50.74850299401198,NA,NA
65807,Greene County,MO,NA,15.417558886509635,4.3478260869565215
59102,Yellowstone County,MT,NA,68.09421841541756,NA
59457,Fergus County,MT,84.58083832335329,68.3083511777302,NA
59715,Gallatin County,MT,NA,NA,15.019762845849801
59870,Ravalli County,MT,NA,68.95074946466809,NA
59901,Flathead County,MT,NA,85.86723768736617,NA
59917,Lincoln County,MT,NA,84.36830835117773,NA
68114,Douglas County,NE,65.71856287425149,NA,NA
89101,Clark County,NV,NA,53.747323340471084,NA
89134,Clark County,NV,69.01197604790418,NA,NA
89408,Lyon County,NV,NA,34.475374732334046,NA
89701,Carson City,NV,31.58682634730539,NA,NA
03253,Belknap County,NH,NA,98.28693790149893,NA
03458,Hillsborough County,NH,NA,93.36188436830835,34.78260869565217
03773,Sullivan County,NH,NA,58.2441113490364,NA
03835,Strafford County,NH,73.05389221556887,NA,NA
03860,Carroll County,NH,99.40119760479041,80.51391862955032,NA
03862,Rockingham County,NH,NA,94.86081370449678,79.44664031620553
07067,Middlesex County,NJ,NA,61.88436830835118,NA
07405,Morris County,NJ,NA,62.95503211991434,NA
07753,Monmouth County,NJ,NA,8.779443254817988,NA
07823,Warren County,NJ,NA,71.5203426124197,NA
07936,Morris County,NJ,79.49101796407186,NA,NA
07950,Morris County,NJ,NA,NA,46.6403162055336
07960,Morris County,NJ,15.119760479041917,NA,NA
08002,Camden County,NJ,88.92215568862275,NA,NA
08004,Camden County,NJ,NA,50.53533190578159,NA
08251,Cape May County,NJ,NA,94.21841541755889,NA
08401,Atlantic County,NJ,0.29940119760479045,NA,NA
08822,Hunterdon County,NJ,18.113772455089823,NA,NA
08865,Warren County,NJ,33.98203592814371,NA,NA
87020,Cibola County,NM,64.82035928143712,NA,NA
87105,Bernalillo County,NM,2.694610778443114,NA,NA
87106,Bernalillo County,NM,45.65868263473054,NA,NA
87571,Taos County,NM,NA,43.0406852248394,NA
10021,New York County,NY,NA,NA,11.462450592885375
10040,New York County,NY,NA,18.41541755888651,NA
10453,Bronx County,NY,21.55688622754491,0.6423982869379015,NA
10454,Bronx County,NY,58.532934131736525,NA,NA
10455,Bronx County,NY,NA,9.421841541755889,9.486166007905137
10456,Bronx County,NY,0,NA,2.371541501976284
10457,Bronx County,NY,36.227544910179645,48.82226980728051,NA
10458,Bronx County,NY,3.44311377245509,40.04282655246253,NA
10462,Bronx County,NY,NA,42.184154175588866,NA
10463,Bronx County,NY,42.06586826347306,66.38115631691649,NA
10469,Bronx County,NY,40.718562874251496,NA,NA
10703,Westchester County,NY,NA,55.0321199143469,NA
11004,Queens County,NY,NA,76.87366167023555,NA
11103,Queens County,NY,NA,52.67665952890792,NA
11205,Kings County,NY,8.982035928143713,NA,NA
11211,Kings County,NY,NA,18.629550321199144,NA
11224,Kings County,NY,NA,NA,1.5810276679841897
11230,Kings County,NY,NA,8.993576017130621,NA
11423,Queens County,NY,42.81437125748503,NA,NA
11434,Queens County,NY,10.479041916167663,NA,NA
11561,Nassau County,NY,NA,29.764453961456105,17.786561264822133
11590,Nassau County,NY,NA,96.78800856531049,NA
11691,Queens County,NY,26.497005988023954,NA,13.043478260869565
11692,Queens County,NY,41.16766467065868,NA,68.77470355731225
11702,Suffolk County,NY,NA,87.15203426124198,NA
11709,Nassau County,NY,NA,NA,99.60474308300395
11716,Suffolk County,NY,NA,83.94004282655246,NA
11767,Suffolk County,NY,NA,97.21627408993577,NA
11768,Suffolk County,NY,NA,NA,92.4901185770751
11772,Suffolk County,NY,NA,25.267665952890795,NA
11798,Suffolk County,NY,84.73053892215569,NA,NA
11901,Suffolk County,NY,NA,NA,97.23320158102767
11933,Suffolk County,NY,NA,NA,58.498023715415016
11940,Suffolk County,NY,NA,98.7152034261242,96.04743083003953
11946,Suffolk County,NY,NA,82.01284796573876,NA
11949,Suffolk County,NY,80.23952095808383,NA,75.09881422924902
11951,Suffolk County,NY,NA,NA,96.44268774703558
11952,Suffolk County,NY,NA,93.79014989293361,NA
12144,Rensselaer County,NY,NA,62.526766595289075,NA
12304,Schenectady County,NY,23.20359281437126,NA,NA
12828,Washington County,NY,NA,58.02997858672377,NA
12832,Washington County,NY,NA,92.93361884368309,64.42687747035573
12901,Clinton County,NY,14.67065868263473,4.710920770877944,NA
12926,Franklin County,NY,NA,90.79229122055675,NA
13027,Onondaga County,NY,9.880239520958083,NA,NA
13041,Onondaga County,NY,57.93413173652695,NA,NA
13045,Cortland County,NY,2.5449101796407185,NA,NA
13053,Tompkins County,NY,67.36526946107784,NA,NA
13069,Oswego County,NY,3.74251497005988,NA,NA
13159,Onondaga County,NY,74.7005988023952,NA,NA
13309,Oneida County,NY,77.09580838323353,NA,NA
13326,Otsego County,NY,NA,NA,26.08695652173913
13329,Herkimer County,NY,NA,99.14346895074947,NA
13335,Otsego County,NY,81.2874251497006,NA,NA
13340,Herkimer County,NY,NA,58.45824411134903,NA
13367,Lewis County,NY,31.886227544910177,NA,NA
13413,Oneida County,NY,NA,28.90792291220557,NA
13439,Otsego County,NY,91.76646706586826,NA,NA
13440,Oneida County,NY,NA,5.139186295503212,NA
13601,Jefferson County,NY,3.293413173652695,NA,NA
13612,Jefferson County,NY,97.45508982035929,NA,NA
13760,Broome County,NY,5.688622754491018,6.423982869379015,85.7707509881423
13778,Chenango County,NY,NA,NA,91.699604743083
13790,Broome County,NY,28.74251497005988,NA,NA
13820,Otsego County,NY,77.24550898203593,47.96573875802998,NA
13833,Broome County,NY,62.125748502994014,NA,NA
13850,Broome County,NY,NA,40.471092077087796,NA
13901,Broome County,NY,16.317365269461078,3.2119914346895073,NA
13905,Broome County,NY,1.1976047904191618,NA,NA
14001,Erie County,NY,NA,71.73447537473233,NA
14020,Genesee County,NY,50,66.16702355460386,NA
14036,Genesee County,NY,NA,92.50535331905782,NA
14086,Erie County,NY,67.51497005988024,NA,NA
14094,Niagara County,NY,23.353293413173652,17.558886509635975,NA
14108,Niagara County,NY,NA,70.02141327623126,NA
14220,Erie County,NY,NA,25.481798715203425,NA
14224,Erie County,NY,NA,8.137044967880087,NA
14305,Niagara County,NY,NA,32.33404710920771,NA
14414,Livingston County,NY,51.796407185628745,NA,NA
14424,Ontario County,NY,1.7964071856287425,NA,NA
14432,Ontario County,NY,29.790419161676645,NA,NA
14433,Wayne County,NY,48.952095808383234,NA,NA
14468,Monroe County,NY,13.922155688622754,NA,NA
14482,Genesee County,NY,43.41317365269461,NA,NA
14513,Wayne County,NY,NA,2.355460385438972,NA
14564,Ontario County,NY,NA,NA,32.41106719367589
14616,Monroe County,NY,NA,7.922912205567452,NA
14620,Monroe County,NY,38.02395209580838,NA,32.015810276679844
14813,Allegany County,NY,78.44311377245509,NA,NA
14817,Tompkins County,NY,91.31736526946108,NA,NA
27011,Yadkin County,NC,73.20359281437125,NA,NA
27312,Chatham County,NC,NA,17.987152034261243,NA
27604,Wake County,NC,NA,74.08993576017131,NA
27713,Durham County,NC,18.562874251497004,NA,NA
28031,Mecklenburg County,NC,89.82035928143712,NA,NA
28092,Lincoln County,NC,17.81437125748503,NA,NA
28364,Robeson County,NC,36.377245508982035,NA,NA
28472,Columbus County,NC,29.94011976047904,39.400428265524624,NA
28601,Catawba County,NC,NA,8.565310492505352,NA
28645,Caldwell County,NC,2.3952095808383236,NA,NA
28665,Wilkes County,NC,98.95209580838323,NA,NA
28704,Buncombe County,NC,56.58682634730538,NA,NA
28719,Jackson County,NC,92.21556886227546,NA,NA
28739,Henderson County,NC,41.61676646706587,NA,NA
28752,McDowell County,NC,12.425149700598801,NA,NA
58078,Cass County,ND,86.07784431137725,NA,NA
58103,Cass County,ND,79.94011976047905,19.05781584582441,83.399209486166
58104,Cass County,ND,24.10179640718563,11.134903640256958,NA
58504,Burleigh County,ND,NA,31.69164882226981,NA
43015,Delaware County,OH,11.077844311377245,NA,NA
43017,Franklin County,OH,50.29940119760479,NA,NA
43054,Franklin County,OH,NA,54.389721627408996,NA
43056,Licking County,OH,30.988023952095805,NA,NA
43123,Franklin County,OH,60.47904191616767,NA,56.916996047430835
43130,Fairfield County,OH,1.0479041916167664,NA,NA
43160,Fayette County,OH,34.73053892215569,NA,NA
43204,Franklin County,OH,NA,NA,34.387351778656125
43213,Franklin County,OH,6.88622754491018,NA,NA
43219,Franklin County,OH,NA,32.76231263383298,NA
43221,Franklin County,OH,55.08982035928144,NA,NA
43224,Franklin County,OH,4.191616766467066,NA,NA
43235,Franklin County,OH,62.72455089820359,NA,NA
43302,Marion County,OH,NA,1.7130620985010707,NA
43351,Wyandot County,OH,NA,43.683083511777305,NA
43402,Wood County,OH,17.065868263473057,NA,NA
43526,Defiance County,OH,38.17365269461078,NA,NA
43551,Wood County,OH,9.580838323353294,NA,NA
43560,Lucas County,OH,94.311377245509,13.9186295503212,NA
43606,Lucas County,OH,NA,NA,39.52569169960474
43608,Lucas County,OH,61.97604790419161,NA,NA
43614,Lucas County,OH,30.538922155688624,NA,NA
43615,Lucas County,OH,57.18562874251497,NA,NA
43724,Noble County,OH,NA,64.23982869379014,NA
43907,Harrison County,OH,88.32335329341318,NA,NA
44001,Lorain County,OH,50.59880239520959,2.7837259100642395,NA
44004,Ashtabula County,OH,1.4970059880239521,NA,0.7905138339920948
44012,Lorain County,OH,90.86826347305389,NA,NA
44022,Cuyahoga County,OH,70.95808383233533,NA,NA
44024,Geauga County,OH,90.5688622754491,NA,NA
44035,Lorain County,OH,1.9461077844311379,NA,NA
44040,Cuyahoga County,OH,NA,96.35974304068522,NA
44044,Lorain County,OH,39.970059880239525,NA,NA
44052,Lorain County,OH,NA,35.76017130620985,NA
44053,Lorain County,OH,5.9880239520958085,6.209850107066381,NA
44055,Lorain County,OH,27.54491017964072,NA,NA
44056,Summit County,OH,75.44910179640718,NA,NA
44087,Summit County,OH,80.688622754491007,NA,NA
44089,Erie County,OH,30.389221556886227,NA,NA
44095,Lake County,OH,67.66467065868264,NA,NA
44102,Cuyahoga County,OH,0.14970059880239522,NA,NA
44107,Cuyahoga County,OH,1.347305389221557,38.54389721627409,NA
44108,Cuyahoga County,OH,NA,5.995717344753747,NA
44112,Cuyahoga County,OH,NA,NA,47.82608695652174
44118,Cuyahoga County,OH,NA,51.605995717344754,NA
44120,Cuyahoga County,OH,29.041916167664674,1.9271948608137044,NA
44122,Cuyahoga County,OH,NA,NA,9.090909090909092
44124,Cuyahoga County,OH,85.32934131736528,20.556745182012847,39.130434782608695
44128,Cuyahoga County,OH,NA,NA,1.185770750988142
44130,Cuyahoga County,OH,17.664670658682635,NA,0
44133,Cuyahoga County,OH,NA,54.17558886509636,NA
44134,Cuyahoga County,OH,25.299401197604794,NA,NA
44138,Cuyahoga County,OH,25.898203592814372,NA,NA
44139,Cuyahoga County,OH,NA,12.419700214132762,NA
44141,Cuyahoga County,OH,71.40718562874252,NA,NA
44143,Cuyahoga County,OH,75.89820359281437,NA,NA
44145,Cuyahoga County,OH,NA,NA,3.1620553359683794
44146,Cuyahoga County,OH,4.940119760479042,NA,NA
44147,Cuyahoga County,OH,39.52095808383233,68.52248394004282,NA
44202,Portage County,OH,87.42514970059881,NA,NA
44221,Summit County,OH,NA,16.916488222698074,7.5098814229249005
44231,Portage County,OH,88.47305389221557,NA,NA
44236,Summit County,OH,NA,22.055674518201286,NA
44266,Portage County,OH,6.736526946107785,6.852248394004283,NA
44312,Summit County,OH,10.62874251497006,NA,NA
44313,Summit County,OH,22.45508982035928,NA,NA
44410,Trumbull County,OH,NA,25.053533190578158,NA
44425,Trumbull County,OH,88.62275449101796,NA,NA
44436,Mahoning County,OH,92.81437125748504,NA,NA
44460,Columbiana County,OH,16.46706586826347,NA,NA
44483,Trumbull County,OH,12.874251497005988,NA,NA
44622,Tuscarawas County,OH,26.79640718562874,NA,NA
44709,Stark County,OH,32.33532934131736,NA,NA
44827,Crawford County,OH,68.11377245508982,NA,NA
44839,Erie County,OH,NA,61.67023554603854,NA
44870,Erie County,OH,NA,NA,3.557312252964427
44875,Richland County,OH,32.33532934131736,NA,NA
44883,Seneca County,OH,14.221556886227546,NA,NA
44904,Richland County,OH,66.1676646706587,NA,NA
44905,Richland County,OH,NA,NA,54.1501976284585
45002,Hamilton County,OH,NA,NA,80.63241106719367
45005,Warren County,OH,NA,16.274089935760173,NA
45011,Butler County,OH,1.6467065868263475,NA,NA
45044,Butler County,OH,4.04191616766467,NA,NA
45107,Clinton County,OH,NA,NA,81.81818181818183
45140,Clermont County,OH,NA,NA,16.600790513833992
45305,Greene County,OH,NA,NA,76.6798418972332
45309,Montgomery County,OH,NA,50.107066381156315,NA
45315,Montgomery County,OH,NA,89.50749464668094,NA
45320,Preble County,OH,32.634730538922156,34.26124197002141,NA
45322,Montgomery County,OH,NA,41.97002141327623,NA
45324,Greene County,OH,46.55688622754491,16.916488222698074,14.229249011857709
45335,Greene County,OH,83.53293413173652,NA,NA
45342,Montgomery County,OH,NA,NA,16.205533596837945
45347,Preble County,OH,63.02395209580839,NA,NA
45371,Miami County,OH,NA,20.342612419700217,26.877470355731226
45373,Miami County,OH,22.305389221556887,NA,NA
45377,Montgomery County,OH,58.08383233532935,83.5117773019272,NA
45381,Preble County,OH,NA,NA,70.35573122529645
45402,Montgomery County,OH,NA,70.44967880085653,73.12252964426878
45403,Montgomery County,OH,30.239520958083833,NA,NA
45404,Montgomery County,OH,NA,85.65310492505354,89.72332015810277
45405,Montgomery County,OH,47.90419161676647,NA,NA
45406,Montgomery County,OH,11.826347305389222,NA,50.988142292490124
45410,Montgomery County,OH,NA,52.890792291220556,NA
45414,Montgomery County,OH,NA,NA,88.14229249011858
45416,Montgomery County,OH,NA,NA,85.37549407114624
45417,Montgomery County,OH,26.34730538922156,59.100642398286936,69.56521739130434
45419,Montgomery County,OH,NA,NA,56.52173913043478
45420,Montgomery County,OH,20.65868263473054,37.25910064239829,NA
45424,Montgomery County,OH,30.83832335329341,9.850107066381156,59.28853754940712
45426,Montgomery County,OH,NA,59.743040685224834,46.24505928853755
45429,Montgomery County,OH,NA,NA,12.25296442687747
45431,Montgomery County,OH,NA,NA,30.434782608695656
45439,Montgomery County,OH,NA,62.74089935760171,NA
45449,Montgomery County,OH,29.491017964071858,NA,66.00790513833992
45458,Montgomery County,OH,58.83233532934131,NA,55.73122529644269
45459,Montgomery County,OH,NA,21.199143468950748,45.059288537549406
45502,Clark County,OH,NA,49.03640256959314,NA
45503,Clark County,OH,NA,11.991434689507495,NA
45612,Ross County,OH,70.35928143712576,NA,NA
45631,Gallia County,OH,57.63473053892215,10.278372591006423,NA
45656,Jackson County,OH,83.38323353293413,53.96145610278372,NA
45692,Jackson County,OH,56.287425149700596,NA,NA
45694,Scioto County,OH,22.005988023952096,NA,NA
45701,Athens County,OH,NA,70.2355460385439,NA
45714,Washington County,OH,NA,NA,25.691699604743086
45750,Washington County,OH,33.08383233532935,NA,NA
45822,Mercer County,OH,NA,NA,15.41501976284585
73013,Oklahoma County,OK,NA,NA,5.928853754940711
73044,Logan County,OK,NA,13.704496788008566,NA
73064,Canadian County,OK,NA,65.0963597430407,NA
73068,Cleveland County,OK,58.23353293413174,NA,NA
73098,Garvin County,OK,NA,91.64882226980728,NA
73105,Oklahoma County,OK,85.62874251497006,NA,NA
73115,Oklahoma County,OK,48.65269461077844,NA,NA
73120,Oklahoma County,OK,NA,26.98072805139186,NA
73139,Oklahoma County,OK,NA,52.03426124197003,NA
73159,Oklahoma County,OK,NA,NA,67.19367588932806
73170,Cleveland County,OK,NA,NA,5.138339920948617
73505,Comanche County,OK,17.964071856287426,NA,NA
74008,Tulsa County,OK,55.23952095808383,NA,NA
74010,Creek County,OK,NA,65.73875802997858,NA
74021,Tulsa County,OK,NA,96.1456102783726,NA
74036,Rogers County,OK,61.82634730538922,NA,NA
74053,Rogers County,OK,100,NA,NA
74055,Tulsa County,OK,45.05988023952096,80.29978586723769,NA
74106,Tulsa County,OK,NA,80.08565310492506,NA
74110,Tulsa County,OK,NA,NA,82.6086956521739
74114,Tulsa County,OK,NA,53.319057815845824,71.14624505928853
74129,Tulsa County,OK,NA,67.02355460385438,NA
74136,Tulsa County,OK,NA,NA,23.3201581027668
74146,Tulsa County,OK,53.89221556886228,NA,NA
74436,Muskogee County,OK,NA,NA,81.81818181818183
74441,Cherokee County,OK,88.77245508982035,NA,NA
74464,Cherokee County,OK,27.844311377245507,18.201284796573873,NA
74501,Pittsburg County,OK,42.365269461077844,NA,NA
74571,Le Flore County,OK,NA,75.58886509635975,NA
74631,Kay County,OK,70.50898203592814,NA,NA
74960,Adair County,OK,20.508982035928145,NA,NA
97005,Washington County,OR,NA,59.95717344753747,NA
97045,Clackamas County,OR,NA,NA,43.08300395256917
97080,Multnomah County,OR,NA,19.914346895074946,NA
97132,Yamhill County,OR,31.736526946107784,NA,25.296442687747035
97206,Multnomah County,OR,61.67664670658682,NA,NA
97211,Multnomah County,OR,NA,71.09207708779444,NA
97213,Multnomah County,OR,77.84431137724552,NA,NA
97223,Washington County,OR,22.15568862275449,NA,NA
97225,Washington County,OR,NA,NA,44.26877470355731
97229,Washington County,OR,NA,NA,92.09486166007905
97301,Marion County,OR,NA,23.768736616702355,NA
97302,Marion County,OR,35.029940119760475,NA,55.33596837944664
97321,Linn County,OR,63.772455089820355,23.768736616702355,NA
97322,Linn County,OR,87.27544910179641,NA,NA
97330,Benton County,OR,NA,26.124197002141326,NA
97333,Benton County,OR,76.19760479041916,NA,72.33201581027669
97355,Linn County,OR,NA,5.781584582441114,NA
97365,Lincoln County,OR,NA,NA,44.26877470355731
97402,Lane County,OR,NA,28.4796573875803,NA
97415,Curry County,OR,38.622754491017965,NA,NA
97444,Curry County,OR,NA,63.811563169164884,NA
97467,Douglas County,OR,75.59880239520959,NA,NA
97471,Douglas County,OR,13.622754491017963,NA,NA
97624,Klamath County,OR,NA,71.30620985010707,NA
97838,Umatilla County,OR,NA,15.631691648822269,NA
15005,Beaver County,PA,NA,65.95289079229121,NA
15129,Allegheny County,PA,66.31736526946108,NA,NA
15213,Allegheny County,PA,NA,NA,29.64426877470356
15216,Allegheny County,PA,NA,44.75374732334047,NA
15317,Washington County,PA,22.904191616766468,NA,NA
15601,Westmoreland County,PA,16.16766467065868,0.8565310492505354,NA
15650,Westmoreland County,PA,11.676646706586826,16.059957173447536,NA
15801,Clearfield County,PA,NA,NA,2.766798418972332
15857,Elk County,PA,NA,51.17773019271949,NA
16101,Lawrence County,PA,NA,NA,13.438735177865613
16441,Erie County,PA,66.61676646706587,63.38329764453962,NA
16508,Erie County,PA,43.712574850299404,NA,NA
16601,Blair County,PA,NA,34.04710920770878,NA
16602,Blair County,PA,69.311377245509,NA,NA
16693,Blair County,PA,NA,92.71948608137045,NA
16933,Tioga County,PA,NA,82.01284796573876,NA
17022,Lancaster County,PA,64.22155688622755,58.886509635974306,9.486166007905137
17025,Cumberland County,PA,27.095808383233532,NA,NA
17104,Dauphin County,PA,NA,NA,77.07509881422925
17110,Dauphin County,PA,38.32335329341318,NA,NA
17111,Dauphin County,PA,12.724550898203594,NA,NA
17112,Dauphin County,PA,NA,5.353319057815846,NA
17319,York County,PA,55.53892215568862,NA,NA
17350,Adams County,PA,NA,81.15631691648822,NA
17701,Lycoming County,PA,53.293413173652695,46.25267665952891,NA
17740,Lycoming County,PA,43.11377245508982,NA,NA
17752,Lycoming County,PA,92.06586826347305,NA,NA
17824,Northumberland County,PA,NA,NA,87.35177865612648
17872,Northumberland County,PA,32.78443113772455,NA,NA
18015,Northampton County,PA,6.58682634730539,NA,NA
18017,Northampton County,PA,NA,85.22483940042827,89.32806324110672
18031,Lehigh County,PA,64.52095808383234,NA,NA
18036,Lehigh County,PA,NA,NA,98.02371541501977
18064,Northampton County,PA,NA,23.340471092077088,NA
18073,Montgomery County,PA,65.11976047904191,NA,NA
18080,Lehigh County,PA,NA,98.50107066381156,NA
18104,Lehigh County,PA,10.179640718562874,NA,NA
18109,Lehigh County,PA,20.209580838323355,NA,NA
18201,Luzerne County,PA,NA,73.66167023554604,NA
18222,Luzerne County,PA,NA,77.94432548179871,NA
18504,Lackawanna County,PA,NA,NA,77.86561264822134
18508,Lackawanna County,PA,49.25149700598803,NA,NA
18509,Lackawanna County,PA,47.1556886227545,NA,NA
18512,Lackawanna County,PA,51.646706586826355,NA,NA
18610,Monroe County,PA,NA,NA,91.30434782608695
18704,Luzerne County,PA,NA,12.84796573875803,NA
18944,Bucks County,PA,68.8622754491018,NA,NA
19020,Bucks County,PA,NA,37.04496788008566,NA
19066,Montgomery County,PA,72.60479041916167,NA,NA
19150,Philadelphia County,PA,25.449101796407188,NA,NA
19380,Chester County,PA,8.532934131736528,NA,NA
19382,Chester County,PA,11.22754491017964,8.35117773019272,NA
19405,Montgomery County,PA,96.8562874251497,NA,NA
19522,Berks County,PA,NA,NA,45.8498023715415
19560,Berks County,PA,NA,NA,68.37944664031622
19602,Berks County,PA,NA,29.1220556745182,NA
19605,Berks County,PA,NA,NA,18.972332015810274
19606,Berks County,PA,NA,NA,11.067193675889328
19608,Berks County,PA,NA,22.91220556745182,38.3399209486166
19610,Berks County,PA,NA,NA,20.948616600790515
02816,Kent County,RI,21.25748502994012,NA,NA
02878,Newport County,RI,NA,NA,54.54545454545454
02893,Kent County,RI,29.34131736526946,22.698072805139187,NA
29301,Spartanburg County,SC,24.70059880239521,NA,NA
29577,Horry County,SC,NA,NA,43.873517786561266
57106,Minnehaha County,SD,NA,6.638115631691649,NA
57401,Brown County,SD,14.37125748502994,NA,0.3952569169960474
37075,Sumner County,TN,13.17365269461078,NA,NA
37211,Davidson County,TN,77.9940119760479,NA,NA
37321,Rhea County,TN,22.75449101796407,NA,NA
37341,Hamilton County,TN,NA,67.6659528907923,NA
37663,Sullivan County,TN,NA,NA,60.86956521739131
37664,Sullivan County,TN,NA,76.65952890792292,NA
37745,Greene County,TN,19.91017964071856,NA,NA
37774,Loudon County,TN,NA,NA,24.90118577075099
37807,Union County,TN,58.38323353293413,NA,NA
37818,Greene County,TN,68.7125748502994,NA,NA
37821,Cocke County,TN,NA,27.8372591006424,NA
37841,Scott County,TN,62.5748502994012,NA,NA
37862,Sevier County,TN,NA,45.182012847965744,NA
37876,Sevier County,TN,27.994011976047904,NA,NA
37890,Jefferson County,TN,NA,70.8779443254818,NA
37918,Knox County,TN,10.179640718562874,21.627408993576015,NA
38028,Fayette County,TN,NA,85.01070663811564,NA
38305,Madison County,TN,NA,10.706638115631693,NA
75020,Grayson County,TX,39.221556886227546,NA,NA
75040,Dallas County,TX,14.520958083832337,NA,NA
75087,Rockwall County,TX,33.68263473053892,NA,NA
75115,Dallas County,TX,17.514970059880238,19.700214132762312,NA
75117,Van Zandt County,TX,96.7065868263473,NA,NA
75126,Kaufman County,TX,52.84431137724551,NA,NA
75189,Rockwall County,TX,36.97604790419162,NA,NA
75241,Dallas County,TX,NA,NA,49.01185770750988
75455,Titus County,TX,NA,66.59528907922912,NA
75474,Hunt County,TX,NA,82.44111349036403,NA
75605,Gregg County,TX,44.461077844311376,NA,NA
75703,Smith County,TX,25.149700598802394,NA,NA
75862,Trinity County,TX,NA,67.45182012847965,NA
75901,Angelina County,TX,NA,NA,31.225296442687743
76010,Tarrant County,TX,13.47305389221557,NA,NA
76033,Johnson County,TX,89.67065868263472,NA,NA
76048,Hood County,TX,35.62874251497006,NA,NA
76504,Bell County,TX,NA,1.4989293361884368,NA
76513,Bell County,TX,6.437125748502994,NA,NA
76691,McLennan County,TX,NA,NA,94.0711462450593
77043,Harris County,TX,90.41916167664671,NA,NA
77061,Harris County,TX,61.52694610778443,NA,NA
77082,Harris County,TX,41.01796407185629,NA,NA
77339,Harris County,TX,NA,36.188436830835116,NA
77357,Montgomery County,TX,51.94610778443114,NA,NA
77365,Montgomery County,TX,NA,83.08351177730194,NA
77382,Montgomery County,TX,52.69461077844312,NA,NA
77388,Harris County,TX,37.12574850299401,NA,NA
77429,Harris County,TX,7.934131736526946,4.068522483940043,NA
77433,Harris County,TX,8.832335329341317,NA,NA
77531,Brazoria County,TX,NA,70.66381156316916,NA
77550,Galveston County,TX,NA,57.601713062098504,NA
77566,Brazoria County,TX,NA,40.25695931477516,NA
77836,Burleson County,TX,55.23952095808383,NA,NA
78061,Frio County,TX,86.37724550898204,NA,84.18972332015811
78653,Travis County,TX,63.32335329341318,NA,NA
78723,Travis County,TX,95.95808383233533,NA,NA
78730,Travis County,TX,83.98203592814372,NA,NA
78732,Travis County,TX,97.90419161676647,NA,NA
78735,Travis County,TX,85.02994011976048,NA,NA
78942,Lee County,TX,NA,NA,66.79841897233202
79424,Lubbock County,TX,NA,9.207708779443255,NA
79714,Andrews County,TX,46.8562874251497,NA,NA
84065,Salt Lake County,UT,31.2874251497006,NA,NA
84074,Tooele County,UT,2.844311377245509,NA,NA
84108,Salt Lake County,UT,72.75449101796407,NA,NA
84121,Salt Lake County,UT,60.62874251497006,NA,NA
84653,Utah County,UT,NA,89.93576017130621,NA
05443,Addison County,VT,NA,88.6509635974304,NA
05468,Chittenden County,VT,56.137724550898206,NA,NA
05478,Franklin County,VT,NA,30.620985010706637,NA
20191,Fairfax County,VA,NA,55.6745182012848,NA
22407,Spotsylvania County,VA,NA,46.466809421841546,NA
22603,Frederick County,VA,73.50299401197606,NA,NA
22801,Harrisonburg city,VA,34.4311377245509,NA,NA
22901,Albemarle County,VA,NA,NA,4.743083003952568
22902,Charlottesville city,VA,19.01197604790419,NA,NA
22903,Charlottesville city,VA,NA,NA,28.063241106719367
23060,Henrico County,VA,83.68263473053892,NA,NA
23117,Louisa County,VA,69.46107784431138,NA,NA
23120,Chesterfield County,VA,88.17365269461078,NA,NA
23220,Richmond city,VA,51.34730538922155,NA,NA
23227,Henrico County,VA,NA,59.52890792291221,NA
23238,Henrico County,VA,75.74850299401199,NA,NA
23601,Newport News city,VA,94.91017964071857,NA,NA
23669,Hampton city,VA,80.38922155688623,NA,NA
23805,Petersburg city,VA,NA,NA,56.126482213438734
23901,Prince Edward County,VA,49.700598802395206,NA,NA
24012,Roanoke city,VA,51.49700598802395,NA,NA
24064,Botetourt County,VA,88.02395209580838,NA,NA
24065,Franklin County,VA,NA,86.50963597430406,NA
24073,Montgomery County,VA,NA,NA,38.73517786561265
24084,Pulaski County,VA,68.11377245508982,NA,NA
24175,Botetourt County,VA,82.63473053892216,NA,NA
24179,Roanoke County,VA,65.5688622754491,NA,NA
24370,Smyth County,VA,67.06586826347305,NA,NA
24523,Bedford County,VA,NA,NA,28.458498023715418
98011,King County,WA,NA,79.22912205567452,NA
98012,Snohomish County,WA,NA,26.76659528907923,NA
98030,King County,WA,NA,NA,69.1699604743083
98034,King County,WA,NA,13.276231263383298,NA
98037,Snohomish County,WA,51.19760479041916,NA,NA
98040,King County,WA,79.34131736526946,NA,NA
98042,King County,WA,NA,10.920770877944326,NA
98058,King County,WA,NA,21.413276231263385,NA
98059,King County,WA,37.87425149700599,NA,NA
98072,King County,WA,NA,48.394004282655246,NA
98103,King County,WA,NA,NA,67.98418972332016
98121,King County,WA,NA,55.24625267665952,NA
98199,King County,WA,NA,NA,49.40711462450593
98201,Snohomish County,WA,NA,41.113490364025694,NA
98223,Snohomish County,WA,19.16167664670659,NA,NA
98233,Skagit County,WA,NA,46.03854389721627,NA
98270,Snohomish County,WA,14.97005988023952,NA,NA
98273,Skagit County,WA,NA,14.5610278372591,NA
98274,Skagit County,WA,91.01796407185628,NA,NA
98277,Island County,WA,38.92215568862276,NA,NA
98292,Snohomish County,WA,NA,NA,51.77865612648221
98332,Pierce County,WA,NA,45.82441113490364,NA
98346,Kitsap County,WA,99.25149700598801,NA,NA
98363,Clallam County,WA,77.54491017964071,NA,NA
98373,Pierce County,WA,56.886227544910184,NA,NA
98579,Thurston County,WA,80.98802395209582,NA,NA
98584,Mason County,WA,NA,19.48608137044968,NA
98625,Cowlitz County,WA,NA,99.78586723768737,NA
98632,Cowlitz County,WA,15.269461077844312,88.43683083511777,NA
98661,Clark County,WA,40.26946107784431,NA,33.59683794466403
98855,Okanogan County,WA,76.94610778443113,NA,NA
98908,Yakima County,WA,NA,NA,7.114624505928854
98944,Yakima County,WA,70.65868263473054,NA,NA
99337,Benton County,WA,NA,7.494646680942184,NA
99354,Benton County,WA,33.83233532934132,NA,NA
20007,District of Columbia,DC,NA,NA,57.70750988142292
20008,District of Columbia,DC,NA,61.24197002141327,NA
24901,Greenbrier County,WV,NA,76.23126338329764,NA
25071,Kanawha County,WV,69.76047904191617,NA,NA
25143,Kanawha County,WV,50.44910179640718,57.38758029978587,NA
25387,Kanawha County,WV,NA,64.66809421841542,NA
25401,Berkeley County,WV,NA,31.049250535331907,NA
25403,Berkeley County,WV,60.928143712574844,NA,NA
25504,Cabell County,WV,47.75449101796407,NA,NA
25526,Putnam County,WV,NA,35.54603854389722,NA
25541,Cabell County,WV,NA,65.31049250535332,NA
25813,Raleigh County,WV,80.98802395209582,NA,NA
26301,Harrison County,WV,5.389221556886228,NA,NA
26452,Lewis County,WV,NA,NA,77.4703557312253
26505,Monongalia County,WV,NA,7.28051391862955,NA
26537,Preston County,WV,47.30538922155689,NA,NA
53029,Waukesha County,WI,73.95209580838323,NA,NA
53074,Ozaukee County,WI,99.7005988023952,NA,99.2094861660079
53209,Milwaukee County,WI,NA,43.897216274089935,NA
53210,Milwaukee County,WI,5.838323353293413,NA,NA
53212,Milwaukee County,WI,NA,42.398286937901496,NA
53225,Milwaukee County,WI,7.48502994011976,NA,NA
53405,Racine County,WI,4.790419161676647,NA,NA
53406,Racine County,WI,10.778443113772456,NA,NA
53511,Rock County,WI,71.7065868263473,NA,NA
53546,Rock County,WI,13.77245508982036,25.910064239828696,NA
53705,Dane County,WI,NA,41.113490364025694,NA
53950,Juneau County,WI,NA,91.43468950749465,NA
54002,St. Croix County,WI,NA,94.64668094218416,NA
54017,St. Croix County,WI,NA,34.68950749464668,NA
54130,Outagamie County,WI,82.03592814371258,NA,NA
54156,Marinette County,WI,97.0059880239521,NA,NA
54220,Manitowoc County,WI,38.772455089820355,NA,NA
54235,Door County,WI,NA,NA,13.83399209486166
54451,Taylor County,WI,NA,57.81584582441114,NA
54487,Lincoln County,WI,42.66467065868264,NA,NA
54601,La Crosse County,WI,5.538922155688622,12.205567451820128,NA
54603,La Crosse County,WI,NA,78.15845824411134,NA
54630,Trempealeau County,WI,NA,NA,95.25691699604744
54656,Monroe County,WI,NA,36.402569593147746,88.93280632411067
54660,Monroe County,WI,NA,87.36616702355461,NA
54661,Trempealeau County,WI,96.25748502994011,NA,NA
54982,Waushara County,WI,62.27544910179641,NA,NA
82609,Natrona County,WY,NA,NA,65.61264822134387
