ZipCode,county,state,Adult,Retirement,Geriatric
35049,Blount County,AL,NA,99.77477477477478,NA
35401,Tuscaloosa County,AL,NA,16.666666666666664,NA
35555,Fayette County,AL,NA,NA,39.800995024875625
35630,Lauderdale County,AL,NA,59.009009009009006,NA
35654,Franklin County,AL,NA,NA,85.57213930348259
35674,Colbert County,AL,55.460750853242324,NA,NA
35769,Jackson County,AL,79.5221843003413,NA,NA
36567,Baldwin County,AL,52.389078498293514,NA,NA
36606,Mobile County,AL,NA,64.86486486486487,NA
36869,Russell County,AL,69.6245733788396,NA,NA
99501,Anchorage Municipality,AK,80.2047781569966,90.54054054054053,NA
99502,Anchorage Municipality,AK,94.88054607508532,NA,NA
99503,Anchorage Municipality,AK,76.45051194539249,NA,NA
99504,Anchorage Municipality,AK,NA,NA,44.776119402985074
99507,Anchorage Municipality,AK,28.668941979522184,NA,NA
99508,Anchorage Municipality,AK,NA,NA,48.756218905472636
99517,Anchorage Municipality,AK,75.0853242320819,NA,70.64676616915423
99518,Anchorage Municipality,AK,NA,74.32432432432432,NA
99577,Anchorage Municipality,AK,92.4914675767918,NA,NA
99709,Fairbanks North Star Borough,AK,NA,81.98198198198197,NA
85143,Pinal County,AZ,30.546075085324233,NA,NA
85204,Maricopa County,AZ,12.457337883959044,NA,NA
85205,Maricopa County,AZ,NA,51.57657657657657,NA
85331,Maricopa County,AZ,NA,71.3963963963964,NA
85353,Maricopa County,AZ,27.986348122866893,NA,NA
85373,Maricopa County,AZ,NA,NA,15.92039800995025
85396,Maricopa County,AZ,72.01365187713311,NA,NA
85706,Pima County,AZ,1.5358361774744027,NA,NA
85714,Pima County,AZ,NA,49.32432432432432,NA
85746,Pima County,AZ,NA,29.954954954954953,NA
85901,Navajo County,AZ,NA,21.62162162162162,NA
86314,Yavapai County,AZ,NA,17.56756756756757,9.45273631840796
86326,Yavapai County,AZ,NA,49.549549549549546,NA
86401,Mohave County,AZ,81.91126279863481,NA,NA
86409,Mohave County,AZ,7.508532423208192,NA,NA
71742,Dallas County,AR,NA,81.75675675675676,NA
71901,Garland County,AR,40.44368600682594,NA,NA
72031,Van Buren County,AR,93.1740614334471,NA,NA
72058,Faulkner County,AR,84.30034129692832,NA,NA
72416,Craighead County,AR,74.57337883959045,NA,NA
72454,Clay County,AR,NA,70.04504504504504,NA
72855,Logan County,AR,77.13310580204778,NA,NA
90241,Los Angeles County,CA,68.77133105802048,NA,NA
90254,Los Angeles County,CA,71.84300341296928,NA,NA
90275,Los Angeles County,CA,NA,32.65765765765766,NA
90503,Los Angeles County,CA,43.1740614334471,NA,NA
90604,Los Angeles County,CA,NA,NA,27.860696517412936
90621,Orange County,CA,NA,51.80180180180181,NA
90712,Los Angeles County,CA,NA,42.792792792792795,NA
90804,Los Angeles County,CA,38.395904436860064,NA,NA
90808,Los Angeles County,CA,49.48805460750853,NA,NA
91710,San Bernardino County,CA,NA,15.765765765765765,NA
92024,San Diego County,CA,35.153583617747444,NA,NA
92065,San Diego County,CA,64.67576791808874,NA,NA
92127,San Diego County,CA,NA,58.78378378378378,NA
92211,Riverside County,CA,NA,69.81981981981981,0
92234,Riverside County,CA,NA,15.315315315315313,NA
92260,Riverside County,CA,NA,40.090090090090094,NA
92345,San Bernardino County,CA,NA,NA,21.393034825870647
92373,San Bernardino County,CA,56.655290102389074,NA,NA
92376,San Bernardino County,CA,NA,12.612612612612612,NA
92404,San Bernardino County,CA,14.675767918088736,NA,NA
92407,San Bernardino County,CA,15.699658703071673,NA,NA
92506,Riverside County,CA,NA,35.810810810810814,NA
92508,Riverside County,CA,69.7952218430034,NA,NA
92557,Riverside County,CA,NA,NA,54.22885572139303
92660,Orange County,CA,NA,33.33333333333333,NA
92807,Orange County,CA,49.31740614334471,NA,NA
93003,Ventura County,CA,NA,NA,9.950248756218906
93004,Ventura County,CA,70.13651877133105,NA,NA
93023,Ventura County,CA,NA,73.42342342342343,NA
93030,Ventura County,CA,NA,48.1981981981982,24.875621890547265
93033,Ventura County,CA,NA,33.33333333333333,NA
93036,Ventura County,CA,24.914675767918087,NA,NA
93221,Tulare County,CA,NA,NA,90.54726368159204
93274,Tulare County,CA,5.1194539249146755,NA,NA
93291,Tulare County,CA,NA,29.27927927927928,NA
93304,Kern County,CA,18.43003412969283,NA,NA
93401,San Luis Obispo County,CA,NA,71.62162162162163,NA
93402,San Luis Obispo County,CA,NA,65.76576576576578,NA
93420,San Luis Obispo County,CA,NA,38.96396396396396,NA
93442,San Luis Obispo County,CA,85.49488054607508,NA,NA
93454,Santa Barbara County,CA,25.25597269624573,NA,NA
93458,Santa Barbara County,CA,12.627986348122866,NA,NA
93561,Kern County,CA,NA,72.07207207207207,NA
93611,Fresno County,CA,NA,27.25225225225225,NA
94066,San Mateo County,CA,NA,6.531531531531531,NA
94070,San Mateo County,CA,67.74744027303754,NA,NA
94114,San Francisco County,CA,41.12627986348123,NA,NA
94115,San Francisco County,CA,NA,59.68468468468468,NA
94123,San Francisco County,CA,NA,NA,98.00995024875621
94590,Solano County,CA,NA,21.17117117117117,NA
94597,Contra Costa County,CA,59.72696245733788,NA,NA
94607,Alameda County,CA,NA,65.990990990991,NA
95020,Santa Clara County,CA,53.92491467576792,NA,NA
95035,Santa Clara County,CA,77.64505119453925,NA,NA
95121,Santa Clara County,CA,NA,82.88288288288288,NA
95252,Calaveras County,CA,71.160409556314,NA,NA
95341,Merced County,CA,49.829351535836174,NA,NA
95350,Stanislaus County,CA,NA,9.684684684684685,NA
95472,Sonoma County,CA,70.4778156996587,NA,NA
95501,Humboldt County,CA,45.22184300341297,NA,NA
95519,Humboldt County,CA,60.40955631399317,NA,NA
95762,El Dorado County,CA,NA,29.504504504504503,NA
95901,Yuba County,CA,NA,43.468468468468465,NA
95969,Butte County,CA,26.27986348122867,NA,NA
96007,Shasta County,CA,NA,50.45045045045045,NA
96021,Tehama County,CA,NA,NA,51.243781094527364
96097,Siskiyou County,CA,NA,48.64864864864865,NA
80011,Arapahoe County,CO,6.484641638225256,NA,NA
80020,Broomfield County,CO,NA,58.108108108108105,NA
80112,Arapahoe County,CO,46.075085324232084,NA,NA
80113,Arapahoe County,CO,50.170648464163826,NA,NA
80124,Douglas County,CO,96.75767918088737,NA,NA
80229,Adams County,CO,NA,36.03603603603604,NA
80230,Denver County,CO,91.29692832764505,NA,NA
80233,Adams County,CO,20.819112627986346,79.5045045045045,NA
80234,Adams County,CO,NA,56.30630630630631,NA
80465,Jefferson County,CO,75.42662116040955,NA,NA
80526,Larimer County,CO,NA,NA,32.33830845771145
80528,Larimer County,CO,45.90443686006826,NA,NA
80631,Weld County,CO,7.679180887372014,NA,NA
80634,Weld County,CO,82.25255972696246,NA,NA
80734,Phillips County,CO,89.07849829351537,NA,NA
80816,Teller County,CO,83.61774744027304,NA,NA
81004,Pueblo County,CO,NA,NA,38.308457711442784
81005,Pueblo County,CO,NA,NA,32.83582089552239
81007,Pueblo County,CO,NA,34.68468468468468,NA
81067,Otero County,CO,NA,99.09909909909909,NA
81226,Fremont County,CO,NA,95.4954954954955,NA
81505,Mesa County,CO,78.49829351535837,NA,NA
06010,Hartford County,CT,NA,0.6756756756756757,NA
06255,Windham County,CT,NA,80.85585585585585,NA
06450,New Haven County,CT,NA,8.333333333333332,NA
06489,Hartford County,CT,52.73037542662116,NA,NA
06905,Fairfield County,CT,65.35836177474403,NA,NA
19701,New Castle County,DE,21.672354948805463,NA,NA
19702,New Castle County,DE,13.310580204778159,14.63963963963964,NA
19803,New Castle County,DE,NA,42.34234234234234,NA
19804,New Castle County,DE,23.037542662116042,NA,NA
19950,Sussex County,DE,73.20819112627987,NA,NA
32096,Hamilton County,FL,NA,95.94594594594594,NA
32129,Volusia County,FL,NA,58.55855855855856,NA
32244,Duval County,FL,NA,36.26126126126126,NA
32250,Duval County,FL,NA,78.15315315315316,24.378109452736318
32256,Duval County,FL,27.815699658703068,NA,NA
32277,Duval County,FL,NA,90.990990990991,NA
32407,Bay County,FL,NA,77.25225225225225,NA
32433,Walton County,FL,71.50170648464163,NA,NA
32526,Escambia County,FL,12.286689419795222,NA,NA
32565,Santa Rosa County,FL,68.25938566552901,NA,NA
32571,Santa Rosa County,FL,NA,9.90990990990991,NA
32955,Brevard County,FL,43.515358361774744,NA,NA
33133,Miami-Dade County,FL,NA,32.432432432432435,NA
33477,Palm Beach County,FL,NA,92.11711711711712,NA
33714,Pinellas County,FL,47.95221843003413,NA,NA
33762,Pinellas County,FL,NA,95.04504504504504,NA
33764,Pinellas County,FL,37.03071672354949,NA,NA
33841,Polk County,FL,NA,81.30630630630631,NA
33908,Lee County,FL,NA,45.04504504504504,NA
33916,Lee County,FL,33.27645051194539,NA,NA
34609,Hernando County,FL,26.791808873720136,NA,NA
34638,Pasco County,FL,NA,81.08108108108108,NA
34655,Pasco County,FL,28.327645051194537,NA,NA
34983,St. Lucie County,FL,NA,22.52252252252252,NA
34996,Martin County,FL,NA,55.63063063063063,NA
30043,Gwinnett County,GA,17.918088737201366,NA,NA
30052,Walton County,GA,NA,69.5945945945946,NA
30102,Cherokee County,GA,40.27303754266212,NA,NA
30122,Douglas County,GA,48.29351535836178,NA,NA
30179,Carroll County,GA,49.658703071672356,NA,NA
30215,Fayette County,GA,51.5358361774744,NA,NA
30292,Pike County,GA,NA,86.03603603603604,NA
30294,DeKalb County,GA,36.00682593856656,NA,NA
30310,Fulton County,GA,NA,12.162162162162163,NA
30349,Fulton County,GA,NA,7.4324324324324325,NA
30434,Jefferson County,GA,94.02730375426621,NA,NA
30506,Hall County,GA,24.40273037542662,NA,NA
30540,Gilmer County,GA,NA,34.909909909909906,NA
30909,Richmond County,GA,NA,43.91891891891892,NA
31312,Effingham County,GA,66.72354948805462,NA,NA
31605,Lowndes County,GA,NA,64.41441441441441,NA
31904,Muscogee County,GA,NA,14.864864864864865,NA
83338,Jerome County,ID,NA,51.35135135135135,NA
83401,Bonneville County,ID,NA,34.234234234234236,NA
83616,Ada County,ID,NA,6.306306306306306,NA
83642,Ada County,ID,42.83276450511945,NA,NA
83651,Canyon County,ID,15.358361774744028,NA,NA
83686,Canyon County,ID,NA,NA,2.9850746268656714
83703,Ada County,ID,NA,86.71171171171171,NA
83704,Ada County,ID,71.33105802047781,NA,NA
83705,Ada County,ID,NA,11.036036036036036,NA
83843,Latah County,ID,74.74402730375427,NA,NA
60007,Cook County,IL,NA,13.513513513513514,NA
60018,Cook County,IL,NA,NA,63.681592039801
60025,Cook County,IL,61.43344709897611,NA,NA
60062,Cook County,IL,NA,NA,0.4975124378109453
60085,Lake County,IL,16.040955631399317,NA,NA
60120,Kane County,IL,22.013651877133107,NA,NA
60124,Kane County,IL,NA,22.2972972972973,NA
60201,Cook County,IL,NA,NA,4.975124378109453
60302,Cook County,IL,NA,NA,12.935323383084576
60411,Cook County,IL,NA,NA,16.91542288557214
60417,Will County,IL,NA,NA,41.29353233830846
60423,Will County,IL,35.49488054607509,NA,NA
60429,Cook County,IL,NA,74.77477477477478,NA
60517,DuPage County,IL,34.470989761092156,NA,NA
60532,DuPage County,IL,39.249146757679185,NA,NA
60540,DuPage County,IL,NA,22.972972972972975,NA
60565,DuPage County,IL,25.938566552901023,NA,NA
60608,Cook County,IL,NA,NA,5.970149253731343
60612,Cook County,IL,NA,24.774774774774773,NA
60625,Cook County,IL,NA,9.234234234234235,NA
60640,Cook County,IL,NA,27.47747747747748,NA
60643,Cook County,IL,NA,1.5765765765765765,NA
60645,Cook County,IL,31.399317406143346,NA,NA
60647,Cook County,IL,6.825938566552901,NA,NA
60660,Cook County,IL,21.331058020477816,NA,NA
61455,McDonough County,IL,74.9146757679181,NA,NA
61603,Peoria County,IL,54.436860068259385,NA,NA
61820,Champaign County,IL,NA,64.1891891891892,NA
61822,Champaign County,IL,89.93174061433447,NA,NA
61853,Champaign County,IL,65.69965870307168,NA,25.37313432835821
61866,Champaign County,IL,35.83617747440273,NA,NA
61873,Champaign County,IL,NA,NA,65.17412935323384
62012,Macoupin County,IL,NA,NA,54.72636815920397
62260,St. Clair County,IL,NA,NA,74.6268656716418
62353,Brown County,IL,96.24573378839591,NA,NA
62656,Logan County,IL,NA,92.34234234234235,NA
62896,Franklin County,IL,86.68941979522185,NA,NA
46037,Hamilton County,IN,54.94880546075085,NA,NA
46260,Marion County,IN,NA,40.31531531531532,NA
46303,Lake County,IN,NA,34.45945945945946,NA
46307,Lake County,IN,NA,NA,17.412935323383085
46322,Lake County,IN,NA,19.144144144144143,NA
46375,Lake County,IN,27.303754266211605,NA,NA
46544,St. Joseph County,IN,41.979522184300336,NA,NA
46733,Adams County,IN,NA,40.54054054054054,NA
46806,Allen County,IN,20.989761092150168,NA,NA
47265,Jennings County,IN,48.80546075085324,NA,NA
47303,Delaware County,IN,55.11945392491467,NA,NA
47909,Tippecanoe County,IN,34.129692832764505,NA,NA
50009,Polk County,IA,88.90784982935153,NA,NA
50036,Boone County,IA,NA,NA,19.402985074626866
50311,Polk County,IA,NA,88.73873873873875,NA
50313,Polk County,IA,NA,54.729729729729726,NA
50315,Polk County,IA,7.849829351535837,18.91891891891892,NA
50401,Cerro Gordo County,IA,10.409556313993173,NA,NA
50501,Webster County,IA,19.112627986348123,NA,NA
50613,Black Hawk County,IA,NA,NA,3.9800995024875623
52353,Washington County,IA,NA,63.288288288288285,NA
52402,Linn County,IA,16.723549488054605,NA,NA
52722,Scott County,IA,58.19112627986348,23.1981981981982,NA
52756,Scott County,IA,98.12286689419795,NA,NA
52804,Scott County,IA,54.09556313993175,NA,NA
67871,Scott County,KS,53.7542662116041,NA,NA
40203,Jefferson County,KY,NA,32.88288288288289,NA
40351,Rowan County,KY,46.92832764505119,NA,NA
40422,Boyle County,KY,41.63822525597269,NA,71.64179104477611
40484,Lincoln County,KY,NA,47.97297297297297,NA
41139,Greenup County,KY,NA,48.64864864864865,NA
41143,Carter County,KY,NA,91.66666666666666,NA
41175,Greenup County,KY,76.27986348122867,NA,NA
41501,Pike County,KY,NA,67.11711711711712,NA
42029,Marshall County,KY,61.94539249146758,NA,NA
42071,Calloway County,KY,35.665529010238906,NA,NA
42303,Daviess County,KY,NA,NA,17.91044776119403
70005,Jefferson Parish,LA,NA,17.792792792792792,NA
70127,Orleans Parish,LA,NA,23.873873873873876,NA
70346,Ascension Parish,LA,NA,56.531531531531535,NA
70433,St. Tammany Parish,LA,82.42320819112628,NA,NA
70586,Evangeline Parish,LA,NA,30.405405405405407,NA
70806,East Baton Rouge Parish,LA,11.092150170648464,NA,NA
70812,East Baton Rouge Parish,LA,NA,NA,89.05472636815921
71111,Bossier Parish,LA,NA,NA,26.865671641791046
71409,Rapides Parish,LA,NA,NA,83.08457711442786
03901,York County,ME,94.36860068259386,NA,NA
03903,York County,ME,NA,84.23423423423422,NA
03904,York County,ME,NA,46.62162162162162,NA
03909,York County,ME,NA,NA,75.12437810945273
04002,York County,ME,NA,65.990990990991,NA
04005,York County,ME,92.66211604095564,NA,81.59203980099502
04009,Cumberland County,ME,NA,70.27027027027027,NA
04011,Cumberland County,ME,83.44709897610922,NA,NA
04021,Cumberland County,ME,83.10580204778158,NA,83.5820895522388
04038,Cumberland County,ME,68.94197952218431,NA,NA
04043,York County,ME,NA,97.97297297297297,53.233830845771145
04046,York County,ME,98.63481228668942,96.17117117117117,89.55223880597015
04055,Cumberland County,ME,NA,NA,100
04062,Cumberland County,ME,NA,39.86486486486486,NA
04064,York County,ME,61.60409556313993,36.486486486486484,79.1044776119403
04072,York County,ME,NA,72.52252252252252,58.70646766169154
04073,York County,ME,NA,84.009009009009,NA
04074,Cumberland County,ME,NA,89.41441441441441,NA
04079,Cumberland County,ME,97.61092150170649,NA,NA
04083,York County,ME,69.96587030716724,NA,NA
04086,Sagadahoc County,ME,87.71331058020478,93.24324324324324,NA
04090,York County,ME,82.5938566552901,56.08108108108109,14.925373134328357
04096,Cumberland County,ME,NA,76.35135135135135,NA
04101,Cumberland County,ME,55.2901023890785,NA,40.79601990049751
04102,Cumberland County,ME,29.692832764505116,NA,NA
04103,Cumberland County,ME,46.58703071672355,NA,11.940298507462686
04106,Cumberland County,ME,69.45392491467577,NA,NA
04210,Androscoggin County,ME,73.03754266211604,NA,NA
04222,Androscoggin County,ME,97.26962457337885,NA,NA
04240,Androscoggin County,ME,86.00682593856655,15.99099099099099,NA
04270,Oxford County,ME,93.51535836177474,79.05405405405406,62.189054726368155
04281,Oxford County,ME,NA,53.82882882882883,NA
04330,Kennebec County,ME,62.116040955631405,86.48648648648648,NA
04364,Kennebec County,ME,49.14675767918089,NA,NA
04401,Penobscot County,ME,65.01706484641639,51.126126126126124,52.736318407960205
04429,Penobscot County,ME,NA,95.27027027027027,NA
04444,Penobscot County,ME,NA,91.8918918918919,NA
04530,Sagadahoc County,ME,NA,38.96396396396396,48.258706467661696
04572,Lincoln County,ME,55.80204778156996,NA,NA
04578,Lincoln County,ME,NA,83.78378378378379,NA
04605,Hancock County,ME,NA,50.22522522522522,61.69154228855721
04742,Aroostook County,ME,91.6382252559727,NA,50.24875621890548
04856,Knox County,ME,NA,NA,84.07960199004975
04901,Kennebec County,ME,18.600682593856654,18.01801801801802,NA
04917,Kennebec County,ME,98.46416382252559,NA,NA
04937,Somerset County,ME,NA,52.92792792792793,92.53731343283582
04953,Penobscot County,ME,79.69283276450511,NA,NA
04957,Somerset County,ME,NA,72.97297297297297,NA
04963,Kennebec County,ME,51.02389078498294,NA,NA
04967,Somerset County,ME,67.91808873720136,NA,NA
04976,Somerset County,ME,13.993174061433447,NA,NA
20653,St. Mary's County,MD,53.242320819112635,NA,NA
21215,Baltimore city,MD,6.996587030716723,NA,NA
21550,Garrett County,MD,NA,37.61261261261261,NA
21613,Dorchester County,MD,88.56655290102388,NA,NA
21722,Washington County,MD,91.12627986348123,NA,NA
01005,Worcester County,MA,89.59044368600682,NA,NA
01069,Hampden County,MA,96.9283276450512,NA,NA
01108,Hampden County,MA,19.453924914675767,NA,NA
01151,Hampden County,MA,NA,43.24324324324324,NA
01201,Berkshire County,MA,21.843003412969285,54.5045045045045,8.955223880597014
01238,Berkshire County,MA,NA,56.981981981981974,66.16915422885572
01240,Berkshire County,MA,NA,NA,69.65174129353234
01247,Berkshire County,MA,4.778156996587031,NA,18.407960199004975
01301,Franklin County,MA,NA,60.810810810810814,NA
01364,Franklin County,MA,76.62116040955631,NA,NA
01420,Worcester County,MA,14.334470989761092,13.063063063063062,NA
01452,Worcester County,MA,NA,100,NA
01462,Worcester County,MA,44.19795221843004,NA,NA
01504,Worcester County,MA,57.508532423208194,NA,NA
01534,Worcester County,MA,90.27303754266211,NA,NA
01535,Worcester County,MA,NA,98.1981981981982,NA
01540,Worcester County,MA,33.95904436860068,NA,NA
01545,Worcester County,MA,NA,11.936936936936938,NA
01562,Worcester County,MA,22.696245733788395,NA,NA
01588,Worcester County,MA,NA,32.207207207207205,NA
01701,Middlesex County,MA,9.215017064846416,NA,NA
01752,Middlesex County,MA,2.3890784982935154,NA,NA
01757,Worcester County,MA,77.47440273037543,NA,NA
01760,Middlesex County,MA,91.80887372013652,NA,NA
01778,Middlesex County,MA,NA,89.63963963963964,NA
01810,Essex County,MA,10.921501706484642,NA,NA
01880,Middlesex County,MA,94.53924914675767,NA,NA
01960,Essex County,MA,NA,0,NA
02019,Norfolk County,MA,30.716723549488055,NA,93.53233830845771
02038,Norfolk County,MA,10.750853242320819,NA,NA
02062,Norfolk County,MA,NA,NA,13.930348258706468
02081,Norfolk County,MA,69.28327645051195,NA,NA
02125,Suffolk County,MA,0.3412969283276451,NA,NA
02134,Suffolk County,MA,10.238907849829351,NA,NA
02140,Middlesex County,MA,NA,6.981981981981981,NA
02155,Middlesex County,MA,NA,NA,66.66666666666666
02302,Plymouth County,MA,81.39931740614334,NA,NA
02339,Plymouth County,MA,95.05119453924915,NA,NA
02343,Norfolk County,MA,57.67918088737202,NA,NA
02446,Norfolk County,MA,73.54948805460751,NA,NA
02451,Middlesex County,MA,NA,15.090090090090092,NA
02460,Middlesex County,MA,73.72013651877133,NA,NA
02467,Norfolk County,MA,63.310580204778155,NA,NA
02532,Barnstable County,MA,47.781569965870304,NA,NA
02536,Barnstable County,MA,NA,9.00900900900901,NA
02721,Bristol County,MA,3.242320819112628,NA,NA
02724,Bristol County,MA,2.901023890784983,44.14414414414414,NA
02740,Bristol County,MA,0,NA,NA
48001,St. Clair County,MI,NA,59.23423423423423,NA
48005,Macomb County,MI,NA,99.32432432432432,NA
48009,Oakland County,MI,NA,85.13513513513513,NA
48021,Macomb County,MI,NA,NA,26.368159203980102
48026,Macomb County,MI,55.972696245733786,75.45045045045045,NA
48035,Macomb County,MI,30.887372013651877,5.8558558558558556,7.462686567164178
48036,Macomb County,MI,50.51194539249146,NA,13.432835820895523
48038,Macomb County,MI,10.580204778156997,22.74774774774775,3.482587064676617
48042,Macomb County,MI,76.10921501706484,NA,NA
48043,Macomb County,MI,NA,NA,92.03980099502488
48045,Macomb County,MI,NA,11.486486486486488,NA
48047,Macomb County,MI,NA,68.69369369369369,NA
48051,Macomb County,MI,70.81911262798634,NA,NA
48059,St. Clair County,MI,NA,37.83783783783784,NA
48062,Macomb County,MI,NA,NA,73.13432835820896
48066,Macomb County,MI,2.5597269624573378,4.504504504504505,NA
48067,Oakland County,MI,NA,83.1081081081081,NA
48082,Macomb County,MI,40.61433447098976,NA,20.398009950248756
48085,Oakland County,MI,25.426621160409557,53.6036036036036,NA
48092,Macomb County,MI,24.061433447098977,NA,NA
48093,Macomb County,MI,17.064846416382252,NA,NA
48094,Macomb County,MI,44.027303754266214,NA,NA
48096,Macomb County,MI,95.39249146757679,NA,NA
48101,Wayne County,MI,18.25938566552901,NA,NA
48103,Washtenaw County,MI,NA,25.675675675675674,NA
48116,Livingston County,MI,NA,11.26126126126126,NA
48118,Washtenaw County,MI,64.84641638225256,NA,NA
48130,Washtenaw County,MI,NA,30.180180180180184,NA
48134,Wayne County,MI,22.525597269624573,NA,NA
48144,Monroe County,MI,93.85665529010238,NA,NA
48165,Oakland County,MI,NA,95.72072072072072,NA
48166,Monroe County,MI,36.689419795221845,NA,NA
48167,Oakland County,MI,NA,20.945945945945947,NA
48182,Monroe County,MI,NA,94.81981981981981,NA
48197,Washtenaw County,MI,1.1945392491467577,NA,NA
48212,Wayne County,MI,8.70307167235495,NA,NA
48223,Wayne County,MI,NA,61.48648648648649,NA
48301,Oakland County,MI,NA,60.36036036036037,NA
48306,Oakland County,MI,NA,17.34234234234234,NA
48307,Oakland County,MI,16.21160409556314,NA,NA
48309,Oakland County,MI,28.498293515358363,NA,NA
48310,Macomb County,MI,13.822525597269625,8.108108108108109,NA
48312,Macomb County,MI,NA,11.711711711711711,NA
48314,Macomb County,MI,88.22525597269625,NA,NA
48317,Macomb County,MI,17.747440273037544,82.65765765765765,NA
48323,Oakland County,MI,99.31740614334471,NA,NA
48326,Oakland County,MI,66.21160409556313,NA,75.62189054726367
48328,Oakland County,MI,NA,NA,31.8407960199005
48336,Oakland County,MI,NA,33.78378378378378,NA
48340,Oakland County,MI,88.39590443686008,78.82882882882883,NA
48341,Oakland County,MI,23.890784982935152,36.93693693693694,NA
48342,Oakland County,MI,38.05460750853242,NA,NA
48346,Oakland County,MI,57.16723549488054,NA,35.82089552238806
48439,Genesee County,MI,NA,10.135135135135135,NA
48446,Lapeer County,MI,12.798634812286688,18.243243243243242,NA
48462,Oakland County,MI,NA,62.16216216216216,NA
48612,Gladwin County,MI,50.85324232081911,NA,NA
48617,Clare County,MI,NA,75.90090090090091,NA
48661,Ogemaw County,MI,46.75767918088737,NA,NA
48750,Iosco County,MI,NA,NA,49.25373134328358
48759,Huron County,MI,66.89419795221842,NA,NA
48813,Eaton County,MI,33.105802047781566,44.36936936936937,30.845771144278604
48823,Ingham County,MI,28.83959044368601,NA,NA
48827,Eaton County,MI,NA,25.900900900900904,NA
48840,Ingham County,MI,NA,NA,47.76119402985074
48854,Ingham County,MI,65.18771331058021,NA,50.74626865671642
48864,Ingham County,MI,NA,NA,49.25373134328358
48872,Shiawassee County,MI,75.25597269624573,NA,NA
48876,Eaton County,MI,87.03071672354949,NA,NA
48879,Clinton County,MI,43.68600682593857,NA,NA
48880,Gratiot County,MI,NA,73.1981981981982,NA
48888,Montcalm County,MI,70.30716723549489,NA,NA
48910,Ingham County,MI,NA,NA,59.20398009950249
48911,Ingham County,MI,58.02047781569966,NA,NA
48912,Ingham County,MI,NA,NA,82.08955223880598
49014,Calhoun County,MI,NA,24.0990990990991,NA
49036,Branch County,MI,23.378839590443686,NA,NA
49048,Kalamazoo County,MI,15.017064846416384,NA,NA
49055,Van Buren County,MI,NA,61.93693693693694,NA
49058,Barry County,MI,25.085324232081913,NA,NA
49065,Van Buren County,MI,NA,NA,72.13930348258707
49080,Allegan County,MI,NA,35.13513513513514,NA
49090,Van Buren County,MI,96.58703071672356,NA,NA
49107,Berrien County,MI,NA,NA,86.56716417910447
49201,Jackson County,MI,8.020477815699659,NA,NA
49202,Jackson County,MI,NA,24.54954954954955,NA
49247,Lenawee County,MI,NA,56.75675675675676,NA
49251,Ingham County,MI,79.35153583617748,NA,NA
49315,Kent County,MI,NA,28.603603603603606,NA
49319,Kent County,MI,23.72013651877133,73.87387387387388,NA
49321,Kent County,MI,48.97610921501707,NA,NA
49323,Allegan County,MI,NA,97.52252252252252,NA
49333,Barry County,MI,56.14334470989761,NA,NA
49348,Allegan County,MI,27.474402730375424,NA,NA
49415,Muskegon County,MI,75.76791808873719,NA,73.6318407960199
49417,Ottawa County,MI,15.187713310580206,45.72072072072072,NA
49426,Ottawa County,MI,NA,59.909909909909906,NA
49428,Ottawa County,MI,NA,24.324324324324326,NA
49437,Muskegon County,MI,77.64505119453925,NA,NA
49441,Muskegon County,MI,60.238907849829346,1.8018018018018018,NA
49442,Muskegon County,MI,NA,20.72072072072072,30.34825870646766
49444,Muskegon County,MI,NA,47.52252252252252,64.17910447761194
49445,Muskegon County,MI,86.17747440273038,NA,NA
49457,Muskegon County,MI,NA,61.261261261261254,NA
49505,Kent County,MI,48.634812286689424,NA,NA
49548,Kent County,MI,59.55631399317406,NA,NA
49601,Wexford County,MI,40.1023890784983,NA,NA
49651,Missaukee County,MI,NA,NA,51.741293532338304
49685,Grand Traverse County,MI,79.01023890784982,41.891891891891895,NA
55068,Dakota County,MN,NA,90.09009009009009,NA
55107,Ramsey County,MN,NA,NA,78.60696517412936
55108,Ramsey County,MN,97.44027303754265,NA,NA
55112,Ramsey County,MN,NA,NA,15.422885572139302
55116,Ramsey County,MN,NA,73.64864864864865,NA
55119,Ramsey County,MN,90.61433447098976,NA,NA
55337,Dakota County,MN,29.01023890784983,NA,NA
55382,Stearns County,MN,98.29351535836177,NA,NA
55398,Sherburne County,MN,NA,76.12612612612612,NA
55404,Hennepin County,MN,29.86348122866894,NA,NA
55406,Hennepin County,MN,95.73378839590444,NA,55.223880597014926
55407,Hennepin County,MN,81.22866894197952,3.153153153153153,NA
55408,Hennepin County,MN,92.83276450511946,NA,NA
55415,Hennepin County,MN,58.87372013651877,NA,NA
55417,Hennepin County,MN,64.50511945392492,NA,NA
55418,Hennepin County,MN,72.52559726962457,NA,NA
55421,Anoka County,MN,85.32423208191126,NA,NA
55426,Hennepin County,MN,90.95563139931741,NA,NA
55430,Hennepin County,MN,43.344709897610926,NA,NA
55442,Hennepin County,MN,NA,86.93693693693693,NA
55444,Hennepin County,MN,NA,61.03603603603604,NA
55454,Hennepin County,MN,99.82935153583618,NA,NA
55720,Carlton County,MN,NA,63.51351351351351,NA
55744,Itasca County,MN,13.48122866894198,78.6036036036036,NA
55746,St. Louis County,MN,19.283276450511945,NA,22.885572139303484
55806,St. Louis County,MN,72.18430034129693,NA,NA
55921,Houston County,MN,98.80546075085324,NA,NA
55947,Houston County,MN,69.11262798634812,NA,NA
55987,Winona County,MN,27.64505119453925,NA,NA
56001,Blue Earth County,MN,NA,NA,39.30348258706468
56164,Pipestone County,MN,NA,NA,99.50248756218906
56201,Kandiyohi County,MN,61.774744027303754,NA,NA
56401,Crow Wing County,MN,80.71672354948805,84.45945945945947,NA
56425,Crow Wing County,MN,NA,80.18018018018019,NA
56472,Crow Wing County,MN,NA,79.27927927927928,45.27363184079602
56501,Becker County,MN,NA,68.01801801801803,NA
56537,Otter Tail County,MN,NA,NA,0.9950248756218906
56560,Clay County,MN,68.08873720136519,NA,68.1592039800995
56636,Itasca County,MN,NA,60.58558558558559,NA
56701,Pennington County,MN,44.88054607508533,93.01801801801803,29.35323383084577
38922,Yalobusha County,MS,84.1296928327645,NA,NA
63011,St. Louis County,MO,60.068259385665534,NA,NA
63017,St. Louis County,MO,99.65870307167235,NA,1.9900497512437811
63084,Franklin County,MO,NA,NA,35.32338308457712
63115,St. Louis city,MO,42.491467576791806,NA,NA
63117,St. Louis County,MO,87.54266211604096,NA,NA
63301,St. Charles County,MO,60.75085324232082,NA,NA
63303,St. Charles County,MO,NA,7.207207207207207,NA
63362,Lincoln County,MO,NA,91.21621621621621,NA
63383,Warren County,MO,NA,37.38738738738739,NA
63645,Madison County,MO,63.651877133105806,NA,NA
63935,Ripley County,MO,NA,52.25225225225225,NA
64015,Jackson County,MO,36.51877133105802,NA,NA
64016,Jackson County,MO,NA,98.1981981981982,NA
64050,Jackson County,MO,13.139931740614335,85.8108108108108,NA
64052,Jackson County,MO,56.31399317406144,NA,NA
64055,Jackson County,MO,25.597269624573375,NA,NA
64057,Jackson County,MO,61.092150170648466,NA,NA
64063,Jackson County,MO,58.36177474402731,NA,NA
64064,Jackson County,MO,NA,NA,95.02487562189054
64068,Clay County,MO,NA,3.8288288288288284,NA
64086,Jackson County,MO,29.351535836177472,NA,NA
64110,Jackson County,MO,NA,29.72972972972973,NA
64117,Clay County,MO,70.64846416382252,NA,NA
64118,Clay County,MO,37.71331058020478,NA,NA
64119,Clay County,MO,75.59726962457339,NA,NA
64124,Jackson County,MO,80.88737201365188,NA,NA
64127,Jackson County,MO,39.249146757679185,NA,NA
64130,Jackson County,MO,63.48122866894198,NA,NA
64132,Jackson County,MO,38.737201365187715,NA,NA
64133,Jackson County,MO,83.78839590443687,2.027027027027027,NA
64134,Jackson County,MO,51.19453924914675,NA,NA
64138,Jackson County,MO,58.703071672354945,88.96396396396396,NA
64429,Clinton County,MO,NA,44.5945945945946,NA
64507,Buchanan County,MO,20.477815699658702,97.07207207207207,NA
64701,Cass County,MO,37.37201365187713,NA,NA
64804,Jasper County,MO,41.80887372013652,NA,NA
65203,Boone County,MO,60.580204778157,6.756756756756757,NA
65802,Greene County,MO,9.385665529010238,NA,NA
65803,Greene County,MO,8.873720136518772,NA,NA
59102,Yellowstone County,MT,NA,42.11711711711711,NA
59457,Fergus County,MT,NA,NA,27.363184079601986
59601,Lewis and Clark County,MT,NA,14.18918918918919,NA
59901,Flathead County,MT,NA,86.26126126126125,87.06467661691542
59917,Lincoln County,MT,NA,89.86486486486487,NA
68701,Madison County,NE,43.85665529010239,NA,NA
89134,Clark County,NV,68.60068259385666,NA,NA
89701,Carson City,NV,33.44709897610921,NA,NA
03055,Hillsborough County,NH,39.93174061433447,NA,NA
03234,Merrimack County,NH,NA,NA,96.51741293532339
03244,Hillsborough County,NH,NA,88.28828828828829,NA
03253,Belknap County,NH,NA,98.87387387387388,NA
03257,Merrimack County,NH,NA,NA,87.56218905472637
03458,Hillsborough County,NH,NA,NA,34.32835820895522
03820,Strafford County,NH,NA,NA,37.3134328358209
03860,Carroll County,NH,99.48805460750853,99.54954954954955,NA
03862,Rockingham County,NH,NA,94.36936936936937,94.5273631840796
07502,Passaic County,NJ,NA,59.45945945945946,NA
07514,Passaic County,NJ,NA,57.432432432432435,NA
07631,Bergen County,NJ,NA,49.77477477477478,NA
07753,Monmouth County,NJ,NA,5.63063063063063,NA
07950,Morris County,NJ,NA,NA,42.28855721393035
08002,Camden County,NJ,46.41638225255973,NA,NA
08004,Camden County,NJ,NA,50.45045045045045,NA
08070,Salem County,NJ,63.99317406143344,NA,NA
08505,Burlington County,NJ,82.08191126279864,NA,NA
08629,Mercer County,NJ,26.450511945392492,NA,NA
08722,Ocean County,NJ,44.53924914675768,NA,NA
87105,Bernalillo County,NM,3.0716723549488054,NA,NA
87112,Bernalillo County,NM,12.1160409556314,NA,NA
87121,Bernalillo County,NM,3.4129692832764507,NA,NA
87506,Santa Fe County,NM,84.98293515358361,NA,NA
87571,Taos County,NM,NA,69.36936936936937,NA
10003,New York County,NY,NA,31.08108108108108,NA
10009,New York County,NY,8.19112627986348,NA,NA
10025,New York County,NY,NA,7.882882882882883,NA
10027,New York County,NY,3.754266211604096,NA,NA
10040,New York County,NY,NA,46.171171171171174,NA
10453,Bronx County,NY,22.18430034129693,4.2792792792792795,NA
10454,Bronx County,NY,5.460750853242321,NA,NA
10456,Bronx County,NY,NA,NA,2.4875621890547266
10457,Bronx County,NY,30.034129692832767,47.072072072072075,NA
10458,Bronx County,NY,26.96245733788396,38.06306306306306,NA
10460,Bronx County,NY,NA,8.783783783783784,NA
10462,Bronx County,NY,NA,40.765765765765764,NA
10469,Bronx County,NY,2.218430034129693,NA,NA
10473,Bronx County,NY,NA,75,NA
10703,Westchester County,NY,NA,54.95495495495496,NA
10950,Orange County,NY,54.778156996587036,NA,NA
10980,Rockland County,NY,89.07849829351537,NA,NA
11004,Queens County,NY,NA,77.92792792792793,NA
11103,Queens County,NY,NA,75.67567567567568,NA
11213,Kings County,NY,74.23208191126281,NA,NA
11413,Queens County,NY,NA,74.54954954954955,NA
11432,Queens County,NY,19.965870307167236,NA,NA
11552,Nassau County,NY,84.47098976109216,NA,NA
11561,Nassau County,NY,NA,NA,46.766169154228855
11590,Nassau County,NY,NA,93.46846846846847,NA
11691,Queens County,NY,NA,26.576576576576578,NA
11692,Queens County,NY,78.15699658703072,NA,NA
11709,Nassau County,NY,NA,NA,98.50746268656717
11716,Suffolk County,NY,NA,85.36036036036036,NA
11768,Suffolk County,NY,NA,NA,91.54228855721394
11772,Suffolk County,NY,NA,19.81981981981982,NA
11787,Suffolk County,NY,72.35494880546075,NA,NA
11901,Suffolk County,NY,NA,NA,93.03482587064677
11933,Suffolk County,NY,NA,NA,58.2089552238806
11940,Suffolk County,NY,NA,96.84684684684684,94.02985074626866
11946,Suffolk County,NY,NA,83.33333333333334,NA
11949,Suffolk County,NY,80.54607508532423,NA,72.636815920398
11951,Suffolk County,NY,NA,NA,85.57213930348259
11952,Suffolk County,NY,NA,93.69369369369369,NA
12057,Washington County,NY,96.41638225255973,NA,NA
12144,Rensselaer County,NY,NA,NA,43.78109452736319
12508,Dutchess County,NY,NA,NA,59.70149253731343
12828,Washington County,NY,NA,57.88288288288288,NA
12832,Washington County,NY,NA,NA,63.18407960199005
12901,Clinton County,NY,1.877133105802048,2.4774774774774775,NA
12926,Franklin County,NY,NA,96.3963963963964,NA
12946,Essex County,NY,55.631399317406135,NA,NA
12962,Clinton County,NY,NA,88.06306306306307,NA
12983,Franklin County,NY,42.66211604095563,NA,NA
13041,Onondaga County,NY,56.996587030716725,NA,NA
13309,Oneida County,NY,77.98634812286689,NA,NA
13326,Otsego County,NY,NA,NA,57.711442786069654
13335,Otsego County,NY,90.27303754266211,NA,NA
13340,Herkimer County,NY,NA,58.333333333333336,NA
13413,Oneida County,NY,NA,23.64864864864865,NA
13433,Lewis County,NY,93.00341296928327,NA,NA
13760,Broome County,NY,24.744027303754265,NA,80.09950248756219
13790,Broome County,NY,29.180887372013654,48.42342342342342,NA
13820,Otsego County,NY,8.532423208191126,46.846846846846844,NA
13850,Broome County,NY,NA,38.73873873873874,NA
13865,Broome County,NY,41.467576791808874,NA,NA
13901,Broome County,NY,NA,39.414414414414416,NA
13905,Broome County,NY,50.34129692832765,NA,NA
14012,Niagara County,NY,93.68600682593856,NA,NA
14020,Genesee County,NY,NA,65.54054054054053,85.07462686567165
14036,Genesee County,NY,NA,92.56756756756756,NA
14067,Niagara County,NY,68.43003412969283,NA,NA
14072,Erie County,NY,NA,27.027027027027028,NA
14094,Niagara County,NY,47.269624573378834,14.414414414414415,NA
14103,Orleans County,NY,37.883959044368595,NA,NA
14125,Genesee County,NY,NA,93.91891891891892,NA
14136,Chautauqua County,NY,78.66894197952219,NA,NA
14220,Erie County,NY,11.945392491467576,20.045045045045047,NA
14224,Erie County,NY,NA,5.18018018018018,NA
14304,Niagara County,NY,3.583617747440273,NA,NA
14420,Monroe County,NY,39.07849829351536,NA,NA
14450,Monroe County,NY,1.7064846416382253,NA,NA
14513,Wayne County,NY,3.9249146757679183,NA,NA
14527,Yates County,NY,20.648464163822524,NA,NA
14572,Steuben County,NY,67.4061433447099,NA,NA
14612,Monroe County,NY,NA,NA,25.870646766169152
14620,Monroe County,NY,20.30716723549488,NA,NA
14716,Chautauqua County,NY,NA,94.5945945945946,NA
14727,Allegany County,NY,NA,67.56756756756756,NA
14810,Steuben County,NY,26.621160409556317,NA,NA
14845,Chemung County,NY,14.163822525597269,NA,NA
14865,Schuyler County,NY,85.83617747440273,NA,NA
27344,Chatham County,NC,NA,36.711711711711715,NA
27519,Wake County,NC,42.32081911262799,NA,NA
28031,Mecklenburg County,NC,85.6655290102389,NA,NA
28080,Lincoln County,NC,NA,82.43243243243244,NA
28092,Lincoln County,NC,NA,38.513513513513516,NA
28403,New Hanover County,NC,34.30034129692833,NA,NA
28405,New Hanover County,NC,29.522184300341298,NA,NA
28411,New Hanover County,NC,31.22866894197952,NA,NA
28451,Brunswick County,NC,NA,18.46846846846847,NA
28463,Columbus County,NC,NA,61.711711711711715,NA
28655,Burke County,NC,4.436860068259386,NA,NA
28659,Wilkes County,NC,46.2457337883959,NA,NA
28716,Haywood County,NC,NA,32.88288288288289,NA
28719,Jackson County,NC,62.28668941979522,NA,NA
28752,McDowell County,NC,NA,NA,22.388059701492537
58078,Cass County,ND,81.56996587030717,41.66666666666667,NA
58103,Cass County,ND,59.21501706484642,NA,97.01492537313433
58104,Cass County,ND,25.7679180887372,NA,NA
58201,Grand Forks County,ND,NA,3.6036036036036037,NA
43017,Franklin County,OH,50.68259385665529,27.7027027027027,NA
43056,Licking County,OH,32.593856655290104,NA,NA
43065,Delaware County,OH,NA,21.846846846846844,NA
43082,Delaware County,OH,NA,31.98198198198198,NA
43123,Franklin County,OH,24.573378839590443,NA,NA
43138,Hocking County,OH,NA,22.07207207207207,NA
43160,Fayette County,OH,11.262798634812286,NA,NA
43221,Franklin County,OH,76.79180887372013,NA,NA
43224,Franklin County,OH,4.607508532423208,NA,NA
43229,Franklin County,OH,21.160409556313994,NA,NA
43351,Wyandot County,OH,NA,43.01801801801802,NA
43402,Wood County,OH,NA,41.44144144144144,NA
43526,Defiance County,OH,89.419795221843,NA,NA
43528,Lucas County,OH,80.03412969283276,NA,NA
43551,Wood County,OH,52.04778156996587,72.74774774774775,NA
43560,Lucas County,OH,90.78498293515358,NA,NA
43605,Lucas County,OH,12.969283276450511,NA,NA
43606,Lucas County,OH,14.505119453924914,25.225225225225223,NA
43608,Lucas County,OH,67.57679180887372,NA,NA
43614,Lucas County,OH,32.42320819112628,NA,NA
43615,Lucas County,OH,2.7303754266211606,NA,NA
43623,Lucas County,OH,NA,NA,28.855721393034827
43701,Muskingum County,OH,0.6825938566552902,NA,NA
43713,Belmont County,OH,NA,NA,90.04975124378109
43944,Jefferson County,OH,NA,80.4054054054054,NA
44001,Lorain County,OH,63.82252559726962,NA,NA
44011,Lorain County,OH,NA,79.95495495495496,NA
44012,Lorain County,OH,89.76109215017065,NA,NA
44021,Geauga County,OH,NA,76.8018018018018,NA
44024,Geauga County,OH,81.74061433447099,NA,NA
44035,Lorain County,OH,0.17064846416382254,NA,NA
44052,Lorain County,OH,NA,0.22522522522522523,NA
44053,Lorain County,OH,6.655290102389079,25,4.477611940298507
44056,Summit County,OH,83.27645051194538,NA,NA
44087,Summit County,OH,72.6962457337884,NA,NA
44089,Erie County,OH,31.91126279863481,31.756756756756754,NA
44095,Lake County,OH,84.64163822525597,6.081081081081082,NA
44107,Cuyahoga County,OH,NA,35.36036036036036,NA
44109,Cuyahoga County,OH,0.5119453924914675,NA,NA
44118,Cuyahoga County,OH,NA,34.00900900900901,NA
44120,Cuyahoga County,OH,NA,1.1261261261261262,NA
44121,Cuyahoga County,OH,47.098976109215016,NA,NA
44122,Cuyahoga County,OH,NA,53.37837837837838,33.83084577114428
44124,Cuyahoga County,OH,18.941979522184297,0.9009009009009009,52.23880597014925
44125,Cuyahoga County,OH,1.023890784982935,NA,NA
44128,Cuyahoga County,OH,28.15699658703072,NA,1.4925373134328357
44129,Cuyahoga County,OH,NA,78.37837837837837,NA
44138,Cuyahoga County,OH,27.13310580204778,NA,NA
44139,Cuyahoga County,OH,36.00682593856656,8.558558558558559,NA
44141,Cuyahoga County,OH,71.67235494880546,NA,81.09452736318407
44144,Cuyahoga County,OH,NA,NA,34.82587064676617
44145,Cuyahoga County,OH,NA,21.396396396396398,NA
44147,Cuyahoga County,OH,40.955631399317404,54.054054054054056,NA
44202,Portage County,OH,82.93515358361775,NA,NA
44221,Summit County,OH,NA,13.288288288288289,NA
44224,Summit County,OH,NA,4.72972972972973,8.45771144278607
44236,Summit County,OH,NA,17.117117117117118,NA
44262,Summit County,OH,NA,70.94594594594594,NA
44305,Summit County,OH,NA,29.054054054054053,NA
44321,Summit County,OH,64.3344709897611,NA,NA
44410,Trumbull County,OH,NA,19.594594594594593,NA
44425,Trumbull County,OH,65.8703071672355,NA,NA
44436,Mahoning County,OH,91.97952218430035,NA,NA
44438,Trumbull County,OH,58.53242320819113,NA,NA
44446,Trumbull County,OH,NA,12.387387387387387,NA
44483,Trumbull County,OH,13.651877133105803,NA,NA
44601,Stark County,OH,5.972696245733788,NA,NA
44626,Stark County,OH,97.7815699658703,NA,NA
44705,Stark County,OH,NA,28.153153153153156,NA
44875,Richland County,OH,34.641638225255974,NA,NA
44904,Richland County,OH,66.04095563139933,NA,NA
45002,Hamilton County,OH,NA,NA,77.61194029850746
45005,Warren County,OH,NA,12.837837837837837,NA
45044,Butler County,OH,4.09556313993174,NA,16.417910447761194
45177,Clinton County,OH,NA,26.126126126126124,NA
45208,Hamilton County,OH,NA,71.17117117117117,NA
45240,Hamilton County,OH,NA,NA,40.298507462686565
45251,Hamilton County,OH,NA,50.9009009009009,NA
45309,Montgomery County,OH,NA,50,36.81592039800995
45320,Preble County,OH,NA,28.37837837837838,33.33333333333333
45324,Greene County,OH,30.37542662116041,NA,NA
45341,Clark County,OH,83.95904436860067,NA,NA
45373,Miami County,OH,5.631399317406143,NA,NA
45377,Montgomery County,OH,NA,65.990990990991,46.26865671641791
45381,Preble County,OH,NA,NA,96.01990049751244
45385,Greene County,OH,9.726962457337883,4.954954954954955,NA
45402,Montgomery County,OH,NA,70.72072072072072,NA
45403,Montgomery County,OH,31.74061433447099,64.63963963963964,NA
45404,Montgomery County,OH,NA,77.7027027027027,NA
45410,Montgomery County,OH,36.86006825938566,52.702702702702695,NA
45414,Montgomery County,OH,NA,NA,38.80597014925373
45416,Montgomery County,OH,NA,NA,82.58706467661692
45417,Montgomery County,OH,NA,10.585585585585585,23.383084577114428
45420,Montgomery County,OH,19.965870307167236,NA,NA
45424,Montgomery County,OH,NA,NA,5.472636815920398
45426,Montgomery County,OH,NA,27.927927927927925,41.7910447761194
45429,Montgomery County,OH,37.20136518771331,NA,NA
45439,Montgomery County,OH,NA,63.06306306306306,NA
45458,Montgomery County,OH,32.93515358361775,7.657657657657657,68.65671641791045
45459,Montgomery County,OH,51.365187713310576,NA,12.437810945273633
45619,Lawrence County,OH,79.18088737201366,NA,NA
45638,Lawrence County,OH,NA,1.3513513513513513,NA
45640,Jackson County,OH,5.802047781569966,NA,NA
45692,Jackson County,OH,87.8839590443686,NA,NA
45701,Athens County,OH,NA,70.4954954954955,NA
45710,Athens County,OH,NA,90.31531531531532,NA
45724,Washington County,OH,94.19795221843003,NA,NA
45750,Washington County,OH,34.98293515358362,NA,NA
45764,Athens County,OH,NA,94.14414414414415,NA
45805,Allen County,OH,11.262798634812286,NA,NA
45827,Putnam County,OH,94.7098976109215,NA,NA
73034,Oklahoma County,OK,22.866894197952217,9.45945945945946,NA
73119,Oklahoma County,OK,NA,31.53153153153153,NA
73120,Oklahoma County,OK,NA,69.14414414414415,NA
73135,Oklahoma County,OK,NA,47.2972972972973,NA
73139,Oklahoma County,OK,NA,75.22522522522522,NA
73159,Oklahoma County,OK,NA,NA,64.6766169154229
73170,Cleveland County,OK,NA,NA,6.965174129353234
73401,Carter County,OK,11.774744027303754,NA,NA
73501,Comanche County,OK,NA,41.21621621621622,NA
74010,Creek County,OK,NA,NA,80.59701492537313
74012,Tulsa County,OK,18.771331058020476,NA,NA
74021,Tulsa County,OK,NA,96.62162162162163,NA
74036,Rogers County,OK,60.92150170648464,NA,NA
74037,Tulsa County,OK,NA,87.83783783783784,NA
74053,Rogers County,OK,98.97610921501706,NA,NA
74055,Tulsa County,OK,NA,82.2072072072072,NA
74106,Tulsa County,OK,NA,81.53153153153153,NA
74107,Tulsa County,OK,NA,NA,65.67164179104478
74110,Tulsa County,OK,NA,NA,78.1094527363184
74114,Tulsa County,OK,NA,52.92792792792793,71.14427860696517
74115,Tulsa County,OK,33.78839590443686,NA,NA
74129,Tulsa County,OK,NA,68.46846846846847,NA
74132,Tulsa County,OK,NA,77.02702702702703,NA
74136,Tulsa County,OK,NA,NA,23.88059701492537
74344,Delaware County,OK,NA,NA,43.28358208955223
74354,Ottawa County,OK,NA,39.63963963963964,NA
74361,Mayes County,OK,53.07167235494881,NA,NA
74432,McIntosh County,OK,NA,40.99099099099099,NA
74441,Cherokee County,OK,86.86006825938567,NA,NA
74447,Okmulgee County,OK,NA,NA,36.318407960199
74464,Cherokee County,OK,45.73378839590443,45.94594594594595,NA
74571,Le Flore County,OK,NA,76.57657657657657,NA
74953,Le Flore County,OK,NA,66.66666666666666,NA
74960,Adair County,OK,19.795221843003414,NA,NA
97005,Washington County,OR,41.29692832764505,79.72972972972973,NA
97035,Clackamas County,OR,NA,NA,56.71641791044776
97045,Clackamas County,OR,NA,NA,10.945273631840797
97056,Columbia County,OR,56.8259385665529,87.38738738738738,NA
97080,Multnomah County,OR,NA,16.441441441441444,NA
97141,Tillamook County,OR,52.55972696245734,NA,NA
97203,Multnomah County,OR,59.38566552901023,NA,NA
97206,Multnomah County,OR,52.218430034129696,NA,NA
97211,Multnomah County,OR,NA,71.84684684684684,NA
97213,Multnomah County,OR,31.399317406143346,NA,NA
97220,Multnomah County,OR,30.204778156996586,NA,NA
97225,Washington County,OR,80.3754266211604,NA,NA
97267,Clackamas County,OR,NA,NA,61.19402985074627
97302,Marion County,OR,NA,37.16216216216216,NA
97321,Linn County,OR,62.79863481228669,NA,NA
97322,Linn County,OR,85.15358361774744,NA,NA
97330,Benton County,OR,NA,20.495495495495494,NA
97333,Benton County,OR,77.3037542662116,88.51351351351352,95.52238805970148
97352,Marion County,OR,NA,80.63063063063063,NA
97355,Linn County,OR,NA,2.9279279279279278,NA
97365,Lincoln County,OR,NA,31.306306306306308,NA
97367,Lincoln County,OR,90.10238907849829,NA,NA
97386,Linn County,OR,42.15017064846416,NA,NA
97402,Lane County,OR,NA,23.423423423423422,NA
97415,Curry County,OR,39.76109215017065,NA,NA
97444,Curry County,OR,NA,63.738738738738746,NA
97457,Douglas County,OR,56.484641638225256,NA,NA
97467,Douglas County,OR,NA,57.65765765765766,NA
97470,Douglas County,OR,NA,19.36936936936937,NA
97527,Josephine County,OR,NA,15.54054054054054,NA
97601,Klamath County,OR,14.846416382252558,NA,NA
97603,Klamath County,OR,44.7098976109215,NA,NA
97868,Umatilla County,OR,92.32081911262799,NA,NA
15101,Allegheny County,PA,NA,43.69369369369369,NA
15108,Allegheny County,PA,NA,NA,7.960199004975125
15129,Allegheny County,PA,66.38225255972696,NA,NA
15133,Allegheny County,PA,79.69283276450511,NA,NA
15301,Washington County,PA,5.290102389078498,NA,NA
15401,Fayette County,PA,7.167235494880546,NA,NA
15473,Fayette County,PA,NA,NA,76.61691542288557
15601,Westmoreland County,PA,17.235494880546078,NA,NA
15801,Clearfield County,PA,95.22184300341297,NA,18.90547263681592
16125,Mercer County,PA,32.081911262798634,NA,NA
16214,Clarion County,PA,61.092150170648466,NA,NA
16232,Clarion County,PA,NA,72.2972972972973,NA
16441,Erie County,PA,66.55290102389078,NA,NA
16505,Erie County,PA,NA,47.74774774774775,NA
16508,Erie County,PA,45.051194539249146,NA,NA
16601,Blair County,PA,8.361774744027302,NA,NA
16602,Blair County,PA,11.604095563139932,NA,NA
16652,Huntingdon County,PA,33.617747440273035,NA,NA
16693,Blair County,PA,NA,92.7927927927928,NA
16743,McKean County,PA,NA,91.44144144144144,NA
16823,Centre County,PA,NA,NA,14.427860696517413
16901,Tioga County,PA,NA,NA,60.19900497512438
17022,Lancaster County,PA,54.26621160409556,10.36036036036036,NA
17057,Dauphin County,PA,15.870307167235495,NA,NA
17112,Dauphin County,PA,NA,2.7027027027027026,NA
17236,Franklin County,PA,76.96245733788396,NA,NA
17701,Lycoming County,PA,47.44027303754266,NA,NA
17754,Lycoming County,PA,92.15017064846417,NA,NA
17824,Northumberland County,PA,NA,NA,84.5771144278607
17872,Northumberland County,PA,34.8122866894198,NA,NA
17961,Schuylkill County,PA,73.37883959044369,NA,NA
18017,Northampton County,PA,NA,85.58558558558559,NA
18018,Lehigh County,PA,18.088737201365188,NA,NA
18031,Lehigh County,PA,64.16382252559727,NA,NA
18036,Lehigh County,PA,NA,NA,88.05970149253731
18040,Northampton County,PA,93.34470989761093,NA,NA
18102,Lehigh County,PA,0.8532423208191127,NA,NA
18334,Monroe County,PA,NA,97.2972972972973,NA
18360,Monroe County,PA,NA,NA,11.442786069651742
18472,Wayne County,PA,NA,NA,79.60199004975125
18508,Lackawanna County,PA,50,NA,NA
18510,Lackawanna County,PA,53.58361774744027,NA,NA
18634,Luzerne County,PA,NA,NA,45.77114427860697
18642,Luzerne County,PA,NA,67.34234234234235,NA
18643,Luzerne County,PA,NA,44.81981981981982,NA
18901,Bucks County,PA,NA,18.693693693693696,NA
18944,Bucks County,PA,45.563139931740615,NA,NA
18951,Bucks County,PA,16.552901023890783,NA,NA
19118,Philadelphia County,PA,NA,62.612612612612615,NA
19128,Philadelphia County,PA,NA,52.47747747747747,NA
19143,Philadelphia County,PA,7.337883959044368,NA,NA
19149,Philadelphia County,PA,6.143344709897611,NA,NA
19380,Chester County,PA,10.06825938566553,NA,NA
19382,Chester County,PA,NA,5.405405405405405,NA
19401,Montgomery County,PA,NA,16.89189189189189,NA
19464,Montgomery County,PA,NA,NA,29.850746268656714
19601,Berks County,PA,2.04778156996587,NA,NA
19606,Berks County,PA,32.76450511945392,2.2522522522522523,NA
02809,Bristol County,RI,NA,57.20720720720721,NA
02816,Kent County,RI,21.501706484641637,NA,NA
02871,Newport County,RI,NA,30.855855855855857,NA
29301,Spartanburg County,SC,26.109215017064848,NA,NA
29316,Spartanburg County,SC,NA,25.45045045045045,NA
29455,Charleston County,SC,67.06484641638225,NA,NA
29483,Dorchester County,SC,NA,NA,42.78606965174129
29680,Greenville County,SC,39.59044368600683,NA,NA
29693,Oconee County,SC,95.90443686006826,NA,NA
57106,Minnehaha County,SD,48.122866894197955,3.3783783783783785,NA
37128,Rutherford County,TN,NA,42.567567567567565,NA
37367,Bledsoe County,TN,52.901023890784984,NA,NA
37745,Greene County,TN,19.624573378839592,NA,NA
37801,Blount County,TN,38.907849829351534,NA,NA
37804,Blount County,TN,23.208191126279864,NA,NA
37807,Union County,TN,57.33788395904437,NA,NA
37921,Knox County,TN,NA,NA,62.189054726368155
37934,Knox County,TN,NA,35.585585585585584,NA
75002,Collin County,TX,17.4061433447099,NA,NA
75020,Grayson County,TX,40.61433447098976,NA,NA
75048,Dallas County,TX,NA,48.64864864864865,NA
75098,Collin County,TX,17.576791808873722,NA,NA
75115,Dallas County,TX,NA,46.3963963963964,NA
75117,Van Zandt County,TX,96.07508532423208,NA,NA
75165,Ellis County,TX,NA,66.8918918918919,NA
75189,Rockwall County,TX,38.225255972696246,NA,NA
75638,Morris County,TX,NA,NA,76.11940298507463
75662,Gregg County,TX,NA,NA,37.3134328358209
75785,Cherokee County,TX,95.56313993174061,NA,NA
75791,Smith County,TX,53.242320819112635,NA,NA
75948,Sabine County,TX,87.37201365187714,NA,NA
76010,Tarrant County,TX,54.60750853242321,NA,NA
76048,Hood County,TX,37.54266211604095,NA,NA
76067,Palo Pinto County,TX,45.39249146757679,NA,NA
76133,Tarrant County,TX,NA,NA,19.900497512437813
76365,Clay County,TX,NA,67.56756756756756,NA
76401,Erath County,TX,NA,NA,67.16417910447761
76504,Bell County,TX,31.058020477815703,NA,NA
76520,Milam County,TX,NA,NA,56.21890547263681
76643,McLennan County,TX,59.044368600682596,NA,NA
76661,Falls County,TX,NA,NA,97.51243781094527
76712,McLennan County,TX,36.3481228668942,NA,NA
77035,Harris County,TX,35.32423208191126,NA,NA
77043,Harris County,TX,NA,65.09009009009009,60.69651741293532
77365,Montgomery County,TX,NA,74.09909909909909,NA
77429,Harris County,TX,9.897610921501707,NA,NA
77471,Fort Bend County,TX,57.84982935153583,NA,NA
77566,Brazoria County,TX,NA,38.288288288288285,NA
77584,Brazoria County,TX,9.044368600682594,NA,NA
77656,Hardin County,TX,NA,NA,53.73134328358209
78653,Travis County,TX,62.62798634812287,NA,NA
78681,Williamson County,TX,NA,NA,21.890547263681594
78726,Travis County,TX,NA,97.74774774774775,NA
78732,Travis County,TX,97.95221843003414,NA,NA
78733,Travis County,TX,91.46757679180887,NA,NA
78735,Travis County,TX,82.76450511945393,NA,NA
79714,Andrews County,TX,48.29351535836178,NA,NA
84074,Tooele County,UT,NA,62.387387387387385,NA
84121,Salt Lake County,UT,59.89761092150171,NA,NA
05001,Windsor County,VT,72.86689419795222,NA,NA
05443,Addison County,VT,NA,62.83783783783784,NA
05478,Franklin County,VT,NA,NA,20.8955223880597
20191,Fairfax County,VA,NA,55.4054054054054,NA
22407,Spotsylvania County,VA,NA,45.4954954954955,NA
22482,Lancaster County,VA,100,NA,NA
22508,Orange County,VA,70.98976109215018,NA,NA
22603,Frederick County,VA,74.40273037542661,NA,NA
22824,Shenandoah County,VA,NA,65.31531531531532,NA
22901,Albemarle County,VA,NA,NA,47.2636815920398
22903,Charlottesville city,VA,NA,NA,31.343283582089555
22960,Orange County,VA,NA,52.02702702702703,NA
23060,Henrico County,VA,73.72013651877133,NA,NA
23120,Chesterfield County,VA,86.3481228668942,NA,NA
23831,Chesterfield County,VA,32.25255972696246,NA,NA
24012,Roanoke city,VA,51.877133105802045,NA,NA
24179,Roanoke County,VA,65.52901023890784,NA,NA
24293,Wise County,VA,43.003412969283275,NA,NA
24592,Halifax County,VA,23.549488054607508,NA,NA
98011,King County,WA,NA,87.61261261261262,NA
98030,King County,WA,NA,NA,67.66169154228857
98121,King County,WA,NA,55.18018018018018,NA
98155,King County,WA,38.56655290102389,NA,NA
98177,King County,WA,NA,87.16216216216216,NA
98221,Skagit County,WA,74.06143344709898,NA,NA
98233,Skagit County,WA,NA,45.27027027027027,NA
98270,Snohomish County,WA,16.38225255972696,NA,NA
98273,Skagit County,WA,NA,10.81081081081081,6.467661691542288
98274,Skagit County,WA,86.51877133105802,NA,55.72139303482587
98277,Island County,WA,63.13993174061433,NA,NA
98310,Kitsap County,WA,NA,54.27927927927928,NA
98346,Kitsap County,WA,99.14675767918088,NA,NA
98363,Clallam County,WA,78.32764505119454,NA,NA
98382,Clallam County,WA,NA,0.45045045045045046,NA
98422,Pierce County,WA,51.5358361774744,NA,NA
98520,Grays Harbor County,WA,NA,NA,44.27860696517413
98580,Pierce County,WA,75.93856655290102,NA,NA
98662,Clark County,WA,87.20136518771331,NA,NA
98663,Clark County,WA,62.96928327645052,68.91891891891892,NA
98801,Chelan County,WA,NA,26.8018018018018,NA
98815,Chelan County,WA,NA,NA,74.12935323383084
98837,Grant County,WA,NA,55.85585585585585,NA
98901,Yakima County,WA,47.610921501706486,NA,NA
98902,Yakima County,WA,22.35494880546075,NA,NA
98942,Yakima County,WA,62.45733788395904,NA,NA
98944,Yakima County,WA,84.81228668941979,NA,NA
99337,Benton County,WA,NA,26.351351351351347,NA
20007,District of Columbia,DC,NA,NA,57.2139303482587
24901,Greenbrier County,WV,NA,77.47747747747748,NA
24986,Greenbrier County,WV,NA,84.90990990990991,NA
25387,Kanawha County,WV,NA,83.55855855855856,NA
25705,Cabell County,WV,15.529010238907851,NA,NA
26003,Ohio County,WV,4.266211604095563,NA,NA
26330,Harrison County,WV,NA,NA,28.35820895522388
26505,Monongalia County,WV,NA,4.054054054054054,NA
53033,Washington County,WI,NA,NA,88.55721393034825
53074,Ozaukee County,WI,78.839590443686,NA,99.00497512437812
53080,Ozaukee County,WI,NA,NA,70.1492537313433
53126,Racine County,WI,67.23549488054607,NA,NA
53129,Milwaukee County,WI,81.05802047781569,NA,NA
53140,Kenosha County,WI,9.556313993174061,NA,NA
53209,Milwaukee County,WI,1.3651877133105803,NA,NA
53210,Milwaukee County,WI,6.313993174061433,NA,NA
53212,Milwaukee County,WI,NA,68.24324324324324,NA
53216,Milwaukee County,WI,NA,13.963963963963963,NA
53221,Milwaukee County,WI,16.89419795221843,NA,NA
53403,Racine County,WI,NA,89.1891891891892,NA
53405,Racine County,WI,4.948805460750854,NA,NA
53545,Rock County,WI,88.05460750853243,NA,NA
53546,Rock County,WI,NA,20.27027027027027,NA
53566,Green County,WI,NA,16.216216216216218,NA
53705,Dane County,WI,NA,84.68468468468468,NA
53950,Juneau County,WI,NA,90.76576576576578,NA
54017,St. Croix County,WI,44.19795221843004,28.603603603603606,NA
54156,Marinette County,WI,97.09897610921502,NA,NA
54220,Manitowoc County,WI,NA,13.73873873873874,NA
54601,La Crosse County,WI,24.2320819112628,60.13513513513513,NA
54603,La Crosse County,WI,NA,63.96396396396396,9.950248756218906
54630,Trempealeau County,WI,NA,NA,69.15422885572139
54656,Monroe County,WI,NA,30.630630630630627,77.11442786069652
54660,Monroe County,WI,NA,98.64864864864865,NA
54822,Barron County,WI,88.73720136518772,NA,NA
54986,Winnebago County,WI,NA,NA,91.04477611940298
