ZipCode,county,state,Adult,Retirement,Geriatric
35020,Jefferson County,AL,45.53941908713693,NA,NA
35022,Jefferson County,AL,NA,15.882967607105538,NA
35023,Jefferson County,AL,NA,NA,20.673635307781648
35034,Bibb County,AL,NA,88.71473354231975,NA
35096,Talladega County,AL,NA,92.68547544409613,NA
35111,Tuscaloosa County,AL,47.9253112033195,29.780564263322884,NA
35206,Jefferson County,AL,NA,45.97701149425287,NA
35208,Jefferson County,AL,70.4356846473029,NA,NA
35210,Jefferson County,AL,69.91701244813278,NA,NA
35211,Jefferson County,AL,NA,23.510971786833856,34.61091753774681
35215,Jefferson County,AL,NA,35.63218390804598,NA
35216,Jefferson County,AL,NA,47.85788923719958,NA
35242,Shelby County,AL,NA,NA,7.4332171893147505
35401,Tuscaloosa County,AL,NA,19.54022988505747,NA
35404,Tuscaloosa County,AL,NA,30.721003134796238,NA
35466,Pickens County,AL,NA,85.99791013584117,NA
35470,Sumter County,AL,NA,NA,96.7479674796748
35501,Walker County,AL,66.28630705394191,NA,NA
35601,Morgan County,AL,12.863070539419086,13.166144200626958,NA
35611,Limestone County,AL,NA,58.516196447230925,NA
35622,Morgan County,AL,NA,NA,87.8048780487805
35630,Lauderdale County,AL,NA,34.27377220480668,NA
35648,Lauderdale County,AL,NA,99.79101358411702,NA
35650,Lawrence County,AL,NA,NA,73.75145180023229
35661,Colbert County,AL,65.76763485477179,NA,NA
35810,Madison County,AL,NA,NA,20.32520325203252
35901,Etowah County,AL,NA,NA,62.83391405342624
35904,Etowah County,AL,NA,NA,70.61556329849013
35976,Marshall County,AL,76.55601659751036,NA,NA
36108,Montgomery County,AL,NA,NA,63.99535423925668
36109,Montgomery County,AL,NA,61.337513061650995,45.063879210220676
36110,Montgomery County,AL,NA,NA,73.98373983739837
36272,Calhoun County,AL,NA,NA,95.35423925667828
36301,Houston County,AL,NA,NA,21.138211382113823
36303,Houston County,AL,21.57676348547718,NA,50.40650406504065
36360,Dale County,AL,NA,NA,54.47154471544715
36420,Covington County,AL,NA,89.55067920585162,NA
36572,Mobile County,AL,NA,96.96969696969697,NA
36582,Mobile County,AL,NA,46.917450365726225,NA
36606,Mobile County,AL,64.62655601659752,NA,NA
36610,Mobile County,AL,NA,95.82027168234065,NA
36695,Mobile County,AL,NA,28.631138975966564,NA
36703,Dallas County,AL,62.344398340248965,NA,NA
36801,Lee County,AL,61.30705394190872,NA,NA
36862,Chambers County,AL,85.47717842323651,NA,NA
36867,Russell County,AL,NA,40.54336468129572,NA
36869,Russell County,AL,81.95020746887967,NA,NA
99502,Anchorage Municipality,AK,53.63070539419087,NA,69.22183507549362
99508,Anchorage Municipality,AK,50.518672199170126,NA,NA
99518,Anchorage Municipality,AK,76.86721991701245,NA,NA
99567,Anchorage Municipality,AK,NA,NA,99.65156794425087
99603,Kenai Peninsula Borough,AK,NA,54.44096133751306,NA
99712,Fairbanks North Star Borough,AK,82.57261410788381,NA,NA
85009,Maricopa County,AZ,NA,24.869383490073147,NA
85012,Maricopa County,AZ,NA,86.4158829676071,NA
85013,Maricopa County,AZ,NA,NA,69.80255516840883
85014,Maricopa County,AZ,46.47302904564315,NA,NA
85016,Maricopa County,AZ,44.398340248962654,NA,NA
85017,Maricopa County,AZ,85.78838174273858,NA,NA
85019,Maricopa County,AZ,NA,69.80146290491118,NA
85029,Maricopa County,AZ,21.369294605809127,NA,NA
85032,Maricopa County,AZ,NA,24.76489028213166,NA
85034,Maricopa County,AZ,NA,99.47753396029259,NA
85037,Maricopa County,AZ,NA,NA,74.44831591173055
85041,Maricopa County,AZ,34.024896265560166,NA,NA
85048,Maricopa County,AZ,NA,63.2183908045977,94.3089430894309
85051,Maricopa County,AZ,13.796680497925312,35.84117032392894,NA
85085,Maricopa County,AZ,67.32365145228216,NA,NA
85086,Maricopa County,AZ,NA,38.97596656217346,NA
85142,Maricopa County,AZ,NA,25.07836990595611,NA
85202,Maricopa County,AZ,18.464730290456433,NA,NA
85206,Maricopa County,AZ,NA,66.14420062695925,NA
85208,Maricopa County,AZ,46.2655601659751,NA,NA
85209,Maricopa County,AZ,NA,NA,54.00696864111498
85248,Maricopa County,AZ,NA,28.213166144200624,NA
85251,Maricopa County,AZ,NA,NA,34.146341463414636
85253,Maricopa County,AZ,NA,NA,73.05458768873403
85254,Maricopa County,AZ,NA,68.54754440961337,NA
85266,Maricopa County,AZ,NA,NA,92.56678281068524
85282,Maricopa County,AZ,NA,44.30512016718913,NA
85286,Maricopa County,AZ,35.684647302904565,NA,NA
85297,Maricopa County,AZ,62.75933609958506,NA,NA
85301,Maricopa County,AZ,5.08298755186722,NA,NA
85302,Maricopa County,AZ,NA,77.84743991640543,NA
85303,Maricopa County,AZ,NA,68.86102403343783,NA
85306,Maricopa County,AZ,81.43153526970954,NA,NA
85308,Maricopa County,AZ,NA,NA,35.4239256678281
85310,Maricopa County,AZ,NA,72.3092998955068,NA
85326,Maricopa County,AZ,28.526970954356845,NA,NA
85344,La Paz County,AZ,NA,NA,74.68060394889663
85345,Maricopa County,AZ,NA,9.717868338557993,NA
85375,Maricopa County,AZ,NA,NA,0.8130081300813009
85392,Maricopa County,AZ,56.53526970954357,NA,NA
85541,Gila County,AZ,50.829875518672196,NA,NA
85635,Cochise County,AZ,NA,NA,31.939605110336817
85705,Pima County,AZ,3.112033195020747,NA,NA
85706,Pima County,AZ,NA,5.851619644723093,NA
85710,Pima County,AZ,9.439834024896266,15.256008359456635,NA
85713,Pima County,AZ,NA,36.36363636363637,NA
85743,Pima County,AZ,84.12863070539419,NA,NA
85748,Pima County,AZ,NA,71.26436781609196,NA
85757,Pima County,AZ,25.103734439834025,NA,NA
85933,Navajo County,AZ,NA,NA,98.49012775842044
86004,Coconino County,AZ,26.6597510373444,NA,NA
86043,Navajo County,AZ,NA,NA,99.30313588850174
86053,Coconino County,AZ,NA,98.85057471264368,NA
86333,Yavapai County,AZ,NA,93.41692789968651,NA
86336,Yavapai County,AZ,80.91286307053942,NA,NA
86401,Mohave County,AZ,NA,70.9508881922675,NA
86404,Mohave County,AZ,NA,51.410658307210035,NA
86409,Mohave County,AZ,NA,2.7168234064785786,NA
86413,Mohave County,AZ,NA,95.40229885057471,NA
86426,Mohave County,AZ,NA,52.03761755485894,NA
86429,Mohave County,AZ,NA,NA,66.31823461091754
86442,Mohave County,AZ,27.074688796680498,8.045977011494253,NA
71601,Jefferson County,AR,NA,NA,72.82229965156795
71603,Jefferson County,AR,NA,21.839080459770116,NA
72046,Lonoke County,AR,NA,NA,94.07665505226481
72450,Greene County,AR,NA,24.137931034482758,NA
72712,Benton County,AR,49.5850622406639,39.811912225705335,NA
72762,Washington County,AR,NA,58.202716823406476,NA
72764,Washington County,AR,NA,NA,65.73751451800233
72903,Sebastian County,AR,NA,86.62486938349008,NA
72921,Crawford County,AR,NA,78.57889237199582,NA
90003,Los Angeles County,CA,36.72199170124482,NA,90.36004645760744
90006,Los Angeles County,CA,NA,NA,72.93844367015099
90007,Los Angeles County,CA,28.008298755186722,NA,NA
90011,Los Angeles County,CA,22.821576763485478,NA,40.41811846689895
90012,Los Angeles County,CA,NA,NA,31.010452961672474
90014,Los Angeles County,CA,NA,NA,96.7479674796748
90016,Los Angeles County,CA,44.60580912863071,22.25705329153605,NA
90019,Los Angeles County,CA,NA,NA,11.265969802555169
90026,Los Angeles County,CA,48.7551867219917,NA,NA
90029,Los Angeles County,CA,NA,70.63740856844305,NA
90036,Los Angeles County,CA,NA,NA,29.965156794425084
90037,Los Angeles County,CA,NA,39.18495297805642,NA
90042,Los Angeles County,CA,55.18672199170125,NA,NA
90043,Los Angeles County,CA,NA,21.630094043887148,NA
90057,Los Angeles County,CA,NA,NA,83.04297328687572
90059,Los Angeles County,CA,NA,91.0135841170324,87.22415795586528
90064,Los Angeles County,CA,25.933609958506228,NA,NA
90065,Los Angeles County,CA,NA,89.44618599791013,NA
90066,Los Angeles County,CA,NA,NA,26.24854819976771
90069,Los Angeles County,CA,NA,48.79832810867293,NA
90221,Los Angeles County,CA,37.96680497925311,35.214211076280044,NA
90222,Los Angeles County,CA,NA,61.75548589341693,NA
90242,Los Angeles County,CA,NA,95.61128526645768,NA
90249,Los Angeles County,CA,NA,59.56112852664577,49.59349593495935
90255,Los Angeles County,CA,29.66804979253112,NA,NA
90262,Los Angeles County,CA,35.477178423236516,NA,NA
90274,Los Angeles County,CA,NA,59.3521421107628,42.044134727061554
90275,Los Angeles County,CA,NA,37.72204806687565,NA
90301,Los Angeles County,CA,NA,NA,60.62717770034843
90304,Los Angeles County,CA,89.62655601659752,NA,NA
90403,Los Angeles County,CA,NA,70.01044932079414,NA
90503,Los Angeles County,CA,51.244813278008294,NA,68.75725900116144
90505,Los Angeles County,CA,NA,NA,67.71196283391406
90604,Los Angeles County,CA,NA,54.649947753396034,NA
90606,Los Angeles County,CA,54.56431535269709,NA,NA
90621,Orange County,CA,NA,59.87460815047022,66.89895470383276
90623,Orange County,CA,93.04979253112033,NA,NA
90630,Orange County,CA,NA,54.858934169278996,NA
90650,Los Angeles County,CA,NA,13.375130616509928,NA
90703,Los Angeles County,CA,61.61825726141079,NA,NA
90713,Los Angeles County,CA,NA,52.97805642633229,NA
90717,Los Angeles County,CA,NA,NA,82.34610917537746
90740,Orange County,CA,NA,43.155694879832815,NA
90806,Los Angeles County,CA,NA,NA,80.48780487804879
90808,Los Angeles County,CA,59.33609958506224,NA,37.04994192799071
90810,Los Angeles County,CA,59.95850622406639,NA,NA
90815,Los Angeles County,CA,NA,72.72727272727273,NA
91016,Los Angeles County,CA,NA,54.33646812957158,44.94773519163763
91101,Los Angeles County,CA,NA,NA,90.01161440185831
91103,Los Angeles County,CA,NA,NA,98.3739837398374
91201,Los Angeles County,CA,NA,67.39811912225704,NA
91205,Los Angeles County,CA,NA,48.69383490073145,NA
91206,Los Angeles County,CA,74.06639004149378,52.56008359456635,NA
91306,Los Angeles County,CA,41.59751037344399,NA,45.99303135888502
91307,Los Angeles County,CA,NA,80.87774294670847,NA
91311,Los Angeles County,CA,57.26141078838174,NA,NA
91320,Ventura County,CA,NA,51.724137931034484,NA
91321,Los Angeles County,CA,68.98340248962656,NA,NA
91325,Los Angeles County,CA,77.0746887966805,NA,NA
91335,Los Angeles County,CA,NA,NA,11.033681765389082
91342,Los Angeles County,CA,NA,NA,37.746806039488966
91343,Los Angeles County,CA,NA,NA,37.97909407665505
91344,Los Angeles County,CA,96.36929460580913,NA,NA
91352,Los Angeles County,CA,NA,91.84952978056427,NA
91362,Ventura County,CA,NA,40.229885057471265,NA
91387,Los Angeles County,CA,NA,74.1901776384535,NA
91405,Los Angeles County,CA,NA,42.84221525600836,46.45760743321719
91406,Los Angeles County,CA,53.42323651452282,NA,NA
91601,Los Angeles County,CA,NA,88.08777429467085,69.57026713124273
91605,Los Angeles County,CA,NA,78.26541274817137,NA
91701,San Bernardino County,CA,NA,80.04179728317659,NA
91702,Los Angeles County,CA,NA,42.73772204806687,NA
91706,Los Angeles County,CA,NA,31.974921630094045,NA
91709,San Bernardino County,CA,34.232365145228215,NA,NA
91723,Los Angeles County,CA,NA,96.44723092998954,NA
91724,Los Angeles County,CA,74.27385892116183,NA,NA
91730,San Bernardino County,CA,17.842323651452283,NA,NA
91732,Los Angeles County,CA,NA,29.36259143155695,NA
91733,Los Angeles County,CA,67.32365145228216,NA,NA
91739,San Bernardino County,CA,NA,NA,76.19047619047619
91744,Los Angeles County,CA,NA,NA,18.69918699186992
91754,Los Angeles County,CA,NA,NA,21.718931475029034
91764,San Bernardino County,CA,NA,59.14315569487984,NA
91766,Los Angeles County,CA,41.59751037344399,NA,NA
91770,Los Angeles County,CA,NA,NA,14.750290360046458
91790,Los Angeles County,CA,NA,NA,35.307781649245065
91910,San Diego County,CA,NA,NA,11.38211382113821
91911,San Diego County,CA,NA,17.659352142110762,7.897793263646922
91913,San Diego County,CA,94.6058091286307,NA,63.879210220673635
91945,San Diego County,CA,60.788381742738586,NA,NA
91977,San Diego County,CA,NA,61.546499477533956,NA
92008,San Diego County,CA,NA,NA,40.88269454123113
92009,San Diego County,CA,NA,86.93834900731451,NA
92011,San Diego County,CA,NA,62.90491118077325,NA
92014,San Diego County,CA,94.29460580912863,NA,NA
92020,San Diego County,CA,20.228215767634854,4.911180773249739,32.17189314750291
92021,San Diego County,CA,NA,NA,24.506387921022068
92027,San Diego County,CA,NA,46.39498432601881,NA
92056,San Diego County,CA,NA,30.51201671891327,NA
92064,San Diego County,CA,51.45228215767634,NA,NA
92067,San Diego County,CA,93.15352697095436,NA,61.20789779326364
92069,San Diego County,CA,NA,52.56008359456635,NA
92071,San Diego County,CA,NA,72.62277951933125,NA
92084,San Diego County,CA,NA,NA,94.88966318234611
92102,San Diego County,CA,NA,84.84848484848484,NA
92103,San Diego County,CA,48.23651452282158,NA,41.69570267131243
92104,San Diego County,CA,61.20331950207469,NA,NA
92105,San Diego County,CA,NA,65.41274817136886,NA
92113,San Diego County,CA,NA,33.33333333333333,NA
92115,San Diego County,CA,NA,NA,38.21138211382114
92117,San Diego County,CA,58.81742738589212,NA,NA
92118,San Diego County,CA,NA,64.57680250783699,NA
92119,San Diego County,CA,86.09958506224066,NA,39.95354239256678
92123,San Diego County,CA,67.21991701244814,NA,NA
92129,San Diego County,CA,NA,47.02194357366771,46.922183507549356
92139,San Diego County,CA,NA,NA,50.29036004645761
92154,San Diego County,CA,NA,NA,13.704994192799072
92203,Riverside County,CA,NA,93.10344827586206,NA
92211,Riverside County,CA,NA,6.687565308254964,NA
92223,Riverside County,CA,29.149377593361,NA,NA
92227,Imperial County,CA,42.219917012448136,NA,43.67015098722416
92243,Imperial County,CA,NA,29.6760710553814,NA
92252,San Bernardino County,CA,97.30290456431536,NA,NA
92262,Riverside County,CA,19.502074688796682,NA,NA
92264,Riverside County,CA,NA,8.881922675026123,NA
92284,San Bernardino County,CA,NA,25.705329153605017,NA
92307,San Bernardino County,CA,NA,NA,41.92799070847851
92345,San Bernardino County,CA,NA,13.479623824451412,NA
92346,San Bernardino County,CA,NA,45.036572622779516,NA
92374,San Bernardino County,CA,NA,61.442006269592476,NA
92376,San Bernardino County,CA,9.12863070539419,NA,NA
92395,San Bernardino County,CA,25.829875518672203,75.4440961337513,NA
92404,San Bernardino County,CA,49.89626556016597,NA,NA
92405,San Bernardino County,CA,46.88796680497925,77.74294670846395,NA
92407,San Bernardino County,CA,NA,48.484848484848484,NA
92410,San Bernardino County,CA,33.09128630705394,65.8307210031348,NA
92411,San Bernardino County,CA,NA,NA,93.84436701509871
92503,Riverside County,CA,NA,NA,38.908246225319395
92504,Riverside County,CA,72.9253112033195,NA,NA
92506,Riverside County,CA,NA,41.06583072100313,NA
92509,Riverside County,CA,57.676348547717836,NA,NA
92532,Riverside County,CA,NA,80.25078369905955,NA
92551,Riverside County,CA,92.9460580912863,NA,NA
92555,Riverside County,CA,93.87966804979253,63.63636363636363,NA
92562,Riverside County,CA,NA,68.02507836990596,NA
92570,Riverside County,CA,42.946058091286304,NA,NA
92583,Riverside County,CA,NA,95.08881922675026,NA
92592,Riverside County,CA,NA,26.64576802507837,NA
92604,Orange County,CA,NA,61.02403343782654,NA
92620,Orange County,CA,NA,NA,45.760743321718934
92630,Orange County,CA,NA,NA,27.409988385598144
92649,Orange County,CA,NA,NA,33.681765389082464
92672,Orange County,CA,NA,NA,42.1602787456446
92683,Orange County,CA,15.24896265560166,NA,NA
92703,Orange County,CA,NA,NA,62.13704994192799
92704,Orange County,CA,32.98755186721991,NA,NA
92708,Orange County,CA,NA,NA,21.022067363530777
92802,Orange County,CA,NA,42.31974921630094,NA
92804,Orange County,CA,NA,NA,58.30429732868757
92808,Orange County,CA,NA,NA,96.16724738675958
92821,Orange County,CA,NA,NA,29.61672473867596
92832,Orange County,CA,NA,64.99477533960292,NA
92840,Orange County,CA,NA,71.89132706374086,NA
92841,Orange County,CA,75.4149377593361,NA,NA
92843,Orange County,CA,NA,NA,64.69221835075494
92860,Riverside County,CA,NA,64.4723092998955,NA
92869,Orange County,CA,NA,NA,45.4123112659698
92882,Riverside County,CA,NA,35.318704284221525,NA
92886,Orange County,CA,NA,NA,22.41579558652729
93001,Ventura County,CA,25.20746887966805,28.317659352142112,NA
93013,Santa Barbara County,CA,NA,NA,91.28919860627178
93030,Ventura County,CA,NA,56.00835945663532,NA
93033,Ventura County,CA,NA,7.41901776384535,NA
93036,Ventura County,CA,31.016597510373444,NA,NA
93247,Tulare County,CA,78.42323651452283,NA,NA
93257,Tulare County,CA,NA,75.54858934169279,NA
93274,Tulare County,CA,NA,NA,24.854819976771196
93305,Kern County,CA,43.36099585062241,55.90386624869383,NA
93307,Kern County,CA,NA,17.03239289446186,NA
93308,Kern County,CA,26.763485477178424,NA,NA
93309,Kern County,CA,NA,NA,31.24274099883856
93313,Kern County,CA,53.941908713692946,NA,NA
93454,Santa Barbara County,CA,31.224066390041493,NA,NA
93534,Los Angeles County,CA,NA,72.20480668756531,NA
93535,Los Angeles County,CA,35.37344398340249,NA,51.33565621370499
93612,Fresno County,CA,NA,NA,90.47619047619048
93616,Fresno County,CA,99.48132780082987,NA,NA
93635,Merced County,CA,NA,44.932079414838036,52.613240418118465
93637,Madera County,CA,32.572614107883815,NA,NA
93638,Madera County,CA,16.493775933609957,NA,NA
93647,Tulare County,CA,97.61410788381743,NA,NA
93702,Fresno County,CA,62.24066390041494,NA,NA
93705,Fresno County,CA,66.07883817427386,NA,57.8397212543554
93727,Fresno County,CA,NA,24.45141065830721,NA
93901,Monterey County,CA,NA,72.10031347962382,NA
93908,Monterey County,CA,95.74688796680498,NA,NA
93955,Monterey County,CA,40.45643153526971,NA,NA
94043,Santa Clara County,CA,NA,67.502612330198545,NA
94086,Santa Clara County,CA,NA,NA,54.239256678281066
94087,Santa Clara County,CA,NA,NA,59.34959349593496
94102,San Francisco County,CA,8.402489626556017,4.702194357366771,NA
94103,San Francisco County,CA,79.77178423236515,NA,NA
94109,San Francisco County,CA,27.4896265560166,NA,NA
94111,San Francisco County,CA,NA,NA,88.3855981416957
94112,San Francisco County,CA,59.128630705394194,NA,NA
94115,San Francisco County,CA,NA,NA,12.311265969802555
94134,San Francisco County,CA,NA,NA,27.293844367015097
94306,Santa Clara County,CA,NA,94.67084639498434,NA
94401,San Mateo County,CA,77.17842323651453,NA,NA
94502,Alameda County,CA,NA,87.46081504702194,NA
94503,Napa County,CA,NA,NA,66.43437862950059
94505,Contra Costa County,CA,NA,NA,86.99186991869918
94519,Contra Costa County,CA,NA,81.71368861024033,NA
94521,Contra Costa County,CA,NA,NA,58.07200929152149
94530,Contra Costa County,CA,NA,59.66562173458725,NA
94533,Solano County,CA,NA,NA,13.356562137049943
94534,Solano County,CA,65.24896265560166,NA,NA
94556,Contra Costa County,CA,NA,NA,75.9581881533101
94558,Napa County,CA,31.63900414937759,NA,NA
94561,Contra Costa County,CA,NA,NA,52.72938443670151
94565,Contra Costa County,CA,NA,5.120167189132706,NA
94568,Alameda County,CA,55.08298755186723,NA,NA
94587,Alameda County,CA,NA,21.9435736677116,NA
94596,Contra Costa County,CA,NA,82.13166144200626,NA
94602,Alameda County,CA,NA,57.47126436781609,NA
94605,Alameda County,CA,NA,NA,32.28803716608595
94707,Alameda County,CA,NA,NA,75.60975609756098
94803,Contra Costa County,CA,87.86307053941908,NA,NA
94804,Contra Costa County,CA,NA,41.901776384535005,NA
94901,Marin County,CA,NA,36.7816091954023,NA
95051,Santa Clara County,CA,46.57676348547718,NA,70.96399535423926
95076,Santa Cruz County,CA,17.323651452282157,NA,67.36353077816493
95112,Santa Clara County,CA,NA,NA,52.03252032520326
95118,Santa Clara County,CA,NA,54.12748171368861,85.59814169570267
95122,Santa Clara County,CA,NA,47.12643678160919,NA
95127,Santa Clara County,CA,71.99170124481327,NA,NA
95128,Santa Clara County,CA,37.344398340248965,NA,NA
95133,Santa Clara County,CA,86.72199170124482,NA,NA
95148,Santa Clara County,CA,66.39004149377593,NA,83.50754936120791
95204,San Joaquin County,CA,57.572614107883815,NA,NA
95205,San Joaquin County,CA,51.65975103734441,NA,NA
95207,San Joaquin County,CA,19.605809128630707,NA,NA
95236,San Joaquin County,CA,NA,NA,97.79326364692218
95242,San Joaquin County,CA,NA,NA,46.2253193960511
95252,Calaveras County,CA,83.50622406639005,NA,NA
95315,Merced County,CA,NA,NA,95.23809523809523
95327,Tuolumne County,CA,NA,56.42633228840125,NA
95330,San Joaquin County,CA,NA,80.77324973876698,NA
95340,Merced County,CA,36.61825726141078,80.35527690700106,40.30197444831592
95350,Stanislaus County,CA,NA,46.29049111807733,NA
95351,Stanislaus County,CA,NA,NA,61.78861788617886
95354,Stanislaus County,CA,33.60995850622407,NA,NA
95356,Stanislaus County,CA,NA,42.21525600835946,NA
95357,Stanislaus County,CA,NA,NA,89.08246225319397
95358,Stanislaus County,CA,NA,47.85788923719958,NA
95363,Stanislaus County,CA,NA,78.36990595611285,NA
95377,San Joaquin County,CA,NA,NA,88.50174216027874
95388,Merced County,CA,91.90871369294605,NA,NA
95401,Sonoma County,CA,NA,47.64890282131661,NA
95423,Lake County,CA,NA,NA,80.0232288037166
95436,Sonoma County,CA,NA,NA,98.83855981416957
95437,Mendocino County,CA,NA,39.49843260188088,NA
95464,Lake County,CA,NA,99.89550679205851,NA
95501,Humboldt County,CA,NA,33.437826541274816,75.02903600464576
95540,Humboldt County,CA,NA,53.29153605015674,NA
95603,Placer County,CA,NA,NA,26.713124274099886
95610,Sacramento County,CA,47.406639004149376,NA,NA
95620,Solano County,CA,NA,NA,74.21602787456446
95640,Amador County,CA,NA,91.43155694879833,NA
95648,Placer County,CA,NA,76.8025078369906,NA
95660,Sacramento County,CA,NA,84.11703239289446,NA
95694,Yolo County,CA,96.16182572614107,NA,NA
95757,Sacramento County,CA,NA,56.53082549634274,NA
95815,Sacramento County,CA,65.97510373443983,NA,NA
95818,Sacramento County,CA,75.62240663900414,NA,NA
95821,Sacramento County,CA,NA,28.94461859979101,NA
95822,Sacramento County,CA,NA,NA,20.557491289198605
95823,Sacramento County,CA,71.6804979253112,NA,NA
95824,Sacramento County,CA,58.60995850622407,60.71055381400209,NA
95826,Sacramento County,CA,NA,82.75862068965517,NA
95828,Sacramento County,CA,NA,NA,33.10104529616725
95829,Sacramento County,CA,76.6597510373444,NA,NA
95838,Sacramento County,CA,68.56846473029046,NA,NA
95864,Sacramento County,CA,79.87551867219918,NA,NA
95926,Butte County,CA,NA,NA,35.656213704994194
95932,Colusa County,CA,NA,83.80355276907001,NA
95953,Sutter County,CA,82.67634854771784,NA,NA
95963,Glenn County,CA,NA,71.68234064785788,60.51103368176539
95966,Butte County,CA,10.37344398340249,6.269592476489027,NA
95969,Butte County,CA,65.04149377593362,NA,NA
95973,Butte County,CA,NA,23.301985370950888,NA
96001,Shasta County,CA,NA,NA,44.48315911730546
96093,Trinity County,CA,NA,92.16300940438872,NA
96150,El Dorado County,CA,NA,NA,81.8815331010453
80010,Arapahoe County,CO,NA,NA,61.672473867595826
80011,Arapahoe County,CO,NA,NA,44.36701509872242
80012,Arapahoe County,CO,11.099585062240664,NA,NA
80013,Arapahoe County,CO,NA,NA,42.39256678281069
80014,Arapahoe County,CO,32.365145228215766,NA,NA
80015,Arapahoe County,CO,NA,55.276907001044925,NA
80027,Boulder County,CO,NA,81.40020898641588,NA
80110,Arapahoe County,CO,NA,84.01253918495298,NA
80112,Arapahoe County,CO,80.70539419087137,NA,NA
80122,Arapahoe County,CO,NA,50.88819226750261,NA
80126,Douglas County,CO,NA,56.21734587251829,NA
80202,Denver County,CO,53.83817427385892,NA,NA
80203,Denver County,CO,NA,81.81818181818183,NA
80204,Denver County,CO,19.813278008298756,NA,NA
80205,Denver County,CO,61.92946058091287,NA,NA
80210,Denver County,CO,NA,NA,69.33797909407666
80214,Jefferson County,CO,NA,69.07001044932079,NA
80219,Denver County,CO,5.601659751037345,22.152560083594565,NA
80226,Jefferson County,CO,50.10373443983403,NA,NA
80229,Adams County,CO,45.74688796680498,NA,NA
80234,Adams County,CO,NA,NA,87.57259001161441
80239,Denver County,CO,59.232365145228215,49.42528735632184,NA
80439,Jefferson County,CO,81.2240663900415,49.00731452455591,NA
80501,Boulder County,CO,54.87551867219918,NA,NA
80524,Larimer County,CO,30.601659751037346,NA,NA
80537,Larimer County,CO,NA,13.688610240334379,NA
80601,Adams County,CO,NA,36.46812957157785,NA
80751,Logan County,CO,NA,60.60606060606061,NA
80909,El Paso County,CO,NA,NA,29.732868757259002
80915,El Paso County,CO,NA,NA,61.904761904761905
81004,Pueblo County,CO,NA,NA,87.68873403019745
81005,Pueblo County,CO,69.6058091286307,NA,NA
81144,Rio Grande County,CO,NA,NA,96.63182346109176
81201,Chaffee County,CO,NA,NA,62.601626016260155
81301,La Plata County,CO,56.63900414937759,NA,NA
81401,Montrose County,CO,NA,NA,64.5760743321719
81403,Montrose County,CO,78.83817427385893,NA,NA
06010,Hartford County,CT,1.3485477178423237,1.3584117032392893,NA
06035,Hartford County,CT,NA,NA,88.15331010452961
06037,Hartford County,CT,NA,91.95402298850574,NA
06040,Hartford County,CT,NA,18.808777429467085,NA
06051,Hartford County,CT,3.319502074688797,52.35109717868338,NA
06062,Hartford County,CT,59.85477178423236,NA,NA
06067,Hartford County,CT,68.7759336099585,NA,NA
06105,Hartford County,CT,56.22406639004149,32.49738766980146,NA
06106,Hartford County,CT,NA,NA,62.7177700348432
06114,Hartford County,CT,NA,45.45454545454545,NA
06119,Hartford County,CT,82.0539419087137,NA,NA
06226,Windham County,CT,NA,43.99164054336468,NA
06405,New Haven County,CT,NA,NA,9.872241579558652
06418,New Haven County,CT,NA,66.56217345872518,NA
06457,Middlesex County,CT,31.535269709543567,NA,NA
06478,New Haven County,CT,98.13278008298755,NA,NA
06483,New Haven County,CT,85.58091286307054,NA,NA
06489,Hartford County,CT,31.12033195020747,NA,NA
06513,New Haven County,CT,4.253112033195021,NA,19.51219512195122
06515,New Haven County,CT,29.460580912863072,NA,NA
06516,New Haven County,CT,NA,43.78265412748171,11.149825783972126
06517,New Haven County,CT,52.178423236514526,NA,NA
06606,Fairfield County,CT,50.4149377593361,31.347962382445143,36.81765389082462
06615,Fairfield County,CT,NA,NA,76.53890824622532
06704,New Haven County,CT,20.33195020746888,NA,NA
06708,New Haven County,CT,NA,NA,37.63066202090592
06762,New Haven County,CT,94.70954356846472,NA,NA
06804,Fairfield County,CT,NA,NA,59.93031358885017
06810,Fairfield County,CT,NA,20.37617554858934,NA
06811,Fairfield County,CT,NA,26.12330198537095,NA
06812,Fairfield County,CT,89.41908713692946,NA,NA
06902,Fairfield County,CT,NA,NA,5.1103368176538915
19701,New Castle County,DE,NA,NA,43.90243902439025
19707,New Castle County,DE,NA,NA,45.29616724738676
19720,New Castle County,DE,2.2821576763485476,NA,NA
19805,New Castle County,DE,NA,NA,30.313588850174217
19809,New Castle County,DE,60.68464730290456,NA,NA
19810,New Castle County,DE,NA,NA,31.59117305458769
19904,Kent County,DE,NA,14.315569487983282,NA
19950,Sussex County,DE,98.02904564315352,NA,NA
19968,Sussex County,DE,75.20746887966806,NA,NA
32003,Clay County,FL,NA,NA,59.117305458768875
32024,Columbia County,FL,NA,74.8171368861024,76.30662020905923
32025,Columbia County,FL,NA,NA,93.37979094076655
32064,Suwannee County,FL,NA,74.92163009404389,NA
32084,St. Johns County,FL,29.356846473029048,NA,NA
32091,Bradford County,FL,43.77593360995851,NA,NA
32092,St. Johns County,FL,NA,73.66771159874608,NA
32117,Volusia County,FL,NA,NA,33.79790940766551
32118,Volusia County,FL,82.36514522821577,63.322884012539184,NA
32136,Flagler County,FL,NA,72.41379310344827,NA
32168,Volusia County,FL,NA,32.81086729362591,NA
32174,Volusia County,FL,NA,NA,38.443670150987224
32176,Volusia County,FL,NA,72.9362591431557,NA
32202,Duval County,FL,82.98755186721992,NA,NA
32206,Duval County,FL,NA,22.77951933124347,NA
32209,Duval County,FL,4.564315352697095,NA,NA
32210,Duval County,FL,3.8381742738589213,NA,NA
32211,Duval County,FL,19.398340248962658,NA,NA
32218,Duval County,FL,NA,1.7763845350052248,NA
32220,Duval County,FL,87.03319502074689,NA,NA
32225,Duval County,FL,NA,14.629049111807731,NA
32244,Duval County,FL,NA,NA,34.959349593495936
32246,Duval County,FL,NA,22.884012539184955,NA
32256,Duval County,FL,65.87136929460581,NA,NA
32258,Duval County,FL,NA,NA,84.66898954703834
32304,Leon County,FL,NA,88.19226750261234,94.54123112659698
32308,Leon County,FL,NA,NA,36.00464576074332
32352,Gadsden County,FL,96.88796680497926,NA,NA
32401,Bay County,FL,NA,63.00940438871473,NA
32405,Bay County,FL,76.14107883817427,27.89968652037618,NA
32413,Bay County,FL,NA,NA,95.47038327526133
32421,Calhoun County,FL,89.93775933609959,NA,NA
32424,Calhoun County,FL,69.50207468879668,NA,NA
32428,Washington County,FL,NA,NA,78.04878048780488
32435,Walton County,FL,78.7344398340249,NA,NA
32440,Jackson County,FL,89.62655601659752,NA,NA
32503,Escambia County,FL,NA,12.539184952978054,NA
32514,Escambia County,FL,NA,12.016718913270637,NA
32547,Okaloosa County,FL,43.15352697095436,NA,NA
32548,Okaloosa County,FL,65.35269709543569,NA,NA
32583,Santa Rosa County,FL,24.5850622406639,NA,NA
32641,Alachua County,FL,NA,NA,88.96631823461092
32643,Alachua County,FL,53.52697095435685,NA,NA
32668,Levy County,FL,NA,NA,88.26945412311265
32669,Alachua County,FL,NA,64.36781609195403,NA
32680,Dixie County,FL,78.21576763485477,NA,NA
32693,Gilchrist County,FL,NA,79.20585161964472,NA
32701,Seminole County,FL,NA,NA,82.11382113821138
32703,Orange County,FL,NA,17.86833855799373,NA
32724,Volusia County,FL,NA,NA,22.18350754936121
32730,Seminole County,FL,NA,NA,90.94076655052264
32738,Volusia County,FL,NA,NA,47.386759581881535
32773,Seminole County,FL,49.79253112033195,NA,NA
32776,Lake County,FL,NA,79.62382445141067,NA
32792,Orange County,FL,NA,NA,19.628339140534262
32806,Orange County,FL,NA,NA,31.126596980255517
32807,Orange County,FL,48.02904564315353,NA,NA
32810,Orange County,FL,40.66390041493776,NA,NA
32812,Orange County,FL,37.448132780082986,NA,NA
32817,Orange County,FL,NA,64.89028213166145,NA
32832,Orange County,FL,NA,NA,80.13937282229965
32836,Orange County,FL,NA,83.9080459770115,NA
32839,Orange County,FL,NA,37.09508881922675,NA
32908,Brevard County,FL,90.87136929460581,NA,NA
32934,Brevard County,FL,89.10788381742739,NA,NA
32935,Brevard County,FL,52.9045643153527,NA,NA
32952,Brevard County,FL,NA,NA,53.65853658536586
33004,Broward County,FL,NA,NA,84.3205574912892
33013,Miami-Dade County,FL,NA,NA,23.461091753774678
33014,Miami-Dade County,FL,NA,NA,23.228803716608596
33016,Miami-Dade County,FL,NA,NA,23.34494773519164
33019,Broward County,FL,NA,NA,57.955865272938446
33021,Broward County,FL,NA,NA,29.152148664343784
33023,Broward County,FL,NA,43.46917450365726,NA
33027,Broward County,FL,41.39004149377593,NA,NA
33030,Miami-Dade County,FL,46.058091286307054,NA,NA
33055,Miami-Dade County,FL,NA,NA,53.7746806039489
33063,Broward County,FL,NA,NA,11.614401858304298
33125,Miami-Dade County,FL,NA,35.73667711598746,10.220673635307783
33127,Miami-Dade County,FL,57.8838174273859,NA,NA
33130,Miami-Dade County,FL,83.09128630705395,NA,NA
33142,Miami-Dade County,FL,16.701244813278006,NA,NA
33143,Miami-Dade County,FL,79.46058091286307,NA,NA
33145,Miami-Dade County,FL,NA,NA,29.84901277584204
33155,Miami-Dade County,FL,75.10373443983403,NA,NA
33156,Miami-Dade County,FL,80.3941908713693,NA,NA
33157,Miami-Dade County,FL,NA,NA,55.749128919860624
33161,Miami-Dade County,FL,NA,NA,37.282229965156795
33165,Miami-Dade County,FL,NA,NA,2.5551684088269457
33170,Miami-Dade County,FL,83.40248962655602,NA,NA
33180,Miami-Dade County,FL,NA,43.8871473354232,NA
33182,Miami-Dade County,FL,NA,NA,78.97793263646922
33193,Miami-Dade County,FL,NA,NA,50.05807200929152
33196,Miami-Dade County,FL,NA,61.859979101358405,48.31591173054588
33309,Broward County,FL,NA,44.72309299895507,NA
33311,Broward County,FL,NA,20.27168234064786,NA
33312,Broward County,FL,35.995850622406635,NA,NA
33314,Broward County,FL,NA,NA,83.62369337979094
33331,Broward County,FL,NA,NA,68.6411149825784
33414,Palm Beach County,FL,NA,74.60815047021944,NA
33426,Palm Beach County,FL,NA,NA,48.66434378629501
33445,Palm Beach County,FL,71.16182572614107,NA,NA
33446,Palm Beach County,FL,NA,NA,23.809523809523807
33455,Martin County,FL,NA,22.988505747126435,11.962833914053427
33458,Palm Beach County,FL,NA,23.719958202716825,NA
33461,Palm Beach County,FL,60.37344398340249,NA,NA
33467,Palm Beach County,FL,NA,NA,48.199767711962835
33470,Palm Beach County,FL,NA,NA,82.81068524970964
33472,Palm Beach County,FL,NA,NA,20.789779326364695
33483,Palm Beach County,FL,NA,NA,76.07433217189315
33487,Palm Beach County,FL,NA,40.54336468129572,NA
33511,Hillsborough County,FL,NA,NA,48.89663182346109
33525,Pasco County,FL,88.58921161825725,NA,NA
33541,Pasco County,FL,NA,NA,19.744483159117305
33545,Pasco County,FL,NA,92.47648902821317,NA
33598,Hillsborough County,FL,NA,70.53291536050156,NA
33604,Hillsborough County,FL,NA,37.19958202716823,NA
33605,Hillsborough County,FL,NA,NA,63.64692218350755
33607,Hillsborough County,FL,NA,NA,59.00116144018583
33609,Hillsborough County,FL,NA,55.4858934169279,NA
33610,Hillsborough County,FL,NA,NA,78.51335656213705
33619,Hillsborough County,FL,36.410788381742734,NA,NA
33635,Hillsborough County,FL,NA,NA,86.29500580720094
33705,Pinellas County,FL,27.904564315352697,NA,NA
33709,Pinellas County,FL,52.282157676348554,NA,NA
33713,Pinellas County,FL,NA,65.72622779519331,NA
33715,Pinellas County,FL,NA,77.63845350052246,NA
33764,Pinellas County,FL,NA,46.39498432601881,NA
33765,Pinellas County,FL,NA,68.12957157784744,NA
33774,Pinellas County,FL,NA,NA,55.86527293844367
33801,Polk County,FL,NA,40.96133751306165,NA
33803,Polk County,FL,NA,55.067920585161964,NA
33805,Polk County,FL,NA,32.70637408568443,NA
33815,Polk County,FL,NA,68.23406478578893,NA
33823,Polk County,FL,NA,NA,55.86527293844367
33844,Polk County,FL,NA,NA,36.469221835075494
33852,Highlands County,FL,NA,NA,6.504065040650407
33870,Highlands County,FL,62.655601659751035,NA,NA
33884,Polk County,FL,NA,NA,26.94541231126597
33920,Lee County,FL,NA,NA,84.90127758420442
33948,Charlotte County,FL,NA,36.990595611285265,NA
33950,Charlotte County,FL,NA,NA,22.76422764227642
33952,Charlotte County,FL,23.236514522821576,NA,30.77816492450639
34103,Collier County,FL,NA,NA,36.120789779326365
34105,Collier County,FL,NA,NA,43.43786295005807
34109,Collier County,FL,76.34854771784232,NA,NA
34135,Lee County,FL,NA,12.957157784743991,NA
34202,Manatee County,FL,NA,36.46812957157785,NA
34208,Manatee County,FL,24.79253112033195,NA,NA
34209,Manatee County,FL,65.66390041493776,NA,NA
34232,Sarasota County,FL,NA,30.303030303030305,NA
34236,Sarasota County,FL,88.69294605809128,NA,NA
34293,Sarasota County,FL,NA,NA,21.486643437862952
34461,Citrus County,FL,NA,NA,81.30081300813008
34472,Marion County,FL,38.48547717842324,NA,NA
34476,Marion County,FL,61.09958506224067,NA,26.01626016260163
34480,Marion County,FL,NA,NA,77.35191637630662
34484,Sumter County,FL,NA,NA,97.67711962833914
34606,Hernando County,FL,NA,36.886102403343784,NA
34654,Pasco County,FL,49.27385892116183,NA,NA
34689,Pinellas County,FL,NA,73.24973876698014,19.047619047619047
34691,Pasco County,FL,NA,79.3103448275862,NA
34698,Pinellas County,FL,NA,NA,50.754936120789786
34711,Lake County,FL,20.643153526970952,NA,3.2520325203252036
34759,Polk County,FL,NA,76.07105538140021,NA
34772,Osceola County,FL,NA,NA,73.75145180023229
34786,Orange County,FL,59.024896265560166,NA,NA
34788,Lake County,FL,NA,63.63636363636363,NA
34950,St. Lucie County,FL,NA,79.4148380355277,NA
34952,St. Lucie County,FL,NA,6.374085684430512,NA
34956,Martin County,FL,96.05809128630706,NA,NA
34986,St. Lucie County,FL,NA,NA,8.013937282229964
30013,Rockdale County,GA,48.13278008298755,60.083594566353185,NA
30030,DeKalb County,GA,47.19917012448133,NA,NA
30033,DeKalb County,GA,NA,NA,46.80603948896632
30044,Gwinnett County,GA,NA,13.479623824451412,NA
30052,Walton County,GA,NA,NA,23.693379790940767
30066,Cobb County,GA,NA,NA,32.98490127758421
30068,Cobb County,GA,NA,56.94879832810867,NA
30082,Cobb County,GA,NA,NA,71.54471544715447
30088,DeKalb County,GA,40.975103734439834,NA,NA
30102,Cherokee County,GA,NA,29.46708463949843,NA
30110,Haralson County,GA,NA,NA,56.329849012775846
30115,Cherokee County,GA,NA,36.677115987460816,NA
30116,Carroll County,GA,49.481327800829874,NA,NA
30117,Carroll County,GA,NA,67.29362591431557,NA
30134,Douglas County,GA,23.029045643153527,NA,NA
30175,Pickens County,GA,NA,NA,96.05110336817654
30180,Carroll County,GA,NA,35.42319749216301,NA
30188,Cherokee County,GA,NA,69.59247648902821,NA
30230,Troup County,GA,76.97095435684648,NA,NA
30236,Clayton County,GA,NA,73.87669801462906,NA
30253,Henry County,GA,24.79253112033195,NA,NA
30265,Coweta County,GA,NA,NA,57.25900116144018
30276,Coweta County,GA,NA,NA,82.57839721254355
30281,Henry County,GA,24.481327800829874,NA,NA
30292,Pike County,GA,NA,NA,98.72241579558653
30294,DeKalb County,GA,72.40663900414937,NA,NA
30319,DeKalb County,GA,NA,NA,25.667828106852497
30327,Fulton County,GA,NA,NA,58.18815331010453
30337,Fulton County,GA,NA,86.72936259143155,NA
30345,DeKalb County,GA,NA,NA,97.5609756097561
30349,Fulton County,GA,8.609958506224066,NA,NA
30474,Toombs County,GA,60.58091286307054,NA,NA
30504,Hall County,GA,NA,75.13061650992685,NA
30507,Hall County,GA,45.02074688796681,62.17345872518286,NA
30534,Dawson County,GA,43.56846473029046,NA,NA
30540,Gilmer County,GA,NA,40.229885057471265,NA
30548,Jackson County,GA,NA,47.64890282131661,NA
30577,Stephens County,GA,46.99170124481328,NA,NA
30601,Clarke County,GA,NA,NA,86.7595818815331
30643,Hart County,GA,NA,49.42528735632184,NA
30680,Barrow County,GA,NA,22.675026123301986,NA
30741,Walker County,GA,NA,19.331243469174503,NA
30742,Catoosa County,GA,79.04564315352697,NA,NA
30755,Whitfield County,GA,NA,NA,93.96051103368177
30809,Columbia County,GA,NA,10.867293625914314,NA
30904,Richmond County,GA,35.16597510373444,18.7042842215256,NA
30906,Richmond County,GA,NA,NA,16.376306620209057
31008,Peach County,GA,NA,NA,76.30662020905923
31015,Crisp County,GA,NA,NA,52.49709639953542
31032,Jones County,GA,NA,78.78787878787878,NA
31047,Houston County,GA,NA,NA,88.6178861788618
31064,Jasper County,GA,NA,77.95193312434692,NA
31082,Washington County,GA,NA,70.3239289446186,NA
31093,Houston County,GA,33.713692946058096,NA,NA
31204,Bibb County,GA,NA,26.541274817136884,NA
31313,Liberty County,GA,NA,NA,84.43670150987224
31324,Bryan County,GA,NA,NA,89.19860627177701
31404,Chatham County,GA,NA,38.662486938349005,NA
31405,Chatham County,GA,51.141078838174266,NA,NA
31408,Chatham County,GA,NA,98.22361546499478,NA
31410,Chatham County,GA,NA,42.5287356321839,NA
31501,Ware County,GA,66.70124481327801,NA,NA
31537,Charlton County,GA,95.850622406639,NA,NA
31548,Camden County,GA,58.921161825726145,NA,NA
31601,Lowndes County,GA,24.273858921161825,NA,NA
31709,Sumter County,GA,NA,NA,64.22764227642277
31714,Turner County,GA,NA,NA,69.91869918699187
31750,Ben Hill County,GA,NA,63.84535005224661,NA
31779,Mitchell County,GA,NA,74.39916405433647,NA
31792,Thomas County,GA,35.26970954356847,NA,NA
31903,Muscogee County,GA,66.18257261410788,NA,NA
39817,Decatur County,GA,64.41908713692946,NA,NA
39837,Miller County,GA,NA,96.34273772204807,NA
96701,Honolulu County,HI,NA,NA,9.75609756097561
96734,Honolulu County,HI,NA,41.17032392894462,8.59465737514518
96740,Hawaii County,HI,NA,59.979101358411704,NA
96744,Honolulu County,HI,18.25726141078838,NA,2.671312427409988
96766,Kauai County,HI,NA,NA,79.67479674796748
96782,Honolulu County,HI,37.75933609958506,NA,10.220673635307783
96789,Honolulu County,HI,NA,NA,62.48548199767712
96792,Honolulu County,HI,NA,57.88923719958202,NA
96797,Honolulu County,HI,8.71369294605809,30.303030303030305,NA
96816,Honolulu County,HI,65.45643153526972,NA,NA
96817,Honolulu County,HI,11.514522821576763,NA,NA
96818,Honolulu County,HI,NA,82.34064785788924,31.70731707317073
96822,Honolulu County,HI,41.286307053941904,NA,40.65040650406504
96826,Honolulu County,HI,73.65145228215768,NA,NA
83201,Bannock County,ID,72.0954356846473,NA,NA
83202,Bannock County,ID,54.9792531120332,NA,NA
83301,Twin Falls County,ID,NA,0.20898641588296762,NA
83316,Twin Falls County,ID,NA,NA,28.687572590011612
83687,Canyon County,ID,NA,17.450365726227794,NA
83714,Ada County,ID,NA,NA,12.659698025551682
60004,Cook County,IL,87.65560165975104,NA,7.665505226480835
60020,Lake County,IL,90.35269709543569,NA,72.12543554006969
60030,Lake County,IL,NA,23.301985370950888,NA
60033,McHenry County,IL,NA,91.22257053291536,NA
60035,Lake County,IL,NA,11.494252873563218,1.8583042973286876
60056,Cook County,IL,NA,13.270637408568442,NA
60083,Lake County,IL,NA,69.27899686520375,67.8281068524971
60087,Lake County,IL,NA,NA,57.60743321718932
60097,McHenry County,IL,NA,NA,81.06852497096399
60107,Cook County,IL,NA,NA,57.375145180023225
60108,DuPage County,IL,NA,26.332288401253916,NA
60130,Cook County,IL,51.037344398340245,NA,NA
60152,McHenry County,IL,NA,50.36572622779519,NA
60178,DeKalb County,IL,57.05394190871369,NA,NA
60193,Cook County,IL,NA,NA,27.526132404181187
60402,Cook County,IL,60.47717842323651,NA,NA
60415,Cook County,IL,82.78008298755186,NA,NA
60419,Cook County,IL,NA,NA,53.42624854819977
60426,Cook County,IL,NA,NA,50.987224157955865
60435,Will County,IL,NA,86.20689655172413,16.840882694541232
60440,Will County,IL,17.946058091286307,46.70846394984326,NA
60443,Cook County,IL,76.03734439834025,NA,NA
60453,Cook County,IL,13.692946058091287,NA,NA
60455,Cook County,IL,87.44813278008299,NA,NA
60461,Cook County,IL,NA,NA,70.61556329849013
60465,Cook County,IL,NA,NA,51.800232288037165
60467,Cook County,IL,52.4896265560166,NA,NA
60471,Cook County,IL,NA,88.29676071055381,NA
60505,Kane County,IL,31.950207468879665,NA,NA
60506,Kane County,IL,NA,24.660397074190175,NA
60523,DuPage County,IL,NA,NA,39.37282229965157
60527,DuPage County,IL,NA,8.150470219435736,15.447154471544716
60545,Kendall County,IL,68.04979253112033,NA,NA
60563,DuPage County,IL,NA,36.25914315569488,21.951219512195124
60605,Cook County,IL,NA,NA,58.536585365853654
60608,Cook County,IL,39.73029045643153,NA,NA
60609,Cook County,IL,38.69294605809129,NA,NA
60611,Cook County,IL,NA,NA,10.685249709639953
60612,Cook County,IL,NA,29.258098223615463,NA
60615,Cook County,IL,NA,15.778474399164056,NA
60616,Cook County,IL,NA,37.93103448275862,NA
60617,Cook County,IL,NA,NA,15.911730545876887
60620,Cook County,IL,7.676348547717843,NA,3.0197444831591174
60622,Cook County,IL,NA,44.5141065830721,NA
60628,Cook County,IL,NA,NA,2.3228803716608595
60629,Cook County,IL,NA,NA,60.39488966318235
60630,Cook County,IL,21.680497925311204,44.09613375130617,NA
60632,Cook County,IL,NA,27.377220480668758,NA
60633,Cook County,IL,NA,NA,56.91056910569105
60634,Cook County,IL,10.269709543568464,NA,NA
60636,Cook County,IL,NA,NA,21.370499419279906
60638,Cook County,IL,NA,NA,4.529616724738676
60639,Cook County,IL,NA,5.22466039707419,NA
60640,Cook County,IL,33.921161825726145,NA,NA
60641,Cook County,IL,12.655601659751037,NA,NA
60647,Cook County,IL,8.195020746887966,19.853709508881924,68.29268292682927
60651,Cook County,IL,NA,5.6426332288401255,14.982578397212542
60652,Cook County,IL,NA,NA,45.52845528455284
60654,Cook County,IL,NA,81.9226750261233,NA
60660,Cook County,IL,25.622406639004147,NA,NA
60804,Cook County,IL,NA,45.245559038662485,NA
60827,Cook County,IL,NA,52.87356321839081,NA
60901,Kankakee County,IL,NA,11.389759665621735,9.291521486643438
60950,Kankakee County,IL,NA,NA,37.86295005807201
61074,Carroll County,IL,NA,93.521421107628,NA
61103,Winnebago County,IL,55.705394190871374,NA,NA
61107,Winnebago County,IL,NA,NA,54.35540069686411
61282,Rock Island County,IL,NA,96.86520376175548,NA
61364,LaSalle County,IL,NA,NA,74.21602787456446
61571,Tazewell County,IL,NA,NA,49.825783972125436
61603,Peoria County,IL,67.11618257261411,NA,NA
61611,Tazewell County,IL,NA,39.916405433646815,NA
61615,Peoria County,IL,NA,NA,51.68408826945412
61739,Livingston County,IL,NA,NA,93.61207897793264
61866,Champaign County,IL,42.427385892116185,NA,NA
61938,Coles County,IL,47.71784232365145,NA,NA
62034,Madison County,IL,95.12448132780082,NA,NA
62223,St. Clair County,IL,NA,NA,47.73519163763066
62258,St. Clair County,IL,NA,90.49111807732497,NA
62522,Macon County,IL,NA,49.738766980146295,NA
62526,Macon County,IL,NA,NA,28.222996515679444
62557,Christian County,IL,NA,NA,70.38327526132404
62568,Christian County,IL,NA,54.44096133751306,NA
62656,Logan County,IL,NA,66.4576802507837,NA
62703,Sangamon County,IL,93.3609958506224,NA,NA
62812,Franklin County,IL,NA,83.59456635318703,33.44947735191638
62951,Williamson County,IL,97.71784232365145,NA,NA
46001,Madison County,IN,NA,NA,53.42624854819977
46013,Madison County,IN,NA,18.91327063740857,NA
46062,Hamilton County,IN,NA,16.091954022988507,NA
46077,Boone County,IN,NA,NA,55.28455284552846
46123,Hendricks County,IN,NA,41.27481713688611,NA
46140,Hancock County,IN,29.045643153526974,17.763845350052247,NA
46142,Johnson County,IN,84.75103734439834,NA,NA
46143,Johnson County,IN,NA,NA,29.500580720092916
46158,Morgan County,IN,NA,NA,20.441347270615566
46184,Johnson County,IN,73.85892116182573,NA,NA
46201,Marion County,IN,NA,33.5423197492163,NA
46203,Marion County,IN,9.336099585062241,11.598746081504702,NA
46208,Marion County,IN,NA,88.81922675026124,NA
46222,Marion County,IN,17.946058091286307,87.25182863113898,NA
46239,Marion County,IN,NA,NA,69.68641114982579
46241,Marion County,IN,NA,33.96029258098224,NA
46260,Marion County,IN,NA,45.35005224660397,NA
46310,Jasper County,IN,NA,NA,78.16492450638792
46311,Lake County,IN,NA,16.405433646812956,NA
46321,Lake County,IN,NA,14.733542319749215,NA
46323,Lake County,IN,18.87966804979253,17.345872518286313,NA
46327,Lake County,IN,NA,56.112852664576806,NA
46341,Porter County,IN,64.00414937759335,NA,NA
46342,Lake County,IN,6.016597510373444,NA,18.118466898954704
46360,LaPorte County,IN,NA,26.750261233019856,NA
46368,Porter County,IN,NA,14.00208986415883,NA
46383,Porter County,IN,NA,NA,12.89198606271777
46385,Porter County,IN,7.883817427385892,NA,NA
46406,Lake County,IN,NA,66.03970741901777,NA
46407,Lake County,IN,48.65145228215768,NA,NA
46410,Lake County,IN,NA,NA,97.44483159117306
46526,Elkhart County,IN,58.60995850622407,NA,NA
46545,St. Joseph County,IN,77.59336099585063,NA,NA
46552,St. Joseph County,IN,NA,NA,89.43089430894308
46619,St. Joseph County,IN,NA,NA,73.63530778164925
46725,Whitley County,IN,30.601659751037346,NA,NA
46750,Huntington County,IN,17.634854771784234,NA,NA
46809,Allen County,IN,NA,71.68234064785788,NA
46815,Allen County,IN,NA,NA,18.234610917537747
46816,Allen County,IN,NA,NA,84.66898954703834
46818,Allen County,IN,NA,NA,70.267131242741
46962,Wabash County,IN,NA,NA,67.47967479674797
47031,Ripley County,IN,NA,89.86415882967607,NA
47111,Clark County,IN,57.676348547717836,NA,NA
47170,Scott County,IN,NA,51.515151515151516,NA
47243,Jefferson County,IN,97.0954356846473,NA,NA
47274,Jackson County,IN,26.763485477178424,NA,NA
47302,Delaware County,IN,84.02489626556017,NA,NA
47330,Wayne County,IN,88.90041493775934,NA,NA
47331,Fayette County,IN,14.419087136929459,NA,NA
47353,Union County,IN,94.81327800829875,NA,NA
47362,Henry County,IN,NA,9.404388714733543,NA
47374,Wayne County,IN,NA,NA,1.0452961672473868
47396,Delaware County,IN,NA,NA,90.2439024390244
47421,Lawrence County,IN,NA,18.39080459770115,NA
47432,Orange County,IN,95.95435684647303,NA,NA
47446,Lawrence County,IN,69.08713692946058,NA,NA
47454,Orange County,IN,NA,NA,80.72009291521486
47567,Pike County,IN,92.5311203319502,NA,NA
47591,Knox County,IN,NA,24.555903866248695,NA
47714,Vanderburgh County,IN,13.485477178423237,NA,NA
47715,Vanderburgh County,IN,30.49792531120332,NA,NA
47905,Tippecanoe County,IN,NA,NA,15.795586527293844
47909,Tippecanoe County,IN,40.767634854771785,NA,NA
47933,Montgomery County,IN,NA,NA,24.041811846689896
47960,White County,IN,99.89626556016597,NA,NA
50036,Boone County,IA,NA,NA,20.905923344947734
50111,Polk County,IA,88.17427385892115,NA,NA
50112,Poweshiek County,IA,NA,89.13270637408569,NA
50158,Marshall County,IA,NA,NA,28.339140534262487
50315,Polk County,IA,NA,NA,74.79674796747967
50321,Polk County,IA,NA,92.8944618599791,NA
50662,Fayette County,IA,68.3609958506224,NA,NA
50703,Black Hawk County,IA,27.69709543568465,NA,NA
51031,Plymouth County,IA,NA,NA,47.61904761904761
51103,Woodbury County,IA,NA,63.00940438871473,NA
51501,Pottawattamie County,IA,2.8008298755186725,NA,NA
51503,Pottawattamie County,IA,NA,2.507836990595611,NA
51601,Page County,IA,68.7759336099585,NA,NA
52001,Dubuque County,IA,NA,23.61546499477534,NA
52101,Winneshiek County,IA,NA,62.27795193312434,NA
52349,Benton County,IA,72.82157676348547,NA,67.0150987224158
52402,Linn County,IA,NA,NA,33.33333333333333
52404,Linn County,IA,NA,NA,29.268292682926827
52405,Linn County,IA,NA,NA,41.23112659698025
52761,Muscatine County,IA,NA,10.44932079414838,NA
52803,Scott County,IA,67.9460580912863,NA,NA
52806,Scott County,IA,19.294605809128633,NA,40.069686411149824
66007,Leavenworth County,KS,NA,84.5350052246604,NA
66061,Johnson County,KS,NA,NA,35.77235772357724
66101,Wyandotte County,KS,NA,85.0574712643678,NA
66102,Wyandotte County,KS,NA,40.020898641588296,NA
66109,Wyandotte County,KS,55.809128630705395,NA,NA
66203,Johnson County,KS,NA,NA,64.92450638792103
66204,Johnson County,KS,72.0954356846473,NA,NA
66215,Johnson County,KS,74.37759336099586,NA,NA
66534,Nemaha County,KS,NA,99.58202716823406,NA
66604,Shawnee County,KS,NA,38.76698014629049,NA
66609,Shawnee County,KS,NA,85.7889237199582,NA
66614,Shawnee County,KS,36.099585062240664,NA,NA
67037,Sedgwick County,KS,NA,NA,80.37166085946573
67052,Sedgwick County,KS,NA,94.46185997910136,NA
67133,Butler County,KS,NA,99.68652037617555,NA
67204,Sedgwick County,KS,NA,67.18913270637408,NA
67213,Sedgwick County,KS,NA,82.44514106583071,NA
67216,Sedgwick County,KS,NA,NA,92.6829268292683
67217,Sedgwick County,KS,54.460580912863065,NA,NA
67219,Sedgwick County,KS,85.26970954356847,NA,NA
67357,Labette County,KS,NA,57.68025078369906,NA
67502,Reno County,KS,NA,NA,80.8362369337979
67530,Barton County,KS,NA,55.69487983281086,NA
67846,Finney County,KS,NA,NA,22.067363530778163
40004,Nelson County,KY,17.012448132780083,NA,NA
40047,Bullitt County,KY,62.96680497925311,NA,NA
40057,Henry County,KY,NA,99.26854754440961,NA
40146,Breckinridge County,KY,93.46473029045643,NA,NA
40165,Bullitt County,KY,NA,NA,46.2253193960511
40210,Jefferson County,KY,42.738589211618255,NA,NA
40214,Jefferson County,KY,7.468879668049793,NA,NA
40219,Jefferson County,KY,NA,NA,30.081300813008134
40229,Jefferson County,KY,11.721991701244812,20.06269592476489,NA
40241,Jefferson County,KY,52.593360995850624,NA,NA
40242,Jefferson County,KY,NA,90.17763845350052,NA
40245,Jefferson County,KY,NA,37.72204806687565,NA
40391,Clark County,KY,NA,NA,23.809523809523807
40456,Rockcastle County,KY,73.85892116182573,NA,NA
40484,Lincoln County,KY,88.38174273858921,NA,NA
40508,Fayette County,KY,34.439834024896264,NA,NA
40701,Whitley County,KY,NA,64.26332288401254,NA
40741,Laurel County,KY,20.74688796680498,38.557993730407524,NA
40831,Harlan County,KY,NA,NA,90.12775842044135
40962,Clay County,KY,NA,19.958202716823408,NA
40977,Bell County,KY,NA,68.65203761755487,NA
41035,Grant County,KY,48.3402489626556,NA,NA
41056,Mason County,KY,44.502074688796675,NA,NA
41071,Campbell County,KY,NA,32.18390804597701,55.052264808362374
41076,Campbell County,KY,NA,NA,19.97677119628339
41171,Elliott County,KY,92.84232365145229,NA,NA
41537,Letcher County,KY,NA,NA,99.41927990708479
41572,Pike County,KY,NA,NA,93.03135888501743
42001,McCracken County,KY,NA,20.58516196447231,NA
42003,McCracken County,KY,NA,NA,30.197444831591174
42071,Calloway County,KY,42.11618257261411,NA,NA
42101,Warren County,KY,7.365145228215768,NA,NA
42104,Warren County,KY,43.46473029045643,NA,NA
42240,Christian County,KY,NA,12.330198537095088,NA
42347,Ohio County,KY,NA,67.81609195402298,NA
42408,Hopkins County,KY,NA,NA,88.73403019744484
42431,Hopkins County,KY,NA,NA,65.1567944250871
42553,Pulaski County,KY,NA,NA,98.02555168408827
42728,Adair County,KY,80.29045643153528,NA,NA
70001,Jefferson Parish,LA,NA,7.523510971786834,NA
70005,Jefferson Parish,LA,34.95850622406639,NA,NA
70037,Plaquemines Parish,LA,43.15352697095436,NA,NA
70058,Jefferson Parish,LA,1.8672199170124482,NA,NA
70065,Jefferson Parish,LA,4.045643153526971,NA,NA
70068,St. John the Baptist Parish,LA,NA,NA,29.036004645760745
70094,Jefferson Parish,LA,22.199170124481327,NA,NA
70113,Orleans Parish,LA,32.15767634854772,NA,NA
70114,Orleans Parish,LA,NA,31.347962382445143,58.536585365853654
70115,Orleans Parish,LA,16.59751037344398,23.09299895506792,NA
70119,Orleans Parish,LA,NA,4.493207941483804,NA
70123,Jefferson Parish,LA,NA,NA,39.14053426248548
70126,Orleans Parish,LA,NA,NA,19.279907084785133
70301,Lafourche Parish,LA,1.970954356846473,NA,NA
70363,Terrebonne Parish,LA,NA,28.735632183908045,NA
70392,St. Mary Parish,LA,NA,NA,96.39953542392567
70422,Tangipahoa Parish,LA,23.54771784232365,NA,NA
70427,Washington Parish,LA,14.730290456431536,NA,26.59698025551684
70452,St. Tammany Parish,LA,NA,NA,57.14285714285714
70454,Tangipahoa Parish,LA,NA,6.792058516196447,NA
70461,St. Tammany Parish,LA,NA,19.74921630094044,NA
70544,Iberia Parish,LA,67.01244813278008,NA,NA
70577,St. Landry Parish,LA,73.44398340248964,NA,NA
70578,Acadia Parish,LA,20.12448132780083,NA,NA
70582,St. Martin Parish,LA,NA,NA,60.85946573751452
70605,Calcasieu Parish,LA,16.286307053941908,NA,NA
70726,Livingston Parish,LA,NA,5.747126436781609,NA
70760,Pointe Coupee Parish,LA,73.02904564315352,83.49007314524556,NA
70791,East Baton Rouge Parish,LA,13.070539419087138,NA,NA
70805,East Baton Rouge Parish,LA,2.3858921161825726,NA,NA
70806,East Baton Rouge Parish,LA,NA,NA,70.96399535423926
70816,East Baton Rouge Parish,LA,NA,NA,35.88850174216028
71001,Bienville Parish,LA,NA,NA,98.02555168408827
71075,Webster Parish,LA,NA,78.68338557993731,NA
71105,Caddo Parish,LA,NA,76.69801462904911,NA
71109,Caddo Parish,LA,7.157676348547717,NA,NA
71201,Ouachita Parish,LA,NA,45.141065830721004,NA
71202,Ouachita Parish,LA,5.394190871369295,26.01880877742947,48.548199767711964
71292,Ouachita Parish,LA,NA,95.19331243469175,NA
71295,Franklin Parish,LA,NA,53.08254963427377,NA
71301,Rapides Parish,LA,NA,32.07941483803553,NA
71334,Concordia Parish,LA,NA,93.62591431556949,NA
71360,Rapides Parish,LA,NA,25.60083594566353,NA
71409,Rapides Parish,LA,70.74688796680498,NA,NA
04102,Cumberland County,ME,NA,35.94566353187043,60.04645760743321
04106,Cumberland County,ME,36.203319502074685,NA,NA
04240,Androscoggin County,ME,1.5560165975103735,NA,NA
04345,Kennebec County,ME,NA,50.57471264367817,NA
04401,Penobscot County,ME,1.4522821576763485,NA,NA
04416,Hancock County,ME,NA,NA,99.07084785133566
04742,Aroostook County,ME,NA,88.50574712643679,NA
04843,Knox County,ME,NA,NA,46.922183507549356
20716,Prince George's County,MD,NA,NA,95.81881533101046
20743,Prince George's County,MD,36.30705394190871,NA,NA
20745,Prince George's County,MD,94.39834024896265,55.067920585161964,NA
20781,Prince George's County,MD,91.07883817427386,NA,NA
20782,Prince George's County,MD,NA,68.23406478578893,NA
20833,Montgomery County,MD,NA,97.17868338557993,NA
20852,Montgomery County,MD,NA,NA,24.15795586527294
20854,Montgomery County,MD,NA,NA,68.17653890824621
20876,Montgomery County,MD,87.75933609958506,NA,NA
20878,Montgomery County,MD,76.2448132780083,NA,NA
20902,Montgomery County,MD,NA,60.81504702194357,NA
21009,Harford County,MD,NA,NA,63.41463414634146
21045,Howard County,MD,87.13692946058092,NA,NA
21060,Anne Arundel County,MD,28.008298755186722,NA,NA
21120,Baltimore County,MD,NA,NA,91.63763066202091
21128,Baltimore County,MD,85.68464730290457,NA,NA
21131,Baltimore County,MD,NA,NA,94.77351916376307
21207,Baltimore County,MD,NA,NA,16.492450638792103
21215,Baltimore city,MD,NA,NA,8.013937282229964
21218,Baltimore city,MD,NA,9.508881922675027,NA
21220,Baltimore County,MD,NA,28.94461859979101,30.313588850174217
21223,Baltimore city,MD,NA,NA,66.66666666666666
21231,Baltimore city,MD,NA,66.87565308254963,NA
21234,Baltimore County,MD,NA,NA,4.181184668989547
21502,Allegany County,MD,21.78423236514523,18.599791013584117,6.2717770034843205
21703,Frederick County,MD,61.41078838174274,NA,NA
21795,Washington County,MD,NA,NA,92.4506387921022
21797,Howard County,MD,NA,NA,90.8246225319396
21801,Wicomico County,MD,NA,NA,60.16260162601627
21921,Cecil County,MD,NA,NA,19.16376306620209
01030,Hampden County,MA,NA,99.05956112852664,NA
01040,Hampden County,MA,0.1037344398340249,NA,NA
01085,Hampden County,MA,0.9336099585062241,NA,NA
01089,Hampden County,MA,93.67219917012449,NA,NA
01104,Hampden County,MA,70.0207468879668,NA,NA
01108,Hampden County,MA,0.8298755186721992,NA,NA
01109,Hampden County,MA,NA,5.433646812957157,NA
01118,Hampden County,MA,99.37759336099586,56.32183908045977,NA
01331,Worcester County,MA,NA,31.03448275862069,NA
01420,Worcester County,MA,NA,0.9404388714733543,5.2264808362369335
01440,Worcester County,MA,NA,6.583072100313479,NA
01516,Worcester County,MA,33.713692946058096,NA,NA
01527,Worcester County,MA,NA,NA,66.7828106852497
01570,Worcester County,MA,NA,98.53709508881923,17.88617886178862
01701,Middlesex County,MA,10.58091286307054,NA,NA
01702,Middlesex County,MA,NA,NA,4.761904761904762
01730,Middlesex County,MA,NA,50.15673981191222,16.144018583042975
01742,Middlesex County,MA,NA,NA,63.64692218350755
01775,Middlesex County,MA,NA,NA,94.42508710801394
01801,Middlesex County,MA,NA,NA,0.9291521486643438
01803,Middlesex County,MA,NA,NA,1.6260162601626018
01826,Middlesex County,MA,NA,NA,18.81533101045296
01830,Essex County,MA,NA,32.60188087774294,NA
01832,Essex County,MA,2.904564315352697,NA,NA
01851,Middlesex County,MA,NA,NA,99.1869918699187
01852,Middlesex County,MA,77.4896265560166,NA,NA
01854,Middlesex County,MA,NA,NA,5.342624854819976
01906,Essex County,MA,NA,NA,6.039488966318235
01913,Essex County,MA,NA,7.001044932079415,67.94425087108013
01923,Essex County,MA,97.19917012448133,3.657262277951933,NA
01966,Essex County,MA,NA,NA,69.33797909407666
02050,Plymouth County,MA,98.65145228215768,NA,NA
02072,Norfolk County,MA,NA,NA,10.801393728222997
02118,Suffolk County,MA,NA,0,NA
02119,Suffolk County,MA,0.2074688796680498,NA,NA
02122,Suffolk County,MA,NA,NA,9.059233449477352
02128,Suffolk County,MA,0.4149377593360996,NA,NA
02132,Suffolk County,MA,NA,0.7314524555903866,NA
02136,Suffolk County,MA,NA,3.0303030303030303,NA
02144,Middlesex County,MA,NA,NA,17.421602787456447
02151,Suffolk County,MA,NA,NA,0.11614401858304298
02155,Middlesex County,MA,NA,NA,0.34843205574912894
02171,Norfolk County,MA,29.87551867219917,NA,NA
02191,Norfolk County,MA,NA,96.760710553814,NA
02301,Plymouth County,MA,0,NA,NA
02324,Plymouth County,MA,NA,23.197492163009404,50.05807200929152
02332,Plymouth County,MA,71.57676348547717,NA,NA
02446,Norfolk County,MA,17.116182572614107,NA,NA
02536,Barnstable County,MA,NA,NA,13.008130081300814
02632,Barnstable County,MA,NA,NA,35.54006968641115
02638,Barnstable County,MA,NA,88.61024033437826,NA
02653,Barnstable County,MA,NA,NA,47.851335656213706
02703,Bristol County,MA,0.7261410788381742,NA,NA
02719,Bristol County,MA,NA,88.92371995820272,NA
02720,Bristol County,MA,NA,NA,2.0905923344947737
02721,Bristol County,MA,91.59751037344398,NA,10.104529616724738
02740,Bristol County,MA,NA,NA,0
02744,Bristol County,MA,NA,29.88505747126437,NA
02762,Norfolk County,MA,57.365145228215766,NA,NA
02780,Bristol County,MA,NA,0.522466039707419,NA
48021,Macomb County,MI,37.655601659751035,NA,NA
48026,Macomb County,MI,82.4688796680498,40.12539184952978,NA
48035,Macomb County,MI,NA,58.7251828631139,NA
48036,Macomb County,MI,26.45228215767635,NA,NA
48038,Macomb County,MI,12.344398340248963,NA,NA
48043,Macomb County,MI,NA,NA,61.32404181184668
48045,Macomb County,MI,NA,14.524555903866249,NA
48047,Macomb County,MI,NA,12.330198537095088,31.47502903600465
48064,St. Clair County,MI,96.57676348547717,NA,NA
48079,St. Clair County,MI,64.00414937759335,NA,NA
48080,Macomb County,MI,NA,NA,23.577235772357724
48081,Macomb County,MI,NA,NA,15.21486643437863
48085,Oakland County,MI,31.327800829875518,NA,NA
48091,Macomb County,MI,26.556016597510375,14.211076280041798,NA
48111,Wayne County,MI,7.261410788381744,NA,NA
48141,Wayne County,MI,NA,NA,65.85365853658537
48146,Wayne County,MI,NA,NA,24.390243902439025
48154,Wayne County,MI,NA,34.06478578892372,NA
48162,Monroe County,MI,NA,1.671891327063741,14.169570267131244
48180,Wayne County,MI,NA,15.360501567398119,NA
48183,Wayne County,MI,NA,NA,10.569105691056912
48186,Wayne County,MI,NA,8.986415882967608,NA
48187,Wayne County,MI,NA,19.22675026123302,7.317073170731707
48202,Wayne County,MI,30.186721991701244,73.98119122257053,NA
48203,Wayne County,MI,NA,21.630094043887148,NA
48206,Wayne County,MI,NA,27.16823406478579,NA
48210,Wayne County,MI,NA,53.396029258098224,NA
48211,Wayne County,MI,86.61825726141079,NA,NA
48214,Wayne County,MI,69.81327800829875,59.03866248693836,NA
48218,Wayne County,MI,NA,NA,94.19279907084785
48219,Wayne County,MI,5.7053941908713695,NA,NA
48220,Oakland County,MI,NA,43.05120167189133,49.47735191637631
48224,Wayne County,MI,1.7634854771784232,NA,NA
48229,Wayne County,MI,NA,71.36886102403344,NA
48230,Wayne County,MI,52.9045643153527,NA,NA
48235,Wayne County,MI,31.742738589211616,NA,NA
48236,Wayne County,MI,NA,NA,10.91753774680604
48238,Wayne County,MI,NA,NA,31.70731707317073
48240,Wayne County,MI,NA,NA,28.455284552845526
48304,Oakland County,MI,NA,NA,25.551684088269454
48307,Oakland County,MI,NA,NA,13.937282229965156
48310,Macomb County,MI,NA,10.344827586206897,NA
48312,Macomb County,MI,NA,NA,7.781649245063879
48314,Macomb County,MI,42.946058091286304,NA,NA
48316,Macomb County,MI,NA,NA,18.00232288037166
48328,Oakland County,MI,NA,27.69070010449321,NA
48334,Oakland County,MI,NA,NA,38.67595818815331
48340,Oakland County,MI,NA,33.01985370950889,NA
48341,Oakland County,MI,29.771784232365146,NA,NA
48342,Oakland County,MI,82.15767634854771,NA,NA
48353,Livingston County,MI,NA,NA,87.10801393728222
48390,Oakland County,MI,NA,34.48275862068966,NA
48393,Oakland County,MI,NA,82.86311389759665,NA
48412,Lapeer County,MI,NA,NA,62.253193960511034
48433,Genesee County,MI,54.77178423236515,NA,NA
48439,Genesee County,MI,NA,13.793103448275861,NA
48461,Lapeer County,MI,69.29460580912863,NA,NA
48473,Genesee County,MI,44.294605809128626,NA,NA
48504,Genesee County,MI,15.871369294605808,NA,NA
48505,Genesee County,MI,78.11203319502074,NA,NA
48507,Genesee County,MI,NA,81.19122257053291,NA
48601,Saginaw County,MI,1.2448132780082988,NA,NA
48624,Gladwin County,MI,NA,NA,20.209059233449477
48640,Midland County,MI,NA,NA,4.29732868757259
48642,Midland County,MI,NA,NA,6.852497096399536
48739,Iosco County,MI,85.16597510373444,NA,NA
48746,Tuscola County,MI,NA,73.98119122257053,NA
48759,Huron County,MI,NA,NA,71.77700348432056
48813,Eaton County,MI,NA,NA,32.868757259001164
48821,Eaton County,MI,98.3402489626556,NA,NA
48827,Eaton County,MI,NA,NA,51.33565621370499
48842,Ingham County,MI,NA,NA,54.93612078977933
48911,Ingham County,MI,27.178423236514522,NA,NA
49004,Kalamazoo County,MI,NA,48.380355276907,NA
49015,Calhoun County,MI,NA,NA,14.518002322880372
49017,Calhoun County,MI,63.27800829875518,24.033437826541274,NA
49037,Calhoun County,MI,14.107883817427386,NA,NA
49055,Van Buren County,MI,78.63070539419087,NA,NA
49078,Allegan County,MI,NA,NA,78.28106852497096
49080,Allegan County,MI,NA,40.43887147335423,NA
49120,Berrien County,MI,13.796680497925312,NA,NA
49201,Jackson County,MI,9.024896265560166,2.8213166144200628,NA
49203,Jackson County,MI,NA,NA,6.968641114982578
49316,Kent County,MI,NA,NA,57.375145180023225
49349,Newaygo County,MI,NA,74.92163009404389,NA
49401,Ottawa County,MI,59.439834024896264,NA,NA
49417,Ottawa County,MI,NA,3.9707419017763845,NA
49418,Kent County,MI,NA,NA,24.274099883855982
49431,Mason County,MI,33.40248962655601,NA,NA
49441,Muskegon County,MI,NA,NA,1.5098722415795587
49461,Muskegon County,MI,75,NA,NA
49507,Kent County,MI,NA,57.157784743991634,NA
49601,Wexford County,MI,NA,NA,33.10104529616725
49677,Osceola County,MI,NA,NA,57.026713124274096
49707,Alpena County,MI,NA,NA,14.169570267131244
49740,Emmet County,MI,NA,60.397074190177634,NA
49746,Montmorency County,MI,91.28630705394191,NA,NA
49829,Delta County,MI,33.40248962655601,NA,79.79094076655052
55016,Washington County,MN,NA,NA,64.11149825783971
55021,Rice County,MN,38.796680497925315,NA,NA
55033,Dakota County,MN,30.29045643153527,NA,NA
55066,Goodhue County,MN,NA,18.0773249738767,NA
55076,Dakota County,MN,NA,53.814002089864154,NA
55103,Ramsey County,MN,NA,70.21943573667711,NA
55104,Ramsey County,MN,NA,85.47544409613374,NA
55118,Dakota County,MN,51.97095435684648,NA,NA
55125,Washington County,MN,41.59751037344399,NA,NA
55129,Washington County,MN,73.23651452282157,NA,NA
55305,Hennepin County,MN,NA,NA,34.84320557491289
55330,Sherburne County,MN,42.634854771784234,38.14002089864159,NA
55371,Mille Lacs County,MN,NA,71.05538140020899,NA
55406,Hennepin County,MN,22.61410788381743,NA,NA
55412,Hennepin County,MN,66.49377593360995,NA,NA
55416,Hennepin County,MN,43.983402489626556,NA,NA
55426,Hennepin County,MN,NA,NA,36.933797909407666
55428,Hennepin County,MN,NA,30.616509926854757,NA
55429,Hennepin County,MN,NA,37.61755485893417,NA
55432,Anoka County,MN,21.058091286307054,NA,NA
55433,Anoka County,MN,NA,NA,41.11498257839721
55437,Hennepin County,MN,NA,NA,81.41695702671312
55438,Hennepin County,MN,NA,75.96656217345873,NA
55448,Anoka County,MN,NA,57.993730407523515,55.28455284552846
55768,St. Louis County,MN,NA,98.43260188087774,NA
55804,St. Louis County,MN,NA,70.3239289446186,NA
55805,St. Louis County,MN,NA,94.98432601880877,NA
55806,St. Louis County,MN,NA,85.37095088819227,NA
55810,St. Louis County,MN,NA,46.603970741901776,NA
55811,St. Louis County,MN,NA,NA,1.3937282229965158
55901,Olmsted County,MN,NA,NA,12.07897793263647
55904,Olmsted County,MN,37.24066390041494,NA,NA
56031,Martin County,MN,NA,NA,43.08943089430895
56071,Scott County,MN,NA,NA,61.55632984901278
56073,Brown County,MN,NA,10.9717868338558,NA
56164,Pipestone County,MN,71.47302904564316,NA,NA
56308,Douglas County,MN,NA,NA,4.994192799070848
56334,Pope County,MN,84.95850622406638,NA,NA
56368,Stearns County,MN,98.44398340248964,NA,NA
56401,Crow Wing County,MN,NA,NA,24.62253193960511
56470,Hubbard County,MN,NA,NA,36.35307781649245
38619,Panola County,MS,94.91701244813278,NA,NA
38635,Marshall County,MS,NA,NA,77.23577235772358
38654,DeSoto County,MS,NA,55.79937304075236,NA
38663,Tippah County,MS,70.22821576763485,NA,91.75377468060395
38668,Tate County,MS,72.61410788381743,NA,NA
38672,DeSoto County,MS,83.60995850622407,NA,NA
38930,Leflore County,MS,NA,92.37199582027168,NA
39111,Simpson County,MS,NA,NA,87.45644599303137
39180,Warren County,MS,74.1701244813278,NA,NA
39189,Leake County,MS,96.99170124481327,NA,NA
39204,Hinds County,MS,20.95435684647303,NA,NA
39206,Hinds County,MS,28.42323651452282,NA,NA
39208,Rankin County,MS,NA,52.35109717868338,NA
39212,Hinds County,MS,NA,NA,74.79674796747967
39401,Forrest County,MS,32.468879668049794,NA,NA
39439,Jasper County,MS,91.07883817427386,98.95506792058517,NA
39443,Jones County,MS,65.56016597510373,NA,NA
39452,George County,MS,NA,NA,32.52032520325203
39501,Harrison County,MS,NA,16.718913270637408,NA
39532,Harrison County,MS,NA,18.286311389759664,NA
39560,Harrison County,MS,NA,7.210031347962382,NA
39564,Jackson County,MS,NA,NA,25.900116144018583
39667,Walthall County,MS,NA,61.546499477533956,NA
39702,Lowndes County,MS,NA,NA,48.08362369337979
39705,Lowndes County,MS,NA,81.19122257053291,78.51335656213705
63012,Jefferson County,MO,96.2655601659751,NA,NA
63017,St. Louis County,MO,NA,NA,1.7421602787456445
63031,St. Louis County,MO,15.767634854771783,9.195402298850574,NA
63043,St. Louis County,MO,NA,47.43991640543365,NA
63044,St. Louis County,MO,92.21991701244814,NA,NA
63074,St. Louis County,MO,NA,80.56426332288402,NA
63080,Franklin County,MO,NA,NA,48.43205574912892
63104,St. Louis city,MO,NA,68.96551724137932,NA
63107,St. Louis city,MO,NA,96.65621734587252,NA
63108,St. Louis city,MO,52.074688796680505,NA,NA
63113,St. Louis city,MO,NA,NA,88.85017421602788
63118,St. Louis city,MO,NA,41.79728317659352,NA
63120,St. Louis city,MO,64.52282157676349,NA,NA
63122,St. Louis County,MO,NA,NA,9.175377468060395
63129,St. Louis County,MO,NA,NA,8.478513356562138
63136,St. Louis County,MO,7.780082987551867,60.18808777429467,NA
63139,St. Louis city,MO,NA,NA,75.1451800232288
63147,St. Louis city,MO,59.64730290456431,NA,NA
63303,St. Charles County,MO,NA,41.692789968652036,NA
63366,St. Charles County,MO,11.929460580912863,NA,NA
63367,St. Charles County,MO,NA,31.24346917450366,NA
63390,Warren County,MO,NA,96.23824451410658,NA
63401,Marion County,MO,49.066390041493776,NA,NA
63501,Adair County,MO,NA,NA,65.62137049941929
63628,St. Francois County,MO,64.21161825726142,NA,NA
63755,Cape Girardeau County,MO,NA,80.14629049111808,NA
63901,Butler County,MO,13.174273858921163,NA,NA
63935,Ripley County,MO,55.290456431535276,NA,NA
64012,Cass County,MO,NA,24.242424242424242,NA
64020,Lafayette County,MO,89.52282157676349,NA,NA
64063,Jackson County,MO,40.14522821576764,NA,NA
64083,Cass County,MO,NA,NA,49.361207897793264
64085,Ray County,MO,51.556016597510364,NA,NA
64118,Clay County,MO,NA,NA,63.06620209059234
64123,Jackson County,MO,NA,67.0846394984326,NA
64124,Jackson County,MO,71.6804979253112,62.80041797283177,95.9349593495935
64126,Jackson County,MO,99.06639004149378,NA,NA
64128,Jackson County,MO,18.153526970954356,NA,NA
64132,Jackson County,MO,NA,51.20167189132706,NA
64133,Jackson County,MO,4.149377593360995,NA,NA
64134,Jackson County,MO,NA,34.90073145245559,NA
64138,Jackson County,MO,NA,NA,31.24274099883856
64151,Platte County,MO,NA,15.464994775339601,NA
64152,Platte County,MO,17.42738589211618,NA,NA
64155,Clay County,MO,NA,75.86206896551724,NA
64506,Buchanan County,MO,NA,32.39289446185998,NA
64735,Henry County,MO,33.29875518672199,NA,NA
64801,Jasper County,MO,12.448132780082988,NA,NA
64804,Jasper County,MO,NA,6.0606060606060606,NA
65066,Gasconade County,MO,NA,NA,96.98025551684088
65202,Boone County,MO,NA,22.466039707419018,NA
65270,Randolph County,MO,NA,38.24451410658307,NA
65301,Pettis County,MO,3.7344398340248963,NA,NA
65536,Laclede County,MO,NA,34.48275862068966,NA
65583,Pulaski County,MO,NA,87.7742946708464,NA
65616,Taney County,MO,37.551867219917014,31.765935214211076,NA
65656,Stone County,MO,93.98340248962656,NA,NA
65704,Wright County,MO,91.80497925311202,NA,NA
59715,Gallatin County,MT,53.3195020746888,NA,NA
59808,Missoula County,MT,NA,84.32601880877742,NA
68107,Douglas County,NE,NA,53.50052246603971,NA
68124,Douglas County,NE,91.70124481327801,NA,NA
68128,Sarpy County,NE,NA,73.04075235109718,NA
68133,Sarpy County,NE,NA,89.65517241379311,NA
68467,York County,NE,NA,87.356321839080465,NA
68510,Lancaster County,NE,NA,75.75757575757575,NA
68521,Lancaster County,NE,NA,NA,67.59581881533101
69130,Dawson County,NE,99.79253112033194,NA,NA
89101,Clark County,NV,26.970954356846473,NA,80.95238095238095
89102,Clark County,NV,NA,NA,72.00929152148665
89104,Clark County,NV,39.522821576763484,50.78369905956113,NA
89106,Clark County,NV,NA,94.35736677115987,NA
89109,Clark County,NV,95.4356846473029,NA,NA
89118,Clark County,NV,86.20331950207469,NA,NA
89119,Clark County,NV,55.290456431535276,NA,NA
89129,Clark County,NV,NA,90.59561128526646,65.50522648083623
89145,Clark County,NV,NA,92.58098223615465,NA
89147,Clark County,NV,41.90871369294606,79.10135841170323,NA
89148,Clark County,NV,NA,NA,83.97212543554006
89183,Clark County,NV,NA,NA,85.94657375145181
89429,Lyon County,NV,NA,85.26645768025078,NA
89431,Washoe County,NV,NA,NA,24.97096399535424
89433,Washoe County,NV,NA,56.739811912225704,NA
89436,Washoe County,NV,57.46887966804979,NA,NA
89506,Washoe County,NV,16.390041493775932,NA,NA
89701,Carson City,NV,NA,NA,43.20557491289199
89703,Carson City,NV,NA,69.38349007314525,NA
03055,Hillsborough County,NH,NA,45.66353187042842,NA
03060,Hillsborough County,NH,27.282157676348547,NA,NA
03102,Hillsborough County,NH,18.672199170124482,13.897596656217345,NA
03234,Merrimack County,NH,NA,92.2675026123302,NA
03431,Cheshire County,NH,NA,NA,6.3879210220673635
03773,Sullivan County,NH,NA,NA,75.84204413472706
03801,Rockingham County,NH,NA,NA,50.87108013937283
07003,Essex County,NJ,NA,25.391849529780565,32.63646922183507
07010,Bergen County,NJ,NA,NA,44.83159117305458
07013,Passaic County,NJ,42.01244813278009,NA,NA
07018,Essex County,NJ,6.431535269709543,22.25705329153605,NA
07029,Hudson County,NJ,NA,NA,97.09639953542393
07032,Hudson County,NJ,NA,65.8307210031348,NA
07060,Union County,NJ,NA,75.54858934169279,NA
07094,Hudson County,NJ,83.71369294605809,NA,NA
07103,Essex County,NJ,16.804979253112034,NA,NA
07104,Essex County,NJ,6.327800829875518,NA,NA
07111,Essex County,NJ,17.116182572614107,NA,NA
07201,Union County,NJ,NA,NA,99.76771196283391
07203,Union County,NJ,23.96265560165975,NA,NA
07307,Hudson County,NJ,NA,NA,82.22996515679442
07419,Sussex County,NJ,85.89211618257261,NA,NA
07420,Passaic County,NJ,NA,93.93939393939394,97.32868757259001
07430,Bergen County,NJ,NA,NA,45.18002322880372
07438,Morris County,NJ,NA,NA,77.5842044134727
07444,Morris County,NJ,NA,NA,70.49941927990709
07470,Passaic County,NJ,NA,1.8808777429467085,NA
07480,Passaic County,NJ,NA,90.3866248693835,NA
07522,Passaic County,NJ,5.4979253112033195,NA,NA
07524,Passaic County,NJ,NA,NA,84.90127758420442
07601,Bergen County,NJ,6.846473029045644,NA,NA
07670,Bergen County,NJ,NA,86.31138975966563,NA
07712,Monmouth County,NJ,NA,NA,24.738675958188153
07719,Monmouth County,NJ,NA,NA,92.10220673635308
07724,Monmouth County,NJ,25.414937759336098,NA,NA
07740,Monmouth County,NJ,NA,4.597701149425287,NA
07748,Monmouth County,NJ,NA,NA,61.091753774680605
07843,Sussex County,NJ,NA,79.62382445141067,NA
07874,Sussex County,NJ,NA,NA,96.39953542392567
07882,Warren County,NJ,NA,54.754440961337515,NA
07885,Morris County,NJ,NA,NA,47.27061556329849
07920,Somerset County,NJ,NA,NA,62.36933797909408
08003,Camden County,NJ,NA,38.03552769070011,NA
08009,Camden County,NJ,NA,NA,86.1788617886179
08015,Burlington County,NJ,14.626556016597512,NA,NA
08021,Camden County,NJ,44.08713692946058,35.00522466039707,NA
08028,Gloucester County,NJ,16.182572614107883,NA,NA
08054,Burlington County,NJ,NA,45.76802507836991,NA
08055,Burlington County,NJ,NA,56.635318704284224,NA
08079,Salem County,NJ,44.190871369294605,NA,NA
08081,Camden County,NJ,NA,4.806687565308255,NA
08094,Gloucester County,NJ,NA,8.672936259143157,NA
08102,Camden County,NJ,NA,NA,100
08205,Atlantic County,NJ,49.1701244813278,NA,NA
08210,Cape May County,NJ,38.90041493775934,43.364681295715776,NA
08242,Cape May County,NJ,NA,69.80146290491118,NA
08251,Cape May County,NJ,52.80082987551867,NA,NA
08302,Cumberland County,NJ,NA,39.28944618599791,NA
08618,Mercer County,NJ,NA,33.75130616509927,NA
08701,Ocean County,NJ,NA,NA,95.1219512195122
08735,Ocean County,NJ,NA,NA,95.00580720092915
08742,Ocean County,NJ,NA,39.60292580982236,NA
08757,Ocean County,NJ,NA,2.19435736677116,NA
08826,Hunterdon County,NJ,NA,NA,95.70267131242741
08831,Middlesex County,NJ,NA,NA,49.12891986062718
08835,Somerset County,NJ,NA,NA,85.1335656213705
08846,Middlesex County,NJ,NA,NA,81.76538908246226
08857,Middlesex County,NJ,NA,14.106583072100312,NA
08861,Middlesex County,NJ,10.995850622406639,NA,NA
08865,Warren County,NJ,5.186721991701245,NA,NA
08901,Middlesex County,NJ,5.809128630705394,NA,NA
87105,Bernalillo County,NM,NA,NA,15.098722415795587
87109,Bernalillo County,NM,77.69709543568464,47.23092998955068,NA
87111,Bernalillo County,NM,NA,NA,4.0650406504065035
87112,Bernalillo County,NM,NA,NA,4.645760743321719
87301,McKinley County,NM,24.1701244813278,NA,NA
87505,Santa Fe County,NM,NA,30.094043887147336,NA
87571,Taos County,NM,NA,47.54440961337513,NA
88011,Doa Ana County,NM,NA,NA,25.203252032520325
88030,Luna County,NM,NA,NA,55.51684088269454
88048,Doa Ana County,NM,99.48132780082987,NA,NA
88101,Curry County,NM,NA,4.075235109717868,NA
88240,Lea County,NM,24.688796680497926,NA,NA
88310,Otero County,NM,NA,2.4033437826541273,NA
10001,New York County,NY,NA,NA,46.573751451800234
10002,New York County,NY,3.423236514522822,NA,NA
10009,New York County,NY,9.232365145228217,NA,NA
10011,New York County,NY,NA,50.9926854754441,13.240418118466899
10019,New York County,NY,NA,NA,21.83507549361208
10021,New York County,NY,NA,NA,17.073170731707318
10023,New York County,NY,NA,NA,3.1358885017421603
10025,New York County,NY,6.535269709543569,10.031347962382444,16.957026713124275
10027,New York County,NY,5.29045643153527,NA,NA
10029,New York County,NY,NA,NA,0.23228803716608595
10030,New York County,NY,57.15767634854772,NA,NA
10034,New York County,NY,NA,14.733542319749215,NA
10035,New York County,NY,NA,5.329153605015674,NA
10036,New York County,NY,39.107883817427386,NA,NA
10044,New York County,NY,NA,NA,86.64343786295005
10301,Richmond County,NY,14.83402489626556,NA,NA
10304,Richmond County,NY,NA,NA,25.78397212543554
10309,Richmond County,NY,NA,NA,44.25087108013937
10314,Richmond County,NY,NA,1.9853709508881923,NA
10452,Bronx County,NY,6.742738589211618,0.10449320794148381,NA
10454,Bronx County,NY,7.053941908713693,NA,NA
10455,Bronx County,NY,NA,7.314524555903866,NA
10456,Bronx County,NY,0.3112033195020747,NA,NA
10458,Bronx County,NY,0.5186721991701244,NA,6.155632984901278
10460,Bronx County,NY,1.1410788381742738,NA,NA
10461,Bronx County,NY,NA,51.09717868338558,NA
10463,Bronx County,NY,NA,2.089864158829676,NA
10466,Bronx County,NY,19.70954356846473,16.927899686520377,NA
10467,Bronx County,NY,NA,NA,14.634146341463413
10468,Bronx County,NY,NA,1.044932079414838,NA
10469,Bronx County,NY,50.72614107883817,NA,3.7166085946573753
10472,Bronx County,NY,56.74273858921162,NA,NA
10473,Bronx County,NY,4.668049792531121,NA,NA
10474,Bronx County,NY,NA,98.7460815047022,NA
10475,Bronx County,NY,NA,8.254963427377222,NA
10547,Westchester County,NY,90.66390041493776,NA,NA
10549,Westchester County,NY,NA,94.77533960292581,NA
10562,Westchester County,NY,NA,62.5914315569488,NA
10591,Westchester County,NY,NA,91.11807732497388,59.814169570267126
10701,Westchester County,NY,23.3402489626556,NA,NA
10708,Westchester County,NY,NA,80.87774294670847,86.87572590011614
10805,Westchester County,NY,NA,NA,97.90940766550523
10901,Rockland County,NY,NA,64.78578892371996,NA
10940,Orange County,NY,NA,NA,53.19396051103368
10954,Rockland County,NY,NA,NA,78.86178861788618
11001,Nassau County,NY,NA,79.83281086729363,NA
11010,Nassau County,NY,NA,NA,43.90243902439025
11023,Nassau County,NY,NA,NA,85.24970963995354
11040,Nassau County,NY,NA,NA,26.364692218350754
11050,Nassau County,NY,NA,NA,27.874564459930312
11102,Queens County,NY,NA,NA,40.76655052264808
11103,Queens County,NY,NA,60.81504702194357,89.66318234610917
11203,Kings County,NY,NA,NA,37.39837398373984
11206,Kings County,NY,NA,NA,4.878048780487805
11207,Kings County,NY,NA,NA,8.826945412311266
11208,Kings County,NY,NA,0.3134796238244514,NA
11210,Kings County,NY,NA,21.42110762800418,NA
11213,Kings County,NY,NA,3.4482758620689653,NA
11216,Kings County,NY,NA,34.79623824451411,NA
11217,Kings County,NY,NA,58.620689655172406,NA
11219,Kings County,NY,NA,73.77220480668757,NA
11220,Kings County,NY,NA,2.612330198537095,13.588850174216027
11225,Kings County,NY,58.19502074688797,NA,NA
11226,Kings County,NY,NA,37.51306165099268,NA
11228,Kings County,NY,97.82157676348547,42.11076280041797,46.68989547038328
11230,Kings County,NY,NA,7.105538140020899,5.807200929152149
11234,Kings County,NY,17.738589211618258,61.9644723092999,15.563298490127758
11235,Kings County,NY,NA,12.852664576802509,NA
11236,Kings County,NY,NA,5.015673981191222,NA
11355,Queens County,NY,25.72614107883817,NA,NA
11358,Queens County,NY,84.43983402489627,NA,NA
11361,Queens County,NY,NA,91.74503657262278,NA
11364,Queens County,NY,NA,NA,92.33449477351915
11368,Queens County,NY,NA,16.30094043887147,NA
11379,Queens County,NY,NA,NA,46.10917537746806
11385,Queens County,NY,NA,NA,34.72706155632984
11418,Queens County,NY,NA,NA,42.857142857142854
11419,Queens County,NY,NA,NA,42.74099883855981
11423,Queens County,NY,NA,NA,56.678281068524974
11429,Queens County,NY,NA,NA,65.27293844367014
11433,Queens County,NY,NA,62.38244514106584,NA
11435,Queens County,NY,39.315352697095435,NA,26.82926829268293
11550,Nassau County,NY,NA,15.987460815047022,NA
11558,Nassau County,NY,NA,NA,98.25783972125436
11580,Nassau County,NY,NA,81.50470219435736,NA
11590,Nassau County,NY,NA,65.09926854754441,NA
11691,Queens County,NY,NA,NA,18.466898954703833
11692,Queens County,NY,51.244813278008294,NA,77.11962833914053
11694,Queens County,NY,NA,NA,84.43670150987224
11703,Suffolk County,NY,NA,77.11598746081505,NA
11704,Suffolk County,NY,NA,NA,62.02090592334495
11705,Suffolk County,NY,NA,NA,91.17305458768872
11706,Suffolk County,NY,56.43153526970954,31.661442006269592,NA
11717,Suffolk County,NY,NA,NA,26.480836236933797
11727,Suffolk County,NY,NA,28.422152560083596,NA
11731,Suffolk County,NY,NA,68.23406478578893,NA
11732,Nassau County,NY,NA,NA,98.60627177700349
11741,Suffolk County,NY,72.30290456431536,NA,NA
11742,Suffolk County,NY,NA,92.99895506792059,NA
11746,Suffolk County,NY,NA,39.08045977011494,NA
11747,Suffolk County,NY,90.24896265560166,NA,NA
11758,Nassau County,NY,89.31535269709543,NA,NA
11763,Suffolk County,NY,NA,44.30512016718913,NA
11772,Suffolk County,NY,32.261410788381745,24.346917450365726,39.14053426248548
11776,Suffolk County,NY,57.8838174273859,NA,NA
11777,Suffolk County,NY,NA,NA,84.08826945412311
11783,Nassau County,NY,NA,83.17659352142111,NA
11791,Nassau County,NY,NA,94.04388714733543,NA
11792,Suffolk County,NY,NA,NA,98.95470383275261
11793,Nassau County,NY,95.53941908713693,NA,NA
11801,Nassau County,NY,NA,49.21630094043887,NA
11901,Suffolk County,NY,NA,NA,55.86527293844367
11952,Suffolk County,NY,99.1701244813278,NA,NA
11961,Suffolk County,NY,NA,59.24764890282132,NA
12078,Fulton County,NY,4.460580912863071,NA,NA
12170,Saratoga County,NY,NA,NA,92.79907084785134
12182,Rensselaer County,NY,77.9045643153527,NA,NA
12303,Schenectady County,NY,39.211618257261414,NA,NA
12508,Dutchess County,NY,NA,NA,95.58652729384437
12524,Dutchess County,NY,83.92116182572614,NA,NA
12550,Orange County,NY,NA,53.18704284221526,NA
12553,Orange County,NY,NA,66.56217345872518,NA
12603,Dutchess County,NY,NA,NA,35.19163763066202
12701,Sullivan County,NY,NA,67.81609195402298,NA
12790,Sullivan County,NY,96.78423236514523,NA,NA
13027,Onondaga County,NY,NA,15.047021943573668,NA
13031,Onondaga County,NY,44.81327800829876,NA,NA
13074,Oswego County,NY,79.149377593361,NA,NA
13077,Cortland County,NY,NA,NA,83.27526132404182
13126,Oswego County,NY,3.2157676348547715,NA,NA
13205,Onondaga County,NY,NA,NA,41.57955865272939
13206,Onondaga County,NY,22.302904564315355,69.6969696969697,NA
13210,Onondaga County,NY,68.04979253112033,NA,NA
13212,Onondaga County,NY,NA,83.38557993730407,NA
13219,Onondaga County,NY,NA,NA,67.0150987224158
13316,Oneida County,NY,63.58921161825726,NA,NA
13357,Herkimer County,NY,NA,51.828631138975965,NA
13421,Madison County,NY,NA,NA,76.7711962833914
13601,Jefferson County,NY,4.356846473029045,NA,NA
13617,St. Lawrence County,NY,34.54356846473029,NA,NA
13642,St. Lawrence County,NY,NA,95.71577847439916,NA
13746,Broome County,NY,NA,89.86415882967607,NA
13790,Broome County,NY,9.647302904564317,NA,NA
13820,Otsego County,NY,10.16597510373444,NA,NA
13850,Broome County,NY,NA,NA,2.7874564459930316
14020,Genesee County,NY,11.410788381742739,NA,NA
14075,Erie County,NY,NA,3.8662486938349003,NA
14120,Niagara County,NY,4.875518672199171,NA,NA
14150,Erie County,NY,NA,3.5527690700104495,NA
14206,Erie County,NY,NA,60.29258098223615,NA
14209,Erie County,NY,NA,72.51828631138976,NA
14217,Erie County,NY,23.858921161825727,NA,NA
14225,Erie County,NY,NA,49.32079414838035,NA
14304,Niagara County,NY,4.979253112033195,NA,NA
14420,Monroe County,NY,NA,NA,49.94192799070848
14424,Ontario County,NY,48.96265560165975,NA,14.866434378629501
14437,Livingston County,NY,NA,42.94670846394985,NA
14513,Wayne County,NY,5.9128630705394185,NA,NA
14527,Yates County,NY,25.311203319502074,NA,NA
14534,Monroe County,NY,26.2448132780083,0.8359456635318705,NA
14548,Ontario County,NY,NA,74.50365726227795,NA
14559,Monroe County,NY,NA,20.167189132706373,NA
14569,Wyoming County,NY,NA,NA,84.20441347270615
14609,Monroe County,NY,NA,8.77742946708464,NA
14612,Monroe County,NY,NA,30.929989550679203,NA
14613,Monroe County,NY,NA,NA,71.66085946573752
14615,Monroe County,NY,NA,29.989550679205852,NA
14616,Monroe County,NY,NA,NA,79.44250871080139
14618,Monroe County,NY,NA,NA,14.40185830429733
14619,Monroe County,NY,45.643153526970956,NA,NA
14622,Monroe County,NY,NA,18.39080459770115,NA
14623,Monroe County,NY,NA,NA,40.998838559814175
14626,Monroe County,NY,NA,NA,6.620209059233449
14901,Chemung County,NY,63.38174273858921,NA,NA
27006,Davie County,NC,NA,NA,16.72473867595819
27028,Davie County,NC,NA,35.52769070010449,NA
27030,Surry County,NC,NA,0.6269592476489028,NA
27104,Forsyth County,NC,NA,NA,22.880371660859467
27105,Forsyth County,NC,31.84647302904564,NA,NA
27127,Forsyth County,NC,NA,24.973876698014628,NA
27214,Guilford County,NC,NA,79.9373040752351,NA
27253,Alamance County,NC,NA,15.673981191222571,NA
27258,Alamance County,NC,NA,80.56426332288402,NA
27260,Guilford County,NC,20.850622406639005,NA,NA
27262,Guilford County,NC,70.850622406639,NA,NA
27278,Orange County,NC,NA,11.285266457680251,NA
27292,Davidson County,NC,41.49377593360996,NA,NA
27317,Randolph County,NC,NA,70.63740856844305,NA
27360,Davidson County,NC,3.008298755186722,NA,10.452961672473867
27370,Randolph County,NC,71.2655601659751,NA,NA
27406,Guilford County,NC,19.08713692946058,10.240334378265413,NA
27407,Guilford County,NC,NA,NA,36.23693379790941
27408,Guilford County,NC,NA,52.56008359456635,NA
27455,Guilford County,NC,50.62240663900415,NA,NA
27514,Orange County,NC,60.06224066390041,NA,NA
27526,Wake County,NC,NA,21.525600835945664,NA
27534,Wayne County,NC,35.58091286307054,NA,28.1068524970964
27536,Vance County,NC,NA,NA,19.396051103368176
27549,Franklin County,NC,NA,NA,34.030197444831586
27577,Johnston County,NC,NA,NA,22.531939605110338
27583,Person County,NC,86.82572614107885,NA,NA
27589,Warren County,NC,NA,66.35318704284221,NA
27597,Wake County,NC,NA,NA,66.43437862950059
27606,Wake County,NC,NA,77.22048066875654,NA
27615,Wake County,NC,NA,NA,12.427409988385598
27705,Durham County,NC,19.813278008298756,NA,NA
27801,Edgecombe County,NC,NA,NA,81.18466898954703
27804,Nash County,NC,NA,35.10971786833856,NA
27817,Beaufort County,NC,NA,76.48902821316614,NA
27828,Pitt County,NC,NA,76.28004179728318,91.40534262485482
27832,Northampton County,NC,NA,93.20794148380355,NA
27886,Edgecombe County,NC,91.49377593360995,NA,NA
27889,Beaufort County,NC,NA,NA,28.9198606271777
27893,Wilson County,NC,NA,57.26227795193313,NA
27909,Pasquotank County,NC,12.240663900414937,NA,NA
27983,Bertie County,NC,NA,57.68025078369906,NA
28025,Cabarrus County,NC,NA,12.121212121212121,NA
28075,Cabarrus County,NC,87.96680497925311,NA,NA
28105,Mecklenburg County,NC,60.26970954356846,NA,NA
28117,Iredell County,NC,NA,29.57157784743992,NA
28124,Cabarrus County,NC,81.2240663900415,NA,NA
28166,Iredell County,NC,NA,92.05851619644723,NA
28206,Mecklenburg County,NC,NA,61.233019853709514,NA
28210,Mecklenburg County,NC,54.356846473029044,NA,NA
28216,Mecklenburg County,NC,9.751037344398341,NA,NA
28227,Mecklenburg County,NC,53.7344398340249,NA,NA
28273,Mecklenburg County,NC,45.22821576763486,NA,NA
28305,Cumberland County,NC,97.9253112033195,NA,NA
28314,Cumberland County,NC,NA,NA,42.508710801393725
28315,Moore County,NC,90.76763485477179,NA,NA
28334,Sampson County,NC,NA,NA,38.32752613240418
28348,Cumberland County,NC,36.51452282157676,NA,NA
28376,Hoke County,NC,29.979253112033195,NA,NA
28377,Robeson County,NC,92.63485477178423,NA,NA
28379,Richmond County,NC,NA,60.50156739811913,NA
28385,Sampson County,NC,98.44398340248964,NA,NA
28387,Moore County,NC,75.72614107883817,NA,NA
28391,Cumberland County,NC,90.04149377593362,NA,NA
28405,New Hanover County,NC,NA,NA,51.21951219512195
28457,Pender County,NC,NA,86.52037617554859,NA
28463,Columbus County,NC,71.05809128630706,NA,85.83042973286877
28466,Duplin County,NC,NA,73.24973876698014,NA
28472,Columbus County,NC,NA,NA,43.786295005807204
28504,Lenoir County,NC,NA,59.3521421107628,NA
28546,Onslow County,NC,NA,45.97701149425287,NA
28571,Pamlico County,NC,NA,NA,93.26364692218351
28586,Craven County,NC,NA,78.99686520376176,NA
28602,Catawba County,NC,NA,38.45350052246604,NA
28610,Catawba County,NC,NA,NA,80.48780487804879
28681,Alexander County,NC,54.253112033195016,NA,NA
28712,Transylvania County,NC,NA,NA,8.94308943089431
28714,Yancey County,NC,NA,NA,59.23344947735192
28719,Jackson County,NC,47.30290456431535,NA,NA
28739,Henderson County,NC,NA,11.076280041797283,NA
28752,McDowell County,NC,NA,NA,25.435540069686414
28791,Henderson County,NC,NA,26.436781609195403,NA
28904,Clay County,NC,NA,67.7115987460815,NA
58103,Cass County,ND,NA,NA,1.2775842044134729
58203,Grand Forks County,ND,80.3941908713693,NA,NA
58301,Ramsey County,ND,NA,NA,63.18234610917538
58501,Burleigh County,ND,92.32365145228216,NA,8.246225319396052
58701,Ward County,ND,NA,NA,15.33101045296167
43008,Licking County,OH,100,NA,NA
43011,Knox County,OH,NA,97.28317659352143,NA
43054,Franklin County,OH,79.35684647302904,NA,NA
43062,Licking County,OH,NA,27.69070010449321,NA
43072,Champaign County,OH,87.96680497925311,NA,NA
43103,Pickaway County,OH,NA,NA,90.59233449477352
43113,Pickaway County,OH,13.278008298755188,NA,NA
43130,Fairfield County,OH,1.0373443983402488,1.1494252873563218,NA
43162,Madison County,OH,NA,73.04075235109718,73.40301974448316
43204,Franklin County,OH,NA,NA,39.83739837398374
43207,Franklin County,OH,11.307053941908714,NA,17.305458768873404
43213,Franklin County,OH,NA,17.13688610240334,NA
43219,Franklin County,OH,NA,32.81086729362591,NA
43223,Franklin County,OH,NA,NA,58.76887340301974
43224,Franklin County,OH,6.224066390041494,13.061650992685475,NA
43228,Franklin County,OH,NA,10.658307210031348,NA
43229,Franklin County,OH,NA,NA,82.57839721254355
43232,Franklin County,OH,NA,46.812957157784744,NA
43316,Wyandot County,OH,79.5643153526971,NA,NA
43344,Union County,OH,NA,98.32810867293625,NA
43452,Ottawa County,OH,45.850622406639005,NA,NA
43512,Defiance County,OH,3.941908713692946,62.06896551724138,NA
43515,Fulton County,OH,NA,NA,82.4622531939605
43551,Wood County,OH,NA,4.179728317659352,NA
43613,Lucas County,OH,61.72199170124482,NA,NA
43614,Lucas County,OH,38.27800829875518,NA,NA
43615,Lucas County,OH,NA,NA,7.549361207897793
43725,Guernsey County,OH,14.004149377593361,NA,NA
43920,Columbiana County,OH,9.54356846473029,NA,45.64459930313589
43938,Jefferson County,OH,NA,NA,68.98954703832753
44004,Ashtabula County,OH,NA,NA,1.1614401858304297
44011,Lorain County,OH,78.52697095435684,NA,NA
44030,Ashtabula County,OH,NA,12.643678160919542,NA
44055,Lorain County,OH,8.921161825726141,NA,NA
44077,Lake County,OH,NA,NA,0.4645760743321719
44102,Cuyahoga County,OH,NA,NA,11.730545876887339
44103,Cuyahoga County,OH,34.33609958506224,NA,NA
44106,Cuyahoga County,OH,NA,11.598746081504702,NA
44109,Cuyahoga County,OH,0.6224066390041494,NA,NA
44110,Cuyahoga County,OH,9.854771784232366,NA,NA
44112,Cuyahoga County,OH,8.29875518672199,NA,NA
44120,Cuyahoga County,OH,NA,1.5673981191222568,NA
44122,Cuyahoga County,OH,21.16182572614108,NA,NA
44128,Cuyahoga County,OH,2.1784232365145226,NA,NA
44132,Cuyahoga County,OH,NA,NA,38.55981416957027
44135,Cuyahoga County,OH,NA,NA,22.99651567944251
44147,Cuyahoga County,OH,NA,NA,28.57142857142857
44221,Summit County,OH,NA,16.509926854754443,NA
44224,Summit County,OH,NA,NA,9.40766550522648
44233,Medina County,OH,85.99585062240665,NA,NA
44255,Portage County,OH,NA,45.45454545454545,NA
44260,Portage County,OH,68.46473029045643,NA,NA
44266,Portage County,OH,NA,94.8798328108673,NA
44270,Wayne County,OH,84.23236514522821,NA,NA
44281,Medina County,OH,19.813278008298756,NA,NA
44306,Summit County,OH,10.062240663900415,NA,NA
44310,Summit County,OH,10.477178423236515,21.316614420062695,NA
44312,Summit County,OH,NA,6.896551724137931,NA
44314,Summit County,OH,NA,20.794148380355278,NA
44320,Summit County,OH,NA,16.823406478578892,NA
44405,Mahoning County,OH,97.5103734439834,NA,NA
44420,Trumbull County,OH,37.863070539419084,NA,NA
44444,Trumbull County,OH,NA,NA,89.54703832752612
44460,Columbiana County,OH,18.36099585062241,NA,NA
44484,Trumbull County,OH,NA,NA,51.91637630662021
44507,Mahoning County,OH,53.11203319502075,NA,99.53542392566783
44511,Mahoning County,OH,21.265560165975103,NA,NA
44632,Stark County,OH,82.88381742738589,NA,NA
44691,Wayne County,OH,NA,3.343782654127482,NA
44705,Stark County,OH,22.925311203319502,NA,NA
44710,Stark County,OH,62.448132780082986,81.60919540229885,NA
44721,Stark County,OH,NA,NA,68.87340301974449
44903,Richland County,OH,15.975103734439832,NA,NA
45013,Butler County,OH,NA,NA,3.484320557491289
45044,Butler County,OH,NA,64.15882967607106,17.653890824622533
45068,Warren County,OH,NA,70.84639498432603,NA
45140,Clermont County,OH,NA,NA,20.092915214866434
45150,Clermont County,OH,NA,27.586206896551722,NA
45177,Clinton County,OH,21.887966804979254,NA,NA
45219,Hamilton County,OH,79.9792531120332,NA,NA
45224,Hamilton County,OH,19.19087136929461,NA,NA
45225,Hamilton County,OH,87.34439834024896,NA,NA
45243,Hamilton County,OH,87.24066390041494,NA,NA
45251,Hamilton County,OH,NA,58.307210031347964,NA
45320,Preble County,OH,NA,NA,37.51451800232288
45342,Montgomery County,OH,10.892116182572614,NA,NA
45373,Miami County,OH,NA,NA,82.92682926829268
45385,Greene County,OH,NA,5.538140020898641,NA
45403,Montgomery County,OH,69.1908713692946,NA,NA
45404,Montgomery County,OH,NA,65.62173458725182,NA
45414,Montgomery County,OH,29.253112033195023,NA,NA
45417,Montgomery County,OH,8.817427385892117,NA,NA
45424,Montgomery County,OH,NA,7.628004179728317,6.736353077816492
45434,Greene County,OH,NA,NA,62.9500580720093
45439,Montgomery County,OH,52.385892116182575,NA,NA
45503,Clark County,OH,7.987551867219916,9.926854754440962,NA
45505,Clark County,OH,30.394190871369293,54.02298850574713,NA
45631,Gallia County,OH,38.07053941908713,NA,NA
45662,Scioto County,OH,15.352697095435685,NA,NA
45663,Scioto County,OH,NA,59.77011494252874,NA
45669,Lawrence County,OH,16.07883817427386,NA,NA
45680,Lawrence County,OH,12.136929460580912,NA,NA
45810,Hardin County,OH,NA,80.35527690700106,NA
45840,Hancock County,OH,2.0746887966804977,NA,NA
73018,Grady County,OK,93.25726141078839,NA,NA
73044,Logan County,OK,NA,11.912225705329153,NA
73045,Oklahoma County,OK,NA,NA,65.27293844367014
73068,Cleveland County,OK,NA,NA,60.16260162601627
73072,Cleveland County,OK,NA,25.182863113897596,NA
73080,McClain County,OK,79.25311203319502,75.33960292580983,NA
73139,Oklahoma County,OK,NA,NA,56.329849012775846
73533,Stephens County,OK,NA,10.553814002089865,NA
73651,Kiowa County,OK,95.64315352697096,NA,NA
73717,Woods County,OK,89.21161825726142,NA,NA
74012,Tulsa County,OK,NA,9.822361546499478,NA
74014,Wagoner County,OK,37.03319502074689,NA,NA
74017,Rogers County,OK,74.68879668049793,NA,NA
74019,Rogers County,OK,NA,82.02716823406479,NA
74055,Tulsa County,OK,NA,NA,68.52497096399536
74066,Creek County,OK,32.053941908713696,NA,NA
74110,Tulsa County,OK,NA,77.01149425287356,NA
74114,Tulsa County,OK,NA,87.14733542319749,NA
74134,Tulsa County,OK,70.95435684647303,NA,NA
74135,Tulsa County,OK,78.94190871369294,NA,NA
74401,Muskogee County,OK,73.54771784232366,NA,NA
74403,Muskogee County,OK,NA,NA,27.75842044134727
74429,Wagoner County,OK,NA,72.83176593521421,NA
74462,Haskell County,OK,NA,NA,77.70034843205575
74464,Cherokee County,OK,NA,17.972831765935215,NA
74601,Kay County,OK,NA,NA,70.15098722415796
74801,Pottawatomie County,OK,38.17427385892116,NA,NA
74804,Pottawatomie County,OK,NA,NA,34.494773519163765
74820,Pontotoc County,OK,8.506224066390041,27.063740856844305,NA
74953,Le Flore County,OK,81.53526970954357,NA,NA
97006,Washington County,OR,NA,28.94461859979101,NA
97045,Clackamas County,OR,NA,NA,47.96747967479675
97051,Columbia County,OR,NA,74.71264367816092,NA
97056,Columbia County,OR,98.23651452282157,NA,NA
97071,Marion County,OR,NA,NA,52.264808362369344
97103,Clatsop County,OR,56.016597510373444,NA,NA
97123,Washington County,OR,NA,12.748171368861025,NA
97124,Washington County,OR,75.93360995850622,NA,NA
97132,Yamhill County,OR,39.83402489626556,NA,NA
97205,Multnomah County,OR,NA,93.73040752351098,NA
97211,Multnomah County,OR,45.12448132780083,NA,NA
97216,Multnomah County,OR,98.85892116182573,NA,NA
97230,Multnomah County,OR,NA,NA,13.821138211382115
97236,Multnomah County,OR,17.42738589211618,NA,NA
97303,Marion County,OR,NA,76.59352142110762,NA
97306,Marion County,OR,57.8838174273859,NA,NA
97322,Linn County,OR,12.759336099585061,NA,37.97909407665505
97351,Polk County,OR,74.89626556016597,NA,NA
97386,Linn County,OR,49.68879668049793,NA,NA
97394,Lincoln County,OR,92.42738589211619,NA,NA
97401,Lane County,OR,40.35269709543569,NA,NA
97446,Linn County,OR,97.40663900414937,NA,NA
97471,Douglas County,OR,15.45643153526971,NA,11.846689895470384
97477,Lane County,OR,58.50622406639005,NA,NA
97501,Jackson County,OR,NA,NA,28.80371660859466
97504,Jackson County,OR,NA,44.20062695924764,NA
97520,Jackson County,OR,NA,45.87251828631139,NA
97527,Josephine County,OR,46.16182572614108,NA,NA
97701,Deschutes County,OR,61.51452282157677,NA,NA
97702,Deschutes County,OR,45.43568464730291,NA,NA
97741,Jefferson County,OR,74.48132780082987,NA,NA
97754,Crook County,OR,76.45228215767634,NA,NA
97756,Deschutes County,OR,NA,NA,36.70150987224158
97760,Jefferson County,OR,NA,82.86311389759665,NA
97838,Umatilla County,OR,NA,NA,41.81184668989547
97914,Malheur County,OR,NA,55.59038662486938,NA
15009,Beaver County,PA,NA,36.1546499477534,NA
15022,Washington County,PA,80.8091286307054,NA,NA
15062,Westmoreland County,PA,94.1908713692946,NA,NA
15065,Allegheny County,PA,86.92946058091286,NA,NA
15102,Allegheny County,PA,63.48547717842323,NA,NA
15106,Allegheny County,PA,NA,57.57575757575758,NA
15132,Allegheny County,PA,NA,58.098223615464995,NA
15137,Allegheny County,PA,62.03319502074689,NA,NA
15145,Allegheny County,PA,95.0207468879668,NA,NA
15147,Allegheny County,PA,NA,NA,18.35075493612079
15206,Allegheny County,PA,15.560165975103734,20.480668756530825,NA
15210,Allegheny County,PA,14.21161825726141,NA,NA
15236,Allegheny County,PA,48.54771784232365,NA,NA
15237,Allegheny County,PA,50.20746887966805,NA,NA
15301,Washington County,PA,NA,3.1347962382445136,NA
15332,Washington County,PA,83.81742738589212,NA,NA
15473,Fayette County,PA,NA,NA,87.34030197444832
15601,Westmoreland County,PA,NA,0.41797283176593525,0.6968641114982579
15642,Westmoreland County,PA,NA,3.761755485893417,5.574912891986063
15656,Westmoreland County,PA,72.61410788381743,NA,NA
15666,Westmoreland County,PA,NA,NA,12.195121951219512
15901,Cambria County,PA,NA,95.29780564263322,79.09407665505228
15905,Cambria County,PA,NA,34.37826541274817,NA
16117,Lawrence County,PA,NA,NA,60.743321718931476
16146,Mercer County,PA,NA,NA,27.06155632984901
16148,Mercer County,PA,NA,21.21212121212121,NA
16201,Armstrong County,PA,65.14522821576763,NA,NA
16365,Warren County,PA,NA,28.108672936259143,NA
16424,Crawford County,PA,NA,94.14838035527691,NA
16502,Erie County,PA,NA,82.44514106583071,NA
16510,Erie County,PA,39.93775933609959,NA,56.56213704994193
16662,Blair County,PA,NA,NA,75.72590011614402
16743,McKean County,PA,96.47302904564316,NA,NA
16803,Centre County,PA,NA,57.36677115987461,NA
16915,Potter County,PA,NA,65.20376175548589,NA
16947,Bradford County,PA,NA,97.80564263322884,NA
17013,Cumberland County,PA,NA,NA,17.18931475029036
17022,Lancaster County,PA,NA,NA,15.6794425087108
17033,Dauphin County,PA,NA,NA,21.602787456445995
17055,Cumberland County,PA,NA,79.51933124346917,NA
17057,Dauphin County,PA,NA,15.151515151515152,NA
17066,Huntingdon County,PA,NA,NA,91.869918699187
17078,Lebanon County,PA,NA,8.463949843260188,5.691056910569105
17102,Dauphin County,PA,NA,NA,99.88385598141696
17109,Dauphin County,PA,NA,49.11180773249739,NA
17110,Dauphin County,PA,NA,NA,41.23112659698025
17113,Dauphin County,PA,85.06224066390041,NA,NA
17325,Adams County,PA,21.991701244813278,NA,9.988385598141695
17366,York County,PA,NA,97.59665621734587,NA
17402,York County,PA,NA,NA,3.368176538908246
17403,York County,PA,2.4896265560165975,1.4629049111807733,NA
17406,York County,PA,NA,39.39393939393939,NA
17543,Lancaster County,PA,NA,8.56844305120167,NA
17545,Lancaster County,PA,NA,NA,16.260162601626014
17552,Lancaster County,PA,70.33195020746888,NA,NA
17603,Lancaster County,PA,NA,5.956112852664576,NA
17701,Lycoming County,PA,4.771784232365145,NA,NA
17777,Northumberland County,PA,NA,NA,90.70847851335657
17820,Columbia County,PA,83.19502074688798,NA,NA
17824,Northumberland County,PA,NA,NA,59.34959349593496
17842,Snyder County,PA,NA,NA,72.24157955865273
17921,Schuylkill County,PA,92.01244813278008,NA,NA
17960,Schuylkill County,PA,NA,NA,92.91521486643438
18017,Northampton County,PA,25.518672199170123,NA,NA
18018,Lehigh County,PA,NA,NA,9.523809523809524
18020,Northampton County,PA,43.87966804979253,NA,NA
18036,Lehigh County,PA,67.73858921161826,NA,NA
18042,Northampton County,PA,6.1203319502074685,NA,NA
18045,Northampton County,PA,NA,NA,8.710801393728223
18104,Lehigh County,PA,NA,NA,2.4390243902439024
18201,Luzerne County,PA,NA,23.824451410658305,NA
18202,Luzerne County,PA,NA,41.27481713688611,NA
18237,Schuylkill County,PA,98.7551867219917,NA,NA
18252,Schuylkill County,PA,82.26141078838174,NA,NA
18353,Monroe County,PA,63.69294605809128,NA,NA
18510,Lackawanna County,PA,NA,89.0282131661442,NA
18603,Columbia County,PA,13.381742738589212,NA,NA
18634,Luzerne County,PA,NA,41.588296760710556,NA
18657,Wyoming County,PA,NA,56.94879832810867,NA
18702,Luzerne County,PA,NA,25.809822361546498,NA
18902,Bucks County,PA,NA,NA,70.96399535423926
18938,Bucks County,PA,NA,NA,54.81997677119629
18974,Bucks County,PA,NA,41.483803552769075,2.2067363530778166
18976,Bucks County,PA,NA,NA,38.79210220673635
19007,Bucks County,PA,23.443983402489625,NA,NA
19020,Bucks County,PA,32.67634854771784,NA,NA
19026,Delaware County,PA,15.663900414937759,NA,NA
19054,Bucks County,PA,62.136929460580916,NA,NA
19055,Bucks County,PA,79.9792531120332,NA,73.28687572590012
19057,Bucks County,PA,NA,NA,74.56445993031359
19072,Montgomery County,PA,NA,NA,61.440185830429726
19082,Delaware County,PA,10.78838174273859,NA,NA
19083,Delaware County,PA,NA,NA,23.11265969802555
19103,Philadelphia County,PA,46.78423236514523,NA,NA
19119,Philadelphia County,PA,22.40663900414938,NA,NA
19120,Philadelphia County,PA,2.5933609958506225,NA,43.43786295005807
19123,Philadelphia County,PA,81.12033195020747,NA,81.8815331010453
19124,Philadelphia County,PA,45.33195020746888,7.941483803552769,NA
19125,Philadelphia County,PA,NA,53.60501567398119,NA
19126,Philadelphia County,PA,NA,NA,55.63298490127758
19130,Philadelphia County,PA,70.12448132780082,NA,NA
19131,Philadelphia County,PA,NA,40.54336468129572,NA
19135,Philadelphia County,PA,14.522821576763487,NA,NA
19138,Philadelphia County,PA,NA,22.048066875653085,NA
19139,Philadelphia County,PA,3.5269709543568464,4.38871473354232,NA
19142,Philadelphia County,PA,NA,NA,89.31475029036005
19143,Philadelphia County,PA,NA,NA,8.362369337979095
19145,Philadelphia County,PA,30.08298755186722,8.986415882967608,NA
19148,Philadelphia County,PA,NA,NA,67.24738675958189
19153,Philadelphia County,PA,NA,87.98328108672936,NA
19320,Chester County,PA,NA,10.13584117032393,NA
19335,Chester County,PA,NA,11.80773249738767,NA
19380,Chester County,PA,NA,NA,2.9036004645760745
19438,Montgomery County,PA,NA,NA,30.89430894308943
19440,Montgomery County,PA,NA,61.02403343782654,NA
19462,Montgomery County,PA,NA,95.92476489028213,NA
19464,Montgomery County,PA,NA,NA,32.752613240418114
19508,Berks County,PA,53.11203319502075,NA,NA
19601,Berks County,PA,2.6970954356846475,NA,NA
19602,Berks County,PA,NA,28.00417972831766,NA
19604,Berks County,PA,11.20331950207469,83.2810867293626,NA
19606,Berks County,PA,NA,NA,16.608594657375146
19607,Berks County,PA,26.037344398340252,NA,NA
02816,Kent County,RI,NA,NA,25.319396051103364
02830,Providence County,RI,83.19502074688798,NA,NA
02860,Providence County,RI,7.572614107883817,9.61337513061651,NA
02863,Providence County,RI,NA,NA,59.69802555168408
02874,Washington County,RI,NA,NA,91.52148664343787
02878,Newport County,RI,NA,50.67920585161965,NA
02886,Kent County,RI,NA,NA,7.084785133565622
02888,Kent County,RI,NA,NA,73.05458768873403
02889,Kent County,RI,NA,17.55485893416928,NA
02895,Providence County,RI,NA,NA,79.2102206736353
02904,Providence County,RI,33.19502074688796,18.181818181818183,NA
02908,Providence County,RI,NA,NA,27.177700348432055
02910,Providence County,RI,51.867219917012456,NA,NA
29016,Richland County,SC,76.6597510373444,NA,NA
29045,Kershaw County,SC,NA,49.63427377220481,NA
29067,Lancaster County,SC,NA,85.99791013584117,NA
29108,Newberry County,SC,58.298755186722,NA,NA
29123,Lexington County,SC,88.27800829875518,NA,NA
29169,Lexington County,SC,NA,NA,44.48315911730546
29203,Richland County,SC,10.684647302904564,NA,NA
29212,Lexington County,SC,NA,NA,49.70963995354239
29223,Richland County,SC,21.473029045643152,NA,NA
29349,Spartanburg County,SC,NA,NA,22.299651567944252
29385,Spartanburg County,SC,NA,NA,88.03716608594657
29405,Charleston County,SC,NA,37.30407523510972,NA
29407,Charleston County,SC,NA,43.573667711598745,NA
29420,Dorchester County,SC,NA,NA,85.48199767711962
29464,Charleston County,SC,74.48132780082987,NA,NA
29486,Berkeley County,SC,NA,46.18599791013584,NA
29520,Chesterfield County,SC,90.45643153526972,NA,NA
29527,Horry County,SC,NA,NA,60.97560975609756
29536,Dillon County,SC,55.91286307053942,NA,NA
29555,Florence County,SC,NA,95.5067920585162,NA
29566,Horry County,SC,NA,NA,54.47154471544715
29571,Marion County,SC,67.63485477178423,NA,NA
29574,Marion County,SC,NA,62.38244514106584,NA
29575,Horry County,SC,NA,84.43051201671892,NA
29576,Horry County,SC,NA,NA,49.24506387921022
29577,Horry County,SC,NA,48.90282131661442,NA
29579,Horry County,SC,80.60165975103735,NA,NA
29605,Greenville County,SC,22.095435684647303,11.180773249738767,NA
29617,Greenville County,SC,36.82572614107884,NA,NA
29621,Anderson County,SC,NA,NA,13.124274099883856
29625,Anderson County,SC,32.88381742738589,NA,NA
29626,Anderson County,SC,NA,73.5632183908046,NA
29640,Pickens County,SC,NA,NA,30.66202090592334
29672,Oconee County,SC,NA,66.77115987460816,NA
29687,Greenville County,SC,NA,NA,16.02787456445993
29690,Greenville County,SC,NA,33.85579937304075,NA
29693,Oconee County,SC,NA,96.1337513061651,NA
29706,Chester County,SC,34.128630705394194,NA,NA
29707,Lancaster County,SC,NA,NA,21.254355400696863
57078,Yankton County,SD,NA,84.22152560083595,NA
57104,Minnehaha County,SD,28.838174273858918,NA,NA
57301,Davison County,SD,49.37759336099585,NA,NA
57783,Lawrence County,SD,NA,NA,34.26248548199768
37022,Sumner County,TN,84.54356846473028,NA,NA
37036,Dickson County,TN,NA,NA,93.61207897793264
37040,Montgomery County,TN,22.510373443983404,NA,NA
37043,Montgomery County,TN,NA,21.003134796238246,NA
37066,Sumner County,TN,NA,6.478578892371996,NA
37083,Macon County,TN,NA,30.825496342737722,NA
37096,Perry County,TN,86.41078838174275,NA,79.90708478513356
37115,Davidson County,TN,40.871369294605806,NA,NA
37148,Sumner County,TN,NA,NA,59.34959349593496
37166,DeKalb County,TN,NA,54.858934169278996,NA
37172,Robertson County,TN,47.82157676348548,NA,52.84552845528455
37174,Williamson County,TN,NA,36.05015673981191,NA
37186,Sumner County,TN,86.30705394190872,NA,NA
37206,Davidson County,TN,NA,38.24451410658307,NA
37207,Davidson County,TN,11.618257261410788,NA,NA
37217,Davidson County,TN,42.84232365145228,NA,NA
37218,Davidson County,TN,NA,NA,65.85365853658537
37311,Bradley County,TN,NA,33.12434691745037,NA
37321,Rhea County,TN,NA,NA,64.45993031358886
37329,McMinn County,TN,78.00829875518673,NA,NA
37331,McMinn County,TN,NA,75.23510971786834,NA
37363,Hamilton County,TN,NA,38.87147335423197,NA
37406,Hamilton County,TN,NA,71.36886102403344,NA
37411,Hamilton County,TN,39.62655601659751,NA,NA
37412,Hamilton County,TN,52.593360995850624,NA,NA
37601,Washington County,TN,15.145228215767634,NA,NA
37620,Sullivan County,TN,NA,14.942528735632186,NA
37643,Carter County,TN,12.033195020746888,NA,17.53774680603949
37645,Hawkins County,TN,NA,NA,87.8048780487805
37659,Washington County,TN,NA,93.83490073145245,NA
37690,Washington County,TN,85.26970954356847,NA,NA
37708,Grainger County,TN,NA,NA,93.03135888501743
37743,Greene County,TN,11.825726141078837,NA,NA
37748,Roane County,TN,34.54356846473029,NA,39.48896631823461
37763,Roane County,TN,NA,39.60292580982236,NA
37821,Cocke County,TN,14.315352697095435,27.27272727272727,NA
37854,Roane County,TN,58.40248962655602,NA,NA
37865,Sevier County,TN,NA,NA,35.07549361207898
37887,Morgan County,TN,NA,77.53396029258099,NA
37890,Jefferson County,TN,89.00414937759335,NA,86.41114982578398
37912,Knox County,TN,28.94190871369295,NA,NA
37918,Knox County,TN,13.589211618257261,NA,NA
37920,Knox County,TN,NA,NA,32.28803716608595
37923,Knox County,TN,NA,NA,65.04065040650406
37931,Knox County,TN,73.13278008298755,NA,NA
37934,Knox County,TN,NA,40.54336468129572,NA
38019,Tipton County,TN,NA,NA,89.77932636469221
38024,Dyer County,TN,NA,33.5423197492163,NA
38058,Tipton County,TN,88.48547717842324,NA,NA
38106,Shelby County,TN,NA,NA,52.38095238095239
38108,Shelby County,TN,NA,54.12748171368861,NA
38111,Shelby County,TN,NA,77.4294670846395,42.27642276422765
38114,Shelby County,TN,56.84647302904564,NA,NA
38117,Shelby County,TN,NA,66.98014629049112,NA
38127,Shelby County,TN,35.06224066390041,NA,NA
38128,Shelby County,TN,NA,NA,63.18234610917538
38301,Madison County,TN,NA,15.569487983281086,NA
38358,Gibson County,TN,NA,62.5914315569488,NA
38382,Gibson County,TN,77.38589211618257,NA,NA
38551,Clay County,TN,84.85477178423237,NA,NA
38555,Cumberland County,TN,39.93775933609959,NA,NA
38570,Overton County,TN,NA,64.68129571577848,NA
38571,Cumberland County,TN,56.12033195020747,42.00626959247649,83.39140534262486
38583,White County,TN,24.066390041493776,NA,NA
75006,Dallas County,TX,47.5103734439834,25.914315569487982,NA
75020,Grayson County,TX,NA,NA,40.41811846689895
75032,Rockwall County,TX,60.89211618257261,NA,NA
75044,Dallas County,TX,NA,26.854754440961337,NA
75050,Dallas County,TX,NA,47.23092998955068,NA
75090,Grayson County,TX,NA,82.65412748171369,NA
75110,Navarro County,TX,NA,NA,39.721254355400696
75115,Dallas County,TX,20.539419087136928,19.017763845350053,NA
75126,Kaufman County,TX,NA,NA,63.41463414634146
75134,Dallas County,TX,63.79668049792531,NA,NA
75165,Ellis County,TX,26.141078838174277,NA,NA
75181,Dallas County,TX,NA,76.90700104493207,NA
75205,Dallas County,TX,NA,71.57784743991641,NA
75216,Dallas County,TX,NA,NA,7.200929152148665
75219,Dallas County,TX,NA,58.93416927899686,NA
75228,Dallas County,TX,6.950207468879668,NA,NA
75418,Fannin County,TX,NA,NA,94.65737514518003
75501,Bowie County,TX,64.93775933609959,NA,NA
75601,Gregg County,TX,89.83402489626556,NA,NA
75644,Upshur County,TX,NA,NA,72.24157955865273
75647,Gregg County,TX,NA,NA,66.08594657375146
75662,Gregg County,TX,NA,31.55694879832811,42.973286875725904
75766,Cherokee County,TX,67.5311203319502,NA,NA
75773,Wood County,TX,NA,26.227795193312435,NA
75791,Smith County,TX,NA,NA,30.545876887340302
75831,Leon County,TX,NA,94.56635318704284,NA
75961,Nacogdoches County,TX,NA,91.64054336468129,NA
75964,Nacogdoches County,TX,NA,NA,83.73983739837398
75965,Nacogdoches County,TX,NA,94.25287356321839,NA
75979,Tyler County,TX,NA,89.23719958202717,NA
76010,Tarrant County,TX,NA,52.2466039707419,NA
76015,Tarrant County,TX,78.3195020746888,NA,NA
76036,Tarrant County,TX,NA,NA,52.84552845528455
76065,Ellis County,TX,40.975103734439834,NA,NA
76084,Johnson County,TX,NA,NA,85.36585365853658
76107,Tarrant County,TX,42.32365145228216,53.91849529780565,NA
76112,Tarrant County,TX,12.966804979253114,NA,NA
76114,Tarrant County,TX,NA,51.933124346917445,NA
76116,Tarrant County,TX,NA,NA,18.583042973286876
76117,Tarrant County,TX,34.85477178423236,NA,NA
76119,Tarrant County,TX,8.091286307053942,NA,NA
76120,Tarrant County,TX,NA,82.23615464994776,NA
76132,Tarrant County,TX,NA,NA,47.15447154471545
76133,Tarrant County,TX,16.90871369294606,NA,NA
76137,Tarrant County,TX,18.464730290456433,NA,NA
76140,Tarrant County,TX,NA,42.31974921630094,NA
76302,Wichita County,TX,88.79668049792531,NA,NA
76450,Young County,TX,NA,67.60710553814002,NA
76528,Coryell County,TX,28.319502074688796,NA,NA
76539,Lampasas County,TX,NA,83.69905956112854,NA
76543,Bell County,TX,NA,19.122257053291534,NA
76550,Lampasas County,TX,64.31535269709543,NA,NA
76574,Williamson County,TX,50.31120331950207,21.10762800417973,NA
76642,Limestone County,TX,93.56846473029046,NA,NA
76643,McLennan County,TX,NA,NA,53.89082462253194
76645,Hill County,TX,NA,66.24869383490073,NA
76705,McLennan County,TX,NA,NA,27.526132404181187
77013,Harris County,TX,NA,NA,97.21254355400697
77015,Harris County,TX,NA,87.6698014629049,NA
77016,Harris County,TX,42.531120331950206,NA,NA
77018,Harris County,TX,NA,NA,64.34378629500581
77023,Harris County,TX,NA,87.56530825496343,NA
77028,Harris County,TX,NA,63.94984326018809,NA
77033,Harris County,TX,NA,52.03761755485894,NA
77036,Harris County,TX,54.149377593360995,NA,NA
77040,Harris County,TX,NA,63.42737722048067,NA
77057,Harris County,TX,NA,NA,56.2137049941928
77064,Harris County,TX,36.92946058091287,NA,NA
77066,Harris County,TX,67.84232365145229,NA,NA
77071,Harris County,TX,NA,NA,86.06271777003485
77076,Harris County,TX,NA,NA,77.00348432055749
77082,Harris County,TX,87.55186721991701,NA,NA
77085,Harris County,TX,NA,81.08672936259144,NA
77086,Harris County,TX,NA,65.30825496342739,NA
77088,Harris County,TX,63.17427385892116,NA,NA
77090,Harris County,TX,28.21576763485477,NA,NA
77091,Harris County,TX,55.497925311203325,NA,NA
77096,Harris County,TX,NA,NA,48.89663182346109
77346,Harris County,TX,NA,32.288401253918494,NA
77354,Montgomery County,TX,NA,NA,36.58536585365854
77365,Montgomery County,TX,50.933609958506224,NA,NA
77379,Harris County,TX,NA,7.836990595611286,NA
77382,Montgomery County,TX,NA,NA,69.91869918699187
77384,Montgomery County,TX,NA,87.87878787878788,NA
77386,Montgomery County,TX,66.70124481327801,NA,NA
77389,Harris County,TX,NA,NA,80.13937282229965
77414,Matagorda County,TX,46.36929460580913,NA,NA
77418,Austin County,TX,NA,90.9090909090909,72.47386759581882
77429,Harris County,TX,41.18257261410788,NA,NA
77449,Harris County,TX,NA,NA,50.987224157955865
77477,Fort Bend County,TX,56.32780082987552,NA,NA
77478,Fort Bend County,TX,NA,NA,79.32636469221835
77486,Brazoria County,TX,NA,84.84848484848484,NA
77488,Wharton County,TX,NA,NA,91.98606271777004
77494,Fort Bend County,TX,NA,NA,33.91405342624855
77498,Fort Bend County,TX,NA,50.052246603970744,NA
77503,Harris County,TX,NA,63.53187042842215,NA
77504,Harris County,TX,NA,97.91013584117032,NA
77506,Harris County,TX,NA,89.75966562173458,75.37746806039489
77511,Brazoria County,TX,NA,NA,50.40650406504065
77515,Brazoria County,TX,50,NA,NA
77520,Harris County,TX,44.70954356846473,NA,NA
77521,Harris County,TX,27.800829875518673,NA,NA
77550,Galveston County,TX,NA,NA,54.12311265969802
77551,Galveston County,TX,25,NA,NA
77563,Galveston County,TX,NA,NA,50.63879210220673
77568,Galveston County,TX,34.75103734439834,NA,NA
77573,Galveston County,TX,NA,2.2988505747126435,NA
77584,Brazoria County,TX,NA,19.644723092998955,70.8478513356562
77590,Galveston County,TX,12.551867219917012,NA,NA
77591,Galveston County,TX,NA,NA,51.56794425087108
77625,Hardin County,TX,NA,78.0564263322884,NA
77627,Jefferson County,TX,70.53941908713693,NA,NA
77630,Orange County,TX,NA,31.13897596656217,NA
77662,Orange County,TX,45.954356846473026,NA,NA
77703,Jefferson County,TX,94.08713692946058,NA,NA
77833,Washington County,TX,75.51867219917013,NA,14.0534262485482
77836,Burleson County,TX,66.49377593360995,NA,NA
77845,Brazos County,TX,NA,NA,1.8583042973286876
77901,Victoria County,TX,NA,20.794148380355278,NA
77979,Calhoun County,TX,70.64315352697096,NA,NA
78006,Kendall County,TX,NA,55.276907001044925,NA
78028,Kerr County,TX,38.38174273858922,47.85788923719958,NA
78046,Webb County,TX,47.614107883817425,NA,NA
78108,Guadalupe County,TX,NA,96.44723092998954,NA
78202,Bexar County,TX,NA,NA,91.05691056910568
78207,Bexar County,TX,18.775933609958507,NA,NA
78218,Bexar County,TX,77.80082987551867,NA,NA
78222,Bexar County,TX,66.90871369294605,NA,NA
78224,Bexar County,TX,NA,78.78787878787878,NA
78228,Bexar County,TX,NA,NA,22.64808362369338
78232,Bexar County,TX,NA,NA,52.03252032520326
78237,Bexar County,TX,29.564315352697097,NA,NA
78242,Bexar County,TX,77.17842323651453,89.34169278996865,NA
78247,Bexar County,TX,NA,56.84430512016719,NA
78361,Jim Hogg County,TX,99.1701244813278,NA,NA
78412,Nueces County,TX,53.941908713692946,NA,75.49361207897793
78415,Nueces County,TX,NA,48.275862068965516,NA
78521,Cameron County,TX,32.780082987551864,17.24137931034483,NA
78526,Cameron County,TX,69.29460580912863,NA,NA
78566,Cameron County,TX,NA,98.11912225705329,NA
78570,Hidalgo County,TX,NA,NA,55.16840882694542
78574,Hidalgo County,TX,NA,34.69174503657263,NA
78577,Hidalgo County,TX,26.348547717842326,NA,11.498257839721255
78582,Starr County,TX,NA,NA,25.087108013937282
78584,Starr County,TX,NA,NA,76.88734030197445
78586,Cameron County,TX,74.79253112033194,NA,NA
78589,Hidalgo County,TX,NA,70.11494252873564,NA
78612,Bastrop County,TX,NA,91.43155694879833,NA
78613,Williamson County,TX,NA,16.19644723092999,NA
78639,Llano County,TX,NA,43.260188087774296,NA
78640,Hays County,TX,NA,NA,85.71428571428571
78644,Caldwell County,TX,NA,82.86311389759665,NA
78660,Travis County,TX,NA,30.198537095088817,NA
78701,Travis County,TX,90.97510373443983,NA,NA
78704,Travis County,TX,68.25726141078839,93.31243469174504,NA
78727,Travis County,TX,NA,88.40125391849529,NA
78735,Travis County,TX,NA,NA,75.1451800232288
78744,Travis County,TX,64.73029045643153,NA,NA
78753,Travis County,TX,NA,NA,83.85598141695702
78840,Val Verde County,TX,NA,NA,9.639953542392567
78945,Fayette County,TX,92.11618257261411,NA,NA
79102,Potter County,TX,NA,90.70010449320795,NA
79108,Potter County,TX,NA,77.32497387669801,NA
79347,Bailey County,TX,84.54356846473028,NA,NA
79423,Lubbock County,TX,NA,NA,32.05574912891986
79602,Taylor County,TX,59.75103734439834,NA,68.40882694541232
79705,Midland County,TX,NA,NA,43.20557491289199
79706,Midland County,TX,46.6804979253112,NA,NA
79763,Ector County,TX,NA,NA,64.80836236933798
79915,El Paso County,TX,80.18672199170125,NA,NA
84003,Utah County,UT,NA,85.57993730407524,NA
84041,Davis County,UT,NA,58.411703239289444,72.47386759581882
84058,Utah County,UT,NA,NA,92.10220673635308
84065,Salt Lake County,UT,39.004149377593365,NA,NA
84087,Davis County,UT,NA,NA,96.28339140534263
84101,Salt Lake County,UT,96.6804979253112,NA,NA
84106,Salt Lake County,UT,81.84647302904564,NA,NA
84108,Salt Lake County,UT,NA,51.20167189132706,NA
84120,Salt Lake County,UT,NA,19.435736677115987,NA
84302,Box Elder County,UT,NA,73.24973876698014,NA
84321,Cache County,UT,NA,69.07001044932079,NA
84401,Weber County,UT,NA,48.171368861024035,NA
84404,Weber County,UT,18.983402489626556,NA,NA
84501,Carbon County,UT,63.07053941908713,NA,NA
84604,Utah County,UT,95.33195020746888,NA,NA
84606,Utah County,UT,NA,97.4921630094044,NA
84660,Utah County,UT,NA,84.74399164054337,NA
84790,Washington County,UT,NA,NA,3.7166085946573753
05452,Chittenden County,VT,NA,NA,42.62485481997677
05602,Washington County,VT,NA,34.1692789968652,NA
05701,Rutland County,VT,NA,NA,12.775842044134727
20111,Prince William County,VA,54.56431535269709,NA,NA
20136,Prince William County,VA,NA,98.01462904911182,NA
20165,Loudoun County,VA,NA,NA,81.6492450638792
22030,Fairfax County,VA,NA,27.481713688610242,NA
22042,Fairfax County,VA,NA,NA,71.42857142857143
22066,Fairfax County,VA,NA,NA,83.15911730545878
22191,Prince William County,VA,NA,NA,81.41695702671312
22204,Arlington County,VA,NA,44.827586206896555,NA
22306,Fairfax County,VA,28.734439834024894,NA,NA
22314,Alexandria city,VA,30.91286307053942,NA,NA
22315,Fairfax County,VA,NA,85.16196447230931,NA
22406,Stafford County,VA,NA,NA,47.50290360046458
22485,King George County,VA,64.83402489626556,NA,NA
22554,Stafford County,VA,NA,42.5287356321839,NA
22630,Warren County,VA,23.13278008298755,NA,NA
22902,Charlottesville city,VA,90.14522821576763,NA,NA
22903,Charlottesville city,VA,NA,NA,33.56562137049942
23112,Chesterfield County,VA,NA,25.287356321839084,NA
23114,Chesterfield County,VA,NA,NA,78.397212543554
23117,Louisa County,VA,NA,NA,68.06039488966317
23188,James City County,VA,NA,1.2539184952978055,0.5807200929152149
23225,Richmond city,VA,NA,NA,29.38443670150987
23235,Chesterfield County,VA,NA,43.67816091954023,19.860627177700348
23322,Chesapeake city,VA,55.601659751037346,NA,NA
23323,Chesapeake city,VA,NA,31.870428422152557,NA
23434,Suffolk city,VA,14.937759336099585,NA,NA
23454,Virginia Beach city,VA,28.63070539419087,NA,3.6004645760743323
23462,Virginia Beach city,VA,NA,7.732497387669801,NA
23464,Virginia Beach city,VA,15.04149377593361,NA,NA
23502,Norfolk city,VA,35.892116182572614,28.735632183908045,NA
23504,Norfolk city,VA,NA,51.619644723092996,79.55865272938443
23601,Newport News city,VA,NA,NA,26.132404181184672
23663,Hampton city,VA,75.31120331950207,NA,NA
23669,Hampton city,VA,56.95020746887967,NA,NA
23692,York County,VA,90.45643153526972,NA,NA
23704,Portsmouth city,VA,27.385892116182575,49.947753396029256,NA
23824,Nottoway County,VA,NA,NA,77.93263646922183
23838,Chesterfield County,VA,NA,NA,77.70034843205575
23875,Prince George County,VA,NA,74.29467084639498,NA
23890,Sussex County,VA,95.22821576763485,NA,NA
24013,Roanoke city,VA,NA,85.68443051201672,NA
24018,Roanoke County,VA,NA,28.526645768025077,NA
24019,Roanoke County,VA,NA,25.49634273772205,NA
24073,Montgomery County,VA,72.5103734439834,NA,44.134727061556326
24084,Pulaski County,VA,79.5643153526971,NA,NA
24088,Franklin County,VA,NA,NA,93.4959349593496
24104,Bedford County,VA,99.68879668049793,NA,NA
24124,Giles County,VA,91.39004149377593,97.3876698014629,NA
24127,Craig County,VA,NA,100,NA
24244,Scott County,VA,NA,91.32706374085684,NA
24273,Norton city,VA,NA,90.80459770114942,NA
24330,Grayson County,VA,NA,87.04284221525602,NA
24333,Galax city,VA,NA,50.26123301985371,57.60743321718932
24401,Staunton city,VA,NA,NA,5.923344947735192
24426,Alleghany County,VA,48.44398340248963,NA,NA
24441,Rockingham County,VA,NA,NA,77.46806039488966
24502,Lynchburg city,VA,43.67219917012448,NA,NA
24503,Lynchburg city,VA,NA,85.8934169278997,NA
24504,Lynchburg city,VA,59.54356846473029,90.17763845350052,86.52729384436701
24540,Danville city,VA,NA,78.47439916405433,NA
24572,Amherst County,VA,NA,NA,58.88501742160279
98002,King County,WA,35.684647302904565,NA,NA
98004,King County,WA,73.65145228215768,NA,NA
98011,King County,WA,NA,71.99582027168235,NA
98012,Snohomish County,WA,NA,NA,17.770034843205575
98022,King County,WA,NA,22.570532915360502,NA
98030,King County,WA,23.7551867219917,NA,NA
98031,King County,WA,NA,14.420062695924765,NA
98036,Snohomish County,WA,48.85892116182573,NA,34.26248548199768
98040,King County,WA,NA,53.70950888192267,NA
98045,King County,WA,80.91286307053942,NA,NA
98053,King County,WA,75.8298755186722,NA,NA
98057,King County,WA,NA,NA,78.74564459930313
98115,King County,WA,37.136929460580916,NA,NA
98125,King County,WA,40.560165975103736,97.70114942528735,NA
98126,King County,WA,NA,NA,71.31242740998839
98133,King County,WA,27.593360995850624,NA,NA
98148,King County,WA,NA,97.07419017763846,NA
98198,King County,WA,NA,86.83385579937304,NA
98204,Snohomish County,WA,24.37759336099585,NA,53.31010452961672
98230,Whatcom County,WA,NA,68.75653082549634,NA
98236,Island County,WA,NA,78.16091954022988,NA
98271,Snohomish County,WA,NA,48.589341692789965,NA
98312,Kitsap County,WA,39.41908713692946,NA,NA
98372,Pierce County,WA,60.16597510373444,NA,NA
98374,Pierce County,WA,NA,NA,56.678281068524974
98391,Pierce County,WA,NA,64.05433646812956,NA
98406,Pierce County,WA,62.863070539419084,NA,NA
98407,Pierce County,WA,NA,NA,41.46341463414634
98422,Pierce County,WA,62.551867219917014,NA,NA
98499,Pierce County,WA,NA,50.36572622779519,NA
98563,Grays Harbor County,WA,NA,NA,69.10569105691057
98584,Mason County,WA,NA,NA,27.990708478513355
98596,Lewis County,WA,NA,98.6415882967607,NA
98597,Thurston County,WA,NA,76.17554858934169,NA
98632,Cowlitz County,WA,NA,3.239289446185998,NA
98665,Clark County,WA,81.6390041493776,NA,NA
98685,Clark County,WA,NA,NA,66.2020905923345
98801,Chelan County,WA,NA,NA,5.342624854819976
98802,Douglas County,WA,NA,26.854754440961337,NA
98837,Grant County,WA,NA,NA,18.931475029036005
98901,Yakima County,WA,NA,NA,39.60511033681765
98908,Yakima County,WA,38.48547717842324,10.762800417972832,12.543554006968641
98942,Yakima County,WA,NA,NA,76.53890824622532
99021,Spokane County,WA,NA,92.68547544409613,NA
99114,Stevens County,WA,NA,NA,52.84552845528455
99206,Spokane County,WA,47.0954356846473,NA,NA
99212,Spokane County,WA,NA,NA,72.7061556329849
99216,Spokane County,WA,NA,76.38453500522466,NA
99301,Franklin County,WA,NA,4.284221525600835,NA
99336,Benton County,WA,NA,NA,3.948896631823461
99352,Benton County,WA,NA,23.92894461859979,NA
99362,Walla Walla County,WA,NA,9.195402298850574,NA
20008,District of Columbia,DC,NA,NA,73.5191637630662
20019,District of Columbia,DC,3.630705394190872,2.9258098223615465,39.02439024390244
20020,District of Columbia,DC,1.6597510373443984,NA,NA
20032,District of Columbia,DC,22.717842323651453,NA,NA
24740,Mercer County,WV,30.809128630705395,NA,NA
25143,Kanawha County,WV,61.82572614107884,NA,NA
25271,Jackson County,WV,NA,58.82967607105538,NA
25314,Kanawha County,WV,NA,NA,40.18583042973287
25403,Berkeley County,WV,71.6804979253112,NA,NA
25508,Logan County,WV,73.3402489626556,NA,NA
25510,Cabell County,WV,NA,96.02925809822361,NA
25514,Wayne County,WV,92.73858921161826,NA,NA
26041,Marshall County,WV,NA,NA,44.71544715447154
26416,Barbour County,WV,NA,37.4085684430512,NA
26431,Harrison County,WV,NA,69.48798328108673,NA
26501,Monongalia County,WV,NA,NA,37.16608594657375
53022,Washington County,WI,NA,NA,54.70383275261324
53027,Washington County,WI,NA,44.61859979101359,NA
53029,Waukesha County,WI,63.79668049792531,NA,NA
53090,Washington County,WI,NA,NA,58.42044134727061
53121,Walworth County,WI,NA,NA,48.78048780487805
53147,Walworth County,WI,NA,71.15987460815047,NA
53186,Waukesha County,WI,NA,33.22884012539185,NA
53188,Waukesha County,WI,NA,16.614420062695924,NA
53190,Walworth County,WI,86.51452282157676,NA,NA
53206,Milwaukee County,WI,9.95850622406639,NA,NA
53209,Milwaukee County,WI,NA,99.37304075235109,NA
53212,Milwaukee County,WI,NA,12.225705329153605,NA
53214,Milwaukee County,WI,NA,8.359456635318704,NA
53215,Milwaukee County,WI,20.435684647302903,NA,NA
53216,Milwaukee County,WI,60.89211618257261,NA,NA
53217,Milwaukee County,WI,81.6390041493776,NA,13.472706155632984
53218,Milwaukee County,WI,NA,6.165099268547544,NA
53220,Milwaukee County,WI,31.431535269709542,NA,NA
53221,Milwaukee County,WI,NA,20.58516196447231,NA
53228,Milwaukee County,WI,NA,NA,71.77700348432056
53405,Racine County,WI,6.639004149377594,NA,45.87688734030198
53523,Dane County,WI,NA,NA,89.89547038327527
53548,Rock County,WI,23.651452282157674,NA,NA
53573,Grant County,WI,NA,99.16405433646813,NA
53901,Columbia County,WI,68.67219917012449,NA,NA
54020,Polk County,WI,NA,84.63949843260188,NA
54022,Pierce County,WI,NA,NA,74.09988385598142
54135,Menominee County,WI,98.96265560165975,NA,NA
54401,Marathon County,WI,40.24896265560166,NA,NA
54409,Langlade County,WI,69.70954356846472,NA,NA
54449,Wood County,WI,71.36929460580913,NA,NA
54476,Marathon County,WI,NA,65.41274817136886,NA
54481,Portage County,WI,NA,49.843260188087775,NA
54501,Oneida County,WI,51.65975103734441,NA,NA
54612,Trempealeau County,WI,93.7759336099585,NA,NA
54730,Dunn County,WI,94.50207468879668,NA,NA
54837,Polk County,WI,NA,90.07314524555903,NA
54935,Fond du Lac County,WI,NA,NA,4.413472706155633
54937,Fond du Lac County,WI,44.81327800829876,NA,NA
82435,Park County,WY,84.33609958506224,NA,NA
