ZipCode,county,state,Youth,Pediatric,Adult,Retirement,Geriatric
35016,Marshall County,AL,NA,NA,51.463414634146346,NA,NA
35020,Jefferson County,AL,NA,40.16620498614959,NA,NA,NA
35023,Jefferson County,AL,32.00992555831266,NA,NA,NA,NA
35058,Cullman County,AL,NA,NA,88.78048780487805,NA,NA
35079,Blount County,AL,NA,NA,NA,NA,91.43968871595331
35094,Jefferson County,AL,NA,NA,NA,84.51400329489292,NA
35126,Jefferson County,AL,NA,56.50969529085873,NA,NA,NA
35133,Blount County,AL,55.08684863523573,NA,NA,NA,NA
35160,Talladega County,AL,NA,73.68421052631578,18.29268292682927,NA,NA
35173,Jefferson County,AL,NA,NA,NA,NA,93.3852140077821
35184,Bibb County,AL,NA,87.81163434903047,NA,NA,NA
35204,Jefferson County,AL,NA,91.68975069252078,NA,NA,NA
35206,Jefferson County,AL,NA,NA,NA,44.481054365733115,NA
35213,Jefferson County,AL,NA,NA,NA,60.95551894563427,NA
35214,Jefferson County,AL,NA,NA,NA,38.87973640856672,NA
35216,Jefferson County,AL,NA,NA,NA,NA,92.99610894941634
35217,Jefferson County,AL,NA,60.387811634349035,48.048780487804876,NA,NA
35228,Jefferson County,AL,NA,NA,59.63414634146341,NA,NA
35504,Walker County,AL,NA,NA,68.53658536585367,NA,NA
35603,Morgan County,AL,NA,NA,18.78048780487805,NA,NA
35640,Morgan County,AL,NA,NA,NA,34.92586490939045,NA
35660,Colbert County,AL,NA,NA,NA,98.84678747940691,NA
35759,Madison County,AL,NA,NA,88.90243902439025,NA,NA
35816,Madison County,AL,NA,43.76731301939058,NA,NA,NA
35901,Etowah County,AL,NA,NA,NA,33.93739703459638,NA
35907,Etowah County,AL,NA,NA,80.60975609756098,NA,NA
36025,Elmore County,AL,NA,76.17728531855957,NA,NA,NA
36111,Montgomery County,AL,82.38213399503722,NA,NA,NA,NA
36532,Baldwin County,AL,NA,NA,NA,NA,26.459143968871597
36551,Baldwin County,AL,NA,NA,90.3658536585366,NA,NA
36608,Mobile County,AL,76.67493796526055,NA,NA,NA,NA
36701,Dallas County,AL,NA,NA,28.90243902439024,NA,NA
36877,Lee County,AL,NA,NA,NA,62.7677100494234,NA
85006,Maricopa County,AZ,NA,22.437673130193904,NA,NA,NA
85008,Maricopa County,AZ,NA,NA,72.1951219512195,NA,NA
85009,Maricopa County,AZ,9.429280397022332,NA,NA,NA,NA
85014,Maricopa County,AZ,NA,NA,NA,51.72981878088962,NA
85015,Maricopa County,AZ,NA,NA,NA,46.787479406919275,NA
85027,Maricopa County,AZ,NA,67.03601108033241,NA,NA,NA
85033,Maricopa County,AZ,NA,NA,63.90243902439025,NA,NA
85037,Maricopa County,AZ,33.49875930521092,NA,NA,NA,NA
85043,Maricopa County,AZ,NA,46.26038781163435,NA,83.36079077429983,NA
85050,Maricopa County,AZ,35.483870967741936,NA,NA,NA,NA
85119,Pinal County,AZ,NA,NA,NA,NA,92.60700389105058
85128,Pinal County,AZ,NA,47.091412742382275,NA,NA,NA
85139,Pinal County,AZ,NA,NA,52.19512195121951,NA,NA
85140,Pinal County,AZ,46.65012406947891,NA,NA,NA,NA
85142,Maricopa County,AZ,35.483870967741936,NA,NA,NA,NA
85209,Maricopa County,AZ,27.29528535980149,NA,NA,NA,NA
85225,Maricopa County,AZ,NA,NA,NA,26.359143327841846,NA
85233,Maricopa County,AZ,NA,NA,NA,NA,82.87937743190662
85251,Maricopa County,AZ,NA,NA,NA,48.76441515650741,NA
85282,Maricopa County,AZ,NA,NA,NA,71.33443163097199,NA
85283,Maricopa County,AZ,NA,NA,85.36585365853658,NA,NA
85296,Maricopa County,AZ,NA,NA,64.63414634146342,NA,NA
85298,Maricopa County,AZ,NA,NA,69.14634146341463,NA,NA
85339,Maricopa County,AZ,NA,21.88365650969529,70.24390243902438,NA,NA
85344,La Paz County,AZ,62.03473945409429,NA,NA,NA,NA
85363,Maricopa County,AZ,NA,NA,93.04878048780488,NA,NA
85365,Yuma County,AZ,NA,84.21052631578947,NA,NA,NA
85377,Maricopa County,AZ,NA,NA,NA,96.37561779242174,NA
85382,Maricopa County,AZ,57.32009925558312,NA,NA,NA,NA
85541,Gila County,AZ,NA,NA,48.292682926829265,NA,NA
85607,Cochise County,AZ,NA,20.77562326869806,NA,NA,NA
85615,Cochise County,AZ,NA,NA,91.21951219512195,NA,NA
85648,Santa Cruz County,AZ,NA,68.69806094182826,NA,NA,NA
85650,Cochise County,AZ,NA,NA,NA,NA,48.249027237354085
85653,Pima County,AZ,NA,NA,NA,65.89785831960461,NA
85658,Pima County,AZ,NA,NA,NA,NA,99.61089494163424
85713,Pima County,AZ,44.66501240694789,NA,7.560975609756097,NA,NA
85714,Pima County,AZ,NA,NA,NA,52.55354200988468,NA
85715,Pima County,AZ,NA,NA,NA,52.38879736408567,NA
85716,Pima County,AZ,NA,NA,20.121951219512198,57.33113673805601,NA
85718,Pima County,AZ,NA,NA,NA,NA,22.56809338521401
85730,Pima County,AZ,NA,NA,NA,72.65238879736408,NA
85743,Pima County,AZ,NA,NA,NA,58.48434925864909,NA
85746,Pima County,AZ,NA,NA,NA,66.39209225700165,NA
85757,Pima County,AZ,NA,84.48753462603878,NA,NA,NA
85941,Apache County,AZ,58.56079404466501,NA,NA,NA,NA
86045,Coconino County,AZ,NA,NA,NA,NA,89.88326848249028
86053,Coconino County,AZ,NA,NA,NA,96.54036243822077,NA
86335,Yavapai County,AZ,NA,NA,96.95121951219512,NA,NA
86409,Mohave County,AZ,NA,NA,9.878048780487806,NA,NA
86503,Apache County,AZ,NA,7.479224376731302,65.85365853658537,NA,NA
86538,Apache County,AZ,NA,99.7229916897507,NA,NA,NA
71603,Jefferson County,AR,NA,NA,NA,NA,77.82101167315176
71646,Ashley County,AR,NA,NA,NA,99.17627677100495,NA
71913,Garland County,AR,80.89330024813896,NA,NA,NA,NA
72086,Lonoke County,AR,NA,NA,85,NA,NA
72206,Pulaski County,AR,NA,NA,NA,27.84184514003295,NA
72653,Baxter County,AR,NA,NA,NA,NA,43.57976653696498
72756,Benton County,AR,33.99503722084367,NA,NA,NA,NA
90024,Los Angeles County,CA,NA,NA,NA,50.57660626029654,NA
90026,Los Angeles County,CA,NA,NA,NA,38.056013179571664,NA
90037,Los Angeles County,CA,NA,NA,39.02439024390244,NA,NA
90047,Los Angeles County,CA,NA,28.254847645429365,NA,61.61449752883031,NA
90057,Los Angeles County,CA,NA,NA,69.02439024390243,NA,NA
90212,Los Angeles County,CA,NA,NA,87.5609756097561,NA,NA
90220,Los Angeles County,CA,NA,NA,63.53658536585366,NA,NA
90250,Los Angeles County,CA,NA,NA,25.609756097560975,NA,NA
90262,Los Angeles County,CA,87.59305210918114,NA,NA,NA,NA
90274,Los Angeles County,CA,NA,NA,NA,NA,45.525291828793776
90293,Los Angeles County,CA,NA,NA,89.02439024390245,NA,NA
90301,Los Angeles County,CA,NA,NA,36.21951219512195,NA,NA
90403,Los Angeles County,CA,NA,NA,66.82926829268293,NA,NA
90501,Los Angeles County,CA,82.6302729528536,NA,NA,NA,NA
90504,Los Angeles County,CA,NA,NA,67.6829268292683,NA,NA
90505,Los Angeles County,CA,NA,NA,56.70731707317073,NA,NA
90601,Los Angeles County,CA,NA,NA,78.65853658536585,NA,NA
90602,Los Angeles County,CA,NA,NA,NA,NA,64.2023346303502
90746,Los Angeles County,CA,NA,NA,NA,49.25864909390445,NA
90804,Los Angeles County,CA,NA,NA,98.17073170731707,NA,NA
90807,Los Angeles County,CA,NA,NA,50,NA,NA
91204,Los Angeles County,CA,NA,80.60941828254848,NA,NA,NA
91331,Los Angeles County,CA,NA,NA,NA,NA,96.49805447470817
91335,Los Angeles County,CA,50.86848635235732,NA,NA,NA,NA
91342,Los Angeles County,CA,NA,NA,NA,14.991762767710048,NA
91343,Los Angeles County,CA,NA,NA,50.609756097560975,NA,NA
91356,Los Angeles County,CA,NA,NA,NA,73.80560131795717,NA
91387,Los Angeles County,CA,NA,NA,NA,82.20757825370676,NA
91702,Los Angeles County,CA,NA,NA,32.5609756097561,NA,NA
91709,San Bernardino County,CA,NA,NA,NA,25.205930807248766,NA
91745,Los Angeles County,CA,NA,NA,NA,NA,66.14785992217898
91761,San Bernardino County,CA,71.712158808933,NA,NA,NA,NA
91791,Los Angeles County,CA,NA,NA,77.8048780487805,NA,81.32295719844358
91902,San Diego County,CA,NA,NA,NA,NA,68.48249027237354
91910,San Diego County,CA,NA,NA,NA,29.159802306425043,NA
91911,San Diego County,CA,NA,NA,25,NA,NA
91941,San Diego County,CA,NA,NA,NA,85.00823723228996,NA
91977,San Diego County,CA,76.42679900744417,NA,NA,NA,NA
92021,San Diego County,CA,NA,NA,NA,15.15650741350906,NA
92081,San Diego County,CA,NA,NA,93.53658536585367,NA,NA
92114,San Diego County,CA,NA,12.18836565096953,NA,NA,NA
92115,San Diego County,CA,NA,33.51800554016621,NA,NA,NA
92117,San Diego County,CA,NA,NA,NA,NA,22.17898832684825
92126,San Diego County,CA,NA,NA,NA,NA,76.26459143968872
92316,San Bernardino County,CA,NA,48.476454293628805,NA,NA,NA
92335,San Bernardino County,CA,59.553349875930515,12.742382271468145,NA,NA,NA
92336,San Bernardino County,CA,16.62531017369727,NA,NA,NA,NA
92374,San Bernardino County,CA,NA,NA,43.170731707317074,NA,NA
92404,San Bernardino County,CA,NA,NA,80.85365853658537,NA,NA
92407,San Bernardino County,CA,NA,78.67036011080333,NA,NA,NA
92410,San Bernardino County,CA,NA,NA,83.78048780487805,NA,NA
92551,Riverside County,CA,NA,78.67036011080333,NA,NA,NA
92553,Riverside County,CA,NA,55.67867036011081,NA,NA,NA
92555,Riverside County,CA,NA,NA,58.536585365853654,NA,NA
92602,Orange County,CA,NA,NA,NA,NA,95.3307392996109
92614,Orange County,CA,NA,NA,81.70731707317073,NA,NA
92620,Orange County,CA,NA,NA,NA,41.84514003294893,NA
92646,Orange County,CA,NA,NA,NA,8.896210873146623,NA
92651,Orange County,CA,NA,NA,79.8780487804878,NA,NA
92656,Orange County,CA,93.30024813895783,NA,NA,NA,NA
92683,Orange County,CA,64.51612903225806,NA,NA,20.098846787479406,NA
92782,Orange County,CA,NA,NA,77.3170731707317,NA,NA
92821,Orange County,CA,52.357320099255574,NA,NA,NA,NA
92833,Orange County,CA,NA,NA,NA,28.665568369028005,NA
92835,Orange County,CA,NA,NA,NA,NA,59.53307392996109
92843,Orange County,CA,NA,43.76731301939058,NA,NA,NA
92860,Riverside County,CA,NA,NA,87.6829268292683,NA,NA
92867,Orange County,CA,68.98263027295285,NA,NA,NA,NA
92882,Riverside County,CA,NA,NA,30.853658536585364,NA,NA
93001,Ventura County,CA,NA,NA,73.41463414634146,NA,NA
93003,Ventura County,CA,NA,NA,17.682926829268293,NA,NA
93012,Ventura County,CA,NA,NA,NA,NA,30.739299610894943
93023,Ventura County,CA,NA,NA,NA,NA,57.19844357976653
93274,Tulare County,CA,NA,NA,6.585365853658537,NA,NA
93291,Tulare County,CA,NA,NA,NA,35.25535420098847,NA
93292,Tulare County,CA,NA,NA,71.09756097560975,NA,NA
93306,Kern County,CA,NA,40.99722991689751,NA,NA,NA
93307,Kern County,CA,NA,NA,16.097560975609756,NA,NA
93612,Fresno County,CA,NA,NA,NA,54.69522240527183,NA
93631,Fresno County,CA,NA,NA,NA,NA,81.71206225680933
93646,Fresno County,CA,NA,NA,97.5609756097561,NA,NA
93705,Fresno County,CA,NA,NA,NA,42.50411861614498,NA
93720,Fresno County,CA,NA,87.53462603878116,NA,NA,NA
93725,Fresno County,CA,NA,NA,NA,69.35749588138385,NA
93726,Fresno County,CA,NA,NA,NA,NA,84.04669260700389
93727,Fresno County,CA,NA,NA,NA,NA,38.52140077821012
93905,Monterey County,CA,NA,55.4016620498615,NA,NA,NA
93923,Monterey County,CA,NA,NA,94.39024390243902,NA,NA
93930,Monterey County,CA,NA,NA,72.4390243902439,NA,NA
93955,Monterey County,CA,NA,37.67313019390582,NA,NA,34.24124513618677
94002,San Mateo County,CA,NA,NA,NA,39.209225700164744,NA
94014,San Mateo County,CA,83.12655086848635,NA,NA,NA,NA
94015,San Mateo County,CA,NA,89.47368421052632,NA,NA,NA
94025,San Mateo County,CA,NA,NA,NA,NA,29.18287937743191
94040,Santa Clara County,CA,NA,NA,NA,NA,71.20622568093385
94063,San Mateo County,CA,NA,45.15235457063712,NA,NA,NA
94065,San Mateo County,CA,NA,NA,NA,NA,87.54863813229572
94080,San Mateo County,CA,NA,NA,NA,NA,4.280155642023346
94103,San Francisco County,CA,NA,NA,14.02439024390244,NA,NA
94112,San Francisco County,CA,NA,19.390581717451525,NA,NA,NA
94116,San Francisco County,CA,NA,NA,NA,NA,45.91439688715953
94131,San Francisco County,CA,NA,NA,NA,NA,60.311284046692606
94134,San Francisco County,CA,42.67990074441687,NA,NA,NA,31.906614785992215
94403,San Mateo County,CA,NA,99.16897506925207,NA,NA,NA
94502,Alameda County,CA,NA,NA,NA,92.7512355848435,NA
94513,Contra Costa County,CA,NA,NA,35.24390243902439,NA,NA
94531,Contra Costa County,CA,NA,NA,96.09756097560975,NA,NA
94547,Contra Costa County,CA,NA,NA,NA,68.86326194398681,NA
94565,Contra Costa County,CA,NA,NA,23.29268292682927,8.5667215815486,NA
94577,Alameda County,CA,NA,NA,37.80487804878049,NA,NA
94590,Solano County,CA,NA,NA,NA,NA,47.85992217898833
94597,Contra Costa County,CA,NA,NA,87.4390243902439,NA,NA
94599,Napa County,CA,NA,NA,NA,NA,67.31517509727627
94602,Alameda County,CA,96.7741935483871,NA,NA,NA,NA
94606,Alameda County,CA,NA,54.29362880886427,NA,NA,NA
94609,Alameda County,CA,91.3151364764268,NA,NA,NA,NA
94610,Alameda County,CA,NA,NA,NA,NA,42.023346303501945
94621,Alameda County,CA,NA,23.545706371191137,NA,NA,NA
94704,Alameda County,CA,NA,NA,NA,85.33772652388797,NA
94708,Alameda County,CA,NA,NA,NA,79.40691927512356,NA
94928,Sonoma County,CA,NA,NA,NA,42.50411861614498,NA
94947,Marin County,CA,85.60794044665012,NA,NA,NA,NA
94965,Marin County,CA,NA,NA,NA,72.9818780889621,NA
95003,Santa Cruz County,CA,NA,NA,NA,68.5337726523888,NA
95020,Santa Clara County,CA,NA,NA,33.78048780487805,NA,NA
95023,San Benito County,CA,NA,NA,NA,NA,50.19455252918288
95030,Santa Clara County,CA,NA,NA,NA,88.46787479406919,NA
95060,Santa Cruz County,CA,NA,NA,NA,44.97528830313015,NA
95070,Santa Clara County,CA,NA,NA,78.41463414634147,NA,NA
95123,Santa Clara County,CA,NA,NA,68.17073170731707,25.53542009884679,NA
95134,Santa Clara County,CA,NA,NA,90.2439024390244,NA,NA
95148,Santa Clara County,CA,NA,NA,NA,NA,60.70038910505836
95210,San Joaquin County,CA,NA,95.29085872576178,NA,NA,NA
95222,Calaveras County,CA,NA,NA,NA,95.55189456342669,NA
95301,Merced County,CA,NA,NA,NA,82.8665568369028,90.6614785992218
95327,Tuolumne County,CA,NA,NA,NA,52.22405271828665,NA
95350,Stanislaus County,CA,53.349875930521094,NA,NA,NA,NA
95351,Stanislaus County,CA,NA,NA,23.170731707317074,NA,NA
95355,Stanislaus County,CA,NA,NA,10,9.225700164744646,NA
95476,Sonoma County,CA,NA,NA,87.3170731707317,NA,NA
95482,Mendocino County,CA,29.776674937965257,NA,NA,NA,NA
95501,Humboldt County,CA,NA,NA,77.4390243902439,NA,NA
95621,Sacramento County,CA,NA,NA,88.65853658536585,NA,NA
95632,Sacramento County,CA,NA,NA,98.29268292682927,NA,NA
95667,El Dorado County,CA,NA,NA,NA,NA,2.7237354085603114
95673,Sacramento County,CA,96.02977667493796,NA,NA,NA,NA
95682,El Dorado County,CA,NA,NA,57.073170731707314,NA,NA
95747,Placer County,CA,NA,NA,NA,39.373970345963755,NA
95762,El Dorado County,CA,NA,NA,NA,35.42009884678748,NA
95776,Yolo County,CA,NA,NA,NA,NA,80.54474708171206
95817,Sacramento County,CA,NA,NA,NA,63.26194398682043,NA
95822,Sacramento County,CA,NA,NA,NA,42.00988467874794,NA
95823,Sacramento County,CA,NA,NA,13.902439024390246,NA,NA
95826,Sacramento County,CA,NA,NA,94.6341463414634,NA,NA
95833,Sacramento County,CA,NA,NA,NA,82.04283360790774,NA
95838,Sacramento County,CA,NA,NA,66.95121951219512,NA,NA
95842,Sacramento County,CA,NA,NA,NA,NA,80.1556420233463
95843,Sacramento County,CA,NA,75.06925207756233,NA,NA,NA
95969,Butte County,CA,NA,NA,NA,51.07084019769358,NA
95973,Butte County,CA,NA,47.091412742382275,NA,NA,56.809338521400775
96021,Tehama County,CA,NA,NA,NA,NA,63.035019455252915
80004,Jefferson County,CO,66.99751861042184,NA,NA,NA,NA
80005,Jefferson County,CO,NA,NA,NA,58.81383855024712,NA
80010,Arapahoe County,CO,NA,19.667590027700832,NA,42.998352553542006,NA
80011,Arapahoe County,CO,NA,NA,NA,NA,48.63813229571984
80013,Arapahoe County,CO,8.436724565756824,NA,NA,22.73476112026359,NA
80015,Arapahoe County,CO,NA,NA,65.97560975609757,NA,NA
80016,Arapahoe County,CO,NA,NA,NA,18.12191103789127,NA
80018,Arapahoe County,CO,NA,NA,73.78048780487805,NA,NA
80030,Adams County,CO,NA,NA,NA,93.41021416803954,NA
80033,Jefferson County,CO,65.01240694789082,NA,NA,NA,NA
80108,Douglas County,CO,61.78660049627791,NA,47.92682926829268,53.54200988467874,NA
80112,Arapahoe County,CO,44.41687344913151,NA,NA,NA,NA
80120,Arapahoe County,CO,NA,NA,90.85365853658537,NA,NA
80124,Douglas County,CO,NA,NA,63.29268292682927,NA,NA
80128,Jefferson County,CO,NA,NA,58.41463414634146,NA,NA
80204,Denver County,CO,NA,27.977839335180054,NA,NA,NA
80206,Denver County,CO,NA,NA,68.04878048780488,NA,NA
80209,Denver County,CO,NA,NA,NA,83.52553542009885,NA
80212,Denver County,CO,89.57816377171216,NA,NA,NA,NA
80216,Denver County,CO,NA,45.42936288088642,NA,NA,NA
80219,Denver County,CO,19.35483870967742,NA,5.487804878048781,NA,NA
80220,Denver County,CO,NA,69.80609418282549,NA,60.13179571663921,NA
80221,Adams County,CO,20.595533498759306,17.451523545706372,NA,NA,NA
80227,Jefferson County,CO,NA,NA,55.97560975609757,NA,NA
80229,Adams County,CO,NA,18.83656509695291,NA,41.02141680395387,NA
80230,Denver County,CO,NA,NA,NA,99.67051070840198,NA
80233,Adams County,CO,46.898263027295286,NA,NA,NA,NA
80235,Jefferson County,CO,NA,96.39889196675901,NA,NA,NA
80241,Adams County,CO,NA,68.97506925207756,NA,NA,NA
80260,Adams County,CO,NA,21.60664819944598,NA,NA,NA
80303,Boulder County,CO,NA,NA,NA,63.59143327841845,NA
80503,Boulder County,CO,NA,NA,NA,NA,49.0272373540856
80603,Weld County,CO,NA,NA,NA,85.17298187808896,NA
80634,Weld County,CO,NA,NA,2.682926829268293,NA,NA
80642,Weld County,CO,NA,NA,NA,99.01153212520593,NA
80751,Logan County,CO,NA,NA,NA,88.6326194398682,NA
80903,El Paso County,CO,NA,NA,38.29268292682927,NA,NA
80907,El Paso County,CO,NA,NA,96.58536585365853,NA,NA
80918,El Paso County,CO,NA,NA,NA,33.27841845140033,NA
81001,Pueblo County,CO,NA,69.52908587257618,NA,NA,NA
81050,Otero County,CO,NA,NA,72.07317073170731,NA,NA
81101,Alamosa County,CO,NA,NA,44.02439024390244,NA,NA
06001,Hartford County,CT,NA,NA,NA,63.426688632619445,NA
06037,Hartford County,CT,NA,NA,NA,53.212520593080725,NA
06040,Hartford County,CT,NA,NA,11.951219512195122,19.769357495881383,NA
06051,Hartford County,CT,60.545905707196034,57.340720221606645,NA,NA,NA
06053,Hartford County,CT,NA,NA,56.95121951219512,56.17792421746294,NA
06082,Hartford County,CT,NA,NA,NA,NA,14.785992217898833
06105,Hartford County,CT,NA,41.27423822714682,52.5609756097561,NA,NA
06110,Hartford County,CT,NA,88.9196675900277,NA,NA,NA
06112,Hartford County,CT,NA,NA,64.8780487804878,NA,NA
06118,Hartford County,CT,NA,68.14404432132964,NA,NA,NA
06120,Hartford County,CT,60.7940446650124,NA,NA,NA,NA
06248,Tolland County,CT,NA,NA,NA,99.34102141680395,NA
06403,New Haven County,CT,NA,NA,NA,93.24546952224053,NA
06405,New Haven County,CT,75.18610421836229,NA,NA,NA,NA
06415,New London County,CT,NA,NA,52.4390243902439,NA,74.31906614785993
06443,New Haven County,CT,74.44168734491315,NA,NA,NA,NA
06450,New Haven County,CT,NA,NA,6.341463414634147,13.509060955518946,NA
06451,New Haven County,CT,NA,NA,26.463414634146343,NA,NA
06469,Middlesex County,CT,NA,NA,NA,99.835255354201,NA
06478,New Haven County,CT,NA,NA,89.8780487804878,NA,NA
06511,New Haven County,CT,NA,26.59279778393352,NA,NA,NA
06512,New Haven County,CT,NA,31.855955678670362,NA,NA,NA
06515,New Haven County,CT,NA,NA,NA,87.3146622734761,NA
06516,New Haven County,CT,NA,39.05817174515235,NA,NA,45.13618677042802
06519,New Haven County,CT,NA,17.72853185595568,55.243902439024396,NA,NA
06605,Fairfield County,CT,85.60794044665012,NA,NA,NA,NA
06606,Fairfield County,CT,NA,NA,NA,31.960461285008236,NA
06608,Fairfield County,CT,NA,36.84210526315789,NA,NA,NA
06614,Fairfield County,CT,NA,NA,80,NA,NA
06705,New Haven County,CT,NA,36.011080332409975,24.268292682926827,NA,NA
06708,New Haven County,CT,36.72456575682382,NA,NA,NA,NA
06787,Litchfield County,CT,NA,NA,NA,72.32289950576606,NA
06790,Litchfield County,CT,NA,NA,6.463414634146342,NA,NA
06902,Fairfield County,CT,NA,NA,NA,11.86161449752883,NA
19703,New Castle County,DE,94.54094292803971,NA,NA,NA,NA
19720,New Castle County,DE,NA,NA,3.1707317073170733,NA,NA
19734,New Castle County,DE,NA,NA,NA,74.79406919275124,NA
19801,New Castle County,DE,NA,43.76731301939058,NA,NA,NA
19802,New Castle County,DE,NA,NA,NA,NA,54.474708171206224
19804,New Castle County,DE,NA,NA,NA,NA,85.21400778210116
19904,Kent County,DE,NA,NA,15.853658536585366,NA,NA
19946,Kent County,DE,94.29280397022333,NA,NA,NA,NA
19962,Kent County,DE,NA,NA,73.17073170731707,NA,NA
19963,Sussex County,DE,NA,NA,36.09756097560975,NA,NA
19966,Sussex County,DE,NA,NA,25.121951219512194,9.390444810543658,NA
19973,Sussex County,DE,NA,NA,NA,20.757825370675455,NA
32043,Clay County,FL,NA,NA,NA,21.4168039538715,NA
32081,St. Johns County,FL,NA,NA,NA,NA,75.4863813229572
32086,St. Johns County,FL,NA,NA,NA,18.780889621087315,NA
32114,Volusia County,FL,NA,NA,24.390243902439025,NA,NA
32134,Marion County,FL,NA,70.91412742382272,NA,NA,NA
32207,Duval County,FL,NA,NA,NA,11.696869851729819,NA
32210,Duval County,FL,NA,NA,22.804878048780488,NA,NA
32216,Duval County,FL,26.550868486352357,NA,NA,NA,NA
32218,Duval County,FL,NA,NA,22.073170731707318,23.393739703459637,NA
32221,Duval County,FL,55.08684863523573,NA,NA,NA,44.74708171206226
32244,Duval County,FL,NA,NA,NA,NA,72.76264591439688
32257,Duval County,FL,NA,NA,NA,23.064250411861615,NA
32405,Bay County,FL,NA,NA,NA,NA,19.844357976653697
32444,Bay County,FL,NA,NA,NA,55.51894563426688,NA
32504,Escambia County,FL,NA,NA,NA,NA,24.124513618677042
32506,Escambia County,FL,NA,NA,NA,17.462932454695224,NA
32571,Santa Rosa County,FL,NA,NA,78.78048780487805,NA,NA
32701,Seminole County,FL,NA,NA,54.024390243902445,NA,NA
32771,Seminole County,FL,NA,NA,18.658536585365855,NA,NA
32825,Orange County,FL,NA,NA,32.926829268292686,NA,NA
32837,Orange County,FL,NA,NA,NA,45.14003294892916,NA
32953,Brevard County,FL,NA,NA,80.73170731707317,NA,NA
33010,Miami-Dade County,FL,NA,27.70083102493075,64.39024390243902,NA,NA
33012,Miami-Dade County,FL,NA,NA,NA,NA,6.614785992217899
33013,Miami-Dade County,FL,NA,NA,70.36585365853658,NA,NA
33016,Miami-Dade County,FL,NA,23.545706371191137,NA,NA,NA
33023,Broward County,FL,NA,14.127423822714682,NA,NA,NA
33030,Miami-Dade County,FL,NA,29.6398891966759,NA,NA,NA
33032,Miami-Dade County,FL,45.6575682382134,NA,NA,NA,NA
33033,Miami-Dade County,FL,NA,NA,71.95121951219512,NA,NA
33068,Broward County,FL,NA,NA,NA,48.270181219110384,NA
33076,Broward County,FL,NA,NA,NA,NA,85.99221789883269
33127,Miami-Dade County,FL,95.03722084367246,NA,NA,NA,NA
33139,Miami-Dade County,FL,NA,NA,NA,74.62932454695222,NA
33162,Miami-Dade County,FL,NA,NA,NA,NA,51.75097276264592
33167,Miami-Dade County,FL,NA,NA,NA,65.23887973640856,NA
33169,Miami-Dade County,FL,36.72456575682382,NA,NA,NA,NA
33178,Miami-Dade County,FL,NA,NA,NA,NA,69.64980544747081
33185,Miami-Dade County,FL,NA,NA,NA,NA,72.37354085603113
33308,Broward County,FL,NA,NA,NA,45.799011532125206,NA
33436,Palm Beach County,FL,NA,NA,54.75609756097561,NA,NA
33458,Palm Beach County,FL,NA,NA,25.853658536585368,NA,NA
33543,Pasco County,FL,NA,NA,54.390243902439025,NA,NA
33572,Hillsborough County,FL,NA,NA,79.14634146341464,NA,NA
33604,Hillsborough County,FL,41.43920595533499,NA,NA,NA,NA
33610,Hillsborough County,FL,NA,NA,NA,66.88632619439868,NA
33616,Hillsborough County,FL,NA,NA,86.58536585365853,NA,NA
33617,Hillsborough County,FL,NA,NA,34.63414634146341,NA,NA
33760,Pinellas County,FL,NA,97.78393351800554,NA,NA,NA
33809,Polk County,FL,NA,NA,47.68292682926829,NA,NA
33897,Polk County,FL,NA,NA,72.4390243902439,NA,NA
33904,Lee County,FL,NA,NA,39.51219512195122,NA,NA
33907,Lee County,FL,NA,NA,NA,63.92092257001647,NA
33908,Lee County,FL,NA,NA,NA,6.589785831960461,NA
33947,Charlotte County,FL,NA,NA,NA,72.15815485996706,NA
33954,Charlotte County,FL,NA,NA,NA,83.85502471169687,NA
34105,Collier County,FL,NA,NA,NA,NA,47.47081712062256
34239,Sarasota County,FL,NA,NA,NA,NA,49.416342412451364
34240,Sarasota County,FL,NA,NA,86.09756097560975,NA,NA
34428,Citrus County,FL,NA,NA,NA,77.1004942339374,NA
34442,Citrus County,FL,NA,NA,91.95121951219512,NA,NA
34448,Citrus County,FL,NA,NA,NA,87.97364085667215,NA
34488,Marion County,FL,NA,92.5207756232687,NA,NA,NA
34608,Hernando County,FL,NA,62.04986149584487,NA,NA,NA
34609,Hernando County,FL,NA,NA,NA,NA,24.5136186770428
34669,Pasco County,FL,NA,NA,90,NA,NA
34691,Pasco County,FL,NA,NA,44.87804878048781,NA,NA
34957,Martin County,FL,NA,NA,NA,NA,18.67704280155642
34984,St. Lucie County,FL,NA,NA,53.04878048780488,NA,NA
30030,DeKalb County,GA,NA,86.42659279778393,NA,NA,NA
30046,Gwinnett County,GA,NA,NA,46.82926829268293,NA,NA
30052,Walton County,GA,35.98014888337469,NA,NA,NA,NA
30058,DeKalb County,GA,NA,NA,51.829268292682926,27.01812191103789,NA
30060,Cobb County,GA,NA,NA,NA,NA,64.59143968871595
30064,Cobb County,GA,76.1786600496278,NA,NA,NA,NA
30076,Fulton County,GA,NA,NA,NA,NA,65.36964980544747
30083,DeKalb County,GA,NA,NA,NA,30.477759472817134,NA
30096,Gwinnett County,GA,28.287841191067,NA,NA,NA,NA
30126,Cobb County,GA,NA,NA,44.146341463414636,NA,NA
30143,Pickens County,GA,NA,NA,NA,33.93739703459638,NA
30187,Douglas County,GA,NA,NA,NA,76.93574958813838,NA
30188,Cherokee County,GA,41.935483870967744,NA,NA,NA,NA
30224,Spalding County,GA,72.7047146401985,70.3601108033241,NA,NA,NA
30240,Troup County,GA,NA,NA,58.17073170731707,NA,NA
30281,Henry County,GA,NA,NA,28.17073170731707,NA,NA
30294,DeKalb County,GA,NA,NA,71.70731707317073,NA,NA
30310,Fulton County,GA,NA,50.69252077562327,NA,NA,NA
30311,Fulton County,GA,NA,NA,83.17073170731707,NA,NA
30312,Fulton County,GA,NA,NA,59.02439024390244,NA,NA
30315,Fulton County,GA,NA,30.747922437673132,NA,NA,NA
30318,Fulton County,GA,79.90074441687345,NA,NA,NA,NA
30331,Fulton County,GA,NA,NA,19.75609756097561,NA,NA
30339,Cobb County,GA,NA,NA,NA,75.28830313014826,NA
30345,DeKalb County,GA,NA,83.93351800554017,NA,NA,NA
30349,Fulton County,GA,NA,29.916897506925206,9.268292682926829,12.355848434925864,NA
30354,Fulton County,GA,NA,NA,95,NA,NA
30417,Evans County,GA,NA,NA,78.53658536585367,NA,NA
30458,Bulloch County,GA,NA,53.73961218836565,NA,NA,NA
30540,Gilmer County,GA,60.7940446650124,NA,NA,NA,NA
30557,Stephens County,GA,NA,94.18282548476455,NA,NA,NA
30752,Dade County,GA,NA,NA,59.14634146341463,NA,NA
30755,Whitfield County,GA,NA,NA,90.60975609756098,NA,NA
30815,Richmond County,GA,NA,NA,69.51219512195121,NA,NA
30907,Columbia County,GA,34.24317617866005,NA,NA,11.367380560131796,NA
31069,Houston County,GA,NA,71.46814404432132,NA,NA,NA
31206,Bibb County,GA,58.06451612903226,NA,NA,NA,NA
31313,Liberty County,GA,NA,NA,63.29268292682927,NA,NA
31324,Bryan County,GA,NA,NA,NA,97.85831960461286,NA
31419,Chatham County,GA,NA,NA,NA,NA,49.80544747081712
31525,Glynn County,GA,NA,NA,76.70731707317073,NA,NA
31545,Wayne County,GA,NA,NA,71.21951219512195,47.77594728171334,NA
31601,Lowndes County,GA,NA,NA,27.31707317073171,NA,NA
31792,Thomas County,GA,NA,NA,NA,31.466227347611202,NA
31793,Tift County,GA,NA,NA,65.1219512195122,NA,NA
31906,Muscogee County,GA,NA,NA,41.58536585365854,NA,NA
31907,Muscogee County,GA,NA,NA,9.512195121951219,4.448105436573312,NA
96707,Honolulu County,HI,NA,NA,37.073170731707314,29.32454695222405,NA
96734,Honolulu County,HI,NA,NA,NA,11.532125205930807,NA
96744,Honolulu County,HI,NA,NA,NA,NA,5.447470817120623
96750,Hawaii County,HI,NA,NA,NA,88.96210873146623,NA
96786,Honolulu County,HI,NA,NA,34.390243902439025,NA,NA
96797,Honolulu County,HI,NA,NA,NA,49.75288303130148,NA
96819,Honolulu County,HI,NA,29.362880886426595,NA,NA,NA
96826,Honolulu County,HI,NA,NA,42.926829268292686,NA,NA
83221,Bingham County,ID,NA,NA,NA,NA,50.583657587548636
83301,Twin Falls County,ID,NA,8.310249307479225,NA,NA,NA
83401,Bonneville County,ID,NA,NA,NA,68.36902800658979,NA
83406,Bonneville County,ID,NA,NA,83.65853658536585,NA,NA
83440,Madison County,ID,NA,NA,69.39024390243902,NA,NA
83605,Canyon County,ID,NA,NA,29.39024390243902,NA,NA
83634,Ada County,ID,NA,NA,NA,NA,63.42412451361867
83638,Valley County,ID,98.51116625310173,NA,NA,NA,NA
83702,Ada County,ID,NA,NA,90.97560975609757,NA,NA
83706,Ada County,ID,NA,NA,NA,52.71828665568369,NA
83713,Ada County,ID,NA,NA,37.68292682926829,NA,NA
60014,McHenry County,IL,NA,NA,NA,15.32125205930807,NA
60022,Cook County,IL,NA,NA,95.48780487804878,NA,NA
60031,Lake County,IL,NA,NA,47.19512195121951,NA,NA
60035,Lake County,IL,NA,NA,NA,NA,86.38132295719845
60046,Lake County,IL,NA,NA,NA,23.72322899505766,NA
60047,Lake County,IL,NA,NA,38.41463414634146,NA,NA
60060,Lake County,IL,NA,NA,75,NA,NA
60062,Cook County,IL,NA,NA,NA,6.260296540362438,NA
60070,Cook County,IL,NA,NA,NA,70.0164744645799,NA
60074,Cook County,IL,NA,NA,NA,66.06260296540363,NA
60076,Cook County,IL,NA,NA,44.75609756097561,NA,NA
60087,Lake County,IL,NA,NA,NA,66.22734761120263,NA
60091,Cook County,IL,NA,NA,NA,22.075782537067546,16.342412451361866
60101,DuPage County,IL,50.37220843672456,NA,29.878048780487802,NA,NA
60103,DuPage County,IL,NA,NA,NA,54.53047775947282,43.190661478599225
60108,DuPage County,IL,NA,NA,NA,25.86490939044481,NA
60142,McHenry County,IL,NA,NA,42.68292682926829,NA,NA
60148,DuPage County,IL,64.01985111662532,NA,NA,NA,NA
60153,Cook County,IL,NA,NA,40.36585365853659,NA,NA
60177,Kane County,IL,NA,NA,NA,49.42339373970346,NA
60181,DuPage County,IL,NA,NA,NA,28.995057660626028,NA
60185,DuPage County,IL,14.640198511166252,NA,NA,NA,NA
60187,DuPage County,IL,NA,NA,39.02439024390244,NA,NA
60189,DuPage County,IL,NA,NA,36.829268292682926,NA,NA
60191,DuPage County,IL,NA,NA,NA,47.44645799011532,NA
60201,Cook County,IL,NA,NA,NA,NA,10.116731517509727
60302,Cook County,IL,NA,NA,34.63414634146341,NA,NA
60402,Cook County,IL,NA,NA,NA,10.049423393739703,NA
60404,Will County,IL,NA,NA,NA,40.85667215815486,NA
60411,Cook County,IL,NA,NA,42.4390243902439,NA,NA
60426,Cook County,IL,70.96774193548387,NA,NA,NA,NA
60442,Will County,IL,69.4789081885856,NA,NA,NA,NA
60445,Cook County,IL,NA,89.19667590027701,NA,NA,NA
60451,Will County,IL,43.424317617866,NA,NA,NA,NA
60457,Cook County,IL,NA,NA,NA,62.43822075782537,NA
60461,Cook County,IL,NA,NA,NA,NA,92.21789883268482
60502,DuPage County,IL,NA,NA,51.34146341463415,NA,NA
60513,Cook County,IL,NA,NA,71.34146341463415,NA,NA
60516,DuPage County,IL,81.88585607940446,NA,NA,28.00658978583196,NA
60517,DuPage County,IL,NA,NA,40.731707317073166,NA,NA
60532,DuPage County,IL,NA,NA,NA,NA,46.30350194552529
60538,Kendall County,IL,NA,NA,NA,NA,66.9260700389105
60540,DuPage County,IL,21.588089330024815,NA,60.609756097560975,NA,NA
60541,Kendall County,IL,75.18610421836229,NA,NA,NA,NA
60546,Cook County,IL,NA,NA,NA,88.13838550247117,NA
60555,DuPage County,IL,NA,NA,69.26829268292683,NA,NA
60607,Cook County,IL,NA,NA,NA,NA,74.70817120622569
60609,Cook County,IL,NA,70.91412742382272,NA,NA,NA
60615,Cook County,IL,70.47146401985111,NA,NA,NA,NA
60618,Cook County,IL,NA,NA,NA,NA,21.40077821011673
60622,Cook County,IL,81.14143920595534,NA,NA,NA,NA
60623,Cook County,IL,NA,NA,NA,12.850082372322898,NA
60629,Cook County,IL,NA,NA,NA,25.04118616144975,NA
60630,Cook County,IL,NA,NA,NA,14.00329489291598,NA
60634,Cook County,IL,13.399503722084367,NA,NA,9.060955518945635,NA
60638,Cook County,IL,NA,NA,NA,NA,8.171206225680933
60639,Cook County,IL,NA,NA,36.46341463414634,NA,NA
60640,Cook County,IL,NA,NA,NA,8.072487644151565,NA
60641,Cook County,IL,NA,NA,NA,16.14497528830313,NA
60643,Cook County,IL,78.90818858560795,NA,10.24390243902439,NA,NA
60644,Cook County,IL,NA,NA,NA,14.168039538714991,NA
60645,Cook County,IL,NA,NA,67.19512195121952,NA,NA
60647,Cook County,IL,17.3697270471464,NA,NA,NA,NA
60649,Cook County,IL,NA,NA,NA,37.23228995057661,NA
60651,Cook County,IL,NA,NA,33.65853658536586,NA,NA
60653,Cook County,IL,72.45657568238212,NA,NA,NA,NA
60655,Cook County,IL,NA,NA,NA,29.818780889621088,NA
60707,Cook County,IL,NA,NA,NA,10.543657331136739,NA
60827,Cook County,IL,NA,NA,NA,NA,87.15953307392996
60901,Kankakee County,IL,NA,NA,97.4390243902439,14.827018121911037,NA
60915,Kankakee County,IL,NA,NA,82.3170731707317,55.35420098846787,NA
61065,Boone County,IL,NA,NA,NA,71.99341021416804,NA
61101,Winnebago County,IL,NA,NA,46.707317073170735,NA,NA
61109,Winnebago County,IL,NA,NA,45.24390243902439,NA,NA
61115,Winnebago County,IL,69.97518610421837,NA,NA,NA,NA
61244,Rock Island County,IL,NA,NA,NA,NA,91.82879377431907
61530,Woodford County,IL,NA,NA,95.97560975609755,NA,NA
61802,Champaign County,IL,NA,NA,NA,62.108731466227354,NA
61821,Champaign County,IL,NA,NA,NA,NA,13.618677042801556
61832,Vermilion County,IL,NA,NA,12.195121951219512,NA,NA
62035,Madison County,IL,NA,NA,86.34146341463415,NA,NA
62521,Macon County,IL,NA,NA,15,NA,NA
62549,Macon County,IL,NA,NA,NA,77.75947281713344,NA
62702,Sangamon County,IL,64.26799007444168,NA,NA,NA,NA
46016,Madison County,IN,NA,NA,16.951219512195124,NA,NA
46113,Marion County,IN,NA,NA,NA,NA,86.7704280155642
46123,Hendricks County,IN,45.40942928039702,NA,NA,NA,NA
46227,Marion County,IN,18.610421836228287,NA,NA,NA,NA
46254,Marion County,IN,14.392059553349876,NA,NA,NA,NA
46311,Lake County,IN,31.5136476426799,NA,NA,NA,NA
46341,Porter County,IN,58.80893300248139,NA,NA,NA,NA
46342,Lake County,IN,13.895781637717123,NA,NA,NA,NA
46360,LaPorte County,IN,1.9851116625310175,NA,NA,NA,NA
46368,Porter County,IN,NA,NA,2.9268292682926833,NA,NA
46383,Porter County,IN,NA,NA,8.658536585365853,NA,NA
46385,Porter County,IN,NA,NA,8.414634146341465,NA,NA
46404,Lake County,IN,81.88585607940446,NA,NA,NA,NA
46501,Marshall County,IN,NA,NA,87.92682926829268,NA,NA
46628,St. Joseph County,IN,NA,NA,48.292682926829265,NA,NA
46808,Allen County,IN,NA,NA,63.65853658536585,55.84843492586491,NA
46845,Allen County,IN,84.11910669975185,NA,57.68292682926829,NA,NA
46970,Miami County,IN,NA,NA,11.707317073170733,NA,NA
46975,Fulton County,IN,NA,NA,50.24390243902439,NA,NA
47303,Delaware County,IN,NA,NA,NA,NA,66.53696498054474
47331,Fayette County,IN,39.20595533498759,NA,NA,NA,10.894941634241246
47374,Wayne County,IN,NA,NA,5.121951219512195,NA,NA
47460,Owen County,IN,NA,98.06094182825484,NA,NA,NA
47586,Perry County,IN,NA,NA,NA,65.7331136738056,NA
47714,Vanderburgh County,IN,14.888337468982629,NA,NA,NA,NA
47842,Vermillion County,IN,NA,NA,NA,64.08566721581549,NA
50208,Jasper County,IA,NA,NA,NA,61.28500823723228,NA
50313,Polk County,IA,NA,NA,98.78048780487805,NA,NA
50317,Polk County,IA,NA,NA,13.292682926829269,NA,NA
50322,Polk County,IA,NA,NA,61.09756097560975,NA,NA
50401,Cerro Gordo County,IA,NA,NA,13.536585365853659,38.87973640856672,NA
50595,Hamilton County,IA,NA,NA,NA,92.58649093904448,NA
50613,Black Hawk County,IA,NA,NA,48.65853658536585,NA,NA
50701,Black Hawk County,IA,NA,NA,34.268292682926834,NA,NA
51103,Woodbury County,IA,NA,NA,47.4390243902439,NA,NA
51104,Woodbury County,IA,62.28287841191067,NA,NA,NA,NA
51106,Woodbury County,IA,NA,NA,NA,93.57495881383855,NA
51108,Woodbury County,IA,71.712158808933,NA,NA,NA,NA
51537,Shelby County,IA,NA,NA,NA,NA,51.36186770428015
52205,Jones County,IA,NA,NA,95.73170731707317,NA,NA
52246,Johnson County,IA,NA,NA,NA,83.52553542009885,NA
52403,Linn County,IA,NA,NA,43.048780487804876,NA,NA
52655,Des Moines County,IA,NA,NA,NA,76.27677100494233,NA
52742,Clinton County,IA,NA,NA,NA,83.03130148270182,NA
52806,Scott County,IA,NA,NA,NA,34.596375617792425,NA
66030,Johnson County,KS,NA,NA,92.4390243902439,NA,NA
66032,Anderson County,KS,NA,NA,90.73170731707317,NA,NA
66048,Leavenworth County,KS,NA,NA,33.170731707317074,NA,NA
66064,Miami County,KS,NA,NA,NA,NA,88.32684824902724
66085,Johnson County,KS,NA,NA,93.78048780487805,NA,NA
66104,Wyandotte County,KS,NA,85.0415512465374,NA,NA,NA
66109,Wyandotte County,KS,NA,NA,NA,45.96375617792422,NA
66209,Johnson County,KS,NA,NA,NA,42.33937397034596,NA
66215,Johnson County,KS,30.272952853598017,NA,NA,69.8517298187809,NA
66502,Riley County,KS,NA,NA,72.6829268292683,NA,NA
66611,Shawnee County,KS,NA,NA,NA,75.12355848434926,NA
66614,Shawnee County,KS,NA,NA,NA,19.604612850082372,NA
67301,Montgomery County,KS,NA,NA,NA,68.69851729818781,NA
67439,Ellsworth County,KS,NA,NA,NA,96.21087314662273,NA
40213,Jefferson County,KY,37.468982630272954,NA,NA,NA,NA
40215,Jefferson County,KY,5.459057071960298,NA,21.21951219512195,NA,NA
40216,Jefferson County,KY,NA,NA,10.731707317073171,NA,NA
40218,Jefferson County,KY,NA,NA,NA,37.72652388797364,NA
40229,Jefferson County,KY,NA,NA,13.78048780487805,NA,NA
40353,Montgomery County,KY,NA,NA,NA,28.83031301482702,NA
40383,Woodford County,KY,NA,NA,71.82926829268293,NA,NA
40475,Madison County,KY,56.575682382134,NA,NA,NA,NA
40502,Fayette County,KY,65.75682382133995,NA,NA,NA,NA
40515,Fayette County,KY,NA,NA,NA,48.105436573311366,NA
40701,Whitley County,KY,NA,NA,NA,NA,28.01556420233463
40741,Laurel County,KY,NA,NA,23.536585365853657,NA,NA
41042,Boone County,KY,NA,NA,27.195121951219512,NA,NA
41071,Campbell County,KY,NA,60.11080332409973,NA,NA,NA
41101,Boyd County,KY,NA,NA,75.2439024390244,NA,NA
41164,Carter County,KY,NA,NA,NA,64.57990115321252,NA
41224,Martin County,KY,NA,NA,76.82926829268293,NA,NA
42101,Warren County,KY,NA,NA,7.439024390243902,NA,NA
42348,Hancock County,KY,NA,NA,92.31707317073172,NA,NA
42718,Taylor County,KY,NA,NA,14.146341463414632,NA,NA
42728,Adair County,KY,NA,NA,NA,41.18616144975288,NA
70001,Jefferson Parish,LA,NA,64.26592797783933,NA,10.214168039538714,NA
70003,Jefferson Parish,LA,3.4739454094292808,NA,NA,NA,NA
70043,St. Bernard Parish,LA,NA,27.146814404432135,NA,NA,NA
70058,Jefferson Parish,LA,NA,19.94459833795014,NA,NA,NA
70065,Jefferson Parish,LA,NA,NA,4.390243902439024,NA,5.058365758754864
70068,St. John the Baptist Parish,LA,5.955334987593052,NA,NA,NA,NA
70072,Jefferson Parish,LA,0,NA,NA,NA,NA
70075,St. Bernard Parish,LA,NA,87.25761772853186,NA,NA,NA
70083,Plaquemines Parish,LA,NA,NA,97.6829268292683,NA,NA
70087,St. Charles Parish,LA,90.57071960297766,NA,75.97560975609755,NA,NA
70094,Jefferson Parish,LA,NA,35.73407202216066,NA,NA,NA
70113,Orleans Parish,LA,NA,NA,82.68292682926828,NA,NA
70114,Orleans Parish,LA,NA,24.930747922437675,NA,NA,NA
70116,Orleans Parish,LA,NA,NA,48.536585365853654,NA,NA
70117,Orleans Parish,LA,NA,NA,4.878048780487805,NA,NA
70119,Orleans Parish,LA,NA,19.113573407202217,NA,7.742998352553541,NA
70122,Orleans Parish,LA,NA,47.92243767313019,43.90243902439025,NA,NA
70123,Jefferson Parish,LA,NA,NA,20.975609756097562,NA,12.062256809338521
70125,Orleans Parish,LA,NA,NA,NA,87.1499176276771,NA
70127,Orleans Parish,LA,NA,NA,NA,28.336079077429982,NA
70301,Lafourche Parish,LA,26.302729528535977,NA,NA,NA,NA
70344,Terrebonne Parish,LA,NA,39.88919667590028,NA,NA,NA
70346,Ascension Parish,LA,25.55831265508685,NA,NA,NA,NA
70360,Terrebonne Parish,LA,NA,53.18559556786704,NA,NA,NA
70403,Tangipahoa Parish,LA,11.166253101736972,NA,NA,NA,NA
70433,St. Tammany Parish,LA,NA,NA,NA,NA,7.392996108949417
70438,Washington Parish,LA,24.56575682382134,NA,NA,NA,NA
70444,Tangipahoa Parish,LA,NA,NA,93.41463414634147,NA,NA
70448,St. Tammany Parish,LA,NA,NA,NA,27.51235584843493,NA
70458,St. Tammany Parish,LA,NA,NA,NA,NA,12.840466926070038
70466,Tangipahoa Parish,LA,NA,NA,94.26829268292683,NA,NA
70508,Lafayette Parish,LA,NA,NA,17.4390243902439,NA,NA
70512,St. Landry Parish,LA,NA,NA,NA,NA,83.26848249027238
70520,Lafayette Parish,LA,NA,8.587257617728532,NA,NA,NA
70546,Jefferson Davis Parish,LA,NA,NA,30.609756097560975,NA,NA
70548,Vermilion Parish,LA,NA,NA,NA,71.16968698517299,NA
70555,Vermilion Parish,LA,NA,NA,81.58536585365853,NA,NA
70582,St. Martin Parish,LA,NA,53.46260387811634,31.70731707317073,NA,NA
70591,Jefferson Davis Parish,LA,NA,NA,81.46341463414633,NA,NA
70601,Calcasieu Parish,LA,NA,NA,70.85365853658536,NA,NA
70634,Beauregard Parish,LA,NA,NA,NA,NA,39.29961089494164
70737,Ascension Parish,LA,2.977667493796526,NA,NA,NA,NA
70814,East Baton Rouge Parish,LA,NA,NA,92.8048780487805,NA,NA
71107,Caddo Parish,LA,NA,64.81994459833795,NA,NA,NA
71109,Caddo Parish,LA,NA,75.62326869806094,NA,NA,NA
71118,Caddo Parish,LA,NA,NA,51.951219512195124,NA,NA
71201,Ouachita Parish,LA,NA,NA,NA,NA,61.86770428015564
71234,Union Parish,LA,NA,NA,NA,99.50576606260296,NA
71270,Lincoln Parish,LA,NA,98.89196675900277,NA,NA,NA
71291,Ouachita Parish,LA,NA,NA,38.048780487804876,NA,NA
71360,Rapides Parish,LA,NA,NA,13.170731707317074,NA,NA
71457,Natchitoches Parish,LA,NA,61.772853185595565,NA,NA,NA
04002,York County,ME,NA,NA,73.65853658536585,NA,NA
04064,York County,ME,NA,NA,NA,NA,70.42801556420234
04071,Cumberland County,ME,NA,NA,NA,NA,99.22178988326849
04092,Cumberland County,ME,NA,NA,NA,26.02965403624382,NA
04101,Cumberland County,ME,NA,80.88642659279779,NA,54.85996705107083,NA
04102,Cumberland County,ME,22.084367245657567,NA,NA,NA,NA
04103,Cumberland County,ME,NA,NA,NA,22.40527182866557,NA
04106,Cumberland County,ME,NA,NA,36.34146341463415,33.113673805601316,NA
04236,Androscoggin County,ME,NA,NA,96.95121951219512,NA,NA
04240,Androscoggin County,ME,NA,NA,NA,NA,3.11284046692607
04260,Cumberland County,ME,NA,98.06094182825484,NA,NA,NA
04274,Androscoggin County,ME,NA,NA,89.75609756097562,NA,NA
04330,Kennebec County,ME,22.58064516129032,NA,NA,NA,NA
04401,Penobscot County,ME,NA,NA,NA,2.3064250411861615,NA
04462,Penobscot County,ME,NA,NA,81.95121951219512,NA,NA
04605,Hancock County,ME,NA,NA,44.51219512195122,NA,NA
04841,Knox County,ME,54.09429280397022,NA,NA,NA,NA
04901,Kennebec County,ME,NA,16.343490304709142,NA,NA,NA
04950,Somerset County,ME,62.531017369727046,NA,NA,NA,NA
20601,Charles County,MD,78.16377171215882,NA,NA,NA,NA
20744,Prince George's County,MD,NA,NA,NA,37.39703459637562,NA
20747,Prince George's County,MD,86.848635235732,NA,NA,NA,NA
20815,Montgomery County,MD,NA,NA,NA,NA,41.245136186770424
20906,Montgomery County,MD,74.19354838709677,NA,NA,NA,NA
21001,Harford County,MD,91.56327543424318,NA,NA,NA,NA
21042,Howard County,MD,41.19106699751861,NA,NA,NA,NA
21061,Anne Arundel County,MD,NA,NA,11.585365853658537,NA,NA
21117,Baltimore County,MD,NA,NA,31.829268292682926,NA,NA
21202,Baltimore city,MD,77.66749379652606,NA,NA,NA,NA
21206,Baltimore city,MD,NA,NA,NA,59.80230642504119,NA
21207,Baltimore County,MD,NA,NA,NA,23.228995057660626,NA
21209,Baltimore County,MD,38.46153846153847,NA,61.34146341463415,NA,NA
21212,Baltimore city,MD,47.39454094292804,NA,NA,NA,NA
21213,Baltimore city,MD,NA,NA,21.585365853658537,NA,NA
21215,Baltimore city,MD,NA,NA,NA,9.884678747940692,NA
21220,Baltimore County,MD,22.084367245657567,NA,66.21951219512195,NA,NA
21230,Baltimore city,MD,NA,NA,NA,NA,71.59533073929961
21237,Baltimore County,MD,NA,NA,78.04878048780488,NA,NA
21784,Carroll County,MD,34.98759305210918,NA,NA,NA,NA
21794,Howard County,MD,NA,NA,99.51219512195122,NA,NA
21811,Worcester County,MD,NA,NA,NA,24.71169686985173,NA
01013,Hampden County,MA,38.70967741935484,NA,65.48780487804878,NA,NA
01020,Hampden County,MA,NA,NA,22.926829268292686,91.76276771004942,NA
01040,Hampden County,MA,NA,NA,6.097560975609756,57.990115321252055,NA
01107,Hampden County,MA,NA,NA,6.829268292682928,NA,75.87548638132296
01118,Hampden County,MA,NA,NA,NA,51.894563426688634,NA
01129,Hampden County,MA,NA,NA,NA,79.07742998352553,NA
01201,Berkshire County,MA,NA,NA,1.2195121951219512,0.16474464579901155,NA
01226,Berkshire County,MA,93.05210918114145,NA,74.63414634146342,NA,NA
01240,Berkshire County,MA,NA,NA,NA,NA,54.08560311284047
01364,Franklin County,MA,NA,NA,46.09756097560976,NA,NA
01420,Worcester County,MA,NA,NA,NA,3.459637561779242,NA
01460,Middlesex County,MA,NA,NA,41.34146341463414,96.04612850082373,NA
01520,Worcester County,MA,NA,NA,72.3170731707317,NA,NA
01523,Worcester County,MA,NA,NA,NA,47.28171334431631,NA
01569,Worcester County,MA,43.920595533498755,NA,NA,77.1004942339374,NA
01570,Worcester County,MA,NA,NA,52.6829268292683,NA,NA
01604,Worcester County,MA,NA,NA,94.7560975609756,NA,NA
01605,Worcester County,MA,NA,7.756232686980609,NA,NA,NA
01607,Worcester County,MA,NA,49.584487534626035,60.36585365853659,NA,NA
01608,Worcester County,MA,NA,78.39335180055402,92.92682926829269,NA,NA
01609,Worcester County,MA,27.543424317617866,NA,NA,NA,NA
01610,Worcester County,MA,NA,NA,0.853658536585366,NA,NA
01701,Middlesex County,MA,NA,83.65650969529086,NA,7.57825370675453,NA
01702,Middlesex County,MA,NA,NA,1.3414634146341464,NA,NA
01730,Middlesex County,MA,NA,NA,83.29268292682926,NA,NA
01803,Middlesex County,MA,NA,NA,NA,58.97858319604613,NA
01821,Middlesex County,MA,NA,NA,NA,2.6359143327841847,NA
01832,Essex County,MA,89.0818858560794,52.63157894736842,NA,NA,NA
01841,Essex County,MA,NA,2.21606648199446,0.12195121951219512,NA,NA
01843,Essex County,MA,23.325062034739457,NA,NA,NA,NA
01844,Essex County,MA,2.481389578163772,NA,22.317073170731707,NA,NA
01850,Middlesex County,MA,NA,NA,32.19512195121951,NA,NA
01852,Middlesex County,MA,NA,NA,NA,1.6474464579901154,NA
01854,Middlesex County,MA,NA,NA,66.34146341463415,NA,NA
01864,Middlesex County,MA,NA,NA,NA,78.41845140032949,NA
01876,Middlesex County,MA,NA,NA,30.73170731707317,NA,NA
01879,Middlesex County,MA,NA,NA,NA,89.78583196046128,NA
01880,Middlesex County,MA,NA,NA,7.926829268292683,NA,NA
01887,Middlesex County,MA,NA,NA,30.48780487804878,4.118616144975288,NA
01902,Essex County,MA,NA,39.335180055401665,NA,NA,NA
01905,Essex County,MA,15.136476426799009,NA,1.5853658536585367,NA,NA
01915,Essex County,MA,8.933002481389577,NA,NA,NA,95.71984435797665
01944,Essex County,MA,NA,NA,NA,NA,78.59922178988327
01949,Essex County,MA,NA,NA,NA,98.35255354200989,NA
01952,Essex County,MA,NA,NA,27.439024390243905,NA,NA
01960,Essex County,MA,NA,NA,0.975609756097561,7.413509060955518,NA
01966,Essex County,MA,NA,NA,65.2439024390244,NA,NA
01970,Essex County,MA,NA,NA,7.682926829268292,NA,NA
02025,Norfolk County,MA,NA,NA,NA,89.45634266886327,NA
02026,Norfolk County,MA,NA,85.87257617728532,NA,NA,NA
02038,Norfolk County,MA,NA,NA,42.5609756097561,NA,NA
02053,Norfolk County,MA,NA,NA,47.073170731707314,NA,NA
02067,Norfolk County,MA,NA,NA,NA,36.73805601317957,NA
02072,Norfolk County,MA,NA,54.016620498614955,NA,NA,NA
02114,Suffolk County,MA,NA,NA,20,NA,NA
02118,Suffolk County,MA,NA,NA,0.24390243902439024,NA,NA
02119,Suffolk County,MA,NA,6.3711911357340725,33.53658536585366,0,NA
02120,Suffolk County,MA,4.714640198511166,NA,NA,NA,NA
02121,Suffolk County,MA,NA,36.56509695290859,4.146341463414634,NA,NA
02122,Suffolk County,MA,NA,22.160664819944596,NA,NA,NA
02124,Suffolk County,MA,NA,1.10803324099723,NA,NA,NA
02125,Suffolk County,MA,NA,NA,45.609756097560975,0.9884678747940692,NA
02126,Suffolk County,MA,NA,42.65927977839335,0.4878048780487805,NA,NA
02127,Suffolk County,MA,NA,NA,NA,8.40197693574959,NA
02128,Suffolk County,MA,31.265508684863523,NA,22.195121951219512,1.4827018121911038,NA
02129,Suffolk County,MA,29.280397022332505,NA,NA,73.31136738056013,100
02130,Suffolk County,MA,NA,1.662049861495845,NA,2.9654036243822075,NA
02131,Suffolk County,MA,NA,NA,NA,5.766062602965404,NA
02132,Suffolk County,MA,NA,NA,NA,3.130148270181219,NA
02139,Middlesex County,MA,NA,NA,91.58536585365854,NA,NA
02143,Middlesex County,MA,NA,NA,NA,NA,82.10116731517509
02145,Middlesex County,MA,NA,NA,5.365853658536586,NA,NA
02148,Middlesex County,MA,1.488833746898263,NA,NA,0.3294892915980231,NA
02149,Middlesex County,MA,NA,14.958448753462603,NA,NA,NA
02150,Suffolk County,MA,48.13895781637717,0,24.146341463414632,26.68863261943987,NA
02151,Suffolk County,MA,NA,NA,NA,NA,8.560311284046692
02155,Middlesex County,MA,NA,NA,7.804878048780488,NA,NA
02169,Norfolk County,MA,NA,NA,NA,6.919275123558484,NA
02170,Norfolk County,MA,NA,NA,NA,NA,26.848249027237355
02180,Middlesex County,MA,NA,NA,14.512195121951219,70.34596375617792,NA
02190,Norfolk County,MA,NA,94.73684210526315,NA,NA,NA
02301,Plymouth County,MA,NA,NA,0,NA,NA
02324,Plymouth County,MA,43.424317617866,NA,12.804878048780488,NA,NA
02338,Plymouth County,MA,NA,NA,97.3170731707317,NA,NA
02343,Norfolk County,MA,NA,NA,NA,63.097199341021415,NA
02346,Plymouth County,MA,54.83870967741935,NA,NA,NA,NA
02368,Norfolk County,MA,38.95781637717122,NA,15.731707317073171,NA,NA
02445,Norfolk County,MA,NA,NA,28.41463414634146,NA,NA
02451,Middlesex County,MA,NA,NA,NA,18.945634266886326,59.92217898832685
02452,Middlesex County,MA,NA,NA,NA,38.220757825370676,NA
02465,Middlesex County,MA,NA,NA,87.1951219512195,NA,NA
02493,Middlesex County,MA,NA,NA,64.26829268292683,NA,NA
02648,Barnstable County,MA,96.52605459057072,NA,NA,NA,NA
02655,Barnstable County,MA,NA,NA,NA,93.73970345963755,NA
02703,Bristol County,MA,1.7369727047146404,NA,NA,NA,NA
02721,Bristol County,MA,NA,NA,78.29268292682927,NA,NA
02723,Bristol County,MA,NA,63.1578947368421,NA,NA,NA
02724,Bristol County,MA,NA,NA,86.21951219512195,NA,NA
02744,Bristol County,MA,NA,NA,75.36585365853658,NA,NA
02766,Bristol County,MA,NA,NA,20.853658536585364,NA,NA
02780,Bristol County,MA,NA,NA,NA,2.14168039538715,NA
48015,Macomb County,MI,NA,61.21883656509696,NA,NA,NA
48038,Macomb County,MI,NA,NA,NA,5.930807248764415,6.22568093385214
48043,Macomb County,MI,NA,NA,32.6829268292683,NA,NA
48044,Macomb County,MI,NA,NA,NA,NA,25.291828793774318
48047,Macomb County,MI,16.377171215880892,NA,NA,NA,NA
48059,St. Clair County,MI,NA,NA,NA,NA,27.237354085603112
48060,St. Clair County,MI,NA,NA,3.536585365853658,NA,NA
48073,Oakland County,MI,NA,NA,30.975609756097562,NA,NA
48075,Oakland County,MI,NA,75.34626038781164,NA,NA,NA
48081,Macomb County,MI,NA,NA,NA,54.03624382207578,16.731517509727624
48082,Macomb County,MI,NA,NA,NA,34.76112026359143,NA
48089,Macomb County,MI,NA,25.48476454293629,9.024390243902438,NA,NA
48091,Macomb County,MI,NA,NA,74.51219512195122,NA,NA
48092,Macomb County,MI,NA,NA,75.60975609756098,NA,NA
48093,Macomb County,MI,45.90570719602978,NA,NA,NA,23.346303501945524
48101,Wayne County,MI,NA,79.77839335180056,NA,NA,NA
48103,Washtenaw County,MI,NA,NA,17.073170731707318,NA,NA
48104,Washtenaw County,MI,85.60794044665012,NA,46.34146341463415,NA,NA
48108,Washtenaw County,MI,NA,NA,39.268292682926834,NA,NA
48111,Wayne County,MI,NA,NA,7.1951219512195115,30.64250411861614,NA
48114,Livingston County,MI,NA,NA,77.07317073170732,NA,NA
48116,Livingston County,MI,NA,NA,30.121951219512194,15.980230642504118,NA
48130,Washtenaw County,MI,NA,NA,NA,36.24382207578254,NA
48135,Wayne County,MI,NA,NA,23.902439024390244,54.36573311367381,NA
48141,Wayne County,MI,15.632754342431761,NA,9.75609756097561,NA,NA
48144,Monroe County,MI,NA,NA,86.46341463414635,NA,NA
48145,Monroe County,MI,98.01488833746899,NA,NA,NA,NA
48154,Wayne County,MI,NA,NA,NA,NA,8.949416342412452
48158,Washtenaw County,MI,NA,NA,NA,89.29159802306425,NA
48160,Washtenaw County,MI,NA,NA,NA,51.40032948929159,NA
48170,Wayne County,MI,NA,NA,NA,NA,43.96887159533074
48174,Wayne County,MI,NA,NA,8.048780487804878,NA,NA
48176,Washtenaw County,MI,NA,NA,NA,23.55848434925865,NA
48180,Wayne County,MI,NA,27.146814404432135,NA,NA,NA
48187,Wayne County,MI,NA,NA,55.1219512195122,NA,NA
48188,Wayne County,MI,6.699751861042183,NA,NA,NA,NA
48191,Washtenaw County,MI,NA,NA,NA,94.2339373970346,NA
48197,Washtenaw County,MI,51.86104218362283,NA,16.70731707317073,34.43163097199341,NA
48198,Washtenaw County,MI,3.225806451612903,NA,NA,NA,NA
48203,Wayne County,MI,17.617866004962778,NA,62.31707317073171,21.581548599670512,NA
48204,Wayne County,MI,NA,22.437673130193904,54.87804878048781,NA,NA
48206,Wayne County,MI,26.799007444168733,NA,NA,NA,NA
48210,Wayne County,MI,NA,NA,26.951219512195124,78.08896210873147,NA
48212,Wayne County,MI,NA,9.695290858725762,NA,NA,NA
48213,Wayne County,MI,66.25310173697271,NA,NA,NA,NA
48221,Wayne County,MI,NA,NA,26.097560975609756,NA,NA
48223,Wayne County,MI,NA,NA,14.390243902439023,NA,NA
48224,Wayne County,MI,NA,NA,NA,NA,56.03112840466926
48227,Wayne County,MI,26.054590570719604,NA,3.6585365853658534,NA,62.2568093385214
48228,Wayne County,MI,NA,NA,1.8292682926829267,NA,NA
48234,Wayne County,MI,6.20347394540943,NA,NA,NA,NA
48238,Wayne County,MI,35.98014888337469,NA,NA,NA,NA
48239,Wayne County,MI,NA,NA,9.634146341463415,39.53871499176277,NA
48240,Wayne County,MI,49.37965260545906,NA,NA,NA,NA
48301,Oakland County,MI,NA,NA,NA,66.72158154859967,NA
48302,Oakland County,MI,NA,NA,NA,84.34925864909391,NA
48312,Macomb County,MI,NA,NA,56.58536585365853,NA,NA
48313,Macomb County,MI,NA,NA,85.85365853658537,NA,NA
48322,Oakland County,MI,NA,NA,NA,79.9011532125206,NA
48323,Oakland County,MI,NA,NA,NA,42.174629324546956,37.35408560311284
48324,Oakland County,MI,NA,NA,58.90243902439024,NA,NA
48340,Oakland County,MI,NA,NA,12.073170731707316,NA,NA
48382,Oakland County,MI,63.27543424317618,NA,NA,NA,NA
48439,Genesee County,MI,NA,NA,15.121951219512194,NA,NA
48460,Shiawassee County,MI,NA,NA,99.8780487804878,NA,NA
48504,Genesee County,MI,NA,NA,20.243902439024392,NA,NA
48507,Genesee County,MI,NA,NA,NA,29.654036243822073,NA
48602,Saginaw County,MI,NA,NA,4.024390243902439,NA,NA
48603,Saginaw County,MI,NA,NA,13.658536585365855,37.89126853377265,NA
48624,Gladwin County,MI,NA,NA,NA,67.38056013179572,24.90272373540856
48642,Midland County,MI,NA,NA,NA,NA,10.505836575875486
48723,Tuscola County,MI,NA,NA,29.268292682926827,NA,NA
48809,Ionia County,MI,NA,NA,64.8780487804878,NA,NA
48823,Ingham County,MI,NA,NA,NA,25.370675453047774,NA
48850,Montcalm County,MI,NA,NA,NA,80.56013179571664,NA
48855,Livingston County,MI,66.50124069478908,NA,NA,NA,NA
48867,Shiawassee County,MI,NA,77.5623268698061,75.48780487804878,32.28995057660626,NA
48893,Isabella County,MI,NA,NA,NA,94.89291598023064,NA
48911,Ingham County,MI,NA,NA,6.951219512195123,44.81054365733114,NA
49013,Van Buren County,MI,NA,NA,85.97560975609755,NA,NA
49037,Calhoun County,MI,35.235732009925556,NA,NA,NA,NA
49048,Kalamazoo County,MI,NA,NA,NA,NA,15.17509727626459
49053,Kalamazoo County,MI,NA,NA,77.8048780487805,NA,NA
49085,Berrien County,MI,NA,NA,53.65853658536586,NA,NA
49201,Jackson County,MI,NA,41.82825484764543,NA,NA,NA
49203,Jackson County,MI,NA,NA,49.26829268292683,NA,NA
49221,Lenawee County,MI,NA,NA,NA,5.601317957166392,NA
49240,Jackson County,MI,NA,NA,NA,79.57166392092257,NA
49316,Kent County,MI,NA,NA,49.146341463414636,NA,NA
49319,Kent County,MI,NA,NA,NA,94.06919275123559,NA
49331,Kent County,MI,65.01240694789082,NA,NA,NA,NA
49337,Newaygo County,MI,NA,NA,66.46341463414635,NA,NA
49341,Kent County,MI,NA,NA,NA,23.88797364085667,NA
49401,Ottawa County,MI,NA,NA,56.34146341463414,NA,NA
49417,Ottawa County,MI,NA,NA,19.634146341463417,NA,NA
49418,Kent County,MI,46.40198511166253,NA,39.390243902439025,NA,NA
49445,Muskegon County,MI,NA,57.61772853185596,NA,NA,NA
49456,Ottawa County,MI,NA,NA,82.5609756097561,94.72817133443164,NA
49457,Muskegon County,MI,NA,NA,70.48780487804878,NA,NA
49504,Kent County,MI,NA,NA,NA,14.497528830313014,NA
49507,Kent County,MI,NA,4.986149584487535,5.609756097560976,NA,NA
49508,Kent County,MI,NA,63.988919667590025,NA,NA,NA
49509,Kent County,MI,NA,84.7645429362881,NA,NA,NA
49665,Osceola County,MI,NA,NA,NA,90.93904448105437,NA
49721,Cheboygan County,MI,NA,NA,NA,NA,40.07782101167315
49738,Crawford County,MI,NA,NA,NA,64.08566721581549,NA
49770,Emmet County,MI,NA,NA,59.8780487804878,NA,NA
49829,Delta County,MI,45.90570719602978,65.92797783933518,NA,NA,NA
49855,Marquette County,MI,NA,NA,NA,16.474464579901152,NA
49913,Houghton County,MI,87.09677419354838,NA,NA,NA,NA
49920,Iron County,MI,NA,NA,NA,91.26853377265239,NA
49931,Houghton County,MI,NA,NA,NA,67.0510708401977,NA
55008,Isanti County,MN,NA,62.603878116343495,NA,NA,NA
55040,Isanti County,MN,NA,74.23822714681441,NA,NA,NA
55044,Dakota County,MN,NA,NA,49.390243902439025,NA,NA
55051,Kanabec County,MN,NA,NA,NA,NA,78.21011673151752
55066,Goodhue County,MN,NA,51.8005540166205,NA,NA,NA
55104,Ramsey County,MN,NA,NA,82.80487804878048,NA,NA
55106,Ramsey County,MN,NA,52.90858725761773,NA,NA,NA
55117,Ramsey County,MN,NA,NA,18.048780487804876,89.62108731466228,NA
55303,Anoka County,MN,NA,63.711911357340725,NA,NA,NA
55343,Hennepin County,MN,NA,41.27423822714682,NA,NA,NA
55358,Wright County,MN,NA,NA,98.53658536585365,NA,NA
55372,Scott County,MN,NA,NA,NA,54.20098846787479,NA
55404,Hennepin County,MN,95.7816377171216,NA,80.48780487804879,NA,NA
55406,Hennepin County,MN,21.83622828784119,NA,NA,NA,NA
55408,Hennepin County,MN,NA,NA,NA,40.362438220757824,NA
55411,Hennepin County,MN,NA,NA,3.414634146341464,NA,NA
55428,Hennepin County,MN,NA,72.02216066481995,50.1219512195122,NA,NA
55430,Hennepin County,MN,NA,NA,20.73170731707317,NA,NA
55442,Hennepin County,MN,NA,NA,96.21951219512195,NA,NA
55445,Hennepin County,MN,NA,NA,NA,81.87808896210873,NA
55744,Itasca County,MN,NA,NA,45.73170731707317,NA,NA
55746,St. Louis County,MN,NA,NA,NA,NA,29.961089494163424
55804,St. Louis County,MN,NA,NA,86.95121951219512,NA,NA
55805,St. Louis County,MN,NA,NA,NA,62.932454695222404,94.55252918287937
55806,St. Louis County,MN,NA,NA,28.536585365853657,NA,NA
55807,St. Louis County,MN,NA,66.7590027700831,NA,NA,84.8249027237354
55912,Mower County,MN,NA,NA,NA,NA,0.38910505836575876
56007,Freeborn County,MN,NA,NA,NA,NA,52.918287937743195
56011,Scott County,MN,NA,NA,86.70731707317073,NA,NA
56258,Lyon County,MN,NA,NA,NA,49.9176276771005,NA
56345,Morrison County,MN,NA,NA,31.21951219512195,NA,NA
56401,Crow Wing County,MN,NA,4.1551246537396125,53.78048780487805,NA,NA
56482,Wadena County,MN,NA,NA,NA,NA,36.57587548638132
56537,Otter Tail County,MN,NA,NA,20.48780487804878,NA,NA
56560,Clay County,MN,NA,11.357340720221606,NA,NA,NA
56601,Beltrami County,MN,NA,NA,45.85365853658537,1.8121911037891267,NA
56636,Itasca County,MN,NA,NA,NA,94.3986820428336,NA
56716,Polk County,MN,NA,NA,32.31707317073171,NA,NA
56763,Roseau County,MN,NA,NA,74.39024390243902,NA,NA
38606,Panola County,MS,NA,NA,95.85365853658536,NA,NA
38610,Tippah County,MS,NA,96.95290858725761,NA,NA,NA
38672,DeSoto County,MS,NA,NA,93.65853658536587,NA,NA
38804,Lee County,MS,NA,NA,NA,95.71663920922569,NA
38834,Alcorn County,MS,NA,NA,21.951219512195124,NA,NA
38863,Pontotoc County,MS,NA,68.42105263157895,NA,NA,NA
38930,Leflore County,MS,NA,NA,40.1219512195122,NA,NA
39046,Madison County,MS,NA,NA,NA,49.588138385502475,NA
39160,Attala County,MS,NA,NA,100,NA,NA
39168,Smith County,MS,NA,79.22437673130193,NA,NA,NA
39204,Hinds County,MS,NA,NA,24.024390243902438,NA,NA
39212,Hinds County,MS,NA,32.40997229916898,NA,NA,NA
39341,Noxubee County,MS,NA,NA,NA,NA,83.65758754863813
39367,Wayne County,MS,NA,NA,77.5609756097561,NA,NA
39440,Jones County,MS,NA,NA,55.73170731707317,NA,NA
39466,Pearl River County,MS,NA,NA,NA,16.96869851729819,NA
39503,Harrison County,MS,86.60049627791562,10.249307479224377,NA,NA,NA
39507,Harrison County,MS,NA,NA,85.48780487804878,NA,NA
39563,Jackson County,MS,NA,NA,NA,87.64415156507414,NA
39666,Pike County,MS,66.50124069478908,NA,NA,NA,NA
63017,St. Louis County,MO,48.635235732009924,NA,NA,NA,NA
63026,St. Louis County,MO,NA,85.87257617728532,NA,NA,NA
63028,Jefferson County,MO,NA,NA,NA,22.899505766062603,NA
63033,St. Louis County,MO,NA,30.47091412742382,NA,NA,NA
63074,St. Louis County,MO,75.18610421836229,NA,NA,NA,NA
63103,St. Louis city,MO,NA,NA,82.92682926829268,NA,NA
63106,St. Louis city,MO,59.553349875930515,NA,NA,NA,97.27626459143968
63109,St. Louis city,MO,NA,90.02770083102493,NA,NA,NA
63110,St. Louis city,MO,NA,92.797783933518,NA,NA,NA
63112,St. Louis city,MO,NA,NA,51.09756097560976,NA,NA
63113,St. Louis city,MO,58.31265508684863,NA,NA,NA,NA
63114,St. Louis County,MO,29.280397022332505,25.761772853185594,NA,NA,NA
63116,St. Louis city,MO,NA,NA,35.731707317073166,NA,NA
63117,St. Louis County,MO,NA,NA,NA,NA,82.49027237354085
63121,St. Louis County,MO,NA,70.08310249307479,60.97560975609756,NA,NA
63128,St. Louis County,MO,NA,NA,88.41463414634147,NA,NA
63130,St. Louis County,MO,NA,NA,NA,51.23558484349259,NA
63131,St. Louis County,MO,NA,NA,NA,68.03953871499176,NA
63133,St. Louis County,MO,NA,NA,98.90243902439025,NA,NA
63134,St. Louis County,MO,NA,59.2797783933518,41.70731707317073,NA,NA
63135,St. Louis County,MO,NA,24.930747922437675,76.46341463414635,NA,NA
63136,St. Louis County,MO,NA,NA,31.463414634146343,40.0329489291598,NA
63137,St. Louis County,MO,NA,72.02216066481995,NA,NA,NA
63138,St. Louis County,MO,25.06203473945409,NA,NA,NA,NA
63143,St. Louis County,MO,NA,NA,83.90243902439025,NA,NA
63147,St. Louis city,MO,NA,70.6371191135734,56.82926829268292,NA,NA
63362,Lincoln County,MO,82.87841191066998,NA,NA,NA,NA
63367,St. Charles County,MO,NA,NA,NA,31.795716639209225,NA
63389,Lincoln County,MO,NA,NA,86.82926829268293,NA,NA
63645,Madison County,MO,NA,NA,NA,NA,55.252918287937746
63775,Perry County,MO,NA,NA,NA,32.948929159802304,NA
63801,Scott County,MO,NA,NA,23.65853658536585,NA,91.05058365758755
64015,Jackson County,MO,NA,NA,42.19512195121951,NA,NA
64034,Jackson County,MO,NA,NA,82.92682926829268,NA,NA
64037,Lafayette County,MO,NA,NA,NA,NA,84.43579766536965
64040,Johnson County,MO,NA,79.22437673130193,NA,NA,NA
64053,Jackson County,MO,NA,NA,77.5609756097561,NA,NA
64060,Clay County,MO,56.32754342431762,NA,NA,NA,NA
64064,Jackson County,MO,74.68982630272953,NA,NA,NA,NA
64079,Platte County,MO,NA,72.85318559556787,NA,NA,NA
64080,Cass County,MO,62.779156327543426,82.54847645429363,NA,NA,NA
64083,Cass County,MO,NA,89.47368421052632,NA,NA,NA
64089,Clay County,MO,NA,NA,50.97560975609756,NA,NA
64106,Jackson County,MO,NA,NA,30,NA,NA
64108,Jackson County,MO,NA,50.13850415512465,NA,NA,NA
64110,Jackson County,MO,NA,NA,NA,35.749588138385505,NA
64118,Clay County,MO,10.918114143920596,31.024930747922436,NA,8.237232289950576,NA
64123,Jackson County,MO,53.101736972704714,NA,NA,NA,NA
64124,Jackson County,MO,56.82382133995038,NA,NA,NA,NA
64128,Jackson County,MO,NA,NA,68.41463414634147,NA,NA
64130,Jackson County,MO,NA,18.005540166204987,7.073170731707316,NA,NA
64131,Jackson County,MO,NA,NA,44.390243902439025,NA,NA
64133,Jackson County,MO,NA,NA,69.6341463414634,NA,NA
64134,Jackson County,MO,NA,NA,78.17073170731707,NA,NA
64138,Jackson County,MO,49.37965260545906,NA,NA,NA,NA
64151,Platte County,MO,22.8287841191067,NA,NA,NA,NA
64155,Clay County,MO,45.16129032258064,96.1218836565097,NA,NA,NA
64503,Buchanan County,MO,NA,NA,NA,31.30148270181219,47.081712062256805
64505,Buchanan County,MO,63.52357320099256,NA,NA,NA,NA
64507,Buchanan County,MO,NA,29.085872576177284,NA,NA,NA
64601,Livingston County,MO,NA,NA,NA,NA,62.64591439688716
64701,Cass County,MO,NA,86.98060941828255,NA,NA,NA
64730,Bates County,MO,NA,NA,NA,86.49093904448105,NA
64772,Vernon County,MO,NA,NA,41.21951219512195,NA,NA
64801,Jasper County,MO,NA,15.23545706371191,NA,NA,NA
64834,Jasper County,MO,NA,NA,NA,84.67874794069192,NA
64870,Jasper County,MO,73.20099255583126,NA,NA,NA,NA
65018,Moniteau County,MO,NA,86.42659279778393,NA,NA,NA
65043,Callaway County,MO,NA,91.96675900277008,NA,82.70181219110378,NA
65066,Gasconade County,MO,97.02233250620348,NA,NA,NA,NA
65201,Boone County,MO,71.712158808933,NA,NA,NA,NA
65203,Boone County,MO,10.173697270471465,NA,NA,11.037891268533773,NA
65351,Saline County,MO,98.75930521091811,NA,NA,NA,NA
65536,Laclede County,MO,NA,20.221606648199447,NA,NA,NA
65548,Howell County,MO,NA,90.02770083102493,NA,NA,NA
65559,Phelps County,MO,NA,NA,79.02439024390245,NA,NA
65560,Dent County,MO,81.14143920595534,NA,NA,NA,NA
65714,Christian County,MO,56.07940446650124,NA,NA,NA,NA
65721,Christian County,MO,NA,NA,53.170731707317074,NA,NA
65742,Webster County,MO,NA,NA,NA,69.35749588138385,NA
65802,Greene County,MO,18.36228287841191,NA,NA,NA,NA
65803,Greene County,MO,27.791563275434246,NA,NA,NA,NA
65807,Greene County,MO,57.5682382133995,NA,28.780487804878046,NA,NA
59405,Cascade County,MT,NA,NA,NA,74.95881383855024,NA
59601,Lewis and Clark County,MT,NA,NA,NA,18.451400329489292,NA
59602,Lewis and Clark County,MT,70.22332506203473,NA,56.09756097560976,NA,NA
59718,Gallatin County,MT,NA,NA,36.951219512195124,38.38550247116969,NA
59802,Missoula County,MT,NA,NA,NA,NA,94.94163424124513
59804,Missoula County,MT,NA,NA,NA,NA,79.76653696498055
59917,Lincoln County,MT,NA,NA,NA,89.12685337726523,NA
68005,Sarpy County,NE,NA,NA,61.951219512195124,NA,NA
68025,Dodge County,NE,NA,95.56786703601108,NA,NA,NA
68104,Douglas County,NE,28.78411910669975,42.38227146814405,NA,NA,NA
68105,Douglas County,NE,52.853598014888334,NA,NA,NA,NA
68107,Douglas County,NE,NA,54.57063711911358,NA,NA,NA
68116,Douglas County,NE,39.70223325062035,NA,NA,NA,NA
68137,Douglas County,NE,NA,82.82548476454294,NA,NA,NA
68144,Douglas County,NE,NA,NA,NA,NA,42.80155642023346
68310,Gage County,NE,NA,NA,NA,47.94069192751236,NA
68801,Hall County,NE,84.36724565756823,NA,NA,85.667215815486,NA
89107,Clark County,NV,NA,69.25207756232687,NA,NA,NA
89115,Clark County,NV,NA,NA,22.439024390243905,NA,NA
89121,Clark County,NV,NA,44.59833795013851,NA,NA,NA
89123,Clark County,NV,NA,91.13573407202216,NA,NA,NA
89130,Clark County,NV,NA,91.13573407202216,NA,NA,NA
89142,Clark County,NV,NA,NA,64.39024390243902,NA,NA
89145,Clark County,NV,NA,NA,NA,NA,87.93774319066148
89431,Washoe County,NV,36.72456575682382,NA,NA,NA,NA
89434,Washoe County,NV,NA,NA,43.65853658536585,NA,NA
03045,Hillsborough County,NH,NA,NA,NA,85.99670510708401,NA
03054,Hillsborough County,NH,NA,NA,NA,NA,46.69260700389105
03079,Rockingham County,NH,33.002481389578165,NA,NA,NA,NA
03102,Hillsborough County,NH,NA,NA,NA,45.46952224052718,NA
03103,Hillsborough County,NH,NA,NA,NA,NA,58.36575875486382
03222,Grafton County,NH,NA,NA,NA,91.10378912685337,NA
03253,Belknap County,NH,NA,NA,99.02439024390245,66.55683690280065,NA
03303,Merrimack County,NH,NA,NA,NA,NA,35.40856031128405
03827,Rockingham County,NH,NA,NA,94.02439024390243,NA,NA
03885,Rockingham County,NH,NA,NA,88.04878048780488,NA,NA
07002,Hudson County,NJ,NA,16.06648199445983,NA,3.9538714991762767,NA
07008,Middlesex County,NJ,NA,NA,99.63414634146342,NA,NA
07017,Essex County,NJ,NA,NA,97.1951219512195,86.16144975288303,NA
07026,Bergen County,NJ,NA,NA,NA,27.01812191103789,NA
07042,Essex County,NJ,NA,NA,25.48780487804878,NA,NA
07045,Morris County,NJ,99.75186104218362,NA,NA,NA,NA
07055,Passaic County,NJ,NA,NA,NA,75.61779242174629,NA
07093,Hudson County,NJ,NA,NA,29.146341463414632,NA,NA
07104,Essex County,NJ,NA,NA,16.82926829268293,NA,27.626459143968873
07105,Essex County,NJ,NA,16.62049861495845,NA,NA,NA
07107,Essex County,NJ,NA,NA,1.4634146341463417,NA,NA
07108,Essex County,NJ,NA,NA,NA,67.21581548599671,NA
07111,Essex County,NJ,NA,33.2409972299169,NA,NA,NA
07206,Union County,NJ,8.188585607940446,NA,NA,NA,NA
07304,Hudson County,NJ,NA,5.8171745152354575,NA,NA,NA
07305,Hudson County,NJ,90.32258064516128,66.4819944598338,16.21951219512195,NA,NA
07306,Hudson County,NJ,NA,NA,5.731707317073171,12.685337726523887,NA
07430,Bergen County,NJ,83.12655086848635,NA,NA,NA,NA
07452,Bergen County,NJ,NA,NA,NA,91.59802306425041,NA
07461,Sussex County,NJ,NA,NA,70.1219512195122,NA,NA
07470,Passaic County,NJ,NA,NA,NA,64.90939044481054,NA
07513,Passaic County,NJ,96.27791563275434,NA,NA,NA,NA
07514,Passaic County,NJ,NA,NA,93.17073170731707,NA,NA
07522,Passaic County,NJ,NA,NA,76.34146341463415,NA,NA
07601,Bergen County,NJ,NA,NA,NA,NA,18.28793774319066
07603,Bergen County,NJ,NA,NA,NA,71.00494233937397,NA
07621,Bergen County,NJ,NA,NA,NA,57.66062602965404,NA
07631,Bergen County,NJ,NA,NA,NA,53.047775947281714,NA
07716,Monmouth County,NJ,NA,NA,88.04878048780488,NA,NA
07801,Morris County,NJ,70.96774193548387,NA,NA,NA,NA
07830,Hunterdon County,NJ,77.1712158808933,NA,NA,97.03459637561778,NA
07871,Sussex County,NJ,NA,NA,79.51219512195122,NA,NA
07874,Sussex County,NJ,NA,NA,99.39024390243902,NA,NA
07901,Union County,NJ,NA,67.03601108033241,NA,NA,NA
07945,Morris County,NJ,NA,NA,NA,95.22240527182866,NA
08012,Camden County,NJ,NA,NA,91.70731707317074,NA,NA
08021,Camden County,NJ,NA,2.7700831024930745,81.34146341463413,NA,NA
08028,Gloucester County,NJ,NA,NA,85.24390243902438,NA,NA
08031,Camden County,NJ,73.94540942928039,NA,NA,NA,NA
08034,Camden County,NJ,NA,NA,35,NA,NA
08057,Burlington County,NJ,55.08684863523573,NA,NA,NA,NA
08070,Salem County,NJ,NA,NA,NA,46.952224052718286,NA
08078,Camden County,NJ,NA,NA,96.70731707317073,NA,NA
08080,Gloucester County,NJ,NA,42.10526315789473,NA,NA,NA
08081,Camden County,NJ,NA,NA,85.60975609756098,NA,NA
08096,Gloucester County,NJ,85.35980148883374,NA,NA,NA,NA
08103,Camden County,NJ,NA,NA,5.2439024390243905,NA,NA
08104,Camden County,NJ,NA,3.6011080332409975,NA,NA,NA
08210,Cape May County,NJ,NA,NA,38.90243902439025,NA,NA
08225,Atlantic County,NJ,94.78908188585608,NA,NA,NA,NA
08330,Atlantic County,NJ,37.71712158808933,NA,NA,NA,NA
08332,Cumberland County,NJ,NA,67.86703601108033,35.609756097560975,NA,NA
08638,Mercer County,NJ,73.69727047146401,NA,NA,NA,NA
08701,Ocean County,NJ,NA,NA,3.2926829268292686,NA,NA
08807,Somerset County,NJ,49.37965260545906,NA,NA,NA,NA
08816,Middlesex County,NJ,NA,NA,NA,55.02471169686986,NA
08817,Middlesex County,NJ,NA,76.73130193905817,NA,NA,NA
08820,Middlesex County,NJ,NA,NA,NA,24.217462932454694,NA
08835,Somerset County,NJ,88.08933002481389,NA,NA,NA,NA
08844,Somerset County,NJ,NA,NA,40.97560975609756,NA,NA
08852,Middlesex County,NJ,NA,NA,NA,96.86985172981878,NA
08857,Middlesex County,NJ,NA,NA,NA,15.815485996705107,NA
08876,Somerset County,NJ,NA,NA,98.41463414634146,NA,NA
08879,Middlesex County,NJ,NA,NA,34.146341463414636,NA,NA
87106,Bernalillo County,NM,53.59801488833747,NA,NA,NA,NA
87110,Bernalillo County,NM,6.451612903225806,NA,NA,NA,NA
87114,Bernalillo County,NM,12.903225806451612,NA,NA,NA,NA
87122,Bernalillo County,NM,NA,NA,85.73170731707317,NA,NA
87123,Bernalillo County,NM,NA,40.443213296398895,NA,59.472817133443165,NA
87124,Sandoval County,NM,NA,NA,68.78048780487805,NA,NA
87144,Sandoval County,NM,NA,NA,NA,50.57660626029654,NA
87313,McKinley County,NM,NA,NA,NA,95.88138385502472,NA
87325,McKinley County,NM,NA,95.84487534626038,NA,NA,NA
87416,San Juan County,NM,NA,79.77839335180056,NA,NA,NA
87417,San Juan County,NM,NA,NA,94.14634146341463,NA,NA
87532,Santa Fe County,NM,NA,NA,NA,41.680395387149915,NA
87740,Colfax County,NM,NA,NA,80.2439024390244,NA,NA
88203,Chaves County,NM,NA,NA,21.70731707317073,NA,58.754863813229576
10002,New York County,NY,48.883374689826304,NA,NA,NA,NA
10003,New York County,NY,93.30024813895783,NA,NA,NA,NA
10016,New York County,NY,52.10918114143921,NA,NA,NA,NA
10023,New York County,NY,NA,NA,NA,NA,7.003891050583658
10024,New York County,NY,NA,NA,NA,NA,65.75875486381322
10025,New York County,NY,NA,NA,NA,1.1532125205930808,NA
10026,New York County,NY,NA,NA,26.34146341463415,NA,NA
10027,New York County,NY,NA,9.418282548476455,41.951219512195124,14.332784184514002,NA
10029,New York County,NY,6.9478908188585615,NA,NA,74.46457990115321,0
10030,New York County,NY,NA,NA,54.268292682926834,NA,NA
10034,New York County,NY,NA,NA,84.02439024390243,NA,NA
10037,New York County,NY,NA,NA,39.75609756097561,NA,NA
10038,New York County,NY,NA,NA,NA,39.86820428336079,96.88715953307393
10044,New York County,NY,NA,NA,92.5609756097561,NA,NA
10301,Richmond County,NY,NA,38.227146814404435,NA,NA,NA
10302,Richmond County,NY,NA,60.94182825484764,73.29268292682927,NA,NA
10310,Richmond County,NY,NA,NA,NA,40.19769357495881,NA
10451,Bronx County,NY,NA,1.3850415512465373,NA,7.0840197693574956,NA
10452,Bronx County,NY,44.168734491315135,8.587257617728532,NA,NA,NA
10453,Bronx County,NY,NA,NA,29.39024390243902,0.8237232289950577,NA
10454,Bronx County,NY,NA,15.789473684210526,59.512195121951216,29.983525535420096,31.1284046692607
10455,Bronx County,NY,NA,NA,4.512195121951219,76.11202635914333,17.509727626459142
10456,Bronx County,NY,0.24813895781637718,9.141274238227147,0.3658536585365854,81.54859967051071,3.8910505836575875
10457,Bronx County,NY,80.14888337468983,1.662049861495845,NA,20.42833607907743,NA
10458,Bronx County,NY,0.9925558312655087,11.911357340720222,53.41463414634147,30.971993410214164,NA
10459,Bronx County,NY,NA,46.81440443213297,24.878048780487806,37.56177924217463,NA
10460,Bronx County,NY,1.240694789081886,5.540166204986149,NA,76.44151565074135,64.98054474708171
10461,Bronx County,NY,NA,52.35457063711911,NA,18.28665568369028,NA
10462,Bronx County,NY,NA,10.526315789473683,6.707317073170732,NA,NA
10463,Bronx County,NY,NA,NA,49.51219512195122,4.7775947281713345,NA
10466,Bronx County,NY,NA,NA,4.7560975609756095,NA,NA
10467,Bronx County,NY,NA,21.052631578947366,NA,7.248764415156507,NA
10468,Bronx County,NY,3.722084367245657,NA,24.634146341463413,17.957166392092258,NA
10469,Bronx County,NY,17.866004962779154,NA,20.365853658536583,32.78418451400329,NA
10472,Bronx County,NY,NA,NA,2.195121951219512,3.2948929159802307,NA
10473,Bronx County,NY,NA,NA,NA,NA,40.856031128404666
10474,Bronx County,NY,NA,NA,56.09756097560976,NA,NA
10475,Bronx County,NY,NA,NA,NA,10.873146622734762,NA
10550,Westchester County,NY,NA,NA,26.21951219512195,NA,NA
10570,Westchester County,NY,NA,NA,NA,97.69357495881383,NA
10606,Westchester County,NY,NA,NA,NA,80.56013179571664,NA
10701,Westchester County,NY,NA,NA,1.707317073170732,NA,NA
10940,Orange County,NY,NA,34.34903047091413,NA,NA,NA
11040,Nassau County,NY,84.36724565756823,NA,NA,NA,NA
11050,Nassau County,NY,NA,NA,84.14634146341463,NA,NA
11201,Kings County,NY,NA,90.58171745152355,22.682926829268293,NA,NA
11203,Kings County,NY,NA,NA,35.97560975609756,6.754530477759473,NA
11206,Kings County,NY,NA,52.07756232686981,32.80487804878049,NA,NA
11207,Kings County,NY,20.843672456575682,50.41551246537396,0.7317073170731708,NA,NA
11210,Kings County,NY,NA,57.06371191135734,NA,NA,NA
11211,Kings County,NY,NA,NA,16.585365853658537,NA,NA
11212,Kings County,NY,30.024813895781637,0.2770083102493075,NA,NA,NA
11213,Kings County,NY,NA,77.28531855955679,NA,6.425041186161449,NA
11214,Kings County,NY,NA,NA,45.85365853658537,NA,NA
11216,Kings County,NY,42.4317617866005,NA,38.78048780487805,NA,NA
11220,Kings County,NY,NA,32.686980609418285,3.7804878048780486,4.942339373970346,NA
11221,Kings County,NY,NA,NA,3.048780487804878,NA,NA
11223,Kings County,NY,NA,NA,NA,78.5831960461285,NA
11225,Kings County,NY,NA,NA,24.75609756097561,NA,NA
11226,Kings County,NY,NA,3.0470914127423825,4.2682926829268295,NA,NA
11228,Kings County,NY,NA,45.98337950138504,NA,NA,NA
11230,Kings County,NY,NA,NA,NA,38.71499176276771,NA
11232,Kings County,NY,NA,33.51800554016621,NA,NA,NA
11233,Kings County,NY,5.707196029776675,NA,NA,NA,NA
11235,Kings County,NY,NA,NA,NA,NA,1.556420233463035
11236,Kings County,NY,NA,61.495844875346265,NA,NA,36.964980544747085
11237,Kings County,NY,NA,NA,NA,15.485996705107082,NA
11238,Kings County,NY,40.69478908188586,54.57063711911358,NA,NA,40.46692607003891
11239,Kings County,NY,NA,NA,NA,87.80889621087314,NA
11365,Queens County,NY,63.77171215880894,NA,NA,NA,NA
11367,Queens County,NY,NA,42.93628808864266,NA,NA,NA
11379,Queens County,NY,NA,NA,NA,52.883031301482696,NA
11385,Queens County,NY,9.181141439205955,NA,NA,NA,NA
11417,Queens County,NY,NA,NA,NA,46.45799011532125,NA
11418,Queens County,NY,NA,14.681440443213297,NA,NA,NA
11435,Queens County,NY,NA,NA,12.682926829268293,NA,31.1284046692607
11550,Nassau County,NY,NA,4.43213296398892,40,NA,NA
11561,Nassau County,NY,NA,NA,NA,29.489291598023065,NA
11580,Nassau County,NY,NA,NA,57.56097560975609,NA,32.295719844357976
11692,Queens County,NY,90.07444168734492,NA,75.85365853658537,NA,NA
11713,Suffolk County,NY,NA,NA,81.82926829268293,NA,NA
11741,Suffolk County,NY,NA,NA,71.46341463414633,NA,NA
11746,Suffolk County,NY,NA,NA,NA,NA,11.673151750972762
11747,Suffolk County,NY,NA,NA,98.04878048780488,NA,NA
12019,Saratoga County,NY,NA,NA,74.14634146341463,NA,NA
12090,Rensselaer County,NY,NA,NA,64.02439024390245,NA,NA
12118,Saratoga County,NY,NA,NA,58.78048780487804,NA,NA
12158,Albany County,NY,NA,NA,96.82926829268293,NA,NA
12302,Schenectady County,NY,NA,NA,41.829268292682926,NA,NA
12309,Schenectady County,NY,NA,NA,NA,56.50741350906095,NA
12413,Greene County,NY,NA,NA,79.39024390243902,NA,NA
12414,Greene County,NY,NA,NA,NA,35.914332784184516,NA
12534,Columbia County,NY,NA,NA,45.1219512195122,NA,NA
12549,Orange County,NY,NA,NA,NA,94.56342668863262,NA
12590,Dutchess County,NY,NA,NA,NA,59.30807248764415,NA
12831,Saratoga County,NY,51.36476426799007,NA,NA,NA,NA
12926,Franklin County,NY,NA,NA,NA,93.73970345963755,NA
12953,Franklin County,NY,NA,NA,NA,67.54530477759472,NA
13027,Onondaga County,NY,55.08684863523573,NA,NA,NA,NA
13073,Tompkins County,NY,NA,NA,56.34146341463414,NA,NA
13090,Onondaga County,NY,NA,NA,17.926829268292682,NA,NA
13159,Onondaga County,NY,89.57816377171216,NA,NA,NA,NA
13204,Onondaga County,NY,NA,NA,NA,76.77100494233937,NA
13207,Onondaga County,NY,NA,NA,32.073170731707314,NA,NA
13210,Onondaga County,NY,NA,NA,36.70731707317073,NA,NA
13212,Onondaga County,NY,NA,NA,NA,79.73640856672158,NA
13323,Oneida County,NY,NA,96.95290858725761,NA,NA,NA
13365,Herkimer County,NY,NA,NA,NA,30.807248764415156,NA
13367,Lewis County,NY,NA,NA,NA,58.319604612850085,NA
13440,Oneida County,NY,NA,NA,2.073170731707317,NA,NA
13492,Oneida County,NY,NA,NA,82.4390243902439,NA,NA
13601,Jefferson County,NY,9.925558312655088,NA,4.634146341463414,NA,NA
13753,Delaware County,NY,NA,NA,NA,70.67545304777595,NA
13778,Chenango County,NY,NA,NA,NA,74.13509060955519,NA
13815,Chenango County,NY,NA,NA,NA,61.94398682042833,NA
13820,Otsego County,NY,NA,NA,NA,NA,17.898832684824903
13830,Chenango County,NY,NA,NA,NA,NA,71.98443579766537
13850,Broome County,NY,NA,NA,63.170731707317074,NA,NA
14202,Erie County,NY,NA,NA,81.09756097560977,NA,NA
14206,Erie County,NY,NA,48.199445983379505,15.609756097560975,NA,NA
14213,Erie County,NY,NA,NA,21.463414634146343,NA,NA
14214,Erie County,NY,32.754342431761785,NA,NA,70.18121911037892,NA
14215,Erie County,NY,8.6848635235732,NA,NA,NA,NA
14221,Erie County,NY,NA,NA,40.243902439024396,NA,NA
14222,Erie County,NY,NA,NA,53.29268292682927,NA,NA
14224,Erie County,NY,NA,NA,5.853658536585367,NA,NA
14420,Monroe County,NY,NA,NA,17.317073170731707,69.02800658978583,NA
14424,Ontario County,NY,NA,NA,2.804878048780488,10.70840197693575,NA
14425,Ontario County,NY,NA,NA,19.146341463414636,NA,NA
14435,Livingston County,NY,NA,NA,95.24390243902438,NA,NA
14445,Monroe County,NY,NA,NA,39.87804878048781,NA,NA
14454,Livingston County,NY,NA,NA,70.60975609756098,NA,NA
14468,Monroe County,NY,NA,NA,19.390243902439025,20.098846787479406,NA
14512,Ontario County,NY,NA,NA,72.92682926829268,NA,NA
14513,Wayne County,NY,NA,NA,65.3658536585366,NA,NA
14514,Monroe County,NY,NA,NA,NA,77.59472817133442,NA
14527,Yates County,NY,NA,NA,NA,57.001647446457994,NA
14543,Monroe County,NY,NA,NA,NA,90.28006589785832,NA
14551,Wayne County,NY,NA,NA,47.3170731707317,NA,NA
14580,Monroe County,NY,NA,NA,NA,0.4942339373970346,NA
14586,Monroe County,NY,30.76923076923077,NA,NA,NA,NA
14606,Monroe County,NY,NA,NA,34.02439024390244,NA,NA
14608,Monroe County,NY,NA,81.7174515235457,NA,NA,NA
14609,Monroe County,NY,NA,NA,24.51219512195122,NA,NA
14610,Monroe County,NY,NA,NA,31.097560975609756,NA,NA
14611,Monroe County,NY,NA,NA,60.48780487804878,NA,NA
14616,Monroe County,NY,NA,NA,NA,NA,30.35019455252918
14620,Monroe County,NY,NA,NA,28.04878048780488,NA,NA
14621,Monroe County,NY,NA,NA,26.82926829268293,NA,NA
14624,Monroe County,NY,20.34739454094293,NA,NA,3.789126853377265,NA
14701,Chautauqua County,NY,NA,NA,NA,17.1334431630972,NA
14741,Cattaraugus County,NY,NA,NA,NA,98.68204283360791,NA
14823,Steuben County,NY,NA,NA,NA,NA,97.66536964980544
14867,Tompkins County,NY,NA,NA,60.24390243902439,NA,NA
14870,Steuben County,NY,92.05955334987593,NA,NA,NA,NA
14879,Steuben County,NY,NA,NA,99.14634146341463,NA,NA
14892,Tioga County,NY,NA,NA,49.02439024390244,50.0823723228995,NA
27006,Davie County,NC,NA,NA,NA,24.382207578253706,NA
27030,Surry County,NC,4.962779156327544,NA,NA,NA,NA
27104,Forsyth County,NC,98.26302729528535,NA,NA,NA,NA
27105,Forsyth County,NC,19.851116625310176,NA,54.51219512195122,NA,NA
27106,Forsyth County,NC,NA,55.124653739612185,15.487804878048781,21.25205930807249,NA
27127,Forsyth County,NC,NA,24.099722991689752,NA,NA,NA
27205,Randolph County,NC,50.12406947890818,62.32686980609419,70.97560975609755,NA,NA
27217,Alamance County,NC,NA,NA,15.365853658536585,NA,NA
27235,Guilford County,NC,100,NA,NA,NA,NA
27249,Guilford County,NC,NA,NA,NA,NA,67.70428015564202
27263,Randolph County,NC,73.44913151364764,NA,NA,NA,70.8171206225681
27278,Orange County,NC,NA,NA,NA,NA,19.06614785992218
27292,Davidson County,NC,NA,18.282548476454295,NA,NA,NA
27295,Davidson County,NC,NA,NA,NA,4.2833607907743,NA
27360,Davidson County,NC,NA,NA,3.902439024390244,NA,NA
27410,Guilford County,NC,NA,NA,62.4390243902439,80.39538714991762,NA
27455,Guilford County,NC,NA,NA,NA,46.62273476112026,NA
27501,Harnett County,NC,NA,NA,NA,43.32784184514003,NA
27514,Orange County,NC,NA,NA,57.92682926829268,NA,NA
27516,Orange County,NC,NA,NA,NA,13.179571663920923,NA
27534,Wayne County,NC,NA,NA,35.731707317073166,NA,NA
27536,Vance County,NC,NA,58.448753462603875,NA,NA,NA
27541,Person County,NC,NA,NA,NA,100,NA
27545,Wake County,NC,NA,88.64265927977839,NA,NA,NA
27572,Person County,NC,NA,NA,NA,91.43327841845141,NA
27573,Person County,NC,NA,NA,44.63414634146341,NA,NA
27597,Wake County,NC,NA,NA,48.78048780487805,NA,NA
27603,Wake County,NC,14.1439205955335,NA,23.414634146341466,NA,NA
27604,Wake County,NC,NA,NA,33.90243902439025,NA,NA
27612,Wake County,NC,NA,NA,NA,37.067545304777596,NA
27613,Wake County,NC,NA,NA,48.170731707317074,NA,NA
27614,Wake County,NC,NA,NA,NA,64.74464579901154,NA
27703,Durham County,NC,NA,NA,67.8048780487805,11.202635914332784,NA
27704,Durham County,NC,NA,NA,58.048780487804876,NA,NA
27705,Durham County,NC,NA,NA,NA,NA,57.58754863813229
27707,Durham County,NC,NA,NA,14.268292682926829,NA,NA
27712,Durham County,NC,87.34491315136476,NA,NA,38.5502471169687,NA
27713,Durham County,NC,75.93052109181141,NA,55.487804878048784,NA,NA
27831,Northampton County,NC,NA,NA,NA,98.02306425041186,NA
27855,Hertford County,NC,NA,87.81163434903047,NA,NA,NA
27870,Halifax County,NC,NA,NA,53.90243902439025,28.171334431630974,NA
27892,Martin County,NC,NA,NA,46.21951219512195,NA,NA
27909,Pasquotank County,NC,NA,NA,14.75609756097561,13.344316309719934,NA
27983,Bertie County,NC,NA,NA,51.21951219512195,81.21911037891269,NA
28012,Gaston County,NC,NA,NA,60.731707317073166,NA,NA
28056,Gaston County,NC,NA,73.40720221606648,NA,NA,NA
28083,Cabarrus County,NC,NA,NA,60.853658536585364,NA,NA
28103,Union County,NC,NA,NA,75.73170731707317,NA,NA
28104,Union County,NC,NA,NA,NA,NA,52.52918287937744
28139,Rutherford County,NC,NA,NA,NA,52.05930807248764,NA
28144,Rowan County,NC,NA,NA,NA,30.14827018121911,NA
28146,Rowan County,NC,NA,NA,NA,70.84019769357496,NA
28147,Rowan County,NC,61.29032258064516,NA,NA,NA,NA
28173,Union County,NC,NA,NA,NA,NA,42.4124513618677
28174,Union County,NC,NA,NA,NA,97.36408566721582,NA
28208,Mecklenburg County,NC,NA,13.29639889196676,NA,NA,NA
28212,Mecklenburg County,NC,16.87344913151365,NA,NA,NA,NA
28213,Mecklenburg County,NC,NA,NA,27.926829268292686,NA,NA
28215,Mecklenburg County,NC,NA,NA,17.195121951219512,18.616144975288304,NA
28311,Cumberland County,NC,79.4044665012407,NA,NA,NA,NA
28358,Robeson County,NC,NA,NA,18.170731707317074,NA,NA
28360,Robeson County,NC,99.0074441687345,NA,NA,55.6836902800659,NA
28401,New Hanover County,NC,NA,32.13296398891966,NA,NA,NA
28411,New Hanover County,NC,NA,NA,37.5609756097561,NA,NA
28412,New Hanover County,NC,36.47642679900744,NA,NA,NA,NA
28468,Brunswick County,NC,NA,NA,NA,85.831960461285007,NA
28479,Brunswick County,NC,88.83374689826302,NA,NA,NA,NA
28584,Carteret County,NC,NA,71.46814404432132,NA,NA,NA
28630,Caldwell County,NC,NA,NA,33.29268292682927,NA,NA
28642,Yadkin County,NC,NA,NA,83.41463414634146,NA,NA
28655,Burke County,NC,NA,NA,5.975609756097561,NA,NA
28677,Iredell County,NC,NA,NA,17.560975609756095,NA,NA
28712,Transylvania County,NC,NA,NA,NA,34.2668863261944,NA
28713,Swain County,NC,NA,NA,NA,53.87149917627677,NA
28731,Henderson County,NC,NA,NA,NA,74.2998352553542,NA
28792,Henderson County,NC,47.64267990074442,NA,NA,NA,NA
28904,Clay County,NC,NA,NA,88.04878048780488,NA,NA
58072,Barnes County,ND,NA,NA,NA,NA,69.64980544747081
58329,Rolette County,ND,NA,NA,95.60975609756098,NA,NA
58501,Burleigh County,ND,NA,NA,NA,NA,11.284046692607005
58504,Burleigh County,ND,NA,NA,NA,NA,20.622568093385212
58703,Ward County,ND,NA,NA,NA,40.691927512355846,NA
43004,Franklin County,OH,19.602977667493796,NA,NA,NA,NA
43040,Union County,OH,NA,NA,NA,77.42998352553542,NA
43055,Licking County,OH,NA,NA,NA,1.3179571663920924,NA
43068,Franklin County,OH,NA,0.8310249307479225,NA,NA,NA
43113,Pickaway County,OH,NA,NA,16.34146341463415,NA,NA
43147,Fairfield County,OH,NA,NA,55.487804878048784,NA,NA
43203,Franklin County,OH,NA,63.43490304709142,NA,NA,NA
43204,Franklin County,OH,37.96526054590571,NA,NA,NA,NA
43205,Franklin County,OH,NA,17.174515235457065,NA,NA,NA
43206,Franklin County,OH,NA,67.03601108033241,NA,NA,NA
43213,Franklin County,OH,33.25062034739454,NA,11.219512195121952,NA,NA
43219,Franklin County,OH,NA,2.4930747922437675,NA,NA,NA
43220,Franklin County,OH,NA,NA,NA,46.12850082372323,NA
43224,Franklin County,OH,NA,NA,6.219512195121951,NA,NA
43227,Franklin County,OH,2.729528535980149,13.850415512465375,NA,NA,NA
43228,Franklin County,OH,3.970223325062035,10.80332409972299,NA,NA,NA
43231,Franklin County,OH,NA,6.094182825484765,NA,NA,NA
43232,Franklin County,OH,NA,11.634349030470915,NA,NA,NA
43311,Logan County,OH,NA,NA,NA,33.60790774299836,NA
43402,Wood County,OH,NA,59.83379501385041,23.04878048780488,NA,NA
43450,Wood County,OH,97.27047146401985,NA,NA,NA,NA
43452,Ottawa County,OH,NA,31.301939058171747,NA,NA,NA
43526,Defiance County,OH,51.1166253101737,NA,NA,NA,NA
43545,Henry County,OH,NA,49.307479224376735,62.5609756097561,NA,NA
43560,Lucas County,OH,NA,65.92797783933518,NA,NA,NA
43609,Lucas County,OH,34.49131513647642,NA,42.073170731707314,NA,NA
43612,Lucas County,OH,NA,NA,40.609756097560975,NA,NA
43615,Lucas County,OH,NA,NA,NA,5.107084019769357,NA
43701,Muskingum County,OH,0.49627791563275436,NA,NA,NA,NA
43723,Guernsey County,OH,NA,NA,60,NA,NA
43812,Coshocton County,OH,NA,73.9612188365651,NA,NA,NA
43830,Muskingum County,OH,88.58560794044665,NA,NA,NA,NA
43912,Belmont County,OH,NA,NA,NA,45.634266886326195,NA
43920,Columbiana County,OH,NA,NA,NA,10.378912685337728,NA
43950,Belmont County,OH,NA,NA,40.853658536585364,NA,NA
43952,Jefferson County,OH,50.37220843672456,NA,NA,NA,NA
44004,Ashtabula County,OH,23.573200992555833,NA,2.317073170731707,NA,15.56420233463035
44011,Lorain County,OH,NA,NA,76.21951219512195,24.052718286655683,NA
44022,Cuyahoga County,OH,64.51612903225806,NA,NA,NA,NA
44024,Geauga County,OH,NA,NA,NA,44.64579901153213,NA
44028,Lorain County,OH,NA,NA,NA,95.38714991762768,NA
44030,Ashtabula County,OH,NA,NA,NA,88.79736408566721,NA
44041,Ashtabula County,OH,NA,NA,NA,77.92421746293246,NA
44052,Lorain County,OH,NA,NA,NA,17.792421746293247,NA
44054,Lorain County,OH,NA,NA,89.51219512195122,NA,NA
44055,Lorain County,OH,NA,NA,10,NA,NA
44057,Lake County,OH,NA,NA,29.756097560975608,NA,NA
44067,Summit County,OH,NA,NA,NA,NA,14.007782101167315
44070,Cuyahoga County,OH,NA,NA,54.146341463414636,NA,NA
44090,Lorain County,OH,NA,NA,58.292682926829265,NA,NA
44094,Lake County,OH,NA,NA,NA,NA,2.3346303501945527
44104,Cuyahoga County,OH,43.17617866004963,6.64819944598338,NA,19.769357495881383,NA
44105,Cuyahoga County,OH,NA,13.573407202216067,63.048780487804876,19.27512355848435,NA
44106,Cuyahoga County,OH,NA,NA,37.4390243902439,NA,NA
44107,Cuyahoga County,OH,NA,7.202216066481995,15.24390243902439,NA,NA
44108,Cuyahoga County,OH,NA,NA,18.902439024390244,NA,NA
44109,Cuyahoga County,OH,NA,0.554016620498615,0.6097560975609756,2.800658978583196,NA
44110,Cuyahoga County,OH,NA,NA,11.097560975609756,NA,NA
44111,Cuyahoga County,OH,NA,NA,NA,19.43986820428336,NA
44112,Cuyahoga County,OH,NA,NA,NA,5.2718286655683695,NA
44116,Cuyahoga County,OH,NA,NA,NA,26.194398682042834,NA
44119,Cuyahoga County,OH,NA,NA,50.853658536585364,NA,NA
44120,Cuyahoga County,OH,NA,NA,90.48780487804878,NA,41.63424124513619
44121,Cuyahoga County,OH,NA,NA,10.853658536585366,13.01482701812191,NA
44123,Cuyahoga County,OH,NA,NA,29.024390243902438,NA,NA
44124,Cuyahoga County,OH,NA,NA,NA,82.53706754530478,NA
44125,Cuyahoga County,OH,44.91315136476427,NA,NA,NA,NA
44128,Cuyahoga County,OH,11.910669975186105,4.7091412742382275,18.536585365853657,NA,NA
44129,Cuyahoga County,OH,NA,NA,NA,NA,21.011673151750973
44130,Cuyahoga County,OH,23.076923076923077,5.263157894736842,NA,24.546952224052717,NA
44134,Cuyahoga County,OH,NA,NA,8.902439024390244,NA,NA
44135,Cuyahoga County,OH,NA,36.288088642659275,NA,NA,NA
44137,Cuyahoga County,OH,91.81141439205956,NA,NA,67.87479406919276,NA
44138,Cuyahoga County,OH,67.99007444168734,NA,NA,81.05436573311367,NA
44140,Cuyahoga County,OH,NA,NA,NA,60.29654036243822,NA
44144,Cuyahoga County,OH,18.11414392059553,NA,NA,51.565074135090605,NA
44145,Cuyahoga County,OH,NA,NA,NA,25.700164744645797,NA
44203,Summit County,OH,NA,NA,NA,8.731466227347612,9.72762645914397
44221,Summit County,OH,NA,NA,NA,17.298187808896213,NA
44233,Medina County,OH,NA,NA,NA,78.25370675453048,NA
44236,Summit County,OH,NA,65.37396121883657,NA,NA,NA
44241,Portage County,OH,NA,48.476454293628805,NA,NA,NA
44255,Portage County,OH,NA,NA,NA,44.3163097199341,NA
44256,Medina County,OH,NA,NA,84.8780487804878,NA,NA
44266,Portage County,OH,12.655086848635236,56.50969529085873,NA,NA,NA
44305,Summit County,OH,28.53598014888337,NA,43.41463414634146,34.92586490939045,NA
44306,Summit County,OH,NA,8.033240997229916,NA,32.12520593080725,NA
44310,Summit County,OH,NA,18.282548476454295,67.5609756097561,NA,NA
44314,Summit County,OH,NA,34.07202216066482,89.14634146341463,NA,NA
44321,Summit County,OH,68.4863523573201,58.448753462603875,NA,NA,73.15175097276264
44406,Mahoning County,OH,NA,NA,52.926829268292686,NA,NA
44413,Columbiana County,OH,NA,NA,NA,NA,98.44357976653697
44483,Trumbull County,OH,12.158808933002481,NA,NA,NA,NA
44505,Mahoning County,OH,NA,NA,32.4390243902439,NA,NA
44509,Mahoning County,OH,NA,NA,43.292682926829265,NA,NA
44512,Mahoning County,OH,NA,NA,67.07317073170732,NA,NA
44622,Tuscarawas County,OH,38.21339950372209,NA,NA,NA,NA
44646,Stark County,OH,NA,NA,10.975609756097562,NA,20.233463035019454
44657,Stark County,OH,NA,62.880886426592795,NA,NA,NA
44663,Tuscarawas County,OH,18.858560794044664,30.193905817174517,14.878048780487804,NA,NA
44667,Wayne County,OH,79.65260545905707,NA,NA,NA,NA
44672,Mahoning County,OH,95.53349875930522,NA,NA,NA,NA
44683,Tuscarawas County,OH,65.01240694789082,NA,NA,NA,NA
44691,Wayne County,OH,NA,14.127423822714682,NA,NA,NA
44705,Stark County,OH,NA,26.31578947368421,NA,NA,NA
44805,Ashland County,OH,NA,46.53739612188366,NA,NA,NA
44820,Crawford County,OH,28.78411910669975,NA,NA,NA,NA
44839,Erie County,OH,NA,NA,NA,NA,33.07392996108949
44870,Erie County,OH,NA,58.17174515235457,1.951219512195122,NA,NA
44883,Seneca County,OH,NA,NA,19.75609756097561,NA,NA
44904,Richland County,OH,NA,NA,NA,82.37232289950576,NA
44907,Richland County,OH,NA,NA,NA,28.500823723228997,NA
45002,Hamilton County,OH,NA,NA,NA,NA,89.10505836575877
45005,Warren County,OH,NA,NA,NA,47.61120263591433,NA
45011,Butler County,OH,NA,13.019390581717452,NA,NA,NA
45014,Butler County,OH,NA,NA,NA,NA,21.78988326848249
45039,Warren County,OH,51.61290322580645,NA,NA,NA,NA
45056,Butler County,OH,NA,NA,NA,69.19275123558485,NA
45066,Warren County,OH,34.7394540942928,NA,NA,NA,NA
45123,Highland County,OH,NA,NA,62.073170731707314,NA,NA
45157,Clermont County,OH,NA,NA,76.95121951219512,NA,NA
45171,Brown County,OH,NA,99.445983379501385,NA,NA,NA
45206,Hamilton County,OH,NA,56.232686980609415,NA,NA,NA
45209,Hamilton County,OH,NA,NA,NA,NA,96.10894941634241
45211,Hamilton County,OH,NA,NA,10.487804878048781,NA,NA
45212,Hamilton County,OH,NA,37.119113573407205,NA,NA,NA
45213,Hamilton County,OH,NA,NA,73.90243902439025,NA,NA
45216,Hamilton County,OH,NA,NA,55.00000000000001,NA,NA
45219,Hamilton County,OH,NA,NA,96.46341463414633,NA,NA
45225,Hamilton County,OH,NA,78.1163434903047,NA,NA,NA
45229,Hamilton County,OH,NA,22.99168975069252,NA,84.84349258649094,NA
45231,Hamilton County,OH,7.444168734491314,NA,8.780487804878048,NA,NA
45232,Hamilton County,OH,NA,NA,NA,98.18780889621087,NA
45236,Hamilton County,OH,NA,NA,50.73170731707317,43.163097199341024,NA
45237,Hamilton County,OH,NA,NA,NA,22.57001647446458,NA
45238,Hamilton County,OH,NA,11.080332409972298,NA,NA,NA
45240,Hamilton County,OH,NA,NA,57.3170731707317,NA,NA
45248,Hamilton County,OH,NA,NA,52.31707317073171,NA,NA
45251,Hamilton County,OH,NA,NA,NA,NA,44.3579766536965
45305,Greene County,OH,NA,NA,NA,76.60626029654037,NA
45320,Preble County,OH,NA,100,NA,NA,NA
45344,Clark County,OH,39.950372208436725,NA,NA,NA,NA
45417,Montgomery County,OH,NA,37.95013850415512,33.41463414634146,NA,NA
45420,Montgomery County,OH,NA,NA,27.80487804878049,NA,NA
45426,Montgomery County,OH,NA,26.59279778393352,NA,NA,NA
45601,Ross County,OH,NA,NA,NA,21.581548599670512,NA
45614,Gallia County,OH,NA,76.73130193905817,NA,NA,NA
45638,Lawrence County,OH,12.40694789081886,NA,NA,4.612850082372323,NA
45648,Scioto County,OH,NA,43.21329639889196,25.365853658536587,NA,NA
45692,Jackson County,OH,NA,21.329639889196674,NA,NA,NA
45693,Adams County,OH,NA,NA,47.5609756097561,NA,NA
45714,Washington County,OH,NA,NA,NA,16.639209225700164,NA
45750,Washington County,OH,NA,NA,NA,0.6589785831960462,17.120622568093385
45810,Hardin County,OH,NA,NA,89.63414634146342,NA,NA
45840,Hancock County,OH,NA,NA,18.414634146341463,NA,NA
73045,Oklahoma County,OK,NA,NA,NA,62.27347611202636,NA
73071,Cleveland County,OK,33.7468982630273,NA,NA,NA,NA
73099,Canadian County,OK,15.88089330024814,NA,NA,NA,NA
73130,Oklahoma County,OK,NA,NA,60.12195121951219,NA,NA
73501,Comanche County,OK,NA,NA,54.63414634146342,NA,NA
73533,Stephens County,OK,NA,NA,NA,13.673805601317957,NA
73701,Garfield County,OK,NA,NA,45.487804878048784,NA,NA
73703,Garfield County,OK,NA,NA,77.19512195121952,NA,NA
74127,Tulsa County,OK,NA,NA,NA,61.28500823723228,NA
74701,Bryan County,OK,NA,50.69252077562327,NA,NA,NA
74728,McCurtain County,OK,NA,NA,95.36585365853658,NA,NA
74745,McCurtain County,OK,NA,NA,NA,78.91268533772653,NA
74820,Pontotoc County,OK,NA,NA,9.146341463414634,NA,NA
74848,Hughes County,OK,NA,94.45983379501385,NA,NA,NA
74948,Sequoyah County,OK,NA,NA,61.70731707317073,NA,NA
74960,Adair County,OK,NA,NA,27.5609756097561,NA,NA
97008,Washington County,OR,NA,NA,79.63414634146342,NA,NA
97035,Clackamas County,OR,87.84119106699751,NA,NA,NA,NA
97080,Multnomah County,OR,NA,NA,NA,NA,38.13229571984436
97206,Multnomah County,OR,NA,NA,15.975609756097562,NA,NA
97230,Multnomah County,OR,60.297766749379655,NA,NA,NA,NA
97303,Marion County,OR,NA,NA,41.34146341463414,NA,NA
97317,Marion County,OR,NA,NA,70.73170731707317,NA,NA
97321,Linn County,OR,NA,NA,NA,81.71334431630972,NA
97333,Benton County,OR,NA,NA,65.60975609756098,NA,NA
97411,Coos County,OR,NA,NA,NA,63.75617792421746,NA
97462,Douglas County,OR,NA,NA,92.19512195121952,NA,NA
97471,Douglas County,OR,NA,NA,NA,30.31301482701812,NA
97601,Klamath County,OR,25.31017369727047,NA,NA,NA,NA
97603,Klamath County,OR,NA,NA,21.829268292682926,NA,NA
97630,Lake County,OR,NA,NA,99.26829268292683,NA,NA
15001,Beaver County,PA,NA,74.23822714681441,NA,NA,NA
15012,Westmoreland County,PA,57.07196029776674,NA,NA,NA,NA
15024,Allegheny County,PA,88.33746898263027,NA,NA,NA,NA
15066,Beaver County,PA,NA,NA,88.53658536585365,NA,NA
15147,Allegheny County,PA,NA,50.69252077562327,NA,NA,NA
15207,Allegheny County,PA,NA,NA,57.4390243902439,NA,NA
15210,Allegheny County,PA,NA,NA,62.19512195121951,NA,NA
15221,Allegheny County,PA,NA,NA,NA,NA,90.27237354085604
15234,Allegheny County,PA,NA,NA,96.34146341463415,NA,NA
15239,Allegheny County,PA,NA,NA,NA,61.12026359143328,NA
15478,Fayette County,PA,NA,NA,67.92682926829269,NA,NA
15701,Indiana County,PA,52.605459057071954,NA,NA,NA,NA
15834,Cameron County,PA,NA,NA,84.26829268292683,NA,NA
15906,Cambria County,PA,NA,NA,79.26829268292683,NA,NA
16117,Lawrence County,PA,NA,NA,NA,43.65733113673805,NA
16201,Armstrong County,PA,NA,NA,NA,57.166392092257,NA
16424,Crawford County,PA,NA,NA,NA,90.11532125205932,NA
16506,Erie County,PA,69.23076923076923,NA,NA,NA,NA
16652,Huntingdon County,PA,NA,NA,80.97560975609757,NA,NA
16701,McKean County,PA,NA,NA,19.26829268292683,NA,22.957198443579767
16749,McKean County,PA,NA,NA,89.26829268292683,NA,NA
16823,Centre County,PA,NA,NA,NA,16.30971993410214,NA
16866,Centre County,PA,NA,NA,61.21951219512195,NA,NA
17013,Cumberland County,PA,20.099255583126553,NA,NA,NA,NA
17018,Dauphin County,PA,97.76674937965261,NA,NA,NA,NA
17036,Dauphin County,PA,23.82133995037221,NA,NA,12.191103789126853,NA
17044,Mifflin County,PA,NA,NA,59.756097560975604,7.907742998352553,NA
17046,Lebanon County,PA,NA,NA,11.341463414634147,NA,NA
17057,Dauphin County,PA,NA,NA,NA,16.80395387149918,NA
17074,Perry County,PA,NA,NA,66.46341463414635,NA,NA
17078,Lebanon County,PA,7.94044665012407,NA,NA,NA,NA
17103,Dauphin County,PA,NA,NA,68.90243902439023,NA,NA
17104,Dauphin County,PA,13.647642679900745,NA,NA,NA,NA
17201,Franklin County,PA,NA,NA,12.317073170731707,NA,NA
17316,Adams County,PA,NA,96.39889196675901,NA,NA,NA
17324,Cumberland County,PA,83.62282878411911,NA,NA,NA,NA
17345,York County,PA,NA,NA,NA,68.20428336079077,NA
17362,York County,PA,78.66004962779157,NA,NA,NA,NA
17404,York County,PA,48.883374689826304,NA,NA,NA,NA
17522,Lancaster County,PA,NA,NA,26.707317073170735,NA,NA
17552,Lancaster County,PA,NA,NA,NA,86.65568369028006,NA
17557,Lancaster County,PA,NA,90.58171745152355,NA,NA,NA
17603,Lancaster County,PA,NA,NA,35.48780487804878,NA,NA
17701,Lycoming County,PA,NA,NA,NA,NA,9.33852140077821
17751,Clinton County,PA,NA,NA,NA,73.47611202635915,NA
17756,Lycoming County,PA,NA,NA,71.58536585365853,NA,NA
17866,Northumberland County,PA,NA,NA,NA,53.212520593080725,NA
17872,Northumberland County,PA,NA,NA,NA,NA,52.14007782101168
17948,Schuylkill County,PA,NA,NA,NA,92.9159802306425,NA
18032,Lehigh County,PA,NA,NA,79.75609756097562,NA,NA
18051,Lehigh County,PA,97.27047146401985,NA,NA,NA,NA
18055,Northampton County,PA,NA,NA,87.07317073170732,NA,NA
18360,Monroe County,PA,NA,NA,NA,60.79077429983526,NA
18444,Lackawanna County,PA,NA,NA,80.3658536585366,NA,NA
18634,Luzerne County,PA,NA,NA,42.80487804878049,NA,NA
18640,Luzerne County,PA,NA,NA,NA,31.13673805601318,NA
18940,Bucks County,PA,NA,NA,NA,39.70345963756178,NA
18951,Bucks County,PA,NA,NA,67.4390243902439,NA,NA
18966,Bucks County,PA,NA,NA,NA,NA,13.229571984435799
18976,Bucks County,PA,NA,NA,NA,83.19604612850083,NA
19002,Montgomery County,PA,NA,NA,38.170731707317074,NA,NA
19014,Delaware County,PA,NA,76.45429362880887,NA,NA,NA
19030,Bucks County,PA,NA,NA,74.7560975609756,65.07413509060956,NA
19032,Delaware County,PA,NA,NA,NA,NA,98.0544747081712
19038,Montgomery County,PA,57.81637717121588,NA,NA,NA,NA
19040,Montgomery County,PA,NA,NA,NA,42.833607907743,NA
19046,Montgomery County,PA,NA,NA,NA,91.92751235584844,NA
19050,Delaware County,PA,NA,NA,30.24390243902439,NA,NA
19060,Delaware County,PA,NA,NA,NA,72.48764415156508,NA
19070,Delaware County,PA,NA,NA,NA,88.30313014827018,NA
19072,Montgomery County,PA,59.553349875930515,NA,NA,NA,NA
19082,Delaware County,PA,15.384615384615385,NA,NA,NA,NA
19090,Montgomery County,PA,NA,NA,74.26829268292683,71.82866556836903,NA
19104,Philadelphia County,PA,NA,NA,NA,17.627677100494235,NA
19116,Philadelphia County,PA,NA,NA,NA,NA,28.404669260700388
19121,Philadelphia County,PA,NA,NA,10.365853658536585,NA,NA
19122,Philadelphia County,PA,NA,NA,45.36585365853659,NA,NA
19124,Philadelphia County,PA,NA,3.8781163434903045,NA,NA,NA
19129,Philadelphia County,PA,NA,NA,NA,60.46128500823723,NA
19134,Philadelphia County,PA,NA,12.465373961218837,NA,NA,NA
19135,Philadelphia County,PA,NA,16.897506925207757,NA,35.584843492586494,NA
19138,Philadelphia County,PA,NA,37.396121883656505,14.634146341463413,NA,NA
19139,Philadelphia County,PA,9.67741935483871,NA,NA,NA,NA
19142,Philadelphia County,PA,NA,49.584487534626035,NA,NA,NA
19143,Philadelphia County,PA,NA,NA,1.097560975609756,NA,NA
19145,Philadelphia County,PA,NA,NA,NA,12.026359143327841,NA
19147,Philadelphia County,PA,NA,NA,20.609756097560975,NA,NA
19148,Philadelphia County,PA,NA,NA,9.390243902439025,NA,NA
19149,Philadelphia County,PA,NA,NA,8.170731707317074,NA,NA
19335,Chester County,PA,47.8908188585608,NA,NA,NA,NA
19352,Chester County,PA,NA,NA,84.51219512195122,NA,NA
19355,Chester County,PA,NA,NA,NA,40.527182866556835,NA
19382,Chester County,PA,78.41191066997519,NA,NA,NA,NA
19401,Montgomery County,PA,NA,NA,NA,21.087314662273478,NA
19426,Montgomery County,PA,NA,NA,35.36585365853659,NA,NA
19462,Montgomery County,PA,NA,NA,NA,65.23887973640856,NA
19522,Berks County,PA,30.52109181141439,NA,NA,NA,NA
19601,Berks County,PA,NA,6.9252077562326875,NA,NA,NA
19604,Berks County,PA,68.23821339950372,NA,NA,NA,NA
19605,Berks County,PA,NA,NA,31.951219512195124,NA,NA
19606,Berks County,PA,NA,NA,NA,5.436573311367381,NA
19611,Berks County,PA,83.62282878411911,NA,NA,NA,NA
02860,Providence County,RI,NA,NA,NA,12.520593080724876,NA
02864,Providence County,RI,NA,NA,27.5609756097561,NA,NA
02889,Kent County,RI,24.81389578163772,NA,NA,NA,NA
02893,Kent County,RI,NA,NA,36.58536585365854,NA,NA
02895,Providence County,RI,NA,NA,NA,24.87644151565074,NA
02907,Providence County,RI,81.6377171215881,NA,NA,NA,50.97276264591439
29020,Kershaw County,SC,NA,NA,63.78048780487805,32.61943986820428,NA
29033,Lexington County,SC,93.30024813895783,NA,NA,NA,NA
29078,Kershaw County,SC,NA,NA,NA,NA,77.04280155642024
29115,Orangeburg County,SC,90.81885856079404,NA,NA,NA,NA
29223,Richland County,SC,NA,NA,NA,56.672158154859964,NA
29303,Spartanburg County,SC,NA,NA,NA,NA,54.86381322957199
29306,Spartanburg County,SC,NA,85.0415512465374,NA,NA,NA
29325,Laurens County,SC,NA,NA,52.07317073170732,NA,NA
29349,Spartanburg County,SC,NA,NA,57.195121951219505,NA,NA
29360,Laurens County,SC,NA,NA,NA,90.60955518945634,NA
29401,Charleston County,SC,NA,NA,NA,NA,73.15175097276264
29403,Charleston County,SC,NA,55.95567867036011,NA,NA,NA
29407,Charleston County,SC,23.82133995037221,NA,NA,NA,NA
29420,Dorchester County,SC,NA,50.69252077562327,46.463414634146346,NA,NA
29492,Berkeley County,SC,NA,NA,NA,97.03459637561778,NA
29501,Florence County,SC,NA,NA,91.46341463414635,NA,NA
29512,Marlboro County,SC,NA,NA,52.80487804878049,NA,NA
29568,Horry County,SC,NA,NA,NA,56.83690280065898,NA
29605,Greenville County,SC,NA,59.2797783933518,NA,NA,NA
29615,Greenville County,SC,NA,NA,57.68292682926829,NA,NA
29673,Greenville County,SC,NA,NA,39.63414634146341,NA,NA
29687,Greenville County,SC,NA,NA,NA,21.911037891268535,NA
29702,Cherokee County,SC,86.35235732009926,NA,NA,NA,NA
29732,York County,SC,NA,NA,NA,NA,23.73540856031128
29803,Aiken County,SC,NA,NA,NA,9.555189456342669,NA
29841,Aiken County,SC,NA,40.443213296398895,NA,NA,NA
29842,Aiken County,SC,NA,77.5623268698061,NA,NA,NA
29910,Beaufort County,SC,NA,NA,NA,80.88962108731467,NA
57069,Clay County,SD,NA,NA,83.53658536585365,NA,NA
57103,Minnehaha County,SD,10.421836228287841,NA,NA,NA,56.42023346303502
57106,Minnehaha County,SD,NA,NA,23.78048780487805,NA,NA
57108,Lincoln County,SD,NA,NA,NA,50.41186161449753,NA
57110,Minnehaha County,SD,NA,NA,NA,73.14662273476112,NA
57719,Pennington County,SD,NA,NA,NA,48.92915980230643,NA
37043,Montgomery County,TN,NA,NA,NA,20.922570016474467,NA
37066,Sumner County,TN,NA,NA,11.829268292682926,NA,NA
37174,Williamson County,TN,NA,NA,NA,36.57331136738056,NA
37204,Davidson County,TN,NA,NA,NA,92.25700164744646,NA
37206,Davidson County,TN,NA,NA,34.512195121951216,NA,NA
37208,Davidson County,TN,NA,NA,NA,56.34266886326195,NA
37303,McMinn County,TN,40.44665012406948,NA,NA,NA,NA
37322,Meigs County,TN,NA,93.35180055401662,NA,NA,NA
37329,McMinn County,TN,NA,NA,NA,87.47940691927512,NA
37377,Hamilton County,TN,NA,NA,NA,NA,80.93385214007782
37388,Coffee County,TN,NA,NA,NA,41.35090609555189,NA
37421,Hamilton County,TN,NA,NA,29.39024390243902,NA,NA
37754,Anderson County,TN,NA,NA,NA,NA,93.3852140077821
37766,Campbell County,TN,NA,NA,66.70731707317074,NA,NA
37801,Blount County,TN,NA,NA,NA,NA,33.85214007782101
37879,Claiborne County,TN,NA,NA,50.48780487804878,NA,NA
37920,Knox County,TN,NA,NA,13.048780487804878,NA,NA
38012,Haywood County,TN,NA,NA,75.1219512195122,NA,NA
38106,Shelby County,TN,NA,34.903047091412745,NA,NA,NA
38109,Shelby County,TN,NA,NA,NA,NA,32.68482490272373
38112,Shelby County,TN,59.30521091811415,NA,NA,NA,NA
38127,Shelby County,TN,NA,NA,10.609756097560975,NA,NA
38134,Shelby County,TN,NA,NA,37.926829268292686,NA,NA
38382,Gibson County,TN,NA,NA,74.8780487804878,NA,NA
75009,Collin County,TX,NA,NA,NA,85.33772652388797,NA
75010,Denton County,TX,NA,NA,NA,NA,78.98832684824903
75013,Collin County,TX,NA,NA,84.6341463414634,NA,NA
75019,Dallas County,TX,48.38709677419355,NA,NA,NA,NA
75028,Denton County,TX,NA,NA,NA,36.07907742998353,NA
75034,Denton County,TX,NA,NA,38.65853658536585,NA,NA
75040,Dallas County,TX,NA,28.80886426592798,NA,NA,NA
75041,Dallas County,TX,NA,31.301939058171747,NA,NA,NA
75050,Dallas County,TX,NA,NA,42.3170731707317,NA,NA
75061,Dallas County,TX,NA,65.65096952908587,NA,NA,76.65369649805449
75063,Dallas County,TX,NA,82.82548476454294,NA,NA,NA
75067,Denton County,TX,NA,28.254847645429365,NA,NA,NA
75104,Dallas County,TX,NA,NA,NA,27.677100494233937,NA
75110,Navarro County,TX,84.863523573201,24.37673130193906,NA,NA,NA
75115,Dallas County,TX,NA,32.96398891966759,NA,NA,NA
75125,Ellis County,TX,NA,NA,97.92682926829268,NA,NA
75134,Dallas County,TX,40.94292803970223,NA,NA,NA,NA
75159,Dallas County,TX,71.46401985111662,NA,67.19512195121952,NA,NA
75211,Dallas County,TX,NA,NA,21.341463414634145,NA,NA
75216,Dallas County,TX,NA,34.62603878116344,NA,81.38385502471169,NA
75220,Dallas County,TX,NA,85.59556786703601,NA,NA,NA
75228,Dallas County,TX,NA,9.97229916897507,NA,NA,NA
75231,Dallas County,TX,NA,NA,45,NA,NA
75233,Dallas County,TX,77.66749379652606,NA,NA,NA,NA
75237,Dallas County,TX,NA,NA,72.80487804878048,NA,NA
75287,Denton County,TX,21.09181141439206,NA,NA,NA,NA
75497,Wood County,TX,NA,NA,98.65853658536585,NA,NA
75551,Cass County,TX,NA,NA,NA,73.80560131795717,NA
75602,Gregg County,TX,NA,NA,80.1219512195122,NA,NA
75638,Morris County,TX,76.92307692307693,NA,NA,NA,NA
75647,Gregg County,TX,NA,NA,NA,NA,68.8715953307393
75650,Harrison County,TX,74.68982630272953,NA,NA,NA,NA
75654,Rusk County,TX,NA,74.23822714681441,NA,NA,NA
75707,Smith County,TX,NA,81.16343490304709,NA,NA,NA
75762,Smith County,TX,NA,NA,NA,NA,53.69649805447471
75773,Wood County,TX,70.47146401985111,NA,NA,NA,NA
75791,Smith County,TX,NA,NA,NA,41.51565074135091,NA
76014,Tarrant County,TX,NA,NA,NA,43.82207578253707,NA
76021,Tarrant County,TX,NA,81.99445983379502,NA,NA,NA
76052,Tarrant County,TX,54.3424317617866,NA,NA,NA,NA
76063,Tarrant County,TX,NA,NA,44.26829268292683,NA,NA
76103,Tarrant County,TX,NA,64.54293628808865,NA,NA,NA
76119,Tarrant County,TX,NA,NA,8.536585365853659,NA,NA
76120,Tarrant County,TX,NA,58.448753462603875,NA,NA,NA
76131,Tarrant County,TX,47.146401985111666,NA,NA,NA,NA
76134,Tarrant County,TX,NA,NA,28.292682926829265,NA,NA
76135,Tarrant County,TX,NA,NA,NA,59.96705107084019,NA
76164,Tarrant County,TX,NA,NA,68.17073170731707,97.52883031301482,NA
76384,Wilbarger County,TX,NA,NA,NA,53.70675453047776,NA
76442,Comanche County,TX,NA,NA,85.1219512195122,NA,NA
76501,Bell County,TX,79.15632754342433,NA,NA,NA,NA
76502,Bell County,TX,41.687344913151364,NA,62.926829268292686,NA,NA
76504,Bell County,TX,NA,NA,37.19512195121951,NA,NA
76542,Bell County,TX,NA,20.498614958448755,NA,NA,NA
76548,Bell County,TX,NA,NA,NA,96.70510708401977,NA
76549,Bell County,TX,32.50620347394541,NA,NA,61.779242174629324,NA
76557,McLennan County,TX,95.28535980148884,NA,NA,NA,NA
76574,Williamson County,TX,NA,NA,NA,NA,12.45136186770428
76705,McLennan County,TX,77.41935483870968,NA,NA,NA,NA
76712,McLennan County,TX,23.82133995037221,NA,NA,NA,55.6420233463035
77015,Harris County,TX,19.106699751861044,NA,NA,NA,NA
77021,Harris County,TX,NA,NA,NA,65.56836902800659,NA
77023,Harris County,TX,NA,NA,NA,60.62602965403624,NA
77059,Harris County,TX,NA,NA,NA,55.18945634266886,NA
77061,Harris County,TX,NA,57.61772853185596,NA,NA,NA
77065,Harris County,TX,68.73449131513648,NA,NA,NA,NA
77071,Harris County,TX,NA,NA,NA,56.01317957166392,NA
77077,Harris County,TX,NA,NA,NA,NA,38.91050583657588
77080,Harris County,TX,NA,NA,NA,NA,61.08949416342413
77086,Harris County,TX,21.339950372208435,NA,NA,NA,NA
77090,Harris County,TX,NA,34.903047091412745,NA,NA,NA
77354,Montgomery County,TX,25.55831265508685,NA,NA,NA,NA
77356,Montgomery County,TX,NA,NA,64.75609756097562,NA,NA
77379,Harris County,TX,NA,NA,26.585365853658537,NA,NA
77385,Montgomery County,TX,NA,NA,59.390243902439025,NA,NA
77414,Matagorda County,TX,80.39702233250621,NA,NA,NA,NA
77429,Harris County,TX,NA,NA,91.34146341463415,NA,NA
77441,Fort Bend County,TX,NA,NA,NA,75.45304777594728,NA
77449,Harris County,TX,4.466501240694789,3.32409972299169,NA,NA,NA
77489,Fort Bend County,TX,NA,NA,31.585365853658537,NA,NA
77510,Galveston County,TX,62.779156327543426,NA,61.829268292682926,NA,NA
77539,Galveston County,TX,NA,15.512465373961218,NA,NA,35.019455252918284
77551,Galveston County,TX,NA,NA,NA,72.8171334431631,NA
77554,Galveston County,TX,NA,NA,NA,43.49258649093905,NA
77562,Harris County,TX,67.24565756823822,NA,NA,NA,NA
77568,Galveston County,TX,NA,NA,34.8780487804878,NA,NA
77573,Galveston County,TX,2.2332506203473943,NA,NA,NA,NA
77586,Harris County,TX,NA,NA,NA,59.637561779242176,NA
77627,Jefferson County,TX,NA,NA,69.8780487804878,NA,NA
77833,Washington County,TX,NA,NA,NA,58.154859967051074,NA
77845,Brazos County,TX,NA,81.99445983379502,NA,NA,NA
77879,Burleson County,TX,NA,NA,93.90243902439023,64.41515650741351,NA
78016,Medina County,TX,NA,NA,87.8048780487805,NA,NA
78130,Comal County,TX,NA,NA,NA,20.59308072487644,NA
78201,Bexar County,TX,NA,26.038781163434905,NA,NA,NA
78207,Bexar County,TX,4.218362282878412,NA,NA,NA,NA
78225,Bexar County,TX,91.06699751861042,NA,NA,NA,NA
78227,Bexar County,TX,53.84615384615385,NA,NA,NA,NA
78244,Bexar County,TX,42.92803970223325,NA,NA,71.66392092257001,NA
78249,Bexar County,TX,NA,91.96675900277008,NA,NA,NA
78332,Jim Wells County,TX,NA,24.653739612188367,NA,NA,NA
78363,Kleberg County,TX,NA,72.57617728531855,NA,NA,NA
78380,Nueces County,TX,NA,NA,NA,NA,85.60311284046692
78411,Nueces County,TX,NA,93.90581717451524,NA,NA,NA
78504,Hidalgo County,TX,NA,NA,NA,NA,61.478599221789885
78521,Cameron County,TX,NA,NA,33.048780487804876,NA,NA
78566,Cameron County,TX,92.55583126550869,NA,NA,NA,NA
78582,Starr County,TX,NA,NA,92.5609756097561,NA,NA
78606,Blanco County,TX,NA,NA,99.7560975609756,NA,NA
78633,Williamson County,TX,NA,NA,NA,NA,3.501945525291829
78645,Travis County,TX,NA,NA,NA,NA,89.49416342412452
78660,Travis County,TX,NA,NA,73.53658536585365,NA,NA
78665,Williamson County,TX,NA,NA,NA,26.523887973640857,NA
78852,Maverick County,TX,30.76923076923077,NA,NA,NA,NA
78861,Medina County,TX,NA,NA,76.09756097560975,NA,NA
79108,Potter County,TX,67.74193548387096,NA,NA,NA,NA
79331,Dawson County,TX,NA,NA,68.65853658536587,NA,NA
79403,Lubbock County,TX,NA,NA,76.58536585365854,NA,NA
79424,Lubbock County,TX,NA,NA,NA,NA,19.45525291828794
79603,Taylor County,TX,NA,NA,31.341463414634145,NA,NA
79605,Taylor County,TX,NA,NA,NA,NA,25.680933852140075
79705,Midland County,TX,NA,NA,NA,31.630971993410213,NA
79720,Howard County,TX,NA,NA,50.24390243902439,NA,NA
79835,El Paso County,TX,NA,93.62880886426593,NA,NA,NA
79907,El Paso County,TX,NA,NA,38.53658536585366,NA,NA
84003,Utah County,UT,NA,NA,43.41463414634146,NA,NA
84040,Davis County,UT,NA,NA,74.02439024390245,80.0658978583196,NA
84058,Utah County,UT,NA,NA,NA,79.07742998352553,NA
84065,Salt Lake County,UT,NA,NA,90.1219512195122,NA,NA
84084,Salt Lake County,UT,NA,NA,NA,90.44481054365733,NA
84094,Salt Lake County,UT,NA,NA,NA,44.15156507413509,NA
84120,Salt Lake County,UT,10.669975186104217,NA,NA,NA,NA
84321,Cache County,UT,NA,NA,65.73170731707317,NA,NA
84403,Weber County,UT,NA,NA,NA,57.49588138385503,NA
84404,Weber County,UT,NA,NA,NA,36.40856672158155,NA
84601,Utah County,UT,NA,NA,70,NA,NA
05091,Windsor County,VT,NA,NA,NA,NA,79.37743190661479
05478,Franklin County,VT,72.95285359801488,NA,NA,NA,NA
05495,Chittenden County,VT,NA,NA,NA,58.6490939044481,NA
20147,Loudoun County,VA,NA,NA,NA,50.24711696869851,NA
20190,Fairfax County,VA,NA,NA,81.21951219512195,NA,NA
20191,Fairfax County,VA,58.80893300248139,NA,NA,NA,NA
22030,Fairfax County,VA,NA,NA,61.46341463414634,NA,NA
22031,Fairfax County,VA,NA,NA,62.80487804878049,NA,NA
22042,Fairfax County,VA,NA,49.03047091412742,NA,NA,NA
22203,Arlington County,VA,NA,94.73684210526315,NA,NA,NA
22308,Fairfax County,VA,NA,NA,NA,NA,57.97665369649806
22309,Fairfax County,VA,13.151364764267989,NA,NA,NA,NA
22405,Stafford County,VA,NA,NA,NA,48.43492586490939,NA
22551,Spotsylvania County,VA,NA,NA,59.14634146341463,NA,NA
22553,Spotsylvania County,VA,NA,NA,NA,NA,94.16342412451361
22556,Stafford County,VA,NA,NA,69.7560975609756,NA,NA
22601,Winchester city,VA,NA,83.37950138504155,NA,NA,NA
22657,Shenandoah County,VA,NA,87.81163434903047,NA,NA,NA
22802,Harrisonburg city,VA,NA,NA,25.24390243902439,NA,NA
22815,Rockingham County,VA,NA,NA,NA,84.1845140032949,NA
22851,Page County,VA,NA,NA,NA,57.825370675453044,NA
22901,Albemarle County,VA,NA,NA,64.14634146341463,NA,NA
22902,Charlottesville city,VA,NA,NA,NA,62.60296540362438,NA
22980,Waynesboro city,VA,NA,38.78116343490305,NA,NA,NA
23060,Henrico County,VA,NA,NA,NA,NA,88.715953307393
23075,Henrico County,VA,NA,NA,82.1951219512195,75.7825370675453,NA
23120,Chesterfield County,VA,NA,NA,94.39024390243902,NA,NA
23185,James City County,VA,NA,NA,NA,NA,0.7782101167315175
23188,James City County,VA,NA,NA,NA,NA,1.1673151750972763
23220,Richmond city,VA,NA,60.387811634349035,NA,NA,NA
23222,Richmond city,VA,NA,NA,NA,27.347611202635914,NA
23223,Henrico County,VA,NA,81.4404432132964,NA,NA,NA
23224,Richmond city,VA,NA,NA,12.560975609756097,NA,NA
23235,Chesterfield County,VA,NA,NA,NA,NA,59.143968871595334
23238,Henrico County,VA,NA,NA,95.1219512195122,NA,NA
23320,Chesapeake city,VA,NA,38.227146814404435,NA,NA,NA
23321,Chesapeake city,VA,NA,NA,46.58536585365854,NA,75.09727626459144
23324,Chesapeake city,VA,NA,NA,41.09756097560975,NA,NA
23430,Isle of Wight County,VA,NA,NA,NA,NA,39.688715953307394
23435,Suffolk city,VA,NA,45.42936288088642,NA,NA,NA
23451,Virginia Beach city,VA,NA,NA,NA,15.650741350906095,NA
23453,Virginia Beach city,VA,NA,NA,NA,33.77265238879736,NA
23454,Virginia Beach city,VA,NA,NA,NA,58.97858319604613,29.571984435797667
23455,Virginia Beach city,VA,NA,NA,NA,NA,36.186770428015564
23456,Virginia Beach city,VA,NA,NA,NA,9.71993410214168,NA
23464,Virginia Beach city,VA,NA,NA,NA,22.240527182866558,NA
23508,Norfolk city,VA,NA,NA,73.04878048780488,NA,NA
23602,Newport News city,VA,16.129032258064516,NA,NA,NA,NA
23666,Hampton city,VA,NA,NA,NA,NA,37.7431906614786
23669,Hampton city,VA,NA,NA,NA,14.662273476112025,NA
23693,York County,VA,NA,NA,NA,90.77429983525536,NA
23701,Portsmouth city,VA,NA,NA,46.95121951219512,NA,NA
23707,Portsmouth city,VA,NA,44.59833795013851,51.58536585365854,NA,NA
23803,Petersburg city,VA,NA,22.99168975069252,NA,NA,NA
23901,Prince Edward County,VA,NA,NA,NA,NA,63.81322957198443
24015,Roanoke city,VA,NA,NA,NA,NA,73.92996108949417
24016,Roanoke city,VA,NA,NA,NA,73.64085667215815,NA
24017,Roanoke city,VA,31.5136476426799,47.091412742382275,NA,NA,NA
24211,Washington County,VA,NA,NA,NA,NA,69.26070038910505
24279,Wise County,VA,99.50372208436724,NA,NA,NA,NA
24343,Carroll County,VA,NA,NA,97.80487804878048,NA,NA
24401,Staunton city,VA,NA,NA,12.926829268292684,NA,NA
24450,Rockbridge County,VA,NA,NA,NA,48.59967051070841,NA
24531,Pittsylvania County,VA,92.3076923076923,NA,NA,75.94728171334431,NA
24592,Halifax County,VA,89.33002481389578,NA,NA,NA,NA
98003,King County,WA,NA,NA,30.365853658536583,NA,NA
98020,Snohomish County,WA,NA,NA,NA,NA,34.63035019455253
98022,King County,WA,67.4937965260546,NA,NA,NA,NA
98023,King County,WA,NA,NA,26.951219512195124,NA,NA
98031,King County,WA,NA,NA,NA,46.29324546952224,NA
98042,King County,WA,NA,NA,19.024390243902438,NA,26.07003891050584
98072,King County,WA,NA,NA,NA,50.57660626029654,NA
98102,King County,WA,NA,NA,NA,93.08072487644151,NA
98104,King County,WA,NA,NA,NA,36.902800658978585,NA
98121,King County,WA,NA,NA,92.07317073170732,NA,NA
98126,King County,WA,NA,NA,58.65853658536585,NA,NA
98177,King County,WA,NA,NA,NA,78.74794069192751,NA
98223,Snohomish County,WA,NA,NA,25.975609756097562,NA,NA
98249,Island County,WA,NA,NA,NA,80.23064250411862,NA
98270,Snohomish County,WA,NA,NA,21.097560975609756,NA,NA
98273,Skagit County,WA,NA,65.09695290858726,NA,NA,NA
98274,Skagit County,WA,NA,NA,NA,NA,68.09338521400778
98331,Clallam County,WA,92.80397022332507,NA,NA,NA,NA
98362,Clallam County,WA,NA,NA,35.12195121951219,NA,NA
98366,Kitsap County,WA,NA,NA,25.609756097560975,NA,NA
98367,Kitsap County,WA,65.75682382133995,NA,NA,NA,NA
98382,Clallam County,WA,NA,NA,NA,NA,1.9455252918287937
98391,Pierce County,WA,NA,NA,91.09756097560975,13.838550247116968,NA
98405,Pierce County,WA,28.03970223325062,NA,NA,NA,NA
98443,Pierce County,WA,NA,NA,NA,NA,98.83268482490273
98466,Pierce County,WA,39.45409429280397,NA,NA,NA,NA
98498,Pierce County,WA,NA,NA,NA,49.093904448105434,NA
98579,Thurston County,WA,NA,NA,NA,71.49917627677101,NA
98626,Cowlitz County,WA,NA,NA,43.78048780487805,NA,NA
98631,Pacific County,WA,NA,NA,NA,86.32619439868205,NA
98632,Cowlitz County,WA,NA,NA,NA,6.095551894563426,NA
98926,Kittitas County,WA,NA,NA,51.707317073170735,NA,NA
99005,Spokane County,WA,NA,NA,91.82926829268293,NA,NA
99201,Spokane County,WA,NA,NA,NA,NA,77.431906614786
99207,Spokane County,WA,NA,NA,48.90243902439024,NA,NA
99223,Spokane County,WA,NA,NA,NA,95.05766062602964,NA
99336,Benton County,WA,NA,NA,NA,2.471169686985173,NA
99352,Benton County,WA,27.04714640198511,NA,NA,NA,4.669260700389105
20001,District of Columbia,DC,NA,NA,22.5609756097561,NA,NA
20002,District of Columbia,DC,NA,80.33240997229917,NA,NA,NA
25015,Kanawha County,WV,NA,NA,NA,86.82042833607908,NA
25312,Kanawha County,WV,NA,NA,NA,89.9505766062603,NA
25314,Kanawha County,WV,69.4789081885856,NA,NA,NA,NA
25413,Berkeley County,WV,NA,NA,78.90243902439025,NA,NA
25701,Cabell County,WV,NA,NA,17.804878048780488,NA,NA
26187,Wood County,WV,NA,NA,66.09756097560975,NA,NA
26362,Ritchie County,WV,NA,98.61495844875347,NA,NA,NA
26501,Monongalia County,WV,NA,NA,47.80487804878049,NA,NA
26505,Monongalia County,WV,NA,NA,NA,32.45469522240527,NA
26508,Monongalia County,WV,40.198511166253105,NA,NA,NA,NA
26554,Marion County,WV,NA,NA,40.487804878048784,1.9769357495881383,NA
53045,Waukesha County,WI,NA,NA,93.29268292682927,NA,NA
53083,Sheboygan County,WI,NA,75.90027700831024,NA,NA,NA
53089,Waukesha County,WI,NA,NA,62.5609756097561,NA,NA
53090,Washington County,WI,NA,NA,61.46341463414634,NA,NA
53092,Ozaukee County,WI,NA,NA,NA,NA,15.953307392996107
53095,Washington County,WI,NA,NA,49.8780487804878,NA,28.793774319066145
53105,Racine County,WI,NA,NA,NA,69.68698517298188,33.46303501945525
53142,Kenosha County,WI,61.53846153846154,NA,11.463414634146343,NA,NA
53147,Walworth County,WI,NA,NA,NA,NA,53.30739299610895
53154,Milwaukee County,WI,NA,NA,NA,NA,35.797665369649806
53172,Milwaukee County,WI,NA,NA,37.31707317073171,67.71004942339374,NA
53179,Kenosha County,WI,54.59057071960298,96.95290858725761,NA,NA,NA
53184,Walworth County,WI,NA,NA,NA,92.42174629324546,NA
53185,Racine County,WI,NA,NA,55.85365853658537,NA,NA
53204,Milwaukee County,WI,11.41439205955335,NA,NA,NA,NA
53205,Milwaukee County,WI,NA,NA,2.5609756097560976,NA,NA
53206,Milwaukee County,WI,11.662531017369728,35.45706371191136,NA,NA,NA
53208,Milwaukee County,WI,NA,NA,NA,26.85337726523888,NA
53209,Milwaukee County,WI,NA,NA,2.4390243902439024,47.1169686985173,NA
53210,Milwaukee County,WI,NA,43.21329639889196,NA,NA,NA
53211,Milwaukee County,WI,94.04466501240695,NA,NA,70.51070840197694,NA
53212,Milwaukee County,WI,NA,NA,16.463414634146343,NA,NA
53214,Milwaukee County,WI,NA,NA,13.414634146341465,NA,NA
53215,Milwaukee County,WI,NA,NA,5,NA,NA
53216,Milwaukee County,WI,NA,93.07479224376732,NA,NA,NA
53218,Milwaukee County,WI,4.962779156327544,NA,7.317073170731707,NA,NA
53219,Milwaukee County,WI,NA,NA,19.51219512195122,NA,NA
53221,Milwaukee County,WI,NA,72.85318559556787,NA,NA,NA
53222,Milwaukee County,WI,41.935483870967744,39.612188365650965,NA,NA,NA
53225,Milwaukee County,WI,32.25806451612903,NA,NA,NA,NA
53235,Milwaukee County,WI,NA,NA,84.7560975609756,NA,NA
53402,Racine County,WI,7.196029776674938,NA,NA,19.110378912685338,NA
53406,Racine County,WI,7.6923076923076925,NA,NA,3.6243822075782535,NA
53527,Dane County,WI,80.64516129032258,NA,NA,NA,NA
53546,Rock County,WI,NA,NA,NA,43.986820428336074,NA
53566,Green County,WI,NA,NA,49.63414634146341,NA,NA
53589,Dane County,WI,NA,NA,NA,33.44316309719934,NA
53590,Dane County,WI,17.121588089330025,NA,NA,NA,NA
53593,Dane County,WI,85.11166253101737,NA,NA,NA,NA
53704,Dane County,WI,NA,NA,12.439024390243903,NA,NA
53705,Dane County,WI,NA,NA,NA,NA,14.396887159533073
53719,Dane County,WI,NA,NA,53.53658536585366,NA,NA
54001,Polk County,WI,NA,NA,49.75609756097561,NA,NA
54024,Polk County,WI,NA,NA,94.8780487804878,NA,NA
54121,Florence County,WI,99.25558312655087,NA,NA,NA,NA
54166,Shawano County,WI,NA,NA,NA,92.09225700164745,NA
54216,Kewaunee County,WI,NA,NA,NA,98.5172981878089,NA
54313,Brown County,WI,NA,NA,89.39024390243902,NA,NA
54451,Taylor County,WI,NA,NA,82.07317073170731,NA,NA
54601,La Crosse County,WI,NA,NA,8.292682926829269,NA,5.836575875486381
54636,La Crosse County,WI,NA,NA,NA,45.30477759472817,NA
54868,Barron County,WI,NA,NA,NA,84.01976935749587,NA
54880,Douglas County,WI,0.7444168734491315,NA,NA,NA,NA
54901,Winnebago County,WI,NA,NA,28.65853658536585,NA,NA
54904,Winnebago County,WI,NA,NA,NA,86.9851729818781,NA
54935,Fond du Lac County,WI,NA,NA,NA,NA,7.782101167315175
54983,Waupaca County,WI,NA,NA,84.39024390243902,NA,NA
82718,Campbell County,WY,NA,NA,55.365853658536594,NA,NA
