ZipCode,county,state,Youth,Adult,Retirement
35125,St. Clair County,AL,NA,44.60916442048518,NA
35208,Jefferson County,AL,74.45255474452554,NA,NA
35212,Jefferson County,AL,NA,NA,93.31395348837209
35473,Tuscaloosa County,AL,NA,94.07008086253369,NA
35501,Walker County,AL,60.58394160583942,NA,NA
35503,Walker County,AL,87.95620437956204,53.908355795148246,NA
35622,Morgan County,AL,70.8029197080292,86.25336927223721,NA
35749,Madison County,AL,NA,NA,46.80232558139535
36066,Autauga County,AL,NA,39.892183288409704,NA
36092,Elmore County,AL,NA,34.36657681940701,NA
36107,Montgomery County,AL,NA,90.70080862533693,NA
36110,Montgomery County,AL,45.25547445255474,NA,NA
36323,Coffee County,AL,NA,61.45552560646901,NA
36420,Covington County,AL,NA,68.73315363881402,NA
36441,Escambia County,AL,NA,96.3611859838275,NA
36445,Monroe County,AL,89.41605839416059,89.62264150943396,NA
36551,Baldwin County,AL,NA,64.6900269541779,NA
36605,Mobile County,AL,51.45985401459854,29.110512129380055,NA
36607,Mobile County,AL,NA,72.77628032345014,NA
36610,Mobile County,AL,NA,49.46091644204852,NA
36867,Russell County,AL,NA,78.84097035040432,NA
99502,Anchorage Municipality,AK,NA,39.083557951482476,87.20930232558139
99611,Kenai Peninsula Borough,AK,62.40875912408759,NA,NA
85041,Maricopa County,AZ,NA,5.929919137466308,NA
85118,Pinal County,AZ,93.43065693430657,NA,NA
85122,Pinal County,AZ,NA,5.795148247978436,NA
85204,Maricopa County,AZ,NA,9.568733153638814,NA
85249,Maricopa County,AZ,NA,62.3989218328841,NA
85350,Yuma County,AZ,NA,95.28301886792453,NA
85379,Maricopa County,AZ,NA,20.619946091644206,NA
85641,Pima County,AZ,NA,46.22641509433962,NA
86511,Apache County,AZ,NA,95.55256064690026,NA
72002,Saline County,AR,NA,56.334231805929925,NA
72020,White County,AR,NA,NA,87.5
72032,Faulkner County,AR,NA,28.57142857142857,NA
72209,Pulaski County,AR,NA,39.75741239892183,NA
72472,Poinsett County,AR,NA,70.75471698113208,NA
72631,Carroll County,AR,NA,NA,96.51162790697676
72764,Washington County,AR,NA,27.088948787061994,NA
90007,Los Angeles County,CA,NA,19.541778975741238,NA
90018,Los Angeles County,CA,NA,71.5633423180593,NA
90022,Los Angeles County,CA,NA,70.08086253369272,NA
90047,Los Angeles County,CA,NA,10.512129380053908,NA
90069,Los Angeles County,CA,NA,41.77897574123989,NA
90621,Orange County,CA,NA,45.68733153638814,55.81395348837209
90638,Los Angeles County,CA,NA,42.857142857142854,NA
90706,Los Angeles County,CA,NA,NA,34.593023255813954
90713,Los Angeles County,CA,NA,54.71698113207547,NA
90731,Los Angeles County,CA,24.817518248175183,NA,NA
90808,Los Angeles County,CA,NA,45.55256064690027,NA
91016,Los Angeles County,CA,NA,82.21024258760107,NA
91207,Los Angeles County,CA,94.52554744525547,NA,NA
91311,Los Angeles County,CA,NA,86.79245283018868,NA
91331,Los Angeles County,CA,NA,29.649595687331537,NA
91402,Los Angeles County,CA,NA,47.97843665768194,NA
91406,Los Angeles County,CA,95.98540145985402,38.94878706199461,NA
91605,Los Angeles County,CA,NA,63.342318059299195,NA
91706,Los Angeles County,CA,NA,62.129380053908356,NA
91723,Los Angeles County,CA,NA,NA,76.74418604651163
91732,Los Angeles County,CA,NA,NA,29.360465116279073
91763,San Bernardino County,CA,NA,52.2911051212938,NA
91766,Los Angeles County,CA,NA,72.911051212938,NA
91768,Los Angeles County,CA,NA,31.40161725067385,NA
91901,San Diego County,CA,NA,51.34770889487871,NA
91910,San Diego County,CA,NA,16.9811320754717,NA
91911,San Diego County,CA,NA,44.20485175202156,NA
91950,San Diego County,CA,NA,25.87601078167116,NA
91977,San Diego County,CA,NA,24.797843665768195,NA
92019,San Diego County,CA,NA,NA,67.73255813953489
92020,San Diego County,CA,36.496350364963504,NA,NA
92025,San Diego County,CA,NA,NA,47.383720930232556
92026,San Diego County,CA,NA,42.58760107816711,NA
92057,San Diego County,CA,NA,44.339622641509436,NA
92064,San Diego County,CA,35.4014598540146,NA,NA
92069,San Diego County,CA,NA,55.929919137466314,NA
92071,San Diego County,CA,44.16058394160584,NA,NA
92102,San Diego County,CA,NA,27.49326145552561,NA
92123,San Diego County,CA,33.941605839416056,95.14824797843666,65.98837209302324
92240,Riverside County,CA,NA,42.18328840970351,NA
92301,San Bernardino County,CA,NA,22.776280323450134,NA
92354,San Bernardino County,CA,NA,92.99191374663073,NA
92391,San Bernardino County,CA,NA,99.46091644204851,NA
92392,San Bernardino County,CA,10.583941605839415,NA,NA
92404,San Bernardino County,CA,NA,NA,27.325581395348834
92410,San Bernardino County,CA,72.62773722627736,NA,NA
92501,Riverside County,CA,82.84671532846716,NA,NA
92503,Riverside County,CA,34.306569343065696,NA,NA
92505,Riverside County,CA,NA,NA,45.05813953488372
92506,Riverside County,CA,NA,58.490566037735846,NA
92509,Riverside County,CA,15.693430656934307,59.299191374663074,NA
92544,Riverside County,CA,NA,NA,41.56976744186046
92553,Riverside County,CA,NA,47.7088948787062,78.48837209302324
92563,Riverside County,CA,21.532846715328464,NA,NA
92595,Riverside County,CA,42.33576642335766,NA,NA
92627,Orange County,CA,40.14598540145985,NA,NA
92647,Orange County,CA,NA,42.45283018867924,NA
92701,Orange County,CA,NA,83.55795148247978,NA
92805,Orange County,CA,NA,17.38544474393531,NA
92840,Orange County,CA,NA,65.90296495956873,NA
92843,Orange County,CA,NA,84.36657681940702,NA
92870,Orange County,CA,83.94160583941606,NA,NA
92879,Riverside County,CA,NA,66.17250673854448,NA
92880,Riverside County,CA,NA,42.318059299191376,NA
93250,Kern County,CA,NA,83.01886792452831,NA
93291,Tulare County,CA,NA,14.824797843665769,NA
93420,San Luis Obispo County,CA,NA,NA,40.98837209302326
93453,San Luis Obispo County,CA,NA,100,NA
93535,Los Angeles County,CA,NA,6.46900269541779,NA
93637,Madera County,CA,NA,93.66576819407008,NA
93722,Fresno County,CA,NA,6.199460916442049,11.627906976744185
93905,Monterey County,CA,87.59124087591242,NA,NA
94062,San Mateo County,CA,NA,NA,44.47674418604651
94066,San Mateo County,CA,NA,32.74932614555256,NA
94080,San Mateo County,CA,NA,NA,5.232558139534884
94403,San Mateo County,CA,NA,NA,99.70930232558139
94533,Solano County,CA,40.51094890510949,NA,NA
94545,Alameda County,CA,NA,NA,62.2093023255814
94568,Alameda County,CA,90.14598540145985,NA,NA
94577,Alameda County,CA,55.839416058394164,26.010781671159027,31.976744186046513
94588,Alameda County,CA,NA,89.21832884097036,NA
94591,Solano County,CA,NA,53.77358490566038,NA
95070,Santa Clara County,CA,NA,85.98382749326146,NA
95123,Santa Clara County,CA,NA,27.358490566037734,NA
95205,San Joaquin County,CA,51.82481751824818,NA,NA
95210,San Joaquin County,CA,NA,NA,54.06976744186046
95219,San Joaquin County,CA,NA,79.38005390835579,NA
95258,San Joaquin County,CA,83.94160583941606,NA,NA
95340,Merced County,CA,NA,NA,97.67441860465115
95348,Merced County,CA,NA,NA,96.80232558139535
95368,Stanislaus County,CA,75.18248175182481,NA,NA
95409,Sonoma County,CA,NA,73.04582210242587,NA
95476,Sonoma County,CA,NA,NA,33.43023255813954
95821,Sacramento County,CA,12.408759124087592,74.7978436657682,29.069767441860467
95965,Butte County,CA,NA,12.264150943396226,NA
80027,Boulder County,CO,64.96350364963503,NA,NA
80120,Arapahoe County,CO,NA,NA,43.31395348837209
80124,Douglas County,CO,60.21897810218978,NA,NA
80465,Jefferson County,CO,68.24817518248175,76.1455525606469,NA
80501,Boulder County,CO,30.656934306569344,NA,NA
80631,Weld County,CO,8.02919708029197,NA,NA
80734,Phillips County,CO,91.6058394160584,NA,NA
80904,El Paso County,CO,74.08759124087592,NA,NA
80909,El Paso County,CO,NA,16.307277628032345,NA
81003,Pueblo County,CO,NA,54.851752021563335,NA
81052,Prowers County,CO,NA,73.45013477088949,NA
81101,Alamosa County,CO,NA,NA,49.41860465116279
06032,Hartford County,CT,NA,94.33962264150944,NA
06035,Hartford County,CT,NA,89.75741239892183,NA
06037,Hartford County,CT,NA,81.40161725067385,NA
06040,Hartford County,CT,69.34306569343066,6.738544474393531,NA
06051,Hartford County,CT,NA,13.746630727762804,NA
06095,Hartford County,CT,NA,58.086253369272235,NA
06106,Hartford County,CT,NA,30.862533692722373,NA
06109,Hartford County,CT,NA,51.75202156334232,NA
06111,Hartford County,CT,35.03649635036496,27.897574123989216,NA
06405,New Haven County,CT,NA,30.59299191374663,NA
06416,Middlesex County,CT,NA,80.05390835579514,65.11627906976744
06450,New Haven County,CT,NA,3.7735849056603774,NA
06482,Fairfield County,CT,90.87591240875912,NA,NA
06488,New Haven County,CT,NA,NA,75
06489,Hartford County,CT,NA,51.21293800539084,NA
06514,New Haven County,CT,NA,24.663072776280323,NA
06708,New Haven County,CT,NA,42.99191374663073,NA
06712,New Haven County,CT,99.63503649635037,NA,NA
06790,Litchfield County,CT,NA,NA,15.11627906976744
06810,Fairfield County,CT,NA,10.377358490566039,NA
06831,Fairfield County,CT,79.56204379562044,NA,NA
19701,New Castle County,DE,28.102189781021895,18.733153638814017,NA
19702,New Castle County,DE,NA,10.242587601078167,NA
19803,New Castle County,DE,NA,NA,44.18604651162791
19808,New Castle County,DE,NA,15.363881401617252,NA
19934,Kent County,DE,94.16058394160584,NA,NA
19947,Sussex County,DE,NA,NA,37.5
19958,Sussex County,DE,71.53284671532847,NA,NA
19977,Kent County,DE,NA,15.768194070080863,NA
32117,Volusia County,FL,NA,NA,70.34883720930233
32137,Flagler County,FL,NA,NA,4.941860465116279
32207,Duval County,FL,NA,37.6010781671159,NA
32244,Duval County,FL,NA,3.638814016172507,NA
32277,Duval County,FL,83.21167883211679,NA,NA
32308,Leon County,FL,NA,60.64690026954178,NA
32407,Bay County,FL,NA,74.25876010781671,NA
32547,Okaloosa County,FL,NA,NA,47.093023255813954
32565,Santa Rosa County,FL,91.24087591240875,NA,NA
32609,Alachua County,FL,NA,75.2021563342318,70.05813953488372
32796,Brevard County,FL,NA,39.35309973045822,NA
32819,Orange County,FL,56.934306569343065,NA,NA
32909,Brevard County,FL,NA,28.706199460916444,NA
33015,Miami-Dade County,FL,NA,NA,86.33720930232558
33060,Broward County,FL,NA,26.549865229110516,NA
33144,Miami-Dade County,FL,NA,NA,59.59302325581395
33170,Miami-Dade County,FL,NA,71.83288409703505,NA
33173,Miami-Dade County,FL,NA,69.81132075471697,NA
33183,Miami-Dade County,FL,NA,66.17250673854448,NA
33189,Miami-Dade County,FL,NA,77.76280323450135,NA
33305,Broward County,FL,NA,NA,92.44186046511628
33326,Broward County,FL,65.69343065693431,NA,NA
33527,Hillsborough County,FL,NA,73.04582210242587,NA
33584,Hillsborough County,FL,NA,69.2722371967655,NA
33619,Hillsborough County,FL,NA,25.067385444743934,NA
33765,Pinellas County,FL,NA,61.32075471698113,NA
33772,Pinellas County,FL,NA,65.49865229110512,NA
33905,Lee County,FL,NA,NA,21.22093023255814
34114,Collier County,FL,NA,69.94609164420486,NA
34135,Lee County,FL,NA,37.19676549865229,NA
34461,Citrus County,FL,NA,NA,77.03488372093024
34470,Marion County,FL,NA,38.14016172506739,NA
34473,Marion County,FL,NA,36.79245283018868,NA
34652,Pasco County,FL,NA,30.32345013477089,NA
34945,St. Lucie County,FL,NA,98.78706199460916,NA
30033,DeKalb County,GA,NA,70.35040431266847,NA
30084,DeKalb County,GA,NA,50.26954177897574,56.97674418604651
30141,Paulding County,GA,63.138686131386855,78.03234501347708,NA
30176,Haralson County,GA,NA,69.13746630727763,NA
30260,Clayton County,GA,NA,NA,56.395348837209305
30276,Coweta County,GA,83.57664233576642,NA,NA
30286,Upson County,GA,NA,NA,70.93023255813954
30312,Fulton County,GA,75.18248175182481,NA,NA
30319,DeKalb County,GA,NA,79.64959568733153,NA
30341,DeKalb County,GA,89.41605839416059,87.6010781671159,NA
30345,DeKalb County,GA,NA,95.4177897574124,68.02325581395348
30471,Emanuel County,GA,NA,NA,96.22093023255815
30606,Clarke County,GA,NA,NA,68.8953488372093
30710,Whitfield County,GA,NA,83.69272237196765,NA
30809,Columbia County,GA,27.00729927007299,25.741239892183287,NA
30813,Columbia County,GA,NA,52.42587601078167,36.91860465116279
30901,Richmond County,GA,NA,NA,91.27906976744185
30906,Richmond County,GA,NA,51.34770889487871,4.069767441860465
30909,Richmond County,GA,NA,18.059299191374663,NA
31014,Bleckley County,GA,NA,71.15902964959568,NA
31061,Baldwin County,GA,NA,64.82479784366578,NA
31204,Bibb County,GA,NA,NA,25.290697674418606
31313,Liberty County,GA,NA,52.695417789757414,NA
31419,Chatham County,GA,NA,23.450134770889488,NA
31503,Ware County,GA,NA,NA,79.36046511627907
31602,Lowndes County,GA,NA,26.68463611859838,NA
31721,Dougherty County,GA,NA,NA,78.19767441860465
31750,Ben Hill County,GA,NA,46.495956873315365,NA
31792,Thomas County,GA,NA,NA,71.51162790697676
31820,Muscogee County,GA,88.32116788321169,NA,NA
96822,Honolulu County,HI,74.81751824817519,NA,NA
83301,Twin Falls County,ID,18.97810218978102,NA,NA
83338,Jerome County,ID,NA,86.52291105121293,NA
83402,Bonneville County,ID,59.48905109489051,NA,NA
83805,Boundary County,ID,NA,NA,61.91860465116279
83854,Kootenai County,ID,25.18248175182482,NA,NA
60010,Lake County,IL,NA,88.14016172506739,NA
60016,Cook County,IL,NA,16.037735849056602,NA
60047,Lake County,IL,NA,NA,18.6046511627907
60068,Cook County,IL,NA,29.514824797843666,NA
60069,Lake County,IL,NA,NA,69.76744186046511
60085,Lake County,IL,NA,NA,28.488372093023255
60104,Cook County,IL,NA,29.649595687331537,NA
60108,DuPage County,IL,NA,47.16981132075472,NA
60148,DuPage County,IL,NA,9.703504043126685,NA
60162,Cook County,IL,NA,68.19407008086253,NA
60187,DuPage County,IL,NA,26.954177897574123,NA
60188,DuPage County,IL,NA,12.93800539083558,NA
60302,Cook County,IL,32.846715328467155,NA,NA
60304,Cook County,IL,NA,45.01347708894879,NA
60411,Cook County,IL,NA,NA,7.848837209302325
60416,Grundy County,IL,95.62043795620438,NA,NA
60419,Cook County,IL,91.6058394160584,NA,NA
60420,Livingston County,IL,NA,98.6522911051213,94.47674418604652
60422,Cook County,IL,NA,72.10242587601078,NA
60438,Cook County,IL,NA,33.153638814016176,NA
60445,Cook County,IL,NA,NA,89.53488372093024
60451,Will County,IL,NA,13.477088948787062,NA
60466,Cook County,IL,NA,37.331536388140165,NA
60473,Cook County,IL,NA,43.66576819407008,NA
60540,DuPage County,IL,21.897810218978105,NA,NA
60558,Cook County,IL,75.91240875912408,NA,NA
60561,DuPage County,IL,NA,46.36118598382749,NA
60609,Cook County,IL,NA,7.008086253369273,NA
60617,Cook County,IL,58.02919708029197,NA,NA
60623,Cook County,IL,98.17518248175182,NA,NA
60634,Cook County,IL,39.05109489051095,NA,NA
60660,Cook County,IL,54.01459854014598,48.113207547169814,NA
60707,Cook County,IL,NA,NA,7.55813953488372
60901,Kankakee County,IL,NA,36.118598382749326,10.174418604651162
60954,Kankakee County,IL,NA,91.2398921832884,NA
61021,Lee County,IL,NA,21.563342318059302,NA
61072,Winnebago County,IL,NA,64.95956873315365,NA
61081,Whiteside County,IL,NA,76.01078167115904,43.604651162790695
61101,Winnebago County,IL,NA,NA,65.69767441860465
61103,Winnebago County,IL,NA,40.8355795148248,NA
61111,Winnebago County,IL,37.95620437956204,88.81401617250674,84.01162790697676
61201,Rock Island County,IL,NA,27.628032345013477,NA
61265,Rock Island County,IL,NA,NA,28.77906976744186
61550,Tazewell County,IL,NA,77.89757412398922,NA
61920,Coles County,IL,54.01459854014598,NA,45.93023255813954
61951,Moultrie County,IL,NA,82.74932614555256,NA
62035,Madison County,IL,93.06569343065694,NA,72.67441860465115
62095,Madison County,IL,NA,71.42857142857143,NA
62223,St. Clair County,IL,NA,57.95148247978437,NA
62226,St. Clair County,IL,NA,61.05121293800539,NA
62231,Clinton County,IL,NA,83.28840970350404,NA
62263,Washington County,IL,NA,97.30458221024259,NA
62301,Adams County,IL,NA,NA,35.174418604651166
62471,Fayette County,IL,NA,78.4366576819407,NA
62521,Macon County,IL,NA,8.62533692722372,53.779069767441854
62568,Christian County,IL,NA,63.20754716981132,NA
62650,Morgan County,IL,NA,67.65498652291106,NA
62703,Sangamon County,IL,NA,50.13477088948787,NA
62801,Marion County,IL,NA,65.63342318059298,NA
62864,Jefferson County,IL,NA,63.881401617250674,36.627906976744185
62906,Union County,IL,NA,90.16172506738545,NA
46016,Madison County,IN,NA,33.692722371967655,NA
46033,Hamilton County,IN,NA,49.865229110512125,NA
46062,Hamilton County,IN,NA,47.57412398921833,NA
46069,Hamilton County,IN,98.54014598540147,NA,NA
46140,Hancock County,IN,NA,NA,14.825581395348838
46224,Marion County,IN,22.99270072992701,NA,43.895348837209305
46237,Marion County,IN,68.97810218978103,NA,NA
46260,Marion County,IN,NA,34.63611859838275,NA
46312,Lake County,IN,NA,10.91644204851752,NA
46319,Lake County,IN,NA,NA,22.674418604651162
46368,Porter County,IN,NA,NA,12.209302325581394
46375,Lake County,IN,11.313868613138686,NA,NA
46383,Porter County,IN,0,NA,NA
46410,Lake County,IN,NA,NA,22.96511627906977
46507,Elkhart County,IN,91.6058394160584,NA,NA
46528,Elkhart County,IN,29.56204379562044,NA,NA
46534,Starke County,IN,NA,NA,67.44186046511628
46614,St. Joseph County,IN,NA,72.23719676549865,NA
46635,St. Joseph County,IN,NA,NA,97.09302325581395
46706,DeKalb County,IN,NA,34.90566037735849,NA
46725,Whitley County,IN,NA,NA,50.872093023255815
46750,Huntington County,IN,59.854014598540154,66.84636118598382,NA
46804,Allen County,IN,NA,NA,21.802325581395348
46808,Allen County,IN,35.4014598540146,81.94070080862534,NA
46809,Allen County,IN,60.58394160583942,43.93530997304582,83.13953488372093
46815,Allen County,IN,NA,22.10242587601078,NA
46818,Allen County,IN,55.1094890510949,29.649595687331537,NA
46845,Allen County,IN,NA,NA,40.69767441860465
46902,Howard County,IN,NA,2.4258760107816713,NA
46947,Cass County,IN,NA,48.24797843665768,NA
46970,Miami County,IN,NA,25.336927223719673,NA
46992,Wabash County,IN,NA,23.31536388140162,NA
47012,Franklin County,IN,NA,NA,73.54651162790698
47025,Dearborn County,IN,NA,73.45013477088949,NA
47042,Ripley County,IN,NA,99.59568733153638,NA
47201,Bartholomew County,IN,NA,NA,9.593023255813954
47203,Bartholomew County,IN,NA,25.202156334231805,NA
47356,Henry County,IN,NA,NA,62.5
47362,Henry County,IN,NA,41.23989218328841,9.30232558139535
47374,Wayne County,IN,5.109489051094891,NA,NA
47403,Monroe County,IN,NA,49.32614555256065,NA
47408,Monroe County,IN,96.35036496350365,98.38274932614556,NA
47421,Lawrence County,IN,NA,24.12398921832884,NA
47429,Monroe County,IN,81.75182481751825,NA,NA
47591,Knox County,IN,NA,55.525606469002696,NA
47630,Warrick County,IN,NA,NA,18.8953488372093
47711,Vanderburgh County,IN,NA,84.23180592991913,NA
47714,Vanderburgh County,IN,14.963503649635038,NA,NA
47725,Vanderburgh County,IN,81.75182481751825,NA,NA
47807,Vigo County,IN,80.65693430656934,NA,NA
50009,Polk County,IA,NA,57.14285714285714,NA
50131,Polk County,IA,62.40875912408759,NA,NA
50158,Marshall County,IA,NA,17.38544474393531,NA
50219,Marion County,IA,NA,94.74393530997305,NA
50317,Polk County,IA,NA,28.975741239892184,NA
50322,Polk County,IA,NA,49.46091644204852,85.46511627906976
50325,Polk County,IA,NA,80.59299191374663,NA
50401,Cerro Gordo County,IA,NA,7.951482479784366,NA
50428,Cerro Gordo County,IA,NA,68.19407008086253,NA
50595,Hamilton County,IA,NA,65.36388140161725,NA
50703,Black Hawk County,IA,37.95620437956204,NA,NA
50801,Union County,IA,NA,72.37196765498652,NA
51106,Woodbury County,IA,NA,36.92722371967655,NA
51442,Crawford County,IA,NA,NA,84.88372093023256
51534,Mills County,IA,58.3941605839416,84.63611859838275,NA
52001,Dubuque County,IA,15.693430656934307,NA,NA
52002,Dubuque County,IA,NA,61.59029649595688,NA
52060,Jackson County,IA,94.8905109489051,NA,NA
52233,Linn County,IA,NA,NA,79.65116279069767
52240,Johnson County,IA,NA,86.11859838274933,NA
52241,Johnson County,IA,93.7956204379562,76.95417789757413,76.16279069767442
52245,Johnson County,IA,NA,NA,63.95348837209303
52632,Lee County,IA,NA,NA,32.55813953488372
66046,Douglas County,KS,NA,NA,71.80232558139535
66208,Johnson County,KS,49.27007299270073,NA,NA
66434,Brown County,KS,NA,82.47978436657682,NA
66604,Shawnee County,KS,NA,NA,77.61627906976744
66762,Crawford County,KS,NA,54.17789757412399,NA
67156,Cowley County,KS,NA,84.09703504043127,NA
67337,Montgomery County,KS,86.4963503649635,NA,NA
67530,Barton County,KS,NA,NA,52.32558139534884
67846,Finney County,KS,NA,15.09433962264151,NA
67871,Scott County,KS,NA,52.96495956873315,NA
40004,Nelson County,KY,NA,NA,24.12790697674419
40031,Oldham County,KY,NA,67.11590296495957,NA
40118,Jefferson County,KY,NA,41.91374663072776,NA
40165,Bullitt County,KY,81.38686131386861,NA,NA
40215,Jefferson County,KY,NA,12.80323450134771,38.95348837209303
40299,Jefferson County,KY,NA,23.8544474393531,NA
40503,Fayette County,KY,NA,91.91374663072777,NA
40509,Fayette County,KY,NA,22.506738544474395,NA
41014,Kenton County,KY,NA,39.62264150943396,NA
41030,Grant County,KY,84.67153284671532,NA,NA
41240,Johnson County,KY,NA,70.61994609164421,NA
41649,Floyd County,KY,NA,NA,91.56976744186046
42330,Muhlenberg County,KY,79.92700729927007,NA,NA
42408,Hopkins County,KY,NA,66.44204851752022,NA
42553,Pulaski County,KY,NA,87.06199460916442,NA
42635,McCreary County,KY,NA,NA,88.66279069767442
70003,Jefferson Parish,LA,NA,NA,1.1627906976744187
70114,Orleans Parish,LA,NA,64.01617250673854,NA
70119,Orleans Parish,LA,NA,NA,4.651162790697675
70121,Jefferson Parish,LA,NA,88.40970350404312,NA
70360,Terrebonne Parish,LA,NA,7.277628032345014,NA
70363,Terrebonne Parish,LA,NA,2.964959568733154,NA
70401,Tangipahoa Parish,LA,NA,71.96765498652292,NA
70506,Lafayette Parish,LA,NA,17.78975741239892,13.662790697674417
70544,Iberia Parish,LA,44.52554744525548,NA,NA
70605,Calcasieu Parish,LA,NA,NA,25.872093023255815
70737,Ascension Parish,LA,NA,4.986522911051213,NA
71104,Caddo Parish,LA,NA,NA,59.30232558139535
71106,Caddo Parish,LA,NA,4.5822102425876015,NA
71201,Ouachita Parish,LA,NA,68.86792452830188,NA
04092,Cumberland County,ME,85.40145985401459,28.706199460916444,NA
04102,Cumberland County,ME,23.357664233576642,NA,NA
04210,Androscoggin County,ME,NA,55.660377358490564,NA
04240,Androscoggin County,ME,NA,1.482479784366577,NA
04330,Kennebec County,ME,NA,4.177897574123989,NA
04364,Kennebec County,ME,NA,NA,74.70930232558139
04401,Penobscot County,ME,58.75912408759124,NA,NA
04605,Hancock County,ME,NA,NA,19.476744186046513
04736,Aroostook County,ME,NA,NA,78.77906976744185
04769,Aroostook County,ME,43.06569343065693,NA,NA
04938,Franklin County,ME,NA,NA,72.96511627906976
20871,Montgomery County,MD,92.7007299270073,NA,NA
21117,Baltimore County,MD,NA,20.485175202156334,NA
21201,Baltimore city,MD,NA,35.17520215633424,NA
21202,Baltimore city,MD,NA,30.997304582210244,NA
21215,Baltimore city,MD,NA,5.525606469002695,NA
21228,Baltimore County,MD,51.09489051094891,NA,NA
21237,Baltimore County,MD,NA,40.43126684636118,NA
21244,Baltimore County,MD,NA,32.47978436657682,NA
21286,Baltimore County,MD,71.8978102189781,68.46361185983828,NA
21921,Cecil County,MD,20.802919708029197,NA,NA
01069,Hampden County,MA,NA,NA,38.08139534883721
01105,Hampden County,MA,NA,23.98921832884097,NA
01107,Hampden County,MA,NA,4.44743935309973,NA
01119,Hampden County,MA,NA,53.23450134770889,NA
01440,Worcester County,MA,NA,1.3477088948787064,NA
01453,Worcester County,MA,11.678832116788321,0.8086253369272237,NA
01524,Worcester County,MA,NA,81.26684636118598,NA
01527,Worcester County,MA,NA,40.97035040431267,NA
01566,Worcester County,MA,NA,88.27493261455525,NA
01702,Middlesex County,MA,NA,0.9433962264150944,NA
01803,Middlesex County,MA,45.98540145985402,NA,NA
01824,Middlesex County,MA,NA,6.334231805929918,NA
01830,Essex County,MA,NA,NA,61.337209302325576
01832,Essex County,MA,NA,2.15633423180593,NA
01862,Middlesex County,MA,NA,35.44474393530997,NA
01923,Essex County,MA,NA,13.07277628032345,NA
02050,Plymouth County,MA,NA,13.881401617250674,NA
02056,Norfolk County,MA,NA,58.22102425876011,NA
02122,Suffolk County,MA,23.722627737226276,NA,NA
02124,Suffolk County,MA,NA,31.132075471698112,NA
02150,Suffolk County,MA,NA,0.13477088948787064,NA
02324,Plymouth County,MA,67.15328467153284,NA,NA
02346,Plymouth County,MA,NA,44.878706199460915,NA
02649,Barnstable County,MA,76.27737226277372,NA,NA
02664,Barnstable County,MA,66.78832116788321,NA,NA
02745,Bristol County,MA,NA,NA,90.98837209302324
02767,Bristol County,MA,NA,NA,37.7906976744186
02777,Bristol County,MA,NA,NA,95.05813953488372
48036,Macomb County,MI,NA,NA,23.837209302325583
48088,Macomb County,MI,NA,61.99460916442049,NA
48160,Washtenaw County,MI,NA,58.625336927223714,NA
48170,Wayne County,MI,NA,NA,0.872093023255814
48178,Oakland County,MI,NA,21.83288409703504,NA
48433,Genesee County,MI,NA,NA,18.023255813953487
48503,Genesee County,MI,NA,12.533692722371967,NA
48601,Saginaw County,MI,NA,99.05660377358491,NA
48602,Saginaw County,MI,NA,56.19946091644204,99.4186046511628
48603,Saginaw County,MI,NA,96.7654986522911,NA
48611,Bay County,MI,NA,80.05390835579514,NA
48640,Midland County,MI,NA,NA,10.755813953488373
48655,Saginaw County,MI,NA,52.695417789757414,90.69767441860465
48732,Bay County,MI,NA,NA,98.83720930232558
48763,Iosco County,MI,NA,NA,66.56976744186046
48843,Livingston County,MI,1.094890510948905,NA,NA
48858,Isabella County,MI,NA,18.598382749326145,NA
48911,Ingham County,MI,NA,4.716981132075472,NA
49010,Allegan County,MI,42.700729927007295,31.805929919137466,NA
49078,Allegan County,MI,NA,64.15094339622641,NA
49107,Berrien County,MI,NA,56.46900269541779,NA
49203,Jackson County,MI,25.91240875912409,NA,NA
49247,Lenawee County,MI,NA,80.99730458221023,NA
49426,Ottawa County,MI,22.62773722627737,NA,NA
49441,Muskegon County,MI,NA,30.32345013477089,NA
49525,Kent County,MI,NA,24.528301886792452,NA
49651,Missaukee County,MI,NA,NA,82.55813953488372
49657,Missaukee County,MI,NA,NA,98.25581395348837
49707,Alpena County,MI,NA,NA,17.441860465116278
49829,Delta County,MI,NA,22.237196765498652,NA
55021,Rice County,MN,NA,NA,36.337209302325576
55055,Washington County,MN,NA,NA,99.12790697674419
55075,Dakota County,MN,NA,58.760107816711596,NA
55076,Dakota County,MN,NA,88.54447439353099,NA
55112,Ramsey County,MN,NA,30.18867924528302,NA
55113,Ramsey County,MN,17.88321167883212,NA,NA
55117,Ramsey County,MN,NA,10.781671159029651,NA
55121,Dakota County,MN,NA,95.95687331536388,NA
55124,Dakota County,MN,NA,28.03234501347709,NA
55126,Ramsey County,MN,NA,48.65229110512129,NA
55303,Anoka County,MN,NA,54.58221024258761,NA
55313,Wright County,MN,NA,69.00269541778977,NA
55330,Sherburne County,MN,NA,30.727762803234505,NA
55346,Hennepin County,MN,NA,NA,80.52325581395348
55422,Hennepin County,MN,NA,50.80862533692723,NA
55423,Hennepin County,MN,NA,56.8733153638814,NA
55427,Hennepin County,MN,NA,41.64420485175202,94.76744186046511
55430,Hennepin County,MN,NA,12.398921832884097,NA
55431,Hennepin County,MN,NA,74.66307277628033,NA
55432,Anoka County,MN,NA,15.633423180592992,NA
55443,Hennepin County,MN,NA,21.024258760107816,NA
55448,Anoka County,MN,NA,30.05390835579515,NA
55449,Anoka County,MN,NA,38.274932614555254,NA
55811,St. Louis County,MN,NA,NA,45.63953488372093
55912,Mower County,MN,NA,20.080862533692724,20.348837209302324
55987,Winona County,MN,NA,21.69811320754717,NA
56001,Blue Earth County,MN,NA,21.428571428571427,32.26744186046512
56007,Freeborn County,MN,NA,76.41509433962264,NA
56011,Scott County,MN,86.13138686131386,NA,NA
56073,Brown County,MN,NA,NA,9.883720930232558
56093,Waseca County,MN,NA,79.51482479784366,NA
56187,Nobles County,MN,NA,91.77897574123989,NA
56301,Stearns County,MN,NA,32.075471698113205,NA
56401,Crow Wing County,MN,52.55474452554745,6.60377358490566,NA
56479,Todd County,MN,NA,67.78975741239893,NA
56649,Koochiching County,MN,NA,45.41778975741239,NA
56751,Roseau County,MN,NA,92.04851752021564,NA
39466,Pearl River County,MS,31.386861313868614,NA,NA
39503,Harrison County,MS,7.2992700729927,NA,NA
39560,Harrison County,MS,31.751824817518248,45.82210242587601,NA
39565,Jackson County,MS,NA,50.673854447439346,NA
63025,St. Louis County,MO,NA,73.98921832884096,NA
63034,St. Louis County,MO,71.16788321167883,NA,NA
63051,Jefferson County,MO,NA,89.8921832884097,NA
63084,Franklin County,MO,50.36496350364964,NA,NA
63101,St. Louis city,MO,NA,NA,98.54651162790698
63104,St. Louis city,MO,NA,43.39622641509434,81.68604651162791
63111,St. Louis city,MO,NA,22.776280323450134,NA
63115,St. Louis city,MO,NA,37.06199460916442,NA
63122,St. Louis County,MO,NA,NA,19.767441860465116
63123,St. Louis County,MO,NA,26.1455525606469,NA
63125,St. Louis County,MO,NA,59.97304582210242,NA
63301,St. Charles County,MO,NA,9.029649595687331,NA
63390,Warren County,MO,NA,59.703504043126685,NA
63501,Adair County,MO,NA,NA,57.55813953488372
63640,St. Francois County,MO,NA,NA,32.848837209302324
63801,Scott County,MO,NA,42.722371967654986,24.709302325581394
64037,Lafayette County,MO,55.47445255474452,NA,NA
64052,Jackson County,MO,NA,43.80053908355795,NA
64093,Johnson County,MO,NA,NA,81.97674418604652
64106,Jackson County,MO,6.569343065693431,93.93530997304582,86.9186046511628
64118,Clay County,MO,NA,3.234501347708895,NA
64468,Nodaway County,MO,NA,53.50404312668463,NA
64501,Buchanan County,MO,NA,NA,89.24418604651163
64701,Cass County,MO,NA,31.266846361185983,NA
64836,Jasper County,MO,NA,NA,57.26744186046512
65203,Boone County,MO,NA,92.45283018867924,NA
65340,Saline County,MO,NA,NA,54.65116279069767
65606,Oregon County,MO,NA,71.15902964959568,NA
65802,Greene County,MO,61.67883211678832,57.41239892183289,NA
59102,Yellowstone County,MT,NA,32.34501347708895,NA
59701,Silver Bow County,MT,NA,50.53908355795148,NA
68111,Douglas County,NE,32.481751824817515,NA,NA
68114,Douglas County,NE,NA,85.04043126684635,NA
68128,Sarpy County,NE,52.919708029197075,NA,NA
68137,Douglas County,NE,79.1970802919708,96.09164420485176,NA
68310,Gage County,NE,NA,53.36927223719676,46.51162790697674
89119,Clark County,NV,NA,NA,41.86046511627907
89703,Carson City,NV,NA,82.34501347708894,NA
03031,Hillsborough County,NH,NA,64.42048517520216,NA
03102,Hillsborough County,NH,NA,NA,11.918604651162791
03894,Carroll County,NH,NA,94.87870619946092,NA
07039,Essex County,NJ,NA,13.611859838274935,NA
07052,Essex County,NJ,NA,9.973045822102426,NA
07080,Middlesex County,NJ,NA,92.85714285714286,NA
07081,Union County,NJ,NA,90.83557951482479,NA
07202,Union County,NJ,14.233576642335766,NA,6.395348837209303
07438,Morris County,NJ,99.27007299270073,NA,70.93023255813954
07470,Passaic County,NJ,NA,NA,2.0348837209302326
07675,Bergen County,NJ,NA,53.63881401617251,NA
07676,Bergen County,NJ,NA,94.4743935309973,NA
07724,Monmouth County,NJ,69.34306569343066,NA,NA
07869,Morris County,NJ,NA,40.56603773584906,NA
07874,Sussex County,NJ,NA,NA,83.72093023255815
07901,Union County,NJ,NA,61.85983827493261,NA
07950,Morris County,NJ,NA,89.08355795148249,NA
07974,Union County,NJ,NA,85.71428571428571,NA
08016,Burlington County,NJ,NA,1.8867924528301887,NA
08021,Camden County,NJ,4.37956204379562,NA,NA
08053,Burlington County,NJ,NA,16.711590296495956,NA
08060,Burlington County,NJ,NA,35.04043126684636,NA
08061,Gloucester County,NJ,85.03649635036497,NA,NA
08068,Burlington County,NJ,NA,NA,80.23255813953489
08096,Gloucester County,NJ,NA,NA,6.104651162790697
08270,Cape May County,NJ,NA,NA,72.09302325581395
08401,Atlantic County,NJ,NA,0,NA
08540,Mercer County,NJ,NA,NA,33.13953488372093
08628,Mercer County,NJ,97.08029197080292,NA,NA
08690,Mercer County,NJ,NA,60.37735849056604,NA
08755,Ocean County,NJ,NA,NA,15.69767441860465
08809,Hunterdon County,NJ,NA,95.82210242587601,95.63953488372093
08812,Middlesex County,NJ,NA,NA,92.73255813953489
08835,Somerset County,NJ,NA,36.65768194070081,NA
08873,Somerset County,NJ,NA,51.886792452830186,NA
87002,Valencia County,NM,NA,37.735849056603776,NA
87104,Bernalillo County,NM,78.46715328467153,NA,NA
87105,Bernalillo County,NM,NA,2.8301886792452833,NA
87108,Bernalillo County,NM,12.043795620437956,NA,NA
87110,Bernalillo County,NM,NA,66.57681940700809,NA
87112,Bernalillo County,NM,NA,9.164420485175203,55.23255813953488
87123,Bernalillo County,NM,NA,8.355795148247978,NA
87301,McKinley County,NM,NA,46.63072776280324,75.5813953488372
87508,Santa Fe County,NM,NA,92.72237196765498,NA
88001,Doa Ana County,NM,NA,18.194070080862534,NA
88011,Doa Ana County,NM,NA,39.892183288409704,NA
88012,Doa Ana County,NM,NA,NA,42.73255813953488
88201,Chaves County,NM,NA,54.31266846361186,NA
10001,New York County,NY,97.44525547445255,87.46630727762803,29.941860465116278
10002,New York County,NY,NA,NA,17.151162790697676
10004,New York County,NY,NA,97.97843665768194,NA
10011,New York County,NY,63.868613138686136,NA,NA
10014,New York County,NY,NA,75.47169811320755,50
10018,New York County,NY,NA,78.57142857142857,NA
10024,New York County,NY,NA,40.16172506738545,NA
10035,New York County,NY,NA,17.11590296495957,NA
10038,New York County,NY,NA,35.57951482479784,77.32558139534885
10306,Richmond County,NY,NA,38.544474393531,NA
10314,Richmond County,NY,7.664233576642336,NA,NA
10454,Bronx County,NY,NA,18.867924528301888,NA
10457,Bronx County,NY,NA,3.3692722371967654,NA
10461,Bronx County,NY,NA,47.43935309973046,NA
10467,Bronx County,NY,NA,0.2695417789757413,15.406976744186046
10470,Bronx County,NY,78.83211678832117,67.38544474393531,NA
10473,Bronx County,NY,NA,3.0997304582210243,NA
10504,Westchester County,NY,NA,99.32614555256065,NA
10512,Putnam County,NY,NA,NA,59.01162790697675
10532,Westchester County,NY,NA,NA,95.34883720930233
10547,Westchester County,NY,NA,93.26145552560648,NA
10549,Westchester County,NY,NA,84.77088948787062,NA
10573,Westchester County,NY,NA,54.44743935309974,NA
10595,Westchester County,NY,NA,76.1455525606469,NA
10603,Westchester County,NY,NA,NA,85.75581395348837
10701,Westchester County,NY,3.2846715328467155,16.846361185983827,NA
10705,Westchester County,NY,NA,62.668463611859835,NA
10710,Westchester County,NY,100,NA,NA
10920,Rockland County,NY,NA,NA,97.96511627906976
10930,Orange County,NY,85.76642335766424,NA,NA
10940,Orange County,NY,NA,NA,42.151162790697676
10941,Orange County,NY,NA,98.24797843665768,NA
10954,Rockland County,NY,69.34306569343066,90.29649595687331,NA
10956,Rockland County,NY,NA,67.52021563342318,61.627906976744185
10984,Rockland County,NY,NA,98.92183288409704,100
11201,Kings County,NY,NA,75.74123989218329,NA
11203,Kings County,NY,9.48905109489051,NA,NA
11213,Kings County,NY,NA,NA,3.77906976744186
11214,Kings County,NY,NA,10.512129380053908,NA
11215,Kings County,NY,NA,22.641509433962266,NA
11218,Kings County,NY,NA,NA,11.046511627906977
11219,Kings County,NY,NA,8.89487870619946,NA
11223,Kings County,NY,NA,14.420485175202154,NA
11226,Kings County,NY,73.72262773722628,NA,NA
11230,Kings County,NY,NA,NA,6.976744186046512
11379,Queens County,NY,NA,70.21563342318059,NA
11385,Queens County,NY,NA,NA,8.720930232558139
11421,Queens County,NY,NA,22.371967654986523,NA
11428,Queens County,NY,NA,85.04043126684635,NA
11429,Queens County,NY,NA,NA,29.651162790697676
11434,Queens County,NY,NA,9.433962264150944,NA
11435,Queens County,NY,NA,27.762803234501348,NA
11542,Nassau County,NY,NA,48.38274932614555,NA
11545,Nassau County,NY,NA,86.38814016172506,NA
11554,Nassau County,NY,NA,42.04851752021563,NA
11706,Suffolk County,NY,NA,NA,61.04651162790697
11725,Suffolk County,NY,NA,94.20485175202157,79.94186046511628
11746,Suffolk County,NY,NA,37.870619946091644,NA
11747,Suffolk County,NY,NA,83.15363881401618,NA
11758,Nassau County,NY,64.96350364963503,NA,NA
11776,Suffolk County,NY,NA,NA,50.2906976744186
11788,Suffolk County,NY,NA,97.7088948787062,86.04651162790698
11797,Nassau County,NY,NA,98.11320754716981,NA
11901,Suffolk County,NY,43.79562043795621,NA,NA
11949,Suffolk County,NY,86.4963503649635,92.58760107816711,74.4186046511628
11968,Suffolk County,NY,NA,NA,82.84883720930233
12020,Saratoga County,NY,NA,NA,56.68604651162791
12065,Saratoga County,NY,36.86131386861314,NA,NA
12078,Fulton County,NY,NA,29.245283018867923,NA
12203,Albany County,NY,NA,NA,90.11627906976744
12208,Albany County,NY,NA,NA,79.06976744186046
12304,Schenectady County,NY,NA,75.33692722371967,NA
12550,Orange County,NY,NA,81.13207547169812,NA
12569,Dutchess County,NY,NA,NA,83.43023255813954
12603,Dutchess County,NY,NA,60.24258760107817,NA
12701,Sullivan County,NY,NA,NA,60.17441860465116
12801,Warren County,NY,NA,NA,76.45348837209302
12803,Saratoga County,NY,NA,55.25606469002695,NA
12828,Washington County,NY,73.35766423357664,NA,NA
12866,Saratoga County,NY,NA,32.21024258760108,37.2093023255814
12953,Franklin County,NY,NA,11.994609164420485,NA
12986,Franklin County,NY,56.20437956204379,NA,92.15116279069767
13021,Cayuga County,NY,NA,12.129380053908356,NA
13030,Madison County,NY,NA,NA,88.95348837209302
13031,Onondaga County,NY,NA,31.805929919137466,NA
13045,Cortland County,NY,NA,2.6954177897574128,NA
13126,Oswego County,NY,NA,74.52830188679245,NA
13205,Onondaga County,NY,NA,8.76010781671159,NA
13215,Onondaga County,NY,NA,NA,82.26744186046511
13323,Oneida County,NY,NA,55.39083557951483,NA
13350,Herkimer County,NY,NA,23.71967654986523,NA
13357,Herkimer County,NY,NA,NA,48.25581395348838
13413,Oneida County,NY,NA,NA,26.744186046511626
13440,Oneida County,NY,NA,88.0053908355795,57.84883720930233
13460,Chenango County,NY,NA,NA,85.17441860465115
13601,Jefferson County,NY,6.204379562043796,NA,NA
13617,St. Lawrence County,NY,31.02189781021898,NA,31.686046511627907
13820,Otsego County,NY,70.43795620437956,43.126684636118604,NA
13905,Broome County,NY,NA,7.816711590296496,2.3255813953488373
14043,Erie County,NY,62.04379562043796,NA,NA
14048,Chautauqua County,NY,NA,26.28032345013477,NA
14052,Erie County,NY,NA,NA,47.96511627906977
14068,Erie County,NY,NA,82.0754716981132,NA
14202,Erie County,NY,NA,93.39622641509435,NA
14221,Erie County,NY,NA,7.412398921832884,NA
14224,Erie County,NY,NA,66.98113207547169,35.75581395348838
14226,Erie County,NY,45.62043795620438,NA,NA
14228,Erie County,NY,NA,62.938005390835585,NA
14304,Niagara County,NY,NA,NA,1.4534883720930232
14424,Ontario County,NY,NA,35.84905660377358,NA
14425,Ontario County,NY,NA,NA,22.38372093023256
14456,Ontario County,NY,NA,5.256064690026954,NA
14468,Monroe County,NY,NA,NA,16.27906976744186
14489,Wayne County,NY,NA,76.81940700808624,NA
14513,Wayne County,NY,9.854014598540147,77.49326145552561,75.87209302325581
14522,Wayne County,NY,NA,NA,24.418604651162788
14526,Monroe County,NY,NA,34.23180592991914,NA
14527,Yates County,NY,NA,18.463611859838274,NA
14580,Monroe County,NY,NA,0.5390835579514826,NA
14605,Monroe County,NY,27.00729927007299,NA,NA
14610,Monroe County,NY,NA,20.21563342318059,20.63953488372093
14620,Monroe County,NY,26.642335766423358,4.0431266846361185,NA
14621,Monroe County,NY,NA,0.40431266846361186,NA
14623,Monroe County,NY,8.394160583941606,63.7466307277628,NA
14624,Monroe County,NY,2.18978102189781,NA,NA
14701,Chautauqua County,NY,41.605839416058394,11.320754716981133,NA
14760,Cattaraugus County,NY,57.66423357664233,NA,NA
14830,Steuben County,NY,22.26277372262774,NA,NA
14891,Schuyler County,NY,NA,NA,84.30232558139535
27055,Yadkin County,NC,NA,52.156334231805936,NA
27284,Forsyth County,NC,NA,4.8517520215633425,NA
27504,Johnston County,NC,NA,NA,87.79069767441861
27509,Granville County,NC,NA,NA,93.6046511627907
27514,Orange County,NC,NA,46.76549865229111,NA
27517,Orange County,NC,NA,40.56603773584906,NA
27526,Wake County,NC,NA,62.8032345013477,NA
27530,Wayne County,NC,NA,NA,16.86046511627907
27573,Person County,NC,80.65693430656934,33.153638814016176,NA
27609,Wake County,NC,NA,78.16711590296495,NA
27889,Beaufort County,NC,NA,52.02156334231805,NA
27932,Chowan County,NC,NA,NA,40.116279069767444
28001,Stanly County,NC,NA,21.159029649595688,NA
28112,Union County,NC,NA,34.50134770889488,NA
28205,Mecklenburg County,NC,NA,39.21832884097035,NA
28213,Mecklenburg County,NC,19.708029197080293,17.654986522911052,NA
28216,Mecklenburg County,NC,NA,24.393530997304584,NA
28304,Cumberland County,NC,NA,20.889487870619945,40.406976744186046
28328,Sampson County,NC,NA,24.932614555256063,NA
28339,Harnett County,NC,NA,73.31536388140162,NA
28364,Robeson County,NC,NA,32.61455525606469,51.74418604651163
28501,Lenoir County,NC,NA,NA,38.662790697674424
28504,Lenoir County,NC,NA,33.55795148247979,NA
28551,Lenoir County,NC,NA,48.65229110512129,NA
28601,Catawba County,NC,NA,9.299191374663073,NA
28655,Burke County,NC,NA,3.5040431266846364,NA
28716,Haywood County,NC,NA,65.22911051212938,NA
28734,Macon County,NC,NA,11.185983827493262,NA
28778,Buncombe County,NC,NA,91.37466307277629,NA
58103,Cass County,ND,NA,NA,0.29069767441860467
43011,Knox County,OH,76.27737226277372,NA,NA
43016,Franklin County,OH,NA,48.517520215633425,NA
43017,Franklin County,OH,NA,NA,33.72093023255814
43050,Knox County,OH,NA,NA,56.104651162790695
43055,Licking County,OH,24.45255474452555,1.2129380053908356,NA
43078,Champaign County,OH,NA,91.10512129380054,NA
43123,Franklin County,OH,NA,20.350404312668463,NA
43206,Franklin County,OH,NA,8.086253369272237,NA
43223,Franklin County,OH,NA,3.908355795148248,20.930232558139537
43227,Franklin County,OH,NA,15.22911051212938,NA
43229,Franklin County,OH,NA,NA,5.813953488372093
43311,Logan County,OH,20.072992700729927,NA,NA
43402,Wood County,OH,NA,NA,60.46511627906976
43420,Sandusky County,OH,NA,NA,12.5
43528,Lucas County,OH,NA,28.4366576819407,NA
43607,Lucas County,OH,NA,17.92452830188679,NA
43787,Morgan County,OH,NA,90.02695417789758,NA
43812,Coshocton County,OH,NA,54.98652291105122,NA
43950,Belmont County,OH,NA,29.380053908355798,60.75581395348837
43952,Jefferson County,OH,NA,NA,8.13953488372093
44011,Lorain County,OH,32.11678832116788,NA,NA
44017,Cuyahoga County,OH,NA,NA,34.883720930232556
44026,Geauga County,OH,NA,86.92722371967655,NA
44041,Ashtabula County,OH,NA,89.35309973045821,31.3953488372093
44057,Lake County,OH,NA,83.9622641509434,NA
44060,Lake County,OH,NA,49.056603773584904,NA
44090,Lorain County,OH,28.832116788321166,NA,NA
44102,Cuyahoga County,OH,NA,2.2911051212938007,NA
44105,Cuyahoga County,OH,NA,26.41509433962264,NA
44112,Cuyahoga County,OH,NA,5.3908355795148255,NA
44124,Cuyahoga County,OH,NA,16.442048517520217,NA
44125,Cuyahoga County,OH,NA,1.078167115902965,NA
44131,Cuyahoga County,OH,NA,59.83827493261455,NA
44133,Cuyahoga County,OH,NA,72.50673854447439,72.09302325581395
44137,Cuyahoga County,OH,NA,17.25067385444744,NA
44139,Cuyahoga County,OH,56.56934306569343,NA,NA
44143,Cuyahoga County,OH,NA,23.045822102425877,NA
44145,Cuyahoga County,OH,NA,11.725067385444744,NA
44203,Summit County,OH,NA,4.31266846361186,NA
44216,Summit County,OH,NA,NA,54.360465116279066
44255,Portage County,OH,77.37226277372264,59.43396226415094,NA
44266,Portage County,OH,NA,6.064690026954178,NA
44313,Summit County,OH,NA,NA,13.372093023255813
44319,Summit County,OH,NA,38.00539083557952,NA
44410,Trumbull County,OH,NA,NA,21.511627906976745
44413,Columbiana County,OH,61.31386861313869,NA,NA
44440,Trumbull County,OH,48.175182481751825,NA,NA
44481,Trumbull County,OH,NA,18.328840970350406,NA
44484,Trumbull County,OH,NA,19.137466307277627,NA
44618,Wayne County,OH,NA,NA,97.38372093023256
44646,Stark County,OH,NA,NA,39.24418604651162
44647,Stark County,OH,NA,37.46630727762803,NA
44672,Mahoning County,OH,95.25547445255475,NA,NA
44685,Summit County,OH,NA,33.9622641509434,NA
44720,Stark County,OH,47.81021897810219,NA,NA
44805,Ashland County,OH,NA,NA,2.616279069767442
44842,Ashland County,OH,NA,97.84366576819407,NA
44883,Seneca County,OH,NA,11.859838274932615,34.30232558139535
44906,Richland County,OH,NA,53.09973045822103,NA
44907,Richland County,OH,NA,97.03504043126685,NA
45013,Butler County,OH,1.824817518248175,2.0215633423180592,NA
45014,Butler County,OH,NA,33.0188679245283,NA
45044,Butler County,OH,10.218978102189782,NA,NA
45067,Butler County,OH,NA,NA,66.86046511627907
45103,Clermont County,OH,NA,62.53369272237197,NA
45133,Highland County,OH,NA,14.285714285714285,NA
45224,Hamilton County,OH,NA,14.555256064690028,NA
45237,Hamilton County,OH,NA,19.40700808625337,NA
45241,Hamilton County,OH,47.08029197080292,NA,NA
45248,Hamilton County,OH,40.51094890510949,NA,NA
45344,Clark County,OH,NA,45.14824797843666,NA
45347,Preble County,OH,NA,93.53099730458221,80.81395348837209
45356,Miami County,OH,2.5547445255474455,NA,NA
45373,Miami County,OH,5.474452554744526,NA,NA
45385,Greene County,OH,5.839416058394161,NA,NA
45390,Darke County,OH,NA,98.51752021563343,NA
45414,Montgomery County,OH,NA,74.93261455525607,NA
45415,Montgomery County,OH,NA,96.90026954177897,75.29069767441861
45424,Montgomery County,OH,4.014598540145985,NA,NA
45426,Montgomery County,OH,NA,78.70619946091644,NA
45440,Montgomery County,OH,41.97080291970803,NA,NA
45459,Montgomery County,OH,NA,49.19137466307278,17.732558139534884
45631,Gallia County,OH,NA,6.873315363881402,NA
45638,Lawrence County,OH,NA,NA,1.744186046511628
45640,Jackson County,OH,12.773722627737227,NA,NA
45657,Scioto County,OH,NA,NA,95.93023255813954
45662,Scioto County,OH,1.4598540145985401,NA,NA
45701,Athens County,OH,NA,NA,45.348837209302324
45806,Allen County,OH,NA,50,NA
45840,Hancock County,OH,NA,21.83288409703504,0.5813953488372093
73105,Oklahoma County,OK,NA,85.57951482479784,NA
73112,Oklahoma County,OK,NA,NA,43.02325581395349
73142,Oklahoma County,OK,NA,69.40700808625337,NA
73501,Comanche County,OK,NA,NA,88.37209302325581
73507,Comanche County,OK,NA,NA,27.03488372093023
73701,Garfield County,OK,NA,62.264150943396224,30.23255813953488
74012,Tulsa County,OK,13.503649635036496,NA,NA
74074,Payne County,OK,NA,33.9622641509434,NA
74136,Tulsa County,OK,NA,NA,39.53488372093023
74146,Tulsa County,OK,NA,90.4312668463612,NA
74501,Pittsburg County,OK,NA,NA,41.27906976744186
74820,Pontotoc County,OK,NA,5.660377358490567,2.9069767441860463
97030,Multnomah County,OR,NA,NA,14.244186046511627
97045,Clackamas County,OR,89.05109489051095,NA,NA
97080,Multnomah County,OR,NA,16.576819407008088,NA
97124,Washington County,OR,NA,NA,53.19767441860465
97128,Yamhill County,OR,NA,NA,25
97141,Tillamook County,OR,NA,50.943396226415096,NA
97202,Multnomah County,OR,46.715328467153284,NA,NA
97216,Multnomah County,OR,NA,85.3099730458221,NA
97504,Jackson County,OR,NA,14.150943396226415,NA
97526,Josephine County,OR,NA,NA,31.1046511627907
15005,Beaver County,PA,NA,97.57412398921834,NA
15009,Beaver County,PA,NA,NA,36.04651162790697
15010,Beaver County,PA,NA,14.555256064690028,NA
15012,Westmoreland County,PA,53.284671532846716,NA,NA
15063,Washington County,PA,NA,NA,63.372093023255815
15108,Allegheny County,PA,NA,80.3234501347709,70.63953488372093
15136,Allegheny County,PA,NA,NA,34.01162790697674
15143,Allegheny County,PA,78.1021897810219,89.4878706199461,86.62790697674419
15214,Allegheny County,PA,NA,40.296495956873315,NA
15220,Allegheny County,PA,NA,79.24528301886792,NA
15236,Allegheny County,PA,NA,NA,26.16279069767442
15237,Allegheny County,PA,NA,NA,19.186046511627907
15238,Allegheny County,PA,97.8102189781022,90.4312668463612,69.47674418604652
15401,Fayette County,PA,10.948905109489052,NA,3.488372093023256
15601,Westmoreland County,PA,NA,2.560646900269542,NA
15650,Westmoreland County,PA,NA,9.838274932614555,NA
15656,Westmoreland County,PA,NA,80.86253369272237,NA
15857,Elk County,PA,36.13138686131387,NA,NA
15931,Cambria County,PA,NA,78.30188679245283,54.94186046511628
15946,Cambria County,PA,NA,77.62803234501348,NA
16023,Butler County,PA,NA,NA,88.0813953488372
16148,Mercer County,PA,NA,35.714285714285715,NA
16335,Crawford County,PA,NA,NA,7.267441860465117
16365,Warren County,PA,NA,24.258760107816713,NA
16504,Erie County,PA,NA,47.84366576819407,NA
16508,Erie County,PA,NA,38.81401617250674,NA
16601,Blair County,PA,25.547445255474454,NA,NA
16701,McKean County,PA,NA,11.590296495956872,NA
16801,Centre County,PA,NA,57.68194070080862,NA
16803,Centre County,PA,NA,92.31805929919138,NA
16830,Clearfield County,PA,NA,NA,58.139534883720934
17011,Cumberland County,PA,NA,NA,15.988372093023257
17036,Dauphin County,PA,3.64963503649635,NA,NA
17051,Mifflin County,PA,NA,79.11051212938006,NA
17070,Cumberland County,PA,NA,82.61455525606469,NA
17109,Dauphin County,PA,NA,NA,44.76744186046512
17111,Dauphin County,PA,NA,NA,30.523255813953487
17112,Dauphin County,PA,16.78832116788321,NA,NA
17403,York County,PA,52.18978102189781,NA,NA
17408,York County,PA,29.1970802919708,NA,NA
17870,Snyder County,PA,NA,93.80053908355795,26.453488372093027
17901,Schuylkill County,PA,8.394160583941606,NA,91.86046511627907
17972,Schuylkill County,PA,NA,NA,50.58139534883721
18017,Northampton County,PA,17.51824817518248,68.59838274932615,NA
18104,Lehigh County,PA,18.248175182481752,NA,NA
18235,Carbon County,PA,NA,NA,25.581395348837212
18411,Lackawanna County,PA,86.4963503649635,63.61185983827493,NA
18444,Lackawanna County,PA,NA,NA,62.7906976744186
18452,Lackawanna County,PA,NA,96.63072776280323,NA
18661,Luzerne County,PA,NA,NA,64.82558139534885
18951,Bucks County,PA,NA,13.20754716981132,46.22093023255814
19003,Montgomery County,PA,48.54014598540146,NA,NA
19021,Bucks County,PA,63.868613138686136,NA,NA
19027,Montgomery County,PA,NA,31.536388140161726,NA
19044,Montgomery County,PA,NA,49.73045822102426,63.662790697674424
19047,Bucks County,PA,NA,NA,13.08139534883721
19053,Bucks County,PA,NA,NA,30.813953488372093
19063,Delaware County,PA,NA,40.97035040431267,65.40697674418605
19073,Delaware County,PA,NA,99.19137466307278,NA
19074,Delaware County,PA,88.32116788321169,NA,NA
19087,Chester County,PA,57.299270072992705,NA,NA
19095,Montgomery County,PA,NA,85.84905660377359,NA
19111,Philadelphia County,PA,NA,NA,3.1976744186046515
19115,Philadelphia County,PA,NA,NA,14.534883720930234
19120,Philadelphia County,PA,NA,1.7520215633423182,NA
19133,Philadelphia County,PA,NA,10.107816711590296,NA
19138,Philadelphia County,PA,NA,8.49056603773585,52.616279069767444
19143,Philadelphia County,PA,NA,0.6738544474393532,NA
19144,Philadelphia County,PA,8.394160583941606,43.261455525606465,NA
19150,Philadelphia County,PA,NA,81.80592991913747,NA
19154,Philadelphia County,PA,NA,76.68463611859838,NA
19312,Chester County,PA,NA,NA,68.6046511627907
19335,Chester County,PA,NA,NA,10.465116279069768
19341,Chester County,PA,NA,81.6711590296496,NA
19342,Delaware County,PA,NA,35.98382749326146,NA
19355,Chester County,PA,NA,58.35579514824798,NA
19362,Chester County,PA,NA,88.67924528301887,NA
19406,Montgomery County,PA,NA,76.54986522911051,NA
19422,Montgomery County,PA,96.71532846715328,NA,NA
19426,Montgomery County,PA,NA,23.58490566037736,NA
19438,Montgomery County,PA,NA,63.07277628032345,NA
19465,Chester County,PA,47.44525547445255,NA,NA
19518,Berks County,PA,37.22627737226277,NA,NA
19526,Berks County,PA,NA,57.14285714285714,NA
19602,Berks County,PA,39.416058394160586,NA,NA
19604,Berks County,PA,NA,7.681940700808626,NA
19606,Berks County,PA,NA,7.142857142857142,NA
19610,Berks County,PA,NA,52.56064690026954,NA
02816,Kent County,RI,44.89051094890511,NA,NA
02863,Providence County,RI,NA,75.06738544474393,NA
02885,Bristol County,RI,NA,67.25067385444744,NA
02905,Providence County,RI,NA,96.22641509433963,NA
02915,Providence County,RI,NA,NA,48.837209302325576
02920,Providence County,RI,NA,19.946091644204852,12.790697674418606
29203,Richland County,SC,NA,26.819407008086255,NA
29325,Laurens County,SC,NA,67.78975741239893,50.872093023255815
29341,Cherokee County,SC,53.284671532846716,NA,NA
29403,Charleston County,SC,NA,31.671159029649598,NA
29485,Dorchester County,SC,NA,NA,28.197674418604652
29506,Florence County,SC,34.67153284671533,33.153638814016176,48.837209302325576
29657,Pickens County,SC,NA,36.253369272237194,NA
29709,Chesterfield County,SC,NA,97.43935309973047,NA
29732,York County,SC,38.68613138686132,21.293800539083556,NA
57006,Brookings County,SD,NA,NA,64.53488372093024
57042,Lake County,SD,NA,87.87061994609164,NA
57301,Davison County,SD,NA,63.47708894878706,NA
37040,Montgomery County,TN,NA,16.172506738544474,NA
37064,Williamson County,TN,NA,35.309973045822105,NA
37087,Wilson County,TN,19.34306569343066,11.455525606469003,NA
37129,Rutherford County,TN,NA,54.04312668463612,58.720930232558146
37130,Rutherford County,TN,NA,14.016172506738545,NA
37148,Sumner County,TN,NA,28.30188679245283,NA
37214,Davidson County,TN,NA,47.304582210242586,84.59302325581395
37217,Davidson County,TN,NA,59.56873315363881,49.7093023255814
37343,Hamilton County,TN,NA,NA,18.023255813953487
37347,Marion County,TN,NA,64.28571428571429,NA
37357,Warren County,TN,NA,79.78436657681941,NA
37377,Hamilton County,TN,63.138686131386855,NA,NA
37381,Rhea County,TN,NA,71.69811320754717,NA
37404,Hamilton County,TN,NA,51.34770889487871,NA
37659,Washington County,TN,NA,25.471698113207548,NA
37701,Blount County,TN,NA,NA,59.883720930232556
37711,Hawkins County,TN,NA,NA,73.54651162790698
37716,Anderson County,TN,17.153284671532848,56.73854447439353,NA
37743,Greene County,TN,66.42335766423358,NA,NA
37745,Greene County,TN,NA,61.725067385444746,NA
37748,Roane County,TN,NA,23.180592991913745,NA
37760,Jefferson County,TN,NA,72.64150943396226,NA
37763,Roane County,TN,NA,77.088948787062,NA
37766,Campbell County,TN,NA,NA,20.058139534883722
37821,Cocke County,TN,30.29197080291971,NA,NA
37830,Anderson County,TN,NA,70.88948787061994,NA
37909,Knox County,TN,NA,NA,90.40697674418605
37923,Knox County,TN,27.73722627737226,NA,NA
38002,Shelby County,TN,NA,NA,93.02325581395348
38018,Shelby County,TN,43.43065693430657,NA,NA
38109,Shelby County,TN,2.9197080291970803,NA,NA
38115,Shelby County,TN,NA,NA,53.48837209302325
38305,Madison County,TN,NA,88.94878706199461,9.011627906976743
38320,Benton County,TN,NA,NA,64.24418604651163
38375,McNairy County,TN,NA,NA,63.08139534883721
38401,Maury County,TN,NA,5.121293800539084,NA
38485,Wayne County,TN,NA,87.33153638814017,NA
38501,Putnam County,TN,NA,NA,13.953488372093023
38506,Putnam County,TN,NA,58.894878706199464,NA
75006,Dallas County,TX,NA,34.77088948787062,NA
75007,Denton County,TX,28.467153284671532,NA,NA
75081,Dallas County,TX,90.51094890510949,57.00808625336927,NA
75104,Dallas County,TX,NA,43.39622641509434,NA
75146,Dallas County,TX,NA,48.921832884097036,NA
75241,Dallas County,TX,NA,15.498652291105122,NA
75601,Gregg County,TX,NA,59.97304582210242,NA
75766,Cherokee County,TX,37.22627737226277,NA,35.46511627906977
75771,Smith County,TX,NA,41.23989218328841,NA
75791,Smith County,TX,NA,NA,38.372093023255815
75901,Angelina County,TX,NA,25.60646900269542,NA
75956,Jasper County,TX,98.90510948905109,NA,NA
76014,Tarrant County,TX,NA,36.52291105121294,NA
76039,Tarrant County,TX,NA,56.60377358490566,NA
76109,Tarrant County,TX,NA,87.73584905660378,NA
76117,Tarrant County,TX,13.138686131386862,NA,NA
76119,Tarrant County,TX,0.7299270072992701,NA,NA
76132,Tarrant County,TX,NA,51.078167115902964,NA
76140,Tarrant County,TX,24.087591240875913,27.22371967654987,NA
76205,Denton County,TX,72.26277372262774,NA,NA
76210,Denton County,TX,NA,NA,52.03488372093024
76258,Denton County,TX,NA,84.90566037735849,NA
76549,Bell County,TX,NA,59.16442048517521,NA
76667,Limestone County,TX,NA,71.02425876010781,NA
76901,Tom Green County,TX,NA,NA,27.906976744186046
77015,Harris County,TX,NA,28.167115902964962,NA
77034,Harris County,TX,NA,45.14824797843666,NA
77048,Harris County,TX,NA,79.91913746630728,NA
77063,Harris County,TX,NA,77.22371967654986,NA
77085,Harris County,TX,NA,NA,93.8953488372093
77090,Harris County,TX,NA,19.67654986522911,NA
77096,Harris County,TX,NA,47.03504043126684,NA
77338,Harris County,TX,NA,33.82749326145553,NA
77407,Fort Bend County,TX,NA,NA,67.15116279069767
77469,Fort Bend County,TX,NA,73.8544474393531,NA
77477,Fort Bend County,TX,59.12408759124088,NA,NA
77479,Fort Bend County,TX,NA,NA,48.54651162790697
77521,Harris County,TX,NA,19.2722371967655,NA
77530,Harris County,TX,NA,70.48517520215634,NA
77706,Jefferson County,TX,NA,36.38814016172507,NA
77833,Washington County,TX,NA,94.60916442048517,22.96511627906977
77901,Victoria County,TX,14.5985401459854,NA,NA
78109,Bexar County,TX,26.277372262773724,NA,NA
78114,Wilson County,TX,NA,41.509433962264154,NA
78155,Guadalupe County,TX,NA,44.474393530997304,NA
78209,Bexar County,TX,NA,75.87601078167116,NA
78219,Bexar County,TX,NA,90.97035040431267,NA
78223,Bexar County,TX,NA,38.40970350404312,58.43023255813954
78245,Bexar County,TX,NA,44.07008086253369,NA
78247,Bexar County,TX,NA,39.487870619946094,NA
78253,Bexar County,TX,20.437956204379564,NA,NA
78260,Bexar County,TX,54.74452554744526,NA,NA
78404,Nueces County,TX,64.59854014598541,NA,NA
78405,Nueces County,TX,NA,65.90296495956873,NA
78410,Nueces County,TX,NA,NA,66.27906976744185
78577,Hidalgo County,TX,6.934306569343065,NA,NA
78610,Hays County,TX,72.99270072992701,NA,NA
78703,Travis County,TX,NA,96.49595687331536,NA
78840,Val Verde County,TX,NA,19.81132075471698,NA
78957,Bastrop County,TX,77.73722627737226,NA,NA
79411,Lubbock County,TX,NA,94.87870619946092,NA
79415,Lubbock County,TX,NA,77.35849056603774,NA
79424,Lubbock County,TX,21.16788321167883,NA,NA
79602,Taylor County,TX,NA,46.091644204851754,NA
79605,Taylor County,TX,77.00729927007299,78.97574123989219,NA
79707,Midland County,TX,13.86861313868613,NA,NA
79720,Howard County,TX,NA,38.67924528301887,NA
79905,El Paso County,TX,NA,83.42318059299191,NA
79922,El Paso County,TX,NA,92.18328840970351,NA
84003,Utah County,UT,NA,60.78167115902965,55.52325581395349
84037,Davis County,UT,NA,55.79514824797843,NA
84057,Utah County,UT,48.54014598540146,NA,NA
84058,Utah County,UT,NA,NA,73.54651162790698
84088,Salt Lake County,UT,NA,55.929919137466314,NA
84123,Salt Lake County,UT,29.927007299270077,NA,NA
22180,Fairfax County,VA,NA,68.05929919137466,NA
22815,Rockingham County,VA,NA,93.1266846361186,NA
22827,Rockingham County,VA,NA,60.512129380053906,NA
23002,Amelia County,VA,NA,73.71967654986523,NA
23225,Richmond city,VA,NA,60.91644204851752,16.569767441860463
23231,Henrico County,VA,NA,15.902964959568733,NA
23462,Virginia Beach city,VA,NA,12.668463611859837,NA
23464,Virginia Beach city,VA,4.744525547445255,NA,NA
23803,Petersburg city,VA,NA,7.547169811320755,11.337209302325581
23832,Chesterfield County,VA,NA,32.88409703504043,NA
24018,Roanoke County,VA,79.92700729927007,NA,NA
24019,Roanoke County,VA,NA,69.6765498652291,NA
24091,Floyd County,VA,NA,NA,94.18604651162791
24260,Russell County,VA,66.05839416058394,NA,NA
24301,Pulaski County,VA,NA,44.60916442048518,NA
24401,Staunton city,VA,33.21167883211679,NA,NA
24502,Lynchburg city,VA,NA,74.25876010781671,NA
24540,Danville city,VA,NA,19.00269541778976,NA
24550,Campbell County,VA,NA,NA,77.90697674418605
24572,Amherst County,VA,NA,73.98921832884096,NA
98251,Snohomish County,WA,NA,95.68733153638814,NA
98321,Pierce County,WA,82.48175182481752,84.50134770889488,81.3953488372093
98372,Pierce County,WA,NA,46.900269541778975,NA
98597,Thurston County,WA,67.51824817518248,NA,NA
98661,Clark County,WA,NA,64.55525606469003,NA
98682,Clark County,WA,NA,NA,39.825581395348834
98837,Grant County,WA,NA,20.754716981132077,NA
99022,Spokane County,WA,NA,87.1967654986523,NA
20012,District of Columbia,DC,NA,NA,73.25581395348837
20018,District of Columbia,DC,NA,NA,22.093023255813954
20024,District of Columbia,DC,NA,91.64420485175202,NA
24901,Greenbrier County,WV,NA,69.40700808625337,NA
25064,Kanawha County,WV,NA,65.76819407008087,NA
25177,Kanawha County,WV,NA,8.221024258760108,NA
25401,Berkeley County,WV,49.63503649635037,NA,81.1046511627907
25506,Lincoln County,WV,NA,NA,69.18604651162791
25704,Wayne County,WV,NA,86.6576819407008,NA
25801,Raleigh County,WV,NA,NA,6.686046511627906
26003,Ohio County,WV,NA,61.18598382749326,NA
26101,Wood County,WV,NA,NA,47.383720930232556
26104,Wood County,WV,NA,83.82749326145552,NA
26201,Upshur County,WV,68.24817518248175,NA,NA
26301,Harrison County,WV,NA,64.95956873315365,8.430232558139535
26505,Monongalia County,WV,NA,NA,4.3604651162790695
26726,Mineral County,WV,NA,59.02964959568733,NA
53005,Waukesha County,WI,33.57664233576642,57.8167115902965,NA
53081,Sheboygan County,WI,15.328467153284672,NA,NA
53090,Washington County,WI,NA,50.26954177897574,NA
53094,Jefferson County,WI,41.24087591240876,80.7277628032345,NA
53132,Milwaukee County,WI,NA,NA,51.45348837209303
53140,Kenosha County,WI,18.613138686131386,NA,NA
53144,Kenosha County,WI,NA,11.05121293800539,NA
53146,Waukesha County,WI,NA,80.45822102425876,NA
53149,Waukesha County,WI,50,NA,NA
53172,Milwaukee County,WI,50.36496350364964,NA,NA
53182,Racine County,WI,45.98540145985402,85.44474393530997,NA
53185,Racine County,WI,NA,45.82210242587601,NA
53209,Milwaukee County,WI,NA,1.6172506738544474,NA
53213,Milwaukee County,WI,NA,97.16981132075472,NA
53215,Milwaukee County,WI,0.36496350364963503,NA,NA
53227,Milwaukee County,WI,NA,55.121293800539085,NA
53403,Racine County,WI,NA,NA,68.02325581395348
53548,Rock County,WI,NA,82.74932614555256,NA
53549,Jefferson County,WI,NA,81.53638814016172,NA
53581,Richland County,WI,NA,NA,89.82558139534885
53590,Dane County,WI,15.693430656934307,NA,NA
53593,Dane County,WI,39.78102189781022,NA,NA
54220,Manitowoc County,WI,NA,NA,0
54481,Portage County,WI,NA,13.34231805929919,NA
54520,Forest County,WI,NA,99.86522911051213,NA
54650,La Crosse County,WI,NA,NA,5.523255813953488
54656,Monroe County,WI,67.88321167883211,NA,NA
54669,La Crosse County,WI,NA,NA,42.44186046511628
54701,Eau Claire County,WI,NA,NA,52.90697674418605
54703,Eau Claire County,WI,NA,14.959568733153638,27.61627906976744
54751,Dunn County,WI,NA,91.50943396226415,23.546511627906977
54937,Fond du Lac County,WI,NA,75.60646900269542,NA
82443,Hot Springs County,WY,NA,99.73045822102425,NA
82501,Fremont County,WY,NA,66.71159029649596,NA
82801,Sheridan County,WY,NA,57.54716981132076,NA
