ZipCode,county,state,Youth,Pediatric
35004,St. Clair County,AL,53.3106960950764,NA
35007,Shelby County,AL,NA,47.64890282131661
35014,Talladega County,AL,NA,91.22257053291536
35016,Marshall County,AL,56.536502546689306,NA
35044,Talladega County,AL,NA,72.41379310344827
35077,Cullman County,AL,NA,57.36677115987461
35080,Shelby County,AL,36.6723259762309,NA
35111,Tuscaloosa County,AL,54.32937181663837,NA
35121,Blount County,AL,53.82003395585738,NA
35124,Shelby County,AL,50.25466893039049,88.08777429467085
35126,Jefferson County,AL,55.85738539898133,NA
35133,Blount County,AL,75.38200339558574,NA
35173,Jefferson County,AL,43.803056027164686,NA
35206,Jefferson County,AL,NA,45.45454545454545
35214,Jefferson County,AL,NA,68.96551724137932
35215,Jefferson County,AL,32.76740237691001,33.22884012539185
35216,Jefferson County,AL,33.78607809847199,NA
35228,Jefferson County,AL,89.47368421052632,68.3385579937304
35242,Shelby County,AL,91.17147707979628,NA
35244,Jefferson County,AL,54.159592529711375,NA
35405,Tuscaloosa County,AL,12.39388794567063,NA
35406,Tuscaloosa County,AL,92.52971137521222,NA
35462,Greene County,AL,NA,97.80564263322884
35475,Tuscaloosa County,AL,87.60611205432937,NA
35581,Franklin County,AL,NA,91.22257053291536
35611,Limestone County,AL,NA,49.843260188087775
35630,Lauderdale County,AL,NA,68.02507836990596
35633,Lauderdale County,AL,NA,69.27899686520375
35757,Madison County,AL,84.88964346349745,NA
35802,Madison County,AL,67.23259762308999,NA
35810,Madison County,AL,NA,20.689655172413794
35961,DeKalb County,AL,94.39728353140917,NA
36066,Autauga County,AL,NA,70.53291536050156
36091,Chilton County,AL,96.9439728353141,NA
36117,Montgomery County,AL,78.60780984719864,NA
36264,Cleburne County,AL,NA,91.84952978056427
36527,Baldwin County,AL,93.3786078098472,NA
36804,Lee County,AL,85.39898132427844,NA
36830,Lee County,AL,52.97113752122241,NA
36866,Macon County,AL,98.47198641765704,NA
99502,Anchorage Municipality,AK,NA,43.573667711598745
99507,Anchorage Municipality,AK,64.85568760611206,NA
99654,Matanuska-Susitna Borough,AK,57.89473684210527,NA
85008,Maricopa County,AZ,6.451612903225806,36.05015673981191
85013,Maricopa County,AZ,73.00509337860781,NA
85015,Maricopa County,AZ,16.298811544991512,NA
85017,Maricopa County,AZ,44.48217317487266,NA
85019,Maricopa County,AZ,NA,28.526645768025077
85023,Maricopa County,AZ,NA,46.70846394984326
85029,Maricopa County,AZ,8.31918505942275,NA
85033,Maricopa County,AZ,NA,9.090909090909092
85043,Maricopa County,AZ,NA,20.37617554858934
85207,Maricopa County,AZ,69.77928692699491,NA
85234,Maricopa County,AZ,24.95755517826825,NA
85283,Maricopa County,AZ,31.239388794567063,NA
85284,Maricopa County,AZ,42.27504244482173,NA
85295,Maricopa County,AZ,26.485568760611205,NA
85297,Maricopa County,AZ,59.9320882852292,NA
85301,Maricopa County,AZ,3.904923599320883,10.658307210031348
85331,Maricopa County,AZ,71.98641765704585,NA
85345,Maricopa County,AZ,49.23599320882852,NA
85350,Yuma County,AZ,NA,26.332288401253916
85364,Yuma County,AZ,NA,55.79937304075236
85374,Maricopa County,AZ,33.276740237691,NA
85388,Maricopa County,AZ,NA,79.62382445141067
85392,Maricopa County,AZ,10.526315789473683,46.08150470219436
85925,Apache County,AZ,NA,90.9090909090909
86401,Mohave County,AZ,NA,50.78369905956113
86442,Mohave County,AZ,37.351443123938886,NA
72601,Boone County,AR,64.51612903225806,NA
90016,Los Angeles County,CA,NA,35.73667711598746
90036,Los Angeles County,CA,92.86926994906621,NA
90040,Los Angeles County,CA,94.56706281833617,NA
90210,Los Angeles County,CA,74.53310696095076,NA
90230,Los Angeles County,CA,69.43972835314092,NA
90272,Los Angeles County,CA,78.60780984719864,NA
90503,Los Angeles County,CA,52.29202037351443,NA
90504,Los Angeles County,CA,92.69949066213921,NA
90620,Orange County,CA,15.619694397283531,NA
90706,Los Angeles County,CA,NA,21.9435736677116
90712,Los Angeles County,CA,63.1578947368421,NA
90731,Los Angeles County,CA,NA,34.79623824451411
90745,Los Angeles County,CA,78.26825127334465,NA
90755,Los Angeles County,CA,NA,99.37304075235109
90805,Los Angeles County,CA,NA,29.46708463949843
91104,Los Angeles County,CA,93.54838709677419,NA
91206,Los Angeles County,CA,87.77589134125637,NA
91311,Los Angeles County,CA,NA,81.50470219435736
91344,Los Angeles County,CA,83.3616298811545,NA
91350,Los Angeles County,CA,67.06281833616299,NA
91354,Los Angeles County,CA,85.73853989813243,NA
91355,Los Angeles County,CA,NA,92.78996865203762
91362,Ventura County,CA,42.95415959252971,NA
91604,Los Angeles County,CA,93.71816638370119,NA
91702,Los Angeles County,CA,NA,34.79623824451411
91724,Los Angeles County,CA,NA,67.39811912225704
91744,Los Angeles County,CA,NA,52.97805642633229
91941,San Diego County,CA,NA,74.92163009404389
92173,San Diego County,CA,26.99490662139219,NA
92335,San Bernardino County,CA,38.20033955857385,NA
92553,Riverside County,CA,NA,63.322884012539184
92592,Riverside County,CA,40.0679117147708,NA
92595,Riverside County,CA,41.08658743633276,NA
92627,Orange County,CA,38.539898132427844,NA
92692,Orange County,CA,83.1918505942275,NA
92694,Orange County,CA,70.11884550084889,94.04388714733543
92707,Orange County,CA,NA,58.307210031347964
92802,Orange County,CA,NA,68.65203761755487
92835,Orange County,CA,88.62478777589135,NA
92843,Orange County,CA,NA,61.12852664576802
92869,Orange County,CA,68.42105263157895,NA
92881,Riverside County,CA,80.4753820033956,NA
93012,Ventura County,CA,88.45500848896435,NA
93101,Santa Barbara County,CA,75.21222410865875,NA
93257,Tulare County,CA,41.25636672325976,NA
93535,Los Angeles County,CA,NA,11.285266457680251
93555,Kern County,CA,79.9660441426146,NA
94118,San Francisco County,CA,46.6893039049236,NA
94509,Contra Costa County,CA,29.03225806451613,NA
94549,Contra Costa County,CA,75.38200339558574,NA
94561,Contra Costa County,CA,28.183361629881155,NA
94565,Contra Costa County,CA,16.468590831918505,NA
94583,Contra Costa County,CA,55.178268251273344,NA
94591,Solano County,CA,49.23599320882852,NA
94605,Alameda County,CA,NA,16.927899686520377
94706,Alameda County,CA,NA,67.39811912225704
94945,Marin County,CA,85.90831918505943,NA
95046,Santa Clara County,CA,NA,78.99686520376176
95128,Santa Clara County,CA,89.81324278438031,NA
95330,San Joaquin County,CA,NA,95.92476489028213
95355,Stanislaus County,CA,34.125636672325975,NA
95365,Merced County,CA,NA,85.26645768025078
95709,El Dorado County,CA,NA,89.34169278996865
95776,Yolo County,CA,84.71986417657045,NA
95823,Sacramento County,CA,NA,23.510971786833856
80015,Arapahoe County,CO,5.093378607809847,NA
80023,Broomfield County,CO,39.38879456706282,NA
80031,Adams County,CO,NA,52.03761755485894
80033,Jefferson County,CO,NA,71.78683385579937
80111,Arapahoe County,CO,50.76400679117148,NA
80123,Jefferson County,CO,NA,87.14733542319749
80126,Douglas County,CO,45.840407470288625,NA
80127,Jefferson County,CO,42.78438030560272,NA
80205,Denver County,CO,14.431239388794568,NA
80216,Denver County,CO,75.72156196943973,NA
80219,Denver County,CO,NA,5.956112852664576
80220,Denver County,CO,34.63497453310696,NA
80221,Adams County,CO,17.31748726655348,NA
80238,Denver County,CO,38.879456706281836,NA
80301,Boulder County,CO,47.198641765704586,NA
80403,Jefferson County,CO,48.72665534804754,NA
80439,Jefferson County,CO,65.53480475382003,NA
80525,Larimer County,CO,14.091680814940577,NA
80528,Larimer County,CO,57.215619694397276,NA
80602,Adams County,CO,47.368421052631575,NA
80634,Weld County,CO,4.244482173174872,NA
80723,Morgan County,CO,66.723259762309,NA
06033,Hartford County,CT,30.730050933786078,NA
06082,Hartford County,CT,18.845500848896435,NA
06088,Hartford County,CT,89.81324278438031,NA
06092,Hartford County,CT,92.86926994906621,NA
06280,Windham County,CT,NA,100
06473,New Haven County,CT,86.75721561969439,NA
06478,New Haven County,CT,77.24957555178268,NA
06513,New Haven County,CT,NA,9.717868338557993
06840,Fairfield County,CT,62.30899830220713,NA
06870,Fairfield County,CT,88.28522920203736,NA
06880,Fairfield County,CT,45.50084889643464,NA
06883,Fairfield County,CT,91.68081494057725,NA
19802,New Castle County,DE,19.015280135823428,NA
19805,New Castle County,DE,4.923599320882852,NA
19971,Sussex County,DE,76.23089983022071,NA
32168,Volusia County,FL,64.00679117147709,NA
32207,Duval County,FL,NA,31.974921630094045
32533,Escambia County,FL,66.383701188455,NA
32605,Alachua County,FL,30.220713073005097,NA
32707,Seminole County,FL,94.05772495755518,NA
32778,Lake County,FL,NA,56.112852664576806
32819,Orange County,FL,56.02716468590832,NA
32822,Orange County,FL,7.979626485568761,NA
32907,Brevard County,FL,59.08319185059423,NA
32955,Brevard County,FL,NA,82.44514106583071
33004,Broward County,FL,81.32427843803056,NA
33009,Broward County,FL,NA,47.96238244514107
33016,Miami-Dade County,FL,71.47707979626486,NA
33018,Miami-Dade County,FL,NA,21.003134796238246
33024,Broward County,FL,21.731748726655347,NA
33025,Broward County,FL,17.487266553480477,NA
33026,Broward County,FL,56.8760611205433,NA
33063,Broward County,FL,NA,44.20062695924764
33126,Miami-Dade County,FL,NA,22.25705329153605
33140,Miami-Dade County,FL,90.49235993208828,NA
33176,Miami-Dade County,FL,57.045840407470294,NA
33186,Miami-Dade County,FL,NA,36.990595611285265
33196,Miami-Dade County,FL,NA,30.094043887147336
33312,Broward County,FL,NA,26.64576802507837
33314,Broward County,FL,NA,48.275862068965516
33327,Broward County,FL,81.32427843803056,NA
33328,Broward County,FL,67.74193548387096,NA
33330,Broward County,FL,86.5874363327674,NA
33331,Broward County,FL,NA,73.35423197492163
33411,Palm Beach County,FL,NA,49.52978056426332
33433,Palm Beach County,FL,NA,74.92163009404389
33510,Hillsborough County,FL,NA,37.93103448275862
33971,Lee County,FL,63.66723259762309,NA
33973,Lee County,FL,NA,73.66771159874608
34491,Marion County,FL,87.09677419354838,NA
34607,Hernando County,FL,91.34125636672326,NA
34608,Hernando County,FL,NA,31.03448275862069
34741,Osceola County,FL,23.769100169779286,19.74921630094044
34744,Osceola County,FL,NA,15.360501567398119
34746,Osceola County,FL,42.10526315789473,NA
34758,Osceola County,FL,NA,16.30094043887147
34759,Polk County,FL,NA,18.495297805642632
34769,Osceola County,FL,53.4804753820034,NA
30062,Cobb County,GA,64.85568760611206,NA
30066,Cobb County,GA,27.843803056027166,NA
30141,Paulding County,GA,60.78098471986417,NA
30157,Paulding County,GA,NA,37.93103448275862
30233,Butts County,GA,NA,76.17554858934169
30236,Clayton County,GA,43.463497453310694,NA
30295,Pike County,GA,97.79286926994907,NA
30327,Fulton County,GA,58.40407470288624,NA
30542,Hall County,GA,51.273344651952456,NA
30720,Whitfield County,GA,NA,61.442006269592476
30736,Catoosa County,GA,14.94057724957555,61.442006269592476
30739,Walker County,GA,88.96434634974533,NA
31029,Monroe County,GA,NA,85.57993730407524
31320,Liberty County,GA,95.92529711375212,NA
31535,Coffee County,GA,77.24957555178268,NA
39828,Grady County,GA,55.178268251273344,NA
39837,Miller County,GA,97.96264855687606,NA
83607,Canyon County,ID,73.5144312393888,NA
83704,Ada County,ID,NA,33.85579937304075
83713,Ada County,ID,60.95076400679117,NA
83716,Ada County,ID,48.72665534804754,NA
83815,Kootenai County,ID,62.81833616298812,NA
60004,Cook County,IL,77.07979626485569,NA
60007,Cook County,IL,61.79966044142614,NA
60010,Lake County,IL,30.050933786078097,NA
60026,Cook County,IL,87.26655348047538,NA
60035,Lake County,IL,82.51273344651952,NA
60056,Cook County,IL,21.39219015280136,NA
60062,Cook County,IL,86.41765704584041,NA
60067,Cook County,IL,28.862478777589136,NA
60068,Cook County,IL,67.91171477079796,NA
60069,Lake County,IL,83.02207130730051,NA
60089,Lake County,IL,78.09847198641766,NA
60093,Cook County,IL,52.46179966044142,NA
60134,Kane County,IL,48.04753820033956,NA
60137,DuPage County,IL,66.553480475382,NA
60148,DuPage County,IL,14.60101867572156,NA
60156,McHenry County,IL,57.555178268251275,NA
60175,Kane County,IL,76.23089983022071,NA
60184,DuPage County,IL,99.15110356536503,NA
60187,DuPage County,IL,32.597623089983024,NA
60402,Cook County,IL,60.101867572156195,NA
60441,Will County,IL,29.37181663837012,NA
60452,Cook County,IL,64.17657045840407,NA
60453,Cook County,IL,35.483870967741936,NA
60467,Cook County,IL,26.485568760611205,NA
60510,Kane County,IL,33.78607809847199,NA
60617,Cook County,IL,12.73344651952462,NA
60631,Cook County,IL,47.368421052631575,NA
60632,Cook County,IL,20.882852292020374,NA
60646,Cook County,IL,52.97113752122241,NA
60652,Cook County,IL,71.30730050933785,NA
61727,De Witt County,IL,82.85229202037353,NA
62025,Madison County,IL,59.42275042444821,NA
46204,Marion County,IN,NA,41.06583072100313
46307,Lake County,IN,8.998302207130731,NA
46321,Lake County,IN,53.4804753820034,NA
46526,Elkhart County,IN,51.61290322580645,NA
46733,Adams County,IN,84.04074702886248,NA
47112,Harrison County,IN,59.7623089983022,NA
47712,Vanderburgh County,IN,NA,58.620689655172406
50131,Polk County,IA,60.101867572156195,63.94984326018809
50312,Polk County,IA,NA,87.46081504702194
50323,Dallas County,IA,79.28692699490662,NA
50401,Cerro Gordo County,IA,NA,18.808777429467085
52302,Linn County,IA,NA,39.18495297805642
52404,Linn County,IA,35.993208828522924,NA
52732,Clinton County,IA,50.42444821731748,NA
52761,Muscatine County,IA,49.745331069609506,NA
52806,Scott County,IA,27.504244482173174,NA
66061,Johnson County,KS,32.088285229202036,NA
66204,Johnson County,KS,81.32427843803056,NA
66207,Johnson County,KS,79.79626485568761,NA
66218,Johnson County,KS,90.83191850594228,NA
66221,Johnson County,KS,42.27504244482173,NA
66223,Johnson County,KS,70.96774193548387,NA
66547,Pottawatomie County,KS,84.88964346349745,NA
67230,Sedgwick County,KS,93.88794567062818,NA
40212,Jefferson County,KY,NA,36.36363636363637
40215,Jefferson County,KY,NA,30.407523510971785
40218,Jefferson County,KY,NA,27.586206896551722
40245,Jefferson County,KY,51.61290322580645,NA
40390,Jessamine County,KY,NA,91.84952978056427
40422,Boyle County,KY,52.801358234295414,NA
42301,Daviess County,KY,NA,27.89968652037618
42431,Hopkins County,KY,49.9151103565365,NA
42503,Pulaski County,KY,67.91171477079796,NA
70058,Jefferson Parish,LA,0.3395585738539898,NA
70070,St. Charles Parish,LA,23.599320882852293,NA
70374,Lafourche Parish,LA,24.108658743633278,NA
70447,St. Tammany Parish,LA,35.653650254668925,NA
70669,Calcasieu Parish,LA,81.15449915110356,NA
70806,East Baton Rouge Parish,LA,16.129032258064516,NA
70810,East Baton Rouge Parish,LA,6.791171477079796,NA
70817,East Baton Rouge Parish,LA,26.31578947368421,NA
71106,Caddo Parish,LA,3.0560271646859083,NA
71203,Ouachita Parish,LA,3.395585738539898,NA
71220,Morehouse Parish,LA,NA,82.75862068965517
71303,Rapides Parish,LA,48.55687606112054,NA
03904,York County,ME,NA,99.05956112852664
04092,Cumberland County,ME,NA,54.858934169278996
04841,Knox County,ME,NA,83.07210031347962
20685,Calvert County,MD,84.88964346349745,NA
20695,Charles County,MD,83.3616298811545,NA
20854,Montgomery County,MD,44.14261460101868,NA
21074,Carroll County,MD,77.24957555178268,NA
21117,Baltimore County,MD,30.730050933786078,NA
21133,Baltimore County,MD,12.224108658743633,NA
21146,Anne Arundel County,MD,65.53480475382003,NA
21210,Baltimore city,MD,90.83191850594228,NA
21215,Baltimore city,MD,67.57215619694398,NA
21666,Queen Anne's County,MD,80.1358234295416,NA
21853,Somerset County,MD,95.07640067911714,NA
01105,Hampden County,MA,NA,60.18808777429467
01201,Berkshire County,MA,2.2071307300509337,NA
01562,Worcester County,MA,91.85059422750425,NA
01568,Worcester County,MA,82.00339558573853,NA
01752,Middlesex County,MA,NA,8.463949843260188
01776,Middlesex County,MA,36.33276740237691,NA
01821,Middlesex County,MA,NA,23.197492163009404
01905,Essex County,MA,NA,10.9717868338558
02021,Norfolk County,MA,82.34295415959252,NA
02115,Suffolk County,MA,62.98811544991511,NA
02116,Suffolk County,MA,NA,57.36677115987461
02124,Suffolk County,MA,0,0.6269592476489028
02128,Suffolk County,MA,NA,5.329153605015674
02139,Middlesex County,MA,6.621392190152801,NA
02140,Middlesex County,MA,NA,86.20689655172413
02141,Middlesex County,MA,NA,74.29467084639498
02149,Middlesex County,MA,NA,10.344827586206897
02150,Suffolk County,MA,NA,50.470219435736674
02151,Suffolk County,MA,1.1884550084889642,NA
02170,Norfolk County,MA,52.12224108658744,NA
02324,Plymouth County,MA,38.879456706281836,NA
02420,Middlesex County,MA,34.974533106960955,NA
02717,Bristol County,MA,NA,66.4576802507837
02724,Bristol County,MA,NA,62.695924764890286
02780,Bristol County,MA,NA,37.61755485893417
48009,Oakland County,MI,41.935483870967744,NA
48060,St. Clair County,MI,NA,25.705329153605017
48064,St. Clair County,MI,94.22750424448218,NA
48065,Macomb County,MI,57.38539898132428,NA
48073,Oakland County,MI,25.636672325976228,NA
48079,St. Clair County,MI,NA,95.29780564263322
48085,Oakland County,MI,38.37011884550085,NA
48104,Washtenaw County,MI,78.60780984719864,NA
48111,Wayne County,MI,6.960950764006792,NA
48126,Wayne County,MI,NA,6.269592476489027
48152,Wayne County,MI,NA,85.8934169278997
48162,Monroe County,MI,13.242784380305602,NA
48168,Wayne County,MI,24.95755517826825,NA
48178,Oakland County,MI,11.03565365025467,NA
48180,Wayne County,MI,NA,22.884012539184955
48187,Wayne County,MI,9.507640067911714,NA
48227,Wayne County,MI,21.222410865874362,NA
48235,Wayne County,MI,4.584040747028863,NA
48240,Wayne County,MI,NA,66.4576802507837
48302,Oakland County,MI,70.96774193548387,NA
48306,Oakland County,MI,32.42784380305603,NA
48322,Oakland County,MI,46.349745331069606,NA
48323,Oakland County,MI,57.89473684210527,NA
48348,Oakland County,MI,28.35314091680815,NA
48390,Oakland County,MI,31.239388794567063,NA
48837,Eaton County,MI,70.62818336162988,NA
48843,Livingston County,MI,2.3769100169779285,NA
49024,Kalamazoo County,MI,NA,79.9373040752351
49441,Muskegon County,MI,19.864176570458405,NA
49444,Muskegon County,MI,14.261460101867574,41.692789968652036
49519,Kent County,MI,17.996604414261462,NA
49685,Grand Traverse County,MI,78.60780984719864,NA
55038,Washington County,MN,61.79966044142614,NA
55045,Chisago County,MN,82.68251273344653,NA
55104,Ramsey County,MN,NA,19.435736677115987
55112,Ramsey County,MN,NA,53.60501567398119
55117,Ramsey County,MN,NA,26.01880877742947
55118,Dakota County,MN,28.522920203735147,NA
55304,Anoka County,MN,40.57724957555178,NA
55337,Dakota County,MN,13.073005093378608,40.43887147335423
55369,Hennepin County,MN,11.205432937181664,NA
55374,Hennepin County,MN,73.85398981324278,NA
55376,Wright County,MN,41.42614601018676,NA
55378,Scott County,MN,30.390492359932086,NA
55391,Hennepin County,MN,67.40237691001698,NA
55417,Hennepin County,MN,72.83531409168081,NA
55419,Hennepin County,MN,7.809847198641766,NA
55433,Anoka County,MN,34.46519524617997,NA
55709,Itasca County,MN,NA,42.31974921630094
55744,Itasca County,MN,NA,36.677115987460816
55746,St. Louis County,MN,26.146010186757216,NA
56082,Nicollet County,MN,74.02376910016977,NA
56320,Stearns County,MN,84.21052631578947,NA
56537,Otter Tail County,MN,NA,29.780564263322884
38672,DeSoto County,MS,61.120543293718164,NA
38834,Alcorn County,MS,57.72495755517827,NA
39046,Madison County,MS,18.675721561969443,NA
39180,Warren County,MS,NA,31.974921630094045
39272,Hinds County,MS,NA,27.89968652037618
39301,Lauderdale County,MS,NA,33.5423197492163
39305,Lauderdale County,MS,NA,69.90595611285266
39443,Jones County,MS,40.0679117147708,NA
39652,Pike County,MS,53.98981324278438,NA
39735,Choctaw County,MS,NA,81.50470219435736
63028,Jefferson County,MO,29.20203735144312,NA
63052,Jefferson County,MO,18.33616298811545,NA
63122,St. Louis County,MO,38.70967741935484,NA
63368,St. Charles County,MO,NA,56.112852664576806
63461,Marion County,MO,98.13242784380306,NA
63845,Mississippi County,MO,76.06112054329371,NA
64056,Jackson County,MO,NA,32.9153605015674
64063,Jackson County,MO,20.71307300509338,NA
64068,Clay County,MO,1.0186757215619695,NA
64117,Clay County,MO,26.825127334465193,NA
64158,Clay County,MO,84.21052631578947,NA
64485,Andrew County,MO,48.04753820033956,NA
64801,Jasper County,MO,NA,14.733542319749215
65301,Pettis County,MO,NA,20.06269592476489
65560,Dent County,MO,50.76400679117148,NA
65737,Stone County,MO,NA,72.41379310344827
59901,Flathead County,MT,34.63497453310696,NA
68007,Douglas County,NE,89.30390492359932,NA
68111,Douglas County,NE,NA,73.04075235109718
68124,Douglas County,NE,30.560271646859082,NA
68130,Douglas County,NE,35.82342954159593,NA
68901,Adams County,NE,56.7062818336163,NA
69101,Lincoln County,NE,20.37351443123939,NA
89506,Washoe County,NV,27.33446519524618,NA
03087,Rockingham County,NH,21.731748726655347,NA
03842,Rockingham County,NH,64.17657045840407,NA
07050,Essex County,NJ,NA,26.64576802507837
07060,Union County,NJ,NA,3.761755485893417
07103,Essex County,NJ,NA,64.89028213166145
07423,Bergen County,NJ,96.09507640067912,NA
07463,Bergen County,NJ,85.90831918505943,NA
07701,Monmouth County,NJ,46.6893039049236,NA
07726,Monmouth County,NJ,36.6723259762309,NA
07753,Monmouth County,NJ,46.17996604414261,NA
07828,Morris County,NJ,56.36672325976231,NA
07869,Morris County,NJ,68.42105263157895,NA
08062,Gloucester County,NJ,51.61290322580645,NA
08081,Camden County,NJ,13.412563667232597,NA
08089,Camden County,NJ,98.81154499151104,NA
08244,Atlantic County,NJ,68.42105263157895,NA
08701,Ocean County,NJ,NA,48.90282131661442
08731,Ocean County,NJ,NA,98.7460815047022
08833,Hunterdon County,NJ,92.35993208828522,NA
08901,Middlesex County,NJ,NA,1.2539184952978055
87121,Bernalillo County,NM,NA,3.4482758620689653
87144,Sandoval County,NM,31.239388794567063,NA
87413,San Juan County,NM,77.75891341256367,NA
87505,Santa Fe County,NM,15.110356536502549,NA
88210,Eddy County,NM,76.23089983022071,NA
88240,Lea County,NM,NA,25.07836990595611
10011,New York County,NY,61.460101867572156,NA
10028,New York County,NY,97.28353140916808,NA
10029,New York County,NY,NA,0
10306,Richmond County,NY,NA,48.90282131661442
10452,Bronx County,NY,NA,4.38871473354232
10456,Bronx County,NY,11.544991511035652,0.3134796238244514
10458,Bronx County,NY,NA,3.1347962382445136
10460,Bronx County,NY,NA,28.84012539184953
10462,Bronx County,NY,NA,11.598746081504702
10466,Bronx County,NY,NA,2.507836990595611
10467,Bronx County,NY,NA,12.539184952978054
10468,Bronx County,NY,NA,0.9404388714733543
10472,Bronx County,NY,69.10016977928693,10.031347962382444
10533,Westchester County,NY,98.98132427843804,NA
10543,Westchester County,NY,70.62818336162988,NA
10570,Westchester County,NY,98.13242784380306,NA
10701,Westchester County,NY,NA,2.8213166144200628
11021,Nassau County,NY,99.830220713073,NA
11203,Kings County,NY,NA,12.225705329153605
11206,Kings County,NY,NA,2.19435736677116
11208,Kings County,NY,1.8675721561969438,NA
11209,Kings County,NY,NA,25.391849529780565
11214,Kings County,NY,16.808149405772497,NA
11215,Kings County,NY,75.04244482173175,NA
11217,Kings County,NY,75.89134125636672,NA
11219,Kings County,NY,NA,1.5673981191222568
11220,Kings County,NY,11.714770797962649,7.210031347962382
11225,Kings County,NY,24.448217317487266,NA
11229,Kings County,NY,NA,48.589341692789965
11230,Kings County,NY,NA,39.49843260188088
11233,Kings County,NY,NA,16.927899686520377
11368,Queens County,NY,1.3582342954159592,NA
11373,Queens County,NY,5.432937181663837,5.6426332288401255
11418,Queens County,NY,NA,14.106583072100312
11432,Queens County,NY,NA,44.5141065830721
11435,Queens County,NY,7.470288624787775,NA
11436,Queens County,NY,NA,78.36990595611285
11550,Nassau County,NY,2.886247877758913,NA
11590,Nassau County,NY,NA,81.19122257053291
11704,Suffolk County,NY,NA,54.54545454545454
11729,Suffolk County,NY,NA,88.71473354231975
11768,Suffolk County,NY,100,NA
12159,Albany County,NY,96.9439728353141,NA
12184,Columbia County,NY,48.38709677419355,NA
12549,Orange County,NY,90.49235993208828,NA
12901,Clinton County,NY,13.582342954159593,NA
13073,Tompkins County,NY,65.19524617996605,NA
13204,Onondaga County,NY,NA,52.66457680250783
13478,Oneida County,NY,96.7741935483871,NA
13815,Chenango County,NY,23.089983022071305,NA
13905,Broome County,NY,2.5466893039049237,NA
14092,Niagara County,NY,61.62988115449915,NA
14120,Niagara County,NY,5.602716468590832,NA
14206,Erie County,NY,38.030560271646856,NA
14211,Erie County,NY,3.7351443123938877,NA
14214,Erie County,NY,25.97623089983022,NA
14223,Erie County,NY,39.38879456706282,NA
14416,Genesee County,NY,80.4753820033956,NA
14517,Livingston County,NY,87.77589134125637,NA
14526,Monroe County,NY,8.828522920203735,NA
14534,Monroe County,NY,2.7164685908319184,NA
14559,Monroe County,NY,10.69609507640068,NA
14569,Wyoming County,NY,55.68760611205433,NA
14580,Monroe County,NY,0.6791171477079796,NA
14618,Monroe County,NY,10.0169779286927,NA
14619,Monroe County,NY,40.0679117147708,NA
14895,Allegany County,NY,NA,77.4294670846395
27028,Davie County,NC,21.561969439728355,NA
27106,Forsyth County,NC,NA,24.45141065830721
27215,Alamance County,NC,41.76570458404075,NA
27249,Guilford County,NC,37.86078098471987,NA
27302,Alamance County,NC,NA,27.27272727272727
27330,Lee County,NC,31.069609507640067,NA
27360,Davidson County,NC,4.4142614601018675,NA
27503,Durham County,NC,99.66044142614601,NA
27513,Wake County,NC,NA,61.442006269592476
27523,Wake County,NC,82.00339558573853,NA
27526,Wake County,NC,54.83870967741935,NA
27539,Wake County,NC,74.36332767402376,NA
27540,Wake County,NC,26.99490662139219,NA
27587,Wake County,NC,NA,76.48902821316614
27610,Wake County,NC,31.748726655348047,11.912225705329153
27612,Wake County,NC,65.87436332767402,NA
27616,Wake County,NC,NA,29.153605015673982
27617,Wake County,NC,66.21392190152801,NA
27703,Durham County,NC,59.59252971137521,NA
27705,Durham County,NC,62.478777589134125,NA
27707,Durham County,NC,19.69439728353141,NA
27712,Durham County,NC,80.1358234295416,NA
27932,Chowan County,NC,NA,73.98119122257053
28012,Gaston County,NC,62.64855687606112,NA
28227,Mecklenburg County,NC,20.0339558573854,NA
28277,Mecklenburg County,NC,61.120543293718164,NA
28320,Bladen County,NC,NA,84.32601880877742
28360,Robeson County,NC,NA,94.04388714733543
28390,Harnett County,NC,NA,89.0282131661442
28403,New Hanover County,NC,42.95415959252971,NA
28504,Lenoir County,NC,NA,57.36677115987461
28513,Pitt County,NC,77.92869269949067,NA
28602,Catawba County,NC,NA,42.00626959247649
28613,Catawba County,NC,NA,78.68338557993731
28655,Burke County,NC,40.91680814940577,NA
28739,Henderson County,NC,NA,65.20376175548589
58103,Cass County,ND,2.037351443123939,NA
58401,Stutsman County,ND,NA,46.70846394984326
43123,Franklin County,OH,7.30050933786078,NA
43228,Franklin County,OH,NA,6.583072100313479
43326,Hardin County,OH,71.98641765704585,NA
43351,Wyandot County,OH,64.68590831918506,NA
43420,Sandusky County,OH,73.1748726655348,NA
43528,Lucas County,OH,NA,79.9373040752351
43615,Lucas County,OH,4.074702886247878,NA
43701,Muskingum County,OH,0.1697792869269949,5.015673981191222
43812,Coshocton County,OH,NA,15.047021943573668
43943,Jefferson County,OH,71.64685908319186,NA
44001,Lorain County,OH,NA,62.38244514106584
44004,Ashtabula County,OH,NA,8.150470219435736
44011,Lorain County,OH,6.112054329371817,NA
44012,Lorain County,OH,74.70288624787777,NA
44028,Lorain County,OH,91.51103565365025,NA
44035,Lorain County,OH,0.8488964346349746,4.075235109717868
44039,Lorain County,OH,34.125636672325975,NA
44072,Geauga County,OH,99.32088285229203,NA
44077,Lake County,OH,NA,16.927899686520377
44089,Erie County,OH,37.69100169779287,NA
44105,Cuyahoga County,OH,19.524617996604416,22.570532915360502
44111,Cuyahoga County,OH,9.337860780984721,1.8808777429467085
44118,Cuyahoga County,OH,NA,45.141065830721004
44128,Cuyahoga County,OH,NA,7.523510971786834
44130,Cuyahoga County,OH,36.16298811544992,NA
44132,Cuyahoga County,OH,31.918505942275043,NA
44136,Cuyahoga County,OH,20.54329371816638,NA
44138,Cuyahoga County,OH,33.61629881154499,NA
44146,Cuyahoga County,OH,NA,72.10031347962382
44202,Portage County,OH,36.33276740237691,NA
44221,Summit County,OH,NA,13.793103448275861
44224,Summit County,OH,37.521222410865875,NA
44236,Summit County,OH,43.463497453310694,NA
44256,Medina County,OH,1.5280135823429541,NA
44275,Medina County,OH,94.56706281833617,NA
44305,Summit County,OH,NA,13.166144200626958
44408,Columbiana County,OH,83.70118845500849,NA
44481,Trumbull County,OH,50.59422750424448,NA
44483,Trumbull County,OH,10.0169779286927,NA
44485,Trumbull County,OH,NA,34.1692789968652
44505,Mahoning County,OH,12.903225806451612,NA
44511,Mahoning County,OH,NA,37.93103448275862
44646,Stark County,OH,9.847198641765704,NA
44647,Stark County,OH,NA,40.43887147335423
44708,Stark County,OH,NA,31.347962382445143
44709,Stark County,OH,NA,92.47648902821317
45011,Butler County,OH,7.130730050933787,NA
45044,Butler County,OH,1.697792869269949,NA
45066,Warren County,OH,28.522920203735147,NA
45067,Butler County,OH,63.497453310696095,43.573667711598745
45211,Hamilton County,OH,10.35653650254669,NA
45223,Hamilton County,OH,NA,39.811912225705335
45233,Hamilton County,OH,62.13921901528013,NA
45302,Shelby County,OH,98.64176570458405,NA
45324,Greene County,OH,NA,15.987460815047022
45371,Miami County,OH,NA,58.93416927899686
45383,Miami County,OH,NA,74.29467084639498
45414,Montgomery County,OH,17.147707979626485,NA
45424,Montgomery County,OH,NA,17.86833855799373
45431,Montgomery County,OH,87.43633276740238,42.63322884012539
45432,Greene County,OH,NA,86.52037617554859
45459,Montgomery County,OH,NA,30.721003134796238
45662,Scioto County,OH,NA,6.896551724137931
45732,Athens County,OH,NA,63.63636363636363
73036,Canadian County,OK,NA,47.33542319749217
73162,Oklahoma County,OK,54.66893039049236,NA
74074,Payne County,OK,NA,76.8025078369906
74133,Tulsa County,OK,29.541595925297116,NA
74331,Delaware County,OK,NA,60.50156739811913
97007,Washington County,OR,13.921901528013583,NA
97056,Columbia County,OR,NA,97.17868338557993
97116,Washington County,OR,NA,52.97805642633229
97124,Washington County,OR,NA,63.00940438871473
97218,Multnomah County,OR,NA,69.27899686520375
97233,Multnomah County,OR,NA,23.824451410658305
97327,Linn County,OR,97.45331069609507,NA
97355,Linn County,OR,NA,79.3103448275862
97362,Marion County,OR,NA,89.96865203761756
97814,Baker County,OR,80.81494057724957,NA
97838,Umatilla County,OR,18.33616298811545,NA
15001,Beaver County,PA,79.28692699490662,NA
15025,Allegheny County,PA,73.68421052631578,NA
15057,Washington County,PA,NA,74.92163009404389
15106,Allegheny County,PA,NA,58.93416927899686
15126,Allegheny County,PA,NA,79.9373040752351
15213,Allegheny County,PA,NA,92.78996865203762
15217,Allegheny County,PA,69.43972835314092,NA
15221,Allegheny County,PA,8.65874363327674,NA
15227,Allegheny County,PA,NA,70.53291536050156
15234,Allegheny County,PA,79.62648556876061,NA
15237,Allegheny County,PA,22.75042444821732,NA
15238,Allegheny County,PA,NA,94.04388714733543
15317,Washington County,PA,3.225806451612903,NA
75036,NA,NA,90.32258064516128,NA
15642,Westmoreland County,PA,19.35483870967742,NA
15666,Westmoreland County,PA,51.273344651952456,NA
15825,Jefferson County,PA,63.3276740237691,NA
15909,Cambria County,PA,NA,96.86520376175548
15963,Somerset County,PA,NA,87.46081504702194
16055,Butler County,PA,57.89473684210527,NA
16101,Lawrence County,PA,9.67741935483871,NA
16117,Lawrence County,PA,74.87266553480475,NA
16335,Crawford County,PA,28.01358234295416,NA
16601,Blair County,PA,NA,32.60188087774294
16801,Centre County,PA,NA,77.4294670846395
16803,Centre County,PA,55.00848896434635,NA
16823,Centre County,PA,41.59592529711375,NA
17025,Cumberland County,PA,32.93718166383701,NA
17033,Dauphin County,PA,3.5653650254668934,NA
17046,Lebanon County,PA,NA,19.122257053291534
17057,Dauphin County,PA,NA,41.06583072100313
17111,Dauphin County,PA,45.67062818336163,NA
17112,Dauphin County,PA,42.61460101867572,NA
17319,York County,PA,86.24787775891342,NA
17356,York County,PA,18.166383701188455,NA
17365,York County,PA,96.60441426146011,NA
17404,York County,PA,16.6383701188455,NA
17522,Lancaster County,PA,43.97283531409168,50.78369905956113
17543,Lancaster County,PA,NA,46.08150470219436
17701,Lycoming County,PA,5.772495755517826,NA
17745,Clinton County,PA,NA,65.20376175548589
17844,Union County,PA,NA,93.41692789968651
18052,Lehigh County,PA,NA,24.76489028213166
18104,Lehigh County,PA,14.770797962648558,NA
18109,Lehigh County,PA,NA,42.94670846394985
18509,Lackawanna County,PA,NA,88.40125391849529
18519,Lackawanna County,PA,95.58573853989813,NA
19002,Montgomery County,PA,73.3446519524618,86.83385579937304
19004,Montgomery County,PA,69.26994906621393,NA
19020,Bucks County,PA,44.99151103565365,NA
19027,Montgomery County,PA,58.40407470288624,NA
19033,Delaware County,PA,NA,98.43260188087774
19040,Montgomery County,PA,NA,96.55172413793103
19083,Delaware County,PA,45.16129032258064,NA
19134,Philadelphia County,PA,NA,12.852664576802509
19147,Philadelphia County,PA,23.769100169779286,NA
19335,Chester County,PA,15.959252971137522,NA
19382,Chester County,PA,NA,77.11598746081505
19401,Montgomery County,PA,NA,50.15673981191222
19426,Montgomery County,PA,22.75042444821732,NA
19438,Montgomery County,PA,NA,89.34169278996865
19446,Montgomery County,PA,47.02886247877759,NA
19460,Chester County,PA,60.611205432937176,NA
19464,Montgomery County,PA,12.054329371816639,NA
19525,Montgomery County,PA,76.91001697792869,NA
19547,Berks County,PA,92.02037351443124,NA
19601,Berks County,PA,NA,9.404388714733543
19602,Berks County,PA,NA,14.420062695924765
19604,Berks County,PA,NA,8.77742946708464
19608,Berks County,PA,55.178268251273344,NA
02806,Bristol County,RI,54.49915110356537,NA
02825,Providence County,RI,95.41595925297113,NA
02860,Providence County,RI,22.58064516129032,NA
02863,Providence County,RI,38.879456706281836,NA
02882,Washington County,RI,94.56706281833617,NA
02915,Providence County,RI,83.70118845500849,NA
02917,Providence County,RI,86.75721561969439,NA
02919,Providence County,RI,81.32427843803056,NA
29073,Lexington County,SC,NA,74.92163009404389
29349,Spartanburg County,SC,39.898132427843805,NA
29379,Union County,SC,NA,44.5141065830721
29575,Horry County,SC,NA,77.4294670846395
29605,Greenville County,SC,19.015280135823428,NA
29646,Greenwood County,SC,NA,97.80564263322884
29650,Greenville County,SC,35.144312393887944,NA
29681,Greenville County,SC,58.91341256366724,NA
57401,Brown County,SD,4.753820033955857,NA
37027,Williamson County,TN,33.446519524618,NA
37075,Sumner County,TN,32.25806451612903,NA
37086,Rutherford County,TN,21.052631578947366,NA
37221,Davidson County,TN,47.87775891341256,NA
37416,Hamilton County,TN,NA,45.76802507836991
37604,Washington County,TN,NA,51.724137931034484
37660,Sullivan County,TN,49.23599320882852,NA
37664,Sullivan County,TN,74.02376910016977,NA
37692,Unicoi County,TN,95.24617996604414,NA
37843,Cocke County,TN,95.58573853989813,NA
37857,Hawkins County,TN,44.821731748726656,NA
37876,Sevier County,TN,68.25127334465195,NA
37919,Knox County,TN,35.144312393887944,NA
37920,Knox County,TN,23.089983022071305,NA
37921,Knox County,TN,NA,23.824451410658305
37938,Knox County,TN,56.196943972835314,NA
38017,Shelby County,TN,36.6723259762309,NA
38115,Shelby County,TN,NA,15.673981191222571
38120,Shelby County,TN,97.62308998302207,NA
38135,Shelby County,TN,NA,55.4858934169279
38477,Giles County,TN,99.32088285229203,NA
38544,Putnam County,TN,NA,95.92476489028213
75006,Dallas County,TX,NA,21.630094043887148
75025,Collin County,TX,44.14261460101868,NA
75032,Rockwall County,TX,42.95415959252971,NA
75042,Dallas County,TX,NA,66.14420062695925
75052,Dallas County,TX,11.205432937181664,NA
75093,Collin County,TX,NA,95.29780564263322
75098,Collin County,TX,76.7402376910017,NA
75211,Dallas County,TX,NA,7.836990595611286
75214,Dallas County,TX,44.65195246179966,NA
75220,Dallas County,TX,24.27843803056027,NA
75243,Dallas County,TX,NA,51.410658307210035
75253,Dallas County,TX,NA,37.30407523510972
75763,Anderson County,TX,96.264855687606115,NA
75801,Anderson County,TX,68.42105263157895,NA
76011,Tarrant County,TX,15.280135823429541,NA
76086,Parker County,TX,NA,58.93416927899686
76108,Tarrant County,TX,22.07130730050934,NA
76116,Tarrant County,TX,8.488964346349745,NA
76137,Tarrant County,TX,NA,57.05329153605015
76543,Bell County,TX,NA,34.48275862068966
76706,McLennan County,TX,20.203735144312393,NA
77019,Harris County,TX,72.49575551782682,NA
77042,Harris County,TX,NA,56.112852664576806
77057,Harris County,TX,46.349745331069606,NA
77058,Harris County,TX,NA,83.38557993730407
77067,Harris County,TX,NA,21.316614420062695
77069,Harris County,TX,NA,94.04388714733543
77075,Harris County,TX,NA,59.87460815047022
77084,Harris County,TX,NA,16.614420062695924
77095,Harris County,TX,NA,63.94984326018809
77096,Harris County,TX,NA,83.38557993730407
77099,Harris County,TX,58.40407470288624,38.87147335423197
77373,Harris County,TX,17.826825127334462,NA
77386,Montgomery County,TX,22.410865874363328,NA
77401,Harris County,TX,85.39898132427844,NA
77478,Fort Bend County,TX,NA,99.68652037617555
77494,Fort Bend County,TX,5.263157894736842,NA
77573,Galveston County,TX,25.29711375212224,13.479623824451412
77581,Brazoria County,TX,24.61799660441426,NA
77583,Brazoria County,TX,NA,53.91849529780565
77705,Jefferson County,TX,NA,65.20376175548589
77845,Brazos County,TX,5.942275042444821,NA
77904,Victoria County,TX,NA,66.4576802507837
77968,Victoria County,TX,88.96434634974533,NA
78040,Webb County,TX,15.619694397283531,NA
78073,Bexar County,TX,NA,84.01253918495298
78130,Comal County,TX,47.70797962648557,NA
78133,Comal County,TX,50.08488964346349,NA
78238,Bexar County,TX,NA,42.94670846394985
78242,Bexar County,TX,NA,18.181818181818183
78254,Bexar County,TX,70.28862478777589,NA
78255,Bexar County,TX,80.98471986417657,NA
78504,Hidalgo County,TX,32.93718166383701,NA
78572,Hidalgo County,TX,NA,4.702194357366771
78620,Hays County,TX,88.11544991511036,NA
78634,Williamson County,TX,63.66723259762309,NA
78729,Williamson County,TX,NA,84.32601880877742
78735,Travis County,TX,90.15280135823429,NA
78746,Travis County,TX,59.25297113752123,NA
79107,Potter County,TX,11.884550084889643,NA
79119,Randall County,TX,60.101867572156195,NA
79360,Gaines County,TX,25.46689303904924,NA
79703,Midland County,TX,46.01018675721562,NA
79705,Midland County,TX,16.97792869269949,NA
79904,El Paso County,TX,36.6723259762309,NA
79924,El Paso County,TX,10.865874363327674,NA
84123,Salt Lake County,UT,24.78777589134126,NA
84651,Utah County,UT,29.711375212224105,NA
84780,Washington County,UT,65.19524617996605,NA
20155,Prince William County,VA,66.723259762309,NA
20164,Loudoun County,VA,NA,52.35109717868338
20170,Fairfax County,VA,NA,63.94984326018809
22041,Fairfax County,VA,40.74702886247878,NA
22046,Falls Church city,VA,92.86926994906621,NA
22601,Winchester city,VA,49.06621392190153,NA
22802,Harrisonburg city,VA,NA,31.661442006269592
22911,Albemarle County,VA,92.19015280135824,NA
23114,Chesterfield County,VA,72.49575551782682,NA
23666,Hampton city,VA,71.81663837011885,NA
24060,Montgomery County,VA,NA,60.50156739811913
24073,Montgomery County,VA,NA,71.15987460815047
24091,Floyd County,VA,89.47368421052632,NA
24141,Radford city,VA,NA,54.858934169278996
24333,Galax city,VA,22.07130730050934,NA
98020,Snohomish County,WA,71.98641765704585,NA
98022,King County,WA,88.794567062818345,NA
98178,King County,WA,NA,54.2319749216301
98203,Snohomish County,WA,12.563667232597622,NA
98360,Pierce County,WA,70.45840407470288,97.17868338557993
98387,Pierce County,WA,15.449915110356535,NA
98409,Pierce County,WA,27.504244482173174,NA
98503,Thurston County,WA,50.76400679117148,NA
98684,Clark County,WA,96.264855687606115,NA
25015,Kanawha County,WV,NA,93.41692789968651
25313,Kanawha County,WV,NA,69.90595611285266
25901,Fayette County,WV,NA,90.59561128526646
26047,Hancock County,WV,NA,71.15987460815047
53005,Waukesha County,WI,8.149405772495756,NA
53032,Dodge County,WI,78.43803056027164,NA
53121,Walworth County,WI,39.72835314091681,NA
53132,Milwaukee County,WI,23.089983022071305,NA
53143,Kenosha County,WI,17.487266553480477,NA
53144,Kenosha County,WI,9.168081494057725,NA
53154,Milwaukee County,WI,29.8811544991511,NA
53172,Milwaukee County,WI,52.63157894736842,NA
53210,Milwaukee County,WI,7.6400679117147705,NA
53224,Milwaukee County,WI,13.752122241086587,NA
53511,Rock County,WI,0.5093378607809848,NA
53548,Rock County,WI,25.806451612903224,NA
53901,Columbia County,WI,NA,84.95297805642633
53916,Dodge County,WI,NA,39.811912225705335
53965,Sauk County,WI,45.16129032258064,NA
54303,Brown County,WI,NA,35.42319749216301
54467,Portage County,WI,NA,89.96865203761756
54840,Burnett County,WI,NA,82.13166144200626
54871,Washburn County,WI,NA,79.9373040752351
54914,Outagamie County,WI,69.94906621392191,NA
54944,Outagamie County,WI,84.21052631578947,NA
54956,Winnebago County,WI,6.281833616298811,NA
82901,Sweetwater County,WY,66.04414261460101,NA
