ZipCode,county,state,Youth,Adult,Retirement
35124,Shelby County,AL,46.7032967032967,NA,NA
35244,Jefferson County,AL,49.45054945054945,NA,NA
35758,Madison County,AL,NA,NA,43.61702127659575
36067,Autauga County,AL,NA,34.763948497854074,NA
36567,Baldwin County,AL,79.67032967032966,NA,NA
36575,Mobile County,AL,61.53846153846154,NA,NA
36603,Mobile County,AL,NA,84.12017167381974,NA
99507,Anchorage Municipality,AK,NA,33.47639484978541,NA
85012,Maricopa County,AZ,NA,86.69527896995707,NA
85085,Maricopa County,AZ,59.89010989010989,NA,NA
85118,Pinal County,AZ,NA,NA,68.61702127659575
85253,Maricopa County,AZ,NA,87.1244635193133,NA
85331,Maricopa County,AZ,66.48351648351648,NA,NA
85353,Maricopa County,AZ,NA,32.61802575107296,NA
85375,Maricopa County,AZ,NA,NA,28.723404255319153
85387,Maricopa County,AZ,NA,80.25751072961373,NA
85718,Pima County,AZ,NA,57.08154506437768,NA
86004,Coconino County,AZ,NA,60.51502145922747,NA
86326,Yavapai County,AZ,48.35164835164835,NA,NA
72370,Mississippi County,AR,NA,97.42489270386267,NA
72904,Sebastian County,AR,NA,58.798283261802574,NA
90047,Los Angeles County,CA,NA,15.879828326180256,NA
90650,Los Angeles County,CA,NA,17.59656652360515,NA
91011,Los Angeles County,CA,NA,NA,84.04255319148936
91306,Los Angeles County,CA,NA,37.33905579399141,NA
91316,Los Angeles County,CA,NA,70.3862660944206,NA
91790,Los Angeles County,CA,NA,51.072961373390555,NA
91791,Los Angeles County,CA,NA,80.68669527896995,NA
92064,San Diego County,CA,31.318681318681318,NA,NA
92203,Riverside County,CA,NA,40.772532188841204,NA
92262,Riverside County,CA,NA,22.746781115879827,NA
92301,San Bernardino County,CA,NA,65.23605150214593,NA
92530,Riverside County,CA,32.967032967032964,NA,NA
92627,Orange County,CA,NA,21.888412017167383,NA
93230,Kings County,CA,NA,66.52360515021459,NA
94116,San Francisco County,CA,NA,NA,40.42553191489361
94306,Santa Clara County,CA,NA,NA,70.2127659574468
94526,Contra Costa County,CA,NA,NA,52.12765957446809
94558,Napa County,CA,NA,NA,38.297872340425535
94607,Alameda County,CA,NA,NA,79.25531914893617
95210,San Joaquin County,CA,NA,36.05150214592275,NA
95350,Stanislaus County,CA,NA,19.313304721030043,NA
95404,Sonoma County,CA,NA,NA,35.1063829787234
95472,Sonoma County,CA,NA,NA,61.170212765957444
95492,Sonoma County,CA,NA,90.55793991416309,NA
95687,Solano County,CA,53.84615384615385,NA,NA
95762,El Dorado County,CA,41.75824175824176,NA,NA
95826,Sacramento County,CA,NA,NA,85.63829787234043
95959,Nevada County,CA,NA,91.84549356223177,NA
95993,Sutter County,CA,NA,78.54077253218884,NA
96021,Tehama County,CA,NA,76.82403433476395,NA
80015,Arapahoe County,CO,4.395604395604396,NA,NA
80020,Broomfield County,CO,NA,42.06008583690987,NA
80130,Douglas County,CO,NA,78.96995708154506,82.97872340425532
80205,Denver County,CO,NA,14.163090128755366,NA
80401,Jefferson County,CO,32.417582417582416,NA,NA
80439,Jefferson County,CO,NA,82.40343347639485,NA
80634,Weld County,CO,NA,3.4334763948497855,NA
80904,El Paso County,CO,NA,NA,65.42553191489363
80920,El Paso County,CO,NA,NA,63.297872340425535
81007,Pueblo County,CO,NA,NA,46.27659574468085
06051,Hartford County,CT,NA,3.862660944206009,NA
06120,Hartford County,CT,NA,47.63948497854077,NA
06457,Middlesex County,CT,NA,7.296137339055794,NA
06460,New Haven County,CT,NA,28.32618025751073,NA
19734,New Castle County,DE,NA,NA,81.91489361702128
19802,New Castle County,DE,17.032967032967033,NA,NA
32065,Clay County,FL,NA,NA,40.95744680851064
32118,Volusia County,FL,NA,NA,67.02127659574468
32145,St. Johns County,FL,NA,94.84978540772532,NA
32210,Duval County,FL,NA,4.291845493562231,NA
32223,Duval County,FL,NA,72.96137339055794,NA
32259,St. Johns County,FL,NA,NA,42.02127659574468
32404,Bay County,FL,NA,NA,27.127659574468083
32439,Walton County,FL,NA,75.10729613733905,NA
32505,Escambia County,FL,NA,NA,12.76595744680851
32606,Alachua County,FL,NA,NA,34.57446808510639
32656,Clay County,FL,54.395604395604394,NA,NA
32696,Levy County,FL,NA,85.83690987124464,NA
32736,Lake County,FL,NA,91.41630901287554,NA
32779,Seminole County,FL,90.65934065934066,NA,NA
32822,Orange County,FL,86.81318681318682,NA,NA
32828,Orange County,FL,47.25274725274725,NA,NA
32927,Brevard County,FL,NA,51.50214592274678,NA
33009,Broward County,FL,NA,NA,48.93617021276596
33133,Miami-Dade County,FL,NA,NA,44.680851063829785
33134,Miami-Dade County,FL,NA,77.6824034334764,NA
33418,Palm Beach County,FL,NA,53.648068669527895,NA
33442,Broward County,FL,NA,NA,39.361702127659576
33455,Martin County,FL,81.86813186813187,NA,NA
33613,Hillsborough County,FL,NA,39.05579399141631,NA
33617,Hillsborough County,FL,10.43956043956044,NA,NA
33755,Pinellas County,FL,50,NA,NA
33772,Pinellas County,FL,82.96703296703298,NA,NA
33837,Polk County,FL,NA,NA,51.06382978723404
33901,Lee County,FL,NA,NA,47.87234042553192
34212,Manatee County,FL,97.25274725274726,NA,NA
34221,Manatee County,FL,NA,NA,34.04255319148936
34223,Sarasota County,FL,NA,87.98283261802575,NA
34488,Marion County,FL,NA,NA,74.46808510638297
34667,Pasco County,FL,35.714285714285715,NA,NA
34677,Pinellas County,FL,74.72527472527473,NA,NA
34695,Pinellas County,FL,84.61538461538461,NA,NA
30004,Fulton County,GA,23.076923076923077,NA,NA
30017,Gwinnett County,GA,28.021978021978022,NA,NA
30022,Fulton County,GA,NA,73.39055793991416,NA
30024,Gwinnett County,GA,15.384615384615385,NA,NA
30044,Gwinnett County,GA,NA,21.45922746781116,NA
30082,Cobb County,GA,78.02197802197803,NA,NA
30114,Cherokee County,GA,29.67032967032967,NA,NA
30144,Cobb County,GA,37.91208791208791,NA,NA
30152,Cobb County,GA,57.14285714285714,NA,NA
30188,Cherokee County,GA,34.065934065934066,NA,NA
30268,Fulton County,GA,NA,NA,75
30286,Upson County,GA,NA,48.927038626609445,NA
30294,DeKalb County,GA,NA,39.05579399141631,NA
30331,Fulton County,GA,NA,17.167381974248926,NA
30338,DeKalb County,GA,NA,NA,70.74468085106383
30346,DeKalb County,GA,88.46153846153845,NA,NA
30401,Emanuel County,GA,94.5054945054945,NA,NA
30518,Gwinnett County,GA,27.472527472527474,NA,NA
30736,Catoosa County,GA,13.736263736263737,NA,NA
30741,Walker County,GA,NA,21.030042918454935,NA
31513,Appling County,GA,NA,69.52789699570815,NA
31750,Ben Hill County,GA,NA,NA,36.17021276595745
96819,Honolulu County,HI,NA,NA,20.74468085106383
83642,Ada County,ID,NA,46.78111587982833,NA
83702,Ada County,ID,30.21978021978022,NA,NA
83704,Ada County,ID,NA,NA,4.787234042553192
83716,Ada County,ID,NA,NA,45.21276595744681
60007,Cook County,IL,NA,NA,25.53191489361702
60013,McHenry County,IL,NA,55.36480686695279,NA
60025,Cook County,IL,NA,NA,7.446808510638298
60042,McHenry County,IL,NA,81.97424892703863,NA
60050,McHenry County,IL,29.120879120879124,NA,NA
60085,Lake County,IL,NA,18.4549356223176,NA
60103,DuPage County,IL,25.274725274725274,NA,NA
60106,DuPage County,IL,NA,61.37339055793991,NA
60139,DuPage County,IL,NA,NA,39.8936170212766
60422,Cook County,IL,NA,NA,50
60477,Cook County,IL,47.8021978021978,NA,NA
60513,Cook County,IL,NA,NA,92.5531914893617
60525,Cook County,IL,12.637362637362637,NA,19.680851063829788
60548,DeKalb County,IL,NA,82.83261802575107,NA
60558,Cook County,IL,NA,NA,66.48936170212765
60563,DuPage County,IL,NA,43.34763948497854,NA
60617,Cook County,IL,NA,NA,3.1914893617021276
60625,Cook County,IL,36.81318681318682,NA,NA
60649,Cook County,IL,NA,NA,12.23404255319149
61032,Stephenson County,IL,NA,NA,24.46808510638298
61103,Winnebago County,IL,NA,52.36051502145923,NA
61944,Edgar County,IL,NA,78.96995708154506,NA
62012,Macoupin County,IL,NA,NA,78.19148936170212
62650,Morgan County,IL,52.74725274725275,NA,NA
62864,Jefferson County,IL,45.604395604395606,NA,NA
46041,Clinton County,IN,43.40659340659341,NA,NA
46173,Rush County,IN,NA,56.65236051502146,NA
46201,Marion County,IN,NA,19.742489270386265,NA
46224,Marion County,IN,NA,30.90128755364807,NA
46236,Marion County,IN,62.08791208791209,85.40772532188842,NA
46327,Lake County,IN,NA,NA,59.57446808510638
46368,Porter County,IN,NA,NA,2.6595744680851063
46845,Allen County,IN,36.26373626373626,NA,NA
47165,Washington County,IN,NA,84.97854077253218,NA
47201,Bartholomew County,IN,NA,12.446351931330472,16.48936170212766
47441,Greene County,IN,99.45054945054946,NA,NA
47620,Posey County,IN,NA,NA,64.36170212765957
47804,Vigo County,IN,NA,59.227467811158796,NA
50317,Polk County,IA,19.230769230769234,NA,NA
50613,Black Hawk County,IA,NA,NA,17.02127659574468
50616,Floyd County,IA,NA,NA,53.72340425531915
51104,Woodbury County,IA,53.2967032967033,NA,NA
51501,Pottawattamie County,IA,NA,NA,13.297872340425531
51546,Harrison County,IA,95.05494505494505,NA,NA
52601,Des Moines County,IA,NA,NA,21.808510638297875
52641,Henry County,IA,59.34065934065934,NA,NA
66203,Johnson County,KS,NA,NA,71.27659574468085
67144,Butler County,KS,NA,NA,100
67205,Sedgwick County,KS,84.61538461538461,NA,NA
40299,Jefferson County,KY,NA,33.90557939914164,NA
40351,Rowan County,KY,NA,93.13304721030042,NA
40509,Fayette County,KY,NA,33.047210300429185,NA
40514,Fayette County,KY,NA,89.69957081545064,NA
42025,Marshall County,KY,NA,41.63090128755365,NA
42301,Daviess County,KY,NA,10.300429184549357,NA
70068,St. John the Baptist Parish,LA,NA,NA,25
70072,Jefferson Parish,LA,NA,1.7167381974248928,NA
70448,St. Tammany Parish,LA,34.61538461538461,NA,NA
70458,St. Tammany Parish,LA,1.6483516483516485,NA,NA
70506,Lafayette Parish,LA,NA,NA,23.93617021276596
70526,Acadia Parish,LA,NA,25.75107296137339,NA
70563,Iberia Parish,LA,96.7032967032967,NA,NA
70578,Acadia Parish,LA,NA,98.71244635193133,NA
70739,East Baton Rouge Parish,LA,NA,77.25321888412017,NA
70812,East Baton Rouge Parish,LA,NA,NA,82.4468085106383
71037,Bossier Parish,LA,NA,18.88412017167382,NA
71111,Bossier Parish,LA,6.043956043956044,NA,NA
71234,Union Parish,LA,NA,97.85407725321889,NA
04107,Cumberland County,ME,NA,NA,98.93617021276596
04730,Aroostook County,ME,44.505494505494504,NA,NA
04976,Somerset County,ME,NA,16.30901287553648,NA
20657,Calvert County,MD,NA,NA,86.17021276595744
20723,Howard County,MD,NA,NA,77.6595744680851
20744,Prince George's County,MD,NA,NA,43.08510638297872
20815,Montgomery County,MD,59.89010989010989,NA,NA
20901,Montgomery County,MD,69.23076923076923,NA,NA
20910,Montgomery County,MD,NA,57.5107296137339,NA
21037,Anne Arundel County,MD,NA,72.1030042918455,NA
21154,Harford County,MD,NA,92.27467811158799,NA
21212,Baltimore city,MD,NA,74.2489270386266,NA
21228,Baltimore County,MD,NA,49.35622317596567,NA
21911,Cecil County,MD,NA,NA,76.59574468085107
01007,Hampshire County,MA,NA,48.497854077253216,NA
01057,Hampden County,MA,65.93406593406593,NA,NA
01464,Middlesex County,MA,NA,92.7038626609442,NA
01590,Worcester County,MA,NA,73.8197424892704,NA
01605,Worcester County,MA,30.76923076923077,NA,NA
01610,Worcester County,MA,NA,0.4291845493562232,NA
01702,Middlesex County,MA,4.945054945054945,NA,NA
01921,Essex County,MA,NA,NA,89.8936170212766
02038,Norfolk County,MA,NA,NA,52.659574468085104
02081,Norfolk County,MA,NA,23.17596566523605,NA
02118,Suffolk County,MA,2.197802197802198,NA,NA
02119,Suffolk County,MA,NA,0,NA
02136,Suffolk County,MA,NA,2.1459227467811157,NA
02138,Middlesex County,MA,NA,38.197424892703864,NA
02148,Middlesex County,MA,NA,3.004291845493562,NA
02302,Plymouth County,MA,NA,1.2875536480686696,NA
02346,Plymouth County,MA,NA,NA,15.957446808510639
02445,Norfolk County,MA,75.82417582417582,NA,NA
02493,Middlesex County,MA,NA,63.94849785407726,NA
02536,Barnstable County,MA,NA,NA,19.148936170212767
02720,Bristol County,MA,NA,NA,10.106382978723403
02740,Bristol County,MA,NA,37.76824034334764,NA
48021,Macomb County,MI,NA,10.72961373390558,NA
48076,Oakland County,MI,NA,31.759656652360512,NA
48080,Macomb County,MI,NA,NA,50.53191489361703
48146,Wayne County,MI,NA,7.725321888412018,NA
48161,Monroe County,MI,22.52747252747253,NA,NA
48187,Wayne County,MI,NA,NA,3.723404255319149
48310,Macomb County,MI,11.538461538461538,NA,NA
48324,Oakland County,MI,NA,NA,57.446808510638306
48420,Genesee County,MI,58.791208791208796,NA,NA
48423,Genesee County,MI,NA,NA,27.659574468085108
48433,Genesee County,MI,NA,NA,59.04255319148937
48446,Lapeer County,MI,38.46153846153847,NA,NA
48626,Saginaw County,MI,84.61538461538461,NA,NA
48638,Saginaw County,MI,51.098901098901095,NA,NA
48706,Bay County,MI,NA,NA,1.5957446808510638
48842,Ingham County,MI,NA,35.622317596566525,NA
49007,Kalamazoo County,MI,NA,36.48068669527897,NA
49008,Kalamazoo County,MI,34.61538461538461,NA,NA
49017,Calhoun County,MI,NA,29.184549356223176,NA
49024,Kalamazoo County,MI,NA,27.038626609442062,NA
49201,Jackson County,MI,NA,8.15450643776824,NA
49331,Kent County,MI,55.494505494505496,NA,NA
49341,Kent County,MI,57.692307692307686,NA,NA
49417,Ottawa County,MI,NA,NA,7.9787234042553195
49441,Muskegon County,MI,NA,38.62660944206009,NA
49505,Kent County,MI,NA,24.463519313304722,NA
49506,Kent County,MI,NA,25.321888412017167,NA
49601,Wexford County,MI,46.15384615384615,NA,NA
49866,Marquette County,MI,54.94505494505495,NA,NA
55044,Dakota County,MN,17.582417582417584,NA,NA
55311,Hennepin County,MN,NA,59.65665236051502,NA
55364,Hennepin County,MN,NA,NA,78.72340425531915
55415,Hennepin County,MN,NA,88.8412017167382,NA
55417,Hennepin County,MN,67.58241758241759,NA,NA
55424,Hennepin County,MN,98.9010989010989,NA,NA
55439,Hennepin County,MN,66.48351648351648,NA,NA
55448,Anoka County,MN,19.78021978021978,NA,NA
56082,Nicollet County,MN,NA,74.67811158798283,NA
56431,Aitkin County,MN,62.637362637362635,NA,NA
63010,Jefferson County,MO,24.175824175824175,NA,NA
63021,St. Louis County,MO,92.85714285714286,NA,NA
63052,Jefferson County,MO,16.483516483516482,NA,NA
63111,St. Louis city,MO,NA,NA,53.191489361702125
63122,St. Louis County,MO,NA,NA,30.319148936170215
63130,St. Louis County,MO,50,NA,NA
63304,St. Charles County,MO,39.56043956043956,NA,NA
63401,Marion County,MO,NA,44.20600858369099,NA
64014,Jackson County,MO,NA,22.317596566523605,NA
64060,Clay County,MO,NA,42.91845493562232,NA
64113,Jackson County,MO,NA,66.09442060085837,NA
64152,Platte County,MO,13.186813186813188,NA,NA
65084,Morgan County,MO,NA,NA,90.95744680851064
65689,Texas County,MO,89.56043956043956,NA,NA
65711,Wright County,MO,NA,94.4206008583691,NA
65802,Greene County,MO,NA,NA,73.93617021276596
59405,Cascade County,MT,NA,NA,23.404255319148938
59911,Flathead County,MT,NA,NA,62.23404255319149
68048,Cass County,NE,NA,NA,96.80851063829788
69301,Box Butte County,NE,39.010989010989015,NA,NA
89166,Clark County,NV,71.42857142857143,NA,NA
89521,Washoe County,NV,NA,48.068669527896994,NA
03038,Rockingham County,NH,NA,14.592274678111588,NA
03053,Rockingham County,NH,15.934065934065933,NA,NA
03104,Hillsborough County,NH,NA,41.201716738197426,NA
03106,Merrimack County,NH,NA,NA,51.59574468085106
03824,Strafford County,NH,NA,NA,85.1063829787234
07003,Essex County,NJ,NA,9.44206008583691,NA
07661,Bergen County,NJ,97.8021978021978,NA,NA
07712,Monmouth County,NJ,NA,93.99141630901288,NA
07719,Monmouth County,NJ,62.637362637362635,NA,NA
07740,Monmouth County,NJ,45.05494505494506,NA,NA
07748,Monmouth County,NJ,42.30769230769231,NA,NA
08052,Burlington County,NJ,NA,27.467811158798284,NA
08057,Burlington County,NJ,NA,NA,55.85106382978723
08093,Gloucester County,NJ,48.9010989010989,NA,NA
08094,Gloucester County,NJ,NA,6.437768240343347,NA
08402,Atlantic County,NJ,100,NA,NA
08514,Monmouth County,NJ,NA,99.57081545064378,NA
08759,Ocean County,NJ,NA,NA,1.0638297872340425
08807,Somerset County,NJ,42.857142857142854,NA,NA
08826,Hunterdon County,NJ,NA,95.708154506437765,NA
08830,Middlesex County,NJ,80.21978021978022,NA,NA
08833,Hunterdon County,NJ,91.20879120879121,NA,NA
08840,Middlesex County,NJ,NA,NA,91.48936170212765
08867,Hunterdon County,NJ,72.52747252747253,NA,NA
87124,Sandoval County,NM,NA,NA,11.702127659574469
87567,Santa Fe County,NM,98.35164835164835,NA,NA
88011,Doa Ana County,NM,26.373626373626376,NA,NA
88101,Curry County,NM,NA,9.871244635193133,NA
88203,Chaves County,NM,NA,20.600858369098713,NA
10025,New York County,NY,NA,NA,0
10451,Bronx County,NY,3.296703296703297,NA,NA
10459,Bronx County,NY,6.593406593406594,NA,NA
10467,Bronx County,NY,NA,65.66523605150213,NA
10591,Westchester County,NY,NA,NA,75.53191489361703
10977,Rockland County,NY,52.197802197802204,NA,NA
11207,Kings County,NY,NA,4.721030042918455,NA
11415,Queens County,NY,NA,NA,73.40425531914893
11735,Nassau County,NY,84.06593406593407,NA,NA
11771,Nassau County,NY,NA,NA,94.14893617021278
12144,Rensselaer County,NY,NA,72.53218884120172,NA
13031,Onondaga County,NY,NA,NA,58.51063829787234
13057,Onondaga County,NY,NA,45.92274678111588,NA
13308,Oneida County,NY,77.47252747252747,NA,NA
13317,Montgomery County,NY,75.27472527472527,NA,NA
13439,Otsego County,NY,NA,NA,99.46808510638297
13865,Broome County,NY,NA,45.493562231759654,NA
13901,Broome County,NY,NA,NA,5.851063829787234
14108,Niagara County,NY,NA,54.93562231759657,NA
14201,Erie County,NY,NA,43.776824034334766,NA
14206,Erie County,NY,60.98901098901099,NA,NA
14210,Erie County,NY,17.582417582417584,NA,NA
14221,Erie County,NY,14.285714285714285,NA,NA
14226,Erie County,NY,NA,28.75536480686695,NA
14445,Monroe County,NY,58.24175824175825,NA,NA
14450,Monroe County,NY,0.5494505494505495,NA,37.765957446808514
14468,Monroe County,NY,NA,NA,26.595744680851062
14532,Ontario County,NY,NA,NA,93.08510638297872
14605,Monroe County,NY,NA,8.583690987124463,NA
14608,Monroe County,NY,NA,13.733905579399142,NA
14615,Monroe County,NY,NA,11.587982832618025,NA
14616,Monroe County,NY,NA,NA,11.170212765957446
14617,Monroe County,NY,NA,NA,32.97872340425532
14621,Monroe County,NY,NA,0.8583690987124464,NA
14624,Monroe County,NY,2.7472527472527473,NA,NA
27023,Forsyth County,NC,NA,68.6695278969957,NA
27107,Forsyth County,NC,26.923076923076923,NA,NA
27278,Orange County,NC,79.12087912087912,NA,NA
27409,Guilford County,NC,81.86813186813187,NA,NA
27502,Wake County,NC,76.37362637362637,NA,NA
27615,Wake County,NC,NA,NA,18.617021276595743
27704,Durham County,NC,3.8461538461538463,NA,NA
27712,Durham County,NC,NA,NA,44.148936170212764
27856,Nash County,NC,NA,90.12875536480686,NA
27944,Perquimans County,NC,NA,64.37768240343348,NA
28031,Mecklenburg County,NC,56.59340659340659,NA,NA
28034,Gaston County,NC,NA,NA,72.3404255319149
28166,Iredell County,NC,NA,NA,93.61702127659575
28212,Mecklenburg County,NC,NA,26.180257510729614,NA
28411,New Hanover County,NC,NA,NA,42.5531914893617
28451,Brunswick County,NC,63.73626373626373,NA,NA
28739,Henderson County,NC,NA,NA,17.5531914893617
58104,Cass County,ND,8.791208791208792,NA,NA
58201,Grand Forks County,ND,7.142857142857142,NA,92.02127659574468
43015,Delaware County,OH,83.51648351648352,NA,NA
43040,Union County,OH,93.4065934065934,NA,NA
43123,Franklin County,OH,NA,NA,10.638297872340425
43224,Franklin County,OH,NA,5.579399141630901,NA
43334,Morrow County,OH,89.56043956043956,NA,NA
43551,Wood County,OH,NA,NA,9.042553191489363
43950,Belmont County,OH,NA,NA,21.27659574468085
43952,Jefferson County,OH,NA,62.231759656652365,NA
44023,Geauga County,OH,NA,67.38197424892704,NA
44067,Summit County,OH,NA,34.33476394849785,NA
44130,Cuyahoga County,OH,NA,NA,33.51063829787234
44131,Cuyahoga County,OH,NA,NA,54.78723404255319
44139,Cuyahoga County,OH,NA,NA,18.085106382978726
44146,Cuyahoga County,OH,NA,NA,2.127659574468085
44147,Cuyahoga County,OH,78.57142857142857,NA,NA
44217,Wayne County,OH,NA,99.14163090128756,NA
44254,Medina County,OH,70.87912087912088,NA,NA
44256,Medina County,OH,1.098901098901099,NA,NA
44280,Medina County,OH,NA,93.56223175965665,NA
44444,Trumbull County,OH,NA,NA,84.57446808510637
44641,Stark County,OH,NA,NA,49.46808510638298
44691,Wayne County,OH,NA,6.866952789699571,NA
44708,Stark County,OH,74.17582417582418,NA,NA
44718,Stark County,OH,NA,81.54506437768241,NA
44833,Crawford County,OH,NA,32.18884120171674,NA
44870,Erie County,OH,NA,2.575107296137339,NA
44875,Richland County,OH,NA,98.28326180257511,NA
45013,Butler County,OH,NA,NA,4.25531914893617
45140,Clermont County,OH,NA,24.892703862660944,NA
45240,Hamilton County,OH,8.241758241758241,NA,NA
45331,Darke County,OH,28.57142857142857,NA,NA
45356,Miami County,OH,NA,61.80257510729614,NA
45365,Shelby County,OH,NA,12.017167381974248,NA
45402,Montgomery County,OH,NA,54.077253218884124,NA
45410,Montgomery County,OH,NA,NA,65.95744680851064
45663,Scioto County,OH,NA,NA,63.829787234042556
45830,Putnam County,OH,NA,NA,89.36170212765957
45882,Mercer County,OH,NA,NA,97.87234042553192
73003,Oklahoma County,OK,NA,63.519313304721024,NA
73018,Grady County,OK,NA,NA,69.14893617021278
73064,Canadian County,OK,NA,NA,47.340425531914896
73127,Oklahoma County,OK,70.32967032967034,NA,NA
73142,Oklahoma County,OK,NA,NA,79.7872340425532
73160,Cleveland County,OK,NA,13.304721030042918,NA
73439,Marshall County,OK,NA,NA,94.68085106382979
73507,Comanche County,OK,NA,NA,36.702127659574465
74012,Tulsa County,OK,NA,NA,48.40425531914894
74063,Tulsa County,OK,NA,56.22317596566524,NA
74352,Mayes County,OK,NA,87.55364806866953,NA
74354,Ottawa County,OK,NA,50.21459227467812,NA
97233,Multnomah County,OR,9.340659340659341,NA,NA
97306,Marion County,OR,NA,54.506437768240346,NA
97362,Marion County,OR,NA,96.56652360515021,NA
97381,Marion County,OR,NA,83.2618025751073,NA
97408,Lane County,OR,NA,NA,96.27659574468085
97913,Malheur County,OR,NA,90.98712446351931,NA
15204,Allegheny County,PA,NA,NA,88.29787234042553
15857,Elk County,PA,NA,26.609442060085836,NA
15931,Cambria County,PA,NA,67.81115879828327,NA
16101,Lawrence County,PA,NA,NA,9.574468085106384
16301,Venango County,PA,NA,45.06437768240343,NA
16870,Centre County,PA,81.31868131868131,NA,NA
17022,Lancaster County,PA,NA,64.8068669527897,NA
17043,Cumberland County,PA,NA,NA,95.2127659574468
17055,Cumberland County,PA,NA,NA,22.340425531914892
17057,Dauphin County,PA,NA,18.025751072961373,NA
17074,Perry County,PA,NA,NA,87.7659574468085
17406,York County,PA,NA,NA,75.53191489361703
17522,Lancaster County,PA,NA,NA,15.425531914893616
17566,Lancaster County,PA,NA,NA,83.51063829787235
17603,Lancaster County,PA,12.087912087912088,NA,NA
17745,Clinton County,PA,NA,36.9098712446352,NA
17847,Northumberland County,PA,NA,NA,80.31914893617021
17872,Northumberland County,PA,NA,NA,41.48936170212766
18017,Northampton County,PA,NA,NA,5.319148936170213
18036,Lehigh County,PA,NA,NA,71.80851063829788
18042,Northampton County,PA,NA,NA,6.914893617021277
18201,Luzerne County,PA,NA,NA,30.851063829787233
18505,Lackawanna County,PA,18.681318681318682,39.91416309012876,NA
18518,Lackawanna County,PA,NA,84.54935622317596,NA
18848,Bradford County,PA,64.83516483516483,NA,NA
19002,Montgomery County,PA,NA,NA,28.191489361702125
19010,Delaware County,PA,41.208791208791204,NA,NA
19046,Montgomery County,PA,NA,42.48927038626609,NA
19054,Bucks County,PA,73.62637362637363,NA,NA
19120,Philadelphia County,PA,NA,NA,8.51063829787234
19129,Philadelphia County,PA,NA,62.231759656652365,NA
19135,Philadelphia County,PA,40.10989010989011,NA,NA
19136,Philadelphia County,PA,NA,11.158798283261802,NA
19146,Philadelphia County,PA,NA,NA,29.78723404255319
19312,Chester County,PA,96.15384615384616,NA,NA
19320,Chester County,PA,NA,9.012875536480687,NA
19363,Chester County,PA,73.07692307692307,NA,NA
19425,Chester County,PA,86.26373626373626,NA,NA
19426,Montgomery County,PA,NA,NA,68.08510638297872
19428,Montgomery County,PA,87.36263736263736,NA,NA
19530,Berks County,PA,NA,NA,67.5531914893617
19606,Berks County,PA,NA,88.41201716738198,NA
19608,Berks County,PA,NA,NA,29.25531914893617
02840,Newport County,RI,NA,40.343347639484975,NA
02861,Providence County,RI,69.78021978021978,NA,NA
29016,Richland County,SC,NA,77.6824034334764,NA
29063,Richland County,SC,NA,55.36480686695279,NA
29325,Laurens County,SC,NA,51.931330472103,NA
29501,Florence County,SC,NA,31.330472103004293,NA
29601,Greenville County,SC,NA,71.24463519313305,NA
29654,Anderson County,SC,NA,71.67381974248927,NA
29671,Pickens County,SC,NA,46.3519313304721,NA
29673,Greenville County,SC,31.868131868131865,NA,NA
57110,Minnehaha County,SD,68.13186813186813,NA,NA
57501,Hughes County,SD,NA,NA,88.82978723404256
37090,Wilson County,TN,NA,NA,80.85106382978722
37110,Warren County,TN,NA,NA,31.382978723404253
37129,Rutherford County,TN,14.835164835164836,NA,NA
37327,Sequatchie County,TN,NA,NA,64.8936170212766
37405,Hamilton County,TN,NA,76.39484978540773,NA
37421,Hamilton County,TN,NA,27.896995708154503,NA
37620,Sullivan County,TN,NA,NA,22.872340425531913
37659,Washington County,TN,NA,NA,35.638297872340424
37801,Blount County,TN,NA,15.021459227467812,NA
37923,Knox County,TN,20.87912087912088,NA,NA
38201,Carroll County,TN,NA,79.82832618025752,NA
38305,Madison County,TN,NA,NA,14.893617021276595
75019,Dallas County,TX,NA,52.78969957081545,NA
75022,Denton County,TX,NA,NA,81.38297872340425
75038,Dallas County,TX,NA,NA,90.42553191489363
75056,Denton County,TX,NA,30.472103004291846,NA
75069,Collin County,TX,20.32967032967033,NA,NA
75206,Dallas County,TX,NA,NA,98.40425531914893
75225,Dallas County,TX,NA,NA,56.38297872340425
75474,Hunt County,TX,NA,NA,60.1063829787234
75702,Smith County,TX,NA,69.09871244635193,NA
75783,Wood County,TX,NA,NA,37.234042553191486
76011,Tarrant County,TX,NA,NA,60.63829787234043
76017,Tarrant County,TX,NA,30.042918454935624,NA
76051,Tarrant County,TX,23.626373626373624,NA,NA
76111,Tarrant County,TX,24.725274725274726,NA,NA
76255,Montague County,TX,NA,96.99570815450643,NA
76537,Williamson County,TX,NA,96.13733905579399,NA
76691,McLennan County,TX,91.75824175824175,NA,NA
76707,McLennan County,TX,NA,70.81545064377683,NA
77020,Harris County,TX,NA,NA,54.25531914893617
77064,Harris County,TX,NA,NA,45.744680851063826
77069,Harris County,TX,NA,86.26609442060087,NA
77365,Montgomery County,TX,NA,47.21030042918455,NA
77407,Fort Bend County,TX,21.978021978021978,NA,NA
77450,Harris County,TX,76.92307692307693,NA,NA
77489,Fort Bend County,TX,NA,29.613733905579398,NA
77502,Harris County,TX,NA,50.64377682403433,NA
77539,Galveston County,TX,NA,49.78540772532189,NA
77573,Galveston County,TX,10.989010989010989,NA,NA
77845,Brazos County,TX,NA,NA,6.382978723404255
78209,Bexar County,TX,NA,NA,87.2340425531915
78214,Bexar County,TX,NA,63.0901287553648,NA
78640,Hays County,TX,5.4945054945054945,NA,NA
78748,Travis County,TX,NA,69.95708154506438,NA
79109,Randall County,TX,NA,35.1931330472103,NA
79761,Ector County,TX,NA,NA,57.97872340425532
84009,Salt Lake County,UT,NA,NA,61.702127659574465
84032,Wasatch County,UT,51.64835164835166,NA,NA
84043,Utah County,UT,NA,75.9656652360515,NA
84094,Salt Lake County,UT,20.87912087912088,NA,NA
84096,Salt Lake County,UT,NA,NA,62.76595744680851
84320,Cache County,UT,93.95604395604396,NA,NA
05301,Windham County,VT,NA,60.08583690987125,NA
20155,Prince William County,VA,NA,58.36909871244635,NA
20166,Loudoun County,VA,NA,100,NA
22066,Fairfax County,VA,NA,89.27038626609442,NA
22180,Fairfax County,VA,NA,81.11587982832617,NA
22191,Prince William County,VA,NA,16.738197424892704,NA
22207,Arlington County,VA,37.362637362637365,NA,NA
22301,Alexandria city,VA,NA,75.10729613733905,NA
22902,Charlottesville city,VA,64.83516483516483,NA,NA
22936,Albemarle County,VA,NA,NA,97.3404255319149
23523,Norfolk city,VA,95.6043956043956,NA,NA
23602,Newport News city,VA,NA,60.94420600858369,NA
23608,Newport News city,VA,NA,20.171673819742487,NA
24018,Roanoke County,VA,NA,44.63519313304721,NA
98006,King County,WA,89.01098901098901,NA,NA
98023,King County,WA,NA,NA,20.212765957446805
98027,King County,WA,NA,NA,46.808510638297875
98040,King County,WA,NA,NA,56.91489361702128
98042,King County,WA,40.65934065934066,NA,NA
98109,King County,WA,NA,57.5107296137339,NA
98115,King County,WA,87.91208791208791,NA,NA
98155,King County,WA,68.68131868131869,NA,NA
98258,Snohomish County,WA,9.89010989010989,NA,NA
98270,Snohomish County,WA,25.274725274725274,NA,NA
98390,Pierce County,WA,92.3076923076923,NA,NA
98466,Pierce County,WA,NA,NA,38.82978723404255
98512,Thurston County,WA,NA,NA,77.12765957446808
98903,Yakima County,WA,NA,NA,55.319148936170215
98942,Yakima County,WA,64.28571428571429,NA,NA
99022,Spokane County,WA,NA,NA,95.74468085106383
99114,Stevens County,WA,NA,NA,72.87234042553192
99336,Benton County,WA,NA,12.875536480686694,NA
25314,Kanawha County,WV,NA,52.78969957081545,NA
26034,Hancock County,WV,NA,NA,86.70212765957447
26508,Monongalia County,WV,NA,5.150214592274678,NA
53024,Ozaukee County,WI,43.956043956043956,NA,NA
53105,Racine County,WI,NA,NA,13.829787234042554
53115,Walworth County,WI,33.51648351648351,NA,NA
53154,Milwaukee County,WI,NA,23.605150214592275,14.361702127659576
53405,Racine County,WI,NA,6.008583690987124,NA
53511,Rock County,WI,0,NA,NA
53545,Rock County,WI,NA,NA,26.063829787234045
53546,Rock County,WI,NA,NA,32.4468085106383
53548,Rock County,WI,NA,NA,31.914893617021278
53562,Dane County,WI,80.76923076923077,NA,NA
53965,Sauk County,WI,NA,68.24034334763948,NA
54130,Outagamie County,WI,56.043956043956044,NA,NA
54157,Marinette County,WI,71.97802197802197,NA,NA
54451,Taylor County,WI,NA,NA,69.68085106382979
54552,Price County,WI,NA,95.27896995708154,NA
54601,La Crosse County,WI,NA,NA,0.5319148936170213
54904,Winnebago County,WI,NA,66.95278969957081,NA
54914,Outagamie County,WI,NA,24.034334763948497,NA
54935,Fond du Lac County,WI,NA,15.450643776824036,NA
54956,Winnebago County,WI,7.6923076923076925,NA,NA
54961,Waupaca County,WI,NA,83.69098712446352,NA
