ZipCode,county,state,Youth,Pediatric,Adult
35005,Jefferson County,AL,78.8302834589164,NA,NA
35007,Shelby County,AL,36.84965913168281,NA,NA
35023,Jefferson County,AL,51.23789020452099,NA,NA
35044,Talladega County,AL,34.15859346968066,NA,NA
35045,Chilton County,AL,46.60925726587728,NA,NA
35068,Jefferson County,AL,NA,87.3015873015873,NA
35077,Cullman County,AL,81.84427700035882,NA,NA
35111,Tuscaloosa County,AL,NA,78.41269841269842,NA
35115,Shelby County,AL,50.627915321133834,NA,NA
35124,Shelby County,AL,42.913527090060995,NA,NA
35151,Talladega County,AL,97.73950484391818,NA,NA
35208,Jefferson County,AL,69.78830283458916,NA,NA
35215,Jefferson County,AL,5.884463580911374,NA,NA
35217,Jefferson County,AL,NA,51.90476190476191,NA
35242,Shelby County,AL,28.70470039468963,NA,NA
35401,Tuscaloosa County,AL,19.088625762468602,NA,NA
35476,Tuscaloosa County,AL,NA,63.650793650793645,NA
35565,Winston County,AL,43.55938284894151,NA,NA
35578,Walker County,AL,79.04556871187657,NA,NA
35601,Morgan County,AL,12.450663796196627,NA,NA
35630,Lauderdale County,AL,42.44707570864729,NA,NA
35640,Morgan County,AL,16.110513096519554,NA,NA
35650,Lawrence County,AL,41.94474345174022,NA,NA
35652,Lauderdale County,AL,92.60853964836741,NA,NA
35653,Franklin County,AL,63.47326874775745,NA,NA
35758,Madison County,AL,26.551847865087908,NA,NA
35805,Madison County,AL,35.952637244348765,NA,NA
35901,Etowah County,AL,26.94653749551489,NA,NA
35950,Marshall County,AL,80.91137423753139,NA,NA
35951,Marshall County,AL,62.07391460351632,NA,NA
35968,DeKalb County,AL,95.6584140653032,NA,NA
35976,Marshall County,AL,60.674560459275206,NA,NA
36033,Butler County,AL,81.84427700035882,NA,NA
36037,Butler County,AL,89.80983135988518,NA,NA
36078,Elmore County,AL,NA,77.46031746031747,NA
36079,Pike County,AL,83.88948690348045,NA,NA
36089,Bullock County,AL,88.44635809113743,NA,NA
36092,Elmore County,AL,43.810548977395044,NA,NA
36109,Montgomery County,AL,58.16289917473987,NA,NA
36111,Montgomery County,AL,73.66343738787226,NA,NA
36116,Montgomery County,AL,39.97129529960531,NA,NA
36117,Montgomery County,AL,NA,NA,75.40106951871658
36203,Calhoun County,AL,NA,34.285714285714285,NA
36207,Calhoun County,AL,91.10154287764621,NA,NA
36250,Calhoun County,AL,89.05633297452458,NA,NA
36265,Calhoun County,AL,29.52996053103696,NA,NA
36278,Randolph County,AL,92.070326515967,NA,NA
36310,Henry County,AL,90.31216361679225,NA,NA
36420,Covington County,AL,55.758880516684606,NA,NA
36421,Covington County,AL,75.67276641550053,NA,NA
36451,Clarke County,AL,NA,73.96825396825398,NA
36467,Covington County,AL,78.50735557947614,NA,NA
36477,Geneva County,AL,91.60387513455328,NA,NA
36527,Baldwin County,AL,83.20775026910655,NA,NA
36572,Mobile County,AL,86.40114818801578,NA,NA
36606,Mobile County,AL,NA,69.36507936507937,NA
36610,Mobile County,AL,NA,94.12698412698413,NA
36613,Mobile County,AL,48.33153928955867,NA,NA
36619,Mobile County,AL,83.20775026910655,NA,NA
36695,Mobile County,AL,23.75313957660567,NA,NA
36701,Dallas County,AL,16.43344097595981,NA,NA
36784,Clarke County,AL,NA,86.82539682539682,NA
36804,Lee County,AL,64.62145676354503,NA,NA
36854,Chambers County,AL,60.028704700394684,NA,NA
36862,Chambers County,AL,NA,94.44444444444444,NA
36863,Chambers County,AL,73.98636526731252,NA,NA
36867,Russell County,AL,23.2508073196986,NA,NA
99503,Anchorage Municipality,AK,NA,60.63492063492063,NA
99504,Anchorage Municipality,AK,8.396124865446716,NA,25.668449197860966
99507,Anchorage Municipality,AK,15.966989594546108,NA,NA
99517,Anchorage Municipality,AK,65.01614639397201,NA,NA
99576,Dillingham Census Area,AK,84.06889128094726,NA,NA
99604,Wade Hampton Census Area,AK,97.09364908503767,NA,NA
99611,Kenai Peninsula Borough,AK,56.40473627556513,NA,NA
99654,Matanuska-Susitna Borough,AK,22.640832436311445,NA,NA
99701,Fairbanks North Star Borough,AK,69.96770721205597,NA,NA
99901,Ketchikan Gateway Borough,AK,47.90096878363832,NA,NA
85003,Maricopa County,AZ,93.18263365626122,NA,NA
85006,Maricopa County,AZ,37.56727664155005,17.142857142857142,NA
85008,Maricopa County,AZ,4.05453893074991,NA,NA
85009,Maricopa County,AZ,23.501973448152135,NA,NA
85015,Maricopa County,AZ,12.127735916756368,NA,NA
85016,Maricopa County,AZ,40.76067456045928,NA,NA
85017,Maricopa County,AZ,11.302475780409042,NA,NA
85018,Maricopa County,AZ,16.756368855400073,NA,NA
85023,Maricopa County,AZ,80.48080373161105,NA,NA
85024,Maricopa County,AZ,68.64011481880158,NA,NA
85031,Maricopa County,AZ,65.66200215285252,NA,NA
85032,Maricopa County,AZ,82.02368137782562,NA,NA
85035,Maricopa County,AZ,32.57983494797273,NA,NA
85037,Maricopa County,AZ,4.018658055256549,NA,NA
85041,Maricopa County,AZ,2.3322569070685324,NA,NA
85042,Maricopa County,AZ,47.68568353067815,NA,NA
85043,Maricopa County,AZ,32.00574094007894,NA,NA
85048,Maricopa County,AZ,49.6232508073197,NA,NA
85050,Maricopa County,AZ,24.004305705059203,NA,NA
85051,Maricopa County,AZ,40.437746681019014,NA,NA
85086,Maricopa County,AZ,19.626838894869035,NA,NA
85119,Pinal County,AZ,93.61320416218156,NA,NA
85120,Pinal County,AZ,NA,64.44444444444444,NA
85131,Pinal County,AZ,91.06566200215285,NA,NA
85138,Pinal County,AZ,NA,45.23809523809524,NA
85140,Pinal County,AZ,85.79117330462863,NA,NA
85142,Maricopa County,AZ,4.736275565123789,NA,NA
85193,Pinal County,AZ,99.28238249013276,NA,NA
85202,Maricopa County,AZ,21.743810548977397,NA,62.03208556149733
85203,Maricopa County,AZ,16.828130606386797,NA,NA
85204,Maricopa County,AZ,5.920344456404736,NA,NA
85210,Maricopa County,AZ,22.56907068532472,NA,NA
85212,Maricopa County,AZ,87.47757445281665,NA,NA
85233,Maricopa County,AZ,79.61966271977036,NA,NA
85234,Maricopa County,AZ,20.667384284176535,NA,NA
85248,Maricopa County,AZ,36.41908862576247,NA,NA
85251,Maricopa County,AZ,58.09113742375314,NA,NA
85258,Maricopa County,AZ,80.94725511302477,NA,NA
85284,Maricopa County,AZ,35.055615357014716,NA,NA
85286,Maricopa County,AZ,NA,76.98412698412699,NA
85297,Maricopa County,AZ,55.97416576964478,NA,NA
85298,Maricopa County,AZ,16.541083602439898,NA,NA
85301,Maricopa County,AZ,17.330462863293864,NA,NA
85302,Maricopa County,AZ,73.01758162899175,NA,NA
85304,Maricopa County,AZ,41.191245066379615,96.5079365079365,NA
85305,Maricopa County,AZ,92.82382490132758,NA,NA
85323,Maricopa County,AZ,14.137064944384642,NA,NA
85326,Maricopa County,AZ,4.126300681736635,16.03174603174603,NA
85335,Maricopa County,AZ,39.07427341227126,NA,NA
85345,Maricopa County,AZ,41.37064944384643,NA,NA
85353,Maricopa County,AZ,69.10656620021528,NA,NA
85365,Yuma County,AZ,17.868675995694293,NA,NA
85374,Maricopa County,AZ,26.551847865087908,NA,NA
85381,Maricopa County,AZ,57.086472909939005,NA,NA
85382,Maricopa County,AZ,75.1345532831001,NA,NA
85383,Maricopa County,AZ,89.19985647649803,NA,NA
85396,Maricopa County,AZ,82.31072838177252,NA,NA
85501,Gila County,AZ,55.758880516684606,NA,NA
85621,Santa Cruz County,AZ,12.378902045209902,NA,NA
85648,Santa Cruz County,AZ,31.89809831359885,NA,NA
85653,Pima County,AZ,69.4653749551489,NA,NA
85705,Pima County,AZ,NA,18.253968253968253,NA
85710,Pima County,AZ,56.69178327951202,NA,NA
85711,Pima County,AZ,44.88697524219591,NA,NA
85713,Pima County,AZ,2.4757804090419806,NA,NA
85741,Pima County,AZ,45.28166487262289,62.53968253968254,NA
85742,Pima County,AZ,69.57301758162899,NA,NA
85745,Pima County,AZ,91.96268388948691,NA,NA
85746,Pima County,AZ,NA,4.920634920634921,NA
85757,Pima County,AZ,67.2048797990671,NA,NA
86001,Coconino County,AZ,42.41119483315393,NA,NA
86005,Coconino County,AZ,74.52457839971295,NA,NA
86045,Coconino County,AZ,13.562970936490851,NA,NA
86327,Yavapai County,AZ,73.01758162899175,NA,NA
86403,Mohave County,AZ,NA,NA,57.21925133689839
86404,Mohave County,AZ,11.948331539289558,NA,NA
86409,Mohave County,AZ,56.189451022604956,NA,NA
86413,Mohave County,AZ,84.35593828489415,NA,NA
72019,Saline County,AR,62.57624686042339,NA,NA
72023,Lonoke County,AR,26.94653749551489,NA,NA
72120,Pulaski County,AR,40.76067456045928,NA,NA
72143,White County,AR,NA,NA,96.79144385026738
72173,Faulkner County,AR,74.84750627915321,NA,NA
72450,Greene County,AR,NA,NA,24.06417112299465
72543,Cleburne County,AR,NA,NA,74.33155080213903
72715,Benton County,AR,75.34983853606028,NA,NA
72719,Benton County,AR,95.6584140653032,NA,NA
72736,Benton County,AR,63.22210261930391,NA,NA
72761,Benton County,AR,43.164693218514536,NA,NA
72762,Washington County,AR,37.81844277000359,NA,NA
72801,Pope County,AR,62.32508073196986,NA,NA
72956,Crawford County,AR,35.48618586293505,NA,NA
90003,Los Angeles County,CA,73.01758162899175,47.14285714285714,NA
90006,Los Angeles County,CA,86.75995694294942,30.476190476190478,NA
90015,Los Angeles County,CA,94.22317904556871,NA,NA
90018,Los Angeles County,CA,NA,41.42857142857143,NA
90031,Los Angeles County,CA,61.21277359167564,NA,NA
90037,Los Angeles County,CA,62.755651237890206,NA,NA
90042,Los Angeles County,CA,53.53426623609616,NA,NA
90043,Los Angeles County,CA,26.838894869034803,NA,NA
90044,Los Angeles County,CA,NA,14.761904761904763,NA
90045,Los Angeles County,CA,71.43882310728382,NA,NA
90047,Los Angeles County,CA,40.5453893074991,NA,NA
90062,Los Angeles County,CA,55.615357014711165,NA,NA
90063,Los Angeles County,CA,NA,25.555555555555554,NA
90065,Los Angeles County,CA,66.52314316469322,NA,NA
90201,Los Angeles County,CA,NA,23.174603174603174,NA
90220,Los Angeles County,CA,62.57624686042339,NA,NA
90221,Los Angeles County,CA,23.501973448152135,NA,NA
90222,Los Angeles County,CA,49.04915679942591,NA,NA
90230,Los Angeles County,CA,67.491926803014,NA,NA
90241,Los Angeles County,CA,76.78507355579475,NA,NA
90249,Los Angeles County,CA,63.86795837818443,NA,NA
90262,Los Angeles County,CA,41.72945819878005,NA,NA
90266,Los Angeles County,CA,36.59849300322928,NA,NA
90275,Los Angeles County,CA,58.77287405812702,NA,NA
90277,Los Angeles County,CA,54.216002870470035,NA,NA
90278,Los Angeles County,CA,51.45317545748116,NA,NA
90301,Los Angeles County,CA,89.55866523143165,NA,NA
90304,Los Angeles County,CA,71.8335127377108,NA,NA
90501,Los Angeles County,CA,46.178686759956946,NA,NA
90504,Los Angeles County,CA,59.705776820954426,NA,NA
90602,Los Angeles County,CA,19.69860064585576,NA,NA
90605,Los Angeles County,CA,62.32508073196986,NA,NA
90606,Los Angeles County,CA,87.36993182633657,NA,NA
90620,Orange County,CA,11.589522784355937,NA,NA
90631,Orange County,CA,78.2561894510226,67.61904761904762,NA
90638,Los Angeles County,CA,40.68891280947255,84.28571428571429,NA
90650,Los Angeles County,CA,15.644061715105847,18.73015873015873,NA
90660,Los Angeles County,CA,63.00681736634374,NA,NA
90703,Los Angeles County,CA,53.53426623609616,NA,NA
90720,Orange County,CA,NA,NA,80.21390374331551
90740,Orange County,CA,NA,99.52380952380952,NA
90745,Los Angeles County,CA,49.910297811266595,NA,NA
90746,Los Angeles County,CA,NA,82.6984126984127,NA
90805,Los Angeles County,CA,79.90670972371726,NA,NA
90810,Los Angeles County,CA,47.36275565123789,NA,NA
90813,Los Angeles County,CA,27.233584499461788,NA,NA
91030,Los Angeles County,CA,72.19232149264442,NA,NA
91104,Los Angeles County,CA,73.01758162899175,NA,NA
91105,Los Angeles County,CA,72.44348762109796,NA,NA
91106,Los Angeles County,CA,90.6350914962325,NA,NA
91107,Los Angeles County,CA,68.92716182274847,NA,NA
91203,Los Angeles County,CA,91.10154287764621,NA,NA
91306,Los Angeles County,CA,NA,73.96825396825398,NA
91311,Los Angeles County,CA,42.913527090060995,NA,NA
91326,Los Angeles County,CA,74.59634015069967,98.73015873015873,NA
91331,Los Angeles County,CA,53.53426623609616,6.031746031746032,NA
91340,Los Angeles County,CA,50.3767491926803,NA,NA
91343,Los Angeles County,CA,36.84965913168281,NA,NA
91387,Los Angeles County,CA,53.24721923214927,NA,NA
91390,Los Angeles County,CA,62.32508073196986,NA,NA
91402,Los Angeles County,CA,NA,22.857142857142858,NA
91423,Los Angeles County,CA,87.90814495873698,NA,NA
91604,Los Angeles County,CA,46.178686759956946,NA,NA
91605,Los Angeles County,CA,92.85970577682096,NA,NA
91701,San Bernardino County,CA,51.23789020452099,NA,NA
91702,Los Angeles County,CA,25.977753857194113,NA,NA
91706,Los Angeles County,CA,NA,NA,29.411764705882355
91733,Los Angeles County,CA,NA,50.15873015873016,NA
91739,San Bernardino County,CA,88.44635809113743,NA,NA
91740,Los Angeles County,CA,66.52314316469322,NA,NA
91741,Los Angeles County,CA,91.10154287764621,NA,NA
91744,Los Angeles County,CA,41.51417294581988,NA,NA
91746,Los Angeles County,CA,NA,51.90476190476191,NA
91748,Los Angeles County,CA,69.39361320416218,NA,NA
91752,Riverside County,CA,75.34983853606028,NA,NA
91761,San Bernardino County,CA,83.20775026910655,NA,NA
91764,San Bernardino County,CA,NA,77.3015873015873,NA
91766,Los Angeles County,CA,26.480086114101187,53.80952380952381,NA
91767,Los Angeles County,CA,NA,29.841269841269842,NA
91770,Los Angeles County,CA,78.04090419806244,NA,NA
91792,Los Angeles County,CA,NA,63.650793650793645,NA
91911,San Diego County,CA,NA,NA,27.27272727272727
91941,San Diego County,CA,65.30319339791892,NA,NA
91950,San Diego County,CA,51.66846071044133,NA,NA
91977,San Diego County,CA,21.31324004305705,NA,NA
92021,San Diego County,CA,44.205238607822025,NA,NA
92025,San Diego County,CA,33.118048080373164,NA,NA
92026,San Diego County,CA,25.798349479727307,NA,NA
92027,San Diego County,CA,12.199497667743094,12.857142857142856,NA
92056,San Diego County,CA,62.07391460351632,NA,63.63636363636363
92058,San Diego County,CA,81.41370649443846,NA,NA
92071,San Diego County,CA,36.06027987082885,NA,NA
92081,San Diego County,CA,68.35306781485468,NA,NA
92083,San Diego County,CA,61.21277359167564,NA,NA
92101,San Diego County,CA,73.66343738787226,NA,NA
92102,San Diego County,CA,28.453534266236097,NA,NA
92104,San Diego County,CA,NA,63.650793650793645,NA
92105,San Diego County,CA,56.36885540007176,NA,NA
92109,San Diego County,CA,65.44671689989235,NA,NA
92114,San Diego County,CA,33.118048080373164,NA,NA
92122,San Diego County,CA,75.34983853606028,88.88888888888889,NA
92127,San Diego County,CA,31.144599928238247,NA,NA
92154,San Diego County,CA,82.45425188374597,NA,NA
92201,Riverside County,CA,13.598851811984211,24.6031746031746,NA
92223,Riverside County,CA,61.21277359167564,NA,NA
92231,Imperial County,CA,NA,22.857142857142858,NA
92236,Riverside County,CA,40.00717617509867,NA,NA
92240,Riverside County,CA,NA,39.04761904761905,NA
92252,San Bernardino County,CA,81.23430211697166,NA,NA
92254,Riverside County,CA,93.93613204162182,NA,NA
92264,Riverside County,CA,98.70828848223897,NA,NA
92277,San Bernardino County,CA,NA,NA,78.6096256684492
92308,San Bernardino County,CA,NA,NA,60.42780748663101
92311,San Bernardino County,CA,87.11876569788302,NA,NA
92324,San Bernardino County,CA,76.67743092931467,NA,NA
92336,San Bernardino County,CA,10.04664513814137,26.190476190476193,NA
92342,San Bernardino County,CA,92.60853964836741,NA,NA
92345,San Bernardino County,CA,66.88195191962684,20.158730158730158,NA
92346,San Bernardino County,CA,89.30749910297811,NA,70.05347593582889
92374,San Bernardino County,CA,63.47326874775745,NA,NA
92376,San Bernardino County,CA,60.315751704341594,NA,NA
92392,San Bernardino County,CA,6.8891280947255105,NA,NA
92394,San Bernardino County,CA,NA,71.26984126984127,NA
92395,San Bernardino County,CA,37.74668101901686,NA,NA
92404,San Bernardino County,CA,4.3057050592034445,NA,NA
92503,Riverside County,CA,58.019375672766415,NA,NA
92506,Riverside County,CA,87.47757445281665,NA,NA
92509,Riverside County,CA,34.983853606027985,34.285714285714285,NA
92544,Riverside County,CA,60.35163257983495,NA,59.893048128342244
92555,Riverside County,CA,50.3767491926803,NA,NA
92562,Riverside County,CA,67.24076067456046,NA,NA
92570,Riverside County,CA,38.82310728381773,NA,NA
92584,Riverside County,CA,68.74775744528166,NA,NA
92592,Riverside County,CA,50.879081449587375,NA,NA
92602,Orange County,CA,59.167563688554004,NA,NA
92604,Orange County,CA,76.4621456763545,NA,NA
92620,Orange County,CA,70.72120559741658,NA,NA
92646,Orange County,CA,33.65626121277359,NA,NA
92647,Orange County,CA,59.167563688554004,NA,NA
92648,Orange County,CA,83.56655902404019,NA,NA
92656,Orange County,CA,50.91496232508074,NA,NA
92672,Orange County,CA,NA,88.25396825396825,NA
92679,Orange County,CA,80.3372802296376,NA,NA
92683,Orange County,CA,55.758880516684606,NA,NA
92691,Orange County,CA,70.50592034445641,NA,NA
92692,Orange County,CA,59.41872981700753,NA,NA
92701,Orange County,CA,47.36275565123789,NA,NA
92703,Orange County,CA,65.44671689989235,NA,NA
92704,Orange County,CA,65.26731252242554,NA,NA
92706,Orange County,CA,NA,31.428571428571427,NA
92707,Orange County,CA,31.71869393613204,NA,NA
92708,Orange County,CA,69.07068532472192,NA,NA
92780,Orange County,CA,79.94259059921062,22.6984126984127,NA
92801,Orange County,CA,15.464657337639037,13.174603174603176,41.711229946524064
92805,Orange County,CA,42.23179045568712,NA,30.481283422459892
92840,Orange County,CA,NA,33.49206349206349,NA
92843,Orange County,CA,38.536060279870824,NA,NA
92844,Orange County,CA,96.1248654467169,88.73015873015872,NA
92845,Orange County,CA,81.98780050233225,NA,NA
92860,Riverside County,CA,92.32149264442052,NA,NA
92865,Orange County,CA,90.99390025116612,NA,NA
92869,Orange County,CA,65.91316828130607,NA,NA
92870,Orange County,CA,NA,75.07936507936508,NA
92879,Riverside County,CA,71.61822748475063,84.60317460317461,NA
92880,Riverside County,CA,22.856117689271617,NA,NA
92882,Riverside County,CA,NA,33.96825396825397,NA
93001,Ventura County,CA,NA,55.23809523809524,NA
93004,Ventura County,CA,66.16433440975959,NA,NA
93015,Ventura County,CA,18.012199497667744,NA,NA
93030,Ventura County,CA,NA,7.936507936507936,NA
93035,Ventura County,CA,57.87585217079296,47.93650793650794,NA
93036,Ventura County,CA,31.252242554718336,NA,NA
93041,Ventura County,CA,52.960172228202374,NA,NA
93063,Ventura County,CA,21.52852529601722,79.36507936507937,NA
93215,Kern County,CA,33.3692142088267,NA,NA
93230,Kings County,CA,11.948331539289558,NA,NA
93234,Fresno County,CA,93.54144241119484,NA,NA
93245,Kings County,CA,54.216002870470035,NA,NA
93250,Kern County,CA,67.491926803014,NA,NA
93257,Tulare County,CA,72.1205597416577,NA,NA
93274,Tulare County,CA,1.7222820236813776,NA,NA
93277,Tulare County,CA,52.56548259777538,NA,NA
93291,Tulare County,CA,25.475421600287046,32.38095238095238,NA
93304,Kern County,CA,11.410118406889127,NA,NA
93306,Kern County,CA,52.924291352709005,30.952380952380953,NA
93308,Kern County,CA,64.04736275565124,NA,NA
93401,San Luis Obispo County,CA,NA,96.03174603174604,NA
93422,San Luis Obispo County,CA,50.08970218873341,NA,NA
93436,Santa Barbara County,CA,44.241119483315394,NA,NA
93442,San Luis Obispo County,CA,94.58198780050233,NA,NA
93444,San Luis Obispo County,CA,NA,58.88888888888889,NA
93454,Santa Barbara County,CA,57.80409041980624,NA,NA
93455,Santa Barbara County,CA,32.54395407247937,NA,NA
93458,Santa Barbara County,CA,77.89738069608899,NA,NA
93505,Kern County,CA,95.3713670613563,NA,NA
93535,Los Angeles County,CA,14.029422317904558,6.984126984126984,NA
93550,Los Angeles County,CA,NA,12.380952380952381,NA
93555,Kern County,CA,21.52852529601722,NA,NA
93611,Fresno County,CA,NA,NA,45.98930481283423
93612,Fresno County,CA,29.709364908503765,26.666666666666668,NA
93630,Fresno County,CA,43.164693218514536,27.460317460317462,NA
93637,Madera County,CA,89.95335486185863,NA,NA
93638,Madera County,CA,49.26444205238607,NA,NA
93662,Fresno County,CA,73.66343738787226,NA,NA
93702,Fresno County,CA,58.77287405812702,NA,NA
93703,Fresno County,CA,67.77897380696089,NA,NA
93704,Fresno County,CA,88.01578758521707,NA,NA
93705,Fresno County,CA,12.594187298170075,NA,NA
93706,Fresno County,CA,64.98026551847865,NA,NA
93722,Fresno County,CA,50.59203444564048,4.1269841269841265,NA
93726,Fresno County,CA,19.87800502332257,16.666666666666664,NA
93727,Fresno County,CA,6.207391460351633,NA,NA
93955,Monterey County,CA,64.26264800861141,NA,NA
94014,San Mateo County,CA,74.84750627915321,NA,NA
94024,Santa Clara County,CA,79.2967348403301,NA,NA
94030,San Mateo County,CA,84.67886616433441,NA,NA
94070,San Mateo County,CA,NA,NA,85.02673796791443
94080,San Mateo County,CA,67.24076067456046,NA,NA
94085,Santa Clara County,CA,NA,89.84126984126985,NA
94112,San Francisco County,CA,NA,15.396825396825397,NA
94114,San Francisco County,CA,80.51668460710442,NA,NA
94133,San Francisco County,CA,92.60853964836741,NA,NA
94303,San Mateo County,CA,26.551847865087908,NA,NA
94506,Contra Costa County,CA,56.29709364908504,NA,NA
94536,Alameda County,CA,78.04090419806244,NA,NA
94541,Alameda County,CA,27.700035880875497,NA,NA
94544,Alameda County,CA,NA,13.80952380952381,NA
94545,Alameda County,CA,58.77287405812702,NA,NA
94553,Contra Costa County,CA,20.416218155723,NA,NA
94555,Alameda County,CA,84.67886616433441,NA,NA
94568,Alameda County,CA,27.30534625044851,NA,NA
94585,Solano County,CA,67.491926803014,NA,NA
94587,Alameda County,CA,83.4589163975601,76.82539682539684,NA
94601,Alameda County,CA,87.87226408324364,NA,NA
94608,Alameda County,CA,53.821313240043054,NA,NA
94618,Alameda County,CA,97.05776820954432,NA,NA
94804,Contra Costa County,CA,59.41872981700753,NA,NA
94806,Contra Costa County,CA,83.99712952996053,NA,NA
94903,Marin County,CA,49.65913168281306,NA,NA
94954,Sonoma County,CA,69.10656620021528,NA,NA
95008,Santa Clara County,CA,86.72407606745605,NA,NA
95023,San Benito County,CA,24.398995335486187,NA,NA
95032,Santa Clara County,CA,72.19232149264442,NA,NA
95051,Santa Clara County,CA,73.51991388589882,NA,NA
95076,Santa Cruz County,CA,39.68424829565841,NA,NA
95110,Santa Clara County,CA,NA,90.95238095238095,NA
95121,Santa Clara County,CA,67.85073555794762,NA,NA
95122,Santa Clara County,CA,50.627915321133834,85.55555555555556,NA
95124,Santa Clara County,CA,79.65554359526372,NA,NA
95125,Santa Clara County,CA,57.050592034445636,NA,NA
95134,Santa Clara County,CA,98.09831359885182,NA,NA
95136,Santa Clara County,CA,76.96447793326158,NA,NA
95148,Santa Clara County,CA,90.06099748833871,NA,NA
95207,San Joaquin County,CA,27.233584499461788,NA,NA
95209,San Joaquin County,CA,75.1345532831001,NA,NA
95210,San Joaquin County,CA,77.07212055974165,NA,NA
95215,San Joaquin County,CA,NA,72.6984126984127,NA
95240,San Joaquin County,CA,NA,12.698412698412698,NA
95307,Stanislaus County,CA,51.991388589881595,NA,40.106951871657756
95315,Merced County,CA,90.4556871187657,NA,NA
95316,Stanislaus County,CA,96.3042698241837,NA,NA
95334,Merced County,CA,89.63042698241837,NA,NA
95337,San Joaquin County,CA,37.35199138858988,NA,NA
95341,Merced County,CA,14.926444205238607,50.15873015873016,NA
95348,Merced County,CA,38.14137064944384,NA,NA
95350,Stanislaus County,CA,14.926444205238607,NA,NA
95351,Stanislaus County,CA,28.130606386795836,NA,NA
95354,Stanislaus County,CA,12.665949049156799,NA,NA
95361,Stanislaus County,CA,27.30534625044851,NA,NA
95376,San Joaquin County,CA,NA,NA,34.22459893048128
95377,San Joaquin County,CA,52.27843559382849,NA,NA
95380,Stanislaus County,CA,NA,55.23809523809524,NA
95422,Lake County,CA,NA,NA,89.3048128342246
95423,Lake County,CA,97.73950484391818,NA,NA
95437,Mendocino County,CA,83.20775026910655,NA,NA
95482,Mendocino County,CA,19.985647649802655,NA,NA
95503,Humboldt County,CA,48.86975242195909,NA,NA
95531,Del Norte County,CA,NA,47.3015873015873,NA
95603,Placer County,CA,43.6670254754216,NA,NA
95608,Sacramento County,CA,37.997847147470395,NA,NA
95610,Sacramento County,CA,NA,NA,56.68449197860963
95618,Yolo County,CA,75.67276641550053,NA,NA
95630,Sacramento County,CA,46.896304269824185,NA,NA
95648,Placer County,CA,52.7448869752422,NA,NA
95655,Sacramento County,CA,99.17473986365268,NA,NA
95677,Placer County,CA,49.910297811266595,NA,NA
95688,Solano County,CA,NA,97.61904761904762,NA
95694,Yolo County,CA,98.17007534983854,NA,NA
95747,Placer County,CA,77.6820954431288,NA,79.14438502673798
95762,El Dorado County,CA,37.244348762109794,NA,NA
95821,Sacramento County,CA,7.642626480086114,NA,NA
95823,Sacramento County,CA,NA,20.317460317460316,NA
95826,Sacramento County,CA,64.26264800861141,NA,NA
95832,Sacramento County,CA,87.08288482238966,NA,NA
95835,Sacramento County,CA,80.66020810907786,NA,NA
95838,Sacramento County,CA,61.21277359167564,NA,NA
95901,Yuba County,CA,68.89128094725511,NA,NA
95953,Sutter County,CA,NA,69.2063492063492,NA
95961,Yuba County,CA,49.51560818083961,NA,NA
95963,Glenn County,CA,88.69752421959096,NA,80.74866310160428
95982,Sutter County,CA,99.85647649802655,NA,NA
95991,Sutter County,CA,56.40473627556513,NA,NA
96002,Shasta County,CA,NA,NA,87.16577540106952
96007,Shasta County,CA,60.92572658772875,NA,NA
96019,Shasta County,CA,75.34983853606028,NA,NA
96022,Tehama County,CA,83.88948690348045,NA,NA
96041,Trinity County,CA,NA,NA,100
96094,Siskiyou County,CA,96.41191245066379,NA,NA
80003,Jefferson County,CO,18.586293505561535,NA,NA
80004,Jefferson County,CO,72.37172587011122,NA,NA
80012,Arapahoe County,CO,21.81557229996412,NA,NA
80013,Arapahoe County,CO,4.05453893074991,NA,NA
80014,Arapahoe County,CO,16.648726228919987,NA,73.2620320855615
80015,Arapahoe County,CO,NA,NA,20.32085561497326
80021,Jefferson County,CO,23.501973448152135,NA,NA
80022,Adams County,CO,6.027987082884822,NA,NA
80110,Arapahoe County,CO,56.907068532472195,NA,NA
80126,Douglas County,CO,12.917115177610333,NA,NA
80128,Jefferson County,CO,58.66523143164694,NA,NA
80134,Douglas County,CO,21.779691424470755,NA,NA
80204,Denver County,CO,NA,20.793650793650794,NA
80216,Denver County,CO,NA,36.98412698412699,NA
80221,Adams County,CO,69.96770721205597,32.38095238095238,NA
80222,Denver County,CO,NA,86.34920634920636,NA
80231,Denver County,CO,22.640832436311445,NA,NA
80401,Jefferson County,CO,28.77646214567636,NA,NA
80465,Jefferson County,CO,64.26264800861141,NA,NA
80525,Larimer County,CO,10.36957301758163,NA,NA
80526,Larimer County,CO,17.07929673484033,NA,NA
80538,Larimer County,CO,NA,41.11111111111111,NA
80550,Weld County,CO,45.89163975601004,NA,NA
80602,Adams County,CO,4.3057050592034445,NA,NA
80620,Weld County,CO,35.6297093649085,NA,NA
80621,Weld County,CO,69.57301758162899,NA,NA
80631,Weld County,CO,78.43559382848942,NA,NA
80701,Morgan County,CO,14.137064944384642,NA,NA
80723,Morgan County,CO,63.22210261930391,NA,NA
80817,El Paso County,CO,50.91496232508074,NA,NA
80918,El Paso County,CO,78.79440258342304,NA,NA
80919,El Paso County,CO,90.67097237172587,NA,NA
81001,Pueblo County,CO,54.50304987441693,NA,NA
81004,Pueblo County,CO,56.69178327951202,NA,NA
81005,Pueblo County,CO,NA,79.04761904761905,NA
81101,Alamosa County,CO,71.259418729817,NA,NA
81212,Fremont County,CO,NA,41.11111111111111,NA
81301,La Plata County,CO,81.55722999641192,NA,NA
81321,Montezuma County,CO,89.4151417294582,NA,NA
81501,Mesa County,CO,27.592393254395407,NA,NA
81520,Mesa County,CO,39.325439540724794,49.2063492063492,NA
81521,Mesa County,CO,NA,59.84126984126984,NA
81601,Garfield County,CO,88.23107283817725,NA,NA
06001,Hartford County,CT,26.336562612127736,NA,NA
06026,Hartford County,CT,73.98636526731252,NA,NA
06032,Hartford County,CT,67.24076067456046,NA,NA
06037,Hartford County,CT,65.91316828130607,NA,NA
06040,Hartford County,CT,46.896304269824185,NA,NA
06082,Hartford County,CT,41.76533907427341,NA,NA
06105,Hartford County,CT,NA,31.428571428571427,NA
06106,Hartford County,CT,5.166846071044134,NA,NA
06108,Hartford County,CT,51.38141370649444,14.444444444444443,NA
06114,Hartford County,CT,6.243272335844995,10.158730158730158,NA
06117,Hartford County,CT,88.23107283817725,NA,NA
06118,Hartford County,CT,22.856117689271617,NA,NA
06418,New Haven County,CT,73.66343738787226,90,NA
06437,New Haven County,CT,81.41370649443846,NA,NA
06451,New Haven County,CT,17.330462863293864,NA,NA
06457,Middlesex County,CT,68.4248295658414,NA,NA
06473,New Haven County,CT,50.91496232508074,NA,NA
06484,Fairfield County,CT,62.18155722999641,NA,NA
06492,New Haven County,CT,43.164693218514536,NA,NA
06511,New Haven County,CT,66.52314316469322,NA,NA
06512,New Haven County,CT,NA,48.25396825396825,NA
06513,New Haven County,CT,NA,19.682539682539684,NA
06514,New Haven County,CT,24.61428058844636,NA,NA
06605,Fairfield County,CT,50.627915321133834,NA,NA
06606,Fairfield County,CT,12.055974165769644,NA,NA
06608,Fairfield County,CT,96.26838894869036,57.61904761904761,NA
06610,Fairfield County,CT,34.15859346968066,NA,NA
06611,Fairfield County,CT,66.16433440975959,NA,NA
06614,Fairfield County,CT,65.80552565482598,74.44444444444444,NA
06615,Fairfield County,CT,72.69465374955149,NA,NA
06810,Fairfield County,CT,NA,36.34920634920635,NA
06824,Fairfield County,CT,39.07427341227126,NA,NA
06830,Fairfield County,CT,68.92716182274847,NA,NA
06831,Fairfield County,CT,76.1750986724076,NA,NA
06851,Fairfield County,CT,NA,NA,67.37967914438502
06901,Fairfield County,CT,98.52888410477215,NA,NA
06902,Fairfield County,CT,17.79691424470757,NA,NA
06905,Fairfield County,CT,84.10477215644062,NA,NA
19709,New Castle County,DE,12.48654467168999,NA,NA
19711,New Castle County,DE,NA,54.6031746031746,NA
19713,New Castle County,DE,NA,31.26984126984127,NA
19720,New Castle County,DE,4.987441693577323,NA,NA
19801,New Castle County,DE,64.8367420165052,NA,NA
19802,New Castle County,DE,15.392895586652314,NA,NA
19803,New Castle County,DE,30.570505920344456,NA,NA
19805,New Castle County,DE,19.268030139935412,NA,NA
19901,Kent County,DE,77.6820954431288,NA,NA
19904,Kent County,DE,1.3275923932543954,NA,NA
19933,Sussex County,DE,93.43379978471475,NA,NA
19945,Sussex County,DE,80.0502332256907,NA,NA
19952,Kent County,DE,82.05956225331899,NA,NA
19962,Kent County,DE,80.0502332256907,NA,NA
19973,Sussex County,DE,25.58306422676713,NA,NA
32003,Clay County,FL,36.59849300322928,NA,NA
32011,Nassau County,FL,NA,NA,69.5187165775401
32034,Nassau County,FL,NA,93.33333333333333,NA
32055,Columbia County,FL,34.84033010405454,NA,NA
32068,Clay County,FL,73.01758162899175,NA,NA
32073,Clay County,FL,24.47075708647291,NA,NA
32084,St. Johns County,FL,40.868317186939365,NA,NA
32095,St. Johns County,FL,65.91316828130607,NA,NA
32113,Marion County,FL,90.99390025116612,NA,NA
32127,Volusia County,FL,66.16433440975959,NA,NA
32141,Volusia County,FL,86.04233943308218,NA,NA
32164,Flagler County,FL,79.97847147470398,NA,NA
32174,Volusia County,FL,NA,83.65079365079366,NA
32177,Putnam County,FL,27.84355938284894,NA,NA
32205,Duval County,FL,28.130606386795836,NA,NA
32209,Duval County,FL,6.8891280947255105,13.80952380952381,NA
32211,Duval County,FL,27.700035880875497,NA,NA
32216,Duval County,FL,46.60925726587728,NA,NA
32219,Duval County,FL,75.67276641550053,NA,NA
32224,Duval County,FL,47.00394689630427,NA,NA
32225,Duval County,FL,14.60351632579835,NA,NA
32244,Duval County,FL,2.547542160028705,NA,NA
32303,Leon County,FL,NA,20,NA
32305,Leon County,FL,78.50735557947614,66.5079365079365,NA
32340,Madison County,FL,80.51668460710442,NA,NA
32401,Bay County,FL,NA,44.761904761904766,NA
32428,Washington County,FL,54.646573376390386,67.3015873015873,NA
32435,Walton County,FL,72.01291711517761,NA,NA
32444,Bay County,FL,66.41550053821314,NA,NA
32459,Walton County,FL,93.32615715823465,NA,NA
32466,Bay County,FL,NA,67.61904761904762,NA
32507,Escambia County,FL,NA,18.412698412698415,NA
32534,Escambia County,FL,NA,63.33333333333333,NA
32539,Okaloosa County,FL,42.698241837100824,NA,NA
32547,Okaloosa County,FL,49.51560818083961,NA,NA
32548,Okaloosa County,FL,NA,71.58730158730158,NA
32566,Santa Rosa County,FL,31.575170434158593,NA,NA
32567,Okaloosa County,FL,98.88769285970578,NA,NA
32570,Santa Rosa County,FL,57.445281664872624,NA,NA
32571,Santa Rosa County,FL,34.15859346968066,NA,NA
32606,Alachua County,FL,28.66881951919627,NA,NA
32608,Alachua County,FL,17.25870111230714,37.301587301587304,NA
32621,Levy County,FL,NA,NA,91.97860962566845
32669,Alachua County,FL,13.275923932543954,NA,NA
32693,Gilchrist County,FL,82.34660925726588,NA,NA
32714,Seminole County,FL,32.97452457839971,NA,NA
32726,Lake County,FL,57.87585217079296,NA,NA
32735,Lake County,FL,93.43379978471475,NA,NA
32766,Seminole County,FL,NA,98.4126984126984,NA
32778,Lake County,FL,29.52996053103696,NA,NA
32792,Orange County,FL,NA,NA,95.72192513368985
32796,Brevard County,FL,74.59634015069967,NA,NA
32801,Orange County,FL,99.56942949407966,NA,NA
32805,Orange County,FL,58.66523143164694,NA,NA
32807,Orange County,FL,NA,23.65079365079365,NA
32808,Orange County,FL,44.49228561176893,NA,NA
32809,Orange County,FL,NA,42.06349206349206,NA
32817,Orange County,FL,77.6820954431288,NA,NA
32818,Orange County,FL,12.378902045209902,NA,NA
32819,Orange County,FL,49.65913168281306,NA,NA
32825,Orange County,FL,NA,18.88888888888889,NA
32833,Orange County,FL,NA,88.25396825396825,NA
32839,Orange County,FL,7.822030857552924,NA,NA
32904,Brevard County,FL,NA,92.85714285714286,NA
32909,Brevard County,FL,NA,49.2063492063492,NA
32948,Indian River County,FL,91.10154287764621,NA,NA
32952,Brevard County,FL,95.01255830642268,NA,NA
32958,Indian River County,FL,85.14531754574811,NA,77.00534759358288
32962,Indian River County,FL,NA,NA,59.35828877005348
33010,Miami-Dade County,FL,NA,43.80952380952381,NA
33012,Miami-Dade County,FL,23.2508073196986,NA,NA
33015,Miami-Dade County,FL,18.012199497667744,NA,NA
33016,Miami-Dade County,FL,54.03659849300323,NA,64.171122994652407
33018,Miami-Dade County,FL,40.00717617509867,16.984126984126984,NA
33021,Broward County,FL,NA,61.74603174603175,NA
33023,Broward County,FL,11.158952278435594,NA,NA
33025,Broward County,FL,13.92177969142447,NA,NA
33033,Miami-Dade County,FL,8.683171869393613,29.365079365079367,NA
33034,Miami-Dade County,FL,NA,NA,66.84491978609626
33040,Monroe County,FL,42.698241837100824,NA,NA
33060,Broward County,FL,59.41872981700753,NA,NA
33065,Broward County,FL,NA,59.84126984126984,NA
33066,Broward County,FL,82.56189451022605,NA,NA
33068,Broward County,FL,32.687477574452814,41.904761904761905,NA
33071,Broward County,FL,NA,51.11111111111111,NA
33076,Broward County,FL,49.04915679942591,NA,NA
33137,Miami-Dade County,FL,73.51991388589882,NA,NA
33142,Miami-Dade County,FL,35.952637244348765,NA,NA
33144,Miami-Dade County,FL,90.31216361679225,NA,NA
33147,Miami-Dade County,FL,11.768927161822749,NA,NA
33150,Miami-Dade County,FL,79.2967348403301,24.761904761904763,NA
33167,Miami-Dade County,FL,NA,32.38095238095238,NA
33168,Miami-Dade County,FL,46.60925726587728,NA,NA
33179,Miami-Dade County,FL,25.116612845353426,NA,NA
33185,Miami-Dade County,FL,NA,69.68253968253968,NA
33190,Miami-Dade County,FL,NA,44.44444444444444,NA
33309,Broward County,FL,5.059203444564048,15.714285714285714,NA
33311,Broward County,FL,1.5787585217079296,3.650793650793651,NA
33312,Broward County,FL,48.546824542518834,NA,NA
33313,Broward County,FL,81.12665949049158,NA,NA
33317,Broward County,FL,93.79260853964837,NA,NA
33319,Broward County,FL,NA,29.841269841269842,NA
33321,Broward County,FL,NA,20.634920634920633,NA
33322,Broward County,FL,56.40473627556513,NA,NA
33326,Broward County,FL,59.41872981700753,NA,NA
33328,Broward County,FL,64.8367420165052,NA,NA
33407,Palm Beach County,FL,15.14172945819878,NA,NA
33410,Palm Beach County,FL,94.6178686759957,NA,NA
33432,Palm Beach County,FL,88.9486903480445,NA,NA
33435,Palm Beach County,FL,NA,58.730158730158735,NA
33440,Hendry County,FL,NA,66.98412698412697,NA
33441,Broward County,FL,73.98636526731252,NA,NA
33460,Palm Beach County,FL,81.55722999641192,NA,NA
33462,Palm Beach County,FL,NA,58.25396825396826,NA
33476,Palm Beach County,FL,NA,NA,97.32620320855615
33496,Palm Beach County,FL,71.43882310728382,NA,NA
33511,Hillsborough County,FL,4.736275565123789,NA,NA
33513,Sumter County,FL,82.9924650161464,NA,NA
33525,Pasco County,FL,50.91496232508074,NA,NA
33565,Hillsborough County,FL,70.11123071402943,NA,NA
33566,Hillsborough County,FL,78.68675995694295,NA,NA
33567,Hillsborough County,FL,NA,73.96825396825398,NA
33569,Hillsborough County,FL,NA,60.63492063492063,NA
33578,Hillsborough County,FL,NA,27.936507936507937,NA
33592,Hillsborough County,FL,55.29242913527091,NA,NA
33594,Hillsborough County,FL,54.86185862935056,30.476190476190478,NA
33602,Hillsborough County,FL,45.89163975601004,NA,NA
33607,Hillsborough County,FL,NA,79.36507936507937,NA
33612,Hillsborough County,FL,60.63867958378184,NA,NA
33619,Hillsborough County,FL,22.38966630785791,NA,NA
33624,Hillsborough County,FL,77.61033369214209,NA,NA
33625,Hillsborough County,FL,57.445281664872624,NA,NA
33703,Pinellas County,FL,91.53211338356655,NA,NA
33704,Pinellas County,FL,94.43846429852888,NA,NA
33713,Pinellas County,FL,39.64836742016505,NA,NA
33714,Pinellas County,FL,NA,NA,65.24064171122996
33760,Pinellas County,FL,NA,82.6984126984127,NA
33771,Pinellas County,FL,NA,25.71428571428571,NA
33773,Pinellas County,FL,93.93613204162182,NA,NA
33810,Polk County,FL,23.501973448152135,NA,NA
33853,Polk County,FL,43.810548977395044,NA,NA
33859,Polk County,FL,61.14101184068891,NA,NA
33884,Polk County,FL,NA,77.46031746031747,NA
33897,Polk County,FL,NA,74.60317460317461,NA
33901,Lee County,FL,51.66846071044133,NA,NA
33903,Lee County,FL,53.53426623609616,NA,NA
33905,Lee County,FL,41.04772156440617,NA,NA
33909,Lee County,FL,20.990312163616792,NA,NA
33914,Lee County,FL,NA,57.14285714285714,NA
33916,Lee County,FL,NA,25.71428571428571,NA
33928,Lee County,FL,74.3092931467528,NA,NA
33936,Lee County,FL,NA,70.15873015873015,NA
33952,Charlotte County,FL,25.008970218873337,NA,NA
34102,Collier County,FL,89.66630785791173,NA,NA
34113,Collier County,FL,87.04700394689631,NA,NA
34120,Collier County,FL,20.308575529242916,NA,NA
34135,Lee County,FL,69.4653749551489,NA,NA
34203,Manatee County,FL,33.3692142088267,NA,NA
34205,Manatee County,FL,81.41370649443846,NA,NA
34208,Manatee County,FL,69.57301758162899,NA,NA
34221,Manatee County,FL,33.97918909221385,55.55555555555556,NA
34266,DeSoto County,FL,NA,28.095238095238095,NA
34286,Sarasota County,FL,51.45317545748116,NA,NA
34420,Marion County,FL,NA,53.01587301587302,NA
34432,Marion County,FL,94.40258342303552,NA,NA
34461,Citrus County,FL,79.97847147470398,NA,NA
34480,Marion County,FL,NA,69.68253968253968,NA
34488,Marion County,FL,NA,53.01587301587302,NA
34491,Marion County,FL,38.536060279870824,NA,NA
34601,Hernando County,FL,58.52170792967348,NA,NA
34610,Pasco County,FL,80.3372802296376,NA,NA
34638,Pasco County,FL,75.67276641550053,NA,NA
34655,Pasco County,FL,NA,76.98412698412699,NA
34668,Pasco County,FL,39.0383925367779,NA,NA
34690,Pasco County,FL,69.57301758162899,92.22222222222223,NA
34715,Lake County,FL,56.907068532472195,76.19047619047619,NA
34748,Lake County,FL,NA,49.2063492063492,NA
34786,Orange County,FL,47.00394689630427,NA,NA
34787,Orange County,FL,NA,46.82539682539682,NA
34950,St. Lucie County,FL,55.90240401865806,NA,NA
34953,St. Lucie County,FL,71.79763186221744,NA,NA
34984,St. Lucie County,FL,54.86185862935056,NA,NA
34997,Martin County,FL,40.3659849300323,NA,NA
30013,Rockdale County,GA,NA,34.285714285714285,NA
30016,Newton County,GA,9.903121636167922,NA,NA
30019,Gwinnett County,GA,15.464657337639037,NA,NA
30021,DeKalb County,GA,72.69465374955149,NA,NA
30025,Walton County,GA,78.8302834589164,NA,NA
30039,Gwinnett County,GA,30.426982418371008,NA,NA
30043,Gwinnett County,GA,18.227484750627916,NA,NA
30044,Gwinnett County,GA,11.051309651955506,NA,NA
30046,Gwinnett County,GA,57.445281664872624,35.079365079365076,NA
30047,Gwinnett County,GA,41.550053821313234,NA,NA
30058,DeKalb County,GA,25.29601722282024,NA,NA
30066,Cobb County,GA,22.282023681377826,NA,NA
30076,Fulton County,GA,79.65554359526372,NA,NA
30082,Cobb County,GA,83.56655902404019,NA,NA
30088,DeKalb County,GA,51.45317545748116,NA,NA
30093,Gwinnett County,GA,18.87334050950843,NA,NA
30101,Cobb County,GA,65.62612127735918,68.57142857142857,NA
30102,Cherokee County,GA,NA,59.04761904761905,NA
30104,Polk County,GA,90.67097237172587,NA,NA
30115,Cherokee County,GA,NA,NA,50.26737967914438
30127,Cobb County,GA,34.445640473627556,NA,NA
30134,Douglas County,GA,48.33153928955867,NA,NA
30157,Paulding County,GA,12.199497667743094,NA,NA
30165,Floyd County,GA,51.66846071044133,NA,NA
30180,Carroll County,GA,8.001435235019734,44.285714285714285,NA
30188,Cherokee County,GA,30.67814854682454,NA,NA
30215,Fayette County,GA,47.68568353067815,NA,NA
30217,Heard County,GA,85.50412630068173,NA,NA
30223,Spalding County,GA,24.61428058844636,46.666666666666664,NA
30224,Spalding County,GA,NA,65.23809523809524,NA
30228,Henry County,GA,25.58306422676713,NA,NA
30241,Troup County,GA,46.5016146393972,NA,NA
30252,Henry County,GA,52.20667384284177,NA,NA
30253,Henry County,GA,17.186939361320416,32.38095238095238,NA
30259,Coweta County,GA,96.01722282023681,NA,NA
30281,Henry County,GA,21.600287047003945,NA,NA
30286,Upson County,GA,NA,70.7936507936508,NA
30297,Clayton County,GA,25.152493720846792,NA,NA
30306,Fulton County,GA,87.69285970577681,NA,NA
30318,Fulton County,GA,15.644061715105847,NA,NA
30319,DeKalb County,GA,60.674560459275206,NA,NA
30344,Fulton County,GA,72.19232149264442,NA,NA
30354,Fulton County,GA,NA,43.333333333333336,NA
30501,Hall County,GA,74.23753139576606,NA,NA
30511,Banks County,GA,99.17473986365268,NA,NA
30519,Gwinnett County,GA,38.536060279870824,NA,NA
30528,White County,GA,47.00394689630427,NA,NA
30531,Habersham County,GA,83.88948690348045,NA,NA
30557,Stephens County,GA,97.30893433799784,NA,NA
30577,Stephens County,GA,80.69608898457122,NA,NA
30621,Oconee County,GA,93.61320416218156,NA,NA
30721,Whitfield County,GA,54.50304987441693,NA,NA
30728,Walker County,GA,71.36706135629709,NA,NA
30736,Catoosa County,GA,11.26659490491568,NA,NA
30741,Walker County,GA,13.598851811984211,NA,NA
30805,Richmond County,GA,99.35414424111949,NA,NA
30808,McDuffie County,GA,NA,94.76190476190476,NA
30813,Columbia County,GA,19.483315392895587,NA,NA
30815,Richmond County,GA,NA,55.55555555555556,NA
30830,Burke County,GA,68.92716182274847,NA,NA
30901,Richmond County,GA,88.23107283817725,NA,NA
30907,Columbia County,GA,NA,NA,29.946524064171122
31015,Crisp County,GA,71.08001435235019,NA,NA
31021,Laurens County,GA,35.6297093649085,NA,NA
31030,Peach County,GA,NA,70.7936507936508,NA
31082,Washington County,GA,45.89163975601004,NA,NA
31206,Bibb County,GA,18.586293505561535,NA,NA
31316,Long County,GA,92.21385001794043,NA,NA
31322,Chatham County,GA,75.34983853606028,NA,NA
31326,Effingham County,GA,57.445281664872624,NA,NA
31404,Chatham County,GA,32.97452457839971,NA,NA
31405,Chatham County,GA,55.29242913527091,NA,NA
31406,Chatham County,GA,31.39576605669178,NA,NA
31522,Glynn County,GA,90.67097237172587,NA,NA
31533,Coffee County,GA,NA,70.47619047619048,NA
31569,Camden County,GA,84.67886616433441,NA,NA
31701,Dougherty County,GA,54.646573376390386,NA,NA
31705,Dougherty County,GA,NA,53.01587301587302,NA
31707,Dougherty County,GA,NA,64.76190476190476,NA
31719,Sumter County,GA,92.32149264442052,NA,NA
31750,Ben Hill County,GA,NA,63.33333333333333,NA
31771,Colquitt County,GA,NA,84.76190476190476,NA
31906,Muscogee County,GA,7.21205597416577,NA,NA
31907,Muscogee County,GA,41.94474345174022,22.53968253968254,NA
39846,Calhoun County,GA,96.84248295658413,NA,NA
96701,Honolulu County,HI,59.705776820954426,NA,NA
96706,Honolulu County,HI,29.278794402583426,NA,NA
96707,Honolulu County,HI,44.49228561176893,NA,NA
96720,Hawaii County,HI,61.5357014711159,NA,NA
96732,Maui County,HI,43.810548977395044,NA,NA
96749,Hawaii County,HI,NA,61.111111111111114,NA
96754,Kauai County,HI,98.52888410477215,NA,NA
96762,Honolulu County,HI,93.93613204162182,NA,NA
96782,Honolulu County,HI,45.13814137064944,NA,NA
96785,Hawaii County,HI,NA,98.25396825396825,NA
96786,Honolulu County,HI,29.9605310369573,NA,NA
96789,Honolulu County,HI,43.092931467527805,NA,NA
96797,Honolulu County,HI,71.72587011123072,NA,NA
96813,Honolulu County,HI,23.75313957660567,NA,NA
96814,Honolulu County,HI,84.67886616433441,NA,NA
96815,Honolulu County,HI,59.705776820954426,NA,NA
96825,Honolulu County,HI,43.164693218514536,NA,NA
96826,Honolulu County,HI,89.34337997847148,NA,NA
83201,Bannock County,ID,NA,57.936507936507944,NA
83202,Bannock County,ID,51.91962683889487,NA,NA
83211,Power County,ID,93.61320416218156,NA,NA
83301,Twin Falls County,ID,12.809472551130247,6.507936507936509,NA
83338,Jerome County,ID,NA,39.682539682539684,NA
83402,Bonneville County,ID,0.7893792608539648,23.49206349206349,NA
83404,Bonneville County,ID,81.77251524937208,NA,NA
83442,Jefferson County,ID,35.23501973448152,NA,NA
83501,Nez Perce County,ID,47.57804090419806,NA,NA
83642,Ada County,ID,13.132400430570506,36.03174603174603,NA
83651,Canyon County,ID,63.7961966271977,NA,NA
83686,Canyon County,ID,45.31754574811625,NA,NA
83703,Ada County,ID,67.85073555794762,NA,NA
83704,Ada County,ID,12.917115177610333,NA,NA
83709,Ada County,ID,9.50843200574094,28.253968253968253,NA
83713,Ada County,ID,25.977753857194113,NA,NA
83814,Kootenai County,ID,48.080373161105136,NA,NA
83843,Latah County,ID,45.353426623609614,NA,NA
83861,Benewah County,ID,NA,69.36507936507937,NA
60002,Lake County,IL,28.991747398636527,NA,NA
60004,Cook County,IL,48.25977753857194,NA,NA
60008,Cook County,IL,84.10477215644062,NA,NA
60010,Lake County,IL,24.32723358449946,NA,NA
60014,McHenry County,IL,24.937208467886617,NA,NA
60015,Lake County,IL,70.72120559741658,NA,NA
60021,McHenry County,IL,98.70828848223897,NA,NA
60030,Lake County,IL,79.26085396483674,NA,NA
60042,McHenry County,IL,88.087549336203807,NA,NA
60051,McHenry County,IL,39.21779691424471,NA,NA
60068,Cook County,IL,65.30319339791892,NA,NA
60076,Cook County,IL,62.57624686042339,NA,NA
60089,Lake County,IL,31.826336562612127,NA,NA
60103,DuPage County,IL,23.860782203085755,NA,NA
60108,DuPage County,IL,58.77287405812702,NA,NA
60112,DeKalb County,IL,96.51955507714388,NA,NA
60124,Kane County,IL,50.627915321133834,NA,NA
60140,Kane County,IL,37.244348762109794,NA,NA
60143,DuPage County,IL,NA,NA,90.9090909090909
60145,DeKalb County,IL,97.918909221385,NA,NA
60164,Cook County,IL,NA,NA,88.77005347593582
60185,DuPage County,IL,32.00574094007894,NA,NA
60187,DuPage County,IL,56.907068532472195,NA,NA
60188,DuPage County,IL,17.007534983853606,NA,NA
60189,DuPage County,IL,20.416218155723,NA,NA
60192,Cook County,IL,59.705776820954426,NA,NA
60201,Cook County,IL,22.784355938284897,NA,NA
60404,Will County,IL,37.064944384642985,NA,NA
60411,Cook County,IL,39.21779691424471,NA,NA
60416,Grundy County,IL,48.080373161105136,NA,NA
60423,Will County,IL,21.062073914603516,NA,NA
60442,Will County,IL,59.167563688554004,NA,NA
60446,Will County,IL,19.088625762468602,NA,NA
60447,Grundy County,IL,24.61428058844636,NA,NA
60451,Will County,IL,8.647290993900251,NA,NA
60452,Cook County,IL,29.9605310369573,NA,NA
60465,Cook County,IL,95.87369931826336,NA,NA
60471,Cook County,IL,95.6584140653032,NA,NA
60510,Kane County,IL,27.30534625044851,NA,NA
60514,DuPage County,IL,NA,NA,95.18716577540107
60538,Kendall County,IL,20.810907786149983,NA,NA
60560,Kendall County,IL,NA,NA,55.080213903743314
60605,Cook County,IL,94.11553641908863,NA,NA
60611,Cook County,IL,84.67886616433441,NA,NA
60612,Cook County,IL,47.8292070326516,NA,NA
60613,Cook County,IL,43.6670254754216,NA,NA
60614,Cook County,IL,58.77287405812702,NA,NA
60617,Cook County,IL,8.862576246860424,NA,NA
60618,Cook County,IL,51.05848582705418,NA,NA
60622,Cook County,IL,25.65482597775386,NA,NA
60623,Cook County,IL,16.541083602439898,NA,NA
60628,Cook County,IL,36.38320775026911,NA,NA
60631,Cook County,IL,40.00717617509867,NA,NA
60634,Cook County,IL,7.822030857552924,NA,44.919786096256686
60638,Cook County,IL,9.831359885181199,NA,NA
60639,Cook County,IL,18.945102260495155,NA,NA
60641,Cook County,IL,73.30462863293864,NA,NA
60642,Cook County,IL,71.61822748475063,NA,NA
60644,Cook County,IL,17.79691424470757,NA,NA
60652,Cook County,IL,NA,NA,34.75935828877005
60656,Cook County,IL,53.24721923214927,NA,NA
61081,Whiteside County,IL,8.001435235019734,NA,NA
61111,Winnebago County,IL,75.60100466451381,NA,NA
61115,Winnebago County,IL,NA,NA,61.49732620320856
61244,Rock Island County,IL,69.10656620021528,NA,NA
61254,Henry County,IL,82.9924650161464,NA,NA
61265,Rock Island County,IL,42.698241837100824,NA,NA
61548,Woodford County,IL,88.44635809113743,NA,NA
61704,McLean County,IL,39.21779691424471,NA,NA
61727,De Witt County,IL,NA,99.84126984126985,NA
61761,McLean County,IL,76.13921779691425,NA,NA
61801,Champaign County,IL,NA,NA,81.28342245989305
61938,Coles County,IL,62.28919985647649,NA,NA
62201,St. Clair County,IL,77.07212055974165,NA,NA
62231,Clinton County,IL,97.30893433799784,NA,NA
62278,Randolph County,IL,98.70828848223897,NA,NA
62521,Macon County,IL,5.776820954431288,NA,NA
62565,Shelby County,IL,94.22317904556871,NA,NA
62806,Edwards County,IL,99.85647649802655,NA,NA
62812,Franklin County,IL,81.55722999641192,NA,NA
62864,Jefferson County,IL,42.698241837100824,NA,NA
62881,Marion County,IL,77.53857194115537,NA,NA
62896,Franklin County,IL,64.62145676354503,NA,NA
46011,Madison County,IN,51.66846071044133,NA,NA
46013,Madison County,IN,29.314675278076784,NA,NA
46016,Madison County,IN,65.30319339791892,NA,NA
46017,Madison County,IN,73.51991388589882,96.98412698412699,NA
46033,Hamilton County,IN,56.01004664513815,NA,NA
46060,Hamilton County,IN,28.274129888769284,49.047619047619044,NA
46064,Madison County,IN,32.00574094007894,NA,NA
46072,Tipton County,IN,NA,99.68253968253968,NA
46077,Boone County,IN,66.52314316469322,NA,NA
46140,Hancock County,IN,NA,58.25396825396826,NA
46143,Johnson County,IN,60.674560459275206,39.682539682539684,NA
46151,Morgan County,IN,NA,NA,28.342245989304814
46168,Hendricks County,IN,NA,NA,51.87165775401069
46205,Marion County,IN,74.59634015069967,NA,NA
46214,Marion County,IN,NA,66.5079365079365,NA
46217,Marion County,IN,NA,81.26984126984127,NA
46220,Marion County,IN,69.57301758162899,NA,NA
46222,Marion County,IN,NA,24.285714285714285,NA
46225,Marion County,IN,97.30893433799784,NA,NA
46226,Marion County,IN,52.7448869752422,NA,NA
46227,Marion County,IN,36.23968424829565,NA,11.76470588235294
46229,Marion County,IN,35.342662360961604,NA,NA
46234,Marion County,IN,53.24721923214927,NA,NA
46235,Marion County,IN,25.547183351273773,NA,NA
46241,Marion County,IN,43.523501973448155,NA,NA
46250,Marion County,IN,NA,NA,82.88770053475936
46303,Lake County,IN,64.0832436311446,NA,NA
46307,Lake County,IN,53.46250448510944,NA,NA
46312,Lake County,IN,8.467886616433441,NA,NA
46350,LaPorte County,IN,27.664155005382128,NA,NA
46360,LaPorte County,IN,32.83100107642626,NA,NA
46366,Starke County,IN,93.93613204162182,NA,NA
46368,Porter County,IN,0.7534983853606028,NA,NA
46403,Lake County,IN,52.60136347326875,NA,NA
46516,Elkhart County,IN,NA,NA,18.71657754010695
46544,St. Joseph County,IN,42.23179045568712,NA,NA
46545,St. Joseph County,IN,58.30642267671331,NA,NA
46561,St. Joseph County,IN,80.94725511302477,NA,NA
46614,St. Joseph County,IN,57.40940078937926,NA,NA
46619,St. Joseph County,IN,87.01112307140293,NA,NA
46748,Allen County,IN,86.79583781844276,NA,NA
46750,Huntington County,IN,NA,26.825396825396826,NA
46773,Allen County,IN,90.06099748833871,NA,NA
46774,Allen County,IN,14.316469321851452,NA,NA
46783,Huntington County,IN,92.32149264442052,NA,NA
46803,Allen County,IN,NA,72.22222222222221,NA
46806,Allen County,IN,NA,61.58730158730159,NA
46808,Allen County,IN,59.09580193756727,NA,NA
46818,Allen County,IN,NA,54.761904761904766,NA
46825,Allen County,IN,NA,43.96825396825397,NA
46835,Allen County,IN,73.6275565123789,NA,NA
46902,Howard County,IN,42.66236096160746,NA,NA
46947,Cass County,IN,0.07176175098672408,NA,NA
46992,Wabash County,IN,37.35199138858988,NA,NA
47037,Ripley County,IN,86.79583781844276,NA,NA
47130,Clark County,IN,9.293146752780768,NA,NA
47150,Floyd County,IN,35.342662360961604,NA,NA
47161,Harrison County,IN,98.17007534983854,NA,NA
47165,Washington County,IN,57.445281664872624,NA,NA
47167,Washington County,IN,74.3092931467528,NA,NA
47201,Bartholomew County,IN,15.392895586652314,NA,NA
47203,Bartholomew County,IN,32.18514531754575,NA,NA
47274,Jackson County,IN,64.80086114101185,NA,NA
47331,Fayette County,IN,NA,53.96825396825397,NA
47353,Union County,IN,88.9486903480445,NA,NA
47362,Henry County,IN,NA,44.761904761904766,NA
47390,Randolph County,IN,NA,84.76190476190476,NA
47401,Monroe County,IN,93.36203803372803,NA,92.51336898395722
47403,Monroe County,IN,33.118048080373164,NA,NA
47452,Orange County,IN,96.66307857911734,NA,NA
47713,Vanderburgh County,IN,NA,59.04761904761905,NA
47714,Vanderburgh County,IN,9.041980624327234,NA,NA
47805,Vigo County,IN,30.929314675278075,NA,NA
47885,Vigo County,IN,85.79117330462863,NA,NA
47905,Tippecanoe County,IN,46.178686759956946,NA,NA
47906,Tippecanoe County,IN,47.36275565123789,NA,NA
47909,Tippecanoe County,IN,21.887334050950844,51.11111111111111,NA
47920,Tippecanoe County,IN,98.70828848223897,NA,NA
47978,Jasper County,IN,NA,NA,93.58288770053476
47993,Warren County,IN,97.09364908503767,NA,NA
50009,Polk County,IA,85.50412630068173,NA,NA
50010,Story County,IA,NA,93.96825396825396,NA
50021,Polk County,IA,82.88482238966631,NA,NA
50022,Cass County,IA,63.00681736634374,NA,NA
50158,Marshall County,IA,NA,60.15873015873016,NA
50310,Polk County,IA,71.259418729817,NA,NA
50314,Polk County,IA,NA,55.55555555555556,NA
50317,Polk County,IA,17.5816289917474,73.80952380952381,NA
50321,Polk County,IA,94.43846429852888,NA,NA
50327,Polk County,IA,NA,61.74603174603175,NA
50401,Cerro Gordo County,IA,12.84535342662361,NA,NA
50436,Winnebago County,IA,80.0502332256907,NA,NA
50501,Webster County,IA,22.56907068532472,NA,NA
50701,Black Hawk County,IA,NA,NA,41.17647058823529
50703,Black Hawk County,IA,75.60100466451381,NA,NA
51503,Pottawattamie County,IA,NA,45.23809523809524,NA
51632,Page County,IA,52.7448869752422,NA,NA
52002,Dubuque County,IA,78.29207032651597,NA,NA
52060,Jackson County,IA,74.84750627915321,NA,NA
52068,Dubuque County,IA,94.22317904556871,NA,NA
52240,Johnson County,IA,2.0810907786149984,36.666666666666664,NA
52310,Jones County,IA,94.11553641908863,NA,NA
52317,Johnson County,IA,74.52457839971295,NA,NA
52342,Tama County,IA,97.09364908503767,NA,NA
52404,Linn County,IA,1.829924650161464,NA,NA
52405,Linn County,IA,29.52996053103696,NA,NA
52625,Lee County,IA,95.87369931826336,NA,NA
52722,Scott County,IA,8.2884822389666315,NA,NA
52738,Louisa County,IA,63.00681736634374,NA,NA
52804,Scott County,IA,85.68353067814854,NA,NA
52806,Scott County,IA,22.17438105489774,NA,NA
66012,Wyandotte County,KS,92.21385001794043,NA,NA
66048,Leavenworth County,KS,35.48618586293505,NA,NA
66049,Douglas County,KS,66.52314316469322,NA,NA
66062,Johnson County,KS,7.642626480086114,NA,NA
66503,Riley County,KS,88.087549336203807,NA,NA
67025,Sedgwick County,KS,97.30893433799784,NA,NA
67133,Butler County,KS,96.51955507714388,NA,NA
67206,Sedgwick County,KS,96.950125583064235,NA,NA
67207,Sedgwick County,KS,82.38249013275923,NA,NA
67210,Sedgwick County,KS,98.52888410477215,NA,NA
67211,Sedgwick County,KS,49.30032292787944,NA,NA
67214,Sedgwick County,KS,71.08001435235019,NA,NA
67217,Sedgwick County,KS,20.487979906709725,NA,NA
67502,Reno County,KS,38.82310728381773,NA,NA
67550,Pawnee County,KS,65.01614639397201,NA,NA
67846,Finney County,KS,30.67814854682454,NA,NA
40031,Oldham County,KY,69.78830283458916,NA,NA
40059,Jefferson County,KY,73.37639038392537,NA,NA
40065,Shelby County,KY,42.08826695371367,71.9047619047619,NA
40071,Spencer County,KY,62.32508073196986,NA,NA
40165,Bullitt County,KY,84.28417653390743,NA,NA
40202,Jefferson County,KY,NA,NA,87.70053475935828
40203,Jefferson County,KY,11.840688912809473,NA,NA
40204,Jefferson County,KY,NA,100,NA
40208,Jefferson County,KY,37.81844277000359,NA,NA
40210,Jefferson County,KY,85.7194115536419,33.96825396825397,NA
40212,Jefferson County,KY,14.38823107283818,NA,NA
40214,Jefferson County,KY,12.30714029422318,NA,NA
40216,Jefferson County,KY,51.417294581987804,NA,NA
40219,Jefferson County,KY,59.41872981700753,NA,NA
40220,Jefferson County,KY,27.62827412988877,NA,NA
40258,Jefferson County,KY,24.61428058844636,NA,NA
40272,Jefferson County,KY,7.068532472192321,NA,NA
40291,Jefferson County,KY,28.991747398636527,NA,NA
40353,Montgomery County,KY,28.812343021169717,NA,NA
40356,Jessamine County,KY,15.823466092572659,NA,NA
40380,Powell County,KY,90.67097237172587,NA,NA
40383,Woodford County,KY,63.86795837818443,NA,NA
40422,Boyle County,KY,NA,78.25396825396825,NA
40475,Madison County,KY,18.012199497667744,NA,NA
40505,Fayette County,KY,15.966989594546108,NA,26.737967914438503
40511,Fayette County,KY,50.08970218873341,NA,NA
40513,Fayette County,KY,65.91316828130607,NA,NA
40515,Fayette County,KY,82.2389666307858,NA,NA
40741,Laurel County,KY,NA,NA,64.70588235294117
40744,Laurel County,KY,57.086472909939005,NA,NA
40823,Harlan County,KY,NA,76.19047619047619,NA
40906,Knox County,KY,NA,35.079365079365076,NA
40962,Clay County,KY,61.67922497308934,NA,NA
41006,Pendleton County,KY,89.84571223537854,NA,NA
41011,Kenton County,KY,NA,37.77777777777778,NA
41016,Kenton County,KY,84.10477215644062,NA,NA
41018,Kenton County,KY,21.81557229996412,NA,NA
41091,Boone County,KY,82.70541801219949,91.11111111111111,NA
41129,Boyd County,KY,86.0064585575888,NA,NA
41164,Carter County,KY,NA,51.90476190476191,NA
41701,Perry County,KY,73.01758162899175,NA,NA
42001,McCracken County,KY,NA,NA,35.82887700534759
42003,McCracken County,KY,68.46071044133477,NA,NA
42101,Warren County,KY,9.113742375313958,NA,NA
42129,Metcalfe County,KY,63.86795837818443,80.15873015873017,NA
42141,Barren County,KY,13.814137064944385,NA,NA
42164,Allen County,KY,46.60925726587728,48.57142857142857,NA
42171,Warren County,KY,93.07499102978113,NA,NA
42240,Christian County,KY,44.241119483315394,NA,NA
42262,Christian County,KY,95.87369931826336,NA,NA
42303,Daviess County,KY,15.464657337639037,NA,NA
42330,Muhlenberg County,KY,77.07212055974165,NA,NA
42345,Muhlenberg County,KY,88.44635809113743,NA,NA
42431,Hopkins County,KY,15.644061715105847,NA,NA
42501,Pulaski County,KY,72.44348762109796,NA,NA
42701,Hardin County,KY,9.32902762827413,NA,16.042780748663102
42718,Taylor County,KY,25.008970218873337,NA,NA
70003,Jefferson Parish,LA,1.2917115177610334,NA,NA
70037,Plaquemines Parish,LA,94.36670254754216,NA,NA
70058,Jefferson Parish,LA,3.1216361679224973,NA,NA
70062,Jefferson Parish,LA,90.02511661284535,NA,NA
70065,Jefferson Parish,LA,37.92608539648367,NA,NA
70075,St. Bernard Parish,LA,NA,24.285714285714285,NA
70086,St. James Parish,LA,99.74883387154647,NA,NA
70114,Orleans Parish,LA,2.978112665949049,NA,NA
70117,Orleans Parish,LA,0.8252601363473269,NA,NA
70118,Orleans Parish,LA,60.60279870828849,10.952380952380953,NA
70119,Orleans Parish,LA,3.265159669895946,NA,NA
70122,Orleans Parish,LA,0.4305705059203444,NA,NA
70125,Orleans Parish,LA,52.49372084678866,NA,NA
70301,Lafourche Parish,LA,6.8532472192321485,NA,NA
70360,Terrebonne Parish,LA,97.09364908503767,11.26984126984127,NA
70363,Terrebonne Parish,LA,70.11123071402943,NA,NA
70380,St. Mary Parish,LA,29.709364908503765,NA,NA
70403,Tangipahoa Parish,LA,5.45389307499103,NA,NA
70420,St. Tammany Parish,LA,93.14675278076786,NA,NA
70422,Tangipahoa Parish,LA,NA,95.55555555555556,NA
70427,Washington Parish,LA,98.92357373519914,81.11111111111111,NA
70447,St. Tammany Parish,LA,28.991747398636527,NA,NA
70461,St. Tammany Parish,LA,3.911015428776462,NA,NA
70506,Lafayette Parish,LA,4.2698241837100825,NA,NA
70508,Lafayette Parish,LA,45.85575888051668,NA,NA
70510,Vermilion Parish,LA,3.3010405453893075,NA,NA
70525,Acadia Parish,LA,10.943667025475422,NA,NA
70538,St. Mary Parish,LA,NA,NA,54.54545454545454
70560,Iberia Parish,LA,1.0405453893074992,NA,NA
70570,St. Landry Parish,LA,0.1076426264800861,NA,2.6737967914438503
70601,Calcasieu Parish,LA,38.32077502691066,2.857142857142857,NA
70615,Calcasieu Parish,LA,95.62253318980983,NA,NA
70647,Calcasieu Parish,LA,61.93039110154288,NA,NA
70663,Calcasieu Parish,LA,10.477215644061715,NA,NA
70710,West Baton Rouge Parish,LA,63.47326874775745,NA,NA
70726,Livingston Parish,LA,0.2870470039468963,NA,NA
70744,Livingston Parish,LA,98.9594546106925,NA,NA
70764,Iberville Parish,LA,86.68819519196268,NA,NA
70769,Ascension Parish,LA,3.946896304269824,NA,NA
70791,East Baton Rouge Parish,LA,14.38823107283818,NA,NA
70805,East Baton Rouge Parish,LA,18.371008252601364,NA,NA
70806,East Baton Rouge Parish,LA,37.064944384642985,NA,NA
70809,East Baton Rouge Parish,LA,37.244348762109794,NA,NA
70812,East Baton Rouge Parish,LA,92.17796914244708,NA,NA
70814,East Baton Rouge Parish,LA,14.926444205238607,NA,42.780748663101605
71006,Bossier Parish,LA,61.750986724076064,NA,NA
71040,Claiborne Parish,LA,98.06243272335846,NA,NA
71055,Webster Parish,LA,22.856117689271617,NA,NA
71075,Webster Parish,LA,44.635809113742376,NA,NA
71106,Caddo Parish,LA,1.6146393972012916,NA,NA
71129,Caddo Parish,LA,34.409759598134194,NA,NA
71202,Ouachita Parish,LA,69.96770721205597,NA,NA
71203,Ouachita Parish,LA,NA,NA,10.695187165775401
71220,Morehouse Parish,LA,NA,8.095238095238095,NA
71241,Union Parish,LA,38.67958378184428,NA,NA
71291,Ouachita Parish,LA,22.74847506279153,NA,NA
71292,Ouachita Parish,LA,12.48654467168999,NA,NA
71301,Rapides Parish,LA,NA,7.6190476190476195,NA
71355,Avoyelles Parish,LA,99.96411912450664,NA,NA
71360,Rapides Parish,LA,9.221385001794044,NA,NA
71457,Natchitoches Parish,LA,NA,2.380952380952381,NA
04039,Cumberland County,ME,65.44671689989235,NA,NA
04240,Androscoggin County,ME,2.1528525296017222,NA,NA
04252,Androscoggin County,ME,99.46178686759957,NA,NA
04294,Franklin County,ME,91.99856476498026,NA,NA
04401,Penobscot County,ME,0.6099748833871547,NA,NA
04457,Penobscot County,ME,NA,92.85714285714286,NA
04605,Hancock County,ME,43.6670254754216,NA,NA
04937,Somerset County,ME,49.30032292787944,NA,NA
20659,St. Mary's County,MD,61.21277359167564,NA,NA
20744,Prince George's County,MD,55.07714388231073,NA,NA
20772,Prince George's County,MD,76.10333692142089,NA,NA
20854,Montgomery County,MD,36.41908862576247,NA,NA
20855,Montgomery County,MD,85.14531754574811,NA,NA
20874,Montgomery County,MD,38.14137064944384,NA,NA
20878,Montgomery County,MD,74.27341227125942,NA,NA
20879,Montgomery County,MD,87.58521707929674,NA,NA
20910,Montgomery County,MD,59.167563688554004,NA,NA
21042,Howard County,MD,29.709364908503765,NA,NA
21044,Howard County,MD,73.48403301040545,NA,NA
21045,Howard County,MD,37.20846788661643,NA,NA
21074,Carroll County,MD,75.67276641550053,NA,NA
21075,Howard County,MD,46.178686759956946,NA,NA
21108,Anne Arundel County,MD,58.77287405812702,NA,NA
21120,Baltimore County,MD,98.09831359885182,NA,98.93048128342245
21122,Anne Arundel County,MD,8.25260136347327,NA,NA
21155,Baltimore County,MD,99.67707212055974,NA,NA
21208,Baltimore County,MD,35.055615357014716,NA,NA
21212,Baltimore city,MD,35.773232866881955,NA,NA
21215,Baltimore city,MD,NA,NA,10.16042780748663
21222,Baltimore County,MD,6.996770721205597,NA,NA
21239,Baltimore city,MD,13.02475780409042,NA,NA
21244,Baltimore County,MD,12.665949049156799,NA,NA
21550,Garrett County,MD,93.43379978471475,NA,NA
21737,Howard County,MD,99.35414424111949,NA,NA
21771,Frederick County,MD,71.61822748475063,NA,NA
21901,Cecil County,MD,81.70075349838535,NA,NA
01013,Hampden County,MA,25.798349479727307,NA,NA
01028,Hampden County,MA,57.301758162899176,NA,NA
01060,Hampshire County,MA,65.44671689989235,NA,NA
01085,Hampden County,MA,95.15608180839612,NA,NA
01106,Hampden County,MA,85.14531754574811,NA,NA
01109,Hampden County,MA,10.871905274488698,NA,NA
01119,Hampden County,MA,NA,28.730158730158728,NA
01201,Berkshire County,MA,76.60566917832796,NA,0.53475935828877
01226,Berkshire County,MA,NA,62.53968253968254,NA
01247,Berkshire County,MA,NA,62.38095238095238,NA
01301,Franklin County,MA,65.410836024399,NA,NA
01420,Worcester County,MA,2.0093290276282745,NA,NA
01450,Middlesex County,MA,72.44348762109796,NA,NA
01473,Worcester County,MA,40.5453893074991,NA,NA
01507,Worcester County,MA,30.570505920344456,NA,NA
01590,Worcester County,MA,70.50592034445641,NA,NA
01603,Worcester County,MA,48.762109795479006,NA,NA
01604,Worcester County,MA,31.03695730175816,NA,NA
01607,Worcester County,MA,89.34337997847148,NA,NA
01702,Middlesex County,MA,2.8704700394689633,3.968253968253968,NA
01721,Middlesex County,MA,35.773232866881955,NA,NA
01742,Middlesex County,MA,20.057409400789382,NA,NA
01760,Middlesex County,MA,NA,45.07936507936508,NA
01801,Middlesex County,MA,NA,8.253968253968253,NA
01824,Middlesex County,MA,77.07212055974165,NA,NA
01826,Middlesex County,MA,13.168281306063868,NA,NA
01841,Essex County,MA,2.3681377825618943,NA,0
01843,Essex County,MA,1.9375672766415502,NA,NA
01845,Essex County,MA,52.709006099748834,19.20634920634921,NA
01851,Middlesex County,MA,29.314675278076784,NA,NA
01854,Middlesex County,MA,41.33476856835307,NA,NA
01887,Middlesex County,MA,15.966989594546108,NA,NA
01902,Essex County,MA,2.726946537495515,NA,NA
01905,Essex County,MA,33.082167204879795,NA,NA
01906,Essex County,MA,11.517761033369215,NA,NA
01907,Essex County,MA,49.04915679942591,NA,NA
01915,Essex County,MA,4.3057050592034445,NA,NA
01940,Essex County,MA,33.65626121277359,NA,NA
01945,Essex County,MA,NA,NA,52.406417112299465
01970,Essex County,MA,1.3275923932543954,NA,NA
02048,Bristol County,MA,58.66523143164694,NA,NA
02093,Norfolk County,MA,88.91280947255113,NA,NA
02118,Suffolk County,MA,NA,8.88888888888889,NA
02119,Suffolk County,MA,41.37064944384643,NA,NA
02121,Suffolk County,MA,2.798708288482239,11.11111111111111,NA
02122,Suffolk County,MA,42.05238607822031,NA,NA
02128,Suffolk County,MA,85.61176892716182,NA,NA
02130,Suffolk County,MA,NA,NA,2.13903743315508
02134,Suffolk County,MA,73.98636526731252,NA,NA
02136,Suffolk County,MA,3.3369214208826694,NA,NA
02139,Middlesex County,MA,4.162181557229997,NA,NA
02148,Middlesex County,MA,18.29924650161464,NA,NA
02150,Suffolk County,MA,1.0764262648008611,NA,NA
02151,Suffolk County,MA,6.027987082884822,NA,NA
02176,Middlesex County,MA,23.860782203085755,NA,NA
02190,Norfolk County,MA,54.03659849300323,NA,32.62032085561498
02301,Plymouth County,MA,0.03588087549336204,0.15873015873015872,NA
02302,Plymouth County,MA,38.50017940437746,NA,NA
02324,Plymouth County,MA,32.18514531754575,NA,NA
02330,Plymouth County,MA,98.42124147829206,NA,NA
02332,Plymouth County,MA,84.60710441334768,NA,NA
02333,Plymouth County,MA,26.838894869034803,NA,NA
02368,Norfolk County,MA,72.44348762109796,NA,NA
02370,Plymouth County,MA,21.600287047003945,NA,NA
02382,Plymouth County,MA,25.65482597775386,NA,NA
02420,Middlesex County,MA,NA,NA,44.38502673796791
02421,Middlesex County,MA,13.02475780409042,NA,NA
02453,Middlesex County,MA,18.586293505561535,NA,NA
02458,Middlesex County,MA,92.57265877287406,NA,NA
02467,Norfolk County,MA,64.47793326157158,NA,NA
02472,Middlesex County,MA,19.483315392895587,NA,NA
02478,Middlesex County,MA,39.68424829565841,NA,NA
02532,Barnstable County,MA,NA,82.22222222222221,NA
02557,Dukes County,MA,91.60387513455328,NA,NA
02664,Barnstable County,MA,89.84571223537854,NA,NA
02719,Bristol County,MA,89.4151417294582,NA,NA
02721,Bristol County,MA,11.158952278435594,NA,NA
02723,Bristol County,MA,74.2016505202727,NA,NA
02724,Bristol County,MA,NA,65.23809523809524,NA
02740,Bristol County,MA,NA,1.9047619047619049,21.390374331550802
02745,Bristol County,MA,NA,NA,3.2085561497326207
02747,Bristol County,MA,37.35199138858988,NA,NA
02760,Bristol County,MA,NA,51.11111111111111,NA
02779,Bristol County,MA,NA,89.36507936507937,NA
48021,Macomb County,MI,10.22604951560818,NA,NA
48033,Oakland County,MI,56.189451022604956,NA,NA
48036,Macomb County,MI,58.48582705418012,NA,NA
48044,Macomb County,MI,30.355220667384287,NA,NA
48051,Macomb County,MI,42.08826695371367,NA,NA
48060,St. Clair County,MI,64.22676713311805,NA,4.27807486631016
48066,Macomb County,MI,NA,35.55555555555556,NA
48071,Oakland County,MI,63.00681736634374,NA,NA
48075,Oakland County,MI,22.497308934337997,NA,NA
48083,Oakland County,MI,64.15500538213132,NA,NA
48085,Oakland County,MI,76.64155005382132,NA,NA
48092,Macomb County,MI,46.178686759956946,NA,36.36363636363637
48093,Macomb County,MI,35.30678148546825,NA,NA
48098,Oakland County,MI,49.04915679942591,NA,NA
48101,Wayne County,MI,63.832077502691064,NA,NA
48103,Washtenaw County,MI,39.68424829565841,19.841269841269842,NA
48108,Washtenaw County,MI,19.19626838894869,NA,NA
48111,Wayne County,MI,53.677789738069606,27.460317460317462,8.0213903743315509
48120,Wayne County,MI,74.84750627915321,NA,NA
48127,Wayne County,MI,10.656620021528525,NA,NA
48134,Wayne County,MI,47.90096878363832,NA,NA
48135,Wayne County,MI,20.91855041263007,NA,NA
48141,Wayne County,MI,52.242554718335136,NA,NA
48161,Monroe County,MI,NA,25.71428571428571,NA
48167,Oakland County,MI,36.59849300322928,NA,NA
48168,Wayne County,MI,20.667384284176535,NA,NA
48173,Wayne County,MI,46.42985288841048,NA,NA
48174,Wayne County,MI,2.4040186580552567,NA,NA
48180,Wayne County,MI,19.411553641908863,NA,NA
48182,Monroe County,MI,32.83100107642626,NA,NA
48185,Wayne County,MI,19.842124147829207,NA,NA
48198,Washtenaw County,MI,11.230714029422318,NA,NA
48204,Wayne County,MI,34.445640473627556,39.523809523809526,13.903743315508022
48207,Wayne County,MI,9.68783638320775,NA,NA
48210,Wayne County,MI,68.60423394330822,NA,NA
48212,Wayne County,MI,68.85540007176175,NA,13.368983957219251
48213,Wayne County,MI,25.36777897380696,NA,NA
48221,Wayne County,MI,45.56871187656979,NA,NA
48223,Wayne County,MI,49.87441693577323,NA,NA
48224,Wayne County,MI,5.81270182992465,NA,NA
48227,Wayne County,MI,NA,4.444444444444445,NA
48228,Wayne County,MI,0.46645138141370646,NA,NA
48236,Wayne County,MI,24.2913527090061,NA,NA
48238,Wayne County,MI,24.040186580552568,NA,NA
48301,Oakland County,MI,81.84427700035882,NA,NA
48306,Oakland County,MI,25.977753857194113,NA,NA
48307,Oakland County,MI,13.706494438464297,NA,NA
48309,Oakland County,MI,38.82310728381773,NA,NA
48313,Macomb County,MI,28.991747398636527,NA,NA
48314,Macomb County,MI,61.93039110154288,NA,NA
48315,Macomb County,MI,60.56691783279512,NA,NA
48322,Oakland County,MI,39.325439540724794,NA,NA
48326,Oakland County,MI,76.928597057768215,NA,NA
48340,Oakland County,MI,9.723717258701111,NA,NA
48348,Oakland County,MI,70.07534983853606,NA,NA
48356,Oakland County,MI,78.04090419806244,NA,NA
48377,Oakland County,MI,NA,94.92063492063491,NA
48380,Oakland County,MI,69.10656620021528,NA,NA
48382,Oakland County,MI,22.784355938284897,NA,NA
48390,Oakland County,MI,25.29601722282024,NA,NA
48451,Genesee County,MI,52.60136347326875,NA,NA
48471,Sanilac County,MI,76.96447793326158,NA,NA
48505,Genesee County,MI,49.47972730534625,NA,NA
48506,Genesee County,MI,36.23968424829565,NA,NA
48602,Saginaw County,MI,13.993541442411194,NA,NA
48603,Saginaw County,MI,NA,86.34920634920636,NA
48604,Saginaw County,MI,NA,91.74603174603175,NA
48609,Saginaw County,MI,87.1546465733764,NA,NA
48612,Gladwin County,MI,67.85073555794762,NA,NA
48638,Saginaw County,MI,85.6476498026552,NA,NA
48661,Ogemaw County,MI,NA,91.74603174603175,NA
48706,Bay County,MI,NA,55.55555555555556,NA
48746,Tuscola County,MI,NA,81.74603174603175,NA
48801,Gratiot County,MI,49.04915679942591,NA,NA
48820,Clinton County,MI,67.491926803014,NA,NA
48823,Ingham County,MI,44.635809113742376,NA,NA
48827,Eaton County,MI,20.595622533189808,NA,NA
48840,Ingham County,MI,48.546824542518834,NA,NA
48848,Shiawassee County,MI,95.55077143882312,NA,NA
48858,Isabella County,MI,5.09508432005741,NA,NA
48879,Clinton County,MI,82.88482238966631,NA,NA
48884,Montcalm County,MI,95.22784355938285,97.93650793650794,NA
48906,Ingham County,MI,15.249372084678866,NA,NA
48910,Ingham County,MI,2.188733405095084,53.01587301587302,NA
48911,Ingham County,MI,4.520990312163617,NA,NA
49001,Kalamazoo County,MI,55.29242913527091,NA,NA
49002,Kalamazoo County,MI,80.3372802296376,NA,NA
49006,Kalamazoo County,MI,82.56189451022605,NA,NA
49009,Kalamazoo County,MI,16.110513096519554,NA,NA
49015,Calhoun County,MI,76.06745604592751,NA,NA
49022,Berrien County,MI,3.1575170434158593,NA,NA
49024,Kalamazoo County,MI,23.071402942231792,NA,NA
49028,Branch County,MI,91.10154287764621,NA,NA
49031,Cass County,MI,79.72730534625045,NA,NA
49036,Branch County,MI,19.447434517402222,NA,NA
49037,Calhoun County,MI,NA,37.77777777777778,NA
49038,Berrien County,MI,87.90814495873698,NA,NA
49057,Van Buren County,MI,49.30032292787944,NA,NA
49058,Barry County,MI,35.48618586293505,NA,NA
49068,Calhoun County,MI,88.6616433440976,NA,NA
49073,Barry County,MI,81.84427700035882,NA,NA
49082,Branch County,MI,NA,NA,99.46524064171123
49085,Berrien County,MI,88.087549336203807,NA,NA
49091,St. Joseph County,MI,92.14208826695372,NA,NA
49201,Jackson County,MI,25.762468604233945,NA,NA
49203,Jackson County,MI,63.47326874775745,27.142857142857142,NA
49221,Lenawee County,MI,1.2199497667743093,NA,NA
49307,Mecosta County,MI,36.99318263365626,NA,NA
49319,Kent County,MI,66.16433440975959,NA,NA
49341,Kent County,MI,15.034086831718692,NA,NA
49343,Kent County,MI,71.8335127377108,NA,NA
49349,Newaygo County,MI,57.445281664872624,NA,NA
49417,Ottawa County,MI,24.14782920703265,NA,NA
49424,Ottawa County,MI,27.98708288482239,NA,NA
49428,Ottawa County,MI,73.01758162899175,NA,NA
49441,Muskegon County,MI,43.164693218514536,NA,NA
49442,Muskegon County,MI,NA,62.22222222222222,NA
49504,Kent County,MI,8.503767491926803,43.65079365079365,NA
49507,Kent County,MI,0.7176175098672408,NA,NA
49509,Kent County,MI,62.82741298887693,NA,NA
49546,Kent County,MI,83.85360602798708,NA,47.05882352941176
49548,Kent County,MI,3.6957301758162897,NA,NA
49633,Kalkaska County,MI,99.10297811266595,NA,NA
49659,Antrim County,MI,86.40114818801578,NA,NA
49738,Crawford County,MI,NA,92.22222222222223,NA
49849,Marquette County,MI,73.01758162899175,NA,NA
49858,Menominee County,MI,74.3092931467528,NA,NA
55008,Isanti County,MN,31.43164693218515,NA,NA
55016,Washington County,MN,5.63329745245784,24.92063492063492,NA
55024,Dakota County,MN,91.60387513455328,NA,NA
55025,Washington County,MN,71.76175098672407,NA,NA
55044,Dakota County,MN,16.86401148188016,NA,NA
55051,Kanabec County,MN,51.991388589881595,NA,NA
55060,Steele County,MN,52.09903121636168,NA,NA
55068,Dakota County,MN,48.86975242195909,NA,NA
55070,Anoka County,MN,83.20775026910655,NA,NA
55104,Ramsey County,MN,60.459275206315034,54.44444444444444,NA
55106,Ramsey County,MN,23.03552206673843,NA,NA
55117,Ramsey County,MN,3.3369214208826694,NA,NA
55124,Dakota County,MN,10.584858270541801,NA,48.1283422459893
55128,Washington County,MN,NA,39.04761904761905,NA
55130,Ramsey County,MN,18.69393613204162,NA,NA
55301,Wright County,MN,NA,82.22222222222221,NA
55330,Sherburne County,MN,9.32902762827413,NA,NA
55340,Hennepin County,MN,78.72264083243631,NA,NA
55344,Hennepin County,MN,80.0502332256907,NA,NA
55369,Hennepin County,MN,31.32400430570506,NA,42.24598930481284
55371,Mille Lacs County,MN,63.22210261930391,NA,NA
55374,Hennepin County,MN,72.19232149264442,NA,NA
55376,Wright County,MN,84.57122353785432,NA,NA
55378,Scott County,MN,24.578399712952997,NA,NA
55407,Hennepin County,MN,NA,10.634920634920634,NA
55410,Hennepin County,MN,65.91316828130607,NA,NA
55412,Hennepin County,MN,NA,17.936507936507937,NA
55413,Hennepin County,MN,82.88482238966631,NA,NA
55418,Hennepin County,MN,NA,NA,31.550802139037433
55421,Anoka County,MN,31.072838177251526,NA,NA
55427,Hennepin County,MN,37.56727664155005,NA,NA
55430,Hennepin County,MN,62.89917473986365,NA,NA
55433,Anoka County,MN,58.52170792967348,NA,NA
55744,Itasca County,MN,27.84355938284894,NA,NA
55746,St. Louis County,MN,52.09903121636168,NA,NA
55792,St. Louis County,MN,NA,NA,43.85026737967914
55805,St. Louis County,MN,82.05956225331899,NA,NA
55811,St. Louis County,MN,70.36239684248295,NA,NA
55901,Olmsted County,MN,54.000717617509864,NA,NA
55902,Olmsted County,MN,71.8335127377108,NA,NA
55904,Olmsted County,MN,54.216002870470035,21.428571428571427,NA
56024,Blue Earth County,MN,89.4151417294582,NA,NA
56074,Nicollet County,MN,97.73950484391818,NA,NA
56258,Lyon County,MN,NA,NA,94.6524064171123
56359,Mille Lacs County,MN,NA,80.47619047619048,NA
56364,Morrison County,MN,79.2967348403301,NA,NA
56367,Benton County,MN,81.23430211697166,NA,NA
56379,Benton County,MN,16.254036598493002,NA,NA
56401,Crow Wing County,MN,NA,15.238095238095239,NA
56470,Hubbard County,MN,39.86365267312522,NA,NA
56474,Cass County,MN,96.48367420165052,NA,NA
56501,Becker County,MN,51.991388589881595,NA,NA
56537,Otter Tail County,MN,12.020093290276284,NA,NA
56560,Clay County,MN,0.5023322569070686,NA,NA
56621,Clearwater County,MN,51.66846071044133,NA,NA
56751,Roseau County,MN,86.40114818801578,NA,NA
38614,Coahoma County,MS,34.15859346968066,NA,NA
38632,DeSoto County,MS,50.08970218873341,NA,NA
38637,DeSoto County,MS,NA,41.42857142857143,NA
38646,Quitman County,MS,NA,95.23809523809523,NA
38650,Union County,MS,99.03121636167921,NA,NA
38651,DeSoto County,MS,80.0502332256907,NA,NA
38663,Tippah County,MS,61.21277359167564,NA,NA
38668,Tate County,MS,86.04233943308218,NA,NA
38732,Bolivar County,MS,20.021528525296016,NA,NA
38801,Lee County,MS,NA,29.04761904761905,NA
38863,Pontotoc County,MS,90.06099748833871,NA,NA
38901,Grenada County,MS,NA,NA,66.31016042780749
39059,Copiah County,MS,35.055615357014716,NA,NA
39074,Scott County,MS,12.199497667743094,NA,NA
39090,Attala County,MS,80.30139935414424,75.87301587301587,NA
39092,Scott County,MS,NA,99.36507936507937,NA
39110,Madison County,MS,15.572299964119123,NA,NA
39111,Simpson County,MS,97.6318622174381,NA,NA
39119,Covington County,MS,NA,96.82539682539682,NA
39157,Madison County,MS,45.60459275206315,NA,NA
39183,Warren County,MS,85.39648367420165,NA,NA
39194,Yazoo County,MS,45.89163975601004,NA,NA
39206,Hinds County,MS,52.49372084678866,NA,NA
39208,Rankin County,MS,NA,NA,49.19786096256685
39209,Hinds County,MS,NA,70.31746031746032,NA
39212,Hinds County,MS,3.8751345532831003,NA,NA
39213,Hinds County,MS,67.45604592752063,NA,NA
39272,Hinds County,MS,84.64298528884105,NA,NA
39339,Winston County,MS,95.80193756727664,NA,NA
39367,Wayne County,MS,11.912450663796196,NA,NA
39426,Pearl River County,MS,40.868317186939365,NA,NA
39531,Harrison County,MS,32.61571582346609,NA,NA
39532,Harrison County,MS,15.966989594546108,NA,NA
39556,Hancock County,MS,87.69285970577681,NA,NA
39631,Wilkinson County,MS,NA,91.11111111111111,NA
39648,Pike County,MS,NA,24.92063492063492,NA
39657,Pike County,MS,99.92823824901328,NA,NA
39666,Pike County,MS,56.189451022604956,NA,NA
39759,Oktibbeha County,MS,75.34983853606028,NA,NA
63011,St. Louis County,MO,45.13814137064944,97.77777777777777,NA
63033,St. Louis County,MO,55.68711876569788,NA,NA
63044,St. Louis County,MO,73.37639038392537,NA,NA
63109,St. Louis city,MO,61.21277359167564,NA,NA
63112,St. Louis city,MO,33.54861858629351,NA,NA
63118,St. Louis city,MO,NA,36.82539682539683,NA
63120,St. Louis city,MO,48.33153928955867,NA,NA
63123,St. Louis County,MO,13.240043057050594,NA,NA
63135,St. Louis County,MO,9.32902762827413,NA,NA
63137,St. Louis County,MO,43.164693218514536,NA,NA
63303,St. Charles County,MO,42.08826695371367,NA,NA
63362,Lincoln County,MO,74.59634015069967,NA,NA
63366,St. Charles County,MO,27.520631503408683,NA,NA
63368,St. Charles County,MO,7.499102978112666,NA,NA
63376,St. Charles County,MO,NA,NA,76.47058823529412
63383,Warren County,MO,NA,78.73015873015873,NA
63385,St. Charles County,MO,33.33333333333333,NA,NA
63401,Marion County,MO,30.67814854682454,NA,NA
63552,Macon County,MO,NA,NA,84.49197860962568
63601,St. Francois County,MO,53.17545748116254,NA,NA
63624,St. Francois County,MO,91.99856476498026,NA,NA
63755,Cape Girardeau County,MO,28.417653390742736,NA,NA
63775,Perry County,MO,12.558306422676713,NA,NA
63801,Scott County,MO,65.8772874058127,NA,NA
64011,Lafayette County,MO,98.17007534983854,NA,NA
64012,Cass County,MO,37.81844277000359,NA,NA
64014,Jackson County,MO,9.616074632221027,NA,NA
64015,Jackson County,MO,20.595622533189808,NA,NA
64029,Jackson County,MO,51.094366702547546,NA,NA
64054,Jackson County,MO,91.10154287764621,NA,NA
64055,Jackson County,MO,NA,21.904761904761905,NA
64057,Jackson County,MO,67.9583781844277,NA,NA
64082,Jackson County,MO,82.56189451022605,NA,NA
64085,Ray County,MO,41.76533907427341,NA,NA
64093,Johnson County,MO,NA,NA,43.31550802139038
64117,Clay County,MO,NA,78.41269841269842,NA
64118,Clay County,MO,5.418012199497667,22.22222222222222,NA
64119,Clay County,MO,25.977753857194113,NA,NA
64127,Jackson County,MO,5.597416576964478,NA,NA
64128,Jackson County,MO,10.76426264800861,NA,NA
64130,Jackson County,MO,44.85109436670255,NA,NA
64132,Jackson County,MO,67.16899892357372,NA,NA
64133,Jackson County,MO,NA,NA,5.88235294117647
64136,Jackson County,MO,94.6178686759957,NA,NA
64151,Platte County,MO,NA,NA,37.967914438502675
64157,Clay County,MO,34.445640473627556,NA,NA
64501,Buchanan County,MO,75.06279153211338,NA,NA
64506,Buchanan County,MO,6.422676713311805,NA,22.459893048128343
64624,Caldwell County,MO,89.09221385001794,NA,NA
64633,Carroll County,MO,90.06099748833871,NA,NA
64772,Vernon County,MO,38.39253677789738,NA,NA
64801,Jasper County,MO,30.355220667384287,NA,NA
64850,Newton County,MO,27.30534625044851,48.888888888888886,NA
65020,Camden County,MO,54.646573376390386,NA,NA
65203,Boone County,MO,5.023322569070685,NA,NA
65301,Pettis County,MO,5.3103695730175815,NA,NA
65401,Phelps County,MO,NA,22.063492063492063,NA
65613,Polk County,MO,NA,NA,94.11764705882352
65711,Wright County,MO,84.67886616433441,NA,NA
65714,Christian County,MO,46.5016146393972,NA,81.81818181818183
65775,Howell County,MO,23.860782203085755,NA,NA
65802,Greene County,MO,11.123071402942232,NA,NA
65807,Greene County,MO,29.673484033010407,NA,NA
59634,Jefferson County,MT,95.3713670613563,NA,NA
59802,Missoula County,MT,91.92680301399353,NA,NA
68007,Douglas County,NE,73.66343738787226,NA,NA
68028,Sarpy County,NE,46.896304269824185,NA,NA
68046,Sarpy County,NE,NA,98.73015873015873,NA
68104,Douglas County,NE,19.483315392895587,NA,NA
68105,Douglas County,NE,40.68891280947255,NA,NA
68106,Douglas County,NE,50.08970218873341,NA,NA
68111,Douglas County,NE,22.38966630785791,NA,NA
68116,Douglas County,NE,27.30534625044851,NA,70.58823529411765
68123,Sarpy County,NE,60.674560459275206,NA,NA
68124,Douglas County,NE,24.61428058844636,NA,NA
68127,Douglas County,NE,66.52314316469322,NA,NA
68131,Douglas County,NE,78.97380696088985,NA,NA
68132,Douglas County,NE,77.07212055974165,NA,NA
68135,Douglas County,NE,23.2508073196986,NA,NA
68136,Sarpy County,NE,57.445281664872624,NA,NA
68154,Douglas County,NE,89.98923573735199,NA,NA
68502,Lancaster County,NE,60.028704700394684,NA,NA
68505,Lancaster County,NE,84.67886616433441,NA,NA
68506,Lancaster County,NE,55.579476139217796,NA,NA
68510,Lancaster County,NE,82.70541801219949,NA,NA
68516,Lancaster County,NE,17.330462863293864,NA,NA
68601,Platte County,NE,23.501973448152135,NA,NA
68701,Madison County,NE,32.687477574452814,NA,NA
69130,Dawson County,NE,94.90491567994259,NA,NA
69162,Cheyenne County,NE,50.3767491926803,NA,NA
89104,Clark County,NV,66.16433440975959,NA,NA
89110,Clark County,NV,64.51381413706494,NA,24.598930481283425
89113,Clark County,NV,83.56655902404019,NA,NA
89121,Clark County,NV,31.575170434158593,NA,NA
89122,Clark County,NV,27.98708288482239,NA,NA
89123,Clark County,NV,44.635809113742376,NA,NA
89129,Clark County,NV,27.09006099748834,NA,NA
89139,Clark County,NV,64.62145676354503,NA,NA
89141,Clark County,NV,NA,93.65079365079364,NA
89142,Clark County,NV,60.13634732687477,NA,NA
89148,Clark County,NV,43.55938284894151,NA,NA
89149,Clark County,NV,58.30642267671331,NA,NA
89156,Clark County,NV,27.09006099748834,NA,NA
89166,Clark County,NV,75.99569429494079,NA,NA
89169,Clark County,NV,76.1750986724076,NA,NA
89183,Clark County,NV,74.48869752421959,NA,NA
89431,Washoe County,NV,24.398995335486187,NA,NA
89502,Washoe County,NV,10.477215644061715,NA,NA
89521,Washoe County,NV,45.389307499102976,NA,NA
89703,Carson City,NV,91.60387513455328,NA,NA
89801,Elko County,NV,96.34015069967707,NA,NA
03038,Rockingham County,NH,38.35665590240402,NA,NA
03053,Rockingham County,NH,14.782920703265159,NA,NA
03064,Hillsborough County,NH,5.669178327951202,NA,NA
03102,Hillsborough County,NH,7.247936849659132,NA,NA
07001,Middlesex County,NJ,NA,NA,74.8663101604278
07003,Essex County,NJ,9.974883387154646,NA,NA
07010,Bergen County,NJ,85.36060279870829,NA,NA
07024,Bergen County,NJ,NA,95.71428571428572,NA
07036,Union County,NJ,71.04413347685683,NA,NA
07043,Essex County,NJ,98.67240760674561,NA,NA
07050,Essex County,NJ,NA,64.92063492063492,NA
07055,Passaic County,NJ,34.050950843200575,NA,NA
07063,Union County,NJ,NA,11.746031746031745,NA
07065,Union County,NJ,39.82777179763186,NA,NA
07076,Union County,NJ,59.41872981700753,NA,NA
07083,Union County,NJ,9.472551130247577,NA,NA
07087,Hudson County,NJ,NA,1.746031746031746,NA
07093,Hudson County,NJ,11.051309651955506,NA,NA
07103,Essex County,NJ,15.644061715105847,2.0634920634920633,NA
07104,Essex County,NJ,76.7491926803014,0.31746031746031744,NA
07106,Essex County,NJ,19.3756727664155,NA,NA
07107,Essex County,NJ,93.39791890922139,59.682539682539684,NA
07111,Essex County,NJ,NA,71.42857142857143,NA
07112,Essex County,NJ,13.168281306063868,NA,21.92513368983957
07201,Union County,NJ,65.80552565482598,4.444444444444445,NA
07202,Union County,NJ,50.627915321133834,NA,NA
07302,Hudson County,NJ,82.70541801219949,NA,NA
07304,Hudson County,NJ,2.6551847865087908,NA,NA
07306,Hudson County,NJ,13.38356655902404,NA,NA
07405,Morris County,NJ,63.47326874775745,NA,NA
07461,Sussex County,NJ,96.77072120559743,NA,NA
07462,Sussex County,NJ,NA,86.82539682539682,NA
07480,Passaic County,NJ,60.92572658772875,NA,NA
07501,Passaic County,NJ,29.9605310369573,6.190476190476191,NA
07504,Passaic County,NJ,37.13670613562971,NA,NA
07508,Passaic County,NJ,45.60459275206315,NA,NA
07514,Passaic County,NJ,98.45712235378544,NA,NA
07522,Passaic County,NJ,85.43236454969502,NA,NA
07524,Passaic County,NJ,89.4151417294582,NA,NA
07601,Bergen County,NJ,18.442770003588087,NA,NA
07677,Bergen County,NJ,95.3713670613563,NA,NA
07712,Monmouth County,NJ,16.289917473986364,NA,NA
07731,Monmouth County,NJ,26.659490491567993,19.047619047619047,NA
07746,Monmouth County,NJ,90.31216361679225,NA,NA
07748,Monmouth County,NJ,68.2454251883746,NA,NA
07825,Warren County,NJ,89.66630785791173,NA,NA
07876,Morris County,NJ,92.60853964836741,NA,NA
08002,Camden County,NJ,67.81485468245425,NA,NA
08003,Camden County,NJ,18.87334050950843,NA,NA
08004,Camden County,NJ,82.05956225331899,NA,NA
08012,Camden County,NJ,71.58234660925726,NA,6.951871657754011
08016,Burlington County,NJ,37.13670613562971,94.6031746031746,NA
08021,Camden County,NJ,62.79153211338356,NA,NA
08022,Burlington County,NJ,92.89558665231432,NA,NA
08028,Gloucester County,NJ,NA,NA,20.855614973262032
08035,Camden County,NJ,93.61320416218156,NA,NA
08037,Atlantic County,NJ,39.07427341227126,NA,NA
08046,Burlington County,NJ,97.70362396842482,NA,NA
08051,Gloucester County,NJ,89.09221385001794,NA,NA
08054,Burlington County,NJ,24.040186580552568,NA,NA
08055,Burlington County,NJ,NA,67.3015873015873,NA
08057,Burlington County,NJ,46.42985288841048,NA,NA
08060,Burlington County,NJ,45.60459275206315,NA,NA
08063,Gloucester County,NJ,95.87369931826336,NA,NA
08066,Gloucester County,NJ,99.7129529960531,NA,NA
08075,Burlington County,NJ,93.54144241119484,NA,NA
08081,Camden County,NJ,33.65626121277359,11.428571428571429,NA
08087,Ocean County,NJ,NA,NA,75.93582887700535
08094,Gloucester County,NJ,8.2884822389666315,NA,NA
08096,Gloucester County,NJ,NA,5.396825396825397,NA
08102,Camden County,NJ,70.11123071402943,NA,NA
08105,Camden County,NJ,NA,56.98412698412698,NA
08108,Camden County,NJ,60.674560459275206,NA,NA
08204,Cape May County,NJ,96.62719770362396,NA,62.56684491978609
08223,Cape May County,NJ,88.9486903480445,NA,NA
08312,Gloucester County,NJ,80.69608898457122,NA,NA
08332,Cumberland County,NJ,91.56799425905993,NA,NA
08401,Atlantic County,NJ,NA,5.555555555555555,NA
08402,Atlantic County,NJ,59.95694294940797,NA,NA
08527,Ocean County,NJ,15.034086831718692,NA,NA
08535,Monmouth County,NJ,98.17007534983854,NA,NA
08611,Mercer County,NJ,NA,16.19047619047619,NA
08619,Mercer County,NJ,NA,65.07936507936508,NA
08629,Mercer County,NJ,68.2454251883746,NA,NA
08638,Mercer County,NJ,94.97667743092931,NA,NA
08701,Ocean County,NJ,36.02439899533549,NA,NA
08723,Ocean County,NJ,NA,45.87301587301587,NA
08724,Ocean County,NJ,94.86903480444923,NA,NA
08731,Ocean County,NJ,91.10154287764621,54.12698412698413,NA
08742,Ocean County,NJ,27.30534625044851,NA,NA
08751,Ocean County,NJ,99.64119124506638,NA,NA
08755,Ocean County,NJ,8.503767491926803,NA,NA
08758,Ocean County,NJ,95.01255830642268,NA,NA
08809,Hunterdon County,NJ,93.18263365626122,NA,NA
08826,Hunterdon County,NJ,94.22317904556871,NA,NA
08830,Middlesex County,NJ,64.26264800861141,NA,NA
08831,Middlesex County,NJ,21.385001794043777,NA,NA
08846,Middlesex County,NJ,NA,89.36507936507937,NA
08852,Middlesex County,NJ,57.87585217079296,NA,NA
08859,Middlesex County,NJ,78.04090419806244,NA,NA
08861,Middlesex County,NJ,15.213491209185504,11.587301587301587,NA
08865,Warren County,NJ,3.623968424829566,NA,NA
08873,Somerset County,NJ,10.979547900968784,NA,NA
08901,Middlesex County,NJ,11.589522784355937,NA,NA
87020,Cibola County,NM,72.01291711517761,NA,NA
87026,Valencia County,NM,91.10154287764621,NA,NA
87031,Valencia County,NM,21.13383566559024,NA,NA
87108,Bernalillo County,NM,30.211697165410833,NA,NA
87111,Bernalillo County,NM,34.1227125941873,NA,NA
87114,Bernalillo County,NM,30.211697165410833,NA,NA
87120,Bernalillo County,NM,8.7908144958737,NA,NA
87121,Bernalillo County,NM,58.30642267671331,NA,NA
87124,Sandoval County,NM,44.456404736275566,NA,47.593582887700535
87301,McKinley County,NM,18.012199497667744,NA,NA
87325,McKinley County,NM,NA,NA,98.3957219251337
87410,San Juan County,NM,87.69285970577681,NA,NA
87505,Santa Fe County,NM,11.302475780409042,NA,NA
87507,Santa Fe County,NM,83.56655902404019,NA,NA
87532,Santa Fe County,NM,33.118048080373164,NA,NA
87701,San Miguel County,NM,49.04915679942591,NA,NA
88001,Doa Ana County,NM,6.243272335844995,NA,NA
88005,Doa Ana County,NM,54.14424111948332,NA,NA
88081,Otero County,NM,80.3372802296376,NA,NA
88130,Roosevelt County,NM,88.087549336203807,NA,NA
88203,Chaves County,NM,67.9583781844277,NA,NA
88210,Eddy County,NM,47.613921779691424,87.61904761904762,NA
88220,Eddy County,NM,17.294581987800502,27.3015873015873,NA
88230,Chaves County,NM,96.19662719770362,NA,NA
88231,Lea County,NM,90.49156799425906,NA,NA
88260,Lea County,NM,35.48618586293505,NA,NA
10002,New York County,NY,37.56727664155005,NA,NA
10009,New York County,NY,24.61428058844636,NA,NA
10011,New York County,NY,NA,NA,48.663101604278076
10024,New York County,NY,47.255113024757804,NA,NA
10026,New York County,NY,22.856117689271617,NA,NA
10029,New York County,NY,3.229278794402583,NA,NA
10032,New York County,NY,58.52170792967348,NA,NA
10033,New York County,NY,NA,10.793650793650794,NA
10034,New York County,NY,48.65446716899892,NA,NA
10035,New York County,NY,10.477215644061715,NA,NA
10037,New York County,NY,58.16289917473987,NA,NA
10303,Richmond County,NY,72.69465374955149,28.57142857142857,NA
10304,Richmond County,NY,NA,9.841269841269842,NA
10309,Richmond County,NY,88.23107283817725,NA,NA
10312,Richmond County,NY,67.491926803014,NA,NA
10314,Richmond County,NY,45.13814137064944,NA,NA
10452,Bronx County,NY,42.698241837100824,NA,NA
10453,Bronx County,NY,12.091855041263006,NA,NA
10454,Bronx County,NY,23.21492644420524,NA,NA
10456,Bronx County,NY,8.144958736993182,0,NA
10458,Bronx County,NY,35.27090060997488,NA,NA
10459,Bronx County,NY,36.56261212773592,3.015873015873016,NA
10460,Bronx County,NY,75.09867240760674,NA,NA
10462,Bronx County,NY,60.35163257983495,NA,NA
10466,Bronx County,NY,5.705059203444564,1.2698412698412698,NA
10467,Bronx County,NY,0.2152852529601722,12.53968253968254,NA
10468,Bronx County,NY,13.419447434517402,NA,NA
10472,Bronx County,NY,7.965554359526372,1.4285714285714286,NA
10473,Bronx County,NY,1.1840688912809472,3.1746031746031744,NA
10474,Bronx County,NY,48.33153928955867,NA,NA
10514,Westchester County,NY,84.67886616433441,NA,NA
10567,Westchester County,NY,86.04233943308218,NA,NA
10701,Westchester County,NY,29.494079655543597,1.5873015873015872,NA
10705,Westchester County,NY,18.729817007534987,NA,11.229946524064172
10940,Orange County,NY,NA,23.65079365079365,NA
10952,Rockland County,NY,72.4076067456046,NA,NA
10977,Rockland County,NY,19.268030139935412,NA,NA
11001,Nassau County,NY,98.9594546106925,NA,NA
11096,Nassau County,NY,NA,85.55555555555556,NA
11101,Queens County,NY,55.29242913527091,NA,NA
11102,Queens County,NY,39.325439540724794,NA,NA
11206,Kings County,NY,70.68532472192321,1.1111111111111112,NA
11207,Kings County,NY,0.2511661284535343,NA,NA
11211,Kings County,NY,NA,4.761904761904762,NA
11212,Kings County,NY,8.575529242913527,NA,1.6042780748663104
11220,Kings County,NY,16.50520272694654,NA,NA
11221,Kings County,NY,48.008611410118405,NA,NA
11223,Kings County,NY,45.06637961966272,NA,NA
11225,Kings County,NY,20.057409400789382,NA,NA
11226,Kings County,NY,17.43810548977395,NA,NA
11232,Kings County,NY,11.015428776462146,NA,NA
11237,Kings County,NY,6.709723717258701,NA,NA
11238,Kings County,NY,28.525296017222818,44.44444444444444,NA
11357,Queens County,NY,NA,70,NA
11364,Queens County,NY,70.50592034445641,NA,NA
11368,Queens County,NY,26.838894869034803,0.6349206349206349,NA
11370,Queens County,NY,93.90025116612846,NA,NA
11372,Queens County,NY,NA,30.793650793650794,NA
11373,Queens County,NY,36.06027987082885,3.3333333333333335,NA
11375,Queens County,NY,65.66200215285252,NA,NA
11385,Queens County,NY,63.18622174381054,NA,NA
11416,Queens County,NY,56.907068532472195,NA,NA
11418,Queens County,NY,80.83961248654468,NA,NA
11419,Queens County,NY,NA,49.2063492063492,NA
11421,Queens County,NY,NA,9.365079365079366,NA
11428,Queens County,NY,95.19196268388949,NA,NA
11432,Queens County,NY,48.83387154646574,NA,NA
11434,Queens County,NY,14.208826695371368,5.873015873015873,NA
11510,Nassau County,NY,59.167563688554004,79.36507936507937,NA
11520,Nassau County,NY,69.39361320416218,NA,NA
11550,Nassau County,NY,13.885898815931109,15.555555555555555,15.508021390374333
11566,Nassau County,NY,85.79117330462863,NA,NA
11572,Nassau County,NY,92.32149264442052,NA,NA
11580,Nassau County,NY,62.32508073196986,NA,NA
11581,Nassau County,NY,99.35414424111949,NA,NA
11691,Queens County,NY,NA,3.8095238095238098,NA
11692,Queens County,NY,56.69178327951202,NA,NA
11717,Suffolk County,NY,11.733046286329387,NA,NA
11722,Suffolk County,NY,50.34086831718694,17.77777777777778,NA
11726,Suffolk County,NY,96.41191245066379,NA,NA
11738,Suffolk County,NY,95.55077143882312,NA,NA
11746,Suffolk County,NY,74.3092931467528,NA,NA
11756,Nassau County,NY,97.73950484391818,NA,NA
11772,Suffolk County,NY,87.22640832436312,NA,NA
11967,Suffolk County,NY,47.613921779691424,NA,NA
12010,Montgomery County,NY,6.494438464298528,NA,NA
12020,Saratoga County,NY,22.497308934337997,NA,NA
12025,Fulton County,NY,85.14531754574811,NA,NA
12077,Albany County,NY,98.70828848223897,NA,NA
12078,Fulton County,NY,NA,19.523809523809526,NA
12118,Saratoga County,NY,60.028704700394684,88.09523809523809,NA
12180,Rensselaer County,NY,3.588087549336204,NA,NA
12202,Albany County,NY,61.21277359167564,NA,NA
12205,Albany County,NY,36.59849300322928,NA,NA
12206,Albany County,NY,26.76713311804808,NA,NA
12210,Albany County,NY,43.6670254754216,NA,NA
12211,Albany County,NY,84.35593828489415,NA,NA
12302,Schenectady County,NY,43.164693218514536,NA,NA
12304,Schenectady County,NY,66.98959454610693,NA,NA
12477,Ulster County,NY,86.40114818801578,NA,NA
12534,Columbia County,NY,26.94653749551489,32.38095238095238,NA
12542,Ulster County,NY,96.01722282023681,NA,NA
12601,Dutchess County,NY,57.445281664872624,NA,NA
12804,Warren County,NY,NA,NA,39.57219251336899
12870,Essex County,NY,99.17473986365268,NA,NA
12901,Clinton County,NY,NA,NA,4.81283422459893
13021,Cayuga County,NY,34.80444922856118,NA,NA
13027,Onondaga County,NY,64.0832436311446,NA,NA
13029,Onondaga County,NY,49.30032292787944,NA,NA
13031,Onondaga County,NY,68.03013993541443,NA,NA
13032,Madison County,NY,61.14101184068891,NA,NA
13044,Oswego County,NY,99.56942949407966,NA,NA
13053,Tompkins County,NY,NA,NA,83.9572192513369
13082,Madison County,NY,97.09364908503767,NA,NA
13104,Onondaga County,NY,42.698241837100824,NA,NA
13148,Seneca County,NY,40.5453893074991,NA,NA
13206,Onondaga County,NY,NA,57.3015873015873,NA
13208,Onondaga County,NY,16.86401148188016,NA,NA
13211,Onondaga County,NY,84.67886616433441,NA,NA
13365,Herkimer County,NY,25.65482597775386,NA,NA
13413,Oneida County,NY,42.23179045568712,NA,NA
13440,Oneida County,NY,4.808037316110513,NA,NA
13460,Chenango County,NY,58.77287405812702,NA,NA
13492,Oneida County,NY,44.061715105848585,NA,NA
13601,Jefferson County,NY,4.915679942590599,NA,NA
13619,Jefferson County,NY,9.257265877287406,NA,NA
13660,St. Lawrence County,NY,96.84248295658413,NA,NA
13753,Delaware County,NY,NA,90,NA
13760,Broome County,NY,47.32687477574453,NA,NA
13790,Broome County,NY,37.96196627197704,NA,NA
13815,Chenango County,NY,48.51094366702547,NA,NA
13820,Otsego County,NY,NA,NA,12.834224598930483
13849,Otsego County,NY,75.1345532831001,NA,NA
13850,Broome County,NY,44.635809113742376,35.3968253968254,NA
13856,Delaware County,NY,34.08683171869394,NA,NA
13901,Broome County,NY,10.010764262648008,NA,NA
14004,Erie County,NY,84.67886616433441,NA,NA
14006,Erie County,NY,75.67276641550053,NA,NA
14051,Erie County,NY,51.1302475780409,NA,NA
14057,Erie County,NY,64.8367420165052,NA,NA
14072,Erie County,NY,36.23968424829565,NA,NA
14075,Erie County,NY,82.84894151417295,NA,NA
14085,Erie County,NY,84.35593828489415,NA,NA
14094,Niagara County,NY,62.970936490850384,NA,NA
14120,Niagara County,NY,2.978112665949049,NA,NA
14150,Erie County,NY,11.589522784355937,NA,NA
14171,Cattaraugus County,NY,99.06709723717259,NA,NA
14174,Niagara County,NY,69.4653749551489,NA,NA
14201,Erie County,NY,73.66343738787226,NA,NA
14208,Erie County,NY,59.41872981700753,NA,NA
14210,Erie County,NY,16.86401148188016,NA,NA
14212,Erie County,NY,86.18586293505561,NA,NA
14213,Erie County,NY,10.154287764621458,NA,NA
14215,Erie County,NY,NA,49.2063492063492,NA
14216,Erie County,NY,51.91962683889487,77.93650793650794,NA
14217,Erie County,NY,42.44707570864729,NA,NA
14220,Erie County,NY,22.640832436311445,NA,NA
14221,Erie County,NY,55.47183351273771,NA,NA
14224,Erie County,NY,16.110513096519554,NA,NA
14225,Erie County,NY,70.11123071402943,NA,NA
14226,Erie County,NY,37.997847147470395,NA,NA
14227,Erie County,NY,55.50771438823108,NA,NA
14304,Niagara County,NY,12.665949049156799,NA,NA
14305,Niagara County,NY,59.66989594546107,NA,NA
14411,Orleans County,NY,31.144599928238247,NA,NA
14414,Livingston County,NY,41.550053821313234,NA,NA
14420,Monroe County,NY,10.118406889128096,NA,NA
14424,Ontario County,NY,5.81270182992465,NA,NA
14450,Monroe County,NY,0.32292787944025836,NA,NA
14456,Ontario County,NY,16.72048797990671,NA,NA
14467,Monroe County,NY,44.241119483315394,NA,NA
14468,Monroe County,NY,39.61248654467169,NA,NA
14469,Ontario County,NY,NA,NA,53.475935828877006
14477,Orleans County,NY,99.5335486185863,NA,NA
14482,Genesee County,NY,77.96914244707571,NA,NA
14489,Wayne County,NY,45.03049874416936,NA,NA
14512,Ontario County,NY,61.750986724076064,NA,NA
14526,Monroe County,NY,45.60459275206315,NA,NA
14534,Monroe County,NY,13.598851811984211,NA,NA
14559,Monroe County,NY,7.57086472909939,NA,NA
14580,Monroe County,NY,3.552206673842842,NA,NA
14586,Monroe County,NY,50.55615357014711,NA,NA
14610,Monroe County,NY,35.773232866881955,NA,NA
14611,Monroe County,NY,3.7316110513096516,NA,NA
14615,Monroe County,NY,43.63114459992824,NA,NA
14616,Monroe County,NY,NA,33.49206349206349,NA
14618,Monroe County,NY,59.705776820954426,NA,NA
14619,Monroe County,NY,32.687477574452814,39.682539682539684,NA
14621,Monroe County,NY,1.112307140294223,NA,6.417112299465241
14623,Monroe County,NY,45.89163975601004,NA,NA
14624,Monroe County,NY,39.7918909221385,NA,NA
14626,Monroe County,NY,3.0857552924291354,NA,NA
14701,Chautauqua County,NY,2.2604951560818085,NA,NA
14706,Cattaraugus County,NY,64.26264800861141,NA,NA
14733,Chautauqua County,NY,97.918909221385,NA,NA
14760,Cattaraugus County,NY,50.05382131324004,NA,NA
14787,Chautauqua County,NY,84.10477215644062,NA,NA
14812,Schuyler County,NY,96.01722282023681,NA,NA
14813,Allegany County,NY,76.1750986724076,NA,NA
14850,Tompkins County,NY,45.10226049515608,NA,NA
14858,Steuben County,NY,96.1248654467169,NA,NA
14870,Steuben County,NY,63.22210261930391,NA,NA
14879,Steuben County,NY,90.49156799425906,NA,NA
14901,Chemung County,NY,NA,NA,36.898395721925134
27025,Rockingham County,NC,54.216002870470035,NA,NA
27030,Surry County,NC,16.289917473986364,NA,NA
27048,Rockingham County,NC,45.389307499102976,NA,NA
27105,Forsyth County,NC,NA,6.984126984126984,NA
27106,Forsyth County,NC,7.534983853606028,NA,NA
27107,Forsyth County,NC,55.22066738428417,17.46031746031746,5.347593582887701
27127,Forsyth County,NC,0.9329027628274129,NA,NA
27203,Randolph County,NC,71.8335127377108,NA,NA
27209,Montgomery County,NC,90.49156799425906,NA,NA
27215,Alamance County,NC,9.580193756727665,NA,NA
27239,Davidson County,NC,58.09113742375314,NA,NA
27262,Guilford County,NC,24.61428058844636,NA,NA
27284,Forsyth County,NC,NA,68.57142857142857,NA
27288,Rockingham County,NC,71.259418729817,NA,NA
27292,Davidson County,NC,5.166846071044134,NA,NA
27295,Davidson County,NC,2.834589163975601,NA,NA
27299,Davidson County,NC,48.080373161105136,68.57142857142857,NA
27306,Montgomery County,NC,NA,85.55555555555556,NA
27317,Randolph County,NC,95.33548618586293,NA,NA
27341,Randolph County,NC,79.72730534625045,NA,NA
27360,Davidson County,NC,18.191603875134554,NA,NA
27370,Randolph County,NC,87.47757445281665,NA,NA
27371,Montgomery County,NC,92.32149264442052,NA,NA
27401,Guilford County,NC,29.42231790455687,NA,NA
27405,Guilford County,NC,NA,13.80952380952381,NA
27410,Guilford County,NC,NA,65.87301587301587,NA
27502,Wake County,NC,NA,85.55555555555556,NA
27510,Orange County,NC,81.23430211697166,NA,NA
27514,Orange County,NC,43.164693218514536,NA,NA
27518,Wake County,NC,NA,NA,93.04812834224599
27519,Wake County,NC,60.92572658772875,NA,NA
27520,Johnston County,NC,15.931108719052745,52.6984126984127,NA
27524,Johnston County,NC,NA,60.15873015873016,NA
27529,Wake County,NC,15.249372084678866,NA,NA
27530,Wayne County,NC,17.689271618227483,NA,NA
27537,Vance County,NC,NA,29.523809523809526,NA
27540,Wake County,NC,21.95909580193757,NA,NA
27545,Wake County,NC,79.54790096878364,NA,NA
27557,Nash County,NC,79.2967348403301,NA,NA
27565,Granville County,NC,86.32938643702907,NA,NA
27569,Johnston County,NC,79.04556871187657,NA,NA
27576,Johnston County,NC,40.00717617509867,NA,NA
27577,Johnston County,NC,NA,NA,56.14973262032086
27591,Wake County,NC,81.41370649443846,NA,NA
27604,Wake County,NC,24.61428058844636,NA,NA
27610,Wake County,NC,25.511302475780408,NA,9.62566844919786
27615,Wake County,NC,77.6820954431288,NA,NA
27616,Wake County,NC,NA,NA,25.13368983957219
27701,Durham County,NC,58.30642267671331,48.25396825396825,NA
27707,Durham County,NC,NA,31.9047619047619,NA
27803,Nash County,NC,49.83853606027987,NA,NA
27807,Nash County,NC,79.04556871187657,NA,NA
27834,Pitt County,NC,2.5116612845353425,8.412698412698413,NA
27889,Beaufort County,NC,NA,40.476190476190474,NA
27893,Wilson County,NC,14.60351632579835,NA,NA
27896,Wilson County,NC,84.35593828489415,NA,NA
27948,Dare County,NC,77.89738069608899,NA,NA
27949,Dare County,NC,92.60853964836741,NA,NA
28012,Gaston County,NC,NA,NA,71.65775401069519
28021,Gaston County,NC,91.60387513455328,NA,NA
28027,Cabarrus County,NC,59.02404018658055,NA,NA
28037,Lincoln County,NC,85.14531754574811,NA,NA
28043,Rutherford County,NC,NA,40.63492063492063,NA
28052,Gaston County,NC,10.261930391101542,NA,NA
28054,Gaston County,NC,48.04449228561177,42.06349206349206,NA
28080,Lincoln County,NC,85.14531754574811,NA,NA
28083,Cabarrus County,NC,NA,47.460317460317455,NA
28092,Lincoln County,NC,47.255113024757804,NA,NA
28105,Mecklenburg County,NC,NA,NA,68.44919786096256
28110,Union County,NC,17.5816289917474,NA,NA
28134,Mecklenburg County,NC,72.19232149264442,NA,NA
28147,Rowan County,NC,50.3767491926803,NA,NA
28150,Cleveland County,NC,48.33153928955867,NA,NA
28166,Iredell County,NC,80.51668460710442,NA,NA
28173,Union County,NC,54.50304987441693,NA,NA
28205,Mecklenburg County,NC,48.25977753857194,NA,NA
28206,Mecklenburg County,NC,28.812343021169717,NA,NA
28208,Mecklenburg County,NC,54.467168998923576,NA,NA
28211,Mecklenburg County,NC,30.211697165410833,NA,NA
28216,Mecklenburg County,NC,4.556871187656979,NA,NA
28217,Mecklenburg County,NC,NA,50.15873015873016,NA
28262,Mecklenburg County,NC,21.13383566559024,NA,NA
28269,Mecklenburg County,NC,6.243272335844995,NA,NA
28270,Mecklenburg County,NC,57.301758162899176,NA,NA
28301,Cumberland County,NC,25.977753857194113,NA,NA
28304,Cumberland County,NC,18.012199497667744,NA,NA
28306,Bladen County,NC,17.151058485827054,NA,NA
28311,Cumberland County,NC,41.550053821313234,NA,NA
28312,Cumberland County,NC,NA,NA,72.19251336898395
28328,Sampson County,NC,18.729817007534987,NA,NA
28333,Wayne County,NC,84.35593828489415,NA,NA
28337,Bladen County,NC,80.69608898457122,NA,NA
28358,Robeson County,NC,62.540365984930034,NA,NA
28365,Wayne County,NC,53.821313240043054,NA,NA
28376,Hoke County,NC,16.397560100466453,NA,NA
28379,Richmond County,NC,NA,43.96825396825397,17.11229946524064
28411,New Hanover County,NC,NA,62.53968253968254,NA
28412,New Hanover County,NC,84.53534266236096,NA,NA
28431,Columbus County,NC,44.95873699318263,NA,NA
28451,Brunswick County,NC,20.057409400789382,NA,NA
28461,Brunswick County,NC,82.9924650161464,NA,NA
28469,Brunswick County,NC,96.51955507714388,NA,NA
28470,Brunswick County,NC,70.36239684248295,NA,NA
28501,Lenoir County,NC,38.82310728381773,NA,NA
28518,Duplin County,NC,77.53857194115537,NA,NA
28539,Onslow County,NC,NA,91.11111111111111,NA
28540,Onslow County,NC,NA,43.333333333333336,NA
28560,Craven County,NC,NA,37.77777777777778,NA
28584,Carteret County,NC,78.72264083243631,NA,NA
28585,Jones County,NC,NA,95.23809523809523,NA
28594,Carteret County,NC,81.23430211697166,NA,NA
28601,Catawba County,NC,16.648726228919987,NA,NA
28604,Watauga County,NC,99.46178686759957,NA,NA
28613,Catawba County,NC,61.93039110154288,NA,NA
28630,Caldwell County,NC,83.4589163975601,NA,NA
28645,Caldwell County,NC,34.8762109795479,NA,NA
28659,Wilkes County,NC,89.23573735199139,NA,NA
28677,Iredell County,NC,64.58557588805166,53.65079365079365,NA
28678,Alexander County,NC,92.60853964836741,NA,NA
28721,Haywood County,NC,61.5357014711159,NA,NA
28734,Macon County,NC,NA,NA,17.647058823529413
28752,McDowell County,NC,18.98098313598852,NA,NA
28761,McDowell County,NC,58.30642267671331,NA,NA
28785,Haywood County,NC,NA,90,NA
28792,Henderson County,NC,11.589522784355937,NA,NA
28806,Buncombe County,NC,43.98995335486186,NA,NA
28906,Cherokee County,NC,81.80839612486544,NA,NA
58075,Richland County,ND,71.08001435235019,NA,NA
58078,Cass County,ND,5.09508432005741,NA,NA
58103,Cass County,ND,0.6817366343738788,NA,NA
58104,Cass County,ND,4.233943308216721,NA,NA
58401,Stutsman County,ND,NA,45.23809523809524,NA
58501,Burleigh County,ND,27.700035880875497,NA,NA
58504,Burleigh County,ND,39.325439540724794,NA,NA
58801,Williams County,ND,7.319698600645856,NA,NA
43004,Franklin County,OH,12.881234302116972,NA,NA
43015,Delaware County,OH,52.1707929673484,NA,NA
43016,Franklin County,OH,22.030857552924292,NA,NA
43017,Franklin County,OH,51.23789020452099,NA,NA
43026,Franklin County,OH,6.458557588805166,NA,NA
43028,Knox County,OH,79.2967348403301,NA,NA
43040,Union County,OH,26.94653749551489,NA,NA
43055,Licking County,OH,1.901686401148188,NA,NA
43062,Licking County,OH,45.13814137064944,NA,NA
43065,Delaware County,OH,23.143164693218516,NA,NA
43068,Franklin County,OH,NA,6.666666666666667,NA
43072,Champaign County,OH,76.1750986724076,NA,NA
43123,Franklin County,OH,40.509508432005745,NA,NA
43207,Franklin County,OH,4.628632938643703,NA,NA
43209,Franklin County,OH,25.798349479727307,NA,NA
43211,Franklin County,OH,59.05992106207392,NA,NA
43214,Franklin County,OH,21.456763545030498,NA,NA
43221,Franklin County,OH,70.72120559741658,NA,NA
43223,Franklin County,OH,NA,NA,7.4866310160427805
43224,Franklin County,OH,5.99210620739146,NA,NA
43228,Franklin County,OH,NA,2.2222222222222223,NA
43229,Franklin County,OH,0.8611410118406888,NA,NA
43231,Franklin County,OH,34.983853606027985,NA,NA
43302,Marion County,OH,15.357014711158953,5.714285714285714,NA
43326,Hardin County,OH,70.72120559741658,NA,NA
43351,Wyandot County,OH,NA,NA,52.94117647058824
43465,Wood County,OH,90.06099748833871,92.6984126984127,NA
43515,Fulton County,OH,70.72120559741658,NA,NA
43545,Henry County,OH,61.750986724076064,NA,NA
43566,Lucas County,OH,78.50735557947614,NA,NA
43570,Williams County,OH,92.32149264442052,NA,NA
43604,Lucas County,OH,87.3340509508432,NA,NA
43605,Lucas County,OH,6.7814854682454255,NA,NA
43606,Lucas County,OH,7.3555794761392175,NA,NA
43607,Lucas County,OH,4.843918191603875,NA,NA
43608,Lucas County,OH,2.224614280588446,NA,NA
43609,Lucas County,OH,NA,14.920634920634921,NA
43614,Lucas County,OH,16.110513096519554,NA,NA
43615,Lucas County,OH,2.4398995335486187,NA,NA
43623,Lucas County,OH,57.086472909939005,NA,NA
43701,Muskingum County,OH,19.01686401148188,NA,NA
43812,Coshocton County,OH,31.539289558665228,NA,NA
43821,Muskingum County,OH,NA,52.6984126984127,NA
43830,Muskingum County,OH,NA,78.73015873015873,NA
43845,Coshocton County,OH,77.07212055974165,NA,NA
43907,Harrison County,OH,NA,56.666666666666664,NA
43920,Columbiana County,OH,5.561535701471116,NA,NA
43947,Belmont County,OH,74.84750627915321,NA,NA
44004,Ashtabula County,OH,5.525654825977753,NA,NA
44024,Geauga County,OH,28.991747398636527,NA,NA
44035,Lorain County,OH,NA,2.5396825396825395,NA
44055,Lorain County,OH,0.8611410118406888,NA,NA
44070,Cuyahoga County,OH,5.920344456404736,NA,NA
44090,Lorain County,OH,NA,NA,67.9144385026738
44095,Lake County,OH,3.4445640473627552,13.333333333333334,NA
44102,Cuyahoga County,OH,0,NA,NA
44103,Cuyahoga County,OH,14.747039827771799,76.19047619047619,NA
44105,Cuyahoga County,OH,1.8658055256548258,NA,NA
44108,Cuyahoga County,OH,3.803372802296376,NA,NA
44109,Cuyahoga County,OH,0.1794043774668102,NA,NA
44113,Cuyahoga County,OH,20.990312163616792,NA,NA
44115,Cuyahoga County,OH,69.10656620021528,NA,NA
44118,Cuyahoga County,OH,44.241119483315394,43.01587301587302,14.973262032085561
44119,Cuyahoga County,OH,79.2967348403301,NA,NA
44121,Cuyahoga County,OH,NA,16.507936507936506,NA
44122,Cuyahoga County,OH,46.60925726587728,NA,NA
44124,Cuyahoga County,OH,10.333692142088267,NA,NA
44125,Cuyahoga County,OH,33.94330821672049,NA,NA
44135,Cuyahoga County,OH,NA,2.6984126984126986,NA
44136,Cuyahoga County,OH,44.49228561176893,NA,32.085561497326204
44139,Cuyahoga County,OH,NA,NA,79.67914438502673
44140,Cuyahoga County,OH,42.913527090060995,NA,NA
44223,Summit County,OH,10.584858270541801,NA,NA
44266,Portage County,OH,7.427341227125941,NA,NA
44270,Wayne County,OH,30.67814854682454,NA,NA
44286,Summit County,OH,97.30893433799784,NA,NA
44305,Summit County,OH,49.01327592393254,10,NA
44306,Summit County,OH,2.726946537495515,6.349206349206349,NA
44307,Summit County,OH,82.81306063867959,NA,NA
44310,Summit County,OH,13.778256189451021,NA,NA
44312,Summit County,OH,22.030857552924292,NA,NA
44319,Summit County,OH,30.211697165410833,NA,NA
44406,Mahoning County,OH,11.445999282382491,NA,NA
44430,Trumbull County,OH,NA,73.4920634920635,NA
44446,Trumbull County,OH,NA,NA,16.577540106951872
44484,Trumbull County,OH,NA,NA,33.155080213903744
44485,Trumbull County,OH,5.238607822030858,NA,NA
44505,Mahoning County,OH,8.8984571223537845,NA,NA
44509,Mahoning County,OH,22.38966630785791,NA,NA
44512,Mahoning County,OH,25.439540724793687,NA,NA
44515,Mahoning County,OH,12.594187298170075,NA,NA
44601,Stark County,OH,NA,NA,9.090909090909092
44626,Stark County,OH,90.49156799425906,NA,NA
44677,Wayne County,OH,99.31826336562612,NA,NA
44683,Tuscarawas County,OH,NA,NA,28.87700534759358
44691,Wayne County,OH,12.917115177610333,NA,NA
44703,Stark County,OH,NA,37.46031746031746,NA
44705,Stark County,OH,26.480086114101187,NA,NA
44720,Stark County,OH,41.04772156440617,NA,NA
44811,Sandusky County,OH,39.325439540724794,NA,NA
44817,Wood County,OH,96.950125583064235,NA,NA
44820,Crawford County,OH,19.483315392895587,NA,NA
44849,Wyandot County,OH,87.69285970577681,NA,NA
44857,Huron County,OH,36.06027987082885,NA,NA
44870,Erie County,OH,17.509867240760673,7.777777777777778,NA
44875,Richland County,OH,NA,NA,51.33689839572193
44883,Seneca County,OH,13.347685683530678,NA,NA
44890,Huron County,OH,24.937208467886617,NA,NA
44903,Richland County,OH,15.85934696806602,NA,NA
44906,Richland County,OH,6.566200215285253,NA,NA
45011,Butler County,OH,4.485109436670254,9.047619047619047,NA
45013,Butler County,OH,NA,38.57142857142858,NA
45040,Warren County,OH,4.413347685683531,NA,NA
45044,Butler County,OH,0.3946896304269824,NA,NA
45066,Warren County,OH,23.39433082167205,NA,NA
45067,Butler County,OH,28.991747398636527,NA,NA
45069,Butler County,OH,23.717258701112307,NA,NA
45102,Clermont County,OH,21.600287047003945,NA,NA
45103,Clermont County,OH,44.95873699318263,10.317460317460316,NA
45140,Clermont County,OH,23.430211697165408,NA,NA
45150,Clermont County,OH,24.219590958019378,NA,NA
45152,Warren County,OH,70.72120559741658,NA,NA
45177,Clinton County,OH,25.152493720846792,NA,NA
45202,Hamilton County,OH,NA,36.34920634920635,NA
45205,Hamilton County,OH,8.683171869393613,NA,NA
45211,Hamilton County,OH,7.247936849659132,NA,NA
45215,Hamilton County,OH,36.99318263365626,NA,NA
45240,Hamilton County,OH,NA,10.476190476190476,NA
45241,Hamilton County,OH,40.00717617509867,NA,NA
45246,Hamilton County,OH,86.40114818801578,NA,NA
45248,Hamilton County,OH,32.18514531754575,NA,NA
45309,Montgomery County,OH,41.94474345174022,NA,NA
45342,Montgomery County,OH,3.4445640473627552,NA,NA
45356,Miami County,OH,40.25834230355221,NA,NA
45371,Miami County,OH,71.40294223179046,NA,NA
45373,Miami County,OH,2.942231790455687,NA,NA
45377,Montgomery County,OH,NA,65.87301587301587,NA
45405,Montgomery County,OH,11.302475780409042,NA,NA
45410,Montgomery County,OH,60.13634732687477,NA,NA
45414,Montgomery County,OH,13.491209185504127,NA,NA
45417,Montgomery County,OH,33.90742734122713,NA,NA
45424,Montgomery County,OH,16.61284535342662,13.492063492063492,NA
45458,Montgomery County,OH,55.25654825977754,NA,NA
45459,Montgomery County,OH,62.18155722999641,NA,NA
45502,Clark County,OH,51.45317545748116,NA,NA
45505,Clark County,OH,64.51381413706494,NA,NA
45601,Ross County,OH,16.469321851453174,NA,1.06951871657754
45619,Lawrence County,OH,NA,63.650793650793645,NA
45629,Scioto County,OH,NA,NA,86.63101604278076
45640,Jackson County,OH,30.67814854682454,NA,NA
45662,Scioto County,OH,1.0046645138141372,NA,NA
45669,Lawrence County,OH,51.20200932902763,NA,NA
45690,Pike County,OH,53.821313240043054,NA,NA
45694,Scioto County,OH,26.76713311804808,NA,NA
45701,Athens County,OH,69.7524219590958,NA,NA
45750,Washington County,OH,17.007534983853606,NA,NA
45764,Athens County,OH,86.04233943308218,NA,NA
45804,Allen County,OH,NA,NA,88.23529411764706
45817,Allen County,OH,NA,NA,91.44385026737967
45822,Mercer County,OH,20.775026910656617,NA,NA
45840,Hancock County,OH,9.041980624327234,NA,NA
73003,Oklahoma County,OK,49.51560818083961,NA,NA
73008,Oklahoma County,OK,8.144958736993182,NA,NA
73044,Logan County,OK,NA,48.57142857142857,NA
73068,Cleveland County,OK,60.13634732687477,NA,NA
73071,Cleveland County,OK,22.030857552924292,NA,NA
73072,Cleveland County,OK,27.16182274847506,NA,NA
73086,Murray County,OK,70.11123071402943,NA,NA
73099,Canadian County,OK,9.723717258701111,NA,NA
73108,Oklahoma County,OK,NA,55.55555555555556,NA
73110,Oklahoma County,OK,16.289917473986364,31.428571428571427,NA
73112,Oklahoma County,OK,43.092931467527805,NA,NA
73114,Oklahoma County,OK,52.960172228202374,NA,NA
73120,Oklahoma County,OK,29.709364908503765,71.9047619047619,NA
73127,Oklahoma County,OK,30.426982418371008,NA,NA
73135,Oklahoma County,OK,28.525296017222818,NA,NA
73170,Cleveland County,OK,52.960172228202374,NA,NA
73401,Carter County,OK,17.761033369214207,NA,NA
73460,Johnston County,OK,83.20775026910655,NA,NA
73507,Comanche County,OK,7.606745604592752,NA,NA
73527,Comanche County,OK,97.30893433799784,NA,NA
73529,Stephens County,OK,NA,80.31746031746032,NA
73533,Stephens County,OK,65.23143164693218,NA,NA
73701,Garfield County,OK,39.325439540724794,NA,NA
74006,Washington County,OK,57.80409041980624,NA,NA
74012,Tulsa County,OK,8.2884822389666315,NA,NA
74014,Wagoner County,OK,21.277359167563688,NA,NA
74029,Washington County,OK,NA,96.98412698412699,NA
74044,Creek County,OK,88.76928597057768,NA,NA
74063,Tulsa County,OK,25.152493720846792,NA,NA
74105,Tulsa County,OK,57.086472909939005,NA,NA
74112,Tulsa County,OK,NA,72.6984126984127,NA
74126,Tulsa County,OK,86.40114818801578,NA,NA
74133,Tulsa County,OK,55.005382131324,NA,NA
74134,Tulsa County,OK,63.86795837818443,NA,NA
74135,Tulsa County,OK,56.40473627556513,NA,NA
74145,Tulsa County,OK,32.687477574452814,NA,NA
74146,Tulsa County,OK,NA,55.55555555555556,NA
74339,Ottawa County,OK,97.918909221385,NA,NA
74361,Mayes County,OK,82.49013275923932,NA,NA
74365,Mayes County,OK,89.84571223537854,NA,NA
74429,Wagoner County,OK,NA,85.55555555555556,NA
74441,Cherokee County,OK,87.26228919985648,NA,NA
74501,Pittsburg County,OK,71.22353785432365,23.333333333333332,NA
74604,Kay County,OK,82.05956225331899,NA,NA
74631,Kay County,OK,68.03013993541443,NA,NA
74701,Bryan County,OK,21.49264442052386,NA,NA
74820,Pontotoc County,OK,3.659849300322928,11.904761904761903,NA
74864,Lincoln County,OK,79.72730534625045,NA,NA
74872,Garvin County,OK,93.61320416218156,NA,NA
74873,Pottawatomie County,OK,66.98959454610693,NA,NA
74902,Le Flore County,OK,92.070326515967,NA,NA
97002,Marion County,OR,99.78471474703983,NA,NA
75072,NA,NA,52.27843559382849,NA,NA
97007,Washington County,OR,53.17545748116254,NA,40.64171122994652
97023,Clackamas County,OR,88.76928597057768,NA,NA
97030,Multnomah County,OR,19.19626838894869,NA,NA
97031,Hood River County,OR,38.82310728381773,NA,NA
97035,Clackamas County,OR,78.50735557947614,NA,NA
97051,Columbia County,OR,NA,90,NA
97062,Washington County,OR,24.47075708647291,NA,NA
97080,Multnomah County,OR,56.40473627556513,NA,NA
97086,Clackamas County,OR,67.24076067456046,NA,NA
97123,Washington County,OR,28.453534266236097,26.984126984126984,NA
97128,Yamhill County,OR,NA,29.523809523809526,NA
97138,Clatsop County,OR,95.01255830642268,NA,NA
97140,Washington County,OR,38.67958378184428,NA,NA
97141,Tillamook County,OR,NA,34.92063492063492,NA
97202,Multnomah County,OR,NA,NA,71.12299465240642
97203,Multnomah County,OR,NA,40.63492063492063,NA
97217,Multnomah County,OR,56.01004664513815,NA,NA
97219,Multnomah County,OR,33.65626121277359,NA,NA
97222,Clackamas County,OR,NA,68.41269841269842,NA
97223,Washington County,OR,30.67814854682454,NA,33.68983957219251
97230,Multnomah County,OR,20.057409400789382,NA,NA
97267,Clackamas County,OR,NA,74.60317460317461,NA
97301,Marion County,OR,14.782920703265159,NA,NA
97302,Marion County,OR,56.871187656978826,NA,NA
97303,Marion County,OR,NA,75.07936507936508,NA
97305,Marion County,OR,29.709364908503765,NA,NA
97306,Marion County,OR,71.43882310728382,NA,NA
97322,Linn County,OR,37.35199138858988,NA,NA
97338,Polk County,OR,55.615357014711165,NA,NA
97370,Benton County,OR,98.52888410477215,NA,NA
97402,Lane County,OR,17.868675995694293,66.98412698412697,NA
97439,Lane County,OR,93.0032292787944,NA,NA
97459,Coos County,OR,86.79583781844276,NA,NA
97471,Douglas County,OR,29.709364908503765,NA,NA
97478,Lane County,OR,87.36993182633657,NA,NA
97479,Douglas County,OR,NA,NA,78.07486631016043
97501,Jackson County,OR,NA,35.87301587301587,NA
97502,Jackson County,OR,49.65913168281306,NA,49.73262032085562
97503,Jackson County,OR,93.07499102978113,NA,NA
97524,Jackson County,OR,83.56655902404019,NA,NA
97526,Josephine County,OR,59.99282382490133,NA,NA
97535,Jackson County,OR,NA,80.7936507936508,NA
97601,Klamath County,OR,17.545748116254035,NA,NA
97701,Deschutes County,OR,NA,83.65079365079366,NA
97702,Deschutes County,OR,55.90240401865806,NA,NA
97756,Deschutes County,OR,35.6297093649085,NA,NA
97801,Umatilla County,OR,68.46071044133477,NA,NA
97814,Baker County,OR,NA,90,NA
97838,Umatilla County,OR,15.034086831718692,73.4920634920635,NA
15010,Beaver County,PA,23.501973448152135,47.93650793650794,NA
15024,Allegheny County,PA,78.8302834589164,NA,NA
15037,Allegheny County,PA,NA,81.26984126984127,NA
15057,Washington County,PA,33.512737710800145,NA,NA
15062,Westmoreland County,PA,76.1750986724076,NA,NA
15068,Westmoreland County,PA,36.59849300322928,NA,NA
15071,Allegheny County,PA,45.89163975601004,NA,NA
15074,Beaver County,PA,55.07714388231073,NA,NA
15084,Allegheny County,PA,NA,93.17460317460318,NA
15102,Allegheny County,PA,50.08970218873341,NA,NA
15120,Allegheny County,PA,33.65626121277359,77.93650793650794,NA
15146,Allegheny County,PA,53.24721923214927,NA,NA
15206,Allegheny County,PA,44.061715105848585,NA,NA
15212,Allegheny County,PA,8.970218873340508,NA,NA
15214,Allegheny County,PA,51.45317545748116,NA,NA
15216,Allegheny County,PA,NA,86.66666666666667,NA
15221,Allegheny County,PA,6.494438464298528,NA,NA
15227,Allegheny County,PA,NA,NA,46.524064171122994
15229,Allegheny County,PA,30.67814854682454,NA,NA
15236,Allegheny County,PA,6.566200215285253,NA,NA
15370,Greene County,PA,55.07714388231073,NA,NA
15401,Fayette County,PA,59.88518119842124,NA,NA
15552,Somerset County,PA,98.17007534983854,NA,NA
15642,Westmoreland County,PA,15.572299964119123,NA,NA
15906,Cambria County,PA,NA,62.53968253968254,NA
15963,Somerset County,PA,98.4930032292788,NA,NA
16001,Butler County,PA,NA,79.04761904761905,NA
16057,Butler County,PA,42.44707570864729,NA,NA
16063,Butler County,PA,60.13634732687477,NA,NA
16121,Mercer County,PA,74.59634015069967,NA,NA
16146,Mercer County,PA,91.10154287764621,NA,NA
16201,Armstrong County,PA,52.27843559382849,NA,NA
16254,Clarion County,PA,73.37639038392537,NA,NA
16314,Crawford County,PA,NA,96.98412698412699,NA
16323,Venango County,PA,41.37064944384643,NA,NA
16365,Warren County,PA,NA,84.28571428571429,NA
16502,Erie County,PA,22.282023681377826,NA,NA
16503,Erie County,PA,54.50304987441693,NA,NA
16505,Erie County,PA,54.646573376390386,84.76190476190476,NA
16602,Blair County,PA,NA,54.761904761904766,NA
16662,Blair County,PA,95.6584140653032,NA,NA
16803,Centre County,PA,48.080373161105136,NA,NA
16833,Clearfield County,PA,68.35306781485468,NA,NA
16947,Bradford County,PA,96.37603157517043,NA,NA
17011,Cumberland County,PA,19.052744886975244,NA,NA
17036,Dauphin County,PA,1.973448152134912,NA,NA
17046,Lebanon County,PA,5.27448869752422,NA,NA
17055,Cumberland County,PA,46.5016146393972,NA,NA
17067,Lebanon County,PA,NA,87.77777777777777,NA
17073,Lebanon County,PA,96.80660208109077,NA,NA
17084,Mifflin County,PA,85.50412630068173,NA,NA
17104,Dauphin County,PA,7.893792608539648,NA,NA
17112,Dauphin County,PA,NA,65.87301587301587,18.181818181818183
17315,York County,PA,36.41908862576247,NA,NA
17325,Adams County,PA,23.143164693218516,NA,NA
17331,York County,PA,2.619303911015429,NA,NA
17401,York County,PA,42.44707570864729,NA,NA
17403,York County,PA,6.386795837818443,NA,NA
17404,York County,PA,37.56727664155005,34.76190476190476,NA
17406,York County,PA,32.18514531754575,NA,NA
17512,Lancaster County,PA,NA,67.61904761904762,NA
17516,Lancaster County,PA,77.46681019016864,NA,NA
17538,Lancaster County,PA,78.29207032651597,NA,NA
17554,Lancaster County,PA,69.10656620021528,NA,NA
17584,Lancaster County,PA,94.6178686759957,NA,NA
17601,Lancaster County,PA,25.36777897380696,NA,NA
17603,Lancaster County,PA,34.15859346968066,NA,NA
17702,Lycoming County,PA,87.69285970577681,NA,NA
17752,Lycoming County,PA,NA,98.73015873015873,NA
17801,Northumberland County,PA,17.689271618227483,NA,NA
17857,Northumberland County,PA,NA,77.46031746031747,NA
17901,Schuylkill County,PA,6.637961966271977,NA,NA
17931,Schuylkill County,PA,86.40114818801578,NA,NA
17976,Schuylkill County,PA,91.10154287764621,NA,NA
18015,Northampton County,PA,3.4086831718693937,NA,NA
18042,Northampton County,PA,NA,13.65079365079365,NA
18045,Northampton County,PA,54.86185862935056,NA,NA
18058,Monroe County,PA,92.89558665231432,NA,NA
18062,Lehigh County,PA,8.754933620380337,NA,NA
18067,Northampton County,PA,35.773232866881955,NA,NA
18103,Lehigh County,PA,0.5740940078937926,NA,NA
18202,Luzerne County,PA,94.94079655543595,NA,NA
18224,Luzerne County,PA,93.18263365626122,NA,NA
18235,Carbon County,PA,32.00574094007894,NA,NA
18252,Schuylkill County,PA,56.40473627556513,67.61904761904762,NA
18301,Monroe County,PA,41.76533907427341,NA,NA
18337,Pike County,PA,91.60387513455328,NA,NA
18444,Lackawanna County,PA,74.59634015069967,NA,NA
18505,Lackawanna County,PA,NA,NA,54.01069518716578
18603,Columbia County,PA,86.36526731252242,NA,NA
18640,Luzerne County,PA,25.977753857194113,NA,NA
18801,Susquehanna County,PA,70.11123071402943,NA,NA
18840,Bradford County,PA,72.69465374955149,NA,NA
18951,Bucks County,PA,7.3555794761392175,75.39682539682539,NA
18966,Bucks County,PA,20.27269465374955,NA,NA
18974,Bucks County,PA,33.54861858629351,NA,NA
19008,Delaware County,PA,75.67276641550053,NA,NA
19013,Delaware County,PA,62.14567635450305,NA,NA
19015,Delaware County,PA,39.86365267312522,NA,NA
19032,Delaware County,PA,87.90814495873698,NA,NA
19038,Montgomery County,PA,75.27807678507355,NA,NA
19053,Bucks County,PA,31.43164693218515,NA,NA
19055,Bucks County,PA,84.10477215644062,NA,NA
19057,Bucks County,PA,55.758880516684606,NA,NA
19063,Delaware County,PA,75.1345532831001,NA,63.101604278074866
19064,Delaware County,PA,6.350914962325081,NA,NA
19087,Chester County,PA,67.491926803014,NA,NA
19090,Montgomery County,PA,74.84750627915321,NA,NA
19104,Philadelphia County,PA,NA,16.825396825396826,NA
19111,Philadelphia County,PA,26.336562612127736,NA,NA
19115,Philadelphia County,PA,74.3092931467528,NA,NA
19120,Philadelphia County,PA,32.43631144599928,7.4603174603174605,NA
19121,Philadelphia County,PA,8.396124865446716,NA,NA
19122,Philadelphia County,PA,49.65913168281306,NA,NA
19124,Philadelphia County,PA,28.70470039468963,3.492063492063492,NA
19131,Philadelphia County,PA,NA,50.15873015873016,NA
19132,Philadelphia County,PA,20.057409400789382,14.285714285714285,NA
19134,Philadelphia County,PA,1.4352350197344816,8.412698412698413,3.7433155080213902
19138,Philadelphia County,PA,19.088625762468602,NA,NA
19139,Philadelphia County,PA,4.664513814137065,NA,NA
19141,Philadelphia County,PA,NA,25.396825396825395,NA
19142,Philadelphia County,PA,NA,41.42857142857143,NA
19143,Philadelphia County,PA,7.140294223179046,NA,NA
19144,Philadelphia County,PA,28.094725511302478,NA,NA
19145,Philadelphia County,PA,26.193039110154288,NA,NA
19149,Philadelphia County,PA,37.53139576605669,NA,NA
19154,Philadelphia County,PA,32.00574094007894,NA,NA
19311,Chester County,PA,93.82848941514172,NA,NA
19348,Chester County,PA,72.90993900251166,NA,NA
19355,Chester County,PA,16.756368855400073,NA,NA
19363,Chester County,PA,52.27843559382849,NA,NA
19382,Chester County,PA,2.583423035522067,NA,NA
19390,Chester County,PA,42.44707570864729,83.96825396825398,NA
19401,Montgomery County,PA,NA,23.65079365079365,NA
19406,Montgomery County,PA,32.18514531754575,NA,NA
19440,Montgomery County,PA,88.69752421959096,NA,NA
19508,Berks County,PA,NA,86.82539682539682,NA
19510,Berks County,PA,13.275923932543954,NA,NA
19526,Berks County,PA,87.44169357732329,NA,NA
19601,Berks County,PA,1.6505202726946537,NA,NA
19602,Berks County,PA,61.5357014711159,NA,NA
19604,Berks County,PA,6.099748833871547,NA,NA
19605,Berks County,PA,45.389307499102976,NA,NA
02817,Kent County,RI,88.23107283817725,NA,NA
02831,Providence County,RI,98.17007534983854,NA,NA
02861,Providence County,RI,75.34983853606028,NA,NA
02864,Providence County,RI,20.667384284176535,NA,NA
02878,Newport County,RI,20.487979906709725,NA,NA
02886,Kent County,RI,NA,NA,39.037433155080215
02889,Kent County,RI,17.07929673484033,NA,NA
02907,Providence County,RI,10.36957301758163,NA,NA
29033,Lexington County,SC,86.79583781844276,NA,NA
29053,Lexington County,SC,66.98959454610693,NA,NA
29058,Lancaster County,SC,NA,87.77777777777777,NA
29072,Lexington County,SC,17.940437746681017,NA,NA
29073,Lexington County,SC,28.274129888769284,NA,NA
29102,Clarendon County,SC,NA,97.46031746031746,NA
29127,Newberry County,SC,71.43882310728382,NA,NA
29160,Lexington County,SC,89.66630785791173,NA,NA
29169,Lexington County,SC,76.4621456763545,NA,NA
29180,Fairfield County,SC,54.216002870470035,NA,NA
29205,Richland County,SC,65.44671689989235,NA,96.2566844919786
29212,Lexington County,SC,NA,74.60317460317461,NA
29229,Richland County,SC,NA,70.47619047619048,NA
29301,Spartanburg County,SC,NA,68.57142857142857,NA
29306,Spartanburg County,SC,21.062073914603516,NA,NA
29349,Spartanburg County,SC,77.07212055974165,NA,NA
29356,Spartanburg County,SC,89.09221385001794,NA,NA
29407,Charleston County,SC,61.105130965195556,42.06349206349206,NA
29418,Charleston County,SC,38.14137064944384,NA,NA
29420,Dorchester County,SC,52.7448869752422,NA,NA
29449,Charleston County,SC,48.86975242195909,NA,NA
29455,Charleston County,SC,88.44635809113743,NA,NA
29461,Berkeley County,SC,34.625044851094366,32.38095238095238,NA
29464,Charleston County,SC,14.38823107283818,NA,NA
29472,Dorchester County,SC,NA,80.7936507936508,NA
29488,Colleton County,SC,41.04772156440617,NA,NA
29492,Berkeley County,SC,72.01291711517761,NA,NA
29505,Florence County,SC,41.550053821313234,NA,NA
29526,Horry County,SC,95.12020093290276,NA,NA
29527,Horry County,SC,20.810907786149983,67.61904761904762,NA
29571,Marion County,SC,41.76533907427341,NA,NA
29577,Horry County,SC,52.60136347326875,NA,NA
29588,Horry County,SC,NA,50,NA
29601,Greenville County,SC,76.39038392536777,NA,NA
29609,Greenville County,SC,45.60459275206315,NA,NA
29615,Greenville County,SC,57.445281664872624,NA,NA
29624,Anderson County,SC,55.72299964119124,NA,NA
29630,Pickens County,SC,81.70075349838535,NA,NA
29680,Greenville County,SC,39.86365267312522,NA,NA
29681,Greenville County,SC,23.75313957660567,NA,NA
29687,Greenville County,SC,48.797990670972375,94.28571428571428,NA
29691,Oconee County,SC,90.67097237172587,NA,NA
29702,Cherokee County,SC,NA,98.57142857142858,NA
29708,York County,SC,85.7194115536419,NA,NA
29730,York County,SC,28.812343021169717,NA,NA
29732,York County,SC,NA,65.23809523809524,NA
29803,Aiken County,SC,38.82310728381773,NA,NA
29832,Edgefield County,SC,97.6318622174381,NA,NA
29841,Aiken County,SC,3.4445640473627552,NA,NA
29902,Beaufort County,SC,80.87549336203803,NA,NA
29920,Beaufort County,SC,NA,92.22222222222223,NA
57103,Minnehaha County,SD,24.47075708647291,42.857142857142854,NA
57106,Minnehaha County,SD,NA,45.23809523809524,NA
57401,Brown County,SD,18.83745963401507,NA,19.25133689839572
57703,Pennington County,SD,68.03013993541443,NA,NA
57719,Pennington County,SD,79.72730534625045,NA,NA
37013,Davidson County,TN,1.1481880157875852,8.73015873015873,NA
37027,Williamson County,TN,26.659490491567993,NA,NA
37040,Montgomery County,TN,21.13383566559024,NA,NA
37042,Montgomery County,TN,31.86221743810549,NA,NA
37064,Williamson County,TN,11.445999282382491,NA,NA
37066,Sumner County,TN,8.575529242913527,17.46031746031746,NA
37067,Williamson County,TN,66.98959454610693,NA,NA
37069,Williamson County,TN,94.11553641908863,NA,NA
37073,Robertson County,TN,59.167563688554004,NA,NA
37075,Sumner County,TN,56.69178327951202,NA,NA
37083,Macon County,TN,56.69178327951202,NA,NA
37086,Rutherford County,TN,63.43738787226408,NA,NA
37087,Wilson County,TN,13.455328310010763,NA,NA
37101,Humphreys County,TN,85.79117330462863,NA,NA
37110,Warren County,TN,68.56835306781485,NA,NA
37115,Davidson County,TN,10.154287764621458,NA,NA
37122,Wilson County,TN,7.786149982059562,NA,NA
37128,Rutherford County,TN,88.05166846071045,NA,NA
37148,Sumner County,TN,36.59849300322928,NA,NA
37160,Bedford County,TN,9.616074632221027,NA,NA
37172,Robertson County,TN,60.88984571223538,NA,NA
37174,Williamson County,TN,NA,72.6984126984127,NA
37207,Davidson County,TN,7.140294223179046,NA,NA
37209,Davidson County,TN,30.068173663437385,NA,NA
37211,Davidson County,TN,7.068532472192321,NA,77.54010695187165
37214,Davidson County,TN,66.52314316469322,NA,NA
37221,Davidson County,TN,40.3659849300323,NA,NA
37228,Davidson County,TN,NA,60.63492063492063,NA
37303,McMinn County,TN,28.274129888769284,29.841269841269842,NA
37311,Bradley County,TN,NA,54.761904761904766,NA
37312,Bradley County,TN,33.54861858629351,NA,NA
37322,Meigs County,TN,NA,87.3015873015873,NA
37323,Bradley County,TN,40.00717617509867,NA,NA
37324,Franklin County,TN,NA,76.19047619047619,NA
37329,McMinn County,TN,84.67886616433441,NA,NA
37357,Warren County,TN,93.18263365626122,NA,NA
37367,Bledsoe County,TN,1.686401148188016,NA,NA
37385,Monroe County,TN,69.10656620021528,88.88888888888889,NA
37387,Grundy County,TN,83.56655902404019,NA,NA
37398,Franklin County,TN,70.11123071402943,NA,NA
37407,Hamilton County,TN,NA,93.4920634920635,NA
37411,Hamilton County,TN,65.66200215285252,NA,NA
37416,Hamilton County,TN,62.57624686042339,NA,NA
37601,Washington County,TN,57.445281664872624,NA,NA
37604,Washington County,TN,53.78543236454969,NA,NA
37618,Sullivan County,TN,53.24721923214927,NA,NA
37620,Sullivan County,TN,NA,39.682539682539684,NA
37642,Hawkins County,TN,61.21277359167564,NA,NA
37659,Washington County,TN,29.42231790455687,NA,NA
37660,Sullivan County,TN,78.00502332256907,NA,NA
37683,Johnson County,TN,63.15034086831719,NA,NA
37692,Unicoi County,TN,90.67097237172587,NA,NA
37701,Blount County,TN,93.0032292787944,NA,NA
37708,Grainger County,TN,52.960172228202374,NA,NA
37716,Anderson County,TN,NA,57.77777777777777,45.45454545454545
37722,Cocke County,TN,NA,88.25396825396825,NA
37764,Sevier County,TN,NA,51.11111111111111,NA
37777,Blount County,TN,78.04090419806244,NA,NA
37801,Blount County,TN,38.536060279870824,NA,NA
37820,Jefferson County,TN,65.01614639397201,NA,NA
37826,McMinn County,TN,NA,96.66666666666667,NA
37830,Anderson County,TN,NA,50.15873015873016,NA
37840,Roane County,TN,70.36239684248295,NA,NA
37843,Cocke County,TN,97.30893433799784,NA,NA
37849,Knox County,TN,66.41550053821314,NA,NA
37854,Roane County,TN,48.546824542518834,NA,NA
37862,Sevier County,TN,72.69465374955149,NA,NA
37874,Monroe County,TN,NA,30.952380952380953,NA
37912,Knox County,TN,NA,29.841269841269842,NA
37918,Knox County,TN,6.7814854682454255,NA,NA
37921,Knox County,TN,9.006099748833872,NA,NA
37932,Knox County,TN,60.13634732687477,NA,NA
37934,Knox County,TN,30.068173663437385,NA,NA
38002,Shelby County,TN,65.01614639397201,NA,NA
38008,Hardeman County,TN,96.84248295658413,NA,NA
38024,Dyer County,TN,4.843918191603875,62.06349206349206,NA
38039,Hardeman County,TN,NA,82.22222222222221,NA
38053,Shelby County,TN,NA,59.04761904761905,NA
38063,Lauderdale County,TN,83.99712952996053,NA,NA
38108,Shelby County,TN,26.336562612127736,NA,NA
38109,Shelby County,TN,1.7581628991747398,NA,NA
38112,Shelby County,TN,19.87800502332257,NA,NA
38115,Shelby County,TN,0.6458557588805167,13.015873015873018,NA
38116,Shelby County,TN,4.951560818083961,NA,NA
38118,Shelby County,TN,3.767491926803014,7.301587301587302,NA
38125,Shelby County,TN,72.90993900251166,NA,NA
38127,Shelby County,TN,1.4711158952278436,NA,NA
38128,Shelby County,TN,59.88518119842124,NA,NA
38242,Henry County,TN,83.4589163975601,NA,NA
38301,Madison County,TN,31.001076426264802,NA,NA
38305,Madison County,TN,0.9687836383207751,NA,NA
38351,Henderson County,TN,9.14962325080732,NA,NA
38401,Maury County,TN,46.60925726587728,NA,NA
38451,Maury County,TN,91.60387513455328,NA,NA
38464,Lawrence County,TN,34.69680660208109,NA,NA
38474,Maury County,TN,56.01004664513815,NA,NA
38501,Putnam County,TN,18.335127377108,NA,23.52941176470588
38556,Fentress County,TN,NA,83.96825396825398,NA
38562,Jackson County,TN,92.32149264442052,NA,NA
75002,Collin County,TX,53.96483674201651,NA,NA
75020,Grayson County,TX,40.437746681019014,NA,NA
75022,Denton County,TX,92.89558665231432,NA,NA
75024,Collin County,TX,35.055615357014716,NA,NA
75033,,TX,47.36275565123789,NA,NA
75034,Denton County,TX,17.473986365267315,89.68253968253968,NA
75040,Dallas County,TX,2.045209903121636,NA,NA
75043,Dallas County,TX,5.489773950484392,NA,NA
75048,Dallas County,TX,NA,75.39682539682539,NA
75050,Dallas County,TX,NA,15.873015873015872,NA
75051,Dallas County,TX,7.750269106566201,NA,NA
75056,Denton County,TX,33.3692142088267,NA,NA
75061,Dallas County,TX,43.164693218514536,NA,60.962566844919785
75062,Dallas County,TX,66.12845353426624,21.746031746031747,NA
75063,Dallas County,TX,35.414424111948335,NA,NA
75068,Denton County,TX,79.51202009329027,NA,NA
75069,Collin County,TX,18.227484750627916,NA,NA
75071,Collin County,TX,69.93182633656261,NA,NA
75088,Dallas County,TX,66.52314316469322,NA,NA
75089,Dallas County,TX,48.080373161105136,92.06349206349206,NA
75094,Collin County,TX,86.18586293505561,NA,NA
75098,Collin County,TX,12.16361679224973,NA,NA
75104,Dallas County,TX,NA,33.49206349206349,NA
75110,Navarro County,TX,19.87800502332257,NA,NA
75115,Dallas County,TX,78.47147470398278,NA,NA
75116,Dallas County,TX,60.674560459275206,NA,NA
75134,Dallas County,TX,28.991747398636527,NA,NA
75135,Hunt County,TX,91.10154287764621,NA,NA
75154,Ellis County,TX,11.80480803731611,NA,NA
75160,Kaufman County,TX,18.406889128094726,NA,NA
75203,Dallas County,TX,57.086472909939005,54.12698412698413,NA
75211,Dallas County,TX,4.198062432723358,NA,NA
75212,Dallas County,TX,NA,17.936507936507937,NA
75215,Dallas County,TX,NA,51.90476190476191,NA
75216,Dallas County,TX,19.69860064585576,NA,NA
75217,Dallas County,TX,NA,6.825396825396825,NA
75220,Dallas County,TX,19.69860064585576,NA,NA
75223,Dallas County,TX,61.93039110154288,NA,NA
75225,Dallas County,TX,65.01614639397201,NA,NA
75230,Dallas County,TX,34.69680660208109,NA,NA
75231,Dallas County,TX,8.216720487979906,NA,NA
75232,Dallas County,TX,24.61428058844636,NA,NA
75235,Dallas County,TX,42.913527090060995,NA,NA
75238,Dallas County,TX,60.423394330821665,NA,NA
75240,Dallas County,TX,76.96447793326158,NA,NA
75241,Dallas County,TX,NA,58.0952380952381,NA
75243,Dallas County,TX,17.976318622174382,NA,NA
75244,Dallas County,TX,96.66307857911734,NA,NA
75248,Dallas County,TX,44.061715105848585,NA,NA
75253,Dallas County,TX,22.856117689271617,NA,NA
75254,Dallas County,TX,35.6297093649085,NA,NA
75287,Denton County,TX,14.567635450304989,45.87301587301587,NA
75407,Collin County,TX,46.178686759956946,NA,NA
75460,Lamar County,TX,58.019375672766415,NA,NA
75482,Hopkins County,TX,28.919985647649803,43.17460317460318,NA
75497,Wood County,TX,100,NA,NA
75604,Gregg County,TX,38.787226408324365,NA,NA
75662,Gregg County,TX,73.66343738787226,60.476190476190474,NA
75686,Camp County,TX,66.16433440975959,NA,NA
75701,Smith County,TX,62.82741298887693,36.03174603174603,NA
75703,Smith County,TX,55.543595263724434,NA,NA
75706,Smith County,TX,NA,82.6984126984127,NA
75752,Henderson County,TX,88.23107283817725,NA,NA
75755,Upshur County,TX,NA,82.6984126984127,NA
75758,Henderson County,TX,83.1718693936132,NA,NA
75766,Cherokee County,TX,82.49013275923932,NA,NA
75771,Smith County,TX,18.550412630068173,NA,NA
75791,Smith County,TX,NA,NA,73.79679144385027
75803,Anderson County,TX,70.72120559741658,NA,NA
75833,Leon County,TX,95.3713670613563,NA,NA
75901,Angelina County,TX,38.14137064944384,NA,NA
75904,Angelina County,TX,37.35199138858988,NA,NA
75951,Jasper County,TX,38.14137064944384,NA,NA
76002,Tarrant County,TX,24.183710082526012,NA,65.77540106951871
76010,Tarrant County,TX,34.69680660208109,NA,58.82352941176471
76014,Tarrant County,TX,14.782920703265159,NA,NA
76017,Tarrant County,TX,21.887334050950844,NA,NA
76018,Tarrant County,TX,52.7448869752422,NA,NA
76020,Tarrant County,TX,26.659490491567993,NA,NA
76022,Tarrant County,TX,45.89163975601004,NA,NA
76028,Johnson County,TX,NA,23.65079365079365,NA
76033,Johnson County,TX,56.01004664513815,NA,NA
76036,Tarrant County,TX,31.575170434158593,45.87301587301587,NA
76039,Tarrant County,TX,59.09580193756727,NA,NA
76040,Tarrant County,TX,28.525296017222818,NA,NA
76052,Tarrant County,TX,44.241119483315394,NA,NA
76053,Tarrant County,TX,33.3692142088267,NA,NA
76058,Johnson County,TX,34.55328310010764,NA,NA
76063,Tarrant County,TX,1.5428776462145677,NA,NA
76067,Palo Pinto County,TX,47.68568353067815,NA,NA
76082,Parker County,TX,NA,75.39682539682539,NA
76086,Parker County,TX,47.00394689630427,NA,NA
76103,Tarrant County,TX,NA,58.25396825396826,NA
76106,Tarrant County,TX,66.9178327951202,NA,NA
76107,Tarrant County,TX,44.635809113742376,NA,NA
76108,Tarrant County,TX,NA,29.04761904761905,NA
76112,Tarrant County,TX,13.706494438464297,NA,NA
76114,Tarrant County,TX,NA,20.317460317460316,NA
76116,Tarrant County,TX,27.520631503408683,NA,NA
76117,Tarrant County,TX,31.216361679224974,NA,NA
76119,Tarrant County,TX,45.81987800502333,5.079365079365079,NA
76126,Tarrant County,TX,37.997847147470395,NA,NA
76131,Tarrant County,TX,66.09257265877288,NA,NA
76132,Tarrant County,TX,77.46681019016864,NA,NA
76133,Tarrant County,TX,56.01004664513815,NA,NA
76134,Tarrant County,TX,33.97918909221385,NA,NA
76140,Tarrant County,TX,15.644061715105847,42.06349206349206,NA
76179,Tarrant County,TX,9.185504126300682,NA,NA
76205,Denton County,TX,68.92716182274847,NA,NA
76209,Denton County,TX,75.99569429494079,NA,NA
76240,Cooke County,TX,19.626838894869035,NA,NA
76244,Tarrant County,TX,20.91855041263007,NA,NA
76247,Denton County,TX,64.8367420165052,NA,NA
76262,Denton County,TX,33.65626121277359,NA,NA
76266,Denton County,TX,70.72120559741658,NA,NA
76302,Wichita County,TX,89.27161822748475,NA,NA
76309,Wichita County,TX,94.6178686759957,NA,NA
76384,Wilbarger County,TX,67.24076067456046,NA,NA
76424,Stephens County,TX,45.389307499102976,NA,NA
76501,Bell County,TX,31.969860064585575,14.444444444444443,NA
76502,Bell County,TX,30.64226767133118,NA,NA
76504,Bell County,TX,NA,5.238095238095238,NA
76513,Bell County,TX,2.6910656620021527,NA,NA
76522,Coryell County,TX,6.709723717258701,NA,NA
76541,Bell County,TX,NA,27.77777777777778,NA
76549,Bell County,TX,21.385001794043777,NA,NA
76692,Hill County,TX,NA,94.92063492063491,NA
76704,McLennan County,TX,90.67097237172587,NA,NA
76706,McLennan County,TX,43.95407247936849,NA,NA
76707,McLennan County,TX,26.300681736634374,NA,NA
76708,McLennan County,TX,79.22497308934338,NA,NA
76710,McLennan County,TX,47.00394689630427,NA,NA
76825,McCulloch County,TX,46.178686759956946,NA,NA
77005,Harris County,TX,47.36275565123789,NA,NA
77015,Harris County,TX,NA,18.571428571428573,NA
77016,Harris County,TX,49.910297811266595,72.22222222222221,NA
77017,Harris County,TX,85.46824542518837,NA,NA
77020,Harris County,TX,44.241119483315394,NA,NA
77021,Harris County,TX,56.40473627556513,NA,NA
77023,Harris County,TX,52.960172228202374,80.47619047619048,NA
77026,Harris County,TX,10.656620021528525,NA,NA
77029,Harris County,TX,NA,55.55555555555556,NA
77030,Harris County,TX,42.23179045568712,NA,NA
77036,Harris County,TX,19.69860064585576,NA,NA
77040,Harris County,TX,24.32723358449946,NA,NA
77044,Harris County,TX,42.375313957660566,NA,NA
77049,Harris County,TX,32.47219232149264,47.460317460317455,NA
77051,Harris County,TX,44.061715105848585,NA,NA
77053,Fort Bend County,TX,51.23789020452099,NA,NA
77055,Harris County,TX,37.56727664155005,NA,NA
77056,Harris County,TX,84.67886616433441,NA,NA
77059,Harris County,TX,90.06099748833871,NA,NA
77060,Harris County,TX,NA,26.50793650793651,NA
77061,Harris County,TX,28.130606386795836,NA,NA
77067,Harris County,TX,27.84355938284894,NA,NA
77072,Harris County,TX,16.86401148188016,NA,NA
77073,Harris County,TX,33.118048080373164,NA,NA
77074,Harris County,TX,NA,26.34920634920635,NA
77075,Harris County,TX,40.868317186939365,NA,NA
77076,Harris County,TX,NA,42.06349206349206,NA
77077,Harris County,TX,31.575170434158593,NA,NA
77079,Harris County,TX,42.913527090060995,NA,NA
77080,Harris County,TX,NA,52.539682539682545,NA
77081,Harris County,TX,62.18155722999641,NA,NA
77086,Harris County,TX,14.60351632579835,NA,NA
77087,Harris County,TX,NA,72.6984126984127,NA
77088,Harris County,TX,64.76498026551847,33.33333333333333,NA
77091,Harris County,TX,NA,37.77777777777778,NA
77092,Harris County,TX,NA,59.04761904761905,NA
77093,Harris County,TX,54.82597775385719,NA,NA
77094,Harris County,TX,73.98636526731252,NA,NA
77095,Harris County,TX,13.096519555077144,NA,NA
77301,Montgomery County,TX,23.2508073196986,NA,NA
77302,Montgomery County,TX,72.69465374955149,NA,NA
77304,Montgomery County,TX,29.709364908503765,NA,NA
77328,San Jacinto County,TX,47.00394689630427,NA,NA
77338,Harris County,TX,81.12665949049158,NA,NA
77339,Harris County,TX,67.42016505202727,NA,NA
77345,Harris County,TX,54.86185862935056,NA,NA
77346,Harris County,TX,44.88697524219591,NA,NA
77351,Polk County,TX,32.97452457839971,NA,NA
77355,Montgomery County,TX,40.5453893074991,NA,NA
77365,Montgomery County,TX,79.00968783638321,NA,NA
77373,Harris County,TX,14.208826695371368,NA,NA
77375,Harris County,TX,NA,39.04761904761905,NA
77381,Montgomery County,TX,76.39038392536777,NA,NA
77385,Montgomery County,TX,72.15644061715106,NA,NA
77386,Montgomery County,TX,18.442770003588087,NA,NA
77401,Harris County,TX,64.62145676354503,NA,NA
77407,Fort Bend County,TX,49.65913168281306,NA,NA
77429,Harris County,TX,41.550053821313234,NA,NA
77433,Harris County,TX,36.81377825618945,NA,NA
77434,Colorado County,TX,91.10154287764621,NA,NA
77437,Wharton County,TX,62.32508073196986,37.77777777777778,NA
77447,Harris County,TX,NA,79.36507936507937,NA
77449,Harris County,TX,1.794043774668102,NA,NA
77459,Fort Bend County,TX,11.840688912809473,NA,NA
77469,Fort Bend County,TX,14.316469321851452,NA,NA
77471,Fort Bend County,TX,73.340509508432,NA,NA
77478,Fort Bend County,TX,60.92572658772875,NA,NA
77479,Fort Bend County,TX,7.032651596698959,NA,NA
77480,Brazoria County,TX,77.6820954431288,NA,NA
77493,Harris County,TX,70.47003946896304,NA,NA
77494,Fort Bend County,TX,2.8704700394689633,NA,NA
77504,Harris County,TX,95.83781844277,NA,NA
77506,Harris County,TX,61.5357014711159,NA,NA
77521,Harris County,TX,14.208826695371368,NA,NA
77530,Harris County,TX,NA,47.77777777777778,NA
77535,Liberty County,TX,34.15859346968066,NA,NA
77539,Galveston County,TX,2.2604951560818085,NA,NA
77541,Brazoria County,TX,NA,NA,57.75401069518716
77546,Galveston County,TX,14.38823107283818,NA,NA
77568,Galveston County,TX,NA,31.9047619047619,NA
77575,Liberty County,TX,62.57624686042339,NA,NA
77578,Brazoria County,TX,92.21385001794043,NA,NA
77598,Harris County,TX,34.55328310010764,NA,NA
77611,Orange County,TX,61.750986724076064,NA,NA
77627,Jefferson County,TX,39.325439540724794,NA,NA
77632,Orange County,TX,54.14424111948332,NA,NA
77662,Orange County,TX,55.005382131324,NA,NA
77708,Jefferson County,TX,76.4621456763545,NA,NA
77803,Brazos County,TX,14.101184068891282,NA,NA
77808,Brazos County,TX,48.86975242195909,NA,NA
77845,Brazos County,TX,3.803372802296376,NA,NA
77864,Madison County,TX,82.05956225331899,NA,NA
77871,Leon County,TX,90.67097237172587,NA,NA
77904,Victoria County,TX,25.798349479727307,NA,50.80213903743316
78002,Bexar County,TX,78.8302834589164,NA,NA
78041,Webb County,TX,47.8292070326516,NA,NA
78043,Webb County,TX,36.06027987082885,17.142857142857142,NA
78045,Webb County,TX,22.030857552924292,NA,NA
78046,Webb County,TX,8.10907786149982,NA,NA
78065,Atascosa County,TX,89.66630785791173,NA,NA
78069,Atascosa County,TX,68.74775744528166,NA,NA
78070,Comal County,TX,79.72730534625045,NA,NA
78076,Zapata County,TX,79.04556871187657,NA,NA
78109,Bexar County,TX,17.5816289917474,NA,NA
78114,Wilson County,TX,40.868317186939365,NA,NA
78130,Comal County,TX,40.25834230355221,NA,26.203208556149733
78207,Bexar County,TX,41.2988876928597,NA,NA
78210,Bexar County,TX,53.498385360602796,NA,NA
78218,Bexar County,TX,NA,19.365079365079367,NA
78221,Bexar County,TX,NA,45.87301587301587,NA
78224,Bexar County,TX,61.750986724076064,35.714285714285715,NA
78228,Bexar County,TX,13.527090060997487,NA,NA
78230,Bexar County,TX,32.47219232149264,NA,NA
78231,Bexar County,TX,99.10297811266595,NA,NA
78232,Bexar County,TX,82.38249013275923,NA,NA
78237,Bexar County,TX,10.90778614998206,NA,NA
78238,Bexar County,TX,30.929314675278075,NA,NA
78239,Bexar County,TX,67.491926803014,28.253968253968253,NA
78245,Bexar County,TX,24.255471833512736,NA,NA
78247,Bexar County,TX,22.17438105489774,NA,NA
78249,Bexar County,TX,35.773232866881955,NA,NA
78253,Bexar County,TX,13.814137064944385,NA,NA
78254,Bexar County,TX,38.39253677789738,NA,NA
78264,Bexar County,TX,81.23430211697166,NA,NA
78361,Jim Hogg County,TX,88.76928597057768,NA,NA
78363,Kleberg County,TX,84.32005740940079,NA,NA
78380,Nueces County,TX,NA,NA,89.83957219251337
78384,Duval County,TX,97.27305346250449,NA,NA
78390,San Patricio County,TX,76.78507355579475,NA,NA
78404,Nueces County,TX,81.19842124147829,NA,NA
78412,Nueces County,TX,18.442770003588087,NA,NA
78414,Nueces County,TX,75.31395766056693,NA,NA
78415,Nueces County,TX,8.073196986006458,NA,NA
78504,Hidalgo County,TX,NA,16.19047619047619,NA
78521,Cameron County,TX,7.92967348403301,0.4761904761904762,NA
78526,Cameron County,TX,59.167563688554004,NA,NA
78542,Hidalgo County,TX,NA,0.7936507936507936,NA
78543,Hidalgo County,TX,55.29242913527091,NA,NA
78550,Cameron County,TX,50.627915321133834,NA,NA
78570,Hidalgo County,TX,76.71331180480804,9.682539682539684,NA
78573,Hidalgo County,TX,14.029422317904558,12.063492063492063,NA
78577,Hidalgo County,TX,NA,0.9523809523809524,NA
78580,Willacy County,TX,28.130606386795836,NA,NA
78583,Cameron County,TX,86.25762468604235,NA,NA
78586,Cameron County,TX,20.057409400789382,NA,NA
78599,Hidalgo County,TX,66.48726228919986,NA,NA
78613,Williamson County,TX,48.65446716899892,NA,NA
78634,Williamson County,TX,NA,75.87301587301587,68.98395721925134
78640,Hays County,TX,2.978112665949049,NA,NA
78666,Hays County,TX,9.32902762827413,NA,NA
78681,Williamson County,TX,17.186939361320416,NA,NA
78702,Travis County,TX,83.56655902404019,NA,NA
78729,Williamson County,TX,55.07714388231073,NA,NA
78730,Travis County,TX,94.6178686759957,NA,NA
78734,Travis County,TX,80.0502332256907,NA,NA
78741,Travis County,TX,36.23968424829565,NA,NA
78745,Travis County,TX,6.8891280947255105,NA,NA
78746,Travis County,TX,79.583781844277,NA,NA
78748,Travis County,TX,43.98995335486186,NA,NA
78754,Travis County,TX,51.66846071044133,NA,NA
78756,Travis County,TX,96.950125583064235,NA,NA
78801,Uvalde County,TX,28.991747398636527,NA,NA
79106,Potter County,TX,33.65626121277359,NA,NA
79108,Potter County,TX,NA,NA,83.42245989304813
79118,Randall County,TX,83.13598851811985,NA,NA
79360,Gaines County,TX,21.13383566559024,NA,NA
79364,Lubbock County,TX,63.47326874775745,NA,NA
79413,Lubbock County,TX,NA,20.952380952380953,NA
79423,Lubbock County,TX,21.31324004305705,NA,NA
79424,Lubbock County,TX,77.43092931467528,NA,NA
79510,Callahan County,TX,82.56189451022605,NA,NA
79603,Taylor County,TX,8.934337997847146,NA,NA
79605,Taylor County,TX,6.099748833871547,NA,NA
79703,Midland County,TX,38.67958378184428,NA,NA
79705,Midland County,TX,12.665949049156799,NA,NA
79706,Midland County,TX,15.177610333692144,NA,NA
79761,Ector County,TX,20.344456404736274,NA,NA
79762,Ector County,TX,33.118048080373164,NA,NA
79763,Ector County,TX,7.463222102619303,21.11111111111111,NA
79764,Ector County,TX,46.860423394330816,NA,NA
79849,El Paso County,TX,81.664872622892,NA,NA
79901,El Paso County,TX,NA,61.26984126984127,NA
79904,El Paso County,TX,NA,57.3015873015873,NA
79905,El Paso County,TX,70.50592034445641,NA,NA
79907,El Paso County,TX,NA,4.285714285714286,NA
79912,El Paso County,TX,13.92177969142447,NA,NA
79925,El Paso County,TX,NA,15.079365079365079,NA
79927,El Paso County,TX,36.06027987082885,NA,NA
79932,El Paso County,TX,84.67886616433441,NA,NA
79934,El Paso County,TX,63.22210261930391,64.44444444444444,NA
79936,El Paso County,TX,7.642626480086114,NA,NA
79938,El Paso County,TX,54.646573376390386,NA,38.50267379679144
84005,Utah County,UT,82.2389666307858,NA,NA
84017,Summit County,UT,95.22784355938285,NA,NA
84029,Tooele County,UT,78.29207032651597,NA,NA
84040,Davis County,UT,63.47326874775745,NA,NA
84043,Utah County,UT,10.76426264800861,NA,NA
84044,Salt Lake County,UT,30.068173663437385,NA,NA
84062,Utah County,UT,23.860782203085755,NA,NA
84066,Duchesne County,UT,30.426982418371008,NA,NA
84074,Tooele County,UT,0.3588087549336204,NA,NA
84075,Davis County,UT,41.37064944384643,NA,NA
84081,Salt Lake County,UT,9.795479009687837,NA,NA
84088,Salt Lake County,UT,36.84965913168281,NA,NA
84103,Salt Lake County,UT,69.10656620021528,NA,NA
84106,Salt Lake County,UT,12.343021169716542,NA,NA
84115,Salt Lake County,UT,31.71869393613204,NA,NA
84119,Salt Lake County,UT,31.32400430570506,NA,NA
84120,Salt Lake County,UT,5.3103695730175815,NA,37.4331550802139
84128,Salt Lake County,UT,20.344456404736274,NA,NA
84129,,UT,NA,NA,35.294117647058826
84312,Box Elder County,UT,94.43846429852888,NA,NA
84319,Cache County,UT,NA,98.09523809523809,NA
84332,Cache County,UT,97.73950484391818,NA,NA
84404,Weber County,UT,30.068173663437385,NA,NA
84601,Utah County,UT,77.07212055974165,NA,NA
84660,Utah County,UT,74.16576964477933,NA,NA
84663,Utah County,UT,47.36275565123789,NA,NA
84770,Washington County,UT,29.314675278076784,NA,NA
84790,Washington County,UT,NA,96.34920634920636,NA
05401,Chittenden County,VT,NA,NA,82.35294117647058
05477,Chittenden County,VT,97.30893433799784,NA,NA
05641,Washington County,VT,43.164693218514536,NA,NA
20110,Manassas city,VA,NA,61.26984126984127,86.09625668449198
20111,Prince William County,VA,35.414424111948335,NA,NA
20112,Prince William County,VA,57.87585217079296,NA,NA
20121,Fairfax County,VA,54.03659849300323,NA,NA
20155,Prince William County,VA,32.83100107642626,NA,NA
20165,Loudoun County,VA,38.39253677789738,NA,NA
20170,Fairfax County,VA,31.072838177251526,38.730158730158735,NA
20171,Fairfax County,VA,40.00717617509867,NA,NA
20175,Loudoun County,VA,74.81162540365986,NA,NA
22003,Fairfax County,VA,41.15536419088626,NA,NA
22030,Fairfax County,VA,27.16182274847506,NA,NA
22032,Fairfax County,VA,50.08970218873341,NA,NA
22033,Fairfax County,VA,87.62109795479009,NA,NA
22042,Fairfax County,VA,NA,40.317460317460316,NA
22043,Fairfax County,VA,58.52170792967348,NA,NA
22079,Fairfax County,VA,25.008970218873337,NA,NA
22124,Fairfax County,VA,77.07212055974165,NA,NA
22150,Fairfax County,VA,76.56978830283458,NA,NA
22151,Fairfax County,VA,70.50592034445641,79.36507936507937,NA
22153,Fairfax County,VA,66.9178327951202,NA,NA
22180,Fairfax County,VA,95.3713670613563,NA,NA
22182,Fairfax County,VA,67.491926803014,NA,NA
22191,Prince William County,VA,3.1575170434158593,9.206349206349207,NA
22193,Prince William County,VA,61.71510584858271,NA,NA
22205,Arlington County,VA,90.41980624327233,NA,NA
22206,Arlington County,VA,54.216002870470035,NA,NA
22207,Arlington County,VA,31.89809831359885,NA,NA
22304,Alexandria city,VA,50.3767491926803,NA,NA
22305,Alexandria city,VA,53.821313240043054,NA,NA
22306,Fairfax County,VA,91.60387513455328,NA,NA
22308,Fairfax County,VA,68.03013993541443,NA,NA
22312,Fairfax County,VA,52.960172228202374,NA,NA
22315,Fairfax County,VA,43.810548977395044,NA,NA
22407,Spotsylvania County,VA,14.60351632579835,NA,NA
22546,Caroline County,VA,NA,91.11111111111111,NA
22554,Stafford County,VA,14.782920703265159,NA,72.72727272727273
22580,Caroline County,VA,80.69608898457122,NA,NA
22601,Winchester city,VA,41.191245066379615,71.58730158730158,NA
22630,Warren County,VA,4.700394689630427,NA,NA
22657,Shenandoah County,VA,42.44707570864729,NA,NA
22701,Culpeper County,VA,46.60925726587728,NA,NA
22712,Fauquier County,VA,89.59454610692501,NA,NA
22801,Harrisonburg city,VA,77.3950484391819,NA,NA
22851,Page County,VA,66.52314316469322,NA,NA
22968,Greene County,VA,27.98708288482239,NA,NA
23005,Hanover County,VA,NA,56.666666666666664,NA
23024,Louisa County,VA,45.389307499102976,NA,NA
23111,Hanover County,VA,52.27843559382849,31.9047619047619,NA
23114,Chesterfield County,VA,71.08001435235019,NA,NA
23116,Hanover County,VA,45.89163975601004,NA,NA
23220,Richmond city,VA,NA,96.19047619047619,NA
23223,Henrico County,VA,1.5069967707212055,NA,NA
23224,Richmond city,VA,5.382131324004305,NA,NA
23225,Richmond city,VA,10.261930391101542,NA,NA
23227,Henrico County,VA,27.84355938284894,NA,NA
23228,Henrico County,VA,NA,46.98412698412698,NA
23233,Henrico County,VA,76.78507355579475,NA,NA
23234,Chesterfield County,VA,1.2558306422676713,NA,NA
23236,Chesterfield County,VA,NA,65.23809523809524,NA
23322,Chesapeake city,VA,40.76067456045928,NA,NA
23323,Chesapeake city,VA,34.15859346968066,NA,NA
23325,Chesapeake city,VA,94.6178686759957,NA,NA
23435,Suffolk city,VA,NA,36.98412698412699,NA
23455,Virginia Beach city,VA,64.26264800861141,NA,NA
23462,Virginia Beach city,VA,9.50843200574094,NA,NA
23464,Virginia Beach city,VA,NA,24.92063492063492,NA
23504,Norfolk city,VA,62.89917473986365,NA,NA
23505,Norfolk city,VA,77.61033369214209,NA,NA
23608,Newport News city,VA,9.86724076067456,NA,22.994652406417114
23661,Hampton city,VA,63.47326874775745,NA,NA
23803,Petersburg city,VA,68.46071044133477,NA,NA
23831,Chesterfield County,VA,39.07427341227126,NA,NA
23832,Chesterfield County,VA,NA,22.380952380952383,NA
23924,Mecklenburg County,VA,94.83315392895587,NA,NA
23970,Mecklenburg County,VA,94.54610692500897,NA,NA
24012,Roanoke city,VA,23.10728381772515,NA,NA
24018,Roanoke County,VA,50.627915321133834,NA,NA
24073,Montgomery County,VA,24.040186580552568,NA,NA
24078,Henry County,VA,80.94725511302477,NA,NA
24091,Floyd County,VA,NA,81.58730158730158,NA
24256,Dickenson County,VA,NA,88.88888888888889,NA
24279,Wise County,VA,NA,82.6984126984127,NA
24293,Wise County,VA,54.216002870470035,NA,NA
24354,Smyth County,VA,47.90096878363832,NA,NA
24541,Danville city,VA,26.228919985647646,NA,NA
24550,Campbell County,VA,69.78830283458916,NA,NA
24557,Pittsylvania County,VA,93.8643702906351,NA,NA
24572,Amherst County,VA,53.24721923214927,NA,NA
98002,King County,WA,32.18514531754575,NA,NA
98012,Snohomish County,WA,23.430211697165408,NA,NA
98022,King County,WA,80.94725511302477,NA,NA
98023,King County,WA,5.705059203444564,NA,NA
98026,Snohomish County,WA,72.98170075349839,NA,NA
98028,King County,WA,37.997847147470395,NA,NA
98030,King County,WA,NA,NA,27.807486631016044
98033,King County,WA,49.30032292787944,NA,NA
98036,Snohomish County,WA,68.2454251883746,NA,NA
98037,Snohomish County,WA,60.92572658772875,NA,NA
98052,King County,WA,40.868317186939365,NA,NA
98075,King County,WA,63.47326874775745,NA,NA
98087,Snohomish County,WA,76.35450304987441,NA,NA
98106,King County,WA,NA,NA,90.37433155080214
98108,King County,WA,66.52314316469322,NA,NA
98110,Kitsap County,WA,68.64011481880158,NA,NA
98117,King County,WA,87.1546465733764,NA,NA
98118,King County,WA,NA,40.63492063492063,NA
98122,King County,WA,18.729817007534987,NA,NA
98126,King County,WA,NA,81.74603174603175,NA
98168,King County,WA,49.910297811266595,NA,NA
98198,King County,WA,66.98959454610693,NA,NA
98201,Snohomish County,WA,36.41908862576247,NA,NA
98203,Snohomish County,WA,8.826695371367062,NA,NA
98223,Snohomish County,WA,10.04664513814137,NA,NA
98335,Pierce County,WA,72.65877287405813,NA,NA
98338,Pierce County,WA,58.16289917473987,NA,NA
98349,Pierce County,WA,85.97057768209544,NA,NA
98362,Clallam County,WA,63.22210261930391,NA,NA
98372,Pierce County,WA,39.325439540724794,NA,NA
98375,Pierce County,WA,22.282023681377826,NA,NA
98387,Pierce County,WA,11.517761033369215,NA,NA
98391,Pierce County,WA,21.95909580193757,NA,NA
98406,Pierce County,WA,77.6820954431288,NA,NA
98408,Pierce County,WA,75.67276641550053,95.87301587301587,NA
98409,Pierce County,WA,22.17438105489774,64.28571428571429,NA
98444,Pierce County,WA,31.43164693218515,NA,NA
98445,Pierce County,WA,44.49228561176893,NA,97.86096256684492
98498,Pierce County,WA,56.29709364908504,NA,NA
98502,Thurston County,WA,NA,82.6984126984127,NA
98512,Thurston County,WA,56.40473627556513,NA,NA
98528,Mason County,WA,71.8335127377108,NA,NA
98531,Lewis County,WA,73.66343738787226,NA,NA
98584,Mason County,WA,25.798349479727307,NA,NA
98597,Thurston County,WA,NA,70.7936507936508,NA
98674,Cowlitz County,WA,86.40114818801578,NA,NA
98682,Clark County,WA,NA,50.15873015873016,NA
98685,Clark County,WA,90.67097237172587,NA,NA
98837,Grant County,WA,15.895227843559384,NA,NA
98901,Yakima County,WA,50.08970218873341,NA,NA
98902,Yakima County,WA,NA,21.11111111111111,NA
98908,Yakima County,WA,75.67276641550053,NA,NA
99004,Spokane County,WA,93.93613204162182,NA,NA
97003,NA,NA,45.60459275206315,NA,NA
99006,Spokane County,WA,80.0502332256907,NA,NA
99021,Spokane County,WA,90.06099748833871,NA,NA
99111,Whitman County,WA,96.66307857911734,NA,NA
99156,Pend Oreille County,WA,88.76928597057768,NA,NA
99203,Spokane County,WA,72.44348762109796,NA,NA
99353,Benton County,WA,31.252242554718336,NA,NA
99362,Walla Walla County,WA,NA,NA,31.016042780748666
20002,District of Columbia,DC,51.45317545748116,63.17460317460317,NA
20003,District of Columbia,DC,48.72622891998565,NA,NA
20010,District of Columbia,DC,87.62109795479009,NA,NA
20011,District of Columbia,DC,65.66200215285252,NA,NA
20012,District of Columbia,DC,96.23250807319698,NA,NA
20017,District of Columbia,DC,53.71367061356297,NA,NA
20019,District of Columbia,DC,NA,12.222222222222221,NA
20032,District of Columbia,DC,4.556871187656979,NA,NA
25053,Boone County,WV,NA,72.6984126984127,NA
25071,Kanawha County,WV,79.04556871187657,NA,NA
25314,Kanawha County,WV,NA,NA,85.56149732620321
25320,Kanawha County,WV,80.51668460710442,NA,NA
25405,Berkeley County,WV,NA,84.76190476190476,NA
25414,Jefferson County,WV,68.64011481880158,NA,NA
25419,Berkeley County,WV,32.400430570505925,NA,NA
25438,Jefferson County,WV,86.79583781844276,NA,NA
25701,Cabell County,WV,47.68568353067815,NA,NA
25704,Wayne County,WV,57.086472909939005,NA,NA
25705,Cabell County,WV,29.52996053103696,NA,NA
25901,Fayette County,WV,72.44348762109796,NA,NA
26003,Ohio County,WV,NA,NA,55.61497326203209
26037,Brooke County,WV,NA,84.76190476190476,NA
26070,Brooke County,WV,68.03013993541443,NA,NA
26101,Wood County,WV,4.449228561176892,NA,NA
26104,Wood County,WV,44.635809113742376,NA,NA
26142,Wood County,WV,99.82059562253319,NA,NA
26181,Wood County,WV,97.30893433799784,NA,NA
26301,Harrison County,WV,14.38823107283818,NA,NA
26330,Harrison County,WV,68.74775744528166,NA,NA
26501,Monongalia County,WV,NA,NA,19.786096256684495
26508,Monongalia County,WV,1.3993541442411195,NA,NA
26554,Marion County,WV,60.53103695730175,NA,NA
53024,Ozaukee County,WI,41.191245066379615,NA,NA
53045,Waukesha County,WI,NA,93.65079365079364,NA
53051,Waukesha County,WI,10.836024398995335,NA,NA
53066,Waukesha County,WI,NA,66.5079365079365,NA
53072,Waukesha County,WI,57.301758162899176,NA,NA
53074,Ozaukee County,WI,78.50735557947614,NA,NA
53081,Sheboygan County,WI,34.625044851094366,NA,NA
53083,Sheboygan County,WI,63.86795837818443,NA,NA
53089,Waukesha County,WI,78.29207032651597,NA,NA
53105,Racine County,WI,28.525296017222818,NA,NA
53108,Racine County,WI,83.56655902404019,NA,NA
53140,Kenosha County,WI,NA,NA,14.43850267379679
53142,Kenosha County,WI,20.882669537136707,46.507936507936506,12.299465240641712
53143,Kenosha County,WI,40.25834230355221,NA,NA
53158,Kenosha County,WI,27.700035880875497,NA,NA
53181,Kenosha County,WI,36.84965913168281,NA,NA
53182,Racine County,WI,80.94725511302477,NA,NA
53185,Racine County,WI,35.055615357014716,NA,NA
53188,Waukesha County,WI,47.21923214926444,NA,NA
53189,Waukesha County,WI,34.91209185504126,NA,NA
53202,Milwaukee County,WI,NA,NA,58.288770053475936
53204,Milwaukee County,WI,26.336562612127736,NA,NA
53206,Milwaukee County,WI,6.171510584858271,NA,NA
53209,Milwaukee County,WI,0.5382131324004306,37.61904761904762,NA
53212,Milwaukee County,WI,10.656620021528525,NA,NA
53215,Milwaukee County,WI,10.441334768568353,21.58730158730159,NA
53216,Milwaukee County,WI,30.534625044851094,9.523809523809524,NA
53218,Milwaukee County,WI,2.1169716541083603,NA,8.55614973262032
53219,Milwaukee County,WI,NA,72.53968253968253,NA
53222,Milwaukee County,WI,NA,28.730158730158728,NA
53223,Milwaukee County,WI,64.1908862576247,NA,NA
53224,Milwaukee County,WI,9.903121636167922,NA,NA
53402,Racine County,WI,68.20954431288123,NA,NA
53403,Racine County,WI,69.78830283458916,NA,NA
53405,Racine County,WI,6.673842841765339,NA,NA
53511,Rock County,WI,0.14352350197344815,NA,NA
53530,Lafayette County,WI,91.60387513455328,NA,NA
53545,Rock County,WI,NA,65.87301587301587,NA
53546,Rock County,WI,25.152493720846792,NA,NA
53548,Rock County,WI,51.66846071044133,NA,NA
53575,Dane County,WI,76.78507355579475,NA,NA
53593,Dane County,WI,31.71869393613204,NA,NA
53704,Dane County,WI,15.249372084678866,NA,NA
53821,Crawford County,WI,85.79117330462863,NA,NA
53916,Dodge County,WI,NA,38.730158730158735,NA
53948,Juneau County,WI,NA,82.06349206349206,NA
53950,Juneau County,WI,60.459275206315034,NA,NA
54002,St. Croix County,WI,88.44635809113743,NA,NA
54016,St. Croix County,WI,21.707929673484035,NA,NA
54017,St. Croix County,WI,51.1302475780409,NA,NA
54021,Pierce County,WI,70.72120559741658,NA,NA
54023,St. Croix County,WI,78.04090419806244,NA,NA
54143,Marinette County,WI,32.61571582346609,NA,NA
54151,Marinette County,WI,58.16289917473987,NA,NA
54220,Manitowoc County,WI,NA,90.7936507936508,NA
54301,Brown County,WI,73.66343738787226,NA,NA
54302,Brown County,WI,19.268030139935412,NA,NA
54304,Brown County,WI,34.91209185504126,NA,NA
54311,Brown County,WI,82.9924650161464,NA,NA
54313,Brown County,WI,86.79583781844276,NA,NA
54403,Marathon County,WI,28.274129888769284,NA,NA
54452,Lincoln County,WI,52.27843559382849,NA,NA
54467,Portage County,WI,37.78256189451022,NA,NA
54482,Portage County,WI,NA,99.20634920634922,NA
54534,Iron County,WI,98.17007534983854,NA,NA
54615,Jackson County,WI,87.26228919985648,NA,NA
54650,La Crosse County,WI,41.76533907427341,NA,NA
54656,Monroe County,WI,32.83100107642626,NA,NA
54701,Eau Claire County,WI,66.16433440975959,NA,NA
54720,Eau Claire County,WI,97.918909221385,NA,NA
54728,Barron County,WI,86.25762468604235,NA,NA
54758,Trempealeau County,WI,95.22784355938285,NA,NA
54902,Winnebago County,WI,26.228919985647646,NA,NA
54914,Outagamie County,WI,20.487979906709725,51.11111111111111,NA
54944,Outagamie County,WI,83.20775026910655,NA,NA
54952,Winnebago County,WI,28.919985647649803,NA,NA
54956,Winnebago County,WI,3.946896304269824,NA,NA
82009,Laramie County,WY,65.01614639397201,NA,NA
82633,Converse County,WY,53.71367061356297,NA,NA
82801,Sheridan County,WY,42.08826695371367,NA,NA
