ZipCode,county,state,Adult,Retirement,Geriatric
35004,St. Clair County,AL,NA,68.16143497757847,NA
35022,Jefferson County,AL,90.79956188389924,NA,NA
35031,Blount County,AL,71.30339539978094,NA,NA
35055,Cullman County,AL,51.478641840087626,NA,NA
35085,Chilton County,AL,NA,82.7354260089686,NA
35126,Jefferson County,AL,78.09419496166484,NA,NA
35160,Talladega County,AL,42.168674698795186,70.4035874439462,NA
35206,Jefferson County,AL,56.62650602409639,NA,NA
35216,Jefferson County,AL,50.38335158817087,NA,NA
35226,Jefferson County,AL,NA,18.161434977578477,NA
35405,Tuscaloosa County,AL,NA,39.23766816143498,NA
35406,Tuscaloosa County,AL,69.00328587075575,NA,NA
35594,Marion County,AL,NA,NA,96.7455621301775
35614,Limestone County,AL,70.31763417305586,NA,NA
35633,Lauderdale County,AL,NA,52.46636771300448,NA
35640,Morgan County,AL,28.806133625410734,NA,NA
35749,Madison County,AL,NA,46.63677130044843,NA
35750,Madison County,AL,98.02847754654984,50.89686098654709,NA
35758,Madison County,AL,65.06024096385542,33.18385650224215,NA
35801,Madison County,AL,86.52792990142387,NA,NA
35824,Madison County,AL,NA,97.75784753363229,NA
35962,DeKalb County,AL,NA,NA,99.70414201183432
36054,Elmore County,AL,NA,83.07174887892377,NA
36203,Calhoun County,AL,NA,73.65470852017937,NA
36251,Clay County,AL,NA,NA,89.3491124260355
36303,Houston County,AL,52.026286966046,34.753363228699556,NA
36360,Dale County,AL,42.38773274917853,NA,NA
36420,Covington County,AL,NA,NA,60.946745562130175
36421,Covington County,AL,NA,NA,65.38461538461539
36526,Baldwin County,AL,47.31653888280395,NA,NA
36549,Baldwin County,AL,NA,62.33183856502242,NA
36567,Baldwin County,AL,NA,NA,62.721893491124256
36572,Mobile County,AL,NA,97.30941704035875,NA
36582,Mobile County,AL,43.921139101861996,NA,NA
36587,Mobile County,AL,76.34173055859803,NA,NA
36608,Mobile County,AL,38.77327491785323,NA,NA
36695,Mobile County,AL,NA,25.448430493273545,NA
36832,Lee County,AL,NA,94.50672645739911,NA
36863,Chambers County,AL,NA,58.18385650224215,NA
99603,Kenai Peninsula Borough,AK,NA,NA,68.93491124260355
99701,Fairbanks North Star Borough,AK,NA,63.56502242152467,NA
85016,Maricopa County,AZ,NA,29.596412556053814,NA
85028,Maricopa County,AZ,76.12267250821468,NA,NA
85032,Maricopa County,AZ,NA,21.748878923766814,NA
85041,Maricopa County,AZ,NA,52.91479820627802,NA
85050,Maricopa County,AZ,NA,74.66367713004485,NA
85123,Pinal County,AZ,67.25082146768894,NA,NA
85131,Pinal County,AZ,NA,65.80717488789237,NA
85201,Maricopa County,AZ,NA,NA,35.798816568047336
85207,Maricopa County,AZ,NA,22.869955156950674,NA
85209,Maricopa County,AZ,NA,53.139013452914796,NA
85298,Maricopa County,AZ,NA,54.48430493273543,NA
85331,Maricopa County,AZ,NA,46.300448430493276,59.76331360946746
85338,Maricopa County,AZ,28.58707557502738,NA,NA
85339,Maricopa County,AZ,16.42935377875137,NA,NA
85345,Maricopa County,AZ,NA,NA,83.13609467455622
85351,Maricopa County,AZ,NA,NA,0.8875739644970414
85365,Yuma County,AZ,NA,16.928251121076233,NA
85374,Maricopa County,AZ,NA,15.695067264573993,NA
85379,Maricopa County,AZ,24.644030668127055,NA,NA
85383,Maricopa County,AZ,55.312157721796275,NA,NA
85602,Cochise County,AZ,81.81818181818183,NA,NA
85607,Cochise County,AZ,NA,40.134529147982065,NA
85614,Pima County,AZ,NA,NA,3.8461538461538463
85706,Pima County,AZ,2.190580503833516,NA,NA
85719,Pima County,AZ,61.88389923329682,32.847533632286996,NA
85742,Pima County,AZ,NA,NA,82.24852071005917
85743,Pima County,AZ,35.26834611171961,NA,NA
85745,Pima County,AZ,70.86527929901423,NA,63.609467455621306
85937,Navajo County,AZ,81.05147864184009,NA,NA
86326,Yavapai County,AZ,NA,51.34529147982063,NA
86336,Yavapai County,AZ,NA,80.26905829596413,NA
86409,Mohave County,AZ,27.710843373493976,NA,NA
71639,Desha County,AR,92.11391018619935,NA,NA
71671,Bradley County,AR,NA,80.71748878923766,NA
71909,Garland County,AR,NA,26.905829596412556,NA
72015,Saline County,AR,NA,60.65022421524664,NA
72076,Pulaski County,AR,85.98028477546549,NA,NA
72501,Independence County,AR,NA,53.81165919282511,NA
72601,Boone County,AR,NA,NA,53.84615384615385
72701,Washington County,AR,59.14567360350493,62.10762331838565,NA
72712,Benton County,AR,89.92332968236583,35.874439461883405,NA
72714,Benton County,AR,NA,60.87443946188341,NA
72715,Benton County,AR,NA,NA,20.118343195266274
72730,Washington County,AR,95.07119386637459,NA,NA
72734,Benton County,AR,91.67579408543264,NA,NA
72753,Washington County,AR,87.18510405257393,NA,NA
72761,Benton County,AR,72.3986856516977,NA,NA
72762,Washington County,AR,NA,52.130044843049326,NA
72764,Washington County,AR,31.544359255202632,48.87892376681614,NA
72936,Sebastian County,AR,71.74151150054765,NA,NA
72947,Crawford County,AR,NA,93.38565022421524,NA
72956,Crawford County,AR,45.78313253012048,NA,NA
90006,Los Angeles County,CA,NA,79.03587443946188,NA
90023,Los Angeles County,CA,31.32530120481928,NA,NA
90035,Los Angeles County,CA,NA,31.053811659192824,NA
90064,Los Angeles County,CA,NA,43.27354260089686,NA
90069,Los Angeles County,CA,NA,43.946188340807176,NA
90255,Los Angeles County,CA,NA,55.381165919282516,NA
90277,Los Angeles County,CA,NA,26.79372197309417,NA
90291,Los Angeles County,CA,NA,NA,67.15976331360946
90303,Los Angeles County,CA,NA,98.31838565022422,NA
90305,Los Angeles County,CA,NA,NA,93.49112426035504
90405,Los Angeles County,CA,NA,47.75784753363229,NA
90803,Los Angeles County,CA,73.2749178532311,NA,NA
91001,Los Angeles County,CA,53.01204819277109,NA,NA
91104,Los Angeles County,CA,38.66374589266155,NA,NA
91325,Los Angeles County,CA,74.15115005476451,NA,NA
91340,Los Angeles County,CA,58.59802847754655,NA,NA
91344,Los Angeles County,CA,72.17962760131435,NA,NA
91702,Los Angeles County,CA,NA,37.55605381165919,NA
91710,San Bernardino County,CA,NA,15.919282511210762,NA
91724,Los Angeles County,CA,69.76998904709748,NA,NA
91740,Los Angeles County,CA,NA,46.860986547085204,NA
91766,Los Angeles County,CA,NA,NA,32.544378698224854
92056,San Diego County,CA,NA,27.130044843049326,NA
92109,San Diego County,CA,NA,NA,55.62130177514793
92118,San Diego County,CA,NA,NA,36.3905325443787
92220,Riverside County,CA,NA,NA,25.7396449704142
92260,Riverside County,CA,NA,40.91928251121077,NA
92270,Riverside County,CA,NA,NA,39.94082840236686
92284,San Bernardino County,CA,NA,NA,56.50887573964497
92316,San Bernardino County,CA,47.754654983570646,NA,NA
92345,San Bernardino County,CA,8.32420591456736,NA,NA
92399,San Bernardino County,CA,NA,NA,77.81065088757396
92596,Riverside County,CA,NA,NA,86.68639053254438
92620,Orange County,CA,NA,37.44394618834081,NA
92627,Orange County,CA,15.991237677984666,NA,NA
92647,Orange County,CA,NA,NA,94.37869822485207
92649,Orange County,CA,NA,24.103139013452914,NA
92704,Orange County,CA,27.601314348302303,NA,NA
92705,Orange County,CA,NA,46.52466367713004,NA
92840,Orange County,CA,NA,31.614349775784756,NA
92865,Orange County,CA,NA,NA,94.0828402366864
93003,Ventura County,CA,NA,17.040358744394617,NA
93060,Ventura County,CA,NA,NA,66.5680473372781
93065,Ventura County,CA,40.525739320920046,NA,NA
93306,Kern County,CA,15.88170865279299,NA,NA
93436,Santa Barbara County,CA,NA,NA,13.313609467455622
93505,Kern County,CA,NA,93.27354260089686,NA
93561,Kern County,CA,68.23658269441401,NA,NA
93618,Tulare County,CA,78.97042716319824,NA,NA
93728,Fresno County,CA,NA,73.99103139013454,NA
93907,Monterey County,CA,NA,NA,67.45562130177515
94025,San Mateo County,CA,NA,62.78026905829597,NA
94061,San Mateo County,CA,NA,85.31390134529147,NA
94109,San Francisco County,CA,NA,NA,4.437869822485207
94115,San Francisco County,CA,NA,NA,11.834319526627219
94558,Napa County,CA,58.48849945235487,NA,NA
94595,Contra Costa County,CA,NA,NA,9.467455621301776
94705,Alameda County,CA,NA,NA,75.44378698224851
95008,Santa Clara County,CA,NA,42.71300448430493,NA
95030,Santa Clara County,CA,96.3855421686747,NA,NA
95037,Santa Clara County,CA,NA,27.3542600896861,NA
95112,Santa Clara County,CA,64.95071193866374,35.08968609865471,NA
95123,Santa Clara County,CA,NA,71.52466367713004,NA
95128,Santa Clara County,CA,29.791894852135815,NA,NA
95148,Santa Clara County,CA,NA,67.71300448430493,NA
95202,San Joaquin County,CA,23.986856516977,NA,NA
95354,Stanislaus County,CA,27.82037239868565,NA,NA
95407,Sonoma County,CA,NA,76.45739910313901,NA
95409,Sonoma County,CA,NA,71.63677130044843,13.905325443786982
95457,Lake County,CA,NA,91.81614349775785,NA
95661,Placer County,CA,NA,47.869955156950674,NA
95726,El Dorado County,CA,NA,NA,88.75739644970415
95757,Sacramento County,CA,NA,NA,59.46745562130178
95762,El Dorado County,CA,46.33077765607886,NA,NA
95818,Sacramento County,CA,89.37568455640745,NA,NA
95821,Sacramento County,CA,NA,NA,71.59763313609467
95901,Yuba County,CA,18.29134720700986,NA,NA
95948,Butte County,CA,76.77984665936474,NA,NA
95954,Butte County,CA,34.50164293537787,84.75336322869956,NA
95966,Butte County,CA,8.433734939759036,NA,25.7396449704142
95969,Butte County,CA,NA,5.493273542600897,NA
96002,Shasta County,CA,NA,82.17488789237667,NA
80010,Arapahoe County,CO,NA,NA,85.20710059171599
80011,Arapahoe County,CO,NA,NA,75.44378698224851
80013,Arapahoe County,CO,8.105147864184008,NA,NA
80020,Broomfield County,CO,NA,NA,97.92899408284023
80023,Broomfield County,CO,96.27601314348301,NA,NA
80109,Douglas County,CO,NA,57.28699551569507,NA
80130,Douglas County,CO,NA,98.4304932735426,NA
80134,Douglas County,CO,53.88828039430449,NA,NA
80138,Douglas County,CO,78.20372398685652,NA,NA
80202,Denver County,CO,48.30230010952902,NA,NA
80212,Denver County,CO,NA,62.21973094170403,NA
80214,Jefferson County,CO,35.26834611171961,NA,NA
80215,Jefferson County,CO,61.33625410733844,NA,NA
80216,Denver County,CO,95.29025191675794,NA,NA
80219,Denver County,CO,52.245345016429354,NA,NA
80221,Adams County,CO,77.4370208105148,89.91031390134529,NA
80228,Jefferson County,CO,50.602409638554214,NA,NA
80232,Jefferson County,CO,NA,88.2286995515695,NA
80238,Denver County,CO,NA,97.6457399103139,NA
80247,Arapahoe County,CO,81.59912376779846,NA,93.49112426035504
80249,Denver County,CO,NA,66.4798206278027,NA
80301,Boulder County,CO,NA,67.04035874439462,NA
80303,Boulder County,CO,NA,60.42600896860987,NA
80439,Jefferson County,CO,79.62760131434831,NA,NA
80503,Boulder County,CO,NA,47.08520179372198,NA
80525,Larimer County,CO,12.814895947426066,NA,NA
80534,Weld County,CO,64.18400876232202,NA,NA
80601,Adams County,CO,NA,89.23766816143498,NA
80631,Weld County,CO,49.17853231106243,NA,NA
80701,Morgan County,CO,NA,39.46188340807175,NA
80723,Morgan County,CO,NA,64.12556053811659,NA
80909,El Paso County,CO,NA,43.04932735426009,NA
80918,El Paso County,CO,40.854326396495075,NA,NA
81004,Pueblo County,CO,NA,24.663677130044842,NA
81005,Pueblo County,CO,NA,19.394618834080717,NA
81052,Prowers County,CO,82.14676889375684,NA,NA
81082,Las Animas County,CO,NA,66.03139013452915,NA
81101,Alamosa County,CO,70.31763417305586,NA,NA
81144,Rio Grande County,CO,87.84227820372399,NA,NA
81201,Chaffee County,CO,80.17524644030668,NA,NA
81212,Fremont County,CO,NA,46.18834080717489,NA
81230,Gunnison County,CO,89.1566265060241,NA,NA
81301,La Plata County,CO,NA,NA,51.183431952662716
81323,Montezuma County,CO,NA,86.65919282511211,NA
81623,Garfield County,CO,NA,NA,90.23668639053254
81625,Moffat County,CO,NA,51.90582959641256,NA
06002,Hartford County,CT,44.24972617743702,NA,NA
06010,Hartford County,CT,NA,NA,2.9585798816568047
06066,Tolland County,CT,14.56736035049288,NA,NA
06074,Hartford County,CT,80.28477546549836,NA,NA
06234,Windham County,CT,58.15991237677984,NA,NA
06238,Tolland County,CT,NA,NA,80.1775147928994
06405,New Haven County,CT,35.15881708652793,NA,NA
06443,New Haven County,CT,NA,58.856502242152466,NA
06457,Middlesex County,CT,46.22124863088718,NA,NA
06473,New Haven County,CT,NA,26.121076233183853,NA
06482,Fairfield County,CT,NA,84.64125560538116,NA
06513,New Haven County,CT,NA,52.578475336322875,NA
06516,New Haven County,CT,5.695509309967141,NA,NA
06519,New Haven County,CT,68.89375684556407,NA,NA
06706,New Haven County,CT,NA,57.0627802690583,NA
06708,New Haven County,CT,NA,28.923766816143498,NA
06790,Litchfield County,CT,4.928806133625411,1.345291479820628,NA
06811,Fairfield County,CT,NA,22.982062780269057,NA
06830,Fairfield County,CT,NA,NA,11.538461538461538
19711,New Castle County,DE,NA,NA,16.56804733727811
19720,New Castle County,DE,NA,38.11659192825112,NA
19802,New Castle County,DE,58.92661555312158,NA,NA
19808,New Castle County,DE,NA,18.497757847533634,NA
19956,Sussex County,DE,NA,41.143497757847534,NA
19958,Sussex County,DE,28.148959474260675,3.1390134529147984,NA
19973,Sussex County,DE,NA,49.2152466367713,NA
19975,Sussex County,DE,NA,47.869955156950674,NA
32011,Nassau County,FL,89.48521358159913,NA,NA
32034,Nassau County,FL,NA,7.062780269058296,NA
32207,Duval County,FL,NA,8.74439461883408,NA
32208,Duval County,FL,NA,4.708520179372197,72.18934911242604
32209,Duval County,FL,NA,NA,13.609467455621301
32219,Duval County,FL,39.75903614457831,NA,NA
32225,Duval County,FL,NA,NA,66.27218934911244
32311,Leon County,FL,NA,NA,87.27810650887574
32404,Bay County,FL,NA,NA,57.98816568047337
32535,Escambia County,FL,75.13691128148959,NA,NA
32606,Alachua County,FL,NA,23.20627802690583,NA
32643,Alachua County,FL,NA,NA,95.26627218934911
32667,Alachua County,FL,96.93318729463309,NA,NA
32724,Volusia County,FL,NA,19.394618834080717,NA
32757,Lake County,FL,NA,NA,35.20710059171598
32765,Seminole County,FL,52.354874041621024,NA,NA
32778,Lake County,FL,NA,22.08520179372197,NA
32780,Brevard County,FL,NA,13.67713004484305,NA
32806,Orange County,FL,NA,71.18834080717488,NA
32811,Orange County,FL,17.524644030668128,NA,NA
32825,Orange County,FL,26.72508214676889,12.556053811659194,NA
32955,Brevard County,FL,NA,69.28251121076234,NA
32962,Indian River County,FL,74.91785323110625,NA,NA
32976,Brevard County,FL,NA,NA,18.93491124260355
33031,Miami-Dade County,FL,NA,91.4798206278027,NA
33055,Miami-Dade County,FL,NA,NA,52.662721893491124
33064,Broward County,FL,31.434830230010952,NA,NA
33068,Broward County,FL,NA,NA,73.37278106508876
33149,Miami-Dade County,FL,93.6473165388828,NA,NA
33442,Broward County,FL,NA,84.86547085201794,NA
33467,Palm Beach County,FL,52.46440306681271,NA,NA
33469,Palm Beach County,FL,NA,49.775784753363226,NA
33477,Palm Beach County,FL,NA,NA,40.532544378698226
33596,Hillsborough County,FL,NA,52.242152466367706,76.92307692307693
33610,Hillsborough County,FL,NA,32.062780269058294,NA
33629,Hillsborough County,FL,66.81270536692223,NA,NA
33647,Hillsborough County,FL,NA,39.125560538116595,NA
33707,Pinellas County,FL,NA,NA,22.781065088757398
33756,Pinellas County,FL,NA,32.17488789237668,NA
33778,Pinellas County,FL,NA,58.744394618834086,NA
33852,Highlands County,FL,NA,16.47982062780269,NA
33860,Polk County,FL,NA,56.502242152466366,NA
33876,Highlands County,FL,NA,85.42600896860986,NA
33897,Polk County,FL,NA,84.97757847533633,NA
33905,Lee County,FL,63.74589266155532,NA,NA
33931,Lee County,FL,NA,NA,55.917159763313606
33936,Lee County,FL,NA,53.92376681614349,NA
34134,Lee County,FL,NA,NA,37.8698224852071
34135,Lee County,FL,75.5750273822563,NA,NA
34205,Manatee County,FL,28.258488499452355,NA,NA
34240,Sarasota County,FL,NA,82.62331838565022,NA
34243,Manatee County,FL,54.43592552026287,NA,NA
34293,Sarasota County,FL,NA,5.15695067264574,NA
34654,Pasco County,FL,42.82584884994524,NA,NA
34655,Pasco County,FL,NA,21.41255605381166,70.41420118343196
34736,Lake County,FL,69.87951807228916,NA,NA
34997,Martin County,FL,NA,NA,5.325443786982249
30025,Walton County,GA,73.60350492880613,NA,NA
30035,DeKalb County,GA,NA,NA,96.15384615384616
30058,DeKalb County,GA,65.38882803943045,NA,NA
30080,Cobb County,GA,77.76560788608981,NA,NA
30101,Cobb County,GA,21.139101861993428,NA,NA
30127,Cobb County,GA,NA,25.784753363228702,NA
30143,Pickens County,GA,NA,30.15695067264574,NA
30152,Cobb County,GA,51.69769989047097,37.780269058295964,NA
30189,Cherokee County,GA,49.39759036144578,NA,NA
30215,Fayette County,GA,NA,NA,42.89940828402367
30223,Spalding County,GA,NA,63.00448430493274,NA
30233,Butts County,GA,NA,44.17040358744394,NA
30240,Troup County,GA,NA,53.139013452914796,NA
30253,Henry County,GA,NA,45.62780269058296,NA
30265,Coweta County,GA,47.31653888280395,NA,NA
30276,Coweta County,GA,NA,67.60089686098655,NA
30277,Coweta County,GA,NA,60.42600896860987,NA
30316,DeKalb County,GA,50.05476451259584,NA,NA
30324,Fulton County,GA,92.66155531215772,92.71300448430493,NA
30327,Fulton County,GA,NA,63.22869955156951,58.57988165680473
30338,DeKalb County,GA,NA,90.80717488789237,NA
30417,Evans County,GA,79.1894852135816,NA,NA
30457,Treutlen County,GA,NA,90.13452914798206,NA
30533,Lumpkin County,GA,61.117196056955095,NA,NA
30540,Gilmer County,GA,NA,NA,47.337278106508876
30567,Jackson County,GA,98.6856516976999,NA,NA
30582,Towns County,GA,NA,94.39461883408072,NA
30635,Elbert County,GA,59.036144578313255,NA,NA
30707,Walker County,GA,NA,54.59641255605381,NA
30738,Dade County,GA,91.45673603504929,NA,NA
30752,Dade County,GA,82.03723986856517,NA,NA
30814,Columbia County,GA,NA,74.10313901345292,NA
31021,Laurens County,GA,81.70865279299015,NA,NA
31023,Dodge County,GA,NA,63.789237668161434,NA
31092,Dooly County,GA,82.58488499452355,NA,NA
31204,Bibb County,GA,27.053669222343924,NA,NA
31216,Bibb County,GA,NA,78.81165919282512,NA
31501,Ware County,GA,NA,54.26008968609865,NA
31643,Brooks County,GA,NA,NA,64.49704142011834
31705,Dougherty County,GA,NA,22.309417040358746,NA
31791,Worth County,GA,77.8751369112815,NA,NA
31793,Tift County,GA,NA,80.15695067264575,NA
31794,Tift County,GA,22.234392113910186,14.798206278026907,39.053254437869825
31820,Muscogee County,GA,NA,77.91479820627802,NA
31833,Troup County,GA,NA,87.89237668161435,NA
39837,Miller County,GA,69.44140197152245,NA,NA
96701,Honolulu County,HI,28.477546549835708,NA,NA
96817,Honolulu County,HI,NA,4.820627802690583,NA
96819,Honolulu County,HI,13.472070098576122,NA,NA
96821,Honolulu County,HI,NA,64.91031390134529,NA
83221,Bingham County,ID,22.12486308871851,15.134529147982063,NA
83301,Twin Falls County,ID,NA,9.304932735426009,NA
83401,Bonneville County,ID,71.85104052573932,NA,NA
83404,Bonneville County,ID,NA,NA,50.29585798816568
83440,Madison County,ID,98.79518072289156,NA,NA
83442,Jefferson County,ID,NA,68.04932735426009,89.94082840236686
83467,Lemhi County,ID,NA,62.33183856502242,NA
83605,Canyon County,ID,73.71303395399781,NA,NA
83607,Canyon County,ID,NA,74.32735426008968,NA
83616,Ada County,ID,75.46549835706462,7.847533632286996,NA
83617,Gem County,ID,NA,40.582959641255606,NA
83642,Ada County,ID,44.359255202628695,5.941704035874439,34.61538461538461
83646,Ada County,ID,55.09309967141293,5.2690582959641254,NA
83647,Elmore County,ID,NA,71.8609865470852,NA
83660,Canyon County,ID,NA,97.42152466367713,NA
83669,Ada County,ID,NA,91.70403587443946,98.81656804733728
83687,Canyon County,ID,16.97699890470975,NA,NA
83704,Ada County,ID,14.019715224534501,2.4663677130044843,NA
83705,Ada County,ID,56.736035049288056,61.43497757847533,NA
83706,Ada County,ID,23.658269441401973,68.60986547085201,NA
83709,Ada County,ID,NA,NA,4.733727810650888
83716,Ada County,ID,46.98795180722892,NA,NA
83814,Kootenai County,ID,NA,66.3677130044843,29.88165680473373
83815,Kootenai County,ID,NA,16.143497757847534,NA
60013,McHenry County,IL,NA,NA,50
60033,McHenry County,IL,NA,66.4798206278027,NA
60035,Lake County,IL,NA,NA,38.16568047337278
60046,Lake County,IL,NA,20.964125560538115,NA
60047,Lake County,IL,30.996714129244253,NA,NA
60062,Cook County,IL,NA,4.147982062780269,NA
60091,Cook County,IL,65.6078860898138,NA,NA
60131,Cook County,IL,68.12705366922235,NA,NA
60134,Kane County,IL,NA,35.76233183856502,NA
60169,Cook County,IL,42.82584884994524,NA,NA
60403,Will County,IL,54.87404162102957,NA,NA
60409,Cook County,IL,NA,NA,33.13609467455622
60416,Grundy County,IL,56.078860898138004,NA,NA
60423,Will County,IL,NA,18.946188340807176,NA
60458,Cook County,IL,NA,58.29596412556054,NA
60491,Will County,IL,63.41730558598029,NA,NA
60517,DuPage County,IL,32.968236582694416,NA,NA
60559,DuPage County,IL,NA,87.78026905829597,NA
60610,Cook County,IL,NA,NA,55.02958579881657
60615,Cook County,IL,NA,NA,80.76923076923077
60621,Cook County,IL,29.353778751369113,NA,NA
60623,Cook County,IL,NA,NA,65.97633136094674
60629,Cook County,IL,54.7645125958379,NA,NA
60630,Cook County,IL,68.67469879518072,NA,NA
60638,Cook County,IL,NA,30.717488789237667,NA
61073,Winnebago County,IL,60.13143483023001,34.52914798206278,NA
61107,Winnebago County,IL,NA,26.23318385650224,NA
61108,Winnebago County,IL,NA,NA,25.14792899408284
61109,Winnebago County,IL,40.08762322015334,NA,NA
61114,Winnebago County,IL,NA,91.14349775784754,NA
61254,Henry County,IL,91.78532311062432,NA,NA
61264,Rock Island County,IL,87.62322015334063,NA,NA
61265,Rock Island County,IL,41.40197152245345,NA,NA
61520,Fulton County,IL,NA,48.318385650224215,30.76923076923077
61546,Mason County,IL,NA,100,NA
61554,Tazewell County,IL,75.35596933187296,NA,NA
61603,Peoria County,IL,62.21248630887185,NA,NA
61614,Peoria County,IL,96.05695509309967,NA,NA
61615,Peoria County,IL,90.25191675794085,NA,NA
61761,McLean County,IL,NA,NA,31.952662721893493
61801,Champaign County,IL,NA,NA,45.26627218934911
61821,Champaign County,IL,35.70646221248631,NA,NA
61832,Vermilion County,IL,NA,54.82062780269058,NA
61846,Vermilion County,IL,NA,68.49775784753363,NA
61856,Piatt County,IL,91.894852135816,NA,NA
62002,Madison County,IL,NA,65.24663677130044,14.201183431952662
62025,Madison County,IL,NA,36.210762331838566,NA
62033,Macoupin County,IL,NA,75.44843049327355,NA
62223,St. Clair County,IL,66.4841182913472,NA,NA
62549,Macon County,IL,NA,75.89686098654708,NA
62557,Christian County,IL,83.35158817086527,NA,NA
62702,Sangamon County,IL,20.700985761226725,NA,NA
62703,Sangamon County,IL,NA,23.99103139013453,NA
62704,Sangamon County,IL,73.49397590361446,24.43946188340807,13.017751479289942
62901,Jackson County,IL,NA,72.19730941704036,NA
62906,Union County,IL,84.44687842278204,NA,NA
46011,Madison County,IN,45.2354874041621,NA,NA
46016,Madison County,IN,39.43044906900329,NA,NA
46052,Boone County,IN,36.25410733844468,NA,NA
46069,Hamilton County,IN,NA,96.8609865470852,NA
46123,Hendricks County,IN,43.70208105147864,NA,NA
46140,Hancock County,IN,NA,15.022421524663676,NA
46151,Morgan County,IN,NA,NA,28.402366863905325
46158,Morgan County,IN,NA,23.430493273542602,NA
46168,Hendricks County,IN,33.406352683461115,NA,NA
46176,Shelby County,IN,NA,NA,8.579881656804734
46204,Marion County,IN,NA,83.96860986547085,NA
46205,Marion County,IN,30.339539978094194,NA,NA
46218,Marion County,IN,7.338444687842278,NA,NA
46224,Marion County,IN,NA,42.937219730941706,NA
46226,Marion County,IN,NA,12.10762331838565,23.37278106508876
46229,Marion County,IN,18.400876232201533,NA,NA
46237,Marion County,IN,NA,NA,14.497041420118343
46241,Marion County,IN,15.772179627601316,NA,NA
46256,Marion County,IN,NA,36.88340807174888,NA
46268,Marion County,IN,39.539978094194964,NA,NA
46304,Porter County,IN,NA,14.573991031390134,NA
46307,Lake County,IN,1.095290251916758,NA,NA
46312,Lake County,IN,13.362541073384445,NA,NA
46341,Porter County,IN,57.831325301204814,NA,NA
46350,LaPorte County,IN,6.790799561883899,5.605381165919283,NA
46368,Porter County,IN,NA,0.672645739910314,NA
46375,Lake County,IN,27.163198247535597,NA,NA
46383,Porter County,IN,NA,3.811659192825112,NA
46410,Lake County,IN,NA,NA,23.964497041420117
46540,Elkhart County,IN,86.96604600219058,NA,NA
46619,St. Joseph County,IN,NA,NA,73.07692307692307
46703,Steuben County,IN,47.53559693318729,NA,NA
46733,Adams County,IN,36.144578313253014,NA,NA
46783,Huntington County,IN,83.13253012048193,NA,NA
46804,Allen County,IN,72.07009857612267,NA,NA
46806,Allen County,IN,NA,32.17488789237668,NA
46814,Allen County,IN,92.7710843373494,NA,NA
46835,Allen County,IN,NA,NA,26.923076923076923
46845,Allen County,IN,NA,39.686098654708516,NA
46901,Howard County,IN,1.4238773274917853,NA,NA
46902,Howard County,IN,2.9572836801752467,NA,7.100591715976331
46923,Carroll County,IN,95.61883899233297,NA,NA
46947,Cass County,IN,NA,36.771300448430495,NA
46952,Grant County,IN,NA,NA,53.84615384615385
46953,Grant County,IN,33.07776560788609,NA,NA
46970,Miami County,IN,7.5575027382256295,NA,NA
46975,Fulton County,IN,NA,NA,60.35502958579882
46992,Wabash County,IN,NA,35.98654708520179,NA
47012,Franklin County,IN,NA,NA,79.28994082840237
47112,Harrison County,IN,NA,49.43946188340807,NA
47130,Clark County,IN,NA,3.923766816143498,NA
47201,Bartholomew County,IN,33.9539978094195,NA,NA
47220,Jackson County,IN,NA,91.03139013452915,NA
47331,Fayette County,IN,NA,10.31390134529148,9.171597633136095
47348,Blackford County,IN,60.67907995618839,NA,NA
47362,Henry County,IN,NA,37.89237668161435,NA
47401,Monroe County,IN,60.460021905805036,NA,NA
47403,Monroe County,IN,56.40744797371303,NA,NA
47441,Greene County,IN,93.09967141292442,NA,NA
47501,Daviess County,IN,30.66812705366922,NA,NA
47591,Knox County,IN,NA,NA,16.272189349112427
47725,Vanderburgh County,IN,NA,61.54708520179371,NA
47960,White County,IN,NA,NA,37.278106508875744
50010,Story County,IA,NA,65.5829596412556,NA
50112,Poweshiek County,IA,NA,NA,84.02366863905326
50125,Warren County,IA,63.96495071193866,NA,NA
50126,Hardin County,IA,82.8039430449069,NA,NA
50138,Marion County,IA,NA,52.690582959641254,NA
50158,Marshall County,IA,20.59145673603505,NA,NA
50311,Polk County,IA,NA,93.60986547085201,NA
50315,Polk County,IA,27.92990142387733,NA,NA
50322,Polk County,IA,57.17415115005476,NA,NA
50401,Cerro Gordo County,IA,9.748083242059145,NA,1.7751479289940828
50595,Hamilton County,IA,NA,81.95067264573991,NA
50659,Chickasaw County,IA,NA,NA,68.04733727810651
51002,Buena Vista County,IA,97.80941949616648,NA,NA
51012,Cherokee County,IA,NA,90.02242152466367,NA
51040,Monona County,IA,NA,98.87892376681614,NA
51106,Woodbury County,IA,NA,42.04035874439462,NA
51301,Clay County,IA,48.63088718510406,NA,NA
51334,Emmet County,IA,NA,73.31838565022422,NA
51401,Carroll County,IA,NA,82.847533632287,NA
51501,Pottawattamie County,IA,NA,8.183856502242152,NA
51503,Pottawattamie County,IA,NA,3.0269058295964126,24.85207100591716
51632,Page County,IA,74.04162102957284,NA,38.75739644970414
52241,Johnson County,IA,41.292442497261774,NA,NA
52577,Mahaska County,IA,NA,36.99551569506727,NA
52804,Scott County,IA,42.49726177437021,NA,NA
52807,Scott County,IA,NA,NA,87.86982248520711
66046,Douglas County,KS,NA,75.44843049327355,NA
66101,Wyandotte County,KS,NA,79.37219730941703,NA
66103,Wyandotte County,KS,72.83680175246441,NA,NA
66205,Johnson County,KS,NA,58.63228699551569,NA
66214,Johnson County,KS,87.07557502738226,NA,NA
66215,Johnson County,KS,NA,NA,71.89349112426035
66219,Johnson County,KS,85.21358159912377,NA,NA
66223,Johnson County,KS,83.6801752464403,NA,NA
66701,Bourbon County,KS,60.788608981380065,NA,NA
66725,Cherokee County,KS,88.38992332968236,NA,NA
66762,Crawford County,KS,62.4315443592552,NA,NA
67062,Harvey County,KS,98.35706462212487,NA,NA
67114,Harvey County,KS,76.56078860898138,NA,NA
67357,Labette County,KS,44.57831325301205,NA,81.36094674556213
67401,Saline County,KS,NA,17.825112107623315,NA
67601,Ellis County,KS,NA,15.47085201793722,NA
67901,Seward County,KS,NA,66.14349775784754,NA
40031,Oldham County,KY,59.91237677984665,NA,NA
40047,Bullitt County,KY,NA,75.22421524663677,NA
40071,Spencer County,KY,79.84665936473165,NA,NA
40118,Jefferson County,KY,50.492880613362544,NA,NA
40165,Bullitt County,KY,11.171960569550931,NA,NA
40204,Jefferson County,KY,NA,NA,82.24852071005917
40207,Jefferson County,KY,NA,60.65022421524664,NA
40211,Jefferson County,KY,NA,31.726457399103143,NA
40229,Jefferson County,KY,9.967141292442497,NA,NA
40241,Jefferson County,KY,NA,34.97757847533632,NA
40258,Jefferson County,KY,NA,33.408071748878925,NA
40272,Jefferson County,KY,NA,13.11659192825112,NA
40291,Jefferson County,KY,NA,14.461883408071749,NA
40311,Nicholas County,KY,69.6604600219058,NA,NA
40351,Rowan County,KY,16.64841182913472,12.331838565022421,NA
40380,Powell County,KY,NA,86.43497757847534,NA
40391,Clark County,KY,6.352683461117197,9.52914798206278,NA
40403,Madison County,KY,51.36911281489594,35.53811659192825,NA
40977,Bell County,KY,49.835706462212485,NA,NA
41075,Campbell County,KY,65.6078860898138,NA,NA
41091,Boone County,KY,NA,83.6322869955157,NA
41101,Boyd County,KY,75.02738225629791,NA,NA
41102,Boyd County,KY,NA,48.09417040358744,NA
41175,Greenup County,KY,59.58378970427163,NA,NA
41572,Pike County,KY,NA,91.81614349775785,NA
42001,McCracken County,KY,NA,17.26457399103139,NA
42003,McCracken County,KY,11.938663745892661,NA,NA
42025,Marshall County,KY,NA,36.32286995515695,NA
42066,Graves County,KY,17.74370208105148,NA,NA
42141,Barren County,KY,93.53778751369113,NA,NA
42164,Allen County,KY,65.27929901423877,NA,NA
42167,Monroe County,KY,91.12814895947426,NA,NA
42211,Trigg County,KY,NA,NA,52.366863905325445
42240,Christian County,KY,NA,59.753363228699556,NA
42303,Daviess County,KY,7.667031763417305,NA,NA
42366,Daviess County,KY,NA,86.99551569506725,NA
42431,Hopkins County,KY,17.634173055859804,NA,NA
42503,Pulaski County,KY,NA,49.88789237668161,NA
42701,Hardin County,KY,9.529025191675794,7.623318385650224,31.952662721893493
42717,Cumberland County,KY,NA,85.76233183856502,NA
42718,Taylor County,KY,10.295728368017524,7.511210762331838,NA
42728,Adair County,KY,49.28806133625411,NA,NA
70072,Jefferson Parish,LA,NA,1.7937219730941705,NA
70126,Orleans Parish,LA,NA,17.713004484304935,NA
70128,Orleans Parish,LA,13.800657174151151,NA,NA
70422,Tangipahoa Parish,LA,NA,NA,69.8224852071006
70448,St. Tammany Parish,LA,NA,23.878923766816143,NA
70510,Vermilion Parish,LA,NA,78.81165919282512,NA
70570,St. Landry Parish,LA,0.7667031763417306,37.219730941704036,NA
70601,Calcasieu Parish,LA,9.857612267250822,NA,NA
70634,Beauregard Parish,LA,NA,32.73542600896861,NA
70769,Ascension Parish,LA,7.886089813800658,NA,NA
70791,East Baton Rouge Parish,LA,NA,57.399103139013455,NA
70805,East Baton Rouge Parish,LA,2.5191675794085433,NA,NA
70806,East Baton Rouge Parish,LA,NA,NA,92.01183431952663
70808,East Baton Rouge Parish,LA,71.19386637458926,NA,NA
70809,East Baton Rouge Parish,LA,NA,NA,71.00591715976331
70811,East Baton Rouge Parish,LA,55.202628696604606,NA,NA
71001,Bienville Parish,LA,NA,94.17040358744396,NA
71232,Richland Parish,LA,NA,92.04035874439462,NA
71251,Jackson Parish,LA,42.278203723986856,NA,NA
71417,Grant Parish,LA,82.3658269441402,NA,NA
71457,Natchitoches Parish,LA,NA,20.179372197309416,NA
71485,Rapides Parish,LA,99.78094194961665,NA,NA
04073,York County,ME,52.68346111719606,NA,NA
04079,Cumberland County,ME,NA,84.19282511210763,NA
04210,Androscoggin County,ME,NA,33.74439461883408,NA
04240,Androscoggin County,ME,NA,64.68609865470853,NA
04254,Androscoggin County,ME,NA,95.73991031390135,NA
04280,Androscoggin County,ME,NA,66.81614349775785,NA
04281,Oxford County,ME,NA,56.502242152466366,NA
04282,Androscoggin County,ME,81.27053669222344,NA,NA
04401,Penobscot County,ME,NA,11.771300448430495,NA
04462,Penobscot County,ME,NA,90.24663677130044,NA
04468,Penobscot County,ME,NA,80.49327354260089,NA
04736,Aroostook County,ME,NA,NA,27.218934911242602
04756,Aroostook County,ME,83.89923329682367,NA,NA
04769,Aroostook County,ME,83.02300109529025,NA,NA
04915,Waldo County,ME,NA,77.3542600896861,NA
20646,Charles County,MD,NA,74.88789237668162,NA
20650,St. Mary's County,MD,77.65607886089813,NA,NA
20653,St. Mary's County,MD,84.44687842278204,70.17937219730942,NA
20772,Prince George's County,MD,NA,45.2914798206278,NA
20785,Prince George's County,MD,50.930996714129236,NA,NA
20815,Montgomery County,MD,NA,68.83408071748879,NA
20817,Montgomery County,MD,75.24644030668128,NA,NA
20832,Montgomery County,MD,77.8751369112815,NA,NA
21030,Baltimore County,MD,NA,NA,66.86390532544378
21061,Anne Arundel County,MD,NA,22.08520179372197,NA
21131,Baltimore County,MD,NA,85.20179372197309,NA
21133,Baltimore County,MD,NA,43.609865470852014,NA
21157,Carroll County,MD,45.56407447973713,NA,NA
21158,Carroll County,MD,80.72289156626506,NA,NA
21162,Baltimore County,MD,97.91894852135816,NA,NA
21206,Baltimore city,MD,NA,9.192825112107624,NA
21208,Baltimore County,MD,NA,NA,64.20118343195266
21215,Baltimore city,MD,6.133625410733845,7.286995515695067,NA
21216,Baltimore city,MD,NA,18.83408071748879,NA
21217,Baltimore city,MD,NA,14.125560538116591,NA
21220,Baltimore County,MD,NA,25.56053811659193,NA
21222,Baltimore County,MD,35.48740416210296,NA,NA
21224,Baltimore city,MD,13.143483023001096,NA,NA
21229,Baltimore city,MD,44.7973713033954,49.10313901345291,NA
21244,Baltimore County,MD,38.4446878422782,NA,NA
21401,Anne Arundel County,MD,NA,NA,19.526627218934912
21638,Queen Anne's County,MD,92.88061336254107,NA,NA
21673,Talbot County,MD,99.45235487404163,NA,NA
21771,Frederick County,MD,NA,82.28699551569507,NA
21842,Worcester County,MD,NA,53.69955156950673,NA
21875,Wicomico County,MD,NA,91.59192825112108,NA
01013,Hampden County,MA,NA,10.874439461883407,NA
01107,Hampden County,MA,87.95180722891565,NA,NA
01119,Hampden County,MA,NA,40.69506726457399,NA
01129,Hampden County,MA,NA,77.13004484304933,NA
01420,Worcester County,MA,0.21905805038335158,NA,NA
01450,Middlesex County,MA,NA,NA,83.4319526627219
01519,Worcester County,MA,97.48083242059145,NA,NA
01545,Worcester County,MA,14.129244249726177,NA,NA
01568,Worcester County,MA,66.4841182913472,NA,NA
01602,Worcester County,MA,NA,76.5695067264574,NA
01603,Worcester County,MA,0.9857612267250823,NA,NA
01604,Worcester County,MA,NA,13.901345291479823,NA
01702,Middlesex County,MA,NA,NA,5.621301775147929
01720,Middlesex County,MA,NA,26.569506726457398,NA
01752,Middlesex County,MA,2.628696604600219,NA,NA
01754,Middlesex County,MA,62.10295728368017,NA,NA
01760,Middlesex County,MA,NA,29.82062780269058,NA
01841,Essex County,MA,0,NA,NA
01843,Essex County,MA,NA,13.452914798206278,NA
01844,Essex County,MA,NA,2.3542600896860986,NA
01887,Middlesex County,MA,NA,NA,21.301775147928996
01902,Essex County,MA,NA,0.336322869955157,NA
01906,Essex County,MA,2.3001095290251916,NA,NA
01907,Essex County,MA,48.30230010952902,NA,NA
01908,Essex County,MA,99.23329682365826,NA,NA
01982,Essex County,MA,NA,76.90582959641256,NA
02043,Plymouth County,MA,NA,43.49775784753363,NA
02056,Norfolk County,MA,67.14129244249726,NA,NA
02062,Norfolk County,MA,11.281489594742606,NA,NA
02066,Plymouth County,MA,30.230010952902518,NA,NA
02118,Suffolk County,MA,0.10952902519167579,NA,NA
02152,Suffolk County,MA,NA,62.66816143497758,NA
02180,Middlesex County,MA,NA,18.721973094170405,NA
02191,Norfolk County,MA,NA,68.83408071748879,NA
02346,Plymouth County,MA,NA,9.080717488789238,NA
02375,Bristol County,MA,50.821467688937574,NA,NA
02460,Middlesex County,MA,NA,69.95515695067265,NA
02467,Norfolk County,MA,NA,24.2152466367713,29.289940828402365
02472,Middlesex County,MA,NA,28.251121076233183,NA
02478,Middlesex County,MA,NA,20.067264573991032,NA
02482,Norfolk County,MA,88.06133625410733,NA,NA
02494,Norfolk County,MA,82.47535596933187,NA,NA
02536,Barnstable County,MA,17.086527929901425,NA,NA
02601,Barnstable County,MA,3.614457831325301,NA,NA
02745,Bristol County,MA,NA,31.2780269058296,NA
02760,Bristol County,MA,NA,56.390134529147986,NA
02780,Bristol County,MA,0.32858707557502737,NA,NA
48036,Macomb County,MI,73.93209200438116,NA,NA
48045,Macomb County,MI,53.12157721796276,NA,NA
48047,Macomb County,MI,NA,11.32286995515695,NA
48060,St. Clair County,MI,14.457831325301203,4.260089686098654,NA
48075,Oakland County,MI,NA,NA,24.2603550295858
48089,Macomb County,MI,NA,19.282511210762333,NA
48103,Washtenaw County,MI,NA,NA,33.72781065088758
48105,Washtenaw County,MI,NA,86.09865470852019,NA
48114,Livingston County,MI,47.973713033954,NA,NA
48134,Wayne County,MI,NA,NA,43.49112426035503
48158,Washtenaw County,MI,NA,71.74887892376681,NA
48161,Monroe County,MI,NA,16.591928251121075,NA
48162,Monroe County,MI,NA,2.242152466367713,NA
48165,Oakland County,MI,76.23220153340635,NA,NA
48169,Livingston County,MI,43.15443592552026,NA,NA
48170,Wayne County,MI,NA,2.0179372197309418,NA
48186,Wayne County,MI,78.53231106243155,NA,NA
48191,Washtenaw County,MI,90.4709748083242,NA,NA
48193,Wayne County,MI,78.64184008762322,NA,NA
48204,Wayne County,MI,NA,25.22421524663677,NA
48214,Wayne County,MI,47.86418400876232,NA,NA
48224,Wayne County,MI,1.7524644030668126,17.152466367713004,NA
48227,Wayne County,MI,NA,NA,84.31952662721893
48228,Wayne County,MI,9.090909090909092,29.260089686098656,NA
48235,Wayne County,MI,NA,51.00896860986547,NA
48239,Wayne County,MI,6.24315443592552,NA,NA
48313,Macomb County,MI,NA,18.609865470852018,NA
48331,Oakland County,MI,NA,17.60089686098655,NA
48336,Oakland County,MI,NA,35.42600896860987,NA
48375,Oakland County,MI,46.54983570646221,NA,NA
48416,Sanilac County,MI,NA,93.16143497757847,NA
48421,Lapeer County,MI,89.81380065717414,NA,NA
48430,Genesee County,MI,NA,48.54260089686099,NA
48439,Genesee County,MI,NA,12.219730941704036,NA
48461,Lapeer County,MI,63.85542168674698,NA,NA
48601,Saginaw County,MI,1.2048192771084338,NA,NA
48604,Saginaw County,MI,NA,45.73991031390135,NA
48609,Saginaw County,MI,68.23658269441401,NA,NA
48634,Bay County,MI,NA,96.0762331838565,NA
48642,Midland County,MI,NA,5.7174887892376685,7.6923076923076925
48706,Bay County,MI,5.914567360350493,NA,NA
48708,Bay County,MI,NA,6.053811659192825,NA
48813,Eaton County,MI,NA,NA,31.65680473372781
48823,Ingham County,MI,NA,22.6457399103139,NA
48840,Ingham County,MI,NA,56.16591928251121,NA
48846,Ionia County,MI,32.20153340635268,NA,NA
48847,Gratiot County,MI,NA,79.5964125560538,NA
48880,Gratiot County,MI,NA,NA,76.33136094674556
48906,Ingham County,MI,NA,NA,31.06508875739645
48917,Eaton County,MI,28.368017524644028,NA,NA
49004,Kalamazoo County,MI,37.34939759036144,NA,NA
49007,Kalamazoo County,MI,32.74917853231106,NA,NA
49008,Kalamazoo County,MI,NA,43.946188340807176,NA
49036,Branch County,MI,NA,19.61883408071749,NA
49046,Barry County,MI,NA,86.7713004484305,NA
49078,Allegan County,MI,74.58926615553122,NA,NA
49085,Berrien County,MI,NA,36.54708520179372,NA
49099,St. Joseph County,MI,NA,95.17937219730942,NA
49221,Lenawee County,MI,3.0668127053669223,NA,NA
49302,Kent County,MI,NA,95.17937219730942,NA
49315,Kent County,MI,41.07338444687842,NA,NA
49333,Barry County,MI,NA,61.99551569506726,NA
49348,Allegan County,MI,NA,88.34080717488789,NA
49349,Newaygo County,MI,NA,86.32286995515696,NA
49428,Ottawa County,MI,48.083242059145675,NA,NA
49441,Muskegon County,MI,10.076670317634173,NA,NA
49444,Muskegon County,MI,7.119386637458927,NA,NA
49454,Mason County,MI,NA,83.5201793721973,NA
49457,Muskegon County,MI,NA,64.34977578475336,NA
49461,Muskegon County,MI,70.97480832420592,NA,NA
49503,Kent County,MI,NA,NA,44.37869822485207
49504,Kent County,MI,NA,10.426008968609866,NA
49505,Kent County,MI,17.853231106243154,70.62780269058297,NA
49506,Kent County,MI,NA,36.09865470852018,NA
49508,Kent County,MI,NA,64.79820627802691,NA
49509,Kent County,MI,10.624315443592552,NA,NA
49519,Kent County,MI,61.5553121577218,NA,NA
49525,Kent County,MI,NA,19.843049327354258,NA
49534,Kent County,MI,NA,NA,45.562130177514796
49546,Kent County,MI,31.653888280394305,NA,NA
49696,Grand Traverse County,MI,73.05585980284775,NA,NA
49712,Charlevoix County,MI,93.31872946330778,NA,NA
49715,Chippewa County,MI,97.26177437020812,NA,NA
49727,Charlevoix County,MI,NA,89.46188340807176,NA
49735,Otsego County,MI,NA,47.421524663677125,NA
49738,Crawford County,MI,70.53669222343922,NA,NA
49770,Emmet County,MI,NA,43.7219730941704,NA
49802,Dickinson County,MI,71.63198247535597,NA,NA
49829,Delta County,MI,61.44578313253012,NA,NA
49837,Delta County,MI,48.849945235487404,NA,NA
49855,Marquette County,MI,11.829134720700987,NA,NA
55021,Rice County,MN,NA,33.6322869955157,NA
55040,Isanti County,MN,NA,62.33183856502242,NA
55044,Dakota County,MN,46.002190580503836,NA,NA
55057,Rice County,MN,NA,55.044843049327355,NA
55066,Goodhue County,MN,72.28915662650603,NA,NA
55103,Ramsey County,MN,89.5947426067908,NA,NA
55110,Ramsey County,MN,NA,NA,34.023668639053255
55113,Ramsey County,MN,NA,NA,22.485207100591715
55305,Hennepin County,MN,NA,NA,34.319526627218934
55347,Hennepin County,MN,61.99342825848851,80.04484304932735,NA
55350,McLeod County,MN,NA,NA,15.088757396449704
55374,Hennepin County,MN,NA,94.95515695067265,NA
55406,Hennepin County,MN,18.83899233296824,NA,NA
55411,Hennepin County,MN,NA,12.892376681614351,NA
55418,Hennepin County,MN,21.905805038335156,NA,NA
55428,Hennepin County,MN,15.115005476451259,NA,NA
55442,Hennepin County,MN,76.8893756845564,NA,NA
55445,Hennepin County,MN,NA,92.48878923766816,NA
55744,Itasca County,MN,NA,27.914798206278025,NA
55804,St. Louis County,MN,NA,NA,57.100591715976336
55810,St. Louis County,MN,NA,71.30044843049326,NA
55912,Mower County,MN,NA,NA,7.988165680473373
55971,Fillmore County,MN,100,NA,NA
55976,Olmsted County,MN,NA,NA,75.44378698224851
55987,Winona County,MN,NA,1.905829596412556,2.6627218934911245
56007,Freeborn County,MN,NA,30.829596412556054,46.44970414201183
56215,Swift County,MN,NA,97.75784753363229,NA
56283,Redwood County,MN,NA,75.11210762331838,NA
56303,Stearns County,MN,25.629791894852133,NA,NA
56334,Pope County,MN,NA,NA,63.01775147928994
56377,Stearns County,MN,72.72727272727273,NA,NA
56470,Hubbard County,MN,NA,63.34080717488789,NA
56482,Wadena County,MN,44.14019715224535,NA,NA
56484,Cass County,MN,NA,98.09417040358744,NA
56514,Clay County,MN,99.12376779846659,NA,NA
56537,Otter Tail County,MN,NA,NA,48.5207100591716
56547,Clay County,MN,99.89047097480832,NA,NA
56560,Clay County,MN,35.049288061336256,2.914798206278027,NA
56716,Polk County,MN,25.410733844468787,NA,NA
38619,Panola County,MS,NA,94.73094170403587,NA
38637,DeSoto County,MS,44.030668127053666,NA,NA
38671,DeSoto County,MS,NA,74.55156950672645,NA
38672,DeSoto County,MS,81.48959474260678,NA,NA
38801,Lee County,MS,NA,NA,71.30177514792899
38834,Alcorn County,MS,15.115005476451259,NA,NA
38843,Itawamba County,MS,94.19496166484119,NA,81.95266272189349
38857,Lee County,MS,99.5618838992333,NA,NA
38858,Monroe County,MS,98.13800657174151,NA,NA
38860,Chickasaw County,MS,NA,NA,97.63313609467455
38863,Pontotoc County,MS,NA,NA,74.85207100591717
39154,Hinds County,MS,93.75684556407448,NA,NA
39208,Rankin County,MS,32.63964950711939,75,NA
39530,Harrison County,MS,NA,NA,86.09467455621301
39565,Jackson County,MS,57.61226725082147,NA,NA
39581,Jackson County,MS,76.67031763417306,NA,NA
39705,Lowndes County,MS,NA,NA,91.42011834319527
63011,St. Louis County,MO,NA,14.349775784753364,NA
63016,Jefferson County,MO,NA,81.16591928251121,NA
63017,St. Louis County,MO,58.050383351588174,NA,NA
63021,St. Louis County,MO,NA,8.071748878923767,NA
63033,St. Louis County,MO,NA,40.80717488789238,NA
63069,Franklin County,MO,NA,52.01793721973094,NA
63119,St. Louis County,MO,NA,37.66816143497758,NA
63123,St. Louis County,MO,NA,NA,20.414201183431953
63125,St. Louis County,MO,NA,23.54260089686099,NA
63126,St. Louis County,MO,NA,NA,45.562130177514796
63128,St. Louis County,MO,NA,18.27354260089686,NA
63129,St. Louis County,MO,NA,NA,10.059171597633137
63132,St. Louis County,MO,NA,NA,86.3905325443787
63135,St. Louis County,MO,57.9408543263965,NA,NA
63304,St. Charles County,MO,NA,11.210762331838566,NA
63353,Pike County,MO,NA,81.16591928251121,NA
63368,St. Charles County,MO,NA,NA,15.976331360946746
63376,St. Charles County,MO,NA,NA,26.627218934911244
63385,St. Charles County,MO,41.94961664841183,77.24215246636771,NA
63389,Lincoln County,MO,86.74698795180723,NA,NA
63501,Adair County,MO,86.199342825848845,NA,NA
63660,Washington County,MO,98.90470974808323,NA,NA
63670,Ste. Genevieve County,MO,89.04709748083242,NA,NA
63701,Cape Girardeau County,MO,NA,NA,58.28402366863905
63775,Perry County,MO,NA,NA,21.597633136094675
63857,Dunklin County,MO,NA,89.12556053811659,NA
63901,Butler County,MO,10.843373493975903,19.05829596412556,NA
64014,Jackson County,MO,NA,NA,53.25443786982249
64015,Jackson County,MO,10.514786418400876,NA,NA
64030,Jackson County,MO,NA,14.237668161434977,NA
64040,Johnson County,MO,NA,77.57847533632287,NA
64050,Jackson County,MO,NA,NA,73.96449704142012
64052,Jackson County,MO,NA,77.01793721973094,NA
64056,Jackson County,MO,19.605695509309967,NA,NA
64063,Jackson County,MO,NA,33.07174887892377,73.66863905325444
64079,Platte County,MO,80.61336254107339,NA,NA
64081,Jackson County,MO,NA,NA,39.64497041420118
64089,Clay County,MO,NA,84.52914798206278,NA
64093,Johnson County,MO,NA,29.7085201793722,NA
64109,Jackson County,MO,95.50930996714129,NA,NA
64110,Jackson County,MO,29.46330777656079,31.16591928251121,NA
64111,Jackson County,MO,20.262869660460023,NA,NA
64116,Clay County,MO,52.79299014238773,NA,NA
64117,Clay County,MO,NA,38.45291479820628,NA
64118,Clay County,MO,4.271631982475356,NA,27.810650887573964
64119,Clay County,MO,31.2157721796276,NA,NA
64127,Jackson County,MO,21.02957283680175,NA,NA
64130,Jackson County,MO,5.476451259583789,NA,NA
64131,Jackson County,MO,NA,28.36322869955157,NA
64132,Jackson County,MO,12.376779846659366,NA,NA
64454,Clinton County,MO,NA,97.53363228699553,NA
64490,DeKalb County,MO,NA,97.08520179372198,NA
64503,Buchanan County,MO,20.153340635268346,NA,NA
64505,Buchanan County,MO,59.36473165388828,NA,NA
64506,Buchanan County,MO,NA,48.654708520179376,NA
64601,Livingston County,MO,NA,NA,23.668639053254438
64730,Bates County,MO,NA,NA,82.84023668639054
64744,Cedar County,MO,NA,74.43946188340807,NA
64801,Jasper County,MO,35.815991237677984,NA,NA
64804,Jasper County,MO,43.373493975903614,NA,42.30769230769231
64844,Newton County,MO,NA,99.77578475336323,NA
64850,Newton County,MO,41.1829134720701,50.44843049327354,NA
65041,Gasconade County,MO,NA,81.05381165919282,NA
65043,Callaway County,MO,78.3132530120482,NA,93.19526627218934
65078,Morgan County,MO,NA,89.57399103139014,NA
65201,Boone County,MO,89.26615553121577,54.035874439461885,NA
65202,Boone County,MO,NA,NA,48.81656804733728
65203,Boone County,MO,NA,8.520179372197308,NA
65265,Audrain County,MO,88.93756845564074,NA,NA
65301,Pettis County,MO,3.1763417305585984,6.502242152466367,NA
65340,Saline County,MO,NA,NA,69.23076923076923
65355,Benton County,MO,48.30230010952902,NA,NA
65459,Pulaski County,MO,NA,93.49775784753363,NA
65536,Laclede County,MO,33.29682365826944,NA,NA
65606,Oregon County,MO,NA,90.35874439461884,NA
65610,Christian County,MO,NA,NA,90.8284023668639
65656,Stone County,MO,NA,96.74887892376681,NA
65686,Stone County,MO,NA,NA,100
65714,Christian County,MO,NA,70.51569506726457,NA
65721,Christian County,MO,NA,NA,44.97041420118343
65742,Webster County,MO,NA,NA,90.53254437869822
65757,Greene County,MO,96.60460021905804,NA,NA
65785,Cedar County,MO,NA,93.83408071748879,61.53846153846154
65802,Greene County,MO,8.87185104052574,NA,NA
65803,Greene County,MO,NA,NA,19.82248520710059
65804,Greene County,MO,23.877327491785323,NA,15.384615384615385
65807,Greene County,MO,21.686746987951807,12.780269058295964,NA
59047,Park County,MT,74.69879518072288,NA,NA
59101,Yellowstone County,MT,32.420591456736034,NA,12.42603550295858
59102,Yellowstone County,MT,NA,3.2511210762331837,NA
59230,Valley County,MT,95.83789704271632,NA,74.55621301775149
59405,Cascade County,MT,23.548740416210297,NA,NA
59501,Hill County,MT,75.79408543263965,NA,NA
59635,Lewis and Clark County,MT,NA,93.72197309417041,NA
59714,Gallatin County,MT,60.24096385542169,NA,NA
59715,Gallatin County,MT,NA,NA,55.325443786982255
59718,Gallatin County,MT,NA,33.52017937219731,NA
59864,Lake County,MT,NA,96.18834080717488,NA
68008,Washington County,NE,NA,55.82959641255605,NA
68022,Douglas County,NE,NA,NA,53.55029585798816
68046,Sarpy County,NE,NA,64.23766816143498,NA
68104,Douglas County,NE,20.04381161007667,NA,NA
68118,Douglas County,NE,NA,NA,95.85798816568047
68123,Sarpy County,NE,NA,86.99551569506725,NA
68130,Douglas County,NE,NA,NA,75.14792899408283
68144,Douglas County,NE,62.760131434830235,44.61883408071749,NA
68154,Douglas County,NE,NA,41.81614349775785,NA
68333,Saline County,NE,98.57612267250822,NA,NA
68505,Lancaster County,NE,80.39430449069003,NA,NA
68506,Lancaster County,NE,NA,42.152466367713004,NA
68507,Lancaster County,NE,87.40416210295729,89.79820627802691,NA
68526,Lancaster County,NE,NA,NA,98.22485207100591
68847,Buffalo County,NE,NA,NA,52.662721893491124
69101,Lincoln County,NE,17.96276013143483,NA,NA
89134,Clark County,NV,NA,42.37668161434978,NA
89149,Clark County,NV,NA,73.76681614349776,NA
89423,Douglas County,NV,NA,51.12107623318386,NA
89431,Washoe County,NV,NA,34.30493273542601,NA
89503,Washoe County,NV,53.77875136911281,NA,NA
89523,Washoe County,NV,NA,25.112107623318387,NA
03031,Hillsborough County,NH,NA,57.7354260089686,NA
03038,Rockingham County,NH,NA,NA,23.076923076923077
03045,Hillsborough County,NH,NA,60.87443946188341,NA
03048,Hillsborough County,NH,NA,99.10313901345292,NA
03054,Hillsborough County,NH,26.944140197152244,NA,NA
03101,Hillsborough County,NH,NA,99.66367713004485,NA
03103,Hillsborough County,NH,20.481927710843372,34.865470852017935,19.230769230769234
03110,Hillsborough County,NH,80.83242059145674,29.372197309417043,NA
03249,Belknap County,NH,95.399780941949615,NA,NA
03570,Coos County,NH,65.93647316538883,NA,60.650887573964496
03842,Rockingham County,NH,65.82694414019716,NA,NA
07065,Union County,NJ,NA,27.802690582959645,NA
07109,Essex County,NJ,11.71960569550931,NA,NA
07110,Essex County,NJ,70.75575027382256,NA,NA
07205,Union County,NJ,96.82365826944141,NA,NA
07480,Passaic County,NJ,NA,64.46188340807176,NA
07506,Passaic County,NJ,NA,50.672645739910315,NA
07652,Bergen County,NJ,45.78313253012048,NA,NA
07727,Monmouth County,NJ,76.013143483023,77.80269058295964,NA
07728,Monmouth County,NJ,NA,59.64125560538116,NA
07733,Monmouth County,NJ,NA,64.57399103139014,NA
07753,Monmouth County,NJ,19.27710843373494,NA,NA
07758,Monmouth County,NJ,NA,98.87892376681614,NA
08008,Ocean County,NJ,NA,79.26008968609865,NA
08010,Burlington County,NJ,45.673603504928806,NA,NA
08046,Burlington County,NJ,5.038335158817087,NA,29.585798816568047
08048,Burlington County,NJ,56.955093099671416,NA,NA
08050,Ocean County,NJ,30.44906900328587,26.45739910313901,NA
08054,Burlington County,NJ,NA,10.762331838565023,NA
08059,Camden County,NJ,75.68455640744799,NA,NA
08090,Gloucester County,NJ,NA,75.67264573991032,NA
08096,Gloucester County,NJ,3.8335158817086525,NA,NA
08204,Cape May County,NJ,78.42278203723987,NA,NA
08205,Atlantic County,NJ,13.581599123767798,50.784753363228695,NA
08260,Cape May County,NJ,NA,NA,60.05917159763313
08302,Cumberland County,NJ,0.6571741511500547,NA,NA
08559,Hunterdon County,NJ,NA,92.71300448430493,NA
08611,Mercer County,NJ,36.91128148959474,NA,NA
08618,Mercer County,NJ,NA,28.81165919282511,NA
08629,Mercer County,NJ,25.848849945235486,NA,NA
08753,Ocean County,NJ,NA,41.92825112107623,NA
08848,Hunterdon County,NJ,NA,78.47533632286996,NA
08852,Middlesex County,NJ,NA,80.82959641255604,NA
08901,Middlesex County,NJ,NA,55.71748878923767,NA
87002,Valencia County,NM,45.016429353778754,NA,NA
87104,Bernalillo County,NM,81.92771084337349,NA,NA
87107,Bernalillo County,NM,88.49945235487404,NA,NA
87108,Bernalillo County,NM,5.3669222343921135,NA,NA
87109,Bernalillo County,NM,NA,NA,41.42011834319527
87112,Bernalillo County,NM,NA,34.19282511210762,NA
87121,Bernalillo County,NM,3.3953997809419496,4.484304932735426,NA
87123,Bernalillo County,NM,NA,NA,88.16568047337277
87505,Santa Fe County,NM,4.052573932092004,NA,NA
87532,Santa Fe County,NM,NA,NA,49.112426035502956
87547,,NM,82.69441401971523,NA,NA
87701,San Miguel County,NM,44.687842278203725,NA,NA
88011,Doa Ana County,NM,49.50711938663746,NA,NA
10030,New York County,NY,NA,72.08520179372198,NA
10035,New York County,NY,19.934282584884993,NA,NA
10301,Richmond County,NY,NA,NA,49.40828402366864
10308,Richmond County,NY,NA,NA,68.63905325443787
10458,Bronx County,NY,NA,NA,65.38461538461539
10466,Bronx County,NY,66.70317634173057,NA,NA
10472,Bronx County,NY,11.610076670317634,NA,NA
10473,Bronx County,NY,16.538882803943046,NA,NA
10533,Westchester County,NY,NA,96.63677130044843,NA
11050,Nassau County,NY,85.43263964950711,NA,NA
11101,Queens County,NY,NA,58.07174887892377,NA
11204,Kings County,NY,22.89156626506024,NA,NA
11212,Kings County,NY,5.805038335158817,NA,NA
11213,Kings County,NY,3.943044906900329,NA,NA
11217,Kings County,NY,NA,20.40358744394619,NA
11229,Kings County,NY,NA,NA,65.08875739644971
11231,Kings County,NY,NA,38.00448430493273,NA
11237,Kings County,NY,NA,11.659192825112108,NA
11238,Kings County,NY,NA,NA,69.5266272189349
11361,Queens County,NY,NA,68.38565022421524,NA
11776,Suffolk County,NY,51.80722891566265,NA,NA
12303,Schenectady County,NY,NA,66.92825112107623,NA
12306,Schenectady County,NY,59.802847754654984,NA,42.01183431952663
12804,Warren County,NY,26.83461117196057,7.73542600896861,NA
12966,Franklin County,NY,NA,89.57399103139014,NA
13021,Cayuga County,NY,NA,0.7847533632286996,NA
13039,Onondaga County,NY,38.55421686746988,NA,NA
13066,Onondaga County,NY,62.65060240963856,NA,NA
13088,Onondaga County,NY,NA,NA,56.80473372781065
13126,Oswego County,NY,15.443592552026287,NA,NA
13140,Cayuga County,NY,80.94194961664842,NA,NA
13152,Onondaga County,NY,34.93975903614458,NA,NA
13212,Onondaga County,NY,25.301204819277107,NA,NA
13308,Oneida County,NY,NA,97.19730941704036,NA
13340,Herkimer County,NY,87.51369112814896,NA,NA
13357,Herkimer County,NY,NA,46.97309417040359,NA
13365,Herkimer County,NY,28.696604600219054,NA,NA
13440,Oneida County,NY,1.3143483023001095,3.587443946188341,NA
13493,Oswego County,NY,97.69989047097481,NA,NA
13619,Jefferson County,NY,42.0591456736035,NA,NA
13760,Broome County,NY,NA,14.686098654708521,NA
13795,Broome County,NY,69.33187294633078,NA,NA
13811,Tioga County,NY,NA,88.00448430493275,NA
13850,Broome County,NY,NA,20.739910313901344,NA
13856,Delaware County,NY,45.34501642935378,NA,NA
14004,Erie County,NY,55.85980284775466,NA,NA
14020,Genesee County,NY,33.734939759036145,NA,NA
14075,Erie County,NY,6.571741511500548,4.596412556053812,10.650887573964498
14120,Niagara County,NY,NA,NA,21.893491124260358
14127,Erie County,NY,NA,NA,17.75147928994083
14150,Erie County,NY,4.600219058050383,NA,NA
14207,Erie County,NY,25.958378970427166,NA,NA
14214,Erie County,NY,NA,36.65919282511211,NA
14217,Erie County,NY,19.49616648411829,NA,NA
14221,Erie County,NY,NA,1.4573991031390134,NA
14224,Erie County,NY,4.490690032858708,NA,NA
14228,Erie County,NY,40.963855421686745,89.01345291479821,NA
14420,Monroe County,NY,12.48630887185104,NA,NA
14437,Livingston County,NY,37.67798466593648,NA,NA
14450,Monroe County,NY,2.4096385542168677,NA,NA
14456,Ontario County,NY,NA,3.4753363228699556,NA
14472,Monroe County,NY,43.04490690032859,NA,NA
14489,Wayne County,NY,59.69331872946331,NA,NA
14514,Monroe County,NY,NA,75.22421524663677,NA
14534,Monroe County,NY,NA,NA,3.8461538461538463
14559,Monroe County,NY,8.762322015334064,NA,NA
14580,Monroe County,NY,NA,0,NA
14607,Monroe County,NY,NA,67.37668161434978,NA
14612,Monroe County,NY,1.5334063526834611,NA,NA
14613,Monroe County,NY,9.41949616648412,NA,NA
14620,Monroe County,NY,4.819277108433735,NA,NA
14622,Monroe County,NY,18.072289156626507,NA,NA
14623,Monroe County,NY,13.691128148959475,NA,NA
14624,Monroe County,NY,NA,1.0089686098654709,NA
14735,Allegany County,NY,93.86637458926616,NA,NA
14739,Allegany County,NY,86.8565169769989,NA,NA
14760,Cattaraugus County,NY,NA,39.91031390134529,NA
14843,Steuben County,NY,NA,82.95964125560538,NA
14871,Chemung County,NY,88.60898138006573,NA,NA
27012,Forsyth County,NC,NA,2.690582959641256,NA
27030,Surry County,NC,NA,NA,1.183431952662722
27105,Forsyth County,NC,12.048192771084338,1.5695067264573992,NA
27106,Forsyth County,NC,NA,NA,1.4792899408284024
27215,Alamance County,NC,7.776560788608982,NA,NA
27235,Guilford County,NC,NA,NA,88.46153846153845
27278,Orange County,NC,NA,77.46636771300447,NA
27292,Davidson County,NC,3.5049288061336252,NA,5.621301775147929
27312,Chatham County,NC,NA,15.246636771300448,NA
27360,Davidson County,NC,2.8477546549835706,NA,NA
27405,Guilford County,NC,8.652792990142387,NA,NA
27408,Guilford County,NC,84.33734939759037,NA,NA
27514,Orange County,NC,NA,56.83856502242153,NA
27516,Orange County,NC,25.191675794085434,NA,NA
27517,Orange County,NC,49.94523548740416,NA,NA
27522,Granville County,NC,NA,85.53811659192824,NA
27526,Wake County,NC,NA,17.937219730941703,NA
27527,Johnston County,NC,64.73165388828039,NA,NA
27529,Wake County,NC,NA,12.668161434977579,NA
27609,Wake County,NC,NA,NA,26.331360946745562
27615,Wake County,NC,NA,NA,12.1301775147929
27617,Wake County,NC,NA,65.47085201793722,NA
27703,Durham County,NC,52.902519167579406,NA,NA
27822,Wilson County,NC,NA,79.82062780269058,NA
27858,Pitt County,NC,NA,35.65022421524663,NA
27870,Halifax County,NC,17.41511500547645,NA,NA
27909,Pasquotank County,NC,NA,9.417040358744394,NA
27944,Perquimans County,NC,NA,72.6457399103139,NA
27983,Bertie County,NC,NA,87.21973094170403,NA
28001,Stanly County,NC,NA,65.69506726457399,NA
28012,Gaston County,NC,NA,73.20627802690582,NA
28025,Cabarrus County,NC,NA,10.986547085201794,NA
28079,Union County,NC,NA,41.70403587443946,NA
28105,Mecklenburg County,NC,NA,41.591928251121075,NA
28110,Union County,NC,16.757940854326396,NA,NA
28112,Union County,NC,NA,29.484304932735427,NA
28120,Gaston County,NC,52.573932092004384,NA,NA
28146,Rowan County,NC,NA,NA,68.34319526627219
28170,Anson County,NC,51.5881708652793,NA,NA
28173,Union County,NC,65.1697699890471,NA,NA
28206,Mecklenburg County,NC,NA,55.493273542600896,NA
28213,Mecklenburg County,NC,20.920043811610075,NA,NA
28226,Mecklenburg County,NC,NA,NA,31.360946745562128
28301,Cumberland County,NC,31.106243154435926,49.55156950672646,NA
28304,Cumberland County,NC,58.3789704271632,NA,NA
28311,Cumberland County,NC,18.948521358159912,NA,NA
28328,Sampson County,NC,NA,NA,36.68639053254438
28371,Robeson County,NC,88.82803943044907,NA,NA
28461,Brunswick County,NC,NA,5.381165919282512,NA
28504,Lenoir County,NC,39.211391018619935,NA,NA
28546,Onslow County,NC,19.605695509309967,NA,NA
28590,Pitt County,NC,NA,55.94170403587444,NA
28601,Catawba County,NC,NA,6.950672645739911,NA
28602,Catawba County,NC,16.210295728368017,NA,NA
28604,Watauga County,NC,97.59036144578313,NA,NA
28607,Watauga County,NC,NA,NA,42.60355029585799
28625,Iredell County,NC,NA,15.582959641255606,NA
28630,Caldwell County,NC,NA,35.313901345291484,NA
28638,Caldwell County,NC,49.726177437020816,NA,NA
28640,Ashe County,NC,NA,81.61434977578476,NA
28650,Catawba County,NC,NA,72.6457399103139,NA
28659,Wilkes County,NC,NA,80.60538116591928,NA
28673,Catawba County,NC,NA,83.85650224215246,NA
28681,Alexander County,NC,15.553121577217963,NA,NA
28705,Mitchell County,NC,NA,NA,98.5207100591716
28712,Transylvania County,NC,NA,NA,40.23668639053255
28721,Haywood County,NC,71.08433734939759,NA,NA
28734,Macon County,NC,NA,6.278026905829597,NA
28739,Henderson County,NC,NA,9.753363228699552,39.349112426035504
28754,Madison County,NC,NA,81.39013452914799,NA
28759,Henderson County,NC,NA,NA,51.77514792899408
28801,Buncombe County,NC,NA,92.60089686098655,NA
28803,Buncombe County,NC,46.11171960569551,25.89686098654709,NA
28804,Buncombe County,NC,NA,NA,63.905325443786985
58072,Barnes County,ND,NA,72.86995515695067,NA
58078,Cass County,ND,NA,60.2017937219731,NA
58103,Cass County,ND,91.56626506024097,NA,NA
58104,Cass County,ND,24.97261774370208,NA,NA
58201,Grand Forks County,ND,NA,NA,89.64497041420118
58503,Burleigh County,ND,NA,88.90134529147981,8.875739644970414
58701,Ward County,ND,30.01095290251917,6.614349775784753,NA
58703,Ward County,ND,36.03504928806134,NA,NA
43050,Knox County,OH,24.424972617743702,NA,8.284023668639055
43056,Licking County,OH,NA,62.89237668161435,NA
43110,Franklin County,OH,68.45564074479738,NA,NA
43138,Hocking County,OH,75.90361445783132,NA,NA
43160,Fayette County,OH,NA,66.25560538116592,NA
43204,Franklin County,OH,4.381161007667032,10.201793721973095,NA
43219,Franklin County,OH,12.26725082146769,NA,NA
43227,Franklin County,OH,NA,NA,36.68639053254438
43235,Franklin County,OH,NA,29.035874439461885,NA
43302,Marion County,OH,1.642935377875137,NA,NA
43311,Logan County,OH,24.31544359255203,NA,NA
43410,Sandusky County,OH,NA,43.16143497757848,NA
43452,Ottawa County,OH,NA,27.017937219730943,NA
43506,Williams County,OH,18.51040525739321,20.62780269058296,NA
43512,Defiance County,OH,3.285870755750274,23.318385650224215,NA
43537,Lucas County,OH,NA,10.538116591928251,NA
43605,Lucas County,OH,1.8619934282584885,18.04932735426009,NA
43615,Lucas County,OH,2.7382256297918945,NA,NA
43701,Muskingum County,OH,NA,16.031390134529147,NA
43723,Guernsey County,OH,55.96933187294633,NA,89.05325443786982
43812,Coshocton County,OH,NA,28.58744394618834,NA
43821,Muskingum County,OH,NA,85.98654708520179,NA
43907,Harrison County,OH,71.41292442497262,NA,NA
43938,Jefferson County,OH,46.87842278203724,NA,NA
44004,Ashtabula County,OH,NA,NA,14.792899408284024
44047,Ashtabula County,OH,67.79846659364732,NA,NA
44052,Lorain County,OH,13.253012048192772,1.1210762331838564,NA
44053,Lorain County,OH,NA,NA,28.994082840236686
44057,Lake County,OH,NA,13.228699551569505,NA
44060,Lake County,OH,23.11062431544359,NA,NA
44102,Cuyahoga County,OH,0.43811610076670315,NA,NA
44111,Cuyahoga County,OH,0.8762322015334063,NA,NA
44120,Cuyahoga County,OH,14.676889375684556,NA,NA
44124,Cuyahoga County,OH,19.05805038335159,NA,NA
44125,Cuyahoga County,OH,57.39320920043811,NA,NA
44127,Cuyahoga County,OH,56.51697699890471,NA,NA
44130,Cuyahoga County,OH,92.33296823658269,NA,NA
44134,Cuyahoga County,OH,NA,1.2331838565022422,NA
44147,Cuyahoga County,OH,42.606790799561885,NA,NA
44202,Portage County,OH,NA,NA,9.763313609467456
44233,Medina County,OH,NA,91.3677130044843,NA
44256,Medina County,OH,NA,NA,59.171597633136095
44266,Portage County,OH,NA,27.242152466367713,NA
44273,Medina County,OH,85.76122672508215,NA,NA
44305,Summit County,OH,11.062431544359255,NA,NA
44306,Summit County,OH,NA,27.690582959641258,NA
44312,Summit County,OH,11.391018619934282,NA,NA
44314,Summit County,OH,NA,17.48878923766816,NA
44319,Summit County,OH,45.34501642935378,NA,NA
44410,Trumbull County,OH,NA,70.73991031390135,NA
44484,Trumbull County,OH,22.562979189485212,NA,NA
44485,Trumbull County,OH,13.910186199342824,NA,NA
44505,Mahoning County,OH,NA,NA,33.43195266272189
44509,Mahoning County,OH,37.02081051478642,NA,NA
44615,Carroll County,OH,NA,45.403587443946186,NA
44685,Summit County,OH,71.960569550931,NA,NA
44706,Stark County,OH,27.491785323110623,NA,NA
44709,Stark County,OH,33.18729463307776,NA,NA
44805,Ashland County,OH,10.405257393209201,3.3632286995515694,3.2544378698224854
44811,Sandusky County,OH,25.739320920043813,NA,NA
44820,Crawford County,OH,NA,8.632286995515695,NA
44857,Huron County,OH,67.36035049288061,NA,NA
44883,Seneca County,OH,NA,30.493273542600896,NA
44906,Richland County,OH,NA,40.35874439461883,NA
44907,Richland County,OH,33.62541073384447,NA,NA
45011,Butler County,OH,1.8619934282584885,2.130044843049327,43.19526627218935
45014,Butler County,OH,NA,NA,18.639053254437872
45015,Butler County,OH,NA,83.18385650224215,NA
45044,Butler County,OH,4.16210295728368,NA,NA
45056,Butler County,OH,62.869660460021905,NA,NA
45066,Warren County,OH,NA,92.2645739910314,NA
45069,Butler County,OH,NA,46.74887892376682,NA
45102,Clermont County,OH,NA,51.45739910313901,NA
45121,Brown County,OH,NA,73.09417040358744,NA
45140,Clermont County,OH,68.56516976998904,42.600896860986545,NA
45154,Brown County,OH,90.58050383351588,NA,NA
45177,Clinton County,OH,52.13581599123768,NA,NA
45207,Hamilton County,OH,92.44249726177436,NA,NA
45211,Hamilton County,OH,6.900328587075576,24.2152466367713,NA
45236,Hamilton County,OH,NA,NA,25.443786982248522
45238,Hamilton County,OH,10.952902519167578,NA,NA
45243,Hamilton County,OH,94.74260679079957,NA,NA
45311,Preble County,OH,94.5235487404162,NA,NA
45322,Montgomery County,OH,NA,41.47982062780269,NA
45324,Greene County,OH,51.150054764512596,13.452914798206278,NA
45341,Clark County,OH,91.894852135816,NA,NA
45342,Montgomery County,OH,8.981380065717415,NA,NA
45373,Miami County,OH,5.585980284775466,NA,NA
45377,Montgomery County,OH,64.51259583789705,NA,NA
45404,Montgomery County,OH,NA,83.29596412556054,NA
45405,Montgomery County,OH,18.181818181818183,NA,NA
45417,Montgomery County,OH,6.352683461117197,NA,NA
45420,Montgomery County,OH,54.10733844468785,NA,NA
45424,Montgomery County,OH,NA,NA,7.396449704142012
45426,Montgomery County,OH,NA,30.15695067264574,NA
45430,Greene County,OH,NA,90.47085201793722,NA
45439,Montgomery County,OH,NA,67.152466367713,NA
45449,Montgomery County,OH,NA,70.85201793721974,NA
45458,Montgomery County,OH,NA,38.56502242152467,NA
45601,Ross County,OH,0.547645125958379,NA,0
45638,Lawrence County,OH,3.723986856516977,NA,NA
45640,Jackson County,OH,NA,26.345291479820627,NA
45653,Scioto County,OH,96.71412924424972,NA,NA
45661,Pike County,OH,41.84008762322015,NA,NA
45669,Lawrence County,OH,NA,NA,58.57988165680473
45690,Pike County,OH,43.26396495071194,NA,NA
45750,Washington County,OH,NA,0.2242152466367713,2.366863905325444
45769,Meigs County,OH,NA,68.83408071748879,NA
45771,Meigs County,OH,NA,99.55156950672645,NA
45840,Hancock County,OH,2.08105147864184,1.6816143497757847,NA
45885,Auglaize County,OH,34.8302300109529,NA,NA
45891,Van Wert County,OH,24.205914567360352,NA,NA
73003,Oklahoma County,OK,NA,51.569506726457405,NA
73008,Oklahoma County,OK,59.47426067907996,NA,NA
73013,Oklahoma County,OK,25.52026286966046,NA,NA
73018,Grady County,OK,40.41621029572837,NA,NA
73020,Oklahoma County,OK,NA,54.37219730941704,NA
73025,Oklahoma County,OK,64.40306681270536,77.91479820627802,NA
73036,Canadian County,OK,33.84446878422782,NA,NA
73044,Logan County,OK,47.20700985761227,NA,NA
73052,Garvin County,OK,NA,78.25112107623319,NA
73072,Cleveland County,OK,22.015334063526833,NA,NA
73089,Grady County,OK,NA,94.05829596412556,NA
73109,Oklahoma County,OK,58.817086527929895,NA,NA
73112,Oklahoma County,OK,29.572836801752466,NA,NA
73114,Oklahoma County,OK,NA,67.9372197309417,NA
73118,Oklahoma County,OK,NA,86.54708520179372,NA
73120,Oklahoma County,OK,NA,22.982062780269057,92.89940828402366
73134,Oklahoma County,OK,NA,NA,86.98224852071006
73159,Oklahoma County,OK,40.08762322015334,NA,NA
73170,Cleveland County,OK,26.06790799561884,NA,NA
73401,Carter County,OK,36.58269441401972,8.183856502242152,NA
73443,Carter County,OK,90.03285870755751,NA,NA
73501,Comanche County,OK,51.91675794085433,NA,NA
73505,Comanche County,OK,NA,44.28251121076233,3.5502958579881656
73507,Comanche County,OK,NA,24.551569506726455,NA
73529,Stephens County,OK,NA,88.78923766816143,NA
73737,Major County,OK,NA,97.98206278026906,NA
73750,Kingfisher County,OK,NA,69.73094170403587,NA
73801,Woodward County,OK,57.50273822562979,NA,NA
74003,Osage County,OK,58.707557502738226,NA,NA
74012,Tulsa County,OK,NA,38.789237668161434,NA
74014,Wagoner County,OK,NA,52.3542600896861,NA
74016,Rogers County,OK,NA,85.87443946188341,NA
74017,Rogers County,OK,37.67798466593648,NA,NA
74020,Pawnee County,OK,84.118291347207,NA,NA
74033,Tulsa County,OK,80.50383351588171,NA,NA
74036,Rogers County,OK,NA,88.11659192825113,NA
74048,Nowata County,OK,NA,84.30493273542601,NA
74074,Payne County,OK,NA,34.64125560538117,NA
74075,Payne County,OK,NA,NA,45.562130177514796
74107,Tulsa County,OK,56.84556407447974,NA,NA
74108,Tulsa County,OK,98.46659364731653,NA,NA
74136,Tulsa County,OK,NA,38.90134529147982,NA
74137,Tulsa County,OK,74.37020810514787,NA,38.46153846153847
74344,Delaware County,OK,NA,45.964125560538115,NA
74403,Muskogee County,OK,NA,NA,28.106508875739642
74432,McIntosh County,OK,NA,88.56502242152466,NA
74447,Okmulgee County,OK,NA,57.51121076233184,NA
74464,Cherokee County,OK,NA,15.358744394618833,NA
74525,Atoka County,OK,82.25629791894852,NA,NA
74571,Le Flore County,OK,NA,NA,94.67455621301775
74728,McCurtain County,OK,76.45125958378969,NA,NA
74801,Pottawatomie County,OK,NA,53.58744394618834,NA
74820,Pontotoc County,OK,NA,23.766816143497756,NA
74848,Hughes County,OK,NA,87.33183856502242,NA
74851,Pottawatomie County,OK,90.03285870755751,60.0896860986547,NA
74859,Okfuskee County,OK,NA,82.39910313901345,NA
74864,Lincoln County,OK,94.96166484118291,NA,NA
74937,Le Flore County,OK,90.9090909090909,NA,NA
74948,Sequoyah County,OK,83.78970427163198,NA,NA
74960,Adair County,OK,NA,65.13452914798206,NA
74966,Le Flore County,OK,99.67141292442497,NA,NA
97007,Washington County,OR,NA,22.757847533632287,NA
97013,Clackamas County,OR,NA,63.11659192825112,NA
97015,Clackamas County,OR,49.06900328587076,NA,NA
97024,Multnomah County,OR,59.2552026286966,NA,NA
97030,Multnomah County,OR,14.238773274917854,NA,NA
97068,Clackamas County,OR,60.35049288061336,50,NA
97086,Clackamas County,OR,NA,58.856502242152466,NA
97211,Multnomah County,OR,38.225629791894846,NA,NA
97217,Multnomah County,OR,NA,41.03139013452915,NA
97222,Clackamas County,OR,NA,25.89686098654709,NA
97225,Washington County,OR,67.46987951807229,NA,NA
97236,Multnomah County,OR,NA,NA,56.213017751479285
97239,Multnomah County,OR,84.44687842278204,NA,NA
97301,Marion County,OR,34.720700985761226,NA,NA
97302,Marion County,OR,69.2223439211391,NA,NA
97303,Marion County,OR,87.73274917853232,40.02242152466368,34.9112426035503
97305,Marion County,OR,NA,84.4170403587444,NA
97306,Marion County,OR,92.55202628696605,NA,NA
97317,Marion County,OR,67.46987951807229,NA,NA
97321,Linn County,OR,21.57721796276013,19.955156950672645,NA
97322,Linn County,OR,10.733844468784227,9.865470852017937,NA
97330,Benton County,OR,NA,21.63677130044843,NA
97361,Polk County,OR,NA,81.72645739910314,NA
97374,Linn County,OR,NA,76.34529147982063,NA
97402,Lane County,OR,15.66265060240964,NA,NA
97470,Douglas County,OR,24.53450164293538,20.85201793721973,NA
97471,Douglas County,OR,14.348302300109527,NA,NA
97526,Josephine County,OR,19.386637458926614,NA,NA
97603,Klamath County,OR,NA,4.37219730941704,NA
97756,Deschutes County,OR,63.63636363636363,NA,NA
97759,Deschutes County,OR,NA,86.21076233183857,NA
97801,Umatilla County,OR,NA,54.147982062780265,NA
97814,Baker County,OR,NA,NA,44.08284023668639
15010,Beaver County,PA,NA,54.932735426008975,NA
15042,Beaver County,PA,NA,65.91928251121077,NA
15061,Beaver County,PA,56.18838992332969,NA,NA
15136,Allegheny County,PA,NA,30.04484304932735,NA
15219,Allegheny County,PA,26.506024096385545,NA,NA
15229,Allegheny County,PA,83.24205914567361,NA,NA
15601,Westmoreland County,PA,NA,NA,0.591715976331361
15650,Westmoreland County,PA,12.157721796276014,NA,NA
15701,Indiana County,PA,NA,13.004484304932735,NA
15834,Cameron County,PA,NA,NA,99.40828402366864
15857,Elk County,PA,NA,7.174887892376682,NA
15909,Cambria County,PA,NA,NA,91.12426035502959
15931,Cambria County,PA,63.52683461117196,NA,NA
15963,Somerset County,PA,NA,48.4304932735426,NA
16142,Lawrence County,PA,NA,83.40807174887892,NA
16242,Clarion County,PA,NA,93.83408071748879,NA
16316,Crawford County,PA,NA,NA,95.56213017751479
16335,Crawford County,PA,8.543263964950713,7.399103139013453,NA
16502,Erie County,PA,36.801752464403066,76.23318385650224,NA
16506,Erie County,PA,NA,56.95067264573991,NA
16510,Erie County,PA,90.69003285870755,NA,NA
16602,Blair County,PA,88.2803943044907,NA,NA
16648,Blair County,PA,NA,28.699551569506728,NA
16803,Centre County,PA,NA,51.681614349775785,NA
16823,Centre County,PA,NA,NA,17.159763313609467
17003,Lebanon County,PA,73.05585980284775,NA,NA
17022,Lancaster County,PA,74.26067907995619,42.82511210762332,NA
17033,Dauphin County,PA,NA,17.376681614349778,NA
17043,Cumberland County,PA,86.199342825848845,NA,NA
17044,Mifflin County,PA,NA,NA,79.88165680473372
17057,Dauphin County,PA,14.786418400876233,NA,NA
17078,Lebanon County,PA,85.54216867469879,NA,NA
17104,Dauphin County,PA,NA,63.45291479820629,NA
17110,Dauphin County,PA,12.595837897042717,NA,NA
17111,Dauphin County,PA,12.924424972617743,NA,NA
17202,Franklin County,PA,55.75027382256298,NA,NA
17233,Fulton County,PA,79.51807228915662,NA,NA
17257,Cumberland County,PA,NA,21.076233183856502,NA
17268,Franklin County,PA,NA,18.385650224215247,NA
17325,Adams County,PA,NA,3.923766816143498,NA
17331,York County,PA,23.986856516977,0.5605381165919282,2.0710059171597637
17362,York County,PA,62.97918948521358,NA,NA
17404,York County,PA,NA,10.089686098654708,NA
17522,Lancaster County,PA,53.559693318729465,NA,NA
17552,Lancaster County,PA,32.31106243154436,NA,NA
17601,Lancaster County,PA,NA,43.27354260089686,NA
17603,Lancaster County,PA,NA,6.726457399103139,NA
17777,Northumberland County,PA,88.71851040525739,NA,NA
17801,Northumberland County,PA,48.74041621029573,49.327354260089685,NA
17870,Snyder County,PA,42.606790799561885,NA,NA
17922,Schuylkill County,PA,NA,94.61883408071749,NA
18015,Northampton County,PA,6.571741511500548,NA,NA
18020,Northampton County,PA,36.473165388828036,NA,NA
18042,Northampton County,PA,NA,NA,18.34319526627219
18102,Lehigh County,PA,NA,4.932735426008969,NA
18201,Luzerne County,PA,15.005476451259584,NA,NA
18229,Carbon County,PA,NA,76.79372197309418,NA
18301,Monroe County,PA,28.915662650602407,NA,NA
18337,Pike County,PA,NA,59.4170403587444,NA
18353,Monroe County,PA,84.00876232201533,NA,NA
18407,Lackawanna County,PA,41.51150054764513,NA,NA
18421,Susquehanna County,PA,NA,NA,92.3076923076923
18444,Lackawanna County,PA,53.34063526834611,NA,NA
18603,Columbia County,PA,37.130339539978095,NA,NA
18640,Luzerne County,PA,NA,59.19282511210763,NA
18705,Luzerne County,PA,NA,37.33183856502242,NA
18801,Susquehanna County,PA,90.25191675794085,NA,NA
18848,Bradford County,PA,77.3274917853231,NA,NA
18954,Bucks County,PA,NA,69.17040358744396,NA
19067,Bucks County,PA,NA,29.932735426008968,NA
19082,Delaware County,PA,64.62212486308871,NA,NA
19115,Philadelphia County,PA,NA,NA,11.242603550295858
19116,Philadelphia County,PA,22.453450164293535,NA,NA
19122,Philadelphia County,PA,40.30668127053669,NA,NA
19123,Philadelphia County,PA,NA,NA,81.06508875739645
19134,Philadelphia County,PA,NA,NA,41.42011834319527
19139,Philadelphia County,PA,NA,5.044843049327354,18.04733727810651
19152,Philadelphia County,PA,46.33077765607886,16.704035874439462,NA
19154,Philadelphia County,PA,NA,14.013452914798204,NA
19380,Chester County,PA,9.63855421686747,NA,NA
19406,Montgomery County,PA,NA,30.605381165919283,NA
19530,Berks County,PA,68.78422782037241,NA,NA
19601,Berks County,PA,54.54545454545454,NA,NA
02852,Washington County,RI,37.568455640744794,NA,NA
02886,Kent County,RI,26.615553121577218,NA,NA
02904,Providence County,RI,61.00766703176341,NA,NA
29016,Richland County,SC,NA,68.16143497757847,NA
29020,Kershaw County,SC,NA,28.139013452914796,81.65680473372781
29045,Kershaw County,SC,NA,45.17937219730942,NA
29072,Lexington County,SC,54.326396495071194,NA,NA
29150,Sumter County,SC,63.19824753559693,NA,NA
29209,Richland County,SC,38.99233296823658,NA,NA
29210,Richland County,SC,NA,NA,48.22485207100592
29212,Lexington County,SC,NA,90.69506726457399,NA
29340,Cherokee County,SC,NA,46.41255605381166,NA
29356,Spartanburg County,SC,NA,65.02242152466367,NA
29405,Charleston County,SC,55.531215772179635,NA,NA
29436,Berkeley County,SC,97.37130339539978,NA,NA
29445,Berkeley County,SC,NA,21.300448430493272,NA
29449,Charleston County,SC,82.91347207009858,NA,NA
29461,Berkeley County,SC,60.89813800657174,NA,NA
29505,Florence County,SC,43.48302300109529,73.87892376681614,NA
29511,Horry County,SC,89.70427163198248,NA,NA
29520,Chesterfield County,SC,NA,NA,73.96449704142012
29526,Horry County,SC,30.558598028477547,55.15695067264574,22.189349112426036
29527,Horry County,SC,NA,70.96412556053812,NA
29532,Darlington County,SC,NA,44.73094170403588,NA
29585,Georgetown County,SC,NA,42.26457399103139,NA
29588,Horry County,SC,NA,7.959641255605381,NA
29615,Greenville County,SC,81.27053669222344,31.390134529147986,NA
29642,Pickens County,SC,NA,NA,62.42603550295858
29644,Greenville County,SC,NA,93.04932735426009,NA
29650,Greenville County,SC,31.87294633077766,37.10762331838565,NA
29671,Pickens County,SC,74.80832420591457,NA,NA
29673,Greenville County,SC,32.09200438116101,14.91031390134529,NA
29681,Greenville County,SC,NA,11.547085201793722,NA
29690,Greenville County,SC,NA,29.035874439461885,NA
29708,York County,SC,NA,NA,70.11834319526628
29745,York County,SC,NA,46.0762331838565,NA
29803,Aiken County,SC,NA,NA,17.45562130177515
29841,Aiken County,SC,NA,56.72645739910314,NA
57005,Minnehaha County,SD,79.95618838992333,NA,NA
57033,Minnehaha County,SD,NA,98.20627802690582,NA
57103,Minnehaha County,SD,NA,39.57399103139013,NA
57104,Minnehaha County,SD,NA,47.53363228699551,NA
57105,Minnehaha County,SD,NA,8.968609865470851,NA
57108,Lincoln County,SD,NA,16.81614349775785,NA
57301,Davison County,SD,NA,27.466367713004487,NA
57401,Brown County,SD,NA,31.50224215246637,NA
57430,Marshall County,SD,NA,99.43946188340807,NA
57469,Spink County,SD,97.15224534501642,NA,NA
57501,Hughes County,SD,NA,NA,28.698224852071007
57702,Pennington County,SD,NA,45.85201793721973,10.355029585798817
37013,Davidson County,TN,8.214676889375685,NA,NA
37027,Williamson County,TN,NA,NA,16.86390532544379
37046,Williamson County,TN,NA,98.76681614349776,NA
37066,Sumner County,TN,7.995618838992333,NA,NA
37072,Davidson County,TN,NA,21.973094170403588,NA
37086,Rutherford County,TN,NA,52.80269058295964,NA
37096,Perry County,TN,NA,NA,78.69822485207101
37122,Wilson County,TN,NA,53.026905829596416,NA
37167,Rutherford County,TN,21.358159912376777,NA,NA
37215,Davidson County,TN,NA,NA,37.573964497041416
37311,Bradley County,TN,62.32201533406353,NA,NA
37312,Bradley County,TN,NA,41.143497757847534,NA
37322,Meigs County,TN,83.46111719605696,NA,NA
37341,Hamilton County,TN,NA,71.97309417040358,NA
37342,Coffee County,TN,NA,99.2152466367713,NA
37354,Monroe County,TN,29.901423877327492,NA,NA
37379,Hamilton County,TN,34.17305585980285,72.98206278026906,NA
37412,Hamilton County,TN,NA,51.681614349775785,NA
37660,Sullivan County,TN,27.38225629791895,6.838565022421525,NA
37663,Sullivan County,TN,96.49507119386638,NA,NA
37701,Blount County,TN,NA,59.19282511210763,NA
37705,Anderson County,TN,94.85213581599123,NA,NA
37711,Hawkins County,TN,94.41401971522454,NA,NA
37716,Anderson County,TN,30.887185104052573,NA,NA
37743,Greene County,TN,NA,NA,62.1301775147929
37745,Greene County,TN,19.82475355969332,NA,NA
37757,Campbell County,TN,81.16100766703175,NA,NA
37763,Roane County,TN,61.117196056955095,NA,NA
37766,Campbell County,TN,NA,20.291479820627803,NA
37777,Blount County,TN,NA,47.19730941704036,NA
37803,Blount County,TN,NA,10.650224215246636,NA
37807,Union County,TN,NA,95.96412556053812,NA
37820,Jefferson County,TN,NA,76.00896860986546,NA
37821,Cocke County,TN,NA,72.53363228699553,NA
37849,Knox County,TN,NA,72.30941704035875,NA
37857,Hawkins County,TN,28.039430449069002,33.856502242152466,NA
37862,Sevier County,TN,30.7776560788609,NA,NA
37865,Sevier County,TN,33.51588170865279,NA,NA
37879,Claiborne County,TN,77.54654983570646,61.098654708520186,NA
37914,Knox County,TN,NA,78.69955156950674,NA
37915,Knox County,TN,NA,98.54260089686099,NA
37918,Knox County,TN,NA,50.56053811659192,NA
37919,Knox County,TN,50.05476451259584,NA,NA
37920,Knox County,TN,9.309967141292443,45.06726457399103,NA
37921,Knox County,TN,56.29791894852135,NA,NA
37923,Knox County,TN,NA,85.65022421524664,NA
37924,Knox County,TN,86.63745892661555,NA,NA
37931,Knox County,TN,35.59693318729463,NA,NA
37938,Knox County,TN,66.15553121577219,96.52466367713004,NA
38017,Shelby County,TN,NA,44.955156950672645,NA
38242,Henry County,TN,NA,NA,76.92307692307693
38301,Madison County,TN,7.447973713033954,NA,NA
38305,Madison County,TN,29.025191675794087,NA,NA
38330,Gibson County,TN,94.0854326396495,NA,NA
38401,Maury County,TN,NA,28.475336322869953,NA
38464,Lawrence County,TN,26.396495071193865,24.887892376681613,NA
38501,Putnam County,TN,NA,13.789237668161435,NA
38555,Cumberland County,TN,32.53012048192771,NA,NA
38556,Fentress County,TN,46.98795180722892,NA,NA
75028,Denton County,TX,80.065717415115,NA,70.71005917159763
75032,Rockwall County,TX,NA,96.41255605381166,NA
75043,Dallas County,TX,15.33406352683461,NA,NA
75056,Denton County,TX,NA,26.681614349775785,NA
75070,Collin County,TX,12.705366922234393,NA,NA
75071,Collin County,TX,NA,25.336322869955158,NA
75075,Collin County,TX,NA,59.97757847533632,NA
75078,Collin County,TX,NA,NA,97.33727810650888
75087,Rockwall County,TX,67.907995618839,NA,NA
75090,Grayson County,TX,NA,NA,54.73372781065089
75103,Van Zandt County,TX,NA,NA,44.67455621301775
75116,Dallas County,TX,90.9090909090909,NA,NA
75117,Van Zandt County,TX,98.90470974808323,NA,NA
75137,Dallas County,TX,NA,NA,61.24260355029586
75144,Navarro County,TX,NA,89.34977578475336,NA
75165,Ellis County,TX,22.343921139101862,NA,NA
75169,Van Zandt County,TX,66.37458926615552,NA,NA
75204,Dallas County,TX,55.312157721796275,NA,NA
75205,Dallas County,TX,NA,63.56502242152467,NA
75209,Dallas County,TX,NA,58.856502242152466,NA
75215,Dallas County,TX,21.796276013143483,NA,NA
75216,Dallas County,TX,NA,32.95964125560538,NA
75219,Dallas County,TX,77.10843373493977,NA,NA
75224,Dallas County,TX,NA,33.96860986547085,NA
75229,Dallas County,TX,37.67798466593648,87.4439461883408,NA
75230,Dallas County,TX,NA,NA,46.74556213017752
75231,Dallas County,TX,39.64950711938664,NA,NA
75232,Dallas County,TX,39.32092004381161,NA,NA
75237,Dallas County,TX,38.882803943044905,NA,NA
75240,Dallas County,TX,NA,70.2914798206278,NA
75243,Dallas County,TX,38.0065717415115,NA,NA
75251,Dallas County,TX,99.34282584884994,NA,NA
75252,Collin County,TX,NA,50.11210762331838,NA
75440,Rains County,TX,NA,86.88340807174887,NA
75497,Wood County,TX,98.24753559693319,NA,NA
75604,Gregg County,TX,NA,51.23318385650224,NA
75692,Harrison County,TX,93.2092004381161,NA,NA
75693,Gregg County,TX,95.83789704271632,NA,NA
75701,Smith County,TX,29.13472070098576,NA,6.21301775147929
75702,Smith County,TX,64.07447973713035,35.08968609865471,NA
75703,Smith County,TX,26.286966046002192,NA,NA
75706,Smith County,TX,NA,84.08071748878923,NA
75765,Wood County,TX,NA,NA,50.887573964497044
75766,Cherokee County,TX,NA,6.390134529147982,NA
75789,Smith County,TX,NA,56.27802690582959,NA
75791,Smith County,TX,84.44687842278204,NA,NA
75835,Houston County,TX,NA,69.61883408071749,NA
75840,Freestone County,TX,NA,88.45291479820628,NA
76011,Tarrant County,TX,NA,78.47533632286996,NA
76013,Tarrant County,TX,57.283680175246445,NA,NA
76021,Tarrant County,TX,NA,NA,92.60355029585799
76034,Tarrant County,TX,NA,53.36322869955157,NA
76039,Tarrant County,TX,30.120481927710845,NA,NA
76048,Hood County,TX,37.23986856516977,NA,NA
76049,Hood County,TX,31.76341730558598,NA,NA
76053,Tarrant County,TX,34.17305585980285,NA,NA
76082,Parker County,TX,NA,41.143497757847534,NA
76110,Tarrant County,TX,NA,NA,49.70414201183432
76119,Tarrant County,TX,6.024096385542169,NA,NA
76123,Tarrant County,TX,41.621029572836804,NA,NA
76148,Tarrant County,TX,34.392113910186204,NA,NA
76205,Denton County,TX,NA,71.0762331838565,NA
76208,Denton County,TX,54.65498357064622,NA,NA
76262,Denton County,TX,NA,95.85201793721974,NA
76266,Denton County,TX,NA,67.82511210762333,NA
76273,Grayson County,TX,95.07119386637459,NA,NA
76520,Milam County,TX,NA,39.7982062780269,NA
76522,Coryell County,TX,NA,95.06726457399103,NA
76528,Coryell County,TX,NA,11.09865470852018,NA
76541,Bell County,TX,39.75903614457831,NA,NA
76543,Bell County,TX,73.82256297918948,48.20627802690583,NA
76550,Lampasas County,TX,58.15991237677984,NA,NA
76574,Williamson County,TX,NA,NA,79.58579881656804
76657,McLennan County,TX,NA,75.7847533632287,NA
76708,McLennan County,TX,41.621029572836804,NA,NA
76710,McLennan County,TX,78.64184008762322,NA,NA
76903,Tom Green County,TX,NA,NA,43.786982248520715
77006,Harris County,TX,NA,82.0627802690583,NA
77008,Harris County,TX,NA,NA,84.61538461538461
77012,Harris County,TX,86.4184008762322,NA,NA
77018,Harris County,TX,37.458926615553125,NA,NA
77044,Harris County,TX,29.68236582694414,NA,NA
77049,Harris County,TX,60.02190580503834,NA,NA
77054,Harris County,TX,NA,NA,99.11242603550295
77069,Harris County,TX,93.97590361445783,NA,NA
77085,Harris County,TX,NA,74.2152466367713,NA
77091,Harris County,TX,78.86089813800658,NA,NA
77092,Harris County,TX,NA,56.05381165919282,NA
77093,Harris County,TX,35.92552026286966,NA,NA
77362,Montgomery County,TX,NA,90.91928251121077,NA
77373,Harris County,TX,NA,22.421524663677133,NA
77379,Harris County,TX,53.231106243154436,NA,10.946745562130179
77381,Montgomery County,TX,NA,61.65919282511211,NA
77388,Harris County,TX,39.10186199342826,NA,NA
77433,Harris County,TX,NA,15.807174887892378,NA
77449,Harris County,TX,NA,21.18834080717489,NA
77459,Fort Bend County,TX,NA,38.228699551569505,NA
77469,Fort Bend County,TX,23.220153340635267,28.02690582959641,NA
77530,Harris County,TX,NA,78.36322869955157,NA
77541,Brazoria County,TX,85.1040525739321,NA,NA
77573,Galveston County,TX,7.119386637458927,NA,NA
77575,Liberty County,TX,85.21358159912377,NA,NA
77591,Galveston County,TX,NA,39.01345291479821,NA
77802,Brazos County,TX,71.52245345016429,NA,NA
77904,Victoria County,TX,NA,61.77130044843049,NA
78028,Kerr County,TX,NA,61.32286995515695,NA
78130,Comal County,TX,17.305585980284775,NA,NA
78201,Bexar County,TX,NA,NA,40.828402366863905
78207,Bexar County,TX,NA,71.41255605381166,NA
78209,Bexar County,TX,NA,78.1390134529148,NA
78211,Bexar County,TX,48.849945235487404,NA,NA
78223,Bexar County,TX,46.768893756845564,NA,NA
78225,Bexar County,TX,86.08981380065718,NA,NA
78368,San Patricio County,TX,NA,87.66816143497758,NA
78521,Cameron County,TX,88.17086527929902,NA,NA
78541,Hidalgo County,TX,45.016429353778754,NA,NA
78574,Hidalgo County,TX,NA,NA,94.97041420118343
78613,Williamson County,TX,NA,NA,6.508875739644971
78633,Williamson County,TX,NA,9.641255605381167,NA
78639,Llano County,TX,NA,68.72197309417041,NA
78643,Llano County,TX,84.22782037239868,NA,NA
78654,Burnet County,TX,NA,NA,47.0414201183432
78666,Hays County,TX,21.467688937568454,NA,NA
78669,Travis County,TX,NA,66.70403587443946,NA
78726,Travis County,TX,NA,98.65470852017937,NA
78729,Williamson County,TX,NA,88.67713004484304,NA
78746,Travis County,TX,72.94633077765607,NA,NA
78753,Travis County,TX,NA,61.77130044843049,NA
78852,Maverick County,TX,51.04052573932092,NA,NA
78962,Colorado County,TX,NA,94.28251121076234,NA
79106,Potter County,TX,79.07995618838993,NA,NA
79109,Randall County,TX,NA,38.34080717488789,47.633136094674555
79110,Randall County,TX,84.88499452354874,NA,NA
79119,Randall County,TX,92.99014238773275,NA,NA
79323,Yoakum County,TX,NA,95.51569506726457,NA
79414,Lubbock County,TX,NA,NA,54.437869822485204
79567,Runnels County,TX,NA,99.32735426008968,NA
79602,Taylor County,TX,53.45016429353778,NA,NA
79603,Taylor County,TX,NA,27.57847533632287,NA
79605,Taylor County,TX,NA,32.17488789237668,NA
79762,Ector County,TX,22.562979189485212,NA,NA
79936,El Paso County,TX,10.186199342825848,NA,NA
84014,Davis County,UT,NA,72.42152466367713,NA
84040,Davis County,UT,NA,77.69058295964125,NA
84044,Salt Lake County,UT,NA,58.52017937219731,NA
84047,Salt Lake County,UT,21.139101861993428,NA,NA
84065,Salt Lake County,UT,NA,39.34977578475337,NA
84070,Salt Lake County,UT,44.90690032858707,NA,NA
84092,Salt Lake County,UT,NA,82.51121076233184,NA
84093,Salt Lake County,UT,NA,NA,85.50295857988166
84102,Salt Lake County,UT,NA,95.62780269058297,NA
84104,Salt Lake County,UT,NA,59.4170403587444,NA
84107,Salt Lake County,UT,34.063526834611174,NA,NA
84111,Salt Lake County,UT,NA,96.30044843049326,NA
84120,Salt Lake County,UT,46.65936473165389,NA,NA
84123,Salt Lake County,UT,16.319824753559693,32.511210762331835,NA
84129,,UT,NA,23.654708520179373,NA
84332,Cache County,UT,NA,NA,96.44970414201184
84337,Box Elder County,UT,NA,91.14349775784754,NA
84404,Weber County,UT,NA,31.838565022421523,NA
84660,Utah County,UT,NA,79.14798206278026,NA
84737,Washington County,UT,NA,NA,72.48520710059172
84790,Washington County,UT,70.6462212486309,NA,NA
05001,Windsor County,VT,NA,96.97309417040358,NA
05403,Chittenden County,VT,NA,NA,27.514792899408285
05404,Chittenden County,VT,NA,81.50224215246637,NA
05482,Chittenden County,VT,NA,NA,83.72781065088756
05602,Washington County,VT,NA,76.68161434977578,NA
05661,Lamoille County,VT,NA,81.83856502242153,NA
05672,Lamoille County,VT,NA,92.37668161434978,NA
20175,Loudoun County,VA,66.15553121577219,NA,NA
22003,Fairfax County,VA,NA,21.524663677130047,NA
22041,Fairfax County,VA,64.84118291347207,NA,NA
22153,Fairfax County,VA,NA,NA,67.75147928994083
22306,Fairfax County,VA,23.767798466593646,40.134529147982065,NA
22601,Winchester city,VA,54.983570646221246,NA,NA
22602,Frederick County,VA,NA,NA,50.591715976331365
22611,Clarke County,VA,93.42825848849945,94.84304932735425,NA
22701,Culpeper County,VA,20.372398685651696,63.789237668161434,NA
22802,Harrisonburg city,VA,NA,NA,78.99408284023669
22815,Rockingham County,VA,NA,57.847533632286996,NA
22827,Rockingham County,VA,NA,59.865470852017935,NA
22902,Charlottesville city,VA,18.619934282584886,NA,NA
22942,Louisa County,VA,79.40854326396494,NA,NA
22960,Orange County,VA,NA,54.7085201793722,NA
23059,Henrico County,VA,91.23767798466594,NA,NA
23181,King William County,VA,NA,92.71300448430493,NA
23185,James City County,VA,NA,2.57847533632287,NA
23188,James City County,VA,NA,NA,0.2958579881656805
23230,Henrico County,VA,NA,99.88789237668162,NA
23231,Henrico County,VA,NA,NA,80.4733727810651
23294,Henrico County,VA,77.21796276013143,NA,NA
23322,Chesapeake city,VA,NA,NA,15.680473372781064
23435,Suffolk city,VA,NA,61.210762331838566,NA
23451,Virginia Beach city,VA,NA,11.883408071748878,NA
23453,Virginia Beach city,VA,43.59255202628697,NA,NA
23455,Virginia Beach city,VA,36.58269441401972,NA,NA
23462,Virginia Beach city,VA,NA,NA,5.029585798816568
23601,Newport News city,VA,NA,38.67713004484305,NA
23669,Hampton city,VA,17.196056955093102,NA,NA
23693,York County,VA,NA,NA,63.31360946745562
23701,Portsmouth city,VA,74.47973713033954,NA,NA
23803,Petersburg city,VA,NA,11.995515695067265,NA
24012,Roanoke city,VA,23.43921139101862,NA,NA
24015,Roanoke city,VA,70.09857612267251,NA,NA
24017,Roanoke city,VA,19.167579408543265,NA,NA
24060,Montgomery County,VA,NA,69.39461883408072,NA
24073,Montgomery County,VA,NA,45.403587443946186,NA
24084,Pulaski County,VA,NA,67.48878923766816,78.40236686390533
24112,Henry County,VA,NA,11.434977578475337,NA
24141,Radford city,VA,67.68893756845564,87.5560538116592,NA
24202,Washington County,VA,NA,74.77578475336323,NA
24210,Washington County,VA,29.244249726177436,69.73094170403587,NA
24228,Dickenson County,VA,NA,44.506726457399104,NA
24230,Wise County,VA,40.63526834611172,NA,NA
24381,Carroll County,VA,NA,90.5829596412556,NA
24501,Lynchburg city,VA,22.782037239868565,NA,NA
24517,Campbell County,VA,NA,79.93273542600897,NA
24523,Bedford County,VA,26.177437020810512,33.96860986547085,NA
24531,Pittsylvania County,VA,NA,73.4304932735426,NA
24620,Buchanan County,VA,94.6330777656079,NA,NA
24630,Tazewell County,VA,72.61774370208104,NA,NA
98003,King County,WA,NA,NA,24.556213017751478
98008,King County,WA,NA,NA,64.49704142011834
98010,King County,WA,87.29463307776561,NA,NA
98021,Snohomish County,WA,50.71193866374589,NA,NA
98022,King County,WA,54.21686746987952,NA,NA
98030,King County,WA,NA,65.35874439461884,91.42011834319527
98031,King County,WA,68.01752464403067,NA,NA
98042,King County,WA,NA,8.856502242152468,NA
98051,King County,WA,96.93318729463309,NA,NA
98055,King County,WA,69.87951807228916,NA,NA
98056,King County,WA,NA,48.87892376681614,NA
98059,King County,WA,39.97809419496166,NA,NA
98106,King County,WA,NA,NA,87.57396449704143
98109,King County,WA,53.66922234392114,NA,NA
98125,King County,WA,66.0460021905805,NA,32.84023668639053
98133,King County,WA,23.001095290251918,NA,NA
98166,King County,WA,76.99890470974809,43.83408071748879,NA
98203,Snohomish County,WA,73.38444687842278,NA,NA
98208,Snohomish County,WA,16.10076670317634,NA,NA
98229,Whatcom County,WA,NA,55.60538116591929,NA
98260,Island County,WA,NA,NA,97.0414201183432
98272,Snohomish County,WA,NA,36.43497757847533,NA
98273,Skagit County,WA,NA,12.443946188340806,NA
98282,Island County,WA,NA,33.29596412556054,NA
98284,Skagit County,WA,NA,79.7085201793722,NA
98292,Snohomish County,WA,55.6407447973713,NA,NA
98296,Snohomish County,WA,NA,NA,72.7810650887574
98312,Kitsap County,WA,31.98247535596933,NA,NA
98335,Pierce County,WA,NA,76.12107623318386,30.17751479289941
98339,Jefferson County,WA,NA,83.74439461883408,NA
98360,Pierce County,WA,69.44140197152245,NA,NA
98362,Clallam County,WA,NA,5.829596412556054,NA
98363,Clallam County,WA,NA,32.511210762331835,NA
98366,Kitsap County,WA,18.729463307776562,NA,NA
98368,Jefferson County,WA,NA,19.730941704035875,NA
98371,Pierce County,WA,60.460021905805036,47.309417040358746,NA
98373,Pierce County,WA,63.30777656078861,NA,NA
98374,Pierce County,WA,NA,NA,57.692307692307686
98375,Pierce County,WA,47.64512595837897,NA,NA
98382,Clallam County,WA,NA,34.417040358744394,NA
98405,Pierce County,WA,27.163198247535597,NA,NA
98406,Pierce County,WA,57.064622124863085,NA,NA
98498,Pierce County,WA,NA,NA,47.928994082840234
98501,Thurston County,WA,62.541073384446875,NA,NA
98502,Thurston County,WA,NA,57.959641255605376,NA
98503,Thurston County,WA,62.97918948521358,NA,NA
98579,Thurston County,WA,NA,70.06726457399103,NA
98626,Cowlitz County,WA,NA,24.887892376681613,NA
98632,Cowlitz County,WA,NA,3.6995515695067267,NA
98837,Grant County,WA,25.08214676889376,NA,NA
98942,Yakima County,WA,72.3986856516977,NA,NA
99301,Franklin County,WA,NA,60.31390134529148,NA
99337,Benton County,WA,NA,48.76681614349776,57.396449704142015
99338,Benton County,WA,NA,25.672645739910315,NA
99352,Benton County,WA,NA,20.515695067264573,NA
99362,Walla Walla County,WA,20.700985761226725,NA,NA
20002,District of Columbia,DC,NA,6.165919282511211,NA
20012,District of Columbia,DC,95.72836801752464,NA,NA
20018,District of Columbia,DC,NA,53.47533632286996,NA
25302,Kanawha County,WV,79.29901423877328,NA,NA
25404,Berkeley County,WV,65.49835706462213,NA,NA
25405,Berkeley County,WV,NA,NA,85.79881656804734
25425,Jefferson County,WV,NA,57.17488789237668,NA
25427,Berkeley County,WV,57.72179627601315,NA,NA
25541,Cabell County,WV,61.66484118291348,NA,NA
25701,Cabell County,WV,13.03395399780942,NA,NA
25702,Cabell County,WV,85.87075575027382,NA,NA
26041,Marshall County,WV,40.74479737130339,NA,76.62721893491124
26062,Hancock County,WV,9.200438116100766,NA,NA
26105,Wood County,WV,43.81161007667031,NA,NA
26150,Wood County,WV,70.20810514786419,NA,NA
26354,Taylor County,WV,44.359255202628695,NA,NA
26505,Monongalia County,WV,7.0098576122672505,NA,NA
53012,Ozaukee County,WI,NA,42.37668161434978,NA
53051,Waukesha County,WI,38.11610076670318,NA,NA
53066,Waukesha County,WI,NA,NA,20.710059171597635
53081,Sheboygan County,WI,NA,19.170403587443946,NA
53083,Sheboygan County,WI,NA,50.11210762331838,NA
53095,Washington County,WI,NA,NA,61.834319526627226
53098,Dodge County,WI,NA,47.6457399103139,NA
53115,Walworth County,WI,NA,79.48430493273543,41.124260355029584
53118,Waukesha County,WI,NA,NA,77.51479289940828
53132,Milwaukee County,WI,NA,50.11210762331838,NA
53143,Kenosha County,WI,14.895947426067908,NA,NA
53147,Walworth County,WI,38.33515881708653,30.94170403587444,NA
53151,Waukesha County,WI,32.85870755750274,NA,NA
53154,Milwaukee County,WI,16.867469879518072,NA,NA
53172,Milwaukee County,WI,NA,NA,30.473372781065088
53177,Racine County,WI,79.62760131434831,NA,NA
53179,Kenosha County,WI,61.66484118291348,NA,NA
53182,Racine County,WI,94.30449069003286,NA,NA
53189,Waukesha County,WI,51.259583789704266,24.663677130044842,NA
53205,Milwaukee County,WI,NA,40.47085201793722,NA
53209,Milwaukee County,WI,NA,44.73094170403588,NA
53210,Milwaukee County,WI,24.863088718510408,NA,NA
53211,Milwaukee County,WI,84.99452354874042,NA,NA
53216,Milwaukee County,WI,5.147864184008762,NA,NA
53217,Milwaukee County,WI,NA,21.8609865470852,12.721893491124261
53218,Milwaukee County,WI,23.329682365826944,NA,NA
53223,Milwaukee County,WI,NA,8.408071748878925,NA
53224,Milwaukee County,WI,NA,NA,52.071005917159766
53225,Milwaukee County,WI,NA,31.950672645739907,NA
53228,Milwaukee County,WI,NA,69.39461883408072,NA
53235,Milwaukee County,WI,85.65169769989048,73.4304932735426,NA
53402,Racine County,WI,4.70974808324206,NA,NA
53406,Racine County,WI,11.500547645125959,13.228699551569505,NA
53511,Rock County,WI,67.03176341730558,0.11210762331838565,NA
53538,Jefferson County,WI,NA,30.38116591928251,NA
53545,Rock County,WI,NA,16.367713004484305,NA
53546,Rock County,WI,NA,2.8026905829596416,6.8047337278106506
53566,Green County,WI,NA,16.255605381165918,NA
53581,Richland County,WI,96.05695509309967,NA,NA
53704,Dane County,WI,NA,NA,36.09467455621302
53705,Dane County,WI,48.19277108433735,NA,NA
53916,Dodge County,WI,34.61117196056955,NA,NA
53959,Sauk County,WI,36.36363636363637,NA,NA
54022,Pierce County,WI,50.273822562979184,NA,NA
54110,Calumet County,WI,91.23767798466594,NA,NA
54220,Manitowoc County,WI,5.257393209200438,0.8968609865470852,NA
54241,Manitowoc County,WI,83.46111719605696,NA,NA
54304,Brown County,WI,66.92223439211391,NA,NA
54311,Brown County,WI,NA,80.38116591928251,NA
54401,Marathon County,WI,NA,58.29596412556054,NA
54481,Portage County,WI,64.29353778751369,NA,35.50295857988166
54487,Lincoln County,WI,NA,67.2645739910314,NA
54494,Wood County,WI,24.75355969331873,NA,NA
54601,La Crosse County,WI,NA,0.4484304932735426,NA
54636,La Crosse County,WI,NA,NA,51.4792899408284
54646,Juneau County,WI,NA,85.08968609865471,NA
54650,La Crosse County,WI,49.50711938663746,NA,21.005917159763314
54656,Monroe County,WI,NA,64.01345291479821,NA
54667,Vernon County,WI,NA,95.4035874439462,NA
54751,Dunn County,WI,NA,22.533632286995516,NA
54812,Barron County,WI,NA,NA,78.10650887573965
54893,Burnett County,WI,NA,80.94170403587444,NA
54935,Fond du Lac County,WI,NA,9.977578475336323,NA
54937,Fond du Lac County,WI,NA,44.39461883408072,NA
54942,Outagamie County,WI,92.22343921139102,NA,NA
82401,Washakie County,WY,NA,NA,84.91124260355029
82414,Park County,WY,69.11281489594742,NA,NA
82443,Hot Springs County,WY,NA,92.152466367713,NA
82633,Converse County,WY,53.997809419496164,49.66367713004484,NA
82801,Sheridan County,WY,NA,55.15695067264574,NA
82901,Sweetwater County,WY,NA,57.62331838565022,NA
