ZipCode,county,state,Adult
35401,Tuscaloosa County,AL,34.572490706319705
35570,Marion County,AL,71.37546468401487
36703,Dallas County,AL,65.4275092936803
36804,Lee County,AL,61.33828996282528
99503,Anchorage Municipality,AK,52.04460966542751
99577,Anchorage Municipality,AK,77.69516728624535
85008,Maricopa County,AZ,17.100371747211895
85043,Maricopa County,AZ,58.36431226765799
85213,Maricopa County,AZ,65.05576208178438
85296,Maricopa County,AZ,40.520446096654275
85635,Cochise County,AZ,32.71375464684015
86314,Yavapai County,AZ,22.304832713754646
90059,Los Angeles County,CA,42.37918215613383
90250,Los Angeles County,CA,32.342007434944236
93277,Tulare County,CA,33.457249070631974
93901,Monterey County,CA,57.99256505576208
94580,Alameda County,CA,79.182156133829
95811,Sacramento County,CA,96.6542750929368
95951,Glenn County,CA,98.14126394052045
95966,Butte County,CA,12.639405204460965
96080,Tehama County,CA,49.814126394052046
80012,Arapahoe County,CO,14.12639405204461
80128,Jefferson County,CO,61.71003717472119
80202,Denver County,CO,56.50557620817844
80401,Jefferson County,CO,45.353159851301115
80525,Larimer County,CO,20.817843866171003
80537,Larimer County,CO,28.99628252788104
80540,Boulder County,CO,100
80634,Weld County,CO,2.6022304832713754
81401,Montrose County,CO,53.159851301115246
06052,Hartford County,CT,81.04089219330855
06457,Middlesex County,CT,10.780669144981413
06482,Fairfield County,CT,92.93680297397769
32084,St. Johns County,FL,79.92565055762083
32148,Putnam County,FL,80.29739776951673
32244,Duval County,FL,8.178438661710038
32409,Bay County,FL,78.81040892193309
32440,Jackson County,FL,90.33457249070632
32703,Orange County,FL,30.855018587360593
32901,Brevard County,FL,59.85130111524164
33027,Broward County,FL,47.95539033457249
33068,Broward County,FL,78.43866171003717
33605,Hillsborough County,FL,59.479553903345725
33765,Pinellas County,FL,91.44981412639405
33805,Polk County,FL,47.58364312267658
34491,Marion County,FL,66.17100371747212
34609,Hernando County,FL,38.66171003717472
34690,Pasco County,FL,89.59107806691449
34743,Osceola County,FL,52.78810408921933
34787,Orange County,FL,34.20074349442379
30080,Cobb County,GA,56.877323420074354
30113,Haralson County,GA,81.41263940520446
30134,Douglas County,GA,33.08550185873606
30204,Lamar County,GA,86.2453531598513
30276,Coweta County,GA,76.57992565055763
30310,Fulton County,GA,31.226765799256505
30328,Fulton County,GA,71.00371747211895
30601,Clarke County,GA,73.60594795539033
30643,Hart County,GA,67.65799256505576
30904,Richmond County,GA,41.2639405204461
39842,Terrell County,GA,69.88847583643123
96817,Honolulu County,HI,15.241635687732341
83605,Canyon County,ID,35.31598513011153
83647,Elmore County,ID,50.92936802973978
60188,DuPage County,IL,24.53531598513011
60409,Cook County,IL,36.43122676579926
60432,Will County,IL,60.223048327137555
60560,Kendall County,IL,50.18587360594795
60609,Cook County,IL,13.011152416356877
61603,Peoria County,IL,70.26022304832715
61951,Moultrie County,IL,91.82156133828995
46241,Marion County,IN,27.137546468401485
46311,Lake County,IN,39.77695167286245
47581,Martin County,IN,97.02602230483272
47720,Vanderburgh County,IN,78.06691449814126
52302,Linn County,IA,28.25278810408922
52722,Scott County,IA,74.72118959107806
52804,Scott County,IA,21.933085501858738
66061,Johnson County,KS,26.765799256505574
66606,Shawnee County,KS,85.50185873605948
67206,Sedgwick County,KS,94.79553903345726
40071,Spencer County,KY,59.10780669144982
40215,Jefferson County,KY,24.1635687732342
41005,Boone County,KY,64.31226765799256
42003,McCracken County,KY,19.33085501858736
42303,Daviess County,KY,11.895910780669144
42431,Hopkins County,KY,30.483271375464682
70001,Jefferson Parish,LA,67.28624535315984
70363,Terrebonne Parish,LA,27.881040892193308
70392,St. Mary Parish,LA,76.2081784386617
70458,St. Tammany Parish,LA,7.806691449814126
70501,Lafayette Parish,LA,1.486988847583643
70578,Acadia Parish,LA,29.36802973977695
70769,Ascension Parish,LA,12.267657992565056
71111,Bossier Parish,LA,7.063197026022305
71378,Franklin Parish,LA,97.76951672862454
04294,Franklin County,ME,99.25650557620817
20711,Anne Arundel County,MD,89.96282527881041
21093,Baltimore County,MD,49.44237918215613
21222,Baltimore County,MD,6.691449814126393
21403,Anne Arundel County,MD,66.54275092936803
01757,Worcester County,MA,88.47583643122677
01902,Essex County,MA,0
02149,Middlesex County,MA,63.94052044609665
02169,Norfolk County,MA,5.5762081784386615
48035,Macomb County,MI,43.49442379182156
48084,Oakland County,MI,80.66914498141264
48178,Oakland County,MI,40.14869888475837
48223,Wayne County,MI,48.3271375464684
48371,Oakland County,MI,46.09665427509294
48433,Genesee County,MI,57.249070631970255
48503,Genesee County,MI,23.79182156133829
48529,Genesee County,MI,92.56505576208178
48622,Clare County,MI,77.32342007434944
48813,Eaton County,MI,46.468401486988846
48864,Ingham County,MI,76.95167286245353
48867,Shiawassee County,MI,9.66542750929368
48917,Eaton County,MI,11.152416356877323
49421,Oceana County,MI,83.27137546468401
49428,Ottawa County,MI,55.762081784386616
49508,Kent County,MI,73.23420074349443
49509,Kent County,MI,16.728624535315987
49548,Kent County,MI,10.037174721189592
49685,Grand Traverse County,MI,56.13382899628253
49735,Otsego County,MI,69.51672862453532
49770,Emmet County,MI,63.56877323420075
55044,Dakota County,MN,54.27509293680297
55405,Hennepin County,MN,44.237918215613384
55427,Hennepin County,MN,58.7360594795539
55433,Anoka County,MN,43.12267657992565
55906,Olmsted County,MN,74.34944237918215
56007,Freeborn County,MN,20.44609665427509
56093,Waseca County,MN,75.09293680297398
56364,Morrison County,MN,88.84758364312268
39367,Wayne County,MS,82.15613382899627
64015,Jackson County,MO,16.356877323420075
64050,Jackson County,MO,20.074349442379184
64080,Cass County,MO,86.61710037174721
64113,Jackson County,MO,72.11895910780669
64129,Jackson County,MO,79.5539033457249
65018,Moniteau County,MO,82.5278810408922
68025,Dodge County,NE,42.75092936802974
07712,Monmouth County,NJ,3.3457249070631967
08244,Atlantic County,NJ,45.72490706319702
87105,Bernalillo County,NM,4.83271375464684
10457,Bronx County,NY,0.37174721189591076
10473,Bronx County,NY,5.947955390334572
11435,Queens County,NY,13.754646840148698
11738,Suffolk County,NY,87.36059479553904
12180,Rensselaer County,NY,18.587360594795538
12953,Franklin County,NY,23.42007434944238
13316,Oneida County,NY,66.91449814126395
13753,Delaware County,NY,68.77323420074349
13815,Chenango County,NY,17.843866171003718
14006,Erie County,NY,70.63197026022306
14032,Erie County,NY,85.87360594795538
14450,Monroe County,NY,2.973977695167286
14589,Wayne County,NY,42.00743494423792
14616,Monroe County,NY,4.089219330855019
27217,Alamance County,NC,49.07063197026022
27516,Orange County,NC,37.54646840148699
27601,Wake County,NC,94.05204460966543
27701,Durham County,NC,52.41635687732342
28054,Gaston County,NC,25.650557620817843
28110,Union County,NC,29.739776951672862
28326,Harnett County,NC,82.8996282527881
28602,Catawba County,NC,28.624535315985128
28752,McDowell County,NC,21.189591078066915
58104,Cass County,ND,37.174721189591075
43119,Franklin County,OH,31.59851301115242
43123,Franklin County,OH,10.408921933085502
43140,Madison County,OH,44.98141263940521
43223,Franklin County,OH,8.550185873605948
43229,Franklin County,OH,8.921933085501859
43230,Franklin County,OH,21.561338289962826
43302,Marion County,OH,1.1152416356877324
43311,Logan County,OH,36.059479553903344
43551,Wood County,OH,93.3085501858736
43611,Lucas County,OH,18.21561338289963
43953,Jefferson County,OH,39.405204460966544
44105,Cuyahoga County,OH,0.7434944237918215
44126,Cuyahoga County,OH,54.646840148698885
44212,Medina County,OH,4.4609665427509295
44256,Medina County,OH,5.204460966542751
44438,Trumbull County,OH,75.46468401486989
44657,Stark County,OH,85.13011152416357
44691,Wayne County,OH,36.80297397769517
44710,Stark County,OH,65.79925650557621
44889,Huron County,OH,84.75836431226766
45014,Butler County,OH,18.95910780669145
45042,Butler County,OH,26.394052044609666
45324,Greene County,OH,11.524163568773234
45385,Greene County,OH,14.869888475836431
45403,Montgomery County,OH,44.60966542750929
45710,Athens County,OH,94.42379182156134
73025,Oklahoma County,OK,73.97769516728626
74015,Rogers County,OK,89.21933085501858
74055,Tulsa County,OK,57.62081784386617
74133,Tulsa County,OK,37.9182156133829
97030,Multnomah County,OR,22.676579925650557
97138,Clatsop County,OR,62.0817843866171
15061,Beaver County,PA,64.68401486988847
15071,Allegheny County,PA,84.01486988847584
15610,Westmoreland County,PA,98.88475836431226
15666,Westmoreland County,PA,55.01858736059479
16506,Erie County,PA,72.86245353159852
16507,Erie County,PA,83.64312267657994
17034,Dauphin County,PA,97.39776951672863
17038,Lebanon County,PA,90.70631970260223
17044,Mifflin County,PA,15.613382899628252
17104,Dauphin County,PA,23.04832713754647
17325,Adams County,PA,31.970260223048324
17752,Lycoming County,PA,92.19330855018588
17901,Schuylkill County,PA,33.82899628252788
18088,Northampton County,PA,71.74721189591078
18510,Lackawanna County,PA,69.14498141263941
19057,Bucks County,PA,38.28996282527881
19134,Philadelphia County,PA,3.717472118959108
19138,Philadelphia County,PA,15.985130111524162
19140,Philadelphia County,PA,1.858736059479554
19144,Philadelphia County,PA,6.319702602230483
19426,Montgomery County,PA,41.63568773234201
29067,Lancaster County,SC,95.91078066914498
29479,Berkeley County,SC,91.07806691449815
29510,Georgetown County,SC,68.02973977695167
29568,Horry County,SC,93.68029739776952
29630,Pickens County,SC,88.10408921933085
29856,Aiken County,SC,99.62825278810409
57069,Clay County,SD,87.73234200743495
37130,Rutherford County,TN,27.509293680297397
37206,Davidson County,TN,40.89219330855018
37769,Anderson County,TN,84.38661710037175
37801,Blount County,TN,19.702602230483272
37920,Knox County,TN,14.49814126394052
38343,Gibson County,TN,51.6728624535316
38501,Putnam County,TN,25.27881040892193
75204,Dallas County,TX,63.19702602230484
75220,Dallas County,TX,53.53159851301115
76112,Tarrant County,TX,17.472118959107807
76135,Tarrant County,TX,60.594795539033456
76240,Cooke County,TX,47.21189591078067
76513,Bell County,TX,39.03345724907063
77090,Harris County,TX,35.687732342007436
77340,Walker County,TX,86.98884758364312
77536,Harris County,TX,46.84014869888476
77808,Brazos County,TX,62.825278810408925
78217,Bexar County,TX,72.4907063197026
78223,Bexar County,TX,24.907063197026023
78639,Llano County,TX,81.78438661710037
78839,Zavala County,TX,95.53903345724906
84043,Utah County,UT,51.301115241635685
20155,Prince William County,VA,62.45353159851301
20175,Loudoun County,VA,75.8364312267658
22192,Prince William County,VA,26.022304832713754
22611,Clarke County,VA,95.16728624535315
22657,Shenandoah County,VA,55.39033457249071
23181,King William County,VA,98.51301115241635
23601,Newport News city,VA,60.966542750929364
23669,Hampton city,VA,30.111524163568777
24216,Wise County,VA,96.28252788104089
98626,Cowlitz County,WA,50.55762081784386
25401,Berkeley County,WV,43.866171003717476
25705,Cabell County,WV,53.90334572490706
26003,Ohio County,WV,7.434944237918216
53094,Jefferson County,WI,48.698884758364315
53150,Waukesha County,WI,68.40148698884758
53186,Waukesha County,WI,34.94423791821561
53205,Milwaukee County,WI,2.2304832713754648
53218,Milwaukee County,WI,9.293680297397769
53704,Dane County,WI,13.382899628252787
