ZipCode,county,state,Youth,Adult,Retirement,Geriatric
35115,Shelby County,AL,53.81165919282511,NA,NA,NA
35124,Shelby County,AL,NA,NA,41.58653846153847,NA
35211,Jefferson County,AL,NA,16.56441717791411,NA,NA
35216,Jefferson County,AL,NA,NA,NA,54.976303317535546
35242,Shelby County,AL,NA,35.2760736196319,NA,NA
35640,Morgan County,AL,NA,NA,41.105769230769226,NA
35670,Morgan County,AL,NA,83.74233128834356,NA,NA
35954,Etowah County,AL,NA,NA,57.932692307692314,NA
36017,Barbour County,AL,NA,100,NA,NA
36106,Montgomery County,AL,NA,NA,80.76923076923077,NA
36732,Marengo County,AL,NA,NA,74.03846153846155,NA
99503,Anchorage Municipality,AK,NA,79.75460122699386,NA,NA
99507,Anchorage Municipality,AK,NA,37.11656441717792,NA,NA
99801,Juneau City and Borough,AK,NA,NA,68.99038461538461,NA
85019,Maricopa County,AZ,NA,NA,73.3173076923077,NA
85041,Maricopa County,AZ,NA,11.042944785276074,NA,NA
85053,Maricopa County,AZ,23.766816143497756,NA,NA,NA
85259,Maricopa County,AZ,NA,95.70552147239265,NA,NA
85383,Maricopa County,AZ,NA,28.22085889570552,NA,NA
85550,Graham County,AZ,NA,NA,99.51923076923077,NA
85629,Pima County,AZ,NA,NA,62.25961538461539,NA
85713,Pima County,AZ,4.484304932735426,NA,NA,NA
85730,Pima County,AZ,NA,27.607361963190186,NA,NA
85746,Pima County,AZ,NA,NA,75,NA
86004,Coconino County,AZ,NA,9.202453987730062,NA,NA
86033,Navajo County,AZ,NA,88.95705521472392,NA,NA
86047,Navajo County,AZ,NA,NA,38.70192307692308,NA
86303,Yavapai County,AZ,NA,NA,48.07692307692308,NA
86351,Yavapai County,AZ,NA,NA,81.49038461538461,NA
86503,Apache County,AZ,NA,NA,NA,57.81990521327014
86505,Apache County,AZ,NA,NA,76.92307692307693,NA
72113,Pulaski County,AR,36.32286995515695,NA,NA,NA
72116,Pulaski County,AR,NA,NA,47.11538461538461,NA
72209,Pulaski County,AR,NA,NA,70.91346153846155,NA
72401,Craighead County,AR,NA,NA,17.548076923076923,NA
72404,Craighead County,AR,NA,54.601226993865026,NA,NA
72501,Independence County,AR,NA,37.423312883435585,NA,NA
72543,Cleburne County,AR,NA,NA,NA,60.18957345971564
72616,Carroll County,AR,NA,NA,83.89423076923077,NA
72712,Benton County,AR,NA,NA,NA,52.60663507109005
72801,Pope County,AR,64.57399103139014,NA,NA,NA
90020,Los Angeles County,CA,NA,84.04907975460122,NA,NA
90025,Los Angeles County,CA,NA,92.94478527607362,NA,NA
90034,Los Angeles County,CA,NA,NA,NA,46.91943127962085
90038,Los Angeles County,CA,NA,81.59509202453987,NA,NA
90044,Los Angeles County,CA,NA,30.981595092024538,NA,NA
90069,Los Angeles County,CA,NA,57.36196319018405,NA,NA
90212,Los Angeles County,CA,NA,NA,NA,72.03791469194313
90232,Los Angeles County,CA,NA,NA,NA,71.56398104265402
90265,Los Angeles County,CA,95.51569506726457,NA,NA,NA
90277,Los Angeles County,CA,NA,56.44171779141104,NA,NA
90291,Los Angeles County,CA,NA,NA,60.09615384615385,NA
90403,Los Angeles County,CA,NA,NA,73.5576923076923,40.758293838862556
90601,Los Angeles County,CA,NA,91.41104294478528,NA,NA
90712,Los Angeles County,CA,NA,NA,52.88461538461539,NA
90723,Los Angeles County,CA,NA,55.52147239263804,NA,NA
90744,Los Angeles County,CA,NA,NA,60.33653846153846,NA
91001,Los Angeles County,CA,NA,NA,74.27884615384616,NA
91016,Los Angeles County,CA,NA,60.42944785276073,NA,NA
91107,Los Angeles County,CA,NA,NA,51.92307692307693,NA
91306,Los Angeles County,CA,70.4035874439462,NA,NA,NA
91355,Los Angeles County,CA,NA,NA,53.125,NA
91605,Los Angeles County,CA,NA,NA,50.480769230769226,NA
91732,Los Angeles County,CA,NA,46.31901840490797,NA,NA
91910,San Diego County,CA,NA,NA,36.53846153846153,NA
92025,San Diego County,CA,NA,NA,NA,54.502369668246445
92037,San Diego County,CA,NA,86.1963190184049,NA,NA
92064,San Diego County,CA,26.905829596412556,NA,NA,NA
92065,San Diego County,CA,NA,53.987730061349694,NA,NA
92116,San Diego County,CA,NA,NA,NA,87.67772511848341
92118,San Diego County,CA,83.40807174887892,NA,NA,NA
92220,Riverside County,CA,NA,87.42331288343557,NA,NA
92411,San Bernardino County,CA,NA,NA,46.15384615384615,NA
92586,Riverside County,CA,NA,NA,NA,33.649289099526065
92587,Riverside County,CA,NA,NA,85.8173076923077,NA
92606,Orange County,CA,NA,85.2760736196319,NA,NA
92692,Orange County,CA,NA,76.07361963190185,NA,NA
93063,Ventura County,CA,NA,72.69938650306749,30.76923076923077,NA
93313,Kern County,CA,NA,NA,91.34615384615384,NA
93620,Merced County,CA,NA,NA,NA,100
93703,Fresno County,CA,NA,49.693251533742334,NA,NA
94002,San Mateo County,CA,NA,58.895705521472394,NA,NA
94025,San Mateo County,CA,NA,NA,40.625,NA
94043,Santa Clara County,CA,NA,NA,NA,61.61137440758294
94061,San Mateo County,CA,NA,NA,55.28846153846154,NA
94085,Santa Clara County,CA,NA,NA,NA,92.89099526066352
94103,San Francisco County,CA,NA,NA,NA,21.80094786729858
94110,San Francisco County,CA,NA,NA,14.663461538461538,NA
94111,San Francisco County,CA,NA,NA,99.75961538461539,NA
94118,San Francisco County,CA,NA,59.20245398773007,NA,NA
94124,San Francisco County,CA,NA,25.766871165644172,58.41346153846154,NA
94301,Santa Clara County,CA,NA,NA,NA,69.66824644549763
94303,San Mateo County,CA,NA,NA,NA,36.492890995260666
94509,Contra Costa County,CA,91.4798206278027,NA,NA,23.696682464454977
94510,Solano County,CA,NA,NA,63.942307692307686,NA
94536,Alameda County,CA,NA,34.96932515337423,NA,NA
94553,Contra Costa County,CA,NA,NA,33.65384615384615,NA
94566,Alameda County,CA,NA,NA,43.02884615384615,NA
94597,Contra Costa County,CA,NA,NA,78.60576923076923,NA
94609,Alameda County,CA,NA,NA,98.07692307692307,NA
94611,Alameda County,CA,NA,NA,NA,44.07582938388626
94804,Contra Costa County,CA,NA,NA,47.355769230769226,NA
94901,Marin County,CA,51.12107623318386,57.668711656441715,NA,NA
94903,Marin County,CA,91.92825112107623,NA,54.567307692307686,NA
95003,Santa Cruz County,CA,NA,88.65030674846625,NA,NA
95019,Santa Cruz County,CA,82.51121076233184,NA,NA,NA
95050,Santa Clara County,CA,NA,74.5398773006135,NA,NA
95111,Santa Clara County,CA,NA,41.41104294478527,NA,NA
95117,Santa Clara County,CA,NA,NA,75.24038461538461,NA
95129,Santa Clara County,CA,NA,88.34355828220859,NA,NA
95133,Santa Clara County,CA,NA,NA,89.66346153846155,NA
95134,Santa Clara County,CA,NA,94.78527607361963,NA,NA
95341,Merced County,CA,16.143497757847534,NA,NA,NA
95380,Stanislaus County,CA,82.95964125560538,NA,NA,NA
95476,Sonoma County,CA,78.02690582959642,NA,NA,NA
95490,Mendocino County,CA,NA,93.55828220858896,NA,NA
95608,Sacramento County,CA,NA,44.171779141104295,NA,NA
95616,Yolo County,CA,NA,NA,67.54807692307693,NA
95618,Yolo County,CA,NA,NA,93.26923076923077,NA
95667,El Dorado County,CA,NA,35.58282208588957,8.653846153846153,NA
95682,El Dorado County,CA,NA,61.65644171779141,NA,NA
95687,Solano County,CA,NA,41.717791411042946,NA,NA
95816,Sacramento County,CA,NA,NA,NA,81.04265402843602
95822,Sacramento County,CA,32.28699551569507,NA,NA,NA
95841,Sacramento County,CA,NA,NA,82.9326923076923,NA
95969,Butte County,CA,NA,NA,NA,7.109004739336493
96055,Tehama County,CA,NA,97.54601226993866,NA,NA
96137,Lassen County,CA,NA,NA,97.83653846153845,NA
96150,El Dorado County,CA,NA,NA,67.54807692307693,NA
80122,Arapahoe County,CO,38.11659192825112,NA,NA,NA
80124,Douglas County,CO,NA,69.93865030674846,NA,NA
80126,Douglas County,CO,NA,NA,85.09615384615384,NA
80134,Douglas County,CO,NA,26.993865030674847,NA,NA
80205,Denver County,CO,NA,46.93251533742331,NA,NA
80210,Denver County,CO,NA,NA,56.00961538461539,NA
80214,Jefferson County,CO,NA,NA,71.63461538461539,NA
80219,Denver County,CO,NA,23.619631901840492,NA,NA
80224,Denver County,CO,NA,NA,NA,64.45497630331754
80234,Adams County,CO,32.73542600896861,NA,NA,NA
80238,Denver County,CO,NA,80.3680981595092,NA,NA
80249,Denver County,CO,NA,40.1840490797546,NA,NA
80503,Boulder County,CO,NA,NA,NA,55.45023696682464
80513,Larimer County,CO,78.47533632286996,NA,NA,NA
80525,Larimer County,CO,NA,NA,16.58653846153846,NA
80634,Weld County,CO,NA,NA,NA,16.113744075829384
80640,Adams County,CO,NA,94.1717791411043,NA,NA
80642,Weld County,CO,97.30941704035875,98.46625766871165,NA,NA
80923,El Paso County,CO,NA,64.7239263803681,NA,NA
81007,Pueblo County,CO,NA,NA,46.394230769230774,NA
81224,Gunnison County,CO,97.75784753363229,NA,NA,NA
81504,Mesa County,CO,NA,NA,84.375,NA
81505,Mesa County,CO,NA,90.49079754601227,NA,NA
06032,Hartford County,CT,NA,NA,NA,59.241706161137444
06084,Tolland County,CT,71.74887892376681,NA,NA,NA
06085,Hartford County,CT,72.19730941704036,NA,NA,NA
06105,Hartford County,CT,38.56502242152467,NA,NA,NA
06108,Hartford County,CT,NA,32.20858895705521,NA,NA
06281,Windham County,CT,NA,NA,76.6826923076923,NA
06460,New Haven County,CT,NA,30.061349693251532,NA,NA
06492,New Haven County,CT,NA,NA,NA,9.47867298578199
06511,New Haven County,CT,6.726457399103139,NA,NA,NA
06706,New Haven County,CT,NA,63.80368098159509,NA,NA
06790,Litchfield County,CT,NA,NA,5.288461538461538,NA
06854,Fairfield County,CT,NA,NA,NA,71.09004739336493
19702,New Castle County,DE,NA,NA,23.317307692307693,NA
19709,New Castle County,DE,NA,NA,25.240384615384613,NA
19720,New Castle County,DE,NA,5.828220858895705,NA,NA
19802,New Castle County,DE,16.591928251121075,NA,NA,NA
19808,New Castle County,DE,NA,NA,91.82692307692307,NA
19810,New Castle County,DE,NA,NA,43.269230769230774,NA
19971,Sussex County,DE,NA,NA,NA,45.023696682464454
32073,Clay County,FL,NA,NA,34.375,NA
32162,Sumter County,FL,NA,NA,5.048076923076923,NA
32204,Duval County,FL,NA,NA,96.63461538461539,NA
32234,Duval County,FL,NA,86.80981595092024,NA,NA
32425,Holmes County,FL,NA,NA,NA,78.67298578199052
32615,Alachua County,FL,NA,68.09815950920245,59.375,NA
32618,Alachua County,FL,NA,82.51533742331289,NA,NA
32619,Gilchrist County,FL,90.5829596412556,NA,NA,NA
32621,Levy County,FL,NA,89.2638036809816,NA,NA
32640,Putnam County,FL,NA,NA,72.11538461538461,NA
32668,Levy County,FL,87.89237668161435,NA,NA,NA
32669,Alachua County,FL,NA,98.77300613496932,NA,NA
32693,Gilchrist County,FL,NA,NA,94.47115384615384,85.78199052132702
32765,Seminole County,FL,NA,59.50920245398773,NA,NA
32771,Seminole County,FL,NA,NA,NA,51.65876777251185
32836,Orange County,FL,NA,NA,85.57692307692307,NA
32907,Brevard County,FL,NA,52.45398773006135,NA,NA
33009,Broward County,FL,NA,NA,48.79807692307692,NA
33029,Broward County,FL,NA,NA,87.25961538461539,NA
33129,Miami-Dade County,FL,NA,NA,89.42307692307693,NA
33133,Miami-Dade County,FL,NA,NA,77.40384615384616,NA
33177,Miami-Dade County,FL,NA,78.22085889570552,NA,NA
33428,Palm Beach County,FL,NA,NA,54.08653846153846,NA
33442,Broward County,FL,NA,84.96932515337423,NA,NA
33477,Palm Beach County,FL,NA,NA,80.04807692307693,NA
33612,Hillsborough County,FL,NA,40.79754601226993,NA,NA
33843,Polk County,FL,NA,NA,NA,74.40758293838863
33852,Highlands County,FL,84.75336322869956,NA,NA,NA
33913,Lee County,FL,NA,NA,35.81730769230769,NA
33936,Lee County,FL,49.327354260089685,NA,NA,NA
33981,Charlotte County,FL,NA,NA,75.48076923076923,NA
34105,Collier County,FL,NA,92.63803680981594,NA,NA
34266,DeSoto County,FL,44.39461883408072,NA,NA,NA
34471,Marion County,FL,52.46636771300448,NA,NA,NA
34484,Sumter County,FL,NA,NA,NA,97.6303317535545
34668,Pasco County,FL,NA,NA,26.923076923076923,NA
34743,Osceola County,FL,NA,NA,NA,68.72037914691943
34748,Lake County,FL,NA,NA,44.95192307692308,NA
30004,Fulton County,GA,NA,47.54601226993865,NA,NA
30005,Fulton County,GA,27.802690582959645,NA,NA,NA
30038,DeKalb County,GA,NA,NA,51.682692307692314,NA
30044,Gwinnett County,GA,NA,NA,20.192307692307693,NA
30066,Cobb County,GA,NA,52.760736196319016,NA,NA
30082,Cobb County,GA,65.47085201793722,NA,NA,NA
30116,Carroll County,GA,NA,NA,82.6923076923077,NA
30117,Carroll County,GA,NA,NA,69.95192307692307,NA
30215,Fayette County,GA,NA,65.33742331288343,NA,NA
30292,Pike County,GA,NA,NA,95.4326923076923,NA
30318,Fulton County,GA,NA,NA,NA,43.60189573459716
30337,Fulton County,GA,NA,NA,86.53846153846155,NA
30513,Fannin County,GA,NA,NA,74.51923076923077,NA
30546,Towns County,GA,NA,NA,71.39423076923077,NA
30606,Clarke County,GA,NA,42.331288343558285,NA,NA
31322,Chatham County,GA,NA,NA,77.88461538461539,NA
31406,Chatham County,GA,NA,NA,NA,41.70616113744076
31907,Muscogee County,GA,NA,NA,NA,53.08056872037915
96734,Honolulu County,HI,NA,NA,17.067307692307693,NA
96789,Honolulu County,HI,NA,22.085889570552148,13.701923076923078,NA
96813,Honolulu County,HI,NA,NA,NA,52.13270142180095
96819,Honolulu County,HI,10.31390134529148,NA,NA,NA
83301,Twin Falls County,ID,NA,NA,NA,0
83501,Nez Perce County,ID,NA,NA,17.307692307692307,NA
83605,Canyon County,ID,NA,NA,60.817307692307686,NA
83704,Ada County,ID,NA,NA,NA,5.213270142180095
83706,Ada County,ID,NA,NA,NA,26.066350710900476
60020,Lake County,IL,69.50672645739911,NA,NA,NA
60035,Lake County,IL,40.35874439461883,NA,NA,NA
60044,Lake County,IL,NA,NA,86.29807692307693,NA
60053,Cook County,IL,NA,NA,NA,40.28436018957346
60056,Cook County,IL,NA,NA,NA,11.374407582938389
60060,Lake County,IL,NA,NA,71.15384615384616,NA
60067,Cook County,IL,NA,NA,24.759615384615387,NA
60077,Cook County,IL,NA,NA,NA,49.763033175355446
60083,Lake County,IL,NA,97.23926380368098,NA,NA
60087,Lake County,IL,NA,73.92638036809815,NA,NA
60091,Cook County,IL,41.70403587443946,NA,NA,NA
60093,Cook County,IL,95.06726457399103,NA,NA,NA
60102,McHenry County,IL,NA,NA,79.5673076923077,NA
60135,DeKalb County,IL,93.72197309417041,NA,NA,NA
60178,DeKalb County,IL,NA,58.58895705521472,NA,NA
60191,DuPage County,IL,NA,NA,NA,83.41232227488152
60411,Cook County,IL,40.80717488789238,NA,NA,NA
60441,Will County,IL,NA,22.392638036809817,NA,NA
60462,Cook County,IL,34.97757847533632,NA,10.096153846153847,NA
60467,Cook County,IL,21.973094170403588,NA,NA,NA
60491,Will County,IL,NA,NA,32.21153846153847,NA
60516,DuPage County,IL,NA,NA,96.15384615384616,NA
60523,DuPage County,IL,66.3677130044843,NA,NA,NA
60564,Will County,IL,48.4304932735426,NA,NA,NA
60607,Cook County,IL,NA,NA,50,NA
60613,Cook County,IL,NA,NA,38.94230769230769,NA
60614,Cook County,IL,NA,58.282208588957054,NA,NA
60618,Cook County,IL,NA,NA,24.519230769230766,NA
60622,Cook County,IL,NA,NA,49.27884615384615,NA
60623,Cook County,IL,NA,NA,17.78846153846154,NA
60629,Cook County,IL,58.744394618834086,NA,NA,NA
60637,Cook County,IL,NA,16.257668711656443,NA,NA
60638,Cook County,IL,11.659192825112108,11.65644171779141,NA,NA
60646,Cook County,IL,47.08520179372198,NA,NA,NA
60660,Cook County,IL,NA,NA,73.07692307692307,NA
60804,Cook County,IL,NA,NA,19.230769230769234,NA
60901,Kankakee County,IL,NA,71.77914110429448,NA,NA
61081,Whiteside County,IL,NA,NA,52.644230769230774,NA
61115,Winnebago County,IL,NA,NA,NA,63.98104265402843
61348,LaSalle County,IL,NA,NA,99.27884615384616,NA
61520,Fulton County,IL,NA,92.02453987730061,NA,NA
61603,Peoria County,IL,NA,NA,NA,88.15165876777252
61822,Champaign County,IL,NA,NA,NA,30.33175355450237
61853,Champaign County,IL,NA,NA,88.9423076923077,NA
61920,Coles County,IL,50.224215246636774,NA,NA,NA
62033,Macoupin County,IL,99.55156950672645,NA,NA,NA
62095,Madison County,IL,88.78923766816143,NA,NA,NA
62220,St. Clair County,IL,71.30044843049326,NA,NA,NA
62249,Madison County,IL,NA,94.47852760736197,NA,NA
62450,Richland County,IL,59.19282511210763,NA,NA,NA
62521,Macon County,IL,NA,84.3558282208589,NA,NA
62526,Macon County,IL,NA,NA,12.740384615384615,NA
62656,Logan County,IL,NA,NA,68.75,NA
62881,Marion County,IL,NA,NA,81.00961538461539,NA
46143,Johnson County,IN,NA,23.31288343558282,NA,NA
46168,Hendricks County,IN,NA,43.558282208588956,NA,NA
46227,Marion County,IN,NA,NA,37.25961538461539,NA
46347,Porter County,IN,96.41255605381166,NA,NA,NA
46507,Elkhart County,IN,86.09865470852019,NA,NA,NA
46901,Howard County,IN,NA,2.7607361963190185,NA,NA
46952,Grant County,IN,54.26008968609865,NA,NA,NA
47250,Jefferson County,IN,NA,NA,61.29807692307693,NA
47331,Fayette County,IN,NA,NA,18.75,NA
47362,Henry County,IN,27.3542600896861,NA,NA,NA
47374,Wayne County,IN,NA,NA,NA,2.3696682464454977
47401,Monroe County,IN,NA,NA,79.08653846153845,NA
47403,Monroe County,IN,NA,NA,56.730769230769226,NA
47711,Vanderburgh County,IN,69.05829596412556,NA,NA,NA
47714,Vanderburgh County,IN,10.762331838565023,NA,NA,NA
50023,Polk County,IA,56.95067264573991,NA,NA,NA
50263,Dallas County,IA,NA,NA,82.21153846153845,NA
50266,Polk County,IA,NA,81.90184049079755,NA,NA
51360,Dickinson County,IA,56.05381165919282,NA,NA,NA
51503,Pottawattamie County,IA,NA,10.736196319018406,NA,NA
51566,Montgomery County,IA,NA,80.06134969325154,NA,NA
52240,Johnson County,IA,NA,NA,25,NA
52241,Johnson County,IA,NA,NA,NA,86.25592417061611
52404,Linn County,IA,NA,NA,21.634615384615387,NA
52641,Henry County,IA,63.67713004484305,NA,NA,NA
52732,Clinton County,IA,NA,NA,32.45192307692308,NA
52761,Muscatine County,IA,NA,13.190184049079754,NA,NA
66614,Shawnee County,KS,NA,38.036809815950924,NA,NA
67042,Butler County,KS,NA,NA,64.42307692307693,NA
67357,Labette County,KS,NA,NA,NA,64.92890995260665
40143,Breckinridge County,KY,NA,NA,NA,87.20379146919431
40175,Hardin County,KY,NA,61.34969325153374,NA,NA
40514,Fayette County,KY,89.68609865470853,NA,NA,NA
41030,Grant County,KY,NA,NA,89.1826923076923,NA
41230,Lawrence County,KY,28.699551569506728,NA,NA,NA
42101,Warren County,KY,NA,10.122699386503067,NA,NA
42103,Warren County,KY,NA,66.56441717791411,NA,NA
42303,Daviess County,KY,NA,NA,NA,29.383886255924168
70118,Orleans Parish,LA,NA,NA,24.03846153846154,NA
70403,Tangipahoa Parish,LA,NA,NA,35.33653846153847,NA
70431,St. Tammany Parish,LA,NA,93.25153374233128,NA,NA
70447,St. Tammany Parish,LA,90.13452914798206,NA,NA,73.45971563981043
70570,St. Landry Parish,LA,NA,11.96319018404908,NA,NA
70582,St. Martin Parish,LA,7.174887892376682,NA,NA,NA
70734,Ascension Parish,LA,NA,90.1840490797546,NA,NA
70769,Ascension Parish,LA,NA,NA,NA,70.61611374407583
70785,Livingston Parish,LA,NA,NA,NA,86.7298578199052
70806,East Baton Rouge Parish,LA,NA,NA,42.06730769230769,NA
70812,East Baton Rouge Parish,LA,NA,NA,NA,95.260663507109
71037,Bossier Parish,LA,NA,18.404907975460123,NA,NA
71129,Caddo Parish,LA,NA,NA,67.3076923076923,NA
71303,Rapides Parish,LA,NA,NA,98.3173076923077,NA
71449,Sabine Parish,LA,NA,NA,98.79807692307693,NA
04005,York County,ME,NA,NA,9.615384615384617,NA
04009,Cumberland County,ME,NA,NA,89.90384615384616,NA
04064,York County,ME,NA,NA,86.77884615384616,NA
04072,York County,ME,NA,42.944785276073624,NA,NA
04106,Cumberland County,ME,52.46636771300448,NA,NA,NA
04281,Oxford County,ME,91.03139013452915,NA,NA,NA
04901,Kennebec County,ME,NA,NA,6.971153846153847,NA
04915,Waldo County,ME,NA,NA,40.625,NA
04963,Kennebec County,ME,NA,65.03067484662577,NA,NA
20735,Prince George's County,MD,NA,61.963190184049076,NA,NA
20784,Prince George's County,MD,NA,NA,NA,84.36018957345972
20866,Montgomery County,MD,NA,91.1042944785276,NA,NA
20902,Montgomery County,MD,NA,73.31288343558282,NA,NA
20904,Montgomery County,MD,NA,62.57668711656442,NA,NA
21009,Harford County,MD,NA,NA,68.99038461538461,NA
21037,Anne Arundel County,MD,NA,NA,74.75961538461539,NA
21117,Baltimore County,MD,57.399103139013455,NA,NA,NA
21217,Baltimore city,MD,NA,NA,21.875,NA
21222,Baltimore County,MD,NA,8.282208588957054,NA,NA
21227,Baltimore County,MD,NA,NA,50.96153846153846,NA
21228,Baltimore County,MD,NA,NA,NA,20.379146919431278
21230,Baltimore city,MD,NA,38.95705521472393,NA,NA
21231,Baltimore city,MD,NA,NA,69.47115384615384,NA
21651,Kent County,MD,NA,99.69325153374233,NA,NA
21863,Worcester County,MD,NA,96.31901840490798,NA,NA
01020,Hampden County,MA,NA,NA,NA,21.32701421800948
01105,Hampden County,MA,NA,NA,NA,56.39810426540285
01107,Hampden County,MA,9.865470852017937,NA,NA,NA
01108,Hampden County,MA,NA,NA,35.57692307692308,NA
01109,Hampden County,MA,NA,NA,14.423076923076922,NA
01331,Worcester County,MA,NA,NA,38.46153846153847,NA
01370,Franklin County,MA,NA,NA,NA,90.04739336492891
01420,Worcester County,MA,NA,NA,4.086538461538462,NA
01462,Worcester County,MA,50.672645739910315,NA,NA,NA
01468,Worcester County,MA,NA,97.85276073619632,NA,NA
01520,Worcester County,MA,59.19282511210763,NA,NA,NA
01534,Worcester County,MA,NA,76.68711656441718,NA,NA
01540,Worcester County,MA,79.82062780269058,NA,NA,NA
01566,Worcester County,MA,NA,NA,91.58653846153845,NA
01604,Worcester County,MA,NA,NA,4.567307692307692,NA
01702,Middlesex County,MA,4.932735426008969,NA,NA,NA
01720,Middlesex County,MA,NA,37.73006134969325,NA,NA
01752,Middlesex County,MA,37.66816143497758,6.134969325153374,NA,NA
01757,Worcester County,MA,NA,NA,NA,31.27962085308057
01803,Middlesex County,MA,NA,NA,NA,4.739336492890995
01810,Essex County,MA,20.179372197309416,NA,21.394230769230766,NA
01826,Middlesex County,MA,NA,NA,6.25,NA
01832,Essex County,MA,NA,6.748466257668712,NA,NA
01841,Essex County,MA,11.210762331838566,NA,NA,NA
01844,Essex County,MA,2.242152466367713,NA,6.730769230769231,NA
01876,Middlesex County,MA,NA,NA,6.009615384615385,NA
01886,Middlesex County,MA,NA,23.006134969325153,NA,NA
01887,Middlesex County,MA,NA,NA,NA,32.70142180094787
01906,Essex County,MA,NA,5.521472392638037,43.99038461538461,NA
01913,Essex County,MA,NA,26.68711656441718,NA,NA
01915,Essex County,MA,NA,NA,2.403846153846154,NA
01921,Essex County,MA,NA,NA,87.74038461538461,NA
01929,Essex County,MA,NA,NA,97.35576923076923,NA
01940,Essex County,MA,NA,NA,NA,28.90995260663507
01945,Essex County,MA,NA,NA,NA,41.23222748815166
01951,Essex County,MA,NA,NA,95.67307692307693,NA
02038,Norfolk County,MA,NA,14.417177914110429,NA,NA
02062,Norfolk County,MA,NA,15.030674846625766,NA,25.118483412322274
02067,Norfolk County,MA,NA,NA,86.0576923076923,NA
02114,Suffolk County,MA,NA,NA,42.30769230769231,NA
02115,Suffolk County,MA,NA,NA,NA,6.6350710900473935
02119,Suffolk County,MA,NA,NA,0.4807692307692308,NA
02122,Suffolk County,MA,NA,12.883435582822086,NA,NA
02124,Suffolk County,MA,NA,NA,NA,1.8957345971563981
02126,Suffolk County,MA,NA,NA,8.173076923076923,NA
02128,Suffolk County,MA,1.7937219730941705,NA,NA,NA
02134,Suffolk County,MA,NA,NA,NA,65.87677725118483
02138,Middlesex County,MA,NA,NA,10.576923076923077,20.85308056872038
02140,Middlesex County,MA,23.318385650224215,NA,NA,NA
02141,Middlesex County,MA,NA,NA,31.009615384615387,NA
02144,Middlesex County,MA,NA,NA,NA,26.540284360189574
02152,Suffolk County,MA,NA,NA,NA,15.639810426540285
02169,Norfolk County,MA,NA,NA,0.9615384615384616,NA
02188,Norfolk County,MA,NA,NA,43.50961538461539,NA
02301,Plymouth County,MA,NA,0,0.2403846153846154,NA
02324,Plymouth County,MA,NA,NA,29.086538461538463,NA
02333,Plymouth County,MA,NA,68.71165644171779,NA,NA
02341,Plymouth County,MA,NA,NA,94.23076923076923,NA
02360,Plymouth County,MA,NA,1.8404907975460123,NA,NA
02382,Plymouth County,MA,NA,NA,55.769230769230774,NA
02420,Middlesex County,MA,28.251121076233183,NA,NA,NA
02446,Norfolk County,MA,13.452914798206278,74.23312883435584,NA,NA
02476,Middlesex County,MA,36.771300448430495,NA,NA,NA
02492,Norfolk County,MA,26.00896860986547,NA,NA,NA
02536,Barnstable County,MA,NA,NA,19.471153846153847,NA
02638,Barnstable County,MA,NA,NA,NA,83.88625592417061
02645,Barnstable County,MA,NA,71.16564417177914,NA,NA
02648,Barnstable County,MA,NA,NA,68.26923076923077,NA
02721,Bristol County,MA,NA,0.3067484662576687,NA,NA
02723,Bristol County,MA,NA,4.601226993865031,NA,NA
02745,Bristol County,MA,NA,3.6809815950920246,NA,NA
02746,Bristol County,MA,NA,3.374233128834356,NA,NA
02767,Bristol County,MA,NA,NA,45.91346153846153,NA
48021,Macomb County,MI,NA,12.269938650306749,NA,NA
48034,Oakland County,MI,NA,38.34355828220859,NA,NA
48036,Macomb County,MI,NA,NA,32.93269230769231,NA
48038,Macomb County,MI,NA,47.85276073619632,NA,NA
48043,Macomb County,MI,NA,69.6319018404908,NA,NA
48075,Oakland County,MI,NA,NA,NA,35.07109004739337
48092,Macomb County,MI,NA,NA,NA,42.65402843601896
48098,Oakland County,MI,52.01793721973094,NA,NA,NA
48111,Wayne County,MI,NA,9.815950920245399,NA,NA
48124,Wayne County,MI,NA,19.938650306748464,29.326923076923077,NA
48125,Wayne County,MI,NA,22.699386503067483,NA,NA
48126,Wayne County,MI,NA,NA,NA,22.274881516587676
48127,Wayne County,MI,NA,NA,NA,11.848341232227488
48135,Wayne County,MI,21.076233183856502,NA,NA,NA
48140,Monroe County,MI,NA,99.38650306748467,NA,NA
48152,Wayne County,MI,NA,70.24539877300614,55.04807692307693,NA
48170,Wayne County,MI,NA,14.723926380368098,NA,NA
48173,Wayne County,MI,NA,61.04294478527608,NA,NA
48176,Washtenaw County,MI,NA,NA,NA,32.22748815165877
48184,Wayne County,MI,NA,NA,29.807692307692307,NA
48187,Wayne County,MI,NA,NA,56.49038461538461,NA
48191,Washtenaw County,MI,NA,NA,90.625,NA
48195,Wayne County,MI,NA,23.92638036809816,NA,NA
48203,Wayne County,MI,NA,15.950920245398773,NA,NA
48205,Wayne County,MI,NA,NA,19.71153846153846,NA
48216,Wayne County,MI,NA,96.93251533742331,NA,NA
48228,Wayne County,MI,NA,NA,12.980769230769232,NA
48234,Wayne County,MI,NA,NA,20.432692307692307,NA
48236,Wayne County,MI,NA,34.04907975460122,NA,19.90521327014218
48237,Oakland County,MI,NA,NA,23.798076923076923,NA
48301,Oakland County,MI,60.0896860986547,NA,NA,NA
48312,Macomb County,MI,NA,26.380368098159508,NA,NA
48313,Macomb County,MI,NA,93.86503067484662,NA,NA
48315,Macomb County,MI,29.596412556053814,44.47852760736196,NA,NA
48317,Macomb County,MI,NA,NA,NA,68.24644549763033
48324,Oakland County,MI,83.85650224215246,NA,NA,NA
48331,Oakland County,MI,NA,NA,25.961538461538463,NA
48371,Oakland County,MI,NA,NA,95.91346153846155,NA
48374,Oakland County,MI,NA,78.52760736196319,78.125,NA
48375,Oakland County,MI,NA,NA,NA,62.08530805687204
48382,Oakland County,MI,NA,NA,72.59615384615384,NA
49004,Kalamazoo County,MI,NA,49.079754601226995,NA,NA
49017,Calhoun County,MI,61.43497757847533,NA,NA,NA
49021,Eaton County,MI,NA,NA,NA,88.62559241706161
49057,Van Buren County,MI,NA,NA,NA,82.46445497630332
49068,Calhoun County,MI,NA,86.1963190184049,NA,NA
49117,Berrien County,MI,NA,NA,93.02884615384616,NA
49120,Berrien County,MI,8.520179372197308,NA,NA,NA
49203,Jackson County,MI,NA,NA,12.5,NA
49221,Lenawee County,MI,NA,7.05521472392638,34.13461538461539,NA
49224,Calhoun County,MI,43.49775784753363,NA,NA,NA
49315,Kent County,MI,NA,51.84049079754601,NA,NA
49327,Newaygo County,MI,NA,81.90184049079755,NA,NA
49330,Kent County,MI,85.20179372197309,NA,NA,NA
49341,Kent County,MI,61.88340807174888,NA,NA,NA
49442,Muskegon County,MI,NA,NA,NA,10.90047393364929
49508,Kent County,MI,NA,NA,15.384615384615385,NA
49525,Kent County,MI,NA,NA,29.567307692307693,NA
49684,Grand Traverse County,MI,NA,NA,NA,33.175355450236964
49721,Cheboygan County,MI,34.08071748878923,NA,NA,NA
49756,Montmorency County,MI,NA,NA,NA,81.51658767772511
55345,Hennepin County,MN,79.37219730941703,NA,NA,NA
55350,McLeod County,MN,NA,NA,83.17307692307693,NA
55379,Scott County,MN,NA,NA,NA,80.09478672985783
55387,Carver County,MN,NA,NA,NA,89.0995260663507
55398,Sherburne County,MN,94.17040358744396,NA,NA,NA
55407,Hennepin County,MN,NA,NA,11.057692307692307,NA
55426,Hennepin County,MN,NA,29.447852760736197,NA,NA
55427,Hennepin County,MN,69.95515695067265,NA,NA,NA
55433,Anoka County,MN,26.45739910313901,NA,NA,NA
55447,Hennepin County,MN,NA,NA,60.57692307692307,NA
55746,St. Louis County,MN,NA,77.91411042944786,92.78846153846155,38.862559241706165
55792,St. Louis County,MN,NA,NA,66.34615384615384,NA
55805,St. Louis County,MN,NA,50.61349693251533,NA,NA
55906,Olmsted County,MN,NA,NA,66.10576923076923,NA
55912,Mower County,MN,NA,NA,7.451923076923077,0.47393364928909953
55987,Winona County,MN,NA,10.429447852760736,NA,NA
56003,Nicollet County,MN,NA,NA,NA,91.9431279620853
56007,Freeborn County,MN,NA,NA,NA,3.3175355450236967
56031,Martin County,MN,NA,51.22699386503068,NA,NA
56055,Blue Earth County,MN,NA,NA,100,NA
56093,Waseca County,MN,NA,75.15337423312883,NA,NA
56156,Rock County,MN,NA,NA,NA,45.97156398104265
56267,Stevens County,MN,NA,NA,84.13461538461539,NA
56425,Crow Wing County,MN,NA,NA,NA,45.497630331753555
56501,Becker County,MN,NA,NA,31.971153846153843,NA
56649,Koochiching County,MN,NA,NA,NA,85.30805687203792
56701,Pennington County,MN,NA,NA,30.048076923076923,NA
56721,Polk County,MN,29.596412556053814,57.05521472392638,NA,NA
39059,Copiah County,MS,NA,83.12883435582822,NA,NA
39074,Scott County,MS,NA,40.49079754601227,NA,NA
63011,St. Louis County,MO,NA,NA,22.355769230769234,NA
63021,St. Louis County,MO,19.730941704035875,NA,NA,NA
63080,Franklin County,MO,NA,50.306748466257666,NA,NA
63112,St. Louis city,MO,NA,55.828220858895705,NA,NA
63122,St. Louis County,MO,NA,NA,NA,17.535545023696685
63125,St. Louis County,MO,NA,48.466257668711656,NA,NA
63134,St. Louis County,MO,81.61434977578476,NA,NA,NA
63301,St. Charles County,MO,9.417040358744394,NA,NA,NA
63775,Perry County,MO,NA,39.263803680981596,NA,NA
64029,Jackson County,MO,NA,42.63803680981595,NA,NA
64030,Jackson County,MO,NA,18.098159509202453,22.115384615384613,NA
64050,Jackson County,MO,73.99103139013454,NA,NA,NA
64062,Ray County,MO,NA,NA,81.73076923076923,NA
64079,Platte County,MO,NA,59.8159509202454,NA,NA
64109,Jackson County,MO,NA,NA,39.90384615384615,NA
64118,Clay County,MO,NA,25.4601226993865,NA,NA
64119,Clay County,MO,NA,NA,25.721153846153843,NA
64503,Buchanan County,MO,NA,62.26993865030674,NA,NA
64506,Buchanan County,MO,NA,NA,NA,3.7914691943127963
64735,Henry County,MO,NA,36.19631901840491,NA,48.34123222748815
64804,Jasper County,MO,NA,17.484662576687114,NA,NA
65018,Moniteau County,MO,NA,84.66257668711657,NA,NA
65203,Boone County,MO,NA,NA,16.346153846153847,9.004739336492891
65251,Callaway County,MO,NA,31.901840490797547,NA,NA
59102,Yellowstone County,MT,NA,NA,8.89423076923077,NA
59405,Cascade County,MT,NA,NA,NA,13.270142180094787
59715,Gallatin County,MT,67.2645739910314,NA,NA,NA
68135,Douglas County,NE,NA,75.4601226993865,NA,NA
68164,Douglas County,NE,NA,NA,71.875,NA
89122,Clark County,NV,NA,NA,50.72115384615385,NA
89431,Washoe County,NV,NA,21.779141104294478,NA,NA
03038,Rockingham County,NH,14.798206278026907,NA,NA,NA
03051,Hillsborough County,NH,NA,NA,NA,36.96682464454976
03079,Rockingham County,NH,54.7085201793722,NA,NA,NA
03235,Merrimack County,NH,NA,73.61963190184049,NA,NA
03253,Belknap County,NH,NA,NA,75.72115384615384,NA
03301,Merrimack County,NH,NA,NA,18.028846153846153,NA
03303,Merrimack County,NH,NA,NA,97.59615384615384,NA
03773,Sullivan County,NH,NA,NA,NA,96.2085308056872
03801,Rockingham County,NH,NA,55.21472392638037,NA,NA
03842,Rockingham County,NH,NA,NA,NA,95.73459715639811
07052,Essex County,NJ,NA,NA,NA,25.59241706161137
07079,Essex County,NJ,NA,NA,87.98076923076923,NA
07104,Essex County,NJ,NA,8.588957055214724,NA,NA
07111,Essex County,NJ,NA,NA,NA,29.85781990521327
07202,Union County,NJ,NA,NA,61.77884615384615,NA
07885,Morris County,NJ,NA,NA,80.28846153846155,NA
07981,Morris County,NJ,98.20627802690582,NA,NA,NA
08033,Camden County,NJ,67.71300448430493,NA,NA,NA
08053,Burlington County,NJ,NA,26.07361963190184,NA,NA
08075,Burlington County,NJ,NA,78.83435582822086,NA,NA
08106,Camden County,NJ,82.0627802690583,NA,NA,NA
08205,Atlantic County,NJ,72.6457399103139,NA,NA,NA
08223,Cape May County,NJ,88.78923766816143,NA,NA,NA
08226,Cape May County,NJ,NA,NA,NA,66.82464454976304
08234,Atlantic County,NJ,NA,7.361963190184049,NA,NA
08701,Ocean County,NJ,0,NA,NA,NA
08731,Ocean County,NJ,33.18385650224215,NA,NA,NA
08820,Middlesex County,NJ,NA,NA,NA,27.96208530805687
08865,Warren County,NJ,NA,NA,15.865384615384615,NA
87112,Bernalillo County,NM,13.901345291479823,NA,NA,NA
87124,Sandoval County,NM,17.040358744394617,NA,NA,NA
87420,San Juan County,NM,NA,32.515337423312886,NA,NA
87505,Santa Fe County,NM,NA,NA,NA,18.95734597156398
87507,Santa Fe County,NM,46.18834080717489,NA,NA,NA
87532,Santa Fe County,NM,NA,NA,NA,62.55924170616114
87571,Taos County,NM,NA,NA,NA,79.62085308056872
88242,Lea County,NM,NA,80.98159509202453,NA,NA
88260,Lea County,NM,NA,NA,77.16346153846155,NA
10001,New York County,NY,NA,NA,10.817307692307693,NA
10025,New York County,NY,NA,NA,3.125,NA
10030,New York County,NY,NA,NA,NA,63.507109004739334
10032,New York County,NY,NA,NA,57.45192307692307,NA
10035,New York County,NY,NA,NA,NA,80.56872037914692
10040,New York County,NY,NA,NA,23.557692307692307,NA
10314,Richmond County,NY,NA,NA,NA,9.95260663507109
10452,Bronx County,NY,NA,NA,1.9230769230769231,NA
10453,Bronx County,NY,NA,1.2269938650306749,NA,NA
10454,Bronx County,NY,NA,NA,54.807692307692314,NA
10456,Bronx County,NY,0.4484304932735426,NA,NA,NA
10458,Bronx County,NY,NA,NA,NA,10.42654028436019
10459,Bronx County,NY,NA,NA,15.144230769230768,NA
10466,Bronx County,NY,NA,7.668711656441718,NA,NA
10467,Bronx County,NY,NA,NA,1.201923076923077,NA
10468,Bronx County,NY,NA,NA,42.54807692307692,12.322274881516588
10473,Bronx County,NY,NA,NA,11.298076923076923,NA
10475,Bronx County,NY,NA,NA,16.105769230769234,NA
10552,Westchester County,NY,NA,NA,NA,75.82938388625593
10952,Rockland County,NY,44.843049327354265,NA,NA,70.14218009478674
11010,Nassau County,NY,87.4439461883408,NA,NA,NA
11201,Kings County,NY,NA,20.552147239263803,25.48076923076923,NA
11203,Kings County,NY,NA,NA,36.29807692307692,NA
11206,Kings County,NY,NA,NA,59.61538461538461,NA
11207,Kings County,NY,0.8968609865470852,0.6134969325153374,NA,17.061611374407583
11208,Kings County,NY,NA,NA,3.6057692307692304,NA
11212,Kings County,NY,NA,2.4539877300613497,13.461538461538462,NA
11220,Kings County,NY,4.0358744394618835,NA,NA,NA
11224,Kings County,NY,19.282511210762333,NA,9.85576923076923,NA
11226,Kings County,NY,NA,NA,24.278846153846153,18.48341232227488
11232,Kings County,NY,13.004484304932735,NA,NA,NA
11233,Kings County,NY,NA,13.496932515337424,2.644230769230769,NA
11354,Queens County,NY,17.48878923766816,NA,NA,NA
11365,Queens County,NY,NA,53.68098159509203,NA,NA
11368,Queens County,NY,1.345291479820628,31.595092024539877,NA,NA
11372,Queens County,NY,NA,NA,27.403846153846157,NA
11378,Queens County,NY,77.57847533632287,NA,NA,NA
11415,Queens County,NY,NA,NA,73.79807692307693,NA
11421,Queens County,NY,NA,36.50306748466258,NA,NA
11427,Queens County,NY,NA,NA,70.4326923076923,NA
11545,Nassau County,NY,NA,NA,NA,94.7867298578199
11701,Suffolk County,NY,NA,NA,NA,47.867298578199055
11733,Suffolk County,NY,98.65470852017937,NA,NA,NA
11784,Suffolk County,NY,NA,NA,NA,60.66350710900474
12009,Albany County,NY,NA,NA,97.11538461538461,NA
12010,Montgomery County,NY,25.56053811659193,NA,NA,NA
12095,Fulton County,NY,NA,NA,36.77884615384615,NA
12148,Saratoga County,NY,NA,NA,NA,91.4691943127962
12180,Rensselaer County,NY,53.36322869955157,NA,NA,NA
12203,Albany County,NY,NA,NA,NA,46.44549763033176
12304,Schenectady County,NY,NA,NA,NA,67.77251184834124
12306,Schenectady County,NY,NA,NA,NA,53.55450236966824
12307,Schenectady County,NY,66.3677130044843,NA,NA,NA
12308,Schenectady County,NY,NA,41.104294478527606,NA,96.6824644549763
12309,Schenectady County,NY,NA,NA,63.22115384615385,NA
12446,Ulster County,NY,100,NA,78.36538461538461,NA
12801,Warren County,NY,39.46188340807175,NA,NA,NA
12817,Warren County,NY,NA,NA,99.03846153846155,NA
12828,Washington County,NY,NA,NA,70.67307692307693,65.40284360189574
12831,Saratoga County,NY,41.25560538116592,NA,NA,NA
12833,Saratoga County,NY,NA,91.41104294478528,NA,NA
12839,Washington County,NY,NA,NA,50.24038461538461,NA
12962,Clinton County,NY,NA,NA,76.20192307692307,NA
13021,Cayuga County,NY,NA,6.441717791411043,NA,NA
13069,Oswego County,NY,NA,60.122699386503065,NA,NA
13082,Madison County,NY,NA,NA,93.50961538461539,NA
13152,Onondaga County,NY,NA,NA,NA,94.3127962085308
13204,Onondaga County,NY,NA,NA,NA,89.57345971563981
13206,Onondaga County,NY,NA,24.539877300613497,NA,NA
13208,Onondaga County,NY,17.937219730941703,NA,NA,NA
13210,Onondaga County,NY,NA,NA,NA,84.83412322274881
13219,Onondaga County,NY,NA,NA,51.92307692307693,NA
13339,Montgomery County,NY,NA,NA,54.32692307692307,NA
13346,Madison County,NY,NA,72.08588957055214,NA,NA
13357,Herkimer County,NY,NA,38.65030674846626,NA,NA
13413,Oneida County,NY,43.946188340807176,NA,NA,NA
13480,Oneida County,NY,NA,92.33128834355828,NA,NA
13732,Tioga County,NY,NA,NA,46.875,NA
13748,Broome County,NY,NA,75.76687116564416,NA,NA
13760,Broome County,NY,NA,NA,NA,0.9478672985781991
13778,Chenango County,NY,NA,66.25766871165644,NA,NA
13815,Chenango County,NY,51.569506726457405,NA,NA,NA
14072,Erie County,NY,36.771300448430495,NA,NA,NA
14075,Erie County,NY,NA,35.88957055214724,NA,NA
14223,Erie County,NY,NA,28.834355828220858,NA,NA
14304,Niagara County,NY,NA,NA,28.846153846153843,NA
14411,Orleans County,NY,NA,NA,45.19230769230769,NA
14424,Ontario County,NY,NA,NA,2.1634615384615383,NA
14450,Monroe County,NY,NA,NA,3.3653846153846154,NA
14468,Monroe County,NY,NA,NA,56.97115384615385,NA
14469,Ontario County,NY,NA,45.0920245398773,NA,NA
14502,Wayne County,NY,NA,27.914110429447852,NA,NA
14506,Monroe County,NY,NA,98.15950920245399,NA,NA
14517,Livingston County,NY,87.89237668161435,NA,NA,NA
14522,Wayne County,NY,NA,NA,33.41346153846153,NA
14534,Monroe County,NY,NA,NA,3.8461538461538463,NA
14551,Wayne County,NY,NA,53.37423312883436,NA,NA
14580,Monroe County,NY,NA,1.5337423312883436,0.7211538461538461,NA
14608,Monroe County,NY,NA,46.012269938650306,40.38461538461539,NA
14610,Monroe County,NY,NA,30.67484662576687,NA,44.07582938388626
14612,Monroe County,NY,NA,3.067484662576687,NA,NA
14616,Monroe County,NY,NA,NA,14.182692307692307,39.33649289099526
14620,Monroe County,NY,NA,8.895705521472392,NA,48.81516587677725
14621,Monroe County,NY,NA,0.9202453987730062,NA,NA
14623,Monroe County,NY,NA,17.177914110429448,NA,NA
14624,Monroe County,NY,NA,4.9079754601226995,4.807692307692308,NA
14701,Chautauqua County,NY,NA,NA,4.326923076923077,NA
14840,Steuben County,NY,92.82511210762333,NA,NA,NA
27011,Yadkin County,NC,77.13004484304933,NA,NA,NA
27012,Forsyth County,NC,NA,NA,7.6923076923076925,NA
27103,Forsyth County,NC,NA,NA,NA,2.843601895734597
27104,Forsyth County,NC,NA,NA,NA,6.161137440758294
27105,Forsyth County,NC,15.695067264573993,NA,NA,NA
27106,Forsyth County,NC,NA,NA,NA,1.4218009478672986
27205,Randolph County,NC,NA,NA,NA,50.71090047393365
27239,Davidson County,NC,58.29596412556054,NA,NA,NA
27341,Randolph County,NC,NA,NA,NA,97.1563981042654
27405,Guilford County,NC,NA,12.576687116564417,NA,NA
27410,Guilford County,NC,NA,34.66257668711656,NA,NA
27511,Wake County,NC,NA,89.87730061349694,NA,NA
27516,Orange County,NC,NA,NA,48.55769230769231,NA
27540,Wake County,NC,22.869955156950674,NA,NA,NA
27545,Wake County,NC,NA,50,NA,NA
27609,Wake County,NC,NA,NA,NA,36.018957345971565
27616,Wake County,NC,NA,20.858895705521473,NA,NA
27705,Durham County,NC,NA,NA,NA,27.488151658767773
27712,Durham County,NC,NA,NA,44.47115384615385,47.39336492890995
27893,Wilson County,NC,NA,NA,28.365384615384613,NA
28086,Cleveland County,NC,NA,25.153374233128833,NA,NA
28104,Union County,NC,NA,NA,NA,58.29383886255924
28138,Rowan County,NC,NA,NA,83.41346153846155,NA
28364,Robeson County,NC,39.01345291479821,NA,NA,NA
28387,Moore County,NC,NA,NA,NA,55.92417061611374
28460,Onslow County,NC,93.27354260089686,NA,NA,NA
28539,Onslow County,NC,NA,77.60736196319019,NA,NA
28630,Caldwell County,NC,64.57399103139014,NA,NA,NA
28678,Alexander County,NC,NA,NA,90.86538461538461,NA
28739,Henderson County,NC,NA,NA,18.269230769230766,16.587677725118482
28791,Henderson County,NC,NA,NA,NA,22.748815165876778
58103,Cass County,ND,NA,NA,44.230769230769226,NA
58104,Cass County,ND,NA,67.79141104294479,NA,NA
58201,Grand Forks County,ND,NA,67.48466257668711,11.778846153846153,NA
58301,Ramsey County,ND,NA,NA,NA,90.99526066350711
58501,Burleigh County,ND,NA,NA,NA,15.165876777251185
58701,Ward County,ND,NA,NA,43.75,NA
43015,Delaware County,OH,NA,NA,12.01923076923077,NA
43023,Licking County,OH,NA,NA,NA,82.93838862559242
43050,Knox County,OH,NA,32.82208588957055,NA,NA
43062,Licking County,OH,18.385650224215247,NA,NA,NA
43065,Delaware County,OH,NA,NA,33.894230769230774,NA
43081,Franklin County,OH,61.88340807174888,NA,NA,NA
43082,Delaware County,OH,NA,NA,44.71153846153847,NA
43130,Fairfield County,OH,NA,NA,5.769230769230769,31.753554502369667
43215,Franklin County,OH,NA,42.02453987730061,NA,NA
43224,Franklin County,OH,2.690582959641256,NA,NA,NA
43227,Franklin County,OH,NA,NA,NA,49.28909952606635
43229,Franklin County,OH,42.152466367713004,NA,NA,NA
43231,Franklin County,OH,NA,50.920245398773,NA,NA
43515,Fulton County,OH,86.54708520179372,NA,NA,NA
43604,Lucas County,OH,NA,45.70552147239264,NA,NA
43605,Lucas County,OH,NA,4.294478527607362,NA,NA
43701,Muskingum County,OH,NA,NA,1.4423076923076923,NA
43845,Coshocton County,OH,NA,96.62576687116564,NA,NA
43947,Belmont County,OH,96.8609865470852,NA,NA,NA
43950,Belmont County,OH,NA,43.25153374233129,NA,NA
44001,Lorain County,OH,NA,NA,7.211538461538461,NA
44011,Lorain County,OH,5.829596412556054,NA,NA,NA
44017,Cuyahoga County,OH,NA,NA,41.34615384615385,NA
44021,Geauga County,OH,NA,NA,87.5,NA
44022,Cuyahoga County,OH,NA,NA,32.69230769230769,NA
44035,Lorain County,OH,NA,5.214723926380368,0,NA
44054,Lorain County,OH,NA,NA,NA,56.872037914691944
44055,Lorain County,OH,34.52914798206278,NA,NA,NA
44060,Lake County,OH,NA,9.509202453987731,NA,NA
44087,Summit County,OH,NA,NA,52.40384615384615,NA
44089,Erie County,OH,NA,NA,NA,18.009478672985782
44094,Lake County,OH,NA,NA,8.413461538461538,NA
44105,Cuyahoga County,OH,78.9237668161435,NA,1.6826923076923077,NA
44106,Cuyahoga County,OH,NA,39.87730061349693,NA,NA
44108,Cuyahoga County,OH,NA,NA,NA,24.644549763033176
44109,Cuyahoga County,OH,NA,NA,NA,8.530805687203792
44112,Cuyahoga County,OH,46.63677130044843,NA,NA,NA
44118,Cuyahoga County,OH,NA,NA,45.67307692307692,NA
44119,Cuyahoga County,OH,80.71748878923766,NA,NA,NA
44122,Cuyahoga County,OH,NA,NA,NA,8.056872037914692
44124,Cuyahoga County,OH,NA,60.73619631901841,NA,NA
44127,Cuyahoga County,OH,NA,NA,96.39423076923077,NA
44131,Cuyahoga County,OH,NA,NA,NA,72.98578199052133
44134,Cuyahoga County,OH,NA,NA,22.596153846153847,NA
44135,Cuyahoga County,OH,NA,NA,NA,34.12322274881517
44136,Cuyahoga County,OH,NA,88.03680981595092,NA,NA
44139,Cuyahoga County,OH,NA,NA,18.509615384615387,NA
44142,Cuyahoga County,OH,NA,NA,NA,24.170616113744074
44143,Cuyahoga County,OH,NA,NA,18.990384615384613,4.265402843601896
44144,Cuyahoga County,OH,NA,43.86503067484663,NA,NA
44224,Summit County,OH,NA,21.472392638036812,NA,NA
44236,Summit County,OH,NA,NA,27.64423076923077,NA
44281,Medina County,OH,NA,85.88957055214725,NA,NA
44481,Trumbull County,OH,NA,NA,39.18269230769231,NA
44612,Tuscarawas County,OH,NA,NA,95.1923076923077,NA
44805,Ashland County,OH,NA,NA,9.134615384615383,NA
45040,Warren County,OH,NA,NA,39.42307692307692,NA
45044,Butler County,OH,NA,NA,NA,27.014218009478675
45050,Butler County,OH,NA,90.79754601226993,NA,NA
45103,Clermont County,OH,NA,NA,28.365384615384613,NA
45123,Highland County,OH,NA,NA,63.22115384615385,NA
45133,Highland County,OH,NA,20.245398773006134,NA,NA
45177,Clinton County,OH,NA,NA,37.74038461538461,NA
45202,Hamilton County,OH,NA,NA,66.82692307692307,NA
45229,Hamilton County,OH,NA,NA,NA,77.72511848341233
45231,Hamilton County,OH,NA,NA,23.076923076923077,NA
45236,Hamilton County,OH,NA,NA,49.03846153846153,NA
45323,Clark County,OH,86.54708520179372,NA,NA,NA
45373,Miami County,OH,NA,NA,NA,76.30331753554502
45694,Scioto County,OH,NA,29.141104294478527,NA,NA
45701,Athens County,OH,NA,64.41717791411043,NA,NA
45801,Allen County,OH,NA,NA,28.125,NA
45806,Allen County,OH,NA,65.6441717791411,NA,NA
73020,Oklahoma County,OK,56.502242152466366,NA,NA,NA
73115,Oklahoma County,OK,42.600896860986545,NA,NA,NA
74011,Tulsa County,OK,NA,NA,NA,61.137440758293835
74464,Cherokee County,OK,NA,NA,NA,51.18483412322274
74801,Pottawatomie County,OK,NA,NA,31.490384615384613,NA
74884,Seminole County,OK,68.16143497757847,NA,NA,NA
74948,Sequoyah County,OK,NA,NA,93.99038461538461,NA
97045,Clackamas County,OR,NA,NA,NA,23.22274881516588
97062,Washington County,OR,24.2152466367713,NA,NA,NA
97128,Yamhill County,OR,24.663677130044842,NA,NA,NA
97225,Washington County,OR,NA,NA,70.1923076923077,NA
97352,Marion County,OR,NA,96.0122699386503,NA,NA
97355,Linn County,OR,NA,NA,NA,13.744075829383887
97470,Douglas County,OR,NA,33.43558282208589,NA,NA
97526,Josephine County,OR,NA,NA,38.22115384615385,NA
15205,Allegheny County,PA,60.98654708520179,NA,NA,NA
15214,Allegheny County,PA,NA,NA,58.17307692307693,NA
15237,Allegheny County,PA,20.179372197309416,NA,NA,NA
15243,Allegheny County,PA,NA,NA,92.3076923076923,NA
15317,Washington County,PA,3.587443946188341,NA,NA,NA
15656,Westmoreland County,PA,NA,NA,65.86538461538461,NA
15668,Westmoreland County,PA,76.68161434977578,NA,NA,NA
15853,Elk County,PA,76.23318385650224,NA,NA,NA
15963,Somerset County,PA,NA,NA,57.692307692307686,NA
16066,Butler County,PA,29.596412556053814,NA,NA,NA
16117,Lawrence County,PA,47.08520179372198,NA,NA,NA
16127,Mercer County,PA,NA,NA,56.25,NA
16148,Mercer County,PA,31.390134529147986,NA,26.682692307692307,12.796208530805686
16504,Erie County,PA,NA,64.11042944785275,NA,NA
16506,Erie County,PA,NA,73.00613496932516,NA,NA
16651,Clearfield County,PA,NA,95.0920245398773,NA,NA
16801,Centre County,PA,NA,NA,87.01923076923077,NA
17046,Lebanon County,PA,NA,11.349693251533742,NA,NA
17055,Cumberland County,PA,NA,NA,21.153846153846153,NA
17067,Lebanon County,PA,NA,69.01840490797547,NA,NA
17070,Cumberland County,PA,NA,NA,79.32692307692307,NA
17402,York County,PA,NA,NA,15.625,NA
17403,York County,PA,NA,NA,26.442307692307693,NA
17512,Lancaster County,PA,NA,47.239263803680984,NA,NA
17522,Lancaster County,PA,NA,NA,NA,14.218009478672986
17552,Lancaster County,PA,NA,NA,40.144230769230774,NA
17601,Lancaster County,PA,NA,NA,53.36538461538461,NA
17603,Lancaster County,PA,NA,NA,14.903846153846153,NA
17777,Northumberland County,PA,95.96412556053812,NA,NA,NA
17857,Northumberland County,PA,NA,NA,88.46153846153845,NA
17866,Northumberland County,PA,NA,NA,61.057692307692314,NA
17870,Snyder County,PA,NA,53.06748466257669,35.09615384615385,NA
17931,Schuylkill County,PA,85.65022421524664,NA,NA,NA
18062,Lehigh County,PA,NA,NA,NA,37.91469194312796
18235,Carbon County,PA,NA,34.355828220858896,NA,NA
18505,Lackawanna County,PA,18.83408071748879,NA,NA,NA
18507,Lackawanna County,PA,NA,NA,94.71153846153845,NA
18702,Luzerne County,PA,NA,NA,32.93269230769231,NA
18705,Luzerne County,PA,NA,NA,47.83653846153847,NA
18951,Bucks County,PA,NA,54.90797546012271,NA,NA
18964,Montgomery County,PA,NA,NA,NA,90.52132701421802
19004,Montgomery County,PA,NA,NA,NA,76.77725118483413
19015,Delaware County,PA,NA,NA,NA,75.35545023696683
19026,Delaware County,PA,12.556053811659194,NA,NA,NA
19036,Delaware County,PA,NA,NA,78.84615384615384,NA
19063,Delaware County,PA,NA,NA,NA,19.431279620853083
19067,Bucks County,PA,NA,NA,13.221153846153847,NA
19075,Montgomery County,PA,94.61883408071749,NA,NA,NA
19104,Philadelphia County,PA,NA,NA,83.65384615384616,NA
19106,Philadelphia County,PA,NA,NA,65.625,66.35071090047393
19119,Philadelphia County,PA,NA,NA,22.83653846153846,NA
19130,Philadelphia County,PA,80.26905829596413,NA,NA,NA
19140,Philadelphia County,PA,NA,3.9877300613496933,NA,NA
19147,Philadelphia County,PA,NA,18.711656441717793,NA,NA
19342,Delaware County,PA,NA,NA,NA,37.44075829383886
19382,Chester County,PA,NA,15.644171779141105,NA,NA
19401,Montgomery County,PA,NA,NA,27.163461538461537,NA
19403,Montgomery County,PA,NA,54.29447852760736,10.336538461538462,NA
19406,Montgomery County,PA,NA,79.14110429447852,85.33653846153845,NA
19422,Montgomery County,PA,NA,NA,90.14423076923077,NA
19425,Chester County,PA,NA,87.73006134969326,NA,NA
19522,Berks County,PA,NA,NA,39.66346153846153,NA
19565,Berks County,PA,NA,82.82208588957054,NA,NA
02861,Providence County,RI,75.33632286995515,NA,NA,NA
02907,Providence County,RI,NA,NA,NA,92.41706161137441
29301,Spartanburg County,SC,25.112107623318387,NA,NA,NA
29360,Laurens County,SC,NA,NA,77.64423076923077,NA
29418,Charleston County,SC,81.16591928251121,NA,NA,NA
29455,Charleston County,SC,NA,NA,37.980769230769226,NA
29485,Dorchester County,SC,NA,NA,67.0673076923077,NA
29526,Horry County,SC,NA,NA,46.63461538461539,NA
29651,Greenville County,SC,NA,NA,NA,28.436018957345972
29681,Greenville County,SC,NA,NA,51.442307692307686,NA
29692,Laurens County,SC,NA,NA,96.63461538461539,NA
29841,Aiken County,SC,NA,NA,34.61538461538461,NA
29936,Jasper County,SC,NA,NA,84.61538461538461,NA
57005,Minnehaha County,SD,NA,NA,79.8076923076923,NA
57105,Minnehaha County,SD,NA,79.4478527607362,NA,NA
57106,Minnehaha County,SD,NA,NA,11.538461538461538,NA
57730,Custer County,SD,NA,NA,81.97115384615384,NA
57785,Meade County,SD,NA,NA,NA,81.51658767772511
37027,Williamson County,TN,NA,NA,27.884615384615387,NA
37034,Marshall County,TN,NA,NA,98.5576923076923,NA
37043,Montgomery County,TN,31.838565022421523,NA,26.201923076923077,NA
37064,Williamson County,TN,NA,NA,20.432692307692307,NA
37076,Davidson County,TN,NA,NA,NA,50.23696682464455
37086,Rutherford County,TN,NA,52.14723926380368,NA,NA
37122,Wilson County,TN,8.968609865470851,NA,30.528846153846157,42.18009478672986
37128,Rutherford County,TN,NA,28.52760736196319,NA,NA
37129,Rutherford County,TN,15.246636771300448,NA,NA,NA
37130,Rutherford County,TN,NA,56.13496932515337,NA,NA
37172,Robertson County,TN,30.94170403587444,NA,NA,NA
37179,Williamson County,TN,NA,89.2638036809816,NA,NA
37204,Davidson County,TN,NA,95.39877300613497,NA,NA
37205,Davidson County,TN,NA,74.84662576687117,NA,NA
37211,Davidson County,TN,8.071748878923767,NA,NA,NA
37215,Davidson County,TN,NA,NA,63.70192307692307,NA
37221,Davidson County,TN,NA,71.47239263803681,NA,NA
37312,Bradley County,TN,NA,48.15950920245399,NA,NA
37323,Bradley County,TN,NA,44.785276073619634,NA,NA
37725,Jefferson County,TN,NA,NA,59.855769230769226,NA
37912,Knox County,TN,NA,30.368098159509206,NA,NA
37917,Knox County,TN,NA,16.87116564417178,NA,NA
37922,Knox County,TN,NA,NA,53.605769230769226,NA
38118,Shelby County,TN,NA,NA,57.21153846153846,NA
38462,Lewis County,TN,NA,NA,82.45192307692307,NA
75032,Rockwall County,TX,NA,NA,51.20192307692307,NA
75134,Dallas County,TX,29.14798206278027,NA,NA,NA
75180,Dallas County,TX,NA,72.39263803680981,NA,NA
75210,Dallas County,TX,60.53811659192825,NA,NA,NA
75211,Dallas County,TX,NA,19.32515337423313,NA,NA
75214,Dallas County,TX,NA,NA,61.53846153846154,NA
75605,Gregg County,TX,NA,NA,42.78846153846153,NA
75657,Marion County,TX,NA,NA,90.38461538461539,NA
75670,Harrison County,TX,NA,NA,72.59615384615384,NA
76002,Tarrant County,TX,NA,NA,NA,99.0521327014218
76010,Tarrant County,TX,12.10762331838565,NA,NA,NA
76017,Tarrant County,TX,22.421524663677133,NA,NA,NA
76050,Johnson County,TX,NA,NA,93.75,NA
76063,Tarrant County,TX,3.1390134529147984,NA,NA,NA
76115,Tarrant County,TX,35.42600896860987,NA,NA,NA
76133,Tarrant County,TX,39.91031390134529,NA,NA,NA
76210,Denton County,TX,NA,NA,59.13461538461539,NA
76306,Wichita County,TX,84.30493273542601,NA,NA,NA
76501,Bell County,TX,NA,15.337423312883436,37.5,NA
76502,Bell County,TX,NA,NA,2.8846153846153846,NA
76541,Bell County,TX,NA,NA,92.54807692307693,NA
76542,Bell County,TX,NA,65.95092024539878,NA,NA
76549,Bell County,TX,NA,NA,36.05769230769231,NA
76661,Falls County,TX,NA,NA,NA,93.8388625592417
77005,Harris County,TX,49.775784753363226,NA,NA,NA
77011,Harris County,TX,70.4035874439462,NA,NA,NA
77082,Harris County,TX,NA,NA,41.58653846153847,NA
77084,Harris County,TX,NA,13.803680981595093,NA,NA
77099,Harris County,TX,NA,56.74846625766872,NA,NA
77320,Walker County,TX,NA,76.38036809815951,NA,NA
77365,Montgomery County,TX,73.54260089686099,NA,NA,NA
77375,Harris County,TX,62.78026905829597,NA,NA,NA
77377,Harris County,TX,NA,NA,NA,57.345971563981045
77506,Harris County,TX,64.12556053811659,NA,NA,NA
77531,Brazoria County,TX,45.73991031390135,NA,NA,NA
77546,Galveston County,TX,NA,NA,16.826923076923077,NA
77551,Galveston County,TX,NA,63.190184049079754,NA,NA
77586,Harris County,TX,NA,NA,65.38461538461539,NA
77833,Washington County,TX,NA,NA,NA,58.767772511848335
78040,Webb County,TX,14.349775784753364,NA,NA,NA
78043,Webb County,TX,5.381165919282512,NA,NA,NA
78211,Bexar County,TX,NA,NA,NA,77.25118483412322
78228,Bexar County,TX,NA,29.754601226993866,NA,NA
78233,Bexar County,TX,NA,45.39877300613497,NA,NA
78242,Bexar County,TX,NA,81.28834355828221,NA,NA
78251,Bexar County,TX,NA,NA,80.52884615384616,NA
78580,Willacy County,TX,NA,NA,88.70192307692307,NA
78724,Travis County,TX,63.22869955156951,NA,NA,NA
78956,Fayette County,TX,NA,NA,92.0673076923077,NA
79336,Hockley County,TX,74.43946188340807,NA,NA,NA
79912,El Paso County,TX,NA,NA,NA,30.80568720379147
84020,Salt Lake County,UT,21.524663677130047,NA,NA,NA
84029,Tooele County,UT,55.15695067264574,NA,NA,NA
84037,Davis County,UT,NA,NA,64.66346153846155,NA
84129,,UT,NA,31.28834355828221,NA,NA
05101,Windham County,VT,NA,99.079754601227,NA,NA
05156,Windsor County,VT,NA,68.40490797546013,NA,NA
05753,Addison County,VT,NA,NA,NA,67.29857819905213
20110,Manassas city,VA,NA,NA,58.894230769230774,NA
20111,Prince William County,VA,92.37668161434978,NA,NA,NA
20121,Fairfax County,VA,NA,70.5521472392638,NA,NA
22030,Fairfax County,VA,NA,33.12883435582822,NA,NA
22124,Fairfax County,VA,NA,NA,81.00961538461539,NA
22205,Arlington County,VA,65.47085201793722,NA,NA,NA
22207,Arlington County,VA,NA,NA,NA,54.02843601895735
22309,Fairfax County,VA,75.7847533632287,NA,NA,NA
22310,Fairfax County,VA,NA,NA,66.58653846153845,NA
22902,Charlottesville city,VA,NA,24.233128834355828,NA,NA
22911,Albemarle County,VA,NA,NA,NA,39.81042654028436
22980,Waynesboro city,VA,NA,NA,7.9326923076923075,NA
23111,Hanover County,VA,NA,NA,20.91346153846154,NA
23112,Chesterfield County,VA,74.88789237668162,NA,NA,NA
23223,Henrico County,VA,NA,NA,NA,73.93364928909952
23234,Chesterfield County,VA,NA,19.631901840490798,NA,NA
23236,Chesterfield County,VA,NA,NA,49.519230769230774,NA
23430,Isle of Wight County,VA,NA,NA,37.019230769230774,NA
23601,Newport News city,VA,NA,NA,NA,38.388625592417064
23607,Newport News city,VA,NA,NA,NA,74.88151658767772
23608,Newport News city,VA,NA,NA,NA,59.71563981042654
24112,Henry County,VA,NA,NA,19.951923076923077,NA
24202,Washington County,VA,NA,NA,55.52884615384615,NA
24211,Washington County,VA,NA,NA,84.85576923076923,NA
24382,Wythe County,VA,NA,NA,NA,93.36492890995261
98011,King County,WA,NA,62.88343558282209,NA,NA
98020,Snohomish County,WA,NA,NA,58.65384615384615,NA
98021,Snohomish County,WA,NA,57.668711656441715,NA,NA
98023,King County,WA,6.278026905829597,NA,NA,NA
98028,King County,WA,NA,77.30061349693251,NA,NA
98031,King County,WA,NA,76.68711656441718,NA,NA
98033,King County,WA,NA,67.17791411042946,NA,NA
98036,Snohomish County,WA,NA,NA,76.20192307692307,NA
98038,King County,WA,NA,36.809815950920246,NA,NA
98052,King County,WA,43.04932735426009,NA,NA,NA
98056,King County,WA,99.10313901345292,NA,NA,NA
98070,King County,WA,NA,NA,NA,98.5781990521327
98075,King County,WA,NA,83.43558282208589,NA,NA
98087,Snohomish County,WA,NA,51.533742331288344,NA,NA
98092,King County,WA,NA,24.846625766871167,NA,NA
98102,King County,WA,NA,NA,67.54807692307693,NA
98105,King County,WA,NA,85.58282208588957,NA,63.03317535545023
98107,King County,WA,NA,NA,69.71153846153845,NA
98112,King County,WA,NA,NA,NA,69.19431279620854
98116,King County,WA,NA,NA,64.1826923076923,NA
98126,King County,WA,NA,63.49693251533742,NA,NA
98204,Snohomish County,WA,NA,27.300613496932513,NA,NA
98208,Snohomish County,WA,NA,21.165644171779142,31.73076923076923,NA
98270,Snohomish County,WA,NA,19.018404907975462,NA,NA
98271,Snohomish County,WA,73.09417040358744,NA,NA,NA
98275,Snohomish County,WA,33.6322869955157,NA,NA,NA
98335,Pierce County,WA,NA,NA,NA,43.127962085308056
98443,Pierce County,WA,NA,NA,NA,98.10426540284361
98499,Pierce County,WA,NA,NA,53.84615384615385,NA
98802,Douglas County,WA,NA,NA,64.90384615384616,NA
99163,Whitman County,WA,NA,NA,90.86538461538461,NA
99206,Spokane County,WA,NA,NA,62.5,NA
99352,Benton County,WA,NA,NA,30.288461538461537,NA
20002,District of Columbia,DC,NA,NA,13.942307692307693,NA
20003,District of Columbia,DC,NA,NA,47.59615384615385,NA
20008,District of Columbia,DC,NA,NA,75.96153846153845,NA
20009,District of Columbia,DC,NA,33.74233128834356,NA,78.19905213270142
97003,NA,NA,47.98206278026906,NA,NA,NA
20017,District of Columbia,DC,55.60538116591929,NA,NA,NA
20018,District of Columbia,DC,NA,NA,31.009615384615387,NA
20019,District of Columbia,DC,NA,NA,9.375,NA
20024,District of Columbia,DC,NA,NA,62.980769230769226,NA
20032,District of Columbia,DC,NA,NA,NA,79.14691943127961
25177,Kanawha County,WV,NA,14.11042944785276,NA,NA
26003,Ohio County,WV,NA,NA,5.528846153846153,NA
26155,Wetzel County,WV,NA,NA,62.74038461538461,NA
26501,Monongalia County,WV,NA,17.791411042944784,NA,NA
26505,Monongalia County,WV,NA,NA,12.259615384615383,NA
53029,Waukesha County,WI,NA,66.87116564417178,NA,NA
53042,Manitowoc County,WI,NA,NA,NA,99.52606635071089
53045,Waukesha County,WI,NA,NA,88.22115384615384,NA
53094,Jefferson County,WI,NA,46.31901840490797,NA,NA
53121,Walworth County,WI,NA,49.38650306748466,NA,NA
53140,Kenosha County,WI,NA,NA,NA,35.54502369668246
53144,Kenosha County,WI,7.623318385650224,NA,NA,NA
53149,Waukesha County,WI,45.2914798206278,NA,NA,NA
53172,Milwaukee County,WI,NA,39.57055214723926,NA,NA
53182,Racine County,WI,NA,69.01840490797547,NA,NA
53190,Walworth County,WI,NA,NA,62.019230769230774,NA
53202,Milwaukee County,WI,NA,80.67484662576688,48.31730769230769,NA
53209,Milwaukee County,WI,NA,NA,NA,14.691943127962084
53215,Milwaukee County,WI,NA,7.975460122699387,NA,NA
53219,Milwaukee County,WI,NA,NA,65.14423076923077,NA
53511,Rock County,WI,NA,2.147239263803681,NA,NA
53546,Rock County,WI,57.847533632286996,NA,NA,NA
53562,Dane County,WI,NA,NA,NA,34.59715639810427
53705,Dane County,WI,NA,NA,49.75961538461539,NA
53714,Dane County,WI,NA,NA,94.95192307692307,NA
53948,Juneau County,WI,NA,87.11656441717791,NA,NA
53959,Sauk County,WI,NA,48.77300613496933,NA,NA
54151,Marinette County,WI,NA,NA,68.50961538461539,NA
54457,Wood County,WI,NA,NA,NA,72.51184834123224
54601,La Crosse County,WI,NA,NA,34.855769230769226,NA
54603,La Crosse County,WI,48.87892376681614,NA,NA,NA
54636,La Crosse County,WI,NA,70.85889570552148,NA,NA
54650,La Crosse County,WI,NA,NA,NA,5.687203791469194
54701,Eau Claire County,WI,35.874439461883405,NA,NA,NA
54880,Douglas County,WI,NA,NA,6.490384615384616,NA
54904,Winnebago County,WI,68.16143497757847,NA,NA,NA
54935,Fond du Lac County,WI,NA,NA,NA,7.5829383886255926
82414,Park County,WY,NA,NA,45.43269230769231,NA
82718,Campbell County,WY,NA,NA,72.35576923076923,NA
