ZipCode,county,state,Youth,Pediatric,Adult
35045,Chilton County,AL,47.88135593220339,NA,NA
35058,Cullman County,AL,NA,80.9278350515464,NA
35242,Shelby County,AL,NA,NA,51.35135135135135
35476,Tuscaloosa County,AL,NA,55.670103092783506,NA
35761,Madison County,AL,NA,65.97938144329896,NA
35801,Madison County,AL,NA,NA,78.1433607520564
35803,Madison County,AL,51.483050847457626,NA,NA
35805,Madison County,AL,NA,NA,35.72267920094007
35810,Madison County,AL,NA,60.30927835051546,NA
35905,Etowah County,AL,NA,NA,76.61574618096357
36109,Montgomery County,AL,NA,76.80412371134021,NA
36605,Mobile County,AL,NA,NA,31.609870740305524
36701,Dallas County,AL,NA,NA,23.149236192714454
36744,Hale County,AL,NA,NA,60.634547591069335
36874,Lee County,AL,NA,NA,97.06227967097533
99516,Anchorage Municipality,AK,96.1864406779661,NA,NA
99611,Kenai Peninsula Borough,AK,54.66101694915254,NA,NA
99654,Matanuska-Susitna Borough,AK,NA,NA,55.111633372502936
99835,Sitka City and Borough,AK,50.847457627118644,NA,NA
85006,Maricopa County,AZ,NA,NA,34.07755581668625
85022,Maricopa County,AZ,NA,NA,65.80493537015276
85023,Maricopa County,AZ,NA,NA,47.708578143360754
85031,Maricopa County,AZ,49.152542372881356,NA,NA
85138,Pinal County,AZ,NA,NA,31.02232667450059
85202,Maricopa County,AZ,NA,NA,66.50998824911868
85251,Maricopa County,AZ,NA,90.72164948453609,NA
85383,Maricopa County,AZ,NA,NA,22.91421856639248
85629,Pima County,AZ,NA,NA,78.26086956521739
85648,Santa Cruz County,AZ,NA,17.525773195876287,NA
85711,Pima County,AZ,NA,28.350515463917525,9.16568742655699
85716,Pima County,AZ,NA,NA,98.2373678025852
85741,Pima County,AZ,NA,NA,26.204465334900117
85745,Pima County,AZ,70.55084745762711,NA,69.56521739130434
85746,Pima County,AZ,NA,35.051546391752574,NA
85757,Pima County,AZ,40.25423728813559,NA,NA
86303,Yavapai County,AZ,59.32203389830508,NA,NA
72076,Pulaski County,AR,NA,NA,40.07050528789659
72081,White County,AR,95.12711864406779,NA,73.79553466509988
72529,Sharp County,AR,92.37288135593221,NA,NA
72745,Benton County,AR,NA,NA,92.7144535840188
90020,Los Angeles County,CA,NA,NA,66.15746180963572
90025,Los Angeles County,CA,NA,NA,69.0951821386604
90038,Los Angeles County,CA,NA,NA,63.33725029377203
90064,Los Angeles County,CA,NA,NA,47.35605170387779
90280,Los Angeles County,CA,NA,NA,25.96944770857814
90291,Los Angeles County,CA,NA,NA,96.82726204465335
91006,Los Angeles County,CA,NA,85.05154639175258,NA
91344,Los Angeles County,CA,NA,NA,36.19271445358402
91387,Los Angeles County,CA,NA,NA,35.95769682726204
91910,San Diego County,CA,29.44915254237288,NA,NA
91911,San Diego County,CA,49.57627118644068,NA,NA
91913,San Diego County,CA,46.61016949152542,NA,NA
91932,San Diego County,CA,NA,NA,62.98472385428907
92028,San Diego County,CA,NA,NA,50.17626321974148
92117,San Diego County,CA,NA,45.876288659793815,NA
92124,San Diego County,CA,NA,NA,77.32079905992948
92211,Riverside County,CA,57.41525423728814,NA,NA
92307,San Bernardino County,CA,NA,NA,23.384253819036427
92315,San Bernardino County,CA,NA,98.96907216494846,NA
92324,San Bernardino County,CA,NA,34.02061855670103,NA
92373,San Bernardino County,CA,31.14406779661017,NA,NA
92395,San Bernardino County,CA,NA,NA,22.796709753231493
92507,Riverside County,CA,NA,NA,71.7978848413631
92655,Orange County,CA,NA,NA,91.53936545240893
92703,Orange County,CA,38.983050847457626,NA,NA
92870,Orange County,CA,62.92372881355932,NA,NA
92883,Riverside County,CA,NA,NA,52.99647473560517
92886,Orange County,CA,NA,NA,25.146886016451237
93033,Ventura County,CA,NA,6.185567010309279,NA
93312,Kern County,CA,NA,NA,30.434782608695656
93420,San Luis Obispo County,CA,NA,NA,54.054054054054056
93422,San Luis Obispo County,CA,NA,NA,37.60282021151586
93728,Fresno County,CA,NA,73.19587628865979,NA
93955,Monterey County,CA,37.92372881355932,NA,NA
94025,San Mateo County,CA,NA,60.824742268041234,39.60047003525264
94110,San Francisco County,CA,NA,27.31958762886598,NA
94115,San Francisco County,CA,NA,NA,63.21974148061105
94506,Contra Costa County,CA,NA,NA,61.22209165687427
94555,Alameda County,CA,76.0593220338983,NA,NA
94602,Alameda County,CA,72.03389830508475,NA,NA
94605,Alameda County,CA,NA,21.649484536082475,NA
94608,Alameda County,CA,70.33898305084746,NA,66.74500587544065
94930,Marin County,CA,76.0593220338983,NA,NA
95032,Santa Clara County,CA,NA,NA,62.51468860164512
95111,Santa Clara County,CA,NA,77.31958762886599,NA
95240,San Joaquin County,CA,NA,NA,37.01527614571093
95382,Stanislaus County,CA,42.79661016949153,NA,NA
95401,Sonoma County,CA,NA,57.21649484536082,NA
95762,El Dorado County,CA,71.39830508474576,NA,NA
95834,Sacramento County,CA,NA,NA,57.226792009400704
95841,Sacramento County,CA,NA,NA,86.95652173913044
95969,Butte County,CA,NA,NA,50.99882491186839
95991,Sutter County,CA,NA,NA,24.08930669800235
96097,Siskiyou County,CA,NA,NA,68.62514688601645
80018,Arapahoe County,CO,61.440677966101696,NA,NA
80022,Adams County,CO,NA,NA,15.393654524089307
80023,Broomfield County,CO,NA,91.75257731958763,NA
80031,Adams County,CO,41.73728813559322,NA,NA
80126,Douglas County,CO,17.372881355932204,NA,65.21739130434783
80130,Douglas County,CO,87.71186440677965,NA,NA
80134,Douglas County,CO,6.779661016949152,NA,21.856639247943598
80203,Denver County,CO,NA,NA,56.63924794359577
80204,Denver County,CO,NA,NA,88.71915393654524
80219,Denver County,CO,NA,8.24742268041237,NA
80220,Denver County,CO,NA,NA,53.231492361927145
80229,Adams County,CO,NA,NA,13.043478260869565
80421,Park County,CO,NA,NA,89.42420681551117
80439,Jefferson County,CO,NA,NA,85.42890716803761
80501,Boulder County,CO,26.906779661016948,NA,18.213866039952997
80513,Larimer County,CO,91.94915254237289,NA,NA
80631,Weld County,CO,10.38135593220339,NA,NA
80701,Morgan County,CO,68.22033898305084,NA,NA
81004,Pueblo County,CO,31.991525423728813,NA,NA
81201,Chaffee County,CO,86.65254237288136,NA,96.3572267920094
81504,Mesa County,CO,NA,NA,25.26439482961222
81507,Mesa County,CO,NA,NA,78.84841363102232
06026,Hartford County,CT,66.94915254237289,NA,NA
06033,Hartford County,CT,NA,NA,80.8460634547591
06062,Hartford County,CT,73.9406779661017,NA,NA
06096,Hartford County,CT,NA,NA,66.62749706227967
06098,Litchfield County,CT,NA,NA,98.1198589894242
06108,Hartford County,CT,NA,NA,94.12455934195064
06114,Hartford County,CT,10.16949152542373,NA,NA
06117,Hartford County,CT,NA,NA,98.00235017626322
06118,Hartford County,CT,29.23728813559322,NA,NA
06234,Windham County,CT,99.15254237288136,NA,91.18683901292597
06277,Windham County,CT,NA,NA,99.52996474735605
06281,Windham County,CT,NA,66.49484536082474,52.64394829612221
06441,Middlesex County,CT,NA,NA,94.94712103407755
06492,New Haven County,CT,46.186440677966104,NA,NA
06513,New Haven County,CT,NA,12.886597938144329,83.19623971797884
06610,Fairfield County,CT,NA,NA,71.32784958871915
06611,Fairfield County,CT,77.11864406779661,NA,NA
06776,Litchfield County,CT,45.1271186440678,84.5360824742268,NA
06787,Litchfield County,CT,NA,NA,83.78378378378379
06790,Litchfield County,CT,NA,NA,82.25616921269095
06810,Fairfield County,CT,53.813559322033896,NA,NA
06851,Fairfield County,CT,NA,NA,81.31609870740306
06854,Fairfield County,CT,NA,NA,82.13866039952997
06902,Fairfield County,CT,NA,NA,43.00822561692127
19711,New Castle County,DE,NA,NA,25.499412455934195
19801,New Castle County,DE,NA,NA,97.2972972972973
19805,New Castle County,DE,NA,NA,3.8777908343125738
19975,Sussex County,DE,NA,NA,81.786133960047
19977,Kent County,DE,NA,NA,20.329024676850764
32082,St. Johns County,FL,NA,NA,99.17743830787309
32168,Volusia County,FL,NA,NA,48.413631022326676
32174,Volusia County,FL,NA,NA,37.485311398354874
32211,Duval County,FL,NA,37.11340206185567,NA
32413,Bay County,FL,NA,NA,59.929494712103406
32526,Escambia County,FL,35.16949152542373,NA,NA
32641,Alachua County,FL,NA,NA,60.39952996474736
32757,Lake County,FL,NA,NA,96.70975323149236
32807,Orange County,FL,NA,NA,36.89776733254994
32820,Orange County,FL,NA,94.3298969072165,NA
32822,Orange County,FL,NA,NA,17.038777908343125
32903,Brevard County,FL,NA,NA,84.01880141010577
33016,Miami-Dade County,FL,NA,23.195876288659793,NA
33023,Broward County,FL,NA,NA,17.2737955346651
33068,Broward County,FL,NA,23.711340206185564,NA
33126,Miami-Dade County,FL,NA,24.742268041237114,NA
33141,Miami-Dade County,FL,NA,61.34020618556701,NA
33175,Miami-Dade County,FL,NA,26.288659793814436,NA
33183,Miami-Dade County,FL,NA,NA,64.6298472385429
33193,Miami-Dade County,FL,NA,32.98969072164948,NA
33316,Broward County,FL,90.88983050847457,NA,NA
33414,Palm Beach County,FL,42.79661016949153,NA,NA
33496,Palm Beach County,FL,NA,NA,58.51938895417156
33543,Pasco County,FL,NA,NA,97.17978848413631
33545,Pasco County,FL,84.95762711864407,NA,NA
33556,Hillsborough County,FL,95.55084745762711,NA,60.16451233842538
33579,Hillsborough County,FL,71.61016949152543,NA,NA
33609,Hillsborough County,FL,NA,NA,59.57696827262045
33713,Pinellas County,FL,NA,NA,43.12573443008226
33830,Polk County,FL,59.7457627118644,NA,NA
33914,Lee County,FL,60.80508474576271,NA,NA
34288,Sarasota County,FL,NA,NA,71.91539365452408
34480,Marion County,FL,NA,NA,46.88601645123384
34669,Pasco County,FL,NA,53.608247422680414,NA
34748,Lake County,FL,NA,NA,17.97884841363102
30009,Fulton County,GA,59.95762711864406,NA,NA
30078,Gwinnett County,GA,NA,NA,47.35605170387779
30120,Bartow County,GA,NA,NA,18.33137485311398
30144,Cobb County,GA,NA,NA,27.497062279670974
30188,Cherokee County,GA,NA,NA,19.741480611045827
30265,Coweta County,GA,NA,NA,64.86486486486487
30507,Hall County,GA,NA,51.03092783505154,NA
30519,Gwinnett County,GA,NA,NA,37.367802585193886
30566,Hall County,GA,75,NA,NA
30655,Walton County,GA,NA,NA,27.614571092831962
30906,Richmond County,GA,NA,NA,8.108108108108109
30909,Richmond County,GA,NA,50.51546391752577,NA
31794,Tift County,GA,NA,43.29896907216495,NA
31904,Muscogee County,GA,44.27966101694915,NA,NA
96708,Maui County,HI,NA,NA,97.76733254994124
96740,Hawaii County,HI,NA,NA,90.71680376028202
96818,Honolulu County,HI,NA,97.42268041237114,NA
83318,Cassia County,ID,NA,NA,72.50293772032902
83402,Bonneville County,ID,NA,30.927835051546392,NA
83501,Nez Perce County,ID,NA,NA,12.925969447708576
83642,Ada County,ID,NA,NA,16.09870740305523
83646,Ada County,ID,NA,NA,11.398354876615747
83647,Elmore County,ID,58.47457627118644,NA,NA
83676,Canyon County,ID,NA,NA,89.89424206815512
83686,Canyon County,ID,NA,24.22680412371134,NA
83716,Ada County,ID,NA,NA,64.74735605170387
83814,Kootenai County,ID,NA,NA,81.55111633372502
60004,Cook County,IL,24.576271186440678,NA,NA
60010,Lake County,IL,NA,NA,30.904817861339602
60013,McHenry County,IL,NA,NA,68.74265569917743
60015,Lake County,IL,64.40677966101694,NA,NA
60025,Cook County,IL,NA,NA,94.82961222091657
60030,Lake County,IL,29.8728813559322,NA,NA
60031,Lake County,IL,NA,NA,75.67567567567568
60035,Lake County,IL,NA,NA,35.60517038777908
60044,Lake County,IL,NA,NA,94.35957696827262
60047,Lake County,IL,85.38135593220339,NA,29.142185663924796
60048,Lake County,IL,NA,NA,41.71562867215041
60053,Cook County,IL,NA,NA,62.51468860164512
60056,Cook County,IL,NA,NA,30.669800235017625
60061,Lake County,IL,NA,NA,51.8213866039953
60062,Cook County,IL,26.27118644067797,NA,31.374853113983548
60067,Cook County,IL,52.33050847457628,NA,NA
60084,Lake County,IL,NA,NA,87.89659224441834
60098,McHenry County,IL,23.516949152542374,NA,NA
60099,Lake County,IL,NA,NA,33.13748531139836
60102,McHenry County,IL,NA,NA,37.83783783783784
60103,DuPage County,IL,52.7542372881356,NA,NA
60104,Cook County,IL,NA,NA,57.81433607520564
60115,DeKalb County,IL,40.88983050847458,NA,NA
60126,DuPage County,IL,NA,NA,9.9882491186839
60133,Cook County,IL,NA,NA,35.13513513513514
60134,Kane County,IL,NA,NA,60.51703877790834
60142,McHenry County,IL,36.016949152542374,NA,NA
60156,McHenry County,IL,28.389830508474578,NA,NA
60169,Cook County,IL,25.635593220338983,NA,37.72032902467685
60177,Kane County,IL,40.46610169491525,NA,NA
60402,Cook County,IL,NA,NA,11.163337250293772
60403,Will County,IL,77.33050847457628,NA,NA
60411,Cook County,IL,NA,70.10309278350515,NA
60435,Will County,IL,NA,NA,83.31374853113984
60445,Cook County,IL,NA,NA,44.41833137485312
60463,Cook County,IL,NA,NA,59.57696827262045
60467,Cook County,IL,27.75423728813559,NA,NA
60478,Cook County,IL,NA,NA,63.924794359576964
60481,Will County,IL,NA,NA,54.17156286721504
60491,Will County,IL,52.118644067796616,NA,NA
60510,Kane County,IL,33.26271186440678,NA,NA
60515,DuPage County,IL,45.97457627118644,NA,NA
60527,DuPage County,IL,55.720338983050844,NA,NA
60538,Kendall County,IL,26.69491525423729,NA,NA
60542,Kane County,IL,41.94915254237288,NA,NA
60544,Will County,IL,83.89830508474576,NA,NA
60555,DuPage County,IL,75.21186440677965,98.4536082474227,56.99177438307873
60585,Will County,IL,32.6271186440678,NA,NA
60607,Cook County,IL,48.516949152542374,NA,NA
60608,Cook County,IL,86.86440677966102,NA,NA
60611,Cook County,IL,NA,NA,96.4747356051704
60618,Cook County,IL,NA,NA,97.41480611045829
60625,Cook County,IL,NA,NA,10.575793184488838
60629,Cook County,IL,NA,NA,6.933019976498238
60632,Cook County,IL,22.66949152542373,NA,NA
60634,Cook County,IL,35.38135593220339,NA,NA
60638,Cook County,IL,NA,NA,9.753231492361927
60640,Cook County,IL,NA,NA,42.773207990599296
60647,Cook County,IL,15.254237288135593,NA,NA
60653,Cook County,IL,NA,NA,49.35370152761457
60714,Cook County,IL,NA,NA,59.34195064629847
60805,Cook County,IL,63.347457627118644,NA,NA
60901,Kankakee County,IL,NA,NA,15.158636897767334
60914,Kankakee County,IL,NA,NA,26.556991774383075
61080,Winnebago County,IL,96.39830508474576,NA,NA
61109,Winnebago County,IL,47.03389830508475,NA,NA
61525,Peoria County,IL,NA,NA,99.05992949471211
61530,Woodford County,IL,79.02542372881356,NA,NA
61704,McLean County,IL,43.64406779661017,NA,NA
61822,Champaign County,IL,NA,NA,98.70740305522914
62024,Madison County,IL,NA,NA,87.07403055229143
62450,Richland County,IL,55.932203389830505,NA,NA
46052,Boone County,IN,77.7542372881356,NA,NA
46168,Hendricks County,IN,NA,NA,31.8448883666275
46205,Marion County,IN,NA,NA,28.554641598119858
46226,Marion County,IN,NA,NA,32.432432432432435
46268,Marion County,IN,NA,NA,81.66862514688601
46303,Lake County,IN,37.28813559322034,97.9381443298969,NA
46307,Lake County,IN,11.016949152542372,NA,NA
46321,Lake County,IN,23.093220338983052,NA,NA
46341,Porter County,IN,NA,82.4742268041237,NA
46342,Lake County,IN,12.5,NA,NA
46350,LaPorte County,IN,NA,NA,9.400705052878966
46366,Starke County,IN,NA,83.50515463917526,NA
46373,Lake County,IN,61.228813559322035,NA,NA
46375,Lake County,IN,11.652542372881355,NA,NA
46383,Porter County,IN,1.9067796610169492,NA,8.343125734430082
46385,Porter County,IN,28.8135593220339,NA,NA
46394,Lake County,IN,54.8728813559322,NA,NA
46404,Lake County,IN,NA,NA,52.64394829612221
46507,Elkhart County,IN,NA,NA,76.96827262044653
46514,Elkhart County,IN,NA,NA,24.206815511163338
46516,Elkhart County,IN,31.35593220338983,NA,NA
46517,Elkhart County,IN,84.32203389830508,NA,NA
46563,Marshall County,IN,NA,NA,79.67097532314924
46601,St. Joseph County,IN,NA,NA,83.07873090481786
46750,Huntington County,IN,14.40677966101695,NA,NA
46761,LaGrange County,IN,NA,NA,97.88484136310224
46774,Allen County,IN,19.06779661016949,NA,NA
46804,Allen County,IN,NA,NA,36.07520564042303
46805,Allen County,IN,NA,NA,52.408930669800235
46814,Allen County,IN,97.03389830508475,NA,NA
46816,Allen County,IN,NA,NA,72.73795534665099
46819,Allen County,IN,NA,NA,76.38072855464159
46902,Howard County,IN,NA,NA,4.700352526439483
46928,Grant County,IN,NA,78.35051546391753,NA
46947,Cass County,IN,NA,NA,71.09283196239718
46952,Grant County,IN,NA,NA,87.42655699177439
46970,Miami County,IN,79.44915254237289,NA,NA
47025,Dearborn County,IN,33.686440677966104,NA,NA
47203,Bartholomew County,IN,36.016949152542374,NA,NA
47246,Bartholomew County,IN,92.79661016949152,NA,NA
47303,Delaware County,IN,NA,NA,27.144535840188016
47362,Henry County,IN,56.567796610169495,NA,85.19388954171563
47553,Martin County,IN,NA,NA,73.91304347826086
47630,Warrick County,IN,NA,NA,59.45945945945946
47711,Vanderburgh County,IN,60.59322033898306,NA,NA
47713,Vanderburgh County,IN,NA,NA,73.5605170387779
47725,Vanderburgh County,IN,69.27966101694916,NA,NA
47802,Vigo County,IN,4.661016949152542,NA,NA
47803,Vigo County,IN,NA,NA,87.66157461809637
47842,Vermillion County,IN,64.83050847457628,NA,NA
47904,Tippecanoe County,IN,59.53389830508474,NA,NA
47905,Tippecanoe County,IN,47.45762711864407,NA,NA
47978,Jasper County,IN,NA,NA,54.87661574618097
50138,Marion County,IA,NA,79.89690721649485,NA
50219,Marion County,IA,NA,NA,75.55816686251468
50310,Polk County,IA,NA,29.381443298969074,NA
50311,Polk County,IA,NA,NA,77.43830787309048
50313,Polk County,IA,41.313559322033896,NA,NA
50613,Black Hawk County,IA,NA,NA,64.04230317273796
50616,Floyd County,IA,NA,62.371134020618555,NA
50659,Chickasaw County,IA,87.07627118644068,NA,NA
50662,Fayette County,IA,85.59322033898306,NA,NA
50701,Black Hawk County,IA,23.728813559322035,NA,NA
50703,Black Hawk County,IA,NA,NA,23.73678025851939
51501,Pottawattamie County,IA,6.567796610169492,NA,4.3478260869565215
52060,Jackson County,IA,NA,63.91752577319587,NA
52175,Fayette County,IA,NA,90.20618556701031,NA
52246,Johnson County,IA,NA,52.57731958762887,NA
52310,Jones County,IA,NA,NA,82.7262044653349
52601,Des Moines County,IA,NA,NA,12.103407755581669
52722,Scott County,IA,12.711864406779661,NA,NA
52807,Scott County,IA,NA,NA,67.09753231492363
66002,Atchison County,KS,NA,NA,61.104582843713274
66102,Wyandotte County,KS,NA,79.38144329896907,NA
66215,Johnson County,KS,NA,NA,58.989424206815514
66221,Johnson County,KS,60.381355932203384,NA,NA
66611,Shawnee County,KS,51.059322033898304,NA,NA
66614,Shawnee County,KS,NA,88.65979381443299,NA
66839,Coffey County,KS,NA,NA,90.0117508813161
67217,Sedgwick County,KS,NA,NA,42.42068155111633
67701,Thomas County,KS,NA,NA,61.809635722679204
67846,Finney County,KS,NA,92.26804123711341,NA
40006,Trimble County,KY,NA,NA,84.4888366627497
40031,Oldham County,KY,NA,67.0103092783505,NA
40212,Jefferson County,KY,NA,39.69072164948454,NA
40229,Jefferson County,KY,NA,NA,11.515863689776733
40258,Jefferson County,KY,NA,NA,19.858989424206815
40272,Jefferson County,KY,NA,NA,58.871915393654525
40324,Scott County,KY,69.70338983050848,NA,NA
40336,Estill County,KY,NA,NA,85.07638072855464
40502,Fayette County,KY,NA,NA,49.00117508813161
40741,Laurel County,KY,NA,40.72164948453608,NA
41030,Grant County,KY,NA,NA,59.57696827262045
41051,Kenton County,KY,NA,51.546391752577314,NA
41071,Campbell County,KY,NA,NA,22.679200940070505
41164,Carter County,KY,NA,30.412371134020617,NA
41171,Elliott County,KY,NA,NA,96.12220916568742
41175,Greenup County,KY,NA,NA,51.46886016451234
42134,Simpson County,KY,NA,NA,41.8331374853114
42303,Daviess County,KY,NA,NA,9.870740305522913
42633,Wayne County,KY,NA,36.08247422680412,NA
42701,Hardin County,KY,13.771186440677965,NA,NA
42754,Grayson County,KY,NA,38.144329896907216,NA
70001,Jefferson Parish,LA,NA,NA,83.90129259694477
70003,Jefferson Parish,LA,2.9661016949152543,NA,8.81316098707403
70005,Jefferson Parish,LA,NA,NA,27.027027027027028
70006,Jefferson Parish,LA,41.10169491525424,NA,NA
70058,Jefferson Parish,LA,NA,NA,3.525264394829612
70115,Orleans Parish,LA,NA,NA,16.686251468860164
70122,Orleans Parish,LA,NA,10.309278350515463,NA
70125,Orleans Parish,LA,13.983050847457626,NA,NA
70126,Orleans Parish,LA,NA,NA,7.1680376028202115
70127,Orleans Parish,LA,2.330508474576271,27.835051546391753,NA
70342,St. Mary Parish,LA,NA,71.1340206185567,NA
70344,Terrebonne Parish,LA,NA,NA,95.29964747356053
70359,Terrebonne Parish,LA,NA,NA,50.76380728554641
70360,Terrebonne Parish,LA,NA,NA,78.02585193889541
70364,Terrebonne Parish,LA,NA,4.639175257731959,NA
70374,Lafourche Parish,LA,25.635593220338983,NA,NA
70380,St. Mary Parish,LA,NA,7.216494845360824,NA
70401,Tangipahoa Parish,LA,NA,43.81443298969072,NA
70403,Tangipahoa Parish,LA,NA,NA,23.971797884841365
70433,St. Tammany Parish,LA,NA,13.402061855670103,38.77790834312573
70435,St. Tammany Parish,LA,NA,22.68041237113402,NA
70443,Tangipahoa Parish,LA,18.220338983050848,NA,69.44770857814336
70444,Tangipahoa Parish,LA,NA,NA,75.3231492361927
70445,St. Tammany Parish,LA,NA,31.958762886597935,NA
70448,St. Tammany Parish,LA,NA,NA,78.37837837837837
70471,St. Tammany Parish,LA,43.64406779661017,NA,NA
70520,Lafayette Parish,LA,NA,NA,20.44653349001175
70769,Ascension Parish,LA,6.991525423728813,9.793814432989691,NA
70806,East Baton Rouge Parish,LA,16.52542372881356,NA,NA
71105,Caddo Parish,LA,NA,NA,30.317273795534668
71351,Avoyelles Parish,LA,NA,14.432989690721648,NA
71483,Winn Parish,LA,NA,NA,31.13983548766158
03902,York County,ME,NA,NA,93.18448883666275
03906,York County,ME,NA,NA,95.53466509988249
04005,York County,ME,NA,NA,14.688601645123384
04084,Cumberland County,ME,NA,NA,90.83431257344301
04101,Cumberland County,ME,44.70338983050847,NA,NA
04103,Cumberland County,ME,NA,NA,19.506462984723854
04105,Cumberland County,ME,NA,NA,86.13396004700353
04210,Androscoggin County,ME,NA,72.16494845360825,55.346650998824906
04240,Androscoggin County,ME,NA,NA,73.20799059929494
04330,Kennebec County,ME,NA,NA,6.580493537015276
04350,Kennebec County,ME,93.4322033898305,NA,NA
04401,Penobscot County,ME,NA,19.072164948453608,75.4406580493537
04426,Piscataquis County,ME,100,NA,79.43595769682726
04444,Penobscot County,ME,NA,NA,88.95417156286722
04462,Penobscot County,ME,NA,NA,72.03290246768508
04901,Kennebec County,ME,NA,73.71134020618557,20.9165687426557
04915,Waldo County,ME,NA,NA,58.40188014101058
04927,Kennebec County,ME,NA,95.87628865979381,NA
04963,Kennebec County,ME,NA,70.10309278350515,NA
20850,Montgomery County,MD,61.652542372881356,NA,NA
20910,Montgomery County,MD,NA,NA,46.29847238542891
20912,Montgomery County,MD,73.30508474576271,NA,NA
21009,Harford County,MD,NA,NA,38.07285546415981
21012,Anne Arundel County,MD,53.60169491525424,NA,NA
21013,Baltimore County,MD,94.0677966101695,NA,NA
21040,Harford County,MD,NA,NA,46.650998824911866
21047,Harford County,MD,90.2542372881356,NA,69.9177438307873
21117,Baltimore County,MD,31.56779661016949,NA,NA
21146,Anne Arundel County,MD,57.83898305084746,NA,NA
21218,Baltimore city,MD,70.97457627118644,NA,NA
21222,Baltimore County,MD,NA,NA,5.522914218566393
21228,Baltimore County,MD,89.40677966101694,NA,NA
21230,Baltimore city,MD,45.76271186440678,NA,NA
21401,Anne Arundel County,MD,25.635593220338983,NA,NA
21742,Washington County,MD,NA,NA,74.61809635722679
21784,Carroll County,MD,64.19491525423729,NA,NA
21788,Frederick County,MD,NA,NA,66.74500587544065
21842,Worcester County,MD,NA,NA,96.94477085781433
21911,Cecil County,MD,84.95762711864407,NA,NA
21921,Cecil County,MD,NA,NA,13.983548766157462
01001,Hampden County,MA,81.35593220338984,NA,NA
01005,Worcester County,MA,NA,72.68041237113401,NA
01013,Hampden County,MA,NA,NA,15.62867215041128
01020,Hampden County,MA,NA,NA,5.052878965922444
01030,Hampden County,MA,NA,NA,64.27732079905994
01040,Hampden County,MA,NA,NA,40.188014101057576
01056,Hampden County,MA,NA,NA,84.84136310223266
01069,Hampden County,MA,NA,NA,78.49588719153937
01082,Hampshire County,MA,NA,NA,21.151586368977675
01107,Hampden County,MA,NA,NA,7.520564042303173
01109,Hampden County,MA,NA,NA,0
01151,Hampden County,MA,NA,NA,22.56169212690952
01376,Franklin County,MA,NA,NA,49.588719153936545
01451,Worcester County,MA,88.77118644067797,NA,NA
01475,Worcester County,MA,NA,48.96907216494845,NA
01516,Worcester County,MA,60.80508474576271,NA,NA
01524,Worcester County,MA,NA,NA,98.589894242068155
01535,Worcester County,MA,65.2542372881356,NA,NA
01545,Worcester County,MA,NA,NA,15.511163337250295
01550,Worcester County,MA,NA,18.04123711340206,NA
01570,Worcester County,MA,NA,NA,43.713278495887195
01571,Worcester County,MA,82.41525423728814,NA,NA
01602,Worcester County,MA,NA,NA,7.7555816686251475
01604,Worcester County,MA,3.6016949152542375,NA,NA
01606,Worcester County,MA,NA,NA,15.863689776733256
01609,Worcester County,MA,NA,NA,38.307873090481785
01701,Middlesex County,MA,NA,NA,63.572267920094006
01702,Middlesex County,MA,NA,NA,68.03760282021152
01742,Middlesex County,MA,NA,NA,43.24324324324324
01756,Worcester County,MA,84.11016949152543,NA,NA
01778,Middlesex County,MA,56.779661016949156,NA,NA
01801,Middlesex County,MA,12.923728813559322,NA,NA
01803,Middlesex County,MA,NA,NA,17.97884841363102
01810,Essex County,MA,NA,68.55670103092784,NA
01835,Essex County,MA,NA,55.670103092783506,NA
01852,Middlesex County,MA,NA,NA,0.11750881316098707
01902,Essex County,MA,NA,2.5773195876288657,NA
01906,Essex County,MA,NA,NA,26.674500587544063
01915,Essex County,MA,7.627118644067797,NA,NA
01923,Essex County,MA,NA,NA,4.465334900117509
01930,Essex County,MA,NA,53.608247422680414,NA
01944,Essex County,MA,93.85593220338984,NA,NA
01960,Essex County,MA,NA,NA,1.1750881316098707
01970,Essex County,MA,NA,NA,60.752056404230316
01984,Essex County,MA,83.6864406779661,NA,NA
02030,Norfolk County,MA,98.51694915254238,NA,NA
02066,Plymouth County,MA,51.69491525423729,NA,NA
02116,Suffolk County,MA,NA,NA,36.66274970622796
02121,Suffolk County,MA,NA,NA,67.68507638072856
02122,Suffolk County,MA,45.33898305084746,NA,NA
02124,Suffolk County,MA,NA,NA,21.034077555816687
02125,Suffolk County,MA,24.78813559322034,NA,NA
02126,Suffolk County,MA,NA,NA,0.7050528789659225
02128,Suffolk County,MA,NA,7.731958762886598,NA
02129,Suffolk County,MA,NA,NA,74.38307873090481
02130,Suffolk County,MA,NA,NA,1.762632197414806
02132,Suffolk County,MA,NA,47.93814432989691,NA
02134,Suffolk County,MA,NA,NA,88.2491186839013
02135,Suffolk County,MA,NA,NA,76.14571092831962
02139,Middlesex County,MA,59.11016949152542,NA,0.23501762632197415
02141,Middlesex County,MA,93.22033898305084,NA,NA
02143,Middlesex County,MA,NA,NA,35.370152761457106
02145,Middlesex County,MA,NA,NA,68.2726204465335
02148,Middlesex County,MA,48.940677966101696,NA,9.283196239717979
02149,Middlesex County,MA,0.6355932203389831,NA,54.99412455934195
02150,Suffolk County,MA,NA,16.49484536082474,39.9529964747356
02151,Suffolk County,MA,NA,NA,2.2326674500587544
02152,Suffolk County,MA,NA,NA,11.868390129259694
02155,Middlesex County,MA,83.05084745762711,NA,39.71797884841363
02169,Norfolk County,MA,NA,NA,0.4700352526439483
02171,Norfolk County,MA,7.838983050847458,NA,24.324324324324326
02176,Middlesex County,MA,NA,NA,40.65804935370153
02301,Plymouth County,MA,0,1.0309278350515463,NA
02360,Plymouth County,MA,NA,NA,1.645123384253819
02364,Plymouth County,MA,56.144067796610166,NA,NA
02370,Plymouth County,MA,NA,NA,13.396004700352526
02420,Middlesex County,MA,NA,NA,55.93419506462985
02421,Middlesex County,MA,17.584745762711865,NA,NA
02445,Norfolk County,MA,NA,NA,87.19153936545241
02446,Norfolk County,MA,39.61864406779661,NA,NA
02451,Middlesex County,MA,NA,NA,93.77203290246769
02467,Norfolk County,MA,NA,74.22680412371135,NA
02472,Middlesex County,MA,NA,NA,39.83548766157462
02476,Middlesex County,MA,82.83898305084746,NA,NA
02478,Middlesex County,MA,NA,NA,20.564042303172737
02492,Norfolk County,MA,34.11016949152542,NA,NA
02703,Bristol County,MA,NA,NA,7.638072855464159
02720,Bristol County,MA,NA,NA,47.23854289071681
02721,Bristol County,MA,39.61864406779661,NA,0.5875440658049353
02723,Bristol County,MA,7.203389830508475,NA,NA
02726,Bristol County,MA,68.4322033898305,NA,NA
02769,Bristol County,MA,NA,NA,37.2502937720329
48035,Macomb County,MI,13.347457627118645,NA,27.84958871915394
48044,Macomb County,MI,NA,NA,41.36310223266745
48076,Oakland County,MI,17.796610169491526,NA,NA
48103,Washtenaw County,MI,NA,NA,13.631022326674499
48105,Washtenaw County,MI,50.42372881355932,NA,NA
48120,Wayne County,MI,NA,NA,91.30434782608695
48125,Wayne County,MI,NA,NA,19.9764982373678
48176,Washtenaw County,MI,48.516949152542374,NA,NA
48178,Oakland County,MI,12.076271186440678,NA,NA
48193,Wayne County,MI,NA,NA,42.890716803760284
48219,Wayne County,MI,NA,NA,5.64042303172738
48235,Wayne County,MI,NA,NA,13.748531139835487
48237,Oakland County,MI,43.22033898305085,NA,NA
48238,Wayne County,MI,8.050847457627118,NA,5.875440658049354
48310,Macomb County,MI,13.983050847457626,NA,NA
48327,Oakland County,MI,NA,NA,90.24676850763808
48375,Oakland County,MI,NA,NA,40.77555816686251
48393,Oakland County,MI,NA,NA,98.47238542890717
48415,Saginaw County,MI,NA,NA,39.130434782608695
48423,Genesee County,MI,43.43220338983051,NA,25.851938895417153
48451,Genesee County,MI,69.49152542372882,NA,82.49118683901293
48473,Genesee County,MI,NA,NA,34.430082256169214
48503,Genesee County,MI,NA,37.628865979381445,64.15981198589894
48625,Clare County,MI,38.559322033898304,NA,NA
48836,Livingston County,MI,NA,NA,92.47943595769684
48842,Ingham County,MI,NA,NA,29.37720329024677
48843,Livingston County,MI,NA,NA,11.633372502937721
48846,Ionia County,MI,NA,NA,29.847238542890718
48858,Isabella County,MI,NA,NA,7.050528789659224
49001,Kalamazoo County,MI,30.720338983050848,NA,NA
49006,Kalamazoo County,MI,NA,NA,40.305522914218564
49009,Kalamazoo County,MI,46.186440677966104,NA,NA
49010,Allegan County,MI,38.13559322033898,NA,NA
49079,Van Buren County,MI,NA,NA,98.35487661574618
49083,Kalamazoo County,MI,67.79661016949152,NA,NA
49120,Berrien County,MI,NA,NA,13.278495887191538
49201,Jackson County,MI,9.533898305084746,NA,52.526439482961216
49203,Jackson County,MI,NA,NA,25.02937720329025
49417,Ottawa County,MI,30.08474576271186,NA,NA
49423,Ottawa County,MI,NA,NA,32.19741480611046
49424,Ottawa County,MI,10.59322033898305,NA,86.25146886016452
49428,Ottawa County,MI,NA,NA,65.56991774383079
49441,Muskegon County,MI,NA,NA,33.01997649823737
49454,Mason County,MI,NA,NA,68.97767332549941
49464,Ottawa County,MI,66.10169491525424,NA,NA
49508,Kent County,MI,NA,NA,6.345475910693302
49525,Kent County,MI,NA,NA,67.56756756756756
49534,Kent County,MI,49.78813559322034,NA,NA
49690,Grand Traverse County,MI,98.30508474576271,NA,NA
49696,Grand Traverse County,MI,71.1864406779661,NA,NA
49770,Emmet County,MI,24.364406779661017,NA,NA
49854,Schoolcraft County,MI,NA,NA,86.72150411280846
55008,Isanti County,MN,NA,53.09278350515464,NA
55033,Dakota County,MN,NA,NA,49.94124559341951
55057,Rice County,MN,NA,NA,56.40423031727379
55060,Steele County,MN,NA,NA,28.554641598119858
55066,Goodhue County,MN,NA,NA,36.54524089306698
55082,Washington County,MN,NA,NA,26.90951821386604
55102,Ramsey County,MN,29.02542372881356,NA,NA
55105,Ramsey County,MN,NA,NA,91.65687426556993
55106,Ramsey County,MN,2.11864406779661,NA,38.54289071680376
55109,Ramsey County,MN,NA,NA,36.310223266745005
55113,Ramsey County,MN,NA,NA,74.73560517038777
55115,Washington County,MN,NA,NA,91.7743830787309
55117,Ramsey County,MN,NA,15.979381443298967,NA
55124,Dakota County,MN,66.52542372881356,NA,NA
55125,Washington County,MN,52.96610169491526,NA,NA
55126,Ramsey County,MN,NA,NA,47.82608695652174
55303,Anoka County,MN,8.26271186440678,NA,16.216216216216218
55350,McLeod County,MN,NA,NA,86.01645123384255
55404,Hennepin County,MN,NA,NA,1.9976498237367801
55407,Hennepin County,MN,NA,NA,7.285546415981199
55412,Hennepin County,MN,20.55084745762712,NA,71.21034077555817
55413,Hennepin County,MN,NA,NA,34.19506462984724
55415,Hennepin County,MN,NA,NA,86.83901292596946
55418,Hennepin County,MN,NA,NA,87.54406580493537
55419,Hennepin County,MN,8.898305084745763,NA,NA
55421,Anoka County,MN,NA,NA,18.566392479435958
55429,Hennepin County,MN,NA,14.948453608247423,76.26321974148061
55430,Hennepin County,MN,NA,NA,16.56874265569918
55433,Anoka County,MN,NA,NA,54.28907168037603
55437,Hennepin County,MN,NA,91.23711340206185,NA
55439,Hennepin County,MN,NA,NA,96.00470035252644
55448,Anoka County,MN,23.30508474576271,NA,NA
55720,Carlton County,MN,NA,NA,94.5945945945946
55746,St. Louis County,MN,NA,NA,45.24089306698003
55792,St. Louis County,MN,NA,NA,28.08460634547591
55803,St. Louis County,MN,NA,NA,54.64159811985899
55805,St. Louis County,MN,NA,NA,60.86956521739131
55807,St. Louis County,MN,72.45762711864407,NA,38.42538190364277
55904,Olmsted County,MN,NA,NA,55.58166862514688
55912,Mower County,MN,NA,76.28865979381443,48.64864864864865
55964,Wabasha County,MN,NA,NA,99.41245593419507
55972,Winona County,MN,99.57627118644068,NA,NA
55987,Winona County,MN,NA,20.618556701030926,52.29142185663925
56007,Freeborn County,MN,NA,NA,36.78025851938895
56024,Blue Earth County,MN,82.41525423728814,NA,NA
56031,Martin County,MN,NA,NA,74.03055229142186
56093,Waseca County,MN,NA,NA,56.99177438307873
56187,Nobles County,MN,NA,NA,76.02820211515863
56201,Kandiyohi County,MN,73.72881355932203,NA,NA
56215,Swift County,MN,NA,NA,82.02115158636897
56258,Lyon County,MN,NA,NA,80.61104582843713
56301,Stearns County,MN,NA,NA,59.22444183313749
56308,Douglas County,MN,NA,NA,22.444183313748532
56329,Benton County,MN,NA,89.69072164948454,NA
56377,Stearns County,MN,NA,NA,82.6086956521739
56379,Benton County,MN,21.610169491525426,NA,NA
56387,Stearns County,MN,65.46610169491525,NA,NA
56401,Crow Wing County,MN,NA,NA,9.63572267920094
56464,Wadena County,MN,NA,NA,92.94947121034077
56472,Crow Wing County,MN,55.50847457627118,NA,56.16921269095182
56501,Becker County,MN,NA,NA,29.72972972972973
56520,Wilkin County,MN,NA,NA,61.69212690951822
56549,Clay County,MN,75.42372881355932,NA,NA
56560,Clay County,MN,1.4830508474576272,NA,2.7027027027027026
56601,Beltrami County,MN,NA,NA,37.132784958871916
56633,Hubbard County,MN,NA,88.14432989690721,NA
38672,DeSoto County,MS,55.08474576271186,NA,NA
39042,Rankin County,MS,47.45762711864407,NA,NA
39110,Madison County,MS,20.97457627118644,NA,NA
39212,Hinds County,MS,NA,NA,19.036427732079904
39365,Neshoba County,MS,66.73728813559322,NA,NA
39483,Marion County,MS,NA,NA,71.56286721504112
39501,Harrison County,MS,NA,NA,56.051703877790835
39601,Lincoln County,MS,41.94915254237288,NA,NA
39648,Pike County,MS,47.24576271186441,NA,NA
63033,St. Louis County,MO,NA,28.865979381443296,NA
63043,St. Louis County,MO,NA,74.22680412371135,NA
63084,Franklin County,MO,NA,42.78350515463917,NA
63090,Franklin County,MO,NA,NA,61.927144535840185
63122,St. Louis County,MO,NA,NA,45.710928319623974
63123,St. Louis County,MO,NA,NA,28.437132784958873
63125,St. Louis County,MO,NA,NA,33.96004700352526
63303,St. Charles County,MO,NA,NA,20.211515863689776
63367,St. Charles County,MO,NA,NA,44.535840188014106
63368,St. Charles County,MO,11.864406779661017,NA,NA
63664,Washington County,MO,NA,46.90721649484536,NA
63670,Ste. Genevieve County,MO,NA,38.144329896907216,NA
63857,Dunklin County,MO,NA,NA,34.78260869565217
64064,Jackson County,MO,NA,NA,41.59811985898942
64068,Clay County,MO,NA,86.5979381443299,NA
64077,Ray County,MO,NA,NA,91.8918918918919
64082,Jackson County,MO,NA,NA,56.40423031727379
64083,Cass County,MO,26.906779661016948,NA,NA
64089,Clay County,MO,NA,NA,42.30317273795535
64093,Johnson County,MO,NA,NA,27.144535840188016
64109,Jackson County,MO,NA,NA,47.94359576968273
64111,Jackson County,MO,NA,NA,21.73913043478261
64114,Jackson County,MO,NA,NA,54.524089306697995
64117,Clay County,MO,51.271186440677965,NA,NA
64118,Clay County,MO,9.110169491525424,NA,34.90011750881316
64134,Jackson County,MO,NA,NA,80.25851938895417
64506,Buchanan County,MO,NA,NA,96.59224441833138
64725,Cass County,MO,96.39830508474576,NA,NA
65018,Moniteau County,MO,NA,NA,99.29494712103408
65084,Morgan County,MO,NA,NA,88.36662749706228
65201,Boone County,MO,NA,NA,36.427732079905994
65203,Boone County,MO,NA,NA,58.75440658049354
65536,Laclede County,MO,NA,NA,70.50528789659224
65556,Pulaski County,MO,NA,68.04123711340206,NA
65711,Wright County,MO,NA,NA,74.97062279670975
65712,Lawrence County,MO,NA,NA,88.48413631022328
65721,Christian County,MO,NA,62.371134020618555,NA
65742,Webster County,MO,NA,NA,93.30199764982373
65775,Howell County,MO,NA,61.855670103092784,NA
65803,Greene County,MO,NA,NA,84.25381903642773
65807,Greene County,MO,NA,NA,47.12103407755582
59405,Cascade County,MT,87.28813559322035,NA,NA
59801,Missoula County,MT,NA,NA,49.70622796709753
68028,Sarpy County,NE,48.30508474576271,NA,NA
68134,Douglas County,NE,NA,NA,44.888366627497064
68467,York County,NE,NA,NA,90.36427732079906
68601,Platte County,NE,52.33050847457628,NA,48.88366627497062
68776,Dakota County,NE,NA,NA,65.21739130434783
68850,Dawson County,NE,50.21186440677966,NA,NA
69341,Scotts Bluff County,NE,NA,NA,77.67332549941246
89138,Clark County,NV,NA,NA,79.20094007050528
89509,Washoe County,NV,NA,NA,76.73325499412455
03053,Rockingham County,NH,19.703389830508474,NA,NA
03062,Hillsborough County,NH,22.033898305084744,NA,NA
03103,Hillsborough County,NH,2.5423728813559325,NA,NA
03246,Belknap County,NH,NA,NA,38.66039952996474
03301,Merrimack County,NH,20.127118644067796,NA,NA
03873,Rockingham County,NH,NA,NA,77.90834312573442
07002,Hudson County,NJ,5.084745762711865,NA,2.1151586368977675
07024,Bergen County,NJ,NA,NA,26.79200940070505
07059,Somerset County,NJ,NA,NA,70.62279670975323
07076,Union County,NJ,88.77118644067797,NA,NA
07081,Union County,NJ,92.16101694915254,NA,NA
07095,Middlesex County,NJ,NA,82.9896907216495,NA
07112,Essex County,NJ,NA,69.58762886597938,NA
07306,Hudson County,NJ,NA,71.64948453608247,6.110458284371328
07461,Sussex County,NJ,NA,NA,31.727379553466513
07627,Bergen County,NJ,92.79661016949152,NA,NA
07675,Bergen County,NJ,NA,NA,93.41950646298473
07701,Monmouth County,NJ,91.52542372881356,NA,NA
07716,Monmouth County,NJ,88.13559322033898,NA,NA
07728,Monmouth County,NJ,NA,NA,13.866039952996475
07825,Warren County,NJ,NA,NA,77.08578143360752
07840,Warren County,NJ,NA,NA,95.65217391304348
07852,Morris County,NJ,98.9406779661017,NA,NA
07869,Morris County,NJ,98.72881355932203,NA,NA
07974,Union County,NJ,56.144067796610166,NA,NA
08002,Camden County,NJ,NA,96.3917525773196,67.33254994124559
08010,Burlington County,NJ,NA,NA,40.42303172737955
08016,Burlington County,NJ,NA,NA,4.112808460634548
08070,Salem County,NJ,NA,NA,38.89541715628672
08080,Gloucester County,NJ,NA,NA,29.612220916568745
08088,Burlington County,NJ,NA,NA,37.95534665099882
08103,Camden County,NJ,NA,20.103092783505154,NA
08105,Camden County,NJ,NA,3.0927835051546393,NA
08302,Cumberland County,NJ,NA,NA,28.202115158636897
08360,Cumberland County,NJ,5.932203389830509,NA,1.527614571092832
08505,Burlington County,NJ,81.99152542372882,NA,NA
08527,Ocean County,NJ,20.127118644067796,NA,NA
08609,Mercer County,NJ,NA,95.36082474226805,NA
08690,Mercer County,NJ,NA,81.44329896907216,NA
08724,Ocean County,NJ,27.54237288135593,NA,NA
08742,Ocean County,NJ,NA,NA,49.1186839012926
08753,Ocean County,NJ,29.66101694915254,NA,NA
08757,Ocean County,NJ,78.17796610169492,NA,NA
08817,Middlesex County,NJ,69.70338983050848,NA,NA
08830,Middlesex County,NJ,97.66949152542372,NA,NA
87105,Bernalillo County,NM,NA,NA,4.935370152761457
87109,Bernalillo County,NM,NA,NA,15.746180963572268
87112,Bernalillo County,NM,NA,NA,12.808460634547592
87121,Bernalillo County,NM,3.1779661016949152,NA,NA
87123,Bernalillo County,NM,NA,NA,33.25499412455934
87144,Sandoval County,NM,96.82203389830508,NA,NA
87420,San Juan County,NM,NA,NA,24.5593419506463
87505,Santa Fe County,NM,NA,NA,44.770857814336075
87552,San Miguel County,NM,NA,NA,100
88240,Lea County,NM,NA,NA,6.698002350176263
10002,New York County,NY,NA,44.84536082474227,NA
10011,New York County,NY,NA,NA,56.874265569917746
10022,New York County,NY,75.63559322033898,NA,NA
10024,New York County,NY,90.46610169491525,NA,NA
10025,New York County,NY,91.52542372881356,NA,94.00705052878966
10026,New York County,NY,NA,48.45360824742268,NA
10027,New York County,NY,NA,NA,80.37602820211515
10028,New York County,NY,NA,NA,67.80258519388954
10029,New York County,NY,NA,3.608247422680412,44.65334900117509
10030,New York County,NY,NA,NA,79.55346650998824
10031,New York County,NY,NA,41.23711340206185,NA
10032,New York County,NY,NA,NA,29.024676850763807
10040,New York County,NY,NA,NA,52.05640423031728
10301,Richmond County,NY,NA,NA,14.571092831962398
10305,Richmond County,NY,NA,39.69072164948454,NA
10310,Richmond County,NY,NA,65.4639175257732,NA
10314,Richmond County,NY,81.77966101694916,NA,88.60164512338426
10451,Bronx County,NY,4.872881355932203,NA,15.276145710928319
10452,Bronx County,NY,NA,NA,89.65922444183315
10453,Bronx County,NY,NA,49.48453608247423,1.2925969447708578
10455,Bronx County,NY,NA,78.35051546391753,NA
10456,Bronx County,NY,NA,0,42.068155111633374
10457,Bronx County,NY,NA,NA,0.9400705052878966
10458,Bronx County,NY,NA,NA,39.247943595769684
10460,Bronx County,NY,NA,36.597938144329895,NA
10461,Bronx County,NY,NA,NA,57.46180963572268
10462,Bronx County,NY,NA,NA,87.3090481786134
10466,Bronx County,NY,NA,4.123711340206185,19.153936545240892
10467,Bronx County,NY,NA,0.5154639175257731,NA
10468,Bronx County,NY,NA,NA,65.68742655699178
10472,Bronx County,NY,NA,13.917525773195877,3.055229142185664
10473,Bronx County,NY,NA,NA,57.69682726204466
10474,Bronx County,NY,NA,NA,45.24089306698003
10543,Westchester County,NY,94.27966101694916,NA,NA
10550,Westchester County,NY,NA,NA,21.386603995299648
10562,Westchester County,NY,14.61864406779661,NA,NA
10598,Westchester County,NY,73.09322033898306,NA,NA
10706,Westchester County,NY,NA,NA,98.82491186839013
11050,Nassau County,NY,NA,NA,89.1891891891892
11103,Queens County,NY,NA,NA,78.9659224441833
11106,Queens County,NY,40.67796610169492,NA,NA
11204,Kings County,NY,NA,NA,23.619271445358404
11205,Kings County,NY,NA,NA,47.591069330199765
11206,Kings County,NY,NA,31.443298969072163,78.61339600470035
11207,Kings County,NY,NA,NA,0.8225616921269095
11208,Kings County,NY,NA,NA,8.578143360752057
11212,Kings County,NY,NA,2.0618556701030926,24.676850763807284
11213,Kings County,NY,NA,NA,5.7579318448883665
11216,Kings County,NY,NA,47.42268041237113,NA
11218,Kings County,NY,NA,17.010309278350515,NA
11220,Kings County,NY,NA,8.762886597938143,NA
11221,Kings County,NY,NA,NA,45.94594594594595
11223,Kings County,NY,NA,NA,89.77673325499413
11225,Kings County,NY,NA,NA,58.63689776733255
11235,Kings County,NY,18.85593220338983,NA,NA
11237,Kings County,NY,NA,9.278350515463918,86.3689776733255
11238,Kings County,NY,NA,NA,66.3924794359577
11365,Queens County,NY,NA,63.4020618556701,NA
11367,Queens County,NY,NA,NA,86.48648648648648
11377,Queens County,NY,62.28813559322034,NA,NA
11415,Queens County,NY,67.79661016949152,NA,NA
11432,Queens County,NY,NA,NA,21.974148061104586
11501,Nassau County,NY,NA,NA,95.76968272620446
11561,Nassau County,NY,NA,56.70103092783505,NA
11570,Nassau County,NY,NA,NA,70.27027027027027
11691,Queens County,NY,NA,NA,9.048178613396004
11706,Suffolk County,NY,NA,NA,19.623971797884842
11758,Nassau County,NY,NA,NA,80.0235017626322
11779,Suffolk County,NY,NA,100,NA
12020,Saratoga County,NY,NA,43.81443298969072,17.156286721504113
12180,Rensselaer County,NY,NA,NA,13.160987074030553
12184,Columbia County,NY,63.983050847457626,NA,NA
12304,Schenectady County,NY,NA,NA,49.471210340775556
12306,Schenectady County,NY,NA,NA,51.93889541715628
12307,Schenectady County,NY,NA,NA,89.07168037602821
12401,Ulster County,NY,NA,NA,18.44888366627497
12883,Essex County,NY,84.53389830508475,NA,NA
12901,Clinton County,NY,NA,NA,3.9952996474735603
13021,Cayuga County,NY,NA,NA,4.230317273795535
13036,Oswego County,NY,NA,NA,69.80023501762632
13045,Cortland County,NY,NA,NA,4.81786133960047
13066,Onondaga County,NY,NA,NA,97.64982373678026
13069,Oswego County,NY,NA,NA,78.73090481786133
13074,Oswego County,NY,NA,NA,65.09988249118685
13078,Onondaga County,NY,95.97457627118644,NA,NA
13088,Onondaga County,NY,NA,NA,22.326674500587544
13092,Cayuga County,NY,76.0593220338983,NA,NA
13126,Oswego County,NY,NA,NA,17.62632197414806
13143,Wayne County,NY,NA,NA,85.89894242068155
13204,Onondaga County,NY,NA,96.90721649484536,46.4159811985899
13210,Onondaga County,NY,NA,NA,82.96122209165688
13212,Onondaga County,NY,NA,NA,79.78848413631022
13350,Herkimer County,NY,25,NA,NA
13365,Herkimer County,NY,NA,NA,53.11398354876615
13411,Chenango County,NY,NA,NA,62.16216216216216
13421,Madison County,NY,19.279661016949152,NA,NA
13461,Oneida County,NY,NA,NA,81.08108108108108
13492,Oneida County,NY,81.14406779661016,NA,50.293772032902474
13601,Jefferson County,NY,NA,NA,94.71210340775558
13619,Jefferson County,NY,NA,NA,92.36192714453584
13642,St. Lawrence County,NY,38.559322033898304,NA,74.26556991774383
13662,St. Lawrence County,NY,NA,NA,25.616921269095183
13760,Broome County,NY,1.2711864406779663,NA,NA
13778,Chenango County,NY,NA,NA,50.0587544065805
13833,Broome County,NY,NA,NA,59.106933019976495
14001,Erie County,NY,98.09322033898306,NA,NA
14032,Erie County,NY,NA,NA,87.77908343125735
14067,Niagara County,NY,64.40677966101694,NA,NA
14068,Erie County,NY,NA,NA,80.96357226792009
14072,Erie County,NY,61.86440677966102,NA,NA
14086,Erie County,NY,34.53389830508475,NA,NA
14092,Niagara County,NY,81.5677966101695,NA,NA
14094,Niagara County,NY,7.415254237288135,NA,2.82021151586369
14120,Niagara County,NY,6.1440677966101696,NA,32.90246768507638
14141,Erie County,NY,62.07627118644068,NA,NA
14150,Erie County,NY,16.3135593220339,NA,6.462984723854288
14207,Erie County,NY,80.72033898305084,NA,NA
14210,Erie County,NY,88.5593220338983,NA,NA
14215,Erie County,NY,NA,NA,2.5851938895417157
14216,Erie County,NY,NA,NA,85.54641598119859
14222,Erie County,NY,NA,NA,79.31844888366626
14304,Niagara County,NY,NA,45.36082474226804,NA
14411,Orleans County,NY,35.59322033898305,NA,82.84371327849588
14424,Ontario County,NY,32.41525423728814,NA,NA
14445,Monroe County,NY,NA,99.48453608247422,NA
14450,Monroe County,NY,9.745762711864407,NA,NA
14456,Ontario County,NY,22.245762711864405,NA,NA
14464,Monroe County,NY,NA,93.81443298969072,NA
14470,Orleans County,NY,NA,NA,74.5005875440658
14513,Wayne County,NY,NA,NA,90.12925969447708
14514,Monroe County,NY,37.07627118644068,NA,NA
14534,Monroe County,NY,33.89830508474576,NA,NA
14564,Ontario County,NY,48.09322033898305,NA,NA
14568,Wayne County,NY,86.4406779661017,NA,NA
14580,Monroe County,NY,0.423728813559322,NA,1.410105757931845
14586,Monroe County,NY,26.48305084745763,NA,NA
14605,Monroe County,NY,NA,NA,71.44535840188014
14606,Monroe County,NY,63.13559322033898,NA,45.475910693302
14607,Monroe County,NY,NA,NA,77.2032902467685
14608,Monroe County,NY,NA,NA,12.338425381903642
14609,Monroe County,NY,NA,NA,5.405405405405405
14611,Monroe County,NY,NA,NA,48.29612220916569
14612,Monroe County,NY,24.152542372881356,NA,2.937720329024677
14613,Monroe County,NY,22.66949152542373,NA,85.78143360752057
14616,Monroe County,NY,36.86440677966102,38.144329896907216,67.45005875440658
14617,Monroe County,NY,8.686440677966102,NA,NA
14618,Monroe County,NY,34.95762711864407,NA,NA
14619,Monroe County,NY,36.652542372881356,NA,83.6662749706228
14621,Monroe County,NY,NA,10.824742268041238,1.0575793184488838
14622,Monroe County,NY,NA,NA,68.50763807285546
14624,Monroe County,NY,33.05084745762712,NA,NA
14701,Chautauqua County,NY,NA,NA,66.98002350176263
14826,Steuben County,NY,NA,NA,99.64747356051704
14830,Steuben County,NY,19.915254237288135,NA,NA
14850,Tompkins County,NY,NA,NA,5.992949471210341
27103,Forsyth County,NC,NA,NA,13.513513513513514
27105,Forsyth County,NC,NA,15.463917525773196,NA
27106,Forsyth County,NC,NA,NA,12.45593419506463
27284,Forsyth County,NC,33.26271186440678,NA,NA
27295,Davidson County,NC,NA,NA,4.582843713278495
27302,Alamance County,NC,NA,NA,72.85546415981199
27358,Guilford County,NC,NA,NA,99.76498237367802
27410,Guilford County,NC,16.73728813559322,NA,NA
27560,Wake County,NC,NA,NA,60.98707403055229
27565,Granville County,NC,NA,35.56701030927835,NA
27597,Wake County,NC,NA,NA,64.39482961222092
27607,Wake County,NC,NA,NA,73.09048178613396
27612,Wake County,NC,58.89830508474576,NA,NA
27614,Wake County,NC,64.83050847457628,NA,NA
27616,Wake County,NC,NA,NA,18.683901292596943
27707,Durham County,NC,NA,NA,66.03995299647474
27958,Currituck County,NC,NA,NA,76.85076380728555
28001,Stanly County,NC,NA,NA,51.11633372502937
28031,Mecklenburg County,NC,NA,NA,70.38777908343125
28078,Mecklenburg County,NC,NA,57.21649484536082,NA
28079,Union County,NC,70.55084745762711,NA,NA
28086,Cleveland County,NC,NA,NA,21.26909518213866
28210,Mecklenburg County,NC,NA,46.391752577319586,NA
28211,Mecklenburg County,NC,NA,NA,24.794359576968272
28214,Mecklenburg County,NC,NA,NA,48.531139835487664
28215,Mecklenburg County,NC,NA,NA,14.101057579318448
28217,Mecklenburg County,NC,NA,NA,40.8930669800235
28277,Mecklenburg County,NC,65.46610169491525,NA,NA
28311,Cumberland County,NC,NA,NA,45.12338425381904
28312,Cumberland County,NC,NA,NA,50.411280846063455
28348,Cumberland County,NC,58.686440677966104,NA,NA
28403,New Hanover County,NC,NA,NA,31.492361927144536
28412,New Hanover County,NC,30.29661016949153,NA,NA
28645,Caldwell County,NC,NA,6.701030927835052,NA
28655,Burke County,NC,13.559322033898304,NA,NA
28658,Catawba County,NC,NA,NA,34.312573443008226
28659,Wilkes County,NC,NA,NA,18.91891891891892
28705,Mitchell County,NC,NA,NA,70.15276145710928
28714,Yancey County,NC,NA,NA,53.5840188014101
28761,McDowell County,NC,NA,89.17525773195877,NA
28806,Buncombe County,NC,NA,NA,90.951821386604
58103,Cass County,ND,NA,NA,72.38542890716803
58104,Cass County,ND,44.49152542372881,NA,NA
58201,Grand Forks County,ND,NA,NA,25.26439482961222
58329,Rolette County,ND,NA,NA,96.23971797884842
58504,Burleigh County,ND,83.26271186440678,NA,NA
43017,Franklin County,OH,NA,NA,71.68037602820212
43055,Licking County,OH,NA,NA,30.552291421856637
43074,Delaware County,OH,NA,59.79381443298969,NA
43080,Licking County,OH,NA,81.95876288659794,NA
43081,Franklin County,OH,11.440677966101696,NA,44.06580493537015
43135,Hocking County,OH,NA,NA,91.42185663924795
43201,Franklin County,OH,NA,NA,62.04465334900118
43207,Franklin County,OH,NA,NA,2.3501762632197414
43214,Franklin County,OH,NA,67.0103092783505,NA
43215,Franklin County,OH,NA,NA,29.847238542890718
43222,Franklin County,OH,NA,NA,44.18331374853114
43228,Franklin County,OH,0.211864406779661,NA,NA
43230,Franklin County,OH,NA,18.556701030927837,NA
43235,Franklin County,OH,NA,NA,98.94242068155111
43302,Marion County,OH,NA,NA,3.172737955346651
43402,Wood County,OH,NA,NA,57.34430082256169
43431,Sandusky County,OH,NA,NA,94.24206815511164
43512,Defiance County,OH,2.754237288135593,NA,NA
43560,Lucas County,OH,5.508474576271186,NA,NA
43623,Lucas County,OH,NA,NA,22.09165687426557
43725,Guernsey County,OH,NA,NA,50.64629847238543
43730,Perry County,OH,NA,NA,94.94712103407755
43935,Belmont County,OH,NA,55.154639175257735,NA
44004,Ashtabula County,OH,NA,NA,3.4077555816686247
44011,Lorain County,OH,NA,NA,24.91186839012926
44012,Lorain County,OH,72.66949152542372,NA,NA
44023,Geauga County,OH,NA,NA,97.53231492361927
44030,Ashtabula County,OH,NA,NA,67.92009400705052
44039,Lorain County,OH,NA,NA,25.73443008225617
44044,Lorain County,OH,NA,NA,62.98472385428907
44053,Lorain County,OH,NA,NA,8.225616921269095
44054,Lorain County,OH,NA,NA,54.75910693301997
44062,Geauga County,OH,NA,NA,81.19858989424206
44074,Lorain County,OH,NA,NA,63.80728554641598
44077,Lake County,OH,5.296610169491525,NA,NA
44102,Cuyahoga County,OH,NA,1.5463917525773196,0.35252643948296125
44106,Cuyahoga County,OH,NA,NA,10.105757931844888
44107,Cuyahoga County,OH,17.796610169491526,NA,23.854289071680377
44110,Cuyahoga County,OH,NA,NA,53.81903642773208
44118,Cuyahoga County,OH,NA,64.94845360824742,NA
44119,Cuyahoga County,OH,NA,NA,17.861339600470036
44128,Cuyahoga County,OH,10.805084745762713,NA,NA
44129,Cuyahoga County,OH,70.12711864406779,87.62886597938144,NA
44130,Cuyahoga County,OH,NA,11.855670103092782,NA
44133,Cuyahoga County,OH,34.11016949152542,NA,61.457109283196246
44136,Cuyahoga County,OH,NA,NA,23.266745005875443
44143,Cuyahoga County,OH,74.36440677966102,NA,NA
44144,Cuyahoga County,OH,NA,NA,31.962397179788482
44202,Portage County,OH,NA,NA,51.703877790834305
44236,Summit County,OH,NA,NA,42.65569917743831
44281,Medina County,OH,NA,NA,19.27144535840188
44310,Summit County,OH,NA,NA,73.6780258519389
44321,Summit County,OH,NA,NA,63.689776733255
44410,Trumbull County,OH,NA,NA,28.90716803760282
44418,Trumbull County,OH,99.36440677966102,NA,NA
44446,Trumbull County,OH,37.71186440677966,NA,NA
44483,Trumbull County,OH,NA,NA,14.806110458284373
44609,Mahoning County,OH,97.45762711864407,NA,NA
44672,Mahoning County,OH,NA,NA,74.97062279670975
44705,Stark County,OH,NA,25.257731958762886,NA
44721,Stark County,OH,NA,NA,68.39012925969448
44857,Huron County,OH,15.889830508474576,NA,NA
44905,Richland County,OH,35.80508474576271,NA,NA
44907,Richland County,OH,NA,NA,32.07990599294947
45011,Butler County,OH,NA,NA,3.7602820211515864
45042,Butler County,OH,NA,NA,17.391304347826086
45177,Clinton County,OH,31.779661016949152,NA,NA
45206,Hamilton County,OH,NA,50,NA
45223,Hamilton County,OH,28.177966101694917,NA,NA
45225,Hamilton County,OH,NA,NA,75.79318448883666
45230,Hamilton County,OH,37.28813559322034,NA,NA
45236,Hamilton County,OH,17.16101694915254,NA,42.18566392479436
45241,Hamilton County,OH,NA,NA,56.28672150411281
45249,Hamilton County,OH,57.83898305084746,NA,NA
45342,Montgomery County,OH,NA,NA,10.45828437132785
45365,Shelby County,OH,9.957627118644067,NA,NA
45424,Montgomery County,OH,4.025423728813559,NA,NA
45440,Montgomery County,OH,NA,77.83505154639175,NA
45601,Ross County,OH,NA,5.154639175257731,NA
45662,Scioto County,OH,NA,NA,62.749706227967096
45680,Lawrence County,OH,NA,NA,12.220916568742656
45692,Jackson County,OH,NA,41.75257731958763,NA
45750,Washington County,OH,NA,NA,2.4676850763807283
45806,Allen County,OH,NA,NA,72.97297297297297
45879,Paulding County,OH,31.991525423728813,NA,NA
73005,Caddo County,OK,NA,NA,72.15041128084606
73086,Murray County,OK,63.559322033898304,NA,NA
73112,Oklahoma County,OK,NA,NA,27.614571092831962
73139,Oklahoma County,OK,73.51694915254238,NA,NA
73521,Jackson County,OK,NA,NA,53.34900117508813
74017,Rogers County,OK,NA,NA,34.665099882491184
74070,Osage County,OK,NA,NA,65.92244418331374
74104,Tulsa County,OK,79.66101694915254,NA,NA
74105,Tulsa County,OK,NA,NA,29.25969447708578
74134,Tulsa County,OK,NA,NA,57.931844888366626
74137,Tulsa County,OK,NA,NA,62.86721504112809
74447,Okmulgee County,OK,51.69491525423729,NA,NA
74464,Cherokee County,OK,22.45762711864407,NA,NA
74467,Wagoner County,OK,NA,NA,70.97532314923619
74801,Pottawatomie County,OK,NA,NA,28.789659224441834
74804,Pottawatomie County,OK,NA,NA,52.17391304347826
97006,Washington County,OR,NA,NA,24.324324324324326
97013,Clackamas County,OR,NA,NA,69.9177438307873
97060,Multnomah County,OR,NA,NA,33.72502937720329
97062,Washington County,OR,NA,NA,45.593419506462986
97220,Multnomah County,OR,NA,NA,27.379553466509986
97236,Multnomah County,OR,NA,29.896907216494846,41.24559341950646
97266,Multnomah County,OR,NA,NA,26.08695652173913
97322,Linn County,OR,77.96610169491525,NA,NA
97333,Benton County,OR,84.7457627118644,NA,NA
97352,Marion County,OR,NA,NA,86.60399529964748
97355,Linn County,OR,NA,NA,11.045828437132785
97381,Marion County,OR,NA,NA,68.86016451233843
97386,Linn County,OR,49.36440677966102,NA,NA
97601,Klamath County,OR,NA,NA,63.33725029377203
97603,Klamath County,OR,42.58474576271186,NA,NA
97702,Deschutes County,OR,NA,NA,35.01762632197415
97756,Deschutes County,OR,39.40677966101695,NA,NA
97801,Umatilla County,OR,42.3728813559322,NA,NA
15017,Allegheny County,PA,97.88135593220339,NA,NA
15042,Beaver County,PA,88.77118644067797,NA,NA
15129,Allegheny County,PA,88.34745762711864,NA,NA
15136,Allegheny County,PA,97.2457627118644,NA,NA
15220,Allegheny County,PA,92.58474576271186,NA,NA
15223,Allegheny County,PA,99.78813559322035,NA,NA
15226,Allegheny County,PA,60.16949152542372,NA,NA
15229,Allegheny County,PA,74.78813559322035,NA,NA
15239,Allegheny County,PA,NA,NA,69.21269095182139
15370,Greene County,PA,NA,NA,40.54054054054054
15401,Fayette County,PA,NA,25.773195876288657,8.46063454759107
15537,Bedford County,PA,NA,75.77319587628865,NA
15801,Clearfield County,PA,86.01694915254238,52.0618556701031,NA
15834,Cameron County,PA,NA,86.08247422680412,NA
15853,Elk County,PA,NA,68.55670103092784,NA
15857,Elk County,PA,56.99152542372882,NA,NA
16023,Butler County,PA,85.80508474576271,NA,NA
16066,Butler County,PA,94.49152542372882,NA,NA
16105,Lawrence County,PA,95.76271186440678,NA,NA
16117,Lawrence County,PA,NA,NA,41.48061104582844
16214,Clarion County,PA,68.4322033898305,NA,NA
16504,Erie County,PA,NA,NA,47.00352526439483
16601,Blair County,PA,NA,NA,9.518213866039952
16673,Blair County,PA,NA,NA,72.15041128084606
16801,Centre County,PA,NA,NA,30.08225616921269
16830,Clearfield County,PA,67.16101694915254,NA,48.06110458284371
16866,Centre County,PA,79.23728813559322,NA,NA
17003,Lebanon County,PA,36.440677966101696,NA,NA
17015,Cumberland County,PA,39.61864406779661,NA,NA
17019,York County,PA,74.15254237288136,NA,NA
17020,Perry County,PA,68.85593220338984,NA,NA
17022,Lancaster County,PA,75.84745762711864,NA,NA
17033,Dauphin County,PA,4.23728813559322,NA,NA
17036,Dauphin County,PA,21.398305084745765,NA,20.681551116333726
17042,Lebanon County,PA,NA,NA,84.6063454759107
17044,Mifflin County,PA,NA,NA,11.750881316098708
17046,Lebanon County,PA,80.29661016949152,NA,NA
17055,Cumberland County,PA,NA,NA,83.43125734430082
17057,Dauphin County,PA,NA,NA,16.333725029377202
17078,Lebanon County,PA,82.20338983050848,NA,NA
17104,Dauphin County,PA,57.6271186440678,NA,NA
17363,York County,PA,76.0593220338983,NA,NA
17402,York County,PA,NA,NA,16.803760282021152
17406,York County,PA,NA,NA,53.93654524089306
17512,Lancaster County,PA,NA,NA,33.607520564042304
17522,Lancaster County,PA,67.58474576271186,NA,60.28202115158637
17543,Lancaster County,PA,80.08474576271186,NA,NA
17545,Lancaster County,PA,NA,NA,93.53701527614571
17551,Lancaster County,PA,78.60169491525424,NA,NA
17552,Lancaster County,PA,94.70338983050848,NA,NA
17701,Lycoming County,PA,NA,NA,5.170387779083431
17821,Montour County,PA,87.92372881355932,NA,21.504112808460636
18032,Lehigh County,PA,NA,NA,45.00587544065805
18036,Lehigh County,PA,23.940677966101696,NA,NA
18045,Northampton County,PA,53.17796610169492,NA,NA
18080,Lehigh County,PA,78.38983050847457,NA,NA
18102,Lehigh County,PA,0.847457627118644,5.670103092783505,1.8801410105757932
18104,Lehigh County,PA,NA,NA,73.32549941245593
18702,Luzerne County,PA,NA,NA,7.9905992949471205
18974,Bucks County,PA,NA,NA,57.57931844888367
19020,Bucks County,PA,NA,NA,8.695652173913043
19022,Delaware County,PA,NA,NA,84.72385428907168
19111,Philadelphia County,PA,NA,NA,41.128084606345475
19136,Philadelphia County,PA,NA,NA,10.81081081081081
19140,Philadelphia County,PA,NA,NA,3.6427732079905994
19145,Philadelphia County,PA,NA,NA,7.873090481786134
19146,Philadelphia County,PA,NA,NA,14.923619271445359
19148,Philadelphia County,PA,NA,NA,8.930669800235018
19151,Philadelphia County,PA,NA,NA,12.690951821386603
19312,Chester County,PA,30.29661016949153,NA,NA
19401,Montgomery County,PA,15.677966101694915,NA,NA
19403,Montgomery County,PA,NA,NA,16.45123384253819
19465,Chester County,PA,63.771186440677965,NA,NA
19540,Berks County,PA,NA,92.78350515463917,NA
19606,Berks County,PA,NA,NA,10.223266745005875
02806,Bristol County,RI,76.90677966101694,NA,NA
02840,Newport County,RI,66.3135593220339,NA,NA
02874,Washington County,RI,74.57627118644068,NA,NA
02885,Bristol County,RI,NA,NA,66.15746180963572
02886,Kent County,RI,28.60169491525424,NA,NA
02891,Washington County,RI,50,NA,NA
02904,Providence County,RI,NA,NA,74.85311398354877
02908,Providence County,RI,NA,NA,58.1668625146886
02916,Providence County,RI,89.83050847457628,NA,NA
29059,Orangeburg County,SC,NA,NA,70.85781433607521
29070,Lexington County,SC,44.91525423728814,NA,NA
29210,Richland County,SC,NA,NA,33.490011750881315
29223,Richland County,SC,NA,NA,20.79905992949471
29405,Charleston County,SC,NA,NA,23.031727379553466
29410,Berkeley County,SC,NA,NA,81.43360752056404
29485,Dorchester County,SC,6.3559322033898304,NA,NA
29651,Greenville County,SC,NA,NA,18.683901292596943
29661,Greenville County,SC,NA,57.21649484536082,NA
29690,Greenville County,SC,NA,NA,30.787309048178614
29709,Chesterfield County,SC,NA,NA,77.79083431257344
29715,York County,SC,80.50847457627118,NA,NA
29745,York County,SC,NA,NA,41.010575793184486
57103,Minnehaha County,SD,54.02542372881356,NA,NA
57107,Minnehaha County,SD,NA,84.02061855670104,NA
57401,Brown County,SD,5.720338983050848,NA,39.365452408930665
57701,Pennington County,SD,9.322033898305085,NA,55.69917743830788
57702,Pennington County,SD,NA,NA,45.710928319623974
57783,Lawrence County,SD,NA,NA,56.63924794359577
37027,Williamson County,TN,NA,NA,31.25734430082256
37110,Warren County,TN,NA,NA,15.041128084606346
37129,Rutherford County,TN,NA,59.27835051546392,NA
37172,Robertson County,TN,NA,NA,14.45358401880141
37367,Bledsoe County,TN,3.389830508474576,NA,NA
37379,Hamilton County,TN,NA,NA,32.54994124559342
37616,Greene County,TN,NA,NA,89.54171562867215
37617,Sullivan County,TN,58.26271186440678,NA,NA
37620,Sullivan County,TN,NA,NA,11.868390129259694
37743,Greene County,TN,NA,NA,32.667450058754405
37818,Greene County,TN,NA,NA,90.59929494712104
37914,Knox County,TN,NA,NA,28.319623971797885
37920,Knox County,TN,NA,NA,10.928319623971799
38117,Shelby County,TN,NA,NA,79.0834312573443
38551,Clay County,TN,NA,NA,73.44300822561692
75013,Collin County,TX,21.822033898305087,NA,NA
75040,Dallas County,TX,3.8135593220338984,NA,NA
75114,Kaufman County,TX,NA,NA,92.59694477085782
75205,Dallas County,TX,NA,NA,51.586368977673324
75227,Dallas County,TX,4.4491525423728815,NA,NA
75230,Dallas County,TX,38.347457627118644,NA,NA
75248,Dallas County,TX,46.82203389830508,NA,NA
75644,Upshur County,TX,NA,NA,92.8319623971798
75785,Cherokee County,TX,NA,NA,55.229142185663925
75946,Nacogdoches County,TX,95.33898305084746,NA,NA
76011,Tarrant County,TX,NA,NA,43.36075205640423
76118,Tarrant County,TX,NA,NA,69.68272620446534
76131,Tarrant County,TX,15.466101694915254,NA,NA
76137,Tarrant County,TX,NA,NA,42.53819036427732
76207,Denton County,TX,NA,NA,84.13631022326675
76309,Wichita County,TX,NA,NA,62.27967097532316
76501,Bell County,TX,12.923728813559322,NA,NA
76502,Bell County,TX,NA,19.587628865979383,NA
76504,Bell County,TX,NA,11.34020618556701,NA
76513,Bell County,TX,55.29661016949152,NA,NA
76522,Coryell County,TX,NA,NA,92.00940070505288
76528,Coryell County,TX,NA,NA,93.88954171562868
76633,McLennan County,TX,NA,NA,79.9059929494712
77014,Harris County,TX,NA,NA,82.37367802585194
77036,Harris County,TX,NA,NA,41.950646298472385
77044,Harris County,TX,NA,22.164948453608247,NA
77092,Harris County,TX,NA,NA,68.1551116333725
77095,Harris County,TX,NA,80.41237113402062,NA
77338,Harris County,TX,NA,NA,81.90364277320799
77357,Montgomery County,TX,NA,NA,49.23619271445359
77375,Harris County,TX,NA,NA,19.27144535840188
77379,Harris County,TX,NA,33.50515463917525,21.62162162162162
77389,Harris County,TX,NA,NA,43.83078730904818
77445,Waller County,TX,NA,NA,75.20564042303172
77449,Harris County,TX,NA,26.804123711340207,10.340775558166863
77551,Galveston County,TX,NA,NA,22.20916568742656
77563,Galveston County,TX,NA,NA,80.72855464159812
77573,Galveston County,TX,1.694915254237288,NA,NA
77578,Brazoria County,TX,NA,NA,84.95887191539366
77640,Jefferson County,TX,71.82203389830508,NA,92.12690951821386
77801,Brazos County,TX,NA,93.29896907216495,NA
77840,Brazos County,TX,NA,NA,35.487661574618095
77968,Victoria County,TX,NA,NA,94.47708578143362
78045,Webb County,TX,27.966101694915253,NA,NA
78109,Bexar County,TX,NA,21.1340206185567,NA
78114,Wilson County,TX,NA,NA,43.59576968272621
78203,Bexar County,TX,NA,NA,77.55581668625146
78210,Bexar County,TX,NA,11.855670103092782,NA
78216,Bexar County,TX,NA,NA,88.01410105757932
78217,Bexar County,TX,NA,34.5360824742268,NA
78223,Bexar County,TX,NA,NA,16.92126909518214
78380,Nueces County,TX,NA,54.63917525773196,NA
78703,Travis County,TX,NA,NA,88.83666274970624
78729,Williamson County,TX,79.87288135593221,NA,NA
78738,Travis County,TX,NA,NA,67.21504112808461
78744,Travis County,TX,32.83898305084746,NA,50.88131609870741
79412,Lubbock County,TX,NA,NA,46.533490011750885
79413,Lubbock County,TX,NA,NA,53.46650998824912
79549,Scurry County,TX,NA,NA,32.667450058754405
84010,Davis County,UT,NA,NA,58.049353701527615
84029,Tooele County,UT,NA,NA,46.06345475910693
84037,Davis County,UT,NA,NA,55.4641598119859
84044,Salt Lake County,UT,NA,NA,34.5475910693302
84074,Tooele County,UT,1.059322033898305,NA,NA
84087,Davis County,UT,62.5,NA,74.03055229142186
84088,Salt Lake County,UT,16.101694915254235,NA,NA
84095,Salt Lake County,UT,18.43220338983051,NA,NA
84118,Salt Lake County,UT,NA,NA,15.863689776733256
84660,Utah County,UT,34.74576271186441,NA,NA
84790,Washington County,UT,NA,NA,88.1316098707403
05089,Windsor County,VT,NA,NA,95.41715628672151
05401,Chittenden County,VT,NA,NA,39.48296122209165
05403,Chittenden County,VT,NA,NA,83.54876615746181
05446,Chittenden County,VT,NA,NA,91.06933019976499
05461,Chittenden County,VT,NA,NA,95.88719153936546
05468,Chittenden County,VT,NA,NA,85.66392479435959
05819,Caledonia County,VT,NA,NA,62.39717978848414
20124,Fairfax County,VA,NA,NA,99.88249118683902
20176,Loudoun County,VA,19.491525423728813,NA,39.01292596944771
20191,Fairfax County,VA,NA,NA,80.49353701527615
22025,Prince William County,VA,NA,NA,76.38072855464159
22030,Fairfax County,VA,77.54237288135593,NA,NA
22181,Fairfax County,VA,91.10169491525424,NA,NA
22203,Arlington County,VA,72.2457627118644,NA,NA
22205,Arlington County,VA,87.5,NA,NA
22301,Alexandria city,VA,86.22881355932203,NA,NA
22302,Alexandria city,VA,NA,NA,52.87896592244419
22304,Alexandria city,VA,NA,NA,35.25264394829612
22309,Fairfax County,VA,NA,NA,61.57461809635723
22901,Albemarle County,VA,NA,42.2680412371134,NA
22903,Charlottesville city,VA,18.43220338983051,NA,NA
23059,Henrico County,VA,NA,NA,65.4524089306698
23225,Richmond city,VA,NA,NA,49.82373678025852
23451,Virginia Beach city,VA,NA,NA,95.18213866039953
23607,Newport News city,VA,NA,NA,17.743830787309047
23824,Nottoway County,VA,NA,NA,85.31139835487662
24104,Bedford County,VA,89.61864406779661,NA,NA
24121,Bedford County,VA,80.9322033898305,NA,NA
98055,King County,WA,NA,NA,93.6545240893067
98056,King County,WA,NA,NA,43.94829612220917
98102,King County,WA,NA,NA,58.28437132784959
98103,King County,WA,41.313559322033896,NA,NA
98107,King County,WA,NA,NA,55.81668625146886
98115,King County,WA,30.93220338983051,NA,27.967097532314924
98126,King County,WA,NA,NA,46.768507638072855
98144,King County,WA,NA,NA,48.766157461809634
98155,King County,WA,NA,NA,35.72267920094007
98225,Whatcom County,WA,NA,NA,43.47826086956522
98229,Whatcom County,WA,NA,NA,64.98237367802585
98239,Island County,WA,93.4322033898305,NA,NA
98248,Whatcom County,WA,NA,NA,64.5123384253819
98258,Snohomish County,WA,12.288135593220339,NA,NA
98506,Thurston County,WA,54.23728813559322,NA,NA
98626,Cowlitz County,WA,39.19491525423729,NA,NA
98661,Clark County,WA,NA,74.22680412371135,NA
98682,Clark County,WA,NA,NA,46.18096357226792
98816,Chelan County,WA,NA,NA,89.1891891891892
99005,Spokane County,WA,NA,NA,84.37132784958872
99163,Whitman County,WA,57.20338983050848,NA,NA
99338,Benton County,WA,NA,NA,48.1786133960047
99352,Benton County,WA,NA,NA,70.74030552291421
99353,Benton County,WA,NA,NA,53.701527614571084
20002,District of Columbia,DC,NA,NA,6.227967097532315
20007,District of Columbia,DC,67.37288135593221,NA,NA
20015,District of Columbia,DC,94.91525423728814,NA,NA
20020,District of Columbia,DC,NA,NA,3.290246768507638
25678,Mingo County,WV,NA,NA,90.48178613396006
25801,Raleigh County,WV,NA,NA,12.573443008225619
26062,Hancock County,WV,NA,NA,10.693301997649824
26505,Monongalia County,WV,65.46610169491525,NA,NA
26537,Preston County,WV,NA,NA,80.14101057579317
26726,Mineral County,WV,NA,NA,33.37250293772033
53012,Ozaukee County,WI,44.06779661016949,NA,NA
53042,Manitowoc County,WI,NA,NA,92.24441833137486
53081,Sheboygan County,WI,14.61864406779661,NA,NA
53089,Waukesha County,WI,NA,94.3298969072165,51.233842538190366
53090,Washington County,WI,NA,63.91752577319587,NA
53095,Washington County,WI,NA,87.11340206185567,NA
53105,Racine County,WI,NA,NA,14.218566392479437
53140,Kenosha County,WI,62.5,NA,NA
53142,Kenosha County,WI,NA,NA,54.406580493537014
53143,Kenosha County,WI,90.04237288135593,NA,NA
53181,Kenosha County,WI,NA,85.56701030927834,NA
53186,Waukesha County,WI,25.21186440677966,NA,NA
53204,Milwaukee County,WI,NA,NA,23.501762632197416
53205,Milwaukee County,WI,NA,NA,26.321974148061106
53209,Milwaukee County,WI,25.423728813559322,NA,NA
53210,Milwaukee County,WI,8.47457627118644,NA,NA
53211,Milwaukee County,WI,50.63559322033898,NA,NA
53214,Milwaukee County,WI,16.94915254237288,NA,11.28084606345476
53215,Milwaukee County,WI,NA,NA,5.287896592244419
53217,Milwaukee County,WI,21.1864406779661,NA,NA
53221,Milwaukee County,WI,20.76271186440678,NA,NA
53226,Milwaukee County,WI,72.88135593220339,NA,NA
53405,Racine County,WI,11.228813559322035,NA,6.815511163337249
53406,Racine County,WI,NA,NA,60.0470035252644
53511,Rock County,WI,NA,NA,32.31492361927145
53545,Rock County,WI,53.38983050847458,NA,NA
53548,Rock County,WI,27.33050847457627,NA,NA
53551,Jefferson County,WI,90.67796610169492,NA,NA
53558,Dane County,WI,83.47457627118644,NA,NA
53590,Dane County,WI,NA,NA,29.494712103407757
53711,Dane County,WI,15.04237288135593,NA,26.439482961222094
53948,Juneau County,WI,NA,NA,69.33019976498237
54154,Oconto County,WI,NA,NA,93.06698002350177
54220,Manitowoc County,WI,NA,NA,7.403055229142186
54301,Brown County,WI,NA,58.76288659793815,NA
54302,Brown County,WI,NA,32.47422680412371,NA
54401,Marathon County,WI,NA,NA,30.19976498237368
54451,Taylor County,WI,NA,NA,72.62044653349001
54467,Portage County,WI,54.44915254237288,NA,NA
54481,Portage County,WI,NA,NA,17.508813160987074
54660,Monroe County,WI,45.55084745762712,NA,75.91069330199764
54669,La Crosse County,WI,91.3135593220339,NA,NA
54701,Eau Claire County,WI,NA,NA,33.84253819036428
54806,Ashland County,WI,NA,NA,61.22209165687427
54880,Douglas County,WI,NA,NA,50.411280846063455
54914,Outagamie County,WI,NA,NA,20.094007050528788
54935,Fond du Lac County,WI,NA,NA,14.336075205640423
54952,Winnebago County,WI,NA,NA,38.07285546415981
54961,Waupaca County,WI,78.8135593220339,NA,NA
54971,Fond du Lac County,WI,69.0677966101695,NA,NA
82901,Sweetwater County,WY,NA,NA,44.30082256169213
