ZipCode,county,state,Youth,Pediatric,Adult
35040,Shelby County,AL,NA,NA,67.17663421418636
35062,Jefferson County,AL,NA,NA,73.43532684283728
35071,Jefferson County,AL,NA,NA,89.15159944367177
35072,Coosa County,AL,NA,70.98540145985402,NA
35120,St. Clair County,AL,NA,NA,49.791376912378304
35124,Shelby County,AL,38.35078534031414,NA,NA
35173,Jefferson County,AL,72.12041884816755,NA,NA
35210,Jefferson County,AL,NA,53.83211678832117,NA
35211,Jefferson County,AL,NA,22.81021897810219,NA
35212,Jefferson County,AL,NA,50.54744525547446,NA
35215,Jefferson County,AL,NA,68.61313868613139,43.254520166898466
35228,Jefferson County,AL,NA,NA,50.06954102920723
35501,Walker County,AL,NA,48.35766423357664,NA
35653,Franklin County,AL,NA,51.09489051094891,NA
35805,Madison County,AL,NA,NA,36.57858136300417
35806,Madison County,AL,NA,54.92700729927007,NA
35810,Madison County,AL,23.036649214659686,NA,NA
35950,Marshall County,AL,NA,NA,93.3240611961057
35951,Marshall County,AL,NA,75.72992700729927,NA
35956,Etowah County,AL,NA,62.40875912408759,NA
35962,DeKalb County,AL,48.56020942408377,NA,NA
36033,Butler County,AL,89.00523560209425,NA,96.24478442280946
36107,Montgomery County,AL,NA,60.58394160583942,NA
36109,Montgomery County,AL,NA,NA,39.499304589707926
36116,Montgomery County,AL,53.79581151832461,NA,NA
36421,Covington County,AL,NA,82.66423357664233,NA
36507,Baldwin County,AL,NA,67.51824817518248,30.87621696801113
36526,Baldwin County,AL,51.57068062827225,NA,NA
36532,Baldwin County,AL,NA,96.71532846715328,NA
36575,Mobile County,AL,NA,73.90510948905109,NA
36609,Mobile County,AL,66.36125654450262,NA,NA
36611,Mobile County,AL,NA,98.72262773722628,NA
36613,Mobile County,AL,NA,NA,72.87899860917942
36701,Dallas County,AL,13.612565445026178,NA,NA
36801,Lee County,AL,42.01570680628272,NA,NA
99504,Anchorage Municipality,AK,NA,NA,17.663421418636997
99576,Dillingham Census Area,AK,NA,NA,83.17107093184978
99611,Kenai Peninsula Borough,AK,52.09424083769634,NA,NA
99623,,AK,74.21465968586386,NA,NA
99645,Matanuska-Susitna Borough,AK,9.424083769633508,NA,NA
99801,Juneau City and Borough,AK,NA,91.05839416058394,NA
85015,Maricopa County,AZ,NA,45.07299270072993,NA
85029,Maricopa County,AZ,40.44502617801047,14.051094890510948,NA
85032,Maricopa County,AZ,NA,26.642335766423358,NA
85035,Maricopa County,AZ,29.973821989528798,NA,NA
85037,Maricopa County,AZ,4.057591623036649,NA,NA
85051,Maricopa County,AZ,NA,19.89051094890511,NA
85085,Maricopa County,AZ,77.35602094240838,NA,NA
85122,Pinal County,AZ,NA,NA,7.093184979137692
85139,Pinal County,AZ,NA,64.05109489051095,NA
85205,Maricopa County,AZ,47.25130890052356,NA,NA
85255,Maricopa County,AZ,NA,NA,68.01112656467315
85257,Maricopa County,AZ,NA,43.79562043795621,NA
85282,Maricopa County,AZ,NA,NA,32.82336578581363
85295,Maricopa County,AZ,18.979057591623036,NA,NA
85326,Maricopa County,AZ,35.20942408376963,NA,NA
85349,Yuma County,AZ,NA,12.956204379562045,NA
85392,Maricopa County,AZ,NA,35.76642335766424,NA
85629,Pima County,AZ,39.397905759162306,NA,NA
85653,Pima County,AZ,35.20942408376963,NA,NA
85701,Pima County,AZ,NA,NA,76.49513212795549
85705,Pima County,AZ,NA,NA,15.716272600834492
85711,Pima County,AZ,49.86910994764398,NA,NA
85712,Pima County,AZ,NA,64.23357664233576,NA
85716,Pima County,AZ,39.92146596858639,NA,NA
85743,Pima County,AZ,NA,18.43065693430657,NA
86004,Coconino County,AZ,10.471204188481675,NA,NA
86005,Coconino County,AZ,98.69109947643979,NA,NA
86021,Mohave County,AZ,NA,79.1970802919708,NA
71801,Hempstead County,AR,22.12041884816754,NA,NA
72114,Pulaski County,AR,76.04712041884817,NA,NA
72745,Benton County,AR,90.44502617801047,NA,NA
90002,Los Angeles County,CA,NA,NA,49.235048678720446
90003,Los Angeles County,CA,NA,8.211678832116789,NA
90016,Los Angeles County,CA,NA,62.40875912408759,NA
90018,Los Angeles County,CA,51.30890052356021,NA,NA
90059,Los Angeles County,CA,NA,17.153284671532848,NA
90065,Los Angeles County,CA,60.86387434554974,NA,NA
90077,Los Angeles County,CA,NA,NA,94.57579972183588
90201,Los Angeles County,CA,NA,NA,23.087621696801115
90220,Los Angeles County,CA,NA,56.38686131386861,NA
90221,Los Angeles County,CA,NA,NA,9.17941585535466
90230,Los Angeles County,CA,NA,NA,84.56189151599443
90232,Los Angeles County,CA,NA,NA,95.13212795549374
90248,Los Angeles County,CA,NA,95.07299270072993,NA
90262,Los Angeles County,CA,NA,NA,78.0250347705146
90275,Los Angeles County,CA,NA,93.97810218978103,NA
90280,Los Angeles County,CA,14.397905759162304,NA,NA
90291,Los Angeles County,CA,NA,NA,78.72044506258693
90631,Orange County,CA,58.7696335078534,NA,NA
90650,Los Angeles County,CA,NA,NA,14.74269819193324
90731,Los Angeles County,CA,NA,NA,23.504867872044507
90744,Los Angeles County,CA,NA,72.08029197080292,NA
90805,Los Angeles County,CA,33.37696335078534,NA,88.31710709318497
90806,Los Angeles County,CA,NA,65.51094890510949,NA
90810,Los Angeles County,CA,NA,NA,93.88038942976355
91207,Los Angeles County,CA,93.84816753926701,NA,NA
91304,Los Angeles County,CA,NA,NA,67.0375521557719
91331,Los Angeles County,CA,NA,35.21897810218978,31.710709318497916
91335,Los Angeles County,CA,NA,NA,68.2892906815021
91340,Los Angeles County,CA,NA,NA,53.40751043115438
91342,Los Angeles County,CA,NA,NA,17.10709318497914
91605,Los Angeles County,CA,NA,NA,38.80389429763561
91706,Los Angeles County,CA,NA,41.42335766423358,NA
91709,San Bernardino County,CA,29.31937172774869,NA,NA
91722,Los Angeles County,CA,NA,73.54014598540147,NA
91730,San Bernardino County,CA,NA,NA,16.411682892906814
91744,Los Angeles County,CA,54.84293193717278,NA,NA
91746,Los Angeles County,CA,NA,39.78102189781022,NA
91762,San Bernardino County,CA,NA,NA,26.981919332406118
91766,Los Angeles County,CA,NA,NA,31.84979137691238
91767,Los Angeles County,CA,20.287958115183248,47.08029197080292,NA
91910,San Diego County,CA,NA,54.1970802919708,NA
91911,San Diego County,CA,NA,NA,45.618915159944365
91913,San Diego County,CA,38.7434554973822,NA,NA
91915,San Diego County,CA,NA,NA,90.40333796940195
91950,San Diego County,CA,NA,34.306569343065696,NA
92011,San Diego County,CA,85.99476439790575,NA,NA
92021,San Diego County,CA,NA,20.62043795620438,NA
92027,San Diego County,CA,9.81675392670157,25,NA
92056,San Diego County,CA,NA,40.87591240875913,NA
92057,San Diego County,CA,34.424083769633505,NA,NA
92058,San Diego County,CA,93.32460732984293,70.43795620437956,NA
92064,San Diego County,CA,24.345549738219894,NA,NA
92065,San Diego County,CA,NA,69.7080291970803,NA
92069,San Diego County,CA,58.1151832460733,NA,NA
92083,San Diego County,CA,NA,46.8978102189781,NA
92084,San Diego County,CA,NA,NA,81.78025034770513
92103,San Diego County,CA,NA,NA,37.96940194714882
92105,San Diego County,CA,NA,5.109489051094891,NA
92115,San Diego County,CA,NA,19.708029197080293,NA
92117,San Diego County,CA,NA,68.7956204379562,NA
92123,San Diego County,CA,23.16753926701571,NA,NA
92126,San Diego County,CA,NA,37.95620437956204,NA
92127,San Diego County,CA,NA,64.78102189781022,NA
92129,San Diego County,CA,NA,NA,93.60222531293462
92130,San Diego County,CA,NA,NA,53.546592489568845
92154,San Diego County,CA,NA,NA,29.068150208623088
92173,San Diego County,CA,19.50261780104712,NA,NA
92201,Riverside County,CA,11.387434554973822,40.693430656934304,NA
92203,Riverside County,CA,NA,82.2992700729927,NA
92234,Riverside County,CA,NA,24.817518248175183,11.68289290681502
92249,Imperial County,CA,NA,NA,84.42280945757997
92254,Riverside County,CA,NA,60.58394160583942,NA
92335,San Bernardino County,CA,57.32984293193717,NA,NA
92336,San Bernardino County,CA,NA,21.715328467153284,NA
92344,San Bernardino County,CA,NA,65.69343065693431,NA
92354,San Bernardino County,CA,NA,NA,71.62726008344924
92373,San Bernardino County,CA,NA,84.30656934306569,NA
92376,San Bernardino County,CA,12.696335078534032,NA,NA
92377,San Bernardino County,CA,NA,NA,85.39638386648123
92392,San Bernardino County,CA,41.49214659685864,NA,NA
92410,San Bernardino County,CA,73.95287958115183,NA,NA
92501,Riverside County,CA,47.64397905759162,NA,NA
92506,Riverside County,CA,NA,75.72992700729927,NA
92530,Riverside County,CA,NA,NA,27.53824756606398
92544,Riverside County,CA,NA,31.751824817518248,NA
92553,Riverside County,CA,NA,8.02919708029197,NA
92562,Riverside County,CA,17.277486910994764,NA,NA
92582,Riverside County,CA,83.90052356020942,NA,NA
92584,Riverside County,CA,NA,NA,36.16133518776078
92595,Riverside County,CA,71.07329842931938,NA,NA
92596,Riverside County,CA,69.10994764397905,NA,63.143254520166906
92620,Orange County,CA,36.518324607329845,NA,35.18776077885953
92656,Orange County,CA,46.46596858638743,NA,NA
92701,Orange County,CA,NA,NA,82.75382475660639
92703,Orange County,CA,NA,12.773722627737227,NA
92704,Orange County,CA,42.67015706806283,25.364963503649633,NA
92706,Orange County,CA,NA,NA,85.95271210013908
92780,Orange County,CA,NA,18.613138686131386,NA
92801,Orange County,CA,12.696335078534032,9.124087591240876,NA
92808,Orange County,CA,78.79581151832461,NA,NA
92831,Orange County,CA,NA,NA,69.81919332406119
92832,Orange County,CA,40.83769633507853,NA,NA
92841,Orange County,CA,NA,50,NA
92845,Orange County,CA,54.581151832460726,NA,NA
92865,Orange County,CA,71.59685863874346,NA,NA
92867,Orange County,CA,NA,NA,48.12239221140473
92869,Orange County,CA,NA,NA,82.892906815020865
93001,Ventura County,CA,NA,21.350364963503647,NA
93033,Ventura County,CA,NA,1.824817518248175,NA
93060,Ventura County,CA,NA,NA,79.27677329624478
93063,Ventura County,CA,NA,NA,27.399165507649514
93203,Kern County,CA,71.20418848167539,NA,NA
93234,Fresno County,CA,NA,44.52554744525548,NA
93257,Tulare County,CA,NA,NA,33.65785813630042
93274,Tulare County,CA,1.5706806282722512,NA,NA
93280,Kern County,CA,NA,42.88321167883212,NA
93291,Tulare County,CA,NA,76.45985401459853,NA
93306,Kern County,CA,NA,25.547445255474454,NA
93309,Kern County,CA,24.73821989528796,NA,NA
93455,Santa Barbara County,CA,97.77486910994764,NA,NA
93535,Los Angeles County,CA,35.99476439790576,37.04379562043796,NA
93536,Los Angeles County,CA,NA,66.970802919708035,NA
93552,Los Angeles County,CA,NA,27.00729927007299,46.17524339360223
93647,Tulare County,CA,NA,NA,82.47566063977747
93702,Fresno County,CA,24.214659685863875,NA,NA
93711,Fresno County,CA,57.98429319371727,NA,NA
93720,Fresno County,CA,40.05235602094241,NA,NA
93722,Fresno County,CA,NA,64.78102189781022,26.564673157162726
93905,Monterey County,CA,NA,16.423357664233578,NA
93907,Monterey County,CA,57.06806282722513,NA,NA
93940,Monterey County,CA,NA,68.24817518248175,NA
94044,San Mateo County,CA,NA,95.07299270072993,NA
94105,San Francisco County,CA,75.6544502617801,NA,NA
94117,San Francisco County,CA,44.3717277486911,NA,NA
94123,San Francisco County,CA,82.32984293193716,NA,NA
94124,San Francisco County,CA,21.727748691099478,NA,NA
94303,San Mateo County,CA,NA,NA,21.001390820584145
94513,Contra Costa County,CA,NA,NA,56.32823365785814
94538,Alameda County,CA,NA,41.24087591240876,NA
94541,Alameda County,CA,93.45549738219894,NA,NA
94544,Alameda County,CA,21.335078534031414,NA,NA
94558,Napa County,CA,NA,NA,23.36578581363004
94561,Contra Costa County,CA,NA,NA,30.319888734353267
94565,Contra Costa County,CA,NA,NA,88.73435326842836
94566,Alameda County,CA,NA,83.21167883211679,NA
94577,Alameda County,CA,16.8848167539267,NA,NA
94578,Alameda County,CA,NA,52.737226277372265,NA
94588,Alameda County,CA,NA,94.8905109489051,NA
94591,Solano County,CA,NA,NA,55.07649513212796
94601,Alameda County,CA,NA,10.948905109489052,NA
94618,Alameda County,CA,NA,NA,89.70792767732962
94619,Alameda County,CA,78.40314136125654,NA,NA
94621,Alameda County,CA,NA,45.8029197080292,NA
94954,Sonoma County,CA,62.30366492146597,NA,NA
95003,Santa Cruz County,CA,NA,95.07299270072993,NA
95023,San Benito County,CA,NA,NA,21.140472878998608
95035,Santa Clara County,CA,NA,NA,40.333796940194716
95054,Santa Clara County,CA,NA,81.56934306569343,NA
95125,Santa Clara County,CA,52.879581151832454,NA,NA
95129,Santa Clara County,CA,79.45026178010471,NA,NA
95131,Santa Clara County,CA,NA,NA,69.26286509040334
95205,San Joaquin County,CA,NA,21.715328467153284,NA
95219,San Joaquin County,CA,NA,NA,92.21140472878999
95242,San Joaquin County,CA,47.51308900523561,NA,57.44089012517385
95334,Merced County,CA,NA,87.59124087591242,NA
95350,Stanislaus County,CA,NA,NA,15.299026425591098
95351,Stanislaus County,CA,24.083769633507853,NA,NA
95380,Stanislaus County,CA,NA,21.350364963503647,NA
95451,Lake County,CA,NA,61.496350364963504,NA
95482,Mendocino County,CA,17.408376963350786,NA,28.929068150208625
95618,Yolo County,CA,68.717277486911,NA,NA
95624,Sacramento County,CA,NA,NA,38.38664812239222
95642,Amador County,CA,NA,93.06569343065694,NA
95667,El Dorado County,CA,NA,NA,24.756606397774686
95678,Placer County,CA,50.26178010471204,NA,NA
95742,Sacramento County,CA,94.63350785340315,NA,NA
95758,Sacramento County,CA,63.87434554973822,53.83211678832117,NA
95762,El Dorado County,CA,73.1675392670157,NA,NA
95821,Sacramento County,CA,NA,NA,62.865090403337966
95822,Sacramento County,CA,70.94240837696336,NA,NA
95823,Sacramento County,CA,NA,49.63503649635037,NA
95824,Sacramento County,CA,NA,38.68613138686132,NA
95825,Sacramento County,CA,NA,69.16058394160584,NA
95827,Sacramento County,CA,NA,NA,57.16272600834492
95838,Sacramento County,CA,NA,33.394160583941606,NA
95928,Butte County,CA,27.094240837696336,NA,NA
95948,Butte County,CA,NA,66.970802919708035,NA
95959,Nevada County,CA,NA,NA,86.50904033379693
95965,Butte County,CA,NA,NA,15.159944367176633
95987,Colusa County,CA,NA,NA,96.94019471488178
95993,Sutter County,CA,NA,81.56934306569343,38.108484005563284
96007,Shasta County,CA,NA,83.75912408759125,NA
96064,Siskiyou County,CA,NA,97.8102189781022,NA
96094,Siskiyou County,CA,NA,87.04379562043796,NA
80004,Jefferson County,CO,NA,38.503649635036496,NA
80010,Arapahoe County,CO,NA,NA,41.02920723226704
80011,Arapahoe County,CO,NA,23.722627737226276,NA
80026,Boulder County,CO,15.052356020942408,NA,NA
80027,Boulder County,CO,24.73821989528796,NA,NA
80033,Jefferson County,CO,NA,38.68613138686132,NA
80110,Arapahoe County,CO,NA,54.56204379562044,NA
80113,Arapahoe County,CO,NA,NA,47.98331015299026
80116,Douglas County,CO,91.75392670157068,NA,NA
80123,Jefferson County,CO,NA,NA,83.72739916550765
80124,Douglas County,CO,47.64397905759162,NA,NA
80127,Jefferson County,CO,NA,NA,77.19054242002782
80128,Jefferson County,CO,NA,NA,47.28789986091794
80129,Douglas County,CO,23.56020942408377,NA,NA
80214,Jefferson County,CO,NA,NA,61.891515994436716
80219,Denver County,CO,NA,2.5547445255474455,NA
80228,Jefferson County,CO,NA,83.21167883211679,NA
80229,Adams County,CO,NA,10.583941605839415,35.744089012517385
80233,Adams County,CO,9.293193717277488,NA,NA
80239,Denver County,CO,NA,14.963503649635038,NA
80246,Denver County,CO,NA,NA,75.24339360222531
80504,Boulder County,CO,NA,NA,24.895688456189152
80525,Larimer County,CO,NA,23.905109489051096,NA
80631,Weld County,CO,53.66492146596858,NA,NA
80634,Weld County,CO,NA,NA,1.52990264255911
80701,Morgan County,CO,36.12565445026178,NA,NA
80817,El Paso County,CO,80.49738219895288,NA,NA
80831,El Paso County,CO,43.58638743455497,56.934306569343065,NA
80903,El Paso County,CO,74.60732984293193,NA,NA
80904,El Paso County,CO,63.089005235602095,NA,NA
80908,El Paso County,CO,54.712041884816756,NA,NA
80915,El Paso County,CO,NA,NA,54.93741307371349
81082,Las Animas County,CO,89.3979057591623,NA,NA
81504,Mesa County,CO,NA,37.77372262773723,NA
81506,Mesa County,CO,NA,91.6058394160584,NA
06001,Hartford County,CT,22.774869109947645,NA,NA
06002,Hartford County,CT,NA,NA,39.77746870653686
06010,Hartford County,CT,NA,38.13868613138686,NA
06053,Hartford County,CT,62.69633507853403,NA,10.013908205841446
06084,Tolland County,CT,19.76439790575916,NA,NA
06088,Hartford County,CT,NA,NA,96.66203059805285
06095,Hartford County,CT,NA,NA,60.639777468706534
06108,Hartford County,CT,NA,10.401459854014599,NA
06111,Hartford County,CT,23.95287958115183,NA,NA
06405,New Haven County,CT,NA,NA,33.101529902642554
06416,Middlesex County,CT,NA,NA,60.500695410292074
06424,Middlesex County,CT,97.25130890052355,NA,NA
06450,New Haven County,CT,NA,NA,4.3115438108484
06489,Hartford County,CT,NA,NA,53.12934631432545
06511,New Haven County,CT,NA,NA,18.219749652294855
06604,Fairfield County,CT,NA,16.423357664233578,NA
06706,New Haven County,CT,NA,39.96350364963504,NA
06762,New Haven County,CT,NA,NA,89.29068150208623
06820,Fairfield County,CT,96.33507853403141,NA,NA
06880,Fairfield County,CT,61.78010471204188,NA,NA
19711,New Castle County,DE,NA,65.32846715328468,NA
19713,New Castle County,DE,NA,80.2919708029197,23.087621696801115
19720,New Castle County,DE,NA,50.912408759124084,NA
19801,New Castle County,DE,NA,NA,30.04172461752434
19802,New Castle County,DE,85.86387434554975,NA,NA
19808,New Castle County,DE,NA,NA,18.35883171070932
19934,Kent County,DE,87.82722513089006,NA,NA
19947,Sussex County,DE,NA,NA,36.30041724617524
19950,Sussex County,DE,87.56544502617801,NA,NA
32073,Clay County,FL,NA,36.86131386861314,NA
32091,Bradford County,FL,44.633507853403145,NA,NA
32092,St. Johns County,FL,NA,91.24087591240875,NA
32112,Putnam County,FL,NA,89.05109489051095,NA
32119,Volusia County,FL,32.06806282722513,NA,NA
32127,Volusia County,FL,79.71204188481676,NA,NA
32164,Flagler County,FL,21.596858638743456,NA,27.12100139082058
32207,Duval County,FL,NA,22.445255474452555,NA
32208,Duval County,FL,40.70680628272251,NA,NA
32209,Duval County,FL,5.890052356020942,NA,NA
32210,Duval County,FL,NA,NA,2.781641168289291
32224,Duval County,FL,NA,NA,72.73991655076495
32244,Duval County,FL,NA,NA,36.71766342141864
32277,Duval County,FL,NA,NA,18.497913769123784
32303,Leon County,FL,NA,15.51094890510949,NA
32438,Bay County,FL,NA,89.05109489051095,NA
32514,Escambia County,FL,87.95811518324608,NA,19.19332406119611
32539,Okaloosa County,FL,NA,NA,73.57440890125174
32563,Santa Rosa County,FL,50.916230366492144,NA,NA
32578,Okaloosa County,FL,NA,NA,43.39360222531293
32607,Alachua County,FL,NA,33.02919708029197,NA
32609,Alachua County,FL,NA,37.408759124087595,NA
32696,Levy County,FL,NA,NA,98.19193324061196
32708,Seminole County,FL,NA,44.70802919708029,NA
32712,Orange County,FL,51.832460732984295,53.64963503649635,NA
32724,Volusia County,FL,44.633507853403145,NA,NA
32725,Volusia County,FL,15.837696335078533,NA,NA
32750,Seminole County,FL,NA,62.40875912408759,NA
32778,Lake County,FL,NA,NA,48.400556328233655
32811,Orange County,FL,NA,7.481751824817519,NA
32812,Orange County,FL,NA,NA,28.51182197496523
32817,Orange County,FL,NA,78.83211678832117,NA
32822,Orange County,FL,NA,26.094890510948904,NA
32824,Orange County,FL,NA,73.72262773722628,NA
32825,Orange County,FL,40.31413612565445,71.35036496350365,NA
32826,Orange County,FL,82.06806282722513,NA,NA
32907,Brevard County,FL,NA,51.64233576642335,NA
32967,Indian River County,FL,NA,NA,38.66481223922114
33015,Miami-Dade County,FL,NA,80.47445255474453,NA
33019,Broward County,FL,93.97905759162303,NA,NA
33020,Broward County,FL,NA,20.802919708029197,NA
33021,Broward County,FL,NA,NA,38.94297635605007
33028,Broward County,FL,NA,74.63503649635037,NA
33054,Miami-Dade County,FL,NA,NA,67.73296244784423
33056,Miami-Dade County,FL,NA,NA,31.29346314325452
33063,Broward County,FL,95.94240837696336,NA,NA
33065,Broward County,FL,NA,33.02919708029197,NA
33068,Broward County,FL,NA,14.78102189781022,NA
33069,Broward County,FL,NA,66.42335766423358,NA
33076,Broward County,FL,43.97905759162304,NA,NA
33127,Miami-Dade County,FL,NA,NA,87.20445062586927
33135,Miami-Dade County,FL,NA,19.34306569343066,NA
33138,Miami-Dade County,FL,NA,55.839416058394164,NA
33142,Miami-Dade County,FL,NA,NA,68.15020862308762
33150,Miami-Dade County,FL,32.19895287958115,NA,NA
33157,Miami-Dade County,FL,NA,8.75912408759124,56.88456189151599
33161,Miami-Dade County,FL,NA,NA,56.88456189151599
33167,Miami-Dade County,FL,NA,48.9051094890511,NA
33173,Miami-Dade County,FL,NA,NA,93.18497913769124
33184,Miami-Dade County,FL,97.64397905759162,NA,NA
33185,Miami-Dade County,FL,37.303664921465966,NA,NA
33186,Miami-Dade County,FL,99.3455497382199,NA,NA
33323,Broward County,FL,NA,31.751824817518248,NA
33462,Palm Beach County,FL,NA,NA,59.109874826147426
33523,Pasco County,FL,NA,NA,91.23783031988873
33570,Hillsborough County,FL,NA,36.31386861313868,NA
33578,Hillsborough County,FL,97.90575916230367,NA,NA
33584,Hillsborough County,FL,NA,NA,44.36717663421418
33604,Hillsborough County,FL,6.544502617801047,NA,NA
33705,Pinellas County,FL,48.952879581151834,NA,NA
33712,Pinellas County,FL,62.69633507853403,NA,NA
33771,Pinellas County,FL,NA,NA,64.11682892906815
33813,Polk County,FL,NA,NA,49.791376912378304
33830,Polk County,FL,41.753926701570684,NA,NA
33901,Lee County,FL,NA,62.40875912408759,NA
33908,Lee County,FL,NA,42.88321167883212,NA
33919,Lee County,FL,90.44502617801047,NA,NA
33971,Lee County,FL,NA,95.8029197080292,NA
33974,Lee County,FL,NA,NA,69.54102920723227
33980,Charlotte County,FL,89.52879581151832,NA,NA
34203,Manatee County,FL,30.36649214659686,NA,NA
34473,Marion County,FL,92.40837696335078,NA,NA
34476,Marion County,FL,NA,NA,49.374130737134905
34482,Marion County,FL,NA,54.379562043795616,NA
34601,Hernando County,FL,NA,44.70802919708029,NA
34652,Pasco County,FL,NA,56.56934306569343,NA
34654,Pasco County,FL,NA,56.02189781021898,NA
34746,Osceola County,FL,NA,15.693430656934307,NA
34753,Lake County,FL,NA,86.13138686131386,NA
34769,Osceola County,FL,NA,35.76642335766424,NA
34787,Orange County,FL,NA,NA,19.88873435326843
34953,St. Lucie County,FL,NA,NA,4.172461752433936
30016,Newton County,GA,NA,56.75182481751825,NA
30022,Fulton County,GA,31.544502617801047,NA,NA
30032,DeKalb County,GA,15.44502617801047,NA,10.987482614742698
30038,DeKalb County,GA,NA,33.394160583941606,34.63143254520167
30044,Gwinnett County,GA,NA,47.262773722627735,NA
30047,Gwinnett County,GA,NA,39.5985401459854,NA
30062,Cobb County,GA,NA,92.33576642335767,NA
30064,Cobb County,GA,33.7696335078534,NA,NA
30079,DeKalb County,GA,NA,NA,99.44367176634215
30080,Cobb County,GA,NA,47.44525547445255,NA
30087,DeKalb County,GA,41.62303664921466,NA,NA
30094,Rockdale County,GA,NA,80.65693430656934,NA
30097,Fulton County,GA,30.497382198952877,NA,NA
30120,Bartow County,GA,30.759162303664922,NA,NA
30127,Cobb County,GA,47.38219895287958,NA,NA
30152,Cobb County,GA,25.523560209424083,NA,NA
30165,Floyd County,GA,NA,NA,46.87065368567455
30176,Haralson County,GA,NA,NA,92.90681502086231
30179,Carroll County,GA,NA,NA,46.31432545201669
30223,Spalding County,GA,21.335078534031414,NA,NA
30253,Henry County,GA,84.42408376963351,NA,47.8442280945758
30263,Coweta County,GA,NA,NA,9.457579972183588
30273,Clayton County,GA,NA,86.67883211678831,NA
30281,Henry County,GA,NA,78.1021897810219,NA
30292,Pike County,GA,86.12565445026178,NA,NA
30294,DeKalb County,GA,27.486910994764397,NA,NA
30308,Fulton County,GA,95.68062827225131,NA,NA
30310,Fulton County,GA,NA,33.75912408759124,NA
30311,Fulton County,GA,NA,57.846715328467155,NA
30331,Fulton County,GA,NA,NA,14.464534075104313
30338,DeKalb County,GA,NA,NA,62.7260083449235
30342,Fulton County,GA,NA,51.09489051094891,NA
30344,Fulton County,GA,NA,24.27007299270073,NA
30345,DeKalb County,GA,NA,NA,97.49652294853965
30354,Fulton County,GA,NA,69.7080291970803,NA
30458,Bulloch County,GA,NA,59.12408759124088,NA
30518,Gwinnett County,GA,NA,NA,29.346314325452017
30534,Dawson County,GA,50.654450261780106,NA,NA
30540,Gilmer County,GA,NA,58.75912408759124,NA
30563,Habersham County,GA,NA,89.05109489051095,NA
30577,Stephens County,GA,NA,NA,37.27399165507649
30601,Clarke County,GA,76.8324607329843,NA,NA
30605,Clarke County,GA,NA,NA,44.506258692628656
30646,Madison County,GA,NA,94.16058394160584,NA
30707,Walker County,GA,NA,NA,81.36300417246176
30809,Columbia County,GA,NA,NA,28.372739916550767
30906,Richmond County,GA,2.8795811518324608,NA,6.11961057023644
31006,Taylor County,GA,NA,79.92700729927007,NA
31031,Wilkinson County,GA,83.90052356020942,NA,NA
31036,Pulaski County,GA,NA,NA,61.19610570236439
31211,Bibb County,GA,NA,46.167883211678834,NA
31405,Chatham County,GA,NA,69.7080291970803,NA
31510,Bacon County,GA,NA,71.71532846715328,NA
31533,Coffee County,GA,65.18324607329843,NA,NA
31539,Jeff Davis County,GA,NA,NA,58.27538247566064
31701,Dougherty County,GA,48.82198952879581,NA,NA
31771,Colquitt County,GA,NA,72.8102189781022,NA
31792,Thomas County,GA,NA,NA,26.842837273991655
31903,Muscogee County,GA,39.397905759162306,NA,NA
31904,Muscogee County,GA,35.602094240837694,NA,NA
31906,Muscogee County,GA,NA,48.9051094890511,NA
96792,Honolulu County,HI,NA,NA,32.127955493741304
96793,Maui County,HI,NA,68.24817518248175,NA
96816,Honolulu County,HI,NA,57.481751824817515,NA
96821,Honolulu County,HI,94.24083769633508,NA,NA
96825,Honolulu County,HI,65.83769633507853,NA,96.52294853963839
83201,Bannock County,ID,81.15183246073299,NA,NA
83316,Twin Falls County,ID,71.72774869109948,NA,NA
83330,Gooding County,ID,NA,NA,78.85952712100139
83406,Bonneville County,ID,63.089005235602095,NA,NA
83605,Canyon County,ID,NA,68.97810218978103,NA
83638,Valley County,ID,98.1675392670157,NA,NA
83642,Ada County,ID,NA,NA,14.603616133518777
83644,Canyon County,ID,NA,NA,78.30319888734353
83646,Ada County,ID,NA,NA,48.817802503477054
83651,Canyon County,ID,NA,NA,39.63838664812239
83702,Ada County,ID,NA,NA,22.809457579972182
83704,Ada County,ID,52.4869109947644,NA,13.908205841446453
83706,Ada County,ID,67.80104712041884,NA,NA
83709,Ada County,ID,8.24607329842932,NA,NA
83856,Bonner County,ID,NA,NA,98.33101529902642
60018,Cook County,IL,NA,NA,74.82614742698192
60051,McHenry County,IL,34.94764397905759,NA,NA
60056,Cook County,IL,41.361256544502616,NA,NA
60062,Cook County,IL,17.408376963350786,NA,30.737134909596662
60074,Cook County,IL,40.968586387434556,NA,NA
60089,Lake County,IL,NA,NA,31.154381084840054
60099,Lake County,IL,33.50785340314136,NA,32.5452016689847
60103,DuPage County,IL,64.00523560209425,NA,NA
60135,DeKalb County,IL,NA,NA,89.84700973574408
60142,McHenry County,IL,29.581151832460733,NA,NA
60164,Cook County,IL,NA,98.54014598540147,NA
60178,DeKalb County,IL,98.03664921465969,NA,NA
60192,Cook County,IL,84.81675392670157,NA,NA
60193,Cook County,IL,NA,NA,60.36161335187761
60201,Cook County,IL,85.6020942408377,NA,NA
60202,Cook County,IL,50.26178010471204,NA,NA
60302,Cook County,IL,64.79057591623037,NA,NA
60402,Cook County,IL,NA,NA,10.70931849791377
60404,Will County,IL,32.85340314136126,NA,NA
60411,Cook County,IL,NA,90.51094890510949,NA
60416,Grundy County,IL,43.324607329842934,NA,NA
60419,Cook County,IL,NA,99.45255474452554,NA
60420,Livingston County,IL,NA,NA,89.56884561891516
60423,Will County,IL,18.455497382198953,NA,NA
60426,Cook County,IL,NA,NA,44.78442280945758
60435,Will County,IL,NA,NA,9.040333796940194
60443,Cook County,IL,NA,100,NA
60445,Cook County,IL,64.79057591623037,NA,NA
60448,Will County,IL,NA,NA,44.645340751043115
60451,Will County,IL,7.460732984293193,NA,NA
60452,Cook County,IL,68.45549738219894,NA,NA
60457,Cook County,IL,84.81675392670157,NA,NA
60467,Cook County,IL,18.979057591623036,NA,NA
60473,Cook County,IL,NA,NA,45.479833101529906
60506,Kane County,IL,55.497382198952884,NA,NA
60540,DuPage County,IL,71.46596858638743,NA,NA
60543,Kendall County,IL,77.22513089005236,NA,NA
60586,Will County,IL,9.162303664921465,NA,NA
60607,Cook County,IL,NA,NA,40.19471488178025
60611,Cook County,IL,89.92146596858639,NA,NA
60612,Cook County,IL,59.16230366492147,NA,NA
60616,Cook County,IL,42.01570680628272,NA,NA
60618,Cook County,IL,NA,NA,25.869262865090402
60621,Cook County,IL,NA,96.35036496350365,NA
60626,Cook County,IL,NA,94.16058394160584,NA
60629,Cook County,IL,NA,36.67883211678832,NA
60632,Cook County,IL,NA,45.43795620437956,NA
60638,Cook County,IL,58.63874345549738,NA,NA
60649,Cook County,IL,NA,79.92700729927007,NA
60652,Cook County,IL,NA,NA,66.75938803894297
60657,Cook County,IL,27.748691099476442,NA,NA
60659,Cook County,IL,NA,95.07299270072993,NA
60660,Cook County,IL,NA,84.30656934306569,NA
60804,Cook County,IL,NA,NA,16.550764951321277
60827,Cook County,IL,NA,NA,65.64673157162726
60901,Kankakee County,IL,11.12565445026178,NA,NA
60950,Kankakee County,IL,61.38743455497382,NA,NA
60970,Iroquois County,IL,NA,NA,84.7009735744089
61068,Ogle County,IL,68.97905759162303,NA,NA
61080,Winnebago County,IL,NA,98.90510948905109,NA
61107,Winnebago County,IL,76.57068062827224,NA,NA
61111,Winnebago County,IL,NA,NA,41.307371349095966
61201,Rock Island County,IL,NA,82.2992700729927,NA
61354,LaSalle County,IL,NA,NA,70.37552155771905
61554,Tazewell County,IL,19.76439790575916,NA,NA
61604,Peoria County,IL,NA,NA,31.98887343532684
61820,Champaign County,IL,NA,NA,61.61335187760779
62012,Macoupin County,IL,NA,NA,79.13769123783032
62025,Madison County,IL,82.98429319371728,NA,NA
62035,Madison County,IL,NA,NA,79.97218358831711
62040,Madison County,IL,28.534031413612563,NA,NA
62249,Madison County,IL,NA,NA,65.78581363004173
62269,St. Clair County,IL,42.27748691099477,NA,NA
62305,Adams County,IL,69.10994764397905,NA,NA
62401,Effingham County,IL,NA,NA,75.52155771905424
62521,Macon County,IL,4.842931937172775,NA,NA
62702,Sangamon County,IL,50.523560209424076,NA,NA
62801,Marion County,IL,NA,NA,93.7413073713491
46112,Hendricks County,IN,33.90052356020942,NA,NA
46143,Johnson County,IN,NA,32.299270072992705,NA
46158,Morgan County,IN,91.49214659685863,NA,NA
46176,Shelby County,IN,27.356020942408378,34.67153284671533,NA
46203,Marion County,IN,46.72774869109947,NA,NA
46303,Lake County,IN,NA,97.44525547445255,NA
46304,Porter County,IN,NA,NA,51.599443671766345
46327,Lake County,IN,65.57591623036649,NA,NA
46341,Porter County,IN,69.63350785340315,NA,NA
46342,Lake County,IN,27.87958115183246,NA,NA
46350,LaPorte County,IN,86.51832460732984,NA,NA
46368,Porter County,IN,0.5235602094240838,NA,NA
46517,Elkhart County,IN,48.167539267015705,NA,NA
46777,Wells County,IN,84.16230366492147,NA,NA
46815,Allen County,IN,NA,NA,26.00834492350487
46845,Allen County,IN,NA,54.92700729927007,NA
46901,Howard County,IN,NA,NA,0.8344923504867872
46902,Howard County,IN,NA,NA,2.642559109874826
46947,Cass County,IN,0,NA,NA
46970,Miami County,IN,NA,83.57664233576642,NA
46992,Wabash County,IN,NA,NA,70.2364394993046
47012,Franklin County,IN,NA,NA,77.60778859527122
47060,Dearborn County,IN,70.41884816753927,NA,NA
47111,Clark County,IN,53.010471204188484,NA,NA
47150,Floyd County,IN,NA,NA,9.596662030598054
47172,Clark County,IN,59.554973821989535,NA,NA
47362,Henry County,IN,NA,NA,17.385257301808068
47567,Pike County,IN,86.12565445026178,NA,NA
47601,Warrick County,IN,NA,NA,50.76495132127955
47715,Vanderburgh County,IN,NA,NA,52.85118219749653
47802,Vigo County,IN,2.356020942408377,NA,19.054242002781642
47803,Vigo County,IN,NA,97.26277372262774,NA
50010,Story County,IA,NA,NA,81.64116828929068
50131,Polk County,IA,NA,54.92700729927007,NA
50158,Marshall County,IA,NA,NA,90.12517385257301
50213,Clarke County,IA,NA,NA,67.87204450625869
50219,Marion County,IA,NA,78.1021897810219,NA
50310,Polk County,IA,NA,18.795620437956202,NA
50312,Polk County,IA,NA,90.14598540145985,NA
50436,Winnebago County,IA,NA,NA,85.25730180806676
50613,Black Hawk County,IA,NA,NA,40.61196105702364
50703,Black Hawk County,IA,NA,84.67153284671532,NA
51104,Woodbury County,IA,NA,NA,37.41307371349096
51503,Pottawattamie County,IA,NA,NA,7.232267037552156
52001,Dubuque County,IA,8.769633507853403,NA,NA
52101,Winneshiek County,IA,59.81675392670157,NA,NA
52172,Allamakee County,IA,NA,98.35766423357664,NA
52245,Johnson County,IA,NA,76.64233576642336,NA
52302,Linn County,IA,NA,66.6058394160584,NA
52405,Linn County,IA,90.18324607329843,NA,NA
52601,Des Moines County,IA,NA,NA,10.848400556328233
52655,Des Moines County,IA,NA,NA,90.26425591098747
52722,Scott County,IA,NA,NA,88.03894297635605
52738,Louisa County,IA,97.12041884816755,NA,NA
52748,Scott County,IA,86.91099476439791,NA,NA
52761,Muscatine County,IA,NA,NA,10.43115438108484
66048,Leavenworth County,KS,NA,NA,54.24200278164116
66061,Johnson County,KS,22.25130890052356,NA,NA
66067,Franklin County,KS,NA,NA,46.31432545201669
66214,Johnson County,KS,NA,99.27007299270073,NA
66610,Shawnee County,KS,77.74869109947645,NA,NA
66749,Allen County,KS,52.09424083769634,NA,NA
67114,Harvey County,KS,32.85340314136126,NA,NA
40031,Oldham County,KY,NA,NA,69.4019471488178
40056,Oldham County,KY,NA,NA,99.16550764951322
40118,Jefferson County,KY,93.45549738219894,NA,NA
40206,Jefferson County,KY,NA,41.97080291970803,NA
40212,Jefferson County,KY,11.910994764397905,27.919708029197082,NA
40215,Jefferson County,KY,NA,41.058394160583944,58.41446453407511
40229,Jefferson County,KY,8.507853403141361,NA,NA
40324,Scott County,KY,NA,NA,34.07510431154381
40356,Jessamine County,KY,NA,56.934306569343065,NA
40361,Bourbon County,KY,NA,32.846715328467155,NA
40380,Powell County,KY,NA,63.503649635036496,NA
40419,Lincoln County,KY,NA,91.42335766423358,NA
40456,Rockcastle County,KY,NA,39.416058394160586,NA
40504,Fayette County,KY,NA,NA,34.21418636995828
40505,Fayette County,KY,NA,NA,18.915159944367176
40509,Fayette County,KY,NA,NA,77.46870653685674
40511,Fayette County,KY,NA,NA,30.598052851182196
40744,Laurel County,KY,NA,16.05839416058394,NA
41001,Campbell County,KY,NA,NA,53.963838664812236
41005,Boone County,KY,NA,61.67883211678832,51.46036161335188
41040,Pendleton County,KY,NA,NA,56.189151599443676
41048,Boone County,KY,NA,NA,71.48817802503477
41219,Johnson County,KY,NA,95.98540145985402,NA
41501,Pike County,KY,NA,70.8029197080292,NA
41514,Pike County,KY,NA,76.64233576642336,NA
42217,Christian County,KY,NA,96.8978102189781,NA
42301,Daviess County,KY,NA,NA,8.762169680111267
42431,Hopkins County,KY,97.5130890052356,NA,NA
42567,Pulaski County,KY,99.21465968586386,NA,NA
70003,Jefferson Parish,LA,1.3089005235602094,NA,NA
70037,Plaquemines Parish,LA,84.29319371727748,NA,NA
70072,Jefferson Parish,LA,NA,NA,8.6230876216968
70115,Orleans Parish,LA,14.136125654450263,NA,NA
70131,Orleans Parish,LA,9.68586387434555,NA,NA
70401,Tangipahoa Parish,LA,23.82198952879581,NA,NA
70458,St. Tammany Parish,LA,0.7853403141361256,NA,NA
70508,Lafayette Parish,LA,5.6282722513089,NA,NA
70563,Iberia Parish,LA,27.486910994764397,NA,NA
70570,St. Landry Parish,LA,2.225130890052356,NA,NA
70737,Ascension Parish,LA,8.900523560209423,NA,NA
70774,Ascension Parish,LA,NA,28.832116788321166,NA
70777,East Feliciana Parish,LA,82.72251308900523,NA,NA
70815,East Baton Rouge Parish,LA,5.366492146596859,NA,NA
03904,York County,ME,NA,NA,83.31015299026426
04073,York County,ME,13.481675392670155,NA,NA
04093,York County,ME,85.73298429319371,NA,NA
04240,Androscoggin County,ME,1.963350785340314,NA,NA
04330,Kennebec County,ME,1.7015706806282722,NA,4.450625869262865
04605,Hancock County,ME,38.7434554973822,NA,NA
04843,Knox County,ME,91.36125654450262,NA,94.99304589707927
04967,Somerset County,ME,NA,NA,96.80111265646731
20603,Charles County,MD,NA,NA,77.74687065368568
20613,Prince George's County,MD,80.49738219895288,NA,NA
20636,St. Mary's County,MD,76.8324607329843,NA,NA
20759,Howard County,MD,94.63350785340315,NA,NA
20815,Montgomery County,MD,77.35602094240838,NA,NA
20850,Montgomery County,MD,72.38219895287958,NA,NA
20876,Montgomery County,MD,67.14659685863874,NA,NA
20904,Montgomery County,MD,29.84293193717277,NA,NA
21032,Anne Arundel County,MD,96.59685863874346,NA,NA
21042,Howard County,MD,26.17801047120419,NA,NA
21117,Baltimore County,MD,51.30890052356021,NA,NA
21144,Anne Arundel County,MD,58.1151832460733,NA,NA
21157,Carroll County,MD,NA,NA,40.89012517385257
21201,Baltimore city,MD,NA,NA,76.77329624478443
21216,Baltimore city,MD,NA,NA,27.955493741307368
21220,Baltimore County,MD,55.10471204188482,NA,NA
21224,Baltimore city,MD,17.801047120418847,NA,54.65924895688457
21234,Baltimore County,MD,15.314136125654452,NA,NA
21236,Baltimore County,MD,53.27225130890052,NA,NA
21244,Baltimore County,MD,NA,NA,35.32684283727399
21286,Baltimore County,MD,61.78010471204188,NA,NA
21629,Caroline County,MD,NA,NA,92.48956884561892
21701,Frederick County,MD,79.71204188481676,NA,NA
21771,Frederick County,MD,37.82722513089005,NA,NA
21804,Wicomico County,MD,36.2565445026178,NA,NA
21851,Worcester County,MD,88.35078534031413,NA,NA
01028,Hampden County,MA,NA,63.503649635036496,NA
01040,Hampden County,MA,0.6544502617801047,NA,NA
01104,Hampden County,MA,3.1413612565445024,NA,NA
01105,Hampden County,MA,NA,NA,1.808066759388039
01107,Hampden County,MA,28.92670157068063,NA,49.51321279554937
01108,Hampden County,MA,0.2617801047120419,NA,NA
01109,Hampden County,MA,NA,1.094890510948905,6.397774687065369
01129,Hampden County,MA,NA,NA,59.944367176634216
01201,Berkshire County,MA,0.9162303664921465,NA,NA
01420,Worcester County,MA,NA,31.204379562043794,0.13908205841446453
01505,Worcester County,MA,90.44502617801047,NA,NA
01522,Worcester County,MA,NA,NA,96.105702364395
01566,Worcester County,MA,NA,NA,73.7134909596662
01609,Worcester County,MA,NA,NA,61.474269819193324
01610,Worcester County,MA,29.18848167539267,3.2846715328467155,NA
01742,Middlesex County,MA,98.56020942408377,NA,NA
01772,Worcester County,MA,96.98952879581152,NA,NA
01776,Middlesex County,MA,26.701570680628272,NA,NA
01778,Middlesex County,MA,NA,NA,69.12378303198888
01801,Middlesex County,MA,NA,79.74452554744525,NA
01824,Middlesex County,MA,46.20418848167539,NA,26.70375521557719
01830,Essex County,MA,NA,NA,0.5563282336578581
01840,Essex County,MA,99.86910994764398,NA,NA
01841,Essex County,MA,0.13089005235602094,NA,NA
01844,Essex County,MA,NA,NA,0.4172461752433936
01852,Middlesex County,MA,NA,4.744525547445255,NA
01854,Middlesex County,MA,12.30366492146597,NA,NA
01860,Essex County,MA,NA,90.32846715328468,NA
01862,Middlesex County,MA,NA,81.02189781021897,64.95132127955495
01864,Middlesex County,MA,NA,99.81751824817519,NA
01923,Essex County,MA,NA,NA,2.364394993045897
01930,Essex County,MA,NA,NA,28.2336578581363
02026,Norfolk County,MA,NA,58.57664233576643,NA
02048,Bristol County,MA,NA,NA,16.689847009735743
02050,Plymouth County,MA,NA,NA,16.968011126564672
02061,Plymouth County,MA,53.403141361256544,NA,NA
02093,Norfolk County,MA,NA,NA,45.34075104311544
02119,Suffolk County,MA,NA,0.9124087591240875,NA
02120,Suffolk County,MA,NA,6.569343065693431,NA
02122,Suffolk County,MA,65.44502617801047,NA,NA
02126,Suffolk County,MA,NA,16.78832116788321,NA
02130,Suffolk County,MA,NA,NA,6.675938803894297
02135,Suffolk County,MA,42.67015706806283,NA,NA
02145,Middlesex County,MA,NA,1.4598540145985401,18.636995827538247
02184,Norfolk County,MA,NA,72.8102189781022,NA
02330,Plymouth County,MA,NA,NA,39.360222531293466
02333,Plymouth County,MA,NA,47.99270072992701,NA
02359,Plymouth County,MA,79.05759162303664,NA,NA
02368,Norfolk County,MA,22.5130890052356,NA,NA
02370,Plymouth County,MA,NA,NA,35.88317107093185
02458,Middlesex County,MA,41.753926701570684,NA,77.32962447844228
02472,Middlesex County,MA,NA,NA,5.702364394993046
02568,Dukes County,MA,NA,NA,88.45618915159945
02664,Barnstable County,MA,56.15183246073299,NA,NA
02668,Barnstable County,MA,NA,NA,94.1585535465925
02703,Bristol County,MA,NA,12.043795620437956,NA
02717,Bristol County,MA,65.83769633507853,NA,NA
02720,Bristol County,MA,NA,4.37956204379562,NA
02723,Bristol County,MA,NA,64.41605839416059,NA
02779,Bristol County,MA,NA,NA,86.92628650904032
48001,St. Clair County,MI,90.83769633507853,NA,NA
48015,Macomb County,MI,26.04712041884817,NA,NA
48043,Macomb County,MI,NA,NA,24.47844228094576
48047,Macomb County,MI,NA,NA,11.543810848400557
48079,St. Clair County,MI,NA,NA,53.26842837273992
48085,Oakland County,MI,57.460732984293195,NA,NA
48091,Macomb County,MI,69.89528795811518,NA,NA
48094,Macomb County,MI,34.16230366492147,NA,NA
48101,Wayne County,MI,70.81151832460732,NA,NA
48105,Washtenaw County,MI,NA,NA,30.319888734353267
48108,Washtenaw County,MI,NA,NA,84.00556328233658
48134,Wayne County,MI,68.58638743455498,NA,NA
48146,Wayne County,MI,NA,NA,6.954102920723226
48152,Wayne County,MI,26.439790575916227,NA,NA
48160,Washtenaw County,MI,87.04188481675392,NA,NA
48161,Monroe County,MI,3.926701570680628,NA,NA
48167,Oakland County,MI,32.59162303664922,NA,NA
48176,Washtenaw County,MI,15.706806282722512,NA,NA
48183,Wayne County,MI,NA,NA,7.7885952712100135
48184,Wayne County,MI,NA,NA,12.517385257301807
48186,Wayne County,MI,NA,NA,4.58970792767733
48193,Wayne County,MI,67.40837696335078,NA,NA
48195,Wayne County,MI,22.774869109947645,NA,NA
48208,Wayne County,MI,NA,NA,44.92350486787204
48210,Wayne County,MI,24.345549738219894,NA,NA
48219,Wayne County,MI,25,NA,NA
48223,Wayne County,MI,7.329842931937172,NA,NA
48237,Oakland County,MI,34.55497382198953,NA,NA
48240,Wayne County,MI,33.638743455497384,32.481751824817515,NA
48324,Oakland County,MI,NA,NA,48.53963838664812
48326,Oakland County,MI,57.59162303664922,NA,NA
48334,Oakland County,MI,74.86910994764398,NA,NA
48335,Oakland County,MI,NA,91.78832116788321,NA
48374,Oakland County,MI,NA,NA,63.69958275382476
48423,Genesee County,MI,NA,NA,76.63421418636996
48444,Lapeer County,MI,49.345549738219894,NA,NA
48616,Saginaw County,MI,83.37696335078533,NA,NA
48632,Clare County,MI,NA,NA,98.0528511821975
48706,Bay County,MI,18.717277486910994,NA,NA
48820,Clinton County,MI,NA,NA,87.48261474269819
48827,Eaton County,MI,46.20418848167539,NA,NA
48843,Livingston County,MI,56.41361256544503,NA,NA
48858,Isabella County,MI,NA,NA,37.83031988873435
48867,Shiawassee County,MI,4.18848167539267,NA,NA
48911,Ingham County,MI,NA,NA,5.285118219749652
49015,Calhoun County,MI,62.17277486910995,NA,NA
49036,Branch County,MI,43.97905759162304,NA,NA
49046,Barry County,MI,75.26178010471205,NA,NA
49058,Barry County,MI,60.07853403141361,NA,NA
49071,Van Buren County,MI,60.6020942408377,NA,NA
49085,Berrien County,MI,64.26701570680629,NA,NA
49103,Berrien County,MI,NA,73.90510948905109,NA
49202,Jackson County,MI,26.17801047120419,NA,NA
49203,Jackson County,MI,82.19895287958116,NA,NA
49221,Lenawee County,MI,10.602094240837696,NA,NA
49230,Jackson County,MI,NA,NA,60.91794158553546
49286,Lenawee County,MI,22.38219895287958,NA,NA
49418,Kent County,MI,NA,71.53284671532847,NA
49419,Allegan County,MI,96.59685863874346,NA,NA
49442,Muskegon County,MI,32.460732984293195,NA,NA
49445,Muskegon County,MI,NA,NA,71.07093184979138
49457,Muskegon County,MI,37.95811518324607,NA,NA
49464,Ottawa County,MI,NA,NA,42.00278164116829
49505,Kent County,MI,60.34031413612565,NA,NA
49707,Alpena County,MI,NA,NA,68.42837273991655
49783,Chippewa County,MI,59.031413612565444,NA,NA
49855,Marquette County,MI,45.68062827225131,NA,NA
49878,Delta County,MI,NA,NA,95.82753824756607
55016,Washington County,MN,NA,90.87591240875912,NA
55021,Rice County,MN,NA,NA,59.527121001390825
55033,Dakota County,MN,NA,NA,75.10431154381085
55044,Dakota County,MN,NA,79.56204379562044,41.1682892906815
55057,Rice County,MN,NA,NA,59.66620305980529
55075,Dakota County,MN,NA,59.12408759124088,85.67454798331016
55101,Ramsey County,MN,61.12565445026178,NA,NA
55102,Ramsey County,MN,20.54973821989529,NA,NA
55105,Ramsey County,MN,66.36125654450262,NA,NA
55106,Ramsey County,MN,NA,10.036496350364963,NA
55109,Ramsey County,MN,NA,NA,76.0778859527121
55110,Ramsey County,MN,NA,58.21167883211679,NA
55113,Ramsey County,MN,NA,NA,38.108484005563284
55124,Dakota County,MN,86.78010471204189,NA,NA
55126,Ramsey County,MN,NA,NA,50.76495132127955
55127,Ramsey County,MN,74.47643979057592,NA,NA
55128,Washington County,MN,NA,NA,39.22114047287899
55303,Anoka County,MN,36.78010471204188,NA,14.74269819193324
55304,Anoka County,MN,NA,NA,92.62865090403338
55311,Hennepin County,MN,NA,NA,50.62586926286509
55320,Wright County,MN,NA,NA,98.60917941585535
55330,Sherburne County,MN,NA,NA,33.379694019471486
55337,Dakota County,MN,7.853403141361256,NA,NA
55343,Hennepin County,MN,NA,26.277372262773724,NA
55345,Hennepin County,MN,NA,39.96350364963504,NA
55350,McLeod County,MN,NA,NA,21.557719054242003
55369,Hennepin County,MN,7.068062827225131,NA,NA
55379,Scott County,MN,NA,61.31386861313869,NA
55391,Hennepin County,MN,78.92670157068062,NA,NA
55404,Hennepin County,MN,NA,10.218978102189782,NA
55407,Hennepin County,MN,NA,NA,4.867872044506258
55408,Hennepin County,MN,NA,NA,86.78720445062586
55412,Hennepin County,MN,12.43455497382199,67.7007299270073,NA
55413,Hennepin County,MN,56.675392670157066,NA,62.58692628650904
55414,Hennepin County,MN,84.81675392670157,NA,NA
55418,Hennepin County,MN,75,NA,NA
55420,Hennepin County,MN,NA,NA,88.17802503477051
55421,Anoka County,MN,NA,NA,86.23087621696801
55422,Hennepin County,MN,NA,NA,80.94575799721837
55426,Hennepin County,MN,NA,NA,66.06397774687065
55427,Hennepin County,MN,NA,NA,43.94993045897079
55428,Hennepin County,MN,NA,NA,81.91933240611962
55429,Hennepin County,MN,59.29319371727748,NA,NA
55433,Anoka County,MN,NA,NA,95.41029207232266
55434,Anoka County,MN,39.00523560209424,50.72992700729927,NA
55441,Hennepin County,MN,NA,NA,89.01251738525731
55444,Hennepin County,MN,NA,70.62043795620438,NA
55447,Hennepin County,MN,85.34031413612566,NA,NA
55448,Anoka County,MN,15.052356020942408,NA,NA
55449,Anoka County,MN,18.848167539267017,NA,41.58553546592489
55454,Hennepin County,MN,NA,92.51824817518248,NA
55921,Houston County,MN,92.01570680628272,NA,NA
55987,Winona County,MN,NA,9.48905109489051,25.591098748261476
56073,Brown County,MN,NA,NA,60.91794158553546
56093,Waseca County,MN,NA,62.40875912408759,NA
56265,Chippewa County,MN,NA,NA,64.67315716272601
56267,Stevens County,MN,NA,NA,77.88595271210013
56301,Stearns County,MN,14.136125654450263,NA,NA
56303,Stearns County,MN,NA,6.204379562043796,NA
56374,Stearns County,MN,NA,67.88321167883211,NA
56401,Crow Wing County,MN,14.659685863874344,NA,NA
56464,Wadena County,MN,92.80104712041884,NA,NA
56501,Becker County,MN,NA,NA,72.46175243393603
56560,Clay County,MN,NA,11.861313868613138,42.698191933240615
56601,Beltrami County,MN,38.61256544502618,NA,NA
38655,Lafayette County,MS,21.858638743455497,NA,NA
38701,Washington County,MS,NA,NA,83.31015299026426
38801,Lee County,MS,NA,NA,30.180806675938804
38850,Chickasaw County,MS,NA,NA,99.72183588317107
39180,Warren County,MS,NA,44.16058394160584,NA
39211,Hinds County,MS,NA,23.54014598540146,NA
39365,Neshoba County,MS,NA,NA,85.53546592489569
39367,Wayne County,MS,33.1151832460733,NA,NA
39402,Lamar County,MS,NA,25.91240875912409,NA
39479,Covington County,MS,79.45026178010471,NA,NA
39641,Walthall County,MS,NA,82.66423357664233,NA
63031,St. Louis County,MO,NA,12.043795620437956,NA
63033,St. Louis County,MO,50.78534031413613,NA,12.795549374130738
63084,Franklin County,MO,39.79057591623037,31.02189781021898,NA
63111,St. Louis city,MO,NA,NA,55.77190542420028
63121,St. Louis County,MO,32.72251308900523,NA,NA
63125,St. Louis County,MO,NA,NA,62.447844228094574
63132,St. Louis County,MO,NA,NA,70.51460361613351
63135,St. Louis County,MO,8.115183246073299,NA,NA
63136,St. Louis County,MO,NA,NA,5.980528511821975
63138,St. Louis County,MO,NA,NA,41.863699582753824
63301,St. Charles County,MO,NA,NA,11.404728789986091
63368,St. Charles County,MO,NA,47.44525547445255,NA
63379,Lincoln County,MO,16.099476439790575,NA,21.835883171070932
63383,Warren County,MO,NA,NA,43.671766342141865
63390,Warren County,MO,NA,79.01459854014598,NA
63640,St. Francois County,MO,18.455497382198953,NA,NA
63645,Madison County,MO,NA,59.48905109489051,NA
63664,Washington County,MO,64.26701570680629,NA,NA
63775,Perry County,MO,NA,97.62773722627736,NA
63801,Scott County,MO,NA,NA,18.08066759388039
64014,Jackson County,MO,NA,29.37956204379562,NA
64034,Jackson County,MO,NA,NA,94.29763560500696
64062,Ray County,MO,55.890052356020945,NA,NA
64063,Jackson County,MO,57.85340314136126,NA,NA
64079,Platte County,MO,71.98952879581152,NA,NA
64080,Cass County,MO,NA,NA,84.28372739916551
64089,Clay County,MO,28.534031413612563,NA,NA
64106,Jackson County,MO,37.04188481675393,NA,21.279554937413074
64117,Clay County,MO,19.240837696335078,NA,NA
64124,Jackson County,MO,NA,48.9051094890511,NA
64129,Jackson County,MO,NA,NA,90.95966620305981
64151,Platte County,MO,37.696335078534034,NA,NA
64507,Buchanan County,MO,NA,NA,20.58414464534075
64735,Henry County,MO,NA,NA,26.14742698191933
64865,Newton County,MO,NA,NA,93.04589707927677
65037,Morgan County,MO,NA,96.53284671532847,NA
65043,Callaway County,MO,78.40314136125654,NA,NA
65079,Camden County,MO,84.81675392670157,NA,NA
65202,Boone County,MO,NA,56.02189781021898,NA
65340,Saline County,MO,NA,20.255474452554743,NA
65355,Benton County,MO,NA,NA,42.280945757997216
65613,Polk County,MO,NA,NA,45.75799721835883
65653,Taney County,MO,NA,NA,84.14464534075104
65706,Webster County,MO,53.403141361256544,NA,NA
65711,Wright County,MO,NA,92.88321167883211,NA
65738,Greene County,MO,30.89005235602094,NA,NA
65775,Howell County,MO,64.00523560209425,NA,24.617524339360223
65793,Howell County,MO,NA,62.04379562043796,NA
65807,Greene County,MO,6.4136125654450264,NA,NA
59715,Gallatin County,MT,NA,NA,68.56745479833101
68005,Sarpy County,NE,NA,NA,75.38247566063978
68111,Douglas County,NE,20.157068062827225,NA,NA
68137,Douglas County,NE,82.4607329842932,NA,79.69401947148818
69162,Cheyenne County,NE,NA,NA,91.51599443671766
69341,Scotts Bluff County,NE,92.27748691099477,NA,NA
89103,Clark County,NV,NA,85.58394160583941,NA
89108,Clark County,NV,NA,46.715328467153284,NA
89121,Clark County,NV,NA,51.82481751824818,NA
89130,Clark County,NV,98.29842931937172,NA,NA
89147,Clark County,NV,NA,69.16058394160584,NA
89149,Clark County,NV,91.09947643979058,78.1021897810219,NA
89433,Washoe County,NV,47.64397905759162,NA,NA
89521,Washoe County,NV,67.40837696335078,NA,NA
89523,Washoe County,NV,NA,NA,69.95827538247566
89706,Carson City,NV,NA,NA,51.32127955493742
03054,Hillsborough County,NH,31.282722513089006,NA,NA
03064,Hillsborough County,NH,NA,NA,21.974965229485395
03079,Rockingham County,NH,81.282722513089,NA,NA
03103,Hillsborough County,NH,NA,40.32846715328467,NA
03104,Hillsborough County,NH,31.80628272251309,NA,NA
03249,Belknap County,NH,NA,73.90510948905109,NA
03281,Hillsborough County,NH,NA,NA,67.17663421418636
03801,Rockingham County,NH,NA,NA,41.72461752433936
03873,Rockingham County,NH,66.09947643979058,NA,NA
07002,Hudson County,NJ,2.486910994764398,NA,NA
07006,Essex County,NJ,NA,84.85401459854015,NA
07008,Middlesex County,NJ,21.20418848167539,NA,NA
07011,Passaic County,NJ,NA,4.197080291970803,NA
07050,Essex County,NJ,NA,18.065693430656935,NA
07055,Passaic County,NJ,NA,NA,8.344923504867872
07060,Union County,NJ,NA,26.277372262773724,NA
07065,Union County,NJ,NA,9.67153284671533,NA
07083,Union County,NJ,NA,NA,12.656467315716272
07093,Hudson County,NJ,NA,NA,91.7941585535466
07102,Essex County,NJ,NA,NA,6.258692628650904
07104,Essex County,NJ,NA,NA,78.58136300417246
07111,Essex County,NJ,NA,7.664233576642336,NA
07202,Union County,NJ,NA,NA,5.006954102920723
07304,Hudson County,NJ,74.3455497382199,NA,NA
07305,Hudson County,NJ,2.74869109947644,0,NA
07512,Passaic County,NJ,90.31413612565446,NA,NA
07740,Monmouth County,NJ,NA,NA,5.4242002781641165
07753,Monmouth County,NJ,NA,88.86861313868614,3.477051460361613
07860,Sussex County,NJ,NA,NA,47.426981919332405
08004,Camden County,NJ,75.6544502617801,NA,NA
08012,Camden County,NJ,NA,NA,4.033379694019471
08016,Burlington County,NJ,NA,NA,15.02086230876217
08055,Burlington County,NJ,NA,NA,56.60639777468707
08057,Burlington County,NJ,NA,NA,83.03198887343532
08066,Gloucester County,NJ,NA,34.67153284671533,NA
08077,Burlington County,NJ,NA,NA,69.68011126564673
08080,Gloucester County,NJ,NA,NA,29.763560500695412
08096,Gloucester County,NJ,11.518324607329843,NA,NA
08104,Camden County,NJ,NA,58.02919708029197,NA
08205,Atlantic County,NJ,NA,NA,13.073713490959666
08270,Cape May County,NJ,NA,NA,87.0653685674548
08332,Cumberland County,NJ,NA,57.66423357664233,NA
08701,Ocean County,NJ,11.780104712041885,NA,NA
08724,Ocean County,NJ,62.04188481675392,NA,NA
08753,Ocean County,NJ,82.59162303664922,18.97810218978102,1.2517385257301807
08755,Ocean County,NJ,7.198952879581152,NA,NA
08809,Hunterdon County,NJ,NA,NA,96.38386648122392
08820,Middlesex County,NJ,68.32460732984293,NA,NA
08830,Middlesex County,NJ,NA,NA,60.778859527121
08873,Somerset County,NJ,NA,NA,12.100139082058414
08882,Middlesex County,NJ,NA,NA,48.95688456189152
87102,Bernalillo County,NM,NA,NA,17.524339360222534
87104,Bernalillo County,NM,NA,72.8102189781022,NA
87107,Bernalillo County,NM,54.84293193717278,NA,NA
87109,Bernalillo County,NM,NA,83.94160583941606,NA
87110,Bernalillo County,NM,15.575916230366493,NA,NA
87111,Bernalillo County,NM,8.37696335078534,NA,NA
87112,Bernalillo County,NM,80.23560209424085,NA,NA
87114,Bernalillo County,NM,43.19371727748691,NA,NA
87124,Sandoval County,NM,NA,17.88321167883212,NA
87301,McKinley County,NM,NA,6.934306569343065,NA
87401,San Juan County,NM,NA,NA,13.76912378303199
87420,San Juan County,NM,NA,NA,22.531293463143253
87507,Santa Fe County,NM,NA,NA,25.73018080667594
87532,Santa Fe County,NM,58.1151832460733,45.98540145985402,NA
88001,Doa Ana County,NM,NA,NA,20.723226703755216
88008,Doa Ana County,NM,NA,NA,87.62169680111266
88012,Doa Ana County,NM,NA,NA,26.425591098748264
88081,Otero County,NM,NA,60.58394160583942,NA
10001,New York County,NY,14.397905759162304,NA,32.40611961057024
10009,New York County,NY,NA,NA,7.37134909596662
10013,New York County,NY,NA,NA,97.63560500695411
10025,New York County,NY,NA,34.67153284671533,NA
10029,New York County,NY,NA,3.4671532846715327,3.3379694019471486
10031,New York County,NY,NA,5.474452554744526,NA
10033,New York County,NY,NA,34.12408759124087,NA
10035,New York County,NY,NA,9.854014598540147,3.8942976356050067
10039,New York County,NY,NA,17.51824817518248,22.94853963838665
10302,Richmond County,NY,NA,NA,82.19749652294854
10303,Richmond County,NY,NA,24.087591240875913,NA
10314,Richmond County,NY,NA,93.61313868613139,NA
10453,Bronx County,NY,NA,7.846715328467154,NA
10454,Bronx County,NY,NA,NA,5.1460361613351875
10456,Bronx County,NY,NA,NA,0
10458,Bronx County,NY,NA,6.021897810218978,NA
10462,Bronx County,NY,1.832460732984293,NA,NA
10466,Bronx County,NY,NA,15.145985401459855,NA
10467,Bronx County,NY,NA,1.2773722627737227,NA
10469,Bronx County,NY,9.031413612565444,NA,NA
10543,Westchester County,NY,NA,NA,87.76077885952712
10550,Westchester County,NY,37.95811518324607,NA,NA
10595,Westchester County,NY,72.25130890052355,NA,NA
10606,Westchester County,NY,NA,21.16788321167883,NA
10703,Westchester County,NY,NA,NA,28.789986091794155
10705,Westchester County,NY,15.837696335078533,NA,NA
10707,Westchester County,NY,NA,81.38686131386861,NA
10801,Westchester County,NY,80.10471204188482,83.029197080291965,NA
10901,Rockland County,NY,NA,NA,78.16411682892907
10956,Rockland County,NY,79.05759162303664,NA,NA
10977,Rockland County,NY,75.52356020942408,NA,NA
10993,Rockland County,NY,NA,NA,99.30458970792768
11203,Kings County,NY,NA,5.839416058394161,NA
11206,Kings County,NY,NA,NA,1.3908205841446455
11209,Kings County,NY,NA,NA,25.452016689847014
11212,Kings County,NY,NA,35.583941605839414,NA
11218,Kings County,NY,NA,NA,13.212795549374132
11221,Kings County,NY,NA,2.3722627737226274,NA
11228,Kings County,NY,NA,NA,50.06954102920723
11233,Kings County,NY,NA,2.737226277372263,NA
11234,Kings County,NY,NA,8.576642335766424,NA
11237,Kings County,NY,NA,12.59124087591241,NA
11354,Queens County,NY,39.659685863874344,NA,NA
11368,Queens County,NY,NA,0.5474452554744526,NA
11373,Queens County,NY,83.63874345549738,NA,NA
11416,Queens County,NY,52.4869109947644,NA,NA
11417,Queens County,NY,70.68062827225131,NA,NA
11434,Queens County,NY,NA,4.37956204379562,NA
11435,Queens County,NY,NA,NA,9.874826147426981
11520,Nassau County,NY,NA,32.11678832116788,NA
11691,Queens County,NY,4.5811518324607325,NA,NA
11722,Suffolk County,NY,46.07329842931937,13.321167883211679,NA
11778,Suffolk County,NY,NA,NA,73.29624478442281
11787,Suffolk County,NY,NA,NA,73.85257301808068
11788,Suffolk County,NY,NA,NA,80.11126564673157
11795,Suffolk County,NY,NA,NA,95.96662030598053
11961,Suffolk County,NY,NA,NA,91.3769123783032
12009,Albany County,NY,NA,75.72992700729927,NA
12020,Saratoga County,NY,NA,NA,16.133518776077885
12077,Albany County,NY,NA,NA,80.25034770514604
12078,Fulton County,NY,12.172774869109947,48.175182481751825,NA
12095,Fulton County,NY,NA,NA,35.60500695410292
12110,Albany County,NY,NA,NA,94.71488178025035
12205,Albany County,NY,NA,NA,43.11543810848401
12304,Schenectady County,NY,NA,22.445255474452555,NA
12401,Ulster County,NY,NA,32.481751824817515,NA
12428,Ulster County,NY,NA,36.31386861313868,NA
12550,Orange County,NY,26.570680628272253,NA,NA
12803,Saratoga County,NY,NA,NA,57.57997218358831
12828,Washington County,NY,62.43455497382199,NA,NA
12986,Franklin County,NY,44.3717277486911,NA,NA
13032,Madison County,NY,NA,NA,25.17385257301808
13092,Cayuga County,NY,79.05759162303664,NA,NA
13132,Oswego County,NY,82.98429319371728,NA,NA
13158,Cortland County,NY,NA,NA,98.88734353268428
13205,Onondaga County,NY,NA,16.970802919708028,NA
13209,Onondaga County,NY,63.089005235602095,NA,NA
13212,Onondaga County,NY,48.42931937172775,NA,NA
13308,Oneida County,NY,77.74869109947645,NA,NA
13363,Oneida County,NY,98.82198952879581,NA,NA
13440,Oneida County,NY,NA,22.99270072992701,22.11404728789986
13656,Jefferson County,NY,NA,NA,90.54242002781642
13790,Broome County,NY,NA,11.13138686131387,7.649513212795549
13905,Broome County,NY,1.0471204188481675,NA,31.571627260083453
14031,Erie County,NY,NA,NA,72.1835883171071
14032,Erie County,NY,69.89528795811518,NA,NA
14092,Niagara County,NY,NA,NA,67.59388038942976
14094,Niagara County,NY,NA,61.131386861313864,NA
14214,Erie County,NY,84.55497382198953,NA,23.504867872044507
14215,Erie County,NY,NA,27.73722627737226,NA
14221,Erie County,NY,50,NA,NA
14224,Erie County,NY,NA,NA,3.7552155771905427
14435,Livingston County,NY,90.96858638743456,NA,NA
14450,Monroe County,NY,4.973821989528796,NA,NA
14513,Wayne County,NY,NA,NA,34.35326842837274
14586,Monroe County,NY,18.32460732984293,NA,NA
14609,Monroe County,NY,NA,NA,0.27816411682892905
14621,Monroe County,NY,NA,3.832116788321168,NA
14623,Monroe County,NY,NA,NA,65.92489568845619
14624,Monroe County,NY,45.54973821989529,NA,NA
14626,Monroe County,NY,3.4031413612565444,NA,14.047287899860919
14701,Chautauqua County,NY,NA,14.051094890510948,13.490959666203059
14760,Cattaraugus County,NY,7.460732984293193,NA,NA
14772,Cattaraugus County,NY,81.02094240837697,NA,NA
14779,Cattaraugus County,NY,NA,NA,98.74826147426981
14870,Steuben County,NY,NA,NA,82.61474269819193
14895,Allegany County,NY,43.717277486910994,NA,NA
14904,Chemung County,NY,NA,21.715328467153284,NA
27017,Surry County,NC,NA,NA,64.53407510431154
27028,Davie County,NC,NA,48.35766423357664,NA
27030,Surry County,NC,56.80628272251309,NA,NA
27040,Forsyth County,NC,NA,NA,58.97079276773296
27107,Forsyth County,NC,58.50785340314136,3.832116788321168,2.920723226703755
27127,Forsyth County,NC,NA,NA,52.990264255910994
27203,Randolph County,NC,76.70157068062828,NA,NA
27288,Rockingham County,NC,NA,NA,11.126564673157164
27292,Davidson County,NC,NA,NA,3.1988873435326846
27295,Davidson County,NC,86.12565445026178,11.496350364963504,NA
27302,Alamance County,NC,NA,52.55474452554745,NA
27320,Rockingham County,NC,NA,13.86861313868613,NA
27330,Lee County,NC,NA,NA,44.22809457579972
27344,Chatham County,NC,NA,37.04379562043796,NA
27501,Harnett County,NC,NA,64.78102189781022,NA
27504,Johnston County,NC,56.41361256544503,NA,NA
27511,Wake County,NC,NA,65.69343065693431,NA
27520,Johnston County,NC,NA,40.51094890510949,NA
27526,Wake County,NC,NA,NA,48.67872044506258
27545,Wake County,NC,NA,NA,35.46592489568845
27592,Wake County,NC,73.56020942408377,74.63503649635037,NA
27596,Franklin County,NC,NA,NA,76.21696801112657
27603,Wake County,NC,NA,NA,17.663421418636997
27609,Wake County,NC,NA,NA,58.136300417246176
27613,Wake County,NC,NA,NA,40.055632823365784
27804,Nash County,NC,NA,87.04379562043796,NA
27834,Pitt County,NC,NA,NA,52.29485396383866
27889,Beaufort County,NC,NA,NA,23.504867872044507
27909,Pasquotank County,NC,NA,81.2043795620438,NA
27958,Currituck County,NC,NA,97.8102189781022,NA
28012,Gaston County,NC,NA,NA,52.155771905424196
28025,Cabarrus County,NC,NA,19.525547445255476,NA
28034,Gaston County,NC,58.7696335078534,NA,NA
28078,Mecklenburg County,NC,NA,NA,24.200278164116828
28079,Union County,NC,59.68586387434554,NA,NA
28090,Cleveland County,NC,NA,NA,57.57997218358831
28112,Union County,NC,NA,NA,37.69123783031989
28117,Iredell County,NC,NA,92.15328467153284,NA
28152,Cleveland County,NC,NA,22.26277372262774,NA
28216,Mecklenburg County,NC,NA,NA,8.205841446453407
28227,Mecklenburg County,NC,NA,13.503649635036496,NA
28270,Mecklenburg County,NC,23.42931937172775,NA,NA
28277,Mecklenburg County,NC,52.4869109947644,NA,NA
28314,Cumberland County,NC,14.00523560209424,NA,NA
28384,Bladen County,NC,NA,50,NA
28532,Craven County,NC,87.69633507853402,NA,NA
28551,Lenoir County,NC,NA,NA,50.76495132127955
28570,Carteret County,NC,67.80104712041884,NA,NA
28602,Catawba County,NC,NA,67.88321167883211,NA
28610,Catawba County,NC,36.38743455497382,NA,NA
28645,Caldwell County,NC,NA,NA,2.5034770514603615
28678,Alexander County,NC,NA,98.17518248175182,NA
28712,Transylvania County,NC,NA,NA,67.4547983310153
28715,Buncombe County,NC,NA,59.67153284671532,NA
28732,Henderson County,NC,82.72251308900523,NA,NA
28752,McDowell County,NC,NA,38.32116788321168,NA
28801,Buncombe County,NC,99.73821989528795,NA,NA
28906,Cherokee County,NC,NA,41.605839416058394,NA
58072,Barnes County,ND,74.60732984293193,NA,NA
58078,Cass County,ND,37.17277486910995,NA,NA
58203,Grand Forks County,ND,77.74869109947645,NA,NA
58501,Burleigh County,ND,NA,NA,68.70653685674549
58504,Burleigh County,ND,NA,88.6861313868613,NA
43040,Union County,OH,NA,88.32116788321169,63.83866481223922
43050,Knox County,OH,8.638743455497382,NA,52.71210013908206
43055,Licking County,OH,48.03664921465969,NA,NA
43056,Licking County,OH,23.16753926701571,NA,NA
43068,Franklin County,OH,1.4397905759162304,NA,NA
43113,Pickaway County,OH,NA,NA,79.41585535465924
43123,Franklin County,OH,88.21989528795811,NA,NA
43130,Fairfield County,OH,31.413612565445025,2.0072992700729926,70.79276773296245
43138,Hocking County,OH,10.732984293193718,NA,NA
43147,Fairfield County,OH,NA,NA,19.33240611961057
43160,Fayette County,OH,67.67015706806284,NA,NA
43204,Franklin County,OH,NA,2.9197080291970803,NA
43207,Franklin County,OH,NA,30.29197080291971,NA
43209,Franklin County,OH,73.56020942408377,NA,NA
43211,Franklin County,OH,NA,6.3868613138686134,NA
43221,Franklin County,OH,NA,NA,55.63282336578581
43227,Franklin County,OH,19.63350785340314,NA,NA
43228,Franklin County,OH,NA,77.91970802919708,NA
43230,Franklin County,OH,NA,53.46715328467153,NA
43231,Franklin County,OH,NA,NA,64.25591098748261
43232,Franklin County,OH,NA,NA,42.97635605006954
43235,Franklin County,OH,61.518324607329845,NA,NA
43302,Marion County,OH,NA,NA,0.9735744089012517
43402,Wood County,OH,16.49214659685864,NA,NA
43528,Lucas County,OH,65.0523560209424,NA,NA
43537,Lucas County,OH,37.56544502617801,NA,NA
43543,Williams County,OH,NA,NA,57.57997218358831
43567,Fulton County,OH,NA,61.67883211678832,NA
43608,Lucas County,OH,66.8848167539267,NA,NA
43609,Lucas County,OH,NA,10.766423357664232,NA
43612,Lucas County,OH,9.947643979057592,NA,3.05980528511822
43613,Lucas County,OH,NA,NA,2.086230876216968
43615,Lucas County,OH,NA,NA,2.2253129346314324
43623,Lucas County,OH,66.75392670157068,NA,47.56606397774687
43783,Perry County,OH,NA,81.56934306569343,NA
43812,Coshocton County,OH,NA,NA,3.616133518776078
43830,Muskingum County,OH,95.41884816753927,NA,NA
43907,Harrison County,OH,NA,42.88321167883212,NA
43920,Columbiana County,OH,NA,NA,7.510431154381085
43950,Belmont County,OH,47.12041884816754,NA,NA
44001,Lorain County,OH,NA,NA,97.07927677329624
44026,Geauga County,OH,NA,NA,97.2183588317107
44050,Lorain County,OH,87.43455497382199,NA,NA
44053,Lorain County,OH,NA,29.014598540145986,NA
44057,Lake County,OH,NA,NA,50.34770514603616
44067,Summit County,OH,45.41884816753927,NA,NA
44077,Lake County,OH,2.6178010471204187,NA,NA
44095,Lake County,OH,NA,27.00729927007299,42.14186369958276
44102,Cuyahoga County,OH,1.1780104712041886,0.18248175182481752,NA
44104,Cuyahoga County,OH,NA,NA,17.2461752433936
44105,Cuyahoga County,OH,NA,NA,4.728789986091794
44110,Cuyahoga County,OH,NA,NA,27.677329624478443
44121,Cuyahoga County,OH,NA,NA,7.927677329624479
44125,Cuyahoga County,OH,30.628272251308903,NA,NA
44129,Cuyahoga County,OH,NA,34.306569343065696,NA
44135,Cuyahoga County,OH,NA,NA,14.186369958275383
44143,Cuyahoga County,OH,NA,NA,55.910987482614736
44202,Portage County,OH,26.701570680628272,NA,NA
44212,Medina County,OH,45.15706806282723,NA,27.816411682892905
44231,Portage County,OH,NA,NA,89.98609179415855
44255,Portage County,OH,NA,NA,62.03059805285118
44266,Portage County,OH,6.282722513089005,NA,NA
44305,Summit County,OH,54.18848167539267,NA,NA
44310,Summit County,OH,NA,NA,9.318497913769123
44420,Trumbull County,OH,NA,28.467153284671532,NA
44446,Trumbull County,OH,NA,31.386861313868614,NA
44460,Columbiana County,OH,NA,14.416058394160583,NA
44471,Mahoning County,OH,NA,NA,43.671766342141865
44512,Mahoning County,OH,4.712041884816754,NA,NA
44615,Carroll County,OH,95.15706806282722,NA,NA
44641,Stark County,OH,98.42931937172776,NA,NA
44644,Carroll County,OH,64.52879581151832,NA,NA
44646,Stark County,OH,NA,NA,8.066759388038943
44647,Stark County,OH,34.68586387434555,NA,88.87343532684284
44703,Stark County,OH,NA,NA,91.09874826147427
44805,Ashland County,OH,NA,30.474452554744524,NA
44857,Huron County,OH,49.21465968586388,NA,NA
44870,Erie County,OH,0.3926701570680628,NA,0.6954102920723227
44906,Richland County,OH,5.49738219895288,NA,NA
45005,Warren County,OH,44.633507853403145,NA,NA
45013,Butler County,OH,NA,NA,1.9471488178025034
45014,Butler County,OH,NA,28.284671532846716,11.96105702364395
45040,Warren County,OH,NA,20.255474452554743,NA
45050,Butler County,OH,83.7696335078534,NA,NA
45103,Clermont County,OH,40.18324607329843,NA,NA
45140,Clermont County,OH,20.680628272251308,NA,NA
45206,Hamilton County,OH,NA,71.8978102189781,NA
45207,Hamilton County,OH,57.72251308900523,NA,NA
45211,Hamilton County,OH,25.916230366492147,NA,NA
45216,Hamilton County,OH,70.28795811518324,NA,81.22392211404728
45223,Hamilton County,OH,NA,31.386861313868614,NA
45231,Hamilton County,OH,NA,NA,6.536856745479833
45236,Hamilton County,OH,NA,NA,91.93324061196105
45238,Hamilton County,OH,NA,NA,70.65368567454799
45241,Hamilton County,OH,63.481675392670155,NA,91.65507649513212
45248,Hamilton County,OH,29.581151832460733,NA,NA
45251,Hamilton County,OH,75.13089005235602,NA,NA
45255,Hamilton County,OH,NA,NA,55.354659248956885
45309,Montgomery County,OH,NA,60.21897810218978,NA
45331,Darke County,OH,NA,NA,20.166898470097358
45335,Greene County,OH,NA,51.82481751824818,NA
45342,Montgomery County,OH,3.664921465968586,8.394160583941606,NA
45345,Montgomery County,OH,NA,50,NA
45383,Miami County,OH,NA,NA,94.85396383866481
45385,Greene County,OH,NA,NA,10.292072322670375
45390,Darke County,OH,NA,91.78832116788321,NA
45404,Montgomery County,OH,NA,16.240875912408757,NA
45406,Montgomery County,OH,NA,46.35036496350365,NA
45410,Montgomery County,OH,NA,NA,33.79694019471488
45415,Montgomery County,OH,NA,NA,65.36856745479834
45440,Montgomery County,OH,94.3717277486911,NA,NA
45459,Montgomery County,OH,29.05759162303665,NA,NA
45503,Clark County,OH,NA,8.94160583941606,NA
45638,Lawrence County,OH,6.020942408376963,NA,NA
45694,Scioto County,OH,NA,29.014598540145986,NA
45714,Washington County,OH,NA,NA,73.15716272600834
45764,Athens County,OH,NA,NA,78.99860917941585
45769,Meigs County,OH,85.34031413612566,NA,NA
45784,Washington County,OH,NA,77.1897810218978,NA
45840,Hancock County,OH,NA,NA,1.6689847009735743
45891,Van Wert County,OH,NA,54.92700729927007,NA
73008,Oklahoma County,OK,NA,93.7956204379562,NA
73012,Oklahoma County,OK,42.27748691099477,NA,NA
73018,Grady County,OK,30.23560209424084,NA,NA
73030,Murray County,OK,49.08376963350785,NA,NA
73069,Cleveland County,OK,NA,NA,54.381084840055635
73099,Canadian County,OK,NA,NA,11.265646731571627
73120,Oklahoma County,OK,55.366492146596855,NA,NA
73130,Oklahoma County,OK,NA,94.52554744525547,NA
73139,Oklahoma County,OK,NA,46.53284671532847,NA
73159,Oklahoma County,OK,NA,NA,37.13490959666203
73170,Cleveland County,OK,20.026178010471206,NA,99.86091794158554
73701,Garfield County,OK,35.20942408376963,NA,NA
74011,Tulsa County,OK,NA,NA,77.05146036161335
74055,Tulsa County,OK,30.104712041884817,NA,NA
74066,Creek County,OK,NA,NA,24.061196105702365
74074,Payne County,OK,49.345549738219894,NA,92.07232267037551
74135,Tulsa County,OK,NA,NA,84.7009735744089
74604,Kay County,OK,NA,NA,71.3490959666203
74745,McCurtain County,OK,NA,45.43795620437956,NA
74820,Pontotoc County,OK,NA,NA,6.815020862308763
97006,Washington County,OR,NA,NA,52.57301808066759
97013,Clackamas County,OR,49.345549738219894,NA,NA
97024,Multnomah County,OR,65.18324607329843,NA,NA
97026,Marion County,OR,NA,94.7080291970803,NA
97045,Clackamas County,OR,59.424083769633505,NA,11.821974965229485
97060,Multnomah County,OR,NA,88.13868613138686,NA
97070,Clackamas County,OR,99.60732984293193,NA,NA
97071,Marion County,OR,NA,22.99270072992701,NA
97080,Multnomah County,OR,NA,NA,63.42141863699583
97124,Washington County,OR,NA,29.744525547445257,NA
97140,Washington County,OR,73.95287958115183,NA,NA
97213,Multnomah County,OR,NA,NA,28.650904033379692
97223,Washington County,OR,76.8324607329843,NA,NA
97224,Washington County,OR,NA,NA,68.9847009735744
97230,Multnomah County,OR,17.93193717277487,NA,NA
97236,Multnomah County,OR,NA,NA,15.99443671766342
97302,Marion County,OR,91.62303664921467,NA,NA
97305,Marion County,OR,76.17801047120419,NA,NA
97321,Linn County,OR,NA,NA,73.85257301808068
97322,Linn County,OR,NA,NA,34.4923504867872
97401,Lane County,OR,31.675392670157066,NA,NA
97402,Lane County,OR,NA,NA,59.80528511821975
97423,Coos County,OR,76.43979057591623,NA,NA
97426,Lane County,OR,NA,75.36496350364963,NA
97448,Lane County,OR,NA,78.1021897810219,NA
97459,Coos County,OR,80.49738219895288,NA,NA
97477,Lane County,OR,NA,NA,81.50208623087622
97479,Douglas County,OR,61.25654450261781,NA,NA
97501,Jackson County,OR,12.958115183246074,NA,NA
97701,Deschutes County,OR,NA,NA,50.34770514603616
97801,Umatilla County,OR,NA,NA,27.26008344923505
97838,Umatilla County,OR,NA,NA,39.082058414464534
15001,Beaver County,PA,80.89005235602095,NA,NA
15044,Allegheny County,PA,NA,62.40875912408759,NA
15102,Allegheny County,PA,45.94240837696335,NA,NA
15108,Allegheny County,PA,NA,NA,31.01529902642559
15136,Allegheny County,PA,NA,NA,22.253129346314328
15143,Allegheny County,PA,41.2303664921466,93.24817518248175,63.282336578581365
15212,Allegheny County,PA,NA,NA,45.8970792767733
15237,Allegheny County,PA,NA,NA,83.86648122392212
15241,Allegheny County,PA,NA,49.81751824817518,NA
15301,Washington County,PA,34.81675392670157,NA,NA
15317,Washington County,PA,NA,NA,90.68150208623088
15445,Fayette County,PA,96.59685863874346,NA,NA
15642,Westmoreland County,PA,NA,NA,88.5952712100139
15853,Elk County,PA,NA,NA,74.26981919332405
15905,Cambria County,PA,NA,NA,38.525730180806676
16117,Lawrence County,PA,67.14659685863874,NA,NA
16323,Venango County,PA,64.65968586387434,NA,NA
16365,Warren County,PA,NA,52.737226277372265,NA
16424,Crawford County,PA,NA,89.78102189781022,NA
16601,Blair County,PA,66.8848167539267,NA,NA
16648,Blair County,PA,91.2303664921466,NA,NA
17015,Cumberland County,PA,32.19895287958115,NA,NA
17022,Lancaster County,PA,NA,NA,13.351877607788595
17033,Dauphin County,PA,NA,NA,54.1029207232267
17078,Lebanon County,PA,NA,NA,66.34214186369958
17090,Perry County,PA,93.717277486911,NA,NA
17110,Dauphin County,PA,NA,42.88321167883212,NA
17319,York County,PA,NA,NA,56.05006954102921
17362,York County,PA,NA,66.970802919708035,NA
17408,York County,PA,45.68062827225131,NA,NA
17512,Lancaster County,PA,43.84816753926701,NA,NA
17543,Lancaster County,PA,NA,NA,45.06258692628651
17547,Lancaster County,PA,NA,87.04379562043796,NA
17551,Lancaster County,PA,81.41361256544502,NA,NA
17584,Lancaster County,PA,NA,NA,72.1835883171071
17601,Lancaster County,PA,51.96335078534031,NA,NA
17603,Lancaster County,PA,NA,17.7007299270073,NA
17801,Northumberland County,PA,NA,96.16788321167883,16.82892906815021
17901,Schuylkill County,PA,5.7591623036649215,NA,NA
17921,Schuylkill County,PA,96.46596858638743,NA,NA
18014,Northampton County,PA,48.69109947643979,NA,NA
18015,Northampton County,PA,69.76439790575915,NA,NA
18049,Lehigh County,PA,NA,77.73722627737226,NA
18052,Lehigh County,PA,NA,79.1970802919708,NA
18062,Lehigh County,PA,7.722513089005235,NA,NA
18088,Northampton County,PA,18.19371727748691,NA,NA
18102,Lehigh County,PA,NA,1.6423357664233578,NA
18103,Lehigh County,PA,NA,NA,19.610570236439496
18222,Luzerne County,PA,NA,NA,93.46314325452016
18229,Carbon County,PA,89.52879581151832,NA,NA
18301,Monroe County,PA,NA,24.45255474452555,NA
18330,Monroe County,PA,NA,72.8102189781022,NA
18360,Monroe County,PA,91.8848167539267,NA,NA
18434,Lackawanna County,PA,NA,NA,85.67454798331016
18517,Lackawanna County,PA,NA,60.21897810218978,NA
18640,Luzerne County,PA,NA,NA,33.936022253129345
18644,Luzerne County,PA,NA,NA,74.1307371349096
18706,Luzerne County,PA,NA,NA,29.902642559109875
18951,Bucks County,PA,NA,NA,15.577190542420027
19010,Delaware County,PA,NA,NA,45.20166898470097
19018,Delaware County,PA,NA,52.737226277372265,NA
19040,Montgomery County,PA,NA,NA,66.62030598052851
19046,Montgomery County,PA,NA,NA,36.8567454798331
19050,Delaware County,PA,14.659685863874344,NA,NA
19054,Bucks County,PA,NA,69.7080291970803,NA
19063,Delaware County,PA,42.67015706806283,NA,NA
19073,Delaware County,PA,37.95811518324607,NA,NA
19083,Delaware County,PA,NA,74.63503649635037,NA
19087,Chester County,PA,17.93193717277487,NA,NA
19094,Delaware County,PA,95.68062827225131,NA,NA
19096,Montgomery County,PA,63.481675392670155,NA,NA
19114,Philadelphia County,PA,NA,NA,15.438108484005564
19123,Philadelphia County,PA,NA,NA,44.08901251738526
19131,Philadelphia County,PA,25.13089005235602,NA,NA
19136,Philadelphia County,PA,14.921465968586386,NA,NA
19149,Philadelphia County,PA,3.7958115183246073,11.313868613138686,5.84144645340751
19151,Philadelphia County,PA,NA,27.00729927007299,NA
19152,Philadelphia County,PA,NA,27.00729927007299,NA
19301,Chester County,PA,55.6282722513089,NA,NA
19312,Chester County,PA,20.81151832460733,NA,NA
19335,Chester County,PA,NA,NA,14.325452016689846
19348,Chester County,PA,NA,76.64233576642336,NA
19363,Chester County,PA,81.80628272251309,NA,NA
19465,Chester County,PA,NA,NA,68.70653685674549
19518,Berks County,PA,55.6282722513089,NA,NA
19604,Berks County,PA,5.104712041884817,NA,10.570236439499304
19606,Berks County,PA,NA,53.284671532846716,NA
19607,Berks County,PA,79.97382198952879,NA,79.83310152990263
02920,Providence County,RI,NA,NA,92.35048678720446
02921,Providence County,RI,81.41361256544502,NA,NA
29053,Lexington County,SC,60.994764397905755,NA,NA
29102,Clarendon County,SC,NA,65.69343065693431,NA
29150,Sumter County,SC,40.575916230366495,NA,NA
29162,Clarendon County,SC,NA,NA,100
29170,Lexington County,SC,62.95811518324608,NA,NA
29203,Richland County,SC,NA,NA,9.735744089012517
29210,Richland County,SC,NA,NA,33.24061196105703
29223,Richland County,SC,20.418848167539267,NA,NA
29229,Richland County,SC,72.5130890052356,NA,NA
29301,Spartanburg County,SC,NA,54.92700729927007,NA
29341,Cherokee County,SC,42.539267015706805,NA,NA
29360,Laurens County,SC,NA,NA,31.432545201668983
29412,Charleston County,SC,NA,NA,55.493741307371344
29486,Berkeley County,SC,NA,NA,46.59248956884562
29501,Florence County,SC,54.05759162303665,NA,NA
29506,Florence County,SC,23.69109947643979,NA,NA
29574,Marion County,SC,NA,69.16058394160584,NA
29576,Horry County,SC,NA,72.44525547445255,NA
29607,Greenville County,SC,NA,93.24817518248175,51.18219749652295
29621,Anderson County,SC,NA,86.4963503649635,NA
29624,Anderson County,SC,98.95287958115183,NA,NA
29627,Anderson County,SC,41.09947643979058,NA,NA
29650,Greenville County,SC,NA,NA,87.89986091794158
29680,Greenville County,SC,NA,NA,87.34353268428373
29730,York County,SC,68.19371727748691,NA,NA
29860,Edgefield County,SC,92.80104712041884,NA,NA
57006,Brookings County,SD,71.20418848167539,NA,NA
57105,Minnehaha County,SD,16.623036649214658,NA,NA
57401,Brown County,SD,NA,NA,56.4673157162726
57501,Hughes County,SD,NA,NA,80.66759388038943
57701,Pennington County,SD,NA,NA,58.55354659248957
37013,Davidson County,TN,21.98952879581152,NA,NA
37015,Cheatham County,TN,44.633507853403145,NA,NA
37066,Sumner County,TN,NA,13.138686131386862,NA
37075,Sumner County,TN,NA,NA,12.934631432545201
37086,Rutherford County,TN,NA,23.357664233576642,NA
37087,Wilson County,TN,11.2565445026178,NA,NA
37115,Davidson County,TN,NA,18.065693430656935,NA
37122,Wilson County,TN,NA,NA,21.41863699582754
37129,Rutherford County,TN,10.078534031413612,NA,NA
37146,Cheatham County,TN,NA,NA,85.1182197496523
37167,Rutherford County,TN,6.806282722513089,NA,NA
37172,Robertson County,TN,NA,20.072992700729927,NA
37207,Davidson County,TN,NA,NA,49.09596662030598
37211,Davidson County,TN,NA,4.927007299270073,NA
37217,Davidson County,TN,NA,NA,33.51877607788595
37311,Bradley County,TN,NA,42.153284671532845,NA
37323,Bradley County,TN,63.481675392670155,59.67153284671532,61.335187760778865
37336,Bradley County,TN,99.08376963350786,NA,NA
37377,Hamilton County,TN,52.35602094240838,NA,NA
37411,Hamilton County,TN,NA,85.40145985401459,NA
37604,Washington County,TN,NA,NA,16.27260083449235
37705,Anderson County,TN,92.80104712041884,NA,NA
37743,Greene County,TN,NA,NA,49.65229485396384
37745,Greene County,TN,NA,NA,72.60083449235049
37760,Jefferson County,TN,NA,NA,48.261474269819196
37763,Roane County,TN,NA,NA,55.21557719054242
37764,Sevier County,TN,77.35602094240838,NA,NA
37887,Morgan County,TN,NA,NA,94.01947148817803
37920,Knox County,TN,16.099476439790575,NA,NA
37923,Knox County,TN,43.324607329842934,NA,NA
38004,Tipton County,TN,NA,89.05109489051095,NA
38017,Shelby County,TN,NA,85.94890510948905,NA
38118,Shelby County,TN,NA,17.335766423357665,NA
38119,Shelby County,TN,55.235602094240846,NA,NA
38128,Shelby County,TN,6.151832460732985,NA,NA
38138,Shelby County,TN,NA,89.96350364963503,NA
38141,Shelby County,TN,NA,19.16058394160584,NA
38305,Madison County,TN,NA,NA,8.484005563282336
38340,Chester County,TN,NA,NA,76.21696801112657
38401,Maury County,TN,NA,NA,5.563282336578582
38464,Lawrence County,TN,NA,NA,53.68567454798331
38485,Wayne County,TN,95.54973821989529,NA,NA
38553,Fentress County,TN,NA,84.12408759124088,NA
38556,Fentress County,TN,NA,72.26277372262774,NA
75019,Dallas County,TX,NA,NA,43.5326842837274
75035,Collin County,TX,NA,51.82481751824818,NA
75041,Dallas County,TX,NA,37.591240875912405,NA
75051,Dallas County,TX,26.701570680628272,NA,NA
75052,Dallas County,TX,NA,6.751824817518248,NA
75060,Dallas County,TX,NA,NA,32.5452016689847
75062,Dallas County,TX,60.20942408376963,NA,37.552155771905426
75075,Collin County,TX,NA,NA,75.93880389429764
75103,Van Zandt County,TX,NA,NA,95.2712100139082
75104,Dallas County,TX,NA,NA,62.30876216968011
75110,Navarro County,TX,17.015706806282722,99.63503649635037,NA
75115,Dallas County,TX,31.02094240837696,NA,NA
75126,Kaufman County,TX,70.54973821989529,NA,NA
75146,Dallas County,TX,16.75392670157068,NA,NA
75149,Dallas County,TX,NA,NA,40.75104311543811
75154,Ellis County,TX,NA,54.56204379562044,NA
75211,Dallas County,TX,4.319371727748691,66.78832116788321,NA
75215,Dallas County,TX,NA,85.21897810218978,NA
75217,Dallas County,TX,NA,5.291970802919708,NA
75227,Dallas County,TX,2.094240837696335,NA,NA
75229,Dallas County,TX,28.272251308900525,NA,NA
75232,Dallas County,TX,72.90575916230367,NA,NA
75237,Dallas County,TX,NA,25,NA
75238,Dallas County,TX,76.30890052356021,NA,NA
75482,Hopkins County,TX,25.654450261780106,NA,NA
75494,Wood County,TX,69.10994764397905,NA,NA
75672,Harrison County,TX,NA,51.45985401459854,NA
75686,Camp County,TX,NA,35.76642335766424,NA
75701,Smith County,TX,13.874345549738221,NA,57.301808066759385
75762,Smith County,TX,NA,NA,64.39499304589708
75961,Nacogdoches County,TX,96.20418848167539,NA,NA
75979,Tyler County,TX,97.38219895287958,NA,NA
76002,Tarrant County,TX,88.35078534031413,NA,NA
76014,Tarrant County,TX,36.78010471204188,NA,NA
76017,Tarrant County,TX,NA,NA,23.9221140472879
76052,Tarrant County,TX,78.1413612565445,NA,NA
76058,Johnson County,TX,71.8586387434555,NA,NA
76087,Parker County,TX,NA,NA,86.36995827538247
76108,Tarrant County,TX,NA,NA,29.624478442280942
76114,Tarrant County,TX,NA,15.875912408759124,NA
76117,Tarrant County,TX,27.87958115183246,NA,NA
76119,Tarrant County,TX,NA,3.64963503649635,NA
76123,Tarrant County,TX,70.15706806282722,70.98540145985402,NA
76179,Tarrant County,TX,7.984293193717278,NA,NA
76180,Tarrant County,TX,NA,NA,32.962447844228095
76374,Young County,TX,NA,NA,97.91376912378304
76424,Stephens County,TX,NA,38.68613138686132,NA
76502,Bell County,TX,NA,NA,53.82475660639777
76528,Coryell County,TX,NA,NA,66.89847009735745
76542,Bell County,TX,NA,11.678832116788321,NA
76549,Bell County,TX,NA,5.656934306569343,NA
76706,McLennan County,TX,13.743455497382199,NA,NA
76707,McLennan County,TX,NA,NA,60.08344923504868
76708,McLennan County,TX,39.26701570680628,NA,NA
77009,Harris County,TX,NA,42.153284671532845,NA
77015,Harris County,TX,NA,14.5985401459854,80.52851182197497
77017,Harris County,TX,NA,44.34306569343065,NA
77019,Harris County,TX,NA,48.35766423357664,NA
77029,Harris County,TX,NA,42.700729927007295,NA
77035,Harris County,TX,NA,NA,32.26703755215577
77036,Harris County,TX,NA,NA,42.42002781641168
77040,Harris County,TX,NA,28.467153284671532,NA
77049,Harris County,TX,NA,72.62773722627736,54.381084840055635
77053,Fort Bend County,TX,NA,6.934306569343065,NA
77060,Harris County,TX,NA,43.613138686131386,NA
77066,Harris County,TX,NA,24.45255474452555,NA
77072,Harris County,TX,NA,2.18978102189781,NA
77075,Harris County,TX,NA,74.45255474452554,NA
77077,Harris County,TX,96.07329842931938,NA,NA
77090,Harris County,TX,60.6020942408377,NA,51.738525730180804
77302,Montgomery County,TX,NA,47.44525547445255,NA
77327,Liberty County,TX,60.34031413612565,NA,NA
77338,Harris County,TX,NA,NA,63.97774687065368
77371,San Jacinto County,TX,NA,NA,78.44228094575799
77373,Harris County,TX,54.31937172774869,NA,NA
77377,Harris County,TX,19.3717277486911,NA,NA
77379,Harris County,TX,53.92670157068062,NA,NA
77396,Harris County,TX,17.015706806282722,NA,NA
77407,Fort Bend County,TX,45.287958115183244,NA,NA
77414,Matagorda County,TX,NA,NA,36.43949930458971
77433,Harris County,TX,3.5340314136125657,87.77372262773723,NA
77469,Fort Bend County,TX,NA,25.547445255474454,66.48122392211405
77489,Fort Bend County,TX,NA,29.744525547445257,22.67037552155772
77494,Fort Bend County,TX,44.24083769633508,NA,NA
77506,Harris County,TX,NA,9.124087591240876,NA
77515,Brazoria County,TX,NA,86.3138686131387,NA
77520,Harris County,TX,NA,NA,34.770514603616135
77541,Brazoria County,TX,21.07329842931937,NA,NA
77550,Galveston County,TX,NA,NA,15.855354659248958
77573,Galveston County,TX,46.8586387434555,NA,8.90125173852573
77583,Brazoria County,TX,73.82198952879581,NA,NA
77590,Galveston County,TX,5.2356020942408374,NA,NA
77630,Orange County,TX,NA,28.102189781021895,NA
77665,Chambers County,TX,NA,NA,90.82058414464534
77802,Brazos County,TX,NA,NA,47.009735744089014
77807,Brazos County,TX,51.047120418848166,NA,NA
77833,Washington County,TX,16.361256544502616,NA,36.8567454798331
77954,DeWitt County,TX,NA,85.76642335766424,NA
78040,Webb County,TX,9.55497382198953,NA,NA
78046,Webb County,TX,NA,NA,12.23922114047288
78155,Guadalupe County,TX,4.450261780104712,NA,NA
78207,Bexar County,TX,NA,12.408759124087592,NA
78213,Bexar County,TX,NA,NA,76.91237830319889
78219,Bexar County,TX,56.937172774869104,NA,NA
78220,Bexar County,TX,33.1151832460733,NA,NA
78223,Bexar County,TX,6.806282722513089,NA,NA
78224,Bexar County,TX,28.272251308900525,NA,NA
78228,Bexar County,TX,NA,30.83941605839416,21.696801112656466
78229,Bexar County,TX,72.64397905759162,NA,NA
78237,Bexar County,TX,NA,15.328467153284672,NA
78239,Bexar County,TX,NA,NA,74.40890125173853
78245,Bexar County,TX,20.94240837696335,26.824817518248175,NA
78247,Bexar County,TX,NA,NA,42.55910987482615
78253,Bexar County,TX,11.649214659685864,NA,NA
78254,Bexar County,TX,10.078534031413612,NA,NA
78258,Bexar County,TX,35.07853403141361,NA,NA
78260,Bexar County,TX,43.06282722513089,NA,NA
78261,Bexar County,TX,NA,77.37226277372264,80.80667593880389
78336,San Patricio County,TX,95.28795811518324,NA,NA
78363,Kleberg County,TX,NA,30.474452554744524,NA
78382,Aransas County,TX,NA,NA,74.68706536856745
78387,San Patricio County,TX,66.36125654450262,NA,NA
78501,Hidalgo County,TX,NA,3.102189781021898,NA
78520,Cameron County,TX,NA,0.7299270072992701,NA
78521,Cameron County,TX,NA,0.36496350364963503,NA
78550,Cameron County,TX,NA,7.2992700729927,NA
78570,Hidalgo County,TX,10.99476439790576,NA,NA
78595,Hidalgo County,TX,NA,86.67883211678831,NA
78610,Hays County,TX,92.5392670157068,NA,NA
78633,Williamson County,TX,NA,NA,94.43671766342142
78641,Williamson County,TX,NA,59.67153284671532,NA
78666,Hays County,TX,46.989528795811516,NA,NA
78681,Williamson County,TX,NA,65.69343065693431,NA
78734,Travis County,TX,NA,NA,86.09179415855354
78737,Hays County,TX,84.68586387434554,NA,NA
78745,Travis County,TX,25.261780104712038,NA,NA
78758,Travis County,TX,NA,29.744525547445257,NA
78801,Uvalde County,TX,25.785340314136125,NA,NA
78834,Dimmit County,TX,73.42931937172776,NA,NA
79108,Potter County,TX,53.010471204188484,NA,NA
79118,Randall County,TX,39.00523560209424,NA,NA
79412,Lubbock County,TX,NA,NA,47.14881780250348
79603,Taylor County,TX,87.30366492146598,NA,NA
79701,Midland County,TX,NA,42.153284671532845,NA
79745,Winkler County,TX,NA,77.37226277372264,NA
79902,El Paso County,TX,NA,99.08759124087592,NA
79903,El Paso County,TX,NA,NA,74.96522948539638
79905,El Paso County,TX,NA,13.686131386861314,NA
79915,El Paso County,TX,NA,NA,42.83727399165508
79924,El Paso County,TX,6.544502617801047,NA,NA
84043,Utah County,UT,NA,NA,36.02225312934632
84057,Utah County,UT,38.481675392670155,NA,NA
84065,Salt Lake County,UT,24.345549738219894,NA,NA
84067,Weber County,UT,69.10994764397905,NA,NA
84074,Tooele County,UT,54.45026178010471,NA,NA
84078,Uintah County,UT,13.219895287958114,NA,NA
84088,Salt Lake County,UT,NA,NA,58.8317107093185
84098,Summit County,UT,73.03664921465969,NA,NA
84104,Salt Lake County,UT,NA,87.95620437956204,NA
84106,Salt Lake County,UT,78.66492146596859,NA,NA
84108,Salt Lake County,UT,94.63350785340315,NA,NA
84120,Salt Lake County,UT,65.70680628272252,NA,NA
84129,,UT,17.408376963350786,NA,NA
84319,Cache County,UT,99.47643979057592,NA,NA
84335,Cache County,UT,88.87434554973822,NA,NA
84403,Weber County,UT,83.37696335078533,NA,NA
84648,Juab County,UT,NA,NA,82.05841446453408
84653,Utah County,UT,68.717277486911,NA,NA
05401,Chittenden County,VT,NA,NA,39.91655076495132
05446,Chittenden County,VT,75.26178010471205,NA,52.43393602225312
05452,Chittenden County,VT,NA,NA,46.73157162726008
05753,Addison County,VT,NA,NA,79.55493741307372
20111,Prince William County,VA,59.81675392670157,NA,NA
20112,Prince William County,VA,NA,NA,63.42141863699583
20136,Prince William County,VA,48.167539267015705,NA,NA
20165,Loudoun County,VA,33.90052356020942,97.08029197080292,NA
20171,Fairfax County,VA,NA,NA,41.307371349095966
22015,Fairfax County,VA,NA,75.72992700729927,NA
22044,Fairfax County,VA,NA,NA,95.6884561891516
22101,Fairfax County,VA,27.225130890052355,NA,NA
22204,Arlington County,VA,10.340314136125654,NA,NA
22207,Arlington County,VA,29.31937172774869,NA,NA
22405,Stafford County,VA,NA,43.79562043795621,NA
22901,Albemarle County,VA,13.350785340314136,NA,NA
23061,Gloucester County,VA,51.047120418848166,NA,75.52155771905424
23139,Powhatan County,VA,NA,NA,59.248956884561885
23181,King William County,VA,NA,84.85401459854015,NA
23231,Henrico County,VA,NA,NA,18.776077885952713
23233,Henrico County,VA,NA,NA,70.9318497913769
23325,Chesapeake city,VA,NA,38.68613138686132,NA
23430,Isle of Wight County,VA,92.67015706806284,NA,NA
23452,Virginia Beach city,VA,NA,NA,17.941585535465926
23455,Virginia Beach city,VA,NA,41.605839416058394,63.00417246175244
23464,Virginia Beach city,VA,3.0104712041884816,NA,NA
23513,Norfolk city,VA,25.261780104712038,NA,NA
23601,Newport News city,VA,NA,20.802919708029197,NA
23605,Newport News city,VA,NA,NA,40.47287899860918
23607,Newport News city,VA,NA,NA,59.38803894297635
23608,Newport News city,VA,NA,29.56204379562044,NA
23834,Colonial Heights city,VA,56.282722513089,NA,NA
23930,Nottoway County,VA,NA,74.63503649635037,NA
24017,Roanoke city,VA,46.46596858638743,NA,NA
24018,Roanoke County,VA,NA,NA,65.5076495132128
24179,Roanoke County,VA,NA,75.54744525547446,NA
24230,Wise County,VA,NA,45.25547445255474,NA
24360,Wythe County,VA,NA,80.65693430656934,NA
24477,Augusta County,VA,35.73298429319372,NA,NA
24521,Amherst County,VA,NA,62.04379562043796,NA
24523,Bedford County,VA,NA,NA,24.33936022253129
98011,King County,WA,NA,NA,47.70514603616133
98022,King County,WA,94.50261780104712,NA,NA
98028,King County,WA,NA,NA,62.03059805285118
98034,King County,WA,NA,NA,25.312934631432544
98038,King County,WA,10.863874345549739,NA,NA
98042,King County,WA,86.64921465968587,NA,13.630041724617525
98052,King County,WA,36.518324607329845,NA,NA
98072,King County,WA,NA,NA,51.87760778859527
98092,King County,WA,27.87958115183246,NA,19.471488178025034
98107,King County,WA,NA,NA,58.692628650904034
98115,King County,WA,50.13089005235602,NA,NA
98146,King County,WA,35.73298429319372,NA,NA
98155,King County,WA,NA,NA,75.79972183588318
98168,King County,WA,NA,NA,25.034770514603615
98204,Snohomish County,WA,NA,NA,20.30598052851182
98221,Skagit County,WA,NA,NA,52.01668984700974
98223,Snohomish County,WA,31.02094240837696,NA,NA
98282,Island County,WA,NA,81.56934306569343,NA
98292,Snohomish County,WA,88.7434554973822,NA,99.58275382475661
98373,Pierce County,WA,89.79057591623037,NA,NA
98387,Pierce County,WA,89.92146596858639,NA,NA
98391,Pierce County,WA,95.02617801047121,NA,NA
98404,Pierce County,WA,NA,NA,54.79833101529903
98408,Pierce County,WA,NA,NA,95.54937413073714
98503,Thurston County,WA,66.09947643979058,NA,NA
98506,Thurston County,WA,NA,NA,64.81223922114047
98512,Thurston County,WA,NA,NA,86.6481223922114
98541,Grays Harbor County,WA,NA,NA,66.20305980528511
98584,Mason County,WA,NA,NA,26.286509040333794
98604,Clark County,WA,NA,88.5036496350365,NA
98611,Cowlitz County,WA,87.04188481675392,NA,NA
98626,Cowlitz County,WA,NA,NA,35.04867872044507
98674,Cowlitz County,WA,80.36649214659685,NA,NA
98683,Clark County,WA,72.77486910994764,NA,NA
98684,Clark County,WA,NA,NA,92.76773296244785
98685,Clark County,WA,92.14659685863874,NA,NA
98837,Grant County,WA,13.089005235602095,NA,NA
99212,Spokane County,WA,89.26701570680629,NA,NA
99324,Walla Walla County,WA,NA,NA,73.01808066759388
20001,District of Columbia,DC,NA,NA,60.22253129346314
20016,District of Columbia,DC,31.93717277486911,NA,61.75243393602226
20019,District of Columbia,DC,3.2722513089005236,NA,NA
20020,District of Columbia,DC,NA,NA,1.1126564673157162
20032,District of Columbia,DC,NA,33.75912408759124,NA
25314,Kanawha County,WV,89.13612565445025,NA,NA
25320,Kanawha County,WV,NA,NA,71.90542420027816
25401,Berkeley County,WV,NA,35.4014598540146,NA
25411,Morgan County,WV,73.29842931937172,NA,NA
25530,Wayne County,WV,92.80104712041884,NA,NA
26505,Monongalia County,WV,22.5130890052356,NA,NA
26537,Preston County,WV,NA,NA,71.21001390820584
26547,Preston County,WV,75.91623036649214,NA,NA
53005,Waukesha County,WI,81.93717277486911,NA,NA
53014,Calumet County,WI,88.61256544502618,NA,NA
53027,Washington County,WI,NA,NA,56.745479833101534
53045,Waukesha County,WI,NA,NA,72.04450625869264
53073,Sheboygan County,WI,NA,NA,71.62726008344924
53095,Washington County,WI,12.041884816753926,NA,NA
53104,Kenosha County,WI,NA,NA,83.58831710709318
53115,Walworth County,WI,55.890052356020945,NA,NA
53129,Milwaukee County,WI,NA,NA,98.47009735744089
53132,Milwaukee County,WI,NA,NA,80.3894297635605
53140,Kenosha County,WI,NA,NA,10.15299026425591
53182,Racine County,WI,81.41361256544502,NA,NA
53208,Milwaukee County,WI,NA,52.37226277372263,NA
53209,Milwaukee County,WI,28.534031413612563,NA,NA
53222,Milwaukee County,WI,NA,NA,81.08484005563282
53223,Milwaukee County,WI,NA,NA,65.22948539638386
53226,Milwaukee County,WI,NA,90.69343065693431,NA
53227,Milwaukee County,WI,NA,92.7007299270073,27.955493741307368
53235,Milwaukee County,WI,94.10994764397905,NA,NA
53402,Racine County,WI,61.64921465968587,NA,20.027816411682892
53406,Racine County,WI,34.29319371727749,NA,NA
53532,Dane County,WI,NA,NA,57.57997218358831
53538,Jefferson County,WI,NA,58.21167883211679,NA
53548,Rock County,WI,NA,NA,19.749652294853963
53590,Dane County,WI,NA,NA,29.48539638386648
53593,Dane County,WI,57.19895287958116,NA,NA
53703,Dane County,WI,NA,NA,84.97913769123782
53704,Dane County,WI,12.56544502617801,NA,29.207232267037554
53705,Dane County,WI,88.08900523560209,NA,NA
53719,Dane County,WI,NA,63.503649635036496,NA
53818,Grant County,WI,62.43455497382199,NA,NA
53901,Columbia County,WI,NA,56.934306569343065,NA
53948,Juneau County,WI,NA,48.9051094890511,NA
54014,Pierce County,WI,82.98429319371728,NA,NA
54020,Polk County,WI,NA,NA,82.336578581363
54115,Brown County,WI,NA,64.59854014598541,NA
54166,Shawano County,WI,49.73821989528796,NA,NA
54169,Calumet County,WI,100,NA,NA
54241,Manitowoc County,WI,NA,NA,74.54798331015299
54311,Brown County,WI,NA,NA,97.77468706536857
54452,Lincoln County,WI,NA,58.75912408759124,NA
54476,Marathon County,WI,NA,NA,65.0904033379694
54601,La Crosse County,WI,NA,NA,22.39221140472879
54650,La Crosse County,WI,37.303664921465966,NA,NA
54703,Eau Claire County,WI,NA,NA,70.09735744089014
54720,Eau Claire County,WI,NA,NA,97.35744089012516
54724,Chippewa County,WI,68.06282722513089,NA,NA
54901,Winnebago County,WI,NA,NA,20.86230876216968
54911,Outagamie County,WI,78.1413612565445,NA,NA
54935,Fond du Lac County,WI,NA,NA,12.378303198887343
54937,Fond du Lac County,WI,NA,NA,34.909596662030594
54956,Winnebago County,WI,NA,NA,20.445062586926284
54961,Waupaca County,WI,NA,NA,46.03616133518776
82072,Albany County,WY,NA,NA,99.02642559109874
82435,Park County,WY,NA,NA,89.4297635605007
82718,Campbell County,WY,51.57068062827225,NA,NA
