ZipCode,county,state,Youth,Pediatric,Adult
35004,St. Clair County,AL,NA,41.895261845386536,NA
35007,Shelby County,AL,NA,68.82793017456359,NA
35040,Shelby County,AL,NA,NA,40.6015037593985
35045,Chilton County,AL,NA,NA,52.443609022556394
35071,Jefferson County,AL,NA,NA,97.93233082706767
35077,Cullman County,AL,NA,67.58104738154613,NA
35080,Shelby County,AL,NA,NA,48.87218045112782
35111,Tuscaloosa County,AL,NA,61.84538653366584,NA
35121,Blount County,AL,66.10455311973018,NA,NA
35146,St. Clair County,AL,93.76053962900505,NA,NA
35210,Jefferson County,AL,NA,71.571072319202,NA
35211,Jefferson County,AL,36.08768971332209,NA,NA
35212,Jefferson County,AL,NA,80.0498753117207,NA
35215,Jefferson County,AL,NA,12.967581047381547,NA
35633,Lauderdale County,AL,NA,NA,45.48872180451128
35640,Morgan County,AL,16.020236087689714,NA,NA
35903,Etowah County,AL,51.09612141652614,NA,NA
35950,Marshall County,AL,NA,NA,34.774436090225564
36037,Butler County,AL,NA,50.87281795511222,NA
36110,Montgomery County,AL,37.77403035413153,NA,45.30075187969925
36201,Calhoun County,AL,NA,NA,20.30075187969925
36203,Calhoun County,AL,37.77403035413153,NA,NA
36421,Covington County,AL,96.964586846543,NA,NA
36451,Clarke County,AL,NA,NA,79.32330827067669
36502,Escambia County,AL,31.703204047217536,NA,NA
36526,Baldwin County,AL,26.475548060708263,NA,NA
36532,Baldwin County,AL,26.812816188870155,54.862842892768086,NA
36567,Baldwin County,AL,NA,87.28179551122194,NA
36832,Lee County,AL,64.92411467116358,NA,NA
36867,Russell County,AL,83.97976391231029,NA,NA
36870,Lee County,AL,NA,76.55860349127181,NA
99577,Anchorage Municipality,AK,51.77065767284992,NA,NA
99645,Matanuska-Susitna Borough,AK,11.467116357504215,NA,NA
85008,Maricopa County,AZ,NA,5.236907730673317,NA
85023,Maricopa County,AZ,NA,NA,51.127819548872175
85029,Maricopa County,AZ,5.564924114671164,NA,NA
85031,Maricopa County,AZ,NA,NA,68.23308270676691
85037,Maricopa County,AZ,NA,14.713216957605985,NA
85041,Maricopa County,AZ,NA,10.972568578553615,NA
85042,Maricopa County,AZ,NA,NA,49.43609022556391
85048,Maricopa County,AZ,20.9106239460371,NA,NA
85053,Maricopa County,AZ,24.45193929173693,NA,NA
85087,Maricopa County,AZ,NA,NA,81.01503759398496
85203,Maricopa County,AZ,16.863406408094438,22.693266832917704,NA
85213,Maricopa County,AZ,25.463743676222595,NA,NA
85248,Maricopa County,AZ,60.37099494097807,NA,NA
85259,Maricopa County,AZ,NA,NA,72.93233082706767
85286,Maricopa County,AZ,16.694772344013494,NA,NA
85379,Maricopa County,AZ,NA,NA,23.308270676691727
85383,Maricopa County,AZ,43.17032040472175,NA,81.39097744360903
85396,Maricopa County,AZ,83.47386172006746,NA,NA
85615,Cochise County,AZ,86.3406408094435,NA,NA
85635,Cochise County,AZ,NA,58.60349127182045,NA
85705,Pima County,AZ,NA,NA,2.443609022556391
85715,Pima County,AZ,NA,NA,67.66917293233082
85937,Navajo County,AZ,NA,NA,89.47368421052632
86004,Coconino County,AZ,1.3490725126475547,NA,NA
86005,Coconino County,AZ,82.96795952782462,NA,NA
86033,Navajo County,AZ,NA,NA,53.19548872180451
86045,Coconino County,AZ,NA,8.478802992518704,NA
86401,Mohave County,AZ,NA,NA,6.954887218045112
86503,Apache County,AZ,NA,NA,28.195488721804512
71603,Jefferson County,AR,19.898819561551434,NA,NA
72019,Saline County,AR,56.323777403035415,NA,NA
72315,Mississippi County,AR,37.268128161888704,NA,NA
72543,Cleburne County,AR,NA,NA,55.45112781954887
72745,Benton County,AR,90.21922428330524,NA,NA
72801,Pope County,AR,55.98650927487352,NA,NA
90003,Los Angeles County,CA,NA,8.229426433915211,NA
90004,Los Angeles County,CA,NA,NA,36.65413533834587
90011,Los Angeles County,CA,NA,4.987531172069826,NA
90022,Los Angeles County,CA,NA,NA,29.51127819548872
90023,Los Angeles County,CA,33.22091062394604,NA,NA
90201,Los Angeles County,CA,NA,6.483790523690773,68.796992481203
90220,Los Angeles County,CA,NA,NA,26.31578947368421
90248,Los Angeles County,CA,NA,79.55112219451371,NA
90250,Los Angeles County,CA,NA,86.28428927680798,NA
90262,Los Angeles County,CA,NA,11.221945137157107,28.007518796992482
90275,Los Angeles County,CA,NA,97.0074812967581,84.02255639097744
90503,Los Angeles County,CA,NA,83.54114713216958,NA
90605,Los Angeles County,CA,NA,NA,46.804511278195484
90650,Los Angeles County,CA,54.80607082630692,44.88778054862843,NA
90805,Los Angeles County,CA,NA,6.982543640897755,13.157894736842104
90815,Los Angeles County,CA,NA,NA,41.54135338345865
91331,Los Angeles County,CA,NA,4.738154613466334,NA
91402,Los Angeles County,CA,NA,NA,50.56390977443609
91711,Los Angeles County,CA,89.7133220910624,NA,74.06015037593986
91732,Los Angeles County,CA,NA,15.211970074812967,NA
91739,San Bernardino County,CA,NA,85.03740648379052,NA
91765,Los Angeles County,CA,NA,NA,56.954887218045116
91766,Los Angeles County,CA,NA,27.431421446384043,NA
91901,San Diego County,CA,80.26981450252951,NA,NA
91910,San Diego County,CA,NA,NA,75.37593984962406
91911,San Diego County,CA,NA,NA,46.99248120300752
91942,San Diego County,CA,71.8381112984823,NA,NA
91945,San Diego County,CA,67.62225969645868,NA,NA
91950,San Diego County,CA,NA,NA,29.887218045112785
91977,San Diego County,CA,NA,17.955112219451372,NA
92008,San Diego County,CA,96.62731871838112,NA,NA
92065,San Diego County,CA,NA,46.13466334164589,67.4812030075188
92069,San Diego County,CA,56.82967959527825,67.33167082294264,NA
92071,San Diego County,CA,NA,NA,18.60902255639098
92083,San Diego County,CA,NA,14.463840399002494,NA
92114,San Diego County,CA,NA,37.905236907730675,NA
92123,San Diego County,CA,27.82462057335582,NA,NA
92124,San Diego County,CA,67.11635750421586,NA,NA
92126,San Diego County,CA,NA,70.32418952618454,NA
92173,San Diego County,CA,24.11467116357504,NA,NA
92203,Riverside County,CA,78.58347386172007,NA,NA
92236,Riverside County,CA,NA,20.698254364089774,NA
92345,San Bernardino County,CA,20.404721753794266,NA,NA
92392,San Bernardino County,CA,6.57672849915683,NA,NA
92407,San Bernardino County,CA,NA,69.82543640897757,NA
92504,Riverside County,CA,37.09949409780776,NA,NA
92506,Riverside County,CA,NA,NA,61.09022556390977
92553,Riverside County,CA,NA,7.73067331670823,20.48872180451128
92562,Riverside County,CA,NA,NA,92.4812030075188
92587,Riverside County,CA,NA,79.55112219451371,NA
92626,Orange County,CA,27.318718381112983,NA,NA
92646,Orange County,CA,34.06408094435076,NA,NA
92663,Orange County,CA,NA,NA,87.78195488721805
92683,Orange County,CA,NA,27.680798004987533,NA
92691,Orange County,CA,40.13490725126476,NA,NA
92780,Orange County,CA,NA,NA,30.639097744360903
92801,Orange County,CA,NA,24.688279301745634,NA
92805,Orange County,CA,NA,NA,19.172932330827066
92835,Orange County,CA,81.95615514333895,NA,NA
92882,Riverside County,CA,NA,NA,52.255639097744364
93033,Ventura County,CA,NA,15.96009975062344,NA
93060,Ventura County,CA,NA,NA,30.075187969924812
93063,Ventura County,CA,23.27150084317032,NA,NA
93257,Tulare County,CA,NA,NA,80.26315789473685
93280,Kern County,CA,NA,41.64588528678304,NA
93291,Tulare County,CA,NA,NA,15.789473684210526
93292,Tulare County,CA,NA,74.56359102244389,NA
93312,Kern County,CA,NA,57.85536159600998,NA
93433,San Luis Obispo County,CA,NA,NA,66.35338345864662
93454,Santa Barbara County,CA,51.93929173693086,NA,NA
93535,Los Angeles County,CA,NA,26.433915211970078,NA
93631,Fresno County,CA,NA,64.83790523690773,NA
93637,Madera County,CA,NA,NA,69.54887218045113
93638,Madera County,CA,59.527824620573355,NA,NA
93702,Fresno County,CA,5.902192242833052,NA,NA
93705,Fresno County,CA,NA,NA,26.691729323308273
93722,Fresno County,CA,NA,19.950124688279303,71.61654135338345
93723,Fresno County,CA,61.2141652613828,NA,NA
93726,Fresno County,CA,NA,71.82044887780549,60.526315789473685
94010,San Mateo County,CA,69.64586846543001,NA,NA
94404,San Mateo County,CA,89.88195615514334,NA,NA
94521,Contra Costa County,CA,29.51096121416526,NA,NA
94561,Contra Costa County,CA,NA,NA,32.33082706766917
94591,Solano County,CA,40.80944350758853,NA,55.82706766917293
94598,Contra Costa County,CA,48.22934232715008,NA,NA
94601,Alameda County,CA,13.827993254637436,NA,NA
94619,Alameda County,CA,56.323777403035415,NA,NA
94621,Alameda County,CA,26.475548060708263,NA,NA
94801,Contra Costa County,CA,NA,48.6284289276808,NA
94901,Marin County,CA,NA,48.12967581047381,NA
95035,Santa Clara County,CA,66.77908937605397,NA,NA
95037,Santa Clara County,CA,NA,NA,45.86466165413533
95118,Santa Clara County,CA,91.39966273187183,NA,NA
95125,Santa Clara County,CA,85.16020236087691,NA,NA
95132,Santa Clara County,CA,NA,NA,85.90225563909775
95136,Santa Clara County,CA,46.711635750421586,NA,NA
95148,Santa Clara County,CA,NA,70.57356608478803,NA
95240,San Joaquin County,CA,NA,NA,65.22556390977444
95242,San Joaquin County,CA,71.33220910623946,NA,NA
95249,Calaveras County,CA,94.94097807757167,NA,NA
95301,Merced County,CA,NA,52.119700748129674,NA
95336,San Joaquin County,CA,NA,21.94513715710723,NA
95355,Stanislaus County,CA,28.161888701517707,NA,NA
95367,Stanislaus County,CA,NA,63.092269326683294,NA
95608,Sacramento County,CA,NA,NA,33.08270676691729
95621,Sacramento County,CA,17.875210792580102,NA,NA
95632,Sacramento County,CA,NA,25.43640897755611,NA
95673,Sacramento County,CA,NA,NA,96.80451127819549
95687,Solano County,CA,79.93254637436762,NA,NA
95691,Yolo County,CA,46.711635750421586,NA,NA
95742,Sacramento County,CA,85.83473861720068,NA,NA
95833,Sacramento County,CA,NA,59.10224438902743,33.45864661654135
95838,Sacramento County,CA,NA,66.08478802992519,NA
95843,Sacramento County,CA,NA,53.36658354114713,NA
95926,Butte County,CA,53.62563237774031,NA,NA
95961,Yuba County,CA,NA,80.29925187032418,NA
96002,Shasta County,CA,NA,NA,46.2406015037594
96021,Tehama County,CA,NA,50.12468827930174,NA
96022,Tehama County,CA,NA,94.51371571072319,NA
96094,Siskiyou County,CA,97.97639123102867,NA,NA
80011,Arapahoe County,CO,NA,NA,23.684210526315788
80012,Arapahoe County,CO,NA,12.468827930174564,NA
80016,Arapahoe County,CO,2.360876897133221,NA,NA
80020,Broomfield County,CO,8.768971332209107,NA,NA
80022,Adams County,CO,5.396290050590219,NA,NA
80104,Douglas County,CO,22.765598650927487,NA,NA
80123,Jefferson County,CO,28.836424957841484,NA,NA
80127,Jefferson County,CO,NA,NA,38.34586466165413
80129,Douglas County,CO,95.61551433389545,NA,NA
80134,Douglas County,CO,38.61720067453626,NA,NA
80209,Denver County,CO,96.29005059021922,NA,NA
80211,Denver County,CO,63.91231028667791,NA,NA
80215,Jefferson County,CO,97.63912310286678,NA,NA
80221,Adams County,CO,14.165261382799327,NA,NA
80226,Jefferson County,CO,NA,29.177057356608476,NA
80229,Adams County,CO,48.06070826306914,10.224438902743142,11.090225563909774
80503,Boulder County,CO,78.24620573355818,NA,NA
80525,Larimer County,CO,NA,22.443890274314214,NA
80528,Larimer County,CO,23.440134907251263,NA,NA
80537,Larimer County,CO,NA,NA,44.17293233082707
80701,Morgan County,CO,14.502529510961216,NA,NA
80817,El Paso County,CO,84.99156829679595,NA,NA
80831,El Paso County,CO,45.86846543001686,NA,NA
80908,El Paso County,CO,53.79426644182125,NA,NA
06033,Hartford County,CT,NA,78.05486284289277,NA
06095,Hartford County,CT,NA,NA,33.08270676691729
06105,Hartford County,CT,36.76222596964587,NA,NA
06106,Hartford County,CT,NA,NA,3.571428571428571
06112,Hartford County,CT,NA,90.02493765586036,NA
06405,New Haven County,CT,NA,NA,62.03007518796993
06415,New London County,CT,82.63069139966274,NA,NA
06514,New Haven County,CT,25.801011804384487,90.27431421446383,NA
06604,Fairfield County,CT,NA,NA,43.42105263157895
06606,Fairfield County,CT,NA,8.977556109725686,NA
06708,New Haven County,CT,NA,NA,61.65413533834586
06779,Litchfield County,CT,NA,79.05236907730672,NA
06790,Litchfield County,CT,NA,35.910224438902745,NA
19701,New Castle County,DE,NA,30.92269326683292,NA
19808,New Castle County,DE,22.765598650927487,NA,NA
19934,Kent County,DE,41.65261382799326,NA,NA
19958,Sussex County,DE,NA,NA,27.25563909774436
32068,Clay County,FL,NA,NA,9.210526315789473
32127,Volusia County,FL,NA,77.0573566084788,NA
32129,Volusia County,FL,NA,68.3291770573566,NA
32137,Flagler County,FL,33.22091062394604,NA,NA
32205,Duval County,FL,NA,NA,50.37593984962406
32218,Duval County,FL,NA,16.458852867830423,NA
32224,Duval County,FL,NA,NA,48.49624060150376
32225,Duval County,FL,62.731871838111296,NA,NA
32234,Duval County,FL,87.85834738617201,NA,NA
32244,Duval County,FL,18.21247892074199,NA,NA
32310,Leon County,FL,NA,93.76558603491272,NA
32409,Bay County,FL,80.94435075885329,NA,NA
32424,Calhoun County,FL,73.0185497470489,NA,NA
32444,Bay County,FL,NA,37.905236907730675,NA
32503,Escambia County,FL,NA,NA,60.150375939849624
32539,Okaloosa County,FL,NA,NA,33.64661654135339
32609,Alachua County,FL,NA,59.60099750623441,NA
32640,Putnam County,FL,NA,99.50124688279301,NA
32712,Orange County,FL,64.58684654300168,NA,NA
32725,Volusia County,FL,19.224283305227654,NA,NA
32750,Seminole County,FL,NA,92.01995012468828,NA
32780,Brevard County,FL,NA,28.92768079800499,NA
32792,Orange County,FL,NA,NA,84.9624060150376
32804,Orange County,FL,64.41821247892075,NA,NA
32837,Orange County,FL,NA,23.44139650872818,NA
32907,Brevard County,FL,NA,26.932668329177055,NA
32958,Indian River County,FL,NA,73.81546134663341,NA
33016,Miami-Dade County,FL,NA,NA,82.89473684210526
33034,Miami-Dade County,FL,NA,43.391521197007485,NA
33054,Miami-Dade County,FL,82.29342327150084,NA,NA
33056,Miami-Dade County,FL,NA,35.910224438902745,NA
33135,Miami-Dade County,FL,NA,75.31172069825436,NA
33138,Miami-Dade County,FL,NA,29.42643391521197,NA
33142,Miami-Dade County,FL,NA,9.226932668329177,14.285714285714285
33147,Miami-Dade County,FL,NA,18.453865336658353,NA
33156,Miami-Dade County,FL,NA,83.54114713216958,NA
33165,Miami-Dade County,FL,NA,91.77057356608479,NA
33172,Miami-Dade County,FL,69.98313659359191,NA,NA
33175,Miami-Dade County,FL,NA,NA,88.90977443609023
33179,Miami-Dade County,FL,26.30691399662732,NA,NA
33185,Miami-Dade County,FL,41.14671163575042,NA,NA
33186,Miami-Dade County,FL,1.854974704890388,NA,NA
33187,Miami-Dade County,FL,NA,93.51620947630923,NA
33189,Miami-Dade County,FL,NA,32.66832917705736,NA
33313,Broward County,FL,NA,NA,43.796992481203006
33330,Broward County,FL,60.70826306913997,NA,NA
33351,Broward County,FL,34.232715008431704,NA,NA
33407,Palm Beach County,FL,NA,15.46134663341646,NA
33417,Palm Beach County,FL,NA,NA,48.1203007518797
33428,Palm Beach County,FL,NA,64.83790523690773,NA
33432,Palm Beach County,FL,NA,NA,75.75187969924812
33467,Palm Beach County,FL,61.88870151770658,NA,NA
33527,Hillsborough County,FL,95.27824620573357,NA,NA
33570,Hillsborough County,FL,NA,33.915211970074814,NA
33610,Hillsborough County,FL,4.721753794266442,NA,NA
33637,Hillsborough County,FL,NA,86.53366583541147,NA
33713,Pinellas County,FL,NA,NA,43.984962406015036
33765,Pinellas County,FL,NA,33.915211970074814,NA
33803,Polk County,FL,NA,NA,51.691729323308266
33823,Polk County,FL,92.0741989881956,NA,NA
33838,Polk County,FL,NA,92.01995012468828,NA
33904,Lee County,FL,NA,NA,31.57894736842105
33972,Lee County,FL,NA,57.356608478803,NA
34117,Collier County,FL,NA,NA,56.20300751879699
34203,Manatee County,FL,56.99831365935919,NA,NA
34212,Manatee County,FL,43.00168634064081,NA,NA
34243,Manatee County,FL,NA,67.08229426433915,NA
34266,DeSoto County,FL,42.158516020236085,NA,NA
34470,Marion County,FL,NA,NA,41.72932330827068
34482,Marion County,FL,NA,98.00498753117208,NA
34690,Pasco County,FL,NA,NA,60.902255639097746
34746,Osceola County,FL,92.24283305227657,46.88279301745636,NA
34748,Lake County,FL,34.90725126475548,NA,NA
34771,Osceola County,FL,73.69308600337267,NA,NA
34983,St. Lucie County,FL,NA,NA,16.729323308270676
30013,Rockdale County,GA,NA,47.880299251870326,NA
30016,Newton County,GA,NA,NA,9.962406015037594
30019,Gwinnett County,GA,NA,65.5860349127182,NA
30024,Gwinnett County,GA,13.659359190556492,NA,NA
30032,DeKalb County,GA,NA,NA,9.586466165413533
30035,DeKalb County,GA,NA,NA,47.93233082706767
30041,Forsyth County,GA,NA,NA,21.428571428571427
30044,Gwinnett County,GA,11.63575042158516,NA,NA
30046,Gwinnett County,GA,NA,25.6857855361596,NA
30055,Jasper County,GA,93.42327150084317,NA,NA
30062,Cobb County,GA,NA,NA,63.1578947368421
30134,Douglas County,GA,NA,NA,18.421052631578945
30165,Floyd County,GA,76.0539629005059,NA,NA
30253,Henry County,GA,NA,24.189526184538654,NA
30265,Coweta County,GA,NA,NA,42.4812030075188
30273,Clayton County,GA,NA,50.12468827930174,NA
30286,Upson County,GA,NA,NA,41.91729323308271
30294,DeKalb County,GA,31.02866779089376,NA,NA
30296,Clayton County,GA,NA,30.673316708229425,NA
30311,Fulton County,GA,NA,20.199501246882793,NA
30312,Fulton County,GA,NA,84.53865336658353,NA
30329,DeKalb County,GA,63.06913996627319,NA,NA
30331,Fulton County,GA,5.059021922428331,NA,NA
30344,Fulton County,GA,NA,22.693266832917704,NA
30345,DeKalb County,GA,NA,NA,96.42857142857143
30518,Gwinnett County,GA,NA,37.1571072319202,NA
30540,Gilmer County,GA,NA,55.86034912718204,NA
30650,Morgan County,GA,NA,NA,56.57894736842105
30701,Gordon County,GA,NA,53.36658354114713,NA
30725,Walker County,GA,83.13659359190557,NA,NA
30736,Catoosa County,GA,12.141652613827993,NA,NA
30738,Dade County,GA,NA,NA,87.96992481203007
30904,Richmond County,GA,28.330522765598655,NA,NA
31014,Bleckley County,GA,NA,NA,74.62406015037594
31093,Houston County,GA,NA,NA,26.879699248120303
31204,Bibb County,GA,68.63406408094434,NA,NA
31206,Bibb County,GA,45.531197301854974,20.947630922693268,NA
31324,Bryan County,GA,NA,91.52119700748129,NA
31406,Chatham County,GA,31.703204047217536,NA,NA
31525,Glynn County,GA,NA,NA,42.10526315789473
31533,Coffee County,GA,NA,NA,77.25563909774436
31632,Lowndes County,GA,NA,NA,88.7218045112782
31709,Sumter County,GA,NA,NA,72.55639097744361
96707,Honolulu County,HI,42.83305227655986,NA,NA
96734,Honolulu County,HI,NA,85.785536159601,NA
96819,Honolulu County,HI,32.54637436762226,NA,NA
96825,Honolulu County,HI,41.8212478920742,NA,NA
83301,Twin Falls County,ID,NA,NA,14.849624060150376
83333,Blaine County,ID,NA,59.60099750623441,NA
83445,Fremont County,ID,NA,NA,90.6015037593985
83605,Canyon County,ID,NA,35.66084788029925,NA
83642,Ada County,ID,NA,61.59600997506235,NA
83644,Canyon County,ID,NA,NA,79.51127819548873
83651,Canyon County,ID,NA,37.1571072319202,NA
83704,Ada County,ID,NA,NA,12.969924812030076
83705,Ada County,ID,NA,NA,82.14285714285714
83854,Kootenai County,ID,NA,39.65087281795511,NA
83856,Bonner County,ID,NA,NA,93.98496240601504
60031,Lake County,IL,95.1096121416526,NA,NA
60062,Cook County,IL,46.54300168634064,NA,NA
60070,Cook County,IL,NA,96.00997506234414,NA
60073,Lake County,IL,27.65598650927487,NA,NA
60083,Lake County,IL,NA,NA,80.07518796992481
60087,Lake County,IL,92.91736930860034,NA,NA
60099,Lake County,IL,NA,NA,34.3984962406015
60103,DuPage County,IL,24.78920741989882,NA,NA
60107,Cook County,IL,87.18381112984824,NA,NA
60120,Kane County,IL,NA,70.57356608478803,NA
60123,Kane County,IL,NA,NA,15.977443609022558
60126,DuPage County,IL,31.534569983136596,NA,NA
60156,McHenry County,IL,48.397976391231026,NA,NA
60169,Cook County,IL,NA,85.03740648379052,NA
60174,Kane County,IL,NA,NA,37.78195488721804
60201,Cook County,IL,24.45193929173693,NA,NA
60417,Will County,IL,NA,NA,93.796992481203
60419,Cook County,IL,NA,91.2718204488778,NA
60423,Will County,IL,NA,NA,34.21052631578947
60425,Cook County,IL,52.27655986509275,NA,NA
60435,Will County,IL,39.79763912310287,NA,NA
60450,Grundy County,IL,NA,NA,18.045112781954884
60451,Will County,IL,32.715008431703204,NA,NA
60477,Cook County,IL,NA,NA,19.736842105263158
60506,Kane County,IL,NA,77.0573566084788,NA
60526,Cook County,IL,NA,NA,94.3609022556391
60543,Kendall County,IL,42.158516020236085,NA,NA
60546,Cook County,IL,46.711635750421586,NA,NA
60565,DuPage County,IL,NA,NA,78.00751879699249
60617,Cook County,IL,NA,90.27431421446383,NA
60620,Cook County,IL,NA,55.36159600997507,22.36842105263158
60643,Cook County,IL,15.177065767284992,NA,NA
60649,Cook County,IL,NA,NA,10.526315789473683
60652,Cook County,IL,NA,NA,21.616541353383457
60659,Cook County,IL,NA,86.0349127182045,NA
60660,Cook County,IL,45.02529510961214,NA,NA
61032,Stephenson County,IL,42.49578414839797,NA,NA
61109,Winnebago County,IL,43.17032040472175,NA,NA
61354,LaSalle County,IL,NA,NA,44.73684210526316
61554,Tazewell County,IL,NA,87.28179551122194,NA
61571,Tazewell County,IL,NA,NA,64.47368421052632
61802,Champaign County,IL,NA,NA,86.8421052631579
61920,Coles County,IL,45.02529510961214,NA,NA
62002,Madison County,IL,NA,NA,23.1203007518797
62233,Randolph County,IL,NA,93.26683291770573,NA
62249,Madison County,IL,NA,NA,98.87218045112782
62656,Logan County,IL,NA,NA,63.721804511278194
46062,Hamilton County,IN,NA,100,NA
46160,Brown County,IN,NA,99.75062344139651,NA
46205,Marion County,IN,NA,NA,74.06015037593986
46234,Marion County,IN,91.06239460370995,NA,51.8796992481203
46235,Marion County,IN,NA,18.204488778054863,15.037593984962406
46239,Marion County,IN,53.96290050590219,NA,NA
46240,Marion County,IN,NA,78.05486284289277,NA
46250,Marion County,IN,90.89376053962901,NA,NA
46254,Marion County,IN,8.600337268128163,NA,NA
46259,Marion County,IN,77.06576728499157,NA,NA
46260,Marion County,IN,36.42495784148398,73.31670822942642,NA
46304,Porter County,IN,NA,NA,79.88721804511279
46311,Lake County,IN,NA,NA,26.127819548872182
46312,Lake County,IN,NA,NA,38.15789473684211
46321,Lake County,IN,NA,95.51122194513717,NA
46323,Lake County,IN,7.419898819561552,86.53366583541147,NA
46327,Lake County,IN,81.28161888701517,NA,NA
46342,Lake County,IN,NA,NA,4.135338345864661
46383,Porter County,IN,NA,97.2568578553616,NA
46385,Porter County,IN,NA,NA,5.451127819548872
46528,Elkhart County,IN,22.09106239460371,NA,NA
46637,St. Joseph County,IN,NA,NA,92.66917293233082
46750,Huntington County,IN,NA,NA,42.857142857142854
46806,Allen County,IN,15.682967959527824,NA,NA
46845,Allen County,IN,NA,95.26184538653366,NA
46947,Cass County,IN,NA,NA,9.398496240601503
46992,Wabash County,IN,NA,69.07730673316709,27.631578947368425
47331,Fayette County,IN,5.227655986509275,NA,NA
47371,Jay County,IN,24.957841483979763,NA,NA
47421,Lawrence County,IN,NA,NA,28.383458646616543
47546,Dubois County,IN,77.57166947723441,NA,NA
47712,Vanderburgh County,IN,NA,NA,70.30075187969925
47802,Vigo County,IN,NA,NA,17.481203007518797
47803,Vigo County,IN,NA,79.05236907730672,NA
47807,Vigo County,IN,47.38617200674536,NA,NA
47842,Vermillion County,IN,NA,NA,58.27067669172933
47879,Sullivan County,IN,95.78414839797638,NA,NA
47909,Tippecanoe County,IN,70.99494097807757,NA,NA
50219,Marion County,IA,NA,74.56359102244389,NA
50311,Polk County,IA,NA,NA,42.29323308270676
50317,Polk County,IA,17.706576728499158,NA,NA
50322,Polk County,IA,NA,NA,52.63157894736842
50401,Cerro Gordo County,IA,26.812816188870155,NA,NA
52001,Dubuque County,IA,35.07588532883643,NA,NA
52317,Johnson County,IA,NA,88.5286783042394,NA
52404,Linn County,IA,NA,12.718204488778055,NA
52501,Wapello County,IA,87.01517706576728,NA,NA
52537,Davis County,IA,NA,NA,93.04511278195488
52761,Muscatine County,IA,NA,NA,9.022556390977442
52803,Scott County,IA,NA,NA,91.9172932330827
66025,Douglas County,KS,60.03372681281619,NA,NA
66048,Leavenworth County,KS,NA,NA,25.375939849624064
66502,Riley County,KS,NA,NA,92.29323308270678
66720,Neosho County,KS,61.551433389544684,NA,NA
66801,Lyon County,KS,NA,NA,68.98496240601504
67037,Sedgwick County,KS,87.18381112984824,NA,NA
67060,Sedgwick County,KS,NA,NA,88.53383458646617
67114,Harvey County,KS,72.68128161888701,NA,NA
67212,Sedgwick County,KS,NA,NA,53.57142857142857
67357,Labette County,KS,NA,NA,40.41353383458647
67846,Finney County,KS,NA,NA,16.917293233082706
40160,Hardin County,KY,NA,35.41147132169576,NA
40215,Jefferson County,KY,NA,19.45137157107232,NA
40220,Jefferson County,KY,87.68971332209107,NA,NA
40223,Jefferson County,KY,72.84991568296796,NA,NA
40272,Jefferson County,KY,NA,66.58354114713218,NA
40403,Madison County,KY,NA,48.6284289276808,NA
40419,Lincoln County,KY,NA,97.75561097256858,NA
40456,Rockcastle County,KY,NA,NA,62.96992481203007
40475,Madison County,KY,NA,NA,90.22556390977444
40505,Fayette County,KY,NA,NA,17.293233082706767
40701,Whitley County,KY,NA,45.6359102244389,NA
41015,Kenton County,KY,NA,NA,19.924812030075188
41031,Harrison County,KY,NA,52.867830423940156,NA
41042,Boone County,KY,6.408094435075886,NA,NA
41219,Johnson County,KY,NA,76.55860349127181,NA
41339,Breathitt County,KY,57.67284991568297,NA,NA
42101,Warren County,KY,NA,NA,4.887218045112782
42127,Barren County,KY,NA,NA,58.83458646616542
42303,Daviess County,KY,NA,NA,7.7067669172932325
42351,Hancock County,KY,NA,NA,94.17293233082707
42501,Pulaski County,KY,86.84654300168634,NA,NA
42701,Hardin County,KY,NA,NA,8.646616541353383
70056,Jefferson Parish,LA,NA,NA,3.3834586466165413
70072,Jefferson Parish,LA,NA,0.24937655860349126,NA
70116,Orleans Parish,LA,93.25463743676222,NA,NA
70122,Orleans Parish,LA,0.8431703204047217,NA,NA
70123,Jefferson Parish,LA,3.0354131534569984,NA,NA
70401,Tangipahoa Parish,LA,NA,29.67581047381546,NA
70438,Washington Parish,LA,32.377740303541316,NA,NA
70458,St. Tammany Parish,LA,73.86172006745363,NA,NA
70471,St. Tammany Parish,LA,99.15682967959528,NA,NA
70525,Acadia Parish,LA,NA,NA,41.16541353383459
70583,Lafayette Parish,LA,NA,NA,66.16541353383458
70663,Calcasieu Parish,LA,79.76391231028668,NA,NA
70760,Pointe Coupee Parish,LA,89.20741989881957,NA,NA
71118,Caddo Parish,LA,NA,52.867830423940156,NA
71203,Ouachita Parish,LA,2.0236087689713322,NA,NA
71423,Grant Parish,LA,44.01349072512647,NA,NA
04072,York County,ME,NA,NA,81.76691729323309
04093,York County,ME,54.468802698145026,NA,NA
04102,Cumberland County,ME,15.51433389544688,NA,NA
04103,Cumberland County,ME,NA,NA,44.3609022556391
04843,Knox County,ME,NA,NA,89.66165413533834
04901,Kennebec County,ME,NA,NA,17.857142857142858
04976,Somerset County,ME,76.39123102866779,NA,NA
20637,Charles County,MD,NA,NA,95.86466165413535
20815,Montgomery County,MD,54.97470489038786,NA,89.09774436090225
20850,Montgomery County,MD,36.25632377740304,NA,NA
20876,Montgomery County,MD,65.59865092748736,NA,NA
21001,Harford County,MD,95.95278246205734,NA,NA
21013,Baltimore County,MD,NA,NA,98.49624060150376
21042,Howard County,MD,54.63743676222597,NA,NA
21074,Carroll County,MD,98.31365935919055,NA,NA
21093,Baltimore County,MD,59.696458684654296,NA,NA
21206,Baltimore city,MD,37.268128161888704,NA,NA
21220,Baltimore County,MD,NA,NA,13.533834586466165
21231,Baltimore city,MD,81.61888701517707,NA,NA
21234,Baltimore County,MD,17.875210792580102,NA,NA
21701,Frederick County,MD,58.34738617200674,NA,NA
21704,Frederick County,MD,69.30860033726813,NA,NA
21804,Wicomico County,MD,40.13490725126476,NA,89.28571428571429
21901,Cecil County,MD,52.951096121416526,NA,NA
21921,Cecil County,MD,NA,NA,37.21804511278196
01104,Hampden County,MA,3.709949409780776,NA,NA
01107,Hampden County,MA,NA,37.65586034912718,NA
01108,Hampden County,MA,0.33726812816188867,NA,NA
01420,Worcester County,MA,NA,NA,6.203007518796992
01462,Worcester County,MA,NA,71.82044887780549,NA
01505,Worcester County,MA,98.98819561551433,NA,NA
01506,Worcester County,MA,75.54806070826307,NA,NA
01605,Worcester County,MA,NA,NA,1.1278195488721803
01730,Middlesex County,MA,94.77234401349072,NA,NA
01803,Middlesex County,MA,61.88870151770658,NA,NA
01824,Middlesex County,MA,97.3018549747049,NA,NA
01835,Essex County,MA,17.537942664418214,NA,NA
01841,Essex County,MA,90.55649241146712,NA,NA
01844,Essex County,MA,NA,NA,88.1578947368421
01845,Essex County,MA,24.11467116357504,NA,NA
01930,Essex County,MA,NA,NA,13.909774436090224
01960,Essex County,MA,NA,7.4812967581047385,NA
02050,Plymouth County,MA,NA,NA,15.225563909774436
02062,Norfolk County,MA,NA,27.18204488778055,NA
02093,Norfolk County,MA,NA,NA,46.616541353383454
02119,Suffolk County,MA,NA,8.728179551122196,NA
02120,Suffolk County,MA,NA,29.925187032418954,NA
02122,Suffolk County,MA,NA,NA,1.3157894736842104
02124,Suffolk County,MA,NA,60.59850374064838,NA
02125,Suffolk County,MA,NA,NA,0.37593984962406013
02126,Suffolk County,MA,3.204047217537943,NA,NA
02143,Middlesex County,MA,10.623946037099493,NA,NA
02155,Middlesex County,MA,NA,NA,0.5639097744360901
02301,Plymouth County,MA,NA,NA,0
02359,Plymouth County,MA,NA,NA,21.992481203007518
02370,Plymouth County,MA,NA,56.85785536159601,NA
02375,Bristol County,MA,NA,NA,44.92481203007519
02458,Middlesex County,MA,18.887015177065766,NA,NA
02467,Norfolk County,MA,18.54974704890388,NA,NA
02538,Plymouth County,MA,NA,NA,40.225563909774436
02673,Barnstable County,MA,NA,98.75311720698254,NA
02766,Bristol County,MA,42.66441821247892,NA,NA
02777,Bristol County,MA,52.78246205733558,NA,NA
48015,Macomb County,MI,29.848229342327148,NA,NA
48038,Macomb County,MI,10.45531197301855,NA,NA
48042,Macomb County,MI,70.15177065767286,NA,NA
48044,Macomb County,MI,72.51264755480608,NA,NA
48073,Oakland County,MI,69.64586846543001,NA,NA
48085,Oakland County,MI,55.81787521079258,NA,NA
48088,Macomb County,MI,35.91905564924115,NA,NA
48103,Washtenaw County,MI,82.46205733558179,NA,11.654135338345863
48120,Wayne County,MI,NA,NA,62.59398496240601
48126,Wayne County,MI,39.29173693086003,NA,NA
48127,Wayne County,MI,NA,NA,51.31578947368421
48144,Monroe County,MI,74.53625632377741,NA,NA
48152,Wayne County,MI,67.62225969645868,NA,55.07518796992481
48160,Washtenaw County,MI,43.676222596964585,NA,NA
48162,Monroe County,MI,NA,51.12219451371571,NA
48167,Oakland County,MI,82.79932546374368,NA,NA
48174,Wayne County,MI,NA,NA,5.075187969924812
48176,Washtenaw County,MI,44.68802698145025,NA,NA
48180,Wayne County,MI,NA,23.940149625935163,12.218045112781954
48187,Wayne County,MI,6.239460370994941,NA,8.082706766917292
48192,Wayne County,MI,NA,NA,13.345864661654137
48202,Wayne County,MI,NA,NA,22.932330827067666
48207,Wayne County,MI,9.443507588532883,NA,NA
48220,Oakland County,MI,62.731871838111296,NA,NA
48228,Wayne County,MI,NA,7.98004987531172,NA
48306,Oakland County,MI,NA,NA,35.714285714285715
48324,Oakland County,MI,NA,NA,50
48341,Oakland County,MI,55.64924114671164,NA,NA
48423,Genesee County,MI,NA,NA,83.64661654135338
48444,Lapeer County,MI,49.57841483979764,NA,NA
48503,Genesee County,MI,NA,NA,76.50375939849624
48507,Genesee County,MI,9.27487352445194,NA,NA
48601,Saginaw County,MI,NA,NA,1.5037593984962405
48602,Saginaw County,MI,NA,NA,14.661654135338345
48632,Clare County,MI,NA,NA,75.18796992481202
48708,Bay County,MI,NA,NA,5.827067669172932
48827,Eaton County,MI,47.217537942664414,NA,NA
48843,Livingston County,MI,1.1804384485666104,NA,NA
49009,Kalamazoo County,MI,16.020236087689714,NA,NA
49017,Calhoun County,MI,NA,NA,53.383458646616546
49036,Branch County,MI,NA,71.3216957605985,NA
49071,Van Buren County,MI,59.02192242833052,NA,NA
49103,Berrien County,MI,NA,51.6209476309227,NA
49202,Jackson County,MI,30.016863406408095,NA,NA
49203,Jackson County,MI,NA,NA,5.639097744360902
49230,Jackson County,MI,NA,80.79800498753117,NA
49286,Lenawee County,MI,81.78752107925801,89.02743142144638,NA
49316,Kent County,MI,NA,NA,80.45112781954887
49419,Allegan County,MI,69.30860033726813,NA,NA
49442,Muskegon County,MI,NA,NA,81.95488721804512
49444,Muskegon County,MI,10.961214165261383,NA,NA
55016,Washington County,MN,NA,73.56608478802993,NA
55040,Isanti County,MN,NA,NA,82.5187969924812
55044,Dakota County,MN,NA,63.84039900249376,95.67669172932331
55045,Chisago County,MN,NA,NA,91.72932330827066
55075,Dakota County,MN,NA,31.67082294264339,NA
55103,Ramsey County,MN,NA,25.935162094763093,NA
55106,Ramsey County,MN,NA,2.7431421446384037,NA
55110,Ramsey County,MN,96.79595278246205,NA,NA
55112,Ramsey County,MN,NA,NA,76.69172932330827
55119,Ramsey County,MN,NA,42.643391521197,10.338345864661653
55122,Dakota County,MN,70.65767284991568,NA,NA
55127,Ramsey County,MN,52.1079258010118,NA,NA
55311,Hennepin County,MN,NA,NA,51.50375939849624
55313,Wright County,MN,NA,NA,44.92481203007519
55315,Carver County,MN,98.65092748735245,NA,NA
55337,Dakota County,MN,NA,NA,27.25563909774436
55343,Hennepin County,MN,53.456998313659355,NA,NA
55345,Hennepin County,MN,NA,39.65087281795511,NA
55369,Hennepin County,MN,62.563237774030355,NA,NA
55374,Hennepin County,MN,88.53288364249579,NA,NA
55391,Hennepin County,MN,NA,NA,78.7593984962406
55404,Hennepin County,MN,NA,NA,0.9398496240601504
55406,Hennepin County,MN,15.345699831365936,NA,NA
55412,Hennepin County,MN,89.3760539629005,NA,NA
55418,Hennepin County,MN,NA,88.7780548628429,NA
55419,Hennepin County,MN,NA,11.72069825436409,NA
55424,Hennepin County,MN,97.80775716694772,NA,NA
55425,Hennepin County,MN,NA,NA,63.34586466165414
55426,Hennepin County,MN,NA,NA,52.06766917293233
55433,Anoka County,MN,NA,NA,29.135338345864664
55437,Hennepin County,MN,NA,87.03241895261846,NA
55444,Hennepin County,MN,NA,32.418952618453865,NA
55447,Hennepin County,MN,44.51939291736931,NA,NA
55448,Anoka County,MN,66.27318718381113,NA,NA
55449,Anoka County,MN,91.73693086003372,NA,NA
55963,Goodhue County,MN,85.32883642495784,NA,NA
56001,Blue Earth County,MN,7.082630691399664,NA,NA
56201,Kandiyohi County,MN,NA,NA,63.721804511278194
56387,Stearns County,MN,88.87015177065767,NA,NA
56514,Clay County,MN,94.60370994940978,NA,NA
56560,Clay County,MN,8.263069139966273,NA,NA
56601,Beltrami County,MN,60.87689713322091,NA,20.86466165413534
38655,Lafayette County,MS,NA,NA,59.3984962406015
39114,Simpson County,MS,NA,NA,66.9172932330827
39180,Warren County,MS,NA,21.44638403990025,NA
39367,Wayne County,MS,96.45868465430016,NA,NA
39426,Pearl River County,MS,NA,NA,71.99248120300751
39437,Jones County,MS,NA,58.104738154613464,NA
39631,Wilkinson County,MS,NA,81.04738154613467,NA
39641,Walthall County,MS,NA,63.092269326683294,NA
39667,Walthall County,MS,52.951096121416526,NA,NA
39730,Monroe County,MS,91.90556492411467,NA,NA
63016,Jefferson County,MO,NA,NA,85.15037593984962
63033,St. Louis County,MO,12.816188870151771,NA,NA
63043,St. Louis County,MO,NA,90.27431421446383,NA
63077,Franklin County,MO,NA,87.28179551122194,NA
63114,St. Louis County,MO,20.741989881956155,14.713216957605985,NA
63121,St. Louis County,MO,36.42495784148398,NA,NA
63128,St. Louis County,MO,79.59527824620574,NA,NA
63130,St. Louis County,MO,NA,75.56109725685786,NA
63133,St. Louis County,MO,NA,NA,72.93233082706767
63137,St. Louis County,MO,NA,NA,31.390977443609025
63138,St. Louis County,MO,NA,NA,87.59398496240601
63301,St. Charles County,MO,68.12816188870153,NA,36.09022556390977
63379,Lincoln County,MO,19.561551433389546,NA,NA
63390,Warren County,MO,NA,NA,62.78195488721805
63401,Marion County,MO,NA,59.10224438902743,39.285714285714285
63601,St. Francois County,MO,NA,NA,36.278195488721806
63645,Madison County,MO,NA,31.92019950124688,NA
63664,Washington County,MO,NA,99.25187032418953,NA
63701,Cape Girardeau County,MO,1.5177065767284992,NA,NA
63775,Perry County,MO,38.44856661045531,47.13216957605985,NA
64024,Clay County,MO,45.02529510961214,NA,NA
64029,Jackson County,MO,NA,NA,32.5187969924812
64034,Jackson County,MO,NA,NA,78.19548872180451
64052,Jackson County,MO,13.15345699831366,NA,NA
64055,Jackson County,MO,6.913996627318718,NA,NA
64089,Clay County,MO,31.703204047217536,NA,NA
64093,Johnson County,MO,NA,NA,28.947368421052634
64152,Platte County,MO,48.735244519392914,NA,NA
64683,Grundy County,MO,NA,NA,48.87218045112782
64701,Cass County,MO,NA,67.58104738154613,NA
64735,Henry County,MO,NA,NA,56.015037593984964
65079,Camden County,MO,92.7487352445194,NA,NA
65203,Boone County,MO,25.126475548060707,NA,NA
65401,Phelps County,MO,NA,36.907730673316706,NA
65459,Pulaski County,MO,67.95952782462057,NA,NA
65556,Pulaski County,MO,NA,95.76059850374065,NA
65583,Pulaski County,MO,80.26981450252951,NA,NA
65706,Webster County,MO,74.70489038785834,NA,NA
65793,Howell County,MO,NA,59.60099750623441,NA
65807,Greene County,MO,NA,16.957605985037407,NA
59715,Gallatin County,MT,NA,NA,81.203007518797
59808,Missoula County,MT,89.54468802698145,NA,NA
68116,Douglas County,NE,65.7672849915683,NA,NA
68124,Douglas County,NE,50.5902192242833,NA,NA
68137,Douglas County,NE,31.02866779089376,NA,70.11278195488721
68434,Seward County,NE,NA,NA,85.71428571428571
68516,Lancaster County,NE,17.36930860033727,NA,56.390977443609025
68776,Dakota County,NE,NA,NA,69.73684210526315
69361,Scotts Bluff County,NE,NA,NA,98.1203007518797
89104,Clark County,NV,20.06745362563238,NA,NA
89110,Clark County,NV,NA,20.947630922693268,NA
89149,Clark County,NV,75.04215851602024,NA,NA
89521,Washoe County,NV,65.93591905564924,NA,NA
03225,Belknap County,NH,100,NA,NA
03249,Belknap County,NH,NA,71.82044887780549,NA
03431,Cheshire County,NH,NA,NA,21.804511278195488
03570,Coos County,NH,NA,33.915211970074814,NA
03743,Sullivan County,NH,30.69139966273187,NA,NA
07002,Hudson County,NJ,NA,NA,45.67669172932331
07003,Essex County,NJ,NA,36.65835411471321,NA
07014,Passaic County,NJ,NA,NA,77.44360902255639
07018,Essex County,NJ,30.185497470489036,NA,NA
07020,Bergen County,NJ,NA,89.02743142144638,NA
07055,Passaic County,NJ,18.718381112984822,NA,NA
07060,Union County,NJ,NA,52.618453865336654,NA
07202,Union County,NJ,NA,0.7481296758104738,NA
07305,Hudson County,NJ,NA,9.72568578553616,NA
07307,Hudson County,NJ,NA,NA,31.76691729323308
07407,Bergen County,NJ,NA,NA,97.74436090225564
07512,Passaic County,NJ,89.88195615514334,NA,NA
07724,Monmouth County,NJ,NA,NA,20.676691729323306
07733,Monmouth County,NJ,NA,NA,76.8796992481203
07753,Monmouth County,NJ,NA,NA,57.330827067669176
07960,Morris County,NJ,NA,NA,14.473684210526317
08004,Camden County,NJ,75.21079258010118,NA,NA
08035,Camden County,NJ,99.83136593591905,NA,NA
08037,Atlantic County,NJ,38.785834738617204,NA,NA
08053,Burlington County,NJ,38.27993254637437,NA,NA
08062,Gloucester County,NJ,76.89713322091062,NA,NA
08103,Camden County,NJ,NA,2.2443890274314215,NA
08201,Atlantic County,NJ,NA,NA,82.33082706766918
08270,Cape May County,NJ,NA,NA,72.18045112781954
08332,Cumberland County,NJ,NA,39.15211970074813,NA
08512,Mercer County,NJ,NA,NA,90.6015037593985
08520,Mercer County,NJ,70.48903878583474,NA,NA
08618,Mercer County,NJ,NA,1.2468827930174564,NA
08724,Ocean County,NJ,76.22259696458684,NA,NA
08753,Ocean County,NJ,4.5531197301854975,NA,NA
08755,Ocean County,NJ,NA,82.54364089775561,NA
08759,Ocean County,NJ,NA,25.187032418952622,NA
08807,Somerset County,NJ,73.52445193929174,NA,NA
08809,Hunterdon County,NJ,NA,NA,95.30075187969925
08820,Middlesex County,NJ,83.6424957841484,NA,NA
08829,Hunterdon County,NJ,91.56829679595279,NA,NA
08861,Middlesex County,NJ,NA,0.997506234413965,NA
87035,Torrance County,NM,78.92074198988196,NA,NA
87102,Bernalillo County,NM,NA,NA,60.71428571428571
87105,Bernalillo County,NM,NA,28.179551122194514,NA
87106,Bernalillo County,NM,NA,47.63092269326683,NA
87109,Bernalillo County,NM,NA,55.61097256857855,NA
87110,Bernalillo County,NM,34.56998313659359,NA,NA
87121,Bernalillo County,NM,NA,NA,16.35338345864662
87301,McKinley County,NM,NA,40.64837905236908,NA
87420,San Juan County,NM,NA,NA,82.70676691729322
87532,Santa Fe County,NM,33.726812816188875,NA,NA
88007,Doa Ana County,NM,NA,NA,96.2406015037594
88012,Doa Ana County,NM,53.96290050590219,NA,NA
88030,Luna County,NM,NA,19.201995012468828,NA
88044,Doa Ana County,NM,97.47048903878583,NA,NA
88072,Doa Ana County,NM,NA,69.82543640897757,NA
88101,Curry County,NM,NA,NA,6.7669172932330826
10001,New York County,NY,NA,NA,50.93984962406015
10009,New York County,NY,NA,NA,6.390977443609022
10024,New York County,NY,NA,NA,71.05263157894737
10029,New York County,NY,NA,NA,10.150375939849624
10031,New York County,NY,NA,26.683291770573565,NA
10033,New York County,NY,NA,NA,12.781954887218044
10038,New York County,NY,NA,33.915211970074814,NA
10040,New York County,NY,NA,NA,25.563909774436087
10305,Richmond County,NY,82.1247892074199,NA,NA
10309,Richmond County,NY,80.94435075885329,NA,NA
10456,Bronx County,NY,NA,0,0.18796992481203006
10458,Bronx County,NY,NA,3.7406483790523692,NA
10467,Bronx County,NY,NA,3.4912718204488775,NA
10562,Westchester County,NY,57.335581787521086,NA,NA
10579,Putnam County,NY,78.92074198988196,NA,NA
10707,Westchester County,NY,NA,66.08478802992519,NA
10801,Westchester County,NY,11.804384485666104,33.66583541147132,NA
10901,Rockland County,NY,NA,NA,96.05263157894737
10956,Rockland County,NY,NA,NA,70.48872180451127
10960,Rockland County,NY,NA,NA,91.35338345864662
10993,Rockland County,NY,NA,NA,99.62406015037594
11207,Kings County,NY,NA,1.4962593516209477,NA
11208,Kings County,NY,NA,NA,0.7518796992481203
11209,Kings County,NY,NA,NA,54.51127819548872
11212,Kings County,NY,NA,32.16957605985037,NA
11221,Kings County,NY,NA,17.45635910224439,NA
11223,Kings County,NY,NA,NA,15.601503759398497
11224,Kings County,NY,NA,1.99501246882793,NA
11225,Kings County,NY,21.079258010118043,NA,NA
11228,Kings County,NY,70.65767284991568,NA,NA
11233,Kings County,NY,NA,2.493765586034913,NA
11234,Kings County,NY,NA,9.476309226932669,NA
11236,Kings County,NY,NA,NA,2.631578947368421
11354,Queens County,NY,72.34401349072512,NA,NA
11356,Queens County,NY,NA,85.53615960099751,65.78947368421053
11368,Queens County,NY,NA,2.9925187032418954,NA
11385,Queens County,NY,NA,NA,6.578947368421052
11428,Queens County,NY,NA,NA,77.63157894736842
11434,Queens County,NY,NA,23.19201995012469,NA
11501,Nassau County,NY,NA,NA,69.3609022556391
11520,Nassau County,NY,NA,NA,24.43609022556391
11558,Nassau County,NY,NA,NA,96.99248120300751
11575,Nassau County,NY,NA,NA,28.383458646616543
11691,Queens County,NY,NA,NA,6.015037593984962
11714,Nassau County,NY,NA,NA,69.73684210526315
11716,Suffolk County,NY,79.93254637436762,NA,93.60902255639097
11722,Suffolk County,NY,NA,NA,17.105263157894736
11725,Suffolk County,NY,NA,NA,52.819548872180455
11801,Nassau County,NY,NA,41.14713216957606,NA
11951,Suffolk County,NY,NA,NA,58.08270676691729
12020,Saratoga County,NY,48.566610455311974,NA,NA
12110,Albany County,NY,NA,NA,84.3984962406015
12189,Albany County,NY,NA,NA,76.12781954887218
12209,Albany County,NY,NA,NA,78.57142857142857
12303,Schenectady County,NY,35.24451939291737,NA,NA
12304,Schenectady County,NY,NA,NA,53.00751879699248
12721,Sullivan County,NY,NA,71.82044887780549,NA
12801,Warren County,NY,37.60539629005059,NA,NA
12839,Washington County,NY,58.01011804384486,NA,NA
12866,Saratoga County,NY,NA,NA,10.714285714285714
12992,Clinton County,NY,51.264755480607086,NA,NA
13212,Onondaga County,NY,NA,78.05486284289277,NA
13214,Onondaga County,NY,NA,NA,73.49624060150376
13421,Madison County,NY,15.008431703204048,NA,NA
13440,Oneida County,NY,NA,NA,71.80451127819549
13601,Jefferson County,NY,NA,NA,3.007518796992481
13662,St. Lawrence County,NY,16.357504215851602,NA,NA
13790,Broome County,NY,NA,49.12718204488778,NA
13820,Otsego County,NY,9.949409780775717,NA,NA
14032,Erie County,NY,68.97133220910624,NA,NA
14075,Erie County,NY,23.102866779089375,NA,NA
14120,Niagara County,NY,20.57335581787521,NA,NA
14221,Erie County,NY,12.310286677908937,NA,NA
14450,Monroe County,NY,0.5059021922428331,NA,1.8796992481203008
14502,Wayne County,NY,18.381112984822934,NA,NA
14513,Wayne County,NY,NA,NA,3.7593984962406015
14534,Monroe County,NY,1.6863406408094435,NA,NA
14580,Monroe County,NY,12.647554806070826,NA,NA
14617,Monroe County,NY,4.8903878583473865,NA,NA
14620,Monroe County,NY,NA,NA,4.511278195488721
14622,Monroe County,NY,72.00674536256324,NA,NA
14623,Monroe County,NY,53.288364249578414,NA,NA
14625,Monroe County,NY,34.232715008431704,NA,NA
14701,Chautauqua County,NY,65.43001686340641,NA,NA
14779,Cattaraugus County,NY,NA,NA,57.14285714285714
14830,Steuben County,NY,40.640809443507585,NA,NA
14880,Allegany County,NY,87.18381112984824,NA,NA
14895,Allegany County,NY,58.85328836424958,NA,NA
27025,Rockingham County,NC,NA,NA,85.52631578947368
27028,Davie County,NC,66.61045531197301,23.690773067331673,NA
27030,Surry County,NC,2.1922428330522767,NA,4.6992481203007515
27054,Rowan County,NC,96.12141652613828,NA,NA
27101,Forsyth County,NC,NA,NA,73.87218045112782
27107,Forsyth County,NC,NA,NA,71.2406015037594
27127,Forsyth County,NC,NA,88.2793017456359,NA
27260,Guilford County,NC,NA,57.107231920199496,NA
27262,Guilford County,NC,25.801011804384487,NA,NA
27292,Davidson County,NC,NA,NA,44.54887218045113
27295,Davidson County,NC,20.236087689713322,NA,NA
27302,Alamance County,NC,NA,17.70573566084788,NA
27360,Davidson County,NC,3.372681281618887,NA,NA
27455,Guilford County,NC,44.01349072512647,NA,NA
27504,Johnston County,NC,75.88532883642496,NA,NA
27514,Orange County,NC,88.36424957841484,NA,NA
27537,Vance County,NC,NA,82.29426433915212,NA
27563,Warren County,NC,79.42664418212479,NA,NA
27573,Person County,NC,NA,46.633416458852864,NA
27576,Johnston County,NC,NA,80.54862842892769,NA
27577,Johnston County,NC,14.839797639123104,NA,NA
27587,Wake County,NC,50.084317032040474,NA,NA
27592,Wake County,NC,51.264755480607086,NA,NA
27603,Wake County,NC,8.431703204047219,NA,NA
27614,Wake County,NC,NA,NA,79.13533834586465
27705,Durham County,NC,NA,49.87531172069826,NA
27834,Pitt County,NC,2.866779089376054,NA,NA
27889,Beaufort County,NC,NA,NA,24.06015037593985
28079,Union County,NC,NA,NA,38.721804511278194
28086,Cleveland County,NC,NA,65.5860349127182,NA
28110,Union County,NC,NA,16.209476309226932,NA
28146,Rowan County,NC,NA,75.81047381546135,NA
28152,Cleveland County,NC,NA,20.448877805486283,NA
28211,Mecklenburg County,NC,NA,33.416458852867834,NA
28277,Mecklenburg County,NC,NA,NA,34.58646616541353
28301,Cumberland County,NC,NA,NA,31.015037593984964
28303,Cumberland County,NC,21.75379426644182,NA,NA
28345,Richmond County,NC,NA,62.84289276807981,NA
28390,Harnett County,NC,NA,42.14463840399002,NA
28409,New Hanover County,NC,62.22596964586846,NA,NA
28461,Brunswick County,NC,88.53288364249579,NA,NA
28532,Craven County,NC,70.32040472175379,NA,NA
28570,Carteret County,NC,66.44182124789208,NA,NA
28572,Duplin County,NC,NA,74.56359102244389,NA
28602,Catawba County,NC,NA,NA,16.165413533834585
28655,Burke County,NC,NA,NA,4.323308270676692
28658,Catawba County,NC,11.129848229342327,NA,NA
28678,Alexander County,NC,NA,70.57356608478803,NA
28712,Transylvania County,NC,NA,NA,67.85714285714286
28739,Henderson County,NC,74.70489038785834,NA,NA
28803,Buncombe County,NC,84.82293423271501,NA,NA
58075,Richland County,ND,NA,NA,95.11278195488721
58078,Cass County,ND,25.29510961214165,NA,NA
58203,Grand Forks County,ND,84.48566610455312,NA,NA
58401,Stutsman County,ND,NA,33.915211970074814,NA
58503,Burleigh County,ND,95.4468802698145,NA,NA
58554,Morton County,ND,NA,NA,73.49624060150376
58801,Williams County,ND,83.81112984822934,NA,NA
43026,Franklin County,OH,28.499156829679595,NA,NA
43068,Franklin County,OH,NA,NA,29.32330827067669
43078,Champaign County,OH,NA,NA,56.766917293233085
43081,Franklin County,OH,6.745362563237774,NA,NA
43082,Delaware County,OH,76.72849915682967,NA,NA
43119,Franklin County,OH,NA,NA,47.368421052631575
43123,Franklin County,OH,49.0725126475548,NA,NA
43130,Fairfield County,OH,NA,NA,8.834586466165414
43138,Hocking County,OH,92.4114671163575,NA,NA
43160,Fayette County,OH,6.070826306913997,NA,NA
43207,Franklin County,OH,49.24114671163575,10.723192019950124,NA
43209,Franklin County,OH,86.6779089376054,NA,NA
43227,Franklin County,OH,9.780775716694773,NA,72.36842105263158
43228,Franklin County,OH,NA,6.234413965087282,NA
43229,Franklin County,OH,NA,19.70074812967581,NA
43230,Franklin County,OH,4.3844856661045535,NA,NA
43232,Franklin County,OH,NA,56.10972568578554,NA
43302,Marion County,OH,NA,NA,1.6917293233082706
43311,Logan County,OH,14.333895446880272,NA,NA
43344,Union County,OH,NA,NA,99.24812030075188
43612,Lucas County,OH,NA,NA,2.819548872180451
43614,Lucas County,OH,NA,NA,59.210526315789465
43615,Lucas County,OH,2.6981450252951094,NA,NA
43731,Perry County,OH,NA,NA,90.97744360902256
43783,Perry County,OH,NA,94.76309226932669,NA
43832,Tuscarawas County,OH,NA,NA,75.93984962406014
43910,Jefferson County,OH,NA,NA,78.38345864661655
44001,Lorain County,OH,NA,NA,91.54135338345864
44053,Lorain County,OH,NA,NA,23.872180451127818
44095,Lake County,OH,NA,NA,43.609022556390975
44102,Cuyahoga County,OH,0,0.4987531172069825,NA
44106,Cuyahoga County,OH,NA,NA,7.894736842105263
44109,Cuyahoga County,OH,0.16863406408094433,13.715710723192021,NA
44111,Cuyahoga County,OH,0.6745362563237773,NA,NA
44129,Cuyahoga County,OH,NA,NA,11.278195488721805
44138,Cuyahoga County,OH,NA,NA,25
44143,Cuyahoga County,OH,NA,NA,27.06766917293233
44146,Cuyahoga County,OH,58.1787521079258,NA,NA
44255,Portage County,OH,NA,NA,83.45864661654136
44266,Portage County,OH,NA,5.7356608478802995,NA
44306,Summit County,OH,NA,NA,7.142857142857142
44314,Summit County,OH,NA,39.40149625935162,NA
44319,Summit County,OH,30.354131534569984,NA,NA
44406,Mahoning County,OH,NA,77.0573566084788,NA
44446,Trumbull County,OH,NA,64.58852867830423,NA
44460,Columbiana County,OH,NA,13.216957605985039,NA
44514,Mahoning County,OH,11.973018549747048,NA,39.473684210526315
44614,Stark County,OH,NA,NA,64.66165413533834
44641,Stark County,OH,68.29679595278246,NA,NA
44644,Carroll County,OH,63.06913996627319,NA,NA
44647,Stark County,OH,79.25801011804384,NA,NA
44667,Wayne County,OH,25.463743676222595,NA,NA
44703,Stark County,OH,22.596964586846543,NA,NA
44805,Ashland County,OH,NA,11.471321695760599,NA
44820,Crawford County,OH,NA,NA,16.541353383458645
44875,Richland County,OH,21.75379426644182,NA,NA
45011,Butler County,OH,NA,83.0423940149626,NA
45013,Butler County,OH,60.20236087689713,NA,NA
45015,Butler County,OH,NA,54.11471321695761,NA
45030,Hamilton County,OH,NA,67.58104738154613,NA
45042,Butler County,OH,84.31703204047217,NA,NA
45177,Clinton County,OH,50.92748735244519,NA,NA
45207,Hamilton County,OH,90.38785834738617,NA,NA
45216,Hamilton County,OH,NA,NA,83.83458646616542
45227,Hamilton County,OH,NA,NA,39.849624060150376
45231,Hamilton County,OH,NA,12.219451371571072,NA
45238,Hamilton County,OH,3.541315345699832,NA,NA
45239,Hamilton County,OH,84.65430016863407,NA,NA
45242,Hamilton County,OH,NA,NA,96.99248120300751
45246,Hamilton County,OH,NA,NA,63.53383458646616
45247,Hamilton County,OH,44.01349072512647,NA,NA
45249,Hamilton County,OH,84.14839797639124,NA,NA
45251,Hamilton County,OH,13.827993254637436,NA,NA
45322,Montgomery County,OH,NA,NA,32.142857142857146
45338,Preble County,OH,NA,NA,94.92481203007519
45342,Montgomery County,OH,21.247892074198987,NA,NA
45365,Shelby County,OH,59.359190556492415,NA,NA
45414,Montgomery County,OH,52.4451939291737,NA,NA
45415,Montgomery County,OH,NA,NA,92.85714285714286
45424,Montgomery County,OH,16.526138279932546,NA,NA
45458,Montgomery County,OH,49.747048903878586,NA,NA
45503,Clark County,OH,NA,NA,61.278195488721806
45601,Ross County,OH,NA,NA,11.466165413533833
45631,Gallia County,OH,29.00505902192243,NA,NA
45634,Vinton County,OH,NA,NA,97.55639097744361
45680,Lawrence County,OH,NA,NA,9.774436090225564
45694,Scioto County,OH,74.36762225969646,NA,NA
45750,Washington County,OH,2.5295109612141653,NA,NA
45784,Washington County,OH,NA,91.02244389027432,NA
45840,Hancock County,OH,NA,NA,26.50375939849624
73005,Caddo County,OK,NA,NA,77.06766917293233
73010,McClain County,OK,NA,82.7930174563591,NA
73012,Oklahoma County,OK,NA,NA,39.473684210526315
73013,Oklahoma County,OK,NA,NA,24.24812030075188
73018,Grady County,OK,33.55817875210793,NA,NA
73052,Garvin County,OK,NA,NA,87.40601503759399
73068,Cleveland County,OK,NA,NA,99.06015037593986
73099,Canadian County,OK,9.612141652613827,NA,NA
73117,Oklahoma County,OK,98.4822934232715,NA,NA
73132,Oklahoma County,OK,NA,94.0149625935162,NA
73135,Oklahoma County,OK,NA,32.66832917705736,NA
73159,Oklahoma County,OK,NA,NA,65.0375939849624
73439,Marshall County,OK,72.17537942664418,NA,NA
73507,Comanche County,OK,7.75716694772344,NA,NA
73701,Garfield County,OK,38.954468802698145,NA,NA
73703,Garfield County,OK,NA,NA,43.233082706766915
74006,Washington County,OK,27.99325463743676,NA,NA
74011,Tulsa County,OK,59.696458684654296,NA,NA
74146,Tulsa County,OK,NA,41.14713216957606,NA
74301,Craig County,OK,63.06913996627319,NA,NA
74501,Pittsburg County,OK,NA,50.62344139650873,68.60902255639097
74578,Latimer County,OK,NA,89.52618453865337,NA
74804,Pottawatomie County,OK,NA,NA,54.88721804511278
97006,Washington County,OR,NA,NA,22.74436090225564
97027,Clackamas County,OR,NA,NA,93.42105263157895
97056,Columbia County,OR,NA,NA,59.02255639097744
97058,Wasco County,OR,35.413153456998316,NA,NA
97060,Multnomah County,OR,NA,58.104738154613464,NA
97071,Marion County,OR,NA,42.14463840399002,NA
97080,Multnomah County,OR,NA,NA,18.23308270676692
97086,Clackamas County,OR,NA,NA,70.48872180451127
97113,Washington County,OR,NA,NA,97.36842105263158
97116,Washington County,OR,NA,NA,90.0375939849624
97124,Washington County,OR,83.13659359190557,NA,NA
97138,Clatsop County,OR,NA,NA,49.81203007518797
97222,Clackamas County,OR,NA,51.87032418952619,NA
97227,Multnomah County,OR,NA,NA,90.41353383458647
97233,Multnomah County,OR,NA,NA,54.3233082706767
97267,Clackamas County,OR,NA,NA,57.89473684210527
97305,Marion County,OR,67.45362563237775,NA,NA
97338,Polk County,OR,50.252951096121414,NA,NA
97426,Lane County,OR,NA,53.36658354114713,NA
97524,Jackson County,OR,NA,60.84788029925187,NA
97527,Josephine County,OR,80.6070826306914,NA,NA
97720,Harney County,OR,NA,81.04738154613467,NA
97801,Umatilla County,OR,37.77403035413153,NA,NA
15001,Beaver County,PA,47.38617200674536,NA,NA
15071,Allegheny County,PA,94.2664418212479,NA,NA
15108,Allegheny County,PA,NA,NA,32.70676691729324
15143,Allegheny County,PA,NA,96.50872817955111,NA
15212,Allegheny County,PA,NA,NA,47.556390977443606
15221,Allegheny County,PA,5.733558178752108,NA,NA
15235,Allegheny County,PA,NA,NA,42.66917293233083
15237,Allegheny County,PA,NA,NA,40.037593984962406
15301,Washington County,PA,23.77740303541315,NA,NA
15317,Washington County,PA,NA,27.93017456359102,NA
15320,Greene County,PA,NA,NA,61.46616541353384
15425,Fayette County,PA,NA,NA,23.49624060150376
15601,Westmoreland County,PA,41.48397976391231,NA,NA
15904,Cambria County,PA,NA,NA,50.18796992481202
15931,Cambria County,PA,NA,NA,58.45864661654135
16001,Butler County,PA,NA,NA,2.2556390977443606
16117,Lawrence County,PA,77.40303541315345,NA,NA
16121,Mercer County,PA,NA,NA,59.77443609022557
16148,Mercer County,PA,31.02866779089376,NA,NA
16226,Armstrong County,PA,NA,NA,58.64661654135338
16507,Erie County,PA,NA,NA,72.93233082706767
16601,Blair County,PA,16.863406408094438,NA,NA
16686,Blair County,PA,NA,NA,48.30827067669173
16693,Blair County,PA,NA,NA,84.58646616541353
17003,Lebanon County,PA,68.97133220910624,NA,NA
17011,Cumberland County,PA,92.58010118043845,NA,NA
17022,Lancaster County,PA,40.472175379426645,NA,NA
17025,Cumberland County,PA,NA,43.391521197007485,NA
17033,Dauphin County,PA,NA,NA,24.81203007518797
17042,Lebanon County,PA,NA,54.613466334164585,NA
17046,Lebanon County,PA,41.31534569983137,NA,NA
17078,Lebanon County,PA,NA,NA,65.97744360902256
17102,Dauphin County,PA,NA,NA,87.03007518796993
17104,Dauphin County,PA,8.094435075885329,NA,NA
17201,Franklin County,PA,NA,16.957605985037407,NA
17315,York County,PA,60.37099494097807,NA,NA
17366,York County,PA,85.32883642495784,NA,NA
17403,York County,PA,NA,NA,27.819548872180448
17408,York County,PA,21.247892074198987,NA,34.962406015037594
17584,Lancaster County,PA,NA,NA,75.56390977443608
17701,Lycoming County,PA,NA,NA,3.195488721804511
17921,Schuylkill County,PA,68.46543001686341,NA,NA
18015,Northampton County,PA,4.0472175379426645,NA,NA
18052,Lehigh County,PA,NA,96.25935162094763,NA
18062,Lehigh County,PA,NA,60.84788029925187,NA
18088,Northampton County,PA,97.13322091062395,NA,NA
18103,Lehigh County,PA,55.4806070826307,NA,3.9473684210526314
18324,Pike County,PA,NA,54.3640897755611,NA
18360,Monroe County,PA,32.88364249578415,NA,NA
18428,Pike County,PA,NA,64.83790523690773,NA
18640,Luzerne County,PA,74.03035413153457,NA,NA
18706,Luzerne County,PA,44.68802698145025,NA,NA
18901,Bucks County,PA,71.50084317032041,NA,NA
18951,Bucks County,PA,90.72512647554805,NA,NA
19010,Delaware County,PA,NA,NA,46.42857142857143
19018,Delaware County,PA,NA,81.04738154613467,NA
19040,Montgomery County,PA,86.00337268128162,NA,NA
19095,Montgomery County,PA,NA,NA,70.86466165413535
19102,Philadelphia County,PA,65.09274873524453,NA,NA
19114,Philadelphia County,PA,19.392917369308602,NA,14.097744360902256
19116,Philadelphia County,PA,NA,60.84788029925187,NA
19120,Philadelphia County,PA,NA,NA,2.0676691729323307
19128,Philadelphia County,PA,NA,NA,13.721804511278195
19134,Philadelphia County,PA,NA,6.733167082294264,NA
19141,Philadelphia County,PA,30.354131534569984,NA,NA
19147,Philadelphia County,PA,NA,61.84538653366584,NA
19149,Philadelphia County,PA,22.259696458684655,NA,40.78947368421053
19312,Chester County,PA,NA,NA,54.13533834586466
19348,Chester County,PA,NA,73.81546134663341,NA
19363,Chester County,PA,NA,NA,47.18045112781955
19438,Montgomery County,PA,NA,84.28927680798004,NA
19567,Berks County,PA,93.59190556492412,NA,NA
19602,Berks County,PA,NA,NA,8.458646616541353
02818,Kent County,RI,78.75210792580101,NA,NA
02920,Providence County,RI,52.61382799325464,NA,NA
02921,Providence County,RI,47.89207419898819,NA,NA
29044,Richland County,SC,NA,NA,91.16541353383458
29072,Lexington County,SC,NA,57.356608478803,NA
29115,Orangeburg County,SC,NA,89.77556109725685,NA
29150,Sumter County,SC,NA,63.092269326683294,NA
29209,Richland County,SC,NA,69.32668329177058,NA
29210,Richland County,SC,39.46037099494098,NA,NA
29223,Richland County,SC,71.66947723440134,NA,NA
29301,Spartanburg County,SC,NA,52.119700748129674,NA
29306,Spartanburg County,SC,NA,NA,30.451127819548873
29461,Berkeley County,SC,9.949409780775717,NA,NA
29488,Colleton County,SC,NA,18.703241895261847,NA
29501,Florence County,SC,89.03878583473862,NA,NA
29554,Williamsburg County,SC,NA,NA,80.82706766917293
29574,Marion County,SC,NA,45.137157107231914,NA
29605,Greenville County,SC,NA,78.80299251870323,NA
29620,Abbeville County,SC,27.318718381112983,NA,NA
29691,Oconee County,SC,94.43507588532883,NA,NA
29720,Lancaster County,SC,NA,NA,37.03007518796993
57105,Minnehaha County,SD,NA,NA,37.59398496240601
57350,Beadle County,SD,46.0370994940978,NA,NA
37013,Davidson County,TN,13.322091062394604,NA,29.69924812030075
37069,Williamson County,TN,77.06576728499157,NA,NA
37075,Sumner County,TN,NA,NA,12.406015037593985
37347,Marion County,TN,NA,NA,66.9172932330827
37377,Hamilton County,TN,51.264755480607086,NA,NA
37379,Hamilton County,TN,50.252951096121414,NA,34.02255639097744
37387,Grundy County,TN,NA,NA,84.21052631578947
37421,Hamilton County,TN,NA,35.16209476309227,NA
37615,Washington County,TN,NA,NA,48.68421052631579
37683,Johnson County,TN,NA,48.12967581047381,NA
37716,Anderson County,TN,NA,NA,30.82706766917293
37745,Greene County,TN,NA,NA,64.09774436090225
37803,Blount County,TN,NA,NA,25.18796992481203
37857,Hawkins County,TN,36.930860033726816,NA,NA
38012,Haywood County,TN,NA,NA,66.72932330827066
38118,Shelby County,TN,NA,5.985037406483791,41.35338345864661
38119,Shelby County,TN,NA,NA,68.23308270676691
38127,Shelby County,TN,NA,44.38902743142145,NA
38135,Shelby County,TN,NA,45.885286783042396,NA
38301,Madison County,TN,NA,NA,7.330827067669173
38372,Hardin County,TN,34.56998313659359,NA,NA
38572,Cumberland County,TN,67.11635750421586,NA,NA
75009,Collin County,TX,93.08600337268128,NA,NA
75019,Dallas County,TX,86.17200674536257,NA,NA
75023,Collin County,TX,NA,61.84538653366584,NA
75035,Collin County,TX,88.1956155143339,NA,NA
75051,Dallas County,TX,7.925801011804384,64.08977556109726,NA
75062,Dallas County,TX,NA,NA,37.40601503759399
75110,Navarro County,TX,NA,NA,35.150375939849624
75126,Kaufman County,TX,22.4283305227656,NA,NA
75134,Dallas County,TX,29.679595278246207,NA,NA
75140,Van Zandt County,TX,NA,NA,95.48872180451127
75149,Dallas County,TX,NA,NA,68.04511278195488
75181,Dallas County,TX,NA,81.04738154613467,NA
75211,Dallas County,TX,NA,3.99002493765586,NA
75212,Dallas County,TX,38.954468802698145,NA,64.84962406015038
75225,Dallas County,TX,NA,NA,84.77443609022556
75227,Dallas County,TX,NA,30.423940149625935,NA
75232,Dallas County,TX,25.801011804384487,NA,NA
75233,Dallas County,TX,62.394603709949415,NA,NA
75482,Hopkins County,TX,54.300168634064086,31.421446384039903,NA
76010,Tarrant County,TX,NA,1.7456359102244388,NA
76014,Tarrant County,TX,NA,NA,78.94736842105263
76020,Tarrant County,TX,NA,40.89775561097257,NA
76028,Johnson County,TX,NA,NA,8.270676691729323
76039,Tarrant County,TX,NA,NA,30.263157894736842
76063,Tarrant County,TX,NA,NA,10.902255639097744
76071,Wise County,TX,NA,NA,99.43609022556392
76105,Tarrant County,TX,29.34232715008432,NA,NA
76106,Tarrant County,TX,NA,NA,38.721804511278194
76108,Tarrant County,TX,NA,44.63840399002494,NA
76116,Tarrant County,TX,NA,29.925187032418954,NA
76119,Tarrant County,TX,1.0118043844856661,NA,NA
76120,Tarrant County,TX,NA,NA,69.17293233082707
76140,Tarrant County,TX,NA,13.96508728179551,NA
76234,Wise County,TX,NA,NA,98.30827067669173
76244,Tarrant County,TX,NA,NA,18.796992481203006
76502,Bell County,TX,NA,NA,11.842105263157894
76541,Bell County,TX,NA,43.391521197007485,NA
76542,Bell County,TX,NA,10.473815461346634,NA
76543,Bell County,TX,NA,NA,21.2406015037594
76655,McLennan County,TX,NA,NA,98.68421052631578
77011,Harris County,TX,61.38279932546374,NA,NA
77015,Harris County,TX,NA,NA,60.338345864661655
77022,Harris County,TX,NA,38.90274314214464,NA
77023,Harris County,TX,NA,NA,49.62406015037594
77033,Harris County,TX,80.6070826306914,NA,NA
77036,Harris County,TX,NA,13.96508728179551,NA
77038,Harris County,TX,NA,61.84538653366584,NA
77039,Harris County,TX,68.8026981450253,NA,NA
77045,Harris County,TX,NA,15.46134663341646,NA
77049,Harris County,TX,NA,59.60099750623441,NA
77072,Harris County,TX,NA,93.01745635910224,NA
77075,Harris County,TX,NA,38.65336658354115,NA
77079,Harris County,TX,64.75548060708263,NA,NA
77084,Harris County,TX,NA,9.975062344139651,NA
77088,Harris County,TX,NA,NA,22.55639097744361
77099,Harris County,TX,NA,NA,99.81203007518798
77354,Montgomery County,TX,43.84485666104553,73.06733167082294,NA
77357,Montgomery County,TX,78.41483979763912,NA,NA
77365,Montgomery County,TX,NA,NA,40.97744360902256
77373,Harris County,TX,14.67116357504216,NA,NA
77377,Harris County,TX,23.946037099494095,NA,NA
77396,Harris County,TX,81.45025295109612,NA,NA
77406,Fort Bend County,TX,29.17369308600337,NA,NA
77407,Fort Bend County,TX,46.3743676222597,NA,NA
77414,Matagorda County,TX,NA,NA,36.84210526315789
77418,Austin County,TX,63.06913996627319,NA,NA
77433,Harris County,TX,NA,18.703241895261847,NA
77479,Fort Bend County,TX,NA,98.25436408977556,22.18045112781955
77484,Waller County,TX,61.551433389544684,NA,NA
77489,Fort Bend County,TX,NA,28.428927680798004,NA
77504,Harris County,TX,NA,NA,55.639097744360896
77506,Harris County,TX,NA,24.688279301745634,NA
77536,Harris County,TX,NA,NA,59.962406015037594
77571,Harris County,TX,9.949409780775717,NA,NA
77583,Brazoria County,TX,27.150084317032043,NA,NA
77611,Orange County,TX,NA,74.3142144638404,NA
77656,Hardin County,TX,58.34738617200674,NA,NA
77803,Brazos County,TX,39.96627318718381,NA,NA
77840,Brazos County,TX,NA,49.12718204488778,NA
77845,Brazos County,TX,23.608768971332207,NA,7.518796992481203
77901,Victoria County,TX,8.937605396290051,NA,NA
78040,Webb County,TX,NA,NA,83.0827067669173
78045,Webb County,TX,NA,3.2418952618453867,NA
78109,Bexar County,TX,NA,47.381546134663346,NA
78132,Comal County,TX,NA,68.3291770573566,NA
78133,Comal County,TX,NA,NA,50.75187969924813
78155,Guadalupe County,TX,63.06913996627319,77.80548628428927,NA
78211,Bexar County,TX,NA,13.466334164588527,NA
78217,Bexar County,TX,NA,21.695760598503743,NA
78227,Bexar County,TX,NA,5.486284289276807,NA
78228,Bexar County,TX,NA,4.239401496259352,NA
78233,Bexar County,TX,39.62900505902192,NA,NA
78237,Bexar County,TX,11.298482293423271,NA,NA
78363,Kleberg County,TX,NA,51.12219451371571,NA
78404,Nueces County,TX,74.19898819561551,NA,NA
78408,Nueces County,TX,NA,35.910224438902745,NA
78501,Hidalgo County,TX,NA,NA,37.96992481203007
78516,Hidalgo County,TX,NA,97.50623441396509,NA
78572,Hidalgo County,TX,NA,82.04488778054862,NA
78574,Hidalgo County,TX,7.251264755480608,NA,NA
78577,Hidalgo County,TX,NA,4.488778054862843,NA
78599,Hidalgo County,TX,NA,40.14962593516209,NA
78634,Williamson County,TX,75.71669477234401,NA,NA
78640,Hays County,TX,99.6627318718381,NA,NA
78644,Caldwell County,TX,54.97470489038786,NA,NA
78665,Williamson County,TX,17.200674536256326,NA,NA
78669,Travis County,TX,65.26138279932546,NA,NA
78704,Travis County,TX,NA,NA,57.5187969924812
78731,Travis County,TX,57.16694772344013,NA,NA
78734,Travis County,TX,NA,NA,88.34586466165413
78752,Travis County,TX,NA,58.85286783042394,NA
78758,Travis County,TX,NA,28.428927680798004,NA
78759,Travis County,TX,58.34738617200674,NA,NA
78801,Uvalde County,TX,NA,NA,86.2781954887218
78839,Zavala County,TX,NA,NA,96.61654135338345
78852,Maverick County,TX,NA,16.708229426433917,NA
79102,Potter County,TX,NA,NA,80.45112781954887
79109,Randall County,TX,NA,45.137157107231914,NA
79118,Randall County,TX,76.55986509274874,NA,NA
79360,Gaines County,TX,NA,NA,43.045112781954884
79603,Taylor County,TX,8.937605396290051,NA,NA
79705,Midland County,TX,13.490725126475548,NA,NA
79707,Midland County,TX,33.05227655986509,NA,NA
79761,Ector County,TX,21.585160202360875,NA,NA
79912,El Paso County,TX,NA,NA,20.112781954887218
79924,El Paso County,TX,NA,NA,35.902255639097746
79936,El Paso County,TX,NA,94.2643391521197,NA
84003,Utah County,UT,NA,87.28179551122194,NA
84010,Davis County,UT,NA,NA,33.83458646616541
84057,Utah County,UT,41.8212478920742,NA,NA
84062,Utah County,UT,49.4097807757167,NA,NA
84065,Salt Lake County,UT,28.667790893760543,NA,NA
84074,Tooele County,UT,64.08094435075886,NA,NA
84078,Uintah County,UT,15.851602023608768,NA,NA
84096,Salt Lake County,UT,47.72344013490725,NA,NA
84119,Salt Lake County,UT,NA,56.35910224438903,NA
84404,Weber County,UT,7.419898819561552,NA,NA
84405,Weber County,UT,57.84148397976391,NA,NA
84414,Weber County,UT,50.75885328836425,NA,NA
84601,Utah County,UT,NA,99.00249376558602,NA
84770,Washington County,UT,NA,64.33915211970074,31.76691729323308
05641,Washington County,VT,NA,NA,25.93984962406015
20111,Prince William County,VA,35.750421585160204,38.403990024937656,NA
20190,Fairfax County,VA,93.929173693086,NA,NA
22101,Fairfax County,VA,30.86003372681282,NA,NA
22204,Arlington County,VA,NA,92.76807980049875,NA
22205,Arlington County,VA,56.323777403035415,NA,NA
22206,Arlington County,VA,NA,NA,47.744360902255636
22546,Caroline County,VA,98.8195615514334,NA,NA
22701,Culpeper County,VA,NA,NA,18.984962406015036
22968,Greene County,VA,NA,NA,92.10526315789474
23024,Louisa County,VA,NA,75.81047381546135,NA
23060,Henrico County,VA,NA,49.12718204488778,NA
23188,James City County,VA,NA,NA,36.46616541353384
23228,Henrico County,VA,33.895446880269816,NA,NA
23234,Chesterfield County,VA,NA,7.231920199501247,NA
23237,Chesterfield County,VA,NA,NA,65.6015037593985
23434,Suffolk city,VA,NA,NA,12.030075187969924
23455,Virginia Beach city,VA,NA,40.14962593516209,35.526315789473685
23456,Virginia Beach city,VA,59.02192242833052,43.391521197007485,NA
23462,Virginia Beach city,VA,NA,NA,57.70676691729323
23464,Virginia Beach city,VA,19.73018549747049,NA,NA
23502,Norfolk city,VA,NA,NA,28.7593984962406
23508,Norfolk city,VA,NA,NA,64.28571428571429
23605,Newport News city,VA,NA,NA,86.46616541353383
23607,Newport News city,VA,73.0185497470489,NA,NA
23661,Hampton city,VA,NA,NA,86.65413533834587
23666,Hampton city,VA,NA,69.57605985037407,NA
23803,Petersburg city,VA,12.984822934232715,NA,NA
23824,Nottoway County,VA,75.21079258010118,NA,NA
23832,Chesterfield County,VA,99.32546374367622,NA,NA
23838,Chesterfield County,VA,NA,56.35910224438903,NA
24060,Montgomery County,VA,48.90387858347386,NA,NA
24091,Floyd County,VA,NA,84.78802992518703,NA
24230,Wise County,VA,NA,42.8927680798005,NA
24263,Lee County,VA,NA,NA,71.42857142857143
24343,Carroll County,VA,NA,NA,61.8421052631579
24422,Alleghany County,VA,77.57166947723441,NA,NA
24441,Rockingham County,VA,NA,NA,85.33834586466166
24502,Lynchburg city,VA,NA,NA,35.150375939849624
24540,Danville city,VA,77.90893760539629,NA,NA
24541,Danville city,VA,91.2310286677909,NA,NA
24588,Campbell County,VA,NA,55.11221945137157,NA
98022,King County,WA,94.09780775716695,NA,NA
98028,King County,WA,NA,NA,62.40601503759399
98036,Snohomish County,WA,NA,NA,38.53383458646616
98042,King County,WA,78.07757166947724,NA,NA
98087,Snohomish County,WA,31.703204047217536,NA,NA
98115,King County,WA,49.915682967959526,NA,NA
98168,King County,WA,NA,NA,24.62406015037594
98177,King County,WA,NA,92.01995012468828,NA
98223,Snohomish County,WA,NA,NA,75
98274,Skagit County,WA,56.155143338954474,NA,NA
98338,Pierce County,WA,NA,NA,38.721804511278194
98360,Pierce County,WA,NA,83.54114713216958,NA
98366,Kitsap County,WA,NA,83.29177057356608,NA
98374,Pierce County,WA,46.0370994940978,NA,NA
98387,Pierce County,WA,12.478920741989882,NA,NA
98404,Pierce County,WA,45.699831365935914,NA,NA
98506,Thurston County,WA,NA,NA,65.41353383458647
98532,Lewis County,WA,NA,NA,94.73684210526315
98604,Clark County,WA,NA,98.50374064837905,NA
98626,Cowlitz County,WA,35.413153456998316,NA,NA
98674,Cowlitz County,WA,99.49409780775717,NA,NA
98683,Clark County,WA,NA,NA,76.31578947368422
98686,Clark County,WA,NA,71.82044887780549,NA
98926,Kittitas County,WA,NA,66.83291770573567,NA
98930,Yakima County,WA,NA,NA,77.81954887218046
99324,Walla Walla County,WA,NA,NA,89.84962406015038
99337,Benton County,WA,NA,NA,19.548872180451127
99354,Benton County,WA,NA,42.8927680798005,NA
99362,Walla Walla County,WA,NA,30.92269326683292,19.360902255639097
20019,District of Columbia,DC,3.87858347386172,NA,15.413533834586465
25177,Kanawha County,WV,19.05564924114671,NA,NA
25302,Kanawha County,WV,70.99494097807757,NA,NA
25411,Morgan County,WV,73.0185497470489,NA,NA
25430,Jefferson County,WV,61.04553119730185,NA,NA
25526,Putnam County,WV,NA,NA,31.203007518796994
25545,Cabell County,WV,98.1450252951096,NA,NA
25702,Cabell County,WV,NA,95.01246882793018,NA
25801,Raleigh County,WV,NA,25.935162094763093,NA
26508,Monongalia County,WV,NA,NA,17.669172932330827
26547,Preston County,WV,87.85834738617201,NA,NA
53005,Waukesha County,WI,NA,NA,32.89473684210527
53014,Calumet County,WI,86.3406408094435,NA,62.21804511278195
53039,Dodge County,WI,NA,NA,93.23308270676691
53073,Sheboygan County,WI,NA,NA,74.62406015037594
53085,Sheboygan County,WI,NA,NA,87.21804511278195
53115,Walworth County,WI,NA,NA,67.29323308270678
53140,Kenosha County,WI,NA,24.189526184538654,NA
53142,Kenosha County,WI,4.215851602023609,76.30922693266832,NA
53181,Kenosha County,WI,NA,NA,49.24812030075188
53182,Racine County,WI,NA,NA,53.94736842105263
53209,Milwaukee County,WI,55.31197301854974,NA,25.75187969924812
53214,Milwaukee County,WI,NA,11.970074812967582,NA
53216,Milwaukee County,WI,NA,NA,21.052631578947366
53219,Milwaukee County,WI,NA,NA,86.09022556390977
53222,Milwaukee County,WI,NA,NA,45.86466165413533
53223,Milwaukee County,WI,NA,22.194513715710723,12.593984962406015
53227,Milwaukee County,WI,NA,32.66832917705736,72.74436090225564
53532,Dane County,WI,NA,NA,79.69924812030075
53590,Dane County,WI,10.792580101180437,NA,59.58646616541353
53704,Dane County,WI,40.97807757166947,NA,NA
54020,Polk County,WI,NA,NA,94.54887218045113
54115,Brown County,WI,43.50758853288364,NA,NA
54143,Marinette County,WI,NA,46.13466334164589,NA
54151,Marinette County,WI,NA,NA,66.35338345864662
54169,Calumet County,WI,85.32883642495784,NA,NA
54467,Portage County,WI,NA,NA,53.57142857142857
54601,La Crosse County,WI,NA,NA,5.263157894736842
54720,Eau Claire County,WI,NA,NA,83.27067669172934
54724,Chippewa County,WI,66.77908937605397,NA,NA
54729,Chippewa County,WI,NA,NA,55.26315789473685
54853,Polk County,WI,NA,96.50872817955111,NA
54868,Barron County,WI,NA,NA,54.699248120300744
54871,Washburn County,WI,NA,NA,100
54904,Winnebago County,WI,57.50421585160203,NA,NA
54961,Waupaca County,WI,NA,NA,74.43609022556392
82007,Laramie County,WY,64.2495784148398,NA,NA
82401,Washakie County,WY,NA,NA,81.57894736842105
