ZipCode,county,state,Adult,Retirement,Geriatric
35044,Talladega County,AL,83.22033898305085,NA,NA
35071,Jefferson County,AL,95.9322033898305,NA,94.83568075117371
35160,Talladega County,AL,43.559322033898304,NA,NA
35401,Tuscaloosa County,AL,NA,15.296803652968036,NA
35594,Marion County,AL,NA,65.98173515981736,NA
35603,Morgan County,AL,NA,80.36529680365297,NA
35646,Colbert County,AL,90.33898305084746,89.49771689497716,NA
35660,Colbert County,AL,62.03389830508475,NA,NA
35747,Marshall County,AL,NA,89.26940639269407,NA
35950,Marshall County,AL,NA,73.51598173515981,NA
35954,Etowah County,AL,52.03389830508475,46.118721461187214,NA
35968,DeKalb County,AL,96.10169491525423,NA,NA
36264,Cleburne County,AL,80,NA,NA
36322,Dale County,AL,NA,76.71232876712328,NA
36582,Mobile County,AL,44.57627118644068,39.04109589041096,NA
36613,Mobile County,AL,77.62711864406779,NA,NA
99507,Anchorage Municipality,AK,30.508474576271187,NA,NA
85008,Maricopa County,AZ,12.033898305084746,NA,NA
85018,Maricopa County,AZ,31.016949152542374,NA,NA
85043,Maricopa County,AZ,48.30508474576271,NA,NA
85122,Pinal County,AZ,NA,8.904109589041095,NA
85138,Pinal County,AZ,36.440677966101696,NA,NA
85209,Maricopa County,AZ,55.08474576271186,NA,NA
85282,Maricopa County,AZ,NA,35.84474885844749,NA
85298,Maricopa County,AZ,NA,NA,70.89201877934272
85335,Maricopa County,AZ,31.35593220338983,NA,NA
85383,Maricopa County,AZ,24.576271186440678,NA,NA
85614,Pima County,AZ,65.42372881355932,45.4337899543379,NA
85616,Cochise County,AZ,94.40677966101696,NA,NA
85641,Pima County,AZ,50.847457627118644,NA,NA
85653,Pima County,AZ,61.35593220338983,NA,NA
85704,Pima County,AZ,NA,52.51141552511416,NA
85705,Pima County,AZ,54.067796610169495,NA,NA
85706,Pima County,AZ,NA,6.164383561643835,NA
85711,Pima County,AZ,8.305084745762711,NA,NA
85713,Pima County,AZ,NA,78.99543378995433,NA
85716,Pima County,AZ,14.915254237288137,NA,NA
85718,Pima County,AZ,NA,NA,17.84037558685446
85730,Pima County,AZ,NA,51.141552511415526,NA
85735,Pima County,AZ,NA,97.03196347031964,NA
85742,Pima County,AZ,72.20338983050848,NA,50.70422535211267
85746,Pima County,AZ,11.186440677966102,82.1917808219178,84.03755868544602
85935,Navajo County,AZ,NA,NA,93.89671361502347
86001,Coconino County,AZ,18.135593220338983,NA,NA
86025,Navajo County,AZ,87.11864406779661,NA,NA
86409,Mohave County,AZ,NA,NA,66.19718309859155
86442,Mohave County,AZ,25.76271186440678,NA,NA
71909,Garland County,AR,NA,25.570776255707763,NA
72118,Pulaski County,AR,55.762711864406775,NA,NA
90004,Los Angeles County,CA,41.01694915254237,NA,NA
90034,Los Angeles County,CA,NA,NA,33.80281690140845
90046,Los Angeles County,CA,46.94915254237288,NA,NA
90065,Los Angeles County,CA,85.9322033898305,NA,NA
90210,Los Angeles County,CA,90,NA,NA
90602,Los Angeles County,CA,NA,89.72602739726028,NA
90630,Orange County,CA,NA,47.71689497716895,NA
90745,Los Angeles County,CA,NA,NA,18.30985915492958
90806,Los Angeles County,CA,NA,47.94520547945205,NA
91352,Los Angeles County,CA,22.71186440677966,NA,NA
91733,Los Angeles County,CA,83.38983050847457,NA,NA
91739,San Bernardino County,CA,92.88135593220339,NA,NA
91746,Los Angeles County,CA,NA,70.54794520547945,NA
91762,San Bernardino County,CA,31.52542372881356,NA,NA
91770,Los Angeles County,CA,NA,63.242009132420094,NA
92009,San Diego County,CA,NA,62.10045662100456,NA
92024,San Diego County,CA,64.57627118644068,NA,NA
92065,San Diego County,CA,NA,52.28310502283106,NA
92109,San Diego County,CA,91.35593220338983,NA,NA
92117,San Diego County,CA,NA,44.74885844748858,NA
92123,San Diego County,CA,57.6271186440678,NA,NA
92203,Riverside County,CA,40,NA,NA
92211,Riverside County,CA,NA,6.621004566210045,NA
92223,Riverside County,CA,71.1864406779661,NA,NA
92231,Imperial County,CA,29.830508474576273,NA,NA
92234,Riverside County,CA,NA,43.60730593607306,NA
92251,Imperial County,CA,NA,NA,75.11737089201877
92260,Riverside County,CA,NA,NA,67.13615023474179
92553,Riverside County,CA,NA,NA,40.845070422535215
92583,Riverside County,CA,55.59322033898305,NA,NA
92606,Orange County,CA,NA,94.29223744292237,NA
92614,Orange County,CA,NA,93.15068493150685,NA
92625,Orange County,CA,NA,97.71689497716895,NA
92629,Orange County,CA,NA,31.27853881278539,NA
92637,Orange County,CA,NA,NA,1.8779342723004695
92653,Orange County,CA,66.61016949152543,NA,NA
92656,Orange County,CA,NA,67.35159817351598,NA
92683,Orange County,CA,NA,15.52511415525114,NA
92694,Orange County,CA,86.27118644067797,NA,NA
92705,Orange County,CA,NA,NA,19.248826291079812
92802,Orange County,CA,NA,34.01826484018265,NA
92807,Orange County,CA,NA,90.18264840182648,NA
92883,Riverside County,CA,NA,NA,61.97183098591549
93001,Ventura County,CA,23.728813559322035,NA,NA
93010,Ventura County,CA,30.677966101694913,NA,NA
93015,Ventura County,CA,61.694915254237294,NA,NA
93060,Ventura County,CA,87.79661016949153,NA,NA
93230,Kings County,CA,NA,11.415525114155251,NA
93555,Kern County,CA,NA,NA,32.863849765258216
93611,Fresno County,CA,93.89830508474576,NA,NA
93619,Fresno County,CA,78.8135593220339,NA,NA
93657,Fresno County,CA,NA,63.4703196347032,NA
93906,Monterey County,CA,37.11864406779661,NA,NA
93950,Monterey County,CA,NA,80.59360730593608,NA
94044,San Mateo County,CA,NA,67.8082191780822,NA
94110,San Francisco County,CA,NA,29.68036529680365,NA
94117,San Francisco County,CA,NA,62.55707762557078,NA
94134,San Francisco County,CA,NA,67.12328767123287,26.291079812206576
94403,San Mateo County,CA,NA,13.470319634703195,NA
94506,Contra Costa County,CA,NA,NA,68.54460093896714
94550,Alameda County,CA,NA,NA,47.88732394366197
94558,Napa County,CA,NA,5.0228310502283104,23.474178403755868
94568,Alameda County,CA,47.62711864406779,NA,NA
94571,Solano County,CA,NA,90.41095890410958,NA
94587,Alameda County,CA,32.54237288135593,NA,NA
94588,Alameda County,CA,NA,NA,55.86854460093896
94591,Solano County,CA,82.37288135593221,NA,NA
95014,Santa Clara County,CA,NA,98.40182648401826,NA
95035,Santa Clara County,CA,NA,NA,76.99530516431925
95066,Santa Cruz County,CA,NA,84.93150684931507,NA
95123,Santa Clara County,CA,NA,67.57990867579909,NA
95125,Santa Clara County,CA,NA,48.17351598173516,81.69014084507043
95128,Santa Clara County,CA,33.389830508474574,NA,NA
95209,San Joaquin County,CA,43.389830508474574,NA,NA
95210,San Joaquin County,CA,35.932203389830505,NA,NA
95242,San Joaquin County,CA,NA,NA,43.66197183098591
95307,Stanislaus County,CA,NA,86.0730593607306,NA
95336,San Joaquin County,CA,27.288135593220336,NA,NA
95337,San Joaquin County,CA,63.559322033898304,NA,NA
95356,Stanislaus County,CA,NA,NA,51.64319248826291
95380,Stanislaus County,CA,78.13559322033899,NA,NA
95531,Del Norte County,CA,NA,40.8675799086758,NA
95602,Placer County,CA,85.2542372881356,NA,NA
95624,Sacramento County,CA,97.45762711864407,NA,NA
95628,Sacramento County,CA,54.74576271186441,NA,NA
95683,Sacramento County,CA,99.66101694915255,89.04109589041096,NA
95757,Sacramento County,CA,NA,NA,80.28169014084507
95762,El Dorado County,CA,84.23728813559322,NA,NA
95765,Placer County,CA,85.76271186440678,NA,NA
95820,Sacramento County,CA,84.40677966101696,NA,NA
95821,Sacramento County,CA,79.3220338983051,NA,NA
95822,Sacramento County,CA,NA,92.92237442922374,NA
95825,Sacramento County,CA,NA,78.31050228310502,NA
95826,Sacramento County,CA,NA,NA,86.3849765258216
95973,Butte County,CA,20.508474576271183,NA,NA
80015,Arapahoe County,CO,NA,NA,51.173708920187785
80022,Adams County,CO,NA,60.273972602739725,NA
80108,Douglas County,CO,NA,49.31506849315068,NA
80127,Jefferson County,CO,43.728813559322035,NA,NA
80202,Denver County,CO,73.38983050847457,82.42009132420091,NA
80205,Denver County,CO,11.694915254237289,NA,NA
80216,Denver County,CO,61.016949152542374,NA,NA
80223,Denver County,CO,79.66101694915254,NA,NA
80241,Adams County,CO,NA,57.077625570776256,NA
80247,Arapahoe County,CO,36.94915254237288,86.98630136986301,84.97652582159625
80249,Denver County,CO,76.10169491525424,NA,NA
80303,Boulder County,CO,NA,55.47945205479452,NA
80401,Jefferson County,CO,NA,89.95433789954338,NA
80501,Boulder County,CO,NA,NA,63.38028169014085
80525,Larimer County,CO,NA,7.534246575342466,NA
80550,Weld County,CO,26.949152542372882,NA,NA
80831,El Paso County,CO,NA,60.50228310502283,NA
81001,Pueblo County,CO,18.983050847457626,NA,NA
06002,Hartford County,CT,44.91525423728814,NA,NA
06093,Hartford County,CT,96.10169491525423,NA,NA
06405,New Haven County,CT,38.474576271186436,NA,NA
06450,New Haven County,CT,NA,34.93150684931507,NA
06451,New Haven County,CT,NA,29.908675799086758,NA
06489,Hartford County,CT,71.86440677966101,NA,NA
06511,New Haven County,CT,37.45762711864407,NA,NA
06704,New Haven County,CT,48.983050847457626,44.97716894977169,NA
06770,New Haven County,CT,NA,19.406392694063925,NA
06787,Litchfield County,CT,72.37288135593221,NA,NA
06790,Litchfield County,CT,5.762711864406779,1.36986301369863,NA
06804,Fairfield County,CT,NA,46.34703196347032,NA
06877,Fairfield County,CT,88.13559322033898,NA,NA
19701,New Castle County,DE,68.98305084745763,NA,NA
19702,New Castle County,DE,13.728813559322035,NA,NA
19804,New Castle County,DE,26.101694915254235,NA,NA
19805,New Castle County,DE,3.2203389830508473,NA,NA
19808,New Castle County,DE,NA,48.401826484018265,NA
19947,Sussex County,DE,41.186440677966104,NA,NA
32025,Columbia County,FL,35.25423728813559,NA,NA
32043,Clay County,FL,NA,NA,46.009389671361504
32068,Clay County,FL,52.71186440677966,NA,NA
32081,St. Johns County,FL,NA,88.81278538812786,NA
32086,St. Johns County,FL,NA,NA,11.737089201877934
32091,Bradford County,FL,NA,31.963470319634702,NA
32118,Volusia County,FL,NA,NA,73.23943661971832
32119,Volusia County,FL,NA,70.77625570776256,NA
32127,Volusia County,FL,NA,NA,25.352112676056336
32134,Marion County,FL,NA,80.13698630136986,NA
32163,Sumter County,FL,NA,55.93607305936074,NA
32176,Volusia County,FL,NA,NA,49.29577464788733
32206,Duval County,FL,NA,17.80821917808219,NA
32208,Duval County,FL,NA,42.922374429223744,NA
32428,Washington County,FL,NA,42.23744292237443,NA
32506,Escambia County,FL,40.847457627118644,NA,NA
32605,Alachua County,FL,NA,54.109589041095894,NA
32606,Alachua County,FL,NA,NA,2.8169014084507045
32607,Alachua County,FL,16.94915254237288,NA,49.76525821596244
32696,Levy County,FL,NA,39.95433789954338,NA
32703,Orange County,FL,20.847457627118644,NA,NA
32750,Seminole County,FL,58.644067796610166,NA,NA
32754,Brevard County,FL,NA,61.64383561643836,NA
32771,Seminole County,FL,76.77966101694915,NA,NA
32818,Orange County,FL,NA,88.35616438356165,NA
32935,Brevard County,FL,16.440677966101696,NA,NA
32952,Brevard County,FL,NA,36.5296803652968,NA
32976,Brevard County,FL,NA,42.465753424657535,NA
33012,Miami-Dade County,FL,NA,18.036529680365295,NA
33025,Broward County,FL,27.45762711864407,NA,NA
33065,Broward County,FL,44.237288135593225,NA,NA
33143,Miami-Dade County,FL,NA,53.88127853881278,NA
33145,Miami-Dade County,FL,NA,64.38356164383562,NA
33155,Miami-Dade County,FL,66.61016949152543,NA,NA
33157,Miami-Dade County,FL,58.47457627118644,NA,NA
33165,Miami-Dade County,FL,NA,NA,2.3474178403755865
33169,Miami-Dade County,FL,NA,87.67123287671232,NA
33180,Miami-Dade County,FL,97.79661016949153,NA,NA
33183,Miami-Dade County,FL,72.71186440677965,NA,NA
33193,Miami-Dade County,FL,55.254237288135585,NA,NA
33311,Broward County,FL,6.9491525423728815,NA,NA
33401,Palm Beach County,FL,NA,60.73059360730594,NA
33430,Palm Beach County,FL,47.11864406779661,NA,NA
33437,Palm Beach County,FL,73.89830508474576,NA,0.4694835680751174
33573,Hillsborough County,FL,NA,16.894977168949772,NA
33609,Hillsborough County,FL,66.27118644067797,NA,NA
33884,Polk County,FL,NA,63.6986301369863,NA
33896,Polk County,FL,83.89830508474576,NA,NA
33905,Lee County,FL,34.067796610169495,NA,NA
33913,Lee County,FL,75.76271186440678,NA,NA
33948,Charlotte County,FL,76.27118644067797,NA,NA
33950,Charlotte County,FL,69.49152542372882,NA,NA
33952,Charlotte County,FL,22.203389830508474,26.94063926940639,NA
34110,Collier County,FL,74.7457627118644,NA,NA
34219,Manatee County,FL,NA,NA,63.84976525821596
34233,Sarasota County,FL,72.03389830508475,NA,NA
34234,Sarasota County,FL,NA,33.789954337899545,NA
34292,Sarasota County,FL,99.32203389830508,NA,NA
34428,Citrus County,FL,NA,72.14611872146118,NA
34446,Citrus County,FL,75.59322033898304,NA,NA
34448,Citrus County,FL,NA,NA,69.95305164319248
34638,Pasco County,FL,NA,83.33333333333334,NA
34787,Orange County,FL,NA,16.666666666666664,NA
30013,Rockdale County,GA,42.88135593220339,NA,NA
30040,Forsyth County,GA,23.389830508474578,NA,11.267605633802818
30041,Forsyth County,GA,25.254237288135595,NA,NA
30064,Cobb County,GA,NA,28.31050228310502,NA
30078,Gwinnett County,GA,NA,NA,58.21596244131455
30101,Cobb County,GA,NA,NA,81.2206572769953
30117,Carroll County,GA,30,NA,NA
30122,Douglas County,GA,49.49152542372882,NA,NA
30252,Henry County,GA,62.54237288135593,NA,NA
30294,DeKalb County,GA,38.983050847457626,NA,NA
30310,Fulton County,GA,NA,12.100456621004566,NA
30344,Fulton County,GA,NA,30.82191780821918,NA
30461,Bulloch County,GA,67.62711864406779,NA,NA
30606,Clarke County,GA,35.76271186440678,NA,NA
30656,Walton County,GA,NA,NA,68.07511737089203
30680,Barrow County,GA,NA,NA,27.699530516431924
30707,Walker County,GA,NA,75.79908675799086,NA
30813,Columbia County,GA,NA,30.36529680365297,NA
30907,Columbia County,GA,51.52542372881356,NA,NA
31024,Putnam County,GA,NA,NA,29.577464788732392
31093,Houston County,GA,NA,26.027397260273972,NA
31204,Bibb County,GA,NA,NA,34.74178403755869
31410,Chatham County,GA,NA,NA,58.68544600938967
31643,Brooks County,GA,NA,71.23287671232876,NA
31719,Sumter County,GA,NA,NA,100
31779,Mitchell County,GA,84.91525423728814,NA,NA
39828,Grady County,GA,61.86440677966102,NA,NA
39842,Terrell County,GA,81.52542372881356,NA,NA
83301,Twin Falls County,ID,3.5593220338983054,NA,NA
83333,Blaine County,ID,NA,50.456621004566216,NA
83338,Jerome County,ID,49.32203389830509,NA,NA
83501,Nez Perce County,ID,12.88135593220339,NA,NA
83703,Ada County,ID,NA,86.7579908675799,NA
83709,Ada County,ID,NA,3.4246575342465753,NA
83714,Ada County,ID,NA,39.26940639269406,NA
83864,Bonner County,ID,NA,NA,47.417840375586856
60013,McHenry County,IL,NA,56.849315068493155,NA
60015,Lake County,IL,52.54237288135594,NA,NA
60030,Lake County,IL,NA,18.493150684931507,NA
60044,Lake County,IL,NA,96.80365296803653,NA
60051,McHenry County,IL,47.45762711864407,NA,NA
60062,Cook County,IL,NA,3.881278538812785,NA
60085,Lake County,IL,15.084745762711865,NA,NA
60093,Cook County,IL,NA,NA,57.27699530516433
60098,McHenry County,IL,28.983050847457626,NA,NA
60110,Kane County,IL,45.2542372881356,NA,NA
60153,Cook County,IL,36.10169491525424,NA,NA
60181,DuPage County,IL,NA,24.65753424657534,NA
60422,Cook County,IL,NA,NA,97.65258215962442
60442,Will County,IL,95.59322033898306,NA,NA
60448,Will County,IL,NA,38.35616438356164,NA
60452,Cook County,IL,NA,NA,36.15023474178404
60463,Cook County,IL,NA,36.757990867579906,NA
60468,Will County,IL,98.98305084745763,NA,NA
60513,Cook County,IL,38.13559322033898,NA,NA
60540,DuPage County,IL,NA,68.94977168949772,NA
60563,DuPage County,IL,81.01694915254237,NA,NA
60608,Cook County,IL,NA,NA,33.33333333333333
60610,Cook County,IL,NA,NA,76.05633802816901
60614,Cook County,IL,81.01694915254237,NA,NA
60616,Cook County,IL,34.067796610169495,NA,NA
60617,Cook County,IL,NA,2.054794520547945,NA
60625,Cook County,IL,NA,10.273972602739725,16.901408450704224
60632,Cook County,IL,NA,23.515981735159816,NA
60660,Cook County,IL,68.64406779661016,NA,NA
60914,Kankakee County,IL,NA,46.57534246575342,NA
61071,Whiteside County,IL,NA,41.32420091324201,NA
61109,Winnebago County,IL,NA,79.45205479452055,NA
61265,Rock Island County,IL,NA,NA,12.676056338028168
61455,McDonough County,IL,79.49152542372882,NA,NA
61520,Fulton County,IL,64.7457627118644,NA,NA
61554,Tazewell County,IL,NA,93.83561643835617,NA
61614,Peoria County,IL,NA,58.21917808219178,NA
61866,Champaign County,IL,38.64406779661017,NA,NA
61938,Coles County,IL,42.54237288135593,NA,NA
61944,Edgar County,IL,93.55932203389831,NA,NA
62010,Madison County,IL,88.30508474576271,NA,NA
62025,Madison County,IL,NA,32.19178082191781,NA
62448,Jasper County,IL,NA,76.48401826484019,NA
62704,Sangamon County,IL,81.86440677966101,NA,NA
62801,Marion County,IL,NA,52.054794520547944,NA
62837,Wayne County,IL,85.08474576271186,NA,NA
62864,Jefferson County,IL,NA,60.04566210045662,NA
46173,Rush County,IN,91.18644067796609,NA,NA
46201,Marion County,IN,15.254237288135593,NA,NA
46214,Marion County,IN,50.16949152542372,35.38812785388128,NA
46219,Marion County,IN,10.847457627118644,NA,NA
46226,Marion County,IN,10.508474576271185,NA,NA
46229,Marion County,IN,21.694915254237287,NA,NA
46235,Marion County,IN,NA,NA,53.52112676056338
46307,Lake County,IN,NA,0.91324200913242,1.4084507042253522
46321,Lake County,IN,NA,12.32876712328767,NA
46350,LaPorte County,IN,8.47457627118644,NA,NA
46404,Lake County,IN,NA,41.55251141552511,NA
46563,Marshall County,IN,37.6271186440678,NA,NA
46619,St. Joseph County,IN,93.22033898305084,NA,NA
46628,St. Joseph County,IN,45.42372881355932,NA,NA
46761,LaGrange County,IN,60,NA,NA
46819,Allen County,IN,NA,59.3607305936073,NA
47112,Harrison County,IN,49.66101694915254,47.26027397260274,NA
47130,Clark County,IN,NA,3.65296803652968,NA
47150,Floyd County,IN,NA,5.707762557077626,NA
47303,Delaware County,IN,NA,42.69406392694064,NA
47331,Fayette County,IN,NA,36.986301369863014,NA
47348,Blackford County,IN,56.949152542372886,NA,NA
50111,Polk County,IA,98.30508474576271,NA,NA
50265,Polk County,IA,36.610169491525426,NA,NA
50316,Polk County,IA,64.91525423728814,NA,NA
50317,Polk County,IA,NA,68.0365296803653,NA
50662,Fayette County,IA,NA,76.25570776255708,NA
52205,Jones County,IA,NA,94.06392694063926,NA
52233,Linn County,IA,NA,97.26027397260275,NA
52240,Johnson County,IA,18.8135593220339,NA,NA
52314,Linn County,IA,99.15254237288136,NA,NA
52402,Linn County,IA,NA,NA,62.91079812206573
52404,Linn County,IA,8.135593220338983,NA,NA
52405,Linn County,IA,36.10169491525424,NA,39.436619718309856
52627,Lee County,IA,NA,34.47488584474886,NA
52732,Clinton County,IA,NA,22.146118721461185,NA
52753,Scott County,IA,NA,99.54337899543378,NA
52761,Muscatine County,IA,NA,8.447488584474886,NA
52806,Scott County,IA,47.96610169491525,NA,NA
66106,Wyandotte County,KS,NA,52.73972602739726,NA
66216,Johnson County,KS,NA,NA,46.478873239436616
66713,Cherokee County,KS,NA,81.05022831050228,NA
66762,Crawford County,KS,NA,80.82191780821918,NA
66801,Lyon County,KS,46.271186440677965,NA,NA
67801,Ford County,KS,NA,50.91324200913242,NA
40031,Oldham County,KY,NA,42.922374429223744,NA
40207,Jefferson County,KY,NA,NA,85.44600938967136
40214,Jefferson County,KY,26.610169491525426,NA,NA
40216,Jefferson County,KY,NA,NA,9.389671361502346
40220,Jefferson County,KY,NA,NA,20.187793427230048
40229,Jefferson County,KY,NA,15.981735159817351,NA
40241,Jefferson County,KY,NA,60.95890410958904,NA
40258,Jefferson County,KY,19.661016949152543,NA,NA
40291,Jefferson County,KY,NA,NA,30.51643192488263
40380,Powell County,KY,NA,91.0958904109589,NA
40437,Lincoln County,KY,94.57627118644068,NA,NA
40484,Lincoln County,KY,NA,73.0593607305936,NA
40502,Fayette County,KY,54.91525423728814,NA,40.375586854460096
40503,Fayette County,KY,83.55932203389831,NA,NA
40511,Fayette County,KY,62.37288135593221,38.81278538812785,NA
41042,Boone County,KY,NA,NA,56.33802816901409
41339,Breathitt County,KY,70.33898305084746,NA,NA
42066,Graves County,KY,NA,NA,31.455399061032864
42071,Calloway County,KY,37.6271186440678,NA,NA
42101,Warren County,KY,54.57627118644067,NA,NA
42129,Metcalfe County,KY,NA,NA,79.81220657276995
42134,Simpson County,KY,NA,NA,48.82629107981221
42141,Barren County,KY,NA,58.9041095890411,NA
42276,Logan County,KY,NA,48.63013698630137,NA
42303,Daviess County,KY,NA,59.817351598173516,NA
42366,Daviess County,KY,92.03389830508475,NA,NA
42431,Hopkins County,KY,20,NA,NA
42701,Hardin County,KY,NA,7.077625570776255,NA
42726,Grayson County,KY,NA,81.9634703196347,NA
70001,Jefferson Parish,LA,4.406779661016949,NA,NA
70072,Jefferson Parish,LA,NA,2.5114155251141552,NA
70125,Orleans Parish,LA,NA,NA,91.07981220657277
70345,Lafourche Parish,LA,43.898305084745765,NA,NA
70394,Lafourche Parish,LA,NA,NA,30.046948356807512
70461,St. Tammany Parish,LA,NA,NA,39.906103286384976
70471,St. Tammany Parish,LA,38.813559322033896,47.48858447488584,NA
70542,Vermilion Parish,LA,NA,100,NA
70548,Vermilion Parish,LA,NA,64.61187214611871,NA
70586,Evangeline Parish,LA,NA,NA,41.78403755868544
70668,Calcasieu Parish,LA,57.45762711864407,NA,NA
71201,Ouachita Parish,LA,32.03389830508475,NA,NA
71292,Ouachita Parish,LA,11.35593220338983,NA,NA
71303,Rapides Parish,LA,55.932203389830505,NA,NA
03901,York County,ME,82.37288135593221,NA,NA
03904,York County,ME,NA,NA,95.77464788732394
04039,Cumberland County,ME,74.7457627118644,NA,NA
04062,Cumberland County,ME,NA,NA,95.30516431924883
04103,Cumberland County,ME,19.152542372881356,17.579908675799086,NA
04330,Kennebec County,ME,51.864406779661024,NA,NA
04457,Penobscot County,ME,62.20338983050847,NA,NA
04462,Penobscot County,ME,NA,71.68949771689498,NA
04605,Hancock County,ME,NA,49.08675799086758,NA
04938,Franklin County,ME,NA,NA,89.2018779342723
04963,Kennebec County,ME,NA,92.23744292237443,NA
20650,St. Mary's County,MD,NA,90.6392694063927,NA
20740,Prince George's County,MD,NA,87.89954337899543,NA
20743,Prince George's County,MD,83.72881355932203,NA,NA
21009,Harford County,MD,44.40677966101695,NA,NA
21045,Howard County,MD,NA,55.70776255707762,NA
21093,Baltimore County,MD,NA,21.232876712328768,NA
21133,Baltimore County,MD,51.355932203389834,NA,NA
21208,Baltimore County,MD,NA,NA,42.72300469483568
21216,Baltimore city,MD,NA,NA,48.35680751173709
21225,Baltimore city,MD,32.3728813559322,NA,NA
21601,Talbot County,MD,90.84745762711864,NA,NA
21784,Carroll County,MD,95.25423728813558,NA,NA
01040,Hampden County,MA,0,NA,NA
01089,Hampden County,MA,4.23728813559322,NA,NA
01095,Hampden County,MA,NA,NA,45.07042253521127
01105,Hampden County,MA,NA,7.76255707762557,NA
01247,Berkshire County,MA,NA,83.56164383561644,NA
01524,Worcester County,MA,NA,51.598173515981735,NA
01540,Worcester County,MA,36.77966101694915,NA,NA
01545,Worcester County,MA,NA,57.30593607305936,NA
01603,Worcester County,MA,NA,1.82648401826484,NA
01604,Worcester County,MA,0.5084745762711864,NA,NA
01607,Worcester County,MA,NA,86.3013698630137,NA
01721,Middlesex County,MA,NA,59.1324200913242,NA
01752,Middlesex County,MA,NA,9.360730593607306,NA
01757,Worcester County,MA,2.5423728813559325,NA,21.5962441314554
01776,Middlesex County,MA,39.83050847457627,NA,NA
01803,Middlesex County,MA,17.457627118644066,NA,NA
01821,Middlesex County,MA,4.915254237288136,NA,NA
01843,Essex County,MA,30.677966101694913,41.78082191780822,NA
01844,Essex County,MA,0.847457627118644,NA,NA
01845,Essex County,MA,69.32203389830508,NA,NA
01850,Middlesex County,MA,7.627118644067797,NA,NA
01876,Middlesex County,MA,26.779661016949152,NA,NA
01887,Middlesex County,MA,6.440677966101695,NA,NA
01915,Essex County,MA,58.30508474576271,NA,NA
01930,Essex County,MA,32.71186440677966,NA,NA
01938,Essex County,MA,NA,NA,82.15962441314554
01944,Essex County,MA,93.05084745762711,NA,NA
02019,Norfolk County,MA,33.220338983050844,NA,NA
02035,Norfolk County,MA,NA,NA,77.46478873239437
02119,Suffolk County,MA,1.3559322033898304,NA,NA
02126,Suffolk County,MA,NA,NA,15.492957746478872
02128,Suffolk County,MA,NA,NA,28.169014084507044
02129,Suffolk County,MA,NA,76.9406392694064,NA
02130,Suffolk County,MA,97.96610169491525,NA,NA
02131,Suffolk County,MA,10.16949152542373,40.182648401826484,NA
02138,Middlesex County,MA,10.677966101694915,NA,NA
02139,Middlesex County,MA,43.22033898305085,NA,NA
02141,Middlesex County,MA,26.440677966101696,NA,NA
02145,Middlesex County,MA,4.745762711864407,NA,NA
02149,Middlesex County,MA,NA,29.22374429223744,NA
02151,Suffolk County,MA,1.694915254237288,NA,0
02155,Middlesex County,MA,NA,4.794520547945205,NA
02169,Norfolk County,MA,0.1694915254237288,NA,NA
02184,Norfolk County,MA,22.88135593220339,NA,NA
02333,Plymouth County,MA,NA,34.70319634703196,NA
02339,Plymouth County,MA,94.23728813559322,NA,NA
02341,Plymouth County,MA,94.74576271186442,NA,NA
02379,Plymouth County,MA,90.5084745762712,NA,NA
02382,Plymouth County,MA,NA,97.48858447488584,NA
02451,Middlesex County,MA,22.372881355932204,NA,NA
02453,Middlesex County,MA,8.64406779661017,10.95890410958904,NA
02467,Norfolk County,MA,69.83050847457626,69.63470319634703,NA
02568,Dukes County,MA,NA,90.8675799086758,NA
02639,Barnstable County,MA,96.61016949152543,NA,NA
02649,Barnstable County,MA,NA,21.689497716894977,15.96244131455399
48026,Macomb County,MI,32.88135593220339,NA,92.95774647887323
48036,Macomb County,MI,25.08474576271186,NA,NA
48044,Macomb County,MI,29.152542372881356,NA,NA
48091,Macomb County,MI,NA,11.643835616438356,NA
48103,Washtenaw County,MI,67.28813559322035,NA,NA
48105,Washtenaw County,MI,NA,55.25114155251142,NA
48108,Washtenaw County,MI,76.61016949152543,NA,NA
48118,Washtenaw County,MI,NA,27.168949771689498,NA
48122,Wayne County,MI,75.08474576271186,NA,NA
48124,Wayne County,MI,17.11864406779661,NA,NA
48152,Wayne County,MI,29.491525423728817,NA,NA
48162,Monroe County,MI,NA,2.968036529680365,NA
48176,Washtenaw County,MI,95.08474576271186,NA,NA
48204,Wayne County,MI,NA,24.429223744292237,NA
48228,Wayne County,MI,1.1864406779661016,NA,NA
48230,Wayne County,MI,46.779661016949156,NA,NA
48235,Wayne County,MI,2.711864406779661,NA,NA
48237,Oakland County,MI,87.45762711864407,NA,NA
48302,Oakland County,MI,NA,92.00913242009132,NA
48309,Oakland County,MI,30.338983050847457,NA,NA
48341,Oakland County,MI,27.11864406779661,NA,NA
48381,Oakland County,MI,NA,44.29223744292237,NA
48382,Oakland County,MI,45.08474576271186,NA,NA
48386,Oakland County,MI,53.898305084745765,32.42009132420091,NA
48439,Genesee County,MI,NA,NA,10.328638497652582
48446,Lapeer County,MI,NA,63.926940639269404,74.17840375586854
48602,Saginaw County,MI,3.389830508474576,NA,NA
48642,Midland County,MI,NA,57.76255707762557,NA
48706,Bay County,MI,NA,0.45662100456621,NA
48750,Iosco County,MI,NA,NA,55.39906103286385
48759,Huron County,MI,NA,77.1689497716895,NA
48846,Ionia County,MI,35.59322033898305,NA,NA
48880,Gratiot County,MI,79.83050847457626,NA,NA
48911,Ingham County,MI,6.271186440677965,NA,NA
49009,Kalamazoo County,MI,NA,29.45205479452055,NA
49015,Calhoun County,MI,14.237288135593221,NA,NA
49037,Calhoun County,MI,NA,NA,38.497652582159624
49112,Cass County,MI,NA,96.34703196347031,NA
49203,Jackson County,MI,NA,5.47945205479452,NA
49301,Kent County,MI,NA,54.794520547945204,NA
49418,Kent County,MI,NA,21.91780821917808,NA
49423,Ottawa County,MI,NA,NA,5.164319248826291
49426,Ottawa County,MI,88.64406779661017,NA,NA
49428,Ottawa County,MI,47.28813559322034,NA,NA
49444,Muskegon County,MI,NA,NA,20.657276995305164
49457,Muskegon County,MI,NA,94.97716894977168,NA
49504,Kent County,MI,NA,NA,69.01408450704226
49525,Kent County,MI,NA,18.949771689497716,NA
49534,Kent County,MI,NA,NA,43.1924882629108
49548,Kent County,MI,7.288135593220339,NA,NA
49781,Mackinac County,MI,99.49152542372882,NA,NA
49783,Chippewa County,MI,17.627118644067796,NA,NA
49802,Dickinson County,MI,87.28813559322035,NA,NA
55021,Rice County,MN,NA,NA,42.25352112676056
55033,Dakota County,MN,27.966101694915253,NA,NA
55038,Washington County,MN,NA,75.34246575342466,NA
55101,Ramsey County,MN,NA,72.6027397260274,NA
55109,Ramsey County,MN,41.69491525423729,NA,NA
55113,Ramsey County,MN,NA,36.07305936073059,NA
55118,Dakota County,MN,46.101694915254235,61.18721461187214,NA
55122,Dakota County,MN,57.11864406779661,NA,NA
55126,Ramsey County,MN,53.38983050847458,NA,NA
55128,Washington County,MN,NA,NA,44.13145539906103
55311,Hennepin County,MN,53.22033898305085,NA,NA
55376,Wright County,MN,78.98305084745762,NA,NA
55379,Scott County,MN,NA,NA,91.54929577464789
55416,Hennepin County,MN,39.66101694915255,NA,NA
55422,Hennepin County,MN,NA,30.82191780821918,NA
55428,Hennepin County,MN,16.610169491525422,NA,NA
55436,Hennepin County,MN,NA,NA,65.25821596244131
55734,St. Louis County,MN,NA,NA,57.74647887323944
55792,St. Louis County,MN,60.84745762711864,NA,NA
55807,St. Louis County,MN,NA,NA,53.051643192488264
55904,Olmsted County,MN,75.9322033898305,NA,NA
55912,Mower County,MN,6.610169491525424,NA,NA
55921,Houston County,MN,NA,93.37899543378995,NA
55944,Dodge County,MN,NA,91.32420091324201,NA
56031,Martin County,MN,NA,44.97716894977169,NA
56164,Pipestone County,MN,91.86440677966101,NA,NA
56301,Stearns County,MN,86.61016949152543,NA,NA
56308,Douglas County,MN,24.06779661016949,NA,NA
56345,Morrison County,MN,NA,NA,13.145539906103288
56470,Hubbard County,MN,NA,81.7351598173516,NA
56560,Clay County,MN,NA,20.54794520547945,NA
56601,Beltrami County,MN,NA,98.17351598173516,0.9389671361502347
56701,Pennington County,MN,61.186440677966104,74.42922374429224,NA
38671,DeSoto County,MS,30.16949152542373,NA,NA
39170,Hinds County,MS,76.4406779661017,NA,NA
39194,Yazoo County,MS,72.54237288135593,NA,NA
39213,Hinds County,MS,32.20338983050847,NA,NA
39232,Rankin County,MS,94.0677966101695,NA,NA
39301,Lauderdale County,MS,NA,37.21461187214612,NA
39401,Forrest County,MS,80.50847457627118,NA,NA
39501,Harrison County,MS,NA,NA,24.413145539906104
39503,Harrison County,MS,9.491525423728813,NA,NA
39507,Harrison County,MS,NA,55.93607305936074,NA
39530,Harrison County,MS,93.72881355932203,NA,NA
39532,Harrison County,MS,NA,NA,15.023474178403756
39560,Harrison County,MS,NA,30.59360730593607,NA
39562,Jackson County,MS,NA,36.3013698630137,NA
39564,Jackson County,MS,89.49152542372882,NA,25.821596244131456
39565,Jackson County,MS,NA,83.10502283105022,NA
39601,Lincoln County,MS,81.35593220338984,NA,NA
39740,Lowndes County,MS,NA,99.77168949771689,NA
39759,Oktibbeha County,MS,NA,84.24657534246576,NA
63080,Franklin County,MO,NA,41.0958904109589,NA
63101,St. Louis city,MO,98.8135593220339,NA,NA
63114,St. Louis County,MO,NA,23.972602739726025,NA
63116,St. Louis city,MO,NA,43.83561643835616,NA
63119,St. Louis County,MO,NA,NA,7.042253521126761
63137,St. Louis County,MO,35.08474576271187,NA,NA
63301,St. Charles County,MO,NA,18.72146118721461,NA
63303,St. Charles County,MO,21.01694915254237,NA,NA
63376,St. Charles County,MO,NA,NA,4.225352112676056
63552,Macon County,MO,73.22033898305085,NA,NA
63901,Butler County,MO,12.203389830508476,NA,NA
64106,Jackson County,MO,53.559322033898304,NA,NA
64114,Jackson County,MO,NA,31.506849315068493,NA
64118,Clay County,MO,5.2542372881355925,NA,NA
64119,Clay County,MO,70.6779661016949,NA,NA
64506,Buchanan County,MO,15.593220338983052,NA,NA
64772,Vernon County,MO,78.30508474576271,NA,NA
65013,Maries County,MO,NA,NA,99.06103286384976
65049,Camden County,MO,98.64406779661017,NA,NA
65084,Morgan County,MO,NA,98.63013698630137,NA
65201,Boone County,MO,41.86440677966102,NA,NA
65203,Boone County,MO,NA,NA,5.633802816901409
65301,Pettis County,MO,3.728813559322034,NA,NA
65340,Saline County,MO,NA,92.69406392694064,NA
65401,Phelps County,MO,34.74576271186441,NA,NA
65560,Dent County,MO,50,NA,NA
65608,Douglas County,MO,92.37288135593221,NA,NA
65616,Taney County,MO,NA,56.39269406392694,NA
65672,Taney County,MO,NA,95.662100456621,NA
59330,Dawson County,MT,NA,69.40639269406392,NA
59405,Cascade County,MT,54.40677966101695,12.785388127853881,NA
59425,Pondera County,MT,98.13559322033898,NA,NA
59601,Lewis and Clark County,MT,65.93220338983052,NA,NA
59711,Deer Lodge County,MT,88.98305084745762,91.78082191780823,NA
59859,Sanders County,MT,NA,NA,98.12206572769952
59911,Flathead County,MT,99.83050847457628,NA,NA
68333,Saline County,NE,NA,94.52054794520548,NA
69001,Red Willow County,NE,91.69491525423729,NA,NA
89506,Washoe County,NV,15.423728813559324,NA,NA
89815,Elko County,NV,NA,92.46575342465754,NA
03051,Hillsborough County,NH,20,NA,NA
03053,Rockingham County,NH,24.40677966101695,NA,NA
03103,Hillsborough County,NH,5.593220338983051,6.8493150684931505,NA
03246,Belknap County,NH,NA,85.38812785388129,NA
03249,Belknap County,NH,NA,NA,97.1830985915493
03431,Cheshire County,NH,79.15254237288136,NA,NA
03766,Grafton County,NH,NA,53.19634703196348,NA
03862,Rockingham County,NH,NA,93.60730593607306,NA
07008,Middlesex County,NJ,NA,NA,94.36619718309859
07111,Essex County,NJ,0.6779661016949152,NA,NA
07501,Passaic County,NJ,26.27118644067797,NA,NA
07601,Bergen County,NJ,NA,4.5662100456621,NA
08033,Camden County,NJ,NA,96.57534246575342,NA
08055,Burlington County,NJ,57.79661016949152,NA,NA
08087,Ocean County,NJ,59.152542372881356,NA,NA
08540,Mercer County,NJ,NA,NA,28.638497652582164
08759,Ocean County,NJ,NA,25.34246575342466,NA
87106,Bernalillo County,NM,18.305084745762713,NA,NA
87114,Bernalillo County,NM,7.966101694915253,NA,NA
87120,Bernalillo County,NM,8.983050847457626,NA,NA
87144,Sandoval County,NM,NA,78.53881278538812,NA
88203,Chaves County,NM,16.271186440677965,13.698630136986301,NA
10009,New York County,NY,48.13559322033898,NA,NA
10028,New York County,NY,NA,71.00456621004567,NA
10031,New York County,NY,29.322033898305083,NA,NA
10035,New York County,NY,NA,NA,9.859154929577464
10036,New York County,NY,NA,65.52511415525115,NA
10040,New York County,NY,56.440677966101696,NA,NA
10305,Richmond County,NY,NA,12.557077625570775,NA
10308,Richmond County,NY,NA,72.3744292237443,NA
10312,Richmond County,NY,NA,19.17808219178082,NA
10456,Bronx County,NY,NA,0,NA
10457,Bronx County,NY,0.3389830508474576,NA,NA
10459,Bronx County,NY,NA,59.589041095890416,NA
10460,Bronx County,NY,2.3728813559322033,NA,NA
10462,Bronx County,NY,5.932203389830509,NA,NA
10471,Bronx County,NY,NA,85.61643835616438,NA
10950,Orange County,NY,57.79661016949152,NA,NA
11203,Kings County,NY,NA,4.337899543378995,NA
11205,Kings County,NY,NA,15.068493150684931,NA
11206,Kings County,NY,NA,NA,4.694835680751173
11218,Kings County,NY,NA,NA,6.103286384976526
11223,Kings County,NY,NA,8.67579908675799,NA
11224,Kings County,NY,16.101694915254235,NA,NA
11233,Kings County,NY,2.2033898305084745,NA,NA
11236,Kings County,NY,4.067796610169491,5.93607305936073,NA
11354,Queens County,NY,82.03389830508473,NA,NA
11355,Queens County,NY,68.8135593220339,NA,NA
11372,Queens County,NY,71.69491525423729,NA,NA
11433,Queens County,NY,NA,NA,69.48356807511738
11561,Nassau County,NY,NA,NA,52.58215962441315
11746,Suffolk County,NY,45.76271186440678,NA,NA
11758,Nassau County,NY,NA,NA,15.96244131455399
11766,Suffolk County,NY,96.77966101694915,83.78995433789954,NA
12010,Montgomery County,NY,5.084745762711865,NA,NA
12189,Albany County,NY,NA,NA,98.59154929577466
12303,Schenectady County,NY,84.57627118644068,NA,NA
12901,Clinton County,NY,31.864406779661014,NA,NA
12979,Clinton County,NY,92.54237288135593,NA,NA
12992,Clinton County,NY,NA,72.8310502283105,NA
13029,Onondaga County,NY,86.4406779661017,NA,NA
13114,Oswego County,NY,NA,95.2054794520548,NA
13126,Oswego County,NY,NA,54.5662100456621,NA
13212,Onondaga County,NY,28.474576271186443,NA,NA
13425,Oneida County,NY,NA,99.08675799086758,NA
13830,Chenango County,NY,NA,61.87214611872146,NA
13838,Delaware County,NY,58.98305084745763,NA,NA
13850,Broome County,NY,13.898305084745763,NA,NA
14020,Genesee County,NY,63.72881355932203,52.96803652968036,NA
14031,Erie County,NY,76.94915254237287,NA,NA
14204,Erie County,NY,39.152542372881356,NA,NA
14207,Erie County,NY,7.796610169491526,NA,NA
14214,Erie County,NY,NA,32.87671232876712,NA
14222,Erie County,NY,49.152542372881356,NA,NA
14450,Monroe County,NY,NA,9.817351598173515,NA
14472,Monroe County,NY,43.898305084745765,NA,96.24413145539906
14522,Wayne County,NY,NA,77.3972602739726,NA
14527,Yates County,NY,23.898305084745765,NA,NA
14534,Monroe County,NY,NA,28.767123287671232,3.286384976525822
14568,Wayne County,NY,56.61016949152542,NA,NA
14569,Wyoming County,NY,81.69491525423729,NA,NA
14606,Monroe County,NY,NA,8.21917808219178,NA
14610,Monroe County,NY,71.01694915254238,NA,NA
14616,Monroe County,NY,NA,28.99543378995434,NA
14617,Monroe County,NY,NA,38.12785388127854,NA
14618,Monroe County,NY,NA,63.013698630136986,NA
14624,Monroe County,NY,3.050847457627119,13.013698630136986,NA
14625,Monroe County,NY,87.62711864406779,NA,NA
14706,Cattaraugus County,NY,50.16949152542372,NA,NA
14883,Tioga County,NY,77.79661016949152,NA,NA
14904,Chemung County,NY,NA,31.7351598173516,NA
27028,Davie County,NC,NA,58.44748858447488,NA
27040,Forsyth County,NC,NA,22.831050228310502,NA
27215,Alamance County,NC,60.16949152542372,NA,NA
27217,Alamance County,NC,NA,NA,35.2112676056338
27260,Guilford County,NC,NA,40.63926940639269,NA
27265,Guilford County,NC,NA,10.730593607305936,21.12676056338028
27288,Rockingham County,NC,39.49152542372881,NA,NA
27292,Davidson County,NC,4.576271186440678,NA,NA
27358,Guilford County,NC,NA,NA,76.52582159624414
27405,Guilford County,NC,9.830508474576272,35.15981735159817,NA
27501,Harnett County,NC,73.05084745762713,NA,NA
27511,Wake County,NC,NA,NA,32.3943661971831
27514,Orange County,NC,NA,77.85388127853882,NA
27530,Wayne County,NC,13.050847457627118,NA,NA
27540,Wake County,NC,NA,87.21461187214612,NA
27563,Warren County,NC,NA,NA,90.61032863849765
27592,Wake County,NC,NA,58.675799086758,NA
27603,Wake County,NC,75.42372881355932,20.319634703196346,NA
27604,Wake County,NC,NA,74.88584474885845,NA
27609,Wake County,NC,NA,NA,23.943661971830984
27612,Wake County,NC,NA,NA,65.72769953051643
27704,Durham County,NC,NA,22.602739726027394,NA
27713,Durham County,NC,21.525423728813557,NA,NA
27823,Halifax County,NC,67.79661016949152,NA,NA
27858,Pitt County,NC,51.186440677966104,NA,NA
27871,Martin County,NC,NA,NA,92.48826291079813
27892,Martin County,NC,NA,24.885844748858446,NA
27909,Pasquotank County,NC,11.525423728813559,NA,NA
27932,Chowan County,NC,48.30508474576271,NA,NA
28012,Gaston County,NC,NA,88.58447488584474,NA
28086,Cleveland County,NC,50.67796610169491,NA,NA
28112,Union County,NC,80.67796610169492,NA,NA
28205,Mecklenburg County,NC,NA,21.00456621004566,NA
28211,Mecklenburg County,NC,27.796610169491526,NA,NA
28215,Mecklenburg County,NC,13.389830508474576,NA,NA
28304,Cumberland County,NC,28.30508474576271,NA,NA
28320,Bladen County,NC,NA,NA,71.83098591549296
28374,Moore County,NC,89.32203389830508,NA,NA
28376,Hoke County,NC,27.45762711864407,NA,NA
28412,New Hanover County,NC,13.559322033898304,NA,NA
28470,Brunswick County,NC,NA,56.62100456621004,NA
28546,Onslow County,NC,NA,66.89497716894978,NA
28557,Carteret County,NC,88.47457627118645,NA,NA
28572,Duplin County,NC,NA,84.01826484018264,NA
28602,Catawba County,NC,NA,NA,96.71361502347418
28612,Burke County,NC,NA,45.89041095890411,NA
28630,Caldwell County,NC,29.491525423728817,NA,NA
28645,Caldwell County,NC,NA,5.251141552511415,NA
28697,Wilkes County,NC,NA,NA,88.73239436619718
28719,Jackson County,NC,42.3728813559322,NA,NA
28739,Henderson County,NC,NA,NA,37.08920187793427
28786,Haywood County,NC,NA,13.926940639269406,NA
28803,Buncombe County,NC,NA,25.11415525114155,NA
58538,Sioux County,ND,100,NA,NA
43016,Franklin County,OH,53.050847457627114,NA,NA
43023,Licking County,OH,NA,94.74885844748859,NA
43055,Licking County,OH,1.5254237288135595,NA,NA
43130,Fairfield County,OH,1.864406779661017,1.5981735159817352,NA
43138,Hocking County,OH,NA,23.059360730593607,NA
43160,Fayette County,OH,65.59322033898304,16.43835616438356,NA
43207,Franklin County,OH,2.0338983050847457,NA,NA
43220,Franklin County,OH,NA,40.41095890410959,NA
43452,Ottawa County,OH,NA,25.799086757990867,NA
43512,Defiance County,OH,NA,39.726027397260275,NA
43545,Henry County,OH,80.33898305084746,NA,NA
43615,Lucas County,OH,53.72881355932203,NA,NA
43725,Guernsey County,OH,13.220338983050848,NA,NA
43730,Perry County,OH,97.6271186440678,NA,NA
43731,Perry County,OH,64.0677966101695,NA,NA
43947,Belmont County,OH,68.47457627118644,NA,NA
43953,Jefferson County,OH,NA,19.863013698630137,NA
44011,Lorain County,OH,NA,19.863013698630137,7.981220657276995
44017,Cuyahoga County,OH,60.50847457627119,NA,87.79342723004694
44030,Ashtabula County,OH,19.830508474576273,NA,NA
44039,Lorain County,OH,NA,NA,3.755868544600939
44050,Lorain County,OH,NA,NA,46.948356807511736
44067,Summit County,OH,NA,NA,66.66666666666666
44072,Geauga County,OH,NA,74.65753424657534,NA
44106,Cuyahoga County,OH,33.389830508474574,NA,NA
44109,Cuyahoga County,OH,NA,0.684931506849315,NA
44115,Cuyahoga County,OH,NA,73.74429223744292,NA
44116,Cuyahoga County,OH,NA,87.44292237442922,NA
44124,Cuyahoga County,OH,NA,2.28310502283105,NA
44125,Cuyahoga County,OH,1.0169491525423728,NA,NA
44135,Cuyahoga County,OH,31.186440677966104,NA,NA
44138,Cuyahoga County,OH,NA,18.2648401826484,NA
44141,Cuyahoga County,OH,NA,84.70319634703196,NA
44143,Cuyahoga County,OH,NA,10.045662100456621,NA
44202,Portage County,OH,NA,NA,6.572769953051644
44203,Summit County,OH,52.3728813559322,NA,NA
44233,Medina County,OH,NA,45.662100456621005,89.67136150234741
44236,Summit County,OH,NA,NA,34.27230046948357
44256,Medina County,OH,NA,14.61187214611872,NA
44260,Portage County,OH,NA,NA,71.36150234741784
44266,Portage County,OH,NA,26.71232876712329,NA
44301,Summit County,OH,NA,42.00913242009132,NA
44307,Summit County,OH,42.03389830508474,NA,NA
44314,Summit County,OH,52.20338983050847,NA,NA
44471,Mahoning County,OH,89.83050847457628,NA,NA
44683,Tuscarawas County,OH,NA,NA,64.31924882629107
44903,Richland County,OH,45.593220338983045,14.15525114155251,NA
44904,Richland County,OH,97.28813559322033,NA,NA
44905,Richland County,OH,NA,NA,92.01877934272301
45005,Warren County,OH,NA,NA,29.107981220657276
45011,Butler County,OH,NA,2.73972602739726,NA
45068,Warren County,OH,NA,81.5068493150685,NA
45171,Brown County,OH,78.64406779661017,NA,NA
45208,Hamilton County,OH,NA,70.09132420091323,NA
45211,Hamilton County,OH,8.813559322033898,NA,NA
45238,Hamilton County,OH,12.372881355932204,NA,NA
45410,Montgomery County,OH,NA,NA,83.56807511737088
45420,Montgomery County,OH,51.69491525423729,NA,NA
45429,Montgomery County,OH,NA,71.46118721461188,NA
45601,Ross County,OH,5.423728813559322,17.123287671232877,38.967136150234744
45640,Jackson County,OH,NA,79.68036529680366,NA
45651,Vinton County,OH,NA,47.03196347031963,NA
45680,Lawrence County,OH,38.30508474576271,78.08219178082192,NA
45694,Scioto County,OH,25.932203389830512,NA,NA
45750,Washington County,OH,NA,35.61643835616438,NA
45822,Mercer County,OH,34.40677966101695,NA,NA
45875,Putnam County,OH,90.67796610169492,NA,NA
73013,Oklahoma County,OK,NA,6.392694063926941,NA
73044,Logan County,OK,46.440677966101696,NA,NA
73109,Oklahoma County,OK,56.271186440677965,NA,NA
73115,Oklahoma County,OK,NA,32.64840182648402,NA
73505,Comanche County,OK,NA,11.87214611872146,NA
74075,Payne County,OK,78.47457627118644,NA,NA
74344,Delaware County,OK,66.44067796610169,NA,NA
74352,Mayes County,OK,NA,69.17808219178082,NA
74601,Kay County,OK,40.33898305084746,NA,NA
74955,Sequoyah County,OK,NA,44.52054794520548,NA
97045,Clackamas County,OR,NA,NA,14.553990610328638
97058,Wasco County,OR,63.389830508474574,NA,NA
97080,Multnomah County,OR,NA,14.840182648401825,NA
97116,Washington County,OR,70.84745762711864,NA,NA
97209,Multnomah County,OR,NA,75.57077625570776,NA
97219,Multnomah County,OR,NA,23.74429223744292,NA
97236,Multnomah County,OR,16.610169491525422,NA,NA
97338,Polk County,OR,43.050847457627114,NA,NA
97367,Lincoln County,OR,NA,54.337899543378995,NA
97439,Lane County,OR,NA,48.858447488584474,NA
97477,Lane County,OR,21.35593220338983,NA,NA
97479,Douglas County,OR,63.05084745762712,NA,NA
97502,Jackson County,OR,NA,NA,30.985915492957744
97701,Deschutes County,OR,52.88135593220339,NA,NA
15136,Allegheny County,PA,NA,57.99086757990868,NA
15140,Allegheny County,PA,NA,99.31506849315068,NA
15217,Allegheny County,PA,NA,NA,19.718309859154928
15317,Washington County,PA,NA,30.136986301369863,13.615023474178404
15650,Westmoreland County,PA,41.35593220338983,NA,NA
15904,Cambria County,PA,98.47457627118644,NA,NA
15906,Cambria County,PA,NA,53.65296803652968,NA
15931,Cambria County,PA,60.33898305084746,NA,NA
16055,Butler County,PA,83.05084745762711,NA,NA
16365,Warren County,PA,NA,NA,60.56338028169014
17013,Cumberland County,PA,17.796610169491526,NA,NA
17057,Dauphin County,PA,NA,69.86301369863014,NA
17109,Dauphin County,PA,NA,88.12785388127854,NA
17111,Dauphin County,PA,14.067796610169491,NA,NA
17801,Northumberland County,PA,17.28813559322034,NA,NA
17847,Northumberland County,PA,56.10169491525424,NA,NA
18017,Northampton County,PA,24.23728813559322,NA,NA
18032,Lehigh County,PA,50.50847457627119,NA,NA
18080,Lehigh County,PA,41.35593220338983,NA,NA
18088,Northampton County,PA,57.79661016949152,NA,NA
18104,Lehigh County,PA,NA,NA,79.34272300469483
18109,Lehigh County,PA,23.050847457627118,NA,NA
18252,Schuylkill County,PA,NA,NA,78.87323943661971
18301,Monroe County,PA,NA,NA,31.92488262910798
18360,Monroe County,PA,NA,9.1324200913242,NA
18504,Lackawanna County,PA,28.135593220338983,NA,NA
18508,Lackawanna County,PA,NA,65.06849315068493,NA
18966,Bucks County,PA,NA,7.30593607305936,NA
19033,Delaware County,PA,70.16949152542374,NA,NA
19038,Montgomery County,PA,59.83050847457627,NA,NA
19060,Delaware County,PA,NA,66.66666666666666,NA
19063,Delaware County,PA,NA,7.9908675799086755,8.92018779342723
19103,Philadelphia County,PA,NA,NA,23.004694835680752
19114,Philadelphia County,PA,NA,16.210045662100455,NA
19115,Philadelphia County,PA,NA,13.24200913242009,NA
19138,Philadelphia County,PA,NA,NA,24.413145539906104
19145,Philadelphia County,PA,7.457627118644068,NA,NA
19147,Philadelphia County,PA,NA,22.37442922374429,NA
19149,Philadelphia County,PA,7.118644067796611,NA,NA
19335,Chester County,PA,14.745762711864408,NA,NA
19355,Chester County,PA,64.23728813559322,NA,NA
19363,Chester County,PA,49.83050847457628,NA,NA
19380,Chester County,PA,NA,4.10958904109589,NA
19426,Montgomery County,PA,31.52542372881356,NA,NA
19428,Montgomery County,PA,68.30508474576271,NA,NA
19460,Chester County,PA,21.1864406779661,NA,NA
19468,Montgomery County,PA,63.22033898305085,NA,NA
02828,Providence County,RI,NA,95.4337899543379,NA
02864,Providence County,RI,67.45762711864407,NA,NA
02896,Providence County,RI,77.96610169491525,NA,NA
02909,Providence County,RI,15.932203389830507,NA,NA
29020,Kershaw County,SC,89.15254237288136,NA,NA
29055,Chester County,SC,NA,84.47488584474885,NA
29070,Lexington County,SC,66.94915254237289,NA,NA
29301,Spartanburg County,SC,28.644067796610166,NA,NA
29306,Spartanburg County,SC,34.40677966101695,NA,NA
29466,Charleston County,SC,44.57627118644068,NA,NA
29512,Marlboro County,SC,48.8135593220339,NA,NA
29541,Florence County,SC,NA,79.22374429223744,NA
29572,Horry County,SC,NA,95.8904109589041,NA
29576,Horry County,SC,40.16949152542373,NA,NA
29585,Georgetown County,SC,NA,NA,78.40375586854461
29640,Pickens County,SC,NA,17.35159817351598,NA
29673,Greenville County,SC,35.25423728813559,NA,NA
29732,York County,SC,28.8135593220339,NA,NA
29860,Edgefield County,SC,NA,NA,84.50704225352112
57104,Minnehaha County,SD,NA,NA,14.084507042253522
57106,Minnehaha County,SD,NA,26.027397260273972,NA
57252,Grant County,SD,NA,78.76712328767124,NA
57702,Pennington County,SD,86.94915254237287,NA,7.511737089201878
37013,Davidson County,TN,9.322033898305085,NA,NA
37027,Williamson County,TN,62.71186440677966,NA,NA
37064,Williamson County,TN,NA,68.4931506849315,NA
37066,Sumner County,TN,9.152542372881356,NA,NA
37069,Williamson County,TN,84.06779661016948,NA,80.75117370892019
37087,Wilson County,TN,14.40677966101695,NA,27.230046948356808
37160,Bedford County,TN,NA,55.02283105022832,NA
37166,DeKalb County,TN,86.77966101694915,NA,NA
37214,Davidson County,TN,NA,43.37899543378995,NA
37221,Davidson County,TN,82.71186440677965,20.776255707762555,NA
37303,McMinn County,TN,NA,33.33333333333333,NA
37354,Monroe County,TN,NA,NA,44.60093896713615
37388,Coffee County,TN,NA,61.41552511415526,NA
37412,Hamilton County,TN,NA,NA,73.70892018779342
37659,Washington County,TN,33.05084745762712,NA,NA
37664,Sullivan County,TN,NA,37.44292237442922,NA
37807,Union County,TN,NA,NA,90.14084507042254
37840,Roane County,TN,NA,NA,64.7887323943662
37918,Knox County,TN,NA,NA,17.370892018779344
37932,Knox County,TN,74.40677966101696,NA,NA
38114,Shelby County,TN,19.491525423728813,NA,NA
38257,Obion County,TN,NA,NA,93.42723004694837
38340,Chester County,TN,NA,NA,61.03286384976526
38351,Henderson County,TN,NA,32.87671232876712,NA
38372,Hardin County,TN,NA,37.67123287671233,NA
38375,McNairy County,TN,96.4406779661017,NA,NA
38401,Maury County,TN,6.779661016949152,NA,NA
38464,Lawrence County,TN,NA,24.200913242009133,NA
38558,Cumberland County,TN,NA,NA,35.68075117370892
75024,Collin County,TX,NA,64.15525114155251,NA
75041,Dallas County,TX,40.67796610169492,NA,NA
75052,Dallas County,TX,14.576271186440678,NA,NA
75070,Collin County,TX,42.71186440677966,NA,NA
75142,Kaufman County,TX,NA,49.77168949771689,NA
75143,Henderson County,TX,55.42372881355932,NA,NA
75154,Ellis County,TX,40.50847457627118,NA,NA
75165,Ellis County,TX,24.91525423728814,NA,NA
75210,Dallas County,TX,59.32203389830508,NA,NA
75227,Dallas County,TX,15.76271186440678,NA,NA
75228,Dallas County,TX,6.101694915254238,NA,NA
75243,Dallas County,TX,12.54237288135593,NA,NA
75252,Collin County,TX,82.20338983050848,NA,NA
75652,Rusk County,TX,NA,68.2648401826484,NA
75785,Cherokee County,TX,NA,46.80365296803653,NA
76051,Tarrant County,TX,NA,27.85388127853881,NA
76063,Tarrant County,TX,12.711864406779661,9.58904109589041,NA
76065,Ellis County,TX,NA,28.08219178082192,NA
76073,Wise County,TX,92.54237288135593,NA,NA
76102,Tarrant County,TX,64.40677966101694,NA,NA
76116,Tarrant County,TX,82.88135593220339,NA,NA
76226,Denton County,TX,58.8135593220339,NA,NA
76528,Coryell County,TX,NA,10.50228310502283,NA
76710,McLennan County,TX,NA,33.56164383561644,NA
76801,Brown County,TX,NA,NA,50.23474178403756
76904,Tom Green County,TX,NA,NA,26.76056338028169
77004,Harris County,TX,NA,NA,61.502347417840376
77056,Harris County,TX,67.96610169491527,NA,NA
77074,Harris County,TX,70.50847457627118,NA,NA
77078,Harris County,TX,NA,50.68493150684932,NA
77346,Harris County,TX,18.47457627118644,NA,NA
77362,Montgomery County,TX,91.01694915254237,NA,NA
77377,Harris County,TX,NA,NA,41.31455399061033
77384,Montgomery County,TX,69.66101694915254,NA,NA
77407,Fort Bend County,TX,NA,65.29680365296804,NA
77422,Brazoria County,TX,67.96610169491527,NA,NA
77433,Harris County,TX,NA,14.383561643835616,NA
77511,Brazoria County,TX,80.84745762711864,NA,NA
77530,Harris County,TX,NA,73.97260273972603,NA
77539,Galveston County,TX,NA,NA,62.441314553990615
77546,Galveston County,TX,22.54237288135593,NA,NA
77566,Brazoria County,TX,46.61016949152542,NA,NA
77571,Harris County,TX,25.254237288135595,NA,NA
77573,Galveston County,TX,59.32203389830508,NA,18.779342723004692
77590,Galveston County,TX,11.864406779661017,NA,NA
77591,Galveston County,TX,NA,NA,85.91549295774648
77627,Jefferson County,TX,NA,49.54337899543379,NA
77651,Jefferson County,TX,NA,96.11872146118722,NA
77705,Jefferson County,TX,65.76271186440678,NA,NA
77840,Brazos County,TX,NA,NA,88.26291079812206
77905,Victoria County,TX,NA,85.84474885844749,NA
78043,Webb County,TX,37.96610169491525,NA,NA
78201,Bexar County,TX,NA,NA,37.558685446009385
78207,Bexar County,TX,17.966101694915253,NA,NA
78552,Cameron County,TX,NA,NA,56.8075117370892
78645,Travis County,TX,80.16949152542374,NA,NA
79107,Potter County,TX,74.23728813559322,NA,NA
79707,Midland County,TX,57.28813559322033,NA,NA
79901,El Paso County,TX,85.42372881355932,NA,NA
79927,El Paso County,TX,NA,50,NA
84003,Utah County,UT,NA,50.2283105022831,NA
84009,Salt Lake County,UT,NA,NA,67.6056338028169
84010,Davis County,UT,NA,NA,22.065727699530516
84029,Tooele County,UT,51.01694915254237,NA,NA
84041,Davis County,UT,33.728813559322035,NA,NA
84062,Utah County,UT,NA,53.19634703196348,NA
84074,Tooele County,UT,3.898305084745763,15.753424657534246,NA
84088,Salt Lake County,UT,33.89830508474576,NA,NA
84098,Summit County,UT,NA,NA,74.64788732394366
84103,Salt Lake County,UT,NA,81.27853881278538,NA
84107,Salt Lake County,UT,63.898305084745765,34.24657534246575,NA
84116,Salt Lake County,UT,NA,26.027397260273972,NA
84119,Salt Lake County,UT,11.016949152542372,NA,NA
84414,Weber County,UT,65.08474576271186,NA,NA
05089,Windsor County,VT,NA,85.15981735159818,NA
05156,Windsor County,VT,NA,51.82648401826484,NA
05602,Washington County,VT,NA,28.538812785388128,NA
05641,Washington County,VT,73.5593220338983,NA,NA
05676,Washington County,VT,NA,NA,77.93427230046949
05733,Rutland County,VT,NA,82.87671232876713,NA
05735,Rutland County,VT,NA,98.85844748858447,NA
22033,Fairfax County,VA,NA,86.5296803652968,NA
22204,Arlington County,VA,25.593220338983052,NA,NA
22311,Alexandria city,VA,NA,NA,60.093896713615024
22812,Rockingham County,VA,93.38983050847457,NA,NA
22980,Waynesboro city,VA,NA,19.63470319634703,54.460093896713616
23060,Henrico County,VA,NA,44.06392694063927,NA
23061,Gloucester County,VA,NA,74.20091324200914,NA
23112,Chesterfield County,VA,39.32203389830509,NA,NA
23139,Powhatan County,VA,61.52542372881356,NA,NA
23185,James City County,VA,NA,3.1963470319634704,NA
23226,Richmond city,VA,NA,NA,54.929577464788736
23235,Chesterfield County,VA,47.79661016949153,NA,NA
23294,Henrico County,VA,NA,NA,72.76995305164318
23325,Chesapeake city,VA,NA,51.369863013698634,NA
23421,Accomack County,VA,96.94915254237289,NA,NA
23452,Virginia Beach city,VA,19.322033898305087,NA,NA
23464,Virginia Beach city,VA,56.779661016949156,62.328767123287676,NA
23513,Norfolk city,VA,71.52542372881356,NA,NA
23602,Newport News city,VA,NA,NA,8.450704225352112
23662,Poquoson city,VA,NA,66.21004566210046,NA
23669,Hampton city,VA,NA,65.75342465753424,NA
23693,York County,VA,NA,NA,83.09859154929578
23803,Petersburg city,VA,NA,11.187214611872145,NA
24014,Roanoke city,VA,59.66101694915255,NA,NA
24175,Botetourt County,VA,NA,NA,82.62910798122066
24354,Smyth County,VA,37.28813559322034,NA,NA
24422,Alleghany County,VA,NA,71.91780821917808,NA
24502,Lynchburg city,VA,NA,64.84018264840182,NA
24572,Amherst County,VA,54.23728813559322,NA,NA
24639,Tazewell County,VA,95.76271186440678,NA,NA
98021,Snohomish County,WA,NA,37.89954337899543,NA
98022,King County,WA,NA,62.78538812785388,NA
98030,King County,WA,77.28813559322035,75.11415525114155,NA
98042,King County,WA,NA,NA,22.535211267605636
98057,King County,WA,75.2542372881356,NA,NA
98155,King County,WA,67.11864406779661,NA,NA
98223,Snohomish County,WA,22.033898305084744,NA,NA
98270,Snohomish County,WA,45.932203389830505,NA,NA
98274,Skagit County,WA,NA,76.02739726027397,NA
98312,Kitsap County,WA,84.7457627118644,NA,NA
98335,Pierce County,WA,NA,27.397260273972602,NA
98346,Kitsap County,WA,92.20338983050847,NA,NA
98362,Clallam County,WA,NA,NA,58.68544600938967
98366,Kitsap County,WA,21.864406779661017,NA,NA
98541,Grays Harbor County,WA,NA,NA,87.32394366197182
98683,Clark County,WA,94.91525423728814,NA,NA
98823,Grant County,WA,NA,NA,70.4225352112676
98848,Grant County,WA,86.10169491525423,NA,NA
98902,Yakima County,WA,24.74576271186441,NA,12.206572769953052
99114,Stevens County,WA,95.42372881355932,NA,NA
99206,Spokane County,WA,42.20338983050848,NA,NA
99320,Benton County,WA,NA,70.09132420091323,NA
99362,Walla Walla County,WA,23.220338983050848,NA,36.61971830985916
25213,Putnam County,WV,NA,NA,99.53051643192488
25271,Jackson County,WV,NA,NA,53.990610328638496
25276,Roane County,WV,74.0677966101695,NA,NA
25309,Kanawha County,WV,90,82.64840182648402,NA
25314,Kanawha County,WV,74.40677966101696,NA,NA
25387,Kanawha County,WV,71.35593220338983,NA,NA
25801,Raleigh County,WV,NA,79.90867579908677,NA
26651,Nicholas County,WV,73.72881355932203,NA,NA
26704,Hampshire County,WV,97.11864406779661,NA,NA
26757,Hampshire County,WV,NA,68.72146118721462,NA
53012,Ozaukee County,WI,89.66101694915254,NA,NA
53022,Washington County,WI,NA,NA,75.5868544600939
53051,Waukesha County,WI,66.10169491525424,NA,NA
53094,Jefferson County,WI,NA,23.28767123287671,NA
53129,Milwaukee County,WI,65.2542372881356,NA,NA
53132,Milwaukee County,WI,77.45762711864407,NA,NA
53140,Kenosha County,WI,10,NA,NA
53186,Waukesha County,WI,69.15254237288136,27.62557077625571,NA
53188,Waukesha County,WI,20,77.6255707762557,NA
53209,Milwaukee County,WI,2.8813559322033897,1.141552511415525,NA
53214,Milwaukee County,WI,10.338983050847457,NA,NA
53216,Milwaukee County,WI,NA,NA,38.028169014084504
53217,Milwaukee County,WI,NA,21.461187214611872,NA
53220,Milwaukee County,WI,NA,NA,45.539906103286384
53405,Racine County,WI,23.559322033898304,NA,NA
53527,Dane County,WI,NA,NA,86.85446009389672
53551,Jefferson County,WI,NA,91.55251141552512,NA
53589,Dane County,WI,NA,57.534246575342465,NA
53703,Dane County,WI,NA,97.94520547945206,NA
53704,Dane County,WI,9.661016949152543,NA,NA
53705,Dane County,WI,NA,NA,10.7981220657277
53719,Dane County,WI,85.59322033898306,NA,NA
53818,Grant County,WI,70,NA,NA
53913,Sauk County,WI,34.91525423728813,NA,NA
53963,Dodge County,WI,48.644067796610166,NA,NA
53965,Sauk County,WI,60.67796610169491,NA,NA
54110,Calumet County,WI,88.8135593220339,NA,NA
54166,Shawano County,WI,NA,39.49771689497717,NA
54481,Portage County,WI,72.88135593220339,NA,NA
54482,Portage County,WI,77.11864406779661,NA,NA
54487,Lincoln County,WI,NA,NA,52.112676056338024
54601,La Crosse County,WI,NA,0.228310502283105,72.30046948356808
54646,Juneau County,WI,91.52542372881356,NA,NA
54660,Monroe County,WI,NA,66.43835616438356,NA
54669,La Crosse County,WI,NA,38.58447488584475,NA
54703,Eau Claire County,WI,18.64406779661017,NA,NA
54801,Washburn County,WI,87.96610169491525,NA,NA
54914,Outagamie County,WI,20.677966101694913,NA,NA
54935,Fond du Lac County,WI,NA,73.28767123287672,59.624413145539904
82009,Laramie County,WY,62.881355932203384,NA,NA
