ZipCode,county,state,Adult
35563,Marion County,AL,98.04878048780488
35672,Lawrence County,AL,70.24390243902438
36801,Lee County,AL,51.707317073170735
99503,Anchorage Municipality,AK,88.29268292682927
99507,Anchorage Municipality,AK,84.39024390243902
85009,Maricopa County,AZ,13.658536585365855
85321,Pima County,AZ,89.75609756097562
85338,Maricopa County,AZ,79.02439024390245
85379,Maricopa County,AZ,27.80487804878049
85546,Graham County,AZ,42.4390243902439
85745,Pima County,AZ,20.48780487804878
72205,Pulaski County,AR,71.70731707317073
90063,Los Angeles County,CA,72.6829268292683
90280,Los Angeles County,CA,29.756097560975608
91773,Los Angeles County,CA,65.85365853658537
92027,San Diego County,CA,68.29268292682927
92057,San Diego County,CA,50.24390243902439
92354,San Bernardino County,CA,75.1219512195122
92359,San Bernardino County,CA,95.1219512195122
92399,San Bernardino County,CA,54.63414634146342
93711,Fresno County,CA,79.51219512195122
94589,Solano County,CA,50.73170731707317
95008,Santa Clara County,CA,55.60975609756098
95014,Santa Clara County,CA,97.07317073170731
95035,Santa Clara County,CA,70.73170731707317
95128,Santa Clara County,CA,87.8048780487805
06112,Hartford County,CT,59.02439024390244
06492,New Haven County,CT,18.048780487804876
06850,Fairfield County,CT,63.41463414634146
19711,New Castle County,DE,28.292682926829265
19953,Kent County,DE,90.73170731707317
32209,Duval County,FL,4.878048780487805
32967,Indian River County,FL,96.58536585365853
33470,Palm Beach County,FL,57.56097560975609
33594,Hillsborough County,FL,52.19512195121951
33606,Hillsborough County,FL,77.5609756097561
34209,Manatee County,FL,56.58536585365853
30281,Henry County,GA,21.951219512195124
30294,DeKalb County,GA,35.12195121951219
30296,Clayton County,GA,52.6829268292683
31069,Houston County,GA,34.63414634146341
31601,Lowndes County,GA,21.463414634146343
96789,Honolulu County,HI,62.4390243902439
60477,Cook County,IL,22.439024390243905
60586,Will County,IL,14.634146341463413
60643,Cook County,IL,81.95121951219512
61240,Rock Island County,IL,98.53658536585365
46032,Hamilton County,IN,93.17073170731707
46113,Marion County,IN,80
46408,Lake County,IN,39.51219512195122
46755,Noble County,IN,23.902439024390244
52804,Scott County,IA,40
40213,Jefferson County,KY,31.21951219512195
40229,Jefferson County,KY,12.195121951219512
40360,Bath County,KY,55.1219512195122
42001,McCracken County,KY,26.82926829268293
42420,Henderson County,KY,10.24390243902439
70117,Orleans Parish,LA,33.170731707317074
70364,Terrebonne Parish,LA,8.780487804878048
70394,Lafourche Parish,LA,45.85365853658537
70560,Iberia Parish,LA,66.82926829268293
70815,East Baton Rouge Parish,LA,38.048780487804876
04072,York County,ME,61.951219512195124
04073,York County,ME,65.3658536585366
04103,Cumberland County,ME,18.536585365853657
20815,Montgomery County,MD,87.3170731707317
21218,Baltimore city,MD,11.707317073170733
21771,Frederick County,MD,96.09756097560975
01105,Hampden County,MA,3.902439024390244
01230,Berkshire County,MA,80.48780487804879
01610,Worcester County,MA,6.341463414634147
01702,Middlesex County,MA,74.63414634146342
01778,Middlesex County,MA,94.14634146341463
01821,Middlesex County,MA,5.853658536585367
01830,Essex County,MA,0.4878048780487805
01835,Essex County,MA,73.17073170731707
02129,Suffolk County,MA,66.34146341463415
02540,Barnstable County,MA,85.85365853658537
02720,Bristol County,MA,2.9268292682926833
48076,Oakland County,MI,82.92682926829268
48084,Oakland County,MI,72.1951219512195
48167,Oakland County,MI,76.09756097560975
48185,Wayne County,MI,7.804878048780488
48210,Wayne County,MI,20.975609756097562
48224,Wayne County,MI,2.4390243902439024
48310,Macomb County,MI,57.073170731707314
48336,Oakland County,MI,30.73170731707317
48393,Oakland County,MI,67.31707317073172
48906,Ingham County,MI,12.682926829268293
48911,Ingham County,MI,24.878048780487806
49036,Branch County,MI,25.853658536585368
55060,Steele County,MN,60.97560975609756
55124,Dakota County,MN,81.46341463414633
55374,Hennepin County,MN,92.19512195121952
55426,Hennepin County,MN,25.365853658536587
55432,Anoka County,MN,64.8780487804878
55448,Anoka County,MN,33.65853658536586
56001,Blue Earth County,MN,29.268292682926827
56187,Nobles County,MN,60
38762,Bolivar County,MS,99.51219512195122
39666,Pike County,MS,89.26829268292683
63122,St. Louis County,MO,91.21951219512195
63125,St. Louis County,MO,82.4390243902439
64012,Cass County,MO,22.926829268292686
64015,Jackson County,MO,13.170731707317074
64024,Clay County,MO,41.951219512195124
64124,Jackson County,MO,64.39024390243902
64485,Andrew County,MO,76.58536585365854
65336,Johnson County,MO,91.70731707317074
65625,Barry County,MO,77.07317073170732
68108,Douglas County,NE,63.90243902439025
68157,Sarpy County,NE,100
89128,Clark County,NV,42.926829268292686
07676,Bergen County,NJ,93.65853658536587
07731,Monmouth County,NJ,71.21951219512195
08043,Camden County,NJ,36.58536585365854
08755,Ocean County,NJ,78.04878048780488
88220,Eddy County,NM,17.560975609756095
10453,Bronx County,NY,68.78048780487805
11221,Kings County,NY,3.414634146341464
11233,Kings County,NY,0.975609756097561
11356,Queens County,NY,69.7560975609756
11370,Queens County,NY,40.487804878048784
11419,Queens County,NY,99.02439024390245
13045,Cortland County,NY,4.390243902439024
13323,Oneida County,NY,86.82926829268293
14215,Erie County,NY,1.4634146341463417
14454,Livingston County,NY,62.926829268292686
14612,Monroe County,NY,1.951219512195122
14616,Monroe County,NY,59.512195121951216
14871,Chemung County,NY,92.6829268292683
27127,Forsyth County,NC,37.073170731707314
27284,Forsyth County,NC,61.46341463414634
27587,Wake County,NC,47.80487804878049
27822,Wilson County,NC,97.5609756097561
27893,Wilson County,NC,15.121951219512194
28208,Mecklenburg County,NC,48.292682926829265
28365,Wayne County,NC,53.170731707317074
28472,Columbus County,NC,80.97560975609757
28607,Watauga County,NC,44.390243902439025
28625,Iredell County,NC,16.585365853658537
43068,Franklin County,OH,11.219512195121952
43302,Marion County,OH,27.31707317073171
43315,Morrow County,OH,54.146341463414636
44092,Lake County,OH,35.609756097560975
44103,Cuyahoga County,OH,9.75609756097561
44105,Cuyahoga County,OH,0
44122,Cuyahoga County,OH,49.26829268292683
44130,Cuyahoga County,OH,34.146341463414636
44320,Summit County,OH,58.048780487804876
44406,Mahoning County,OH,85.36585365853658
44646,Stark County,OH,10.24390243902439
45002,Hamilton County,OH,73.65853658536585
45044,Butler County,OH,6.829268292682928
45305,Greene County,OH,94.6341463414634
45417,Montgomery County,OH,9.268292682926829
97030,Multnomah County,OR,40.97560975609756
97304,Polk County,OR,83.41463414634146
97322,Linn County,OR,53.65853658536586
97338,Polk County,OR,38.53658536585366
97501,Jackson County,OR,46.34146341463415
15120,Allegheny County,PA,83.90243902439025
15122,Allegheny County,PA,42.926829268292686
15601,Westmoreland County,PA,74.14634146341463
16148,Mercer County,PA,67.8048780487805
17976,Schuylkill County,PA,75.60975609756098
18042,Northampton County,PA,7.317073170731707
19144,Philadelphia County,PA,5.365853658536586
19152,Philadelphia County,PA,43.90243902439025
02857,Providence County,RI,90.2439024390244
29325,Laurens County,SC,47.3170731707317
29405,Charleston County,SC,23.414634146341466
29466,Charleston County,SC,41.46341463414634
29745,York County,SC,45.36585365853659
37172,Robertson County,TN,16.097560975609756
37343,Hamilton County,TN,19.51219512195122
75002,Collin County,TX,19.024390243902438
75061,Dallas County,TX,44.87804878048781
75216,Dallas County,TX,24.390243902439025
75602,Gregg County,TX,88.78048780487805
75650,Harrison County,TX,69.26829268292683
76112,Tarrant County,TX,14.146341463414632
76226,Denton County,TX,60.48780487804878
76504,Bell County,TX,49.75609756097561
77047,Harris County,TX,86.34146341463415
77078,Harris County,TX,84.8780487804878
77511,Brazoria County,TX,15.609756097560975
77833,Washington County,TX,37.5609756097561
78228,Bexar County,TX,26.34146341463415
78240,Bexar County,TX,36.09756097560975
78251,Bexar County,TX,48.78048780487805
78521,Cameron County,TX,30.24390243902439
78745,Travis County,TX,51.21951219512195
05701,Rutland County,VT,31.70731707317073
23238,Henrico County,VA,78.53658536585367
23608,Newport News city,VA,17.073170731707318
20009,District of Columbia,DC,28.780487804878046
25541,Cabell County,WV,58.536585365853654
53066,Waukesha County,WI,32.6829268292683
53182,Racine County,WI,56.09756097560976
53188,Waukesha County,WI,20
53204,Milwaukee County,WI,8.292682926829269
53223,Milwaukee County,WI,39.02439024390244
53590,Dane County,WI,32.19512195121951
54853,Polk County,WI,95.60975609756098
54902,Winnebago County,WI,46.82926829268293
