ZipCode,county,state,Adult,Retirement,Geriatric
35006,Jefferson County,AL,NA,99.90118577075098,NA
35040,Shelby County,AL,48.05194805194805,NA,NA
35054,St. Clair County,AL,NA,85.37549407114624,NA
35058,Cullman County,AL,71.5909090909091,NA,NA
35077,Cullman County,AL,NA,85.96837944664031,NA
35094,Jefferson County,AL,59.09090909090909,NA,NA
35125,St. Clair County,AL,NA,87.05533596837944,NA
35127,Jefferson County,AL,NA,NA,72.76368491321762
35213,Jefferson County,AL,NA,85.47430830039525,NA
35215,Jefferson County,AL,6.8181818181818175,NA,NA
35216,Jefferson County,AL,NA,43.3794466403162,39.25233644859813
35242,Shelby County,AL,NA,NA,56.87583444592791
35401,Tuscaloosa County,AL,25,14.031620553359684,NA
35404,Tuscaloosa County,AL,NA,NA,99.73297730307075
35405,Tuscaloosa County,AL,NA,71.54150197628458,NA
35406,Tuscaloosa County,AL,93.01948051948052,NA,89.58611481975967
35473,Tuscaloosa County,AL,NA,47.134387351778656,86.64886515353804
35475,Tuscaloosa County,AL,85.55194805194806,43.08300395256917,NA
35504,Walker County,AL,NA,57.015810276679844,NA
35555,Fayette County,AL,NA,NA,87.98397863818424
35570,Marion County,AL,NA,46.6403162055336,NA
35592,Lamar County,AL,NA,NA,91.58878504672897
35601,Morgan County,AL,NA,10.474308300395258,NA
35613,Limestone County,AL,80.51948051948052,NA,NA
35630,Lauderdale County,AL,63.47402597402597,NA,NA
35650,Lawrence County,AL,NA,NA,36.315086782376504
35754,Morgan County,AL,NA,NA,95.19359145527369
35758,Madison County,AL,NA,32.31225296442688,NA
35768,Jackson County,AL,NA,NA,66.22162883845127
35769,Jackson County,AL,NA,67.3913043478261,NA
35810,Madison County,AL,NA,14.920948616600791,NA
35811,Madison County,AL,NA,35.573122529644266,NA
35816,Madison County,AL,69.15584415584416,NA,NA
35950,Marshall County,AL,40.0974025974026,NA,NA
35956,Etowah County,AL,NA,75.19762845849802,NA
35962,DeKalb County,AL,79.22077922077922,NA,NA
36054,Elmore County,AL,65.9090909090909,NA,NA
36078,Elmore County,AL,51.78571428571429,NA,NA
36108,Montgomery County,AL,NA,61.06719367588933,NA
36207,Calhoun County,AL,56.006493506493506,NA,NA
36266,Clay County,AL,80.84415584415584,NA,NA
36268,Talladega County,AL,80.84415584415584,NA,NA
36271,Calhoun County,AL,NA,NA,89.05206942590121
36277,Calhoun County,AL,83.76623376623377,NA,NA
36301,Houston County,AL,18.83116883116883,NA,19.759679572763687
36305,Houston County,AL,NA,NA,64.75300400534046
36312,Houston County,AL,NA,82.90513833992095,NA
36330,Coffee County,AL,NA,NA,42.857142857142854
36351,Coffee County,AL,NA,98.81422924901186,NA
36532,Baldwin County,AL,NA,87.35177865612648,NA
36535,Baldwin County,AL,NA,15.019762845849801,NA
36580,Baldwin County,AL,NA,84.28853754940711,NA
36582,Mobile County,AL,NA,41.50197628458498,NA
36605,Mobile County,AL,NA,NA,69.55941255006675
36606,Mobile County,AL,NA,97.62845849802372,NA
36613,Mobile County,AL,78.73376623376623,NA,NA
36693,Mobile County,AL,NA,82.5098814229249,NA
36695,Mobile County,AL,NA,NA,92.12283044058745
36801,Lee County,AL,NA,56.02766798418972,NA
36804,Lee County,AL,57.7922077922078,NA,NA
36870,Lee County,AL,NA,NA,89.31909212283044
99516,Anchorage Municipality,AK,NA,NA,97.19626168224299
99517,Anchorage Municipality,AK,NA,NA,77.97062750333778
99701,Fairbanks North Star Borough,AK,NA,65.51383399209486,NA
99705,Fairbanks North Star Borough,AK,NA,96.54150197628458,NA
99709,Fairbanks North Star Borough,AK,NA,78.45849802371542,NA
99835,Sitka City and Borough,AK,NA,73.3201581027668,NA
85008,Maricopa County,AZ,NA,18.675889328063242,NA
85041,Maricopa County,AZ,76.94805194805194,18.774703557312254,NA
85085,Maricopa County,AZ,NA,79.1501976284585,NA
85118,Pinal County,AZ,NA,58.992094861660085,NA
85142,Maricopa County,AZ,NA,19.565217391304348,NA
85202,Maricopa County,AZ,NA,86.16600790513834,NA
85205,Maricopa County,AZ,NA,NA,20.5607476635514
85207,Maricopa County,AZ,NA,NA,42.99065420560748
85209,Maricopa County,AZ,NA,NA,53.00400534045394
85213,Maricopa County,AZ,80.84415584415584,NA,NA
85262,Maricopa County,AZ,NA,NA,80.37383177570094
85282,Maricopa County,AZ,NA,90.41501976284584,NA
85283,Maricopa County,AZ,NA,54.74308300395256,NA
85286,Maricopa County,AZ,33.27922077922078,NA,NA
85306,Maricopa County,AZ,53.57142857142857,NA,NA
85326,Maricopa County,AZ,NA,35.869565217391305,NA
85331,Maricopa County,AZ,NA,76.77865612648222,NA
85340,Maricopa County,AZ,NA,NA,82.64352469959947
85345,Maricopa County,AZ,NA,7.905138339920949,NA
85351,Maricopa County,AZ,NA,33.10276679841897,NA
85367,Yuma County,AZ,NA,44.36758893280632,NA
85375,Maricopa County,AZ,NA,16.106719367588934,NA
85378,Maricopa County,AZ,NA,91.20553359683794,NA
85381,Maricopa County,AZ,NA,69.76284584980237,NA
85382,Maricopa County,AZ,NA,37.45059288537549,NA
85390,Maricopa County,AZ,NA,58.201581027667984,NA
85501,Gila County,AZ,NA,58.992094861660085,NA
85704,Pima County,AZ,NA,NA,19.893190921228303
85710,Pima County,AZ,NA,63.93280632411067,NA
85712,Pima County,AZ,20.29220779220779,NA,NA
85716,Pima County,AZ,NA,19.76284584980237,NA
85730,Pima County,AZ,NA,NA,44.99332443257677
85741,Pima County,AZ,NA,90.31620553359684,NA
86004,Coconino County,AZ,4.383116883116883,NA,NA
86040,Coconino County,AZ,NA,74.90118577075098,NA
86046,Coconino County,AZ,NA,87.15415019762845,NA
86333,Yavapai County,AZ,94.8051948051948,NA,NA
86336,Yavapai County,AZ,77.43506493506493,NA,NA
71665,Cleveland County,AR,NA,88.2411067193676,NA
71854,Miller County,AR,NA,54.841897233201585,NA
71909,Garland County,AR,NA,NA,11.348464619492656
71913,Garland County,AR,36.201298701298704,NA,NA
71968,Garland County,AR,95.94155844155844,NA,NA
72002,Saline County,AR,67.85714285714286,NA,NA
72022,Saline County,AR,NA,55.63241106719368,NA
72032,Faulkner County,AR,NA,NA,62.75033377837116
72086,Lonoke County,AR,66.3961038961039,NA,NA
72088,Van Buren County,AR,NA,95.7509881422925,NA
72113,Pulaski County,AR,NA,73.02371541501977,NA
72116,Pulaski County,AR,NA,NA,79.57276368491321
72120,Pulaski County,AR,72.24025974025975,NA,NA
72211,Pulaski County,AR,NA,91.600790513834,NA
72301,Crittenden County,AR,NA,74.90118577075098,NA
72315,Mississippi County,AR,50.97402597402597,NA,NA
72396,Cross County,AR,NA,NA,68.22429906542055
72401,Craighead County,AR,NA,78.26086956521739,13.885180240320427
72450,Greene County,AR,NA,18.972332015810274,NA
72476,Lawrence County,AR,90.42207792207793,NA,NA
72543,Cleburne County,AR,NA,NA,46.19492656875834
72560,Stone County,AR,NA,52.569169960474305,NA
72616,Carroll County,AR,NA,77.17391304347827,NA
72712,Benton County,AR,46.26623376623377,34.18972332015811,NA
72758,Benton County,AR,NA,48.51778656126482,NA
90019,Los Angeles County,CA,NA,NA,8.811748998664887
90024,Los Angeles County,CA,NA,NA,29.372496662216292
90025,Los Angeles County,CA,NA,NA,7.87716955941255
90028,Los Angeles County,CA,64.6103896103896,NA,NA
90041,Los Angeles County,CA,97.56493506493507,NA,NA
90046,Los Angeles County,CA,NA,96.83794466403161,4.672897196261682
90056,Los Angeles County,CA,NA,89.9209486166008,NA
90069,Los Angeles County,CA,NA,44.1699604743083,NA
90210,Los Angeles County,CA,NA,NA,16.555407209612817
90230,Los Angeles County,CA,NA,42.29249011857708,NA
90245,Los Angeles County,CA,NA,84.78260869565217,NA
90262,Los Angeles County,CA,NA,77.37154150197628,NA
90266,Los Angeles County,CA,NA,42.094861660079054,76.50200267022697
90274,Los Angeles County,CA,NA,53.952569169960476,NA
90277,Los Angeles County,CA,NA,NA,50.33377837116155
90293,Los Angeles County,CA,NA,NA,83.97863818424565
90403,Los Angeles County,CA,NA,63.83399209486166,NA
90405,Los Angeles County,CA,NA,47.72727272727273,NA
90505,Los Angeles County,CA,NA,NA,66.75567423230974
90620,Orange County,CA,NA,64.72332015810277,NA
90630,Orange County,CA,NA,NA,32.71028037383177
90631,Orange County,CA,NA,45.45454545454545,NA
90720,Orange County,CA,NA,52.96442687747036,NA
90731,Los Angeles County,CA,NA,NA,43.65821094793058
90740,Orange County,CA,NA,36.95652173913043,NA
91011,Los Angeles County,CA,87.82467532467533,NA,NA
91040,Los Angeles County,CA,NA,85.27667984189723,NA
91042,Los Angeles County,CA,71.42857142857143,NA,NA
91206,Los Angeles County,CA,NA,NA,8.678237650200266
91350,Los Angeles County,CA,63.63636363636363,NA,NA
91361,Ventura County,CA,NA,55.03952569169961,NA
91362,Ventura County,CA,NA,NA,54.73965287049399
91364,Los Angeles County,CA,NA,NA,37.38317757009346
91387,Los Angeles County,CA,NA,68.2806324110672,NA
91606,Los Angeles County,CA,NA,48.418972332015805,NA
91701,San Bernardino County,CA,NA,NA,46.5954606141522
91730,San Bernardino County,CA,NA,NA,30.040053404539385
91755,Los Angeles County,CA,95.77922077922078,NA,39.11882510013351
91763,San Bernardino County,CA,NA,96.44268774703558,NA
91764,San Bernardino County,CA,NA,53.458498023715414,NA
91773,Los Angeles County,CA,NA,22.43083003952569,NA
91780,Los Angeles County,CA,NA,NA,40.85447263017357
91786,San Bernardino County,CA,NA,27.56916996047431,NA
91791,Los Angeles County,CA,NA,NA,49.265687583444596
91941,San Diego County,CA,NA,39.920948616600796,NA
91977,San Diego County,CA,NA,21.245059288537547,29.23898531375167
92009,San Diego County,CA,NA,35.77075098814229,38.71829105473965
92010,San Diego County,CA,NA,NA,82.2429906542056
92021,San Diego County,CA,64.93506493506493,9.683794466403162,NA
92024,San Diego County,CA,NA,38.3399209486166,NA
92025,San Diego County,CA,46.103896103896105,NA,NA
92028,San Diego County,CA,NA,42.78656126482213,73.29773030707611
92040,San Diego County,CA,NA,NA,27.50333778371162
92056,San Diego County,CA,NA,NA,9.746328437917223
92057,San Diego County,CA,NA,51.77865612648221,NA
92071,San Diego County,CA,NA,66.79841897233202,NA
92111,San Diego County,CA,NA,45.55335968379446,NA
92115,San Diego County,CA,NA,NA,33.511348464619495
92116,San Diego County,CA,73.05194805194806,NA,NA
92122,San Diego County,CA,NA,NA,46.461949265687586
92127,San Diego County,CA,NA,63.3399209486166,NA
92173,San Diego County,CA,63.31168831168831,NA,NA
92201,Riverside County,CA,NA,NA,24.833110814419225
92203,Riverside County,CA,NA,13.043478260869565,63.81842456608812
92262,Riverside County,CA,NA,NA,38.31775700934579
92307,San Bernardino County,CA,NA,NA,84.77970627503338
92373,San Bernardino County,CA,68.01948051948052,NA,NA
92392,San Bernardino County,CA,NA,NA,53.67156208277704
92399,San Bernardino County,CA,NA,NA,60.34712950600801
92504,Riverside County,CA,NA,NA,30.440587449933243
92509,Riverside County,CA,NA,81.02766798418972,NA
92543,Riverside County,CA,38.14935064935065,NA,NA
92544,Riverside County,CA,47.24025974025974,NA,NA
92551,Riverside County,CA,NA,94.96047430830039,NA
92553,Riverside County,CA,NA,NA,38.45126835781041
92571,Riverside County,CA,NA,48.122529644268774,NA
92595,Riverside County,CA,39.285714285714285,NA,NA
92618,Orange County,CA,NA,NA,82.64352469959947
92627,Orange County,CA,69.31818181818183,NA,NA
92655,Orange County,CA,NA,75.39525691699605,NA
92656,Orange County,CA,NA,41.798418972332016,NA
92663,Orange County,CA,NA,75.19762845849802,57.009345794392516
92672,Orange County,CA,NA,47.33201581027668,NA
92677,Orange County,CA,NA,33.59683794466403,NA
92683,Orange County,CA,NA,85.57312252964427,NA
92692,Orange County,CA,NA,17.984189723320156,NA
92705,Orange County,CA,NA,46.14624505928854,NA
92708,Orange County,CA,34.9025974025974,NA,NA
92801,Orange County,CA,NA,27.07509881422925,NA
92807,Orange County,CA,78.24675324675324,NA,37.6502002670227
92831,Orange County,CA,NA,85.0790513833992,NA
92833,Orange County,CA,NA,NA,46.32843791722296
92840,Orange County,CA,49.67532467532468,NA,NA
92845,Orange County,CA,NA,NA,84.913217623498
92886,Orange County,CA,29.22077922077922,12.25296442687747,NA
93004,Ventura County,CA,NA,NA,51.26835781041389
93010,Ventura County,CA,31.980519480519483,NA,NA
93012,Ventura County,CA,67.20779220779221,70.45454545454545,NA
93063,Ventura County,CA,33.44155844155844,19.07114624505929,NA
93210,Fresno County,CA,NA,89.32806324110672,NA
93265,Tulare County,CA,99.18831168831169,NA,NA
93274,Tulare County,CA,3.571428571428571,NA,NA
93304,Kern County,CA,NA,NA,74.89986648865154
93307,Kern County,CA,NA,45.8498023715415,NA
93455,Santa Barbara County,CA,NA,23.221343873517785,NA
93535,Los Angeles County,CA,7.305194805194805,NA,NA
93536,Los Angeles County,CA,NA,76.48221343873519,NA
93561,Kern County,CA,70.77922077922078,NA,NA
93631,Fresno County,CA,NA,NA,78.37116154873164
93635,Merced County,CA,NA,39.426877470355734,NA
93636,Madera County,CA,84.0909090909091,NA,NA
93727,Fresno County,CA,NA,NA,31.241655540720963
93906,Monterey County,CA,NA,NA,38.584779706275036
93923,Monterey County,CA,NA,NA,8.144192256341789
93933,Monterey County,CA,NA,NA,64.75300400534046
93955,Monterey County,CA,37.5,27.964426877470355,NA
94014,San Mateo County,CA,NA,NA,7.610146862483311
94015,San Mateo County,CA,NA,NA,24.699599465954606
94044,San Mateo County,CA,NA,NA,36.58210947930574
94102,San Francisco County,CA,NA,4.3478260869565215,NA
94107,San Francisco County,CA,NA,NA,44.05874499332443
94108,San Francisco County,CA,NA,NA,89.45260347129505
94109,San Francisco County,CA,NA,NA,3.0707610146862483
94111,San Francisco County,CA,NA,NA,100
94116,San Francisco County,CA,NA,64.42687747035573,NA
94122,San Francisco County,CA,45.12987012987013,NA,NA
94127,San Francisco County,CA,NA,63.24110671936759,NA
94303,San Mateo County,CA,60.064935064935064,NA,NA
94521,Contra Costa County,CA,NA,32.41106719367589,NA
94531,Contra Costa County,CA,NA,NA,36.9826435246996
94536,Alameda County,CA,30.357142857142854,NA,NA
94550,Alameda County,CA,NA,NA,48.197596795727634
94558,Napa County,CA,NA,4.051383399209486,2.1361815754339117
94559,Napa County,CA,NA,NA,75.83444592790387
94564,Contra Costa County,CA,NA,58.00395256916996,NA
94565,Contra Costa County,CA,NA,NA,58.344459279038716
94568,Alameda County,CA,NA,56.22529644268774,NA
94589,Solano County,CA,NA,NA,73.03070761014686
94590,Solano County,CA,60.71428571428571,NA,NA
94591,Solano County,CA,NA,NA,17.356475300400533
94595,Contra Costa County,CA,NA,NA,5.874499332443257
94598,Contra Costa County,CA,NA,NA,82.64352469959947
94607,Alameda County,CA,NA,97.82608695652173,NA
94618,Alameda County,CA,NA,88.83399209486166,NA
94920,Marin County,CA,NA,NA,86.11481975967958
94941,Marin County,CA,70.94155844155844,NA,NA
94952,Sonoma County,CA,NA,31.32411067193676,NA
95008,Santa Clara County,CA,NA,74.30830039525692,NA
95051,Santa Clara County,CA,43.66883116883117,76.08695652173914,NA
95076,Santa Cruz County,CA,NA,11.956521739130435,NA
95118,Santa Clara County,CA,NA,NA,83.84512683578103
95125,Santa Clara County,CA,45.94155844155844,NA,NA
95126,Santa Clara County,CA,NA,NA,62.483311081441926
95129,Santa Clara County,CA,NA,NA,92.79038718291055
95130,Santa Clara County,CA,NA,93.2806324110672,NA
95132,Santa Clara County,CA,NA,59.58498023715415,NA
95207,San Joaquin County,CA,20.454545454545457,NA,NA
95210,San Joaquin County,CA,NA,NA,66.75567423230974
95337,San Joaquin County,CA,NA,36.06719367588933,NA
95340,Merced County,CA,NA,NA,35.51401869158878
95354,Stanislaus County,CA,31.655844155844154,NA,NA
95358,Stanislaus County,CA,NA,43.3794466403162,NA
95376,San Joaquin County,CA,27.27272727272727,NA,NA
95405,Sonoma County,CA,NA,NA,69.02536715620828
95409,Sonoma County,CA,79.87012987012987,NA,NA
95423,Lake County,CA,NA,NA,94.12550066755674
95446,Sonoma County,CA,NA,95.94861660079052,NA
95482,Mendocino County,CA,NA,19.268774703557312,NA
95540,Humboldt County,CA,57.467532467532465,NA,53.67156208277704
95603,Placer County,CA,NA,40.11857707509881,25.233644859813083
95608,Sacramento County,CA,NA,NA,5.740987983978639
95610,Sacramento County,CA,NA,NA,36.849132176234974
95618,Yolo County,CA,92.20779220779221,NA,NA
95624,Sacramento County,CA,NA,82.80632411067194,NA
95825,Sacramento County,CA,NA,58.79446640316206,NA
95828,Sacramento County,CA,NA,25.395256916996047,NA
95838,Sacramento County,CA,NA,NA,61.94926568758344
95901,Yuba County,CA,22.07792207792208,NA,NA
95954,Butte County,CA,39.61038961038961,NA,NA
95965,Butte County,CA,17.694805194805195,NA,NA
95991,Sutter County,CA,NA,NA,34.979973297730304
96003,Shasta County,CA,NA,NA,24.16555407209613
96007,Shasta County,CA,NA,52.27272727272727,NA
96080,Tehama County,CA,NA,NA,35.647530040053404
96097,Siskiyou County,CA,NA,51.18577075098815,NA
96150,El Dorado County,CA,NA,59.48616600790514,NA
80003,Jefferson County,CO,44.15584415584416,NA,NA
80012,Arapahoe County,CO,NA,57.31225296442688,52.603471295060075
80017,Arapahoe County,CO,NA,NA,58.61148197596796
80108,Douglas County,CO,NA,52.07509881422925,NA
80121,Arapahoe County,CO,NA,NA,49.799732977303066
80128,Jefferson County,CO,NA,NA,70.4939919893191
80134,Douglas County,CO,NA,30.434782608695656,NA
80210,Denver County,CO,NA,NA,68.4913217623498
80212,Denver County,CO,74.18831168831169,NA,NA
80215,Jefferson County,CO,NA,74.80237154150198,NA
80239,Denver County,CO,NA,NA,50.60080106809078
80247,Arapahoe County,CO,37.82467532467532,NA,NA
80303,Boulder County,CO,NA,61.85770750988142,NA
80403,Jefferson County,CO,NA,78.45849802371542,NA
80516,Weld County,CO,NA,98.02371541501977,NA
80524,Larimer County,CO,62.5,NA,NA
80534,Weld County,CO,NA,66.30434782608695,NA
80537,Larimer County,CO,NA,NA,19.492656875834445
80538,Larimer County,CO,NA,51.48221343873518,NA
80601,Adams County,CO,NA,NA,71.56208277703605
80603,Weld County,CO,NA,NA,97.59679572763686
80631,Weld County,CO,NA,82.31225296442688,NA
80634,Weld County,CO,NA,0.7905138339920948,NA
80701,Morgan County,CO,NA,39.03162055335969,NA
80751,Logan County,CO,NA,54.9407114624506,NA
80905,El Paso County,CO,65.5844155844156,NA,80.50734312416556
80911,El Paso County,CO,40.42207792207792,71.14624505928853,NA
80915,El Paso County,CO,NA,NA,61.01468624833111
80916,El Paso County,CO,35.22727272727273,NA,NA
81001,Pueblo County,CO,NA,36.26482213438735,NA
81003,Pueblo County,CO,NA,76.38339920948617,NA
81004,Pueblo County,CO,NA,23.221343873517785,NA
81005,Pueblo County,CO,NA,51.976284584980235,NA
81052,Prowers County,CO,NA,48.023715415019765,NA
81212,Fremont County,CO,NA,94.76284584980237,NA
81321,Montezuma County,CO,NA,NA,43.79172229639519
81401,Montrose County,CO,NA,33.300395256917,64.35246995994659
06043,Tolland County,CT,87.82467532467533,NA,NA
06051,Hartford County,CT,NA,NA,68.62483311081442
06053,Hartford County,CT,9.415584415584416,NA,NA
06066,Tolland County,CT,NA,66.600790513834,NA
06109,Hartford County,CT,NA,47.33201581027668,NA
06120,Hartford County,CT,NA,87.15415019762845,NA
06239,Windham County,CT,34.57792207792208,NA,NA
06249,New London County,CT,NA,NA,81.97596795727637
06426,Middlesex County,CT,NA,94.26877470355731,72.63017356475301
06450,New Haven County,CT,NA,NA,59.546061415220294
06477,New Haven County,CT,NA,NA,88.25100133511349
06478,New Haven County,CT,89.12337662337663,NA,NA
06605,Fairfield County,CT,32.467532467532465,NA,NA
06790,Litchfield County,CT,NA,1.383399209486166,NA
06812,Fairfield County,CT,NA,NA,65.95460614152204
06824,Fairfield County,CT,NA,NA,54.20560747663551
06850,Fairfield County,CT,NA,30.533596837944664,NA
06855,Fairfield County,CT,NA,99.1106719367589,NA
06890,Fairfield County,CT,NA,NA,98.53137516688919
06896,Fairfield County,CT,NA,NA,77.4365821094793
06902,Fairfield County,CT,NA,7.5098814229249005,NA
19709,New Castle County,DE,52.1103896103896,NA,26.168224299065418
19713,New Castle County,DE,NA,23.023715415019762,NA
19734,New Castle County,DE,NA,NA,81.17489986648864
19901,Kent County,DE,47.72727272727273,NA,NA
19904,Kent County,DE,NA,NA,59.14552736982643
19945,Sussex County,DE,NA,NA,63.417890520694264
19958,Sussex County,DE,NA,2.66798418972332,NA
32024,Columbia County,FL,96.9155844155844,NA,NA
32033,St. Johns County,FL,NA,96.73913043478261,NA
32034,Nassau County,FL,49.51298701298701,NA,NA
32040,Baker County,FL,NA,NA,97.06275033377837
32086,St. Johns County,FL,NA,12.845849802371543,10.947930574098798
32091,Bradford County,FL,NA,34.18972332015811,NA
32119,Volusia County,FL,NA,NA,50.734312416555404
32136,Flagler County,FL,NA,93.67588932806325,NA
32159,Lake County,FL,NA,NA,28.437917222963954
32163,Sumter County,FL,NA,27.66798418972332,NA
32169,Volusia County,FL,NA,NA,57.14285714285714
32207,Duval County,FL,NA,NA,51.53538050734312
32216,Duval County,FL,NA,NA,25.76769025367156
32219,Duval County,FL,93.9935064935065,NA,NA
32223,Duval County,FL,NA,62.154150197628454,42.323097463284384
32224,Duval County,FL,NA,37.25296442687747,NA
32246,Duval County,FL,NA,16.99604743083004,NA
32256,Duval County,FL,NA,31.719367588932805,NA
32259,St. Johns County,FL,NA,31.225296442687743,NA
32277,Duval County,FL,NA,37.351778656126484,NA
32327,Wakulla County,FL,NA,NA,75.03337783711615
32405,Bay County,FL,NA,22.727272727272727,NA
32444,Bay County,FL,NA,54.347826086956516,NA
32514,Escambia County,FL,22.24025974025974,NA,NA
32561,Santa Rosa County,FL,NA,NA,74.09879839786382
32563,Santa Rosa County,FL,NA,NA,59.41255006675568
32607,Alachua County,FL,NA,38.73517786561265,NA
32656,Clay County,FL,NA,NA,58.744993324432585
32703,Orange County,FL,NA,66.20553359683794,NA
32713,Volusia County,FL,NA,NA,55.140186915887845
32754,Brevard County,FL,NA,69.66403162055336,NA
32771,Seminole County,FL,NA,28.458498023715418,NA
32784,Lake County,FL,NA,60.079051383399204,NA
32798,Orange County,FL,NA,96.93675889328063,NA
32806,Orange County,FL,NA,NA,28.83845126835781
32825,Orange County,FL,NA,10.869565217391305,NA
32836,Orange County,FL,NA,80.8300395256917,NA
32907,Brevard County,FL,45.2922077922078,NA,NA
32955,Brevard County,FL,NA,NA,8.277703604806408
32968,Indian River County,FL,NA,52.86561264822134,90.92122830440587
32976,Brevard County,FL,NA,NA,53.271028037383175
33019,Broward County,FL,NA,NA,99.59946595460613
33025,Broward County,FL,NA,NA,34.445927903871834
33027,Broward County,FL,38.311688311688314,NA,NA
33029,Broward County,FL,NA,NA,45.92790387182911
33069,Broward County,FL,NA,NA,10.413885180240321
33125,Miami-Dade County,FL,NA,NA,8.411214953271028
33133,Miami-Dade County,FL,NA,NA,26.301735647530037
33160,Miami-Dade County,FL,NA,NA,14.018691588785046
33165,Miami-Dade County,FL,NA,NA,1.8691588785046727
33179,Miami-Dade County,FL,59.9025974025974,NA,NA
33186,Miami-Dade County,FL,NA,25.592885375494074,NA
33308,Broward County,FL,NA,NA,2.403204272363151
33322,Broward County,FL,NA,NA,9.479305740987984
33323,Broward County,FL,NA,70.25691699604744,NA
33328,Broward County,FL,78.8961038961039,73.22134387351778,NA
33408,Palm Beach County,FL,NA,NA,32.97730307076102
33411,Palm Beach County,FL,NA,14.82213438735178,NA
33426,Palm Beach County,FL,NA,NA,44.192256341789054
33431,Palm Beach County,FL,NA,47.82608695652174,NA
33435,Palm Beach County,FL,NA,NA,53.13751668891856
33437,Palm Beach County,FL,NA,NA,3.6048064085447264
33441,Broward County,FL,55.1948051948052,55.23715415019763,NA
33458,Palm Beach County,FL,23.376623376623375,NA,NA
33480,Palm Beach County,FL,NA,97.33201581027669,NA
33483,Palm Beach County,FL,NA,NA,39.38584779706275
33511,Hillsborough County,FL,36.52597402597403,NA,NA
33541,Pasco County,FL,74.83766233766234,NA,NA
33543,Pasco County,FL,54.87012987012987,NA,NA
33563,Hillsborough County,FL,NA,52.76679841897233,NA
33565,Hillsborough County,FL,NA,67.58893280632411,NA
33566,Hillsborough County,FL,NA,58.596837944664024,NA
33570,Hillsborough County,FL,63.798701298701296,NA,NA
33573,Hillsborough County,FL,NA,NA,1.335113484646195
33604,Hillsborough County,FL,22.4025974025974,NA,NA
33610,Hillsborough County,FL,NA,NA,75.43391188251002
33624,Hillsborough County,FL,52.27272727272727,NA,40.053404539385845
33637,Hillsborough County,FL,NA,94.56521739130434,NA
33707,Pinellas County,FL,NA,NA,20.961281708945258
33708,Pinellas County,FL,NA,55.03952569169961,NA
33771,Pinellas County,FL,43.83116883116883,NA,NA
33781,Pinellas County,FL,45.45454545454545,NA,NA
33852,Highlands County,FL,NA,13.83399209486166,NA
33881,Polk County,FL,NA,26.778656126482215,NA
33898,Polk County,FL,NA,62.450592885375485,NA
33907,Lee County,FL,NA,62.549407114624515,NA
33908,Lee County,FL,NA,NA,0.4005340453938585
33909,Lee County,FL,NA,37.05533596837945,NA
33917,Lee County,FL,NA,13.537549407114625,NA
33919,Lee County,FL,NA,NA,21.762349799732977
33947,Charlotte County,FL,NA,NA,91.98931909212284
33952,Charlotte County,FL,24.18831168831169,NA,NA
33955,Charlotte County,FL,NA,57.11462450592886,NA
33976,Lee County,FL,97.24025974025975,NA,NA
34110,Collier County,FL,NA,NA,41.1214953271028
34112,Collier County,FL,NA,30.138339920948614,NA
34205,Manatee County,FL,32.142857142857146,NA,NA
34233,Sarasota County,FL,75.97402597402598,NA,NA
34236,Sarasota County,FL,NA,NA,48.99866488651535
34238,Sarasota County,FL,NA,NA,4.405874499332444
34275,Sarasota County,FL,NA,NA,45.52736982643525
34292,Sarasota County,FL,NA,NA,9.612817089452603
34481,Marion County,FL,NA,NA,10.2803738317757
34684,Pinellas County,FL,NA,8.794466403162057,NA
34691,Pasco County,FL,82.95454545454545,NA,NA
34698,Pinellas County,FL,NA,15.810276679841898,NA
34714,Lake County,FL,71.9155844155844,NA,NA
34731,Lake County,FL,80.35714285714286,NA,NA
34953,St. Lucie County,FL,58.27922077922077,NA,NA
34974,Okeechobee County,FL,NA,32.80632411067194,NA
34982,St. Lucie County,FL,NA,30.8300395256917,NA
34986,St. Lucie County,FL,NA,18.08300395256917,NA
30005,Fulton County,GA,NA,89.13043478260869,NA
30013,Rockdale County,GA,NA,NA,60.08010680907877
30014,Newton County,GA,NA,NA,61.28170894526035
30019,Gwinnett County,GA,NA,67.88537549407114,NA
30022,Fulton County,GA,38.47402597402597,NA,NA
30032,DeKalb County,GA,11.525974025974026,NA,NA
30038,DeKalb County,GA,88.31168831168831,NA,NA
30040,Forsyth County,GA,NA,13.636363636363635,NA
30041,Forsyth County,GA,NA,7.707509881422925,17.890520694259013
30062,Cobb County,GA,NA,NA,25.367156208277702
30083,DeKalb County,GA,NA,25.494071146245062,NA
30084,DeKalb County,GA,62.175324675324674,NA,NA
30093,Gwinnett County,GA,55.84415584415584,NA,NA
30096,Gwinnett County,GA,25.487012987012985,NA,NA
30101,Cobb County,GA,NA,19.960474308300398,NA
30117,Carroll County,GA,31.33116883116883,NA,NA
30141,Paulding County,GA,NA,63.43873517786561,NA
30143,Pickens County,GA,NA,NA,32.04272363150868
30187,Douglas County,GA,NA,77.96442687747036,NA
30224,Spalding County,GA,NA,44.1699604743083,NA
30238,Clayton County,GA,NA,90.21739130434783,NA
30273,Clayton County,GA,60.22727272727273,NA,NA
30277,Coweta County,GA,NA,NA,77.16955941255007
30286,Upson County,GA,NA,NA,52.069425901201605
30309,Fulton County,GA,NA,50.39525691699605,NA
30324,Fulton County,GA,NA,NA,85.31375166889185
30331,Fulton County,GA,NA,NA,15.086782376502002
30338,DeKalb County,GA,NA,86.36363636363636,NA
30349,Fulton County,GA,5.681818181818182,NA,NA
30401,Emanuel County,GA,69.96753246753246,NA,NA
30436,Toombs County,GA,78.4090909090909,NA,NA
30506,Hall County,GA,NA,14.32806324110672,9.746328437917223
30507,Hall County,GA,42.532467532467535,NA,NA
30519,Gwinnett County,GA,NA,25.889328063241106,NA
30529,Jackson County,GA,NA,82.5098814229249,NA
30536,Gilmer County,GA,NA,NA,76.90253671562083
30548,Jackson County,GA,NA,42.88537549407115,NA
30577,Stephens County,GA,NA,NA,52.069425901201605
30628,Madison County,GA,NA,94.86166007905138,NA
30680,Barrow County,GA,NA,16.699604743083004,NA
30736,Catoosa County,GA,NA,14.229249011857709,NA
30830,Burke County,GA,50.81168831168831,NA,NA
30904,Richmond County,GA,NA,67.09486166007905,NA
31036,Pulaski County,GA,70.29220779220779,NA,NA
31206,Bibb County,GA,NA,75.69169960474308,NA
31553,Brantley County,GA,NA,91.00790513833992,NA
31602,Lowndes County,GA,36.038961038961034,NA,NA
31705,Dougherty County,GA,NA,20.059288537549406,NA
31793,Tift County,GA,66.07142857142857,NA,NA
31904,Muscogee County,GA,NA,NA,45.794392523364486
39819,Decatur County,GA,NA,NA,66.62216288384512
39845,Seminole County,GA,73.53896103896103,NA,NA
96712,Honolulu County,HI,NA,NA,95.99465954606141
96749,Hawaii County,HI,NA,NA,77.83711615487317
96816,Honolulu County,HI,NA,65.31620553359684,NA
83202,Bannock County,ID,NA,NA,70.09345794392523
83211,Power County,ID,NA,89.9209486166008,NA
83221,Bingham County,ID,26.2987012987013,NA,NA
83316,Twin Falls County,ID,NA,NA,26.969292389853138
83318,Cassia County,ID,NA,NA,34.57943925233645
83350,Minidoka County,ID,NA,58.596837944664024,NA
83404,Bonneville County,ID,NA,NA,48.865153538050734
83619,Payette County,ID,NA,60.96837944664032,NA
83646,Ada County,ID,10.38961038961039,NA,NA
83687,Canyon County,ID,NA,84.68379446640316,NA
83704,Ada County,ID,NA,1.9762845849802373,NA
83705,Ada County,ID,NA,NA,37.24966622162884
83706,Ada County,ID,NA,NA,16.15487316421896
83709,Ada County,ID,NA,21.83794466403162,NA
83815,Kootenai County,ID,NA,NA,13.351134846461948
83854,Kootenai County,ID,NA,NA,85.18024032042723
83856,Bonner County,ID,NA,91.30434782608695,NA
83864,Bonner County,ID,NA,NA,47.396528704939925
60008,Cook County,IL,NA,NA,40.987983978638184
60010,Lake County,IL,NA,9.090909090909092,NA
60025,Cook County,IL,NA,3.260869565217391,NA
60030,Lake County,IL,NA,NA,13.484646194926569
60046,Lake County,IL,NA,53.75494071146245,NA
60067,Cook County,IL,NA,NA,11.615487316421897
60068,Cook County,IL,NA,80.13833992094862,NA
60076,Cook County,IL,NA,17.193675889328063,NA
60093,Cook County,IL,NA,NA,21.895861148197596
60099,Lake County,IL,NA,NA,65.82109479305741
60106,DuPage County,IL,93.18181818181817,NA,NA
60119,Kane County,IL,NA,98.22134387351778,NA
60123,Kane County,IL,NA,10.869565217391305,52.336448598130836
60124,Kane County,IL,NA,22.035573122529645,NA
60142,McHenry County,IL,NA,7.213438735177865,NA
60153,Cook County,IL,NA,NA,88.51802403204272
60155,Cook County,IL,NA,56.7193675889328,NA
60177,Kane County,IL,57.62987012987013,NA,NA
60194,Cook County,IL,72.07792207792207,NA,NA
60201,Cook County,IL,NA,15.909090909090908,NA
60402,Cook County,IL,NA,NA,86.2483311081442
60406,Cook County,IL,52.75974025974026,NA,NA
60426,Cook County,IL,54.87012987012987,NA,NA
60428,Cook County,IL,NA,74.01185770750988,NA
60430,Cook County,IL,65.09740259740259,NA,NA
60431,Will County,IL,NA,NA,63.417890520694264
60433,Will County,IL,61.36363636363637,NA,NA
60439,Cook County,IL,NA,46.541501976284586,NA
60442,Will County,IL,NA,98.3201581027668,NA
60446,Will County,IL,14.44805194805195,31.521739130434785,NA
60450,Grundy County,IL,NA,84.0909090909091,NA
60451,Will County,IL,NA,10.67193675889328,NA
60452,Cook County,IL,NA,NA,33.64485981308411
60453,Cook County,IL,NA,NA,3.871829105473965
60467,Cook County,IL,76.13636363636364,NA,NA
60477,Cook County,IL,25.324675324675322,NA,NA
60504,DuPage County,IL,NA,52.4703557312253,NA
60514,DuPage County,IL,NA,NA,88.38451268357811
60515,DuPage County,IL,NA,NA,20.427236315086784
60516,DuPage County,IL,NA,NA,30.8411214953271
60525,Cook County,IL,NA,9.189723320158102,11.214953271028037
60561,DuPage County,IL,NA,24.40711462450593,NA
60601,Cook County,IL,83.6038961038961,NA,NA
60612,Cook County,IL,49.02597402597403,NA,NA
60617,Cook County,IL,5.032467532467533,NA,NA
60625,Cook County,IL,9.253246753246753,NA,NA
60628,Cook County,IL,NA,2.371541501976284,NA
60634,Cook County,IL,NA,NA,6.008010680907877
60636,Cook County,IL,NA,NA,20.026702269692922
60638,Cook County,IL,NA,NA,3.4712950600801067
60639,Cook County,IL,NA,4.940711462450593,NA
60641,Cook County,IL,NA,NA,20.160213618157545
60643,Cook County,IL,6.6558441558441555,NA,NA
60644,Cook County,IL,NA,8.49802371541502,NA
60645,Cook County,IL,NA,NA,71.829105473965285
60656,Cook County,IL,47.564935064935064,71.44268774703558,NA
60950,Kankakee County,IL,NA,59.58498023715415,33.11081441922563
61061,Ogle County,IL,90.9090909090909,NA,NA
61109,Winnebago County,IL,NA,NA,89.85313751668892
61201,Rock Island County,IL,NA,24.110671936758894,NA
61270,Whiteside County,IL,NA,73.61660079051383,NA
61301,LaSalle County,IL,NA,NA,96.12817089452604
61350,LaSalle County,IL,NA,NA,25.500667556742325
61356,Bureau County,IL,95.45454545454545,NA,NA
61520,Fulton County,IL,70.61688311688312,NA,NA
61554,Tazewell County,IL,NA,7.608695652173914,NA
61604,Peoria County,IL,NA,32.21343873517787,NA
61802,Champaign County,IL,93.34415584415584,NA,NA
61832,Vermilion County,IL,35.55194805194805,NA,NA
62010,Madison County,IL,75.64935064935064,NA,NA
62025,Madison County,IL,NA,NA,23.63150867823765
62035,Madison County,IL,NA,79.54545454545455,NA
62052,Jersey County,IL,68.9935064935065,NA,NA
62226,St. Clair County,IL,NA,20.35573122529644,NA
62254,St. Clair County,IL,NA,91.30434782608695,NA
62286,Randolph County,IL,NA,91.00790513833992,NA
62363,Pike County,IL,NA,NA,67.42323097463284
62450,Richland County,IL,NA,NA,84.2456608811749
62526,Macon County,IL,NA,NA,26.702269692923895
62656,Logan County,IL,NA,60.7707509881423,NA
62704,Sangamon County,IL,NA,23.122529644268774,NA
62711,Sangamon County,IL,NA,71.14624505928853,NA
62801,Marion County,IL,NA,22.134387351778656,NA
62812,Franklin County,IL,NA,50.790513833992094,NA
62837,Wayne County,IL,NA,65.11857707509881,NA
62960,Massac County,IL,NA,73.12252964426878,NA
46060,Hamilton County,IN,NA,20.8498023715415,NA
46112,Hendricks County,IN,NA,NA,28.17089452603471
46124,Johnson County,IN,91.55844155844156,NA,NA
46135,Putnam County,IN,NA,NA,32.30974632843792
46140,Hancock County,IN,NA,NA,16.02136181575434
46158,Morgan County,IN,53.246753246753244,NA,NA
46163,Hancock County,IN,NA,61.462450592885375,NA
46168,Hendricks County,IN,NA,NA,95.46061415220294
46173,Rush County,IN,NA,38.83399209486166,NA
46202,Marion County,IN,61.52597402597403,NA,NA
46220,Marion County,IN,NA,39.723320158102766,NA
46234,Marion County,IN,NA,NA,31.5086782376502
46239,Marion County,IN,54.05844155844156,NA,NA
46240,Marion County,IN,86.36363636363636,NA,NA
46259,Marion County,IN,NA,NA,70.22696929238985
46278,Marion County,IN,NA,NA,86.78237650200266
46303,Lake County,IN,NA,34.090909090909086,NA
46304,Porter County,IN,11.85064935064935,NA,NA
46307,Lake County,IN,0.8116883116883116,NA,34.17890520694259
46310,Jasper County,IN,51.298701298701296,92.78656126482213,NA
46311,Lake County,IN,NA,11.758893280632412,NA
46341,Porter County,IN,NA,56.126482213438734,NA
46350,LaPorte County,IN,32.3051948051948,NA,NA
46356,Lake County,IN,29.87012987012987,NA,NA
46360,LaPorte County,IN,NA,NA,52.336448598130836
46368,Porter County,IN,16.071428571428573,NA,65.42056074766354
46371,LaPorte County,IN,NA,99.1106719367589,NA
46383,Porter County,IN,NA,44.9604743083004,NA
46385,Porter County,IN,48.214285714285715,1.8774703557312251,NA
46394,Lake County,IN,77.75974025974025,NA,NA
46410,Lake County,IN,NA,2.766798418972332,NA
46514,Elkhart County,IN,NA,16.007905138339922,NA
46545,St. Joseph County,IN,46.590909090909086,NA,NA
46563,Marshall County,IN,NA,NA,16.822429906542055
46580,Kosciusko County,IN,NA,NA,28.037383177570092
46701,Noble County,IN,NA,68.77470355731225,NA
46706,DeKalb County,IN,NA,NA,29.506008010680908
46750,Huntington County,IN,50.16233766233766,NA,NA
46767,Noble County,IN,86.2012987012987,NA,NA
46805,Allen County,IN,31.006493506493506,NA,NA
46808,Allen County,IN,NA,54.44664031620553,NA
46818,Allen County,IN,38.798701298701296,NA,NA
46933,Grant County,IN,NA,67.68774703557312,NA
46953,Grant County,IN,NA,NA,12.016021361815755
46970,Miami County,IN,94.64285714285714,NA,NA
46975,Fulton County,IN,50,NA,NA
46992,Wabash County,IN,77.27272727272727,34.58498023715415,NA
46996,Pulaski County,IN,NA,93.37944664031622,NA
47001,Dearborn County,IN,NA,86.26482213438736,NA
47025,Dearborn County,IN,NA,NA,54.73965287049399
47112,Harrison County,IN,NA,NA,63.0173564753004
47172,Clark County,IN,NA,NA,65.15353805073431
47201,Bartholomew County,IN,NA,NA,42.590120160213615
47203,Bartholomew County,IN,34.090909090909086,NA,NA
47374,Wayne County,IN,NA,NA,27.770360480640853
47532,Dubois County,IN,99.67532467532467,NA,NA
47591,Knox County,IN,NA,NA,14.686248331108146
47601,Warrick County,IN,NA,34.88142292490119,NA
47648,Gibson County,IN,NA,99.70355731225297,NA
47670,Gibson County,IN,NA,86.56126482213439,NA
47712,Vanderburgh County,IN,NA,NA,46.86248331108144
47715,Vanderburgh County,IN,NA,67.29249011857708,11.481975967957277
47905,Tippecanoe County,IN,NA,NA,13.618157543391188
50049,Lucas County,IA,88.7987012987013,NA,NA
50125,Warren County,IA,68.18181818181817,NA,NA
50129,Greene County,IA,NA,83.89328063241108,NA
50317,Polk County,IA,NA,41.99604743083004,NA
50327,Polk County,IA,NA,NA,80.10680907877169
50461,Mitchell County,IA,89.6103896103896,NA,84.2456608811749
50613,Black Hawk County,IA,NA,NA,2.803738317757009
50701,Black Hawk County,IA,NA,53.55731225296443,NA
51360,Dickinson County,IA,NA,NA,47.79706275033378
51501,Pottawattamie County,IA,1.6233766233766231,NA,28.304405874499334
51503,Pottawattamie County,IA,NA,2.5691699604743086,23.09746328437917
52002,Dubuque County,IA,72.40259740259741,99.40711462450594,73.43124165554073
52205,Jones County,IA,87.33766233766234,NA,NA
52732,Clinton County,IA,NA,20.75098814229249,NA
52738,Louisa County,IA,NA,98.61660079051383,NA
52742,Clinton County,IA,98.53896103896103,NA,NA
52761,Muscatine County,IA,NA,38.537549407114625,NA
52806,Scott County,IA,19.967532467532468,NA,NA
66007,Leavenworth County,KS,NA,NA,74.36582109479306
66018,Johnson County,KS,99.02597402597402,NA,NA
66025,Douglas County,KS,97.40259740259741,NA,NA
66047,Douglas County,KS,NA,76.28458498023716,NA
66049,Douglas County,KS,NA,NA,48.33110814419226
66061,Johnson County,KS,NA,NA,98.6648865153538
66101,Wyandotte County,KS,NA,NA,91.18825100133512
66102,Wyandotte County,KS,50.48701298701299,NA,NA
66109,Wyandotte County,KS,52.5974025974026,NA,28.57142857142857
66209,Johnson County,KS,NA,36.462450592885375,86.91588785046729
66210,Johnson County,KS,NA,60.27667984189723,NA
66212,Johnson County,KS,NA,42.19367588932806,NA
66213,Johnson County,KS,69.8051948051948,NA,NA
66214,Johnson County,KS,NA,77.4703557312253,NA
66503,Riley County,KS,NA,85.17786561264822,NA
66610,Shawnee County,KS,NA,83.89328063241108,NA
66614,Shawnee County,KS,NA,NA,13.084112149532709
66617,Shawnee County,KS,90.25974025974025,NA,NA
67107,McPherson County,KS,100,NA,NA
67114,Harvey County,KS,75.81168831168831,53.063241106719374,NA
67147,Sedgwick County,KS,NA,NA,93.32443257676903
67216,Sedgwick County,KS,NA,61.36363636363637,NA
67226,Sedgwick County,KS,NA,NA,82.37650200267022
67401,Saline County,KS,19.805194805194805,NA,17.089452603471294
67460,McPherson County,KS,NA,NA,62.34979973297731
67530,Barton County,KS,NA,50.494071146245055,NA
67701,Thomas County,KS,88.47402597402598,NA,NA
67901,Seward County,KS,95.61688311688312,NA,NA
40014,Oldham County,KY,NA,57.608695652173914,NA
40047,Bullitt County,KY,81.98051948051948,NA,NA
40071,Spencer County,KY,NA,NA,87.31642189586115
40108,Meade County,KY,NA,75.49407114624506,NA
40165,Bullitt County,KY,13.14935064935065,NA,75.16688918558077
40210,Jefferson County,KY,40.58441558441558,NA,NA
40213,Jefferson County,KY,NA,95.65217391304348,NA
40214,Jefferson County,KY,47.4025974025974,43.67588932806324,NA
40215,Jefferson County,KY,18.506493506493506,NA,NA
40217,Jefferson County,KY,NA,NA,78.7716955941255
40219,Jefferson County,KY,NA,NA,28.704939919893192
40243,Jefferson County,KY,NA,NA,94.65954606141523
40258,Jefferson County,KY,20.941558441558442,NA,NA
40291,Jefferson County,KY,16.72077922077922,NA,NA
40324,Scott County,KY,NA,16.600790513833992,NA
40336,Estill County,KY,NA,45.15810276679842,NA
40353,Montgomery County,KY,53.08441558441559,NA,NA
40391,Clark County,KY,6.0064935064935066,NA,NA
40769,Whitley County,KY,NA,48.81422924901186,NA
40962,Clay County,KY,18.344155844155843,NA,NA
41048,Boone County,KY,NA,NA,82.37650200267022
41102,Boyd County,KY,NA,NA,20.827770360480642
41129,Boyd County,KY,NA,49.11067193675889,NA
41143,Carter County,KY,NA,74.01185770750988,NA
41144,Greenup County,KY,NA,46.44268774703557,NA
41339,Breathitt County,KY,46.42857142857143,NA,NA
42066,Graves County,KY,54.7077922077922,NA,NA
42127,Barren County,KY,NA,NA,88.11748998664886
42211,Trigg County,KY,62.01298701298701,NA,NA
42240,Christian County,KY,26.785714285714285,NA,NA
42301,Daviess County,KY,NA,6.8181818181818175,NA
42503,Pulaski County,KY,41.55844155844156,50,NA
42718,Taylor County,KY,11.363636363636363,NA,NA
70001,Jefferson Parish,LA,NA,NA,7.343124165554073
70002,Jefferson Parish,LA,NA,NA,67.55674232309747
70005,Jefferson Parish,LA,NA,17.391304347826086,NA
70068,St. John the Baptist Parish,LA,NA,11.857707509881422,85.44726301735648
70094,Jefferson Parish,LA,2.75974025974026,NA,NA
70119,Orleans Parish,LA,NA,63.14229249011858,NA
70124,Orleans Parish,LA,NA,69.1699604743083,NA
70126,Orleans Parish,LA,NA,49.90118577075099,NA
70301,Lafourche Parish,LA,NA,5.533596837944664,NA
70360,Terrebonne Parish,LA,9.090909090909092,NA,NA
70364,Terrebonne Parish,LA,NA,NA,41.52202937249666
70427,Washington Parish,LA,14.772727272727273,NA,NA
70433,St. Tammany Parish,LA,NA,NA,3.337783711615487
70471,St. Tammany Parish,LA,NA,NA,14.152202937249667
70503,Lafayette Parish,LA,NA,NA,33.91188251001335
70512,St. Landry Parish,LA,NA,69.0711462450593,NA
70520,Lafayette Parish,LA,NA,NA,78.50467289719626
70526,Acadia Parish,LA,NA,NA,57.67690253671562
70563,Iberia Parish,LA,35.714285714285715,NA,NA
70583,Lafayette Parish,LA,NA,64.42687747035573,NA
70592,Lafayette Parish,LA,NA,NA,79.97329773030708
70605,Calcasieu Parish,LA,17.532467532467532,NA,NA
70611,Calcasieu Parish,LA,NA,65.01976284584981,NA
70633,Calcasieu Parish,LA,NA,NA,76.63551401869158
70665,Calcasieu Parish,LA,67.04545454545455,NA,NA
70726,Livingston Parish,LA,NA,31.620553359683797,NA
70785,Livingston Parish,LA,NA,31.027667984189723,NA
70791,East Baton Rouge Parish,LA,12.662337662337661,57.21343873517787,NA
70807,East Baton Rouge Parish,LA,92.6948051948052,NA,NA
71037,Bossier Parish,LA,NA,76.97628458498023,NA
71052,De Soto Parish,LA,NA,61.75889328063241,NA
71055,Webster Parish,LA,NA,NA,78.63818424566088
71111,Bossier Parish,LA,NA,9.189723320158102,NA
71220,Morehouse Parish,LA,17.20779220779221,NA,NA
71303,Rapides Parish,LA,29.05844155844156,NA,NA
71342,La Salle Parish,LA,NA,57.70750988142292,NA
71360,Rapides Parish,LA,9.577922077922079,NA,NA
71405,Rapides Parish,LA,NA,86.7588932806324,NA
03904,York County,ME,NA,NA,63.150867823765026
03906,York County,ME,NA,99.01185770750988,NA
04086,Sagadahoc County,ME,NA,NA,40.453938584779706
04105,Cumberland County,ME,NA,74.70355731225297,NA
04330,Kennebec County,ME,NA,71.83794466403161,NA
04401,Penobscot County,ME,71.75324675324676,NA,NA
04743,Aroostook County,ME,NA,NA,92.38985313751668
04937,Somerset County,ME,NA,NA,73.56475300400534
04963,Kennebec County,ME,NA,85.67193675889328,NA
20640,Charles County,MD,NA,NA,88.91855807743659
20735,Prince George's County,MD,NA,NA,62.082777036048064
20743,Prince George's County,MD,33.76623376623377,NA,NA
20744,Prince George's County,MD,44.48051948051948,NA,NA
20785,Prince George's County,MD,54.05844155844156,70.45454545454545,NA
20815,Montgomery County,MD,NA,NA,33.244325767690256
20850,Montgomery County,MD,NA,64.72332015810277,NA
20852,Montgomery County,MD,NA,NA,22.162883845126835
20853,Montgomery County,MD,NA,93.77470355731225,NA
20854,Montgomery County,MD,NA,27.865612648221344,NA
20906,Montgomery County,MD,NA,NA,9.345794392523365
21046,Howard County,MD,NA,NA,99.19893190921229
21048,Carroll County,MD,88.96103896103897,NA,NA
21060,Anne Arundel County,MD,27.435064935064936,NA,NA
21122,Anne Arundel County,MD,NA,NA,23.76502002670227
21206,Baltimore city,MD,10.227272727272728,NA,NA
21217,Baltimore city,MD,21.1038961038961,12.351778656126482,NA
21219,Baltimore County,MD,NA,78.95256916996047,NA
21502,Allegany County,MD,21.753246753246753,NA,NA
21550,Garrett County,MD,NA,36.56126482213439,NA
21620,Kent County,MD,81.81818181818183,NA,NA
21804,Wicomico County,MD,NA,48.122529644268774,NA
21911,Cecil County,MD,NA,69.26877470355731,NA
01002,Hampshire County,MA,NA,87.74703557312253,55.80774365821095
01013,Hampden County,MA,NA,41.205533596837945,NA
01020,Hampden County,MA,NA,7.41106719367589,NA
01030,Hampden County,MA,NA,29.64426877470356,NA
01056,Hampden County,MA,15.746753246753247,91.699604743083,NA
01107,Hampden County,MA,NA,60.47430830039525,38.184245660881174
01118,Hampden County,MA,NA,NA,47.12950600801068
01201,Berkshire County,MA,NA,NA,8.01068090787717
01238,Berkshire County,MA,51.62337662337663,NA,NA
01430,Worcester County,MA,NA,72.23320158102767,NA
01540,Worcester County,MA,NA,43.77470355731226,NA
01701,Middlesex County,MA,NA,4.24901185770751,NA
01720,Middlesex County,MA,NA,NA,34.045393858477965
01754,Middlesex County,MA,NA,47.33201581027668,NA
01775,Middlesex County,MA,NA,81.91699604743083,NA
01778,Middlesex County,MA,NA,NA,56.60881174899867
01821,Middlesex County,MA,NA,NA,6.141522029372497
01841,Essex County,MA,1.948051948051948,NA,NA
01886,Middlesex County,MA,NA,24.90118577075099,NA
01887,Middlesex County,MA,4.545454545454546,NA,NA
01902,Essex County,MA,NA,4.446640316205533,NA
01906,Essex County,MA,NA,NA,4.539385847797063
01913,Essex County,MA,NA,6.225296442687747,NA
01915,Essex County,MA,NA,0.2964426877470355,NA
01923,Essex County,MA,NA,NA,1.2016021361815754
01938,Essex County,MA,NA,NA,36.715620827770366
01945,Essex County,MA,39.44805194805195,NA,NA
01952,Essex County,MA,NA,80.63241106719367,NA
01960,Essex County,MA,NA,NA,0
01970,Essex County,MA,NA,0.09881422924901186,NA
02021,Norfolk County,MA,NA,24.209486166007903,NA
02025,Norfolk County,MA,NA,74.60474308300395,NA
02062,Norfolk County,MA,NA,55.92885375494071,NA
02067,Norfolk County,MA,NA,NA,98.13084112149532
02114,Suffolk County,MA,17.045454545454543,NA,NA
02118,Suffolk County,MA,NA,0,NA
02126,Suffolk County,MA,NA,NA,15.620827770360481
02127,Suffolk County,MA,NA,4.841897233201581,NA
02128,Suffolk County,MA,NA,9.486166007905137,NA
02131,Suffolk County,MA,NA,NA,19.092122830440587
02140,Middlesex County,MA,NA,NA,22.296395193591458
02143,Middlesex County,MA,NA,NA,15.220293724966622
02144,Middlesex County,MA,NA,NA,16.288384512683578
02149,Middlesex County,MA,NA,16.304347826086957,NA
02176,Middlesex County,MA,NA,NA,40.58744993324432
02302,Plymouth County,MA,NA,NA,3.204272363150868
02333,Plymouth County,MA,64.28571428571429,37.94466403162055,NA
02346,Plymouth County,MA,NA,78.75494071146245,NA
02351,Plymouth County,MA,15.259740259740258,NA,77.70360480640855
02360,Plymouth County,MA,16.558441558441558,NA,0.6675567423230975
02375,Bristol County,MA,NA,80.53359683794467,NA
02382,Plymouth County,MA,NA,NA,97.9973297730307
02451,Middlesex County,MA,NA,NA,90.25367156208279
02453,Middlesex County,MA,7.142857142857142,NA,NA
02472,Middlesex County,MA,NA,NA,10.814419225634179
02481,Norfolk County,MA,NA,NA,78.90520694259013
02540,Barnstable County,MA,NA,30.92885375494071,NA
02554,Nantucket County,MA,31.818181818181817,NA,NA
02653,Barnstable County,MA,NA,NA,43.39118825100133
02655,Barnstable County,MA,NA,NA,81.70894526034714
02724,Bristol County,MA,NA,NA,3.7383177570093453
02726,Bristol County,MA,NA,NA,39.38584779706275
02777,Bristol County,MA,5.51948051948052,NA,NA
02779,Bristol County,MA,NA,NA,96.26168224299066
02780,Bristol County,MA,0,NA,NA
02790,Bristol County,MA,NA,18.57707509881423,NA
48009,Oakland County,MI,NA,NA,49.39919893190921
48035,Macomb County,MI,55.35714285714286,NA,NA
48038,Macomb County,MI,12.012987012987013,NA,NA
48042,Macomb County,MI,NA,NA,24.566088117489986
48043,Macomb County,MI,NA,47.82608695652174,NA
48059,St. Clair County,MI,84.90259740259741,NA,NA
48071,Oakland County,MI,NA,29.150197628458496,NA
48074,St. Clair County,MI,NA,63.63636363636363,NA
48081,Macomb County,MI,NA,17.588932806324113,NA
48093,Macomb County,MI,76.2987012987013,NA,17.75700934579439
48094,Macomb County,MI,NA,43.280632411067195,NA
48108,Washtenaw County,MI,NA,NA,58.87850467289719
48111,Wayne County,MI,4.707792207792208,NA,NA
48116,Livingston County,MI,NA,NA,9.078771695594126
48118,Washtenaw County,MI,NA,NA,25.634178905206944
48122,Wayne County,MI,52.922077922077925,NA,NA
48135,Wayne County,MI,NA,18.08300395256917,NA
48152,Wayne County,MI,NA,NA,33.77837116154873
48162,Monroe County,MI,11.2012987012987,NA,NA
48185,Wayne County,MI,NA,27.37154150197628,NA
48186,Wayne County,MI,3.4090909090909087,NA,NA
48192,Wayne County,MI,17.20779220779221,77.27272727272727,NA
48197,Washtenaw County,MI,68.83116883116884,NA,NA
48198,Washtenaw County,MI,NA,8.992094861660078,NA
48201,Wayne County,MI,37.33766233766234,NA,81.04138851802402
48204,Wayne County,MI,NA,23.418972332015812,NA
48207,Wayne County,MI,NA,28.85375494071146,NA
48223,Wayne County,MI,NA,NA,55.407209612817084
48225,Wayne County,MI,NA,57.80632411067194,NA
48238,Wayne County,MI,NA,11.16600790513834,NA
48302,Oakland County,MI,NA,NA,94.25901201602136
48307,Oakland County,MI,NA,15.41501976284585,NA
48312,Macomb County,MI,NA,NA,6.275033377837117
48327,Oakland County,MI,NA,NA,42.456608811749
48334,Oakland County,MI,NA,28.458498023715418,NA
48340,Oakland County,MI,NA,98.41897233201581,NA
48348,Oakland County,MI,NA,38.3399209486166,NA
48356,Oakland County,MI,NA,79.1501976284585,NA
48360,Oakland County,MI,NA,55.434782608695656,NA
48386,Oakland County,MI,60.55194805194806,NA,NA
48413,Huron County,MI,NA,NA,75.83444592790387
48423,Genesee County,MI,30.519480519480517,NA,NA
48430,Genesee County,MI,24.675324675324674,NA,NA
48444,Lapeer County,MI,NA,71.34387351778656,NA
48446,Lapeer County,MI,13.7987012987013,NA,NA
48506,Genesee County,MI,22.88961038961039,NA,46.728971962616825
48507,Genesee County,MI,8.116883116883116,NA,NA
48532,Genesee County,MI,36.688311688311686,NA,NA
48601,Saginaw County,MI,NA,71.04743083003953,NA
48603,Saginaw County,MI,10.55194805194805,NA,NA
48609,Saginaw County,MI,NA,NA,89.7196261682243
48624,Gladwin County,MI,NA,13.438735177865613,NA
48640,Midland County,MI,NA,NA,26.034712950600802
48647,Oscoda County,MI,87.5,NA,NA
48706,Bay County,MI,5.194805194805195,0.4940711462450593,NA
48722,Saginaw County,MI,97.72727272727273,NA,NA
48843,Livingston County,MI,NA,2.8656126482213438,NA
48850,Montcalm County,MI,85.06493506493507,NA,NA
48893,Isabella County,MI,NA,79.64426877470355,NA
48911,Ingham County,MI,NA,10.375494071146244,NA
49001,Kalamazoo County,MI,NA,48.3201581027668,NA
49004,Kalamazoo County,MI,41.72077922077922,NA,NA
49022,Berrien County,MI,7.954545454545454,NA,NA
49065,Van Buren County,MI,73.37662337662337,NA,NA
49120,Berrien County,MI,NA,62.055335968379445,NA
49304,Lake County,MI,NA,NA,87.58344459279039
49319,Kent County,MI,NA,52.37154150197628,NA
49323,Allegan County,MI,NA,NA,93.99198931909211
49329,Montcalm County,MI,NA,56.32411067193676,NA
49343,Kent County,MI,NA,NA,90.65420560747664
49401,Ottawa County,MI,NA,79.84189723320159,NA
49417,Ottawa County,MI,NA,NA,11.882510013351135
49428,Ottawa County,MI,NA,59.28853754940712,NA
49442,Muskegon County,MI,1.7857142857142856,NA,NA
49444,Muskegon County,MI,7.467532467532467,NA,NA
49503,Kent County,MI,NA,65.11857707509881,NA
49504,Kent County,MI,13.636363636363635,NA,31.90921228304406
49506,Kent County,MI,NA,NA,16.688918558077436
49507,Kent County,MI,NA,NA,38.05073431241656
49509,Kent County,MI,NA,NA,49.39919893190921
49519,Kent County,MI,15.584415584415584,NA,NA
49525,Kent County,MI,NA,NA,32.576769025367156
49534,Kent County,MI,NA,NA,41.7890520694259
49660,Manistee County,MI,NA,73.51778656126481,NA
49682,Leelanau County,MI,NA,NA,99.46595460614152
49707,Alpena County,MI,NA,14.624505928853754,NA
49829,Delta County,MI,31.16883116883117,NA,NA
49938,Gogebic County,MI,69.64285714285714,NA,NA
55016,Washington County,MN,NA,NA,63.28437917222964
55024,Dakota County,MN,NA,81.62055335968378,NA
55038,Washington County,MN,NA,82.21343873517787,NA
55041,Wabasha County,MN,NA,NA,50.06675567423231
55102,Ramsey County,MN,28.246753246753247,NA,NA
55110,Ramsey County,MN,NA,31.126482213438734,NA
55119,Ramsey County,MN,NA,24.90118577075099,NA
55125,Washington County,MN,38.961038961038966,NA,NA
55128,Washington County,MN,NA,NA,42.05607476635514
55317,Carver County,MN,NA,84.98023715415019,NA
55336,McLeod County,MN,NA,NA,74.76635514018692
55346,Hennepin County,MN,83.27922077922078,NA,NA
55350,McLeod County,MN,NA,23.616600790513832,NA
55362,Wright County,MN,NA,NA,83.5781041388518
55404,Hennepin County,MN,NA,35.67193675889328,NA
55407,Hennepin County,MN,25.97402597402597,NA,NA
55410,Hennepin County,MN,NA,NA,74.23230974632844
55427,Hennepin County,MN,NA,NA,49.93324432576769
55428,Hennepin County,MN,NA,26.48221343873518,NA
55429,Hennepin County,MN,80.1948051948052,NA,NA
55432,Anoka County,MN,NA,37.84584980237154,NA
55437,Hennepin County,MN,NA,76.18577075098814,NA
55438,Hennepin County,MN,NA,NA,54.33911882510013
55442,Hennepin County,MN,NA,92.68774703557312,NA
55446,Hennepin County,MN,NA,93.57707509881423,NA
55720,Carlton County,MN,NA,NA,71.29506008010681
55904,Olmsted County,MN,NA,30.731225296442688,NA
56071,Scott County,MN,NA,NA,84.11214953271028
56073,Brown County,MN,NA,8.695652173913043,NA
56201,Kandiyohi County,MN,NA,NA,47.2630173564753
56258,Lyon County,MN,71.1038961038961,NA,NA
56303,Stearns County,MN,NA,40.316205533596836,NA
56308,Douglas County,MN,NA,8.102766798418973,NA
56347,Todd County,MN,NA,77.66798418972331,NA
56379,Benton County,MN,61.038961038961034,NA,NA
56470,Hubbard County,MN,NA,30.237154150197625,NA
56560,Clay County,MN,NA,NA,68.35781041388518
56621,Clearwater County,MN,NA,NA,28.971962616822427
56701,Pennington County,MN,49.83766233766234,NA,NA
38843,Itawamba County,MS,NA,65.9090909090909,NA
39046,Madison County,MS,NA,47.134387351778656,NA
39051,Leake County,MS,44.642857142857146,NA,NA
39059,Copiah County,MS,89.77272727272727,NA,NA
39183,Warren County,MS,NA,78.3596837944664,NA
39325,Lauderdale County,MS,NA,76.6798418972332,NA
39443,Jones County,MS,NA,NA,43.925233644859816
39452,George County,MS,NA,15.513833992094861,NA
39466,Pearl River County,MS,NA,11.363636363636363,NA
39503,Harrison County,MS,8.603896103896105,18.280632411067195,NA
39532,Harrison County,MS,42.04545454545455,13.142292490118576,NA
39564,Jackson County,MS,NA,NA,60.88117489986649
39571,Harrison County,MS,NA,28.754940711462453,NA
39701,Lowndes County,MS,NA,94.0711462450593,NA
39702,Lowndes County,MS,NA,42.984189723320156,NA
63011,St. Louis County,MO,NA,NA,24.432576769025367
63017,St. Louis County,MO,NA,36.6600790513834,NA
63020,Jefferson County,MO,NA,NA,46.061415220293725
63026,St. Louis County,MO,NA,38.24110671936759,18.69158878504673
63033,St. Louis County,MO,NA,40.51383399209486,NA
63050,Jefferson County,MO,NA,NA,77.57009345794393
63090,Franklin County,MO,NA,41.89723320158103,NA
63113,St. Louis city,MO,64.12337662337663,NA,NA
63122,St. Louis County,MO,NA,17.490118577075098,NA
63123,St. Louis County,MO,NA,9.58498023715415,NA
63125,St. Louis County,MO,NA,NA,65.68758344459279
63129,St. Louis County,MO,NA,28.3596837944664,NA
63131,St. Louis County,MO,NA,NA,55.80774365821095
63134,St. Louis County,MO,NA,79.9407114624506,NA
63301,St. Charles County,MO,NA,2.075098814229249,NA
63304,St. Charles County,MO,NA,10.079051383399209,NA
63348,St. Charles County,MO,NA,90.61264822134387,NA
63366,St. Charles County,MO,10.876623376623376,NA,NA
63501,Adair County,MO,NA,NA,86.38184245660881
63601,St. Francois County,MO,NA,NA,65.02002670226969
63664,Washington County,MO,72.72727272727273,NA,NA
63670,Ste. Genevieve County,MO,NA,64.9209486166008,NA
63703,Cape Girardeau County,MO,56.81818181818182,NA,NA
63775,Perry County,MO,NA,28.26086956521739,NA
63873,New Madrid County,MO,NA,92.58893280632411,NA
64014,Jackson County,MO,NA,25.296442687747035,NA
64050,Jackson County,MO,14.61038961038961,NA,NA
64052,Jackson County,MO,85.71428571428571,29.347826086956523,NA
64062,Ray County,MO,NA,NA,82.64352469959947
64063,Jackson County,MO,NA,66.699604743083,NA
64068,Clay County,MO,NA,90.81027667984189,68.75834445927904
64079,Platte County,MO,NA,39.32806324110672,NA
64085,Ray County,MO,85.3896103896104,NA,NA
64086,Jackson County,MO,33.116883116883116,95.8498023715415,NA
64114,Jackson County,MO,NA,33.69565217391305,NA
64118,Clay County,MO,NA,4.545454545454546,NA
64128,Jackson County,MO,NA,NA,92.5233644859813
64131,Jackson County,MO,NA,63.04347826086957,NA
64134,Jackson County,MO,60.87662337662337,NA,NA
64152,Platte County,MO,NA,63.537549407114625,NA
64153,Platte County,MO,83.11688311688312,NA,NA
64401,Buchanan County,MO,94.96753246753246,NA,NA
64468,Nodaway County,MO,90.09740259740259,NA,NA
64505,Buchanan County,MO,NA,17.193675889328063,NA
64506,Buchanan County,MO,18.66883116883117,NA,NA
64507,Buchanan County,MO,72.8896103896104,NA,59.813084112149525
64730,Bates County,MO,58.11688311688312,NA,NA
64759,Barton County,MO,NA,83.399209486166,NA
64804,Jasper County,MO,16.3961038961039,5.632411067193676,37.78371161548731
64834,Jasper County,MO,NA,NA,84.512683578104145
64850,Newton County,MO,NA,NA,19.626168224299064
65026,Miller County,MO,NA,67.19367588932806,NA
65065,Camden County,MO,NA,87.84584980237155,NA
65084,Morgan County,MO,93.83116883116884,NA,NA
65202,Boone County,MO,NA,NA,45.66088117489986
65270,Randolph County,MO,NA,82.41106719367589,NA
65301,Pettis County,MO,2.4350649350649354,NA,NA
65355,Benton County,MO,NA,68.08300395256917,NA
65536,Laclede County,MO,NA,29.347826086956523,NA
65583,Pulaski County,MO,NA,NA,98.26435246995995
65653,Taney County,MO,96.75324675324676,NA,NA
65775,Howell County,MO,NA,26.284584980237153,87.18291054739653
65803,Greene County,MO,NA,7.806324110671936,NA
59047,Park County,MT,NA,59.58498023715415,NA
59330,Dawson County,MT,NA,NA,59.012016021361816
59601,Lewis and Clark County,MT,NA,NA,19.225634178905207
59701,Silver Bow County,MT,82.3051948051948,NA,NA
59725,Beaverhead County,MT,NA,NA,89.98664886515354
59860,Lake County,MT,NA,37.94466403162055,NA
68025,Dodge County,NE,77.59740259740259,NA,NA
68048,Cass County,NE,NA,NA,99.3324432576769
68105,Douglas County,NE,67.37012987012987,NA,NA
68106,Douglas County,NE,NA,NA,48.73164218958612
68116,Douglas County,NE,NA,NA,69.1588785046729
68124,Douglas County,NE,NA,79.05138339920948,NA
68134,Douglas County,NE,56.16883116883117,NA,NA
68137,Douglas County,NE,50.649350649350644,40.909090909090914,57.543391188251
68154,Douglas County,NE,NA,NA,54.606141522029375
68164,Douglas County,NE,NA,NA,67.28971962616822
68601,Platte County,NE,NA,36.16600790513834,NA
68701,Madison County,NE,NA,NA,35.91455273698264
69101,Lincoln County,NE,NA,NA,38.851802403204275
89104,Clark County,NV,NA,NA,41.388518024032045
89403,Lyon County,NV,NA,31.91699604743083,NA
89410,Douglas County,NV,NA,89.2292490118577,NA
89436,Washoe County,NV,21.428571428571427,NA,NA
89460,Douglas County,NV,NA,40.612648221343875,NA
89511,Washoe County,NV,NA,20.55335968379447,NA
89523,Washoe County,NV,NA,NA,48.598130841121495
03062,Hillsborough County,NH,NA,NA,12.149532710280374
03301,Merrimack County,NH,NA,37.648221343873516,NA
03743,Sullivan County,NH,NA,NA,79.43925233644859
03773,Sullivan County,NH,NA,NA,73.83177570093457
03820,Strafford County,NH,NA,NA,9.212283044058744
03870,Rockingham County,NH,NA,94.36758893280633,NA
07009,Essex County,NJ,NA,75.98814229249012,NA
07010,Bergen County,NJ,NA,94.66403162055336,NA
07026,Bergen County,NJ,NA,21.936758893280633,NA
07030,Hudson County,NJ,4.220779220779221,NA,NA
07034,Morris County,NJ,NA,NA,87.71695594125501
07050,Essex County,NJ,NA,NA,52.7369826435247
07052,Essex County,NJ,NA,NA,94.5260347129506
07079,Essex County,NJ,81.4935064935065,NA,NA
07095,Middlesex County,NJ,NA,NA,75.70093457943925
07112,Essex County,NJ,NA,NA,34.712950600801065
07444,Morris County,NJ,NA,NA,32.843791722296395
07504,Passaic County,NJ,NA,70.7509881422925,NA
07522,Passaic County,NJ,NA,24.209486166007903,NA
07601,Bergen County,NJ,NA,NA,47.930574098798395
07631,Bergen County,NJ,NA,NA,46.99599465954606
07645,Bergen County,NJ,NA,NA,96.52870493991989
07712,Monmouth County,NJ,NA,3.6561264822134385,NA
07726,Monmouth County,NJ,NA,19.367588932806324,NA
07728,Monmouth County,NJ,NA,NA,2.0026702269692924
07757,Monmouth County,NJ,NA,NA,89.18558077436583
07826,Sussex County,NJ,NA,NA,96.39519359145527
07856,Morris County,NJ,97.8896103896104,NA,NA
07885,Morris County,NJ,NA,NA,42.72363150867824
07940,Morris County,NJ,NA,65.61264822134387,NA
08003,Camden County,NJ,NA,33.00395256916996,NA
08009,Camden County,NJ,57.95454545454546,NA,NA
08204,Cape May County,NJ,51.461038961038966,NA,NA
08619,Mercer County,NJ,NA,NA,48.06408544726302
08690,Mercer County,NJ,NA,NA,44.45927903871829
08701,Ocean County,NJ,NA,5.928853754940711,NA
08721,Ocean County,NJ,NA,46.34387351778656,NA
08736,Monmouth County,NJ,NA,NA,67.69025367156209
08759,Ocean County,NJ,NA,25.09881422924901,0.9345794392523363
08820,Middlesex County,NJ,NA,54.54545454545454,NA
08861,Middlesex County,NJ,NA,3.3596837944664033,NA
08876,Somerset County,NJ,18.993506493506494,NA,NA
87110,Bernalillo County,NM,NA,6.225296442687747,NA
87121,Bernalillo County,NM,NA,3.557312252964427,NA
87401,San Juan County,NM,NA,NA,30.8411214953271
87420,San Juan County,NM,28.733766233766232,NA,NA
87501,Santa Fe County,NM,NA,59.980237154150196,NA
87505,Santa Fe County,NM,2.5974025974025974,NA,NA
87506,Santa Fe County,NM,NA,41.00790513833992,NA
87528,Rio Arriba County,NM,84.74025974025975,NA,NA
87701,San Miguel County,NM,75.16233766233766,NA,NA
88063,Doa Ana County,NM,NA,96.04743083003953,NA
88101,Curry County,NM,33.603896103896105,NA,NA
88210,Eddy County,NM,41.23376623376623,NA,NA
88220,Eddy County,NM,NA,70.15810276679841,NA
88345,Lincoln County,NM,NA,80.03952569169961,NA
10002,New York County,NY,19.642857142857142,NA,NA
10016,New York County,NY,34.25324675324675,42.29249011857708,NA
10026,New York County,NY,NA,13.339920948616601,NA
10030,New York County,NY,NA,21.442687747035574,NA
10031,New York County,NY,30.844155844155846,NA,NA
10033,New York County,NY,65.42207792207793,NA,NA
10075,New York County,NY,NA,NA,14.152202937249667
10456,Bronx County,NY,NA,NA,18.29105473965287
10462,Bronx County,NY,NA,NA,5.2069425901201605
10463,Bronx County,NY,NA,2.272727272727273,NA
10468,Bronx County,NY,0.487012987012987,NA,NA
10472,Bronx County,NY,NA,0.9881422924901186,NA
10520,Westchester County,NY,NA,NA,92.92389853137517
10538,Westchester County,NY,NA,NA,68.09078771695593
10804,Westchester County,NY,NA,85.86956521739131,NA
10901,Rockland County,NY,NA,NA,35.24699599465955
10980,Rockland County,NY,NA,NA,81.30841121495327
10990,Orange County,NY,NA,NA,36.44859813084112
11050,Nassau County,NY,83.92857142857143,NA,NA
11102,Queens County,NY,NA,NA,36.048064085447265
11201,Kings County,NY,NA,NA,73.9652870493992
11207,Kings County,NY,NA,19.466403162055336,NA
11208,Kings County,NY,0.16233766233766234,NA,14.819759679572764
11216,Kings County,NY,NA,NA,18.024032042723633
11217,Kings County,NY,NA,NA,49.13217623497997
11220,Kings County,NY,18.019480519480517,NA,NA
11231,Kings County,NY,NA,NA,50.86782376502003
11234,Kings County,NY,NA,NA,13.21762349799733
11354,Queens County,NY,74.02597402597402,NA,NA
11357,Queens County,NY,NA,71.73913043478261,NA
11365,Queens County,NY,84.25324675324676,NA,NA
11368,Queens County,NY,NA,11.561264822134387,NA
11372,Queens County,NY,NA,NA,7.076101468624834
11373,Queens County,NY,NA,11.067193675889328,NA
11374,Queens County,NY,NA,18.873517786561266,NA
11422,Queens County,NY,NA,NA,61.148197596795725
11436,Queens County,NY,NA,69.36758893280633,NA
11520,Nassau County,NY,NA,80.9288537549407,NA
11552,Nassau County,NY,NA,68.37944664031622,NA
11559,Nassau County,NY,NA,99.60474308300395,NA
11703,Suffolk County,NY,86.03896103896103,NA,NA
11705,Suffolk County,NY,NA,NA,91.58878504672897
11709,Nassau County,NY,NA,96.14624505928853,NA
11714,Nassau County,NY,89.93506493506493,NA,NA
11720,Suffolk County,NY,NA,NA,26.56875834445928
11742,Suffolk County,NY,NA,NA,81.44192256341789
11755,Suffolk County,NY,NA,88.3399209486166,NA
11758,Nassau County,NY,NA,30.039525691699602,NA
11762,Nassau County,NY,NA,77.86561264822134,NA
11766,Suffolk County,NY,NA,NA,93.05740987983978
11961,Suffolk County,NY,94.48051948051948,NA,29.10547396528705
12020,Saratoga County,NY,19.318181818181817,NA,NA
12051,Greene County,NY,87.17532467532467,NA,NA
12110,Albany County,NY,NA,77.76679841897233,NA
12182,Rensselaer County,NY,47.88961038961039,NA,NA
12204,Albany County,NY,NA,NA,72.49666221628839
12522,Dutchess County,NY,NA,NA,97.86381842456609
12533,Dutchess County,NY,NA,82.11462450592886,NA
12545,Dutchess County,NY,NA,NA,99.86648865153538
12563,Putnam County,NY,NA,NA,91.45527369826435
12804,Warren County,NY,NA,NA,20.961281708945258
12831,Saratoga County,NY,NA,43.08300395256917,NA
12901,Clinton County,NY,NA,2.9644268774703555,NA
13090,Onondaga County,NY,NA,21.541501976284586,NA
13212,Onondaga County,NY,29.545454545454547,NA,NA
13323,Oneida County,NY,NA,42.58893280632411,NA
13676,St. Lawrence County,NY,64.77272727272727,NA,NA
13760,Broome County,NY,NA,NA,8.544726301735647
13830,Chenango County,NY,NA,NA,67.1562082777036
14020,Genesee County,NY,NA,NA,22.696929238985312
14094,Niagara County,NY,NA,NA,23.49799732977303
14171,Cattaraugus County,NY,98.37662337662337,NA,NA
14211,Erie County,NY,6.331168831168831,NA,NA
14219,Erie County,NY,NA,NA,95.72763684913218
14304,Niagara County,NY,21.266233766233768,NA,NA
14424,Ontario County,NY,NA,0.1976284584980237,NA
14450,Monroe County,NY,NA,0.3952569169960474,NA
14572,Steuben County,NY,NA,66.99604743083005,NA
14590,Wayne County,NY,NA,NA,95.32710280373831
14612,Monroe County,NY,0.974025974025974,NA,NA
14616,Monroe County,NY,NA,5.138339920948617,NA
14620,Monroe County,NY,NA,NA,32.176234979973295
14624,Monroe County,NY,NA,1.185770750988142,NA
14626,Monroe County,NY,NA,NA,4.806408544726302
14701,Chautauqua County,NY,1.461038961038961,1.0869565217391304,NA
14706,Cattaraugus County,NY,NA,84.48616600790514,NA
27006,Davie County,NC,NA,NA,15.620827770360481
27030,Surry County,NC,NA,NA,0.5340453938584779
27107,Forsyth County,NC,NA,63.73517786561265,NA
27127,Forsyth County,NC,13.474025974025974,2.4703557312252964,NA
27217,Alamance County,NC,NA,6.620553359683795,NA
27260,Guilford County,NC,20.77922077922078,NA,NA
27282,Guilford County,NC,NA,NA,85.04672897196261
27284,Forsyth County,NC,NA,0.592885375494071,1.602136181575434
27298,Randolph County,NC,95.12987012987013,NA,NA
27299,Davidson County,NC,NA,88.04347826086956,NA
27302,Alamance County,NC,28.40909090909091,38.14229249011858,NA
27312,Chatham County,NC,89.44805194805194,12.747035573122531,NA
27317,Randolph County,NC,NA,64.42687747035573,NA
27320,Rockingham County,NC,NA,NA,2.2696929238985315
27330,Lee County,NC,NA,17.687747035573125,NA
27349,Alamance County,NC,99.83766233766234,NA,NA
27358,Guilford County,NC,NA,NA,95.06008010680908
27405,Guilford County,NC,NA,8.399209486166008,NA
27455,Guilford County,NC,NA,NA,41.922563417890515
27501,Harnett County,NC,NA,39.130434782608695,NA
27517,Orange County,NC,NA,NA,14.552736982643525
27518,Wake County,NC,NA,46.24505928853755,NA
27520,Johnston County,NC,NA,25.790513833992097,44.726301735647525
27529,Wake County,NC,23.214285714285715,NA,NA
27557,Nash County,NC,NA,NA,93.72496662216288
27574,Person County,NC,NA,NA,64.21895861148198
27576,Johnston County,NC,NA,92.4901185770751,NA
27597,Wake County,NC,48.37662337662338,80.43478260869566,NA
27609,Wake County,NC,NA,NA,24.03204272363151
27613,Wake County,NC,NA,29.051383399209485,NA
27704,Durham County,NC,9.740259740259742,NA,29.773030707610147
27822,Wilson County,NC,81.33116883116884,NA,NA
27909,Pasquotank County,NC,11.688311688311687,NA,NA
27983,Bertie County,NC,50.97402597402597,NA,NA
28012,Gaston County,NC,61.68831168831169,NA,NA
28025,Cabarrus County,NC,8.928571428571429,41.30434782608695,7.610146862483311
28043,Rutherford County,NC,NA,67.3913043478261,40.32042723631509
28086,Cleveland County,NC,NA,NA,96.79572763684912
28092,Lincoln County,NC,NA,NA,83.44459279038719
28097,Stanly County,NC,NA,NA,93.72496662216288
28110,Union County,NC,NA,10.770750988142293,NA
28114,Rutherford County,NC,86.36363636363636,NA,NA
28120,Gaston County,NC,87.82467532467533,NA,NA
28129,Stanly County,NC,94.15584415584416,NA,NA
28147,Rowan County,NC,76.78571428571429,NA,NA
28152,Cleveland County,NC,NA,52.66798418972331,NA
28164,Gaston County,NC,NA,NA,51.134846461949266
28211,Mecklenburg County,NC,NA,NA,32.44325767690254
28269,Mecklenburg County,NC,NA,20.158102766798418,NA
28270,Mecklenburg County,NC,NA,NA,43.257676902536716
28312,Cumberland County,NC,63.149350649350644,40.11857707509881,NA
28320,Bladen County,NC,NA,NA,79.03871829105475
28337,Bladen County,NC,NA,53.65612648221344,NA
28340,Robeson County,NC,78.0844155844156,NA,NA
28360,Robeson County,NC,NA,82.5098814229249,NA
28364,Robeson County,NC,42.857142857142854,NA,NA
28374,Moore County,NC,NA,44.565217391304344,NA
28384,Bladen County,NC,59.74025974025974,95.25691699604744,NA
28425,Pender County,NC,NA,93.97233201581028,NA
28462,Brunswick County,NC,NA,NA,93.59145527369826
28466,Duplin County,NC,67.53246753246754,NA,NA
28504,Lenoir County,NC,43.506493506493506,53.952569169960476,NA
28607,Watauga County,NC,NA,NA,37.917222963951936
28612,Burke County,NC,62.98701298701299,NA,NA
28630,Caldwell County,NC,NA,33.49802371541502,NA
28634,Iredell County,NC,93.34415584415584,NA,NA
28645,Caldwell County,NC,NA,NA,1.0680907877169559
28650,Catawba County,NC,NA,75.09881422924902,NA
28655,Burke County,NC,NA,39.52569169960474,NA
28697,Wilkes County,NC,NA,NA,80.90787716955941
28714,Yancey County,NC,NA,37.45059288537549,NA
28719,Jackson County,NC,NA,83.300395256917,85.98130841121495
28734,Macon County,NC,NA,NA,2.67022696929239
28753,Madison County,NC,NA,90.61264822134387,NA
28771,Graham County,NC,NA,89.52569169960475,NA
28791,Henderson County,NC,NA,21.34387351778656,NA
28904,Clay County,NC,NA,NA,44.32576769025367
58103,Cass County,ND,NA,NA,29.906542056074763
58501,Burleigh County,ND,NA,NA,6.5420560747663545
58503,Burleigh County,ND,NA,NA,5.473965287049399
58554,Morton County,ND,NA,NA,35.647530040053404
58701,Ward County,ND,8.441558441558442,5.434782608695652,NA
58703,Ward County,ND,NA,NA,21.628838451268358
43004,Franklin County,OH,39.935064935064936,NA,NA
43011,Knox County,OH,NA,NA,70.89452603471294
43026,Franklin County,OH,68.66883116883116,NA,NA
43031,Licking County,OH,77.1103896103896,NA,NA
43050,Knox County,OH,NA,NA,30.307076101468628
43055,Licking County,OH,0.6493506493506493,NA,NA
43068,Franklin County,OH,7.629870129870129,NA,NA
43080,Licking County,OH,NA,NA,95.86114819759679
43081,Franklin County,OH,NA,6.91699604743083,NA
43113,Pickaway County,OH,NA,NA,69.29238985313752
43123,Franklin County,OH,NA,50.19762845849802,NA
43138,Hocking County,OH,28.57142857142857,NA,NA
43140,Madison County,OH,35.064935064935064,NA,NA
43204,Franklin County,OH,3.0844155844155843,NA,NA
43213,Franklin County,OH,NA,NA,35.380507343124165
43215,Franklin County,OH,NA,NA,93.1909212283044
43221,Franklin County,OH,NA,68.08300395256917,NA
43228,Franklin County,OH,NA,8.300395256916996,17.623497997329775
43235,Franklin County,OH,NA,NA,26.83578104138852
43302,Marion County,OH,NA,NA,70.76101468624833
43311,Logan County,OH,NA,NA,98.79839786381842
43402,Wood County,OH,NA,10.276679841897234,NA
43440,Ottawa County,OH,NA,NA,94.92656875834446
43506,Williams County,OH,22.727272727272727,NA,66.08811748998666
43512,Defiance County,OH,NA,42.68774703557312,NA
43517,Williams County,OH,83.44155844155844,NA,NA
43528,Lucas County,OH,NA,36.36363636363637,NA
43551,Wood County,OH,NA,3.9525691699604746,NA
43566,Lucas County,OH,NA,96.6403162055336,NA
43571,Lucas County,OH,NA,NA,85.71428571428571
43604,Lucas County,OH,40.25974025974026,NA,NA
43606,Lucas County,OH,15.422077922077923,NA,NA
43616,Lucas County,OH,NA,NA,18.424566088117487
43724,Noble County,OH,NA,70.0592885375494,NA
43731,Perry County,OH,NA,95.0592885375494,NA
44001,Lorain County,OH,NA,NA,5.07343124165554
44017,Cuyahoga County,OH,34.74025974025974,NA,NA
44024,Geauga County,OH,NA,9.782608695652174,NA
44030,Ashtabula County,OH,NA,41.699604743083,NA
44035,Lorain County,OH,NA,NA,0.13351134846461948
44052,Lorain County,OH,1.2987012987012987,NA,NA
44060,Lake County,OH,NA,4.743083003952568,NA
44077,Lake County,OH,NA,90.11857707509881,NA
44081,Lake County,OH,NA,77.07509881422925,NA
44089,Erie County,OH,35.38961038961039,NA,NA
44094,Lake County,OH,NA,40.71146245059288,NA
44102,Cuyahoga County,OH,NA,1.2845849802371543,NA
44105,Cuyahoga County,OH,15.0974025974026,NA,NA
44107,Cuyahoga County,OH,NA,1.5810276679841897,NA
44111,Cuyahoga County,OH,75,NA,NA
44115,Cuyahoga County,OH,89.28571428571429,NA,NA
44116,Cuyahoga County,OH,NA,NA,27.636849132176234
44120,Cuyahoga County,OH,NA,NA,6.809078771695594
44124,Cuyahoga County,OH,23.53896103896104,NA,NA
44130,Cuyahoga County,OH,NA,NA,0.26702269692923897
44133,Cuyahoga County,OH,NA,8.003952569169961,NA
44134,Cuyahoga County,OH,NA,NA,2.9372496662216285
44136,Cuyahoga County,OH,NA,5.0395256916996045,NA
44139,Cuyahoga County,OH,NA,NA,11.748998664886514
44145,Cuyahoga County,OH,NA,55.73122529644269,NA
44146,Cuyahoga County,OH,NA,0.691699604743083,4.138851802403204
44147,Cuyahoga County,OH,NA,22.628458498023715,NA
44202,Portage County,OH,NA,13.24110671936759,76.7690253671562
44223,Summit County,OH,NA,43.97233201581028,NA
44224,Summit County,OH,NA,5.237154150197629,NA
44230,Wayne County,OH,79.70779220779221,75.69169960474308,NA
44231,Portage County,OH,82.62987012987013,NA,NA
44240,Portage County,OH,NA,14.130434782608695,NA
44275,Medina County,OH,NA,99.30830039525692,NA
44281,Medina County,OH,NA,8.893280632411066,NA
44302,Summit County,OH,NA,97.13438735177866,NA
44305,Summit County,OH,12.824675324675324,NA,NA
44307,Summit County,OH,NA,94.1699604743083,NA
44310,Summit County,OH,NA,NA,48.33110814419226
44313,Summit County,OH,NA,64.03162055335969,NA
44319,Summit County,OH,NA,51.6798418972332,NA
44321,Summit County,OH,98.05194805194806,NA,NA
44333,Summit County,OH,NA,NA,81.84245660881176
44401,Mahoning County,OH,NA,98.71541501976284,NA
44408,Columbiana County,OH,NA,62.25296442687747,NA
44442,Mahoning County,OH,NA,91.99604743083005,NA
44446,Trumbull County,OH,NA,NA,12.683578104138851
44451,Mahoning County,OH,NA,97.5296442687747,NA
44484,Trumbull County,OH,74.51298701298701,NA,NA
44485,Trumbull County,OH,16.233766233766232,NA,31.108144192256344
44505,Mahoning County,OH,30.032467532467532,NA,NA
44511,Mahoning County,OH,NA,24.50592885375494,NA
44514,Mahoning County,OH,NA,22.82608695652174,NA
44515,Mahoning County,OH,NA,35.47430830039526,NA
44641,Stark County,OH,65.25974025974025,NA,NA
44685,Summit County,OH,NA,16.50197628458498,NA
44706,Stark County,OH,NA,34.980237154150196,NA
44708,Stark County,OH,NA,26.48221343873518,50.467289719626166
44709,Stark County,OH,37.98701298701299,NA,NA
44710,Stark County,OH,NA,77.5691699604743,NA
44805,Ashland County,OH,NA,NA,79.17222963951936
44820,Crawford County,OH,NA,NA,58.2109479305741
44839,Erie County,OH,NA,32.015810276679844,NA
44883,Seneca County,OH,NA,29.841897233201582,NA
45011,Butler County,OH,NA,1.7786561264822136,NA
45013,Butler County,OH,17.857142857142858,NA,NA
45015,Butler County,OH,52.435064935064936,NA,NA
45040,Warren County,OH,NA,NA,21.2283044058745
45042,Butler County,OH,19.480519480519483,29.545454545454547,NA
45044,Butler County,OH,NA,8.49802371541502,NA
45066,Warren County,OH,61.201298701298704,NA,NA
45069,Butler County,OH,NA,12.450592885375494,NA
45102,Clermont County,OH,NA,51.48221343873518,NA
45103,Clermont County,OH,NA,NA,51.4018691588785
45140,Clermont County,OH,NA,NA,56.2082777036048
45176,Clermont County,OH,NA,73.81422924901186,NA
45177,Clinton County,OH,NA,26.383399209486164,85.5807743658211
45211,Hamilton County,OH,NA,NA,31.64218958611482
45229,Hamilton County,OH,NA,24.011857707509883,NA
45237,Hamilton County,OH,NA,NA,93.45794392523365
45240,Hamilton County,OH,NA,NA,45.12683578104139
45243,Hamilton County,OH,NA,74.2094861660079,NA
45251,Hamilton County,OH,76.46103896103897,NA,37.11615487316422
45327,Montgomery County,OH,NA,NA,99.06542056074767
45342,Montgomery County,OH,NA,6.126482213438735,NA
45344,Clark County,OH,NA,86.46245059288538,NA
45365,Shelby County,OH,NA,NA,21.36181575433912
45371,Miami County,OH,NA,14.42687747035573,NA
45377,Montgomery County,OH,NA,NA,56.60881174899867
45387,Greene County,OH,NA,92.88537549407114,80.64085447263018
45419,Montgomery County,OH,NA,68.67588932806325,NA
45424,Montgomery County,OH,NA,33.201581027667984,NA
45505,Clark County,OH,28.8961038961039,NA,NA
45631,Gallia County,OH,NA,33.99209486166008,NA
45638,Lawrence County,OH,NA,38.63636363636363,NA
45640,Jackson County,OH,NA,25.691699604743086,62.21628838451269
45663,Scioto County,OH,NA,NA,70.36048064085448
45714,Washington County,OH,NA,11.264822134387352,NA
45750,Washington County,OH,25.649350649350648,NA,NA
45801,Allen County,OH,NA,NA,70.62750333778371
45805,Allen County,OH,12.337662337662337,NA,NA
45806,Allen County,OH,NA,84.18972332015811,NA
45840,Hancock County,OH,NA,1.4822134387351777,31.37516688918558
45856,Putnam County,OH,NA,NA,81.44192256341789
45875,Putnam County,OH,NA,65.81027667984189,NA
45885,Auglaize County,OH,NA,NA,45.393858477970625
45891,Van Wert County,OH,28.084415584415584,NA,NA
73013,Oklahoma County,OK,NA,32.11462450592885,NA
73020,Oklahoma County,OK,NA,54.644268774703555,NA
73036,Canadian County,OK,NA,NA,92.25634178905207
73044,Logan County,OK,NA,9.387351778656127,NA
73045,Oklahoma County,OK,NA,60.67193675889329,NA
73064,Canadian County,OK,NA,37.05533596837945,NA
73065,McClain County,OK,NA,69.56521739130434,NA
73071,Cleveland County,OK,21.59090909090909,9.980237154150199,NA
73072,Cleveland County,OK,NA,19.861660079051383,NA
73080,McClain County,OK,76.62337662337663,NA,NA
73108,Oklahoma County,OK,NA,66.40316205533597,NA
73114,Oklahoma County,OK,NA,69.86166007905138,NA
73115,Oklahoma County,OK,NA,69.36758893280633,NA
73116,Oklahoma County,OK,NA,92.29249011857708,NA
73118,Oklahoma County,OK,NA,97.03557312252964,NA
73120,Oklahoma County,OK,NA,NA,12.283044058744993
73165,Cleveland County,OK,91.72077922077922,NA,NA
73401,Carter County,OK,12.5,34.48616600790514,NA
73446,Marshall County,OK,NA,86.6600790513834,NA
73448,Love County,OK,78.8961038961039,NA,NA
73460,Johnston County,OK,NA,58.89328063241107,NA
73507,Comanche County,OK,NA,NA,24.966622162883844
73533,Stephens County,OK,NA,8.201581027667984,NA
73703,Garfield County,OK,NA,11.6600790513834,7.476635514018691
74008,Tulsa County,OK,NA,44.36758893280632,NA
74017,Rogers County,OK,NA,42.29249011857708,59.67957276368492
74019,Rogers County,OK,NA,NA,69.29238985313752
74036,Rogers County,OK,NA,NA,98.39786381842457
74066,Creek County,OK,30.1948051948052,29.74308300395257,NA
74127,Tulsa County,OK,NA,59.18972332015811,NA
74132,Tulsa County,OK,NA,NA,94.65954606141523
74136,Tulsa County,OK,NA,37.74703557312253,NA
74145,Tulsa County,OK,NA,NA,56.34178905206942
74344,Delaware County,OK,NA,45.65217391304348,NA
74361,Mayes County,OK,82.79220779220779,NA,NA
74401,Muskogee County,OK,NA,49.40711462450593,NA
74403,Muskogee County,OK,NA,20.652173913043477,NA
74437,Okmulgee County,OK,NA,70.35573122529645,NA
74523,Pushmataha County,OK,NA,81.12648221343873,NA
74601,Kay County,OK,NA,49.209486166007906,NA
74820,Pontotoc County,OK,NA,3.0632411067193677,NA
97009,Clackamas County,OR,NA,75.59288537549406,NA
97023,Clackamas County,OR,NA,95.55335968379447,NA
97038,Clackamas County,OR,84.4155844155844,NA,NA
97051,Columbia County,OR,NA,88.63636363636364,NA
97080,Multnomah County,OR,23.863636363636363,NA,NA
97124,Washington County,OR,NA,16.106719367588934,NA
97128,Yamhill County,OR,18.181818181818183,NA,NA
97216,Multnomah County,OR,NA,NA,33.37783711615487
97220,Multnomah County,OR,66.88311688311688,NA,NA
97225,Washington County,OR,NA,61.56126482213439,NA
97236,Multnomah County,OR,NA,19.66403162055336,NA
97267,Clackamas County,OR,91.3961038961039,NA,NA
97321,Linn County,OR,NA,NA,22.696929238985312
97415,Curry County,OR,NA,72.72727272727273,NA
97439,Lane County,OR,NA,NA,15.48731642189586
97444,Curry County,OR,NA,69.96047430830039,NA
97471,Douglas County,OR,NA,46.73913043478261,NA
97701,Deschutes County,OR,NA,NA,30.440587449933243
97801,Umatilla County,OR,66.23376623376623,NA,NA
97814,Baker County,OR,40.74675324675325,NA,NA
15009,Beaver County,PA,NA,NA,29.639519359145527
15037,Allegheny County,PA,NA,92.19367588932806,NA
15068,Westmoreland County,PA,NA,NA,2.53671562082777
15101,Allegheny County,PA,NA,44.762845849802375,10.54739652870494
15106,Allegheny County,PA,NA,NA,60.213618157543394
15110,Allegheny County,PA,NA,89.03162055335969,NA
15206,Allegheny County,PA,NA,14.525691699604742,NA
15208,Allegheny County,PA,NA,68.97233201581028,NA
15210,Allegheny County,PA,14.123376623376624,NA,NA
15212,Allegheny County,PA,NA,31.818181818181817,NA
15221,Allegheny County,PA,NA,18.478260869565215,NA
15227,Allegheny County,PA,NA,15.316205533596838,NA
15236,Allegheny County,PA,44.8051948051948,NA,NA
15301,Washington County,PA,3.7337662337662336,NA,NA
15370,Greene County,PA,NA,NA,55.00667556742324
15401,Fayette County,PA,NA,NA,5.607476635514018
15650,Westmoreland County,PA,NA,45.25691699604743,NA
15767,Jefferson County,PA,26.948051948051948,NA,NA
15801,Clearfield County,PA,5.357142857142857,NA,NA
15905,Cambria County,PA,NA,29.150197628458496,NA
15931,Cambria County,PA,NA,81.81818181818183,NA
16001,Butler County,PA,2.1103896103896105,12.154150197628459,NA
16105,Lawrence County,PA,NA,58.10276679841897,NA
16117,Lawrence County,PA,NA,NA,22.696929238985312
16127,Mercer County,PA,69.48051948051948,NA,NA
16148,Mercer County,PA,NA,15.118577075098813,NA
16159,Mercer County,PA,NA,NA,78.1041388518024
16201,Armstrong County,PA,NA,7.015810276679842,NA
16214,Clarion County,PA,NA,60.37549407114624,NA
16335,Crawford County,PA,8.766233766233766,NA,16.421895861148197
16346,Venango County,PA,NA,NA,71.42857142857143
16407,Erie County,PA,NA,NA,71.02803738317756
16442,Erie County,PA,99.35064935064936,NA,NA
16509,Erie County,PA,NA,NA,21.49532710280374
16673,Blair County,PA,NA,97.23320158102767,NA
16803,Centre County,PA,58.76623376623377,NA,NA
16901,Tioga County,PA,NA,66.50197628458498,NA
17015,Cumberland County,PA,NA,88.73517786561264,NA
17019,York County,PA,NA,40.81027667984189,NA
17022,Lancaster County,PA,NA,62.64822134387352,NA
17025,Cumberland County,PA,NA,NA,67.95727636849132
17033,Dauphin County,PA,NA,49.50592885375494,NA
17042,Lebanon County,PA,NA,NA,16.955941255006675
17067,Lebanon County,PA,64.44805194805194,NA,NA
17070,Cumberland County,PA,NA,34.980237154150196,69.95994659546061
17078,Lebanon County,PA,NA,NA,50.200267022696934
17103,Dauphin County,PA,37.17532467532468,NA,NA
17111,Dauphin County,PA,NA,3.8537549407114624,NA
17112,Dauphin County,PA,NA,22.92490118577075,10.013351134846461
17222,Franklin County,PA,75.32467532467533,NA,NA
17241,Cumberland County,PA,NA,75.8893280632411,NA
17268,Franklin County,PA,NA,15.612648221343871,NA
17325,Adams County,PA,NA,3.3596837944664033,NA
17331,York County,PA,4.870129870129871,NA,NA
17350,Adams County,PA,NA,NA,90.3871829105474
17403,York County,PA,NA,NA,15.353805073431243
17522,Lancaster County,PA,24.512987012987015,NA,NA
17545,Lancaster County,PA,NA,NA,14.419225634178906
17569,Lancaster County,PA,NA,83.49802371541502,NA
17821,Montour County,PA,NA,10.17786561264822,NA
17842,Snyder County,PA,NA,86.95652173913044,NA
17870,Snyder County,PA,NA,NA,83.17757009345794
18015,Northampton County,PA,6.1688311688311686,NA,NA
18017,Northampton County,PA,25.811688311688314,NA,1.7356475300400533
18018,Lehigh County,PA,NA,52.07509881422925,NA
18020,Northampton County,PA,NA,88.53754940711462,NA
18036,Lehigh County,PA,90.5844155844156,27.766798418972332,NA
18038,Northampton County,PA,NA,100,NA
18042,Northampton County,PA,2.922077922077922,21.14624505928854,NA
18052,Lehigh County,PA,NA,26.679841897233203,NA
18071,Carbon County,PA,NA,NA,43.1241655540721
18102,Lehigh County,PA,0.3246753246753247,NA,NA
18104,Lehigh County,PA,62.33766233766234,NA,20.29372496662216
18222,Luzerne County,PA,NA,NA,67.8237650200267
18235,Carbon County,PA,NA,84.88142292490119,NA
18255,Carbon County,PA,NA,65.71146245059289,NA
18328,Pike County,PA,NA,68.57707509881423,NA
18360,Monroe County,PA,26.623376623376622,NA,NA
18403,Lackawanna County,PA,92.85714285714286,NA,NA
18407,Lackawanna County,PA,NA,NA,41.1214953271028
18411,Lackawanna County,PA,NA,NA,22.029372496662216
18444,Lackawanna County,PA,NA,NA,61.548731642189594
18447,Lackawanna County,PA,NA,NA,57.810413885180246
18634,Luzerne County,PA,41.396103896103895,NA,NA
18640,Luzerne County,PA,NA,25.988142292490117,NA
18853,Bradford County,PA,95.94155844155844,NA,NA
18951,Bucks County,PA,67.6948051948052,NA,24.299065420560748
18964,Montgomery County,PA,NA,92.98418972332016,NA
18974,Bucks County,PA,NA,NA,1.4686248331108143
18976,Bucks County,PA,48.701298701298704,NA,NA
19020,Bucks County,PA,NA,5.8300395256917,NA
19021,Bucks County,PA,NA,72.92490118577075,NA
19040,Montgomery County,PA,NA,NA,63.951935914552735
19047,Bucks County,PA,NA,NA,95.59412550066756
19054,Bucks County,PA,NA,77.96442687747036,NA
19056,Bucks County,PA,NA,53.16205533596838,NA
19061,Delaware County,PA,NA,66.00790513833992,NA
19063,Delaware County,PA,20.12987012987013,NA,NA
19067,Bucks County,PA,NA,4.644268774703558,8.945260347129507
19073,Delaware County,PA,NA,NA,47.396528704939925
19082,Delaware County,PA,56.493506493506494,NA,NA
19096,Montgomery County,PA,NA,NA,57.409879839786385
19104,Philadelphia County,PA,57.14285714285714,NA,NA
19111,Philadelphia County,PA,NA,3.1620553359683794,NA
19116,Philadelphia County,PA,NA,9.881422924901186,NA
19131,Philadelphia County,PA,3.2467532467532463,1.6798418972332017,NA
19132,Philadelphia County,PA,NA,10.57312252964427,NA
19133,Philadelphia County,PA,NA,26.976284584980238,NA
19135,Philadelphia County,PA,14.285714285714285,NA,NA
19142,Philadelphia County,PA,11.03896103896104,NA,NA
19144,Philadelphia County,PA,NA,6.521739130434782,NA
19348,Chester County,PA,NA,NA,27.236315086782376
19350,Chester County,PA,73.86363636363636,NA,NA
19382,Chester County,PA,NA,NA,15.887850467289718
19422,Montgomery County,PA,NA,NA,44.592790387182916
19446,Montgomery County,PA,13.96103896103896,62.35177865612648,NA
19460,Chester County,PA,NA,NA,18.82510013351135
19508,Berks County,PA,NA,98.51778656126481,NA
19518,Berks County,PA,NA,46.837944664031625,NA
19520,Chester County,PA,NA,NA,71.69559412550068
19540,Berks County,PA,NA,50.29644268774703,NA
19608,Berks County,PA,27.759740259740262,NA,NA
02809,Bristol County,RI,NA,25.988142292490117,NA
02828,Providence County,RI,NA,NA,87.04939919893191
02864,Providence County,RI,NA,NA,6.675567423230974
02888,Kent County,RI,NA,NA,71.96261682242991
02891,Washington County,RI,NA,NA,18.958611481975968
02906,Providence County,RI,NA,NA,42.05607476635514
02910,Providence County,RI,48.538961038961034,NA,NA
29045,Kershaw County,SC,NA,45.355731225296445,NA
29102,Clarendon County,SC,54.54545454545454,NA,NA
29112,Orangeburg County,SC,94.31818181818183,NA,NA
29169,Lexington County,SC,NA,NA,39.786381842456606
29209,Richland County,SC,43.18181818181818,NA,NA
29212,Lexington County,SC,82.46753246753246,NA,NA
29223,Richland County,SC,NA,83.20158102766798,NA
29302,Spartanburg County,SC,NA,87.94466403162056,NA
29306,Spartanburg County,SC,NA,60.86956521739131,NA
29316,Spartanburg County,SC,NA,24.703557312252965,NA
29325,Laurens County,SC,NA,50,69.55941255006675
29360,Laurens County,SC,38.63636363636363,32.905138339920946,NA
29384,Laurens County,SC,NA,96.34387351778656,NA
29401,Charleston County,SC,NA,81.52173913043478,NA
29405,Charleston County,SC,26.136363636363637,NA,NA
29406,Charleston County,SC,23.7012987012987,NA,NA
29412,Charleston County,SC,NA,NA,39.91989319092123
29414,Charleston County,SC,NA,72.13438735177866,NA
29440,Georgetown County,SC,44.31818181818182,38.83399209486166,61.6822429906542
29445,Berkeley County,SC,NA,19.1699604743083,NA
29455,Charleston County,SC,50.324675324675326,NA,NA
29456,Dorchester County,SC,33.92857142857143,NA,NA
29464,Charleston County,SC,42.2077922077922,51.284584980237156,NA
29466,Charleston County,SC,NA,44.07114624505929,NA
29485,Dorchester County,SC,NA,23.616600790513832,NA
29492,Berkeley County,SC,NA,NA,91.18825100133512
29506,Florence County,SC,43.34415584415584,NA,NA
29544,Horry County,SC,90.9090909090909,NA,NA
29556,Williamsburg County,SC,NA,NA,66.48865153538051
29575,Horry County,SC,NA,81.12648221343873,NA
29601,Greenville County,SC,NA,NA,79.30574098798398
29615,Greenville County,SC,NA,NA,17.222963951935917
29662,Greenville County,SC,62.66233766233766,NA,NA
29710,York County,SC,NA,NA,76.23497997329774
29847,Edgefield County,SC,NA,92.09486166007905,NA
29920,Beaufort County,SC,NA,90.51383399209486,NA
57006,Brookings County,SD,NA,34.387351778656125,NA
57105,Minnehaha County,SD,NA,NA,4.2723631508678235
57350,Beadle County,SD,NA,62.845849802371546,NA
37025,Hickman County,TN,80.68181818181817,NA,NA
37027,Williamson County,TN,37.66233766233766,NA,NA
37040,Montgomery County,TN,23.051948051948052,NA,NA
37042,Montgomery County,TN,21.915584415584416,NA,NA
37066,Sumner County,TN,8.279220779220779,NA,NA
37083,Macon County,TN,48.86363636363637,26.877470355731226,84.512683578104145
37086,Rutherford County,TN,44.8051948051948,NA,NA
37091,Marshall County,TN,NA,74.50592885375494,NA
37172,Robertson County,TN,NA,NA,51.66889185580774
37188,Robertson County,TN,92.37012987012987,NA,NA
37209,Davidson County,TN,NA,NA,59.14552736982643
37210,Davidson County,TN,NA,NA,72.22963951935914
37211,Davidson County,TN,19.155844155844157,NA,NA
37218,Davidson County,TN,NA,NA,65.28704939919892
37353,Bradley County,TN,NA,NA,98.93190921228305
37363,Hamilton County,TN,70.45454545454545,NA,NA
37406,Hamilton County,TN,65.5844155844156,NA,NA
37421,Hamilton County,TN,NA,NA,23.09746328437917
37601,Washington County,TN,NA,36.75889328063241,NA
37620,Sullivan County,TN,NA,NA,13.75166889185581
37642,Hawkins County,TN,NA,41.10671936758894,NA
37650,Unicoi County,TN,59.41558441558441,NA,NA
37660,Sullivan County,TN,5.844155844155844,5.7312252964426875,NA
37683,Johnson County,TN,53.57142857142857,NA,NA
37701,Blount County,TN,NA,61.26482213438735,NA
37745,Greene County,TN,24.83766233766234,NA,NA
37766,Campbell County,TN,NA,18.280632411067195,NA
37769,Anderson County,TN,NA,83.59683794466403,NA
37804,Blount County,TN,60.3896103896104,NA,NA
37813,Hamblen County,TN,26.2987012987013,NA,NA
37826,McMinn County,TN,75.48701298701299,NA,NA
37871,Jefferson County,TN,NA,66.10671936758892,NA
37882,Blount County,TN,NA,87.45059288537549,NA
37917,Knox County,TN,15.909090909090908,NA,NA
37918,Knox County,TN,12.987012987012985,15.217391304347828,NA
37931,Knox County,TN,40.909090909090914,NA,53.538050734312414
37938,Knox County,TN,NA,NA,85.71428571428571
38011,Tipton County,TN,86.68831168831169,NA,NA
38103,Shelby County,TN,NA,93.18181818181817,NA
38119,Shelby County,TN,NA,80.33596837944664,NA
38127,Shelby County,TN,NA,30.237154150197625,NA
38135,Shelby County,TN,NA,55.434782608695656,NA
38301,Madison County,TN,7.792207792207792,64.2292490118577,NA
38305,Madison County,TN,53.896103896103895,7.312252964426877,12.416555407209612
38358,Gibson County,TN,55.519480519480524,NA,NA
38501,Putnam County,TN,NA,NA,23.364485981308412
38506,Putnam County,TN,NA,49.308300395256914,NA
38544,Putnam County,TN,NA,NA,88.78504672897196
75001,Dallas County,TX,NA,88.43873517786561,NA
75002,Collin County,TX,NA,55.33596837944664,NA
75009,Collin County,TX,81.65584415584416,NA,NA
75010,Denton County,TX,NA,72.4308300395257,NA
75020,Grayson County,TX,45.616883116883116,NA,NA
75024,Collin County,TX,59.577922077922075,NA,NA
75032,Rockwall County,TX,58.603896103896105,NA,NA
75033,,TX,90.74675324675324,NA,NA
75034,Denton County,TX,NA,20.948616600790515,NA
75041,Dallas County,TX,NA,NA,55.27369826435247
75043,Dallas County,TX,NA,45.8498023715415,NA
75050,Dallas County,TX,41.07142857142857,NA,NA
75052,Dallas County,TX,47.07792207792208,NA,NA
75056,Denton County,TX,29.707792207792206,NA,NA
75070,Collin County,TX,14.935064935064934,NA,NA
75071,Collin County,TX,NA,23.91304347826087,NA
75080,Dallas County,TX,NA,NA,78.23765020026703
75088,Dallas County,TX,NA,39.22924901185771,NA
75090,Grayson County,TX,NA,NA,54.33911882510013
75117,Van Zandt County,TX,97.07792207792207,NA,NA
75126,Kaufman County,TX,NA,35.37549407114625,NA
75134,Dallas County,TX,62.66233766233766,NA,NA
75143,Henderson County,TX,NA,51.08695652173913,NA
75146,Dallas County,TX,NA,83.00395256916995,NA
75147,Kaufman County,TX,85.22727272727273,NA,NA
75149,Dallas County,TX,NA,NA,35.11348464619493
75189,Rockwall County,TX,NA,90.9090909090909,NA
75204,Dallas County,TX,NA,86.06719367588933,NA
75209,Dallas County,TX,NA,NA,74.6328437917223
75217,Dallas County,TX,6.98051948051948,NA,34.84646194926569
75220,Dallas County,TX,NA,95.15810276679841,NA
75224,Dallas County,TX,NA,32.509881422924906,NA
75228,Dallas County,TX,4.058441558441558,NA,NA
75229,Dallas County,TX,42.37012987012987,NA,NA
75230,Dallas County,TX,NA,39.920948616600796,NA
75232,Dallas County,TX,NA,83.69565217391305,NA
75235,Dallas County,TX,NA,60.573122529644266,NA
75243,Dallas County,TX,NA,36.85770750988142,NA
75402,Hunt County,TX,NA,NA,71.96261682242991
75455,Titus County,TX,NA,NA,87.44993324432578
75501,Bowie County,TX,NA,16.798418972332016,NA
75503,Bowie County,TX,49.188311688311686,NA,83.71161548731642
75605,Gregg County,TX,NA,31.422924901185773,62.483311081441926
75644,Upshur County,TX,NA,53.85375494071146,NA
75657,Marion County,TX,88.63636363636364,NA,NA
75672,Harrison County,TX,NA,83.10276679841897,NA
75703,Smith County,TX,30.681818181818183,NA,NA
75755,Upshur County,TX,98.86363636363636,NA,NA
75758,Henderson County,TX,NA,NA,55.67423230974633
75762,Smith County,TX,NA,NA,45.12683578104139
75771,Smith County,TX,NA,99.50592885375494,NA
75835,Houston County,TX,NA,70.94861660079052,NA
75904,Angelina County,TX,NA,NA,82.10947930574099
75966,Newton County,TX,NA,88.93280632411067,NA
76012,Tarrant County,TX,NA,46.047430830039524,NA
76028,Johnson County,TX,NA,NA,10.14686248331108
76031,Johnson County,TX,NA,44.86166007905138,NA
76034,Tarrant County,TX,NA,54.1501976284585,64.48598130841121
76039,Tarrant County,TX,NA,53.359683794466406,58.47797062750334
76048,Hood County,TX,NA,24.802371541501977,72.36315086782376
76049,Hood County,TX,NA,13.636363636363635,NA
76051,Tarrant County,TX,NA,NA,96.66221628838451
76053,Tarrant County,TX,39.12337662337662,NA,NA
76058,Johnson County,TX,77.92207792207793,NA,NA
76063,Tarrant County,TX,13.311688311688311,NA,NA
76067,Palo Pinto County,TX,NA,79.44664031620553,NA
76082,Parker County,TX,NA,NA,80.77436582109479
76086,Parker County,TX,NA,80.23715415019763,NA
76087,Parker County,TX,NA,NA,59.94659546061415
76108,Tarrant County,TX,36.85064935064935,NA,NA
76109,Tarrant County,TX,NA,96.14624505928853,NA
76126,Tarrant County,TX,72.56493506493507,NA,NA
76132,Tarrant County,TX,NA,NA,76.10146862483312
76201,Denton County,TX,NA,95.35573122529645,NA
76207,Denton County,TX,NA,NA,73.69826435246995
76210,Denton County,TX,NA,NA,62.75033377837116
76226,Denton County,TX,66.55844155844156,NA,NA
76227,Denton County,TX,NA,89.62450592885376,66.35514018691589
76233,Grayson County,TX,99.51298701298701,NA,NA
76367,Wichita County,TX,NA,79.74308300395256,NA
76401,Erath County,TX,NA,NA,75.3004005340454
76446,Erath County,TX,NA,89.42687747035573,NA
76450,Young County,TX,NA,NA,94.39252336448598
76502,Bell County,TX,NA,NA,18.024032042723633
76542,Bell County,TX,NA,86.85770750988142,NA
76548,Bell County,TX,NA,NA,7.209612817089453
76634,Bosque County,TX,NA,62.64822134387352,NA
76801,Brown County,TX,NA,72.33201581027669,NA
77005,Harris County,TX,NA,48.616600790513836,NA
77009,Harris County,TX,NA,30.632411067193676,NA
77018,Harris County,TX,41.883116883116884,NA,NA
77022,Harris County,TX,96.26623376623377,NA,NA
77034,Harris County,TX,NA,56.81818181818182,NA
77042,Harris County,TX,NA,61.6600790513834,NA
77043,Harris County,TX,NA,NA,71.16154873164218
77054,Harris County,TX,NA,93.47826086956522,NA
77064,Harris County,TX,34.41558441558442,NA,NA
77074,Harris County,TX,NA,50.8893280632411,NA
77077,Harris County,TX,NA,NA,69.826435246996
77079,Harris County,TX,NA,50.8893280632411,NA
77080,Harris County,TX,NA,NA,56.475300400534046
77081,Harris County,TX,NA,NA,89.98664886515354
77083,Harris County,TX,39.77272727272727,NA,NA
77089,Harris County,TX,NA,26.18577075098814,NA
77345,Harris County,TX,79.38311688311688,NA,NA
77362,Montgomery County,TX,NA,92.3913043478261,NA
77375,Harris County,TX,20.616883116883116,NA,NA
77378,Montgomery County,TX,NA,NA,87.71695594125501
77379,Harris County,TX,24.18831168831169,NA,NA
77381,Montgomery County,TX,NA,79.34782608695652,NA
77384,Montgomery County,TX,74.35064935064936,NA,NA
77389,Harris County,TX,53.40909090909091,NA,NA
77396,Harris County,TX,NA,58.498023715415016,NA
77406,Fort Bend County,TX,NA,56.62055335968379,NA
77422,Brazoria County,TX,NA,66.79841897233202,NA
77429,Harris County,TX,10.064935064935066,20.35573122529644,NA
77445,Waller County,TX,NA,NA,97.46328437917224
77459,Fort Bend County,TX,NA,70.45454545454545,NA
77471,Fort Bend County,TX,NA,NA,76.36849132176235
77478,Fort Bend County,TX,79.54545454545455,41.40316205533597,NA
77480,Brazoria County,TX,98.7012987012987,NA,NA
77489,Fort Bend County,TX,NA,57.41106719367589,NA
77511,Brazoria County,TX,87.01298701298701,NA,NA
77520,Harris County,TX,NA,50.59288537549407,NA
77523,Chambers County,TX,NA,57.80632411067194,NA
77532,Harris County,TX,NA,55.8300395256917,NA
77536,Harris County,TX,NA,32.608695652173914,NA
77581,Brazoria County,TX,NA,49.60474308300395,NA
77583,Brazoria County,TX,NA,62.944664031620555,NA
77590,Galveston County,TX,12.175324675324676,NA,NA
77598,Harris County,TX,57.3051948051948,NA,NA
77612,Jasper County,TX,NA,72.03557312252964,NA
77630,Orange County,TX,NA,27.27272727272727,NA
77642,Jefferson County,TX,NA,NA,88.65153538050734
77657,Hardin County,TX,NA,54.24901185770751,61.6822429906542
77662,Orange County,TX,43.01948051948052,NA,NA
77706,Jefferson County,TX,NA,61.95652173913043,NA
77802,Brazos County,TX,NA,13.932806324110672,NA
77808,Brazos County,TX,NA,NA,73.16421895861149
77871,Leon County,TX,NA,98.91304347826086,NA
77901,Victoria County,TX,NA,49.80237154150198,NA
77954,DeWitt County,TX,NA,NA,52.87049399198932
78028,Kerr County,TX,NA,NA,4.806408544726302
78041,Webb County,TX,NA,15.711462450592887,NA
78043,Webb County,TX,NA,22.33201581027668,NA
78210,Bexar County,TX,NA,44.66403162055336,NA
78214,Bexar County,TX,NA,56.52173913043478,NA
78405,Nueces County,TX,NA,80.73122529644269,NA
78503,Hidalgo County,TX,68.34415584415584,NA,NA
78520,Cameron County,TX,NA,NA,19.359145527369826
78542,Hidalgo County,TX,NA,NA,43.524699599465954
78573,Hidalgo County,TX,NA,NA,22.429906542056074
78596,Hidalgo County,TX,NA,47.33201581027668,NA
78602,Bastrop County,TX,NA,NA,57.27636849132176
78621,Bastrop County,TX,92.04545454545455,NA,NA
78624,Gillespie County,TX,73.7012987012987,NA,NA
78644,Caldwell County,TX,66.55844155844156,NA,NA
78664,Williamson County,TX,NA,28.063241106719367,NA
78724,Travis County,TX,NA,98.12252964426878,NA
78749,Travis County,TX,85.87662337662337,NA,NA
78942,Lee County,TX,NA,NA,72.89719626168224
79118,Randall County,TX,NA,76.77865612648222,NA
79424,Lubbock County,TX,NA,6.422924901185771,NA
79510,Callahan County,TX,NA,93.87351778656127,NA
79549,Scurry County,TX,NA,35.96837944664031,NA
79556,Nolan County,TX,NA,43.57707509881423,NA
79603,Taylor County,TX,NA,NA,36.18157543391188
79606,Taylor County,TX,NA,NA,27.903871829105476
79706,Midland County,TX,NA,57.41106719367589,NA
79735,Pecos County,TX,NA,97.4308300395257,NA
79756,Ward County,TX,NA,81.42292490118577,NA
79762,Ector County,TX,NA,33.794466403162055,NA
79763,Ector County,TX,NA,34.683794466403164,NA
79764,Ector County,TX,NA,NA,86.51535380507343
79835,El Paso County,TX,91.88311688311688,NA,NA
79849,El Paso County,TX,96.42857142857143,NA,NA
79903,El Paso County,TX,NA,93.08300395256917,NA
79915,El Paso County,TX,NA,94.46640316205533,NA
84009,Salt Lake County,UT,NA,51.877470355731226,NA
84058,Utah County,UT,91.23376623376623,NA,NA
84062,Utah County,UT,NA,NA,92.65687583444593
84078,Uintah County,UT,NA,87.54940711462451,NA
84094,Salt Lake County,UT,NA,NA,97.32977303070761
84103,Salt Lake County,UT,NA,NA,79.83978638184246
84107,Salt Lake County,UT,NA,NA,27.102803738317753
84118,Salt Lake County,UT,16.883116883116884,NA,NA
84121,Salt Lake County,UT,NA,11.462450592885375,NA
84129,,UT,NA,22.233201581027668,NA
84663,Utah County,UT,71.1038961038961,NA,NA
84721,Iron County,UT,NA,58.399209486166,NA
84738,Washington County,UT,NA,73.71541501976284,77.16955941255007
84770,Washington County,UT,NA,21.047430830039527,30.173564753004005
84790,Washington County,UT,NA,NA,25.100133511348467
05250,Bennington County,VT,95.29220779220779,NA,NA
05641,Washington County,VT,NA,84.58498023715416,NA
05701,Rutland County,VT,NA,NA,10.54739652870494
05819,Caledonia County,VT,NA,68.47826086956522,NA
20120,Fairfax County,VA,NA,NA,67.02269692923899
20155,Prince William County,VA,NA,70.8498023715415,NA
20170,Fairfax County,VA,63.961038961038966,NA,NA
20176,Loudoun County,VA,46.91558441558442,NA,NA
20187,Fauquier County,VA,NA,67.78656126482213,NA
22015,Fairfax County,VA,NA,39.723320158102766,NA
22025,Prince William County,VA,NA,73.41897233201581,NA
22039,Fairfax County,VA,NA,71.93675889328063,NA
22101,Fairfax County,VA,NA,NA,38.98531375166889
22152,Fairfax County,VA,54.05844155844156,NA,NA
22191,Prince William County,VA,NA,23.517786561264824,NA
22204,Arlington County,VA,27.110389610389614,NA,NA
22302,Alexandria city,VA,NA,61.16600790513834,NA
22304,Alexandria city,VA,NA,27.173913043478258,NA
22306,Fairfax County,VA,NA,39.62450592885375,NA
22310,Fairfax County,VA,NA,58.201581027667984,NA
22401,Fredericksburg city,VA,74.67532467532467,NA,NA
22482,Lancaster County,VA,NA,NA,80.24032042723631
22546,Caroline County,VA,NA,NA,83.31108144192257
22572,Richmond County,VA,NA,NA,91.0547396528705
22601,Winchester city,VA,NA,28.952569169960473,NA
22630,Warren County,VA,24.025974025974026,NA,NA
22801,Harrisonburg city,VA,NA,NA,90.78771695594125
22802,Harrisonburg city,VA,22.564935064935064,NA,NA
22835,Page County,VA,58.44155844155844,NA,NA
22844,Shenandoah County,VA,NA,81.12648221343873,NA
22942,Louisa County,VA,NA,64.2292490118577,NA
22980,Waynesboro city,VA,6.493506493506493,NA,NA
23024,Louisa County,VA,87.5,91.79841897233202,NA
23060,Henrico County,VA,NA,47.03557312252965,NA
23093,Louisa County,VA,58.76623376623377,NA,NA
23112,Chesterfield County,VA,NA,20.25691699604743,NA
23139,Powhatan County,VA,68.5064935064935,NA,40.720961281708945
23141,New Kent County,VA,NA,77.96442687747036,NA
23150,Henrico County,VA,NA,74.40711462450594,NA
23185,James City County,VA,NA,2.1739130434782608,NA
23188,James City County,VA,NA,32.70750988142292,6.942590120160213
23223,Henrico County,VA,2.272727272727273,NA,NA
23225,Richmond city,VA,NA,NA,27.369826435246996
23234,Chesterfield County,VA,NA,25.197628458498023,NA
23236,Chesterfield County,VA,NA,NA,55.54072096128171
23238,Henrico County,VA,NA,81.7193675889328,34.31241655540721
23314,Isle of Wight County,VA,NA,NA,97.73030707610147
23320,Chesapeake city,VA,NA,43.873517786561266,NA
23322,Chesapeake city,VA,NA,16.897233201581027,NA
23323,Chesapeake city,VA,NA,78.65612648221344,NA
23452,Virginia Beach city,VA,NA,5.33596837944664,30.707610146862486
23456,Virginia Beach city,VA,56.33116883116883,6.027667984189724,NA
23462,Virginia Beach city,VA,NA,NA,25.901201602136183
23504,Norfolk city,VA,25.162337662337663,NA,NA
23508,Norfolk city,VA,NA,56.32411067193676,NA
23509,Norfolk city,VA,NA,76.58102766798419,NA
23513,Norfolk city,VA,NA,24.604743083003953,NA
23601,Newport News city,VA,56.65584415584416,NA,NA
23602,Newport News city,VA,27.92207792207792,73.91304347826086,NA
23606,Newport News city,VA,NA,NA,14.953271028037381
23608,Newport News city,VA,49.35064935064935,NA,NA
23666,Hampton city,VA,NA,NA,5.34045393858478
23669,Hampton city,VA,NA,NA,6.408544726301736
23803,Petersburg city,VA,9.902597402597403,NA,NA
23831,Chesterfield County,VA,NA,59.88142292490119,NA
23851,Franklin city,VA,56.980519480519476,NA,NA
24018,Roanoke County,VA,45.77922077922078,NA,NA
24019,Roanoke County,VA,NA,NA,37.38317757009346
24148,Henry County,VA,80.03246753246754,NA,NA
24171,Patrick County,VA,NA,83.79446640316206,56.074766355140184
24228,Dickenson County,VA,NA,44.9604743083004,NA
24236,Washington County,VA,NA,87.64822134387352,NA
24301,Pulaski County,VA,NA,45.75098814229249,NA
24401,Staunton city,VA,NA,NA,4.005340453938585
24422,Alleghany County,VA,NA,NA,75.56742323097463
24441,Rockingham County,VA,NA,NA,74.49933244325769
24531,Pittsylvania County,VA,93.66883116883116,NA,NA
24551,Bedford County,VA,NA,NA,49.39919893190921
24557,Pittsylvania County,VA,NA,NA,77.03604806408545
24572,Amherst County,VA,96.5909090909091,NA,NA
24592,Halifax County,VA,27.5974025974026,27.37154150197628,NA
98001,King County,WA,NA,NA,60.747663551401864
98006,King County,WA,NA,56.916996047430835,NA
98008,King County,WA,NA,NA,65.55407209612817
98021,Snohomish County,WA,NA,40.41501976284585,NA
98022,King County,WA,NA,51.38339920948617,NA
98024,King County,WA,NA,97.72727272727273,NA
98026,Snohomish County,WA,32.62987012987013,NA,NA
98027,King County,WA,NA,NA,50.86782376502003
98033,King County,WA,NA,NA,60.48064085447263
98038,King County,WA,NA,29.940711462450594,NA
98042,King County,WA,NA,NA,20.694259012016023
98052,King County,WA,NA,NA,12.950600801068092
98105,King County,WA,NA,65.41501976284584,NA
98121,King County,WA,51.78571428571429,NA,NA
98148,King County,WA,92.53246753246754,95.45454545454545,NA
98188,King County,WA,NA,NA,57.943925233644855
98221,Skagit County,WA,NA,48.71541501976285,NA
98271,Snohomish County,WA,42.6948051948052,NA,NA
98274,Skagit County,WA,NA,33.89328063241106,NA
98292,Snohomish County,WA,59.253246753246756,NA,NA
98321,Pierce County,WA,61.850649350649356,NA,79.70627503337784
98362,Clallam County,WA,32.95454545454545,NA,NA
98365,Jefferson County,WA,NA,81.91699604743083,NA
98366,Kitsap County,WA,NA,22.529644268774703,NA
98370,Kitsap County,WA,NA,34.683794466403164,NA
98372,Pierce County,WA,NA,50.69169960474308,NA
98382,Clallam County,WA,NA,NA,0.801068090787717
98404,Pierce County,WA,NA,35.177865612648226,NA
98466,Pierce County,WA,NA,28.16205533596838,NA
98513,Thurston County,WA,NA,NA,68.75834445927904
98520,Grays Harbor County,WA,NA,72.62845849802372,NA
98532,Lewis County,WA,NA,53.2608695652174,NA
98550,Grays Harbor County,WA,NA,67.98418972332016,NA
98569,Grays Harbor County,WA,NA,NA,90.52069425901202
98584,Mason County,WA,31.493506493506494,NA,NA
98626,Cowlitz County,WA,82.14285714285714,NA,NA
98801,Chelan County,WA,NA,28.65612648221344,NA
98802,Douglas County,WA,NA,21.73913043478261,NA
98815,Chelan County,WA,84.57792207792207,NA,NA
98816,Chelan County,WA,NA,72.82608695652173,NA
98837,Grant County,WA,29.383116883116884,NA,53.938584779706275
98902,Yakima County,WA,NA,71.6403162055336,41.655540720961284
98908,Yakima County,WA,35.87662337662338,NA,NA
98942,Yakima County,WA,73.05194805194806,NA,NA
99114,Stevens County,WA,NA,NA,51.66889185580774
99205,Spokane County,WA,NA,41.60079051383399,NA
99336,Benton County,WA,10.714285714285714,NA,NA
20020,District of Columbia,DC,NA,3.7549407114624502,NA
20032,District of Columbia,DC,NA,49.01185770750988,NA
24740,Mercer County,WV,NA,60.17786561264822,NA
24901,Greenbrier County,WV,NA,59.387351778656125,NA
25177,Kanawha County,WV,NA,NA,47.396528704939925
25302,Kanawha County,WV,NA,49.70355731225297,NA
25314,Kanawha County,WV,NA,91.50197628458498,NA
25401,Berkeley County,WV,NA,NA,60.614152202937255
25411,Morgan County,WV,NA,NA,51.93591455273698
25414,Jefferson County,WV,NA,88.14229249011858,NA
25504,Cabell County,WV,55.68181818181818,NA,NA
25560,Putnam County,WV,NA,97.92490118577075,NA
25570,Wayne County,WV,70.12987012987013,NA,NA
25661,Mingo County,WV,NA,68.87351778656127,NA
25701,Cabell County,WV,NA,NA,22.563417890520697
26003,Ohio County,WV,NA,NA,18.55807743658211
26047,Hancock County,WV,NA,46.93675889328063,NA
26062,Hancock County,WV,37.01298701298701,NA,NA
26104,Wood County,WV,NA,NA,17.489986648865152
26105,Wood County,WV,46.75324675324675,NA,NA
26164,Jackson County,WV,NA,84.38735177865613,NA
26201,Upshur County,WV,NA,NA,12.683578104138851
26241,Randolph County,WV,NA,NA,64.61949265687583
26501,Monongalia County,WV,NA,NA,31.775700934579437
26505,Monongalia County,WV,NA,4.150197628458498,NA
26704,Hampshire County,WV,NA,89.72332015810277,NA
26726,Mineral County,WV,NA,91.89723320158103,NA
26847,Grant County,WV,NA,89.82213438735178,NA
53024,Ozaukee County,WI,NA,48.91304347826087,NA
53051,Waukesha County,WI,NA,17.885375494071145,NA
53092,Ozaukee County,WI,NA,NA,12.550066755674234
53095,Washington County,WI,NA,12.648221343873518,23.89853137516689
53097,Ozaukee County,WI,NA,NA,63.417890520694264
53098,Dodge County,WI,NA,NA,44.726301735647525
53103,Waukesha County,WI,NA,99.80237154150198,NA
53105,Racine County,WI,43.993506493506494,NA,NA
53132,Milwaukee County,WI,NA,NA,11.081441922563418
53140,Kenosha County,WI,NA,17.094861660079054,NA
53143,Kenosha County,WI,NA,21.640316205533598,NA
53149,Waukesha County,WI,86.85064935064936,NA,NA
53150,Waukesha County,WI,NA,NA,40.18691588785047
53154,Milwaukee County,WI,NA,35.276679841897234,NA
53177,Racine County,WI,NA,NA,64.08544726301736
53188,Waukesha County,WI,NA,NA,61.41522029372497
53206,Milwaukee County,WI,NA,6.620553359683795,NA
53209,Milwaukee County,WI,1.1363636363636365,0.8893280632411068,58.07743658210948
53211,Milwaukee County,WI,NA,16.40316205533597,NA
53213,Milwaukee County,WI,NA,NA,39.65287049399199
53214,Milwaukee County,WI,NA,7.114624505928854,NA
53216,Milwaukee County,WI,3.896103896103896,12.549407114624506,NA
53221,Milwaukee County,WI,NA,NA,91.85580774365822
53222,Milwaukee County,WI,NA,64.13043478260869,53.40453938584779
53225,Milwaukee County,WI,36.36363636363637,NA,NA
53402,Racine County,WI,NA,12.944664031620553,NA
53511,Rock County,WI,NA,NA,26.43524699599466
53528,Dane County,WI,NA,NA,96.92923898531375
53597,Dane County,WI,78.57142857142857,NA,NA
53913,Sauk County,WI,NA,12.055335968379447,NA
54114,Marinette County,WI,NA,72.4308300395257,NA
54153,Oconto County,WI,NA,78.85375494071147,NA
54216,Kewaunee County,WI,98.21428571428571,NA,NA
54235,Door County,WI,NA,17.786561264822133,NA
54401,Marathon County,WI,NA,23.81422924901186,NA
54729,Chippewa County,WI,NA,14.723320158102768,NA
54751,Dunn County,WI,32.7922077922078,NA,NA
54915,Outagamie County,WI,NA,NA,54.0720961281709
82414,Park County,WY,NA,33.39920948616601,NA
82834,Johnson County,WY,NA,85.7707509881423,NA
