ZipCode,county,state,Adult,Retirement,Geriatric
35020,Jefferson County,AL,NA,31.652661064425768,NA
35058,Cullman County,AL,71.85185185185186,NA,NA
35474,Hale County,AL,64.81481481481481,NA,NA
35633,Lauderdale County,AL,54.074074074074076,NA,NA
35661,Colbert County,AL,NA,73.94957983193278,NA
35758,Madison County,AL,NA,39.21568627450981,NA
35805,Madison County,AL,42.592592592592595,NA,NA
35901,Etowah County,AL,NA,NA,66.21621621621621
35906,Etowah County,AL,NA,NA,87.83783783783784
36027,Barbour County,AL,NA,61.06442577030813,NA
36303,Houston County,AL,NA,NA,52.25225225225225
99901,Ketchikan Gateway Borough,AK,NA,83.19327731092437,NA
85006,Maricopa County,AZ,NA,43.69747899159664,NA
85024,Maricopa County,AZ,71.11111111111111,NA,NA
85051,Maricopa County,AZ,14.074074074074074,NA,NA
85119,Pinal County,AZ,84.81481481481481,NA,NA
85138,Pinal County,AZ,38.148148148148145,NA,NA
85260,Maricopa County,AZ,NA,40.33613445378151,NA
85262,Maricopa County,AZ,NA,76.19047619047619,NA
85308,Maricopa County,AZ,NA,15.686274509803921,NA
85387,Maricopa County,AZ,NA,NA,81.98198198198197
85718,Pima County,AZ,NA,18.487394957983195,NA
86315,Yavapai County,AZ,94.07407407407408,NA,NA
86324,Yavapai County,AZ,90,NA,NA
86325,Yavapai County,AZ,NA,89.35574229691878,NA
86404,Mohave County,AZ,NA,54.621848739495796,NA
86409,Mohave County,AZ,NA,27.73109243697479,NA
72032,Faulkner County,AR,38.51851851851852,NA,NA
72118,Pulaski County,AR,NA,63.02521008403361,NA
72210,Pulaski County,AR,NA,68.0672268907563,NA
72212,Pulaski County,AR,NA,68.0672268907563,NA
72335,St. Francis County,AR,NA,78.43137254901961,NA
72396,Cross County,AR,NA,91.03641456582633,NA
72601,Boone County,AR,51.85185185185185,NA,NA
72719,Benton County,AR,NA,100,NA
72732,Benton County,AR,NA,94.11764705882352,NA
72764,Washington County,AR,NA,NA,68.91891891891892
90026,Los Angeles County,CA,NA,NA,22.972972972972975
90046,Los Angeles County,CA,47.77777777777778,NA,NA
90094,Los Angeles County,CA,95.92592592592592,NA,NA
90249,Los Angeles County,CA,NA,63.86554621848739,NA
90250,Los Angeles County,CA,NA,24.92997198879552,NA
90601,Los Angeles County,CA,51.48148148148148,NA,NA
90603,Los Angeles County,CA,NA,NA,43.69369369369369
90604,Los Angeles County,CA,NA,57.422969187675065,NA
90605,Los Angeles County,CA,NA,NA,62.612612612612615
90631,Orange County,CA,NA,15.126050420168067,NA
90638,Los Angeles County,CA,53.333333333333336,NA,NA
90660,Los Angeles County,CA,NA,NA,19.81981981981982
90731,Los Angeles County,CA,87.03703703703704,NA,NA
90803,Los Angeles County,CA,NA,81.23249299719888,NA
91362,Ventura County,CA,NA,42.296918767507,NA
91767,Los Angeles County,CA,NA,51.820728291316534,NA
91790,Los Angeles County,CA,NA,NA,33.33333333333333
92007,San Diego County,CA,87.77777777777777,NA,NA
92014,San Diego County,CA,NA,84.31372549019608,NA
92021,San Diego County,CA,NA,12.044817927170868,NA
92082,San Diego County,CA,NA,NA,71.17117117117117
92101,San Diego County,CA,NA,6.722689075630252,NA
92111,San Diego County,CA,50.74074074074074,NA,NA
92119,San Diego County,CA,NA,77.03081232492998,37.38738738738739
92120,San Diego County,CA,NA,72.26890756302521,NA
92126,San Diego County,CA,NA,NA,42.792792792792795
92130,San Diego County,CA,64.07407407407408,NA,NA
92262,Riverside County,CA,NA,7.563025210084033,NA
92307,San Bernardino County,CA,NA,NA,40.54054054054054
92392,San Bernardino County,CA,NA,33.61344537815126,NA
92505,Riverside County,CA,NA,50.98039215686274,NA
92602,Orange County,CA,73.33333333333333,NA,NA
92646,Orange County,CA,NA,5.042016806722689,NA
92651,Orange County,CA,NA,46.21848739495798,NA
92660,Orange County,CA,NA,75.07002801120449,NA
92821,Orange County,CA,NA,NA,28.82882882882883
92841,Orange County,CA,NA,NA,91.44144144144144
93003,Ventura County,CA,NA,19.607843137254903,13.513513513513514
93010,Ventura County,CA,NA,25.770308123249297,NA
93021,Ventura County,CA,58.14814814814815,NA,NA
93311,Kern County,CA,60,59.38375350140056,NA
93446,San Luis Obispo County,CA,NA,NA,51.80180180180181
93458,Santa Barbara County,CA,NA,30.81232492997199,NA
93551,Los Angeles County,CA,91.85185185185185,NA,NA
93711,Fresno County,CA,NA,38.37535014005603,NA
93720,Fresno County,CA,NA,NA,48.64864864864865
94066,San Mateo County,CA,NA,7.282913165266107,NA
94501,Alameda County,CA,NA,44.537815126050425,NA
94526,Contra Costa County,CA,NA,NA,42.34234234234234
94541,Alameda County,CA,NA,17.366946778711483,NA
94585,Solano County,CA,92.22222222222223,NA,NA
94589,Solano County,CA,NA,NA,40.54054054054054
94590,Solano County,CA,NA,27.450980392156865,NA
94611,Alameda County,CA,NA,22.408963585434176,NA
94703,Alameda County,CA,NA,78.71148459383754,NA
94707,Alameda County,CA,NA,NA,76.12612612612612
95019,Santa Cruz County,CA,NA,93.8375350140056,NA
95037,Santa Clara County,CA,NA,NA,29.27927927927928
95120,Santa Clara County,CA,NA,51.26050420168067,NA
95123,Santa Clara County,CA,NA,28.011204481792717,NA
95354,Stanislaus County,CA,NA,58.82352941176471,NA
95355,Stanislaus County,CA,NA,5.602240896358544,NA
95360,Stanislaus County,CA,NA,84.593837535014,NA
95403,Sonoma County,CA,NA,39.49579831932773,NA
95404,Sonoma County,CA,NA,28.291316526610643,NA
95503,Humboldt County,CA,46.2962962962963,NA,NA
95688,Solano County,CA,NA,NA,46.3963963963964
95762,El Dorado County,CA,75.18518518518519,NA,NA
80011,Arapahoe County,CO,NA,35.57422969187675,NA
80015,Arapahoe County,CO,18.14814814814815,NA,NA
80109,Douglas County,CO,NA,NA,88.28828828828829
80202,Denver County,CO,76.29629629629629,NA,NA
80215,Jefferson County,CO,NA,82.6330532212885,NA
80224,Denver County,CO,62.22222222222222,NA,NA
80401,Jefferson County,CO,NA,NA,45.94594594594595
80504,Boulder County,CO,NA,24.089635854341736,NA
80621,Weld County,CO,72.22222222222221,NA,NA
81004,Pueblo County,CO,NA,31.092436974789916,90.54054054054053
81506,Mesa County,CO,NA,NA,63.51351351351351
81520,Mesa County,CO,NA,NA,99.09909909909909
06043,Tolland County,CT,NA,93.55742296918767,NA
06051,Hartford County,CT,NA,NA,34.234234234234236
06062,Hartford County,CT,NA,NA,60.36036036036037
06066,Tolland County,CT,17.77777777777778,NA,NA
06082,Hartford County,CT,20,NA,NA
06450,New Haven County,CT,3.3333333333333335,NA,NA
06489,Hartford County,CT,NA,15.966386554621847,NA
06705,New Haven County,CT,NA,NA,39.189189189189186
06716,New Haven County,CT,NA,NA,51.35135135135135
06810,Fairfield County,CT,NA,NA,25.225225225225223
19703,New Castle County,DE,58.51851851851851,NA,NA
19709,New Castle County,DE,NA,NA,27.027027027027028
19805,New Castle County,DE,17.037037037037038,NA,NA
19810,New Castle County,DE,54.44444444444444,NA,NA
19904,Kent County,DE,NA,NA,22.07207207207207
32003,Clay County,FL,NA,50.42016806722689,NA
32034,Nassau County,FL,NA,6.162464985994398,NA
32068,Clay County,FL,NA,6.442577030812324,NA
32112,Putnam County,FL,NA,87.11484593837535,NA
32134,Marion County,FL,NA,89.91596638655463,NA
32176,Volusia County,FL,NA,74.78991596638656,NA
32210,Duval County,FL,NA,36.41456582633053,NA
32216,Duval County,FL,19.62962962962963,NA,NA
32218,Duval County,FL,NA,1.9607843137254901,NA
32233,Duval County,FL,39.25925925925926,NA,NA
32234,Duval County,FL,NA,NA,88.73873873873875
32244,Duval County,FL,NA,8.123249299719888,NA
32404,Bay County,FL,NA,20.448179271708682,NA
32550,Walton County,FL,NA,56.022408963585434,NA
32608,Alachua County,FL,NA,14.285714285714285,NA
32643,Alachua County,FL,NA,77.31092436974791,NA
32656,Clay County,FL,98.51851851851852,NA,NA
32803,Orange County,FL,NA,NA,89.1891891891892
33012,Miami-Dade County,FL,41.85185185185185,NA,NA
33308,Broward County,FL,NA,NA,2.7027027027027026
33314,Broward County,FL,67.03703703703704,NA,NA
33316,Broward County,FL,97.03703703703704,NA,NA
33321,Broward County,FL,NA,64.70588235294117,NA
33405,Palm Beach County,FL,NA,NA,72.97297297297297
33432,Palm Beach County,FL,NA,NA,65.76576576576578
33434,Palm Beach County,FL,NA,NA,6.306306306306306
33437,Palm Beach County,FL,NA,NA,14.414414414414415
33458,Palm Beach County,FL,NA,62.18487394957983,NA
33487,Palm Beach County,FL,NA,42.57703081232493,NA
33712,Pinellas County,FL,NA,97.47899159663865,NA
33825,Highlands County,FL,NA,NA,17.56756756756757
33898,Polk County,FL,NA,NA,47.74774774774775
33917,Lee County,FL,NA,NA,13.063063063063062
33919,Lee County,FL,NA,NA,3.153153153153153
34142,Collier County,FL,78.88888888888889,NA,NA
34145,Collier County,FL,NA,43.417366946778714,NA
34201,Manatee County,FL,NA,NA,79.27927927927928
34222,Manatee County,FL,NA,NA,78.82882882882883
34236,Sarasota County,FL,NA,69.74789915966386,NA
34238,Sarasota County,FL,NA,NA,6.756756756756757
34291,Sarasota County,FL,85.92592592592592,NA,NA
34293,Sarasota County,FL,NA,3.9215686274509802,NA
34481,Marion County,FL,88.51851851851852,NA,NA
34655,Pasco County,FL,NA,26.330532212885156,NA
34667,Pasco County,FL,NA,NA,17.117117117117118
34731,Lake County,FL,NA,NA,87.38738738738738
34758,Osceola County,FL,NA,49.299719887955185,NA
30012,Rockdale County,GA,NA,50.42016806722689,NA
30013,Rockdale County,GA,NA,NA,63.96396396396396
30014,Newton County,GA,26.296296296296294,NA,NA
30032,DeKalb County,GA,NA,NA,19.36936936936937
30088,DeKalb County,GA,NA,63.58543417366946,NA
30096,Gwinnett County,GA,NA,31.932773109243694,NA
30180,Carroll County,GA,22.59259259259259,NA,NA
30233,Butts County,GA,57.407407407407405,NA,NA
30252,Henry County,GA,37.77777777777778,NA,NA
30265,Coweta County,GA,47.77777777777778,NA,NA
30286,Upson County,GA,NA,83.4733893557423,NA
30297,Clayton County,GA,NA,NA,93.24324324324324
30442,Jenkins County,GA,NA,NA,99.54954954954955
30523,Habersham County,GA,NA,NA,61.711711711711715
30642,Greene County,GA,NA,92.99719887955182,NA
30643,Hart County,GA,NA,51.540616246498594,NA
30824,McDuffie County,GA,45.925925925925924,NA,NA
31021,Laurens County,GA,38.88888888888889,NA,NA
31513,Appling County,GA,NA,72.54901960784314,NA
31606,Lowndes County,GA,98.88888888888889,NA,NA
96720,Hawaii County,HI,NA,NA,30.630630630630627
96825,Honolulu County,HI,NA,NA,4.954954954954955
83330,Gooding County,ID,NA,NA,73.87387387387388
83402,Bonneville County,ID,NA,NA,60.810810810810814
83404,Bonneville County,ID,50.37037037037037,NA,NA
83605,Canyon County,ID,59.25925925925925,NA,NA
83617,Gem County,ID,NA,NA,31.53153153153153
83647,Elmore County,ID,NA,48.17927170868347,NA
83835,Kootenai County,ID,NA,NA,39.63963963963964
60047,Lake County,IL,NA,21.288515406162464,NA
60048,Lake County,IL,48.888888888888886,NA,NA
60068,Cook County,IL,39.62962962962963,NA,NA
60076,Cook County,IL,NA,NA,14.864864864864865
60102,McHenry County,IL,NA,NA,49.0990990990991
60110,Kane County,IL,46.666666666666664,NA,NA
60155,Cook County,IL,NA,88.79551820728291,NA
60302,Cook County,IL,65.55555555555556,NA,NA
60440,Will County,IL,NA,12.324929971988796,NA
60463,Cook County,IL,NA,NA,23.873873873873876
60516,DuPage County,IL,NA,29.971988795518207,NA
60608,Cook County,IL,NA,NA,8.558558558558559
60616,Cook County,IL,34.44444444444444,NA,NA
60619,Cook County,IL,NA,2.801120448179272,1.8018018018018018
60622,Cook County,IL,34.81481481481482,NA,NA
60624,Cook County,IL,NA,26.89075630252101,NA
60630,Cook County,IL,NA,9.803921568627452,NA
60634,Cook County,IL,NA,5.322128851540616,NA
61088,Winnebago County,IL,NA,92.43697478991596,NA
61241,Henry County,IL,NA,NA,93.24324324324324
61604,Peoria County,IL,40,NA,NA
61705,McLean County,IL,NA,NA,96.84684684684684
61873,Champaign County,IL,NA,NA,75.67567567567568
62002,Madison County,IL,NA,17.92717086834734,NA
62025,Madison County,IL,NA,88.23529411764706,NA
62258,St. Clair County,IL,NA,NA,89.63963963963964
62298,Monroe County,IL,97.4074074074074,NA,NA
62441,Clark County,IL,NA,88.51540616246498,NA
62448,Jasper County,IL,NA,NA,77.47747747747748
62568,Christian County,IL,NA,85.15406162464986,NA
62681,Schuyler County,IL,NA,84.03361344537815,NA
62906,Union County,IL,NA,NA,68.46846846846847
62918,Williamson County,IL,NA,77.59103641456583,NA
46001,Madison County,IN,NA,NA,54.95495495495496
46037,Hamilton County,IN,NA,NA,67.11711711711712
46123,Hendricks County,IN,90.37037037037037,NA,NA
46143,Johnson County,IN,NA,52.38095238095239,NA
46176,Shelby County,IN,15.555555555555555,NA,NA
46218,Marion County,IN,NA,56.86274509803921,NA
46229,Marion County,IN,NA,NA,36.03603603603604
46234,Marion County,IN,NA,49.01960784313725,NA
46254,Marion County,IN,NA,NA,79.72972972972973
46350,LaPorte County,IN,8.148148148148149,NA,NA
46368,Porter County,IN,1.4814814814814816,NA,NA
46544,St. Joseph County,IN,NA,96.63865546218487,NA
46637,St. Joseph County,IN,82.22222222222221,NA,NA
46803,Allen County,IN,81.11111111111111,NA,NA
46808,Allen County,IN,NA,64.14565826330532,NA
46809,Allen County,IN,54.81481481481482,NA,NA
46902,Howard County,IN,NA,24.649859943977592,NA
46947,Cass County,IN,NA,NA,9.00900900900901
46953,Grant County,IN,10.37037037037037,NA,NA
47130,Clark County,IN,NA,3.081232492997199,NA
47362,Henry County,IN,NA,8.96358543417367,NA
47713,Vanderburgh County,IN,81.48148148148148,NA,NA
47842,Vermillion County,IN,NA,71.1484593837535,NA
50022,Cass County,IA,82.96296296296296,NA,NA
50023,Polk County,IA,65.92592592592592,NA,NA
50158,Marshall County,IA,NA,40.056022408963585,NA
50265,Polk County,IA,NA,NA,58.108108108108105
50501,Webster County,IA,NA,NA,25.675675675675674
51104,Woodbury County,IA,NA,53.221288515406165,NA
51501,Pottawattamie County,IA,NA,7.002801120448179,NA
51601,Page County,IA,NA,NA,84.23423423423422
52060,Jackson County,IA,NA,94.67787114845937,NA
52632,Lee County,IA,NA,37.81512605042017,NA
66071,Miami County,KS,NA,NA,74.32432432432432
66104,Wyandotte County,KS,NA,NA,57.65765765765766
66216,Johnson County,KS,NA,59.103641456582636,NA
66610,Shawnee County,KS,94.44444444444444,NA,NA
40108,Meade County,KY,68.14814814814815,NA,NA
40245,Jefferson County,KY,NA,41.17647058823529,NA
40258,Jefferson County,KY,53.70370370370371,NA,NA
41011,Kenton County,KY,NA,NA,43.24324324324324
41051,Kenton County,KY,NA,37.53501400560224,NA
41091,Boone County,KY,NA,70.02801120448179,NA
42211,Trigg County,KY,61.85185185185185,NA,NA
42303,Daviess County,KY,NA,17.647058823529413,NA
42347,Ohio County,KY,73.70370370370371,NA,NA
42539,Casey County,KY,NA,73.66946778711485,NA
42653,McCreary County,KY,NA,NA,98.1981981981982
42718,Taylor County,KY,NA,NA,11.711711711711711
70363,Terrebonne Parish,LA,NA,33.0532212885154,NA
70506,Lafayette Parish,LA,3.7037037037037033,NA,NA
70548,Vermilion Parish,LA,NA,NA,84.68468468468468
70570,St. Landry Parish,LA,NA,8.403361344537815,NA
70611,Calcasieu Parish,LA,NA,72.82913165266106,NA
70615,Calcasieu Parish,LA,NA,70.58823529411765,NA
70816,East Baton Rouge Parish,LA,NA,NA,34.68468468468468
71052,De Soto Parish,LA,NA,NA,74.77477477477478
71201,Ouachita Parish,LA,NA,45.938375350140056,NA
71360,Rapides Parish,LA,NA,NA,26.576576576576578
71405,Rapides Parish,LA,NA,NA,92.7927927927928
04084,Cumberland County,ME,NA,85.99439775910365,NA
04330,Kennebec County,ME,NA,3.361344537815126,NA
04401,Penobscot County,ME,0.7407407407407408,NA,NA
04849,Waldo County,ME,NA,NA,73.42342342342343
04963,Kennebec County,ME,NA,69.187675070028,NA
04976,Somerset County,ME,64.44444444444444,NA,NA
20707,Prince George's County,MD,NA,NA,81.08108108108108
20852,Montgomery County,MD,NA,NA,23.423423423423422
21047,Harford County,MD,NA,83.75350140056022,NA
21117,Baltimore County,MD,NA,25.49019607843137,NA
21133,Baltimore County,MD,NA,NA,38.288288288288285
21236,Baltimore County,MD,68.88888888888889,NA,NA
21502,Allegany County,MD,NA,NA,7.207207207207207
21550,Garrett County,MD,70.74074074074073,NA,NA
21842,Worcester County,MD,NA,64.42577030812325,NA
01013,Hampden County,MA,NA,11.76470588235294,NA
01107,Hampden County,MA,4.444444444444445,NA,NA
01504,Worcester County,MA,68.51851851851852,NA,NA
01507,Worcester County,MA,NA,85.15406162464986,NA
01702,Middlesex County,MA,NA,NA,5.8558558558558556
01742,Middlesex County,MA,50,NA,NA
01749,Middlesex County,MA,NA,NA,52.702702702702695
01776,Middlesex County,MA,NA,42.016806722689076,NA
01810,Essex County,MA,13.333333333333334,13.445378151260504,NA
01824,Middlesex County,MA,NA,NA,8.108108108108109
02093,Norfolk County,MA,NA,NA,95.94594594594594
02170,Norfolk County,MA,NA,NA,21.62162162162162
02301,Plymouth County,MA,NA,0,NA
02324,Plymouth County,MA,NA,23.249299719887954,NA
02360,Plymouth County,MA,NA,NA,12.612612612612612
02370,Plymouth County,MA,96.66666666666667,26.05042016806723,NA
02632,Barnstable County,MA,NA,NA,33.78378378378378
02649,Barnstable County,MA,34.81481481481482,NA,NA
02655,Barnstable County,MA,NA,NA,100
02664,Barnstable County,MA,52.22222222222223,NA,NA
02675,Barnstable County,MA,NA,91.87675070028011,NA
02760,Bristol County,MA,NA,43.13725490196079,NA
02777,Bristol County,MA,7.037037037037037,NA,NA
48034,Oakland County,MI,NA,53.78151260504202,38.73873873873874
48038,Macomb County,MI,NA,NA,3.6036036036036037
48040,St. Clair County,MI,NA,NA,96.3963963963964
48079,St. Clair County,MI,NA,60.50420168067227,NA
48124,Wayne County,MI,NA,23.52941176470588,NA
48130,Washtenaw County,MI,NA,NA,95.04504504504504
48170,Wayne County,MI,NA,NA,18.01801801801802
48178,Oakland County,MI,NA,45.378151260504204,NA
48188,Wayne County,MI,12.592592592592592,NA,NA
48225,Wayne County,MI,NA,NA,71.62162162162163
48307,Oakland County,MI,18.88888888888889,NA,NA
48312,Macomb County,MI,NA,13.165266106442578,NA
48348,Oakland County,MI,NA,NA,59.909909909909906
48350,Oakland County,MI,92.96296296296296,NA,NA
48390,Oakland County,MI,36.2962962962963,NA,NA
48438,Genesee County,MI,NA,92.15686274509804,NA
48507,Genesee County,MI,8.88888888888889,NA,NA
48708,Bay County,MI,6.666666666666667,NA,NA
48723,Tuscola County,MI,27.40740740740741,NA,NA
48838,Montcalm County,MI,NA,31.372549019607842,NA
48850,Montcalm County,MI,83.7037037037037,NA,NA
48910,Ingham County,MI,10.74074074074074,10.92436974789916,NA
49057,Van Buren County,MI,77.03703703703704,NA,NA
49202,Jackson County,MI,NA,33.33333333333333,20.27027027027027
49221,Lenawee County,MI,NA,49.57983193277311,NA
49230,Jackson County,MI,86.66666666666667,NA,NA
49306,Kent County,MI,NA,94.9579831932773,NA
49307,Mecosta County,MI,NA,61.904761904761905,NA
49319,Kent County,MI,28.51851851851852,NA,49.0990990990991
49329,Montcalm County,MI,56.2962962962963,NA,NA
49337,Newaygo County,MI,NA,NA,90.990990990991
49341,Kent County,MI,NA,25.210084033613445,20.72072072072072
49343,Kent County,MI,NA,NA,90.09009009009009
55102,Ramsey County,MN,NA,91.59663865546219,NA
55104,Ramsey County,MN,NA,40.33613445378151,NA
55345,Hennepin County,MN,NA,NA,94.5945945945946
55364,Hennepin County,MN,NA,80.3921568627451,NA
55422,Hennepin County,MN,NA,41.73669467787115,NA
55427,Hennepin County,MN,NA,NA,54.5045045045045
55744,Itasca County,MN,NA,36.134453781512605,NA
55792,St. Louis County,MN,NA,30.532212885154063,59.45945945945946
56073,Brown County,MN,NA,10.364145658263306,NA
56267,Stevens County,MN,66.2962962962963,NA,NA
56482,Wadena County,MN,NA,NA,32.432432432432435
56560,Clay County,MN,11.851851851851853,NA,NA
38672,DeSoto County,MS,80,NA,NA
38863,Pontotoc County,MS,91.11111111111111,NA,NA
38865,Alcorn County,MS,96.29629629629629,NA,NA
39170,Hinds County,MS,NA,89.6358543417367,NA
39307,Lauderdale County,MS,69.62962962962963,NA,NA
39466,Pearl River County,MS,25.185185185185183,NA,NA
39520,Hancock County,MS,NA,38.93557422969188,NA
39562,Jackson County,MS,NA,80.67226890756302,NA
39565,Jackson County,MS,62.59259259259259,NA,NA
63017,St. Louis County,MO,NA,8.683473389355742,NA
63105,St. Louis County,MO,NA,NA,69.81981981981981
63118,St. Louis city,MO,30.37037037037037,NA,NA
63132,St. Louis County,MO,NA,NA,45.4954954954955
63136,St. Louis County,MO,5.9259259259259265,NA,NA
63366,St. Charles County,MO,11.481481481481481,NA,NA
63601,St. Francois County,MO,41.11111111111111,NA,NA
63628,St. Francois County,MO,NA,NA,66.66666666666666
63780,Scott County,MO,NA,NA,83.33333333333334
64029,Jackson County,MO,69.25925925925925,NA,NA
64030,Jackson County,MO,18.51851851851852,NA,NA
64052,Jackson County,MO,9.25925925925926,NA,NA
64055,Jackson County,MO,6.296296296296296,4.481792717086835,NA
64063,Jackson County,MO,NA,91.31652661064426,NA
64116,Clay County,MO,NA,NA,50.45045045045045
64152,Platte County,MO,20.74074074074074,NA,NA
64601,Livingston County,MO,NA,78.15126050420169,NA
64870,Jasper County,MO,NA,61.34453781512605,NA
65301,Pettis County,MO,37.03703703703704,NA,NA
65340,Saline County,MO,NA,62.745098039215684,NA
65536,Laclede County,MO,NA,NA,24.324324324324326
65738,Greene County,MO,NA,NA,72.07207207207207
65742,Webster County,MO,NA,NA,61.711711711711715
65810,Greene County,MO,NA,68.62745098039215,NA
59701,Silver Bow County,MT,NA,38.655462184873954,NA
68025,Dodge County,NE,NA,NA,9.45945945945946
68028,Sarpy County,NE,NA,NA,94.14414414414415
68123,Sarpy County,NE,NA,NA,68.01801801801803
68137,Douglas County,NE,75.92592592592592,NA,NA
68154,Douglas County,NE,NA,NA,56.75675675675676
68632,Butler County,NE,NA,97.75910364145658,NA
89107,Clark County,NV,48.51851851851852,NA,NA
89117,Clark County,NV,31.851851851851855,NA,NA
89129,Clark County,NV,44.074074074074076,NA,NA
89431,Washoe County,NV,NA,40.896358543417364,NA
89509,Washoe County,NV,47.03703703703704,NA,NA
03301,Merrimack County,NH,NA,9.243697478991598,NA
03833,Rockingham County,NH,NA,NA,29.72972972972973
07036,Union County,NJ,8.518518518518519,NA,NA
07043,Essex County,NJ,NA,90.75630252100841,NA
07055,Passaic County,NJ,32.22222222222222,NA,NA
07062,Union County,NJ,NA,90.47619047619048,NA
07093,Hudson County,NJ,4.814814814814815,NA,NA
07103,Essex County,NJ,NA,0.8403361344537815,NA
07107,Essex County,NJ,NA,29.69187675070028,NA
07405,Morris County,NJ,NA,NA,85.58558558558559
07421,Passaic County,NJ,NA,NA,95.4954954954955
07508,Passaic County,NJ,NA,NA,53.6036036036036
07631,Bergen County,NJ,NA,22.689075630252102,NA
07675,Bergen County,NJ,NA,47.05882352941176,NA
07712,Monmouth County,NJ,1.8518518518518516,NA,NA
07885,Morris County,NJ,77.77777777777779,NA,NA
08081,Camden County,NJ,0.3703703703703704,NA,NA
08226,Cape May County,NJ,NA,55.182072829131656,NA
08620,Mercer County,NJ,NA,97.19887955182072,NA
08724,Ocean County,NJ,NA,12.885154061624648,NA
08734,Ocean County,NJ,NA,NA,97.2972972972973
08759,Ocean County,NJ,NA,NA,0
08822,Hunterdon County,NJ,NA,35.294117647058826,NA
87105,Bernalillo County,NM,2.5925925925925926,NA,NA
87106,Bernalillo County,NM,21.11111111111111,NA,NA
87507,Santa Fe County,NM,NA,75.91036414565826,NA
88011,Doa Ana County,NM,NA,43.977591036414566,NA
88061,Grant County,NM,NA,NA,79.72972972972973
88101,Curry County,NM,52.96296296296297,NA,NA
10023,New York County,NY,NA,NA,4.054054054054054
10033,New York County,NY,16.296296296296298,NA,NA
10034,New York County,NY,NA,13.725490196078432,NA
10065,New York County,NY,NA,NA,86.03603603603604
10457,Bronx County,NY,NA,NA,10.36036036036036
10704,Westchester County,NY,NA,59.943977591036415,NA
11217,Kings County,NY,NA,NA,54.054054054054056
11414,Queens County,NY,NA,45.65826330532213,NA
11433,Queens County,NY,NA,29.13165266106443,NA
11507,Nassau County,NY,NA,98.0392156862745,NA
11721,Suffolk County,NY,NA,NA,98.64864864864865
11730,Suffolk County,NY,NA,98.31932773109243,NA
11961,Suffolk County,NY,NA,63.305322128851536,NA
12208,Albany County,NY,61.48148148148148,NA,NA
12883,Essex County,NY,NA,NA,75.22522522522522
12926,Franklin County,NY,NA,96.35854341736695,NA
12966,Franklin County,NY,80.37037037037037,NA,NA
13027,Onondaga County,NY,77.4074074074074,NA,NA
13131,Oswego County,NY,85.55555555555556,NA,NA
13207,Onondaga County,NY,28.888888888888886,NA,NA
13753,Delaware County,NY,NA,95.51820728291317,NA
14221,Erie County,NY,NA,1.400560224089636,NA
14420,Monroe County,NY,NA,20.168067226890756,NA
14466,Ontario County,NY,95.55555555555556,NA,NA
14487,Livingston County,NY,NA,86.27450980392157,NA
14505,Wayne County,NY,61.111111111111114,NA,NA
14606,Monroe County,NY,1.1111111111111112,NA,NA
14733,Chautauqua County,NY,78.14814814814814,NA,NA
14801,Steuben County,NY,72.5925925925926,NA,NA
14843,Steuben County,NY,NA,32.773109243697476,NA
27013,Rowan County,NC,78.51851851851852,NA,NA
27106,Forsyth County,NC,12.962962962962962,NA,NA
27332,Lee County,NC,35.92592592592593,NA,NA
27406,Guilford County,NC,2.9629629629629632,NA,NA
27501,Harnett County,NC,NA,79.27170868347339,NA
27522,Granville County,NC,NA,74.2296918767507,NA
27526,Wake County,NC,NA,NA,16.216216216216218
27537,Vance County,NC,94.81481481481482,NA,NA
27801,Edgecombe County,NC,37.407407407407405,NA,NA
27804,Nash County,NC,31.11111111111111,NA,NA
27874,Halifax County,NC,NA,95.23809523809523,NA
28027,Cabarrus County,NC,NA,90.19607843137256,NA
28078,Mecklenburg County,NC,NA,70.30812324929971,NA
28105,Mecklenburg County,NC,NA,81.79271708683473,NA
28107,Cabarrus County,NC,95.18518518518519,NA,NA
28120,Gaston County,NC,55.55555555555556,NA,NA
28170,Anson County,NC,92.5925925925926,NA,NA
28213,Mecklenburg County,NC,24.444444444444443,NA,NA
28226,Mecklenburg County,NC,49.25925925925926,NA,NA
28314,Cumberland County,NC,NA,NA,41.44144144144144
28358,Robeson County,NC,NA,29.411764705882355,NA
28412,New Hanover County,NC,NA,26.610644257703083,NA
28461,Brunswick County,NC,40.370370370370374,NA,15.315315315315313
28467,Brunswick County,NC,NA,65.82633053221288,NA
28469,Brunswick County,NC,NA,82.07282913165265,NA
28574,Onslow County,NC,NA,NA,91.8918918918919
58078,Cass County,ND,24.074074074074073,NA,NA
58301,Ramsey County,ND,NA,67.50700280112045,NA
58801,Williams County,ND,33.33333333333333,NA,NA
43050,Knox County,OH,NA,2.2408963585434174,NA
43056,Licking County,OH,35.55555555555556,NA,NA
43074,Delaware County,OH,75.55555555555556,NA,NA
43119,Franklin County,OH,NA,47.61904761904761,NA
43123,Franklin County,OH,NA,NA,12.162162162162163
43140,Madison County,OH,34.074074074074076,NA,NA
43160,Fayette County,OH,NA,19.88795518207283,NA
43229,Franklin County,OH,4.074074074074074,NA,NA
43402,Wood County,OH,NA,NA,15.765765765765765
43551,Wood County,OH,NA,3.6414565826330536,NA
43605,Lucas County,OH,14.814814814814813,NA,NA
43615,Lucas County,OH,NA,NA,7.657657657657657
43619,Wood County,OH,65.18518518518519,NA,NA
43723,Guernsey County,OH,NA,52.66106442577031,NA
43725,Guernsey County,OH,14.444444444444443,NA,NA
43756,Morgan County,OH,NA,84.87394957983193,NA
43780,Guernsey County,OH,98.88888888888889,NA,NA
44024,Geauga County,OH,42.96296296296296,NA,NA
44030,Ashtabula County,OH,22.22222222222222,NA,NA
44094,Lake County,OH,NA,NA,1.3513513513513513
44107,Cuyahoga County,OH,NA,1.680672268907563,NA
44109,Cuyahoga County,OH,NA,0.5602240896358543,NA
44118,Cuyahoga County,OH,10,NA,NA
44125,Cuyahoga County,OH,NA,39.77591036414566,NA
44130,Cuyahoga County,OH,NA,0.2801120448179272,NA
44133,Cuyahoga County,OH,NA,NA,10.81081081081081
44143,Cuyahoga County,OH,NA,11.204481792717088,NA
44145,Cuyahoga County,OH,17.40740740740741,NA,NA
44236,Summit County,OH,NA,NA,35.13513513513514
44275,Medina County,OH,97.77777777777777,NA,NA
44287,Wayne County,OH,NA,NA,76.57657657657657
44310,Summit County,OH,NA,58.26330532212886,NA
44313,Summit County,OH,NA,14.84593837535014,NA
44319,Summit County,OH,47.40740740740741,NA,NA
44320,Summit County,OH,NA,16.5266106442577,NA
44406,Mahoning County,OH,52.22222222222223,NA,NA
44704,Stark County,OH,93.33333333333333,NA,NA
44830,Seneca County,OH,45.18518518518518,NA,NA
44870,Erie County,OH,60.370370370370374,NA,NA
45002,Hamilton County,OH,76.66666666666667,NA,NA
45013,Butler County,OH,32.96296296296296,NA,NA
45014,Butler County,OH,NA,NA,56.30630630630631
45030,Hamilton County,OH,NA,52.94117647058824,NA
45040,Warren County,OH,NA,36.69467787114846,NA
45066,Warren County,OH,80.74074074074075,NA,NA
45067,Butler County,OH,88.14814814814815,79.55182072829132,NA
45211,Hamilton County,OH,NA,30.252100840336134,NA
45215,Hamilton County,OH,57.03703703703704,NA,NA
45224,Hamilton County,OH,NA,NA,43.69369369369369
45371,Miami County,OH,NA,19.327731092436977,NA
45373,Miami County,OH,5.185185185185185,NA,NA
45405,Montgomery County,OH,22.962962962962962,NA,NA
45415,Montgomery County,OH,NA,86.5546218487395,NA
45419,Montgomery County,OH,NA,NA,65.31531531531532
45434,Greene County,OH,NA,70.86834733893558,NA
45601,Ross County,OH,NA,NA,2.2522522522522523
45640,Jackson County,OH,5.555555555555555,NA,NA
45669,Lawrence County,OH,19.25925925925926,19.047619047619047,NA
45692,Jackson County,OH,32.592592592592595,NA,NA
73008,Oklahoma County,OK,NA,57.98319327731093,NA
73013,Oklahoma County,OK,NA,NA,11.26126126126126
73111,Oklahoma County,OK,NA,NA,63.06306306306306
73112,Oklahoma County,OK,NA,47.89915966386555,NA
73132,Oklahoma County,OK,51.11111111111111,NA,NA
74047,Tulsa County,OK,93.7037037037037,NA,NA
74053,Rogers County,OK,89.25925925925927,NA,NA
74063,Tulsa County,OK,55.925925925925924,NA,NA
74127,Tulsa County,OK,NA,NA,69.36936936936937
74137,Tulsa County,OK,NA,56.30252100840336,NA
74337,Mayes County,OK,NA,99.15966386554622,NA
74352,Mayes County,OK,83.33333333333334,NA,NA
74361,Mayes County,OK,NA,66.94677871148458,NA
74403,Muskogee County,OK,NA,NA,27.47747747747748
72713,NA,NA,100,NA,NA
97080,Multnomah County,OR,NA,18.207282913165265,NA
97138,Clatsop County,OR,NA,65.54621848739495,NA
97206,Multnomah County,OR,13.703703703703704,NA,NA
97217,Multnomah County,OR,NA,46.49859943977591,NA
97303,Marion County,OR,NA,45.09803921568628,NA
97317,Marion County,OR,70.37037037037037,NA,NA
97333,Benton County,OR,NA,87.6750700280112,55.4054054054054
97386,Linn County,OR,44.44444444444444,NA,NA
97424,Lane County,OR,41.48148148148148,NA,NA
97504,Jackson County,OR,NA,10.084033613445378,NA
97801,Umatilla County,OR,NA,80.95238095238095,NA
15042,Beaver County,PA,79.62962962962963,NA,NA
15044,Allegheny County,PA,NA,54.90196078431373,NA
15057,Washington County,PA,74.81481481481481,NA,NA
15061,Beaver County,PA,NA,71.98879551820728,NA
15106,Allegheny County,PA,55.18518518518518,NA,NA
15214,Allegheny County,PA,NA,57.14285714285714,NA
15219,Allegheny County,PA,NA,NA,37.38738738738739
15650,Westmoreland County,PA,NA,14.565826330532214,NA
15690,Westmoreland County,PA,NA,82.91316526610645,NA
15801,Clearfield County,PA,NA,34.45378151260504,NA
16301,Venango County,PA,NA,NA,35.585585585585584
16335,Crawford County,PA,9.62962962962963,NA,NA
16346,Venango County,PA,NA,NA,72.52252252252252
16438,Erie County,PA,NA,71.42857142857143,NA
16504,Erie County,PA,58.88888888888889,NA,NA
16601,Blair County,PA,NA,4.761904761904762,NA
16602,Blair County,PA,NA,9.523809523809524,18.46846846846847
17003,Lebanon County,PA,NA,47.33893557422969,NA
17073,Lebanon County,PA,88.88888888888889,NA,NA
17112,Dauphin County,PA,16.666666666666664,NA,NA
17315,York County,PA,NA,12.605042016806722,NA
17820,Columbia County,PA,NA,NA,92.34234234234235
17842,Snyder County,PA,91.48148148148148,NA,NA
18013,Northampton County,PA,NA,76.47058823529412,NA
18036,Lehigh County,PA,NA,35.85434173669468,NA
18092,Lehigh County,PA,NA,98.8795518207283,NA
18103,Lehigh County,PA,NA,NA,9.90990990990991
18603,Columbia County,PA,NA,16.80672268907563,NA
18612,Luzerne County,PA,NA,46.778711484593835,NA
18657,Wyoming County,PA,63.70370370370371,NA,NA
18966,Bucks County,PA,NA,7.8431372549019605,NA
19010,Delaware County,PA,NA,NA,45.04504504504504
19012,Montgomery County,PA,84.07407407407408,NA,NA
19020,Bucks County,PA,NA,5.88235294117647,NA
19025,Montgomery County,PA,NA,95.7983193277311,NA
19038,Montgomery County,PA,NA,23.809523809523807,50
19053,Bucks County,PA,NA,33.89355742296919,NA
19061,Delaware County,PA,NA,NA,53.153153153153156
19124,Philadelphia County,PA,0,NA,NA
19136,Philadelphia County,PA,NA,27.170868347338935,NA
19138,Philadelphia County,PA,12.222222222222221,NA,24.774774774774773
19335,Chester County,PA,NA,11.484593837535014,NA
19401,Montgomery County,PA,7.777777777777778,NA,NA
19428,Montgomery County,PA,81.85185185185185,NA,NA
19454,Montgomery County,PA,NA,NA,86.48648648648648
19464,Montgomery County,PA,NA,NA,31.98198198198198
19530,Berks County,PA,NA,68.90756302521008,NA
02879,Washington County,RI,66.66666666666666,NA,NA
29102,Clarendon County,SC,NA,55.46218487394958,NA
29209,Richland County,SC,42.22222222222222,NA,NA
29403,Charleston County,SC,NA,67.78711484593838,NA
29466,Charleston County,SC,45.55555555555556,NA,NA
29483,Dorchester County,SC,NA,18.487394957983195,NA
29485,Dorchester County,SC,NA,32.49299719887955,NA
29560,Florence County,SC,NA,NA,67.56756756756756
29642,Pickens County,SC,NA,NA,26.126126126126124
29649,Greenwood County,SC,NA,55.74229691876751,NA
29662,Greenville County,SC,63.33333333333333,NA,NA
29730,York County,SC,NA,NA,44.5945945945946
29732,York County,SC,30,NA,NA
29745,York County,SC,NA,53.50140056022409,NA
29909,Beaufort County,SC,NA,13.725490196078432,NA
57006,Brookings County,SD,62.96296296296296,NA,NA
57301,Davison County,SD,NA,NA,21.17117117117117
57501,Hughes County,SD,NA,66.94677871148458,NA
57719,Pennington County,SD,NA,54.061624649859944,NA
57783,Lawrence County,SD,NA,77.87114845938376,NA
37058,Stewart County,TN,86.29629629629629,NA,NA
37086,Rutherford County,TN,43.333333333333336,NA,NA
37174,Williamson County,TN,NA,38.095238095238095,NA
37334,Lincoln County,TN,NA,89.07563025210085,NA
37343,Hamilton County,TN,NA,20.72829131652661,NA
37388,Coffee County,TN,30.74074074074074,NA,NA
37660,Sullivan County,TN,7.4074074074074066,NA,NA
37683,Johnson County,TN,NA,NA,86.93693693693693
37774,Loudon County,TN,NA,22.969187675070028,NA
37890,Jefferson County,TN,70,NA,NA
37914,Knox County,TN,33.7037037037037,NA,59.009009009009006
37917,Knox County,TN,NA,21.568627450980394,NA
37921,Knox County,TN,NA,56.582633053221286,NA
37922,Knox County,TN,NA,NA,50.9009009009009
37931,Knox County,TN,NA,60.22408963585434,NA
37938,Knox County,TN,NA,66.66666666666666,NA
38004,Tipton County,TN,85.18518518518519,NA,NA
38024,Dyer County,TN,NA,37.254901960784316,NA
38053,Shelby County,TN,NA,NA,27.927927927927925
38555,Cumberland County,TN,36.666666666666664,NA,NA
75035,Collin County,TX,NA,48.4593837535014,NA
75077,Denton County,TX,40.74074074074074,NA,NA
75080,Dallas County,TX,NA,42.857142857142854,NA
75098,Collin County,TX,21.48148148148148,NA,NA
75103,Van Zandt County,TX,NA,82.35294117647058,NA
75126,Kaufman County,TX,29.629629629629626,NA,NA
75150,Dallas County,TX,NA,15.406162464985995,NA
75231,Dallas County,TX,NA,NA,64.86486486486487
75287,Denton County,TX,NA,48.4593837535014,NA
75650,Harrison County,TX,NA,92.71708683473389,NA
75692,Harrison County,TX,NA,96.9187675070028,NA
75701,Smith County,TX,NA,NA,28.37837837837838
75708,Smith County,TX,NA,85.71428571428571,NA
75771,Smith County,TX,NA,NA,13.963963963963963
75935,Shelby County,TX,72.96296296296296,NA,NA
75965,Nacogdoches County,TX,67.4074074074074,NA,NA
76001,Tarrant County,TX,NA,99.71988795518207,NA
76009,Johnson County,TX,NA,NA,77.92792792792793
76039,Tarrant County,TX,67.77777777777779,NA,NA
76086,Parker County,TX,NA,NA,31.08108108108108
76108,Tarrant County,TX,NA,24.369747899159663,NA
76210,Denton County,TX,NA,58.543417366946784,NA
76244,Tarrant County,TX,23.703703703703706,NA,NA
76384,Wilbarger County,TX,NA,61.62464985994398,NA
76424,Stephens County,TX,NA,NA,85.13513513513513
76502,Bell County,TX,15.185185185185185,NA,NA
76801,Brown County,TX,NA,NA,55.85585585585585
77017,Harris County,TX,NA,60.78431372549019,NA
77069,Harris County,TX,NA,44.81792717086835,NA
77084,Harris County,TX,11.11111111111111,NA,NA
77373,Harris County,TX,27.77777777777778,NA,NA
77379,Harris County,TX,NA,41.45658263305322,NA
77389,Harris County,TX,NA,86.5546218487395,NA
77429,Harris County,TX,NA,2.5210084033613445,NA
77433,Harris County,TX,NA,17.086834733893557,NA
77469,Fort Bend County,TX,NA,NA,40.090090090090094
77479,Fort Bend County,TX,28.14814814814815,NA,NA
77494,Fort Bend County,TX,NA,50.14005602240896,NA
77584,Brazoria County,TX,74.44444444444444,NA,NA
78041,Webb County,TX,NA,21.008403361344538,NA
78132,Comal County,TX,NA,NA,77.02702702702703
78216,Bexar County,TX,71.48148148148148,NA,NA
78223,Bexar County,TX,20.37037037037037,NA,NA
78244,Bexar County,TX,NA,80.11204481792717,NA
78504,Hidalgo County,TX,NA,44.25770308123249,NA
78520,Cameron County,TX,NA,NA,18.91891891891892
78539,Hidalgo County,TX,57.407407407407405,NA,NA
78666,Hays County,TX,26.666666666666668,NA,NA
78934,Colorado County,TX,82.5925925925926,NA,NA
79423,Lubbock County,TX,60.74074074074074,NA,NA
79603,Taylor County,TX,NA,34.73389355742297,NA
79745,Winkler County,TX,84.07407407407408,NA,NA
79930,El Paso County,TX,74.07407407407408,NA,82.88288288288288
79935,El Paso County,TX,NA,NA,81.08108108108108
79936,El Paso County,TX,NA,73.38935574229691,NA
84015,Davis County,UT,NA,81.5126050420168,NA
84020,Salt Lake County,UT,NA,66.1064425770308,NA
84045,Utah County,UT,89.62962962962962,NA,NA
84062,Utah County,UT,NA,69.46778711484593,NA
84078,Uintah County,UT,15.925925925925927,NA,NA
84108,Salt Lake County,UT,NA,54.34173669467787,NA
84109,Salt Lake County,UT,NA,52.10084033613446,NA
84341,Cache County,UT,NA,93.27731092436974,NA
05001,Windsor County,VT,NA,87.39495798319328,NA
05478,Franklin County,VT,NA,NA,22.52252252252252
05641,Washington County,VT,NA,28.57142857142857,NA
05733,Rutland County,VT,NA,NA,78.37837837837837
20110,Manassas city,VA,NA,57.70308123249299,NA
22508,Orange County,VA,NA,78.71148459383754,NA
22630,Warren County,VA,NA,35.01400560224089,NA
22802,Harrisonburg city,VA,23.333333333333332,NA,NA
22812,Rockingham County,VA,NA,NA,61.261261261261254
22911,Albemarle County,VA,NA,64.9859943977591,NA
22947,Albemarle County,VA,98.14814814814815,NA,NA
22960,Orange County,VA,NA,87.95518207282913,NA
23185,James City County,VA,NA,NA,0.45045045045045046
23188,James City County,VA,NA,NA,0.9009009009009009
23223,Henrico County,VA,2.2222222222222223,NA,NA
23238,Henrico County,VA,NA,62.46498599439776,NA
23453,Virginia Beach city,VA,44.81481481481481,NA,NA
23454,Virginia Beach city,VA,NA,NA,4.504504504504505
23608,Newport News city,VA,NA,36.97478991596639,NA
23669,Hampton city,VA,21.85185185185185,NA,NA
24422,Alleghany County,VA,79.25925925925927,NA,NA
98020,Snohomish County,WA,NA,NA,30.180180180180184
98022,King County,WA,NA,22.128851540616246,NA
98026,Snohomish County,WA,31.48148148148148,NA,NA
98029,King County,WA,NA,65.26610644257703,NA
98037,Snohomish County,WA,59.62962962962963,NA,NA
98092,King County,WA,NA,16.246498599439775,NA
98116,King County,WA,NA,66.38655462184873,NA
98199,King County,WA,NA,73.10924369747899,NA
98223,Snohomish County,WA,56.666666666666664,NA,NA
98233,Skagit County,WA,NA,NA,46.846846846846844
98249,Island County,WA,NA,NA,83.78378378378379
98311,Kitsap County,WA,NA,NA,58.55855855855856
98338,Pierce County,WA,43.7037037037037,NA,NA
98359,Kitsap County,WA,NA,96.07843137254902,NA
98362,Clallam County,WA,NA,4.201680672268908,NA
98520,Grays Harbor County,WA,NA,NA,57.20720720720721
98563,Grays Harbor County,WA,NA,NA,70.27027027027027
98661,Clark County,WA,NA,NA,36.486486486486484
98683,Clark County,WA,NA,NA,41.891891891891895
98685,Clark County,WA,NA,71.70868347338936,NA
98802,Douglas County,WA,NA,28.851540616246496,NA
98826,Chelan County,WA,NA,75.35014005602241,NA
98902,Yakima County,WA,NA,NA,48.1981981981982
99025,Spokane County,WA,NA,98.59943977591037,NA
99166,Ferry County,WA,NA,99.43977591036415,NA
99301,Franklin County,WA,NA,NA,64.41441441441441
99336,Benton County,WA,NA,NA,5.405405405405405
99337,Benton County,WA,25.925925925925924,NA,NA
99362,Walla Walla County,WA,NA,NA,36.93693693693694
25177,Kanawha County,WV,NA,34.173669467787114,NA
25411,Morgan County,WV,NA,NA,82.43243243243244
25661,Mingo County,WV,NA,75.63025210084034,NA
25704,Wayne County,WV,NA,NA,47.2972972972973
26034,Hancock County,WV,NA,NA,97.74774774774775
53045,Waukesha County,WI,NA,NA,16.666666666666664
53089,Waukesha County,WI,90.74074074074075,NA,NA
53108,Racine County,WI,99.62962962962963,NA,NA
53172,Milwaukee County,WI,NA,74.50980392156863,NA
53186,Waukesha County,WI,27.037037037037038,NA,NA
53207,Milwaukee County,WI,25.555555555555554,NA,NA
53211,Milwaukee County,WI,NA,21.84873949579832,NA
53220,Milwaukee County,WI,29.259259259259256,NA,NA
53563,Rock County,WI,NA,76.75070028011206,NA
54130,Outagamie County,WI,NA,NA,70.72072072072072
54220,Manitowoc County,WI,NA,1.1204481792717087,NA
54302,Brown County,WI,NA,79.83193277310924,NA
54313,Brown County,WI,NA,NA,80.63063063063063
54701,Eau Claire County,WI,NA,59.66386554621849,NA
54703,Eau Claire County,WI,NA,32.212885154061624,32.88288288288289
54720,Eau Claire County,WI,87.4074074074074,NA,NA
54902,Winnebago County,WI,49.629629629629626,NA,NA
54935,Fond du Lac County,WI,NA,10.644257703081232,NA
54956,Winnebago County,WI,24.814814814814813,NA,NA
54971,Fond du Lac County,WI,NA,49.85994397759104,NA
82718,Campbell County,WY,NA,94.39775910364145,NA
