ZipCode,county,state,Youth,Adult,Retirement,Geriatric
35023,Jefferson County,AL,NA,NA,45.49632352941176,NA
35034,Bibb County,AL,NA,NA,88.05147058823529,NA
35045,Chilton County,AL,51.9774011299435,NA,89.33823529411765,NA
35062,Jefferson County,AL,NA,NA,94.48529411764706,NA
35080,Shelby County,AL,NA,55.26011560693641,NA,NA
35117,Jefferson County,AL,NA,96.06936416184972,96.23161764705883,NA
35128,St. Clair County,AL,NA,NA,67.37132352941177,NA
35209,Jefferson County,AL,NA,NA,NA,89.2988929889299
35210,Jefferson County,AL,NA,NA,63.41911764705882,63.65313653136532
35213,Jefferson County,AL,NA,NA,62.22426470588235,NA
35244,Jefferson County,AL,NA,NA,NA,55.71955719557196
35405,Tuscaloosa County,AL,NA,50.17341040462428,11.580882352941178,NA
35546,Fayette County,AL,NA,NA,85.84558823529412,NA
35570,Marion County,AL,NA,NA,50.55147058823529,NA
35579,Walker County,AL,NA,NA,94.02573529411765,NA
35601,Morgan County,AL,NA,14.913294797687863,NA,NA
35603,Morgan County,AL,NA,18.15028901734104,64.79779411764706,NA
35769,Jackson County,AL,NA,NA,NA,71.58671586715867
35816,Madison County,AL,NA,67.97687861271676,NA,NA
35954,Etowah County,AL,54.23728813559322,NA,NA,NA
35968,DeKalb County,AL,NA,NA,92.83088235294117,NA
36027,Barbour County,AL,NA,37.22543352601156,NA,NA
36054,Elmore County,AL,NA,NA,62.86764705882353,NA
36093,Elmore County,AL,NA,74.68208092485548,82.44485294117648,NA
36110,Montgomery County,AL,NA,NA,84.09926470588235,NA
36206,Calhoun County,AL,NA,NA,73.62132352941177,NA
36272,Calhoun County,AL,NA,45.433526011560694,NA,NA
36301,Houston County,AL,NA,NA,14.79779411764706,NA
36303,Houston County,AL,NA,NA,37.5,49.815498154981555
36330,Coffee County,AL,NA,NA,32.99632352941176,NA
36526,Baldwin County,AL,NA,48.67052023121387,NA,NA
36567,Baldwin County,AL,NA,NA,75.27573529411765,NA
36571,Mobile County,AL,NA,NA,69.48529411764706,NA
36582,Mobile County,AL,NA,NA,45.3125,NA
36867,Russell County,AL,NA,NA,71.96691176470588,NA
36870,Lee County,AL,NA,NA,NA,73.80073800738008
99508,Anchorage Municipality,AK,NA,NA,35.38602941176471,NA
99603,Kenai Peninsula Borough,AK,NA,NA,NA,91.5129151291513
99701,Fairbanks North Star Borough,AK,NA,33.179190751445084,NA,NA
99709,Fairbanks North Star Borough,AK,NA,84.97109826589595,NA,NA
99835,Sitka City and Borough,AK,NA,56.30057803468208,NA,NA
85013,Maricopa County,AZ,NA,46.705202312138724,NA,NA
85018,Maricopa County,AZ,NA,NA,NA,51.8450184501845
85021,Maricopa County,AZ,NA,NA,NA,79.33579335793358
85023,Maricopa County,AZ,NA,NA,NA,65.86715867158671
85029,Maricopa County,AZ,NA,NA,NA,44.64944649446495
85032,Maricopa County,AZ,NA,NA,24.724264705882355,NA
85034,Maricopa County,AZ,NA,92.71676300578035,NA,NA
85043,Maricopa County,AZ,68.36158192090396,NA,NA,NA
85051,Maricopa County,AZ,NA,NA,NA,71.40221402214021
85086,Maricopa County,AZ,NA,NA,38.32720588235294,79.70479704797047
85087,Maricopa County,AZ,NA,NA,91.91176470588235,NA
85119,Pinal County,AZ,NA,67.16763005780348,NA,NA
85120,Pinal County,AZ,NA,NA,NA,26.199261992619927
85122,Pinal County,AZ,NA,NA,11.67279411764706,NA
85128,Pinal County,AZ,NA,82.19653179190752,NA,NA
85131,Pinal County,AZ,NA,NA,70.68014705882352,NA
85260,Maricopa County,AZ,NA,62.19653179190752,NA,21.95571955719557
85298,Maricopa County,AZ,NA,NA,84.65073529411765,NA
85323,Maricopa County,AZ,NA,NA,50.18382352941176,NA
85344,La Paz County,AZ,NA,NA,NA,76.93726937269373
85345,Maricopa County,AZ,NA,14.104046242774567,NA,NA
85375,Maricopa County,AZ,NA,NA,NA,1.4760147601476015
85388,Maricopa County,AZ,NA,64.50867052023122,NA,NA
85621,Santa Cruz County,AZ,NA,43.46820809248555,NA,NA
85641,Pima County,AZ,NA,81.04046242774567,NA,NA
85648,Santa Cruz County,AZ,NA,NA,NA,89.2988929889299
85710,Pima County,AZ,NA,NA,15.625,NA
85713,Pima County,AZ,NA,7.745664739884393,7.9963235294117645,NA
85719,Pima County,AZ,NA,NA,69.66911764705883,NA
85735,Pima County,AZ,NA,NA,NA,80.25830258302584
85739,Pinal County,AZ,NA,NA,NA,22.878228782287824
85745,Pima County,AZ,NA,NA,17.55514705882353,NA
85757,Pima County,AZ,NA,25.43352601156069,NA,NA
85935,Navajo County,AZ,NA,NA,93.93382352941177,NA
86001,Coconino County,AZ,NA,NA,75.91911764705883,NA
86005,Coconino County,AZ,NA,75.95375722543352,NA,NA
86301,Yavapai County,AZ,NA,64.16184971098265,NA,NA
86303,Yavapai County,AZ,68.92655367231639,NA,40.533088235294116,NA
86314,Yavapai County,AZ,NA,NA,NA,12.546125461254611
86336,Yavapai County,AZ,NA,NA,NA,68.81918819188192
86413,Mohave County,AZ,NA,NA,NA,76.75276752767527
86429,Mohave County,AZ,NA,NA,NA,89.11439114391145
86442,Mohave County,AZ,NA,NA,NA,19.92619926199262
86505,Apache County,AZ,NA,NA,94.94485294117648,NA
71602,Jefferson County,AR,NA,58.38150289017341,NA,NA
71753,Columbia County,AR,NA,NA,63.23529411764706,NA
71953,Polk County,AR,94.91525423728814,NA,49.908088235294116,NA
72002,Saline County,AR,NA,66.01156069364161,NA,NA
72011,Saline County,AR,NA,NA,96.04779411764706,NA
72015,Saline County,AR,NA,NA,31.34191176470588,NA
72019,Saline County,AR,85.31073446327684,NA,NA,NA
72023,Lonoke County,AR,NA,NA,NA,43.7269372693727
72034,Faulkner County,AR,NA,NA,46.783088235294116,NA
72081,White County,AR,NA,NA,54.04411764705882,NA
72114,Pulaski County,AR,NA,75.3757225433526,NA,NA
72118,Pulaski County,AR,NA,NA,57.16911764705882,NA
72160,Arkansas County,AR,NA,70.63583815028902,NA,NA
72315,Mississippi County,AR,NA,77.22543352601156,NA,NA
72370,Mississippi County,AR,NA,NA,NA,94.0959409594096
72401,Craighead County,AR,NA,16.878612716763005,NA,NA
72404,Craighead County,AR,NA,NA,71.04779411764706,NA
72450,Greene County,AR,NA,NA,23.80514705882353,NA
72455,Randolph County,AR,81.35593220338984,NA,NA,NA
72576,Fulton County,AR,NA,NA,NA,96.30996309963099
72601,Boone County,AR,NA,NA,29.411764705882355,NA
72653,Baxter County,AR,NA,NA,70.86397058823529,NA
72714,Benton County,AR,NA,NA,66.45220588235294,NA
72715,Benton County,AR,NA,89.47976878612717,NA,NA
72730,Washington County,AR,NA,95.37572254335261,NA,NA
72736,Benton County,AR,NA,99.76878612716763,NA,NA
72758,Benton County,AR,NA,NA,NA,45.571955719557195
72949,Franklin County,AR,NA,NA,NA,74.72324723247232
90006,Los Angeles County,CA,NA,NA,NA,38.00738007380074
90008,Los Angeles County,CA,NA,NA,39.24632352941176,NA
90024,Los Angeles County,CA,NA,NA,NA,7.011070110701106
90025,Los Angeles County,CA,NA,54.10404624277456,NA,NA
90026,Los Angeles County,CA,NA,NA,36.67279411764706,NA
90033,Los Angeles County,CA,NA,NA,46.966911764705884,NA
90035,Los Angeles County,CA,NA,62.543352601156066,33.82352941176471,NA
90039,Los Angeles County,CA,NA,80.8092485549133,NA,NA
90045,Los Angeles County,CA,77.96610169491525,NA,NA,NA
90047,Los Angeles County,CA,NA,17.91907514450867,NA,NA
90250,Los Angeles County,CA,NA,23.121387283236995,NA,NA
90255,Los Angeles County,CA,NA,27.398843930635834,NA,NA
90275,Los Angeles County,CA,NA,NA,37.408088235294116,NA
90277,Los Angeles County,CA,58.75706214689266,NA,NA,NA
90405,Los Angeles County,CA,NA,NA,NA,66.97416974169742
90501,Los Angeles County,CA,NA,NA,91.54411764705883,NA
90504,Los Angeles County,CA,NA,66.35838150289017,NA,NA
90604,Los Angeles County,CA,NA,NA,NA,68.08118081180811
90703,Los Angeles County,CA,NA,NA,NA,71.21771217712177
90706,Los Angeles County,CA,NA,NA,33.54779411764706,NA
90710,Los Angeles County,CA,NA,79.65317919075144,59.83455882352941,NA
90723,Los Angeles County,CA,NA,NA,67.92279411764706,NA
90805,Los Angeles County,CA,85.87570621468926,NA,NA,NA
91105,Los Angeles County,CA,NA,NA,62.31617647058824,NA
91201,Los Angeles County,CA,NA,NA,65.34926470588235,59.96309963099631
91342,Los Angeles County,CA,NA,NA,13.143382352941178,NA
91350,Los Angeles County,CA,NA,NA,NA,83.02583025830258
91355,Los Angeles County,CA,NA,NA,NA,61.99261992619927
91361,Ventura County,CA,NA,88.20809248554913,NA,NA
91367,Los Angeles County,CA,NA,52.947976878612714,NA,NA
91387,Los Angeles County,CA,NA,42.3121387283237,NA,NA
91602,Los Angeles County,CA,NA,77.91907514450868,NA,NA
91605,Los Angeles County,CA,93.78531073446328,NA,NA,NA
91701,San Bernardino County,CA,NA,24.277456647398843,27.66544117647059,NA
91710,San Bernardino County,CA,NA,NA,NA,43.35793357933579
91731,Los Angeles County,CA,NA,NA,56.158088235294116,NA
91737,San Bernardino County,CA,NA,NA,52.94117647058824,NA
91746,Los Angeles County,CA,NA,NA,78.58455882352942,NA
91901,San Diego County,CA,NA,59.884393063583815,NA,NA
91911,San Diego County,CA,NA,NA,17.003676470588236,NA
92008,San Diego County,CA,NA,48.092485549132945,NA,NA
92010,San Diego County,CA,NA,NA,93.29044117647058,NA
92019,San Diego County,CA,NA,NA,75.73529411764706,NA
92020,San Diego County,CA,NA,NA,NA,28.782287822878228
92028,San Diego County,CA,NA,59.42196531791908,NA,NA
92040,San Diego County,CA,NA,NA,24.63235294117647,NA
92054,San Diego County,CA,NA,41.040462427745666,NA,NA
92056,San Diego County,CA,NA,NA,NA,78.59778597785979
92057,San Diego County,CA,NA,53.410404624277454,NA,NA
92075,San Diego County,CA,NA,88.32369942196532,NA,NA
92078,San Diego County,CA,NA,NA,45.588235294117645,NA
92111,San Diego County,CA,NA,NA,49.17279411764706,62.54612546125461
92113,San Diego County,CA,NA,NA,NA,53.321033210332104
92117,San Diego County,CA,NA,NA,52.02205882352941,NA
92122,San Diego County,CA,90.3954802259887,NA,NA,49.44649446494465
92127,San Diego County,CA,NA,NA,NA,93.35793357933579
92154,San Diego County,CA,NA,35.60693641618497,NA,NA
92211,Riverside County,CA,NA,NA,36.30514705882353,NA
92240,Riverside County,CA,NA,NA,NA,85.79335793357934
92262,Riverside County,CA,NA,NA,88.69485294117648,NA
92316,San Bernardino County,CA,NA,49.13294797687861,NA,NA
92359,San Bernardino County,CA,NA,NA,95.12867647058823,NA
92508,Riverside County,CA,NA,79.1907514450867,NA,NA
92563,Riverside County,CA,19.774011299435028,30.173410404624278,NA,NA
92630,Orange County,CA,NA,NA,NA,25.830258302583026
92637,Orange County,CA,NA,NA,NA,21.40221402214022
92649,Orange County,CA,NA,NA,27.481617647058826,NA
92660,Orange County,CA,NA,56.87861271676301,NA,14.022140221402212
92663,Orange County,CA,NA,NA,NA,57.19557195571956
92675,Orange County,CA,NA,63.005780346820806,NA,NA
92677,Orange County,CA,NA,NA,NA,20.66420664206642
92679,Orange County,CA,NA,NA,NA,76.19926199261992
92688,Orange County,CA,NA,66.24277456647398,NA,NA
92691,Orange County,CA,NA,NA,NA,42.25092250922509
92692,Orange County,CA,NA,NA,NA,12.177121771217712
92708,Orange County,CA,NA,34.335260115606935,NA,NA
92782,Orange County,CA,NA,76.878612716763,NA,NA
92804,Orange County,CA,NA,NA,NA,22.14022140221402
92805,Orange County,CA,NA,NA,39.79779411764706,NA
92833,Orange County,CA,NA,47.97687861271676,NA,NA
92865,Orange County,CA,NA,NA,82.53676470588235,NA
92867,Orange County,CA,NA,NA,NA,69.00369003690037
92883,Riverside County,CA,NA,NA,59.466911764705884,NA
93023,Ventura County,CA,NA,NA,NA,53.69003690036901
93060,Ventura County,CA,NA,34.797687861271676,NA,NA
93230,Kings County,CA,NA,NA,14.338235294117647,NA
93245,Kings County,CA,NA,84.04624277456647,NA,NA
93312,Kern County,CA,NA,68.55491329479769,41.63602941176471,NA
93313,Kern County,CA,NA,49.59537572254335,NA,NA
93402,San Luis Obispo County,CA,NA,NA,75.64338235294117,NA
93458,Santa Barbara County,CA,NA,15.838150289017342,NA,NA
93514,Inyo County,CA,NA,86.01156069364163,NA,NA
93561,Kern County,CA,NA,NA,NA,59.22509225092251
93611,Fresno County,CA,NA,NA,NA,56.27306273062731
93614,Madera County,CA,NA,NA,NA,83.21033210332104
93630,Fresno County,CA,NA,NA,NA,97.04797047970479
93631,Fresno County,CA,NA,89.59537572254335,NA,NA
93637,Madera County,CA,NA,NA,54.96323529411765,NA
93646,Fresno County,CA,NA,NA,93.19852941176471,NA
93647,Tulare County,CA,NA,NA,NA,97.60147601476015
93654,Fresno County,CA,NA,NA,NA,66.78966789667896
93703,Fresno County,CA,NA,NA,55.60661764705882,NA
93710,Fresno County,CA,NA,NA,NA,41.69741697416974
93720,Fresno County,CA,21.468926553672315,NA,NA,NA
93722,Fresno County,CA,NA,NA,14.0625,NA
93927,Monterey County,CA,NA,72.02312138728324,NA,NA
93940,Monterey County,CA,NA,50.05780346820809,NA,NA
94014,San Mateo County,CA,89.83050847457628,43.00578034682081,NA,NA
94025,San Mateo County,CA,NA,NA,NA,24.907749077490777
94062,San Mateo County,CA,NA,52.832369942196536,47.70220588235294,NA
94102,San Francisco County,CA,NA,8.786127167630058,NA,76.38376383763837
94107,San Francisco County,CA,NA,41.73410404624278,NA,NA
94109,San Francisco County,CA,NA,NA,61.029411764705884,NA
94110,San Francisco County,CA,NA,39.53757225433526,NA,NA
94112,San Francisco County,CA,NA,NA,74.72426470588235,NA
94114,San Francisco County,CA,NA,NA,50.82720588235294,50
94117,San Francisco County,CA,NA,NA,40.349264705882355,NA
94131,San Francisco County,CA,NA,NA,NA,56.64206642066421
94303,San Mateo County,CA,NA,26.1271676300578,NA,NA
94501,Alameda County,CA,NA,NA,41.81985294117647,NA
94507,Contra Costa County,CA,NA,NA,89.52205882352942,NA
94513,Contra Costa County,CA,NA,NA,NA,26.014760147601475
94536,Alameda County,CA,NA,NA,20.955882352941178,NA
94538,Alameda County,CA,NA,NA,41.45220588235294,NA
94542,Alameda County,CA,NA,NA,NA,99.07749077490774
94547,Contra Costa County,CA,NA,87.28323699421965,NA,NA
94549,Contra Costa County,CA,NA,NA,55.79044117647059,NA
94558,Napa County,CA,NA,NA,6.525735294117648,NA
94560,Alameda County,CA,98.30508474576271,NA,NA,38.56088560885609
94566,Alameda County,CA,NA,NA,35.018382352941174,NA
94571,Solano County,CA,NA,NA,NA,59.77859778597786
94577,Alameda County,CA,NA,NA,31.801470588235293,31.73431734317343
94580,Alameda County,CA,NA,NA,NA,57.38007380073801
94582,Contra Costa County,CA,53.672316384180796,NA,NA,NA
94583,Contra Costa County,CA,NA,49.36416184971098,NA,NA
94585,Solano County,CA,NA,NA,71.23161764705883,NA
94590,Solano County,CA,NA,26.473988439306357,NA,NA
94591,Solano County,CA,NA,NA,70.03676470588235,18.81918819188192
94602,Alameda County,CA,NA,NA,55.79044117647059,NA
94605,Alameda County,CA,NA,NA,82.90441176470588,NA
94608,Alameda County,CA,NA,NA,48.62132352941176,NA
94611,Alameda County,CA,NA,NA,NA,28.044280442804425
94618,Alameda County,CA,NA,NA,NA,70.11070110701108
94702,Alameda County,CA,NA,NA,89.0625,NA
94706,Alameda County,CA,NA,NA,NA,94.8339483394834
94708,Alameda County,CA,NA,NA,82.16911764705883,NA
94960,Marin County,CA,NA,NA,78.76838235294117,NA
94965,Marin County,CA,NA,NA,NA,77.49077490774908
95014,Santa Clara County,CA,NA,NA,58.91544117647059,NA
95050,Santa Clara County,CA,NA,67.05202312138728,55.97426470588235,NA
95051,Santa Clara County,CA,NA,42.3121387283237,NA,NA
95076,Santa Cruz County,CA,NA,NA,16.544117647058822,NA
95112,Santa Clara County,CA,NA,NA,71.04779411764706,NA
95121,Santa Clara County,CA,NA,NA,53.76838235294118,NA
95124,Santa Clara County,CA,92.65536723163842,NA,NA,NA
95129,Santa Clara County,CA,NA,NA,NA,41.14391143911439
95138,Santa Clara County,CA,NA,NA,86.21323529411765,NA
95148,Santa Clara County,CA,NA,NA,40.07352941176471,NA
95327,Tuolumne County,CA,NA,NA,54.6875,NA
95337,San Joaquin County,CA,NA,NA,91.63602941176471,NA
95348,Merced County,CA,NA,NA,62.31617647058824,NA
95361,Stanislaus County,CA,NA,NA,28.03308823529412,NA
95367,Stanislaus County,CA,NA,NA,92.1875,NA
95368,Stanislaus County,CA,NA,NA,89.70588235294117,NA
95370,Tuolumne County,CA,NA,NA,NA,6.642066420664207
95377,San Joaquin County,CA,80.7909604519774,NA,NA,NA
95401,Sonoma County,CA,NA,NA,NA,39.48339483394834
95403,Sonoma County,CA,NA,NA,36.48897058823529,NA
95404,Sonoma County,CA,NA,NA,60.56985294117647,NA
95405,Sonoma County,CA,NA,NA,52.66544117647059,NA
95409,Sonoma County,CA,NA,NA,45.86397058823529,NA
95453,Lake County,CA,NA,69.94219653179191,NA,NA
95454,Mendocino County,CA,NA,99.88439306358381,NA,NA
95476,Sonoma County,CA,NA,NA,32.8125,NA
95492,Sonoma County,CA,NA,NA,NA,78.22878228782287
95531,Del Norte County,CA,NA,58.95953757225434,NA,NA
95603,Placer County,CA,NA,NA,43.658088235294116,82.65682656826569
95632,Sacramento County,CA,NA,NA,39.43014705882353,NA
95677,Placer County,CA,NA,NA,NA,97.97047970479706
95678,Placer County,CA,NA,NA,31.066176470588236,NA
95682,El Dorado County,CA,NA,54.68208092485549,NA,NA
95687,Solano County,CA,NA,NA,20.863970588235293,NA
95762,El Dorado County,CA,NA,87.74566473988439,NA,NA
95822,Sacramento County,CA,NA,NA,40.533088235294116,NA
95826,Sacramento County,CA,NA,NA,53.033088235294116,NA
95828,Sacramento County,CA,NA,NA,64.24632352941177,NA
95829,Sacramento County,CA,NA,NA,85.20220588235294,NA
95831,Sacramento County,CA,NA,NA,NA,86.53136531365314
95954,Butte County,CA,NA,NA,NA,33.025830258302584
95987,Colusa County,CA,NA,NA,99.35661764705883,NA
95993,Sutter County,CA,NA,73.98843930635837,NA,NA
96002,Shasta County,CA,NA,NA,NA,76.56826568265683
96003,Shasta County,CA,NA,NA,22.977941176470587,NA
96067,Siskiyou County,CA,NA,NA,83.73161764705883,NA
96097,Siskiyou County,CA,NA,80.23121387283237,NA,NA
80005,Jefferson County,CO,NA,81.27167630057804,NA,NA
80014,Arapahoe County,CO,NA,NA,NA,9.59409594095941
80021,Jefferson County,CO,29.37853107344633,NA,NA,NA
80027,Boulder County,CO,NA,NA,79.6875,NA
80108,Douglas County,CO,NA,NA,83.08823529411765,NA
80120,Arapahoe County,CO,NA,NA,46.69117647058824,NA
80132,El Paso County,CO,NA,NA,56.158088235294116,NA
80209,Denver County,CO,NA,NA,95.68014705882352,NA
80219,Denver County,CO,NA,NA,21.231617647058822,NA
80226,Jefferson County,CO,NA,NA,73.89705882352942,NA
80233,Adams County,CO,NA,NA,48.80514705882353,NA
80401,Jefferson County,CO,64.97175141242938,34.68208092485549,47.05882352941176,NA
80439,Jefferson County,CO,66.66666666666666,NA,NA,NA
80501,Boulder County,CO,25.98870056497175,NA,NA,NA
80504,Boulder County,CO,NA,NA,23.161764705882355,NA
80524,Larimer County,CO,NA,NA,NA,39.66789667896679
80526,Larimer County,CO,22.033898305084744,NA,NA,NA
80534,Weld County,CO,NA,66.93641618497111,NA,NA
80538,Larimer County,CO,NA,NA,7.44485294117647,NA
80550,Weld County,CO,NA,NA,86.39705882352942,NA
80601,Adams County,CO,NA,NA,36.029411764705884,NA
80603,Weld County,CO,NA,NA,NA,97.60147601476015
80634,Weld County,CO,NA,3.121387283236994,1.4705882352941175,NA
80907,El Paso County,CO,NA,50.7514450867052,NA,NA
80918,El Paso County,CO,NA,NA,32.169117647058826,NA
81004,Pueblo County,CO,NA,NA,27.941176470588236,NA
81007,Pueblo County,CO,NA,43.58381502890173,NA,NA
81067,Otero County,CO,NA,NA,NA,91.14391143911439
81089,Huerfano County,CO,NA,NA,NA,83.94833948339483
81226,Fremont County,CO,NA,NA,NA,91.32841328413284
81416,Delta County,CO,NA,NA,NA,73.06273062730627
81504,Mesa County,CO,NA,NA,52.75735294117647,NA
81623,Garfield County,CO,NA,NA,62.13235294117647,NA
81635,Garfield County,CO,NA,96.64739884393063,NA,NA
06002,Hartford County,CT,NA,46.47398843930636,NA,NA
06010,Hartford County,CT,NA,2.1965317919075145,2.1139705882352944,NA
06029,Tolland County,CT,NA,54.21965317919075,NA,NA
06051,Hartford County,CT,NA,4.624277456647398,NA,NA
06084,Tolland County,CT,NA,74.91329479768785,NA,NA
06095,Hartford County,CT,NA,NA,NA,41.88191881918819
06106,Hartford County,CT,9.03954802259887,NA,NA,NA
06108,Hartford County,CT,90.96045197740112,NA,NA,NA
06114,Hartford County,CT,NA,18.265895953757223,NA,NA
06234,Windham County,CT,NA,NA,68.38235294117648,NA
06260,Windham County,CT,NA,NA,42.463235294117645,NA
06403,New Haven County,CT,NA,NA,87.40808823529412,NA
06424,Middlesex County,CT,NA,NA,78.21691176470588,NA
06460,New Haven County,CT,NA,NA,14.981617647058822,NA
06475,Middlesex County,CT,NA,NA,55.14705882352941,NA
06480,Middlesex County,CT,NA,NA,70.40441176470588,NA
06483,New Haven County,CT,NA,60.69364161849711,55.51470588235294,NA
06489,Hartford County,CT,NA,59.76878612716763,16.452205882352942,36.715867158671585
06511,New Haven County,CT,NA,5.086705202312139,NA,NA
06515,New Haven County,CT,NA,NA,NA,37.08487084870848
06516,New Haven County,CT,NA,NA,3.125,NA
06517,New Haven County,CT,NA,NA,40.25735294117647,NA
06519,New Haven County,CT,NA,22.890173410404625,NA,NA
06605,Fairfield County,CT,NA,NA,57.904411764705884,NA
06615,Fairfield County,CT,NA,47.398843930635834,NA,NA
06705,New Haven County,CT,NA,NA,61.76470588235294,NA
06811,Fairfield County,CT,NA,73.17919075144509,NA,NA
06825,Fairfield County,CT,NA,NA,80.23897058823529,NA
06830,Fairfield County,CT,NA,NA,NA,12.915129151291513
19702,New Castle County,DE,NA,NA,17.463235294117645,52.2140221402214
19707,New Castle County,DE,NA,83.8150289017341,NA,NA
19711,New Castle County,DE,NA,NA,39.154411764705884,NA
19713,New Castle County,DE,NA,NA,NA,30.627306273062732
19901,Kent County,DE,NA,64.27745664739885,18.198529411764707,NA
19904,Kent County,DE,NA,14.797687861271678,NA,NA
19934,Kent County,DE,NA,69.2485549132948,NA,NA
19958,Sussex County,DE,NA,31.32947976878613,NA,NA
19963,Sussex County,DE,NA,32.601156069364166,NA,NA
19977,Kent County,DE,NA,NA,41.911764705882355,NA
32003,Clay County,FL,NA,NA,NA,58.30258302583026
32034,Nassau County,FL,NA,76.41618497109826,NA,NA
32043,Clay County,FL,NA,NA,NA,49.07749077490775
32065,Clay County,FL,NA,40,NA,NA
32068,Clay County,FL,NA,13.52601156069364,NA,NA
32080,St. Johns County,FL,NA,NA,NA,64.02214022140221
32086,St. Johns County,FL,NA,NA,17.738970588235293,NA
32129,Volusia County,FL,NA,NA,66.08455882352942,NA
32164,Flagler County,FL,NA,32.48554913294798,NA,NA
32208,Duval County,FL,NA,NA,5.422794117647059,NA
32211,Duval County,FL,NA,21.15606936416185,NA,NA
32218,Duval County,FL,NA,NA,3.0330882352941178,NA
32220,Duval County,FL,NA,NA,NA,75.83025830258303
32221,Duval County,FL,NA,83.9306358381503,32.536764705882355,NA
32224,Duval County,FL,NA,NA,41.268382352941174,NA
32226,Duval County,FL,NA,NA,NA,78.96678966789668
32233,Duval County,FL,NA,37.91907514450867,NA,NA
32244,Duval County,FL,NA,24.85549132947977,NA,NA
32246,Duval County,FL,NA,17.803468208092486,21.78308823529412,NA
32254,Duval County,FL,NA,NA,NA,90.40590405904058
32259,St. Johns County,FL,NA,NA,34.55882352941176,NA
32305,Leon County,FL,NA,59.65317919075145,NA,NA
32309,Leon County,FL,NA,NA,67.27941176470588,NA
32401,Bay County,FL,NA,NA,27.297794117647058,NA
32404,Bay County,FL,NA,NA,20.40441176470588,NA
32407,Bay County,FL,NA,NA,86.94852941176471,NA
32444,Bay County,FL,NA,88.09248554913295,NA,39.11439114391143
32514,Escambia County,FL,NA,23.00578034682081,NA,10.516605166051662
32533,Escambia County,FL,NA,NA,18.65808823529412,NA
32541,Okaloosa County,FL,NA,NA,NA,25.645756457564577
32563,Santa Rosa County,FL,NA,30.63583815028902,NA,NA
32577,Escambia County,FL,NA,NA,70.49632352941177,NA
32583,Santa Rosa County,FL,NA,NA,21.599264705882355,NA
32607,Alachua County,FL,NA,95.02890173410404,NA,NA
32608,Alachua County,FL,NA,NA,15.349264705882353,NA
32626,Levy County,FL,NA,88.78612716763006,NA,NA
32640,Putnam County,FL,NA,55.14450867052023,NA,NA
32643,Alachua County,FL,NA,NA,72.42647058823529,NA
32726,Lake County,FL,NA,NA,76.93014705882352,NA
32757,Lake County,FL,NA,NA,NA,33.579335793357934
32766,Seminole County,FL,NA,NA,95.77205882352942,NA
32773,Seminole County,FL,NA,46.01156069364162,NA,NA
32780,Brevard County,FL,NA,NA,NA,4.428044280442804
32784,Lake County,FL,NA,NA,63.41911764705882,NA
32796,Brevard County,FL,NA,NA,26.286764705882355,NA
32807,Orange County,FL,NA,73.29479768786126,NA,NA
32812,Orange County,FL,62.14689265536724,NA,NA,NA
32836,Orange County,FL,NA,91.21387283236994,NA,NA
32920,Brevard County,FL,NA,NA,68.84191176470588,NA
32935,Brevard County,FL,NA,NA,NA,21.033210332103323
32940,Brevard County,FL,NA,NA,24.448529411764707,5.535055350553505
32968,Indian River County,FL,NA,78.72832369942196,NA,NA
33012,Miami-Dade County,FL,NA,41.84971098265896,NA,NA
33021,Broward County,FL,NA,NA,22.610294117647058,NA
33028,Broward County,FL,NA,NA,NA,90.7749077490775
33036,Monroe County,FL,NA,NA,88.60294117647058,NA
33050,Monroe County,FL,NA,NA,57.44485294117647,NA
33064,Broward County,FL,NA,NA,79.59558823529412,NA
33069,Broward County,FL,NA,64.62427745664739,NA,NA
33128,Miami-Dade County,FL,NA,NA,NA,74.16974169741697
33157,Miami-Dade County,FL,NA,32.947976878612714,NA,NA
33174,Miami-Dade County,FL,NA,70.63583815028902,NA,NA
33180,Miami-Dade County,FL,NA,NA,42.279411764705884,NA
33196,Miami-Dade County,FL,NA,NA,NA,46.494464944649444
33311,Broward County,FL,NA,NA,53.58455882352941,NA
33325,Broward County,FL,NA,NA,NA,77.12177121771218
33406,Palm Beach County,FL,NA,NA,98.25367647058823,NA
33428,Palm Beach County,FL,55.932203389830505,NA,NA,NA
33432,Palm Beach County,FL,NA,NA,NA,65.31365313653137
33446,Palm Beach County,FL,NA,NA,29.044117647058826,3.3210332103321036
33487,Palm Beach County,FL,NA,NA,39.338235294117645,NA
33511,Hillsborough County,FL,NA,35.83815028901734,NA,NA
33708,Pinellas County,FL,NA,89.94219653179191,NA,NA
33763,Pinellas County,FL,NA,NA,54.41176470588235,NA
33782,Pinellas County,FL,NA,65.08670520231213,NA,NA
33803,Polk County,FL,NA,NA,NA,32.10332103321033
33852,Highlands County,FL,NA,55.953757225433534,NA,NA
33853,Polk County,FL,NA,63.58381502890174,NA,NA
33859,Polk County,FL,NA,NA,63.78676470588235,77.85977859778598
33868,Polk County,FL,NA,NA,NA,85.23985239852398
33912,Lee County,FL,NA,82.42774566473989,NA,NA
33913,Lee County,FL,NA,NA,28.400735294117645,NA
33919,Lee County,FL,NA,NA,45.12867647058824,NA
33928,Lee County,FL,NA,80.57803468208093,NA,NA
33948,Charlotte County,FL,NA,80.46242774566474,NA,NA
33972,Lee County,FL,NA,83.23699421965318,NA,NA
33990,Lee County,FL,59.887005649717516,NA,NA,NA
33993,Lee County,FL,NA,46.936416184971094,NA,NA
34110,Collier County,FL,NA,100,NA,NA
34113,Collier County,FL,NA,NA,54.50367647058824,NA
34119,Collier County,FL,NA,40.346820809248555,NA,NA
34135,Lee County,FL,NA,NA,45.955882352941174,NA
34203,Manatee County,FL,NA,NA,20.128676470588236,NA
34208,Manatee County,FL,NA,NA,92.73897058823529,NA
34212,Manatee County,FL,NA,77.45664739884393,NA,NA
34232,Sarasota County,FL,NA,NA,30.422794117647058,NA
34236,Sarasota County,FL,NA,88.4393063583815,NA,NA
34238,Sarasota County,FL,NA,NA,NA,29.335793357933582
34266,DeSoto County,FL,NA,65.78034682080924,NA,NA
34285,Sarasota County,FL,NA,NA,18.106617647058822,NA
34287,Sarasota County,FL,NA,NA,27.75735294117647,NA
34429,Citrus County,FL,NA,92.3699421965318,NA,NA
34436,Citrus County,FL,NA,NA,77.75735294117648,NA
34450,Citrus County,FL,NA,NA,73.71323529411765,NA
34453,Citrus County,FL,NA,NA,89.15441176470588,NA
34480,Marion County,FL,NA,NA,NA,80.07380073800738
34610,Pasco County,FL,NA,NA,NA,91.69741697416974
34653,Pasco County,FL,NA,27.167630057803464,NA,NA
34684,Pinellas County,FL,NA,NA,43.01470588235294,NA
34690,Pasco County,FL,NA,NA,76.83823529411765,NA
34698,Pinellas County,FL,NA,NA,NA,15.867158671586715
34711,Lake County,FL,NA,NA,4.044117647058823,NA
34748,Lake County,FL,NA,NA,NA,16.789667896678967
34761,Orange County,FL,NA,NA,NA,27.85977859778598
34787,Orange County,FL,83.05084745762711,NA,NA,NA
34982,St. Lucie County,FL,NA,77.80346820809248,NA,NA
34986,St. Lucie County,FL,NA,46.358381502890175,22.794117647058822,NA
34994,Martin County,FL,NA,NA,46.04779411764706,NA
30004,Fulton County,GA,NA,39.76878612716763,32.904411764705884,NA
30019,Gwinnett County,GA,NA,NA,37.86764705882353,NA
30022,Fulton County,GA,NA,38.15028901734104,NA,49.2619926199262
30024,Gwinnett County,GA,NA,NA,23.4375,NA
30025,Walton County,GA,NA,NA,82.62867647058823,98.33948339483395
30032,DeKalb County,GA,NA,13.872832369942195,NA,NA
30038,DeKalb County,GA,NA,NA,46.04779411764706,NA
30039,Gwinnett County,GA,NA,36.99421965317919,NA,NA
30040,Forsyth County,GA,NA,NA,18.38235294117647,NA
30043,Gwinnett County,GA,NA,NA,64.15441176470588,NA
30044,Gwinnett County,GA,NA,NA,13.970588235294118,NA
30047,Gwinnett County,GA,NA,NA,58.18014705882353,NA
30052,Walton County,GA,NA,NA,NA,23.616236162361623
30054,Newton County,GA,NA,NA,65.07352941176471,NA
30058,DeKalb County,GA,NA,NA,26.65441176470588,NA
30062,Cobb County,GA,NA,NA,46.599264705882355,NA
30075,Fulton County,GA,NA,36.41618497109826,18.566176470588236,NA
30076,Fulton County,GA,NA,NA,NA,63.65313653136532
30078,Gwinnett County,GA,NA,NA,74.54044117647058,NA
30087,DeKalb County,GA,NA,NA,NA,28.413284132841326
30097,Fulton County,GA,41.24293785310734,NA,NA,NA
30102,Cherokee County,GA,NA,NA,28.952205882352942,NA
30114,Cherokee County,GA,NA,NA,NA,34.50184501845018
30116,Carroll County,GA,NA,93.98843930635839,47.518382352941174,NA
30126,Cobb County,GA,NA,NA,NA,62.54612546125461
30132,Paulding County,GA,NA,NA,33.91544117647059,NA
30141,Paulding County,GA,NA,65.3179190751445,NA,NA
30152,Cobb County,GA,NA,NA,40.900735294117645,NA
30153,Polk County,GA,NA,70.40462427745665,NA,NA
30161,Floyd County,GA,NA,NA,19.852941176470587,NA
30180,Carroll County,GA,NA,22.3121387283237,NA,NA
30188,Cherokee County,GA,NA,21.61849710982659,NA,NA
30206,Pike County,GA,97.74011299435028,NA,NA,NA
30215,Fayette County,GA,79.66101694915254,NA,NA,NA
30228,Henry County,GA,NA,28.55491329479769,NA,NA
30238,Clayton County,GA,NA,50.52023121387283,NA,NA
30265,Coweta County,GA,NA,48.67052023121387,NA,NA
30281,Henry County,GA,NA,NA,17.09558823529412,NA
30294,DeKalb County,GA,NA,39.19075144508671,NA,NA
30328,Fulton County,GA,NA,NA,67.09558823529412,NA
30331,Fulton County,GA,NA,NA,7.536764705882352,NA
30341,DeKalb County,GA,NA,66.58959537572254,NA,NA
30458,Bulloch County,GA,NA,NA,NA,52.02952029520295
30461,Bulloch County,GA,NA,72.60115606936417,NA,NA
30474,Toombs County,GA,NA,NA,NA,72.50922509225092
30504,Hall County,GA,NA,NA,72.24264705882352,NA
30506,Hall County,GA,NA,NA,18.75,NA
30518,Gwinnett County,GA,30.508474576271187,NA,NA,NA
30519,Gwinnett County,GA,45.76271186440678,NA,30.05514705882353,NA
30533,Lumpkin County,GA,NA,NA,42.830882352941174,NA
30542,Hall County,GA,48.0225988700565,NA,NA,NA
30577,Stephens County,GA,NA,NA,65.44117647058823,NA
30606,Clarke County,GA,NA,36.531791907514446,NA,NA
30734,Gordon County,GA,NA,98.84393063583815,NA,NA
30752,Dade County,GA,NA,56.41618497109827,NA,NA
30809,Columbia County,GA,NA,NA,11.76470588235294,NA
30813,Columbia County,GA,24.858757062146893,NA,NA,NA
31023,Dodge County,GA,NA,72.3699421965318,NA,NA
31093,Houston County,GA,NA,NA,30.698529411764707,NA
31210,Bibb County,GA,NA,NA,54.31985294117647,NA
31405,Chatham County,GA,NA,47.28323699421965,NA,NA
31419,Chatham County,GA,NA,NA,30.514705882352942,NA
31523,Glynn County,GA,NA,82.54335260115607,NA,NA
31548,Camden County,GA,NA,53.872832369942195,NA,NA
31794,Tift County,GA,45.19774011299435,NA,NA,NA
31822,Harris County,GA,NA,NA,87.59191176470588,NA
31906,Muscogee County,GA,NA,38.61271676300578,NA,NA
31907,Muscogee County,GA,NA,NA,2.941176470588235,NA
39837,Miller County,GA,NA,71.09826589595376,NA,NA
96744,Honolulu County,HI,NA,NA,78.30882352941177,NA
96771,Hawaii County,HI,NA,NA,97.51838235294117,NA
96816,Honolulu County,HI,NA,NA,16.268382352941178,NA
96819,Honolulu County,HI,NA,NA,13.602941176470587,NA
96822,Honolulu County,HI,NA,NA,18.474264705882355,NA
96825,Honolulu County,HI,NA,NA,NA,46.309963099631
96826,Honolulu County,HI,NA,NA,64.33823529411765,NA
83201,Bannock County,ID,NA,22.196531791907514,83.54779411764706,NA
83202,Bannock County,ID,NA,NA,NA,72.14022140221402
83204,Bannock County,ID,NA,50.86705202312138,NA,NA
83211,Power County,ID,88.70056497175142,NA,97.33455882352942,NA
83274,Bingham County,ID,NA,NA,96.41544117647058,NA
83301,Twin Falls County,ID,NA,4.393063583815029,11.305147058823529,NA
83333,Blaine County,ID,NA,NA,57.720588235294116,73.98523985239852
83338,Jerome County,ID,NA,88.90173410404626,75.09191176470588,NA
83401,Bonneville County,ID,NA,60.115606936416185,38.419117647058826,45.94095940959409
83616,Ada County,ID,NA,NA,38.69485294117647,NA
83638,Valley County,ID,NA,NA,73.34558823529412,NA
83661,Payette County,ID,NA,NA,87.22426470588235,NA
83686,Canyon County,ID,NA,9.017341040462428,NA,NA
83705,Ada County,ID,NA,NA,67.00367647058823,NA
83709,Ada County,ID,NA,16.99421965317919,4.31985294117647,NA
83713,Ada County,ID,32.20338983050847,NA,NA,NA
83714,Ada County,ID,NA,NA,13.878676470588236,NA
83805,Boundary County,ID,NA,96.878612716763,NA,NA
83843,Latah County,ID,NA,NA,NA,62.36162361623616
83864,Bonner County,ID,NA,NA,47.97794117647059,NA
60004,Cook County,IL,NA,23.930635838150287,NA,NA
60007,Cook County,IL,NA,78.15028901734105,NA,NA
60010,Lake County,IL,NA,NA,NA,16.974169741697416
60014,McHenry County,IL,NA,NA,13.419117647058822,NA
60015,Lake County,IL,NA,NA,24.264705882352942,NA
60016,Cook County,IL,NA,NA,NA,7.7490774907749085
60033,McHenry County,IL,NA,68.32369942196533,NA,NA
60035,Lake County,IL,74.01129943502825,NA,12.5,2.3985239852398523
60046,Lake County,IL,NA,NA,23.621323529411764,40.405904059040594
60047,Lake County,IL,NA,NA,NA,84.87084870848709
60060,Lake County,IL,NA,NA,NA,42.988929889298895
60068,Cook County,IL,NA,69.59537572254335,NA,19.557195571955717
60081,McHenry County,IL,NA,NA,72.42647058823529,NA
60089,Lake County,IL,NA,NA,NA,16.236162361623617
60099,Lake County,IL,NA,NA,71.50735294117648,NA
60110,Kane County,IL,73.44632768361582,NA,NA,NA
60133,Cook County,IL,NA,41.61849710982659,NA,NA
60137,DuPage County,IL,NA,32.138728323699425,NA,NA
60156,McHenry County,IL,NA,NA,NA,92.619926199262
60169,Cook County,IL,NA,45.31791907514451,NA,NA
60202,Cook County,IL,63.2768361581921,NA,NA,NA
60401,Will County,IL,NA,82.89017341040463,NA,NA
60410,Will County,IL,NA,NA,94.57720588235294,NA
60411,Cook County,IL,NA,NA,NA,53.50553505535055
60426,Cook County,IL,NA,NA,NA,51.66051660516605
60435,Will County,IL,NA,NA,9.466911764705882,NA
60438,Cook County,IL,NA,42.08092485549133,35.11029411764706,NA
60441,Will County,IL,NA,NA,26.47058823529412,NA
60448,Will County,IL,NA,NA,NA,47.0479704797048
60450,Grundy County,IL,NA,NA,85.75367647058823,NA
60451,Will County,IL,NA,20.346820809248555,NA,NA
60453,Cook County,IL,NA,NA,NA,5.350553505535055
60473,Cook County,IL,78.53107344632768,NA,NA,NA
60477,Cook County,IL,NA,25.549132947976876,NA,NA
60501,Cook County,IL,NA,86.9364161849711,NA,NA
60504,DuPage County,IL,NA,33.98843930635838,NA,NA
60506,Kane County,IL,NA,25.08670520231214,NA,NA
60540,DuPage County,IL,46.89265536723164,NA,NA,NA
60544,Will County,IL,NA,35.95375722543353,NA,NA
60559,DuPage County,IL,NA,NA,44.025735294117645,NA
60586,Will County,IL,NA,16.416184971098264,NA,NA
60607,Cook County,IL,NA,NA,44.669117647058826,NA
60608,Cook County,IL,NA,NA,NA,33.39483394833948
60611,Cook County,IL,NA,97.10982658959537,NA,NA
60612,Cook County,IL,NA,19.653179190751445,NA,NA
60614,Cook County,IL,NA,21.734104046242773,NA,NA
60617,Cook County,IL,NA,7.976878612716763,NA,NA
60618,Cook County,IL,NA,9.248554913294797,NA,NA
60623,Cook County,IL,NA,NA,11.121323529411764,14.575645756457565
60625,Cook County,IL,NA,12.023121387283236,NA,NA
60630,Cook County,IL,NA,NA,NA,88.92988929889299
60631,Cook County,IL,NA,NA,44.94485294117647,NA
60634,Cook County,IL,NA,NA,7.6286764705882355,8.671586715867159
60640,Cook County,IL,NA,9.826589595375722,NA,NA
60645,Cook County,IL,NA,34.45086705202312,NA,NA
60655,Cook County,IL,NA,NA,63.87867647058824,72.69372693726937
60804,Cook County,IL,86.4406779661017,NA,12.683823529411764,NA
60914,Kankakee County,IL,NA,NA,18.933823529411764,61.99261992619927
61008,Boone County,IL,50.847457627118644,NA,NA,NA
61072,Winnebago County,IL,NA,NA,88.14338235294117,NA
61081,Whiteside County,IL,NA,NA,14.246323529411764,NA
61103,Winnebago County,IL,NA,NA,76.74632352941177,NA
61241,Henry County,IL,NA,NA,NA,96.12546125461255
61244,Rock Island County,IL,NA,63.46820809248555,NA,NA
61252,Whiteside County,IL,NA,NA,96.13970588235294,NA
61341,LaSalle County,IL,NA,94.10404624277456,NA,NA
61443,Henry County,IL,NA,82.89017341040463,NA,NA
61520,Fulton County,IL,NA,69.82658959537572,NA,NA
61523,Peoria County,IL,NA,NA,74.17279411764706,NA
61604,Peoria County,IL,NA,38.26589595375722,NA,NA
61605,Peoria County,IL,57.06214689265536,NA,NA,NA
61616,Peoria County,IL,NA,NA,91.36029411764706,NA
61761,McLean County,IL,NA,38.03468208092485,NA,NA
61801,Champaign County,IL,NA,NA,NA,43.542435424354245
61874,Champaign County,IL,NA,NA,60.66176470588235,39.85239852398524
61938,Coles County,IL,NA,NA,NA,28.044280442804425
61944,Edgar County,IL,NA,NA,52.20588235294118,NA
61953,Douglas County,IL,NA,NA,NA,79.52029520295203
62010,Madison County,IL,NA,NA,66.08455882352942,NA
62062,Madison County,IL,NA,NA,93.47426470588235,NA
62208,St. Clair County,IL,NA,NA,62.5,57.93357933579336
62226,St. Clair County,IL,NA,NA,25.183823529411764,NA
62231,Clinton County,IL,NA,NA,NA,92.06642066420663
62249,Madison County,IL,96.045197740113,NA,NA,29.15129151291513
62269,St. Clair County,IL,NA,NA,70.22058823529412,NA
62286,Randolph County,IL,NA,NA,75.18382352941177,NA
62401,Effingham County,IL,NA,NA,51.74632352941176,NA
62650,Morgan County,IL,NA,NA,NA,31.918819188191883
62681,Schuyler County,IL,NA,NA,93.75,NA
62832,Perry County,IL,NA,NA,73.52941176470588,NA
62918,Williamson County,IL,NA,NA,72.70220588235294,NA
62966,Jackson County,IL,NA,NA,44.85294117647059,NA
46001,Madison County,IN,NA,NA,NA,95.38745387453874
46012,Madison County,IN,NA,NA,19.11764705882353,NA
46016,Madison County,IN,NA,NA,28.308823529411764,NA
46017,Madison County,IN,NA,NA,NA,78.78228782287823
46033,Hamilton County,IN,NA,NA,91.17647058823529,NA
46037,Hamilton County,IN,NA,NA,NA,66.42066420664207
46038,Hamilton County,IN,52.54237288135594,NA,NA,59.040590405904055
46041,Clinton County,IN,NA,63.69942196531792,NA,NA
46062,Hamilton County,IN,67.79661016949152,NA,NA,40.959409594095945
46142,Johnson County,IN,NA,NA,42.095588235294116,NA
46151,Morgan County,IN,NA,24.393063583815028,19.577205882352942,NA
46168,Hendricks County,IN,NA,NA,49.908088235294116,NA
46217,Marion County,IN,NA,76.99421965317919,NA,NA
46220,Marion County,IN,NA,NA,NA,47.601476014760145
46221,Marion County,IN,NA,27.51445086705202,NA,NA
46222,Marion County,IN,NA,49.71098265895954,NA,NA
46224,Marion County,IN,NA,NA,46.875,NA
46227,Marion County,IN,NA,NA,NA,3.8745387453874542
46307,Lake County,IN,NA,NA,1.1948529411764706,NA
46312,Lake County,IN,NA,62.89017341040463,NA,NA
46322,Lake County,IN,NA,23.468208092485547,NA,NA
46342,Lake County,IN,NA,NA,12.132352941176471,NA
46356,Lake County,IN,NA,28.670520231213874,NA,NA
46360,LaPorte County,IN,NA,NA,NA,17.89667896678967
46368,Porter County,IN,NA,NA,1.2867647058823528,NA
46375,Lake County,IN,12.429378531073446,NA,NA,22.324723247232473
46394,Lake County,IN,NA,79.07514450867052,51.28676470588235,NA
46405,Lake County,IN,NA,NA,NA,90.95940959409594
46538,Kosciusko County,IN,NA,NA,NA,92.619926199262
46580,Kosciusko County,IN,NA,NA,NA,26.937269372693727
46582,Kosciusko County,IN,NA,NA,71.69117647058823,NA
46619,St. Joseph County,IN,NA,NA,63.60294117647059,NA
46725,Whitley County,IN,NA,27.976878612716767,20.036764705882355,NA
46733,Adams County,IN,NA,NA,44.76102941176471,NA
46755,Noble County,IN,NA,74.21965317919074,NA,NA
46777,Wells County,IN,NA,NA,88.41911764705883,NA
46792,Huntington County,IN,NA,NA,99.26470588235294,NA
46807,Allen County,IN,NA,48.554913294797686,NA,NA
46825,Allen County,IN,NA,NA,26.19485294117647,NA
46835,Allen County,IN,NA,NA,10.11029411764706,NA
46845,Allen County,IN,NA,NA,NA,42.61992619926199
46901,Howard County,IN,NA,2.4277456647398843,44.20955882352941,NA
46902,Howard County,IN,NA,NA,3.308823529411765,7.195571955719557
46952,Grant County,IN,NA,NA,5.790441176470589,NA
46970,Miami County,IN,NA,10.635838150289018,21.50735294117647,NA
47025,Dearborn County,IN,33.89830508474576,NA,NA,NA
47130,Clark County,IN,NA,10.520231213872833,27.849264705882355,28.96678966789668
47167,Washington County,IN,NA,96.41618497109826,NA,NA
47172,Clark County,IN,NA,NA,NA,99.2619926199262
47201,Bartholomew County,IN,1.1299435028248588,NA,NA,NA
47203,Bartholomew County,IN,NA,33.52601156069364,NA,NA
47240,Decatur County,IN,NA,30.520231213872833,NA,NA
47274,Jackson County,IN,NA,NA,63.970588235294116,NA
47374,Wayne County,IN,NA,NA,24.080882352941178,NA
47401,Monroe County,IN,NA,85.54913294797689,NA,NA
47404,Monroe County,IN,NA,NA,95.3125,NA
47446,Lawrence County,IN,NA,NA,NA,78.41328413284133
47542,Dubois County,IN,NA,NA,74.90808823529412,NA
47546,Dubois County,IN,NA,NA,NA,65.12915129151291
47567,Pike County,IN,NA,NA,83.91544117647058,NA
47805,Vigo County,IN,NA,58.03468208092486,72.24264705882352,NA
50158,Marshall County,IA,NA,55.49132947976878,NA,NA
50309,Polk County,IA,NA,55.722543352601164,NA,NA
50311,Polk County,IA,NA,87.861271676300575,NA,NA
50313,Polk County,IA,NA,68.78612716763006,NA,NA
50315,Polk County,IA,18.07909604519774,NA,NA,NA
50316,Polk County,IA,NA,38.84393063583815,NA,NA
50703,Black Hawk County,IA,NA,26.358381502890172,NA,NA
51031,Plymouth County,IA,NA,NA,NA,45.38745387453875
51106,Woodbury County,IA,NA,NA,NA,36.53136531365313
51301,Clay County,IA,NA,49.82658959537572,NA,NA
51501,Pottawattamie County,IA,NA,19.07514450867052,NA,67.89667896678966
51503,Pottawattamie County,IA,NA,NA,3.860294117647059,NA
51559,Pottawattamie County,IA,NA,99.07514450867052,NA,NA
51566,Montgomery County,IA,NA,NA,96.78308823529412,NA
52349,Benton County,IA,NA,NA,82.72058823529412,NA
52403,Linn County,IA,NA,NA,37.591911764705884,30.996309963099634
52404,Linn County,IA,NA,9.710982658959537,NA,NA
52405,Linn County,IA,NA,NA,40.07352941176471,NA
52531,Monroe County,IA,NA,NA,82.16911764705883,NA
52641,Henry County,IA,NA,NA,52.84926470588235,NA
52748,Scott County,IA,84.7457627118644,NA,NA,NA
52806,Scott County,IA,27.683615819209038,NA,NA,NA
66002,Atchison County,KS,NA,NA,56.43382352941176,NA
66007,Leavenworth County,KS,NA,NA,82.99632352941177,NA
66032,Anderson County,KS,NA,NA,94.20955882352942,NA
66049,Douglas County,KS,NA,NA,NA,51.107011070110694
66061,Johnson County,KS,NA,20.23121387283237,NA,NA
66062,Johnson County,KS,NA,11.445086705202312,NA,NA
66067,Franklin County,KS,NA,54.45086705202312,NA,NA
66071,Miami County,KS,NA,NA,79.13602941176471,NA
66434,Brown County,KS,NA,NA,87.04044117647058,NA
66609,Shawnee County,KS,NA,NA,84.46691176470588,NA
67042,Butler County,KS,NA,NA,59.466911764705884,NA
67052,Sedgwick County,KS,NA,NA,93.56617647058823,NA
67068,Kingman County,KS,NA,98.84393063583815,NA,NA
67114,Harvey County,KS,NA,92.02312138728324,NA,NA
67205,Sedgwick County,KS,NA,NA,84.55882352941177,NA
67212,Sedgwick County,KS,NA,59.42196531791908,NA,44.095940959409596
67216,Sedgwick County,KS,NA,72.138728323699425,NA,NA
67230,Sedgwick County,KS,NA,NA,96.875,NA
67301,Montgomery County,KS,NA,NA,NA,96.49446494464945
67337,Montgomery County,KS,NA,NA,69.39338235294117,NA
67439,Ellsworth County,KS,NA,NA,98.4375,NA
67501,Reno County,KS,NA,87.6300578034682,NA,NA
67530,Barton County,KS,NA,NA,NA,63.46863468634686
67601,Ellis County,KS,11.864406779661017,NA,NA,8.118081180811808
67654,Norton County,KS,NA,NA,98.71323529411765,NA
67846,Finney County,KS,NA,NA,54.779411764705884,NA
40014,Oldham County,KY,NA,67.86127167630059,61.48897058823529,NA
40031,Oldham County,KY,NA,30.057803468208093,NA,NA
40033,Marion County,KY,NA,54.91329479768786,NA,NA
40047,Bullitt County,KY,NA,27.28323699421965,NA,NA
40057,Henry County,KY,91.52542372881356,95.26011560693641,NA,NA
40165,Bullitt County,KY,NA,NA,48.89705882352941,NA
40203,Jefferson County,KY,NA,21.271676300578036,NA,NA
40205,Jefferson County,KY,NA,78.4971098265896,NA,NA
40207,Jefferson County,KY,NA,NA,31.34191176470588,NA
40212,Jefferson County,KY,NA,24.508670520231213,34.55882352941176,NA
40219,Jefferson County,KY,NA,NA,21.875,NA
40222,Jefferson County,KY,NA,NA,60.38602941176471,NA
40223,Jefferson County,KY,NA,NA,42.279411764705884,50.7380073800738
40258,Jefferson County,KY,NA,NA,36.856617647058826,NA
40272,Jefferson County,KY,NA,15.028901734104046,15.900735294117647,NA
40330,Mercer County,KY,NA,NA,NA,40.774907749077485
40353,Montgomery County,KY,NA,NA,NA,36.34686346863469
40361,Bourbon County,KY,NA,34.566473988439306,NA,NA
40391,Clark County,KY,NA,9.132947976878611,NA,NA
40403,Madison County,KY,NA,NA,NA,23.985239852398525
40503,Fayette County,KY,NA,64.39306358381502,NA,NA
40508,Fayette County,KY,NA,31.445086705202314,NA,NA
40769,Whitley County,KY,NA,31.09826589595376,NA,NA
41011,Kenton County,KY,NA,NA,58.54779411764706,NA
41017,Kenton County,KY,NA,NA,19.669117647058822,NA
41018,Kenton County,KY,NA,24.161849710982658,NA,NA
41040,Pendleton County,KY,NA,63.93063583815029,NA,NA
41048,Boone County,KY,31.07344632768362,NA,NA,NA
41051,Kenton County,KY,NA,35.49132947976879,NA,NA
42041,Fulton County,KY,NA,NA,94.85294117647058,NA
42071,Calloway County,KY,NA,NA,NA,75.09225092250922
42101,Warren County,KY,NA,7.630057803468208,NA,NA
42141,Barren County,KY,NA,13.410404624277456,NA,NA
42261,Butler County,KY,NA,NA,95.95588235294117,NA
42301,Daviess County,KY,NA,10.289017341040463,NA,NA
42303,Daviess County,KY,NA,65.54913294797687,NA,NA
42445,Caldwell County,KY,NA,66.35838150289017,NA,NA
42503,Pulaski County,KY,NA,40.69364161849711,NA,NA
70001,Jefferson Parish,LA,NA,NA,57.8125,NA
70113,Orleans Parish,LA,NA,NA,65.07352941176471,NA
70121,Jefferson Parish,LA,NA,NA,55.60661764705882,NA
70128,Orleans Parish,LA,NA,NA,29.503676470588236,NA
70360,Terrebonne Parish,LA,NA,11.907514450867051,NA,NA
70392,St. Mary Parish,LA,NA,68.67052023121387,NA,NA
70427,Washington Parish,LA,NA,17.109826589595375,NA,NA
70512,St. Landry Parish,LA,NA,NA,71.59926470588235,NA
70520,Lafayette Parish,LA,NA,NA,43.106617647058826,NA
70554,Evangeline Parish,LA,NA,73.52601156069363,NA,NA
70560,Iberia Parish,LA,NA,NA,12.224264705882353,NA
70605,Calcasieu Parish,LA,NA,NA,27.205882352941174,NA
70611,Calcasieu Parish,LA,NA,NA,68.47426470588235,NA
70634,Beauregard Parish,LA,NA,23.699421965317917,NA,33.210332103321036
70663,Calcasieu Parish,LA,NA,NA,54.22794117647059,NA
70665,Calcasieu Parish,LA,NA,33.641618497109825,NA,NA
70714,East Baton Rouge Parish,LA,NA,22.77456647398844,NA,NA
70785,Livingston Parish,LA,NA,18.728323699421964,NA,NA
70814,East Baton Rouge Parish,LA,NA,32.83236994219653,NA,NA
70815,East Baton Rouge Parish,LA,NA,17.572254335260116,NA,NA
71047,Caddo Parish,LA,NA,NA,NA,98.8929889298893
71105,Caddo Parish,LA,NA,NA,NA,37.82287822878229
71112,Bossier Parish,LA,NA,14.219653179190752,NA,NA
71202,Ouachita Parish,LA,NA,NA,NA,46.86346863468634
71302,Rapides Parish,LA,NA,24.971098265895954,54.595588235294116,47.23247232472325
71322,Avoyelles Parish,LA,NA,NA,97.61029411764706,NA
71328,Rapides Parish,LA,NA,NA,95.58823529411765,NA
71360,Rapides Parish,LA,NA,NA,59.19117647058824,NA
71446,Vernon Parish,LA,NA,11.329479768786127,NA,NA
03904,York County,ME,NA,NA,52.38970588235294,NA
04039,Cumberland County,ME,NA,77.91907514450868,NA,NA
04043,York County,ME,NA,60.46242774566474,NA,NA
04073,York County,ME,NA,NA,29.963235294117645,NA
04074,Cumberland County,ME,NA,NA,NA,37.45387453874539
04086,Sagadahoc County,ME,NA,75.4913294797688,49.63235294117647,NA
04103,Cumberland County,ME,NA,NA,21.139705882352942,NA
04210,Androscoggin County,ME,NA,NA,8.54779411764706,NA
04240,Androscoggin County,ME,2.2598870056497176,NA,NA,NA
04330,Kennebec County,ME,NA,6.9364161849710975,NA,NA
04345,Kennebec County,ME,NA,NA,78.95220588235294,NA
04401,Penobscot County,ME,NA,NA,NA,0.9225092250922509
04412,Penobscot County,ME,NA,NA,NA,24.538745387453876
20603,Charles County,MD,NA,NA,83.08823529411765,NA
20639,Calvert County,MD,NA,NA,92.00367647058823,NA
20659,St. Mary's County,MD,NA,58.4971098265896,NA,NA
20716,Prince George's County,MD,NA,NA,97.24264705882352,NA
20814,Montgomery County,MD,70.05649717514125,NA,NA,NA
20852,Montgomery County,MD,NA,NA,84.09926470588235,NA
20855,Montgomery County,MD,NA,NA,90.53308823529412,NA
20874,Montgomery County,MD,NA,NA,56.80147058823529,NA
20879,Montgomery County,MD,NA,82.08092485549133,NA,NA
21014,Harford County,MD,NA,NA,28.676470588235293,NA
21206,Baltimore city,MD,NA,12.83236994219653,11.121323529411764,NA
21210,Baltimore city,MD,NA,NA,89.52205882352942,NA
21229,Baltimore city,MD,NA,64.85549132947976,19.301470588235293,NA
21532,Allegany County,MD,NA,NA,NA,72.32472324723247
21811,Worcester County,MD,NA,NA,24.90808823529412,NA
01030,Hampden County,MA,NA,NA,67.73897058823529,NA
01040,Hampden County,MA,NA,0.11560693641618498,NA,NA
01077,Hampden County,MA,NA,NA,80.51470588235294,NA
01085,Hampden County,MA,25.423728813559322,NA,NA,NA
01089,Hampden County,MA,NA,4.7398843930635834,NA,NA
01104,Hampden County,MA,NA,NA,NA,2.7675276752767526
01420,Worcester County,MA,NA,3.352601156069364,1.5625,NA
01431,Middlesex County,MA,NA,98.4971098265896,NA,NA
01463,Middlesex County,MA,NA,NA,48.4375,NA
01473,Worcester County,MA,NA,93.87283236994219,NA,NA
01545,Worcester County,MA,NA,NA,14.981617647058822,NA
01550,Worcester County,MA,NA,NA,2.849264705882353,NA
01570,Worcester County,MA,NA,51.79190751445086,NA,NA
01571,Worcester County,MA,NA,NA,99.54044117647058,NA
01604,Worcester County,MA,NA,1.0404624277456647,NA,NA
01605,Worcester County,MA,NA,10.982658959537572,NA,NA
01606,Worcester County,MA,NA,NA,47.88602941176471,NA
01610,Worcester County,MA,NA,0.5780346820809248,NA,NA
01702,Middlesex County,MA,NA,1.5028901734104045,NA,NA
01742,Middlesex County,MA,NA,NA,34.099264705882355,NA
01757,Worcester County,MA,NA,16.069364161849713,NA,NA
01775,Middlesex County,MA,NA,89.01734104046243,NA,NA
01830,Essex County,MA,NA,1.6184971098265895,NA,NA
01832,Essex County,MA,NA,3.9306358381502893,NA,NA
01843,Essex County,MA,1.694915254237288,NA,NA,NA
01850,Middlesex County,MA,NA,NA,18.290441176470587,NA
01876,Middlesex County,MA,NA,NA,2.2058823529411766,NA
01886,Middlesex County,MA,NA,NA,29.6875,NA
01902,Essex County,MA,NA,0.23121387283236997,NA,NA
01907,Essex County,MA,NA,NA,30.79044117647059,NA
01915,Essex County,MA,NA,1.8497109826589597,NA,NA
01921,Essex County,MA,NA,78.95953757225433,NA,NA
01923,Essex County,MA,NA,NA,NA,2.214022140221402
01930,Essex County,MA,NA,4.046242774566474,0.6433823529411764,NA
01951,Essex County,MA,NA,NA,94.66911764705883,NA
01970,Essex County,MA,NA,NA,0.5514705882352942,NA
02019,Norfolk County,MA,NA,NA,69.11764705882352,NA
02021,Norfolk County,MA,NA,NA,NA,8.302583025830259
02026,Norfolk County,MA,NA,5.433526011560693,NA,NA
02054,Norfolk County,MA,NA,NA,96.50735294117648,NA
02056,Norfolk County,MA,NA,NA,75,NA
02115,Suffolk County,MA,NA,NA,3.4926470588235294,NA
02119,Suffolk County,MA,0.5649717514124294,NA,85.38602941176471,NA
02120,Suffolk County,MA,NA,6.473988439306358,NA,NA
02124,Suffolk County,MA,NA,2.312138728323699,NA,NA
02125,Suffolk County,MA,NA,NA,NA,58.487084870848705
02126,Suffolk County,MA,NA,NA,NA,17.15867158671587
02131,Suffolk County,MA,NA,NA,NA,55.904059040590404
02139,Middlesex County,MA,NA,3.236994219653179,NA,NA
02149,Middlesex County,MA,NA,2.8901734104046244,88.41911764705883,NA
02150,Suffolk County,MA,NA,NA,0.7352941176470588,NA
02155,Middlesex County,MA,NA,1.2716763005780347,NA,NA
02176,Middlesex County,MA,NA,NA,NA,99.81549815498155
02180,Middlesex County,MA,NA,13.988439306358384,NA,NA
02184,Norfolk County,MA,NA,55.02890173410404,6.709558823529411,NA
02190,Norfolk County,MA,NA,74.33526011560694,NA,NA
02301,Plymouth County,MA,NA,0,1.9301470588235294,1.107011070110701
02346,Plymouth County,MA,NA,NA,10.753676470588236,27.30627306273063
02360,Plymouth County,MA,NA,1.1560693641618496,0.1838235294117647,NA
02364,Plymouth County,MA,NA,49.2485549132948,NA,NA
02368,Norfolk County,MA,NA,NA,4.963235294117647,NA
02458,Middlesex County,MA,NA,NA,44.57720588235294,NA
02474,Middlesex County,MA,NA,NA,23.253676470588236,NA
02481,Norfolk County,MA,NA,NA,98.62132352941177,NA
02482,Norfolk County,MA,NA,97.45664739884393,NA,NA
02492,Norfolk County,MA,NA,NA,59.74264705882353,NA
02494,Norfolk County,MA,NA,82.65895953757226,NA,NA
02532,Barnstable County,MA,NA,NA,49.81617647058824,NA
02536,Barnstable County,MA,40.67796610169492,NA,NA,NA
02540,Barnstable County,MA,NA,NA,NA,29.520295202952028
02559,Barnstable County,MA,NA,NA,NA,96.86346863468634
02563,Barnstable County,MA,NA,68.4393063583815,NA,NA
02576,Plymouth County,MA,NA,57.57225433526012,NA,NA
02601,Barnstable County,MA,NA,21.502890173410407,NA,NA
02632,Barnstable County,MA,NA,NA,NA,32.656826568265686
02649,Barnstable County,MA,NA,35.26011560693642,NA,52.767527675276746
02664,Barnstable County,MA,NA,NA,NA,31.54981549815498
02675,Barnstable County,MA,NA,NA,NA,41.32841328413284
02703,Bristol County,MA,NA,88.67052023121387,NA,27.67527675276753
02740,Bristol County,MA,NA,13.0635838150289,12.408088235294118,0.18450184501845018
02760,Bristol County,MA,NA,NA,10.569852941176471,NA
02766,Bristol County,MA,NA,NA,7.8125,NA
48021,Macomb County,MI,15.254237288135593,NA,NA,NA
48035,Macomb County,MI,14.124293785310735,NA,NA,NA
48038,Macomb County,MI,NA,14.566473988439308,4.595588235294118,NA
48040,St. Clair County,MI,NA,69.71098265895954,NA,NA
48043,Macomb County,MI,NA,NA,51.83823529411765,NA
48049,St. Clair County,MI,NA,90.7514450867052,NA,NA
48059,St. Clair County,MI,NA,64.62427745664739,NA,NA
48070,Oakland County,MI,NA,NA,92.64705882352942,NA
48073,Oakland County,MI,26.55367231638418,27.05202312138728,NA,NA
48074,St. Clair County,MI,NA,NA,NA,74.53874538745387
48075,Oakland County,MI,28.24858757062147,60.346820809248555,NA,NA
48083,Oakland County,MI,NA,NA,58.91544117647059,NA
48085,Oakland County,MI,NA,28.32369942196532,NA,NA
48089,Macomb County,MI,NA,NA,22.150735294117645,NA
48103,Washtenaw County,MI,NA,NA,NA,2.029520295202952
48105,Washtenaw County,MI,NA,NA,NA,2.5830258302583027
48114,Livingston County,MI,NA,NA,25.551470588235293,NA
48116,Livingston County,MI,NA,NA,14.522058823529413,12.730627306273062
48127,Wayne County,MI,NA,13.75722543352601,NA,NA
48130,Washtenaw County,MI,NA,NA,34.283088235294116,NA
48134,Wayne County,MI,88.13559322033898,NA,NA,NA
48150,Wayne County,MI,NA,NA,20.22058823529412,NA
48161,Monroe County,MI,5.084745762711865,NA,NA,NA
48162,Monroe County,MI,NA,NA,NA,44.83394833948339
48178,Oakland County,MI,NA,NA,NA,7.564575645756458
48185,Wayne County,MI,NA,6.589595375722543,NA,NA
48187,Wayne County,MI,NA,10.867052023121387,NA,NA
48188,Wayne County,MI,NA,NA,32.26102941176471,NA
48191,Washtenaw County,MI,NA,91.79190751445087,NA,NA
48193,Wayne County,MI,NA,NA,92.46323529411765,NA
48198,Washtenaw County,MI,NA,2.7745664739884393,NA,NA
48205,Wayne County,MI,NA,NA,13.419117647058822,NA
48207,Wayne County,MI,NA,NA,NA,16.605166051660518
48209,Wayne County,MI,NA,22.427745664739884,NA,NA
48219,Wayne County,MI,NA,NA,38.05147058823529,NA
48221,Wayne County,MI,NA,6.011560693641618,NA,NA
48224,Wayne County,MI,9.6045197740113,2.6589595375722546,NA,NA
48227,Wayne County,MI,NA,3.5838150289017343,6.893382352941177,NA
48228,Wayne County,MI,NA,NA,NA,31.18081180811808
48230,Wayne County,MI,58.75706214689266,NA,NA,NA
48235,Wayne County,MI,NA,16.53179190751445,NA,NA
48239,Wayne County,MI,7.909604519774012,NA,NA,NA
48301,Oakland County,MI,64.40677966101694,NA,NA,NA
48306,Oakland County,MI,NA,NA,21.047794117647058,NA
48314,Macomb County,MI,NA,39.653179190751445,NA,23.247232472324722
48317,Macomb County,MI,NA,21.84971098265896,NA,NA
48323,Oakland County,MI,87.00564971751412,NA,NA,NA
48327,Oakland County,MI,49.152542372881356,NA,NA,NA
48329,Oakland County,MI,NA,30.289017341040463,NA,NA
48334,Oakland County,MI,63.84180790960452,88.55491329479769,NA,NA
48356,Oakland County,MI,NA,NA,81.43382352941177,NA
48357,Oakland County,MI,NA,NA,68.56617647058823,NA
48380,Oakland County,MI,NA,NA,75.45955882352942,NA
48428,Lapeer County,MI,NA,89.2485549132948,NA,NA
48446,Lapeer County,MI,NA,NA,NA,53.874538745387454
48458,Genesee County,MI,NA,NA,NA,54.05904059040591
48503,Genesee County,MI,NA,NA,NA,67.52767527675276
48506,Genesee County,MI,NA,NA,69.02573529411765,NA
48509,Genesee County,MI,NA,76.64739884393063,NA,NA
48601,Saginaw County,MI,NA,2.0809248554913293,NA,NA
48602,Saginaw County,MI,NA,4.277456647398844,10.018382352941178,NA
48603,Saginaw County,MI,NA,NA,36.39705882352941,NA
48617,Clare County,MI,NA,NA,60.01838235294118,NA
48618,Midland County,MI,NA,NA,NA,97.41697416974169
48625,Clare County,MI,NA,26.705202312138727,NA,NA
48661,Ogemaw County,MI,NA,78.38150289017342,NA,NA
48706,Bay County,MI,NA,NA,0.9191176470588236,NA
48708,Bay County,MI,NA,8.554913294797688,6.985294117647059,NA
48726,Tuscola County,MI,NA,86.24277456647398,80.88235294117648,NA
48734,Saginaw County,MI,NA,81.96531791907515,NA,NA
48763,Iosco County,MI,NA,98.26589595375722,NA,NA
48768,Tuscola County,MI,NA,51.907514450867055,NA,NA
48827,Eaton County,MI,NA,NA,88.23529411764706,NA
48836,Livingston County,MI,NA,51.32947976878612,NA,NA
48838,Montcalm County,MI,NA,29.364161849710985,28.125,NA
48842,Ingham County,MI,NA,NA,34.19117647058824,NA
48848,Shiawassee County,MI,NA,83.69942196531792,NA,NA
48854,Ingham County,MI,NA,NA,NA,60.51660516605166
48858,Isabella County,MI,NA,NA,5.88235294117647,NA
48888,Montcalm County,MI,NA,80.11560693641619,NA,NA
48911,Ingham County,MI,NA,NA,NA,25.092250922509223
49004,Kalamazoo County,MI,NA,40.809248554913296,NA,NA
49009,Kalamazoo County,MI,NA,NA,34.00735294117647,NA
49010,Allegan County,MI,NA,40.92485549132948,NA,NA
49014,Calhoun County,MI,NA,19.537572254335263,NA,NA
49015,Calhoun County,MI,16.94915254237288,NA,NA,NA
49028,Branch County,MI,NA,NA,82.35294117647058,NA
49031,Cass County,MI,NA,NA,78.40073529411765,NA
49058,Barry County,MI,NA,28.208092485549134,NA,NA
49073,Barry County,MI,NA,NA,NA,95.5719557195572
49076,Eaton County,MI,NA,91.90751445086705,NA,NA
49078,Allegan County,MI,NA,75.14450867052022,NA,NA
49093,St. Joseph County,MI,NA,NA,89.88970588235294,NA
49103,Berrien County,MI,NA,NA,91.72794117647058,NA
49106,Berrien County,MI,NA,NA,93.10661764705883,NA
49202,Jackson County,MI,NA,NA,28.58455882352941,NA
49221,Lenawee County,MI,NA,NA,4.411764705882353,6.826568265682657
49250,Hillsdale County,MI,NA,NA,74.44852941176471,NA
49307,Mecosta County,MI,NA,NA,56.61764705882353,NA
49316,Kent County,MI,NA,47.861271676300575,NA,NA
49327,Newaygo County,MI,NA,NA,73.98897058823529,NA
49329,Montcalm County,MI,NA,54.33526011560693,60.75367647058824,NA
49337,Newaygo County,MI,NA,NA,NA,81.36531365313652
49341,Kent County,MI,NA,NA,23.713235294117645,NA
49343,Kent County,MI,NA,NA,NA,98.70848708487084
49346,Mecosta County,MI,NA,NA,66.08455882352942,NA
49349,Newaygo County,MI,NA,NA,72.15073529411765,NA
49404,Ottawa County,MI,NA,NA,91.36029411764706,NA
49412,Newaygo County,MI,NA,61.96531791907515,NA,NA
49417,Ottawa County,MI,NA,NA,5.514705882352941,NA
49421,Oceana County,MI,NA,78.15028901734105,NA,NA
49442,Muskegon County,MI,NA,19.30635838150289,44.48529411764706,NA
49457,Muskegon County,MI,NA,69.47976878612717,NA,NA
49464,Ottawa County,MI,NA,NA,33.36397058823529,NA
49503,Kent County,MI,10.16949152542373,NA,33.731617647058826,NA
49504,Kent County,MI,NA,15.953757225433526,NA,NA
49505,Kent County,MI,55.367231638418076,NA,NA,17.343173431734318
49508,Kent County,MI,NA,NA,NA,36.90036900369004
49519,Kent County,MI,NA,NA,27.02205882352941,NA
49525,Kent County,MI,NA,NA,NA,35.42435424354243
49546,Kent County,MI,NA,NA,NA,13.653136531365314
49548,Kent County,MI,NA,NA,12.683823529411764,NA
49801,Dickinson County,MI,NA,NA,NA,43.91143911439114
49855,Marquette County,MI,NA,NA,48.25367647058824,NA
49866,Marquette County,MI,NA,54.5664739884393,NA,NA
55075,Dakota County,MN,NA,38.72832369942196,NA,NA
55082,Washington County,MN,NA,NA,NA,42.435424354243544
55113,Ramsey County,MN,60.451977401129945,NA,NA,NA
55117,Ramsey County,MN,NA,NA,NA,75.64575645756457
55125,Washington County,MN,NA,NA,NA,35.608856088560884
55126,Ramsey County,MN,NA,57.22543352601156,NA,NA
55349,Wright County,MN,NA,98.38150289017341,NA,NA
55355,Meeker County,MN,NA,NA,NA,71.77121771217713
55398,Sherburne County,MN,66.66666666666666,NA,NA,NA
55410,Hennepin County,MN,NA,NA,81.25,NA
55411,Hennepin County,MN,NA,31.5606936416185,NA,NA
55412,Hennepin County,MN,NA,NA,35.56985294117647,NA
55418,Hennepin County,MN,NA,57.10982658959538,NA,45.571955719557195
55744,Itasca County,MN,NA,NA,6.341911764705882,NA
55806,St. Louis County,MN,NA,25.89595375722543,NA,NA
55811,St. Louis County,MN,NA,NA,NA,34.686346863468636
56101,Cottonwood County,MN,NA,NA,70.3125,NA
56143,Jackson County,MN,NA,90.63583815028902,NA,NA
56431,Aitkin County,MN,NA,NA,NA,24.723247232472325
56442,Crow Wing County,MN,NA,NA,NA,61.07011070110702
56468,Crow Wing County,MN,NA,NA,NA,89.66789667896678
56515,Otter Tail County,MN,NA,NA,87.5,NA
56560,Clay County,MN,NA,1.9653179190751446,NA,NA
38637,DeSoto County,MS,NA,NA,NA,69.74169741697416
38652,Union County,MS,NA,NA,90.25735294117648,NA
38655,Lafayette County,MS,NA,NA,NA,98.5239852398524
38801,Lee County,MS,NA,NA,NA,35.97785977859779
38804,Lee County,MS,NA,69.2485549132948,NA,NA
38829,Prentiss County,MS,NA,44.50867052023121,39.88970588235294,NA
38834,Alcorn County,MS,NA,NA,23.52941176470588,NA
38851,Chickasaw County,MS,NA,94.45086705202313,97.15073529411765,NA
38921,Tallahatchie County,MS,NA,NA,68.19852941176471,NA
39042,Rankin County,MS,NA,31.676300578034684,NA,NA
39059,Copiah County,MS,NA,NA,81.52573529411765,NA
39073,Rankin County,MS,NA,NA,NA,95.9409594095941
39074,Scott County,MS,NA,NA,59.92647058823529,NA
39110,Madison County,MS,NA,36.99421965317919,NA,NA
39212,Hinds County,MS,NA,51.56069364161849,NA,NA
39272,Hinds County,MS,NA,76.18497109826589,NA,NA
39301,Lauderdale County,MS,NA,47.74566473988439,NA,NA
39305,Lauderdale County,MS,NA,NA,51.10294117647059,NA
39307,Lauderdale County,MS,NA,92.138728323699425,NA,NA
39365,Neshoba County,MS,NA,NA,71.23161764705883,NA
39402,Lamar County,MS,NA,NA,52.29779411764706,NA
39426,Pearl River County,MS,NA,NA,37.31617647058824,NA
39503,Harrison County,MS,NA,NA,NA,6.273062730627306
39507,Harrison County,MS,NA,NA,NA,40.03690036900369
39520,Hancock County,MS,NA,27.861271676300582,NA,NA
39553,Jackson County,MS,NA,93.52601156069365,77.57352941176471,NA
39556,Hancock County,MS,NA,59.30635838150289,NA,NA
39560,Harrison County,MS,NA,NA,57.53676470588235,NA
39562,Jackson County,MS,NA,53.063583815028906,NA,NA
39564,Jackson County,MS,NA,89.82658959537572,79.6875,NA
39565,Jackson County,MS,NA,59.19075144508671,NA,NA
39573,Stone County,MS,NA,90.17341040462428,NA,90.03690036900369
39601,Lincoln County,MS,NA,85.43352601156069,41.08455882352941,NA
39666,Pike County,MS,NA,71.5606936416185,NA,NA
39744,Webster County,MS,NA,77.6878612716763,NA,NA
39759,Oktibbeha County,MS,NA,86.1271676300578,NA,NA
63010,Jefferson County,MO,NA,NA,NA,19.18819188191882
63021,St. Louis County,MO,NA,NA,NA,8.487084870848708
63025,St. Louis County,MO,NA,NA,69.94485294117648,NA
63031,St. Louis County,MO,NA,18.84393063583815,NA,NA
63050,Jefferson County,MO,NA,NA,NA,94.64944649446494
63069,Franklin County,MO,NA,NA,NA,60.147601476014756
63074,St. Louis County,MO,72.88135593220339,NA,NA,NA
63090,Franklin County,MO,NA,NA,NA,40.22140221402214
63109,St. Louis city,MO,NA,75.02890173410405,NA,NA
63112,St. Louis city,MO,NA,50.52023121387283,NA,NA
63119,St. Louis County,MO,NA,NA,NA,9.040590405904059
63122,St. Louis County,MO,NA,NA,22.518382352941178,NA
63125,St. Louis County,MO,NA,NA,26.93014705882353,NA
63139,St. Louis city,MO,NA,NA,61.39705882352941,NA
63141,St. Louis County,MO,NA,NA,68.75,NA
63304,St. Charles County,MO,NA,58.84393063583815,NA,NA
63366,St. Charles County,MO,10.734463276836157,NA,NA,NA
63389,Lincoln County,MO,NA,NA,89.70588235294117,NA
63401,Marion County,MO,NA,44.971098265895954,47.61029411764706,NA
63501,Adair County,MO,NA,NA,NA,68.45018450184503
63664,Washington County,MO,NA,72.25433526011561,NA,NA
63701,Cape Girardeau County,MO,NA,NA,NA,21.771217712177123
63901,Butler County,MO,NA,NA,21.691176470588236,NA
63957,Wayne County,MO,NA,NA,NA,93.91143911439114
64037,Lafayette County,MO,NA,87.39884393063583,NA,NA
64053,Jackson County,MO,NA,77.22543352601156,NA,NA
64055,Jackson County,MO,NA,8.439306358381502,NA,NA
64075,Jackson County,MO,NA,NA,62.68382352941176,NA
64079,Platte County,MO,NA,53.75722543352601,NA,NA
64083,Cass County,MO,NA,NA,36.029411764705884,NA
64089,Clay County,MO,38.4180790960452,NA,NA,NA
64113,Jackson County,MO,NA,NA,86.02941176470588,NA
64119,Clay County,MO,NA,11.560693641618498,NA,32.28782287822878
64132,Jackson County,MO,NA,NA,50.36764705882353,NA
64138,Jackson County,MO,NA,36.763005780346816,NA,NA
64152,Platte County,MO,NA,NA,32.720588235294116,NA
64701,Cass County,MO,NA,NA,NA,86.16236162361623
64772,Vernon County,MO,NA,38.49710982658959,NA,NA
64801,Jasper County,MO,NA,NA,NA,14.944649446494465
65018,Moniteau County,MO,NA,NA,90.90073529411765,NA
65078,Morgan County,MO,NA,NA,NA,94.4649446494465
65203,Boone County,MO,NA,NA,9.834558823529411,NA
65233,Cooper County,MO,NA,NA,59.466911764705884,NA
65251,Callaway County,MO,NA,NA,51.654411764705884,NA
65301,Pettis County,MO,NA,NA,7.2610294117647065,NA
65453,Crawford County,MO,NA,81.61849710982659,NA,NA
65616,Taney County,MO,NA,NA,80.60661764705883,59.59409594095941
65711,Wright County,MO,NA,NA,74.35661764705883,NA
65712,Lawrence County,MO,NA,NA,80.05514705882352,NA
59047,Park County,MT,NA,NA,63.05147058823529,NA
59105,Yellowstone County,MT,NA,84.5086705202312,NA,NA
59718,Gallatin County,MT,NA,NA,NA,35.239852398523986
59759,Jefferson County,MT,NA,NA,NA,99.44649446494465
59860,Lake County,MT,NA,91.09826589595376,NA,NA
59901,Flathead County,MT,NA,NA,2.4816176470588234,NA
59911,Flathead County,MT,NA,95.49132947976878,NA,NA
68003,Saunders County,NE,NA,NA,99.81617647058823,NA
68022,Douglas County,NE,NA,NA,79.50367647058823,NA
68107,Douglas County,NE,33.33333333333333,NA,NA,NA
68116,Douglas County,NE,92.09039548022598,NA,57.35294117647059,NA
68117,Douglas County,NE,96.61016949152543,91.21387283236994,NA,NA
68124,Douglas County,NE,NA,NA,NA,65.49815498154982
68127,Douglas County,NE,NA,NA,71.875,NA
68130,Douglas County,NE,36.72316384180791,NA,70.12867647058823,NA
68131,Douglas County,NE,NA,85.89595375722543,NA,NA
68134,Douglas County,NE,NA,NA,NA,54.4280442804428
68136,Sarpy County,NE,NA,NA,NA,90.22140221402213
68138,Sarpy County,NE,NA,NA,91.08455882352942,NA
68310,Gage County,NE,NA,62.543352601156066,NA,NA
68516,Lancaster County,NE,NA,NA,42.73897058823529,NA
68949,Phelps County,NE,NA,NA,90.80882352941177,NA
69001,Red Willow County,NE,NA,NA,NA,44.28044280442804
69361,Scotts Bluff County,NE,NA,NA,NA,60.88560885608856
89103,Clark County,NV,NA,50.28901734104046,NA,NA
89107,Clark County,NV,NA,NA,60.11029411764706,NA
89110,Clark County,NV,NA,NA,60.47794117647059,NA
89128,Clark County,NV,NA,NA,66.72794117647058,NA
89134,Clark County,NV,NA,NA,46.04779411764706,NA
89148,Clark County,NV,NA,NA,69.76102941176471,NA
89403,Lyon County,NV,NA,NA,35.75367647058824,NA
89406,Churchill County,NV,NA,38.38150289017341,NA,NA
89408,Lyon County,NV,NA,66.70520231213874,NA,NA
89429,Lyon County,NV,NA,79.42196531791907,NA,NA
89445,Humboldt County,NV,NA,NA,77.20588235294117,NA
89508,Washoe County,NV,NA,66.1271676300578,NA,NA
89509,Washoe County,NV,NA,NA,40.900735294117645,NA
89511,Washoe County,NV,NA,NA,25.827205882352942,NA
89521,Washoe County,NV,NA,NA,NA,95.20295202952029
89701,Carson City,NV,NA,36.1849710982659,40.716911764705884,NA
03045,Hillsborough County,NH,NA,65.66473988439306,NA,NA
03051,Hillsborough County,NH,27.11864406779661,NA,NA,NA
03053,Rockingham County,NH,NA,NA,22.24264705882353,NA
03060,Hillsborough County,NH,NA,7.398843930635839,NA,NA
03062,Hillsborough County,NH,NA,19.190751445086704,7.169117647058823,NA
03063,Hillsborough County,NH,NA,41.38728323699422,NA,NA
03079,Rockingham County,NH,NA,NA,16.727941176470587,NA
03103,Hillsborough County,NH,NA,NA,9.099264705882353,NA
03234,Merrimack County,NH,99.43502824858757,NA,NA,NA
03743,Sullivan County,NH,NA,NA,36.48897058823529,NA
03755,Grafton County,NH,NA,NA,NA,64.39114391143912
03811,Rockingham County,NH,NA,79.42196531791907,NA,NA
03842,Rockingham County,NH,NA,NA,NA,64.94464944649447
03865,Rockingham County,NH,NA,NA,68.01470588235294,NA
07004,Essex County,NJ,NA,NA,93.38235294117648,NA
07008,Middlesex County,NJ,NA,24.739884393063583,NA,42.61992619926199
07013,Passaic County,NJ,NA,NA,81.89338235294117,NA
07024,Bergen County,NJ,NA,NA,NA,12.361623616236162
07030,Hudson County,NJ,NA,7.0520231213872835,NA,NA
07039,Essex County,NJ,NA,20.46242774566474,NA,NA
07041,Essex County,NJ,NA,96.76300578034682,NA,NA
07047,Hudson County,NJ,NA,5.664739884393064,NA,NA
07102,Essex County,NJ,NA,NA,43.38235294117647,NA
07109,Essex County,NJ,NA,15.722543352601157,NA,NA
07305,Hudson County,NJ,NA,0.6936416184971098,NA,NA
07444,Morris County,NJ,NA,NA,99.08088235294117,NA
07470,Passaic County,NJ,NA,NA,NA,5.166051660516605
07481,Bergen County,NJ,NA,70.05780346820809,NA,NA
07501,Passaic County,NJ,NA,40.115606936416185,NA,NA
07524,Passaic County,NJ,NA,NA,NA,86.90036900369003
07621,Bergen County,NJ,NA,NA,58.73161764705882,NA
07670,Bergen County,NJ,NA,NA,84.74264705882352,NA
07675,Bergen County,NJ,84.18079096045197,NA,NA,NA
07724,Monmouth County,NJ,NA,NA,88.78676470588235,NA
07728,Monmouth County,NJ,NA,NA,13.32720588235294,NA
07751,Monmouth County,NJ,NA,NA,77.38970588235294,NA
07850,Morris County,NJ,NA,99.42196531791907,NA,NA
07860,Sussex County,NJ,NA,NA,25.09191176470588,NA
08005,Ocean County,NJ,NA,19.421965317919074,NA,NA
08012,Camden County,NJ,NA,6.705202312138728,NA,NA
08021,Camden County,NJ,NA,0.3468208092485549,NA,NA
08043,Camden County,NJ,NA,NA,NA,18.634686346863468
08054,Burlington County,NJ,NA,NA,13.051470588235295,NA
08065,Burlington County,NJ,NA,NA,86.76470588235294,NA
08088,Burlington County,NJ,NA,NA,25.643382352941174,NA
08090,Gloucester County,NJ,NA,87.51445086705202,NA,NA
08096,Gloucester County,NJ,NA,5.202312138728324,NA,NA
08102,Camden County,NJ,NA,NA,84.92647058823529,NA
08204,Cape May County,NJ,NA,51.09826589595375,NA,NA
08302,Cumberland County,NJ,NA,10.751445086705203,NA,NA
08401,Atlantic County,NJ,NA,4.508670520231214,NA,20.11070110701107
08505,Burlington County,NJ,NA,56.76300578034682,NA,NA
08757,Ocean County,NJ,NA,13.179190751445086,NA,NA
08810,Middlesex County,NJ,NA,NA,NA,99.63099630996311
08817,Middlesex County,NJ,NA,NA,21.323529411764707,NA
87004,Sandoval County,NM,NA,70.98265895953757,NA,NA
87105,Bernalillo County,NM,6.214689265536723,NA,NA,NA
87107,Bernalillo County,NM,NA,29.942196531791907,NA,NA
87108,Bernalillo County,NM,NA,7.283236994219654,NA,NA
87112,Bernalillo County,NM,NA,NA,8.731617647058822,NA
87120,Bernalillo County,NM,NA,NA,43.75,NA
87124,Sandoval County,NM,NA,36.06936416184971,NA,NA
87401,San Juan County,NM,NA,NA,35.845588235294116,NA
87413,San Juan County,NM,NA,NA,51.5625,NA
87544,Los Alamos County,NM,NA,58.15028901734104,NA,NA
88081,Otero County,NM,NA,75.60693641618496,NA,NA
88101,Curry County,NM,NA,73.41040462427746,NA,NA
88310,Otero County,NM,NA,NA,3.768382352941176,NA
10002,New York County,NY,NA,NA,2.389705882352941,NA
10003,New York County,NY,NA,49.82658959537572,NA,NA
10023,New York County,NY,NA,NA,12.959558823529413,NA
10032,New York County,NY,NA,NA,52.48161764705882,4.612546125461255
10034,New York County,NY,NA,NA,NA,31.365313653136536
10040,New York County,NY,NA,29.826589595375726,NA,NA
10304,Richmond County,NY,NA,15.260115606936417,NA,NA
10309,Richmond County,NY,NA,NA,42.830882352941174,NA
10453,Bronx County,NY,NA,NA,21.415441176470587,NA
10457,Bronx County,NY,NA,NA,19.209558823529413,NA
10458,Bronx County,NY,NA,0.46242774566473993,NA,NA
10461,Bronx County,NY,NA,12.601156069364162,16.81985294117647,NA
10463,Bronx County,NY,NA,8.323699421965317,NA,NA
10467,Bronx County,NY,NA,31.213872832369944,NA,NA
10468,Bronx County,NY,NA,NA,1.7463235294117647,NA
10475,Bronx County,NY,NA,71.44508670520231,NA,NA
10512,Putnam County,NY,NA,NA,63.69485294117647,NA
10543,Westchester County,NY,NA,66.82080924855491,NA,NA
10552,Westchester County,NY,NA,NA,NA,69.92619926199262
10573,Westchester County,NY,NA,NA,62.591911764705884,NA
10701,Westchester County,NY,NA,1.7341040462427744,NA,NA
10960,Rockland County,NY,NA,NA,NA,75.46125461254613
10965,Rockland County,NY,NA,NA,NA,72.87822878228782
11030,Nassau County,NY,NA,NA,NA,75.27675276752768
11211,Kings County,NY,NA,NA,NA,48.154981549815496
11213,Kings County,NY,NA,NA,NA,65.68265682656826
11215,Kings County,NY,NA,30.751445086705203,NA,NA
11216,Kings County,NY,NA,NA,NA,19.37269372693727
11225,Kings County,NY,NA,22.54335260115607,NA,NA
11231,Kings County,NY,58.19209039548022,NA,NA,NA
11237,Kings County,NY,NA,NA,45.77205882352941,NA
11354,Queens County,NY,NA,44.73988439306358,NA,NA
11360,Queens County,NY,NA,NA,78.03308823529412,41.51291512915129
11362,Queens County,NY,NA,NA,81.70955882352942,NA
11377,Queens County,NY,NA,NA,14.430147058823529,NA
11379,Queens County,NY,NA,NA,55.42279411764706,NA
11429,Queens County,NY,NA,NA,28.860294117647058,NA
11552,Nassau County,NY,NA,NA,NA,52.952029520295206
11576,Nassau County,NY,NA,NA,96.69117647058823,NA
11704,Suffolk County,NY,NA,53.063583815028906,NA,NA
11730,Suffolk County,NY,NA,93.0635838150289,NA,NA
11741,Suffolk County,NY,NA,70.28901734104046,NA,NA
11747,Suffolk County,NY,NA,NA,64.43014705882352,NA
11768,Suffolk County,NY,NA,96.30057803468208,NA,NA
11779,Suffolk County,NY,NA,NA,45.404411764705884,NA
11787,Suffolk County,NY,NA,NA,32.62867647058824,66.05166051660517
11937,Suffolk County,NY,NA,NA,87.95955882352942,NA
11961,Suffolk County,NY,NA,NA,NA,29.704797047970477
12009,Albany County,NY,NA,95.83815028901735,NA,NA
12010,Montgomery County,NY,NA,5.895953757225433,NA,NA
12180,Rensselaer County,NY,NA,52.369942196531795,NA,NA
12189,Albany County,NY,NA,NA,95.49632352941177,NA
12414,Greene County,NY,NA,48.4393063583815,NA,NA
12528,Ulster County,NY,NA,NA,96.96691176470588,84.68634686346863
12534,Columbia County,NY,NA,42.77456647398844,NA,NA
12572,Dutchess County,NY,NA,NA,NA,74.90774907749078
12901,Clinton County,NY,NA,NA,47.42647058823529,NA
12946,Essex County,NY,NA,NA,99.72426470588235,NA
12953,Franklin County,NY,NA,18.959537572254334,NA,NA
12986,Franklin County,NY,NA,61.50289017341041,NA,NA
13021,Cayuga County,NY,NA,3.815028901734104,NA,NA
13031,Onondaga County,NY,NA,71.32947976878613,NA,NA
13036,Oswego County,NY,NA,54.79768786127167,NA,NA
13039,Onondaga County,NY,NA,NA,NA,84.50184501845018
13045,Cortland County,NY,NA,NA,8.915441176470589,NA
13066,Onondaga County,NY,NA,NA,50.45955882352941,NA
13074,Oswego County,NY,NA,76.76300578034682,NA,NA
13077,Cortland County,NY,NA,56.41618497109827,NA,NA
13082,Madison County,NY,NA,NA,92.37132352941177,NA
13152,Onondaga County,NY,NA,NA,79.41176470588235,NA
13308,Oneida County,NY,NA,90.17341040462428,NA,NA
13309,Oneida County,NY,NA,NA,73.80514705882352,NA
13326,Otsego County,NY,NA,69.01734104046243,NA,28.59778597785978
13327,Lewis County,NY,NA,NA,95.86397058823529,NA
13340,Herkimer County,NY,NA,NA,NA,88.19188191881919
13357,Herkimer County,NY,NA,NA,51.01102941176471,NA
13367,Lewis County,NY,NA,36.64739884393063,NA,NA
13403,Oneida County,NY,NA,NA,NA,92.43542435424355
13625,St. Lawrence County,NY,NA,95.83815028901735,NA,NA
13642,St. Lawrence County,NY,NA,61.27167630057804,NA,NA
13760,Broome County,NY,NA,NA,0.3676470588235294,NA
13815,Chenango County,NY,NA,58.95953757225434,NA,NA
13820,Otsego County,NY,NA,NA,66.63602941176471,NA
13850,Broome County,NY,NA,NA,3.4007352941176467,NA
14006,Erie County,NY,NA,86.58959537572254,NA,NA
14011,Wyoming County,NY,NA,NA,83.91544117647058,NA
14020,Genesee County,NY,NA,12.947976878612716,43.56617647058824,NA
14048,Chautauqua County,NY,NA,34.91329479768786,NA,NA
14075,Erie County,NY,NA,50.28901734104046,NA,NA
14094,Niagara County,NY,28.8135593220339,NA,NA,NA
14127,Erie County,NY,NA,16.76300578034682,13.786764705882353,NA
14131,Niagara County,NY,NA,NA,88.97058823529412,NA
14132,Niagara County,NY,NA,NA,77.02205882352942,NA
14150,Erie County,NY,NA,NA,5.147058823529411,NA
14208,Erie County,NY,NA,26.589595375722542,NA,NA
14224,Erie County,NY,NA,6.242774566473988,NA,NA
14225,Erie County,NY,NA,9.364161849710982,NA,NA
14304,Niagara County,NY,NA,5.317919075144509,NA,NA
14414,Livingston County,NY,NA,NA,NA,86.34686346863468
14416,Genesee County,NY,NA,86.47398843930635,NA,NA
14428,Monroe County,NY,35.59322033898305,NA,NA,NA
14450,Monroe County,NY,NA,NA,0.8272058823529412,NA
14469,Ontario County,NY,NA,NA,80.79044117647058,NA
14471,Ontario County,NY,NA,NA,85.9375,NA
14482,Genesee County,NY,NA,48.323699421965316,NA,NA
14489,Wayne County,NY,NA,NA,28.49264705882353,NA
14512,Ontario County,NY,NA,NA,NA,94.28044280442805
14517,Livingston County,NY,NA,NA,96.59926470588235,NA
14519,Wayne County,NY,NA,NA,25.45955882352941,NA
14526,Monroe County,NY,NA,NA,83.45588235294117,NA
14564,Ontario County,NY,NA,19.76878612716763,NA,NA
14580,Monroe County,NY,NA,NA,0.09191176470588235,NA
14609,Monroe County,NY,NA,NA,39.981617647058826,NA
14612,Monroe County,NY,NA,NA,1.0110294117647058,NA
14617,Monroe County,NY,NA,44.16184971098266,NA,NA
14621,Monroe County,NY,NA,0.8092485549132947,NA,NA
14623,Monroe County,NY,NA,NA,20.68014705882353,NA
14625,Monroe County,NY,NA,44.971098265895954,NA,60.147601476014756
14626,Monroe County,NY,NA,3.4682080924855487,NA,NA
14706,Cattaraugus County,NY,69.49152542372882,NA,NA,NA
14743,Cattaraugus County,NY,NA,98.72832369942196,NA,NA
14830,Steuben County,NY,NA,70.86705202312139,NA,NA
14843,Steuben County,NY,NA,NA,NA,45.20295202952029
14850,Tompkins County,NY,NA,5.780346820809249,NA,NA
14892,Tioga County,NY,NA,47.630057803468205,NA,NA
27006,Davie County,NC,NA,57.80346820809249,24.264705882352942,NA
27012,Forsyth County,NC,NA,27.630057803468205,NA,NA
27030,Surry County,NC,NA,NA,NA,1.2915129151291513
27053,Stokes County,NC,NA,NA,81.34191176470588,NA
27055,Yadkin County,NC,NA,60.23121387283237,NA,NA
27104,Forsyth County,NC,NA,NA,5.698529411764706,NA
27106,Forsyth County,NC,12.994350282485875,NA,2.6654411764705883,1.6605166051660518
27282,Guilford County,NC,NA,NA,95.40441176470588,NA
27284,Forsyth County,NC,NA,NA,1.1029411764705883,NA
27306,Montgomery County,NC,NA,NA,85.66176470588235,NA
27312,Chatham County,NC,NA,NA,17.647058823529413,NA
27332,Lee County,NC,NA,NA,NA,81.91881918819189
27360,Davidson County,NC,NA,NA,3.952205882352941,NA
27410,Guilford County,NC,NA,29.47976878612717,NA,7.380073800738007
27504,Johnston County,NC,NA,58.26589595375723,NA,NA
27511,Wake County,NC,NA,85.08670520231215,NA,NA
27513,Wake County,NC,NA,NA,79.96323529411765,NA
27516,Orange County,NC,NA,76.0693641618497,NA,NA
27519,Wake County,NC,NA,NA,NA,45.94095940959409
27520,Johnston County,NC,NA,29.71098265895954,NA,NA
27587,Wake County,NC,NA,NA,7.904411764705882,NA
27603,Wake County,NC,39.548022598870055,NA,NA,NA
27604,Wake County,NC,NA,NA,NA,56.64206642066421
27610,Wake County,NC,NA,NA,NA,24.169741697416974
27712,Durham County,NC,NA,NA,37.04044117647059,NA
27713,Durham County,NC,NA,NA,68.93382352941177,NA
27801,Edgecombe County,NC,NA,NA,53.216911764705884,NA
27803,Nash County,NC,NA,NA,NA,80.99630996309963
27834,Pitt County,NC,NA,7.8612716763005785,NA,NA
27882,Nash County,NC,NA,NA,82.8125,NA
27892,Martin County,NC,NA,NA,63.32720588235294,NA
27944,Perquimans County,NC,82.485875706214685,85.66473988439306,NA,NA
27949,Dare County,NC,NA,NA,76.5625,NA
27962,Washington County,NC,NA,67.51445086705202,NA,NA
28001,Stanly County,NC,NA,NA,37.95955882352941,NA
28027,Cabarrus County,NC,11.299435028248588,NA,NA,21.58671586715867
28079,Union County,NC,NA,NA,45.036764705882355,NA
28086,Cleveland County,NC,NA,23.583815028901732,NA,NA
28173,Union County,NC,29.943502824858758,NA,NA,NA
28269,Mecklenburg County,NC,NA,14.682080924855493,NA,NA
28311,Cumberland County,NC,47.45762711864407,NA,NA,NA
28328,Sampson County,NC,54.80225988700565,NA,NA,NA
28345,Richmond County,NC,NA,55.60693641618497,NA,NA
28358,Robeson County,NC,NA,NA,NA,17.52767527675277
28382,Sampson County,NC,NA,76.53179190751445,NA,NA
28411,New Hanover County,NC,38.4180790960452,NA,NA,NA
28467,Brunswick County,NC,NA,NA,59.19117647058824,NA
28470,Brunswick County,NC,NA,68.20809248554913,NA,NA
28557,Carteret County,NC,NA,NA,38.87867647058824,NA
28574,Onslow County,NC,NA,NA,80.88235294117648,NA
28613,Catawba County,NC,NA,NA,36.76470588235294,NA
28621,Surry County,NC,NA,NA,48.529411764705884,NA
28625,Iredell County,NC,NA,NA,17.922794117647058,NA
28642,Yadkin County,NC,NA,NA,70.58823529411765,NA
28655,Burke County,NC,NA,6.358381502890173,NA,NA
28658,Catawba County,NC,NA,NA,70.95588235294117,NA
28690,Burke County,NC,NA,NA,NA,67.52767527675276
28711,Buncombe County,NC,NA,85.31791907514452,NA,NA
28712,Transylvania County,NC,NA,NA,NA,11.623616236162361
28719,Jackson County,NC,NA,NA,58.27205882352941,NA
28731,Henderson County,NC,NA,NA,47.24264705882353,NA
28739,Henderson County,NC,NA,47.51445086705202,NA,11.439114391143912
28752,McDowell County,NC,NA,NA,12.867647058823529,NA
28756,Polk County,NC,NA,NA,86.30514705882352,NA
28792,Henderson County,NC,NA,29.01734104046243,NA,NA
28803,Buncombe County,NC,NA,NA,NA,22.509225092250922
28806,Buncombe County,NC,NA,NA,NA,29.88929889298893
28904,Clay County,NC,89.26553672316385,NA,65.53308823529412,NA
58012,Cass County,ND,NA,99.30635838150289,NA,NA
58075,Richland County,ND,NA,NA,97.79411764705883,NA
58104,Cass County,ND,NA,NA,40.44117647058824,NA
43025,Licking County,OH,NA,91.44508670520231,NA,NA
43050,Knox County,OH,NA,NA,3.5845588235294117,NA
43068,Franklin County,OH,NA,10.404624277456648,NA,NA
43074,Delaware County,OH,75.14124293785311,NA,NA,NA
43078,Champaign County,OH,NA,30.982658959537574,35.56985294117647,NA
43081,Franklin County,OH,NA,NA,9.650735294117647,NA
43085,Franklin County,OH,NA,NA,84.83455882352942,NA
43103,Pickaway County,OH,NA,NA,64.61397058823529,NA
43130,Fairfield County,OH,NA,NA,NA,3.136531365313653
43140,Madison County,OH,NA,NA,30.238970588235293,NA
43147,Fairfield County,OH,NA,NA,24.540441176470587,NA
43204,Franklin County,OH,NA,6.127167630057803,NA,37.63837638376384
43209,Franklin County,OH,NA,45.895953757225435,32.07720588235294,NA
43211,Franklin County,OH,NA,NA,64.98161764705883,NA
43212,Franklin County,OH,NA,72.60115606936417,NA,NA
43221,Franklin County,OH,46.32768361581921,NA,NA,NA
43230,Franklin County,OH,NA,17.6878612716763,NA,NA
43302,Marion County,OH,NA,28.092485549132952,NA,NA
43334,Morrow County,OH,NA,NA,56.43382352941176,NA
43351,Wyandot County,OH,NA,NA,47.794117647058826,NA
43357,Logan County,OH,NA,NA,NA,69.18819188191881
43420,Sandusky County,OH,NA,11.098265895953757,NA,NA
43440,Ottawa County,OH,NA,NA,74.08088235294117,NA
43465,Wood County,OH,NA,NA,93.84191176470588,NA
43512,Defiance County,OH,NA,NA,4.136029411764706,NA
43528,Lucas County,OH,NA,37.57225433526011,NA,NA
43537,Lucas County,OH,NA,57.91907514450867,NA,NA
43551,Wood County,OH,NA,NA,6.0661764705882355,NA
43558,Fulton County,OH,NA,52.48554913294797,NA,NA
43567,Fulton County,OH,NA,NA,NA,62.91512915129152
43571,Lucas County,OH,NA,NA,75.82720588235294,NA
43605,Lucas County,OH,NA,NA,72.88602941176471,NA
43606,Lucas County,OH,NA,45.202312138728324,NA,NA
43607,Lucas County,OH,NA,NA,18.84191176470588,NA
43610,Lucas County,OH,NA,NA,94.39338235294117,NA
43611,Lucas County,OH,NA,15.375722543352602,NA,NA
43614,Lucas County,OH,NA,11.213872832369942,39.0625,NA
43616,Lucas County,OH,NA,14.450867052023122,NA,NA
43701,Muskingum County,OH,NA,NA,0.4595588235294118,NA
43725,Guernsey County,OH,NA,16.184971098265898,6.4338235294117645,NA
43830,Muskingum County,OH,81.92090395480226,NA,NA,NA
43832,Tuscarawas County,OH,NA,81.84971098265896,NA,NA
43906,Belmont County,OH,NA,94.91329479768787,NA,NA
43910,Jefferson County,OH,NA,85.66473988439306,NA,NA
43920,Columbiana County,OH,NA,31.90751445086705,NA,NA
43953,Jefferson County,OH,NA,NA,23.988970588235293,NA
44004,Ashtabula County,OH,0,41.96531791907515,NA,NA
44017,Cuyahoga County,OH,NA,NA,NA,25.461254612546124
44041,Ashtabula County,OH,44.632768361581924,NA,NA,NA
44044,Lorain County,OH,NA,45.78034682080925,NA,NA
44057,Lake County,OH,NA,NA,16.176470588235293,NA
44060,Lake County,OH,NA,NA,20.588235294117645,NA
44062,Geauga County,OH,NA,89.94219653179191,NA,NA
44067,Summit County,OH,NA,NA,16.911764705882355,NA
44070,Cuyahoga County,OH,NA,52.716763005780344,NA,NA
44081,Lake County,OH,NA,95.60693641618498,NA,NA
44089,Erie County,OH,NA,NA,8.63970588235294,NA
44092,Lake County,OH,NA,40.46242774566474,NA,38.191881918819185
44102,Cuyahoga County,OH,NA,NA,50.73529411764706,NA
44107,Cuyahoga County,OH,NA,14.335260115606937,NA,NA
44116,Cuyahoga County,OH,NA,NA,NA,4.797047970479705
44118,Cuyahoga County,OH,NA,12.369942196531792,NA,NA
44120,Cuyahoga County,OH,NA,NA,2.5735294117647056,NA
44122,Cuyahoga County,OH,NA,NA,26.378676470588236,0.36900369003690037
44125,Cuyahoga County,OH,NA,NA,8.272058823529411,NA
44127,Cuyahoga County,OH,NA,83.35260115606935,NA,NA
44128,Cuyahoga County,OH,NA,NA,1.3786764705882353,NA
44132,Cuyahoga County,OH,NA,22.658959537572255,NA,NA
44133,Cuyahoga County,OH,NA,NA,74.17279411764706,NA
44134,Cuyahoga County,OH,NA,48.90173410404624,1.8382352941176472,3.6900369003690034
44135,Cuyahoga County,OH,NA,32.25433526011561,NA,NA
44137,Cuyahoga County,OH,NA,6.820809248554912,NA,NA
44139,Cuyahoga County,OH,NA,39.19075144508671,NA,14.391143911439114
44142,Cuyahoga County,OH,NA,NA,17.1875,16.051660516605164
44144,Cuyahoga County,OH,NA,NA,NA,38.74538745387454
44146,Cuyahoga County,OH,NA,7.167630057803469,NA,NA
44147,Cuyahoga County,OH,NA,NA,27.573529411764707,NA
44149,Cuyahoga County,OH,NA,NA,NA,41.88191881918819
44202,Portage County,OH,NA,NA,NA,82.10332103321034
44203,Summit County,OH,NA,NA,7.352941176470589,6.4575645756457565
44212,Medina County,OH,NA,NA,NA,19.557195571955717
44221,Summit County,OH,NA,15.606936416184972,NA,NA
44224,Summit County,OH,NA,84.73988439306358,NA,NA
44230,Wayne County,OH,NA,NA,78.49264705882352,NA
44231,Portage County,OH,NA,84.6242774566474,NA,NA
44236,Summit County,OH,NA,NA,NA,34.87084870848708
44255,Portage County,OH,NA,70.52023121387283,NA,NA
44256,Medina County,OH,NA,36.30057803468208,NA,58.11808118081181
44266,Portage County,OH,NA,9.942196531791907,NA,NA
44273,Medina County,OH,NA,87.05202312138728,NA,NA
44278,Summit County,OH,NA,55.3757225433526,NA,NA
44281,Medina County,OH,NA,69.13294797687861,NA,NA
44305,Summit County,OH,NA,NA,68.29044117647058,NA
44307,Summit County,OH,NA,NA,NA,87.26937269372694
44313,Summit County,OH,NA,91.5606936416185,NA,NA
44406,Mahoning County,OH,NA,NA,25.919117647058826,22.509225092250922
44425,Trumbull County,OH,NA,NA,NA,40.59040590405904
44442,Mahoning County,OH,NA,NA,NA,87.4538745387454
44444,Trumbull County,OH,NA,NA,51.19485294117647,NA
44446,Trumbull County,OH,NA,NA,85.01838235294117,NA
44473,Trumbull County,OH,NA,NA,83.08823529411765,NA
44481,Trumbull County,OH,NA,NA,NA,77.85977859778598
44485,Trumbull County,OH,NA,NA,65.71691176470588,NA
44601,Stark County,OH,3.389830508474576,NA,NA,NA
44612,Tuscarawas County,OH,NA,NA,NA,96.6789667896679
44622,Tuscarawas County,OH,NA,NA,NA,17.712177121771216
44647,Stark County,OH,NA,47.167630057803464,NA,54.61254612546126
44667,Wayne County,OH,NA,NA,83.63970588235294,NA
44685,Summit County,OH,NA,42.3121387283237,NA,NA
44708,Stark County,OH,NA,NA,30.606617647058826,NA
44709,Stark County,OH,87.57062146892656,NA,NA,57.01107011070111
44720,Stark County,OH,NA,NA,51.93014705882353,NA
44730,Stark County,OH,93.22033898305084,NA,NA,NA
44805,Ashland County,OH,66.10169491525424,NA,4.5036764705882355,NA
44830,Seneca County,OH,NA,46.24277456647399,NA,NA
44839,Erie County,OH,NA,NA,36.213235294117645,NA
44857,Huron County,OH,61.5819209039548,NA,NA,NA
44883,Seneca County,OH,18.64406779661017,NA,NA,NA
44903,Richland County,OH,NA,NA,18.014705882352942,NA
45013,Butler County,OH,NA,NA,2.7573529411764706,NA
45036,Warren County,OH,8.47457627118644,NA,NA,NA
45042,Butler County,OH,NA,49.017341040462426,NA,NA
45044,Butler County,OH,NA,NA,11.856617647058822,NA
45067,Butler County,OH,NA,53.641618497109825,74.63235294117648,NA
45069,Butler County,OH,NA,21.965317919075144,50.18382352941176,NA
45140,Clermont County,OH,NA,NA,NA,20.84870848708487
45169,Clinton County,OH,NA,73.8728323699422,NA,NA
45207,Hamilton County,OH,NA,79.30635838150289,NA,NA
45208,Hamilton County,OH,NA,NA,NA,70.47970479704797
45211,Hamilton County,OH,NA,31.79190751445087,NA,NA
45212,Hamilton County,OH,NA,83.58381502890172,NA,NA
45223,Hamilton County,OH,NA,NA,81.15808823529412,NA
45224,Hamilton County,OH,NA,20.69364161849711,49.44852941176471,NA
45231,Hamilton County,OH,NA,8.670520231213873,NA,13.099630996309964
45233,Hamilton County,OH,NA,90.52023121387283,NA,NA
45239,Hamilton County,OH,NA,18.034682080924856,65.80882352941177,NA
45244,Hamilton County,OH,NA,NA,42.64705882352941,NA
45245,Clermont County,OH,NA,NA,NA,70.66420664206642
45246,Hamilton County,OH,NA,71.79190751445087,NA,64.76014760147602
45251,Hamilton County,OH,NA,NA,NA,38.92988929889299
45255,Hamilton County,OH,NA,NA,42.55514705882353,NA
45315,Montgomery County,OH,NA,NA,87.13235294117648,NA
45322,Montgomery County,OH,NA,NA,76.37867647058823,NA
45324,Greene County,OH,NA,10.173410404624278,NA,NA
45342,Montgomery County,OH,NA,NA,8.363970588235293,NA
45373,Miami County,OH,NA,7.514450867052023,NA,NA
45377,Montgomery County,OH,NA,NA,43.93382352941176,NA
45385,Greene County,OH,NA,81.38728323699422,55.14705882352941,NA
45415,Montgomery County,OH,NA,NA,55.33088235294118,NA
45424,Montgomery County,OH,NA,NA,9.283088235294118,30.81180811808118
45439,Montgomery County,OH,NA,48.20809248554913,91.26838235294117,NA
45458,Montgomery County,OH,NA,NA,10.9375,NA
45503,Clark County,OH,NA,27.74566473988439,11.397058823529411,NA
45601,Ross County,OH,NA,0.9248554913294799,0,NA
45631,Gallia County,OH,NA,35.028901734104046,9.558823529411764,4.981549815498155
45640,Jackson County,OH,NA,NA,50.91911764705882,NA
45645,Lawrence County,OH,NA,92.48554913294798,NA,NA
45648,Scioto County,OH,NA,NA,51.37867647058824,NA
45661,Pike County,OH,NA,44.39306358381503,NA,NA
45701,Athens County,OH,NA,NA,NA,32.84132841328413
45742,Washington County,OH,NA,89.13294797687861,NA,NA
45764,Athens County,OH,71.75141242937853,NA,NA,NA
45769,Meigs County,OH,35.59322033898305,NA,NA,NA
45784,Washington County,OH,71.1864406779661,NA,NA,NA
45801,Allen County,OH,NA,12.485549132947977,NA,NA
45807,Allen County,OH,NA,NA,58.54779411764706,NA
45822,Mercer County,OH,NA,NA,29.136029411764707,NA
45840,Hancock County,OH,NA,NA,2.297794117647059,NA
45872,Wood County,OH,NA,NA,95.22058823529412,NA
45891,Van Wert County,OH,NA,NA,22.886029411764707,NA
73013,Oklahoma County,OK,NA,NA,8.088235294117647,NA
73025,Oklahoma County,OK,NA,NA,54.87132352941176,NA
73026,Cleveland County,OK,NA,NA,98.80514705882352,NA
73034,Oklahoma County,OK,NA,NA,NA,27.121771217712176
73036,Canadian County,OK,NA,NA,58.82352941176471,NA
73049,Oklahoma County,OK,NA,92.94797687861272,NA,NA
73055,Stephens County,OK,NA,70.17341040462428,NA,NA
73086,Murray County,OK,NA,67.74566473988439,NA,NA
73089,Grady County,OK,NA,78.4971098265896,86.58088235294117,77.49077490774908
73099,Canadian County,OK,14.689265536723164,NA,5.606617647058823,NA
73108,Oklahoma County,OK,NA,62.19653179190752,NA,NA
73112,Oklahoma County,OK,NA,33.872832369942195,NA,NA
73127,Oklahoma County,OK,37.85310734463277,NA,NA,NA
73139,Oklahoma County,OK,NA,NA,85.20220588235294,NA
73160,Cleveland County,OK,NA,13.52601156069364,4.227941176470589,NA
73170,Cleveland County,OK,NA,60.578034682080926,NA,9.40959409594096
73446,Marshall County,OK,NA,82.77456647398844,NA,NA
73701,Garfield County,OK,NA,43.23699421965318,NA,61.80811808118081
74003,Osage County,OK,NA,NA,73.25367647058823,NA
74012,Tulsa County,OK,NA,23.23699421965318,NA,NA
74014,Wagoner County,OK,NA,65.4335260115607,NA,NA
74019,Rogers County,OK,NA,73.757225433526,NA,71.95571955719558
74033,Tulsa County,OK,NA,NA,88.87867647058823,NA
74037,Tulsa County,OK,97.17514124293785,NA,NA,NA
74044,Creek County,OK,NA,NA,NA,97.23247232472325
74066,Creek County,OK,NA,NA,33.455882352941174,50.3690036900369
74074,Payne County,OK,NA,NA,84.28308823529412,NA
74079,Lincoln County,OK,NA,96.99421965317919,NA,NA
74104,Tulsa County,OK,NA,81.73410404624278,NA,NA
74105,Tulsa County,OK,NA,67.63005780346822,NA,NA
74115,Tulsa County,OK,NA,NA,67.64705882352942,NA
74127,Tulsa County,OK,37.28813559322034,NA,NA,NA
74133,Tulsa County,OK,NA,28.901734104046245,19.669117647058822,64.20664206642066
74135,Tulsa County,OK,NA,NA,72.61029411764706,NA
74344,Delaware County,OK,NA,NA,NA,51.476014760147606
74347,Delaware County,OK,NA,99.1907514450867,NA,NA
74354,Ottawa County,OK,NA,NA,43.19852941176471,NA
74401,Muskogee County,OK,NA,NA,NA,67.15867158671587
74403,Muskogee County,OK,NA,30.404624277456648,NA,NA
74421,Okmulgee County,OK,NA,98.03468208092485,96.32352941176471,NA
74525,Atoka County,OK,NA,NA,99.90808823529412,NA
74801,Pottawatomie County,OK,NA,35.14450867052023,24.172794117647058,NA
74804,Pottawatomie County,OK,NA,NA,41.544117647058826,NA
97023,Clackamas County,OR,NA,NA,87.68382352941177,NA
97045,Clackamas County,OR,NA,NA,10.294117647058822,NA
97051,Columbia County,OR,NA,NA,71.69117647058823,NA
97055,Clackamas County,OR,NA,NA,NA,48.33948339483395
97071,Marion County,OR,NA,53.294797687861276,NA,NA
97132,Yamhill County,OR,NA,NA,26.65441176470588,27.490774907749078
97202,Multnomah County,OR,NA,74.10404624277457,NA,NA
97203,Multnomah County,OR,NA,NA,58.45588235294118,NA
97206,Multnomah County,OR,NA,NA,22.058823529411764,NA
97223,Washington County,OR,NA,NA,22.977941176470587,NA
97239,Multnomah County,OR,NA,NA,69.20955882352942,NA
97322,Linn County,OR,NA,NA,12.040441176470589,9.96309963099631
97355,Linn County,OR,NA,NA,5.05514705882353,NA
97367,Lincoln County,OR,NA,NA,30.14705882352941,NA
97401,Lane County,OR,42.93785310734463,NA,NA,NA
97457,Douglas County,OR,NA,87.97687861271676,NA,NA
97467,Douglas County,OR,NA,NA,NA,62.91512915129152
97471,Douglas County,OR,NA,NA,29.77941176470588,NA
97479,Douglas County,OR,NA,95.72254335260115,NA,NA
97501,Jackson County,OR,NA,NA,9.926470588235293,NA
97520,Jackson County,OR,NA,NA,76.28676470588235,NA
97527,Josephine County,OR,NA,NA,NA,21.217712177121772
97720,Harney County,OR,NA,93.41040462427745,NA,NA
97801,Umatilla County,OR,NA,32.71676300578035,76.10294117647058,NA
97838,Umatilla County,OR,NA,46.127167630057805,15.533088235294118,NA
97862,Umatilla County,OR,NA,57.34104046242775,56.89338235294118,NA
97868,Umatilla County,OR,NA,98.61271676300578,NA,NA
15001,Beaver County,PA,NA,NA,15.716911764705882,NA
15010,Beaver County,PA,NA,20.69364161849711,NA,NA
15025,Allegheny County,PA,NA,NA,43.19852941176471,NA
15042,Beaver County,PA,NA,81.15606936416185,NA,NA
15065,Allegheny County,PA,NA,92.83236994219654,NA,NA
15089,Westmoreland County,PA,NA,81.5028901734104,NA,NA
15101,Allegheny County,PA,NA,NA,48.25367647058824,NA
15104,Allegheny County,PA,NA,NA,NA,60.70110701107011
15129,Allegheny County,PA,NA,92.25433526011561,NA,NA
15135,Allegheny County,PA,NA,97.34104046242774,NA,NA
15136,Allegheny County,PA,NA,NA,32.99632352941176,NA
15147,Allegheny County,PA,NA,63.8150289017341,NA,18.265682656826566
15217,Allegheny County,PA,NA,NA,NA,20.479704797047972
15220,Allegheny County,PA,NA,67.97687861271676,NA,NA
15236,Allegheny County,PA,NA,44.27745664739884,61.58088235294118,NA
15317,Washington County,PA,NA,NA,57.07720588235294,NA
15601,Westmoreland County,PA,NA,NA,NA,0.5535055350553505
15613,Westmoreland County,PA,NA,60.924855491329474,NA,NA
15644,Westmoreland County,PA,NA,56.64739884393064,31.066176470588236,NA
15701,Indiana County,PA,NA,20.69364161849711,NA,NA
15801,Clearfield County,PA,NA,NA,6.158088235294118,NA
15902,Cambria County,PA,NA,40.23121387283237,80.14705882352942,NA
15904,Cambria County,PA,NA,NA,NA,54.981549815498155
15963,Somerset County,PA,NA,63.121387283237,NA,NA
16001,Butler County,PA,NA,4.161849710982659,16.636029411764707,2.952029520295203
16117,Lawrence County,PA,NA,NA,NA,87.63837638376384
16146,Mercer County,PA,NA,NA,38.786764705882355,NA
16148,Mercer County,PA,NA,44.6242774566474,NA,NA
16150,Mercer County,PA,44.06779661016949,NA,NA,NA
16201,Armstrong County,PA,NA,NA,9.742647058823529,NA
16301,Venango County,PA,NA,45.54913294797688,NA,NA
16316,Crawford County,PA,NA,NA,66.36029411764706,NA
16335,Crawford County,PA,NA,NA,37.13235294117647,18.081180811808117
16438,Erie County,PA,NA,NA,66.81985294117648,NA
16502,Erie County,PA,74.57627118644068,NA,NA,NA
16504,Erie County,PA,NA,NA,94.76102941176471,NA
16506,Erie County,PA,NA,NA,60.9375,NA
16508,Erie County,PA,NA,NA,57.99632352941176,NA
16601,Blair County,PA,NA,10.057803468208093,6.8014705882352935,NA
16648,Blair County,PA,NA,NA,32.35294117647059,NA
16652,Huntingdon County,PA,NA,NA,17.27941176470588,NA
16823,Centre County,PA,NA,NA,15.165441176470587,NA
17013,Cumberland County,PA,NA,20.578034682080926,NA,NA
17022,Lancaster County,PA,76.8361581920904,NA,NA,NA
17033,Dauphin County,PA,NA,61.849710982658955,53.67647058823529,NA
17042,Lebanon County,PA,NA,5.5491329479768785,5.238970588235294,NA
17044,Mifflin County,PA,20.903954802259886,NA,NA,NA
17046,Lebanon County,PA,NA,33.410404624277454,NA,NA
17078,Lebanon County,PA,NA,18.497109826589593,NA,NA
17109,Dauphin County,PA,23.728813559322035,NA,NA,NA
17202,Franklin County,PA,NA,NA,15.808823529411764,NA
17325,Adams County,PA,NA,NA,4.8713235294117645,NA
17331,York County,PA,2.824858757062147,NA,NA,NA
17363,York County,PA,NA,NA,62.68382352941176,NA
17408,York County,PA,NA,NA,46.41544117647059,NA
17522,Lancaster County,PA,NA,NA,80.42279411764706,NA
17543,Lancaster County,PA,NA,NA,10.20220588235294,7.9335793357933575
17569,Lancaster County,PA,NA,NA,NA,80.62730627306273
17578,Lancaster County,PA,NA,87.16763005780346,NA,NA
17603,Lancaster County,PA,NA,NA,7.720588235294118,NA
17701,Lycoming County,PA,NA,4.855491329479769,NA,5.904059040590406
17728,Lycoming County,PA,NA,NA,NA,93.72693726937268
17740,Lycoming County,PA,NA,76.30057803468208,NA,NA
17851,Northumberland County,PA,NA,NA,47.33455882352941,NA
17901,Schuylkill County,PA,NA,NA,27.02205882352941,NA
18041,Montgomery County,PA,NA,NA,98.89705882352942,NA
18045,Northampton County,PA,NA,NA,14.88970588235294,NA
18049,Lehigh County,PA,NA,NA,38.23529411764706,69.37269372693727
18062,Lehigh County,PA,NA,42.08092485549133,NA,NA
18102,Lehigh County,PA,NA,1.3872832369942196,6.25,NA
18103,Lehigh County,PA,NA,NA,NA,11.808118081180812
18104,Lehigh County,PA,15.819209039548024,NA,NA,NA
18229,Carbon County,PA,NA,NA,54.13602941176471,NA
18407,Lackawanna County,PA,NA,44.04624277456647,NA,NA
18447,Lackawanna County,PA,NA,NA,69.76102941176471,NA
18508,Lackawanna County,PA,NA,NA,NA,52.952029520295206
18603,Columbia County,PA,NA,15.144508670520231,NA,NA
18634,Luzerne County,PA,NA,NA,NA,55.535055350553506
18704,Luzerne County,PA,NA,NA,87.31617647058823,NA
18853,Bradford County,PA,NA,96.53179190751445,NA,NA
18929,Bucks County,PA,NA,NA,NA,85.42435424354244
18940,Bucks County,PA,NA,NA,NA,46.494464944649444
18969,Montgomery County,PA,NA,NA,67.55514705882352,NA
18974,Bucks County,PA,NA,NA,39.705882352941174,NA
19001,Montgomery County,PA,77.40112994350282,52.601156069364166,NA,NA
19006,Montgomery County,PA,NA,NA,87.77573529411765,NA
19007,Bucks County,PA,NA,NA,NA,74.35424354243543
19025,Montgomery County,PA,NA,92.60115606936417,NA,NA
19026,Delaware County,PA,NA,NA,30.330882352941174,NA
19033,Delaware County,PA,NA,74.79768786127168,NA,NA
19034,Montgomery County,PA,NA,95.14450867052024,NA,NA
19047,Bucks County,PA,NA,NA,15.257352941176471,NA
19056,Bucks County,PA,NA,NA,57.16911764705882,NA
19060,Delaware County,PA,NA,NA,NA,81.73431734317343
19067,Bucks County,PA,NA,NA,81.98529411764706,NA
19073,Delaware County,PA,NA,NA,NA,15.682656826568268
19083,Delaware County,PA,NA,NA,NA,23.062730627306273
19104,Philadelphia County,PA,NA,11.791907514450866,NA,NA
19111,Philadelphia County,PA,NA,NA,4.6875,NA
19128,Philadelphia County,PA,NA,NA,25.735294117647058,NA
19131,Philadelphia County,PA,35.02824858757062,NA,NA,NA
19132,Philadelphia County,PA,NA,NA,14.154411764705882,NA
19136,Philadelphia County,PA,NA,NA,25,NA
19137,Philadelphia County,PA,NA,61.73410404624278,NA,NA
19144,Philadelphia County,PA,NA,NA,9.007352941176471,NA
19146,Philadelphia County,PA,NA,NA,22.334558823529413,NA
19147,Philadelphia County,PA,NA,NA,NA,51.291512915129154
19154,Philadelphia County,PA,NA,43.69942196531792,NA,NA
19301,Chester County,PA,NA,NA,98.06985294117648,NA
19343,Chester County,PA,NA,NA,85.11029411764706,NA
19352,Chester County,PA,95.48022598870057,NA,NA,NA
19401,Montgomery County,PA,NA,9.479768786127167,NA,NA
19403,Montgomery County,PA,NA,NA,5.330882352941177,5.719557195571956
19422,Montgomery County,PA,NA,NA,NA,47.4169741697417
19428,Montgomery County,PA,NA,NA,NA,73.43173431734317
19446,Montgomery County,PA,NA,16.300578034682083,NA,NA
19460,Chester County,PA,NA,NA,NA,20.29520295202952
19464,Montgomery County,PA,13.559322033898304,NA,NA,NA
19465,Chester County,PA,75.70621468926554,NA,NA,NA
19522,Berks County,PA,NA,NA,31.985294117647058,NA
19525,Montgomery County,PA,NA,NA,92.09558823529412,NA
19530,Berks County,PA,NA,NA,61.94852941176471,77.30627306273063
19601,Berks County,PA,NA,3.6994219653179194,NA,NA
02809,Bristol County,RI,NA,NA,NA,34.132841328413285
02813,Washington County,RI,NA,NA,61.67279411764706,NA
02816,Kent County,RI,NA,26.011560693641616,NA,NA
02840,Newport County,RI,NA,NA,NA,50.55350553505535
02842,Newport County,RI,NA,75.83815028901734,NA,NA
02865,Providence County,RI,NA,NA,NA,55.35055350553506
02878,Newport County,RI,72.31638418079096,NA,NA,NA
02879,Washington County,RI,NA,65.20231213872833,NA,NA
02882,Washington County,RI,NA,NA,49.44852941176471,NA
02886,Kent County,RI,NA,61.040462427745666,NA,NA
02888,Kent County,RI,NA,NA,73.16176470588235,NA
02895,Providence County,RI,NA,56.184971098265905,NA,NA
02907,Providence County,RI,NA,NA,49.080882352941174,NA
29033,Lexington County,SC,NA,NA,NA,85.97785977859779
29072,Lexington County,SC,NA,25.66473988439306,NA,NA
29127,Newberry County,SC,NA,NA,89.24632352941177,NA
29148,Clarendon County,SC,NA,NA,90.25735294117648,NA
29205,Richland County,SC,NA,90.98265895953757,NA,NA
29209,Richland County,SC,NA,NA,76.65441176470588,NA
29210,Richland County,SC,NA,39.421965317919074,NA,NA
29407,Charleston County,SC,NA,NA,11.488970588235293,15.313653136531366
29410,Berkeley County,SC,NA,NA,69.20955882352942,NA
29412,Charleston County,SC,NA,NA,53.216911764705884,67.34317343173431
29414,Charleston County,SC,NA,NA,NA,26.56826568265683
29451,Charleston County,SC,NA,NA,98.34558823529412,NA
29464,Charleston County,SC,NA,NA,NA,14.760147601476014
29466,Charleston County,SC,NA,NA,NA,35.05535055350554
29479,Berkeley County,SC,NA,89.71098265895954,NA,NA
29483,Dorchester County,SC,NA,NA,NA,50.92250922509225
29486,Berkeley County,SC,NA,NA,NA,70.84870848708486
29488,Colleton County,SC,NA,NA,NA,50.184501845018445
29501,Florence County,SC,NA,29.2485549132948,14.613970588235295,NA
29566,Horry County,SC,NA,NA,NA,54.24354243542435
29572,Horry County,SC,NA,NA,NA,79.70479704797047
29576,Horry County,SC,NA,NA,11.029411764705882,NA
29585,Georgetown County,SC,NA,NA,NA,32.47232472324723
29617,Greenville County,SC,NA,NA,NA,68.26568265682657
29646,Greenwood County,SC,22.598870056497177,84.27745664739884,NA,NA
29669,Anderson County,SC,NA,58.61271676300578,NA,NA
29681,Greenville County,SC,NA,NA,NA,30.073800738007378
29707,Lancaster County,SC,NA,NA,76.47058823529412,NA
29710,York County,SC,NA,NA,NA,45.018450184501845
29720,Lancaster County,SC,NA,16.647398843930635,NA,NA
29732,York County,SC,NA,29.595375722543356,NA,NA
29803,Aiken County,SC,NA,NA,8.180147058823529,NA
29832,Edgefield County,SC,NA,NA,92.83088235294117,NA
29835,McCormick County,SC,NA,NA,NA,85.60885608856088
29940,Beaufort County,SC,NA,NA,100,NA
57006,Brookings County,SD,NA,NA,38.87867647058824,NA
57069,Clay County,SD,NA,94.79768786127167,NA,NA
57104,Minnehaha County,SD,NA,26.936416184971097,NA,NA
57106,Minnehaha County,SD,NA,NA,5.974264705882353,4.059040590405904
57201,Codington County,SD,NA,NA,60.11029411764706,NA
57401,Brown County,SD,3.389830508474576,NA,NA,NA
57701,Pennington County,SD,NA,NA,NA,10.70110701107011
57702,Pennington County,SD,NA,NA,NA,10.885608856088561
57719,Pennington County,SD,NA,NA,NA,90.59040590405904
57747,Fall River County,SD,NA,NA,64.43014705882352,NA
57785,Meade County,SD,NA,NA,NA,80.25830258302584
37027,Williamson County,TN,NA,37.45664739884393,NA,NA
37035,Cheatham County,TN,NA,99.53757225433526,NA,NA
37037,Rutherford County,TN,NA,97.6878612716763,NA,NA
37043,Montgomery County,TN,NA,NA,19.94485294117647,NA
37055,Dickson County,TN,NA,NA,39.61397058823529,NA
37074,Trousdale County,TN,NA,NA,75.36764705882352,NA
37075,Sumner County,TN,NA,NA,NA,10.14760147601476
37076,Davidson County,TN,NA,33.0635838150289,NA,NA
37087,Wilson County,TN,NA,18.61271676300578,NA,NA
37115,Davidson County,TN,NA,NA,55.05514705882353,NA
37135,Williamson County,TN,NA,90.86705202312139,NA,NA
37160,Bedford County,TN,NA,NA,30.79044117647059,NA
37187,Dickson County,TN,NA,72.60115606936417,NA,NA
37311,Bradley County,TN,52.54237288135594,NA,NA,NA
37355,Coffee County,TN,NA,NA,77.75735294117648,NA
37411,Hamilton County,TN,NA,NA,NA,59.40959409594095
37618,Sullivan County,TN,NA,NA,73.4375,NA
37620,Sullivan County,TN,NA,NA,15.441176470588236,NA
37660,Sullivan County,TN,NA,NA,35.47794117647059,NA
37716,Anderson County,TN,NA,35.3757225433526,NA,NA
37769,Anderson County,TN,NA,NA,85.56985294117648,NA
37774,Loudon County,TN,NA,NA,NA,26.383763837638373
37777,Blount County,TN,NA,NA,51.470588235294116,NA
37814,Hamblen County,TN,NA,NA,24.816176470588236,NA
37820,Jefferson County,TN,NA,NA,81.06617647058823,NA
37830,Anderson County,TN,NA,NA,23.34558823529412,NA
37849,Knox County,TN,NA,37.6878612716763,47.05882352941176,NA
37876,Sevier County,TN,NA,30.86705202312139,NA,NA
37918,Knox County,TN,NA,NA,72.05882352941177,NA
37932,Knox County,TN,NA,NA,62.04044117647059,NA
38024,Dyer County,TN,61.016949152542374,NA,67.1875,NA
38139,Shelby County,TN,NA,NA,86.85661764705883,NA
38237,Weakley County,TN,NA,NA,60.11029411764706,NA
38301,Madison County,TN,NA,NA,16.084558823529413,NA
38305,Madison County,TN,NA,52.02312138728323,10.477941176470589,NA
38344,Carroll County,TN,80.22598870056498,NA,NA,NA
38485,Wayne County,TN,NA,80.34682080924856,NA,NA
38506,Putnam County,TN,NA,NA,NA,89.85239852398524
38562,Jackson County,TN,NA,84.39306358381504,NA,NA
75001,Dallas County,TX,NA,NA,90.71691176470588,100
75002,Collin County,TX,6.779661016949152,NA,NA,NA
75023,Collin County,TX,NA,NA,81.61764705882352,NA
75024,Collin County,TX,NA,NA,NA,88.56088560885608
75035,Collin County,TX,NA,NA,77.29779411764706,NA
75043,Dallas County,TX,NA,20,NA,64.57564575645756
75044,Dallas County,TX,NA,NA,NA,88.37638376383764
75048,Dallas County,TX,NA,NA,NA,82.28782287822878
75052,Dallas County,TX,NA,NA,10.386029411764707,NA
75065,Denton County,TX,NA,NA,NA,95.75645756457564
75068,Denton County,TX,NA,NA,NA,66.60516605166052
75070,Collin County,TX,NA,97.91907514450867,NA,NA
75071,Collin County,TX,NA,NA,62.95955882352941,NA
75074,Collin County,TX,NA,NA,29.503676470588236,NA
75075,Collin County,TX,NA,NA,30.974264705882355,NA
75078,Collin County,TX,56.49717514124294,NA,NA,NA
75092,Grayson County,TX,NA,NA,NA,48.8929889298893
75093,Collin County,TX,NA,45.664739884393065,NA,NA
75098,Collin County,TX,16.38418079096045,NA,NA,NA
75104,Dallas County,TX,NA,93.64161849710982,NA,NA
75126,Kaufman County,TX,NA,28.670520231213874,NA,66.23616236162361
75146,Dallas County,TX,NA,57.45664739884393,NA,NA
75150,Dallas County,TX,NA,NA,15.992647058823529,NA
75154,Ellis County,TX,NA,NA,38.419117647058826,NA
75204,Dallas County,TX,NA,56.87861271676301,NA,NA
75206,Dallas County,TX,NA,75.72254335260115,NA,NA
75208,Dallas County,TX,NA,NA,NA,76.01476014760148
75230,Dallas County,TX,41.80790960451977,NA,NA,NA
75237,Dallas County,TX,NA,NA,90.90073529411765,NA
75243,Dallas County,TX,NA,NA,NA,35.97785977859779
75248,Dallas County,TX,49.717514124293785,NA,NA,NA
75252,Collin County,TX,NA,NA,82.07720588235294,48.523985239852394
75407,Collin County,TX,NA,NA,65.90073529411765,NA
75455,Titus County,TX,NA,NA,44.393382352941174,NA
75503,Bowie County,TX,NA,NA,NA,23.800738007380073
75601,Gregg County,TX,NA,NA,NA,82.28782287822878
75654,Rusk County,TX,NA,97.80346820809248,NA,NA
75752,Henderson County,TX,NA,96.18497109826589,NA,NA
75757,Smith County,TX,NA,73.06358381502889,NA,NA
75762,Smith County,TX,NA,NA,89.43014705882352,NA
75766,Cherokee County,TX,NA,32.369942196531795,NA,NA
75771,Smith County,TX,NA,51.676300578034684,NA,NA
75773,Wood County,TX,NA,NA,26.10294117647059,NA
75783,Wood County,TX,NA,98.15028901734104,NA,NA
75831,Leon County,TX,NA,NA,93.65808823529412,NA
75904,Angelina County,TX,NA,NA,13.23529411764706,35.79335793357934
75961,Nacogdoches County,TX,NA,NA,72.70220588235294,NA
76001,Tarrant County,TX,NA,51.445086705202314,75.55147058823529,NA
76017,Tarrant County,TX,NA,NA,NA,30.44280442804428
76020,Tarrant County,TX,NA,NA,26.5625,NA
76021,Tarrant County,TX,NA,NA,36.856617647058826,NA
76022,Tarrant County,TX,NA,NA,NA,88.00738007380073
76028,Johnson County,TX,NA,12.254335260115607,NA,13.284132841328415
76040,Tarrant County,TX,NA,43.8150289017341,NA,NA
76052,Tarrant County,TX,NA,79.88439306358381,81.80147058823529,NA
76054,Tarrant County,TX,NA,NA,NA,68.63468634686348
76063,Tarrant County,TX,NA,NA,98.52941176470588,NA
76065,Ellis County,TX,NA,37.80346820809248,NA,NA
76067,Palo Pinto County,TX,NA,50.982658959537574,NA,NA
76106,Tarrant County,TX,NA,44.85549132947977,NA,NA
76107,Tarrant County,TX,NA,38.95953757225434,NA,NA
76109,Tarrant County,TX,NA,NA,NA,82.84132841328413
76133,Tarrant County,TX,NA,NA,20.3125,NA
76137,Tarrant County,TX,NA,NA,18.933823529411764,NA
76182,Tarrant County,TX,NA,NA,NA,52.5830258302583
76201,Denton County,TX,NA,NA,NA,73.24723247232473
76205,Denton County,TX,NA,NA,NA,93.17343173431735
76208,Denton County,TX,NA,NA,NA,70.29520295202953
76227,Denton County,TX,NA,62.42774566473989,NA,NA
76234,Wise County,TX,NA,67.39884393063585,NA,NA
76266,Denton County,TX,NA,NA,73.06985294117648,NA
76272,Cooke County,TX,NA,NA,97.70220588235294,NA
76365,Clay County,TX,NA,NA,76.19485294117648,NA
76384,Wilbarger County,TX,NA,NA,56.341911764705884,NA
76401,Erath County,TX,NA,NA,NA,81.18081180811808
76426,Wise County,TX,NA,NA,66.81985294117648,NA
76450,Young County,TX,NA,NA,88.32720588235294,NA
76501,Bell County,TX,NA,NA,NA,4.243542435424354
76502,Bell County,TX,NA,17.45664739884393,NA,NA
76504,Bell County,TX,NA,NA,2.0220588235294117,3.505535055350553
76513,Bell County,TX,NA,NA,NA,0.7380073800738007
76541,Bell County,TX,NA,42.89017341040463,NA,NA
76542,Bell County,TX,NA,41.50289017341041,NA,15.498154981549817
76543,Bell County,TX,NA,NA,NA,6.088560885608856
76548,Bell County,TX,NA,NA,48.89705882352941,NA
76571,Bell County,TX,94.35028248587571,NA,NA,NA
76574,Williamson County,TX,NA,46.589595375722546,NA,NA
76645,Hill County,TX,NA,NA,97.05882352941177,NA
76657,McLennan County,TX,NA,NA,80.60661764705883,NA
76705,McLennan County,TX,NA,NA,37.775735294117645,NA
76708,McLennan County,TX,NA,NA,NA,18.45018450184502
77005,Harris County,TX,NA,NA,NA,57.7490774907749
77006,Harris County,TX,NA,NA,86.48897058823529,NA
77008,Harris County,TX,NA,57.57225433526012,NA,NA
77013,Harris County,TX,NA,84.16184971098266,NA,NA
77015,Harris County,TX,NA,NA,NA,61.62361623616236
77019,Harris County,TX,NA,NA,71.41544117647058,NA
77021,Harris County,TX,NA,33.29479768786127,NA,44.464944649446494
77024,Harris County,TX,40.11299435028249,NA,NA,NA
77034,Harris County,TX,19.2090395480226,NA,NA,NA
77040,Harris County,TX,NA,NA,NA,56.08856088560885
77041,Harris County,TX,NA,NA,35.9375,NA
77044,Harris County,TX,NA,34.21965317919075,NA,NA
77058,Harris County,TX,NA,NA,78.125,NA
77063,Harris County,TX,NA,63.23699421965318,NA,NA
77068,Harris County,TX,NA,NA,90.625,NA
77070,Harris County,TX,NA,NA,22.426470588235293,NA
77071,Harris County,TX,NA,NA,NA,63.284132841328415
77075,Harris County,TX,NA,NA,86.02941176470588,NA
77079,Harris County,TX,NA,71.67630057803468,NA,NA
77080,Harris County,TX,34.463276836158194,NA,NA,NA
77086,Harris County,TX,NA,86.35838150289017,63.14338235294118,NA
77089,Harris County,TX,NA,NA,64.88970588235294,NA
77090,Harris County,TX,NA,26.820809248554912,NA,NA
77095,Harris County,TX,NA,NA,11.948529411764707,49.6309963099631
77316,Montgomery County,TX,NA,90.40462427745665,84.375,NA
77318,Montgomery County,TX,NA,NA,69.57720588235294,NA
77327,Liberty County,TX,43.50282485875706,60.69364161849711,NA,NA
77340,Walker County,TX,NA,94.5664739884393,NA,NA
77346,Harris County,TX,NA,21.040462427745666,NA,NA
77354,Montgomery County,TX,NA,NA,NA,33.94833948339483
77356,Montgomery County,TX,NA,63.35260115606937,34.283088235294116,NA
77360,Polk County,TX,NA,NA,70.68014705882352,NA
77365,Montgomery County,TX,NA,47.05202312138728,NA,NA
77375,Harris County,TX,NA,NA,33.27205882352941,NA
77377,Harris County,TX,NA,NA,NA,43.17343173431734
77379,Harris County,TX,NA,23.930635838150287,9.375,NA
77381,Montgomery County,TX,NA,NA,32.44485294117647,NA
77384,Montgomery County,TX,NA,74.45086705202311,NA,NA
77386,Montgomery County,TX,NA,NA,45.68014705882353,NA
77429,Harris County,TX,62.14689265536724,12.716763005780345,25.183823529411764,NA
77449,Harris County,TX,NA,NA,23.897058823529413,NA
77494,Fort Bend County,TX,NA,NA,14.613970588235295,NA
77498,Fort Bend County,TX,NA,NA,49.17279411764706,NA
77505,Harris County,TX,NA,61.618497109826585,58.27205882352941,NA
77506,Harris County,TX,NA,NA,68.01470588235294,NA
77511,Brazoria County,TX,NA,17.22543352601156,NA,NA
77531,Brazoria County,TX,NA,NA,78.86029411764706,NA
77545,Fort Bend County,TX,NA,NA,86.67279411764706,NA
77546,Galveston County,TX,NA,24.508670520231213,NA,NA
77554,Galveston County,TX,NA,NA,NA,61.254612546125465
77566,Brazoria County,TX,NA,NA,41.911764705882355,NA
77573,Galveston County,TX,NA,NA,3.6764705882352944,NA
77586,Harris County,TX,NA,86.58959537572254,NA,NA
77612,Jasper County,TX,NA,NA,NA,87.08487084870849
77651,Jefferson County,TX,NA,99.65317919075144,NA,NA
77706,Jefferson County,TX,NA,NA,31.525735294117645,NA
77707,Jefferson County,TX,65.5367231638418,NA,NA,NA
77803,Brazos County,TX,NA,NA,40.80882352941176,NA
77836,Burleson County,TX,NA,NA,46.41544117647059,NA
77901,Victoria County,TX,NA,NA,53.95220588235294,NA
77904,Victoria County,TX,NA,NA,67.46323529411765,NA
77905,Victoria County,TX,NA,NA,56.89338235294118,NA
77979,Calhoun County,TX,NA,68.90173410404624,NA,NA
78043,Webb County,TX,NA,NA,27.297794117647058,NA
78045,Webb County,TX,NA,NA,29.871323529411764,NA
78046,Webb County,TX,NA,17.341040462427745,NA,NA
78130,Comal County,TX,NA,22.08092485549133,NA,10.14760147601476
78207,Bexar County,TX,NA,NA,13.694852941176471,NA
78216,Bexar County,TX,31.63841807909605,NA,NA,NA
78254,Bexar County,TX,NA,43.12138728323699,NA,NA
78258,Bexar County,TX,NA,NA,64.70588235294117,NA
78501,Hidalgo County,TX,NA,NA,20.772058823529413,NA
78504,Hidalgo County,TX,32.7683615819209,NA,NA,NA
78570,Hidalgo County,TX,17.51412429378531,67.28323699421965,NA,NA
78596,Hidalgo County,TX,NA,NA,80.33088235294117,NA
78626,Williamson County,TX,NA,NA,43.841911764705884,NA
79106,Potter County,TX,NA,NA,35.11029411764706,39.11439114391143
79109,Randall County,TX,NA,NA,41.08455882352941,NA
79201,Childress County,TX,NA,NA,NA,84.31734317343174
79331,Dawson County,TX,NA,NA,NA,57.564575645756456
79423,Lubbock County,TX,NA,NA,20.496323529411764,NA
79424,Lubbock County,TX,NA,25.202312138728324,8.731617647058822,NA
79556,Nolan County,TX,NA,NA,NA,83.94833948339483
79602,Taylor County,TX,NA,NA,49.724264705882355,NA
79603,Taylor County,TX,NA,NA,NA,38.37638376383764
79605,Taylor County,TX,NA,NA,35.294117647058826,NA
79606,Taylor County,TX,NA,NA,NA,26.752767527675275
79701,Midland County,TX,NA,39.884393063583815,NA,NA
79705,Midland County,TX,NA,NA,31.25,NA
79706,Midland County,TX,NA,42.65895953757226,NA,NA
79714,Andrews County,TX,NA,NA,65.90073529411765,NA
79907,El Paso County,TX,23.163841807909606,NA,NA,NA
79912,El Paso County,TX,NA,NA,31.893382352941174,NA
79915,El Paso County,TX,NA,NA,NA,14.206642066420663
79924,El Paso County,TX,NA,40.578034682080926,NA,NA
79927,El Paso County,TX,NA,79.65317919075144,NA,NA
79928,El Paso County,TX,NA,86.82080924855491,NA,NA
79936,El Paso County,TX,NA,NA,17.371323529411764,NA
84009,Salt Lake County,UT,NA,NA,91.81985294117648,NA
84036,Summit County,UT,NA,NA,98.89705882352942,NA
84043,Utah County,UT,NA,NA,87.86764705882352,NA
84065,Salt Lake County,UT,NA,35.72254335260116,NA,NA
84075,Davis County,UT,NA,NA,NA,95.01845018450184
84081,Salt Lake County,UT,NA,NA,NA,93.54243542435424
84092,Salt Lake County,UT,NA,NA,41.72794117647059,NA
84093,Salt Lake County,UT,NA,NA,77.48161764705883,NA
84094,Salt Lake County,UT,24.293785310734464,61.156069364161844,NA,NA
84105,Salt Lake County,UT,NA,74.56647398843931,NA,NA
84106,Salt Lake County,UT,NA,NA,NA,79.15129151291514
84111,Salt Lake County,UT,NA,89.36416184971098,NA,NA
84115,Salt Lake County,UT,NA,NA,31.61764705882353,NA
84116,Salt Lake County,UT,NA,26.242774566473987,NA,NA
84118,Salt Lake County,UT,NA,NA,49.356617647058826,NA
84119,Salt Lake County,UT,NA,NA,34.74264705882353,NA
84128,Salt Lake County,UT,NA,36.878612716763,NA,NA
84321,Cache County,UT,NA,64.04624277456648,NA,NA
84403,Weber County,UT,NA,NA,85.47794117647058,NA
84404,Weber County,UT,NA,NA,34.466911764705884,NA
84501,Carbon County,UT,NA,NA,79.04411764705883,NA
84526,Carbon County,UT,NA,NA,99.63235294117648,NA
84651,Utah County,UT,NA,NA,76.01102941176471,NA
84660,Utah County,UT,NA,NA,83.08823529411765,NA
84720,Iron County,UT,NA,NA,90.44117647058823,NA
84721,Iron County,UT,NA,62.774566473988436,NA,NA
84765,Washington County,UT,NA,NA,99.44852941176471,NA
84770,Washington County,UT,NA,NA,77.11397058823529,NA
84790,Washington County,UT,NA,NA,44.11764705882353,NA
05001,Windsor County,VT,NA,NA,83.73161764705883,NA
05101,Windham County,VT,NA,NA,90.16544117647058,NA
05482,Chittenden County,VT,NA,NA,99.17279411764706,NA
20147,Loudoun County,VA,NA,NA,52.48161764705882,NA
22015,Fairfax County,VA,NA,49.47976878612717,NA,NA
22046,Falls Church city,VA,NA,83.46820809248555,NA,92.25092250922509
22151,Fairfax County,VA,76.27118644067797,NA,NA,NA
22182,Fairfax County,VA,NA,NA,NA,83.57933579335793
22191,Prince William County,VA,4.519774011299435,18.381502890173408,NA,NA
22192,Prince William County,VA,NA,19.884393063583815,NA,NA
22193,Prince William County,VA,5.649717514124294,NA,NA,NA
22309,Fairfax County,VA,NA,25.780346820809246,48.713235294117645,58.85608856088561
22315,Fairfax County,VA,NA,80,NA,NA
22602,Frederick County,VA,NA,NA,79.31985294117648,NA
22630,Warren County,VA,NA,23.815028901734102,NA,NA
22812,Rockingham County,VA,NA,NA,NA,86.71586715867159
22815,Rockingham County,VA,NA,NA,NA,55.1660516605166
22824,Shenandoah County,VA,NA,NA,92.55514705882352,NA
22835,Page County,VA,NA,NA,48.06985294117647,NA
22844,Shenandoah County,VA,NA,82.3121387283237,NA,NA
22901,Albemarle County,VA,NA,NA,94.30147058823529,9.22509225092251
22903,Charlottesville city,VA,19.774011299435028,NA,NA,NA
22942,Louisa County,VA,NA,NA,67.83088235294117,NA
22960,Orange County,VA,NA,62.080924855491325,NA,NA
22968,Greene County,VA,NA,58.72832369942197,NA,NA
22980,Waynesboro city,VA,NA,9.595375722543352,NA,NA
23040,Cumberland County,VA,NA,NA,95.03676470588235,NA
23061,Gloucester County,VA,NA,60,NA,NA
23103,Goochland County,VA,NA,NA,90.07352941176471,NA
23114,Chesterfield County,VA,NA,NA,NA,81.36531365313652
23185,James City County,VA,NA,NA,3.2169117647058822,NA
23188,James City County,VA,NA,NA,52.11397058823529,10.885608856088561
23225,Richmond city,VA,NA,NA,19.485294117647058,NA
23430,Isle of Wight County,VA,NA,NA,NA,33.76383763837638
23434,Suffolk city,VA,NA,NA,9.191176470588236,NA
23435,Suffolk city,VA,NA,NA,NA,83.39483394833948
23451,Virginia Beach city,VA,NA,NA,46.32352941176471,NA
23452,Virginia Beach city,VA,NA,97.57225433526011,NA,NA
23454,Virginia Beach city,VA,NA,NA,10.661764705882353,NA
23455,Virginia Beach city,VA,NA,NA,56.70955882352941,1.8450184501845017
23456,Virginia Beach city,VA,NA,53.98843930635838,NA,NA
23464,Virginia Beach city,VA,NA,NA,65.53308823529412,NA
23504,Norfolk city,VA,NA,NA,NA,47.601476014760145
23509,Norfolk city,VA,NA,39.075144508670526,NA,NA
23601,Newport News city,VA,NA,NA,41.268382352941174,NA
23602,Newport News city,VA,NA,NA,26.011029411764707,NA
23661,Hampton city,VA,NA,NA,58.08823529411765,NA
23669,Hampton city,VA,NA,52.2543352601156,NA,NA
23703,Portsmouth city,VA,NA,52.02312138728323,NA,NA
23832,Chesterfield County,VA,NA,NA,45.220588235294116,NA
23834,Colonial Heights city,VA,NA,NA,59.09926470588235,NA
23927,Mecklenburg County,VA,NA,97.22543352601156,NA,NA
24012,Roanoke city,VA,NA,NA,38.60294117647059,NA
24084,Pulaski County,VA,NA,NA,72.97794117647058,NA
24091,Floyd County,VA,NA,NA,NA,87.82287822878229
24151,Franklin County,VA,NA,NA,77.66544117647058,NA
24171,Patrick County,VA,NA,71.79190751445087,NA,NA
24175,Botetourt County,VA,NA,NA,98.16176470588235,NA
24184,Franklin County,VA,NA,NA,97.88602941176471,97.97047970479706
24210,Washington County,VA,NA,64.97109826589596,NA,NA
24211,Washington County,VA,NA,NA,53.49264705882353,NA
24224,Russell County,VA,NA,75.26011560693642,NA,NA
24251,Scott County,VA,NA,NA,79.87132352941177,NA
24256,Dickenson County,VA,NA,77.10982658959537,NA,NA
24266,Russell County,VA,NA,NA,61.12132352941176,NA
24293,Wise County,VA,NA,46.82080924855491,NA,NA
24301,Pulaski County,VA,NA,53.52601156069364,NA,NA
24343,Carroll County,VA,NA,NA,68.65808823529412,NA
24368,Wythe County,VA,NA,93.29479768786128,NA,NA
24382,Wythe County,VA,NA,85.20231213872832,NA,NA
24450,Rockbridge County,VA,NA,NA,50.091911764705884,NA
24477,Augusta County,VA,NA,56.06936416184971,NA,58.671586715867164
24502,Lynchburg city,VA,NA,NA,NA,13.837638376383765
24541,Danville city,VA,NA,NA,29.136029411764707,34.31734317343174
98004,King County,WA,NA,NA,64.0625,NA
98005,King County,WA,NA,80.92485549132948,NA,47.97047970479705
98012,Snohomish County,WA,7.344632768361582,NA,25.183823529411764,NA
98022,King County,WA,NA,55.83815028901734,NA,NA
98023,King County,WA,NA,NA,NA,23.43173431734317
98024,King County,WA,100,NA,NA,NA
98027,King County,WA,NA,NA,NA,52.398523985239855
98034,King County,WA,NA,NA,12.591911764705882,NA
98052,King County,WA,NA,NA,19.393382352941178,48.708487084870846
98053,King County,WA,NA,NA,34.74264705882353,NA
98056,King County,WA,NA,NA,53.40073529411765,NA
98057,King County,WA,NA,NA,61.85661764705882,NA
98065,King County,WA,NA,80.69364161849711,NA,NA
98072,King County,WA,NA,NA,53.033088235294116,NA
98074,King County,WA,48.0225988700565,84.85549132947978,NA,NA
98103,King County,WA,NA,73.64161849710983,NA,NA
98104,King County,WA,NA,NA,34.92647058823529,NA
98107,King County,WA,NA,65.89595375722543,NA,NA
98109,King County,WA,NA,NA,NA,54.79704797047971
98116,King County,WA,NA,NA,59.375,NA
98119,King County,WA,NA,NA,NA,69.55719557195572
98155,King County,WA,NA,NA,38.143382352941174,NA
98223,Snohomish County,WA,NA,23.352601156069362,17.830882352941178,NA
98270,Snohomish County,WA,NA,NA,NA,56.457564575645755
98273,Skagit County,WA,NA,NA,NA,8.856088560885608
98310,Kitsap County,WA,NA,NA,61.30514705882353,NA
98321,Pierce County,WA,NA,NA,66.54411764705883,NA
98329,Pierce County,WA,NA,NA,77.94117647058823,NA
98332,Pierce County,WA,NA,NA,79.22794117647058,85.05535055350553
98335,Pierce County,WA,NA,NA,31.70955882352941,NA
98349,Pierce County,WA,NA,NA,NA,91.69741697416974
98382,Clallam County,WA,NA,NA,37.224264705882355,73.61623616236163
98383,Kitsap County,WA,NA,NA,50.64338235294118,NA
98404,Pierce County,WA,NA,NA,39.43014705882353,NA
98528,Mason County,WA,NA,NA,78.58455882352942,NA
98626,Cowlitz County,WA,NA,41.040462427745666,NA,NA
98632,Cowlitz County,WA,NA,NA,4.779411764705882,NA
98674,Cowlitz County,WA,NA,NA,NA,88.74538745387454
98684,Clark County,WA,NA,NA,NA,83.76383763837639
98801,Chelan County,WA,NA,NA,6.61764705882353,NA
98823,Grant County,WA,NA,78.84393063583815,NA,NA
98826,Chelan County,WA,NA,94.33526011560693,NA,NA
98837,Grant County,WA,NA,28.439306358381504,28.21691176470588,NA
98901,Yakima County,WA,NA,NA,43.474264705882355,NA
98902,Yakima County,WA,NA,NA,22.702205882352942,NA
98908,Yakima County,WA,NA,NA,NA,13.468634686346864
98922,Kittitas County,WA,NA,NA,93.01470588235294,NA
98926,Kittitas County,WA,NA,77.57225433526011,NA,NA
99206,Spokane County,WA,NA,43.35260115606936,NA,NA
99324,Walla Walla County,WA,NA,94.21965317919076,NA,NA
99336,Benton County,WA,NA,13.294797687861271,NA,25.276752767527675
99338,Benton County,WA,NA,NA,28.768382352941174,NA
20002,District of Columbia,DC,NA,NA,7.077205882352941,NA
20009,District of Columbia,DC,NA,NA,74.81617647058823,NA
20011,District of Columbia,DC,NA,8.901734104046243,NA,NA
20019,District of Columbia,DC,NA,NA,NA,37.269372693726936
20020,District of Columbia,DC,NA,2.5433526011560694,NA,NA
25045,Kanawha County,WV,NA,NA,94.02573529411765,NA
25130,Boone County,WV,NA,94.6820809248555,NA,NA
25404,Berkeley County,WV,NA,NA,37.68382352941176,NA
25425,Jefferson County,WV,NA,NA,61.21323529411765,NA
25801,Raleigh County,WV,NA,NA,8.455882352941178,NA
25962,Greenbrier County,WV,NA,93.17919075144509,NA,NA
26062,Hancock County,WV,NA,NA,NA,11.992619926199263
26101,Wood County,WV,NA,NA,29.136029411764707,NA
26104,Wood County,WV,NA,NA,NA,19.00369003690037
26155,Wetzel County,WV,NA,NA,NA,71.03321033210332
26201,Upshur County,WV,NA,NA,NA,15.129151291512915
26241,Randolph County,WV,NA,29.132947976878615,56.06617647058824,NA
26301,Harrison County,WV,NA,8.092485549132949,NA,NA
26354,Taylor County,WV,NA,NA,42.1875,NA
26378,Lewis County,WV,NA,NA,97.97794117647058,NA
26431,Harrison County,WV,NA,NA,NA,80.81180811808119
26505,Monongalia County,WV,NA,NA,NA,16.420664206642066
26537,Preston County,WV,NA,NA,57.53676470588235,NA
53029,Waukesha County,WI,42.3728813559322,NA,NA,NA
53051,Waukesha County,WI,NA,41.27167630057804,NA,NA
53061,Calumet County,WI,NA,91.67630057803468,NA,NA
53066,Waukesha County,WI,NA,NA,10.845588235294118,NA
53081,Sheboygan County,WI,NA,43.93063583815029,21.96691176470588,NA
53094,Jefferson County,WI,NA,NA,26.65441176470588,NA
53121,Walworth County,WI,NA,NA,60.845588235294116,NA
53130,Milwaukee County,WI,NA,83.121387283237,NA,NA
53140,Kenosha County,WI,NA,12.138728323699421,NA,NA
53147,Walworth County,WI,NA,NA,33.63970588235294,NA
53150,Waukesha County,WI,NA,61.387283236994215,NA,NA
53151,Waukesha County,WI,NA,37.34104046242774,NA,NA
53158,Kenosha County,WI,NA,51.09826589595375,NA,NA
53172,Milwaukee County,WI,NA,34.104046242774565,NA,NA
53188,Waukesha County,WI,NA,NA,16.268382352941178,NA
53204,Milwaukee County,WI,NA,NA,33.18014705882353,NA
53205,Milwaukee County,WI,NA,3.005780346820809,NA,NA
53207,Milwaukee County,WI,NA,NA,NA,24.354243542435423
53209,Milwaukee County,WI,NA,NA,NA,9.778597785977858
53215,Milwaukee County,WI,NA,4.971098265895954,NA,NA
53225,Milwaukee County,WI,NA,11.676300578034681,NA,NA
53227,Milwaukee County,WI,NA,33.75722543352601,NA,NA
53406,Racine County,WI,NA,15.491329479768787,NA,NA
53511,Rock County,WI,NA,8.208092485549132,0.2757352941176471,0
53538,Jefferson County,WI,79.09604519774011,NA,NA,NA
54126,Brown County,WI,98.87005649717514,NA,NA,NA
54220,Manitowoc County,WI,NA,NA,1.6544117647058825,11.254612546125461
54303,Brown County,WI,NA,72.3699421965318,NA,NA
54304,Brown County,WI,NA,21.271676300578036,NA,NA
54451,Taylor County,WI,NA,NA,65.25735294117648,NA
54481,Portage County,WI,NA,20.115606936416185,NA,NA
54548,Oneida County,WI,NA,NA,97.42647058823529,NA
54568,Vilas County,WI,NA,NA,NA,61.43911439114391
54650,La Crosse County,WI,NA,NA,NA,92.98892988929889
54660,Monroe County,WI,83.61581920903954,NA,44.30147058823529,NA
54701,Eau Claire County,WI,NA,NA,NA,30.25830258302583
54751,Dunn County,WI,NA,32.02312138728324,NA,NA
54806,Ashland County,WI,NA,72.94797687861272,NA,NA
54830,Burnett County,WI,NA,NA,92.27941176470588,NA
54843,Sawyer County,WI,NA,93.75722543352602,NA,NA
54902,Winnebago County,WI,NA,NA,89.98161764705883,NA
54904,Winnebago County,WI,70.62146892655367,NA,NA,NA
54911,Outagamie County,WI,50.282485875706215,NA,NA,NA
54915,Outagamie County,WI,57.6271186440678,NA,NA,NA
54935,Fond du Lac County,WI,NA,NA,12.316176470588236,NA
54937,Fond du Lac County,WI,NA,NA,48.161764705882355,NA
54956,Winnebago County,WI,NA,25.317919075144506,NA,NA
54981,Waupaca County,WI,51.41242937853108,NA,NA,NA
82001,Laramie County,WY,NA,71.21387283236994,NA,NA
82633,Converse County,WY,NA,NA,53.86029411764706,NA
