ZipCode,county,state,Adult,Retirement,Geriatric
35022,Jefferson County,AL,NA,15.486725663716813,NA
35043,Shelby County,AL,80.65739570164348,NA,NA
35055,Cullman County,AL,NA,66.10619469026548,56.86274509803921
35057,Cullman County,AL,NA,82.30088495575221,NA
35096,Talladega County,AL,NA,NA,100
35173,Jefferson County,AL,51.32743362831859,75.75221238938053,NA
35184,Bibb County,AL,NA,80.61946902654867,NA
35208,Jefferson County,AL,NA,NA,80.63725490196079
35216,Jefferson County,AL,NA,51.32743362831859,NA
35217,Jefferson County,AL,NA,50.176991150442475,NA
35226,Jefferson County,AL,48.798988621997466,NA,NA
35242,Shelby County,AL,32.86978508217446,11.5929203539823,NA
35244,Jefferson County,AL,48.54614412136536,41.06194690265487,NA
35401,Tuscaloosa County,AL,25.158027812895067,NA,NA
35406,Tuscaloosa County,AL,NA,NA,39.46078431372549
35473,Tuscaloosa County,AL,NA,56.01769911504425,NA
35611,Limestone County,AL,74.46270543615677,NA,NA
35640,Morgan County,AL,34.51327433628318,NA,NA
35749,Madison County,AL,50.18963337547409,54.336283185840706,NA
35756,Limestone County,AL,NA,93.6283185840708,NA
35758,Madison County,AL,37.67383059418458,NA,NA
35759,Madison County,AL,NA,90.7079646017699,97.54901960784314
35801,Madison County,AL,71.17572692793932,NA,NA
35803,Madison County,AL,NA,36.46017699115045,NA
35805,Madison County,AL,NA,67.9646017699115,NA
35811,Madison County,AL,40.4551201011378,NA,NA
36024,Elmore County,AL,NA,94.33628318584071,NA
36027,Barbour County,AL,38.558786346396964,NA,NA
36054,Elmore County,AL,NA,68.31858407079646,NA
36078,Elmore County,AL,54.9936788874842,NA,NA
36089,Bullock County,AL,76.23261694058155,NA,NA
36104,Montgomery County,AL,57.64854614412137,NA,NA
36264,Cleburne County,AL,NA,97.43362831858407,NA
36305,Houston County,AL,59.67130214917825,NA,66.42156862745098
36530,Baldwin County,AL,NA,90.4424778761062,NA
36532,Baldwin County,AL,59.92414664981036,NA,NA
36535,Baldwin County,AL,NA,NA,33.088235294117645
36582,Mobile County,AL,NA,49.557522123893804,83.57843137254902
36603,Mobile County,AL,NA,NA,84.43627450980392
36605,Mobile County,AL,39.06447534766119,NA,NA
36606,Mobile County,AL,65.99241466498104,NA,NA
36609,Mobile County,AL,NA,NA,76.34803921568627
36693,Mobile County,AL,NA,NA,61.642156862745104
36695,Mobile County,AL,NA,NA,44.97549019607843
36701,Dallas County,AL,27.18078381795196,NA,NA
36801,Lee County,AL,NA,64.95575221238938,NA
36870,Lee County,AL,NA,73.36283185840709,NA
99611,Kenai Peninsula Borough,AK,NA,50.08849557522124,NA
99669,Kenai Peninsula Borough,AK,NA,58.14159292035398,NA
99701,Fairbanks North Star Borough,AK,34.7661188369153,73.1858407079646,NA
85022,Maricopa County,AZ,19.59544879898862,26.63716814159292,NA
85023,Maricopa County,AZ,75.85335018963337,NA,NA
85032,Maricopa County,AZ,14.538558786346398,24.690265486725664,NA
85033,Maricopa County,AZ,96.20733249051833,NA,NA
85086,Maricopa County,AZ,NA,94.69026548672566,NA
85120,Pinal County,AZ,NA,95.75221238938053,NA
85123,Pinal County,AZ,72.69279393173198,NA,86.88725490196079
85201,Maricopa County,AZ,NA,NA,37.00980392156863
85202,Maricopa County,AZ,90.2654867256637,NA,NA
85215,Maricopa County,AZ,NA,76.3716814159292,NA
85225,Maricopa County,AZ,90.39190897597977,NA,NA
85248,Maricopa County,AZ,82.80657395701644,NA,NA
85257,Maricopa County,AZ,NA,67.9646017699115,41.42156862745098
85281,Maricopa County,AZ,NA,76.46017699115045,NA
85283,Maricopa County,AZ,NA,24.601769911504427,NA
85295,Maricopa County,AZ,NA,77.69911504424779,NA
85298,Maricopa County,AZ,NA,63.982300884955755,NA
85301,Maricopa County,AZ,22.629582806573957,NA,NA
85308,Maricopa County,AZ,NA,15.309734513274337,NA
85310,Maricopa County,AZ,75.72692793931732,NA,NA
85335,Maricopa County,AZ,NA,56.63716814159292,81.00490196078431
85340,Maricopa County,AZ,67.88874841972186,NA,NA
85344,La Paz County,AZ,NA,35.39823008849557,75.12254901960785
85351,Maricopa County,AZ,NA,75.22123893805309,NA
85379,Maricopa County,AZ,31.3527180783818,60.707964601769916,NA
85383,Maricopa County,AZ,NA,37.16814159292036,NA
85392,Maricopa County,AZ,NA,NA,76.22549019607843
85607,Cochise County,AZ,27.560050568900124,NA,NA
85614,Pima County,AZ,NA,18.672566371681416,3.063725490196078
85615,Cochise County,AZ,NA,NA,89.2156862745098
85710,Pima County,AZ,NA,15.04424778761062,NA
85730,Pima County,AZ,NA,NA,49.877450980392155
85737,Pima County,AZ,NA,79.82300884955752,NA
85739,Pinal County,AZ,NA,26.8141592920354,NA
85901,Navajo County,AZ,53.09734513274337,NA,NA
85937,Navajo County,AZ,NA,NA,90.19607843137256
86004,Coconino County,AZ,62.7054361567636,NA,NA
86005,Coconino County,AZ,77.37041719342605,NA,NA
86303,Yavapai County,AZ,66.3716814159292,NA,NA
86305,Yavapai County,AZ,NA,34.95575221238938,54.04411764705882
86314,Yavapai County,AZ,NA,60.53097345132743,9.803921568627452
86315,Yavapai County,AZ,93.29962073324906,NA,NA
86326,Yavapai County,AZ,NA,NA,17.647058823529413
86327,Yavapai County,AZ,NA,NA,45.220588235294116
86336,Yavapai County,AZ,NA,NA,66.91176470588235
86401,Mohave County,AZ,NA,7.079646017699115,NA
86403,Mohave County,AZ,45.51201011378003,NA,NA
86409,Mohave County,AZ,NA,NA,19.975490196078432
86429,Mohave County,AZ,95.19595448798988,NA,NA
86442,Mohave County,AZ,NA,NA,18.38235294117647
71655,Drew County,AR,NA,NA,73.52941176470588
71667,Lincoln County,AR,85.08217446270544,NA,NA
71671,Bradley County,AR,90.64475347661188,NA,NA
71801,Hempstead County,AR,NA,80,NA
71901,Garland County,AR,47.40834386852086,NA,NA
71909,Garland County,AR,NA,31.76991150442478,47.181372549019606
71953,Polk County,AR,NA,54.07079646017699,NA
72022,Saline County,AR,96.83944374209861,NA,NA
72023,Lonoke County,AR,61.820480404551205,NA,NA
72032,Faulkner County,AR,NA,44.51327433628319,NA
72103,Saline County,AR,NA,68.31858407079646,NA
72104,Hot Spring County,AR,NA,61.769911504424776,NA
72117,Pulaski County,AR,54.740834386852086,NA,NA
72173,Faulkner County,AR,NA,NA,82.47549019607843
72370,Mississippi County,AR,87.98988621997471,NA,NA
72455,Randolph County,AR,81.28950695322376,NA,NA
72501,Independence County,AR,33.6283185840708,NA,65.07352941176471
72601,Boone County,AR,56.25790139064475,NA,NA
72653,Baxter County,AR,42.7307206068268,97.07964601769912,NA
72712,Benton County,AR,91.27686472819217,41.23893805309734,NA
72714,Benton County,AR,NA,NA,93.75
72736,Benton County,AR,NA,97.52212389380531,NA
72756,Benton County,AR,NA,NA,85.66176470588235
90007,Los Angeles County,CA,NA,NA,49.63235294117647
90012,Los Angeles County,CA,NA,53.98230088495575,NA
90013,Los Angeles County,CA,NA,66.72566371681415,NA
90022,Los Angeles County,CA,NA,47.07964601769912,NA
90026,Los Angeles County,CA,46.523388116308475,NA,23.897058823529413
90027,Los Angeles County,CA,NA,NA,15.931372549019606
90029,Los Angeles County,CA,NA,72.30088495575221,NA
90034,Los Angeles County,CA,NA,NA,36.39705882352941
90043,Los Angeles County,CA,NA,20.088495575221238,NA
90046,Los Angeles County,CA,52.591656131479134,NA,5.0245098039215685
90047,Los Angeles County,CA,15.6763590391909,NA,NA
90066,Los Angeles County,CA,NA,31.150442477876105,26.225490196078432
90210,Los Angeles County,CA,NA,49.20353982300885,NA
90221,Los Angeles County,CA,NA,NA,50.857843137254896
90222,Los Angeles County,CA,NA,64.95575221238938,NA
90245,Los Angeles County,CA,NA,65.84070796460178,NA
90247,Los Angeles County,CA,NA,NA,50.73529411764706
90274,Los Angeles County,CA,NA,NA,43.504901960784316
90291,Los Angeles County,CA,NA,59.823008849557525,NA
90603,Los Angeles County,CA,NA,53.89380530973451,NA
90605,Los Angeles County,CA,NA,NA,59.31372549019608
90620,Orange County,CA,NA,NA,24.754901960784316
90720,Orange County,CA,NA,NA,66.54411764705883
90731,Los Angeles County,CA,31.605562579013906,NA,NA
90746,Los Angeles County,CA,NA,55.84070796460176,NA
90807,Los Angeles County,CA,NA,NA,53.67647058823529
90815,Los Angeles County,CA,51.07458912768648,NA,NA
91001,Los Angeles County,CA,NA,72.9203539823009,NA
91006,Los Angeles County,CA,NA,NA,64.2156862745098
91202,Los Angeles County,CA,NA,NA,25.245098039215684
91206,Los Angeles County,CA,NA,NA,9.681372549019608
91324,Los Angeles County,CA,NA,91.50442477876106,NA
91325,Los Angeles County,CA,NA,NA,54.90196078431373
91331,Los Angeles County,CA,NA,17.079646017699115,NA
91361,Ventura County,CA,NA,NA,76.83823529411765
91364,Los Angeles County,CA,NA,NA,42.76960784313725
91403,Los Angeles County,CA,NA,NA,37.254901960784316
91504,Los Angeles County,CA,NA,96.3716814159292,NA
91750,Los Angeles County,CA,86.34639696586599,NA,NA
91752,Riverside County,CA,NA,65.13274336283186,NA
91754,Los Angeles County,CA,NA,60.97345132743362,NA
91755,Los Angeles County,CA,90.51833122629583,NA,NA
91915,San Diego County,CA,NA,95.39823008849557,NA
91942,San Diego County,CA,NA,43.27433628318584,NA
91977,San Diego County,CA,NA,26.371681415929203,NA
92009,San Diego County,CA,NA,42.92035398230089,NA
92021,San Diego County,CA,NA,12.300884955752213,NA
92056,San Diego County,CA,NA,32.30088495575221,NA
92071,San Diego County,CA,NA,NA,59.681372549019606
92081,San Diego County,CA,NA,70.97345132743362,NA
92083,San Diego County,CA,63.843236409608096,67.16814159292035,NA
92103,San Diego County,CA,NA,NA,42.52450980392157
92111,San Diego County,CA,NA,81.94690265486726,25.36764705882353
92114,San Diego County,CA,NA,NA,64.4607843137255
92115,San Diego County,CA,32.61694058154235,NA,NA
92117,San Diego County,CA,89.25410872313527,NA,NA
92118,San Diego County,CA,NA,94.42477876106194,NA
92128,San Diego County,CA,NA,49.82300884955752,NA
92201,Riverside County,CA,NA,NA,25.98039215686275
92203,Riverside County,CA,NA,17.168141592920357,NA
92220,Riverside County,CA,NA,NA,24.63235294117647
92223,Riverside County,CA,30.08849557522124,40.707964601769916,NA
92225,Riverside County,CA,NA,NA,74.75490196078431
92249,Imperial County,CA,NA,97.69911504424779,NA
92250,Imperial County,CA,NA,88.67256637168141,NA
92252,San Bernardino County,CA,94.18457648546145,NA,NA
92253,Riverside County,CA,NA,8.495575221238937,NA
92262,Riverside County,CA,55.87863463969659,NA,NA
92264,Riverside County,CA,47.02907711757269,NA,NA
92276,Riverside County,CA,NA,82.38938053097345,NA
92325,San Bernardino County,CA,NA,86.01769911504424,NA
92506,Riverside County,CA,NA,NA,51.9607843137255
92507,Riverside County,CA,NA,73.53982300884955,NA
92508,Riverside County,CA,NA,95.48672566371681,NA
92543,Riverside County,CA,NA,NA,51.71568627450981
92545,Riverside County,CA,NA,39.557522123893804,NA
92562,Riverside County,CA,25.663716814159294,NA,NA
92585,Riverside County,CA,NA,NA,92.64705882352942
92592,Riverside County,CA,NA,NA,55.75980392156863
92604,Orange County,CA,NA,64.60176991150442,NA
92626,Orange County,CA,NA,45.57522123893805,NA
92647,Orange County,CA,NA,19.380530973451325,NA
92656,Orange County,CA,33.88116308470291,NA,NA
92660,Orange County,CA,NA,NA,12.009803921568627
92675,Orange County,CA,NA,NA,40.07352941176471
92692,Orange County,CA,NA,NA,8.823529411764707
92802,Orange County,CA,56.1314791403287,NA,NA
92821,Orange County,CA,NA,NA,30.26960784313725
92866,Orange County,CA,NA,86.19469026548673,NA
92870,Orange County,CA,NA,NA,13.725490196078432
92882,Riverside County,CA,NA,37.256637168141594,NA
92886,Orange County,CA,NA,16.194690265486724,NA
93004,Ventura County,CA,NA,NA,53.55392156862745
93010,Ventura County,CA,NA,NA,9.068627450980392
93015,Ventura County,CA,NA,80.97345132743364,NA
93023,Ventura County,CA,72.31352718078382,NA,NA
93105,Santa Barbara County,CA,NA,NA,59.19117647058824
93230,Kings County,CA,17.572692793931733,13.982300884955754,NA
93245,Kings County,CA,NA,71.32743362831859,NA
93274,Tulare County,CA,5.689001264222504,NA,NA
93304,Kern County,CA,NA,47.256637168141594,NA
93305,Kern County,CA,41.340075853350186,NA,NA
93311,Kern County,CA,63.59039190897599,NA,NA
93313,Kern County,CA,NA,NA,81.49509803921569
93436,Santa Barbara County,CA,NA,NA,12.5
93444,San Luis Obispo County,CA,61.18836915297092,NA,NA
93455,Santa Barbara County,CA,NA,28.49557522123894,NA
93458,Santa Barbara County,CA,14.285714285714285,28.31858407079646,NA
93534,Los Angeles County,CA,NA,NA,60.5392156862745
93555,Kern County,CA,24.399494310998733,NA,NA
93614,Madera County,CA,NA,NA,80.02450980392157
93620,Merced County,CA,NA,97.16814159292035,NA
93703,Fresno County,CA,NA,NA,74.1421568627451
93725,Fresno County,CA,68.3944374209861,NA,NA
93727,Fresno County,CA,NA,NA,36.15196078431372
93923,Monterey County,CA,NA,59.91150442477876,NA
94010,San Mateo County,CA,NA,33.98230088495575,NA
94019,San Mateo County,CA,NA,NA,82.84313725490196
94028,San Mateo County,CA,NA,NA,60.29411764705882
94063,San Mateo County,CA,41.97218710493047,NA,NA
94080,San Mateo County,CA,32.99620733249052,NA,NA
94112,San Francisco County,CA,NA,33.36283185840708,2.696078431372549
94117,San Francisco County,CA,NA,NA,69.6078431372549
94303,San Mateo County,CA,NA,26.991150442477874,25
94501,Alameda County,CA,NA,45.2212389380531,22.794117647058822
94505,Contra Costa County,CA,NA,NA,87.99019607843137
94507,Contra Costa County,CA,NA,72.65486725663717,NA
94520,Contra Costa County,CA,NA,64.42477876106196,NA
94521,Contra Costa County,CA,NA,NA,20.955882352941178
94523,Contra Costa County,CA,NA,85.57522123893804,NA
94536,Alameda County,CA,NA,59.38053097345133,NA
94538,Alameda County,CA,47.15549936788875,NA,NA
94542,Alameda County,CA,88.8748419721871,NA,NA
94546,Alameda County,CA,NA,NA,20.465686274509803
94549,Contra Costa County,CA,NA,61.15044247787611,NA
94550,Alameda County,CA,47.91403286978508,NA,NA
94553,Contra Costa County,CA,NA,26.46017699115044,NA
94558,Napa County,CA,NA,6.283185840707965,22.54901960784314
94559,Napa County,CA,64.9810366624526,NA,NA
94583,Contra Costa County,CA,NA,NA,65.44117647058823
94585,Solano County,CA,81.03666245259166,NA,NA
94587,Alameda County,CA,NA,20.707964601769913,NA
94590,Solano County,CA,NA,NA,45.588235294117645
94595,Contra Costa County,CA,NA,81.94690265486726,36.88725490196079
94597,Contra Costa County,CA,NA,76.01769911504425,77.81862745098039
94603,Alameda County,CA,NA,NA,70.83333333333334
94621,Alameda County,CA,NA,67.34513274336284,NA
94703,Alameda County,CA,NA,NA,84.06862745098039
94704,Alameda County,CA,NA,NA,94.97549019607843
94705,Alameda County,CA,NA,NA,76.7156862745098
94707,Alameda County,CA,NA,NA,75.98039215686273
94709,Alameda County,CA,NA,NA,89.58333333333334
94806,Contra Costa County,CA,NA,20.884955752212388,17.769607843137255
94901,Marin County,CA,NA,NA,36.6421568627451
94928,Sonoma County,CA,63.337547408343866,44.24778761061947,NA
94965,Marin County,CA,NA,93.1858407079646,NA
95050,Santa Clara County,CA,NA,93.00884955752213,NA
95051,Santa Clara County,CA,NA,NA,38.60294117647059
95060,Santa Cruz County,CA,NA,NA,70.22058823529412
95076,Santa Cruz County,CA,NA,73.27433628318583,NA
95130,Santa Clara County,CA,NA,95.13274336283186,NA
95136,Santa Clara County,CA,60.17699115044248,NA,75
95207,San Joaquin County,CA,NA,NA,46.07843137254902
95209,San Joaquin County,CA,46.902654867256636,NA,NA
95330,San Joaquin County,CA,NA,82.38938053097345,90.80882352941177
95336,San Joaquin County,CA,NA,NA,90.31862745098039
95340,Merced County,CA,35.39823008849557,NA,NA
95350,Stanislaus County,CA,NA,12.212389380530974,NA
95351,Stanislaus County,CA,19.97471554993679,NA,NA
95355,Stanislaus County,CA,NA,61.32743362831859,NA
95356,Stanislaus County,CA,NA,43.1858407079646,NA
95382,Stanislaus County,CA,NA,NA,45.83333333333333
95401,Sonoma County,CA,NA,51.1504424778761,NA
95403,Sonoma County,CA,NA,NA,13.848039215686276
95409,Sonoma County,CA,NA,NA,12.867647058823529
95422,Lake County,CA,62.07332490518331,53.36283185840708,NA
95451,Lake County,CA,NA,80.88495575221238,NA
95482,Mendocino County,CA,36.283185840707965,NA,NA
95503,Humboldt County,CA,49.68394437420986,NA,NA
95603,Placer County,CA,NA,88.76106194690266,NA
95605,Yolo County,CA,NA,NA,91.91176470588235
95608,Sacramento County,CA,NA,NA,6.127450980392156
95621,Sacramento County,CA,42.09860935524652,72.56637168141593,NA
95630,Sacramento County,CA,NA,16.283185840707965,NA
95632,Sacramento County,CA,NA,42.30088495575221,63.84803921568627
95667,El Dorado County,CA,NA,3.185840707964602,NA
95670,Sacramento County,CA,NA,31.76991150442478,NA
95677,Placer County,CA,NA,80.35398230088495,NA
95682,El Dorado County,CA,NA,39.91150442477876,NA
95687,Solano County,CA,NA,20.265486725663717,NA
95693,Sacramento County,CA,NA,88.31858407079646,NA
95694,Yolo County,CA,NA,97.2566371681416,NA
95695,Yolo County,CA,NA,NA,62.5
95758,Sacramento County,CA,NA,NA,40.318627450980394
95816,Sacramento County,CA,54.36156763590392,NA,NA
95820,Sacramento County,CA,52.338811630847026,NA,NA
95822,Sacramento County,CA,NA,NA,19.607843137254903
95823,Sacramento County,CA,NA,NA,27.941176470588236
95826,Sacramento County,CA,NA,NA,53.18627450980392
95828,Sacramento County,CA,39.69658659924147,NA,NA
95842,Sacramento County,CA,NA,92.21238938053096,NA
95954,Butte County,CA,NA,35.13274336283186,NA
95969,Butte County,CA,NA,6.548672566371681,NA
95973,Butte County,CA,21.997471554993677,NA,NA
95991,Sutter County,CA,NA,NA,41.17647058823529
96094,Siskiyou County,CA,NA,NA,86.6421568627451
80002,Jefferson County,CO,NA,78.23008849557522,NA
80010,Arapahoe County,CO,69.91150442477876,45.2212389380531,NA
80011,Arapahoe County,CO,7.458912768647282,NA,NA
80014,Arapahoe County,CO,NA,24.95575221238938,NA
80015,Arapahoe County,CO,17.44627054361568,NA,NA
80016,Arapahoe County,CO,21.871049304677623,NA,NA
80027,Boulder County,CO,NA,54.690265486725664,NA
80031,Adams County,CO,NA,59.02654867256637,NA
80126,Douglas County,CO,52.97092288242731,NA,NA
80130,Douglas County,CO,NA,82.7433628318584,NA
80211,Denver County,CO,NA,NA,68.87254901960785
80231,Denver County,CO,37.80025284450063,NA,NA
80238,Denver County,CO,91.02402022756006,NA,NA
80401,Jefferson County,CO,NA,NA,46.200980392156865
80525,Larimer County,CO,NA,87.16814159292035,5.759803921568627
80526,Larimer County,CO,36.03034134007586,33.097345132743364,NA
80537,Larimer County,CO,NA,13.362831858407079,NA
80620,Weld County,CO,74.58912768647282,71.41592920353982,NA
80631,Weld County,CO,8.34386852085967,24.15929203539823,NA
80634,Weld County,CO,NA,1.238938053097345,NA
80701,Morgan County,CO,20.480404551201012,NA,50.49019607843137
80831,El Paso County,CO,70.29077117572693,NA,NA
80904,El Paso County,CO,NA,64.69026548672566,NA
80922,El Paso County,CO,NA,78.05309734513274,NA
81003,Pueblo County,CO,NA,NA,81.74019607843137
81005,Pueblo County,CO,NA,NA,36.029411764705884
81007,Pueblo County,CO,44.50063211125158,NA,NA
81082,Las Animas County,CO,67.2566371681416,NA,NA
81147,Archuleta County,CO,87.48419721871049,NA,NA
81230,Gunnison County,CO,NA,NA,84.80392156862744
81504,Mesa County,CO,NA,57.52212389380531,NA
81601,Garfield County,CO,78.63463969658659,96.46017699115043,NA
06010,Hartford County,CT,NA,2.2123893805309733,NA
06035,Hartford County,CT,94.3109987357775,NA,NA
06040,Hartford County,CT,9.987357774968395,NA,NA
06043,Tolland County,CT,NA,NA,96.81372549019608
06051,Hartford County,CT,NA,NA,35.53921568627451
06053,Hartford County,CT,37.420986093552465,NA,NA
06105,Hartford County,CT,NA,34.424778761061944,NA
06108,Hartford County,CT,30.720606826801518,NA,NA
06118,Hartford County,CT,24.52591656131479,NA,NA
06226,Windham County,CT,47.281921618204805,NA,NA
06450,New Haven County,CT,NA,NA,60.049019607843135
06451,New Haven County,CT,NA,39.02654867256637,NA
06477,New Haven County,CT,NA,NA,69.6078431372549
06479,Hartford County,CT,NA,NA,72.79411764705883
06489,Hartford County,CT,NA,53.53982300884957,7.230392156862746
06517,New Haven County,CT,NA,43.097345132743364,NA
06518,New Haven County,CT,NA,77.87610619469027,NA
06606,Fairfield County,CT,NA,NA,36.76470588235294
06710,New Haven County,CT,59.797724399494314,NA,NA
06770,New Haven County,CT,23.767383059418457,NA,23.161764705882355
06820,Fairfield County,CT,NA,NA,80.51470588235294
06830,Fairfield County,CT,NA,37.78761061946903,NA
06850,Fairfield County,CT,NA,85.929203539823,NA
06851,Fairfield County,CT,NA,52.477876106194685,NA
06902,Fairfield County,CT,NA,64.86725663716814,4.28921568627451
19707,New Castle County,DE,NA,NA,46.81372549019608
19709,New Castle County,DE,NA,NA,63.357843137254896
19720,New Castle County,DE,16.68773704171934,NA,NA
19805,New Castle County,DE,2.5284450063211126,NA,NA
19809,New Castle County,DE,NA,NA,89.82843137254902
19901,Kent County,DE,NA,17.43362831858407,NA
19904,Kent County,DE,NA,14.33628318584071,NA
19947,Sussex County,DE,NA,40.35398230088496,NA
19958,Sussex County,DE,NA,3.2743362831858405,NA
19963,Sussex County,DE,NA,72.30088495575221,NA
19966,Sussex County,DE,NA,7.876106194690266,NA
32003,Clay County,FL,60.17699115044248,52.03539823008849,58.700980392156865
32011,Nassau County,FL,NA,58.4070796460177,NA
32034,Nassau County,FL,NA,8.230088495575222,NA
32040,Baker County,FL,NA,81.06194690265487,NA
32043,Clay County,FL,43.48925410872314,NA,NA
32052,Hamilton County,FL,NA,86.3716814159292,NA
32073,Clay County,FL,23.38811630847029,NA,NA
32082,St. Johns County,FL,NA,29.734513274336283,22.67156862745098
32084,St. Johns County,FL,NA,NA,34.43627450980392
32097,Nassau County,FL,NA,36.10619469026549,NA
32148,Putnam County,FL,NA,72.9203539823009,NA
32169,Volusia County,FL,NA,NA,57.59803921568627
32206,Duval County,FL,NA,21.327433628318584,NA
32207,Duval County,FL,NA,42.65486725663717,91.29901960784314
32208,Duval County,FL,NA,5.132743362831858,NA
32216,Duval County,FL,NA,27.876106194690266,NA
32218,Duval County,FL,19.469026548672566,NA,NA
32220,Duval County,FL,NA,54.955752212389385,NA
32224,Duval County,FL,NA,NA,33.700980392156865
32226,Duval County,FL,NA,84.60176991150442,NA
32233,Duval County,FL,39.19089759797724,NA,NA
32244,Duval County,FL,NA,NA,35.049019607843135
32250,Duval County,FL,NA,30.619469026548675,NA
32254,Duval County,FL,48.419721871049305,71.68141592920354,NA
32256,Duval County,FL,NA,38.230088495575224,29.901960784313726
32259,St. Johns County,FL,43.23640960809102,NA,NA
32266,Duval County,FL,97.34513274336283,NA,NA
32310,Leon County,FL,69.27939317319847,NA,NA
32333,Gadsden County,FL,NA,80.26548672566372,NA
32405,Bay County,FL,26.548672566371685,NA,NA
32459,Walton County,FL,NA,29.557522123893804,NA
32465,Gulf County,FL,NA,NA,94.36274509803921
32501,Escambia County,FL,NA,NA,54.2892156862745
32514,Escambia County,FL,NA,12.035398230088495,NA
32526,Escambia County,FL,NA,NA,6.25
32539,Okaloosa County,FL,NA,NA,68.38235294117648
32548,Okaloosa County,FL,NA,NA,98.2843137254902
32563,Santa Rosa County,FL,NA,61.504424778761056,NA
32566,Santa Rosa County,FL,NA,21.238938053097346,27.573529411764707
32570,Santa Rosa County,FL,NA,NA,9.313725490196079
32571,Santa Rosa County,FL,NA,NA,27.083333333333332
32578,Okaloosa County,FL,NA,NA,18.627450980392158
32606,Alachua County,FL,69.15297092288243,NA,NA
32607,Alachua County,FL,NA,78.40707964601769,NA
32726,Lake County,FL,NA,NA,37.86764705882353
32730,Seminole County,FL,NA,NA,92.8921568627451
32751,Orange County,FL,NA,NA,48.40686274509804
32765,Seminole County,FL,NA,41.94690265486726,NA
32771,Seminole County,FL,NA,84.60176991150442,NA
32778,Lake County,FL,NA,NA,29.411764705882355
32780,Brevard County,FL,NA,NA,4.166666666666666
32817,Orange County,FL,NA,67.9646017699115,NA
32818,Orange County,FL,NA,52.743362831858406,NA
32821,Orange County,FL,81.79519595448798,NA,NA
32824,Orange County,FL,73.95701643489254,NA,NA
32839,Orange County,FL,NA,NA,53.799019607843135
32920,Brevard County,FL,NA,NA,63.357843137254896
32931,Brevard County,FL,NA,NA,37.745098039215684
32940,Brevard County,FL,NA,24.424778761061948,4.6568627450980395
32952,Brevard County,FL,NA,46.8141592920354,NA
32962,Indian River County,FL,49.43109987357775,NA,NA
32966,Indian River County,FL,NA,82.65486725663716,NA
33004,Broward County,FL,NA,71.94690265486726,NA
33023,Broward County,FL,NA,NA,78.55392156862744
33027,Broward County,FL,NA,NA,4.534313725490196
33030,Miami-Dade County,FL,NA,79.64601769911505,NA
33031,Miami-Dade County,FL,NA,NA,94.85294117647058
33037,Monroe County,FL,NA,73.6283185840708,NA
33054,Miami-Dade County,FL,NA,74.51327433628319,NA
33066,Broward County,FL,90.89759797724399,NA,NA
33069,Broward County,FL,NA,NA,11.27450980392157
33135,Miami-Dade County,FL,NA,NA,22.058823529411764
33142,Miami-Dade County,FL,18.45764854614412,NA,16.29901960784314
33145,Miami-Dade County,FL,NA,NA,30.514705882352942
33149,Miami-Dade County,FL,NA,90.79646017699115,NA
33154,Miami-Dade County,FL,NA,79.73451327433628,NA
33161,Miami-Dade County,FL,34.639696586599236,NA,NA
33172,Miami-Dade County,FL,82.0480404551201,NA,NA
33178,Miami-Dade County,FL,NA,79.20353982300885,NA
33179,Miami-Dade County,FL,NA,66.54867256637168,NA
33183,Miami-Dade County,FL,NA,74.33628318584071,NA
33193,Miami-Dade County,FL,NA,56.37168141592921,NA
33325,Broward County,FL,NA,68.84955752212389,NA
33328,Broward County,FL,NA,NA,41.911764705882355
33407,Palm Beach County,FL,NA,55.309734513274336,NA
33414,Palm Beach County,FL,NA,NA,64.95098039215686
33417,Palm Beach County,FL,NA,NA,19.730392156862745
33433,Palm Beach County,FL,NA,NA,1.8382352941176472
33435,Palm Beach County,FL,NA,NA,54.65686274509803
33441,Broward County,FL,NA,NA,75.8578431372549
33467,Palm Beach County,FL,NA,NA,13.112745098039216
33478,Palm Beach County,FL,NA,NA,96.69117647058823
33484,Palm Beach County,FL,NA,NA,2.083333333333333
33510,Hillsborough County,FL,57.64854614412137,NA,NA
33541,Pasco County,FL,NA,NA,99.01960784313727
33542,Pasco County,FL,NA,80.08849557522124,NA
33565,Hillsborough County,FL,72.43994943109988,NA,NA
33598,Hillsborough County,FL,NA,NA,78.06372549019608
33612,Hillsborough County,FL,NA,NA,39.58333333333333
33701,Pinellas County,FL,NA,87.69911504424779,NA
33708,Pinellas County,FL,NA,NA,70.34313725490196
33716,Pinellas County,FL,NA,NA,83.2107843137255
33767,Pinellas County,FL,NA,83.00884955752213,NA
33815,Polk County,FL,40.32869785082174,NA,NA
33852,Highlands County,FL,61.06194690265486,17.876106194690266,NA
33880,Polk County,FL,NA,47.07964601769912,NA
33884,Polk County,FL,NA,NA,27.205882352941174
33898,Polk County,FL,59.41845764854614,NA,NA
33901,Lee County,FL,54.86725663716814,44.690265486725664,NA
33905,Lee County,FL,NA,62.65486725663717,NA
33907,Lee County,FL,48.29329962073325,NA,NA
33908,Lee County,FL,NA,NA,7.720588235294118
33912,Lee County,FL,84.19721871049305,NA,NA
33914,Lee County,FL,NA,50,NA
33917,Lee County,FL,NA,17.61061946902655,12.745098039215685
33919,Lee County,FL,NA,12.389380530973451,NA
33928,Lee County,FL,NA,89.29203539823008,NA
33935,Hendry County,FL,NA,96.10619469026548,NA
33936,Lee County,FL,49.05183312262958,NA,NA
33950,Charlotte County,FL,NA,28.938053097345133,NA
33952,Charlotte County,FL,NA,69.91150442477876,NA
33993,Lee County,FL,NA,83.1858407079646,NA
34120,Collier County,FL,87.86346396965867,43.27433628318584,NA
34135,Lee County,FL,NA,12.920353982300886,NA
34201,Manatee County,FL,NA,91.32743362831859,NA
34203,Manatee County,FL,NA,NA,13.970588235294118
34223,Sarasota County,FL,NA,NA,31.372549019607842
34231,Sarasota County,FL,NA,15.929203539823009,3.553921568627451
34232,Sarasota County,FL,NA,32.123893805309734,NA
34235,Sarasota County,FL,NA,NA,34.681372549019606
34240,Sarasota County,FL,NA,88.31858407079646,NA
34242,Sarasota County,FL,NA,83.36283185840708,NA
34243,Manatee County,FL,NA,23.53982300884956,NA
34287,Sarasota County,FL,NA,NA,14.460784313725492
34292,Sarasota County,FL,NA,NA,10.294117647058822
34480,Marion County,FL,61.441213653603036,NA,NA
34609,Hernando County,FL,NA,NA,19.11764705882353
34652,Pasco County,FL,NA,NA,43.627450980392155
34668,Pasco County,FL,NA,NA,28.799019607843135
34684,Pinellas County,FL,NA,11.504424778761061,NA
34689,Pinellas County,FL,NA,39.73451327433628,NA
34744,Osceola County,FL,75.22123893805309,NA,NA
34787,Orange County,FL,NA,NA,19.240196078431374
34974,Okeechobee County,FL,80.53097345132744,NA,NA
30004,Fulton County,GA,NA,36.283185840707965,NA
30012,Rockdale County,GA,NA,81.32743362831857,NA
30016,Newton County,GA,12.389380530973451,NA,NA
30019,Gwinnett County,GA,38.685208596713025,NA,NA
30022,Fulton County,GA,NA,88.05309734513274,NA
30024,Gwinnett County,GA,NA,NA,39.09313725490196
30030,DeKalb County,GA,NA,59.73451327433629,NA
30032,DeKalb County,GA,NA,10.442477876106194,NA
30033,DeKalb County,GA,NA,75.04424778761062,NA
30034,DeKalb County,GA,30.973451327433626,NA,NA
30035,DeKalb County,GA,59.29203539823009,NA,NA
30039,Gwinnett County,GA,NA,55.48672566371682,44.36274509803921
30040,Forsyth County,GA,25.790139064475348,NA,NA
30044,Gwinnett County,GA,NA,50.707964601769916,NA
30045,Gwinnett County,GA,NA,NA,88.11274509803921
30047,Gwinnett County,GA,NA,NA,41.544117647058826
30066,Cobb County,GA,47.53476611883691,NA,68.50490196078431
30075,Fulton County,GA,NA,18.318584070796458,NA
30078,Gwinnett County,GA,NA,NA,61.029411764705884
30083,DeKalb County,GA,NA,31.061946902654867,NA
30087,DeKalb County,GA,NA,19.380530973451325,NA
30088,DeKalb County,GA,NA,NA,86.02941176470588
30102,Cherokee County,GA,NA,29.911504424778762,NA
30126,Cobb County,GA,42.857142857142854,NA,NA
30132,Paulding County,GA,33.37547408343868,NA,NA
30173,Floyd County,GA,86.5992414664981,NA,NA
30175,Pickens County,GA,90.64475347661188,NA,NA
30215,Fayette County,GA,NA,34.15929203539823,NA
30224,Spalding County,GA,54.614412136536025,NA,NA
30228,Henry County,GA,NA,NA,65.31862745098039
30233,Butts County,GA,NA,NA,94.73039215686273
30253,Henry County,GA,NA,NA,92.27941176470588
30257,Lamar County,GA,NA,99.29203539823008,NA
30281,Henry County,GA,NA,NA,45.955882352941174
30305,Fulton County,GA,NA,NA,38.48039215686275
30307,DeKalb County,GA,NA,NA,93.38235294117648
30311,Fulton County,GA,NA,19.646017699115045,NA
30318,Fulton County,GA,NA,28.84955752212389,NA
30326,Fulton County,GA,NA,NA,96.56862745098039
30458,Bulloch County,GA,NA,35.309734513274336,NA
30461,Bulloch County,GA,94.56384323640961,NA,NA
30474,Toombs County,GA,83.43868520859671,NA,NA
30501,Hall County,GA,86.97850821744628,69.38053097345133,NA
30506,Hall County,GA,NA,NA,10.53921568627451
30521,Franklin County,GA,89.75979772439949,NA,NA
30534,Dawson County,GA,NA,70.35398230088495,NA
30540,Gilmer County,GA,NA,41.68141592920354,NA
30542,Hall County,GA,NA,40.530973451327434,NA
30605,Clarke County,GA,56.51074589127687,NA,NA
30620,Barrow County,GA,72.18710493046775,NA,NA
30635,Elbert County,GA,NA,63.36283185840708,NA
30683,Clarke County,GA,NA,NA,84.19117647058823
30705,Murray County,GA,30.467762326169407,NA,NA
30728,Walker County,GA,NA,69.82300884955752,NA
30740,Whitfield County,GA,NA,90.88495575221239,NA
30815,Richmond County,GA,NA,12.123893805309734,52.69607843137255
30906,Richmond County,GA,31.479140328697852,4.6902654867256635,NA
30907,Columbia County,GA,NA,9.823008849557523,NA
30909,Richmond County,GA,NA,NA,23.03921568627451
31008,Peach County,GA,NA,59.02654867256637,NA
31024,Putnam County,GA,58.02781289506953,NA,NA
31032,Jones County,GA,84.3236409608091,NA,NA
31064,Jasper County,GA,79.89886219974716,NA,NA
31206,Bibb County,GA,65.36030341340076,52.743362831858406,NA
31322,Chatham County,GA,NA,NA,97.91666666666666
31328,Chatham County,GA,NA,98.67256637168141,NA
31406,Chatham County,GA,NA,27.52212389380531,28.799019607843135
31410,Chatham County,GA,NA,NA,62.86764705882353
31501,Ware County,GA,92.16182048040456,NA,NA
31503,Ware County,GA,NA,NA,52.818627450980394
31520,Glynn County,GA,NA,57.876106194690266,NA
31523,Glynn County,GA,NA,91.85840707964601,NA
31643,Brooks County,GA,NA,NA,67.15686274509804
31707,Dougherty County,GA,52.21238938053098,NA,NA
31820,Muscogee County,GA,NA,86.01769911504424,NA
31904,Muscogee County,GA,NA,NA,69.48529411764706
96746,Kauai County,HI,NA,70.4424778761062,NA
96786,Honolulu County,HI,68.77370417193426,NA,44.11764705882353
96789,Honolulu County,HI,NA,NA,62.99019607843137
96797,Honolulu County,HI,NA,NA,9.926470588235293
96815,Honolulu County,HI,NA,NA,18.259803921568626
96817,Honolulu County,HI,NA,6.017699115044247,3.9215686274509802
96819,Honolulu County,HI,NA,12.56637168141593,NA
83202,Bannock County,ID,54.23514538558787,68.84955752212389,NA
83221,Bingham County,ID,27.81289506953224,NA,NA
83274,Bingham County,ID,NA,90.17699115044248,NA
83333,Blaine County,ID,NA,62.56637168141593,NA
83338,Jerome County,ID,NA,62.38938053097345,NA
83402,Bonneville County,ID,53.72945638432364,NA,NA
83455,Teton County,ID,NA,99.46902654867257,NA
83605,Canyon County,ID,NA,21.76991150442478,NA
83607,Canyon County,ID,NA,30.265486725663713,NA
83616,Ada County,ID,NA,9.29203539823009,NA
83646,Ada County,ID,NA,NA,26.59313725490196
83686,Canyon County,ID,NA,49.29203539823009,NA
83709,Ada County,ID,NA,NA,3.431372549019608
83714,Ada County,ID,44.50063211125158,NA,NA
83843,Latah County,ID,NA,56.01769911504425,NA
60004,Cook County,IL,NA,9.115044247787612,6.495098039215687
60018,Cook County,IL,NA,NA,42.40196078431372
60033,McHenry County,IL,71.8078381795196,NA,NA
60042,McHenry County,IL,NA,99.5575221238938,NA
60045,Lake County,IL,NA,90,NA
60046,Lake County,IL,NA,NA,44.73039215686275
60060,Lake County,IL,NA,13.097345132743362,NA
60062,Cook County,IL,NA,4.15929203539823,NA
60076,Cook County,IL,NA,22.123893805309734,NA
60083,Lake County,IL,NA,NA,68.50490196078431
60085,Lake County,IL,NA,29.38053097345133,NA
60093,Cook County,IL,NA,51.681415929203546,23.40686274509804
60101,DuPage County,IL,NA,20.97345132743363,NA
60110,Kane County,IL,NA,63.53982300884956,NA
60120,Kane County,IL,27.307206068268012,65.39823008849558,NA
60126,DuPage County,IL,9.481668773704172,NA,NA
60130,Cook County,IL,NA,NA,77.20588235294117
60131,Cook County,IL,NA,NA,80.14705882352942
60155,Cook County,IL,92.92035398230088,NA,NA
60185,DuPage County,IL,NA,26.902654867256636,NA
60187,DuPage County,IL,36.78887484197219,NA,NA
60403,Will County,IL,NA,NA,77.69607843137256
60404,Will County,IL,NA,NA,53.92156862745098
60410,Will County,IL,49.557522123893804,NA,NA
60431,Will County,IL,NA,42.56637168141593,NA
60432,Will County,IL,NA,NA,98.65196078431373
60436,Will County,IL,NA,58.31858407079646,NA
60438,Cook County,IL,NA,NA,66.7892156862745
60441,Will County,IL,NA,65.66371681415929,NA
60448,Will County,IL,56.76359039190898,NA,NA
60450,Grundy County,IL,23.893805309734514,15.84070796460177,17.524509803921568
60453,Cook County,IL,14.15929203539823,NA,NA
60459,Cook County,IL,NA,55.929203539823014,NA
60463,Cook County,IL,NA,NA,24.142156862745097
60466,Cook County,IL,NA,NA,47.794117647058826
60475,Will County,IL,NA,98.14159292035399,NA
60487,Cook County,IL,NA,NA,60.416666666666664
60506,Kane County,IL,NA,NA,53.431372549019606
60514,DuPage County,IL,NA,92.7433628318584,NA
60515,DuPage County,IL,NA,35.39823008849557,NA
60523,DuPage County,IL,NA,NA,40.318627450980394
60525,Cook County,IL,NA,48.31858407079646,NA
60527,DuPage County,IL,NA,9.469026548672566,14.215686274509803
60540,DuPage County,IL,29.70922882427307,66.46017699115045,NA
60560,Kendall County,IL,NA,NA,66.91176470588235
60563,DuPage County,IL,45.0063211125158,NA,NA
60585,Will County,IL,81.92161820480405,NA,NA
60613,Cook County,IL,NA,33.80530973451327,NA
60614,Cook County,IL,20.606826801517066,NA,NA
60616,Cook County,IL,NA,8.849557522123893,NA
60619,Cook County,IL,6.32111251580278,NA,NA
60626,Cook County,IL,NA,NA,55.88235294117647
60629,Cook County,IL,NA,25.398230088495577,8.088235294117647
60630,Cook County,IL,NA,10.707964601769913,NA
60631,Cook County,IL,NA,NA,21.568627450980394
60634,Cook County,IL,NA,NA,6.372549019607843
60641,Cook County,IL,NA,NA,21.07843137254902
60714,Cook County,IL,NA,40,NA
60804,Cook County,IL,79.01390644753477,NA,NA
60942,Vermilion County,IL,89.00126422250317,NA,NA
60954,Kankakee County,IL,NA,NA,72.42647058823529
61101,Winnebago County,IL,NA,43.98230088495575,NA
61103,Winnebago County,IL,NA,NA,42.8921568627451
61107,Winnebago County,IL,NA,NA,17.034313725490197
61108,Winnebago County,IL,NA,23.893805309734514,NA
61265,Rock Island County,IL,NA,NA,12.622549019607842
61310,Lee County,IL,NA,98.05309734513274,NA
61356,Bureau County,IL,NA,NA,41.17647058823529
61443,Henry County,IL,63.59039190897599,NA,NA
61550,Tazewell County,IL,NA,NA,44.6078431372549
61603,Peoria County,IL,69.02654867256636,NA,NA
61605,Peoria County,IL,93.93173198482933,NA,NA
61853,Champaign County,IL,NA,NA,29.534313725490197
61938,Coles County,IL,NA,38.849557522123895,31.25
62035,Madison County,IL,NA,NA,39.705882352941174
62056,Montgomery County,IL,NA,71.50442477876106,NA
62208,St. Clair County,IL,NA,67.69911504424779,85.04901960784314
62221,St. Clair County,IL,78.63463969658659,43.98230088495575,NA
62226,St. Clair County,IL,NA,79.5575221238938,NA
62230,Clinton County,IL,89.88621997471556,NA,NA
62249,Madison County,IL,NA,NA,32.720588235294116
62298,Monroe County,IL,NA,66.19469026548673,NA
62401,Effingham County,IL,NA,NA,32.35294117647059
62439,Lawrence County,IL,83.1858407079646,NA,NA
62450,Richland County,IL,NA,NA,74.50980392156863
62526,Macon County,IL,NA,6.637168141592921,NA
62549,Macon County,IL,NA,84.33628318584071,NA
62650,Morgan County,IL,NA,33.1858407079646,34.92647058823529
62704,Sangamon County,IL,46.64981036662453,NA,NA
62859,Hamilton County,IL,NA,98.93805309734513,85.5392156862745
62959,Williamson County,IL,NA,54.86725663716814,NA
46011,Madison County,IN,50.56890012642224,NA,NA
46013,Madison County,IN,NA,17.787610619469028,NA
46032,Hamilton County,IN,NA,60.53097345132743,NA
46041,Clinton County,IN,33.75474083438685,NA,NA
46052,Boone County,IN,73.32490518331227,50.35398230088496,NA
46060,Hamilton County,IN,31.98482932996207,NA,NA
46064,Madison County,IN,NA,NA,84.92647058823529
46072,Tipton County,IN,NA,75.84070796460178,NA
46112,Hendricks County,IN,NA,NA,30.392156862745097
46123,Hendricks County,IN,NA,NA,31.862745098039213
46176,Shelby County,IN,15.929203539823009,10.08849557522124,NA
46214,Marion County,IN,58.659924146649814,NA,NA
46217,Marion County,IN,78.63463969658659,NA,NA
46218,Marion County,IN,NA,NA,59.43627450980392
46227,Marion County,IN,NA,5.398230088495575,NA
46229,Marion County,IN,NA,33.53982300884956,NA
46237,Marion County,IN,NA,9.20353982300885,NA
46239,Marion County,IN,NA,54.60176991150443,NA
46268,Marion County,IN,NA,46.10619469026548,NA
46307,Lake County,IN,29.582806573957015,NA,NA
46321,Lake County,IN,NA,NA,21.44607843137255
46323,Lake County,IN,NA,16.460176991150444,NA
46324,Lake County,IN,16.8141592920354,NA,NA
46327,Lake County,IN,NA,59.29203539823009,NA
46360,LaPorte County,IN,NA,3.5398230088495577,NA
46368,Porter County,IN,16.43489254108723,NA,NA
46375,Lake County,IN,67.2566371681416,NA,NA
46383,Porter County,IN,NA,4.070796460176991,NA
46385,Porter County,IN,7.079646017699115,NA,NA
46390,LaPorte County,IN,94.69026548672566,NA,NA
46403,Lake County,IN,NA,64.24778761061947,NA
46516,Elkhart County,IN,NA,39.469026548672566,NA
46530,St. Joseph County,IN,77.62326169405816,NA,NA
46580,Kosciusko County,IN,46.017699115044245,NA,NA
46615,St. Joseph County,IN,74.33628318584071,NA,NA
46733,Adams County,IN,NA,NA,45.34313725490196
46803,Allen County,IN,NA,96.99115044247787,NA
46804,Allen County,IN,NA,24.07079646017699,NA
46815,Allen County,IN,NA,37.9646017699115,NA
46819,Allen County,IN,NA,74.070796460177,NA
46901,Howard County,IN,1.8963337547408345,NA,NA
46902,Howard County,IN,NA,46.3716814159292,NA
46947,Cass County,IN,NA,NA,6.985294117647059
46953,Grant County,IN,NA,10.176991150442479,NA
46970,Miami County,IN,NA,21.150442477876105,NA
46975,Fulton County,IN,NA,47.9646017699115,NA
46992,Wabash County,IN,NA,41.68141592920354,NA
46996,Pulaski County,IN,76.73830594184577,NA,NA
47043,Switzerland County,IN,NA,98.31858407079646,NA
47150,Floyd County,IN,58.78634639696586,6.991150442477877,NA
47165,Washington County,IN,83.56510745891276,NA,NA
47172,Clark County,IN,NA,66.72566371681415,NA
47203,Bartholomew County,IN,81.66877370417194,NA,NA
47240,Decatur County,IN,33.24905183312263,20.353982300884958,26.225490196078432
47265,Jennings County,IN,NA,34.51327433628318,NA
47274,Jackson County,IN,NA,30.796460176991154,NA
47302,Delaware County,IN,NA,32.65486725663717,NA
47303,Delaware County,IN,NA,NA,97.67156862745098
47330,Wayne County,IN,NA,NA,78.67647058823529
47348,Blackford County,IN,NA,58.76106194690266,NA
47394,Randolph County,IN,73.07206068268015,NA,NA
47403,Monroe County,IN,NA,56.99115044247788,NA
47460,Owen County,IN,NA,76.10619469026548,NA
47501,Daviess County,IN,NA,23.1858407079646,NA
47714,Vanderburgh County,IN,13.90644753476612,NA,NA
47909,Tippecanoe County,IN,NA,NA,37.377450980392155
47932,Fountain County,IN,89.50695322376738,NA,NA
47960,White County,IN,92.28824273072061,NA,NA
50138,Marion County,IA,NA,NA,22.181372549019606
50201,Story County,IA,83.94437420986094,NA,NA
50208,Jasper County,IA,58.53350189633375,NA,NA
50263,Dallas County,IA,88.62199747155499,93.1858407079646,NA
50317,Polk County,IA,NA,50.442477876106196,NA
50320,Polk County,IA,NA,67.07964601769912,NA
50322,Polk County,IA,NA,58.67256637168141,NA
50401,Cerro Gordo County,IA,NA,NA,10.17156862745098
50501,Webster County,IA,NA,NA,25.735294117647058
51103,Woodbury County,IA,48.92541087231353,NA,NA
51106,Woodbury County,IA,49.68394437420986,NA,NA
51537,Shelby County,IA,NA,NA,46.93627450980392
51566,Montgomery County,IA,NA,NA,86.02941176470588
52205,Jones County,IA,NA,NA,72.91666666666666
52402,Linn County,IA,19.216182048040455,63.008849557522126,NA
52544,Appanoose County,IA,41.340075853350186,NA,47.67156862745098
52722,Scott County,IA,NA,NA,21.813725490196077
66007,Leavenworth County,KS,NA,NA,77.32843137254902
66032,Anderson County,KS,NA,NA,88.23529411764706
66047,Douglas County,KS,NA,NA,56.495098039215684
66053,Miami County,KS,NA,NA,94.6078431372549
66111,Wyandotte County,KS,NA,99.73451327433628,NA
66204,Johnson County,KS,NA,64.7787610619469,NA
66605,Shawnee County,KS,51.201011378002526,NA,NA
66701,Bourbon County,KS,86.72566371681415,NA,NA
67204,Sedgwick County,KS,NA,69.73451327433628,NA
67208,Sedgwick County,KS,77.24399494310998,NA,NA
67357,Labette County,KS,NA,61.59292035398231,NA
67735,Sherman County,KS,NA,NA,67.27941176470588
40004,Nelson County,KY,NA,26.017699115044245,40.68627450980392
40031,Oldham County,KY,NA,55.13274336283186,NA
40057,Henry County,KY,99.49431099873578,NA,NA
40214,Jefferson County,KY,NA,13.893805309734514,NA
40216,Jefferson County,KY,8.849557522123893,NA,NA
40218,Jefferson County,KY,13.780025284450062,NA,NA
40222,Jefferson County,KY,NA,65.39823008849558,NA
40241,Jefferson County,KY,NA,40.44247787610619,63.23529411764706
40272,Jefferson County,KY,NA,NA,24.264705882352942
40299,Jefferson County,KY,NA,NA,16.666666666666664
40324,Scott County,KY,13.527180783817952,NA,NA
40336,Estill County,KY,NA,52.56637168141592,NA
40342,Anderson County,KY,NA,57.16814159292035,NA
40356,Jessamine County,KY,14.032869785082175,NA,NA
40360,Bath County,KY,65.73957016434892,NA,NA
40383,Woodford County,KY,73.19848293299621,NA,NA
40391,Clark County,KY,53.855878634639694,NA,NA
40403,Madison County,KY,21.238938053097346,NA,NA
40447,Jackson County,KY,NA,99.02654867256638,NA
40475,Madison County,KY,67.63590391908976,NA,NA
40502,Fayette County,KY,64.47534766118837,NA,NA
40503,Fayette County,KY,NA,93.80530973451327,NA
40505,Fayette County,KY,NA,69.20353982300885,NA
40508,Fayette County,KY,NA,89.02654867256638,72.05882352941177
40517,Fayette County,KY,19.97471554993679,NA,NA
40701,Whitley County,KY,10.745891276864729,NA,NA
40741,Laurel County,KY,20.986093552465235,NA,NA
40769,Whitley County,KY,NA,NA,68.87254901960785
40965,Bell County,KY,NA,29.646017699115045,NA
41031,Harrison County,KY,NA,39.29203539823009,NA
41048,Boone County,KY,NA,95.30973451327434,NA
41071,Campbell County,KY,61.694058154235144,NA,NA
41094,Boone County,KY,NA,70.08849557522124,NA
41164,Carter County,KY,68.52085967130215,NA,NA
41169,Greenup County,KY,70.03792667509482,NA,NA
41314,Owsley County,KY,NA,82.92035398230088,NA
42003,McCracken County,KY,NA,14.424778761061946,NA
42025,Marshall County,KY,NA,42.47787610619469,31.004901960784316
42101,Warren County,KY,6.95322376738306,NA,NA
42104,Warren County,KY,NA,NA,79.41176470588235
42164,Allen County,KY,38.179519595448795,NA,70.7107843137255
42206,Logan County,KY,93.29962073324906,NA,NA
42303,Daviess County,KY,NA,NA,18.137254901960784
42351,Hancock County,KY,89.38053097345133,NA,NA
42420,Henderson County,KY,9.102402022756005,46.46017699115044,NA
42701,Hardin County,KY,NA,8.938053097345133,NA
42718,Taylor County,KY,NA,8.761061946902656,NA
70001,Jefferson Parish,LA,20.353982300884958,NA,8.455882352941178
70005,Jefferson Parish,LA,NA,22.300884955752213,NA
70030,St. Charles Parish,LA,97.4715549936789,NA,NA
70043,St. Bernard Parish,LA,14.664981036662454,68.23008849557523,NA
70056,Jefferson Parish,LA,NA,13.451327433628318,NA
70058,Jefferson Parish,LA,71.30214917825538,NA,NA
70119,Orleans Parish,LA,4.298356510745891,NA,NA
70131,Orleans Parish,LA,NA,35.04424778761062,NA
70373,Lafourche Parish,LA,55.49936788874842,88.23008849557522,NA
70394,Lafourche Parish,LA,NA,NA,31.61764705882353
70427,Washington Parish,LA,66.75094816687736,NA,NA
70433,St. Tammany Parish,LA,48.67256637168141,NA,3.6764705882352944
70448,St. Tammany Parish,LA,NA,NA,26.47058823529412
70452,St. Tammany Parish,LA,NA,32.38938053097345,NA
70460,St. Tammany Parish,LA,12.010113780025284,NA,NA
70461,St. Tammany Parish,LA,16.561314791403287,NA,NA
70462,Livingston Parish,LA,60.556257901390644,NA,NA
70506,Lafayette Parish,LA,NA,15.575221238938052,23.284313725490197
70507,Lafayette Parish,LA,42.47787610619469,NA,NA
70508,Lafayette Parish,LA,15.29709228824273,NA,NA
70517,St. Martin Parish,LA,12.64222503160556,74.42477876106194,NA
70518,Lafayette Parish,LA,50.695322376738304,NA,NA
70526,Acadia Parish,LA,NA,68.49557522123894,58.45588235294118
70546,Jefferson Davis Parish,LA,NA,61.94690265486725,NA
70554,Evangeline Parish,LA,NA,81.76991150442477,NA
70578,Acadia Parish,LA,NA,42.743362831858406,NA
70634,Beauregard Parish,LA,NA,38.67256637168141,NA
70665,Calcasieu Parish,LA,35.01896333754741,NA,NA
70706,Livingston Parish,LA,NA,60.88495575221239,NA
70726,Livingston Parish,LA,1.5170670037926675,7.52212389380531,NA
70737,Ascension Parish,LA,NA,72.83185840707964,NA
70739,East Baton Rouge Parish,LA,NA,67.78761061946904,NA
70764,Iberville Parish,LA,NA,61.32743362831859,NA
70769,Ascension Parish,LA,9.355246523388116,NA,62.377450980392155
70802,East Baton Rouge Parish,LA,NA,NA,48.03921568627451
70806,East Baton Rouge Parish,LA,13.274336283185843,NA,NA
70810,East Baton Rouge Parish,LA,NA,25.57522123893805,NA
70817,East Baton Rouge Parish,LA,NA,13.805309734513274,NA
71105,Caddo Parish,LA,NA,46.72566371681416,NA
71107,Caddo Parish,LA,2.6548672566371683,NA,NA
71108,Caddo Parish,LA,NA,41.50442477876106,75.24509803921569
71109,Caddo Parish,LA,6.700379266750948,NA,NA
71111,Bossier Parish,LA,NA,NA,30.637254901960787
71112,Bossier Parish,LA,NA,22.831858407079647,NA
71119,Caddo Parish,LA,NA,66.63716814159292,NA
71202,Ouachita Parish,LA,NA,NA,49.26470588235294
71203,Ouachita Parish,LA,NA,22.38938053097345,NA
71220,Morehouse Parish,LA,50.316055625790135,NA,NA
71263,West Carroll Parish,LA,NA,NA,54.779411764705884
71291,Ouachita Parish,LA,10.240202275600506,NA,NA
71292,Ouachita Parish,LA,NA,84.42477876106194,NA
71301,Rapides Parish,LA,NA,33.89380530973452,NA
71303,Rapides Parish,LA,NA,75.04424778761062,NA
71350,Avoyelles Parish,LA,NA,94.15929203539824,NA
71351,Avoyelles Parish,LA,31.858407079646017,NA,NA
71457,Natchitoches Parish,LA,NA,NA,34.31372549019608
04002,York County,ME,NA,96.90265486725663,NA
04011,Cumberland County,ME,NA,25.04424778761062,NA
04073,York County,ME,NA,31.238938053097343,NA
04079,Cumberland County,ME,NA,NA,95.22058823529412
04096,Cumberland County,ME,NA,87.52212389380531,NA
04239,Franklin County,ME,72.06068268015171,NA,NA
04330,Kennebec County,ME,NA,33.008849557522126,NA
04444,Penobscot County,ME,NA,67.61061946902655,NA
04730,Aroostook County,ME,58.91276864728192,NA,NA
04736,Aroostook County,ME,NA,77.2566371681416,NA
04901,Kennebec County,ME,4.677623261694058,2.743362831858407,NA
04915,Waldo County,ME,NA,NA,79.77941176470588
04976,Somerset County,ME,NA,NA,15.196078431372548
20678,Calvert County,MD,89.1276864728192,NA,NA
20716,Prince George's County,MD,86.85208596713021,NA,NA
20724,Anne Arundel County,MD,NA,95.929203539823,NA
20743,Prince George's County,MD,NA,70.70796460176992,NA
20832,Montgomery County,MD,79.77243994943109,NA,88.84803921568627
20906,Montgomery County,MD,54.10872313527181,NA,NA
21045,Howard County,MD,49.17825537294564,NA,NA
21060,Anne Arundel County,MD,NA,40.97345132743363,NA
21078,Harford County,MD,NA,53.00884955752212,NA
21122,Anne Arundel County,MD,7.83817951959545,NA,NA
21140,Anne Arundel County,MD,NA,99.20353982300884,NA
21146,Anne Arundel County,MD,NA,48.849557522123895,NA
21152,Baltimore County,MD,NA,98.76106194690266,NA
21208,Baltimore County,MD,NA,32.56637168141593,11.642156862745098
21210,Baltimore city,MD,NA,72.65486725663717,NA
21213,Baltimore city,MD,NA,NA,91.66666666666666
21216,Baltimore city,MD,NA,21.415929203539825,NA
21222,Baltimore County,MD,NA,1.592920353982301,NA
21223,Baltimore city,MD,NA,48.14159292035398,NA
21234,Baltimore County,MD,NA,NA,4.044117647058823
21237,Baltimore County,MD,NA,54.15929203539823,NA
21666,Queen Anne's County,MD,91.78255372945638,NA,NA
21703,Frederick County,MD,NA,90.08849557522124,NA
21774,Frederick County,MD,87.23135271807838,NA,NA
21783,Washington County,MD,NA,91.94690265486726,NA
21788,Frederick County,MD,NA,96.8141592920354,NA
21842,Worcester County,MD,NA,86.8141592920354,NA
21875,Wicomico County,MD,95.70164348925411,NA,NA
21921,Cecil County,MD,14.917825537294563,5.3097345132743365,NA
01030,Hampden County,MA,NA,36.991150442477874,NA
01036,Hampden County,MA,NA,93.80530973451327,NA
01073,Hampshire County,MA,NA,NA,85.29411764705883
01077,Hampden County,MA,NA,NA,78.18627450980392
01108,Hampden County,MA,NA,4.2477876106194685,NA
01118,Hampden County,MA,26.548672566371685,NA,NA
01201,Berkshire County,MA,1.1378002528445006,NA,8.946078431372548
01420,Worcester County,MA,NA,NA,4.411764705882353
01440,Worcester County,MA,26.169405815423513,NA,NA
01501,Worcester County,MA,NA,32.38938053097345,NA
01520,Worcester County,MA,NA,51.76991150442478,NA
01550,Worcester County,MA,NA,43.89380530973451,NA
01562,Worcester County,MA,NA,40.176991150442475,NA
01590,Worcester County,MA,NA,NA,81.25
01603,Worcester County,MA,NA,NA,15.808823529411764
01605,Worcester County,MA,1.2642225031605563,NA,NA
01754,Middlesex County,MA,NA,56.28318584070796,NA
01757,Worcester County,MA,NA,4.424778761061947,NA
01760,Middlesex County,MA,58.4070796460177,6.814159292035399,NA
01801,Middlesex County,MA,NA,0.7079646017699115,10.416666666666668
01803,Middlesex County,MA,NA,NA,2.2058823529411766
01810,Essex County,MA,NA,14.778761061946902,15.563725490196079
01833,Essex County,MA,NA,74.24778761061947,NA
01841,Essex County,MA,NA,0,20.34313725490196
01844,Essex County,MA,1.0113780025284451,NA,NA
01854,Middlesex County,MA,29.077117572692796,NA,NA
01876,Middlesex County,MA,NA,NA,5.88235294117647
01880,Middlesex County,MA,NA,NA,10.661764705882353
01887,Middlesex County,MA,NA,2.1238938053097343,NA
01902,Essex County,MA,26.295828065739567,0.35398230088495575,NA
01923,Essex County,MA,NA,77.5221238938053,NA
01950,Essex County,MA,NA,22.920353982300885,17.15686274509804
01960,Essex County,MA,0.37926675094816686,NA,0
01983,Essex County,MA,85.33501896333755,NA,NA
02019,Norfolk County,MA,NA,7.6991150442477885,NA
02050,Plymouth County,MA,NA,NA,29.28921568627451
02072,Norfolk County,MA,NA,80.17699115044248,NA
02115,Suffolk County,MA,NA,NA,46.44607843137255
02121,Suffolk County,MA,NA,43.80530973451327,NA
02128,Suffolk County,MA,0.2528445006321113,NA,NA
02131,Suffolk County,MA,24.778761061946902,27.079646017699115,NA
02136,Suffolk County,MA,NA,3.8053097345132745,NA
02138,Middlesex County,MA,NA,5.04424778761062,NA
02140,Middlesex County,MA,NA,9.91150442477876,NA
02145,Middlesex County,MA,4.171934260429835,NA,NA
02148,Middlesex County,MA,NA,NA,0.857843137254902
02149,Middlesex County,MA,NA,0.5309734513274336,NA
02151,Suffolk County,MA,NA,NA,0.12254901960784313
02155,Middlesex County,MA,NA,NA,0.7352941176470588
02169,Norfolk County,MA,NA,NA,6.61764705882353
02176,Middlesex County,MA,NA,NA,84.55882352941177
02301,Plymouth County,MA,NA,1.9469026548672566,NA
02322,Norfolk County,MA,67.76232616940582,NA,NA
02368,Norfolk County,MA,NA,NA,18.75
02445,Norfolk County,MA,NA,NA,28.676470588235293
02459,Middlesex County,MA,99.24146649810368,NA,NA
02472,Middlesex County,MA,30.341340075853353,NA,NA
02631,Barnstable County,MA,NA,NA,39.09313725490196
02633,Barnstable County,MA,NA,89.11504424778761,NA
02645,Barnstable County,MA,NA,NA,60.17156862745098
02655,Barnstable County,MA,NA,96.19469026548673,NA
02664,Barnstable County,MA,NA,37.07964601769911,NA
02720,Bristol County,MA,NA,0.2654867256637168,NA
02740,Bristol County,MA,3.4134007585335016,NA,NA
02746,Bristol County,MA,NA,36.8141592920354,NA
02748,Bristol County,MA,NA,91.68141592920354,NA
02766,Bristol County,MA,NA,7.964601769911504,NA
02770,Plymouth County,MA,NA,98.23008849557522,NA
02771,Bristol County,MA,NA,47.34513274336283,NA
02780,Bristol County,MA,0.12642225031605564,NA,NA
02790,Bristol County,MA,NA,90.97345132743364,28.308823529411764
48015,Macomb County,MI,57.901390644753484,NA,NA
48035,Macomb County,MI,NA,NA,7.107843137254902
48044,Macomb County,MI,7.711757269279393,NA,NA
48045,Macomb County,MI,24.020227560050568,NA,NA
48064,St. Clair County,MI,98.48293299620732,NA,NA
48081,Macomb County,MI,71.42857142857143,NA,NA
48082,Macomb County,MI,NA,NA,23.52941176470588
48091,Macomb County,MI,28.192161820480404,14.07079646017699,NA
48095,Macomb County,MI,NA,NA,91.42156862745098
48101,Wayne County,MI,NA,NA,19.485294117647058
48111,Wayne County,MI,29.329962073324907,NA,NA
48116,Livingston County,MI,NA,14.24778761061947,NA
48120,Wayne County,MI,NA,NA,86.76470588235294
48124,Wayne County,MI,NA,22.566371681415927,NA
48126,Wayne County,MI,9.734513274336283,NA,NA
48127,Wayne County,MI,NA,18.230088495575224,NA
48128,Wayne County,MI,80.02528445006321,NA,NA
48138,Wayne County,MI,NA,60.17699115044248,NA
48152,Wayne County,MI,NA,4.95575221238938,NA
48160,Washtenaw County,MI,72.81921618204804,NA,NA
48161,Monroe County,MI,7.332490518331227,75.30973451327434,NA
48162,Monroe County,MI,11.757269279393173,NA,NA
48176,Washtenaw County,MI,NA,NA,20.71078431372549
48184,Wayne County,MI,NA,94.77876106194691,NA
48185,Wayne County,MI,5.3097345132743365,NA,NA
48197,Washtenaw County,MI,2.275600505689001,NA,NA
48205,Wayne County,MI,3.919089759797725,NA,NA
48207,Wayne County,MI,NA,35.2212389380531,NA
48219,Wayne County,MI,41.5929203539823,NA,NA
48223,Wayne County,MI,NA,39.203539823008846,NA
48227,Wayne County,MI,2.9077117572692797,NA,NA
48228,Wayne County,MI,24.652338811630848,NA,NA
48234,Wayne County,MI,NA,13.628318584070797,NA
48239,Wayne County,MI,NA,63.097345132743364,NA
48304,Oakland County,MI,NA,NA,25.122549019607842
48310,Macomb County,MI,46.144121365360306,NA,NA
48315,Macomb County,MI,NA,17.52212389380531,NA
48324,Oakland County,MI,NA,NA,50.857843137254896
48327,Oakland County,MI,NA,NA,48.28431372549019
48331,Oakland County,MI,NA,19.557522123893804,NA
48340,Oakland County,MI,10.11378002528445,NA,NA
48348,Oakland County,MI,35.9039190897598,NA,NA
48363,Oakland County,MI,NA,96.72566371681415,NA
48371,Oakland County,MI,36.15676359039191,NA,NA
48386,Oakland County,MI,NA,NA,49.63235294117647
48442,Oakland County,MI,NA,49.91150442477876,NA
48446,Lapeer County,MI,14.412136536030342,NA,NA
48506,Genesee County,MI,NA,NA,51.59313725490197
48618,Midland County,MI,NA,84.070796460177,NA
48625,Clare County,MI,NA,NA,44.11764705882353
48634,Bay County,MI,95.06953223767383,NA,NA
48706,Bay County,MI,NA,32.83185840707964,NA
48726,Tuscola County,MI,NA,NA,79.04411764705883
48750,Iosco County,MI,NA,62.83185840707964,NA
48817,Shiawassee County,MI,96.71302149178256,NA,NA
48827,Eaton County,MI,NA,NA,81.37254901960785
48837,Eaton County,MI,NA,NA,62.622549019607845
48846,Ionia County,MI,38.05309734513274,NA,NA
48848,Shiawassee County,MI,NA,76.90265486725664,NA
48858,Isabella County,MI,5.815423514538559,NA,NA
48906,Ingham County,MI,12.262958280657395,NA,32.47549019607843
48910,Ingham County,MI,11.378002528445007,NA,NA
48911,Ingham County,MI,NA,NA,25.857843137254903
49004,Kalamazoo County,MI,42.35145385587863,NA,NA
49014,Calhoun County,MI,18.331226295828067,NA,NA
49024,Kalamazoo County,MI,NA,20.61946902654867,61.51960784313726
49038,Berrien County,MI,NA,65.13274336283186,NA
49055,Van Buren County,MI,77.11757269279393,NA,NA
49093,St. Joseph County,MI,NA,85.84070796460178,NA
49120,Berrien County,MI,NA,13.274336283185843,51.34803921568627
49201,Jackson County,MI,33.501896333754736,NA,NA
49203,Jackson County,MI,NA,NA,70.4656862745098
49221,Lenawee County,MI,NA,3.6283185840707963,5.147058823529411
49251,Ingham County,MI,NA,84.24778761061947,NA
49265,Lenawee County,MI,NA,87.9646017699115,NA
49286,Lenawee County,MI,NA,47.78761061946903,NA
49301,Kent County,MI,NA,97.96460176991151,NA
49315,Kent County,MI,NA,NA,72.30392156862744
49331,Kent County,MI,NA,42.83185840707965,NA
49332,Mecosta County,MI,NA,87.87610619469027,NA
49337,Newaygo County,MI,NA,59.91150442477876,NA
49345,Kent County,MI,NA,85.04424778761062,NA
49418,Kent County,MI,37.16814159292036,25.75221238938053,NA
49424,Ottawa County,MI,NA,10.79646017699115,8.333333333333332
49444,Muskegon County,MI,35.145385587863466,NA,NA
49445,Muskegon County,MI,NA,18.938053097345133,NA
49460,Ottawa County,MI,NA,NA,88.3578431372549
49464,Ottawa County,MI,NA,NA,65.80882352941177
49506,Kent County,MI,NA,42.21238938053097,NA
49508,Kent County,MI,NA,NA,7.352941176470589
49509,Kent County,MI,13.02149178255373,NA,NA
49663,Wexford County,MI,NA,96.54867256637168,NA
49677,Osceola County,MI,NA,NA,57.84313725490197
49781,Mackinac County,MI,NA,NA,77.08333333333334
49849,Marquette County,MI,75.97977243994943,NA,NA
49858,Menominee County,MI,NA,97.61061946902655,NA
49913,Houghton County,MI,NA,88.93805309734513,NA
49935,Iron County,MI,NA,89.20353982300885,NA
49938,Gogebic County,MI,NA,NA,55.88235294117647
55033,Dakota County,MN,NA,92.30088495575221,NA
55102,Ramsey County,MN,NA,39.64601769911504,NA
55103,Ramsey County,MN,45.13274336283185,NA,NA
55109,Ramsey County,MN,NA,27.43362831858407,NA
55113,Ramsey County,MN,NA,46.19469026548673,NA
55123,Dakota County,MN,NA,NA,91.7892156862745
55126,Ramsey County,MN,NA,70,NA
55127,Ramsey County,MN,NA,NA,90.68627450980392
55128,Washington County,MN,NA,NA,47.549019607843135
55304,Anoka County,MN,39.57016434892541,NA,NA
55346,Hennepin County,MN,NA,NA,75.49019607843137
55355,Meeker County,MN,82.30088495575221,NA,NA
55379,Scott County,MN,NA,NA,72.67156862745098
55403,Hennepin County,MN,NA,36.01769911504425,NA
55404,Hennepin County,MN,NA,NA,37.99019607843137
55416,Hennepin County,MN,NA,NA,37.13235294117647
55428,Hennepin County,MN,52.718078381795195,NA,NA
55432,Anoka County,MN,22.25031605562579,NA,NA
55733,Carlton County,MN,98.23008849557522,NA,NA
55746,St. Louis County,MN,NA,30.70796460176991,NA
55792,St. Louis County,MN,NA,NA,21.20098039215686
55803,St. Louis County,MN,NA,31.5929203539823,NA
55811,St. Louis County,MN,NA,4.336283185840708,1.9607843137254901
55912,Mower County,MN,NA,NA,0.6127450980392157
55987,Winona County,MN,8.217446270543615,NA,NA
56007,Freeborn County,MN,NA,NA,1.3480392156862746
56063,Blue Earth County,MN,NA,99.73451327433628,NA
56143,Jackson County,MN,89.63337547408344,NA,NA
56175,Lyon County,MN,NA,95.57522123893806,NA
56178,Lincoln County,MN,99.87357774968395,NA,NA
56301,Stearns County,MN,NA,70.17699115044248,NA
56347,Todd County,MN,NA,NA,76.47058823529412
56352,Stearns County,MN,NA,NA,73.77450980392157
56353,Mille Lacs County,MN,84.95575221238938,NA,NA
56362,Stearns County,MN,NA,NA,52.450980392156865
56425,Crow Wing County,MN,NA,NA,34.068627450980394
56444,Crow Wing County,MN,NA,NA,50.857843137254896
56477,Wadena County,MN,99.36788874841972,NA,NA
56501,Becker County,MN,NA,NA,16.176470588235293
56520,Wilkin County,MN,90.0126422250316,NA,NA
56560,Clay County,MN,1.643489254108723,NA,NA
56701,Pennington County,MN,NA,23.097345132743364,NA
38654,DeSoto County,MS,57.52212389380531,NA,NA
38671,DeSoto County,MS,NA,NA,71.69117647058823
38751,Sunflower County,MS,NA,92.47787610619469,NA
38860,Chickasaw County,MS,NA,NA,98.89705882352942
39046,Madison County,MS,27.939317319848296,NA,NA
39090,Attala County,MS,NA,65.84070796460178,NA
39110,Madison County,MS,NA,93.09734513274336,NA
39145,Rankin County,MS,93.17319848293299,NA,NA
39191,Copiah County,MS,NA,84.86725663716814,NA
39209,Hinds County,MS,22.25031605562579,NA,NA
39328,Kemper County,MS,94.05815423514538,NA,NA
39350,Neshoba County,MS,NA,NA,93.87254901960785
39426,Pearl River County,MS,56.51074589127687,NA,NA
39440,Jones County,MS,NA,NA,49.38725490196079
39452,George County,MS,NA,20.530973451327434,NA
39465,Forrest County,MS,NA,79.11504424778761,NA
39482,Lamar County,MS,NA,92.83185840707965,NA
39532,Harrison County,MS,42.47787610619469,NA,NA
39564,Jackson County,MS,NA,NA,78.92156862745098
39759,Oktibbeha County,MS,NA,NA,87.86764705882352
63010,Jefferson County,MO,NA,25.04424778761062,NA
63020,Jefferson County,MO,NA,75.30973451327434,NA
63031,St. Louis County,MO,49.93678887484197,NA,5.269607843137255
63044,St. Louis County,MO,NA,NA,52.083333333333336
63050,Jefferson County,MO,73.45132743362832,NA,NA
63052,Jefferson County,MO,NA,60.442477876106196,NA
63084,Franklin County,MO,55.37294563843237,NA,NA
63105,St. Louis County,MO,NA,NA,67.64705882352942
63111,St. Louis city,MO,NA,51.50442477876106,NA
63117,St. Louis County,MO,NA,NA,81.98529411764706
63118,St. Louis city,MO,NA,76.8141592920354,NA
63122,St. Louis County,MO,NA,22.654867256637168,NA
63123,St. Louis County,MO,NA,49.11504424778761,NA
63128,St. Louis County,MO,NA,20.088495575221238,NA
63129,St. Louis County,MO,NA,NA,7.4754901960784315
63131,St. Louis County,MO,NA,75.57522123893806,56.495098039215684
63135,St. Louis County,MO,NA,28.938053097345133,NA
63136,St. Louis County,MO,NA,9.026548672566372,NA
63301,St. Charles County,MO,NA,NA,19.852941176470587
63385,St. Charles County,MO,NA,11.061946902654867,NA
63401,Marion County,MO,47.53476611883691,NA,NA
63628,St. Francois County,MO,NA,NA,63.60294117647059
63664,Washington County,MO,NA,72.12389380530973,NA
63701,Cape Girardeau County,MO,38.305941845764856,NA,NA
63740,Scott County,MO,NA,92.38938053097345,NA
63775,Perry County,MO,NA,34.690265486725664,21.323529411764707
63801,Scott County,MO,56.38432364096081,NA,NA
64024,Clay County,MO,69.78508217446272,NA,NA
64050,Jackson County,MO,15.170670037926676,NA,NA
64055,Jackson County,MO,65.61314791403287,36.72566371681416,NA
64058,Jackson County,MO,74.20986093552465,NA,NA
64060,Clay County,MO,74.84197218710493,NA,NA
64068,Clay County,MO,NA,6.106194690265487,NA
64080,Cass County,MO,85.33501896333755,NA,NA
64089,Clay County,MO,NA,70.79646017699115,NA
64109,Jackson County,MO,NA,NA,85.90686274509804
64110,Jackson County,MO,NA,NA,87.74509803921569
64116,Clay County,MO,NA,41.415929203539825,NA
64118,Clay County,MO,NA,6.902654867256637,NA
64127,Jackson County,MO,44.75347661188369,NA,NA
64130,Jackson County,MO,28.824273072060684,NA,NA
64131,Jackson County,MO,43.10998735777497,NA,NA
64133,Jackson County,MO,55.75221238938053,NA,NA
64134,Jackson County,MO,12.515802781289507,NA,NA
64429,Clinton County,MO,NA,82.21238938053096,NA
64465,Clinton County,MO,NA,96.01769911504425,NA
64468,Nodaway County,MO,NA,59.64601769911504,95.4656862745098
64503,Buchanan County,MO,NA,83.80530973451327,NA
64505,Buchanan County,MO,32.4905183312263,22.123893805309734,NA
64506,Buchanan County,MO,NA,NA,1.4705882352941175
64683,Grundy County,MO,NA,NA,58.82352941176471
64801,Jasper County,MO,NA,12.47787610619469,NA
64804,Jasper County,MO,NA,38.4070796460177,NA
64831,McDonald County,MO,NA,NA,97.18137254901961
64836,Jasper County,MO,18.20480404551201,NA,NA
65065,Camden County,MO,NA,NA,63.970588235294116
65079,Camden County,MO,NA,91.23893805309734,NA
65201,Boone County,MO,NA,63.89380530973451,NA
65251,Callaway County,MO,NA,83.98230088495575,NA
65301,Pettis County,MO,3.6662452591656134,7.345132743362832,28.553921568627448
65340,Saline County,MO,NA,62.30088495575221,NA
65355,Benton County,MO,53.603034134007586,NA,NA
65453,Crawford County,MO,NA,93.45132743362832,NA
65608,Douglas County,MO,84.57648546144121,NA,89.95098039215686
65613,Polk County,MO,NA,36.637168141592916,NA
65704,Wright County,MO,NA,NA,99.50980392156863
65712,Lawrence County,MO,NA,NA,97.05882352941177
65721,Christian County,MO,80.78381795195955,NA,NA
65737,Stone County,MO,NA,NA,76.59313725490196
65775,Howell County,MO,NA,31.946902654867255,48.529411764705884
65791,Oregon County,MO,NA,NA,96.20098039215686
65804,Greene County,MO,63.96965865992414,34.60176991150443,NA
59405,Cascade County,MT,NA,NA,5.514705882352941
59457,Fergus County,MT,91.65613147914033,NA,NA
59602,Lewis and Clark County,MT,93.04677623261695,NA,NA
59718,Gallatin County,MT,35.27180783817952,NA,NA
59801,Missoula County,MT,NA,67.43362831858407,NA
68106,Douglas County,NE,NA,NA,52.083333333333336
68127,Douglas County,NE,NA,76.54867256637168,NA
68134,Douglas County,NE,NA,58.849557522123895,82.72058823529412
68138,Sarpy County,NE,92.41466498103667,NA,NA
68154,Douglas County,NE,NA,49.38053097345133,NA
68504,Lancaster County,NE,NA,90.53097345132744,NA
68506,Lancaster County,NE,NA,49.73451327433629,NA
68601,Platte County,NE,NA,43.451327433628315,NA
68845,Buffalo County,NE,NA,NA,67.76960784313727
68847,Buffalo County,NE,NA,78.84955752212389,NA
68850,Dawson County,NE,82.17446270543616,NA,NA
69301,Box Butte County,NE,NA,89.38053097345133,NA
89134,Clark County,NV,NA,50.530973451327434,NA
89141,Clark County,NV,NA,NA,99.75490196078431
89144,Clark County,NV,NA,97.34513274336283,NA
89149,Clark County,NV,NA,53.1858407079646,NA
89403,Lyon County,NV,37.041719342604296,NA,NA
89406,Churchill County,NV,NA,28.14159292035398,NA
89410,Douglas County,NV,NA,29.734513274336283,NA
89436,Washoe County,NV,NA,10.530973451327434,45.588235294117645
89502,Washoe County,NV,NA,18.141592920353983,NA
89506,Washoe County,NV,NA,29.20353982300885,NA
89512,Washoe County,NV,NA,NA,77.45098039215686
89519,Washoe County,NV,NA,86.46017699115043,NA
89521,Washoe County,NV,50.442477876106196,NA,NA
89523,Washoe County,NV,54.48798988621998,NA,NA
89706,Carson City,NV,NA,71.15044247787611,57.23039215686274
89801,Elko County,NV,68.01517067003793,NA,NA
03053,Rockingham County,NH,26.801517067003793,NA,NA
03055,Hillsborough County,NH,NA,NA,42.15686274509804
03060,Hillsborough County,NH,28.445006321112515,NA,NA
03062,Hillsborough County,NH,17.825537294563844,NA,NA
03102,Hillsborough County,NH,NA,NA,5.392156862745098
03301,Merrimack County,NH,NA,10.619469026548673,NA
03824,Strafford County,NH,NA,NA,81.12745098039215
03842,Rockingham County,NH,NA,27.61061946902655,NA
03867,Strafford County,NH,NA,NA,3.799019607843137
03878,Strafford County,NH,NA,NA,68.25980392156863
07003,Essex County,NJ,NA,25.486725663716815,NA
07030,Hudson County,NJ,NA,NA,92.40196078431373
07055,Passaic County,NJ,NA,2.566371681415929,NA
07105,Essex County,NJ,NA,28.761061946902654,NA
07304,Hudson County,NJ,NA,NA,39.82843137254902
07306,Hudson County,NJ,NA,44.336283185840706,NA
07405,Morris County,NJ,NA,76.72566371681417,61.88725490196079
07420,Passaic County,NJ,NA,80.79646017699115,NA
07601,Bergen County,NJ,NA,NA,14.82843137254902
07603,Bergen County,NJ,NA,78.14159292035399,NA
07631,Bergen County,NJ,NA,21.68141592920354,NA
07666,Bergen County,NJ,NA,NA,12.990196078431374
07670,Bergen County,NJ,85.84070796460178,NA,NA
07676,Bergen County,NJ,NA,97.78761061946902,NA
08009,Camden County,NJ,NA,63.982300884955755,NA
08016,Burlington County,NJ,NA,23.805309734513276,NA
08054,Burlington County,NJ,23.640960809102403,NA,NA
08055,Burlington County,NJ,NA,NA,35.41666666666667
08062,Gloucester County,NJ,NA,NA,80.26960784313727
08070,Salem County,NJ,NA,52.30088495575222,NA
08081,Camden County,NJ,1.390644753476612,NA,NA
08226,Cape May County,NJ,NA,55.39823008849557,NA
08230,Cape May County,NJ,NA,NA,88.60294117647058
08322,Gloucester County,NJ,NA,93.36283185840708,NA
08360,Cumberland County,NJ,0.8849557522123894,NA,NA
08518,Burlington County,NJ,NA,NA,99.87745098039215
08527,Ocean County,NJ,34.007585335018966,5.575221238938053,NA
08610,Mercer County,NJ,NA,48.67256637168141,NA
08648,Mercer County,NJ,NA,39.38053097345133,NA
08723,Ocean County,NJ,45.259165613147914,NA,NA
08724,Ocean County,NJ,8.849557522123893,NA,NA
08731,Ocean County,NJ,NA,49.02654867256637,NA
08757,Ocean County,NJ,NA,NA,0.24509803921568626
08820,Middlesex County,NJ,45.63843236409608,63.36283185840708,NA
08824,Middlesex County,NJ,NA,83.1858407079646,NA
08835,Somerset County,NJ,NA,NA,85.41666666666666
08879,Middlesex County,NJ,NA,54.424778761061944,NA
87002,Valencia County,NM,87.35777496839444,NA,NA
87004,Sandoval County,NM,NA,NA,71.20098039215686
87035,Torrance County,NM,98.73577749683943,NA,NA
87111,Bernalillo County,NM,NA,87.43362831858407,NA
87120,Bernalillo County,NM,NA,68.67256637168143,NA
87144,Sandoval County,NM,NA,NA,51.225490196078425
87313,McKinley County,NM,91.52970922882427,NA,NA
87401,San Juan County,NM,NA,NA,35.78431372549019
87413,San Juan County,NM,NA,NA,85.17156862745098
87507,Santa Fe County,NM,NA,NA,17.892156862745097
88011,Doa Ana County,NM,NA,77.78761061946902,NA
88021,Doa Ana County,NM,74.96839443742098,NA,NA
88101,Curry County,NM,NA,32.92035398230089,4.779411764705882
88201,Chaves County,NM,NA,37.52212389380531,NA
88203,Chaves County,NM,NA,16.63716814159292,NA
88260,Lea County,NM,39.443742098609356,NA,NA
88310,Otero County,NM,23.514538558786345,24.778761061946902,NA
10021,New York County,NY,NA,NA,15.931372549019606
10027,New York County,NY,NA,11.238938053097346,NA
10036,New York County,NY,36.91529709228824,NA,NA
10452,Bronx County,NY,NA,0.4424778761061947,NA
10453,Bronx County,NY,NA,NA,13.357843137254902
10460,Bronx County,NY,NA,0.9734513274336283,NA
10463,Bronx County,NY,NA,2.831858407079646,NA
10583,Westchester County,NY,NA,NA,27.696078431372552
10927,Rockland County,NY,NA,NA,73.89705882352942
10952,Rockland County,NY,NA,NA,61.88725490196079
10990,Orange County,NY,NA,NA,74.38725490196079
11004,Queens County,NY,NA,NA,65.68627450980392
11020,Nassau County,NY,100,NA,NA
11201,Kings County,NY,NA,NA,22.30392156862745
11209,Kings County,NY,NA,NA,46.32352941176471
11213,Kings County,NY,NA,NA,27.450980392156865
11216,Kings County,NY,10.619469026548673,NA,NA
11217,Kings County,NY,NA,23.628318584070797,NA
11355,Queens County,NY,26.927939317319847,NA,NA
11421,Queens County,NY,NA,57.07964601769911,NA
11554,Nassau County,NY,NA,46.991150442477874,NA
11709,Nassau County,NY,NA,96.28318584070796,NA
11710,Nassau County,NY,NA,NA,69.24019607843137
11717,Suffolk County,NY,51.8331226295828,NA,NA
11738,Suffolk County,NY,NA,91.1504424778761,NA
11771,Nassau County,NY,NA,NA,82.23039215686273
11784,Suffolk County,NY,NA,83.71681415929203,NA
11791,Nassau County,NY,NA,81.32743362831857,NA
11795,Suffolk County,NY,NA,NA,26.10294117647059
11961,Suffolk County,NY,NA,NA,32.96568627450981
12010,Montgomery County,NY,NA,3.982300884955752,4.901960784313726
12110,Albany County,NY,NA,83.6283185840708,NA
12180,Rensselaer County,NY,2.1491782553729455,NA,NA
12528,Ulster County,NY,79.26675094816687,NA,NA
12534,Columbia County,NY,14.791403286978507,NA,NA
12569,Dutchess County,NY,94.43742098609356,NA,NA
12839,Washington County,NY,NA,48.584070796460175,NA
12901,Clinton County,NY,3.034134007585335,NA,NA
12966,Franklin County,NY,84.3236409608091,NA,NA
13021,Cayuga County,NY,NA,NA,15.196078431372548
13077,Cortland County,NY,NA,NA,83.82352941176471
13090,Onondaga County,NY,NA,26.548672566371685,NA
13101,Cortland County,NY,NA,93.98230088495575,NA
13152,Onondaga County,NY,40.960809102402024,NA,NA
13166,Cayuga County,NY,NA,87.34513274336283,NA
13203,Onondaga County,NY,18.83691529709229,NA,NA
13326,Otsego County,NY,NA,NA,32.23039215686275
13346,Madison County,NY,NA,56.81415929203539,NA
13365,Herkimer County,NY,34.260429835651074,NA,51.470588235294116
13421,Madison County,NY,NA,NA,76.9607843137255
13440,Oneida County,NY,NA,3.893805309734513,NA
13493,Oswego County,NY,99.11504424778761,NA,NA
13760,Broome County,NY,NA,0.08849557522123894,NA
13815,Chenango County,NY,NA,11.68141592920354,NA
13820,Otsego County,NY,NA,57.43362831858407,NA
13856,Delaware County,NY,50.94816687737042,NA,NA
13865,Broome County,NY,48.040455120101136,NA,NA
14052,Erie County,NY,57.2692793931732,NA,NA
14072,Erie County,NY,41.08723135271808,NA,NA
14075,Erie County,NY,NA,NA,9.558823529411764
14092,Niagara County,NY,NA,47.61061946902655,NA
14094,Niagara County,NY,NA,1.6814159292035398,NA
14120,Niagara County,NY,NA,5.929203539823009,NA
14132,Niagara County,NY,66.24525916561315,NA,NA
14150,Erie County,NY,NA,4.513274336283186,NA
14221,Erie County,NY,NA,NA,11.76470588235294
14224,Erie County,NY,NA,NA,10.049019607843137
14228,Erie County,NY,NA,80.61946902654867,NA
14424,Ontario County,NY,NA,0.6194690265486725,NA
14513,Wayne County,NY,NA,2.6548672566371683,NA
14514,Monroe County,NY,NA,NA,90.07352941176471
14519,Wayne County,NY,21.11251580278129,NA,NA
14548,Ontario County,NY,NA,76.19469026548673,NA
14569,Wyoming County,NY,NA,62.92035398230088,NA
14580,Monroe County,NY,0.7585335018963337,14.601769911504425,NA
14606,Monroe County,NY,NA,44.424778761061944,33.088235294117645
14609,Monroe County,NY,NA,NA,16.78921568627451
14617,Monroe County,NY,NA,3.0088495575221237,NA
14624,Monroe County,NY,NA,1.415929203539823,NA
14701,Chautauqua County,NY,NA,1.3274336283185841,NA
14760,Cattaraugus County,NY,9.22882427307206,NA,NA
14787,Chautauqua County,NY,NA,90.61946902654867,NA
14850,Tompkins County,NY,4.551201011378002,NA,27.328431372549016
14895,Allegany County,NY,29.20353982300885,76.19469026548673,NA
27018,Yadkin County,NC,NA,73.45132743362832,NA
27021,Stokes County,NC,NA,NA,58.333333333333336
27030,Surry County,NC,6.573957016434892,NA,NA
27052,Stokes County,NC,NA,NA,58.2107843137255
27105,Forsyth County,NC,NA,NA,35.17156862745098
27106,Forsyth County,NC,NA,NA,0.9803921568627451
27203,Randolph County,NC,NA,NA,56.98529411764706
27249,Guilford County,NC,NA,65.75221238938053,NA
27284,Forsyth County,NC,6.826801517067003,NA,NA
27288,Rockingham County,NC,NA,21.50442477876106,39.950980392156865
27292,Davidson County,NC,NA,0.7964601769911505,NA
27301,Guilford County,NC,NA,98.8495575221239,NA
27312,Chatham County,NC,NA,16.902654867256636,NA
27317,Randolph County,NC,NA,72.30088495575221,NA
27320,Rockingham County,NC,NA,8.584070796460178,2.8186274509803924
27330,Lee County,NC,NA,NA,29.044117647058826
27349,Alamance County,NC,NA,79.46902654867256,NA
27379,Caswell County,NC,NA,NA,75.73529411764706
27401,Guilford County,NC,28.57142857142857,NA,NA
27405,Guilford County,NC,NA,NA,19.975490196078432
27406,Guilford County,NC,3.792667509481669,NA,NA
27408,Guilford County,NC,NA,56.37168141592921,NA
27516,Orange County,NC,NA,NA,94.11764705882352
27518,Wake County,NC,NA,NA,91.91176470588235
27524,Johnston County,NC,NA,NA,71.69117647058823
27527,Johnston County,NC,70.92288242730721,NA,NA
27529,Wake County,NC,NA,NA,16.42156862745098
27530,Wayne County,NC,NA,NA,26.96078431372549
27545,Wake County,NC,NA,49.64601769911504,NA
27549,Franklin County,NC,NA,31.238938053097343,NA
27577,Johnston County,NC,NA,30.353982300884958,NA
27581,Granville County,NC,98.60935524652339,NA,NA
27587,Wake County,NC,NA,NA,15.073529411764705
27596,Franklin County,NC,NA,NA,91.91176470588235
27597,Wake County,NC,87.61061946902655,NA,67.27941176470588
27606,Wake County,NC,NA,NA,49.50980392156863
27607,Wake County,NC,NA,77.87610619469027,NA
27609,Wake County,NC,NA,32.0353982300885,61.274509803921575
27612,Wake County,NC,NA,38.318584070796454,40.19607843137255
27616,Wake County,NC,19.848293299620735,NA,73.40686274509804
27804,Nash County,NC,NA,NA,36.27450980392157
27807,Nash County,NC,NA,NA,98.40686274509804
27830,Wayne County,NC,95.95448798988622,NA,NA
27858,Pitt County,NC,NA,40.884955752212385,NA
27893,Wilson County,NC,NA,NA,33.455882352941174
27962,Washington County,NC,70.79646017699115,NA,NA
28025,Cabarrus County,NC,NA,48.76106194690266,NA
28027,Cabarrus County,NC,NA,6.371681415929204,NA
28054,Gaston County,NC,NA,25.221238938053098,NA
28078,Mecklenburg County,NC,32.364096080910244,83.45132743362832,NA
28083,Cabarrus County,NC,29.835651074589126,NA,NA
28092,Lincoln County,NC,NA,11.150442477876107,NA
28103,Union County,NC,76.99115044247787,NA,NA
28104,Union County,NC,NA,71.85840707964601,NA
28127,Stanly County,NC,NA,81.50442477876106,NA
28139,Rutherford County,NC,NA,NA,52.32843137254902
28144,Rowan County,NC,34.38685208596713,NA,NA
28205,Mecklenburg County,NC,NA,NA,47.05882352941176
28215,Mecklenburg County,NC,NA,16.8141592920354,NA
28226,Mecklenburg County,NC,NA,43.6283185840708,NA
28269,Mecklenburg County,NC,13.400758533501897,NA,NA
28270,Mecklenburg County,NC,NA,45.48672566371682,NA
28278,Mecklenburg County,NC,61.31479140328698,NA,NA
28312,Cumberland County,NC,NA,NA,73.16176470588235
28314,Cumberland County,NC,NA,37.34513274336283,NA
28328,Sampson County,NC,NA,NA,37.99019607843137
28334,Sampson County,NC,NA,26.725663716814157,NA
28345,Richmond County,NC,NA,NA,50.122549019607845
28360,Robeson County,NC,NA,63.27433628318584,NA
28364,Robeson County,NC,85.58786346396965,NA,NA
28376,Hoke County,NC,NA,32.21238938053098,NA
28379,Richmond County,NC,16.308470290771176,NA,NA
28412,New Hanover County,NC,15.04424778761062,NA,NA
28425,Pender County,NC,NA,NA,76.10294117647058
28458,Duplin County,NC,88.49557522123894,NA,NA
28465,Brunswick County,NC,NA,58.23008849557522,NA
28469,Brunswick County,NC,NA,NA,81.61764705882352
28501,Lenoir County,NC,NA,NA,54.166666666666664
28586,Craven County,NC,NA,NA,95.83333333333334
28601,Catawba County,NC,NA,NA,16.544117647058822
28602,Catawba County,NC,NA,NA,61.76470588235294
28612,Burke County,NC,85.96713021491783,NA,NA
28621,Surry County,NC,NA,52.30088495575222,NA
28655,Burke County,NC,5.056890012642225,23.98230088495575,NA
28657,Avery County,NC,69.40581542351454,NA,NA
28690,Burke County,NC,54.9936788874842,NA,66.05392156862744
28704,Buncombe County,NC,NA,NA,52.57352941176471
28714,Yancey County,NC,NA,92.92035398230088,NA
28716,Haywood County,NC,50.695322376738304,NA,NA
28717,Jackson County,NC,NA,95.2212389380531,NA
28723,Jackson County,NC,NA,87.07964601769912,NA
28734,Macon County,NC,NA,7.256637168141593,NA
28739,Henderson County,NC,51.32743362831859,10.973451327433628,7.8431372549019605
28752,McDowell County,NC,NA,48.23008849557522,24.509803921568626
28761,McDowell County,NC,NA,78.67256637168141,NA
28777,Mitchell County,NC,NA,89.82300884955751,NA
28782,Polk County,NC,NA,85.75221238938053,NA
28786,Haywood County,NC,NA,16.72566371681416,19.362745098039216
28787,Buncombe County,NC,68.6472819216182,NA,NA
28791,Henderson County,NC,76.48546144121366,NA,NA
28792,Henderson County,NC,NA,NA,9.191176470588236
28803,Buncombe County,NC,NA,NA,21.568627450980394
28806,Buncombe County,NC,38.81163084702908,NA,33.57843137254902
58078,Cass County,ND,NA,12.831858407079647,NA
58554,Morton County,ND,NA,64.51327433628319,NA
58601,Stark County,ND,NA,69.29203539823008,NA
58701,Ward County,ND,58.28065739570164,NA,NA
58854,McKenzie County,ND,87.7370417193426,NA,NA
43017,Franklin County,OH,NA,36.19469026548672,NA
43040,Union County,OH,NA,NA,58.08823529411765
43054,Franklin County,OH,95.448798988622,NA,NA
43055,Licking County,OH,NA,0.8849557522123894,NA
43064,Madison County,OH,NA,94.95575221238937,NA
43081,Franklin County,OH,20.606826801517066,NA,NA
43119,Franklin County,OH,NA,50.26548672566372,NA
43130,Fairfield County,OH,NA,1.8584070796460177,NA
43140,Madison County,OH,NA,NA,56.127450980392155
43203,Franklin County,OH,70.16434892541086,NA,NA
43224,Franklin County,OH,5.183312262958281,NA,NA
43227,Franklin County,OH,NA,38.58407079646018,NA
43228,Franklin County,OH,NA,NA,17.27941176470588
43229,Franklin County,OH,6.06826801517067,NA,NA
43235,Franklin County,OH,43.742098609355246,35.575221238938056,80.3921568627451
43302,Marion County,OH,2.0227560050568902,2.0353982300884956,3.1862745098039214
43338,Morrow County,OH,NA,NA,56.25
43402,Wood County,OH,NA,12.743362831858407,NA
43465,Wood County,OH,NA,70.26548672566372,NA
43502,Fulton County,OH,98.98862199747155,NA,NA
43512,Defiance County,OH,NA,3.4513274336283186,NA
43515,Fulton County,OH,87.10493046776233,NA,NA
43518,Williams County,OH,NA,93.53982300884955,NA
43526,Defiance County,OH,NA,71.23893805309734,NA
43528,Lucas County,OH,NA,NA,68.13725490196079
43543,Williams County,OH,NA,57.69911504424778,NA
43551,Wood County,OH,NA,56.725663716814154,NA
43560,Lucas County,OH,24.27307206068268,NA,NA
43567,Fulton County,OH,NA,38.49557522123894,NA
43608,Lucas County,OH,8.091024020227561,NA,NA
43701,Muskingum County,OH,0.6321112515802781,5.486725663716814,1.2254901960784315
43723,Guernsey County,OH,96.46017699115043,NA,NA
43725,Guernsey County,OH,NA,6.1946902654867255,NA
43812,Coshocton County,OH,59.5448798988622,NA,NA
43845,Coshocton County,OH,64.85461441213654,NA,NA
44011,Lorain County,OH,31.22629582806574,NA,8.700980392156863
44023,Geauga County,OH,NA,NA,11.151960784313726
44028,Lorain County,OH,NA,71.50442477876106,NA
44030,Ashtabula County,OH,21.238938053097346,NA,NA
44035,Lorain County,OH,0,16.10619469026549,2.941176470588235
44039,Lorain County,OH,7.585335018963338,NA,NA
44052,Lorain County,OH,NA,1.5044247787610618,NA
44053,Lorain County,OH,NA,4.778761061946903,NA
44055,Lorain County,OH,8.470290771175728,NA,NA
44056,Summit County,OH,NA,57.34513274336284,NA
44072,Geauga County,OH,NA,NA,78.18627450980392
44077,Lake County,OH,NA,18.58407079646018,NA
44087,Summit County,OH,40.707964601769916,13.097345132743362,NA
44092,Lake County,OH,NA,31.41592920353982,NA
44094,Lake County,OH,17.9519595448799,NA,NA
44102,Cuyahoga County,OH,NA,1.6814159292035398,NA
44103,Cuyahoga County,OH,NA,NA,32.84313725490196
44104,Cuyahoga County,OH,NA,74.60176991150442,NA
44105,Cuyahoga County,OH,0.5056890012642226,NA,NA
44106,Cuyahoga County,OH,NA,11.858407079646017,NA
44107,Cuyahoga County,OH,1.7699115044247788,2.47787610619469,NA
44109,Cuyahoga County,OH,11.630847029077119,NA,NA
44111,Cuyahoga County,OH,10.872313527180784,NA,11.397058823529411
44112,Cuyahoga County,OH,NA,25.663716814159294,NA
44118,Cuyahoga County,OH,38.43236409608091,NA,NA
44120,Cuyahoga County,OH,3.16055625790139,NA,NA
44122,Cuyahoga County,OH,NA,51.06194690265487,NA
44124,Cuyahoga County,OH,NA,2.3893805309734515,0.3676470588235294
44128,Cuyahoga County,OH,NA,NA,1.5931372549019607
44129,Cuyahoga County,OH,NA,69.46902654867256,NA
44130,Cuyahoga County,OH,NA,NA,0.49019607843137253
44132,Cuyahoga County,OH,23.261694058154237,49.38053097345133,NA
44133,Cuyahoga County,OH,NA,NA,9.436274509803921
44134,Cuyahoga County,OH,NA,NA,24.877450980392158
44135,Cuyahoga County,OH,2.781289506953224,NA,22.426470588235293
44136,Cuyahoga County,OH,NA,NA,12.377450980392158
44137,Cuyahoga County,OH,5.436156763590392,NA,NA
44138,Cuyahoga County,OH,NA,22.035398230088497,57.84313725490197
44143,Cuyahoga County,OH,NA,NA,1.715686274509804
44145,Cuyahoga County,OH,17.319848293299618,NA,NA
44146,Cuyahoga County,OH,NA,1.1504424778761062,NA
44149,Cuyahoga County,OH,NA,15.221238938053098,NA
44202,Portage County,OH,NA,17.25663716814159,NA
44212,Medina County,OH,3.286978508217446,NA,NA
44216,Summit County,OH,62.19974715549937,NA,NA
44224,Summit County,OH,NA,7.433628318584071,8.21078431372549
44231,Portage County,OH,86.09355246523388,NA,NA
44240,Portage County,OH,NA,18.4070796460177,NA
44241,Portage County,OH,NA,NA,61.274509803921575
44254,Medina County,OH,98.10366624525916,NA,NA
44270,Wayne County,OH,NA,NA,61.15196078431373
44303,Summit County,OH,NA,NA,89.09313725490196
44314,Summit County,OH,25.9165613147914,NA,NA
44333,Summit County,OH,NA,NA,70.95588235294117
44410,Trumbull County,OH,NA,NA,47.42647058823529
44436,Mahoning County,OH,NA,84.95575221238938,NA
44444,Trumbull County,OH,53.22376738305942,NA,NA
44446,Trumbull County,OH,NA,14.955752212389381,NA
44471,Mahoning County,OH,NA,74.95575221238938,NA
44481,Trumbull County,OH,NA,NA,75.61274509803921
44483,Trumbull County,OH,NA,44.86725663716814,NA
44484,Trumbull County,OH,63.08470290771175,NA,NA
44504,Mahoning County,OH,81.16308470290771,87.2566371681416,NA
44512,Mahoning County,OH,NA,NA,14.338235294117647
44618,Wayne County,OH,NA,NA,98.77450980392157
44622,Tuscarawas County,OH,33.122629582806574,NA,NA
44641,Stark County,OH,NA,45.84070796460177,NA
44663,Tuscarawas County,OH,NA,81.85840707964603,NA
44672,Mahoning County,OH,NA,NA,74.87745098039215
44685,Summit County,OH,43.994943109987354,NA,NA
44705,Stark County,OH,NA,36.902654867256636,NA
44708,Stark County,OH,NA,NA,53.30882352941176
44714,Stark County,OH,NA,96.63716814159292,NA
44720,Stark County,OH,NA,NA,12.132352941176471
44805,Ashland County,OH,12.64222503160556,NA,NA
44811,Sandusky County,OH,32.11125158027813,NA,NA
44814,Erie County,OH,99.62073324905182,NA,NA
44830,Seneca County,OH,17.193426042983564,97.87610619469027,NA
44833,Crawford County,OH,32.743362831858406,NA,NA
44839,Erie County,OH,NA,39.02654867256637,NA
44883,Seneca County,OH,NA,72.21238938053098,NA
44890,Huron County,OH,NA,62.123893805309734,NA
45005,Warren County,OH,8.596713021491782,NA,NA
45014,Butler County,OH,NA,17.699115044247787,NA
45040,Warren County,OH,66.49810366624526,NA,NA
45042,Butler County,OH,NA,NA,87.62254901960785
45102,Clermont County,OH,35.77749683944374,NA,NA
45103,Clermont County,OH,NA,21.76991150442478,NA
45142,Highland County,OH,NA,99.38053097345133,NA
45150,Clermont County,OH,NA,27.964601769911507,NA
45205,Hamilton County,OH,NA,83.45132743362832,NA
45215,Hamilton County,OH,24.146649810366625,NA,NA
45217,Hamilton County,OH,84.82932996207333,NA,99.26470588235294
45231,Hamilton County,OH,NA,NA,10.784313725490197
45233,Hamilton County,OH,NA,NA,37.622549019607845
45238,Hamilton County,OH,NA,13.716814159292035,7.598039215686274
45239,Hamilton County,OH,NA,33.27433628318584,NA
45240,Hamilton County,OH,25.031605562579013,44.955752212389385,50.49019607843137
45244,Hamilton County,OH,NA,NA,72.54901960784314
45251,Hamilton County,OH,NA,61.858407079646014,42.279411764705884
45255,Hamilton County,OH,NA,NA,43.872549019607845
45309,Montgomery County,OH,NA,NA,43.75
45324,Greene County,OH,NA,15.752212389380531,NA
45331,Darke County,OH,25.410872313527182,NA,NA
45342,Montgomery County,OH,NA,8.31858407079646,NA
45356,Miami County,OH,NA,10.265486725663717,NA
45377,Montgomery County,OH,NA,95.84070796460176,NA
45414,Montgomery County,OH,30.214917825537295,NA,NA
45416,Montgomery County,OH,NA,NA,97.79411764705883
45424,Montgomery County,OH,10.493046776232617,NA,NA
45459,Montgomery County,OH,NA,85.2212389380531,14.583333333333334
45629,Scioto County,OH,NA,100,NA
45631,Gallia County,OH,10.366624525916562,9.29203539823009,31.127450980392158
45638,Lawrence County,OH,21.61820480404551,NA,NA
45680,Lawrence County,OH,12.13653603034134,28.053097345132745,NA
45701,Athens County,OH,NA,52.92035398230088,NA
45714,Washington County,OH,69.5322376738306,NA,NA
45750,Washington County,OH,NA,0.17699115044247787,NA
45840,Hancock County,OH,NA,2.3008849557522124,6.004901960784314
45891,Van Wert County,OH,29.96207332490518,23.008849557522122,NA
73013,Oklahoma County,OK,31.731984829329964,NA,NA
73020,Oklahoma County,OK,83.69152970922883,NA,NA
73055,Stephens County,OK,NA,NA,74.63235294117648
73064,Canadian County,OK,NA,NA,41.66666666666667
73071,Cleveland County,OK,22.88242730720607,NA,NA
73077,Noble County,OK,NA,84.60176991150442,NA
73078,Canadian County,OK,NA,NA,99.1421568627451
73106,Oklahoma County,OK,NA,73.71681415929203,NA
73108,Oklahoma County,OK,86.47281921618205,NA,NA
73112,Oklahoma County,OK,35.52465233881163,NA,NA
73114,Oklahoma County,OK,80.40455120101137,NA,NA
73120,Oklahoma County,OK,NA,NA,13.23529411764706
73129,Oklahoma County,OK,51.70670037926675,NA,NA
73159,Oklahoma County,OK,NA,24.867256637168143,NA
73170,Cleveland County,OK,NA,86.54867256637168,NA
73401,Carter County,OK,13.653603034134006,9.557522123893806,NA
73439,Marshall County,OK,NA,NA,93.01470588235294
73505,Comanche County,OK,21.491782553729458,NA,NA
73507,Comanche County,OK,NA,28.230088495575224,NA
73703,Garfield County,OK,NA,15.663716814159292,NA
74006,Washington County,OK,NA,NA,29.65686274509804
74008,Tulsa County,OK,NA,51.94690265486726,NA
74015,Rogers County,OK,95.57522123893806,NA,NA
74017,Rogers County,OK,NA,50.97345132743363,24.019607843137255
74021,Tulsa County,OK,NA,66.19469026548673,NA
74063,Tulsa County,OK,NA,NA,50.36764705882353
74070,Osage County,OK,NA,NA,89.4607843137255
74075,Payne County,OK,62.45259165613148,NA,NA
74105,Tulsa County,OK,NA,47.9646017699115,NA
74107,Tulsa County,OK,64.22250316055626,NA,NA
74115,Tulsa County,OK,NA,NA,64.70588235294117
74127,Tulsa County,OK,64.60176991150442,67.87610619469027,NA
74128,Tulsa County,OK,NA,NA,96.32352941176471
74133,Tulsa County,OK,NA,19.29203539823009,NA
74134,Tulsa County,OK,NA,NA,92.76960784313727
74137,Tulsa County,OK,76.10619469026548,NA,NA
74145,Tulsa County,OK,NA,65.39823008849558,NA
74352,Mayes County,OK,NA,81.06194690265487,NA
74354,Ottawa County,OK,NA,47.43362831858407,NA
74434,Muskogee County,OK,NA,85.39823008849558,NA
74462,Haskell County,OK,75.34766118836916,NA,NA
74467,Wagoner County,OK,NA,58.49557522123894,NA
74501,Pittsburg County,OK,NA,NA,33.94607843137255
74743,Choctaw County,OK,NA,86.72566371681415,NA
74801,Pottawatomie County,OK,NA,24.336283185840706,NA
74820,Pontotoc County,OK,NA,3.7168141592920354,NA
74948,Sequoyah County,OK,NA,NA,68.75
74953,Le Flore County,OK,NA,78.84955752212389,NA
97002,Marion County,OR,NA,94.24778761061947,NA
97045,Clackamas County,OR,NA,NA,48.77450980392157
97062,Washington County,OR,NA,64.3362831858407,NA
97080,Multnomah County,OR,NA,17.964601769911503,NA
97116,Washington County,OR,NA,51.23893805309735,NA
97132,Yamhill County,OR,NA,NA,30.88235294117647
97141,Tillamook County,OR,65.2338811630847,NA,NA
97218,Multnomah County,OR,NA,86.90265486725663,NA
97223,Washington County,OR,NA,NA,43.25980392156863
97230,Multnomah County,OR,56.89001264222503,11.946902654867257,NA
97233,Multnomah County,OR,15.802781289506953,NA,52.94117647058824
97303,Marion County,OR,40.83438685208597,NA,NA
97322,Linn County,OR,NA,NA,6.862745098039216
97333,Benton County,OR,NA,NA,54.41176470588235
97338,Polk County,OR,NA,NA,83.33333333333334
97367,Lincoln County,OR,NA,NA,56.74019607843137
97381,Marion County,OR,NA,66.3716814159292,79.41176470588235
97394,Lincoln County,OR,NA,NA,69.11764705882352
97415,Curry County,OR,NA,NA,20.588235294117645
97426,Lane County,OR,NA,NA,59.43627450980392
97439,Lane County,OR,NA,77.61061946902656,NA
97470,Douglas County,OR,31.099873577749683,NA,NA
97471,Douglas County,OR,NA,5.132743362831858,NA
97496,Douglas County,OR,NA,72.0353982300885,NA
97501,Jackson County,OR,NA,NA,28.431372549019606
97502,Jackson County,OR,NA,85.30973451327434,NA
97504,Jackson County,OR,NA,NA,3.308823529411765
97520,Jackson County,OR,NA,NA,65.44117647058823
97537,Jackson County,OR,80.9102402022756,NA,NA
97601,Klamath County,OR,17.06700379266751,NA,40.931372549019606
97603,Klamath County,OR,NA,4.601769911504425,NA
97850,Union County,OR,NA,26.10619469026549,NA
97914,Malheur County,OR,NA,19.911504424778762,NA
15012,Westmoreland County,PA,62.32616940581542,NA,NA
15024,Allegheny County,PA,NA,76.63716814159291,NA
15057,Washington County,PA,NA,NA,79.04411764705883
15066,Beaver County,PA,73.83059418457648,69.02654867256636,NA
15106,Allegheny County,PA,NA,NA,60.90686274509803
15116,Allegheny County,PA,NA,NA,43.995098039215684
15122,Allegheny County,PA,NA,57.69911504424778,NA
15146,Allegheny County,PA,46.77623261694058,30.08849557522124,NA
15213,Allegheny County,PA,NA,NA,35.294117647058826
15221,Allegheny County,PA,NA,23.36283185840708,NA
15227,Allegheny County,PA,36.53603034134007,NA,NA
15330,Washington County,PA,NA,NA,90.44117647058823
15522,Bedford County,PA,NA,NA,82.35294117647058
15552,Somerset County,PA,NA,89.82300884955751,NA
15644,Westmoreland County,PA,61.94690265486725,NA,NA
15801,Clearfield County,PA,NA,5.752212389380531,NA
15825,Jefferson County,PA,NA,NA,26.715686274509803
15904,Cambria County,PA,NA,35.575221238938056,NA
15931,Cambria County,PA,NA,NA,79.90196078431373
16102,Lawrence County,PA,NA,NA,82.1078431372549
16146,Mercer County,PA,NA,41.23893805309734,NA
16316,Crawford County,PA,NA,NA,96.32352941176471
16407,Erie County,PA,NA,88.58407079646018,71.93627450980392
16433,Crawford County,PA,NA,NA,88.3578431372549
16504,Erie County,PA,NA,73.89380530973452,NA
16601,Blair County,PA,NA,59.20353982300885,NA
16635,Blair County,PA,75.47408343868521,NA,NA
16648,Blair County,PA,NA,NA,47.30392156862745
16803,Centre County,PA,NA,61.06194690265486,NA
16828,Centre County,PA,NA,NA,75.36764705882352
16830,Clearfield County,PA,28.697850821744623,NA,NA
17007,Cumberland County,PA,NA,NA,97.91666666666666
17015,Cumberland County,PA,NA,81.68141592920354,NA
17042,Lebanon County,PA,NA,29.292035398230087,NA
17044,Mifflin County,PA,11.883691529709228,6.725663716814159,NA
17067,Lebanon County,PA,66.62452591656131,NA,NA
17109,Dauphin County,PA,24.905183312262956,NA,NA
17111,Dauphin County,PA,15.549936788874842,NA,NA
17112,Dauphin County,PA,NA,NA,10.906862745098039
17201,Franklin County,PA,NA,75.929203539823,NA
17202,Franklin County,PA,NA,NA,12.254901960784313
17233,Fulton County,PA,NA,86.28318584070797,NA
17325,Adams County,PA,NA,NA,42.03431372549019
17402,York County,PA,NA,82.12389380530973,NA
17821,Montour County,PA,NA,NA,20.22058823529412
17842,Snyder County,PA,79.39317319848294,NA,NA
17931,Schuylkill County,PA,76.61188369152971,NA,NA
18017,Northampton County,PA,5.941845764854614,NA,NA
18018,Lehigh County,PA,NA,7.610619469026549,NA
18031,Lehigh County,PA,NA,NA,87.00980392156863
18036,Lehigh County,PA,NA,NA,38.970588235294116
18042,Northampton County,PA,NA,26.28318584070796,NA
18045,Northampton County,PA,36.40960809102402,NA,7.965686274509803
18080,Lehigh County,PA,43.994943109987354,NA,NA
18091,Northampton County,PA,NA,87.61061946902655,NA
18103,Lehigh County,PA,4.9304677623261695,NA,NA
18104,Lehigh County,PA,NA,3.0973451327433628,NA
18201,Luzerne County,PA,52.46523388116309,NA,NA
18252,Schuylkill County,PA,57.01643489254109,NA,NA
18337,Pike County,PA,NA,NA,59.92647058823529
18414,Lackawanna County,PA,NA,NA,94.24019607843137
18428,Pike County,PA,NA,NA,53.06372549019608
18431,Wayne County,PA,64.22250316055626,NA,NA
18444,Lackawanna County,PA,NA,NA,63.60294117647059
18508,Lackawanna County,PA,60.42983565107459,46.017699115044245,NA
18510,Lackawanna County,PA,67.5094816687737,NA,NA
18517,Lackawanna County,PA,NA,90.2654867256637,NA
18612,Luzerne County,PA,NA,48.849557522123895,NA
18640,Luzerne County,PA,NA,31.68141592920354,NA
18651,Luzerne County,PA,NA,NA,62.254901960784316
18702,Luzerne County,PA,7.206068268015171,NA,NA
18705,Luzerne County,PA,79.64601769911505,NA,NA
18901,Bucks County,PA,44.37420986093553,NA,NA
18951,Bucks County,PA,19.089759797724398,NA,NA
19002,Montgomery County,PA,82.55372945638433,NA,NA
19004,Montgomery County,PA,NA,NA,69.85294117647058
19027,Montgomery County,PA,NA,NA,20.833333333333336
19030,Bucks County,PA,94.81668773704172,NA,NA
19041,Delaware County,PA,NA,NA,73.2843137254902
19044,Montgomery County,PA,NA,NA,83.57843137254902
19047,Bucks County,PA,NA,14.778761061946902,NA
19082,Delaware County,PA,NA,NA,64.58333333333334
19104,Philadelphia County,PA,NA,91.5929203539823,NA
19116,Philadelphia County,PA,28.31858407079646,69.64601769911505,NA
19122,Philadelphia County,PA,NA,NA,78.43137254901961
19126,Philadelphia County,PA,NA,45.663716814159294,NA
19132,Philadelphia County,PA,NA,13.539823008849558,NA
19138,Philadelphia County,PA,NA,20.79646017699115,NA
19140,Philadelphia County,PA,NA,8.053097345132745,NA
19141,Philadelphia County,PA,NA,14.690265486725664,NA
19144,Philadelphia County,PA,NA,8.672566371681416,17.892156862745097
19145,Philadelphia County,PA,NA,43.53982300884956,NA
19146,Philadelphia County,PA,46.27054361567636,NA,NA
19150,Philadelphia County,PA,NA,22.477876106194692,NA
19152,Philadelphia County,PA,18.58407079646018,NA,NA
19154,Philadelphia County,PA,15.423514538558786,NA,NA
19350,Chester County,PA,NA,NA,99.38725490196079
19355,Chester County,PA,NA,NA,49.01960784313725
19380,Chester County,PA,11.504424778761061,NA,NA
19401,Montgomery County,PA,NA,NA,69.97549019607843
19403,Montgomery County,PA,17.699115044247787,4.867256637168142,NA
19444,Montgomery County,PA,NA,NA,77.57352941176471
19454,Montgomery County,PA,NA,NA,43.01470588235294
19462,Montgomery County,PA,NA,NA,91.05392156862744
19464,Montgomery County,PA,4.804045512010114,5.663716814159292,NA
19468,Montgomery County,PA,39.317319848293295,NA,NA
19473,Montgomery County,PA,NA,74.86725663716814,NA
19475,Chester County,PA,NA,NA,70.09803921568627
19512,Berks County,PA,NA,51.592920353982294,NA
19522,Berks County,PA,NA,NA,51.83823529411765
19533,Berks County,PA,NA,NA,87.37745098039215
19605,Berks County,PA,NA,NA,58.82352941176471
19606,Berks County,PA,10.998735777496838,NA,NA
19607,Berks County,PA,27.307206068268012,NA,NA
02809,Bristol County,RI,NA,NA,37.377450980392155
02816,Kent County,RI,27.054361567635905,NA,NA
02830,Providence County,RI,82.9329962073325,NA,NA
02835,Newport County,RI,NA,95.04424778761062,NA
02861,Providence County,RI,66.1188369152971,NA,NA
02871,Newport County,RI,85.20859671302149,NA,NA
02879,Washington County,RI,92.79393173198483,NA,NA
02896,Providence County,RI,83.81795195954489,NA,NA
02909,Providence County,RI,77.49683944374209,NA,NA
29020,Kershaw County,SC,NA,33.98230088495575,NA
29072,Lexington County,SC,NA,25.840707964601773,29.166666666666668
29130,Fairfield County,SC,NA,91.06194690265487,NA
29148,Clarendon County,SC,NA,91.76991150442478,NA
29150,Sumter County,SC,NA,79.38053097345133,NA
29161,Florence County,SC,NA,78.31858407079646,NA
29210,Richland County,SC,NA,NA,50.122549019607845
29301,Spartanburg County,SC,NA,NA,83.45588235294117
29307,Spartanburg County,SC,NA,89.64601769911505,NA
29334,Spartanburg County,SC,NA,NA,91.54411764705883
29388,Spartanburg County,SC,NA,93.71681415929204,NA
29407,Charleston County,SC,NA,NA,14.093137254901961
29461,Berkeley County,SC,NA,NA,43.25980392156863
29464,Charleston County,SC,NA,21.061946902654867,13.602941176470587
29483,Dorchester County,SC,NA,18.053097345132745,NA
29501,Florence County,SC,NA,14.513274336283185,NA
29511,Horry County,SC,90.13906447534767,NA,NA
29540,Darlington County,SC,NA,NA,99.63235294117648
29550,Darlington County,SC,NA,19.82300884955752,NA
29569,Horry County,SC,45.89127686472819,NA,NA
29572,Horry County,SC,NA,85.48672566371681,NA
29575,Horry County,SC,NA,NA,46.568627450980394
29576,Horry County,SC,NA,10.353982300884956,NA
29579,Horry County,SC,55.24652338811631,NA,39.338235294117645
29581,Horry County,SC,97.97724399494311,NA,NA
29588,Horry County,SC,NA,90.2654867256637,NA
29601,Greenville County,SC,NA,80.35398230088495,82.59803921568627
29607,Greenville County,SC,NA,24.513274336283185,NA
29611,Greenville County,SC,NA,30.973451327433626,NA
29621,Anderson County,SC,NA,16.991150442477874,NA
29642,Pickens County,SC,NA,15.398230088495577,NA
29644,Greenville County,SC,52.08596713021492,NA,NA
29646,Greenwood County,SC,NA,78.58407079646018,NA
29654,Anderson County,SC,93.55246523388116,NA,NA
29673,Greenville County,SC,NA,55.2212389380531,NA
29680,Greenville County,SC,NA,28.67256637168142,NA
29706,Chester County,SC,NA,NA,63.970588235294116
29720,Lancaster County,SC,NA,NA,24.387254901960784
29730,York County,SC,77.62326169405816,NA,NA
29745,York County,SC,NA,53.716814159292035,NA
29801,Aiken County,SC,NA,NA,45.46568627450981
29803,Aiken County,SC,NA,NA,71.44607843137256
29829,Aiken County,SC,NA,78.76106194690266,NA
29835,McCormick County,SC,NA,91.41592920353983,NA
29909,Beaufort County,SC,NA,NA,14.950980392156863
29936,Jasper County,SC,NA,84.42477876106194,NA
57201,Codington County,SD,NA,65.13274336283186,NA
57702,Pennington County,SD,NA,53.6283185840708,NA
57703,Pennington County,SD,NA,NA,72.18137254901961
37013,Davidson County,TN,9.608091024020228,15.132743362831857,NA
37015,Cheatham County,TN,NA,45.39823008849557,NA
37042,Montgomery County,TN,NA,74.15929203539822,NA
37043,Montgomery County,TN,35.52465233881163,NA,NA
37069,Williamson County,TN,NA,NA,85.7843137254902
37075,Sumner County,TN,16.055625790139064,NA,NA
37086,Rutherford County,TN,46.396965865992414,86.63716814159292,NA
37101,Humphreys County,TN,73.70417193426043,NA,NA
37130,Rutherford County,TN,19.721871049304678,NA,36.51960784313725
37146,Cheatham County,TN,91.90897597977245,99.11504424778761,NA
37167,Rutherford County,TN,26.422250316055624,NA,NA
37205,Davidson County,TN,NA,52.654867256637175,55.51470588235294
37211,Davidson County,TN,52.718078381795195,NA,NA
37217,Davidson County,TN,41.21365360303413,NA,NA
37218,Davidson County,TN,78.12895069532237,NA,NA
37307,Polk County,TN,NA,86.90265486725663,NA
37324,Franklin County,TN,72.9456384323641,NA,NA
37343,Hamilton County,TN,NA,20,NA
37355,Coffee County,TN,NA,NA,56.372549019607845
37379,Hamilton County,TN,39.94943109987358,NA,NA
37381,Rhea County,TN,NA,NA,64.82843137254902
37398,Franklin County,TN,43.8685208596713,57.9646017699115,NA
37421,Hamilton County,TN,27.686472819216185,NA,NA
37604,Washington County,TN,NA,18.495575221238937,NA
37615,Washington County,TN,NA,60.26548672566372,NA
37620,Sullivan County,TN,62.579013906447535,NA,NA
37643,Carter County,TN,NA,7.168141592920355,NA
37660,Sullivan County,TN,7.964601769911504,NA,NA
37722,Cocke County,TN,NA,84.070796460177,95.7107843137255
37742,Loudon County,TN,74.08343868520859,NA,NA
37763,Roane County,TN,68.26801517067004,41.150442477876105,NA
37774,Loudon County,TN,44.24778761061947,NA,29.77941176470588
37777,Blount County,TN,NA,NA,82.9656862745098
37801,Blount County,TN,NA,11.415929203539823,NA
37804,Blount County,TN,63.21112515802781,NA,NA
37814,Hamblen County,TN,32.23767383059418,NA,NA
37821,Cocke County,TN,NA,27.345132743362832,NA
37830,Anderson County,TN,NA,NA,35.661764705882355
37846,Loudon County,TN,95.19595448798988,NA,NA
37849,Knox County,TN,38.93805309734513,NA,44.73039215686275
37876,Sevier County,TN,NA,20.353982300884958,NA
37887,Morgan County,TN,91.1504424778761,NA,NA
37914,Knox County,TN,NA,37.876106194690266,NA
37918,Knox County,TN,NA,58.93805309734513,NA
37920,Knox County,TN,NA,NA,32.59803921568628
37932,Knox County,TN,80.15170670037926,NA,NA
37934,Knox County,TN,NA,42.123893805309734,NA
38019,Tipton County,TN,57.14285714285714,NA,NA
38106,Shelby County,TN,16.182048040455122,NA,NA
38115,Shelby County,TN,22.5031605562579,NA,NA
38119,Shelby County,TN,NA,NA,66.05392156862744
38122,Shelby County,TN,55.62579013906448,NA,NA
38128,Shelby County,TN,19.342604298356513,NA,NA
38221,Benton County,TN,NA,98.4070796460177,NA
38305,Madison County,TN,NA,NA,13.480392156862745
38358,Gibson County,TN,57.39570164348925,NA,NA
38382,Gibson County,TN,NA,79.02654867256638,NA
38401,Maury County,TN,NA,6.460176991150443,NA
38463,Wayne County,TN,98.8621997471555,NA,NA
38501,Putnam County,TN,18.963337547408344,NA,NA
38549,Pickett County,TN,NA,94.60176991150443,NA
38551,Clay County,TN,NA,82.83185840707965,NA
38583,White County,TN,60.05056890012642,NA,NA
75001,Dallas County,TX,NA,NA,93.01470588235294
75002,Collin County,TX,NA,25.92920353982301,NA
75007,Denton County,TX,NA,23.1858407079646,NA
75013,Collin County,TX,NA,68.76106194690266,89.33823529411765
75019,Dallas County,TX,80.15170670037926,54.424778761061944,NA
75034,Denton County,TX,36.662452591656134,NA,NA
75043,Dallas County,TX,NA,NA,26.838235294117645
75048,Dallas County,TX,72.56637168141593,59.557522123893804,NA
75050,Dallas County,TX,NA,50.796460176991154,NA
75052,Dallas County,TX,NA,NA,28.186274509803923
75056,Denton County,TX,NA,31.41592920353982,NA
75061,Dallas County,TX,NA,24.24778761061947,NA
75070,Collin County,TX,44.879898862199745,NA,NA
75071,Collin County,TX,NA,29.469026548672566,NA
75074,Collin County,TX,NA,30.53097345132743,NA
75075,Collin County,TX,NA,32.743362831858406,NA
75081,Dallas County,TX,70.67003792667509,NA,NA
75082,Collin County,TX,97.21871049304679,40.796460176991154,NA
75089,Dallas County,TX,NA,69.5575221238938,NA
75090,Grayson County,TX,NA,57.9646017699115,NA
75098,Collin County,TX,NA,NA,57.107843137254896
75115,Dallas County,TX,20.859671302149177,NA,NA
75142,Kaufman County,TX,NA,NA,59.80392156862745
75143,Henderson County,TX,NA,85.6637168141593,NA
75149,Dallas County,TX,18.078381795195956,NA,NA
75167,Ellis County,TX,NA,NA,95.09803921568627
75189,Rockwall County,TX,43.48925410872314,NA,NA
75203,Dallas County,TX,74.71554993678888,NA,NA
75215,Dallas County,TX,NA,NA,54.90196078431373
75216,Dallas County,TX,NA,38.76106194690265,NA
75217,Dallas County,TX,8.72313527180784,7.787610619469026,41.05392156862745
75219,Dallas County,TX,NA,NA,87.13235294117648
75224,Dallas County,TX,NA,NA,48.529411764705884
75225,Dallas County,TX,NA,NA,68.01470588235294
75227,Dallas County,TX,18.710493046776232,34.24778761061947,NA
75229,Dallas County,TX,NA,46.54867256637168,NA
75240,Dallas County,TX,NA,78.49557522123894,NA
75243,Dallas County,TX,NA,44.15929203539823,NA
75248,Dallas County,TX,NA,94.86725663716814,NA
75287,Denton County,TX,NA,50.796460176991154,NA
75401,Hunt County,TX,NA,NA,71.56862745098039
75402,Hunt County,TX,75.09481668773704,NA,NA
75442,Collin County,TX,79.14032869785082,NA,NA
75503,Bowie County,TX,51.959544879898864,NA,NA
75633,Panola County,TX,NA,54.24778761061947,NA
75647,Gregg County,TX,64.72819216182049,NA,NA
75654,Rusk County,TX,NA,NA,58.57843137254902
75692,Harrison County,TX,NA,NA,88.84803921568627
75693,Gregg County,TX,NA,98.58407079646018,NA
75702,Smith County,TX,NA,NA,30.14705882352941
75703,Smith County,TX,NA,64.15929203539822,NA
75709,Smith County,TX,92.03539823008849,NA,NA
75757,Smith County,TX,NA,NA,71.07843137254902
75765,Wood County,TX,NA,NA,94.48529411764706
75771,Smith County,TX,56.00505689001264,NA,NA
75773,Wood County,TX,NA,NA,83.94607843137256
75785,Cherokee County,TX,NA,92.56637168141593,NA
75956,Jasper County,TX,84.70290771175726,NA,87.5
76010,Tarrant County,TX,16.940581542351456,NA,NA
76016,Tarrant County,TX,NA,NA,33.33333333333333
76023,Wise County,TX,NA,87.78761061946902,NA
76028,Johnson County,TX,37.92667509481669,23.451327433628318,NA
76031,Johnson County,TX,66.87737041719343,NA,90.93137254901961
76040,Tarrant County,TX,45.259165613147914,NA,NA
76048,Hood County,TX,NA,30.442477876106196,NA
76063,Tarrant County,TX,NA,45.92920353982301,NA
76088,Parker County,TX,78.50821744627055,NA,NA
76108,Tarrant County,TX,37.54740834386852,NA,49.1421568627451
76116,Tarrant County,TX,23.13527180783818,NA,16.911764705882355
76118,Tarrant County,TX,NA,NA,80.88235294117648
76119,Tarrant County,TX,NA,NA,25.49019607843137
76126,Tarrant County,TX,NA,73.09734513274336,NA
76131,Tarrant County,TX,51.580278128950695,NA,NA
76134,Tarrant County,TX,NA,63.716814159292035,NA
76137,Tarrant County,TX,NA,18.849557522123895,NA
76180,Tarrant County,TX,NA,34.7787610619469,28.063725490196077
76210,Denton County,TX,58.02781289506953,NA,NA
76234,Wise County,TX,NA,61.23893805309735,NA
76244,Tarrant County,TX,NA,53.36283185840708,NA
76247,Denton County,TX,92.41466498103667,NA,NA
76248,Tarrant County,TX,65.86599241466497,NA,NA
76266,Denton County,TX,86.21997471554994,NA,NA
76520,Milam County,TX,NA,NA,81.86274509803921
76528,Coryell County,TX,NA,NA,22.916666666666664
76543,Bell County,TX,27.939317319848296,NA,NA
76645,Hill County,TX,NA,69.02654867256636,NA
76692,Hill County,TX,96.5865992414665,NA,57.35294117647059
76704,McLennan County,TX,NA,99.91150442477877,NA
76706,McLennan County,TX,NA,42.389380530973455,NA
76707,McLennan County,TX,71.55499367888748,NA,NA
76801,Brown County,TX,NA,46.63716814159292,NA
76901,Tom Green County,TX,50.06321112515803,NA,86.39705882352942
76904,Tom Green County,TX,NA,37.610619469026545,NA
77009,Harris County,TX,NA,NA,59.068627450980394
77015,Harris County,TX,NA,45.75221238938053,NA
77028,Harris County,TX,NA,66.99115044247787,NA
77041,Harris County,TX,NA,38.93805309734513,NA
77042,Harris County,TX,NA,NA,74.26470588235294
77059,Harris County,TX,81.28950695322376,NA,NA
77060,Harris County,TX,NA,77.16814159292036,NA
77062,Harris County,TX,NA,NA,55.51470588235294
77063,Harris County,TX,NA,NA,70.58823529411765
77064,Harris County,TX,NA,40.26548672566372,NA
77071,Harris County,TX,98.35651074589128,NA,NA
77081,Harris County,TX,68.14159292035397,NA,NA
77083,Harris County,TX,NA,25.221238938053098,NA
77084,Harris County,TX,NA,60.26548672566372,NA
77088,Harris County,TX,30.59418457648546,NA,NA
77092,Harris County,TX,NA,NA,93.25980392156863
77096,Harris County,TX,NA,44.60176991150443,NA
77301,Montgomery County,TX,NA,82.56637168141593,NA
77302,Montgomery County,TX,88.11630847029078,NA,NA
77304,Montgomery County,TX,NA,54.7787610619469,NA
77328,San Jacinto County,TX,NA,83.89380530973452,NA
77338,Harris County,TX,NA,60.08849557522124,NA
77339,Harris County,TX,NA,38.141592920353986,NA
77340,Walker County,TX,NA,NA,63.11274509803921
77345,Harris County,TX,NA,NA,87.25490196078431
77356,Montgomery County,TX,68.77370417193426,37.69911504424779,NA
77360,Polk County,TX,NA,75.66371681415929,NA
77363,Grimes County,TX,NA,99.64601769911503,NA
77375,Harris County,TX,NA,71.76991150442478,NA
77378,Montgomery County,TX,78.00252844500632,NA,NA
77381,Montgomery County,TX,NA,35.575221238938056,NA
77386,Montgomery County,TX,NA,NA,80.75980392156863
77406,Fort Bend County,TX,NA,27.168141592920353,NA
77429,Harris County,TX,NA,3.3628318584070795,NA
77433,Harris County,TX,NA,55.663716814159294,NA
77449,Harris County,TX,11.125158027812896,NA,NA
77450,Harris County,TX,NA,17.345132743362832,NA
77471,Fort Bend County,TX,37.29456384323641,NA,NA
77477,Fort Bend County,TX,NA,41.94690265486726,NA
77479,Fort Bend County,TX,76.86472819216182,NA,30.637254901960787
77493,Harris County,TX,62.958280657395704,NA,NA
77498,Fort Bend County,TX,NA,53.09734513274337,NA
77504,Harris County,TX,NA,76.99115044247787,NA
77505,Harris County,TX,67.13021491782554,NA,NA
77510,Galveston County,TX,NA,NA,54.90196078431373
77511,Brazoria County,TX,93.80530973451327,NA,NA
77535,Liberty County,TX,NA,46.19469026548673,NA
77536,Harris County,TX,NA,39.823008849557525,NA
77541,Brazoria County,TX,NA,56.90265486725664,NA
77545,Fort Bend County,TX,92.66750948166877,NA,NA
77546,Galveston County,TX,NA,9.734513274336283,NA
77554,Galveston County,TX,NA,NA,60.78431372549019
77562,Harris County,TX,76.35903919089759,NA,NA
77573,Galveston County,TX,NA,63.80530973451327,NA
77581,Brazoria County,TX,NA,NA,31.372549019607842
77584,Brazoria County,TX,9.860935524652339,NA,NA
77590,Galveston County,TX,13.147914032869783,NA,NA
77630,Orange County,TX,NA,NA,42.52450980392157
77662,Orange County,TX,43.36283185840708,NA,NA
77665,Chambers County,TX,96.96586599241466,NA,NA
77706,Jefferson County,TX,94.94310998735777,NA,48.03921568627451
77707,Jefferson County,TX,NA,NA,66.29901960784314
77803,Brazos County,TX,NA,43.716814159292035,NA
77807,Brazos County,TX,77.87610619469027,NA,NA
77901,Victoria County,TX,NA,58.584070796460175,25.612745098039213
77904,Victoria County,TX,NA,35.92920353982301,NA
77905,Victoria County,TX,NA,62.035398230088504,65.19607843137256
77954,DeWitt County,TX,88.24273072060683,NA,NA
78016,Medina County,TX,88.74841972187106,NA,NA
78040,Webb County,TX,NA,NA,15.686274509803921
78041,Webb County,TX,NA,59.469026548672566,NA
78043,Webb County,TX,NA,NA,30.024509803921568
78059,Medina County,TX,99.74715549936789,NA,NA
78061,Frio County,TX,NA,88.14159292035399,NA
78064,Atascosa County,TX,NA,NA,95.58823529411765
78132,Comal County,TX,NA,52.12389380530974,NA
78155,Guadalupe County,TX,NA,92.65486725663716,NA
78209,Bexar County,TX,65.10745891276865,NA,NA
78233,Bexar County,TX,NA,56.19469026548673,NA
78363,Kleberg County,TX,59.03919089759798,61.681415929203546,NA
78384,Duval County,TX,NA,NA,96.93627450980392
78413,Nueces County,TX,NA,NA,64.33823529411765
78504,Hidalgo County,TX,71.8078381795196,NA,NA
78516,Hidalgo County,TX,NA,NA,54.53431372549019
78521,Cameron County,TX,NA,16.371681415929203,NA
78559,Cameron County,TX,NA,85.13274336283186,NA
78570,Hidalgo County,TX,NA,63.1858407079646,NA
78575,Cameron County,TX,NA,95.6637168141593,NA
78589,Hidalgo County,TX,NA,36.283185840707965,NA
78602,Bastrop County,TX,NA,NA,57.720588235294116
78610,Hays County,TX,NA,73.80530973451327,NA
78633,Williamson County,TX,NA,10.79646017699115,NA
78639,Llano County,TX,NA,44.690265486725664,NA
78653,Travis County,TX,75.60050568900127,NA,NA
78681,Williamson County,TX,NA,NA,60.5392156862745
78730,Travis County,TX,91.40328697850822,NA,NA
78840,Val Verde County,TX,NA,16.548672566371682,8.57843137254902
78945,Fayette County,TX,NA,NA,71.32352941176471
78962,Colorado County,TX,95.82806573957016,NA,NA
79331,Dawson County,TX,71.04930467762325,NA,NA
79336,Hockley County,TX,71.68141592920354,NA,NA
79414,Lubbock County,TX,NA,73.98230088495575,NA
79423,Lubbock County,TX,NA,19.734513274336283,32.1078431372549
79549,Scurry County,TX,40.581542351453855,NA,NA
79602,Taylor County,TX,83.05941845764855,53.716814159292035,NA
79603,Taylor County,TX,NA,33.45132743362832,41.78921568627451
79606,Taylor County,TX,62.83185840707964,NA,NA
79703,Midland County,TX,NA,77.34513274336283,NA
79706,Midland County,TX,NA,66.90265486725664,NA
79763,Ector County,TX,NA,41.858407079646014,NA
79764,Ector County,TX,NA,NA,88.72549019607843
79838,El Paso County,TX,NA,94.070796460177,NA
79912,El Paso County,TX,NA,34.33628318584071,NA
79915,El Paso County,TX,NA,52.21238938053098,NA
79924,El Paso County,TX,42.22503160556258,NA,18.504901960784316
79925,El Paso County,TX,NA,81.23893805309734,NA
79936,El Paso County,TX,NA,55.04424778761062,38.3578431372549
84020,Salt Lake County,UT,NA,NA,98.52941176470588
84047,Salt Lake County,UT,NA,NA,69.36274509803921
84054,Davis County,UT,NA,75.30973451327434,NA
84070,Salt Lake County,UT,NA,NA,38.84803921568628
84074,Tooele County,UT,NA,57.52212389380531,27.818627450980394
84092,Salt Lake County,UT,NA,45.13274336283185,NA
84095,Salt Lake County,UT,NA,26.194690265486724,NA
84106,Salt Lake County,UT,34.89254108723136,NA,NA
84107,Salt Lake County,UT,39.823008849557525,NA,NA
84115,Salt Lake County,UT,NA,33.716814159292035,NA
84123,Salt Lake County,UT,20.2275600505689,NA,NA
84302,Box Elder County,UT,NA,74.69026548672566,NA
84401,Weber County,UT,41.845764854614416,NA,NA
84660,Utah County,UT,NA,NA,93.50490196078431
84737,Washington County,UT,82.30088495575221,66.01769911504425,NA
84780,Washington County,UT,NA,48.49557522123894,NA
05403,Chittenden County,VT,NA,79.29203539823008,NA
05477,Chittenden County,VT,97.85082174462705,NA,NA
05478,Franklin County,VT,NA,NA,23.651960784313726
05701,Rutland County,VT,NA,NA,11.519607843137255
05753,Addison County,VT,NA,NA,57.35294117647059
05819,Caledonia County,VT,NA,NA,65.93137254901961
20111,Prince William County,VA,53.98230088495575,NA,NA
20121,Fairfax County,VA,NA,74.69026548672566,NA
20147,Loudoun County,VA,NA,57.16814159292035,NA
20187,Fauquier County,VA,79.51959544879898,NA,NA
20191,Fairfax County,VA,NA,NA,77.94117647058823
22003,Fairfax County,VA,NA,NA,47.794117647058826
22032,Fairfax County,VA,NA,77.0796460176991,NA
22044,Fairfax County,VA,NA,89.46902654867257,NA
22180,Fairfax County,VA,NA,81.50442477876106,NA
22192,Prince William County,VA,NA,NA,44.48529411764706
22193,Prince William County,VA,41.719342604298355,NA,NA
22201,Arlington County,VA,60.93552465233881,NA,NA
22207,Arlington County,VA,NA,43.00884955752212,NA
22310,Fairfax County,VA,NA,67.52212389380531,73.65196078431373
22553,Spotsylvania County,VA,NA,NA,93.99509803921569
22556,Stafford County,VA,NA,89.73451327433628,NA
22601,Winchester city,VA,NA,35.84070796460177,NA
22602,Frederick County,VA,53.35018963337548,NA,NA
22611,Clarke County,VA,97.59797724399493,NA,NA
22655,Frederick County,VA,59.16561314791403,94.51327433628319,NA
22701,Culpeper County,VA,25.410872313527182,NA,NA
22815,Rockingham County,VA,53.476611883691525,88.49557522123894,NA
22835,Page County,VA,60.80910240202275,NA,NA
22939,Augusta County,VA,NA,77.43362831858407,NA
22947,Albemarle County,VA,NA,NA,86.27450980392157
23009,King William County,VA,NA,80.53097345132744,NA
23103,Goochland County,VA,NA,NA,95.95588235294117
23112,Chesterfield County,VA,NA,NA,73.0392156862745
23113,Chesterfield County,VA,NA,53.27433628318584,NA
23220,Richmond city,VA,NA,55.663716814159294,NA
23223,Henrico County,VA,3.5398230088495577,NA,NA
23225,Richmond city,VA,NA,19.20353982300885,NA
23228,Henrico County,VA,NA,33.6283185840708,NA
23231,Henrico County,VA,22.756005056890015,NA,NA
23238,Henrico County,VA,NA,62.21238938053097,NA
23314,Isle of Wight County,VA,NA,79.91150442477876,NA
23321,Chesapeake city,VA,NA,NA,18.995098039215684
23323,Chesapeake city,VA,NA,NA,43.13725490196079
23417,Accomack County,VA,NA,92.12389380530973,NA
23451,Virginia Beach city,VA,NA,13.008849557522122,NA
23453,Virginia Beach city,VA,NA,36.46017699115045,NA
23455,Virginia Beach city,VA,NA,8.141592920353983,NA
23505,Norfolk city,VA,NA,30.17699115044248,33.82352941176471
23518,Norfolk city,VA,NA,27.787610619469028,NA
23606,Newport News city,VA,NA,NA,15.441176470588236
23607,Newport News city,VA,NA,NA,67.76960784313727
23666,Hampton city,VA,11.25158027812895,NA,NA
23669,Hampton city,VA,NA,47.69911504424778,NA
23692,York County,VA,NA,48.31858407079646,NA
23701,Portsmouth city,VA,NA,21.946902654867255,55.392156862745104
24012,Roanoke city,VA,NA,NA,31.985294117647058
24013,Roanoke city,VA,NA,NA,95.34313725490196
24054,Henry County,VA,85.71428571428571,NA,NA
24112,Henry County,VA,NA,12.654867256637168,NA
24153,Salem city,VA,34.13400758533502,NA,NA
24256,Dickenson County,VA,NA,NA,79.65686274509804
24360,Wythe County,VA,NA,NA,96.07843137254902
24401,Staunton city,VA,NA,NA,67.52450980392157
24503,Lynchburg city,VA,NA,63.53982300884956,NA
24592,Halifax County,VA,29.45638432364096,NA,NA
98005,King County,WA,NA,NA,49.877450980392155
98006,King County,WA,NA,27.699115044247787,NA
98008,King County,WA,NA,NA,31.74019607843137
98011,King County,WA,60.556257901390644,NA,NA
98033,King County,WA,65.48672566371681,28.31858407079646,NA
98034,King County,WA,NA,11.76991150442478,NA
98042,King County,WA,NA,NA,21.936274509803923
98052,King County,WA,NA,19.02654867256637,NA
98075,King County,WA,78.38179519595448,NA,NA
98092,King County,WA,NA,16.01769911504425,NA
98121,King County,WA,NA,67.16814159292035,NA
98146,King County,WA,NA,30,NA
98155,King County,WA,NA,NA,40.56372549019608
98166,King County,WA,78.25537294563844,51.85840707964602,NA
98221,Skagit County,WA,NA,NA,14.705882352941178
98239,Island County,WA,NA,62.477876106194685,NA
98249,Island County,WA,NA,NA,83.08823529411765
98273,Skagit County,WA,NA,51.32743362831859,NA
98277,Island County,WA,NA,23.716814159292035,NA
98327,Pierce County,WA,NA,NA,97.42647058823529
98363,Clallam County,WA,NA,NA,38.72549019607843
98368,Jefferson County,WA,70.41719342604299,NA,NA
98371,Pierce County,WA,NA,NA,45.09803921568628
98382,Clallam County,WA,NA,NA,1.1029411764705883
98387,Pierce County,WA,23.008849557522122,NA,NA
98391,Pierce County,WA,NA,NA,62.13235294117647
98516,Thurston County,WA,NA,NA,84.19117647058823
98520,Grays Harbor County,WA,63.46396965865993,46.902654867256636,55.26960784313726
98596,Lewis County,WA,NA,NA,89.70588235294117
98632,Cowlitz County,WA,NA,NA,2.3284313725490198
98682,Clark County,WA,NA,45.04424778761062,NA
98826,Chelan County,WA,93.67888748419722,NA,NA
98837,Grant County,WA,NA,29.11504424778761,NA
98851,Grant County,WA,96.08091024020227,NA,NA
98902,Yakima County,WA,NA,22.74336283185841,NA
98908,Yakima County,WA,NA,NA,11.029411764705882
98926,Kittitas County,WA,NA,34.86725663716814,NA
99022,Spokane County,WA,NA,NA,91.17647058823529
99109,Stevens County,WA,97.724399494311,NA,NA
99301,Franklin County,WA,NA,5.84070796460177,NA
99336,Benton County,WA,40.202275600505686,1.0619469026548671,NA
99337,Benton County,WA,NA,NA,5.637254901960785
99344,Adams County,WA,NA,89.46902654867257,NA
99352,Benton County,WA,40.07585335018963,NA,2.450980392156863
99362,Walla Walla County,WA,83.31226295828066,NA,NA
20012,District of Columbia,DC,81.28950695322376,NA,NA
20019,District of Columbia,DC,NA,27.256637168141594,NA
20024,District of Columbia,DC,NA,62.65486725663717,NA
25015,Kanawha County,WV,NA,NA,98.16176470588235
25276,Roane County,WV,NA,70.61946902654867,NA
25311,Kanawha County,WV,70.54361567635904,NA,NA
25313,Kanawha County,WV,49.304677623261696,NA,NA
25387,Kanawha County,WV,NA,NA,92.52450980392157
25404,Berkeley County,WV,NA,40.08849557522124,NA
25425,Jefferson County,WV,NA,NA,90.56372549019608
25508,Logan County,WV,73.57774968394438,68.58407079646017,NA
25701,Cabell County,WV,NA,14.07079646017699,NA
25702,Cabell County,WV,96.96586599241466,NA,NA
25704,Wayne County,WV,28.950695322376742,NA,46.69117647058824
25705,Cabell County,WV,NA,18.761061946902654,NA
25801,Raleigh County,WV,12.895069532237674,8.4070796460177,NA
26047,Hancock County,WV,NA,55.48672566371682,NA
26101,Wood County,WV,4.424778761061947,NA,NA
26150,Wood County,WV,NA,NA,93.50490196078431
26170,Pleasants County,WV,88.36915297092288,NA,NA
26181,Wood County,WV,NA,NA,84.68137254901961
26301,Harrison County,WV,NA,41.5929203539823,NA
26554,Marion County,WV,4.0455120101137805,NA,NA
53014,Calumet County,WI,NA,NA,40.80882352941176
53018,Waukesha County,WI,NA,88.84955752212389,NA
53027,Washington County,WI,69.5322376738306,NA,NA
53066,Waukesha County,WI,NA,NA,18.872549019607842
53073,Sheboygan County,WI,82.68015170670037,NA,NA
53081,Sheboygan County,WI,NA,21.5929203539823,NA
53092,Ozaukee County,WI,NA,40.530973451327434,NA
53094,Jefferson County,WI,NA,NA,62.745098039215684
53105,Racine County,WI,NA,10,NA
53110,Milwaukee County,WI,NA,30.884955752212388,NA
53132,Milwaukee County,WI,NA,NA,11.887254901960784
53140,Kenosha County,WI,NA,60.796460176991154,NA
53142,Kenosha County,WI,NA,19.115044247787612,34.80392156862745
53147,Walworth County,WI,42.983565107458915,NA,NA
53150,Waukesha County,WI,67.00379266750947,NA,NA
53151,Waukesha County,WI,NA,92.03539823008849,NA
53186,Waukesha County,WI,84.070796460177,70.88495575221239,NA
53188,Waukesha County,WI,21.74462705436157,NA,NA
53189,Waukesha County,WI,NA,NA,38.23529411764706
53202,Milwaukee County,WI,NA,NA,35.78431372549019
53204,Milwaukee County,WI,48.040455120101136,NA,NA
53207,Milwaukee County,WI,NA,28.584070796460175,NA
53209,Milwaukee County,WI,2.402022756005057,NA,NA
53214,Milwaukee County,WI,NA,9.646017699115045,NA
53216,Milwaukee County,WI,6.1946902654867255,NA,NA
53225,Milwaukee County,WI,NA,38.05309734513274,NA
53402,Racine County,WI,5.562579013906448,NA,NA
53405,Racine County,WI,26.04298356510746,NA,NA
53511,Rock County,WI,NA,NA,6.740196078431373
53546,Rock County,WI,NA,2.920353982300885,NA
53590,Dane County,WI,NA,NA,23.651960784313726
53711,Dane County,WI,NA,70.53097345132744,NA
53717,Dane County,WI,NA,NA,48.89705882352941
54015,St. Croix County,WI,96.3337547408344,NA,NA
54016,St. Croix County,WI,NA,47.78761061946903,NA
54022,Pierce County,WI,NA,47.52212389380531,NA
54024,Polk County,WI,NA,NA,97.30392156862744
54115,Brown County,WI,45.63843236409608,NA,NA
54121,Florence County,WI,NA,98.49557522123894,NA
54143,Marinette County,WI,NA,56.548672566371685,NA
54155,Brown County,WI,NA,NA,86.51960784313727
54220,Manitowoc County,WI,6.447534766118837,37.43362831858407,NA
54241,Manitowoc County,WI,63.96965865992414,NA,NA
54302,Brown County,WI,25.28445006321112,NA,NA
54313,Brown County,WI,61.5676359039191,NA,NA
54452,Lincoln County,WI,NA,50.61946902654867,NA
54548,Oneida County,WI,NA,NA,79.04411764705883
54552,Price County,WI,NA,NA,74.01960784313727
54601,La Crosse County,WI,30.720606826801518,NA,NA
54650,La Crosse County,WI,NA,NA,2.5735294117647056
54656,Monroe County,WI,47.78761061946903,NA,17.27941176470588
54701,Eau Claire County,WI,NA,NA,34.19117647058824
54840,Burnett County,WI,NA,83.00884955752213,NA
54868,Barron County,WI,NA,NA,66.66666666666666
54914,Outagamie County,WI,22.123893805309734,NA,NA
54935,Fond du Lac County,WI,NA,11.327433628318584,NA
54956,Winnebago County,WI,NA,NA,34.55882352941176
82718,Campbell County,WY,NA,71.06194690265487,NA
82834,Johnson County,WY,NA,NA,78.67647058823529
