ZipCode,county,state,Adult
35007,Shelby County,AL,52.52206809583859
35020,Jefferson County,AL,13.808322824716267
35111,Tuscaloosa County,AL,46.7843631778058
35206,Jefferson County,AL,63.36696090794452
35242,Shelby County,AL,32.40857503152585
35501,Walker County,AL,95.7124842370744
35550,Walker County,AL,81.58890290037832
35603,Morgan County,AL,16.456494325346785
35630,Lauderdale County,AL,64.12358133669609
35633,Lauderdale County,AL,95.64943253467844
35640,Morgan County,AL,34.9936948297604
35763,Madison County,AL,77.55359394703657
35805,Madison County,AL,46.02774274905423
35810,Madison County,AL,31.021437578814627
35816,Madison County,AL,70.42875157629256
35906,Etowah County,AL,88.96595208070617
35952,Etowah County,AL,87.07440100882724
36079,Pike County,AL,82.03026481715007
36303,Houston County,AL,22.950819672131146
36502,Escambia County,AL,45.7124842370744
36507,Baldwin County,AL,40.10088272383354
36587,Mobile County,AL,79.06683480453972
36695,Mobile County,AL,67.27616645649432
99502,Anchorage Municipality,AK,79.94955863808323
99645,Matanuska-Susitna Borough,AK,56.17906683480454
99654,Matanuska-Susitna Borough,AK,36.38083228247162
99701,Fairbanks North Star Borough,AK,35.56116015132408
99709,Fairbanks North Star Borough,AK,64.88020176544767
85008,Maricopa County,AZ,12.988650693568726
85015,Maricopa County,AZ,17.90668348045397
85019,Maricopa County,AZ,38.71374527112232
85029,Maricopa County,AZ,22.69861286254729
85041,Maricopa County,AZ,7.944514501891551
85120,Pinal County,AZ,73.203026481715
85301,Maricopa County,AZ,42.686002522068094
85303,Maricopa County,AZ,79.69735182849938
85323,Maricopa County,AZ,65.51071878940732
85335,Maricopa County,AZ,67.65447667087011
85338,Maricopa County,AZ,34.74148802017655
85353,Maricopa County,AZ,33.29129886506936
85364,Yuma County,AZ,69.16771752837326
85365,Yuma County,AZ,62.42118537200504
85392,Maricopa County,AZ,56.17906683480454
85501,Gila County,AZ,75.09457755359395
85550,Graham County,AZ,73.3921815889029
85621,Santa Cruz County,AZ,46.53215636822195
85648,Santa Cruz County,AZ,54.09836065573771
85701,Pima County,AZ,65.0063051702396
85713,Pima County,AZ,5.737704918032787
86004,Coconino County,AZ,26.986128625472887
86025,Navajo County,AZ,91.10970996216898
86324,Yavapai County,AZ,91.74022698612862
86442,Mohave County,AZ,77.67969735182851
86503,Apache County,AZ,35.182849936948294
71837,Miller County,AR,99.49558638083228
72160,Arkansas County,AR,73.07692307692307
72956,Crawford County,AR,51.63934426229508
90002,Los Angeles County,CA,61.34930643127364
90019,Los Angeles County,CA,41.80327868852459
90022,Los Angeles County,CA,36.569987389659516
90028,Los Angeles County,CA,65.25851197982345
90037,Los Angeles County,CA,38.08322824716267
90041,Los Angeles County,CA,90.85750315258511
90044,Los Angeles County,CA,29.06683480453972
90065,Los Angeles County,CA,57.3139974779319
90201,Los Angeles County,CA,30.958385876418664
90248,Los Angeles County,CA,96.84741488020177
90250,Los Angeles County,CA,23.64438839848676
90255,Los Angeles County,CA,78.87767969735184
90260,Los Angeles County,CA,75.85119798234552
90266,Los Angeles County,CA,63.24085750315258
90280,Los Angeles County,CA,65.25851197982345
90620,Orange County,CA,50.56746532156369
90630,Orange County,CA,77.99495586380833
90631,Orange County,CA,35.687263556116015
90660,Los Angeles County,CA,77.99495586380833
90680,Orange County,CA,60.088272383354344
90745,Los Angeles County,CA,70.99621689785624
90807,Los Angeles County,CA,52.64817150063051
90815,Los Angeles County,CA,50.945775535939475
91104,Los Angeles County,CA,86.50693568726355
91205,Los Angeles County,CA,69.60907944514501
91340,Los Angeles County,CA,64.31273644388399
91342,Los Angeles County,CA,19.735182849936947
91343,Los Angeles County,CA,53.97225725094577
91352,Los Angeles County,CA,75.3467843631778
91381,Los Angeles County,CA,73.83354350567465
91401,Los Angeles County,CA,87.76796973518285
91506,Los Angeles County,CA,92.62295081967213
91706,Los Angeles County,CA,24.968474148802017
91709,San Bernardino County,CA,34.42622950819672
91730,San Bernardino County,CA,19.041614123581336
91732,Los Angeles County,CA,42.74905422446406
91737,San Bernardino County,CA,97.09962168978562
91744,Los Angeles County,CA,17.21311475409836
91764,San Bernardino County,CA,37.3266078184111
91767,Los Angeles County,CA,41.36191677175284
91768,Los Angeles County,CA,44.32534678436318
91775,Los Angeles County,CA,87.45271122320302
91789,Los Angeles County,CA,83.98486759142497
91950,San Diego County,CA,69.23076923076923
91977,San Diego County,CA,35.687263556116015
92009,San Diego County,CA,66.33039092055486
92054,San Diego County,CA,44.640605296343
92071,San Diego County,CA,24.71626733921816
92104,San Diego County,CA,26.292559899117272
92105,San Diego County,CA,84.17402269861286
92116,San Diego County,CA,75.85119798234552
92234,Riverside County,CA,45.33417402269861
92236,Riverside County,CA,74.90542244640605
92243,Imperial County,CA,24.274905422446405
92277,San Bernardino County,CA,71.81588902900378
92301,San Bernardino County,CA,34.30012610340479
92307,San Bernardino County,CA,26.86002522068096
92311,San Bernardino County,CA,37.137452711223204
92324,San Bernardino County,CA,19.419924337957127
92336,San Bernardino County,CA,36.82219419924338
92337,San Bernardino County,CA,60.277427490542244
92344,San Bernardino County,CA,91.92938209331652
92346,San Bernardino County,CA,25.788146279949558
92354,San Bernardino County,CA,83.41740226986128
92376,San Bernardino County,CA,8.07061790668348
92410,San Bernardino County,CA,33.417402269861284
92411,San Bernardino County,CA,91.4249684741488
92505,Riverside County,CA,47.66708701134931
92507,Riverside County,CA,43.12736443883985
92543,Riverside County,CA,40.85750315258512
92551,Riverside County,CA,67.78058007566204
92570,Riverside County,CA,90.3530895334174
92583,Riverside County,CA,63.745271122320304
92596,Riverside County,CA,74.02269861286254
92604,Orange County,CA,96.40605296343001
92703,Orange County,CA,39.53341740226986
92706,Orange County,CA,80.58007566204287
92707,Orange County,CA,43.757881462799496
93012,Ventura County,CA,68.41109709962168
93033,Ventura County,CA,11.41235813366961
93203,Kern County,CA,85.750315258511975
93204,Kings County,CA,93.37957124842372
93212,Kings County,CA,88.33543505674653
93219,Tulare County,CA,99.05422446406052
93230,Kings County,CA,17.08701134930643
93272,Tulare County,CA,98.48675914249685
93274,Tulare County,CA,46.973518284993695
93277,Tulare County,CA,24.4640605296343
93313,Kern County,CA,53.84615384615385
93420,San Luis Obispo County,CA,68.2219419924338
93454,Santa Barbara County,CA,30.706179066834803
93455,Santa Barbara County,CA,32.28247162673392
93535,Los Angeles County,CA,8.511979823455233
93550,Los Angeles County,CA,12.736443883984869
93555,Kern County,CA,24.211853720050442
93620,Merced County,CA,94.70365699873896
93657,Fresno County,CA,57.81841109709962
93706,Fresno County,CA,22.131147540983605
93722,Fresno County,CA,34.93064312736444
93906,Monterey County,CA,40.605296343001264
93907,Monterey County,CA,78.7515762925599
94002,San Mateo County,CA,57.44010088272383
94401,San Mateo County,CA,77.8688524590164
94513,Contra Costa County,CA,35.05674653215637
94544,Alameda County,CA,84.9936948297604
94555,Alameda County,CA,67.96973518284993
94563,Contra Costa County,CA,87.07440100882724
94588,Alameda County,CA,73.77049180327869
94621,Alameda County,CA,32.34552332912989
94960,Marin County,CA,91.80327868852459
95076,Santa Cruz County,CA,18.474148802017652
95116,Santa Clara County,CA,44.26229508196721
95125,Santa Clara County,CA,48.54981084489281
95126,Santa Clara County,CA,65.57377049180327
95128,Santa Clara County,CA,36.885245901639344
95210,San Joaquin County,CA,39.02900378310215
95351,Stanislaus County,CA,20.68095838587642
95354,Stanislaus County,CA,33.73266078184111
95356,Stanislaus County,CA,41.86633039092055
95458,Lake County,CA,99.8108448928121
95605,Yolo County,CA,90.41614123581337
95632,Sacramento County,CA,95.20807061790669
95757,Sacramento County,CA,76.16645649432535
95817,Sacramento County,CA,80.39092055485499
95901,Yuba County,CA,23.076923076923077
95948,Butte County,CA,79.31904161412359
95971,Plumas County,CA,94.32534678436318
95973,Butte County,CA,22.06809583858764
95993,Sutter County,CA,47.8562421185372
96080,Tehama County,CA,44.19924337957124
80011,Arapahoe County,CO,6.494325346784363
80030,Adams County,CO,91.67717528373267
80112,Arapahoe County,CO,55.17023959646911
80123,Jefferson County,CO,77.61664564943254
80127,Jefferson County,CO,48.17150063051702
80204,Denver County,CO,20.870113493064313
80205,Denver County,CO,43.00126103404792
80211,Denver County,CO,37.704918032786885
80219,Denver County,CO,4.03530895334174
80226,Jefferson County,CO,49.810844892812106
80228,Jefferson County,CO,55.98991172761665
80236,Denver County,CO,94.01008827238336
80516,Weld County,CO,66.45649432534678
80528,Larimer County,CO,98.9281210592686
80547,Larimer County,CO,98.61286254728878
80601,Adams County,CO,66.70870113493065
80631,Weld County,CO,7.629255989911727
80634,Weld County,CO,2.01765447667087
80723,Morgan County,CO,75.59899117276167
80903,El Paso County,CO,37.957124842370746
80918,El Paso County,CO,47.09962168978563
80919,El Paso County,CO,70.74401008827238
81001,Pueblo County,CO,55.42244640605296
81004,Pueblo County,CO,75.22068095838588
81101,Alamosa County,CO,44.82976040353089
81201,Chaffee County,CO,82.59773013871374
81505,Mesa County,CO,88.71374527112232
81632,Eagle County,CO,96.9735182849937
06010,Hartford County,CT,13.05170239596469
06040,Hartford County,CT,9.773013871374527
06062,Hartford County,CT,59.4577553593947
06106,Hartford County,CT,3.720050441361917
06112,Hartford County,CT,49.30643127364439
06119,Hartford County,CT,82.28247162673392
06255,Windham County,CT,76.54476670870113
06401,New Haven County,CT,30.76923076923077
06405,New Haven County,CT,42.4968474148802
06511,New Haven County,CT,3.5308953341740232
06515,New Haven County,CT,29.445145018915508
06605,Fairfield County,CT,67.02395964691047
06606,Fairfield County,CT,50.37831021437579
06705,New Haven County,CT,22.257250945775535
06706,New Haven County,CT,84.86759142496847
06786,Litchfield County,CT,83.16519546027743
06854,Fairfield County,CT,46.15384615384615
19709,New Castle County,DE,20.365699873896595
19720,New Castle County,DE,2.3329129886506936
19805,New Castle County,DE,2.5220680958385877
19808,New Castle County,DE,72.06809583858764
19934,Kent County,DE,71.68978562421185
19952,Kent County,DE,82.59773013871374
19977,Kent County,DE,22.509457755359392
32060,Suwannee County,FL,54.41361916771753
32068,Clay County,FL,11.916771752837327
32073,Clay County,FL,23.203026481715007
32097,Nassau County,FL,58.07061790668349
32114,Volusia County,FL,22.383354350567465
32117,Volusia County,FL,34.17402269861286
32159,Lake County,FL,67.02395964691047
32168,Volusia County,FL,62.73644388398487
32205,Duval County,FL,84.93064312736443
32208,Duval County,FL,21.50063051702396
32216,Duval County,FL,18.15889029003783
32217,Duval County,FL,89.65952080706178
32221,Duval County,FL,29.6343001261034
32244,Duval County,FL,4.665825977301387
32258,Duval County,FL,81.90416141235814
32301,Leon County,FL,93.12736443883985
32303,Leon County,FL,45.39722572509458
32310,Leon County,FL,88.08322824716267
32404,Bay County,FL,23.770491803278688
32526,Escambia County,FL,13.682219419924339
32534,Escambia County,FL,45.7124842370744
32536,Okaloosa County,FL,61.22320302648171
32541,Okaloosa County,FL,67.33921815889029
32561,Santa Rosa County,FL,89.4703656998739
32577,Escambia County,FL,88.65069356872635
32608,Alachua County,FL,6.305170239596469
32609,Alachua County,FL,19.546027742749054
32641,Alachua County,FL,24.527112232030266
32656,Clay County,FL,70.23959646910467
32712,Orange County,FL,63.99747793190416
32725,Volusia County,FL,36.002522068095836
32771,Seminole County,FL,16.26733921815889
32808,Orange County,FL,15.384615384615385
32809,Orange County,FL,49.558638083228246
32811,Orange County,FL,22.005044136191675
32818,Orange County,FL,16.14123581336696
32839,Orange County,FL,60.781841109709966
32905,Brevard County,FL,60.46658259773013
32907,Brevard County,FL,48.23455233291299
32926,Brevard County,FL,72.76166456494325
32948,Indian River County,FL,95.0189155107188
32966,Indian River County,FL,95.58638083228247
33013,Miami-Dade County,FL,71.437578814628
33014,Miami-Dade County,FL,66.9609079445145
33015,Miami-Dade County,FL,53.2156368221942
33023,Broward County,FL,52.96343001261034
33027,Broward County,FL,40.98360655737705
33030,Miami-Dade County,FL,45.523329129886505
33032,Miami-Dade County,FL,42.938209331651954
33034,Miami-Dade County,FL,83.41740226986128
33056,Miami-Dade County,FL,41.172761664564945
33060,Broward County,FL,37.89407313997478
33069,Broward County,FL,68.15889029003783
33127,Miami-Dade County,FL,82.78688524590164
33135,Miami-Dade County,FL,75.97730138713746
33141,Miami-Dade County,FL,60.718789407314
33143,Miami-Dade County,FL,80.20176544766709
33147,Miami-Dade County,FL,32.97604035308953
33150,Miami-Dade County,FL,89.15510718789407
33157,Miami-Dade County,FL,35.435056746532155
33161,Miami-Dade County,FL,35.435056746532155
33162,Miami-Dade County,FL,59.70996216897856
33169,Miami-Dade County,FL,73.58133669609079
33170,Miami-Dade County,FL,83.921815889029
33176,Miami-Dade County,FL,68.60025220680959
33177,Miami-Dade County,FL,45.271122320302645
33179,Miami-Dade County,FL,85.30895334174022
33180,Miami-Dade County,FL,80.5170239596469
33196,Miami-Dade County,FL,87.57881462799496
33311,Broward County,FL,5.863808322824717
33312,Broward County,FL,35.37200504413619
33317,Broward County,FL,78.31021437578815
33403,Palm Beach County,FL,94.45145018915511
33404,Palm Beach County,FL,38.02017654476671
33406,Palm Beach County,FL,78.562421185372
33407,Palm Beach County,FL,29.382093316519548
33411,Palm Beach County,FL,70.42875157629256
33461,Palm Beach County,FL,84.55233291298865
33463,Palm Beach County,FL,50.25220680958385
33513,Sumter County,FL,83.79571248423707
33523,Pasco County,FL,88.58764186633039
33525,Pasco County,FL,70.11349306431273
33542,Pasco County,FL,56.68348045397226
33604,Hillsborough County,FL,23.3921815889029
33607,Hillsborough County,FL,52.71122320302648
33610,Hillsborough County,FL,13.997477931904163
33617,Hillsborough County,FL,34.552332912988646
33647,Hillsborough County,FL,52.83732660781841
33705,Pinellas County,FL,27.86885245901639
33714,Pinellas County,FL,56.87263556116016
33756,Pinellas County,FL,47.225725094577555
33801,Polk County,FL,57.629255989911734
33813,Polk County,FL,61.727616645649434
33830,Polk County,FL,36.50693568726356
33838,Polk County,FL,98.36065573770492
33870,Highlands County,FL,28.43631778058008
33884,Polk County,FL,60.277427490542244
33905,Lee County,FL,37.3266078184111
33909,Lee County,FL,43.94703656998739
33913,Lee County,FL,82.91298865069356
33947,Charlotte County,FL,93.19041614123581
33971,Lee County,FL,58.259773013871374
33983,Charlotte County,FL,73.89659520807061
33993,Lee County,FL,50.63051702395964
34232,Sarasota County,FL,48.0453972257251
34266,DeSoto County,FL,36.75914249684741
34275,Sarasota County,FL,77.23833543505675
34286,Sarasota County,FL,58.890290037831015
34293,Sarasota County,FL,49.18032786885246
34491,Marion County,FL,62.98865069356873
34606,Hernando County,FL,74.08575031525851
34608,Hernando County,FL,39.21815889029004
34613,Hernando County,FL,75.28373266078184
34654,Pasco County,FL,77.49054224464061
34655,Pasco County,FL,66.2673392181589
34711,Lake County,FL,21.563682219419924
34744,Osceola County,FL,25.851197982345525
34759,Polk County,FL,39.53341740226986
34769,Osceola County,FL,47.03656998738966
34787,Orange County,FL,24.779319041614123
34947,St. Lucie County,FL,55.23329129886507
34950,St. Lucie County,FL,54.91803278688525
34984,St. Lucie County,FL,56.49432534678437
34997,Martin County,FL,29.445145018915508
30016,Newton County,GA,43.31651954602774
30019,Gwinnett County,GA,39.91172761664565
30058,DeKalb County,GA,20.05044136191677
30082,Cobb County,GA,75.15762925598992
30092,Gwinnett County,GA,62.98865069356873
30116,Carroll County,GA,48.9281210592686
30180,Carroll County,GA,22.57250945775536
30188,Cherokee County,GA,21.2484237074401
30228,Henry County,GA,64.249684741488025
30236,Clayton County,GA,31.778058007566205
30241,Troup County,GA,62.042875157629254
30248,Henry County,GA,59.394703656998736
30253,Henry County,GA,25.598991172761664
30274,Clayton County,GA,40.85750315258512
30294,DeKalb County,GA,42.81210592686003
30296,Clayton County,GA,62.42118537200504
30309,Fulton County,GA,82.28247162673392
30310,Fulton County,GA,22.761664564943253
30311,Fulton County,GA,15.195460277427491
30312,Fulton County,GA,61.03404791929382
30337,Fulton County,GA,79.31904161412359
30350,Fulton County,GA,65.44766708701135
30354,Fulton County,GA,66.14123581336696
30461,Bulloch County,GA,75.78814627994956
30474,Toombs County,GA,60.65573770491803
30507,Hall County,GA,74.52711223203026
30511,Banks County,GA,99.93694829760403
30519,Gwinnett County,GA,47.35182849936948
30520,Franklin County,GA,93.5687263556116
30567,Jackson County,GA,97.03656998738967
30643,Hart County,GA,64.94325346784363
30705,Murray County,GA,29.823455233291295
30736,Catoosa County,GA,10.90794451450189
30741,Walker County,GA,18.726355611601512
30747,Chattooga County,GA,51.071878940731395
30906,Richmond County,GA,6.368221941992434
30907,Columbia County,GA,59.77301387137452
31015,Crisp County,GA,49.36948297604035
31021,Laurens County,GA,40.290037831021436
31093,Houston County,GA,34.1109709962169
31419,Chatham County,GA,88.2093316519546
31545,Wayne County,GA,72.50945775535939
31601,Lowndes County,GA,25.031525851197983
31709,Sumter County,GA,56.99873896595208
31763,Lee County,GA,51.70239596469105
31794,Tift County,GA,26.670870113493066
31906,Muscogee County,GA,72.1311475409836
31909,Muscogee County,GA,40.41614123581337
39819,Decatur County,GA,80.32786885245902
96706,Honolulu County,HI,10.781841109709962
96707,Honolulu County,HI,82.53467843631778
96708,Maui County,HI,95.96469104665826
96749,Hawaii County,HI,80.76923076923077
96817,Honolulu County,HI,41.740226986128626
83201,Bannock County,ID,57.250945775535946
83263,Franklin County,ID,97.35182849936949
83338,Jerome County,ID,81.7780580075662
83501,Nez Perce County,ID,13.934426229508196
83634,Ada County,ID,71.87894073139974
83642,Ada County,ID,50.1891551071879
83686,Canyon County,ID,32.97604035308953
83702,Ada County,ID,30.20176544766709
83709,Ada County,ID,15.006305170239598
83814,Kootenai County,ID,81.14754098360656
83854,Kootenai County,ID,33.16519546027743
60016,Cook County,IL,23.581336696090794
60062,Cook County,IL,40.03783102143758
60089,Lake County,IL,40.98360655737705
60103,DuPage County,IL,62.547288776796975
60133,Cook County,IL,45.39722572509458
60134,Kane County,IL,45.58638083228247
60402,Cook County,IL,11.223203026481714
60425,Cook County,IL,81.84110970996217
60442,Will County,IL,80.0126103404792
60447,Grundy County,IL,94.26229508196722
60448,Will County,IL,56.80958385876419
60487,Cook County,IL,94.13619167717529
60514,DuPage County,IL,91.55107187894073
60544,Will County,IL,38.272383354350566
60560,Kendall County,IL,44.57755359394704
60609,Cook County,IL,10.21437578814628
60615,Cook County,IL,59.2686002522068
60619,Cook County,IL,5.296343001261034
60625,Cook County,IL,38.52459016393443
60652,Cook County,IL,27.994955863808325
60659,Cook County,IL,87.95712484237075
60804,Cook County,IL,19.104665825977303
60915,Kankakee County,IL,86.12862547288776
61101,Winnebago County,IL,48.48675914249685
61107,Winnebago County,IL,45.7124842370744
61114,Winnebago County,IL,80.89533417402271
62859,Hamilton County,IL,89.91172761664565
46140,Hancock County,IN,28.7515762925599
46173,Rush County,IN,83.29129886506935
46176,Shelby County,IN,47.41488020176545
46201,Marion County,IN,51.13493064312736
46203,Marion County,IN,8.259773013871374
46217,Marion County,IN,53.78310214375788
46218,Marion County,IN,9.01639344262295
46221,Marion County,IN,29.88650693568726
46222,Marion County,IN,69.9873896595208
46224,Marion County,IN,64.43883984867591
46226,Marion County,IN,60.907944514501885
46229,Marion County,IN,23.51828499369483
46234,Marion County,IN,92.18158890290039
46235,Marion County,IN,53.40479192938209
46239,Marion County,IN,56.30517023959647
46254,Marion County,IN,21.437578814627994
46304,Porter County,IN,43.31651954602774
46307,Lake County,IN,1.5132408575031526
46311,Lake County,IN,32.78688524590164
46321,Lake County,IN,35.62421185372005
46322,Lake County,IN,23.896595208070618
46350,LaPorte County,IN,8.133669609079446
46385,Porter County,IN,30.26481715006305
46392,Jasper County,IN,68.2219419924338
46404,Lake County,IN,34.17402269861286
46528,Elkhart County,IN,75.5359394703657
46561,St. Joseph County,IN,87.70491803278688
46714,Wells County,IN,97.41488020176546
46805,Allen County,IN,33.354350567465325
46807,Allen County,IN,52.774274905422445
46816,Allen County,IN,29.255989911727614
46825,Allen County,IN,38.587641866330394
46902,Howard County,IN,19.293820933165197
46947,Cass County,IN,61.60151324085751
46952,Grant County,IN,17.654476670870114
46979,Howard County,IN,85.49810844892812
47122,Floyd County,IN,90.92055485498108
47150,Floyd County,IN,10.277427490542244
47201,Bartholomew County,IN,11.475409836065573
47302,Delaware County,IN,17.717528373266077
47304,Delaware County,IN,53.0264817150063
47374,Wayne County,IN,56.557377049180324
47403,Monroe County,IN,62.862547288776796
47553,Martin County,IN,86.75914249684742
47567,Pike County,IN,92.93820933165196
47711,Vanderburgh County,IN,27.112232030264817
47712,Vanderburgh County,IN,53.593947036569986
47714,Vanderburgh County,IN,81.71500630517023
47715,Vanderburgh County,IN,30.390920554854983
47842,Vermillion County,IN,68.85245901639344
47872,Parke County,IN,91.80327868852459
47909,Tippecanoe County,IN,40.290037831021436
47933,Montgomery County,IN,32.219419924337956
50316,Polk County,IA,42.30769230769231
50320,Polk County,IA,50.06305170239597
50323,Dallas County,IA,96.34300126103405
50327,Polk County,IA,83.0390920554855
50401,Cerro Gordo County,IA,41.55107187894073
50501,Webster County,IA,24.02269861286255
51503,Pottawattamie County,IA,7.818411097099622
52205,Jones County,IA,90.22698612862547
52241,Johnson County,IA,47.477931904161416
52404,Linn County,IA,33.79571248423707
52537,Davis County,IA,95.83858764186634
52544,Appanoose County,IA,43.5687263556116
52645,Henry County,IA,99.68474148802018
52722,Scott County,IA,19.987389659520808
52732,Clinton County,IA,55.86380832282472
52803,Scott County,IA,35.87641866330391
66209,Johnson County,KS,81.52585119798235
66212,Johnson County,KS,57.88146279949559
66215,Johnson County,KS,74.27490542244641
66536,Pottawatomie County,KS,98.42370744010088
66749,Allen County,KS,77.36443883984867
67204,Sedgwick County,KS,80.89533417402271
67215,Sedgwick County,KS,99.18032786885246
67216,Sedgwick County,KS,75.40983606557377
40033,Marion County,KY,59.89911727616646
40165,Bullitt County,KY,13.619167717528374
40203,Jefferson County,KY,20.996216897856243
40214,Jefferson County,KY,28.625472887767973
40215,Jefferson County,KY,51.76544766708702
40229,Jefferson County,KY,11.790668348045397
40511,Fayette County,KY,39.659520807061796
40517,Fayette County,KY,81.39974779319041
41001,Campbell County,KY,65.38461538461539
41011,Kenton County,KY,45.208070617906685
41017,Kenton County,KY,31.904161412358135
41091,Boone County,KY,71.9419924337957
41143,Carter County,KY,43.06431273644388
41164,Carter County,KY,34.04791929382093
41314,Owsley County,KY,92.05548549810845
42103,Warren County,KY,63.934426229508205
42167,Monroe County,KY,65.13240857503153
42276,Logan County,KY,57.18789407313998
42345,Muhlenberg County,KY,55.926860025220684
42653,McCreary County,KY,97.16267339218159
42728,Adair County,KY,54.728877679697355
70001,Jefferson Parish,LA,55.67465321563682
70002,Jefferson Parish,LA,47.540983606557376
70037,Plaquemines Parish,LA,43.505674653215635
70058,Jefferson Parish,LA,92.37074401008827
70068,St. John the Baptist Parish,LA,9.331651954602775
70072,Jefferson Parish,LA,88.46153846153845
70094,Jefferson Parish,LA,90.66834804539722
70113,Orleans Parish,LA,97.28877679697352
70301,Lafourche Parish,LA,86.9482976040353
70403,Tangipahoa Parish,LA,62.547288776796975
70422,Tangipahoa Parish,LA,24.401008827238336
70433,St. Tammany Parish,LA,95.5233291298865
70452,St. Tammany Parish,LA,80.64312736443884
70460,St. Tammany Parish,LA,72.57250945775536
70507,Lafayette Parish,LA,44.640605296343
70517,St. Martin Parish,LA,12.547288776796975
70533,Vermilion Parish,LA,98.7389659520807
70535,St. Landry Parish,LA,77.04918032786885
70548,Vermilion Parish,LA,35.119798234552334
70601,Calcasieu Parish,LA,85.1828499369483
70607,Calcasieu Parish,LA,94.8297604035309
70611,Calcasieu Parish,LA,28.373266078184113
70656,Vernon Parish,LA,99.55863808322825
70668,Calcasieu Parish,LA,67.02395964691047
70706,Livingston Parish,LA,32.59773013871374
70726,Livingston Parish,LA,86.38083228247163
70760,Pointe Coupee Parish,LA,73.26607818411097
70764,Iberville Parish,LA,93.44262295081968
70802,East Baton Rouge Parish,LA,90.29003783102144
70808,East Baton Rouge Parish,LA,93.82093316519547
70809,East Baton Rouge Parish,LA,55.044136191677175
70811,East Baton Rouge Parish,LA,61.28625472887768
70812,East Baton Rouge Parish,LA,95.77553593947037
70817,East Baton Rouge Parish,LA,32.91298865069357
71047,Caddo Parish,LA,53.593947036569986
71055,Webster Parish,LA,16.77175283732661
71109,Caddo Parish,LA,5.548549810844893
71118,Caddo Parish,LA,20.491803278688526
71119,Caddo Parish,LA,59.58385876418664
71245,Lincoln Parish,LA,98.54981084489282
71295,Franklin Parish,LA,51.261034047919296
71302,Rapides Parish,LA,25.09457755359395
71334,Concordia Parish,LA,97.91929382093316
71430,Rapides Parish,LA,100
71457,Natchitoches Parish,LA,88.0201765447667
71463,Allen Parish,LA,61.47540983606557
71483,Winn Parish,LA,71.05926860025221
03901,York County,ME,87.83102143757881
04002,York County,ME,76.48171500630518
04005,York County,ME,15.32156368221942
04038,Cumberland County,ME,55.296343001261036
04103,Cumberland County,ME,55.73770491803278
04268,Oxford County,ME,81.65195460277428
04274,Androscoggin County,ME,92.24464060529634
04281,Oxford County,ME,77.99495586380833
04294,Franklin County,ME,90.79445145018916
04330,Kennebec County,ME,4.981084489281211
04401,Penobscot County,ME,1.639344262295082
04444,Penobscot County,ME,76.22950819672131
04736,Aroostook County,ME,54.03530895334174
20603,Charles County,MD,67.46532156368222
20659,St. Mary's County,MD,63.24085750315258
20708,Prince George's County,MD,80.45397225725095
20724,Anne Arundel County,MD,84.42622950819673
20744,Prince George's County,MD,46.910466582597735
20747,Prince George's County,MD,47.60403530895334
20772,Prince George's County,MD,49.43253467843632
20814,Montgomery County,MD,92.55989911727617
20871,Montgomery County,MD,87.64186633039091
21009,Harford County,MD,78.24716267339218
21044,Howard County,MD,50.126103404791934
21060,Anne Arundel County,MD,28.058007566204285
21078,Harford County,MD,51.32408575031526
21084,Harford County,MD,95.96469104665826
21133,Baltimore County,MD,59.64691046658259
21136,Baltimore County,MD,58.95334174022698
21158,Carroll County,MD,83.2282471626734
21208,Baltimore County,MD,62.16897856242119
21227,Baltimore County,MD,55.5485498108449
21237,Baltimore County,MD,80.7061790668348
21776,Carroll County,MD,96.72131147540983
01002,Hampshire County,MA,38.77679697351829
01105,Hampden County,MA,2.7742749054224465
01201,Berkshire County,MA,1.0718789407313998
01331,Worcester County,MA,3.5939470365699875
01420,Worcester County,MA,0.06305170239596469
01453,Worcester County,MA,0.819672131147541
01475,Worcester County,MA,25.914249684741485
01562,Worcester County,MA,27.238335435056747
01569,Worcester County,MA,36.254728877679696
01581,Worcester County,MA,33.60655737704918
01604,Worcester County,MA,5.611601513240857
01749,Middlesex County,MA,19.35687263556116
01801,Middlesex County,MA,1.008827238335435
01830,Essex County,MA,1.1979823455233292
01840,Essex County,MA,53.2156368221942
01843,Essex County,MA,16.708701134930642
01844,Essex County,MA,0.9457755359394703
01850,Middlesex County,MA,6.620428751576292
01852,Middlesex County,MA,6.809583858764187
01862,Middlesex County,MA,47.28877679697352
01867,Middlesex County,MA,26.35561160151324
01876,Middlesex County,MA,5.674653215636822
01879,Middlesex County,MA,27.616645649432535
01906,Essex County,MA,2.269861286254729
01960,Essex County,MA,0.37831021437578816
01969,Essex County,MA,89.53341740226986
02121,Suffolk County,MA,10.592686002522068
02122,Suffolk County,MA,10.403530895334175
02127,Suffolk County,MA,1.1349306431273645
02128,Suffolk County,MA,2.900378310214376
02140,Middlesex County,MA,16.582597730138716
02143,Middlesex County,MA,4.476670870113493
02148,Middlesex County,MA,0
02150,Suffolk County,MA,0.18915510718789408
02152,Suffolk County,MA,12.23203026481715
02301,Plymouth County,MA,5.10718789407314
02302,Plymouth County,MA,91.29886506935688
02346,Plymouth County,MA,10.08827238335435
02360,Plymouth County,MA,0.5044136191677175
02445,Norfolk County,MA,85.05674653215637
02451,Middlesex County,MA,74.90542244640605
02460,Middlesex County,MA,85.87641866330391
02720,Bristol County,MA,46.34300126103405
48025,Oakland County,MI,81.33669609079445
48033,Oakland County,MI,42.11853720050441
48035,Macomb County,MI,9.205548549810844
48036,Macomb County,MI,26.796973518284993
48043,Macomb County,MI,32.09331651954603
48044,Macomb County,MI,7.12484237074401
48060,St. Clair County,MI,2.648171500630517
48062,Macomb County,MI,84.67843631778058
48065,Macomb County,MI,76.67087011349307
48067,Oakland County,MI,37.01134930643127
48073,Oakland County,MI,28.877679697351827
48075,Oakland County,MI,64.56494325346785
48084,Oakland County,MI,79.44514501891551
48091,Macomb County,MI,26.923076923076923
48093,Macomb County,MI,18.66330390920555
48105,Washtenaw County,MI,39.407313997477935
48122,Wayne County,MI,89.78562421185372
48126,Wayne County,MI,9.583858764186633
48141,Wayne County,MI,7.566204287515762
48150,Wayne County,MI,61.412358133669606
48161,Monroe County,MI,6.17906683480454
48176,Washtenaw County,MI,41.6141235813367
48180,Wayne County,MI,1.8915510718789406
48183,Wayne County,MI,8.385876418663305
48187,Wayne County,MI,9.646910466582598
48197,Washtenaw County,MI,1.7654476670870116
48202,Wayne County,MI,30.138713745271122
48203,Wayne County,MI,46.09079445145019
48204,Wayne County,MI,9.39470365699874
48207,Wayne County,MI,18.284993694829758
48212,Wayne County,MI,9.1424968474148791
48215,Wayne County,MI,37.200504413619164
48219,Wayne County,MI,4.098360655737705
48220,Oakland County,MI,87.38965952080706
48221,Wayne County,MI,4.287515762925599
48223,Wayne County,MI,12.295081967213115
48224,Wayne County,MI,14.438839848675913
48227,Wayne County,MI,2.711223203026482
48228,Wayne County,MI,1.3240857503152585
48301,Oakland County,MI,64.43883984867591
48310,Macomb County,MI,15.573770491803279
48313,Macomb County,MI,25.66204287515763
48316,Macomb County,MI,40.73139974779319
48326,Oakland County,MI,52.143757881462804
48328,Oakland County,MI,70.1765447667087
48329,Oakland County,MI,66.20428751576293
48335,Oakland County,MI,88.83984867591424
48340,Oakland County,MI,78.18411097099622
48348,Oakland County,MI,36.948297604035304
48393,Oakland County,MI,76.92307692307693
48433,Genesee County,MI,54.60277427490542
48503,Genesee County,MI,50.945775535939475
48505,Genesee County,MI,50.441361916771754
48506,Genesee County,MI,58.575031525851195
48601,Saginaw County,MI,12.799495586380832
48632,Clare County,MI,83.66960907944514
48642,Midland County,MI,18.348045397225725
48732,Bay County,MI,54.85498108448928
48910,Ingham County,MI,11.349306431273645
48911,Ingham County,MI,48.675914249684745
49006,Kalamazoo County,MI,51.45018915510718
49022,Berrien County,MI,36.19167717528373
49037,Calhoun County,MI,14.37578814627995
49070,Allegan County,MI,99.43253467843631
49120,Berrien County,MI,14.060529634300126
49221,Lenawee County,MI,3.1525851197982346
49337,Newaygo County,MI,68.47414880201765
49349,Newaygo County,MI,60.40353089533418
49460,Ottawa County,MI,93.50567465321564
49461,Muskegon County,MI,91.04665825977301
49651,Missaukee County,MI,86.0655737704918
49684,Grand Traverse County,MI,57.377049180327866
49841,Marquette County,MI,61.03404791929382
49855,Marquette County,MI,14.123581336696093
55006,Isanti County,MN,98.0453972257251
55041,Wabasha County,MN,87.01134930643127
55075,Dakota County,MN,42.055485498108446
55103,Ramsey County,MN,46.84741488020177
55104,Ramsey County,MN,14.754098360655737
55107,Ramsey County,MN,73.13997477931903
55117,Ramsey County,MN,15.889029003783103
55129,Washington County,MN,73.58133669609079
55316,Hennepin County,MN,87.89407313997478
55337,Dakota County,MN,66.89785624211854
55344,Hennepin County,MN,90.60529634300126
55407,Hennepin County,MN,26.229508196721312
55411,Hennepin County,MN,49.495586380832286
55414,Hennepin County,MN,53.593947036569986
55416,Hennepin County,MN,43.88398486759142
55417,Hennepin County,MN,88.39848675914249
55422,Hennepin County,MN,30.453972257250943
55423,Hennepin County,MN,18.915510718789406
55427,Hennepin County,MN,55.80075662042875
55429,Hennepin County,MN,61.85372005044136
55431,Hennepin County,MN,62.98865069356873
55434,Anoka County,MN,86.2547288776797
55436,Hennepin County,MN,94.57755359394704
55437,Hennepin County,MN,85.43505674653215
55803,St. Louis County,MN,68.53720050441362
55806,St. Louis County,MN,26.10340479192938
56007,Freeborn County,MN,46.72131147540984
56359,Mille Lacs County,MN,96.59520807061791
56474,Cass County,MN,90.10088272383354
56560,Clay County,MN,1.450189155107188
56701,Pennington County,MN,52.90037831021438
38651,DeSoto County,MS,93.7578814627995
38654,DeSoto County,MS,57.75535939470365
38671,DeSoto County,MS,33.921815889029006
38930,Leflore County,MS,39.34426229508197
39083,Copiah County,MS,78.94073139974779
39180,Warren County,MS,44.073139974779316
39360,Clarke County,MS,99.30643127364439
39426,Pearl River County,MS,56.746532156368225
39466,Pearl River County,MS,25.346784363177804
39470,Pearl River County,MS,80.76923076923077
39483,Marion County,MS,85.37200504413619
39701,Lowndes County,MS,67.21311475409836
39759,Oktibbeha County,MS,66.39344262295081
63116,St. Louis city,MO,35.30895334174023
63119,St. Louis County,MO,66.51954602774275
63130,St. Louis County,MO,53.46784363177805
63133,St. Louis County,MO,93.94703656998739
63136,St. Louis County,MO,5.989911727616646
63138,St. Louis County,MO,52.585119798234544
63141,St. Louis County,MO,80.0126103404792
63303,St. Charles County,MO,22.44640605296343
63845,Mississippi County,MO,74.77931904161412
63901,Butler County,MO,13.240857503152585
64054,Jackson County,MO,97.66708701134931
64055,Jackson County,MO,6.431273644388398
64061,Johnson County,MO,98.23455233291298
64093,Johnson County,MO,35.81336696090794
64109,Jackson County,MO,27.049180327868854
64128,Jackson County,MO,19.167717528373267
64130,Jackson County,MO,27.55359394703657
64133,Jackson County,MO,3.278688524590164
64150,Platte County,MO,93.82093316519547
64468,Nodaway County,MO,66.078184110971
64505,Buchanan County,MO,31.967213114754102
65301,Pettis County,MO,3.215636822194199
65559,Phelps County,MO,82.21941992433796
68118,Douglas County,NE,98.67591424968474
68130,Douglas County,NE,83.35435056746532
68137,Douglas County,NE,53.46784363177805
68164,Douglas County,NE,73.3921815889029
68503,Lancaster County,NE,95.33417402269862
68601,Platte County,NE,63.36696090794452
89103,Clark County,NV,54.16141235813367
89108,Clark County,NV,20.80706179066835
89115,Clark County,NV,54.98108448928121
89117,Clark County,NV,34.867591424968474
89122,Clark County,NV,24.84237074401009
89815,Elko County,NV,84.04791929382094
03060,Hillsborough County,NH,48.738965952080704
03062,Hillsborough County,NH,50.88272383354351
03079,Rockingham County,NH,14.880201765447667
03103,Hillsborough County,NH,4.791929382093317
03820,Strafford County,NH,55.42244640605296
03848,Rockingham County,NH,72.95081967213115
07008,Middlesex County,NJ,59.83606557377049
07011,Passaic County,NJ,84.80453972257251
07017,Essex County,NJ,57.061790668348046
07052,Essex County,NJ,14.691046658259774
07060,Union County,NJ,27.42749054224464
07064,Middlesex County,NJ,99.05422446406052
07073,Bergen County,NJ,64.62799495586381
07103,Essex County,NJ,0.6935687263556116
07104,Essex County,NJ,4.602774274905422
07107,Essex County,NJ,9.26860025220681
07109,Essex County,NJ,63.87137452711224
07111,Essex County,NJ,0.7566204287515763
07208,Union County,NJ,13.30390920554855
07305,Hudson County,NJ,90.73139974779319
07306,Hudson County,NJ,4.350567465321563
07307,Hudson County,NJ,10.844892812105927
07416,Sussex County,NJ,87.26355611601512
07430,Bergen County,NJ,66.64564943253468
07438,Morris County,NJ,87.51576292559899
07461,Sussex County,NJ,40.668348045397224
07470,Passaic County,NJ,16.01513240857503
07501,Passaic County,NJ,43.63177805800756
07522,Passaic County,NJ,43.69482976040353
07524,Passaic County,NJ,29.697351828499368
07601,Bergen County,NJ,5.170239596469105
07650,Bergen County,NJ,67.59142496847414
07712,Monmouth County,NJ,72.82471626733921
07732,Monmouth County,NJ,94.95586380832283
07740,Monmouth County,NJ,92.43379571248424
07840,Warren County,NJ,34.61538461538461
07843,Sussex County,NJ,70.42875157629256
07853,Morris County,NJ,95.08196721311475
07871,Sussex County,NJ,82.72383354350568
07930,Morris County,NJ,96.7843631778058
08021,Camden County,NJ,61.16015132408575
08028,Gloucester County,NJ,17.402269861286253
08037,Atlantic County,NJ,15.510718789407314
08053,Burlington County,NJ,59.14249684741488
08065,Burlington County,NJ,89.84867591424968
08066,Gloucester County,NJ,26.48171500630517
08103,Camden County,NJ,65.82597730138714
08108,Camden County,NJ,85.56116015132409
08201,Atlantic County,NJ,98.99117276166457
08205,Atlantic County,NJ,16.330390920554855
08215,Atlantic County,NJ,36.0655737704918
08232,Atlantic County,NJ,4.539722572509458
08302,Cumberland County,NJ,9.457755359394703
08330,Atlantic County,NJ,77.8688524590164
08401,Atlantic County,NJ,18.852459016393443
08527,Ocean County,NJ,81.2736443883985
08562,Burlington County,NJ,99.62168978562421
08610,Mercer County,NJ,6.242118537200504
08618,Mercer County,NJ,0.5674653215636822
08701,Ocean County,NJ,2.459016393442623
08723,Ocean County,NJ,15.258511979823455
08736,Monmouth County,NJ,86.19167717528373
08805,Somerset County,NJ,82.91298865069356
08820,Middlesex County,NJ,47.09962168978563
08840,Middlesex County,NJ,71.437578814628
08854,Middlesex County,NJ,7.25094577553594
08857,Middlesex County,NJ,6.935687263556116
08861,Middlesex County,NJ,50.756620428751575
87015,Santa Fe County,NM,79.76040353089533
87105,Bernalillo County,NM,2.9634300126103406
87107,Bernalillo County,NM,32.72383354350568
87121,Bernalillo County,NM,3.4047919293820934
87313,McKinley County,NM,78.7515762925599
87505,Santa Fe County,NM,4.224464060529634
87508,Santa Fe County,NM,90.03783102143757
87544,Los Alamos County,NM,85.93947036569988
88021,Doa Ana County,NM,75.97730138713746
88030,Luna County,NM,60.907944514501885
88240,Lea County,NM,5.044136191677175
88352,Otero County,NM,84.74148802017655
10002,New York County,NY,3.08953341740227
10026,New York County,NY,74.59016393442623
10029,New York County,NY,3.9722572509457756
10032,New York County,NY,10.025220680958386
10033,New York County,NY,16.078184110970998
10034,New York County,NY,33.921815889029006
10037,New York County,NY,38.65069356872636
10044,New York County,NY,93.5687263556116
10302,Richmond County,NY,75.66204287515762
10303,Richmond County,NY,40.16393442622951
10453,Bronx County,NY,5.359394703656998
10455,Bronx County,NY,3.278688524590164
10457,Bronx County,NY,0.31525851197982346
10458,Bronx County,NY,11.727616645649434
10460,Bronx County,NY,1.3871374527112232
10462,Bronx County,NY,5.233291298865069
10466,Bronx County,NY,40.79445145018916
10467,Bronx County,NY,0.25220680958385877
10472,Bronx County,NY,74.71626733921816
10541,Putnam County,NY,98.80201765447667
10701,Westchester County,NY,1.2610340479192939
10703,Westchester County,NY,37.26355611601513
10704,Westchester County,NY,69.35687263556116
10805,Westchester County,NY,92.49684741488021
11101,Queens County,NY,57.56620428751577
11205,Kings County,NY,11.979823455233293
11206,Kings County,NY,1.8284993694829759
11212,Kings County,NY,0.6305170239596469
11213,Kings County,NY,4.16141235813367
11218,Kings County,NY,66.58259773013872
11220,Kings County,NY,17.78058007566204
11226,Kings County,NY,3.0264817150063053
11228,Kings County,NY,61.91677175283733
11230,Kings County,NY,15.952080706179068
11231,Kings County,NY,41.992433795712486
11354,Queens County,NY,77.17528373266079
11368,Queens County,NY,29.31904161412358
11370,Queens County,NY,49.74779319041614
11373,Queens County,NY,13.43001261034048
11385,Queens County,NY,8.638083228247162
11417,Queens County,NY,50.31525851197982
11418,Queens County,NY,45.90163934426229
11421,Queens County,NY,33.60655737704918
11422,Queens County,NY,68.34804539722572
11432,Queens County,NY,60.21437578814628
11433,Queens County,NY,60.02522068095839
11434,Queens County,NY,13.745271122320302
11436,Queens County,NY,88.96595208070617
11501,Nassau County,NY,79.76040353089533
11550,Nassau County,NY,39.281210592686
11552,Nassau County,NY,83.0390920554855
11580,Nassau County,NY,59.4577553593947
11691,Queens County,NY,7.503152585119799
11701,Suffolk County,NY,69.41992433795713
11703,Suffolk County,NY,89.21815889029003
12158,Albany County,NY,94.01008827238336
12302,Schenectady County,NY,42.81210592686003
12401,Ulster County,NY,20.11349306431274
12534,Columbia County,NY,64.75409836065575
12885,Warren County,NY,76.41866330390921
12916,Franklin County,NY,96.0907944514502
12953,Franklin County,NY,68.0327868852459
13066,Onondaga County,NY,68.09583858764186
13104,Onondaga County,NY,53.089533417402265
13215,Onondaga County,NY,52.20680958385876
13440,Oneida County,NY,1.5762925598991173
13617,St. Lawrence County,NY,34.67843631778058
13655,St. Lawrence County,NY,84.48928121059268
13667,St. Lawrence County,NY,84.30012610340479
13732,Tioga County,NY,46.59520807061791
13760,Broome County,NY,6.116015132408575
13778,Chenango County,NY,63.80832282471627
13827,Tioga County,NY,21.185372005044137
13830,Chenango County,NY,65.88902900378311
13901,Broome County,NY,38.46153846153847
14048,Chautauqua County,NY,37.51576292559899
14070,Erie County,NY,78.43631778058008
14094,Niagara County,NY,13.366960907944513
14150,Erie County,NY,25.15762925598991
14211,Erie County,NY,7.629255989911727
14213,Erie County,NY,51.82849936948297
14214,Erie County,NY,31.147540983606557
14215,Erie County,NY,11.853720050441362
14219,Erie County,NY,52.01765447667087
14225,Erie County,NY,7.881462799495587
14428,Monroe County,NY,75.47288776796974
14437,Livingston County,NY,74.4640605296343
14450,Monroe County,NY,16.51954602774275
14519,Wayne County,NY,21.689785624211854
14522,Wayne County,NY,33.54350567465322
14559,Monroe County,NY,10.718789407313997
14605,Monroe County,NY,8.007566204287516
14607,Monroe County,NY,17.969735182849934
14609,Monroe County,NY,12.484237074401008
14610,Monroe County,NY,29.00378310214376
14620,Monroe County,NY,4.918032786885246
14624,Monroe County,NY,1.9546027742749055
14625,Monroe County,NY,48.423707440100884
14701,Chautauqua County,NY,2.3959646910466583
14733,Chautauqua County,NY,94.38839848675914
14747,Chautauqua County,NY,97.79319041614124
14810,Steuben County,NY,32.09331651954603
14905,Chemung County,NY,81.46279949558638
27017,Surry County,NC,76.29255989911728
27023,Forsyth County,NC,68.97856242118537
27055,Yadkin County,NC,64.37578814627994
27103,Forsyth County,NC,14.24968474148802
27105,Forsyth County,NC,14.564943253467844
27107,Forsyth County,NC,20.1765447667087
27265,Guilford County,NC,18.78940731399748
27278,Orange County,NC,21.12232030264817
27282,Guilford County,NC,91.23581336696091
27284,Forsyth County,NC,27.93190416141236
27288,Rockingham County,NC,12.925598991172762
27405,Guilford County,NC,10.34047919293821
27406,Guilford County,NC,20.42875157629256
27409,Guilford County,NC,85.62421185372006
27410,Guilford County,NC,31.778058007566205
27524,Johnston County,NC,71.31147540983606
27526,Wake County,NC,60.781841109709966
27529,Wake County,NC,23.707440100882724
27536,Vance County,NC,27.616645649432535
27542,Johnston County,NC,70.42875157629256
27549,Franklin County,NC,21.626733921815887
27574,Person County,NC,65.76292559899117
27587,Wake County,NC,20.744010088272383
27610,Wake County,NC,50.50441361916772
27707,Durham County,NC,12.168978562421186
27801,Edgecombe County,NC,70.87011349306431
27893,Wilson County,NC,14.50189155107188
28012,Gaston County,NC,62.862547288776796
28025,Cabarrus County,NC,10.151324085750316
28054,Gaston County,NC,52.39596469104666
28078,Mecklenburg County,NC,31.715006305170242
28083,Cabarrus County,NC,28.940731399747794
28203,Mecklenburg County,NC,83.60655737704919
28208,Mecklenburg County,NC,8.448928121059268
28214,Mecklenburg County,NC,28.247162673392186
28215,Mecklenburg County,NC,14.8171500630517
28217,Mecklenburg County,NC,52.20680958385876
28337,Bladen County,NC,67.90668348045398
28348,Cumberland County,NC,35.93947036569987
28352,Scotland County,NC,24.905422446406053
28365,Wayne County,NC,63.49306431273645
28376,Hoke County,NC,30.012610340479196
28382,Sampson County,NC,79.63430012610341
28403,New Hanover County,NC,40.41614123581337
28457,Pender County,NC,72.88776796973518
28513,Pitt County,NC,79.12988650693569
28613,Catawba County,NC,41.29886506935687
28659,Wilkes County,NC,20.55485498108449
28713,Swain County,NC,72.44640605296343
28771,Graham County,NC,72.25725094577552
28789,Jackson County,NC,88.14627994955863
28792,Henderson County,NC,31.58890290037831
58601,Stark County,ND,74.08575031525851
58701,Ward County,ND,37.01134930643127
43004,Franklin County,OH,72.19419924337957
43015,Delaware County,OH,14.186633039092056
43026,Franklin County,OH,19.230769230769234
43081,Franklin County,OH,21.311475409836063
43085,Franklin County,OH,65.57377049180327
43119,Franklin County,OH,23.266078184110974
43123,Franklin County,OH,6.0529634300126105
43147,Fairfield County,OH,23.329129886506937
43206,Franklin County,OH,11.538461538461538
43207,Franklin County,OH,25.40983606557377
43213,Franklin County,OH,8.701134930643127
43222,Franklin County,OH,56.87263556116016
43223,Franklin County,OH,25.220680958385877
43228,Franklin County,OH,68.66330390920555
43229,Franklin County,OH,26.10340479192938
43232,Franklin County,OH,54.539722572509454
43235,Franklin County,OH,45.90163934426229
43506,Williams County,OH,58.19672131147541
43512,Defiance County,OH,39.09205548549811
43551,Wood County,OH,12.862547288776796
43604,Lucas County,OH,42.37074401008827
43608,Lucas County,OH,7.377049180327869
43609,Lucas County,OH,3.783102143757881
43620,Lucas County,OH,89.9747793190416
43701,Muskingum County,OH,0.4413619167717529
43713,Belmont County,OH,60.46658259773013
43762,Muskingum County,OH,91.92938209331652
43830,Muskingum County,OH,91.55107187894073
44001,Lorain County,OH,27.80580075662043
44004,Ashtabula County,OH,1.7023959646910467
44035,Lorain County,OH,0.12610340479192939
44052,Lorain County,OH,2.080706179066835
44095,Lake County,OH,18.978562421185373
44104,Cuyahoga County,OH,39.155107187894075
44112,Cuyahoga County,OH,6.935687263556116
44113,Cuyahoga County,OH,6.746532156368222
44115,Cuyahoga County,OH,63.55611601513241
44119,Cuyahoga County,OH,19.419924337957127
44123,Cuyahoga County,OH,26.35561160151324
44128,Cuyahoga County,OH,2.2068095838587642
44134,Cuyahoga County,OH,7.0617906683480465
44135,Cuyahoga County,OH,2.5851197982345524
44137,Cuyahoga County,OH,4.7288776796973515
44143,Cuyahoga County,OH,66.7717528373266
44146,Cuyahoga County,OH,5.422446406052964
44203,Summit County,OH,46.658259773013874
44223,Summit County,OH,76.86002522068097
44256,Medina County,OH,19.861286254728878
44260,Portage County,OH,68.78940731399747
44301,Summit County,OH,30.51702395964691
44305,Summit County,OH,13.493064312736443
44306,Summit County,OH,8.953341740226985
44310,Summit County,OH,9.836065573770492
44312,Summit County,OH,13.871374527112232
44425,Trumbull County,OH,31.273644388398488
44483,Trumbull County,OH,15.447667087011348
44484,Trumbull County,OH,27.30138713745271
44601,Stark County,OH,5.800756620428752
44708,Stark County,OH,61.53846153846154
44805,Ashland County,OH,12.547288776796975
44857,Huron County,OH,21.37452711223203
44907,Richland County,OH,41.10970996216898
45005,Warren County,OH,33.85876418663304
45011,Butler County,OH,14.94325346784363
45030,Hamilton County,OH,56.431273644388405
45036,Warren County,OH,19.672131147540984
45135,Highland County,OH,96.0907944514502
45177,Clinton County,OH,23.013871374527113
45207,Hamilton County,OH,81.90416141235814
45229,Hamilton County,OH,29.192938209331654
45304,Darke County,OH,89.40731399747793
45356,Miami County,OH,74.6532156368222
45365,Shelby County,OH,41.36191677175284
45417,Montgomery County,OH,7.440100882723834
45505,Clark County,OH,30.327868852459016
45669,Lawrence County,OH,17.276166456494323
45690,Pike County,OH,16.64564943253468
45840,Hancock County,OH,2.1437578814627996
73110,Oklahoma County,OK,17.591424968474147
73132,Oklahoma County,OK,55.61160151324086
73505,Comanche County,OK,21.752837326607818
73521,Jackson County,OK,67.40226986128626
73554,Greer County,OK,99.36948297604036
74012,Tulsa County,OK,58.764186633039095
74014,Wagoner County,OK,36.44388398486759
74020,Pawnee County,OK,86.63303909205548
74021,Tulsa County,OK,70.80706179066834
74037,Tulsa County,OK,92.6860025220681
74055,Tulsa County,OK,54.791929382093315
74107,Tulsa County,OK,86.00252206809584
74114,Tulsa County,OK,87.20050441361917
74116,Tulsa County,OK,98.86506935687264
74133,Tulsa County,OK,31.399747793190414
74403,Muskogee County,OK,33.48045397225725
74462,Haskell County,OK,76.54476670870113
74801,Pottawatomie County,OK,37.704918032786885
74804,Pottawatomie County,OK,65.88902900378311
74820,Pontotoc County,OK,32.471626733921816
97056,Columbia County,OR,69.54602774274905
97128,Yamhill County,OR,51.576292559899116
97132,Yamhill County,OR,38.902900378310214
97138,Clatsop County,OR,60.592686002522065
75072,NA,NA,82.47162673392182
97214,Multnomah County,OR,90.1639344262295
97236,Multnomah County,OR,18.53720050441362
97306,Marion County,OR,82.78688524590164
97355,Linn County,OR,11.097099621689786
97401,Lane County,OR,39.407313997477935
97402,Lane County,OR,19.60907944514502
97503,Jackson County,OR,64.18663303909206
97504,Jackson County,OR,54.476670870113495
97526,Josephine County,OR,24.274905422446405
97741,Jefferson County,OR,74.40100882723833
97818,Morrow County,OR,88.2093316519546
97914,Malheur County,OR,22.82471626733922
15003,Beaver County,PA,69.92433795712483
15132,Allegheny County,PA,11.16015132408575
15136,Allegheny County,PA,29.697351828499368
15146,Allegheny County,PA,47.91929382093317
15317,Washington County,PA,28.562421185372006
15425,Fayette County,PA,30.64312736443884
15537,Bedford County,PA,81.14754098360656
15656,Westmoreland County,PA,72.95081967213115
15801,Clearfield County,PA,6.872635561160151
16314,Crawford County,PA,92.875157629256
16335,Crawford County,PA,9.962168978562422
16433,Crawford County,PA,79.25598991172762
16652,Huntingdon County,PA,39.722572509457756
16830,Clearfield County,PA,27.490542244640604
17018,Dauphin County,PA,96.53215636822195
17046,Lebanon County,PA,8.827238335435057
17050,Cumberland County,PA,21.81588902900378
17059,Juniata County,PA,82.40857503152586
17103,Dauphin County,PA,70.68095838587641
17201,Franklin County,PA,9.899117276166457
17315,York County,PA,61.790668348045394
17356,York County,PA,29.129886506935687
17366,York County,PA,86.31778058007566
17368,York County,PA,97.8562421185372
17402,York County,PA,18.0327868852459
17408,York County,PA,72.63556116015133
17557,Lancaster County,PA,77.04918032786885
17752,Lycoming County,PA,96.91046658259773
17872,Northumberland County,PA,41.23581336696091
17901,Schuylkill County,PA,24.59016393442623
18011,Lehigh County,PA,98.29760403530895
18073,Montgomery County,PA,78.68852459016394
18102,Lehigh County,PA,0.8827238335435058
18201,Luzerne County,PA,18.41109709962169
18235,Carbon County,PA,31.273644388398488
18360,Monroe County,PA,26.6078184110971
18504,Lackawanna County,PA,30.580075662042876
18702,Luzerne County,PA,51.387137452711215
18947,Bucks County,PA,99.24337957124843
18951,Bucks County,PA,52.33291298865069
18966,Bucks County,PA,48.86506935687264
19001,Montgomery County,PA,82.15636822194199
19007,Bucks County,PA,74.77931904161412
19013,Delaware County,PA,2.837326607818411
19014,Delaware County,PA,43.190416141235815
19023,Delaware County,PA,63.17780580075662
19026,Delaware County,PA,16.834804539722573
19027,Montgomery County,PA,44.4514501891551
19070,Delaware County,PA,87.26355611601512
19082,Delaware County,PA,10.466582597730138
19116,Philadelphia County,PA,27.112232030264817
19120,Philadelphia County,PA,16.897856242118536
19122,Philadelphia County,PA,46.46910466582598
19124,Philadelphia County,PA,7.755359394703657
19132,Philadelphia County,PA,4.854981084489282
19138,Philadelphia County,PA,42.4968474148802
19141,Philadelphia County,PA,6.6834804539722565
19142,Philadelphia County,PA,11.979823455233293
19143,Philadelphia County,PA,7.187894073139975
19144,Philadelphia County,PA,3.6569987389659517
19145,Philadelphia County,PA,30.075662042875155
19147,Philadelphia County,PA,17.402269861286253
19149,Philadelphia County,PA,29.57124842370744
19151,Philadelphia County,PA,13.114754098360656
19320,Chester County,PA,8.575031525851198
19363,Chester County,PA,58.00756620428752
19405,Montgomery County,PA,97.47793190416141
19446,Montgomery County,PA,14.312736443883987
19465,Chester County,PA,53.089533417402265
19473,Montgomery County,PA,80.89533417402271
19518,Berks County,PA,49.62168978562421
19602,Berks County,PA,10.970996216897856
19604,Berks County,PA,39.974779319041616
02909,Providence County,RI,18.095838587641865
29150,Sumter County,SC,36.12862547288776
29301,Spartanburg County,SC,31.525851197982348
29307,Spartanburg County,SC,62.10592686002522
29340,Cherokee County,SC,71.56368221941992
29349,Spartanburg County,SC,24.59016393442623
29379,Union County,SC,32.849936948297604
29403,Charleston County,SC,44.51450189155107
29407,Charleston County,SC,38.839848675914254
29445,Berkeley County,SC,58.82723833543506
29479,Berkeley County,SC,90.92055485498108
29485,Dorchester County,SC,25.914249684741485
29488,Colleton County,SC,35.24590163934426
29565,Dillon County,SC,91.17276166456494
29575,Horry County,SC,90.41614123581337
29611,Greenville County,SC,12.421185372005045
29624,Anderson County,SC,37.64186633039092
29625,Anderson County,SC,32.59773013871374
29627,Anderson County,SC,59.962168978562424
29650,Greenville County,SC,38.14627994955864
29651,Greenville County,SC,20.302648171500632
29671,Pickens County,SC,50
29690,Greenville County,SC,39.78562421185372
29706,Chester County,SC,34.36317780580075
29720,Lancaster County,SC,14.627994955863807
29910,Beaufort County,SC,94.51450189155108
57104,Minnehaha County,SD,28.688524590163933
57380,Charles Mix County,SD,97.60403530895334
57401,Brown County,SD,16.960907944514503
37013,Davidson County,TN,9.520807061790668
37042,Montgomery County,TN,73.70744010088272
37055,Dickson County,TN,23.139974779319044
37066,Sumner County,TN,36.63303909205548
37073,Robertson County,TN,86.44388398486758
37128,Rutherford County,TN,61.979823455233294
37129,Rutherford County,TN,16.39344262295082
37130,Rutherford County,TN,19.798234552332914
37160,Bedford County,TN,51.9546027742749
37186,Sumner County,TN,66.01513240857503
37188,Robertson County,TN,84.23707440100883
37207,Davidson County,TN,11.601513240857503
37209,Davidson County,TN,65.19546027742749
37211,Davidson County,TN,18.53720050441362
37217,Davidson County,TN,43.190416141235815
37321,Rhea County,TN,28.18411097099622
37343,Hamilton County,TN,21.94199243379571
37347,Marion County,TN,78.49936948297605
37355,Coffee County,TN,67.52837326607818
37388,Coffee County,TN,33.102143757881464
37397,Marion County,TN,84.36317780580076
37402,Hamilton County,TN,96.46910466582598
37412,Hamilton County,TN,52.459016393442624
37421,Hamilton County,TN,26.544766708701133
37659,Washington County,TN,68.9155107187894
37846,Loudon County,TN,96.21689785624213
37915,Knox County,TN,94.19924337957126
37920,Knox County,TN,11.03404791929382
38039,Hardeman County,TN,97.73013871374528
38053,Shelby County,TN,48.80201765447667
38116,Shelby County,TN,17.276166456494323
38127,Shelby County,TN,8.32282471626734
38141,Shelby County,TN,47.98234552332913
38242,Henry County,TN,77.30138713745272
38358,Gibson County,TN,57.692307692307686
38372,Hardin County,TN,51.13493064312736
38401,Maury County,TN,71.37452711223203
38462,Lewis County,TN,69.79823455233291
38506,Putnam County,TN,72.38335435056746
38551,Clay County,TN,95.39722572509459
38570,Overton County,TN,69.2938209331652
75007,Denton County,TX,48.0453972257251
75035,Collin County,TX,38.272383354350566
75040,Dallas County,TX,17.023959646910466
75041,Dallas County,TX,45.08196721311475
75044,Dallas County,TX,55.359394703656996
75051,Dallas County,TX,93.25346784363178
75052,Dallas County,TX,49.93694829760403
75068,Denton County,TX,31.46279949558638
75070,Collin County,TX,15.132408575031524
75092,Grayson County,TX,76.98612862547289
75126,Kaufman County,TX,31.21059268600252
75142,Kaufman County,TX,62.6733921815889
75154,Ellis County,TX,44.955863808322825
75201,Dallas County,TX,78.37326607818412
75208,Dallas County,TX,62.35813366960908
75214,Dallas County,TX,44.82976040353089
75216,Dallas County,TX,5.485498108448928
75217,Dallas County,TX,8.19672131147541
75218,Dallas County,TX,74.90542244640605
75223,Dallas County,TX,85.62421185372006
75225,Dallas County,TX,76.10340479192939
75240,Dallas County,TX,69.04161412358134
75243,Dallas County,TX,13.556116015132408
75248,Dallas County,TX,58.95334174022698
75254,Dallas County,TX,94.64060529634301
75442,Collin County,TX,80.13871374527112
75570,Bowie County,TX,91.36191677175283
75602,Gregg County,TX,59.20554854981085
75652,Rusk County,TX,70.36569987389659
75703,Smith County,TX,32.03026481715006
75941,Angelina County,TX,94.89281210592686
75951,Jasper County,TX,50.81967213114754
76009,Johnson County,TX,63.61916771752837
76018,Tarrant County,TX,58.70113493064313
76020,Tarrant County,TX,28.814627994955867
76022,Tarrant County,TX,82.03026481715007
76034,Tarrant County,TX,77.80580075662043
76039,Tarrant County,TX,37.452711223203025
76048,Hood County,TX,44.388398486759144
76058,Johnson County,TX,57.12484237074401
76065,Ellis County,TX,71.2484237074401
76082,Parker County,TX,57.5031525851198
76084,Johnson County,TX,89.72257250945775
76102,Tarrant County,TX,95.14501891551072
76106,Tarrant County,TX,48.23455233291299
76107,Tarrant County,TX,72.63556116015133
76110,Tarrant County,TX,43.94703656998739
76112,Tarrant County,TX,13.17780580075662
76118,Tarrant County,TX,83.85876418663304
76119,Tarrant County,TX,30.832282471626733
76120,Tarrant County,TX,52.08070617906684
76131,Tarrant County,TX,51.45018915510718
76135,Tarrant County,TX,58.259773013871374
76137,Tarrant County,TX,19.924337957124845
76207,Denton County,TX,80.20176544766709
76258,Denton County,TX,92.74905422446406
76442,Comanche County,TX,88.52459016393442
76457,Hamilton County,TX,99.74779319041615
76513,Bell County,TX,7.3139974779319035
76541,Bell County,TX,46.406052963430014
76549,Bell County,TX,22.57250945775536
76708,McLennan County,TX,47.793190416141236
76903,Tom Green County,TX,42.62295081967213
77007,Harris County,TX,53.34174022698613
77008,Harris County,TX,62.295081967213115
77015,Harris County,TX,70.93316519546028
77022,Harris County,TX,56.05296343001262
77035,Harris County,TX,41.92938209331652
77037,Harris County,TX,89.59646910466581
77043,Harris County,TX,97.47793190416141
77055,Harris County,TX,59.33165195460277
77064,Harris County,TX,36.31778058007566
77068,Harris County,TX,93.0643127364439
77071,Harris County,TX,92.11853720050442
77073,Harris County,TX,54.60277427490542
77078,Harris County,TX,75.66204287515762
77084,Harris County,TX,41.488020176544765
77088,Harris County,TX,63.68221941992434
77093,Harris County,TX,85.750315258511975
77301,Montgomery County,TX,56.62042875157629
77302,Montgomery County,TX,69.60907944514501
77346,Harris County,TX,20.617906683480456
77375,Harris County,TX,20.870113493064313
77380,Montgomery County,TX,71.62673392181588
77386,Montgomery County,TX,34.48928121059269
77396,Harris County,TX,37.57881462799496
77406,Fort Bend County,TX,45.58638083228247
77449,Harris County,TX,10.655737704918032
77459,Fort Bend County,TX,22.257250945775535
77474,Austin County,TX,93.00126103404793
77503,Harris County,TX,92.3076923076923
77506,Harris County,TX,85.11979823455233
77520,Harris County,TX,74.33795712484238
77523,Chambers County,TX,58.448928121059275
77573,Galveston County,TX,8.89029003783102
77584,Brazoria County,TX,9.709962168978564
77630,Orange County,TX,41.6141235813367
77642,Jefferson County,TX,28.247162673392186
77657,Hardin County,TX,58.13366960907944
77662,Orange County,TX,86.63303909205548
77665,Chambers County,TX,95.90163934426229
77701,Jefferson County,TX,79.19293820933166
77706,Jefferson County,TX,49.18032786885246
77845,Brazos County,TX,9.079445145018916
77901,Victoria County,TX,24.08575031525851
77904,Victoria County,TX,40.16393442622951
78006,Kendall County,TX,84.04791929382094
78046,Webb County,TX,15.069356872635561
78069,Atascosa County,TX,90.41614123581337
78109,Bexar County,TX,48.61286254728878
78130,Comal County,TX,21.878940731399748
78210,Bexar County,TX,23.896595208070618
78220,Bexar County,TX,61.66456494325347
78221,Bexar County,TX,46.27994955863809
78240,Bexar County,TX,44.073139974779316
78242,Bexar County,TX,48.991172761664565
78380,Nueces County,TX,85.24590163934425
78412,Nueces County,TX,53.84615384615385
78501,Hidalgo County,TX,47.730138713745276
78516,Hidalgo County,TX,62.16897856242119
78521,Cameron County,TX,32.53467843631778
78542,Hidalgo County,TX,42.11853720050441
78550,Cameron County,TX,43.44262295081967
78552,Cameron County,TX,69.04161412358134
78570,Hidalgo County,TX,69.86128625472888
78574,Hidalgo County,TX,68.7263556116015
78577,Hidalgo County,TX,26.733921815889026
78582,Starr County,TX,67.84363177805801
78586,Cameron County,TX,45.018915510718784
78589,Hidalgo County,TX,39.84867591424969
78596,Hidalgo County,TX,72.25725094577552
78599,Hidalgo County,TX,94.76670870113493
78613,Williamson County,TX,33.16519546027743
78621,Bastrop County,TX,69.4829760403531
78666,Hays County,TX,26.04035308953342
78681,Williamson County,TX,93.69482976040354
78717,Williamson County,TX,83.66960907944514
78748,Travis County,TX,70.30264817150062
78758,Travis County,TX,89.34426229508196
78840,Val Verde County,TX,28.121059268600252
79107,Potter County,TX,66.83480453972257
79382,Lubbock County,TX,96.65825977301387
79412,Lubbock County,TX,60.15132408575031
79603,Taylor County,TX,29.94955863808323
79605,Taylor County,TX,38.272383354350566
79705,Midland County,TX,25.72509457755359
79762,Ector County,TX,77.74274905422448
79925,El Paso County,TX,89.281210592686
79928,El Paso County,TX,49.810844892812106
79936,El Paso County,TX,12.105926860025221
84005,Utah County,UT,79.50819672131148
84025,Davis County,UT,95.46027742749055
84045,Utah County,UT,76.67087011349307
84054,Davis County,UT,73.89659520807061
84062,Utah County,UT,57.944514501891554
84075,Davis County,UT,71.12232030264816
84095,Salt Lake County,UT,84.61538461538461
84120,Salt Lake County,UT,6.557377049180328
84401,Weber County,UT,43.820933165195456
84404,Weber County,UT,20.239596469104665
84713,Beaver County,UT,99.87389659520807
20106,Culpeper County,VA,97.22572509457756
20136,Prince William County,VA,88.77679697351829
20164,Loudoun County,VA,44.76670870113493
20191,Fairfax County,VA,73.26607818411097
20194,Fairfax County,VA,89.09205548549811
22032,Fairfax County,VA,64.62799495586381
22041,Fairfax County,VA,70.05044136191677
22124,Fairfax County,VA,86.88524590163934
22152,Fairfax County,VA,56.30517023959647
22206,Arlington County,VA,58.51197982345523
22207,Arlington County,VA,54.2875157629256
22302,Alexandria city,VA,93.31651954602775
22546,Caroline County,VA,72.00504413619167
22554,Stafford County,VA,64.06052963430012
22602,Frederick County,VA,79.88650693568727
22801,Harrisonburg city,VA,73.51828499369482
22802,Harrisonburg city,VA,23.455233291298867
23451,Virginia Beach city,VA,40.41614123581337
23454,Virginia Beach city,VA,28.43631778058008
23456,Virginia Beach city,VA,58.63808322824716
23462,Virginia Beach city,VA,79.00378310214376
23464,Virginia Beach city,VA,15.825977301387137
23503,Norfolk city,VA,48.23455233291299
23504,Norfolk city,VA,25.472887767969738
23509,Norfolk city,VA,42.43379571248423
23605,Newport News city,VA,50.69356872635561
23701,Portsmouth city,VA,49.05422446406053
23703,Portsmouth city,VA,56.11601513240857
23805,Petersburg city,VA,54.35056746532156
23831,Chesterfield County,VA,37.83102143757881
23851,Franklin city,VA,58.95334174022698
23860,Hopewell city,VA,31.084489281210594
24013,Roanoke city,VA,77.36443883984867
24016,Roanoke city,VA,55.10718789407314
24112,Henry County,VA,16.204287515762925
24151,Franklin County,VA,46.15384615384615
24277,Lee County,VA,91.48802017654477
24641,Tazewell County,VA,80.89533417402271
98026,Snohomish County,WA,34.80453972257251
98031,King County,WA,42.24464060529634
98037,Snohomish County,WA,62.79949558638083
98042,King County,WA,49.11727616645649
98058,King County,WA,65.06935687263557
98115,King County,WA,36.69609079445145
98133,King County,WA,27.742749054224465
98166,King County,WA,79.57124842370744
98168,King County,WA,65.69987389659521
98226,Whatcom County,WA,67.71752837326608
98270,Snohomish County,WA,17.843631778058008
98271,Snohomish County,WA,45.14501891551072
98272,Snohomish County,WA,58.38587641866331
98275,Snohomish County,WA,71.75283732660782
98346,Kitsap County,WA,95.27112232030265
98387,Pierce County,WA,22.82471626733922
98445,Pierce County,WA,49.62168978562421
98632,Cowlitz County,WA,18.221941992433795
98642,Clark County,WA,97.98234552332913
98930,Yakima County,WA,86.75914249684742
99109,Stevens County,WA,98.17150063051703
99163,Whitman County,WA,74.21185372005044
99216,Spokane County,WA,64.8171500630517
99336,Benton County,WA,11.664564943253469
99337,Benton County,WA,25.535939470365697
99362,Walla Walla County,WA,25.283732660781844
20002,District of Columbia,DC,4.4136191677175285
20017,District of Columbia,DC,54.224464060529634
20032,District of Columbia,DC,23.833543505674655
25177,Kanawha County,WV,12.35813366960908
25311,Kanawha County,WV,69.73518284993695
25404,Berkeley County,WV,38.96595208070618
25526,Putnam County,WV,38.14627994955864
25801,Raleigh County,WV,12.673392181588902
26003,Ohio County,WV,24.14880201765448
26041,Marshall County,WV,76.35561160151325
26101,Wood County,WV,3.8461538461538463
26301,Harrison County,WV,5.926860025220681
26354,Taylor County,WV,78.62547288776797
26505,Monongalia County,WV,8.764186633039092
26508,Monongalia County,WV,3.909205548549811
53081,Sheboygan County,WI,15.636822194199244
53092,Ozaukee County,WI,83.54350567465322
53097,Ozaukee County,WI,92.81210592686003
53098,Dodge County,WI,86.56998738965952
53110,Milwaukee County,WI,31.651954602774275
53143,Kenosha County,WI,17.528373266078184
53204,Milwaukee County,WI,27.364438839848678
53205,Milwaukee County,WI,15.699873896595207
53210,Milwaukee County,WI,30.895334174022697
53214,Milwaukee County,WI,11.28625472887768
53215,Milwaukee County,WI,3.467843631778058
53223,Milwaukee County,WI,15.762925598991174
53225,Milwaukee County,WI,10.529634300126103
53228,Milwaukee County,WI,71.18537200504413
53511,Rock County,WI,17.150063051702396
53530,Lafayette County,WI,96.21689785624213
53566,Green County,WI,51.891551071878936
54017,St. Croix County,WI,88.9029003783102
54304,Brown County,WI,20.996216897856243
54476,Marathon County,WI,76.796973518285
54520,Forest County,WI,98.10844892812106
54914,Outagamie County,WI,22.194199243379572
