ZipCode,county,state,Youth,Pediatric,Adult,Retirement
35010,Tallapoosa County,AL,NA,NA,38.108108108108105,NA
35016,Marshall County,AL,NA,NA,55.945945945945944,NA
35077,Cullman County,AL,68.9969604863222,NA,NA,NA
35126,Jefferson County,AL,NA,60,NA,NA
35160,Talladega County,AL,NA,NA,NA,79.36046511627907
35208,Jefferson County,AL,NA,NA,41.351351351351354,NA
35211,Jefferson County,AL,NA,NA,49.27927927927928,NA
35216,Jefferson County,AL,NA,NA,57.567567567567565,NA
35226,Jefferson County,AL,NA,NA,51.17117117117117,NA
35550,Walker County,AL,NA,NA,83.96396396396396,NA
35580,Walker County,AL,NA,NA,94.5945945945946,NA
35640,Morgan County,AL,23.10030395136778,NA,NA,NA
35654,Franklin County,AL,NA,NA,87.92792792792793,NA
35674,Colbert County,AL,NA,NA,37.65765765765766,52.32558139534884
35754,Morgan County,AL,NA,NA,90.72072072072072,NA
35756,Limestone County,AL,74.16413373860182,NA,NA,NA
35959,Cherokee County,AL,NA,96.3380281690141,NA,NA
35967,DeKalb County,AL,48.93617021276596,NA,NA,NA
36033,Butler County,AL,NA,NA,98.1081081081081,NA
36054,Elmore County,AL,NA,84.22535211267605,NA,NA
36201,Calhoun County,AL,NA,NA,29.81981981981982,NA
36268,Talladega County,AL,NA,94.08450704225352,NA,NA
36271,Calhoun County,AL,NA,NA,89.63963963963964,NA
36580,Baldwin County,AL,NA,NA,NA,88.0813953488372
36695,Mobile County,AL,NA,NA,36.846846846846844,NA
36862,Chambers County,AL,NA,96.3380281690141,NA,NA
36867,Russell County,AL,NA,NA,72.43243243243244,45.93023255813954
99504,Anchorage Municipality,AK,NA,NA,58.108108108108105,NA
99507,Anchorage Municipality,AK,NA,61.69014084507042,NA,NA
99901,Ketchikan Gateway Borough,AK,NA,NA,76.3963963963964,NA
85008,Maricopa County,AZ,NA,NA,45.585585585585584,NA
85014,Maricopa County,AZ,NA,NA,NA,63.08139534883721
85019,Maricopa County,AZ,NA,NA,73.6036036036036,NA
85022,Maricopa County,AZ,NA,49.29577464788733,NA,NA
85042,Maricopa County,AZ,NA,NA,29.27927927927928,61.337209302325576
85053,Maricopa County,AZ,31.00303951367781,NA,NA,NA
85123,Pinal County,AZ,32.21884498480243,NA,NA,NA
85142,Maricopa County,AZ,10.638297872340425,NA,NA,NA
85204,Maricopa County,AZ,NA,29.014084507042252,NA,NA
85207,Maricopa County,AZ,NA,NA,29.099099099099103,NA
85212,Maricopa County,AZ,48.93617021276596,NA,NA,NA
85233,Maricopa County,AZ,44.680851063829785,NA,NA,NA
85234,Maricopa County,AZ,NA,NA,34.77477477477478,NA
85255,Maricopa County,AZ,43.76899696048632,NA,NA,NA
85283,Maricopa County,AZ,NA,NA,52.792792792792795,NA
85296,Maricopa County,AZ,NA,NA,69.0990990990991,NA
85323,Maricopa County,AZ,NA,NA,34.14414414414414,NA
85339,Maricopa County,AZ,10.94224924012158,NA,NA,NA
85340,Maricopa County,AZ,NA,NA,68.37837837837839,NA
85353,Maricopa County,AZ,NA,NA,35.13513513513514,NA
85375,Maricopa County,AZ,NA,NA,NA,24.12790697674419
85550,Graham County,AZ,NA,NA,76.75675675675676,NA
85621,Santa Cruz County,AZ,46.504559270516715,NA,NA,NA
85641,Pima County,AZ,NA,NA,61.8018018018018,NA
85706,Pima County,AZ,NA,NA,3.423423423423423,NA
85719,Pima County,AZ,NA,NA,36.21621621621622,NA
85735,Pima County,AZ,NA,NA,71.08108108108108,NA
85756,Pima County,AZ,NA,NA,37.47747747747748,NA
85941,Apache County,AZ,NA,NA,14.684684684684685,NA
86043,Navajo County,AZ,NA,NA,98.73873873873875,NA
86045,Coconino County,AZ,NA,3.0985915492957745,NA,NA
86323,Yavapai County,AZ,NA,NA,55.13513513513514,NA
86334,Yavapai County,AZ,NA,NA,97.11711711711712,NA
86401,Mohave County,AZ,NA,63.94366197183099,10.54054054054054,NA
86442,Mohave County,AZ,NA,76.90140845070422,NA,NA
71730,Union County,AR,NA,NA,NA,31.3953488372093
71957,Montgomery County,AR,98.48024316109422,NA,NA,NA
72076,Pulaski County,AR,NA,NA,52.702702702702695,NA
72143,White County,AR,NA,NA,39.0990990990991,NA
72450,Greene County,AR,NA,NA,22.792792792792792,NA
72761,Benton County,AR,52.58358662613982,NA,NA,NA
72941,Sebastian County,AR,NA,NA,92.25225225225225,NA
90007,Los Angeles County,CA,NA,NA,65.67567567567568,NA
90016,Los Angeles County,CA,NA,44.7887323943662,NA,NA
90018,Los Angeles County,CA,65.65349544072949,NA,39.81981981981982,NA
90023,Los Angeles County,CA,NA,NA,39.909909909909906,NA
90032,Los Angeles County,CA,NA,NA,51.53153153153153,NA
90033,Los Angeles County,CA,NA,36.33802816901409,46.57657657657658,NA
90034,Los Angeles County,CA,NA,NA,NA,57.55813953488372
90037,Los Angeles County,CA,NA,NA,39.63963963963964,NA
90044,Los Angeles County,CA,NA,17.74647887323944,NA,NA
90061,Los Angeles County,CA,NA,NA,74.50450450450451,NA
90063,Los Angeles County,CA,NA,NA,54.234234234234236,NA
90201,Los Angeles County,CA,NA,NA,33.153153153153156,NA
90242,Los Angeles County,CA,NA,NA,NA,62.5
90249,Los Angeles County,CA,NA,NA,83.87387387387388,NA
90262,Los Angeles County,CA,NA,20.56338028169014,NA,NA
90266,Los Angeles County,CA,NA,NA,NA,52.90697674418605
90280,Los Angeles County,CA,NA,24.225352112676056,NA,NA
90302,Los Angeles County,CA,NA,NA,NA,82.26744186046511
90660,Los Angeles County,CA,NA,46.76056338028169,NA,NA
90744,Los Angeles County,CA,NA,NA,NA,85.75581395348837
90802,Los Angeles County,CA,78.11550151975683,NA,NA,NA
90815,Los Angeles County,CA,NA,96.3380281690141,NA,NA
91202,Los Angeles County,CA,NA,NA,NA,70.05813953488372
91360,Ventura County,CA,NA,NA,NA,53.779069767441854
91390,Los Angeles County,CA,NA,NA,94.32432432432432,NA
91401,Los Angeles County,CA,NA,NA,68.46846846846847,NA
91402,Los Angeles County,CA,NA,NA,30,NA
91405,Los Angeles County,CA,NA,NA,NA,47.383720930232556
91506,Los Angeles County,CA,81.15501519756839,NA,NA,NA
91606,Los Angeles County,CA,NA,NA,63.693693693693696,NA
91709,San Bernardino County,CA,NA,NA,35.945945945945944,NA
91745,Los Angeles County,CA,NA,NA,70.45045045045045,NA
91748,Los Angeles County,CA,NA,NA,72.34234234234235,NA
91768,Los Angeles County,CA,NA,NA,77.74774774774775,NA
91910,San Diego County,CA,NA,NA,61.261261261261254,NA
91911,San Diego County,CA,NA,NA,26.486486486486488,NA
91945,San Diego County,CA,NA,NA,NA,72.96511627906976
92020,San Diego County,CA,NA,NA,24.864864864864867,NA
92027,San Diego County,CA,NA,NA,50.27027027027027,NA
92054,San Diego County,CA,NA,NA,46.57657657657658,NA
92056,San Diego County,CA,NA,NA,57.747747747747745,NA
92058,San Diego County,CA,68.08510638297872,NA,NA,NA
92069,San Diego County,CA,NA,NA,NA,59.59302325581395
92108,San Diego County,CA,NA,NA,87.29729729729729,NA
92113,San Diego County,CA,NA,NA,60.630630630630634,37.7906976744186
92117,San Diego County,CA,NA,NA,59.909909909909906,NA
92173,San Diego County,CA,NA,58.028169014084504,NA,NA
92234,Riverside County,CA,NA,NA,47.207207207207205,4.069767441860465
92250,Imperial County,CA,89.05775075987842,80.56338028169014,NA,NA
92311,San Bernardino County,CA,NA,NA,38.288288288288285,NA
92324,San Bernardino County,CA,NA,NA,23.333333333333332,NA
92335,San Bernardino County,CA,41.33738601823708,NA,NA,NA
92394,San Bernardino County,CA,NA,54.647887323943664,NA,NA
92399,San Bernardino County,CA,NA,NA,NA,22.093023255813954
92407,San Bernardino County,CA,NA,NA,20.54054054054054,NA
92503,Riverside County,CA,NA,NA,NA,23.837209302325583
92508,Riverside County,CA,85.71428571428571,NA,NA,NA
92530,Riverside County,CA,NA,NA,NA,61.627906976744185
92543,Riverside County,CA,NA,66.47887323943662,NA,NA
92557,Riverside County,CA,NA,NA,38.46846846846847,NA
92563,Riverside County,CA,NA,NA,NA,45.348837209302324
92570,Riverside County,CA,NA,NA,44.68468468468468,NA
92571,Riverside County,CA,NA,NA,42.972972972972975,NA
92582,Riverside County,CA,NA,NA,75.85585585585586,NA
92584,Riverside County,CA,NA,NA,47.74774774774775,NA
92592,Riverside County,CA,NA,NA,NA,67.44186046511628
92595,Riverside County,CA,NA,NA,43.333333333333336,NA
92627,Orange County,CA,NA,NA,23.513513513513516,NA
92647,Orange County,CA,35.56231003039514,NA,NA,22.96511627906977
92653,Orange County,CA,46.504559270516715,NA,NA,NA
92656,Orange County,CA,NA,NA,36.3963963963964,NA
92660,Orange County,CA,52.88753799392097,NA,NA,NA
92688,Orange County,CA,NA,NA,38.828828828828826,92.73255813953489
92704,Orange County,CA,NA,NA,NA,37.2093023255814
92707,Orange County,CA,NA,NA,45.22522522522522,NA
92801,Orange County,CA,NA,16.338028169014084,NA,NA
92804,Orange County,CA,NA,NA,47.02702702702703,NA
92840,Orange County,CA,NA,45.07042253521127,NA,40.98837209302326
92841,Orange County,CA,NA,NA,91.44144144144144,NA
92886,Orange County,CA,NA,77.74647887323944,32.612612612612615,NA
93012,Ventura County,CA,NA,NA,71.26126126126127,NA
93015,Ventura County,CA,NA,68.73239436619718,NA,NA
93021,Ventura County,CA,NA,NA,62.70270270270271,NA
93030,Ventura County,CA,13.98176291793313,NA,NA,NA
93033,Ventura County,CA,NA,NA,13.063063063063062,NA
93103,Santa Barbara County,CA,NA,NA,86.66666666666667,NA
93210,Fresno County,CA,NA,NA,79.54954954954955,NA
93223,Tulare County,CA,NA,93.80281690140845,95.76576576576576,NA
93277,Tulare County,CA,62.00607902735562,55.774647887323944,NA,NA
93291,Tulare County,CA,NA,NA,57.027027027027025,39.825581395348834
93308,Kern County,CA,NA,58.028169014084504,NA,NA
93312,Kern County,CA,NA,NA,41.26126126126126,NA
93444,San Luis Obispo County,CA,NA,NA,63.06306306306306,NA
93454,Santa Barbara County,CA,NA,NA,32.79279279279279,NA
93458,Santa Barbara County,CA,NA,NA,16.936936936936934,NA
93550,Los Angeles County,CA,42.24924012158054,NA,NA,NA
93551,Los Angeles County,CA,NA,NA,57.927927927927925,NA
93620,Merced County,CA,NA,NA,93.78378378378378,NA
93625,Fresno County,CA,97.26443768996961,NA,NA,NA
93657,Fresno County,CA,NA,8.450704225352112,NA,48.25581395348838
93662,Fresno County,CA,NA,NA,59.36936936936937,NA
93701,Fresno County,CA,NA,NA,78.73873873873873,NA
93702,Fresno County,CA,NA,9.295774647887324,NA,NA
93703,Fresno County,CA,NA,19.154929577464788,NA,NA
93705,Fresno County,CA,NA,NA,NA,47.96511627906977
93706,Fresno County,CA,NA,NA,25.675675675675674,NA
94002,San Mateo County,CA,NA,NA,59.009009009009006,NA
94044,San Mateo County,CA,NA,NA,55.4954954954955,NA
94063,San Mateo County,CA,NA,NA,86.75675675675676,NA
94066,San Mateo County,CA,NA,NA,47.387387387387385,NA
94080,San Mateo County,CA,NA,NA,34.68468468468468,NA
94124,San Francisco County,CA,NA,NA,NA,22.38372093023256
94509,Contra Costa County,CA,NA,NA,24.684684684684687,NA
94513,Contra Costa County,CA,22.796352583586625,NA,NA,NA
94521,Contra Costa County,CA,37.08206686930091,NA,NA,NA
94536,Alameda County,CA,NA,62.25352112676056,NA,NA
94538,Alameda County,CA,NA,65.35211267605634,NA,NA
94541,Alameda County,CA,NA,NA,26.846846846846844,NA
94544,Alameda County,CA,NA,NA,NA,14.825581395348838
94553,Contra Costa County,CA,NA,NA,44.5945945945946,NA
94601,Alameda County,CA,NA,18.30985915492958,NA,NA
94602,Alameda County,CA,85.41033434650456,NA,NA,NA
94806,Contra Costa County,CA,NA,NA,69.72972972972973,NA
94903,Marin County,CA,NA,NA,79.0990990990991,NA
94928,Sonoma County,CA,NA,NA,65.4054054054054,NA
95076,Santa Cruz County,CA,NA,NA,22.25225225225225,NA
95125,Santa Clara County,CA,NA,NA,NA,23.546511627906977
95127,Santa Clara County,CA,NA,NA,NA,49.127906976744185
95202,San Joaquin County,CA,NA,NA,86.93693693693693,NA
95215,San Joaquin County,CA,80.85106382978722,NA,NA,NA
95228,Calaveras County,CA,NA,NA,94.86486486486486,NA
95240,San Joaquin County,CA,NA,NA,18.55855855855856,NA
95326,Stanislaus County,CA,NA,NA,92.61261261261261,NA
95337,San Joaquin County,CA,NA,NA,42.61261261261261,NA
95340,Merced County,CA,NA,33.23943661971831,NA,NA
95350,Stanislaus County,CA,NA,52.112676056338024,52.792792792792795,NA
95351,Stanislaus County,CA,NA,NA,NA,42.44186046511628
95361,Stanislaus County,CA,NA,84.78873239436619,NA,NA
95380,Stanislaus County,CA,NA,NA,30.630630630630627,NA
95407,Sonoma County,CA,NA,72.95774647887325,NA,NA
95472,Sonoma County,CA,76.89969604863222,NA,NA,NA
95501,Humboldt County,CA,NA,89.5774647887324,NA,NA
95503,Humboldt County,CA,NA,NA,51.621621621621614,NA
95603,Placer County,CA,NA,NA,70.990990990991,NA
95610,Sacramento County,CA,52.88753799392097,NA,48.91891891891892,NA
95670,Sacramento County,CA,NA,NA,36.93693693693694,NA
95726,El Dorado County,CA,NA,NA,83.6036036036036,NA
95815,Sacramento County,CA,NA,NA,NA,66.27906976744185
95823,Sacramento County,CA,NA,NA,14.324324324324325,NA
95831,Sacramento County,CA,NA,NA,60.450450450450454,NA
95841,Sacramento County,CA,NA,89.85915492957747,NA,NA
95926,Butte County,CA,20.66869300911854,NA,36.75675675675676,NA
95954,Butte County,CA,NA,NA,43.78378378378379,NA
95959,Nevada County,CA,NA,NA,NA,54.360465116279066
95966,Butte County,CA,NA,23.661971830985916,NA,NA
95973,Butte County,CA,40.121580547112465,NA,NA,26.16279069767442
95993,Sutter County,CA,NA,NA,50,NA
96161,Nevada County,CA,NA,NA,NA,75.29069767441861
80003,Jefferson County,CO,NA,46.76056338028169,NA,NA
80011,Arapahoe County,CO,NA,NA,8.82882882882883,NA
80013,Arapahoe County,CO,NA,NA,11.17117117117117,NA
80014,Arapahoe County,CO,NA,NA,33.78378378378378,NA
80015,Arapahoe County,CO,NA,NA,20.45045045045045,NA
80022,Adams County,CO,NA,NA,19.72972972972973,NA
80109,Douglas County,CO,NA,NA,72.88288288288288,NA
80126,Douglas County,CO,NA,NA,54.59459459459459,NA
80129,Douglas County,CO,34.04255319148936,NA,NA,NA
80204,Denver County,CO,NA,NA,24.324324324324326,NA
80205,Denver County,CO,NA,46.76056338028169,NA,NA
80220,Denver County,CO,NA,74.64788732394366,NA,NA
80223,Denver County,CO,55.62310030395137,NA,NA,NA
80234,Adams County,CO,NA,NA,NA,69.47674418604652
80260,Adams County,CO,NA,NA,49.81981981981982,NA
80303,Boulder County,CO,NA,NA,82.88288288288288,NA
80401,Jefferson County,CO,NA,85.63380281690141,NA,NA
80504,Boulder County,CO,NA,NA,67.65765765765765,NA
80528,Larimer County,CO,NA,NA,83.24324324324324,NA
80550,Weld County,CO,NA,NA,31.891891891891895,NA
80621,Weld County,CO,NA,NA,78.55855855855856,NA
80631,Weld County,CO,NA,NA,55.85585585585585,NA
80759,Yuma County,CO,NA,NA,99.90990990990991,NA
80910,El Paso County,CO,NA,NA,27.117117117117118,61.91860465116279
80911,El Paso County,CO,NA,NA,44.32432432432433,NA
80916,El Paso County,CO,NA,NA,38.37837837837838,NA
80920,El Paso County,CO,NA,NA,61.44144144144145,NA
81006,Pueblo County,CO,NA,NA,75.76576576576576,NA
81122,La Plata County,CO,NA,NA,91.26126126126127,NA
81201,Chaffee County,CO,NA,NA,84.41441441441442,NA
81212,Fremont County,CO,NA,NA,75.22522522522522,NA
81403,Montrose County,CO,NA,NA,81.89189189189189,NA
81501,Mesa County,CO,NA,NA,47.56756756756757,NA
81507,Mesa County,CO,NA,NA,90.09009009009009,NA
81521,Mesa County,CO,55.319148936170215,NA,NA,NA
06010,Hartford County,CT,NA,NA,2.6126126126126126,NA
06040,Hartford County,CT,NA,NA,11.441441441441441,NA
06051,Hartford County,CT,NA,NA,4.504504504504505,NA
06076,Tolland County,CT,NA,NA,77.83783783783784,NA
06082,Hartford County,CT,NA,NA,21.891891891891895,NA
06112,Hartford County,CT,43.46504559270517,NA,NA,NA
06255,Windham County,CT,NA,NA,79.27927927927928,NA
06260,Windham County,CT,NA,NA,33.24324324324324,NA
06401,New Haven County,CT,NA,NA,32.88288288288289,NA
06418,New Haven County,CT,81.45896656534954,NA,NA,NA
06457,Middlesex County,CT,NA,NA,8.91891891891892,NA
06461,New Haven County,CT,NA,NA,NA,78.19767441860465
06480,Middlesex County,CT,NA,NA,74.95495495495496,NA
06484,Fairfield County,CT,NA,NA,84.32432432432432,NA
06489,Hartford County,CT,NA,NA,32.52252252252252,NA
06498,Middlesex County,CT,NA,97.74647887323944,NA,NA
06513,New Haven County,CT,17.62917933130699,7.887323943661972,5.045045045045045,NA
06604,Fairfield County,CT,NA,NA,22.882882882882882,NA
06615,Fairfield County,CT,NA,NA,52.972972972972975,NA
06790,Litchfield County,CT,18.84498480243161,NA,NA,NA
06810,Fairfield County,CT,NA,NA,18.46846846846847,NA
06820,Fairfield County,CT,63.525835866261396,NA,NA,NA
06840,Fairfield County,CT,68.69300911854104,NA,NA,NA
06850,Fairfield County,CT,NA,NA,75.58558558558559,NA
06854,Fairfield County,CT,NA,NA,48.73873873873874,NA
06877,Fairfield County,CT,NA,NA,81.62162162162161,NA
06883,Fairfield County,CT,97.56838905775076,NA,NA,NA
06896,Fairfield County,CT,NA,NA,NA,95.93023255813954
06902,Fairfield County,CT,NA,NA,NA,12.209302325581394
19701,New Castle County,DE,NA,NA,30.45045045045045,NA
19707,New Castle County,DE,NA,NA,NA,89.53488372093024
19711,New Castle County,DE,NA,NA,32.972972972972975,NA
19802,New Castle County,DE,NA,NA,NA,64.24418604651163
19805,New Castle County,DE,NA,NA,3.6936936936936933,NA
19809,New Castle County,DE,93.3130699088146,NA,NA,NA
19945,Sussex County,DE,NA,NA,NA,65.69767441860465
19947,Sussex County,DE,NA,NA,47.83783783783784,NA
19971,Sussex County,DE,NA,NA,75.13513513513513,NA
32025,Columbia County,FL,NA,NA,40.18018018018018,NA
32040,Baker County,FL,NA,84.22535211267605,NA,NA
32065,Clay County,FL,NA,54.08450704225351,NA,NA
32068,Clay County,FL,NA,NA,13.783783783783784,NA
32071,Suwannee County,FL,NA,NA,NA,87.79069767441861
32073,Clay County,FL,NA,NA,NA,67.73255813953489
32148,Putnam County,FL,NA,NA,NA,73.83720930232558
32204,Duval County,FL,NA,NA,67.56756756756756,NA
32207,Duval County,FL,NA,NA,20.9009009009009,NA
32210,Duval County,FL,NA,NA,NA,8.430232558139535
32221,Duval County,FL,NA,NA,31.801801801801805,NA
32244,Duval County,FL,NA,NA,6.486486486486487,NA
32246,Duval County,FL,NA,NA,18.82882882882883,NA
32305,Leon County,FL,NA,75.77464788732394,NA,80.23255813953489
32308,Leon County,FL,NA,92.67605633802816,NA,NA
32428,Washington County,FL,NA,NA,NA,56.104651162790695
32462,Washington County,FL,NA,NA,95.94594594594594,NA
32533,Escambia County,FL,NA,NA,31.53153153153153,NA
32539,Okaloosa County,FL,NA,71.83098591549296,42.88288288288288,NA
32583,Santa Rosa County,FL,NA,48.45070422535211,NA,NA
32608,Alachua County,FL,NA,NA,8.73873873873874,NA
32615,Alachua County,FL,NA,NA,67.02702702702703,NA
32626,Levy County,FL,NA,NA,NA,92.44186046511628
32640,Putnam County,FL,NA,NA,62.16216216216216,NA
32641,Alachua County,FL,NA,NA,27.927927927927925,NA
32714,Seminole County,FL,NA,92.11267605633803,NA,NA
32725,Volusia County,FL,NA,23.098591549295776,NA,NA
32763,Volusia County,FL,NA,NA,NA,87.5
32784,Lake County,FL,NA,80,NA,NA
32796,Brevard County,FL,NA,NA,55.04504504504505,NA
32807,Orange County,FL,NA,37.183098591549296,NA,NA
32808,Orange County,FL,NA,NA,18.55855855855856,NA
32824,Orange County,FL,NA,NA,46.03603603603604,NA
32827,Orange County,FL,89.36170212765957,NA,NA,NA
32832,Orange County,FL,NA,99.43661971830986,NA,NA
32905,Brevard County,FL,51.06382978723404,NA,NA,NA
33014,Miami-Dade County,FL,NA,NA,69.36936936936937,NA
33016,Miami-Dade County,FL,NA,23.661971830985916,NA,NA
33025,Broward County,FL,NA,25.070422535211268,NA,NA
33027,Broward County,FL,40.121580547112465,NA,42.432432432432435,NA
33029,Broward County,FL,NA,91.83098591549296,NA,NA
33040,Monroe County,FL,NA,81.12676056338029,NA,NA
33054,Miami-Dade County,FL,NA,19.718309859154928,NA,NA
33055,Miami-Dade County,FL,NA,38.028169014084504,NA,NA
33147,Miami-Dade County,FL,44.984802431610944,NA,NA,NA
33149,Miami-Dade County,FL,78.72340425531915,NA,NA,NA
33165,Miami-Dade County,FL,29.78723404255319,NA,NA,NA
33172,Miami-Dade County,FL,NA,42.53521126760563,NA,NA
33174,Miami-Dade County,FL,NA,67.04225352112675,NA,NA
33179,Miami-Dade County,FL,NA,60.281690140845065,NA,NA
33193,Miami-Dade County,FL,NA,39.154929577464785,NA,NA
33194,Miami-Dade County,FL,NA,NA,98.55855855855856,NA
33196,Miami-Dade County,FL,NA,NA,68.10810810810811,NA
33304,Broward County,FL,85.1063829787234,NA,NA,NA
33308,Broward County,FL,NA,NA,NA,54.65116279069767
33316,Broward County,FL,NA,NA,NA,74.70930232558139
33319,Broward County,FL,NA,NA,NA,32.55813953488372
33321,Broward County,FL,NA,NA,NA,28.488372093023255
33326,Broward County,FL,69.6048632218845,NA,NA,NA
33409,Palm Beach County,FL,NA,NA,69.009009009009,NA
33412,Palm Beach County,FL,NA,NA,93.33333333333333,NA
33426,Palm Beach County,FL,NA,NA,NA,82.55813953488372
33523,Pasco County,FL,NA,NA,71.62162162162163,NA
33540,Pasco County,FL,NA,NA,NA,74.12790697674419
33543,Pasco County,FL,NA,NA,58.91891891891892,NA
33565,Hillsborough County,FL,78.11550151975683,NA,NA,NA
33578,Hillsborough County,FL,NA,NA,37.2972972972973,NA
33603,Hillsborough County,FL,NA,67.04225352112675,NA,NA
33610,Hillsborough County,FL,NA,NA,16.396396396396394,NA
33612,Hillsborough County,FL,NA,7.605633802816901,NA,NA
33617,Hillsborough County,FL,NA,NA,36.306306306306304,NA
33624,Hillsborough County,FL,NA,NA,56.57657657657658,NA
33637,Hillsborough County,FL,NA,NA,85.04504504504504,NA
33713,Pinellas County,FL,NA,NA,NA,69.18604651162791
33756,Pinellas County,FL,NA,NA,49.36936936936937,NA
33803,Polk County,FL,NA,NA,64.5945945945946,NA
33830,Polk County,FL,NA,NA,38.1981981981982,NA
33844,Polk County,FL,NA,20,NA,NA
33870,Highlands County,FL,NA,NA,65.85585585585586,NA
33880,Polk County,FL,NA,31.26760563380282,NA,NA
33884,Polk County,FL,NA,NA,62.52252252252253,NA
33916,Lee County,FL,NA,NA,40.36036036036036,NA
33935,Hendry County,FL,NA,69.85915492957746,NA,NA
33936,Lee County,FL,NA,NA,51.26126126126126,NA
33948,Charlotte County,FL,NA,73.23943661971832,NA,NA
34203,Manatee County,FL,NA,NA,58.28828828828829,23.25581395348837
34208,Manatee County,FL,50.15197568389058,27.323943661971832,NA,NA
34275,Sarasota County,FL,NA,NA,79.90990990990991,31.1046511627907
34420,Marion County,FL,NA,NA,98.46846846846847,NA
34428,Citrus County,FL,NA,NA,87.2072072072072,84.01162790697676
34480,Marion County,FL,NA,NA,63.42342342342342,NA
34482,Marion County,FL,NA,NA,67.47747747747748,NA
34488,Marion County,FL,NA,NA,76.21621621621621,NA
34608,Hernando County,FL,NA,39.436619718309856,NA,NA
34655,Pasco County,FL,NA,NA,35.4954954954955,NA
34669,Pasco County,FL,NA,NA,80.63063063063063,NA
34689,Pinellas County,FL,NA,77.74647887323944,NA,NA
34743,Osceola County,FL,NA,NA,50.630630630630634,NA
34758,Osceola County,FL,NA,NA,NA,53.779069767441854
34786,Orange County,FL,56.23100303951368,NA,NA,NA
34788,Lake County,FL,NA,NA,NA,32.26744186046512
34951,St. Lucie County,FL,NA,NA,85.94594594594595,NA
34952,St. Lucie County,FL,NA,NA,27.65765765765766,NA
34953,St. Lucie County,FL,NA,21.971830985915496,NA,NA
34972,Okeechobee County,FL,NA,67.04225352112675,NA,NA
34994,Martin County,FL,NA,69.85915492957746,NA,NA
30012,Rockdale County,GA,60.48632218844985,NA,NA,NA
30019,Gwinnett County,GA,NA,NA,41.53153153153153,NA
30022,Fulton County,GA,NA,NA,42.7027027027027,NA
30025,Walton County,GA,NA,NA,79.90990990990991,NA
30032,DeKalb County,GA,NA,34.36619718309859,NA,NA
30040,Forsyth County,GA,NA,NA,62.612612612612615,20.348837209302324
30078,Gwinnett County,GA,NA,69.29577464788733,64.32432432432432,NA
30083,DeKalb County,GA,NA,33.23943661971831,NA,NA
30115,Cherokee County,GA,48.328267477203646,NA,NA,NA
30122,Douglas County,GA,NA,66.7605633802817,58.828828828828826,NA
30127,Cobb County,GA,NA,NA,21.44144144144144,NA
30143,Pickens County,GA,NA,NA,66.03603603603604,NA
30157,Paulding County,GA,17.933130699088146,NA,NA,NA
30204,Lamar County,GA,NA,NA,86.48648648648648,NA
30214,Fayette County,GA,NA,89.01408450704226,NA,NA
30240,Troup County,GA,NA,NA,28.73873873873874,NA
30340,DeKalb County,GA,NA,NA,85.85585585585585,NA
30474,Toombs County,GA,NA,NA,NA,75.87209302325581
30507,Hall County,GA,NA,60.84507042253521,NA,NA
30512,Union County,GA,NA,NA,78.01801801801803,53.19767441860465
30519,Gwinnett County,GA,NA,NA,NA,34.30232558139535
30549,Jackson County,GA,NA,NA,49.90990990990991,NA
30560,Fannin County,GA,96.65653495440729,NA,NA,NA
30577,Stephens County,GA,66.56534954407294,NA,NA,NA
30662,Franklin County,GA,NA,NA,93.06306306306307,NA
30705,Murray County,GA,NA,57.183098591549296,NA,NA
30736,Catoosa County,GA,NA,NA,12.522522522522522,NA
30741,Walker County,GA,NA,NA,22.52252252252252,NA
30813,Columbia County,GA,NA,NA,33.96396396396396,NA
30909,Richmond County,GA,NA,NA,29.099099099099103,NA
31029,Monroe County,GA,NA,NA,NA,80.52325581395348
31210,Bibb County,GA,NA,NA,86.3063063063063,NA
31558,Camden County,GA,NA,NA,71.44144144144144,NA
31904,Muscogee County,GA,NA,NA,33.42342342342342,NA
96701,Honolulu County,HI,NA,NA,69.45945945945947,NA
96734,Honolulu County,HI,NA,88.45070422535211,NA,11.627906976744185
96740,Hawaii County,HI,NA,NA,65.22522522522523,NA
96743,Hawaii County,HI,86.01823708206688,NA,NA,NA
96744,Honolulu County,HI,11.55015197568389,NA,NA,NA
96778,Hawaii County,HI,NA,NA,73.69369369369369,NA
96826,Honolulu County,HI,NA,NA,NA,34.01162790697674
83330,Gooding County,ID,NA,NA,95.58558558558559,NA
83338,Jerome County,ID,NA,79.43661971830987,NA,NA
83402,Bonneville County,ID,NA,NA,55.4054054054054,NA
83607,Canyon County,ID,NA,NA,73.96396396396396,NA
83646,Ada County,ID,NA,NA,13.513513513513514,NA
83672,Washington County,ID,67.17325227963525,NA,NA,NA
83686,Canyon County,ID,NA,NA,NA,52.03488372093024
83702,Ada County,ID,NA,NA,32.25225225225225,NA
83709,Ada County,ID,NA,NA,18.1981981981982,NA
83714,Ada County,ID,NA,NA,NA,16.27906976744186
83801,Kootenai County,ID,NA,NA,95.76576576576576,NA
83864,Bonner County,ID,NA,NA,89.72972972972974,NA
60004,Cook County,IL,28.267477203647417,NA,NA,NA
60005,Cook County,IL,61.39817629179332,NA,NA,41.86046511627907
60013,McHenry County,IL,NA,NA,60,NA
60014,McHenry County,IL,NA,NA,27.207207207207208,NA
60030,Lake County,IL,NA,NA,NA,26.16279069767442
60044,Lake County,IL,NA,NA,NA,86.9186046511628
60050,McHenry County,IL,NA,NA,40.99099099099099,NA
60074,Cook County,IL,NA,NA,NA,40.116279069767444
60087,Lake County,IL,57.14285714285714,NA,NA,NA
60096,Lake County,IL,NA,NA,92.07207207207207,NA
60103,DuPage County,IL,63.829787234042556,NA,NA,NA
60107,Cook County,IL,NA,NA,53.69369369369369,NA
60110,Kane County,IL,NA,NA,52.072072072072075,NA
60118,Kane County,IL,NA,NA,91.17117117117117,NA
60133,Cook County,IL,NA,NA,47.387387387387385,NA
60136,Kane County,IL,96.35258358662614,NA,NA,NA
60137,DuPage County,IL,NA,NA,70,NA
60142,McHenry County,IL,NA,NA,44.95495495495496,NA
60190,DuPage County,IL,NA,NA,80.18018018018019,NA
60193,Cook County,IL,NA,NA,41.44144144144144,NA
60426,Cook County,IL,71.42857142857143,NA,NA,NA
60430,Cook County,IL,NA,NA,NA,54.94186046511628
60431,Will County,IL,NA,NA,NA,46.51162790697674
60442,Will County,IL,69.30091185410335,NA,NA,NA
60446,Will County,IL,NA,NA,17.65765765765766,NA
60448,Will County,IL,NA,NA,84.05405405405405,NA
60450,Grundy County,IL,16.109422492401215,NA,60.72072072072072,NA
60452,Cook County,IL,NA,NA,52.34234234234234,NA
60464,Cook County,IL,94.52887537993921,NA,NA,NA
60477,Cook County,IL,NA,NA,29.549549549549546,NA
60490,Will County,IL,NA,NA,64.77477477477478,NA
60491,Will County,IL,NA,NA,NA,29.360465116279073
60513,Cook County,IL,NA,NA,NA,61.04651162790697
60516,DuPage County,IL,NA,NA,NA,31.976744186046513
60542,Kane County,IL,45.8966565349544,NA,NA,NA
60552,LaSalle County,IL,NA,NA,98.1981981981982,NA
60554,Kane County,IL,84.49848024316108,NA,NA,NA
60555,DuPage County,IL,NA,NA,73.78378378378379,NA
60564,Will County,IL,NA,NA,40.090090090090094,NA
60605,Cook County,IL,NA,NA,62.88288288288288,NA
60609,Cook County,IL,NA,NA,11.981981981981981,NA
60613,Cook County,IL,NA,NA,NA,35.75581395348838
60615,Cook County,IL,NA,NA,27.74774774774775,NA
60616,Cook County,IL,27.35562310030395,NA,NA,NA
60629,Cook County,IL,NA,NA,6.846846846846846,NA
60630,Cook County,IL,37.99392097264438,NA,NA,NA
60631,Cook County,IL,NA,NA,NA,51.74418604651163
60638,Cook County,IL,15.501519756838904,NA,NA,NA
60641,Cook County,IL,NA,NA,NA,17.151162790697676
60660,Cook County,IL,NA,NA,NA,54.94186046511628
60804,Cook County,IL,NA,NA,23.063063063063062,NA
60901,Kankakee County,IL,NA,NA,19.54954954954955,NA
61102,Winnebago County,IL,NA,NA,NA,62.2093023255814
61356,Bureau County,IL,NA,NA,NA,66.86046511627907
61525,Peoria County,IL,NA,NA,95.4954954954955,NA
61571,Tazewell County,IL,NA,NA,NA,55.81395348837209
61704,McLean County,IL,NA,NA,40.54054054054054,NA
61727,De Witt County,IL,NA,NA,75.31531531531532,NA
61822,Champaign County,IL,NA,NA,83.78378378378379,NA
61944,Edgar County,IL,NA,NA,NA,60.46511627906976
62016,Greene County,IL,NA,NA,98.91891891891892,NA
62040,Madison County,IL,NA,NA,73.51351351351352,11.046511627906977
62230,Clinton County,IL,89.96960486322189,NA,NA,NA
62901,Jackson County,IL,92.401215805471125,NA,NA,NA
62918,Williamson County,IL,NA,NA,NA,77.03488372093024
46011,Madison County,IN,NA,NA,52.61261261261261,NA
46041,Clinton County,IN,NA,NA,69.1891891891892,NA
46060,Hamilton County,IN,NA,NA,33.513513513513516,NA
46062,Hamilton County,IN,NA,NA,62.88288288288288,NA
46122,Hendricks County,IN,NA,NA,82.70270270270271,NA
46151,Morgan County,IN,NA,NA,28.10810810810811,NA
46163,Hancock County,IN,68.38905775075987,NA,NA,NA
46173,Rush County,IN,NA,NA,85.3153153153153,NA
46214,Marion County,IN,45.8966565349544,NA,NA,NA
46218,Marion County,IN,NA,21.408450704225352,10.9009009009009,NA
46219,Marion County,IN,NA,61.97183098591549,NA,NA
46227,Marion County,IN,NA,NA,10.81081081081081,NA
46234,Marion County,IN,NA,NA,NA,53.48837209302325
46254,Marion County,IN,NA,NA,25.135135135135133,NA
46268,Marion County,IN,NA,NA,48.468468468468465,NA
46303,Lake County,IN,NA,NA,49.009009009009006,NA
46307,Lake County,IN,12.462006079027356,NA,NA,3.1976744186046515
46349,Newton County,IN,NA,NA,NA,98.25581395348837
46356,Lake County,IN,NA,NA,NA,36.04651162790697
46368,Porter County,IN,NA,NA,50.54054054054053,NA
46383,Porter County,IN,NA,NA,33.693693693693696,NA
46403,Lake County,IN,NA,NA,71.53153153153153,NA
46404,Lake County,IN,NA,NA,35.765765765765764,NA
46405,Lake County,IN,NA,NA,NA,52.616279069767444
46516,Elkhart County,IN,NA,NA,50.990990990990994,NA
46526,Elkhart County,IN,NA,NA,NA,63.372093023255815
46544,St. Joseph County,IN,NA,31.549295774647888,NA,NA
46545,St. Joseph County,IN,NA,76.33802816901408,NA,NA
46563,Marshall County,IN,NA,NA,43.873873873873876,NA
46714,Wells County,IN,NA,75.49295774647888,NA,NA
46725,Whitley County,IN,46.504559270516715,NA,NA,NA
46733,Adams County,IN,NA,NA,NA,50.872093023255815
46777,Wells County,IN,NA,NA,NA,90.98837209302324
46804,Allen County,IN,NA,NA,48.55855855855856,NA
46808,Allen County,IN,NA,35.774647887323944,NA,NA
46816,Allen County,IN,NA,NA,31.71171171171171,NA
46818,Allen County,IN,NA,NA,42.972972972972975,NA
46901,Howard County,IN,10.33434650455927,NA,2.7927927927927927,NA
46947,Cass County,IN,NA,NA,14.054054054054054,NA
47274,Jackson County,IN,NA,NA,30.720720720720724,NA
47303,Delaware County,IN,NA,NA,37.567567567567565,NA
47331,Fayette County,IN,NA,NA,17.38738738738739,NA
47362,Henry County,IN,NA,NA,24.144144144144146,NA
47374,Wayne County,IN,NA,57.183098591549296,NA,NA
47401,Monroe County,IN,NA,NA,68.28828828828829,NA
47404,Monroe County,IN,NA,NA,87.74774774774775,NA
47630,Warrick County,IN,NA,NA,46.93693693693694,NA
47660,Gibson County,IN,NA,NA,92.97297297297298,NA
47711,Vanderburgh County,IN,NA,75.77464788732394,NA,NA
47714,Vanderburgh County,IN,NA,NA,15.675675675675677,NA
47715,Vanderburgh County,IN,NA,NA,66.48648648648648,NA
47802,Vigo County,IN,NA,37.46478873239437,26.306306306306304,NA
47834,Clay County,IN,NA,NA,67.74774774774774,NA
50003,Dallas County,IA,NA,NA,96.48648648648648,NA
50158,Marshall County,IA,65.34954407294833,NA,NA,NA
50213,Clarke County,IA,NA,NA,81.8018018018018,NA
50226,Polk County,IA,NA,NA,99.27927927927928,NA
50311,Polk County,IA,83.89057750759878,NA,NA,NA
50662,Fayette County,IA,NA,NA,NA,87.20930232558139
50703,Black Hawk County,IA,38.60182370820669,NA,NA,NA
51501,Pottawattamie County,IA,NA,NA,20.9009009009009,NA
52057,Delaware County,IA,NA,NA,NA,81.68604651162791
52205,Jones County,IA,NA,NA,NA,84.88372093023256
52403,Linn County,IA,NA,NA,45.85585585585585,NA
52556,Jefferson County,IA,NA,NA,80.9009009009009,NA
52627,Lee County,IA,73.55623100303951,NA,NA,48.54651162790697
52722,Scott County,IA,NA,NA,56.12612612612613,NA
52732,Clinton County,IA,NA,NA,NA,30.23255813953488
52776,Muscatine County,IA,NA,91.26760563380282,NA,NA
52804,Scott County,IA,NA,NA,NA,38.95348837209303
66002,Atchison County,KS,NA,NA,78.91891891891892,NA
66062,Johnson County,KS,NA,NA,39.189189189189186,NA
66106,Wyandotte County,KS,72.3404255319149,NA,NA,NA
66207,Johnson County,KS,NA,NA,NA,77.61627906976744
66213,Johnson County,KS,71.12462006079028,NA,NA,NA
66223,Johnson County,KS,NA,NA,87.38738738738738,NA
67114,Harvey County,KS,45.2887537993921,NA,NA,NA
67217,Sedgwick County,KS,NA,NA,55.585585585585584,NA
67420,Mitchell County,KS,97.87234042553192,NA,NA,NA
67665,Russell County,KS,77.20364741641338,NA,NA,NA
67735,Sherman County,KS,NA,NA,NA,83.43023255813954
40160,Hardin County,KY,NA,NA,34.5045045045045,NA
40208,Jefferson County,KY,NA,NA,53.153153153153156,NA
40212,Jefferson County,KY,20.972644376899694,NA,28.468468468468465,NA
40214,Jefferson County,KY,NA,NA,8.108108108108109,NA
40215,Jefferson County,KY,NA,NA,21.71171171171171,NA
40218,Jefferson County,KY,NA,NA,15.495495495495495,NA
40219,Jefferson County,KY,NA,NA,NA,24.709302325581394
40241,Jefferson County,KY,NA,NA,54.054054054054056,NA
40258,Jefferson County,KY,32.82674772036474,NA,NA,NA
40272,Jefferson County,KY,NA,NA,46.21621621621622,NA
40299,Jefferson County,KY,37.38601823708207,NA,NA,NA
40324,Scott County,KY,NA,NA,45.31531531531531,NA
40353,Montgomery County,KY,36.77811550151976,NA,58.01801801801801,NA
40360,Bath County,KY,NA,NA,66.84684684684684,NA
40361,Bourbon County,KY,NA,53.239436619718305,NA,NA
40391,Clark County,KY,NA,NA,9.63963963963964,NA
40403,Madison County,KY,NA,NA,25.315315315315317,NA
40447,Jackson County,KY,NA,NA,88.28828828828829,NA
40701,Whitley County,KY,NA,NA,12.162162162162163,50
40740,Laurel County,KY,NA,NA,97.65765765765767,NA
40769,Whitley County,KY,60.48632218844985,NA,NA,NA
40977,Bell County,KY,NA,NA,56.3963963963964,NA
41006,Pendleton County,KY,NA,95.77464788732394,NA,NA
41017,Kenton County,KY,NA,NA,67.29729729729729,NA
41074,Campbell County,KY,NA,82.8169014084507,NA,NA
41094,Boone County,KY,NA,73.23943661971832,NA,NA
41230,Lawrence County,KY,NA,63.38028169014085,NA,NA
41240,Johnson County,KY,NA,NA,59.63963963963964,NA
42025,Marshall County,KY,NA,NA,46.3963963963964,46.22093023255814
42104,Warren County,KY,NA,80.56338028169014,NA,NA
42127,Barren County,KY,NA,NA,72.16216216216216,NA
42134,Simpson County,KY,NA,NA,54.95495495495496,NA
42164,Allen County,KY,NA,NA,40.81081081081081,NA
42171,Warren County,KY,NA,NA,84.14414414414414,NA
42303,Daviess County,KY,NA,NA,10.99099099099099,NA
42420,Henderson County,KY,NA,56.61971830985916,NA,NA
42553,Pulaski County,KY,88.75379939209726,NA,NA,NA
42629,Russell County,KY,NA,NA,92.43243243243244,NA
42635,McCreary County,KY,98.17629179331307,NA,NA,NA
42642,Russell County,KY,NA,NA,70.54054054054055,NA
42701,Hardin County,KY,NA,23.380281690140844,74.23423423423424,NA
42721,Grayson County,KY,NA,NA,NA,82.84883720930233
70002,Jefferson Parish,LA,NA,73.80281690140845,NA,NA
70043,St. Bernard Parish,LA,11.854103343465045,NA,NA,NA
70068,St. John the Baptist Parish,LA,NA,2.2535211267605635,11.26126126126126,NA
70070,St. Charles Parish,LA,NA,29.014084507042252,NA,NA
70075,St. Bernard Parish,LA,NA,63.94366197183099,NA,NA
70113,Orleans Parish,LA,NA,NA,82.25225225225226,NA
70118,Orleans Parish,LA,NA,NA,21.35135135135135,NA
70119,Orleans Parish,LA,NA,NA,NA,36.627906976744185
70127,Orleans Parish,LA,NA,NA,8.64864864864865,NA
70128,Orleans Parish,LA,NA,NA,50.72072072072073,NA
70131,Orleans Parish,LA,NA,NA,16.036036036036037,NA
70301,Lafourche Parish,LA,NA,77.46478873239437,3.063063063063063,NA
70345,Lafourche Parish,LA,NA,20.845070422535212,NA,NA
70346,Ascension Parish,LA,NA,54.647887323943664,NA,NA
70363,Terrebonne Parish,LA,NA,4.788732394366197,4.684684684684685,NA
70403,Tangipahoa Parish,LA,NA,38.028169014084504,NA,NA
70422,Tangipahoa Parish,LA,NA,NA,61.35135135135135,NA
70445,St. Tammany Parish,LA,NA,NA,93.69369369369369,NA
70454,Tangipahoa Parish,LA,NA,NA,10.09009009009009,NA
70458,St. Tammany Parish,LA,NA,NA,6.306306306306306,NA
70461,St. Tammany Parish,LA,9.118541033434651,4.507042253521127,NA,20.930232558139537
70503,Lafayette Parish,LA,21.580547112462007,NA,NA,NA
70510,Vermilion Parish,LA,NA,NA,11.621621621621623,NA
70517,St. Martin Parish,LA,14.58966565349544,NA,65.58558558558558,NA
70526,Acadia Parish,LA,NA,NA,27.297297297297295,NA
70529,Lafayette Parish,LA,NA,32.67605633802817,NA,NA
70533,Vermilion Parish,LA,NA,NA,64.23423423423424,NA
70535,St. Landry Parish,LA,NA,NA,NA,47.383720930232556
70560,Iberia Parish,LA,NA,NA,NA,15.11627906976744
70615,Calcasieu Parish,LA,NA,NA,NA,71.22093023255815
70634,Beauregard Parish,LA,8.51063829787234,NA,27.56756756756757,NA
70669,Calcasieu Parish,LA,NA,NA,NA,67.15116279069767
70706,Livingston Parish,LA,NA,54.3661971830986,NA,NA
70711,Livingston Parish,LA,NA,NA,86.57657657657658,NA
70726,Livingston Parish,LA,NA,NA,2.0720720720720722,NA
70744,Livingston Parish,LA,NA,NA,85.94594594594595,NA
70775,West Feliciana Parish,LA,NA,59.154929577464785,NA,NA
70802,East Baton Rouge Parish,LA,NA,52.95774647887323,NA,NA
70805,East Baton Rouge Parish,LA,5.47112462006079,15.774647887323944,NA,NA
70806,East Baton Rouge Parish,LA,NA,NA,14.954954954954955,NA
70807,East Baton Rouge Parish,LA,NA,NA,76.57657657657657,NA
70810,East Baton Rouge Parish,LA,NA,28.169014084507044,NA,NA
70817,East Baton Rouge Parish,LA,NA,NA,96.03603603603604,NA
71037,Bossier Parish,LA,NA,24.788732394366196,NA,NA
71075,Webster Parish,LA,53.799392097264445,56.056338028169016,NA,NA
71103,Caddo Parish,LA,NA,54.647887323943664,NA,NA
71104,Caddo Parish,LA,NA,NA,47.02702702702703,NA
71109,Caddo Parish,LA,8.814589665653495,NA,NA,28.197674418604652
71111,Bossier Parish,LA,6.68693009118541,NA,NA,NA
71203,Ouachita Parish,LA,NA,18.591549295774648,9.81981981981982,NA
71251,Jackson Parish,LA,NA,NA,50.27027027027027,NA
71303,Rapides Parish,LA,NA,NA,32.34234234234235,NA
71343,Catahoula Parish,LA,NA,42.53521126760563,NA,NA
71486,Sabine Parish,LA,NA,64.7887323943662,NA,NA
03903,York County,ME,NA,NA,99.09909909909909,NA
04102,Cumberland County,ME,NA,NA,37.207207207207205,NA
04268,Oxford County,ME,NA,79.43661971830987,NA,NA
04276,Oxford County,ME,NA,NA,66.57657657657657,NA
04330,Kennebec County,ME,NA,25.633802816901408,NA,NA
04401,Penobscot County,ME,NA,15.211267605633802,NA,NA
04530,Sagadahoc County,ME,NA,NA,68.91891891891892,NA
04864,Knox County,ME,NA,NA,NA,100
04917,Kennebec County,ME,98.78419452887537,NA,NA,NA
04967,Somerset County,ME,NA,NA,97.38738738738739,NA
20602,Charles County,MD,NA,NA,78.46846846846847,NA
20646,Charles County,MD,60.182370820668694,NA,NA,NA
20659,St. Mary's County,MD,72.03647416413374,NA,NA,NA
20707,Prince George's County,MD,NA,NA,70.72072072072072,NA
20715,Prince George's County,MD,NA,NA,70.09009009009009,NA
20721,Prince George's County,MD,NA,NA,78.82882882882883,NA
20732,Calvert County,MD,NA,NA,NA,96.80232558139535
20735,Prince George's County,MD,NA,NA,61.44144144144145,NA
20743,Prince George's County,MD,48.93617021276596,NA,NA,NA
20772,Prince George's County,MD,NA,NA,80.45045045045045,NA
20784,Prince George's County,MD,NA,NA,NA,77.90697674418605
20815,Montgomery County,MD,72.3404255319149,NA,NA,NA
20906,Montgomery County,MD,NA,NA,55.945945945945944,NA
21075,Howard County,MD,NA,NA,69.63963963963964,NA
21117,Baltimore County,MD,NA,NA,NA,27.906976744186046
21144,Anne Arundel County,MD,NA,NA,60.54054054054055,NA
21206,Baltimore city,MD,NA,NA,13.153153153153152,13.372093023255813
21207,Baltimore County,MD,57.75075987841946,NA,NA,NA
21209,Baltimore County,MD,NA,NA,66.3963963963964,NA
21214,Baltimore city,MD,NA,NA,NA,72.09302325581395
21215,Baltimore city,MD,42.857142857142854,NA,NA,NA
21220,Baltimore County,MD,NA,NA,21.08108108108108,NA
21223,Baltimore city,MD,NA,NA,35.585585585585584,NA
21224,Baltimore city,MD,28.87537993920973,NA,NA,NA
21228,Baltimore County,MD,NA,NA,54.5045045045045,NA
21229,Baltimore city,MD,NA,NA,20.81081081081081,NA
21236,Baltimore County,MD,NA,NA,74.32432432432432,NA
21237,Baltimore County,MD,NA,NA,NA,57.26744186046512
21239,Baltimore city,MD,NA,NA,34.86486486486486,NA
21613,Dorchester County,MD,NA,NA,72.88288288288288,NA
21632,Caroline County,MD,NA,NA,87.11711711711712,84.59302325581395
21853,Somerset County,MD,93.00911854103343,NA,NA,NA
01020,Hampden County,MA,NA,NA,NA,46.80232558139535
01040,Hampden County,MA,NA,NA,21.53153153153153,18.6046511627907
01056,Hampden County,MA,NA,NA,19.36936936936937,NA
01069,Hampden County,MA,NA,NA,80.54054054054053,NA
01104,Hampden County,MA,NA,NA,1.7117117117117115,NA
01105,Hampden County,MA,NA,NA,3.963963963963964,NA
01107,Hampden County,MA,NA,NA,7.4774774774774775,NA
01109,Hampden County,MA,NA,NA,0.18018018018018017,NA
01201,Berkshire County,MA,NA,NA,0.09009009009009009,14.534883720930234
01440,Worcester County,MA,NA,NA,42.16216216216216,NA
01450,Middlesex County,MA,NA,NA,NA,75.5813953488372
01453,Worcester County,MA,NA,NA,1.0810810810810811,NA
01462,Worcester County,MA,NA,NA,53.783783783783775,NA
01523,Worcester County,MA,86.93009118541033,NA,82.34234234234235,NA
01550,Worcester County,MA,NA,NA,1.1711711711711712,NA
01581,Worcester County,MA,NA,87.04225352112675,NA,NA
01588,Worcester County,MA,NA,NA,22.702702702702705,NA
01606,Worcester County,MA,NA,NA,20.36036036036036,NA
01610,Worcester County,MA,NA,NA,6.0360360360360366,NA
01720,Middlesex County,MA,NA,NA,36.57657657657658,NA
01810,Essex County,MA,NA,NA,14.864864864864865,NA
01821,Middlesex County,MA,28.57142857142857,NA,NA,NA
01830,Essex County,MA,NA,82.53521126760563,NA,NA
01840,Essex County,MA,NA,NA,NA,59.30232558139535
01841,Essex County,MA,0,NA,0,NA
01844,Essex County,MA,NA,NA,1.2612612612612613,NA
01845,Essex County,MA,NA,NA,64.41441441441441,NA
01851,Middlesex County,MA,NA,NA,16.666666666666664,NA
01852,Middlesex County,MA,NA,NA,NA,93.8953488372093
01854,Middlesex County,MA,NA,NA,2.3423423423423424,NA
01862,Middlesex County,MA,NA,NA,49.63963963963964,NA
01880,Middlesex County,MA,30.3951367781155,NA,NA,NA
01902,Essex County,MA,5.775075987841945,NA,NA,NA
01904,Essex County,MA,NA,NA,11.801801801801801,NA
01905,Essex County,MA,NA,59.436619718309856,NA,NA
01913,Essex County,MA,NA,NA,NA,10.174418604651162
01945,Essex County,MA,NA,NA,43.42342342342342,NA
02021,Norfolk County,MA,13.069908814589665,NA,NA,NA
02038,Norfolk County,MA,NA,NA,14.774774774774773,NA
02043,Plymouth County,MA,66.26139817629179,NA,NA,NA
02048,Bristol County,MA,NA,NA,23.243243243243246,NA
02050,Plymouth County,MA,NA,NA,55.765765765765764,NA
02072,Norfolk County,MA,NA,NA,9.90990990990991,NA
02115,Suffolk County,MA,NA,NA,7.657657657657657,NA
02118,Suffolk County,MA,NA,NA,NA,0.872093023255814
02122,Suffolk County,MA,NA,NA,1.6216216216216217,NA
02124,Suffolk County,MA,NA,NA,NA,4.3604651162790695
02125,Suffolk County,MA,NA,14.647887323943662,NA,NA
02126,Suffolk County,MA,4.86322188449848,NA,13.333333333333334,NA
02127,Suffolk County,MA,NA,NA,1.5315315315315314,NA
02131,Suffolk County,MA,NA,40.28169014084507,NA,NA
02134,Suffolk County,MA,NA,NA,13.243243243243244,NA
02135,Suffolk County,MA,NA,NA,NA,43.31395348837209
02138,Middlesex County,MA,NA,NA,13.963963963963963,7.267441860465117
02148,Middlesex County,MA,NA,NA,15.225225225225225,72.67441860465115
02150,Suffolk County,MA,3.0395136778115504,NA,5.675675675675676,NA
02151,Suffolk County,MA,0.911854103343465,NA,NA,0
02155,Middlesex County,MA,NA,NA,NA,0.29069767441860467
02169,Norfolk County,MA,NA,NA,32.16216216216216,NA
02184,Norfolk County,MA,35.56231003039514,NA,NA,NA
02186,Norfolk County,MA,NA,NA,15.855855855855856,NA
02301,Plymouth County,MA,NA,1.971830985915493,NA,NA
02332,Plymouth County,MA,74.46808510638297,NA,NA,NA
02339,Plymouth County,MA,NA,NA,73.33333333333333,NA
02346,Plymouth County,MA,NA,NA,NA,13.08139534883721
02351,Plymouth County,MA,NA,NA,19.0990990990991,NA
02368,Norfolk County,MA,NA,9.859154929577464,2.5225225225225225,NA
02370,Plymouth County,MA,NA,NA,16.846846846846848,NA
02382,Plymouth County,MA,NA,NA,28.91891891891892,NA
02453,Middlesex County,MA,NA,58.59154929577465,NA,NA
02472,Middlesex County,MA,NA,NA,94.23423423423424,NA
02481,Norfolk County,MA,NA,NA,59.81981981981982,NA
02482,Norfolk County,MA,NA,NA,77.02702702702703,NA
02492,Norfolk County,MA,34.954407294832826,NA,NA,NA
02554,Nantucket County,MA,NA,48.16901408450705,NA,NA
02631,Barnstable County,MA,88.14589665653494,NA,NA,NA
02720,Bristol County,MA,NA,NA,17.47747747747748,NA
02721,Bristol County,MA,NA,NA,0.36036036036036034,NA
02724,Bristol County,MA,75.37993920972644,9.577464788732394,NA,NA
02744,Bristol County,MA,NA,NA,39.45945945945946,NA
02780,Bristol County,MA,2.735562310030395,NA,NA,NA
48014,St. Clair County,MI,96.04863221884499,NA,NA,NA
48021,Macomb County,MI,NA,NA,11.441441441441441,NA
48023,St. Clair County,MI,NA,NA,NA,97.38372093023256
48025,Oakland County,MI,NA,NA,83.42342342342343,NA
48034,Oakland County,MI,NA,NA,NA,57.55813953488372
48045,Macomb County,MI,NA,NA,NA,16.86046511627907
48048,Macomb County,MI,NA,NA,NA,91.86046511627907
48054,St. Clair County,MI,NA,NA,90.54054054054053,NA
48060,St. Clair County,MI,NA,30.985915492957744,NA,6.686046511627906
48080,Macomb County,MI,54.7112462006079,NA,NA,NA
48116,Livingston County,MI,22.492401215805472,NA,NA,NA
48126,Wayne County,MI,NA,17.74647887323944,72.07207207207207,NA
48130,Washtenaw County,MI,NA,NA,NA,41.27906976744186
48133,Monroe County,MI,NA,NA,92.34234234234235,NA
48144,Monroe County,MI,NA,NA,NA,79.65116279069767
48150,Wayne County,MI,NA,NA,63.873873873873876,NA
48154,Wayne County,MI,NA,92.3943661971831,NA,NA
48166,Monroe County,MI,NA,NA,44.86486486486487,NA
48168,Wayne County,MI,NA,NA,56.666666666666664,NA
48176,Washtenaw County,MI,NA,NA,43.15315315315315,NA
48178,Oakland County,MI,NA,NA,NA,15.406976744186046
48179,Monroe County,MI,NA,NA,98.64864864864865,NA
48180,Wayne County,MI,NA,NA,3.3333333333333335,NA
48183,Wayne County,MI,NA,NA,10.27027027027027,NA
48185,Wayne County,MI,NA,NA,6.396396396396396,NA
48187,Wayne County,MI,NA,45.63380281690141,NA,NA
48197,Washtenaw County,MI,NA,NA,2.9729729729729732,NA
48198,Washtenaw County,MI,NA,NA,NA,15.69767441860465
48203,Wayne County,MI,NA,NA,17.2972972972973,NA
48206,Wayne County,MI,NA,NA,NA,31.686046511627907
48207,Wayne County,MI,NA,NA,NA,38.372093023255815
48219,Wayne County,MI,NA,13.239436619718308,NA,NA
48220,Oakland County,MI,NA,NA,49.36936936936937,NA
48223,Wayne County,MI,14.285714285714285,NA,NA,NA
48224,Wayne County,MI,NA,NA,NA,22.674418604651162
48228,Wayne County,MI,NA,NA,12.432432432432433,NA
48310,Macomb County,MI,NA,NA,NA,13.953488372093023
48312,Macomb County,MI,NA,NA,NA,17.441860465116278
48331,Oakland County,MI,67.78115501519757,NA,NA,NA
48340,Oakland County,MI,NA,30.422535211267604,NA,NA
48342,Oakland County,MI,NA,NA,47.83783783783784,NA
48346,Oakland County,MI,NA,NA,39.189189189189186,NA
48382,Oakland County,MI,NA,NA,51.98198198198198,NA
48423,Genesee County,MI,48.632218844984806,NA,NA,NA
48430,Genesee County,MI,NA,NA,28.01801801801802,NA
48462,Oakland County,MI,NA,NA,80.72072072072072,NA
48471,Sanilac County,MI,NA,NA,79.0990990990991,NA
48473,Genesee County,MI,NA,87.04225352112675,NA,NA
48647,Oscoda County,MI,NA,NA,90.990990990991,NA
48657,Midland County,MI,NA,NA,83.69369369369369,NA
48734,Saginaw County,MI,89.36170212765957,NA,NA,NA
48823,Ingham County,MI,NA,NA,NA,29.941860465116278
48837,Eaton County,MI,NA,90.14084507042254,NA,NA
48842,Ingham County,MI,NA,NA,85.76576576576576,NA
48911,Ingham County,MI,NA,NA,7.747747747747748,NA
48917,Eaton County,MI,NA,NA,10.18018018018018,NA
49001,Kalamazoo County,MI,NA,NA,NA,60.75581395348837
49004,Kalamazoo County,MI,NA,NA,46.306306306306304,NA
49015,Calhoun County,MI,NA,NA,19.45945945945946,NA
49022,Berrien County,MI,NA,NA,NA,14.244186046511627
49047,Cass County,MI,NA,NA,82.43243243243244,NA
49048,Kalamazoo County,MI,NA,NA,20.18018018018018,NA
49058,Barry County,MI,NA,NA,32.7027027027027,NA
49080,Allegan County,MI,NA,NA,NA,44.76744186046512
49099,St. Joseph County,MI,NA,94.92957746478872,NA,NA
49120,Berrien County,MI,NA,34.647887323943664,NA,NA
49201,Jackson County,MI,NA,NA,35.67567567567568,NA
49202,Jackson County,MI,NA,NA,35.04504504504504,NA
49203,Jackson County,MI,NA,NA,NA,9.011627906976743
49224,Calhoun County,MI,51.97568389057751,NA,NA,NA
49230,Jackson County,MI,NA,85.35211267605634,NA,NA
49242,Hillsdale County,MI,NA,NA,50.45045045045045,NA
49247,Lenawee County,MI,NA,NA,NA,69.76744186046511
49250,Hillsdale County,MI,NA,NA,80.36036036036036,NA
49307,Mecosta County,MI,NA,NA,54.864864864864856,NA
49315,Kent County,MI,NA,NA,NA,39.53488372093023
49343,Kent County,MI,NA,NA,96.21621621621622,NA
49437,Muskegon County,MI,NA,NA,88.91891891891892,NA
49444,Muskegon County,MI,NA,NA,10.63063063063063,NA
49507,Kent County,MI,NA,21.12676056338028,NA,NA
49508,Kent County,MI,NA,NA,6.576576576576576,NA
49631,Osceola County,MI,NA,NA,89.90990990990991,NA
49660,Manistee County,MI,NA,NA,40.630630630630634,NA
49707,Alpena County,MI,22.188449848024316,NA,NA,NA
49801,Dickinson County,MI,NA,NA,NA,43.604651162790695
49802,Dickinson County,MI,NA,NA,78.37837837837837,90.11627906976744
49855,Marquette County,MI,NA,NA,NA,17.732558139534884
49868,Luce County,MI,NA,NA,95.13513513513514,NA
55008,Isanti County,MN,NA,NA,NA,58.43023255813954
55060,Steele County,MN,NA,NA,38.73873873873874,NA
55106,Ramsey County,MN,NA,NA,NA,27.325581395348834
55116,Ramsey County,MN,NA,NA,69.90990990990991,NA
55119,Ramsey County,MN,NA,NA,45.4954954954955,NA
55123,Dakota County,MN,NA,NA,83.42342342342343,78.77906976744185
55124,Dakota County,MN,NA,43.94366197183099,NA,NA
55130,Ramsey County,MN,NA,NA,88.73873873873875,NA
55303,Anoka County,MN,NA,21.971830985915496,NA,NA
55317,Carver County,MN,82.37082066869301,NA,NA,NA
55330,Sherburne County,MN,NA,NA,76.48648648648648,NA
55379,Scott County,MN,NA,NA,29.36936936936937,NA
55398,Sherburne County,MN,NA,NA,NA,88.37209302325581
55404,Hennepin County,MN,NA,4.225352112676056,NA,NA
55407,Hennepin County,MN,NA,NA,7.117117117117116,NA
55412,Hennepin County,MN,NA,NA,35.945945945945944,NA
55418,Hennepin County,MN,NA,NA,64.14414414414415,NA
55422,Hennepin County,MN,62.91793313069909,49.57746478873239,NA,NA
55423,Hennepin County,MN,NA,11.267605633802818,NA,NA
55429,Hennepin County,MN,16.41337386018237,NA,NA,NA
55433,Anoka County,MN,NA,60.281690140845065,NA,NA
55443,Hennepin County,MN,NA,31.549295774647888,NA,NA
55744,Itasca County,MN,NA,45.63380281690141,NA,NA
55803,St. Louis County,MN,79.63525835866263,NA,NA,NA
55812,St. Louis County,MN,NA,NA,82.16216216216216,NA
55987,Winona County,MN,NA,NA,9.54954954954955,NA
56073,Brown County,MN,NA,NA,24.954954954954957,NA
56085,Brown County,MN,90.5775075987842,NA,NA,NA
56143,Jackson County,MN,NA,NA,91.8918918918919,NA
56308,Douglas County,MN,NA,NA,29.90990990990991,NA
56353,Mille Lacs County,MN,NA,85.91549295774648,NA,86.33720930232558
56401,Crow Wing County,MN,26.13981762917933,NA,NA,NA
56425,Crow Wing County,MN,NA,62.25352112676056,NA,NA
56470,Hubbard County,MN,NA,NA,70.27027027027027,NA
56472,Crow Wing County,MN,NA,NA,89.54954954954954,NA
56501,Becker County,MN,NA,34.08450704225352,40.45045045045045,NA
56537,Otter Tail County,MN,NA,NA,NA,97.09302325581395
56560,Clay County,MN,NA,10.140845070422536,NA,NA
56573,Otter Tail County,MN,NA,97.74647887323944,NA,NA
38614,Coahoma County,MS,NA,NA,54.59459459459459,NA
38618,Tate County,MS,NA,90.4225352112676,NA,NA
38632,DeSoto County,MS,NA,NA,53.24324324324324,NA
38637,DeSoto County,MS,NA,NA,51.621621621621614,NA
38654,DeSoto County,MS,NA,NA,25.855855855855857,NA
38703,Washington County,MS,NA,NA,73.33333333333333,NA
38834,Alcorn County,MS,NA,NA,22.34234234234234,NA
38846,Alcorn County,MS,NA,NA,99.63963963963964,NA
39038,Humphreys County,MS,NA,NA,92.88288288288288,NA
39074,Scott County,MS,17.933130699088146,NA,NA,NA
39120,Adams County,MS,NA,69.29577464788733,NA,NA
39150,Claiborne County,MS,NA,NA,99.36936936936937,NA
39452,George County,MS,11.246200607902736,NA,NA,NA
39466,Pearl River County,MS,NA,NA,NA,18.313953488372093
39482,Lamar County,MS,79.63525835866263,NA,NA,NA
39531,Harrison County,MS,NA,74.08450704225352,NA,NA
39563,Jackson County,MS,75.07598784194529,72.11267605633803,NA,NA
39759,Oktibbeha County,MS,70.82066869300911,NA,NA,NA
63010,Jefferson County,MO,NA,NA,40.99099099099099,NA
63069,Franklin County,MO,NA,NA,80.09009009009009,NA
63104,St. Louis city,MO,NA,NA,59.36936936936937,NA
63107,St. Louis city,MO,NA,61.408450704225345,NA,NA
63119,St. Louis County,MO,NA,NA,93.15315315315316,NA
63123,St. Louis County,MO,NA,NA,38.55855855855856,NA
63125,St. Louis County,MO,NA,51.267605633802816,NA,NA
63132,St. Louis County,MO,NA,NA,99.72972972972973,NA
63138,St. Louis County,MO,25.227963525835868,NA,NA,NA
63304,St. Charles County,MO,NA,NA,31.98198198198198,NA
63376,St. Charles County,MO,12.76595744680851,NA,NA,NA
63379,Lincoln County,MO,NA,45.352112676056336,NA,NA
63845,Mississippi County,MO,82.67477203647417,NA,NA,NA
63901,Butler County,MO,2.127659574468085,NA,NA,NA
64012,Cass County,MO,65.95744680851064,30.140845070422532,NA,NA
64014,Jackson County,MO,NA,NA,56.21621621621622,NA
64015,Jackson County,MO,NA,NA,14.594594594594595,NA
64024,Clay County,MO,NA,NA,20.72072072072072,NA
64052,Jackson County,MO,NA,NA,11.351351351351353,NA
64055,Jackson County,MO,NA,NA,NA,9.30232558139535
64056,Jackson County,MO,NA,NA,28.37837837837838,NA
64063,Jackson County,MO,NA,NA,74.05405405405405,NA
64077,Ray County,MO,95.74468085106383,NA,NA,NA
64093,Johnson County,MO,NA,53.80281690140845,NA,NA
64133,Jackson County,MO,NA,NA,4.954954954954955,NA
64137,Jackson County,MO,77.81155015197568,NA,NA,NA
64150,Platte County,MO,NA,NA,NA,94.47674418604652
64601,Livingston County,MO,NA,NA,51.891891891891895,NA
64804,Jasper County,MO,NA,59.71830985915493,NA,NA
64854,McDonald County,MO,NA,NA,90.90090090090091,NA
65201,Boone County,MO,NA,NA,NA,65.98837209302324
65202,Boone County,MO,NA,5.915492957746479,NA,NA
65203,Boone County,MO,NA,NA,26.756756756756754,NA
65781,Greene County,MO,NA,80,NA,NA
65803,Greene County,MO,NA,13.239436619718308,NA,NA
59501,Hill County,MT,NA,NA,95.31531531531532,NA
59870,Ravalli County,MT,NA,NA,91.8918918918919,NA
68007,Douglas County,NE,81.45896656534954,NA,NA,NA
68152,Douglas County,NE,NA,NA,NA,90.40697674418605
68164,Douglas County,NE,NA,NA,76.75675675675676,NA
68505,Lancaster County,NE,NA,NA,84.5945945945946,NA
68522,Lancaster County,NE,NA,NA,95.67567567567568,NA
68701,Madison County,NE,NA,NA,53.333333333333336,NA
89101,Clark County,NV,NA,NA,30.810810810810814,NA
89108,Clark County,NV,NA,NA,24.234234234234233,NA
89118,Clark County,NV,NA,NA,87.92792792792793,NA
89119,Clark County,NV,NA,NA,56.666666666666664,NA
89123,Clark County,NV,NA,NA,NA,34.883720930232556
89128,Clark County,NV,NA,NA,53.42342342342342,NA
89139,Clark County,NV,NA,95.2112676056338,NA,NA
89169,Clark County,NV,NA,68.73239436619718,NA,NA
89406,Churchill County,NV,NA,NA,43.69369369369369,NA
89503,Washoe County,NV,NA,NA,62.07207207207207,NA
89521,Washoe County,NV,NA,NA,52.52252252252252,NA
89703,Carson City,NV,NA,NA,NA,72.38372093023256
03031,Hillsborough County,NH,NA,NA,NA,68.8953488372093
03060,Hillsborough County,NH,NA,NA,7.837837837837839,NA
03062,Hillsborough County,NH,NA,NA,21.17117117117117,NA
03079,Rockingham County,NH,61.09422492401215,NA,NA,NA
07011,Passaic County,NJ,24.316109422492403,NA,NA,NA
07026,Bergen County,NJ,NA,NA,18.10810810810811,NA
07029,Hudson County,NJ,NA,NA,NA,86.04651162790698
07062,Union County,NJ,NA,51.267605633802816,NA,NA
07065,Union County,NJ,50.455927051671736,NA,NA,NA
07067,Middlesex County,NJ,NA,NA,78.1981981981982,NA
07081,Union County,NJ,NA,NA,88.37837837837837,NA
07087,Hudson County,NJ,NA,NA,20.27027027027027,68.6046511627907
07093,Hudson County,NJ,NA,NA,7.567567567567568,NA
07094,Hudson County,NJ,NA,NA,62.792792792792795,NA
07104,Essex County,NJ,NA,9.014084507042254,0.5405405405405406,NA
07106,Essex County,NJ,NA,NA,NA,34.593023255813954
07109,Essex County,NJ,NA,NA,16.306306306306308,18.023255813953487
07111,Essex County,NJ,NA,NA,9.18918918918919,NA
07112,Essex County,NJ,NA,22.816901408450704,4.054054054054054,NA
07202,Union County,NJ,NA,NA,64.05405405405405,NA
07206,Union County,NJ,NA,NA,67.92792792792793,NA
07305,Hudson County,NJ,NA,NA,0.45045045045045046,NA
07306,Hudson County,NJ,NA,27.042253521126757,NA,NA
07307,Hudson County,NJ,NA,NA,40.18018018018018,NA
07462,Sussex County,NJ,94.52887537993921,NA,85.67567567567568,NA
07470,Passaic County,NJ,NA,NA,19.18918918918919,NA
07480,Passaic County,NJ,NA,NA,60.810810810810814,NA
07513,Passaic County,NJ,NA,NA,86.21621621621621,NA
07601,Bergen County,NJ,NA,NA,6.936936936936937,NA
07621,Bergen County,NJ,NA,NA,84.77477477477477,NA
07675,Bergen County,NJ,NA,NA,68.55855855855856,NA
07712,Monmouth County,NJ,NA,NA,3.783783783783784,NA
07719,Monmouth County,NJ,NA,91.26760563380282,NA,NA
07728,Monmouth County,NJ,10.030395136778116,15.492957746478872,17.56756756756757,NA
07740,Monmouth County,NJ,NA,5.070422535211268,8.018018018018019,8.720930232558139
07753,Monmouth County,NJ,NA,NA,27.387387387387385,NA
07801,Morris County,NJ,NA,17.183098591549296,NA,NA
08012,Camden County,NJ,NA,NA,98.28828828828829,NA
08015,Burlington County,NJ,NA,7.042253521126761,NA,NA
08036,Burlington County,NJ,NA,NA,NA,88.66279069767442
08043,Camden County,NJ,NA,NA,46.3963963963964,NA
08046,Burlington County,NJ,NA,NA,7.027027027027027,NA
08049,Camden County,NJ,NA,NA,97.2072072072072,NA
08050,Ocean County,NJ,NA,NA,38.91891891891892,NA
08053,Burlington County,NJ,18.541033434650455,NA,NA,NA
08057,Burlington County,NJ,87.53799392097264,NA,NA,NA
08066,Gloucester County,NJ,NA,54.647887323943664,NA,NA
08069,Salem County,NJ,NA,NA,48.37837837837838,NA
08077,Burlington County,NJ,NA,98.59154929577466,NA,NA
08094,Gloucester County,NJ,NA,NA,63.96396396396396,NA
08105,Camden County,NJ,NA,NA,1.3513513513513513,NA
08110,Camden County,NJ,NA,NA,NA,92.15116279069767
08205,Atlantic County,NJ,31.61094224924012,65.07042253521126,NA,NA
08210,Cape May County,NJ,47.41641337386018,NA,NA,NA
08226,Cape May County,NJ,NA,NA,61.44144144144145,NA
08234,Atlantic County,NJ,NA,8.169014084507042,NA,NA
08270,Cape May County,NJ,NA,88.45070422535211,NA,NA
08312,Gloucester County,NJ,NA,NA,85.58558558558559,NA
08318,Salem County,NJ,NA,NA,59.09909909909909,67.73255813953489
08322,Gloucester County,NJ,NA,NA,57.65765765765766,NA
08332,Cumberland County,NJ,NA,28.450704225352112,NA,NA
08360,Cumberland County,NJ,NA,1.6901408450704223,NA,NA
08401,Atlantic County,NJ,NA,NA,4.414414414414415,NA
08609,Mercer County,NJ,NA,19.43661971830986,NA,NA
08618,Mercer County,NJ,6.382978723404255,NA,0.7207207207207207,NA
08638,Mercer County,NJ,NA,11.830985915492958,NA,NA
08701,Ocean County,NJ,NA,NA,NA,75
08723,Ocean County,NJ,NA,NA,18.37837837837838,NA
08751,Ocean County,NJ,NA,NA,82.07207207207207,NA
08755,Ocean County,NJ,NA,NA,25.945945945945947,NA
08757,Ocean County,NJ,NA,NA,NA,5.813953488372093
08758,Ocean County,NJ,NA,NA,94.05405405405406,NA
08809,Hunterdon County,NJ,NA,NA,81.35135135135135,NA
08817,Middlesex County,NJ,NA,NA,57.20720720720721,NA
08827,Hunterdon County,NJ,99.69604863221885,NA,NA,NA
08840,Middlesex County,NJ,NA,NA,90.18018018018019,NA
08861,Middlesex County,NJ,NA,NA,1.8018018018018018,NA
08869,Somerset County,NJ,NA,95.49295774647887,NA,NA
08879,Middlesex County,NJ,NA,65.35211267605634,NA,NA
08882,Middlesex County,NJ,NA,48.45070422535211,63.60360360360361,NA
08901,Middlesex County,NJ,NA,NA,5.9459459459459465,NA
87105,Bernalillo County,NM,9.72644376899696,NA,NA,NA
87110,Bernalillo County,NM,5.167173252279635,NA,NA,NA
87111,Bernalillo County,NM,NA,NA,40,NA
87112,Bernalillo County,NM,NA,NA,NA,42.73255813953488
87114,Bernalillo County,NM,NA,NA,9.45945945945946,NA
87121,Bernalillo County,NM,NA,NA,5.225225225225225,NA
87124,Sandoval County,NM,NA,NA,12.342342342342343,NA
87144,Sandoval County,NM,NA,NA,23.153153153153152,NA
87327,Cibola County,NM,NA,NA,70.09009009009009,NA
87505,Santa Fe County,NM,NA,NA,5.8558558558558556,NA
87566,Rio Arriba County,NM,NA,60.84507042253521,NA,NA
88001,Doa Ana County,NM,NA,NA,29.45945945945946,NA
88012,Doa Ana County,NM,36.17021276595745,NA,36.486486486486484,NA
88061,Grant County,NM,NA,68.45070422535211,NA,NA
88101,Curry County,NM,NA,12.676056338028168,10.45045045045045,NA
88220,Eddy County,NM,NA,41.690140845070424,NA,NA
88240,Lea County,NM,NA,NA,6.756756756756757,NA
88260,Lea County,NM,NA,NA,42.7027027027027,NA
88310,Otero County,NM,NA,43.098591549295776,26.576576576576578,NA
10025,New York County,NY,NA,NA,6.666666666666667,NA
10029,New York County,NY,NA,0,NA,NA
10312,Richmond County,NY,NA,83.09859154929578,45.765765765765764,NA
10314,Richmond County,NY,NA,NA,14.144144144144144,NA
10452,Bronx County,NY,NA,NA,0.6306306306306306,1.4534883720930232
10455,Bronx County,NY,NA,0.8450704225352111,NA,NA
10456,Bronx County,NY,NA,0.28169014084507044,NA,NA
10460,Bronx County,NY,NA,NA,2.2522522522522523,NA
10461,Bronx County,NY,NA,NA,NA,18.8953488372093
10462,Bronx County,NY,NA,1.4084507042253522,NA,NA
10468,Bronx County,NY,NA,NA,1.4414414414414414,NA
10583,Westchester County,NY,NA,NA,87.56756756756758,NA
10605,Westchester County,NY,NA,NA,89.0990990990991,NA
10705,Westchester County,NY,NA,NA,NA,29.069767441860467
11003,Nassau County,NY,NA,NA,60.36036036036037,NA
11201,Kings County,NY,NA,NA,23.693693693693692,NA
11204,Kings County,NY,NA,NA,30.99099099099099,NA
11206,Kings County,NY,NA,1.1267605633802817,NA,NA
11208,Kings County,NY,NA,NA,0.9009009009009009,NA
11212,Kings County,NY,NA,NA,NA,1.1627906976744187
11214,Kings County,NY,NA,NA,19.00900900900901,NA
11217,Kings County,NY,NA,72.3943661971831,42.52252252252252,NA
11221,Kings County,NY,NA,NA,35.85585585585586,NA
11224,Kings County,NY,NA,NA,21.891891891891895,NA
11232,Kings County,NY,NA,3.943661971830986,NA,NA
11236,Kings County,NY,NA,12.112676056338028,NA,NA
11354,Queens County,NY,NA,21.408450704225352,NA,NA
11355,Queens County,NY,NA,NA,30.270270270270274,NA
11368,Queens County,NY,1.21580547112462,NA,NA,NA
11372,Queens County,NY,NA,NA,32.072072072072075,NA
11374,Queens County,NY,NA,NA,NA,27.03488372093023
11412,Queens County,NY,NA,NA,51.08108108108108,NA
11413,Queens County,NY,NA,NA,NA,43.02325581395349
11419,Queens County,NY,NA,16.901408450704224,NA,NA
11426,Queens County,NY,NA,NA,NA,79.94186046511628
11427,Queens County,NY,NA,NA,77.47747747747748,NA
11557,Nassau County,NY,NA,NA,99.81981981981983,NA
11702,Suffolk County,NY,NA,NA,94.14414414414415,NA
11717,Suffolk County,NY,NA,5.633802816901409,NA,NA
11756,Nassau County,NY,NA,90.4225352112676,NA,NA
11758,Nassau County,NY,NA,99.15492957746478,NA,NA
11763,Suffolk County,NY,NA,NA,48.28828828828829,NA
11951,Suffolk County,NY,NA,NA,71.62162162162163,NA
12009,Albany County,NY,NA,NA,99.54954954954955,NA
12010,Montgomery County,NY,NA,6.760563380281689,26.936936936936938,NA
12019,Saratoga County,NY,NA,NA,79.81981981981981,NA
12025,Fulton County,NY,NA,NA,NA,83.13953488372093
12078,Fulton County,NY,NA,27.887323943661972,NA,NA
12095,Fulton County,NY,NA,NA,47.207207207207205,NA
12110,Albany County,NY,NA,NA,78.64864864864865,NA
12118,Saratoga County,NY,37.68996960486322,NA,NA,NA
12122,Schoharie County,NY,NA,NA,75.67567567567568,NA
12148,Saratoga County,NY,99.3920972644377,NA,NA,NA
12157,Schoharie County,NY,NA,77.74647887323944,NA,NA
12170,Saratoga County,NY,95.13677811550151,NA,NA,NA
12180,Rensselaer County,NY,NA,63.94366197183099,NA,40.69767441860465
12182,Rensselaer County,NY,NA,NA,52.25225225225225,NA
12208,Albany County,NY,72.94832826747721,NA,NA,NA
12307,Schenectady County,NY,NA,NA,68.82882882882882,NA
12308,Schenectady County,NY,45.2887537993921,NA,NA,NA
12550,Orange County,NY,38.60182370820669,NA,NA,NA
12601,Dutchess County,NY,NA,NA,31.08108108108108,NA
12801,Warren County,NY,NA,NA,22.432432432432435,NA
12816,Washington County,NY,NA,NA,87.65765765765767,NA
12822,Saratoga County,NY,NA,NA,78.10810810810811,NA
12866,Saratoga County,NY,25.835866261398177,NA,15.765765765765765,NA
12946,Essex County,NY,NA,NA,37.92792792792793,NA
12953,Franklin County,NY,NA,NA,NA,19.767441860465116
12962,Clinton County,NY,86.32218844984803,NA,66.57657657657657,NA
12974,Essex County,NY,NA,NA,93.6036036036036,NA
12983,Franklin County,NY,NA,NA,81.26126126126127,NA
12992,Clinton County,NY,66.56534954407294,NA,NA,NA
13126,Oswego County,NY,25.53191489361702,36.056338028169016,NA,NA
13165,Seneca County,NY,NA,NA,63.24324324324324,NA
13205,Onondaga County,NY,19.45288753799392,NA,NA,NA
13210,Onondaga County,NY,NA,NA,37.83783783783784,NA
13215,Onondaga County,NY,62.61398176291794,NA,NA,NA
13357,Herkimer County,NY,NA,NA,NA,58.720930232558146
13365,Herkimer County,NY,33.43465045592705,NA,NA,NA
13367,Lewis County,NY,NA,NA,40.9009009009009,NA
13413,Oneida County,NY,NA,NA,50.9009009009009,NA
13416,Herkimer County,NY,NA,NA,96.84684684684684,NA
13421,Madison County,NY,NA,81.97183098591549,NA,NA
13440,Oneida County,NY,NA,NA,2.7027027027027026,NA
13613,St. Lawrence County,NY,86.62613981762918,NA,NA,NA
13642,St. Lawrence County,NY,43.76899696048632,NA,33.96396396396396,NA
13648,Lewis County,NY,91.7933130699088,NA,NA,NA
13734,Tioga County,NY,NA,NA,98.37837837837839,NA
13753,Delaware County,NY,67.17325227963525,NA,NA,NA
13760,Broome County,NY,NA,NA,0.8108108108108109,NA
13775,Delaware County,NY,NA,NA,NA,99.70930232558139
14009,Wyoming County,NY,92.09726443768997,NA,NA,NA
14020,Genesee County,NY,NA,52.394366197183096,13.423423423423422,NA
14043,Erie County,NY,NA,NA,34.5945945945946,NA
14048,Chautauqua County,NY,NA,NA,38.648648648648646,NA
14051,Erie County,NY,59.87841945288754,NA,NA,NA
14075,Erie County,NY,NA,NA,9.72972972972973,NA
14127,Erie County,NY,NA,NA,17.74774774774775,NA
14141,Erie County,NY,75.98784194528876,NA,NA,85.46511627906976
14206,Erie County,NY,NA,NA,NA,28.77906976744186
14207,Erie County,NY,NA,NA,NA,35.174418604651166
14210,Erie County,NY,NA,62.25352112676056,28.64864864864865,NA
14220,Erie County,NY,NA,NA,77.65765765765765,NA
14226,Erie County,NY,NA,92.67605633802816,NA,NA
14228,Erie County,NY,NA,NA,49.549549549549546,NA
14304,Niagara County,NY,NA,NA,5.585585585585585,NA
14424,Ontario County,NY,NA,NA,19.27927927927928,NA
14425,Ontario County,NY,NA,NA,19.90990990990991,NA
14450,Monroe County,NY,0.60790273556231,NA,NA,NA
14456,Ontario County,NY,NA,NA,8.288288288288289,NA
14466,Ontario County,NY,NA,NA,94.68468468468468,NA
14468,Monroe County,NY,20.060790273556233,NA,NA,NA
14469,Ontario County,NY,NA,NA,43.96396396396396,NA
14470,Orleans County,NY,NA,NA,49.18918918918919,NA
14512,Ontario County,NY,NA,NA,78.1981981981982,NA
14514,Monroe County,NY,NA,NA,70.27027027027027,NA
14522,Wayne County,NY,NA,NA,35.4054054054054,30.523255813953487
14527,Yates County,NY,NA,NA,29.639639639639643,NA
14530,Wyoming County,NY,59.27051671732523,NA,NA,NA
14550,Wyoming County,NY,91.1854103343465,NA,NA,NA
14559,Monroe County,NY,38.297872340425535,NA,NA,NA
14605,Monroe County,NY,NA,NA,NA,59.01162790697675
14606,Monroe County,NY,NA,NA,3.5135135135135136,NA
14615,Monroe County,NY,NA,NA,12.702702702702704,NA
14617,Monroe County,NY,NA,NA,7.297297297297297,NA
14621,Monroe County,NY,NA,6.478873239436619,NA,NA
14622,Monroe County,NY,NA,NA,26.216216216216214,NA
14623,Monroe County,NY,NA,NA,19.63963963963964,NA
14624,Monroe County,NY,NA,NA,NA,3.77906976744186
14626,Monroe County,NY,NA,NA,NA,5.523255813953488
14701,Chautauqua County,NY,NA,NA,3.6036036036036037,NA
14801,Steuben County,NY,NA,NA,95.04504504504504,NA
14810,Steuben County,NY,NA,NA,NA,50.2906976744186
14821,Steuben County,NY,NA,99.71830985915493,NA,NA
14843,Steuben County,NY,NA,NA,NA,33.13953488372093
14845,Chemung County,NY,NA,NA,NA,30.813953488372093
14867,Tompkins County,NY,NA,NA,64.86486486486487,NA
14871,Chemung County,NY,NA,NA,96.30630630630631,NA
14883,Tioga County,NY,NA,NA,86.12612612612612,NA
14895,Allegany County,NY,NA,NA,NA,44.18604651162791
14904,Chemung County,NY,NA,NA,30.180180180180184,NA
27028,Davie County,NC,NA,NA,NA,9.593023255813954
27107,Forsyth County,NC,NA,NA,4.774774774774775,NA
27127,Forsyth County,NC,NA,NA,16.576576576576578,NA
27217,Alamance County,NC,NA,NA,44.5045045045045,NA
27239,Davidson County,NC,NA,NA,70.72072072072072,NA
27260,Guilford County,NC,NA,41.12676056338028,58.46846846846847,54.94186046511628
27284,Forsyth County,NC,NA,NA,7.927927927927928,NA
27292,Davidson County,NC,NA,NA,NA,2.0348837209302326
27360,Davidson County,NC,NA,NA,4.324324324324325,NA
27405,Guilford County,NC,NA,17.464788732394364,NA,NA
27406,Guilford County,NC,NA,NA,4.864864864864865,NA
27511,Wake County,NC,NA,NA,NA,33.72093023255814
27516,Orange County,NC,53.799392097264445,NA,NA,NA
27549,Franklin County,NC,NA,76.33802816901408,25.225225225225223,NA
27596,Franklin County,NC,NA,NA,67.2072072072072,NA
27614,Wake County,NC,NA,94.08450704225352,NA,NA
27707,Durham County,NC,NA,NA,14.414414414414415,NA
27713,Durham County,NC,19.148936170212767,NA,26.666666666666668,NA
27803,Nash County,NC,NA,NA,50.09009009009009,NA
27834,Pitt County,NC,4.5592705167173255,NA,NA,NA
27892,Martin County,NC,34.34650455927052,NA,NA,NA
27893,Wilson County,NC,NA,56.61971830985916,17.207207207207205,NA
27896,Wilson County,NC,NA,NA,53.96396396396397,NA
27983,Bertie County,NC,NA,83.66197183098592,NA,NA
28023,Rowan County,NC,NA,NA,70.9009009009009,NA
28036,Mecklenburg County,NC,NA,NA,NA,90.69767441860465
28052,Gaston County,NC,NA,NA,28.82882882882883,NA
28054,Gaston County,NC,NA,NA,22.07207207207207,NA
28103,Union County,NC,NA,70.4225352112676,NA,NA
28110,Union County,NC,NA,NA,24.774774774774773,NA
28152,Cleveland County,NC,NA,40,NA,NA
28214,Mecklenburg County,NC,NA,NA,31.261261261261264,NA
28215,Mecklenburg County,NC,NA,10.422535211267606,NA,NA
28227,Mecklenburg County,NC,NA,NA,22.972972972972975,NA
28314,Cumberland County,NC,NA,44.225352112676056,NA,NA
28345,Richmond County,NC,75.98784194528876,NA,NA,NA
28364,Robeson County,NC,NA,NA,NA,62.7906976744186
28409,New Hanover County,NC,NA,NA,41.891891891891895,NA
28412,New Hanover County,NC,NA,NA,18.01801801801802,NA
28610,Catawba County,NC,NA,NA,93.51351351351352,NA
28612,Burke County,NC,NA,90.4225352112676,NA,93.6046511627907
28642,Yadkin County,NC,NA,77.74647887323944,NA,NA
28658,Catawba County,NC,NA,NA,NA,43.895348837209305
28659,Wilkes County,NC,NA,NA,23.873873873873876,NA
28677,Iredell County,NC,27.0516717325228,NA,NA,NA
28712,Transylvania County,NC,NA,NA,52.43243243243243,NA
28771,Graham County,NC,NA,NA,76.30630630630631,NA
28801,Buncombe County,NC,NA,NA,91.35135135135135,NA
58103,Cass County,ND,NA,NA,8.198198198198197,NA
58201,Grand Forks County,ND,6.990881458966565,NA,NA,7.55813953488372
58701,Ward County,ND,4.25531914893617,NA,NA,NA
58703,Ward County,ND,79.33130699088146,NA,NA,NA
43011,Knox County,OH,NA,NA,87.02702702702703,NA
43019,Knox County,OH,NA,NA,76.12612612612612,NA
43050,Knox County,OH,NA,18.87323943661972,8.378378378378379,NA
43055,Licking County,OH,3.951367781155015,NA,NA,NA
43056,Licking County,OH,NA,NA,39.369369369369366,39.24418604651162
43103,Pickaway County,OH,NA,63.66197183098592,NA,NA
43123,Franklin County,OH,NA,NA,8.468468468468467,NA
43130,Fairfield County,OH,NA,NA,1.891891891891892,NA
43138,Hocking County,OH,19.756838905775076,NA,NA,NA
43147,Fairfield County,OH,24.620060790273556,NA,NA,NA
43160,Fayette County,OH,NA,29.859154929577464,NA,NA
43207,Franklin County,OH,NA,NA,1.981981981981982,NA
43211,Franklin County,OH,NA,NA,11.711711711711711,NA
43230,Franklin County,OH,NA,NA,NA,15.988372093023257
43302,Marion County,OH,NA,NA,16.216216216216218,NA
43326,Hardin County,OH,NA,NA,NA,45.05813953488372
43402,Wood County,OH,NA,NA,24.054054054054056,NA
43449,Ottawa County,OH,NA,NA,72.7927927927928,NA
43452,Ottawa County,OH,33.130699088145896,NA,NA,NA
43506,Williams County,OH,62.31003039513677,78.87323943661971,NA,NA
43512,Defiance County,OH,NA,NA,NA,6.395348837209303
43528,Lucas County,OH,NA,NA,41.8018018018018,NA
43545,Henry County,OH,NA,NA,NA,47.093023255813954
43551,Wood County,OH,NA,NA,NA,59.883720930232556
43558,Fulton County,OH,NA,96.05633802816902,58.55855855855856,NA
43560,Lucas County,OH,NA,NA,61.08108108108108,NA
43605,Lucas County,OH,NA,NA,3.153153153153153,NA
43611,Lucas County,OH,30.091185410334347,NA,NA,NA
43612,Lucas County,OH,NA,NA,5.135135135135135,NA
43614,Lucas County,OH,23.10030395136778,NA,NA,NA
43615,Lucas County,OH,42.5531914893617,13.239436619718308,4.234234234234234,NA
43713,Belmont County,OH,NA,65.35211267605634,NA,NA
43724,Noble County,OH,80.24316109422493,NA,NA,NA
43725,Guernsey County,OH,NA,NA,17.027027027027028,NA
43772,Guernsey County,OH,NA,NA,99.1891891891892,NA
43787,Morgan County,OH,NA,NA,NA,98.83720930232558
43812,Coshocton County,OH,NA,NA,6.216216216216217,NA
43907,Harrison County,OH,NA,NA,NA,73.25581395348837
43964,Jefferson County,OH,NA,NA,61.891891891891895,NA
44001,Lorain County,OH,NA,NA,NA,4.941860465116279
44011,Lorain County,OH,9.118541033434651,49.57746478873239,NA,NA
44024,Geauga County,OH,NA,NA,49.0990990990991,NA
44030,Ashtabula County,OH,NA,52.67605633802817,NA,NA
44035,Lorain County,OH,0.303951367781155,2.8169014084507045,0.2702702702702703,NA
44055,Lorain County,OH,NA,NA,10,NA
44067,Summit County,OH,58.96656534954408,NA,NA,19.186046511627907
44077,Lake County,OH,NA,NA,4.1441441441441444,NA
44095,Lake County,OH,NA,16.619718309859156,NA,NA
44107,Cuyahoga County,OH,NA,NA,2.4324324324324325,NA
44109,Cuyahoga County,OH,NA,NA,5.495495495495495,NA
44111,Cuyahoga County,OH,NA,0.5633802816901409,NA,NA
44112,Cuyahoga County,OH,NA,14.647887323943662,NA,NA
44114,Cuyahoga County,OH,NA,NA,33.87387387387387,NA
44121,Cuyahoga County,OH,NA,NA,NA,78.48837209302324
44125,Cuyahoga County,OH,NA,36.901408450704224,NA,NA
44128,Cuyahoga County,OH,NA,50.985915492957744,NA,NA
44130,Cuyahoga County,OH,3.64741641337386,NA,NA,NA
44134,Cuyahoga County,OH,NA,NA,9.27927927927928,NA
44145,Cuyahoga County,OH,NA,NA,NA,6.104651162790697
44146,Cuyahoga County,OH,NA,NA,NA,2.9069767441860463
44212,Medina County,OH,NA,NA,NA,1.744186046511628
44221,Summit County,OH,NA,NA,16.126126126126124,NA
44224,Summit County,OH,13.677811550151976,NA,NA,NA
44230,Wayne County,OH,64.74164133738601,NA,NA,NA
44236,Summit County,OH,NA,NA,NA,63.372093023255815
44240,Portage County,OH,21.27659574468085,NA,NA,NA
44256,Medina County,OH,NA,NA,4.594594594594595,0.29069767441860467
44281,Medina County,OH,NA,NA,24.324324324324326,NA
44314,Summit County,OH,NA,NA,29.009009009009006,NA
44319,Summit County,OH,38.60182370820669,NA,NA,NA
44408,Columbiana County,OH,NA,NA,NA,91.27906976744185
44410,Trumbull County,OH,NA,NA,NA,27.61627906976744
44425,Trumbull County,OH,NA,NA,33.24324324324324,NA
44432,Columbiana County,OH,50.75987841945289,NA,NA,NA
44470,Trumbull County,OH,NA,NA,97.56756756756756,NA
44483,Trumbull County,OH,NA,27.323943661971832,18.82882882882883,NA
44502,Mahoning County,OH,NA,NA,44.414414414414416,NA
44507,Mahoning County,OH,NA,89.01408450704226,NA,NA
44515,Mahoning County,OH,NA,41.12676056338028,NA,NA
44622,Tuscarawas County,OH,NA,NA,35.31531531531532,NA
44632,Stark County,OH,NA,NA,85.04504504504504,94.76744186046511
44646,Stark County,OH,NA,10.704225352112676,NA,13.662790697674417
44657,Stark County,OH,NA,NA,NA,65.11627906976744
44672,Mahoning County,OH,NA,75.21126760563381,NA,NA
44683,Tuscarawas County,OH,NA,NA,61.98198198198198,76.74418604651163
44708,Stark County,OH,NA,NA,30.45045045045045,NA
44824,Erie County,OH,NA,NA,92.7927927927928,NA
44833,Crawford County,OH,30.69908814589666,NA,NA,NA
44870,Erie County,OH,1.5197568389057752,NA,15.135135135135137,NA
44890,Huron County,OH,NA,NA,42.252252252252255,64.53488372093024
45011,Butler County,OH,NA,NA,3.153153153153153,NA
45014,Butler County,OH,NA,NA,NA,20.058139534883722
45036,Warren County,OH,NA,NA,55.67567567567567,NA
45044,Butler County,OH,1.82370820668693,NA,NA,NA
45102,Clermont County,OH,NA,NA,71.89189189189189,NA
45121,Brown County,OH,NA,NA,NA,95.63953488372093
45133,Highland County,OH,NA,NA,23.423423423423422,21.802325581395348
45177,Clinton County,OH,NA,NA,26.396396396396398,NA
45224,Hamilton County,OH,NA,NA,23.873873873873876,NA
45236,Hamilton County,OH,NA,NA,55.31531531531532,NA
45247,Hamilton County,OH,NA,87.60563380281691,62.43243243243243,NA
45248,Hamilton County,OH,NA,NA,57.20720720720721,NA
45251,Hamilton County,OH,20.364741641337385,NA,NA,NA
45324,Greene County,OH,8.206686930091186,NA,NA,NA
45335,Greene County,OH,NA,NA,96.93693693693693,NA
45356,Miami County,OH,NA,NA,15.945945945945947,NA
45385,Greene County,OH,NA,NA,12.792792792792792,NA
45404,Montgomery County,OH,NA,NA,56.30630630630631,NA
45420,Montgomery County,OH,NA,NA,62.34234234234234,NA
45424,Montgomery County,OH,NA,3.6619718309859155,11.891891891891893,NA
45432,Greene County,OH,NA,NA,73.06306306306305,NA
45503,Clark County,OH,NA,NA,53.06306306306306,NA
45660,Adams County,OH,NA,NA,76.66666666666667,NA
45750,Washington County,OH,NA,42.25352112676056,2.1621621621621623,NA
45771,Meigs County,OH,NA,NA,83.15315315315316,NA
45784,Washington County,OH,NA,NA,NA,97.67441860465115
45804,Allen County,OH,NA,NA,12.882882882882882,NA
45805,Allen County,OH,NA,NA,15.045045045045043,NA
45807,Allen County,OH,NA,NA,65.04504504504504,NA
45817,Allen County,OH,94.22492401215806,NA,NA,NA
45875,Putnam County,OH,83.58662613981764,83.94366197183099,NA,NA
73018,Grady County,OK,NA,NA,NA,33.43023255813954
73025,Oklahoma County,OK,NA,NA,72.52252252252252,NA
73034,Oklahoma County,OK,NA,NA,64.86486486486487,NA
73080,McClain County,OK,NA,85.07042253521126,NA,NA
73107,Oklahoma County,OK,NA,53.52112676056338,NA,NA
73110,Oklahoma County,OK,23.70820668693009,NA,NA,NA
73132,Oklahoma County,OK,NA,NA,57.83783783783784,NA
73160,Cleveland County,OK,NA,NA,13.783783783783784,NA
73401,Carter County,OK,NA,36.61971830985916,NA,NA
73521,Jackson County,OK,NA,NA,69.81981981981981,NA
73703,Garfield County,OK,73.25227963525836,NA,NA,NA
73772,Blaine County,OK,NA,NA,98.91891891891892,NA
73945,Texas County,OK,NA,NA,98.82882882882883,NA
74006,Washington County,OK,NA,NA,58.198198198198206,NA
74012,Tulsa County,OK,NA,66.19718309859155,NA,NA
74066,Creek County,OK,NA,NA,33.513513513513516,NA
74112,Tulsa County,OK,NA,NA,57.117117117117125,NA
74129,Tulsa County,OK,NA,72.3943661971831,NA,NA
74145,Tulsa County,OK,NA,NA,69.54954954954955,NA
74337,Mayes County,OK,NA,NA,96.3963963963964,NA
74354,Ottawa County,OK,NA,38.87323943661972,NA,NA
74743,Choctaw County,OK,NA,NA,NA,86.62790697674419
74820,Pontotoc County,OK,NA,NA,9.36936936936937,NA
74851,Pottawatomie County,OK,NA,NA,NA,70.93023255813954
74955,Sequoyah County,OK,NA,51.83098591549295,NA,NA
97022,Clackamas County,OR,NA,NA,95.4054054054054,NA
97024,Multnomah County,OR,NA,NA,67.11711711711712,NA
97045,Clackamas County,OR,NA,NA,16.756756756756758,NA
97048,Columbia County,OR,NA,NA,NA,93.02325581395348
97068,Clackamas County,OR,NA,NA,68.1981981981982,NA
97070,Clackamas County,OR,NA,NA,65.76576576576578,NA
97078,Washington County,OR,NA,NA,71.35135135135135,NA
97141,Tillamook County,OR,NA,NA,NA,60.17441860465116
97206,Multnomah County,OR,NA,70.4225352112676,NA,NA
97230,Multnomah County,OR,NA,NA,25.495495495495497,NA
97239,Multnomah County,OR,NA,NA,97.92792792792793,NA
97302,Marion County,OR,NA,NA,45.31531531531531,NA
97306,Marion County,OR,NA,NA,59.27927927927929,NA
97322,Linn County,OR,NA,NA,15.405405405405407,NA
97338,Polk County,OR,NA,74.36619718309859,NA,NA
97415,Curry County,OR,NA,NA,49.72972972972973,NA
97467,Douglas County,OR,NA,NA,88.1981981981982,NA
97471,Douglas County,OR,NA,NA,20.09009009009009,NA
97478,Lane County,OR,NA,NA,39.63963963963964,NA
97501,Jackson County,OR,NA,NA,35.22522522522522,NA
97504,Jackson County,OR,NA,NA,NA,49.41860465116279
97539,Jackson County,OR,NA,NA,96.75675675675676,NA
97630,Lake County,OR,NA,NA,NA,89.24418604651163
97754,Crook County,OR,51.671732522796354,NA,NA,NA
97850,Union County,OR,NA,NA,41.53153153153153,NA
15108,Allegheny County,PA,NA,NA,42.07207207207207,NA
15132,Allegheny County,PA,NA,NA,41.711711711711715,NA
15301,Washington County,PA,NA,NA,7.207207207207207,NA
15501,Somerset County,PA,NA,NA,58.648648648648646,NA
15642,Westmoreland County,PA,NA,NA,24.594594594594597,NA
15644,Westmoreland County,PA,NA,NA,63.693693693693696,NA
15701,Indiana County,PA,NA,NA,56.93693693693693,NA
15801,Clearfield County,PA,NA,NA,9.0990990990991,NA
16046,Butler County,PA,NA,NA,88.55855855855856,NA
16057,Butler County,PA,NA,NA,68.55855855855856,NA
16101,Lawrence County,PA,NA,NA,NA,8.13953488372093
16117,Lawrence County,PA,NA,NA,54.77477477477477,NA
16127,Mercer County,PA,NA,NA,89.81981981981983,NA
16335,Crawford County,PA,NA,NA,NA,10.465116279069768
16365,Warren County,PA,15.80547112462006,NA,NA,NA
16428,Erie County,PA,NA,NA,84.86486486486487,NA
16511,Erie County,PA,NA,NA,82.7927927927928,NA
16602,Blair County,PA,NA,NA,15.315315315315313,NA
16635,Blair County,PA,NA,NA,79.36936936936937,NA
16673,Blair County,PA,NA,92.67605633802816,NA,NA
16830,Clearfield County,PA,NA,NA,30.9009009009009,NA
17033,Dauphin County,PA,NA,NA,34.234234234234236,NA
17044,Mifflin County,PA,NA,56.33802816901409,NA,NA
17067,Lebanon County,PA,NA,NA,67.38738738738739,NA
17087,Lebanon County,PA,NA,NA,97.47747747747748,NA
17112,Dauphin County,PA,16.41337386018237,NA,19.81981981981982,NA
17268,Franklin County,PA,NA,NA,20,NA
17363,York County,PA,NA,NA,82.61261261261261,NA
17368,York County,PA,NA,NA,NA,81.1046511627907
17404,York County,PA,NA,46.478873239436616,NA,NA
17522,Lancaster County,PA,NA,NA,61.711711711711715,NA
17579,Lancaster County,PA,NA,NA,NA,98.54651162790698
17701,Lycoming County,PA,NA,26.478873239436616,5.315315315315315,NA
17728,Lycoming County,PA,NA,NA,88.10810810810811,NA
17777,Northumberland County,PA,NA,NA,NA,81.3953488372093
17901,Schuylkill County,PA,12.158054711246201,NA,NA,NA
17931,Schuylkill County,PA,NA,96.3380281690141,NA,NA
17961,Schuylkill County,PA,NA,NA,NA,89.53488372093024
17970,Schuylkill County,PA,NA,NA,96.57657657657658,NA
17976,Schuylkill County,PA,NA,NA,85.4054054054054,NA
18013,Northampton County,PA,NA,NA,NA,45.63953488372093
18034,Lehigh County,PA,96.96048632218846,NA,NA,NA
18036,Lehigh County,PA,NA,NA,NA,35.46511627906977
18045,Northampton County,PA,NA,NA,72.52252252252252,NA
18049,Lehigh County,PA,NA,NA,46.126126126126124,NA
18103,Lehigh County,PA,NA,12.957746478873238,NA,6.976744186046512
18222,Luzerne County,PA,NA,NA,85.4954954954955,NA
18237,Schuylkill County,PA,NA,100,NA,NA
18255,Carbon County,PA,88.44984802431611,NA,NA,NA
18330,Monroe County,PA,81.45896656534954,NA,NA,NA
18436,Wayne County,PA,NA,NA,58.73873873873874,NA
18466,Monroe County,PA,NA,NA,58.37837837837838,NA
18603,Columbia County,PA,NA,NA,15.585585585585585,NA
18847,Susquehanna County,PA,NA,NA,NA,88.95348837209302
18974,Bucks County,PA,NA,NA,NA,11.918604651162791
19010,Delaware County,PA,NA,NA,59.54954954954955,NA
19033,Delaware County,PA,NA,NA,80.27027027027027,NA
19054,Bucks County,PA,NA,NA,65.49549549549549,NA
19063,Delaware County,PA,NA,NA,57.20720720720721,12.5
19067,Bucks County,PA,NA,NA,21.26126126126126,NA
19073,Delaware County,PA,NA,NA,97.2972972972973,NA
19087,Chester County,PA,NA,NA,NA,25.581395348837212
19103,Philadelphia County,PA,NA,NA,NA,25
19104,Philadelphia County,PA,NA,NA,NA,56.97674418604651
19115,Philadelphia County,PA,NA,NA,53.6036036036036,NA
19124,Philadelphia County,PA,3.343465045592705,NA,NA,NA
19128,Philadelphia County,PA,NA,NA,21.62162162162162,NA
19130,Philadelphia County,PA,NA,NA,NA,36.337209302325576
19131,Philadelphia County,PA,NA,35.2112676056338,NA,4.651162790697675
19133,Philadelphia County,PA,NA,NA,17.83783783783784,NA
19134,Philadelphia County,PA,NA,NA,3.873873873873874,NA
19135,Philadelphia County,PA,NA,15.774647887323944,NA,NA
19136,Philadelphia County,PA,NA,NA,12.612612612612612,NA
19138,Philadelphia County,PA,NA,NA,44.23423423423423,NA
19139,Philadelphia County,PA,NA,NA,40.72072072072072,NA
19141,Philadelphia County,PA,NA,NA,9.00900900900901,NA
19143,Philadelphia County,PA,NA,NA,0.990990990990991,NA
19145,Philadelphia County,PA,NA,NA,8.558558558558559,NA
19148,Philadelphia County,PA,13.37386018237082,32.11267605633803,NA,NA
19151,Philadelphia County,PA,NA,NA,45.67567567567568,NA
19152,Philadelphia County,PA,NA,NA,21.8018018018018,NA
19301,Chester County,PA,70.51671732522796,NA,NA,NA
19380,Chester County,PA,7.598784194528875,NA,NA,NA
19382,Chester County,PA,NA,NA,17.027027027027028,NA
19403,Montgomery County,PA,NA,NA,81.53153153153153,NA
19422,Montgomery County,PA,NA,NA,54.32432432432432,NA
19426,Montgomery County,PA,NA,NA,37.027027027027025,NA
19440,Montgomery County,PA,NA,NA,64.5045045045045,NA
19464,Montgomery County,PA,NA,NA,6.126126126126126,NA
19473,Montgomery County,PA,NA,NA,NA,99.4186046511628
19526,Berks County,PA,NA,NA,73.24324324324324,NA
19540,Berks County,PA,NA,NA,77.83783783783784,NA
19607,Berks County,PA,80.54711246200608,NA,NA,NA
02825,Providence County,RI,84.80243161094225,NA,NA,NA
02907,Providence County,RI,17.02127659574468,NA,NA,NA
02909,Providence County,RI,NA,NA,NA,37.5
02919,Providence County,RI,NA,NA,42.252252252252255,NA
29020,Kershaw County,SC,NA,NA,NA,71.51162790697676
29063,Richland County,SC,NA,NA,60,NA
29154,Sumter County,SC,NA,NA,53.783783783783775,NA
29161,Florence County,SC,NA,NA,74.77477477477478,NA
29301,Spartanburg County,SC,NA,NA,NA,40.406976744186046
29325,Laurens County,SC,NA,NA,56.666666666666664,NA
29330,Spartanburg County,SC,NA,88.16901408450704,NA,NA
29388,Spartanburg County,SC,NA,NA,65.04504504504504,NA
29405,Charleston County,SC,NA,NA,30.36036036036036,NA
29406,Charleston County,SC,NA,NA,NA,85.17441860465115
29445,Berkeley County,SC,NA,NA,27.027027027027028,NA
29456,Dorchester County,SC,NA,NA,37.747747747747745,NA
29486,Berkeley County,SC,NA,NA,NA,51.45348837209303
29488,Colleton County,SC,NA,NA,37.11711711711712,NA
29506,Florence County,SC,34.650455927051674,NA,NA,NA
29527,Horry County,SC,NA,NA,51.80180180180181,NA
29550,Darlington County,SC,31.61094224924012,NA,NA,NA
29571,Marion County,SC,NA,NA,70.54054054054055,NA
29625,Anderson County,SC,NA,45.63380281690141,NA,NA
29644,Greenville County,SC,NA,NA,NA,65.11627906976744
29672,Oconee County,SC,NA,NA,94.32432432432432,NA
29673,Greenville County,SC,NA,74.64788732394366,NA,NA
29697,Anderson County,SC,NA,NA,74.77477477477478,NA
29745,York County,SC,NA,NA,NA,56.68604651162791
29902,Beaufort County,SC,NA,86.47887323943661,NA,NA
57103,Minnehaha County,SD,NA,NA,25.765765765765764,NA
57401,Brown County,SD,6.079027355623101,NA,NA,NA
57555,Todd County,SD,NA,81.12676056338029,NA,NA
57702,Pennington County,SD,48.02431610942249,NA,NA,NA
37030,Smith County,TN,NA,81.97183098591549,NA,NA
37042,Montgomery County,TN,NA,NA,59.72972972972973,NA
37048,Sumner County,TN,NA,NA,97.02702702702702,NA
37066,Sumner County,TN,NA,NA,11.081081081081082,NA
37076,Davidson County,TN,NA,NA,37.38738738738739,NA
37115,Davidson County,TN,NA,32.11267605633803,12.972972972972974,NA
37138,Davidson County,TN,NA,NA,81.98198198198197,NA
37186,Sumner County,TN,62.91793313069909,NA,NA,NA
37187,Dickson County,TN,NA,NA,91.8018018018018,NA
37311,Bradley County,TN,NA,NA,36.57657657657658,NA
37321,Rhea County,TN,NA,NA,31.17117117117117,NA
37330,Franklin County,TN,NA,NA,73.15315315315316,NA
37367,Bledsoe County,TN,NA,NA,NA,66.56976744186046
37379,Hamilton County,TN,32.52279635258359,NA,NA,NA
37385,Monroe County,TN,NA,NA,81.71171171171171,NA
37398,Franklin County,TN,NA,NA,48.10810810810811,NA
37618,Sullivan County,TN,NA,57.183098591549296,NA,NA
37620,Sullivan County,TN,27.35562310030395,NA,NA,NA
37643,Carter County,TN,NA,NA,14.234234234234233,NA
37709,Grainger County,TN,NA,NA,97.83783783783784,NA
37721,Knox County,TN,76.59574468085107,NA,NA,NA
37763,Roane County,TN,NA,NA,NA,44.47674418604651
37772,Loudon County,TN,75.6838905775076,NA,NA,NA
37801,Blount County,TN,NA,NA,17.92792792792793,NA
37803,Blount County,TN,31.30699088145897,NA,NA,NA
37814,Hamblen County,TN,35.25835866261398,NA,NA,NA
37830,Anderson County,TN,NA,63.098591549295776,NA,NA
37847,Scott County,TN,NA,98.87323943661971,NA,NA
37865,Sevier County,TN,NA,86.76056338028168,NA,NA
37876,Sevier County,TN,NA,38.028169014084504,NA,NA
37877,Hamblen County,TN,NA,NA,80.9009009009009,NA
38012,Haywood County,TN,NA,NA,80.8108108108108,NA
38059,Dyer County,TN,NA,NA,88.91891891891892,NA
38063,Lauderdale County,TN,NA,70.98591549295776,45.94594594594595,NA
38111,Shelby County,TN,NA,NA,NA,50.58139534883721
38128,Shelby County,TN,NA,NA,NA,38.08139534883721
38139,Shelby County,TN,86.93009118541033,NA,NA,NA
38201,Carroll County,TN,NA,NA,NA,74.4186046511628
38261,Obion County,TN,NA,47.6056338028169,NA,NA
38305,Madison County,TN,NA,NA,10.36036036036036,NA
38363,Decatur County,TN,58.35866261398176,NA,91.62162162162161,NA
38462,Lewis County,TN,NA,NA,72.52252252252252,NA
38468,Lawrence County,TN,NA,94.08450704225352,NA,NA
38478,Giles County,TN,NA,NA,59.189189189189186,NA
38583,White County,TN,27.96352583586626,NA,28.1981981981982,NA
75001,Dallas County,TX,NA,NA,NA,94.18604651162791
75002,Collin County,TX,NA,NA,NA,29.651162790697676
75010,Denton County,TX,29.17933130699088,NA,NA,NA
75021,Grayson County,TX,NA,NA,88.55855855855856,NA
75023,Collin County,TX,39.51367781155015,NA,NA,NA
75033,,TX,NA,NA,71.17117117117117,NA
75034,Denton County,TX,NA,NA,39.54954954954955,NA
75042,Dallas County,TX,NA,37.46478873239437,NA,NA
75044,Dallas County,TX,NA,NA,57.47747747747748,NA
75052,Dallas County,TX,NA,NA,51.35135135135135,NA
75057,Denton County,TX,NA,NA,84.95495495495496,NA
75067,Denton County,TX,NA,28.732394366197184,34.41441441441441,NA
75093,Collin County,TX,26.443768996960486,NA,NA,NA
75104,Dallas County,TX,NA,NA,26.036036036036037,NA
75110,Navarro County,TX,NA,NA,45.04504504504504,NA
75154,Ellis County,TX,NA,NA,46.75675675675676,NA
75161,Kaufman County,TX,NA,NA,94.50450450450451,NA
75173,Collin County,TX,NA,NA,94.68468468468468,NA
75189,Rockwall County,TX,41.641337386018236,NA,48.01801801801802,NA
75201,Dallas County,TX,NA,NA,92.52252252252252,NA
75216,Dallas County,TX,NA,11.549295774647888,NA,NA
75217,Dallas County,TX,NA,NA,NA,9.883720930232558
75220,Dallas County,TX,NA,NA,50.72072072072073,NA
75228,Dallas County,TX,NA,NA,NA,21.511627906976745
75252,Collin County,TX,NA,NA,68.73873873873873,NA
75402,Hunt County,TX,82.97872340425532,NA,NA,NA
75418,Fannin County,TX,NA,92.67605633802816,NA,NA
75426,Red River County,TX,NA,NA,95.22522522522523,NA
75494,Wood County,TX,NA,76.90140845070422,NA,NA
75501,Bowie County,TX,NA,NA,NA,24.418604651162788
75631,Panola County,TX,95.13677811550151,NA,NA,NA
75670,Harrison County,TX,NA,NA,90.27027027027027,NA
75692,Harrison County,TX,NA,NA,93.96396396396396,NA
75757,Smith County,TX,NA,70.98591549295776,NA,NA
75785,Cherokee County,TX,NA,NA,71.8018018018018,NA
75839,Anderson County,TX,NA,NA,93.87387387387388,NA
75935,Shelby County,TX,NA,NA,NA,80.52325581395348
76001,Tarrant County,TX,58.662613981762924,NA,NA,NA
76013,Tarrant County,TX,NA,NA,66.12612612612612,NA
76017,Tarrant County,TX,NA,NA,NA,32.848837209302324
76020,Tarrant County,TX,33.73860182370821,NA,NA,NA
76022,Tarrant County,TX,NA,NA,84.23423423423422,NA
76053,Tarrant County,TX,NA,NA,43.15315315315315,NA
76058,Johnson County,TX,NA,NA,NA,76.16279069767442
76078,Wise County,TX,NA,NA,87.47747747747748,NA
76082,Parker County,TX,54.40729483282675,NA,NA,NA
76085,Parker County,TX,NA,NA,NA,63.95348837209303
76118,Tarrant County,TX,NA,87.60563380281691,NA,NA
76119,Tarrant County,TX,NA,6.197183098591549,NA,NA
76132,Tarrant County,TX,84.19452887537993,NA,NA,NA
76135,Tarrant County,TX,NA,NA,60.18018018018017,NA
76180,Tarrant County,TX,NA,NA,NA,36.91860465116279
76230,Montague County,TX,NA,NA,82.97297297297297,NA
76248,Tarrant County,TX,57.446808510638306,NA,NA,NA
76426,Wise County,TX,69.90881458966565,NA,NA,NA
76476,Hood County,TX,93.9209726443769,NA,NA,NA
76502,Bell County,TX,NA,NA,18.28828828828829,NA
76542,Bell County,TX,NA,NA,NA,25.290697674418606
76548,Bell County,TX,26.74772036474164,NA,NA,NA
76645,Hill County,TX,NA,NA,81.44144144144144,NA
76705,McLennan County,TX,NA,25.633802816901408,NA,NA
76706,McLennan County,TX,24.012158054711247,NA,NA,NA
76710,McLennan County,TX,56.23100303951368,NA,NA,NA
76825,McCulloch County,TX,NA,NA,89.1891891891892,76.45348837209302
77015,Harris County,TX,NA,25.070422535211268,NA,49.7093023255814
77038,Harris County,TX,NA,48.45070422535211,NA,NA
77043,Harris County,TX,NA,NA,83.24324324324324,NA
77056,Harris County,TX,87.84194528875379,NA,NA,NA
77058,Harris County,TX,77.50759878419453,NA,NA,NA
77064,Harris County,TX,NA,NA,38.01801801801802,NA
77070,Harris County,TX,47.41641337386018,NA,NA,NA
77078,Harris County,TX,NA,50.42253521126761,NA,NA
77082,Harris County,TX,NA,44.50704225352113,NA,NA
77094,Harris County,TX,NA,NA,NA,97.96511627906976
77096,Harris County,TX,NA,NA,91.62162162162161,NA
77306,Montgomery County,TX,NA,78.87323943661971,NA,NA
77331,San Jacinto County,TX,90.5775075987842,NA,NA,NA
77346,Harris County,TX,24.924012158054712,NA,NA,NA
77357,Montgomery County,TX,NA,50.140845070422536,NA,NA
77365,Montgomery County,TX,NA,26.478873239436616,NA,64.82558139534885
77375,Harris County,TX,NA,NA,24.324324324324326,38.662790697674424
77379,Harris County,TX,NA,NA,27.837837837837835,NA
77382,Montgomery County,TX,55.01519756838906,NA,NA,NA
77386,Montgomery County,TX,NA,NA,36.126126126126124,NA
77388,Harris County,TX,NA,NA,91.44144144144144,NA
77396,Harris County,TX,NA,35.2112676056338,NA,NA
77414,Matagorda County,TX,NA,NA,48.10810810810811,NA
77429,Harris County,TX,NA,40.563380281690144,NA,NA
77433,Harris County,TX,7.29483282674772,NA,13.693693693693692,NA
77445,Waller County,TX,NA,NA,88.37837837837837,NA
77447,Harris County,TX,NA,NA,74.5945945945946,NA
77459,Fort Bend County,TX,NA,NA,NA,12.790697674418606
77479,Fort Bend County,TX,55.62310030395137,NA,NA,NA
77498,Fort Bend County,TX,58.05471124620061,NA,NA,NA
77510,Galveston County,TX,NA,NA,66.75675675675676,NA
77517,Galveston County,TX,90.27355623100304,NA,NA,NA
77546,Galveston County,TX,NA,NA,28.468468468468465,NA
77566,Brazoria County,TX,NA,NA,54.32432432432432,NA
77573,Galveston County,TX,NA,NA,10.63063063063063,NA
77581,Brazoria County,TX,29.48328267477204,NA,NA,NA
77584,Brazoria County,TX,15.19756838905775,NA,NA,NA
77632,Orange County,TX,NA,NA,NA,71.80232558139535
77662,Orange County,TX,NA,70.98591549295776,NA,NA
77840,Brazos County,TX,NA,NA,47.65765765765766,NA
77901,Victoria County,TX,NA,NA,27.47747747747748,NA
77904,Victoria County,TX,NA,NA,41.98198198198198,NA
78043,Webb County,TX,NA,22.535211267605636,NA,NA
78046,Webb County,TX,2.43161094224924,NA,NA,NA
78101,Bexar County,TX,NA,NA,NA,91.56976744186046
78102,Bee County,TX,NA,NA,81.08108108108108,NA
78130,Comal County,TX,NA,NA,25.405405405405407,NA
78154,Guadalupe County,TX,NA,NA,77.29729729729729,NA
78155,Guadalupe County,TX,NA,NA,77.2072072072072,NA
78201,Bexar County,TX,NA,NA,26.126126126126124,21.22093023255814
78202,Bexar County,TX,NA,NA,79.54954954954955,NA
78207,Bexar County,TX,NA,5.352112676056338,23.603603603603602,NA
78211,Bexar County,TX,NA,7.323943661971831,NA,NA
78217,Bexar County,TX,NA,NA,88.82882882882883,NA
78225,Bexar County,TX,NA,NA,89.27927927927928,NA
78227,Bexar County,TX,NA,29.577464788732392,NA,NA
78233,Bexar County,TX,NA,NA,44.054054054054056,NA
78237,Bexar County,TX,NA,8.450704225352112,NA,NA
78238,Bexar County,TX,NA,NA,91.08108108108108,NA
78332,Jim Wells County,TX,NA,24.507042253521128,NA,NA
78343,Nueces County,TX,NA,NA,100,NA
78355,Brooks County,TX,NA,NA,NA,93.31395348837209
78363,Kleberg County,TX,NA,NA,60.99099099099099,NA
78372,Jim Wells County,TX,NA,96.3380281690141,NA,NA
78380,Nueces County,TX,NA,43.66197183098591,NA,NA
78411,Nueces County,TX,NA,NA,NA,70.63953488372093
78418,Nueces County,TX,NA,NA,75.4054054054054,NA
78570,Hidalgo County,TX,NA,2.535211267605634,NA,NA
78586,Cameron County,TX,NA,NA,46.846846846846844,NA
78602,Bastrop County,TX,NA,NA,65.94594594594595,NA
78613,Williamson County,TX,NA,NA,34.95495495495496,NA
78624,Gillespie County,TX,NA,NA,79.45945945945945,NA
78633,Williamson County,TX,NA,NA,NA,2.616279069767442
78642,Williamson County,TX,NA,NA,89.27927927927928,NA
78654,Burnet County,TX,64.13373860182371,NA,NA,NA
78657,Llano County,TX,NA,NA,NA,68.31395348837209
78666,Hays County,TX,NA,32.67605633802817,NA,NA
78701,Travis County,TX,NA,NA,NA,95.05813953488372
78731,Travis County,TX,74.77203647416414,NA,NA,NA
78741,Travis County,TX,NA,34.647887323943664,NA,NA
78744,Travis County,TX,NA,NA,66.93693693693695,NA
78745,Travis County,TX,NA,NA,63.24324324324324,NA
78746,Travis County,TX,64.74164133738601,NA,NA,NA
78758,Travis County,TX,NA,50.42253521126761,NA,NA
78759,Travis County,TX,NA,NA,81.17117117117118,NA
79103,Potter County,TX,NA,NA,92.7027027027027,NA
79121,Randall County,TX,NA,NA,96.12612612612612,NA
79347,Bailey County,TX,NA,NA,NA,83.72093023255815
79403,Lubbock County,TX,NA,43.38028169014084,NA,NA
79412,Lubbock County,TX,NA,67.04225352112675,NA,NA
79415,Lubbock County,TX,NA,NA,69.1891891891892,NA
79549,Scurry County,TX,NA,NA,43.6036036036036,NA
79605,Taylor County,TX,NA,NA,NA,41.56976744186046
79706,Midland County,TX,NA,NA,48.64864864864865,NA
79707,Midland County,TX,14.893617021276595,NA,NA,NA
79761,Ector County,TX,NA,NA,53.51351351351351,NA
79830,Brewster County,TX,NA,NA,NA,99.12790697674419
79902,El Paso County,TX,NA,68.16901408450704,NA,NA
79904,El Paso County,TX,NA,40.845070422535215,NA,NA
79912,El Paso County,TX,NA,NA,29.72972972972973,NA
79932,El Paso County,TX,NA,NA,84.5945945945946,NA
79936,El Paso County,TX,NA,3.3802816901408446,NA,NA
84014,Davis County,UT,NA,NA,90.36036036036036,NA
84054,Davis County,UT,NA,NA,77.56756756756756,NA
84065,Salt Lake County,UT,NA,NA,NA,48.837209302325576
84066,Duchesne County,UT,NA,NA,63.153153153153156,NA
84120,Salt Lake County,UT,NA,NA,NA,20.63953488372093
84121,Salt Lake County,UT,NA,NA,43.513513513513516,NA
84129,,UT,NA,NA,31.53153153153153,NA
84341,Cache County,UT,NA,NA,85.22522522522522,NA
84404,Weber County,UT,NA,NA,23.783783783783786,NA
84414,Weber County,UT,NA,NA,NA,95.34883720930233
84790,Washington County,UT,52.27963525835866,NA,NA,NA
05301,Windham County,VT,NA,NA,64.6846846846847,NA
05401,Chittenden County,VT,NA,NA,52.16216216216216,NA
05403,Chittenden County,VT,NA,NA,66.21621621621621,51.162790697674424
05452,Chittenden County,VT,82.97872340425532,NA,NA,NA
05602,Washington County,VT,NA,NA,66.21621621621621,NA
05673,Washington County,VT,98.78419452887537,NA,NA,NA
05701,Rutland County,VT,NA,NA,NA,10.755813953488373
20132,Loudoun County,VA,91.1854103343465,NA,NA,NA
20147,Loudoun County,VA,NA,NA,39.00900900900901,NA
20151,Fairfax County,VA,56.23100303951368,NA,NA,NA
20175,Loudoun County,VA,NA,85.91549295774648,NA,NA
22003,Fairfax County,VA,NA,NA,32.432432432432435,NA
22032,Fairfax County,VA,59.27051671732523,NA,NA,NA
22033,Fairfax County,VA,NA,NA,63.51351351351351,NA
22039,Fairfax County,VA,NA,NA,NA,79.06976744186046
22044,Fairfax County,VA,NA,NA,94.95495495495496,NA
22151,Fairfax County,VA,NA,NA,84.50450450450451,NA
22152,Fairfax County,VA,NA,NA,NA,70.05813953488372
22193,Prince William County,VA,NA,12.394366197183098,NA,NA
22304,Alexandria city,VA,NA,NA,16.486486486486488,84.30232558139535
22306,Fairfax County,VA,NA,NA,31.44144144144144,NA
22405,Stafford County,VA,NA,NA,NA,58.139534883720934
22407,Spotsylvania County,VA,NA,NA,20.63063063063063,NA
22556,Stafford County,VA,NA,NA,74.68468468468468,NA
22664,Shenandoah County,VA,71.42857142857143,NA,NA,NA
22801,Harrisonburg city,VA,41.94528875379939,NA,NA,NA
22920,Nelson County,VA,NA,NA,NA,96.22093023255815
23111,Hanover County,VA,61.39817629179332,NA,NA,NA
23150,Henrico County,VA,NA,NA,NA,81.97674418604652
23223,Henrico County,VA,NA,NA,22.162162162162165,NA
23224,Richmond city,VA,NA,NA,12.072072072072073,NA
23234,Chesterfield County,VA,NA,10.985915492957748,NA,NA
23320,Chesapeake city,VA,NA,NA,NA,16.569767441860463
23454,Virginia Beach city,VA,NA,NA,97.74774774774775,NA
23504,Norfolk city,VA,NA,14.084507042253522,NA,NA
24013,Roanoke city,VA,64.43768996960486,NA,NA,NA
24016,Roanoke city,VA,NA,NA,56.486486486486484,NA
24112,Henry County,VA,NA,41.690140845070424,NA,NA
24502,Lynchburg city,VA,NA,NA,45.04504504504504,NA
24641,Tazewell County,VA,NA,NA,93.24324324324324,NA
98004,King County,WA,NA,NA,77.29729729729729,NA
98006,King County,WA,43.161094224924014,NA,NA,NA
98008,King County,WA,NA,NA,87.83783783783784,NA
98011,King County,WA,93.61702127659575,NA,NA,NA
98023,King County,WA,NA,NA,28.1981981981982,NA
98031,King County,WA,NA,NA,44.054054054054056,NA
98040,King County,WA,73.86018237082067,NA,NA,NA
98052,King County,WA,NA,NA,51.44144144144144,NA
98103,King County,WA,NA,NA,NA,42.151162790697676
98105,King County,WA,NA,NA,93.42342342342343,NA
98107,King County,WA,NA,NA,72.16216216216216,NA
98117,King County,WA,NA,NA,65.31531531531532,NA
98118,King County,WA,40.121580547112465,NA,NA,NA
98272,Snohomish County,WA,NA,NA,60.27027027027027,NA
98277,Island County,WA,NA,NA,50.18018018018018,NA
98370,Kitsap County,WA,NA,NA,75.04504504504504,NA
98405,Pierce County,WA,NA,NA,34.32432432432432,NA
98499,Pierce County,WA,NA,NA,NA,56.395348837209305
98503,Thurston County,WA,52.88753799392097,NA,NA,NA
98513,Thurston County,WA,NA,NA,76.75675675675676,NA
98626,Cowlitz County,WA,NA,58.87323943661972,NA,NA
98662,Clark County,WA,NA,NA,79.72972972972973,NA
98802,Douglas County,WA,NA,83.38028169014085,NA,NA
98837,Grant County,WA,NA,NA,33.06306306306306,NA
98851,Grant County,WA,NA,NA,96.66666666666667,NA
98902,Yakima County,WA,36.17021276595745,NA,NA,NA
98944,Yakima County,WA,NA,NA,60.810810810810814,NA
99019,Spokane County,WA,NA,NA,98.01801801801801,NA
99111,Whitman County,WA,92.70516717325228,NA,NA,NA
99169,Adams County,WA,100,NA,NA,NA
99202,Spokane County,WA,NA,NA,NA,73.54651162790698
99206,Spokane County,WA,NA,NA,48.82882882882883,NA
99208,Spokane County,WA,NA,NA,74.14414414414414,NA
99301,Franklin County,WA,NA,NA,NA,7.848837209302325
99336,Benton County,WA,NA,NA,13.603603603603604,NA
99337,Benton County,WA,21.580547112462007,NA,NA,NA
99349,Grant County,WA,NA,97.74647887323944,NA,NA
99362,Walla Walla County,WA,NA,NA,62.25225225225225,NA
20001,District of Columbia,DC,NA,NA,73.87387387387388,NA
20011,District of Columbia,DC,17.325227963525837,NA,NA,NA
20019,District of Columbia,DC,NA,14.366197183098592,NA,NA
20020,District of Columbia,DC,NA,NA,2.8828828828828827,NA
20032,District of Columbia,DC,NA,26.197183098591548,NA,NA
24701,Mercer County,WV,NA,NA,31.351351351351354,NA
25177,Kanawha County,WV,NA,NA,14.504504504504503,NA
25403,Berkeley County,WV,NA,NA,75.94594594594595,NA
25508,Logan County,WV,NA,NA,77.11711711711712,NA
25570,Wayne County,WV,NA,NA,75.49549549549549,NA
25701,Cabell County,WV,NA,NA,18.73873873873874,NA
25801,Raleigh County,WV,NA,47.6056338028169,NA,NA
26003,Ohio County,WV,NA,NA,NA,19.476744186046513
26101,Wood County,WV,NA,NA,5.7657657657657655,NA
26201,Upshur County,WV,NA,20,25.045045045045043,NA
26525,Preston County,WV,NA,NA,90.36036036036036,NA
53012,Ozaukee County,WI,49.848024316109424,NA,NA,NA
53022,Washington County,WI,NA,NA,67.83783783783784,NA
53024,Ozaukee County,WI,51.3677811550152,NA,NA,NA
53095,Washington County,WI,NA,NA,54.14414414414415,NA
53097,Ozaukee County,WI,NA,NA,NA,96.51162790697676
53104,Kenosha County,WI,69.90881458966565,NA,NA,NA
53142,Kenosha County,WI,7.90273556231003,NA,NA,NA
53188,Waukesha County,WI,NA,NA,25.585585585585584,NA
53205,Milwaukee County,WI,NA,33.23943661971831,NA,NA
53211,Milwaukee County,WI,NA,NA,68.01801801801803,NA
53214,Milwaukee County,WI,NA,NA,NA,11.337209302325581
53215,Milwaukee County,WI,NA,NA,5.405405405405405,26.744186046511626
53220,Milwaukee County,WI,39.81762917933131,NA,NA,NA
53225,Milwaukee County,WI,NA,NA,12.252252252252251,NA
53228,Milwaukee County,WI,NA,NA,90,NA
53403,Racine County,WI,NA,30.422535211267604,NA,NA
53405,Racine County,WI,NA,NA,NA,5.232558139534884
53511,Rock County,WI,NA,39.718309859154935,NA,NA
53520,Green County,WI,79.0273556231003,NA,NA,NA
53538,Jefferson County,WI,NA,81.69014084507043,NA,NA
53563,Rock County,WI,NA,NA,82.97297297297297,NA
53593,Dane County,WI,41.03343465045592,NA,NA,NA
53713,Dane County,WI,NA,NA,55.22522522522523,NA
53916,Dodge County,WI,NA,NA,75.94594594594595,NA
53959,Sauk County,WI,44.37689969604863,NA,NA,NA
53965,Sauk County,WI,NA,NA,71.98198198198197,NA
54020,Polk County,WI,NA,NA,79.009009009009,NA
54130,Outagamie County,WI,NA,NA,61.17117117117117,NA
54140,Outagamie County,WI,NA,NA,90.63063063063062,NA
54156,Marinette County,WI,NA,NA,99.45945945945947,NA
54220,Manitowoc County,WI,NA,NA,7.3873873873873865,3.488372093023256
54401,Marathon County,WI,NA,NA,41.171171171171174,NA
54451,Taylor County,WI,NA,NA,86.84684684684684,NA
54452,Lincoln County,WI,NA,NA,82.52252252252252,NA
54481,Portage County,WI,NA,NA,22.61261261261261,NA
54601,La Crosse County,WI,NA,NA,NA,2.3255813953488373
54603,La Crosse County,WI,NA,NA,NA,25.872093023255815
54701,Eau Claire County,WI,NA,NA,44.77477477477477,NA
54720,Eau Claire County,WI,NA,NA,90.81081081081082,NA
54728,Barron County,WI,NA,NA,92.07207207207207,NA
54755,Buffalo County,WI,NA,NA,NA,77.32558139534885
54901,Winnebago County,WI,NA,NA,30.090090090090087,NA
54911,Outagamie County,WI,NA,NA,74.32432432432432,NA
54929,Waupaca County,WI,NA,NA,89.27927927927928,NA
54971,Fond du Lac County,WI,NA,NA,86.3963963963964,NA
