ZipCode,county,state,Youth,Adult,Retirement
35079,Blount County,AL,NA,88.27225130890054,NA
35151,Talladega County,AL,NA,87.64397905759162,NA
35244,Jefferson County,AL,NA,94.24083769633508,NA
35405,Tuscaloosa County,AL,NA,7.958115183246073,NA
35474,Hale County,AL,NA,62.82722513089005,NA
35613,Limestone County,AL,29.230769230769234,NA,NA
35660,Colbert County,AL,NA,NA,86.07594936708861
35749,Madison County,AL,NA,47.748691099476446,NA
35903,Etowah County,AL,NA,NA,33.755274261603375
35951,Marshall County,AL,NA,62.617801047120416,NA
36027,Barbour County,AL,NA,39.47643979057592,NA
36089,Bullock County,AL,NA,73.82198952879581,NA
36093,Elmore County,AL,NA,73.50785340314137,NA
36108,Montgomery County,AL,NA,NA,70.25316455696202
36265,Calhoun County,AL,NA,76.8586387434555,NA
36272,Calhoun County,AL,NA,98.95287958115183,NA
36303,Houston County,AL,24.615384615384617,NA,NA
36542,Baldwin County,AL,NA,NA,69.40928270042194
36606,Mobile County,AL,NA,61.361256544502616,NA
36867,Russell County,AL,NA,NA,45.9915611814346
99518,Anchorage Municipality,AK,NA,NA,87.55274261603375
99623,,AK,56.41025641025641,NA,NA
85015,Maricopa County,AZ,NA,17.905759162303664,NA
85033,Maricopa County,AZ,NA,16.020942408376964,NA
85044,Maricopa County,AZ,NA,NA,50.210970464135016
85048,Maricopa County,AZ,NA,75.60209424083769,NA
85120,Pinal County,AZ,NA,41.57068062827225,NA
85202,Maricopa County,AZ,NA,20.104712041884817,NA
85224,Maricopa County,AZ,NA,44.50261780104712,NA
85225,Maricopa County,AZ,NA,NA,31.223628691983123
85234,Maricopa County,AZ,NA,NA,57.17299578059072
85258,Maricopa County,AZ,76.92307692307693,NA,NA
85295,Maricopa County,AZ,NA,NA,97.25738396624473
85301,Maricopa County,AZ,4.102564102564102,NA,NA
85302,Maricopa County,AZ,NA,NA,28.691983122362867
85303,Maricopa County,AZ,NA,49.84293193717277,NA
85306,Maricopa County,AZ,NA,53.193717277486904,NA
85331,Maricopa County,AZ,NA,78.1151832460733,NA
85351,Maricopa County,AZ,NA,NA,9.49367088607595
85381,Maricopa County,AZ,55.8974358974359,NA,NA
85387,Maricopa County,AZ,NA,76.75392670157069,NA
85390,Maricopa County,AZ,NA,NA,68.35443037974683
85392,Maricopa County,AZ,NA,53.403141361256544,NA
85658,Pima County,AZ,NA,75.28795811518324,NA
85706,Pima County,AZ,NA,2.3036649214659684,NA
85710,Pima County,AZ,NA,9.005235602094242,NA
85718,Pima County,AZ,37.43589743589744,NA,NA
85719,Pima County,AZ,80,NA,NA
85746,Pima County,AZ,NA,12.146596858638743,NA
86004,Coconino County,AZ,NA,NA,49.15611814345991
86005,Coconino County,AZ,NA,49.00523560209424,NA
86045,Coconino County,AZ,NA,25.340314136125652,NA
86336,Yavapai County,AZ,NA,NA,65.40084388185655
86351,Yavapai County,AZ,NA,NA,78.27004219409282
86426,Mohave County,AZ,NA,NA,55.69620253164557
71701,Ouachita County,AR,NA,72.25130890052355,NA
71909,Garland County,AR,NA,93.29842931937172,NA
71913,Garland County,AR,NA,37.382198952879584,NA
72012,White County,AR,NA,81.98952879581152,NA
72034,Faulkner County,AR,62.05128205128205,NA,NA
72104,Hot Spring County,AR,NA,55.183246073298434,NA
72401,Craighead County,AR,NA,NA,10.970464135021098
72404,Craighead County,AR,25.64102564102564,48.69109947643979,NA
72432,Poinsett County,AR,95.8974358974359,NA,NA
72450,Greene County,AR,NA,19.162303664921467,NA
72501,Independence County,AR,NA,33.61256544502618,NA
72529,Sharp County,AR,NA,NA,96.62447257383965
72712,Benton County,AR,NA,85.13089005235602,NA
72715,Benton County,AR,NA,NA,64.76793248945147
72764,Washington County,AR,NA,67.22513089005236,NA
72901,Sebastian County,AR,68.2051282051282,NA,NA
90027,Los Angeles County,CA,NA,NA,60.337552742616026
90034,Los Angeles County,CA,NA,NA,81.85654008438819
90035,Los Angeles County,CA,NA,NA,41.561181434599156
90045,Los Angeles County,CA,83.58974358974359,NA,NA
90061,Los Angeles County,CA,NA,68.06282722513089,NA
90066,Los Angeles County,CA,NA,43.7696335078534,NA
90250,Los Angeles County,CA,NA,24.293193717277486,NA
90254,Los Angeles County,CA,NA,NA,81.64556962025317
90266,Los Angeles County,CA,NA,59.58115183246073,NA
90605,Los Angeles County,CA,NA,54.86910994764398,NA
90630,Orange County,CA,NA,46.49214659685864,NA
90706,Los Angeles County,CA,NA,25.026178010471206,NA
90713,Los Angeles County,CA,NA,65.54973821989529,NA
91203,Los Angeles County,CA,NA,90.99476439790575,NA
91208,Los Angeles County,CA,NA,96.64921465968587,NA
91303,Los Angeles County,CA,NA,79.79057591623037,NA
91311,Los Angeles County,CA,NA,NA,54.43037974683544
91343,Los Angeles County,CA,NA,50.57591623036649,NA
91350,Los Angeles County,CA,NA,84.08376963350786,NA
91361,Ventura County,CA,60.51282051282051,NA,NA
91377,Ventura County,CA,NA,92.87958115183245,NA
91401,Los Angeles County,CA,NA,63.35078534031413,NA
91406,Los Angeles County,CA,NA,50.26178010471204,NA
91601,Los Angeles County,CA,NA,NA,68.9873417721519
91710,San Bernardino County,CA,NA,NA,55.907172995780584
91730,San Bernardino County,CA,NA,19.3717277486911,NA
91745,Los Angeles County,CA,NA,NA,48.10126582278481
91750,Los Angeles County,CA,NA,NA,45.56962025316456
91761,San Bernardino County,CA,NA,24.50261780104712,NA
91767,Los Angeles County,CA,NA,40.31413612565445,NA
91768,Los Angeles County,CA,NA,42.82722513089005,NA
91945,San Diego County,CA,86.15384615384616,NA,NA
91950,San Diego County,CA,65.12820512820512,NA,NA
92020,San Diego County,CA,NA,21.8848167539267,NA
92024,San Diego County,CA,NA,40.52356020942408,NA
92026,San Diego County,CA,NA,53.717277486910994,NA
92056,San Diego County,CA,NA,NA,38.39662447257383
92103,San Diego County,CA,NA,NA,50.84388185654009
92105,San Diego County,CA,NA,NA,35.44303797468354
92128,San Diego County,CA,41.53846153846154,NA,NA
92203,Riverside County,CA,NA,82.93193717277487,NA
92227,Imperial County,CA,NA,81.98952879581152,NA
92234,Riverside County,CA,NA,60.73298429319372,67.29957805907173
92243,Imperial County,CA,NA,71.41361256544502,NA
92253,Riverside County,CA,NA,44.18848167539267,8.649789029535865
92262,Riverside County,CA,NA,21.36125654450262,10.337552742616033
92308,San Bernardino County,CA,NA,NA,29.957805907172997
92311,San Bernardino County,CA,NA,36.12565445026178,NA
92324,San Bernardino County,CA,NA,19.68586387434555,NA
92336,San Bernardino County,CA,NA,66.49214659685863,NA
92399,San Bernardino County,CA,NA,30.57591623036649,NA
92407,San Bernardino County,CA,NA,NA,52.95358649789029
92539,Riverside County,CA,NA,NA,96.83544303797468
92592,Riverside County,CA,NA,29.109947643979055,32.06751054852321
92627,Orange County,CA,NA,20.31413612565445,NA
92647,Orange County,CA,NA,21.98952879581152,NA
92648,Orange County,CA,59.48717948717949,NA,NA
92683,Orange County,CA,NA,16.858638743455497,NA
92688,Orange County,CA,NA,36.64921465968586,NA
92691,Orange County,CA,42.56410256410256,NA,NA
92707,Orange County,CA,NA,42.19895287958116,NA
92805,Orange County,CA,NA,56.858638743455494,NA
92840,Orange County,CA,NA,49.52879581151832,NA
92865,Orange County,CA,74.87179487179488,NA,NA
92870,Orange County,CA,NA,NA,25.52742616033755
92879,Riverside County,CA,NA,NA,59.28270042194092
92887,Orange County,CA,80.51282051282051,70.36649214659685,NA
93036,Ventura County,CA,NA,NA,52.742616033755276
93065,Ventura County,CA,NA,15.078534031413612,NA
93257,Tulare County,CA,NA,12.56544502617801,NA
93292,Tulare County,CA,NA,NA,39.029535864978904
93307,Kern County,CA,NA,13.089005235602095,NA
93308,Kern County,CA,NA,NA,34.38818565400844
93312,Kern County,CA,NA,39.16230366492147,76.16033755274262
93446,San Luis Obispo County,CA,NA,27.748691099476442,NA
93536,Los Angeles County,CA,NA,42.72251308900524,NA
93561,Kern County,CA,NA,69.73821989528795,NA
93654,Fresno County,CA,NA,NA,74.47257383966245
93720,Fresno County,CA,NA,33.403141361256544,NA
93907,Monterey County,CA,NA,NA,78.90295358649789
93930,Monterey County,CA,NA,NA,90.71729957805907
93940,Monterey County,CA,NA,50.57591623036649,NA
93960,Monterey County,CA,NA,84.39790575916231,NA
94010,San Mateo County,CA,NA,49.947643979057595,39.45147679324894
94063,San Mateo County,CA,NA,NA,44.51476793248945
94112,San Francisco County,CA,NA,24.18848167539267,NA
94115,San Francisco County,CA,NA,74.13612565445025,NA
94118,San Francisco County,CA,NA,54.3455497382199,NA
94133,San Francisco County,CA,NA,72.14659685863874,NA
94501,Alameda County,CA,NA,38.324607329842934,NA
94506,Contra Costa County,CA,NA,NA,92.40506329113924
94513,Contra Costa County,CA,NA,34.13612565445026,NA
94533,Solano County,CA,NA,23.036649214659686,NA
94536,Alameda County,CA,NA,NA,23.20675105485232
94550,Alameda County,CA,NA,46.17801047120419,84.59915611814345
94551,Alameda County,CA,NA,74.3455497382199,NA
94560,Alameda County,CA,NA,52.774869109947645,NA
94903,Marin County,CA,NA,93.40314136125654,NA
94904,Marin County,CA,NA,89.63350785340313,NA
95014,Santa Clara County,CA,NA,NA,66.24472573839662
95023,San Benito County,CA,NA,28.90052356020942,NA
95070,Santa Clara County,CA,NA,95.18324607329843,NA
95076,Santa Cruz County,CA,NA,18.848167539267017,NA
95121,Santa Clara County,CA,NA,NA,59.70464135021098
95337,San Joaquin County,CA,39.48717948717949,NA,NA
95350,Stanislaus County,CA,17.94871794871795,17.591623036649214,NA
95354,Stanislaus County,CA,NA,NA,95.9915611814346
95358,Stanislaus County,CA,NA,30.471204188481675,NA
95370,Tuolumne County,CA,NA,NA,4.641350210970464
95404,Sonoma County,CA,NA,NA,31.434599156118143
95407,Sonoma County,CA,NA,58.21989528795811,NA
95409,Sonoma County,CA,NA,81.57068062827226,NA
95521,Humboldt County,CA,NA,NA,81.0126582278481
95562,Humboldt County,CA,NA,NA,98.73417721518987
95630,Sacramento County,CA,NA,NA,18.9873417721519
95661,Placer County,CA,NA,90.68062827225131,NA
95666,Amador County,CA,NA,NA,85.86497890295358
95670,Sacramento County,CA,NA,34.031413612565444,NA
95678,Placer County,CA,NA,NA,38.81856540084388
95687,Solano County,CA,NA,38.21989528795812,NA
95746,Placer County,CA,NA,NA,74.26160337552743
95758,Sacramento County,CA,42.05128205128205,51.41361256544502,NA
95762,El Dorado County,CA,NA,49.109947643979055,NA
95816,Sacramento County,CA,NA,51.518324607329845,NA
95819,Sacramento County,CA,90.76923076923077,NA,NA
95829,Sacramento County,CA,NA,72.98429319371728,NA
95838,Sacramento County,CA,NA,35.18324607329843,NA
95843,Sacramento County,CA,NA,59.37172774869109,NA
95932,Colusa County,CA,NA,NA,85.0210970464135
95948,Butte County,CA,NA,75.81151832460733,NA
95963,Glenn County,CA,NA,70.15706806282722,NA
95973,Butte County,CA,NA,NA,25.949367088607595
80007,Jefferson County,CO,NA,87.01570680628272,NA
80014,Arapahoe County,CO,NA,31.93717277486911,NA
80021,Jefferson County,CO,NA,58.1151832460733,NA
80023,Broomfield County,CO,35.38461538461539,NA,NA
80027,Boulder County,CO,NA,58.53403141361257,NA
80110,Arapahoe County,CO,NA,64.92146596858639,NA
80112,Arapahoe County,CO,NA,NA,83.54430379746836
80120,Arapahoe County,CO,NA,60.31413612565445,NA
80211,Denver County,CO,NA,66.80628272251309,NA
80215,Jefferson County,CO,NA,63.87434554973822,NA
80219,Denver County,CO,NA,4.712041884816754,NA
80222,Denver County,CO,NA,87.95811518324608,NA
80229,Adams County,CO,6.666666666666667,NA,NA
80234,Adams County,CO,NA,60.20942408376963,NA
80236,Denver County,CO,NA,78.42931937172774,NA
80401,Jefferson County,CO,NA,36.33507853403141,NA
80528,Larimer County,CO,26.666666666666668,NA,NA
80537,Larimer County,CO,NA,21.675392670157066,NA
80550,Weld County,CO,NA,29.94764397905759,NA
80602,Adams County,CO,NA,84.60732984293193,NA
80642,Weld County,CO,NA,98.32460732984293,NA
80863,Teller County,CO,NA,95.91623036649214,NA
80903,El Paso County,CO,NA,37.06806282722513,NA
80906,El Paso County,CO,NA,59.47643979057592,NA
81001,Pueblo County,CO,NA,21.465968586387437,NA
81089,Huerfano County,CO,NA,88.06282722513089,NA
81507,Mesa County,CO,NA,NA,70.042194092827
81521,Mesa County,CO,NA,NA,70.67510548523207
81623,Garfield County,CO,NA,87.12041884816753,68.35443037974683
81635,Garfield County,CO,NA,89.73821989528797,NA
06002,Hartford County,CT,NA,47.539267015706805,NA
06032,Hartford County,CT,64.1025641025641,NA,NA
06070,Hartford County,CT,NA,76.02094240837697,NA
06076,Tolland County,CT,NA,NA,74.89451476793249
06082,Hartford County,CT,NA,NA,15.822784810126583
06092,Hartford County,CT,NA,99.05759162303664,NA
06105,Hartford County,CT,NA,21.780104712041883,NA
06108,Hartford County,CT,NA,30.261780104712045,NA
06119,Hartford County,CT,NA,NA,80.37974683544303
06226,Windham County,CT,NA,16.544502617801047,NA
06249,New London County,CT,88.2051282051282,79.16230366492147,NA
06277,Windham County,CT,NA,NA,89.45147679324894
06418,New Haven County,CT,NA,66.9109947643979,NA
06424,Middlesex County,CT,65.64102564102564,NA,NA
06468,Fairfield County,CT,NA,NA,77.21518987341773
06614,Fairfield County,CT,NA,56.33507853403141,38.607594936708864
06704,New Haven County,CT,NA,22.094240837696336,NA
06716,New Haven County,CT,NA,62.40837696335079,NA
06770,New Haven County,CT,NA,23.979057591623036,NA
06786,Litchfield County,CT,69.74358974358974,NA,NA
06790,Litchfield County,CT,NA,66.28272251308901,2.7426160337552745
06810,Fairfield County,CT,NA,NA,22.362869198312236
06820,Fairfield County,CT,NA,88.37696335078535,NA
06906,Fairfield County,CT,NA,97.4869109947644,NA
19702,New Castle County,DE,12.307692307692308,NA,19.198312236286917
19707,New Castle County,DE,NA,83.03664921465969,NA
19713,New Castle County,DE,NA,30.99476439790576,NA
19810,New Castle County,DE,NA,54.13612565445026,NA
19901,Kent County,DE,NA,17.277486910994764,NA
19904,Kent County,DE,NA,12.879581151832461,NA
19952,Kent County,DE,NA,78.63874345549739,NA
32080,St. Johns County,FL,NA,68.16753926701571,NA
32082,St. Johns County,FL,NA,NA,35.86497890295359
32084,St. Johns County,FL,NA,NA,30.168776371308013
32189,Putnam County,FL,NA,NA,89.87341772151899
32209,Duval County,FL,NA,4.18848167539267,NA
32211,Duval County,FL,NA,21.151832460732983,NA
32216,Duval County,FL,NA,18.219895287958117,NA
32222,Duval County,FL,NA,NA,94.30379746835443
32223,Duval County,FL,NA,68.48167539267016,NA
32250,Duval County,FL,NA,57.172774869109944,NA
32256,Duval County,FL,NA,NA,42.616033755274266
32257,Duval County,FL,NA,24.712041884816756,NA
32304,Leon County,FL,NA,54.45026178010471,NA
32351,Gadsden County,FL,NA,81.36125654450261,NA
32425,Holmes County,FL,NA,NA,84.17721518987342
32433,Walton County,FL,63.07692307692307,NA,NA
32465,Gulf County,FL,68.2051282051282,NA,NA
32501,Escambia County,FL,NA,53.82198952879581,NA
32534,Escambia County,FL,NA,43.66492146596859,NA
32547,Okaloosa County,FL,NA,41.675392670157066,NA
32570,Santa Rosa County,FL,NA,10.366492146596858,NA
32578,Okaloosa County,FL,NA,51.93717277486911,NA
32583,Santa Rosa County,FL,NA,NA,24.261603375527425
32606,Alachua County,FL,NA,99.26701570680628,91.9831223628692
32656,Clay County,FL,52.820512820512825,NA,NA
32714,Seminole County,FL,35.8974358974359,NA,NA
32807,Orange County,FL,NA,44.712041884816756,NA
32828,Orange County,FL,NA,37.17277486910995,NA
32934,Brevard County,FL,NA,NA,60.970464135021096
32940,Brevard County,FL,NA,NA,28.059071729957807
33032,Miami-Dade County,FL,NA,41.361256544502616,NA
33033,Miami-Dade County,FL,NA,41.675392670157066,NA
33064,Broward County,FL,NA,37.80104712041884,NA
33067,Broward County,FL,NA,NA,78.48101265822784
33129,Miami-Dade County,FL,NA,90.89005235602095,NA
33144,Miami-Dade County,FL,NA,80.10471204188482,NA
33155,Miami-Dade County,FL,NA,NA,36.28691983122363
33165,Miami-Dade County,FL,NA,57.59162303664922,NA
33168,Miami-Dade County,FL,NA,91.93717277486911,NA
33176,Miami-Dade County,FL,NA,NA,40.29535864978903
33180,Miami-Dade County,FL,NA,NA,47.89029535864979
33182,Miami-Dade County,FL,NA,NA,88.60759493670885
33186,Miami-Dade County,FL,NA,76.12565445026178,NA
33311,Broward County,FL,NA,NA,22.151898734177212
33331,Broward County,FL,NA,89.31937172774869,NA
33408,Palm Beach County,FL,NA,71.72774869109948,NA
33440,Hendry County,FL,NA,49.21465968586388,NA
33470,Palm Beach County,FL,NA,NA,81.22362869198312
33476,Palm Beach County,FL,NA,91.62303664921467,NA
33484,Palm Beach County,FL,NA,NA,34.59915611814346
33541,Pasco County,FL,NA,74.55497382198953,NA
33556,Hillsborough County,FL,NA,71.51832460732984,66.87763713080169
33570,Hillsborough County,FL,NA,61.675392670157066,NA
33579,Hillsborough County,FL,NA,NA,79.11392405063292
33596,Hillsborough County,FL,NA,85.02617801047121,NA
33611,Hillsborough County,FL,74.35897435897436,NA,NA
33614,Hillsborough County,FL,NA,34.659685863874344,NA
33625,Hillsborough County,FL,NA,NA,67.72151898734177
33704,Pinellas County,FL,NA,82.30366492146597,NA
33716,Pinellas County,FL,NA,89.00523560209425,NA
33823,Polk County,FL,NA,NA,77.0042194092827
33844,Polk County,FL,NA,NA,40.71729957805908
33908,Lee County,FL,NA,57.48691099476439,5.274261603375527
33917,Lee County,FL,NA,NA,20.253164556962027
33966,Lee County,FL,NA,NA,87.9746835443038
34113,Collier County,FL,NA,NA,61.18143459915611
34120,Collier County,FL,NA,35.39267015706806,NA
34145,Collier County,FL,NA,NA,92.61603375527426
34203,Manatee County,FL,NA,NA,22.573839662447256
34209,Manatee County,FL,NA,NA,23.417721518987342
34266,DeSoto County,FL,NA,NA,51.26582278481012
34275,Sarasota County,FL,NA,NA,32.278481012658226
34287,Sarasota County,FL,NA,NA,33.33333333333333
34481,Marion County,FL,NA,70.89005235602095,NA
34715,Lake County,FL,55.38461538461539,NA,NA
34743,Osceola County,FL,NA,46.07329842931937,NA
34744,Osceola County,FL,NA,27.958115183246075,NA
34748,Lake County,FL,NA,19.790575916230367,NA
34947,St. Lucie County,FL,NA,52.25130890052356,NA
34953,St. Lucie County,FL,NA,NA,6.329113924050633
34982,St. Lucie County,FL,NA,NA,41.77215189873418
30005,Fulton County,GA,NA,NA,75.31645569620254
30019,Gwinnett County,GA,19.48717948717949,NA,NA
30035,DeKalb County,GA,NA,56.2303664921466,NA
30040,Forsyth County,GA,NA,27.015706806282726,NA
30043,Gwinnett County,GA,47.179487179487175,NA,NA
30054,Newton County,GA,84.61538461538461,NA,NA
30062,Cobb County,GA,NA,42.617801047120416,NA
30066,Cobb County,GA,NA,45.75916230366492,NA
30067,Cobb County,GA,NA,81.78010471204189,NA
30094,Rockdale County,GA,NA,45.44502617801047,NA
30096,Gwinnett County,GA,NA,27.853403141361255,NA
30114,Cherokee County,GA,NA,NA,31.0126582278481
30134,Douglas County,GA,NA,25.13089005235602,NA
30157,Paulding County,GA,NA,27.329842931937172,NA
30165,Floyd County,GA,NA,25.863874345549736,NA
30204,Lamar County,GA,NA,82.61780104712042,NA
30233,Butts County,GA,NA,NA,53.37552742616034
30236,Clayton County,GA,NA,31.83246073298429,NA
30240,Troup County,GA,NA,NA,27.42616033755274
30253,Henry County,GA,22.05128205128205,NA,NA
30281,Henry County,GA,26.666666666666668,NA,NA
30294,DeKalb County,GA,NA,69.52879581151834,56.118143459915615
30296,Clayton County,GA,NA,59.16230366492147,NA
30297,Clayton County,GA,NA,NA,76.58227848101265
30306,Fulton County,GA,49.743589743589745,NA,NA
30307,DeKalb County,GA,88.2051282051282,NA,NA
30308,Fulton County,GA,NA,72.67015706806282,NA
30331,Fulton County,GA,29.743589743589745,NA,NA
30338,DeKalb County,GA,NA,70.36649214659685,NA
30517,Jackson County,GA,NA,80.83769633507853,NA
30519,Gwinnett County,GA,NA,45.0261780104712,NA
30528,White County,GA,71.28205128205128,NA,NA
30701,Gordon County,GA,NA,NA,32.48945147679325
30750,Walker County,GA,NA,96.2303664921466,NA
30752,Dade County,GA,NA,57.80104712041884,NA
30813,Columbia County,GA,NA,32.25130890052356,NA
30909,Richmond County,GA,NA,NA,17.932489451476794
31031,Wilkinson County,GA,NA,88.1675392670157,NA
31204,Bibb County,GA,NA,NA,31.434599156118143
31419,Chatham County,GA,NA,NA,38.18565400843882
31606,Lowndes County,GA,NA,NA,99.57805907172997
31907,Muscogee County,GA,NA,7.853403141361256,NA
39817,Decatur County,GA,NA,61.15183246073298,NA
39845,Seminole County,GA,NA,NA,82.27848101265823
96740,Hawaii County,HI,NA,59.05759162303666,NA
96754,Kauai County,HI,NA,99.16230366492147,NA
96813,Honolulu County,HI,NA,33.82198952879581,NA
96816,Honolulu County,HI,NA,32.35602094240838,NA
96825,Honolulu County,HI,NA,77.27748691099477,NA
83274,Bingham County,ID,NA,81.78010471204189,NA
83301,Twin Falls County,ID,NA,NA,12.658227848101266
83318,Cassia County,ID,NA,NA,48.734177215189874
83406,Bonneville County,ID,NA,63.455497382198956,73.62869198312237
83442,Jefferson County,ID,NA,70.78534031413612,NA
83501,Nez Perce County,ID,NA,13.717277486910994,NA
83638,Valley County,ID,NA,NA,75.73839662447257
83835,Kootenai County,ID,NA,NA,40.92827004219409
60004,Cook County,IL,NA,NA,9.70464135021097
60010,Lake County,IL,NA,NA,14.978902953586498
60012,McHenry County,IL,NA,NA,65.18987341772153
60016,Cook County,IL,NA,NA,11.39240506329114
60018,Cook County,IL,NA,NA,42.405063291139236
60025,Cook County,IL,NA,42.93193717277487,NA
60030,Lake County,IL,NA,42.51308900523561,NA
60031,Lake County,IL,NA,46.910994764397905,NA
60045,Lake County,IL,NA,77.80104712041886,NA
60048,Lake County,IL,33.33333333333333,NA,NA
60050,McHenry County,IL,NA,38.952879581151834,NA
60051,McHenry County,IL,40.51282051282051,NA,NA
60060,Lake County,IL,NA,74.03141361256544,NA
60074,Cook County,IL,NA,NA,41.35021097046413
60084,Lake County,IL,51.28205128205128,NA,NA
60093,Cook County,IL,NA,NA,52.53164556962025
60103,DuPage County,IL,NA,29.31937172774869,27.004219409282697
60126,DuPage County,IL,11.794871794871794,NA,NA
60140,Kane County,IL,NA,70.26178010471205,NA
60148,DuPage County,IL,15.897435897435896,14.45026178010471,NA
60154,Cook County,IL,64.61538461538461,NA,NA
60191,DuPage County,IL,NA,65.54973821989529,NA
60193,Cook County,IL,NA,39.3717277486911,NA
60202,Cook County,IL,NA,57.382198952879584,NA
60411,Cook County,IL,40.51282051282051,NA,NA
60448,Will County,IL,NA,78.21989528795812,NA
60466,Cook County,IL,NA,NA,55.27426160337553
60477,Cook County,IL,NA,27.329842931937172,NA
60505,Kane County,IL,NA,31.413612565445025,NA
60544,Will County,IL,NA,NA,27.21518987341772
60601,Cook County,IL,NA,NA,88.81856540084388
60620,Cook County,IL,6.153846153846154,NA,NA
60623,Cook County,IL,NA,6.9109947643979055,NA
60634,Cook County,IL,NA,10.052356020942408,NA
60640,Cook County,IL,NA,8.481675392670157,NA
60647,Cook County,IL,NA,7.329842931937172,NA
60656,Cook County,IL,NA,74.45026178010471,NA
60804,Cook County,IL,NA,NA,14.767932489451477
60914,Kankakee County,IL,NA,NA,21.729957805907173
60954,Kankakee County,IL,NA,NA,87.34177215189874
61032,Stephenson County,IL,NA,NA,18.354430379746837
61073,Winnebago County,IL,NA,NA,43.88185654008439
61088,Winnebago County,IL,NA,94.34554973821989,NA
61101,Winnebago County,IL,NA,45.968586387434556,NA
61301,LaSalle County,IL,NA,60.6282722513089,NA
61310,Lee County,IL,NA,97.38219895287958,NA
61462,Warren County,IL,NA,91.09947643979058,NA
61705,McLean County,IL,NA,76.96335078534031,NA
61736,McLean County,IL,NA,99.68586387434554,NA
61761,McLean County,IL,NA,40.10471204188482,NA
62301,Adams County,IL,NA,33.92670157068063,72.57383966244726
62521,Macon County,IL,8.717948717948717,12.356020942408378,NA
62568,Christian County,IL,NA,NA,59.07172995780591
62650,Morgan County,IL,NA,51.62303664921466,NA
62704,Sangamon County,IL,NA,NA,68.14345991561181
62948,Williamson County,IL,NA,65.96858638743456,NA
46037,Hamilton County,IN,36.92307692307693,NA,NA
46040,Hancock County,IN,NA,83.45549738219896,NA
46074,Hamilton County,IN,NA,62.82722513089005,NA
46077,Boone County,IN,NA,82.30366492146597,NA
46120,Putnam County,IN,NA,97.59162303664921,NA
46121,Putnam County,IN,NA,NA,99.78902953586498
46143,Johnson County,IN,NA,23.664921465968586,NA
46221,Marion County,IN,NA,NA,46.41350210970464
46231,Marion County,IN,NA,83.97905759162305,NA
46239,Marion County,IN,NA,53.50785340314136,NA
46260,Marion County,IN,NA,NA,49.36708860759494
46307,Lake County,IN,NA,NA,39.87341772151899
46312,Lake County,IN,NA,16.12565445026178,NA
46368,Porter County,IN,NA,2.408376963350785,NA
46403,Lake County,IN,48.717948717948715,NA,NA
46528,Elkhart County,IN,25.128205128205128,NA,NA
46563,Marshall County,IN,NA,40.83769633507853,NA
46614,St. Joseph County,IN,NA,56.96335078534032,NA
46755,Noble County,IN,NA,28.272251308900525,NA
46795,LaGrange County,IN,NA,89.42408376963351,NA
46806,Allen County,IN,NA,28.06282722513089,NA
46825,Allen County,IN,NA,NA,30.801687763713083
46933,Grant County,IN,NA,88.58638743455496,NA
46952,Grant County,IN,NA,NA,5.485232067510549
47304,Delaware County,IN,NA,50.15706806282723,NA
47362,Henry County,IN,30.76923076923077,NA,12.236286919831224
47374,Wayne County,IN,NA,4.293193717277487,NA
47394,Randolph County,IN,83.07692307692308,NA,NA
47441,Greene County,IN,NA,67.32984293193718,NA
47501,Daviess County,IN,NA,36.858638743455494,NA
47567,Pike County,IN,NA,NA,86.70886075949366
47630,Warrick County,IN,NA,NA,24.68354430379747
47725,Vanderburgh County,IN,NA,83.66492146596859,NA
50138,Marion County,IA,NA,50.994764397905755,NA
50310,Polk County,IA,NA,20.837696335078533,NA
50313,Polk County,IA,NA,39.68586387434555,NA
50316,Polk County,IA,NA,41.25654450261781,NA
50325,Polk County,IA,NA,NA,91.13924050632912
50701,Black Hawk County,IA,NA,33.50785340314136,27.637130801687764
51105,Woodbury County,IA,NA,66.17801047120419,NA
51301,Clay County,IA,NA,50.47120418848168,NA
51555,Harrison County,IA,NA,76.43979057591623,NA
51632,Page County,IA,49.23076923076923,NA,NA
52001,Dubuque County,IA,15.384615384615385,15.287958115183246,NA
52353,Washington County,IA,NA,90.26178010471205,NA
52402,Linn County,IA,NA,18.534031413612563,NA
52501,Wapello County,IA,NA,NA,33.9662447257384
52641,Henry County,IA,NA,70.05235602094241,NA
52753,Scott County,IA,67.6923076923077,NA,NA
52761,Muscatine County,IA,NA,NA,13.502109704641349
52803,Scott County,IA,NA,34.55497382198953,NA
66025,Douglas County,KS,NA,NA,95.35864978902954
66061,Johnson County,KS,8.205128205128204,NA,NA
66062,Johnson County,KS,9.7435897435897445,NA,NA
66092,Franklin County,KS,91.28205128205128,NA,NA
66213,Johnson County,KS,NA,92.56544502617801,NA
66224,Johnson County,KS,NA,97.69633507853403,NA
66606,Shawnee County,KS,NA,NA,82.91139240506328
67025,Sedgwick County,KS,NA,99.47643979057592,NA
67432,Clay County,KS,NA,91.41361256544502,NA
67554,Rice County,KS,NA,99.3717277486911,NA
67601,Ellis County,KS,NA,NA,19.40928270042194
40023,Jefferson County,KY,NA,NA,98.10126582278481
40031,Oldham County,KY,NA,NA,55.06329113924051
40057,Henry County,KY,NA,94.65968586387434,NA
40162,Hardin County,KY,82.564102564102555,NA,NA
40215,Jefferson County,KY,NA,NA,47.257383966244724
40216,Jefferson County,KY,NA,NA,13.080168776371309
40228,Jefferson County,KY,NA,64.08376963350786,NA
40312,Powell County,KY,NA,77.90575916230367,NA
40359,Owen County,KY,90.25641025641026,NA,NA
40361,Bourbon County,KY,NA,35.916230366492144,NA
40508,Fayette County,KY,NA,33.717277486910994,NA
40517,Fayette County,KY,NA,NA,45.78059071729958
40744,Laurel County,KY,NA,59.790575916230374,NA
41005,Boone County,KY,NA,58.84816753926702,NA
41015,Kenton County,KY,NA,27.53926701570681,NA
41017,Kenton County,KY,NA,31.93717277486911,NA
41040,Pendleton County,KY,NA,65.13089005235602,NA
41042,Boone County,KY,70.25641025641025,NA,NA
41139,Greenup County,KY,NA,69.63350785340315,84.81012658227847
41230,Lawrence County,KY,NA,80.31413612565444,NA
42141,Barren County,KY,NA,NA,8.016877637130802
42303,Daviess County,KY,NA,9.528795811518325,NA
42345,Muhlenberg County,KY,84.1025641025641,53.089005235602095,NA
42539,Casey County,KY,NA,72.25130890052355,NA
42642,Russell County,KY,NA,65.44502617801047,NA
42717,Cumberland County,KY,NA,54.76439790575917,NA
70058,Jefferson Parish,LA,NA,NA,12.869198312236287
70114,Orleans Parish,LA,NA,10.157068062827225,NA
70115,Orleans Parish,LA,NA,NA,25.105485232067508
70125,Orleans Parish,LA,NA,78.53403141361257,NA
70427,Washington Parish,LA,NA,NA,24.050632911392405
70433,St. Tammany Parish,LA,NA,6.596858638743456,NA
70501,Lafayette Parish,LA,NA,NA,63.92405063291139
70503,Lafayette Parish,LA,NA,38.010471204188484,NA
70508,Lafayette Parish,LA,NA,NA,20.88607594936709
70518,Lafayette Parish,LA,NA,48.48167539267016,NA
70529,Lafayette Parish,LA,NA,47.95811518324607,NA
70560,Iberia Parish,LA,NA,15.811518324607329,NA
70810,East Baton Rouge Parish,LA,NA,NA,29.535864978902953
70815,East Baton Rouge Parish,LA,NA,15.49738219895288,NA
70820,East Baton Rouge Parish,LA,NA,NA,98.94514767932489
71037,Bossier Parish,LA,NA,17.382198952879584,NA
71064,Bossier Parish,LA,NA,NA,97.67932489451476
71104,Caddo Parish,LA,NA,NA,69.62025316455697
71112,Bossier Parish,LA,NA,NA,26.79324894514768
71119,Caddo Parish,LA,NA,NA,67.08860759493672
71360,Rapides Parish,LA,NA,11.204188481675391,NA
71405,Rapides Parish,LA,NA,85.34031413612566,NA
71457,Natchitoches Parish,LA,NA,6.387434554973822,NA
03909,York County,ME,NA,52.46073298429319,NA
04072,York County,ME,NA,NA,56.32911392405063
04105,Cumberland County,ME,NA,96.96335078534032,NA
04240,Androscoggin County,ME,NA,NA,2.9535864978902953
04282,Androscoggin County,ME,77.435897435897445,NA,NA
04401,Penobscot County,ME,NA,1.6753926701570683,NA
04736,Aroostook County,ME,NA,50.78534031413613,NA
20619,St. Mary's County,MD,79.48717948717949,NA,NA
20744,Prince George's County,MD,NA,NA,43.037974683544306
20852,Montgomery County,MD,NA,NA,63.50210970464135
20901,Montgomery County,MD,NA,NA,83.33333333333334
21014,Harford County,MD,53.333333333333336,NA,NA
21032,Anne Arundel County,MD,NA,89.84293193717278,NA
21045,Howard County,MD,NA,NA,70.88607594936708
21093,Baltimore County,MD,NA,NA,79.53586497890295
21102,Carroll County,MD,71.7948717948718,NA,NA
21202,Baltimore city,MD,NA,NA,59.49367088607595
21217,Baltimore city,MD,NA,22.61780104712042,NA
21218,Baltimore city,MD,NA,9.63350785340314,NA
21223,Baltimore city,MD,NA,NA,48.52320675105485
21643,Dorchester County,MD,NA,NA,93.67088607594937
21742,Washington County,MD,NA,NA,71.30801687763713
21771,Frederick County,MD,NA,61.675392670157066,NA
21811,Worcester County,MD,NA,NA,28.270042194092827
21842,Worcester County,MD,NA,86.282722513089,NA
21911,Cecil County,MD,NA,72.77486910994764,NA
21921,Cecil County,MD,NA,14.764397905759164,NA
01040,Hampden County,MA,NA,NA,0
01082,Hampshire County,MA,NA,NA,41.983122362869196
01108,Hampden County,MA,NA,1.256544502617801,NA
01220,Berkshire County,MA,NA,22.408376963350783,NA
01460,Middlesex County,MA,NA,40.73298429319372,NA
01464,Middlesex County,MA,NA,86.38743455497382,NA
01510,Worcester County,MA,NA,19.476439790575917,NA
01550,Worcester County,MA,NA,92.46073298429319,NA
01570,Worcester County,MA,NA,NA,4.219409282700422
01605,Worcester County,MA,NA,1.0471204188481675,NA
01610,Worcester County,MA,NA,0.20942408376963353,NA
01720,Middlesex County,MA,18.461538461538463,NA,NA
01746,Middlesex County,MA,NA,20.732984293193716,NA
01752,Middlesex County,MA,NA,NA,13.71308016877637
01754,Middlesex County,MA,NA,NA,56.75105485232067
01757,Worcester County,MA,NA,1.8848167539267016,NA
01801,Middlesex County,MA,NA,0.9424083769633508,NA
01826,Middlesex County,MA,NA,NA,3.5864978902953584
01832,Essex County,MA,NA,NA,45.14767932489451
01834,Essex County,MA,NA,78.01047120418848,NA
01851,Middlesex County,MA,NA,13.926701570680628,NA
01863,Middlesex County,MA,NA,NA,64.13502109704642
01879,Middlesex County,MA,NA,NA,53.16455696202531
01985,Essex County,MA,NA,NA,87.76371308016878
02021,Norfolk County,MA,10.76923076923077,NA,NA
02061,Plymouth County,MA,56.92307692307692,NA,NA
02062,Norfolk County,MA,34.87179487179487,NA,NA
02067,Norfolk County,MA,NA,55.287958115183244,NA
02072,Norfolk County,MA,NA,8.06282722513089,NA
02115,Suffolk County,MA,NA,6.178010471204189,NA
02118,Suffolk County,MA,NA,21.256544502617803,NA
02129,Suffolk County,MA,NA,35.287958115183244,NA
02135,Suffolk County,MA,NA,NA,9.282700421940929
02139,Middlesex County,MA,NA,0.10471204188481677,NA
02141,Middlesex County,MA,NA,NA,27.848101265822784
02152,Suffolk County,MA,17.435897435897434,NA,NA
02155,Middlesex County,MA,NA,NA,20.042194092827003
02170,Norfolk County,MA,NA,31.308900523560208,NA
02301,Plymouth County,MA,NA,0,0.21097046413502107
02446,Norfolk County,MA,NA,66.70157068062828,5.9071729957805905
02461,Middlesex County,MA,NA,77.38219895287958,NA
02493,Middlesex County,MA,NA,63.455497382198956,NA
02660,Barnstable County,MA,NA,NA,72.36286919831224
02673,Barnstable County,MA,NA,NA,61.81434599156118
02703,Bristol County,MA,NA,6.701570680628273,0.6329113924050633
02720,Bristol County,MA,NA,14.659685863874344,NA
02723,Bristol County,MA,NA,15.706806282722512,NA
02726,Bristol County,MA,NA,NA,32.91139240506329
02746,Bristol County,MA,NA,13.612565445026178,NA
02760,Bristol County,MA,NA,10.890052356020941,NA
02767,Bristol County,MA,NA,24.921465968586386,NA
02780,Bristol County,MA,NA,NA,1.89873417721519
48025,Oakland County,MI,NA,77.38219895287958,NA
48026,Macomb County,MI,NA,NA,45.358649789029535
48034,Oakland County,MI,NA,34.76439790575917,NA
48040,St. Clair County,MI,NA,68.79581151832461,NA
48047,Macomb County,MI,14.358974358974358,13.193717277486911,NA
48059,St. Clair County,MI,NA,NA,47.46835443037975
48060,St. Clair County,MI,NA,2.931937172774869,5.063291139240507
48062,Macomb County,MI,NA,81.04712041884817,NA
48071,Oakland County,MI,NA,26.387434554973822,NA
48079,St. Clair County,MI,NA,NA,62.236286919831215
48081,Macomb County,MI,NA,NA,26.582278481012654
48103,Washtenaw County,MI,NA,14.554973821989527,NA
48105,Washtenaw County,MI,NA,NA,16.244725738396625
48117,Monroe County,MI,NA,51.30890052356021,NA
48124,Wayne County,MI,NA,NA,25.738396624472575
48140,Monroe County,MI,NA,98.84816753926702,NA
48150,Wayne County,MI,NA,28.167539267015705,NA
48154,Wayne County,MI,76.41025641025641,24.397905759162303,6.962025316455696
48158,Washtenaw County,MI,81.53846153846153,NA,NA
48161,Monroe County,MI,NA,7.12041884816754,NA
48174,Wayne County,MI,NA,NA,17.29957805907173
48187,Wayne County,MI,85.12820512820512,9.738219895287958,NA
48188,Wayne County,MI,NA,NA,6.751054852320674
48195,Wayne County,MI,NA,78.84816753926701,NA
48207,Wayne County,MI,NA,49.63350785340314,NA
48214,Wayne County,MI,31.794871794871792,NA,NA
48224,Wayne County,MI,NA,1.9895287958115182,NA
48229,Wayne County,MI,NA,79.68586387434556,NA
48238,Wayne County,MI,NA,4.81675392670157,NA
48301,Oakland County,MI,NA,62.09424083769633,NA
48307,Oakland County,MI,NA,48.167539267015705,NA
48313,Macomb County,MI,NA,27.643979057591622,NA
48315,Macomb County,MI,NA,NA,19.831223628691983
48324,Oakland County,MI,NA,57.27748691099477,NA
48329,Oakland County,MI,NA,63.66492146596858,NA
48334,Oakland County,MI,NA,52.56544502617801,NA
48371,Oakland County,MI,NA,79.05759162303664,NA
48428,Lapeer County,MI,NA,87.74869109947645,NA
48430,Genesee County,MI,NA,25.759162303664922,NA
48446,Lapeer County,MI,NA,14.136125654450263,NA
48458,Genesee County,MI,NA,60.94240837696335,NA
48473,Genesee County,MI,NA,NA,43.24894514767932
48503,Genesee County,MI,NA,17.69633507853403,NA
48532,Genesee County,MI,NA,38.1151832460733,NA
48602,Saginaw County,MI,NA,36.2303664921466,NA
48827,Eaton County,MI,NA,NA,82.48945147679325
48837,Eaton County,MI,NA,NA,39.24050632911392
48838,Montcalm County,MI,NA,NA,34.177215189873415
48912,Ingham County,MI,NA,NA,95.14767932489451
49002,Kalamazoo County,MI,NA,33.089005235602095,34.810126582278485
49009,Kalamazoo County,MI,NA,40.6282722513089,NA
49024,Kalamazoo County,MI,NA,27.225130890052355,NA
49058,Barry County,MI,NA,NA,42.82700421940928
49269,Jackson County,MI,NA,87.43455497382199,NA
49307,Mecosta County,MI,NA,50.36649214659686,NA
49327,Newaygo County,MI,NA,74.65968586387434,NA
49329,Montcalm County,MI,60.51282051282051,NA,NA
49331,Kent County,MI,NA,NA,46.62447257383967
49418,Kent County,MI,NA,NA,66.03375527426161
49424,Ottawa County,MI,9.230769230769232,44.397905759162306,NA
49426,Ottawa County,MI,NA,68.58638743455498,NA
49455,Oceana County,MI,NA,94.34554973821989,NA
49504,Kent County,MI,NA,14.031413612565444,NA
49546,Kent County,MI,NA,NA,36.708860759493675
49548,Kent County,MI,NA,30.36649214659686,NA
49660,Manistee County,MI,NA,38.53403141361256,NA
49677,Osceola County,MI,70.76923076923077,NA,NA
49686,Grand Traverse County,MI,NA,46.596858638743456,NA
49740,Emmet County,MI,NA,NA,64.9789029535865
55101,Ramsey County,MN,NA,33.19371727748691,NA
55123,Dakota County,MN,NA,77.38219895287958,NA
55316,Hennepin County,MN,NA,63.769633507853406,NA
55320,Wright County,MN,86.66666666666667,NA,NA
55328,Wright County,MN,NA,88.79581151832461,NA
55344,Hennepin County,MN,NA,NA,92.82700421940928
55350,McLeod County,MN,NA,NA,35.232067510548525
55387,Carver County,MN,NA,NA,83.12236286919831
55398,Sherburne County,MN,NA,NA,97.46835443037975
55412,Hennepin County,MN,NA,8.691099476439792,NA
55447,Hennepin County,MN,NA,70.99476439790577,NA
55987,Winona County,MN,NA,NA,4.008438818565401
56003,Nicollet County,MN,NA,83.45549738219896,NA
56128,Pipestone County,MN,NA,100,NA
56265,Chippewa County,MN,NA,NA,58.22784810126582
56347,Todd County,MN,NA,79.89528795811518,NA
56425,Crow Wing County,MN,NA,85.44502617801048,NA
56572,Otter Tail County,MN,NA,NA,69.19831223628692
38635,Marshall County,MS,NA,71.51832460732984,NA
38751,Sunflower County,MS,NA,79.47643979057591,NA
39046,Madison County,MS,NA,28.691099476439792,NA
39110,Madison County,MS,NA,NA,63.0801687763713
39204,Hinds County,MS,NA,22.722513089005236,NA
39272,Hinds County,MS,NA,90.0523560209424,NA
39305,Lauderdale County,MS,61.53846153846154,NA,NA
39330,Clarke County,MS,NA,99.79057591623037,NA
39429,Marion County,MS,NA,64.18848167539267,68.77637130801688
39466,Pearl River County,MS,NA,27.015706806282726,NA
39553,Jackson County,MS,NA,43.87434554973822,NA
39601,Lincoln County,MS,NA,45.23560209424084,90.084388185654
39629,Lincoln County,MS,NA,92.14659685863874,NA
63031,St. Louis County,MO,NA,47.43455497382199,12.025316455696203
63104,St. Louis city,MO,NA,87.85340314136126,NA
63123,St. Louis County,MO,NA,36.439790575916234,NA
63128,St. Louis County,MO,NA,NA,22.9957805907173
63301,St. Charles County,MO,NA,NA,4.430379746835443
63501,Adair County,MO,NA,91.93717277486911,NA
63552,Macon County,MO,NA,90.36649214659685,NA
63645,Madison County,MO,NA,73.71727748691099,NA
63755,Cape Girardeau County,MO,NA,60.83769633507854,NA
63780,Scott County,MO,NA,NA,77.63713080168776
63857,Dunklin County,MO,NA,NA,53.79746835443038
64029,Jackson County,MO,NA,39.26701570680628,NA
64034,Jackson County,MO,NA,NA,93.45991561181435
64056,Jackson County,MO,NA,26.07329842931937,NA
64068,Clay County,MO,7.6923076923076925,NA,NA
64081,Jackson County,MO,NA,NA,43.459915611814345
64085,Ray County,MO,NA,NA,66.66666666666666
64093,Johnson County,MO,NA,65.75916230366492,NA
64118,Clay County,MO,NA,NA,7.172995780590717
64119,Clay County,MO,NA,10.575916230366492,NA
64133,Jackson County,MO,NA,3.9790575916230364,NA
64138,Jackson County,MO,NA,11.30890052356021,17.72151898734177
64151,Platte County,MO,NA,31.623036649214658,NA
64157,Clay County,MO,NA,33.29842931937173,NA
64506,Buchanan County,MO,NA,18.010471204188484,NA
64735,Henry County,MO,NA,32.98429319371728,NA
65265,Audrain County,MO,NA,56.54450261780105,NA
65301,Pettis County,MO,NA,NA,7.805907172995781
65351,Saline County,MO,NA,97.90575916230367,NA
65536,Laclede County,MO,NA,40.20942408376963,NA
65625,Barry County,MO,NA,NA,82.70042194092827
65648,Greene County,MO,NA,97.27748691099475,NA
65708,Barry County,MO,NA,NA,82.0675105485232
65721,Christian County,MO,NA,90.78534031413612,NA
59072,Musselshell County,MT,NA,NA,89.24050632911393
59102,Yellowstone County,MT,NA,NA,31.856540084388186
59718,Gallatin County,MT,NA,34.973821989528794,NA
68066,Saunders County,NE,NA,93.61256544502618,NA
68135,Douglas County,NE,28.717948717948715,NA,NA
68502,Lancaster County,NE,NA,67.12041884816755,NA
68803,Hall County,NE,NA,NA,54.641350210970465
69101,Lincoln County,NE,NA,23.455497382198953,NA
89146,Clark County,NV,NA,77.06806282722512,NA
89165,Clark County,NV,NA,94.76439790575915,NA
89166,Clark County,NV,72.3076923076923,NA,NA
89433,Washoe County,NV,NA,NA,62.0253164556962
89434,Washoe County,NV,40,NA,NA
89506,Washoe County,NV,NA,17.801047120418847,NA
89521,Washoe County,NV,NA,NA,37.76371308016878
03076,Hillsborough County,NH,NA,NA,58.438818565400844
03827,Rockingham County,NH,NA,92.77486910994764,NA
03867,Strafford County,NH,NA,22.198952879581153,NA
07010,Bergen County,NJ,NA,73.92670157068063,NA
07011,Passaic County,NJ,NA,NA,28.270042194092827
07017,Essex County,NJ,NA,NA,71.09704641350211
07018,Essex County,NJ,NA,5.549738219895288,NA
07039,Essex County,NJ,NA,50.890052356020945,NA
07043,Essex County,NJ,NA,86.91099476439791,NA
07057,Bergen County,NJ,NA,91.2041884816754,NA
07065,Union County,NJ,NA,22.827225130890053,NA
07079,Essex County,NJ,94.35897435897435,NA,NA
07083,Union County,NJ,NA,15.916230366492146,NA
07107,Essex County,NJ,NA,23.141361256544503,NA
07109,Essex County,NJ,NA,13.821989528795811,NA
07111,Essex County,NJ,NA,0.7329842931937173,NA
07424,Passaic County,NJ,NA,38.638743455497384,NA
07470,Passaic County,NJ,NA,16.230366492146597,NA
07481,Bergen County,NJ,NA,69.31937172774869,NA
07501,Passaic County,NJ,NA,1.4659685863874345,NA
07504,Passaic County,NJ,NA,82.30366492146597,NA
07508,Passaic County,NJ,NA,29.63350785340314,NA
07644,Bergen County,NJ,NA,39.89528795811518,NA
07740,Monmouth County,NJ,NA,NA,6.5400843881856545
07753,Monmouth County,NJ,16.923076923076923,NA,NA
07821,Sussex County,NJ,NA,NA,90.92827004219409
07853,Morris County,NJ,NA,NA,94.51476793248945
07856,Morris County,NJ,NA,NA,95.78059071729957
07922,Union County,NJ,NA,94.03141361256544,NA
07930,Morris County,NJ,57.43589743589743,NA,NA
07960,Morris County,NJ,NA,18.32460732984293,NA
08003,Camden County,NJ,NA,26.701570680628272,NA
08028,Gloucester County,NJ,NA,94.55497382198953,NA
08050,Ocean County,NJ,NA,36.753926701570684,37.552742616033754
08054,Burlington County,NJ,NA,NA,15.18987341772152
08080,Gloucester County,NJ,NA,38.42931937172775,NA
08090,Gloucester County,NJ,NA,65.86387434554973,NA
08094,Gloucester County,NJ,NA,6.0732984293193715,NA
08105,Camden County,NJ,NA,20.418848167539267,NA
08210,Cape May County,NJ,NA,37.382198952879584,NA
08330,Atlantic County,NJ,NA,29.214659685863875,NA
08512,Mercer County,NJ,NA,NA,97.8902953586498
08618,Mercer County,NJ,NA,0.5235602094240838,NA
08638,Mercer County,NJ,NA,11.62303664921466,NA
08648,Mercer County,NJ,NA,42.09424083769633,NA
08730,Monmouth County,NJ,NA,98.21989528795811,NA
08758,Ocean County,NJ,NA,92.35602094240838,NA
08852,Middlesex County,NJ,NA,51.832460732984295,NA
08853,Somerset County,NJ,87.17948717948718,NA,NA
08857,Middlesex County,NJ,NA,7.43455497382199,NA
08873,Somerset County,NJ,NA,NA,23.628691983122362
87107,Bernalillo County,NM,NA,NA,24.47257383966245
87108,Bernalillo County,NM,NA,6.282722513089005,NA
87120,Bernalillo County,NM,13.333333333333334,NA,NA
87121,Bernalillo County,NM,3.5897435897435894,NA,NA
87301,McKinley County,NM,NA,26.282722513089006,NA
87507,Santa Fe County,NM,NA,32.56544502617801,NA
88012,Doa Ana County,NM,78.46153846153847,NA,79.957805907173
88260,Lea County,NM,38.46153846153847,NA,NA
10009,New York County,NY,NA,8.900523560209423,NA
10032,New York County,NY,NA,10.471204188481675,NA
10035,New York County,NY,NA,5.2356020942408374,NA
10040,New York County,NY,NA,NA,19.62025316455696
10306,Richmond County,NY,NA,18.429319371727747,NA
10460,Bronx County,NY,NA,1.3612565445026177,1.6877637130801686
10550,Westchester County,NY,NA,24.81675392670157,NA
10805,Westchester County,NY,NA,89.42408376963351,NA
10990,Orange County,NY,NA,87.22513089005236,NA
11201,Kings County,NY,NA,20.523560209424083,NA
11218,Kings County,NY,NA,16.963350785340314,NA
11235,Kings County,NY,NA,NA,16.666666666666664
11236,Kings County,NY,NA,NA,7.59493670886076
11368,Queens County,NY,NA,29.84293193717277,NA
11369,Queens County,NY,NA,54.24083769633508,NA
11375,Queens County,NY,NA,NA,33.54430379746836
11435,Queens County,NY,NA,67.5392670157068,NA
11550,Nassau County,NY,NA,11.413612565445026,NA
11566,Nassau County,NY,NA,NA,50
11776,Suffolk County,NY,NA,NA,57.59493670886076
11963,Suffolk County,NY,NA,97.80104712041884,NA
12065,Saratoga County,NY,57.948717948717956,NA,NA
12078,Fulton County,NY,NA,4.0837696335078535,NA
12095,Fulton County,NY,NA,NA,37.130801687763714
12143,Albany County,NY,NA,NA,99.15611814345992
12180,Rensselaer County,NY,NA,1.780104712041885,NA
12205,Albany County,NY,NA,NA,46.62447257383967
12208,Albany County,NY,NA,60,NA
12771,Orange County,NY,NA,85.86387434554975,NA
12901,Clinton County,NY,13.846153846153847,NA,NA
12966,Franklin County,NY,94.87179487179486,NA,NA
12981,Clinton County,NY,NA,93.717277486911,NA
12983,Franklin County,NY,NA,47.64397905759162,NA
13021,Cayuga County,NY,NA,3.0366492146596857,NA
13027,Onondaga County,NY,NA,12.984293193717278,NA
13032,Madison County,NY,32.82051282051282,NA,NA
13035,Madison County,NY,NA,81.2565445026178,NA
13036,Oswego County,NY,NA,80.31413612565444,NA
13039,Onondaga County,NY,NA,43.1413612565445,NA
13069,Oswego County,NY,NA,4.9214659685863875,NA
13078,Onondaga County,NY,53.84615384615385,NA,NA
13118,Cayuga County,NY,NA,NA,83.75527426160338
13166,Cayuga County,NY,NA,90.47120418848168,NA
13208,Onondaga County,NY,21.53846153846154,NA,NA
13309,Oneida County,NY,85.64102564102564,NA,NA
13343,Lewis County,NY,NA,NA,98.52320675105484
13346,Madison County,NY,NA,64.29319371727749,NA
13350,Herkimer County,NY,NA,34.345549738219894,NA
13367,Lewis County,NY,NA,38.84816753926702,NA
13601,Jefferson County,NY,NA,21.57068062827225,NA
13612,Jefferson County,NY,100,NA,NA
13730,Chenango County,NY,88.2051282051282,NA,NA
13734,Tioga County,NY,NA,96.75392670157068,NA
13760,Broome County,NY,NA,0.6282722513089005,NA
13790,Broome County,NY,NA,64.81675392670158,NA
13820,Otsego County,NY,NA,9.424083769633508,NA
13827,Tioga County,NY,26.153846153846157,NA,NA
13830,Chenango County,NY,NA,63.03664921465969,NA
14051,Erie County,NY,NA,69.21465968586388,NA
14063,Chautauqua County,NY,NA,NA,48.9451476793249
14086,Erie County,NY,NA,19.26701570680628,NA
14094,Niagara County,NY,NA,1.5706806282722512,NA
14120,Niagara County,NY,NA,4.397905759162303,NA
14125,Genesee County,NY,75.38461538461539,NA,NA
14127,Erie County,NY,NA,NA,16.244725738396625
14150,Erie County,NY,NA,5.445026178010471,NA
14216,Erie County,NY,NA,28.48167539267016,NA
14221,Erie County,NY,NA,NA,3.375527426160337
14226,Erie County,NY,NA,29.94764397905759,NA
14227,Erie County,NY,NA,23.769633507853403,NA
14305,Niagara County,NY,NA,25.23560209424084,NA
14414,Livingston County,NY,NA,59.89528795811518,NA
14425,Ontario County,NY,NA,64.71204188481676,NA
14437,Livingston County,NY,NA,43.03664921465968,NA
14450,Monroe County,NY,NA,2.513089005235602,NA
14472,Monroe County,NY,44.1025641025641,84.81675392670157,NA
14489,Wayne County,NY,NA,NA,35.44303797468354
14519,Wayne County,NY,NA,NA,29.746835443037973
14527,Yates County,NY,48.205128205128204,NA,NA
14530,Wyoming County,NY,NA,74.9738219895288,NA
14543,Monroe County,NY,NA,NA,94.9367088607595
14546,Monroe County,NY,NA,83.24607329842932,NA
14569,Wyoming County,NY,NA,63.246073298429316,NA
14580,Monroe County,NY,NA,46.70157068062827,NA
14590,Wayne County,NY,NA,NA,62.447257383966246
14605,Monroe County,NY,NA,8.795811518324607,NA
14606,Monroe County,NY,5.128205128205128,NA,NA
14609,Monroe County,NY,NA,NA,11.181434599156118
14612,Monroe County,NY,NA,53.612565445026185,NA
14615,Monroe County,NY,NA,10.99476439790576,NA
14620,Monroe County,NY,NA,5.654450261780105,NA
14624,Monroe County,NY,3.076923076923077,NA,2.320675105485232
14625,Monroe County,NY,NA,89.21465968586388,NA
14626,Monroe County,NY,NA,2.8272251308900525,NA
14711,Allegany County,NY,NA,98.32460732984293,NA
14716,Chautauqua County,NY,NA,94.9738219895288,NA
14719,Cattaraugus County,NY,NA,93.92670157068062,NA
14735,Allegany County,NY,NA,93.0890052356021,NA
14737,Cattaraugus County,NY,NA,83.35078534031413,NA
14743,Cattaraugus County,NY,91.7948717948718,NA,NA
14830,Steuben County,NY,NA,54.55497382198953,NA
14837,Yates County,NY,NA,NA,96.20253164556962
14838,Chemung County,NY,NA,90.57591623036649,NA
14840,Steuben County,NY,NA,92.87958115183245,NA
14843,Steuben County,NY,18.974358974358974,NA,NA
14873,Steuben County,NY,NA,95.70680628272251,NA
27030,Surry County,NC,NA,28.79581151832461,NA
27055,Yadkin County,NC,NA,61.675392670157066,NA
27106,Forsyth County,NC,NA,12.460732984293193,NA
27127,Forsyth County,NC,NA,43.24607329842932,NA
27288,Rockingham County,NC,NA,12.670157068062826,NA
27316,Randolph County,NC,NA,NA,92.19409282700421
27317,Randolph County,NC,NA,51.72774869109947,NA
27360,Davidson County,NC,NA,3.3507853403141366,NA
27517,Orange County,NC,NA,NA,30.590717299578056
27519,Wake County,NC,NA,46.80628272251309,NA
27530,Wayne County,NC,NA,43.560209424083766,NA
27858,Pitt County,NC,NA,25.968586387434556,NA
27948,Dare County,NC,NA,58.7434554973822,NA
28078,Mecklenburg County,NC,NA,NA,37.34177215189873
28139,Rutherford County,NC,NA,36.544502617801044,NA
28202,Mecklenburg County,NC,NA,87.43455497382199,NA
28212,Mecklenburg County,NC,NA,56.12565445026178,NA
28215,Mecklenburg County,NC,NA,14.973821989528796,NA
28216,Mecklenburg County,NC,NA,53.298429319371735,NA
28326,Harnett County,NC,NA,NA,67.51054852320675
28327,Moore County,NC,NA,67.85340314136126,NA
28328,Sampson County,NC,NA,34.45026178010471,NA
28412,New Hanover County,NC,NA,NA,28.902953586497894
28451,Brunswick County,NC,NA,NA,25.949367088607595
28465,Brunswick County,NC,NA,NA,58.64978902953587
28540,Onslow County,NC,NA,26.49214659685864,NA
28562,Craven County,NC,47.69230769230769,39.68586387434555,NA
28590,Pitt County,NC,NA,58.42931937172775,NA
28645,Caldwell County,NC,NA,3.56020942408377,NA
28650,Catawba County,NC,NA,62.30366492146597,NA
28658,Catawba County,NC,NA,NA,44.51476793248945
28659,Wilkes County,NC,NA,20.837696335078533,NA
28752,McDowell County,NC,NA,15.602094240837697,NA
28779,Jackson County,NC,NA,NA,62.869198312236286
28901,Cherokee County,NC,89.74358974358975,NA,NA
28906,Cherokee County,NC,NA,47.225130890052355,NA
58078,Cass County,ND,NA,26.17801047120419,NA
58104,Cass County,ND,NA,NA,11.60337552742616
58701,Ward County,ND,NA,9.842931937172775,NA
43019,Knox County,OH,NA,69.31937172774869,NA
43026,Franklin County,OH,NA,NA,21.940928270042196
43040,Union County,OH,NA,56.75392670157068,NA
43062,Licking County,OH,NA,NA,33.12236286919831
43065,Delaware County,OH,50.76923076923077,NA,NA
43085,Franklin County,OH,NA,NA,88.39662447257383
43138,Hocking County,OH,NA,30.157068062827225,NA
43201,Franklin County,OH,NA,45.13089005235602,NA
43206,Franklin County,OH,NA,11.727748691099476,NA
43219,Franklin County,OH,NA,NA,39.87341772151899
43232,Franklin County,OH,NA,3.664921465968586,NA
43302,Marion County,OH,NA,NA,3.1645569620253164
43420,Sandusky County,OH,NA,36.02094240837697,NA
43452,Ottawa County,OH,NA,NA,37.9746835443038
43506,Williams County,OH,NA,23.979057591623036,NA
43512,Defiance County,OH,NA,3.87434554973822,NA
43528,Lucas County,OH,NA,39.58115183246073,NA
43551,Wood County,OH,10.76923076923077,NA,NA
43558,Fulton County,OH,NA,NA,49.789029535864984
43560,Lucas County,OH,NA,NA,70.46413502109705
43571,Lucas County,OH,NA,82.72251308900523,NA
43605,Lucas County,OH,NA,15.18324607329843,NA
43607,Lucas County,OH,NA,NA,21.308016877637133
43613,Lucas County,OH,1.5384615384615385,NA,NA
43614,Lucas County,OH,NA,NA,10.126582278481013
43615,Lucas County,OH,NA,3.2460732984293195,NA
43701,Muskingum County,OH,NA,0.41884816753926707,NA
43787,Morgan County,OH,NA,93.50785340314135,NA
43845,Coshocton County,OH,NA,60,NA
43910,Jefferson County,OH,NA,93.82198952879581,NA
43950,Belmont County,OH,NA,40,16.877637130801688
43952,Jefferson County,OH,NA,7.015706806282722,9.915611814345992
43968,Columbiana County,OH,NA,48.06282722513089,NA
44012,Lorain County,OH,NA,65.0261780104712,NA
44024,Geauga County,OH,NA,NA,16.033755274261605
44035,Lorain County,OH,NA,8.167539267015707,2.5316455696202533
44072,Geauga County,OH,NA,98.1151832460733,NA
44081,Lake County,OH,NA,95.07853403141361,NA
44095,Lake County,OH,NA,NA,9.071729957805907
44102,Cuyahoga County,OH,0,NA,NA
44105,Cuyahoga County,OH,NA,0.31413612565445026,NA
44108,Cuyahoga County,OH,NA,2.6178010471204187,NA
44109,Cuyahoga County,OH,NA,4.502617801047121,NA
44110,Cuyahoga County,OH,NA,9.214659685863873,NA
44111,Cuyahoga County,OH,NA,1.1518324607329842,NA
44118,Cuyahoga County,OH,NA,39.05759162303665,NA
44121,Cuyahoga County,OH,NA,9.109947643979059,NA
44137,Cuyahoga County,OH,NA,5.340314136125655,NA
44221,Summit County,OH,NA,NA,18.565400843881857
44231,Portage County,OH,NA,83.87434554973822,NA
44236,Summit County,OH,NA,NA,75.31645569620254
44240,Portage County,OH,NA,NA,21.09704641350211
44241,Portage County,OH,NA,30.78534031413613,NA
44256,Medina County,OH,NA,60.41884816753927,5.69620253164557
44262,Summit County,OH,NA,91.72774869109948,NA
44281,Medina County,OH,23.589743589743588,NA,NA
44286,Summit County,OH,NA,NA,90.50632911392405
44319,Summit County,OH,NA,48.58638743455497,23.839662447257385
44333,Summit County,OH,NA,67.64397905759162,NA
44460,Columbiana County,OH,NA,20,NA
44485,Trumbull County,OH,NA,17.172774869109947,NA
44511,Mahoning County,OH,NA,NA,36.075949367088604
44512,Mahoning County,OH,NA,NA,13.924050632911392
44514,Mahoning County,OH,NA,46.38743455497382,NA
44515,Mahoning County,OH,16.41025641025641,NA,NA
44622,Tuscarawas County,OH,NA,32.87958115183246,NA
44632,Stark County,OH,NA,79.26701570680629,NA
44663,Tuscarawas County,OH,NA,NA,81.43459915611815
44688,Stark County,OH,NA,98.53403141361257,NA
44709,Stark County,OH,NA,NA,77.84810126582279
44820,Crawford County,OH,NA,52.98429319371728,NA
45005,Warren County,OH,NA,8.37696335078534,NA
45011,Butler County,OH,0.5128205128205128,2.094240837696335,NA
45014,Butler County,OH,NA,14.345549738219896,NA
45036,Warren County,OH,NA,19.895287958115183,NA
45044,Butler County,OH,NA,5.026178010471204,NA
45069,Butler County,OH,NA,22.408376963350783,NA
45102,Clermont County,OH,NA,35.39267015706806,NA
45107,Clinton County,OH,NA,80.31413612565444,NA
45123,Highland County,OH,NA,89.84293193717278,NA
45154,Brown County,OH,NA,NA,85.23206751054853
45159,Clinton County,OH,NA,NA,98.31223628691983
45177,Clinton County,OH,NA,23.56020942408377,NA
45239,Hamilton County,OH,NA,16.43979057591623,NA
45242,Hamilton County,OH,NA,86.70157068062827,NA
45243,Hamilton County,OH,NA,NA,80.16877637130801
45251,Hamilton County,OH,NA,50.05235602094241,86.28691983122363
45308,Darke County,OH,99.48717948717949,NA,NA
45342,Montgomery County,OH,NA,75.07853403141361,NA
45356,Miami County,OH,NA,13.507853403141363,NA
45365,Shelby County,OH,NA,NA,14.556962025316455
45373,Miami County,OH,NA,6.492146596858639,NA
45385,Greene County,OH,NA,11.518324607329843,NA
45410,Montgomery County,OH,NA,41.98952879581152,NA
45420,Montgomery County,OH,NA,26.910994764397905,NA
45426,Montgomery County,OH,28.205128205128204,NA,NA
45439,Montgomery County,OH,NA,49.21465968586388,NA
45459,Montgomery County,OH,NA,NA,60.12658227848101
45502,Clark County,OH,82.05128205128204,74.76439790575917,NA
45601,Ross County,OH,1.0256410256410255,NA,0.42194092827004215
45631,Gallia County,OH,NA,10.261780104712042,NA
45648,Scioto County,OH,NA,55.39267015706806,NA
45651,Vinton County,OH,NA,NA,58.86075949367089
45686,Gallia County,OH,NA,80.83769633507853,NA
45840,Hancock County,OH,NA,2.1989528795811517,NA
73003,Oklahoma County,OK,NA,84.50261780104712,NA
73030,Murray County,OK,51.28205128205128,NA,NA
73034,Oklahoma County,OK,NA,NA,15.400843881856542
73052,Garvin County,OK,NA,90.0523560209424,NA
73064,Canadian County,OK,NA,NA,47.67932489451477
73065,McClain County,OK,NA,NA,74.68354430379746
73086,Murray County,OK,NA,67.32984293193718,NA
73110,Oklahoma County,OK,NA,17.486910994764397,NA
73112,Oklahoma County,OK,NA,NA,51.47679324894515
73114,Oklahoma County,OK,NA,52.56544502617801,NA
73120,Oklahoma County,OK,NA,41.46596858638743,30.37974683544304
73122,Oklahoma County,OK,58.97435897435898,NA,NA
73170,Cleveland County,OK,NA,NA,17.088607594936708
73750,Kingfisher County,OK,NA,NA,76.37130801687763
73942,Texas County,OK,NA,73.40314136125654,NA
74003,Osage County,OK,NA,61.361256544502616,NA
74011,Tulsa County,OK,NA,84.71204188481676,NA
74019,Rogers County,OK,NA,NA,56.540084388185655
74063,Tulsa County,OK,NA,55.497382198952884,NA
74075,Payne County,OK,NA,58.324607329842934,NA
74133,Tulsa County,OK,NA,61.57068062827226,NA
74346,Delaware County,OK,NA,NA,75.9493670886076
74441,Cherokee County,OK,NA,84.29319371727748,NA
74464,Cherokee County,OK,NA,NA,55.48523206751055
74604,Kay County,OK,NA,91.30890052356021,NA
74868,Seminole County,OK,NA,NA,88.18565400843882
97008,Washington County,OR,NA,79.3717277486911,NA
97078,Washington County,OR,NA,66.07329842931937,NA
97086,Clackamas County,OR,NA,NA,90.29535864978902
97103,Clatsop County,OR,NA,NA,48.31223628691983
97115,Yamhill County,OR,NA,98.7434554973822,NA
97128,Yamhill County,OR,NA,48.795811518324605,NA
97146,Clatsop County,OR,NA,NA,73.41772151898735
97222,Clackamas County,OR,43.07692307692308,NA,NA
97223,Washington County,OR,NA,NA,76.79324894514767
97301,Marion County,OR,NA,12.041884816753926,NA
97439,Lane County,OR,66.15384615384615,NA,NA
97479,Douglas County,OR,NA,68.37696335078533,NA
97526,Josephine County,OR,78.97435897435898,NA,NA
97527,Josephine County,OR,NA,83.7696335078534,NA
97603,Klamath County,OR,NA,18.952879581151834,NA
97701,Deschutes County,OR,NA,NA,51.0548523206751
97739,Deschutes County,OR,NA,NA,71.72995780590718
97760,Jefferson County,OR,93.84615384615384,NA,NA
97868,Umatilla County,OR,97.94871794871794,NA,NA
15074,Beaver County,PA,NA,61.675392670157066,NA
15139,Allegheny County,PA,NA,95.49738219895289,NA
15140,Allegheny County,PA,NA,NA,100
15143,Allegheny County,PA,46.666666666666664,71.20418848167539,NA
15216,Allegheny County,PA,NA,54.03141361256545,NA
15218,Allegheny County,PA,NA,75.91623036649214,NA
15301,Washington County,PA,NA,NA,53.58649789029536
15401,Fayette County,PA,NA,7.539267015706806,NA
15461,Fayette County,PA,NA,NA,95.56962025316456
15644,Westmoreland County,PA,NA,57.90575916230366,NA
15701,Indiana County,PA,NA,20.837696335078533,NA
15902,Cambria County,PA,NA,42.303664921465966,NA
16001,Butler County,PA,NA,3.1413612565445024,2.109704641350211
16051,Butler County,PA,NA,99.58115183246073,NA
16059,Butler County,PA,NA,96.12565445026178,NA
16101,Lawrence County,PA,NA,5.7591623036649215,NA
16127,Mercer County,PA,NA,67.95811518324606,NA
16201,Armstrong County,PA,NA,31.623036649214658,NA
16301,Venango County,PA,NA,46.282722513089006,NA
16335,Crawford County,PA,NA,36.96335078534032,8.860759493670885
16428,Erie County,PA,NA,78.95287958115183,NA
16504,Erie County,PA,NA,57.696335078534034,NA
16509,Erie County,PA,NA,32.774869109947645,NA
16510,Erie County,PA,NA,NA,75.10548523206751
16648,Blair County,PA,NA,56.64921465968587,NA
16701,McKean County,PA,NA,NA,24.894514767932492
17036,Dauphin County,PA,20.51282051282051,NA,11.814345991561181
17042,Lebanon County,PA,NA,4.607329842931937,NA
17053,Perry County,PA,NA,NA,94.09282700421942
17078,Lebanon County,PA,NA,NA,10.548523206751055
17110,Dauphin County,PA,NA,15.392670157068064,NA
17112,Dauphin County,PA,NA,NA,54.219409282700425
17113,Dauphin County,PA,NA,43.455497382198956,NA
17233,Fulton County,PA,NA,NA,85.44303797468355
17257,Cumberland County,PA,NA,23.350785340314136,NA
17315,York County,PA,NA,28.37696335078534,NA
17401,York County,PA,NA,44.08376963350785,NA
17547,Lancaster County,PA,NA,81.57068062827226,NA
17578,Lancaster County,PA,NA,85.54973821989529,NA
17601,Lancaster County,PA,NA,NA,52.320675105485236
17801,Northumberland County,PA,NA,19.476439790575917,NA
17837,Union County,PA,NA,NA,44.09282700421941
17842,Snyder County,PA,NA,76.64921465968587,NA
17963,Schuylkill County,PA,NA,77.38219895287958,NA
17972,Schuylkill County,PA,50.256410256410255,NA,NA
18017,Northampton County,PA,NA,5.863874345549738,NA
18064,Northampton County,PA,NA,41.047120418848166,NA
18102,Lehigh County,PA,NA,7.74869109947644,6.118143459915612
18103,Lehigh County,PA,2.564102564102564,5.130890052356021,NA
18360,Monroe County,PA,NA,28.586387434554972,NA
18431,Wayne County,PA,NA,59.68586387434554,NA
18507,Lackawanna County,PA,77.94871794871796,NA,NA
18704,Luzerne County,PA,NA,16.335078534031414,NA
18810,Bradford County,PA,NA,80.73298429319372,NA
18951,Bucks County,PA,NA,66.59685863874346,NA
18974,Bucks County,PA,NA,NA,10.759493670886076
19006,Montgomery County,PA,NA,NA,36.91983122362869
19007,Bucks County,PA,NA,25.54973821989529,NA
19010,Delaware County,PA,37.43589743589744,NA,NA
19012,Montgomery County,PA,NA,NA,88.81856540084388
19013,Delaware County,PA,NA,18.1151832460733,14.345991561181433
19020,Bucks County,PA,NA,7.643979057591623,NA
19026,Delaware County,PA,NA,47.12041884816754,NA
19053,Bucks County,PA,NA,61.25654450261781,NA
19060,Delaware County,PA,NA,82.19895287958116,NA
19104,Philadelphia County,PA,NA,92.67015706806284,NA
19111,Philadelphia County,PA,NA,3.4554973821989527,NA
19121,Philadelphia County,PA,NA,8.586387434554974,NA
19134,Philadelphia County,PA,NA,2.7225130890052354,NA
19140,Philadelphia County,PA,NA,14.86910994764398,8.438818565400844
19141,Philadelphia County,PA,NA,31.204188481675395,17.51054852320675
19143,Philadelphia County,PA,NA,0.8376963350785341,1.4767932489451476
19154,Philadelphia County,PA,NA,44.816753926701566,NA
19320,Chester County,PA,NA,34.24083769633508,NA
19401,Montgomery County,PA,NA,8.272251308900524,NA
19403,Montgomery County,PA,NA,75.39267015706807,NA
19460,Chester County,PA,54.871794871794876,NA,NA
19473,Montgomery County,PA,NA,NA,74.0506329113924
19508,Berks County,PA,44.61538461538462,NA,NA
19606,Berks County,PA,NA,NA,4.852320675105485
19609,Berks County,PA,98.97435897435898,NA,NA
02891,Washington County,RI,81.02564102564102,NA,NA
02896,Providence County,RI,NA,81.36125654450261,NA
02914,Providence County,RI,NA,43.35078534031413,NA
02917,Providence County,RI,NA,75.18324607329842,NA
29036,Lexington County,SC,NA,86.59685863874346,NA
29303,Spartanburg County,SC,NA,42.40837696335078,NA
29323,Spartanburg County,SC,NA,52.35602094240838,NA
29330,Spartanburg County,SC,97.43589743589743,NA,NA
29349,Spartanburg County,SC,NA,25.654450261780106,NA
29379,Union County,SC,NA,NA,46.20253164556962
29405,Charleston County,SC,NA,NA,43.67088607594937
29407,Charleston County,SC,NA,NA,13.291139240506327
29410,Berkeley County,SC,NA,NA,73.20675105485233
29414,Charleston County,SC,NA,62.72251308900524,NA
29461,Berkeley County,SC,14.871794871794872,NA,NA
29466,Charleston County,SC,12.82051282051282,NA,NA
29501,Florence County,SC,NA,31.518324607329845,NA
29550,Darlington County,SC,NA,41.15183246073298,NA
29565,Dillon County,SC,NA,NA,91.13924050632912
29571,Marion County,SC,NA,NA,54.85232067510548
29611,Greenville County,SC,NA,12.25130890052356,NA
29627,Anderson County,SC,NA,NA,60.75949367088608
29651,Greenville County,SC,NA,20.628272251308903,NA
57469,Spink County,SD,NA,97.17277486910994,NA
57703,Pennington County,SD,NA,85.96858638743456,NA
57783,Lawrence County,SD,NA,NA,47.04641350210971
37043,Montgomery County,TN,34.35897435897436,NA,NA
37075,Sumner County,TN,NA,45.340314136125656,NA
37086,Rutherford County,TN,NA,NA,86.91983122362869
37129,Rutherford County,TN,NA,16.649214659685864,NA
37167,Rutherford County,TN,10.256410256410255,NA,NA
37211,Davidson County,TN,NA,NA,20.675105485232066
37322,Meigs County,TN,NA,NA,80.80168776371308
37324,Franklin County,TN,NA,69.10994764397905,NA
37336,Bradley County,TN,NA,93.19371727748691,NA
37617,Sullivan County,TN,NA,69.84293193717276,NA
37643,Carter County,TN,NA,11.832460732984293,NA
37708,Grainger County,TN,NA,NA,85.65400843881856
37722,Cocke County,TN,NA,85.23560209424083,NA
37743,Greene County,TN,NA,NA,64.55696202531645
37909,Knox County,TN,NA,80.6282722513089,NA
37917,Knox County,TN,NA,16.75392670157068,NA
37918,Knox County,TN,NA,13.403141361256546,22.78481012658228
37920,Knox County,TN,NA,11.099476439790577,NA
37922,Knox County,TN,NA,NA,54.008438818565395
37934,Knox County,TN,31.28205128205128,NA,NA
38004,Tipton County,TN,NA,86.80628272251309,NA
38024,Dyer County,TN,NA,23.769633507853403,NA
38068,Fayette County,TN,NA,91.51832460732984,NA
38117,Shelby County,TN,NA,68.69109947643979,NA
38201,Carroll County,TN,NA,74.86910994764398,NA
38242,Henry County,TN,NA,45.654450261780106,NA
38261,Obion County,TN,NA,38.7434554973822,NA
38401,Maury County,TN,NA,6.806282722513089,NA
38464,Lawrence County,TN,NA,32.146596858638745,NA
38556,Fentress County,TN,NA,49.73821989528796,NA
75019,Dallas County,TX,NA,52.14659685863874,NA
75021,Grayson County,TX,NA,84.92146596858639,NA
75028,Denton County,TX,NA,NA,42.19409282700422
75043,Dallas County,TX,NA,19.05759162303665,NA
75048,Dallas County,TX,NA,68.79581151832461,NA
75050,Dallas County,TX,NA,41.675392670157066,NA
75063,Dallas County,TX,NA,79.58115183246073,NA
75070,Collin County,TX,7.179487179487179,NA,NA
75077,Denton County,TX,NA,83.1413612565445,NA
75080,Dallas County,TX,NA,55.91623036649215,NA
75087,Rockwall County,TX,NA,40.94240837696335,NA
75094,Collin County,TX,63.589743589743584,NA,NA
75126,Kaufman County,TX,NA,98.01047120418848,NA
75147,Kaufman County,TX,96.41025641025641,NA,NA
75148,Henderson County,TX,NA,NA,89.45147679324894
75201,Dallas County,TX,NA,74.13612565445025,NA
75206,Dallas County,TX,NA,48.90052356020942,NA
75217,Dallas County,TX,NA,NA,8.227848101265822
75224,Dallas County,TX,NA,72.56544502617801,NA
75225,Dallas County,TX,NA,NA,56.9620253164557
75243,Dallas County,TX,NA,13.298429319371726,NA
75252,Collin County,TX,NA,NA,60.54852320675106
75402,Hunt County,TX,NA,72.4607329842932,NA
75418,Fannin County,TX,NA,NA,72.15189873417721
75460,Lamar County,TX,NA,55.70680628272251,NA
75602,Gregg County,TX,NA,56.43979057591623,NA
75603,Gregg County,TX,NA,NA,86.49789029535864
75672,Harrison County,TX,NA,82.82722513089004,NA
75771,Smith County,TX,NA,52.879581151832454,NA
75778,Henderson County,TX,95.38461538461539,NA,NA
76001,Tarrant County,TX,NA,NA,78.69198312236287
76016,Tarrant County,TX,NA,NA,25.105485232067508
76022,Tarrant County,TX,NA,78.32460732984293,NA
76039,Tarrant County,TX,NA,NA,63.29113924050633
76049,Hood County,TX,NA,NA,20.464135021097047
76073,Wise County,TX,96.92307692307692,NA,NA
76087,Parker County,TX,NA,NA,44.936708860759495
76137,Tarrant County,TX,NA,20.104712041884817,NA
76140,Tarrant County,TX,NA,37.90575916230367,NA
76180,Tarrant County,TX,NA,NA,71.30801687763713
76208,Denton County,TX,NA,NA,79.74683544303798
76210,Denton County,TX,32.30769230769231,NA,NA
76306,Wichita County,TX,NA,61.047120418848166,84.38818565400844
76442,Comanche County,TX,NA,85.75916230366492,NA
76502,Bell County,TX,NA,NA,0.8438818565400843
76513,Bell County,TX,NA,NA,1.0548523206751055
76522,Coryell County,TX,46.15384615384615,NA,NA
76642,Limestone County,TX,NA,67.74869109947645,NA
76712,McLennan County,TX,NA,NA,87.13080168776372
76903,Tom Green County,TX,30.256410256410255,NA,NA
76905,Tom Green County,TX,NA,NA,93.88185654008439
77002,Harris County,TX,NA,97.06806282722513,NA
77005,Harris County,TX,NA,NA,57.17299578059072
77009,Harris County,TX,NA,44.60732984293194,NA
77026,Harris County,TX,NA,52.04188481675393,NA
77030,Harris County,TX,NA,95.6020942408377,NA
77044,Harris County,TX,NA,66.38743455497382,NA
77057,Harris County,TX,NA,86.17801047120419,NA
77074,Harris County,TX,NA,NA,61.18143459915611
77086,Harris County,TX,NA,64.60732984293193,NA
77090,Harris County,TX,NA,NA,58.016877637130804
77302,Montgomery County,TX,NA,67.01570680628272,NA
77316,Montgomery County,TX,NA,71.93717277486911,NA
77339,Harris County,TX,NA,54.973821989528794,NA
77355,Montgomery County,TX,NA,NA,49.57805907172996
77356,Montgomery County,TX,NA,64.3979057591623,NA
77365,Montgomery County,TX,21.025641025641026,NA,NA
77373,Harris County,TX,NA,NA,29.324894514767934
77379,Harris County,TX,NA,25.445026178010473,NA
77380,Montgomery County,TX,NA,87.22513089005236,NA
77381,Montgomery County,TX,NA,NA,40.50632911392405
77388,Harris County,TX,43.58974358974359,NA,NA
77459,Fort Bend County,TX,NA,22.827225130890053,12.447257383966246
77469,Fort Bend County,TX,NA,29.52879581151833,NA
77479,Fort Bend County,TX,75.8974358974359,NA,NA
77494,Fort Bend County,TX,4.615384615384616,17.06806282722513,NA
77505,Harris County,TX,NA,62.5130890052356,NA
77506,Harris County,TX,NA,57.90575916230366,NA
77518,Galveston County,TX,NA,NA,91.56118143459916
77521,Harris County,TX,NA,29.31937172774869,NA
77523,Chambers County,TX,NA,55.602094240837694,NA
77554,Galveston County,TX,NA,88.90052356020942,NA
77573,Galveston County,TX,NA,34.86910994764398,NA
77584,Brazoria County,TX,NA,9.947643979057592,NA
77656,Hardin County,TX,NA,54.659685863874344,63.71308016877637
77705,Jefferson County,TX,NA,NA,65.82278481012658
77865,Leon County,TX,98.46153846153847,NA,NA
77901,Victoria County,TX,NA,NA,83.96624472573839
78023,Bexar County,TX,NA,95.28795811518324,NA
78043,Webb County,TX,NA,NA,32.70042194092827
78045,Webb County,TX,NA,23.24607329842932,NA
78114,Wilson County,TX,66.66666666666666,NA,NA
78155,Guadalupe County,TX,NA,55.07853403141362,NA
78202,Bexar County,TX,NA,72.87958115183247,NA
78227,Bexar County,TX,NA,35.70680628272251,NA
78247,Bexar County,TX,NA,51.09947643979058,NA
78254,Bexar County,TX,NA,44.29319371727748,NA
78258,Bexar County,TX,NA,63.03664921465969,NA
78266,Comal County,TX,NA,99.89528795811519,NA
78363,Kleberg County,TX,45.64102564102564,NA,NA
78405,Nueces County,TX,NA,76.2303664921466,NA
78538,Hidalgo County,TX,NA,88.48167539267016,NA
78541,Hidalgo County,TX,NA,48.37696335078534,NA
78574,Hidalgo County,TX,NA,35.07853403141361,NA
78577,Hidalgo County,TX,NA,28.90052356020942,NA
78613,Williamson County,TX,NA,32.67015706806283,NA
78617,Travis County,TX,NA,70.99476439790577,NA
78628,Williamson County,TX,NA,69.94764397905759,NA
78629,Gonzales County,TX,NA,NA,72.78481012658227
78654,Burnet County,TX,51.28205128205128,NA,NA
78664,Williamson County,TX,NA,43.87434554973822,NA
78702,Travis County,TX,59.48717948717949,NA,NA
78736,Travis County,TX,NA,NA,96.41350210970464
78945,Fayette County,TX,NA,96.43979057591623,NA
79109,Randall County,TX,NA,37.696335078534034,NA
79424,Lubbock County,TX,NA,26.596858638743452,NA
79745,Winkler County,TX,NA,86.49214659685865,NA
79765,Ector County,TX,NA,NA,93.0379746835443
79912,El Paso County,TX,NA,NA,39.66244725738397
79915,El Paso County,TX,NA,51.204188481675395,NA
79927,El Paso County,TX,38.97435897435898,NA,NA
79936,El Paso County,TX,NA,11.937172774869111,NA
84003,Utah County,UT,27.692307692307693,NA,NA
84010,Davis County,UT,NA,40.41884816753927,NA
84025,Davis County,UT,NA,88.58638743455496,NA
84041,Davis County,UT,NA,35.81151832460733,NA
84070,Salt Lake County,UT,NA,48.27225130890052,NA
84075,Davis County,UT,NA,96.33507853403141,NA
84092,Salt Lake County,UT,NA,63.97905759162303,NA
84093,Salt Lake County,UT,NA,NA,51.68776371308017
84102,Salt Lake County,UT,NA,77.17277486910994,NA
84321,Cache County,UT,NA,65.34031413612566,NA
84403,Weber County,UT,NA,NA,65.40084388185655
84405,Weber County,UT,NA,NA,64.34599156118144
84526,Carbon County,UT,NA,95.81151832460732,NA
84601,Utah County,UT,NA,68.27225130890052,NA
84663,Utah County,UT,NA,70.57591623036649,NA
84780,Washington County,UT,NA,NA,79.32489451476793
05060,Orange County,VT,NA,NA,77.42616033755274
05156,Windsor County,VT,NA,62.19895287958115,NA
05201,Bennington County,VT,NA,45.75916230366492,61.60337552742617
05404,Chittenden County,VT,NA,96.02094240837697,NA
05452,Chittenden County,VT,NA,80,NA
05468,Chittenden County,VT,NA,85.6544502617801,NA
05641,Washington County,VT,NA,32.460732984293195,NA
20106,Culpeper County,VA,NA,96.43979057591623,NA
20132,Loudoun County,VA,NA,89.10994764397905,NA
20151,Fairfax County,VA,NA,85.96858638743456,NA
20181,Prince William County,VA,NA,95.39267015706805,NA
20186,Fauquier County,VA,NA,78.7434554973822,NA
20190,Fairfax County,VA,NA,81.15183246073299,NA
22124,Fairfax County,VA,73.84615384615385,NA,NA
22153,Fairfax County,VA,NA,NA,57.80590717299579
22191,Prince William County,VA,NA,NA,35.0210970464135
22192,Prince William County,VA,NA,18.7434554973822,NA
22193,Prince William County,VA,NA,12.774869109947645,NA
22207,Arlington County,VA,33.84615384615385,NA,NA
22314,Alexandria city,VA,NA,NA,51.89873417721519
22546,Caroline County,VA,NA,69.00523560209425,NA
22601,Winchester city,VA,67.17948717948717,NA,NA
22802,Harrisonburg city,VA,NA,NA,52.109704641350206
23188,James City County,VA,54.35897435897436,NA,NA
23221,Richmond city,VA,NA,NA,93.24894514767934
23231,Henrico County,VA,24.102564102564102,NA,NA
23234,Chesterfield County,VA,NA,18.638743455497384,NA
23238,Henrico County,VA,NA,94.13612565445027,NA
23454,Virginia Beach city,VA,NA,29.73821989528796,NA
23464,Virginia Beach city,VA,NA,NA,3.79746835443038
23513,Norfolk city,VA,NA,NA,36.28691983122363
23666,Hampton city,VA,NA,10.68062827225131,NA
23669,Hampton city,VA,NA,22.30366492146597,NA
23701,Portsmouth city,VA,NA,73.61256544502618,62.65822784810127
23704,Portsmouth city,VA,NA,58.95287958115183,NA
23832,Chesterfield County,VA,NA,71.83246073298429,NA
23860,Hopewell city,VA,NA,31.099476439790575,NA
24333,Galax city,VA,23.076923076923077,NA,NA
24401,Staunton city,VA,NA,10.785340314136125,NA
24441,Rockingham County,VA,NA,73.08900523560209,NA
24477,Augusta County,VA,NA,NA,50.42194092827004
98023,King County,WA,NA,NA,15.611814345991561
98026,Snohomish County,WA,69.23076923076923,NA,NA
98074,King County,WA,NA,84.18848167539267,NA
98103,King County,WA,NA,44.92146596858639,NA
98107,King County,WA,92.3076923076923,NA,NA
98115,King County,WA,NA,35.602094240837694,NA
98204,Snohomish County,WA,NA,NA,50.42194092827004
98208,Snohomish County,WA,NA,NA,29.11392405063291
98223,Snohomish County,WA,NA,24.60732984293194,NA
98229,Whatcom County,WA,NA,76.54450261780104,NA
98248,Whatcom County,WA,NA,75.70680628272251,NA
98272,Snohomish County,WA,72.82051282051282,NA,NA
98277,Island County,WA,NA,45.54973821989529,NA
98296,Snohomish County,WA,NA,NA,69.62025316455697
98327,Pierce County,WA,NA,NA,99.15611814345992
98362,Clallam County,WA,NA,NA,7.383966244725738
98366,Kitsap County,WA,NA,55.811518324607334,NA
98367,Kitsap County,WA,NA,47.32984293193717,NA
98368,Jefferson County,WA,NA,NA,26.371308016877638
98550,Grays Harbor County,WA,NA,80.20942408376963,NA
98612,Wahkiakum County,WA,NA,NA,94.72573839662446
98837,Grant County,WA,NA,30.78534031413613,NA
98908,Yakima County,WA,NA,37.27748691099477,NA
98948,Yakima County,WA,73.33333333333333,NA,NA
98951,Yakima County,WA,92.82051282051282,NA,NA
99141,Stevens County,WA,NA,NA,91.77215189873418
99202,Spokane County,WA,NA,58.53403141361257,NA
99352,Benton County,WA,22.564102564102566,NA,NA
99362,Walla Walla County,WA,NA,26.806282722513092,NA
20003,District of Columbia,DC,NA,75.39267015706807,NA
20011,District of Columbia,DC,NA,NA,14.135021097046414
20019,District of Columbia,DC,NA,3.769633507853403,NA
25213,Putnam County,WV,NA,92.25130890052357,NA
25271,Jackson County,WV,NA,65.13089005235602,NA
25313,Kanawha County,WV,NA,47.01570680628272,NA
25404,Berkeley County,WV,NA,NA,44.303797468354425
25405,Berkeley County,WV,NA,NA,73.83966244725738
25414,Jefferson County,WV,NA,59.26701570680628,NA
25438,Jefferson County,WV,NA,94.86910994764398,NA
25560,Putnam County,WV,NA,NA,71.94092827004219
25705,Cabell County,WV,NA,NA,21.518987341772153
26037,Brooke County,WV,NA,NA,67.9324894514768
26354,Taylor County,WV,NA,47.853403141361255,NA
53029,Waukesha County,WI,62.56410256410256,NA,NA
53090,Washington County,WI,NA,60.52356020942409,NA
53104,Kenosha County,WI,NA,73.29842931937172,NA
53108,Racine County,WI,NA,NA,96.83544303797468
53142,Kenosha County,WI,NA,9.319371727748692,NA
53147,Walworth County,WI,NA,NA,41.139240506329116
53151,Waukesha County,WI,NA,98.63874345549738,NA
53158,Kenosha County,WI,NA,NA,66.45569620253164
53168,Kenosha County,WI,NA,56.02094240837696,NA
53179,Kenosha County,WI,NA,64.50261780104712,NA
53188,Waukesha County,WI,NA,NA,18.776371308016877
53189,Waukesha County,WI,NA,53.82198952879581,NA
53209,Milwaukee County,WI,2.051282051282051,NA,NA
53210,Milwaukee County,WI,NA,7.225130890052355,NA
53215,Milwaukee County,WI,NA,91.83246073298429,NA
53216,Milwaukee County,WI,NA,5.968586387434556,NA
53225,Milwaukee County,WI,58.46153846153847,NA,NA
53406,Racine County,WI,NA,71.30890052356021,NA
53551,Jefferson County,WI,NA,76.33507853403141,NA
53562,Dane County,WI,92.82051282051282,NA,NA
53589,Dane County,WI,NA,72.04188481675394,NA
53821,Crawford County,WI,NA,NA,80.59071729957806
53913,Sauk County,WI,NA,37.382198952879584,NA
54017,St. Croix County,WI,NA,49.42408376963351,NA
54411,Marathon County,WI,87.6923076923077,NA,NA
54481,Portage County,WI,NA,NA,18.143459915611814
54494,Wood County,WI,NA,30.57591623036649,NA
54521,Vilas County,WI,NA,NA,72.9957805907173
54601,La Crosse County,WI,36.41025641025641,NA,1.2658227848101267
54751,Dunn County,WI,20,NA,NA
54806,Ashland County,WI,NA,NA,78.05907172995781
54874,Douglas County,WI,NA,96.8586387434555,NA
54880,Douglas County,WI,NA,14.24083769633508,NA
54901,Winnebago County,WI,45.12820512820513,NA,NA
54956,Winnebago County,WI,5.641025641025641,57.06806282722513,NA
82414,Park County,WY,NA,70.57591623036649,NA
82601,Natrona County,WY,NA,73.08900523560209,NA
82633,Converse County,WY,NA,NA,59.91561181434599
