ZipCode,county,state,Adult,Retirement
35022,Jefferson County,AL,44.72573839662447,NA
35034,Bibb County,AL,NA,91.17647058823529
35214,Jefferson County,AL,37.76371308016878,NA
35226,Jefferson County,AL,54.219409282700425,NA
35228,Jefferson County,AL,65.61181434599156,NA
35652,Lauderdale County,AL,94.72573839662446,NA
35954,Etowah County,AL,64.34599156118144,NA
35959,Cherokee County,AL,96.62447257383965,NA
35971,DeKalb County,AL,NA,99.01960784313727
36022,Elmore County,AL,NA,82.84313725490196
36268,Talladega County,AL,88.39662447257383,NA
36277,Calhoun County,AL,91.13924050632912,NA
36507,Baldwin County,AL,45.56962025316456,NA
36571,Mobile County,AL,75.73839662447257,NA
99835,Sitka City and Borough,AK,64.76793248945147,NA
85008,Maricopa County,AZ,18.143459915611814,NA
85017,Maricopa County,AZ,38.39662447257383,NA
85024,Maricopa County,AZ,78.90295358649789,NA
85041,Maricopa County,AZ,11.814345991561181,NA
85042,Maricopa County,AZ,32.48945147679325,NA
85044,Maricopa County,AZ,26.371308016877638,NA
85122,Pinal County,AZ,11.60337552742616,NA
85138,Pinal County,AZ,NA,68.13725490196079
85282,Maricopa County,AZ,46.62447257383967,NA
85295,Maricopa County,AZ,NA,75.49019607843137
85345,Maricopa County,AZ,16.455696202531644,14.215686274509803
85367,Yuma County,AZ,85.65400843881856,NA
85383,Maricopa County,AZ,33.12236286919831,NA
85501,Gila County,AZ,79.74683544303798,NA
85546,Graham County,AZ,55.69620253164557,NA
85635,Cochise County,AZ,63.29113924050633,NA
85730,Pima County,AZ,NA,31.862745098039213
85901,Navajo County,AZ,NA,32.35294117647059
86314,Yavapai County,AZ,22.78481012658228,NA
86403,Mohave County,AZ,52.53164556962025,NA
72046,Lonoke County,AR,NA,92.15686274509804
72081,White County,AR,89.87341772151899,NA
72204,Pulaski County,AR,NA,67.15686274509804
72616,Carroll County,AR,NA,83.82352941176471
72638,Carroll County,AR,83.75527426160338,NA
72653,Baxter County,AR,NA,23.52941176470588
72762,Washington County,AR,53.58649789029536,NA
90005,Los Angeles County,CA,91.77215189873418,NA
90014,Los Angeles County,CA,NA,84.80392156862744
90043,Los Angeles County,CA,NA,25
90061,Los Angeles County,CA,76.79324894514767,NA
90605,Los Angeles County,CA,NA,73.52941176470588
90745,Los Angeles County,CA,45.358649789029535,NA
91301,Los Angeles County,CA,99.15611814345992,NA
91316,Los Angeles County,CA,NA,57.35294117647059
91321,Los Angeles County,CA,NA,65.68627450980392
91342,Los Angeles County,CA,27.004219409282697,NA
91344,Los Angeles County,CA,50.84388185654009,NA
91746,Los Angeles County,CA,80.80168776371308,NA
91764,San Bernardino County,CA,41.561181434599156,NA
92021,San Diego County,CA,21.308016877637133,NA
92026,San Diego County,CA,60.12658227848101,NA
92262,Riverside County,CA,NA,47.05882352941176
92336,San Bernardino County,CA,13.080168776371309,NA
92509,Riverside County,CA,28.902953586497894,NA
92539,Riverside County,CA,NA,96.07843137254902
92544,Riverside County,CA,91.56118143459916,NA
92545,Riverside County,CA,78.48101265822784,NA
92630,Orange County,CA,NA,21.568627450980394
92805,Orange County,CA,32.06751054852321,NA
92821,Orange County,CA,68.14345991561181,NA
92887,Orange County,CA,NA,75.98039215686273
93012,Ventura County,CA,74.26160337552743,NA
93015,Ventura County,CA,75.52742616033755,NA
93210,Fresno County,CA,94.30379746835443,NA
93250,Kern County,CA,NA,94.6078431372549
93428,San Luis Obispo County,CA,98.73417721518987,NA
93433,San Luis Obispo County,CA,NA,90.19607843137256
93434,Santa Barbara County,CA,96.20253164556962,NA
93436,Santa Barbara County,CA,22.362869198312236,NA
93454,Santa Barbara County,CA,89.66244725738397,NA
93455,Santa Barbara County,CA,37.34177215189873,95.09803921568627
93458,Santa Barbara County,CA,20.042194092827003,NA
93534,Los Angeles County,CA,41.35021097046413,NA
93536,Los Angeles County,CA,48.734177215189874,NA
93725,Fresno County,CA,71.09704641350211,NA
94044,San Mateo County,CA,57.383966244725734,NA
94544,Alameda County,CA,24.68354430379747,NA
94565,Contra Costa County,CA,28.270042194092827,NA
94806,Contra Costa County,CA,39.87341772151899,NA
94901,Marin County,CA,59.70464135021098,NA
95603,Placer County,CA,73.62869198312237,NA
95667,El Dorado County,CA,NA,4.411764705882353
95673,Sacramento County,CA,88.60759493670885,NA
95682,El Dorado County,CA,63.50210970464135,NA
95823,Sacramento County,CA,NA,22.54901960784314
95901,Yuba County,CA,NA,54.41176470588235
95946,Nevada County,CA,NA,69.11764705882352
96003,Shasta County,CA,NA,28.431372549019606
80126,Douglas County,CO,56.118143459915615,NA
80205,Denver County,CO,16.666666666666664,NA
80525,Larimer County,CO,21.518987341772153,NA
80701,Morgan County,CO,NA,50.98039215686274
81003,Pueblo County,CO,40.50632911392405,NA
81004,Pueblo County,CO,31.0126582278481,NA
81052,Prowers County,CO,87.76371308016878,NA
81082,Las Animas County,CO,70.46413502109705,NA
06042,Hartford County,CT,44.303797468354425,NA
06053,Hartford County,CT,14.135021097046414,NA
06067,Hartford County,CT,74.89451476793249,NA
06089,Hartford County,CT,NA,99.50980392156863
06109,Hartford County,CT,68.77637130801688,NA
06250,Tolland County,CT,97.0464135021097,NA
06410,New Haven County,CT,NA,48.03921568627451
06451,New Haven County,CT,30.801687763713083,NA
06457,Middlesex County,CT,NA,11.27450980392157
06605,Fairfield County,CT,39.45147679324894,NA
06608,Fairfield County,CT,69.19831223628692,NA
06790,Litchfield County,CT,8.649789029535865,NA
19720,New Castle County,DE,23.417721518987342,NA
19805,New Castle County,DE,4.008438818565401,NA
19943,Kent County,DE,72.57383966244726,NA
19958,Sussex County,DE,NA,4.901960784313726
19973,Sussex County,DE,22.151898734177212,NA
32084,St. Johns County,FL,35.0210970464135,NA
32091,Bradford County,FL,NA,46.568627450980394
32129,Volusia County,FL,NA,69.6078431372549
32206,Duval County,FL,27.848101265822784,NA
32435,Walton County,FL,NA,73.0392156862745
32446,Jackson County,FL,69.40928270042194,63.725490196078425
32465,Gulf County,FL,93.0379746835443,NA
32526,Escambia County,FL,19.40928270042194,NA
32807,Orange County,FL,52.320675105485236,NA
32934,Brevard County,FL,77.42616033755274,NA
33029,Broward County,FL,65.18987341772153,NA
33033,Miami-Dade County,FL,NA,82.35294117647058
33068,Broward County,FL,NA,56.372549019607845
33325,Broward County,FL,78.69198312236287,NA
33404,Palm Beach County,FL,43.037974683544306,NA
33408,Palm Beach County,FL,79.957805907173,NA
33412,Palm Beach County,FL,95.14767932489451,NA
33415,Palm Beach County,FL,48.31223628691983,NA
33444,Palm Beach County,FL,87.34177215189874,NA
33470,Palm Beach County,FL,NA,81.86274509803921
33525,Pasco County,FL,76.16033755274262,NA
33713,Pinellas County,FL,59.28270042194092,NA
33881,Polk County,FL,43.24894514767932,NA
34202,Manatee County,FL,73.20675105485233,NA
34210,Manatee County,FL,90.29535864978902,NA
34231,Sarasota County,FL,58.64978902953587,NA
34243,Manatee County,FL,64.55696202531645,NA
34293,Sarasota County,FL,NA,9.803921568627452
34475,Marion County,FL,NA,74.50980392156863
34691,Pasco County,FL,50.63291139240506,NA
34741,Osceola County,FL,NA,38.23529411764706
34788,Lake County,FL,71.94092827004219,NA
30039,Gwinnett County,GA,45.14767932489451,NA
30044,Gwinnett County,GA,26.582278481012654,NA
30093,Gwinnett County,GA,NA,80.3921568627451
30103,Bartow County,GA,NA,95.58823529411765
30108,Carroll County,GA,89.0295358649789,NA
30115,Cherokee County,GA,NA,43.13725490196079
30125,Polk County,GA,42.82700421940928,NA
30126,Cobb County,GA,NA,64.2156862745098
30179,Carroll County,GA,62.869198312236286,NA
30188,Cherokee County,GA,28.48101265822785,NA
30265,Coweta County,GA,55.907172995780584,NA
30273,Clayton County,GA,66.24472573839662,NA
30286,Upson County,GA,NA,55.88235294117647
30296,Clayton County,GA,NA,71.56862745098039
30311,Fulton County,GA,21.518987341772153,NA
30439,Candler County,GA,87.34177215189874,NA
30461,Bulloch County,GA,NA,83.33333333333334
30512,Union County,GA,79.53586497890295,NA
30528,White County,GA,NA,53.431372549019606
30534,Dawson County,GA,47.46835443037975,NA
30680,Barrow County,GA,NA,26.47058823529412
30721,Whitfield County,GA,62.0253164556962,NA
30906,Richmond County,GA,10.759493670886076,NA
31029,Monroe County,GA,NA,78.43137254901961
31061,Baldwin County,GA,NA,32.84313725490196
31206,Bibb County,GA,36.075949367088604,NA
31419,Chatham County,GA,40.08438818565401,NA
31632,Lowndes County,GA,NA,93.62745098039215
31701,Dougherty County,GA,51.89873417721519,NA
31792,Thomas County,GA,NA,37.745098039215684
39819,Decatur County,GA,83.33333333333334,NA
96706,Honolulu County,HI,NA,15.196078431372548
96740,Hawaii County,HI,66.87763713080169,NA
83646,Ada County,ID,NA,10.294117647058822
83705,Ada County,ID,NA,18.137254901960784
60014,McHenry County,IL,30.37974683544304,NA
60025,Cook County,IL,NA,6.862745098039216
60047,Lake County,IL,42.616033755274266,NA
60115,DeKalb County,IL,NA,35.294117647058826
60133,Cook County,IL,49.789029535864984,NA
60136,Kane County,IL,95.78059071729957,NA
60160,Cook County,IL,56.75105485232067,NA
60169,Cook County,IL,53.58649789029536,NA
60177,Kane County,IL,63.92405063291139,NA
60404,Will County,IL,NA,47.549019607843135
60440,Will County,IL,26.79324894514768,NA
60446,Will County,IL,51.68776371308017,42.64705882352941
60448,Will County,IL,NA,51.470588235294116
60465,Cook County,IL,NA,56.86274509803921
60510,Kane County,IL,40.92827004219409,NA
60526,Cook County,IL,NA,75
60544,Will County,IL,43.88185654008439,NA
60585,Will County,IL,60.75949367088608,NA
60631,Cook County,IL,36.708860759493675,NA
60633,Cook County,IL,NA,67.64705882352942
60638,Cook County,IL,12.658227848101266,NA
60901,Kankakee County,IL,NA,15.686274509803921
60915,Kankakee County,IL,89.45147679324894,NA
61008,Boone County,IL,39.24050632911392,NA
61071,Whiteside County,IL,31.434599156118143,NA
61364,LaSalle County,IL,61.18143459915611,NA
61944,Edgar County,IL,82.27848101265823,NA
46016,Madison County,IN,20.464135021097047,NA
46032,Hamilton County,IN,NA,59.80392156862745
46237,Marion County,IN,NA,13.23529411764706
46373,Lake County,IN,68.56540084388185,NA
46392,Jasper County,IN,73.83966244725738,NA
46408,Lake County,IN,53.16455696202531,NA
47167,Washington County,IN,NA,52.450980392156865
47714,Vanderburgh County,IN,NA,22.058823529411764
47715,Vanderburgh County,IN,35.86497890295359,NA
50138,Marion County,IA,57.17299578059072,NA
50401,Cerro Gordo County,IA,15.611814345991561,NA
51360,Dickinson County,IA,NA,63.23529411764706
52136,Howard County,IA,86.28691983122363,NA
52577,Mahaska County,IA,42.19409282700422,NA
52641,Henry County,IA,78.27004219409282,NA
52722,Scott County,IA,27.42616033755274,NA
66067,Franklin County,KS,62.869198312236286,NA
66109,Wyandotte County,KS,59.07172995780591,NA
67010,Butler County,KS,NA,87.74509803921569
40033,Marion County,KY,NA,68.62745098039215
40211,Jefferson County,KY,NA,42.15686274509804
40214,Jefferson County,KY,9.282700421940929,18.627450980392158
40219,Jefferson County,KY,16.877637130801688,NA
40220,Jefferson County,KY,43.67088607594937,NA
40229,Jefferson County,KY,16.033755274261605,NA
40324,Scott County,KY,17.932489451476794,NA
40729,Laurel County,KY,85.0210970464135,NA
41017,Kenton County,KY,NA,24.509803921568626
41056,Mason County,KY,48.734177215189874,NA
41219,Johnson County,KY,97.8902953586498,NA
41230,Lawrence County,KY,NA,49.50980392156863
42134,Simpson County,KY,56.9620253164557,NA
70062,Jefferson Parish,LA,NA,34.80392156862745
70072,Jefferson Parish,LA,2.109704641350211,NA
70501,Lafayette Parish,LA,NA,29.411764705882355
70510,Vermilion Parish,LA,41.77215189873418,NA
70548,Vermilion Parish,LA,NA,76.9607843137255
70586,Evangeline Parish,LA,21.940928270042196,NA
71108,Caddo Parish,LA,13.291139240506327,NA
04038,Cumberland County,ME,83.96624472573839,NA
04073,York County,ME,29.746835443037973,NA
04102,Cumberland County,ME,NA,41.66666666666667
04239,Franklin County,ME,76.37130801687763,NA
04736,Aroostook County,ME,NA,49.01960784313725
04937,Somerset County,ME,62.447257383966246,NA
20708,Prince George's County,MD,83.54430379746836,NA
20853,Montgomery County,MD,NA,72.54901960784314
20910,Montgomery County,MD,NA,79.90196078431373
21042,Howard County,MD,75.31645569620254,NA
01085,Hampden County,MA,2.320675105485232,NA
01095,Hampden County,MA,NA,88.72549019607843
01105,Hampden County,MA,4.219409282700422,NA
01107,Hampden County,MA,8.860759493670885,NA
01450,Middlesex County,MA,98.10126582278481,NA
01523,Worcester County,MA,NA,54.90196078431373
01550,Worcester County,MA,1.6877637130801686,NA
01605,Worcester County,MA,13.502109704641349,NA
01904,Essex County,MA,93.45991561181435,NA
01970,Essex County,MA,1.2658227848101267,NA
02124,Suffolk County,MA,0,NA
02125,Suffolk County,MA,0.6329113924050633,NA
02128,Suffolk County,MA,0.42194092827004215,NA
02130,Suffolk County,MA,47.04641350210971,NA
02139,Middlesex County,MA,0.21097046413502107,NA
02184,Norfolk County,MA,8.227848101265822,NA
02190,Norfolk County,MA,NA,39.705882352941174
02452,Middlesex County,MA,NA,45.09803921568628
02476,Middlesex County,MA,NA,31.372549019607842
02539,Dukes County,MA,81.85654008438819,NA
02760,Bristol County,MA,14.345991561181433,NA
02762,Norfolk County,MA,NA,77.94117647058823
48060,St. Clair County,MI,NA,7.352941176470589
48108,Washtenaw County,MI,NA,36.76470588235294
48162,Monroe County,MI,NA,26.96078431372549
48164,Wayne County,MI,77.63713080168776,NA
48168,Wayne County,MI,NA,44.11764705882353
48174,Wayne County,MI,10.126582278481013,NA
48197,Washtenaw County,MI,2.9535864978902953,NA
48219,Wayne County,MI,6.751054852320674,NA
48224,Wayne County,MI,3.1645569620253164,24.019607843137255
48234,Wayne County,MI,10.970464135021098,NA
48235,Wayne County,MI,3.375527426160337,NA
48237,Oakland County,MI,27.21518987341772,NA
48342,Oakland County,MI,NA,41.17647058823529
48601,Saginaw County,MI,2.7426160337552745,NA
48612,Gladwin County,MI,66.45569620253164,NA
48653,Roscommon County,MI,81.43459915611815,NA
48657,Midland County,MI,84.38818565400844,NA
48723,Tuscola County,MI,33.33333333333333,NA
48837,Eaton County,MI,NA,38.72549019607843
48867,Shiawassee County,MI,9.915611814345992,NA
48911,Ingham County,MI,9.071729957805907,NA
49006,Kalamazoo County,MI,55.48523206751055,NA
49203,Jackson County,MI,10.548523206751055,NA
49507,Kent County,MI,7.383966244725738,NA
49601,Wexford County,MI,NA,53.92156862745098
49635,Benzie County,MI,NA,89.2156862745098
49841,Marquette County,MI,64.9789029535865,NA
49953,Ontonagon County,MI,94.09282700421942,NA
55077,Dakota County,MN,NA,92.64705882352942
55124,Dakota County,MN,44.51476793248945,NA
55309,Sherburne County,MN,81.0126582278481,NA
55719,St. Louis County,MN,86.49789029535864,NA
55912,Mower County,MN,9.49367088607595,NA
56345,Morrison County,MN,35.44303797468354,NA
56630,Beltrami County,MN,98.52320675105484,NA
38654,DeSoto County,MS,29.11392405063291,NA
38834,Alcorn County,MS,25.738396624472575,NA
38858,Monroe County,MS,NA,78.92156862745098
39074,Scott County,MS,43.459915611814345,NA
39350,Neshoba County,MS,32.278481012658226,NA
39452,George County,MS,NA,25.49019607843137
39553,Jackson County,MS,50.42194092827004,NA
63020,Jefferson County,MO,67.72151898734177,NA
63070,Jefferson County,MO,94.51476793248945,NA
63301,St. Charles County,MO,18.565400843881857,NA
63304,St. Charles County,MO,NA,17.15686274509804
63901,Butler County,MO,18.776371308016877,NA
64131,Jackson County,MO,50,NA
64138,Jackson County,MO,14.767932489451477,NA
64683,Grundy County,MO,NA,61.76470588235294
65301,Pettis County,MO,5.69620253164557,NA
65613,Polk County,MO,61.81434599156118,NA
89706,Carson City,NV,NA,70.58823529411765
03235,Merrimack County,NH,95.56962025316456,NA
03249,Belknap County,NH,92.61603375527426,NA
03743,Sullivan County,NH,NA,44.6078431372549
07055,Passaic County,NJ,1.89873417721519,NA
07083,Union County,NJ,52.742616033755276,NA
07102,Essex County,NJ,NA,98.52941176470588
07112,Essex County,NJ,NA,86.27450980392157
07202,Union County,NJ,92.82700421940928,NA
07436,Bergen County,NJ,93.88185654008439,NA
07461,Sussex County,NJ,45.9915611814346,NA
07463,Bergen County,NJ,97.46835443037975,NA
07501,Passaic County,NJ,86.07594936708861,NA
07508,Passaic County,NJ,34.38818565400844,NA
07650,Bergen County,NJ,95.35864978902954,NA
07734,Monmouth County,NJ,NA,71.07843137254902
07746,Monmouth County,NJ,NA,72.05882352941177
07747,Monmouth County,NJ,38.81856540084388,NA
08016,Burlington County,NJ,24.261603375527425,NA
08034,Camden County,NJ,98.94514767932489,NA
08049,Camden County,NJ,90.50632911392405,NA
08054,Burlington County,NJ,29.324894514767934,NA
08070,Salem County,NJ,54.219409282700425,NA
08079,Salem County,NJ,48.52320675105485,NA
08102,Camden County,NJ,70.042194092827,NA
08104,Camden County,NJ,1.0548523206751055,NA
08215,Atlantic County,NJ,74.47257383966245,NA
08260,Cape May County,NJ,83.12236286919831,NA
08302,Cumberland County,NJ,91.9831223628692,NA
08312,Gloucester County,NJ,62.447257383966246,NA
08344,Gloucester County,NJ,99.36708860759494,93.13725490196079
08536,Middlesex County,NJ,97.67932489451476,NA
08628,Mercer County,NJ,72.36286919831224,NA
08753,Ocean County,NJ,36.91983122362869,NA
08835,Somerset County,NJ,54.641350210970465,NA
08854,Middlesex County,NJ,37.552742616033754,NA
08884,Middlesex County,NJ,87.9746835443038,NA
87104,Bernalillo County,NM,86.91983122362869,NA
88210,Eddy County,NM,47.257383966244724,NA
88220,Eddy County,NM,NA,25.98039215686275
10002,New York County,NY,5.485232067510549,NA
10011,New York County,NY,NA,21.07843137254902
10025,New York County,NY,8.438818565400844,NA
10026,New York County,NY,30.590717299578056,NA
10031,New York County,NY,11.39240506329114,NA
10032,New York County,NY,NA,8.823529411764707
10453,Bronx County,NY,0.8438818565400843,NA
10457,Bronx County,NY,NA,0
10469,Bronx County,NY,4.430379746835443,NA
11211,Kings County,NY,19.198312236286917,NA
11213,Kings County,NY,6.962025316455696,NA
11225,Kings County,NY,NA,17.647058823529413
11226,Kings County,NY,NA,2.941176470588235
11233,Kings County,NY,2.5316455696202533,NA
11365,Queens County,NY,55.27426160337553,NA
11372,Queens County,NY,35.654008438818565,NA
11377,Queens County,NY,23.839662447257385,NA
11787,Suffolk County,NY,NA,40.19607843137255
11937,Suffolk County,NY,NA,90.68627450980392
11967,Suffolk County,NY,37.130801687763714,NA
12010,Montgomery County,NY,7.172995780590717,NA
12020,Saratoga County,NY,26.160337552742618,NA
12307,Schenectady County,NY,70.88607594936708,NA
12428,Ulster County,NY,87.13080168776372,NA
12901,Clinton County,NY,NA,5.88235294117647
12946,Essex County,NY,NA,59.31372549019608
13021,Cayuga County,NY,4.641350210970464,0.9803921568627451
13045,Cortland County,NY,5.274261603375527,NA
13053,Tompkins County,NY,94.9367088607595,NA
13069,Oswego County,NY,7.805907172995781,NA
13140,Cayuga County,NY,85.23206751054853,NA
13346,Madison County,NY,71.30801687763713,NA
13601,Jefferson County,NY,6.329113924050633,NA
13655,St. Lawrence County,NY,86.70886075949366,NA
13760,Broome County,NY,1.4767932489451476,NA
14075,Erie County,NY,NA,8.333333333333332
14094,Niagara County,NY,NA,1.9607843137254901
14103,Orleans County,NY,NA,52.94117647058824
14150,Erie County,NY,NA,7.8431372549019605
14213,Erie County,NY,25.105485232067508,NA
14221,Erie County,NY,14.978902953586498,NA
14227,Erie County,NY,29.535864978902953,NA
14228,Erie County,NY,NA,80.88235294117648
14304,Niagara County,NY,6.5400843881856545,NA
14424,Ontario County,NY,3.79746835443038,0.49019607843137253
14489,Wayne County,NY,37.9746835443038,NA
14548,Ontario County,NY,69.62025316455697,NA
14616,Monroe County,NY,NA,10.784313725490197
14706,Cattaraugus County,NY,62.236286919831215,NA
14724,Chautauqua County,NY,96.83544303797468,NA
14895,Allegany County,NY,34.177215189873415,NA
27011,Yadkin County,NC,88.81856540084388,NA
27017,Surry County,NC,80.59071729957806,NA
27502,Wake County,NC,66.03375527426161,NA
27587,Wake County,NC,28.059071729957807,NA
27596,Franklin County,NC,69.83122362869199,NA
27889,Beaufort County,NC,36.28691983122363,NA
27892,Martin County,NC,NA,36.27450980392157
28016,Gaston County,NC,51.26582278481012,62.254901960784316
28023,Rowan County,NC,73.41772151898735,NA
28027,Cabarrus County,NC,NA,9.313725490196079
28034,Gaston County,NC,49.15611814345991,NA
28052,Gaston County,NC,NA,62.745098039215684
28083,Cabarrus County,NC,34.810126582278485,NA
28208,Mecklenburg County,NC,12.236286919831224,NA
28262,Mecklenburg County,NC,40.71729957805908,NA
28462,Brunswick County,NC,NA,61.274509803921575
28714,Yancey County,NC,NA,50
58503,Burleigh County,ND,39.029535864978904,NA
43113,Pickaway County,OH,18.9873417721519,14.705882352941178
43138,Hocking County,OH,NA,65.19607843137256
43160,Fayette County,OH,17.29957805907173,NA
43231,Franklin County,OH,NA,84.80392156862744
43326,Hardin County,OH,54.85232067510548,NA
43512,Defiance County,OH,5.9071729957805905,5.392156862745098
43551,Wood County,OH,17.72151898734177,NA
44001,Lorain County,OH,NA,3.9215686274509802
44067,Summit County,OH,72.78481012658227,NA
44104,Cuyahoga County,OH,6.118143459915612,NA
44111,Cuyahoga County,OH,NA,2.450980392156863
44136,Cuyahoga County,OH,33.33333333333333,NA
44260,Portage County,OH,74.68354430379746,NA
44320,Summit County,OH,22.9957805907173,NA
44410,Trumbull County,OH,NA,29.901960784313726
44444,Trumbull County,OH,56.32911392405063,NA
44601,Stark County,OH,9.70464135021097,NA
44615,Carroll County,OH,80.16877637130801,NA
44805,Ashland County,OH,17.088607594936708,NA
44830,Seneca County,OH,24.050632911392405,NA
45013,Butler County,OH,4.852320675105485,NA
45103,Clermont County,OH,NA,27.450980392156865
45144,Adams County,OH,NA,97.05882352941177
45169,Clinton County,OH,81.64556962025317,NA
45211,Hamilton County,OH,12.025316455696203,NA
45223,Hamilton County,OH,47.89029535864979,NA
45231,Hamilton County,OH,11.181434599156118,NA
45331,Darke County,OH,NA,28.431372549019606
45356,Miami County,OH,19.62025316455696,NA
45365,Shelby County,OH,NA,16.176470588235293
45373,Miami County,OH,NA,50.49019607843137
45380,Darke County,OH,98.31223628691983,NA
45424,Montgomery County,OH,NA,12.745098039215685
45503,Clark County,OH,10.337552742616033,NA
45631,Gallia County,OH,13.71308016877637,NA
45660,Adams County,OH,NA,84.31372549019608
45680,Lawrence County,OH,16.244725738396625,NA
45690,Pike County,OH,23.628691983122362,NA
45701,Athens County,OH,NA,55.392156862745104
45714,Washington County,OH,NA,20.098039215686274
45805,Allen County,OH,17.29957805907173,NA
45840,Hancock County,OH,3.5864978902953584,3.431372549019608
45872,Wood County,OH,87.9746835443038,NA
73044,Logan County,OK,NA,16.666666666666664
73135,Oklahoma County,OK,47.67932489451477,NA
73401,Carter County,OK,18.354430379746837,NA
73439,Marshall County,OK,78.05907172995781,NA
73737,Major County,OK,NA,98.0392156862745
74008,Tulsa County,OK,71.51898734177216,NA
74044,Creek County,OK,82.91139240506328,NA
74133,Tulsa County,OK,36.49789029535865,NA
74136,Tulsa County,OK,60.54852320675106,NA
74801,Pottawatomie County,OK,41.77215189873418,NA
74955,Sequoyah County,OK,63.71308016877637,NA
74960,Adair County,OK,NA,45.588235294117645
97015,Clackamas County,OR,58.016877637130804,NA
97045,Clackamas County,OR,19.831223628691983,NA
97051,Columbia County,OR,66.66666666666666,NA
97070,Clackamas County,OR,67.51054852320675,NA
97086,Clackamas County,OR,58.22784810126582,NA
97116,Washington County,OR,55.06329113924051,NA
97365,Lincoln County,OR,93.24894514767934,NA
97383,Marion County,OR,82.70042194092827,NA
97405,Lane County,OR,NA,87.25490196078431
97411,Coos County,OR,84.59915611814345,NA
97525,Jackson County,OR,NA,94.11764705882352
15012,Westmoreland County,PA,65.82278481012658,NA
15210,Allegheny County,PA,20.675105485232066,NA
15228,Allegheny County,PA,84.17721518987342,NA
15627,Westmoreland County,PA,NA,74.01960784313727
15636,Westmoreland County,PA,100,NA
15767,Jefferson County,PA,NA,37.254901960784316
16001,Butler County,PA,5.063291139240507,1.4705882352941175
16148,Mercer County,PA,52.95358649789029,NA
16442,Erie County,PA,99.57805907172997,NA
16652,Huntingdon County,PA,44.936708860759495,NA
16801,Centre County,PA,NA,33.33333333333333
16915,Potter County,PA,NA,66.66666666666666
17113,Dauphin County,PA,50.210970464135016,NA
17315,York County,PA,33.33333333333333,NA
17319,York County,PA,72.15189873417721,NA
17368,York County,PA,81.0126582278481,NA
17370,York County,PA,NA,96.56862745098039
17402,York County,PA,NA,12.254901960784313
17404,York County,PA,15.18987341772152,NA
17603,Lancaster County,PA,40.29535864978903,NA
17777,Northumberland County,PA,93.67088607594937,NA
18055,Northampton County,PA,45.78059071729958,NA
18103,Lehigh County,PA,NA,35.78431372549019
18109,Lehigh County,PA,31.856540084388186,NA
18222,Luzerne County,PA,NA,70.09803921568627
18330,Monroe County,PA,NA,85.7843137254902
19047,Bucks County,PA,29.957805907172997,NA
19056,Bucks County,PA,NA,60.78431372549019
19111,Philadelphia County,PA,NA,6.372549019607843
19133,Philadelphia County,PA,20.88607594936709,NA
19134,Philadelphia County,PA,NA,51.9607843137255
19135,Philadelphia County,PA,51.0548523206751,NA
19137,Philadelphia County,PA,NA,76.47058823529412
19140,Philadelphia County,PA,NA,11.76470588235294
19141,Philadelphia County,PA,NA,19.11764705882353
19348,Chester County,PA,61.39240506329114,NA
19382,Chester County,PA,20.253164556962027,NA
19460,Chester County,PA,61.60337552742617,NA
02864,Providence County,RI,NA,19.607843137254903
02891,Washington County,RI,NA,30.88235294117647
02895,Providence County,RI,15.400843881856542,NA
29588,Horry County,SC,95.9915611814346,NA
29601,Greenville County,SC,76.58227848101265,NA
29655,Anderson County,SC,85.86497890295358,NA
29681,Greenville County,SC,32.70042194092827,NA
29812,Barnwell County,SC,NA,57.84313725490197
29847,Edgefield County,SC,92.19409282700421,NA
29907,Beaufort County,SC,NA,79.41176470588235
37074,Trousdale County,TN,72.9957805907173,NA
37090,Wilson County,TN,68.77637130801688,NA
37096,Perry County,TN,90.71729957805907,NA
37130,Rutherford County,TN,57.80590717299579,NA
37167,Rutherford County,TN,32.91139240506329,NA
37208,Davidson County,TN,31.645569620253166,NA
37211,Davidson County,TN,25.738396624472575,NA
37311,Bradley County,TN,NA,39.21568627450981
37381,Rhea County,TN,NA,89.70588235294117
37601,Washington County,TN,22.573839662447256,NA
37774,Loudon County,TN,NA,27.941176470588236
37862,Sevier County,TN,42.405063291139236,NA
37914,Knox County,TN,41.139240506329116,NA
38019,Tipton County,TN,60.970464135021096,NA
38108,Shelby County,TN,NA,58.333333333333336
38109,Shelby County,TN,14.556962025316455,NA
38112,Shelby County,TN,68.35443037974683,NA
38116,Shelby County,TN,24.47257383966245,NA
38118,Shelby County,TN,24.894514767932492,NA
38127,Shelby County,TN,39.66244725738397,NA
38305,Madison County,TN,12.447257383966246,NA
38501,Putnam County,TN,25.52742616033755,20.588235294117645
38549,Pickett County,TN,91.35021097046413,NA
38571,Cumberland County,TN,59.49367088607595,NA
75006,Dallas County,TX,52.109704641350206,NA
75033,,TX,74.0506329113924,NA
75060,Dallas County,TX,NA,45.588235294117645
75104,Dallas County,TX,NA,33.82352941176471
75165,Ellis County,TX,33.9662447257384,30.392156862745097
75181,Dallas County,TX,97.25738396624473,NA
75201,Dallas County,TX,82.0675105485232,NA
75211,Dallas County,TX,NA,58.82352941176471
75474,Hunt County,TX,67.08860759493672,NA
76013,Tarrant County,TX,NA,60.29411764705882
76067,Palo Pinto County,TX,58.438818565400844,NA
76182,Tarrant County,TX,70.25316455696202,NA
76244,Tarrant County,TX,31.223628691983123,NA
76431,Wise County,TX,99.78902953586498,97.54901960784314
77005,Harris County,TX,77.21518987341773,NA
77016,Harris County,TX,46.835443037974684,NA
77040,Harris County,TX,NA,34.31372549019608
77056,Harris County,TX,80.37974683544303,NA
77059,Harris County,TX,84.81012658227847,NA
77433,Harris County,TX,15.822784810126583,NA
77447,Harris County,TX,77.0042194092827,NA
77449,Harris County,TX,13.924050632911392,NA
77450,Harris County,TX,75.9493670886076,NA
77459,Fort Bend County,TX,NA,13.725490196078432
77494,Fort Bend County,TX,23.20675105485232,NA
77584,Brazoria County,TX,NA,23.03921568627451
77630,Orange County,TX,46.41350210970464,NA
77706,Jefferson County,TX,54.008438818565395,NA
78121,Wilson County,TX,89.24050632911393,NA
78220,Bexar County,TX,65.18987341772153,NA
78227,Bexar County,TX,75.10548523206751,NA
78229,Bexar County,TX,56.540084388185655,NA
78247,Bexar County,TX,57.59493670886076,NA
78521,Cameron County,TX,37.9746835443038,NA
78648,Caldwell County,TX,NA,77.45098039215686
78666,Hays County,TX,NA,40.68627450980392
78681,Williamson County,TX,59.91561181434599,NA
78852,Maverick County,TX,60.337552742616026,NA
78934,Colorado County,TX,NA,66.17647058823529
79323,Yoakum County,TX,82.48945147679325,NA
84129,,UT,35.0210970464135,NA
84405,Weber County,UT,79.32489451476793,NA
05488,Franklin County,VT,NA,86.76470588235294
05641,Washington County,VT,38.607594936708864,NA
20164,Loudoun County,VA,NA,64.70588235294117
22901,Albemarle County,VA,90.92827004219409,NA
23188,James City County,VA,49.36708860759494,NA
23321,Chesapeake city,VA,53.37552742616034,NA
24354,Smyth County,VA,NA,43.627450980392155
24572,Amherst County,VA,67.29957805907173,NA
98004,King County,WA,79.11392405063292,NA
98031,King County,WA,77.84810126582279,NA
98059,King County,WA,51.26582278481012,NA
98223,Snohomish County,WA,30.168776371308013,NA
98312,Kitsap County,WA,44.09282700421941,NA
98374,Pierce County,WA,48.10126582278481,NA
98391,Pierce County,WA,49.57805907172996,NA
98632,Cowlitz County,WA,25.31645569620253,NA
98828,Chelan County,WA,NA,100
98848,Grant County,WA,NA,81.37254901960785
98930,Yakima County,WA,90.084388185654,NA
99205,Spokane County,WA,46.20253164556962,NA
99301,Franklin County,WA,12.869198312236287,NA
20019,District of Columbia,DC,27.637130801687764,NA
20032,District of Columbia,DC,7.59493670886076,NA
24701,Mercer County,WV,34.59915611814346,NA
25276,Roane County,WV,58.64978902953587,NA
25312,Kanawha County,WV,71.72995780590718,NA
25320,Kanawha County,WV,85.44303797468355,NA
26003,Ohio County,WV,8.016877637130802,NA
26250,Barbour County,WV,NA,91.66666666666666
26452,Lewis County,WV,64.13502109704642,NA
26547,Preston County,WV,96.41350210970464,NA
26582,Marion County,WV,92.40506329113924,NA
53105,Racine County,WI,20.88607594936709,NA
53818,Grant County,WI,NA,88.23529411764706
53959,Sauk County,WI,NA,48.529411764705884
54241,Manitowoc County,WI,67.72151898734177,NA
54868,Barron County,WI,70.67510548523207,NA
54914,Outagamie County,WI,28.691983122362867,NA
