ZipCode,county,state,Adult,Retirement
35055,Cullman County,AL,NA,64.66876971608832
35401,Tuscaloosa County,AL,NA,18.92744479495268
35474,Hale County,AL,63.817097415506964,NA
35546,Fayette County,AL,89.86083499005964,NA
35802,Madison County,AL,NA,64.98422712933754
35903,Etowah County,AL,78.13121272365805,NA
35976,Marshall County,AL,47.912524850894634,37.22397476340694
36265,Calhoun County,AL,77.53479125248509,NA
36271,Calhoun County,AL,85.88469184890656,NA
36567,Baldwin County,AL,61.63021868787276,NA
36701,Dallas County,AL,26.640159045725646,NA
36804,Lee County,AL,57.45526838966203,NA
36830,Lee County,AL,91.65009940357854,NA
99654,Matanuska-Susitna Borough,AK,35.984095427435385,NA
99669,Kenai Peninsula Borough,AK,70.9741550695825,55.83596214511041
85041,Maricopa County,AZ,8.747514910536779,24.9211356466877
85338,Maricopa County,AZ,33.79721669980119,NA
85344,La Paz County,AZ,66.79920477137176,NA
85383,Maricopa County,AZ,NA,37.85488958990536
85635,Cochise County,AZ,NA,52.05047318611987
85653,Pima County,AZ,NA,40.063091482649845
85745,Pima County,AZ,24.254473161033797,NA
85756,Pima County,AZ,NA,86.75078864353313
71635,Ashley County,AR,92.44532803180915,NA
71913,Garland County,AR,36.779324055666,NA
72404,Craighead County,AR,76.54075546719682,NA
72416,Craighead County,AR,NA,90.85173501577287
72501,Independence County,AR,33.20079522862823,NA
90041,Los Angeles County,CA,NA,92.74447949526814
90064,Los Angeles County,CA,59.64214711729622,NA
90201,Los Angeles County,CA,30.61630218687873,NA
90232,Los Angeles County,CA,93.24055666003976,NA
90260,Los Angeles County,CA,73.75745526838966,NA
90275,Los Angeles County,CA,56.66003976143141,NA
90403,Los Angeles County,CA,NA,68.45425867507886
90605,Los Angeles County,CA,79.52286282306163,NA
90621,Orange County,CA,56.461232604373755,NA
90650,Los Angeles County,CA,NA,14.826498422712934
90802,Los Angeles County,CA,50.29821073558648,NA
91362,Ventura County,CA,83.69781312127238,NA
91702,Los Angeles County,CA,31.21272365805169,NA
91709,San Bernardino County,CA,NA,27.129337539432175
91732,Los Angeles County,CA,41.15308151093439,NA
91739,San Bernardino County,CA,61.431411530815105,NA
91744,Los Angeles County,CA,18.687872763419485,NA
91762,San Bernardino County,CA,34.990059642147116,NA
91770,Los Angeles County,CA,NA,47.003154574132495
91901,San Diego County,CA,NA,75.39432176656152
92024,San Diego County,CA,40.357852882703774,NA
92054,San Diego County,CA,43.33996023856859,NA
92078,San Diego County,CA,NA,50.473186119873816
92101,San Diego County,CA,NA,10.410094637223976
92234,Riverside County,CA,44.93041749502982,4.100946372239748
92503,Riverside County,CA,20.07952286282306,NA
92544,Riverside County,CA,49.10536779324055,NA
92562,Riverside County,CA,NA,34.70031545741325
92583,Riverside County,CA,NA,67.82334384858044
92592,Riverside County,CA,NA,29.02208201892745
92610,Orange County,CA,NA,94.6372239747634
92624,Orange County,CA,95.02982107355865,NA
92648,Orange County,CA,NA,23.02839116719243
92675,Orange County,CA,64.21471172962227,NA
92679,Orange County,CA,60.039761431411534,NA
92691,Orange County,CA,NA,56.46687697160884
92704,Orange County,CA,32.40556660039761,NA
92870,Orange County,CA,36.381709741550694,NA
92880,Riverside County,CA,NA,54.889589905362776
93063,Ventura County,CA,NA,25.86750788643533
93257,Tulare County,CA,41.94831013916501,NA
93274,Tulare County,CA,25.646123260437374,NA
93277,Tulare County,CA,NA,82.33438485804416
93291,Tulare County,CA,NA,69.4006309148265
93455,Santa Barbara County,CA,NA,30.914826498422716
93536,Los Angeles County,CA,42.54473161033797,NA
93619,Fresno County,CA,41.35188866799205,91.7981072555205
93955,Monterey County,CA,NA,35.646687697160885
94116,San Francisco County,CA,NA,37.85488958990536
94122,San Francisco County,CA,74.35387673956262,NA
94542,Alameda County,CA,NA,93.69085173501577
94550,Alameda County,CA,NA,38.48580441640379
95060,Santa Cruz County,CA,71.57057654075547,NA
95330,San Joaquin County,CA,NA,81.38801261829653
95448,Sonoma County,CA,NA,47.94952681388013
95624,Sacramento County,CA,48.31013916500994,NA
95815,Sacramento County,CA,64.61232604373758,NA
95926,Butte County,CA,34.59244532803181,NA
95973,Butte County,CA,NA,23.974763406940063
96094,Siskiyou County,CA,NA,66.5615141955836
80012,Arapahoe County,CO,NA,29.652996845425868
80014,Arapahoe County,CO,31.01391650099404,NA
80021,Jefferson County,CO,59.24453280318092,NA
80023,Broomfield County,CO,NA,77.91798107255521
80123,Jefferson County,CO,48.9065606361829,NA
80126,Douglas County,CO,NA,57.09779179810725
80232,Jefferson County,CO,75.54671968190854,NA
80237,Denver County,CO,72.76341948310139,NA
80525,Larimer County,CO,NA,11.35646687697161
80526,Larimer County,CO,36.58051689860835,NA
80634,Weld County,CO,2.584493041749503,NA
80917,El Paso County,CO,NA,54.57413249211357
80922,El Paso County,CO,97.01789264413519,NA
81401,Montrose County,CO,83.89662027833002,43.53312302839117
06117,Hartford County,CT,70.37773359840955,NA
06119,Hartford County,CT,NA,79.49526813880126
06248,Tolland County,CT,96.81908548707754,NA
06468,Fairfield County,CT,NA,76.65615141955836
06475,Middlesex County,CT,NA,58.67507886435332
06516,New Haven County,CT,7.75347912524851,NA
06790,Litchfield County,CT,NA,3.7854889589905363
06795,Litchfield County,CT,NA,56.15141955835961
06851,Fairfield County,CT,57.25646123260437,NA
19701,New Castle County,DE,NA,16.08832807570978
19720,New Castle County,DE,3.180914512922465,NA
19950,Sussex County,DE,81.51093439363817,NA
32025,Columbia County,FL,67.79324055666004,NA
32055,Columbia County,FL,40.95427435387674,NA
32091,Bradford County,FL,42.14711729622266,NA
32137,Flagler County,FL,NA,8.832807570977918
32233,Duval County,FL,NA,41.32492113564668
32250,Duval County,FL,NA,33.12302839116719
32254,Duval County,FL,NA,68.76971608832808
32333,Gadsden County,FL,80.31809145129225,NA
32526,Escambia County,FL,44.333996023856855,NA
32535,Escambia County,FL,75.7455268389662,NA
32541,Okaloosa County,FL,84.49304174950298,NA
32561,Santa Rosa County,FL,NA,79.17981072555204
32571,Santa Rosa County,FL,91.84890656063618,NA
32605,Alachua County,FL,98.60834990059642,NA
32619,Gilchrist County,FL,99.60238568588468,NA
32771,Seminole County,FL,16.50099403578529,NA
32801,Orange County,FL,93.63817097415506,NA
32811,Orange County,FL,22.266401590457257,NA
32837,Orange County,FL,NA,51.73501577287066
32909,Brevard County,FL,38.767395626242546,NA
32935,Brevard County,FL,NA,46.37223974763407
32963,Indian River County,FL,NA,52.99684542586751
33013,Miami-Dade County,FL,NA,67.50788643533123
33071,Broward County,FL,52.48508946322068,NA
33196,Miami-Dade County,FL,64.01590457256461,NA
33312,Broward County,FL,35.387673956262425,NA
33322,Broward County,FL,68.19085487077535,NA
33334,Broward County,FL,52.683896620278325,NA
33413,Palm Beach County,FL,80.71570576540755,NA
33484,Palm Beach County,FL,NA,31.545741324921135
33542,Pasco County,FL,NA,51.10410094637224
33572,Hillsborough County,FL,92.2465208747515,NA
33705,Pinellas County,FL,27.435387673956264,NA
33767,Pinellas County,FL,NA,81.70347003154575
33974,Lee County,FL,77.13717693836978,NA
34203,Manatee County,FL,NA,20.50473186119874
34205,Manatee County,FL,33.39960238568588,NA
34480,Marion County,FL,58.64811133200796,NA
34610,Pasco County,FL,65.00994035785288,NA
34957,Martin County,FL,49.90059642147117,NA
30005,Fulton County,GA,85.6858846918489,NA
30087,DeKalb County,GA,60.238568588469185,NA
30097,Fulton County,GA,59.84095427435388,NA
30115,Cherokee County,GA,NA,41.6403785488959
30132,Paulding County,GA,77.9324055666004,NA
30144,Cobb County,GA,NA,89.58990536277602
30152,Cobb County,GA,98.80715705765407,NA
30153,Polk County,GA,NA,52.36593059936908
30189,Cherokee County,GA,NA,50.78864353312302
30213,Fulton County,GA,53.08151093439364,NA
30223,Spalding County,GA,NA,37.53943217665615
30228,Henry County,GA,30.417495029821072,NA
30263,Coweta County,GA,11.928429423459244,NA
30311,Fulton County,GA,NA,20.82018927444795
30331,Fulton County,GA,17.693836978131213,9.46372239747634
30458,Bulloch County,GA,NA,36.27760252365931
30507,Hall County,GA,43.538767395626245,NA
30528,White County,GA,52.286282306163024,NA
30542,Hall County,GA,NA,43.84858044164038
30680,Barrow County,GA,21.47117296222664,NA
30701,Gordon County,GA,30.81510934393638,NA
30741,Walker County,GA,20.278330019880716,NA
31405,Chatham County,GA,NA,41.95583596214511
31523,Glynn County,GA,NA,71.60883280757098
31642,Atkinson County,GA,NA,98.42271293375394
31707,Dougherty County,GA,50.89463220675944,NA
31714,Turner County,GA,NA,90.22082018927445
31750,Ben Hill County,GA,57.65407554671968,NA
31822,Harris County,GA,NA,88.01261829652996
31907,Muscogee County,GA,NA,5.3627760252365935
31909,Muscogee County,GA,38.9662027833002,NA
96738,Hawaii County,HI,NA,99.05362776025235
96746,Kauai County,HI,64.81113320079523,NA
83221,Bingham County,ID,NA,17.350157728706623
83402,Bonneville County,ID,77.33598409542743,NA
83442,Jefferson County,ID,72.36580516898609,NA
83605,Canyon County,ID,NA,23.34384858044164
83642,Ada County,ID,17.892644135188867,NA
83705,Ada County,ID,28.628230616302186,NA
60007,Cook County,IL,96.62027833001989,NA
60010,Lake County,IL,38.56858846918489,NA
60020,Lake County,IL,NA,59.93690851735016
60031,Lake County,IL,NA,22.397476340694006
60035,Lake County,IL,NA,13.249211356466878
60044,Lake County,IL,NA,95.26813880126183
60045,Lake County,IL,91.25248508946322,NA
60050,McHenry County,IL,NA,34.06940063091483
60085,Lake County,IL,18.09145129224652,NA
60091,Cook County,IL,68.58846918489066,NA
60115,DeKalb County,IL,NA,31.230283911671926
60171,Cook County,IL,NA,89.90536277602523
60174,Kane County,IL,47.11729622266402,NA
60193,Cook County,IL,68.78727634194831,NA
60401,Will County,IL,NA,77.60252365930599
60404,Will County,IL,NA,44.479495268138805
60406,Cook County,IL,53.28031809145129,NA
60428,Cook County,IL,NA,78.86435331230284
60442,Will County,IL,76.93836978131213,NA
60450,Grundy County,IL,NA,16.40378548895899
60491,Will County,IL,NA,27.444794952681388
60504,DuPage County,IL,NA,60.252365930599375
60516,DuPage County,IL,46.71968190854871,NA
60527,DuPage County,IL,51.29224652087475,NA
60546,Cook County,IL,NA,43.84858044164038
60558,Cook County,IL,81.11332007952286,NA
60560,Kendall County,IL,NA,53.62776025236593
60586,Will County,IL,45.92445328031809,NA
60609,Cook County,IL,12.127236580516898,NA
60633,Cook County,IL,85.48707753479125,NA
60634,Cook County,IL,55.26838966202783,NA
60657,Cook County,IL,NA,48.89589905362776
61301,LaSalle County,IL,90.05964214711729,NA
61356,Bureau County,IL,73.558648111332,NA
61364,LaSalle County,IL,55.069582504970185,NA
61802,Champaign County,IL,NA,32.49211356466877
62024,Madison County,IL,93.04174950298211,NA
46013,Madison County,IN,NA,18.29652996845426
46040,Hancock County,IN,NA,95.58359621451105
46142,Johnson County,IN,NA,11.987381703470032
46218,Marion County,IN,9.74155069582505,NA
46240,Marion County,IN,NA,94.95268138801262
46342,Lake County,IN,5.36779324055666,NA
46516,Elkhart County,IN,NA,42.27129337539432
46550,Elkhart County,IN,95.82504970178927,NA
46818,Allen County,IN,NA,48.26498422712934
46992,Wabash County,IN,33.99602385685885,NA
47374,Wayne County,IN,NA,6.624605678233439
47630,Warrick County,IN,44.135188866799204,NA
47963,Newton County,IN,99.20477137176938,NA
50158,Marshall County,IA,25.24850894632207,NA
50613,Black Hawk County,IA,NA,12.302839116719243
52205,Jones County,IA,86.48111332007953,NA
52302,Linn County,IA,NA,68.13880126182966
52577,Mahaska County,IA,NA,45.74132492113564
52722,Scott County,IA,21.272365805168985,NA
66047,Douglas County,KS,NA,81.07255520504731
66049,Douglas County,KS,NA,39.11671924290221
66062,Johnson County,KS,11.72962226640159,NA
66210,Johnson County,KS,74.15506958250498,NA
66216,Johnson County,KS,71.37176938369781,NA
66547,Pottawatomie County,KS,97.4155069582505,NA
67042,Butler County,KS,NA,63.40694006309149
67217,Sedgwick County,KS,NA,74.13249211356468
40222,Jefferson County,KY,76.1431411530815,NA
40229,Jefferson County,KY,NA,72.2397476340694
40456,Rockcastle County,KY,72.56461232604374,NA
41005,Boone County,KY,NA,53.94321766561514
41314,Owsley County,KY,89.26441351888667,NA
41522,Pike County,KY,72.96222664015905,NA
41537,Letcher County,KY,84.69184890656064,NA
42129,Metcalfe County,KY,56.063618290258454,NA
42345,Muhlenberg County,KY,NA,65.61514195583597
42567,Pulaski County,KY,83.1013916500994,NA
42718,Taylor County,KY,13.916500994035786,NA
70003,Jefferson Parish,LA,8.548707753479125,NA
70037,Plaquemines Parish,LA,87.07753479125249,NA
70126,Orleans Parish,LA,6.163021868787276,NA
70433,St. Tammany Parish,LA,6.759443339960239,NA
70435,St. Tammany Parish,LA,20.675944333996025,NA
70538,St. Mary Parish,LA,42.34592445328032,NA
70555,Vermilion Parish,LA,NA,84.85804416403786
70560,Iberia Parish,LA,47.514910536779325,NA
70570,St. Landry Parish,LA,1.3916500994035785,NA
70601,Calcasieu Parish,LA,13.717693836978132,NA
70634,Beauregard Parish,LA,NA,41.00946372239748
70734,Ascension Parish,LA,84.89065606361828,NA
70737,Ascension Parish,LA,7.3558648111332,NA
70807,East Baton Rouge Parish,LA,14.314115308151093,NA
70808,East Baton Rouge Parish,LA,45.32803180914513,NA
70816,East Baton Rouge Parish,LA,5.566600397614314,NA
71220,Morehouse Parish,LA,18.886679920477135,NA
71405,Rapides Parish,LA,NA,88.95899053627761
71446,Vernon Parish,LA,11.530815109343937,NA
71467,Grant Parish,LA,81.90854870775348,NA
04073,York County,ME,NA,33.753943217665615
04240,Androscoggin County,ME,1.7892644135188867,NA
04268,Oxford County,ME,78.13121272365805,NA
04276,Oxford County,ME,61.82902584493042,NA
20603,Charles County,MD,65.20874751491054,NA
20659,St. Mary's County,MD,60.63618290258449,NA
20772,Prince George's County,MD,NA,52.6813880126183
20882,Montgomery County,MD,NA,91.48264984227129
21227,Baltimore County,MD,53.677932405566594,NA
21620,Kent County,MD,82.10735586481114,NA
21771,Frederick County,MD,NA,65.29968454258676
01201,Berkshire County,MA,NA,0
01238,Berkshire County,MA,52.88270377733598,NA
01450,Middlesex County,MA,66.00397614314116,NA
01532,Worcester County,MA,NA,72.55520504731862
01564,Worcester County,MA,NA,80.7570977917981
01603,Worcester County,MA,1.5904572564612325,NA
01720,Middlesex County,MA,34.1948310139165,NA
01730,Middlesex County,MA,31.809145129224653,NA
01757,Worcester County,MA,2.3856858846918487,NA
01826,Middlesex County,MA,NA,97.47634069400631
01913,Essex County,MA,56.85884691848907,NA
01950,Essex County,MA,20.47713717693837,NA
02054,Norfolk County,MA,NA,90.53627760252367
02067,Norfolk County,MA,NA,40.694006309148264
02124,Suffolk County,MA,0.19880715705765406,NA
02136,Suffolk County,MA,41.74950298210736,NA
02145,Middlesex County,MA,5.168986083499006,NA
02150,Suffolk County,MA,NA,2.2082018927444795
02155,Middlesex County,MA,NA,1.2618296529968454
02176,Middlesex County,MA,NA,8.201892744479496
02445,Norfolk County,MA,25.844930417495032,NA
02459,Middlesex County,MA,45.12922465208747,NA
02467,Norfolk County,MA,NA,93.05993690851734
02703,Bristol County,MA,0.7952286282306162,NA
02740,Bristol County,MA,NA,0.31545741324921134
02745,Bristol County,MA,2.1868787276341948,NA
02771,Bristol County,MA,38.36978131212724,NA
02790,Bristol County,MA,NA,24.605678233438486
48009,Oakland County,MI,51.0934393638171,NA
48044,Macomb County,MI,NA,33.4384858044164
48091,Macomb County,MI,48.70775347912525,NA
48154,Wayne County,MI,NA,36.59305993690852
48169,Livingston County,MI,NA,30.28391167192429
48183,Wayne County,MI,9.145129224652088,NA
48186,Wayne County,MI,5.7654075546719685,NA
48204,Wayne County,MI,10.73558648111332,NA
48212,Wayne County,MI,10.536779324055665,NA
48307,Oakland County,MI,18.48906560636183,NA
48309,Oakland County,MI,33.00198807157058,NA
48310,Macomb County,MI,16.10337972166998,NA
48328,Oakland County,MI,66.99801192842942,NA
48341,Oakland County,MI,NA,45.42586750788644
48433,Genesee County,MI,NA,21.766561514195583
48505,Genesee County,MI,18.290258449304176,NA
48624,Gladwin County,MI,37.37574552683897,NA
48813,Eaton County,MI,NA,15.772870662460567
48910,Ingham County,MI,39.363817097415506,NA
49010,Allegan County,MI,43.141153081510936,NA
49022,Berrien County,MI,10.139165009940358,NA
49036,Branch County,MI,NA,24.290220820189273
49079,Van Buren County,MI,67.39562624254472,NA
49253,Lenawee County,MI,NA,97.79179810725552
49315,Kent County,MI,NA,38.801261829652994
49423,Ottawa County,MI,13.320079522862823,NA
49431,Mason County,MI,32.60437375745527,NA
49504,Kent County,MI,NA,12.933753943217665
49802,Dickinson County,MI,73.35984095427436,NA
49953,Ontonagon County,MI,NA,85.17350157728707
55021,Rice County,MN,NA,42.586750788643535
55044,Dakota County,MN,50.09940357852882,NA
55127,Ramsey County,MN,NA,74.13249211356468
55371,Mille Lacs County,MN,NA,70.03154574132492
55412,Hennepin County,MN,8.946322067594433,NA
55744,Itasca County,MN,47.31610337972167,NA
55806,St. Louis County,MN,59.04572564612326,NA
55987,Winona County,MN,NA,5.047318611987381
56073,Brown County,MN,NA,12.618296529968454
56175,Lyon County,MN,92.04771371769384,NA
56220,Yellow Medicine County,MN,NA,98.10725552050474
38804,Lee County,MS,69.58250497017893,NA
39073,Rankin County,MS,NA,59.62145110410094
39074,Scott County,MS,NA,63.722397476340696
39090,Attala County,MS,NA,87.06624605678233
39168,Smith County,MS,89.06560636182903,NA
39191,Copiah County,MS,NA,94.3217665615142
39439,Jasper County,MS,88.86679920477137,NA
39476,Perry County,MS,91.05367793240556,NA
39573,Stone County,MS,88.07157057654076,83.2807570977918
63028,Jefferson County,MO,NA,23.65930599369085
63034,St. Louis County,MO,61.23260437375746,NA
63051,Jefferson County,MO,63.22067594433399,NA
63109,St. Louis city,MO,75.14910536779324,NA
63121,St. Louis County,MO,28.82703777335984,NA
63128,St. Louis County,MO,NA,56.782334384858046
63137,St. Louis County,MO,37.17693836978131,NA
63376,St. Charles County,MO,36.18290258449304,NA
63640,St. Francois County,MO,39.363817097415506,NA
63775,Perry County,MO,NA,35.96214511041009
63851,Pemiscot County,MO,78.72763419483101,99.6845425867508
64012,Cass County,MO,26.24254473161034,25.236593059936908
64029,Jackson County,MO,NA,78.23343848580441
64057,Jackson County,MO,NA,51.10410094637224
64063,Jackson County,MO,68.389662027833,NA
64086,Jackson County,MO,NA,43.217665615141954
64119,Clay County,MO,12.326043737574553,NA
64133,Jackson County,MO,NA,6.940063091482649
65203,Boone County,MO,23.26043737574553,NA
65301,Pettis County,MO,4.174950298210735,NA
65560,Dent County,MO,55.46719681908549,NA
65619,Greene County,MO,82.30616302186878,NA
65737,Stone County,MO,NA,61.82965299684543
59047,Park County,MT,89.66202783300199,NA
59072,Musselshell County,MT,NA,86.1198738170347
59102,Yellowstone County,MT,43.737574552683895,NA
59105,Yellowstone County,MT,82.50497017892644,NA
59840,Ravalli County,MT,NA,57.72870662460568
59901,Flathead County,MT,NA,4.416403785488959
68132,Douglas County,NE,NA,87.69716088328076
89135,Clark County,NV,94.43339960238568,64.03785488958991
89148,Clark County,NV,46.91848906560636,NA
89701,Carson City,NV,37.77335984095427,NA
89801,Elko County,NV,64.21471172962227,NA
03064,Hillsborough County,NH,28.429423459244536,NA
03103,Hillsborough County,NH,NA,85.48895899053628
03254,Carroll County,NH,NA,84.54258675078864
03841,Rockingham County,NH,91.45129224652088,NA
03848,Rockingham County,NH,NA,88.32807570977917
07039,Essex County,NJ,NA,39.43217665615142
07050,Essex County,NJ,12.524850894632205,NA
07111,Essex County,NJ,19.880715705765407,NA
07304,Hudson County,NJ,3.3797216699801194,NA
07450,Bergen County,NJ,76.73956262425448,NA
07470,Passaic County,NJ,16.302186878727635,NA
07621,Bergen County,NJ,99.00596421471172,NA
07716,Monmouth County,NJ,86.87872763419483,NA
07728,Monmouth County,NJ,15.50695825049702,NA
07740,Monmouth County,NJ,27.634194831013914,NA
07748,Monmouth County,NJ,28.230616302186878,NA
07860,Sussex County,NJ,NA,26.813880126182966
07920,Somerset County,NJ,79.72166998011929,NA
07960,Morris County,NJ,50.695825049701796,NA
08043,Camden County,NJ,NA,22.082018927444793
08051,Gloucester County,NJ,NA,97.16088328075709
08081,Camden County,NJ,12.922465208747516,NA
08104,Camden County,NJ,0.5964214711729622,NA
08205,Atlantic County,NJ,16.69980119284294,NA
08360,Cumberland County,NJ,6.958250497017893,NA
08361,Cumberland County,NJ,NA,49.8422712933754
08724,Ocean County,NJ,9.343936381709742,NA
87102,Bernalillo County,NM,21.669980119284293,NA
87507,Santa Fe County,NM,32.20675944333996,NA
88001,Doa Ana County,NM,NA,28.706624605678233
88352,Otero County,NM,NA,75.39432176656152
10011,New York County,NY,37.97216699801193,NA
10037,New York County,NY,37.57455268389662,NA
10039,New York County,NY,29.82107355864811,NA
10454,Bronx County,NY,NA,7.570977917981073
10457,Bronx County,NY,NA,1.5772870662460567
10462,Bronx County,NY,6.36182902584493,NA
10466,Bronx County,NY,NA,2.5236593059936907
10469,Bronx County,NY,3.5785288270377733,NA
10472,Bronx County,NY,1.9880715705765408,NA
10473,Bronx County,NY,4.7713717693836974,NA
11103,Queens County,NY,69.38369781312127,62.14511041009464
11207,Kings County,NY,NA,1.8927444794952681
11210,Kings County,NY,71.76938369781311,NA
11212,Kings County,NY,0.9940357852882704,NA
11365,Queens County,NY,49.50298210735586,NA
11368,Queens County,NY,7.5546719681908545,NA
11385,Queens County,NY,NA,44.79495268138801
11751,Suffolk County,NY,85.08946322067594,NA
11779,Suffolk County,NY,39.165009940357855,NA
12010,Montgomery County,NY,NA,7.255520504731862
12020,Saratoga County,NY,NA,26.498422712933756
12078,Fulton County,NY,4.572564612326044,NA
12110,Albany County,NY,NA,82.96529968454259
12188,Saratoga County,NY,NA,79.49526813880126
12306,Schenectady County,NY,63.618290258449306,NA
12414,Greene County,NY,NA,70.66246056782335
12804,Warren County,NY,8.34990059642147,NA
13309,Oneida County,NY,NA,73.81703470031546
13357,Herkimer County,NY,35.785288270377734,NA
13601,Jefferson County,NY,4.3737574552683895,NA
13613,St. Lawrence County,NY,77.73359840954275,NA
13619,Jefferson County,NY,48.111332007952285,NA
13652,St. Lawrence County,NY,NA,98.73817034700315
13732,Tioga County,NY,46.52087475149106,NA
13753,Delaware County,NY,NA,73.18611987381703
13787,Broome County,NY,NA,92.11356466876973
14174,Niagara County,NY,NA,75.0788643533123
14226,Erie County,NY,NA,39.74763406940063
14304,Niagara County,NY,4.970178926441352,NA
14450,Monroe County,NY,2.982107355864811,NA
14467,Monroe County,NY,56.2624254473161,NA
14469,Ontario County,NY,40.75546719681908,NA
14514,Monroe County,NY,96.22266401590457,NA
14564,Ontario County,NY,19.681908548707753,NA
14580,Monroe County,NY,NA,0.6309148264984227
14609,Monroe County,NY,0,NA
14625,Monroe County,NY,74.75149105367794,NA
14738,Chautauqua County,NY,90.65606361829026,NA
14760,Cattaraugus County,NY,10.139165009940358,NA
14813,Allegany County,NY,94.63220675944333,NA
14814,Chemung County,NY,96.42147117296223,NA
27302,Alamance County,NC,29.4234592445328,NA
27344,Chatham County,NC,48.508946322067594,NA
27529,Wake County,NC,23.658051689860834,NA
27530,Wayne County,NC,NA,19.558359621451103
27540,Wake County,NC,46.3220675944334,NA
27565,Granville County,NC,NA,17.665615141955836
27592,Wake County,NC,67.59443339960238,NA
27603,Wake County,NC,NA,26.18296529968454
27949,Dare County,NC,86.28230616302187,NA
28146,Rowan County,NC,NA,47.3186119873817
28147,Rowan County,NC,31.610337972166995,NA
28411,New Hanover County,NC,79.32405566600397,NA
28470,Brunswick County,NC,67.9920477137177,NA
28512,Carteret County,NC,98.40954274353876,NA
28694,Ashe County,NC,NA,69.71608832807571
28732,Henderson County,NC,70.37773359840955,NA
28790,Henderson County,NC,99.80119284294234,NA
43068,Franklin County,OH,9.940357852882704,NA
43146,Pickaway County,OH,86.08349900596421,NA
43420,Sandusky County,OH,10.934393638170974,NA
43537,Lucas County,OH,27.037773359840955,NA
43558,Fulton County,OH,NA,49.21135646687697
43560,Lucas County,OH,24.055666003976143,14.511041009463725
43606,Lucas County,OH,16.69980119284294,NA
43611,Lucas County,OH,NA,29.33753943217666
43614,Lucas County,OH,11.133200795228628,NA
43701,Muskingum County,OH,0.3976143141153081,0.9463722397476341
43812,Coshocton County,OH,44.731610337972164,NA
44001,Lorain County,OH,27.236580516898606,5.678233438485805
44003,Ashtabula County,OH,84.09542743538768,NA
44024,Geauga County,OH,NA,13.880126182965299
44035,Lorain County,OH,NA,2.8391167192429023
44052,Lorain County,OH,2.783300198807157,NA
44067,Summit County,OH,NA,17.034700315457414
44121,Cuyahoga County,OH,9.542743538767395,NA
44134,Cuyahoga County,OH,NA,3.1545741324921135
44140,Cuyahoga County,OH,NA,29.96845425867508
44212,Medina County,OH,3.7773359840954273,NA
44256,Medina County,OH,3.9761431411530817,NA
44278,Summit County,OH,58.05168986083499,NA
44310,Summit County,OH,NA,21.13564668769716
44312,Summit County,OH,NA,10.094637223974763
44314,Summit County,OH,NA,20.189274447949526
44410,Trumbull County,OH,NA,25.55205047318612
44702,Stark County,OH,80.51689860834989,NA
44824,Erie County,OH,NA,89.27444794952682
44837,Huron County,OH,94.03578528827038,NA
44857,Huron County,OH,22.067594433399602,NA
45005,Warren County,OH,32.80318091451292,NA
45013,Butler County,OH,NA,4.73186119873817
45014,Butler County,OH,15.109343936381709,17.981072555205046
45067,Butler County,OH,55.666003976143145,NA
45207,Hamilton County,OH,78.52882703777337,NA
45231,Hamilton County,OH,8.151093439363818,NA
45245,Clermont County,OH,89.46322067594433,NA
45246,Hamilton County,OH,87.8727634194831,NA
45356,Miami County,OH,14.910536779324055,NA
45365,Shelby County,OH,13.518886679920477,NA
45373,Miami County,OH,6.560636182902585,NA
45385,Greene County,OH,NA,9.14826498422713
45420,Montgomery County,OH,NA,42.90220820189275
45440,Montgomery County,OH,NA,70.347003154574125
45503,Clark County,OH,NA,11.67192429022082
45662,Scioto County,OH,NA,3.4700315457413247
45680,Lawrence County,OH,14.115308151093439,NA
45690,Pike County,OH,17.09741550695825,NA
45805,Allen County,OH,14.512922465208748,NA
73044,Logan County,OK,NA,13.564668769716087
73069,Cleveland County,OK,NA,66.8769716088328
73075,Garvin County,OK,NA,76.97160883280758
73109,Oklahoma County,OK,62.82306163021869,NA
73139,Oklahoma County,OK,53.47912524850894,NA
73401,Carter County,OK,NA,11.041009463722396
73501,Comanche County,OK,NA,50.1577287066246
73717,Woods County,OK,95.2286282306163,NA
73942,Texas County,OK,74.95029821073558,NA
74127,Tulsa County,OK,60.834990059642145,NA
74133,Tulsa County,OK,62.62425447316103,NA
74352,Mayes County,OK,84.29423459244532,NA
97007,Washington County,OR,NA,28.075709779179807
97058,Wasco County,OR,39.761431411530815,NA
97132,Yamhill County,OR,NA,80.4416403785489
97222,Clackamas County,OR,29.025844930417495,NA
97463,Lane County,OR,95.62624254473161,NA
97477,Lane County,OR,23.061630218687874,NA
97520,Jackson County,OR,NA,49.52681388012618
97526,Josephine County,OR,56.85884691848907,NA
97702,Deschutes County,OR,44.333996023856855,NA
97838,Umatilla County,OR,NA,15.141955835962145
97914,Malheur County,OR,22.86282306163022,21.13564668769716
15005,Beaver County,PA,81.31212723658051,NA
15017,Allegheny County,PA,66.6003976143141,NA
15062,Westmoreland County,PA,NA,63.09148264984227
15063,Washington County,PA,NA,70.97791798107255
15071,Allegheny County,PA,79.12524850894633,NA
15074,Beaver County,PA,62.82306163021869,NA
15102,Allegheny County,PA,62.02783300198808,NA
15220,Allegheny County,PA,NA,71.29337539432177
15613,Westmoreland County,PA,NA,80.12618296529969
15690,Westmoreland County,PA,74.55268389662028,NA
15801,Clearfield County,PA,7.952286282306163,NA
16117,Lawrence County,PA,51.689860834990064,NA
16242,Clarion County,PA,NA,96.21451104100946
16335,Crawford County,PA,11.332007952286283,NA
16510,Erie County,PA,38.17097415506958,NA
16701,McKean County,PA,17.495029821073558,NA
17013,Cumberland County,PA,20.87475149105368,NA
17111,Dauphin County,PA,15.904572564612327,NA
17320,Adams County,PA,NA,91.16719242902208
17404,York County,PA,12.72365805168986,NA
17512,Lancaster County,PA,NA,45.110410094637224
17517,Lancaster County,PA,NA,83.91167192429022
17522,Lancaster County,PA,24.45328031809145,NA
17545,Lancaster County,PA,87.27634194831015,NA
17701,Lycoming County,PA,21.868787276341948,NA
17756,Lycoming County,PA,71.17296222664015,NA
17901,Schuylkill County,PA,24.652087475149106,NA
17972,Schuylkill County,PA,60.437375745526836,NA
18017,Northampton County,PA,5.964214711729622,NA
18040,Northampton County,PA,65.60636182902584,NA
18109,Lehigh County,PA,24.85089463220676,NA
18337,Pike County,PA,87.67395626242545,NA
18360,Monroe County,PA,NA,47.634069400630914
18914,Bucks County,PA,58.25049701789264,NA
19018,Delaware County,PA,58.8469184890656,NA
19104,Philadelphia County,PA,94.23459244532803,NA
19115,Philadelphia County,PA,19.08548707753479,NA
19124,Philadelphia County,PA,1.1928429423459244,NA
19128,Philadelphia County,PA,NA,27.760252365930597
19133,Philadelphia County,PA,15.705765407554672,34.38485804416404
19146,Philadelphia County,PA,90.4572564612326,NA
19149,Philadelphia County,PA,69.78131212723659,NA
19150,Philadelphia County,PA,31.411530815109344,NA
19151,Philadelphia County,PA,14.7117296222664,NA
19152,Philadelphia County,PA,NA,55.20504731861199
19333,Chester County,PA,98.01192842942345,NA
19382,Chester County,PA,15.308151093439365,NA
19403,Montgomery County,PA,NA,7.886435331230284
19462,Montgomery County,PA,97.61431411530815,NA
19464,Montgomery County,PA,23.856858846918488,NA
19468,Montgomery County,PA,NA,35.01577287066246
19526,Berks County,PA,NA,58.359621451104104
19608,Berks County,PA,28.031809145129227,NA
02816,Kent County,RI,26.44135188866799,NA
02822,Washington County,RI,88.07157057654076,NA
02917,Providence County,RI,76.1431411530815,NA
29072,Lexington County,SC,NA,62.77602523659306
29212,Lexington County,SC,62.02783300198808,NA
29449,Charleston County,SC,NA,73.50157728706624
29464,Charleston County,SC,NA,22.71293375394322
29488,Colleton County,SC,35.188866799204774,NA
29492,Berkeley County,SC,NA,82.01892744479495
29615,Greenville County,SC,NA,40.37854889589905
29626,Anderson County,SC,NA,71.92429022082018
29627,Anderson County,SC,57.85288270377733,NA
29671,Pickens County,SC,NA,61.198738170347
29720,Lancaster County,SC,NA,28.391167192429023
57105,Minnehaha County,SD,NA,46.05678233438486
37066,Sumner County,TN,NA,9.779179810725552
37087,Wilson County,TN,17.296222664015904,76.34069400630915
37128,Rutherford County,TN,26.838966202783297,NA
37129,Rutherford County,TN,NA,30.5993690851735
37160,Bedford County,TN,50.49701789264414,NA
37216,Davidson County,TN,NA,85.8044164037855
37343,Hamilton County,TN,54.27435387673957,NA
37370,McMinn County,TN,NA,88.64353312302839
37379,Hamilton County,TN,40.15904572564612,NA
37641,Greene County,TN,NA,58.0441640378549
37769,Anderson County,TN,92.6441351888668,NA
37854,Roane County,TN,NA,60.88328075709779
37885,Monroe County,TN,NA,82.64984227129337
37918,Knox County,TN,43.737574552683895,NA
37922,Knox County,TN,54.07554671968191,NA
38008,Hardeman County,TN,72.16699801192843,NA
38116,Shelby County,TN,NA,32.17665615141956
38382,Gibson County,TN,75.3479125248509,NA
38581,Warren County,TN,NA,94.00630914826499
75024,Collin County,TX,NA,74.76340694006309
75028,Denton County,TX,54.47316103379721,NA
75033,,TX,65.4075546719682,NA
75051,Dallas County,TX,41.35188866799205,NA
75060,Dallas County,TX,40.55666003976143,NA
75067,Denton County,TX,32.007952286282304,NA
75148,Henderson County,TX,NA,86.43533123028391
75150,Dallas County,TX,22.46520874751491,NA
75159,Dallas County,TX,66.2027833001988,NA
75167,Ellis County,TX,NA,100
75189,Rockwall County,TX,45.52683896620278,NA
75205,Dallas County,TX,83.30019880715706,NA
75225,Dallas County,TX,73.95626242544732,NA
75401,Hunt County,TX,NA,57.413249211356465
75428,Hunt County,TX,85.2882703777336,NA
75570,Bowie County,TX,88.46918489065607,NA
75644,Upshur County,TX,92.84294234592446,NA
75904,Angelina County,TX,NA,13.880126182965299
75935,Shelby County,TX,88.66799204771371,NA
76009,Johnson County,TX,61.0337972166998,NA
76021,Tarrant County,TX,34.791252485089466,NA
76028,Johnson County,TX,NA,6.309148264984227
76048,Hood County,TX,42.74353876739563,NA
76052,Tarrant County,TX,78.92644135188867,NA
76092,Tarrant County,TX,63.41948310139165,NA
76137,Tarrant County,TX,21.07355864811133,NA
76140,Tarrant County,TX,36.97813121272366,NA
76247,Denton County,TX,NA,92.42902208201893
76549,Bell County,TX,22.664015904572565,NA
76708,McLennan County,TX,NA,93.37539432176656
77018,Harris County,TX,87.47514910536779,NA
77030,Harris County,TX,86.48111332007953,NA
77036,Harris County,TX,52.087475149105366,NA
77037,Harris County,TX,94.83101391650099,NA
77042,Harris County,TX,NA,67.19242902208202
77092,Harris County,TX,54.87077534791253,NA
77346,Harris County,TX,68.98608349900597,NA
77354,Montgomery County,TX,49.30417495029821,NA
77365,Montgomery County,TX,49.70178926441352,NA
77373,Harris County,TX,27.833001988071572,NA
77388,Harris County,TX,45.72564612326044,NA
77389,Harris County,TX,53.87673956262425,NA
77429,Harris County,TX,13.12127236580517,NA
77546,Galveston County,TX,73.1610337972167,NA
77581,Brazoria County,TX,29.025844930417495,NA
77598,Harris County,TX,80.11928429423459,NA
77612,Jasper County,TX,NA,76.02523659305994
77705,Jefferson County,TX,NA,62.14511041009464
77905,Victoria County,TX,NA,60.56782334384858
78009,Medina County,TX,NA,96.52996845425868
78022,Live Oak County,TX,98.01192842942345,NA
78201,Bexar County,TX,NA,19.242902208201894
78204,Bexar County,TX,81.70974155069582,NA
78216,Bexar County,TX,42.74353876739563,NA
78221,Bexar County,TX,46.12326043737575,NA
78223,Bexar County,TX,19.284294234592444,NA
78229,Bexar County,TX,51.88866799204771,NA
78404,Nueces County,TX,83.49900596421472,NA
78521,Cameron County,TX,NA,16.7192429022082
78616,Caldwell County,TX,97.21669980119285,NA
78736,Travis County,TX,NA,95.89905362776025
79360,Gaines County,TX,51.491053677932406,NA
79512,Mitchell County,TX,NA,84.22712933753942
79912,El Paso County,TX,NA,35.33123028391167
79938,El Paso County,TX,NA,64.35331230283911
84010,Davis County,UT,39.960238568588466,NA
84070,Salt Lake County,UT,NA,59.305993690851736
84087,Davis County,UT,82.90258449304176,NA
84096,Salt Lake County,UT,26.043737574552683,NA
84106,Salt Lake County,UT,35.586481113320076,NA
84120,Salt Lake County,UT,NA,18.61198738170347
84121,Salt Lake County,UT,NA,15.457413249211358
84302,Box Elder County,UT,75.7455268389662,NA
84629,Sanpete County,UT,100,NA
05602,Washington County,VT,NA,36.90851735015773
20175,Loudoun County,VA,69.18489065606362,NA
20191,Fairfax County,VA,NA,65.93059936908517
22101,Fairfax County,VA,NA,77.28706624605678
22309,Fairfax County,VA,58.4493041749503,NA
22508,Orange County,VA,79.92047713717693,NA
22554,Stafford County,VA,30.019880715705767,46.68769716088328
23324,Chesapeake city,VA,69.98011928429423,NA
23434,Suffolk city,VA,NA,10.725552050473187
23661,Hampton city,VA,NA,61.51419558359621
24153,Salem city,VA,33.59840954274354,NA
24401,Staunton city,VA,NA,8.517350157728707
24450,Rockbridge County,VA,NA,53.31230283911672
24598,Halifax County,VA,99.40357852882704,NA
24637,Tazewell County,VA,NA,99.36908517350159
98012,Snohomish County,WA,29.62226640159046,NA
98020,Snohomish County,WA,80.71570576540755,NA
98026,Snohomish County,WA,34.1948310139165,NA
98033,King County,WA,62.42544731610338,NA
98040,King County,WA,NA,55.520504731861195
98103,King County,WA,47.713717693836976,NA
98292,Snohomish County,WA,59.443339960238575,NA
98312,Kitsap County,WA,67.19681908548708,NA
98349,Pierce County,WA,95.82504970178927,NA
98366,Kitsap County,WA,23.45924453280318,NA
98563,Grays Harbor County,WA,NA,83.59621451104101
98620,Klickitat County,WA,NA,66.24605678233438
98632,Cowlitz County,WA,19.4831013916501,NA
98903,Yakima County,WA,NA,54.25867507886435
98930,Yakima County,WA,NA,78.54889589905363
98944,Yakima County,WA,NA,87.38170347003155
99338,Benton County,WA,NA,31.861198738170348
99353,Benton County,WA,NA,58.99053627760252
25043,Clay County,WV,95.42743538767395,NA
25311,Kanawha County,WV,66.40159045725646,NA
25508,Logan County,WV,71.76938369781311,NA
26351,Gilmer County,WV,97.61431411530815,NA
53085,Sheboygan County,WI,90.25844930417495,NA
53204,Milwaukee County,WI,NA,68.76971608832808
53205,Milwaukee County,WI,NA,48.580441640378545
53215,Milwaukee County,WI,NA,5.993690851735016
53218,Milwaukee County,WI,7.157057654075547,NA
53220,Milwaukee County,WI,30.218687872763418,NA
53221,Milwaukee County,WI,NA,19.873817034700316
53224,Milwaukee County,WI,65.8051689860835,NA
53402,Racine County,WI,25.04970178926441,NA
53534,Rock County,WI,55.864811133200796,NA
54115,Brown County,WI,NA,32.80757097791798
54311,Brown County,WI,69.98011928429423,NA
54449,Wood County,WI,70.77534791252485,72.55520504731862
54603,La Crosse County,WI,90.85487077534792,NA
54853,Polk County,WI,93.83697813121272,NA
54913,Outagamie County,WI,NA,96.84542586750788
54914,Outagamie County,WI,54.67196819085487,NA
54915,Outagamie County,WI,93.43936381709742,NA
54956,Winnebago County,WI,25.44731610337972,NA
82930,Uinta County,WY,82.7037773359841,NA
