ZipCode,county,state,Retirement,Geriatric
35007,Shelby County,AL,29.357798165137616,NA
35010,Tallapoosa County,AL,NA,24.100719424460433
35054,St. Clair County,AL,NA,81.4148681055156
35121,Blount County,AL,NA,61.63069544364509
35125,St. Clair County,AL,83.6697247706422,NA
35235,Jefferson County,AL,NA,67.26618705035972
35244,Jefferson County,AL,NA,49.40047961630695
35405,Tuscaloosa County,AL,35.04587155963303,NA
35601,Morgan County,AL,10.458715596330276,NA
35611,Limestone County,AL,17.61467889908257,NA
35613,Limestone County,AL,37.43119266055046,NA
35754,Morgan County,AL,NA,77.81774580335733
35758,Madison County,AL,NA,58.87290167865707
35768,Jackson County,AL,NA,60.07194244604317
35802,Madison County,AL,55.596330275229356,17.505995203836928
35810,Madison County,AL,NA,17.86570743405276
35906,Etowah County,AL,68.07339449541284,NA
36091,Chilton County,AL,92.11009174311927,NA
36109,Montgomery County,AL,NA,38.84892086330935
36420,Covington County,AL,NA,79.73621103117506
36507,Baldwin County,AL,56.14678899082569,NA
36618,Mobile County,AL,NA,64.14868105515588
36701,Dallas County,AL,NA,75.41966426858512
85020,Maricopa County,AZ,25.688073394495415,NA
85022,Maricopa County,AZ,20.91743119266055,NA
85051,Maricopa County,AZ,61.46788990825688,NA
85122,Pinal County,AZ,NA,55.03597122302158
85204,Maricopa County,AZ,54.49541284403669,NA
85207,Maricopa County,AZ,NA,73.14148681055156
85254,Maricopa County,AZ,NA,38.489208633093526
85266,Maricopa County,AZ,88.25688073394495,NA
85282,Maricopa County,AZ,67.88990825688074,NA
85298,Maricopa County,AZ,NA,75.65947242206235
85321,Pima County,AZ,NA,91.24700239808153
85364,Yuma County,AZ,NA,2.5179856115107913
85383,Maricopa County,AZ,28.256880733944957,73.621103117506
85395,Maricopa County,AZ,35.77981651376147,NA
85602,Cochise County,AZ,71.92660550458716,NA
85614,Pima County,AZ,NA,3.237410071942446
85641,Pima County,AZ,NA,95.32374100719424
85650,Cochise County,AZ,87.1559633027523,NA
85710,Pima County,AZ,11.926605504587156,NA
85718,Pima County,AZ,46.23853211009175,NA
85742,Pima County,AZ,40.36697247706422,NA
85750,Pima County,AZ,69.90825688073394,NA
85937,Navajo County,AZ,NA,84.41247002398082
86301,Yavapai County,AZ,NA,13.908872901678656
86442,Mohave County,AZ,NA,17.026378896882495
86503,Apache County,AZ,NA,40.28776978417266
71671,Bradley County,AR,NA,70.50359712230215
71832,Sevier County,AR,NA,86.33093525179856
72023,Lonoke County,AR,20.36697247706422,NA
72058,Faulkner County,AR,NA,80.81534772182253
72113,Pulaski County,AR,NA,46.043165467625904
72173,Faulkner County,AR,93.21100917431193,NA
72207,Pulaski County,AR,NA,76.01918465227818
72715,Benton County,AR,NA,94.60431654676259
72756,Benton County,AR,27.339449541284406,NA
72764,Washington County,AR,NA,58.752997601918466
72903,Sebastian County,AR,53.39449541284404,NA
90002,Los Angeles County,CA,NA,65.34772182254197
90015,Los Angeles County,CA,69.54128440366972,NA
90024,Los Angeles County,CA,NA,85.73141486810552
90035,Los Angeles County,CA,28.623853211009177,NA
90065,Los Angeles County,CA,NA,48.32134292565947
90066,Los Angeles County,CA,NA,54.91606714628298
90068,Los Angeles County,CA,NA,97.24220623501199
90266,Los Angeles County,CA,39.26605504587156,73.26139088729016
90275,Los Angeles County,CA,NA,7.913669064748201
90631,Orange County,CA,12.110091743119266,NA
90640,Los Angeles County,CA,NA,23.26139088729017
90650,Los Angeles County,CA,NA,70.38369304556355
90706,Los Angeles County,CA,NA,56.95443645083933
90712,Los Angeles County,CA,40.18348623853211,NA
90731,Los Angeles County,CA,69.1743119266055,NA
90740,Orange County,CA,NA,18.94484412470024
90806,Los Angeles County,CA,86.60550458715596,NA
90808,Los Angeles County,CA,66.42201834862385,NA
90815,Los Angeles County,CA,62.93577981651376,NA
91007,Los Angeles County,CA,NA,40.52757793764988
91011,Los Angeles County,CA,NA,58.39328537170264
91345,Los Angeles County,CA,85.5045871559633,NA
91406,Los Angeles County,CA,30.091743119266056,NA
91755,Los Angeles County,CA,NA,37.76978417266187
91766,Los Angeles County,CA,NA,28.05755395683453
91770,Los Angeles County,CA,80.36697247706422,NA
91901,San Diego County,CA,NA,55.875299760191844
91902,San Diego County,CA,NA,57.67386091127098
91911,San Diego County,CA,NA,7.434052757793765
91914,San Diego County,CA,96.69724770642202,NA
91942,San Diego County,CA,32.6605504587156,21.223021582733814
91977,San Diego County,CA,NA,27.937649880095922
92020,San Diego County,CA,5.688073394495413,NA
92021,San Diego County,CA,9.724770642201836,NA
92024,San Diego County,CA,80.91743119266054,24.820143884892087
92026,San Diego County,CA,NA,27.697841726618705
92057,San Diego County,CA,NA,63.30935251798561
92071,San Diego County,CA,NA,52.637889688249395
92078,San Diego County,CA,38.1651376146789,NA
92082,San Diego County,CA,67.70642201834862,NA
92101,San Diego County,CA,6.972477064220184,NA
92102,San Diego County,CA,NA,65.94724220623502
92111,San Diego County,CA,43.11926605504588,NA
92119,San Diego County,CA,66.60550458715596,NA
92120,San Diego County,CA,84.77064220183486,NA
92124,San Diego County,CA,65.68807339449542,NA
92130,San Diego County,CA,51.559633027522935,NA
92211,Riverside County,CA,52.293577981651374,46.882494004796165
92241,Riverside County,CA,99.63302752293578,NA
92270,Riverside County,CA,NA,48.561151079136685
92325,San Bernardino County,CA,76.69724770642202,NA
92354,San Bernardino County,CA,NA,49.76019184652279
92411,San Bernardino County,CA,31.376146788990827,NA
92505,Riverside County,CA,41.8348623853211,NA
92626,Orange County,CA,35.22935779816514,NA
92627,Orange County,CA,22.568807339449542,14.148681055155876
92629,Orange County,CA,NA,61.990407673860915
92646,Orange County,CA,NA,6.115107913669065
92648,Orange County,CA,87.33944954128441,16.30695443645084
92653,Orange County,CA,NA,92.92565947242207
92663,Orange County,CA,NA,50.719424460431654
92675,Orange County,CA,35.41284403669725,NA
92683,Orange County,CA,NA,4.07673860911271
92692,Orange County,CA,52.11009174311927,NA
92804,Orange County,CA,NA,19.06474820143885
92821,Orange County,CA,70.27522935779817,NA
92845,Orange County,CA,NA,81.77458033573141
92868,Orange County,CA,NA,88.12949640287769
93308,Kern County,CA,NA,93.28537170263789
93446,San Luis Obispo County,CA,NA,44.00479616306954
93555,Kern County,CA,NA,63.189448441246995
93562,San Bernardino County,CA,92.84403669724772,NA
93614,Madera County,CA,NA,74.70023980815348
93635,Merced County,CA,36.14678899082569,NA
93654,Fresno County,CA,NA,56.71462829736211
93703,Fresno County,CA,77.43119266055047,NA
93704,Fresno County,CA,NA,63.549160671462836
93706,Fresno County,CA,NA,75.65947242206235
93711,Fresno County,CA,NA,28.896882494004792
93720,Fresno County,CA,NA,41.36690647482014
93722,Fresno County,CA,NA,62.70983213429256
93726,Fresno County,CA,36.88073394495413,NA
93908,Monterey County,CA,74.6788990825688,NA
93923,Monterey County,CA,NA,86.6906474820144
93924,Monterey County,CA,NA,99.40047961630695
94022,Santa Clara County,CA,NA,82.85371702637889
94030,San Mateo County,CA,51.74311926605505,NA
94066,San Mateo County,CA,NA,9.832134292565947
94080,San Mateo County,CA,NA,16.906474820143885
94089,Santa Clara County,CA,NA,62.47002398081535
94115,San Francisco County,CA,28.440366972477065,NA
94404,San Mateo County,CA,NA,67.0263788968825
94507,Contra Costa County,CA,93.39449541284404,75.0599520383693
94521,Contra Costa County,CA,NA,18.705035971223023
94539,Alameda County,CA,45.87155963302752,NA
94544,Alameda County,CA,NA,16.786570743405278
94553,Contra Costa County,CA,20.55045871559633,NA
94556,Contra Costa County,CA,86.42201834862385,NA
94558,Napa County,CA,NA,96.76258992805755
94563,Contra Costa County,CA,NA,72.06235011990407
94587,Alameda County,CA,NA,11.630695443645084
94596,Contra Costa County,CA,73.94495412844037,89.68824940047962
94707,Alameda County,CA,92.66055045871559,NA
94804,Contra Costa County,CA,79.26605504587157,NA
94920,Marin County,CA,NA,83.21342925659472
94925,Marin County,CA,NA,98.8009592326139
94960,Marin County,CA,72.29357798165138,NA
95119,Santa Clara County,CA,90.82568807339449,NA
95125,Santa Clara County,CA,NA,21.70263788968825
95127,Santa Clara County,CA,NA,71.94244604316546
95205,San Joaquin County,CA,NA,70.86330935251799
95212,San Joaquin County,CA,91.19266055045871,NA
95236,San Joaquin County,CA,97.43119266055047,NA
95242,San Joaquin County,CA,NA,41.48681055155875
95252,Calaveras County,CA,58.532110091743114,NA
95326,Stanislaus County,CA,NA,88.48920863309353
95337,San Joaquin County,CA,NA,58.63309352517986
95348,Merced County,CA,81.65137614678899,NA
95356,Stanislaus County,CA,NA,49.88009592326139
95376,San Joaquin County,CA,26.972477064220186,NA
95404,Sonoma County,CA,NA,18.345323741007196
95437,Mendocino County,CA,NA,87.88968824940048
95492,Sonoma County,CA,NA,37.170263788968825
95501,Humboldt County,CA,NA,69.42446043165468
95521,Humboldt County,CA,71.37614678899082,NA
95531,Del Norte County,CA,84.58715596330275,NA
95603,Placer County,CA,NA,55.15587529976019
95610,Sacramento County,CA,NA,35.4916067146283
95623,El Dorado County,CA,92.4770642201835,NA
95624,Sacramento County,CA,NA,33.573141486810556
95628,Sacramento County,CA,31.009174311926607,21.103117505995204
95630,Sacramento County,CA,NA,19.784172661870503
95642,Amador County,CA,NA,97.3621103117506
95648,Placer County,CA,NA,7.1942446043165464
95660,Sacramento County,CA,49.54128440366973,NA
95662,Sacramento County,CA,NA,65.46762589928058
95667,El Dorado County,CA,NA,0.8393285371702638
95673,Sacramento County,CA,90.09174311926606,NA
95678,Placer County,CA,24.954128440366972,NA
95747,Placer County,CA,NA,8.992805755395683
95814,Sacramento County,CA,77.24770642201835,NA
95817,Sacramento County,CA,NA,86.93045563549161
96002,Shasta County,CA,80.18348623853211,NA
96130,Lassen County,CA,NA,69.7841726618705
80012,Arapahoe County,CO,NA,15.467625899280577
80022,Adams County,CO,30.458715596330276,NA
80023,Broomfield County,CO,NA,70.74340527577938
80109,Douglas County,CO,80.55045871559633,NA
80112,Arapahoe County,CO,NA,77.33812949640287
80120,Arapahoe County,CO,NA,41.12709832134293
80125,Douglas County,CO,NA,97.72182254196643
80210,Denver County,CO,NA,62.23021582733813
80401,Jefferson County,CO,40,NA
80537,Larimer County,CO,NA,17.985611510791365
80634,Weld County,CO,2.5688073394495414,NA
81005,Pueblo County,CO,16.51376146788991,NA
81147,Archuleta County,CO,NA,82.25419664268586
81212,Fremont County,CO,NA,30.815347721822544
81506,Mesa County,CO,NA,52.99760191846523
06010,Hartford County,CT,NA,1.9184652278177456
06013,Hartford County,CT,NA,94.96402877697841
06035,Hartford County,CT,99.26605504587155,NA
06040,Hartford County,CT,NA,20.503597122302157
06074,Hartford County,CT,43.853211009174316,NA
06085,Hartford County,CT,NA,95.56354916067147
06108,Hartford County,CT,NA,83.93285371702638
06109,Hartford County,CT,NA,25.65947242206235
06117,Hartford County,CT,78.71559633027523,NA
06410,New Haven County,CT,NA,66.90647482014388
06413,Middlesex County,CT,NA,39.4484412470024
06424,Middlesex County,CT,NA,89.44844124700239
06457,Middlesex County,CT,NA,7.553956834532374
06517,New Haven County,CT,NA,46.76258992805755
06614,Fairfield County,CT,NA,21.34292565947242
06801,Fairfield County,CT,47.33944954128441,NA
06883,Fairfield County,CT,NA,77.45803357314148
19701,New Castle County,DE,43.30275229357798,NA
19713,New Castle County,DE,NA,61.51079136690647
19805,New Castle County,DE,29.724770642201836,NA
19956,Sussex County,DE,68.9908256880734,NA
19966,Sussex County,DE,6.605504587155964,NA
32034,Nassau County,FL,NA,13.549160671462829
32043,Clay County,FL,NA,43.884892086330936
32082,St. Johns County,FL,NA,52.15827338129496
32136,Flagler County,FL,NA,66.18705035971223
32137,Flagler County,FL,NA,5.635491606714628
32162,Sumter County,FL,NA,76.378896882494
32169,Volusia County,FL,NA,87.76978417266187
32177,Putnam County,FL,NA,38.1294964028777
32401,Bay County,FL,21.28440366972477,NA
32408,Bay County,FL,81.8348623853211,NA
32428,Washington County,FL,NA,72.18225419664267
32431,Jackson County,FL,NA,93.16546762589928
32456,Gulf County,FL,51.37614678899083,NA
32504,Escambia County,FL,NA,17.62589928057554
32570,Santa Rosa County,FL,81.46788990825688,NA
32583,Santa Rosa County,FL,50.091743119266056,NA
32725,Volusia County,FL,98.53211009174312,NA
32789,Orange County,FL,NA,44.24460431654676
32835,Orange County,FL,NA,91.12709832134293
32907,Brevard County,FL,NA,15.827338129496402
32955,Brevard County,FL,NA,76.61870503597122
32960,Indian River County,FL,31.55963302752294,NA
32968,Indian River County,FL,NA,68.94484412470024
33062,Broward County,FL,NA,2.7577937649880093
33069,Broward County,FL,NA,11.151079136690647
33126,Miami-Dade County,FL,NA,17.1462829736211
33135,Miami-Dade County,FL,62.38532110091744,NA
33144,Miami-Dade County,FL,NA,12.589928057553957
33157,Miami-Dade County,FL,NA,50.35971223021583
33175,Miami-Dade County,FL,NA,13.788968824940047
33176,Miami-Dade County,FL,26.055045871559635,NA
33186,Miami-Dade County,FL,NA,21.942446043165468
33319,Broward County,FL,81.28440366972477,NA
33321,Broward County,FL,98.89908256880734,NA
33324,Broward County,FL,NA,74.58033573141488
33401,Palm Beach County,FL,NA,52.87769784172662
33404,Palm Beach County,FL,NA,35.73141486810552
33408,Palm Beach County,FL,NA,32.25419664268585
33410,Palm Beach County,FL,25.321100917431195,25.899280575539567
33480,Palm Beach County,FL,NA,30.935251798561154
33484,Palm Beach County,FL,NA,98.92086330935251
33511,Hillsborough County,FL,NA,84.05275779376498
33563,Hillsborough County,FL,51.74311926605505,NA
33572,Hillsborough County,FL,50.825688073394495,NA
33598,Hillsborough County,FL,NA,72.66187050359713
33603,Hillsborough County,FL,93.57798165137615,NA
33607,Hillsborough County,FL,NA,51.91846522781775
33625,Hillsborough County,FL,NA,84.89208633093526
33755,Pinellas County,FL,55.41284403669725,NA
33761,Pinellas County,FL,NA,80.2158273381295
33803,Polk County,FL,NA,29.016786570743403
33852,Highlands County,FL,NA,27.45803357314149
33950,Charlotte County,FL,NA,20.023980815347723
33954,Charlotte County,FL,NA,63.90887290167866
34103,Collier County,FL,NA,29.61630695443645
34113,Collier County,FL,NA,29.73621103117506
34119,Collier County,FL,19.26605504587156,NA
34145,Collier County,FL,NA,22.66187050359712
34209,Manatee County,FL,NA,87.29016786570743
34223,Sarasota County,FL,NA,25.77937649880096
34292,Sarasota County,FL,38.899082568807344,NA
34431,Marion County,FL,NA,78.41726618705036
34470,Marion County,FL,NA,37.410071942446045
34476,Marion County,FL,NA,54.43645083932853
34481,Marion County,FL,NA,10.67146282973621
34652,Pasco County,FL,NA,36.69064748201439
34668,Pasco County,FL,14.678899082568808,NA
34684,Pinellas County,FL,36.3302752293578,NA
34688,Pinellas County,FL,NA,90.88729016786571
34761,Orange County,FL,NA,25.539568345323744
34786,Orange County,FL,39.816513761467895,NA
34787,Orange County,FL,75.41284403669725,NA
34952,St. Lucie County,FL,NA,6.3549160671462825
34986,St. Lucie County,FL,NA,93.88489208633094
34990,Martin County,FL,NA,2.997601918465228
34997,Martin County,FL,49.357798165137616,NA
30008,Cobb County,GA,NA,71.70263788968825
30009,Fulton County,GA,NA,99.04076738609112
30012,Rockdale County,GA,NA,59.47242206235012
30040,Forsyth County,GA,NA,11.270983213429256
30041,Forsyth County,GA,8.256880733944955,NA
30064,Cobb County,GA,NA,55.275779376498804
30080,Cobb County,GA,NA,58.992805755395686
30083,DeKalb County,GA,NA,73.02158273381295
30102,Cherokee County,GA,NA,68.82494004796163
30117,Carroll County,GA,NA,24.700239808153476
30143,Pickens County,GA,27.889908256880737,NA
30147,Floyd County,GA,NA,92.44604316546763
30188,Cherokee County,GA,NA,61.15107913669065
30204,Lamar County,GA,NA,76.2589928057554
30286,Upson County,GA,43.48623853211009,NA
30427,Tattnall County,GA,NA,76.85851318944844
30513,Fannin County,GA,NA,92.08633093525181
30548,Jackson County,GA,70.45871559633028,NA
30736,Catoosa County,GA,47.1559633027523,NA
30802,Columbia County,GA,83.11926605504587,NA
30815,Richmond County,GA,37.247706422018354,46.52278177458034
31061,Baldwin County,GA,NA,28.53717026378897
31088,Houston County,GA,14.311926605504588,NA
31216,Bibb County,GA,NA,69.7841726618705
31316,Long County,GA,NA,90.52757793764988
31411,Chatham County,GA,NA,53.83693045563549
31545,Wayne County,GA,72.47706422018348,NA
31709,Sumter County,GA,NA,99.16067146282974
31763,Lee County,GA,NA,73.50119904076739
31768,Colquitt County,GA,NA,52.038369304556355
31904,Muscogee County,GA,NA,13.189448441247004
39842,Terrell County,GA,57.247706422018354,NA
96727,Hawaii County,HI,NA,98.44124700239809
96734,Honolulu County,HI,NA,33.21342925659472
96740,Hawaii County,HI,52.66055045871559,97.96163069544365
96744,Honolulu County,HI,3.1192660550458715,20.38369304556355
96749,Hawaii County,HI,NA,97.12230215827337
96753,Maui County,HI,64.95412844036697,83.57314148681056
96790,Maui County,HI,NA,92.68585131894484
96815,Honolulu County,HI,NA,49.280575539568346
96819,Honolulu County,HI,NA,50
96821,Honolulu County,HI,63.11926605504588,NA
96822,Honolulu County,HI,46.42201834862386,NA
96825,Honolulu County,HI,NA,22.54196642685851
96826,Honolulu County,HI,NA,29.136690647482016
83301,Twin Falls County,ID,0.9174311926605505,2.278177458033573
83316,Twin Falls County,ID,NA,23.381294964028775
83330,Gooding County,ID,NA,85.85131894484412
83338,Jerome County,ID,NA,33.45323741007194
83340,Blaine County,ID,NA,93.64508393285371
83616,Ada County,ID,7.522935779816514,NA
83646,Ada County,ID,NA,3.7170263788968825
83651,Canyon County,ID,8.623853211009175,NA
83705,Ada County,ID,NA,87.41007194244604
60004,Cook County,IL,NA,7.1942446043165464
60005,Cook County,IL,NA,74.82014388489209
60025,Cook County,IL,21.467889908256883,3.357314148681055
60041,Lake County,IL,NA,95.20383693045564
60045,Lake County,IL,NA,11.390887290167866
60056,Cook County,IL,NA,27.33812949640288
60061,Lake County,IL,40.36697247706422,NA
60076,Cook County,IL,16.14678899082569,NA
60093,Cook County,IL,40.73394495412844,NA
60098,McHenry County,IL,9.908256880733946,NA
60106,DuPage County,IL,NA,61.031175059952034
60164,Cook County,IL,NA,50.59952038369304
60185,DuPage County,IL,21.100917431192663,41.726618705035975
60201,Cook County,IL,NA,4.916067146282973
60406,Cook County,IL,NA,47.24220623501199
60409,Cook County,IL,NA,61.270983213429254
60423,Will County,IL,49.908256880733944,NA
60447,Grundy County,IL,66.05504587155964,NA
60452,Cook County,IL,32.29357798165138,NA
60459,Cook County,IL,73.76146788990826,NA
60505,Kane County,IL,32.11009174311927,NA
60513,Cook County,IL,NA,51.55875299760192
60516,DuPage County,IL,21.834862385321102,NA
60523,DuPage County,IL,NA,33.932853717026376
60607,Cook County,IL,36.69724770642202,NA
60622,Cook County,IL,35.59633027522936,NA
60625,Cook County,IL,37.06422018348624,NA
60641,Cook County,IL,NA,18.82494004796163
60657,Cook County,IL,9.357798165137615,NA
60659,Cook County,IL,19.63302752293578,NA
60660,Cook County,IL,NA,29.856115107913666
61073,Winnebago County,IL,NA,43.28537170263789
61081,Whiteside County,IL,10.825688073394495,NA
61101,Winnebago County,IL,NA,36.45083932853717
61265,Rock Island County,IL,NA,11.750599520383693
61362,Bureau County,IL,NA,69.54436450839329
61607,Peoria County,IL,NA,62.70983213429256
61611,Tazewell County,IL,31.743119266055047,NA
61614,Peoria County,IL,NA,84.29256594724221
61853,Champaign County,IL,90.45871559633028,NA
61944,Edgar County,IL,NA,94.24460431654677
62010,Madison County,IL,58.89908256880734,NA
62095,Madison County,IL,NA,45.32374100719424
62305,Adams County,IL,NA,60.19184652278178
62471,Fayette County,IL,46.60550458715596,NA
62521,Macon County,IL,NA,3.5971223021582732
62618,Cass County,IL,75.59633027522936,NA
62656,Logan County,IL,NA,42.805755395683455
62702,Sangamon County,IL,NA,63.549160671462836
62837,Wayne County,IL,61.284403669724774,NA
46012,Madison County,IN,NA,60.5515587529976
46135,Putnam County,IN,NA,31.654676258992804
46217,Marion County,IN,23.119266055045873,NA
46228,Marion County,IN,NA,87.52997601918466
46237,Marion County,IN,NA,12.23021582733813
46321,Lake County,IN,11.743119266055047,NA
46322,Lake County,IN,17.431192660550458,NA
46324,Lake County,IN,NA,40.40767386091127
46383,Porter County,IN,NA,98.20143884892086
46511,Marshall County,IN,NA,97.00239808153476
46628,St. Joseph County,IN,38.34862385321101,NA
46777,Wells County,IN,NA,88.60911270983213
46808,Allen County,IN,52.477064220183486,NA
47112,Harrison County,IN,NA,56.11510791366906
47331,Fayette County,IN,NA,6.474820143884892
47408,Monroe County,IN,94.86238532110092,NA
47501,Daviess County,IN,NA,18.10551558752998
47546,Dubois County,IN,NA,22.781774580335732
47802,Vigo County,IN,95.96330275229357,NA
47805,Vigo County,IN,86.78899082568807,NA
47834,Clay County,IN,41.10091743119266,NA
47885,Vigo County,IN,63.6697247706422,NA
47905,Tippecanoe County,IN,NA,13.309352517985612
47909,Tippecanoe County,IN,NA,31.05515587529976
47960,White County,IN,NA,31.774580335731418
50010,Story County,IA,NA,60.671462829736214
50401,Cerro Gordo County,IA,NA,9.712230215827338
50588,Buena Vista County,IA,75.96330275229359,NA
50616,Floyd County,IA,NA,80.93525179856115
50702,Black Hawk County,IA,68.62385321100918,NA
51301,Clay County,IA,NA,82.13429256594725
51360,Dickinson County,IA,NA,45.20383693045564
51537,Shelby County,IA,NA,39.68824940047961
51601,Page County,IA,59.63302752293578,NA
52002,Dubuque County,IA,NA,69.6642685851319
52101,Winneshiek County,IA,54.862385321100916,23.501199040767386
52136,Howard County,IA,NA,71.46282973621103
52205,Jones County,IA,NA,66.54676258992805
52240,Johnson County,IA,NA,21.942446043165468
52722,Scott County,IA,NA,51.798561151079134
52732,Clinton County,IA,NA,35.61151079136691
52761,Muscatine County,IA,9.174311926605505,NA
52806,Scott County,IA,NA,34.65227817745804
66046,Douglas County,KS,74.12844036697248,NA
66062,Johnson County,KS,NA,14.86810551558753
66071,Miami County,KS,NA,67.26618705035972
66103,Wyandotte County,KS,NA,88.72901678657075
66104,Wyandotte County,KS,66.78899082568807,NA
66109,Wyandotte County,KS,NA,25.41966426858513
66206,Johnson County,KS,NA,66.42685851318944
66604,Shawnee County,KS,NA,32.61390887290168
66614,Shawnee County,KS,13.211009174311927,NA
66749,Allen County,KS,NA,53.11750599520384
67846,Finney County,KS,48.62385321100918,NA
40033,Marion County,KY,NA,81.17505995203837
40047,Bullitt County,KY,45.321100917431195,NA
40220,Jefferson County,KY,NA,50.47961630695443
40229,Jefferson County,KY,13.577981651376147,NA
40342,Anderson County,KY,NA,67.26618705035972
40371,Bath County,KY,98.71559633027523,NA
40419,Lincoln County,KY,88.80733944954129,NA
40502,Fayette County,KY,NA,36.57074340527578
40831,Harlan County,KY,NA,85.85131894484412
40977,Bell County,KY,59.082568807339456,NA
41537,Letcher County,KY,NA,99.76019184652279
42066,Graves County,KY,NA,28.177458033573146
42071,Calloway County,KY,79.63302752293579,NA
42134,Simpson County,KY,NA,46.642685851318944
42539,Casey County,KY,NA,85.4916067146283
42726,Grayson County,KY,NA,96.64268585131894
70001,Jefferson Parish,LA,NA,8.633093525179856
70005,Jefferson Parish,LA,87.5229357798165,NA
70118,Orleans Parish,LA,13.027522935779817,NA
70121,Jefferson Parish,LA,50.64220183486239,NA
70124,Orleans Parish,LA,NA,77.93764988009593
70301,Lafourche Parish,LA,NA,13.069544364508392
70394,Lafourche Parish,LA,23.669724770642205,NA
70401,Tangipahoa Parish,LA,60.550458715596335,NA
70452,St. Tammany Parish,LA,24.403669724770644,NA
70461,St. Tammany Parish,LA,13.394495412844037,NA
70471,St. Tammany Parish,LA,13.944954128440369,NA
70506,Lafayette Parish,LA,NA,52.757793764988016
70510,Vermilion Parish,LA,85.13761467889908,NA
70526,Acadia Parish,LA,56.513761467889914,NA
70529,Lafayette Parish,LA,75.04587155963303,NA
70535,St. Landry Parish,LA,33.57798165137615,NA
70601,Calcasieu Parish,LA,6.422018348623854,NA
70767,West Baton Rouge Parish,LA,58.532110091743114,NA
70811,East Baton Rouge Parish,LA,85.68807339449542,69.18465227817747
71129,Caddo Parish,LA,56.330275229357795,NA
71232,Richland Parish,LA,NA,85.25179856115108
71302,Rapides Parish,LA,NA,43.04556354916067
71342,La Salle Parish,LA,NA,78.05755395683454
71351,Avoyelles Parish,LA,NA,62.35011990407674
03908,York County,ME,NA,88.96882494004797
04064,York County,ME,NA,27.098321342925658
04074,Cumberland County,ME,48.07339449541285,NA
04086,Sagadahoc County,ME,NA,39.20863309352518
04102,Cumberland County,ME,28.990825688073397,NA
04106,Cumberland County,ME,26.422018348623855,60.671462829736214
04401,Penobscot County,ME,2.0183486238532113,NA
04457,Penobscot County,ME,NA,80.45563549160671
04736,Aroostook County,ME,32.84403669724771,NA
04769,Aroostook County,ME,NA,13.42925659472422
04937,Somerset County,ME,NA,70.26378896882494
04963,Kennebec County,ME,56.88073394495413,NA
20659,St. Mary's County,MD,NA,75.53956834532374
20852,Montgomery County,MD,NA,20.983213429256594
20853,Montgomery County,MD,62.018348623853214,NA
20854,Montgomery County,MD,25.504587155963304,NA
21050,Harford County,MD,63.30275229357798,NA
21111,Baltimore County,MD,NA,95.92326139088729
21113,Anne Arundel County,MD,89.17431192660551,NA
21120,Baltimore County,MD,NA,89.08872901678657
21131,Baltimore County,MD,NA,91.60671462829735
21218,Baltimore city,MD,8.440366972477065,NA
21227,Baltimore County,MD,37.98165137614679,24.34052757793765
21234,Baltimore County,MD,6.055045871559633,3.8369304556354913
21502,Allegany County,MD,NA,5.275779376498801
21620,Kent County,MD,NA,42.20623501199041
21702,Frederick County,MD,NA,38.1294964028777
21793,Frederick County,MD,NA,96.28297362110312
21811,Worcester County,MD,NA,47.3621103117506
21851,Worcester County,MD,87.70642201834863,NA
21919,Cecil County,MD,97.61467889908258,NA
01013,Hampden County,MA,97.79816513761467,NA
01033,Hampshire County,MA,75.77981651376146,NA
01040,Hampden County,MA,NA,0.3597122302158274
01082,Hampshire County,MA,84.95412844036697,NA
01119,Hampden County,MA,NA,46.28297362110312
01226,Berkshire County,MA,NA,59.11270983213429
01420,Worcester County,MA,NA,24.46043165467626
01453,Worcester County,MA,NA,43.76498800959233
01501,Worcester County,MA,NA,68.10551558752998
01534,Worcester County,MA,NA,97.84172661870504
01569,Worcester County,MA,24.587155963302752,NA
01605,Worcester County,MA,NA,23.621103117505996
01730,Middlesex County,MA,NA,81.5347721822542
01801,Middlesex County,MA,NA,10.071942446043165
01803,Middlesex County,MA,NA,1.3189448441247003
01810,Essex County,MA,41.65137614678899,NA
01841,Essex County,MA,NA,1.7985611510791366
01845,Essex County,MA,NA,18.10551558752998
01876,Middlesex County,MA,NA,6.594724220623502
01890,Middlesex County,MA,73.21100917431193,NA
01907,Essex County,MA,57.98165137614679,NA
01915,Essex County,MA,NA,9.352517985611511
01938,Essex County,MA,NA,68.34532374100719
01940,Essex County,MA,NA,16.18705035971223
01950,Essex County,MA,17.06422018348624,15.827338129496402
01960,Essex County,MA,44.95412844036697,NA
01970,Essex County,MA,NA,5.39568345323741
02025,Norfolk County,MA,NA,77.57793764988008
02052,Norfolk County,MA,NA,95.68345323741008
02061,Plymouth County,MA,NA,100
02062,Norfolk County,MA,8.073394495412845,NA
02066,Plymouth County,MA,NA,48.201438848920866
02090,Norfolk County,MA,57.064220183486235,NA
02115,Suffolk County,MA,NA,2.3980815347721824
02120,Suffolk County,MA,78.89908256880734,NA
02128,Suffolk County,MA,NA,4.1966426858513195
02130,Suffolk County,MA,NA,3.117505995203837
02132,Suffolk County,MA,2.385321100917431,NA
02135,Suffolk County,MA,7.155963302752294,NA
02136,Suffolk County,MA,NA,5.0359712230215825
02151,Suffolk County,MA,NA,0
02152,Suffolk County,MA,28.073394495412845,79.13669064748201
02169,Norfolk County,MA,0,19.424460431654676
02301,Plymouth County,MA,2.7522935779816518,NA
02346,Plymouth County,MA,NA,25.179856115107913
02445,Norfolk County,MA,NA,23.860911270983213
02459,Middlesex County,MA,48.80733944954129,NA
02474,Middlesex County,MA,NA,55.51558752997602
02482,Norfolk County,MA,NA,72.3021582733813
02540,Barnstable County,MA,NA,98.08153477218225
02601,Barnstable County,MA,NA,34.53237410071942
02635,Barnstable County,MA,NA,52.15827338129496
02703,Bristol County,MA,0.5504587155963303,NA
02720,Bristol County,MA,NA,32.61390887290168
48017,Oakland County,MI,64.03669724770641,57.194244604316545
48038,Macomb County,MI,NA,2.7577937649880093
48042,Macomb County,MI,20,22.302158273381295
48060,St. Clair County,MI,22.201834862385322,NA
48092,Macomb County,MI,14.862385321100918,57.434052757793765
48103,Washtenaw County,MI,1.2844036697247707,NA
48105,Washtenaw County,MI,58.34862385321101,NA
48116,Livingston County,MI,NA,9.47242206235012
48128,Wayne County,MI,69.72477064220183,NA
48152,Wayne County,MI,44.22018348623853,NA
48158,Washtenaw County,MI,NA,75.17985611510791
48167,Oakland County,MI,NA,10.79136690647482
48168,Wayne County,MI,NA,57.07434052757794
48170,Wayne County,MI,3.302752293577982,NA
48174,Wayne County,MI,70.09174311926606,NA
48176,Washtenaw County,MI,17.79816513761468,78.53717026378897
48182,Monroe County,MI,31.926605504587158,NA
48183,Wayne County,MI,23.853211009174313,NA
48195,Wayne County,MI,82.93577981651377,NA
48209,Wayne County,MI,69.35779816513762,NA
48304,Oakland County,MI,71.55963302752293,NA
48314,Macomb County,MI,28.807339449541285,NA
48335,Oakland County,MI,42.38532110091743,NA
48381,Oakland County,MI,NA,74.22062350119904
48382,Oakland County,MI,NA,80.69544364508393
48430,Genesee County,MI,NA,17.38609112709832
48507,Genesee County,MI,NA,64.26858513189448
48611,Bay County,MI,89.54128440366974,NA
48623,Saginaw County,MI,37.79816513761468,NA
48624,Gladwin County,MI,NA,17.74580335731415
48631,Bay County,MI,NA,79.85611510791367
48653,Roscommon County,MI,57.43119266055046,NA
48706,Bay County,MI,1.651376146788991,1.6786570743405276
48723,Tuscola County,MI,16.88073394495413,NA
48813,Eaton County,MI,NA,27.577937649880095
48910,Ingham County,MI,NA,27.81774580335731
49015,Calhoun County,MI,21.65137614678899,NA
49036,Branch County,MI,16.69724770642202,NA
49202,Jackson County,MI,NA,19.424460431654676
49203,Jackson County,MI,59.816513761467895,29.256594724220626
49306,Kent County,MI,NA,74.46043165467626
49315,Kent County,MI,NA,65.94724220623502
49417,Ottawa County,MI,NA,12.470023980815348
49423,Ottawa County,MI,NA,4.436450839328537
49431,Mason County,MI,NA,18.345323741007196
49441,Muskegon County,MI,4.036697247706423,NA
49505,Kent County,MI,NA,14.508393285371701
49635,Benzie County,MI,NA,70.14388489208633
49659,Antrim County,MI,93.76146788990826,NA
49690,Grand Traverse County,MI,NA,99.28057553956835
49855,Marquette County,MI,NA,20.14388489208633
49868,Luce County,MI,81.10091743119267,NA
55057,Rice County,MN,NA,58.153477218225426
55076,Dakota County,MN,NA,57.67386091127098
55082,Washington County,MN,NA,38.1294964028777
55115,Washington County,MN,92.29357798165138,NA
55119,Ramsey County,MN,NA,34.412470023980816
55129,Washington County,MN,NA,78.17745803357315
55350,McLeod County,MN,22.93577981651376,NA
55421,Anoka County,MN,NA,34.77218225419664
55437,Hennepin County,MN,NA,47.721822541966425
55744,Itasca County,MN,NA,46.28297362110312
55803,St. Louis County,MN,NA,60.671462829736214
55807,St. Louis County,MN,NA,51.07913669064749
55987,Winona County,MN,NA,1.079136690647482
56007,Freeborn County,MN,5.871559633027523,0.7194244604316548
56101,Cottonwood County,MN,NA,64.86810551558753
56156,Rock County,MN,77.79816513761469,NA
56258,Lyon County,MN,NA,36.21103117505996
56470,Hubbard County,MN,NA,30.215827338129497
56515,Otter Tail County,MN,NA,56.83453237410072
56573,Otter Tail County,MN,NA,83.09352517985612
56601,Beltrami County,MN,1.4678899082568808,NA
38655,Lafayette County,MS,57.61467889908257,NA
38668,Tate County,MS,NA,71.34292565947243
38804,Lee County,MS,NA,65.22781774580336
39038,Humphreys County,MS,NA,92.80575539568345
39059,Copiah County,MS,75.22935779816514,NA
39073,Rankin County,MS,51.00917431192661,NA
39090,Attala County,MS,NA,68.5851318944844
39114,Simpson County,MS,NA,68.22541966426859
39120,Adams County,MS,NA,36.330935251798564
39183,Warren County,MS,NA,71.1031175059952
39208,Rankin County,MS,NA,21.58273381294964
39402,Lamar County,MS,NA,44.724220623501196
39439,Jasper County,MS,91.37614678899084,NA
39574,Harrison County,MS,45.321100917431195,NA
39730,Monroe County,MS,NA,78.77697841726618
63021,St. Louis County,MO,NA,30.455635491606714
63034,St. Louis County,MO,43.669724770642205,NA
63069,Franklin County,MO,87.88990825688073,NA
63119,St. Louis County,MO,NA,7.074340527577938
63120,St. Louis city,MO,73.02752293577981,NA
63125,St. Louis County,MO,NA,40.647482014388494
63366,St. Charles County,MO,NA,8.752997601918464
63383,Warren County,MO,NA,37.52997601918465
63601,St. Francois County,MO,NA,57.9136690647482
63664,Washington County,MO,NA,53.597122302158276
63775,Perry County,MO,NA,19.06474820143885
64037,Lafayette County,MO,71.19266055045873,NA
64055,Jackson County,MO,27.706422018348626,41.84652278177458
64064,Jackson County,MO,36.51376146788991,NA
64078,Cass County,MO,NA,86.45083932853717
64085,Ray County,MO,53.76146788990825,NA
64116,Clay County,MO,NA,43.04556354916067
64132,Jackson County,MO,44.03669724770643,NA
64133,Jackson County,MO,NA,23.021582733812952
64151,Platte County,MO,NA,90.28776978417267
64155,Clay County,MO,15.59633027522936,NA
64482,Atchison County,MO,95.59633027522936,NA
64503,Buchanan County,MO,73.57798165137615,NA
64506,Buchanan County,MO,NA,12.829736211031175
64730,Bates County,MO,NA,49.040767386091126
64772,Vernon County,MO,72.8440366972477,NA
64850,Newton County,MO,14.495412844036698,NA
65013,Maries County,MO,NA,86.810551558753
65018,Moniteau County,MO,NA,90.7673860911271
65084,Morgan County,MO,83.4862385321101,NA
65340,Saline County,MO,94.4954128440367,65.10791366906474
65355,Benton County,MO,64.40366972477064,NA
65706,Webster County,MO,NA,51.67865707434053
59404,Cascade County,MT,NA,11.031175059952037
59425,Pondera County,MT,96.88073394495413,NA
59801,Missoula County,MT,NA,49.52038369304556
59917,Lincoln County,MT,NA,71.46282973621103
68114,Douglas County,NE,NA,39.68824940047961
68305,Nemaha County,NE,91.37614678899084,NA
68506,Lancaster County,NE,NA,79.25659472422062
68701,Madison County,NE,NA,67.86570743405275
89108,Clark County,NV,NA,28.297362110311752
89183,Clark County,NV,72.11009174311927,NA
89701,Carson City,NV,33.39449541284404,NA
03049,Hillsborough County,NH,61.100917431192656,NA
03102,Hillsborough County,NH,10.642201834862385,NA
03431,Cheshire County,NH,20.18348623853211,NA
03570,Coos County,NH,NA,79.49640287769785
03576,Coos County,NH,91.00917431192661,NA
03835,Strafford County,NH,NA,92.56594724220624
03860,Carroll County,NH,NA,53.956834532374096
03865,Rockingham County,NH,60.73394495412844,NA
03874,Rockingham County,NH,74.86238532110092,NA
07012,Passaic County,NJ,NA,68.94484412470024
07052,Essex County,NJ,38.71559633027523,91.00719424460432
07066,Union County,NJ,NA,40.88729016786571
07093,Hudson County,NJ,NA,47.122302158273385
07095,Middlesex County,NJ,NA,89.92805755395683
07675,Bergen County,NJ,88.44036697247707,NA
07733,Monmouth County,NJ,62.56880733944954,NA
07747,Monmouth County,NJ,NA,77.57793764988008
07823,Warren County,NJ,NA,56.594724220623505
07960,Morris County,NJ,NA,17.26618705035971
08204,Cape May County,NJ,15.045871559633028,NA
08302,Cumberland County,NJ,NA,21.822541966426858
08723,Ocean County,NJ,NA,32.25419664268585
08724,Ocean County,NJ,11.009174311926607,NA
08757,Ocean County,NJ,3.853211009174312,NA
08759,Ocean County,NJ,1.1009174311926606,NA
08807,Somerset County,NJ,NA,31.414868105515588
08820,Middlesex County,NJ,18.53211009174312,NA
08833,Hunterdon County,NJ,80,NA
08835,Somerset County,NJ,90.27522935779817,NA
87107,Bernalillo County,NM,15.77981651376147,NA
87111,Bernalillo County,NM,33.02752293577982,NA
87505,Santa Fe County,NM,NA,98.32134292565947
88005,Doa Ana County,NM,NA,41.007194244604314
88201,Chaves County,NM,NA,90.64748201438849
88310,Otero County,NM,NA,4.796163069544365
10016,New York County,NY,39.44954128440367,NA
10065,New York County,NY,78.53211009174312,68.70503597122301
10075,New York County,NY,95.04587155963303,45.44364508393286
10451,Bronx County,NY,NA,4.676258992805756
10458,Bronx County,NY,NA,5.0359712230215825
10461,Bronx County,NY,NA,20.26378896882494
10462,Bronx County,NY,NA,5.755395683453238
10463,Bronx County,NY,NA,49.16067146282973
10467,Bronx County,NY,4.954128440366973,0.9592326139088728
10601,Westchester County,NY,NA,69.30455635491607
10990,Orange County,NY,99.81651376146789,NA
11203,Kings County,NY,4.587155963302752,NA
11206,Kings County,NY,NA,3.9568345323741005
11212,Kings County,NY,0.3669724770642202,NA
11230,Kings County,NY,6.7889908256880735,NA
11235,Kings County,NY,38.53211009174312,54.79616306954437
11364,Queens County,NY,85.13761467889908,NA
11372,Queens County,NY,NA,33.33333333333333
11373,Queens County,NY,11.192660550458717,16.666666666666664
11415,Queens County,NY,60.366972477064216,67.0263788968825
11422,Queens County,NY,96.5137614678899,NA
11542,Nassau County,NY,NA,29.496402877697843
11559,Nassau County,NY,NA,99.64028776978418
11560,Nassau County,NY,100,NA
11596,Nassau County,NY,NA,89.20863309352518
11701,Suffolk County,NY,NA,64.5083932853717
11726,Suffolk County,NY,NA,59.592326139088726
11733,Suffolk County,NY,77.61467889908256,NA
11743,Suffolk County,NY,NA,11.870503597122301
11755,Suffolk County,NY,NA,99.52038369304557
11762,Nassau County,NY,NA,34.2925659472422
11779,Suffolk County,NY,NA,30.69544364508393
11798,Suffolk County,NY,NA,96.88249400479616
11801,Nassau County,NY,42.201834862385326,NA
12010,Montgomery County,NY,42.018348623853214,NA
12306,Schenectady County,NY,NA,36.09112709832134
12538,Dutchess County,NY,49.174311926605505,46.16306954436451
12540,Dutchess County,NY,96.1467889908257,NA
12866,Saratoga County,NY,NA,7.673860911270983
12901,Clinton County,NY,NA,5.515587529976019
13053,Tompkins County,NY,76.5137614678899,NA
13077,Cortland County,NY,NA,95.80335731414868
13135,Oswego County,NY,75.96330275229359,NA
13215,Onondaga County,NY,NA,61.63069544364509
13326,Otsego County,NY,NA,26.378896882494008
13340,Herkimer County,NY,NA,55.75539568345324
13357,Herkimer County,NY,44.77064220183487,NA
13440,Oneida County,NY,NA,7.793764988009593
13669,St. Lawrence County,NY,NA,44.96402877697842
14006,Erie County,NY,NA,83.33333333333334
14072,Erie County,NY,26.605504587155966,NA
14086,Erie County,NY,NA,52.39808153477218
14094,Niagara County,NY,55.22935779816513,NA
14210,Erie County,NY,NA,70.62350119904077
14221,Erie County,NY,NA,11.510791366906476
14224,Erie County,NY,NA,36.810551558753
14304,Niagara County,NY,NA,60.431654676258994
14482,Genesee County,NY,NA,83.69304556354916
14519,Wayne County,NY,19.449541284403672,NA
14564,Ontario County,NY,NA,31.894484412470025
14609,Monroe County,NY,NA,15.587529976019185
14612,Monroe County,NY,58.1651376146789,NA
14623,Monroe County,NY,NA,35.37170263788969
14625,Monroe County,NY,33.94495412844037,NA
14715,Allegany County,NY,89.54128440366974,NA
14750,Chautauqua County,NY,NA,82.37410071942446
14830,Steuben County,NY,22.385321100917434,NA
27006,Davie County,NC,NA,14.388489208633093
27012,Forsyth County,NC,NA,28.41726618705036
27018,Yadkin County,NC,NA,73.7410071942446
27030,Surry County,NC,NA,73.98081534772182
27040,Forsyth County,NC,54.12844036697248,NA
27053,Stokes County,NC,NA,76.13908872901679
27103,Forsyth County,NC,NA,0.5995203836930456
27104,Forsyth County,NC,NA,2.038369304556355
27262,Guilford County,NC,49.72477064220184,NA
27282,Guilford County,NC,NA,55.63549160671462
27292,Davidson County,NC,0.7339449541284404,NA
27295,Davidson County,NC,NA,1.1990407673860912
27312,Chatham County,NC,12.660550458715598,NA
27330,Lee County,NC,NA,23.980815347721823
27360,Davidson County,NC,NA,35.851318944844124
27502,Wake County,NC,NA,47.84172661870504
27513,Wake County,NC,44.403669724770644,NA
27516,Orange County,NC,8.990825688073395,NA
27536,Vance County,NC,NA,91.84652278177458
27537,Vance County,NC,NA,37.29016786570744
27539,Wake County,NC,NA,77.21822541966426
27577,Johnston County,NC,23.486238532110093,NA
27705,Durham County,NC,NA,48.08153477218225
27870,Halifax County,NC,22.018348623853214,NA
27886,Edgecombe County,NC,34.31192660550459,NA
27932,Chowan County,NC,80.73394495412845,NA
27948,Dare County,NC,94.12844036697248,NA
27958,Currituck County,NC,NA,86.09112709832134
28083,Cabarrus County,NC,NA,28.776978417266186
28115,Iredell County,NC,NA,26.139088729016784
28139,Rutherford County,NC,NA,45.92326139088729
28205,Mecklenburg County,NC,18.71559633027523,NA
28214,Mecklenburg County,NC,70.64220183486239,NA
28374,Moore County,NC,41.284403669724774,38.60911270983213
28376,Hoke County,NC,24.036697247706424,NA
28387,Moore County,NC,NA,38.00959232613909
28433,Bladen County,NC,86.23853211009175,NA
28546,Onslow County,NC,NA,62.94964028776978
28562,Craven County,NC,NA,41.247002398081534
28712,Transylvania County,NC,NA,8.273381294964029
28734,Macon County,NC,6.238532110091743,39.328537170263786
28791,Henderson County,NC,NA,12.11031175059952
58503,Burleigh County,ND,NA,29.856115107913666
58554,Morton County,ND,53.39449541284404,NA
58801,Williams County,ND,NA,43.4052757793765
43016,Franklin County,OH,NA,35.011990407673856
43055,Licking County,OH,22.752293577981654,NA
43065,Delaware County,OH,NA,38.72901678657074
43082,Delaware County,OH,30.275229357798167,NA
43213,Franklin County,OH,79.44954128440367,NA
43215,Franklin County,OH,68.44036697247707,NA
43224,Franklin County,OH,39.08256880733945,NA
43229,Franklin County,OH,NA,16.426858513189448
43334,Morrow County,OH,51.19266055045871,NA
43551,Wood County,OH,5.321100917431193,NA
43560,Lucas County,OH,NA,19.304556354916066
43614,Lucas County,OH,7.889908256880735,15.227817745803357
43615,Lucas County,OH,19.08256880733945,NA
43623,Lucas County,OH,17.98165137614679,NA
43701,Muskingum County,OH,0.1834862385321101,NA
43793,Monroe County,OH,NA,67.62589928057554
43906,Belmont County,OH,68.25688073394495,NA
43938,Jefferson County,OH,93.02752293577981,NA
43947,Belmont County,OH,NA,93.4052757793765
43950,Belmont County,OH,NA,23.741007194244602
44012,Lorain County,OH,5.5045871559633035,5.995203836930456
44030,Ashtabula County,OH,10.275229357798166,NA
44035,Lorain County,OH,NA,2.158273381294964
44056,Summit County,OH,NA,93.5251798561151
44092,Lake County,OH,NA,8.872901678657074
44109,Cuyahoga County,OH,2.2018348623853212,NA
44110,Cuyahoga County,OH,NA,34.89208633093525
44113,Cuyahoga County,OH,29.541284403669728,NA
44116,Cuyahoga County,OH,NA,4.316546762589928
44118,Cuyahoga County,OH,7.339449541284404,NA
44124,Cuyahoga County,OH,NA,0.1199040767386091
44126,Cuyahoga County,OH,NA,30.575539568345324
44141,Cuyahoga County,OH,NA,64.38848920863309
44144,Cuyahoga County,OH,27.522935779816514,NA
44145,Cuyahoga County,OH,NA,2.6378896882494005
44147,Cuyahoga County,OH,NA,23.14148681055156
44212,Medina County,OH,NA,16.546762589928058
44224,Summit County,OH,NA,8.513189448441247
44256,Medina County,OH,63.48623853211009,NA
44425,Trumbull County,OH,18.1651376146789,NA
44446,Trumbull County,OH,11.559633027522937,NA
44615,Carroll County,OH,42.935779816513765,NA
44646,Stark County,OH,34.67889908256881,NA
44683,Tuscarawas County,OH,NA,95.44364508393285
44691,Wayne County,OH,NA,10.79136690647482
44708,Stark County,OH,NA,47.00239808153477
44718,Stark County,OH,NA,45.08393285371702
44820,Crawford County,OH,NA,19.664268585131893
44827,Crawford County,OH,65.5045871559633,NA
44857,Huron County,OH,47.522935779816514,NA
44870,Erie County,OH,2.9357798165137616,NA
45013,Butler County,OH,NA,3.477218225419664
45066,Warren County,OH,NA,51.199040767386094
45106,Clermont County,OH,54.49541284403669,NA
45140,Clermont County,OH,NA,50.23980815347721
45240,Hamilton County,OH,NA,43.4052757793765
45243,Hamilton County,OH,NA,96.0431654676259
45429,Montgomery County,OH,NA,15.347721822541965
45440,Montgomery County,OH,NA,45.563549160671464
45503,Clark County,OH,8.807339449541285,9.112709832134293
45601,Ross County,OH,15.045871559633028,20.743405275779374
45631,Gallia County,OH,7.522935779816514,NA
45638,Lawrence County,OH,3.486238532110092,NA
45660,Adams County,OH,NA,90.40767386091127
45662,Scioto County,OH,NA,20.503597122302157
45663,Scioto County,OH,NA,64.98800959232614
45680,Lawrence County,OH,NA,29.856115107913666
45807,Allen County,OH,NA,95.08393285371703
45840,Hancock County,OH,NA,6.83453237410072
45874,Van Wert County,OH,99.44954128440368,NA
73010,McClain County,OK,NA,78.8968824940048
73034,Oklahoma County,OK,9.541284403669724,NA
73036,Canadian County,OK,NA,79.0167865707434
73045,Oklahoma County,OK,NA,58.153477218225426
73064,Canadian County,OK,34.12844036697248,NA
73099,Canadian County,OK,4.770642201834862,NA
73120,Oklahoma County,OK,NA,12.709832134292565
73129,Oklahoma County,OK,64.58715596330276,NA
73142,Oklahoma County,OK,68.80733944954129,NA
73448,Love County,OK,NA,77.09832134292566
73703,Garfield County,OK,NA,53.47721822541966
74006,Washington County,OK,62.75229357798165,NA
74023,Payne County,OK,45.87155963302752,NA
74066,Creek County,OK,NA,74.9400479616307
74127,Tulsa County,OK,82.01834862385321,NA
74129,Tulsa County,OK,NA,86.21103117505994
74133,Tulsa County,OK,66.23853211009174,NA
74136,Tulsa County,OK,NA,22.90167865707434
74137,Tulsa County,OK,NA,65.58752997601918
74464,Cherokee County,OK,12.844036697247708,NA
74467,Wagoner County,OK,97.9816513761468,NA
74801,Pottawatomie County,OK,18.34862385321101,NA
74868,Seminole County,OK,NA,64.02877697841727
74884,Seminole County,OK,NA,81.05515587529976
97008,Washington County,OR,NA,30.335731414868107
97070,Clackamas County,OR,NA,27.218225419664265
97128,Yamhill County,OR,20.55045871559633,NA
97132,Yamhill County,OR,NA,25.29976019184652
97212,Multnomah County,OR,NA,81.77458033573141
97216,Multnomah County,OR,55.96330275229357,NA
97222,Clackamas County,OR,NA,68.4652278177458
97224,Washington County,OR,26.605504587155966,54.67625899280576
97225,Washington County,OR,NA,44.12470023980815
97239,Multnomah County,OR,NA,50.95923261390888
97266,Multnomah County,OR,24.220183486238533,NA
97305,Marion County,OR,NA,88.00959232613909
97401,Lane County,OR,NA,31.414868105515588
97423,Coos County,OR,NA,91.96642685851319
97503,Jackson County,OR,76.88073394495413,NA
97526,Josephine County,OR,24.770642201834864,NA
97603,Klamath County,OR,4.4036697247706424,NA
97703,Deschutes County,OR,NA,72.78177458033574
15062,Westmoreland County,PA,NA,72.90167865707434
15066,Beaver County,PA,82.20183486238533,NA
15205,Allegheny County,PA,74.31192660550458,NA
15216,Allegheny County,PA,42.56880733944954,NA
15220,Allegheny County,PA,62.20183486238532,NA
15223,Allegheny County,PA,NA,86.57074340527578
15243,Allegheny County,PA,NA,26.978417266187048
15801,Clearfield County,PA,NA,1.5587529976019185
16002,Butler County,PA,NA,25.059952038369303
16025,Butler County,PA,83.30275229357798,NA
16101,Lawrence County,PA,NA,15.707434052757794
16335,Crawford County,PA,NA,65.70743405275779
16504,Erie County,PA,NA,55.39568345323741
16511,Erie County,PA,NA,92.20623501199042
16801,Centre County,PA,NA,10.431654676258994
16803,Centre County,PA,NA,33.81294964028777
16823,Centre County,PA,NA,14.98800959232614
16830,Clearfield County,PA,NA,63.42925659472422
16866,Centre County,PA,NA,44.36450839328538
17013,Cumberland County,PA,NA,14.628297362110313
17053,Perry County,PA,88.9908256880734,NA
17109,Dauphin County,PA,NA,24.580335731414866
17112,Dauphin County,PA,NA,10.311750599520384
17201,Franklin County,PA,NA,13.66906474820144
17202,Franklin County,PA,NA,40.647482014388494
17257,Cumberland County,PA,NA,61.990407673860915
17349,York County,PA,NA,93.76498800959233
17406,York County,PA,NA,14.028776978417264
17408,York County,PA,NA,12.350119904076738
17522,Lancaster County,PA,NA,6.71462829736211
17543,Lancaster County,PA,NA,6.235011990407674
17545,Lancaster County,PA,23.30275229357798,NA
17552,Lancaster County,PA,NA,41.60671462829736
17557,Lancaster County,PA,NA,39.68824940047961
17701,Lycoming County,PA,NA,59.2326139088729
17737,Lycoming County,PA,NA,89.568345323741
17801,Northumberland County,PA,NA,59.352517985611506
17837,Union County,PA,63.853211009174316,92.32613908872902
17842,Snyder County,PA,NA,66.54676258992805
17847,Northumberland County,PA,NA,84.53237410071942
18015,Northampton County,PA,17.24770642201835,NA
18032,Lehigh County,PA,66.97247706422019,NA
18036,Lehigh County,PA,NA,32.61390887290168
18041,Montgomery County,PA,96.3302752293578,NA
18045,Northampton County,PA,NA,8.15347721822542
18052,Lehigh County,PA,NA,50
18064,Northampton County,PA,NA,14.748201438848922
18603,Columbia County,PA,12.293577981651376,NA
18612,Luzerne County,PA,NA,26.73860911270983
18651,Luzerne County,PA,NA,90.04796163069544
18707,Luzerne County,PA,NA,97.48201438848922
18901,Bucks County,PA,NA,9.232613908872901
18951,Bucks County,PA,NA,81.65467625899281
18954,Bucks County,PA,NA,80.57553956834532
18960,Bucks County,PA,53.027522935779814,NA
18974,Bucks County,PA,NA,1.4388489208633095
19006,Montgomery County,PA,82.38532110091742,NA
19007,Bucks County,PA,NA,66.18705035971223
19010,Delaware County,PA,65.3211009174312,NA
19015,Delaware County,PA,NA,83.81294964028777
19020,Bucks County,PA,NA,9.952038369304557
19023,Delaware County,PA,NA,62.94964028776978
19025,Montgomery County,PA,NA,96.52278177458034
19040,Montgomery County,PA,34.862385321100916,NA
19047,Bucks County,PA,11.376146788990827,NA
19079,Delaware County,PA,89.90825688073394,NA
19082,Delaware County,PA,NA,56.23501199040767
19118,Philadelphia County,PA,NA,88.2494004796163
19125,Philadelphia County,PA,NA,82.9736211031175
19129,Philadelphia County,PA,97.24770642201835,NA
19130,Philadelphia County,PA,NA,75.29976019184652
19146,Philadelphia County,PA,16.14678899082569,NA
19312,Chester County,PA,NA,75.89928057553958
19382,Chester County,PA,NA,64.74820143884892
19464,Montgomery County,PA,74.49541284403671,NA
02806,Bristol County,RI,NA,47.84172661870504
02809,Bristol County,RI,NA,31.05515587529976
02814,Providence County,RI,78.1651376146789,NA
02818,Kent County,RI,NA,33.69304556354916
02837,Newport County,RI,98.1651376146789,NA
02865,Providence County,RI,48.440366972477065,NA
02879,Washington County,RI,84.03669724770643,26.618705035971225
02889,Kent County,RI,NA,85.01199040767386
02892,Washington County,RI,93.94495412844037,NA
02904,Providence County,RI,NA,15.107913669064748
02906,Providence County,RI,33.211009174311926,NA
02907,Providence County,RI,NA,39.08872901678657
02909,Providence County,RI,NA,65.82733812949641
02920,Providence County,RI,NA,34.172661870503596
29045,Kershaw County,SC,NA,67.62589928057554
29054,Lexington County,SC,91.92660550458716,NA
29063,Richland County,SC,37.43119266055046,NA
29330,Spartanburg County,SC,NA,88.84892086330936
29365,Spartanburg County,SC,56.69724770642202,NA
29414,Charleston County,SC,NA,57.31414868105516
29445,Berkeley County,SC,NA,34.05275779376499
29588,Horry County,SC,NA,18.585131894484412
29662,Greenville County,SC,50.27522935779817,NA
29673,Greenville County,SC,NA,79.37649880095923
29706,Chester County,SC,48.9908256880734,NA
29707,Lancaster County,SC,91.74311926605505,NA
29860,Edgefield County,SC,NA,84.17266187050359
29924,Hampton County,SC,94.67889908256882,NA
57104,Minnehaha County,SD,NA,11.990407673860911
57106,Minnehaha County,SD,5.137614678899083,NA
57110,Minnehaha County,SD,NA,26.498800959232614
57350,Beadle County,SD,NA,79.61630695443645
37042,Montgomery County,TN,NA,45.68345323741007
37043,Montgomery County,TN,14.128440366972479,NA
37075,Sumner County,TN,NA,32.97362110311751
37087,Wilson County,TN,NA,55.99520383693045
37185,Humphreys County,TN,NA,73.86091127098321
37214,Davidson County,TN,NA,52.39808153477218
37215,Davidson County,TN,NA,32.014388489208635
37323,Bradley County,TN,41.284403669724774,NA
37737,Blount County,TN,73.39449541284404,NA
37743,Greene County,TN,NA,53.956834532374096
37745,Greene County,TN,NA,29.256594724220626
37762,Campbell County,TN,99.08256880733946,NA
37764,Sevier County,TN,NA,61.87050359712231
37772,Loudon County,TN,NA,81.17505995203837
37804,Blount County,TN,NA,24.22062350119904
37938,Knox County,TN,NA,96.1630695443645
38011,Tipton County,TN,95.22935779816514,NA
38358,Gibson County,TN,55.04587155963303,NA
38572,Cumberland County,TN,NA,82.01438848920863
75028,Denton County,TX,29.174311926605505,NA
75042,Dallas County,TX,54.12844036697248,NA
75063,Dallas County,TX,79.81651376146789,NA
75074,Collin County,TX,NA,51.3189448441247
75135,Hunt County,TX,86.97247706422019,NA
75150,Dallas County,TX,42.75229357798165,NA
75167,Ellis County,TX,89.35779816513761,NA
75225,Dallas County,TX,46.60550458715596,NA
75254,Dallas County,TX,85.87155963302753,NA
75494,Wood County,TX,NA,48.80095923261391
75503,Bowie County,TX,NA,21.46282973621103
75757,Smith County,TX,NA,32.014388489208635
75785,Cherokee County,TX,NA,62.47002398081535
75901,Angelina County,TX,NA,64.62829736211032
76010,Tarrant County,TX,45.137614678899084,NA
76117,Tarrant County,TX,NA,49.64028776978417
76384,Wilbarger County,TX,NA,74.34052757793765
76401,Erath County,TX,39.633027522935784,NA
76513,Bell County,TX,NA,0.2398081534772182
76520,Milam County,TX,35.96330275229358,NA
76539,Lampasas County,TX,76.3302752293578,72.42206235011992
76541,Bell County,TX,33.76146788990826,NA
76548,Bell County,TX,NA,80.3357314148681
76567,Milam County,TX,47.706422018348626,NA
76571,Bell County,TX,NA,85.37170263788968
76712,McLennan County,TX,NA,4.556354916067146
77005,Harris County,TX,46.972477064220186,NA
77036,Harris County,TX,NA,96.40287769784173
77049,Harris County,TX,67.1559633027523,NA
77069,Harris County,TX,67.52293577981652,NA
77089,Harris County,TX,NA,59.832134292565954
77090,Harris County,TX,NA,59.95203836930456
77096,Harris County,TX,34.4954128440367,NA
77304,Montgomery County,TX,NA,45.80335731414868
77346,Harris County,TX,59.44954128440367,NA
77375,Harris County,TX,NA,37.76978417266187
77377,Harris County,TX,NA,38.968824940047966
77382,Montgomery County,TX,52.84403669724771,NA
77384,Montgomery County,TX,NA,53.956834532374096
77494,Fort Bend County,TX,40.73394495412844,NA
77550,Galveston County,TX,10.091743119266056,NA
77551,Galveston County,TX,18.89908256880734,NA
77554,Galveston County,TX,NA,53.23741007194245
77581,Brazoria County,TX,13.761467889908257,NA
77591,Galveston County,TX,90.64220183486239,NA
77651,Jefferson County,TX,60.91743119266055,NA
77707,Jefferson County,TX,NA,57.434052757793765
77833,Washington County,TX,19.63302752293578,NA
77954,DeWitt County,TX,NA,47.60191846522782
77957,Jackson County,TX,NA,82.61390887290167
78130,Comal County,TX,NA,32.97362110311751
78228,Bexar County,TX,NA,19.904076738609113
78239,Bexar County,TX,57.798165137614674,NA
78247,Bexar County,TX,NA,66.54676258992805
78259,Bexar County,TX,78.34862385321101,NA
78332,Jim Wells County,TX,NA,91.48681055155875
78336,San Patricio County,TX,NA,69.7841726618705
78362,San Patricio County,TX,82.75229357798165,NA
78363,Kleberg County,TX,NA,53.23741007194245
78382,Aransas County,TX,71.0091743119266,NA
78626,Williamson County,TX,NA,22.422062350119905
78628,Williamson County,TX,NA,31.294964028776977
78639,Llano County,TX,67.3394495412844,NA
78643,Llano County,TX,NA,76.73860911270984
78645,Travis County,TX,NA,94.7242206235012
78653,Travis County,TX,NA,94.8441247002398
78654,Burnet County,TX,NA,42.68585131894484
78665,Williamson County,TX,NA,63.78896882494005
78840,Val Verde County,TX,61.65137614678899,NA
78934,Colorado County,TX,NA,50.719424460431654
79106,Potter County,TX,NA,91.36690647482014
79316,Terry County,TX,NA,94.12470023980816
79423,Lubbock County,TX,82.56880733944955,NA
79424,Lubbock County,TX,NA,14.268585131894485
79705,Midland County,TX,NA,37.05035971223021
79761,Ector County,TX,95.77981651376147,NA
84020,Salt Lake County,UT,NA,89.80815347721823
84025,Davis County,UT,NA,98.6810551558753
84054,Davis County,UT,64.03669724770641,NA
84084,Salt Lake County,UT,30.642201834862387,NA
84103,Salt Lake County,UT,NA,26.73860911270983
84116,Salt Lake County,UT,NA,40.04796163069545
84117,Salt Lake County,UT,NA,26.139088729016784
84124,Salt Lake County,UT,NA,43.645083932853716
84302,Box Elder County,UT,NA,61.270983213429254
84604,Utah County,UT,NA,57.9136690647482
84770,Washington County,UT,NA,71.82254196642685
84790,Washington County,UT,NA,42.92565947242206
05156,Windsor County,VT,NA,89.32853717026379
05201,Bennington County,VT,15.412844036697248,NA
05301,Windham County,VT,NA,70.9832134292566
05452,Chittenden County,VT,27.155963302752294,NA
05482,Chittenden County,VT,NA,88.3693045563549
05676,Washington County,VT,94.3119266055046,NA
20110,Manassas city,VA,48.25688073394495,NA
20132,Loudoun County,VA,83.85321100917432,NA
20190,Fairfax County,VA,NA,72.42206235011992
22301,Alexandria city,VA,97.06422018348624,NA
22304,Alexandria city,VA,25.137614678899084,NA
22405,Stafford County,VA,NA,85.61151079136691
22560,Essex County,VA,77.79816513761469,NA
22701,Culpeper County,VA,12.477064220183486,NA
22851,Page County,VA,79.08256880733944,NA
22902,Charlottesville city,VA,NA,32.49400479616307
22942,Louisa County,VA,NA,83.45323741007195
23061,Gloucester County,VA,NA,84.77218225419664
23089,New Kent County,VA,NA,97.60191846522783
23139,Powhatan County,VA,NA,39.4484412470024
23185,James City County,VA,3.669724770642202,5.875299760191846
23320,Chesapeake city,VA,60,NA
23510,Norfolk city,VA,NA,60.19184652278178
24012,Roanoke city,VA,NA,26.019184652278177
24015,Roanoke city,VA,65.87155963302752,NA
24016,Roanoke city,VA,NA,91.72661870503596
24019,Roanoke County,VA,NA,35.97122302158273
24127,Craig County,VA,98.34862385321101,NA
24148,Henry County,VA,71.74311926605505,NA
24201,Bristol city,VA,NA,37.64988009592326
24260,Russell County,VA,NA,82.73381294964028
24293,Wise County,VA,NA,98.56115107913669
24333,Galax city,VA,72.6605504587156,NA
24441,Rockingham County,VA,61.8348623853211,NA
24540,Danville city,VA,53.21100917431193,NA
24557,Pittsylvania County,VA,NA,74.10071942446042
98001,King County,WA,29.908256880733948,NA
98004,King County,WA,NA,28.65707434052758
98006,King County,WA,55.779816513761475,NA
98007,King County,WA,NA,44.60431654676259
98027,King County,WA,32.477064220183486,NA
98028,King County,WA,NA,54.43645083932853
98034,King County,WA,NA,58.51318944844125
98087,Snohomish County,WA,70.8256880733945,NA
98105,King County,WA,NA,84.65227817745803
98119,King County,WA,NA,59.71223021582733
98133,King County,WA,NA,54.31654676258992
98155,King County,WA,NA,80.0959232613909
98177,King County,WA,47.88990825688074,NA
98230,Whatcom County,WA,59.26605504587156,NA
98233,Skagit County,WA,NA,71.22302158273382
98264,Whatcom County,WA,60.18348623853211,NA
98273,Skagit County,WA,NA,6.954436450839328
98275,Snohomish County,WA,84.22018348623853,NA
98277,Island County,WA,NA,9.59232613908873
98296,Snohomish County,WA,NA,67.98561151079137
98332,Pierce County,WA,NA,76.49880095923261
98374,Pierce County,WA,64.77064220183486,NA
98382,Clallam County,WA,NA,0.4796163069544364
98383,Kitsap County,WA,44.587155963302756,NA
98501,Thurston County,WA,NA,42.326139088729015
98672,Klickitat County,WA,NA,87.17026378896882
98683,Clark County,WA,NA,36.930455635491604
98801,Chelan County,WA,26.238532110091743,24.940047961630697
98826,Chelan County,WA,NA,76.85851318944844
98848,Grant County,WA,NA,87.64988009592327
99207,Spokane County,WA,50.27522935779817,NA
99362,Walla Walla County,WA,NA,8.03357314148681
24701,Mercer County,WV,53.94495412844037,NA
24739,Mercer County,WV,88.07339449541286,NA
25177,Kanawha County,WV,NA,44.84412470023981
25309,Kanawha County,WV,NA,42.086330935251794
25404,Berkeley County,WV,30.825688073394495,78.29736211031175
25506,Lincoln County,WV,88.62385321100918,NA
25510,Cabell County,WV,NA,94.48441247002398
26003,Ohio County,WV,NA,48.92086330935252
26062,Hancock County,WV,NA,35.13189448441247
26104,Wood County,WV,NA,16.06714628297362
26187,Wood County,WV,NA,44.36450839328538
26501,Monongalia County,WV,NA,78.65707434052757
26508,Monongalia County,WV,4.220183486238533,NA
26554,Marion County,WV,1.834862385321101,NA
53022,Washington County,WI,NA,48.44124700239808
53072,Waukesha County,WI,31.19266055045872,NA
53086,Washington County,WI,86.05504587155963,NA
53090,Washington County,WI,NA,51.438848920863315
53097,Ozaukee County,WI,NA,56.35491606714629
53115,Walworth County,WI,NA,35.25179856115108
53132,Milwaukee County,WI,NA,40.16786570743405
53147,Walworth County,WI,NA,90.16786570743405
53186,Waukesha County,WI,25.871559633027523,NA
53207,Milwaukee County,WI,NA,53.71702637889688
53219,Milwaukee County,WI,NA,10.191846522781775
53220,Milwaukee County,WI,NA,12.949640287769784
53226,Milwaukee County,WI,NA,79.97601918465229
53555,Columbia County,WI,NA,93.04556354916068
53590,Dane County,WI,64.95412844036697,20.863309352517987
53716,Dane County,WI,45.68807339449542,NA
53717,Dane County,WI,77.06422018348624,NA
53916,Dodge County,WI,NA,22.18225419664269
53955,Columbia County,WI,95.41284403669725,NA
54024,Polk County,WI,84.40366972477065,NA
54153,Oconto County,WI,NA,99.8800959232614
54154,Oconto County,WI,NA,85.13189448441247
54403,Marathon County,WI,NA,56.4748201438849
54409,Langlade County,WI,NA,8.273381294964029
54467,Portage County,WI,NA,48.6810551558753
54476,Marathon County,WI,NA,42.565947242206235
54495,Wood County,WI,NA,87.05035971223022
54548,Oneida County,WI,NA,73.38129496402878
54601,La Crosse County,WI,NA,10.551558752997602
54880,Douglas County,WI,15.963302752293579,41.96642685851319
54971,Fond du Lac County,WI,NA,82.49400479616307
54982,Waushara County,WI,NA,94.00479616306954
82435,Park County,WY,NA,42.44604316546763
82520,Fremont County,WY,NA,94.36450839328538
82604,Natrona County,WY,NA,47.482014388489205
