ZipCode,county,state,Retirement,Geriatric
35080,Shelby County,AL,NA,84.54106280193237
35120,St. Clair County,AL,70,NA
35205,Jefferson County,AL,64.85714285714286,NA
35216,Jefferson County,AL,NA,45.410628019323674
35226,Jefferson County,AL,NA,26.570048309178745
35244,Jefferson County,AL,38.857142857142854,NA
35405,Tuscaloosa County,AL,89.71428571428571,NA
36027,Barbour County,AL,NA,69.08212560386472
36037,Butler County,AL,NA,81.40096618357488
36092,Elmore County,AL,NA,82.85024154589372
36260,Calhoun County,AL,100,NA
36330,Coffee County,AL,NA,49.275362318840585
36445,Monroe County,AL,NA,93.96135265700482
85020,Maricopa County,AZ,62.28571428571429,NA
85032,Maricopa County,AZ,26.571428571428573,NA
85044,Maricopa County,AZ,NA,64.25120772946859
85085,Maricopa County,AZ,NA,81.40096618357488
85123,Pinal County,AZ,NA,98.79227053140096
85202,Maricopa County,AZ,43.714285714285715,NA
85262,Maricopa County,AZ,66.85714285714286,NA
85338,Maricopa County,AZ,41.42857142857143,NA
85614,Pima County,AZ,NA,4.5893719806763285
85622,Pima County,AZ,NA,87.68115942028986
85718,Pima County,AZ,NA,20.531400966183575
85743,Pima County,AZ,57.42857142857143,NA
85745,Pima County,AZ,NA,32.125603864734295
85750,Pima County,AZ,92.85714285714286,NA
71753,Columbia County,AR,94,NA
72113,Pulaski County,AR,NA,53.3816425120773
90066,Los Angeles County,CA,NA,62.56038647342995
90068,Los Angeles County,CA,NA,72.94685990338165
90077,Los Angeles County,CA,91.71428571428571,NA
90266,Los Angeles County,CA,NA,62.07729468599034
90293,Los Angeles County,CA,96.57142857142857,NA
90405,Los Angeles County,CA,NA,91.06280193236715
90620,Orange County,CA,36.57142857142857,NA
90631,Orange County,CA,NA,23.42995169082126
91344,Los Angeles County,CA,54,NA
91360,Ventura County,CA,44.857142857142854,NA
91362,Ventura County,CA,NA,57.971014492753625
91381,Los Angeles County,CA,NA,87.92270531400966
91711,Los Angeles County,CA,30.857142857142854,NA
91911,San Diego County,CA,19.714285714285715,NA
92019,San Diego County,CA,NA,38.64734299516908
92020,San Diego County,CA,8.571428571428571,34.05797101449276
92021,San Diego County,CA,NA,27.053140096618357
92025,San Diego County,CA,NA,45.169082125603865
92064,San Diego County,CA,NA,32.125603864734295
92069,San Diego County,CA,49.142857142857146,NA
92101,San Diego County,CA,11.142857142857142,72.22222222222221
92104,San Diego County,CA,35.714285714285715,NA
92109,San Diego County,CA,NA,58.454106280193244
92116,San Diego County,CA,NA,82.3671497584541
92117,San Diego County,CA,NA,20.28985507246377
92129,San Diego County,CA,44.285714285714285,NA
92211,Riverside County,CA,10,NA
92308,San Bernardino County,CA,28.285714285714285,NA
92374,San Bernardino County,CA,NA,48.309178743961354
92532,Riverside County,CA,75.14285714285714,NA
92586,Riverside County,CA,NA,25.120772946859905
92614,Orange County,CA,83.71428571428572,NA
92648,Orange County,CA,24,NA
92651,Orange County,CA,43.142857142857146,NA
92663,Orange County,CA,NA,59.17874396135265
92683,Orange County,CA,NA,31.15942028985507
92691,Orange County,CA,22.857142857142858,NA
92708,Orange County,CA,NA,74.15458937198068
92808,Orange County,CA,NA,71.98067632850241
92845,Orange County,CA,NA,63.04347826086957
92869,Orange County,CA,44,NA
93035,Ventura County,CA,55.714285714285715,NA
93101,Santa Barbara County,CA,81.71428571428572,NA
93274,Tulare County,CA,20.857142857142858,NA
93654,Fresno County,CA,NA,85.26570048309179
93720,Fresno County,CA,26.285714285714285,NA
94115,San Francisco County,CA,36.857142857142854,NA
94513,Contra Costa County,CA,NA,30.917874396135264
94518,Contra Costa County,CA,90,NA
94533,Solano County,CA,26,NA
94534,Solano County,CA,NA,40.33816425120773
94550,Alameda County,CA,36,NA
94583,Contra Costa County,CA,NA,64.97584541062803
94611,Alameda County,CA,NA,33.57487922705314
95062,Santa Cruz County,CA,NA,64.00966183574879
95124,Santa Clara County,CA,37.714285714285715,NA
95125,Santa Clara County,CA,NA,28.26086956521739
95209,San Joaquin County,CA,NA,61.59420289855072
95215,San Joaquin County,CA,82.57142857142857,NA
95326,Stanislaus County,CA,NA,99.27536231884058
95503,Humboldt County,CA,NA,55.31400966183575
95603,Placer County,CA,NA,29.951690821256037
95610,Sacramento County,CA,41.14285714285714,NA
95640,Amador County,CA,NA,88.16425120772948
95650,Placer County,CA,77.14285714285715,NA
95667,El Dorado County,CA,NA,1.932367149758454
95670,Sacramento County,CA,31.71428571428571,NA
95695,Yolo County,CA,48.285714285714285,NA
95747,Placer County,CA,NA,42.270531400966185
95776,Yolo County,CA,NA,77.53623188405797
95828,Sacramento County,CA,NA,35.507246376811594
95831,Sacramento County,CA,45.714285714285715,NA
95841,Sacramento County,CA,76.28571428571429,NA
95945,Nevada County,CA,NA,26.811594202898554
95959,Nevada County,CA,NA,59.66183574879227
95988,Glenn County,CA,63.714285714285715,NA
80134,Douglas County,CO,64.57142857142857,NA
81230,Gunnison County,CO,NA,82.6086956521739
81301,La Plata County,CO,39.14285714285714,53.62318840579711
81303,La Plata County,CO,93.71428571428572,NA
06013,Hartford County,CT,NA,98.06763285024155
06105,Hartford County,CT,62.857142857142854,NA
06471,New Haven County,CT,NA,66.42512077294685
06489,Hartford County,CT,NA,10.38647342995169
06492,New Haven County,CT,NA,6.763285024154589
06517,New Haven County,CT,NA,54.347826086956516
06786,Litchfield County,CT,74.85714285714286,NA
06790,Litchfield County,CT,NA,57.2463768115942
06896,Fairfield County,CT,NA,77.77777777777779
19803,New Castle County,DE,45.14285714285714,NA
19808,New Castle County,DE,23.142857142857142,NA
19966,Sussex County,DE,9.142857142857142,NA
32081,St. Johns County,FL,77.42857142857143,NA
32086,St. Johns County,FL,20,NA
32129,Volusia County,FL,NA,40.09661835748793
32136,Flagler County,FL,NA,72.46376811594203
32159,Lake County,FL,NA,33.33333333333333
32570,Santa Rosa County,FL,NA,80.43478260869566
32669,Alachua County,FL,59.14285714285714,NA
32738,Volusia County,FL,36.285714285714285,NA
32750,Seminole County,FL,NA,71.25603864734299
33016,Miami-Dade County,FL,51.142857142857146,NA
33158,Miami-Dade County,FL,95.14285714285714,NA
33175,Miami-Dade County,FL,NA,17.14975845410628
33317,Broward County,FL,NA,44.68599033816425
33408,Palm Beach County,FL,NA,39.371980676328505
33412,Palm Beach County,FL,91.42857142857143,NA
33414,Palm Beach County,FL,NA,64.4927536231884
33428,Palm Beach County,FL,NA,52.65700483091788
33437,Palm Beach County,FL,NA,5.797101449275362
33442,Broward County,FL,NA,83.81642512077295
33467,Palm Beach County,FL,NA,14.975845410628018
33617,Hillsborough County,FL,NA,53.864734299516904
33626,Hillsborough County,FL,NA,76.08695652173914
33759,Pinellas County,FL,NA,77.05314009661835
33825,Highlands County,FL,NA,22.705314009661837
33908,Lee County,FL,6.571428571428571,NA
33935,Hendry County,FL,62.28571428571429,NA
33955,Charlotte County,FL,58.285714285714285,NA
34102,Collier County,FL,NA,78.98550724637681
34114,Collier County,FL,NA,84.78260869565217
34235,Sarasota County,FL,NA,68.59903381642512
34236,Sarasota County,FL,NA,53.14009661835749
34275,Sarasota County,FL,28.857142857142858,NA
34285,Sarasota County,FL,NA,44.20289855072464
34286,Sarasota County,FL,80.57142857142857,NA
34293,Sarasota County,FL,NA,3.864734299516908
34472,Marion County,FL,77.71428571428571,NA
34480,Marion County,FL,74,NA
34607,Hernando County,FL,99.71428571428571,NA
34609,Hernando County,FL,53.142857142857146,NA
34684,Pinellas County,FL,NA,87.19806763285024
34996,Martin County,FL,NA,76.81159420289855
30004,Fulton County,GA,NA,43.23671497584541
30043,Gwinnett County,GA,14.857142857142858,NA
30052,Walton County,GA,9.428571428571429,NA
30062,Cobb County,GA,44.57142857142857,NA
30117,Carroll County,GA,60.857142857142854,NA
30220,Coweta County,GA,92,NA
30222,Meriwether County,GA,95.42857142857143,NA
30316,DeKalb County,GA,NA,48.792270531400966
30338,DeKalb County,GA,NA,68.11594202898551
30707,Walker County,GA,93.14285714285714,NA
30731,Chattooga County,GA,98.28571428571429,NA
30741,Walker County,GA,21.714285714285715,NA
30909,Richmond County,GA,NA,26.08695652173913
31602,Lowndes County,GA,NA,68.11594202898551
31904,Muscogee County,GA,20.285714285714285,NA
96734,Honolulu County,HI,12.285714285714286,NA
96744,Honolulu County,HI,23.42857142857143,NA
96753,Maui County,HI,NA,85.74879227053141
96782,Honolulu County,HI,NA,11.352657004830919
96786,Honolulu County,HI,NA,43.71980676328502
96790,Maui County,HI,NA,92.9951690821256
96813,Honolulu County,HI,33.714285714285715,NA
96816,Honolulu County,HI,19.142857142857142,NA
96821,Honolulu County,HI,88.57142857142857,NA
83236,Bingham County,ID,97.71428571428571,NA
83318,Cassia County,ID,43.42857142857143,41.78743961352657
83686,Canyon County,ID,5.714285714285714,NA
60015,Lake County,IL,NA,18.357487922705314
60020,Lake County,IL,52.85714285714286,NA
60045,Lake County,IL,23.714285714285715,NA
60047,Lake County,IL,NA,55.79710144927537
60062,Cook County,IL,6.2857142857142865,0.4830917874396135
60148,DuPage County,IL,NA,74.39613526570048
60201,Cook County,IL,87.14285714285714,7.487922705314009
60453,Cook County,IL,74.28571428571429,NA
60467,Cook County,IL,73.14285714285714,NA
60525,Cook County,IL,NA,47.58454106280193
60527,DuPage County,IL,NA,51.690821256038646
60542,Kane County,IL,NA,61.83574879227053
60546,Cook County,IL,NA,42.7536231884058
60615,Cook County,IL,18.857142857142858,NA
61021,Lee County,IL,62,NA
61073,Winnebago County,IL,65.71428571428571,NA
61530,Woodford County,IL,89.14285714285714,NA
61704,McLean County,IL,NA,81.88405797101449
61944,Edgar County,IL,50.28571428571429,NA
62010,Madison County,IL,NA,65.21739130434783
62088,Macoupin County,IL,98,NA
62278,Randolph County,IL,NA,65.94202898550725
62448,Jasper County,IL,NA,74.63768115942028
62568,Christian County,IL,50.857142857142854,NA
62650,Morgan County,IL,32.285714285714285,NA
46041,Clinton County,IN,47.714285714285715,NA
46112,Hendricks County,IN,NA,79.22705314009661
46135,Putnam County,IN,55.714285714285715,NA
46375,Lake County,IN,18.285714285714285,NA
46580,Kosciusko County,IN,NA,32.608695652173914
46703,Steuben County,IN,NA,37.92270531400966
46808,Allen County,IN,54.57142857142857,NA
46975,Fulton County,IN,NA,60.14492753623188
47201,Bartholomew County,IN,14.000000000000002,NA
47203,Bartholomew County,IN,67.14285714285714,NA
47371,Jay County,IN,NA,77.29468599033817
47542,Dubois County,IN,NA,73.91304347826086
47885,Vigo County,IN,65.42857142857143,NA
47960,White County,IN,NA,38.88888888888889
50131,Polk County,IA,NA,92.27053140096618
50401,Cerro Gordo County,IA,NA,1.4492753623188406
50501,Webster County,IA,NA,84.05797101449275
50548,Humboldt County,IA,NA,89.85507246376811
50613,Black Hawk County,IA,NA,27.294685990338163
50701,Black Hawk County,IA,25.71428571428571,NA
51201,O'Brien County,IA,NA,93.23671497584542
51537,Shelby County,IA,NA,47.34299516908212
52002,Dubuque County,IA,NA,89.3719806763285
52101,Winneshiek County,IA,97.42857142857143,NA
52172,Allamakee County,IA,NA,95.41062801932367
52245,Johnson County,IA,NA,78.50241545893721
52632,Lee County,IA,34.285714285714285,NA
66061,Johnson County,KS,NA,95.65217391304348
66206,Johnson County,KS,75.42857142857143,NA
66436,Jackson County,KS,NA,71.49758454106279
66605,Shawnee County,KS,48.57142857142857,NA
66617,Shawnee County,KS,NA,92.512077294686
66701,Bourbon County,KS,58.857142857142854,NA
40047,Bullitt County,KY,49.42857142857143,NA
40165,Bullitt County,KY,18.571428571428573,NA
40245,Jefferson County,KY,38.57142857142858,NA
40299,Jefferson County,KY,NA,20.048309178743963
42718,Taylor County,KY,NA,11.594202898550725
70002,Jefferson Parish,LA,NA,81.15942028985508
70005,Jefferson Parish,LA,24.857142857142858,NA
70084,St. John the Baptist Parish,LA,NA,83.09178743961353
70123,Jefferson Parish,LA,NA,10.869565217391305
70445,St. Tammany Parish,LA,61.42857142857143,NA
70506,Lafayette Parish,LA,NA,60.6280193236715
70517,St. Martin Parish,LA,21.428571428571427,NA
70529,Lafayette Parish,LA,NA,96.85990338164251
70601,Calcasieu Parish,LA,51.42857142857142,NA
70764,Iberville Parish,LA,52,NA
71118,Caddo Parish,LA,94.85714285714286,NA
71301,Rapides Parish,LA,NA,63.52657004830918
04106,Cumberland County,ME,NA,34.29951690821256
04412,Penobscot County,ME,NA,61.35265700483091
04769,Aroostook County,ME,NA,52.17391304347826
04841,Knox County,ME,NA,54.830917874396135
04915,Waldo County,ME,34.85714285714286,NA
20815,Montgomery County,MD,70.57142857142857,NA
21015,Harford County,MD,80.28571428571428,NA
21074,Carroll County,MD,NA,87.43961352657004
21093,Baltimore County,MD,NA,9.66183574879227
21122,Anne Arundel County,MD,14.285714285714285,NA
21222,Baltimore County,MD,NA,6.280193236714976
21227,Baltimore County,MD,NA,64.73429951690821
21234,Baltimore County,MD,37.142857142857146,NA
21811,Worcester County,MD,NA,19.806763285024154
21842,Worcester County,MD,NA,46.85990338164252
21901,Cecil County,MD,64.28571428571429,NA
01020,Hampden County,MA,NA,13.768115942028986
01085,Hampden County,MA,NA,8.937198067632849
01201,Berkshire County,MA,NA,0.966183574879227
01226,Berkshire County,MA,NA,66.42512077294685
01376,Franklin County,MA,NA,83.33333333333334
01453,Worcester County,MA,7.7142857142857135,NA
01501,Worcester County,MA,32,NA
01505,Worcester County,MA,NA,97.58454106280193
01545,Worcester County,MA,NA,67.6328502415459
01602,Worcester County,MA,66.28571428571428,NA
01603,Worcester County,MA,2.857142857142857,NA
01609,Worcester County,MA,NA,65.45893719806763
01702,Middlesex County,MA,NA,5.555555555555555
01730,Middlesex County,MA,76.85714285714286,NA
01746,Middlesex County,MA,NA,80.67632850241546
01776,Middlesex County,MA,84,NA
01778,Middlesex County,MA,NA,88.88888888888889
01810,Essex County,MA,17.142857142857142,NA
01824,Middlesex County,MA,71.42857142857143,NA
01844,Essex County,MA,NA,4.830917874396135
01851,Middlesex County,MA,NA,99.51690821256038
01862,Middlesex County,MA,73.71428571428571,NA
01880,Middlesex County,MA,7.142857142857142,44.68599033816425
01886,Middlesex County,MA,31.142857142857146,NA
01887,Middlesex County,MA,3.428571428571429,NA
01906,Essex County,MA,NA,56.763285024154584
01949,Essex County,MA,NA,90.82125603864735
01966,Essex County,MA,84.57142857142857,69.32367149758454
01970,Essex County,MA,NA,8.212560386473431
01982,Essex County,MA,96,NA
02093,Norfolk County,MA,94.28571428571428,NA
02124,Suffolk County,MA,NA,97.82608695652173
02130,Suffolk County,MA,1.4285714285714286,NA
02132,Suffolk County,MA,NA,6.038647342995169
02136,Suffolk County,MA,NA,7.729468599033816
02155,Middlesex County,MA,0.2857142857142857,NA
02330,Plymouth County,MA,NA,96.61835748792271
02453,Middlesex County,MA,15.714285714285714,NA
02465,Middlesex County,MA,86.85714285714286,NA
02467,Norfolk County,MA,NA,31.40096618357488
02476,Middlesex County,MA,26.857142857142858,NA
02649,Barnstable County,MA,27.714285714285715,NA
02673,Barnstable County,MA,NA,51.20772946859904
02739,Plymouth County,MA,NA,99.7584541062802
02748,Bristol County,MA,NA,26.32850241545894
48047,Macomb County,MI,73.42857142857143,NA
48073,Oakland County,MI,61.71428571428571,NA
48092,Macomb County,MI,NA,32.608695652173914
48108,Washtenaw County,MI,59.71428571428572,NA
48116,Livingston County,MI,16.57142857142857,NA
48135,Wayne County,MI,NA,89.61352657004831
48168,Wayne County,MI,NA,78.74396135265701
48173,Wayne County,MI,64,NA
48176,Washtenaw County,MI,53.42857142857142,NA
48197,Washtenaw County,MI,NA,16.183574879227052
48304,Oakland County,MI,46,28.985507246376812
48307,Oakland County,MI,NA,67.3913043478261
48323,Oakland County,MI,68.85714285714286,NA
48415,Saginaw County,MI,56.57142857142857,NA
48420,Genesee County,MI,39.714285714285715,NA
48430,Genesee County,MI,NA,22.946859903381643
48603,Saginaw County,MI,10.285714285714285,NA
48622,Clare County,MI,NA,70.77294685990339
48642,Midland County,MI,8.285714285714285,36.71497584541063
48656,Roscommon County,MI,82.28571428571428,NA
48723,Tuscola County,MI,NA,42.51207729468599
48734,Saginaw County,MI,70.28571428571428,NA
48750,Iosco County,MI,NA,59.66183574879227
48910,Ingham County,MI,NA,35.507246376811594
49228,Lenawee County,MI,88.28571428571429,NA
49504,Kent County,MI,NA,9.178743961352657
49855,Marquette County,MI,17.42857142857143,NA
49930,Houghton County,MI,65.14285714285715,NA
55387,Carver County,MN,79.42857142857143,NA
55448,Anoka County,MN,81.14285714285714,NA
55744,Itasca County,MN,NA,6.521739130434782
55804,St. Louis County,MN,34.85714285714286,73.67149758454107
55901,Olmsted County,MN,NA,12.318840579710146
55912,Mower County,MN,NA,0.7246376811594203
55921,Houston County,MN,NA,93.71980676328504
55987,Winona County,MN,NA,2.4154589371980677
56013,Faribault County,MN,NA,93.47826086956522
56073,Brown County,MN,42,NA
56334,Pope County,MN,NA,85.02415458937197
56470,Hubbard County,MN,NA,70.04830917874396
56537,Otter Tail County,MN,NA,15.458937198067632
56560,Clay County,MN,NA,11.83574879227053
56721,Polk County,MN,86,NA
39073,Rankin County,MS,51.714285714285715,NA
39437,Jones County,MS,69.42857142857143,NA
39667,Walthall County,MS,57.714285714285715,NA
63010,Jefferson County,MO,55.42857142857143,NA
63011,St. Louis County,MO,19.428571428571427,NA
63033,St. Louis County,MO,NA,7.971014492753622
63124,St. Louis County,MO,72.85714285714285,NA
63126,St. Louis County,MO,NA,48.06763285024155
63128,St. Louis County,MO,NA,57.48792270531401
63368,St. Charles County,MO,NA,16.908212560386474
63701,Cape Girardeau County,MO,NA,24.154589371980677
63801,Scott County,MO,NA,17.632850241545896
64015,Jackson County,MO,18,NA
64055,Jackson County,MO,NA,14.492753623188406
64057,Jackson County,MO,NA,54.589371980676326
64108,Jackson County,MO,55.14285714285714,NA
64114,Jackson County,MO,NA,67.14975845410628
64468,Nodaway County,MO,NA,58.69565217391305
64759,Barton County,MO,NA,71.73913043478261
65018,Moniteau County,MO,NA,98.55072463768117
65714,Christian County,MO,NA,41.06280193236715
65775,Howell County,MO,NA,49.51690821256038
59101,Yellowstone County,MT,NA,47.10144927536232
59102,Yellowstone County,MT,NA,13.285024154589372
59501,Hill County,MT,93.42857142857143,NA
59601,Lewis and Clark County,MT,NA,23.18840579710145
59840,Ravalli County,MT,NA,41.54589371980676
59901,Flathead County,MT,NA,1.2077294685990339
59923,Lincoln County,MT,47.42857142857143,NA
68130,Douglas County,NE,NA,75.1207729468599
68144,Douglas County,NE,NA,41.78743961352657
68305,Nemaha County,NE,NA,92.02898550724638
89431,Washoe County,NV,NA,27.536231884057973
89815,Elko County,NV,90.57142857142857,NA
03301,Merrimack County,NH,40.85714285714286,NA
03766,Grafton County,NH,60,NA
03820,Strafford County,NH,NA,43.47826086956522
03842,Rockingham County,NH,29.714285714285715,NA
03874,Rockingham County,NH,NA,50.48309178743962
07054,Morris County,NJ,90.28571428571428,NA
07470,Passaic County,NJ,NA,7.004830917874397
07663,Bergen County,NJ,NA,78.01932367149759
07821,Sussex County,NJ,NA,86.71497584541062
07945,Morris County,NJ,99.14285714285714,NA
08009,Camden County,NJ,54.85714285714286,NA
08108,Camden County,NJ,50,NA
08402,Atlantic County,NJ,NA,73.42995169082126
08540,Mercer County,NJ,34.57142857142857,NA
08559,Hunterdon County,NJ,NA,98.30917874396135
08724,Ocean County,NJ,16.28571428571429,NA
08731,Ocean County,NJ,NA,90.57971014492753
08757,Ocean County,NJ,NA,0.24154589371980675
08807,Somerset County,NJ,66.57142857142857,NA
08809,Hunterdon County,NJ,NA,91.78743961352657
87020,Cibola County,NM,NA,83.57487922705315
87106,Bernalillo County,NM,NA,58.212560386473434
87110,Bernalillo County,NM,10.571428571428571,NA
87112,Bernalillo County,NM,NA,97.10144927536231
87120,Bernalillo County,NM,NA,24.396135265700483
87507,Santa Fe County,NM,NA,21.73913043478261
88011,Doa Ana County,NM,NA,28.019323671497588
88352,Otero County,NM,99.42857142857143,NA
10021,New York County,NY,NA,17.632850241545896
10312,Richmond County,NY,NA,21.497584541062803
10465,Bronx County,NY,NA,22.22222222222222
10708,Westchester County,NY,78.28571428571428,NA
10990,Orange County,NY,98.85714285714286,NA
11050,Nassau County,NY,NA,30.676328502415455
11106,Queens County,NY,NA,39.85507246376812
11218,Kings County,NY,NA,33.81642512077295
11378,Queens County,NY,80,NA
11787,Suffolk County,NY,34,NA
12186,Albany County,NY,NA,86.23188405797102
12206,Albany County,NY,NA,88.40579710144928
12553,Orange County,NY,NA,68.84057971014492
12561,Ulster County,NY,95.42857142857143,NA
12816,Washington County,NY,82.85714285714286,NA
12883,Essex County,NY,67.42857142857143,NA
12944,Essex County,NY,NA,95.89371980676329
12946,Essex County,NY,NA,70.28985507246377
12953,Franklin County,NY,NA,25.36231884057971
13027,Onondaga County,NY,17.71428571428571,NA
13126,Oswego County,NY,7.428571428571429,NA
13203,Onondaga County,NY,NA,69.80676328502415
13339,Montgomery County,NY,NA,65.70048309178745
13357,Herkimer County,NY,48,NA
13676,St. Lawrence County,NY,NA,30.434782608695656
13778,Chenango County,NY,NA,94.92753623188406
13808,Otsego County,NY,98.57142857142858,NA
13820,Otsego County,NY,79.14285714285715,NA
13827,Tioga County,NY,32.857142857142854,NA
13856,Delaware County,NY,35.42857142857142,NA
13901,Broome County,NY,NA,12.560386473429952
14032,Erie County,NY,NA,97.34299516908213
14150,Erie County,NY,46.85714285714286,17.632850241545896
14174,Niagara County,NY,70.85714285714285,NA
14215,Erie County,NY,33.14285714285714,NA
14217,Erie County,NY,NA,49.75845410628019
14559,Monroe County,NY,66,NA
14612,Monroe County,NY,0.8571428571428572,NA
14618,Monroe County,NY,13.142857142857142,NA
14624,Monroe County,NY,2,NA
14626,Monroe County,NY,4.571428571428571,NA
14701,Chautauqua County,NY,1.7142857142857144,NA
27012,Forsyth County,NC,NA,8.695652173913043
27053,Stokes County,NC,NA,79.71014492753623
27103,Forsyth County,NC,NA,1.6908212560386473
27104,Forsyth County,NC,31.428571428571427,NA
27107,Forsyth County,NC,4.285714285714286,NA
27127,Forsyth County,NC,27.142857142857142,NA
27265,Guilford County,NC,NA,23.91304347826087
27282,Guilford County,NC,67.71428571428572,NA
27295,Davidson County,NC,NA,55.072463768115945
27405,Guilford County,NC,NA,58.93719806763285
27565,Granville County,NC,NA,29.71014492753623
27608,Wake County,NC,NA,94.20289855072464
27712,Durham County,NC,38.285714285714285,NA
27944,Perquimans County,NC,74.57142857142857,NA
28083,Cabarrus County,NC,22.57142857142857,NA
28117,Iredell County,NC,NA,90.33816425120773
28277,Mecklenburg County,NC,NA,84.29951690821255
28457,Pender County,NC,84.28571428571429,NA
28574,Onslow County,NC,NA,96.1352657004831
28677,Iredell County,NC,NA,43.96135265700483
28734,Macon County,NC,8.857142857142856,NA
28752,McDowell County,NC,14.571428571428571,NA
58103,Cass County,ND,NA,36.473429951690825
58104,Cass County,ND,NA,3.6231884057971016
58201,Grand Forks County,ND,NA,17.391304347826086
58501,Burleigh County,ND,28.57142857142857,NA
43015,Delaware County,OH,NA,5.314009661835748
43315,Morrow County,OH,NA,94.44444444444444
43460,Wood County,OH,91.14285714285715,NA
43551,Wood County,OH,NA,13.043478260869565
43605,Lucas County,OH,NA,57.00483091787439
43701,Muskingum County,OH,0,14.009661835748794
43953,Jefferson County,OH,NA,38.405797101449274
44001,Lorain County,OH,NA,36.231884057971016
44012,Lorain County,OH,32.57142857142858,NA
44017,Cuyahoga County,OH,NA,30.193236714975846
44035,Lorain County,OH,NA,4.1062801932367154
44052,Lorain County,OH,NA,35.26570048309179
44070,Cuyahoga County,OH,6,NA
44105,Cuyahoga County,OH,21.142857142857142,NA
44109,Cuyahoga County,OH,1.1428571428571428,NA
44111,Cuyahoga County,OH,NA,13.526570048309178
44118,Cuyahoga County,OH,11.714285714285715,NA
44129,Cuyahoga County,OH,NA,56.28019323671497
44130,Cuyahoga County,OH,0.5714285714285714,NA
44134,Cuyahoga County,OH,2.2857142857142856,28.743961352657006
44143,Cuyahoga County,OH,NA,16.425120772946862
44149,Cuyahoga County,OH,NA,45.893719806763286
44212,Medina County,OH,NA,2.898550724637681
44256,Medina County,OH,8,NA
44281,Medina County,OH,72,NA
44484,Trumbull County,OH,13.714285714285715,NA
44646,Stark County,OH,40.57142857142857,NA
44718,Stark County,OH,NA,52.41545893719807
44813,Richland County,OH,NA,75.84541062801932
44839,Erie County,OH,38,NA
44870,Erie County,OH,3.1428571428571432,NA
44905,Richland County,OH,NA,60.86956521739131
45177,Clinton County,OH,NA,74.8792270531401
45324,Greene County,OH,NA,21.980676328502415
45373,Miami County,OH,NA,36.71497584541063
45440,Montgomery County,OH,NA,52.89855072463768
45601,Ross County,OH,NA,0
45648,Scioto County,OH,NA,66.90821256038647
45680,Lawrence County,OH,NA,37.68115942028986
45750,Washington County,OH,NA,15.942028985507244
45801,Allen County,OH,69.14285714285714,NA
45806,Allen County,OH,57.14285714285714,NA
45830,Putnam County,OH,85.42857142857143,NA
45840,Hancock County,OH,3.7142857142857144,NA
73099,Canadian County,OK,6.857142857142858,NA
74070,Osage County,OK,71.14285714285714,NA
74115,Tulsa County,OK,NA,63.76811594202898
74129,Tulsa County,OK,NA,73.18840579710145
74134,Tulsa County,OK,97.14285714285714,NA
74501,Pittsburg County,OK,42.57142857142857,NA
74801,Pottawatomie County,OK,NA,40.33816425120773
74857,Cleveland County,OK,96.28571428571429,NA
97002,Marion County,OR,NA,92.7536231884058
97209,Multnomah County,OR,54.285714285714285,NA
97216,Multnomah County,OR,NA,39.61352657004831
97218,Multnomah County,OR,83.42857142857143,NA
97224,Washington County,OR,63.142857142857146,29.468599033816425
97230,Multnomah County,OR,60.285714285714285,NA
97415,Curry County,OR,NA,24.637681159420293
97535,Jackson County,OR,63.42857142857142,NA
97814,Baker County,OR,69.71428571428572,NA
97850,Union County,OR,NA,46.3768115942029
15017,Allegheny County,PA,NA,51.449275362318836
15068,Westmoreland County,PA,11.428571428571429,NA
15106,Allegheny County,PA,52,NA
15205,Allegheny County,PA,49.714285714285715,NA
15237,Allegheny County,PA,NA,5.072463768115942
15317,Washington County,PA,NA,14.734299516908212
15425,Fayette County,PA,NA,37.19806763285024
15613,Westmoreland County,PA,NA,33.091787439613526
15626,Westmoreland County,PA,88.85714285714286,NA
15690,Westmoreland County,PA,NA,94.68599033816425
15904,Cambria County,PA,NA,21.256038647342994
16226,Armstrong County,PA,NA,60.38647342995169
16510,Erie County,PA,NA,23.67149758454106
16801,Centre County,PA,29.142857142857142,NA
16823,Centre County,PA,NA,19.082125603864732
16866,Centre County,PA,NA,51.93236714975845
17011,Cumberland County,PA,NA,15.217391304347828
17022,Lancaster County,PA,16,NA
17025,Cumberland County,PA,50.57142857142857,NA
17036,Dauphin County,PA,12.857142857142856,NA
17050,Cumberland County,PA,10.857142857142858,NA
17055,Cumberland County,PA,16.857142857142858,NA
17112,Dauphin County,PA,NA,12.80193236714976
17552,Lancaster County,PA,NA,48.55072463768116
17737,Lycoming County,PA,NA,76.32850241545893
17815,Columbia County,PA,12,NA
17821,Montour County,PA,15.428571428571427,NA
17847,Northumberland County,PA,86.28571428571429,NA
17872,Northumberland County,PA,NA,47.82608695652174
17921,Schuylkill County,PA,82,NA
18017,Northampton County,PA,4.857142857142857,NA
18052,Lehigh County,PA,61.142857142857146,NA
18064,Northampton County,PA,24.571428571428573,18.84057971014493
18411,Lackawanna County,PA,48.857142857142854,NA
18466,Monroe County,PA,59.42857142857143,NA
18976,Bucks County,PA,NA,72.70531400966183
19010,Delaware County,PA,NA,45.65217391304348
19047,Bucks County,PA,NA,62.31884057971014
19050,Delaware County,PA,71.71428571428572,NA
19074,Delaware County,PA,81.42857142857143,NA
19081,Delaware County,PA,NA,89.13043478260869
19134,Philadelphia County,PA,15.142857142857144,NA
19145,Philadelphia County,PA,NA,34.78260869565217
19146,Philadelphia County,PA,NA,50.24154589371981
19311,Chester County,PA,NA,91.30434782608695
19341,Chester County,PA,NA,78.26086956521739
19426,Montgomery County,PA,30,NA
19464,Montgomery County,PA,NA,34.54106280193236
19605,Berks County,PA,NA,25.845410628019323
19607,Berks County,PA,NA,67.8743961352657
02882,Washington County,RI,76.28571428571429,NA
29033,Lexington County,SC,78.57142857142857,NA
29150,Sumter County,SC,27.42857142857143,NA
29323,Spartanburg County,SC,NA,86.47342995169082
29414,Charleston County,SC,NA,31.88405797101449
29451,Charleston County,SC,92.57142857142857,NA
29464,Charleston County,SC,NA,50.72463768115942
29501,Florence County,SC,NA,70.28985507246377
29801,Aiken County,SC,NA,44.44444444444444
29835,McCormick County,SC,NA,80.91787439613528
57005,Minnehaha County,SD,68,59.42028985507246
57006,Brookings County,SD,NA,14.251207729468598
57103,Minnehaha County,SD,NA,7.246376811594203
57106,Minnehaha County,SD,NA,29.227053140096622
57108,Lincoln County,SD,NA,8.454106280193237
57717,Butte County,SD,94.57142857142857,NA
37075,Sumner County,TN,NA,10.144927536231885
37130,Rutherford County,TN,30.571428571428573,NA
37172,Robertson County,TN,NA,79.95169082125604
37205,Davidson County,TN,NA,21.014492753623188
37334,Lincoln County,TN,NA,42.99516908212561
37405,Hamilton County,TN,NA,80.19323671497585
37421,Hamilton County,TN,NA,27.77777777777778
37683,Johnson County,TN,NA,62.80193236714976
37748,Roane County,TN,29.428571428571427,NA
37803,Blount County,TN,NA,16.666666666666664
38485,Wayne County,TN,NA,71.01449275362319
75013,Collin County,TX,NA,85.99033816425121
75028,Denton County,TX,37.42857142857143,NA
75150,Dallas County,TX,46.57142857142857,NA
75703,Smith County,TX,5.428571428571429,39.130434782608695
75707,Smith County,TX,NA,34.78260869565217
75709,Smith County,TX,78.85714285714286,NA
75791,Smith County,TX,39.42857142857143,NA
75831,Leon County,TX,92.28571428571428,NA
75844,Houston County,TX,NA,85.5072463768116
76058,Johnson County,TX,NA,79.46859903381642
76106,Tarrant County,TX,22,NA
76502,Bell County,TX,NA,11.11111111111111
76504,Bell County,TX,2.571428571428571,NA
76522,Coryell County,TX,40,NA
76541,Bell County,TX,40.285714285714285,NA
76542,Bell County,TX,24.285714285714285,69.56521739130434
76548,Bell County,TX,NA,41.30434782608695
76571,Bell County,TX,53.714285714285715,NA
76574,Williamson County,TX,22.285714285714285,NA
76708,McLennan County,TX,77.71428571428571,NA
77025,Harris County,TX,88,NA
77056,Harris County,TX,NA,46.13526570048309
77083,Harris County,TX,NA,35.507246376811594
77338,Harris County,TX,80.85714285714286,NA
77414,Matagorda County,TX,NA,54.106280193236714
77517,Galveston County,TX,NA,88.40579710144928
77532,Harris County,TX,56.85714285714286,NA
77539,Galveston County,TX,85.14285714285714,NA
77573,Galveston County,TX,NA,22.463768115942027
77845,Brazos County,TX,5.142857142857142,NA
78043,Webb County,TX,NA,31.642512077294686
78218,Bexar County,TX,47.14285714285714,NA
78336,San Patricio County,TX,89.42857142857143,NA
78363,Kleberg County,TX,NA,61.111111111111114
78572,Hidalgo County,TX,20.57142857142857,NA
78628,Williamson County,TX,NA,18.59903381642512
78633,Williamson County,TX,NA,9.420289855072465
78643,Llano County,TX,NA,56.52173913043478
78664,Williamson County,TX,NA,24.879227053140095
78746,Travis County,TX,84.85714285714285,NA
84078,Uintah County,UT,NA,86.71497584541062
84108,Salt Lake County,UT,NA,37.43961352657005
84109,Salt Lake County,UT,46.285714285714285,NA
84121,Salt Lake County,UT,NA,19.565217391304348
05201,Bennington County,VT,68.28571428571428,NA
05301,Windham County,VT,57.99999999999999,NA
05346,Windham County,VT,NA,89.85507246376811
05401,Chittenden County,VT,72.57142857142857,NA
05478,Franklin County,VT,NA,75.60386473429952
05819,Caledonia County,VT,NA,99.03381642512076
20110,Manassas city,VA,NA,50
20155,Prince William County,VA,NA,55.55555555555556
22556,Stafford County,VA,87.42857142857143,NA
22901,Albemarle County,VA,28.000000000000004,NA
22980,Waynesboro city,VA,NA,25.60386473429952
23235,Chesterfield County,VA,41.714285714285715,NA
23320,Chesapeake city,VA,45.42857142857143,NA
23452,Virginia Beach city,VA,NA,82.1256038647343
23455,Virginia Beach city,VA,9.714285714285714,2.1739130434782608
23464,Virginia Beach city,VA,4,NA
24018,Roanoke County,VA,30.28571428571429,9.903381642512077
24127,Craig County,VA,96.85714285714285,NA
24522,Appomattox County,VA,79.71428571428572,NA
98109,King County,WA,NA,57.729468599033815
98112,King County,WA,58.57142857142858,NA
98230,Whatcom County,WA,87.71428571428571,NA
98233,Skagit County,WA,NA,46.61835748792271
98257,Skagit County,WA,82.85714285714286,NA
98277,Island County,WA,NA,63.28502415458937
98335,Pierce County,WA,33.42857142857143,NA
98354,Pierce County,WA,NA,75.36231884057972
98407,Pierce County,WA,42.285714285714285,NA
98632,Cowlitz County,WA,NA,2.657004830917874
98684,Clark County,WA,52.57142857142857,NA
98816,Chelan County,WA,72.28571428571429,NA
98855,Okanogan County,WA,86.57142857142858,NA
99320,Benton County,WA,75.42857142857143,NA
99352,Benton County,WA,NA,3.3816425120772946
99362,Walla Walla County,WA,13.428571428571429,10.628019323671497
25506,Lincoln County,WV,90.85714285714286,NA
25526,Putnam County,WV,NA,37.92270531400966
26003,Ohio County,WV,NA,3.140096618357488
26062,Hancock County,WV,25.428571428571427,NA
26104,Wood County,WV,NA,20.77294685990338
53051,Waukesha County,WI,25.142857142857146,NA
53095,Washington County,WI,NA,76.57004830917874
53098,Dodge County,WI,NA,50.96618357487923
53126,Racine County,WI,85.71428571428571,NA
53151,Waukesha County,WI,NA,15.70048309178744
53154,Milwaukee County,WI,12.571428571428573,NA
53226,Milwaukee County,WI,NA,91.54589371980676
53511,Rock County,WI,NA,19.32367149758454
53548,Rock County,WI,NA,28.502415458937197
53566,Green County,WI,NA,12.077294685990339
53711,Dane County,WI,NA,66.18357487922705
53714,Dane County,WI,75.42857142857143,NA
54016,St. Croix County,WI,42.857142857142854,NA
54024,Polk County,WI,NA,95.16908212560386
54460,Clark County,WI,NA,100
54601,La Crosse County,WI,NA,4.3478260869565215
54665,Vernon County,WI,NA,56.038647342995176
54755,Buffalo County,WI,68.57142857142857,NA
54822,Barron County,WI,NA,96.37681159420289
82414,Park County,WY,NA,40.82125603864734
82435,Park County,WY,60.57142857142858,49.033816425120776
82801,Sheridan County,WY,56.285714285714285,NA
