ZipCode,county,state,Retirement,Geriatric
35062,Jefferson County,AL,NA,94.47983014861995
35080,Shelby County,AL,NA,86.41188959660298
35111,Tuscaloosa County,AL,NA,63.69426751592356
35235,Jefferson County,AL,NA,73.46072186836517
35405,Tuscaloosa County,AL,12.144702842377262,NA
35594,Marion County,AL,69.76744186046511,NA
35620,Limestone County,AL,NA,95.75371549893843
35750,Madison County,AL,NA,94.0552016985138
35802,Madison County,AL,58.39793281653747,NA
35811,Madison County,AL,86.56330749354005,NA
36301,Houston County,AL,44.96124031007752,NA
36701,Dallas County,AL,NA,96.17834394904459
36867,Russell County,AL,37.46770025839793,NA
85018,Maricopa County,AZ,NA,89.171974522293
85022,Maricopa County,AZ,NA,50.10615711252654
85331,Maricopa County,AZ,NA,60.29723991507431
85373,Maricopa County,AZ,42.63565891472868,NA
85641,Pima County,AZ,NA,88.74734607218684
85704,Pima County,AZ,NA,59.23566878980891
85710,Pima County,AZ,72.86821705426357,NA
85718,Pima County,AZ,NA,20.8067940552017
85742,Pima County,AZ,44.44444444444444,NA
85901,Navajo County,AZ,28.42377260981912,NA
86401,Mohave County,AZ,6.459948320413436,NA
86409,Mohave County,AZ,27.648578811369507,NA
71601,Jefferson County,AR,NA,89.80891719745223
71832,Sevier County,AR,NA,90.23354564755839
72022,Saline County,AR,NA,65.39278131634819
72031,Van Buren County,AR,NA,83.2271762208068
72104,Hot Spring County,AR,NA,57.74946921443737
72112,Jackson County,AR,NA,69.00212314225053
90015,Los Angeles County,CA,88.88888888888889,NA
90065,Los Angeles County,CA,NA,56.05095541401274
90066,Los Angeles County,CA,NA,29.087048832271762
90291,Los Angeles County,CA,86.82170542635659,NA
90601,Los Angeles County,CA,90.43927648578811,NA
90631,Orange County,CA,16.27906976744186,NA
90706,Los Angeles County,CA,97.41602067183463,NA
90720,Orange County,CA,NA,67.3036093418259
91401,Los Angeles County,CA,NA,60.93418259023354
91403,Los Angeles County,CA,NA,71.12526539278132
91601,Los Angeles County,CA,59.68992248062015,NA
91607,Los Angeles County,CA,92.76485788113695,NA
91741,Los Angeles County,CA,45.73643410852713,NA
91755,Los Angeles County,CA,NA,46.07218683651805
91765,Los Angeles County,CA,NA,55.20169851380042
91977,San Diego County,CA,57.36434108527132,NA
92019,San Diego County,CA,NA,37.367303609341825
92021,San Diego County,CA,13.695090439276486,NA
92037,San Diego County,CA,NA,24.840764331210192
92056,San Diego County,CA,NA,13.588110403397028
92064,San Diego County,CA,89.66408268733849,NA
92069,San Diego County,CA,NA,78.13163481953292
92078,San Diego County,CA,70.54263565891473,NA
92101,San Diego County,CA,8.2687338501292,NA
92106,San Diego County,CA,57.88113695090439,NA
92110,San Diego County,CA,NA,72.1868365180467
92154,San Diego County,CA,20.930232558139537,NA
92211,Riverside County,CA,NA,3.397027600849257
92536,Riverside County,CA,NA,98.30148619957538
92563,Riverside County,CA,NA,42.88747346072187
92604,Orange County,CA,57.105943152454785,NA
92620,Orange County,CA,NA,48.832271762208066
92649,Orange County,CA,NA,34.6072186836518
92672,Orange County,CA,NA,43.94904458598726
92683,Orange County,CA,66.40826873385012,NA
92804,Orange County,CA,NA,91.50743099787687
92835,Orange County,CA,NA,22.505307855626327
92845,Orange County,CA,58.91472868217055,NA
93004,Ventura County,CA,44.18604651162791,NA
93010,Ventura County,CA,NA,84.71337579617835
93012,Ventura County,CA,NA,29.511677282377917
93063,Ventura County,CA,26.614987080103358,NA
94010,San Mateo County,CA,NA,42.462845010615716
94062,San Mateo County,CA,NA,49.25690021231423
94114,San Francisco County,CA,47.803617571059434,NA
94118,San Francisco County,CA,75.96899224806202,NA
94404,San Mateo County,CA,NA,84.288747346072185
94515,Napa County,CA,87.08010335917312,NA
94523,Contra Costa County,CA,NA,47.77070063694268
94536,Alameda County,CA,NA,21.86836518046709
94558,Napa County,CA,NA,46.70912951167728
94568,Alameda County,CA,NA,98.93842887473461
95112,Santa Clara County,CA,78.81136950904393,NA
95127,Santa Clara County,CA,39.79328165374677,NA
95129,Santa Clara County,CA,NA,46.92144373673036
95327,Tuolumne County,CA,NA,85.56263269639066
95336,San Joaquin County,CA,22.22222222222222,NA
95350,Stanislaus County,CA,NA,18.895966029723994
95351,Stanislaus County,CA,NA,63.481953290870486
95368,Stanislaus County,CA,84.23772609819122,NA
95376,San Joaquin County,CA,33.59173126614987,NA
95404,Sonoma County,CA,80.36175710594316,NA
95562,Humboldt County,CA,96.64082687338501,NA
95602,Placer County,CA,NA,33.97027600849257
95616,Yolo County,CA,NA,41.6135881104034
95661,Placer County,CA,48.57881136950905,NA
95667,El Dorado County,CA,NA,15.074309978768577
95670,Sacramento County,CA,NA,28.237791932059448
95678,Placer County,CA,NA,59.660297239915074
95822,Sacramento County,CA,38.50129198966408,23.35456475583864
95827,Sacramento County,CA,NA,67.72823779193206
95835,Sacramento County,CA,63.30749354005169,NA
95838,Sacramento County,CA,NA,64.96815286624204
95959,Nevada County,CA,NA,60.509554140127385
80004,Jefferson County,CO,77.77777777777779,NA
80026,Boulder County,CO,41.86046511627907,NA
80224,Denver County,CO,NA,89.59660297239915
80226,Jefferson County,CO,NA,62.63269639065817
80227,Jefferson County,CO,NA,54.77707006369427
80401,Jefferson County,CO,NA,47.346072186836516
81101,Alamosa County,CO,NA,74.3099787685775
81323,Montezuma County,CO,NA,61.57112526539278
81501,Mesa County,CO,NA,71.76220806794055
06010,Hartford County,CT,NA,3.1847133757961785
06042,Hartford County,CT,NA,86.62420382165605
06078,Hartford County,CT,NA,86.1995753715499
06109,Hartford County,CT,NA,33.33333333333333
06117,Hartford County,CT,NA,70.27600849256899
06118,Hartford County,CT,NA,35.881104033970274
06405,New Haven County,CT,NA,10.615711252653929
06489,Hartford County,CT,17.571059431524546,NA
06492,New Haven County,CT,NA,6.369426751592357
06614,Fairfield County,CT,NA,27.60084925690021
06704,New Haven County,CT,74.67700258397933,NA
06824,Fairfield County,CT,NA,56.475583864118896
06880,Fairfield County,CT,55.81395348837209,NA
06883,Fairfield County,CT,NA,99.15074309978769
06896,Fairfield County,CT,NA,78.55626326963908
19713,New Castle County,DE,30.23255813953488,34.394904458598724
19950,Sussex County,DE,NA,96.81528662420382
19970,Sussex County,DE,87.59689922480621,NA
19971,Sussex County,DE,40.05167958656331,NA
19973,Sussex County,DE,20.155038759689923,NA
32034,Nassau County,FL,NA,17.62208067940552
32118,Volusia County,FL,89.92248062015504,NA
32119,Volusia County,FL,NA,79.83014861995754
32128,Volusia County,FL,54.52196382428941,NA
32162,Sumter County,FL,1.550387596899225,NA
32210,Duval County,FL,48.837209302325576,NA
32219,Duval County,FL,60.72351421188631,NA
32221,Duval County,FL,NA,74.09766454352442
32409,Bay County,FL,NA,81.52866242038218
32435,Walton County,FL,NA,86.83651804670913
32459,Walton County,FL,NA,65.39278131634819
32561,Santa Rosa County,FL,71.0594315245478,NA
32571,Santa Rosa County,FL,14.21188630490956,NA
32712,Orange County,FL,NA,24.628450106157114
32738,Volusia County,FL,NA,49.89384288747346
32818,Orange County,FL,45.73643410852713,NA
32835,Orange County,FL,46.770025839793284,NA
32958,Indian River County,FL,96.89922480620154,6.794055201698514
32960,Indian River County,FL,NA,47.983014861995755
32968,Indian River County,FL,NA,74.3099787685775
33009,Broward County,FL,NA,42.462845010615716
33012,Miami-Dade County,FL,NA,4.45859872611465
33050,Monroe County,FL,78.0361757105943,NA
33060,Broward County,FL,90.18087855297158,NA
33066,Broward County,FL,NA,19.53290870488323
33138,Miami-Dade County,FL,NA,87.68577494692144
33156,Miami-Dade County,FL,NA,77.07006369426752
33157,Miami-Dade County,FL,21.705426356589147,NA
33160,Miami-Dade County,FL,NA,70.70063694267516
33162,Miami-Dade County,FL,78.29457364341084,NA
33185,Miami-Dade County,FL,65.37467700258398,NA
33408,Palm Beach County,FL,61.240310077519375,NA
33435,Palm Beach County,FL,49.35400516795866,NA
33436,Palm Beach County,FL,NA,14.8619957537155
33467,Palm Beach County,FL,NA,15.498938428874734
33472,Palm Beach County,FL,NA,58.81104033970276
33480,Palm Beach County,FL,NA,36.30573248407643
33486,Palm Beach County,FL,43.669250645994836,NA
33563,Hillsborough County,FL,88.37209302325581,NA
33584,Hillsborough County,FL,60.46511627906976,NA
33598,Hillsborough County,FL,NA,77.70700636942675
33701,Pinellas County,FL,NA,81.95329087048833
33714,Pinellas County,FL,62.01550387596899,NA
33755,Pinellas County,FL,58.139534883720934,NA
33761,Pinellas County,FL,NA,39.91507430997877
33825,Highlands County,FL,71.57622739018088,NA
33852,Highlands County,FL,NA,7.006369426751593
33912,Lee County,FL,NA,21.019108280254777
33919,Lee County,FL,13.953488372093023,NA
33922,Lee County,FL,NA,84.92569002123143
33950,Charlotte County,FL,30.749354005167955,NA
34112,Collier County,FL,NA,22.080679405520172
34203,Manatee County,FL,21.188630490956072,NA
34209,Manatee County,FL,NA,23.56687898089172
34233,Sarasota County,FL,88.63049095607235,NA
34292,Sarasota County,FL,NA,13.375796178343949
34453,Citrus County,FL,NA,85.13800424628451
34465,Citrus County,FL,NA,64.11889596602973
34684,Pinellas County,FL,NA,96.60297239915074
34711,Lake County,FL,NA,4.8832271762208075
34759,Polk County,FL,39.01808785529715,NA
34957,Martin County,FL,NA,18.046709129511676
30004,Fulton County,GA,NA,44.161358811040344
30066,Cobb County,GA,27.131782945736433,NA
30115,Cherokee County,GA,65.89147286821705,NA
30305,Fulton County,GA,86.04651162790698,NA
30523,Habersham County,GA,NA,60.72186836518046
30701,Gordon County,GA,29.457364341085274,NA
30813,Columbia County,GA,NA,61.995753715498935
30817,Lincoln County,GA,NA,88.1104033970276
30906,Richmond County,GA,NA,18.259023354564754
31021,Laurens County,GA,50.3875968992248,NA
31210,Bibb County,GA,NA,45.43524416135881
31302,Effingham County,GA,91.21447028423772,NA
31639,Berrien County,GA,NA,64.75583864118896
31750,Ben Hill County,GA,NA,56.05095541401274
96707,Honolulu County,HI,31.007751937984494,NA
96734,Honolulu County,HI,NA,61.3588110403397
96740,Hawaii County,HI,NA,95.54140127388536
96744,Honolulu County,HI,NA,3.821656050955414
96761,Maui County,HI,83.4625322997416,NA
96768,Maui County,HI,97.9328165374677,NA
96790,Maui County,HI,98.96640826873386,NA
96793,Maui County,HI,57.622739018087856,NA
96813,Honolulu County,HI,NA,41.18895966029724
96816,Honolulu County,HI,17.31266149870801,NA
96821,Honolulu County,HI,66.1498708010336,NA
96822,Honolulu County,HI,18.863049095607234,NA
83333,Blaine County,ID,91.7312661498708,NA
83340,Blaine County,ID,51.162790697674424,NA
83467,Lemhi County,ID,NA,95.96602972399151
83714,Ada County,ID,NA,14.225053078556263
60005,Cook County,IL,NA,31.210191082802545
60016,Cook County,IL,NA,8.067940552016985
60044,Lake County,IL,79.58656330749353,NA
60045,Lake County,IL,NA,48.40764331210191
60053,Cook County,IL,NA,29.723991507431
60061,Lake County,IL,71.83462532299741,NA
60077,Cook County,IL,59.17312661498708,NA
60091,Cook County,IL,22.739018087855296,NA
60119,Kane County,IL,72.60981912144703,NA
60142,McHenry County,IL,NA,2.547770700636943
60148,DuPage County,IL,NA,12.314225053078557
60411,Cook County,IL,NA,19.745222929936308
60417,Will County,IL,84.49612403100775,52.4416135881104
60423,Will County,IL,23.772609819121445,NA
60443,Cook County,IL,NA,46.07218683651805
60453,Cook County,IL,NA,6.581740976645436
60467,Cook County,IL,NA,16.13588110403397
60477,Cook County,IL,NA,11.67728237791932
60510,Kane County,IL,42.11886304909561,NA
60517,DuPage County,IL,NA,46.07218683651805
60565,DuPage County,IL,19.379844961240313,76.00849256900213
60610,Cook County,IL,NA,21.443736730360936
60626,Cook County,IL,NA,57.537154989384284
60630,Cook County,IL,12.661498708010335,NA
60639,Cook County,IL,NA,40.76433121019109
60652,Cook County,IL,25.064599483204137,NA
60659,Cook County,IL,NA,43.73673036093418
60714,Cook County,IL,NA,11.252653927813164
61032,Stephenson County,IL,NA,14.64968152866242
61081,Whiteside County,IL,14.987080103359174,NA
61108,Winnebago County,IL,NA,27.388535031847134
61254,Henry County,IL,NA,61.78343949044586
61571,Tazewell County,IL,NA,51.59235668789809
61604,Peoria County,IL,NA,16.348195329087048
61611,Tazewell County,IL,NA,76.2208067940552
61761,McLean County,IL,36.434108527131784,NA
62544,Macon County,IL,100,NA
62896,Franklin County,IL,NA,51.38004246284501
46011,Madison County,IN,NA,37.367303609341825
46151,Morgan County,IN,20.671834625322997,NA
46205,Marion County,IN,NA,78.98089171974523
46240,Marion County,IN,NA,66.66666666666666
46260,Marion County,IN,NA,39.27813163481954
46808,Allen County,IN,54.78036175710594,NA
46835,Allen County,IN,37.72609819121447,NA
47802,Vigo County,IN,35.917312661498705,NA
50401,Cerro Gordo County,IA,NA,13.163481953290871
50501,Webster County,IA,34.366925064599485,77.91932059447984
50662,Fayette County,IA,NA,90.44585987261146
50701,Black Hawk County,IA,NA,15.92356687898089
51250,Sioux County,IA,92.50645994832041,NA
51501,Pottawattamie County,IA,9.819121447028424,NA
52349,Benton County,IA,NA,68.15286624203821
52806,Scott County,IA,NA,92.56900212314225
66046,Douglas County,KS,74.4186046511628,NA
66614,Shawnee County,KS,18.6046511627907,NA
67114,Harvey County,KS,NA,59.447983014862
67213,Sedgwick County,KS,75.1937984496124,NA
40069,Washington County,KY,78.55297157622739,NA
40243,Jefferson County,KY,73.64341085271317,NA
40324,Scott County,KY,NA,81.31634819532908
40391,Clark County,KY,12.4031007751938,NA
40422,Boyle County,KY,41.08527131782946,NA
40514,Fayette County,KY,84.75452196382429,NA
41164,Carter County,KY,32.55813953488372,NA
41501,Pike County,KY,NA,32.05944798301486
42064,Crittenden County,KY,87.85529715762273,NA
42501,Pulaski County,KY,51.67958656330749,NA
42718,Taylor County,KY,8.010335917312661,NA
70001,Jefferson Parish,LA,NA,10.40339702760085
70043,St. Bernard Parish,LA,59.9483204134367,NA
70116,Orleans Parish,LA,90.95607235142118,NA
70433,St. Tammany Parish,LA,6.2015503875969,NA
70510,Vermilion Parish,LA,NA,44.79830148619958
70517,St. Martin Parish,LA,NA,38.6411889596603
70526,Acadia Parish,LA,NA,82.80254777070064
71055,Webster Parish,LA,64.34108527131784,NA
71118,Caddo Parish,LA,26.098191214470283,NA
71342,La Salle Parish,LA,58.656330749354005,NA
71360,Rapides Parish,LA,27.906976744186046,NA
04073,York County,ME,NA,15.074309978768577
04074,Cumberland County,ME,50.129198966408275,NA
04401,Penobscot County,ME,NA,0.6369426751592357
04416,Hancock County,ME,76.22739018087856,NA
04609,Hancock County,ME,95.34883720930233,NA
04730,Aroostook County,ME,NA,33.12101910828025
04736,Aroostook County,ME,NA,29.936305732484076
04841,Knox County,ME,NA,54.989384288747345
20906,Montgomery County,MD,NA,12.526539278131635
21054,Anne Arundel County,MD,NA,89.38428874734608
21093,Baltimore County,MD,NA,78.343949044586
21117,Baltimore County,MD,NA,40.339702760084926
21212,Baltimore city,MD,82.94573643410853,NA
21225,Baltimore city,MD,80.10335917312662,NA
21234,Baltimore County,MD,NA,5.520169851380043
21738,Howard County,MD,99.74160206718346,NA
01104,Hampden County,MA,NA,2.7600849256900215
01240,Berkshire County,MA,80.87855297157623,NA
01331,Worcester County,MA,61.75710594315246,NA
01420,Worcester County,MA,17.05426356589147,NA
01473,Worcester County,MA,NA,97.87685774946921
01501,Worcester County,MA,61.49870801033591,95.1167728237792
01510,Worcester County,MA,10.594315245478036,NA
01545,Worcester County,MA,15.503875968992247,NA
01608,Worcester County,MA,98.44961240310077,NA
01810,Essex County,MA,15.762273901808785,NA
01863,Middlesex County,MA,54.263565891472865,NA
01907,Essex County,MA,NA,18.471337579617835
01915,Essex County,MA,NA,0.8492569002123143
01923,Essex County,MA,NA,17.40976645435244
01945,Essex County,MA,NA,65.18046709129511
01952,Essex County,MA,51.42118863049095,NA
02050,Plymouth County,MA,NA,31.634819532908704
02052,Norfolk County,MA,NA,80.89171974522293
02115,Suffolk County,MA,NA,26.53927813163482
02118,Suffolk County,MA,4.651162790697675,NA
02122,Suffolk County,MA,11.369509043927648,NA
02127,Suffolk County,MA,NA,12.738853503184714
02128,Suffolk County,MA,NA,98.72611464968153
02130,Suffolk County,MA,1.2919896640826873,NA
02135,Suffolk County,MA,NA,1.2738853503184715
02140,Middlesex County,MA,NA,26.751592356687897
02143,Middlesex County,MA,NA,70.91295116772824
02148,Middlesex County,MA,NA,8.9171974522293
02151,Suffolk County,MA,NA,97.0276008492569
02186,Norfolk County,MA,NA,21.019108280254777
02346,Plymouth County,MA,11.627906976744185,32.696390658174096
02420,Middlesex County,MA,NA,45.85987261146497
02446,Norfolk County,MA,NA,38.853503184713375
02467,Norfolk County,MA,NA,31.84713375796178
02474,Middlesex County,MA,25.581395348837212,NA
02482,Norfolk County,MA,NA,77.49469214437367
02493,Middlesex County,MA,62.532299741602074,NA
02536,Barnstable County,MA,13.436692506459949,NA
02632,Barnstable County,MA,NA,81.104033970276
02740,Bristol County,MA,0,NA
02760,Bristol County,MA,NA,51.80467091295117
02777,Bristol County,MA,NA,36.09341825902335
48017,Oakland County,MI,85.52971576227391,NA
48023,St. Clair County,MI,NA,92.35668789808918
48103,Washtenaw County,MI,NA,70.06369426751591
48105,Washtenaw County,MI,NA,83.65180467091295
48114,Livingston County,MI,27.39018087855297,NA
48124,Wayne County,MI,53.229974160206716,NA
48128,Wayne County,MI,NA,75.79617834394905
48130,Washtenaw County,MI,NA,44.5859872611465
48138,Wayne County,MI,51.93798449612403,NA
48158,Washtenaw County,MI,NA,79.19320594479831
48167,Oakland County,MI,55.297157622739014,NA
48176,Washtenaw County,MI,NA,25.05307855626327
48184,Wayne County,MI,NA,38.42887473460722
48188,Wayne County,MI,33.0749354005168,NA
48236,Wayne County,MI,NA,91.0828025477707
48306,Oakland County,MI,67.95865633074936,NA
48307,Oakland County,MI,NA,68.36518046709129
48336,Oakland County,MI,NA,30.148619957537154
48381,Oakland County,MI,73.90180878552972,NA
48383,Oakland County,MI,76.48578811369508,NA
48420,Genesee County,MI,38.24289405684754,NA
48423,Genesee County,MI,67.70025839793283,NA
48430,Genesee County,MI,NA,22.717622080679405
48507,Genesee County,MI,NA,93.20594479830149
48602,Saginaw County,MI,10.335917312661499,NA
48603,Saginaw County,MI,7.493540051679587,10.191082802547772
48611,Bay County,MI,NA,71.97452229299363
48625,Clare County,MI,21.963824289405682,NA
48706,Bay County,MI,1.03359173126615,NA
48739,Iosco County,MI,98.19121447028424,NA
48855,Livingston County,MI,70.28423772609818,NA
49038,Berrien County,MI,NA,99.78768577494692
49221,Lenawee County,MI,29.198966408268735,68.78980891719745
49230,Jackson County,MI,40.82687338501292,NA
49315,Kent County,MI,NA,39.06581740976646
49323,Allegan County,MI,93.02325581395348,NA
49418,Kent County,MI,56.58914728682171,NA
49424,Ottawa County,MI,12.919896640826872,NA
49426,Ottawa County,MI,NA,59.023354564755834
49445,Muskegon County,MI,19.896640826873384,NA
49449,Oceana County,MI,94.57364341085271,NA
49534,Kent County,MI,NA,49.044585987261144
49635,Benzie County,MI,NA,75.15923566878982
49783,Chippewa County,MI,19.12144702842377,NA
49855,Marquette County,MI,45.47803617571059,NA
49913,Houghton County,MI,NA,41.40127388535032
55060,Steele County,MN,30.490956072351423,NA
55103,Ramsey County,MN,NA,90.87048832271762
55118,Dakota County,MN,NA,25.265392781316347
55122,Dakota County,MN,56.84754521963824,NA
55305,Hennepin County,MN,68.73385012919897,NA
55414,Hennepin County,MN,92.24806201550388,NA
55804,St. Louis County,MN,NA,58.59872611464968
56001,Blue Earth County,MN,32.81653746770026,NA
56007,Freeborn County,MN,65.11627906976744,NA
56267,Stevens County,MN,48.06201550387597,NA
56377,Stearns County,MN,80.62015503875969,NA
56470,Hubbard County,MN,NA,81.74097664543525
56537,Otter Tail County,MN,NA,1.910828025477707
56601,Beltrami County,MN,NA,1.0615711252653928
39042,Rankin County,MS,NA,15.711252653927813
39046,Madison County,MS,48.320413436692505,NA
39211,Hinds County,MS,66.66666666666666,NA
39307,Lauderdale County,MS,63.04909560723514,NA
39507,Harrison County,MS,32.041343669250644,NA
39530,Harrison County,MS,82.68733850129199,66.02972399150742
39601,Lincoln County,MS,38.759689922480625,NA
63017,St. Louis County,MO,74.93540051679587,NA
63021,St. Louis County,MO,NA,35.6687898089172
63043,St. Louis County,MO,43.15245478036176,NA
63129,St. Louis County,MO,NA,9.554140127388536
63775,Perry County,MO,NA,25.477707006369428
63901,Butler County,MO,24.031007751937985,NA
64055,Jackson County,MO,5.684754521963824,NA
64081,Jackson County,MO,NA,39.70276008492569
64093,Johnson County,MO,33.850129198966414,NA
64118,Clay County,MO,NA,30.78556263269639
64133,Jackson County,MO,3.359173126614987,30.573248407643312
64145,Jackson County,MO,NA,87.89808917197452
64429,Clinton County,MO,NA,65.81740976645435
64505,Buchanan County,MO,NA,38.004246284501065
64506,Buchanan County,MO,5.167958656330749,NA
64507,Buchanan County,MO,65.63307493540051,NA
65203,Boone County,MO,10.077519379844961,NA
65441,Crawford County,MO,86.30490956072352,NA
65608,Douglas County,MO,NA,88.53503184713377
65706,Webster County,MO,NA,59.87261146496815
59102,Yellowstone County,MT,3.6175710594315245,NA
59405,Cascade County,MT,NA,7.855626326963907
59601,Lewis and Clark County,MT,NA,22.929936305732486
59860,Lake County,MT,69.50904392764858,NA
68124,Douglas County,NE,75.45219638242894,NA
68154,Douglas County,NE,NA,56.90021231422505
68310,Gage County,NE,NA,16.985138004246284
68506,Lancaster County,NE,41.60206718346253,NA
68901,Adams County,NE,97.1576227390181,NA
89801,Elko County,NV,95.09043927648578,NA
03045,Hillsborough County,NH,62.7906976744186,NA
03049,Hillsborough County,NH,94.57364341085271,NA
03055,Hillsborough County,NH,NA,42.88747346072187
03275,Merrimack County,NH,NA,62.84501061571125
03446,Cheshire County,NH,77.51937984496125,NA
03458,Hillsborough County,NH,NA,40.552016985138
03860,Carroll County,NH,85.27131782945736,NA
07017,Essex County,NJ,NA,51.80467091295117
07036,Union County,NJ,NA,33.54564755838641
07202,Union County,NJ,NA,28.662420382165603
07305,Hudson County,NJ,NA,29.29936305732484
07450,Bergen County,NJ,90.69767441860465,NA
07461,Sussex County,NJ,52.97157622739018,NA
07631,Bergen County,NJ,24.54780361757106,NA
07712,Monmouth County,NJ,NA,84.50106157112526
07716,Monmouth County,NJ,81.91214470284238,NA
07726,Monmouth County,NJ,26.873385012919897,NA
07823,Warren County,NJ,NA,66.45435244161358
07882,Warren County,NJ,49.6124031007752,NA
07921,Somerset County,NJ,99.48320413436691,NA
07922,Union County,NJ,97.67441860465115,NA
08016,Burlington County,NJ,NA,35.03184713375796
08034,Camden County,NJ,NA,99.36305732484077
08069,Salem County,NJ,NA,95.32908704883228
08087,Ocean County,NJ,43.41085271317829,NA
08096,Gloucester County,NJ,7.235142118863049,NA
08103,Camden County,NJ,19.638242894056848,NA
08234,Atlantic County,NJ,NA,24.416135881104033
08402,Atlantic County,NJ,77.2609819121447,NA
08742,Ocean County,NJ,NA,33.75796178343949
08757,Ocean County,NJ,3.10077519379845,0.42462845010615713
08759,Ocean County,NJ,NA,0
08807,Somerset County,NJ,36.95090439276486,82.59023354564756
08844,Somerset County,NJ,NA,92.99363057324841
08889,Hunterdon County,NJ,83.72093023255815,NA
87111,Bernalillo County,NM,10.852713178294573,NA
88012,Doa Ana County,NM,NA,54.56475583864119
88201,Chaves County,NM,34.62532299741602,52.22929936305732
10028,New York County,NY,NA,20.382165605095544
10461,Bronx County,NY,47.54521963824289,NA
10463,Bronx County,NY,NA,22.29299363057325
10918,Orange County,NY,89.40568475452196,NA
10965,Rockland County,NY,NA,71.3375796178344
10990,Orange County,NY,NA,42.25053078556263
11030,Nassau County,NY,NA,99.57537154989384
11235,Kings County,NY,NA,11.8895966029724
11378,Queens County,NY,50.90439276485789,NA
11563,Nassau County,NY,94.31524547803618,NA
11572,Nassau County,NY,NA,45.010615711252655
11691,Queens County,NY,NA,19.957537154989385
11726,Suffolk County,NY,NA,67.72823779193206
11755,Suffolk County,NY,NA,83.2271762208068
11787,Suffolk County,NY,33.33333333333333,NA
11788,Suffolk County,NY,NA,100
11801,Nassau County,NY,72.3514211886305,NA
12095,Fulton County,NY,NA,58.3864118895966
12304,Schenectady County,NY,35.14211886304909,NA
12309,Schenectady County,NY,55.297157622739014,NA
12540,Dutchess County,NY,95.8656330749354,NA
12561,Ulster County,NY,94.05684754521964,NA
12804,Warren County,NY,9.30232558139535,NA
12832,Washington County,NY,NA,73.67303609341825
13407,Herkimer County,NY,NA,83.01486199575372
13601,Jefferson County,NY,NA,52.86624203821656
13760,Broome County,NY,0.2583979328165375,NA
13820,Otsego County,NY,NA,70.48832271762208
14127,Erie County,NY,NA,19.32059447983015
14416,Genesee County,NY,NA,98.51380042462846
14456,Ontario County,NY,3.875968992248062,NA
14559,Monroe County,NY,NA,31.422505307855626
14626,Monroe County,NY,NA,7.643312101910828
14883,Tioga County,NY,87.85529715762273,NA
27018,Yadkin County,NC,NA,50.955414012738856
27023,Forsyth County,NC,50.64599483204134,NA
27055,Yadkin County,NC,NA,79.40552016985139
27103,Forsyth County,NC,6.976744186046512,NA
27104,Forsyth County,NC,NA,3.6093418259023355
27107,Forsyth County,NC,NA,35.24416135881104
27284,Forsyth County,NC,14.728682170542637,NA
27357,Rockingham County,NC,79.84496124031007,NA
27360,Davidson County,NC,NA,11.464968152866243
27410,Guilford County,NC,NA,76.64543524416136
27572,Person County,NC,NA,92.78131634819533
27603,Wake County,NC,70.02583979328165,NA
27705,Durham County,NC,39.276485788113696,NA
27886,Edgecombe County,NC,68.47545219638242,NA
27896,Wilson County,NC,NA,69.2144373673036
27932,Chowan County,NC,NA,37.79193205944799
28012,Gaston County,NC,46.253229974160206,NA
28021,Gaston County,NC,81.65374677002583,NA
28078,Mecklenburg County,NC,31.266149870801037,NA
28092,Lincoln County,NC,13.178294573643413,NA
28401,New Hanover County,NC,NA,80.46709129511677
28405,New Hanover County,NC,NA,53.71549893842887
28461,Brunswick County,NC,NA,17.197452229299362
28613,Catawba County,NC,35.65891472868217,NA
28642,Yadkin County,NC,NA,73.88535031847134
28659,Wilkes County,NC,NA,73.03609341825901
28734,Macon County,NC,NA,4.246284501061571
28806,Buncombe County,NC,37.98449612403101,NA
28906,Cherokee County,NC,28.68217054263566,NA
58078,Cass County,ND,14.470284237726098,18.683651804670912
58401,Stutsman County,ND,NA,85.13800424628451
58701,Ward County,ND,NA,2.1231422505307855
58801,Williams County,ND,43.927648578811365,NA
43140,Madison County,OH,31.52454780361757,NA
43147,Fairfield County,OH,55.03875968992248,NA
43229,Franklin County,OH,52.19638242894057,NA
43230,Franklin County,OH,NA,24.203821656050955
43302,Marion County,OH,1.8087855297157622,NA
43326,Hardin County,OH,67.44186046511628,NA
43410,Sandusky County,OH,NA,69.63906581740976
43567,Fulton County,OH,35.400516795865634,NA
43614,Lucas County,OH,9.560723514211885,NA
43725,Guernsey County,OH,4.909560723514212,NA
43812,Coshocton County,OH,5.426356589147287,NA
43832,Tuscarawas County,OH,NA,97.45222929936305
43920,Columbiana County,OH,9.043927648578812,NA
44011,Lorain County,OH,26.356589147286826,NA
44021,Geauga County,OH,NA,76.85774946921444
44023,Geauga County,OH,NA,66.87898089171973
44039,Lorain County,OH,2.0671834625323,5.095541401273886
44056,Summit County,OH,NA,41.825902335456476
44057,Lake County,OH,46.51162790697674,NA
44095,Lake County,OH,NA,5.7324840764331215
44107,Cuyahoga County,OH,NA,8.492569002123142
44109,Cuyahoga County,OH,NA,5.9447983014862
44118,Cuyahoga County,OH,36.17571059431525,NA
44119,Cuyahoga County,OH,NA,75.58386411889597
44134,Cuyahoga County,OH,NA,4.670912951167728
44143,Cuyahoga County,OH,NA,2.335456475583864
44145,Cuyahoga County,OH,NA,4.033970276008493
44212,Medina County,OH,0.516795865633075,NA
44224,Summit County,OH,NA,9.766454352441615
44236,Summit County,OH,NA,37.15498938428875
44256,Medina County,OH,18.34625322997416,1.48619957537155
44708,Stark County,OH,NA,19.10828025477707
44721,Stark County,OH,NA,69.85138004246284
44820,Crawford County,OH,NA,25.690021231422506
45503,Clark County,OH,NA,11.040339702760086
45601,Ross County,OH,NA,26.326963906581742
45638,Lawrence County,OH,2.842377260981912,25.902335456475583
45648,Scioto County,OH,NA,93.41825902335457
45660,Adams County,OH,NA,64.3312101910828
45801,Allen County,OH,87.33850129198967,NA
45807,Allen County,OH,NA,50.530785562632694
45856,Putnam County,OH,NA,82.37791932059449
73012,Oklahoma County,OK,NA,57.961783439490446
73034,Oklahoma County,OK,NA,87.26114649681529
73078,Canadian County,OK,71.31782945736434,NA
73099,Canadian County,OK,4.3927648578811365,NA
74132,Tulsa County,OK,82.17054263565892,NA
74344,Delaware County,OK,NA,53.503184713375795
97007,Washington County,OR,28.165374677002585,NA
97013,Clackamas County,OR,NA,57.11252653927813
97023,Clackamas County,OR,82.42894056847545,NA
97024,Multnomah County,OR,NA,93.84288747346072
97058,Wasco County,OR,NA,38.21656050955414
97206,Multnomah County,OR,24.8062015503876,NA
97215,Multnomah County,OR,84.75452196382429,NA
97223,Washington County,OR,25.32299741602067,NA
15065,Allegheny County,PA,NA,43.524416135881104
15090,Allegheny County,PA,NA,62.20806794055201
15101,Allegheny County,PA,NA,14.437367303609342
15136,Allegheny County,PA,NA,45.22292993630573
15209,Allegheny County,PA,62.273901808785524,NA
15227,Allegheny County,PA,21.44702842377261,NA
15237,Allegheny County,PA,NA,5.3078556263269645
15301,Washington County,PA,NA,12.951167728237792
15330,Washington County,PA,NA,88.95966029723992
15905,Cambria County,PA,NA,58.174097664543524
15931,Cambria County,PA,54.00516795865633,NA
15963,Somerset County,PA,49.09560723514212,NA
16002,Butler County,PA,NA,32.48407643312102
16055,Butler County,PA,NA,64.3312101910828
16201,Armstrong County,PA,NA,50.318471337579616
16407,Erie County,PA,NA,72.61146496815286
16506,Erie County,PA,NA,40.976645435244166
16601,Blair County,PA,5.943152454780361,NA
16602,Blair County,PA,NA,22.929936305732486
16803,Centre County,PA,52.4547803617571,39.490445859872615
17003,Lebanon County,PA,41.343669250645995,NA
17022,Lancaster County,PA,NA,16.348195329087048
17036,Dauphin County,PA,NA,26.11464968152866
17038,Lebanon County,PA,93.54005167958657,NA
17042,Lebanon County,PA,4.1343669250646,20.169851380042463
17055,Cumberland County,PA,NA,8.280254777070063
17057,Dauphin County,PA,16.020671834625322,NA
17111,Dauphin County,PA,NA,36.51804670912951
17112,Dauphin County,PA,29.71576227390181,NA
17325,Adams County,PA,NA,10.828025477707007
17402,York County,PA,8.527131782945736,NA
17545,Lancaster County,PA,NA,53.29087048832272
17701,Lycoming County,PA,NA,84.07643312101911
17857,Northumberland County,PA,NA,85.77494692144374
17872,Northumberland County,PA,NA,96.39065817409767
18014,Northampton County,PA,34.10852713178294,NA
18017,Northampton County,PA,NA,2.9723991507431
18036,Lehigh County,PA,NA,72.61146496815286
18064,Northampton County,PA,NA,71.54989384288747
18517,Lackawanna County,PA,NA,83.86411889596603
18641,Luzerne County,PA,64.08268733850129,NA
18644,Luzerne County,PA,59.43152454780362,NA
18702,Luzerne County,PA,NA,7.218683651804671
18944,Bucks County,PA,NA,47.5583864118896
18977,Bucks County,PA,NA,80.04246284501062
19010,Delaware County,PA,NA,46.92144373673036
19030,Bucks County,PA,64.85788113695091,NA
19038,Montgomery County,PA,NA,51.167728237791934
19061,Delaware County,PA,NA,53.07855626326964
19067,Bucks County,PA,NA,12.101910828025478
19073,Delaware County,PA,32.299741602067186,NA
19103,Philadelphia County,PA,24.289405684754524,NA
19111,Philadelphia County,PA,NA,45.64755838641189
19146,Philadelphia County,PA,NA,98.08917197452229
19320,Chester County,PA,39.53488372093023,NA
19342,Delaware County,PA,NA,28.450106157112526
19348,Chester County,PA,NA,32.27176220806794
19355,Chester County,PA,37.2093023255814,NA
19382,Chester County,PA,NA,54.35244161358811
02878,Newport County,RI,NA,91.93205944798302
02882,Washington County,RI,73.1266149870801,NA
02896,Providence County,RI,NA,73.24840764331209
02907,Providence County,RI,NA,48.19532908704883
29054,Lexington County,SC,99.2248062015504,NA
29301,Spartanburg County,SC,34.62532299741602,NA
29412,Charleston County,SC,NA,13.800424628450106
29414,Charleston County,SC,NA,67.09129511677283
29455,Charleston County,SC,31.782945736434108,NA
29568,Horry County,SC,56.07235142118863,NA
29680,Greenville County,SC,NA,92.1443736730361
29909,Beaufort County,SC,NA,17.8343949044586
57201,Codington County,SD,NA,74.94692144373673
57401,Brown County,SD,NA,32.90870488322717
37043,Montgomery County,TN,NA,40.12738853503185
37075,Sumner County,TN,NA,9.341825902335456
37115,Davidson County,TN,NA,69.42675159235668
37166,DeKalb County,TN,49.87080103359173,NA
37167,Rutherford County,TN,25.839793281653744,NA
37323,Bradley County,TN,45.21963824289406,NA
37343,Hamilton County,TN,22.48062015503876,NA
37357,Warren County,TN,NA,93.63057324840764
37412,Hamilton County,TN,52.4547803617571,NA
37743,Greene County,TN,NA,63.26963906581741
37890,Jefferson County,TN,NA,85.98726114649682
38117,Shelby County,TN,NA,79.61783439490446
38301,Madison County,TN,16.795865633074936,NA
75150,Dallas County,TX,16.5374677002584,NA
75287,Denton County,TX,42.89405684754522,NA
75503,Bowie County,TX,NA,27.81316348195329
75647,Gregg County,TX,NA,67.51592356687898
75766,Cherokee County,TX,NA,6.1571125265392785
76009,Johnson County,TX,NA,77.2823779193206
76106,Tarrant County,TX,66.9250645994832,NA
76148,Tarrant County,TX,47.02842377260982,NA
76502,Bell County,TX,NA,21.443736730360936
76513,Bell County,TX,0.7751937984496124,NA
76522,Coryell County,TX,NA,75.3715498938429
76543,Bell County,TX,NA,55.62632696390658
76571,Bell County,TX,91.47286821705426,NA
76574,Williamson County,TX,NA,9.978768577494693
76655,McLennan County,TX,NA,80.2547770700637
76708,McLennan County,TX,NA,20.59447983014862
76877,San Saba County,TX,95.60723514211887,NA
77084,Harris County,TX,23.51421188630491,NA
77092,Harris County,TX,96.38242894056847,NA
77328,San Jacinto County,TX,73.90180878552972,NA
77345,Harris County,TX,60.98191214470285,NA
77354,Montgomery County,TX,NA,94.69214437367303
77447,Harris County,TX,NA,90.65817409766454
77471,Fort Bend County,TX,NA,88.32271762208069
77511,Brazoria County,TX,NA,16.772823779193207
77808,Brazos County,TX,NA,74.73460721868365
77845,Brazos County,TX,NA,72.39915074309978
77957,Jackson County,TX,85.78811369509044,NA
78119,Karnes County,TX,93.7984496124031,NA
78154,Guadalupe County,TX,91.98966408268734,NA
78207,Bexar County,TX,NA,23.7791932059448
78214,Bexar County,TX,81.3953488372093,NA
78503,Hidalgo County,TX,93.28165374677002,NA
78573,Hidalgo County,TX,NA,26.963906581740975
78613,Williamson County,TX,NA,34.182590233545646
78633,Williamson County,TX,NA,36.94267515923567
78641,Williamson County,TX,47.286821705426355,NA
78643,Llano County,TX,NA,55.838641188959656
78654,Burnet County,TX,NA,68.57749469214437
78664,Williamson County,TX,NA,82.16560509554141
78665,Williamson County,TX,28.940568475452196,NA
79414,Lubbock County,TX,NA,56.475583864118896
79912,El Paso County,TX,63.565891472868216,NA
84009,Salt Lake County,UT,NA,76.43312101910828
84037,Davis County,UT,89.14728682170544,NA
84060,Summit County,UT,NA,94.0552016985138
84066,Duchesne County,UT,77.00258397932816,NA
84088,Salt Lake County,UT,73.1266149870801,NA
84103,Salt Lake County,UT,64.59948320413437,NA
84601,Utah County,UT,76.74418604651163,NA
05201,Bennington County,VT,23.25581395348837,NA
05403,Chittenden County,VT,NA,30.148619957537154
05443,Addison County,VT,67.18346253229974,NA
05452,Chittenden County,VT,63.82428940568475,NA
05661,Lamoille County,VT,81.13695090439276,NA
22520,Westmoreland County,VA,NA,91.29511677282377
22802,Harrisonburg city,VA,NA,30.997876857749468
22815,Rockingham County,VA,NA,57.324840764331206
22835,Page County,VA,NA,41.825902335456476
22901,Albemarle County,VA,NA,8.70488322717622
22960,Orange County,VA,79.32816537467701,NA
22963,Fluvanna County,VA,44.70284237726098,NA
23059,Henrico County,VA,60.20671834625323,NA
23061,Gloucester County,VA,NA,53.92781316348195
23112,Chesterfield County,VA,56.33074935400517,NA
23116,Hanover County,VA,NA,52.653927813163484
23181,King William County,VA,NA,97.66454352441613
23238,Henrico County,VA,NA,97.23991507430998
23434,Suffolk city,VA,8.785529715762273,NA
23455,Virginia Beach city,VA,NA,1.6985138004246285
23456,Virginia Beach city,VA,7.751937984496124,NA
23464,Virginia Beach city,VA,2.3255813953488373,NA
23601,Newport News city,VA,NA,28.874734607218684
24012,Roanoke city,VA,36.69250645994832,NA
24018,Roanoke County,VA,NA,9.129511677282377
24060,Montgomery County,VA,68.9922480620155,NA
24065,Franklin County,VA,NA,87.04883227176221
24521,Amherst County,VA,72.09302325581395,NA
24523,Bedford County,VA,NA,34.81953290870488
98003,King County,WA,20.41343669250646,27.176220806794056
98010,King County,WA,96.12403100775194,NA
98020,Snohomish County,WA,75.71059431524549,NA
98021,Snohomish County,WA,40.56847545219638,NA
98031,King County,WA,15.245478036175712,NA
98033,King County,WA,NA,63.05732484076433
98104,King County,WA,NA,80.67940552016985
98112,King County,WA,NA,62.20806794055201
98115,King County,WA,53.746770025839794,NA
98126,King County,WA,53.48837209302325,NA
98370,Kitsap County,WA,NA,55.4140127388535
98407,Pierce County,WA,NA,43.31210191082803
98597,Thurston County,WA,69.25064599483204,NA
98626,Cowlitz County,WA,NA,50.74309978768577
98631,Pacific County,WA,83.20413436692506,NA
98640,Pacific County,WA,70.80103359173127,NA
99320,Benton County,WA,98.70801033591732,NA
99350,Benton County,WA,NA,60.08492569002123
99362,Walla Walla County,WA,11.11111111111111,NA
25177,Kanawha County,WV,NA,94.90445859872611
25526,Putnam County,WV,NA,35.45647558386412
26003,Ohio County,WV,17.829457364341085,NA
26104,Wood County,WV,68.21705426356588,NA
26508,Monongalia County,WV,29.71576227390181,NA
26726,Mineral County,WV,NA,61.146496815286625
53012,Ozaukee County,WI,42.377260981912144,NA
53045,Waukesha County,WI,NA,87.47346072186836
53097,Ozaukee County,WI,NA,66.02972399150742
53132,Milwaukee County,WI,NA,48.61995753715499
53188,Waukesha County,WI,NA,78.76857749469215
53213,Milwaukee County,WI,NA,91.71974522292994
53511,Rock County,WI,NA,0.21231422505307856
53527,Dane County,WI,83.72093023255815,NA
53546,Rock County,WI,NA,7.43099787685775
53548,Rock County,WI,NA,28.02547770700637
53562,Dane County,WI,79.06976744186046,NA
53566,Green County,WI,18.087855297157624,NA
53704,Dane County,WI,NA,36.51804670912951
53705,Dane County,WI,40.310077519379846,14.012738853503185
54311,Brown County,WI,NA,23.991507430997878
54313,Brown County,WI,NA,90.02123142250531
54409,Langlade County,WI,22.997416020671835,NA
54457,Wood County,WI,NA,63.90658174097664
54601,La Crosse County,WI,11.886304909560723,NA
54636,La Crosse County,WI,NA,54.14012738853503
54650,La Crosse County,WI,6.718346253229974,44.37367303609342
54880,Douglas County,WI,2.5839793281653747,49.469214437367306
82435,Park County,WY,NA,49.681528662420384
