ZipCode,county,state,Adult,Retirement,Geriatric
35010,Tallapoosa County,AL,39.75409836065574,NA,NA
35184,Bibb County,AL,NA,76.3975155279503,NA
35405,Tuscaloosa County,AL,NA,11.387163561076605,NA
35504,Walker County,AL,NA,62.52587991718427,NA
35601,Morgan County,AL,NA,NA,27.303754266211605
35603,Morgan County,AL,NA,NA,25.938566552901023
35630,Lauderdale County,AL,32.78688524590164,NA,NA
35906,Etowah County,AL,NA,74.12008281573499,NA
36027,Barbour County,AL,42.21311475409836,NA,NA
36078,Elmore County,AL,NA,74.53416149068323,NA
36081,Pike County,AL,NA,64.18219461697723,NA
36305,Houston County,AL,NA,62.31884057971014,NA
36502,Escambia County,AL,NA,NA,61.774744027303754
36535,Baldwin County,AL,77.8688524590164,NA,NA
85007,Maricopa County,AZ,10.655737704918032,NA,NA
85009,Maricopa County,AZ,NA,22.77432712215321,NA
85040,Maricopa County,AZ,NA,80.33126293995859,NA
85053,Maricopa County,AZ,NA,57.7639751552795,NA
85224,Maricopa County,AZ,NA,41.40786749482402,NA
85281,Maricopa County,AZ,NA,71.84265010351967,NA
85308,Maricopa County,AZ,NA,14.285714285714285,NA
85326,Maricopa County,AZ,NA,38.923395445134574,NA
85351,Maricopa County,AZ,NA,NA,0.6825938566552902
85375,Maricopa County,AZ,NA,19.66873706004141,NA
85719,Pima County,AZ,37.704918032786885,NA,NA
85742,Pima County,AZ,57.377049180327866,NA,NA
85748,Pima County,AZ,NA,68.32298136645963,NA
85925,Apache County,AZ,NA,96.27329192546584,NA
86314,Yavapai County,AZ,NA,NA,10.238907849829351
86401,Mohave County,AZ,NA,7.453416149068323,NA
86440,Mohave County,AZ,NA,75.36231884057972,NA
71852,Howard County,AR,NA,80.74534161490683,71.33105802047781
72103,Saline County,AR,NA,NA,61.092150170648466
72223,Pulaski County,AR,NA,NA,45.051194539249146
72364,Crittenden County,AR,NA,86.74948240165632,NA
72529,Sharp County,AR,NA,97.51552795031056,NA
72631,Carroll County,AR,NA,NA,91.12627986348123
72802,Pope County,AR,NA,NA,96.58703071672356
90019,Los Angeles County,CA,45.08196721311475,NA,NA
90033,Los Angeles County,CA,NA,49.06832298136646,NA
90034,Los Angeles County,CA,NA,92.7536231884058,NA
90056,Los Angeles County,CA,NA,91.30434782608695,NA
90064,Los Angeles County,CA,NA,NA,56.655290102389074
90201,Los Angeles County,CA,NA,68.53002070393374,NA
90250,Los Angeles County,CA,NA,21.532091097308488,NA
90403,Los Angeles County,CA,NA,67.49482401656314,NA
90605,Los Angeles County,CA,63.52459016393443,NA,NA
90631,Orange County,CA,NA,NA,19.795221843003414
90650,Los Angeles County,CA,NA,65.83850931677019,NA
90808,Los Angeles County,CA,NA,37.88819875776397,NA
91016,Los Angeles County,CA,NA,55.27950310559007,NA
91040,Los Angeles County,CA,NA,NA,68.94197952218431
91304,Los Angeles County,CA,NA,NA,14.334470989761092
91316,Los Angeles County,CA,NA,NA,22.866894197952217
91342,Los Angeles County,CA,NA,NA,35.83617747440273
91402,Los Angeles County,CA,NA,NA,89.76109215017065
91501,Los Angeles County,CA,NA,NA,83.95904436860067
91605,Los Angeles County,CA,80.32786885245902,NA,NA
91763,San Bernardino County,CA,NA,69.77225672877847,NA
91767,Los Angeles County,CA,44.67213114754098,NA,NA
91913,San Diego County,CA,NA,NA,64.16382252559727
92021,San Diego County,CA,17.62295081967213,NA,NA
92251,Imperial County,CA,NA,NA,80.2047781569966
92307,San Bernardino County,CA,NA,NA,40.955631399317404
92346,San Bernardino County,CA,NA,43.89233954451346,NA
92399,San Bernardino County,CA,NA,NA,24.2320819112628
92504,Riverside County,CA,46.31147540983606,NA,NA
92544,Riverside County,CA,NA,NA,55.2901023890785
92570,Riverside County,CA,NA,43.064182194616976,NA
92583,Riverside County,CA,68.0327868852459,87.99171842650104,NA
92683,Orange County,CA,NA,70.60041407867494,NA
92703,Orange County,CA,41.80327868852459,NA,NA
92708,Orange County,CA,NA,12.629399585921325,NA
92880,Riverside County,CA,NA,NA,66.55290102389078
93015,Ventura County,CA,NA,76.60455486542443,NA
93065,Ventura County,CA,17.21311475409836,NA,NA
93230,Kings County,CA,NA,NA,21.501706484641637
93247,Tulare County,CA,NA,84.67908902691511,NA
93257,Tulare County,CA,NA,NA,20.477815699658702
93277,Tulare County,CA,NA,NA,84.98293515358361
93446,San Luis Obispo County,CA,NA,NA,47.44027303754266
93534,Los Angeles County,CA,NA,NA,81.91126279863481
93550,Los Angeles County,CA,47.540983606557376,NA,NA
93551,Los Angeles County,CA,NA,54.037267080745345,NA
93612,Fresno County,CA,NA,NA,38.225255972696246
93635,Merced County,CA,NA,43.064182194616976,NA
93701,Fresno County,CA,NA,89.85507246376811,NA
93727,Fresno County,CA,15.573770491803279,NA,33.44709897610921
94014,San Mateo County,CA,78.68852459016394,NA,NA
94024,Santa Clara County,CA,NA,66.66666666666666,NA
94112,San Francisco County,CA,NA,65.21739130434783,NA
94123,San Francisco County,CA,NA,NA,53.92491467576792
94301,Santa Clara County,CA,NA,83.64389233954451,NA
94403,San Mateo County,CA,NA,15.942028985507244,NA
94541,Alameda County,CA,NA,NA,40.61433447098976
94545,Alameda County,CA,79.50819672131148,NA,NA
94551,Alameda County,CA,NA,52.587991718426494,NA
94559,Napa County,CA,67.62295081967213,NA,NA
94582,Contra Costa County,CA,NA,71.2215320910973,NA
94603,Alameda County,CA,53.68852459016394,NA,NA
94804,Contra Costa County,CA,69.26229508196722,NA,NA
95014,Santa Clara County,CA,NA,91.92546583850931,NA
95035,Santa Clara County,CA,NA,46.790890269151134,NA
95110,Santa Clara County,CA,85.24590163934425,NA,NA
95126,Santa Clara County,CA,NA,78.4679089026915,NA
95205,San Joaquin County,CA,NA,53.20910973084886,NA
95210,San Joaquin County,CA,NA,57.34989648033127,NA
95363,Stanislaus County,CA,NA,75.77639751552795,NA
95366,San Joaquin County,CA,NA,77.63975155279503,NA
95621,Sacramento County,CA,NA,NA,22.525597269624573
95648,Placer County,CA,65.57377049180327,NA,NA
95660,Sacramento County,CA,NA,56.52173913043478,NA
95815,Sacramento County,CA,71.72131147540983,NA,NA
95817,Sacramento County,CA,NA,87.37060041407867,90.10238907849829
95822,Sacramento County,CA,NA,39.54451345755693,NA
95824,Sacramento County,CA,NA,84.88612836438924,NA
95826,Sacramento County,CA,NA,54.865424430641816,NA
95864,Sacramento County,CA,NA,73.49896480331263,NA
95993,Sutter County,CA,NA,71.01449275362319,NA
96007,Shasta County,CA,NA,NA,54.94880546075085
80003,Jefferson County,CO,NA,79.91718426501035,NA
80017,Arapahoe County,CO,NA,87.16356107660455,NA
80020,Broomfield County,CO,NA,65.42443064182196,NA
80239,Denver County,CO,NA,98.9648033126294,NA
80537,Larimer County,CO,24.18032786885246,NA,NA
80601,Adams County,CO,NA,34.161490683229815,NA
80817,El Paso County,CO,59.42622950819673,NA,NA
80908,El Paso County,CO,NA,NA,93.85665529010238
80909,El Paso County,CO,NA,49.4824016563147,NA
80915,El Paso County,CO,NA,NA,61.092150170648466
81303,La Plata County,CO,NA,NA,91.80887372013652
81321,Montezuma County,CO,NA,NA,46.75767918088737
81323,Montezuma County,CO,NA,97.30848861283644,NA
06114,Hartford County,CT,NA,46.3768115942029,NA
06255,Windham County,CT,NA,95.23809523809523,NA
06457,Middlesex County,CT,NA,9.109730848861282,NA
06478,New Haven County,CT,NA,60.86956521739131,NA
06483,New Haven County,CT,NA,82.6086956521739,NA
06484,Fairfield County,CT,NA,25.25879917184265,NA
06519,New Haven County,CT,26.639344262295083,NA,NA
06762,New Haven County,CT,NA,NA,74.74402730375427
06770,New Haven County,CT,27.049180327868854,NA,NA
06784,Fairfield County,CT,NA,99.79296066252587,NA
06790,Litchfield County,CT,5.737704918032787,NA,NA
06811,Fairfield County,CT,52.86885245901639,NA,NA
06855,Fairfield County,CT,93.85245901639344,NA,NA
06897,Fairfield County,CT,79.91803278688525,NA,NA
19720,New Castle County,DE,NA,40.37267080745342,NA
19803,New Castle County,DE,NA,96.68737060041408,NA
19805,New Castle County,DE,18.852459016393443,NA,NA
19904,Kent County,DE,NA,13.043478260869565,NA
19956,Sussex County,DE,NA,46.99792960662526,NA
19977,Kent County,DE,NA,42.028985507246375,NA
32097,Nassau County,FL,NA,67.28778467908903,NA
32117,Volusia County,FL,NA,51.5527950310559,NA
32118,Volusia County,FL,84.01639344262296,NA,NA
32130,Volusia County,FL,NA,95.03105590062113,NA
32162,Sumter County,FL,NA,1.4492753623188406,3.0716723549488054
32221,Duval County,FL,NA,30.848861283643892,NA
32304,Leon County,FL,NA,NA,93.51535836177474
32312,Leon County,FL,NA,NA,52.55972696245734
32347,Taylor County,FL,88.9344262295082,NA,NA
32505,Escambia County,FL,20.491803278688526,NA,NA
32567,Okaloosa County,FL,NA,97.10144927536231,NA
32712,Orange County,FL,70.49180327868852,NA,NA
32714,Seminole County,FL,NA,NA,40.27303754266212
32746,Seminole County,FL,NA,38.71635610766045,NA
32771,Seminole County,FL,NA,NA,38.56655290102389
32780,Brevard County,FL,NA,51.75983436853002,NA
32807,Orange County,FL,NA,59.21325051759835,NA
32822,Orange County,FL,21.721311475409834,NA,NA
32905,Brevard County,FL,NA,43.064182194616976,NA
32907,Brevard County,FL,NA,17.184265010351968,NA
32958,Indian River County,FL,NA,11.180124223602485,NA
33034,Miami-Dade County,FL,NA,83.436853002070393,NA
33040,Monroe County,FL,NA,38.302277432712216,NA
33062,Broward County,FL,NA,NA,4.436860068259386
33063,Broward County,FL,45.90163934426229,NA,NA
33066,Broward County,FL,NA,54.6583850931677,NA
33125,Miami-Dade County,FL,NA,32.71221532091098,NA
33126,Miami-Dade County,FL,NA,42.857142857142854,NA
33138,Miami-Dade County,FL,91.39344262295081,NA,NA
33166,Miami-Dade County,FL,NA,53.41614906832298,NA
33311,Broward County,FL,NA,NA,25.25597269624573
33351,Broward County,FL,NA,NA,76.79180887372013
33428,Palm Beach County,FL,NA,51.96687370600414,NA
33470,Palm Beach County,FL,NA,77.22567287784679,NA
33543,Pasco County,FL,62.295081967213115,NA,NA
33569,Hillsborough County,FL,NA,76.81159420289855,NA
33596,Hillsborough County,FL,NA,57.55693581780539,NA
33614,Hillsborough County,FL,NA,NA,33.78839590443686
33710,Pinellas County,FL,56.14754098360656,NA,NA
33773,Pinellas County,FL,NA,69.15113871635612,NA
33805,Polk County,FL,NA,30.22774327122153,NA
33809,Polk County,FL,NA,50.72463768115942,NA
33841,Polk County,FL,NA,NA,93.1740614334471
33844,Polk County,FL,NA,31.262939958592135,NA
33914,Lee County,FL,NA,NA,18.43003412969283
33931,Lee County,FL,NA,63.14699792960663,NA
33952,Charlotte County,FL,NA,29.19254658385093,NA
33955,Charlotte County,FL,NA,62.939958592132506,NA
33967,Lee County,FL,NA,58.59213250517599,NA
34110,Collier County,FL,NA,NA,11.945392491467576
34112,Collier County,FL,NA,68.11594202898551,NA
34223,Sarasota County,FL,NA,80.12422360248446,NA
34231,Sarasota County,FL,NA,NA,5.460750853242321
34234,Sarasota County,FL,NA,39.33747412008282,NA
34241,Sarasota County,FL,NA,62.11180124223602,NA
34434,Citrus County,FL,NA,89.85507246376811,NA
34741,Osceola County,FL,NA,29.606625258799173,NA
34744,Osceola County,FL,NA,NA,46.41638225255973
34787,Orange County,FL,NA,18.426501035196686,NA
34952,St. Lucie County,FL,28.688524590163933,NA,NA
34957,Martin County,FL,55.73770491803278,NA,NA
30022,Fulton County,GA,NA,NA,47.098976109215016
30040,Forsyth County,GA,NA,NA,43.344709897610926
30046,Gwinnett County,GA,54.50819672131148,NA,NA
30047,Gwinnett County,GA,NA,22.56728778467909,NA
30052,Walton County,GA,NA,NA,23.549488054607508
30157,Paulding County,GA,NA,NA,75.0853242320819
30188,Cherokee County,GA,NA,13.457556935817806,NA
30224,Spalding County,GA,NA,NA,56.996587030716725
30241,Troup County,GA,29.508196721311474,NA,NA
30331,Fulton County,GA,19.672131147540984,NA,NA
30344,Fulton County,GA,NA,NA,90.44368600682594
30349,Fulton County,GA,7.377049180327869,NA,63.48122866894198
30525,Rabun County,GA,85.24590163934425,NA,NA
31015,Crisp County,GA,NA,28.157349896480333,NA
31024,Putnam County,GA,NA,NA,28.668941979522184
31069,Houston County,GA,NA,45.75569358178054,NA
31312,Effingham County,GA,NA,91.7184265010352,NA
31501,Ware County,GA,NA,60.041407867494826,NA
31602,Lowndes County,GA,NA,40.993788819875775,NA
31705,Dougherty County,GA,NA,23.395445134575567,NA
96763,Maui County,HI,95.90163934426229,NA,NA
96778,Hawaii County,HI,NA,61.697722567287784,NA
96816,Honolulu County,HI,NA,14.699792960662524,NA
96817,Honolulu County,HI,NA,6.625258799171843,NA
96819,Honolulu County,HI,18.442622950819672,NA,NA
83301,Twin Falls County,ID,NA,NA,0
83402,Bonneville County,ID,82.78688524590164,NA,NA
83440,Madison County,ID,NA,67.90890269151139,NA
83536,Idaho County,ID,NA,NA,86.3481228668942
83646,Ada County,ID,NA,NA,5.1194539249146755
83647,Elmore County,ID,NA,48.86128364389234,NA
83686,Canyon County,ID,NA,24.22360248447205,3.754266211604096
83687,Canyon County,ID,61.065573770491795,NA,NA
83860,Bonner County,ID,NA,NA,83.27645051194538
60004,Cook County,IL,NA,9.523809523809524,NA
60025,Cook County,IL,NA,5.383022774327122,NA
60044,Lake County,IL,NA,NA,58.02047781569966
60053,Cook County,IL,NA,29.81366459627329,NA
60077,Cook County,IL,NA,86.5424430641822,NA
60089,Lake County,IL,NA,NA,14.675767918088736
60091,Cook County,IL,73.77049180327869,NA,NA
60119,Kane County,IL,NA,77.22567287784679,NA
60152,McHenry County,IL,80.73770491803278,NA,NA
60155,Cook County,IL,NA,61.904761904761905,NA
60172,DuPage County,IL,69.26229508196722,NA,NA
60174,Kane County,IL,NA,69.35817805383023,NA
60302,Cook County,IL,72.1311475409836,NA,NA
60403,Will County,IL,NA,35.40372670807454,NA
60416,Grundy County,IL,65.98360655737704,NA,NA
60419,Cook County,IL,NA,32.298136645962735,NA
60433,Will County,IL,NA,NA,76.45051194539249
60435,Will County,IL,10.245901639344263,NA,NA
60438,Cook County,IL,51.63934426229508,NA,NA
60440,Will County,IL,NA,11.594202898550725,NA
60441,Will County,IL,NA,NA,35.153583617747444
60473,Cook County,IL,63.114754098360656,NA,NA
60505,Kane County,IL,NA,37.68115942028986,NA
60517,DuPage County,IL,NA,29.39958592132505,NA
60586,Will County,IL,NA,92.54658385093167,NA
60616,Cook County,IL,NA,NA,20.819112627986346
60623,Cook County,IL,NA,10.973084886128365,13.993174061433447
60628,Cook County,IL,NA,45.54865424430642,NA
60631,Cook County,IL,NA,NA,21.843003412969285
60638,Cook County,IL,9.01639344262295,NA,NA
60639,Cook County,IL,NA,7.867494824016563,NA
60647,Cook County,IL,NA,16.77018633540373,NA
60649,Cook County,IL,NA,8.902691511387163,NA
60654,Cook County,IL,74.59016393442623,NA,NA
61032,Stephenson County,IL,NA,NA,11.604095563139932
61081,Whiteside County,IL,NA,12.422360248447205,NA
61364,LaSalle County,IL,NA,NA,39.93174061433447
61554,Tazewell County,IL,NA,NA,56.31399317406144
61920,Coles County,IL,61.47540983606557,NA,NA
62040,Madison County,IL,22.950819672131146,NA,15.017064846416384
62207,St. Clair County,IL,NA,NA,97.26962457337885
62522,Macon County,IL,NA,50.931677018633536,NA
62557,Christian County,IL,NA,NA,70.30716723549489
62656,Logan County,IL,NA,NA,75.76791808873719
62864,Jefferson County,IL,NA,NA,32.081911262798634
46011,Madison County,IN,NA,18.633540372670808,NA
46040,Hancock County,IN,88.11475409836066,NA,NA
46060,Hamilton County,IN,33.60655737704918,NA,NA
46062,Hamilton County,IN,NA,14.492753623188406,NA
46122,Hendricks County,IN,82.37704918032787,NA,NA
46176,Shelby County,IN,NA,NA,7.167235494880546
46202,Marion County,IN,NA,NA,80.88737201365188
46227,Marion County,IN,8.60655737704918,NA,NA
46256,Marion County,IN,NA,39.130434782608695,NA
46321,Lake County,IN,38.52459016393443,NA,NA
46350,LaPorte County,IN,NA,NA,16.040955631399317
46407,Lake County,IN,79.09836065573771,NA,NA
46580,Kosciusko County,IN,NA,NA,28.327645051194537
46619,St. Joseph County,IN,NA,NA,70.98976109215018
46774,Allen County,IN,NA,39.958592132505174,NA
46815,Allen County,IN,NA,33.54037267080746,NA
46975,Fulton County,IN,NA,44.927536231884055,NA
47302,Delaware County,IN,20.491803278688526,NA,NA
47446,Lawrence County,IN,NA,67.70186335403726,NA
47601,Warrick County,IN,NA,37.060041407867494,NA
47711,Vanderburgh County,IN,29.918032786885245,NA,NA
47803,Vigo County,IN,NA,54.037267080745345,NA
47834,Clay County,IN,NA,50.31055900621118,NA
47906,Tippecanoe County,IN,NA,85.5072463768116,NA
47918,Fountain County,IN,NA,95.65217391304348,NA
50021,Polk County,IA,78.27868852459017,NA,NA
50213,Clarke County,IA,96.31147540983606,NA,NA
50219,Marion County,IA,NA,NA,29.692832764505116
50310,Polk County,IA,NA,48.24016563146998,NA
50313,Polk County,IA,43.85245901639344,NA,NA
50317,Polk County,IA,12.704918032786885,NA,NA
50501,Webster County,IA,NA,32.50517598343685,NA
51442,Crawford County,IA,NA,NA,79.18088737201366
52101,Winneshiek County,IA,74.59016393442623,NA,NA
52402,Linn County,IA,NA,21.94616977225673,NA
52531,Monroe County,IA,93.0327868852459,97.72256728778468,NA
52544,Appanoose County,IA,NA,47.4120082815735,NA
66062,Johnson County,KS,NA,12.836438923395447,NA
66104,Wyandotte County,KS,NA,NA,53.242320819112635
66204,Johnson County,KS,NA,60.66252587991718,NA
66441,Geary County,KS,NA,86.33540372670807,NA
67152,Sumner County,KS,NA,96.06625258799171,NA
67205,Sedgwick County,KS,NA,84.472049689441,NA
67207,Sedgwick County,KS,84.42622950819673,NA,NA
67460,McPherson County,KS,NA,94.824016563147,NA
67601,Ellis County,KS,NA,16.35610766045549,NA
40014,Oldham County,KY,73.36065573770492,NA,NA
40213,Jefferson County,KY,NA,47.20496894409938,NA
40217,Jefferson County,KY,75.81967213114754,NA,NA
40218,Jefferson County,KY,15.163934426229508,NA,NA
40223,Jefferson County,KY,NA,NA,49.829351535836174
40272,Jefferson County,KY,NA,14.078674948240167,NA
40330,Mercer County,KY,NA,51.345755693581786,NA
40361,Bourbon County,KY,NA,55.6935817805383,NA
40403,Madison County,KY,25.40983606557377,NA,NA
40422,Boyle County,KY,NA,NA,52.55972696245734
40475,Madison County,KY,NA,9.937888198757763,NA
41008,Carroll County,KY,81.9672131147541,NA,NA
41042,Boone County,KY,NA,6.418219461697723,NA
41056,Mason County,KY,NA,63.56107660455487,NA
41101,Boyd County,KY,19.262295081967213,NA,NA
41314,Owsley County,KY,NA,78.05383022774328,NA
41339,Breathitt County,KY,NA,69.97929606625259,NA
42066,Graves County,KY,NA,17.805383022774325,NA
42134,Simpson County,KY,NA,66.0455486542443,NA
42301,Daviess County,KY,NA,9.730848861283643,NA
42303,Daviess County,KY,NA,NA,18.088737201365188
42633,Wayne County,KY,NA,NA,54.26621160409556
42743,Green County,KY,92.62295081967213,NA,NA
70117,Orleans Parish,LA,4.098360655737705,NA,NA
70452,St. Tammany Parish,LA,NA,28.985507246376812,NA
70517,St. Martin Parish,LA,99.18032786885246,NA,NA
70526,Acadia Parish,LA,28.278688524590162,NA,NA
70711,Livingston Parish,LA,NA,78.88198757763976,NA
70791,East Baton Rouge Parish,LA,14.754098360655737,NA,NA
70810,East Baton Rouge Parish,LA,NA,23.809523809523807,NA
71075,Webster Parish,LA,99.59016393442623,NA,NA
71263,West Carroll Parish,LA,NA,69.56521739130434,NA
71270,Lincoln Parish,LA,27.86885245901639,NA,NA
71291,Ouachita Parish,LA,NA,25.87991718426501,NA
71295,Franklin Parish,LA,NA,93.99585921325053,NA
71301,Rapides Parish,LA,31.967213114754102,NA,NA
71343,Catahoula Parish,LA,NA,86.12836438923395,NA
03909,York County,ME,NA,52.17391304347826,NA
04002,York County,ME,NA,NA,63.48122866894198
04005,York County,ME,NA,5.175983436853002,10.580204778156997
04011,Cumberland County,ME,NA,22.981366459627328,NA
04090,York County,ME,68.85245901639344,NA,NA
04106,Cumberland County,ME,NA,30.641821946169774,NA
04210,Androscoggin County,ME,21.311475409836063,NA,9.556313993174061
04330,Kennebec County,ME,NA,NA,9.897610921501707
04578,Lincoln County,ME,NA,91.30434782608695,NA
04742,Aroostook County,ME,NA,NA,57.33788395904437
04938,Franklin County,ME,NA,81.15942028985508,NA
20707,Prince George's County,MD,NA,79.5031055900621,NA
21060,Anne Arundel County,MD,NA,36.43892339544513,NA
21093,Baltimore County,MD,NA,NA,7.849829351535837
21208,Baltimore County,MD,NA,64.80331262939958,NA
21216,Baltimore city,MD,NA,20.082815734989648,NA
21237,Baltimore County,MD,NA,NA,39.59044368600683
21613,Dorchester County,MD,NA,NA,55.631399317406135
21804,Wicomico County,MD,NA,NA,34.129692832764505
01104,Hampden County,MA,NA,36.231884057971016,NA
01105,Hampden County,MA,NA,10.351966873706004,NA
01201,Berkshire County,MA,NA,2.898550724637681,NA
01475,Worcester County,MA,95.08196721311475,49.896480331262936,NA
01540,Worcester County,MA,42.62295081967213,NA,NA
01562,Worcester County,MA,NA,NA,96.9283276450512
01564,Worcester County,MA,NA,77.84679089026915,NA
01588,Worcester County,MA,96.72131147540983,NA,NA
01590,Worcester County,MA,NA,NA,77.13310580204778
01604,Worcester County,MA,NA,NA,97.95221843003414
01801,Middlesex County,MA,0.4098360655737705,0.4140786749482402,NA
01810,Essex County,MA,77.04918032786885,NA,15.358361774744028
01821,Middlesex County,MA,NA,NA,94.53924914675767
01824,Middlesex County,MA,NA,NA,7.508532423208192
01890,Middlesex County,MA,NA,NA,10.921501706484642
01950,Essex County,MA,22.540983606557376,NA,NA
01985,Essex County,MA,NA,84.26501035196688,NA
02026,Norfolk County,MA,NA,NA,12.969283276450511
02116,Suffolk County,MA,16.80327868852459,NA,NA
02186,Norfolk County,MA,NA,22.15320910973085,NA
02338,Plymouth County,MA,86.0655737704918,NA,NA
02571,Plymouth County,MA,NA,33.74741200828157,67.23549488054607
02723,Bristol County,MA,2.0491803278688523,NA,NA
02724,Bristol County,MA,NA,5.797101449275362,NA
02726,Bristol County,MA,NA,NA,73.72013651877133
48021,Macomb County,MI,9.836065573770492,NA,NA
48060,St. Clair County,MI,NA,NA,77.81569965870307
48066,Macomb County,MI,NA,8.281573498964804,NA
48094,Macomb County,MI,NA,49.275362318840585,NA
48154,Wayne County,MI,NA,7.246376811594203,5.802047781569966
48164,Wayne County,MI,NA,NA,97.61092150170649
48165,Oakland County,MI,NA,NA,73.72013651877133
48185,Wayne County,MI,72.54098360655738,NA,NA
48187,Wayne County,MI,NA,2.070393374741201,NA
48192,Wayne County,MI,NA,27.12215320910973,NA
48230,Wayne County,MI,NA,32.091097308488614,NA
48239,Wayne County,MI,NA,70.80745341614907,NA
48307,Oakland County,MI,NA,72.04968944099379,NA
48312,Macomb County,MI,NA,67.08074534161491,NA
48359,Oakland County,MI,NA,NA,92.15017064846417
48415,Saginaw County,MI,NA,60.45548654244306,NA
48422,Sanilac County,MI,92.21311475409836,NA,NA
48439,Genesee County,MI,NA,NA,95.22184300341297
48442,Oakland County,MI,NA,76.19047619047619,NA
48504,Genesee County,MI,NA,40.165631469979296,NA
48603,Saginaw County,MI,NA,9.316770186335404,NA
48706,Bay County,MI,NA,0.8281573498964804,NA
48734,Saginaw County,MI,NA,NA,65.52901023890784
48827,Eaton County,MI,NA,NA,51.19453924914675
48836,Livingston County,MI,NA,NA,66.89419795221842
48843,Livingston County,MI,NA,4.554865424430641,NA
48911,Ingham County,MI,NA,48.65424430641822,NA
48912,Ingham County,MI,NA,NA,89.07849829351537
49008,Kalamazoo County,MI,NA,50.103519668737064,NA
49021,Eaton County,MI,84.8360655737705,NA,NA
49048,Kalamazoo County,MI,NA,26.293995859213247,NA
49091,St. Joseph County,MI,NA,33.126293995859214,NA
49464,Ottawa County,MI,NA,NA,65.18771331058021
49508,Kent County,MI,NA,34.57556935817806,NA
49707,Alpena County,MI,32.37704918032787,80.53830227743272,NA
49720,Charlevoix County,MI,NA,NA,49.48805460750853
49779,Presque Isle County,MI,NA,NA,98.97610921501706
49829,Delta County,MI,36.885245901639344,NA,NA
55021,Rice County,MN,41.39344262295082,NA,NA
55025,Washington County,MN,62.704918032786885,NA,NA
55063,Pine County,MN,NA,NA,58.36177474402731
55076,Dakota County,MN,NA,54.45134575569358,NA
55104,Ramsey County,MN,NA,34.78260869565217,NA
55112,Ramsey County,MN,NA,59.42028985507246,NA
55113,Ramsey County,MN,NA,NA,22.18430034129693
55305,Hennepin County,MN,NA,NA,32.42320819112628
55311,Hennepin County,MN,NA,NA,70.64846416382252
55337,Dakota County,MN,NA,NA,98.29351535836177
55349,Wright County,MN,NA,98.13664596273291,NA
55369,Hennepin County,MN,NA,41.61490683229814,NA
55404,Hennepin County,MN,NA,19.047619047619047,NA
55406,Hennepin County,MN,NA,NA,64.50511945392492
55421,Anoka County,MN,83.19672131147541,NA,NA
55423,Hennepin County,MN,NA,35.196687370600415,NA
56031,Martin County,MN,52.459016393442624,NA,NA
56150,Jackson County,MN,NA,98.55072463768117,NA
56164,Pipestone County,MN,NA,NA,45.39249146757679
56621,Clearwater County,MN,83.60655737704919,NA,NA
56649,Koochiching County,MN,63.934426229508205,NA,NA
38901,Grenada County,MS,NA,NA,37.20136518771331
38930,Leflore County,MS,NA,NA,26.96245733788396
39073,Rankin County,MS,68.44262295081968,NA,NA
39208,Rankin County,MS,97.54098360655738,NA,NA
39209,Hinds County,MS,26.229508196721312,NA,NA
39345,Newton County,MS,NA,89.44099378881988,NA
39466,Pearl River County,MS,NA,85.09316770186336,NA
39666,Pike County,MS,NA,NA,98.63481228668942
39735,Choctaw County,MS,NA,NA,91.46757679180887
63043,St. Louis County,MO,59.42622950819673,NA,NA
63118,St. Louis city,MO,35.65573770491803,NA,NA
63121,St. Louis County,MO,31.147540983606557,NA,NA
63129,St. Louis County,MO,NA,7.039337474120083,NA
63139,St. Louis city,MO,NA,NA,73.03754266211604
63146,St. Louis County,MO,NA,NA,6.484641638225256
63841,Stoddard County,MO,56.9672131147541,NA,NA
64014,Jackson County,MO,NA,27.95031055900621,NA
64093,Johnson County,MO,38.9344262295082,NA,41.29692832764505
64109,Jackson County,MO,NA,NA,80.88737201365188
64116,Clay County,MO,NA,36.64596273291926,NA
64118,Clay County,MO,64.34426229508196,NA,NA
64138,Jackson County,MO,NA,13.664596273291925,NA
64157,Clay County,MO,37.295081967213115,NA,NA
64507,Buchanan County,MO,NA,NA,58.703071672354945
64628,Linn County,MO,NA,NA,82.93515358361775
65043,Callaway County,MO,NA,85.09316770186336,NA
65301,Pettis County,MO,NA,8.488612836438923,92.4914675767918
65441,Crawford County,MO,NA,90.47619047619048,NA
65610,Christian County,MO,94.67213114754098,NA,NA
65711,Wright County,MO,90.1639344262295,NA,NA
59330,Dawson County,MT,NA,NA,57.67918088737202
59701,Silver Bow County,MT,NA,82.81573498964804,NA
68106,Douglas County,NE,NA,NA,50.170648464163826
68131,Douglas County,NE,NA,88.40579710144928,NA
68144,Douglas County,NE,NA,50.5175983436853,NA
89107,Clark County,NV,58.606557377049185,NA,72.6962457337884
89129,Clark County,NV,NA,34.989648033126294,NA
89130,Clark County,NV,NA,NA,43.68600682593857
89131,Clark County,NV,NA,46.16977225672878,NA
89503,Washoe County,NV,64.75409836065575,NA,NA
89512,Washoe County,NV,18.0327868852459,NA,NA
89701,Carson City,NV,NA,NA,42.32081911262799
03054,Hillsborough County,NH,NA,NA,84.30034129692832
03229,Merrimack County,NH,98.36065573770492,NA,NA
03561,Grafton County,NH,88.52459016393442,NA,NA
03801,Rockingham County,NH,NA,72.67080745341616,NA
03842,Rockingham County,NH,NA,NA,62.45733788395904
03860,Carroll County,NH,NA,NA,60.068259385665534
03862,Rockingham County,NH,NA,95.44513457556936,NA
03894,Carroll County,NH,NA,NA,43.003412969283275
07072,Bergen County,NJ,NA,89.648033126294,NA
07093,Hudson County,NJ,NA,92.96066252587993,NA
07307,Hudson County,NJ,NA,NA,30.034129692832767
07440,Morris County,NJ,97.95081967213115,NA,NA
07470,Passaic County,NJ,NA,3.3126293995859215,NA
07506,Passaic County,NJ,NA,NA,60.75085324232082
07733,Monmouth County,NJ,NA,NA,62.45733788395904
07735,Monmouth County,NJ,34.83606557377049,NA,NA
07747,Monmouth County,NJ,NA,100,NA
07836,Morris County,NJ,NA,90.89026915113871,NA
08004,Camden County,NJ,NA,57.14285714285714,NA
08015,Burlington County,NJ,NA,NA,33.105802047781566
08037,Atlantic County,NJ,NA,18.012422360248447,NA
08077,Burlington County,NJ,36.0655737704918,NA,NA
08080,Gloucester County,NJ,NA,19.25465838509317,NA
08094,Gloucester County,NJ,6.557377049180328,NA,NA
08234,Atlantic County,NJ,NA,NA,21.160409556313994
08638,Mercer County,NJ,NA,94.20289855072464,NA
08721,Ocean County,NJ,NA,97.9296066252588,NA
08753,Ocean County,NJ,NA,24.43064182194617,NA
08759,Ocean County,NJ,NA,NA,30.716723549488055
08807,Somerset County,NJ,NA,NA,69.96587030716724
08831,Middlesex County,NJ,NA,NA,1.3651877133105803
08865,Warren County,NJ,4.508196721311475,NA,NA
08873,Somerset County,NJ,NA,NA,17.4061433447099
87108,Bernalillo County,NM,NA,63.35403726708074,NA
87110,Bernalillo County,NM,NA,NA,9.215017064846416
87501,Santa Fe County,NM,NA,64.38923395445134,NA
88101,Curry County,NM,NA,6.211180124223603,NA
88201,Chaves County,NM,38.114754098360656,NA,NA
88210,Eddy County,NM,NA,59.006211180124225,NA
88220,Eddy County,NM,23.770491803278688,NA,NA
88240,Lea County,NM,NA,NA,26.27986348122867
10023,New York County,NY,NA,46.58385093167702,NA
10025,New York County,NY,NA,NA,2.7303754266211606
10306,Richmond County,NY,NA,NA,12.627986348122866
10452,Bronx County,NY,NA,0,NA
10457,Bronx County,NY,0,NA,NA
10462,Bronx County,NY,NA,NA,31.399317406143346
10463,Bronx County,NY,NA,3.9337474120082816,NA
10466,Bronx County,NY,NA,1.2422360248447204,NA
10549,Westchester County,NY,NA,NA,82.25255972696246
10941,Orange County,NY,NA,NA,72.01365187713311
10965,Rockland County,NY,NA,NA,69.6245733788396
10977,Rockland County,NY,NA,56.10766045548654,NA
11213,Kings County,NY,NA,NA,63.13993174061433
11214,Kings County,NY,NA,38.50931677018634,NA
11215,Kings County,NY,NA,27.74327122153209,NA
11216,Kings County,NY,NA,31.67701863354037,NA
11217,Kings County,NY,NA,21.325051759834366,NA
11218,Kings County,NY,NA,NA,29.351535836177472
11219,Kings County,NY,NA,NA,11.262798634812286
11223,Kings County,NY,NA,42.44306418219462,NA
11236,Kings County,NY,NA,7.6604554865424435,NA
11369,Queens County,NY,61.885245901639344,NA,NA
11514,Nassau County,NY,NA,99.58592132505176,NA
11545,Nassau County,NY,NA,93.58178053830227,NA
11550,Nassau County,NY,11.885245901639344,NA,NA
11691,Queens County,NY,7.786885245901639,NA,NA
11706,Suffolk County,NY,NA,NA,16.040955631399317
11714,Nassau County,NY,NA,NA,47.781569965870304
11746,Suffolk County,NY,NA,NA,8.873720136518772
11768,Suffolk County,NY,NA,83.85093167701864,NA
11772,Suffolk County,NY,NA,21.73913043478261,NA
11779,Suffolk County,NY,NA,48.033126293995856,NA
11791,Nassau County,NY,NA,92.33954451345755,NA
12010,Montgomery County,NY,4.918032786885246,NA,NA
12180,Rensselaer County,NY,NA,8.695652173913043,NA
12204,Albany County,NY,90.57377049180327,NA,NA
12701,Sullivan County,NY,50.81967213114754,NA,NA
12771,Orange County,NY,NA,73.91304347826086,NA
12901,Clinton County,NY,2.8688524590163933,NA,NA
13027,Onondaga County,NY,14.344262295081966,NA,NA
13032,Madison County,NY,NA,40.78674948240166,NA
13037,Madison County,NY,65.1639344262295,NA,NA
13057,Onondaga County,NY,54.91803278688525,NA,NA
13066,Onondaga County,NY,NA,53.002070393374744,NA
13069,Oswego County,NY,5.327868852459016,NA,NA
13082,Madison County,NY,76.63934426229508,NA,NA
13135,Oswego County,NY,87.29508196721312,NA,NA
13492,Oneida County,NY,70.08196721311475,NA,NA
13601,Jefferson County,NY,NA,15.527950310559005,NA
14001,Erie County,NY,74.18032786885246,NA,NA
14012,Niagara County,NY,97.1311475409836,NA,NA
14020,Genesee County,NY,13.114754098360656,NA,NA
14094,Niagara County,NY,1.639344262295082,1.6563146997929608,NA
14108,Niagara County,NY,NA,NA,80.88737201365188
14206,Erie County,NY,13.934426229508196,NA,NA
14212,Erie County,NY,NA,NA,85.32423208191126
14218,Erie County,NY,NA,36.024844720496894,NA
14414,Livingston County,NY,NA,45.3416149068323,NA
14424,Ontario County,NY,NA,0.2070393374741201,NA
14425,Ontario County,NY,NA,59.62732919254658,NA
14469,Ontario County,NY,45.49180327868852,NA,NA
14470,Orleans County,NY,53.278688524590166,NA,NA
14510,Livingston County,NY,NA,NA,99.31740614334471
14530,Wyoming County,NY,NA,72.87784679089026,NA
14611,Monroe County,NY,NA,NA,49.14675767918089
14616,Monroe County,NY,NA,8.074534161490684,NA
14618,Monroe County,NY,NA,39.75155279503105,NA
14624,Monroe County,NY,NA,15.320910973084887,NA
14706,Cattaraugus County,NY,NA,61.07660455486542,NA
14810,Steuben County,NY,NA,44.099378881987576,NA
14812,Schuyler County,NY,NA,93.16770186335404,NA
27106,Forsyth County,NC,NA,NA,1.023890784982935
27278,Orange County,NC,NA,43.68530020703933,NA
27295,Davidson County,NC,NA,2.691511387163561,NA
27330,Lee County,NC,NA,20.70393374741201,NA
27410,Guilford County,NC,NA,NA,6.825938566552901
27517,Orange County,NC,NA,NA,50.85324232081911
27520,Johnston County,NC,35.24590163934426,28.157349896480333,NA
27565,Granville County,NC,25,NA,NA
27577,Johnston County,NC,50.409836065573764,NA,NA
27606,Wake County,NC,NA,44.72049689440994,NA
27612,Wake County,NC,NA,NA,36.86006825938566
27613,Wake County,NC,55.32786885245902,NA,NA
27615,Wake County,NC,NA,NA,64.84641638225256
27883,Wilson County,NC,NA,98.34368530020704,NA
27893,Wilson County,NC,NA,NA,30.37542662116041
28001,Stanly County,NC,34.01639344262295,NA,NA
28079,Union County,NC,NA,NA,37.883959044368595
28081,Cabarrus County,NC,NA,47.61904761904761,NA
28104,Union County,NC,NA,NA,45.73378839590443
28112,Union County,NC,NA,31.05590062111801,31.74061433447099
28117,Iredell County,NC,NA,NA,48.4641638225256
28146,Rowan County,NC,NA,NA,34.470989761092156
28303,Cumberland County,NC,NA,40.57971014492754,NA
28348,Cumberland County,NC,NA,34.368530020703936,NA
28352,Scotland County,NC,NA,NA,48.122866894197955
28461,Brunswick County,NC,48.36065573770492,NA,NA
28504,Lenoir County,NC,NA,NA,35.49488054607509
28513,Pitt County,NC,NA,NA,87.03071672354949
28655,Burke County,NC,NA,3.5196687370600417,NA
28659,Wilkes County,NC,NA,24.016563146997928,NA
28705,Mitchell County,NC,NA,79.08902691511386,NA
28714,Yancey County,NC,NA,41.200828157349896,NA
28734,Macon County,NC,NA,33.33333333333333,NA
28782,Polk County,NC,NA,81.78053830227742,NA
28787,Buncombe County,NC,NA,NA,67.91808873720136
58078,Cass County,ND,NA,12.008281573498964,NA
58103,Cass County,ND,NA,NA,1.7064846416382253
58601,Stark County,ND,50,NA,NA
58701,Ward County,ND,NA,NA,2.04778156996587
43026,Franklin County,OH,NA,NA,44.7098976109215
43050,Knox County,OH,NA,NA,32.76450511945392
43055,Licking County,OH,0.819672131147541,NA,NA
43081,Franklin County,OH,NA,NA,55.972696245733786
43103,Pickaway County,OH,NA,64.59627329192547,NA
43119,Franklin County,OH,NA,NA,87.37201365187714
43138,Hocking County,OH,NA,NA,31.058020477815703
43203,Franklin County,OH,NA,NA,88.05460750853243
43206,Franklin County,OH,13.524590163934427,53.83022774327122,NA
43207,Franklin County,OH,43.0327868852459,NA,NA
43235,Franklin County,OH,NA,66.87370600414079,NA
43302,Marion County,OH,NA,1.8633540372670807,NA
43416,Ottawa County,OH,98.77049180327869,NA,NA
43420,Sandusky County,OH,NA,13.250517598343686,NA
43512,Defiance County,OH,3.6885245901639343,NA,NA
43609,Lucas County,OH,46.72131147540984,NA,NA
43615,Lucas County,OH,3.278688524590164,NA,NA
43619,Wood County,OH,NA,87.5776397515528,NA
43623,Lucas County,OH,86.47540983606558,NA,NA
43787,Morgan County,OH,NA,99.17184265010351,NA
43964,Jefferson County,OH,NA,NA,67.57679180887372
44039,Lorain County,OH,NA,NA,24.573378839590443
44052,Lorain County,OH,NA,NA,6.143344709897611
44108,Cuyahoga County,OH,NA,6.004140786749482,NA
44112,Cuyahoga County,OH,34.42622950819672,NA,NA
44116,Cuyahoga County,OH,NA,61.07660455486542,NA
44120,Cuyahoga County,OH,NA,2.484472049689441,NA
44123,Cuyahoga County,OH,NA,56.935817805383024,NA
44124,Cuyahoga County,OH,NA,NA,0.3412969283276451
44125,Cuyahoga County,OH,9.426229508196721,NA,NA
44128,Cuyahoga County,OH,2.459016393442623,NA,NA
44134,Cuyahoga County,OH,NA,52.79503105590062,NA
44139,Cuyahoga County,OH,NA,NA,13.651877133105803
44143,Cuyahoga County,OH,NA,NA,2.3890784982935154
44145,Cuyahoga County,OH,NA,4.761904761904762,NA
44146,Cuyahoga County,OH,6.967213114754098,NA,NA
44273,Medina County,OH,NA,75.56935817805382,NA
44509,Mahoning County,OH,NA,70.1863354037267,NA
44641,Stark County,OH,NA,NA,25.597269624573375
44657,Stark County,OH,NA,93.37474120082815,NA
44705,Stark County,OH,NA,31.88405797101449,NA
44708,Stark County,OH,29.098360655737704,NA,NA
44824,Erie County,OH,NA,87.78467908902692,NA
44851,Huron County,OH,NA,NA,100
44870,Erie County,OH,1.2295081967213115,NA,NA
44890,Huron County,OH,NA,58.17805383022774,NA
45015,Butler County,OH,NA,63.975155279503106,NA
45030,Hamilton County,OH,60.65573770491803,NA,NA
45154,Brown County,OH,NA,81.98757763975155,NA
45176,Clermont County,OH,71.31147540983606,NA,NA
45177,Clinton County,OH,NA,28.778467908902694,NA
45231,Hamilton County,OH,NA,16.149068322981368,NA
45237,Hamilton County,OH,NA,19.875776397515526,NA
45238,Hamilton County,OH,77.45901639344262,NA,NA
45327,Montgomery County,OH,NA,75.15527950310559,NA
45356,Miami County,OH,NA,10.559006211180124,NA
45381,Preble County,OH,NA,71.2215320910973,NA
45385,Greene County,OH,12.295081967213115,NA,NA
45387,Greene County,OH,NA,NA,80.54607508532423
45458,Montgomery County,OH,NA,10.766045548654244,NA
45638,Lawrence County,OH,NA,3.1055900621118013,NA
45662,Scioto County,OH,NA,NA,4.09556313993174
45669,Lawrence County,OH,NA,16.563146997929607,NA
45840,Hancock County,OH,NA,16.977225672877847,NA
45891,Van Wert County,OH,NA,20.910973084886127,NA
73034,Oklahoma County,OK,66.39344262295081,NA,NA
73075,Garvin County,OK,NA,74.74120082815735,NA
73521,Jackson County,OK,NA,56.31469979296067,NA
74011,Tulsa County,OK,NA,42.65010351966873,NA
74331,Delaware County,OK,NA,NA,89.419795221843
74354,Ottawa County,OK,NA,44.51345755693582,NA
74365,Mayes County,OK,NA,NA,88.73720136518772
74401,Muskogee County,OK,NA,55.48654244306418,NA
74820,Pontotoc County,OK,NA,4.968944099378882,NA
74965,Adair County,OK,NA,91.09730848861284,NA
97015,Clackamas County,OR,NA,NA,66.21160409556313
97045,Clackamas County,OR,NA,10.144927536231885,NA
97071,Marion County,OR,NA,NA,51.877133105802045
97141,Tillamook County,OR,NA,NA,68.25938566552901
97213,Multnomah County,OR,NA,81.57349896480332,NA
97220,Multnomah County,OR,39.34426229508197,NA,NA
97222,Clackamas County,OR,NA,27.536231884057973,NA
97229,Washington County,OR,NA,NA,92.83276450511946
97386,Linn County,OR,NA,70.39337474120083,NA
97448,Lane County,OR,NA,NA,86.68941979522185
97501,Jackson County,OR,8.19672131147541,NA,NA
97526,Josephine County,OR,NA,NA,44.027303754266214
97702,Deschutes County,OR,NA,NA,27.64505119453925
97741,Jefferson County,OR,NA,68.73706004140787,NA
97801,Umatilla County,OR,NA,NA,69.28327645051195
97814,Baker County,OR,NA,NA,42.66211604095563
15062,Westmoreland County,PA,NA,NA,75.42662116040955
15122,Allegheny County,PA,56.557377049180324,NA,NA
15235,Allegheny County,PA,22.131147540983605,NA,NA
15237,Allegheny County,PA,NA,NA,4.778156996587031
15601,Westmoreland County,PA,NA,0.6211180124223602,NA
15701,Indiana County,PA,NA,NA,12.286689419795222
15825,Jefferson County,PA,NA,NA,62.116040955631405
15904,Cambria County,PA,NA,NA,17.747440273037544
15905,Cambria County,PA,NA,NA,18.771331058020476
15946,Cambria County,PA,NA,NA,83.61774744027304
16301,Venango County,PA,NA,98.75776397515527,NA
16602,Blair County,PA,NA,NA,19.453924914675767
16648,Blair County,PA,NA,NA,46.075085324232084
16686,Blair County,PA,NA,92.13250517598344,NA
16830,Clearfield County,PA,30.327868852459016,NA,NA
17015,Cumberland County,PA,49.18032786885246,63.76811594202898,NA
17036,Dauphin County,PA,NA,NA,23.208191126279864
17104,Dauphin County,PA,20.081967213114755,NA,NA
17113,Dauphin County,PA,50.81967213114754,NA,NA
17356,York County,PA,81.14754098360656,NA,NA
17702,Lycoming County,PA,NA,68.94409937888199,NA
17740,Lycoming County,PA,57.786885245901644,NA,NA
17754,Lycoming County,PA,NA,NA,24.914675767918087
17844,Union County,PA,NA,NA,73.37883959044369
17866,Northumberland County,PA,87.29508196721312,NA,NA
17961,Schuylkill County,PA,NA,NA,94.88054607508532
17970,Schuylkill County,PA,95.49180327868852,NA,NA
18013,Northampton County,PA,NA,37.267080745341616,NA
18017,Northampton County,PA,6.147540983606557,NA,NA
18064,Northampton County,PA,NA,NA,78.839590443686
18073,Montgomery County,PA,NA,85.71428571428571,NA
18104,Lehigh County,PA,NA,4.140786749482402,NA
18235,Carbon County,PA,33.19672131147541,NA,NA
18431,Wayne County,PA,66.80327868852459,NA,NA
18504,Lackawanna County,PA,NA,NA,59.72696245733788
18634,Luzerne County,PA,NA,38.095238095238095,NA
18702,Luzerne County,PA,NA,4.3478260869565215,NA
18914,Bucks County,PA,NA,NA,60.40955631399317
18929,Bucks County,PA,NA,94.40993788819875,NA
19012,Montgomery County,PA,90.98360655737704,NA,NA
19055,Bucks County,PA,NA,90.26915113871635,95.56313993174061
19056,Bucks County,PA,NA,58.7991718426501,NA
19076,Delaware County,PA,NA,81.36645962732919,NA
19114,Philadelphia County,PA,NA,17.391304347826086,NA
19130,Philadelphia County,PA,NA,30.020703933747413,NA
19131,Philadelphia County,PA,NA,2.2774327122153206,NA
19135,Philadelphia County,PA,16.39344262295082,NA,NA
19446,Montgomery County,PA,NA,12.215320910973086,NA
19468,Montgomery County,PA,44.26229508196721,NA,NA
19510,Berks County,PA,NA,NA,78.49829351535837
19606,Berks County,PA,11.065573770491802,NA,NA
02871,Newport County,RI,100,NA,NA
02889,Kent County,RI,NA,NA,34.8122866894198
02914,Providence County,RI,NA,37.267080745341616,NA
02917,Providence County,RI,81.55737704918032,NA,NA
29055,Chester County,SC,NA,95.8592132505176,NA
29059,Orangeburg County,SC,86.88524590163934,NA,NA
29073,Lexington County,SC,NA,33.95445134575569,NA
29154,Sumter County,SC,NA,NA,59.38566552901023
29485,Dorchester County,SC,NA,26.501035196687372,NA
29588,Horry County,SC,40.16393442622951,NA,NA
29605,Greenville County,SC,27.459016393442624,NA,NA
29669,Anderson County,SC,66.80327868852459,NA,NA
29693,Oconee County,SC,NA,NA,41.63822525597269
29909,Beaufort County,SC,NA,NA,48.80546075085324
57201,Codington County,SD,NA,NA,41.979522184300336
37015,Cheatham County,TN,NA,42.028985507246375,NA
37069,Williamson County,TN,NA,73.29192546583852,NA
37148,Sumner County,TN,NA,41.821946169772254,NA
37166,DeKalb County,TN,NA,80.95238095238095,NA
37206,Davidson County,TN,NA,35.61076604554865,NA
37334,Lincoln County,TN,NA,25.051759834368532,NA
37347,Marion County,TN,NA,NA,87.71331058020478
37620,Sullivan County,TN,NA,77.01863354037268,NA
37743,Greene County,TN,NA,3.7267080745341614,NA
37748,Roane County,TN,NA,24.84472049689441,NA
37774,Loudon County,TN,NA,20.496894409937887,NA
37830,Anderson County,TN,NA,21.11801242236025,NA
37890,Jefferson County,TN,NA,NA,96.24573378839591
37918,Knox County,TN,NA,NA,17.064846416382252
38063,Lauderdale County,TN,49.59016393442623,NA,NA
38128,Shelby County,TN,NA,30.434782608695656,NA
38134,Shelby County,TN,NA,NA,50.51194539249146
38464,Lawrence County,TN,NA,25.672877846790893,NA
75061,Dallas County,TX,58.19672131147541,NA,NA
75062,Dallas County,TX,NA,NA,39.249146757679185
75110,Navarro County,TX,NA,NA,37.54266211604095
75147,Kaufman County,TX,NA,NA,85.32423208191126
75165,Ellis County,TX,NA,22.15320910973085,NA
75227,Dallas County,TX,NA,66.45962732919256,NA
75402,Hunt County,TX,NA,51.13871635610766,NA
75418,Fannin County,TX,70.90163934426229,NA,NA
75455,Titus County,TX,NA,45.75569358178054,NA
75482,Hopkins County,TX,NA,53.62318840579711,NA
75692,Harrison County,TX,NA,NA,86.00682593856655
75785,Cherokee County,TX,NA,55.072463768115945,NA
76006,Tarrant County,TX,72.95081967213115,NA,NA
76014,Tarrant County,TX,NA,NA,68.60068259385666
76028,Johnson County,TX,11.475409836065573,NA,NA
76118,Tarrant County,TX,NA,72.46376811594203,NA
76148,Tarrant County,TX,NA,NA,84.64163822525597
76504,Bell County,TX,NA,NA,23.890784982935152
76549,Bell County,TX,NA,26.70807453416149,NA
76901,Tom Green County,TX,NA,25.87991718426501,NA
77007,Harris County,TX,59.01639344262295,NA,NA
77033,Harris County,TX,NA,NA,36.51877133105802
77036,Harris County,TX,NA,20.28985507246377,NA
77372,Montgomery County,TX,NA,85.92132505175984,NA
77386,Montgomery County,TX,NA,48.4472049689441,NA
77407,Fort Bend County,TX,NA,74.32712215320912,NA
77437,Wharton County,TX,NA,59.8343685300207,NA
77489,Fort Bend County,TX,31.557377049180328,NA,NA
77521,Harris County,TX,NA,26.91511387163561,NA
77530,Harris County,TX,NA,82.40165631469979,NA
77551,Galveston County,TX,NA,23.18840579710145,NA
77619,Jefferson County,TX,75.40983606557377,NA,NA
78041,Webb County,TX,NA,19.461697722567287,NA
78043,Webb County,TX,NA,NA,27.64505119453925
78130,Comal County,TX,25.81967213114754,NA,NA
78155,Guadalupe County,TX,NA,25.465838509316768,NA
78207,Bexar County,TX,NA,NA,20.13651877133106
78224,Bexar County,TX,NA,NA,79.18088737201366
78229,Bexar County,TX,NA,81.98757763975155,NA
78254,Bexar County,TX,52.04918032786885,NA,NA
78516,Hidalgo County,TX,NA,49.68944099378882,NA
78520,Cameron County,TX,NA,24.637681159420293,NA
78573,Hidalgo County,TX,60.245901639344254,NA,NA
78639,Llano County,TX,NA,NA,29.01023890784983
78666,Hays County,TX,NA,NA,19.112627986348123
78717,Williamson County,TX,NA,90.6832298136646,NA
78852,Maverick County,TX,NA,NA,16.723549488054605
79107,Potter County,TX,NA,52.38095238095239,NA
79407,Lubbock County,TX,NA,60.24844720496895,NA
79423,Lubbock County,TX,30.737704918032787,NA,NA
79720,Howard County,TX,NA,NA,51.5358361774744
79735,Pecos County,TX,NA,83.02277432712215,NA
84032,Wasatch County,UT,NA,73.08488612836439,NA
84096,Salt Lake County,UT,NA,83.22981366459628,NA
84097,Utah County,UT,NA,NA,88.39590443686008
84118,Salt Lake County,UT,NA,NA,77.47440273037543
84121,Salt Lake County,UT,NA,13.871635610766045,NA
84335,Cache County,UT,NA,94.61697722567288,NA
05156,Windsor County,VT,NA,61.49068322981367,NA
05641,Washington County,VT,NA,NA,13.310580204778159
05855,Orleans County,VT,NA,75.98343685300208,NA
22030,Fairfax County,VA,NA,NA,38.907849829351534
22201,Arlington County,VA,NA,65.63146997929607,NA
22701,Culpeper County,VA,NA,15.734989648033126,NA
22815,Rockingham County,VA,NA,86.95652173913044,NA
22824,Shenandoah County,VA,89.34426229508196,NA,NA
22901,Albemarle County,VA,36.47540983606557,NA,NA
22980,Waynesboro city,VA,NA,NA,3.4129692832764507
23060,Henrico County,VA,NA,78.67494824016563,NA
23111,Hanover County,VA,NA,84.05797101449275,NA
23112,Chesterfield County,VA,47.950819672131146,23.60248447204969,NA
23150,Henrico County,VA,93.44262295081968,NA,NA
23222,Richmond city,VA,NA,99.37888198757764,NA
23226,Richmond city,VA,NA,56.7287784679089,NA
23320,Chesapeake city,VA,NA,NA,8.532423208191126
23321,Chesapeake city,VA,54.09836065573771,NA,NA
23451,Virginia Beach city,VA,43.44262295081967,NA,NA
23453,Virginia Beach city,VA,NA,31.469979296066253,NA
23661,Hampton city,VA,NA,NA,90.78498293515358
23669,Hampton city,VA,NA,NA,8.19112627986348
23805,Petersburg city,VA,NA,57.7639751552795,NA
23832,Chesterfield County,VA,NA,47.82608695652174,NA
23901,Prince Edward County,VA,NA,NA,59.044368600682596
24084,Pulaski County,VA,NA,NA,76.10921501706484
24112,Henry County,VA,NA,11.801242236024844,NA
24211,Washington County,VA,NA,NA,65.52901023890784
24219,Wise County,VA,NA,NA,99.65870307167235
24224,Russell County,VA,NA,79.08902691511386,NA
24340,Washington County,VA,NA,NA,82.5938566552901
24401,Staunton city,VA,NA,6.832298136645963,NA
24426,Alleghany County,VA,NA,44.3064182194617,NA
24450,Rockbridge County,VA,NA,78.26086956521739,NA
24651,Tazewell County,VA,NA,79.71014492753623,NA
98008,King County,WA,89.75409836065575,NA,NA
98032,King County,WA,48.77049180327869,NA,NA
98037,Snohomish County,WA,NA,NA,54.60750853242321
98058,King County,WA,NA,18.633540372670808,NA
98070,King County,WA,NA,88.81987577639751,NA
98092,King County,WA,NA,15.113871635610765,NA
98136,King County,WA,NA,71.635610766045545,NA
98208,Snohomish County,WA,23.36065573770492,NA,NA
98258,Snohomish County,WA,NA,45.13457556935818,NA
98264,Whatcom County,WA,91.80327868852459,NA,NA
98284,Skagit County,WA,NA,NA,15.699658703071673
98321,Pierce County,WA,NA,66.0455486542443,NA
98329,Pierce County,WA,NA,NA,95.90443686006826
98354,Pierce County,WA,NA,89.23395445134575,NA
98368,Jefferson County,WA,NA,NA,72.35494880546075
98370,Kitsap County,WA,NA,36.85300207039337,NA
98520,Grays Harbor County,WA,NA,NA,52.218430034129696
98584,Mason County,WA,NA,NA,26.621160409556317
98685,Clark County,WA,NA,88.19875776397515,NA
98826,Chelan County,WA,NA,NA,79.86348122866895
99201,Spokane County,WA,NA,NA,74.40273037542661
99203,Spokane County,WA,NA,65.0103519668737,NA
99216,Spokane County,WA,NA,NA,53.58361774744027
99223,Spokane County,WA,NA,89.02691511387164,NA
20017,District of Columbia,DC,NA,62.52587991718427,NA
20018,District of Columbia,DC,47.13114754098361,NA,NA
20037,District of Columbia,DC,NA,NA,78.15699658703072
24739,Mercer County,WV,NA,74.94824016563147,NA
25015,Kanawha County,WV,NA,88.6128364389234,NA
25401,Berkeley County,WV,40.57377049180328,NA,NA
25550,Mason County,WV,NA,27.32919254658385,NA
26201,Upshur County,WV,24.59016393442623,NA,NA
26508,Monongalia County,WV,NA,5.590062111801243,NA
26554,Marion County,WV,NA,1.0351966873706004,NA
26726,Mineral County,WV,NA,32.91925465838509,NA
53129,Milwaukee County,WI,76.22950819672131,NA,NA
53142,Kenosha County,WI,NA,17.598343685300208,NA
53184,Walworth County,WI,94.26229508196722,NA,NA
53188,Waukesha County,WI,NA,14.699792960662524,NA
53228,Milwaukee County,WI,NA,NA,36.177474402730375
53523,Dane County,WI,NA,96.8944099378882,NA
53545,Rock County,WI,NA,93.7888198757764,NA
53813,Grant County,WI,NA,96.48033126293996,NA
54166,Shawano County,WI,NA,NA,44.36860068259386
54409,Langlade County,WI,40.98360655737705,NA,NA
54449,Wood County,WI,NA,72.2567287784679,NA
54457,Wood County,WI,NA,58.38509316770186,NA
54615,Jackson County,WI,NA,73.70600414078675,NA
54729,Chippewa County,WI,NA,18.219461697722565,NA
54806,Ashland County,WI,NA,NA,71.67235494880546
54880,Douglas County,WI,15.983606557377051,NA,NA
54929,Waupaca County,WI,NA,NA,94.19795221843003
54956,Winnebago County,WI,NA,28.57142857142857,NA
82414,Park County,WY,NA,35.81780538302277,NA
82633,Converse County,WY,NA,55.6935817805383,NA
