ZipCode,county,state,Adult,Retirement,Geriatric
35010,Tallapoosa County,AL,37.95620437956204,NA,NA
35020,Jefferson County,AL,17.153284671532848,NA,NA
35077,Cullman County,AL,60.94890510948905,NA,NA
35212,Jefferson County,AL,NA,85.57312252964427,NA
35213,Jefferson County,AL,NA,NA,59.41422594142259
35216,Jefferson County,AL,NA,50.39525691699605,NA
35243,Jefferson County,AL,NA,NA,92.46861924686193
35816,Madison County,AL,71.8978102189781,NA,NA
35903,Etowah County,AL,NA,28.65612648221344,NA
35962,DeKalb County,AL,NA,NA,96.23430962343096
36049,Crenshaw County,AL,NA,89.9209486166008,NA
36081,Pike County,AL,82.48175182481752,NA,NA
36091,Chilton County,AL,99.27007299270073,NA,NA
36117,Montgomery County,AL,NA,36.36363636363637,NA
36322,Dale County,AL,NA,83.79446640316206,NA
36575,Mobile County,AL,NA,NA,93.30543933054393
36606,Mobile County,AL,NA,89.13043478260869,NA
36610,Mobile County,AL,63.138686131386855,NA,NA
36867,Russell County,AL,NA,40.71146245059288,NA
36869,Russell County,AL,56.56934306569343,NA,NA
99654,Matanuska-Susitna Borough,AK,NA,40.51383399209486,NA
85007,Maricopa County,AZ,39.78102189781022,NA,NA
85020,Maricopa County,AZ,NA,32.608695652173914,NA
85037,Maricopa County,AZ,27.73722627737226,NA,NA
85040,Maricopa County,AZ,NA,56.7193675889328,NA
85043,Maricopa County,AZ,NA,65.61264822134387,NA
85143,Pinal County,AZ,38.32116788321168,NA,NA
85204,Maricopa County,AZ,NA,26.48221343873518,NA
85205,Maricopa County,AZ,NA,NA,22.17573221757322
85212,Maricopa County,AZ,NA,64.62450592885376,NA
85248,Maricopa County,AZ,NA,NA,7.531380753138076
85255,Maricopa County,AZ,NA,43.67588932806324,NA
85268,Maricopa County,AZ,NA,57.70750988142292,NA
85326,Maricopa County,AZ,NA,42.68774703557312,NA
85345,Maricopa County,AZ,74.45255474452554,NA,NA
85349,Yuma County,AZ,36.496350364963504,64.42687747035573,NA
85375,Maricopa County,AZ,NA,NA,1.2552301255230125
85381,Maricopa County,AZ,NA,NA,38.49372384937239
85635,Cochise County,AZ,NA,NA,30.125523012552303
85705,Pima County,AZ,NA,6.126482213438735,NA
85706,Pima County,AZ,NA,60.27667984189723,NA
85737,Pima County,AZ,NA,NA,38.07531380753138
85739,Pinal County,AZ,NA,NA,74.47698744769873
85745,Pima County,AZ,NA,53.952569169960476,NA
85757,Pima County,AZ,77.37226277372264,NA,NA
85901,Navajo County,AZ,51.82481751824818,NA,NA
86305,Yavapai County,AZ,NA,33.59683794466403,NA
86404,Mohave County,AZ,NA,53.75494071146245,NA
72120,Pulaski County,AR,NA,16.798418972332016,NA
72204,Pulaski County,AR,80.65693430656934,NA,NA
72653,Baxter County,AR,NA,NA,36.82008368200837
72730,Washington County,AR,NA,93.47826086956522,NA
72753,Washington County,AR,NA,93.47826086956522,NA
72802,Pope County,AR,NA,66.00790513833992,NA
72830,Johnson County,AR,82.11678832116789,NA,NA
72921,Crawford County,AR,NA,76.87747035573122,NA
72936,Sebastian County,AR,NA,NA,87.44769874476988
72941,Sebastian County,AR,NA,NA,99.581589958159
90001,Los Angeles County,CA,87.22627737226277,NA,NA
90025,Los Angeles County,CA,NA,94.0711462450593,NA
90039,Los Angeles County,CA,NA,76.28458498023716,NA
90249,Los Angeles County,CA,NA,60.67193675889329,NA
90250,Los Angeles County,CA,NA,23.122529644268774,NA
90277,Los Angeles County,CA,NA,31.422924901185773,NA
90503,Los Angeles County,CA,NA,NA,32.21757322175732
90703,Los Angeles County,CA,85.76642335766424,NA,NA
90723,Los Angeles County,CA,52.919708029197075,NA,NA
91006,Los Angeles County,CA,NA,79.05138339920948,NA
91040,Los Angeles County,CA,NA,NA,68.6192468619247
91342,Los Angeles County,CA,NA,13.636363636363635,NA
91344,Los Angeles County,CA,NA,23.715415019762844,NA
91501,Los Angeles County,CA,NA,80.03952569169961,86.19246861924687
91504,Los Angeles County,CA,NA,71.14624505928853,NA
91741,Los Angeles County,CA,NA,51.77865612648221,NA
91745,Los Angeles County,CA,NA,46.047430830039524,NA
91767,Los Angeles County,CA,NA,97.23320158102767,NA
91942,San Diego County,CA,64.59854014598541,NA,NA
91945,San Diego County,CA,NA,71.34387351778656,NA
92037,San Diego County,CA,NA,51.38339920948617,21.338912133891213
92071,San Diego County,CA,NA,38.537549407114625,NA
92104,San Diego County,CA,29.1970802919708,NA,NA
92109,San Diego County,CA,NA,NA,54.811715481171554
92117,San Diego County,CA,NA,55.13833992094862,NA
92126,San Diego County,CA,NA,86.36363636363636,NA
92129,San Diego County,CA,58.02919708029197,NA,NA
92211,Riverside County,CA,NA,7.905138339920949,NA
92231,Imperial County,CA,NA,13.438735177865613,NA
92399,San Bernardino County,CA,NA,19.367588932806324,NA
92411,San Bernardino County,CA,77.00729927007299,NA,NA
92504,Riverside County,CA,NA,54.54545454545454,NA
92545,Riverside County,CA,44.16058394160584,NA,NA
92592,Riverside County,CA,NA,26.284584980237153,NA
92646,Orange County,CA,NA,7.114624505928854,NA
92673,Orange County,CA,NA,NA,64.01673640167364
92692,Orange County,CA,NA,NA,10.87866108786611
92704,Orange County,CA,35.4014598540146,NA,NA
92780,Orange County,CA,NA,58.30039525691699,NA
92805,Orange County,CA,NA,42.29249011857708,NA
92870,Orange County,CA,NA,NA,46.02510460251046
93110,Santa Barbara County,CA,NA,84.58498023715416,NA
93257,Tulare County,CA,14.5985401459854,NA,NA
93675,Fresno County,CA,NA,99.60474308300395,NA
93933,Monterey County,CA,NA,47.03557312252965,NA
94066,San Mateo County,CA,NA,9.683794466403162,NA
94403,San Mateo County,CA,NA,17.786561264822133,NA
94509,Contra Costa County,CA,24.45255474452555,NA,NA
94517,Contra Costa County,CA,100,NA,NA
94526,Contra Costa County,CA,NA,NA,40.1673640167364
94544,Alameda County,CA,NA,46.24505928853755,NA
94582,Contra Costa County,CA,NA,94.86166007905138,NA
94587,Alameda County,CA,NA,58.498023715415016,NA
94601,Alameda County,CA,NA,36.16600790513834,NA
94605,Alameda County,CA,NA,NA,64.43514644351464
94607,Alameda County,CA,NA,NA,69.4560669456067
94954,Sonoma County,CA,NA,NA,28.03347280334728
95005,Santa Cruz County,CA,NA,98.41897233201581,NA
95008,Santa Clara County,CA,NA,77.4703557312253,NA
95014,Santa Clara County,CA,86.86131386861314,NA,NA
95122,Santa Clara County,CA,NA,49.60474308300395,NA
95126,Santa Clara County,CA,NA,NA,63.17991631799163
95132,Santa Clara County,CA,91.24087591240875,NA,NA
95340,Merced County,CA,37.591240875912405,NA,NA
95365,Merced County,CA,97.8102189781022,NA,NA
95407,Sonoma County,CA,NA,NA,61.50627615062761
95409,Sonoma County,CA,NA,NA,15.062761506276152
95531,Del Norte County,CA,NA,51.581027667984195,NA
95630,Sacramento County,CA,NA,79.2490118577075,NA
95823,Sacramento County,CA,NA,NA,26.359832635983267
95828,Sacramento County,CA,NA,68.97233201581028,NA
95901,Yuba County,CA,NA,51.18577075098815,NA
95988,Glenn County,CA,NA,70.94861660079052,NA
95991,Sutter County,CA,31.02189781021898,NA,NA
96003,Shasta County,CA,45.62043795620438,NA,NA
80003,Jefferson County,CO,NA,55.533596837944664,NA
80016,Arapahoe County,CO,25.91240875912409,NA,NA
80033,Jefferson County,CO,NA,NA,64.85355648535564
80129,Douglas County,CO,NA,83.59683794466403,NA
80134,Douglas County,CO,NA,35.573122529644266,NA
80219,Denver County,CO,NA,NA,53.97489539748954
80224,Denver County,CO,NA,NA,51.88284518828452
80229,Adams County,CO,NA,41.30434782608695,NA
80301,Boulder County,CO,59.48905109489051,NA,NA
80303,Boulder County,CO,81.75182481751825,NA,NA
80602,Adams County,CO,NA,57.509881422924906,NA
80817,El Paso County,CO,NA,83.20158102766798,NA
80906,El Paso County,CO,NA,39.52569169960474,NA
81147,Archuleta County,CO,NA,95.0592885375494,NA
81413,Delta County,CO,95.62043795620438,NA,NA
81505,Mesa County,CO,NA,77.86561264822134,NA
06010,Hartford County,CT,NA,NA,4.602510460251046
06109,Hartford County,CT,NA,80.43478260869566,NA
06120,Hartford County,CT,50.72992700729927,NA,NA
06480,Middlesex County,CT,72.62773722627736,NA,NA
06488,New Haven County,CT,NA,NA,12.552301255230125
06517,New Haven County,CT,NA,43.47826086956522,NA
06525,New Haven County,CT,92.7007299270073,NA,NA
06604,Fairfield County,CT,23.357664233576642,NA,NA
06804,Fairfield County,CT,75.54744525547446,NA,NA
06878,Fairfield County,CT,NA,92.09486166007905,NA
06905,Fairfield County,CT,NA,50.19762845849802,NA
19701,New Castle County,DE,NA,17.193675889328063,NA
19904,Kent County,DE,NA,15.41501976284585,NA
19962,Kent County,DE,NA,NA,84.51882845188284
19963,Sussex County,DE,91.970802919708035,NA,NA
19966,Sussex County,DE,26.642335766423358,NA,NA
19970,Sussex County,DE,NA,59.88142292490119,NA
32003,Clay County,FL,NA,NA,57.74058577405857
32025,Columbia County,FL,40.87591240875913,87.15415019762845,NA
32082,St. Johns County,FL,NA,30.039525691699602,NA
32174,Volusia County,FL,NA,NA,10.0418410041841
32179,Marion County,FL,NA,NA,99.16317991631799
32219,Duval County,FL,47.44525547445255,NA,NA
32223,Duval County,FL,NA,32.015810276679844,NA
32226,Duval County,FL,45.98540145985402,NA,NA
32244,Duval County,FL,NA,10.079051383399209,NA
32401,Bay County,FL,40.14598540145985,NA,NA
32408,Bay County,FL,NA,66.99604743083005,NA
32448,Jackson County,FL,58.3941605839416,NA,NA
32693,Gilchrist County,FL,NA,NA,80.75313807531381
32780,Brevard County,FL,NA,17.391304347826086,NA
32792,Orange County,FL,NA,NA,20.0836820083682
32904,Brevard County,FL,NA,NA,30.962343096234306
32962,Indian River County,FL,49.63503649635037,NA,NA
33012,Miami-Dade County,FL,46.715328467153284,NA,NA
33019,Broward County,FL,NA,78.85375494071147,NA
33027,Broward County,FL,NA,38.3399209486166,NA
33033,Miami-Dade County,FL,NA,NA,52.719665271966534
33054,Miami-Dade County,FL,NA,72.92490118577075,NA
33056,Miami-Dade County,FL,NA,48.81422924901186,NA
33063,Broward County,FL,NA,NA,41.42259414225941
33065,Broward County,FL,49.27007299270073,NA,NA
33069,Broward County,FL,NA,NA,41.84100418410041
33073,Broward County,FL,NA,NA,71.54811715481172
33139,Miami-Dade County,FL,NA,NA,61.92468619246861
33172,Miami-Dade County,FL,83.21167883211679,NA,NA
33301,Broward County,FL,87.22627737226277,NA,NA
33319,Broward County,FL,NA,28.458498023715418,NA
33412,Palm Beach County,FL,NA,NA,98.32635983263597
33426,Palm Beach County,FL,NA,78.06324110671937,NA
33437,Palm Beach County,FL,NA,NA,0
33584,Hillsborough County,FL,NA,NA,91.21338912133892
33760,Pinellas County,FL,NA,NA,97.07112970711297
33805,Polk County,FL,NA,33.00395256916996,NA
33870,Highlands County,FL,31.386861313868614,NA,NA
33904,Lee County,FL,40.51094890510949,NA,NA
33936,Lee County,FL,79.56204379562044,NA,NA
33983,Charlotte County,FL,NA,NA,56.903765690376574
33990,Lee County,FL,NA,38.93280632411067,NA
34108,Collier County,FL,NA,57.31225296442688,NA
34135,Lee County,FL,NA,14.229249011857709,NA
34222,Manatee County,FL,NA,NA,77.82426778242679
34239,Sarasota County,FL,81.02189781021897,NA,NA
34287,Sarasota County,FL,52.55474452554745,NA,NA
34292,Sarasota County,FL,NA,86.95652173913044,NA
34465,Citrus County,FL,NA,64.2292490118577,NA
34653,Pasco County,FL,NA,31.225296442687743,NA
34748,Lake County,FL,NA,NA,2.510460251046025
34952,St. Lucie County,FL,NA,7.5098814229249005,NA
34990,Martin County,FL,NA,75.69169960474308,NA
34997,Martin County,FL,32.481751824817515,NA,NA
30052,Walton County,GA,NA,37.94466403162055,NA
30064,Cobb County,GA,NA,33.794466403162055,NA
30075,Fulton County,GA,NA,55.73122529644269,NA
30127,Cobb County,GA,NA,30.8300395256917,NA
30139,Gordon County,GA,97.08029197080292,NA,NA
30153,Polk County,GA,NA,50.988142292490124,NA
30215,Fayette County,GA,NA,32.80632411067194,NA
30236,Clayton County,GA,NA,NA,55.64853556485355
30260,Clayton County,GA,NA,61.6600790513834,NA
30269,Fayette County,GA,NA,NA,90.7949790794979
30276,Coweta County,GA,72.99270072992701,NA,NA
30305,Fulton County,GA,NA,NA,34.30962343096235
30309,Fulton County,GA,NA,93.2806324110672,NA
30310,Fulton County,GA,NA,15.612648221343871,NA
30341,DeKalb County,GA,NA,75.8893280632411,NA
30506,Hall County,GA,NA,19.1699604743083,NA
30528,White County,GA,52.919708029197075,NA,NA
30534,Dawson County,GA,NA,32.21343873517787,NA
30549,Jackson County,GA,NA,53.55731225296443,NA
30656,Walton County,GA,NA,63.83399209486166,NA
30752,Dade County,GA,NA,73.51778656126481,NA
31028,Houston County,GA,NA,92.29249011857708,NA
31061,Baldwin County,GA,NA,NA,31.799163179916317
31088,Houston County,GA,NA,19.960474308300398,NA
31545,Wayne County,GA,NA,52.569169960474305,NA
31558,Camden County,GA,68.61313868613139,NA,NA
31771,Colquitt County,GA,99.63503649635037,NA,NA
31792,Thomas County,GA,66.78832116788321,NA,NA
96708,Maui County,HI,NA,94.26877470355731,NA
96720,Hawaii County,HI,NA,23.91304347826087,NA
96734,Honolulu County,HI,NA,NA,10.460251046025103
96740,Hawaii County,HI,NA,61.26482213438735,NA
96817,Honolulu County,HI,NA,5.928853754940711,NA
83338,Jerome County,ID,NA,NA,35.56485355648535
60010,Lake County,IL,NA,13.24110671936759,NA
60025,Cook County,IL,NA,50.790513833992094,NA
60077,Cook County,IL,NA,28.65612648221344,NA
60085,Lake County,IL,NA,29.446640316205535,NA
60091,Cook County,IL,NA,NA,16.317991631799163
60098,McHenry County,IL,NA,76.48221343873519,NA
60102,McHenry County,IL,NA,40.909090909090914,NA
60139,DuPage County,IL,NA,34.78260869565217,NA
60142,McHenry County,IL,NA,9.881422924901186,2.928870292887029
60153,Cook County,IL,NA,23.3201581027668,NA
60185,DuPage County,IL,70.8029197080292,NA,NA
60302,Cook County,IL,NA,14.031620553359684,NA
60402,Cook County,IL,13.138686131386862,39.32806324110672,NA
60438,Cook County,IL,NA,NA,29.288702928870293
60441,Will County,IL,25.547445255474454,NA,NA
60443,Cook County,IL,NA,36.75889328063241,NA
60481,Will County,IL,68.24817518248175,NA,NA
60611,Cook County,IL,57.299270072992705,NA,NA
60612,Cook County,IL,NA,NA,81.58995815899581
60626,Cook County,IL,NA,6.324110671936759,NA
60646,Cook County,IL,50.36496350364964,NA,NA
60651,Cook County,IL,8.394160583941606,NA,NA
60804,Cook County,IL,NA,12.845849802371543,NA
60950,Kankakee County,IL,NA,67.58893280632411,NA
61068,Ogle County,IL,68.97810218978103,NA,NA
61074,Carroll County,IL,NA,98.81422924901186,NA
61111,Winnebago County,IL,NA,54.1501976284585,NA
61201,Rock Island County,IL,NA,67.78656126482213,NA
61270,Whiteside County,IL,NA,NA,58.57740585774059
61550,Tazewell County,IL,NA,NA,41.004184100418414
61820,Champaign County,IL,NA,92.88537549407114,NA
62231,Clinton County,IL,NA,74.70355731225297,NA
62236,Monroe County,IL,95.98540145985402,NA,NA
62565,Shelby County,IL,84.30656934306569,NA,NA
62650,Morgan County,IL,54.74452554744526,NA,NA
62656,Logan County,IL,NA,NA,45.60669456066946
62675,Menard County,IL,NA,90.51383399209486,NA
46040,Hancock County,IN,NA,84.18972332015811,NA
46060,Hamilton County,IN,NA,25.889328063241106,NA
46143,Johnson County,IN,75.18248175182481,NA,NA
46201,Marion County,IN,20.802919708029197,NA,NA
46208,Marion County,IN,NA,69.36758893280633,NA
46226,Marion County,IN,NA,14.42687747035573,NA
46268,Marion County,IN,NA,NA,28.870292887029287
46307,Lake County,IN,1.4598540145985401,NA,NA
46360,LaPorte County,IN,28.102189781021895,NA,NA
46375,Lake County,IN,NA,16.600790513833992,NA
46383,Porter County,IN,NA,NA,14.644351464435147
46385,Porter County,IN,8.02919708029197,44.466403162055336,NA
46507,Elkhart County,IN,NA,85.37549407114624,NA
46526,Elkhart County,IN,NA,58.69565217391305,NA
46580,Kosciusko County,IN,NA,NA,28.451882845188287
46774,Allen County,IN,NA,44.07114624505929,NA
46947,Cass County,IN,13.503649635036496,NA,NA
47025,Dearborn County,IN,NA,91.89723320158103,NA
47250,Jefferson County,IN,NA,59.88142292490119,NA
47302,Delaware County,IN,21.16788321167883,NA,NA
47331,Fayette County,IN,NA,11.857707509881422,NA
47362,Henry County,IN,NA,44.26877470355731,NA
47371,Jay County,IN,NA,NA,45.18828451882845
47374,Wayne County,IN,NA,NA,1.6736401673640167
47408,Monroe County,IN,NA,NA,73.64016736401673
47712,Vanderburgh County,IN,NA,41.89723320158103,NA
47805,Vigo County,IN,NA,73.91304347826086,NA
47872,Parke County,IN,NA,90.31620553359684,NA
47885,Vigo County,IN,NA,73.12252964426878,NA
50036,Boone County,IA,NA,53.359683794466406,20.502092050209207
50138,Marion County,IA,NA,NA,23.01255230125523
50315,Polk County,IA,NA,22.529644268774703,NA
50316,Polk County,IA,NA,80.23715415019763,NA
51534,Mills County,IA,NA,72.72727272727273,NA
52001,Dubuque County,IA,NA,21.936758893280633,NA
52501,Wapello County,IA,16.423357664233578,NA,NA
52627,Lee County,IA,NA,85.17786561264822,NA
52761,Muscatine County,IA,NA,10.869565217391305,NA
52806,Scott County,IA,23.722627737226276,NA,NA
66002,Atchison County,KS,NA,NA,70.29288702928869
66044,Douglas County,KS,67.88321167883211,NA,NA
66062,Johnson County,KS,10.583941605839415,NA,NA
66111,Wyandotte County,KS,85.40145985401459,NA,NA
66204,Johnson County,KS,NA,63.24110671936759,NA
66212,Johnson County,KS,NA,NA,93.72384937238493
66608,Shawnee County,KS,NA,NA,95.81589958158996
66713,Cherokee County,KS,NA,NA,53.55648535564853
66720,Neosho County,KS,NA,NA,79.9163179916318
67156,Cowley County,KS,NA,NA,43.09623430962343
67212,Sedgwick County,KS,63.868613138686136,NA,NA
67213,Sedgwick County,KS,NA,81.81818181818183,NA
67226,Sedgwick County,KS,NA,NA,96.65271966527197
40019,Henry County,KY,94.52554744525547,NA,NA
40165,Bullitt County,KY,16.05839416058394,NA,NA
40214,Jefferson County,KY,NA,14.82213438735178,NA
40351,Rowan County,KY,NA,14.624505928853754,NA
40353,Montgomery County,KY,NA,29.249011857707508,NA
40361,Bourbon County,KY,NA,57.905138339920946,NA
40517,Fayette County,KY,NA,40.11857707509881,NA
40935,Knox County,KY,98.90510948905109,NA,NA
41018,Kenton County,KY,NA,24.50592885375494,NA
41075,Campbell County,KY,NA,77.66798418972331,NA
42101,Warren County,KY,NA,70.15810276679841,NA
42445,Caldwell County,KY,NA,65.41501976284584,NA
70001,Jefferson Parish,LA,NA,8.893280632411066,NA
70002,Jefferson Parish,LA,NA,NA,31.380753138075313
70006,Jefferson Parish,LA,51.09489051094891,NA,NA
70113,Orleans Parish,LA,33.21167883211679,NA,NA
70433,St. Tammany Parish,LA,NA,6.719367588932807,5.857740585774058
70454,Tangipahoa Parish,LA,9.124087591240876,NA,NA
70460,St. Tammany Parish,LA,NA,26.877470355731226,NA
70507,Lafayette Parish,LA,45.25547445255474,NA,NA
70508,Lafayette Parish,LA,NA,NA,27.19665271966527
70517,St. Martin Parish,LA,NA,18.379446640316203,NA
70548,Vermilion Parish,LA,36.86131386861314,NA,NA
70578,Acadia Parish,LA,NA,42.094861660079054,NA
70663,Calcasieu Parish,LA,NA,NA,39.33054393305439
70785,Livingston Parish,LA,20.437956204379564,NA,NA
71106,Caddo Parish,LA,NA,11.462450592885375,NA
71109,Caddo Parish,LA,NA,24.110671936758894,NA
71202,Ouachita Parish,LA,4.37956204379562,NA,NA
71343,Catahoula Parish,LA,55.47445255474452,NA,NA
03903,York County,ME,NA,75.49407114624506,NA
03909,York County,ME,NA,NA,37.238493723849366
04038,Cumberland County,ME,NA,NA,46.86192468619247
04096,Cumberland County,ME,NA,NA,97.48953974895397
04101,Cumberland County,ME,37.22627737226277,NA,NA
04281,Oxford County,ME,90.87591240875912,NA,NA
04345,Kennebec County,ME,NA,52.76679841897233,NA
04401,Penobscot County,ME,NA,NA,11.297071129707113
04412,Penobscot County,ME,NA,NA,59.83263598326359
04463,Piscataquis County,ME,NA,96.04743083003953,NA
04917,Kennebec County,ME,90.51094890510949,NA,NA
20744,Prince George's County,MD,NA,NA,44.76987447698745
20748,Prince George's County,MD,NA,66.79841897233202,NA
20772,Prince George's County,MD,NA,NA,82.42677824267783
20814,Montgomery County,MD,79.92700729927007,NA,NA
20832,Montgomery County,MD,81.02189781021897,NA,NA
20850,Montgomery County,MD,NA,NA,51.04602510460251
20874,Montgomery County,MD,77.73722627737226,NA,NA
21014,Harford County,MD,NA,30.632411067193676,82.84518828451883
21015,Harford County,MD,NA,NA,48.95397489539749
21061,Anne Arundel County,MD,9.854014598540147,NA,NA
21214,Baltimore city,MD,NA,70.15810276679841,NA
21230,Baltimore city,MD,NA,NA,65.27196652719665
21239,Baltimore city,MD,NA,NA,25.523012552301257
21740,Washington County,MD,NA,24.90118577075099,NA
21782,Washington County,MD,NA,96.24505928853755,NA
01001,Hampden County,MA,60.58394160583942,NA,NA
01013,Hampden County,MA,NA,68.57707509881423,NA
01040,Hampden County,MA,NA,88.93280632411067,NA
01077,Hampden County,MA,70.43795620437956,NA,NA
01109,Hampden County,MA,71.53284671532847,NA,NA
01267,Berkshire County,MA,NA,71.73913043478261,NA
01701,Middlesex County,MA,89.78102189781022,NA,NA
01803,Middlesex County,MA,NA,NA,3.3472803347280333
01826,Middlesex County,MA,NA,NA,52.30125523012552
01867,Middlesex County,MA,NA,8.49802371541502,NA
02038,Norfolk County,MA,14.233576642335766,NA,NA
02048,Bristol County,MA,95.25547445255475,NA,NA
02081,Norfolk County,MA,24.817518248175183,NA,NA
02125,Suffolk County,MA,NA,NA,34.72803347280335
02128,Suffolk County,MA,NA,59.28853754940712,NA
02132,Suffolk County,MA,NA,50.59288537549407,NA
02136,Suffolk County,MA,NA,NA,30.543933054393307
02139,Middlesex County,MA,NA,67.3913043478261,NA
02151,Suffolk County,MA,12.773722627737227,NA,NA
02184,Norfolk County,MA,NA,NA,9.205020920502092
02341,Plymouth County,MA,NA,77.27272727272727,NA
02364,Plymouth County,MA,NA,62.845849802371546,NA
02421,Middlesex County,MA,NA,NA,14.225941422594143
02446,Norfolk County,MA,NA,5.7312252964426875,NA
02459,Middlesex County,MA,46.35036496350365,NA,NA
02478,Middlesex County,MA,NA,22.33201581027668,NA
02771,Bristol County,MA,NA,47.62845849802372,NA
02777,Bristol County,MA,NA,76.08695652173914,NA
48009,Oakland County,MI,NA,61.06719367588933,NA
48036,Macomb County,MI,NA,25.691699604743086,NA
48044,Macomb County,MI,NA,74.90118577075098,NA
48054,St. Clair County,MI,NA,70.55335968379447,NA
48098,Oakland County,MI,NA,89.52569169960475,NA
48111,Wayne County,MI,NA,69.1699604743083,NA
48116,Livingston County,MI,NA,15.217391304347828,NA
48122,Wayne County,MI,NA,87.54940711462451,NA
48130,Washtenaw County,MI,NA,NA,39.74895397489539
48141,Wayne County,MI,8.75912408759124,15.810276679841898,NA
48154,Wayne County,MI,NA,34.18972332015811,NA
48161,Monroe County,MI,NA,NA,68.20083682008368
48183,Wayne County,MI,NA,54.347826086956516,NA
48187,Wayne County,MI,NA,1.7786561264822136,NA
48189,Washtenaw County,MI,NA,79.44664031620553,NA
48201,Wayne County,MI,NA,58.10276679841897,NA
48204,Wayne County,MI,10.218978102189782,NA,NA
48307,Oakland County,MI,NA,NA,83.26359832635984
48342,Oakland County,MI,17.51824817518248,NA,NA
48471,Sanilac County,MI,NA,81.42292490118577,NA
48642,Midland County,MI,NA,NA,8.368200836820083
48768,Tuscola County,MI,NA,NA,67.36401673640168
48836,Livingston County,MI,NA,90.11857707509881,NA
48843,Livingston County,MI,NA,4.150197628458498,NA
49013,Van Buren County,MI,NA,90.9090909090909,NA
49024,Kalamazoo County,MI,59.12408759124088,NA,NA
49120,Berrien County,MI,NA,NA,16.736401673640167
49202,Jackson County,MI,NA,30.039525691699602,NA
49251,Ingham County,MI,89.05109489051095,NA,NA
49331,Kent County,MI,NA,NA,69.8744769874477
49417,Ottawa County,MI,50,NA,NA
49418,Kent County,MI,NA,25.296442687747035,NA
49421,Oceana County,MI,NA,83.00395256916995,NA
49445,Muskegon County,MI,69.34306569343066,NA,NA
49507,Kent County,MI,NA,59.48616600790514,NA
49601,Wexford County,MI,48.9051094890511,NA,NA
49631,Osceola County,MI,NA,67.19367588932806,NA
49684,Grand Traverse County,MI,NA,25.494071146245062,NA
49735,Otsego County,MI,NA,18.57707509881423,24.686192468619247
55037,Pine County,MN,NA,94.46640316205533,NA
55041,Wabasha County,MN,NA,66.20553359683794,NA
55057,Rice County,MN,93.7956204379562,NA,NA
55066,Goodhue County,MN,47.81021897810219,NA,NA
55106,Ramsey County,MN,NA,NA,44.35146443514644
55109,Ramsey County,MN,NA,27.4703557312253,NA
55113,Ramsey County,MN,48.54014598540146,NA,NA
55123,Dakota County,MN,NA,75.09881422924902,NA
55303,Anoka County,MN,NA,81.22529644268775,NA
55347,Hennepin County,MN,NA,62.25296442687747,NA
55350,McLeod County,MN,NA,NA,84.10041841004184
55362,Wright County,MN,NA,NA,58.995815899581594
55364,Hennepin County,MN,92.33576642335767,NA,NA
55378,Scott County,MN,NA,NA,72.38493723849372
55404,Hennepin County,MN,1.094890510948905,NA,NA
55421,Anoka County,MN,55.1094890510949,NA,NA
55426,Hennepin County,MN,NA,NA,82.00836820083683
55427,Hennepin County,MN,NA,62.055335968379445,NA
55431,Hennepin County,MN,NA,92.68774703557312,NA
55448,Anoka County,MN,NA,95.65217391304348,NA
55792,St. Louis County,MN,83.57664233576642,NA,NA
55805,St. Louis County,MN,86.4963503649635,NA,NA
55944,Dodge County,MN,NA,91.50197628458498,NA
56001,Blue Earth County,MN,NA,87.35177865612648,NA
56031,Martin County,MN,NA,18.774703557312254,13.389121338912133
56073,Brown County,MN,NA,11.067193675889328,NA
56265,Chippewa County,MN,NA,57.11462450592886,NA
56329,Benton County,MN,NA,97.4308300395257,NA
56401,Crow Wing County,MN,NA,NA,5.02092050209205
56701,Pennington County,MN,22.99270072992701,NA,NA
56716,Polk County,MN,NA,NA,66.94560669456067
56751,Roseau County,MN,87.95620437956204,NA,NA
38834,Alcorn County,MS,NA,23.517786561264824,NA
38930,Leflore County,MS,NA,45.65217391304348,NA
39218,Rankin County,MS,NA,99.01185770750988,NA
39301,Lauderdale County,MS,21.532846715328464,NA,NA
39402,Lamar County,MS,64.96350364963503,NA,NA
39429,Marion County,MS,66.05839416058394,NA,NA
39705,Lowndes County,MS,67.51824817518248,NA,NA
63021,St. Louis County,MO,NA,NA,33.054393305439326
63049,Jefferson County,MO,NA,64.03162055335969,NA
63090,Franklin County,MO,NA,NA,40.58577405857741
63136,St. Louis County,MO,7.664233576642336,9.288537549407115,NA
63366,St. Charles County,MO,NA,26.08695652173913,NA
63376,St. Charles County,MO,NA,35.177865612648226,5.439330543933055
63630,Washington County,MO,NA,96.6403162055336,NA
63701,Cape Girardeau County,MO,41.24087591240876,NA,NA
63780,Scott County,MO,NA,NA,80.3347280334728
64055,Jackson County,MO,NA,6.521739130434782,NA
64127,Jackson County,MO,6.204379562043796,NA,NA
64730,Bates County,MO,NA,NA,54.39330543933054
64850,Newton County,MO,NA,20.158102766798418,NA
65340,Saline County,MO,NA,60.47430830039525,NA
65453,Crawford County,MO,NA,76.6798418972332,NA
65802,Greene County,MO,11.678832116788321,NA,NA
59701,Silver Bow County,MT,63.503649635036496,NA,NA
59860,Lake County,MT,NA,45.25691699604743,NA
68107,Douglas County,NE,NA,56.32411067193676,NA
68135,Douglas County,NE,72.26277372262774,NA,NA
69341,Scotts Bluff County,NE,NA,80.63241106719367,NA
69361,Scotts Bluff County,NE,NA,94.66403162055336,NA
89102,Clark County,NV,NA,NA,70.7112970711297
89147,Clark County,NV,NA,49.80237154150198,NA
89148,Clark County,NV,NA,72.5296442687747,NA
89408,Lyon County,NV,39.416058394160586,NA,NA
89502,Washoe County,NV,NA,18.972332015810274,NA
03051,Hillsborough County,NH,NA,NA,25.10460251046025
03053,Rockingham County,NH,NA,21.541501976284586,NA
03060,Hillsborough County,NH,NA,10.276679841897234,NA
03062,Hillsborough County,NH,NA,NA,83.68200836820083
03104,Hillsborough County,NH,NA,12.648221343873518,NA
03801,Rockingham County,NH,NA,43.08300395256917,NA
03820,Strafford County,NH,NA,NA,12.97071129707113
03824,Strafford County,NH,NA,NA,78.66108786610879
07010,Bergen County,NJ,NA,63.04347826086957,NA
07013,Passaic County,NJ,42.700729927007295,82.6086956521739,NA
07047,Hudson County,NJ,4.744525547445255,NA,NA
07081,Union County,NJ,NA,NA,62.34309623430963
07093,Hudson County,NJ,NA,10.474308300395258,NA
07430,Bergen County,NJ,NA,NA,42.67782426778243
07508,Passaic County,NJ,NA,43.280632411067195,NA
07643,Bergen County,NJ,NA,93.08300395256917,NA
07762,Monmouth County,NJ,NA,NA,74.89539748953975
07840,Warren County,NJ,36.13138686131387,NA,NA
07866,Morris County,NJ,65.32846715328468,NA,NA
07946,Morris County,NJ,NA,99.2094861660079,NA
08015,Burlington County,NJ,18.248175182481752,NA,NA
08021,Camden County,NJ,0,NA,NA
08043,Camden County,NJ,NA,20.948616600790515,NA
08050,Ocean County,NJ,39.05109489051095,NA,NA
08210,Cape May County,NJ,71.16788321167883,NA,NA
08312,Gloucester County,NJ,NA,NA,94.97907949790795
08527,Ocean County,NJ,NA,5.33596837944664,NA
08723,Ocean County,NJ,NA,20.55335968379447,NA
08753,Ocean County,NJ,2.18978102189781,NA,NA
08865,Warren County,NJ,4.014598540145985,NA,NA
08873,Somerset County,NJ,NA,NA,19.665271966527197
87004,Sandoval County,NM,NA,NA,69.0376569037657
87105,Bernalillo County,NM,NA,46.837944664031625,NA
87108,Bernalillo County,NM,NA,4.3478260869565215,NA
87109,Bernalillo County,NM,20.072992700729927,NA,NA
87124,Sandoval County,NM,NA,NA,11.715481171548117
87301,McKinley County,NM,NA,59.48616600790514,NA
88101,Curry County,NM,NA,NA,7.112970711297072
88220,Eddy County,NM,NA,NA,22.594142259414227
88260,Lea County,NM,41.97080291970803,NA,NA
10024,New York County,NY,53.64963503649635,NA,NA
10028,New York County,NY,NA,29.841897233201582,NA
10040,New York County,NY,34.67153284671533,NA,NA
10312,Richmond County,NY,NA,22.727272727272727,NA
10314,Richmond County,NY,NA,2.9644268774703555,NA
10459,Bronx County,NY,NA,NA,24.267782426778243
10940,Orange County,NY,NA,NA,19.246861924686193
11040,Nassau County,NY,NA,69.76284584980237,NA
11106,Queens County,NY,51.45985401459854,NA,NA
11206,Kings County,NY,NA,11.6600790513834,NA
11208,Kings County,NY,NA,0.7905138339920948,NA
11213,Kings County,NY,NA,29.051383399209485,NA
11229,Kings County,NY,NA,NA,3.765690376569038
11235,Kings County,NY,NA,NA,12.133891213389122
11237,Kings County,NY,NA,77.07509881422925,NA
11358,Queens County,NY,NA,82.80632411067194,NA
11362,Queens County,NY,NA,82.41106719367589,NA
11369,Queens County,NY,56.934306569343065,NA,NA
11375,Queens County,NY,NA,66.40316205533597,NA
11421,Queens County,NY,NA,55.92885375494071,NA
11433,Queens County,NY,NA,65.21739130434783,NA
11520,Nassau County,NY,NA,35.96837944664031,NA
11553,Nassau County,NY,NA,NA,57.32217573221757
11576,Nassau County,NY,NA,NA,85.35564853556485
11692,Queens County,NY,NA,71.93675889328063,NA
11716,Suffolk County,NY,98.54014598540147,NA,NA
11731,Suffolk County,NY,NA,NA,60.66945606694561
11733,Suffolk County,NY,NA,NA,56.06694560669456
11776,Suffolk County,NY,NA,56.52173913043478,NA
11967,Suffolk County,NY,34.306569343065696,NA,NA
12068,Montgomery County,NY,NA,97.82608695652173,NA
12304,Schenectady County,NY,NA,37.15415019762846,NA
12928,Essex County,NY,NA,96.6403162055336,NA
13021,Cayuga County,NY,NA,NA,79.07949790794979
13039,Onondaga County,NY,NA,63.63636363636363,NA
13078,Onondaga County,NY,NA,74.1106719367589,NA
13088,Onondaga County,NY,NA,48.418972332015805,NA
13146,Wayne County,NY,96.35036496350365,NA,NA
13212,Onondaga County,NY,32.846715328467155,NA,NA
13403,Oneida County,NY,NA,NA,92.05020920502092
13438,Oneida County,NY,NA,96.44268774703558,NA
13760,Broome County,NY,NA,4.940711462450593,NA
13815,Chenango County,NY,15.693430656934307,NA,NA
13825,Otsego County,NY,94.16058394160584,NA,NA
13901,Broome County,NY,NA,3.3596837944664033,63.59832635983263
14012,Niagara County,NY,NA,95.8498023715415,NA
14067,Niagara County,NY,NA,84.78260869565217,NA
14092,Niagara County,NY,NA,47.82608695652174,NA
14094,Niagara County,NY,1.824817518248175,1.5810276679841897,NA
14171,Cattaraugus County,NY,98.17518248175182,NA,NA
14221,Erie County,NY,NA,1.7786561264822136,NA
14223,Erie County,NY,29.927007299270077,36.75889328063241,NA
14425,Ontario County,NY,NA,24.308300395256918,NA
14513,Wayne County,NY,5.109489051094891,2.5691699604743086,NA
14517,Livingston County,NY,NA,100,NA
14530,Wyoming County,NY,NA,74.30830039525692,NA
14580,Monroe County,NY,NA,0.1976284584980237,NA
14609,Monroe County,NY,0.36496350364963503,NA,NA
14611,Monroe County,NY,NA,NA,48.53556485355649
14617,Monroe County,NY,NA,3.9525691699604746,NA
27284,Forsyth County,NC,NA,0.9881422924901186,NA
27292,Davidson County,NC,NA,NA,6.2761506276150625
27316,Randolph County,NC,NA,NA,76.98744769874477
27405,Guilford County,NC,10.948905109489052,NA,NA
27514,Orange County,NC,NA,27.07509881422925,NA
27527,Johnston County,NC,NA,78.26086956521739,NA
27530,Wayne County,NC,NA,19.76284584980237,NA
27540,Wake County,NC,NA,49.40711462450593,NA
27560,Wake County,NC,NA,78.45849802371542,NA
27576,Johnston County,NC,57.66423357664233,NA,NA
27577,Johnston County,NC,NA,31.027667984189723,NA
27803,Nash County,NC,NA,44.86166007905138,NA
27822,Wilson County,NC,94.8905109489051,NA,NA
27858,Pitt County,NC,NA,39.920948616600796,NA
28027,Cabarrus County,NC,85.03649635036497,NA,NA
28079,Union County,NC,NA,86.16600790513834,NA
28164,Gaston County,NC,NA,NA,49.7907949790795
28211,Mecklenburg County,NC,NA,NA,33.89121338912134
28212,Mecklenburg County,NC,NA,82.01581027667984,NA
28277,Mecklenburg County,NC,43.43065693430657,17.984189723320156,NA
28387,Moore County,NC,NA,98.61660079051383,NA
28403,New Hanover County,NC,NA,NA,29.707112970711297
28411,New Hanover County,NC,NA,37.74703557312253,NA
28467,Brunswick County,NC,NA,62.450592885375485,NA
28472,Columbus County,NC,38.68613138686132,NA,NA
28540,Onslow County,NC,28.467153284671532,NA,NA
28574,Onslow County,NC,NA,81.02766798418972,NA
28584,Carteret County,NC,NA,NA,86.61087866108787
28601,Catawba County,NC,NA,7.707509881422925,NA
28602,Catawba County,NC,NA,NA,59.83263598326359
28638,Caldwell County,NC,NA,NA,55.23012552301255
28655,Burke County,NC,NA,3.1620553359683794,NA
28714,Yancey County,NC,NA,45.059288537549406,NA
28715,Buncombe County,NC,NA,49.80237154150198,NA
28723,Jackson County,NC,NA,NA,89.5397489539749
28752,McDowell County,NC,NA,13.043478260869565,NA
28759,Henderson County,NC,NA,97.03557312252964,NA
28768,Transylvania County,NC,NA,61.6600790513834,NA
28803,Buncombe County,NC,NA,95.25691699604744,NA
28904,Clay County,NC,NA,86.56126482213439,NA
58301,Ramsey County,ND,NA,NA,62.76150627615063
58504,Burleigh County,ND,53.64963503649635,NA,NA
58701,Ward County,ND,NA,37.351778656126484,NA
43015,Delaware County,OH,NA,88.3399209486166,NA
43016,Franklin County,OH,NA,NA,36.40167364016737
43130,Fairfield County,OH,NA,18.181818181818183,NA
43140,Madison County,OH,NA,31.620553359683797,NA
43204,Franklin County,OH,5.839416058394161,NA,NA
43302,Marion County,OH,NA,NA,43.93305439330544
43567,Fulton County,OH,NA,NA,61.08786610878661
43609,Lucas County,OH,NA,NA,72.80334728033473
43612,Lucas County,OH,3.2846715328467155,16.99604743083004,NA
43615,Lucas County,OH,NA,25.09881422924901,NA
43793,Monroe County,OH,88.32116788321169,NA,NA
44035,Lorain County,OH,NA,0,NA
44052,Lorain County,OH,NA,NA,7.949790794979079
44057,Lake County,OH,78.83211678832117,NA,15.481171548117153
44089,Erie County,OH,NA,8.695652173913043,NA
44105,Cuyahoga County,OH,NA,0.3952569169960474,NA
44107,Cuyahoga County,OH,NA,2.1739130434782608,NA
44108,Cuyahoga County,OH,NA,NA,17.99163179916318
44118,Cuyahoga County,OH,NA,9.486166007905137,NA
44125,Cuyahoga County,OH,NA,NA,9.623430962343097
44130,Cuyahoga County,OH,NA,NA,42.25941422594142
44131,Cuyahoga County,OH,NA,NA,6.694560669456067
44212,Medina County,OH,NA,0.592885375494071,NA
44224,Summit County,OH,24.087591240875913,NA,NA
44241,Portage County,OH,64.23357664233576,NA,NA
44256,Medina County,OH,NA,5.533596837944664,NA
44432,Columbiana County,OH,NA,NA,75.31380753138075
44445,Columbiana County,OH,91.6058394160584,NA,NA
44484,Trumbull County,OH,NA,NA,18.828451882845187
44485,Trumbull County,OH,19.34306569343066,NA,NA
44512,Mahoning County,OH,NA,NA,17.154811715481173
44718,Stark County,OH,NA,72.33201581027669,NA
44851,Huron County,OH,NA,91.50197628458498,NA
44857,Huron County,OH,25.18248175182482,NA,17.573221757322173
45013,Butler County,OH,NA,2.371541501976284,NA
45015,Butler County,OH,56.20437956204379,NA,NA
45040,Warren County,OH,33.57664233576642,33.201581027667984,NA
45044,Butler County,OH,5.474452554744526,NA,NA
45103,Clermont County,OH,NA,NA,50.2092050209205
45150,Clermont County,OH,NA,28.063241106719367,NA
45152,Warren County,OH,NA,78.65612648221344,91.63179916317992
45211,Hamilton County,OH,NA,28.26086956521739,NA
45227,Hamilton County,OH,NA,45.45454545454545,NA
45241,Hamilton County,OH,93.06569343065694,NA,NA
45255,Hamilton County,OH,65.69343065693431,NA,NA
45342,Montgomery County,OH,12.043795620437956,NA,NA
45356,Miami County,OH,16.423357664233578,NA,NA
45373,Miami County,OH,NA,10.67193675889328,NA
45404,Montgomery County,OH,NA,NA,94.56066945606695
45640,Jackson County,OH,6.934306569343065,NA,NA
45662,Scioto County,OH,2.5547445255474455,37.54940711462451,NA
45669,Lawrence County,OH,NA,NA,56.48535564853556
45701,Athens County,OH,NA,51.976284584980235,NA
45769,Meigs County,OH,NA,92.4901185770751,NA
45805,Allen County,OH,14.963503649635038,NA,NA
45840,Hancock County,OH,NA,56.916996047430835,NA
73018,Grady County,OK,47.81021897810219,NA,NA
73099,Canadian County,OK,NA,5.138339920948617,NA
73106,Oklahoma County,OK,NA,72.13438735177866,NA
73129,Oklahoma County,OK,NA,NA,73.22175732217573
73162,Oklahoma County,OK,NA,52.96442687747036,NA
73533,Stephens County,OK,NA,NA,18.410041841004183
74011,Tulsa County,OK,NA,NA,48.11715481171548
74019,Rogers County,OK,NA,54.74308300395256,NA
74021,Tulsa County,OK,NA,65.01976284584981,NA
74063,Tulsa County,OK,NA,36.56126482213439,NA
74073,Tulsa County,OK,NA,NA,90.3765690376569
74075,Payne County,OK,NA,NA,94.14225941422593
74107,Tulsa County,OK,NA,71.54150197628458,NA
74401,Muskogee County,OK,75.91240875912408,NA,NA
74868,Seminole County,OK,NA,61.462450592885375,NA
74955,Sequoyah County,OK,58.75912408759124,NA,NA
97007,Washington County,OR,NA,83.99209486166008,NA
97086,Clackamas County,OR,NA,68.77470355731225,NA
97223,Washington County,OR,NA,NA,38.912133891213394
97229,Washington County,OR,NA,34.980237154150196,NA
97355,Linn County,OR,NA,4.545454545454546,NA
97365,Lincoln County,OR,74.81751824817519,NA,NA
97381,Marion County,OR,NA,NA,78.24267782426779
97396,Yamhill County,OR,NA,99.80237154150198,NA
97478,Lane County,OR,NA,47.233201581027664,43.51464435146444
97801,Umatilla County,OR,NA,NA,49.37238493723849
15132,Allegheny County,PA,NA,NA,35.98326359832636
15210,Allegheny County,PA,17.88321167883212,NA,NA
15229,Allegheny County,PA,NA,85.96837944664031,NA
15235,Allegheny County,PA,22.62773722627737,15.019762845849801,NA
15320,Greene County,PA,73.35766423357664,NA,NA
15370,Greene County,PA,NA,NA,52.719665271966534
15601,Westmoreland County,PA,NA,NA,0.41841004184100417
15904,Cambria County,PA,NA,33.99209486166008,NA
15906,Cambria County,PA,NA,68.18181818181817,NA
16001,Butler County,PA,NA,1.383399209486166,NA
16127,Mercer County,PA,NA,55.33596837944664,NA
16232,Clarion County,PA,NA,NA,74.05857740585773
16301,Venango County,PA,NA,40.316205533596836,NA
16346,Venango County,PA,NA,93.87351778656127,71.1297071129707
16602,Blair County,PA,15.328467153284672,NA,NA
16635,Blair County,PA,NA,67.78656126482213,NA
16830,Clearfield County,PA,30.656934306569344,NA,NA
17025,Cumberland County,PA,NA,NA,66.52719665271967
17046,Lebanon County,PA,NA,21.73913043478261,NA
17078,Lebanon County,PA,19.708029197080293,NA,NA
17202,Franklin County,PA,NA,16.205533596837945,NA
17331,York County,PA,NA,NA,2.092050209205021
17545,Lancaster County,PA,44.89051094890511,NA,NA
17603,Lancaster County,PA,NA,7.312252964426877,NA
17821,Montour County,PA,NA,NA,20.920502092050206
17834,Northumberland County,PA,93.43065693430657,NA,NA
17857,Northumberland County,PA,NA,NA,97.90794979079497
17870,Snyder County,PA,NA,NA,35.146443514644346
17972,Schuylkill County,PA,62.40875912408759,NA,NA
18014,Northampton County,PA,NA,34.387351778656125,NA
18040,Northampton County,PA,NA,NA,71.96652719665272
18064,Northampton County,PA,NA,NA,79.49790794979079
18202,Luzerne County,PA,NA,41.699604743083,NA
18508,Lackawanna County,PA,NA,46.6403162055336,NA
18512,Lackawanna County,PA,62.04379562043796,NA,NA
18603,Columbia County,PA,NA,53.16205533596838,NA
18929,Bucks County,PA,NA,89.32806324110672,NA
19003,Montgomery County,PA,67.15328467153284,NA,NA
19013,Delaware County,PA,NA,12.25296442687747,NA
19015,Delaware County,PA,NA,44.66403162055336,NA
19047,Bucks County,PA,27.00729927007299,NA,NA
19054,Bucks County,PA,61.67883211678832,NA,NA
19083,Delaware County,PA,NA,47.43083003952569,NA
19126,Philadelphia County,PA,35.76642335766424,NA,NA
19142,Philadelphia County,PA,13.86861313868613,NA,NA
19380,Chester County,PA,NA,4.743083003952568,NA
19440,Montgomery County,PA,NA,62.64822134387352,NA
19533,Berks County,PA,NA,79.84189723320159,NA
19540,Berks County,PA,76.27737226277372,NA,NA
02860,Providence County,RI,7.2992700729927,NA,NA
02871,Newport County,RI,62.77372262773723,95.45454545454545,NA
02886,Kent County,RI,NA,21.34387351778656,NA
02889,Kent County,RI,NA,17.588932806324113,NA
02906,Providence County,RI,NA,43.873517786561266,NA
02908,Providence County,RI,42.33576642335766,NA,NA
29010,Lee County,SC,NA,NA,50.2092050209205
29073,Lexington County,SC,NA,37.94466403162055,NA
29123,Lexington County,SC,88.32116788321169,NA,NA
29607,Greenville County,SC,NA,24.703557312252965,NA
29669,Anderson County,SC,86.13138686131386,NA,NA
29803,Aiken County,SC,NA,8.102766798418973,NA
29902,Beaufort County,SC,NA,NA,75.73221757322176
57078,Yankton County,SD,NA,58.89328063241107,NA
57104,Minnehaha County,SD,31.751824817518248,NA,NA
37013,Davidson County,TN,NA,15.810276679841898,NA
37087,Wilson County,TN,NA,22.92490118577075,26.778242677824267
37323,Bradley County,TN,43.06569343065693,NA,NA
37336,Bradley County,TN,NA,89.72332015810277,NA
37343,Hamilton County,TN,73.72262773722628,NA,NA
37354,Monroe County,TN,69.7080291970803,NA,NA
37379,Hamilton County,TN,NA,27.865612648221344,NA
37397,Marion County,TN,NA,86.7588932806324,NA
37405,Hamilton County,TN,76.64233576642336,NA,NA
37410,Hamilton County,TN,NA,97.82608695652173,NA
37601,Washington County,TN,18.97810218978102,NA,NA
37617,Sullivan County,TN,NA,63.43873517786561,NA
37620,Sullivan County,TN,74.08759124087592,NA,NA
37645,Hawkins County,TN,90.14598540145985,NA,NA
37650,Unicoi County,TN,61.31386861313869,NA,NA
37743,Greene County,TN,NA,3.557312252964427,NA
37774,Loudon County,TN,NA,NA,88.28451882845188
37865,Sevier County,TN,NA,84.38735177865613,NA
37869,Hancock County,TN,NA,NA,86.61087866108787
37919,Knox County,TN,NA,35.77075098814229,NA
37922,Knox County,TN,NA,NA,47.28033472803347
37932,Knox County,TN,NA,66.600790513834,NA
38063,Lauderdale County,TN,44.52554744525548,NA,NA
38104,Shelby County,TN,NA,70.7509881422925,NA
38106,Shelby County,TN,NA,73.3201581027668,NA
38141,Shelby County,TN,NA,NA,87.86610878661088
38230,Weakley County,TN,97.44525547445255,NA,NA
38301,Madison County,TN,9.48905109489051,NA,33.47280334728033
38351,Henderson County,TN,NA,42.88537549407115,NA
38501,Putnam County,TN,21.897810218978105,NA,NA
38571,Cumberland County,TN,NA,42.490118577075094,NA
75077,Denton County,TX,NA,49.01185770750988,NA
75092,Grayson County,TX,78.1021897810219,NA,NA
75201,Dallas County,TX,NA,98.22134387351778,NA
75212,Dallas County,TX,NA,48.616600790513836,NA
75252,Collin County,TX,NA,NA,46.44351464435147
75652,Rusk County,TX,NA,49.209486166007906,NA
75758,Henderson County,TX,NA,41.30434782608695,NA
75901,Angelina County,TX,NA,38.93280632411067,NA
76014,Tarrant County,TX,NA,NA,67.78242677824268
76028,Johnson County,TX,80.2919708029197,2.766798418972332,NA
76034,Tarrant County,TX,NA,60.67193675889329,NA
76051,Tarrant County,TX,33.941605839416056,NA,NA
76063,Tarrant County,TX,NA,11.264822134387352,NA
76107,Tarrant County,TX,NA,82.21343873517787,NA
76116,Tarrant County,TX,NA,12.450592885375494,NA
76135,Tarrant County,TX,NA,65.61264822134387,NA
76180,Tarrant County,TX,NA,33.39920948616601,NA
76262,Denton County,TX,NA,88.14229249011858,NA
76365,Clay County,TX,NA,NA,76.56903765690377
76513,Bell County,TX,NA,NA,0.8368200836820083
76528,Coryell County,TX,NA,NA,76.15062761506276
77015,Harris County,TX,NA,45.8498023715415,NA
77016,Harris County,TX,43.79562043795621,NA,NA
77024,Harris County,TX,NA,38.73517786561265,NA
77498,Fort Bend County,TX,NA,52.37154150197628,NA
77551,Galveston County,TX,28.832116788321166,NA,23.84937238493724
77554,Galveston County,TX,NA,46.44268774703557,NA
77808,Brazos County,TX,84.67153284671532,NA,NA
78041,Webb County,TX,NA,20.75098814229249,NA
78043,Webb County,TX,NA,27.27272727272727,NA
78501,Hidalgo County,TX,NA,20.35573122529644,NA
78617,Travis County,TX,NA,84.98023715415019,NA
78626,Williamson County,TX,NA,48.22134387351779,NA
78629,Gonzales County,TX,NA,NA,58.15899581589959
78660,Travis County,TX,NA,31.818181818181817,NA
78681,Williamson County,TX,NA,68.37944664031622,NA
78852,Maverick County,TX,82.84671532846716,NA,NA
79549,Scurry County,TX,NA,NA,51.46443514644351
79706,Midland County,TX,47.08029197080292,NA,NA
79932,El Paso County,TX,NA,NA,66.10878661087865
84014,Davis County,UT,89.41605839416059,NA,NA
84066,Duchesne County,UT,60.21897810218978,NA,NA
84078,Uintah County,UT,18.613138686131386,35.37549407114625,NA
84109,Salt Lake County,UT,NA,52.17391304347826,NA
84120,Salt Lake County,UT,NA,88.53754940711462,NA
84129,,UT,32.11678832116788,NA,NA
84655,Utah County,UT,NA,88.73517786561264,NA
84770,Washington County,UT,NA,NA,8.786610878661087
05101,Windham County,VT,NA,87.74703557312253,84.93723849372385
05301,Windham County,VT,NA,26.679841897233203,NA
05408,Chittenden County,VT,83.94160583941606,NA,NA
05641,Washington County,VT,35.03649635036496,NA,15.899581589958158
20147,Loudoun County,VA,NA,56.126482213438734,NA
20148,Loudoun County,VA,NA,NA,100
20164,Loudoun County,VA,NA,NA,88.70292887029288
20176,Loudoun County,VA,79.1970802919708,NA,NA
22026,Prince William County,VA,NA,NA,95.39748953974896
22192,Prince William County,VA,22.26277372262774,NA,NA
22204,Arlington County,VA,30.29197080291971,NA,NA
22406,Stafford County,VA,NA,74.50592885375494,NA
23181,King William County,VA,NA,NA,98.74476987447699
23224,Richmond city,VA,NA,30.039525691699602,NA
23228,Henrico County,VA,NA,69.56521739130434,23.430962343096233
23231,Henrico County,VA,26.277372262773724,NA,NA
23456,Virginia Beach city,VA,NA,8.300395256916996,NA
23462,Virginia Beach city,VA,NA,9.090909090909092,NA
23666,Hampton city,VA,11.313868613138686,NA,NA
23838,Chesterfield County,VA,NA,NA,77.40585774058577
24013,Roanoke city,VA,78.46715328467153,NA,NA
24015,Roanoke city,VA,NA,73.71541501976284,NA
24060,Montgomery County,VA,NA,75.09881422924902,NA
24360,Wythe County,VA,NA,91.10671936758892,NA
24401,Staunton city,VA,12.408759124087592,NA,NA
24450,Rockbridge County,VA,NA,87.94466403162056,NA
98007,King County,WA,NA,NA,47.69874476987448
98031,King County,WA,NA,NA,37.65690376569037
98037,Snohomish County,WA,NA,59.09090909090909,NA
98070,King County,WA,NA,NA,92.88702928870293
98107,King County,WA,70.07299270072993,NA,NA
98109,King County,WA,NA,NA,80.75313807531381
98118,King County,WA,NA,32.41106719367589,NA
98144,King County,WA,NA,69.96047430830039,NA
98146,King County,WA,59.854014598540154,NA,NA
98223,Snohomish County,WA,27.37226277372263,NA,NA
98576,Thurston County,WA,NA,99.40711462450594,NA
98584,Mason County,WA,NA,54.9407114624506,NA
98597,Thurston County,WA,66.42335766423358,NA,NA
98632,Cowlitz County,WA,NA,27.66798418972332,NA
98855,Okanogan County,WA,NA,85.7707509881423,NA
98901,Yakima County,WA,NA,47.82608695652174,NA
98902,Yakima County,WA,29.56204379562044,NA,NA
98944,Yakima County,WA,NA,64.62450592885376,NA
99207,Spokane County,WA,NA,90.71146245059289,NA
20002,District of Columbia,DC,NA,6.91699604743083,NA
20011,District of Columbia,DC,NA,12.055335968379447,NA
20019,District of Columbia,DC,2.9197080291970803,NA,NA
25401,Berkeley County,WV,NA,80.8300395256917,NA
26101,Wood County,WV,NA,79.64426877470355,NA
97003,NA,NA,55.47445255474452,NA,NA
26105,Wood County,WV,NA,40.909090909090914,NA
26201,Upshur County,WV,NA,16.40316205533597,NA
26241,Randolph County,WV,NA,NA,27.615062761506277
53081,Sheboygan County,WI,NA,21.14624505928854,NA
53142,Kenosha County,WI,NA,19.565217391304348,NA
53190,Walworth County,WI,NA,83.399209486166,NA
53204,Milwaukee County,WI,6.569343065693431,34.58498023715415,NA
53212,Milwaukee County,WI,NA,13.83399209486166,NA
53215,Milwaukee County,WI,3.64963503649635,NA,NA
53220,Milwaukee County,WI,NA,22.134387351778656,NA
53511,Rock County,WI,0.7299270072992701,NA,NA
53528,Dane County,WI,NA,97.62845849802372,NA
53546,Rock County,WI,NA,3.7549407114624502,NA
53581,Richland County,WI,NA,NA,65.69037656903765
53705,Dane County,WI,NA,NA,13.807531380753138
53916,Dodge County,WI,NA,NA,25.523012552301257
53965,Sauk County,WI,NA,NA,89.1213389121339
54024,Polk County,WI,NA,NA,89.9581589958159
54025,St. Croix County,WI,96.71532846715328,NA,NA
54220,Manitowoc County,WI,NA,1.185770750988142,NA
54401,Marathon County,WI,NA,29.446640316205535,NA
54449,Wood County,WI,NA,91.30434782608695,85.77405857740585
54452,Lincoln County,WI,NA,NA,21.75732217573222
54481,Portage County,WI,52.18978102189781,NA,NA
54603,La Crosse County,WI,53.64963503649635,NA,NA
54650,La Crosse County,WI,NA,NA,4.184100418410042
54703,Eau Claire County,WI,NA,NA,32.63598326359833
54829,Barron County,WI,NA,81.62055335968378,NA
54911,Outagamie County,WI,41.605839416058394,NA,NA
82414,Park County,WY,NA,39.723320158102766,NA
