ZipCode,county,state,Adult,Retirement,Geriatric
35094,Jefferson County,AL,NA,NA,76.66666666666667
35160,Talladega County,AL,48.927038626609445,NA,NA
35179,Cullman County,AL,NA,78.94736842105263,NA
35184,Bibb County,AL,NA,77.19298245614034,NA
35211,Jefferson County,AL,NA,23.781676413255358,NA
35404,Tuscaloosa County,AL,13.304721030042918,NA,NA
35630,Lauderdale County,AL,NA,34.89278752436647,NA
35976,Marshall County,AL,NA,NA,53.333333333333336
36010,Pike County,AL,NA,NA,99.58333333333333
36104,Montgomery County,AL,NA,73.87914230019493,NA
36203,Calhoun County,AL,NA,NA,78.33333333333333
36250,Calhoun County,AL,NA,95.90643274853801,NA
36323,Coffee County,AL,89.27038626609442,NA,NA
36421,Covington County,AL,NA,74.07407407407408,NA
36502,Escambia County,AL,NA,NA,93.75
36726,Wilcox County,AL,NA,NA,97.5
36854,Chambers County,AL,NA,NA,71.25
85017,Maricopa County,AZ,NA,70.9551656920078,NA
85051,Maricopa County,AZ,NA,36.45224171539961,NA
85120,Pinal County,AZ,NA,NA,30
85142,Maricopa County,AZ,7.725321888412018,NA,NA
85203,Maricopa County,AZ,39.48497854077253,NA,NA
85210,Maricopa County,AZ,23.17596566523605,NA,NA
85258,Maricopa County,AZ,69.52789699570815,NA,NA
85308,Maricopa County,AZ,NA,50.877192982456144,NA
85390,Maricopa County,AZ,89.69957081545064,NA,NA
85392,Maricopa County,AZ,NA,48.732943469785575,NA
85552,Graham County,AZ,NA,NA,92.91666666666667
85622,Pima County,AZ,NA,93.76218323586744,NA
85706,Pima County,AZ,64.8068669527897,NA,NA
85741,Pima County,AZ,NA,43.859649122807014,NA
85742,Pima County,AZ,51.50214592274678,NA,NA
86301,Yavapai County,AZ,NA,27.680311890838205,NA
86401,Mohave County,AZ,NA,9.35672514619883,NA
86429,Mohave County,AZ,NA,58.0896686159844,NA
86432,Mohave County,AZ,98.28326180257511,NA,NA
71753,Columbia County,AR,65.23605150214593,NA,NA
72034,Faulkner County,AR,52.36051502145923,NA,NA
72058,Faulkner County,AR,NA,89.47368421052632,NA
72076,Pulaski County,AR,NA,NA,17.083333333333332
72118,Pulaski County,AR,62.66094420600859,NA,NA
72401,Craighead County,AR,NA,NA,17.5
72576,Fulton County,AR,NA,92.00779727095517,NA
72704,Washington County,AR,NA,77.97270955165692,NA
72762,Washington County,AR,49.35622317596567,NA,NA
90032,Los Angeles County,CA,NA,57.1150097465887,NA
90047,Los Angeles County,CA,NA,12.475633528265107,NA
90066,Los Angeles County,CA,NA,31.384015594541907,NA
90230,Los Angeles County,CA,NA,47.173489278752434,NA
90247,Los Angeles County,CA,NA,49.512670565302145,NA
90503,Los Angeles County,CA,NA,NA,36.25
90650,Los Angeles County,CA,67.38197424892704,NA,NA
91326,Los Angeles County,CA,64.37768240343348,NA,NA
91403,Los Angeles County,CA,NA,61.40350877192983,NA
91405,Los Angeles County,CA,NA,42.69005847953216,NA
91601,Los Angeles County,CA,NA,85.7699805068226,70.83333333333334
91605,Los Angeles County,CA,75.10729613733905,NA,NA
91711,Los Angeles County,CA,NA,30.214424951267056,NA
91724,Los Angeles County,CA,NA,87.71929824561403,NA
91730,San Bernardino County,CA,NA,35.86744639376218,NA
91763,San Bernardino County,CA,63.519313304721024,NA,NA
91768,Los Angeles County,CA,NA,65.8869395711501,NA
91786,San Bernardino County,CA,34.763948497854074,NA,NA
91792,Los Angeles County,CA,67.81115879828327,NA,NA
91911,San Diego County,CA,NA,16.764132553606238,NA
91913,San Diego County,CA,NA,77.77777777777779,66.25
92025,San Diego County,CA,NA,52.046783625730995,NA
92028,San Diego County,CA,NA,NA,45
92130,San Diego County,CA,NA,59.4541910331384,NA
92173,San Diego County,CA,NA,72.90448343079922,NA
92231,Imperial County,CA,NA,NA,35
92262,Riverside County,CA,NA,11.306042884990253,NA
92308,San Bernardino County,CA,NA,61.79337231968811,NA
92320,Riverside County,CA,NA,98.24561403508771,NA
92337,San Bernardino County,CA,60.08583690987125,NA,NA
92359,San Bernardino County,CA,NA,92.98245614035088,NA
92373,San Bernardino County,CA,NA,63.1578947368421,NA
92544,Riverside County,CA,NA,NA,60
92545,Riverside County,CA,NA,38.59649122807017,NA
92570,Riverside County,CA,45.92274678111588,NA,NA
92596,Riverside County,CA,NA,80.31189083820662,NA
92647,Orange County,CA,NA,55.36062378167641,NA
92703,Orange County,CA,NA,NA,86.66666666666667
93001,Ventura County,CA,NA,65.30214424951268,NA
93012,Ventura County,CA,NA,96.10136452241716,NA
93030,Ventura County,CA,15.879828326180256,NA,NA
93257,Tulare County,CA,10.300429184549357,22.027290448343077,NA
93454,Santa Barbara County,CA,31.330472103004293,NA,NA
93458,Santa Barbara County,CA,NA,28.654970760233915,NA
93535,Los Angeles County,CA,NA,37.23196881091618,NA
93704,Fresno County,CA,NA,54.77582846003899,NA
94110,San Francisco County,CA,73.8197424892704,NA,NA
94114,San Francisco County,CA,NA,NA,81.66666666666667
94501,Alameda County,CA,NA,43.27485380116959,NA
94541,Alameda County,CA,NA,17.73879142300195,44.166666666666664
94550,Alameda County,CA,NA,NA,52.083333333333336
94551,Alameda County,CA,NA,93.37231968810916,NA
94553,Contra Costa County,CA,NA,84.01559454191033,NA
94565,Contra Costa County,CA,21.030042918454935,NA,NA
94589,Solano County,CA,NA,48.53801169590643,NA
94598,Contra Costa County,CA,NA,NA,62.083333333333336
94806,Contra Costa County,CA,NA,21.24756335282651,NA
95008,Santa Clara County,CA,NA,47.368421052631575,NA
95019,Santa Cruz County,CA,NA,NA,87.91666666666667
95205,San Joaquin County,CA,NA,93.56725146198829,NA
95209,San Joaquin County,CA,NA,55.36062378167641,NA
95210,San Joaquin County,CA,NA,59.25925925925925,NA
95252,Calaveras County,CA,NA,67.2514619883041,NA
95320,San Joaquin County,CA,93.99141630901288,NA,NA
95340,Merced County,CA,NA,51.07212475633528,NA
95370,Tuolumne County,CA,NA,3.7037037037037033,NA
95453,Lake County,CA,72.1030042918455,75.43859649122807,NA
95521,Humboldt County,CA,NA,NA,89.58333333333334
95608,Sacramento County,CA,NA,NA,8.75
95621,Sacramento County,CA,46.3519313304721,NA,NA
95677,Placer County,CA,NA,76.80311890838206,82.91666666666667
95691,Yolo County,CA,77.6824034334764,NA,NA
95758,Sacramento County,CA,NA,NA,41.66666666666667
95823,Sacramento County,CA,NA,NA,29.166666666666668
95825,Sacramento County,CA,NA,NA,40.833333333333336
95948,Butte County,CA,76.82403433476395,NA,NA
95966,Butte County,CA,38.197424892703864,37.62183235867446,NA
96002,Shasta County,CA,NA,63.547758284600384,NA
96021,Tehama County,CA,NA,56.33528265107213,NA
96097,Siskiyou County,CA,NA,57.30994152046783,NA
80003,Jefferson County,CO,NA,54.19103313840156,NA
80011,Arapahoe County,CO,NA,33.13840155945419,NA
80013,Arapahoe County,CO,NA,22.22222222222222,NA
80031,Adams County,CO,42.06008583690987,NA,NA
80113,Arapahoe County,CO,NA,76.99805068226121,NA
80129,Douglas County,CO,NA,NA,77.08333333333334
80220,Denver County,CO,NA,64.5224171539961,NA
80223,Denver County,CO,NA,53.41130604288499,NA
80401,Jefferson County,CO,38.62660944206009,NA,NA
80514,Weld County,CO,NA,99.41520467836257,NA
80550,Weld County,CO,NA,NA,49.583333333333336
80603,Weld County,CO,NA,97.270955165692,NA
80631,Weld County,CO,NA,60.62378167641326,NA
80909,El Paso County,CO,NA,NA,87.5
81240,Fremont County,CO,96.13733905579399,NA,NA
81503,Mesa County,CO,63.94849785407726,NA,NA
06109,Hartford County,CT,NA,53.021442495126706,NA
06234,Windham County,CT,NA,69.5906432748538,NA
06260,Windham County,CT,32.18884120171674,NA,NA
06489,Hartford County,CT,NA,NA,10
06512,New Haven County,CT,NA,57.69980506822612,NA
06513,New Haven County,CT,55.36480686695279,NA,NA
06518,New Haven County,CT,NA,NA,33.75
06790,Litchfield County,CT,NA,2.729044834307992,NA
06791,Litchfield County,CT,NA,79.53216374269006,NA
06801,Fairfield County,CT,86.69527896995707,NA,NA
06811,Fairfield County,CT,48.068669527896994,NA,NA
06851,Fairfield County,CT,NA,NA,29.583333333333332
19806,New Castle County,DE,NA,NA,47.5
19904,Kent County,DE,NA,14.42495126705653,NA
19973,Sussex County,DE,13.733905579399142,NA,NA
32024,Columbia County,FL,NA,40.74074074074074,NA
32127,Volusia County,FL,NA,38.20662768031189,27.916666666666668
32218,Duval County,FL,NA,3.508771929824561,NA
32225,Duval County,FL,NA,14.814814814814813,NA
32246,Duval County,FL,14.163090128755366,NA,NA
32257,Duval County,FL,25.321888412017167,NA,NA
32259,St. Johns County,FL,NA,NA,50
32409,Bay County,FL,NA,68.2261208576998,NA
32533,Escambia County,FL,NA,NA,32.916666666666664
32535,Escambia County,FL,NA,NA,90.83333333333333
32563,Santa Rosa County,FL,NA,23.00194931773879,NA
32578,Okaloosa County,FL,54.506437768240346,NA,NA
32707,Seminole County,FL,84.54935622317596,NA,NA
32778,Lake County,FL,NA,25.146198830409354,NA
32796,Brevard County,FL,NA,26.705653021442494,NA
32837,Orange County,FL,20.171673819742487,NA,NA
32960,Indian River County,FL,NA,40.35087719298245,NA
33012,Miami-Dade County,FL,NA,22.612085769980506,NA
33025,Broward County,FL,NA,NA,42.083333333333336
33050,Monroe County,FL,88.8412017167382,NA,NA
33070,Monroe County,FL,NA,89.08382066276803,NA
33134,Miami-Dade County,FL,NA,NA,31.666666666666664
33150,Miami-Dade County,FL,NA,64.13255360623782,NA
33155,Miami-Dade County,FL,NA,NA,14.583333333333334
33156,Miami-Dade County,FL,NA,54.97076023391813,NA
33165,Miami-Dade County,FL,NA,33.91812865497076,NA
33196,Miami-Dade County,FL,NA,62.57309941520468,NA
33305,Broward County,FL,NA,74.07407407407408,NA
33311,Broward County,FL,NA,NA,28.333333333333332
33324,Broward County,FL,NA,NA,80.83333333333333
33327,Broward County,FL,NA,88.4990253411306,NA
33430,Palm Beach County,FL,52.78969957081545,NA,NA
33458,Palm Beach County,FL,24.892703862660944,NA,NA
33541,Pasco County,FL,NA,34.30799220272904,NA
33558,Hillsborough County,FL,NA,89.66861598440545,NA
33569,Hillsborough County,FL,74.67811158798283,NA,NA
33570,Hillsborough County,FL,NA,NA,65
33707,Pinellas County,FL,60.94420600858369,NA,NA
33763,Pinellas County,FL,NA,56.72514619883041,NA
33771,Pinellas County,FL,NA,NA,24.166666666666668
33781,Pinellas County,FL,NA,35.4775828460039,NA
33805,Polk County,FL,NA,33.528265107212476,NA
33875,Highlands County,FL,NA,68.03118908382066,NA
33907,Lee County,FL,49.78540772532189,NA,NA
33908,Lee County,FL,NA,29.629629629629626,NA
34209,Manatee County,FL,NA,21.24756335282651,NA
34275,Sarasota County,FL,NA,27.485380116959064,NA
34446,Citrus County,FL,NA,NA,37.083333333333336
34474,Marion County,FL,90.98712446351931,NA,NA
34491,Marion County,FL,NA,NA,21.666666666666668
34606,Hernando County,FL,NA,38.40155945419103,NA
34608,Hernando County,FL,NA,NA,46.25
34639,Pasco County,FL,NA,54.58089668615984,NA
34684,Pinellas County,FL,NA,NA,14.166666666666666
34748,Lake County,FL,19.742489270386265,NA,NA
34761,Orange County,FL,42.91845493562232,NA,NA
34769,Osceola County,FL,48.497854077253216,NA,NA
34951,St. Lucie County,FL,NA,87.13450292397661,NA
34953,St. Lucie County,FL,NA,NA,20.416666666666668
30011,Barrow County,GA,NA,84.21052631578947,NA
30016,Newton County,GA,NA,NA,49.166666666666664
30066,Cobb County,GA,NA,25.730994152046783,NA
30071,Gwinnett County,GA,NA,98.635477582846,NA
30180,Carroll County,GA,NA,NA,70.41666666666667
30223,Spalding County,GA,NA,NA,33.33333333333333
30252,Henry County,GA,NA,47.563352826510716,NA
30281,Henry County,GA,NA,16.95906432748538,NA
30316,DeKalb County,GA,NA,46.978557504873294,NA
30329,DeKalb County,GA,NA,NA,67.91666666666667
30349,Fulton County,GA,6.437768240343347,NA,NA
30436,Toombs County,GA,NA,NA,85.41666666666666
30506,Hall County,GA,NA,NA,13.750000000000002
30523,Habersham County,GA,NA,72.51461988304094,NA
30530,Banks County,GA,NA,90.44834307992203,NA
30721,Whitfield County,GA,24.463519313304722,NA,NA
30728,Walker County,GA,NA,67.05653021442495,NA
30906,Richmond County,GA,5.150214592274678,NA,NA
96792,Honolulu County,HI,NA,23.391812865497073,NA
96815,Honolulu County,HI,NA,24.366471734892787,NA
96826,Honolulu County,HI,NA,30.994152046783626,NA
83221,Bingham County,ID,NA,17.348927875243664,NA
83333,Blaine County,ID,NA,NA,75
83536,Idaho County,ID,NA,NA,89.16666666666667
83647,Elmore County,ID,NA,86.54970760233918,NA
83686,Canyon County,ID,NA,NA,3.3333333333333335
83716,Ada County,ID,NA,71.9298245614035,NA
83805,Boundary County,ID,NA,68.61598440545808,NA
83835,Kootenai County,ID,NA,NA,43.333333333333336
60053,Cook County,IL,NA,79.33723196881091,NA
60062,Cook County,IL,NA,5.653021442495127,NA
60067,Cook County,IL,NA,18.323586744639375,NA
60077,Cook County,IL,NA,96.49122807017544,NA
60137,DuPage County,IL,NA,27.87524366471735,NA
60155,Cook County,IL,NA,NA,90
60302,Cook County,IL,NA,13.450292397660817,NA
60416,Grundy County,IL,NA,72.12475633528264,NA
60472,Cook County,IL,NA,90.25341130604289,NA
60510,Kane County,IL,NA,NA,55.00000000000001
60532,DuPage County,IL,NA,74.6588693957115,NA
60560,Kendall County,IL,NA,52.241715399610136,NA
60623,Cook County,IL,NA,NA,16.25
60625,Cook County,IL,NA,NA,57.08333333333333
60629,Cook County,IL,NA,NA,11.25
60636,Cook County,IL,36.48068669527897,NA,NA
60641,Cook County,IL,NA,NA,24.583333333333332
60647,Cook County,IL,NA,19.103313840155945,NA
60942,Vermilion County,IL,NA,60.42884990253411,NA
61084,Ogle County,IL,99.57081545064378,NA,NA
61111,Winnebago County,IL,NA,78.75243664717348,NA
61350,LaSalle County,IL,NA,66.66666666666666,NA
61820,Champaign County,IL,NA,96.29629629629629,NA
62088,Macoupin County,IL,NA,85.57504873294347,NA
62681,Schuyler County,IL,NA,95.32163742690058,NA
62707,Sangamon County,IL,NA,100,NA
62837,Wayne County,IL,NA,69.98050682261209,NA
46033,Hamilton County,IN,NA,27.87524366471735,NA
46060,Hamilton County,IN,NA,76.21832358674465,NA
46074,Hamilton County,IN,NA,60.03898635477582,NA
46176,Shelby County,IN,NA,12.085769980506821,NA
46205,Marion County,IN,NA,NA,81.25
46221,Marion County,IN,30.472103004291846,NA,NA
46311,Lake County,IN,36.05150214592275,NA,NA
46312,Lake County,IN,14.592274678111588,NA,NA
46350,LaPorte County,IN,NA,8.187134502923977,NA
46407,Lake County,IN,NA,71.34502923976608,NA
46755,Noble County,IN,NA,NA,64.16666666666667
46805,Allen County,IN,NA,86.74463937621833,NA
46809,Allen County,IN,NA,70.17543859649122,NA
46901,Howard County,IN,30.90128755364807,NA,NA
46902,Howard County,IN,NA,3.898635477582846,NA
46992,Wabash County,IN,36.9098712446352,NA,NA
46996,Pulaski County,IN,75.53648068669528,NA,NA
47304,Delaware County,IN,NA,NA,42.916666666666664
47396,Delaware County,IN,NA,NA,90.41666666666667
47501,Daviess County,IN,NA,NA,22.916666666666664
47715,Vanderburgh County,IN,NA,NA,15.833333333333332
50010,Story County,IA,NA,71.53996101364523,NA
50213,Clarke County,IA,NA,NA,100
50265,Polk County,IA,NA,58.0896686159844,NA
50317,Polk County,IA,NA,13.64522417153996,NA
51503,Pottawattamie County,IA,NA,24.951267056530213,NA
52404,Linn County,IA,NA,16.374269005847953,NA
52556,Jefferson County,IA,NA,60.81871345029239,NA
52804,Scott County,IA,81.54506437768241,NA,NA
66053,Miami County,KS,NA,92.39766081871345,NA
66109,Wyandotte County,KS,55.793991416309005,NA,NA
66209,Johnson County,KS,NA,42.49512670565302,NA
66607,Shawnee County,KS,80.68669527896995,NA,NA
66901,Cloud County,KS,NA,86.93957115009746,NA
67133,Butler County,KS,NA,98.44054580896686,NA
67502,Reno County,KS,NA,NA,53.75
40014,Oldham County,KY,NA,64.32748538011695,NA
40047,Bullitt County,KY,NA,53.41130604288499,NA
40118,Jefferson County,KY,NA,NA,94.16666666666667
40211,Jefferson County,KY,11.158798283261802,NA,NA
40214,Jefferson County,KY,NA,14.035087719298245,NA
40215,Jefferson County,KY,NA,43.07992202729044,NA
40216,Jefferson County,KY,NA,NA,13.333333333333334
40220,Jefferson County,KY,40.343347639484975,NA,NA
40324,Scott County,KY,NA,NA,38.333333333333336
40403,Madison County,KY,22.317596566523605,NA,NA
40422,Boyle County,KY,NA,46.00389863547758,NA
40475,Madison County,KY,NA,NA,77.91666666666667
40744,Laurel County,KY,NA,53.99610136452242,NA
42167,Monroe County,KY,NA,91.42300194931774,NA
42503,Pulaski County,KY,NA,55.945419103313846,NA
42642,Russell County,KY,NA,65.10721247563353,64.58333333333334
70065,Jefferson Parish,LA,NA,3.1189083820662766,NA
70114,Orleans Parish,LA,NA,67.64132553606238,NA
70119,Orleans Parish,LA,NA,7.797270955165692,NA
70360,Terrebonne Parish,LA,NA,82.65107212475633,NA
70433,St. Tammany Parish,LA,NA,9.161793372319687,NA
70437,St. Tammany Parish,LA,NA,61.20857699805068,NA
70452,St. Tammany Parish,LA,NA,32.35867446393762,NA
70586,Evangeline Parish,LA,NA,NA,46.666666666666664
70633,Calcasieu Parish,LA,NA,NA,79.58333333333333
70816,East Baton Rouge Parish,LA,NA,NA,38.75
71075,Webster Parish,LA,68.24034334763948,NA,NA
71269,Richland Parish,LA,NA,90.05847953216374,NA
71301,Rapides Parish,LA,NA,33.33333333333333,NA
04005,York County,ME,NA,5.263157894736842,NA
04079,Cumberland County,ME,NA,86.15984405458089,NA
04096,Cumberland County,ME,NA,NA,73.33333333333333
04239,Franklin County,ME,NA,NA,77.5
04345,Kennebec County,ME,NA,51.461988304093566,NA
04530,Sagadahoc County,ME,NA,44.834307992202724,NA
20743,Prince George's County,MD,NA,68.42105263157895,NA
20748,Prince George's County,MD,NA,NA,50.416666666666664
20817,Montgomery County,MD,NA,NA,99.16666666666667
20853,Montgomery County,MD,78.54077253218884,NA,NA
20874,Montgomery County,MD,NA,59.64912280701754,NA
20901,Montgomery County,MD,NA,NA,56.666666666666664
21032,Anne Arundel County,MD,NA,94.73684210526315,NA
21048,Carroll County,MD,NA,83.04093567251462,NA
21060,Anne Arundel County,MD,NA,40.15594541910331,NA
21061,Anne Arundel County,MD,NA,25.146198830409354,NA
21146,Anne Arundel County,MD,70.3862660944206,NA,NA
21161,Harford County,MD,NA,94.54191033138402,NA
21217,Baltimore city,MD,NA,16.569200779727094,NA
21224,Baltimore city,MD,NA,NA,32.083333333333336
21227,Baltimore County,MD,NA,46.198830409356724,NA
21811,Worcester County,MD,NA,NA,20
21921,Cecil County,MD,NA,NA,57.91666666666667
01027,Hampshire County,MA,96.56652360515021,NA,NA
01056,Hampden County,MA,NA,NA,12.5
01106,Hampden County,MA,NA,88.88888888888889,NA
01267,Berkshire County,MA,NA,NA,59.166666666666664
01501,Worcester County,MA,NA,NA,21.25
01510,Worcester County,MA,NA,91.22807017543859,NA
01520,Worcester County,MA,NA,NA,85.83333333333333
01588,Worcester County,MA,95.27896995708154,NA,NA
01602,Worcester County,MA,NA,NA,22.083333333333332
01803,Middlesex County,MA,NA,NA,1.25
01810,Essex County,MA,10.72961373390558,NA,NA
01832,Essex County,MA,NA,97.85575048732943,NA
01841,Essex County,MA,NA,0.1949317738791423,23.75
01845,Essex County,MA,NA,NA,22.916666666666664
01862,Middlesex County,MA,NA,46.588693957115005,NA
01930,Essex County,MA,2.575107296137339,NA,NA
01944,Essex County,MA,NA,NA,98.33333333333333
02121,Suffolk County,MA,NA,0.7797270955165692,NA
02125,Suffolk County,MA,NA,93.95711500974659,NA
02127,Suffolk County,MA,NA,8.966861598440545,NA
02128,Suffolk County,MA,NA,1.949317738791423,NA
02140,Middlesex County,MA,NA,11.695906432748536,NA
02149,Middlesex County,MA,NA,0.9746588693957114,NA
02150,Suffolk County,MA,NA,NA,4.166666666666666
02176,Middlesex County,MA,NA,7.212475633528265,NA
02186,Norfolk County,MA,NA,24.171539961013643,NA
02360,Plymouth County,MA,NA,0.3898635477582846,NA
02446,Norfolk County,MA,NA,6.82261208576998,NA
02459,Middlesex County,MA,NA,21.832358674463936,NA
02554,Nantucket County,MA,NA,51.461988304093566,NA
02664,Barnstable County,MA,NA,NA,36.666666666666664
02720,Bristol County,MA,NA,NA,2.083333333333333
02724,Bristol County,MA,3.004291845493562,NA,NA
02760,Bristol County,MA,NA,11.890838206627679,NA
02780,Bristol County,MA,18.025751072961373,NA,NA
48001,St. Clair County,MI,NA,69.20077972709552,NA
48021,Macomb County,MI,8.15450643776824,NA,NA
48035,Macomb County,MI,7.296137339055794,NA,75.41666666666667
48042,Macomb County,MI,87.55364806866953,NA,NA
48044,Macomb County,MI,NA,30.60428849902534,NA
48074,St. Clair County,MI,69.95708154506438,NA,NA
48092,Macomb County,MI,NA,20.66276803118908,NA
48094,Macomb County,MI,NA,48.148148148148145,NA
48108,Washtenaw County,MI,NA,30.01949317738791,NA
48114,Livingston County,MI,NA,25.925925925925924,NA
48154,Wayne County,MI,NA,8.771929824561402,NA
48161,Monroe County,MI,NA,NA,39.58333333333333
48162,Monroe County,MI,NA,NA,48.75
48170,Wayne County,MI,12.017167381974248,NA,2.5
48180,Wayne County,MI,NA,2.144249512670565,NA
48182,Monroe County,MI,NA,40.5458089668616,NA
48185,Wayne County,MI,NA,7.017543859649122,NA
48195,Wayne County,MI,NA,NA,18.75
48198,Washtenaw County,MI,NA,13.060428849902534,NA
48203,Wayne County,MI,NA,20.857699805068226,NA
48212,Wayne County,MI,57.5107296137339,NA,NA
48221,Wayne County,MI,NA,5.847953216374268,NA
48228,Wayne County,MI,NA,8.57699805068226,NA
48238,Wayne County,MI,NA,NA,68.75
48239,Wayne County,MI,NA,10.526315789473683,NA
48314,Macomb County,MI,NA,36.25730994152047,NA
48360,Oakland County,MI,71.67381974248927,NA,NA
48504,Genesee County,MI,NA,42.8849902534113,NA
48768,Tuscola County,MI,56.65236051502146,NA,NA
48836,Livingston County,MI,54.077253218884124,NA,NA
48838,Montcalm County,MI,NA,65.49707602339181,NA
48846,Ionia County,MI,40.772532188841204,NA,NA
48858,Isabella County,MI,NA,NA,10.416666666666668
49068,Calhoun County,MI,57.93991416309014,NA,NA
49073,Barry County,MI,NA,91.61793372319687,NA
49078,Allegan County,MI,NA,NA,93.33333333333333
49236,Lenawee County,MI,93.56223175965665,NA,NA
49631,Osceola County,MI,NA,NA,80
49659,Antrim County,MI,NA,NA,95.83333333333334
49707,Alpena County,MI,NA,19.298245614035086,NA
49829,Delta County,MI,NA,27.29044834307992,NA
55104,Ramsey County,MN,NA,39.1812865497076,NA
55105,Ramsey County,MN,NA,62.96296296296296,NA
55110,Ramsey County,MN,NA,NA,37.916666666666664
55116,Ramsey County,MN,NA,94.9317738791423,NA
55122,Dakota County,MN,NA,82.84600389863547,NA
55330,Sherburne County,MN,NA,NA,80.41666666666667
55337,Dakota County,MN,NA,22.807017543859647,NA
55343,Hennepin County,MN,NA,39.57115009746588,NA
55350,McLeod County,MN,28.75536480686695,NA,NA
55417,Hennepin County,MN,51.072961373390555,NA,NA
55419,Hennepin County,MN,NA,57.50487329434698,NA
55720,Carlton County,MN,33.47639484978541,NA,NA
55987,Winona County,MN,83.69098712446352,NA,NA
56007,Freeborn County,MN,NA,9.746588693957115,NA
56110,Nobles County,MN,100,NA,NA
56334,Pope County,MN,NA,NA,66.66666666666666
56560,Clay County,MN,NA,NA,12.083333333333334
56649,Koochiching County,MN,NA,NA,96.25
56751,Roseau County,MN,84.97854077253218,NA,NA
38654,DeSoto County,MS,23.605150214592275,NA,NA
38852,Tishomingo County,MS,NA,63.547758284600384,NA
38863,Pontotoc County,MS,NA,58.47953216374269,NA
39074,Scott County,MS,NA,62.1832358674464,NA
39204,Hinds County,MS,22.746781115879827,NA,NA
39367,Wayne County,MS,NA,63.35282651072125,NA
39401,Forrest County,MS,NA,52.63157894736842,NA
39452,George County,MS,NA,21.052631578947366,NA
39466,Pearl River County,MS,NA,15.009746588693956,NA
39759,Oktibbeha County,MS,66.09442060085837,NA,NA
63017,St. Louis County,MO,NA,NA,1.6666666666666667
63031,St. Louis County,MO,17.167381974248926,NA,NA
63114,St. Louis County,MO,58.36909871244635,NA,NA
63119,St. Louis County,MO,NA,NA,9.166666666666666
63127,St. Louis County,MO,NA,NA,62.5
63128,St. Louis County,MO,NA,56.53021442495126,NA
63135,St. Louis County,MO,31.759656652360512,NA,NA
63136,St. Louis County,MO,NA,NA,34.583333333333336
63146,St. Louis County,MO,NA,NA,6.666666666666667
63368,St. Charles County,MO,73.39055793991416,NA,NA
63385,St. Charles County,MO,NA,12.280701754385964,NA
63755,Cape Girardeau County,MO,NA,50.097465886939574,NA
63841,Stoddard County,MO,NA,70.76023391812866,NA
64014,Jackson County,MO,NA,30.79922027290448,NA
64055,Jackson County,MO,5.579399141630901,NA,NA
64076,Lafayette County,MO,NA,77.38791423001949,NA
64083,Cass County,MO,NA,38.01169590643275,NA
64130,Jackson County,MO,NA,18.9083820662768,NA
64138,Jackson County,MO,8.583690987124463,NA,NA
64503,Buchanan County,MO,NA,31.57894736842105,NA
65043,Callaway County,MO,NA,82.45614035087719,NA
65265,Audrain County,MO,NA,NA,47.91666666666667
65613,Polk County,MO,NA,35.28265107212476,NA
65653,Taney County,MO,NA,89.27875243664717,NA
59833,Ravalli County,MT,NA,NA,97.91666666666666
68008,Washington County,NE,85.40772532188842,NA,NA
68114,Douglas County,NE,NA,NA,88.33333333333333
68135,Douglas County,NE,95.708154506437765,NA,NA
68601,Platte County,NE,61.37339055793991,NA,NA
68803,Hall County,NE,NA,NA,56.25
89103,Clark County,NV,NA,55.165692007797276,NA
89106,Clark County,NV,NA,66.27680311890838,NA
89147,Clark County,NV,NA,47.758284600389864,NA
89429,Lyon County,NV,78.96995708154506,NA,NA
03452,Cheshire County,NH,91.84549356223177,NA,NA
03561,Grafton County,NH,NA,NA,78.33333333333333
03819,Rockingham County,NH,93.99141630901288,NA,NA
07018,Essex County,NJ,3.862660944206009,NA,NA
07047,Hudson County,NJ,3.4334763948497855,NA,NA
07052,Essex County,NJ,NA,NA,17.916666666666668
07071,Bergen County,NJ,NA,72.31968810916179,NA
07208,Union County,NJ,NA,NA,44.583333333333336
07508,Passaic County,NJ,NA,NA,52.5
07601,Bergen County,NJ,NA,6.432748538011696,NA
07628,Bergen County,NJ,44.63519313304721,NA,NA
07670,Bergen County,NJ,NA,NA,61.66666666666667
07712,Monmouth County,NJ,NA,6.237816764132553,NA
07757,Monmouth County,NJ,NA,90.64327485380117,NA
07860,Sussex County,NJ,NA,NA,62.916666666666664
07928,Morris County,NJ,99.14163090128756,NA,NA
08012,Camden County,NJ,NA,13.840155945419102,NA
08057,Burlington County,NJ,NA,53.80116959064327,NA
08060,Burlington County,NJ,12.875536480686694,NA,NA
08077,Burlington County,NJ,NA,61.40350877192983,NA
08102,Camden County,NJ,6.008583690987124,NA,NA
08205,Atlantic County,NJ,NA,20.46783625730994,NA
08302,Cumberland County,NJ,NA,39.96101364522417,NA
08520,Mercer County,NJ,NA,NA,58.75
08861,Middlesex County,NJ,0.8583690987124464,NA,20.416666666666668
87110,Bernalillo County,NM,NA,NA,11.666666666666666
87111,Bernalillo County,NM,NA,NA,5
87123,Bernalillo County,NM,NA,5.0682261208577,NA
87124,Sandoval County,NM,NA,58.86939571150097,NA
88023,Grant County,NM,97.85407725321889,NA,NA
10024,New York County,NY,NA,23.586744639376217,NA
10025,New York County,NY,NA,NA,0.8333333333333334
10314,Richmond County,NY,NA,4.093567251461988,NA
10453,Bronx County,NY,0,NA,NA
10460,Bronx County,NY,1.7167381974248928,NA,NA
10462,Bronx County,NY,NA,NA,7.5
10467,Bronx County,NY,NA,NA,0.4166666666666667
10469,Bronx County,NY,NA,7.602339181286549,NA
10472,Bronx County,NY,NA,2.3391812865497075,NA
11204,Kings County,NY,NA,NA,7.083333333333333
11206,Kings County,NY,NA,1.5594541910331383,NA
11211,Kings County,NY,NA,NA,16.666666666666664
11219,Kings County,NY,NA,18.51851851851852,NA
11220,Kings County,NY,NA,4.28849902534113,68.33333333333333
11230,Kings County,NY,NA,NA,5.833333333333333
11234,Kings County,NY,18.88412017167382,41.91033138401559,NA
11375,Queens County,NY,NA,NA,6.25
11377,Queens County,NY,NA,49.122807017543856,NA
11417,Queens County,NY,NA,77.58284600389864,NA
11419,Queens County,NY,NA,26.900584795321635,NA
11422,Queens County,NY,NA,58.67446393762184,NA
11435,Queens County,NY,NA,48.927875243664715,NA
11554,Nassau County,NY,NA,44.639376218323584,NA
11590,Nassau County,NY,NA,NA,25.833333333333336
11691,Queens County,NY,NA,7.992202729044834,NA
11714,Nassau County,NY,NA,NA,51.24999999999999
11733,Suffolk County,NY,NA,92.20272904483431,NA
11741,Suffolk County,NY,NA,NA,79.16666666666666
11768,Suffolk County,NY,NA,82.06627680311891,NA
11967,Suffolk County,NY,33.90557939914164,NA,NA
12090,Rensselaer County,NY,NA,NA,71.66666666666667
12306,Schenectady County,NY,35.1931330472103,NA,NA
12542,Ulster County,NY,NA,98.83040935672514,NA
12771,Orange County,NY,NA,74.85380116959064,NA
12804,Warren County,NY,NA,10.916179337231968,NA
12946,Essex County,NY,NA,80.7017543859649,NA
13021,Cayuga County,NY,2.1459227467811157,NA,NA
13036,Oswego County,NY,59.227467811158796,NA,NA
13069,Oswego County,NY,NA,11.500974658869396,NA
13104,Onondaga County,NY,NA,43.46978557504873,NA
13146,Wayne County,NY,90.12875536480686,NA,NA
13205,Onondaga County,NY,NA,74.46393762183236,NA
13215,Onondaga County,NY,51.931330472103,NA,NA
13219,Onondaga County,NY,NA,46.783625730994146,NA
13316,Oneida County,NY,63.0901287553648,NA,NA
13350,Herkimer County,NY,NA,67.44639376218323,NA
13367,Lewis County,NY,NA,61.98830409356725,NA
13421,Madison County,NY,NA,51.267056530214425,NA
13662,St. Lawrence County,NY,NA,14.230019493177387,NA
13733,Chenango County,NY,NA,NA,95
13734,Tioga County,NY,NA,98.05068226120858,NA
13760,Broome County,NY,NA,0.5847953216374269,NA
14004,Erie County,NY,NA,72.90448343079922,NA
14020,Genesee County,NY,NA,12.670565302144249,27.083333333333332
14063,Chautauqua County,NY,44.20600858369099,NA,NA
14067,Niagara County,NY,NA,84.60038986354775,NA
14086,Erie County,NY,19.313304721030043,NA,NA
14216,Erie County,NY,NA,38.79142300194932,NA
14220,Erie County,NY,NA,NA,60.416666666666664
14221,Erie County,NY,NA,2.923976608187134,NA
14224,Erie County,NY,NA,9.941520467836257,NA
14305,Niagara County,NY,NA,NA,55.833333333333336
14425,Ontario County,NY,NA,75.82846003898635,NA
14428,Monroe County,NY,NA,91.03313840155946,NA
14450,Monroe County,NY,NA,1.364522417153996,NA
14487,Livingston County,NY,NA,57.89473684210527,NA
14526,Monroe County,NY,47.63948497854077,NA,63.74999999999999
14610,Monroe County,NY,29.613733905579398,NA,NA
14613,Monroe County,NY,NA,32.94346978557505,NA
14616,Monroe County,NY,NA,36.06237816764132,NA
14626,Monroe County,NY,NA,NA,35.41666666666667
14701,Chautauqua County,NY,NA,2.53411306042885,NA
14715,Allegany County,NY,81.97424892703863,NA,NA
14843,Steuben County,NY,20.600858369098713,NA,NA
14850,Tompkins County,NY,NA,29.82456140350877,NA
14867,Tompkins County,NY,NA,97.07602339181285,NA
27020,Yadkin County,NC,71.24463519313305,NA,NA
27055,Yadkin County,NC,NA,74.85380116959064,NA
27215,Alamance County,NC,NA,NA,40.416666666666664
27217,Alamance County,NC,NA,11.11111111111111,NA
27249,Guilford County,NC,NA,NA,67.08333333333333
27350,Randolph County,NC,NA,NA,82.08333333333333
27370,Randolph County,NC,NA,59.06432748538012,NA
27501,Harnett County,NC,53.21888412017167,NA,NA
27520,Johnston County,NC,34.33476394849785,NA,NA
27524,Johnston County,NC,NA,69.00584795321637,NA
27587,Wake County,NC,NA,10.1364522417154,NA
27609,Wake County,NC,NA,31.968810916179336,NA
27615,Wake County,NC,NA,12.865497076023392,NA
27804,Nash County,NC,NA,NA,39.166666666666664
27828,Pitt County,NC,68.6695278969957,NA,NA
27909,Pasquotank County,NC,9.871244635193133,NA,NA
28025,Cabarrus County,NC,NA,13.255360623781677,NA
28036,Mecklenburg County,NC,NA,NA,58.333333333333336
28054,Gaston County,NC,NA,NA,91.25
28078,Mecklenburg County,NC,NA,31.189083820662766,NA
28112,Union County,NC,NA,34.30799220272904,37.5
28120,Gaston County,NC,NA,44.2495126705653,NA
28170,Anson County,NC,57.08154506437768,NA,NA
28216,Mecklenburg County,NC,NA,NA,26.666666666666668
28227,Mecklenburg County,NC,NA,15.204678362573098,NA
28277,Mecklenburg County,NC,45.493562231759654,NA,NA
28334,Sampson County,NC,NA,NA,41.25
28358,Robeson County,NC,NA,NA,18.333333333333332
28360,Robeson County,NC,76.39484978540773,NA,NA
28365,Wayne County,NC,NA,70.56530214424951,NA
28379,Richmond County,NC,15.450643776824036,NA,NA
28383,Robeson County,NC,92.7038626609442,NA,NA
28403,New Hanover County,NC,42.48927038626609,NA,NA
28463,Columbus County,NC,NA,NA,86.25
28469,Brunswick County,NC,NA,76.41325536062378,NA
28472,Columbus County,NC,NA,NA,45.83333333333333
28546,Onslow County,NC,25.75107296137339,NA,NA
28586,Craven County,NC,80.25751072961373,NA,NA
28607,Watauga County,NC,NA,69.78557504873294,NA
28697,Wilkes County,NC,NA,55.36062378167641,NA
28712,Transylvania County,NC,NA,NA,10.833333333333334
28715,Buncombe County,NC,NA,47.758284600389864,NA
28753,Madison County,NC,NA,NA,87.08333333333333
28782,Polk County,NC,NA,80.31189083820662,NA
28792,Henderson County,NC,32.61802575107296,NA,NA
58078,Cass County,ND,26.609442060085836,NA,NA
58301,Ramsey County,ND,NA,NA,65.83333333333333
58801,Williams County,ND,NA,48.343079922027286,NA
43017,Franklin County,OH,NA,NA,92.5
43081,Franklin County,OH,NA,NA,25
43103,Pickaway County,OH,NA,66.8615984405458,NA
43123,Franklin County,OH,4.721030042918455,NA,NA
43147,Fairfield County,OH,NA,82.26120857699804,NA
43206,Franklin County,OH,NA,NA,61.25000000000001
43326,Hardin County,OH,50.21459227467812,NA,NA
43528,Lucas County,OH,NA,42.10526315789473,NA
43611,Lucas County,OH,NA,NA,52.916666666666664
43614,Lucas County,OH,NA,NA,19.166666666666668
43615,Lucas County,OH,NA,70.37037037037037,NA
43620,Lucas County,OH,NA,83.82066276803118,NA
43920,Columbiana County,OH,NA,10.721247563352826,NA
44017,Cuyahoga County,OH,NA,NA,28.749999999999996
44035,Lorain County,OH,NA,0,NA
44060,Lake County,OH,4.291845493562231,NA,NA
44062,Geauga County,OH,NA,73.2943469785575,NA
44090,Lorain County,OH,NA,41.71539961013645,NA
44095,Lake County,OH,NA,10.33138401559454,NA
44105,Cuyahoga County,OH,NA,32.16374269005848,NA
44112,Cuyahoga County,OH,NA,4.483430799220272,NA
44120,Cuyahoga County,OH,NA,3.313840155945419,NA
44125,Cuyahoga County,OH,0.4291845493562232,NA,NA
44134,Cuyahoga County,OH,NA,NA,3.75
44145,Cuyahoga County,OH,NA,4.8732943469785575,NA
44149,Cuyahoga County,OH,NA,NA,15
44202,Portage County,OH,NA,17.543859649122805,NA
44233,Medina County,OH,NA,54.385964912280706,NA
44241,Portage County,OH,NA,19.49317738791423,NA
44333,Summit County,OH,70.81545064377683,NA,NA
44431,Columbiana County,OH,NA,97.46588693957115,NA
44654,Holmes County,OH,NA,95.12670565302143,NA
44830,Seneca County,OH,16.30901287553648,NA,NA
44857,Huron County,OH,NA,8.382066276803119,NA
44883,Seneca County,OH,16.738197424892704,NA,NA
45005,Warren County,OH,NA,15.594541910331383,NA
45212,Hamilton County,OH,30.042918454935624,NA,NA
45244,Hamilton County,OH,NA,NA,76.25
45255,Hamilton County,OH,65.66523605150213,NA,NA
45327,Montgomery County,OH,NA,76.0233918128655,NA
45356,Miami County,OH,NA,42.30019493177387,NA
45365,Shelby County,OH,NA,NA,26.25
45373,Miami County,OH,NA,92.78752436647173,NA
45377,Montgomery County,OH,NA,NA,59.583333333333336
45404,Montgomery County,OH,53.648068669527895,NA,NA
45415,Montgomery County,OH,NA,NA,72.91666666666666
45420,Montgomery County,OH,59.65665236051502,NA,NA
45431,Montgomery County,OH,NA,53.216374269005854,NA
45434,Greene County,OH,NA,67.83625730994152,NA
45449,Montgomery County,OH,NA,45.419103313840154,NA
45458,Montgomery County,OH,81.11587982832617,NA,NA
45502,Clark County,OH,NA,56.14035087719298,NA
45679,Adams County,OH,NA,99.61013645224172,NA
45750,Washington County,OH,1.2875536480686696,NA,NA
45830,Putnam County,OH,NA,84.40545808966861,NA
45885,Auglaize County,OH,45.06437768240343,NA,NA
73034,Oklahoma County,OK,28.32618025751073,NA,NA
73052,Garvin County,OK,NA,80.89668615984405,NA
73401,Carter County,OK,NA,NA,22.5
73507,Comanche County,OK,NA,27.87524366471735,NA
73533,Stephens County,OK,NA,43.66471734892787,72.08333333333333
74066,Creek County,OK,NA,NA,51.66666666666667
74075,Payne County,OK,NA,NA,47.083333333333336
74134,Tulsa County,OK,NA,84.99025341130604,NA
74137,Tulsa County,OK,NA,52.826510721247566,NA
74346,Delaware County,OK,86.26609442060087,NA,NA
74432,McIntosh County,OK,NA,NA,72.5
74437,Okmulgee County,OK,NA,73.48927875243665,NA
74959,Le Flore County,OK,77.25321888412017,NA,NA
97007,Washington County,OR,NA,83.23586744639377,NA
97008,Washington County,OR,NA,78.3625730994152,NA
97015,Clackamas County,OR,NA,NA,69.16666666666667
97086,Clackamas County,OR,NA,66.47173489278752,NA
97132,Yamhill County,OR,41.63090128755365,NA,NA
97214,Multnomah County,OR,NA,76.41325536062378,NA
97229,Washington County,OR,NA,NA,97.08333333333333
97236,Multnomah County,OR,18.4549356223176,NA,NA
97239,Multnomah County,OR,NA,96.88109161793372,NA
97424,Lane County,OR,NA,69.39571150097466,NA
97457,Douglas County,OR,NA,71.15009746588694,NA
97477,Lane County,OR,NA,28.84990253411306,NA
97478,Lane County,OR,NA,44.2495126705653,NA
97501,Jackson County,OR,NA,41.32553606237816,NA
97504,Jackson County,OR,NA,NA,48.333333333333336
97702,Deschutes County,OR,NA,37.42690058479532,82.5
97707,Deschutes County,OR,NA,NA,96.66666666666667
97756,Deschutes County,OR,NA,18.71345029239766,NA
97850,Union County,OR,NA,26.510721247563353,NA
97882,Umatilla County,OR,NA,94.15204678362574,NA
15042,Beaver County,PA,82.40343347639485,NA,NA
15066,Beaver County,PA,NA,66.08187134502924,NA
15102,Allegheny County,PA,NA,83.4307992202729,NA
15108,Allegheny County,PA,NA,15.789473684210526,NA
15223,Allegheny County,PA,NA,97.6608187134503,NA
15401,Fayette County,PA,NA,5.458089668615984,NA
15601,Westmoreland County,PA,NA,NA,0
15642,Westmoreland County,PA,NA,NA,5.416666666666667
16117,Lawrence County,PA,NA,NA,27.083333333333332
16142,Lawrence County,PA,NA,NA,67.5
16503,Erie County,PA,37.33905579399141,NA,NA
16602,Blair County,PA,11.587982832618025,NA,NA
17015,Cumberland County,PA,NA,85.38011695906432,NA
17313,York County,PA,92.27467811158799,NA,NA
17314,York County,PA,NA,94.34697855750487,NA
17331,York County,PA,NA,1.7543859649122806,NA
17522,Lancaster County,PA,NA,NA,8.333333333333332
17745,Clinton County,PA,NA,44.054580896686154,NA
17834,Northumberland County,PA,93.13304721030042,NA,NA
17847,Northumberland County,PA,94.84978540772532,NA,NA
17872,Northumberland County,PA,43.34763948497854,NA,NA
17960,Schuylkill County,PA,NA,85.96491228070175,NA
18505,Lackawanna County,PA,NA,34.1130604288499,NA
18518,Lackawanna County,PA,NA,88.69395711500975,NA
18612,Luzerne County,PA,NA,45.808966861598435,NA
18641,Luzerne County,PA,NA,NA,74.16666666666667
18702,Luzerne County,PA,NA,4.678362573099415,NA
18930,Bucks County,PA,98.71244635193133,NA,NA
18940,Bucks County,PA,NA,71.73489278752436,NA
19013,Delaware County,PA,NA,NA,34.166666666666664
19023,Delaware County,PA,NA,79.92202729044834,NA
19025,Montgomery County,PA,NA,NA,91.66666666666666
19054,Bucks County,PA,NA,79.14230019493176,NA
19111,Philadelphia County,PA,39.05579399141631,NA,NA
19115,Philadelphia County,PA,NA,NA,12.916666666666668
19138,Philadelphia County,PA,9.44206008583691,NA,NA
19142,Philadelphia County,PA,9.012875536480687,NA,NA
19148,Philadelphia County,PA,35.622317596566525,NA,NA
19401,Montgomery County,PA,NA,20.2729044834308,NA
19607,Berks County,PA,NA,18.128654970760234,NA
02861,Providence County,RI,NA,NA,35.833333333333336
02874,Washington County,RI,NA,NA,92.08333333333333
02886,Kent County,RI,NA,NA,7.916666666666666
02891,Washington County,RI,NA,24.366471734892787,NA
02910,Providence County,RI,NA,64.91228070175438,NA
02914,Providence County,RI,NA,41.13060428849902,NA
29073,Lexington County,SC,21.45922746781116,NA,NA
29341,Cherokee County,SC,NA,52.436647173489284,NA
29466,Charleston County,SC,NA,49.707602339181285,NA
29501,Florence County,SC,33.047210300429185,NA,NA
29550,Darlington County,SC,72.53218884120172,NA,NA
29666,Greenwood County,SC,87.98283261802575,NA,NA
29680,Greenville County,SC,NA,29.0448343079922,NA
29910,Beaufort County,SC,NA,37.03703703703704,NA
29926,Beaufort County,SC,NA,61.01364522417154,NA
57252,Grant County,SD,NA,NA,85
57301,Davison County,SD,NA,32.553606237816766,NA
57702,Pennington County,SD,NA,15.984405458089668,NA
37066,Sumner County,TN,NA,37.8167641325536,NA
37069,Williamson County,TN,NA,73.68421052631578,NA
37075,Sumner County,TN,NA,6.627680311890838,NA
37076,Davidson County,TN,NA,29.434697855750485,NA
37122,Wilson County,TN,NA,23.976608187134502,NA
37128,Rutherford County,TN,27.467811158798284,NA,NA
37160,Bedford County,TN,17.59656652360515,NA,NA
37166,DeKalb County,TN,NA,NA,60.83333333333333
37205,Davidson County,TN,NA,50.29239766081871,NA
37218,Davidson County,TN,NA,NA,88.75
37334,Lincoln County,TN,37.76824034334764,NA,43.75
37336,Bradley County,TN,NA,96.68615984405457,NA
37397,Marion County,TN,NA,86.15984405458089,NA
37410,Hamilton County,TN,NA,99.02534113060429,NA
37617,Sullivan County,TN,73.8197424892704,NA,NA
37643,Carter County,TN,NA,9.551656920077972,NA
37763,Roane County,TN,NA,NA,55.00000000000001
37804,Blount County,TN,NA,NA,30.833333333333336
37871,Jefferson County,TN,NA,87.5243664717349,NA
37874,Monroe County,TN,NA,49.902534113060426,NA
37914,Knox County,TN,NA,36.64717348927875,NA
37918,Knox County,TN,12.446351931330472,20.077972709551656,NA
37931,Knox County,TN,NA,80.89668615984405,NA
38012,Haywood County,TN,NA,NA,57.49999999999999
38053,Shelby County,TN,NA,NA,31.25
38063,Lauderdale County,TN,NA,NA,70
38106,Shelby County,TN,15.021459227467812,NA,54.58333333333333
38261,Obion County,TN,41.201716738197426,NA,NA
38558,Cumberland County,TN,NA,49.317738791423,NA
75006,Dallas County,TX,NA,26.31578947368421,NA
75092,Grayson County,TX,NA,95.51656920077973,NA
75115,Dallas County,TX,21.888412017167383,NA,NA
75119,Ellis County,TX,54.93562231759657,NA,NA
75211,Dallas County,TX,NA,21.637426900584796,NA
75402,Hunt County,TX,NA,50.682261208576996,NA
75409,Collin County,TX,NA,81.87134502923976,NA
75482,Hopkins County,TX,58.798283261802574,NA,NA
75604,Gregg County,TX,NA,NA,73.75
75652,Rusk County,TX,NA,NA,75.83333333333333
75686,Camp County,TX,78.96995708154506,NA,NA
75757,Smith County,TX,NA,40.93567251461988,NA
75783,Wood County,TX,NA,28.460038986354775,NA
75789,Smith County,TX,NA,NA,83.75
76006,Tarrant County,TX,NA,91.81286549707602,NA
76011,Tarrant County,TX,56.22317596566524,NA,NA
76033,Johnson County,TX,NA,36.84210526315789,NA
76048,Hood County,TX,46.78111587982833,NA,NA
76065,Ellis County,TX,NA,68.81091617933723,NA
76087,Parker County,TX,NA,39.76608187134503,NA
76135,Tarrant County,TX,NA,63.93762183235867,NA
76458,Jack County,TX,NA,NA,94.58333333333333
76513,Bell County,TX,NA,1.1695906432748537,NA
76574,Williamson County,TX,50.64377682403433,NA,NA
76712,McLennan County,TX,NA,92.5925925925926,NA
76903,Tom Green County,TX,NA,50.487329434697855,NA
77038,Harris County,TX,NA,87.91423001949317,NA
77088,Harris County,TX,NA,32.553606237816766,NA
77340,Walker County,TX,NA,79.72709551656921,NA
77423,Waller County,TX,NA,89.8635477582846,NA
77494,Fort Bend County,TX,NA,14.619883040935672,NA
77505,Harris County,TX,NA,NA,63.33333333333333
77521,Harris County,TX,NA,NA,40
77546,Galveston County,TX,26.180257510729614,NA,NA
77581,Brazoria County,TX,NA,19.68810916179337,NA
77656,Hardin County,TX,NA,59.84405458089669,NA
78045,Webb County,TX,24.034334763948497,NA,NA
78046,Webb County,TX,NA,24.756335282651072,NA
78061,Frio County,TX,NA,84.99025341130604,NA
78109,Bexar County,TX,NA,NA,84.16666666666667
78218,Bexar County,TX,NA,51.461988304093566,NA
78228,Bexar County,TX,29.184549356223176,NA,NA
78232,Bexar County,TX,NA,41.52046783625731,NA
78260,Bexar County,TX,NA,81.67641325536063,NA
78520,Cameron County,TX,NA,27.09551656920078,NA
78573,Hidalgo County,TX,NA,45.22417153996101,NA
78582,Starr County,TX,66.95278969957081,NA,NA
78589,Hidalgo County,TX,NA,35.08771929824561,NA
78611,Burnet County,TX,NA,60.23391812865497,NA
78681,Williamson County,TX,NA,30.409356725146196,NA
78746,Travis County,TX,NA,83.62573099415205,NA
79102,Potter County,TX,NA,87.91423001949317,NA
79360,Gaines County,TX,NA,81.28654970760235,NA
79423,Lubbock County,TX,NA,19.883040935672515,NA
79762,Ector County,TX,27.896995708154503,NA,NA
84096,Salt Lake County,UT,NA,81.48148148148148,NA
84121,Salt Lake County,UT,NA,15.204678362573098,NA
84660,Utah County,UT,66.52360515021459,NA,NA
84663,Utah County,UT,NA,93.17738791423001,NA
84720,Iron County,UT,82.83261802575107,NA,NA
84780,Washington County,UT,NA,45.614035087719294,NA
05101,Windham County,VT,NA,87.32943469785575,NA
05495,Chittenden County,VT,NA,62.37816764132553,NA
05602,Washington County,VT,NA,34.30799220272904,NA
05701,Rutland County,VT,NA,39.37621832358674,NA
05855,Orleans County,VT,84.12017167381974,NA,NA
20171,Fairfax County,VA,NA,NA,83.33333333333334
22407,Spotsylvania County,VA,NA,17.15399610136452,NA
22902,Charlottesville city,VA,88.41201716738198,31.773879142300192,NA
23061,Gloucester County,VA,NA,NA,54.166666666666664
23093,Louisa County,VA,NA,56.92007797270955,NA
23111,Hanover County,VA,75.53648068669528,NA,NA
23451,Virginia Beach city,VA,NA,NA,2.9166666666666665
23661,Hampton city,VA,61.80257510729614,NA,NA
23662,Poquoson city,VA,NA,75.6335282651072,NA
23831,Chesterfield County,VA,39.91416309012876,NA,NA
23842,Prince George County,VA,NA,NA,98.75
23901,Prince Edward County,VA,60.51502145922747,NA,NA
24018,Roanoke County,VA,NA,29.239766081871345,9.583333333333334
24084,Pulaski County,VA,NA,95.71150097465888,NA
24112,Henry County,VA,NA,46.393762183235864,NA
24141,Radford city,VA,NA,75.24366471734892,NA
24228,Dickenson County,VA,69.09871244635193,NA,NA
24230,Wise County,VA,NA,NA,84.58333333333333
24251,Scott County,VA,NA,78.55750487329435,NA
24522,Appomattox County,VA,79.82832618025752,NA,NA
24557,Pittsylvania County,VA,NA,84.60038986354775,NA
24590,Albemarle County,VA,96.99570815450643,NA,NA
98012,Snohomish County,WA,NA,NA,19.583333333333332
98022,King County,WA,NA,22.417153996101362,NA
98026,Snohomish County,WA,NA,NA,50.83333333333333
98028,King County,WA,NA,62.768031189083814,NA
98038,King County,WA,NA,35.67251461988304,NA
98057,King County,WA,NA,64.71734892787524,NA
98092,King County,WA,NA,16.17933723196881,NA
98119,King County,WA,NA,NA,69.16666666666667
98126,King County,WA,NA,NA,74.16666666666667
98133,King County,WA,NA,80.11695906432749,NA
98168,King County,WA,97.42489270386267,NA,NA
98198,King County,WA,NA,NA,25.416666666666664
98208,Snohomish County,WA,NA,25.146198830409354,NA
98274,Skagit County,WA,62.231759656652365,NA,NA
98370,Kitsap County,WA,87.1244635193133,NA,NA
98383,Kitsap County,WA,NA,99.22027290448344,NA
98584,Mason County,WA,NA,17.93372319688109,NA
98902,Yakima County,WA,NA,NA,15.416666666666668
98926,Kittitas County,WA,NA,33.72319688109162,NA
99037,Spokane County,WA,NA,90.83820662768031,NA
99114,Stevens County,WA,91.41630901287554,NA,NA
99336,Benton County,WA,43.776824034334766,NA,NA
99338,Benton County,WA,NA,78.16764132553607,NA
20011,District of Columbia,DC,NA,NA,4.583333333333333
20016,District of Columbia,DC,NA,NA,65
24701,Mercer County,WV,NA,NA,30.416666666666664
26101,Wood County,WV,NA,6.042884990253411,NA
26241,Randolph County,WV,NA,23.196881091617932,32.5
26452,Lewis County,WV,NA,65.69200779727096,NA
26505,Monongalia County,WV,6.866952789699571,NA,NA
26582,Marion County,WV,85.83690987124464,NA,NA
53014,Calumet County,WI,NA,NA,42.5
53073,Sheboygan County,WI,NA,72.70955165692008,NA
53129,Milwaukee County,WI,72.96137339055794,NA,NA
53158,Kenosha County,WI,NA,26.120857699805068,NA
53172,Milwaukee County,WI,NA,38.98635477582846,NA
53186,Waukesha County,WI,27.038626609442062,NA,NA
53221,Milwaukee County,WI,NA,NA,45.416666666666664
53403,Racine County,WI,78.11158798283262,NA,NA
53716,Dane County,WI,NA,88.30409356725146,NA
54022,Pierce County,WI,NA,45.02923976608187,NA
54025,St. Croix County,WI,90.55793991416309,NA,NA
54162,Brown County,WI,NA,NA,95.41666666666667
54494,Wood County,WI,NA,7.4074074074074066,NA
54874,Douglas County,WI,NA,99.80506822612085,NA
54880,Douglas County,WI,47.21030042918455,NA,NA
82435,Park County,WY,83.2618025751073,NA,NA
