ZipCode,county,state,Youth,Adult,Retirement
35020,Jefferson County,AL,NA,13.486842105263158,NA
35031,Blount County,AL,NA,NA,81.41891891891892
35042,Bibb County,AL,NA,NA,87.16216216216216
35044,Talladega County,AL,NA,83.88157894736842,NA
35058,Cullman County,AL,NA,72.03947368421053,NA
35215,Jefferson County,AL,9.230769230769232,NA,NA
35405,Tuscaloosa County,AL,NA,7.894736842105263,NA
35456,Tuscaloosa County,AL,94.61538461538461,NA,NA
35603,Morgan County,AL,NA,15.131578947368421,NA
35630,Lauderdale County,AL,NA,62.5,NA
35652,Lauderdale County,AL,NA,90.78947368421053,NA
35661,Colbert County,AL,NA,NA,95.94594594594594
35810,Madison County,AL,NA,32.56578947368421,NA
35901,Etowah County,AL,NA,NA,31.756756756756754
36064,Montgomery County,AL,63.46153846153846,NA,NA
36322,Dale County,AL,NA,84.86842105263158,NA
36360,Dale County,AL,NA,49.67105263157895,NA
36502,Escambia County,AL,NA,NA,68.58108108108108
36580,Baldwin County,AL,NA,NA,97.97297297297297
36609,Mobile County,AL,91.15384615384615,NA,NA
36693,Mobile County,AL,NA,NA,52.02702702702703
36695,Mobile County,AL,61.92307692307693,NA,NA
99504,Anchorage Municipality,AK,12.692307692307692,NA,NA
85015,Maricopa County,AZ,NA,17.434210526315788,NA
85027,Maricopa County,AZ,28.076923076923077,NA,NA
85029,Maricopa County,AZ,NA,22.697368421052634,NA
85035,Maricopa County,AZ,13.461538461538462,NA,NA
85040,Maricopa County,AZ,NA,19.078947368421055,47.63513513513514
85120,Pinal County,AZ,NA,NA,61.48648648648649
85142,Maricopa County,AZ,NA,NA,22.2972972972973
85215,Maricopa County,AZ,NA,79.60526315789474,NA
85249,Maricopa County,AZ,29.615384615384617,NA,NA
85251,Maricopa County,AZ,NA,NA,45.608108108108105
85353,Maricopa County,AZ,NA,35.526315789473685,NA
85719,Pima County,AZ,NA,NA,34.12162162162162
85749,Pima County,AZ,NA,76.64473684210526,NA
85756,Pima County,AZ,NA,37.82894736842105,NA
86406,Mohave County,AZ,NA,NA,21.283783783783782
72015,Saline County,AR,NA,NA,29.054054054054053
72210,Pulaski County,AR,NA,NA,57.432432432432435
72301,Crittenden County,AR,NA,NA,74.66216216216216
90023,Los Angeles County,CA,NA,39.80263157894737,NA
90221,Los Angeles County,CA,81.92307692307692,NA,NA
90247,Los Angeles County,CA,NA,53.61842105263158,NA
90250,Los Angeles County,CA,NA,25.32894736842105,NA
90255,Los Angeles County,CA,NA,NA,55.067567567567565
90278,Los Angeles County,CA,80.38461538461539,NA,NA
90631,Orange County,CA,80.76923076923077,NA,NA
90638,Los Angeles County,CA,NA,NA,33.108108108108105
90640,Los Angeles County,CA,40.38461538461539,NA,NA
90703,Los Angeles County,CA,96.15384615384616,NA,NA
90706,Los Angeles County,CA,NA,58.55263157894737,NA
90803,Los Angeles County,CA,NA,88.81578947368422,NA
90805,Los Angeles County,CA,18.846153846153847,NA,NA
90807,Los Angeles County,CA,NA,NA,49.32432432432432
90808,Los Angeles County,CA,NA,NA,35.47297297297297
90810,Los Angeles County,CA,NA,NA,77.02702702702703
91306,Los Angeles County,CA,71.92307692307692,NA,NA
91320,Ventura County,CA,NA,63.81578947368421,NA
91342,Los Angeles County,CA,NA,20.394736842105264,NA
91343,Los Angeles County,CA,NA,NA,41.21621621621622
91356,Los Angeles County,CA,NA,NA,42.22972972972973
91360,Ventura County,CA,46.53846153846154,NA,NA
91607,Los Angeles County,CA,NA,NA,72.2972972972973
92056,San Diego County,CA,NA,55.92105263157895,NA
92057,San Diego County,CA,48.46153846153846,NA,NA
92064,San Diego County,CA,NA,NA,33.44594594594595
92071,San Diego County,CA,NA,26.973684210526315,NA
92101,San Diego County,CA,NA,13.815789473684212,NA
92105,San Diego County,CA,NA,66.11842105263158,NA
92108,San Diego County,CA,NA,81.9078947368421,NA
92117,San Diego County,CA,NA,57.56578947368421,NA
92124,San Diego County,CA,NA,NA,64.1891891891892
92130,San Diego County,CA,72.6923076923077,NA,NA
92154,San Diego County,CA,NA,39.14473684210527,NA
92173,San Diego County,CA,NA,NA,64.86486486486487
92243,Imperial County,CA,31.153846153846153,NA,NA
92308,San Bernardino County,CA,NA,90.46052631578947,NA
92372,San Bernardino County,CA,93.07692307692308,NA,NA
92399,San Bernardino County,CA,NA,NA,16.216216216216218
92404,San Bernardino County,CA,NA,51.31578947368421,NA
92410,San Bernardino County,CA,NA,64.80263157894737,NA
92411,San Bernardino County,CA,NA,73.02631578947368,NA
92506,Riverside County,CA,NA,NA,35.810810810810814
92530,Riverside County,CA,NA,37.5,NA
92570,Riverside County,CA,NA,NA,39.189189189189186
92586,Riverside County,CA,NA,NA,39.52702702702703
92587,Riverside County,CA,NA,69.73684210526315,NA
92629,Orange County,CA,NA,87.5,NA
92630,Orange County,CA,NA,65.78947368421053,NA
92683,Orange County,CA,NA,65.13157894736842,NA
92804,Orange County,CA,NA,46.71052631578947,NA
92870,Orange County,CA,NA,68.75,NA
93307,Kern County,CA,23.46153846153846,NA,NA
93446,San Luis Obispo County,CA,NA,NA,68.24324324324324
93536,Los Angeles County,CA,NA,45.723684210526315,NA
93625,Fresno County,CA,NA,98.68421052631578,NA
93710,Fresno County,CA,76.15384615384615,NA,NA
93727,Fresno County,CA,10,NA,NA
93940,Monterey County,CA,NA,NA,23.64864864864865
94040,Santa Clara County,CA,NA,89.80263157894737,NA
94109,San Francisco County,CA,NA,61.51315789473685,NA
94112,San Francisco County,CA,80,NA,NA
94114,San Francisco County,CA,NA,50.32894736842105,NA
94133,San Francisco County,CA,NA,NA,39.86486486486486
94303,San Mateo County,CA,NA,NA,23.986486486486484
94306,Santa Clara County,CA,NA,NA,84.45945945945947
94510,Solano County,CA,NA,NA,54.391891891891895
94530,Contra Costa County,CA,NA,NA,51.689189189189186
94544,Alameda County,CA,NA,NA,9.121621621621621
94577,Alameda County,CA,NA,NA,60.47297297297297
95008,Santa Clara County,CA,NA,82.23684210526315,NA
95123,Santa Clara County,CA,61.53846153846154,NA,NA
95130,Santa Clara County,CA,99.23076923076923,NA,NA
95134,Santa Clara County,CA,NA,75.98684210526315,NA
95205,San Joaquin County,CA,53.46153846153846,NA,NA
95348,Merced County,CA,20,NA,NA
95367,Stanislaus County,CA,NA,95.39473684210526,NA
95642,Amador County,CA,NA,NA,89.86486486486487
95667,El Dorado County,CA,45,NA,NA
95693,Sacramento County,CA,NA,NA,83.44594594594594
95762,El Dorado County,CA,NA,NA,32.77027027027027
95823,Sacramento County,CA,34.61538461538461,NA,NA
95842,Sacramento County,CA,NA,72.69736842105263,NA
95949,Nevada County,CA,NA,85.19736842105263,NA
95969,Butte County,CA,NA,NA,60.810810810810814
96007,Shasta County,CA,NA,NA,78.71621621621621
80005,Jefferson County,CO,NA,80.5921052631579,NA
80012,Arapahoe County,CO,NA,11.513157894736842,NA
80015,Arapahoe County,CO,NA,16.776315789473685,NA
80016,Arapahoe County,CO,40.76923076923077,NA,NA
80022,Adams County,CO,NA,15.789473684210526,63.85135135135135
80030,Adams County,CO,NA,74.01315789473685,NA
80112,Arapahoe County,CO,68.84615384615384,NA,NA
80125,Douglas County,CO,85.76923076923076,NA,NA
80128,Jefferson County,CO,NA,NA,49.66216216216216
80209,Denver County,CO,90.76923076923077,NA,NA
80210,Denver County,CO,63.84615384615384,NA,NA
80220,Denver County,CO,NA,NA,82.0945945945946
80223,Denver County,CO,NA,NA,91.8918918918919
80234,Adams County,CO,42.69230769230769,NA,NA
80433,Jefferson County,CO,78.07692307692308,NA,NA
80439,Jefferson County,CO,67.6923076923077,NA,85.8108108108108
80461,Lake County,CO,NA,99.67105263157895,NA
80513,Larimer County,CO,60.76923076923077,NA,NA
80525,Larimer County,CO,16.153846153846153,NA,NA
80602,Adams County,CO,74.23076923076923,NA,NA
80631,Weld County,CO,NA,35.85526315789473,NA
80701,Morgan County,CO,NA,NA,70.94594594594594
81226,Fremont County,CO,NA,NA,95.27027027027027
81501,Mesa County,CO,NA,47.03947368421053,NA
06033,Hartford County,CT,35.76923076923077,NA,NA
06443,New Haven County,CT,NA,NA,27.7027027027027
06511,New Haven County,CT,9.615384615384617,3.289473684210526,NA
06770,New Haven County,CT,NA,NA,51.35135135135135
06779,Litchfield County,CT,NA,NA,83.1081081081081
19702,New Castle County,DE,41.15384615384615,NA,NA
19711,New Castle County,DE,27.307692307692307,NA,NA
19720,New Castle County,DE,6.923076923076923,1.644736842105263,NA
19958,Sussex County,DE,71.15384615384616,NA,NA
19963,Sussex County,DE,NA,NA,86.82432432432432
32034,Nassau County,FL,NA,NA,7.094594594594595
32054,Union County,FL,NA,78.28947368421053,NA
32060,Suwannee County,FL,NA,NA,40.2027027027027
32092,St. Johns County,FL,40,NA,NA
32211,Duval County,FL,NA,70.72368421052632,NA
32221,Duval County,FL,54.61538461538461,NA,NA
32256,Duval County,FL,NA,34.868421052631575,NA
32514,Escambia County,FL,NA,NA,10.472972972972974
32606,Alachua County,FL,NA,NA,23.31081081081081
32837,Orange County,FL,NA,21.052631578947366,NA
33018,Miami-Dade County,FL,NA,73.02631578947368,NA
33063,Broward County,FL,46.53846153846154,NA,NA
33130,Miami-Dade County,FL,NA,80.26315789473685,55.4054054054054
33147,Miami-Dade County,FL,NA,34.53947368421053,NA
33179,Miami-Dade County,FL,NA,60.85526315789473,NA
33317,Broward County,FL,NA,75.32894736842105,NA
33401,Palm Beach County,FL,38.46153846153847,NA,NA
33410,Palm Beach County,FL,NA,NA,29.39189189189189
33467,Palm Beach County,FL,NA,57.89473684210527,NA
33473,Palm Beach County,FL,NA,NA,83.78378378378379
33604,Hillsborough County,FL,NA,24.342105263157894,NA
33609,Hillsborough County,FL,96.53846153846153,NA,NA
33810,Polk County,FL,NA,NA,30.067567567567565
33903,Lee County,FL,NA,NA,27.027027027027028
33928,Lee County,FL,NA,79.93421052631578,NA
33952,Charlotte County,FL,NA,NA,28.37837837837838
34109,Collier County,FL,NA,74.67105263157895,NA
34112,Collier County,FL,NA,56.57894736842105,NA
34744,Osceola County,FL,NA,28.618421052631575,NA
34785,Sumter County,FL,50,NA,NA
34974,Okeechobee County,FL,NA,55.5921052631579,NA
30013,Rockdale County,GA,NA,74.01315789473685,NA
30034,DeKalb County,GA,NA,61.8421052631579,NA
30038,DeKalb County,GA,NA,45.39473684210527,NA
30039,Gwinnett County,GA,NA,NA,46.28378378378378
30040,Forsyth County,GA,8.076923076923077,NA,NA
30075,Fulton County,GA,89.61538461538461,40.46052631578947,NA
30102,Cherokee County,GA,59.61538461538461,NA,NA
30157,Paulding County,GA,19.230769230769234,NA,NA
30180,Carroll County,GA,NA,NA,32.432432432432435
30188,Cherokee County,GA,67.3076923076923,NA,NA
30233,Butts County,GA,NA,96.38157894736842,NA
30240,Troup County,GA,NA,NA,20.60810810810811
30241,Troup County,GA,NA,29.605263157894733,NA
30310,Fulton County,GA,NA,23.026315789473685,NA
30315,Fulton County,GA,NA,31.25,NA
30342,Fulton County,GA,NA,NA,65.54054054054053
30534,Dawson County,GA,NA,NA,29.72972972972973
30606,Clarke County,GA,NA,40.78947368421053,NA
30642,Greene County,GA,NA,NA,53.71621621621622
30705,Murray County,GA,29.230769230769234,NA,NA
30721,Whitfield County,GA,NA,25,NA
31082,Washington County,GA,NA,82.89473684210526,NA
31088,Houston County,GA,NA,NA,16.89189189189189
31794,Tift County,GA,47.69230769230769,NA,NA
31906,Muscogee County,GA,11.923076923076923,NA,NA
39837,Miller County,GA,NA,NA,79.3918918918919
96701,Honolulu County,HI,NA,66.44736842105263,NA
96720,Hawaii County,HI,NA,36.51315789473684,NA
96816,Honolulu County,HI,NA,33.881578947368425,NA
83401,Bonneville County,ID,NA,14.144736842105262,34.45945945945946
83702,Ada County,ID,NA,76.97368421052632,16.554054054054053
83703,Ada County,ID,NA,NA,53.37837837837838
83704,Ada County,ID,NA,16.11842105263158,NA
83713,Ada County,ID,NA,NA,12.837837837837837
83843,Latah County,ID,53.46153846153846,NA,NA
60002,Lake County,IL,NA,NA,76.6891891891892
60033,McHenry County,IL,97.6923076923077,NA,NA
60062,Cook County,IL,30.76923076923077,NA,NA
60089,Lake County,IL,NA,42.10526315789473,NA
60096,Lake County,IL,99.61538461538461,NA,NA
60098,McHenry County,IL,NA,33.55263157894737,NA
60102,McHenry County,IL,70.38461538461539,NA,NA
60107,Cook County,IL,NA,52.960526315789465,NA
60137,DuPage County,IL,25,NA,NA
60148,DuPage County,IL,NA,NA,4.72972972972973
60201,Cook County,IL,73.84615384615385,NA,NA
60423,Will County,IL,NA,42.43421052631579,NA
60432,Will County,IL,NA,58.223684210526315,NA
60501,Cook County,IL,NA,NA,85.13513513513513
60586,Will County,IL,70,NA,NA
60609,Cook County,IL,76.53846153846153,NA,NA
60612,Cook County,IL,NA,NA,26.68918918918919
60619,Cook County,IL,NA,7.236842105263158,NA
60625,Cook County,IL,NA,NA,10.81081081081081
60630,Cook County,IL,66.53846153846153,NA,38.85135135135135
60634,Cook County,IL,NA,NA,6.756756756756757
60640,Cook County,IL,NA,8.881578947368421,6.418918918918918
60644,Cook County,IL,26.923076923076923,NA,NA
61101,Winnebago County,IL,NA,93.42105263157895,NA
61604,Peoria County,IL,NA,85.85526315789474,NA
61615,Peoria County,IL,NA,NA,53.04054054054054
62025,Madison County,IL,83.07692307692308,NA,NA
62206,St. Clair County,IL,58.46153846153847,NA,NA
62521,Macon County,IL,64.23076923076924,NA,NA
62613,Menard County,IL,98.46153846153847,NA,NA
62864,Jefferson County,IL,75,NA,NA
46036,Madison County,IN,NA,NA,47.97297297297297
46112,Hendricks County,IN,47.69230769230769,NA,NA
46140,Hancock County,IN,NA,NA,15.202702702702704
46143,Johnson County,IN,NA,24.013157894736842,NA
46163,Hancock County,IN,NA,NA,60.13513513513513
46222,Marion County,IN,NA,NA,56.41891891891891
46307,Lake County,IN,NA,NA,1.0135135135135136
46321,Lake County,IN,26.153846153846157,NA,NA
46375,Lake County,IN,NA,34.21052631578947,NA
46408,Lake County,IN,NA,49.34210526315789,NA
46530,St. Joseph County,IN,NA,NA,90.87837837837837
46902,Howard County,IN,NA,NA,4.054054054054054
50023,Polk County,IA,NA,NA,73.98648648648648
50588,Buena Vista County,IA,NA,43.09210526315789,NA
50701,Black Hawk County,IA,NA,NA,50.67567567567568
51106,Woodbury County,IA,NA,NA,41.55405405405405
52001,Dubuque County,IA,44.61538461538462,NA,NA
52031,Jackson County,IA,95.38461538461539,NA,NA
52233,Linn County,IA,NA,NA,82.77027027027027
52403,Linn County,IA,NA,44.73684210526316,NA
52404,Linn County,IA,NA,36.18421052631579,44.932432432432435
52577,Mahaska County,IA,36.15384615384615,NA,NA
52601,Des Moines County,IA,NA,12.5,NA
52804,Scott County,IA,NA,14.802631578947366,NA
66061,Johnson County,KS,8.846153846153847,NA,NA
67654,Norton County,KS,87.6923076923077,NA,NA
40108,Meade County,KY,NA,NA,75
40216,Jefferson County,KY,NA,NA,8.445945945945946
40324,Scott County,KY,NA,NA,17.56756756756757
40422,Boyle County,KY,NA,83.55263157894737,NA
40447,Jackson County,KY,NA,NA,76.35135135135135
41005,Boone County,KY,38.07692307692307,NA,NA
41040,Pendleton County,KY,NA,92.10526315789474,NA
41051,Kenton County,KY,42.30769230769231,NA,NA
41129,Boyd County,KY,87.3076923076923,NA,NA
41143,Carter County,KY,25.384615384615383,43.75,NA
41501,Pike County,KY,10.384615384615385,NA,NA
41522,Pike County,KY,NA,NA,80.4054054054054
42104,Warren County,KY,NA,NA,71.95945945945947
42376,Daviess County,KY,86.15384615384616,NA,NA
42602,Clinton County,KY,NA,NA,86.14864864864865
42743,Green County,KY,NA,67.43421052631578,NA
70001,Jefferson Parish,LA,7.307692307692308,NA,NA
70003,Jefferson Parish,LA,NA,NA,2.7027027027027026
70065,Jefferson Parish,LA,NA,41.44736842105263,NA
70072,Jefferson Parish,LA,NA,NA,17.22972972972973
70084,St. John the Baptist Parish,LA,NA,NA,64.52702702702703
70301,Lafourche Parish,LA,0.7692307692307693,NA,NA
70364,Terrebonne Parish,LA,NA,NA,19.93243243243243
70390,Assumption Parish,LA,NA,100,NA
70506,Lafayette Parish,LA,33.46153846153846,NA,NA
70508,Lafayette Parish,LA,NA,88.48684210526315,NA
70518,Lafayette Parish,LA,NA,NA,61.82432432432432
70611,Calcasieu Parish,LA,NA,NA,62.5
70711,Livingston Parish,LA,NA,98.02631578947368,NA
70737,Ascension Parish,LA,NA,NA,62.16216216216216
70769,Ascension Parish,LA,NA,NA,62.83783783783784
70805,East Baton Rouge Parish,LA,NA,2.302631578947368,NA
70806,East Baton Rouge Parish,LA,NA,12.828947368421053,NA
70809,East Baton Rouge Parish,LA,NA,54.60526315789473,NA
70810,East Baton Rouge Parish,LA,5.769230769230769,NA,NA
04105,Cumberland County,ME,NA,NA,74.32432432432432
04294,Franklin County,ME,NA,99.01315789473685,NA
20720,Prince George's County,MD,NA,92.43421052631578,NA
20794,Howard County,MD,NA,NA,87.5
20910,Montgomery County,MD,66.15384615384615,NA,NA
21035,Anne Arundel County,MD,81.53846153846153,NA,NA
21146,Anne Arundel County,MD,NA,97.36842105263158,NA
21204,Baltimore County,MD,NA,NA,71.28378378378379
21210,Baltimore city,MD,NA,87.17105263157895,NA
21213,Baltimore city,MD,NA,18.421052631578945,NA
21217,Baltimore city,MD,NA,NA,14.527027027027026
21223,Baltimore city,MD,65,78.94736842105263,NA
21811,Worcester County,MD,NA,NA,21.95945945945946
01440,Worcester County,MA,36.53846153846153,NA,NA
01564,Worcester County,MA,85.38461538461539,NA,75.67567567567568
01571,Worcester County,MA,NA,30.92105263157895,NA
01581,Worcester County,MA,79.61538461538461,NA,NA
01606,Worcester County,MA,NA,16.447368421052634,NA
01749,Middlesex County,MA,NA,20.065789473684212,NA
01776,Middlesex County,MA,NA,71.71052631578947,NA
01880,Middlesex County,MA,NA,NA,90.54054054054053
01960,Essex County,MA,NA,6.578947368421052,NA
02114,Suffolk County,MA,NA,51.973684210526315,NA
02120,Suffolk County,MA,66.92307692307692,NA,NA
02132,Suffolk County,MA,NA,NA,52.702702702702695
02136,Suffolk County,MA,NA,1.3157894736842104,NA
02139,Middlesex County,MA,NA,25.986842105263158,NA
02143,Middlesex County,MA,NA,5.263157894736842,NA
02169,Norfolk County,MA,NA,0,NA
02189,Norfolk County,MA,NA,86.8421052631579,NA
02301,Plymouth County,MA,0,NA,NA
02324,Plymouth County,MA,41.92307692307693,NA,NA
02347,Plymouth County,MA,75,NA,NA
02368,Norfolk County,MA,NA,NA,26.013513513513516
02459,Middlesex County,MA,NA,72.36842105263158,NA
02494,Norfolk County,MA,70.76923076923077,NA,NA
02537,Barnstable County,MA,90,NA,NA
02703,Bristol County,MA,12.307692307692308,NA,NA
02740,Bristol County,MA,NA,54.93421052631579,NA
02769,Bristol County,MA,NA,49.01315789473684,NA
48071,Oakland County,MI,NA,NA,31.41891891891892
48073,Oakland County,MI,31.92307692307692,NA,NA
48080,Macomb County,MI,NA,67.76315789473685,NA
48088,Macomb County,MI,NA,NA,18.91891891891892
48141,Wayne County,MI,NA,8.223684210526317,NA
48183,Wayne County,MI,NA,9.868421052631579,NA
48184,Wayne County,MI,22.30769230769231,NA,NA
48185,Wayne County,MI,NA,5.921052631578947,NA
48202,Wayne County,MI,NA,31.907894736842106,NA
48210,Wayne County,MI,11.153846153846155,NA,NA
48213,Wayne County,MI,NA,NA,21.62162162162162
48214,Wayne County,MI,NA,NA,20.27027027027027
48223,Wayne County,MI,NA,78.61842105263158,NA
48224,Wayne County,MI,NA,NA,48.64864864864865
48235,Wayne County,MI,NA,NA,2.364864864864865
48335,Oakland County,MI,NA,84.53947368421053,NA
48442,Oakland County,MI,NA,50.6578947368421,NA
48603,Saginaw County,MI,NA,85.52631578947368,NA
48604,Saginaw County,MI,NA,57.23684210526315,NA
48647,Oscoda County,MI,NA,NA,97.63513513513513
48708,Bay County,MI,NA,NA,32.0945945945946
48858,Isabella County,MI,7.6923076923076925,NA,NA
48867,Shiawassee County,MI,5,NA,NA
48872,Shiawassee County,MI,NA,NA,98.64864864864865
49014,Calhoun County,MI,NA,52.63157894736842,NA
49022,Berrien County,MI,NA,NA,37.16216216216216
49047,Cass County,MI,NA,NA,25
49055,Van Buren County,MI,NA,77.30263157894737,NA
49301,Kent County,MI,NA,NA,84.12162162162163
49431,Mason County,MI,NA,NA,71.62162162162163
49504,Kent County,MI,NA,NA,10.135135135135135
49849,Marquette County,MI,76.53846153846153,NA,NA
55066,Goodhue County,MN,NA,NA,15.54054054054054
55102,Ramsey County,MN,33.07692307692307,NA,NA
55104,Ramsey County,MN,NA,88.1578947368421,NA
55106,Ramsey County,MN,NA,NA,20.945945945945947
55304,Anoka County,MN,13.846153846153847,NA,NA
55318,Carver County,MN,NA,58.88157894736842,NA
55408,Hennepin County,MN,79.23076923076923,NA,NA
55411,Hennepin County,MN,1.153846153846154,NA,NA
55418,Hennepin County,MN,10.76923076923077,NA,NA
55423,Hennepin County,MN,NA,19.407894736842106,NA
56201,Kandiyohi County,MN,NA,47.368421052631575,NA
56307,Stearns County,MN,NA,NA,99.32432432432432
56444,Crow Wing County,MN,NA,NA,96.62162162162163
38606,Panola County,MS,93.46153846153847,NA,NA
38632,DeSoto County,MS,88.07692307692308,NA,NA
38637,DeSoto County,MS,NA,NA,76.01351351351352
39090,Attala County,MS,NA,NA,56.75675675675676
39503,Harrison County,MS,NA,NA,3.7162162162162162
39531,Harrison County,MS,NA,NA,97.2972972972973
63017,St. Louis County,MO,71.53846153846153,NA,NA
63109,St. Louis city,MO,NA,NA,81.08108108108108
63137,St. Louis County,MO,23.076923076923077,NA,NA
63367,St. Charles County,MO,89.23076923076924,NA,NA
63901,Butler County,MO,NA,NA,17.905405405405407
64034,Jackson County,MO,86.92307692307692,NA,NA
64118,Clay County,MO,NA,4.605263157894736,NA
64130,Jackson County,MO,NA,7.565789473684211,NA
64138,Jackson County,MO,19.615384615384617,NA,NA
64155,Clay County,MO,NA,56.9078947368421,NA
64507,Buchanan County,MO,NA,27.631578947368425,NA
65803,Greene County,MO,NA,NA,69.25675675675676
59715,Gallatin County,MT,69.61538461538461,NA,NA
59802,Missoula County,MT,NA,96.71052631578947,NA
59808,Missoula County,MT,77.6923076923077,NA,NA
68123,Sarpy County,NE,NA,63.48684210526315,NA
68130,Douglas County,NE,39.61538461538461,NA,NA
89101,Clark County,NV,37.69230769230769,NA,NA
89121,Clark County,NV,NA,NA,25.675675675675674
89141,Clark County,NV,NA,90.13157894736842,NA
89503,Washoe County,NV,NA,NA,65.87837837837837
07017,Essex County,NJ,NA,NA,43.24324324324324
07027,Union County,NJ,NA,95.06578947368422,NA
07046,Morris County,NJ,100,NA,NA
07087,Hudson County,NJ,NA,NA,57.770270270270274
07436,Bergen County,NJ,91.53846153846153,NA,NA
07442,Passaic County,NJ,NA,69.07894736842105,NA
07446,Bergen County,NJ,NA,NA,95.6081081081081
07463,Bergen County,NJ,NA,NA,94.25675675675676
07747,Monmouth County,NJ,NA,35.19736842105263,NA
07748,Monmouth County,NJ,46.15384615384615,NA,NA
08009,Camden County,NJ,NA,59.210526315789465,NA
08021,Camden County,NJ,24.615384615384617,NA,NA
08059,Camden County,NJ,93.84615384615384,NA,NA
08094,Gloucester County,NJ,NA,6.907894736842106,NA
08105,Camden County,NJ,NA,0.9868421052631579,NA
08312,Gloucester County,NJ,NA,NA,88.17567567567568
08330,Atlantic County,NJ,NA,NA,82.43243243243244
08527,Ocean County,NJ,NA,NA,28.716216216216218
08759,Ocean County,NJ,NA,10.855263157894738,NA
87031,Valencia County,NM,NA,30.263157894736842,NA
87107,Bernalillo County,NM,39.23076923076923,NA,NA
87110,Bernalillo County,NM,3.8461538461538463,NA,NA
87501,Santa Fe County,NM,NA,NA,59.45945945945946
88008,Doa Ana County,NM,NA,NA,98.3108108108108
10027,New York County,NY,26.153846153846157,NA,NA
10029,New York County,NY,NA,0.3289473684210526,NA
10034,New York County,NY,NA,NA,12.5
10302,Richmond County,NY,NA,87.82894736842105,NA
10304,Richmond County,NY,NA,13.157894736842104,NA
10306,Richmond County,NY,NA,17.763157894736842,NA
10312,Richmond County,NY,NA,NA,19.594594594594593
10452,Bronx County,NY,1.5384615384615385,NA,NA
10453,Bronx County,NY,NA,NA,0.33783783783783783
10459,Bronx County,NY,NA,4.276315789473684,NA
10467,Bronx County,NY,NA,NA,5.743243243243244
10550,Westchester County,NY,22.692307692307693,NA,NA
10567,Westchester County,NY,NA,86.18421052631578,NA
11201,Kings County,NY,NA,20.723684210526315,NA
11207,Kings County,NY,6.538461538461539,NA,NA
11213,Kings County,NY,24.23076923076923,NA,NA
11214,Kings County,NY,NA,NA,7.77027027027027
11220,Kings County,NY,NA,59.86842105263158,NA
11226,Kings County,NY,25.769230769230766,NA,NA
11355,Queens County,NY,NA,NA,14.18918918918919
11362,Queens County,NY,NA,NA,77.7027027027027
11369,Queens County,NY,NA,NA,89.52702702702703
11377,Queens County,NY,18.461538461538463,NA,NA
11421,Queens County,NY,83.46153846153847,NA,NA
11706,Suffolk County,NY,58.07692307692308,NA,NA
11710,Nassau County,NY,NA,66.77631578947368,NA
12206,Albany County,NY,NA,19.736842105263158,NA
12209,Albany County,NY,NA,83.22368421052632,NA
12401,Ulster County,NY,NA,NA,38.513513513513516
12534,Columbia County,NY,NA,79.27631578947368,NA
12590,Dutchess County,NY,NA,NA,57.0945945945946
12901,Clinton County,NY,NA,2.9605263157894735,NA
13031,Onondaga County,NY,NA,46.05263157894737,NA
13041,Onondaga County,NY,NA,NA,72.63513513513513
13078,Onondaga County,NY,NA,NA,67.22972972972973
13131,Oswego County,NY,NA,NA,93.24324324324324
13167,Oswego County,NY,64.61538461538461,NA,NA
13212,Onondaga County,NY,NA,32.89473684210527,NA
13492,Oneida County,NY,NA,94.4078947368421,NA
13790,Broome County,NY,NA,9.539473684210527,NA
13795,Broome County,NY,NA,71.05263157894737,NA
13827,Tioga County,NY,NA,21.38157894736842,NA
13862,Broome County,NY,NA,69.4078947368421,NA
14051,Erie County,NY,59.23076923076923,NA,NA
14052,Erie County,NY,92.6923076923077,NA,NA
14080,Erie County,NY,92.3076923076923,NA,NA
14131,Niagara County,NY,NA,91.44736842105263,NA
14170,Erie County,NY,NA,NA,98.98648648648648
14221,Erie County,NY,NA,NA,2.027027027027027
14227,Erie County,NY,62.30769230769231,NA,NA
14428,Monroe County,NY,NA,48.026315789473685,NA
14450,Monroe County,NY,0.38461538461538464,NA,NA
14467,Monroe County,NY,52.69230769230769,NA,NA
14514,Monroe County,NY,NA,84.21052631578947,NA
14519,Wayne County,NY,NA,21.710526315789476,NA
14534,Monroe County,NY,NA,NA,68.91891891891892
14546,Monroe County,NY,NA,81.25,NA
14564,Ontario County,NY,NA,NA,13.513513513513514
14590,Wayne County,NY,47.30769230769231,NA,NA
14605,Monroe County,NY,56.92307692307692,NA,NA
14609,Monroe County,NY,NA,3.9473684210526314,NA
14618,Monroe County,NY,NA,NA,8.108108108108109
14621,Monroe County,NY,NA,NA,1.6891891891891893
14626,Monroe County,NY,NA,2.631578947368421,NA
14701,Chautauqua County,NY,3.076923076923077,1.9736842105263157,NA
14760,Cattaraugus County,NY,NA,94.07894736842105,NA
14830,Steuben County,NY,NA,NA,91.21621621621621
14882,Tompkins County,NY,NA,NA,90.2027027027027
27021,Stokes County,NC,NA,NA,59.797297297297305
27295,Davidson County,NC,NA,NA,36.14864864864865
27360,Davidson County,NC,NA,NA,22.635135135135133
27405,Guilford County,NC,NA,39.473684210526315,NA
27407,Guilford County,NC,NA,NA,85.47297297297297
27408,Guilford County,NC,NA,NA,46.95945945945946
27502,Wake County,NC,50.76923076923077,NA,NA
27517,Orange County,NC,NA,NA,22.972972972972975
27529,Wake County,NC,21.923076923076923,NA,NA
27703,Durham County,NC,NA,11.18421052631579,NA
27704,Durham County,NC,NA,11.842105263157894,NA
27880,Wilson County,NC,98.84615384615385,NA,NA
27889,Beaufort County,NC,NA,NA,50
27891,Nash County,NC,NA,NA,89.1891891891892
28054,Gaston County,NC,NA,18.092105263157894,54.054054054054056
28078,Mecklenburg County,NC,43.07692307692308,NA,NA
28092,Lincoln County,NC,28.46153846153846,22.039473684210524,NA
28103,Union County,NC,NA,NA,65.87837837837837
28105,Mecklenburg County,NC,NA,NA,40.87837837837838
28112,Union County,NC,45.76923076923077,NA,NA
28168,Lincoln County,NC,NA,NA,78.37837837837837
28216,Mecklenburg County,NC,NA,NA,42.567567567567565
28269,Mecklenburg County,NC,53.07692307692308,NA,NA
28318,Sampson County,NC,NA,NA,94.5945945945946
28334,Sampson County,NC,NA,59.539473684210535,NA
28383,Robeson County,NC,78.84615384615384,NA,NA
28390,Harnett County,NC,NA,91.11842105263158,NA
28398,Duplin County,NC,NA,93.0921052631579,NA
28463,Columbus County,NC,NA,NA,63.51351351351351
28472,Columbus County,NC,77.3076923076923,NA,NA
28540,Onslow County,NC,NA,27.302631578947366,NA
28601,Catawba County,NC,23.846153846153847,NA,NA
28659,Wilkes County,NC,NA,NA,54.729729729729726
28681,Alexander County,NC,NA,98.35526315789474,NA
28734,Macon County,NC,56.15384615384615,NA,NA
58078,Cass County,ND,NA,NA,11.824324324324325
43062,Licking County,OH,NA,NA,58.108108108108105
43119,Franklin County,OH,NA,NA,41.891891891891895
43206,Franklin County,OH,17.692307692307693,12.171052631578947,NA
43211,Franklin County,OH,NA,38.48684210526316,28.040540540540544
43223,Franklin County,OH,NA,48.35526315789473,51.01351351351351
43224,Franklin County,OH,NA,5.592105263157895,NA
43227,Franklin County,OH,15,NA,33.78378378378378
43228,Franklin County,OH,NA,NA,37.83783783783784
43231,Franklin County,OH,NA,48.68421052631579,NA
43315,Morrow County,OH,NA,81.57894736842105,NA
43326,Hardin County,OH,NA,NA,34.7972972972973
43440,Ottawa County,OH,NA,NA,69.93243243243244
43560,Lucas County,OH,NA,NA,11.14864864864865
43607,Lucas County,OH,NA,6.25,NA
43612,Lucas County,OH,1.9230769230769231,NA,NA
43812,Coshocton County,OH,NA,4.934210526315789,NA
43907,Harrison County,OH,65.38461538461539,NA,NA
43950,Belmont County,OH,32.30769230769231,NA,NA
44001,Lorain County,OH,NA,NA,3.040540540540541
44023,Geauga County,OH,NA,92.76315789473685,NA
44030,Ashtabula County,OH,NA,22.039473684210524,NA
44035,Lorain County,OH,NA,NA,0
44076,Ashtabula County,OH,94.23076923076923,NA,NA
44105,Cuyahoga County,OH,NA,NA,37.5
44122,Cuyahoga County,OH,NA,NA,55.74324324324324
44125,Cuyahoga County,OH,14.615384615384617,NA,NA
44130,Cuyahoga County,OH,NA,NA,7.4324324324324325
44132,Cuyahoga County,OH,NA,23.684210526315788,NA
44135,Cuyahoga County,OH,NA,51.64473684210527,NA
44149,Cuyahoga County,OH,NA,44.40789473684211,NA
44212,Medina County,OH,NA,NA,0.6756756756756757
44233,Medina County,OH,74.61538461538461,NA,NA
44425,Trumbull County,OH,NA,NA,52.36486486486487
44515,Mahoning County,OH,20,NA,NA
44672,Mahoning County,OH,NA,NA,73.3108108108108
44839,Erie County,OH,84.23076923076923,NA,NA
44890,Huron County,OH,NA,NA,50.33783783783784
45039,Warren County,OH,49.61538461538461,NA,NA
45044,Butler County,OH,61.15384615384616,NA,NA
45068,Warren County,OH,95,NA,NA
45102,Clermont County,OH,32.69230769230769,NA,NA
45130,Brown County,OH,91.92307692307692,NA,NA
45140,Clermont County,OH,50,23.355263157894736,NA
45150,Clermont County,OH,NA,68.0921052631579,25.33783783783784
45171,Brown County,OH,NA,NA,79.05405405405406
45203,Hamilton County,OH,NA,NA,99.66216216216216
45205,Hamilton County,OH,NA,NA,45.94594594594595
45215,Hamilton County,OH,18.076923076923077,NA,NA
45224,Hamilton County,OH,NA,89.47368421052632,NA
45227,Hamilton County,OH,NA,NA,70.6081081081081
45231,Hamilton County,OH,4.615384615384616,NA,14.864864864864865
45247,Hamilton County,OH,NA,NA,66.8918918918919
45252,Hamilton County,OH,NA,NA,92.9054054054054
45305,Greene County,OH,NA,NA,96.95945945945947
45324,Greene County,OH,NA,10.197368421052632,NA
45405,Montgomery County,OH,NA,NA,38.17567567567568
45406,Montgomery County,OH,NA,14.473684210526317,NA
45416,Montgomery County,OH,65.38461538461539,NA,NA
45429,Montgomery County,OH,NA,44.73684210526316,NA
45449,Montgomery County,OH,43.46153846153846,NA,NA
45503,Clark County,OH,36.92307692307693,NA,NA
45638,Lawrence County,OH,NA,NA,3.3783783783783785
45750,Washington County,OH,2.6923076923076925,NA,NA
45780,Athens County,OH,86.53846153846155,NA,NA
45801,Allen County,OH,16.538461538461537,NA,NA
45807,Allen County,OH,NA,NA,80.74324324324324
45872,Wood County,OH,NA,NA,94.5945945945946
73072,Cleveland County,OK,NA,80.92105263157895,NA
73106,Oklahoma County,OK,NA,70.39473684210526,NA
73114,Oklahoma County,OK,NA,NA,66.55405405405406
74011,Tulsa County,OK,NA,64.47368421052632,NA
74107,Tulsa County,OK,56.53846153846154,NA,NA
74601,Kay County,OK,NA,46.05263157894737,NA
97055,Clackamas County,OR,NA,NA,44.5945945945946
97062,Washington County,OR,35.38461538461539,NA,NA
97223,Washington County,OR,NA,29.93421052631579,19.256756756756758
97367,Lincoln County,OR,NA,NA,91.55405405405406
97526,Josephine County,OR,NA,26.31578947368421,NA
97814,Baker County,OR,NA,NA,36.486486486486484
15061,Beaver County,PA,NA,NA,61.14864864864865
15071,Allegheny County,PA,54.230769230769226,NA,72.97297297297297
15090,Allegheny County,PA,43.84615384615385,NA,NA
15208,Allegheny County,PA,95.76923076923077,NA,NA
15212,Allegheny County,PA,NA,24.671052631578945,NA
15217,Allegheny County,PA,NA,NA,48.986486486486484
15332,Washington County,PA,NA,NA,88.85135135135135
15666,Westmoreland County,PA,52.307692307692314,NA,NA
16001,Butler County,PA,17.307692307692307,NA,NA
16002,Butler County,PA,62.30769230769231,NA,NA
16125,Mercer County,PA,NA,NA,13.175675675675674
16323,Venango County,PA,NA,53.94736842105263,NA
16407,Erie County,PA,NA,77.30263157894737,NA
16510,Erie County,PA,NA,41.118421052631575,NA
17019,York County,PA,84.61538461538461,NA,NA
17055,Cumberland County,PA,NA,75.6578947368421,NA
17406,York County,PA,NA,38.15789473684211,NA
17601,Lancaster County,PA,NA,NA,43.91891891891892
17701,Lycoming County,PA,NA,NA,5.0675675675675675
17901,Schuylkill County,PA,NA,26.644736842105267,NA
17961,Schuylkill County,PA,90.38461538461539,NA,NA
18062,Lehigh County,PA,58.84615384615385,47.69736842105263,NA
18504,Lackawanna County,PA,NA,32.23684210526316,NA
18519,Lackawanna County,PA,NA,96.71052631578947,NA
18603,Columbia County,PA,NA,NA,45.27027027027027
18612,Luzerne County,PA,NA,NA,40.54054054054054
18702,Luzerne County,PA,16.923076923076923,NA,4.391891891891892
18705,Luzerne County,PA,NA,NA,67.56756756756756
18708,Luzerne County,PA,NA,97.69736842105263,NA
18810,Bradford County,PA,NA,NA,92.22972972972973
18840,Bradford County,PA,NA,62.17105263157895,NA
18951,Bucks County,PA,NA,53.289473684210535,NA
18964,Montgomery County,PA,NA,86.51315789473685,NA
19072,Montgomery County,PA,57.692307692307686,NA,NA
19076,Delaware County,PA,NA,NA,78.04054054054053
19094,Delaware County,PA,NA,89.14473684210526,NA
19124,Philadelphia County,PA,21.53846153846154,NA,NA
19130,Philadelphia County,PA,NA,NA,30.405405405405407
19132,Philadelphia County,PA,NA,NA,42.9054054054054
19135,Philadelphia County,PA,15.384615384615385,NA,NA
19138,Philadelphia County,PA,NA,43.42105263157895,NA
19142,Philadelphia County,PA,NA,NA,35.13513513513514
19144,Philadelphia County,PA,NA,3.618421052631579,NA
19380,Chester County,PA,4.230769230769231,NA,NA
19401,Montgomery County,PA,NA,8.552631578947368,NA
19464,Montgomery County,PA,13.076923076923078,NA,NA
02816,Kent County,RI,NA,28.947368421052634,NA
02828,Providence County,RI,82.6923076923077,NA,NA
02886,Kent County,RI,NA,NA,18.243243243243242
02888,Kent County,RI,NA,52.30263157894737,NA
29067,Lancaster County,SC,NA,NA,80.06756756756756
29072,Lexington County,SC,55.00000000000001,27.960526315789476,NA
29307,Spartanburg County,SC,NA,NA,84.7972972972973
29412,Charleston County,SC,73.46153846153847,NA,NA
29536,Dillon County,SC,NA,55.26315789473685,NA
29550,Darlington County,SC,34.61538461538461,NA,NA
29577,Horry County,SC,NA,NA,75.33783783783784
29605,Greenville County,SC,NA,NA,9.45945945945946
29620,Abbeville County,SC,NA,NA,58.445945945945944
29649,Greenwood County,SC,NA,NA,46.62162162162162
29681,Greenville County,SC,NA,NA,11.486486486486488
29841,Aiken County,SC,NA,NA,23.986486486486484
57032,Lincoln County,SD,96.92307692307692,NA,NA
37040,Montgomery County,TN,31.538461538461537,NA,NA
37128,Rutherford County,TN,NA,60.526315789473685,NA
37130,Rutherford County,TN,20,NA,26.351351351351347
37148,Sumner County,TN,NA,NA,70.27027027027027
37186,Sumner County,TN,NA,64.14473684210526,NA
37206,Davidson County,TN,NA,36.84210526315789,NA
37311,Bradley County,TN,NA,37.17105263157895,NA
37352,Moore County,TN,98.07692307692307,NA,NA
37716,Anderson County,TN,NA,38.81578947368421,NA
37748,Roane County,TN,NA,NA,24.66216216216216
37921,Knox County,TN,14.23076923076923,30.592105263157894,NA
37923,Knox County,TN,NA,54.276315789473685,NA
38108,Shelby County,TN,NA,NA,48.310810810810814
38114,Shelby County,TN,NA,NA,27.364864864864863
38127,Shelby County,TN,NA,9.210526315789473,NA
38242,Henry County,TN,68.07692307692308,NA,NA
75024,Collin County,TX,NA,60.19736842105263,NA
75050,Dallas County,TX,NA,44.07894736842105,NA
75061,Dallas County,TX,8.461538461538462,NA,NA
75119,Ellis County,TX,55.00000000000001,NA,NA
75126,Kaufman County,TX,NA,33.223684210526315,NA
75134,Dallas County,TX,38.46153846153847,NA,NA
75189,Rockwall County,TX,41.53846153846154,NA,NA
75211,Dallas County,TX,5.384615384615385,NA,NA
75228,Dallas County,TX,45.38461538461539,NA,NA
75230,Dallas County,TX,44.230769230769226,NA,NA
75235,Dallas County,TX,51.92307692307693,NA,NA
75287,Denton County,TX,50.76923076923077,NA,NA
75402,Hunt County,TX,NA,NA,86.48648648648648
75633,Panola County,TX,NA,75,NA
76049,Hood County,TX,NA,40.131578947368425,NA
76051,Tarrant County,TX,NA,NA,31.08108108108108
76054,Tarrant County,TX,NA,NA,88.51351351351352
76087,Parker County,TX,NA,NA,79.72972972972973
76105,Tarrant County,TX,NA,NA,18.58108108108108
76248,Tarrant County,TX,NA,62.82894736842105,NA
76308,Wichita County,TX,88.84615384615384,NA,NA
76710,McLennan County,TX,NA,NA,81.75675675675676
76825,McCulloch County,TX,NA,NA,87.83783783783784
77031,Harris County,TX,NA,73.68421052631578,NA
77038,Harris County,TX,82.3076923076923,NA,NA
77083,Harris County,TX,48.84615384615385,NA,NA
77092,Harris County,TX,NA,NA,55.74324324324324
77095,Harris County,TX,NA,NA,9.45945945945946
77494,Fort Bend County,TX,NA,15.460526315789474,NA
77520,Harris County,TX,57.30769230769231,NA,NA
77550,Galveston County,TX,NA,18.75,NA
77563,Galveston County,TX,NA,NA,73.64864864864865
77662,Orange County,TX,34.23076923076923,NA,NA
77807,Brazos County,TX,63.07692307692307,NA,NA
77845,Brazos County,TX,NA,10.526315789473683,NA
78130,Comal County,TX,21.153846153846153,NA,NA
78217,Bexar County,TX,6.153846153846154,NA,NA
78218,Bexar County,TX,3.4615384615384617,NA,NA
78255,Bexar County,TX,97.3076923076923,NA,NA
78613,Williamson County,TX,NA,NA,13.85135135135135
78617,Travis County,TX,88.46153846153845,NA,NA
78620,Hays County,TX,NA,NA,100
78759,Travis County,TX,NA,NA,77.36486486486487
79110,Randall County,TX,55.769230769230774,NA,NA
84005,Utah County,UT,NA,77.96052631578947,NA
84037,Davis County,UT,30.384615384615383,NA,NA
84044,Salt Lake County,UT,NA,NA,59.12162162162162
84045,Utah County,UT,NA,NA,96.28378378378379
84047,Salt Lake County,UT,NA,28.289473684210524,NA
84062,Utah County,UT,33.84615384615385,NA,NA
84074,Tooele County,UT,11.538461538461538,NA,NA
84092,Salt Lake County,UT,NA,NA,36.82432432432432
84111,Salt Lake County,UT,NA,71.05263157894737,NA
84120,Salt Lake County,UT,NA,NA,15.878378378378377
84302,Box Elder County,UT,60,NA,NA
22030,Fairfax County,VA,NA,31.57894736842105,NA
22041,Fairfax County,VA,68.46153846153847,NA,NA
22302,Alexandria city,VA,NA,65.46052631578947,NA
22443,Westmoreland County,VA,NA,NA,93.58108108108108
22802,Harrisonburg city,VA,NA,NA,43.58108108108108
23005,Hanover County,VA,NA,NA,67.9054054054054
23061,Gloucester County,VA,NA,NA,63.17567567567568
23233,Henrico County,VA,78.46153846153847,NA,NA
23294,Henrico County,VA,NA,91.77631578947368,NA
24175,Botetourt County,VA,75.76923076923077,NA,NA
24244,Scott County,VA,72.3076923076923,NA,NA
98003,King County,WA,NA,93.75,NA
98021,Snohomish County,WA,51.53846153846153,NA,NA
98038,King County,WA,49.23076923076923,NA,NA
98040,King County,WA,68.84615384615384,NA,NA
98042,King County,WA,NA,50.98684210526315,NA
98092,King County,WA,NA,25.657894736842106,NA
98118,King County,WA,NA,42.76315789473684,NA
98125,King County,WA,NA,41.776315789473685,NA
98282,Island County,WA,NA,NA,93.91891891891892
98311,Kitsap County,WA,NA,61.18421052631579,NA
98375,Pierce County,WA,73.07692307692307,NA,NA
98391,Pierce County,WA,NA,NA,8.783783783783784
98502,Thurston County,WA,NA,NA,58.78378378378378
98607,Clark County,WA,NA,76.31578947368422,NA
99208,Spokane County,WA,NA,70.06578947368422,NA
99352,Benton County,WA,27.692307692307693,NA,NA
20020,District of Columbia,DC,NA,NA,5.405405405405405
25420,Berkeley County,WV,NA,99.3421052631579,NA
25545,Cabell County,WV,NA,95.72368421052632,NA
25705,Cabell County,WV,NA,17.105263157894736,NA
26847,Grant County,WV,NA,NA,69.5945945945946
53027,Washington County,WI,NA,67.10526315789474,NA
53090,Washington County,WI,NA,NA,44.25675675675676
53182,Racine County,WI,83.84615384615385,94.73684210526315,NA
53186,Waukesha County,WI,NA,29.276315789473685,30.743243243243246
53189,Waukesha County,WI,NA,56.25,NA
53202,Milwaukee County,WI,NA,50,NA
53205,Milwaukee County,WI,28.846153846153843,NA,NA
53209,Milwaukee County,WI,30,NA,1.3513513513513513
53218,Milwaukee County,WI,2.307692307692308,NA,NA
53227,Milwaukee County,WI,60.38461538461538,NA,NA
53511,Rock County,WI,NA,0.6578947368421052,NA
53711,Dane County,WI,15.769230769230768,NA,12.162162162162163
53713,Dane County,WI,85,NA,NA
53934,Adams County,WI,NA,NA,92.56756756756756
54001,Polk County,WI,NA,NA,47.2972972972973
54022,Pierce County,WI,81.15384615384616,NA,NA
54154,Oconto County,WI,NA,82.56578947368422,NA
54403,Marathon County,WI,37.30769230769231,NA,NA
54449,Wood County,WI,NA,NA,65.2027027027027
54494,Wood County,WI,NA,NA,6.081081081081082
54830,Burnett County,WI,NA,96.05263157894737,NA
54935,Fond du Lac County,WI,NA,63.1578947368421,NA
82716,Campbell County,WY,NA,68.0921052631579,NA
