ZipCode,county,state,Adult,Retirement,Geriatric
35014,Talladega County,AL,NA,NA,96.90721649484536
35057,Cullman County,AL,NA,82.89205702647658,NA
35114,Shelby County,AL,91.54929577464789,NA,NA
35127,Jefferson County,AL,84.27230046948357,NA,NA
35215,Jefferson County,AL,NA,NA,39.86254295532646
35404,Tuscaloosa County,AL,NA,31.568228105906314,NA
35405,Tuscaloosa County,AL,NA,11.608961303462321,NA
35406,Tuscaloosa County,AL,73.94366197183099,NA,NA
35749,Madison County,AL,NA,NA,74.91408934707904
35757,Madison County,AL,71.36150234741784,NA,NA
35952,Etowah County,AL,NA,NA,82.81786941580756
36081,Pike County,AL,81.92488262910797,NA,NA
36093,Elmore County,AL,77.69953051643192,NA,NA
36268,Talladega County,AL,94.60093896713614,NA,NA
36272,Calhoun County,AL,NA,74.33808553971487,NA
36532,Baldwin County,AL,NA,22.606924643584524,NA
36609,Mobile County,AL,NA,67.20977596741345,NA
36617,Mobile County,AL,NA,NA,70.44673539518901
36693,Mobile County,AL,NA,62.729124236252545,NA
36701,Dallas County,AL,26.291079812206576,NA,NA
99503,Anchorage Municipality,AK,NA,75.56008146639512,NA
85013,Maricopa County,AZ,48.82629107981221,NA,NA
85018,Maricopa County,AZ,34.74178403755869,37.67820773930753,NA
85021,Maricopa County,AZ,12.206572769953052,NA,NA
85029,Maricopa County,AZ,23.474178403755868,NA,NA
85032,Maricopa County,AZ,15.727699530516432,NA,NA
85050,Maricopa County,AZ,54.694835680751176,NA,NA
85085,Maricopa County,AZ,87.55868544600939,NA,NA
85086,Maricopa County,AZ,38.967136150234744,NA,NA
85203,Maricopa County,AZ,NA,50.101832993890014,NA
85207,Maricopa County,AZ,25.352112676056336,NA,NA
85209,Maricopa County,AZ,NA,23.217922606924642,NA
85234,Maricopa County,AZ,31.455399061032864,NA,NA
85254,Maricopa County,AZ,80.51643192488262,NA,NA
85262,Maricopa County,AZ,NA,75.35641547861506,NA
85282,Maricopa County,AZ,40.375586854460096,NA,NA
85304,Maricopa County,AZ,NA,NA,67.69759450171821
85345,Maricopa County,AZ,NA,NA,39.51890034364261
85602,Cochise County,AZ,NA,NA,66.32302405498281
85607,Cochise County,AZ,60.56338028169014,NA,NA
85737,Pima County,AZ,65.02347417840375,NA,NA
85749,Pima County,AZ,NA,73.31975560081466,NA
86047,Navajo County,AZ,NA,NA,85.56701030927834
71602,Jefferson County,AR,62.20657276995305,NA,NA
71701,Ouachita County,AR,NA,84.11405295315683,NA
72455,Randolph County,AR,82.15962441314554,NA,NA
72830,Johnson County,AR,81.2206572769953,NA,NA
72958,Scott County,AR,71.59624413145539,NA,NA
90012,Los Angeles County,CA,NA,NA,71.1340206185567
90022,Los Angeles County,CA,36.61971830985916,NA,NA
90027,Los Angeles County,CA,84.50704225352112,NA,NA
90045,Los Angeles County,CA,64.08450704225352,NA,NA
90275,Los Angeles County,CA,56.57276995305164,NA,NA
90278,Los Angeles County,CA,61.03286384976526,54.58248472505092,NA
90403,Los Angeles County,CA,68.30985915492957,NA,NA
90501,Los Angeles County,CA,NA,NA,56.013745704467354
90623,Orange County,CA,NA,NA,78.35051546391753
90630,Orange County,CA,NA,20.570264765784113,NA
90650,Los Angeles County,CA,NA,14.867617107942973,NA
90660,Los Angeles County,CA,NA,33.19755600814664,NA
91107,Los Angeles County,CA,NA,48.472505091649694,NA
91201,Los Angeles County,CA,NA,70.67209775967413,NA
91202,Los Angeles County,CA,96.24413145539906,NA,NA
91203,Los Angeles County,CA,NA,93.48268839103869,NA
91320,Ventura County,CA,NA,53.97148676171079,NA
91344,Los Angeles County,CA,NA,24.03258655804481,NA
91362,Ventura County,CA,NA,41.75152749490835,NA
91423,Los Angeles County,CA,69.95305164319248,NA,NA
91506,Los Angeles County,CA,NA,NA,82.81786941580756
91706,Los Angeles County,CA,NA,NA,28.1786941580756
91748,Los Angeles County,CA,NA,NA,36.769759450171826
91770,Los Angeles County,CA,49.76525821596244,NA,NA
91775,Los Angeles County,CA,NA,80.44806517311609,NA
91784,San Bernardino County,CA,NA,NA,42.2680412371134
91932,San Diego County,CA,NA,85.13238289205702,NA
92083,San Diego County,CA,NA,90.4276985743381,NA
92103,San Diego County,CA,NA,NA,46.735395189003434
92111,San Diego County,CA,53.990610328638496,82.68839103869654,NA
92201,Riverside County,CA,23.708920187793428,NA,NA
92220,Riverside County,CA,NA,65.37678207739307,NA
92234,Riverside County,CA,14.553990610328638,NA,NA
92335,San Bernardino County,CA,NA,15.682281059063136,NA
92356,San Bernardino County,CA,NA,NA,94.84536082474226
92399,San Bernardino County,CA,NA,19.75560081466395,NA
92503,Riverside County,CA,NA,NA,43.6426116838488
92506,Riverside County,CA,70.89201877934272,NA,NA
92507,Riverside County,CA,40.845070422535215,NA,NA
92545,Riverside County,CA,NA,37.88187372708758,NA
92585,Riverside County,CA,78.63849765258216,NA,NA
92586,Riverside County,CA,79.5774647887324,NA,NA
92595,Riverside County,CA,39.436619718309856,NA,NA
92606,Orange County,CA,NA,85.539714867617107,NA
92677,Orange County,CA,NA,NA,26.46048109965636
92708,Orange County,CA,NA,15.071283095723015,NA
92780,Orange County,CA,NA,NA,40.549828178694156
92805,Orange County,CA,NA,76.17107942973523,NA
92831,Orange County,CA,52.347417840375584,NA,NA
93030,Ventura County,CA,17.136150234741784,NA,NA
93063,Ventura County,CA,67.13615023474179,NA,NA
93108,Santa Barbara County,CA,NA,99.38900203665987,NA
93307,Kern County,CA,13.145539906103288,NA,NA
93308,Kern County,CA,NA,28.920570264765782,NA
93311,Kern County,CA,NA,58.85947046843177,NA
93619,Fresno County,CA,41.31455399061033,NA,NA
93657,Fresno County,CA,NA,43.38085539714868,NA
93720,Fresno County,CA,34.037558685446015,NA,NA
94010,San Mateo County,CA,NA,32.17922606924644,NA
94030,San Mateo County,CA,NA,61.099796334012225,NA
94110,San Francisco County,CA,41.07981220657277,NA,NA
94117,San Francisco County,CA,36.15023474178404,NA,NA
94306,Santa Clara County,CA,NA,91.24236252545825,NA
94501,Alameda County,CA,NA,44.19551934826884,NA
94534,Solano County,CA,NA,43.9918533604888,NA
94541,Alameda County,CA,NA,NA,48.45360824742268
94550,Alameda County,CA,NA,34.21588594704684,NA
94558,Napa County,CA,NA,NA,27.835051546391753
94597,Contra Costa County,CA,71.12676056338029,NA,NA
94602,Alameda County,CA,NA,NA,68.72852233676976
94603,Alameda County,CA,77.23004694835682,NA,NA
94803,Contra Costa County,CA,88.73239436619718,NA,NA
95005,Santa Cruz County,CA,NA,NA,99.3127147766323
95008,Santa Clara County,CA,NA,49.08350305498982,NA
95030,Santa Clara County,CA,NA,NA,69.7594501718213
95120,Santa Clara County,CA,NA,NA,36.08247422680412
95124,Santa Clara County,CA,NA,35.64154786150713,NA
95125,Santa Clara County,CA,47.183098591549296,NA,NA
95132,Santa Clara County,CA,NA,NA,62.54295532646048
95207,San Joaquin County,CA,NA,28.105906313645622,NA
95242,San Joaquin County,CA,NA,53.56415478615071,NA
95304,San Joaquin County,CA,NA,94.90835030549898,NA
95320,San Joaquin County,CA,NA,89.40936863543789,NA
95327,Tuolumne County,CA,NA,NA,46.391752577319586
95334,Merced County,CA,NA,96.74134419551935,NA
95336,San Joaquin County,CA,NA,NA,28.865979381443296
95361,Stanislaus County,CA,NA,28.716904276985744,NA
95367,Stanislaus County,CA,54.22535211267606,NA,NA
95370,Tuolumne County,CA,NA,4.276985743380855,NA
95608,Sacramento County,CA,NA,55.80448065173116,NA
95630,Sacramento County,CA,57.74647887323944,NA,NA
95688,Solano County,CA,NA,62.11812627291242,NA
95823,Sacramento County,CA,NA,18.94093686354379,NA
95824,Sacramento County,CA,55.633802816901415,NA,NA
95829,Sacramento County,CA,NA,NA,51.546391752577314
95932,Colusa County,CA,NA,86.76171079429736,NA
96002,Shasta County,CA,NA,67.61710794297352,NA
80017,Arapahoe County,CO,69.24882629107981,NA,NA
80033,Jefferson County,CO,88.26291079812206,NA,NA
80132,El Paso County,CO,NA,60.28513238289206,NA
80138,Douglas County,CO,52.347417840375584,NA,NA
80260,Adams County,CO,NA,NA,69.41580756013745
80503,Boulder County,CO,66.43192488262912,NA,NA
80521,Larimer County,CO,68.54460093896714,NA,NA
80525,Larimer County,CO,16.431924882629108,NA,NA
80903,El Paso County,CO,37.08920187793427,NA,NA
81503,Mesa County,CO,NA,96.33401221995926,NA
06033,Hartford County,CT,NA,55.193482688391036,NA
06074,Hartford County,CT,NA,52.953156822810584,NA
06082,Hartford County,CT,NA,13.034623217922606,NA
06105,Hartford County,CT,21.830985915492956,NA,NA
06106,Hartford County,CT,NA,12.219959266802444,NA
06110,Hartford County,CT,NA,NA,80.75601374570446
06118,Hartford County,CT,24.647887323943664,NA,NA
06260,Windham County,CT,NA,44.602851323828915,NA
06401,New Haven County,CT,NA,63.747454175152754,NA
06405,New Haven County,CT,40.61032863849765,NA,NA
06457,Middlesex County,CT,7.981220657276995,NA,11.34020618556701
06790,Litchfield County,CT,NA,2.6476578411405294,NA
06810,Fairfield County,CT,NA,NA,30.927835051546392
06870,Fairfield County,CT,NA,NA,95.1890034364261
06877,Fairfield County,CT,77.93427230046949,NA,NA
06890,Fairfield County,CT,NA,NA,98.62542955326461
19804,New Castle County,DE,NA,NA,64.26116838487972
32011,Nassau County,FL,57.981220657277,NA,NA
32060,Suwannee County,FL,NA,79.63340122199592,NA
32081,St. Johns County,FL,NA,NA,78.69415807560138
32086,St. Johns County,FL,NA,18.329938900203665,NA
32092,St. Johns County,FL,51.40845070422535,NA,NA
32128,Volusia County,FL,NA,62.32179226069247,NA
32134,Marion County,FL,89.90610328638498,NA,NA
32169,Volusia County,FL,NA,NA,86.5979381443299
32174,Volusia County,FL,NA,NA,12.027491408934708
32224,Duval County,FL,57.51173708920187,NA,NA
32225,Duval County,FL,26.995305164319248,NA,NA
32246,Duval County,FL,NA,59.67413441955194,NA
32254,Duval County,FL,48.12206572769953,NA,NA
32277,Duval County,FL,23.239436619718308,NA,NA
32405,Bay County,FL,NA,NA,22.336769759450174
32431,Jackson County,FL,NA,86.35437881873727,NA
32465,Gulf County,FL,NA,79.83706720977597,NA
32504,Escambia County,FL,NA,66.59877800407332,NA
32514,Escambia County,FL,NA,12.627291242362526,NA
32533,Escambia County,FL,28.638497652582164,NA,NA
32536,Okaloosa County,FL,NA,NA,51.20274914089347
32550,Walton County,FL,89.2018779342723,NA,NA
32579,Okaloosa County,FL,NA,88.39103869653768,NA
32607,Alachua County,FL,NA,NA,61.855670103092784
32653,Alachua County,FL,NA,35.03054989816701,NA
32656,Clay County,FL,NA,60.28513238289206,NA
32696,Levy County,FL,NA,49.287169042769854,NA
32708,Seminole County,FL,NA,35.437881873727086,NA
32725,Volusia County,FL,NA,37.4745417515275,NA
32746,Seminole County,FL,53.051643192488264,NA,NA
32784,Lake County,FL,NA,69.4501018329939,NA
32792,Orange County,FL,58.920187793427225,NA,NA
32803,Orange County,FL,73.70892018779342,NA,NA
32809,Orange County,FL,NA,61.710794297352344,NA
32837,Orange County,FL,NA,48.87983706720978,NA
32907,Brevard County,FL,46.948356807511736,NA,NA
32926,Brevard County,FL,72.76995305164318,NA,NA
32937,Brevard County,FL,NA,59.47046843177189,NA
32940,Brevard County,FL,66.90140845070422,NA,NA
32952,Brevard County,FL,NA,46.63951120162933,NA
33012,Miami-Dade County,FL,44.13145539906103,NA,NA
33018,Miami-Dade County,FL,NA,56.41547861507128,NA
33027,Broward County,FL,NA,NA,6.872852233676976
33130,Miami-Dade County,FL,NA,65.78411405295316,NA
33134,Miami-Dade County,FL,NA,NA,32.98969072164948
33139,Miami-Dade County,FL,NA,NA,14.0893470790378
33145,Miami-Dade County,FL,NA,NA,33.33333333333333
33155,Miami-Dade County,FL,NA,NA,14.776632302405499
33162,Miami-Dade County,FL,NA,NA,90.72164948453609
33165,Miami-Dade County,FL,NA,32.79022403258656,NA
33172,Miami-Dade County,FL,93.89671361502347,NA,NA
33174,Miami-Dade County,FL,NA,NA,19.587628865979383
33186,Miami-Dade County,FL,NA,NA,66.66666666666666
33312,Broward County,FL,34.97652582159624,NA,NA
33314,Broward County,FL,88.49765258215963,NA,NA
33334,Broward County,FL,NA,51.32382892057027,NA
33351,Broward County,FL,NA,61.5071283095723,NA
33401,Palm Beach County,FL,66.19718309859155,NA,NA
33411,Palm Beach County,FL,NA,NA,26.804123711340207
33414,Palm Beach County,FL,NA,41.34419551934827,NA
33433,Palm Beach County,FL,NA,19.95926680244399,NA
33435,Palm Beach County,FL,NA,NA,62.19931271477663
33445,Palm Beach County,FL,NA,NA,31.27147766323024
33446,Palm Beach County,FL,NA,NA,4.810996563573884
33458,Palm Beach County,FL,NA,78.20773930753563,NA
33484,Palm Beach County,FL,NA,29.531568228105908,NA
33486,Palm Beach County,FL,NA,NA,86.25429553264605
33542,Pasco County,FL,NA,48.26883910386965,NA
33556,Hillsborough County,FL,NA,NA,71.8213058419244
33573,Hillsborough County,FL,NA,20.773930753564155,3.0927835051546393
33596,Hillsborough County,FL,NA,NA,81.44329896907216
33606,Hillsborough County,FL,95.77464788732394,NA,NA
33615,Hillsborough County,FL,NA,30.95723014256619,NA
33635,Hillsborough County,FL,NA,NA,89.00343642611683
33647,Hillsborough County,FL,50.70422535211267,NA,NA
33702,Pinellas County,FL,NA,63.13645621181263,NA
33709,Pinellas County,FL,NA,NA,55.670103092783506
33713,Pinellas County,FL,53.755868544600936,NA,NA
33759,Pinellas County,FL,72.76995305164318,NA,NA
33774,Pinellas County,FL,72.06572769953051,71.28309572301426,NA
33870,Highlands County,FL,27.464788732394368,NA,NA
33873,Hardee County,FL,NA,NA,59.450171821305844
33907,Lee County,FL,47.652582159624416,NA,NA
33908,Lee County,FL,NA,5.7026476578411405,NA
33914,Lee County,FL,NA,13.849287169042771,NA
33928,Lee County,FL,83.33333333333334,NA,NA
33950,Charlotte County,FL,76.99530516431925,NA,NA
33982,Charlotte County,FL,NA,NA,91.75257731958763
33983,Charlotte County,FL,NA,93.279022403258665,NA
34103,Collier County,FL,NA,68.83910386965377,NA
34234,Sarasota County,FL,NA,42.56619144602851,NA
34235,Sarasota County,FL,NA,NA,38.144329896907216
34266,DeSoto County,FL,NA,48.06517311608962,NA
34291,Sarasota County,FL,NA,89.20570264765783,NA
34470,Marion County,FL,49.76525821596244,NA,NA
34655,Pasco County,FL,32.863849765258216,NA,NA
34667,Pasco County,FL,43.89671361502347,NA,NA
34683,Pinellas County,FL,NA,NA,52.23367697594502
34744,Osceola County,FL,25.821596244131456,NA,NA
34746,Osceola County,FL,36.38497652582159,NA,NA
34772,Osceola County,FL,NA,69.04276985743381,NA
34785,Sumter County,FL,NA,78.81873727087576,NA
34953,St. Lucie County,FL,NA,NA,25.085910652920962
34956,Martin County,FL,NA,87.37270875763747,NA
34972,Okeechobee County,FL,NA,NA,69.0721649484536
34994,Martin County,FL,NA,NA,41.23711340206185
30017,Gwinnett County,GA,65.49295774647888,NA,NA
30043,Gwinnett County,GA,NA,12.830957230142568,NA
30044,Gwinnett County,GA,19.248826291079812,NA,NA
30060,Cobb County,GA,NA,69.24643584521385,NA
30062,Cobb County,GA,42.48826291079813,NA,NA
30094,Rockdale County,GA,NA,30.346232179226067,NA
30127,Cobb County,GA,49.29577464788733,NA,NA
30238,Clayton County,GA,NA,NA,95.87628865979381
30291,Fulton County,GA,NA,71.69042769857434,NA
30311,Fulton County,GA,75.82159624413146,NA,NA
30315,Fulton County,GA,NA,24.643584521384927,NA
30318,Fulton County,GA,NA,29.327902240325866,NA
30329,DeKalb County,GA,NA,87.16904276985743,NA
30566,Hall County,GA,90.61032863849765,NA,NA
30635,Elbert County,GA,64.7887323943662,NA,NA
30680,Barrow County,GA,20.187793427230048,NA,NA
30701,Gordon County,GA,29.577464788732392,66.80244399185335,NA
30707,Walker County,GA,41.54929577464789,63.34012219959266,NA
30721,Whitfield County,GA,NA,NA,49.48453608247423
31021,Laurens County,GA,NA,NA,56.3573883161512
31503,Ware County,GA,NA,NA,60.13745704467354
31513,Appling County,GA,NA,72.30142566191446,NA
31545,Wayne County,GA,NA,52.138492871690424,NA
31602,Lowndes County,GA,37.32394366197183,NA,NA
96706,Honolulu County,HI,NA,44.806517311608964,NA
96766,Kauai County,HI,NA,NA,82.4742268041237
96817,Honolulu County,HI,NA,NA,5.841924398625429
83301,Twin Falls County,ID,NA,NA,4.123711340206185
83318,Cassia County,ID,NA,91.0386965376782,NA
83401,Bonneville County,ID,NA,39.91853360488798,NA
83607,Canyon County,ID,38.028169014084504,NA,NA
83703,Ada County,ID,NA,25.050916496945007,NA
83858,Kootenai County,ID,NA,90.63136456211812,NA
60007,Cook County,IL,NA,NA,30.584192439862544
60014,McHenry County,IL,23.943661971830984,NA,NA
60015,Lake County,IL,NA,24.84725050916497,NA
60067,Cook County,IL,43.1924882629108,NA,17.18213058419244
60068,Cook County,IL,NA,NA,25.42955326460481
60077,Cook County,IL,58.68544600938967,NA,NA
60098,McHenry County,IL,NA,13.441955193482688,NA
60131,Cook County,IL,72.76995305164318,NA,NA
60134,Kane County,IL,NA,40.936863543788185,NA
60156,McHenry County,IL,35.91549295774648,NA,NA
60164,Cook County,IL,NA,41.34419551934827,NA
60175,Kane County,IL,NA,31.771894093686353,NA
60192,Cook County,IL,NA,84.928716904277,NA
60304,Cook County,IL,83.56807511737088,NA,NA
60423,Will County,IL,39.906103286384976,NA,NA
60425,Cook County,IL,NA,NA,83.50515463917526
60453,Cook County,IL,14.084507042253522,NA,NA
60457,Cook County,IL,NA,69.85743380855396,NA
60467,Cook County,IL,NA,25.45824847250509,NA
60484,Will County,IL,NA,NA,100
60538,Kendall County,IL,NA,NA,67.35395189003437
60554,Kane County,IL,NA,85.74338085539715,NA
60559,DuPage County,IL,NA,46.84317718940937,NA
60563,DuPage County,IL,45.774647887323944,NA,NA
60608,Cook County,IL,NA,NA,10.309278350515463
60615,Cook County,IL,24.413145539906104,NA,23.367697594501717
60616,Cook County,IL,NA,NA,27.147766323024054
60617,Cook County,IL,7.746478873239436,3.054989816700611,NA
60626,Cook County,IL,50.93896713615024,NA,NA
60631,Cook County,IL,30.51643192488263,NA,NA
60641,Cook County,IL,12.676056338028168,NA,NA
60643,Cook County,IL,8.92018779342723,NA,NA
60645,Cook County,IL,NA,21.181262729124235,NA
60654,Cook County,IL,70.18779342723005,NA,NA
60656,Cook County,IL,NA,78.00407331975559,46.04810996563574
60659,Cook County,IL,NA,NA,47.42268041237113
60714,Cook County,IL,NA,NA,13.745704467353953
61108,Winnebago County,IL,55.39906103286385,NA,NA
61111,Winnebago County,IL,78.16901408450704,NA,NA
61201,Rock Island County,IL,NA,30.14256619144603,NA
61282,Rock Island County,IL,NA,90.22403258655804,NA
61354,LaSalle County,IL,NA,51.93482688391039,NA
61705,McLean County,IL,NA,76.78207739307535,NA
62002,Madison County,IL,NA,55.193482688391036,NA
62298,Monroe County,IL,82.3943661971831,NA,NA
62305,Adams County,IL,69.48356807511738,NA,NA
62471,Fayette County,IL,NA,NA,54.98281786941581
62521,Macon County,IL,NA,8.55397148676171,NA
62561,Sangamon County,IL,NA,96.5376782077393,NA
62568,Christian County,IL,NA,57.43380855397149,NA
62711,Sangamon County,IL,NA,NA,49.140893470790374
62864,Jefferson County,IL,NA,NA,38.48797250859107
62901,Jackson County,IL,65.72769953051643,NA,NA
46033,Hamilton County,IN,NA,28.30957230142566,NA
46077,Boone County,IN,85.44600938967136,NA,NA
46106,Johnson County,IN,94.83568075117371,NA,NA
46122,Hendricks County,IN,NA,73.93075356415478,NA
46140,Hancock County,IN,NA,18.126272912423623,NA
46151,Morgan County,IN,24.88262910798122,NA,NA
46218,Marion County,IN,NA,56.61914460285132,NA
46268,Marion County,IN,NA,NA,33.67697594501718
46307,Lake County,IN,3.286384976525822,NA,3.436426116838488
46312,Lake County,IN,NA,NA,29.553264604810998
46321,Lake County,IN,35.2112676056338,NA,NA
46360,LaPorte County,IN,NA,27.698574338085542,NA
46534,Starke County,IN,54.929577464788736,NA,NA
46567,Kosciusko County,IN,NA,81.87372708757637,NA
46774,Allen County,IN,60.328638497652584,NA,NA
46797,Allen County,IN,99.53051643192488,NA,NA
46815,Allen County,IN,32.3943661971831,NA,NA
46818,Allen County,IN,NA,97.14867617107943,NA
46825,Allen County,IN,NA,80.85539714867616,NA
46970,Miami County,IN,NA,NA,35.738831615120276
47001,Dearborn County,IN,NA,91.44602851323829,NA
47031,Ripley County,IN,93.42723004694837,NA,NA
47037,Ripley County,IN,100,NA,NA
47150,Floyd County,IN,11.032863849765258,NA,NA
47304,Delaware County,IN,51.173708920187785,NA,NA
47362,Henry County,IN,21.36150234741784,NA,NA
47396,Delaware County,IN,95.07042253521126,NA,NA
47408,Monroe County,IN,NA,NA,79.38144329896907
47429,Monroe County,IN,NA,NA,97.9381443298969
47460,Owen County,IN,76.52582159624414,NA,NA
47711,Vanderburgh County,IN,NA,NA,24.742268041237114
50036,Boone County,IA,NA,52.953156822810584,NA
50310,Polk County,IA,20.657276995305164,NA,NA
50314,Polk County,IA,NA,62.93279022403259,NA
50315,Polk County,IA,8.685446009389672,NA,NA
50613,Black Hawk County,IA,NA,45.621181262729124,NA
50801,Union County,IA,NA,NA,57.73195876288659
51012,Cherokee County,IA,NA,NA,94.15807560137456
52101,Winneshiek County,IA,NA,67.0061099796334,NA
52349,Benton County,IA,NA,86.55804480651732,NA
66006,Douglas County,KS,NA,92.26069246435846,NA
66216,Johnson County,KS,NA,NA,57.73195876288659
66223,Johnson County,KS,86.15023474178403,NA,NA
66226,Johnson County,KS,85.2112676056338,NA,NA
67213,Sedgwick County,KS,62.676056338028175,NA,NA
67220,Sedgwick County,KS,93.66197183098592,NA,NA
67501,Reno County,KS,NA,NA,88.31615120274914
67601,Ellis County,KS,NA,NA,9.621993127147768
40272,Jefferson County,KY,13.849765258215962,NA,NA
40299,Jefferson County,KY,NA,21.792260692464357,NA
40342,Anderson County,KY,NA,56.211812627291245,NA
40906,Knox County,KY,NA,NA,53.264604810996566
40962,Clay County,KY,NA,NA,59.79381443298969
40965,Bell County,KY,NA,NA,44.329896907216494
41164,Carter County,KY,34.27230046948357,NA,NA
41522,Pike County,KY,74.88262910798123,NA,NA
42003,McCracken County,KY,NA,NA,34.36426116838488
42025,Marshall County,KY,NA,42.15885947046843,NA
42038,Lyon County,KY,NA,95.5193482688391,NA
42129,Metcalfe County,KY,NA,65.58044806517312,NA
42261,Butler County,KY,61.502347417840376,NA,NA
42303,Daviess County,KY,10.56338028169014,NA,NA
42431,Hopkins County,KY,NA,26.069246435845212,NA
42726,Grayson County,KY,NA,72.30142566191446,NA
42754,Grayson County,KY,NA,38.4928716904277,NA
70003,Jefferson Parish,LA,NA,3.8696537678207736,NA
70037,Plaquemines Parish,LA,41.78403755868544,NA,NA
70094,Jefferson Parish,LA,NA,15.478615071283095,NA
70113,Orleans Parish,LA,30.28169014084507,NA,NA
70129,Orleans Parish,LA,98.35680751173709,NA,NA
70131,Orleans Parish,LA,14.319248826291082,NA,NA
70363,Terrebonne Parish,LA,NA,29.938900203665987,NA
70364,Terrebonne Parish,LA,NA,NA,52.92096219931272
70437,St. Tammany Parish,LA,96.71361502347418,NA,NA
70447,St. Tammany Parish,LA,57.04225352112676,NA,NA
70454,Tangipahoa Parish,LA,NA,NA,34.02061855670103
70517,St. Martin Parish,LA,12.44131455399061,NA,NA
70582,St. Martin Parish,LA,NA,88.79837067209776,NA
70810,East Baton Rouge Parish,LA,NA,25.865580448065174,NA
71006,Bossier Parish,LA,NA,71.89409368635438,NA
71291,Ouachita Parish,LA,NA,NA,63.91752577319587
03904,York County,ME,NA,55.80448065173116,NA
04032,Cumberland County,ME,NA,98.98167006109979,NA
04043,York County,ME,NA,40.52953156822811,NA
04103,Cumberland County,ME,NA,21.58859470468432,NA
04330,Kennebec County,ME,NA,7.128309572301425,NA
04345,Kennebec County,ME,45.305164319248824,NA,NA
04957,Somerset County,ME,76.05633802816901,NA,NA
20707,Prince George's County,MD,67.84037558685446,83.91038696537679,NA
20723,Howard County,MD,NA,77.39307535641548,NA
20743,Prince George's County,MD,NA,NA,57.0446735395189
20851,Montgomery County,MD,92.72300469483568,NA,NA
20874,Montgomery County,MD,NA,60.896130346232184,NA
20878,Montgomery County,MD,46.009389671361504,NA,NA
21001,Harford County,MD,NA,65.78411405295316,NA
21009,Harford County,MD,48.35680751173709,NA,NA
21040,Harford County,MD,84.74178403755869,NA,NA
21090,Anne Arundel County,MD,NA,94.29735234215886,NA
21108,Anne Arundel County,MD,NA,80.65173116089613,NA
21146,Anne Arundel County,MD,NA,47.657841140529534,NA
21204,Baltimore County,MD,69.01408450704226,NA,NA
21207,Baltimore County,MD,NA,NA,21.993127147766323
21221,Baltimore County,MD,NA,NA,32.302405498281786
21231,Baltimore city,MD,NA,NA,78.00687285223368
21239,Baltimore city,MD,NA,NA,31.615120274914087
21244,Baltimore County,MD,43.66197183098591,NA,NA
21703,Frederick County,MD,60.798122065727696,NA,NA
21784,Carroll County,MD,54.460093896713616,NA,NA
21801,Wicomico County,MD,63.14553990610329,NA,NA
01007,Hampshire County,MA,NA,NA,68.38487972508591
01020,Hampden County,MA,NA,NA,15.463917525773196
01027,Hampshire County,MA,NA,NA,85.91065292096219
01108,Hampden County,MA,NA,51.12016293279022,NA
01201,Berkshire County,MA,0.4694835680751174,NA,13.058419243986256
01220,Berkshire County,MA,23.004694835680752,NA,73.8831615120275
01534,Worcester County,MA,72.53521126760563,NA,NA
01545,Worcester County,MA,NA,87.9837067209776,NA
01550,Worcester County,MA,2.3474178403755865,NA,NA
01810,Essex County,MA,NA,16.293279022403258,21.305841924398624
01841,Essex County,MA,NA,0,NA
01860,Essex County,MA,83.09859154929578,NA,NA
01906,Essex County,MA,NA,36.456211812627295,7.560137457044673
01960,Essex County,MA,NA,6.313645621181263,NA
01966,Essex County,MA,66.66666666666666,NA,NA
02026,Norfolk County,MA,NA,NA,16.83848797250859
02067,Norfolk County,MA,56.10328638497653,NA,NA
02119,Suffolk County,MA,0.7042253521126761,NA,NA
02121,Suffolk County,MA,1.4084507042253522,NA,NA
02122,Suffolk County,MA,2.5821596244131455,NA,NA
02126,Suffolk County,MA,58.45070422535211,NA,NA
02148,Middlesex County,MA,0,NA,NA
02152,Suffolk County,MA,NA,8.146639511201629,NA
02170,Norfolk County,MA,NA,9.368635437881874,NA
02188,Norfolk County,MA,NA,35.64154786150713,NA
02302,Plymouth County,MA,NA,17.311608961303463,NA
02333,Plymouth County,MA,NA,NA,80.06872852233677
02360,Plymouth County,MA,NA,NA,1.3745704467353952
02472,Middlesex County,MA,NA,NA,15.807560137457044
02481,Norfolk County,MA,NA,NA,60.48109965635739
02568,Dukes County,MA,NA,NA,93.47079037800687
02631,Barnstable County,MA,NA,NA,41.92439862542955
02720,Bristol County,MA,NA,NA,2.7491408934707904
02739,Plymouth County,MA,NA,84.31771894093686,NA
02740,Bristol County,MA,0.2347417840375587,NA,NA
02747,Bristol County,MA,89.43661971830986,NA,NA
02780,Bristol County,MA,1.1737089201877933,NA,NA
48045,Macomb County,MI,24.178403755868544,NA,NA
48066,Macomb County,MI,NA,34.623217922606926,NA
48067,Oakland County,MI,NA,NA,91.06529209621993
48071,Oakland County,MI,NA,33.401221995926676,NA
48080,Macomb County,MI,NA,NA,28.865979381443296
48081,Macomb County,MI,NA,NA,19.243986254295535
48083,Oakland County,MI,NA,64.96945010183299,NA
48092,Macomb County,MI,NA,21.384928716904277,NA
48095,Macomb County,MI,98.82629107981221,NA,NA
48097,St. Clair County,MI,90.14084507042254,NA,NA
48098,Oakland County,MI,NA,34.0122199592668,NA
48105,Washtenaw County,MI,NA,NA,42.61168384879725
48164,Wayne County,MI,NA,NA,77.31958762886599
48180,Wayne County,MI,NA,1.6293279022403258,NA
48184,Wayne County,MI,NA,NA,40.893470790378004
48197,Washtenaw County,MI,NA,1.8329938900203666,NA
48201,Wayne County,MI,NA,58.45213849287168,NA
48220,Oakland County,MI,NA,77.18940936863544,NA
48302,Oakland County,MI,69.71830985915493,NA,NA
48314,Macomb County,MI,NA,NA,28.52233676975945
48380,Oakland County,MI,NA,94.09368635437882,NA
48446,Lapeer County,MI,15.023474178403756,NA,NA
48455,Lapeer County,MI,NA,NA,87.2852233676976
48504,Genesee County,MI,17.84037558685446,NA,NA
48532,Genesee County,MI,NA,38.085539714867615,NA
48640,Midland County,MI,NA,13.238289205702646,NA
48657,Midland County,MI,80.98591549295774,NA,NA
48801,Gratiot County,MI,NA,NA,34.707903780068726
48846,Ionia County,MI,NA,NA,72.85223367697594
48858,Isabella County,MI,NA,6.517311608961303,NA
48872,Shiawassee County,MI,NA,95.11201629327903,NA
48895,Ingham County,MI,NA,82.89205702647658,NA
49001,Kalamazoo County,MI,NA,55.60081466395111,NA
49091,St. Joseph County,MI,44.835680751173705,NA,NA
49423,Ottawa County,MI,11.971830985915492,NA,NA
49424,Ottawa County,MI,16.19718309859155,NA,NA
49437,Muskegon County,MI,87.79342723004694,NA,NA
55008,Isanti County,MN,NA,53.97148676171079,NA
55009,Goodhue County,MN,NA,59.26680244399185,NA
55021,Rice County,MN,NA,38.4928716904277,NA
55033,Dakota County,MN,62.91079812206573,NA,NA
55044,Dakota County,MN,NA,60.692464358452135,NA
55118,Dakota County,MN,49.53051643192488,NA,NA
55303,Anoka County,MN,17.6056338028169,NA,NA
55308,Sherburne County,MN,NA,98.37067209775967,NA
55350,McLeod County,MN,26.76056338028169,NA,NA
55403,Hennepin County,MN,NA,32.9938900203666,NA
55412,Hennepin County,MN,NA,36.252545824847246,NA
55433,Anoka County,MN,NA,54.378818737270876,NA
55439,Hennepin County,MN,96.94835680751174,NA,NA
55447,Hennepin County,MN,74.4131455399061,NA,NA
55805,St. Louis County,MN,NA,70.87576374745417,NA
55806,St. Louis County,MN,NA,NA,98.96907216494846
56073,Brown County,MN,NA,NA,23.711340206185564
56258,Lyon County,MN,NA,NA,47.766323024054984
56345,Morrison County,MN,NA,NA,17.525773195876287
56425,Crow Wing County,MN,NA,NA,37.80068728522337
56470,Hubbard County,MN,NA,34.419551934826885,NA
56514,Clay County,MN,98.59154929577466,NA,NA
56763,Roseau County,MN,NA,98.77800407331976,NA
38614,Coahoma County,MS,79.34272300469483,NA,NA
38652,Union County,MS,NA,73.11608961303462,NA
38701,Washington County,MS,NA,67.20977596741345,NA
39452,George County,MS,25.11737089201878,NA,NA
39705,Lowndes County,MS,67.6056338028169,83.29938900203666,NA
63011,St. Louis County,MO,71.59624413145539,NA,NA
63017,St. Louis County,MO,64.08450704225352,NA,NA
63020,Jefferson County,MO,62.441314553990615,NA,NA
63021,St. Louis County,MO,42.01877934272301,NA,NA
63033,St. Louis County,MO,NA,NA,7.903780068728522
63112,St. Louis city,MO,52.112676056338024,NA,NA
63130,St. Louis County,MO,NA,NA,48.10996563573883
63132,St. Louis County,MO,NA,84.5213849287169,NA
63136,St. Louis County,MO,NA,10.183299389002038,NA
63366,St. Charles County,MO,NA,4.684317718940937,NA
63368,St. Charles County,MO,NA,58.248472505091655,NA
63601,St. Francois County,MO,NA,54.78615071283096,NA
63701,Cape Girardeau County,MO,89.67136150234741,37.270875763747455,NA
64048,Clay County,MO,NA,97.9633401221996,NA
64057,Jackson County,MO,NA,NA,61.16838487972509
64062,Ray County,MO,NA,NA,86.94158075601375
64079,Platte County,MO,55.86854460093896,NA,NA
64116,Clay County,MO,NA,41.14052953156823,NA
64119,Clay County,MO,NA,20.366598778004075,NA
64128,Jackson County,MO,NA,68.22810590631364,NA
64130,Jackson County,MO,NA,NA,38.83161512027492
64133,Jackson County,MO,4.694835680751173,NA,NA
64138,Jackson County,MO,NA,16.08961303462322,NA
64151,Platte County,MO,NA,16.90427698574338,NA
64804,Jasper County,MO,NA,9.164969450101832,NA
65043,Callaway County,MO,NA,NA,84.87972508591065
65453,Crawford County,MO,NA,NA,79.72508591065292
65616,Taney County,MO,NA,NA,65.63573883161511
65803,Greene County,MO,10.7981220657277,NA,NA
65807,Greene County,MO,NA,NA,8.24742268041237
59102,Yellowstone County,MT,NA,NA,1.718213058419244
59405,Cascade County,MT,27.230046948356808,NA,NA
59644,Broadwater County,MT,NA,93.89002036659878,NA
59901,Flathead County,MT,NA,3.462321792260693,NA
68116,Douglas County,NE,59.624413145539904,NA,NA
68144,Douglas County,NE,NA,NA,45.36082474226804
68701,Madison County,NE,NA,74.949083503055,NA
89103,Clark County,NV,NA,NA,65.97938144329896
89104,Clark County,NV,37.79342723004695,NA,NA
89122,Clark County,NV,NA,NA,53.95189003436426
89129,Clark County,NV,47.88732394366197,NA,NA
89149,Clark County,NV,63.38028169014085,NA,NA
89431,Washoe County,NV,21.12676056338028,NA,NA
89523,Washoe County,NV,NA,29.735234215885946,NA
03051,Hillsborough County,NH,NA,18.73727087576375,NA
03064,Hillsborough County,NH,NA,80.24439918533605,NA
03076,Hillsborough County,NH,NA,56.82281059063137,NA
03244,Hillsborough County,NH,92.95774647887323,NA,NA
03743,Sullivan County,NH,NA,NA,72.16494845360825
03862,Rockingham County,NH,NA,92.66802443991853,NA
07002,Hudson County,NJ,NA,2.240325865580448,NA
07003,Essex County,NJ,75.35211267605634,NA,NA
07005,Morris County,NJ,32.159624413145536,NA,NA
07006,Essex County,NJ,NA,47.86150712830957,NA
07028,Essex County,NJ,NA,99.59266802443992,NA
07043,Essex County,NJ,NA,NA,96.21993127147766
07047,Hudson County,NJ,5.868544600938967,NA,NA
07054,Morris County,NJ,50.46948356807511,NA,NA
07083,Union County,NJ,NA,26.883910386965375,NA
07086,Hudson County,NJ,NA,97.759674134419555,NA
07090,Union County,NJ,NA,68.43177189409369,NA
07104,Essex County,NJ,1.643192488262911,NA,NA
07105,Essex County,NJ,NA,97.35234215885947,NA
07305,Hudson County,NJ,NA,2.4439918533604885,NA
07417,Bergen County,NJ,NA,87.57637474541752,NA
07424,Passaic County,NJ,NA,NA,50.51546391752577
07632,Bergen County,NJ,99.06103286384976,NA,NA
07663,Bergen County,NJ,NA,76.9857433808554,NA
07728,Monmouth County,NJ,15.96244131455399,NA,NA
08004,Camden County,NJ,NA,NA,74.22680412371135
08054,Burlington County,NJ,NA,NA,21.649484536082475
08062,Gloucester County,NJ,NA,79.22606924643586,NA
08080,Gloucester County,NJ,11.502347417840376,NA,NA
08098,Salem County,NJ,NA,NA,83.8487972508591
08110,Camden County,NJ,13.380281690140844,NA,NA
08244,Atlantic County,NJ,NA,NA,89.69072164948454
08550,Mercer County,NJ,NA,91.64969450101833,NA
08558,Somerset County,NJ,99.76525821596243,NA,NA
08742,Ocean County,NJ,28.4037558685446,NA,NA
08759,Ocean County,NJ,NA,NA,0
08810,Middlesex County,NJ,NA,97.5560081466395,NA
08833,Hunterdon County,NJ,NA,89.81670061099797,NA
08844,Somerset County,NJ,38.732394366197184,NA,NA
08865,Warren County,NJ,5.39906103286385,NA,NA
08873,Somerset County,NJ,15.492957746478872,NA,NA
87004,Sandoval County,NM,NA,NA,75.25773195876289
87031,Valencia County,NM,26.525821596244132,NA,NA
87106,Bernalillo County,NM,NA,NA,63.57388316151202
87108,Bernalillo County,NM,NA,5.295315682281059,NA
87113,Bernalillo County,NM,78.40375586854461,NA,NA
87114,Bernalillo County,NM,NA,13.64562118126273,NA
87547,,NM,NA,79.22606924643586,NA
88011,Doa Ana County,NM,NA,43.58452138492871,NA
88101,Curry County,NM,NA,6.924643584521386,NA
88240,Lea County,NM,7.042253521126761,NA,NA
10011,New York County,NY,NA,NA,52.57731958762887
10021,New York County,NY,NA,NA,60.824742268041234
10025,New York County,NY,NA,0.8146639511201629,NA
10036,New York County,NY,37.558685446009385,NA,NA
10303,Richmond County,NY,38.497652582159624,NA,NA
10305,Richmond County,NY,NA,50.71283095723014,NA
10451,Bronx County,NY,16.666666666666664,NA,NA
10457,Bronx County,NY,6.338028169014084,NA,NA
10458,Bronx County,NY,NA,0.40733197556008144,NA
10466,Bronx County,NY,4.929577464788732,NA,NA
10472,Bronx County,NY,3.5211267605633805,NA,NA
10598,Westchester County,NY,NA,NA,37.11340206185567
10710,Westchester County,NY,NA,59.063136456211815,NA
10918,Orange County,NY,NA,94.5010183299389,NA
11206,Kings County,NY,NA,1.2219959266802443,NA
11212,Kings County,NY,NA,0.6109979633401221,NA
11223,Kings County,NY,20.187793427230048,NA,7.216494845360824
11226,Kings County,NY,NA,NA,13.402061855670103
11236,Kings County,NY,NA,NA,8.934707903780069
11355,Queens County,NY,26.056338028169012,NA,NA
11373,Queens County,NY,NA,15.885947046843176,25.773195876288657
11417,Queens County,NY,NA,NA,73.53951890034365
11510,Nassau County,NY,NA,88.59470468431772,NA
11710,Nassau County,NY,NA,NA,37.11340206185567
11717,Suffolk County,NY,NA,47.45417515274949,NA
11743,Suffolk County,NY,NA,48.676171079429736,NA
11751,Suffolk County,NY,NA,78.41140529531569,NA
11755,Suffolk County,NY,NA,93.07535641547861,NA
11763,Suffolk County,NY,NA,45.21384928716905,NA
12065,Saratoga County,NY,NA,17.515274949083505,NA
12309,Schenectady County,NY,70.4225352112676,NA,NA
12803,Saratoga County,NY,NA,84.5213849287169,NA
12832,Washington County,NY,75.5868544600939,NA,NA
12981,Clinton County,NY,95.53990610328638,NA,NA
13027,Onondaga County,NY,NA,NA,48.797250859106526
13029,Onondaga County,NY,74.17840375586854,NA,NA
13066,Onondaga County,NY,NA,83.5030549898167,NA
13152,Onondaga County,NY,NA,95.5193482688391,NA
13203,Onondaga County,NY,18.544600938967136,NA,NA
13493,Oswego County,NY,95.30516431924883,NA,NA
13601,Jefferson County,NY,NA,NA,19.93127147766323
13658,St. Lawrence County,NY,NA,98.57433808553971,NA
13760,Broome County,NY,NA,5.906313645621181,1.0309278350515463
13790,Broome County,NY,9.389671361502346,NA,NA
13820,Otsego County,NY,NA,7.942973523421588,NA
13901,Broome County,NY,4.460093896713615,NA,NA
14048,Chautauqua County,NY,NA,40.73319755600815,NA
14125,Genesee County,NY,NA,96.13034623217924,NA
14150,Erie County,NY,44.60093896713615,5.4989816700611,NA
14208,Erie County,NY,NA,NA,72.5085910652921
14211,Erie County,NY,NA,NA,64.60481099656357
14220,Erie County,NY,13.615023474178404,24.43991853360489,NA
14224,Erie County,NY,6.572769953051644,NA,NA
14225,Erie County,NY,8.450704225352112,NA,NA
14304,Niagara County,NY,NA,4.0733197556008145,17.869415807560138
14425,Ontario County,NY,16.901408450704224,NA,NA
14428,Monroe County,NY,45.07042253521127,NA,NA
14450,Monroe County,NY,NA,1.0183299389002036,NA
14482,Genesee County,NY,NA,72.09775967413442,NA
14512,Ontario County,NY,NA,NA,94.50171821305841
14519,Wayne County,NY,22.769953051643192,NA,NA
14559,Monroe County,NY,11.267605633802818,19.551934826883908,NA
14580,Monroe County,NY,1.8779342723004695,NA,NA
14609,Monroe County,NY,NA,NA,24.398625429553263
14612,Monroe County,NY,NA,1.4256619144602851,NA
14616,Monroe County,NY,3.9906103286384975,NA,NA
14618,Monroe County,NY,NA,10.9979633401222,NA
14626,Monroe County,NY,NA,NA,8.59106529209622
14701,Chautauqua County,NY,NA,2.0366598778004072,NA
14738,Chautauqua County,NY,NA,94.70468431771894,NA
14845,Chemung County,NY,NA,26.476578411405292,NA
14850,Tompkins County,NY,6.103286384976526,NA,NA
14904,Chemung County,NY,NA,40.32586558044807,NA
27030,Surry County,NC,7.511737089201878,NA,NA
27104,Forsyth County,NC,28.169014084507044,NA,NA
27214,Guilford County,NC,NA,82.07739307535643,NA
27215,Alamance County,NC,NA,5.091649694501019,NA
27249,Guilford County,NC,80.04694835680752,NA,NA
27282,Guilford County,NC,NA,75.96741344195519,NA
27295,Davidson County,NC,NA,3.6659877800407332,NA
27312,Chatham County,NC,NA,NA,18.556701030927837
27501,Harnett County,NC,51.64319248826291,NA,NA
27523,Wake County,NC,92.01877934272301,NA,NA
27537,Vance County,NC,NA,25.254582484725052,NA
27540,Wake County,NC,NA,NA,85.2233676975945
27545,Wake County,NC,NA,NA,44.67353951890035
27574,Person County,NC,NA,52.54582484725051,NA
27587,Wake County,NC,NA,NA,20.962199312714777
27612,Wake County,NC,NA,NA,43.986254295532646
27615,Wake County,NC,NA,69.4501018329939,15.120274914089347
27617,Wake County,NC,NA,92.87169042769857,NA
27712,Durham County,NC,97.1830985915493,NA,NA
27817,Beaufort County,NC,NA,78.61507128309573,NA
27856,Nash County,NC,76.76056338028168,NA,NA
27896,Wilson County,NC,NA,76.17107942973523,NA
28168,Lincoln County,NC,90.3755868544601,NA,NA
28208,Mecklenburg County,NC,9.859154929577464,NA,NA
28269,Mecklenburg County,NC,NA,25.661914460285136,NA
28337,Bladen County,NC,NA,61.91446028513238,NA
28384,Bladen County,NC,NA,NA,92.43986254295532
28387,Moore County,NC,NA,80.04073319755601,NA
28540,Onslow County,NC,NA,NA,35.051546391752574
28557,Carteret County,NC,NA,NA,56.70103092783505
28650,Catawba County,NC,NA,81.67006109979633,NA
28655,Burke County,NC,NA,NA,10.996563573883162
28673,Catawba County,NC,90.84507042253522,NA,NA
28806,Buncombe County,NC,NA,NA,36.42611683848797
28906,Cherokee County,NC,NA,27.08757637474542,NA
58501,Burleigh County,ND,NA,NA,11.683848797250858
58701,Ward County,ND,NA,8.961303462321792,NA
58854,McKenzie County,ND,88.96713615023474,NA,NA
43004,Franklin County,OH,40.140845070422536,NA,NA
43016,Franklin County,OH,NA,NA,87.97250859106529
43019,Knox County,OH,NA,NA,76.28865979381443
43055,Licking County,OH,2.8169014084507045,NA,NA
43062,Licking County,OH,68.07511737089203,NA,NA
43065,Delaware County,OH,NA,27.494908350305497,NA
43068,Franklin County,OH,NA,10.386965376782078,NA
43113,Pickaway County,OH,NA,11.201629327902241,NA
43130,Fairfield County,OH,NA,2.8513238289205702,NA
43204,Franklin County,OH,NA,NA,45.017182130584196
43207,Franklin County,OH,NA,6.720977596741344,NA
43209,Franklin County,OH,NA,32.382892057026474,NA
43211,Franklin County,OH,NA,31.364562118126273,NA
43220,Franklin County,OH,NA,NA,43.29896907216495
43229,Franklin County,OH,7.276995305164319,NA,NA
43235,Franklin County,OH,NA,32.586558044806516,NA
43315,Morrow County,OH,85.91549295774648,NA,NA
43334,Morrow County,OH,NA,NA,93.12714776632302
43402,Wood County,OH,20.89201877934272,NA,NA
43611,Lucas County,OH,NA,NA,59.106529209621996
43615,Lucas County,OH,4.225352112676056,4.480651731160896,NA
43616,Lucas County,OH,NA,NA,63.230240549828174
43701,Muskingum County,OH,NA,NA,2.0618556701030926
43725,Guernsey County,OH,44.36619718309859,NA,NA
43832,Tuscarawas County,OH,NA,NA,84.19243986254295
43920,Columbiana County,OH,NA,9.979633401221996,NA
43953,Jefferson County,OH,31.220657276995308,24.236252545824847,NA
44012,Lorain County,OH,NA,NA,9.278350515463918
44035,Lorain County,OH,0.9389671361502347,NA,0.6872852233676976
44081,Lake County,OH,NA,NA,79.03780068728523
44087,Summit County,OH,39.671361502347416,NA,NA
44107,Cuyahoga County,OH,3.051643192488263,NA,NA
44112,Cuyahoga County,OH,NA,NA,22.68041237113402
44116,Cuyahoga County,OH,NA,81.26272912423626,NA
44118,Cuyahoga County,OH,38.26291079812207,NA,5.498281786941581
44121,Cuyahoga County,OH,NA,43.78818737270876,NA
44128,Cuyahoga County,OH,NA,NA,18.900343642611684
44129,Cuyahoga County,OH,15.258215962441316,NA,24.054982817869416
44130,Cuyahoga County,OH,5.164319248826291,NA,NA
44136,Cuyahoga County,OH,NA,8.350305498981669,NA
44137,Cuyahoga County,OH,6.807511737089202,NA,NA
44143,Cuyahoga County,OH,NA,47.25050916496945,2.405498281786942
44212,Medina County,OH,NA,8.757637474541752,NA
44221,Summit County,OH,14.788732394366196,NA,NA
44266,Portage County,OH,9.15492957746479,NA,6.529209621993128
44310,Summit County,OH,NA,20.977596741344197,NA
44402,Trumbull County,OH,97.88732394366197,NA,NA
44408,Columbiana County,OH,NA,NA,54.63917525773196
44420,Trumbull County,OH,92.25352112676056,NA,NA
44446,Trumbull County,OH,NA,16.700610997963338,NA
44473,Trumbull County,OH,94.36619718309859,NA,NA
44504,Mahoning County,OH,97.41784037558685,NA,NA
44646,Stark County,OH,10.093896713615024,NA,NA
44662,Stark County,OH,NA,59.877800407331975,NA
44708,Stark County,OH,NA,NA,23.02405498281787
44805,Ashland County,OH,NA,4.887983706720977,NA
44839,Erie County,OH,NA,NA,32.64604810996563
44857,Huron County,OH,22.535211267605636,NA,NA
44903,Richland County,OH,NA,18.533604887983707,NA
44907,Richland County,OH,NA,29.124236252545828,NA
45011,Butler County,OH,3.755868544600939,NA,NA
45014,Butler County,OH,NA,54.989816700610994,NA
45040,Warren County,OH,NA,71.4867617107943,NA
45121,Brown County,OH,NA,82.28105906313645,NA
45133,Highland County,OH,19.718309859154928,NA,NA
45157,Clermont County,OH,78.87323943661971,NA,NA
45249,Hamilton County,OH,91.78403755868545,NA,NA
45309,Montgomery County,OH,NA,60.08146639511202,NA
45426,Montgomery County,OH,NA,NA,58.4192439862543
45429,Montgomery County,OH,42.25352112676056,NA,NA
45449,Montgomery County,OH,35.44600938967136,NA,NA
45459,Montgomery County,OH,NA,57.63747454175153,NA
45502,Clark County,OH,NA,57.841140529531565,NA
45601,Ross County,OH,NA,NA,0.3436426116838488
45623,Gallia County,OH,NA,96.94501018329939,NA
45661,Pike County,OH,NA,43.17718940936864,NA
45807,Allen County,OH,NA,63.951120162932796,NA
45840,Hancock County,OH,NA,3.2586558044806515,NA
45843,Hardin County,OH,NA,98.16700610997964,NA
73044,Logan County,OK,NA,12.423625254582484,NA
73072,Cleveland County,OK,NA,64.15478615071282,NA
73159,Oklahoma County,OK,NA,63.543788187372705,NA
73170,Cleveland County,OK,NA,NA,10.652920962199312
73533,Stephens County,OK,21.5962441314554,NA,NA
74006,Washington County,OK,NA,37.06720977596741,NA
74011,Tulsa County,OK,65.96244131455398,NA,NA
74017,Rogers County,OK,NA,NA,29.896907216494846
74055,Tulsa County,OK,79.81220657276995,NA,NA
74066,Creek County,OK,30.046948356807512,NA,NA
74135,Tulsa County,OK,NA,42.36252545824847,NA
74403,Muskogee County,OK,32.629107981220656,NA,NA
74429,Wagoner County,OK,NA,NA,75.94501718213058
74462,Haskell County,OK,NA,NA,81.09965635738831
74864,Lincoln County,OK,NA,NA,74.5704467353952
97006,Washington County,OR,29.107981220657276,NA,NA
97007,Washington County,OR,33.098591549295776,NA,NA
97068,Clackamas County,OR,NA,57.841140529531565,NA
97123,Washington County,OR,NA,14.052953156822811,NA
97146,Clatsop County,OR,NA,73.72708757637476,NA
97201,Multnomah County,OR,97.65258215962442,NA,NA
97219,Multnomah County,OR,57.981220657277,NA,NA
97223,Washington County,OR,NA,22.403258655804482,NA
97402,Lane County,OR,19.483568075117372,NA,NA
97470,Douglas County,OR,NA,23.421588594704684,NA
97504,Jackson County,OR,NA,NA,5.154639175257731
15010,Beaver County,PA,53.286384976525824,NA,NA
15068,Westmoreland County,PA,NA,39.5112016293279,NA
15074,Beaver County,PA,NA,57.23014256619145,NA
15085,Westmoreland County,PA,88.02816901408451,NA,NA
15116,Allegheny County,PA,NA,85.94704684317719,NA
15129,Allegheny County,PA,NA,NA,82.13058419243985
15143,Allegheny County,PA,74.64788732394366,NA,NA
15145,Allegheny County,PA,86.3849765258216,NA,NA
15205,Allegheny County,PA,46.478873239436616,NA,NA
15207,Allegheny County,PA,57.27699530516433,NA,NA
15238,Allegheny County,PA,NA,49.89816700610998,NA
15317,Washington County,PA,27.93427230046948,NA,18.213058419243985
15401,Fayette County,PA,NA,NA,9.965635738831615
15642,Westmoreland County,PA,NA,6.109979633401222,NA
15666,Westmoreland County,PA,NA,NA,50.51546391752577
15801,Clearfield County,PA,8.215962441314554,NA,NA
15834,Cameron County,PA,NA,NA,90.03436426116839
15851,Jefferson County,PA,70.65727699530517,NA,NA
16046,Butler County,PA,87.08920187793427,NA,NA
16066,Butler County,PA,NA,36.86354378818738,NA
16354,Crawford County,PA,NA,68.63543788187373,NA
16428,Erie County,PA,NA,NA,88.31615120274914
16601,Blair County,PA,9.624413145539906,NA,NA
16602,Blair County,PA,12.910798122065728,NA,77.66323024054984
16635,Blair County,PA,NA,NA,68.04123711340206
16646,Cambria County,PA,NA,99.79633401221996,NA
16743,McKean County,PA,NA,92.4643584521385,NA
16823,Centre County,PA,NA,50.30549898167006,NA
17015,Cumberland County,PA,NA,28.5132382892057,NA
17038,Lebanon County,PA,NA,NA,90.03436426116839
17050,Cumberland County,PA,NA,9.775967413441954,NA
17065,Cumberland County,PA,NA,91.85336048879837,NA
17103,Dauphin County,PA,NA,NA,92.09621993127148
17109,Dauphin County,PA,56.8075117370892,NA,NA
17202,Franklin County,PA,NA,NA,16.49484536082474
17257,Cumberland County,PA,NA,23.828920570264767,NA
17313,York County,PA,NA,93.68635437881873,NA
17315,York County,PA,NA,14.460285132382891,NA
17344,Adams County,PA,98.12206572769952,NA,NA
17356,York County,PA,28.87323943661972,NA,NA
17368,York County,PA,76.29107981220658,NA,NA
17522,Lancaster County,PA,NA,10.79429735234216,NA
17584,Lancaster County,PA,NA,74.74541751527495,NA
17837,Union County,PA,77.46478873239437,38.90020366598778,NA
18067,Northampton County,PA,NA,NA,41.23711340206185
18091,Northampton County,PA,84.97652582159625,NA,NA
18337,Pike County,PA,NA,70.46843177189409,NA
18411,Lackawanna County,PA,NA,NA,80.41237113402062
18508,Lackawanna County,PA,NA,NA,61.512027491408936
18634,Luzerne County,PA,NA,75.76374745417516,NA
18704,Luzerne County,PA,NA,11.812627291242363,NA
18837,Bradford County,PA,99.29577464788733,NA,NA
19008,Delaware County,PA,50.23474178403756,NA,NA
19035,Montgomery County,PA,NA,99.18533604887983,NA
19054,Bucks County,PA,61.267605633802816,NA,NA
19061,Delaware County,PA,NA,36.04887983706721,NA
19073,Delaware County,PA,NA,31.975560081466398,NA
19111,Philadelphia County,PA,18.779342723004692,NA,NA
19119,Philadelphia County,PA,NA,17.718940936863543,NA
19126,Philadelphia County,PA,33.568075117370896,NA,NA
19144,Philadelphia County,PA,NA,9.572301425661914,NA
19148,Philadelphia County,PA,NA,47.04684317718941,NA
19320,Chester County,PA,NA,11.201629327902241,NA
19343,Chester County,PA,96.0093896713615,NA,NA
19380,Chester County,PA,NA,NA,4.4673539518900345
19464,Montgomery County,PA,NA,7.3319755600814664,NA
19512,Berks County,PA,59.859154929577464,NA,NA
19604,Berks County,PA,NA,33.604887983706725,NA
19608,Berks County,PA,27.464788732394368,NA,49.828178694158076
02864,Providence County,RI,NA,16.4969450101833,NA
02888,Kent County,RI,49.06103286384976,NA,NA
29316,Spartanburg County,SC,NA,30.549898167006113,NA
29341,Cherokee County,SC,NA,95.9266802443992,NA
29369,Spartanburg County,SC,NA,NA,81.78694158075601
29379,Union County,SC,NA,41.955193482688394,NA
29412,Charleston County,SC,33.33333333333333,NA,NA
29556,Williamsburg County,SC,NA,72.91242362525459,NA
29625,Anderson County,SC,NA,NA,53.608247422680414
29642,Pickens County,SC,NA,17.10794297352342,NA
29650,Greenville County,SC,NA,42.56619144602851,NA
29708,York County,SC,NA,64.76578411405295,NA
29730,York County,SC,18.30985915492958,NA,NA
29732,York County,SC,NA,NA,26.11683848797251
37066,Sumner County,TN,NA,NA,29.896907216494846
37073,Robertson County,TN,NA,72.70875763747455,NA
37115,Davidson County,TN,11.737089201877934,21.9959266802444,NA
37167,Rutherford County,TN,NA,23.014256619144604,NA
37174,Williamson County,TN,47.417840375586856,NA,NA
37207,Davidson County,TN,NA,NA,62.88659793814433
37323,Bradley County,TN,NA,50.509164969450104,NA
37327,Sequatchie County,TN,NA,65.17311608961303,NA
37367,Bledsoe County,TN,NA,66.39511201629328,NA
37650,Unicoi County,TN,60.093896713615024,NA,NA
37760,Jefferson County,TN,NA,76.57841140529531,NA
37769,Anderson County,TN,82.62910798122066,NA,NA
37804,Blount County,TN,NA,17.922606924643585,NA
37807,Union County,TN,NA,82.4847250509165,NA
37830,Anderson County,TN,NA,22.810590631364562,39.175257731958766
37919,Knox County,TN,53.52112676056338,NA,NA
38126,Shelby County,TN,NA,NA,99.65635738831615
38128,Shelby County,TN,19.014084507042252,NA,NA
38138,Shelby County,TN,87.08920187793427,NA,NA
38485,Wayne County,TN,82.86384976525821,NA,NA
38583,White County,TN,NA,NA,27.491408934707906
75001,Dallas County,TX,91.07981220657277,NA,NA
75002,Collin County,TX,22.065727699530516,NA,NA
75010,Denton County,TX,NA,79.0224032586558,NA
75028,Denton County,TX,55.16431924882629,NA,NA
75044,Dallas County,TX,NA,27.90224032586558,NA
75056,Denton County,TX,NA,31.160896130346234,NA
75077,Denton County,TX,42.72300469483568,NA,NA
75098,Collin County,TX,22.300469483568076,NA,NA
75160,Kaufman County,TX,63.84976525821596,NA,NA
75204,Dallas County,TX,59.38967136150235,NA,NA
75220,Dallas County,TX,NA,77.59674134419552,NA
75228,Dallas County,TX,NA,19.144602851323828,NA
75402,Hunt County,TX,NA,51.5274949083503,76.97594501718214
75501,Bowie County,TX,29.812206572769952,NA,NA
75647,Gregg County,TX,NA,NA,70.79037800687286
75684,Rusk County,TX,94.13145539906104,NA,NA
75703,Smith County,TX,30.751173708920188,NA,NA
75771,Smith County,TX,NA,68.0244399185336,NA
76021,Tarrant County,TX,NA,38.085539714867615,NA
76039,Tarrant County,TX,36.85446009389671,NA,NA
76053,Tarrant County,TX,NA,70.26476578411406,NA
76107,Tarrant County,TX,NA,57.0264765784114,NA
76110,Tarrant County,TX,NA,NA,58.76288659793815
76118,Tarrant County,TX,NA,NA,95.53264604810997
76234,Wise County,TX,NA,86.9653767820774,NA
76244,Tarrant County,TX,NA,52.342158859470466,NA
76309,Wichita County,TX,NA,NA,91.40893470790378
76367,Wichita County,TX,91.31455399061032,NA,NA
76574,Williamson County,TX,48.59154929577465,NA,NA
76667,Limestone County,TX,56.33802816901409,NA,NA
77022,Harris County,TX,NA,51.73116089613035,NA
77041,Harris County,TX,NA,36.65987780040733,NA
77059,Harris County,TX,NA,62.52545824847251,NA
77064,Harris County,TX,NA,39.307535641547865,NA
77095,Harris County,TX,17.370892018779344,NA,NA
77099,Harris County,TX,NA,34.82688391038696,NA
77356,Montgomery County,TX,NA,35.234215885947044,NA
77372,Montgomery County,TX,NA,NA,97.2508591065292
77375,Harris County,TX,NA,NA,50.171821305841924
77377,Harris County,TX,NA,NA,51.890034364261176
77382,Montgomery County,TX,64.55399061032864,87.78004073319755,NA
77386,Montgomery County,TX,34.50704225352113,NA,NA
77505,Harris County,TX,NA,NA,87.62886597938144
77536,Harris County,TX,NA,NA,57.388316151202744
77546,Galveston County,TX,NA,10.590631364562118,NA
77630,Orange County,TX,39.201877934272304,NA,NA
77705,Jefferson County,TX,NA,64.35845213849288,NA
77833,Washington County,TX,NA,NA,55.32646048109966
78130,Comal County,TX,NA,19.34826883910387,NA
78218,Bexar County,TX,NA,52.74949083503056,NA
78221,Bexar County,TX,NA,49.490835030549896,NA
78223,Bexar County,TX,NA,NA,35.39518900343643
78260,Bexar County,TX,81.45539906103286,NA,NA
78412,Nueces County,TX,NA,86.15071283095723,NA
78521,Cameron County,TX,NA,NA,14.432989690721648
78589,Hidalgo County,TX,NA,33.80855397148676,NA
78640,Hays County,TX,NA,74.54175152749491,NA
78645,Travis County,TX,NA,NA,71.47766323024055
78724,Travis County,TX,72.30046948356808,NA,NA
78754,Travis County,TX,80.75117370892019,NA,NA
79110,Randall County,TX,65.25821596244131,NA,NA
79705,Midland County,TX,25.586854460093893,NA,NA
79707,Midland County,TX,NA,42.973523421588595,NA
79756,Ward County,TX,NA,NA,69.7594501718213
79772,Reeves County,TX,NA,NA,92.78350515463917
84047,Salt Lake County,UT,NA,45.824847250509166,NA
84062,Utah County,UT,NA,NA,93.81443298969072
84084,Salt Lake County,UT,45.539906103286384,NA,NA
84094,Salt Lake County,UT,NA,NA,73.19587628865979
84102,Salt Lake County,UT,93.1924882629108,NA,NA
84121,Salt Lake County,UT,NA,50.91649694501018,NA
84741,Kane County,UT,NA,NA,98.28178694158075
84790,Washington County,UT,NA,12.016293279022404,NA
05468,Chittenden County,VT,NA,NA,64.94845360824742
05753,Addison County,VT,NA,74.13441955193483,NA
20165,Loudoun County,VA,68.7793427230047,NA,NA
22003,Fairfax County,VA,NA,NA,54.29553264604811
22030,Fairfax County,VA,29.342723004694836,NA,NA
22041,Fairfax County,VA,NA,NA,67.0103092783505
22204,Arlington County,VA,NA,46.23217922606925,NA
22551,Spotsylvania County,VA,NA,67.82077393075356,NA
22851,Page County,VA,NA,64.35845213849288,NA
22901,Albemarle County,VA,31.92488262910798,NA,NA
22973,Greene County,VA,NA,90.020366598778,NA
23227,Henrico County,VA,NA,NA,31.958762886597935
23235,Chesterfield County,VA,NA,44.39918533604888,NA
23434,Suffolk city,VA,46.244131455399064,NA,NA
23518,Norfolk city,VA,73.47417840375586,NA,NA
23602,Newport News city,VA,NA,NA,12.714776632302405
23666,Hampton city,VA,NA,75.15274949083503,NA
23803,Petersburg city,VA,NA,14.663951120162933,NA
24012,Roanoke city,VA,NA,40.122199592668025,NA
24019,Roanoke County,VA,NA,NA,47.07903780068728
24055,Henry County,VA,NA,71.07942973523421,NA
24060,Montgomery County,VA,NA,77.80040733197556,NA
24148,Henry County,VA,NA,95.31568228105907,NA
24211,Washington County,VA,NA,85.33604887983707,NA
24273,Norton city,VA,NA,NA,89.3470790378007
24370,Smyth County,VA,79.10798122065728,NA,NA
24450,Rockbridge County,VA,NA,53.360488798370675,NA
24502,Lynchburg city,VA,NA,45.41751527494908,NA
24541,Danville city,VA,NA,NA,40.20618556701031
24551,Bedford County,VA,84.03755868544602,NA,NA
98033,King County,WA,63.6150234741784,NA,NA
98037,Snohomish County,WA,61.97183098591549,NA,NA
98055,King County,WA,NA,70.06109979633402,NA
98065,King County,WA,83.80281690140845,NA,NA
98074,King County,WA,86.61971830985915,NA,NA
98155,King County,WA,NA,39.71486761710794,NA
98168,King County,WA,30.985915492957744,NA,NA
98198,King County,WA,NA,26.680244399185337,NA
98203,Snohomish County,WA,46.478873239436616,NA,NA
98273,Skagit County,WA,NA,15.071283095723015,NA
98310,Kitsap County,WA,NA,NA,45.70446735395189
98329,Pierce County,WA,75.11737089201877,NA,NA
98406,Pierce County,WA,85.68075117370893,NA,NA
98422,Pierce County,WA,61.737089201877936,NA,NA
98577,Pacific County,WA,NA,NA,76.6323024054983
98584,Mason County,WA,33.80281690140845,NA,NA
98589,Thurston County,WA,NA,NA,97.59450171821305
98661,Clark County,WA,NA,NA,42.955326460481096
98951,Yakima County,WA,NA,89.61303462321793,NA
99201,Spokane County,WA,NA,81.05906313645622,NA
99301,Franklin County,WA,NA,7.535641547861507,NA
99350,Benton County,WA,NA,88.18737270875764,NA
99353,Benton County,WA,67.37089201877934,NA,NA
99362,Walla Walla County,WA,NA,NA,12.371134020618557
20001,District of Columbia,DC,19.953051643192488,NA,NA
20008,District of Columbia,DC,81.45539906103286,NA,NA
20010,District of Columbia,DC,51.87793427230047,NA,NA
20015,District of Columbia,DC,86.85446009389672,NA,NA
20024,District of Columbia,DC,NA,NA,84.5360824742268
25271,Jackson County,WV,NA,61.30346232179226,NA
25313,Kanawha County,WV,NA,49.490835030549896,NA
25404,Berkeley County,WV,NA,39.103869653767816,NA
25414,Jefferson County,WV,NA,73.5234215885947,NA
25560,Putnam County,WV,NA,NA,75.60137457044674
26003,Ohio County,WV,NA,NA,3.7800687285223367
26101,Wood County,WV,5.633802816901409,NA,NA
26181,Wood County,WV,NA,89.0020366598778,NA
26505,Monongalia County,WV,NA,NA,20.618556701030926
26508,Monongalia County,WV,NA,NA,19.93127147766323
26554,Marion County,WV,NA,14.25661914460285,NA
53110,Milwaukee County,WI,NA,30.75356415478615,NA
53121,Walworth County,WI,43.1924882629108,NA,NA
53140,Kenosha County,WI,NA,22.19959266802444,NA
53142,Kenosha County,WI,NA,19.95926680244399,NA
53143,Kenosha County,WI,18.07511737089202,NA,NA
53149,Waukesha County,WI,NA,NA,65.29209621993127
53158,Kenosha County,WI,NA,26.272912423625254,NA
53206,Milwaukee County,WI,10.328638497652582,NA,NA
53227,Milwaukee County,WI,35.68075117370892,NA,NA
53511,Rock County,WI,2.112676056338028,0.20366598778004072,NA
53548,Rock County,WI,NA,23.625254582484725,NA
53711,Dane County,WI,NA,NA,16.151202749140893
53713,Dane County,WI,NA,58.65580448065173,NA
53805,Grant County,WI,96.47887323943662,NA,NA
54022,Pierce County,WI,NA,90.83503054989816,NA
54216,Kewaunee County,WI,NA,NA,96.21993127147766
54313,Brown County,WI,59.154929577464785,NA,NA
54455,Marathon County,WI,NA,65.78411405295316,NA
54494,Wood County,WI,NA,7.739307535641547,NA
54650,La Crosse County,WI,52.816901408450704,NA,NA
54729,Chippewa County,WI,31.690140845070424,NA,NA
54732,Chippewa County,WI,NA,100,NA
54755,Buffalo County,WI,92.48826291079813,NA,NA
54837,Polk County,WI,NA,92.05702647657841,NA
54868,Barron County,WI,NA,45.010183299389,NA
54901,Winnebago County,WI,NA,27.29124236252546,NA
54913,Outagamie County,WI,NA,83.70672097759673,NA
54914,Outagamie County,WI,NA,53.76782077393075,NA
54935,Fond du Lac County,WI,NA,NA,6.185567010309279
54937,Fond du Lac County,WI,42.95774647887324,NA,NA
54961,Waupaca County,WI,NA,46.02851323828921,NA
54981,Waupaca County,WI,NA,46.435845213849284,NA
82604,Natrona County,WY,80.28169014084507,NA,NA
82935,Sweetwater County,WY,NA,81.4663951120163,NA
