ZipCode,county,state,Youth,Adult,Retirement,Geriatric
35010,Tallapoosa County,AL,NA,NA,26.335040234089245,NA
35016,Marshall County,AL,NA,NA,NA,39.4150417827298
35022,Jefferson County,AL,NA,31.94087403598972,NA,NA
35031,Blount County,AL,NA,NA,NA,76.88022284122563
35080,Shelby County,AL,NA,49.421593830334196,NA,NA
35096,Talladega County,AL,NA,NA,NA,89.27576601671309
35118,Jefferson County,AL,NA,NA,91.58741770299926,NA
35120,St. Clair County,AL,NA,NA,66.13021214337967,NA
35121,Blount County,AL,NA,NA,NA,60.16713091922006
35124,Shelby County,AL,44.9438202247191,NA,NA,NA
35150,Talladega County,AL,NA,33.41902313624679,NA,NA
35211,Jefferson County,AL,NA,38.49614395886889,NA,NA
35216,Jefferson County,AL,NA,NA,40.23408924652524,NA
35218,Jefferson County,AL,NA,84.96143958868895,NA,NA
35242,Shelby County,AL,NA,25.70694087403599,36.649597659107535,30.501392757660167
35244,Jefferson County,AL,NA,NA,64.66715435259692,NA
35401,Tuscaloosa County,AL,NA,49.293059125964014,NA,NA
35405,Tuscaloosa County,AL,NA,NA,35.40599853694221,NA
35475,Tuscaloosa County,AL,NA,66.83804627249359,NA,NA
35555,Fayette County,AL,NA,75.96401028277636,NA,NA
35570,Marion County,AL,NA,55.398457583547554,NA,NA
35601,Morgan County,AL,NA,10.218508997429305,NA,NA
35603,Morgan County,AL,22.47191011235955,12.660668380462726,NA,NA
35611,Limestone County,AL,NA,19.473007712082264,NA,NA
35613,Limestone County,AL,NA,NA,NA,58.495821727019504
35614,Limestone County,AL,NA,62.40359897172236,NA,NA
35616,Colbert County,AL,NA,98.97172236503856,NA,NA
35630,Lauderdale County,AL,NA,24.614395886889458,NA,NA
35640,Morgan County,AL,NA,27.76349614395887,NA,NA
35646,Colbert County,AL,NA,NA,NA,90.66852367688021
35653,Franklin County,AL,NA,NA,88.80760790051208,NA
35661,Colbert County,AL,NA,53.72750642673522,61.96049743964886,NA
35670,Morgan County,AL,63.29588014981273,NA,NA,NA
35750,Madison County,AL,NA,83.16195372750641,NA,NA
35754,Morgan County,AL,NA,81.16966580976865,NA,NA
35758,Madison County,AL,NA,31.49100257069409,NA,NA
35810,Madison County,AL,NA,24.74293059125964,NA,NA
35906,Etowah County,AL,NA,NA,67.22750548646673,NA
35907,Etowah County,AL,73.40823970037454,NA,NA,NA
35951,Marshall County,AL,NA,NA,68.03218727139722,NA
35952,Etowah County,AL,NA,NA,84.85735186539868,NA
35957,Marshall County,AL,NA,38.688946015424165,NA,NA
35967,DeKalb County,AL,NA,NA,59.47329919531822,NA
36078,Elmore County,AL,NA,NA,NA,74.93036211699165
36091,Chilton County,AL,NA,NA,NA,97.49303621169916
36092,Elmore County,AL,NA,38.239074550128535,NA,NA
36108,Montgomery County,AL,NA,NA,56.035113386978786,NA
36117,Montgomery County,AL,NA,26.9280205655527,NA,NA
36203,Calhoun County,AL,NA,41.83804627249357,NA,NA
36206,Calhoun County,AL,49.43820224719101,NA,NA,NA
36266,Clay County,AL,NA,NA,82.44330651060717,NA
36305,Houston County,AL,NA,NA,53.10899780541332,NA
36330,Coffee County,AL,NA,NA,97.36649597659107,NA
36426,Escambia County,AL,NA,NA,NA,95.40389972144847
36451,Clarke County,AL,NA,NA,NA,92.20055710306406
36502,Escambia County,AL,NA,NA,65.91075347476225,NA
36526,Baldwin County,AL,NA,67.54498714652956,NA,NA
36532,Baldwin County,AL,NA,NA,NA,20.61281337047354
36535,Baldwin County,AL,NA,36.43958868894602,NA,NA
36544,Mobile County,AL,NA,86.82519280205655,NA,NA
36575,Mobile County,AL,NA,NA,65.10607168983175,NA
36609,Mobile County,AL,70.4119850187266,NA,NA,NA
36613,Mobile County,AL,NA,72.30077120822622,NA,NA
36693,Mobile County,AL,68.16479400749064,NA,NA,NA
36695,Mobile County,AL,NA,NA,24.798829553767373,NA
36784,Clarke County,AL,NA,96.72236503856041,NA,NA
36801,Lee County,AL,NA,NA,79.00512070226775,NA
36804,Lee County,AL,NA,49.228791773778916,NA,NA
36830,Lee County,AL,NA,55.398457583547554,NA,NA
36832,Lee County,AL,69.66292134831461,NA,NA,NA
36854,Chambers County,AL,NA,NA,79.66349670811998,NA
36863,Chambers County,AL,NA,NA,54.71836137527433,NA
36867,Russell County,AL,NA,NA,78.56620336503292,54.1782729805014
99501,Anchorage Municipality,AK,NA,16.516709511568124,NA,NA
99611,Kenai Peninsula Borough,AK,NA,NA,38.62472567666423,NA
99709,Fairbanks North Star Borough,AK,NA,84.83290488431876,NA,NA
99901,Ketchikan Gateway Borough,AK,NA,34.447300771208226,NA,NA
85003,Maricopa County,AZ,NA,NA,NA,92.47910863509749
85008,Maricopa County,AZ,NA,51.54241645244216,NA,NA
85009,Maricopa County,AZ,NA,35.9254498714653,NA,NA
85014,Maricopa County,AZ,NA,NA,46.89100219458668,NA
85033,Maricopa County,AZ,NA,NA,NA,58.63509749303621
85119,Pinal County,AZ,NA,58.09768637532133,NA,NA
85142,Maricopa County,AZ,NA,7.3907455012853465,NA,NA
85205,Maricopa County,AZ,26.96629213483146,NA,NA,NA
85210,Maricopa County,AZ,NA,17.2879177377892,NA,NA
85268,Maricopa County,AZ,NA,NA,74.25018288222385,NA
85301,Maricopa County,AZ,3.7453183520599254,NA,NA,NA
85350,Yuma County,AZ,NA,NA,56.035113386978786,NA
85353,Maricopa County,AZ,NA,54.048843187660665,NA,NA
85364,Yuma County,AZ,NA,NA,NA,22.284122562674096
85375,Maricopa County,AZ,NA,NA,17.62984637893197,NA
85379,Maricopa County,AZ,NA,24.22879177377892,48.28090709583029,NA
85381,Maricopa County,AZ,NA,84.25449871465295,NA,NA
85501,Gila County,AZ,NA,NA,54.572055596196044,NA
85544,Gila County,AZ,NA,NA,86.17410387710315,NA
85550,Graham County,AZ,NA,94.47300771208226,NA,NA
85614,Pima County,AZ,NA,NA,15.947329919531821,NA
85631,Pinal County,AZ,NA,NA,99.19531821506949,NA
85704,Pima County,AZ,62.92134831460674,NA,NA,NA
85710,Pima County,AZ,NA,NA,NA,48.05013927576602
85711,Pima County,AZ,NA,NA,56.474030724213605,NA
85712,Pima County,AZ,NA,16.131105398457585,NA,NA
85716,Pima County,AZ,NA,NA,20.99487929773226,NA
85718,Pima County,AZ,NA,49.16452442159383,NA,17.548746518105848
85730,Pima County,AZ,NA,NA,NA,71.03064066852369
85741,Pima County,AZ,NA,NA,67.08119970738844,NA
85745,Pima County,AZ,NA,NA,61.887344550109724,NA
85746,Pima County,AZ,NA,9.383033419023135,NA,69.08077994428969
85757,Pima County,AZ,NA,20.69408740359897,NA,NA
86045,Coconino County,AZ,NA,NA,31.163130943672275,NA
86047,Navajo County,AZ,NA,NA,72.86027798098024,NA
86303,Yavapai County,AZ,NA,NA,NA,42.4791086350975
86314,Yavapai County,AZ,NA,39.84575835475578,NA,NA
86322,Yavapai County,AZ,NA,43.573264781491,NA,NA
86323,Yavapai County,AZ,NA,NA,50.32918800292612,NA
86324,Yavapai County,AZ,NA,93.38046272493573,NA,90.5292479108635
86336,Yavapai County,AZ,NA,NA,NA,56.54596100278552
86351,Yavapai County,AZ,NA,88.4318766066838,NA,NA
86401,Mohave County,AZ,NA,NA,6.876371616678859,NA
86409,Mohave County,AZ,86.14232209737828,NA,NA,19.77715877437326
86442,Mohave County,AZ,NA,21.52956298200514,9.36356986100951,NA
86503,Apache County,AZ,NA,28.14910025706941,NA,NA
86510,Navajo County,AZ,NA,48.00771208226221,NA,NA
71852,Howard County,AR,NA,71.2082262210797,NA,NA
71913,Garland County,AR,NA,NA,67.88588149231894,37.88300835654596
71923,Clark County,AR,NA,86.69665809768638,NA,NA
71953,Polk County,AR,NA,70.24421593830334,42.86759326993416,NA
72007,Lonoke County,AR,NA,NA,79.44403803950256,NA
72015,Saline County,AR,47.19101123595505,NA,NA,NA
72019,Saline County,AR,NA,NA,NA,63.788300835654596
72031,Van Buren County,AR,NA,NA,NA,76.88022284122563
72032,Faulkner County,AR,NA,59.96143958868895,NA,NA
72034,Faulkner County,AR,NA,43.18766066838046,NA,NA
72046,Lonoke County,AR,NA,NA,85.00365764447696,NA
72067,Cleburne County,AR,NA,NA,NA,86.62952646239555
72076,Pulaski County,AR,NA,NA,NA,42.618384401114206
72118,Pulaski County,AR,NA,52.120822622107966,49.3050475493782,NA
72173,Faulkner County,AR,NA,NA,83.32114118507681,NA
72210,Pulaski County,AR,NA,79.69151670951156,NA,NA
72401,Craighead County,AR,NA,NA,33.869787856620334,NA
72404,Craighead County,AR,NA,42.159383033419026,63.862472567666416,NA
72450,Greene County,AR,NA,43.89460154241645,20.263350402340894,NA
72501,Independence County,AR,33.70786516853933,NA,20.409656181419166,NA
72521,Sharp County,AR,NA,98.39331619537275,NA,NA
72543,Cleburne County,AR,NA,76.73521850899743,NA,NA
72601,Boone County,AR,NA,NA,86.32040965618143,NA
72631,Carroll County,AR,NA,NA,NA,85.79387186629526
72736,Benton County,AR,85.0187265917603,NA,NA,NA
72761,Benton County,AR,NA,97.55784061696659,82.07754206291149,NA
72801,Pope County,AR,NA,71.0796915167095,NA,NA
72901,Sebastian County,AR,NA,45.24421593830334,60.71689831748353,NA
72903,Sebastian County,AR,NA,NA,NA,45.543175487465184
72908,Sebastian County,AR,NA,71.97943444730078,NA,63.091922005571035
72921,Crawford County,AR,NA,68.31619537275064,NA,NA
90001,Los Angeles County,CA,NA,NA,NA,47.353760445682454
90012,Los Angeles County,CA,NA,NA,42.794440380395024,NA
90016,Los Angeles County,CA,NA,88.81748071979433,NA,NA
90019,Los Angeles County,CA,NA,33.74035989717223,NA,NA
90024,Los Angeles County,CA,NA,NA,NA,5.710306406685237
90025,Los Angeles County,CA,NA,90.42416452442158,NA,8.495821727019498
90028,Los Angeles County,CA,NA,NA,NA,33.56545961002785
90029,Los Angeles County,CA,NA,NA,NA,30.779944289693596
90033,Los Angeles County,CA,NA,NA,NA,36.768802228412255
90034,Los Angeles County,CA,NA,NA,NA,61.55988857938719
90035,Los Angeles County,CA,NA,NA,28.52962692026335,NA
90044,Los Angeles County,CA,NA,23.0719794344473,NA,NA
90046,Los Angeles County,CA,NA,43.637532133676096,NA,NA
90049,Los Angeles County,CA,NA,NA,NA,18.662952646239557
90059,Los Angeles County,CA,NA,28.14910025706941,NA,NA
90065,Los Angeles County,CA,NA,NA,59.47329919531822,NA
90066,Los Angeles County,CA,NA,NA,26.0424286759327,NA
90068,Los Angeles County,CA,NA,76.99228791773778,NA,NA
90210,Los Angeles County,CA,NA,NA,NA,16.991643454038996
90249,Los Angeles County,CA,NA,NA,87.4908558888076,NA
90275,Los Angeles County,CA,NA,NA,NA,7.381615598885793
90501,Los Angeles County,CA,NA,NA,46.817849305047545,NA
90503,Los Angeles County,CA,NA,66.32390745501286,NA,NA
90505,Los Angeles County,CA,NA,NA,32.04096561814191,NA
90631,Orange County,CA,NA,NA,70.73884418434528,19.498607242339833
90638,Los Angeles County,CA,NA,NA,NA,24.233983286908078
90660,Los Angeles County,CA,NA,21.91516709511568,59.76591075347476,NA
90802,Los Angeles County,CA,NA,NA,56.32772494513534,NA
90805,Los Angeles County,CA,NA,65.55269922879178,18.800292611558156,42.89693593314763
90806,Los Angeles County,CA,NA,NA,46.15947329919532,NA
91001,Los Angeles County,CA,NA,NA,61.00950987564009,NA
91007,Los Angeles County,CA,NA,NA,73.66495976591075,NA
91042,Los Angeles County,CA,NA,NA,NA,67.68802228412257
91201,Los Angeles County,CA,NA,NA,NA,51.392757660167135
91203,Los Angeles County,CA,NA,NA,96.4155084125823,NA
91205,Los Angeles County,CA,NA,NA,NA,51.949860724233986
91302,Los Angeles County,CA,NA,NA,66.71543525969275,NA
91311,Los Angeles County,CA,NA,NA,41.916605705925384,NA
91316,Los Angeles County,CA,NA,NA,43.59912216532553,NA
91354,Los Angeles County,CA,NA,NA,69.64155084125822,NA
91401,Los Angeles County,CA,NA,53.98457583547558,NA,NA
91402,Los Angeles County,CA,NA,NA,NA,25.348189415041784
91606,Los Angeles County,CA,NA,50.06426735218509,NA,NA
91723,Los Angeles County,CA,NA,85.02570694087403,NA,NA
91761,San Bernardino County,CA,NA,NA,26.627651792245793,NA
91764,San Bernardino County,CA,NA,NA,49.96342355523043,NA
91766,Los Angeles County,CA,NA,33.54755784061697,36.35698610095099,NA
91941,San Diego County,CA,NA,NA,67.52011704462326,NA
92004,San Diego County,CA,NA,NA,93.050475493782,NA
92019,San Diego County,CA,NA,NA,NA,31.197771587743734
92024,San Diego County,CA,NA,33.868894601542415,NA,NA
92028,San Diego County,CA,NA,NA,40.08778346744696,NA
92029,San Diego County,CA,NA,NA,64.30138990490124,NA
92104,San Diego County,CA,NA,73.52185089974293,NA,NA
92122,San Diego County,CA,NA,NA,55.523043160204836,NA
92126,San Diego County,CA,NA,NA,NA,79.94428969359332
92129,San Diego County,CA,NA,NA,38.47841989758595,NA
92252,San Bernardino County,CA,NA,NA,71.25091441111924,94.42896935933148
92260,Riverside County,CA,NA,NA,NA,0.9749303621169917
92262,Riverside County,CA,NA,16.066838046272494,NA,NA
92270,Riverside County,CA,NA,NA,7.681053401609364,NA
92284,San Bernardino County,CA,NA,20.5012853470437,NA,NA
92313,San Bernardino County,CA,NA,NA,NA,88.71866295264624
92324,San Bernardino County,CA,NA,15.231362467866324,NA,NA
92335,San Bernardino County,CA,NA,7.069408740359898,NA,NA
92336,San Bernardino County,CA,NA,29.691516709511568,NA,NA
92377,San Bernardino County,CA,NA,67.86632390745501,NA,NA
92407,San Bernardino County,CA,NA,41.131105398457585,NA,NA
92506,Riverside County,CA,NA,NA,33.50402340892465,NA
92509,Riverside County,CA,NA,17.60925449871465,28.749085588880764,NA
92586,Riverside County,CA,NA,67.9948586118252,NA,NA
92595,Riverside County,CA,62.546816479400746,NA,NA,NA
92620,Orange County,CA,NA,NA,34.52816386247257,NA
92660,Orange County,CA,45.31835205992509,NA,NA,NA
92677,Orange County,CA,NA,54.56298200514139,32.260424286759324,NA
92679,Orange County,CA,NA,NA,50.62179956108266,NA
92692,Orange County,CA,NA,NA,19.60497439648866,34.401114206128135
92704,Orange County,CA,NA,NA,NA,64.62395543175488
92707,Orange County,CA,NA,NA,41.77029992684711,NA
92808,Orange County,CA,NA,NA,89.4659839063643,NA
92821,Orange County,CA,NA,NA,39.64886613021215,NA
92832,Orange County,CA,NA,NA,NA,62.39554317548747
92843,Orange County,CA,NA,30.719794344473005,NA,NA
92870,Orange County,CA,NA,NA,66.56912948061449,NA
92886,Orange County,CA,NA,24.357326478149098,NA,NA
93001,Ventura County,CA,NA,49.61439588688946,NA,NA
93010,Ventura County,CA,NA,27.44215938303342,NA,NA
93022,Ventura County,CA,NA,NA,NA,98.88579387186628
93033,Ventura County,CA,NA,8.740359897172237,NA,NA
93035,Ventura County,CA,NA,NA,78.3467446964155,NA
93101,Santa Barbara County,CA,NA,62.660668380462724,NA,NA
93212,Kings County,CA,NA,NA,77.76152158010241,NA
93245,Kings County,CA,NA,NA,93.48939283101683,NA
93268,Kern County,CA,NA,83.99742930591259,NA,NA
93272,Tulare County,CA,NA,NA,99.85369422092172,NA
93277,Tulare County,CA,NA,19.665809768637533,NA,NA
93306,Kern County,CA,NA,NA,NA,33.42618384401114
93311,Kern County,CA,NA,74.61439588688947,NA,NA
93314,Kern County,CA,76.77902621722846,NA,NA,NA
93405,San Luis Obispo County,CA,NA,NA,NA,84.54038997214485
93436,Santa Barbara County,CA,NA,71.52956298200515,NA,NA
93454,Santa Barbara County,CA,NA,24.48586118251928,NA,NA
93455,Santa Barbara County,CA,NA,25.642673521850902,NA,NA
93458,Santa Barbara County,CA,NA,NA,NA,82.31197771587743
93460,Santa Barbara County,CA,NA,NA,93.92831016825166,NA
93465,San Luis Obispo County,CA,NA,67.73778920308483,NA,NA
93535,Los Angeles County,CA,NA,27.95629820051414,NA,NA
93551,Los Angeles County,CA,NA,NA,45.06217995610827,NA
93555,Kern County,CA,NA,19.408740359897173,16.23994147768837,NA
93610,Madera County,CA,NA,NA,73.44550109729335,NA
93638,Madera County,CA,NA,NA,NA,43.31476323119777
93644,Madera County,CA,NA,NA,81.1265544989027,NA
93705,Fresno County,CA,NA,NA,NA,76.74094707520891
93706,Fresno County,CA,NA,NA,31.96781272860278,NA
93710,Fresno County,CA,NA,51.47814910025706,NA,NA
93722,Fresno County,CA,NA,6.298200514138817,NA,NA
93725,Fresno County,CA,NA,77.12082262210797,NA,NA
93727,Fresno County,CA,NA,52.31362467866324,NA,NA
93940,Monterey County,CA,NA,NA,NA,18.245125348189415
93955,Monterey County,CA,NA,NA,NA,56.54596100278552
94014,San Mateo County,CA,NA,82.96915167095116,NA,NA
94015,San Mateo County,CA,NA,NA,82.95537673738113,NA
94025,San Mateo County,CA,NA,41.131105398457585,92.46525237746891,NA
94043,Santa Clara County,CA,NA,NA,56.91294806144843,NA
94063,San Mateo County,CA,NA,35.411311053984576,NA,NA
94080,San Mateo County,CA,NA,NA,NA,2.6462395543175488
94086,Santa Clara County,CA,NA,NA,66.20336503291881,NA
94087,Santa Clara County,CA,NA,94.1516709511568,NA,NA
94102,San Francisco County,CA,NA,NA,6.437454279444038,NA
94103,San Francisco County,CA,NA,NA,14.191660570592537,NA
94110,San Francisco County,CA,NA,NA,76.22531089978054,NA
94111,San Francisco County,CA,NA,NA,NA,82.45125348189416
94112,San Francisco County,CA,NA,18.573264781491,NA,NA
94114,San Francisco County,CA,NA,39.7814910025707,NA,NA
94115,San Francisco County,CA,NA,65.3598971722365,NA,NA
94116,San Francisco County,CA,NA,NA,NA,10.027855153203342
94122,San Francisco County,CA,NA,NA,46.96415508412583,NA
94132,San Francisco County,CA,NA,NA,NA,32.86908077994429
94133,San Francisco County,CA,NA,NA,NA,53.62116991643454
94134,San Francisco County,CA,NA,31.876606683804624,NA,NA
94303,San Mateo County,CA,NA,64.78149100257069,NA,NA
94306,Santa Clara County,CA,NA,NA,56.83979517190929,NA
94502,Alameda County,CA,NA,NA,80.02926115581566,NA
94513,Contra Costa County,CA,NA,NA,19.312362838332113,NA
94515,Napa County,CA,NA,NA,NA,79.80501392757661
94517,Contra Costa County,CA,95.50561797752809,NA,NA,NA
94521,Contra Costa County,CA,NA,NA,30.870519385515728,NA
94523,Contra Costa County,CA,NA,NA,75.1280175566935,NA
94531,Contra Costa County,CA,NA,NA,40.81931236283833,NA
94536,Alameda County,CA,NA,25.51413881748072,NA,NA
94541,Alameda County,CA,NA,NA,14.923189465983908,NA
94550,Alameda County,CA,NA,40.03856041131105,NA,NA
94568,Alameda County,CA,NA,44.8586118251928,NA,NA
94577,Alameda County,CA,NA,NA,27.066569129480616,NA
94588,Alameda County,CA,NA,NA,NA,50.974930362116986
94590,Solano County,CA,NA,NA,21.141185076810533,NA
94591,Solano County,CA,NA,76.9280205655527,NA,NA
94603,Alameda County,CA,NA,39.39588688946015,NA,NA
94605,Alameda County,CA,NA,NA,18.06876371616679,NA
94618,Alameda County,CA,NA,NA,NA,58.91364902506964
94619,Alameda County,CA,NA,NA,NA,67.27019498607241
94706,Alameda County,CA,NA,NA,76.00585223116313,NA
94806,Contra Costa County,CA,NA,NA,47.40307242136064,NA
94901,Marin County,CA,NA,NA,76.9568397951719,NA
95008,Santa Clara County,CA,NA,NA,40.01463057790783,NA
95018,Santa Cruz County,CA,NA,NA,94.73299195318215,NA
95030,Santa Clara County,CA,NA,NA,87.92977322604243,NA
95035,Santa Clara County,CA,NA,66.13110539845758,37.60058522311631,NA
95046,Santa Clara County,CA,NA,NA,91.51426481346013,NA
95050,Santa Clara County,CA,NA,91.58097686375322,NA,NA
95110,Santa Clara County,CA,NA,71.40102827763496,NA,NA
95111,Santa Clara County,CA,NA,NA,78.49305047549379,NA
95120,Santa Clara County,CA,NA,77.6349614395887,NA,NA
95222,Calaveras County,CA,NA,NA,NA,62.53481894150418
95240,San Joaquin County,CA,NA,12.210796915167094,NA,NA
95247,Calaveras County,CA,NA,NA,NA,66.991643454038993
95330,San Joaquin County,CA,NA,NA,95.90343818580834,NA
95350,Stanislaus County,CA,NA,42.095115681233935,38.03950256035114,NA
95355,Stanislaus County,CA,NA,NA,7.754206291148501,NA
95356,Stanislaus County,CA,NA,33.933161953727506,NA,NA
95361,Stanislaus County,CA,NA,NA,24.579370885149963,NA
95368,Stanislaus County,CA,NA,85.9254498714653,NA,NA
95370,Tuolumne County,CA,NA,NA,59.91221653255303,NA
95389,Mariposa County,CA,NA,NA,92.61155815654718,NA
95391,San Joaquin County,CA,NA,NA,97.87856620336504,NA
95407,Sonoma County,CA,NA,50.38560411311054,NA,53.760445682451255
95423,Lake County,CA,NA,NA,NA,88.44011142061281
95476,Sonoma County,CA,NA,60.347043701799485,NA,NA
95531,Del Norte County,CA,NA,NA,NA,29.38718662952646
95608,Sacramento County,CA,NA,NA,15.72787125091441,NA
95621,Sacramento County,CA,NA,35.53984575835475,NA,NA
95624,Sacramento County,CA,49.812734082397,NA,NA,NA
95630,Sacramento County,CA,NA,NA,14.337966349670811,NA
95631,Placer County,CA,NA,NA,79.66349670811998,NA
95648,Placer County,CA,NA,NA,NA,31.615598885793872
95667,El Dorado County,CA,NA,25.835475578406168,NA,NA
95670,Sacramento County,CA,NA,NA,26.115581565471835,NA
95688,Solano County,CA,NA,NA,NA,38.579387186629525
95691,Yolo County,CA,NA,44.473007712082264,NA,NA
95776,Yolo County,CA,84.26966292134831,NA,NA,NA
95828,Sacramento County,CA,NA,NA,55.96196049743965,NA
95926,Butte County,CA,NA,NA,21.068032187271395,NA
95928,Butte County,CA,NA,NA,NA,21.58774373259053
95948,Butte County,CA,NA,NA,74.32333577176298,NA
95954,Butte County,CA,NA,33.9974293059126,NA,NA
95961,Yuba County,CA,NA,NA,56.32772494513534,NA
95966,Butte County,CA,NA,NA,48.866130212143375,NA
95969,Butte County,CA,NA,NA,6.291148500365765,NA
95973,Butte County,CA,NA,NA,19.312362838332113,NA
95991,Sutter County,CA,NA,22.493573264781492,NA,NA
95993,Sutter County,CA,NA,39.138817480719794,NA,NA
96021,Tehama County,CA,NA,63.303341902313626,NA,NA
96093,Trinity County,CA,NA,NA,86.83247988295537,NA
96094,Siskiyou County,CA,80.89887640449437,NA,NA,93.45403899721448
96101,Modoc County,CA,NA,95.88688946015425,NA,NA
96161,Nevada County,CA,81.27340823970037,91.51670951156812,NA,NA
80003,Jefferson County,CO,NA,89.65295629820051,NA,NA
80011,Arapahoe County,CO,NA,5.269922879177378,NA,NA
80013,Arapahoe County,CO,NA,7.326478149100257,NA,36.629526462395546
80016,Arapahoe County,CO,NA,17.159383033419022,NA,NA
80018,Arapahoe County,CO,NA,64.0745501285347,NA,NA
80033,Jefferson County,CO,NA,41.96658097686375,NA,NA
80108,Douglas County,CO,NA,NA,48.50036576444769,NA
80127,Jefferson County,CO,NA,NA,39.72201901975128,NA
80135,Douglas County,CO,100,NA,NA,NA
80205,Denver County,CO,NA,NA,26.847110460863206,NA
80214,Jefferson County,CO,NA,34.5758354755784,NA,NA
80221,Adams County,CO,NA,NA,42.42867593269934,NA
80238,Denver County,CO,NA,NA,88.14923189465983,NA
80241,Adams County,CO,65.1685393258427,NA,NA,NA
80246,Denver County,CO,NA,89.1388174807198,NA,NA
80301,Boulder County,CO,NA,NA,92.09948792977323,NA
80465,Jefferson County,CO,NA,75.6426735218509,NA,NA
80504,Boulder County,CO,NA,NA,19.751280175566936,NA
80516,Weld County,CO,NA,NA,51.49963423555231,NA
80524,Larimer County,CO,NA,24.10025706940874,NA,NA
80525,Larimer County,CO,NA,NA,51.86539868324799,NA
80526,Larimer County,CO,NA,57.71208226221079,NA,NA
80538,Larimer County,CO,NA,9.061696658097686,28.822238478419898,NA
80550,Weld County,CO,NA,90.68123393316195,NA,NA
80601,Adams County,CO,NA,NA,30.065837600585223,NA
80602,Adams County,CO,7.490636704119851,NA,NA,NA
80631,Weld County,CO,NA,5.976863753213368,NA,NA
80634,Weld County,CO,NA,NA,0.8046817849305048,NA
80701,Morgan County,CO,NA,NA,NA,71.3091922005571
80751,Logan County,CO,NA,NA,NA,55.84958217270195
80759,Yuma County,CO,NA,NA,97.43964886613021,NA
80906,El Paso County,CO,NA,NA,NA,81.19777158774373
80907,El Paso County,CO,NA,44.601542416452446,NA,NA
80910,El Paso County,CO,NA,18.830334190231362,NA,NA
80917,El Paso County,CO,NA,NA,72.93343087051939,NA
81001,Pueblo County,CO,NA,NA,NA,45.26462395543175
81003,Pueblo County,CO,NA,28.59897172236504,NA,NA
81004,Pueblo County,CO,NA,19.794344473007712,NA,NA
81050,Otero County,CO,NA,61.50385604113111,NA,NA
81122,La Plata County,CO,NA,NA,84.78419897585955,NA
81321,Montezuma County,CO,NA,NA,51.645940014630575,NA
81403,Montrose County,CO,NA,NA,95.17190929041696,NA
81504,Mesa County,CO,NA,NA,NA,82.17270194986072
81507,Mesa County,CO,NA,NA,81.7117776152158,NA
81601,Garfield County,CO,NA,68.12339331619538,NA,NA
81623,Garfield County,CO,NA,NA,92.68471104608632,NA
81625,Moffat County,CO,NA,32.455012853470436,NA,NA
81647,Garfield County,CO,NA,98.90745501285348,NA,NA
06002,Hartford County,CT,NA,40.93830334190231,23.847841989758596,NA
06010,Hartford County,CT,NA,NA,1.6825164594001463,NA
06029,Tolland County,CT,NA,48.26478149100257,NA,NA
06040,Hartford County,CT,NA,30.26992287917738,NA,22.00557103064067
06042,Hartford County,CT,NA,58.804627249357324,95.75713240673007,NA
06043,Tolland County,CT,NA,81.94087403598972,NA,NA
06051,Hartford County,CT,5.992509363295881,15.295629820051415,NA,NA
06052,Hartford County,CT,NA,NA,80.6876371616679,NA
06066,Tolland County,CT,34.45692883895131,NA,NA,NA
06082,Hartford County,CT,NA,NA,NA,11.977715877437326
06095,Hartford County,CT,NA,60.282776349614394,53.69422092172641,NA
06105,Hartford County,CT,NA,NA,NA,45.96100278551532
06106,Hartford County,CT,NA,34.70437017994858,NA,NA
06114,Hartford County,CT,NA,55.14138817480719,NA,NA
06234,Windham County,CT,NA,52.5706940874036,NA,NA
06238,Tolland County,CT,NA,57.84061696658098,NA,NA
06255,Windham County,CT,NA,63.94601542416453,NA,NA
06278,Windham County,CT,NA,95.11568123393316,NA,NA
06281,Windham County,CT,NA,85.66838046272494,NA,97.7715877437326
06410,New Haven County,CT,NA,NA,33.57717629846379,33.147632311977716
06450,New Haven County,CT,NA,3.5989717223650386,NA,NA
06451,New Haven County,CT,NA,19.28020565552699,NA,NA
06460,New Haven County,CT,NA,NA,41.038771031455745,NA
06484,Fairfield County,CT,NA,NA,NA,14.206128133704734
06489,Hartford County,CT,NA,NA,90.8558888076079,NA
06513,New Haven County,CT,NA,3.020565552699229,NA,NA
06515,New Haven County,CT,NA,23.26478149100257,NA,NA
06516,New Haven County,CT,16.10486891385768,23.65038560411311,NA,NA
06518,New Haven County,CT,NA,NA,66.49597659107535,NA
06519,New Haven County,CT,NA,18.059125964010285,NA,NA
06604,Fairfield County,CT,NA,NA,28.456474030724216,NA
06606,Fairfield County,CT,NA,41.38817480719794,NA,NA
06607,Fairfield County,CT,NA,70.69408740359897,NA,NA
06615,Fairfield County,CT,NA,NA,75.85954645208486,NA
06704,New Haven County,CT,NA,16.838046272493575,NA,NA
06705,New Haven County,CT,NA,NA,53.84052670080468,NA
06770,New Haven County,CT,NA,18.50899742930591,NA,NA
06801,Fairfield County,CT,NA,80.0771208226221,NA,NA
06850,Fairfield County,CT,NA,92.48071979434447,NA,NA
06897,Fairfield County,CT,NA,64.7172236503856,NA,NA
06902,Fairfield County,CT,NA,15.809768637532134,33.94294074615947,NA
06906,Fairfield County,CT,NA,NA,NA,84.958217270195
19701,New Castle County,DE,NA,NA,13.825896122896856,NA
19702,New Castle County,DE,NA,11.889460154241645,NA,NA
19707,New Castle County,DE,NA,95.5012853470437,NA,NA
19713,New Castle County,DE,NA,52.5706940874036,NA,NA
19720,New Castle County,DE,NA,2.377892030848329,NA,NA
19801,New Castle County,DE,NA,NA,81.34601316752011,NA
19901,Kent County,DE,NA,55.71979434447301,NA,NA
19934,Kent County,DE,NA,92.22365038560412,NA,NA
19950,Sussex County,DE,95.13108614232209,73.90745501285348,NA,NA
19966,Sussex County,DE,NA,NA,7.973664959765911,NA
19973,Sussex County,DE,NA,NA,64.74030724213607,NA
19975,Sussex County,DE,NA,82.6478149100257,NA,NA
32038,Columbia County,FL,NA,66.70951156812339,NA,NA
32064,Suwannee County,FL,NA,NA,NA,95.82172701949861
32065,Clay County,FL,NA,NA,NA,65.041782729805007
32068,Clay County,FL,NA,8.933161953727506,NA,NA
32087,Baker County,FL,NA,85.8611825192802,NA,NA
32092,St. Johns County,FL,NA,44.023136246786635,NA,NA
32119,Volusia County,FL,NA,NA,42.282370153621066,NA
32129,Volusia County,FL,NA,61.24678663239075,NA,77.43732590529248
32136,Flagler County,FL,NA,NA,NA,63.50974930362116
32162,Sumter County,FL,NA,NA,1.1704462326261889,NA
32207,Duval County,FL,55.80524344569289,NA,33.796634967081204,NA
32209,Duval County,FL,NA,65.10282776349614,NA,NA
32210,Duval County,FL,NA,2.827763496143959,NA,NA
32216,Duval County,FL,NA,13.881748071979436,NA,NA
32218,Duval County,FL,NA,14.781491002570693,NA,NA
32244,Duval County,FL,NA,3.534704370179949,NA,NA
32246,Duval County,FL,NA,12.275064267352185,NA,NA
32254,Duval County,FL,NA,NA,60.20482809070958,90.94707520891365
32256,Duval County,FL,NA,NA,NA,55.43175487465181
32258,Duval County,FL,NA,NA,27.65179224579371,NA
32259,St. Johns County,FL,NA,NA,29.04169714703731,NA
32351,Gadsden County,FL,NA,NA,78.85881492318947,NA
32401,Bay County,FL,NA,NA,85.2962692026335,NA
32425,Holmes County,FL,NA,69.53727506426736,NA,NA
32459,Walton County,FL,NA,99.293059125964,NA,NA
32501,Escambia County,FL,NA,46.52956298200514,NA,NA
32503,Escambia County,FL,NA,NA,76.81053401609364,NA
32506,Escambia County,FL,NA,NA,14.411119239209949,NA
32507,Escambia County,FL,NA,NA,36.5764447695684,NA
32526,Escambia County,FL,NA,10.604113110539846,NA,49.44289693593314
32534,Escambia County,FL,NA,82.32647814910025,NA,NA
32547,Okaloosa County,FL,NA,NA,NA,44.84679665738162
32550,Walton County,FL,NA,NA,96.85442574981712,NA
32563,Santa Rosa County,FL,NA,26.86375321336761,18.873445501097294,NA
32569,Okaloosa County,FL,NA,79.62724935732648,NA,NA
32570,Santa Rosa County,FL,NA,7.776349614395888,NA,NA
32605,Alachua County,FL,NA,22.300771208226223,NA,NA
32606,Alachua County,FL,NA,NA,52.30431602048281,NA
32607,Alachua County,FL,NA,NA,35.40599853694221,NA
32608,Alachua County,FL,NA,81.04113110539845,NA,NA
32640,Putnam County,FL,NA,NA,58.961228968544255,NA
32643,Alachua County,FL,NA,43.83033419023136,NA,NA
32653,Alachua County,FL,NA,52.95629820051414,NA,NA
32656,Clay County,FL,56.17977528089888,NA,NA,NA
32720,Volusia County,FL,NA,NA,29.992684711046085,NA
32724,Volusia County,FL,NA,NA,NA,20.473537604456823
32726,Lake County,FL,80.52434456928839,NA,NA,NA
32796,Brevard County,FL,74.53183520599251,NA,NA,NA
32808,Orange County,FL,NA,NA,20.04389173372348,NA
32811,Orange County,FL,NA,NA,33.284564740307246,NA
32822,Orange County,FL,NA,14.331619537275063,NA,NA
32825,Orange County,FL,NA,NA,NA,37.60445682451253
32832,Orange County,FL,NA,NA,NA,71.86629526462396
32901,Brevard County,FL,NA,NA,37.01536210680322,19.080779944289695
32907,Brevard County,FL,NA,NA,16.313094367227503,NA
32909,Brevard County,FL,NA,NA,NA,34.81894150417828
32953,Brevard County,FL,NA,NA,NA,71.58774373259052
32955,Brevard County,FL,NA,NA,18.653986832479884,NA
32968,Indian River County,FL,NA,NA,49.158741770299926,NA
33010,Miami-Dade County,FL,NA,NA,NA,10.167130919220057
33018,Miami-Dade County,FL,NA,63.36760925449872,NA,NA
33020,Broward County,FL,NA,NA,NA,55.013927576601674
33024,Broward County,FL,NA,NA,19.6781272860278,NA
33035,Miami-Dade County,FL,NA,84.76863753213367,NA,NA
33036,Monroe County,FL,NA,NA,82.80907095830285,NA
33040,Monroe County,FL,NA,NA,NA,52.36768802228412
33042,Monroe County,FL,NA,88.4318766066838,NA,NA
33055,Miami-Dade County,FL,NA,NA,98.09802487198245,NA
33136,Miami-Dade County,FL,NA,66.77377892030847,NA,NA
33138,Miami-Dade County,FL,NA,59.25449871465296,NA,NA
33140,Miami-Dade County,FL,NA,NA,NA,19.637883008356546
33149,Miami-Dade County,FL,NA,NA,NA,80.36211699164345
33158,Miami-Dade County,FL,NA,NA,NA,94.5682451253482
33180,Miami-Dade County,FL,NA,NA,80.61448427212875,NA
33319,Broward County,FL,NA,34.897172236503856,NA,NA
33408,Palm Beach County,FL,NA,NA,94.95245062179956,NA
33415,Palm Beach County,FL,NA,35.2185089974293,NA,NA
33432,Palm Beach County,FL,NA,NA,NA,24.651810584958216
33442,Broward County,FL,NA,NA,NA,8.217270194986073
33446,Palm Beach County,FL,NA,NA,55.44989027066569,NA
33455,Martin County,FL,NA,NA,86.68617410387711,10.30640668523677
33461,Palm Beach County,FL,NA,NA,NA,44.70752089136491
33463,Palm Beach County,FL,NA,41.131105398457585,NA,NA
33467,Palm Beach County,FL,NA,NA,NA,12.813370473537605
33469,Palm Beach County,FL,NA,NA,46.15947329919532,NA
33473,Palm Beach County,FL,NA,NA,NA,83.56545961002786
33478,Palm Beach County,FL,NA,NA,77.17629846378932,94.84679665738162
33544,Pasco County,FL,NA,NA,44.91587417702999,NA
33559,Hillsborough County,FL,NA,74.22879177377892,NA,NA
33573,Hillsborough County,FL,NA,NA,16.67885881492319,NA
33579,Hillsborough County,FL,NA,NA,NA,91.36490250696379
33707,Pinellas County,FL,NA,NA,NA,20.891364902506965
33710,Pinellas County,FL,NA,NA,NA,34.12256267409471
33713,Pinellas County,FL,NA,NA,55.08412582297001,NA
33767,Pinellas County,FL,NA,89.52442159383034,NA,NA
33801,Polk County,FL,5.617977528089887,47.429305912596405,NA,45.682451253481894
33810,Polk County,FL,NA,20.822622107969153,27.13972201901975,NA
33812,Polk County,FL,NA,NA,80.17556693489392,NA
33825,Highlands County,FL,NA,NA,12.36283833211412,NA
33852,Highlands County,FL,NA,97.68637532133675,NA,NA
33875,Highlands County,FL,NA,NA,82.73591806876371,NA
33898,Polk County,FL,NA,NA,NA,81.75487465181058
33903,Lee County,FL,NA,NA,25.237746891002192,NA
33908,Lee County,FL,NA,NA,NA,0.6963788300835655
33912,Lee County,FL,NA,73.65038560411311,NA,46.51810584958218
33919,Lee County,FL,NA,NA,88.22238478419897,NA
33928,Lee County,FL,NA,NA,NA,47.49303621169916
33935,Hendry County,FL,NA,NA,57.93708851499634,NA
33936,Lee County,FL,47.565543071161045,NA,NA,NA
33957,Lee County,FL,NA,NA,63.05779078273592,NA
33966,Lee County,FL,NA,NA,NA,74.09470752089136
33974,Lee County,FL,25.0936329588015,NA,NA,NA
33990,Lee County,FL,NA,NA,NA,50.83565459610028
34102,Collier County,FL,NA,NA,NA,83.70473537604457
34203,Manatee County,FL,NA,NA,NA,13.509749303621168
34205,Manatee County,FL,NA,27.506426735218508,NA,NA
34219,Manatee County,FL,NA,NA,52.37746891002194,NA
34221,Manatee County,FL,NA,31.619537275064268,NA,NA
34224,Charlotte County,FL,NA,81.29820051413881,NA,NA
34229,Sarasota County,FL,NA,NA,57.13240673006583,NA
34231,Sarasota County,FL,NA,45.05141388174807,NA,NA
34238,Sarasota County,FL,NA,NA,62.10680321872714,NA
34266,DeSoto County,FL,NA,NA,38.91733723482078,NA
34275,Sarasota County,FL,NA,NA,NA,13.370473537604457
34287,Sarasota County,FL,NA,NA,23.774689100219458,NA
34288,Sarasota County,FL,NA,NA,NA,72.98050139275766
34292,Sarasota County,FL,NA,NA,69.05632772494513,NA
34429,Citrus County,FL,NA,NA,NA,57.520891364902504
34446,Citrus County,FL,NA,NA,NA,29.805013927576603
34609,Hernando County,FL,NA,NA,NA,19.35933147632312
34677,Pinellas County,FL,NA,64.58868894601542,NA,NA
34695,Pinellas County,FL,NA,92.73778920308483,NA,NA
34711,Lake County,FL,NA,NA,39.3562545720556,NA
34731,Lake County,FL,NA,NA,74.61594732991954,NA
34741,Osceola County,FL,NA,17.930591259640103,NA,NA
34747,Osceola County,FL,NA,NA,47.76883686905633,NA
34756,Lake County,FL,NA,100,NA,NA
34771,Osceola County,FL,NA,NA,72.12874908558888,NA
34788,Lake County,FL,NA,55.33419023136247,NA,NA
34950,St. Lucie County,FL,NA,44.79434447300771,NA,NA
34990,Martin County,FL,NA,NA,19.89758595464521,NA
30009,Fulton County,GA,89.8876404494382,NA,NA,NA
30014,Newton County,GA,NA,20.75835475578406,NA,NA
30017,Gwinnett County,GA,NA,NA,57.13240673006583,NA
30019,Gwinnett County,GA,NA,72.62210796915167,NA,NA
30024,Gwinnett County,GA,NA,NA,49.37820043891733,NA
30032,DeKalb County,GA,NA,NA,52.96269202633505,66.43454038997214
30041,Forsyth County,GA,NA,21.46529562982005,NA,64.06685236768801
30046,Gwinnett County,GA,NA,NA,NA,35.79387186629526
30060,Cobb County,GA,NA,NA,NA,87.46518105849582
30062,Cobb County,GA,NA,36.11825192802057,NA,NA
30082,Cobb County,GA,NA,82.26221079691517,NA,NA
30087,DeKalb County,GA,NA,NA,16.532553035844916,NA
30094,Rockdale County,GA,NA,NA,55.30358449158742,NA
30096,Gwinnett County,GA,NA,NA,54.2794440380395,NA
30101,Cobb County,GA,NA,NA,51.49963423555231,NA
30106,Cobb County,GA,73.78277153558052,NA,NA,NA
30125,Polk County,GA,NA,NA,66.34967081199707,NA
30141,Paulding County,GA,NA,78.47043701799485,NA,NA
30143,Pickens County,GA,NA,NA,60.35113386978785,31.058495821727018
30145,Bartow County,GA,NA,78.53470437017995,NA,NA
30153,Polk County,GA,NA,NA,69.64155084125822,NA
30165,Floyd County,GA,NA,62.853470437018,NA,NA
30176,Haralson County,GA,NA,NA,80.83394294074616,NA
30180,Carroll County,GA,NA,17.544987146529564,NA,NA
30215,Fayette County,GA,NA,51.156812339331616,26.993416239941475,NA
30223,Spalding County,GA,NA,NA,28.383321141185075,NA
30240,Troup County,GA,NA,NA,83.61375274323336,NA
30259,Coweta County,GA,93.63295880149812,NA,NA,NA
30281,Henry County,GA,NA,NA,14.630577907827359,NA
30286,Upson County,GA,NA,79.04884318766067,NA,NA
30310,Fulton County,GA,NA,NA,12.874908558888077,NA
30311,Fulton County,GA,NA,12.146529562982005,17.044623262618874,NA
30317,DeKalb County,GA,NA,NA,67.66642282370154,NA
30339,Cobb County,GA,NA,NA,NA,75.4874651810585
30346,DeKalb County,GA,99.25093632958801,NA,NA,NA
30350,Fulton County,GA,66.29213483146067,NA,NA,NA
30360,DeKalb County,GA,NA,94.280205655527,NA,NA
30417,Evans County,GA,NA,NA,92.17264081931236,NA
30506,Hall County,GA,NA,23.714652956298202,NA,NA
30512,Union County,GA,NA,62.46786632390745,NA,NA
30517,Jackson County,GA,NA,72.49357326478149,72.20190197512801,NA
30523,Habersham County,GA,NA,NA,NA,77.29805013927576
30542,Hall County,GA,NA,NA,63.789319678127285,NA
30559,Fannin County,GA,NA,NA,NA,95.12534818941504
30643,Hart County,GA,NA,53.084832904884315,NA,NA
30666,Barrow County,GA,NA,74.03598971722364,NA,NA
30680,Barrow County,GA,NA,59.383033419023135,17.922457937088517,NA
30701,Gordon County,GA,NA,NA,22.82370153621068,NA
30728,Walker County,GA,NA,NA,82.37015362106803,NA
30736,Catoosa County,GA,16.479400749063668,8.354755784061698,NA,NA
30741,Walker County,GA,NA,14.588688946015424,NA,NA
30752,Dade County,GA,NA,NA,64.52084857351865,NA
30809,Columbia County,GA,23.220973782771537,NA,10.387710314557424,NA
30813,Columbia County,GA,NA,NA,30.79736649597659,NA
30904,Richmond County,GA,NA,NA,44.40380395025604,NA
30906,Richmond County,GA,NA,5.141388174807198,NA,NA
30909,Richmond County,GA,NA,NA,13.533284564740308,NA
31008,Peach County,GA,NA,35.08997429305913,NA,NA
31015,Crisp County,GA,NA,NA,71.9824433065106,NA
31021,Laurens County,GA,NA,72.75064267352185,NA,NA
31061,Baldwin County,GA,NA,23.00771208226221,NA,NA
31064,Jasper County,GA,82.39700374531836,NA,NA,85.23676880222841
31204,Bibb County,GA,NA,26.092544987146532,NA,NA
31206,Bibb County,GA,NA,24.164524421593832,NA,NA
31405,Chatham County,GA,56.92883895131086,NA,NA,NA
31501,Ware County,GA,49.063670411985015,NA,NA,NA
31513,Appling County,GA,NA,NA,NA,63.64902506963789
31522,Glynn County,GA,NA,NA,NA,59.19220055710307
31537,Charlton County,GA,NA,55.591259640102834,NA,NA
31635,Lanier County,GA,NA,NA,NA,99.30362116991644
31636,Lowndes County,GA,NA,NA,50.475493782004385,NA
31750,Ben Hill County,GA,NA,NA,NA,45.96100278551532
31768,Colquitt County,GA,NA,NA,70.592538405267,NA
31779,Mitchell County,GA,NA,NA,64.15508412582297,NA
31788,Colquitt County,GA,NA,NA,87.12509144111192,NA
31792,Thomas County,GA,NA,NA,57.0592538405267,NA
31793,Tift County,GA,NA,NA,78.27359180687637,NA
31904,Muscogee County,GA,43.445692883895134,NA,14.776883686905634,NA
31907,Muscogee County,GA,NA,NA,2.3408924652523777,2.9247910863509747
39828,Grady County,GA,NA,58.29048843187661,NA,NA
96701,Honolulu County,HI,NA,27.570694087403595,NA,NA
96734,Honolulu County,HI,NA,NA,NA,7.242339832869081
96750,Hawaii County,HI,NA,94.98714652956298,NA,NA
96789,Honolulu County,HI,NA,16.645244215938305,6.949524506217995,NA
96790,Maui County,HI,NA,92.9948586118252,NA,NA
96797,Honolulu County,HI,NA,5.848329048843188,NA,NA
96816,Honolulu County,HI,NA,NA,13.97220190197513,NA
96826,Honolulu County,HI,NA,35.66838046272493,NA,NA
83221,Bingham County,ID,NA,NA,43.525969275786395,91.78272980501393
83338,Jerome County,ID,NA,NA,49.67081199707388,NA
83341,Twin Falls County,ID,NA,94.60154241645245,NA,NA
83501,Nez Perce County,ID,NA,79.5629820051414,NA,NA
83530,Idaho County,ID,89.13857677902621,NA,NA,NA
83605,Canyon County,ID,NA,50.51413881748073,NA,NA
83616,Ada County,ID,NA,NA,NA,39.693593314763234
83638,Valley County,ID,NA,NA,65.83760058522313,NA
83642,Ada County,ID,NA,65.93830334190231,NA,NA
83644,Canyon County,ID,NA,NA,41.84345281638625,NA
83646,Ada County,ID,NA,8.868894601542417,26.92026335040234,NA
83651,Canyon County,ID,NA,13.239074550128535,NA,NA
83686,Canyon County,ID,NA,NA,NA,3.3426183844011144
83687,Canyon County,ID,NA,60.66838046272493,NA,NA
83704,Ada County,ID,NA,40.3598971722365,2.414045354791514,16.71309192200557
83713,Ada County,ID,NA,NA,NA,41.22562674094708
83716,Ada County,ID,NA,NA,NA,53.34261838440112
83815,Kootenai County,ID,NA,NA,NA,42.061281337047355
83835,Kootenai County,ID,NA,70.95115681233933,NA,NA
83843,Latah County,ID,NA,NA,NA,52.78551532033426
83854,Kootenai County,ID,NA,NA,NA,16.295264623955433
83861,Benewah County,ID,NA,NA,NA,96.93593314763231
60002,Lake County,IL,NA,NA,26.77395757132407,NA
60004,Cook County,IL,NA,NA,8.924652523774688,NA
60010,Lake County,IL,NA,NA,55.59619604974396,NA
60012,McHenry County,IL,NA,NA,51.207022677395756,NA
60014,McHenry County,IL,NA,18.958868894601544,NA,NA
60018,Cook County,IL,NA,NA,NA,35.37604456824512
60020,Lake County,IL,NA,NA,NA,84.40111420612814
60025,Cook County,IL,NA,NA,3.9502560351133873,NA
60026,Cook County,IL,NA,NA,37.893196781272856,NA
60043,Cook County,IL,NA,99.03598971722364,NA,NA
60045,Lake County,IL,NA,NA,17.849305047549375,NA
60048,Lake County,IL,NA,44.2159383033419,NA,NA
60056,Cook County,IL,NA,NA,57.644476956839796,NA
60061,Lake County,IL,NA,53.53470437017995,NA,NA
60068,Cook County,IL,NA,33.22622107969151,NA,NA
60071,McHenry County,IL,NA,95.24421593830334,NA,NA
60076,Cook County,IL,NA,37.53213367609254,NA,NA
60077,Cook County,IL,NA,87.59640102827764,NA,NA
60089,Lake County,IL,NA,NA,NA,61.42061281337048
60093,Cook County,IL,NA,83.67609254498714,NA,22.42339832869081
60098,McHenry County,IL,NA,NA,38.33211411850768,NA
60103,DuPage County,IL,NA,22.17223650385604,NA,NA
60119,Kane County,IL,NA,NA,NA,83.28690807799443
60126,DuPage County,IL,NA,NA,1.9751280175566936,NA
60130,Cook County,IL,NA,41.645244215938305,NA,NA
60139,DuPage County,IL,NA,NA,28.090709583028527,NA
60140,Kane County,IL,NA,NA,57.278712509144114,NA
60142,McHenry County,IL,NA,NA,NA,2.2284122562674096
60151,Kane County,IL,NA,92.60925449871465,NA,NA
60152,McHenry County,IL,88.38951310861424,NA,NA,NA
60154,Cook County,IL,NA,NA,20.55596196049744,NA
60156,McHenry County,IL,27.715355805243448,NA,NA,NA
60185,DuPage County,IL,NA,30.59125964010283,NA,NA
60188,DuPage County,IL,NA,NA,17.702999268471103,NA
60189,DuPage County,IL,NA,NA,NA,26.740947075208915
60302,Cook County,IL,NA,27.31362467866324,11.485003657644477,NA
60304,Cook County,IL,NA,48.0719794344473,NA,NA
60402,Cook County,IL,NA,NA,NA,26.323119777158777
60404,Will County,IL,41.19850187265918,NA,NA,NA
60410,Will County,IL,NA,40.74550128534704,NA,NA
60415,Cook County,IL,NA,71.27249357326478,NA,NA
60433,Will County,IL,NA,NA,64.52084857351865,NA
60435,Will County,IL,NA,NA,9.070958302852963,15.459610027855152
60436,Will County,IL,NA,48.329048843187664,NA,NA
60438,Cook County,IL,NA,NA,76.7373811265545,NA
60439,Cook County,IL,NA,NA,14.557425018288223,NA
60446,Will County,IL,NA,37.98200514138818,NA,NA
60450,Grundy County,IL,NA,18.76606683804627,NA,NA
60451,Will County,IL,14.981273408239701,NA,NA,NA
60452,Cook County,IL,58.80149812734082,NA,NA,NA
60462,Cook County,IL,NA,NA,42.06291148500366,NA
60467,Cook County,IL,NA,42.994858611825194,51.280175566934894,NA
60502,DuPage County,IL,NA,68.83033419023135,NA,NA
60505,Kane County,IL,79.02621722846442,NA,NA,NA
60510,Kane County,IL,NA,78.59897172236504,NA,NA
60514,DuPage County,IL,NA,83.22622107969153,NA,NA
60516,DuPage County,IL,NA,NA,70.29992684711046,NA
60540,DuPage County,IL,NA,NA,23.11631309436723,NA
60544,Will County,IL,NA,NA,NA,14.763231197771587
60563,DuPage County,IL,NA,NA,76.66422823701537,NA
60585,Will County,IL,NA,46.979434447300775,NA,NA
60586,Will County,IL,NA,11.311053984575835,54.93782004389174,NA
60601,Cook County,IL,NA,NA,NA,78.55153203342618
60605,Cook County,IL,NA,49.742930591259636,NA,NA
60607,Cook County,IL,NA,41.45244215938303,NA,NA
60612,Cook County,IL,NA,NA,NA,30.08356545961003
60614,Cook County,IL,NA,46.27249357326478,NA,NA
60615,Cook County,IL,NA,19.344473007712082,NA,NA
60616,Cook County,IL,NA,57.455012853470436,NA,NA
60617,Cook County,IL,NA,4.755784061696658,15.28895391367959,NA
60618,Cook County,IL,NA,NA,15.581565471836138,NA
60620,Cook County,IL,NA,NA,80.24871982443307,NA
60623,Cook County,IL,NA,4.884318766066838,NA,NA
60625,Cook County,IL,NA,31.233933161953725,NA,NA
60628,Cook County,IL,NA,NA,2.9992684711046085,NA
60629,Cook County,IL,NA,NA,3.218727139722019,NA
60632,Cook County,IL,NA,36.18251928020565,23.189465983906366,NA
60633,Cook County,IL,NA,NA,55.23043160204828,NA
60634,Cook County,IL,NA,7.519280205655527,NA,NA
60636,Cook County,IL,NA,NA,NA,49.721448467966574
60637,Cook County,IL,NA,NA,NA,65.87743732590529
60638,Cook County,IL,NA,NA,7.388441843452817,NA
60643,Cook County,IL,NA,62.7892030848329,NA,NA
60644,Cook County,IL,NA,61.5681233933162,88.8807607900512,NA
60649,Cook County,IL,NA,NA,7.973664959765911,NA
60651,Cook County,IL,NA,5.912596401028278,NA,NA
60653,Cook County,IL,NA,23.26478149100257,NA,NA
60659,Cook County,IL,NA,NA,NA,35.65459610027855
60660,Cook County,IL,NA,NA,40.96561814191661,NA
60804,Cook County,IL,NA,NA,37.45427944403804,NA
60805,Cook County,IL,NA,NA,82.00438917337235,NA
60914,Kankakee County,IL,NA,26.99228791773779,NA,NA
61008,Boone County,IL,NA,NA,15.435259692757864,NA
61010,Ogle County,IL,NA,NA,82.66276517922458,NA
61021,Lee County,IL,NA,25.89974293059126,NA,NA
61036,Jo Daviess County,IL,NA,94.2159383033419,NA,NA
61080,Winnebago County,IL,NA,NA,69.86100950987564,NA
61081,Whiteside County,IL,NA,NA,NA,21.030640668523677
61101,Winnebago County,IL,NA,77.31362467866325,NA,NA
61111,Winnebago County,IL,NA,42.48071979434447,NA,NA
61115,Winnebago County,IL,NA,44.34447300771208,NA,NA
61244,Rock Island County,IL,NA,77.57069408740361,NA,NA
61254,Henry County,IL,82.39700374531836,NA,NA,NA
61265,Rock Island County,IL,82.02247191011236,NA,NA,NA
61282,Rock Island County,IL,88.01498127340824,NA,NA,NA
61301,LaSalle County,IL,NA,75.12853470437018,NA,NA
61341,LaSalle County,IL,NA,NA,NA,80.50139275766016
61364,LaSalle County,IL,NA,86.50385604113112,NA,NA
61401,Knox County,IL,NA,NA,24.140453547915143,NA
61520,Fulton County,IL,NA,60.86118251928021,NA,NA
61554,Tazewell County,IL,NA,NA,34.45501097293343,NA
61603,Peoria County,IL,NA,96.27249357326478,NA,NA
61604,Peoria County,IL,NA,NA,62.472567666422826,NA
61605,Peoria County,IL,NA,NA,NA,95.26462395543176
61611,Tazewell County,IL,NA,81.81233933161953,NA,NA
61614,Peoria County,IL,NA,NA,28.090709583028527,20.752089136490252
61761,McLean County,IL,NA,NA,64.37454279444039,NA
61822,Champaign County,IL,NA,NA,NA,18.94150417827298
61846,Vermilion County,IL,NA,89.78149100257069,NA,NA
61856,Piatt County,IL,NA,NA,NA,65.32033426183844
61873,Champaign County,IL,NA,NA,NA,66.29526462395543
61883,Vermilion County,IL,NA,NA,91.29480614484272,NA
61938,Coles County,IL,60.2996254681648,63.688946015424165,NA,NA
62049,Montgomery County,IL,NA,NA,77.98098024871982,NA
62204,St. Clair County,IL,NA,NA,94.22092172640819,NA
62205,St. Clair County,IL,NA,NA,93.63569861009509,NA
62206,St. Clair County,IL,NA,NA,83.6869056327725,NA
62221,St. Clair County,IL,NA,NA,NA,52.50696378830083
62249,Madison County,IL,NA,NA,NA,57.799442896935936
62263,Washington County,IL,NA,NA,NA,76.04456824512535
62294,Madison County,IL,NA,84.38303341902314,NA,NA
62363,Pike County,IL,NA,NA,NA,59.33147632311978
62448,Jasper County,IL,69.28838951310861,NA,NA,NA
62521,Macon County,IL,NA,9.447300771208226,28.96854425749817,NA
62568,Christian County,IL,53.18352059925093,NA,NA,NA
62864,Jefferson County,IL,NA,NA,NA,29.944289693593312
62946,Saline County,IL,NA,NA,64.8134601316752,NA
62948,Williamson County,IL,NA,NA,NA,53.48189415041783
46013,Madison County,IN,NA,NA,44.55010972933431,26.6016713091922
46016,Madison County,IN,NA,NA,24.6525237746891,NA
46034,Hamilton County,IN,NA,NA,NA,93.7325905292479
46036,Madison County,IN,NA,NA,90.27066569129481,93.03621169916435
46040,Hancock County,IN,NA,NA,NA,96.7966573816156
46064,Madison County,IN,NA,NA,74.68910021945867,NA
46069,Hamilton County,IN,NA,NA,NA,89.97214484679665
46123,Hendricks County,IN,NA,40.48843187660668,NA,NA
46131,Johnson County,IN,NA,NA,21.72640819312363,NA
46140,Hancock County,IN,NA,65.87403598971723,14.703730797366497,NA
46143,Johnson County,IN,21.722846441947567,18.123393316195372,NA,NA
46168,Hendricks County,IN,NA,73.0719794344473,NA,NA
46173,Rush County,IN,NA,48.13624678663239,NA,NA
46202,Marion County,IN,NA,51.221079691516714,90.78273591806877,NA
46203,Marion County,IN,NA,82.77634961439588,NA,NA
46204,Marion County,IN,NA,34.5758354755784,NA,NA
46208,Marion County,IN,NA,28.53470437017995,NA,NA
46218,Marion County,IN,NA,NA,45.35479151426481,NA
46222,Marion County,IN,NA,14.910025706940875,NA,NA
46224,Marion County,IN,NA,24.871465295629818,NA,NA
46228,Marion County,IN,NA,NA,NA,98.05013927576601
46229,Marion County,IN,NA,47.81491002570694,NA,NA
46231,Marion County,IN,NA,NA,NA,87.3259052924791
46241,Marion County,IN,NA,NA,NA,44.428969359331475
46307,Lake County,IN,NA,1.6709511568123392,NA,NA
46310,Jasper County,IN,NA,NA,74.46964155084126,NA
46312,Lake County,IN,NA,12.467866323907455,NA,NA
46320,Lake County,IN,NA,28.47043701799486,41.33138258961229,NA
46323,Lake County,IN,NA,15.616966580976863,NA,NA
46324,Lake County,IN,NA,40.23136246786632,NA,NA
46342,Lake County,IN,NA,56.10539845758355,NA,NA
46360,LaPorte County,IN,NA,NA,3.6576444769568397,NA
46366,Starke County,IN,NA,NA,84.34528163862473,NA
46368,Porter County,IN,NA,NA,NA,11.559888579387186
46375,Lake County,IN,NA,26.34961439588689,NA,NA
46385,Porter County,IN,54.68164794007491,23.90745501285347,NA,NA
46404,Lake County,IN,NA,NA,70.9583028529627,NA
46406,Lake County,IN,NA,52.76349614395887,NA,NA
46410,Lake County,IN,NA,NA,NA,51.11420612813371
46544,St. Joseph County,IN,NA,NA,73.7381126554499,88.99721448467966
46563,Marshall County,IN,51.68539325842697,NA,19.092904169714703,NA
46580,Kosciusko County,IN,NA,NA,NA,25.90529247910863
46619,St. Joseph County,IN,NA,NA,NA,64.9025069637883
46703,Steuben County,IN,NA,67.60925449871465,NA,NA
46725,Whitley County,IN,NA,NA,NA,26.323119777158777
46733,Adams County,IN,NA,92.93059125964011,NA,NA
46742,Steuben County,IN,NA,99.3573264781491,NA,NA
46795,LaGrange County,IN,NA,NA,NA,68.10584958217271
46808,Allen County,IN,NA,26.47814910025707,NA,NA
46815,Allen County,IN,NA,54.24164524421594,NA,NA
46825,Allen County,IN,NA,31.29820051413882,NA,NA
46845,Allen County,IN,NA,72.17223650385604,NA,NA
46901,Howard County,IN,NA,10.475578406169666,NA,NA
46902,Howard County,IN,NA,30.912596401028274,NA,NA
46923,Carroll County,IN,NA,70.05141388174808,NA,NA
46953,Grant County,IN,NA,8.547557840616966,9.80248719824433,NA
46992,Wabash County,IN,NA,27.63496143958869,NA,NA
47006,Ripley County,IN,NA,NA,NA,87.1866295264624
47012,Franklin County,IN,NA,NA,94.65983906364302,NA
47025,Dearborn County,IN,NA,NA,42.57498171177762,NA
47111,Clark County,IN,NA,NA,47.622531089978054,NA
47112,Harrison County,IN,NA,NA,NA,54.73537604456824
47130,Clark County,IN,NA,70.62982005141389,NA,NA
47250,Jefferson County,IN,NA,55.91259640102828,NA,NA
47304,Delaware County,IN,NA,NA,33.13825896122896,33.98328690807799
47348,Blackford County,IN,NA,NA,NA,41.364902506963794
47374,Wayne County,IN,NA,NA,2.7798098024871982,1.1142061281337048
47390,Randolph County,IN,NA,NA,NA,94.98607242339833
47394,Randolph County,IN,NA,NA,NA,44.56824512534819
47401,Monroe County,IN,NA,NA,NA,53.06406685236769
47421,Lawrence County,IN,NA,NA,62.25310899780542,NA
47438,Greene County,IN,NA,NA,91.58741770299926,NA
47546,Dubois County,IN,NA,NA,NA,71.1699164345404
47591,Knox County,IN,NA,NA,NA,43.45403899721448
47601,Warrick County,IN,NA,50.57840616966581,33.21141185076811,NA
47710,Vanderburgh County,IN,52.05992509363296,NA,NA,NA
47712,Vanderburgh County,IN,NA,NA,NA,42.33983286908078
47715,Vanderburgh County,IN,NA,NA,NA,11.838440111420613
47725,Vanderburgh County,IN,NA,NA,58.66861741038771,NA
47802,Vigo County,IN,NA,17.994858611825194,NA,NA
47805,Vigo County,IN,NA,98.26478149100257,NA,NA
47834,Clay County,IN,NA,25.96401028277635,NA,NA
47842,Vermillion County,IN,NA,NA,58.08339429407462,NA
47885,Vigo County,IN,NA,NA,62.98463789319678,NA
47963,Newton County,IN,NA,99.80719794344472,NA,NA
50022,Cass County,IA,NA,NA,NA,82.59052924791087
50248,Story County,IA,NA,99.93573264781492,NA,NA
50273,Madison County,IA,NA,81.61953727506427,NA,NA
50310,Polk County,IA,NA,59.70437017994858,82.5164594001463,NA
50315,Polk County,IA,85.39325842696628,NA,NA,NA
50316,Polk County,IA,NA,34.19023136246786,NA,NA
50401,Cerro Gordo County,IA,NA,50.06426735218509,49.8902706656913,NA
50501,Webster County,IA,NA,NA,60.863204096561816,70.33426183844011
50511,Kossuth County,IA,NA,NA,86.46671543525969,NA
50548,Humboldt County,IA,NA,NA,NA,68.66295264623955
50588,Buena Vista County,IA,NA,61.11825192802056,NA,NA
50595,Hamilton County,IA,NA,93.95886889460155,NA,NA
50613,Black Hawk County,IA,NA,78.40616966580977,NA,3.7604456824512535
50616,Floyd County,IA,NA,77.6349614395887,NA,34.26183844011142
50644,Buchanan County,IA,NA,67.48071979434447,NA,NA
50701,Black Hawk County,IA,NA,96.0796915167095,NA,NA
50702,Black Hawk County,IA,NA,NA,67.81272860277981,NA
50801,Union County,IA,NA,NA,42.9407461594733,41.92200557103064
51106,Woodbury County,IA,NA,65.61696658097686,NA,NA
51250,Sioux County,IA,NA,NA,NA,39.27576601671309
51360,Dickinson County,IA,NA,NA,96.19604974396488,NA
51501,Pottawattamie County,IA,NA,13.496143958868895,NA,NA
52001,Dubuque County,IA,NA,NA,NA,69.35933147632312
52205,Jones County,IA,NA,92.67352185089975,NA,NA
52208,Benton County,IA,NA,99.48586118251927,NA,NA
52302,Linn County,IA,NA,45.501285347043705,NA,NA
52324,Linn County,IA,NA,99.16452442159382,NA,NA
52353,Washington County,IA,NA,NA,86.100950987564,NA
52402,Linn County,IA,NA,43.38046272493573,NA,NA
52404,Linn County,IA,NA,NA,NA,55.29247910863509
52405,Linn County,IA,NA,32.0694087403599,NA,34.958217270194986
52501,Wapello County,IA,NA,37.01799485861182,NA,NA
52556,Jefferson County,IA,NA,65.42416452442158,NA,NA
52601,Des Moines County,IA,NA,NA,12.070226773957572,11.420612813370473
52632,Lee County,IA,NA,32.77634961439589,NA,NA
52722,Scott County,IA,NA,15.552699228791775,NA,NA
52748,Scott County,IA,NA,89.01028277634961,NA,NA
52753,Scott County,IA,68.53932584269663,NA,NA,NA
52761,Muscatine County,IA,NA,72.62210796915167,NA,NA
52773,Scott County,IA,NA,98.13624678663238,NA,NA
52804,Scott County,IA,NA,54.56298200514139,28.237015362106803,NA
52806,Scott County,IA,NA,59.83290488431876,NA,NA
66002,Atchison County,KS,NA,NA,NA,84.12256267409471
66006,Douglas County,KS,NA,90.93830334190231,NA,NA
66018,Johnson County,KS,NA,88.68894601542416,NA,NA
66047,Douglas County,KS,NA,NA,NA,48.32869080779944
66061,Johnson County,KS,NA,43.958868894601544,NA,NA
66062,Johnson County,KS,NA,7.904884318766067,12.435991221653255,NA
66071,Miami County,KS,NA,NA,71.54352596927579,NA
66083,Johnson County,KS,NA,NA,NA,96.37883008356546
66102,Wyandotte County,KS,NA,NA,32.77249451353328,NA
66104,Wyandotte County,KS,NA,21.65809768637532,NA,NA
66109,Wyandotte County,KS,NA,NA,40.52670080468179,NA
66203,Johnson County,KS,NA,NA,57.278712509144114,NA
66207,Johnson County,KS,NA,71.59383033419023,NA,NA
66209,Johnson County,KS,NA,98.20051413881748,34.67446964155084,NA
66215,Johnson County,KS,NA,62.01799485861182,NA,NA
66216,Johnson County,KS,NA,NA,86.02779809802487,NA
66227,Johnson County,KS,NA,NA,96.12289685442576,NA
66534,Nemaha County,KS,NA,98.52185089974293,NA,NA
66538,Nemaha County,KS,NA,87.72493573264781,NA,NA
66609,Shawnee County,KS,NA,86.18251928020567,NA,NA
66720,Neosho County,KS,NA,NA,NA,73.53760445682451
67005,Cowley County,KS,NA,NA,63.643013899049016,NA
67156,Cowley County,KS,72.28464419475655,NA,NA,NA
67205,Sedgwick County,KS,NA,92.3521850899743,NA,NA
67401,Saline County,KS,NA,45.17994858611825,NA,NA
67410,Dickinson County,KS,NA,NA,59.253840526700806,NA
67502,Reno County,KS,42.69662921348314,NA,NA,NA
67505,Reno County,KS,NA,NA,100,NA
67601,Ellis County,KS,NA,34.19023136246786,NA,NA
67654,Norton County,KS,NA,88.30334190231362,NA,NA
67661,Phillips County,KS,NA,NA,97.00073152889539,NA
67735,Sherman County,KS,NA,NA,89.6854425749817,NA
67748,Logan County,KS,NA,99.61439588688947,NA,NA
67855,Stanton County,KS,NA,98.58611825192803,NA,NA
67880,Grant County,KS,NA,85.98971722365039,NA,NA
40004,Nelson County,KY,NA,NA,21.799561082662766,NA
40033,Marion County,KY,NA,NA,NA,79.10863509749304
40047,Bullitt County,KY,NA,23.20051413881748,NA,NA
40108,Meade County,KY,NA,NA,69.86100950987564,NA
40160,Hardin County,KY,NA,26.413881748071976,43.23335771762984,NA
40207,Jefferson County,KY,NA,60.08997429305912,NA,NA
40211,Jefferson County,KY,NA,35.15424164524422,NA,NA
40214,Jefferson County,KY,NA,51.285347043701805,NA,NA
40223,Jefferson County,KY,57.30337078651685,NA,NA,NA
40272,Jefferson County,KY,NA,36.246786632390744,NA,NA
40330,Mercer County,KY,NA,NA,41.98975859546452,37.04735376044568
40353,Montgomery County,KY,NA,45.88688946015424,NA,NA
40361,Bourbon County,KY,NA,29.94858611825193,NA,NA
40403,Madison County,KY,NA,NA,32.04096561814191,NA
40484,Lincoln County,KY,NA,86.88946015424165,NA,NA
40502,Fayette County,KY,NA,NA,NA,36.49025069637883
40503,Fayette County,KY,NA,NA,52.816386247256766,NA
40509,Fayette County,KY,NA,NA,31.30943672275055,NA
40701,Whitley County,KY,NA,8.097686375321336,NA,NA
40744,Laurel County,KY,NA,74.80719794344472,NA,NA
40769,Whitley County,KY,NA,54.94858611825193,NA,NA
40906,Knox County,KY,NA,53.92030848329049,NA,NA
40962,Clay County,KY,NA,NA,16.16678858814923,NA
41017,Kenton County,KY,NA,25.38560411311054,NA,NA
41030,Grant County,KY,NA,62.59640102827764,NA,NA
41031,Harrison County,KY,NA,47.30077120822622,NA,NA
41040,Pendleton County,KY,NA,NA,83.46744696415507,NA
41051,Kenton County,KY,36.329588014981276,NA,NA,NA
41071,Campbell County,KY,NA,NA,NA,47.49303621169916
41075,Campbell County,KY,NA,59.44730077120822,NA,NA
41076,Campbell County,KY,NA,NA,NA,19.220055710306408
41091,Boone County,KY,91.38576779026218,NA,NA,NA
41101,Boyd County,KY,NA,NA,14.850036576444769,NA
41129,Boyd County,KY,NA,68.95886889460155,NA,NA
41144,Greenup County,KY,NA,NA,NA,62.8133704735376
41164,Carter County,KY,NA,54.75578406169666,NA,NA
41230,Lawrence County,KY,NA,49.3573264781491,NA,NA
41514,Pike County,KY,87.26591760299625,NA,NA,NA
42001,McCracken County,KY,NA,NA,NA,32.590529247910865
42025,Marshall County,KY,NA,NA,NA,26.18384401114206
42041,Fulton County,KY,NA,76.86375321336762,NA,NA
42071,Calloway County,KY,NA,34.06169665809769,34.3818580833943,NA
42167,Monroe County,KY,NA,53.213367609254504,NA,NA
42240,Christian County,KY,NA,58.67609254498715,NA,NA
42261,Butler County,KY,NA,NA,NA,89.55431754874652
42262,Christian County,KY,NA,87.27506426735219,NA,NA
42276,Logan County,KY,NA,NA,NA,46.37883008356546
42301,Daviess County,KY,NA,46.65809768637532,NA,NA
42408,Hopkins County,KY,NA,67.3521850899743,NA,NA
42420,Henderson County,KY,NA,28.277634961439592,NA,NA
42431,Hopkins County,KY,21.34831460674157,17.09511568123393,NA,NA
42455,Webster County,KY,NA,95.05141388174808,NA,NA
42553,Pulaski County,KY,NA,NA,77.39575713240673,NA
42629,Russell County,KY,NA,93.573264781491,NA,NA
42701,Hardin County,KY,NA,NA,31.894659839063642,NA
42721,Grayson County,KY,NA,79.82005141388174,NA,NA
42728,Adair County,KY,NA,44.73007712082262,NA,NA
42743,Green County,KY,NA,NA,52.67008046817849,40.25069637883008
42754,Grayson County,KY,NA,NA,30.57790782735918,NA
70001,Jefferson Parish,LA,NA,16.388174807197945,31.821506949524508,NA
70037,Plaquemines Parish,LA,NA,74.55012853470437,NA,NA
70043,St. Bernard Parish,LA,NA,11.503856041131105,NA,NA
70056,Jefferson Parish,LA,NA,16.966580976863753,NA,NA
70058,Jefferson Parish,LA,NA,NA,53.474762253109,NA
70070,St. Charles Parish,LA,NA,NA,54.498902706656914,NA
70094,Jefferson Parish,LA,NA,NA,90.34381858083394,NA
70114,Orleans Parish,LA,NA,7.583547557840617,NA,NA
70115,Orleans Parish,LA,NA,NA,18.580833942940746,NA
70117,Orleans Parish,LA,NA,16.709511568123396,NA,NA
70118,Orleans Parish,LA,NA,NA,15.069495245062182,NA
70122,Orleans Parish,LA,NA,18.830334190231362,NA,NA
70127,Orleans Parish,LA,NA,4.948586118251928,NA,NA
70128,Orleans Parish,LA,NA,81.10539845758355,NA,NA
70360,Terrebonne Parish,LA,NA,48.77892030848329,NA,NA
70363,Terrebonne Parish,LA,NA,NA,24.87198244330651,NA
70380,St. Mary Parish,LA,NA,16.773778920308484,24.359912216532553,NA
70422,Tangipahoa Parish,LA,NA,19.53727506426735,NA,NA
70431,St. Tammany Parish,LA,NA,82.7120822622108,NA,NA
70438,Washington Parish,LA,NA,10.025706940874036,NA,NA
70454,Tangipahoa Parish,LA,NA,27.12082262210797,NA,NA
70460,St. Tammany Parish,LA,NA,85.41131105398458,NA,NA
70461,St. Tammany Parish,LA,NA,NA,NA,36.07242339832869
70471,St. Tammany Parish,LA,NA,NA,16.532553035844916,NA
70507,Lafayette Parish,LA,NA,36.50385604113111,NA,NA
70510,Vermilion Parish,LA,NA,NA,29.261155815654718,NA
70525,Acadia Parish,LA,NA,41.70951156812339,NA,NA
70529,Lafayette Parish,LA,31.835205992509362,NA,NA,NA
70548,Vermilion Parish,LA,NA,28.084832904884323,NA,NA
70560,Iberia Parish,LA,NA,NA,10.680321872713973,NA
70563,Iberia Parish,LA,NA,NA,NA,49.721448467966574
70582,St. Martin Parish,LA,NA,NA,32.69934162399415,NA
70611,Calcasieu Parish,LA,NA,NA,83.97951719092904,NA
70633,Calcasieu Parish,LA,NA,84.6401028277635,NA,NA
70737,Ascension Parish,LA,NA,22.81491002570694,NA,NA
70739,East Baton Rouge Parish,LA,NA,63.81748071979434,NA,NA
70806,East Baton Rouge Parish,LA,16.853932584269664,NA,NA,NA
70810,East Baton Rouge Parish,LA,NA,NA,NA,98.74651810584957
70812,East Baton Rouge Parish,LA,NA,21.59383033419023,NA,NA
70817,East Baton Rouge Parish,LA,NA,53.7917737789203,NA,NA
71052,De Soto Parish,LA,NA,87.08226221079691,NA,NA
71104,Caddo Parish,LA,NA,86.31105398457584,NA,NA
71105,Caddo Parish,LA,NA,NA,87.2713972201902,NA
71106,Caddo Parish,LA,NA,NA,NA,71.44846796657382
71112,Bossier Parish,LA,NA,NA,19.45866861741039,NA
71119,Caddo Parish,LA,NA,82.45501285347044,NA,NA
71203,Ouachita Parish,LA,NA,NA,NA,86.35097493036211
71235,Lincoln Parish,LA,NA,NA,95.97659107534747,NA
71302,Rapides Parish,LA,NA,NA,75.64008778346745,NA
71351,Avoyelles Parish,LA,NA,NA,87.56400877834675,NA
03908,York County,ME,NA,NA,46.37893196781273,NA
03909,York County,ME,NA,45.62982005141388,42.9407461594733,NA
04002,York County,ME,NA,NA,81.49231894659839,NA
04009,Cumberland County,ME,NA,NA,70.44623262618873,NA
04055,Cumberland County,ME,NA,87.53213367609256,NA,NA
04072,York County,ME,NA,NA,62.69202633504023,28.830083565459606
04073,York County,ME,NA,18.444730077120823,NA,NA
04096,Cumberland County,ME,NA,NA,79.37088514996343,NA
04101,Cumberland County,ME,NA,NA,49.74396488661302,NA
04240,Androscoggin County,ME,NA,1.8637532133676094,30.358449158741767,30.22284122562674
04268,Oxford County,ME,NA,NA,75.42062911485003,NA
04330,Kennebec County,ME,NA,38.11053984575835,5.5596196049743964,NA
04401,Penobscot County,ME,NA,36.56812339331619,NA,NA
04605,Hancock County,ME,NA,NA,18.946598390636428,NA
04843,Knox County,ME,NA,NA,53.10899780541332,NA
04963,Kennebec County,ME,NA,NA,NA,82.72980501392759
04976,Somerset County,ME,NA,NA,40.38039502560351,NA
20678,Calvert County,MD,NA,81.74807197943444,NA,NA
20695,Charles County,MD,NA,NA,86.61302121433798,NA
20706,Prince George's County,MD,NA,NA,44.84272128749085,NA
20732,Calvert County,MD,NA,83.74035989717224,NA,NA
20735,Prince George's County,MD,NA,48.97172236503856,NA,NA
20785,Prince George's County,MD,NA,46.20822622107969,NA,NA
20814,Montgomery County,MD,NA,NA,67.37381126554499,NA
20816,Montgomery County,MD,NA,NA,NA,66.15598885793872
21032,Anne Arundel County,MD,NA,NA,92.90416971470373,NA
21044,Howard County,MD,NA,NA,88.51499634235552,NA
21045,Howard County,MD,NA,40.681233933161955,NA,NA
21093,Baltimore County,MD,40.44943820224719,35.98971722365039,NA,NA
21117,Baltimore County,MD,NA,86.95372750642673,NA,NA
21122,Anne Arundel County,MD,NA,NA,11.119239209948793,NA
21207,Baltimore County,MD,NA,46.33676092544987,NA,NA
21212,Baltimore city,MD,NA,93.50899742930592,NA,NA
21214,Baltimore city,MD,NA,NA,58.59546452084857,NA
21215,Baltimore city,MD,NA,NA,8.485735186539868,NA
21216,Baltimore city,MD,NA,NA,NA,73.3983286908078
21217,Baltimore city,MD,NA,46.850899742930594,NA,NA
21218,Baltimore city,MD,NA,64.84575835475579,10.095098756400878,NA
21221,Baltimore County,MD,NA,14.845758354755784,NA,NA
21226,Anne Arundel County,MD,NA,90.93830334190231,NA,NA
21228,Baltimore County,MD,NA,NA,66.42282370153622,NA
21234,Baltimore County,MD,NA,NA,7.461594732991954,NA
21401,Anne Arundel County,MD,NA,19.858611825192803,71.83613752743233,NA
21601,Talbot County,MD,NA,NA,NA,29.526462395543174
21704,Frederick County,MD,NA,87.46786632390744,NA,NA
21921,Cecil County,MD,NA,52.95629820051414,5.267008046817849,NA
01002,Hampshire County,MA,NA,NA,93.78200438917337,NA
01013,Hampden County,MA,NA,12.982005141388175,NA,NA
01027,Hampshire County,MA,NA,49.87146529562982,NA,NA
01040,Hampden County,MA,0.7490636704119851,1.2853470437017995,NA,NA
01056,Hampden County,MA,NA,12.596401028277635,NA,NA
01062,Hampshire County,MA,97.37827715355806,NA,NA,NA
01073,Hampshire County,MA,NA,72.30077120822622,NA,NA
01095,Hampden County,MA,NA,NA,NA,12.952646239554316
01104,Hampden County,MA,NA,19.087403598971722,67.95903438185809,NA
01107,Hampden County,MA,NA,39.267352185089976,NA,NA
01201,Berkshire County,MA,NA,32.0694087403599,NA,8.913649025069638
01238,Berkshire County,MA,NA,NA,56.62033650329188,NA
01247,Berkshire County,MA,33.70786516853933,NA,8.412582297000732,NA
01267,Berkshire County,MA,NA,69.40874035989717,NA,NA
01331,Worcester County,MA,NA,NA,26.408193123628383,NA
01440,Worcester County,MA,NA,8.611825192802057,NA,NA
01451,Worcester County,MA,NA,NA,78.05413313825896,NA
01452,Worcester County,MA,NA,94.40874035989717,NA,NA
01453,Worcester County,MA,NA,NA,35.55230431602048,NA
01462,Worcester County,MA,NA,79.24164524421595,NA,NA
01504,Worcester County,MA,NA,58.54755784061697,NA,NA
01510,Worcester County,MA,NA,15.102827763496144,NA,NA
01516,Worcester County,MA,NA,27.056555269922878,NA,NA
01540,Worcester County,MA,NA,NA,NA,52.22841225626741
01545,Worcester County,MA,NA,NA,NA,12.395543175487465
01550,Worcester County,MA,NA,NA,2.267739575713241,NA
01562,Worcester County,MA,65.54307116104869,NA,NA,NA
01566,Worcester County,MA,NA,50,NA,NA
01570,Worcester County,MA,38.57677902621723,16.452442159383033,NA,NA
01588,Worcester County,MA,NA,NA,NA,59.05292479108635
01602,Worcester County,MA,NA,NA,NA,48.8857938718663
01603,Worcester County,MA,NA,NA,1.5362106803218727,NA
01604,Worcester County,MA,NA,NA,NA,2.3676880222841223
01605,Worcester County,MA,NA,1.2210796915167095,NA,NA
01609,Worcester County,MA,NA,NA,4.6086320409656185,4.874651810584958
01702,Middlesex County,MA,NA,1.1568123393316194,NA,NA
01730,Middlesex County,MA,NA,NA,NA,14.902506963788301
01748,Middlesex County,MA,NA,NA,29.846378931967816,NA
01752,Middlesex County,MA,40.823970037453186,NA,NA,NA
01757,Worcester County,MA,NA,1.9280205655526992,4.462326261887344,NA
01760,Middlesex County,MA,NA,NA,59.8390636430139,NA
01773,Middlesex County,MA,NA,NA,NA,67.54874651810584
01803,Middlesex County,MA,NA,15.359897172236503,NA,NA
01821,Middlesex County,MA,77.52808988764045,NA,49.597659107534746,NA
01824,Middlesex County,MA,NA,NA,5.852231163130943,NA
01830,Essex County,MA,NA,NA,6.071689831748354,NA
01832,Essex County,MA,92.13483146067416,NA,NA,NA
01835,Essex County,MA,NA,NA,94.58668617410387,NA
01843,Essex County,MA,NA,82.58354755784062,13.89904901243599,NA
01844,Essex County,MA,NA,1.0282776349614395,NA,NA
01845,Essex County,MA,NA,NA,NA,66.01671309192201
01850,Middlesex County,MA,NA,NA,NA,66.57381615598887
01852,Middlesex County,MA,NA,0.12853470437017994,NA,17.270194986072422
01854,Middlesex County,MA,NA,21.979434447300772,NA,NA
01864,Middlesex County,MA,NA,NA,NA,50.41782729805014
01880,Middlesex County,MA,NA,4.627249357326478,NA,NA
01886,Middlesex County,MA,NA,NA,NA,41.08635097493036
01902,Essex County,MA,NA,NA,NA,61.83844011142061
01906,Essex County,MA,64.7940074906367,NA,NA,NA
01930,Essex County,MA,NA,13.624678663239074,NA,NA
01950,Essex County,MA,NA,NA,19.531821506949523,NA
01960,Essex County,MA,NA,12.082262210796916,NA,17.96657381615599
01966,Essex County,MA,NA,NA,NA,83.008356545961007
01970,Essex County,MA,NA,55.78406169665809,NA,NA
01982,Essex County,MA,NA,62.2107969151671,NA,NA
01983,Essex County,MA,NA,NA,71.68983174835407,NA
01985,Essex County,MA,NA,85.47557840616966,NA,NA
02019,Norfolk County,MA,NA,NA,7.900512070226775,NA
02021,Norfolk County,MA,NA,NA,NA,76.46239554317549
02026,Norfolk County,MA,NA,NA,59.18068763716167,NA
02035,Norfolk County,MA,NA,93.70179948586119,NA,75.90529247910864
02038,Norfolk County,MA,NA,34.76863753213368,NA,NA
02043,Plymouth County,MA,NA,NA,NA,17.40947075208914
02048,Bristol County,MA,NA,NA,10.826627651792247,NA
02052,Norfolk County,MA,NA,NA,48.93928310168252,NA
02061,Plymouth County,MA,NA,NA,80.3218727139722,NA
02062,Norfolk County,MA,NA,NA,NA,61.97771587743732
02066,Plymouth County,MA,55.0561797752809,NA,NA,NA
02081,Norfolk County,MA,NA,16.580976863753214,37.088514996342354,NA
02093,Norfolk County,MA,NA,NA,68.3979517190929,NA
02116,Suffolk County,MA,NA,11.632390745501285,NA,NA
02118,Suffolk County,MA,NA,1.7994858611825193,5.70592538405267,NA
02119,Suffolk County,MA,NA,NA,NA,36.35097493036212
02120,Suffolk County,MA,NA,NA,NA,72.56267409470752
02122,Suffolk County,MA,NA,NA,10.168251645940014,NA
02124,Suffolk County,MA,NA,0.5784061696658097,54.352596927578645,NA
02128,Suffolk County,MA,NA,0.3856041131105398,NA,NA
02130,Suffolk County,MA,NA,57.90488431876607,0.7315288953913679,NA
02135,Suffolk County,MA,NA,NA,8.705193855157278,NA
02136,Suffolk County,MA,NA,1.6066838046272494,NA,NA
02138,Middlesex County,MA,NA,NA,25.822970007315288,68.52367688022284
02139,Middlesex County,MA,NA,0.3213367609254499,NA,NA
02140,Middlesex County,MA,NA,NA,33.65032918800293,NA
02141,Middlesex County,MA,NA,22.62210796915167,NA,NA
02143,Middlesex County,MA,NA,NA,NA,15.181058495821729
02144,Middlesex County,MA,NA,85.2827763496144,NA,NA
02149,Middlesex County,MA,NA,0.2570694087403599,0.2926115581565472,NA
02150,Suffolk County,MA,NA,NA,0.5120702267739575,NA
02151,Suffolk County,MA,NA,1.3496143958868894,NA,NA
02155,Middlesex County,MA,NA,NA,NA,0.4178272980501393
02169,Norfolk County,MA,4.868913857677903,8.354755784061698,NA,NA
02176,Middlesex County,MA,NA,5.012853470437018,NA,NA
02180,Middlesex County,MA,NA,9.318766066838046,NA,NA
02184,Norfolk County,MA,32.58426966292135,63.04627249357326,NA,NA
02186,Norfolk County,MA,NA,NA,NA,46.51810584958218
02301,Plymouth County,MA,NA,0,NA,NA
02302,Plymouth County,MA,NA,5.719794344473008,0.9509875640087784,4.456824512534819
02322,Norfolk County,MA,NA,76.41388174807197,NA,NA
02347,Plymouth County,MA,NA,61.311053984575835,NA,NA
02356,Bristol County,MA,NA,63.49614395886889,NA,NA
02360,Plymouth County,MA,4.119850187265917,NA,64.88661302121433,NA
02370,Plymouth County,MA,NA,NA,NA,74.65181058495823
02379,Plymouth County,MA,47.565543071161045,NA,NA,NA
02446,Norfolk County,MA,56.17977528089888,14.203084832904883,NA,NA
02453,Middlesex County,MA,64.04494382022472,NA,NA,NA
02459,Middlesex County,MA,NA,37.08226221079691,NA,NA
02461,Middlesex County,MA,NA,NA,57.93708851499634,NA
02466,Middlesex County,MA,NA,75.51413881748073,NA,NA
02467,Norfolk County,MA,NA,NA,23.847841989758596,NA
02468,Middlesex County,MA,NA,91.19537275064268,NA,NA
02472,Middlesex County,MA,NA,23.13624678663239,73.51865398683248,NA
02492,Norfolk County,MA,NA,NA,22.019019751280176,NA
02493,Middlesex County,MA,NA,54.177377892030854,90.19751280175568,NA
02536,Barnstable County,MA,NA,NA,NA,11.142061281337048
02556,Barnstable County,MA,NA,NA,85.80833942940747,NA
02563,Barnstable County,MA,NA,NA,NA,49.30362116991643
02601,Barnstable County,MA,NA,NA,48.13460131675201,NA
02631,Barnstable County,MA,NA,69.73007712082261,98.24433065106072,NA
02649,Barnstable County,MA,NA,30.526992287917736,NA,NA
02653,Barnstable County,MA,NA,NA,71.03145574250182,NA
02703,Bristol County,MA,NA,0.8354755784061696,75.71324067300658,NA
02720,Bristol County,MA,NA,0.1928020565552699,NA,NA
02724,Bristol County,MA,NA,NA,4.242867593269934,NA
02740,Bristol County,MA,NA,0.06426735218508997,0.0731528895391368,NA
02744,Bristol County,MA,NA,8.033419023136247,NA,NA
02748,Bristol County,MA,NA,NA,43.16020482809071,NA
02760,Bristol County,MA,NA,NA,NA,42.20055710306407
02767,Bristol County,MA,NA,19.151670951156813,NA,NA
02780,Bristol County,MA,NA,71.01542416452442,11.997073884418434,NA
48030,Oakland County,MI,NA,NA,48.57351865398683,NA
48033,Oakland County,MI,NA,34.12596401028278,NA,NA
48035,Macomb County,MI,NA,29.4987146529563,NA,NA
48036,Macomb County,MI,NA,NA,NA,43.5933147632312
48042,Macomb County,MI,NA,NA,21.50694952450622,NA
48044,Macomb County,MI,NA,5.5269922879177376,5.047549378200439,NA
48066,Macomb County,MI,NA,NA,7.534747622531091,NA
48076,Oakland County,MI,NA,NA,20.702267739575714,30.64066852367688
48080,Macomb County,MI,NA,78.72750642673522,11.265544989027067,NA
48081,Macomb County,MI,24.719101123595504,NA,NA,NA
48091,Macomb County,MI,NA,3.984575835475578,NA,35.23676880222841
48101,Wayne County,MI,NA,NA,23.482077542062914,NA
48103,Washtenaw County,MI,NA,NA,NA,1.6713091922005572
48104,Washtenaw County,MI,77.90262172284645,NA,NA,NA
48105,Washtenaw County,MI,NA,NA,68.83686905632771,NA
48108,Washtenaw County,MI,23.595505617977526,NA,25.16459400146306,NA
48111,Wayne County,MI,7.116104868913857,4.305912596401028,NA,NA
48116,Livingston County,MI,NA,NA,12.58229700073153,NA
48124,Wayne County,MI,36.70411985018727,NA,NA,NA
48127,Wayne County,MI,NA,9.190231362467866,NA,NA
48128,Wayne County,MI,71.53558052434457,NA,NA,NA
48146,Wayne County,MI,NA,NA,12.509144111192391,NA
48152,Wayne County,MI,NA,26.542416452442158,NA,NA
48161,Monroe County,MI,NA,24.03598971722365,15.80102414045355,NA
48166,Monroe County,MI,NA,NA,75.78639356254571,NA
48167,Oakland County,MI,NA,32.71208226221079,NA,NA
48168,Wayne County,MI,NA,45.30848329048843,NA,NA
48169,Livingston County,MI,NA,83.61182519280206,NA,NA
48170,Wayne County,MI,NA,NA,NA,48.467966573816156
48173,Wayne County,MI,47.565543071161045,NA,NA,NA
48178,Oakland County,MI,NA,NA,87.34455010972934,NA
48180,Wayne County,MI,NA,NA,NA,2.5069637883008355
48185,Wayne County,MI,NA,19.98714652956298,NA,NA
48187,Wayne County,MI,NA,7.455012853470437,NA,NA
48188,Wayne County,MI,NA,NA,45.64740307242136,NA
48195,Wayne County,MI,NA,NA,8.851499634235552,NA
48197,Washtenaw County,MI,NA,11.246786632390746,NA,NA
48198,Washtenaw County,MI,NA,25.578406169665808,NA,NA
48203,Wayne County,MI,NA,NA,NA,32.729805013927574
48204,Wayne County,MI,NA,NA,NA,26.044568245125348
48211,Wayne County,MI,NA,77.12082262210797,NA,NA
48213,Wayne County,MI,NA,8.226221079691516,NA,NA
48214,Wayne County,MI,NA,14.652956298200515,NA,NA
48219,Wayne County,MI,NA,3.4061696658097684,NA,NA
48221,Wayne County,MI,NA,NA,NA,17.827298050139277
48223,Wayne County,MI,NA,68.38046272493573,NA,NA
48224,Wayne County,MI,NA,37.46786632390746,NA,NA
48225,Wayne County,MI,NA,59.44730077120822,NA,NA
48228,Wayne County,MI,NA,19.601542416452443,NA,NA
48235,Wayne County,MI,NA,1.992287917737789,2.121433796634967,9.88857938718663
48236,Wayne County,MI,NA,NA,55.669348939283104,NA
48238,Wayne County,MI,NA,NA,13.313825896122896,NA
48306,Oakland County,MI,NA,NA,47.25676664228237,NA
48309,Oakland County,MI,NA,55.077120822622106,NA,NA
48310,Macomb County,MI,NA,53.66323907455013,NA,NA
48314,Macomb County,MI,NA,85.60411311053984,NA,NA
48327,Oakland County,MI,NA,NA,32.33357717629846,NA
48329,Oakland County,MI,NA,54.37017994858612,NA,NA
48340,Oakland County,MI,NA,47.62210796915167,NA,NA
48342,Oakland County,MI,NA,NA,75.20117044623262,NA
48359,Oakland County,MI,NA,75.38560411311053,NA,NA
48362,Oakland County,MI,NA,NA,72.05559619604975,NA
48363,Oakland County,MI,NA,87.91773778920309,NA,NA
48374,Oakland County,MI,61.79775280898876,62.724935732647815,63.496708119970734,NA
48383,Oakland County,MI,NA,58.29048843187661,NA,NA
48386,Oakland County,MI,NA,50.706940874035986,NA,NA
48421,Lapeer County,MI,NA,83.48329048843188,NA,NA
48423,Genesee County,MI,43.07116104868914,NA,NA,NA
48433,Genesee County,MI,NA,44.601542416452446,NA,NA
48439,Genesee County,MI,NA,9.511568123393316,NA,10.445682451253482
48442,Oakland County,MI,NA,40.102827763496144,NA,NA
48446,Lapeer County,MI,NA,10.925449871465295,19.092904169714703,NA
48451,Genesee County,MI,NA,89.52442159383034,NA,77.99442896935933
48458,Genesee County,MI,NA,24.55012853470437,NA,NA
48475,Huron County,MI,NA,NA,97.58595464520849,NA
48504,Genesee County,MI,NA,13.303341902313626,NA,NA
48506,Genesee County,MI,NA,18.637532133676093,NA,NA
48601,Saginaw County,MI,NA,22.557840616966583,58.888076079005124,NA
48602,Saginaw County,MI,NA,2.570694087403599,33.35771762984638,NA
48609,Saginaw County,MI,NA,74.293059125964,NA,NA
48618,Midland County,MI,NA,NA,89.97805413313826,NA
48623,Saginaw County,MI,NA,61.95372750642674,NA,NA
48624,Gladwin County,MI,NA,31.362467866323907,NA,NA
48632,Clare County,MI,NA,71.8508997429306,NA,NA
48634,Bay County,MI,94.00749063670412,NA,NA,NA
48638,Saginaw County,MI,NA,NA,NA,92.33983286908078
48640,Midland County,MI,NA,7.005141388174807,NA,NA
48642,Midland County,MI,NA,67.03084832904884,NA,NA
48656,Roscommon County,MI,NA,64.91002570694087,NA,NA
48657,Midland County,MI,NA,NA,81.63862472567666,NA
48661,Ogemaw County,MI,NA,45.88688946015424,NA,NA
48706,Bay County,MI,NA,NA,38.7710314557425,NA
48708,Bay County,MI,NA,NA,7.022677395757132,NA
48723,Tuscola County,MI,NA,21.336760925449873,NA,NA
48732,Bay County,MI,NA,NA,68.25164594001463,NA
48809,Ionia County,MI,NA,55.205655526992295,NA,89.83286908077994
48817,Shiawassee County,MI,NA,NA,71.90929041697147,NA
48827,Eaton County,MI,NA,NA,89.83174835405998,NA
48836,Livingston County,MI,NA,NA,43.087051938551575,NA
48837,Eaton County,MI,NA,NA,26.481346013167524,NA
48843,Livingston County,MI,NA,NA,3.3650329188002925,NA
48846,Ionia County,MI,NA,NA,39.136795903438184,NA
48867,Shiawassee County,MI,NA,22.94344473007712,NA,NA
48883,Isabella County,MI,NA,NA,53.62106803218727,NA
48893,Isabella County,MI,NA,NA,NA,99.72144846796658
48895,Ingham County,MI,NA,NA,71.17776152158011,NA
48910,Ingham County,MI,2.9962546816479403,8.676092544987146,NA,NA
48912,Ingham County,MI,NA,79.69151670951156,NA,NA
48917,Eaton County,MI,NA,NA,7.607900512070227,NA
49001,Kalamazoo County,MI,NA,NA,73.07973664959766,NA
49002,Kalamazoo County,MI,NA,NA,NA,51.67130919220055
49004,Kalamazoo County,MI,NA,NA,95.31821506949525,NA
49006,Kalamazoo County,MI,NA,78.66323907455013,NA,NA
49008,Kalamazoo County,MI,NA,75.89974293059126,NA,74.23398328690809
49009,Kalamazoo County,MI,69.66292134831461,78.2133676092545,NA,11.002785515320335
49010,Allegan County,MI,NA,82.06940874035989,66.20336503291881,NA
49014,Calhoun County,MI,NA,NA,80.90709583028529,NA
49017,Calhoun County,MI,NA,NA,19.970738844184346,NA
49024,Kalamazoo County,MI,NA,20.629820051413883,47.110460863204096,69.91643454038997
49037,Calhoun County,MI,28.46441947565543,NA,NA,NA
49047,Cass County,MI,NA,44.023136246786635,69.78785662033651,NA
49048,Kalamazoo County,MI,NA,65.48843187660668,80.98024871982443,NA
49051,Calhoun County,MI,94.7565543071161,NA,NA,NA
49053,Kalamazoo County,MI,NA,92.09511568123393,NA,NA
49056,Van Buren County,MI,NA,NA,99.63423555230432,NA
49058,Barry County,MI,NA,24.42159383033419,NA,NA
49065,Van Buren County,MI,NA,NA,NA,75.76601671309191
49078,Allegan County,MI,NA,NA,NA,70.05571030640668
49079,Van Buren County,MI,NA,NA,36.28383321141185,NA
49090,Van Buren County,MI,NA,NA,NA,60.58495821727019
49091,St. Joseph County,MI,NA,37.789203084832906,NA,NA
49097,Kalamazoo County,MI,NA,NA,61.44842721287491,NA
49098,Berrien County,MI,NA,80.46272493573264,NA,NA
49120,Berrien County,MI,NA,10.861182519280206,NA,13.649025069637883
49201,Jackson County,MI,NA,6.233933161953727,52.743233357717635,NA
49202,Jackson County,MI,NA,NA,25.018288222384783,NA
49203,Jackson County,MI,NA,5.077120822622108,6.3643013899049015,NA
49221,Lenawee County,MI,NA,NA,3.730797366495977,5.571030640668524
49224,Calhoun County,MI,NA,NA,47.183613752743234,NA
49307,Mecosta County,MI,NA,67.9948586118252,NA,NA
49315,Kent County,MI,NA,NA,NA,33.00835654596101
49329,Montcalm County,MI,NA,48.39331619537275,NA,NA
49341,Kent County,MI,NA,NA,50.036576444769565,NA
49348,Allegan County,MI,NA,NA,82.07754206291149,NA
49401,Ottawa County,MI,NA,48.52185089974293,NA,NA
49415,Muskegon County,MI,NA,NA,NA,98.32869080779945
49417,Ottawa County,MI,NA,13.110539845758353,5.120702267739576,NA
49418,Kent County,MI,NA,NA,NA,68.94150417827298
49444,Muskegon County,MI,NA,NA,16.459400146305782,NA
49454,Mason County,MI,NA,71.65809768637533,NA,NA
49456,Ottawa County,MI,NA,37.210796915167094,NA,NA
49460,Ottawa County,MI,NA,NA,NA,80.64066852367688
49464,Ottawa County,MI,29.588014981273407,NA,NA,NA
49503,Kent County,MI,11.235955056179774,NA,NA,NA
49504,Kent County,MI,NA,NA,10.899780541331383,NA
49506,Kent County,MI,NA,NA,33.430870519385515,NA
49509,Kent County,MI,NA,9.832904884318767,NA,NA
49546,Kent County,MI,NA,NA,25.457205559619606,55.71030640668524
49635,Benzie County,MI,NA,NA,79.15142648134601,66.57381615598887
49646,Kalkaska County,MI,NA,NA,NA,68.38440111420613
49659,Antrim County,MI,50.56179775280899,NA,NA,NA
49682,Leelanau County,MI,NA,NA,86.90563277249451,NA
49715,Chippewa County,MI,NA,86.63239074550128,NA,NA
49783,Chippewa County,MI,NA,NA,16.093635698610097,NA
49849,Marquette County,MI,NA,65.03856041131105,NA,NA
49913,Houghton County,MI,NA,71.91516709511568,NA,NA
49920,Iron County,MI,NA,NA,76.00585223116313,NA
49931,Houghton County,MI,NA,NA,91.22165325530358,NA
49938,Gogebic County,MI,NA,NA,39.868324798829555,NA
55011,Anoka County,MN,54.30711610486891,NA,NA,NA
55033,Dakota County,MN,NA,NA,45.208485735186535,NA
55037,Pine County,MN,NA,NA,93.70885149963424,NA
55041,Wabasha County,MN,NA,NA,88.73445501097294,NA
55069,Chisago County,MN,NA,NA,98.46378931967813,NA
55102,Ramsey County,MN,NA,NA,62.69202633504023,NA
55113,Ramsey County,MN,NA,NA,36.06437454279444,NA
55118,Dakota County,MN,NA,91.13110539845758,NA,NA
55122,Dakota County,MN,NA,NA,NA,50.13927576601671
55125,Washington County,MN,NA,73.39331619537275,NA,NA
55128,Washington County,MN,NA,NA,44.62326261887345,NA
55304,Anoka County,MN,NA,80.719794344473,NA,NA
55320,Wright County,MN,NA,NA,89.10021945866862,NA
55332,Renville County,MN,NA,NA,98.31748354059985,NA
55337,Dakota County,MN,NA,55.26992287917738,18.653986832479884,NA
55350,McLeod County,MN,NA,22.236503856041132,NA,NA
55369,Hennepin County,MN,NA,NA,NA,52.089136490250695
55372,Scott County,MN,NA,NA,NA,87.74373259052925
55397,Carver County,MN,NA,98.7789203084833,NA,NA
55398,Sherburne County,MN,NA,NA,79.22457937088515,NA
55404,Hennepin County,MN,NA,NA,1.9751280175566936,NA
55406,Hennepin County,MN,NA,NA,22.092172640819314,NA
55411,Hennepin County,MN,NA,NA,41.40453547915143,NA
55416,Hennepin County,MN,NA,NA,NA,30.919220055710305
55432,Anoka County,MN,NA,17.35218508997429,NA,NA
55447,Hennepin County,MN,NA,62.2107969151671,NA,71.86629526462396
55719,St. Louis County,MN,NA,NA,83.24798829553768,NA
55720,Carlton County,MN,NA,67.67352185089975,NA,NA
55744,Itasca County,MN,NA,NA,NA,44.01114206128134
55746,St. Louis County,MN,NA,19.151670951156813,25.896122896854422,NA
55803,St. Louis County,MN,NA,56.68380462724936,NA,28.133704735376046
55811,St. Louis County,MN,NA,23.77892030848329,4.316020482809071,NA
55901,Olmsted County,MN,NA,20.308483290488432,NA,NA
55912,Mower County,MN,10.861423220973784,NA,NA,6.267409470752089
56071,Scott County,MN,NA,76.2210796915167,NA,NA
56073,Brown County,MN,NA,60.47557840616966,NA,NA
56081,Watonwan County,MN,NA,NA,84.71104608632041,NA
56156,Rock County,MN,NA,NA,NA,94.15041782729804
56175,Lyon County,MN,NA,NA,NA,99.86072423398329
56178,Lincoln County,MN,92.50936329588015,NA,NA,NA
56201,Kandiyohi County,MN,NA,37.40359897172236,NA,NA
56267,Stevens County,MN,NA,93.31619537275064,NA,NA
56301,Stearns County,MN,NA,36.63239074550128,NA,NA
56303,Stearns County,MN,NA,25,37.16166788588149,NA
56304,Sherburne County,MN,NA,NA,89.61228968544258,NA
56345,Morrison County,MN,NA,NA,29.114850036576446,NA
56387,Stearns County,MN,NA,NA,NA,86.0724233983287
56401,Crow Wing County,MN,NA,6.748071979434448,64.08193123628382,22.701949860724234
56468,Crow Wing County,MN,NA,NA,NA,58.07799442896936
56479,Todd County,MN,NA,69.08740359897172,69.34893928310169,NA
56482,Wadena County,MN,NA,NA,45.574250182882224,NA
56501,Becker County,MN,NA,58.86889460154242,NA,NA
56537,Otter Tail County,MN,NA,NA,30.724213606437456,1.532033426183844
56560,Clay County,MN,NA,44.408740359897166,NA,NA
56601,Beltrami County,MN,NA,NA,NA,0.8356545961002786
56621,Clearwater County,MN,NA,NA,NA,28.27298050139276
38637,DeSoto County,MS,NA,40.87403598971722,NA,58.21727019498607
38829,Prentiss County,MS,32.20973782771536,39.138817480719794,NA,NA
38921,Tallahatchie County,MS,NA,NA,60.863204096561816,NA
38922,Yalobusha County,MS,NA,NA,97.29334308705194,NA
38930,Leflore County,MS,NA,59.44730077120822,NA,NA
38967,Montgomery County,MS,NA,NA,NA,81.47632311977716
39056,Hinds County,MS,NA,NA,NA,47.07520891364902
39110,Madison County,MS,44.19475655430712,NA,49.524506217995615,NA
39117,Scott County,MS,NA,NA,65.69129480614484,NA
39119,Covington County,MS,NA,NA,90.34381858083394,NA
39206,Hinds County,MS,37.82771535580524,NA,NA,NA
39208,Rankin County,MS,NA,NA,72.42136064374543,NA
39213,Hinds County,MS,NA,56.23393316195373,NA,NA
39301,Lauderdale County,MS,NA,13.624678663239074,36.942209217264086,NA
39305,Lauderdale County,MS,62.172284644194754,NA,NA,NA
39307,Lauderdale County,MS,NA,84.51156812339332,57.86393562545721,NA
39341,Noxubee County,MS,NA,NA,98.39063643013898,NA
39345,Newton County,MS,NA,NA,84.34528163862473,94.70752089136491
39350,Neshoba County,MS,NA,NA,24.067300658376006,NA
39367,Wayne County,MS,NA,NA,NA,69.22005571030641
39426,Pearl River County,MS,NA,NA,NA,88.16155988857939
39437,Jones County,MS,NA,NA,86.39356254572056,89.55431754874652
39452,George County,MS,NA,20.24421593830334,NA,NA
39503,Harrison County,MS,NA,NA,19.824433065106074,NA
39520,Hancock County,MS,NA,75.19280205655528,NA,NA
39525,Hancock County,MS,NA,NA,89.31967812728602,NA
39540,Harrison County,MS,NA,68.63753213367609,NA,NA
39563,Jackson County,MS,NA,41.32390745501285,NA,48.18941504178273
39564,Jackson County,MS,NA,NA,NA,79.38718662952647
39573,Stone County,MS,NA,82.32647814910025,73.22604242867592,NA
39574,Harrison County,MS,NA,44.023136246786635,44.25749817117776,NA
39577,Stone County,MS,NA,79.37017994858611,NA,NA
39581,Jackson County,MS,NA,66.90231362467867,NA,NA
39601,Lincoln County,MS,NA,NA,NA,63.370473537604454
39667,Walthall County,MS,NA,98.0719794344473,52.450621799561084,NA
63010,Jefferson County,MO,NA,NA,20.848573518653986,NA
63011,St. Louis County,MO,NA,80.97686375321337,NA,NA
63012,Jefferson County,MO,NA,NA,77.68836869056328,NA
63017,St. Louis County,MO,98.12734082397003,NA,10.02194586686174,NA
63026,St. Louis County,MO,NA,NA,NA,18.52367688022284
63031,St. Louis County,MO,20.59925093632959,NA,9.948792977322604,NA
63034,St. Louis County,MO,NA,NA,NA,73.11977715877437
63042,St. Louis County,MO,37.453183520599254,NA,NA,NA
63043,St. Louis County,MO,NA,NA,NA,24.094707520891365
63090,Franklin County,MO,43.82022471910113,NA,NA,NA
63112,St. Louis city,MO,NA,NA,NA,52.92479108635098
63116,St. Louis city,MO,NA,55.65552699228792,NA,NA
63119,St. Louis County,MO,NA,NA,NA,6.545961002785515
63120,St. Louis city,MO,NA,NA,71.25091441111924,NA
63121,St. Louis County,MO,NA,NA,NA,39.97214484679666
63122,St. Louis County,MO,NA,NA,48.792977322604244,NA
63124,St. Louis County,MO,NA,NA,68.03218727139722,NA
63129,St. Louis County,MO,NA,NA,58.30285296269203,NA
63132,St. Louis County,MO,74.90636704119851,NA,NA,NA
63136,St. Louis County,MO,NA,NA,NA,27.57660167130919
63141,St. Louis County,MO,NA,91.6452442159383,NA,NA
63348,St. Charles County,MO,NA,NA,98.53694220921726,NA
63366,St. Charles County,MO,NA,NA,3.511338697878566,NA
63368,St. Charles County,MO,NA,NA,17.33723482077542,72.42339832869081
63376,St. Charles County,MO,NA,NA,NA,4.178272980501393
63401,Marion County,MO,NA,77.05655526992288,99.7805413313826,NA
63552,Macon County,MO,NA,NA,NA,50
63645,Madison County,MO,NA,NA,84.93050475493781,NA
63670,Ste. Genevieve County,MO,NA,NA,61.00950987564009,78.41225626740948
63857,Dunklin County,MO,NA,36.696658097686374,NA,NA
63957,Wayne County,MO,NA,87.01799485861183,NA,NA
64011,Lafayette County,MO,NA,85.08997429305913,NA,NA
64012,Cass County,MO,NA,21.015424164524422,NA,NA
64015,Jackson County,MO,NA,9.704370179948587,NA,NA
64016,Jackson County,MO,NA,76.79948586118252,NA,NA
64024,Clay County,MO,NA,13.367609254498714,60.35113386978785,NA
64029,Jackson County,MO,NA,32.005141388174806,NA,NA
64055,Jackson County,MO,NA,NA,NA,12.256267409470752
64068,Clay County,MO,NA,6.041131105398458,NA,NA
64070,Jackson County,MO,NA,94.73007712082261,NA,NA
64075,Jackson County,MO,NA,NA,54.572055596196044,NA
64077,Ray County,MO,NA,NA,98.17117776152158,NA
64078,Cass County,MO,NA,56.68380462724936,NA,NA
64080,Cass County,MO,NA,74.93573264781492,NA,NA
64083,Cass County,MO,NA,29.755784061696662,NA,NA
64086,Jackson County,MO,NA,27.892030848329046,NA,NA
64089,Clay County,MO,NA,NA,83.10168251645939,NA
64109,Jackson County,MO,NA,NA,27.57863935625457,NA
64113,Jackson County,MO,NA,86.11825192802056,NA,NA
64114,Jackson County,MO,NA,70.4370179948586,NA,NA
64116,Clay County,MO,NA,NA,32.84564740307242,NA
64117,Clay County,MO,NA,NA,34.893928310168256,NA
64119,Clay County,MO,NA,7.969151670951156,NA,NA
64127,Jackson County,MO,NA,57.390745501285345,88.00292611558157,NA
64129,Jackson County,MO,51.31086142322098,NA,NA,NA
64130,Jackson County,MO,NA,4.113110539845758,NA,NA
64133,Jackson County,MO,NA,15.938303341902312,NA,NA
64134,Jackson County,MO,NA,NA,90.63643013899049,NA
64145,Jackson County,MO,NA,72.94344473007712,NA,NA
64151,Platte County,MO,NA,NA,41.62399414776884,NA
64152,Platte County,MO,NA,NA,27.79809802487198,NA
64153,Platte County,MO,NA,89.39588688946016,NA,NA
64154,Platte County,MO,NA,NA,93.56254572055597,NA
64485,Andrew County,MO,NA,52.50642673521851,NA,NA
64492,Clinton County,MO,99.625468164794,NA,NA,NA
64503,Buchanan County,MO,NA,20.17994858611825,NA,NA
64505,Buchanan County,MO,NA,25.449871465295633,NA,32.17270194986072
64506,Buchanan County,MO,NA,NA,5.998536942209217,NA
64601,Livingston County,MO,NA,41.0025706940874,NA,NA
64701,Cass County,MO,NA,36.311053984575835,NA,NA
64730,Bates County,MO,NA,NA,NA,90.80779944289694
64744,Cedar County,MO,NA,64.33161953727506,NA,NA
64759,Barton County,MO,72.28464419475655,NA,NA,NA
64801,Jasper County,MO,NA,9.768637532133676,NA,NA
64836,Jasper County,MO,NA,NA,NA,60.02785515320335
64850,Newton County,MO,NA,NA,46.59839063643014,NA
64854,McDonald County,MO,NA,81.55526992287918,NA,NA
65020,Camden County,MO,NA,82.19794344473009,57.57132406730066,NA
65026,Miller County,MO,46.06741573033708,NA,NA,NA
65049,Camden County,MO,NA,NA,NA,65.73816155988858
65202,Boone County,MO,NA,31.041131105398456,NA,NA
65203,Boone County,MO,NA,47.87917737789203,51.71909290416971,NA
65240,Boone County,MO,NA,NA,NA,85.65459610027855
65265,Audrain County,MO,NA,NA,NA,40.11142061281337
65270,Randolph County,MO,NA,50.96401028277635,NA,NA
65301,Pettis County,MO,10.112359550561797,NA,NA,NA
65340,Saline County,MO,NA,NA,49.231894659839064,NA
65355,Benton County,MO,NA,NA,NA,32.45125348189415
65360,Henry County,MO,NA,77.12082262210797,NA,NA
65483,Texas County,MO,NA,NA,79.88295537673739,NA
65605,Lawrence County,MO,NA,63.75321336760925,NA,NA
65613,Polk County,MO,NA,NA,NA,13.92757660167131
65622,Dallas County,MO,NA,NA,76.51792245793709,NA
65721,Christian County,MO,NA,NA,51.93855157278713,NA
65804,Greene County,MO,NA,NA,NA,41.78272980501393
65807,Greene County,MO,NA,NA,12.801755669348939,NA
65810,Greene County,MO,NA,NA,53.54791514264814,NA
59101,Yellowstone County,MT,NA,NA,19.01975128017557,NA
59102,Yellowstone County,MT,NA,NA,3.584491587417703,NA
59270,Richland County,MT,NA,NA,53.40160936356986,NA
59323,Rosebud County,MT,NA,99.87146529562982,NA,NA
59401,Cascade County,MT,NA,NA,NA,61.6991643454039
59404,Cascade County,MT,NA,62.98200514138818,9.436722750548647,81.05849582172702
59601,Lewis and Clark County,MT,NA,61.82519280205655,NA,NA
59602,Lewis and Clark County,MT,NA,48.45758354755784,NA,NA
59701,Silver Bow County,MT,NA,NA,29.626920263350403,NA
59714,Gallatin County,MT,NA,76.54241645244217,NA,NA
59715,Gallatin County,MT,NA,NA,58.74177029992684,NA
59901,Flathead County,MT,NA,25.257069408740364,NA,NA
68005,Sarpy County,NE,NA,52.37789203084833,NA,NA
68008,Washington County,NE,NA,NA,52.23116313094367,NA
68025,Dodge County,NE,NA,NA,NA,7.7994428969359335
68104,Douglas County,NE,NA,20.051413881748072,NA,NA
68107,Douglas County,NE,NA,42.80205655526992,NA,NA
68114,Douglas County,NE,NA,NA,NA,38.99721448467967
68130,Douglas County,NE,NA,NA,62.91148500365764,NA
68132,Douglas County,NE,NA,NA,92.39209948792977,NA
68137,Douglas County,NE,34.831460674157306,NA,NA,NA
68154,Douglas County,NE,NA,NA,NA,46.93593314763231
68333,Saline County,NE,NA,97.23650385604114,NA,NA
68352,Jefferson County,NE,NA,NA,91.00219458668617,NA
68521,Lancaster County,NE,78.27715355805243,NA,NA,NA
68601,Platte County,NE,NA,NA,79.2977322604243,43.73259052924791
68845,Buffalo County,NE,NA,72.87917737789203,NA,NA
69162,Cheyenne County,NE,NA,67.03084832904884,84.19897585954645,NA
69337,Dawes County,NE,NA,NA,73.22604242867592,NA
69341,Scotts Bluff County,NE,NA,91.70951156812339,NA,NA
69361,Scotts Bluff County,NE,NA,NA,NA,51.81058495821726
89110,Clark County,NV,NA,14.974293059125966,NA,NA
89119,Clark County,NV,NA,69.08740359897172,NA,NA
89403,Lyon County,NV,NA,30.848329048843187,NA,NA
89410,Douglas County,NV,NA,NA,25.018288222384783,NA
89423,Douglas County,NV,NA,NA,47.69568397951719,NA
89431,Washoe County,NV,NA,NA,31.163130943672275,NA
89433,Washoe County,NV,NA,59.89717223650386,NA,NA
89434,Washoe County,NV,NA,NA,27.212874908558888,NA
89436,Washoe County,NV,NA,NA,53.03584491587417,NA
89445,Humboldt County,NV,NA,66.58097686375322,NA,NA
89447,Lyon County,NV,NA,93.76606683804627,NA,NA
89460,Douglas County,NV,93.25842696629213,NA,NA,NA
89502,Washoe County,NV,NA,NA,15.654718361375275,NA
89523,Washoe County,NV,NA,44.987146529562985,NA,NA
89701,Carson City,NV,NA,31.49100257069409,NA,NA
89801,Elko County,NV,NA,54.24164524421594,NA,NA
03031,Hillsborough County,NH,NA,65.68123393316195,NA,NA
03044,Rockingham County,NH,NA,91.83804627249359,NA,NA
03045,Hillsborough County,NH,NA,57.005141388174806,NA,NA
03049,Hillsborough County,NH,NA,NA,83.97951719092904,NA
03055,Hillsborough County,NH,NA,NA,NA,90.25069637883009
03077,Rockingham County,NH,NA,80.14138817480719,82.58961228968545,NA
03079,Rockingham County,NH,NA,11.825192802056556,NA,NA
03103,Hillsborough County,NH,NA,NA,50.40234089246525,NA
03104,Hillsborough County,NH,NA,NA,NA,23.398328690807798
03235,Merrimack County,NH,NA,56.87660668380463,NA,37.46518105849582
03275,Merrimack County,NH,NA,NA,NA,78.13370473537604
03303,Merrimack County,NH,NA,NA,NA,58.77437325905292
03431,Cheshire County,NH,NA,51.41388174807198,NA,74.5125348189415
03446,Cheshire County,NH,NA,NA,NA,51.25348189415042
03743,Sullivan County,NH,NA,NA,NA,27.85515320334262
03766,Grafton County,NH,NA,NA,NA,95.68245125348189
03773,Sullivan County,NH,NA,NA,NA,67.27019498607241
03819,Rockingham County,NH,NA,88.17480719794345,NA,NA
03820,Strafford County,NH,NA,16.131105398457585,NA,NA
03833,Rockingham County,NH,NA,NA,NA,25.766016713091922
03841,Rockingham County,NH,NA,86.05398457583547,NA,NA
03894,Carroll County,NH,NA,NA,NA,38.022284122562674
07002,Hudson County,NJ,NA,70.88688946015425,NA,NA
07003,Essex County,NJ,NA,NA,21.28749085588881,NA
07006,Essex County,NJ,NA,NA,38.18580833942941,NA
07010,Bergen County,NJ,NA,NA,78.78566203365033,NA
07011,Passaic County,NJ,NA,55.84832904884319,NA,NA
07012,Passaic County,NJ,NA,NA,99.26847110460864,NA
07024,Bergen County,NJ,96.62921348314607,NA,NA,NA
07035,Morris County,NJ,NA,NA,63.496708119970734,NA
07050,Essex County,NJ,NA,30.97686375321337,NA,NA
07052,Essex County,NJ,NA,NA,NA,89.41504178272982
07055,Passaic County,NJ,NA,6.555269922879177,NA,NA
07060,Union County,NJ,NA,NA,47.76883686905633,NA
07071,Bergen County,NJ,NA,96.7866323907455,NA,NA
07080,Middlesex County,NJ,NA,NA,47.47622531089978,NA
07095,Middlesex County,NJ,NA,32.19794344473008,NA,NA
07103,Essex County,NJ,NA,13.817480719794345,NA,NA
07108,Essex County,NJ,NA,9.575835475578407,NA,NA
07111,Essex County,NJ,NA,NA,NA,18.384401114206128
07112,Essex County,NJ,NA,42.030848329048844,NA,NA
07305,Hudson County,NJ,NA,NA,NA,70.89136490250696
07306,Hudson County,NJ,NA,NA,97.07388441843453,15.598885793871867
07407,Bergen County,NJ,NA,84.70437017994858,NA,NA
07410,Bergen County,NJ,NA,NA,NA,74.3732590529248
07508,Passaic County,NJ,NA,95.69408740359897,NA,NA
07601,Bergen County,NJ,NA,20.95115681233933,55.81565471836137,NA
07626,Bergen County,NJ,NA,86.37532133676092,NA,NA
07628,Bergen County,NJ,NA,NA,80.39502560351134,NA
07631,Bergen County,NJ,NA,22.043701799485863,NA,NA
07645,Bergen County,NJ,NA,92.86632390745501,NA,NA
07648,Bergen County,NJ,NA,97.3650385604113,NA,NA
07661,Bergen County,NJ,NA,93.63753213367609,NA,NA
07663,Bergen County,NJ,NA,NA,NA,95.96100278551532
07670,Bergen County,NJ,NA,96.59383033419023,NA,NA
07677,Bergen County,NJ,NA,NA,NA,70.75208913649024
07728,Monmouth County,NJ,NA,NA,82.2970007315289,NA
07730,Monmouth County,NJ,NA,NA,NA,82.03342618384401
07747,Monmouth County,NJ,NA,68.63753213367609,NA,NA
07801,Morris County,NJ,NA,NA,70.66569129480614,NA
07856,Morris County,NJ,NA,98.7146529562982,NA,NA
07866,Morris County,NJ,NA,96.46529562982005,78.9319678127286,NA
07960,Morris County,NJ,38.20224719101123,13.946015424164523,NA,NA
08002,Camden County,NJ,NA,NA,34.162399414776885,NA
08004,Camden County,NJ,NA,81.29820051413881,NA,NA
08016,Burlington County,NJ,NA,13.431876606683804,NA,NA
08021,Camden County,NJ,NA,28.856041131105396,NA,NA
08034,Camden County,NJ,NA,NA,90.49012435991222,NA
08052,Burlington County,NJ,NA,NA,NA,47.77158774373259
08060,Burlington County,NJ,NA,11.953727506426736,NA,NA
08066,Gloucester County,NJ,NA,21.272493573264782,NA,NA
08077,Burlington County,NJ,NA,76.60668380462725,NA,NA
08079,Salem County,NJ,NA,NA,36.43013899049012,NA
08081,Camden County,NJ,NA,NA,6.583760058522311,NA
08087,Ocean County,NJ,NA,NA,NA,40.52924791086351
08096,Gloucester County,NJ,NA,NA,NA,14.484679665738161
08103,Camden County,NJ,NA,46.7866323907455,NA,NA
08104,Camden County,NJ,NA,NA,1.6093635698610096,NA
08105,Camden County,NJ,NA,73.45758354755783,NA,NA
08108,Camden County,NJ,NA,51.02827763496144,NA,NA
08109,Camden County,NJ,NA,NA,29.18800292611558,NA
08201,Atlantic County,NJ,NA,NA,98.68324798829555,NA
08204,Cape May County,NJ,NA,NA,17.410387710314556,NA
08205,Atlantic County,NJ,NA,39.52442159383033,NA,NA
08225,Atlantic County,NJ,NA,98.65038560411311,NA,NA
08234,Atlantic County,NJ,NA,NA,36.7959034381858,NA
08251,Cape May County,NJ,NA,43.44473007712082,NA,NA
08330,Atlantic County,NJ,NA,NA,23.628383321141186,39.136490250696376
08332,Cumberland County,NJ,NA,1.0925449871465296,NA,NA
08344,Gloucester County,NJ,NA,84.31876606683805,NA,NA
08360,Cumberland County,NJ,NA,4.241645244215938,NA,NA
08401,Atlantic County,NJ,NA,NA,NA,18.802228412256266
08520,Mercer County,NJ,NA,43.76606683804628,NA,NA
08527,Ocean County,NJ,NA,NA,NA,45.26462395543175
08535,Monmouth County,NJ,NA,NA,NA,99.58217270194986
08540,Mercer County,NJ,NA,NA,59.69275786393563,NA
08609,Mercer County,NJ,NA,NA,98.6100950987564,NA
08723,Ocean County,NJ,NA,94.79434447300771,NA,NA
08724,Ocean County,NJ,NA,27.82776349614396,NA,NA
08731,Ocean County,NJ,NA,NA,NA,54.874651810584965
08812,Middlesex County,NJ,NA,57.326478149100254,81.05340160936358,NA
08825,Hunterdon County,NJ,NA,96.40102827763496,NA,NA
08831,Middlesex County,NJ,NA,NA,8.119970738844184,NA
08833,Hunterdon County,NJ,96.25468164794007,NA,NA,NA
08837,Middlesex County,NJ,NA,51.79948586118252,NA,NA
08848,Hunterdon County,NJ,NA,NA,76.22531089978054,NA
08854,Middlesex County,NJ,NA,NA,86.97878566203366,NA
87031,Valencia County,NM,NA,NA,23.2626188734455,NA
87104,Bernalillo County,NM,NA,73.00771208226222,NA,NA
87105,Bernalillo County,NM,NA,2.7634961439588688,35.9912216532553,NA
87106,Bernalillo County,NM,NA,45.437017994858614,NA,NA
87108,Bernalillo County,NM,NA,39.97429305912596,NA,NA
87109,Bernalillo County,NM,NA,NA,39.72201901975128,NA
87114,Bernalillo County,NM,NA,5.784061696658098,11.777615215801024,NA
87121,Bernalillo County,NM,NA,3.0848329048843186,NA,NA
87123,Bernalillo County,NM,NA,NA,40.45354791514264,NA
87124,Sandoval County,NM,NA,NA,29.700073152889537,NA
87328,McKinley County,NM,NA,85.21850899742931,NA,NA
87401,San Juan County,NM,NA,12.789203084832904,NA,61.14206128133704
87420,San Juan County,NM,NA,23.58611825192802,NA,NA
87505,Santa Fe County,NM,NA,NA,NA,9.47075208913649
87506,Santa Fe County,NM,NA,NA,NA,76.32311977715878
87528,Rio Arriba County,NM,NA,78.34190231362467,NA,NA
87532,Santa Fe County,NM,NA,72.04370179948586,NA,NA
87566,Rio Arriba County,NM,NA,90.93830334190231,NA,NA
87701,San Miguel County,NM,NA,NA,NA,38.440111420612816
88001,Doa Ana County,NM,NA,NA,22.38478419897586,NA
88007,Doa Ana County,NM,NA,NA,43.964886613021214,NA
88012,Doa Ana County,NM,NA,NA,38.84418434528164,NA
88101,Curry County,NM,NA,NA,5.4864667154352595,77.85515320334262
88240,Lea County,NM,NA,20.565552699228792,61.59473299195318,NA
88260,Lea County,NM,NA,33.16195372750643,NA,NA
88310,Otero County,NM,NA,18.31619537275064,NA,NA
88345,Lincoln County,NM,NA,NA,75.05486466715435,NA
10002,New York County,NY,NA,NA,1.8288222384784198,NA
10009,New York County,NY,NA,NA,21.580102414045356,NA
10019,New York County,NY,NA,NA,48.64667154352597,NA
10022,New York County,NY,NA,NA,39.50256035113387,NA
10023,New York County,NY,NA,NA,NA,4.03899721448468
10024,New York County,NY,NA,NA,19.092904169714703,NA
10025,New York County,NY,NA,NA,0.6583760058522311,97.63231197771589
10028,New York County,NY,NA,86.37532133676092,54.79151426481346,NA
10029,New York County,NY,NA,0.5141388174807198,NA,NA
10039,New York County,NY,NA,NA,NA,78.8300835654596
10305,Richmond County,NY,NA,NA,13.094367227505485,NA
10314,Richmond County,NY,NA,89.33161953727506,NA,NA
10451,Bronx County,NY,NA,NA,NA,27.715877437325904
10455,Bronx County,NY,NA,15.938303341902312,NA,NA
10456,Bronx County,NY,NA,NA,0,NA
10457,Bronx County,NY,NA,NA,NA,9.192200557103064
10458,Bronx County,NY,NA,3.1491002570694087,NA,NA
10459,Bronx County,NY,NA,NA,8.266276517922458,NA
10460,Bronx County,NY,NA,1.5424164524421593,NA,NA
10463,Bronx County,NY,NA,NA,NA,18.105849582172702
10467,Bronx County,NY,NA,18.187660668380463,NA,NA
10468,Bronx County,NY,NA,NA,NA,6.128133704735376
10470,Bronx County,NY,NA,NA,NA,63.788300835654596
10472,Bronx County,NY,NA,10.732647814910026,NA,NA
10473,Bronx County,NY,NA,32.969151670951156,NA,NA
10550,Westchester County,NY,NA,NA,18.361375274323336,NA
10566,Westchester County,NY,NA,NA,58.522311631309435,NA
10598,Westchester County,NY,NA,83.86889460154242,NA,NA
10701,Westchester County,NY,NA,69.60154241645245,2.6335040234089244,NA
10703,Westchester County,NY,NA,NA,NA,73.81615598885793
10708,Westchester County,NY,NA,NA,71.61667885881492,NA
10954,Rockland County,NY,NA,NA,99.12216532553035,NA
11102,Queens County,NY,NA,NA,87.85662033650328,64.76323119777159
11105,Queens County,NY,NA,NA,NA,43.17548746518106
11203,Kings County,NY,NA,NA,4.754937820043892,NA
11206,Kings County,NY,NA,NA,10.75347476225311,NA
11207,Kings County,NY,NA,NA,0.43891733723482074,NA
11209,Kings County,NY,NA,95.4370179948586,NA,NA
11213,Kings County,NY,NA,NA,4.535479151426482,NA
11215,Kings County,NY,NA,54.82005141388174,NA,NA
11220,Kings County,NY,NA,NA,NA,11.699164345403899
11224,Kings County,NY,NA,NA,NA,1.8105849582172702
11230,Kings County,NY,NA,NA,8.558888076079004,NA
11231,Kings County,NY,NA,73.7789203084833,NA,NA
11237,Kings County,NY,NA,88.23907455012854,NA,NA
11355,Queens County,NY,NA,NA,79.00512070226775,NA
11357,Queens County,NY,NA,81.87660668380462,NA,NA
11366,Queens County,NY,NA,NA,NA,96.51810584958217
11372,Queens County,NY,NA,NA,46.744696415508415,NA
11373,Queens County,NY,NA,10.411311053984576,NA,NA
11374,Queens County,NY,NA,NA,NA,64.34540389972145
11375,Queens County,NY,NA,NA,NA,5.2924791086350975
11377,Queens County,NY,16.853932584269664,NA,NA,NA
11379,Queens County,NY,NA,NA,76.44476956839796,NA
11385,Queens County,NY,NA,NA,78.63935625457205,NA
11413,Queens County,NY,NA,NA,31.6020482809071,NA
11422,Queens County,NY,NA,NA,NA,54.038997214484674
11426,Queens County,NY,NA,NA,NA,55.98885793871866
11435,Queens County,NY,NA,NA,NA,24.37325905292479
11516,Nassau County,NY,NA,NA,NA,91.36490250696379
11563,Nassau County,NY,NA,NA,NA,90.11142061281338
11691,Queens County,NY,NA,NA,27.432333577176298,NA
11692,Queens County,NY,NA,41.70951156812339,NA,NA
11701,Suffolk County,NY,NA,NA,99.04901243599123,NA
11753,Nassau County,NY,NA,NA,NA,79.38718662952647
11763,Suffolk County,NY,NA,NA,67.15435259692758,NA
11766,Suffolk County,NY,NA,NA,85.07681053401609,NA
11779,Suffolk County,NY,NA,32.58354755784062,NA,NA
11795,Suffolk County,NY,NA,NA,61.81419166057059,NA
11801,Nassau County,NY,NA,NA,41.185076810534014,NA
11968,Suffolk County,NY,NA,NA,83.9063643013899,NA
12009,Albany County,NY,NA,92.2879177377892,NA,NA
12010,Montgomery County,NY,12.359550561797752,NA,NA,NA
12043,Schoharie County,NY,NA,69.9228791773779,NA,NA
12065,Saratoga County,NY,NA,17.866323907455012,NA,NA
12123,Rensselaer County,NY,NA,NA,NA,93.31476323119777
12183,Albany County,NY,NA,99.22879177377892,NA,NA
12186,Albany County,NY,NA,NA,NA,82.8690807799443
12202,Albany County,NY,NA,91.25964010282776,NA,NA
12309,Schenectady County,NY,NA,NA,51.06071689831748,NA
12534,Columbia County,NY,NA,11.568123393316196,NA,NA
12569,Dutchess County,NY,NA,NA,84.491587417703,NA
12804,Warren County,NY,NA,5.655526992287918,9.1441111923921,NA
12828,Washington County,NY,NA,85.53984575835476,NA,NA
12839,Washington County,NY,64.41947565543072,NA,81.78493050475494,NA
12866,Saratoga County,NY,NA,NA,8.632040965618142,NA
12901,Clinton County,NY,NA,28.406169665809767,NA,5.8495821727019495
12921,Clinton County,NY,NA,NA,88.95391367959034,NA
12946,Essex County,NY,NA,NA,48.06144842721288,NA
12972,Clinton County,NY,NA,NA,61.37527432333577,NA
12979,Clinton County,NY,NA,NA,95.8302852962692,NA
12996,Essex County,NY,NA,92.80205655526991,98.0248719824433,NA
13021,Cayuga County,NY,NA,NA,60.27798098024873,NA
13032,Madison County,NY,NA,26.221079691516707,NA,NA
13035,Madison County,NY,NA,NA,85.66203365032918,NA
13045,Cortland County,NY,3.3707865168539324,2.6992287917737787,NA,NA
13126,Oswego County,NY,NA,NA,5.4133138258961235,NA
13131,Oswego County,NY,NA,NA,91.00219458668617,NA
13205,Onondaga County,NY,58.052434456928836,NA,NA,NA
13209,Onondaga County,NY,NA,38.56041131105398,NA,NA
13219,Onondaga County,NY,NA,NA,94.4403803950256,NA
13329,Herkimer County,NY,NA,91.32390745501286,NA,NA
13332,Madison County,NY,NA,77.44215938303341,NA,NA
13357,Herkimer County,NY,30.711610486891384,28.984575835475578,NA,NA
13407,Herkimer County,NY,NA,NA,NA,96.65738161559888
13421,Madison County,NY,NA,18.251928020565554,NA,NA
13440,Oneida County,NY,NA,NA,4.023408924652524,6.8245125348189415
13492,Oneida County,NY,NA,75.25706940874036,NA,NA
13660,St. Lawrence County,NY,NA,NA,99.48792977322604,NA
13667,St. Lawrence County,NY,NA,72.42930591259639,NA,NA
13676,St. Lawrence County,NY,NA,NA,NA,24.930362116991645
13736,Tioga County,NY,NA,NA,94.29407461594734,NA
13748,Broome County,NY,NA,80.39845758354755,NA,NA
13760,Broome County,NY,13.857677902621724,NA,25.603511338697878,NA
13778,Chenango County,NY,NA,NA,NA,59.749303621169915
13790,Broome County,NY,NA,NA,7.095830285296269,NA
13815,Chenango County,NY,NA,NA,10.972933430870519,NA
13820,Otsego County,NY,NA,29.048843187660665,NA,NA
13830,Chenango County,NY,NA,NA,94.80614484272128,NA
13856,Delaware County,NY,NA,NA,28.31016825164594,NA
13901,Broome County,NY,NA,2.634961439588689,NA,37.32590529247911
13905,Broome County,NY,NA,1.4781491002570695,22.531089978054133,NA
14020,Genesee County,NY,NA,33.29048843187661,NA,NA
14042,Cattaraugus County,NY,NA,78.27763496143959,NA,NA
14058,Genesee County,NY,NA,NA,96.26920263350402,NA
14092,Niagara County,NY,NA,NA,36.72275054864667,NA
14094,Niagara County,NY,NA,10.347043701799485,1.2435991221653255,NA
14201,Erie County,NY,NA,NA,90.56327724945136,NA
14202,Erie County,NY,NA,72.81491002570694,NA,NA
14207,Erie County,NY,NA,5.4627249357326475,NA,NA
14213,Erie County,NY,NA,42.673521850899746,NA,NA
14215,Erie County,NY,NA,NA,44.91587417702999,NA
14304,Niagara County,NY,NA,17.223650385604113,NA,NA
14411,Orleans County,NY,NA,NA,NA,55.43175487465181
14432,Ontario County,NY,46.06741573033708,NA,NA,NA
14437,Livingston County,NY,NA,62.339331619537276,NA,NA
14450,Monroe County,NY,NA,2.313624678663239,NA,NA
14454,Livingston County,NY,NA,NA,NA,62.116991643454035
14456,Ontario County,NY,NA,4.820051413881748,NA,NA
14485,Livingston County,NY,NA,NA,91.441111923921,NA
14502,Wayne County,NY,NA,NA,39.20994879297732,NA
14505,Wayne County,NY,NA,51.34961439588689,60.570592538405265,NA
14512,Ontario County,NY,NA,82.13367609254499,NA,NA
14516,Wayne County,NY,NA,88.04627249357327,NA,NA
14517,Livingston County,NY,NA,NA,94.07461594732992,NA
14522,Wayne County,NY,79.7752808988764,NA,NA,NA
14526,Monroe County,NY,NA,63.239074550128535,NA,22.98050139275766
14527,Yates County,NY,NA,NA,20.775420629114848,NA
14568,Wayne County,NY,NA,53.59897172236504,NA,NA
14569,Wyoming County,NY,NA,NA,NA,76.88022284122563
14572,Steuben County,NY,NA,85.34704370179949,NA,NA
14605,Monroe County,NY,NA,27.31362467866324,NA,NA
14606,Monroe County,NY,6.741573033707865,NA,NA,29.108635097493035
14609,Monroe County,NY,NA,0.4498714652956298,NA,NA
14610,Monroe County,NY,NA,NA,NA,26.880222841225628
14612,Monroe County,NY,NA,10.539845758354756,NA,NA
14613,Monroe County,NY,NA,NA,87.19824433065106,NA
14616,Monroe County,NY,NA,13.174807197943444,NA,NA
14618,Monroe County,NY,NA,12.532133676092544,NA,NA
14621,Monroe County,NY,1.1235955056179776,0.6426735218508998,NA,NA
14622,Monroe County,NY,NA,47.55784061696658,NA,NA
14624,Monroe County,NY,NA,NA,14.264813460131675,34.67966573816156
14625,Monroe County,NY,NA,64.65295629820051,NA,NA
14701,Chautauqua County,NY,NA,12.724935732647817,0.8778346744696415,NA
14718,Chautauqua County,NY,NA,NA,98.82955376737381,NA
14760,Cattaraugus County,NY,NA,47.23650385604113,NA,NA
14807,Steuben County,NY,NA,NA,97.73226042428675,NA
14830,Steuben County,NY,NA,17.802056555269925,24.433065106071687,NA
14840,Steuben County,NY,NA,88.62467866323908,NA,NA
14843,Steuben County,NY,NA,15.681233933161954,NA,NA
14850,Tompkins County,NY,11.610486891385769,NA,24.94513533284565,NA
14879,Steuben County,NY,NA,92.9948586118252,NA,NA
14901,Chemung County,NY,NA,66.45244215938303,NA,NA
14904,Chemung County,NY,NA,21.143958868894604,NA,NA
27012,Forsyth County,NC,NA,23.84318766066838,NA,NA
27025,Rockingham County,NC,55.430711610486895,NA,NA,NA
27028,Davie County,NC,NA,NA,7.2421360643745425,NA
27030,Surry County,NC,NA,3.9203084832904884,65.17922457937088,NA
27104,Forsyth County,NC,NA,NA,NA,21.309192200557103
27105,Forsyth County,NC,NA,37.59640102827764,NA,NA
27107,Forsyth County,NC,NA,2.956298200514139,NA,2.0891364902506964
27215,Alamance County,NC,NA,29.43444730077121,NA,NA
27253,Alamance County,NC,29.213483146067414,76.67095115681234,NA,NA
27262,Guilford County,NC,NA,73.26478149100257,NA,NA
27292,Davidson County,NC,9.737827715355806,NA,NA,NA
27295,Davidson County,NC,NA,NA,2.194586686174104,NA
27299,Davidson County,NC,NA,90.23136246786633,NA,NA
27301,Guilford County,NC,NA,NA,69.42209217264082,NA
27302,Alamance County,NC,NA,23.26478149100257,10.241404535479152,NA
27312,Chatham County,NC,NA,52.056555269922875,NA,NA
27320,Rockingham County,NC,NA,48.714652956298195,NA,37.60445682451253
27332,Lee County,NC,NA,58.16195372750642,NA,NA
27344,Chatham County,NC,NA,39.717223650385606,NA,NA
27349,Alamance County,NC,NA,NA,68.32479882955377,NA
27358,Guilford County,NC,90.63670411985018,NA,NA,NA
27360,Davidson County,NC,NA,NA,38.99049012435991,9.331476323119778
27377,Guilford County,NC,NA,NA,95.09875640087783,NA
27409,Guilford County,NC,NA,97.30077120822622,NA,NA
27410,Guilford County,NC,NA,53.149100257069406,NA,NA
27502,Wake County,NC,20.224719101123593,NA,31.016825164594003,NA
27514,Orange County,NC,NA,72.23650385604114,NA,NA
27518,Wake County,NC,NA,NA,NA,84.81894150417827
27520,Johnston County,NC,NA,67.93059125964011,NA,NA
27526,Wake County,NC,NA,20.822622107969153,NA,NA
27527,Johnston County,NC,NA,NA,70.3730797366496,NA
27529,Wake County,NC,NA,78.1491002570694,NA,NA
27530,Wayne County,NC,NA,37.275064267352185,45.7205559619605,NA
27534,Wayne County,NC,NA,NA,NA,54.317548746518106
27537,Vance County,NC,NA,29.177377892030847,NA,NA
27540,Wake County,NC,27.340823970037455,NA,NA,NA
27563,Warren County,NC,NA,NA,NA,97.21448467966573
27577,Johnston County,NC,NA,37.08226221079691,NA,NA
27587,Wake County,NC,NA,69.47300771208226,NA,NA
27597,Wake County,NC,NA,NA,47.32991953182151,NA
27604,Wake County,NC,NA,54.113110539845756,NA,NA
27606,Wake County,NC,NA,76.34961439588689,NA,NA
27610,Wake County,NC,NA,4.691516709511568,4.901243599122165,NA
27614,Wake County,NC,NA,NA,74.90855888807609,NA
27616,Wake County,NC,NA,NA,90.70958302852962,NA
27705,Durham County,NC,NA,60.21850899742931,NA,NA
27707,Durham County,NC,NA,NA,6.803218727139722,NA
27713,Durham County,NC,NA,NA,NA,15.041782729805014
27823,Halifax County,NC,NA,63.49614395886889,NA,NA
27870,Halifax County,NC,17.97752808988764,47.04370179948586,NA,NA
27886,Edgecombe County,NC,NA,NA,79.95610826627652,NA
27893,Wilson County,NC,NA,NA,18.2882223847842,29.247910863509752
27910,Hertford County,NC,NA,32.326478149100254,NA,NA
27962,Washington County,NC,NA,58.48329048843187,NA,NA
27970,Washington County,NC,NA,NA,92.2457937088515,NA
28021,Gaston County,NC,NA,69.2159383033419,NA,NA
28025,Cabarrus County,NC,NA,NA,55.88880760790052,NA
28027,Cabarrus County,NC,NA,NA,73.3723482077542,NA
28054,Gaston County,NC,NA,14.138817480719796,NA,NA
28086,Cleveland County,NC,NA,NA,56.76664228237015,38.16155988857939
28107,Cabarrus County,NC,NA,88.94601542416453,NA,NA
28139,Rutherford County,NC,NA,30.398457583547554,NA,NA
28144,Rowan County,NC,58.80149812734082,NA,25.457205559619606,NA
28147,Rowan County,NC,NA,25.96401028277635,NA,NA
28150,Cleveland County,NC,NA,NA,31.30943672275055,30.362116991643457
28152,Cleveland County,NC,NA,30.46272493573265,NA,NA
28164,Gaston County,NC,NA,67.03084832904884,NA,NA
28168,Lincoln County,NC,NA,NA,75.27432333577177,NA
28202,Mecklenburg County,NC,NA,92.3521850899743,NA,NA
28203,Mecklenburg County,NC,NA,71.7866323907455,NA,88.57938718662952
28206,Mecklenburg County,NC,NA,33.48329048843188,NA,NA
28208,Mecklenburg County,NC,NA,6.426735218508997,NA,NA
28210,Mecklenburg County,NC,NA,68.25192802056556,46.30577907827359,NA
28211,Mecklenburg County,NC,NA,NA,NA,31.75487465181058
28214,Mecklenburg County,NC,NA,80.26992287917739,40.1609363569861,NA
28216,Mecklenburg County,NC,NA,6.4910025706940875,NA,NA
28269,Mecklenburg County,NC,NA,34.96143958868895,21.21433796634967,NA
28277,Mecklenburg County,NC,NA,61.05398457583547,NA,NA
28303,Cumberland County,NC,25.842696629213485,46.1439588688946,NA,NA
28304,Cumberland County,NC,NA,24.74293059125964,NA,NA
28312,Cumberland County,NC,NA,NA,NA,64.20612813370474
28328,Sampson County,NC,NA,NA,NA,31.197771587743734
28348,Cumberland County,NC,NA,28.79177377892031,NA,50.55710306406686
28352,Scotland County,NC,NA,NA,28.602779809802488,NA
28358,Robeson County,NC,NA,NA,23.408924652523773,NA
28364,Robeson County,NC,41.57303370786517,NA,46.45208485735186,NA
28384,Bladen County,NC,NA,91.77377892030847,NA,NA
28405,New Hanover County,NC,NA,NA,24.72567666422824,NA
28422,Brunswick County,NC,NA,77.31362467866325,NA,NA
28433,Bladen County,NC,NA,87.27506426735219,NA,NA
28451,Brunswick County,NC,NA,22.4293059125964,NA,33.844011142061284
28461,Brunswick County,NC,NA,35.411311053984576,NA,60.724233983286915
28465,Brunswick County,NC,NA,79.43444730077121,NA,NA
28469,Brunswick County,NC,NA,NA,88.44184345281639,NA
28472,Columbus County,NC,NA,NA,34.601316752011705,NA
28551,Lenoir County,NC,NA,NA,71.47037307973665,NA
28557,Carteret County,NC,NA,66.96658097686375,85.58888076079005,NA
28562,Craven County,NC,NA,32.390745501285345,NA,NA
28578,Wayne County,NC,NA,95.75835475578405,NA,NA
28601,Catawba County,NC,NA,NA,8.339429407461594,NA
28602,Catawba County,NC,NA,NA,NA,78.96935933147631
28625,Iredell County,NC,NA,55.012853470437015,NA,NA
28630,Caldwell County,NC,NA,NA,NA,69.77715877437326
28645,Caldwell County,NC,NA,NA,0.21945866861741037,1.9498607242339834
28657,Avery County,NC,65.91760299625467,NA,NA,NA
28658,Catawba County,NC,NA,35.282776349614394,NA,NA
28669,Wilkes County,NC,NA,NA,97.95171909290417,NA
28675,Alleghany County,NC,NA,68.44473007712082,NA,NA
28677,Iredell County,NC,NA,NA,45.501097293343086,NA
28678,Alexander County,NC,87.26591760299625,NA,NA,NA
28681,Alexander County,NC,NA,15.167095115681233,NA,NA
28712,Transylvania County,NC,NA,NA,NA,33.147632311977716
28732,Henderson County,NC,NA,NA,86.24725676664228,NA
28739,Henderson County,NC,NA,NA,35.918068763716164,7.66016713091922
28759,Henderson County,NC,NA,NA,NA,44.15041782729805
28777,Mitchell County,NC,NA,71.1439588688946,NA,NA
28778,Buncombe County,NC,NA,NA,94.07461594732992,NA
28786,Haywood County,NC,NA,28.663239074550127,43.30651060716899,NA
28787,Buncombe County,NC,NA,NA,92.02633504023409,NA
28789,Jackson County,NC,NA,90.3598971722365,NA,NA
28792,Henderson County,NC,NA,NA,31.748354059985367,NA
58072,Barnes County,ND,NA,92.54498714652956,NA,NA
58078,Cass County,ND,NA,20.051413881748072,11.923920994879298,NA
58103,Cass County,ND,NA,NA,43.891733723482076,13.231197771587745
58104,Cass County,ND,NA,NA,NA,3.064066852367688
58201,Grand Forks County,ND,NA,NA,87.05193855157279,NA
58203,Grand Forks County,ND,NA,NA,93.050475493782,NA
58301,Ramsey County,ND,NA,NA,79.59034381858083,NA
58503,Burleigh County,ND,NA,NA,22.165325530358448,NA
58504,Burleigh County,ND,80.14981273408239,NA,57.71762984637894,NA
58854,McKenzie County,ND,NA,78.9203084832905,NA,NA
43011,Knox County,OH,NA,NA,93.26993416239941,NA
43015,Delaware County,OH,52.80898876404494,NA,NA,NA
43017,Franklin County,OH,NA,NA,27.94440380395026,NA
43019,Knox County,OH,NA,60.98971722365039,NA,NA
43025,Licking County,OH,NA,NA,NA,87.04735376044567
43026,Franklin County,OH,NA,NA,74.10387710314558,NA
43031,Licking County,OH,NA,NA,NA,99.44289693593315
43050,Knox County,OH,NA,NA,20.482809070958304,NA
43054,Franklin County,OH,NA,97.62210796915167,NA,NA
43065,Delaware County,OH,NA,38.688946015424165,92.31894659839064,NA
43081,Franklin County,OH,NA,NA,9.217264081931237,NA
43082,Delaware County,OH,NA,73.58611825192803,NA,NA
43085,Franklin County,OH,78.65168539325843,NA,NA,NA
43110,Franklin County,OH,NA,17.673521850899743,NA,NA
43119,Franklin County,OH,15.355805243445692,61.696658097686374,NA,NA
43140,Madison County,OH,NA,30.205655526992288,NA,NA
43147,Fairfield County,OH,NA,18.380462724935732,NA,NA
43162,Madison County,OH,NA,82.0051413881748,NA,NA
43204,Franklin County,OH,NA,3.470437017994859,NA,NA
43207,Franklin County,OH,NA,1.4138817480719794,NA,16.15598885793872
43209,Franklin County,OH,NA,NA,NA,79.66573816155989
43212,Franklin County,OH,NA,NA,84.27212874908558,NA
43219,Franklin County,OH,NA,52.89203084832905,73.88441843452817,NA
43223,Franklin County,OH,NA,37.853470437018,NA,NA
43224,Franklin County,OH,NA,19.92287917737789,NA,21.866295264623954
43228,Franklin County,OH,NA,2.442159383033419,NA,NA
43229,Franklin County,OH,NA,58.03341902313625,29.334308705193855,NA
43230,Franklin County,OH,NA,71.27249357326478,11.41185076810534,NA
43232,Franklin County,OH,NA,NA,11.63130943672275,NA
43235,Franklin County,OH,25.468164794007492,NA,NA,NA
43302,Marion County,OH,NA,10.796915167095115,NA,NA
43311,Logan County,OH,19.101123595505616,NA,NA,NA
43344,Union County,OH,NA,NA,95.39136795903438,NA
43351,Wyandot County,OH,NA,NA,NA,69.49860724233984
43402,Wood County,OH,NA,NA,11.85076810534016,NA
43410,Sandusky County,OH,NA,41.51670951156812,NA,NA
43416,Ottawa County,OH,NA,96.91516709511568,NA,NA
43420,Sandusky County,OH,NA,30.141388174807197,NA,NA
43450,Wood County,OH,NA,95.11568123393316,NA,NA
43512,Defiance County,OH,NA,64.26735218508998,NA,NA
43515,Fulton County,OH,NA,NA,NA,74.79108635097494
43517,Williams County,OH,91.76029962546816,NA,NA,NA
43528,Lucas County,OH,NA,84.44730077120822,NA,NA
43545,Henry County,OH,NA,NA,34.08924652523775,NA
43551,Wood County,OH,NA,NA,5.632772494513533,NA
43560,Lucas County,OH,NA,48.58611825192802,38.551572787125096,20.334261838440113
43566,Lucas County,OH,NA,NA,96.04974396488662,NA
43604,Lucas County,OH,NA,34.318766066838045,NA,NA
43605,Lucas County,OH,13.108614232209737,NA,NA,NA
43607,Lucas County,OH,NA,3.6632390745501286,63.862472567666416,NA
43609,Lucas County,OH,7.865168539325842,3.3419023136246784,NA,NA
43610,Lucas County,OH,NA,76.15681233933161,NA,NA
43612,Lucas County,OH,NA,16.131105398457585,NA,NA
43614,Lucas County,OH,NA,7.840616966580977,NA,16.434540389972145
43615,Lucas County,OH,NA,14.010282776349614,NA,NA
43623,Lucas County,OH,NA,20.43701799485861,NA,NA
43701,Muskingum County,OH,NA,0.7712082262210797,5.340160936356987,NA
43713,Belmont County,OH,NA,83.03341902313625,NA,NA
43725,Guernsey County,OH,NA,NA,5.92538405267008,NA
43773,Guernsey County,OH,NA,99.74293059125964,NA,NA
43812,Coshocton County,OH,NA,NA,6.510607168983175,NA
43845,Coshocton County,OH,NA,51.79948586118252,NA,NA
43912,Belmont County,OH,NA,89.0745501285347,NA,NA
43920,Columbiana County,OH,10.486891385767791,6.362467866323908,NA,NA
43935,Belmont County,OH,NA,NA,91.95318215069496,NA
43944,Jefferson County,OH,NA,NA,84.491587417703,NA
43950,Belmont County,OH,NA,32.58354755784062,NA,25.069637883008355
43964,Jefferson County,OH,NA,19.730077120822624,NA,NA
43968,Columbiana County,OH,NA,41.58097686375321,NA,NA
44001,Lorain County,OH,NA,22.10796915167095,2.487198244330651,59.610027855153206
44004,Ashtabula County,OH,NA,NA,NA,1.392757660167131
44022,Cuyahoga County,OH,NA,NA,21.653255303584494,17.68802228412256
44024,Geauga County,OH,NA,NA,38.258961228968545,NA
44030,Ashtabula County,OH,NA,46.59383033419024,NA,31.47632311977716
44039,Lorain County,OH,NA,5.3984575835475574,NA,NA
44050,Lorain County,OH,NA,NA,68.61741038771031,NA
44052,Lorain County,OH,NA,2.185089974293059,NA,5.43175487465181
44053,Lorain County,OH,NA,24.67866323907455,NA,NA
44055,Lorain County,OH,NA,6.105398457583547,NA,NA
44060,Lake County,OH,NA,NA,NA,0
44070,Cuyahoga County,OH,NA,NA,41.25822970007315,NA
44077,Lake County,OH,NA,NA,1.755669348939283,NA
44087,Summit County,OH,NA,NA,39.50256035113387,NA
44089,Erie County,OH,35.2059925093633,30.334190231362467,NA,NA
44092,Lake County,OH,NA,35.796915167095115,NA,NA
44094,Lake County,OH,NA,NA,2.9261155815654716,1.2534818941504178
44095,Lake County,OH,NA,44.28020565552699,50.18288222384785,4.596100278551532
44102,Cuyahoga County,OH,NA,29.884318766066837,NA,NA
44104,Cuyahoga County,OH,NA,2.892030848329049,NA,NA
44105,Cuyahoga County,OH,NA,0.7069408740359897,NA,2.785515320334262
44109,Cuyahoga County,OH,0,3.2776349614395883,NA,NA
44110,Cuyahoga County,OH,NA,6.619537275064268,NA,NA
44111,Cuyahoga County,OH,NA,NA,1.4630577907827358,NA
44116,Cuyahoga County,OH,NA,NA,22.238478419897586,NA
44117,Cuyahoga County,OH,NA,NA,NA,78.27298050139275
44118,Cuyahoga County,OH,NA,NA,8.997805413313825,NA
44121,Cuyahoga County,OH,NA,69.79434447300771,88.66130212143379,75.6267409470752
44122,Cuyahoga County,OH,NA,17.480719794344473,NA,NA
44124,Cuyahoga County,OH,NA,NA,1.9019751280175567,0.1392757660167131
44125,Cuyahoga County,OH,NA,7.197943444730077,30.431602048280908,NA
44126,Cuyahoga County,OH,NA,NA,32.991953182150695,NA
44128,Cuyahoga County,OH,NA,26.67095115681234,NA,29.66573816155989
44129,Cuyahoga County,OH,NA,10.989717223650386,NA,NA
44130,Cuyahoga County,OH,NA,3.2133676092544987,0.36576444769568395,0.2785515320334262
44131,Cuyahoga County,OH,NA,34.832904884318765,NA,NA
44133,Cuyahoga County,OH,NA,NA,35.1865398683248,NA
44134,Cuyahoga County,OH,NA,NA,1.097293343087052,NA
44135,Cuyahoga County,OH,NA,13.046272493573266,NA,21.448467966573816
44137,Cuyahoga County,OH,NA,68.573264781491,NA,NA
44138,Cuyahoga County,OH,NA,26.2853470437018,48.42721287490856,NA
44141,Cuyahoga County,OH,NA,NA,45.866861741038775,NA
44144,Cuyahoga County,OH,NA,32.77634961439589,28.017556693489393,NA
44147,Cuyahoga County,OH,NA,39.52442159383033,NA,NA
44149,Cuyahoga County,OH,NA,35.796915167095115,NA,NA
44202,Portage County,OH,NA,NA,NA,6.406685236768802
44203,Summit County,OH,NA,3.7275064267352187,NA,NA
44212,Medina County,OH,NA,56.362467866323904,NA,NA
44223,Summit County,OH,NA,38.94601542416453,NA,83.14763231197772
44240,Portage County,OH,NA,50.32133676092545,15.874177029992683,17.13091922005571
44241,Portage County,OH,NA,NA,45.940014630577906,NA
44256,Medina County,OH,0.37453183520599254,NA,NA,NA
44266,Portage County,OH,NA,NA,26.26188734455011,5.153203342618385
44287,Wayne County,OH,NA,71.72236503856041,NA,NA
44303,Summit County,OH,NA,NA,58.37600585223116,NA
44306,Summit County,OH,NA,6.940874035989718,NA,NA
44319,Summit County,OH,NA,87.72493573264781,17.99561082662765,NA
44321,Summit County,OH,NA,NA,34.74762253108998,NA
44408,Columbiana County,OH,NA,61.375321336760926,NA,NA
44431,Columbiana County,OH,NA,93.83033419023135,NA,NA
44446,Trumbull County,OH,NA,NA,12.948061448427211,NA
44460,Columbiana County,OH,NA,NA,47.988295537673736,NA
44483,Trumbull County,OH,NA,12.275064267352185,NA,NA
44484,Trumbull County,OH,NA,21.65809768637532,NA,NA
44515,Mahoning County,OH,NA,7.262210796915166,NA,15.87743732590529
44601,Stark County,OH,NA,4.434447300771208,NA,NA
44622,Tuscarawas County,OH,NA,68.89460154241645,NA,NA
44644,Carroll County,OH,NA,83.03341902313625,NA,NA
44646,Stark County,OH,NA,28.277634961439592,35.040234089246525,NA
44663,Tuscarawas County,OH,NA,61.18251928020566,13.606437454279444,NA
44667,Wayne County,OH,NA,75.57840616966581,NA,NA
44685,Summit County,OH,NA,NA,17.77615215801024,NA
44703,Stark County,OH,NA,42.22365038560411,NA,NA
44706,Stark County,OH,NA,NA,64.95976591075348,NA
44709,Stark County,OH,NA,NA,NA,85.0974930362117
44714,Stark County,OH,NA,55.52699228791774,NA,NA
44718,Stark County,OH,47.565543071161045,NA,NA,NA
44720,Stark County,OH,NA,50.835475578406175,15.508412582297002,NA
44721,Stark County,OH,NA,NA,91.80687637161668,NA
44805,Ashland County,OH,NA,NA,22.82370153621068,NA
44811,Sandusky County,OH,NA,67.2879177377892,44.18434528163863,NA
44813,Richland County,OH,NA,NA,89.17337234820776,NA
44830,Seneca County,OH,NA,NA,23.994147768836868,NA
44839,Erie County,OH,NA,NA,62.033650329188006,NA
44847,Huron County,OH,98.50187265917603,NA,NA,NA
44857,Huron County,OH,NA,16.902313624678662,NA,NA
44870,Erie County,OH,NA,1.7352185089974295,NA,4.735376044568245
44905,Richland County,OH,NA,54.88431876606684,NA,NA
45005,Warren County,OH,NA,6.169665809768637,NA,NA
45011,Butler County,OH,19.850187265917604,NA,NA,NA
45013,Butler County,OH,NA,NA,NA,23.25905292479109
45014,Butler County,OH,32.958801498127336,11.182519280205655,NA,NA
45042,Butler County,OH,12.734082397003746,14.524421593830333,NA,NA
45066,Warren County,OH,NA,NA,90.92904169714704,85.51532033426183
45069,Butler County,OH,8.98876404494382,NA,14.484272128749085,NA
45107,Clinton County,OH,NA,NA,NA,57.10306406685237
45122,Clermont County,OH,NA,61.88946015424165,NA,NA
45123,Highland County,OH,NA,NA,51.06071689831748,NA
45133,Highland County,OH,NA,58.9974293059126,NA,NA
45140,Clermont County,OH,8.239700374531834,NA,NA,NA
45157,Clermont County,OH,NA,67.73778920308483,NA,NA
45176,Clermont County,OH,NA,76.2210796915167,NA,NA
45213,Hamilton County,OH,NA,64.1388174807198,NA,NA
45224,Hamilton County,OH,NA,NA,42.06291148500366,NA
45227,Hamilton County,OH,NA,77.76349614395886,NA,NA
45231,Hamilton County,OH,97.75280898876404,NA,NA,NA
45232,Hamilton County,OH,NA,63.17480719794345,NA,NA
45242,Hamilton County,OH,NA,NA,88.29553767373811,NA
45243,Hamilton County,OH,67.41573033707866,NA,NA,NA
45246,Hamilton County,OH,50.56179775280899,NA,NA,NA
45251,Hamilton County,OH,NA,43.70179948586118,NA,NA
45305,Greene County,OH,NA,87.98200514138817,NA,NA
45308,Darke County,OH,NA,NA,98.97585954645209,NA
45309,Montgomery County,OH,NA,87.853470437018,NA,NA
45318,Miami County,OH,NA,NA,NA,88.3008356545961
45331,Darke County,OH,NA,NA,NA,62.116991643454035
45342,Montgomery County,OH,NA,48.65038560411311,62.838332114118515,NA
45344,Clark County,OH,NA,NA,38.99049012435991,NA
45371,Miami County,OH,NA,NA,73.5918068763716,58.35654596100278
45373,Miami County,OH,NA,4.177377892030849,53.10899780541332,NA
45377,Montgomery County,OH,NA,79.4987146529563,NA,76.18384401114207
45381,Preble County,OH,NA,NA,85.36942209217264,NA
45385,Greene County,OH,NA,8.483290488431876,28.822238478419898,NA
45404,Montgomery County,OH,NA,80.20565552699229,NA,NA
45406,Montgomery County,OH,NA,NA,32.4067300658376,NA
45415,Montgomery County,OH,NA,89.97429305912597,NA,NA
45420,Montgomery County,OH,NA,NA,31.45574250182882,NA
45424,Montgomery County,OH,NA,NA,NA,5.988857938718663
45429,Montgomery County,OH,NA,NA,NA,73.67688022284122
45434,Greene County,OH,NA,NA,90.05120702267739,79.94428969359332
45459,Montgomery County,OH,35.580524344569284,74.48586118251927,NA,42.757660167130915
45502,Clark County,OH,NA,65.93830334190231,NA,NA
45504,Clark County,OH,76.02996254681648,NA,NA,NA
45506,Clark County,OH,NA,NA,94.87929773226043,NA
45601,Ross County,OH,NA,29.370179948586117,NA,NA
45619,Lawrence County,OH,NA,21.20822622107969,NA,NA
45623,Gallia County,OH,NA,NA,96.56181419166057,NA
45631,Gallia County,OH,NA,7.647814910025708,NA,NA
45640,Jackson County,OH,NA,NA,5.193855157278712,66.85236768802228
45659,Lawrence County,OH,NA,93.25192802056556,NA,NA
45662,Scioto County,OH,NA,27.12082262210797,1.3167520117044622,3.4818941504178276
45669,Lawrence County,OH,52.43445692883895,NA,NA,NA
45680,Lawrence County,OH,1.8726591760299627,NA,NA,NA
45686,Gallia County,OH,NA,72.49357326478149,NA,NA
45690,Pike County,OH,NA,40.167095115681235,59.98536942209217,NA
45692,Jackson County,OH,NA,28.663239074550127,NA,NA
45694,Scioto County,OH,NA,73.97172236503856,92.8310168251646,NA
45750,Washington County,OH,NA,NA,0.1463057790782736,NA
45764,Athens County,OH,NA,57.26221079691517,NA,NA
45805,Allen County,OH,NA,9.961439588688945,50.91441111923921,NA
45817,Allen County,OH,NA,NA,83.10168251645939,NA
45840,Hancock County,OH,NA,2.2493573264781492,NA,NA
45873,Paulding County,OH,NA,98.32904884318766,NA,NA
73005,Caddo County,OK,NA,88.30334190231362,NA,NA
73007,Oklahoma County,OK,NA,98.00771208226222,NA,NA
73008,Oklahoma County,OK,NA,NA,NA,65.18105849582173
73013,Oklahoma County,OK,NA,24.93573264781491,30.212143379663498,NA
73034,Oklahoma County,OK,24.344569288389515,21.7866323907455,NA,NA
73036,Canadian County,OK,NA,33.354755784061695,NA,NA
73044,Logan County,OK,NA,43.31619537275064,NA,NA
73064,Canadian County,OK,NA,42.41645244215938,NA,NA
73065,McClain County,OK,NA,NA,NA,81.61559888579387
73072,Cleveland County,OK,29.962546816479403,NA,51.42648134601316,NA
73077,Noble County,OK,NA,90.29562982005142,NA,NA
73078,Canadian County,OK,NA,83.9331619537275,NA,NA
73099,Canadian County,OK,NA,10.089974293059125,NA,NA
73110,Oklahoma County,OK,NA,56.61953727506427,NA,NA
73114,Oklahoma County,OK,NA,NA,65.3986832479883,NA
73120,Oklahoma County,OK,NA,NA,NA,77.71587743732591
73122,Oklahoma County,OK,NA,NA,94.36722750548647,NA
73134,Oklahoma County,OK,NA,NA,93.85515727871251,NA
73135,Oklahoma County,OK,NA,35.02570694087404,NA,NA
73139,Oklahoma County,OK,NA,45.56555269922879,NA,NA
73142,Oklahoma County,OK,NA,NA,NA,48.607242339832865
73159,Oklahoma County,OK,NA,38.04627249357326,NA,NA
73160,Cleveland County,OK,NA,8.933161953727506,69.27578639356254,9.610027855153204
73170,Cleveland County,OK,NA,NA,39.429407461594735,NA
73401,Carter County,OK,NA,35.732647814910024,NA,NA
73448,Love County,OK,NA,NA,88.36869056327726,NA
73505,Comanche County,OK,NA,NA,70.22677395757133,3.8997214484679668
73507,Comanche County,OK,NA,NA,NA,70.61281337047353
73533,Stephens County,OK,NA,16.323907455012854,NA,NA
73701,Garfield County,OK,NA,38.174807197943444,NA,23.119777158774372
73801,Woodward County,OK,NA,NA,85.44257498171179,NA
74006,Washington County,OK,NA,46.01542416452442,NA,NA
74020,Pawnee County,OK,NA,NA,NA,79.24791086350976
74048,Nowata County,OK,NA,NA,NA,84.54038997214485
74055,Tulsa County,OK,NA,NA,22.238478419897586,NA
74063,Tulsa County,OK,NA,NA,29.334308705193855,41.504178272980504
74066,Creek County,OK,NA,NA,60.64374542794441,NA
74074,Payne County,OK,NA,NA,63.2040965618142,NA
74107,Tulsa County,OK,NA,NA,NA,67.82729805013928
74127,Tulsa County,OK,NA,NA,NA,56.96378830083565
74133,Tulsa County,OK,NA,NA,16.38624725676664,NA
74136,Tulsa County,OK,NA,46.65809768637532,NA,NA
74137,Tulsa County,OK,NA,65.16709511568124,NA,NA
74301,Craig County,OK,NA,50.19280205655527,NA,NA
74403,Muskogee County,OK,31.086142322097377,NA,NA,NA
74441,Cherokee County,OK,NA,NA,NA,86.2116991643454
74462,Haskell County,OK,NA,63.94601542416453,NA,NA
74467,Wagoner County,OK,NA,NA,74.5427944403804,NA
74801,Pottawatomie County,OK,NA,57.77634961439588,20.336503291880028,NA
74820,Pontotoc County,OK,NA,5.591259640102828,3.8039502560351135,NA
74857,Cleveland County,OK,NA,NA,76.22531089978054,NA
74859,Okfuskee County,OK,NA,80.59125964010283,NA,NA
74955,Sequoyah County,OK,NA,49.10025706940874,NA,NA
97007,Washington County,OR,15.730337078651685,54.498714652956295,NA,NA
97015,Clackamas County,OR,NA,NA,59.47329919531822,NA
97035,Clackamas County,OR,NA,60.02570694087404,NA,NA
97051,Columbia County,OR,NA,92.03084832904884,NA,NA
97055,Clackamas County,OR,71.53558052434457,NA,NA,NA
97058,Wasco County,OR,NA,73.13624678663238,NA,NA
97060,Multnomah County,OR,36.70411985018727,NA,NA,NA
97124,Washington County,OR,NA,NA,47.9151426481346,NA
97141,Tillamook County,OR,NA,NA,72.93343087051939,NA
97146,Clatsop County,OR,NA,NA,62.10680321872714,NA
97201,Multnomah County,OR,NA,NA,66.64228237015362,NA
97205,Multnomah County,OR,NA,NA,NA,80.64066852367688
97206,Multnomah County,OR,NA,NA,18.361375274323336,NA
97212,Multnomah County,OR,NA,84.57583547557842,NA,NA
97214,Multnomah County,OR,NA,NA,69.05632772494513,NA
97217,Multnomah County,OR,NA,NA,37.60058522311631,NA
97218,Multnomah County,OR,NA,NA,78.05413313825896,NA
97220,Multnomah County,OR,NA,56.49100257069408,NA,NA
97222,Clackamas County,OR,NA,NA,25.676664228237016,NA
97224,Washington County,OR,NA,NA,NA,23.676880222841227
97225,Washington County,OR,NA,60.53984575835476,NA,NA
97229,Washington County,OR,NA,29.30591259640103,NA,NA
97230,Multnomah County,OR,NA,17.030848329048844,NA,11.977715877437326
97305,Marion County,OR,NA,NA,39.868324798829555,NA
97306,Marion County,OR,NA,NA,NA,77.57660167130919
97321,Linn County,OR,NA,NA,76.88368690563277,NA
97322,Linn County,OR,NA,10.154241645244216,54.425749817117776,NA
97325,Marion County,OR,NA,NA,84.63789319678128,NA
97333,Benton County,OR,90.2621722846442,NA,NA,NA
97338,Polk County,OR,68.91385767790263,NA,NA,NA
97381,Marion County,OR,NA,71.40102827763496,NA,NA
97392,Marion County,OR,NA,NA,80.46817849305047,NA
97402,Lane County,OR,NA,NA,NA,8.356545961002785
97415,Curry County,OR,NA,NA,50.1097293343087,NA
97424,Lane County,OR,NA,36.88946015424165,NA,NA
97444,Curry County,OR,NA,NA,65.61814191660571,NA
97458,Coos County,OR,NA,NA,96.92757863935626,NA
97467,Douglas County,OR,NA,95.95115681233933,56.91294806144843,NA
97471,Douglas County,OR,NA,NA,4.974396488661302,NA
97501,Jackson County,OR,NA,NA,9.509875640087785,NA
97502,Jackson County,OR,NA,59.6401028277635,NA,28.412256267409468
97539,Jackson County,OR,NA,NA,NA,84.26183844011142
97603,Klamath County,OR,NA,14.395886889460154,4.681784930504755,NA
97818,Morrow County,OR,NA,78.08483290488432,NA,NA
97838,Umatilla County,OR,NA,NA,NA,36.211699164345404
97914,Malheur County,OR,NA,NA,17.264081931236284,39.83286908077994
15001,Beaver County,PA,NA,15.359897172236503,41.477688368690565,NA
15022,Washington County,PA,NA,NA,69.20263350402341,NA
15026,Beaver County,PA,NA,NA,96.70811997073885,NA
15057,Washington County,PA,NA,65.74550128534705,NA,NA
15061,Beaver County,PA,NA,74.16452442159382,NA,NA
15071,Allegheny County,PA,NA,70.75835475578405,NA,NA
15084,Allegheny County,PA,NA,56.68380462724936,NA,NA
15085,Westmoreland County,PA,NA,NA,NA,72.28412256267409
15122,Allegheny County,PA,26.217228464419474,NA,NA,NA
15136,Allegheny County,PA,NA,23.45758354755784,NA,NA
15143,Allegheny County,PA,NA,NA,35.1865398683248,NA
15146,Allegheny County,PA,NA,NA,25.38405267008047,NA
15201,Allegheny County,PA,NA,NA,NA,61.00278551532033
15205,Allegheny County,PA,NA,NA,44.47695683979517,NA
15206,Allegheny County,PA,NA,NA,NA,14.623955431754876
15208,Allegheny County,PA,NA,NA,NA,50.69637883008357
15210,Allegheny County,PA,NA,11.375321336760926,NA,NA
15212,Allegheny County,PA,NA,NA,NA,60.306406685236766
15217,Allegheny County,PA,NA,NA,46.08632040965618,NA
15219,Allegheny County,PA,NA,NA,40.307242136064374,NA
15227,Allegheny County,PA,NA,30.655526992287918,NA,NA
15235,Allegheny County,PA,NA,14.460154241645245,NA,NA
15237,Allegheny County,PA,NA,40.80976863753214,NA,NA
15301,Washington County,PA,NA,NA,70.0073152889539,NA
15317,Washington County,PA,2.247191011235955,NA,NA,NA
15332,Washington County,PA,NA,73.20051413881748,NA,NA
15401,Fayette County,PA,NA,NA,4.09656181419166,NA
15425,Fayette County,PA,NA,NA,48.354059985369425,NA
15537,Bedford County,PA,NA,69.34447300771208,NA,NA
15601,Westmoreland County,PA,NA,31.169665809768638,NA,NA
15627,Westmoreland County,PA,NA,67.03084832904884,NA,NA
15642,Westmoreland County,PA,NA,NA,25.749817117776153,NA
15650,Westmoreland County,PA,NA,NA,13.386978785662034,NA
15656,Westmoreland County,PA,NA,NA,53.76737381126554,NA
15666,Westmoreland County,PA,NA,43.05912596401028,NA,10.584958217270195
15683,Westmoreland County,PA,NA,65.29562982005142,NA,NA
15690,Westmoreland County,PA,NA,NA,70.1536210680322,NA
15701,Indiana County,PA,NA,45.37275064267352,13.386978785662034,NA
15767,Jefferson County,PA,NA,NA,55.15727871250914,NA
15801,Clearfield County,PA,NA,25.064267352185087,5.779078273591807,NA
15824,Jefferson County,PA,NA,NA,NA,43.03621169916435
15846,Elk County,PA,NA,NA,97.8054133138259,NA
16001,Butler County,PA,NA,NA,1.024140453547915,NA
16057,Butler County,PA,NA,NA,65.25237746891001,NA
16063,Butler County,PA,NA,90.87403598971723,NA,NA
16101,Lawrence County,PA,NA,3.7917737789203083,NA,NA
16102,Lawrence County,PA,NA,80.46272493573264,NA,NA
16105,Lawrence County,PA,NA,NA,53.91367959034382,NA
16125,Mercer County,PA,NA,NA,13.167520117044623,NA
16137,Mercer County,PA,NA,NA,25.969275786393563,NA
16146,Mercer County,PA,NA,NA,32.626188734455006,NA
16148,Mercer County,PA,NA,39.33161953727507,17.044623262618874,NA
16150,Mercer County,PA,NA,NA,NA,71.72701949860725
16201,Armstrong County,PA,NA,25.19280205655527,NA,NA
16226,Armstrong County,PA,NA,86.5681233933162,NA,NA
16301,Venango County,PA,NA,NA,NA,31.894150417827298
16345,Warren County,PA,NA,97.49357326478149,NA,NA
16354,Crawford County,PA,58.42696629213483,NA,NA,NA
16365,Warren County,PA,NA,NA,24.286759326993415,NA
16407,Erie County,PA,NA,NA,89.02706656912947,NA
16412,Erie County,PA,NA,NA,NA,92.61838440111421
16502,Erie County,PA,NA,NA,NA,81.89415041782729
16504,Erie County,PA,NA,NA,NA,53.899721448467965
16507,Erie County,PA,NA,70.5012853470437,NA,NA
16509,Erie County,PA,NA,NA,NA,21.58774373259053
16510,Erie County,PA,NA,72.10796915167094,NA,NA
16601,Blair County,PA,NA,45.75835475578406,6.730065837600585,NA
16602,Blair County,PA,NA,NA,NA,48.74651810584958
16630,Cambria County,PA,NA,96.8508997429306,NA,NA
16635,Blair County,PA,NA,NA,54.864667154352595,NA
16648,Blair County,PA,NA,NA,59.10753474762254,NA
16651,Clearfield County,PA,NA,83.99742930591259,NA,NA
16686,Blair County,PA,NA,48.84318766066838,NA,NA
16823,Centre County,PA,NA,15.809768637532134,NA,NA
16830,Clearfield County,PA,NA,NA,23.70153621068032,NA
16833,Clearfield County,PA,NA,NA,47.549378200438916,NA
16866,Centre County,PA,NA,NA,60.058522311631314,NA
16870,Centre County,PA,NA,NA,93.19678127286028,NA
16947,Bradford County,PA,NA,83.74035989717224,NA,NA
17003,Lebanon County,PA,NA,NA,38.40526700804682,NA
17013,Cumberland County,PA,NA,NA,12.728602779809803,NA
17015,Cumberland County,PA,NA,NA,24.21360643745428,NA
17022,Lancaster County,PA,9.363295880149813,NA,12.216532553035844,13.788300835654596
17023,Dauphin County,PA,89.13857677902621,NA,NA,NA
17025,Cumberland County,PA,NA,26.79948586118252,NA,NA
17033,Dauphin County,PA,NA,NA,NA,20.194986072423397
17044,Mifflin County,PA,NA,9.254498714652955,NA,NA
17059,Juniata County,PA,77.15355805243446,NA,NA,NA
17066,Huntingdon County,PA,NA,80.91259640102828,NA,NA
17103,Dauphin County,PA,NA,59.06169665809769,NA,NA
17110,Dauphin County,PA,NA,12.017994858611825,NA,NA
17112,Dauphin County,PA,NA,NA,4.169714703730797,NA
17201,Franklin County,PA,NA,7.712082262210797,NA,14.345403899721449
17202,Franklin County,PA,NA,NA,41.550841258229696,NA
17233,Fulton County,PA,NA,NA,76.00585223116313,NA
17241,Cumberland County,PA,NA,64.46015424164524,NA,NA
17257,Cumberland County,PA,NA,81.68380462724936,NA,NA
17268,Franklin County,PA,NA,NA,17.483540599853693,NA
17313,York County,PA,NA,90.16709511568124,NA,NA
17320,Adams County,PA,NA,NA,NA,80.91922005571031
17325,Adams County,PA,NA,47.75064267352185,NA,NA
17331,York County,PA,NA,4.4987146529562985,NA,NA
17347,York County,PA,NA,NA,62.6188734455011,NA
17403,York County,PA,11.985018726591761,12.917737789203084,NA,NA
17406,York County,PA,NA,56.29820051413882,NA,NA
17408,York County,PA,NA,NA,12.143379663496708,12.674094707520892
17520,Lancaster County,PA,NA,NA,99.56108266276517,NA
17522,Lancaster County,PA,NA,NA,9.58302852962692,NA
17545,Lancaster County,PA,NA,75,NA,NA
17552,Lancaster County,PA,NA,59.19023136246787,NA,NA
17584,Lancaster County,PA,NA,NA,64.15508412582297,NA
17601,Lancaster County,PA,NA,27.95629820051414,NA,NA
17737,Lycoming County,PA,NA,96.97943444730078,NA,NA
17740,Lycoming County,PA,NA,42.9305912596401,NA,NA
17751,Clinton County,PA,NA,60.411311053984576,NA,NA
17754,Lycoming County,PA,NA,NA,NA,23.81615598885794
17756,Lycoming County,PA,NA,NA,NA,68.80222841225627
17777,Northumberland County,PA,85.76779026217228,NA,NA,65.59888579387186
17815,Columbia County,PA,NA,NA,33.06510607168983,NA
17821,Montour County,PA,22.846441947565545,NA,NA,NA
17834,Northumberland County,PA,NA,NA,NA,97.35376044568244
17837,Union County,PA,NA,NA,NA,19.91643454038997
17842,Snyder County,PA,NA,68.18766066838047,NA,NA
17857,Northumberland County,PA,NA,54.434447300771204,NA,NA
17866,Northumberland County,PA,NA,51.60668380462725,NA,NA
17870,Snyder County,PA,NA,39.52442159383033,NA,NA
17901,Schuylkill County,PA,NA,NA,23.04316020482809,NA
18014,Northampton County,PA,NA,NA,NA,35.097493036211695
18017,Northampton County,PA,NA,NA,2.7066569129480618,NA
18018,Lehigh County,PA,NA,NA,7.827359180687638,NA
18020,Northampton County,PA,NA,61.760925449871465,70.51938551572788,22.00557103064067
18040,Northampton County,PA,NA,NA,34.235552304316016,NA
18042,Northampton County,PA,NA,NA,3.4381858083394294,NA
18049,Lehigh County,PA,NA,NA,NA,57.242339832869085
18052,Lehigh County,PA,NA,57.58354755784062,72.5676664228237,NA
18064,Northampton County,PA,28.83895131086142,NA,NA,NA
18071,Carbon County,PA,NA,42.609254498714655,NA,NA
18073,Montgomery County,PA,NA,NA,79.66349670811998,NA
18102,Lehigh County,PA,NA,0.9640102827763496,NA,NA
18103,Lehigh County,PA,NA,56.041131105398456,NA,NA
18104,Lehigh County,PA,NA,75.06426735218508,3.1455742501828823,NA
18202,Luzerne County,PA,NA,NA,NA,38.85793871866296
18224,Luzerne County,PA,NA,NA,NA,97.07520891364902
18235,Carbon County,PA,NA,NA,22.677395757132405,NA
18252,Schuylkill County,PA,NA,47.36503856041131,NA,NA
18360,Monroe County,PA,NA,NA,95.0256035113387,NA
18411,Lackawanna County,PA,NA,NA,44.11119239209948,NA
18424,Lackawanna County,PA,NA,85.73264781491002,NA,NA
18436,Wayne County,PA,66.66666666666666,NA,NA,NA
18504,Lackawanna County,PA,NA,NA,96.6349670811997,NA
18505,Lackawanna County,PA,NA,90.80976863753213,NA,NA
18508,Lackawanna County,PA,NA,49.48586118251928,NA,90.3899721448468
18603,Columbia County,PA,NA,NA,42.64813460131675,NA
18634,Luzerne County,PA,NA,35.60411311053985,NA,NA
18655,Luzerne County,PA,NA,86.69665809768638,NA,NA
18657,Wyoming County,PA,NA,75.32133676092545,NA,NA
18702,Luzerne County,PA,NA,23.971722365038563,NA,NA
18706,Luzerne County,PA,NA,31.68380462724936,NA,NA
18707,Luzerne County,PA,NA,94.08740359897172,NA,NA
18837,Bradford County,PA,NA,97.04370179948586,NA,NA
18901,Bucks County,PA,NA,NA,49.01243599122165,9.749303621169917
18914,Bucks County,PA,NA,NA,45.42794440380395,NA
18940,Bucks County,PA,NA,NA,NA,40.947075208913645
18969,Montgomery County,PA,NA,53.34190231362468,NA,NA
75072,NA,NA,NA,96.01542416452442,NA,NA
19002,Montgomery County,PA,NA,57.969151670951156,NA,NA
19004,Montgomery County,PA,NA,96.33676092544987,NA,NA
19008,Delaware County,PA,NA,42.86632390745501,NA,NA
19013,Delaware County,PA,NA,2.506426735218509,NA,NA
19014,Delaware County,PA,NA,NA,32.04096561814191,37.1866295264624
19015,Delaware County,PA,67.04119850187266,NA,NA,NA
19020,Bucks County,PA,NA,NA,62.39941477688369,95.54317548746518
19021,Bucks County,PA,NA,74.03598971722364,NA,NA
19023,Delaware County,PA,NA,22.87917737789203,NA,NA
19026,Delaware County,PA,NA,NA,72.3482077542063,NA
19027,Montgomery County,PA,NA,62.08226221079691,NA,91.92200557103064
19029,Delaware County,PA,NA,97.81491002570694,NA,NA
19034,Montgomery County,PA,NA,99.55012853470437,NA,NA
19041,Delaware County,PA,NA,NA,92.97732260424286,NA
19047,Bucks County,PA,39.70037453183521,NA,NA,NA
19050,Delaware County,PA,NA,NA,10.607168983174835,96.23955431754875
19061,Delaware County,PA,NA,NA,61.667885881492325,NA
19063,Delaware County,PA,NA,NA,9.875640087783468,NA
19082,Delaware County,PA,NA,75.83547557840618,67.59326993416241,NA
19083,Delaware County,PA,NA,50.44987146529563,95.24506217995611,NA
19096,Montgomery County,PA,NA,93.12339331619538,NA,49.58217270194986
19103,Philadelphia County,PA,NA,NA,83.02852962692026,NA
19106,Philadelphia County,PA,NA,NA,NA,75.20891364902506
19107,Philadelphia County,PA,NA,82.51928020565553,NA,NA
19111,Philadelphia County,PA,NA,50.899742930591266,3.8771031455742504,NA
19114,Philadelphia County,PA,NA,13.753213367609254,NA,NA
19118,Philadelphia County,PA,NA,NA,85.51572787125092,NA
19119,Philadelphia County,PA,NA,NA,43.45281638624726,63.231197771587745
19120,Philadelphia County,PA,NA,NA,56.547183613752736,NA
19121,Philadelphia County,PA,NA,27.249357326478147,NA,NA
19124,Philadelphia County,PA,NA,NA,32.553035844915875,NA
19129,Philadelphia County,PA,NA,NA,80.46817849305047,NA
19131,Philadelphia County,PA,NA,NA,16.825164594001464,32.31197771587744
19132,Philadelphia County,PA,NA,82.84061696658098,NA,NA
19133,Philadelphia County,PA,NA,11.696658097686376,NA,NA
19138,Philadelphia County,PA,NA,34.51156812339332,NA,NA
19139,Philadelphia County,PA,NA,NA,NA,45.12534818941504
19140,Philadelphia County,PA,NA,NA,8.19312362838332,NA
19141,Philadelphia County,PA,NA,NA,12.655449890270665,56.26740947075209
19142,Philadelphia County,PA,NA,NA,85.73518653986832,NA
19143,Philadelphia County,PA,NA,NA,36.50329188002926,7.103064066852367
19145,Philadelphia County,PA,NA,NA,NA,28.551532033426184
19147,Philadelphia County,PA,NA,87.66066838046272,NA,NA
19148,Philadelphia County,PA,14.606741573033707,NA,11.19239209948793,NA
19149,Philadelphia County,PA,NA,NA,NA,25.62674094707521
19150,Philadelphia County,PA,NA,25.77120822622108,NA,NA
19151,Philadelphia County,PA,NA,NA,42.42867593269934,NA
19152,Philadelphia County,PA,40.074906367041194,NA,NA,NA
19311,Chester County,PA,NA,NA,NA,88.71866295264624
19335,Chester County,PA,NA,NA,11.338697878566203,NA
19344,Chester County,PA,NA,NA,NA,83.98328690807799
19363,Chester County,PA,NA,47.68637532133676,NA,NA
19380,Chester County,PA,NA,33.09768637532134,NA,3.6211699164345403
19403,Montgomery County,PA,NA,NA,65.98390636430139,NA
19406,Montgomery County,PA,61.04868913857678,NA,97.65910753474762,NA
19428,Montgomery County,PA,NA,NA,61.741038771031455,NA
19440,Montgomery County,PA,NA,NA,52.01170446232626,NA
19462,Montgomery County,PA,NA,38.81748071979435,NA,NA
19468,Montgomery County,PA,NA,NA,57.790782735918064,NA
19505,Berks County,PA,NA,NA,96.34235552304315,NA
19518,Berks County,PA,NA,40.4241645244216,NA,NA
19522,Berks County,PA,NA,52.5706940874036,27.505486466715436,NA
19526,Berks County,PA,NA,NA,75.932699341624,NA
19540,Berks County,PA,NA,NA,46.45208485735186,NA
19547,Berks County,PA,NA,NA,99.34162399414777,NA
19565,Berks County,PA,NA,66.32390745501286,NA,NA
19605,Berks County,PA,NA,24.29305912596401,NA,85.93314763231199
19606,Berks County,PA,86.89138576779027,NA,NA,NA
19607,Berks County,PA,NA,NA,15.362106803218728,NA
02813,Washington County,RI,NA,NA,NA,53.06406685236769
02840,Newport County,RI,NA,NA,NA,72.56267409470752
02861,Providence County,RI,NA,NA,23.2626188734455,NA
02865,Providence County,RI,NA,NA,46.96415508412583,NA
02885,Bristol County,RI,NA,NA,74.68910021945867,NA
02891,Washington County,RI,NA,NA,77.90782735918069,NA
02895,Providence County,RI,NA,8.804627249357326,NA,NA
02896,Providence County,RI,NA,73.32904884318766,NA,NA
02910,Providence County,RI,NA,42.35218508997429,NA,NA
02919,Providence County,RI,NA,NA,23.555230431602048,NA
29054,Lexington County,SC,NA,NA,77.10314557425019,NA
29072,Lexington County,SC,NA,NA,21.43379663496708,NA
29073,Lexington County,SC,NA,NA,29.91953182150695,NA
29102,Clarendon County,SC,NA,NA,NA,83.42618384401113
29123,Lexington County,SC,NA,79.17737789203085,NA,NA
29127,Newberry County,SC,NA,97.42930591259639,NA,NA
29209,Richland County,SC,NA,37.339331619537276,NA,NA
29301,Spartanburg County,SC,NA,NA,28.675932699341622,NA
29307,Spartanburg County,SC,NA,NA,57.42501828822238,NA
29349,Spartanburg County,SC,NA,NA,NA,50.13927576601671
29365,Spartanburg County,SC,NA,NA,55.01097293343087,NA
29401,Charleston County,SC,NA,97.94344473007712,NA,NA
29403,Charleston County,SC,NA,36.375321336760926,NA,NA
29405,Charleston County,SC,NA,50.257069408740364,30.870519385515728,NA
29406,Charleston County,SC,19.475655430711612,NA,NA,NA
29407,Charleston County,SC,NA,84.12596401028277,10.314557425018288,NA
29412,Charleston County,SC,NA,NA,NA,10.724233983286908
29414,Charleston County,SC,NA,NA,49.37820043891733,NA
29418,Charleston County,SC,NA,58.933161953727506,NA,NA
29420,Dorchester County,SC,NA,64.52442159383034,NA,NA
29429,Charleston County,SC,NA,94.66580976863753,NA,NA
29435,Colleton County,SC,NA,97.87917737789203,NA,NA
29440,Georgetown County,SC,NA,NA,67.0080468178493,NA
29456,Dorchester County,SC,NA,56.426735218508995,NA,NA
29461,Berkeley County,SC,NA,26.735218508997427,NA,NA
29464,Charleston County,SC,NA,NA,NA,13.09192200557103
29556,Williamsburg County,SC,NA,NA,NA,57.938718662952645
29566,Horry County,SC,NA,NA,40.746159473299194,NA
29569,Horry County,SC,NA,38.624678663239074,NA,NA
29582,Horry County,SC,NA,NA,44.330651060716896,49.02506963788301
29585,Georgetown County,SC,NA,NA,68.7637161667886,60.863509749303624
29588,Horry County,SC,NA,NA,9.290416971470373,NA
29605,Greenville County,SC,NA,77.95629820051414,NA,NA
29607,Greenville County,SC,NA,NA,67.73957571324067,NA
29625,Anderson County,SC,NA,NA,NA,39.55431754874652
29640,Pickens County,SC,NA,NA,75.42062911485003,NA
29649,Greenwood County,SC,NA,NA,72.42136064374543,NA
29650,Greenville County,SC,NA,NA,34.308705193855154,NA
29671,Pickens County,SC,NA,NA,50.475493782004385,NA
29672,Oconee County,SC,NA,NA,56.035113386978786,NA
29680,Greenville County,SC,NA,NA,NA,54.317548746518106
29681,Greenville County,SC,NA,NA,38.697878566203364,NA
29682,Pickens County,SC,NA,96.52956298200515,NA,NA
29697,Anderson County,SC,NA,87.40359897172236,54.20629114850036,NA
29707,Lancaster County,SC,74.15730337078652,NA,NA,NA
29708,York County,SC,NA,NA,51.792245793708844,NA
29715,York County,SC,NA,90.48843187660668,NA,NA
29720,Lancaster County,SC,NA,11.439588688946015,NA,NA
29745,York County,SC,NA,43.508997429305914,NA,NA
29803,Aiken County,SC,NA,NA,NA,16.573816155988858
29841,Aiken County,SC,NA,NA,22.750548646671543,NA
29860,Edgefield County,SC,NA,NA,82.80907095830285,NA
29906,Beaufort County,SC,NA,57.519280205655534,NA,NA
29909,Beaufort County,SC,NA,NA,13.02121433796635,NA
29928,Beaufort County,SC,NA,NA,52.0848573518654,NA
29936,Jasper County,SC,72.28464419475655,69.85861182519281,73.88441843452817,NA
57005,Minnehaha County,SD,NA,70.11568123393316,65.3986832479883,NA
57006,Brookings County,SD,NA,NA,32.84564740307242,NA
57022,Minnehaha County,SD,NA,97.10796915167094,NA,NA
57078,Yankton County,SD,NA,94.85861182519281,NA,NA
57104,Minnehaha County,SD,NA,NA,44.03803950256035,12.534818941504177
57105,Minnehaha County,SD,NA,38.36760925449872,9.729334308705194,NA
57106,Minnehaha County,SD,NA,47.10796915167095,NA,NA
57110,Minnehaha County,SD,NA,NA,21.360643745427947,NA
57401,Brown County,SD,NA,81.49100257069408,NA,11.142061281337048
57702,Pennington County,SD,NA,NA,14.118507681053401,NA
57747,Fall River County,SD,NA,NA,56.2545720555962,NA
57770,Shannon County,SD,NA,70.5012853470437,NA,NA
37027,Williamson County,TN,NA,NA,NA,16.016713091922004
37048,Sumner County,TN,NA,NA,NA,91.64345403899722
37066,Sumner County,TN,NA,NA,NA,22.56267409470752
37067,Williamson County,TN,NA,NA,58.961228968544255,NA
37069,Williamson County,TN,83.14606741573034,NA,NA,NA
37075,Sumner County,TN,NA,39.01028277634961,NA,NA
37076,Davidson County,TN,NA,55.976863753213365,NA,NA
37083,Macon County,TN,NA,78.8560411311054,NA,NA
37096,Perry County,TN,NA,89.91002570694087,NA,NA
37110,Warren County,TN,NA,NA,20.11704462326262,NA
37130,Rutherford County,TN,NA,15.488431876606684,NA,NA
37135,Williamson County,TN,NA,83.29048843187661,NA,93.87186629526462
37146,Cheatham County,TN,NA,NA,NA,100
37172,Robertson County,TN,59.55056179775281,53.470437017994854,NA,NA
37179,Williamson County,TN,NA,NA,95.61082662765179,NA
37184,Wilson County,TN,NA,88.68894601542416,NA,NA
37215,Davidson County,TN,NA,NA,88.0760790051207,NA
37216,Davidson County,TN,NA,NA,78.20043891733724,NA
37312,Bradley County,TN,NA,NA,37.74689100219459,28.969359331476323
37322,Meigs County,TN,NA,NA,70.08046817849305,NA
37324,Franklin County,TN,NA,60.9254498714653,NA,NA
37330,Franklin County,TN,NA,58.54755784061697,NA,NA
37334,Lincoln County,TN,NA,29.62724935732648,NA,35.79387186629526
37354,Monroe County,TN,NA,29.82005141388175,NA,NA
37355,Coffee County,TN,NA,NA,40.673006583760056,NA
37379,Hamilton County,TN,NA,33.61182519280206,NA,NA
37381,Rhea County,TN,NA,NA,54.059985369422094,NA
37601,Washington County,TN,NA,NA,83.83321141185077,NA
37604,Washington County,TN,NA,NA,45.135332845647405,27.019498607242337
37620,Sullivan County,TN,NA,NA,13.167520117044623,14.066852367688023
37641,Greene County,TN,NA,59.318766066838045,NA,NA
37650,Unicoi County,TN,NA,NA,35.11338697878566,NA
37660,Sullivan County,TN,NA,NA,29.773226042428675,9.052924791086351
37705,Anderson County,TN,NA,NA,85.22311631309437,NA
37708,Grainger County,TN,53.93258426966292,NA,NA,NA
37711,Hawkins County,TN,NA,89.7172236503856,NA,NA
37743,Greene County,TN,NA,NA,2.852962692026335,NA
37764,Sevier County,TN,NA,NA,68.69056327724945,NA
37766,Campbell County,TN,NA,29.11311053984576,NA,27.298050139275766
37769,Anderson County,TN,NA,NA,78.41989758595464,NA
37801,Blount County,TN,17.60299625468165,11.760925449871465,NA,NA
37803,Blount County,TN,28.08988764044944,NA,37.3811265544989,NA
37804,Blount County,TN,NA,65.23136246786633,NA,NA
37840,Roane County,TN,NA,NA,43.67227505486467,NA
37853,Blount County,TN,92.88389513108615,NA,NA,NA
37862,Sevier County,TN,NA,NA,71.03145574250182,NA
37863,Sevier County,TN,NA,NA,77.39575713240673,NA
37865,Sevier County,TN,NA,32.77634961439589,NA,NA
37871,Jefferson County,TN,NA,73.84318766066839,NA,NA
37874,Monroe County,TN,NA,NA,NA,47.910863509749305
37882,Blount County,TN,NA,98.45758354755783,NA,NA
37918,Knox County,TN,NA,NA,17.19092904169715,NA
37919,Knox County,TN,NA,80.33419023136247,92.53840526700805,NA
37932,Knox County,TN,NA,NA,53.98683247988295,NA
38002,Shelby County,TN,NA,56.169665809768645,NA,NA
38008,Hardeman County,TN,NA,NA,61.52158010241404,NA
38011,Tipton County,TN,NA,NA,NA,85.37604456824512
38019,Tipton County,TN,NA,NA,69.56839795171909,NA
38106,Shelby County,TN,NA,NA,31.675201170446233,NA
38109,Shelby County,TN,2.6217228464419478,NA,NA,NA
38114,Shelby County,TN,NA,46.465295629820055,NA,NA
38115,Shelby County,TN,NA,17.416452442159382,NA,NA
38122,Shelby County,TN,NA,NA,NA,59.888579387186624
38128,Shelby County,TN,13.48314606741573,NA,NA,NA
38133,Shelby County,TN,NA,64.39588688946016,NA,NA
38134,Shelby County,TN,NA,NA,44.76956839795172,NA
38201,Carroll County,TN,NA,66.0668380462725,NA,NA
38237,Weakley County,TN,NA,63.88174807197944,NA,NA
38256,Henry County,TN,NA,NA,NA,92.75766016713092
38301,Madison County,TN,NA,NA,41.69714703730797,NA
38305,Madison County,TN,NA,6.683804627249357,65.32553035844916,NA
38330,Gibson County,TN,NA,NA,NA,98.60724233983287
38351,Henderson County,TN,NA,NA,34.01609363569861,NA
38372,Hardin County,TN,NA,NA,37.23482077542063,NA
38401,Maury County,TN,NA,4.5629820051413885,6.144842721287491,NA
38462,Lewis County,TN,NA,NA,68.47110460863203,NA
38478,Giles County,TN,NA,NA,NA,51.392757660167135
38501,Putnam County,TN,NA,14.074550128534705,NA,NA
38506,Putnam County,TN,NA,NA,45.7205559619605,NA
38556,Fentress County,TN,NA,43.25192802056556,NA,NA
38558,Cumberland County,TN,NA,NA,40.89246525237747,NA
38571,Cumberland County,TN,NA,45.82262210796915,NA,NA
75006,Dallas County,TX,NA,NA,21.945866861741038,NA
75013,Collin County,TX,NA,NA,81.41916605705926,NA
75034,Denton County,TX,NA,58.16195372750642,NA,NA
75041,Dallas County,TX,NA,NA,58.814923189465986,NA
75065,Denton County,TX,NA,NA,91.88002926115581,NA
75074,Collin County,TX,NA,95.62982005141389,NA,NA
75082,Collin County,TX,NA,NA,89.2465252377469,NA
75094,Collin County,TX,NA,82.90488431876607,NA,NA
75104,Dallas County,TX,NA,17.737789203084834,NA,NA
75115,Dallas County,TX,NA,NA,NA,67.1309192200557
75117,Van Zandt County,TX,NA,94.02313624678663,NA,NA
75135,Hunt County,TX,NA,NA,97.51280175566936,NA
75146,Dallas County,TX,23.970037453183522,NA,NA,NA
75149,Dallas County,TX,NA,13.560411311053985,NA,89.13649025069638
75165,Ellis County,TX,NA,95.30848329048844,50.6949524506218,NA
75182,Dallas County,TX,NA,99.10025706940874,NA,NA
75203,Dallas County,TX,NA,NA,55.74250182882224,NA
75205,Dallas County,TX,NA,NA,NA,98.18941504178274
75214,Dallas County,TX,NA,NA,NA,86.90807799442896
75215,Dallas County,TX,18.726591760299627,NA,NA,NA
75216,Dallas County,TX,NA,50.6426735218509,NA,NA
75219,Dallas County,TX,NA,NA,77.39575713240673,NA
75229,Dallas County,TX,NA,NA,36.13752743233358,NA
75231,Dallas County,TX,NA,37.660668380462724,NA,NA
75235,Dallas County,TX,NA,56.49100257069408,NA,NA
75243,Dallas County,TX,NA,NA,95.46452084857351,NA
75287,Denton County,TX,NA,84.89717223650386,NA,NA
75407,Collin County,TX,NA,NA,90.05120702267739,NA
75455,Titus County,TX,NA,NA,NA,40.807799442896936
75482,Hopkins County,TX,74.90636704119851,NA,NA,NA
75604,Gregg County,TX,NA,33.03341902313625,NA,NA
75662,Gregg County,TX,NA,80.01285347043702,NA,NA
75672,Harrison County,TX,NA,NA,50.841258229700074,NA
75686,Camp County,TX,NA,NA,85.95464520848573,NA
75703,Smith County,TX,NA,NA,50.98756400877835,32.03342618384401
75707,Smith County,TX,NA,NA,NA,28.551532033426184
75752,Henderson County,TX,NA,NA,96.48866130212144,NA
75754,Van Zandt County,TX,NA,NA,94.51353328456474,NA
75758,Henderson County,TX,NA,NA,65.03291880029262,NA
75765,Wood County,TX,NA,NA,34.82077542062911,NA
75771,Smith County,TX,NA,45.69408740359897,NA,NA
75773,Wood County,TX,NA,NA,NA,38.3008356545961
75789,Smith County,TX,NA,74.87146529562982,NA,NA
75791,Smith County,TX,NA,NA,NA,56.824512534818936
75803,Anderson County,TX,NA,75.77120822622108,NA,NA
75840,Freestone County,TX,NA,NA,68.54425749817118,NA
75860,Freestone County,TX,NA,91.96658097686375,NA,NA
75862,Trinity County,TX,NA,90.10282776349614,68.83686905632771,NA
75901,Angelina County,TX,NA,NA,31.016825164594003,NA
75935,Shelby County,TX,NA,NA,68.03218727139722,NA
75961,Nacogdoches County,TX,NA,78.02056555269922,NA,NA
75965,Nacogdoches County,TX,NA,NA,71.7629846378932,NA
76008,Parker County,TX,NA,NA,91.14850036576445,92.89693593314763
76015,Tarrant County,TX,NA,84.19023136246787,NA,NA
76016,Tarrant County,TX,NA,54.69151670951157,NA,NA
76028,Johnson County,TX,NA,93.89460154241645,NA,NA
76034,Tarrant County,TX,NA,99.42159383033419,NA,NA
76049,Hood County,TX,NA,NA,15.215801024140454,NA
76050,Johnson County,TX,NA,74.42159383033419,NA,NA
76051,Tarrant County,TX,NA,25.257069408740364,NA,NA
76053,Tarrant County,TX,NA,33.61182519280206,NA,NA
76063,Tarrant County,TX,NA,NA,10.534016093635698,NA
76065,Ellis County,TX,NA,32.51928020565553,NA,NA
76066,Parker County,TX,NA,NA,98.90270665691295,NA
76092,Tarrant County,TX,NA,76.09254498714652,NA,NA
76105,Tarrant County,TX,79.40074906367042,NA,NA,NA
76106,Tarrant County,TX,NA,87.146529562982,NA,NA
76108,Tarrant County,TX,NA,31.362467866323907,NA,NA
76111,Tarrant County,TX,NA,95.37275064267352,NA,NA
76112,Tarrant County,TX,NA,10.282776349614396,NA,NA
76116,Tarrant County,TX,NA,NA,NA,45.82172701949861
76117,Tarrant County,TX,NA,27.699228791773777,NA,NA
76119,Tarrant County,TX,NA,5.205655526992288,7.168983174835406,NA
76120,Tarrant County,TX,NA,43.05912596401028,NA,NA
76131,Tarrant County,TX,NA,42.28791773778921,NA,NA
76133,Tarrant County,TX,NA,NA,NA,20.055710306406684
76134,Tarrant County,TX,NA,NA,50.76810534016094,NA
76137,Tarrant County,TX,NA,44.53727506426735,NA,NA
76148,Tarrant County,TX,NA,33.804627249357324,NA,NA
76164,Tarrant County,TX,NA,NA,96.78127286027798,NA
76182,Tarrant County,TX,NA,53.27763496143959,NA,NA
76210,Denton County,TX,NA,70.82262210796915,NA,NA
76234,Wise County,TX,NA,58.419023136246786,NA,NA
76255,Montague County,TX,NA,88.04627249357327,NA,NA
76309,Wichita County,TX,NA,NA,NA,60.306406685236766
76401,Erath County,TX,NA,50.77120822622108,NA,NA
76426,Wise County,TX,NA,NA,58.156547183613746,NA
76442,Comanche County,TX,NA,90.61696658097686,NA,NA
76501,Bell County,TX,NA,52.44215938303341,NA,NA
76502,Bell County,TX,NA,NA,0.5852231163130944,NA
76504,Bell County,TX,NA,NA,15.142648134601316,NA
76513,Bell County,TX,NA,26.15681233933162,NA,8.635097493036211
76528,Coryell County,TX,NA,NA,NA,67.96657381615599
76542,Bell County,TX,NA,10.668380462724937,18.21506949524506,NA
76571,Bell County,TX,NA,NA,NA,97.9108635097493
76574,Williamson County,TX,NA,41.066838046272494,16.898317483540602,NA
76633,McLennan County,TX,NA,81.426735218509,NA,NA
76643,McLennan County,TX,NA,59.768637532133674,77.61521580102414,NA
76657,McLennan County,TX,NA,88.88174807197944,73.1528895391368,NA
76661,Falls County,TX,NA,NA,NA,64.48467966573817
76667,Limestone County,TX,60.67415730337079,NA,NA,NA
76706,McLennan County,TX,NA,NA,89.75859546452085,NA
76710,McLennan County,TX,NA,NA,65.3986832479883,NA
76802,Brown County,TX,NA,96.65809768637533,NA,NA
76903,Tom Green County,TX,NA,NA,NA,36.908077994428965
77004,Harris County,TX,NA,21.40102827763496,NA,NA
77005,Harris County,TX,NA,NA,85.14996342355523,NA
77007,Harris County,TX,NA,85.15424164524421,NA,NA
77009,Harris County,TX,NA,38.303341902313626,NA,NA
77011,Harris County,TX,NA,NA,63.05779078273592,NA
77014,Harris County,TX,NA,49.55012853470437,NA,NA
77015,Harris County,TX,NA,NA,35.62545720555962,NA
77018,Harris County,TX,NA,NA,NA,55.15320334261838
77019,Harris County,TX,NA,59.12596401028277,NA,NA
77020,Harris County,TX,NA,48.97172236503856,NA,NA
77024,Harris County,TX,NA,NA,30.651060716898314,88.02228412256268
77026,Harris County,TX,NA,NA,43.81858083394294,NA
77029,Harris County,TX,NA,NA,93.34308705193855,NA
77033,Harris County,TX,NA,NA,87.71031455742502,NA
77036,Harris County,TX,NA,NA,66.05705925384052,NA
77044,Harris County,TX,NA,NA,50.18288222384785,NA
77045,Harris County,TX,NA,47.943444730077125,NA,NA
77047,Harris County,TX,NA,47.17223650385604,NA,NA
77055,Harris County,TX,NA,NA,85.8814923189466,NA
77057,Harris County,TX,NA,78.7917737789203,NA,NA
77062,Harris County,TX,NA,NA,74.98171177761522,NA
77064,Harris County,TX,NA,29.241645244215935,NA,NA
77066,Harris County,TX,41.947565543071164,NA,NA,NA
77067,Harris County,TX,31.46067415730337,NA,NA,NA
77072,Harris County,TX,NA,45.11568123393317,NA,NA
77082,Harris County,TX,17.97752808988764,NA,NA,NA
77084,Harris County,TX,NA,NA,48.20775420629115,NA
77086,Harris County,TX,NA,85.79691516709511,NA,NA
77087,Harris County,TX,NA,NA,44.696415508412585,NA
77088,Harris County,TX,NA,23.52185089974293,NA,NA
77089,Harris County,TX,NA,36.760925449871465,NA,57.381615598885794
77304,Montgomery County,TX,NA,NA,43.37966349670812,NA
77316,Montgomery County,TX,NA,62.91773778920309,NA,NA
77346,Harris County,TX,NA,15.745501285347045,NA,NA
77355,Montgomery County,TX,NA,NA,37.527432333577174,NA
77375,Harris County,TX,NA,89.46015424164524,NA,NA
77382,Montgomery County,TX,NA,NA,77.83467446964156,NA
77384,Montgomery County,TX,39.325842696629216,64.91002570694087,NA,NA
77389,Harris County,TX,NA,NA,NA,71.86629526462396
77406,Fort Bend County,TX,NA,NA,NA,92.06128133704735
77429,Harris County,TX,NA,NA,3.2918800292611556,76.6016713091922
77433,Harris County,TX,5.2434456928838955,60.60411311053985,NA,NA
77450,Harris County,TX,NA,30.7840616966581,NA,NA
77459,Fort Bend County,TX,75.65543071161048,NA,NA,NA
77479,Fort Bend County,TX,NA,NA,72.20190197512801,73.25905292479109
77480,Brazoria County,TX,NA,NA,NA,80.22284122562674
77488,Wharton County,TX,NA,NA,NA,69.63788300835655
77498,Fort Bend County,TX,NA,NA,70.88514996342356,NA
77510,Galveston County,TX,53.558052434456926,NA,NA,NA
77511,Brazoria County,TX,NA,NA,10.460863204096562,NA
77515,Brazoria County,TX,NA,40.616966580976865,NA,NA
77520,Harris County,TX,NA,NA,NA,44.28969359331476
77535,Liberty County,TX,NA,60.15424164524421,NA,NA
77539,Galveston County,TX,NA,15.038560411311053,NA,NA
77550,Galveston County,TX,NA,57.64781491002571,11.558156547183614,NA
77551,Galveston County,TX,NA,NA,20.921726408193123,NA
77568,Galveston County,TX,NA,NA,21.799561082662766,NA
77573,Galveston County,TX,NA,6.876606683804627,3.0724213606437454,NA
77575,Liberty County,TX,61.04868913857678,NA,NA,NA
77584,Brazoria County,TX,NA,30.077120822622106,NA,NA
77590,Galveston County,TX,NA,9.897172236503856,NA,NA
77612,Jasper County,TX,NA,NA,67.22750548646673,NA
77627,Jefferson County,TX,NA,92.15938303341902,NA,NA
77632,Orange County,TX,NA,NA,58.37600585223116,NA
77705,Jefferson County,TX,NA,35.282776349614394,NA,NA
77802,Brazos County,TX,NA,NA,NA,7.7994428969359335
77803,Brazos County,TX,NA,NA,NA,27.158774373259053
77808,Brazos County,TX,NA,NA,77.3226042428676,NA
77845,Brazos County,TX,NA,7.069408740359898,20.629114850036576,NA
77879,Burleson County,TX,NA,NA,58.22970007315289,NA
77904,Victoria County,TX,NA,32.26221079691517,27.724945135332845,NA
77905,Victoria County,TX,NA,74.61439588688947,NA,NA
77964,Lavaca County,TX,NA,NA,NA,47.21448467966574
78046,Webb County,TX,NA,NA,NA,68.24512534818942
78073,Bexar County,TX,NA,NA,97.14703730797366,NA
78114,Wilson County,TX,NA,69.66580976863753,NA,NA
78121,Wilson County,TX,NA,NA,81.27286027798098,NA
78130,Comal County,TX,NA,46.850899742930594,NA,NA
78210,Bexar County,TX,NA,NA,41.11192392099488,NA
78214,Bexar County,TX,NA,89.20308483290489,NA,NA
78223,Bexar County,TX,NA,NA,95.68397951719093,NA
78228,Bexar County,TX,1.4981273408239701,22.36503856041131,NA,21.16991643454039
78240,Bexar County,TX,NA,36.05398457583547,NA,NA
78249,Bexar County,TX,NA,NA,87.78346744696415,NA
78254,Bexar County,TX,NA,NA,NA,62.67409470752089
78259,Bexar County,TX,NA,94.9228791773779,NA,NA
78332,Jim Wells County,TX,NA,74.74293059125964,NA,NA
78538,Hidalgo County,TX,NA,NA,86.75932699341624,NA
78539,Hidalgo County,TX,NA,NA,54.13313825896123,NA
78550,Cameron County,TX,NA,NA,NA,25.20891364902507
78552,Cameron County,TX,NA,NA,59.253840526700806,NA
78573,Hidalgo County,TX,NA,NA,37.30797366495977,NA
78586,Cameron County,TX,NA,36.825192802056556,NA,NA
78611,Burnet County,TX,NA,66.51670951156812,NA,NA
78613,Williamson County,TX,NA,NA,83.6869056327725,NA
78620,Hays County,TX,NA,90.03856041131105,NA,NA
78624,Gillespie County,TX,NA,64.20308483290489,NA,NA
78629,Gonzales County,TX,NA,NA,61.15581565471836,NA
78633,Williamson County,TX,NA,NA,35.84491587417703,15.73816155988858
78634,Williamson County,TX,NA,49.67866323907455,NA,NA
78639,Llano County,TX,94.3820224719101,NA,34.96708119970739,NA
78640,Hays County,TX,4.49438202247191,NA,NA,NA
78642,Williamson County,TX,NA,78.9203084832905,NA,NA
78644,Caldwell County,TX,NA,NA,NA,55.98885793871866
78648,Caldwell County,TX,NA,NA,67.44696415508412,NA
78654,Burnet County,TX,NA,NA,30.285296269202632,40.66852367688023
78660,Travis County,TX,NA,NA,NA,43.73259052924791
78676,Hays County,TX,NA,NA,60.79005120702268,NA
78704,Travis County,TX,59.925093632958806,NA,NA,NA
78729,Williamson County,TX,NA,66.25964010282776,NA,NA
78734,Travis County,TX,NA,NA,NA,83.84401114206128
78744,Travis County,TX,30.337078651685395,NA,NA,NA
78746,Travis County,TX,NA,NA,NA,78.55153203342618
78759,Travis County,TX,NA,65.74550128534705,NA,NA
79121,Randall County,TX,NA,91.83804627249359,NA,NA
79316,Terry County,TX,NA,NA,63.2040965618142,NA
79329,Lubbock County,TX,NA,NA,99.85369422092172,NA
79331,Dawson County,TX,NA,NA,62.472567666422826,NA
79407,Lubbock County,TX,NA,39.84575835475578,NA,NA
79416,Lubbock County,TX,NA,69.02313624678663,NA,NA
79423,Lubbock County,TX,NA,NA,74.83540599853694,73.95543175487465
79424,Lubbock County,TX,NA,NA,NA,15.32033426183844
79603,Taylor County,TX,NA,NA,26.55449890270666,NA
79606,Taylor County,TX,NA,NA,42.209217264081936,NA
79701,Midland County,TX,NA,61.43958868894601,NA,NA
79705,Midland County,TX,NA,NA,95.53767373811266,NA
79707,Midland County,TX,NA,NA,65.76444769568398,NA
79714,Andrews County,TX,NA,NA,57.49817117776153,NA
79735,Pecos County,TX,45.69288389513109,NA,NA,NA
79764,Ector County,TX,NA,69.9228791773779,NA,NA
79905,El Paso County,TX,NA,NA,NA,72.84122562674095
84009,Salt Lake County,UT,NA,NA,76.59107534747622,NA
84020,Salt Lake County,UT,26.591760299625467,NA,78.7125091441112,70.19498607242339
84029,Tooele County,UT,NA,NA,89.53913679590345,NA
84062,Utah County,UT,NA,NA,89.39283101682517,NA
84074,Tooele County,UT,NA,NA,16.020482809070955,NA
84078,Uintah County,UT,NA,12.403598971722365,NA,61.28133704735376
84084,Salt Lake County,UT,NA,63.4318766066838,NA,NA
84103,Salt Lake County,UT,NA,NA,NA,27.99442896935933
84111,Salt Lake County,UT,NA,NA,NA,94.28969359331477
84115,Salt Lake County,UT,35.580524344569284,NA,NA,NA
84116,Salt Lake County,UT,NA,21.85089974293059,26.18873445501097,NA
84119,Salt Lake County,UT,NA,9.125964010282777,29.480614484272127,NA
84120,Salt Lake County,UT,NA,5.334190231362468,NA,NA
84129,,UT,50.187265917603,51.670951156812336,NA,NA
84315,Weber County,UT,83.14606741573034,NA,NA,NA
84501,Carbon County,UT,NA,NA,71.3972201901975,NA
84526,Carbon County,UT,NA,93.18766066838047,NA,NA
84606,Utah County,UT,NA,77.89203084832906,NA,NA
84737,Washington County,UT,NA,NA,79.51719092904169,NA
84770,Washington County,UT,81.64794007490637,NA,52.15801024140454,NA
84790,Washington County,UT,NA,62.53213367609255,NA,NA
05001,Windsor County,VT,NA,93.44473007712082,NA,NA
05201,Bennington County,VT,NA,NA,17.55669348939283,NA
05403,Chittenden County,VT,NA,51.99228791773779,NA,24.651810584958216
05452,Chittenden County,VT,NA,90.74550128534705,NA,NA
05488,Franklin County,VT,NA,86.24678663239075,NA,NA
05602,Washington County,VT,NA,NA,27.87125091441112,NA
05641,Washington County,VT,NA,NA,22.604242867593268,NA
05701,Rutland County,VT,NA,NA,8.778346744696416,NA
05819,Caledonia County,VT,76.40449438202246,NA,NA,NA
20121,Fairfax County,VA,NA,53.8560411311054,NA,NA
20170,Fairfax County,VA,NA,NA,36.13752743233358,NA
20171,Fairfax County,VA,NA,42.48071979434447,NA,NA
20175,Loudoun County,VA,NA,NA,84.12582297000732,NA
22003,Fairfax County,VA,NA,66.6452442159383,NA,NA
22026,Prince William County,VA,NA,52.249357326478155,NA,NA
22180,Fairfax County,VA,NA,69.280205655527,NA,NA
22306,Fairfax County,VA,NA,22.750642673521853,NA,NA
22312,Fairfax County,VA,NA,NA,53.32845647403073,NA
22408,Spotsylvania County,VA,NA,NA,46.67154352596928,NA
22485,King George County,VA,NA,52.82776349614395,NA,NA
22601,Winchester city,VA,NA,NA,NA,87.60445682451254
22602,Frederick County,VA,67.79026217228464,NA,NA,NA
22701,Culpeper County,VA,NA,63.11053984575835,NA,NA
22801,Harrisonburg city,VA,NA,NA,87.63716166788588,NA
22802,Harrisonburg city,VA,20.973782771535582,NA,NA,NA
22835,Page County,VA,NA,NA,NA,34.540389972144844
22901,Albemarle County,VA,NA,26.606683804627252,NA,6.685236768802229
22903,Charlottesville city,VA,NA,NA,NA,75.06963788300835
22911,Albemarle County,VA,NA,NA,NA,24.512534818941504
22932,Albemarle County,VA,NA,NA,92.75786393562547,98.46796657381616
22947,Albemarle County,VA,NA,94.34447300771208,NA,NA
22980,Waynesboro city,VA,NA,NA,NA,3.203342618384401
23139,Powhatan County,VA,NA,NA,36.86905632772495,NA
23185,James City County,VA,NA,29.94858611825193,2.560351133869788,NA
23188,James City County,VA,NA,NA,31.52889539136796,0.5571030640668524
23220,Richmond city,VA,NA,NA,43.7454279444038,NA
23222,Richmond city,VA,NA,12.853470437017995,NA,NA
23231,Henrico County,VA,NA,NA,13.679590343818582,NA
23234,Chesterfield County,VA,NA,14.267352185089974,NA,NA
23235,Chesterfield County,VA,NA,NA,35.33284564740307,NA
23314,Isle of Wight County,VA,95.88014981273409,NA,NA,NA
23320,Chesapeake city,VA,NA,NA,NA,6.8245125348189415
23453,Virginia Beach city,VA,NA,NA,60.058522311631314,NA
23454,Virginia Beach city,VA,NA,NA,9.656181419166057,4.3175487465181055
23456,Virginia Beach city,VA,NA,NA,30.504754937820046,NA
23601,Newport News city,VA,NA,NA,NA,23.53760445682451
23602,Newport News city,VA,NA,22.68637532133676,NA,NA
23607,Newport News city,VA,NA,14.717223650385606,NA,NA
23608,Newport News city,VA,NA,NA,27.359180687637163,NA
23666,Hampton city,VA,NA,58.67609254498715,51.35332845647403,NA
23669,Hampton city,VA,NA,70.17994858611826,11.046086320409657,NA
23701,Portsmouth city,VA,NA,NA,18.50768105340161,NA
23704,Portsmouth city,VA,NA,NA,83.54059985369422,NA
23707,Portsmouth city,VA,NA,NA,30.065837600585223,93.59331476323119
23834,Colonial Heights city,VA,NA,38.88174807197943,NA,NA
24012,Roanoke city,VA,NA,NA,NA,27.437325905292482
24017,Roanoke city,VA,NA,19.02313624678663,NA,NA
24019,Roanoke County,VA,NA,NA,NA,35.515320334261844
24095,Bedford County,VA,NA,91.45244215938303,NA,NA
24112,Henry County,VA,NA,NA,11.704462326261886,NA
24175,Botetourt County,VA,NA,NA,81.85808339429408,NA
24179,Roanoke County,VA,NA,41.83804627249357,NA,NA
24211,Washington County,VA,NA,97.17223650385604,NA,NA
24244,Scott County,VA,NA,73.7146529562982,NA,NA
24266,Russell County,VA,NA,NA,52.889539136795904,NA
24343,Carroll County,VA,NA,NA,61.15581565471836,NA
24354,Smyth County,VA,NA,NA,62.25310899780542,NA
24422,Alleghany County,VA,NA,NA,72.64081931236284,NA
24477,Augusta County,VA,NA,NA,NA,96.10027855153204
24614,Buchanan County,VA,NA,49.807197943444734,NA,NA
24637,Tazewell County,VA,NA,NA,98.75640087783466,NA
24641,Tazewell County,VA,NA,NA,60.35113386978785,NA
24651,Tazewell County,VA,NA,77.44215938303341,72.78712509144111,NA
98004,King County,WA,NA,88.4318766066838,NA,NA
98010,King County,WA,NA,80.59125964010283,NA,NA
98012,Snohomish County,WA,8.239700374531834,NA,NA,NA
98020,Snohomish County,WA,91.01123595505618,NA,NA,NA
98023,King County,WA,88.76404494382022,NA,37.966349670812,NA
98027,King County,WA,NA,NA,89.90490124359913,NA
98030,King County,WA,NA,NA,NA,40.25069637883008
98032,King County,WA,NA,NA,35.69861009509875,NA
98038,King County,WA,NA,NA,NA,41.64345403899721
98053,King County,WA,NA,NA,29.480614484272127,NA
98058,King County,WA,NA,NA,16.898317483540602,NA
98059,King County,WA,NA,NA,NA,54.59610027855153
98070,King County,WA,86.51685393258427,NA,NA,NA
98092,King County,WA,NA,18.70179948586118,NA,NA
98102,King County,WA,NA,60.79691516709511,NA,NA
98104,King County,WA,22.09737827715356,NA,NA,NA
98107,King County,WA,NA,NA,56.69348939283102,NA
98112,King County,WA,NA,70.30848329048844,NA,NA
98115,King County,WA,NA,57.19794344473008,NA,23.955431754874652
98122,King County,WA,NA,48.13624678663239,32.47988295537674,NA
98144,King County,WA,NA,NA,NA,46.239554317548745
98146,King County,WA,NA,NA,25.31089978054133,NA
98177,King County,WA,NA,NA,46.013167520117044,NA
98178,King County,WA,NA,46.07969151670951,NA,NA
98198,King County,WA,NA,34.383033419023135,NA,NA
98201,Snohomish County,WA,NA,40.29562982005142,NA,NA
98203,Snohomish County,WA,NA,39.0745501285347,26.70080468178493,NA
98223,Snohomish County,WA,NA,NA,80.10241404535479,NA
98233,Skagit County,WA,NA,NA,NA,38.71866295264624
98239,Island County,WA,NA,NA,49.74396488661302,NA
98271,Snohomish County,WA,NA,36.95372750642674,NA,NA
98272,Snohomish County,WA,NA,NA,NA,52.64623955431755
98273,Skagit County,WA,NA,NA,12.289685442574982,NA
98275,Snohomish County,WA,NA,NA,59.253840526700806,NA
98312,Kitsap County,WA,NA,31.10539845758355,NA,NA
98331,Clallam County,WA,NA,NA,NA,91.08635097493037
98335,Pierce County,WA,NA,49.93573264781491,NA,NA
98362,Clallam County,WA,NA,NA,6.583760058522311,NA
98363,Clallam County,WA,NA,79.11311053984575,NA,NA
98368,Jefferson County,WA,NA,NA,66.7885881492319,NA
98382,Clallam County,WA,NA,68.76606683804627,NA,NA
98387,Pierce County,WA,NA,NA,18.141916605705926,NA
98407,Pierce County,WA,NA,57.0694087403599,NA,NA
98409,Pierce County,WA,NA,NA,NA,62.95264623955432
98499,Pierce County,WA,NA,62.146529562982,42.355523043160204,NA
98550,Grays Harbor County,WA,NA,NA,63.71616678858815,NA
98607,Clark County,WA,84.6441947565543,NA,75.3474762253109,NA
98612,Wahkiakum County,WA,NA,NA,NA,87.88300835654597
98620,Klickitat County,WA,NA,66.19537275064268,NA,NA
98642,Clark County,WA,NA,NA,74.17702999268471,NA
98661,Clark County,WA,NA,90.55269922879178,NA,NA
98665,Clark County,WA,NA,95.82262210796915,NA,NA
98801,Chelan County,WA,NA,NA,NA,5.013927576601671
98802,Douglas County,WA,44.569288389513105,NA,NA,16.852367688022284
98826,Chelan County,WA,NA,NA,64.44769568397952,NA
98828,Chelan County,WA,NA,NA,99.70738844184345,NA
98901,Yakima County,WA,NA,NA,81.19970738844185,NA
98926,Kittitas County,WA,NA,NA,27.286027798098022,NA
98942,Yakima County,WA,NA,63.624678663239074,NA,NA
99166,Ferry County,WA,NA,NA,97.2201901975128,NA
99206,Spokane County,WA,NA,NA,NA,25.348189415041784
99216,Spokane County,WA,NA,NA,NA,91.22562674094708
99337,Benton County,WA,NA,NA,6.217995610826628,NA
99362,Walla Walla County,WA,NA,NA,NA,7.520891364902507
20001,District of Columbia,DC,NA,83.3547557840617,NA,NA
20002,District of Columbia,DC,NA,NA,7.2421360643745425,NA
20010,District of Columbia,DC,NA,79.94858611825192,NA,NA
20017,District of Columbia,DC,NA,NA,88.58814923189466,NA
20019,District of Columbia,DC,NA,31.812339331619537,63.4235552304316,NA
20020,District of Columbia,DC,NA,11.118251928020566,NA,22.841225626740947
20024,District of Columbia,DC,NA,NA,87.41770299926847,NA
24701,Mercer County,WV,NA,NA,22.457937088514996,NA
24739,Mercer County,WV,NA,NA,NA,94.01114206128133
24870,Wyoming County,WV,NA,NA,NA,93.17548746518106
25123,Mason County,WV,NA,95.56555269922879,NA,NA
25143,Kanawha County,WV,NA,NA,NA,57.66016713091921
25404,Berkeley County,WV,NA,NA,NA,49.16434540389972
25427,Berkeley County,WV,NA,52.185089974293064,NA,NA
25428,Berkeley County,WV,NA,51.092544987146525,NA,NA
25504,Cabell County,WV,NA,NA,81.56547183613753,NA
25560,Putnam County,WV,NA,79.30591259640103,NA,NA
25701,Cabell County,WV,NA,NA,40.599853694220926,NA
25801,Raleigh County,WV,NA,9.640102827763496,NA,NA
25901,Fayette County,WV,70.4119850187266,NA,NA,NA
26003,Ohio County,WV,NA,NA,1.3899049012435991,NA
26041,Marshall County,WV,NA,38.43187660668381,NA,NA
26062,Hancock County,WV,NA,NA,20.11704462326262,8.774373259052924
26070,Brooke County,WV,NA,61.63239074550128,NA,NA
26101,Wood County,WV,NA,NA,4.828090709583028,NA
26104,Wood County,WV,NA,83.41902313624678,75.5669348939283,NA
26105,Wood County,WV,NA,40.552699228791774,NA,NA
26155,Wetzel County,WV,NA,68.44473007712082,NA,NA
26170,Pleasants County,WV,NA,NA,61.15581565471836,NA
26241,Randolph County,WV,NA,25.128534704370182,NA,NA
26330,Harrison County,WV,NA,NA,22.970007315288953,NA
26354,Taylor County,WV,NA,NA,66.86174103877103,NA
26537,Preston County,WV,NA,47.49357326478149,NA,NA
26541,Monongalia County,WV,NA,81.16966580976865,NA,NA
26554,Marion County,WV,14.232209737827715,NA,NA,NA
53018,Waukesha County,WI,97.00374531835206,NA,NA,NA
53024,Ozaukee County,WI,NA,NA,74.03072421360643,NA
53027,Washington County,WI,70.4119850187266,NA,NA,NA
53072,Waukesha County,WI,NA,NA,NA,33.70473537604457
53081,Sheboygan County,WI,NA,76.41388174807197,NA,NA
53094,Jefferson County,WI,NA,NA,69.42209217264082,NA
53098,Dodge County,WI,NA,NA,72.71397220190198,NA
53105,Racine County,WI,32.958801498127336,NA,33.72348207754206,NA
53110,Milwaukee County,WI,NA,67.41645244215938,NA,NA
53115,Walworth County,WI,NA,NA,76.9568397951719,NA
53140,Kenosha County,WI,42.32209737827715,8.290488431876607,NA,NA
53143,Kenosha County,WI,NA,NA,52.59692757863935,NA
53144,Kenosha County,WI,NA,39.46015424164525,NA,NA
53151,Waukesha County,WI,NA,NA,63.350402340892465,NA
53172,Milwaukee County,WI,46.06741573033708,57.0694087403599,NA,NA
53185,Racine County,WI,63.670411985018724,NA,42.72128749085589,NA
53190,Walworth County,WI,NA,NA,49.08558888076079,NA
53191,Walworth County,WI,NA,99.67866323907455,NA,NA
53204,Milwaukee County,WI,NA,4.048843187660668,NA,NA
53205,Milwaukee County,WI,NA,2.120822622107969,NA,NA
53206,Milwaukee County,WI,NA,6.812339331619537,NA,NA
53207,Milwaukee County,WI,NA,NA,24.433065106071687,NA
53208,Milwaukee County,WI,NA,31.748071979434446,NA,NA
53209,Milwaukee County,WI,NA,2.056555269922879,NA,NA
53212,Milwaukee County,WI,NA,51.9280205655527,NA,NA
53214,Milwaukee County,WI,NA,NA,NA,99.025069637883007
53215,Milwaukee County,WI,NA,NA,35.69861009509875,NA
53218,Milwaukee County,WI,NA,4.370179948586118,48.71982443306511,NA
53220,Milwaukee County,WI,NA,75.44987146529563,NA,NA
53221,Milwaukee County,WI,NA,NA,74.39648866130212,NA
53224,Milwaukee County,WI,NA,29.562982005141386,NA,NA
53225,Milwaukee County,WI,NA,8.161953727506427,NA,NA
53227,Milwaukee County,WI,NA,70.37275064267352,45.28163862472568,NA
53402,Racine County,WI,NA,37.724935732647815,NA,NA
53406,Racine County,WI,NA,NA,13.752743233357718,NA
53511,Rock County,WI,NA,0.8997429305912596,4.316020482809071,NA
53533,Iowa County,WI,NA,NA,NA,99.16434540389972
53545,Rock County,WI,NA,28.92030848329049,NA,NA
53566,Green County,WI,NA,42.73778920308483,14.996342355523042,NA
53575,Dane County,WI,NA,NA,NA,86.62952646239555
53581,Richland County,WI,NA,NA,70.81199707388441,NA
53590,Dane County,WI,NA,87.2107969151671,64.0087783467447,NA
53593,Dane County,WI,83.14606741573034,NA,37.820043891733725,NA
53703,Dane County,WI,NA,NA,94.00146305779077,NA
53705,Dane County,WI,NA,NA,NA,10.86350974930362
53717,Dane County,WI,NA,75.706940874036,86.53986832479883,NA
53719,Dane County,WI,NA,46.40102827763496,NA,NA
53901,Columbia County,WI,NA,56.94087403598972,NA,NA
53949,Marquette County,WI,NA,89.26735218508998,NA,NA
54011,Pierce County,WI,NA,NA,91.73372348207755,81.33704735376045
54017,St. Croix County,WI,NA,NA,NA,59.47075208913649
54024,Polk County,WI,NA,89.84575835475579,83.39429407461594,NA
54130,Outagamie County,WI,NA,48.90745501285347,NA,NA
54141,Oconto County,WI,NA,96.1439588688946,NA,NA
54151,Marinette County,WI,NA,NA,55.37673738112655,NA
54154,Oconto County,WI,NA,75.96401028277636,NA,NA
54155,Brown County,WI,NA,NA,93.41623994147768,NA
54165,Outagamie County,WI,NA,NA,77.17629846378932,NA
54174,Oconto County,WI,NA,98.7789203084833,NA,NA
54220,Manitowoc County,WI,NA,3.8560411311053984,14.045354791514264,NA
54241,Manitowoc County,WI,NA,NA,73.81126554498903,NA
54303,Brown County,WI,NA,37.91773778920309,NA,NA
54304,Brown County,WI,38.951310861423224,NA,NA,NA
54311,Brown County,WI,NA,80.7840616966581,NA,65.45961002785515
54403,Marathon County,WI,NA,NA,80.76079005120702,NA
54409,Langlade County,WI,NA,NA,NA,8.07799442896936
54449,Wood County,WI,NA,60.732647814910024,NA,NA
54452,Lincoln County,WI,NA,NA,39.20994879297732,NA
54455,Marathon County,WI,NA,NA,52.52377468910022,NA
54456,Clark County,WI,NA,NA,91.36795903438187,NA
54474,Marathon County,WI,NA,NA,99.41477688368691,NA
54501,Oneida County,WI,NA,NA,16.67885881492319,NA
54534,Iron County,WI,NA,94.53727506426736,NA,NA
54548,Oneida County,WI,NA,NA,NA,70.47353760445682
54603,La Crosse County,WI,NA,44.922879177377894,NA,NA
54615,Jackson County,WI,NA,79.88431876606684,66.93489392831017,NA
54665,Vernon County,WI,NA,NA,NA,44.986072423398326
54669,La Crosse County,WI,NA,NA,82.22384784198977,NA
54725,Dunn County,WI,NA,96.1439588688946,NA,NA
54853,Polk County,WI,NA,NA,68.83686905632771,NA
54868,Barron County,WI,NA,NA,NA,56.40668523676881
54880,Douglas County,WI,6.367041198501873,10.989717223650386,NA,NA
54901,Winnebago County,WI,NA,21.079691516709513,NA,NA
54915,Outagamie County,WI,NA,NA,38.11265544989027,46.796657381615596
54923,Green Lake County,WI,NA,80.8483290488432,NA,NA
54935,Fond du Lac County,WI,NA,53.40616966580976,NA,NA
54937,Fond du Lac County,WI,NA,91.38817480719794,NA,NA
54940,Waupaca County,WI,98.87640449438202,NA,NA,NA
54956,Winnebago County,WI,NA,20.37275064267352,NA,NA
54971,Fond du Lac County,WI,NA,74.3573264781491,NA,NA
54981,Waupaca County,WI,NA,51.73521850899743,NA,NA
54983,Waupaca County,WI,NA,77.82776349614396,NA,NA
82001,Laramie County,WY,57.67790262172284,NA,NA,NA
82201,Platte County,WY,NA,NA,NA,86.49025069637884
82601,Natrona County,WY,NA,83.54755784061697,NA,NA
82637,Converse County,WY,NA,97.75064267352185,NA,NA
82834,Johnson County,WY,NA,NA,81.85808339429408,NA
82901,Sweetwater County,WY,NA,NA,NA,75.34818941504177
