ZipCode,county,state,Youth,Adult,Retirement,Geriatric
35010,Tallapoosa County,AL,59.199999999999996,NA,NA,55.419222903885476
35040,Shelby County,AL,NA,42.00367647058824,NA,NA
35044,Talladega County,AL,NA,78.21691176470588,NA,NA
35057,Cullman County,AL,NA,65.625,NA,NA
35071,Jefferson County,AL,NA,NA,64.06601650412604,NA
35072,Coosa County,AL,NA,NA,67.74193548387096,NA
35085,Chilton County,AL,NA,76.37867647058823,NA,NA
35150,Talladega County,AL,NA,NA,72.84321080270068,NA
35179,Cullman County,AL,NA,NA,69.2423105776444,NA
35211,Jefferson County,AL,NA,NA,NA,74.02862985685071
35213,Jefferson County,AL,NA,NA,51.162790697674424,NA
35216,Jefferson County,AL,NA,NA,36.30907726931733,NA
35242,Shelby County,AL,NA,77.20588235294117,NA,NA
35243,Jefferson County,AL,NA,NA,44.036009002250566,NA
35406,Tuscaloosa County,AL,NA,64.15441176470588,NA,NA
35504,Walker County,AL,NA,NA,49.962490622655665,44.376278118609406
35565,Winston County,AL,NA,NA,62.7906976744186,NA
35570,Marion County,AL,NA,NA,68.94223555888972,NA
35603,Morgan County,AL,NA,13.786764705882353,NA,NA
35611,Limestone County,AL,NA,19.485294117647058,NA,NA
35613,Limestone County,AL,NA,NA,NA,57.873210633946826
35646,Colbert County,AL,NA,NA,96.09902475618904,NA
35660,Colbert County,AL,NA,NA,73.2933233308327,NA
35661,Colbert County,AL,NA,NA,58.664666166541636,NA
35773,Madison County,AL,NA,NA,49.662415603900975,NA
35811,Madison County,AL,NA,33.455882352941174,NA,NA
35816,Madison County,AL,NA,61.21323529411765,NA,NA
35905,Etowah County,AL,NA,NA,NA,85.68507157464212
35952,Etowah County,AL,54,NA,NA,NA
36116,Montgomery County,AL,NA,16.360294117647058,NA,NA
36117,Montgomery County,AL,NA,77.75735294117648,NA,NA
36203,Calhoun County,AL,NA,NA,37.28432108027007,NA
36265,Calhoun County,AL,NA,NA,44.26106526631658,NA
36272,Calhoun County,AL,NA,97.33455882352942,NA,NA
36330,Coffee County,AL,NA,38.32720588235294,NA,NA
36421,Covington County,AL,84.39999999999999,NA,NA,NA
36502,Escambia County,AL,NA,87.59191176470588,NA,NA
36526,Baldwin County,AL,NA,NA,27.7569392348087,NA
36535,Baldwin County,AL,NA,NA,42.535633908477124,NA
36542,Baldwin County,AL,NA,NA,52.81320330082521,NA
36545,Clarke County,AL,NA,NA,76.51912978244562,NA
36567,Baldwin County,AL,NA,53.76838235294118,NA,NA
36606,Mobile County,AL,NA,NA,84.77119279819955,NA
36695,Mobile County,AL,NA,NA,68.34208552138034,NA
36756,Perry County,AL,NA,NA,74.1185296324081,NA
36784,Clarke County,AL,NA,NA,69.91747936984247,NA
36801,Lee County,AL,NA,51.83823529411765,NA,NA
36804,Lee County,AL,NA,82.16911764705883,81.32033008252063,NA
36830,Lee County,AL,65.2,94.02573529411765,73.14328582145536,NA
36832,Lee County,AL,NA,NA,95.79894973743436,NA
36854,Chambers County,AL,NA,NA,86.7966991747937,NA
36862,Chambers County,AL,NA,92.09558823529412,NA,NA
36863,Chambers County,AL,NA,NA,94.14853713428357,NA
36869,Russell County,AL,NA,NA,74.49362340585147,NA
99516,Anchorage Municipality,AK,NA,NA,79.29482370592649,NA
99603,Kenai Peninsula Borough,AK,NA,NA,41.86046511627907,NA
99654,Matanuska-Susitna Borough,AK,NA,29.503676470588236,NA,NA
99835,Sitka City and Borough,AK,NA,NA,65.04126031507877,NA
85015,Maricopa County,AZ,NA,NA,NA,49.284253578732105
85018,Maricopa County,AZ,NA,NA,73.66841710427607,NA
85024,Maricopa County,AZ,NA,NA,NA,84.86707566462167
85027,Maricopa County,AZ,NA,NA,82.52063015753939,NA
85033,Maricopa County,AZ,NA,NA,28.132033008252062,NA
85051,Maricopa County,AZ,NA,11.856617647058822,NA,NA
85086,Maricopa County,AZ,NA,NA,87.69692423105776,NA
85138,Pinal County,AZ,NA,31.985294117647058,NA,NA
85203,Maricopa County,AZ,NA,30.330882352941174,NA,NA
85204,Maricopa County,AZ,NA,36.39705882352941,NA,NA
85215,Maricopa County,AZ,NA,NA,61.14028507126782,NA
85225,Maricopa County,AZ,NA,9.834558823529411,NA,NA
85234,Maricopa County,AZ,NA,NA,40.36009002250563,NA
85301,Maricopa County,AZ,NA,NA,42.010502625656414,NA
85302,Maricopa County,AZ,NA,19.761029411764707,NA,NA
85321,Pima County,AZ,NA,NA,NA,92.22903885480572
85345,Maricopa County,AZ,NA,NA,NA,29.85685071574642
85364,Yuma County,AZ,NA,NA,17.254313578394598,NA
85373,Maricopa County,AZ,NA,NA,79.59489872468117,NA
85375,Maricopa County,AZ,NA,NA,16.054013503375845,NA
85383,Maricopa County,AZ,NA,51.470588235294116,NA,NA
85390,Maricopa County,AZ,NA,NA,77.49437359339835,96.11451942740287
85501,Gila County,AZ,NA,NA,51.83795948987247,NA
85539,Gila County,AZ,NA,98.62132352941177,NA,NA
85550,Graham County,AZ,NA,92.55514705882352,NA,NA
85603,Cochise County,AZ,NA,74.17279411764706,NA,NA
85607,Cochise County,AZ,NA,NA,32.63315828957239,NA
85643,Cochise County,AZ,NA,NA,72.91822955738935,NA
85705,Pima County,AZ,NA,3.6764705882352944,NA,NA
85710,Pima County,AZ,NA,NA,11.252813203300825,58.48670756646217
85715,Pima County,AZ,NA,NA,44.036009002250566,NA
85716,Pima County,AZ,NA,NA,19.42985746436609,NA
85718,Pima County,AZ,NA,NA,13.353338334583645,NA
85719,Pima County,AZ,NA,70.86397058823529,73.36834208552138,NA
85746,Pima County,AZ,NA,85.66176470588235,86.42160540135033,NA
86004,Coconino County,AZ,26.400000000000002,NA,NA,NA
86040,Coconino County,AZ,NA,NA,NA,79.14110429447852
86044,San Juan County,AZ,NA,NA,94.29857464366091,NA
86303,Yavapai County,AZ,NA,NA,62.34058514628658,NA
86322,Yavapai County,AZ,NA,NA,48.38709677419355,NA
86324,Yavapai County,AZ,NA,NA,94.67366841710427,NA
86325,Yavapai County,AZ,NA,NA,NA,99.59100204498978
86326,Yavapai County,AZ,NA,NA,NA,18.404907975460123
86351,Yavapai County,AZ,NA,NA,NA,69.73415132924336
86401,Mohave County,AZ,NA,NA,25.656414103525883,NA
86406,Mohave County,AZ,NA,NA,47.03675918979745,NA
86426,Mohave County,AZ,NA,NA,39.0847711927982,NA
86503,Apache County,AZ,NA,57.62867647058824,NA,NA
86505,Apache County,AZ,NA,NA,NA,47.443762781186095
71601,Jefferson County,AR,NA,NA,71.7179294823706,NA
71667,Lincoln County,AR,94,NA,NA,NA
71730,Union County,AR,85.6,NA,NA,NA
71854,Miller County,AR,NA,NA,90.62265566391598,NA
71901,Garland County,AR,NA,NA,63.84096024006002,NA
71913,Garland County,AR,NA,30.79044117647059,NA,NA
71943,Pike County,AR,NA,93.29044117647058,NA,NA
71953,Polk County,AR,NA,NA,87.6219054763691,NA
72010,White County,AR,NA,NA,70.81770442610653,NA
72034,Faulkner County,AR,90.8,NA,NA,41.513292433537835
72058,Faulkner County,AR,64.4,NA,NA,NA
72076,Pulaski County,AR,NA,42.55514705882353,NA,NA
72118,Pulaski County,AR,NA,NA,NA,35.173824130879346
72150,Grant County,AR,NA,NA,89.04726181545387,NA
72206,Pulaski County,AR,NA,NA,50.112528132033006,NA
72301,Crittenden County,AR,NA,84.74264705882352,NA,NA
72401,Craighead County,AR,NA,12.591911764705882,7.95198799699925,NA
72450,Greene County,AR,NA,43.56617647058824,74.19354838709677,NA
72501,Independence County,AR,67.2,27.849264705882355,NA,NA
72634,Marion County,AR,NA,95.86397058823529,NA,NA
72653,Baxter County,AR,NA,NA,60.24006001500375,NA
72712,Benton County,AR,NA,40.07352941176471,NA,NA
72758,Benton County,AR,50,NA,NA,38.65030674846626
72958,Scott County,AR,NA,63.41911764705882,NA,NA
90001,Los Angeles County,CA,NA,NA,53.86346586646662,NA
90022,Los Angeles County,CA,NA,59.00735294117647,32.85821455363841,NA
90024,Los Angeles County,CA,NA,NA,NA,82.20858895705521
90031,Los Angeles County,CA,NA,NA,NA,66.46216768916156
90034,Los Angeles County,CA,NA,NA,NA,30.061349693251532
90045,Los Angeles County,CA,NA,NA,NA,65.6441717791411
90065,Los Angeles County,CA,NA,NA,56.114028507126775,NA
90240,Los Angeles County,CA,NA,NA,56.339084771192795,NA
90250,Los Angeles County,CA,NA,18.75,18.079519879969993,NA
90266,Los Angeles County,CA,NA,NA,35.483870967741936,NA
90274,Los Angeles County,CA,NA,NA,46.58664666166541,NA
90278,Los Angeles County,CA,48.8,NA,NA,NA
90501,Los Angeles County,CA,NA,NA,42.760690172543136,NA
90505,Los Angeles County,CA,NA,49.54044117647059,28.80720180045011,NA
90606,Los Angeles County,CA,NA,70.49632352941177,NA,NA
90650,Los Angeles County,CA,NA,NA,NA,23.108384458077712
90660,Los Angeles County,CA,NA,22.702205882352942,25.206301575393848,NA
90701,Los Angeles County,CA,NA,NA,NA,78.32310838445807
90706,Los Angeles County,CA,10.8,NA,NA,NA
90723,Los Angeles County,CA,NA,44.20955882352941,NA,NA
90731,Los Angeles County,CA,NA,NA,19.279819954988746,NA
91205,Los Angeles County,CA,NA,60.11029411764706,67.06676669167292,NA
91207,Los Angeles County,CA,NA,NA,71.41785446361591,NA
91304,Los Angeles County,CA,NA,68.29044117647058,68.192048012003,NA
91351,Los Angeles County,CA,NA,54.779411764705884,NA,NA
91356,Los Angeles County,CA,NA,NA,35.25881470367592,NA
91360,Ventura County,CA,36.8,NA,NA,NA
91364,Los Angeles County,CA,NA,NA,56.56414103525882,NA
91411,Los Angeles County,CA,NA,90.16544117647058,NA,NA
91423,Los Angeles County,CA,NA,NA,47.11177794448612,NA
91505,Los Angeles County,CA,NA,NA,99.24981245311328,NA
91605,Los Angeles County,CA,NA,NA,34.883720930232556,NA
91702,Los Angeles County,CA,NA,25.827205882352942,NA,NA
91709,San Bernardino County,CA,NA,27.66544117647059,NA,NA
91741,Los Angeles County,CA,NA,84.28308823529412,NA,NA
91744,Los Angeles County,CA,NA,14.522058823529413,NA,NA
91766,Los Angeles County,CA,NA,33.18014705882353,NA,NA
91911,San Diego County,CA,NA,NA,38.40960240060015,NA
91941,San Diego County,CA,NA,NA,NA,34.56032719836401
91942,San Diego County,CA,NA,NA,30.23255813953488,NA
92021,San Diego County,CA,NA,NA,54.01350337584396,NA
92101,San Diego County,CA,NA,NA,6.451612903225806,NA
92111,San Diego County,CA,NA,NA,37.2093023255814,NA
92118,San Diego County,CA,NA,NA,77.71942985746436,NA
92126,San Diego County,CA,NA,37.408088235294116,NA,NA
92211,Riverside County,CA,NA,NA,27.081770442610654,42.331288343558285
92234,Riverside County,CA,NA,36.48897058823529,NA,NA
92262,Riverside County,CA,NA,NA,7.501875468867217,NA
92264,Riverside County,CA,NA,39.24632352941176,NA,NA
92284,San Bernardino County,CA,NA,NA,65.94148537134284,NA
92324,San Bernardino County,CA,NA,44.30147058823529,NA,NA
92352,San Bernardino County,CA,NA,NA,88.89722430607651,NA
92373,San Bernardino County,CA,NA,NA,48.98724681170293,NA
92557,Riverside County,CA,NA,89.0625,35.708927231807955,NA
92562,Riverside County,CA,68,NA,NA,NA
92570,Riverside County,CA,NA,NA,64.21605401350338,NA
92604,Orange County,CA,NA,NA,48.16204051012753,NA
92627,Orange County,CA,NA,NA,21.680420105026258,NA
92630,Orange County,CA,NA,NA,NA,25.971370143149286
92637,Orange County,CA,NA,NA,22.95573893473368,NA
92683,Orange County,CA,NA,13.694852941176471,NA,NA
92807,Orange County,CA,NA,NA,28.207051762940733,NA
92821,Orange County,CA,NA,NA,35.55888972243061,NA
92832,Orange County,CA,NA,47.33455882352941,NA,NA
92833,Orange County,CA,NA,NA,51.53788447111778,NA
92835,Orange County,CA,NA,NA,47.48687171792948,19.836400817995912
92845,Orange County,CA,NA,NA,50.937734433608405,NA
92870,Orange County,CA,NA,59.466911764705884,16.879219804951237,NA
92886,Orange County,CA,NA,NA,12.07801950487622,NA
93003,Ventura County,CA,NA,NA,14.103525881470366,NA
93065,Ventura County,CA,NA,12.683823529411764,NA,NA
93215,Kern County,CA,NA,NA,68.04201050262566,NA
93308,Kern County,CA,NA,22.24264705882353,NA,NA
93311,Kern County,CA,NA,75.73529411764706,NA,NA
93401,San Luis Obispo County,CA,NA,NA,38.10952738184546,NA
93444,San Luis Obispo County,CA,NA,NA,NA,51.533742331288344
93445,San Luis Obispo County,CA,NA,NA,NA,100
93454,Santa Barbara County,CA,NA,24.816176470588236,NA,NA
93455,Santa Barbara County,CA,NA,25.919117647058826,NA,NA
93536,Los Angeles County,CA,NA,35.845588235294116,37.58439609902476,NA
93562,San Bernardino County,CA,NA,NA,91.97299324831208,NA
93611,Fresno County,CA,NA,NA,NA,46.216768916155424
93612,Fresno County,CA,NA,NA,NA,33.33333333333333
93630,Fresno County,CA,NA,71.32352941176471,NA,NA
93704,Fresno County,CA,NA,43.38235294117647,NA,NA
93705,Fresno County,CA,NA,NA,NA,48.057259713701434
93722,Fresno County,CA,NA,NA,10.277569392348088,NA
93728,Fresno County,CA,NA,NA,NA,48.466257668711656
93927,Monterey County,CA,NA,NA,NA,99.79550102249489
94015,San Mateo County,CA,NA,NA,6.90172543135784,NA
94022,Santa Clara County,CA,NA,NA,66.09152288072018,NA
94041,Santa Clara County,CA,NA,NA,97.14928732183046,NA
94062,San Mateo County,CA,NA,47.05882352941176,NA,NA
94070,San Mateo County,CA,NA,NA,52.13803450862715,NA
94080,San Mateo County,CA,NA,26.93014705882353,NA,NA
94089,Santa Clara County,CA,NA,NA,NA,60.32719836400818
94103,San Francisco County,CA,NA,10.20220588235294,NA,NA
94109,San Francisco County,CA,NA,52.38970588235294,NA,NA
94114,San Francisco County,CA,NA,39.43014705882353,NA,NA
94115,San Francisco County,CA,NA,NA,NA,12.678936605316974
94122,San Francisco County,CA,NA,NA,42.91072768192048,NA
94127,San Francisco County,CA,NA,NA,NA,45.807770961145195
94131,San Francisco County,CA,NA,NA,91.07276819204802,NA
94132,San Francisco County,CA,NA,70.22058823529412,NA,NA
94133,San Francisco County,CA,NA,82.35294117647058,NA,NA
94301,Santa Clara County,CA,NA,91.91176470588235,NA,NA
94506,Contra Costa County,CA,25.6,NA,NA,NA
94518,Contra Costa County,CA,NA,NA,63.69092273068267,NA
94520,Contra Costa County,CA,NA,NA,NA,83.02658486707567
94523,Contra Costa County,CA,NA,57.8125,NA,NA
94526,Contra Costa County,CA,NA,56.52573529411765,NA,NA
94553,Contra Costa County,CA,NA,84.83455882352942,NA,NA
94556,Contra Costa County,CA,91.2,NA,NA,NA
94565,Contra Costa County,CA,NA,NA,NA,23.721881390593047
94587,Alameda County,CA,NA,NA,15.603900975243812,NA
94588,Alameda County,CA,49.6,NA,NA,NA
94591,Solano County,CA,NA,NA,27.38184546136534,NA
94598,Contra Costa County,CA,NA,NA,70.14253563390848,NA
94605,Alameda County,CA,NA,NA,16.429107276819206,NA
94610,Alameda County,CA,NA,55.05514705882353,NA,NA
94611,Alameda County,CA,NA,NA,16.504126031507877,NA
94702,Alameda County,CA,NA,NA,80.49512378094524,NA
94804,Contra Costa County,CA,NA,53.86029411764706,NA,NA
94920,Marin County,CA,NA,82.26102941176471,NA,NA
94945,Marin County,CA,NA,83.63970588235294,NA,NA
95006,Santa Cruz County,CA,NA,NA,97.2993248312078,NA
95008,Santa Clara County,CA,NA,54.779411764705884,NA,NA
95023,San Benito County,CA,NA,NA,85.29632408102026,NA
95032,Santa Clara County,CA,NA,NA,NA,38.445807770961146
95060,Santa Cruz County,CA,NA,NA,66.46661665416354,NA
95062,Santa Cruz County,CA,NA,NA,61.44036009002251,NA
95076,Santa Cruz County,CA,NA,NA,11.927981995498875,NA
95117,Santa Clara County,CA,NA,81.98529411764706,NA,NA
95127,Santa Clara County,CA,NA,NA,31.882970742685675,NA
95129,Santa Clara County,CA,NA,75,NA,NA
95222,Calaveras County,CA,NA,100,NA,NA
95228,Calaveras County,CA,NA,98.80514705882352,97.97449362340586,NA
95320,San Joaquin County,CA,NA,NA,75.39384846211553,NA
95327,Tuolumne County,CA,NA,NA,72.31807951987997,NA
95330,San Joaquin County,CA,NA,NA,87.39684921230307,NA
95356,Stanislaus County,CA,32,NA,NA,NA
95370,Tuolumne County,CA,NA,NA,2.250562640660165,NA
95376,San Joaquin County,CA,NA,22.518382352941178,NA,NA
95404,Sonoma County,CA,NA,NA,20.40510127531883,NA
95409,Sonoma County,CA,NA,NA,86.04651162790698,NA
95437,Mendocino County,CA,NA,NA,NA,26.789366053169733
95472,Sonoma County,CA,NA,NA,44.711177794448616,NA
95501,Humboldt County,CA,NA,44.11764705882353,NA,NA
95521,Humboldt County,CA,NA,NA,92.34808702175545,NA
95602,Placer County,CA,NA,NA,36.159039759939986,NA
95666,Amador County,CA,NA,NA,89.64741185296324,NA
95667,El Dorado County,CA,NA,NA,34.28357089272318,NA
95683,Sacramento County,CA,NA,NA,NA,75.4601226993865
95820,Sacramento County,CA,NA,NA,82.29557389347337,NA
95822,Sacramento County,CA,NA,31.893382352941174,NA,NA
95823,Sacramento County,CA,NA,10.11029411764706,NA,NA
95828,Sacramento County,CA,NA,32.904411764705884,NA,NA
95945,Nevada County,CA,NA,NA,57.98949737434359,NA
95966,Butte County,CA,NA,30.14705882352941,NA,NA
95969,Butte County,CA,NA,69.57720588235294,24.681170292573142,4.9079754601226995
95991,Sutter County,CA,NA,23.161764705882355,NA,NA
96097,Siskiyou County,CA,NA,NA,72.01800450112528,NA
96130,Lassen County,CA,NA,65.99264705882352,NA,NA
96150,El Dorado County,CA,NA,61.58088235294118,NA,NA
80012,Arapahoe County,CO,NA,NA,67.36684171042761,NA
80016,Arapahoe County,CO,3.2,83.73161764705883,NA,NA
80023,Broomfield County,CO,NA,NA,94.74868717179294,NA
80026,Boulder County,CO,NA,NA,91.89797449362341,NA
80031,Adams County,CO,NA,61.48897058823529,NA,NA
80110,Arapahoe County,CO,NA,NA,72.54313578394598,NA
80120,Arapahoe County,CO,NA,NA,NA,37.423312883435585
80122,Arapahoe County,CO,NA,NA,81.54538634658664,NA
80123,Jefferson County,CO,NA,88.23529411764706,NA,NA
80124,Douglas County,CO,NA,55.79044117647059,98.87471867966991,NA
80132,El Paso County,CO,NA,NA,NA,84.45807770961146
80204,Denver County,CO,NA,16.911764705882355,NA,NA
80205,Denver County,CO,NA,NA,24.23105776444111,NA
80206,Denver County,CO,NA,NA,76.21905476369092,NA
80209,Denver County,CO,NA,NA,76.89422355588897,NA
80210,Denver County,CO,NA,NA,70.14253563390848,NA
80219,Denver County,CO,NA,5.05514705882353,NA,NA
80221,Adams County,CO,NA,26.378676470588236,NA,NA
80223,Denver County,CO,NA,53.67647058823529,NA,NA
80228,Jefferson County,CO,NA,NA,41.935483870967744,NA
80232,Jefferson County,CO,NA,67.83088235294117,NA,NA
80260,Adams County,CO,NA,NA,45.91147786946736,NA
80301,Boulder County,CO,NA,NA,61.51537884471118,NA
80302,Boulder County,CO,NA,86.30514705882352,NA,NA
80401,Jefferson County,CO,NA,72.70220588235294,NA,NA
80503,Boulder County,CO,NA,84.55882352941177,NA,NA
80504,Boulder County,CO,NA,NA,17.554388597149288,NA
80517,Larimer County,CO,NA,NA,34.658664666166544,NA
80524,Larimer County,CO,NA,24.63235294117647,NA,NA
80526,Larimer County,CO,NA,NA,70.06751687921981,NA
80538,Larimer County,CO,NA,NA,44.56114028507127,NA
80547,Larimer County,CO,90.4,NA,NA,NA
80550,Weld County,CO,NA,88.69485294117648,NA,39.059304703476485
80601,Adams County,CO,NA,NA,81.99549887471868,NA
80631,Weld County,CO,NA,7.44485294117647,18.67966991747937,NA
80634,Weld County,CO,NA,NA,0.9752438109527383,9.406952965235174
80654,Morgan County,CO,NA,89.61397058823529,NA,NA
80701,Morgan County,CO,54.800000000000004,NA,32.03300825206302,NA
80751,Logan County,CO,27.200000000000003,NA,NA,NA
80910,El Paso County,CO,NA,18.84191176470588,NA,NA
80917,El Paso County,CO,NA,NA,40.13503375843961,NA
80918,El Paso County,CO,NA,66.45220588235294,NA,NA
81006,Pueblo County,CO,NA,NA,59.18979744936234,NA
81007,Pueblo County,CO,NA,37.68382352941176,NA,NA
81008,Pueblo County,CO,NA,95.12867647058823,NA,NA
81144,Rio Grande County,CO,NA,NA,85.89647411852962,NA
81212,Fremont County,CO,NA,32.44485294117647,NA,NA
81230,Gunnison County,CO,NA,NA,98.34958739684922,NA
81301,La Plata County,CO,NA,NA,29.107276819204802,NA
81401,Montrose County,CO,NA,NA,NA,91.00204498977506
81416,Delta County,CO,NA,64.33823529411765,NA,61.554192229038854
81611,Pitkin County,CO,96.8,NA,NA,NA
81625,Moffat County,CO,NA,32.07720588235294,NA,NA
06002,Hartford County,CT,NA,78.40073529411765,NA,NA
06016,Hartford County,CT,NA,NA,NA,80.57259713701431
06029,Tolland County,CT,NA,NA,49.73743435858965,NA
06040,Hartford County,CT,17.599999999999998,NA,NA,NA
06042,Hartford County,CT,NA,61.029411764705884,NA,NA
06053,Hartford County,CT,NA,NA,NA,95.29652351738241
06066,Tolland County,CT,NA,41.36029411764706,NA,45.603271983640084
06074,Hartford County,CT,NA,NA,68.56714178544637,NA
06082,Hartford County,CT,NA,NA,9.152288072018004,NA
06105,Hartford County,CT,NA,46.231617647058826,24.456114028507127,NA
06106,Hartford County,CT,NA,4.963235294117647,NA,NA
06107,Hartford County,CT,NA,92.00367647058823,NA,NA
06108,Hartford County,CT,NA,23.897058823529413,NA,NA
06114,Hartford County,CT,NA,39.79779411764706,NA,NA
06277,Windham County,CT,76.8,NA,NA,NA
06418,New Haven County,CT,NA,59.92647058823529,NA,NA
06451,New Haven County,CT,NA,NA,26.78169542385596,43.353783231083845
06471,New Haven County,CT,NA,NA,NA,57.05521472392638
06473,New Haven County,CT,NA,NA,22.655663915978995,NA
06482,Fairfield County,CT,NA,82.8125,NA,NA
06488,New Haven County,CT,NA,NA,NA,53.78323108384458
06489,Hartford County,CT,NA,24.724264705882355,NA,NA
06511,New Haven County,CT,NA,NA,83.49587396849212,NA
06513,New Haven County,CT,NA,45.955882352941174,NA,NA
06514,New Haven County,CT,NA,NA,23.1807951987997,NA
06604,Fairfield County,CT,NA,15.441176470588236,NA,NA
06706,New Haven County,CT,61.199999999999996,NA,NA,NA
06708,New Haven County,CT,NA,17.55514705882353,NA,NA
06786,Litchfield County,CT,NA,NA,67.1417854463616,NA
06810,Fairfield County,CT,NA,NA,14.403600900225054,NA
06811,Fairfield County,CT,NA,NA,75.4688672168042,70.14314928425358
06820,Fairfield County,CT,NA,93.19852941176471,NA,NA
06830,Fairfield County,CT,NA,NA,26.18154538634659,NA
06854,Fairfield County,CT,NA,37.5,NA,NA
06902,Fairfield County,CT,NA,45.86397058823529,NA,NA
06903,Fairfield County,CT,NA,NA,45.68642160540135,NA
06905,Fairfield County,CT,NA,68.65808823529412,NA,NA
19702,New Castle County,DE,NA,12.867647058823529,NA,NA
19709,New Castle County,DE,NA,NA,13.953488372093023,NA
19711,New Castle County,DE,NA,NA,7.351837959489872,NA
19734,New Castle County,DE,NA,NA,67.59189797449362,NA
19803,New Castle County,DE,NA,75.91911764705883,97.37434358589647,NA
19805,New Castle County,DE,NA,NA,5.926481620405101,NA
19808,New Castle County,DE,NA,17.55514705882353,NA,NA
19933,Sussex County,DE,NA,85.84558823529412,NA,NA
19940,Sussex County,DE,NA,NA,91.74793698424605,NA
19945,Sussex County,DE,NA,NA,74.56864216054014,NA
19947,Sussex County,DE,NA,76.5625,28.432108027006752,NA
19963,Sussex County,DE,NA,NA,71.86796699174793,NA
19966,Sussex County,DE,NA,NA,5.626406601650412,13.496932515337424
19970,Sussex County,DE,NA,NA,45.23630907726932,NA
19971,Sussex County,DE,NA,NA,NA,72.59713701431492
19973,Sussex County,DE,NA,NA,NA,14.519427402862986
32025,Columbia County,FL,NA,31.15808823529412,NA,NA
32034,Nassau County,FL,NA,NA,27.306826706676667,NA
32038,Columbia County,FL,NA,68.93382352941177,NA,NA
32040,Baker County,FL,NA,NA,NA,80.77709611451944
32084,St. Johns County,FL,NA,23.713235294117645,20.10502625656414,NA
32114,Volusia County,FL,NA,NA,75.84396099024757,NA
32136,Flagler County,FL,NA,NA,NA,62.985685071574636
32137,Flagler County,FL,NA,NA,NA,7.975460122699387
32174,Volusia County,FL,NA,NA,NA,9.202453987730062
32207,Duval County,FL,51.6,42.37132352941176,NA,NA
32208,Duval County,FL,NA,1.5625,NA,NA
32209,Duval County,FL,NA,4.5036764705882355,9.377344336084022,NA
32210,Duval County,FL,NA,NA,4.50112528132033,10.224948875255624
32440,Jackson County,FL,NA,NA,NA,88.13905930470347
32501,Escambia County,FL,NA,NA,74.04351087771943,92.02453987730061
32514,Escambia County,FL,NA,NA,NA,50.715746421267895
32531,Okaloosa County,FL,NA,NA,62.7906976744186,NA
32534,Escambia County,FL,NA,36.856617647058826,NA,NA
32541,Okaloosa County,FL,NA,99.35661764705883,NA,NA
32561,Santa Rosa County,FL,NA,79.59558823529412,66.61665416354089,NA
32563,Santa Rosa County,FL,24.4,NA,NA,24.539877300613497
32566,Santa Rosa County,FL,NA,NA,16.35408852213053,NA
32569,Okaloosa County,FL,NA,79.31985294117648,NA,NA
32605,Alachua County,FL,NA,91.54411764705883,NA,NA
32606,Alachua County,FL,NA,28.03308823529412,NA,NA
32608,Alachua County,FL,NA,6.893382352941177,11.02775693923481,NA
32609,Alachua County,FL,NA,44.48529411764706,NA,63.190184049079754
32615,Alachua County,FL,NA,NA,43.060765191297826,NA
32640,Putnam County,FL,NA,98.06985294117648,NA,NA
32643,Alachua County,FL,NA,69.76102941176471,NA,NA
32653,Alachua County,FL,NA,97.70220588235294,97.74943735933984,NA
32696,Levy County,FL,44.800000000000004,NA,NA,NA
32751,Orange County,FL,90,NA,NA,NA
32779,Seminole County,FL,NA,NA,28.057014253563388,NA
32780,Brevard County,FL,NA,32.62867647058824,11.552888222055515,NA
32818,Orange County,FL,NA,NA,92.42310577644412,NA
32836,Orange County,FL,NA,NA,97.22430607651913,NA
32839,Orange County,FL,NA,NA,27.53188297074269,NA
32905,Brevard County,FL,NA,NA,32.483120780195044,NA
32920,Brevard County,FL,NA,NA,81.3953488372093,NA
32926,Brevard County,FL,NA,63.78676470588235,NA,NA
32927,Brevard County,FL,NA,NA,64.81620405101275,NA
32953,Brevard County,FL,NA,50.091911764705884,NA,NA
32976,Brevard County,FL,NA,NA,87.47186796699175,NA
33012,Miami-Dade County,FL,NA,NA,90.99774943735935,NA
33036,Monroe County,FL,NA,NA,79.66991747936984,NA
33037,Monroe County,FL,NA,NA,57.61440360090022,NA
33133,Miami-Dade County,FL,NA,NA,27.906976744186046,NA
33142,Miami-Dade County,FL,NA,43.106617647058826,NA,NA
33155,Miami-Dade County,FL,NA,NA,22.43060765191298,NA
33174,Miami-Dade County,FL,NA,NA,55.43885971492873,NA
33193,Miami-Dade County,FL,NA,NA,39.6099024756189,NA
33301,Broward County,FL,NA,NA,53.86346586646662,NA
33304,Broward County,FL,NA,68.84191176470588,NA,NA
33321,Broward County,FL,NA,NA,NA,5.725971370143149
33334,Broward County,FL,NA,NA,NA,60.122699386503065
33411,Palm Beach County,FL,NA,NA,14.778694673668417,NA
33432,Palm Beach County,FL,NA,NA,31.957989497374346,25.766871165644172
33437,Palm Beach County,FL,NA,70.68014705882352,NA,NA
33440,Hendry County,FL,NA,NA,NA,61.34969325153374
33455,Martin County,FL,NA,NA,NA,12.474437627811861
33470,Palm Beach County,FL,NA,NA,67.59189797449362,NA
33496,Palm Beach County,FL,NA,NA,NA,8.1799591002045
33606,Hillsborough County,FL,NA,NA,65.71642910727682,NA
33612,Hillsborough County,FL,NA,9.007352941176471,NA,NA
33881,Polk County,FL,NA,NA,NA,13.905930470347649
33897,Polk County,FL,82.39999999999999,NA,NA,NA
33908,Lee County,FL,NA,51.01102941176471,3.675918979744936,NA
33917,Lee County,FL,NA,NA,12.903225806451612,NA
33971,Lee County,FL,NA,48.25367647058824,NA,NA
33972,Lee County,FL,NA,87.13235294117648,NA,NA
34112,Collier County,FL,NA,NA,NA,19.018404907975462
34119,Collier County,FL,NA,NA,47.86196549137284,NA
34135,Lee County,FL,NA,NA,9.977494373593398,NA
34211,Manatee County,FL,NA,NA,66.99174793698425,NA
34223,Sarasota County,FL,NA,NA,40.36009002250563,NA
34236,Sarasota County,FL,NA,98.52941176470588,NA,NA
34238,Sarasota County,FL,NA,NA,26.85671417854464,NA
34266,DeSoto County,FL,NA,NA,66.24156039009752,NA
34275,Sarasota County,FL,NA,66.91176470588235,NA,NA
34285,Sarasota County,FL,NA,NA,69.46736684171043,NA
34287,Sarasota County,FL,NA,NA,21.155288822205552,NA
34465,Citrus County,FL,NA,84.00735294117648,NA,NA
34479,Marion County,FL,NA,77.29779411764706,NA,NA
34639,Pasco County,FL,64,NA,NA,NA
34688,Pinellas County,FL,NA,90.80882352941177,NA,NA
34746,Osceola County,FL,NA,NA,78.46961740435108,NA
34758,Osceola County,FL,NA,NA,NA,51.94274028629857
34949,St. Lucie County,FL,NA,NA,NA,60.73619631901841
34983,St. Lucie County,FL,NA,NA,NA,54.805725971370144
30004,Fulton County,GA,NA,34.375,NA,NA
30022,Fulton County,GA,NA,NA,77.19429857464365,NA
30028,Forsyth County,GA,NA,49.908088235294116,NA,NA
30030,DeKalb County,GA,NA,NA,43.960990247561895,81.39059304703477
30032,DeKalb County,GA,NA,34.00735294117647,49.81245311327832,NA
30034,DeKalb County,GA,NA,NA,44.711177794448616,NA
30035,DeKalb County,GA,NA,NA,31.807951987997,NA
30040,Forsyth County,GA,6.800000000000001,NA,NA,NA
30043,Gwinnett County,GA,NA,17.738970588235293,9.00225056264066,NA
30045,Gwinnett County,GA,NA,NA,NA,90.1840490797546
30062,Cobb County,GA,NA,64.98161764705883,NA,NA
30068,Cobb County,GA,44.4,NA,NA,NA
30075,Fulton County,GA,16,31.25,13.50337584396099,NA
30083,DeKalb County,GA,NA,21.231617647058822,NA,NA
30094,Rockdale County,GA,NA,39.154411764705884,NA,NA
30096,Gwinnett County,GA,NA,21.139705882352942,NA,NA
30097,Fulton County,GA,33.6,NA,NA,NA
30126,Cobb County,GA,32.800000000000004,NA,NA,NA
30134,Douglas County,GA,NA,19.209558823529413,NA,NA
30141,Paulding County,GA,NA,58.08823529411765,NA,NA
30157,Paulding County,GA,NA,NA,19.05476369092273,NA
30161,Floyd County,GA,NA,NA,42.160540135033756,NA
30213,Fulton County,GA,NA,45.77205882352941,NA,NA
30233,Butts County,GA,NA,NA,36.60915228807202,NA
30241,Troup County,GA,NA,22.058823529411764,NA,NA
30248,Henry County,GA,NA,NA,46.3615903975994,NA
30253,Henry County,GA,45.2,NA,NA,NA
30259,Coweta County,GA,NA,98.89705882352942,NA,NA
30281,Henry County,GA,NA,20.863970588235293,NA,NA
30291,Fulton County,GA,NA,NA,56.039009752438105,NA
30305,Fulton County,GA,NA,NA,60.39009752438109,NA
30311,Fulton County,GA,NA,NA,15.228807201800452,NA
30314,Fulton County,GA,NA,NA,64.4411102775694,NA
30315,Fulton County,GA,NA,NA,18.97974493623406,30.879345603271986
30345,DeKalb County,GA,NA,72.79411764705883,NA,NA
30401,Emanuel County,GA,NA,62.77573529411765,NA,NA
30439,Candler County,GA,NA,96.50735294117648,NA,NA
30474,Toombs County,GA,NA,74.26470588235294,NA,NA
30501,Hall County,GA,NA,56.341911764705884,NA,NA
30518,Gwinnett County,GA,NA,30.974264705882355,NA,NA
30523,Habersham County,GA,NA,NA,NA,49.897750511247445
30525,Rabun County,GA,92.80000000000001,NA,NA,NA
30542,Hall County,GA,NA,NA,60.31507876969242,NA
30560,Fannin County,GA,NA,NA,86.12153038259565,NA
30563,Habersham County,GA,NA,87.68382352941177,NA,NA
30629,Madison County,GA,NA,89.52205882352942,NA,NA
30680,Barrow County,GA,23.599999999999998,16.176470588235293,NA,NA
30735,Gordon County,GA,NA,69.94485294117648,NA,NA
30802,Columbia County,GA,NA,NA,79.36984246061516,NA
30901,Richmond County,GA,NA,NA,72.61815453863466,NA
30904,Richmond County,GA,NA,28.21691176470588,NA,NA
30907,Columbia County,GA,NA,NA,NA,26.380368098159508
31015,Crisp County,GA,NA,40.16544117647059,NA,NA
31093,Houston County,GA,NA,NA,NA,33.537832310838446
31204,Bibb County,GA,NA,26.286764705882355,NA,NA
31210,Bibb County,GA,NA,75.18382352941177,42.91072768192048,NA
31216,Bibb County,GA,NA,85.56985294117648,NA,NA
31322,Chatham County,GA,NA,96.69117647058823,NA,NA
31401,Chatham County,GA,NA,NA,97.82445611402851,NA
31405,Chatham County,GA,NA,NA,82.07051762940735,NA
31410,Chatham County,GA,NA,96.96691176470588,30.682670667666915,NA
31419,Chatham County,GA,NA,28.400735294117645,NA,NA
31520,Glynn County,GA,NA,NA,40.88522130532633,NA
31525,Glynn County,GA,NA,NA,77.04426106526631,NA
31535,Coffee County,GA,NA,73.06985294117648,NA,NA
31721,Dougherty County,GA,NA,NA,NA,54.396728016359916
31792,Thomas County,GA,NA,28.308823529411764,NA,NA
31904,Muscogee County,GA,NA,NA,58.664666166541636,NA
31907,Muscogee County,GA,NA,NA,68.41710427606901,NA
39845,Seminole County,GA,NA,NA,69.09227306826706,NA
96727,Hawaii County,HI,NA,96.32352941176471,NA,NA
96734,Honolulu County,HI,NA,NA,7.726931732933233,NA
96744,Honolulu County,HI,NA,15.900735294117647,1.72543135783946,NA
96813,Honolulu County,HI,NA,27.941176470588236,NA,NA
96815,Honolulu County,HI,NA,41.544117647058826,NA,NA
96818,Honolulu County,HI,NA,NA,NA,27.402862985685072
96822,Honolulu County,HI,NA,NA,13.42835708927232,NA
96826,Honolulu County,HI,NA,35.38602941176471,NA,NA
83202,Bannock County,ID,NA,NA,52.66316579144787,NA
83204,Bannock County,ID,NA,NA,NA,67.07566462167689
83301,Twin Falls County,ID,NA,NA,NA,0.6134969325153374
83455,Teton County,ID,NA,87.77573529411765,NA,NA
83467,Lemhi County,ID,NA,NA,96.7741935483871,NA
83642,Ada County,ID,NA,NA,4.951237809452363,NA
83646,Ada County,ID,NA,9.742647058823529,NA,NA
83651,Canyon County,ID,NA,NA,NA,13.701431492842536
83660,Canyon County,ID,NA,NA,NA,83.84458077709611
83686,Canyon County,ID,NA,89.43014705882352,NA,4.4989775051124745
83702,Ada County,ID,NA,NA,14.628657164291074,31.901840490797547
83704,Ada County,ID,NA,NA,31.357839459864966,93.66053169734151
83709,Ada County,ID,33.6,NA,NA,5.112474437627812
83815,Kootenai County,ID,NA,NA,12.753188297074269,NA
83843,Latah County,ID,45.6,87.22426470588235,NA,NA
83854,Kootenai County,ID,NA,27.02205882352941,NA,NA
60004,Cook County,IL,NA,NA,NA,8.793456032719837
60005,Cook County,IL,NA,NA,NA,80.16359918200409
60007,Cook County,IL,NA,NA,NA,24.74437627811861
60008,Cook County,IL,NA,NA,89.34733683420856,NA
60010,Lake County,IL,NA,31.801470588235293,53.11327831957989,NA
60014,McHenry County,IL,NA,NA,35.183795948987246,NA
60016,Cook County,IL,NA,48.161764705882355,NA,NA
60045,Lake County,IL,NA,NA,16.204051012753187,NA
60047,Lake County,IL,NA,NA,15.678919729932483,NA
60056,Cook County,IL,16.8,NA,NA,NA
60062,Cook County,IL,NA,NA,67.89197299324832,NA
60067,Cook County,IL,22.400000000000002,NA,NA,NA
60074,Cook County,IL,NA,NA,25.95648912228057,NA
60077,Cook County,IL,NA,NA,21.305326331582897,NA
60085,Lake County,IL,NA,NA,68.26706676669167,NA
60098,McHenry County,IL,NA,76.83823529411765,54.31357839459865,NA
60101,DuPage County,IL,37.2,21.875,15.678919729932483,NA
60104,Cook County,IL,NA,NA,19.204801200300075,NA
60110,Kane County,IL,NA,41.63602941176471,NA,NA
60120,Kane County,IL,NA,21.78308823529412,NA,NA
60123,Kane County,IL,NA,16.636029411764707,NA,NA
60130,Cook County,IL,NA,93.01470588235294,NA,NA
60133,Cook County,IL,NA,NA,35.8589647411853,NA
60142,McHenry County,IL,NA,NA,61.36534133533383,NA
60148,DuPage County,IL,NA,37.224264705882355,NA,NA
60154,Cook County,IL,NA,NA,47.18679669917479,NA
60160,Cook County,IL,NA,NA,92.12303075768942,36.19631901840491
60164,Cook County,IL,NA,NA,83.27081770442611,NA
60194,Cook County,IL,NA,NA,43.285821455363845,NA
60201,Cook County,IL,NA,NA,43.88597149287322,6.952965235173824
60302,Cook County,IL,NA,NA,9.452363090772693,NA
60403,Will County,IL,NA,NA,59.86496624156039,NA
60409,Cook County,IL,NA,NA,NA,29.038854805725972
60411,Cook County,IL,NA,NA,6.976744186046512,NA
60435,Will County,IL,NA,NA,6.676669167291823,NA
60439,Cook County,IL,NA,NA,38.33458364591148,NA
60440,Will County,IL,NA,15.625,NA,NA
60446,Will County,IL,NA,NA,58.06451612903226,NA
60450,Grundy County,IL,NA,NA,11.627906976744185,NA
60464,Cook County,IL,NA,NA,49.587396849212304,NA
60471,Cook County,IL,NA,NA,52.66316579144787,NA
60472,Cook County,IL,NA,87.77573529411765,NA,NA
60515,DuPage County,IL,NA,33.088235294117645,NA,22.699386503067483
60532,DuPage County,IL,NA,37.95955882352941,NA,NA
60543,Kendall County,IL,NA,29.871323529411764,NA,NA
60544,Will County,IL,40.8,NA,NA,NA
60546,Cook County,IL,NA,NA,74.34358589647412,NA
60607,Cook County,IL,NA,NA,33.758439609902474,NA
60608,Cook County,IL,43.2,NA,9.077269317329332,NA
60610,Cook County,IL,NA,35.75367647058824,NA,NA
60614,Cook County,IL,NA,NA,NA,12.269938650306749
60616,Cook County,IL,NA,NA,6.3765941485371345,NA
60619,Cook County,IL,NA,NA,NA,2.4539877300613497
60620,Cook County,IL,NA,6.61764705882353,17.029257314328582,NA
60623,Cook County,IL,NA,23.988970588235293,NA,NA
60624,Cook County,IL,NA,NA,NA,65.84867075664621
60625,Cook County,IL,NA,9.099264705882353,NA,NA
60626,Cook County,IL,NA,15.165441176470587,NA,NA
60629,Cook County,IL,NA,NA,19.579894973743436,NA
60634,Cook County,IL,NA,NA,NA,30.67484662576687
60638,Cook County,IL,11.600000000000001,NA,NA,NA
60639,Cook County,IL,NA,NA,25.806451612903224,NA
60641,Cook County,IL,NA,NA,10.652663165791449,75.86912065439672
60643,Cook County,IL,NA,NA,2.4006001500375094,29.65235173824131
60644,Cook County,IL,NA,NA,8.477119279819954,NA
60654,Cook County,IL,NA,80.05514705882352,NA,NA
60656,Cook County,IL,NA,41.268382352941174,NA,NA
60657,Cook County,IL,NA,NA,NA,18.200408997955012
60660,Cook County,IL,NA,NA,10.952738184546137,NA
60901,Kankakee County,IL,NA,NA,NA,9.611451942740286
60936,Ford County,IL,NA,NA,98.19954988747187,NA
60954,Kankakee County,IL,NA,NA,90.0225056264066,NA
61020,Ogle County,IL,NA,99.26470588235294,NA,NA
61021,Lee County,IL,NA,26.10294117647059,NA,NA
61032,Stephenson County,IL,NA,96.875,NA,NA
61068,Ogle County,IL,85.2,NA,NA,28.016359918200408
61072,Winnebago County,IL,NA,NA,78.84471117779445,NA
61088,Winnebago County,IL,NA,NA,84.24606151537884,NA
61107,Winnebago County,IL,NA,NA,53.71342835708928,NA
61108,Winnebago County,IL,NA,NA,18.154538634658664,NA
61201,Rock Island County,IL,NA,NA,21.905476369092273,NA
61254,Henry County,IL,NA,NA,94.37359339834958,NA
61265,Rock Island County,IL,NA,NA,NA,37.627811860940696
61341,LaSalle County,IL,NA,73.98897058823529,74.94373593398349,NA
61342,LaSalle County,IL,NA,NA,64.6661665416354,NA
61348,LaSalle County,IL,NA,NA,96.99924981245312,NA
61364,LaSalle County,IL,NA,47.24264705882353,69.5423855963991,NA
61401,Knox County,IL,NA,NA,51.012753188297076,NA
61443,Henry County,IL,NA,NA,NA,66.66666666666666
61550,Tazewell County,IL,NA,NA,80.27006751687922,NA
61604,Peoria County,IL,NA,NA,27.156789197299325,NA
61605,Peoria County,IL,NA,NA,NA,98.15950920245399
61615,Peoria County,IL,NA,NA,47.33683420855213,NA
61802,Champaign County,IL,NA,NA,22.20555138784696,NA
61832,Vermilion County,IL,NA,8.63970588235294,6.826706676669167,NA
61856,Piatt County,IL,NA,NA,36.459114778694676,NA
61866,Champaign County,IL,NA,34.19117647058824,NA,89.77505112474438
62033,Macoupin County,IL,NA,NA,69.91747936984247,NA
62095,Madison County,IL,NA,NA,NA,83.43558282208589
62205,St. Clair County,IL,NA,81.70955882352942,NA,NA
62206,St. Clair County,IL,NA,NA,56.78919729932483,NA
62234,Madison County,IL,NA,NA,31.207801950487625,NA
62243,St. Clair County,IL,NA,NA,NA,91.41104294478528
62278,Randolph County,IL,NA,NA,NA,91.61554192229039
62439,Lawrence County,IL,NA,NA,NA,89.36605316973414
62441,Clark County,IL,NA,NA,75.54388597149287,NA
62450,Richland County,IL,NA,NA,69.84246061515378,NA
62675,Menard County,IL,NA,NA,96.17404351087771,NA
62801,Marion County,IL,NA,69.48529411764706,NA,NA
62863,Wabash County,IL,NA,NA,83.64591147786948,NA
62864,Jefferson County,IL,NA,39.88970588235294,NA,NA
62896,Franklin County,IL,NA,NA,22.73068267066767,NA
62959,Williamson County,IL,NA,34.55882352941176,NA,NA
46016,Madison County,IN,NA,NA,21.75543885971493,NA
46032,Hamilton County,IN,NA,67.09558823529412,NA,NA
46036,Madison County,IN,NA,NA,40.88522130532633,NA
46038,Hamilton County,IN,NA,49.724264705882355,NA,NA
46062,Hamilton County,IN,NA,NA,56.71417854463616,NA
46064,Madison County,IN,NA,59.283088235294116,NA,NA
46069,Hamilton County,IN,NA,NA,81.47036759189797,NA
46074,Hamilton County,IN,NA,NA,90.09752438109527,NA
46120,Putnam County,IN,NA,NA,82.14553638409603,NA
46121,Putnam County,IN,NA,NA,99.92498124531133,NA
46140,Hancock County,IN,NA,NA,38.78469617404351,17.177914110429448
46142,Johnson County,IN,NA,35.9375,8.402100525131283,NA
46151,Morgan County,IN,NA,19.94485294117647,NA,NA
46158,Morgan County,IN,NA,NA,NA,20.858895705521473
46181,Johnson County,IN,NA,94.76102941176471,NA,NA
46204,Marion County,IN,NA,NA,79.06976744186046,NA
46218,Marion County,IN,NA,8.180147058823529,41.035258814703674,NA
46224,Marion County,IN,NA,NA,66.8417104276069,NA
46226,Marion County,IN,NA,NA,NA,67.48466257668711
46229,Marion County,IN,NA,NA,23.93098274568642,NA
46240,Marion County,IN,NA,NA,60.09002250562641,NA
46268,Marion County,IN,NA,65.90073529411765,NA,NA
46307,Lake County,IN,NA,NA,10.352588147036759,NA
46319,Lake County,IN,NA,51.10294117647059,NA,NA
46320,Lake County,IN,NA,NA,36.98424606151538,NA
46327,Lake County,IN,NA,53.49264705882353,NA,NA
46356,Lake County,IN,NA,54.595588235294116,NA,NA
46373,Lake County,IN,NA,24.172794117647058,NA,NA
46383,Porter County,IN,NA,NA,NA,36.400817995910025
46407,Lake County,IN,NA,NA,59.71492873218305,NA
46410,Lake County,IN,NA,6.341911764705882,NA,NA
46538,Kosciusko County,IN,NA,NA,NA,86.29856850715747
46706,DeKalb County,IN,NA,37.86764705882353,NA,NA
46721,DeKalb County,IN,NA,83.36397058823529,NA,NA
46723,Whitley County,IN,NA,NA,60.61515378844711,NA
46733,Adams County,IN,NA,NA,34.133533383345835,NA
46750,Huntington County,IN,NA,NA,19.129782445611404,NA
46755,Noble County,IN,NA,NA,57.91447861965492,NA
46809,Allen County,IN,NA,NA,57.314328582145535,NA
46818,Allen County,IN,NA,NA,32.78319579894974,NA
46901,Howard County,IN,NA,24.080882352941178,NA,NA
46952,Grant County,IN,NA,NA,23.1807951987997,NA
46953,Grant County,IN,NA,9.558823529411764,30.457614403600903,NA
47041,Ripley County,IN,NA,NA,95.19879969992499,NA
47043,Switzerland County,IN,97.2,NA,NA,NA
47102,Scott County,IN,NA,NA,66.76669167291823,NA
47203,Bartholomew County,IN,NA,NA,15.153788447111777,NA
47274,Jackson County,IN,46.400000000000006,NA,NA,NA
47302,Delaware County,IN,NA,58.63970588235294,NA,NA
47304,Delaware County,IN,NA,NA,NA,77.50511247443764
47331,Fayette County,IN,NA,NA,8.702175543885971,NA
47374,Wayne County,IN,NA,NA,NA,2.044989775051125
47421,Lawrence County,IN,NA,NA,12.603150787696924,NA
47460,Owen County,IN,NA,91.45220588235294,NA,NA
47501,Daviess County,IN,NA,NA,17.704426106526633,NA
47546,Dubois County,IN,NA,NA,NA,53.37423312883436
47567,Pike County,IN,NA,NA,94.5986496624156,NA
47711,Vanderburgh County,IN,NA,NA,19.654913728432106,NA
47834,Clay County,IN,NA,NA,36.68417104276069,NA
47872,Parke County,IN,NA,96.59926470588235,NA,NA
47918,Fountain County,IN,NA,NA,70.5926481620405,NA
50009,Polk County,IA,NA,91.72794117647058,NA,NA
50138,Marion County,IA,NA,44.48529411764706,NA,NA
50219,Marion County,IA,NA,77.94117647058823,NA,NA
50226,Polk County,IA,NA,NA,100,NA
50273,Madison County,IA,NA,81.34191176470588,NA,NA
50315,Polk County,IA,NA,NA,45.91147786946736,NA
50320,Polk County,IA,NA,NA,93.84846211552889,NA
50401,Cerro Gordo County,IA,NA,NA,6.0765191297824455,NA
50501,Webster County,IA,NA,NA,NA,25.153374233128833
50548,Humboldt County,IA,NA,NA,NA,87.73006134969326
50613,Black Hawk County,IA,NA,42.463235294117645,32.18304576144036,NA
50616,Floyd County,IA,NA,NA,NA,33.74233128834356
50677,Bremer County,IA,NA,NA,95.34883720930233,NA
50701,Black Hawk County,IA,NA,84.92647058823529,18.30457614403601,NA
50702,Black Hawk County,IA,NA,NA,64.89122280570142,NA
50703,Black Hawk County,IA,NA,52.57352941176471,78.31957989497374,NA
51106,Woodbury County,IA,35.199999999999996,NA,NA,NA
51301,Clay County,IA,NA,43.93382352941176,NA,NA
51351,Dickinson County,IA,NA,NA,64.14103525881471,NA
51360,Dickinson County,IA,NA,NA,NA,41.104294478527606
51501,Pottawattamie County,IA,38,NA,NA,NA
51503,Pottawattamie County,IA,NA,7.536764705882352,2.77569392348087,NA
51576,Pottawattamie County,IA,NA,96.04779411764706,NA,NA
52003,Dubuque County,IA,NA,78.49264705882352,NA,NA
52060,Jackson County,IA,NA,NA,72.91822955738935,NA
52101,Winneshiek County,IA,NA,NA,76.44411102775695,NA
52172,Allamakee County,IA,NA,NA,NA,85.48057259713701
52240,Johnson County,IA,NA,82.99632352941177,NA,NA
52241,Johnson County,IA,NA,38.786764705882355,NA,NA
52302,Linn County,IA,NA,16.636029411764707,NA,NA
52353,Washington County,IA,NA,84.19117647058823,NA,NA
52403,Linn County,IA,75.2,NA,NA,NA
52404,Linn County,IA,NA,NA,37.88447111777945,NA
52577,Mahaska County,IA,NA,NA,30.15753938484621,NA
52722,Scott County,IA,NA,NA,NA,23.108384458077712
52732,Clinton County,IA,NA,17.09558823529412,19.954988747186796,NA
52802,Scott County,IA,NA,NA,95.72393098274569,NA
52804,Scott County,IA,NA,39.338235294117645,80.79519879969993,NA
52806,Scott County,IA,NA,NA,81.02025506376594,NA
66007,Leavenworth County,KS,NA,85.75367647058823,NA,NA
66030,Johnson County,KS,NA,NA,71.7179294823706,NA
66053,Miami County,KS,NA,NA,89.72243060765192,NA
66061,Johnson County,KS,43.6,75.82720588235294,NA,NA
66062,Johnson County,KS,10.4,NA,80.12003000750187,NA
66067,Franklin County,KS,NA,NA,NA,64.62167689161554
66092,Franklin County,KS,88.4,NA,NA,NA
66112,Wyandotte County,KS,NA,77.11397058823529,NA,NA
66204,Johnson County,KS,NA,NA,NA,52.3517382413088
66207,Johnson County,KS,NA,90.71691176470588,62.41560390097525,NA
66213,Johnson County,KS,NA,NA,NA,48.466257668711656
66221,Johnson County,KS,NA,NA,85.67141785446361,NA
66226,Johnson County,KS,56.00000000000001,74.72426470588235,NA,NA
66434,Brown County,KS,NA,90.90073529411765,NA,NA
66436,Jackson County,KS,NA,84.46691176470588,NA,NA
66604,Shawnee County,KS,NA,NA,60.54013503375843,NA
66901,Cloud County,KS,NA,NA,NA,69.52965235173824
67042,Butler County,KS,NA,75.36764705882352,48.38709677419355,NA
67456,McPherson County,KS,NA,NA,83.72093023255815,NA
67601,Ellis County,KS,29.2,NA,85.4463615903976,NA
67654,Norton County,KS,NA,NA,96.54913728432109,NA
67735,Sherman County,KS,68.4,NA,NA,NA
67846,Finney County,KS,NA,17.27941176470588,NA,NA
67901,Seward County,KS,NA,NA,93.54838709677419,NA
40047,Bullitt County,KY,NA,NA,39.83495873968492,NA
40108,Meade County,KY,67.60000000000001,NA,NA,NA
40219,Jefferson County,KY,NA,10.386029411764707,NA,NA
40229,Jefferson County,KY,NA,NA,41.26031507876969,NA
40241,Jefferson County,KY,NA,NA,28.507126781695426,NA
40245,Jefferson County,KY,NA,40.99264705882353,NA,NA
40291,Jefferson County,KY,NA,NA,12.228057014253563,NA
40324,Scott County,KY,NA,10.9375,16.27906976744186,NA
40351,Rowan County,KY,NA,62.95955882352941,NA,NA
40403,Madison County,KY,NA,NA,28.80720180045011,NA
40444,Garrard County,KY,55.60000000000001,NA,81.17029257314329,NA
40504,Fayette County,KY,23.200000000000003,NA,NA,NA
40505,Fayette County,KY,NA,NA,53.03825956489122,NA
40508,Fayette County,KY,NA,57.07720588235294,NA,NA
40517,Fayette County,KY,NA,16.544117647058822,29.257314328582147,NA
40741,Laurel County,KY,NA,17.463235294117645,NA,NA
40823,Harlan County,KY,NA,NA,88.82220555138784,NA
40831,Harlan County,KY,78.4,NA,NA,NA
41017,Kenton County,KY,18.4,NA,NA,NA
41042,Boone County,KY,NA,5.422794117647059,NA,NA
41071,Campbell County,KY,73.2,NA,79.96999249812453,NA
41101,Boyd County,KY,NA,14.246323529411764,59.03975993998499,NA
41102,Boyd County,KY,NA,NA,12.828207051762941,NA
41139,Greenup County,KY,NA,NA,43.6609152288072,NA
41230,Lawrence County,KY,NA,49.908088235294116,NA,NA
41501,Pike County,KY,NA,32.26102941176471,NA,NA
41701,Perry County,KY,NA,NA,NA,73.61963190184049
42001,McCracken County,KY,NA,76.28676470588235,NA,NA
42003,McCracken County,KY,NA,NA,10.427606901725431,NA
42066,Graves County,KY,NA,17.830882352941178,41.710427606901725,NA
42071,Calloway County,KY,65.2,NA,NA,NA
42141,Barren County,KY,NA,9.926470588235293,NA,NA
42167,Monroe County,KY,NA,76.74632352941177,NA,NA
42240,Christian County,KY,NA,NA,73.21830457614404,NA
42262,Christian County,KY,NA,85.9375,NA,NA
42303,Daviess County,KY,NA,8.272058823529411,NA,NA
42345,Muhlenberg County,KY,NA,NA,51.087771942985746,NA
42420,Henderson County,KY,NA,NA,32.40810202550637,NA
42445,Caldwell County,KY,NA,NA,90.92273068267068,NA
42544,Pulaski County,KY,NA,NA,65.19129782445611,NA
42642,Russell County,KY,NA,NA,77.41935483870968,NA
42701,Hardin County,KY,NA,NA,NA,7.361963190184049
42718,Taylor County,KY,NA,NA,27.981995498874717,NA
42721,Grayson County,KY,NA,79.41176470588235,NA,NA
42754,Grayson County,KY,NA,51.93014705882353,NA,35.58282208588957
70001,Jefferson Parish,LA,NA,NA,NA,10.020449897750511
70005,Jefferson Parish,LA,NA,57.16911764705882,NA,NA
70037,Plaquemines Parish,LA,NA,NA,NA,72.39263803680981
70068,St. John the Baptist Parish,LA,NA,8.363970588235293,NA,NA
70072,Jefferson Parish,LA,NA,NA,1.8004501125281318,6.5439672801636
70084,St. John the Baptist Parish,LA,NA,NA,61.14028507126782,NA
70119,Orleans Parish,LA,NA,18.014705882352942,NA,NA
70121,Jefferson Parish,LA,NA,NA,44.93623405851463,NA
70127,Orleans Parish,LA,NA,6.8014705882352935,NA,NA
70128,Orleans Parish,LA,NA,NA,22.58064516129032,NA
70131,Orleans Parish,LA,NA,11.76470588235294,NA,NA
70301,Lafourche Parish,LA,NA,2.5735294117647056,NA,NA
70345,Lafourche Parish,LA,NA,39.52205882352941,NA,NA
70346,Ascension Parish,LA,NA,66.91176470588235,NA,NA
70373,Lafourche Parish,LA,NA,79.96323529411765,NA,NA
70401,Tangipahoa Parish,LA,28.000000000000004,NA,NA,NA
70422,Tangipahoa Parish,LA,NA,19.577205882352942,NA,NA
70427,Washington Parish,LA,NA,12.775735294117647,NA,NA
70438,Washington Parish,LA,NA,NA,9.227306826706677,NA
70444,Tangipahoa Parish,LA,28.4,NA,91.29782445611403,NA
70520,Lafayette Parish,LA,NA,63.87867647058824,NA,NA
70560,Iberia Parish,LA,NA,NA,8.552138034508626,71.37014314928425
70563,Iberia Parish,LA,NA,NA,NA,87.11656441717791
70578,Acadia Parish,LA,NA,NA,61.81545386346586,NA
70726,Livingston Parish,LA,NA,NA,NA,20.449897750511248
70754,Livingston Parish,LA,NA,NA,92.94823705926481,NA
70775,West Feliciana Parish,LA,49.2,NA,NA,NA
70802,East Baton Rouge Parish,LA,NA,5.790441176470589,NA,NA
70812,East Baton Rouge Parish,LA,NA,NA,87.3218304576144,NA
70816,East Baton Rouge Parish,LA,NA,NA,23.705926481620406,NA
70817,East Baton Rouge Parish,LA,NA,NA,NA,44.785276073619634
71006,Bossier Parish,LA,31.2,NA,NA,NA
71037,Bossier Parish,LA,NA,14.430147058823529,NA,NA
71047,Caddo Parish,LA,NA,NA,86.72168042010503,NA
71078,De Soto Parish,LA,NA,NA,99.32483120780195,NA
71105,Caddo Parish,LA,NA,NA,32.63315828957239,NA
71106,Caddo Parish,LA,NA,NA,NA,40.081799591002046
71220,Morehouse Parish,LA,NA,NA,30.457614403600903,NA
71232,Richland Parish,LA,55.2,NA,NA,NA
71301,Rapides Parish,LA,NA,53.95220588235294,24.306076519129782,NA
03908,York County,ME,NA,NA,42.460615153788446,NA
04005,York County,ME,NA,12.959558823529413,NA,NA
04011,Cumberland County,ME,NA,44.94485294117647,47.7119279819955,NA
04064,York County,ME,NA,65.53308823529412,NA,NA
04074,Cumberland County,ME,NA,NA,42.23555888972243,NA
04084,Cumberland County,ME,NA,62.31617647058824,NA,NA
04093,York County,ME,NA,90.44117647058823,NA,NA
04103,Cumberland County,ME,50.4,NA,NA,NA
04210,Androscoggin County,ME,NA,14.79779411764706,NA,NA
04257,Oxford County,ME,NA,NA,99.84996249062266,NA
04401,Penobscot County,ME,NA,11.488970588235293,NA,NA
04426,Piscataquis County,ME,NA,93.75,88.6721680420105,NA
04444,Penobscot County,ME,NA,NA,51.237809452363095,NA
04605,Hancock County,ME,NA,36.67279411764706,NA,NA
04736,Aroostook County,ME,NA,NA,76.06901725431358,NA
04841,Knox County,ME,NA,NA,34.658664666166544,NA
04901,Kennebec County,ME,NA,5.147058823529411,NA,NA
04963,Kennebec County,ME,NA,91.63602941176471,NA,NA
04976,Somerset County,ME,NA,13.143382352941178,NA,NA
20616,Charles County,MD,NA,97.15073529411765,NA,NA
20678,Calvert County,MD,NA,81.43382352941177,NA,NA
20746,Prince George's County,MD,NA,NA,78.1695423855964,NA
20769,Prince George's County,MD,NA,NA,93.32333083270818,NA
20782,Prince George's County,MD,NA,NA,55.06376594148538,NA
20784,Prince George's County,MD,NA,78.76838235294117,NA,NA
20817,Montgomery County,MD,NA,68.10661764705883,NA,NA
21032,Anne Arundel County,MD,NA,NA,78.76969242310578,NA
21093,Baltimore County,MD,NA,87.22426470588235,NA,NA
21114,Anne Arundel County,MD,NA,55.14705882352941,NA,NA
21122,Anne Arundel County,MD,NA,NA,33.158289572393095,NA
21152,Baltimore County,MD,95.6,NA,NA,NA
21205,Baltimore city,MD,NA,NA,90.69767441860465,NA
21209,Baltimore County,MD,NA,NA,74.34358589647412,NA
21211,Baltimore city,MD,NA,80.97426470588235,NA,NA
21212,Baltimore city,MD,NA,NA,NA,60.940695296523515
21214,Baltimore city,MD,NA,NA,NA,49.284253578732105
21215,Baltimore city,MD,NA,7.169117647058823,NA,NA
21218,Baltimore city,MD,NA,NA,30.75768942235559,NA
21220,Baltimore County,MD,NA,14.613970588235295,NA,NA
21222,Baltimore County,MD,NA,56.70955882352941,NA,NA
21224,Baltimore city,MD,NA,NA,25.206301575393848,NA
21229,Baltimore city,MD,NA,42.279411764705884,NA,NA
21401,Anne Arundel County,MD,NA,20.128676470588236,87.92198049512379,NA
21502,Allegany County,MD,NA,18.290441176470587,NA,NA
21842,Worcester County,MD,NA,78.86029411764706,NA,NA
21863,Worcester County,MD,NA,NA,85.07126781695425,NA
21875,Wicomico County,MD,NA,NA,88.59714928732183,NA
01001,Hampden County,MA,NA,79.22794117647058,NA,NA
01056,Hampden County,MA,NA,NA,25.731432858214554,NA
01060,Hampshire County,MA,NA,NA,94.97374343585896,NA
01104,Hampden County,MA,NA,NA,0.6001500375093773,NA
01235,Berkshire County,MA,NA,NA,97.89947486871718,NA
01240,Berkshire County,MA,NA,NA,49.362340585146285,NA
01420,Worcester County,MA,NA,3.2169117647058822,NA,NA
01440,Worcester County,MA,NA,50.55147058823529,NA,NA
01451,Worcester County,MA,NA,NA,74.79369842460615,NA
01453,Worcester County,MA,NA,NA,4.201050262565642,NA
01460,Middlesex County,MA,NA,NA,NA,80.3680981595092
01562,Worcester County,MA,NA,22.334558823529413,NA,NA
01569,Worcester County,MA,NA,29.411764705882355,NA,NA
01581,Worcester County,MA,NA,NA,38.85971492873218,NA
01588,Worcester County,MA,NA,75.64338235294117,NA,NA
01602,Worcester County,MA,NA,NA,14.628657164291074,NA
01604,Worcester County,MA,NA,NA,11.852963240810203,NA
01605,Worcester County,MA,NA,NA,15.453863465866466,NA
01606,Worcester County,MA,NA,NA,10.802700675168792,NA
01607,Worcester County,MA,NA,10.661764705882353,NA,NA
01701,Middlesex County,MA,NA,NA,NA,8.588957055214724
01702,Middlesex County,MA,NA,NA,3.5258814703675916,NA
01719,Middlesex County,MA,NA,95.40441176470588,NA,NA
01721,Middlesex County,MA,NA,NA,NA,52.760736196319016
01742,Middlesex County,MA,NA,70.95588235294117,81.24531132783196,NA
01746,Middlesex County,MA,NA,16.268382352941178,NA,NA
01757,Worcester County,MA,NA,25,NA,NA
01760,Middlesex County,MA,81.6,8.54779411764706,25.431357839459867,NA
01775,Middlesex County,MA,NA,NA,NA,92.43353783231085
01801,Middlesex County,MA,NA,7.720588235294118,NA,1.2269938650306749
01810,Essex County,MA,NA,NA,NA,78.11860940695297
01821,Middlesex County,MA,19.2,NA,10.05251312828207,NA
01826,Middlesex County,MA,NA,17.1875,1.6504126031507877,NA
01830,Essex County,MA,NA,1.8382352941176472,NA,NA
01832,Essex County,MA,NA,NA,92.64816204051013,NA
01835,Essex County,MA,NA,26.011029411764707,NA,NA
01841,Essex County,MA,NA,NA,0.22505626406601648,21.676891615541923
01844,Essex County,MA,NA,NA,2.0255063765941483,NA
01864,Middlesex County,MA,NA,40.716911764705884,NA,NA
01876,Middlesex County,MA,NA,NA,13.578394598649663,NA
01879,Middlesex County,MA,NA,NA,80.3450862715679,NA
01880,Middlesex County,MA,NA,6.4338235294117645,NA,NA
01886,Middlesex County,MA,NA,NA,53.33833458364591,NA
01887,Middlesex County,MA,NA,40.349264705882355,NA,NA
01902,Essex County,MA,NA,0.2757352941176471,NA,NA
01905,Essex County,MA,NA,68.01470588235294,NA,NA
01906,Essex County,MA,NA,NA,5.776444111027757,NA
01913,Essex County,MA,27.6,NA,NA,NA
01915,Essex County,MA,5.6000000000000005,NA,NA,NA
01921,Essex County,MA,NA,NA,91.3728432108027,NA
01945,Essex County,MA,NA,80.69852941176471,NA,NA
01952,Essex County,MA,NA,NA,NA,43.149284253578735
01960,Essex County,MA,NA,1.1029411764705883,NA,NA
01970,Essex County,MA,2.4,NA,NA,NA
01983,Essex County,MA,52.800000000000004,NA,68.64216054013504,NA
02019,Norfolk County,MA,NA,NA,26.481620405101275,NA
02026,Norfolk County,MA,NA,NA,10.577644411102776,NA
02054,Norfolk County,MA,NA,NA,80.64516129032258,NA
02056,Norfolk County,MA,NA,63.23529411764706,NA,NA
02062,Norfolk County,MA,NA,NA,7.876969242310578,NA
02066,Plymouth County,MA,NA,NA,31.732933233308323,NA
02067,Norfolk County,MA,NA,47.97794117647059,26.331582895723933,NA
02072,Norfolk County,MA,NA,NA,5.326331582895724,NA
02093,Norfolk County,MA,NA,47.61029411764706,NA,NA
02115,Suffolk County,MA,NA,5.974264705882353,NA,NA
02118,Suffolk County,MA,2,NA,NA,NA
02119,Suffolk County,MA,NA,0.09191176470588235,NA,NA
02121,Suffolk County,MA,NA,NA,0.3750937734433608,NA
02124,Suffolk County,MA,0,NA,NA,1.8404907975460123
02126,Suffolk County,MA,72,NA,NA,NA
02127,Suffolk County,MA,NA,NA,4.801200300075019,NA
02131,Suffolk County,MA,NA,1.9301470588235294,NA,NA
02135,Suffolk County,MA,NA,4.044117647058823,NA,1.6359918200409
02136,Suffolk County,MA,NA,NA,3.3008252063015755,43.76278118609407
02145,Middlesex County,MA,NA,4.8713235294117645,59.639909977494376,NA
02148,Middlesex County,MA,NA,0,NA,NA
02150,Suffolk County,MA,NA,NA,NA,5.316973415132924
02152,Suffolk County,MA,NA,10.294117647058822,NA,NA
02169,Norfolk County,MA,4.3999999999999995,0.5514705882352942,NA,NA
02170,Norfolk County,MA,NA,NA,5.701425356339085,NA
02171,Norfolk County,MA,NA,NA,39.53488372093023,NA
02184,Norfolk County,MA,NA,5.514705882352941,4.876219054763691,NA
02301,Plymouth County,MA,NA,NA,0.07501875468867217,NA
02324,Plymouth County,MA,NA,NA,63.465866466616646,NA
02347,Plymouth County,MA,NA,NA,76.8192048012003,NA
02356,Bristol County,MA,NA,NA,48.912228057014254,NA
02370,Plymouth County,MA,NA,NA,NA,44.580777096114524
02445,Norfolk County,MA,NA,21.323529411764707,NA,NA
02451,Middlesex County,MA,NA,19.669117647058822,NA,NA
02453,Middlesex County,MA,NA,NA,54.688672168042004,NA
02467,Norfolk County,MA,NA,90.34926470588235,83.19579894973744,NA
02472,Middlesex County,MA,NA,6.525735294117648,NA,NA
02474,Middlesex County,MA,NA,NA,17.62940735183796,NA
02476,Middlesex County,MA,NA,30.606617647058826,NA,NA
02481,Norfolk County,MA,NA,NA,NA,72.1881390593047
02493,Middlesex County,MA,NA,NA,79.66991747936984,NA
02539,Dukes County,MA,98,NA,NA,NA
02642,Barnstable County,MA,NA,NA,NA,70.14314928425358
02664,Barnstable County,MA,56.00000000000001,NA,NA,NA
02703,Bristol County,MA,NA,41.81985294117647,NA,NA
02719,Bristol County,MA,NA,91.36029411764706,NA,NA
02721,Bristol County,MA,NA,4.227941176470589,NA,NA
02779,Bristol County,MA,NA,85.11029411764706,55.5138784696174,NA
02780,Bristol County,MA,NA,NA,NA,11.451942740286299
48038,Macomb County,MI,NA,NA,NA,4.703476482617587
48042,Macomb County,MI,NA,NA,19.80495123780945,NA
48047,Macomb County,MI,NA,NA,9.602400600150037,NA
48054,St. Clair County,MI,NA,NA,55.88897224306076,NA
48067,Oakland County,MI,NA,29.871323529411764,30.00750187546887,NA
48073,Oakland County,MI,NA,23.621323529411764,NA,NA
48080,Macomb County,MI,NA,NA,NA,24.335378323108383
48081,Macomb County,MI,NA,NA,NA,14.92842535787321
48085,Oakland County,MI,NA,NA,20.4801200300075,NA
48093,Macomb County,MI,NA,15.257352941176471,NA,NA
48101,Wayne County,MI,NA,46.966911764705884,NA,NA
48103,Washtenaw County,MI,NA,NA,22.88072018004501,NA
48104,Washtenaw County,MI,NA,90.07352941176471,NA,NA
48111,Wayne County,MI,NA,NA,3.975993998499625,NA
48117,Monroe County,MI,NA,NA,52.88822205551388,NA
48150,Wayne County,MI,NA,51.37867647058824,NA,NA
48161,Monroe County,MI,57.199999999999996,NA,NA,NA
48169,Livingston County,MI,NA,39.61397058823529,NA,NA
48176,Washtenaw County,MI,NA,33.27205882352941,18.00450112528132,NA
48180,Wayne County,MI,NA,2.849264705882353,NA,NA
48185,Wayne County,MI,NA,20.22058823529412,NA,NA
48186,Wayne County,MI,NA,20.955882352941178,8.102025506376593,NA
48187,Wayne County,MI,29.599999999999998,NA,1.350337584396099,NA
48188,Wayne County,MI,NA,NA,NA,74.43762781186093
48197,Washtenaw County,MI,NA,12.040441176470589,NA,NA
48198,Washtenaw County,MI,NA,2.7573529411764706,33.23330832708177,NA
48201,Wayne County,MI,NA,31.433823529411764,42.685671417854465,NA
48202,Wayne County,MI,NA,24.264705882352942,NA,NA
48219,Wayne County,MI,NA,18.38235294117647,NA,NA
48225,Wayne County,MI,NA,NA,50.412603150787696,NA
48238,Wayne County,MI,NA,NA,NA,27.402862985685072
48239,Wayne County,MI,NA,7.352941176470589,NA,NA
48309,Oakland County,MI,38.4,NA,NA,NA
48310,Macomb County,MI,NA,13.051470588235295,NA,NA
48324,Oakland County,MI,NA,NA,41.335333833458364,NA
48327,Oakland County,MI,NA,NA,29.03225806451613,NA
48336,Oakland County,MI,NA,26.65441176470588,28.732183045761438,NA
48346,Oakland County,MI,NA,73.25367647058823,NA,NA
48382,Oakland County,MI,NA,NA,25.056264066016503,NA
48393,Oakland County,MI,NA,NA,NA,68.30265848670757
48415,Saginaw County,MI,82,NA,NA,NA
48420,Genesee County,MI,NA,NA,75.7689422355589,NA
48441,Huron County,MI,NA,NA,88.07201800450113,NA
48455,Lapeer County,MI,NA,NA,59.11477869467367,NA
48473,Genesee County,MI,74,NA,NA,NA
48505,Genesee County,MI,NA,NA,38.70967741935484,NA
48529,Genesee County,MI,NA,NA,94.52363090772693,NA
48601,Saginaw County,MI,NA,2.297794117647059,NA,NA
48602,Saginaw County,MI,NA,3.5845588235294117,7.576894223555889,NA
48603,Saginaw County,MI,NA,NA,NA,9.815950920245399
48609,Saginaw County,MI,NA,NA,48.087021755438855,NA
48611,Bay County,MI,NA,NA,NA,61.963190184049076
48616,Saginaw County,MI,NA,NA,65.7914478619655,54.19222903885481
48626,Saginaw County,MI,93.60000000000001,NA,92.57314328582146,NA
48640,Midland County,MI,NA,NA,54.23855963990998,NA
48642,Midland County,MI,78.8,NA,4.576144036009002,NA
48650,Bay County,MI,NA,95.3125,NA,NA
48655,Saginaw County,MI,NA,55.79044117647059,NA,NA
48658,Arenac County,MI,30.8,NA,NA,NA
48661,Ogemaw County,MI,NA,NA,38.55963990997749,NA
48706,Bay County,MI,NA,24.356617647058822,9.902475618904726,20.040899795501023
48708,Bay County,MI,NA,NA,43.51087771942986,NA
48723,Tuscola County,MI,NA,NA,63.76594148537135,NA
48732,Bay County,MI,39.2,NA,34.508627156789196,NA
48734,Saginaw County,MI,NA,86.21323529411765,63.16579144786196,NA
48757,Tuscola County,MI,NA,93.10661764705883,NA,NA
48759,Huron County,MI,NA,84.09926470588235,NA,NA
48813,Eaton County,MI,NA,31.066176470588236,NA,NA
48823,Ingham County,MI,NA,NA,19.879969992498125,NA
48836,Livingston County,MI,NA,NA,38.18454613653413,NA
48846,Ionia County,MI,NA,NA,35.25881470367592,NA
48855,Livingston County,MI,NA,80.97426470588235,NA,NA
48893,Isabella County,MI,NA,NA,NA,75.05112474437627
48911,Ingham County,MI,NA,22.426470588235293,NA,NA
48917,Eaton County,MI,NA,46.13970588235294,5.326331582895724,NA
49001,Kalamazoo County,MI,NA,NA,NA,50.511247443762784
49002,Kalamazoo County,MI,53.2,NA,NA,NA
49004,Kalamazoo County,MI,NA,85.01838235294117,NA,NA
49006,Kalamazoo County,MI,NA,42.73897058823529,NA,NA
49009,Kalamazoo County,MI,NA,80.88235294117648,26.106526631657918,12.883435582822086
49013,Van Buren County,MI,NA,79.13602941176471,NA,NA
49014,Calhoun County,MI,NA,NA,91.44786196549137,NA
49017,Calhoun County,MI,NA,NA,NA,51.32924335378323
49021,Eaton County,MI,NA,NA,82.37059264816205,NA
49024,Kalamazoo County,MI,51.2,NA,88.9722430607652,NA
49036,Branch County,MI,NA,NA,17.329332333083272,NA
49037,Calhoun County,MI,NA,37.224264705882355,90.24756189047261,NA
49038,Berrien County,MI,NA,NA,93.09827456864215,NA
49046,Barry County,MI,NA,NA,43.81095273818455,NA
49047,Cass County,MI,NA,NA,87.02175543885971,NA
49048,Kalamazoo County,MI,NA,NA,51.91297824456114,58.077709611451944
49079,Van Buren County,MI,NA,NA,77.79444861215303,NA
49085,Berrien County,MI,NA,NA,29.857464366091524,NA
49090,Van Buren County,MI,NA,48.713235294117645,28.507126781695426,NA
49093,St. Joseph County,MI,NA,NA,56.939234808702174,NA
49097,Kalamazoo County,MI,NA,94.30147058823529,57.83945986496624,NA
49098,Berrien County,MI,NA,89.98161764705883,88.44711177794449,76.48261758691206
49127,Berrien County,MI,NA,84.375,NA,NA
49201,Jackson County,MI,NA,45.220588235294116,3.150787696924231,NA
49221,Lenawee County,MI,NA,NA,NA,7.566462167689162
49240,Jackson County,MI,71.2,NA,NA,NA
49265,Lenawee County,MI,NA,NA,77.11927981995498,NA
49270,Monroe County,MI,83.6,NA,NA,NA
49315,Kent County,MI,NA,38.51102941176471,NA,NA
49319,Kent County,MI,NA,53.30882352941176,NA,68.50715746421268
49323,Allegan County,MI,NA,86.39705882352942,NA,NA
49331,Kent County,MI,NA,NA,75.61890472618154,NA
49337,Newaygo County,MI,NA,NA,NA,96.93251533742331
49345,Kent County,MI,NA,NA,71.19279819954988,NA
49349,Newaygo County,MI,NA,NA,90.77269317329333,NA
49401,Ottawa County,MI,NA,49.17279411764706,NA,NA
49412,Newaygo County,MI,NA,55.69852941176471,NA,NA
49417,Ottawa County,MI,NA,NA,3.8259564891222806,NA
49418,Kent County,MI,NA,NA,65.56639159789948,NA
49441,Muskegon County,MI,15.6,NA,NA,NA
49444,Muskegon County,MI,NA,29.31985294117647,NA,NA
49445,Muskegon County,MI,NA,NA,14.253563390847713,NA
49457,Muskegon County,MI,NA,NA,58.96474118529632,NA
49505,Kent County,MI,NA,18.106617647058822,NA,NA
49507,Kent County,MI,NA,NA,63.01575393848462,34.355828220858896
49508,Kent County,MI,NA,5.606617647058823,NA,NA
49534,Kent County,MI,48.4,NA,NA,NA
49548,Kent County,MI,NA,6.709558823529411,NA,NA
49631,Osceola County,MI,NA,NA,51.98799699924981,NA
49690,Grand Traverse County,MI,NA,NA,NA,63.394683026584865
49779,Presque Isle County,MI,NA,90.625,NA,NA
49788,Chippewa County,MI,NA,98.34558823529412,NA,NA
49829,Delta County,MI,NA,27.481617647058826,NA,NA
49837,Delta County,MI,NA,44.76102941176471,NA,NA
49858,Menominee County,MI,83.2,NA,NA,NA
49916,Houghton County,MI,NA,NA,96.39909977494374,NA
49920,Iron County,MI,86.4,NA,NA,NA
49930,Houghton County,MI,86,NA,81.92048012003,NA
49931,Houghton County,MI,NA,NA,NA,59.50920245398773
55016,Washington County,MN,7.199999999999999,NA,NA,NA
55024,Dakota County,MN,NA,42.92279411764706,NA,NA
55033,Dakota County,MN,77.60000000000001,24.448529411764707,NA,NA
55063,Pine County,MN,NA,NA,77.64441110277569,NA
55106,Ramsey County,MN,NA,NA,18.529632408102024,NA
55301,Wright County,MN,NA,87.04044117647058,NA,NA
55303,Anoka County,MN,NA,NA,70.66766691672917,NA
55306,Dakota County,MN,NA,NA,55.81395348837209,NA
55318,Carver County,MN,NA,NA,NA,61.145194274028626
55336,McLeod County,MN,NA,79.50367647058823,NA,NA
55337,Dakota County,MN,NA,NA,16.804201050262566,NA
55343,Hennepin County,MN,NA,NA,NA,33.94683026584867
55362,Wright County,MN,NA,NA,70.96774193548387,NA
55371,Mille Lacs County,MN,NA,NA,89.12228057014254,NA
55378,Scott County,MN,92.4,NA,NA,NA
55391,Hennepin County,MN,58.4,NA,NA,NA
55404,Hennepin County,MN,NA,28.676470588235293,NA,NA
55405,Hennepin County,MN,NA,NA,33.23330832708177,NA
55407,Hennepin County,MN,NA,NA,3.900975243810953,NA
55412,Hennepin County,MN,NA,7.8125,NA,NA
55418,Hennepin County,MN,NA,21.691176470588236,NA,NA
55422,Hennepin County,MN,NA,NA,NA,37.21881390593047
55448,Anoka County,MN,NA,33.36397058823529,NA,NA
55454,Hennepin County,MN,NA,NA,96.2490622655664,NA
55733,Carlton County,MN,NA,NA,99.39984996249063,NA
55734,St. Louis County,MN,NA,66.54411764705883,NA,NA
55746,St. Louis County,MN,NA,NA,53.56339084771192,NA
55964,Wabasha County,MN,NA,92.73897058823529,NA,NA
55987,Winona County,MN,NA,NA,1.8754688672168043,NA
56007,Freeborn County,MN,NA,NA,5.026256564141035,NA
56081,Watonwan County,MN,NA,NA,NA,86.50306748466258
56087,Brown County,MN,NA,92.37132352941177,NA,NA
56093,Waseca County,MN,NA,NA,80.12003000750187,NA
56156,Rock County,MN,NA,NA,45.46136534133534,NA
56164,Pipestone County,MN,NA,NA,92.79819954988747,NA
56229,Lyon County,MN,98.8,NA,NA,NA
56308,Douglas County,MN,NA,NA,8.32708177044261,NA
56345,Morrison County,MN,NA,83.91544117647058,NA,NA
56362,Stearns County,MN,NA,77.38970588235294,NA,NA
56367,Benton County,MN,NA,NA,97.44936234058514,NA
56378,Stearns County,MN,NA,71.04779411764706,66.61665416354089,NA
56401,Crow Wing County,MN,NA,46.599264705882355,3.3758439609902475,NA
56425,Crow Wing County,MN,80.4,NA,NA,NA
56470,Hubbard County,MN,NA,NA,72.01800450112528,NA
56477,Wadena County,MN,NA,97.15073529411765,NA,NA
56482,Wadena County,MN,NA,41.17647058823529,NA,NA
56501,Becker County,MN,70.8,NA,NA,NA
56515,Otter Tail County,MN,NA,NA,78.39459864966241,NA
56537,Otter Tail County,MN,NA,74.44852941176471,NA,39.672801635991824
56542,Polk County,MN,NA,94.94485294117648,NA,NA
56544,Becker County,MN,NA,NA,98.57464366091523,NA
56560,Clay County,MN,1.2,34.099264705882355,2.700675168792198,1.0224948875255624
56601,Beltrami County,MN,42.8,NA,NA,1.4314928425357873
56649,Koochiching County,MN,NA,NA,71.49287321830458,NA
56701,Pennington County,MN,NA,15.257352941176471,NA,NA
56716,Polk County,MN,NA,25.36764705882353,58.214553638409605,NA
56763,Roseau County,MN,NA,NA,83.57089272318079,NA
38663,Tippah County,MS,NA,NA,NA,51.738241308793455
38748,Washington County,MS,NA,97.42647058823529,NA,NA
38843,Itawamba County,MS,NA,NA,58.289572393098275,NA
38916,Calhoun County,MS,NA,NA,NA,90.38854805725971
38930,Leflore County,MS,NA,61.67279411764706,NA,NA
39063,Holmes County,MS,NA,NA,99.54988747186798,NA
39117,Scott County,MS,44,NA,NA,NA
39194,Yazoo County,MS,NA,NA,NA,67.68916155419224
39206,Hinds County,MS,NA,NA,78.09452363090773,NA
39213,Hinds County,MS,NA,NA,67.44186046511628,NA
39301,Lauderdale County,MS,NA,NA,91.52288072018004,NA
39305,Lauderdale County,MS,57.99999999999999,80.23897058823529,39.00975243810953,NA
39339,Winston County,MS,NA,63.60294117647059,NA,NA
39452,George County,MS,26.8,NA,NA,NA
39503,Harrison County,MS,7.6,NA,NA,NA
39531,Harrison County,MS,NA,61.39705882352941,NA,NA
39563,Jackson County,MS,NA,41.911764705882355,NA,NA
39565,Jackson County,MS,NA,NA,58.364591147786946,NA
39571,Harrison County,MS,NA,NA,55.88897224306076,NA
39577,Stone County,MS,NA,96.78308823529412,NA,NA
39601,Lincoln County,MS,NA,66.72794117647058,NA,89.97955010224949
39629,Lincoln County,MS,NA,93.38235294117648,NA,NA
39652,Pike County,MS,NA,NA,NA,73.41513292433538
39702,Lowndes County,MS,NA,60.01838235294118,NA,NA
39773,Clay County,MS,NA,NA,NA,65.84867075664621
63011,St. Louis County,MO,77.2,NA,NA,NA
63021,St. Louis County,MO,NA,NA,7.201800450112527,30.265848670756647
63031,St. Louis County,MO,NA,NA,8.177044261065266,7.770961145194274
63042,St. Louis County,MO,NA,NA,NA,58.691206543967276
63077,Franklin County,MO,52.400000000000006,NA,NA,NA
63084,Franklin County,MO,NA,45.404411764705884,NA,NA
63108,St. Louis city,MO,NA,43.01470588235294,38.03450862715679,NA
63113,St. Louis city,MO,NA,54.6875,NA,NA
63128,St. Louis County,MO,NA,NA,15.528882220555138,NA
63135,St. Louis County,MO,NA,NA,51.46286571642911,NA
63136,St. Louis County,MO,NA,NA,6.601650412603151,NA
63138,St. Louis County,MO,NA,43.29044117647059,NA,NA
63141,St. Louis County,MO,NA,69.85294117647058,NA,NA
63147,St. Louis city,MO,NA,NA,NA,82.41308793456032
63304,St. Charles County,MO,NA,NA,85.82145536384095,NA
63366,St. Charles County,MO,NA,10.018382352941178,NA,NA
63368,St. Charles County,MO,NA,NA,15.378844711177795,NA
63376,St. Charles County,MO,NA,NA,NA,25.357873210633947
63628,St. Francois County,MO,NA,NA,NA,53.987730061349694
63645,Madison County,MO,NA,94.66911764705883,NA,NA
63701,Cape Girardeau County,MO,NA,NA,NA,47.85276073619632
63703,Cape Girardeau County,MO,58.8,NA,NA,NA
63775,Perry County,MO,NA,NA,NA,22.494887525562373
63834,Mississippi County,MO,NA,95.58823529411765,NA,NA
63841,Stoddard County,MO,NA,NA,NA,50.306748466257666
64012,Cass County,MO,NA,51.28676470588235,NA,NA
64015,Jackson County,MO,NA,10.753676470588236,NA,NA
64030,Jackson County,MO,NA,14.338235294117647,NA,NA
64040,Johnson County,MO,NA,72.24264705882352,NA,NA
64056,Jackson County,MO,NA,73.80514705882352,NA,NA
64060,Clay County,MO,18,NA,NA,NA
64068,Clay County,MO,0.8,NA,NA,NA
64075,Jackson County,MO,NA,35.20220588235294,NA,NA
64077,Ray County,MO,NA,98.4375,NA,NA
64081,Jackson County,MO,NA,NA,NA,32.515337423312886
64083,Cass County,MO,NA,29.77941176470588,NA,NA
64089,Clay County,MO,NA,44.393382352941174,NA,NA
64110,Jackson County,MO,NA,NA,26.03150787696924,NA
64118,Clay County,MO,NA,5.238970588235294,4.651162790697675,NA
64119,Clay County,MO,NA,48.529411764705884,NA,NA
64126,Jackson County,MO,NA,88.78676470588235,NA,NA
64134,Jackson County,MO,NA,10.569852941176471,NA,NA
64151,Platte County,MO,NA,25.551470588235293,11.327831957989497,NA
64154,Platte County,MO,NA,64.88970588235294,NA,NA
64155,Clay County,MO,NA,NA,62.71567891972993,NA
64156,Clay County,MO,NA,51.19485294117647,NA,NA
64468,Nodaway County,MO,NA,56.158088235294116,NA,NA
64503,Buchanan County,MO,NA,20.40441176470588,NA,NA
64506,Buchanan County,MO,8.4,NA,NA,NA
64683,Grundy County,MO,NA,NA,46.43660915228807,NA
64744,Cedar County,MO,NA,NA,68.79219804951238,NA
64772,Vernon County,MO,37.2,NA,37.65941485371343,NA
64801,Jasper County,MO,47.199999999999996,34.650735294117645,35.108777194298575,NA
64843,McDonald County,MO,NA,NA,97.52438109527381,NA
64850,Newton County,MO,NA,13.23529411764706,61.66541635408852,NA
64856,McDonald County,MO,NA,92.27941176470588,NA,NA
65020,Camden County,MO,NA,NA,NA,43.558282208588956
65049,Camden County,MO,91.2,NA,NA,NA
65202,Boone County,MO,NA,49.44852941176471,NA,NA
65203,Boone County,MO,NA,NA,7.4268567141785455,NA
65265,Audrain County,MO,NA,NA,NA,68.09815950920245
65301,Pettis County,MO,NA,3.952205882352941,5.476369092273068,NA
65340,Saline County,MO,NA,NA,73.51837959489872,NA
65355,Benton County,MO,NA,NA,13.80345086271568,31.492842535787318
65401,Phelps County,MO,NA,30.698529411764707,NA,79.55010224948876
65483,Texas County,MO,NA,NA,76.59414853713429,NA
65616,Taney County,MO,NA,NA,24.081020255063766,83.23108384458078
65706,Webster County,MO,74.4,NA,NA,NA
65738,Greene County,MO,NA,55.33088235294118,65.34133533383346,NA
65775,Howell County,MO,NA,55.42279411764706,NA,NA
65781,Greene County,MO,62,NA,NA,NA
65803,Greene County,MO,NA,NA,NA,18.813905930470348
59047,Park County,MT,NA,NA,94.22355588897224,NA
59101,Yellowstone County,MT,NA,NA,84.54613653413354,NA
59270,Richland County,MT,NA,NA,50.037509377344335,NA
59404,Cascade County,MT,NA,37.13235294117647,NA,NA
59501,Hill County,MT,NA,NA,75.16879219804952,NA
59601,Lewis and Clark County,MT,NA,81.61764705882352,NA,NA
59714,Gallatin County,MT,NA,NA,45.08627156789197,NA
59715,Gallatin County,MT,NA,NA,24.831207801950487,NA
68023,Washington County,NE,81.2,NA,NA,NA
68025,Dodge County,NE,NA,NA,17.854463615903978,NA
68108,Douglas County,NE,NA,NA,82.97074268567141,NA
68111,Douglas County,NE,NA,44.669117647058826,NA,NA
68112,Douglas County,NE,NA,NA,NA,82.82208588957054
68130,Douglas County,NE,NA,NA,93.17329332333082,NA
68136,Sarpy County,NE,NA,NA,NA,96.31901840490798
68137,Douglas County,NE,NA,NA,64.96624156039009,NA
68310,Gage County,NE,NA,NA,37.50937734433609,NA
68502,Lancaster County,NE,NA,60.20220588235294,NA,NA
68505,Lancaster County,NE,NA,NA,79.44486121530383,NA
68524,Lancaster County,NE,NA,NA,99.62490622655665,NA
68959,Kearney County,NE,NA,98.16176470588235,NA,NA
69301,Box Butte County,NE,NA,NA,78.91972993248312,NA
89139,Clark County,NV,NA,66.36029411764706,NA,NA
89145,Clark County,NV,NA,67.55514705882352,NA,NA
89166,Clark County,NV,NA,53.58455882352941,NA,NA
89410,Douglas County,NV,NA,NA,78.01950487621906,NA
89460,Douglas County,NV,NA,NA,64.59114778694673,NA
89509,Washoe County,NV,39.2,NA,NA,NA
03033,Hillsborough County,NH,NA,80.33088235294117,NA,NA
03034,Rockingham County,NH,86.8,NA,NA,NA
03038,Rockingham County,NH,NA,10.477941176470589,NA,NA
03053,Rockingham County,NH,14.799999999999999,74.63235294117648,45.16129032258064,NA
03054,Hillsborough County,NH,NA,55.60661764705882,NA,NA
03055,Hillsborough County,NH,NA,NA,34.208552138034506,NA
03062,Hillsborough County,NH,NA,NA,44.41110277569392,NA
03063,Hillsborough County,NH,NA,NA,29.782445611402853,NA
03079,Rockingham County,NH,NA,NA,95.57389347336834,NA
03087,Rockingham County,NH,NA,88.60294117647058,NA,NA
03102,Hillsborough County,NH,NA,16.084558823529413,NA,NA
03104,Hillsborough County,NH,12,11.213235294117647,NA,25.562372188139058
03222,Grafton County,NH,NA,NA,NA,87.52556237218813
03461,Cheshire County,NH,NA,86.76470588235294,NA,NA
03743,Sullivan County,NH,NA,NA,73.5933983495874,NA
03820,Strafford County,NH,47.599999999999994,NA,NA,NA
03833,Rockingham County,NH,NA,NA,NA,56.44171779141104
03858,Rockingham County,NH,NA,76.01102941176471,NA,NA
03865,Rockingham County,NH,NA,56.25,NA,NA
07011,Passaic County,NJ,NA,NA,95.49887471867967,NA
07045,Morris County,NJ,NA,NA,74.26856714178544,NA
07047,Hudson County,NJ,NA,NA,57.53938484621155,NA
07052,Essex County,NJ,NA,NA,93.77344336084022,78.93660531697341
07060,Union County,NJ,NA,NA,15.978994748687173,NA
07066,Union County,NJ,NA,NA,NA,87.93456032719837
07070,Bergen County,NJ,NA,59.375,NA,NA
07071,Bergen County,NJ,NA,NA,98.79969992498124,NA
07075,Bergen County,NJ,89.60000000000001,NA,NA,NA
07079,Essex County,NJ,NA,NA,NA,99.18200408997954
07080,Middlesex County,NJ,38.800000000000004,NA,NA,NA
07103,Essex County,NJ,NA,NA,0.9002250562640659,NA
07104,Essex County,NJ,NA,NA,2.8507126781695424,NA
07106,Essex County,NJ,96.39999999999999,NA,NA,NA
07202,Union County,NJ,NA,66.81985294117648,45.76144036009002,NA
07304,Hudson County,NJ,NA,NA,NA,90.79754601226993
07306,Hudson County,NJ,NA,NA,NA,16.973415132924334
07419,Sussex County,NJ,NA,NA,NA,86.09406952965234
07432,Bergen County,NJ,NA,99.54044117647058,NA,NA
07444,Morris County,NJ,NA,NA,97.07426856714179,61.75869120654397
07463,Bergen County,NJ,NA,NA,NA,98.97750511247445
07470,Passaic County,NJ,NA,NA,2.4756189047261814,NA
07480,Passaic County,NJ,NA,NA,NA,59.50920245398773
07481,Bergen County,NJ,84.39999999999999,NA,NA,NA
07524,Passaic County,NJ,NA,NA,54.46361590397599,NA
07607,Bergen County,NJ,NA,NA,NA,71.98364008179959
07628,Bergen County,NJ,NA,NA,50.26256564141035,35.991820040899796
07640,Bergen County,NJ,NA,NA,75.99399849962491,NA
07645,Bergen County,NJ,99.2,NA,NA,NA
07657,Bergen County,NJ,NA,65.44117647058823,NA,NA
07670,Bergen County,NJ,NA,87.5,NA,NA
07675,Bergen County,NJ,NA,NA,34.583645911477866,74.84662576687117
07746,Monmouth County,NJ,NA,NA,92.7231807951988,NA
07750,Monmouth County,NJ,NA,99.08088235294117,NA,NA
07823,Warren County,NJ,NA,NA,69.31732933233309,NA
07830,Hunterdon County,NJ,NA,89.24632352941177,NA,NA
07860,Sussex County,NJ,NA,20.772058823529413,NA,NA
07869,Morris County,NJ,NA,45.49632352941176,NA,NA
07936,Morris County,NJ,NA,NA,70.51762940735183,NA
07981,Morris County,NJ,NA,94.57720588235294,NA,NA
08002,Camden County,NJ,NA,NA,30.00750187546887,NA
08037,Atlantic County,NJ,NA,NA,NA,46.012269938650306
08043,Camden County,NJ,NA,NA,15.828957239309826,NA
08051,Gloucester County,NJ,NA,86.02941176470588,NA,NA
08063,Gloucester County,NJ,NA,99.72426470588235,NA,NA
08080,Gloucester County,NJ,NA,9.283088235294118,NA,NA
08083,Camden County,NJ,NA,35.11029411764706,NA,NA
08085,Gloucester County,NJ,NA,NA,80.0450112528132,NA
08087,Ocean County,NJ,NA,NA,NA,38.24130879345603
08088,Burlington County,NJ,NA,39.705882352941174,NA,NA
08109,Camden County,NJ,NA,NA,57.764441110277566,NA
08203,Atlantic County,NJ,NA,NA,NA,81.18609406952966
08205,Atlantic County,NJ,NA,NA,NA,75.25562372188139
08210,Cape May County,NJ,NA,NA,NA,70.75664621676891
08223,Cape May County,NJ,NA,99.63235294117648,NA,NA
08226,Cape May County,NJ,NA,NA,81.84546136534134,NA
08234,Atlantic County,NJ,NA,NA,52.43810952738185,NA
08244,Atlantic County,NJ,NA,NA,47.7119279819955,NA
08260,Cape May County,NJ,NA,NA,NA,76.68711656441718
08302,Cumberland County,NJ,NA,NA,6.751687921980495,NA
08318,Salem County,NJ,NA,NA,NA,53.578732106339466
08330,Atlantic County,NJ,NA,NA,67.51687921980495,NA
08360,Cumberland County,NJ,NA,1.4705882352941175,NA,NA
08361,Cumberland County,NJ,NA,NA,65.26631657914479,NA
08401,Atlantic County,NJ,NA,0.4595588235294118,NA,NA
08502,Somerset County,NJ,NA,98.98897058823529,NA,NA
08527,Ocean County,NJ,NA,NA,4.276069017254313,NA
08550,Mercer County,NJ,NA,NA,95.87396849212303,NA
08610,Mercer County,NJ,NA,98.25367647058823,NA,NA
08618,Mercer County,NJ,NA,6.25,NA,NA
08753,Ocean County,NJ,NA,NA,NA,11.042944785276074
08801,Hunterdon County,NJ,NA,NA,99.69992498124532,NA
08804,Hunterdon County,NJ,NA,96.23161764705883,NA,NA
08816,Middlesex County,NJ,NA,NA,64.36609152288072,NA
08817,Middlesex County,NJ,NA,NA,NA,65.03067484662577
08831,Middlesex County,NJ,NA,NA,NA,28.834355828220858
08852,Middlesex County,NJ,NA,NA,NA,96.7280163599182
08876,Somerset County,NJ,NA,NA,44.4861215303826,NA
08882,Middlesex County,NJ,NA,96.41544117647058,NA,NA
08884,Middlesex County,NJ,NA,75.09191176470588,NA,NA
08886,Warren County,NJ,66.4,NA,NA,NA
87020,Cibola County,NM,63.2,NA,NA,NA
87059,Bernalillo County,NM,NA,NA,NA,73.21063394683026
87105,Bernalillo County,NM,NA,NA,NA,39.87730061349693
87106,Bernalillo County,NM,NA,16.452205882352942,NA,NA
87109,Bernalillo County,NM,NA,NA,10.202550637659416,NA
87112,Bernalillo County,NM,NA,NA,6.151537884471118,NA
87114,Bernalillo County,NM,NA,43.841911764705884,NA,78.52760736196319
87122,Bernalillo County,NM,NA,NA,79.5198799699925,NA
87124,Sandoval County,NM,NA,NA,NA,11.247443762781186
87144,Sandoval County,NM,NA,NA,14.028507126781694,NA
87544,Los Alamos County,NM,62.8,NA,NA,NA
87571,Taos County,NM,NA,71.875,NA,94.88752556237219
87740,Colfax County,NM,NA,NA,NA,67.280163599182
88011,Doa Ana County,NM,NA,NA,31.13278319579895,NA
88101,Curry County,NM,NA,28.768382352941174,23.63090772693173,6.339468302658487
88203,Chaves County,NM,NA,NA,12.303075768942236,NA
88220,Eddy County,NM,NA,45.68014705882353,NA,NA
88260,Lea County,NM,NA,32.44485294117647,NA,NA
88345,Lincoln County,NM,NA,64.15441176470588,NA,NA
10001,New York County,NY,NA,NA,NA,37.83231083844581
10003,New York County,NY,NA,NA,26.85671417854464,NA
10013,New York County,NY,NA,NA,NA,42.535787321063395
10019,New York County,NY,NA,NA,45.46136534133534,NA
10025,New York County,NY,NA,NA,NA,3.067484662576687
10026,New York County,NY,NA,NA,NA,74.23312883435584
10028,New York County,NY,NA,NA,52.36309077269318,NA
10029,New York County,NY,NA,0.8272058823529412,NA,NA
10032,New York County,NY,NA,NA,NA,79.95910020449898
10033,New York County,NY,NA,NA,NA,14.11042944785276
10035,New York County,NY,NA,NA,5.251312828207052,NA
10038,New York County,NY,NA,77.48161764705883,NA,NA
10306,Richmond County,NY,NA,NA,10.72768192048012,NA
10451,Bronx County,NY,NA,NA,4.051012753188297,NA
10452,Bronx County,NY,NA,1.1948529411764706,43.735933983495876,NA
10453,Bronx County,NY,NA,13.32720588235294,15.9039759939985,NA
10455,Bronx County,NY,NA,NA,NA,77.0961145194274
10458,Bronx County,NY,NA,0.6433823529411764,NA,NA
10459,Bronx County,NY,NA,34.83455882352941,NA,NA
10462,Bronx County,NY,2.8000000000000003,NA,2.925731432858215,NA
10467,Bronx County,NY,NA,NA,4.126031507876969,NA
10541,Putnam County,NY,NA,88.51102941176471,NA,92.63803680981594
10601,Westchester County,NY,NA,NA,71.34283570892723,NA
10704,Westchester County,NY,NA,59.74264705882353,72.31807951987997,NA
10804,Westchester County,NY,NA,NA,78.61965491372843,NA
10805,Westchester County,NY,NA,NA,99.4748687171793,NA
10956,Rockland County,NY,NA,NA,55.73893473368342,NA
11096,Nassau County,NY,NA,NA,85.74643660915228,NA
11205,Kings County,NY,NA,NA,60.01500375093774,NA
11206,Kings County,NY,NA,61.76470588235294,NA,NA
11207,Kings County,NY,NA,0.7352941176470588,47.41185296324081,NA
11209,Kings County,NY,NA,26.838235294117645,NA,NA
11211,Kings County,NY,NA,NA,12.528132033008252,NA
11217,Kings County,NY,NA,63.05147058823529,NA,NA
11221,Kings County,NY,73.6,NA,NA,NA
11224,Kings County,NY,NA,NA,NA,15.337423312883436
11226,Kings County,NY,NA,70.40441176470588,70.36759189797449,NA
11237,Kings County,NY,NA,NA,NA,70.96114519427404
11355,Queens County,NY,NA,NA,12.003000750187546,NA
11373,Queens County,NY,NA,NA,10.877719429857464,19.427402862985684
11375,Queens County,NY,NA,NA,NA,7.157464212678937
11416,Queens County,NY,NA,40.16544117647059,NA,NA
11427,Queens County,NY,NA,64.61397058823529,NA,NA
11550,Nassau County,NY,NA,9.466911764705882,NA,NA
11717,Suffolk County,NY,NA,NA,33.758439609902474,NA
11731,Suffolk County,NY,NA,NA,55.06376594148538,NA
11789,Suffolk County,NY,NA,NA,NA,84.66257668711657
11963,Suffolk County,NY,NA,NA,NA,77.70961145194273
12078,Fulton County,NY,NA,4.411764705882353,NA,NA
12180,Rensselaer County,NY,NA,2.389705882352941,NA,NA
12182,Rensselaer County,NY,20.4,NA,NA,NA
12529,Columbia County,NY,NA,97.79411764705883,NA,NA
12809,Washington County,NY,NA,NA,99.17479369842461,NA
12822,Saratoga County,NY,NA,NA,93.62340585146288,NA
12865,Washington County,NY,NA,NA,99.09977494373592,NA
12866,Saratoga County,NY,NA,NA,6.301575393848462,NA
12901,Clinton County,NY,11.200000000000001,NA,NA,NA
12910,Clinton County,NY,NA,94.39338235294117,NA,NA
12946,Essex County,NY,NA,58.36397058823529,NA,NA
12983,Franklin County,NY,NA,NA,NA,92.84253578732107
13021,Cayuga County,NY,NA,3.4007352941176467,NA,NA
13031,Onondaga County,NY,NA,NA,NA,55.828220858895705
13032,Madison County,NY,NA,NA,30.9827456864216,NA
13045,Cortland County,NY,NA,NA,27.68192048012003,NA
13068,Tompkins County,NY,NA,97.61029411764706,NA,NA
13073,Tompkins County,NY,NA,49.17279411764706,NA,NA
13152,Onondaga County,NY,NA,NA,87.77194298574643,NA
13165,Seneca County,NY,NA,21.047794117647058,NA,NA
13346,Madison County,NY,NA,56.80147058823529,NA,NA
13421,Madison County,NY,14.399999999999999,NA,NA,NA
13431,Herkimer County,NY,NA,95.68014705882352,NA,NA
13613,St. Lawrence County,NY,94.39999999999999,NA,NA,NA
13620,Lewis County,NY,NA,NA,93.92348087021756,NA
13662,St. Lawrence County,NY,NA,7.077205882352941,NA,NA
13746,Broome County,NY,NA,NA,81.09527381845461,NA
13760,Broome County,NY,NA,NA,0.30007501875468867,NA
13815,Chenango County,NY,NA,NA,NA,26.1758691206544
13820,Otsego County,NY,NA,NA,NA,15.950920245398773
13850,Broome County,NY,NA,NA,2.550637659414854,NA
13856,Delaware County,NY,NA,NA,25.506376594148538,52.14723926380368
13901,Broome County,NY,NA,NA,18.454613653413354,NA
13905,Broome County,NY,NA,NA,3.075768942235559,NA
14092,Niagara County,NY,NA,68.93382352941177,NA,NA
14120,Niagara County,NY,NA,71.78308823529412,NA,NA
14131,Niagara County,NY,NA,NA,56.264066016504124,NA
14214,Erie County,NY,NA,NA,29.932483120780194,NA
14218,Erie County,NY,NA,14.705882352941178,NA,NA
14220,Erie County,NY,NA,NA,18.754688672168044,NA
14221,Erie County,NY,NA,NA,13.278319579894973,NA
14222,Erie County,NY,NA,NA,51.387846961740436,NA
14304,Niagara County,NY,NA,33.91544117647059,NA,NA
14305,Niagara County,NY,NA,NA,79.89497374343586,NA
14425,Ontario County,NY,NA,40.533088235294116,NA,NA
14487,Livingston County,NY,NA,67.27941176470588,NA,NA
14502,Wayne County,NY,NA,NA,35.408852213053265,NA
14512,Ontario County,NY,NA,NA,50.337584396099025,NA
14522,Wayne County,NY,NA,27.389705882352942,NA,NA
14551,Wayne County,NY,NA,NA,52.58814703675919,NA
14559,Monroe County,NY,NA,49.17279411764706,NA,NA
14564,Ontario County,NY,NA,NA,11.177794448612154,NA
14569,Wyoming County,NY,NA,NA,46.81170292573144,NA
14580,Monroe County,NY,NA,1.3786764705882353,NA,NA
14610,Monroe County,NY,NA,53.033088235294116,NA,NA
14616,Monroe County,NY,NA,NA,5.101275318829708,NA
14621,Monroe County,NY,NA,0.9191176470588236,1.1252813203300824,NA
14623,Monroe County,NY,NA,13.970588235294118,NA,NA
14624,Monroe County,NY,NA,2.941176470588235,NA,NA
14727,Allegany County,NY,NA,NA,85.59639909977494,NA
14812,Schuyler County,NY,NA,NA,98.27456864216055,NA
14830,Steuben County,NY,NA,47.518382352941174,21.530382595648913,NA
14837,Yates County,NY,NA,67.46323529411765,NA,NA
14850,Tompkins County,NY,NA,NA,3.7509377344336086,NA
14865,Schuyler County,NY,NA,NA,98.42460615153789,NA
27021,Stokes County,NC,NA,61.76470588235294,NA,NA
27043,Stokes County,NC,NA,NA,50.862715678919734,NA
27103,Forsyth County,NC,NA,12.040441176470589,NA,NA
27104,Forsyth County,NC,NA,NA,NA,4.294478527607362
27105,Forsyth County,NC,NA,12.224264705882353,NA,29.243353783231086
27107,Forsyth County,NC,NA,4.136029411764706,2.175543885971493,2.8629856850715747
27127,Forsyth County,NC,NA,NA,NA,6.748466257668712
27263,Randolph County,NC,NA,NA,38.85971492873218,NA
27265,Guilford County,NC,NA,NA,35.033758439609905,21.472392638036812
27278,Orange County,NC,NA,NA,NA,16.359918200409
27284,Forsyth County,NC,NA,6.158088235294118,NA,NA
27292,Davidson County,NC,NA,4.595588235294118,0.6751687921980495,NA
27295,Davidson County,NC,NA,NA,NA,31.28834355828221
27313,Guilford County,NC,NA,NA,78.69467366841711,NA
27320,Rockingham County,NC,NA,NA,59.414853713428364,NA
27332,Lee County,NC,NA,NA,NA,38.85480572597137
27405,Guilford County,NC,NA,48.62132352941176,NA,NA
27511,Wake County,NC,NA,NA,22.50562640660165,60.32719836400818
27513,Wake County,NC,NA,NA,38.63465866466617,NA
27517,Orange County,NC,NA,45.49632352941176,NA,NA
27526,Wake County,NC,NA,NA,61.89047261815453,17.791411042944784
27536,Vance County,NC,NA,22.702205882352942,NA,NA
27537,Vance County,NC,NA,NA,47.63690922730683,NA
27549,Franklin County,NC,NA,17.371323529411764,NA,NA
27576,Johnston County,NC,NA,48.06985294117647,NA,NA
27597,Wake County,NC,NA,NA,72.01800450112528,NA
27604,Wake County,NC,NA,NA,NA,74.64212678936605
27701,Durham County,NC,NA,NA,72.2430607651913,NA
27703,Durham County,NC,NA,30.514705882352942,NA,NA
27705,Durham County,NC,NA,NA,NA,43.967280163599185
27713,Durham County,NC,NA,47.88602941176471,NA,NA
27886,Edgecombe County,NC,NA,29.6875,NA,NA
27889,Beaufort County,NC,NA,NA,72.69317329332333,NA
27896,Wilson County,NC,NA,NA,NA,97.54601226993866
27948,Dare County,NC,NA,NA,54.46361590397599,NA
27983,Bertie County,NC,NA,45.036764705882355,NA,NA
28001,Stanly County,NC,NA,NA,NA,42.944785276073624
28016,Gaston County,NC,NA,NA,NA,81.79959100204499
28021,Gaston County,NC,NA,NA,86.94673668417104,NA
28037,Lincoln County,NC,NA,89.79779411764706,NA,NA
28071,Rowan County,NC,NA,97.05882352941177,NA,NA
28073,Cleveland County,NC,NA,94.11764705882352,NA,NA
28078,Mecklenburg County,NC,NA,NA,53.78844711177795,NA
28079,Union County,NC,NA,NA,65.4913728432108,NA
28081,Cabarrus County,NC,30.4,NA,NA,NA
28103,Union County,NC,NA,NA,83.79594898724682,NA
28120,Gaston County,NC,NA,NA,NA,52.556237218813905
28127,Stanly County,NC,NA,97.42647058823529,NA,NA
28168,Lincoln County,NC,NA,62.68382352941176,NA,NA
28207,Mecklenburg County,NC,NA,NA,69.69242310577644,NA
28212,Mecklenburg County,NC,NA,NA,41.18529632408102,NA
28213,Mecklenburg County,NC,13.600000000000001,NA,NA,NA
28215,Mecklenburg County,NC,NA,12.5,81.695423855964,NA
28227,Mecklenburg County,NC,NA,60.47794117647059,NA,NA
28277,Mecklenburg County,NC,NA,33.82352941176471,NA,NA
28278,Mecklenburg County,NC,NA,NA,64.29107276819205,NA
28311,Cumberland County,NC,NA,48.80514705882353,NA,NA
28328,Sampson County,NC,NA,NA,NA,30.879345603271986
28352,Scotland County,NC,NA,20.036764705882355,NA,NA
28401,New Hanover County,NC,NA,NA,22.80570142535634,NA
28403,New Hanover County,NC,NA,NA,39.6099024756189,NA
28409,New Hanover County,NC,NA,NA,11.10277569392348,NA
28425,Pender County,NC,NA,NA,45.83645911477869,NA
28431,Columbus County,NC,NA,NA,NA,93.25153374233128
28433,Bladen County,NC,NA,NA,82.89572393098274,NA
28443,Pender County,NC,NA,NA,41.56039009752438,NA
28463,Columbus County,NC,NA,80.51470588235294,59.489872468117035,NA
28472,Columbus County,NC,NA,NA,62.56564141035259,34.96932515337423
28516,Carteret County,NC,NA,61.94852941176471,NA,NA
28532,Craven County,NC,NA,60.845588235294116,NA,NA
28551,Lenoir County,NC,NA,NA,NA,89.16155419222905
28555,Onslow County,NC,NA,NA,NA,91.8200408997955
28557,Carteret County,NC,NA,NA,29.107276819204802,NA
28570,Carteret County,NC,NA,44.85294117647059,NA,NA
28584,Carteret County,NC,NA,NA,47.93698424606151,NA
28642,Yadkin County,NC,NA,77.48161764705883,NA,NA
28645,Caldwell County,NC,NA,NA,48.837209302325576,NA
28651,Wilkes County,NC,NA,NA,68.11702925731433,NA
28704,Buncombe County,NC,NA,NA,58.43960990247562,NA
28705,Mitchell County,NC,NA,NA,69.76744186046511,NA
28714,Yancey County,NC,NA,NA,63.315828957239304,NA
28734,Macon County,NC,NA,NA,44.33608402100525,NA
28739,Henderson County,NC,NA,NA,51.312828207051766,NA
28768,Transylvania County,NC,NA,NA,85.52138034508627,NA
28787,Buncombe County,NC,NA,77.84926470588235,NA,NA
28792,Henderson County,NC,NA,NA,28.28207051762941,NA
28804,Buncombe County,NC,NA,NA,82.59564891222806,NA
28901,Cherokee County,NC,NA,95.49632352941177,NA,NA
28904,Clay County,NC,NA,NA,NA,69.12065439672801
28906,Cherokee County,NC,NA,83.45588235294117,NA,NA
58075,Richland County,ND,NA,75.27573529411765,NA,NA
58078,Cass County,ND,24,20.3125,NA,NA
58103,Cass County,ND,NA,23.4375,12.678169542385595,NA
58104,Cass County,ND,61.6,25.09191176470588,30.38259564891223,4.08997955010225
58201,Grand Forks County,ND,NA,69.20955882352942,NA,NA
58401,Stutsman County,ND,NA,NA,NA,65.23517382413088
58503,Burleigh County,ND,NA,27.297794117647058,66.31657914478619,NA
58701,Ward County,ND,NA,NA,45.38634658664667,NA
58703,Ward County,ND,NA,35.018382352941174,NA,NA
58801,Williams County,ND,NA,NA,36.23405851462866,NA
43015,Delaware County,OH,NA,54.31985294117647,NA,NA
43026,Franklin County,OH,NA,44.025735294117645,NA,NA
43062,Licking County,OH,NA,NA,50.48762190547637,34.151329243353786
43065,Delaware County,OH,NA,66.54411764705883,NA,NA
43078,Champaign County,OH,NA,27.573529411764707,NA,NA
43081,Franklin County,OH,NA,71.23161764705883,NA,NA
43082,Delaware County,OH,NA,52.02205882352941,NA,NA
43119,Franklin County,OH,NA,18.474264705882355,NA,NA
43130,Fairfield County,OH,NA,2.0220588235294117,12.45311327831958,NA
43138,Hocking County,OH,NA,NA,NA,28.629856850715747
43140,Madison County,OH,NA,30.05514705882353,23.10577644411103,NA
43147,Fairfield County,OH,NA,NA,64.74118529632408,NA
43160,Fayette County,OH,NA,NA,14.47861965491373,NA
43162,Madison County,OH,NA,NA,NA,64.82617586912065
43207,Franklin County,OH,NA,2.1139705882352944,NA,NA
43209,Franklin County,OH,NA,NA,71.04276069017254,NA
43213,Franklin County,OH,NA,NA,12.07801950487622,NA
43214,Franklin County,OH,NA,NA,31.43285821455364,NA
43221,Franklin County,OH,NA,84.55882352941177,NA,NA
43224,Franklin County,OH,NA,NA,54.988747186796694,NA
43229,Franklin County,OH,NA,81.25,26.406601650412604,NA
43235,Franklin County,OH,NA,37.04044117647059,NA,NA
43311,Logan County,OH,NA,23.80514705882353,NA,88.34355828220859
43351,Wyandot County,OH,NA,NA,36.53413353338335,NA
43402,Wood County,OH,NA,NA,9.752438109527382,NA
43465,Wood County,OH,NA,96.13970588235294,88.37209302325581,NA
43528,Lucas County,OH,NA,NA,83.94598649662416,NA
43537,Lucas County,OH,79.60000000000001,22.886029411764707,8.777194298574644,NA
43551,Wood County,OH,NA,NA,4.426106526631658,35.787321063394685
43558,Fulton County,OH,NA,NA,33.60840210052513,NA
43560,Lucas County,OH,NA,NA,9.67741935483871,NA
43567,Fulton County,OH,NA,NA,26.556639159789945,NA
43571,Lucas County,OH,NA,75.45955882352942,NA,NA
43605,Lucas County,OH,NA,2.6654411764705883,NA,NA
43608,Lucas County,OH,32.4,NA,NA,NA
43610,Lucas County,OH,NA,NA,88.6721680420105,NA
43612,Lucas County,OH,NA,4.31985294117647,NA,NA
43613,Lucas County,OH,NA,3.4926470588235294,17.104276069017253,95.50102249488752
43614,Lucas County,OH,NA,8.731617647058822,7.276819204801201,NA
43615,Lucas County,OH,16.400000000000002,NA,34.808702175543885,NA
43616,Lucas County,OH,NA,NA,29.632408102025504,18.609406952965234
43617,Lucas County,OH,NA,NA,92.1980495123781,NA
43701,Muskingum County,OH,NA,1.2867647058823528,NA,NA
43724,Noble County,OH,NA,67.1875,62.2655663915979,NA
43725,Guernsey County,OH,NA,11.948529411764707,70.74268567141786,NA
43906,Belmont County,OH,NA,NA,85.37134283570893,NA
43938,Jefferson County,OH,NA,NA,55.5138784696174,NA
43942,Belmont County,OH,NA,98.71323529411765,NA,NA
43964,Jefferson County,OH,NA,19.761029411764707,NA,NA
44001,Lorain County,OH,NA,NA,2.100525131282821,NA
44004,Ashtabula County,OH,NA,NA,NA,28.425357873210633
44017,Cuyahoga County,OH,NA,NA,56.78919729932483,NA
44022,Cuyahoga County,OH,NA,NA,48.23705926481621,NA
44023,Geauga County,OH,84,NA,NA,NA
44024,Geauga County,OH,NA,NA,9.30232558139535,NA
44026,Geauga County,OH,NA,NA,80.8702175543886,NA
44035,Lorain County,OH,NA,0.1838235294117647,0,0.408997955010225
44039,Lorain County,OH,NA,63.970588235294116,1.4253563390847712,NA
44052,Lorain County,OH,NA,39.0625,26.25656414103526,NA
44055,Lorain County,OH,NA,7.6286764705882355,NA,13.0879345603272
44060,Lake County,OH,NA,NA,61.59039759939985,NA
44067,Summit County,OH,NA,28.768382352941174,NA,NA
44070,Cuyahoga County,OH,NA,NA,60.91522880720181,NA
44077,Lake County,OH,62.4,NA,13.653413353338333,NA
44089,Erie County,OH,31.6,NA,6.001500375093773,NA
44090,Lorain County,OH,NA,82.53676470588235,NA,NA
44092,Lake County,OH,79.2,NA,NA,NA
44094,Lake County,OH,NA,58.45588235294118,NA,2.2494887525562373
44095,Lake County,OH,NA,15.533088235294118,NA,5.521472392638037
44102,Cuyahoga County,OH,NA,0.3676470588235294,NA,NA
44103,Cuyahoga County,OH,NA,7.904411764705882,NA,NA
44104,Cuyahoga County,OH,NA,31.61764705882353,NA,NA
44107,Cuyahoga County,OH,NA,NA,1.5003750937734432,NA
44109,Cuyahoga County,OH,NA,NA,24.006001500375092,NA
44110,Cuyahoga County,OH,NA,NA,65.34133533383346,NA
44111,Cuyahoga County,OH,NA,1.7463235294117647,NA,NA
44113,Cuyahoga County,OH,NA,NA,26.63165791447862,NA
44114,Cuyahoga County,OH,NA,25.643382352941174,NA,NA
44119,Cuyahoga County,OH,NA,NA,63.16579144786196,NA
44120,Cuyahoga County,OH,NA,NA,15.303825956489122,NA
44121,Cuyahoga County,OH,NA,28.58455882352941,31.207801950487625,NA
44122,Cuyahoga County,OH,NA,46.875,NA,NA
44124,Cuyahoga County,OH,NA,18.933823529411764,NA,NA
44125,Cuyahoga County,OH,NA,1.6544117647058825,NA,NA
44128,Cuyahoga County,OH,NA,3.125,83.87096774193549,14.723926380368098
44133,Cuyahoga County,OH,NA,NA,71.04276069017254,NA
44134,Cuyahoga County,OH,NA,NA,1.0502625656414104,NA
44138,Cuyahoga County,OH,NA,NA,16.65416354088522,NA
44143,Cuyahoga County,OH,NA,NA,NA,15.541922290388548
44144,Cuyahoga County,OH,NA,9.650735294117647,NA,NA
44146,Cuyahoga County,OH,NA,6.0661764705882355,NA,NA
44149,Cuyahoga County,OH,NA,76.10294117647058,NA,NA
44202,Portage County,OH,NA,26.19485294117647,NA,NA
44203,Summit County,OH,NA,50.36764705882353,5.55138784696174,NA
44212,Medina County,OH,NA,NA,0.5251312828207052,NA
44216,Summit County,OH,78,NA,NA,NA
44221,Summit County,OH,NA,NA,11.47786946736684,NA
44240,Portage County,OH,NA,21.50735294117647,NA,NA
44241,Portage County,OH,NA,25.183823529411764,NA,NA
44255,Portage County,OH,NA,NA,33.60840210052513,NA
44256,Medina County,OH,8.4,15.992647058823529,0.45011252813203295,NA
44278,Summit County,OH,NA,NA,30.90772693173293,NA
44281,Medina County,OH,NA,16.911764705882355,33.00825206301575,NA
44287,Wayne County,OH,NA,73.4375,NA,NA
44303,Summit County,OH,NA,NA,55.66391597899475,NA
44305,Summit County,OH,NA,11.397058823529411,NA,NA
44312,Summit County,OH,NA,65.25735294117648,NA,47.648261758691206
44320,Summit County,OH,NA,13.602941176470587,37.7344336084021,NA
44321,Summit County,OH,NA,NA,30.83270817704426,NA
44333,Summit County,OH,NA,60.845588235294116,62.19054763690923,NA
44401,Mahoning County,OH,NA,NA,96.92423105776444,NA
44402,Trumbull County,OH,NA,NA,93.99849962490623,NA
44413,Columbiana County,OH,NA,64.52205882352942,NA,NA
44425,Trumbull County,OH,NA,NA,18.904726181545385,NA
44446,Trumbull County,OH,NA,10.845588235294118,NA,NA
44460,Columbiana County,OH,NA,NA,57.239309827456864,NA
44483,Trumbull County,OH,NA,38.51102941176471,NA,NA
44507,Mahoning County,OH,NA,91.08455882352942,NA,NA
44512,Mahoning County,OH,NA,NA,8.627156789197299,NA
44601,Stark County,OH,NA,NA,NA,8.997955010224949
44614,Stark County,OH,NA,NA,78.91972993248312,NA
44622,Tuscarawas County,OH,NA,88.05147058823529,NA,NA
44685,Summit County,OH,NA,NA,16.129032258064516,NA
44691,Wayne County,OH,NA,NA,3.45086271567892,NA
44705,Stark County,OH,NA,19.025735294117645,NA,NA
44720,Stark County,OH,NA,NA,13.053263315828959,56.850715746421265
44805,Ashland County,OH,NA,NA,3.225806451612903,NA
44811,Sandusky County,OH,NA,NA,39.6099024756189,NA
44820,Crawford County,OH,NA,NA,7.801950487621906,49.079754601226995
44833,Crawford County,OH,NA,NA,11.70292573143286,NA
44889,Huron County,OH,NA,NA,NA,93.04703476482618
44890,Huron County,OH,25.2,NA,NA,NA
44907,Richland County,OH,NA,62.86764705882353,NA,NA
45011,Butler County,OH,0.4,NA,1.9504876219054765,NA
45013,Butler County,OH,NA,NA,54.83870967741935,NA
45014,Butler County,OH,9.2,72.05882352941177,70.29257314328582,NA
45036,Warren County,OH,6.4,NA,NA,NA
45056,Butler County,OH,80.80000000000001,NA,NA,NA
45066,Warren County,OH,NA,NA,NA,48.875255623721884
45067,Butler County,OH,30,NA,NA,NA
45068,Warren County,OH,NA,NA,56.63915978994749,NA
45107,Clinton County,OH,NA,73.89705882352942,NA,NA
45177,Clinton County,OH,NA,47.70220588235294,NA,NA
45224,Hamilton County,OH,22,NA,NA,NA
45309,Montgomery County,OH,NA,NA,84.39609902475618,NA
45320,Preble County,OH,NA,32.35294117647059,NA,NA
45323,Clark County,OH,NA,NA,NA,68.71165644171779
45324,Greene County,OH,NA,NA,NA,64.21267893660531
45342,Montgomery County,OH,NA,83.82352941176471,NA,20.449897750511248
45356,Miami County,OH,NA,NA,49.13728432108027,NA
45371,Miami County,OH,NA,NA,NA,57.668711656441715
45373,Miami County,OH,4,NA,NA,NA
45404,Montgomery County,OH,NA,NA,78.24456114028507,NA
45406,Montgomery County,OH,NA,12.408088235294118,NA,NA
45409,Montgomery County,OH,NA,81.80147058823529,NA,NA
45414,Montgomery County,OH,NA,NA,36.384096024006,NA
45420,Montgomery County,OH,NA,20.68014705882353,NA,NA
45424,Montgomery County,OH,NA,8.823529411764707,NA,NA
45429,Montgomery County,OH,NA,NA,53.41335333833458,17.586912065439673
45431,Montgomery County,OH,NA,NA,NA,30.470347648261757
45432,Greene County,OH,NA,60.56985294117647,NA,NA
45439,Montgomery County,OH,NA,NA,61.74043510877719,NA
45440,Montgomery County,OH,NA,NA,57.08927231807952,70.5521472392638
45459,Montgomery County,OH,NA,NA,14.853713428357091,NA
45601,Ross County,OH,NA,1.0110294117647058,0.15003750937734434,0
45648,Scioto County,OH,NA,72.88602941176471,39.38484621155289,NA
45660,Adams County,OH,NA,NA,87.99699924981246,NA
45662,Scioto County,OH,NA,13.878676470588236,NA,NA
45686,Gallia County,OH,94.8,93.56617647058823,NA,NA
45692,Jackson County,OH,NA,29.044117647058826,NA,NA
45750,Washington County,OH,NA,2.2058823529411766,4.351087771942986,NA
45805,Allen County,OH,NA,52.66544117647059,NA,NA
45806,Allen County,OH,NA,53.40073529411765,NA,NA
45807,Allen County,OH,NA,NA,75.01875468867217,NA
45833,Allen County,OH,NA,NA,87.24681170292573,NA
45887,Allen County,OH,NA,97.97794117647058,NA,NA
73003,Oklahoma County,OK,NA,54.96323529411765,NA,NA
73008,Oklahoma County,OK,NA,77.02205882352942,NA,NA
73012,Oklahoma County,OK,46.800000000000004,92.64705882352942,NA,NA
73013,Oklahoma County,OK,NA,92.1875,73.44336084021005,NA
73034,Oklahoma County,OK,NA,95.22058823529412,NA,NA
73049,Oklahoma County,OK,NA,NA,93.69842460615155,NA
73065,McClain County,OK,NA,NA,NA,95.70552147239265
73071,Cleveland County,OK,NA,NA,34.958739684921234,NA
73072,Cleveland County,OK,NA,NA,19.504876219054765,NA
73080,McClain County,OK,NA,NA,62.04051012753188,NA
73086,Murray County,OK,NA,60.75367647058824,NA,NA
73112,Oklahoma County,OK,NA,58.73161764705882,NA,NA
73116,Oklahoma County,OK,NA,NA,93.02325581395348,59.30470347648262
73118,Oklahoma County,OK,NA,NA,99.77494373593399,NA
73120,Oklahoma County,OK,NA,64.0625,86.19654913728432,NA
73139,Oklahoma County,OK,41.199999999999996,NA,NA,47.034764826175866
73142,Oklahoma County,OK,NA,NA,65.11627906976744,NA
73160,Cleveland County,OK,NA,NA,NA,11.65644171779141
73162,Oklahoma County,OK,NA,NA,37.7344336084021,NA
73170,Cleveland County,OK,NA,76.93014705882352,NA,NA
73501,Comanche County,OK,NA,NA,65.86646661665417,NA
73507,Comanche County,OK,NA,NA,77.34433608402101,NA
73703,Garfield County,OK,NA,43.658088235294116,NA,NA
73750,Kingfisher County,OK,NA,77.66544117647058,NA,NA
73801,Woodward County,OK,NA,NA,60.840210052513136,NA
74011,Tulsa County,OK,36.4,NA,NA,NA
74055,Tulsa County,OK,NA,NA,20.330082520630157,NA
74075,Payne County,OK,NA,NA,44.036009002250566,NA
74105,Tulsa County,OK,NA,NA,33.383345836459114,NA
74106,Tulsa County,OK,NA,NA,59.26481620405101,NA
74112,Tulsa County,OK,NA,NA,NA,55.419222903885476
74136,Tulsa County,OK,NA,NA,76.74418604651163,NA
74344,Delaware County,OK,NA,NA,NA,41.717791411042946
74365,Mayes County,OK,NA,77.94117647058823,NA,NA
74467,Wagoner County,OK,NA,86.48897058823529,NA,NA
74523,Pushmataha County,OK,NA,83.27205882352942,NA,NA
74801,Pottawatomie County,OK,20.8,59.83455882352941,NA,NA
74955,Sequoyah County,OK,NA,NA,70.44261065266316,NA
74960,Adair County,OK,NA,NA,73.81845461365342,53.16973415132924
97008,Washington County,OR,NA,72.97794117647058,NA,NA
97009,Clackamas County,OR,NA,NA,87.17179294823706,NA
97013,Clackamas County,OR,NA,NA,NA,85.2760736196319
97030,Multnomah County,OR,NA,57.26102941176471,NA,44.989775051124745
97031,Hood River County,OR,NA,89.15441176470588,57.01425356339085,NA
97038,Clackamas County,OR,NA,57.720588235294116,NA,NA
97058,Wasco County,OR,NA,NA,21.380345086271568,NA
97062,Washington County,OR,NA,NA,94.82370592648162,NA
97068,Clackamas County,OR,NA,NA,42.23555888972243,NA
97113,Washington County,OR,NA,61.30514705882353,NA,NA
97123,Washington County,OR,NA,NA,54.61365341335333,NA
97132,Yamhill County,OR,NA,NA,93.2483120780195,NA
97201,Multnomah County,OR,NA,NA,63.390847711927975,NA
97206,Multnomah County,OR,NA,NA,84.32108027006751,NA
97214,Multnomah County,OR,NA,63.69485294117647,NA,NA
97217,Multnomah County,OR,NA,32.904411764705884,NA,NA
97219,Multnomah County,OR,NA,74.35661764705883,NA,NA
97224,Washington County,OR,NA,NA,24.981245311327832,NA
97230,Multnomah County,OR,NA,NA,NA,38.036809815950924
97236,Multnomah County,OR,NA,43.474264705882355,19.279819954988746,NA
97302,Marion County,OR,NA,35.294117647058826,NA,NA
97303,Marion County,OR,NA,NA,32.483120780195044,NA
97305,Marion County,OR,NA,49.63235294117647,NA,NA
97306,Marion County,OR,NA,NA,43.21080270067517,NA
97317,Marion County,OR,NA,NA,71.56789197299325,NA
97322,Linn County,OR,NA,11.029411764705882,NA,NA
97325,Marion County,OR,NA,76.19485294117648,NA,NA
97355,Linn County,OR,NA,NA,3.6009002250562636,NA
97386,Linn County,OR,NA,NA,59.86496624156039,NA
97394,Lincoln County,OR,NA,NA,NA,58.282208588957054
97402,Lane County,OR,NA,NA,NA,64.41717791411043
97403,Lane County,OR,NA,91.81985294117648,NA,NA
97415,Curry County,OR,NA,38.69485294117647,NA,NA
97424,Lane County,OR,NA,36.30514705882353,NA,NA
97439,Lane County,OR,NA,NA,NA,16.768916155419223
97470,Douglas County,OR,NA,24.540441176470587,NA,NA
97527,Josephine County,OR,NA,82.07720588235294,39.0847711927982,NA
97603,Klamath County,OR,NA,NA,22.05551387846962,23.517382413087933
97754,Crook County,OR,NA,NA,43.135783945986496,NA
97801,Umatilla County,OR,NA,NA,47.26181545386346,71.16564417177914
97814,Baker County,OR,NA,34.466911764705884,NA,NA
97838,Umatilla County,OR,NA,14.0625,NA,NA
97862,Umatilla County,OR,NA,52.20588235294118,NA,NA
97914,Malheur County,OR,NA,NA,42.610652663165794,NA
15010,Beaver County,PA,22.400000000000002,NA,NA,NA
15021,Washington County,PA,NA,NA,84.99624906226556,NA
15074,Beaver County,PA,NA,NA,41.635408852213054,NA
15084,Allegheny County,PA,NA,58.54779411764706,NA,NA
15101,Allegheny County,PA,NA,NA,36.83420855213804,NA
15106,Allegheny County,PA,NA,NA,45.31132783195799,NA
15108,Allegheny County,PA,NA,62.591911764705884,NA,NA
15120,Allegheny County,PA,NA,NA,30.9827456864216,NA
15122,Allegheny County,PA,NA,NA,40.81020255063766,NA
15205,Allegheny County,PA,NA,NA,39.98499624906226,NA
15220,Allegheny County,PA,NA,NA,58.88972243060765,NA
15221,Allegheny County,PA,NA,NA,NA,16.155419222903884
15237,Allegheny County,PA,NA,NA,44.86121530382596,NA
15301,Washington County,PA,NA,NA,NA,12.065439672801636
15317,Washington County,PA,NA,52.75735294117647,NA,NA
15401,Fayette County,PA,10,NA,NA,NA
15501,Somerset County,PA,NA,46.69117647058824,NA,NA
15552,Somerset County,PA,NA,87.40808823529412,NA,NA
15613,Westmoreland County,PA,NA,NA,NA,26.58486707566462
15658,Westmoreland County,PA,NA,NA,NA,50.920245398773
15668,Westmoreland County,PA,NA,NA,NA,28.22085889570552
15748,Indiana County,PA,NA,78.30882352941177,NA,NA
15767,Jefferson County,PA,NA,NA,52.51312828207052,NA
15801,Clearfield County,PA,NA,NA,23.85596399099775,3.6809815950920246
15906,Cambria County,PA,NA,47.150735294117645,52.96324081020255,NA
16125,Mercer County,PA,NA,30.422794117647058,NA,10.429447852760736
16146,Mercer County,PA,NA,NA,61.06526631657915,NA
16242,Clarion County,PA,NA,85.47794117647058,NA,NA
16354,Crawford County,PA,NA,NA,51.98799699924981,NA
16504,Erie County,PA,NA,NA,57.689422355588896,NA
16509,Erie County,PA,NA,27.205882352941174,23.40585146286572,NA
16601,Blair County,PA,NA,28.125,NA,NA
16830,Clearfield County,PA,NA,22.610294117647058,NA,NA
16833,Clearfield County,PA,59.599999999999994,NA,NA,NA
16866,Centre County,PA,NA,NA,NA,40.49079754601227
16901,Tioga County,PA,NA,NA,58.81470367591898,NA
17013,Cumberland County,PA,68.4,NA,NA,NA
17015,Cumberland County,PA,NA,NA,83.42085521380345,NA
17020,Perry County,PA,NA,NA,56.414103525881465,NA
17022,Lancaster County,PA,6,NA,NA,NA
17033,Dauphin County,PA,NA,26.47058823529412,NA,NA
17038,Lebanon County,PA,NA,64.70588235294117,NA,NA
17042,Lebanon County,PA,NA,NA,NA,17.995910020449898
17044,Mifflin County,PA,NA,33.731617647058826,NA,NA
17046,Lebanon County,PA,NA,46.41544117647059,NA,NA
17078,Lebanon County,PA,NA,NA,29.557389347336834,6.134969325153374
17113,Dauphin County,PA,NA,81.89338235294117,NA,NA
17201,Franklin County,PA,NA,NA,41.11027756939235,NA
17225,Franklin County,PA,NA,NA,68.71717929482371,NA
17233,Fulton County,PA,NA,NA,NA,39.263803680981596
17257,Cumberland County,PA,NA,18.198529411764707,18.37959489872468,NA
17307,Adams County,PA,NA,NA,98.72468117029257,NA
17316,Adams County,PA,NA,65.16544117647058,NA,NA
17325,Adams County,PA,NA,NA,50.63765941485371,NA
17331,York County,PA,34.8,41.63602941176471,22.13053263315829,NA
17340,Adams County,PA,NA,NA,65.64141035258815,NA
17345,York County,PA,41.6,NA,60.61515378844711,NA
17347,York County,PA,87.6,NA,NA,NA
17349,York County,PA,NA,NA,60.76519129782446,NA
17356,York County,PA,NA,NA,93.39834958739685,NA
17402,York County,PA,NA,NA,6.526631657914479,NA
17403,York County,PA,NA,NA,14.928732183045762,16.56441717791411
17406,York County,PA,NA,29.136029411764707,NA,NA
17408,York County,PA,NA,NA,66.54163540885222,NA
17540,Lancaster County,PA,NA,NA,NA,65.23517382413088
17543,Lancaster County,PA,NA,NA,NA,8.384458077709612
17557,Lancaster County,PA,NA,NA,NA,37.01431492842536
17569,Lancaster County,PA,NA,NA,94.8987246811703,NA
17603,Lancaster County,PA,NA,7.9963235294117645,NA,NA
17701,Lycoming County,PA,NA,4.6875,NA,NA
17702,Lycoming County,PA,NA,66.17647058823529,NA,NA
17728,Lycoming County,PA,NA,NA,NA,98.77300613496932
17740,Lycoming County,PA,NA,NA,37.13428357089272,NA
17801,Northumberland County,PA,NA,15.808823529411764,41.710427606901725,NA
17814,Columbia County,PA,NA,NA,91.67291822955738,NA
17820,Columbia County,PA,NA,NA,NA,88.75255623721881
17821,Montour County,PA,46,65.34926470588235,83.12078019504877,NA
17824,Northumberland County,PA,66.8,NA,NA,NA
17834,Northumberland County,PA,NA,NA,NA,97.13701431492842
17842,Snyder County,PA,NA,NA,NA,63.59918200408998
17847,Northumberland County,PA,NA,NA,78.54463615903975,NA
17870,Snyder County,PA,64.8,NA,83.04576144036008,NA
17901,Schuylkill County,PA,54.400000000000006,NA,49.512378094523626,NA
18013,Northampton County,PA,NA,NA,29.332333083270818,40.081799591002046
18017,Northampton County,PA,NA,5.88235294117647,NA,NA
18018,Lehigh County,PA,NA,17.922794117647058,NA,NA
18020,Northampton County,PA,NA,NA,21.230307576894223,NA
18036,Lehigh County,PA,NA,NA,24.15603900975244,62.57668711656442
18040,Northampton County,PA,NA,NA,62.04051012753188,NA
18042,Northampton County,PA,NA,5.330882352941177,NA,NA
18049,Lehigh County,PA,NA,NA,NA,80.98159509202453
18051,Lehigh County,PA,99.2,NA,NA,NA
18064,Northampton County,PA,NA,NA,NA,42.740286298568506
18067,Northampton County,PA,89.2,NA,20.705176294073517,NA
18102,Lehigh County,PA,NA,26.746323529411764,40.21005251312828,NA
18103,Lehigh County,PA,NA,NA,21.8304576144036,NA
18104,Lehigh County,PA,NA,NA,74.71867966991748,NA
18109,Lehigh County,PA,NA,20.496323529411764,NA,NA
18235,Carbon County,PA,NA,25.275735294117645,NA,29.447852760736197
18252,Schuylkill County,PA,NA,NA,NA,47.239263803680984
18301,Monroe County,PA,NA,NA,67.81695423855963,NA
18324,Pike County,PA,NA,NA,NA,95.91002044989774
18353,Monroe County,PA,NA,NA,48.38709677419355,NA
18431,Wayne County,PA,NA,52.84926470588235,39.90997749437359,NA
18452,Lackawanna County,PA,NA,NA,NA,77.30061349693251
18508,Lackawanna County,PA,NA,NA,32.25806451612903,NA
18603,Columbia County,PA,NA,11.305147058823529,57.464366091522876,NA
18612,Luzerne County,PA,NA,NA,34.433608402100525,NA
18706,Luzerne County,PA,NA,NA,24.756189047261813,NA
18801,Susquehanna County,PA,NA,NA,96.32408102025506,NA
18810,Bradford County,PA,NA,73.98897058823529,NA,NA
18822,Susquehanna County,PA,NA,86.48897058823529,NA,NA
18840,Bradford County,PA,NA,54.04411764705882,NA,NA
18944,Bucks County,PA,NA,NA,91.14778694673669,NA
18951,Bucks County,PA,NA,NA,96.47411852963242,NA
19006,Montgomery County,PA,NA,40.44117647058824,NA,NA
19013,Delaware County,PA,NA,NA,8.927231807951989,NA
19018,Delaware County,PA,NA,21.415441176470587,NA,NA
19023,Delaware County,PA,NA,NA,40.58514628657164,NA
19027,Montgomery County,PA,NA,NA,24.5311327831958,48.261758691206545
19033,Delaware County,PA,NA,NA,66.39159789947486,NA
19063,Delaware County,PA,NA,89.88970588235294,49.287321830457614,NA
19067,Bucks County,PA,NA,NA,4.726181545386346,NA
19073,Delaware County,PA,NA,NA,NA,15.746421267893659
19087,Chester County,PA,NA,68.75,NA,NA
19106,Philadelphia County,PA,NA,93.84191176470588,NA,NA
19115,Philadelphia County,PA,NA,69.30147058823529,NA,NA
19119,Philadelphia County,PA,NA,73.34558823529412,NA,NA
19120,Philadelphia County,PA,NA,NA,69.61740435108777,NA
19128,Philadelphia County,PA,NA,42.830882352941174,NA,NA
19131,Philadelphia County,PA,NA,NA,1.5753938484621155,NA
19132,Philadelphia County,PA,NA,5.698529411764706,NA,NA
19134,Philadelphia County,PA,NA,3.308823529411765,NA,NA
19139,Philadelphia County,PA,NA,3.768382352941176,89.57239309827457,NA
19140,Philadelphia County,PA,NA,NA,5.85146286571643,NA
19141,Philadelphia County,PA,NA,NA,10.502625656414104,NA
19142,Philadelphia County,PA,NA,NA,29.40735183795949,NA
19143,Philadelphia County,PA,NA,NA,0.7501875468867216,NA
19144,Philadelphia County,PA,NA,4.779411764705882,6.22655663915979,45.39877300613497
19145,Philadelphia County,PA,NA,NA,48.98724681170293,NA
19146,Philadelphia County,PA,NA,NA,87.54688672168042,NA
19148,Philadelphia County,PA,NA,43.75,NA,NA
19149,Philadelphia County,PA,NA,NA,21.080270067516878,NA
19150,Philadelphia County,PA,NA,NA,17.179294823705927,NA
19151,Philadelphia County,PA,NA,35.47794117647059,NA,NA
19301,Chester County,PA,NA,86.67279411764706,NA,NA
19333,Chester County,PA,71.2,NA,NA,77.91411042944786
19390,Chester County,PA,41.6,NA,NA,NA
19401,Montgomery County,PA,NA,45.12867647058824,NA,NA
19403,Montgomery County,PA,NA,NA,38.48462115528882,NA
19422,Montgomery County,PA,NA,90.99264705882352,25.506376594148538,NA
19428,Montgomery County,PA,NA,38.23529411764706,58.43960990247562,NA
19444,Montgomery County,PA,NA,NA,76.14403600900225,NA
19446,Montgomery County,PA,NA,NA,55.21380345086272,NA
19512,Berks County,PA,NA,51.74632352941176,NA,NA
19522,Berks County,PA,NA,NA,93.47336834208552,NA
19525,Montgomery County,PA,NA,88.97058823529412,NA,NA
19530,Berks County,PA,NA,NA,98.04951237809453,NA
19560,Berks County,PA,NA,71.32352941176471,NA,NA
19565,Berks County,PA,NA,NA,48.762190547636905,NA
19602,Berks County,PA,NA,NA,50.71267816954238,NA
19606,Berks County,PA,NA,NA,NA,97.34151329243353
19607,Berks County,PA,NA,NA,12.978244561140285,NA
19608,Berks County,PA,NA,NA,16.579144786196547,NA
02809,Bristol County,RI,NA,NA,54.16354088522131,NA
02831,Providence County,RI,NA,92.83088235294117,NA,NA
02840,Newport County,RI,NA,NA,66.91672918229557,NA
02842,Newport County,RI,NA,69.11764705882352,NA,NA
02879,Washington County,RI,NA,57.99632352941176,NA,NA
02891,Washington County,RI,NA,NA,NA,20.040899795501023
02906,Providence County,RI,NA,NA,30.607651912978245,NA
02910,Providence County,RI,NA,NA,50.71267816954238,NA
02915,Providence County,RI,NA,82.8125,NA,NA
29016,Richland County,SC,80,NA,NA,NA
29072,Lexington County,SC,17.2,66.26838235294117,NA,NA
29102,Clarendon County,SC,NA,NA,39.0847711927982,NA
29138,Saluda County,SC,NA,NA,60.46511627906976,NA
29148,Clarendon County,SC,NA,83.08823529411765,NA,NA
29170,Lexington County,SC,60.8,NA,NA,NA
29210,Richland County,SC,NA,NA,NA,39.46830265848671
29307,Spartanburg County,SC,NA,NA,54.76369092273068,NA
29316,Spartanburg County,SC,NA,NA,53.18829707426856,NA
29323,Spartanburg County,SC,NA,NA,66.0165041260315,NA
29356,Spartanburg County,SC,NA,NA,NA,95.0920245398773
29360,Laurens County,SC,74.8,NA,NA,NA
29372,Spartanburg County,SC,NA,NA,82.2205551387847,NA
29407,Charleston County,SC,NA,NA,NA,15.132924335378323
29410,Berkeley County,SC,NA,NA,NA,82.0040899795501
29412,Charleston County,SC,NA,NA,14.103525881470366,NA
29414,Charleston County,SC,NA,NA,17.779444861215303,56.23721881390593
29420,Dorchester County,SC,NA,NA,86.64666166541636,NA
29445,Berkeley County,SC,NA,NA,18.6046511627907,NA
29449,Charleston County,SC,NA,NA,84.17104276069017,NA
29455,Charleston County,SC,NA,NA,23.48087021755439,NA
29464,Charleston County,SC,NA,36.029411764705884,NA,14.314928425357873
29466,Charleston County,SC,NA,40.99264705882353,NA,NA
29488,Colleton County,SC,NA,NA,NA,40.695296523517385
29501,Florence County,SC,40.400000000000006,25.45955882352941,NA,NA
29506,Florence County,SC,NA,36.94852941176471,39.45986496624156,NA
29520,Chesterfield County,SC,NA,NA,89.72243060765192,NA
29526,Horry County,SC,NA,NA,48.012003000750184,NA
29527,Horry County,SC,20,41.45220588235294,NA,NA
29560,Florence County,SC,NA,NA,51.68792198049512,NA
29565,Dillon County,SC,NA,NA,80.42010502625656,NA
29568,Horry County,SC,NA,NA,74.86871717929482,NA
29575,Horry County,SC,NA,NA,NA,36.809815950920246
29576,Horry County,SC,NA,NA,8.252063015753938,NA
29581,Horry County,SC,NA,NA,NA,88.75255623721881
29588,Horry County,SC,NA,NA,7.051762940735183,NA
29609,Greenville County,SC,NA,32.8125,NA,NA
29617,Greenville County,SC,NA,NA,25.35633908477119,NA
29625,Anderson County,SC,NA,26.5625,NA,NA
29631,Pickens County,SC,NA,NA,98.1245311327832,NA
29640,Pickens County,SC,NA,63.32720588235294,NA,NA
29642,Pickens County,SC,NA,NA,11.40285071267817,NA
29644,Greenville County,SC,NA,NA,46.88672168042011,NA
29657,Pickens County,SC,NA,NA,73.89347336834209,NA
29669,Anderson County,SC,NA,52.84926470588235,45.0112528132033,NA
29680,Greenville County,SC,40,38.143382352941174,NA,NA
29681,Greenville County,SC,NA,NA,9.752438109527382,NA
29696,Oconee County,SC,NA,NA,75.24381095273819,NA
29697,Anderson County,SC,NA,NA,NA,55.010224948875255
29707,Lancaster County,SC,NA,NA,34.358589647411854,NA
29710,York County,SC,NA,NA,35.55888972243061,NA
29831,Aiken County,SC,100,NA,NA,NA
29906,Beaufort County,SC,NA,59.466911764705884,42.760690172543136,NA
57005,Minnehaha County,SD,NA,71.69117647058823,NA,NA
57042,Lake County,SD,NA,NA,NA,76.89161554192229
57105,Minnehaha County,SD,18.8,NA,NA,NA
57106,Minnehaha County,SD,NA,NA,54.38859714928732,NA
57108,Lincoln County,SD,NA,54.50367647058824,NA,NA
57110,Minnehaha County,SD,NA,99.90808823529412,NA,NA
57301,Davison County,SD,NA,NA,NA,23.92638036809816
57350,Beadle County,SD,NA,NA,55.28882220555139,NA
57501,Hughes County,SD,NA,NA,95.12378094523632,NA
57703,Pennington County,SD,NA,NA,NA,85.07157464212679
57718,Meade County,SD,NA,99.81617647058823,NA,NA
57770,Shannon County,SD,NA,71.96691176470588,NA,NA
57783,Lawrence County,SD,NA,NA,88.22205551387847,NA
57785,Meade County,SD,93.2,NA,NA,NA
37027,Williamson County,TN,NA,NA,NA,17.38241308793456
37030,Smith County,TN,NA,65.80882352941177,NA,NA
37069,Williamson County,TN,NA,78.67647058823529,NA,NA
37075,Sumner County,TN,26,NA,NA,NA
37076,Davidson County,TN,24.4,NA,NA,32.10633946830266
37091,Marshall County,TN,NA,NA,36.084021005251316,NA
37110,Warren County,TN,NA,NA,18.229557389347338,NA
37138,Davidson County,TN,NA,43.19852941176471,NA,NA
37167,Rutherford County,TN,NA,NA,17.92948237059265,NA
37174,Williamson County,TN,41.6,NA,NA,NA
37185,Humphreys County,TN,NA,NA,69.09227306826706,NA
37203,Davidson County,TN,NA,51.470588235294116,NA,NA
37206,Davidson County,TN,NA,NA,28.35708927231808,NA
37211,Davidson County,TN,NA,NA,13.12828207051763,NA
37321,Rhea County,TN,NA,79.77941176470588,72.46811702925731,NA
37329,McMinn County,TN,NA,68.38235294117648,NA,NA
37334,Lincoln County,TN,NA,NA,50.56264066016504,NA
37357,Warren County,TN,NA,79.87132352941177,NA,NA
37377,Hamilton County,TN,NA,NA,NA,89.57055214723927
37387,Grundy County,TN,NA,94.20955882352942,NA,NA
37415,Hamilton County,TN,NA,NA,42.385596399099775,NA
37421,Hamilton County,TN,NA,NA,20.630157539384847,NA
37604,Washington County,TN,NA,NA,40.51012753188297,86.9120654396728
37620,Sullivan County,TN,NA,NA,NA,40.899795501022496
37643,Carter County,TN,NA,33.54779411764706,NA,NA
37659,Washington County,TN,NA,29.59558823529412,NA,NA
37660,Sullivan County,TN,NA,7.2610294117647065,45.61140285071268,NA
37692,Unicoi County,TN,97.6,NA,NA,NA
37701,Blount County,TN,NA,NA,NA,81.59509202453987
37737,Blount County,TN,NA,NA,95.64891222805701,NA
37742,Loudon County,TN,NA,NA,84.62115528882221,NA
37743,Greene County,TN,NA,NA,NA,10.838445807770961
37748,Roane County,TN,NA,NA,21.005251312828207,NA
37771,Loudon County,TN,NA,NA,40.58514628657164,NA
37774,Loudon County,TN,NA,NA,16.954238559639908,NA
37803,Blount County,TN,21.6,NA,NA,NA
37821,Cocke County,TN,NA,12.316176470588236,NA,NA
37825,Claiborne County,TN,NA,NA,69.01725431357839,NA
37849,Knox County,TN,NA,62.408088235294116,NA,NA
37857,Hawkins County,TN,NA,27.75735294117647,NA,NA
37865,Sevier County,TN,NA,NA,62.49062265566392,NA
37874,Monroe County,TN,NA,32.169117647058826,NA,NA
37876,Sevier County,TN,NA,56.89338235294118,NA,NA
37885,Monroe County,TN,NA,NA,92.87321830457614,NA
37909,Knox County,TN,NA,NA,NA,94.06952965235173
37919,Knox County,TN,NA,NA,NA,32.31083844580777
37921,Knox County,TN,NA,23.253676470588236,NA,NA
37922,Knox County,TN,NA,46.50735294117647,NA,NA
37938,Knox County,TN,NA,62.04044117647059,48.687171792948234,91.20654396728017
38011,Tipton County,TN,NA,93.47426470588235,NA,NA
38016,Shelby County,TN,NA,NA,33.908477119279816,NA
38024,Dyer County,TN,NA,NA,24.90622655663916,NA
38063,Lauderdale County,TN,NA,35.661764705882355,NA,NA
38106,Shelby County,TN,NA,13.419117647058822,NA,NA
38111,Shelby County,TN,NA,16.81985294117647,NA,NA
38201,Carroll County,TN,NA,68.47426470588235,NA,NA
38301,Madison County,TN,NA,NA,37.05926481620405,NA
38305,Madison County,TN,NA,8.088235294117647,48.612153038259564,NA
38310,McNairy County,TN,NA,72.33455882352942,NA,NA
38343,Gibson County,TN,NA,NA,67.96699174793699,NA
38344,Carroll County,TN,NA,63.14338235294118,NA,NA
38358,Gibson County,TN,NA,NA,NA,75.66462167689161
38372,Hardin County,TN,NA,NA,33.458364591147784,NA
38401,Maury County,TN,NA,NA,24.60615153788447,NA
38464,Lawrence County,TN,NA,25.735294117647058,21.530382595648913,NA
38478,Giles County,TN,NA,NA,46.51162790697674,NA
38485,Wayne County,TN,NA,NA,80.64516129032258,NA
38501,Putnam County,TN,NA,NA,11.77794448612153,NA
38506,Putnam County,TN,NA,NA,60.99024756189048,NA
38555,Cumberland County,TN,NA,NA,27.45686421605401,NA
38570,Overton County,TN,NA,NA,51.68792198049512,NA
38571,Cumberland County,TN,NA,NA,61.9654913728432,NA
38583,White County,TN,NA,NA,NA,22.903885480572598
75009,Collin County,TX,NA,NA,79.14478619654913,NA
75033,,TX,NA,NA,NA,93.86503067484662
75034,Denton County,TX,NA,NA,20.180045011252815,76.07361963190185
75038,Dallas County,TX,NA,52.02205882352941,91.59789947486871,NA
75043,Dallas County,TX,NA,NA,75.91897974493624,NA
75052,Dallas County,TX,NA,NA,29.707426856714182,NA
75061,Dallas County,TX,NA,NA,18.829707426856714,NA
75063,Dallas County,TX,NA,NA,98.94973743435858,NA
75067,Denton County,TX,NA,NA,70.8927231807952,NA
75068,Denton County,TX,NA,88.87867647058823,NA,NA
75069,Collin County,TX,NA,NA,NA,24.130879345603272
75075,Collin County,TX,NA,NA,NA,36.60531697341513
75081,Dallas County,TX,NA,60.29411764705882,NA,NA
75087,Rockwall County,TX,NA,NA,91.22280570142536,NA
75089,Dallas County,TX,NA,95.95588235294117,NA,NA
75092,Grayson County,TX,48,NA,NA,NA
75103,Van Zandt County,TX,NA,NA,35.783945986496626,NA
75104,Dallas County,TX,NA,NA,NA,94.68302658486708
75115,Dallas County,TX,NA,NA,40.060015003750934,NA
75134,Dallas County,TX,NA,NA,89.94748687171793,NA
75143,Henderson County,TX,NA,NA,43.58589647411853,NA
75146,Dallas County,TX,NA,NA,46.96174043510878,NA
75147,Kaufman County,TX,NA,NA,72.768192048012,NA
75154,Ellis County,TX,NA,NA,28.95723930982746,NA
75156,Henderson County,TX,NA,88.32720588235294,NA,51.124744376278116
75159,Dallas County,TX,NA,NA,84.77119279819955,NA
75161,Kaufman County,TX,NA,NA,95.34883720930233,NA
75165,Ellis County,TX,NA,74.90808823529412,NA,NA
75169,Van Zandt County,TX,NA,62.22426470588235,NA,NA
75206,Dallas County,TX,NA,NA,NA,98.3640081799591
75208,Dallas County,TX,NA,NA,68.4921230307577,NA
75210,Dallas County,TX,NA,85.38602941176471,84.69617404351088,NA
75216,Dallas County,TX,4.8,NA,26.70667666916729,NA
75227,Dallas County,TX,NA,NA,24.381095273818453,NA
75228,Dallas County,TX,NA,87.95955882352942,98.49962490622656,NA
75229,Dallas County,TX,NA,36.12132352941176,NA,NA
75230,Dallas County,TX,72.39999999999999,NA,NA,NA
75237,Dallas County,TX,NA,36.580882352941174,90.54763690922731,NA
75240,Dallas County,TX,NA,NA,84.92123030757689,NA
75243,Dallas County,TX,NA,NA,NA,94.47852760736197
75248,Dallas County,TX,NA,49.080882352941174,NA,NA
75252,Collin County,TX,NA,NA,97.67441860465115,NA
75440,Rains County,TX,NA,80.14705882352942,84.39609902475618,NA
75455,Titus County,TX,NA,NA,33.53338334583646,NA
75482,Hopkins County,TX,NA,NA,82.44561140285072,NA
75647,Gregg County,TX,NA,53.125,NA,NA
75652,Rusk County,TX,NA,61.12132352941176,NA,NA
75654,Rusk County,TX,82.8,NA,NA,NA
75672,Harrison County,TX,52,NA,NA,NA
75686,Camp County,TX,NA,72.15073529411765,NA,NA
75701,Smith County,TX,NA,NA,77.94448612153039,NA
75766,Cherokee County,TX,NA,28.49264705882353,NA,NA
75773,Wood County,TX,NA,62.04044117647059,NA,NA
75791,Smith County,TX,NA,55.51470588235294,NA,NA
75839,Anderson County,TX,92,NA,NA,NA
75904,Angelina County,TX,NA,78.125,NA,NA
75961,Nacogdoches County,TX,NA,57.35294117647059,93.99849962490623,NA
76006,Tarrant County,TX,NA,78.95220588235294,NA,NA
76012,Tarrant County,TX,NA,NA,37.95948987246812,NA
76016,Tarrant County,TX,NA,NA,16.65416354088522,NA
76020,Tarrant County,TX,NA,23.52941176470588,20.78019504876219,NA
76023,Wise County,TX,NA,NA,96.84921230307577,NA
76028,Johnson County,TX,NA,NA,2.3255813953488373,NA
76034,Tarrant County,TX,NA,NA,46.66166541635409,NA
76039,Tarrant County,TX,NA,NA,46.13653413353339,NA
76048,Hood County,TX,NA,NA,53.26331582895724,33.12883435582822
76049,Hood County,TX,95.19999999999999,NA,NA,NA
76051,Tarrant County,TX,NA,NA,NA,54.396728016359916
76063,Tarrant County,TX,NA,76.47058823529412,NA,NA
76073,Wise County,TX,86.8,NA,NA,NA
76105,Tarrant County,TX,NA,14.88970588235294,95.9489872468117,NA
76106,Tarrant County,TX,NA,NA,14.328582145536384,NA
76112,Tarrant County,TX,NA,11.121323529411764,NA,NA
76116,Tarrant County,TX,8,NA,NA,44.171779141104295
76131,Tarrant County,TX,NA,NA,75.09377344336085,NA
76133,Tarrant County,TX,NA,58.91544117647059,NA,NA
76137,Tarrant County,TX,NA,70.58823529411765,NA,NA
76164,Tarrant County,TX,NA,60.66176470588235,80.94523630907727,NA
76208,Denton County,TX,NA,50.82720588235294,NA,NA
76227,Denton County,TX,NA,NA,62.64066016504126,NA
76244,Tarrant County,TX,NA,NA,90.847711927982,NA
76248,Tarrant County,TX,NA,54.41176470588235,NA,NA
76255,Montague County,TX,NA,NA,NA,97.95501022494888
76308,Wichita County,TX,NA,73.62132352941177,NA,NA
76310,Wichita County,TX,NA,NA,85.22130532633159,NA
76458,Jack County,TX,NA,95.03676470588235,NA,NA
76501,Bell County,TX,NA,NA,54.08852213053264,NA
76504,Bell County,TX,NA,47.42647058823529,1.275318829707427,NA
76520,Milam County,TX,NA,NA,NA,26.993865030674847
76543,Bell County,TX,NA,21.96691176470588,13.203300825206302,27.811860940695297
76548,Bell County,TX,NA,NA,NA,32.92433537832311
76574,Williamson County,TX,NA,NA,15.078769692423105,NA
76655,McLennan County,TX,NA,NA,91.82295573893472,NA
76657,McLennan County,TX,NA,NA,NA,68.9161554192229
76661,Falls County,TX,NA,NA,71.64291072768192,NA
76692,Hill County,TX,NA,NA,43.360840210052515,NA
76706,McLennan County,TX,NA,57.44485294117647,NA,NA
76711,McLennan County,TX,NA,NA,99.02475618904725,NA
76712,McLennan County,TX,56.8,NA,NA,NA
77004,Harris County,TX,NA,22.058823529411764,NA,NA
77005,Harris County,TX,NA,63.41911764705882,NA,NA
77007,Harris County,TX,NA,NA,92.27306826706678,NA
77008,Harris County,TX,NA,52.29779411764706,89.12228057014254,NA
77009,Harris County,TX,NA,37.775735294117645,NA,NA
77011,Harris County,TX,60,NA,NA,NA
77021,Harris County,TX,NA,28.952205882352942,NA,NA
77025,Harris County,TX,NA,94.85294117647058,NA,NA
77026,Harris County,TX,NA,NA,39.0847711927982,NA
77027,Harris County,TX,NA,NA,59.33983495873969,NA
77028,Harris County,TX,NA,42.095588235294116,NA,NA
77030,Harris County,TX,NA,81.15808823529412,NA,99.18200408997954
77036,Harris County,TX,NA,70.03676470588235,NA,41.308793456032724
77041,Harris County,TX,NA,99.44852941176471,NA,85.88957055214725
77044,Harris County,TX,NA,NA,46.73668417104276,NA
77048,Harris County,TX,NA,NA,63.615903975994,NA
77051,Harris County,TX,NA,70.77205882352942,NA,NA
77053,Fort Bend County,TX,NA,NA,40.735183795948984,NA
77056,Harris County,TX,NA,NA,82.67066766691673,NA
77064,Harris County,TX,NA,NA,60.09002250562641,NA
77066,Harris County,TX,NA,NA,42.085521380345085,NA
77067,Harris County,TX,NA,64.98161764705883,NA,NA
77073,Harris County,TX,NA,NA,71.9429857464366,NA
77076,Harris County,TX,NA,NA,51.53788447111778,NA
77077,Harris County,TX,NA,36.76470588235294,21.980495123780948,NA
77079,Harris County,TX,NA,NA,43.360840210052515,NA
77082,Harris County,TX,NA,NA,25.881470367591895,NA
77084,Harris County,TX,NA,NA,44.63615903975994,NA
77087,Harris County,TX,NA,NA,88.29707426856714,NA
77088,Harris County,TX,NA,NA,23.55588897224306,NA
77089,Harris County,TX,NA,NA,23.030757689422355,NA
77092,Harris County,TX,NA,46.783088235294116,NA,87.32106339468302
77095,Harris County,TX,NA,14.154411764705882,32.3330832708177,NA
77096,Harris County,TX,34.4,NA,NA,69.32515337423312
77304,Montgomery County,TX,NA,52.48161764705882,NA,NA
77346,Harris County,TX,NA,NA,88.52213053263316,NA
77351,Polk County,TX,NA,65.71691176470588,NA,NA
77354,Montgomery County,TX,NA,NA,76.66916729182296,NA
77365,Montgomery County,TX,NA,NA,46.06151537884471,NA
77377,Harris County,TX,NA,36.213235294117645,NA,NA
77379,Harris County,TX,NA,19.393382352941178,NA,11.65644171779141
77385,Montgomery County,TX,NA,51.470588235294116,90.47261815453864,NA
77388,Harris County,TX,NA,89.33823529411765,NA,NA
77396,Harris County,TX,NA,30.238970588235293,NA,NA
77406,Fort Bend County,TX,NA,NA,20.855213803450862,67.89366053169734
77414,Matagorda County,TX,NA,NA,NA,42.12678936605317
77423,Waller County,TX,NA,NA,85.89647411852962,NA
77429,Harris County,TX,NA,NA,3.0007501875468865,21.881390593047033
77433,Harris County,TX,19.6,NA,NA,NA
77441,Fort Bend County,TX,NA,92.92279411764706,NA,NA
77445,Waller County,TX,NA,88.14338235294117,NA,NA
77469,Fort Bend County,TX,NA,NA,79.81995498874718,NA
77477,Fort Bend County,TX,NA,NA,29.48237059264816,NA
77479,Fort Bend County,TX,9.6,68.56617647058823,NA,71.37014314928425
77486,Brazoria County,TX,NA,NA,73.0682670667667,NA
77494,Fort Bend County,TX,NA,67.37132352941177,NA,NA
77511,Brazoria County,TX,NA,55.23897058823529,NA,NA
77514,Chambers County,TX,NA,80.60661764705883,NA,NA
77515,Brazoria County,TX,NA,40.80882352941176,53.41335333833458,NA
77539,Galveston County,TX,NA,15.716911764705882,NA,NA
77546,Galveston County,TX,70.39999999999999,NA,7.651912978244561,NA
77550,Galveston County,TX,NA,69.66911764705883,9.527381845461365,NA
77551,Galveston County,TX,NA,50.27573529411765,NA,NA
77566,Brazoria County,TX,NA,NA,31.657914478619652,NA
77573,Galveston County,TX,1.6,NA,NA,NA
77575,Liberty County,TX,NA,56.43382352941176,NA,NA
77581,Brazoria County,TX,NA,53.216911764705884,71.26781695423855,NA
77584,Brazoria County,TX,NA,8.455882352941178,NA,62.16768916155419
77586,Harris County,TX,NA,40.533088235294116,NA,NA
77590,Galveston County,TX,NA,34.92647058823529,NA,NA
77642,Jefferson County,TX,NA,23.06985294117647,NA,NA
77651,Jefferson County,TX,NA,78.95220588235294,NA,NA
77656,Hardin County,TX,NA,72.51838235294117,46.21155288822206,NA
77802,Brazos County,TX,NA,73.71323529411765,NA,NA
77833,Washington County,TX,NA,NA,75.31882970742686,57.46421267893661
77845,Brazos County,TX,60.4,NA,92.04801200300075,62.372188139059304
77901,Victoria County,TX,NA,19.11764705882353,NA,NA
77904,Victoria County,TX,NA,NA,25.131282820705174,NA
77954,DeWitt County,TX,75.6,NA,NA,NA
77957,Jackson County,TX,NA,NA,90.32258064516128,NA
77979,Calhoun County,TX,NA,62.5,NA,NA
78114,Wilson County,TX,NA,NA,86.57164291072769,NA
78155,Guadalupe County,TX,NA,18.566176470588236,NA,NA
78201,Bexar County,TX,NA,NA,13.728432108027006,NA
78210,Bexar County,TX,50.8,NA,NA,NA
78213,Bexar County,TX,NA,38.32720588235294,NA,NA
78217,Bexar County,TX,NA,NA,77.26931732933234,NA
78218,Bexar County,TX,NA,67.92279411764706,NA,NA
78224,Bexar County,TX,NA,50.45955882352941,NA,NA
78230,Bexar County,TX,NA,NA,NA,83.640081799591
78240,Bexar County,TX,NA,35.56985294117647,NA,31.697341513292432
78245,Bexar County,TX,NA,72.61029411764706,NA,NA
78253,Bexar County,TX,69.6,NA,NA,NA
78412,Nueces County,TX,NA,NA,NA,66.87116564417178
78501,Hidalgo County,TX,28.799999999999997,38.970588235294116,NA,NA
78504,Hidalgo County,TX,NA,31.34191176470588,NA,NA
78542,Hidalgo County,TX,5.2,NA,NA,NA
78613,Williamson County,TX,NA,27.02205882352941,NA,NA
78628,Williamson County,TX,NA,NA,NA,3.2719836400818
78633,Williamson County,TX,NA,NA,NA,0.2044989775051125
78634,Williamson County,TX,NA,NA,76.29407351837959,NA
78654,Burnet County,TX,NA,NA,27.156789197299325,NA
78704,Travis County,TX,NA,58.18014705882353,NA,NA
78717,Williamson County,TX,NA,NA,83.34583645911478,NA
78749,Travis County,TX,NA,NA,86.49662415603902,NA
78758,Travis County,TX,NA,NA,67.29182295573894,NA
78801,Uvalde County,TX,NA,NA,46.21155288822206,NA
78834,Dimmit County,TX,NA,82.72058823529412,NA,NA
78839,Zavala County,TX,NA,86.12132352941177,NA,NA
78942,Lee County,TX,NA,NA,87.09677419354838,NA
78956,Fayette County,TX,NA,NA,83.94598649662416,NA
79107,Potter County,TX,NA,NA,38.25956489122281,NA
79201,Childress County,TX,NA,NA,NA,71.77914110429448
79404,Lubbock County,TX,NA,91.17647058823529,NA,NA
79412,Lubbock County,TX,NA,82.44485294117648,NA,NA
79701,Midland County,TX,NA,75.45955882352942,NA,NA
79705,Midland County,TX,13.200000000000001,NA,23.78094523630908,NA
79706,Midland County,TX,15.2,66.08455882352942,NA,NA
79714,Andrews County,TX,NA,NA,54.91372843210802,NA
79761,Ector County,TX,NA,NA,41.410352588147035,NA
79772,Reeves County,TX,76,NA,NA,NA
79782,Martin County,TX,NA,NA,96.02400600150037,NA
79838,El Paso County,TX,NA,94.48529411764706,NA,NA
79912,El Paso County,TX,14.000000000000002,NA,NA,21.063394683026583
79927,El Paso County,TX,NA,NA,73.89347336834209,NA
79928,El Paso County,TX,NA,40.900735294117645,NA,NA
79930,El Paso County,TX,NA,NA,59.489872468117035,NA
79932,El Paso County,TX,NA,72.42647058823529,NA,NA
79935,El Paso County,TX,NA,NA,94.44861215303825,NA
79938,El Paso County,TX,12.4,NA,NA,NA
84037,Davis County,UT,NA,59.00735294117647,NA,NA
84041,Davis County,UT,NA,NA,73.74343585896474,NA
84043,Utah County,UT,35.6,NA,53.63840960240061,NA
84044,Salt Lake County,UT,NA,NA,NA,94.27402862985686
84047,Salt Lake County,UT,NA,NA,NA,59.100204498977504
84081,Salt Lake County,UT,NA,24.90808823529412,NA,NA
84084,Salt Lake County,UT,NA,NA,59.78994748687172,NA
84092,Salt Lake County,UT,NA,56.61764705882353,31.50787696924231,NA
84093,Salt Lake County,UT,NA,NA,NA,52.965235173824134
84095,Salt Lake County,UT,70,NA,NA,NA
84098,Summit County,UT,NA,NA,33.908477119279816,73.00613496932516
84105,Salt Lake County,UT,NA,NA,49.81245311327832,NA
84106,Salt Lake County,UT,53.6,57.904411764705884,NA,NA
84109,Salt Lake County,UT,NA,NA,NA,27.198364008179958
84116,Salt Lake County,UT,NA,NA,88.1470367591898,NA
84117,Salt Lake County,UT,NA,NA,52.13803450862715,NA
84118,Salt Lake County,UT,NA,57.53676470588235,NA,NA
84341,Cache County,UT,NA,73.06985294117648,NA,NA
84737,Washington County,UT,NA,NA,49.13728432108027,NA
84770,Washington County,UT,NA,NA,NA,78.7321063394683
84790,Washington County,UT,NA,NA,8.852213053263316,NA
05301,Windham County,VT,NA,NA,49.437359339834956,NA
05443,Addison County,VT,NA,NA,61.29032258064516,NA
05452,Chittenden County,VT,NA,NA,56.114028507126775,NA
05641,Washington County,VT,63.2,NA,20.4801200300075,NA
05819,Caledonia County,VT,NA,NA,82.7456864216054,NA
05855,Orleans County,VT,NA,NA,NA,97.75051124744377
20109,Prince William County,VA,3.5999999999999996,NA,NA,NA
20136,Prince William County,VA,NA,59.19117647058824,74.643660915228807,NA
20151,Fairfax County,VA,NA,NA,NA,84.04907975460122
20155,Prince William County,VA,NA,50.64338235294118,NA,NA
20187,Fauquier County,VA,NA,70.12867647058823,NA,NA
22066,Fairfax County,VA,NA,NA,NA,93.25153374233128
22203,Arlington County,VA,NA,NA,62.94073518379595,NA
22206,Arlington County,VA,NA,48.345588235294116,NA,NA
22207,Arlington County,VA,NA,NA,NA,79.34560327198365
22306,Fairfax County,VA,NA,23.34558823529412,NA,NA
22314,Alexandria city,VA,NA,NA,36.00900225056264,NA
22630,Warren County,VA,NA,19.301470588235293,NA,NA
22655,Frederick County,VA,NA,48.98897058823529,NA,NA
22727,Madison County,VA,NA,NA,NA,72.80163599182005
22801,Harrisonburg city,VA,NA,34.74264705882353,NA,NA
22802,Harrisonburg city,VA,NA,18.65808823529412,NA,NA
22812,Rockingham County,VA,NA,88.41911764705883,NA,NA
22849,Page County,VA,NA,86.85661764705883,NA,NA
22851,Page County,VA,NA,74.54044117647058,NA,NA
22901,Albemarle County,VA,NA,55.97426470588235,NA,NA
22902,Charlottesville city,VA,NA,NA,23.1807951987997,NA
22980,Waynesboro city,VA,NA,NA,2.625656414103526,NA
23002,Amelia County,VA,NA,NA,NA,90.59304703476482
23059,Henrico County,VA,NA,NA,52.288072018004506,NA
23060,Henrico County,VA,NA,89.70588235294117,NA,NA
23089,New Kent County,VA,NA,NA,96.62415603900976,NA
23117,Louisa County,VA,NA,71.13970588235294,NA,NA
23181,King William County,VA,NA,NA,90.17254313578394,NA
23185,James City County,VA,NA,NA,NA,0.81799591002045
23188,James City County,VA,NA,NA,27.831957989497376,NA
23223,Henrico County,VA,NA,15.073529411764705,NA,NA
23224,Richmond city,VA,NA,60.38602941176471,NA,45.194274028629856
23225,Richmond city,VA,NA,11.580882352941178,NA,56.032719836400815
23231,Henrico County,VA,NA,NA,37.28432108027007,NA
23235,Chesterfield County,VA,NA,NA,NA,19.631901840490798
23325,Chesapeake city,VA,NA,NA,47.56189047261816,NA
23435,Suffolk city,VA,NA,NA,NA,69.93865030674846
23451,Virginia Beach city,VA,NA,NA,NA,3.885480572597137
23452,Virginia Beach city,VA,NA,NA,58.139534883720934,NA
23454,Virginia Beach city,VA,NA,NA,30.307576894223555,NA
23462,Virginia Beach city,VA,NA,NA,NA,5.930470347648262
23518,Norfolk city,VA,NA,34.283088235294116,NA,NA
23606,Newport News city,VA,NA,42.1875,NA,NA
23666,Hampton city,VA,NA,NA,7.1267816954238565,NA
23703,Portsmouth city,VA,NA,NA,76.96924231057764,NA
23803,Petersburg city,VA,NA,NA,10.127531882970743,NA
23832,Chesterfield County,VA,NA,NA,79.2198049512378,NA
23834,Colonial Heights city,VA,NA,NA,NA,46.62576687116564
23851,Franklin city,VA,NA,NA,36.90922730682671,NA
24012,Roanoke city,VA,20.8,67.73897058823529,NA,NA
24013,Roanoke city,VA,72.8,NA,NA,NA
24019,Roanoke County,VA,57.599999999999994,NA,19.72993248312078,NA
24121,Bedford County,VA,NA,NA,89.27231807951988,NA
24134,Giles County,VA,69.19999999999999,NA,NA,NA
24153,Salem city,VA,NA,NA,12.378094523630907,NA
24171,Patrick County,VA,NA,NA,48.31207801950488,NA
24228,Dickenson County,VA,NA,58.82352941176471,NA,NA
24244,Scott County,VA,NA,74.72426470588235,NA,NA
24317,Carroll County,VA,NA,NA,81.62040510127532,NA
24477,Augusta County,VA,NA,NA,NA,49.897750511247445
24486,Augusta County,VA,NA,99.17279411764706,NA,NA
24502,Lynchburg city,VA,NA,NA,63.99099774943736,NA
24523,Bedford County,VA,NA,NA,27.60690172543136,NA
24558,Halifax County,VA,NA,NA,NA,56.646216768916155
24590,Albemarle County,VA,NA,80.79044117647058,NA,NA
24592,Halifax County,VA,NA,22.977941176470587,NA,NA
24614,Buchanan County,VA,NA,50.73529411764706,NA,NA
98004,King County,WA,NA,NA,NA,59.918200408997954
98011,King County,WA,NA,50.18382352941176,NA,NA
98022,King County,WA,88,NA,NA,NA
98031,King County,WA,66,NA,NA,NA
98033,King County,WA,NA,54.13602941176471,NA,NA
98042,King County,WA,NA,NA,8.027006751687923,NA
98043,Snohomish County,WA,NA,64.70588235294117,NA,NA
98102,King County,WA,NA,90.16544117647058,NA,NA
98105,King County,WA,NA,NA,95.04876219054765,NA
98109,King County,WA,NA,49.81617647058824,NA,NA
98110,Kitsap County,WA,NA,83.54779411764706,NA,NA
98112,King County,WA,NA,NA,50.18754688672168,NA
98122,King County,WA,NA,48.4375,NA,NA
98133,King County,WA,NA,NA,13.87846961740435,NA
98148,King County,WA,NA,86.94852941176471,NA,NA
98198,King County,WA,NA,NA,NA,22.290388548057262
98208,Snohomish County,WA,NA,45.3125,NA,35.37832310838446
98221,Skagit County,WA,NA,NA,77.86946736684172,NA
98248,Whatcom County,WA,NA,NA,NA,76.27811860940696
98274,Skagit County,WA,NA,NA,87.8469617404351,86.70756646216769
98363,Clallam County,WA,NA,NA,58.589647411852965,NA
98368,Jefferson County,WA,NA,59.65073529411765,63.540885221305324,NA
98382,Clallam County,WA,NA,91.26838235294117,77.56939234808702,NA
98387,Pierce County,WA,12.8,NA,NA,NA
98407,Pierce County,WA,NA,NA,33.083270817704424,NA
98445,Pierce County,WA,NA,67.64705882352942,NA,NA
98502,Thurston County,WA,NA,NA,NA,34.76482617586912
98528,Mason County,WA,NA,95.77205882352942,NA,NA
98579,Thurston County,WA,NA,NA,63.91597899474869,NA
98604,Clark County,WA,NA,NA,57.389347336834206,NA
98665,Clark County,WA,NA,71.59926470588235,NA,NA
98816,Chelan County,WA,NA,NA,64.51612903225806,NA
98823,Grant County,WA,NA,NA,86.27156789197299,NA
98826,Chelan County,WA,NA,93.84191176470588,NA,NA
98848,Grant County,WA,NA,90.53308823529412,NA,NA
98902,Yakima County,WA,NA,NA,17.479369842460617,13.29243353783231
98926,Kittitas County,WA,NA,NA,NA,21.267893660531698
98930,Yakima County,WA,NA,NA,86.34658664666166,NA
98948,Yakima County,WA,NA,78.58455882352942,NA,NA
99208,Spokane County,WA,NA,NA,20.255063765941486,NA
99328,Columbia County,WA,NA,NA,89.4973743435859,NA
20001,District of Columbia,DC,NA,NA,NA,58.895705521472394
20005,District of Columbia,DC,NA,NA,NA,98.56850715746421
20010,District of Columbia,DC,NA,NA,33.908477119279816,NA
20019,District of Columbia,DC,NA,3.860294117647059,86.87171792948237,NA
20020,District of Columbia,DC,NA,2.4816176470588234,NA,NA
20032,District of Columbia,DC,NA,83.18014705882352,NA,NA
24747,Mercer County,WV,NA,97.88602941176471,NA,NA
24901,Greenbrier County,WV,NA,NA,NA,66.25766871165644
25143,Kanawha County,WV,NA,NA,NA,57.259713701431494
25271,Jackson County,WV,NA,NA,NA,49.284253578732105
25276,Roane County,WV,NA,NA,55.36384096024006,NA
25320,Kanawha County,WV,NA,NA,81.77044261065267,NA
25541,Cabell County,WV,NA,56.98529411764706,NA,NA
25550,Mason County,WV,NA,NA,22.280570142535634,NA
25705,Cabell County,WV,NA,NA,90.39759939984997,NA
26003,Ohio County,WV,NA,NA,1.2003000750187547,19.222903885480573
26041,Marshall County,WV,NA,38.05147058823529,NA,NA
26047,Hancock County,WV,NA,NA,69.39234808702176,NA
26062,Hancock County,WV,NA,9.375,NA,10.633946830265849
26101,Wood County,WV,NA,NA,22.355588897224308,NA
26205,Nicholas County,WV,NA,92.46323529411765,NA,NA
26288,Webster County,WV,NA,NA,98.6496624156039,NA
26330,Harrison County,WV,NA,85.29411764705883,20.930232558139537,NA
26501,Monongalia County,WV,36,NA,NA,NA
26554,Marion County,WV,NA,NA,0.8252063015753939,NA
26704,Hampshire County,WV,NA,NA,84.0960240060015,NA
26726,Mineral County,WV,NA,NA,57.164291072768194,NA
26847,Grant County,WV,NA,NA,63.09077269317329,NA
53024,Ozaukee County,WI,NA,NA,41.410352588147035,NA
53040,Washington County,WI,98.4,NA,NA,NA
53045,Waukesha County,WI,NA,NA,NA,64.0081799591002
53074,Ozaukee County,WI,NA,NA,89.87246811702926,NA
53086,Washington County,WI,NA,NA,82.82070517629407,NA
53094,Jefferson County,WI,NA,NA,76.36909227306826,NA
53104,Kenosha County,WI,NA,NA,56.48912228057015,NA
53110,Milwaukee County,WI,NA,76.65441176470588,NA,NA
53115,Walworth County,WI,NA,NA,27.00675168792198,NA
53121,Walworth County,WI,NA,93.65808823529412,NA,NA
53122,Waukesha County,WI,NA,NA,NA,63.80368098159509
53130,Milwaukee County,WI,NA,NA,75.69392348087021,NA
53132,Milwaukee County,WI,NA,31.525735294117645,15.003750937734434,NA
53140,Kenosha County,WI,NA,9.191176470588236,NA,NA
53142,Kenosha County,WI,NA,NA,14.553638409602401,82.61758691206545
53144,Kenosha County,WI,NA,13.511029411764705,NA,NA
53149,Waukesha County,WI,NA,79.6875,NA,NA
53151,Waukesha County,WI,NA,NA,40.28507126781695,NA
53158,Kenosha County,WI,NA,NA,20.030007501875467,88.5480572597137
53168,Kenosha County,WI,NA,48.89705882352941,NA,NA
53184,Walworth County,WI,NA,NA,96.69917479369843,NA
53186,Waukesha County,WI,NA,21.599264705882355,NA,NA
53189,Waukesha County,WI,88.8,NA,NA,NA
53204,Milwaukee County,WI,NA,NA,NA,55.010224948875255
53205,Milwaukee County,WI,NA,3.0330882352941178,32.93323330832708,NA
53207,Milwaukee County,WI,NA,NA,NA,24.948875255623722
53210,Milwaukee County,WI,NA,6.985294117647059,NA,NA
53216,Milwaukee County,WI,NA,38.87867647058824,NA,NA
53220,Milwaukee County,WI,NA,NA,80.5701425356339,NA
53221,Milwaukee County,WI,NA,14.981617647058822,NA,NA
53224,Milwaukee County,WI,NA,NA,NA,84.25357873210633
53225,Milwaukee County,WI,NA,8.915441176470589,NA,NA
53228,Milwaukee County,WI,96,NA,NA,NA
53402,Racine County,WI,NA,NA,NA,2.658486707566462
53406,Racine County,WI,NA,11.67279411764706,NA,NA
53511,Rock County,WI,NA,32.720588235294116,21.45536384096024,3.476482617586912
53532,Dane County,WI,NA,58.18014705882353,NA,NA
53545,Rock County,WI,NA,29.22794117647059,NA,NA
53548,Rock County,WI,NA,NA,95.27381845461366,NA
53566,Green County,WI,NA,69.39338235294117,NA,NA
53713,Dane County,WI,NA,NA,NA,62.78118609406953
53714,Dane County,WI,NA,NA,92.49812453113279,NA
53716,Dane County,WI,NA,NA,NA,46.216768916155424
53717,Dane County,WI,NA,NA,89.42235558889723,NA
53813,Grant County,WI,NA,85.20220588235294,NA,NA
53913,Sauk County,WI,NA,30.79044117647059,NA,NA
53916,Dodge County,WI,NA,33.63970588235294,NA,NA
53948,Juneau County,WI,NA,73.52941176470588,NA,NA
53955,Columbia County,WI,NA,NA,97.59939984996248,NA
53963,Dodge County,WI,NA,46.32352941176471,NA,NA
54115,Brown County,WI,NA,NA,68.79219804951238,NA
54157,Marinette County,WI,NA,70.3125,NA,NA
54166,Shawano County,WI,NA,NA,35.93398349587397,NA
54235,Door County,WI,NA,NA,17.404351087771943,NA
54302,Brown County,WI,NA,20.588235294117645,NA,NA
54303,Brown County,WI,NA,37.591911764705884,NA,NA
54311,Brown County,WI,NA,NA,NA,46.830265848670756
54409,Langlade County,WI,NA,NA,NA,32.719836400818
54452,Lincoln County,WI,NA,NA,NA,22.085889570552148
54495,Wood County,WI,33.2,NA,NA,NA
54501,Oneida County,WI,NA,42.64705882352941,NA,NA
54601,La Crosse County,WI,NA,NA,31.50787696924231,NA
54636,La Crosse County,WI,NA,56.06617647058824,NA,41.922290388548056
54650,La Crosse County,WI,NA,NA,5.176294073518379,NA
54660,Monroe County,WI,NA,68.19852941176471,NA,NA
54703,Eau Claire County,WI,NA,46.04779411764706,NA,NA
54806,Ashland County,WI,NA,NA,85.14628657164292,NA
54830,Burnett County,WI,NA,NA,NA,96.52351738241309
54843,Sawyer County,WI,NA,NA,67.1417854463616,NA
54853,Polk County,WI,NA,NA,66.16654163540885,NA
54868,Barron County,WI,NA,NA,32.10802700675169,NA
54880,Douglas County,WI,NA,54.22794117647059,NA,NA
54902,Winnebago County,WI,NA,NA,37.43435858964741,NA
54911,Outagamie County,WI,NA,31.70955882352941,NA,NA
54913,Outagamie County,WI,76.4,NA,NA,NA
54915,Outagamie County,WI,NA,82.62867647058823,NA,NA
54937,Fond du Lac County,WI,NA,NA,36.75918979744936,NA
54952,Winnebago County,WI,NA,39.88970588235294,NA,NA
54961,Waupaca County,WI,NA,81.52573529411765,NA,NA
82007,Laramie County,WY,NA,50.91911764705882,NA,NA
82009,Laramie County,WY,NA,80.33088235294117,NA,NA
82414,Park County,WY,NA,64.43014705882352,28.507126781695426,NA
82520,Fremont County,WY,NA,NA,NA,79.75460122699386
82718,Campbell County,WY,NA,47.794117647058826,NA,NA
82901,Sweetwater County,WY,NA,NA,NA,73.8241308793456
82935,Sweetwater County,WY,NA,71.32352941176471,NA,NA
