ZipCode,county,state,Adult,Retirement,Geriatric
35010,Tallapoosa County,AL,75.29182879377431,NA,61.111111111111114
35058,Cullman County,AL,83.26848249027238,NA,NA
35072,Coosa County,AL,NA,72.29166666666667,NA
35206,Jefferson County,AL,57.003891050583654,NA,NA
35228,Jefferson County,AL,NA,NA,76.76767676767676
35645,Lauderdale County,AL,66.14785992217898,NA,88.38383838383838
35648,Lauderdale County,AL,NA,NA,89.8989898989899
35650,Lawrence County,AL,NA,NA,68.18181818181817
35748,Madison County,AL,79.37743190661479,NA,NA
35761,Madison County,AL,NA,65.625,NA
36081,Pike County,AL,NA,56.875,NA
36266,Clay County,AL,NA,83.125,NA
36301,Houston County,AL,NA,43.958333333333336,NA
36451,Clarke County,AL,98.63813229571986,NA,NA
36526,Baldwin County,AL,NA,33.541666666666664,NA
36744,Hale County,AL,NA,77.91666666666667,NA
36804,Lee County,AL,NA,94.79166666666666,NA
36854,Chambers County,AL,NA,79.58333333333333,NA
36867,Russell County,AL,NA,36.666666666666664,NA
99508,Anchorage Municipality,AK,NA,NA,56.56565656565656
99901,Ketchikan Gateway Borough,AK,NA,84.79166666666667,NA
85027,Maricopa County,AZ,40.856031128404666,NA,NA
85031,Maricopa County,AZ,49.221789883268485,NA,NA
85040,Maricopa County,AZ,20.817120622568094,NA,NA
85210,Maricopa County,AZ,23.929961089494164,NA,NA
85248,Maricopa County,AZ,75.87548638132296,NA,NA
85260,Maricopa County,AZ,NA,91.04166666666667,NA
85262,Maricopa County,AZ,NA,65.625,NA
85338,Maricopa County,AZ,61.284046692607006,NA,NA
85353,Maricopa County,AZ,NA,NA,67.17171717171718
85375,Maricopa County,AZ,78.21011673151752,NA,NA
85602,Cochise County,AZ,NA,72.91666666666666,NA
85653,Pima County,AZ,NA,76.45833333333333,NA
86001,Coconino County,AZ,21.595330739299612,NA,NA
86510,Navajo County,AZ,NA,95,NA
71603,Jefferson County,AR,NA,18.333333333333332,NA
71639,Desha County,AR,NA,NA,85.85858585858585
71909,Garland County,AR,NA,NA,15.151515151515152
71913,Garland County,AR,NA,52.708333333333336,NA
72223,Pulaski County,AR,75.68093385214007,NA,NA
72921,Crawford County,AR,73.54085603112841,NA,NA
90014,Los Angeles County,CA,NA,75.20833333333333,NA
90016,Los Angeles County,CA,NA,19.166666666666668,NA
90024,Los Angeles County,CA,NA,NA,6.0606060606060606
90025,Los Angeles County,CA,NA,29.791666666666668,NA
90036,Los Angeles County,CA,61.86770428015564,NA,NA
90041,Los Angeles County,CA,NA,68.33333333333333,NA
90049,Los Angeles County,CA,NA,NA,21.71717171717172
90201,Los Angeles County,CA,NA,NA,77.27272727272727
90250,Los Angeles County,CA,NA,51.66666666666667,NA
90803,Los Angeles County,CA,NA,41.875,NA
90807,Los Angeles County,CA,NA,48.125,NA
91007,Los Angeles County,CA,NA,NA,74.74747474747475
91042,Los Angeles County,CA,NA,NA,71.71717171717171
91205,Los Angeles County,CA,NA,88.95833333333333,NA
91214,Los Angeles County,CA,86.38132295719845,NA,NA
91403,Los Angeles County,CA,73.34630350194551,NA,NA
91709,San Bernardino County,CA,NA,NA,68.68686868686868
91710,San Bernardino County,CA,NA,15,NA
91730,San Bernardino County,CA,NA,30.625000000000004,NA
91744,Los Angeles County,CA,18.8715953307393,NA,NA
91765,Los Angeles County,CA,NA,86.04166666666667,NA
91911,San Diego County,CA,24.5136186770428,NA,NA
92026,San Diego County,CA,NA,42.291666666666664,NA
92106,San Diego County,CA,NA,54.37499999999999,NA
92122,San Diego County,CA,NA,57.91666666666667,NA
92211,Riverside County,CA,NA,6.041666666666667,NA
92234,Riverside County,CA,43.57976653696498,2.083333333333333,NA
92260,Riverside County,CA,NA,41.25,NA
92325,San Bernardino County,CA,92.80155642023347,NA,NA
92374,San Bernardino County,CA,42.996108949416346,NA,NA
92407,San Bernardino County,CA,NA,NA,84.84848484848484
92410,San Bernardino County,CA,NA,NA,75.25252525252525
92653,Orange County,CA,NA,44.583333333333336,NA
92672,Orange County,CA,NA,46.25,NA
92706,Orange County,CA,NA,NA,82.82828282828282
92821,Orange County,CA,57.19844357976653,NA,NA
92832,Orange County,CA,NA,NA,63.63636363636363
92869,Orange County,CA,55.6420233463035,NA,NA
92886,Orange County,CA,30.155642023346303,NA,NA
93010,Ventura County,CA,NA,21.666666666666668,NA
93035,Ventura County,CA,62.64591439688716,NA,NA
93274,Tulare County,CA,NA,14.791666666666666,NA
93277,Tulare County,CA,25.291828793774318,13.958333333333334,NA
93292,Tulare County,CA,40.66147859922179,NA,NA
93307,Kern County,CA,14.591439688715955,NA,NA
93312,Kern County,CA,37.35408560311284,NA,NA
93313,Kern County,CA,49.80544747081712,NA,NA
93436,Santa Barbara County,CA,16.731517509727624,NA,NA
93534,Los Angeles County,CA,NA,90.83333333333333,NA
93619,Fresno County,CA,41.43968871595331,NA,NA
93923,Monterey County,CA,NA,49.375,NA
94063,San Mateo County,CA,82.87937743190662,NA,NA
94089,Santa Clara County,CA,NA,NA,92.42424242424242
94118,San Francisco County,CA,NA,84.375,NA
94122,San Francisco County,CA,NA,NA,4.545454545454546
94131,San Francisco County,CA,58.754863813229576,73.95833333333334,NA
94506,Contra Costa County,CA,69.64980544747081,NA,NA
94709,Alameda County,CA,94.55252918287937,NA,NA
94901,Marin County,CA,NA,31.874999999999996,NA
95023,San Benito County,CA,NA,29.375,NA
95111,Santa Clara County,CA,NA,53.125,NA
95119,Santa Clara County,CA,NA,96.04166666666667,NA
95301,Merced County,CA,NA,53.541666666666664,NA
95327,Tuolumne County,CA,NA,48.95833333333333,NA
95336,San Joaquin County,CA,29.377431906614788,18.125,NA
95355,Stanislaus County,CA,NA,NA,25.252525252525253
95361,Stanislaus County,CA,NA,26.666666666666668,NA
95370,Tuolumne County,CA,NA,2.7083333333333335,NA
95386,Stanislaus County,CA,NA,86.45833333333334,NA
95448,Sonoma County,CA,NA,68.125,NA
95453,Lake County,CA,66.73151750972762,NA,NA
95476,Sonoma County,CA,NA,NA,71.21212121212122
95503,Humboldt County,CA,48.054474708171206,NA,NA
95521,Humboldt County,CA,NA,71.875,NA
95632,Sacramento County,CA,NA,36.875,NA
95949,Nevada County,CA,96.88715953307393,NA,NA
95965,Butte County,CA,NA,NA,39.39393939393939
96161,Nevada County,CA,NA,63.541666666666664,NA
80004,Jefferson County,CO,NA,51.041666666666664,NA
80109,Douglas County,CO,64.2023346303502,NA,NA
80127,Jefferson County,CO,NA,NA,56.060606060606055
80134,Douglas County,CO,26.07003891050584,NA,NA
80226,Jefferson County,CO,NA,NA,58.080808080808076
80503,Boulder County,CO,NA,NA,43.93939393939394
80631,Weld County,CO,33.26848249027237,NA,NA
80634,Weld County,CO,NA,NA,9.090909090909092
80654,Morgan County,CO,98.24902723735408,NA,NA
80701,Morgan County,CO,22.957198443579767,38.75,NA
80917,El Paso County,CO,NA,74.79166666666667,NA
81403,Montrose County,CO,NA,69.79166666666666,NA
81521,Mesa County,CO,63.22957198443579,NA,NA
81625,Moffat County,CO,38.715953307393,NA,NA
06040,Hartford County,CT,NA,63.74999999999999,NA
06042,Hartford County,CT,NA,38.958333333333336,NA
06114,Hartford County,CT,46.88715953307393,NA,NA
06278,Windham County,CT,94.94163424124513,NA,NA
06484,Fairfield County,CT,NA,26.041666666666668,NA
06498,Middlesex County,CT,NA,NA,97.47474747474747
06513,New Haven County,CT,NA,6.25,NA
06514,New Haven County,CT,34.24124513618677,28.333333333333332,33.83838383838384
06811,Fairfield County,CT,45.3307392996109,NA,NA
06840,Fairfield County,CT,93.57976653696498,NA,NA
06870,Fairfield County,CT,NA,88.33333333333333,NA
06880,Fairfield County,CT,48.249027237354085,NA,NA
19707,New Castle County,DE,NA,57.49999999999999,NA
19901,Kent County,DE,18.28793774319066,NA,NA
19968,Sussex County,DE,NA,NA,63.13131313131313
32024,Columbia County,FL,57.19844357976653,NA,NA
32060,Suwannee County,FL,NA,68.75,NA
32086,St. Johns County,FL,NA,NA,13.636363636363635
32095,St. Johns County,FL,NA,73.95833333333334,NA
32112,Putnam County,FL,NA,77.29166666666667,NA
32118,Volusia County,FL,NA,55.41666666666667,NA
32132,Volusia County,FL,85.60311284046692,NA,NA
32256,Duval County,FL,32.87937743190661,NA,NA
32425,Holmes County,FL,50.97276264591439,NA,NA
32502,Escambia County,FL,92.02334630350194,NA,NA
32514,Escambia County,FL,24.708171206225682,NA,NA
32563,Santa Rosa County,FL,NA,20.208333333333332,NA
32566,Santa Rosa County,FL,NA,19.583333333333332,NA
32605,Alachua County,FL,28.404669260700388,NA,NA
32608,Alachua County,FL,7.392996108949417,NA,59.09090909090909
32641,Alachua County,FL,25.486381322957197,NA,NA
32809,Orange County,FL,47.276264591439684,NA,NA
32818,Orange County,FL,NA,NA,80.8080808080808
32819,Orange County,FL,65.1750972762646,NA,NA
32935,Brevard County,FL,20.622568093385212,NA,NA
32952,Brevard County,FL,NA,39.791666666666664,NA
32955,Brevard County,FL,48.63813229571984,NA,NA
33019,Broward County,FL,81.1284046692607,NA,NA
33028,Broward County,FL,86.57587548638132,NA,NA
33470,Palm Beach County,FL,NA,72.08333333333333,NA
33614,Hillsborough County,FL,NA,39.58333333333333,NA
33617,Hillsborough County,FL,33.65758754863813,NA,NA
33756,Pinellas County,FL,45.719844357976655,NA,NA
33852,Highlands County,FL,NA,16.041666666666668,NA
33898,Polk County,FL,NA,59.166666666666664,NA
33901,Lee County,FL,74.31906614785993,NA,NA
33909,Lee County,FL,NA,37.5,NA
33913,Lee County,FL,75.4863813229572,NA,NA
33914,Lee County,FL,NA,NA,21.21212121212121
34105,Collier County,FL,95.71984435797665,NA,NA
34241,Sarasota County,FL,89.29961089494164,NA,NA
34266,DeSoto County,FL,88.91050583657587,NA,NA
34285,Sarasota County,FL,NA,NA,42.92929292929293
34431,Marion County,FL,NA,77.5,NA
34446,Citrus County,FL,NA,NA,33.33333333333333
34748,Lake County,FL,NA,6.875000000000001,NA
30046,Gwinnett County,GA,NA,45.208333333333336,NA
30052,Walton County,GA,19.06614785992218,NA,NA
30067,Cobb County,GA,55.447470817120625,NA,NA
30088,DeKalb County,GA,38.91050583657588,NA,NA
30106,Cobb County,GA,61.673151750972764,NA,NA
30113,Haralson County,GA,96.69260700389106,NA,NA
30120,Bartow County,GA,50.38910505836576,NA,NA
30175,Pickens County,GA,NA,79.16666666666666,NA
30269,Fayette County,GA,64.59143968871595,NA,NA
30291,Fulton County,GA,NA,60.416666666666664,NA
30297,Clayton County,GA,NA,NA,92.92929292929293
30319,DeKalb County,GA,NA,NA,94.44444444444444
30349,Fulton County,GA,NA,8.333333333333332,NA
30415,Bulloch County,GA,99.61089494163424,NA,NA
30417,Evans County,GA,74.5136186770428,NA,NA
30421,Tattnall County,GA,NA,99.79166666666667,NA
30434,Jefferson County,GA,NA,NA,99.4949494949495
30531,Habersham County,GA,NA,97.91666666666666,NA
30533,Lumpkin County,GA,NA,NA,78.78787878787878
30548,Jackson County,GA,NA,43.333333333333336,59.59595959595959
30650,Morgan County,GA,60.70038910505836,NA,NA
30673,Wilkes County,GA,NA,61.66666666666667,NA
30736,Catoosa County,GA,NA,17.291666666666668,NA
30741,Walker County,GA,NA,16.25,NA
30813,Columbia County,GA,32.1011673151751,NA,NA
30904,Richmond County,GA,NA,15.625,NA
30909,Richmond County,GA,26.459143968871597,NA,NA
31055,Telfair County,GA,NA,NA,93.93939393939394
31558,Camden County,GA,62.45136186770428,NA,NA
31907,Muscogee County,GA,NA,2.5,NA
96706,Honolulu County,HI,NA,9.166666666666666,NA
96707,Honolulu County,HI,NA,NA,77.77777777777779
96744,Honolulu County,HI,NA,48.75,NA
96797,Honolulu County,HI,8.754863813229571,NA,NA
96822,Honolulu County,HI,NA,16.458333333333332,NA
83202,Bannock County,ID,73.92996108949417,NA,NA
83221,Bingham County,ID,NA,14.166666666666666,NA
83316,Twin Falls County,ID,NA,80.41666666666667,NA
83338,Jerome County,ID,NA,51.87500000000001,NA
83605,Canyon County,ID,NA,19.791666666666664,NA
83646,Ada County,ID,39.88326848249027,NA,NA
83661,Payette County,ID,88.715953307393,NA,NA
83709,Ada County,ID,15.953307392996107,NA,NA
60005,Cook County,IL,NA,32.29166666666667,NA
60012,McHenry County,IL,NA,52.916666666666664,NA
60015,Lake County,IL,54.6692607003891,NA,NA
60020,Lake County,IL,NA,50.416666666666664,NA
60031,Lake County,IL,NA,18.958333333333332,NA
60045,Lake County,IL,NA,49.375,NA
60076,Cook County,IL,NA,20,NA
60085,Lake County,IL,NA,87.08333333333333,NA
60099,Lake County,IL,40.46692607003891,NA,NA
60101,DuPage County,IL,NA,18.75,NA
60126,DuPage County,IL,10.505836575875486,NA,NA
60131,Cook County,IL,87.93774319066148,NA,NA
60142,McHenry County,IL,NA,7.5,NA
60169,Cook County,IL,NA,45.416666666666664,NA
60188,DuPage County,IL,20.038910505836576,NA,NA
60404,Will County,IL,NA,36.25,NA
60426,Cook County,IL,NA,67.70833333333334,NA
60435,Will County,IL,NA,7.083333333333333,NA
60447,Grundy County,IL,NA,65.20833333333333,NA
60453,Cook County,IL,NA,5.625,NA
60515,DuPage County,IL,NA,75.83333333333333,NA
60517,DuPage County,IL,NA,28.749999999999996,NA
60523,DuPage County,IL,NA,NA,37.878787878787875
60541,Kendall County,IL,NA,99.375,NA
60543,Kendall County,IL,35.60311284046693,NA,NA
60552,LaSalle County,IL,99.0272373540856,NA,NA
60586,Will County,IL,15.369649805447471,NA,NA
60608,Cook County,IL,11.673151750972762,NA,NA
60612,Cook County,IL,19.844357976653697,NA,NA
60614,Cook County,IL,NA,NA,12.626262626262626
60617,Cook County,IL,NA,84.16666666666667,NA
60625,Cook County,IL,NA,10.416666666666668,NA
60626,Cook County,IL,NA,NA,51.515151515151516
60631,Cook County,IL,59.33852140077821,NA,NA
60660,Cook County,IL,26.848249027237355,NA,NA
60707,Cook County,IL,NA,NA,9.090909090909092
60914,Kankakee County,IL,33.46303501945525,NA,NA
60936,Ford County,IL,NA,97.5,NA
61362,Bureau County,IL,NA,56.666666666666664,NA
61443,Henry County,IL,NA,44.375,NA
61701,McLean County,IL,NA,24.166666666666668,NA
61761,McLean County,IL,65.95330739299611,NA,NA
61938,Coles County,IL,NA,85.625,NA
62220,St. Clair County,IL,59.53307392996109,NA,NA
62702,Sangamon County,IL,NA,NA,34.84848484848485
62906,Union County,IL,89.10505836575877,NA,NA
46037,Hamilton County,IN,NA,NA,83.33333333333334
46052,Boone County,IN,NA,70.625,NA
46068,Tipton County,IN,98.0544747081712,NA,NA
46074,Hamilton County,IN,NA,87.91666666666667,NA
46140,Hancock County,IN,NA,NA,19.696969696969695
46151,Morgan County,IN,25.680933852140075,NA,NA
46158,Morgan County,IN,51.16731517509727,NA,NA
46227,Marion County,IN,NA,3.958333333333333,NA
46236,Marion County,IN,84.24124513618678,NA,NA
46241,Marion County,IN,50.19455252918288,NA,NA
46268,Marion County,IN,44.3579766536965,NA,NA
46307,Lake County,IN,1.7509727626459144,NA,NA
46322,Lake County,IN,NA,51.45833333333333,12.121212121212121
46323,Lake County,IN,NA,NA,32.82828282828283
46366,Starke County,IN,NA,85,NA
46368,Porter County,IN,17.120622568093385,NA,NA
46783,Huntington County,IN,78.40466926070039,NA,NA
46808,Allen County,IN,32.68482490272373,NA,NA
46992,Wabash County,IN,NA,35.41666666666667,NA
47150,Floyd County,IN,36.186770428015564,NA,NA
47348,Blackford County,IN,59.92217898832685,NA,NA
47403,Monroe County,IN,NA,NA,66.16161616161617
47553,Martin County,IN,NA,96.25,NA
47567,Pike County,IN,NA,96.45833333333333,NA
47601,Warrick County,IN,55.83657587548638,NA,NA
47725,Vanderburgh County,IN,NA,60,NA
47834,Clay County,IN,NA,NA,61.61616161616161
50219,Marion County,IA,NA,NA,31.313131313131315
50220,Dallas County,IA,65.75875486381322,NA,NA
50265,Polk County,IA,NA,87.5,NA
50315,Polk County,IA,9.33852140077821,NA,NA
50317,Polk County,IA,12.062256809338521,83.54166666666667,NA
50401,Cerro Gordo County,IA,NA,NA,1.0101010101010102
50501,Webster County,IA,NA,NA,76.26262626262627
50536,Palo Alto County,IA,NA,78.33333333333333,NA
50659,Chickasaw County,IA,84.63035019455253,NA,NA
51537,Shelby County,IA,NA,98.125,NA
51632,Page County,IA,NA,53.95833333333333,NA
52317,Johnson County,IA,NA,NA,96.46464646464646
52349,Benton County,IA,NA,76.66666666666667,NA
52556,Jefferson County,IA,70.8171206225681,NA,NA
52732,Clinton County,IA,NA,NA,69.1919191919192
52806,Scott County,IA,NA,30.416666666666664,NA
66032,Anderson County,KS,NA,75.625,NA
66049,Douglas County,KS,NA,30.833333333333336,NA
66208,Johnson County,KS,NA,42.916666666666664,NA
66209,Johnson County,KS,NA,79.375,NA
66605,Shawnee County,KS,NA,93.75,NA
67005,Cowley County,KS,NA,91.25,72.72727272727273
67208,Sedgwick County,KS,72.37354085603113,NA,NA
67467,Ottawa County,KS,97.85992217898833,NA,NA
67735,Sherman County,KS,NA,NA,97.97979797979798
40143,Breckinridge County,KY,NA,89.79166666666667,NA
40175,Hardin County,KY,53.11284046692607,NA,NA
40205,Jefferson County,KY,90.6614785992218,NA,NA
40299,Jefferson County,KY,34.04669260700389,NA,NA
40324,Scott County,KY,NA,19.375,NA
40356,Jessamine County,KY,43.3852140077821,NA,NA
40475,Madison County,KY,8.560311284046692,NA,NA
40701,Whitley County,KY,11.478599221789883,NA,NA
40744,Laurel County,KY,NA,NA,72.22222222222221
41017,Kenton County,KY,31.906614785992215,NA,NA
41030,Grant County,KY,NA,93.125,NA
41031,Harrison County,KY,NA,32.083333333333336,NA
41101,Boyd County,KY,47.85992217898833,NA,20.707070707070706
41501,Pike County,KY,12.45136186770428,NA,NA
41701,Perry County,KY,58.949416342412455,NA,NA
42064,Crittenden County,KY,NA,NA,95.45454545454545
42211,Trigg County,KY,57.78210116731517,NA,NA
42240,Christian County,KY,NA,70.20833333333333,NA
42718,Taylor County,KY,NA,6.666666666666667,NA
70065,Jefferson Parish,LA,3.8910505836575875,NA,NA
70117,Orleans Parish,LA,51.55642023346303,NA,NA
70123,Jefferson Parish,LA,NA,15.416666666666668,10.1010101010101
70420,St. Tammany Parish,LA,NA,60.83333333333333,NA
70435,St. Tammany Parish,LA,NA,13.541666666666666,NA
70443,Tangipahoa Parish,LA,52.723735408560316,NA,NA
70448,St. Tammany Parish,LA,NA,24.583333333333332,NA
70461,St. Tammany Parish,LA,60.89494163424124,17.083333333333332,NA
70611,Calcasieu Parish,LA,NA,61.25000000000001,NA
71055,Webster Parish,LA,17.509727626459142,30,NA
71068,Bienville Parish,LA,89.49416342412452,NA,NA
71105,Caddo Parish,LA,NA,39.166666666666664,NA
71112,Bossier Parish,LA,13.424124513618677,77.08333333333334,NA
71119,Caddo Parish,LA,NA,55.208333333333336,NA
71418,Caldwell Parish,LA,NA,95.625,NA
04072,York County,ME,NA,NA,62.121212121212125
04092,Cumberland County,ME,37.93774319066148,23.333333333333332,NA
04282,Androscoggin County,ME,NA,NA,88.88888888888889
04330,Kennebec County,ME,NA,NA,11.616161616161616
04457,Penobscot County,ME,64.39688715953308,NA,NA
04462,Penobscot County,ME,NA,73.33333333333333,NA
04937,Somerset County,ME,76.26459143968872,NA,NA
20774,Prince George's County,MD,43.190661478599225,NA,NA
21009,Harford County,MD,NA,58.12500000000001,NA
21012,Anne Arundel County,MD,NA,60.62499999999999,NA
21042,Howard County,MD,NA,47.291666666666664,NA
21043,Howard County,MD,NA,NA,49.494949494949495
21144,Anne Arundel County,MD,NA,NA,70.2020202020202
21202,Baltimore city,MD,41.63424124513619,NA,NA
21212,Baltimore city,MD,NA,28.541666666666664,NA
21215,Baltimore city,MD,67.50972762645915,NA,NA
21218,Baltimore city,MD,NA,66.45833333333333,NA
21219,Baltimore County,MD,87.35408560311284,NA,NA
21239,Baltimore city,MD,NA,64.16666666666667,NA
21502,Allegany County,MD,NA,NA,5.555555555555555
21532,Allegany County,MD,NA,82.91666666666667,NA
21750,Washington County,MD,NA,NA,74.24242424242425
21801,Wicomico County,MD,78.98832684824903,NA,NA
01007,Hampshire County,MA,NA,46.875,NA
01027,Hampshire County,MA,NA,64.58333333333334,NA
01085,Hampden County,MA,11.86770428015564,NA,NA
01106,Hampden County,MA,NA,NA,42.42424242424242
01108,Hampden County,MA,NA,26.25,NA
01364,Franklin County,MA,NA,NA,66.66666666666666
01464,Middlesex County,MA,NA,92.08333333333333,NA
01523,Worcester County,MA,73.15175097276264,NA,NA
01534,Worcester County,MA,66.9260700389105,NA,NA
01566,Worcester County,MA,54.86381322957199,NA,NA
01571,Worcester County,MA,NA,50.416666666666664,NA
01604,Worcester County,MA,NA,1.25,NA
01605,Worcester County,MA,1.3618677042801557,NA,NA
01701,Middlesex County,MA,NA,4.791666666666667,NA
01741,Middlesex County,MA,91.24513618677042,NA,NA
01748,Middlesex County,MA,NA,31.666666666666664,53.535353535353536
01752,Middlesex County,MA,NA,9.375,NA
01810,Essex County,MA,14.007782101167315,12.291666666666666,NA
01826,Middlesex County,MA,4.280155642023346,NA,NA
01832,Essex County,MA,NA,35.208333333333336,NA
01833,Essex County,MA,NA,62.916666666666664,NA
01852,Middlesex County,MA,0,NA,NA
01864,Middlesex County,MA,70.62256809338521,NA,NA
01867,Middlesex County,MA,NA,NA,62.62626262626263
01880,Middlesex County,MA,NA,4.375,NA
01905,Essex County,MA,77.62645914396887,NA,NA
01923,Essex County,MA,3.11284046692607,NA,NA
01960,Essex County,MA,0.38910505836575876,NA,0
02035,Norfolk County,MA,33.07392996108949,NA,NA
02048,Bristol County,MA,21.40077821011673,NA,NA
02116,Suffolk County,MA,44.94163424124514,NA,NA
02124,Suffolk County,MA,NA,NA,13.131313131313133
02125,Suffolk County,MA,NA,NA,8.080808080808081
02129,Suffolk County,MA,49.0272373540856,NA,NA
02151,Suffolk County,MA,NA,0.8333333333333334,38.88888888888889
02152,Suffolk County,MA,13.03501945525292,NA,NA
02189,Norfolk County,MA,24.124513618677042,NA,NA
02360,Plymouth County,MA,18.093385214007782,3.75,NA
02445,Norfolk County,MA,NA,NA,28.28282828282828
02458,Middlesex County,MA,NA,41.458333333333336,NA
02466,Middlesex County,MA,79.57198443579766,NA,NA
02467,Norfolk County,MA,NA,72.29166666666667,NA
02476,Middlesex County,MA,NA,78.125,NA
02492,Norfolk County,MA,NA,NA,40.909090909090914
02747,Bristol County,MA,86.7704280155642,43.75,NA
02767,Bristol County,MA,NA,35,NA
02780,Bristol County,MA,2.9182879377431905,NA,NA
48038,Macomb County,MI,56.6147859922179,NA,NA
48042,Macomb County,MI,NA,22.916666666666664,NA
48043,Macomb County,MI,NA,NA,81.81818181818183
48073,Oakland County,MI,NA,NA,26.767676767676768
48105,Washtenaw County,MI,NA,10.833333333333334,NA
48111,Wayne County,MI,47.47081712062256,27.916666666666668,NA
48116,Livingston County,MI,NA,11.666666666666666,NA
48124,Wayne County,MI,NA,NA,35.35353535353536
48135,Wayne County,MI,23.540856031128403,50.83333333333333,NA
48141,Wayne County,MI,NA,NA,29.797979797979796
48152,Wayne County,MI,83.0739299610895,NA,NA
48162,Monroe County,MI,12.840466926070038,NA,NA
48167,Oakland County,MI,NA,22.291666666666668,NA
48174,Wayne County,MI,NA,NA,36.868686868686865
48203,Wayne County,MI,15.56420233463035,NA,NA
48216,Wayne County,MI,89.88326848249028,NA,NA
48234,Wayne County,MI,NA,11.25,NA
48315,Macomb County,MI,39.688715953307394,NA,NA
48340,Oakland County,MI,10.894941634241246,NA,NA
48341,Oakland County,MI,71.98443579766537,NA,NA
48371,Oakland County,MI,35.992217898832685,NA,NA
48380,Oakland County,MI,87.54863813229572,NA,NA
48381,Oakland County,MI,NA,46.041666666666664,NA
48412,Lapeer County,MI,NA,81.45833333333333,NA
48455,Lapeer County,MI,NA,63.33333333333333,NA
48601,Saginaw County,MI,NA,20.625,NA
48603,Saginaw County,MI,NA,6.458333333333334,NA
48611,Bay County,MI,82.10116731517509,NA,NA
48629,Roscommon County,MI,NA,82.70833333333333,NA
48708,Bay County,MI,7.976653696498054,NA,NA
48750,Iosco County,MI,68.48249027237354,NA,NA
48917,Eaton County,MI,NA,5.416666666666667,NA
49001,Kalamazoo County,MI,21.98443579766537,NA,NA
49009,Kalamazoo County,MI,NA,49.166666666666664,NA
49017,Calhoun County,MI,58.17120622568094,NA,NA
49079,Van Buren County,MI,NA,39.166666666666664,NA
49085,Berrien County,MI,NA,78.75,NA
49107,Berrien County,MI,63.22957198443579,NA,NA
49224,Calhoun County,MI,NA,NA,69.6969696969697
49242,Hillsdale County,MI,NA,40,NA
49251,Ingham County,MI,NA,75,NA
49343,Kent County,MI,NA,73.125,NA
49401,Ottawa County,MI,NA,94.375,NA
49423,Ottawa County,MI,12.645914396887159,NA,NA
49442,Muskegon County,MI,2.7237354085603114,NA,NA
49444,Muskegon County,MI,10.311284046692606,NA,NA
49456,Ottawa County,MI,43.77431906614786,NA,NA
49504,Kent County,MI,NA,10.208333333333334,NA
49507,Kent County,MI,4.863813229571985,NA,NA
49548,Kent County,MI,NA,41.041666666666664,NA
49868,Luce County,MI,NA,80.83333333333333,NA
55021,Rice County,MN,64.00778210116731,NA,NA
55106,Ramsey County,MN,28.21011673151751,NA,NA
55107,Ramsey County,MN,67.31517509727627,NA,NA
55118,Dakota County,MN,NA,NA,55.55555555555556
55303,Anoka County,MN,18.482490272373543,NA,NA
55334,Sibley County,MN,NA,98.75,NA
55343,Hennepin County,MN,NA,34.166666666666664,40.4040404040404
55411,Hennepin County,MN,NA,12.708333333333332,NA
55415,Hennepin County,MN,NA,95.41666666666667,NA
55420,Hennepin County,MN,NA,NA,41.91919191919192
55423,Hennepin County,MN,NA,33.541666666666664,NA
55792,St. Louis County,MN,NA,NA,23.232323232323232
55805,St. Louis County,MN,79.76653696498055,NA,NA
55806,St. Louis County,MN,NA,51.041666666666664,NA
55902,Olmsted County,MN,NA,52.29166666666667,NA
56265,Chippewa County,MN,69.8443579766537,NA,NA
56308,Douglas County,MN,NA,8.75,NA
56431,Aitkin County,MN,NA,35.625,NA
56474,Cass County,MN,NA,80,NA
56479,Todd County,MN,NA,71.45833333333333,NA
56501,Becker County,MN,64.78599221789884,NA,NA
56529,Clay County,MN,NA,89.79166666666667,NA
56560,Clay County,MN,NA,2.9166666666666665,NA
56716,Polk County,MN,30.93385214007782,NA,NA
38843,Itawamba County,MS,NA,62.5,NA
39232,Rankin County,MS,NA,NA,87.37373737373737
39479,Covington County,MS,NA,92.70833333333334,NA
39564,Jackson County,MS,NA,27.291666666666664,NA
39573,Stone County,MS,91.82879377431907,NA,NA
39581,Jackson County,MS,72.568093385214,NA,NA
39702,Lowndes County,MS,84.43579766536965,NA,NA
39735,Choctaw County,MS,NA,97.08333333333333,NA
39759,Oktibbeha County,MS,NA,NA,60.60606060606061
63010,Jefferson County,MO,37.159533073929964,NA,NA
63051,Jefferson County,MO,58.949416342412455,NA,NA
63106,St. Louis city,MO,NA,NA,78.28282828282829
63114,St. Louis County,MO,NA,25.833333333333336,NA
63115,St. Louis city,MO,71.01167315175097,NA,NA
63116,St. Louis city,MO,NA,74.375,NA
63122,St. Louis County,MO,53.11284046692607,NA,NA
63126,St. Louis County,MO,NA,67.5,NA
63136,St. Louis County,MO,7.198443579766536,NA,NA
63368,St. Charles County,MO,NA,NA,17.67676767676768
63670,Ste. Genevieve County,MO,53.89105058365759,NA,NA
63935,Ripley County,MO,50.778210116731515,NA,NA
64014,Jackson County,MO,21.78988326848249,NA,NA
64024,Clay County,MO,18.67704280155642,NA,NA
64037,Lafayette County,MO,NA,NA,79.29292929292929
64052,Jackson County,MO,10.700389105058365,30.208333333333332,NA
64155,Clay County,MO,23.73540856031128,NA,NA
64157,Clay County,MO,79.96108949416343,NA,NA
64454,Clinton County,MO,89.6887159533074,NA,NA
64468,Nodaway County,MO,60.11673151750973,NA,NA
64501,Buchanan County,MO,77.82101167315176,NA,NA
64601,Livingston County,MO,71.20622568093385,NA,NA
65020,Camden County,MO,83.46303501945526,NA,NA
65622,Dallas County,MO,69.45525291828794,NA,NA
65653,Taney County,MO,NA,66.04166666666667,NA
59405,Cascade County,MT,NA,12.5,NA
59701,Silver Bow County,MT,NA,31.458333333333332,NA
59937,Flathead County,MT,97.66536964980544,NA,NA
68008,Washington County,NE,NA,53.75,NA
68104,Douglas County,NE,25.87548638132296,NA,NA
68114,Douglas County,NE,NA,70,NA
68333,Saline County,NE,92.99610894941634,NA,NA
68620,Boone County,NE,NA,100,NA
69101,Lincoln County,NE,NA,20.833333333333336,NA
69162,Cheyenne County,NE,NA,NA,91.41414141414141
89166,Clark County,NV,NA,90.20833333333333,NA
89406,Churchill County,NV,40.07782101167315,NA,NA
03032,Rockingham County,NH,76.45914396887159,NA,NA
03038,Rockingham County,NH,13.813229571984436,NA,NA
03076,Hillsborough County,NH,69.26070038910505,NA,NA
03104,Hillsborough County,NH,NA,40.833333333333336,NA
03253,Belknap County,NH,NA,NA,73.23232323232324
03431,Cheshire County,NH,NA,NA,31.818181818181817
03570,Coos County,NH,NA,NA,57.57575757575758
03811,Rockingham County,NH,75.09727626459144,NA,NA
03825,Strafford County,NH,72.76264591439688,NA,NA
03865,Rockingham County,NH,60.505836575875485,NA,NA
03867,Strafford County,NH,23.151750972762645,NA,NA
07011,Passaic County,NJ,93.3852140077821,NA,NA
07022,Bergen County,NJ,NA,NA,60.1010101010101
07047,Hudson County,NJ,NA,66.875,NA
07067,Middlesex County,NJ,NA,NA,52.02020202020202
07069,Somerset County,NJ,NA,93.95833333333333,NA
07078,Essex County,NJ,NA,NA,98.98989898989899
07093,Hudson County,NJ,6.22568093385214,NA,4.040404040404041
07102,Essex County,NJ,7.587548638132295,NA,NA
07103,Essex County,NJ,58.5603112840467,NA,NA
07304,Hudson County,NJ,53.69649805447471,NA,NA
07501,Passaic County,NJ,14.202334630350194,NA,NA
07508,Passaic County,NJ,NA,37.291666666666664,NA
07512,Passaic County,NJ,95.3307392996109,NA,NA
07621,Bergen County,NJ,NA,91.66666666666666,NA
07666,Bergen County,NJ,NA,34.583333333333336,NA
07746,Monmouth County,NJ,71.40077821011673,NA,NA
07834,Morris County,NJ,NA,85.41666666666666,NA
07920,Somerset County,NJ,NA,76.875,NA
07960,Morris County,NJ,20.233463035019454,NA,NA
08005,Ocean County,NJ,NA,26.875,NA
08012,Camden County,NJ,5.252918287937743,NA,NA
08015,Burlington County,NJ,NA,99.16666666666667,NA
08021,Camden County,NJ,42.60700389105058,NA,NA
08062,Gloucester County,NJ,NA,68.54166666666667,NA
08104,Camden County,NJ,0.7782101167315175,NA,NA
08108,Camden County,NJ,56.42023346303502,NA,NA
08110,Camden County,NJ,42.80155642023346,NA,NA
08536,Middlesex County,NJ,NA,88.125,NA
08648,Mercer County,NJ,NA,92.91666666666667,NA
08723,Ocean County,NJ,NA,NA,36.36363636363637
08807,Somerset County,NJ,NA,65.41666666666667,NA
08835,Somerset County,NJ,47.66536964980545,NA,NA
08854,Middlesex County,NJ,NA,8.958333333333334,NA
08873,Somerset County,NJ,NA,NA,100
87015,Santa Fe County,NM,NA,69.16666666666667,NA
87020,Cibola County,NM,71.59533073929961,NA,NA
87048,Sandoval County,NM,NA,91.875,NA
87108,Bernalillo County,NM,NA,NA,25.757575757575758
87110,Bernalillo County,NM,39.494163424124515,NA,NA
87112,Bernalillo County,NM,NA,33.33333333333333,NA
87120,Bernalillo County,NM,NA,40.208333333333336,NA
87121,Bernalillo County,NM,NA,NA,24.747474747474747
87123,Bernalillo County,NM,56.03112840466926,NA,NA
88001,Doa Ana County,NM,26.653696498054476,23.75,NA
88021,Doa Ana County,NM,NA,71.66666666666667,NA
88101,Curry County,NM,NA,4.583333333333333,NA
10014,New York County,NY,88.52140077821011,NA,NA
10016,New York County,NY,91.05058365758755,NA,NA
10017,New York County,NY,NA,58.333333333333336,NA
10021,New York County,NY,NA,22.083333333333332,NA
10024,New York County,NY,NA,NA,26.262626262626267
10031,New York County,NY,NA,58.958333333333336,NA
10451,Bronx County,NY,NA,28.125,NA
10453,Bronx County,NY,0.5836575875486382,NA,NA
10458,Bronx County,NY,NA,0,NA
10462,Bronx County,NY,5.836575875486381,NA,NA
10467,Bronx County,NY,NA,4.166666666666666,NA
10472,Bronx County,NY,NA,1.0416666666666665,NA
10562,Westchester County,NY,NA,55.00000000000001,NA
10989,Rockland County,NY,NA,95.83333333333334,NA
11215,Kings County,NY,NA,NA,18.68686868686869
11218,Kings County,NY,NA,NA,5.05050505050505
11220,Kings County,NY,NA,22.5,NA
11221,Kings County,NY,NA,79.79166666666667,NA
11228,Kings County,NY,NA,NA,75.75757575757575
11233,Kings County,NY,12.2568093385214,NA,NA
11354,Queens County,NY,NA,NA,22.22222222222222
11355,Queens County,NY,NA,78.95833333333333,16.666666666666664
11433,Queens County,NY,NA,NA,90.40404040404042
11691,Queens County,NY,8.949416342412452,NA,NA
11722,Suffolk County,NY,23.346303501945524,NA,NA
11937,Suffolk County,NY,90.46692607003891,NA,NA
12010,Montgomery County,NY,4.669260700389105,NA,NA
12033,Rensselaer County,NY,91.43968871595331,NA,NA
12078,Fulton County,NY,4.085603112840467,NA,NA
12534,Columbia County,NY,15.758754863813229,15.833333333333332,NA
12561,Ulster County,NY,NA,NA,84.34343434343434
12804,Warren County,NY,NA,7.291666666666667,NA
12828,Washington County,NY,NA,83.33333333333334,NA
12831,Saratoga County,NY,45.91439688715953,NA,NA
12834,Washington County,NY,63.81322957198443,NA,NA
12901,Clinton County,NY,NA,3.3333333333333335,NA
13035,Madison County,NY,92.41245136186771,NA,NA
13063,Onondaga County,NY,99.22178988326849,NA,NA
13069,Oswego County,NY,NA,NA,44.44444444444444
13425,Oneida County,NY,94.3579766536965,NA,NA
13460,Chenango County,NY,NA,85.83333333333333,NA
13617,St. Lawrence County,NY,33.85214007782101,NA,NA
13734,Tioga County,NY,NA,96.66666666666667,NA
13820,Otsego County,NY,34.63035019455253,NA,NA
14009,Wyoming County,NY,77.23735408560312,NA,NA
14058,Genesee County,NY,80.35019455252919,NA,NA
14094,Niagara County,NY,NA,1.4583333333333333,NA
14103,Orleans County,NY,68.8715953307393,NA,NA
14120,Niagara County,NY,NA,28.958333333333336,NA
14172,Niagara County,NY,85.99221789883269,NA,NA
14204,Erie County,NY,NA,NA,80.3030303030303
14208,Erie County,NY,28.599221789883266,NA,NA
14216,Erie County,NY,NA,32.5,NA
14217,Erie County,NY,NA,15.208333333333332,NA
14225,Erie County,NY,9.14396887159533,NA,NA
14304,Niagara County,NY,NA,2.2916666666666665,NA
14414,Livingston County,NY,NA,40.416666666666664,NA
14424,Ontario County,NY,NA,0.20833333333333334,NA
14450,Monroe County,NY,NA,9.583333333333334,NA
14464,Monroe County,NY,NA,57.08333333333333,NA
14468,Monroe County,NY,NA,16.666666666666664,NA
14519,Wayne County,NY,NA,22.708333333333332,NA
14526,Monroe County,NY,NA,10.625,NA
14580,Monroe County,NY,6.420233463035019,NA,NA
14586,Monroe County,NY,32.490272373540854,NA,NA
14606,Monroe County,NY,2.140077821011673,NA,NA
14609,Monroe County,NY,0.19455252918287938,NA,NA
14611,Monroe County,NY,6.614785992217899,NA,NA
14620,Monroe County,NY,5.447470817120623,NA,NA
14701,Chautauqua County,NY,2.3346303501945527,NA,NA
14843,Steuben County,NY,22.17898832684825,NA,NA
27012,Forsyth County,NC,92.21789883268482,NA,NA
27107,Forsyth County,NC,NA,21.041666666666668,NA
27278,Orange County,NC,NA,56.458333333333336,NA
27295,Davidson County,NC,3.501945525291829,NA,NA
27330,Lee County,NC,NA,67.08333333333333,NA
27516,Orange County,NC,30.739299610894943,NA,NA
27536,Vance County,NC,28.01556420233463,NA,NA
27587,Wake County,NC,22.37354085603113,NA,NA
27592,Wake County,NC,NA,61.66666666666667,NA
27610,Wake County,NC,7.003891050583658,NA,NA
27713,Durham County,NC,24.90272373540856,NA,NA
27801,Edgecombe County,NC,37.54863813229572,NA,NA
27817,Beaufort County,NC,NA,NA,98.48484848484848
27886,Edgecombe County,NC,NA,37.916666666666664,NA
28016,Gaston County,NC,NA,52.083333333333336,NA
28021,Gaston County,NC,NA,88.75,NA
28027,Cabarrus County,NC,NA,29.166666666666668,NA
28043,Rutherford County,NC,65.36964980544747,NA,NA
28088,Rowan County,NC,97.47081712062257,NA,NA
28150,Cleveland County,NC,66.14785992217898,NA,NA
28209,Mecklenburg County,NC,NA,58.75,NA
28214,Mecklenburg County,NC,28.98832684824903,NA,NA
28277,Mecklenburg County,NC,NA,NA,27.27272727272727
28345,Richmond County,NC,NA,NA,47.97979797979798
28387,Moore County,NC,NA,NA,45.45454545454545
28422,Brunswick County,NC,NA,61.04166666666667,NA
28451,Brunswick County,NC,NA,50.208333333333336,NA
28470,Brunswick County,NC,NA,NA,79.29292929292929
28557,Carteret County,NC,NA,NA,48.98989898989899
28580,Greene County,NC,NA,88.54166666666666,NA
28625,Iredell County,NC,NA,14.583333333333334,NA
28655,Burke County,NC,5.058365758754864,NA,35.858585858585855
28713,Swain County,NC,82.49027237354085,NA,NA
28716,Haywood County,NC,NA,33.958333333333336,NA
28721,Haywood County,NC,NA,NA,81.31313131313132
28779,Jackson County,NC,NA,NA,51.010101010101
58078,Cass County,ND,NA,58.54166666666667,NA
58501,Burleigh County,ND,49.61089494163424,NA,NA
58554,Morton County,ND,62.840466926070036,NA,NA
58703,Ward County,ND,42.217898832684824,35.625,NA
43026,Franklin County,OH,50,NA,46.464646464646464
43065,Delaware County,OH,NA,54.166666666666664,NA
43068,Franklin County,OH,NA,64.79166666666667,NA
43110,Franklin County,OH,24.124513618677042,NA,NA
43119,Franklin County,OH,67.89883268482491,NA,NA
43130,Fairfield County,OH,1.556420233463035,NA,NA
43212,Franklin County,OH,83.85214007782102,NA,NA
43224,Franklin County,OH,NA,11.041666666666666,NA
43229,Franklin County,OH,NA,62.291666666666664,NA
43420,Sandusky County,OH,NA,11.875,NA
43613,Lucas County,OH,NA,NA,43.43434343434344
43615,Lucas County,OH,20.428015564202333,NA,NA
43616,Lucas County,OH,13.618677042801556,NA,NA
43619,Wood County,OH,60.11673151750973,NA,NA
43623,Lucas County,OH,54.280155642023345,NA,NA
43725,Guernsey County,OH,15.17509727626459,NA,NA
43938,Jefferson County,OH,NA,59.375,NA
43950,Belmont County,OH,NA,NA,27.77777777777778
44012,Lorain County,OH,83.65758754863813,NA,NA
44023,Geauga County,OH,90.07782101167315,NA,NA
44035,Lorain County,OH,NA,NA,0.5050505050505051
44039,Lorain County,OH,31.1284046692607,NA,NA
44047,Ashtabula County,OH,40.27237354085603,NA,NA
44052,Lorain County,OH,NA,NA,50.505050505050505
44077,Lake County,OH,34.824902723735406,NA,NA
44094,Lake County,OH,NA,40.625,NA
44103,Cuyahoga County,OH,9.53307392996109,NA,NA
44109,Cuyahoga County,OH,4.474708171206226,NA,NA
44110,Cuyahoga County,OH,9.922178988326849,NA,NA
44116,Cuyahoga County,OH,37.7431906614786,NA,NA
44121,Cuyahoga County,OH,NA,8.541666666666666,NA
44130,Cuyahoga County,OH,NA,0.4166666666666667,NA
44134,Cuyahoga County,OH,8.171206225680933,NA,NA
44136,Cuyahoga County,OH,NA,5,NA
44147,Cuyahoga County,OH,46.30350194552529,NA,NA
44149,Cuyahoga County,OH,86.18677042801556,NA,NA
44236,Summit County,OH,NA,18.541666666666668,NA
44240,Portage County,OH,27.042801556420233,NA,NA
44281,Medina County,OH,NA,10,NA
44312,Summit County,OH,NA,32.916666666666664,NA
44313,Summit County,OH,NA,12.916666666666668,NA
44410,Trumbull County,OH,NA,21.458333333333332,NA
44425,Trumbull County,OH,NA,21.875,NA
44446,Trumbull County,OH,14.396887159533073,NA,NA
44460,Columbiana County,OH,NA,5.208333333333334,NA
44481,Trumbull County,OH,54.474708171206224,NA,NA
44483,Trumbull County,OH,16.536964980544745,NA,NA
44484,Trumbull County,OH,NA,NA,19.19191919191919
44512,Mahoning County,OH,NA,9.791666666666666,NA
44514,Mahoning County,OH,NA,25.416666666666664,NA
44601,Stark County,OH,NA,5.833333333333333,NA
44646,Stark County,OH,9.72762645914397,NA,NA
44703,Stark County,OH,48.83268482490272,NA,NA
44706,Stark County,OH,NA,36.041666666666664,NA
44805,Ashland County,OH,NA,NA,57.07070707070707
44820,Crawford County,OH,22.762645914396888,NA,NA
44824,Erie County,OH,NA,83.75,NA
45039,Warren County,OH,47.081712062256805,NA,NA
45040,Warren County,OH,31.712062256809336,29.583333333333332,NA
45066,Warren County,OH,NA,69.58333333333333,NA
45133,Highland County,OH,64.98054474708171,NA,NA
45176,Clermont County,OH,NA,70.83333333333334,NA
45202,Hamilton County,OH,21.20622568093385,NA,NA
45212,Hamilton County,OH,NA,48.541666666666664,NA
45233,Hamilton County,OH,NA,59.583333333333336,NA
45240,Hamilton County,OH,NA,NA,48.484848484848484
45304,Darke County,OH,81.71206225680933,NA,NA
45318,Miami County,OH,93.19066147859922,NA,NA
45402,Montgomery County,OH,51.36186770428015,NA,NA
45403,Montgomery County,OH,35.797665369649806,NA,NA
45432,Greene County,OH,NA,86.66666666666667,NA
45629,Scioto County,OH,74.90272373540856,NA,NA
45662,Scioto County,OH,NA,1.6666666666666667,NA
45663,Scioto County,OH,48.44357976653696,NA,64.14141414141415
45669,Lawrence County,OH,NA,16.875,NA
45680,Lawrence County,OH,13.229571984435799,NA,NA
45692,Jackson County,OH,34.43579766536965,NA,NA
45817,Allen County,OH,NA,83.95833333333333,NA
45833,Allen County,OH,NA,55.833333333333336,NA
45895,Auglaize County,OH,NA,27.708333333333336,NA
73018,Grady County,OK,44.74708171206226,NA,NA
73065,McClain County,OK,80.73929961089495,NA,NA
73120,Oklahoma County,OK,41.245136186770424,NA,NA
73135,Oklahoma County,OK,NA,NA,58.58585858585859
73142,Oklahoma County,OK,74.70817120622569,NA,NA
73507,Comanche County,OK,NA,26.458333333333332,NA
74014,Wagoner County,OK,35.019455252918284,NA,NA
74055,Tulsa County,OK,NA,23.541666666666668,NA
74074,Payne County,OK,44.55252918287938,NA,NA
74135,Tulsa County,OK,NA,37.083333333333336,NA
74344,Delaware County,OK,NA,44.79166666666667,NA
74436,Muskogee County,OK,95.52529182879378,NA,NA
74464,Cherokee County,OK,74.12451361867704,14.374999999999998,NA
74525,Atoka County,OK,77.04280155642024,NA,NA
97008,Washington County,OR,NA,45,NA
97013,Clackamas County,OR,54.08560311284047,NA,NA
97045,Clackamas County,OR,NA,7.708333333333334,NA
97220,Multnomah County,OR,62.2568093385214,NA,NA
97233,Multnomah County,OR,16.926070038910506,NA,NA
97239,Multnomah County,OR,NA,NA,54.54545454545454
97267,Clackamas County,OR,94.16342412451361,NA,NA
97302,Marion County,OR,68.09338521400778,NA,NA
97304,Polk County,OR,52.52918287937744,NA,NA
97355,Linn County,OR,NA,NA,7.07070707070707
97423,Coos County,OR,NA,92.29166666666667,NA
97471,Douglas County,OR,17.898832684824903,NA,NA
97814,Baker County,OR,41.82879377431907,NA,NA
15010,Beaver County,PA,NA,NA,15.656565656565657
15068,Westmoreland County,PA,77.431906614786,NA,NA
15074,Beaver County,PA,NA,NA,95.95959595959596
15101,Allegheny County,PA,NA,NA,45.95959595959596
15108,Allegheny County,PA,38.52140077821012,NA,NA
15139,Allegheny County,PA,90.85603112840467,NA,NA
15146,Allegheny County,PA,46.10894941634241,NA,NA
15147,Allegheny County,PA,61.284046692607006,NA,NA
15204,Allegheny County,PA,NA,91.45833333333333,NA
15206,Allegheny County,PA,NA,17.708333333333336,NA
15235,Allegheny County,PA,21.011673151750973,NA,7.575757575757576
15301,Washington County,PA,6.031128404669261,44.166666666666664,NA
15431,Fayette County,PA,91.43968871595331,NA,NA
15626,Westmoreland County,PA,NA,NA,67.67676767676768
15668,Westmoreland County,PA,96.10894941634241,NA,NA
15701,Indiana County,PA,NA,NA,14.14141414141414
15748,Indiana County,PA,80.54474708171206,NA,NA
15801,Clearfield County,PA,76.65369649805449,NA,NA
16101,Lawrence County,PA,5.642023346303502,NA,NA
16117,Lawrence County,PA,NA,NA,24.242424242424242
16201,Armstrong County,PA,31.517509727626457,NA,NA
16673,Blair County,PA,78.59922178988327,NA,NA
16801,Centre County,PA,36.964980544747085,NA,NA
16915,Potter County,PA,75.87548638132296,NA,NA
17022,Lancaster County,PA,NA,NA,17.17171717171717
17050,Cumberland County,PA,51.75097276264592,NA,NA
17055,Cumberland County,PA,NA,12.083333333333334,NA
17078,Lebanon County,PA,17.315175097276263,NA,3.0303030303030303
17103,Dauphin County,PA,36.77042801556421,NA,NA
17202,Franklin County,PA,NA,NA,14.646464646464647
17331,York County,PA,6.809338521400778,NA,NA
17350,Adams County,PA,NA,47.083333333333336,NA
17366,York County,PA,78.79377431906615,NA,NA
17402,York County,PA,19.45525291828794,NA,NA
17403,York County,PA,2.529182879377432,NA,NA
17701,Lycoming County,PA,93.96887159533074,NA,NA
17740,Lycoming County,PA,85.01945525291829,NA,NA
17857,Northumberland County,PA,NA,71.25,NA
17872,Northumberland County,PA,NA,NA,46.96969696969697
17963,Schuylkill County,PA,NA,67.91666666666667,NA
18034,Lehigh County,PA,NA,90.625,NA
18038,Northampton County,PA,95.13618677042801,NA,NA
18064,Northampton County,PA,NA,NA,65.15151515151516
18102,Lehigh County,PA,1.1673151750972763,NA,NA
18109,Lehigh County,PA,NA,NA,89.39393939393939
18202,Luzerne County,PA,NA,NA,83.83838383838383
18210,Carbon County,PA,NA,64.375,NA
18360,Monroe County,PA,27.431906614785994,NA,NA
18411,Lackawanna County,PA,NA,46.25,NA
18942,Bucks County,PA,99.80544747081711,NA,NA
18951,Bucks County,PA,NA,84.58333333333333,NA
19002,Montgomery County,PA,NA,48.333333333333336,NA
19006,Montgomery County,PA,NA,NA,82.32323232323232
19020,Bucks County,PA,8.365758754863812,NA,NA
19046,Montgomery County,PA,NA,NA,34.34343434343434
19054,Bucks County,PA,56.22568093385214,NA,NA
19079,Delaware County,PA,NA,74.58333333333333,NA
19095,Montgomery County,PA,85.60311284046692,NA,NA
19111,Philadelphia County,PA,3.3073929961089497,3.5416666666666665,NA
19114,Philadelphia County,PA,19.26070038910506,NA,NA
19116,Philadelphia County,PA,NA,NA,23.737373737373737
19122,Philadelphia County,PA,NA,63.125,NA
19126,Philadelphia County,PA,NA,67.29166666666667,NA
19134,Philadelphia County,PA,NA,NA,39.8989898989899
19139,Philadelphia County,PA,3.6964980544747084,NA,NA
19143,Philadelphia County,PA,0.9727626459143969,0.625,NA
19147,Philadelphia County,PA,NA,70.41666666666667,NA
19149,Philadelphia County,PA,29.18287937743191,NA,NA
19154,Philadelphia County,PA,NA,13.750000000000002,NA
19348,Chester County,PA,52.33463035019456,NA,NA
19403,Montgomery County,PA,NA,NA,3.535353535353535
19444,Montgomery County,PA,NA,NA,73.73737373737373
19530,Berks County,PA,88.13229571984435,NA,NA
19540,Berks County,PA,NA,47.708333333333336,NA
19543,Berks County,PA,NA,93.54166666666667,NA
19606,Berks County,PA,36.57587548638132,NA,NA
19607,Berks County,PA,27.237354085603112,NA,NA
02813,Washington County,RI,NA,55.625,NA
02825,Providence County,RI,88.32684824902724,NA,NA
02838,Providence County,RI,94.74708171206225,NA,NA
02896,Providence County,RI,92.60700389105058,NA,NA
02915,Providence County,RI,70.23346303501945,NA,NA
29203,Richland County,SC,11.284046692607005,NA,NA
29209,Richland County,SC,NA,42.5,NA
29301,Spartanburg County,SC,31.32295719844358,NA,NA
29303,Spartanburg County,SC,NA,NA,87.87878787878788
29316,Spartanburg County,SC,NA,27.500000000000004,NA
29403,Charleston County,SC,NA,54.79166666666667,NA
29510,Georgetown County,SC,85.40856031128405,NA,NA
29560,Florence County,SC,NA,81.875,NA
29569,Horry County,SC,NA,NA,91.91919191919192
29571,Marion County,SC,62.06225680933852,NA,NA
29582,Horry County,SC,NA,46.666666666666664,NA
29640,Pickens County,SC,NA,NA,30.808080808080806
29642,Pickens County,SC,NA,13.125,NA
29803,Aiken County,SC,42.4124513618677,NA,NA
29926,Beaufort County,SC,NA,77.70833333333333,NA
57006,Brookings County,SD,79.1828793774319,NA,NA
57701,Pennington County,SD,NA,NA,8.585858585858585
57702,Pennington County,SD,NA,13.333333333333334,NA
37043,Montgomery County,TN,NA,17.916666666666668,NA
37166,DeKalb County,TN,NA,76.25,NA
37174,Williamson County,TN,NA,31.041666666666668,NA
37210,Davidson County,TN,52.918287937743195,NA,NA
37211,Davidson County,TN,NA,NA,20.2020202020202
37215,Davidson County,TN,93.77431906614785,NA,NA
37312,Bradley County,TN,42.023346303501945,NA,NA
37322,Meigs County,TN,NA,93.33333333333333,NA
37354,Monroe County,TN,35.40856031128405,NA,NA
37381,Rhea County,TN,NA,56.041666666666664,NA
37387,Grundy County,TN,NA,96.875,NA
37398,Franklin County,TN,44.16342412451362,NA,NA
37604,Washington County,TN,NA,NA,30.303030303030305
37659,Washington County,TN,NA,23.958333333333336,NA
37737,Blount County,TN,82.68482490272373,73.75,NA
37774,Loudon County,TN,NA,20.208333333333332,NA
37803,Blount County,TN,32.295719844357976,57.70833333333333,NA
37820,Jefferson County,TN,76.84824902723736,NA,NA
37830,Anderson County,TN,NA,21.25,NA
37840,Roane County,TN,67.70428015564202,NA,NA
37874,Monroe County,TN,39.29961089494164,NA,NA
37934,Knox County,TN,NA,78.54166666666667,NA
38116,Shelby County,TN,NA,27.083333333333332,NA
38134,Shelby County,TN,NA,86.25,NA
38242,Henry County,TN,NA,31.25,NA
38305,Madison County,TN,10.116731517509727,NA,NA
38485,Wayne County,TN,NA,NA,65.65656565656566
38574,Putnam County,TN,85.21400778210116,NA,NA
75006,Dallas County,TX,96.49805447470817,NA,NA
75035,Collin County,TX,NA,42.70833333333333,NA
75041,Dallas County,TX,NA,60.20833333333333,NA
75042,Dallas County,TX,57.97665369649806,NA,NA
75082,Collin County,TX,69.06614785992218,34.791666666666664,NA
75104,Dallas County,TX,NA,24.791666666666668,NA
75154,Ellis County,TX,68.67704280155642,NA,NA
75167,Ellis County,TX,95.91439688715954,NA,NA
75211,Dallas County,TX,19.64980544747082,NA,NA
75212,Dallas County,TX,NA,68.95833333333333,NA
75224,Dallas County,TX,NA,33.125,NA
75232,Dallas County,TX,NA,36.45833333333333,NA
75240,Dallas County,TX,NA,NA,85.35353535353535
75244,Dallas County,TX,81.51750972762646,NA,NA
75252,Collin County,TX,NA,47.5,NA
75693,Gregg County,TX,NA,87.70833333333333,NA
75706,Smith County,TX,55.05836575875487,NA,NA
75785,Cherokee County,TX,NA,75.41666666666667,NA
75801,Anderson County,TX,NA,NA,86.36363636363636
75964,Nacogdoches County,TX,57.58754863813229,NA,NA
76010,Tarrant County,TX,17.704280155642024,NA,NA
76021,Tarrant County,TX,NA,32.5,NA
76022,Tarrant County,TX,NA,97.70833333333333,NA
76082,Parker County,TX,52.14007782101168,NA,NA
76109,Tarrant County,TX,NA,97.29166666666667,NA
76110,Tarrant County,TX,68.28793774319067,NA,NA
76119,Tarrant County,TX,30.35019455252918,NA,NA
76457,Hamilton County,TX,98.83268482490273,NA,NA
76504,Bell County,TX,35.21400778210117,NA,NA
76567,Milam County,TX,NA,76.04166666666666,NA
77004,Harris County,TX,NA,37.5,NA
77005,Harris County,TX,NA,NA,55.05050505050505
77016,Harris County,TX,41.050583657587545,NA,NA
77028,Harris County,TX,NA,80.83333333333333,NA
77044,Harris County,TX,63.035019455252915,NA,NA
77048,Harris County,TX,65.56420233463035,NA,NA
77051,Harris County,TX,50.583657587548636,NA,NA
77057,Harris County,TX,81.32295719844358,NA,NA
77062,Harris County,TX,NA,47.91666666666667,NA
77063,Harris County,TX,NA,85.20833333333333,NA
77064,Harris County,TX,NA,34.375,NA
77069,Harris County,TX,NA,38.54166666666667,NA
77090,Harris County,TX,28.793774319066145,NA,NA
77096,Harris County,TX,NA,NA,47.474747474747474
77375,Harris County,TX,22.56809338521401,NA,NA
77384,Montgomery County,TX,NA,81.25,NA
77433,Harris County,TX,NA,NA,70.70707070707071
77471,Fort Bend County,TX,NA,49.791666666666664,86.86868686868688
77488,Wharton County,TX,80.93385214007782,NA,NA
77489,Fort Bend County,TX,29.766536964980546,NA,NA
77505,Harris County,TX,59.72762645914397,NA,NA
77536,Harris County,TX,NA,63.95833333333333,NA
77539,Galveston County,TX,NA,8.125,NA
77573,Galveston County,TX,NA,3.125,NA
77583,Brazoria County,TX,49.416342412451364,NA,NA
77586,Harris County,TX,70.42801556420234,NA,NA
77591,Galveston County,TX,NA,38.125,NA
77630,Orange County,TX,NA,NA,41.41414141414141
77840,Brazos County,TX,43.96887159533074,NA,NA
77859,Robertson County,TX,NA,95.20833333333333,NA
77904,Victoria County,TX,37.93774319066148,NA,NA
77963,Goliad County,TX,NA,82.5,NA
78046,Webb County,TX,16.147859922178988,NA,NA
78061,Frio County,TX,NA,80.625,NA
78102,Bee County,TX,NA,62.083333333333336,NA
78213,Bexar County,TX,70.03891050583657,NA,NA
78223,Bexar County,TX,NA,25.208333333333332,NA
78245,Bexar County,TX,NA,43.125,NA
78572,Hidalgo County,TX,NA,NA,2.525252525252525
78577,Hidalgo County,TX,27.626459143968873,NA,NA
78584,Starr County,TX,NA,NA,44.94949494949495
78734,Travis County,TX,NA,NA,64.64646464646465
78840,Val Verde County,TX,NA,NA,10.606060606060606
78852,Maverick County,TX,NA,NA,50
78947,Lee County,TX,NA,99.58333333333333,NA
79106,Potter County,TX,82.29571984435798,NA,NA
79403,Lubbock County,TX,NA,NA,90.9090909090909
79549,Scurry County,TX,66.53696498054474,NA,NA
79567,Runnels County,TX,100,NA,NA
79605,Taylor County,TX,NA,NA,22.727272727272727
79714,Andrews County,TX,51.9455252918288,NA,NA
79772,Reeves County,TX,72.17898832684824,NA,NA
79782,Martin County,TX,97.27626459143968,NA,NA
79924,El Paso County,TX,NA,23.125,52.52525252525253
84009,Salt Lake County,UT,73.73540856031128,NA,NA
84040,Davis County,UT,84.04669260700389,NA,NA
84111,Salt Lake County,UT,NA,98.95833333333334,NA
84116,Salt Lake County,UT,27.82101167315175,NA,NA
84117,Salt Lake County,UT,71.78988326848248,NA,NA
84120,Salt Lake County,UT,7.587548638132295,NA,NA
05452,Chittenden County,VT,53.50194552529183,NA,NA
05641,Washington County,VT,NA,NA,16.161616161616163
05753,Addison County,VT,NA,NA,54.04040404040404
05855,Orleans County,VT,80.1556420233463,NA,NA
20194,Fairfax County,VA,NA,89.16666666666667,NA
22003,Fairfax County,VA,29.961089494163424,NA,NA
22015,Fairfax County,VA,NA,82.08333333333333,NA
22172,Prince William County,VA,NA,98.54166666666667,NA
22204,Arlington County,VA,77.82101167315176,NA,NA
22314,Alexandria city,VA,NA,43.541666666666664,NA
22701,Culpeper County,VA,26.07003891050584,NA,NA
22901,Albemarle County,VA,NA,53.125,NA
22932,Albemarle County,VA,NA,81.66666666666667,NA
22939,Augusta County,VA,NA,66.25,NA
22973,Greene County,VA,NA,80,NA
23111,Hanover County,VA,NA,11.458333333333332,NA
23116,Hanover County,VA,NA,45.625,NA
23222,Richmond city,VA,NA,24.375,NA
23234,Chesterfield County,VA,63.61867704280155,NA,NA
23452,Virginia Beach city,VA,NA,50,6.565656565656567
23509,Norfolk city,VA,67.12062256809338,NA,NA
23608,Newport News city,VA,NA,90.41666666666667,NA
23693,York County,VA,NA,82.29166666666666,NA
23701,Portsmouth city,VA,46.69260700389105,NA,NA
24012,Roanoke city,VA,56.809338521400775,NA,NA
24066,Botetourt County,VA,98.44357976653697,NA,NA
24153,Salem city,VA,61.08949416342413,NA,NA
24210,Washington County,VA,NA,38.333333333333336,NA
24219,Wise County,VA,NA,59.791666666666664,NA
24230,Wise County,VA,45.13618677042802,NA,NA
24266,Russell County,VA,NA,98.33333333333333,NA
24477,Augusta County,VA,NA,42.083333333333336,NA
24592,Halifax County,VA,NA,NA,28.78787878787879
98012,Snohomish County,WA,29.571984435797667,NA,NA
98042,King County,WA,NA,7.916666666666666,NA
98105,King County,WA,NA,61.458333333333336,NA
98121,King County,WA,81.90661478599222,NA,NA
98122,King County,WA,NA,65,NA
98148,King County,WA,87.7431906614786,NA,NA
98155,King County,WA,87.15953307392996,NA,38.38383838383838
98199,King County,WA,NA,62.708333333333336,NA
98223,Snohomish County,WA,25.09727626459144,NA,NA
98274,Skagit County,WA,NA,NA,29.292929292929294
98359,Kitsap County,WA,NA,92.5,NA
98370,Kitsap County,WA,90.27237354085604,NA,NA
98802,Douglas County,WA,NA,54.58333333333333,NA
98823,Grant County,WA,NA,71.04166666666667,NA
99203,Spokane County,WA,NA,NA,94.94949494949495
99216,Spokane County,WA,NA,94.58333333333333,NA
99301,Franklin County,WA,NA,NA,11.11111111111111
99336,Benton County,WA,NA,NA,2.0202020202020203
99344,Adams County,WA,NA,NA,93.43434343434343
99352,Benton County,WA,NA,NA,1.5151515151515151
20010,District of Columbia,DC,NA,69.375,53.03030303030303
20015,District of Columbia,DC,NA,89.58333333333334,NA
20020,District of Columbia,DC,30.544747081712064,73.54166666666667,NA
25043,Clay County,WV,97.08171206225681,NA,NA
25427,Berkeley County,WV,58.36575875486382,NA,NA
25508,Logan County,WV,NA,57.08333333333333,NA
25701,Cabell County,WV,16.342412451361866,NA,NA
26003,Ohio County,WV,NA,1.875,NA
26041,Marshall County,WV,45.525291828793776,17.5,NA
26047,Hancock County,WV,NA,45.83333333333333,NA
26508,Monongalia County,WV,NA,25.624999999999996,18.181818181818183
26847,Grant County,WV,NA,66.66666666666666,NA
53005,Waukesha County,WI,39.10505836575876,41.66666666666667,NA
53029,Waukesha County,WI,84.8249027237354,NA,NA
53110,Milwaukee County,WI,72.95719844357976,NA,NA
53185,Racine County,WI,NA,89.375,NA
53209,Milwaukee County,WI,1.9455252918287937,NA,NA
53213,Milwaukee County,WI,96.3035019455253,NA,NA
53214,Milwaukee County,WI,38.32684824902724,NA,NA
53402,Racine County,WI,NA,NA,32.323232323232325
53406,Racine County,WI,14.785992217898833,NA,NA
53530,Lafayette County,WI,99.41634241245137,NA,NA
53551,Jefferson County,WI,NA,87.29166666666667,NA
53704,Dane County,WI,11.089494163424124,NA,NA
53711,Dane County,WI,NA,86.875,NA
53910,Adams County,WI,NA,94.16666666666667,NA
53913,Sauk County,WI,36.38132295719844,NA,NA
54143,Marinette County,WI,NA,NA,37.37373737373738
54403,Marathon County,WI,NA,72.70833333333333,NA
54601,La Crosse County,WI,NA,25,NA
54656,Monroe County,WI,46.49805447470817,NA,NA
54665,Vernon County,WI,NA,56.25,NA
54830,Burnett County,WI,NA,NA,96.96969696969697
54880,Douglas County,WI,14.980544747081712,NA,NA
54901,Winnebago County,WI,55.252918287937746,NA,NA
54904,Winnebago County,WI,86.96498054474708,NA,NA
82001,Laramie County,WY,NA,52.29166666666667,NA
