ZipCode,county,state,Adult,Retirement,Geriatric
35010,Tallapoosa County,AL,59.171597633136095,NA,NA
35040,Shelby County,AL,86.3905325443787,NA,NA
35150,Talladega County,AL,63.31360946745562,NA,NA
35151,Talladega County,AL,NA,75.99118942731278,NA
35242,Shelby County,AL,31.06508875739645,NA,NA
35405,Tuscaloosa County,AL,9.467455621301776,NA,NA
35406,Tuscaloosa County,AL,NA,NA,66.36363636363637
35601,Morgan County,AL,NA,38.986784140969164,NA
35760,Madison County,AL,100,NA,NA
35811,Madison County,AL,NA,32.59911894273127,NA
35957,Marshall County,AL,76.33136094674556,NA,NA
35962,DeKalb County,AL,NA,81.27753303964758,NA
35968,DeKalb County,AL,97.0414201183432,NA,NA
35986,DeKalb County,AL,NA,65.85903083700441,NA
36024,Elmore County,AL,NA,93.6123348017621,NA
36089,Bullock County,AL,NA,95.81497797356829,NA
36266,Clay County,AL,86.98224852071006,NA,NA
36420,Covington County,AL,NA,90.96916299559471,NA
36507,Baldwin County,AL,NA,51.76211453744494,NA
85013,Maricopa County,AZ,45.26627218934911,NA,NA
85020,Maricopa County,AZ,NA,NA,36.81818181818181
85138,Pinal County,AZ,62.1301775147929,NA,NA
85304,Maricopa County,AZ,NA,50.881057268722465,NA
85305,Maricopa County,AZ,85.20710059171599,NA,NA
85390,Maricopa County,AZ,NA,77.31277533039648,94.54545454545455
85550,Graham County,AZ,63.905325443786985,NA,NA
85650,Cochise County,AZ,NA,NA,87.72727272727273
85716,Pima County,AZ,44.67455621301775,NA,NA
85737,Pima County,AZ,NA,38.1057268722467,NA
85746,Pima County,AZ,NA,88.98678414096916,NA
86301,Yavapai County,AZ,NA,21.58590308370044,NA
86401,Mohave County,AZ,75.7396449704142,NA,NA
86442,Mohave County,AZ,NA,NA,17.727272727272727
72022,Saline County,AR,NA,NA,55.45454545454545
72106,Faulkner County,AR,NA,92.73127753303964,NA
72335,St. Francis County,AR,NA,62.55506607929515,NA
72450,Greene County,AR,NA,NA,23.18181818181818
90027,Los Angeles County,CA,NA,NA,64.0909090909091
90046,Los Angeles County,CA,NA,62.33480176211453,NA
90047,Los Angeles County,CA,56.213017751479285,NA,NA
90048,Los Angeles County,CA,NA,47.57709251101321,NA
90638,Los Angeles County,CA,NA,NA,22.272727272727273
90706,Los Angeles County,CA,NA,25.770925110132158,NA
90813,Los Angeles County,CA,NA,37.00440528634361,NA
91304,Los Angeles County,CA,NA,NA,13.18181818181818
91321,Los Angeles County,CA,NA,50.881057268722465,NA
91364,Los Angeles County,CA,NA,56.6079295154185,NA
91602,Los Angeles County,CA,NA,88.32599118942731,NA
92021,San Diego County,CA,17.45562130177515,NA,NA
92118,San Diego County,CA,96.44970414201184,NA,NA
92201,Riverside County,CA,NA,11.45374449339207,NA
92320,Riverside County,CA,NA,84.14096916299559,NA
92352,San Bernardino County,CA,NA,98.45814977973568,NA
92377,San Bernardino County,CA,NA,69.16299559471366,NA
92657,Orange County,CA,NA,80.83700440528634,NA
92840,Orange County,CA,NA,27.09251101321586,NA
93309,Kern County,CA,NA,NA,25.454545454545453
93312,Kern County,CA,NA,34.58149779735683,NA
93535,Los Angeles County,CA,NA,28.193832599118945,NA
93635,Merced County,CA,NA,NA,75
93702,Fresno County,CA,26.923076923076923,NA,NA
93923,Monterey County,CA,NA,45.59471365638766,NA
93940,Monterey County,CA,48.22485207100592,NA,NA
93950,Monterey County,CA,NA,54.40528634361234,NA
94025,San Mateo County,CA,97.92899408284023,NA,NA
94041,Santa Clara County,CA,NA,79.07488986784142,NA
94065,San Mateo County,CA,91.42011834319527,NA,NA
94102,San Francisco County,CA,8.579881656804734,NA,NA
94109,San Francisco County,CA,26.331360946745562,NA,NA
94121,San Francisco County,CA,NA,59.691629955947135,NA
94122,San Francisco County,CA,NA,15.198237885462554,NA
94566,Alameda County,CA,NA,27.75330396475771,NA
94591,Solano County,CA,NA,NA,16.818181818181817
94904,Marin County,CA,83.13609467455622,NA,NA
94941,Marin County,CA,64.20118343195266,NA,NA
94952,Sonoma County,CA,68.63905325443787,NA,NA
95035,Santa Clara County,CA,70.11834319526628,NA,NA
95054,Santa Clara County,CA,NA,NA,75.9090909090909
95076,Santa Cruz County,CA,NA,11.674008810572687,NA
95330,San Joaquin County,CA,NA,69.60352422907489,NA
95370,Tuolumne County,CA,NA,18.28193832599119,NA
95519,Humboldt County,CA,NA,NA,92.72727272727272
95621,Sacramento County,CA,75.44378698224851,NA,NA
95945,Nevada County,CA,NA,59.03083700440529,NA
95965,Butte County,CA,19.82248520710059,NA,NA
95966,Butte County,CA,NA,68.28193832599119,NA
80205,Denver County,CO,14.792899408284024,NA,NA
80504,Boulder County,CO,NA,18.502202643171806,NA
80538,Larimer County,CO,NA,NA,20.454545454545457
81401,Montrose County,CO,NA,30.176211453744493,NA
81413,Delta County,CO,NA,84.80176211453745,NA
81625,Moffat County,CO,36.68639053254438,87.22466960352423,96.36363636363636
81650,Garfield County,CO,70.41420118343196,NA,NA
06040,Hartford County,CT,12.42603550295858,13.656387665198238,NA
06051,Hartford County,CT,NA,NA,28.18181818181818
06062,Hartford County,CT,NA,NA,79.0909090909091
06066,Tolland County,CT,NA,43.61233480176212,NA
06457,Middlesex County,CT,NA,5.726872246696035,NA
06473,New Haven County,CT,NA,91.62995594713657,NA
06488,New Haven County,CT,NA,NA,34.54545454545455
06489,Hartford County,CT,28.994082840236686,NA,NA
06517,New Haven County,CT,71.00591715976331,NA,NA
06801,Fairfield County,CT,92.60355029585799,NA,NA
06810,Fairfield County,CT,18.04733727810651,14.317180616740089,NA
06831,Fairfield County,CT,84.61538461538461,NA,NA
06906,Fairfield County,CT,NA,89.64757709251101,NA
19720,New Castle County,DE,1.7751479289940828,NA,NA
19901,Kent County,DE,44.97041420118343,NA,NA
19968,Sussex County,DE,NA,63.87665198237885,NA
19973,Sussex County,DE,NA,14.537444933920703,NA
32209,Duval County,FL,NA,NA,38.63636363636363
32223,Duval County,FL,NA,23.568281938325992,NA
32507,Escambia County,FL,NA,NA,11.818181818181818
32514,Escambia County,FL,23.668639053254438,NA,NA
32526,Escambia County,FL,16.56804733727811,NA,NA
32583,Santa Rosa County,FL,NA,16.740088105726873,NA
32609,Alachua County,FL,NA,85.24229074889867,NA
32703,Orange County,FL,NA,12.77533039647577,NA
32712,Orange County,FL,NA,54.845814977973575,NA
32811,Orange County,FL,22.781065088757398,NA,NA
32966,Indian River County,FL,NA,NA,44.54545454545455
33010,Miami-Dade County,FL,NA,NA,8.181818181818182
33033,Miami-Dade County,FL,NA,42.290748898678416,NA
33317,Broward County,FL,NA,NA,35.45454545454545
33319,Broward County,FL,38.46153846153847,NA,NA
33351,Broward County,FL,NA,NA,73.18181818181819
33433,Palm Beach County,FL,NA,NA,30
33434,Palm Beach County,FL,NA,74.00881057268722,NA
33458,Palm Beach County,FL,23.964497041420117,NA,NA
33478,Palm Beach County,FL,NA,92.95154185022027,NA
33615,Hillsborough County,FL,26.627218934911244,NA,NA
33903,Lee County,FL,NA,22.90748898678414,NA
33916,Lee County,FL,35.798816568047336,NA,NA
33980,Charlotte County,FL,83.4319526627219,NA,NA
34606,Hernando County,FL,NA,29.074889867841406,NA
34688,Pinellas County,FL,91.71597633136095,NA,NA
34787,Orange County,FL,NA,61.45374449339207,NA
30043,Gwinnett County,GA,NA,8.590308370044053,NA
30047,Gwinnett County,GA,NA,NA,32.72727272727273
30075,Fulton County,GA,61.53846153846154,NA,NA
30083,DeKalb County,GA,NA,53.74449339207048,NA
30088,DeKalb County,GA,NA,74.22907488986785,NA
30094,Rockdale County,GA,NA,22.687224669603523,87.27272727272727
30141,Paulding County,GA,NA,NA,78.63636363636364
30144,Cobb County,GA,NA,87.66519823788546,NA
30147,Floyd County,GA,NA,96.25550660792952,NA
30281,Henry County,GA,NA,12.334801762114537,NA
30308,Fulton County,GA,67.15976331360946,NA,NA
30345,DeKalb County,GA,73.66863905325444,NA,NA
30349,Fulton County,GA,9.171597633136095,NA,NA
30439,Candler County,GA,NA,84.58149779735683,NA
30512,Union County,GA,NA,66.74008810572687,NA
30542,Hall County,GA,71.89349112426035,NA,NA
30607,Clarke County,GA,NA,77.97356828193833,NA
30906,Richmond County,GA,8.284023668639055,NA,NA
31082,Washington County,GA,NA,56.38766519823789,NA
31405,Chatham County,GA,NA,73.7885462555066,NA
31411,Chatham County,GA,NA,NA,80.45454545454545
31419,Chatham County,GA,NA,NA,88.18181818181819
31525,Glynn County,GA,NA,50.66079295154186,NA
96766,Kauai County,HI,NA,NA,70.9090909090909
96817,Honolulu County,HI,NA,NA,54.54545454545454
83221,Bingham County,ID,NA,12.555066079295155,NA
83301,Twin Falls County,ID,NA,6.828193832599119,0.9090909090909091
83336,Minidoka County,ID,NA,99.33920704845815,NA
83338,Jerome County,ID,73.07692307692307,NA,NA
83530,Idaho County,ID,85.79881656804734,NA,NA
83672,Washington County,ID,NA,NA,52.27272727272727
83835,Kootenai County,ID,50.29585798816568,NA,NA
83854,Kootenai County,ID,NA,15.859030837004406,NA
83858,Kootenai County,ID,NA,52.42290748898678,NA
60004,Cook County,IL,NA,NA,50
60041,Lake County,IL,84.91124260355029,NA,NA
60045,Lake County,IL,NA,45.59471365638766,NA
60047,Lake County,IL,NA,NA,76.36363636363637
60062,Cook County,IL,NA,NA,27.27272727272727
60068,Cook County,IL,37.278106508875744,NA,NA
60093,Cook County,IL,NA,39.86784140969163,NA
60107,Cook County,IL,NA,28.634361233480178,NA
60156,McHenry County,IL,NA,NA,92.27272727272727
60455,Cook County,IL,NA,39.4273127753304,NA
60510,Kane County,IL,NA,38.54625550660793,NA
60515,DuPage County,IL,NA,NA,18.181818181818183
60527,DuPage County,IL,NA,NA,43.63636363636363
60608,Cook County,IL,52.95857988165681,NA,NA
60613,Cook County,IL,86.68639053254438,NA,NA
60617,Cook County,IL,NA,0.881057268722467,13.636363636363635
60618,Cook County,IL,NA,NA,46.81818181818182
60619,Cook County,IL,NA,3.303964757709251,NA
60620,Cook County,IL,6.8047337278106506,17.400881057268723,4.545454545454546
60623,Cook County,IL,7.100591715976331,NA,NA
60629,Cook County,IL,NA,NA,7.2727272727272725
60632,Cook County,IL,NA,NA,20.909090909090907
60640,Cook County,IL,10.059171597633137,NA,NA
60646,Cook County,IL,NA,NA,53.18181818181819
60654,Cook County,IL,79.28994082840237,NA,NA
60656,Cook County,IL,44.37869822485207,NA,NA
60804,Cook County,IL,NA,8.149779735682818,NA
60970,Iroquois County,IL,NA,NA,43.18181818181818
61107,Winnebago County,IL,39.349112426035504,NA,NA
61201,Rock Island County,IL,35.20710059171598,NA,NA
61241,Henry County,IL,NA,79.29515418502203,NA
61254,Henry County,IL,NA,94.49339207048459,NA
61362,Bureau County,IL,NA,52.20264317180616,NA
61603,Peoria County,IL,77.81065088757396,59.91189427312775,NA
61604,Peoria County,IL,NA,NA,44.09090909090909
62221,St. Clair County,IL,84.31952662721893,NA,NA
62226,St. Clair County,IL,NA,20.044052863436125,NA
62249,Madison County,IL,NA,85.46255506607929,NA
62650,Morgan County,IL,49.40828402366864,NA,NA
62703,Sangamon County,IL,28.106508875739642,NA,NA
46032,Hamilton County,IN,NA,NA,48.63636363636364
46077,Boone County,IN,87.27810650887574,NA,NA
46113,Marion County,IN,92.01183431952663,NA,NA
46143,Johnson County,IN,23.37278106508876,NA,NA
46176,Shelby County,IN,NA,NA,5.454545454545454
46202,Marion County,IN,NA,57.48898678414097,NA
46220,Marion County,IN,NA,64.09691629955947,NA
46224,Marion County,IN,NA,39.20704845814978,NA
46307,Lake County,IN,NA,9.47136563876652,NA
46407,Lake County,IN,42.89940828402367,NA,NA
46526,Elkhart County,IN,50.887573964497044,NA,NA
46953,Grant County,IN,13.905325443786982,NA,NA
46975,Fulton County,IN,47.337278106508876,NA,NA
47331,Fayette County,IN,NA,52.6431718061674,NA
47371,Jay County,IN,NA,NA,41.36363636363637
47591,Knox County,IN,34.319526627218934,NA,NA
47670,Gibson County,IN,NA,NA,58.63636363636363
50022,Cass County,IA,NA,69.8237885462555,NA
50313,Polk County,IA,NA,77.09251101321586,NA
50613,Black Hawk County,IA,NA,35.02202643171806,NA
50677,Bremer County,IA,NA,76.87224669603523,NA
50701,Black Hawk County,IA,77.2189349112426,19.383259911894275,NA
50702,Black Hawk County,IA,NA,65.41850220264317,NA
51012,Cherokee County,IA,NA,NA,88.63636363636364
51031,Plymouth County,IA,NA,41.409691629955944,NA
52040,Dubuque County,IA,NA,NA,91.81818181818183
52057,Delaware County,IA,NA,98.89867841409692,74.54545454545455
52172,Allamakee County,IA,NA,91.40969162995594,NA
52241,Johnson County,IA,42.30769230769231,NA,NA
52302,Linn County,IA,21.597633136094675,NA,NA
52310,Jones County,IA,NA,NA,93.63636363636364
52333,Johnson County,IA,NA,83.03964757709251,NA
52349,Benton County,IA,NA,73.12775330396477,NA
52501,Wapello County,IA,NA,NA,23.636363636363637
52556,Jefferson County,IA,NA,NA,96.81818181818181
52632,Lee County,IA,NA,24.669603524229075,NA
52803,Scott County,IA,NA,42.731277533039645,NA
52807,Scott County,IA,NA,70.26431718061674,NA
66030,Johnson County,KS,72.7810650887574,NA,NA
66032,Anderson County,KS,NA,72.24669603524228,NA
66061,Johnson County,KS,NA,3.524229074889868,29.545454545454547
66062,Johnson County,KS,13.017751479289942,NA,NA
66208,Johnson County,KS,NA,66.96035242290749,NA
66213,Johnson County,KS,79.58579881656804,NA,NA
66214,Johnson County,KS,90.23668639053254,NA,NA
66224,Johnson County,KS,98.81656804733728,NA,NA
66436,Jackson County,KS,NA,NA,65
66762,Crawford County,KS,NA,40.08810572687225,NA
67665,Russell County,KS,NA,66.29955947136564,NA
67701,Thomas County,KS,NA,NA,77.27272727272727
40033,Marion County,KY,53.55029585798816,NA,NA
40160,Hardin County,KY,31.65680473372781,NA,NA
40216,Jefferson County,KY,NA,34.801762114537446,NA
40222,Jefferson County,KY,95.26627218934911,NA,NA
40272,Jefferson County,KY,15.976331360946746,NA,NA
40353,Montgomery County,KY,21.893491124260358,NA,NA
40503,Fayette County,KY,NA,NA,24.545454545454547
40508,Fayette County,KY,NA,53.30396475770925,NA
41129,Boyd County,KY,48.81656804733728,NA,NA
41219,Johnson County,KY,94.37869822485207,NA,NA
42101,Warren County,KY,NA,9.911894273127754,NA
42164,Allen County,KY,36.09467455621302,NA,NA
42301,Daviess County,KY,NA,NA,11.363636363636363
70123,Jefferson Parish,LA,NA,13.43612334801762,NA
70445,St. Tammany Parish,LA,NA,54.62555066079295,NA
70448,St. Tammany Parish,LA,NA,NA,21.818181818181817
70454,Tangipahoa Parish,LA,NA,5.947136563876652,NA
70458,St. Tammany Parish,LA,NA,NA,32.27272727272727
70546,Jefferson Davis Parish,LA,27.218934911242602,NA,NA
70570,St. Landry Parish,LA,NA,NA,15
71047,Caddo Parish,LA,NA,67.18061674008811,NA
71105,Caddo Parish,LA,NA,35.24229074889868,NA
71220,Morehouse Parish,LA,19.526627218934912,NA,NA
04038,Cumberland County,ME,NA,64.97797356828194,NA
04072,York County,ME,NA,13.215859030837004,NA
04210,Androscoggin County,ME,46.74556213017752,NA,NA
04330,Kennebec County,ME,5.9171597633136095,NA,NA
04412,Penobscot County,ME,NA,60.352422907488986,NA
04736,Aroostook County,ME,NA,82.37885462555066,NA
04937,Somerset County,ME,NA,49.55947136563877,NA
20895,Montgomery County,MD,78.69822485207101,NA,NA
21061,Anne Arundel County,MD,NA,48.458149779735685,NA
21108,Anne Arundel County,MD,NA,NA,95
21117,Baltimore County,MD,28.698224852071007,NA,NA
21212,Baltimore city,MD,38.16568047337278,NA,NA
21217,Baltimore city,MD,22.485207100591715,NA,NA
21239,Baltimore city,MD,NA,71.58590308370044,70.45454545454545
21817,Somerset County,MD,NA,NA,100
01007,Hampshire County,MA,NA,44.713656387665196,NA
01035,Hampshire County,MA,NA,NA,79.54545454545455
01062,Hampshire County,MA,NA,NA,75.45454545454545
01075,Hampshire County,MA,NA,40.969162995594715,NA
01095,Hampden County,MA,NA,NA,10.454545454545453
01201,Berkshire County,MA,0,7.048458149779736,NA
01460,Middlesex County,MA,NA,NA,57.27272727272727
01510,Worcester County,MA,NA,NA,63.18181818181819
01523,Worcester County,MA,NA,NA,85.9090909090909
01581,Worcester County,MA,NA,43.17180616740088,NA
01604,Worcester County,MA,NA,NA,3.6363636363636362
01605,Worcester County,MA,0.591715976331361,NA,NA
01607,Worcester County,MA,NA,NA,73.63636363636363
01701,Middlesex County,MA,NA,44.27312775330397,NA
01702,Middlesex County,MA,0.2958579881656805,NA,NA
01742,Middlesex County,MA,72.48520710059172,26.651982378854626,NA
01803,Middlesex County,MA,NA,NA,15.454545454545453
01810,Essex County,MA,NA,NA,62.727272727272734
01832,Essex County,MA,NA,NA,65.9090909090909
02066,Plymouth County,MA,NA,62.77533039647577,NA
02118,Suffolk County,MA,NA,NA,25
02184,Norfolk County,MA,NA,45.15418502202643,NA
02302,Plymouth County,MA,NA,0.6607929515418502,NA
02346,Plymouth County,MA,NA,NA,74.0909090909091
02481,Norfolk County,MA,NA,42.51101321585903,NA
02494,Norfolk County,MA,NA,51.3215859030837,NA
02653,Barnstable County,MA,NA,NA,40.45454545454545
02726,Bristol County,MA,NA,NA,36.36363636363637
48043,Macomb County,MI,NA,71.1453744493392,NA
48070,Oakland County,MI,NA,98.6784140969163,NA
48073,Oakland County,MI,27.810650887573964,NA,NA
48075,Oakland County,MI,NA,NA,51.81818181818182
48124,Wayne County,MI,20.118343195266274,NA,NA
48134,Wayne County,MI,NA,NA,35
48152,Wayne County,MI,32.24852071005917,NA,NA
48161,Monroe County,MI,7.6923076923076925,13.876651982378855,NA
48192,Wayne County,MI,NA,NA,26.36363636363636
48198,Washtenaw County,MI,1.183431952662722,NA,NA
48235,Wayne County,MI,NA,1.3215859030837005,NA
48302,Oakland County,MI,NA,NA,23.636363636363637
48348,Oakland County,MI,34.9112426035503,NA,NA
48415,Saginaw County,MI,NA,NA,83.63636363636363
48471,Sanilac County,MI,NA,71.80616740088107,NA
48601,Saginaw County,MI,NA,1.762114537444934,NA
48602,Saginaw County,MI,2.366863905325444,NA,NA
48604,Saginaw County,MI,73.37278106508876,NA,NA
48623,Saginaw County,MI,38.75739644970414,NA,NA
48638,Saginaw County,MI,NA,NA,49.54545454545455
48655,Saginaw County,MI,NA,NA,97.72727272727273
48706,Bay County,MI,NA,9.251101321585903,NA
48726,Tuscola County,MI,77.51479289940828,NA,NA
48763,Iosco County,MI,NA,62.99559471365639,NA
48768,Tuscola County,MI,NA,64.75770925110133,NA
48821,Eaton County,MI,93.19526627218934,NA,NA
48837,Eaton County,MI,51.183431952662716,NA,NA
48838,Montcalm County,MI,NA,51.541850220264315,NA
48867,Shiawassee County,MI,83.72781065088756,NA,NA
48911,Ingham County,MI,6.508875739644971,NA,NA
49001,Kalamazoo County,MI,21.005917159763314,NA,NA
49002,Kalamazoo County,MI,NA,22.026431718061673,20
49006,Kalamazoo County,MI,NA,48.89867841409692,NA
49009,Kalamazoo County,MI,53.84615384615385,82.81938325991189,91.36363636363637
49015,Calhoun County,MI,56.80473372781065,NA,NA
49024,Kalamazoo County,MI,25.443786982248522,86.56387665198237,NA
49037,Calhoun County,MI,66.27218934911244,NA,NA
49045,Van Buren County,MI,NA,71.36563876651982,NA
49046,Barry County,MI,92.89940828402366,NA,NA
49048,Kalamazoo County,MI,57.98816568047337,51.98237885462555,9.090909090909092
49071,Van Buren County,MI,NA,91.85022026431719,NA
49083,Kalamazoo County,MI,NA,92.29074889867842,NA
49203,Jackson County,MI,7.988165680473373,NA,NA
49221,Lenawee County,MI,2.9585798816568047,NA,NA
49230,Jackson County,MI,NA,95.59471365638767,NA
49333,Barry County,MI,59.46745562130178,NA,NA
49348,Allegan County,MI,NA,37.44493392070485,NA
49401,Ottawa County,MI,NA,92.51101321585902,NA
49417,Ottawa County,MI,NA,NA,9.545454545454547
49418,Kent County,MI,NA,20.26431718061674,NA
49426,Ottawa County,MI,36.98224852071006,NA,NA
49461,Muskegon County,MI,NA,78.41409691629956,NA
49504,Kent County,MI,NA,35.68281938325991,NA
49507,Kent County,MI,4.733727810650888,NA,NA
49807,Delta County,MI,NA,88.10572687224669,NA
49829,Delta County,MI,33.13609467455622,20.92511013215859,NA
49931,Houghton County,MI,NA,NA,95.9090909090909
49953,Ontonagon County,MI,81.95266272189349,NA,NA
55021,Rice County,MN,60.05917159763313,NA,NA
55051,Kanabec County,MN,NA,81.05726872246696,NA
55068,Dakota County,MN,NA,NA,81.81818181818183
55118,Dakota County,MN,NA,31.277533039647576,NA
55343,Hennepin County,MN,NA,NA,33.63636363636363
55350,McLeod County,MN,NA,22.24669603524229,NA
55355,Meeker County,MN,NA,61.23348017621145,NA
55360,Carver County,MN,97.33727810650888,NA,NA
55391,Hennepin County,MN,NA,NA,60
55412,Hennepin County,MN,10.355029585798817,NA,NA
55423,Hennepin County,MN,NA,NA,26.81818181818182
55744,Itasca County,MN,NA,23.788546255506606,NA
55792,St. Louis County,MN,NA,68.94273127753304,NA
55987,Winona County,MN,31.952662721893493,NA,NA
56073,Brown County,MN,NA,NA,4.090909090909091
56401,Crow Wing County,MN,10.946745562130179,NA,NA
56425,Crow Wing County,MN,88.75739644970415,NA,NA
56501,Becker County,MN,NA,19.823788546255507,45.909090909090914
56544,Becker County,MN,NA,93.3920704845815,NA
56560,Clay County,MN,NA,2.643171806167401,NA
56601,Beltrami County,MN,41.71597633136095,NA,1.3636363636363635
56716,Polk County,MN,NA,80.61674008810573,NA
38672,DeSoto County,MS,86.09467455621301,NA,NA
38703,Washington County,MS,60.650887573964496,NA,NA
38824,Prentiss County,MS,NA,83.48017621145375,NA
38826,Lee County,MS,NA,79.51541850220264,NA
39083,Copiah County,MS,NA,73.568281938326,NA
39183,Warren County,MS,NA,86.12334801762115,NA
39206,Hinds County,MS,27.514792899408285,NA,NA
39301,Lauderdale County,MS,NA,64.53744493392071,NA
39305,Lauderdale County,MS,NA,70.48458149779736,42.72727272727273
39307,Lauderdale County,MS,84.02366863905326,90.7488986784141,NA
39345,Newton County,MS,NA,NA,98.18181818181819
39367,Wayne County,MS,NA,50.22026431718062,NA
39564,Jackson County,MS,NA,NA,54.090909090909086
39652,Pike County,MS,NA,66.51982378854625,NA
39702,Lowndes County,MS,NA,NA,40.909090909090914
63042,St. Louis County,MO,42.01183431952663,NA,NA
63130,St. Louis County,MO,NA,NA,34.090909090909086
63136,St. Louis County,MO,7.396449704142012,NA,NA
63139,St. Louis city,MO,61.834319526627226,NA,NA
63301,St. Charles County,MO,15.384615384615385,NA,NA
63801,Scott County,MO,NA,NA,64.0909090909091
64050,Jackson County,MO,NA,11.013215859030836,NA
64053,Jackson County,MO,72.18934911242604,NA,NA
64062,Ray County,MO,52.071005917159766,NA,NA
64068,Clay County,MO,56.50887573964497,NA,28.636363636363637
64080,Cass County,MO,55.02958579881657,NA,NA
64111,Jackson County,MO,25.14792899408284,NA,NA
64112,Jackson County,MO,68.04733727810651,NA,NA
64118,Clay County,MO,5.029585798816568,NA,NA
64155,Clay County,MO,23.076923076923077,NA,NA
64507,Buchanan County,MO,NA,26.87224669603524,NA
64683,Grundy County,MO,NA,NA,50.90909090909091
64870,Jasper County,MO,39.64497041420118,NA,NA
65043,Callaway County,MO,NA,NA,90.45454545454545
65355,Benton County,MO,NA,14.096916299559473,NA
65401,Phelps County,MO,NA,57.9295154185022,NA
65686,Stone County,MO,NA,85.90308370044053,NA
65708,Barry County,MO,NA,94.27312775330397,NA
65757,Greene County,MO,96.7455621301775,NA,NA
65803,Greene County,MO,NA,6.387665198237885,NA
65806,Greene County,MO,93.78698224852072,NA,NA
59405,Cascade County,MT,NA,10.572687224669604,5
59718,Gallatin County,MT,58.875739644970416,NA,NA
59860,Lake County,MT,NA,76.65198237885463,NA
68008,Washington County,NE,NA,NA,53.63636363636364
68105,Douglas County,NE,NA,78.8546255506608,NA
68164,Douglas County,NE,NA,NA,60.45454545454545
68803,Hall County,NE,NA,41.85022026431718,NA
69341,Scotts Bluff County,NE,NA,NA,80.9090909090909
69361,Scotts Bluff County,NE,69.5266272189349,NA,NA
89706,Carson City,NV,NA,NA,48.18181818181818
03038,Rockingham County,NH,NA,40.7488986784141,NA
03079,Rockingham County,NH,40.23668639053255,NA,NA
03102,Hillsborough County,NH,49.112426035502956,NA,NA
03104,Hillsborough County,NH,NA,7.929515418502203,21.363636363636363
03275,Merrimack County,NH,67.45562130177515,NA,NA
03303,Merrimack County,NH,NA,44.93392070484582,NA
03885,Rockingham County,NH,80.76923076923077,NA,NA
07003,Essex County,NJ,33.72781065088758,NA,NA
07006,Essex County,NJ,54.142011834319526,NA,NA
07013,Passaic County,NJ,95.56213017751479,NA,NA
07024,Bergen County,NJ,NA,NA,67.27272727272727
07030,Hudson County,NJ,87.86982248520711,NA,NA
07039,Essex County,NJ,99.70414201183432,NA,NA
07066,Union County,NJ,NA,NA,69.0909090909091
07067,Middlesex County,NJ,NA,NA,77.72727272727272
07081,Union County,NJ,NA,NA,55.00000000000001
07095,Middlesex County,NJ,NA,NA,70
07104,Essex County,NJ,5.621301775147929,NA,NA
07305,Hudson County,NJ,4.437869822485207,NA,NA
07306,Hudson County,NJ,65.68047337278107,NA,NA
07422,Sussex County,NJ,NA,95.37444933920705,NA
07424,Passaic County,NJ,96.15384615384616,NA,NA
07446,Bergen County,NJ,80.4733727810651,NA,NA
07470,Passaic County,NJ,NA,NA,57.72727272727273
07631,Bergen County,NJ,NA,46.69603524229075,NA
07644,Bergen County,NJ,NA,70.04405286343612,NA
07656,Bergen County,NJ,NA,NA,71.36363636363636
07666,Bergen County,NJ,NA,30.396475770925107,NA
07726,Monmouth County,NJ,NA,65.19823788546255,NA
07748,Monmouth County,NJ,82.84023668639054,NA,NA
07828,Morris County,NJ,51.77514792899408,NA,NA
07850,Morris County,NJ,NA,NA,80
08021,Camden County,NJ,25.7396449704142,NA,NA
08081,Camden County,NJ,NA,4.845814977973569,NA
08086,Gloucester County,NJ,NA,99.55947136563876,NA
08094,Gloucester County,NJ,NA,NA,90.9090909090909
08098,Salem County,NJ,65.08875739644971,NA,NA
08109,Camden County,NJ,71.30177514792899,58.81057268722467,NA
08201,Atlantic County,NJ,NA,66.07929515418502,NA
08205,Atlantic County,NJ,NA,NA,62.272727272727266
08221,Atlantic County,NJ,NA,99.11894273127754,NA
08226,Cape May County,NJ,NA,43.392070484581495,NA
08232,Atlantic County,NJ,NA,19.60352422907489,NA
08234,Atlantic County,NJ,NA,35.90308370044053,NA
08343,Gloucester County,NJ,NA,96.0352422907489,NA
08536,Middlesex County,NJ,NA,84.36123348017621,NA
08801,Hunterdon County,NJ,73.96449704142012,NA,NA
08807,Somerset County,NJ,NA,60.792951541850215,NA
08816,Middlesex County,NJ,NA,18.94273127753304,NA
08820,Middlesex County,NJ,41.124260355029584,NA,16.363636363636363
08830,Middlesex County,NJ,NA,NA,99.0909090909091
08831,Middlesex County,NJ,NA,5.506607929515418,NA
87108,Bernalillo County,NM,6.21301775147929,NA,NA
87109,Bernalillo County,NM,44.08284023668639,NA,NA
87111,Bernalillo County,NM,NA,33.480176211453745,NA
87120,Bernalillo County,NM,NA,36.12334801762114,NA
87123,Bernalillo County,NM,14.497041420118343,NA,NA
87401,San Juan County,NM,18.93491124260355,28.854625550660796,NA
88130,Roosevelt County,NM,57.692307692307686,NA,NA
88220,Eddy County,NM,21.301775147928996,16.519823788546255,NA
88260,Lea County,NM,NA,29.295154185022028,NA
10011,New York County,NY,61.24260355029586,NA,NA
10019,New York County,NY,NA,47.136563876651984,NA
10461,Bronx County,NY,NA,NA,19.090909090909093
10467,Bronx County,NY,NA,0,NA
10543,Westchester County,NY,NA,NA,86.36363636363636
10591,Westchester County,NY,76.03550295857988,NA,NA
11206,Kings County,NY,NA,0.22026431718061676,NA
11208,Kings County,NY,NA,0.4405286343612335,NA
11217,Kings County,NY,NA,63.436123348017624,NA
11237,Kings County,NY,NA,38.76651982378855,NA
11365,Queens County,NY,45.26627218934911,NA,NA
11520,Nassau County,NY,30.76923076923077,NA,NA
12018,Rensselaer County,NY,74.55621301775149,NA,NA
12946,Essex County,NY,58.57988165680473,NA,NA
13421,Madison County,NY,NA,79.95594713656388,NA
13669,St. Lawrence County,NY,NA,NA,71.81818181818181
13676,St. Lawrence County,NY,NA,NA,22.727272727272727
13732,Tioga County,NY,40.828402366863905,NA,NA
13790,Broome County,NY,33.43195266272189,NA,NA
13820,Otsego County,NY,11.242603550295858,NA,NA
13827,Tioga County,NY,NA,NA,45
13833,Broome County,NY,NA,81.4977973568282,NA
13856,Delaware County,NY,46.44970414201183,NA,NA
13901,Broome County,NY,NA,1.9823788546255507,NA
14103,Orleans County,NY,39.053254437869825,NA,NA
14120,Niagara County,NY,3.5502958579881656,NA,NA
14223,Erie County,NY,NA,27.973568281938327,NA
14305,Niagara County,NY,5.325443786982249,55.06607929515418,NA
14527,Yates County,NY,NA,74.8898678414097,NA
14534,Monroe County,NY,43.19526627218935,NA,NA
14607,Monroe County,NY,NA,33.03964757709251,NA
14618,Monroe County,NY,NA,33.92070484581498,NA
14623,Monroe County,NY,18.34319526627219,NA,NA
14624,Monroe County,NY,1.4792899408284024,NA,NA
14770,Cattaraugus County,NY,89.64497041420118,NA,NA
14814,Chemung County,NY,NA,97.3568281938326,NA
14830,Steuben County,NY,50.591715976331365,NA,NA
14850,Tompkins County,NY,4.142011834319527,NA,NA
14880,Allegany County,NY,89.3491124260355,NA,NA
27012,Forsyth County,NC,28.402366863905325,NA,NA
27021,Stokes County,NC,36.3905325443787,NA,NA
27051,Forsyth County,NC,69.8224852071006,NA,NA
27105,Forsyth County,NC,0.8875739644970414,29.515418502202646,NA
27127,Forsyth County,NC,NA,3.0837004405286343,NA
27262,Guilford County,NC,NA,46.035242290748904,NA
27320,Rockingham County,NC,NA,NA,35.90909090909091
27516,Orange County,NC,29.289940828402365,NA,NA
27524,Johnston County,NC,90.53254437869822,NA,NA
27526,Wake County,NC,NA,15.418502202643172,NA
27574,Person County,NC,NA,NA,55.90909090909091
27589,Warren County,NC,NA,NA,65.45454545454545
27610,Wake County,NC,NA,NA,52.72727272727272
27613,Wake County,NC,NA,55.72687224669603,NA
27616,Wake County,NC,20.710059171597635,NA,NA
27704,Durham County,NC,13.313609467455622,NA,NA
28001,Stanly County,NC,NA,29.735682819383257,NA
28012,Gaston County,NC,NA,40.969162995594715,NA
28086,Cleveland County,NC,52.366863905325445,NA,NA
28129,Stanly County,NC,NA,92.07048458149781,NA
28152,Cleveland County,NC,NA,83.70044052863436,NA
28208,Mecklenburg County,NC,NA,17.841409691629956,NA
28215,Mecklenburg County,NC,17.159763313609467,NA,NA
28270,Mecklenburg County,NC,NA,83.25991189427313,NA
28303,Cumberland County,NC,50,NA,NA
28328,Sampson County,NC,NA,15.638766519823788,NA
28352,Scotland County,NC,53.25443786982249,NA,NA
28431,Columbus County,NC,NA,NA,99.54545454545455
28461,Brunswick County,NC,NA,4.405286343612335,12.272727272727273
28580,Greene County,NC,NA,68.06167400881057,NA
28609,Catawba County,NC,NA,NA,94.0909090909091
28694,Ashe County,NC,NA,57.70925110132159,NA
28704,Buncombe County,NC,58.28402366863905,96.69603524229075,85
28752,McDowell County,NC,17.75147928994083,NA,NA
28768,Transylvania County,NC,NA,74.66960352422907,NA
28791,Henderson County,NC,NA,NA,40
28804,Buncombe County,NC,NA,81.71806167400881,NA
28806,Buncombe County,NC,NA,32.378854625550666,NA
28904,Clay County,NC,NA,90.08810572687224,NA
58078,Cass County,ND,24.85207100591716,NA,NA
58201,Grand Forks County,ND,NA,NA,30.454545454545457
58401,Stutsman County,ND,62.721893491124256,NA,NA
43015,Delaware County,OH,55.62130177514793,NA,NA
43016,Franklin County,OH,NA,NA,33.18181818181819
43017,Franklin County,OH,NA,24.88986784140969,NA
43050,Knox County,OH,NA,2.4229074889867843,NA
43062,Licking County,OH,34.023668639053255,NA,NA
43065,Delaware County,OH,NA,50,NA
43081,Franklin County,OH,22.189349112426036,NA,NA
43206,Franklin County,OH,NA,NA,86.81818181818181
43211,Franklin County,OH,NA,54.18502202643172,NA
43212,Franklin County,OH,66.86390532544378,97.79735682819384,NA
43215,Franklin County,OH,NA,NA,68.63636363636364
43235,Franklin County,OH,65.97633136094674,NA,NA
43311,Logan County,OH,NA,25.11013215859031,NA
43357,Logan County,OH,97.33727810650888,NA,NA
43402,Wood County,OH,NA,38.32599118942731,45.45454545454545
43512,Defiance County,OH,3.2544378698224854,NA,NA
43528,Lucas County,OH,NA,NA,59.54545454545455
43560,Lucas County,OH,24.2603550295858,NA,18.636363636363637
43612,Lucas County,OH,NA,57.268722466960355,NA
43845,Coshocton County,OH,NA,94.7136563876652,NA
43964,Jefferson County,OH,24.556213017751478,NA,NA
44001,Lorain County,OH,54.73372781065089,NA,NA
44023,Geauga County,OH,NA,NA,56.81818181818182
44039,Lorain County,OH,29.585798816568047,NA,NA
44047,Ashtabula County,OH,NA,42.951541850220266,NA
44054,Lorain County,OH,NA,58.590308370044056,NA
44077,Lake County,OH,NA,NA,6.363636363636363
44095,Lake County,OH,47.633136094674555,NA,NA
44102,Cuyahoga County,OH,11.834319526627219,NA,NA
44108,Cuyahoga County,OH,NA,3.9647577092511015,NA
44116,Cuyahoga County,OH,NA,20.704845814977972,NA
44123,Cuyahoga County,OH,NA,NA,31.363636363636367
44126,Cuyahoga County,OH,NA,30.837004405286343,NA
44128,Cuyahoga County,OH,NA,55.2863436123348,NA
44138,Cuyahoga County,OH,31.360946745562128,NA,NA
44140,Cuyahoga County,OH,NA,NA,25.90909090909091
44149,Cuyahoga County,OH,87.57396449704143,NA,NA
44212,Medina County,OH,2.0710059171597637,NA,NA
44223,Summit County,OH,NA,NA,27.727272727272727
44255,Portage County,OH,63.609467455621306,NA,NA
44256,Medina County,OH,2.6627218934911245,NA,2.272727272727273
44281,Medina County,OH,NA,7.268722466960352,NA
44303,Summit County,OH,NA,NA,83.18181818181817
44410,Trumbull County,OH,59.76331360946746,NA,NA
44460,Columbiana County,OH,48.5207100591716,NA,NA
44512,Mahoning County,OH,34.61538461538461,NA,NA
44601,Stark County,OH,NA,NA,6.8181818181818175
44647,Stark County,OH,NA,32.59911894273127,NA
44663,Tuscarawas County,OH,NA,11.233480176211454,NA
44691,Wayne County,OH,NA,NA,8.636363636363637
44708,Stark County,OH,68.34319526627219,NA,NA
44857,Huron County,OH,NA,4.6255506607929515,NA
45015,Butler County,OH,NA,77.75330396475772,NA
45068,Warren County,OH,NA,57.048458149779734,NA
45202,Hamilton County,OH,20.118343195266274,NA,NA
45324,Greene County,OH,10.650887573964498,NA,NA
45356,Miami County,OH,NA,33.70044052863436,NA
45383,Miami County,OH,78.99408284023669,NA,NA
45424,Montgomery County,OH,NA,29.955947136563875,NA
45429,Montgomery County,OH,64.79289940828401,NA,NA
45430,Greene County,OH,81.36094674556213,NA,NA
45431,Montgomery County,OH,39.94082840236686,NA,63.18181818181819
45449,Montgomery County,OH,NA,87.00440528634361,NA
45458,Montgomery County,OH,NA,34.36123348017621,NA
45459,Montgomery County,OH,NA,NA,12.727272727272727
45504,Clark County,OH,NA,93.6123348017621,NA
45601,Ross County,OH,NA,NA,0
45693,Adams County,OH,NA,31.497797356828194,NA
45750,Washington County,OH,NA,NA,3.1818181818181817
45833,Allen County,OH,NA,NA,41.81818181818181
45879,Paulding County,OH,NA,82.15859030837004,NA
73012,Oklahoma County,OK,NA,37.66519823788546,NA
73020,Oklahoma County,OK,74.2603550295858,NA,NA
73034,Oklahoma County,OK,NA,8.370044052863436,NA
73069,Cleveland County,OK,NA,53.964757709251096,NA
73120,Oklahoma County,OK,NA,NA,10
73132,Oklahoma County,OK,80.1775147928994,NA,NA
73160,Cleveland County,OK,14.201183431952662,NA,NA
73162,Oklahoma County,OK,NA,12.114537444933921,NA
73170,Cleveland County,OK,30.17751479289941,NA,NA
74014,Wagoner County,OK,NA,18.06167400881057,NA
74063,Tulsa County,OK,51.4792899408284,NA,NA
74075,Payne County,OK,NA,NA,69.54545454545455
97015,Clackamas County,OR,NA,79.73568281938326,NA
97034,Clackamas County,OR,NA,94.05286343612335,NA
97055,Clackamas County,OR,NA,40.52863436123348,NA
97080,Multnomah County,OR,NA,43.83259911894273,NA
97124,Washington County,OR,NA,16.299559471365637,NA
97206,Multnomah County,OR,15.088757396449704,NA,NA
97230,Multnomah County,OR,NA,NA,38.18181818181819
97478,Lane County,OR,NA,77.5330396475771,NA
97520,Jackson County,OR,NA,36.56387665198238,NA
97838,Umatilla County,OR,NA,75.1101321585903,NA
97850,Union County,OR,NA,20.484581497797357,NA
15042,Beaver County,PA,NA,60.57268722466961,NA
15221,Allegheny County,PA,19.230769230769234,NA,NA
15332,Washington County,PA,NA,82.59911894273128,NA
15342,Washington County,PA,NA,NA,82.27272727272728
15401,Fayette County,PA,8.579881656804734,NA,NA
15668,Westmoreland County,PA,NA,46.47577092511013,NA
15690,Westmoreland County,PA,NA,68.5022026431718,NA
15714,Cambria County,PA,71.59763313609467,NA,NA
15767,Jefferson County,PA,NA,22.46696035242291,NA
16102,Lawrence County,PA,79.88165680473372,NA,NA
16125,Mercer County,PA,NA,10.352422907488986,NA
16201,Armstrong County,PA,NA,48.6784140969163,NA
16335,Crawford County,PA,12.721893491124261,NA,NA
16412,Erie County,PA,NA,76.2114537444934,NA
17036,Dauphin County,PA,76.92307692307693,NA,NA
17057,Dauphin County,PA,45.857988165680474,NA,NA
17070,Cumberland County,PA,85.50295857988166,NA,NA
17078,Lebanon County,PA,43.786982248520715,NA,NA
17222,Franklin County,PA,NA,41.629955947136565,NA
17331,York County,PA,NA,NA,59.09090909090909
17403,York County,PA,NA,14.757709251101323,NA
17517,Lancaster County,PA,49.70414201183432,NA,NA
17815,Columbia County,PA,NA,31.05726872246696,NA
18013,Northampton County,PA,NA,85.68281938325991,NA
18017,Northampton County,PA,NA,35.46255506607929,NA
18018,Lehigh County,PA,NA,5.286343612334802,NA
18062,Lehigh County,PA,NA,69.38325991189427,NA
18064,Northampton County,PA,74.85207100591717,17.180616740088105,NA
18104,Lehigh County,PA,16.272189349112427,NA,NA
18436,Wayne County,PA,NA,49.77973568281938,NA
18507,Lackawanna County,PA,99.11242603550295,NA,NA
18603,Columbia County,PA,NA,58.370044052863435,NA
18837,Bradford County,PA,99.40828402366864,NA,NA
18966,Bucks County,PA,NA,NA,7.727272727272727
19007,Bucks County,PA,52.662721893491124,NA,NA
19027,Montgomery County,PA,65.38461538461539,NA,NA
19067,Bucks County,PA,NA,56.167400881057276,NA
19104,Philadelphia County,PA,NA,83.92070484581498,NA
19111,Philadelphia County,PA,NA,3.7444933920704844,NA
19124,Philadelphia County,PA,NA,30.616740088105725,NA
19130,Philadelphia County,PA,NA,24.229074889867842,NA
19139,Philadelphia County,PA,NA,23.788546255506606,NA
19143,Philadelphia County,PA,NA,72.68722466960352,NA
19147,Philadelphia County,PA,NA,86.34361233480176,NA
19148,Philadelphia County,PA,NA,7.709251101321586,NA
19403,Montgomery County,PA,46.15384615384615,NA,NA
19406,Montgomery County,PA,NA,25.991189427312776,NA
19422,Montgomery County,PA,NA,25.55066079295154,NA
19522,Berks County,PA,95.85798816568047,NA,72.72727272727273
19526,Berks County,PA,NA,NA,50.45454545454545
19604,Berks County,PA,13.609467455621301,NA,NA
19605,Berks County,PA,NA,27.312775330396477,NA
19608,Berks County,PA,NA,98.01762114537445,NA
02840,Newport County,RI,NA,67.62114537444934,NA
02860,Providence County,RI,NA,6.167400881057269,NA
02864,Providence County,RI,NA,10.13215859030837,NA
02904,Providence County,RI,32.84023668639053,NA,NA
29016,Richland County,SC,88.46153846153845,NA,NA
29369,Spartanburg County,SC,NA,49.33920704845815,NA
75072,NA,NA,91.12426035502959,NA,NA
29405,Charleston County,SC,67.75147928994083,NA,NA
29412,Charleston County,SC,NA,44.49339207048458,NA
29418,Charleston County,SC,NA,73.34801762114537,NA
29486,Berkeley County,SC,NA,65.63876651982379,NA
29576,Horry County,SC,NA,6.607929515418502,NA
29605,Greenville County,SC,NA,72.4669603524229,NA
29617,Greenville County,SC,NA,NA,82.72727272727273
29671,Pickens County,SC,NA,48.01762114537445,NA
29681,Greenville County,SC,NA,9.030837004405285,NA
29910,Beaufort County,SC,NA,27.53303964757709,NA
57078,Yankton County,SD,NA,97.57709251101322,NA
57104,Minnehaha County,SD,NA,NA,39.09090909090909
37042,Montgomery County,TN,NA,28.41409691629956,NA
37055,Dickson County,TN,NA,32.158590308370044,NA
37160,Bedford County,TN,NA,23.127753303964756,NA
37174,Williamson County,TN,68.93491124260355,NA,NA
37190,Cannon County,TN,89.05325443786982,NA,NA
37205,Davidson County,TN,NA,NA,17.272727272727273
37385,Monroe County,TN,70.71005917159763,NA,NA
37604,Washington County,TN,NA,NA,58.18181818181818
37620,Sullivan County,TN,78.10650887573965,NA,NA
37642,Hawkins County,TN,NA,36.56387665198238,NA
37681,Washington County,TN,NA,81.71806167400881,NA
37716,Anderson County,TN,NA,50.440528634361236,NA
37803,Blount County,TN,NA,78.19383259911893,NA
37804,Blount County,TN,NA,59.25110132158591,NA
37841,Scott County,TN,NA,70.92511013215858,NA
37849,Knox County,TN,NA,67.40088105726872,NA
37854,Roane County,TN,NA,NA,68.18181818181817
37862,Sevier County,TN,NA,42.070484581497794,NA
37886,Blount County,TN,NA,96.91629955947137,NA
37917,Knox County,TN,43.49112426035503,16.079295154185022,NA
37932,Knox County,TN,NA,88.76651982378854,NA
37934,Knox County,TN,NA,NA,37.27272727272727
38019,Tipton County,TN,NA,39.647577092511014,NA
38063,Lauderdale County,TN,NA,52.6431718061674,NA
38109,Shelby County,TN,NA,9.691629955947137,NA
38122,Shelby County,TN,NA,90.30837004405286,NA
38301,Madison County,TN,NA,10.79295154185022,NA
38305,Madison County,TN,NA,NA,60.909090909090914
38343,Gibson County,TN,NA,NA,84.0909090909091
38464,Lawrence County,TN,30.473372781065088,NA,NA
75021,Grayson County,TX,NA,76.431718061674,NA
75034,Denton County,TX,NA,98.23788546255507,NA
75048,Dallas County,TX,NA,99.77973568281938,NA
75067,Denton County,TX,NA,71.80616740088107,NA
75082,Collin County,TX,NA,NA,95.45454545454545
75098,Collin County,TX,94.0828402366864,NA,NA
75104,Dallas County,TX,NA,21.365638766519822,NA
75135,Hunt County,TX,94.67455621301775,NA,NA
75160,Kaufman County,TX,NA,80.1762114537445,NA
75204,Dallas County,TX,NA,95.15418502202643,NA
75206,Dallas County,TX,NA,47.797356828193834,NA
75216,Dallas County,TX,54.437869822485204,NA,NA
75482,Hopkins County,TX,NA,44.052863436123346,NA
75563,Cass County,TX,98.5207100591716,NA,NA
75601,Gregg County,TX,NA,60.13215859030837,NA
75692,Harrison County,TX,94.97041420118343,NA,NA
75835,Houston County,TX,NA,NA,85.45454545454545
75901,Angelina County,TX,NA,NA,30.909090909090907
75965,Nacogdoches County,TX,89.94082840236686,NA,NA
76017,Tarrant County,TX,55.917159763313606,NA,NA
76020,Tarrant County,TX,NA,21.145374449339208,NA
76051,Tarrant County,TX,29.88165680473373,NA,NA
76063,Tarrant County,TX,16.86390532544379,NA,NA
76105,Tarrant County,TX,NA,17.62114537444934,NA
76107,Tarrant County,TX,37.8698224852071,NA,NA
76108,Tarrant County,TX,NA,18.722466960352424,NA
76112,Tarrant County,TX,15.680473372781064,NA,NA
76115,Tarrant County,TX,NA,56.6079295154185,NA
76201,Denton County,TX,NA,89.20704845814979,NA
76248,Tarrant County,TX,NA,33.259911894273124,NA
76266,Denton County,TX,NA,61.89427312775331,NA
76528,Coryell County,TX,NA,NA,51.36363636363637
76571,Bell County,TX,NA,91.18942731277532,NA
76705,McLennan County,TX,69.23076923076923,NA,NA
76706,McLennan County,TX,NA,31.718061674008812,NA
77006,Harris County,TX,88.16568047337277,NA,98.63636363636363
77017,Harris County,TX,NA,46.69603524229075,NA
77018,Harris County,TX,NA,88.54625550660793,NA
77022,Harris County,TX,NA,NA,72.27272727272728
77024,Harris County,TX,NA,59.471365638766514,NA
77043,Harris County,TX,NA,63.21585903083701,NA
77044,Harris County,TX,78.40236686390533,NA,NA
77055,Harris County,TX,NA,45.37444933920705,NA
77063,Harris County,TX,57.100591715976336,NA,NA
77065,Harris County,TX,NA,NA,31.818181818181817
77072,Harris County,TX,NA,68.72246696035242,NA
77079,Harris County,TX,NA,72.90748898678414,NA
77084,Harris County,TX,NA,90.52863436123349,NA
77088,Harris County,TX,55.325443786982255,NA,NA
77096,Harris County,TX,NA,NA,89.54545454545455
77318,Montgomery County,TX,NA,NA,97.27272727272728
77320,Walker County,TX,63.01775147928994,NA,NA
77354,Montgomery County,TX,NA,34.140969162995596,NA
77375,Harris County,TX,NA,25.33039647577093,NA
77384,Montgomery County,TX,82.54437869822485,NA,NA
77407,Fort Bend County,TX,47.928994082840234,NA,NA
77429,Harris County,TX,NA,49.118942731277535,49.09090909090909
77479,Fort Bend County,TX,NA,12.995594713656388,NA
77494,Fort Bend County,TX,18.34319526627219,NA,NA
77535,Liberty County,TX,NA,63.65638766519823,NA
77539,Galveston County,TX,60.35502958579882,NA,NA
77550,Galveston County,TX,NA,37.88546255506608,NA
77573,Galveston County,TX,NA,2.8634361233480177,NA
77578,Brazoria County,TX,57.396449704142015,NA,NA
77581,Brazoria County,TX,NA,78.63436123348018,NA
77584,Brazoria County,TX,12.1301775147929,NA,NA
77598,Harris County,TX,NA,94.93392070484582,NA
77627,Jefferson County,TX,62.42603550295858,NA,NA
77659,Hardin County,TX,93.49112426035504,NA,NA
77845,Brazos County,TX,11.538461538461538,NA,NA
77901,Victoria County,TX,NA,61.013215859030836,NA
77905,Victoria County,TX,NA,NA,56.36363636363636
77954,DeWitt County,TX,NA,NA,76.81818181818181
78239,Bexar County,TX,98.22485207100591,NA,NA
78538,Hidalgo County,TX,81.65680473372781,NA,NA
78552,Cameron County,TX,NA,55.50660792951542,NA
78577,Hidalgo County,TX,26.035502958579883,16.96035242290749,NA
78613,Williamson County,TX,32.544378698224854,NA,NA
78628,Williamson County,TX,NA,64.31718061674009,NA
78660,Travis County,TX,NA,70.70484581497797,NA
78746,Travis County,TX,81.95266272189349,NA,NA
79331,Dawson County,TX,60.946745562130175,NA,NA
79424,Lubbock County,TX,NA,NA,14.09090909090909
79705,Midland County,TX,NA,23.348017621145374,NA
79924,El Paso County,TX,NA,75.55066079295155,78.18181818181819
84084,Salt Lake County,UT,40.23668639053255,NA,NA
84102,Salt Lake County,UT,NA,NA,84.54545454545455
84121,Salt Lake County,UT,NA,NA,15.909090909090908
84123,Salt Lake County,UT,NA,NA,37.72727272727273
84790,Washington County,UT,NA,7.488986784140969,NA
05403,Chittenden County,VT,NA,37.22466960352423,NA
05602,Washington County,VT,NA,NA,39.54545454545455
05661,Lamoille County,VT,NA,93.17180616740089,NA
20171,Fairfax County,VA,NA,86.78414096916299,NA
22203,Arlington County,VA,NA,62.11453744493392,NA
22205,Arlington County,VA,NA,87.88546255506607,NA
22207,Arlington County,VA,NA,75.77092511013215,NA
22601,Winchester city,VA,NA,24.44933920704846,NA
22827,Rockingham County,VA,64.49704142011834,NA,NA
22980,Waynesboro city,VA,9.763313609467456,2.2026431718061676,NA
23228,Henrico County,VA,NA,NA,19.545454545454547
23322,Chesapeake city,VA,NA,46.25550660792951,NA
23325,Chesapeake city,VA,NA,48.23788546255506,NA
23518,Norfolk city,VA,NA,NA,14.545454545454545
23608,Newport News city,VA,47.0414201183432,NA,NA
23832,Chesterfield County,VA,NA,NA,81.36363636363636
24112,Henry County,VA,NA,8.81057268722467,NA
24175,Botetourt County,VA,NA,89.86784140969164,NA
24228,Dickenson County,VA,NA,40.308370044052865,NA
24368,Wythe County,VA,NA,NA,89.0909090909091
24401,Staunton city,VA,35.50295857988166,NA,NA
98058,King County,WA,NA,14.977973568281937,NA
98092,King County,WA,NA,11.894273127753303,NA
98101,King County,WA,NA,NA,29.09090909090909
98103,King County,WA,41.42011834319527,NA,NA
98122,King County,WA,81.06508875739645,NA,NA
98250,San Juan County,WA,NA,61.67400881057269,NA
98258,Snohomish County,WA,NA,36.34361233480176,NA
98368,Jefferson County,WA,NA,NA,67.72727272727272
98373,Pierce County,WA,NA,55.947136563876654,61.81818181818181
98382,Clallam County,WA,NA,1.1013215859030838,1.8181818181818181
98604,Clark County,WA,NA,58.14977973568281,NA
98848,Grant County,WA,NA,67.84140969162996,NA
99201,Spokane County,WA,75.14792899408283,NA,NA
99203,Spokane County,WA,NA,NA,93.18181818181817
99336,Benton County,WA,37.573964497041416,NA,NA
99337,Benton County,WA,NA,NA,5.909090909090909
20002,District of Columbia,DC,NA,26.21145374449339,NA
25411,Morgan County,WV,NA,NA,46.36363636363636
26037,Brooke County,WV,NA,NA,61.36363636363637
26062,Hancock County,WV,NA,19.162995594713657,NA
26181,Wood County,WV,NA,75.33039647577093,NA
26505,Monongalia County,WV,NA,4.185022026431718,NA
26508,Monongalia County,WV,3.8461538461538463,NA,NA
53074,Ozaukee County,WI,NA,97.13656387665198,NA
53081,Sheboygan County,WI,42.30769230769231,NA,NA
53094,Jefferson County,WI,NA,85.02202643171806,NA
53105,Racine County,WI,NA,31.938325991189426,NA
53121,Walworth County,WI,NA,NA,42.27272727272727
53126,Racine County,WI,NA,53.524229074889874,NA
53146,Waukesha County,WI,90.8284023668639,NA,NA
53147,Walworth County,WI,NA,26.431718061674008,NA
53151,Waukesha County,WI,NA,NA,10.909090909090908
53185,Racine County,WI,NA,NA,90
53216,Milwaukee County,WI,NA,NA,66.81818181818183
53528,Dane County,WI,NA,74.44933920704845,NA
53589,Dane County,WI,66.5680473372781,NA,NA
53901,Columbia County,WI,NA,53.08370044052864,NA
53955,Columbia County,WI,NA,96.47577092511013,NA
53959,Sauk County,WI,NA,NA,47.27272727272727
54235,Door County,WI,NA,47.3568281938326,NA
54311,Brown County,WI,NA,NA,47.72727272727273
54403,Marathon County,WI,NA,21.80616740088106,NA
54601,La Crosse County,WI,NA,NA,0.45454545454545453
54650,La Crosse County,WI,NA,5.066079295154185,NA
54728,Barron County,WI,92.3076923076923,NA,NA
54768,Chippewa County,WI,NA,100,NA
54837,Polk County,WI,NA,80.39647577092511,NA
54880,Douglas County,WI,NA,1.5418502202643172,2.727272727272727
54914,Outagamie County,WI,76.62721893491124,NA,NA
54952,Winnebago County,WI,NA,89.42731277533039,NA
54986,Winnebago County,WI,NA,87.44493392070484,NA
