ZipCode,county,state,Adult,Retirement
35111,Tuscaloosa County,AL,49.791376912378304,NA
35221,Jefferson County,AL,91.7941585535466,NA
35504,Walker County,AL,72.60083449235049,NA
35611,Limestone County,AL,30.45897079276773,NA
35613,Limestone County,AL,45.34075104311544,NA
35614,Limestone County,AL,NA,85.30465949820788
35640,Morgan County,AL,38.525730180806676,NA
35672,Lawrence County,AL,77.32962447844228,NA
35810,Madison County,AL,NA,27.24014336917563
35950,Marshall County,AL,45.20166898470097,NA
35976,Marshall County,AL,NA,77.77777777777779
36066,Autauga County,AL,56.60639777468707,NA
36067,Autauga County,AL,NA,57.34767025089605
36582,Mobile County,AL,52.01668984700974,NA
36609,Mobile County,AL,62.30876216968011,NA
85007,Maricopa County,AZ,12.656467315716272,NA
85022,Maricopa County,AZ,23.504867872044507,NA
85031,Maricopa County,AZ,53.546592489568845,NA
85301,Maricopa County,AZ,27.816411682892905,NA
85306,Maricopa County,AZ,58.41446453407511,NA
85345,Maricopa County,AZ,45.618915159944365,NA
85364,Yuma County,AZ,4.172461752433936,NA
85378,Maricopa County,AZ,92.76773296244785,NA
85704,Pima County,AZ,NA,37.634408602150536
85711,Pima County,AZ,9.874826147426981,18.996415770609318
85924,Apache County,AZ,NA,97.84946236559139
86001,Coconino County,AZ,57.02364394993046,NA
86040,Coconino County,AZ,68.56745479833101,NA
71655,Drew County,AR,80.52851182197497,NA
72653,Baxter County,AR,NA,26.16487455197133
72730,Washington County,AR,95.82753824756607,NA
72764,Washington County,AR,41.72461752433936,NA
72837,Pope County,AR,86.92628650904032,NA
90002,Los Angeles County,CA,NA,69.17562724014337
90015,Los Angeles County,CA,96.52294853963839,NA
90057,Los Angeles County,CA,42.83727399165508,NA
90061,Los Angeles County,CA,73.43532684283728,NA
90247,Los Angeles County,CA,NA,58.78136200716846
90605,Los Angeles County,CA,82.19749652294854,NA
90731,Los Angeles County,CA,35.744089012517385,NA
90807,Los Angeles County,CA,NA,64.51612903225806
91306,Los Angeles County,CA,44.506258692628656,NA
91311,Los Angeles County,CA,59.109874826147426,NA
91331,Los Angeles County,CA,14.464534075104313,NA
91335,Los Angeles County,CA,35.46592489568845,NA
91361,Ventura County,CA,NA,70.25089605734766
91406,Los Angeles County,CA,54.93741307371349,NA
91505,Los Angeles County,CA,NA,83.51254480286738
91604,Los Angeles County,CA,61.75243393602226,NA
91706,Los Angeles County,CA,30.87621696801113,NA
91709,San Bernardino County,CA,69.54102920723227,NA
91710,San Bernardino County,CA,41.307371349095966,NA
91741,Los Angeles County,CA,79.55493741307372,NA
91744,Los Angeles County,CA,20.445062586926284,NA
91763,San Bernardino County,CA,67.59388038942976,NA
91790,Los Angeles County,CA,56.32823365785814,NA
92009,San Diego County,CA,NA,50.53763440860215
92026,San Diego County,CA,58.55354659248957,NA
92037,San Diego County,CA,NA,59.85663082437276
92113,San Diego County,CA,29.346314325452017,NA
92243,Imperial County,CA,NA,38.70967741935484
92316,San Bernardino County,CA,55.21557719054242,NA
92407,San Bernardino County,CA,20.027816411682892,NA
92553,Riverside County,CA,NA,50.179211469534046
92614,Orange County,CA,NA,69.89247311827957
92647,Orange County,CA,26.00834492350487,NA
92653,Orange County,CA,75.38247566063978,NA
92683,Orange County,CA,51.18219749652295,NA
92782,Orange County,CA,79.27677329624478,NA
92832,Orange County,CA,59.38803894297635,NA
92867,Orange County,CA,62.7260083449235,NA
93010,Ventura County,CA,38.24756606397774,NA
93013,Santa Barbara County,CA,97.07927677329624,NA
93422,San Luis Obispo County,CA,50.48678720445062,NA
93436,Santa Barbara County,CA,18.219749652294855,NA
93454,Santa Barbara County,CA,35.32684283727399,NA
93555,Kern County,CA,30.04172461752434,NA
94063,San Mateo County,CA,NA,49.10394265232975
94065,San Mateo County,CA,90.26425591098747,NA
94070,San Mateo County,CA,NA,73.11827956989248
94089,Santa Clara County,CA,NA,87.09677419354838
94558,Napa County,CA,NA,8.60215053763441
94566,Alameda County,CA,NA,45.878136200716845
94579,Alameda County,CA,85.95271210013908,81.72043010752688
95315,Merced County,CA,89.15159944367177,NA
95321,Tuolumne County,CA,NA,89.6057347670251
95351,Stanislaus County,CA,24.895688456189152,NA
95391,San Joaquin County,CA,NA,93.1899641577061
95693,Sacramento County,CA,97.77468706536857,NA
95762,El Dorado County,CA,NA,45.16129032258064
95965,Butte County,CA,71.07093184979138,NA
95973,Butte County,CA,27.12100139082058,NA
95988,Glenn County,CA,NA,78.49462365591397
80013,Arapahoe County,CO,40.47287899860918,29.39068100358423
80015,Arapahoe County,CO,NA,27.598566308243726
80027,Boulder County,CO,91.93324061196105,NA
80112,Arapahoe County,CO,57.44089012517385,NA
80126,Douglas County,CO,55.493741307371344,NA
80218,Denver County,CO,63.83866481223922,84.94623655913979
80222,Denver County,CO,NA,84.58781362007169
80231,Denver County,CO,42.55910987482615,NA
80241,Adams County,CO,58.97079276773296,NA
80260,Adams County,CO,NA,68.45878136200717
80303,Boulder County,CO,93.18497913769124,NA
80465,Jefferson County,CO,86.50904033379693,NA
80550,Weld County,CO,33.936022253129345,NA
80615,Weld County,CO,NA,95.3405017921147
80634,Weld County,CO,NA,2.1505376344086025
80751,Logan County,CO,46.73157162726008,NA
80920,El Paso County,CO,61.057023643949925,NA
81004,Pueblo County,CO,NA,37.992831541218635
81007,Pueblo County,CO,49.51321279554937,NA
81230,Gunnison County,CO,90.82058414464534,NA
81321,Montezuma County,CO,70.37552155771905,NA
06051,Hartford County,CT,4.728789986091794,NA
06057,Litchfield County,CT,NA,90.68100358422939
06096,Hartford County,CT,NA,86.37992831541219
06226,Windham County,CT,50.62586926286509,NA
06238,Tolland County,CT,71.90542420027816,NA
06413,Middlesex County,CT,65.36856745479834,74.55197132616487
06437,New Haven County,CT,66.34214186369958,NA
06451,New Haven County,CT,29.763560500695412,NA
06460,New Haven County,CT,NA,20.78853046594982
06475,Middlesex County,CT,NA,66.30824372759857
06480,Middlesex County,CT,73.57440890125174,NA
06604,Fairfield County,CT,23.087621696801115,NA
06705,New Haven County,CT,27.26008344923505,NA
06708,New Haven County,CT,26.425591098748264,NA
06790,Litchfield County,CT,6.536856745479833,NA
19709,New Castle County,DE,23.9221140472879,NA
19711,New Castle County,DE,67.17663421418636,NA
19933,Sussex County,DE,72.1835883171071,NA
19938,Kent County,DE,69.68011126564673,NA
32114,Volusia County,FL,27.399165507649514,NA
32177,Putnam County,FL,49.235048678720446,NA
32206,Duval County,FL,25.312934631432544,NA
32210,Duval County,FL,5.285118219749652,NA
32211,Duval County,FL,24.756606397774686,NA
32221,Duval County,FL,NA,43.36917562724014
32246,Duval County,FL,18.08066759388039,67.02508960573476
32259,St. Johns County,FL,48.53963838664812,NA
32301,Leon County,FL,68.84561891515995,NA
32328,Franklin County,FL,NA,98.2078853046595
32503,Escambia County,FL,23.783031988873436,NA
32504,Escambia County,FL,53.963838664812236,NA
32548,Okaloosa County,FL,68.01112656467315,NA
32563,Santa Rosa County,FL,NA,30.824372759856633
32583,Santa Rosa County,FL,31.154381084840054,30.107526881720432
32607,Alachua County,FL,NA,53.40501792114696
32640,Putnam County,FL,61.891515994436716,NA
32643,Alachua County,FL,55.493741307371344,NA
32724,Volusia County,FL,89.29068150208623,NA
32835,Orange County,FL,61.474269819193324,NA
32905,Brevard County,FL,62.7260083449235,NA
32926,Brevard County,FL,NA,52.68817204301075
32976,Brevard County,FL,81.91933240611962,NA
33009,Broward County,FL,NA,53.04659498207885
33016,Miami-Dade County,FL,NA,64.15770609318996
33415,Palm Beach County,FL,NA,73.83512544802868
33445,Palm Beach County,FL,NA,72.40143369175627
33547,Hillsborough County,FL,80.25034770514604,NA
33566,Hillsborough County,FL,61.335187760778865,NA
33604,Hillsborough County,FL,28.372739916550767,NA
33610,Hillsborough County,FL,16.411682892906814,NA
33616,Hillsborough County,FL,89.01251738525731,NA
33755,Pinellas County,FL,47.8442280945758,NA
33771,Pinellas County,FL,48.95688456189152,NA
33803,Polk County,FL,64.25591098748261,NA
33811,Polk County,FL,71.62726008344924,NA
33843,Polk County,FL,92.62865090403338,NA
33852,Highlands County,FL,63.00417246175244,NA
33936,Lee County,FL,51.87760778859527,NA
33976,Lee County,FL,NA,94.98207885304659
34104,Collier County,FL,57.57997218358831,NA
34142,Collier County,FL,82.47566063977747,NA
34233,Sarasota County,FL,NA,56.63082437275986
34234,Sarasota County,FL,NA,51.25448028673835
34601,Hernando County,FL,52.71210013908206,NA
34613,Hernando County,FL,75.6606397774687,NA
34655,Pasco County,FL,69.26286509040334,NA
34950,St. Lucie County,FL,56.88456189151599,NA
34982,St. Lucie County,FL,57.57997218358831,NA
30024,Gwinnett County,GA,24.617524339360223,NA
30039,Gwinnett County,GA,43.11543810848401,NA
30043,Gwinnett County,GA,26.981919332406118,18.27956989247312
30096,Gwinnett County,GA,31.571627260083453,NA
30104,Polk County,GA,85.53546592489569,NA
30134,Douglas County,GA,29.902642559109875,NA
30141,Paulding County,GA,71.21001390820584,NA
30153,Polk County,GA,45.75799721835883,NA
30157,Paulding County,GA,31.432545201668983,NA
30175,Pickens County,GA,NA,88.88888888888889
30189,Cherokee County,GA,80.11126564673157,NA
30230,Troup County,GA,91.65507649513212,NA
30233,Butts County,GA,NA,59.13978494623656
30248,Henry County,GA,61.19610570236439,NA
30281,Henry County,GA,NA,24.731182795698924
30311,Fulton County,GA,NA,27.598566308243726
30354,Fulton County,GA,NA,81.36200716845879
30705,Murray County,GA,65.92489568845619,NA
30742,Catoosa County,GA,78.99860917941585,NA
30814,Columbia County,GA,80.3894297635605,NA
31029,Monroe County,GA,NA,83.15412186379928
31210,Bibb County,GA,65.0904033379694,NA
31510,Bacon County,GA,77.74687065368568,NA
31620,Cook County,GA,76.63421418636996,NA
31909,Muscogee County,GA,43.39360222531293,NA
96740,Hawaii County,HI,64.95132127955495,NA
96753,Maui County,HI,78.16411682892907,NA
96790,Maui County,HI,96.66203059805285,NA
96797,Honolulu County,HI,9.318497913769123,NA
96817,Honolulu County,HI,14.603616133518777,NA
96819,Honolulu County,HI,18.915159944367176,NA
83263,Franklin County,ID,NA,89.24731182795699
83301,Twin Falls County,ID,22.11404728789986,NA
83328,Twin Falls County,ID,NA,97.1326164874552
83406,Bonneville County,ID,NA,79.56989247311827
83646,Ada County,ID,NA,41.57706093189964
60002,Lake County,IL,NA,41.21863799283154
60004,Cook County,IL,NA,12.903225806451612
60045,Lake County,IL,NA,29.749103942652326
60076,Cook County,IL,NA,68.10035842293907
60099,Lake County,IL,44.78442280945758,NA
60120,Kane County,IL,NA,36.55913978494624
60123,Kane County,IL,25.034770514603615,NA
60151,Kane County,IL,96.24478442280946,NA
60193,Cook County,IL,NA,12.544802867383511
60451,Will County,IL,23.36578581363004,NA
60478,Cook County,IL,77.88595271210013,NA
60515,DuPage County,IL,44.36717663421418,NA
60616,Cook County,IL,NA,11.827956989247312
60617,Cook County,IL,8.344923504867872,NA
60629,Cook County,IL,6.675938803894297,NA
60641,Cook County,IL,15.716272600834492,NA
60647,Cook County,IL,9.040333796940194,NA
60651,Cook County,IL,9.457579972183588,NA
60901,Kankakee County,IL,19.054242002781642,NA
61081,Whiteside County,IL,35.60500695410292,NA
62040,Madison County,IL,23.64394993045897,NA
62205,St. Clair County,IL,90.40333796940195,NA
62448,Jasper County,IL,90.54242002781642,NA
62703,Sangamon County,IL,34.4923504867872,NA
62859,Hamilton County,IL,NA,93.9068100358423
46013,Madison County,IN,37.96940194714882,NA
46037,Hamilton County,IN,70.79276773296245,NA
46044,Madison County,IN,99.02642559109874,NA
46052,Boone County,IN,46.59248956884562,NA
46062,Hamilton County,IN,NA,22.22222222222222
46124,Johnson County,IN,81.78025034770513,NA
46203,Marion County,IN,10.15299026425591,NA
46205,Marion County,IN,41.1682892906815,NA
46218,Marion County,IN,11.265646731571627,NA
46227,Marion County,IN,11.126564673157164,NA
46240,Marion County,IN,88.87343532684284,NA
46307,Lake County,IN,NA,20.07168458781362
46323,Lake County,IN,NA,23.297491039426525
46368,Porter County,IN,37.83031988873435,NA
46385,Porter County,IN,NA,52.32974910394266
46404,Lake County,IN,NA,60.93189964157706
46406,Lake County,IN,67.4547983310153,NA
46517,Elkhart County,IN,NA,77.41935483870968
46710,Noble County,IN,NA,97.4910394265233
46761,LaGrange County,IN,71.48817802503477,NA
46902,Howard County,IN,4.450625869262865,NA
46952,Grant County,IN,20.86230876216968,NA
46953,Grant County,IN,13.908205841446453,NA
47130,Clark County,IN,11.404728789986091,NA
47265,Jennings County,IN,59.66620305980529,NA
47374,Wayne County,IN,NA,4.659498207885305
47438,Greene County,IN,93.04589707927677,NA
47520,Perry County,IN,99.02642559109874,NA
47532,Dubois County,IN,98.19193324061196,NA
47546,Dubois County,IN,56.189151599443676,NA
47802,Vigo County,IN,28.094575799721838,NA
47805,Vigo County,IN,85.1182197496523,NA
47885,Vigo County,IN,83.58831710709318,NA
50213,Clarke County,IA,78.58136300417246,NA
50320,Polk County,IA,NA,72.75985663082437
50701,Black Hawk County,IA,NA,32.61648745519714
50801,Union County,IA,NA,61.29032258064516
51105,Woodbury County,IA,71.3490959666203,NA
51106,Woodbury County,IA,77.46870653685674,NA
51501,Pottawattamie County,IA,3.7552155771905427,NA
52601,Des Moines County,IA,15.159944367176633,NA
52641,Henry County,IA,74.54798331015299,NA
52722,Scott County,IA,56.4673157162726,NA
52732,Clinton County,IA,25.73018080667594,NA
52761,Muscatine County,IA,13.76912378303199,NA
66103,Wyandotte County,KS,NA,85.66308243727599
66720,Neosho County,KS,NA,81.00358422939068
67060,Sedgwick County,KS,93.60222531293462,NA
67214,Sedgwick County,KS,72.46175243393603,NA
67401,Saline County,KS,24.061196105702365,NA
40033,Marion County,KY,NA,76.34408602150538
40068,Henry County,KY,NA,98.9247311827957
40202,Jefferson County,KY,NA,96.415770609319
40205,Jefferson County,KY,NA,47.31182795698925
40208,Jefferson County,KY,53.26842837273992,NA
40213,Jefferson County,KY,39.22114047287899,NA
40214,Jefferson County,KY,7.649513212795549,NA
40215,Jefferson County,KY,21.140472878998608,NA
40219,Jefferson County,KY,46.17524339360223,NA
40243,Jefferson County,KY,86.78720445062586,NA
40291,Jefferson County,KY,NA,24.014336917562723
40299,Jefferson County,KY,NA,29.03225806451613
40330,Mercer County,KY,57.16272600834492,NA
40342,Anderson County,KY,38.94297635605007,NA
40447,Jackson County,KY,NA,87.45519713261649
40456,Rockcastle County,KY,NA,78.85304659498208
40701,Whitley County,KY,NA,16.48745519713262
40740,Laurel County,KY,98.0528511821975,NA
41018,Kenton County,KY,30.45897079276773,NA
41071,Campbell County,KY,NA,41.935483870967744
41095,Gallatin County,KY,97.77468706536857,NA
41101,Boyd County,KY,19.610570236439496,NA
41230,Lawrence County,KY,NA,51.971326164874554
41501,Pike County,KY,14.047287899860919,NA
41635,Floyd County,KY,95.54937413073714,NA
42104,Warren County,KY,46.453407510431155,NA
42301,Daviess County,KY,10.70931849791377,NA
42420,Henderson County,KY,10.292072322670375,NA
70047,St. Charles Parish,LA,94.85396383866481,NA
70124,Orleans Parish,LA,NA,79.92831541218638
70125,Orleans Parish,LA,40.055632823365784,NA
70401,Tangipahoa Parish,LA,NA,44.086021505376344
70570,St. Landry Parish,LA,1.52990264255911,NA
70737,Ascension Parish,LA,7.7885952712100135,NA
70764,Iberville Parish,LA,38.38664812239222,NA
71220,Morehouse Parish,LA,20.58414464534075,51.61290322580645
71302,Rapides Parish,LA,88.03894297635605,NA
71360,Rapides Parish,LA,13.351877607788595,NA
04005,York County,ME,17.663421418636997,NA
04064,York County,ME,75.52155771905424,NA
04103,Cumberland County,ME,25.591098748261476,NA
04106,Cumberland County,ME,NA,43.01075268817204
04253,Androscoggin County,ME,98.60917941585535,NA
04257,Oxford County,ME,97.49652294853965,NA
04742,Aroostook County,ME,78.0250347705146,NA
04901,Kennebec County,ME,NA,3.584229390681003
20678,Calvert County,MD,NA,84.22939068100358
20743,Prince George's County,MD,39.360222531293466,NA
20744,Prince George's County,MD,NA,47.67025089605735
20861,Montgomery County,MD,NA,99.6415770609319
20877,Montgomery County,MD,77.60778859527122,NA
21037,Anne Arundel County,MD,73.15716272600834,NA
21078,Harford County,MD,53.12934631432545,NA
21093,Baltimore County,MD,46.87065368567455,33.691756272401435
21214,Baltimore city,MD,63.42141863699583,NA
21222,Baltimore County,MD,5.84144645340751,NA
21224,Baltimore city,MD,18.497913769123784,NA
21228,Baltimore County,MD,55.21557719054242,NA
21771,Frederick County,MD,NA,71.68458781362007
21811,Worcester County,MD,60.08344923504868,NA
01002,Hampshire County,MA,42.698191933240615,NA
01069,Hampden County,MA,NA,49.82078853046595
01301,Franklin County,MA,NA,46.95340501792115
01430,Worcester County,MA,79.13769123783032,NA
01524,Worcester County,MA,95.13212795549374,NA
01604,Worcester County,MA,0.6954102920723227,NA
01747,Worcester County,MA,90.95966620305981,NA
01773,Middlesex County,MA,93.46314325452016,NA
01832,Essex County,MA,NA,13.261648745519713
01843,Essex County,MA,3.477051460361613,NA
01852,Middlesex County,MA,0,NA
01854,Middlesex County,MA,NA,6.093189964157706
01890,Middlesex County,MA,48.12239221140473,NA
01906,Essex County,MA,NA,10.75268817204301
01913,Essex County,MA,30.180806675938804,NA
02035,Norfolk County,MA,NA,31.54121863799283
02116,Suffolk County,MA,17.385257301808068,NA
02138,Middlesex County,MA,14.881780250347706,NA
02144,Middlesex County,MA,NA,13.978494623655912
02145,Middlesex County,MA,5.702364394993046,NA
02151,Suffolk County,MA,1.6689847009735743,NA
02301,Plymouth County,MA,0.4172461752433936,NA
02360,Plymouth County,MA,0.8344923504867872,NA
02459,Middlesex County,MA,48.400556328233655,NA
02562,Barnstable County,MA,98.74826147426981,NA
02632,Barnstable County,MA,52.29485396383866,NA
02740,Bristol County,MA,0.9735744089012517,NA
02780,Bristol County,MA,NA,1.7921146953405016
48009,Oakland County,MI,NA,88.5304659498208
48015,Macomb County,MI,NA,61.648745519713266
48026,Macomb County,MI,40.19471488178025,NA
48036,Macomb County,MI,32.26703755215577,NA
48044,Macomb County,MI,36.8567454798331,NA
48066,Macomb County,MI,NA,9.31899641577061
48079,St. Clair County,MI,NA,66.66666666666666
48083,Oakland County,MI,82.336578581363,NA
48093,Macomb County,MI,22.39221140472879,NA
48111,Wayne County,MI,NA,62.00716845878136
48114,Livingston County,MI,NA,34.40860215053764
48126,Wayne County,MI,11.68289290681502,NA
48146,Wayne County,MI,NA,20.43010752688172
48169,Livingston County,MI,51.32127955493742,NA
48174,Wayne County,MI,8.205841446453407,NA
48193,Wayne County,MI,57.85813630041725,NA
48197,Washtenaw County,MI,NA,2.5089605734767026
48215,Wayne County,MI,40.89012517385257,NA
48218,Wayne County,MI,74.40890125173853,NA
48227,Wayne County,MI,3.616133518776078,NA
48239,Wayne County,MI,NA,12.186379928315413
48302,Oakland County,MI,73.29624478442281,NA
48307,Oakland County,MI,NA,28.31541218637993
48317,Macomb County,MI,NA,25.806451612903224
48334,Oakland County,MI,58.27538247566064,NA
48341,Oakland County,MI,34.07510431154381,NA
48342,Oakland County,MI,NA,44.80286738351255
48380,Oakland County,MI,83.58831710709318,NA
48441,Huron County,MI,92.90681502086231,NA
48444,Lapeer County,MI,NA,82.43727598566308
48446,Lapeer County,MI,16.550764951321277,NA
48457,Genesee County,MI,83.44923504867872,NA
48461,Lapeer County,MI,71.7663421418637,NA
48504,Genesee County,MI,20.166898470097358,NA
48532,Genesee County,MI,42.14186369958276,NA
48656,Roscommon County,MI,77.05146036161335,NA
48732,Bay County,MI,56.60639777468707,NA
48813,Eaton County,MI,NA,22.58064516129032
48827,Eaton County,MI,84.97913769123782,NA
48864,Ingham County,MI,73.85257301808068,NA
48867,Shiawassee County,MI,8.066759388038943,NA
48910,Ingham County,MI,NA,16.845878136200717
49031,Cass County,MI,83.03198887343532,NA
49068,Calhoun County,MI,NA,54.121863799283155
49221,Lenawee County,MI,5.1460361613351875,NA
49230,Jackson County,MI,NA,56.272401433691755
49348,Allegan County,MI,NA,58.06451612903226
49423,Ottawa County,MI,14.186369958275383,NA
49424,Ottawa County,MI,17.2461752433936,NA
49426,Ottawa County,MI,NA,45.51971326164875
49442,Muskegon County,MI,3.8942976356050067,NA
49444,Muskegon County,MI,10.987482614742698,NA
49507,Kent County,MI,29.207232267037554,NA
49508,Kent County,MI,6.258692628650904,NA
49707,Alpena County,MI,NA,26.881720430107524
49788,Chippewa County,MI,99.44367176634215,NA
49849,Marquette County,MI,77.19054242002782,NA
55021,Rice County,MN,41.58553546592489,NA
55033,Dakota County,MN,NA,63.44086021505376
55082,Washington County,MN,38.108484005563284,NA
55102,Ramsey County,MN,65.64673157162726,NA
55362,Wright County,MN,70.2364394993046,NA
55387,Carver County,MN,76.91237830319889,NA
55404,Hennepin County,MN,10.43115438108484,NA
55423,Hennepin County,MN,22.94853963838665,NA
55426,Hennepin County,MN,64.81223922114047,NA
55429,Hennepin County,MN,15.02086230876217,NA
55720,Carlton County,MN,36.57858136300417,NA
55779,St. Louis County,MN,NA,98.56630824372759
55805,St. Louis County,MN,48.67872044506258,NA
55807,St. Louis County,MN,NA,91.75627240143369
55964,Wabasha County,MN,97.63560500695411,NA
56601,Beltrami County,MN,6.815020862308763,NA
56721,Polk County,MN,NA,74.91039426523297
39507,Harrison County,MS,NA,40.86021505376344
39567,Jackson County,MS,NA,65.23297491039428
39601,Lincoln County,MS,50.208623087621696,NA
63033,St. Louis County,MO,NA,17.20430107526882
63051,Jefferson County,MO,NA,75.62724014336918
63080,Franklin County,MO,NA,60.215053763440864
63121,St. Louis County,MO,33.65785813630042,NA
63129,St. Louis County,MO,49.09596662030598,NA
63303,St. Charles County,MO,27.53824756606398,NA
63304,St. Charles County,MO,34.35326842837274,NA
63368,St. Charles County,MO,46.03616133518776,NA
63664,Washington County,MO,75.79972183588318,NA
63775,Perry County,MO,NA,42.29390681003584
63801,Scott County,MO,26.14742698191933,NA
63863,Dunklin County,MO,86.6481223922114,NA
64052,Jackson County,MO,12.100139082058414,NA
64063,Jackson County,MO,42.97635605006954,NA
64130,Jackson County,MO,7.37134909596662,NA
64683,Grundy County,MO,62.03059805285118,NA
65536,Laclede County,MO,43.671766342141865,NA
65565,Crawford County,MO,92.35048678720446,NA
65742,Webster County,MO,NA,80.64516129032258
65803,Greene County,MO,11.821974965229485,NA
68108,Douglas County,NE,73.99165507649514,NA
68127,Douglas County,NE,70.9318497913769,NA
68138,Sarpy County,NE,94.01947148817803,NA
68818,Hamilton County,NE,98.33101529902642,96.05734767025089
68845,Buffalo County,NE,83.86648122392212,NA
68949,Phelps County,NE,94.99304589707927,NA
89118,Clark County,NV,87.0653685674548,NA
89119,Clark County,NV,24.200278164116828,NA
89128,Clark County,NV,53.68567454798331,NA
89178,Clark County,NV,90.12517385257301,NA
89183,Clark County,NV,66.89847009735745,NA
89423,Douglas County,NV,82.05841446453408,NA
89431,Washoe County,NV,25.17385257301808,NA
89433,Washoe County,NV,43.254520166898466,NA
89441,Washoe County,NV,79.83310152990263,NA
89502,Washoe County,NV,55.77190542420028,NA
89512,Washoe County,NV,18.35883171070932,NA
03053,Rockingham County,NH,31.84979137691238,NA
03743,Sullivan County,NH,57.99721835883172,NA
03878,Strafford County,NH,81.08484005563282,NA
07010,Bergen County,NJ,51.599443671766345,NA
07047,Hudson County,NJ,6.11961057023644,NA
07071,Bergen County,NJ,69.68011126564673,NA
07104,Essex County,NJ,39.91655076495132,NA
07108,Essex County,NJ,1.808066759388039,NA
07202,Union County,NJ,7.093184979137692,NA
07206,Union County,NJ,9.17941585535466,NA
07508,Passaic County,NJ,97.2183588317107,NA
07514,Passaic County,NJ,86.36995827538247,NA
07719,Monmouth County,NJ,NA,70.96774193548387
07728,Monmouth County,NJ,17.10709318497914,NA
07733,Monmouth County,NJ,85.39638386648123,NA
07843,Sussex County,NJ,72.87899860917942,NA
07981,Morris County,NJ,95.2712100139082,NA
08046,Burlington County,NJ,6.954102920723226,NA
08050,Ocean County,NJ,NA,75.98566308243727
08054,Burlington County,NJ,59.944367176634216,NA
08068,Burlington County,NJ,63.97774687065368,NA
08069,Salem County,NJ,16.689847009735743,NA
08080,Gloucester County,NJ,42.42002781641168,NA
08089,Camden County,NJ,100,NA
08527,Ocean County,NJ,10.013908205841446,NA
08638,Mercer County,NJ,44.08901251738526,NA
08701,Ocean County,NJ,19.471488178025034,NA
08731,Ocean County,NJ,NA,57.34767025089605
08751,Ocean County,NJ,92.48956884561892,NA
08753,Ocean County,NJ,2.5034770514603615,NA
08759,Ocean County,NJ,NA,17.921146953405017
08816,Middlesex County,NJ,39.082058414464534,NA
08861,Middlesex County,NJ,NA,96.7741935483871
08863,Middlesex County,NJ,70.65368567454799,NA
08882,Middlesex County,NJ,63.56050069541029,NA
87026,Valencia County,NM,91.3769123783032,NA
87114,Bernalillo County,NM,37.27399165507649,NA
87124,Sandoval County,NM,NA,10.39426523297491
87401,San Juan County,NM,19.33240611961057,NA
87420,San Juan County,NM,34.21418636995828,NA
88007,Doa Ana County,NM,59.80528511821975,NA
88203,Chaves County,NM,NA,24.372759856630825
88345,Lincoln County,NM,74.68706536856745,NA
10025,New York County,NY,NA,15.770609318996415
10029,New York County,NY,0.13908205841446453,NA
10035,New York County,NY,NA,9.67741935483871
10305,Richmond County,NY,54.24200278164116,NA
10309,Richmond County,NY,NA,54.83870967741935
10312,Richmond County,NY,47.14881780250348,NA
10457,Bronx County,NY,0.27816411682892905,NA
10461,Bronx County,NY,NA,23.655913978494624
10467,Bronx County,NY,NA,6.810035842293908
10468,Bronx County,NY,1.3908205841446455,NA
10940,Orange County,NY,18.776077885952713,NA
11206,Kings County,NY,2.781641168289291,NA
11231,Kings County,NY,44.92350486787204,NA
11357,Queens County,NY,74.96522948539638,NA
11722,Suffolk County,NY,26.842837273991655,NA
11746,Suffolk County,NY,52.990264255910994,NA
11784,Suffolk County,NY,NA,86.73835125448028
12020,Saratoga County,NY,22.39221140472879,NA
12180,Rensselaer County,NY,2.364394993045897,10.03584229390681
12184,Columbia County,NY,83.31015299026426,NA
12202,Albany County,NY,31.29346314325452,NA
12303,Schenectady County,NY,42.00278164116829,NA
12801,Warren County,NY,22.809457579972182,NA
13031,Onondaga County,NY,47.28789986091794,NA
13040,Cortland County,NY,87.76077885952712,NA
13073,Tompkins County,NY,60.778859527121,NA
13152,Onondaga County,NY,NA,86.02150537634408
13203,Onondaga County,NY,21.41863699582754,NA
13206,Onondaga County,NY,60.36161335187761,NA
13335,Otsego County,NY,89.84700973574408,NA
13440,Oneida County,NY,2.086230876216968,NA
13492,Oneida County,NY,NA,58.422939068100355
13601,Jefferson County,NY,5.4242002781641165,NA
13668,St. Lawrence County,NY,93.3240611961057,NA
13760,Broome County,NY,1.1126564673157162,0
13778,Chenango County,NY,66.48122392211405,NA
13803,Cortland County,NY,80.80667593880389,NA
13850,Broome County,NY,17.80250347705146,NA
13901,Broome County,NY,4.58970792767733,NA
13905,Broome County,NY,NA,5.376344086021505
14011,Wyoming County,NY,NA,88.17204301075269
14048,Chautauqua County,NY,41.02920723226704,NA
14086,Erie County,NY,23.226703755215578,NA
14094,Niagara County,NY,2.2253129346314324,NA
14206,Erie County,NY,15.577190542420027,NA
14214,Erie County,NY,35.744089012517385,NA
14424,Ontario County,NY,NA,0.7168458781362007
14450,Monroe County,NY,NA,1.0752688172043012
14456,Ontario County,NY,8.484005563282336,NA
14522,Wayne County,NY,37.69123783031989,NA
14580,Monroe County,NY,0.5563282336578581,NA
14590,Wayne County,NY,NA,67.38351254480287
14606,Monroe County,NY,3.3379694019471486,NA
14615,Monroe County,NY,13.212795549374132,NA
14624,Monroe County,NY,2.920723226703755,NA
14719,Cattaraugus County,NY,95.41029207232266,NA
14737,Cattaraugus County,NY,86.09179415855354,NA
14760,Cattaraugus County,NY,11.543810848400557,NA
14772,Cattaraugus County,NY,89.4297635605007,NA
14845,Chemung County,NY,NA,35.842293906810035
14904,Chemung County,NY,31.98887343532684,NA
27012,Forsyth County,NC,34.909596662030594,NA
27017,Surry County,NC,76.35605006954103,NA
27030,Surry County,NC,7.232267037552156,NA
27052,Stokes County,NC,68.9847009735744,NA
27107,Forsyth County,NC,NA,4.301075268817205
27217,Alamance County,NC,46.31432545201669,NA
27298,Randolph County,NC,82.61474269819193,NA
27316,Randolph County,NC,91.3769123783032,NA
27330,Lee County,NC,25.869262865090402,31.899641577060933
27360,Davidson County,NC,21.557719054242003,NA
27455,Guilford County,NC,52.43393602225312,NA
27505,Harnett County,NC,87.34353268428373,NA
27511,Wake County,NC,67.87204450625869,NA
27517,Orange County,NC,NA,35.483870967741936
27520,Johnston County,NC,68.42837273991655,NA
27524,Johnston County,NC,73.7134909596662,NA
27529,Wake County,NC,28.789986091794155,NA
27536,Vance County,NC,32.68428372739917,NA
27712,Durham County,NC,NA,48.74551971326165
27713,Durham County,NC,NA,22.939068100358423
27834,Pitt County,NC,7.927677329624479,NA
27870,Halifax County,NC,26.425591098748264,NA
27889,Beaufort County,NC,NA,30.46594982078853
28018,Rutherford County,NC,94.57579972183588,NA
28025,Cabarrus County,NC,12.378303198887343,NA
28027,Cabarrus County,NC,21.001390820584145,NA
28054,Gaston County,NC,21.696801112656466,NA
28105,Mecklenburg County,NC,62.16968011126565,NA
28160,Rutherford County,NC,92.21140472878999,NA
28166,Iredell County,NC,NA,92.47311827956989
28301,Cumberland County,NC,41.44645340751043,NA
28306,Bladen County,NC,36.43949930458971,NA
28311,Cumberland County,NC,29.48539638386648,NA
28312,Cumberland County,NC,67.0375521557719,NA
28318,Sampson County,NC,90.68150208623088,NA
28328,Sampson County,NC,NA,28.673835125448026
28376,Hoke County,NC,34.770514603616135,NA
28401,New Hanover County,NC,NA,39.06810035842294
28456,Columbus County,NC,99.58275382475661,NA
28472,Columbus County,NC,40.75104311543811,NA
28530,Pitt County,NC,NA,94.6236559139785
28546,Onslow County,NC,NA,56.98924731182796
28694,Ashe County,NC,NA,91.0394265232975
28716,Haywood County,NC,52.85118219749653,NA
43004,Franklin County,OH,45.06258692628651,NA
43050,Knox County,OH,34.63143254520167,NA
43054,Franklin County,OH,79.41585535465924,NA
43055,Licking County,OH,13.630041724617525,NA
43068,Franklin County,OH,39.77746870653686,NA
43080,Licking County,OH,85.67454798331016,NA
43125,Franklin County,OH,NA,68.81720430107528
43160,Fayette County,OH,15.438108484005564,NA
43206,Franklin County,OH,NA,63.08243727598566
43219,Franklin County,OH,NA,42.29390681003584
43223,Franklin County,OH,6.397774687065369,NA
43232,Franklin County,OH,5.006954102920723,NA
43420,Sandusky County,OH,11.96105702364395,NA
43537,Lucas County,OH,32.82336578581363,NA
43560,Lucas County,OH,29.624478442280942,NA
43605,Lucas County,OH,2.642559109874826,NA
43609,Lucas County,OH,5.980528511821975,NA
43616,Lucas County,OH,NA,14.695340501792115
43617,Lucas County,OH,87.62169680111266,NA
43701,Muskingum County,OH,41.863699582753824,0.35842293906810035
43725,Guernsey County,OH,NA,8.24372759856631
43793,Monroe County,OH,NA,82.07885304659499
43935,Belmont County,OH,50.62586926286509,NA
43938,Jefferson County,OH,54.381084840055635,NA
43944,Jefferson County,OH,NA,91.39784946236558
43953,Jefferson County,OH,NA,32.97491039426524
44001,Lorain County,OH,NA,3.942652329749104
44012,Lorain County,OH,38.66481223922114,NA
44053,Lorain County,OH,8.762169680111267,NA
44060,Lake County,OH,7.510431154381085,NA
44089,Erie County,OH,NA,11.469534050179211
44109,Cuyahoga County,OH,NA,19.35483870967742
44110,Cuyahoga County,OH,10.570236439499304,NA
44111,Cuyahoga County,OH,12.795549374130738,NA
44145,Cuyahoga County,OH,NA,5.017921146953405
44202,Portage County,OH,37.13490959666203,NA
44212,Medina County,OH,39.499304589707926,NA
44256,Medina County,OH,4.867872044506258,NA
44314,Summit County,OH,31.01529902642559,NA
44431,Columbiana County,OH,92.07232267037551,NA
44471,Mahoning County,OH,58.136300417246176,NA
44612,Tuscarawas County,OH,95.6884561891516,NA
44654,Holmes County,OH,79.97218358831711,NA
44683,Tuscarawas County,OH,NA,80.28673835125448
44706,Stark County,OH,37.41307371349096,NA
44811,Sandusky County,OH,36.02225312934632,NA
44827,Crawford County,OH,79.69401947148818,NA
44851,Huron County,OH,93.60222531293462,NA
44870,Erie County,OH,1.9471488178025034,NA
44883,Seneca County,OH,19.749652294853963,NA
44890,Huron County,OH,43.81084840055633,NA
44903,Richland County,OH,20.30598052851182,NA
45005,Warren County,OH,9.596662030598054,NA
45042,Butler County,OH,22.67037552155772,NA
45106,Clermont County,OH,NA,71.32616487455196
45140,Clermont County,OH,27.955493741307368,NA
45150,Clermont County,OH,40.61196105702364,NA
45227,Hamilton County,OH,51.599443671766345,NA
45342,Montgomery County,OH,NA,11.11111111111111
45356,Miami County,OH,16.133518776077885,15.053763440860216
45404,Montgomery County,OH,NA,73.47670250896059
45417,Montgomery County,OH,37.41307371349096,NA
45424,Montgomery County,OH,12.378303198887343,NA
45426,Montgomery County,OH,NA,43.727598566308245
45631,Gallia County,OH,12.23922114047288,NA
45680,Lawrence County,OH,15.299026425591098,NA
45694,Scioto County,OH,32.5452016689847,NA
45801,Allen County,OH,13.490959666203059,NA
45831,Putnam County,OH,94.43671766342142,NA
45840,Hancock County,OH,3.1988873435326846,NA
45872,Wood County,OH,84.7009735744089,NA
45895,Auglaize County,OH,NA,39.42652329749104
73025,Oklahoma County,OK,72.04450625869264,65.94982078853047
73026,Cleveland County,OK,78.85952712100139,NA
73036,Canadian County,OK,44.22809457579972,NA
73044,Logan County,OK,54.65924895688457,NA
73130,Oklahoma County,OK,64.53407510431154,NA
73401,Carter County,OK,15.855354659248958,NA
73533,Stephens County,OK,25.452016689847014,NA
74012,Tulsa County,OK,29.068150208623088,NA
74044,Creek County,OK,78.30319888734353,NA
74074,Payne County,OK,48.817802503477054,NA
74127,Tulsa County,OK,65.5076495132128,NA
74501,Pittsburg County,OK,NA,55.19713261648745
97007,Washington County,OR,NA,70.60931899641577
97009,Clackamas County,OR,88.73435326842836,NA
97027,Clackamas County,OR,78.72044506258693,NA
97051,Columbia County,OR,64.67315716272601,NA
97058,Wasco County,OR,43.94993045897079,NA
97203,Multnomah County,OR,43.5326842837274,NA
97209,Multnomah County,OR,72.32267037552155,NA
97211,Multnomah County,OR,47.56606397774687,NA
97229,Washington County,OR,NA,44.44444444444444
97303,Marion County,OR,74.1307371349096,NA
97411,Coos County,OR,81.22392211404728,NA
97470,Douglas County,OR,35.04867872044507,NA
97702,Deschutes County,OR,NA,46.59498207885305
97801,Umatilla County,OR,NA,33.33333333333333
97838,Umatilla County,OR,NA,21.863799283154123
97850,Union County,OR,NA,34.76702508960574
15010,Beaver County,PA,24.33936022253129,NA
15139,Allegheny County,PA,96.105702364395,NA
15146,Allegheny County,PA,50.34770514603616,NA
15203,Allegheny County,PA,NA,77.77777777777779
15210,Allegheny County,PA,16.82892906815021,NA
15211,Allegheny County,PA,88.45618915159945,NA
15221,Allegheny County,PA,NA,32.25806451612903
15228,Allegheny County,PA,NA,75.26881720430107
15235,Allegheny County,PA,22.253129346314328,NA
15367,Washington County,PA,NA,92.1146953405018
15679,Westmoreland County,PA,99.86091794158554,NA
16055,Butler County,PA,87.48261474269819,NA
16201,Armstrong County,PA,36.16133518776078,13.620071684587815
16407,Erie County,PA,78.30319888734353,NA
17003,Lebanon County,PA,50.06954102920723,NA
17078,Lebanon County,PA,NA,14.336917562724013
17331,York County,PA,NA,1.4336917562724014
17517,Lancaster County,PA,57.301808066759385,NA
17566,Lancaster County,PA,84.00556328233658,NA
17701,Lycoming County,PA,5.563282336578582,6.451612903225806
17724,Bradford County,PA,NA,95.3405017921147
17821,Montour County,PA,60.91794158553546,NA
17841,Mifflin County,PA,96.94019471488178,NA
17901,Schuylkill County,PA,30.737134909596662,NA
17954,Schuylkill County,PA,82.75382475660639,NA
17961,Schuylkill County,PA,84.56189151599443,NA
18102,Lehigh County,PA,NA,7.885304659498208
18642,Luzerne County,PA,94.1585535465925,NA
18702,Luzerne County,PA,8.6230876216968,NA
18969,Montgomery County,PA,68.15020862308762,NA
19007,Bucks County,PA,30.319888734353267,NA
19013,Delaware County,PA,4.033379694019471,NA
19020,Bucks County,PA,36.99582753824757,NA
19047,Bucks County,PA,28.51182197496523,NA
19073,Delaware County,PA,56.05006954102921,NA
19111,Philadelphia County,PA,NA,5.734767025089606
19120,Philadelphia County,PA,19.88873435326843,NA
19121,Philadelphia County,PA,9.735744089012517,NA
19124,Philadelphia County,PA,1.2517385257301807,NA
19126,Philadelphia County,PA,69.4019471488178,NA
19133,Philadelphia County,PA,NA,40.50179211469534
19134,Philadelphia County,PA,38.80389429763561,18.63799283154122
19135,Philadelphia County,PA,16.968011126564672,NA
19138,Philadelphia County,PA,NA,65.59139784946237
19141,Philadelphia County,PA,8.90125173852573,NA
19149,Philadelphia County,PA,NA,36.91756272401434
19152,Philadelphia County,PA,21.279554937413074,NA
19335,Chester County,PA,NA,17.562724014336915
19380,Chester County,PA,14.325452016689846,NA
19440,Montgomery County,PA,84.42280945757997,NA
19446,Montgomery County,PA,NA,19.71326164874552
19530,Berks County,PA,NA,72.04301075268818
19608,Berks County,PA,33.24061196105703,NA
02910,Providence County,RI,53.40751043115438,NA
02914,Providence County,RI,75.24339360222531,NA
29212,Lexington County,SC,66.62030598052851,NA
29483,Dorchester County,SC,19.19332406119611,NA
29582,Horry County,SC,NA,62.72401433691756
29615,Greenville County,SC,61.61335187760779,NA
29642,Pickens County,SC,NA,60.57347670250897
29673,Greenville County,SC,NA,25.089605734767023
29678,Oconee County,SC,NA,40.14336917562724
29715,York County,SC,70.37552155771905,NA
29909,Beaufort County,SC,NA,21.14695340501792
29920,Beaufort County,SC,84.14464534075104,NA
57262,Roberts County,SD,97.35744089012516,NA
57625,Dewey County,SD,96.80111265646731,NA
37040,Montgomery County,TN,28.650904033379692,NA
37055,Dickson County,TN,28.2336578581363,NA
37064,Williamson County,TN,49.93045897079277,NA
37073,Robertson County,TN,86.23087621696801,NA
37075,Sumner County,TN,NA,7.168458781362006
37127,Rutherford County,TN,NA,82.79569892473118
37135,Williamson County,TN,NA,92.831541218638
37167,Rutherford County,TN,31.710709318497916,NA
37208,Davidson County,TN,NA,69.53405017921148
37218,Davidson County,TN,54.79833101529903,NA
37343,Hamilton County,TN,26.70375521557719,NA
37411,Hamilton County,TN,42.280945757997216,NA
37601,Washington County,TN,18.636995827538247,15.412186379928317
37620,Sullivan County,TN,NA,21.50537634408602
37774,Loudon County,TN,NA,30.824372759856633
37921,Knox County,TN,33.379694019471486,NA
38019,Tipton County,TN,59.248956884561885,NA
38242,Henry County,TN,NA,45.878136200716845
38310,McNairy County,TN,81.50208623087622,NA
38351,Henderson County,TN,55.910987482614736,NA
38401,Maury County,TN,NA,8.960573476702509
38464,Lawrence County,TN,36.57858136300417,NA
75032,Rockwall County,TX,63.69958275382476,NA
75034,Denton County,TX,NA,35.12544802867383
75038,Dallas County,TX,NA,90.32258064516128
75056,Denton County,TX,NA,39.784946236559136
75063,Dallas County,TX,60.500695410292074,NA
75088,Dallas County,TX,NA,54.48028673835126
75093,Collin County,TX,51.46036161335188,NA
75154,Ellis County,TX,NA,49.46236559139785
75216,Dallas County,TX,32.127955493741304,NA
75237,Dallas County,TX,48.261474269819196,NA
75252,Collin County,TX,69.12378303198888,NA
75494,Wood County,TX,85.1182197496523,NA
76063,Tarrant County,TX,16.27260083449235,16.129032258064516
76107,Tarrant County,TX,45.479833101529906,NA
76118,Tarrant County,TX,83.17107093184978,NA
76208,Denton County,TX,63.282336578581365,NA
76248,Tarrant County,TX,NA,50.89605734767025
76273,Grayson County,TX,88.5952712100139,NA
76301,Wichita County,TX,NA,77.06093189964157
76476,Hood County,TX,98.74826147426981,NA
76543,Bell County,TX,64.11682892906815,NA
76712,McLennan County,TX,NA,48.38709677419355
77006,Harris County,TX,75.93880389429764,NA
77019,Harris County,TX,73.01808066759388,NA
77346,Harris County,TX,24.47844228094576,NA
77365,Montgomery County,TX,52.57301808066759,NA
77371,San Jacinto County,TX,87.89986091794158,NA
77380,Montgomery County,TX,NA,64.87455197132617
77422,Brazoria County,TX,76.21696801112657,NA
77433,Harris County,TX,14.74269819193324,NA
77437,Wharton County,TX,66.62030598052851,NA
77511,Brazoria County,TX,49.65229485396384,NA
77550,Galveston County,TX,21.835883171070932,NA
77571,Harris County,TX,32.40611961057024,NA
77573,Galveston County,TX,39.63838664812239,NA
77583,Brazoria County,TX,54.5201668984701,NA
78061,Frio County,TX,93.88038942976355,NA
78155,Guadalupe County,TX,NA,37.27598566308244
78228,Bexar County,TX,33.101529902642554,NA
78259,Bexar County,TX,76.77329624478443,NA
78363,Kleberg County,TX,60.639777468706534,NA
78372,Jim Wells County,TX,94.71488178025035,NA
78373,Nueces County,TX,99.72183588317107,NA
78380,Nueces County,TX,NA,74.19354838709677
78401,Nueces County,TX,NA,98.9247311827957
78411,Nueces County,TX,NA,76.70250896057348
78418,Nueces County,TX,89.56884561891516,NA
78596,Hidalgo County,TX,74.26981919332405,NA
78717,Williamson County,TX,82.75382475660639,NA
78732,Travis County,TX,95.96662030598053,NA
78746,Travis County,TX,76.49513212795549,NA
78748,Travis County,TX,72.73991655076495,NA
78852,Maverick County,TX,58.692628650904034,NA
78942,Lee County,TX,NA,93.54838709677419
79102,Potter County,TX,88.17802503477051,NA
79423,Lubbock County,TX,33.379694019471486,NA
79761,Ector County,TX,53.82475660639777,NA
79901,El Paso County,TX,NA,87.81362007168458
79924,El Paso County,TX,47.009735744089014,NA
79925,El Paso County,TX,NA,59.49820788530465
84014,Davis County,UT,89.70792767732962,NA
84065,Salt Lake County,UT,NA,53.76344086021505
84067,Weber County,UT,NA,67.74193548387096
84098,Summit County,UT,68.70653685674549,NA
84701,Sevier County,UT,91.09874826147427,NA
84741,Kane County,UT,NA,89.6057347670251
84790,Washington County,UT,47.98331015299026,NA
05201,Bennington County,VT,51.04311543810849,NA
05401,Chittenden County,VT,52.155771905424196,NA
05495,Chittenden County,VT,89.98609179415855,NA
22030,Fairfax County,VA,66.20305980528511,NA
22201,Arlington County,VA,62.58692628650904,NA
22205,Arlington County,VA,85.81363004172462,NA
22405,Stafford County,VA,60.22253129346314,NA
22406,Stafford County,VA,94.29763560500696,NA
22963,Fluvanna County,VA,76.0778859527121,NA
23112,Chesterfield County,VA,NA,34.05017921146953
23116,Hanover County,VA,67.73296244784423,NA
23188,James City County,VA,NA,3.225806451612903
23223,Henrico County,VA,4.3115438108484,NA
23226,Richmond city,VA,91.09874826147427,NA
23227,Henrico County,VA,45.75799721835883,NA
23434,Suffolk city,VA,17.941585535465926,NA
23666,Hampton city,VA,12.934631432545201,NA
23669,Hampton city,VA,26.286509040333794,NA
23692,York County,VA,NA,55.91397849462365
24019,Roanoke County,VA,58.8317107093185,NA
24055,Henry County,VA,65.78581363004173,NA
24503,Lynchburg city,VA,87.20445062586927,NA
24522,Appomattox County,VA,81.50208623087622,NA
24614,Buchanan County,VA,63.143254520166906,NA
98004,King County,WA,75.10431154381085,NA
98012,Snohomish County,WA,66.06397774687065,NA
98040,King County,WA,NA,63.799283154121866
98052,King County,WA,NA,26.523297491039425
98057,King County,WA,80.66759388038943,NA
98058,King County,WA,36.30041724617524,NA
98092,King County,WA,28.929068150208625,NA
98117,King County,WA,65.22948539638386,NA
98126,King County,WA,62.447844228094574,NA
98133,King County,WA,32.962447844228095,NA
98199,King County,WA,NA,79.21146953405018
98249,Island County,WA,98.47009735744089,NA
98258,Snohomish County,WA,27.677329624478443,NA
98282,Island County,WA,NA,48.028673835125446
98338,Pierce County,WA,50.62586926286509,NA
98362,Clallam County,WA,70.09735744089014,NA
98375,Pierce County,WA,54.93741307371349,NA
98387,Pierce County,WA,59.527121001390825,NA
98604,Clark County,WA,68.2892906815021,NA
98837,Grant County,WA,67.31571627260084,NA
98903,Yakima County,WA,NA,62.365591397849464
98948,Yakima County,WA,88.17802503477051,NA
99202,Spokane County,WA,64.39499304589708,NA
99301,Franklin County,WA,NA,7.526881720430108
99352,Benton County,WA,44.645340751043115,NA
20011,District of Columbia,DC,NA,55.55555555555556
20012,District of Columbia,DC,81.36300417246176,NA
24740,Mercer County,WV,35.18776077885953,38.35125448028674
24801,McDowell County,WV,96.38386648122392,NA
25312,Kanawha County,WV,69.95827538247566,NA
25510,Cabell County,WV,84.28372739916551,NA
26003,Ohio County,WV,NA,2.867383512544803
26288,Webster County,WV,80.94575799721837,NA
26301,Harrison County,WV,33.79694019471488,NA
53095,Washington County,WI,NA,25.448028673835125
53121,Walworth County,WI,47.426981919332405,NA
53143,Kenosha County,WI,20.723226703755216,NA
53205,Milwaukee County,WI,3.05980528511822,NA
53206,Milwaukee County,WI,10.848400556328233,NA
53208,Milwaukee County,WI,13.073713490959666,NA
53212,Milwaukee County,WI,15.99443671766342,NA
53221,Milwaukee County,WI,21.974965229485395,NA
53224,Milwaukee County,WI,40.333796940194716,NA
53566,Green County,WI,54.1029207232267,NA
53964,Marquette County,WI,NA,100
54303,Brown County,WI,49.374130737134905,NA
54403,Marathon County,WI,47.70514603616133,NA
54722,Eau Claire County,WI,99.30458970792768,NA
54853,Polk County,WI,NA,83.87096774193549
54901,Winnebago County,WI,NA,36.200716845878134
54929,Waupaca County,WI,NA,94.26523297491039
54935,Fond du Lac County,WI,17.524339360222534,NA
54971,Fond du Lac County,WI,84.84005563282336,NA
82414,Park County,WY,74.82614742698192,NA
