ZipCode,county,state,Adult,Retirement
35007,Shelby County,AL,NA,39.73063973063973
35214,Jefferson County,AL,34.006211180124225,NA
35405,Tuscaloosa County,AL,10.714285714285714,NA
35633,Lauderdale County,AL,54.503105590062106,NA
35634,Lauderdale County,AL,87.4223602484472,NA
35645,Lauderdale County,AL,NA,92.92929292929293
35653,Franklin County,AL,79.19254658385093,NA
35953,St. Clair County,AL,75.77639751552795,NA
36037,Butler County,AL,55.90062111801242,NA
36066,Autauga County,AL,52.63975155279503,NA
36092,Elmore County,AL,NA,57.23905723905723
36117,Montgomery County,AL,35.24844720496895,NA
36301,Houston County,AL,20.80745341614907,NA
36532,Baldwin County,AL,58.38509316770186,NA
36561,Baldwin County,AL,NA,79.46127946127946
36830,Lee County,AL,67.2360248447205,NA
99501,Anchorage Municipality,AK,23.136645962732917,NA
85008,Maricopa County,AZ,15.993788819875776,NA
85009,Maricopa County,AZ,NA,28.28282828282828
85207,Maricopa County,AZ,27.639751552795033,NA
85254,Maricopa County,AZ,NA,68.35016835016835
85301,Maricopa County,AZ,7.298136645962733,NA
85306,Maricopa County,AZ,54.037267080745345,NA
85307,Maricopa County,AZ,93.7888198757764,NA
85321,Pima County,AZ,NA,93.60269360269359
85383,Maricopa County,AZ,28.416149068322984,NA
85730,Pima County,AZ,59.78260869565217,NA
85749,Pima County,AZ,78.88198757763976,NA
86047,Navajo County,AZ,35.869565217391305,NA
86305,Yavapai County,AZ,NA,37.03703703703704
86327,Yavapai County,AZ,91.92546583850931,NA
86442,Mohave County,AZ,NA,12.121212121212121
72223,Pulaski County,AR,83.54037267080744,NA
72712,Benton County,AR,NA,72.72727272727273
90026,Los Angeles County,CA,46.273291925465834,NA
90046,Los Angeles County,CA,51.39751552795031,NA
90047,Los Angeles County,CA,18.16770186335404,NA
90048,Los Angeles County,CA,78.72670807453416,NA
90056,Los Angeles County,CA,94.25465838509317,NA
90221,Los Angeles County,CA,13.664596273291925,NA
90631,Orange County,CA,36.49068322981366,NA
91343,Los Angeles County,CA,52.01863354037267,NA
91711,Los Angeles County,CA,NA,92.25589225589226
91768,Los Angeles County,CA,74.53416149068323,NA
91773,Los Angeles County,CA,94.56521739130434,NA
92008,San Diego County,CA,79.65838509316771,NA
92114,San Diego County,CA,65.527950310559,NA
92116,San Diego County,CA,76.08695652173914,NA
92122,San Diego County,CA,72.51552795031056,NA
92201,Riverside County,CA,NA,71.38047138047138
92203,Riverside County,CA,86.80124223602485,NA
92211,Riverside County,CA,69.87577639751554,NA
92250,Imperial County,CA,90.83850931677019,NA
92264,Riverside County,CA,NA,13.468013468013467
92410,San Bernardino County,CA,34.62732919254658,NA
92411,San Bernardino County,CA,75.93167701863354,NA
92562,Riverside County,CA,27.173913043478258,NA
92571,Riverside County,CA,71.8944099378882,NA
92649,Orange County,CA,54.6583850931677,NA
92881,Riverside County,CA,75,NA
93010,Ventura County,CA,35.55900621118012,NA
93012,Ventura County,CA,68.7888198757764,NA
93292,Tulare County,CA,85.55900621118012,NA
93308,Kern County,CA,29.503105590062113,NA
93444,San Luis Obispo County,CA,60.24844720496895,NA
93706,Fresno County,CA,23.75776397515528,NA
93726,Fresno County,CA,53.72670807453416,NA
93940,Monterey County,CA,NA,30.303030303030305
94070,San Mateo County,CA,NA,66.66666666666666
94110,San Francisco County,CA,15.683229813664596,NA
94115,San Francisco County,CA,88.66459627329193,NA
94301,Santa Clara County,CA,92.2360248447205,NA
94510,Solano County,CA,82.7639751552795,NA
94513,Contra Costa County,CA,NA,81.81818181818183
94517,Contra Costa County,CA,97.36024844720497,NA
94518,Contra Costa County,CA,NA,74.07407407407408
94526,Contra Costa County,CA,66.77018633540372,NA
94550,Alameda County,CA,47.20496894409938,NA
94553,Contra Costa County,CA,41.77018633540372,NA
94582,Contra Costa County,CA,NA,95.28619528619528
94587,Alameda County,CA,37.577639751552795,NA
94603,Alameda County,CA,47.04968944099379,NA
94608,Alameda County,CA,53.105590062111794,NA
94952,Sonoma County,CA,NA,40.06734006734007
95014,Santa Clara County,CA,65.37267080745342,NA
95020,Santa Clara County,CA,NA,34.34343434343434
95050,Santa Clara County,CA,70.4968944099379,NA
95116,Santa Clara County,CA,43.16770186335403,NA
95148,Santa Clara County,CA,67.08074534161491,NA
95205,San Joaquin County,CA,50.31055900621118,NA
95357,Stanislaus County,CA,86.33540372670807,NA
95492,Sonoma County,CA,63.81987577639752,NA
95610,Sacramento County,CA,NA,45.45454545454545
95648,Placer County,CA,61.33540372670807,NA
95687,Solano County,CA,39.90683229813665,NA
95709,El Dorado County,CA,NA,78.78787878787878
95762,El Dorado County,CA,79.5031055900621,NA
95946,Nevada County,CA,NA,86.53198653198653
95949,Nevada County,CA,89.59627329192547,NA
95991,Sutter County,CA,30.434782608695656,NA
96001,Shasta County,CA,22.36024844720497,NA
96022,Tehama County,CA,80.59006211180125,NA
96150,El Dorado County,CA,NA,85.18518518518519
80015,Arapahoe County,CO,19.40993788819876,NA
80017,Arapahoe County,CO,39.75155279503105,NA
80026,Boulder County,CO,61.49068322981367,NA
80027,Boulder County,CO,NA,56.22895622895623
80104,Douglas County,CO,55.434782608695656,NA
80118,Douglas County,CO,97.04968944099379,NA
80124,Douglas County,CO,65.83850931677019,NA
80127,Jefferson County,CO,77.01863354037268,NA
80205,Denver County,CO,15.527950310559005,NA
80232,Jefferson County,CO,NA,75.08417508417509
80233,Adams County,CO,27.95031055900621,NA
80516,Weld County,CO,NA,83.5016835016835
80526,Larimer County,CO,70.1863354037267,NA
81416,Delta County,CO,73.91304347826086,NA
06037,Hartford County,CT,73.75776397515527,NA
06042,Hartford County,CT,40.06211180124223,NA
06053,Hartford County,CT,14.285714285714285,NA
06082,Hartford County,CT,NA,17.845117845117844
06105,Hartford County,CT,NA,36.36363636363637
06111,Hartford County,CT,39.59627329192546,NA
06415,New London County,CT,53.881987577639755,NA
06450,New Haven County,CT,8.540372670807454,NA
06457,Middlesex County,CT,32.608695652173914,NA
06513,New Haven County,CT,40.52795031055901,NA
06825,Fairfield County,CT,84.3167701863354,NA
19707,New Castle County,DE,86.95652173913044,NA
19734,New Castle County,DE,NA,77.77777777777779
19805,New Castle County,DE,NA,10.437710437710438
19904,Kent County,DE,42.2360248447205,NA
19973,Sussex County,DE,45.3416149068323,NA
32174,Volusia County,FL,NA,14.14141414141414
32209,Duval County,FL,6.6770186335403725,NA
32210,Duval County,FL,5.900621118012422,NA
32222,Duval County,FL,76.86335403726709,NA
32507,Escambia County,FL,NA,15.488215488215488
32568,Escambia County,FL,94.87577639751554,NA
32640,Putnam County,FL,100,NA
32643,Alachua County,FL,51.5527950310559,NA
32720,Volusia County,FL,58.69565217391305,NA
32725,Volusia County,FL,NA,42.42424242424242
32832,Orange County,FL,NA,90.57239057239057
32835,Orange County,FL,59.006211180124225,NA
32837,Orange County,FL,22.204968944099377,NA
33004,Broward County,FL,77.32919254658384,NA
33033,Miami-Dade County,FL,NA,55.218855218855225
33065,Broward County,FL,NA,52.861952861952865
33068,Broward County,FL,NA,55.55555555555556
33162,Miami-Dade County,FL,NA,62.96296296296296
33196,Miami-Dade County,FL,66.30434782608695,NA
33312,Broward County,FL,36.33540372670808,NA
33334,Broward County,FL,NA,53.87205387205387
33410,Palm Beach County,FL,NA,35.35353535353536
33461,Palm Beach County,FL,59.78260869565217,NA
33510,Hillsborough County,FL,54.96894409937888,NA
33567,Hillsborough County,FL,75.31055900621118,NA
33611,Hillsborough County,FL,71.73913043478261,NA
33712,Pinellas County,FL,NA,61.27946127946128
33771,Pinellas County,FL,NA,35.01683501683502
33773,Pinellas County,FL,68.94409937888199,NA
33809,Polk County,FL,48.4472049689441,NA
33897,Polk County,FL,NA,71.04377104377105
33904,Lee County,FL,39.44099378881988,NA
33905,Lee County,FL,NA,26.599326599326602
34113,Collier County,FL,81.67701863354037,NA
34114,Collier County,FL,NA,39.05723905723906
34120,Collier County,FL,97.98136645962732,NA
34285,Sarasota County,FL,89.13043478260869,NA
34465,Citrus County,FL,64.75155279503106,84.17508417508418
34690,Pasco County,FL,NA,75.75757575757575
34736,Lake County,FL,74.68944099378882,NA
34744,Osceola County,FL,28.26086956521739,NA
34758,Osceola County,FL,NA,51.178451178451176
34953,St. Lucie County,FL,8.385093167701864,NA
34984,St. Lucie County,FL,54.347826086956516,NA
34986,St. Lucie County,FL,NA,25.925925925925924
30016,Newton County,GA,41.61490683229814,23.232323232323232
30034,DeKalb County,GA,31.987577639751553,NA
30041,Forsyth County,GA,29.503105590062113,NA
30052,Walton County,GA,NA,10.1010101010101
30082,Cobb County,GA,90.99378881987577,NA
30087,DeKalb County,GA,NA,58.92255892255892
30106,Cobb County,GA,88.66459627329193,NA
30120,Bartow County,GA,21.8944099378882,46.464646464646464
30135,Douglas County,GA,NA,16.4983164983165
30217,Heard County,GA,68.63354037267081,NA
30240,Troup County,GA,59.161490683229815,NA
30248,Henry County,GA,58.850931677018636,NA
30281,Henry County,GA,NA,21.548821548821547
30294,DeKalb County,GA,72.82608695652173,NA
30319,DeKalb County,GA,70.96273291925466,NA
30506,Hall County,GA,32.298136645962735,NA
30518,Gwinnett County,GA,NA,37.37373737373738
30519,Gwinnett County,GA,45.65217391304348,NA
30549,Jackson County,GA,NA,56.22895622895623
30601,Clarke County,GA,69.56521739130434,NA
30735,Gordon County,GA,92.54658385093167,NA
30815,Richmond County,GA,NA,17.50841750841751
31406,Chatham County,GA,52.01863354037267,NA
31545,Wayne County,GA,NA,54.54545454545454
31548,Camden County,GA,56.36645962732919,NA
96706,Honolulu County,HI,14.130434782608695,NA
96720,Hawaii County,HI,35.09316770186335,NA
96738,Hawaii County,HI,NA,93.93939393939394
96744,Honolulu County,HI,21.428571428571427,NA
96761,Maui County,HI,88.9751552795031,NA
96786,Honolulu County,HI,NA,45.79124579124579
96814,Honolulu County,HI,70.65217391304348,NA
96826,Honolulu County,HI,42.701863354037265,NA
83221,Bingham County,ID,29.037267080745345,NA
83401,Bonneville County,ID,16.925465838509314,NA
83402,Bonneville County,ID,NA,48.484848484848484
83442,Jefferson County,ID,42.391304347826086,NA
83706,Ada County,ID,30.59006211180124,NA
83858,Kootenai County,ID,80.43478260869566,NA
60005,Cook County,IL,54.81366459627329,NA
60016,Cook County,IL,56.05590062111801,NA
60021,McHenry County,IL,99.68944099378882,NA
60025,Cook County,IL,43.47826086956522,6.397306397306397
60035,Lake County,IL,NA,16.161616161616163
60053,Cook County,IL,77.48447204968944,NA
60056,Cook County,IL,40.37267080745342,NA
60083,Lake County,IL,NA,69.36026936026936
60098,McHenry County,IL,87.88819875776397,NA
60099,Lake County,IL,72.67080745341616,NA
60137,DuPage County,IL,91.30434782608695,NA
60140,Kane County,IL,73.6024844720497,NA
60155,Cook County,IL,93.32298136645963,NA
60185,DuPage County,IL,NA,30.976430976430976
60189,DuPage County,IL,37.267080745341616,NA
60191,DuPage County,IL,NA,53.535353535353536
60304,Cook County,IL,56.67701863354038,NA
60422,Cook County,IL,NA,74.74747474747475
60423,Will County,IL,41.30434782608695,NA
60439,Cook County,IL,NA,21.21212121212121
60440,Will County,IL,21.27329192546584,NA
60446,Will County,IL,17.080745341614907,NA
60450,Grundy County,IL,25.310559006211182,NA
60473,Cook County,IL,NA,50.505050505050505
60525,Cook County,IL,24.22360248447205,NA
60538,Kendall County,IL,60.09316770186336,NA
60544,Will County,IL,39.285714285714285,NA
60548,DeKalb County,IL,81.98757763975155,NA
60601,Cook County,IL,88.19875776397515,NA
60618,Cook County,IL,11.024844720496894,NA
60804,Cook County,IL,21.11801242236025,NA
60936,Ford County,IL,97.67080745341616,NA
61061,Ogle County,IL,93.01242236024845,NA
61080,Winnebago County,IL,84.78260869565217,NA
61401,Knox County,IL,NA,32.659932659932664
61832,Vermilion County,IL,NA,64.64646464646465
62002,Madison County,IL,64.13043478260869,NA
62363,Pike County,IL,95.96273291925466,NA
62650,Morgan County,IL,80.59006211180125,NA
62959,Williamson County,IL,41.92546583850932,NA
46060,Hamilton County,IN,33.07453416149068,NA
46077,Boone County,IN,86.0248447204969,NA
46107,Marion County,IN,84.62732919254658,NA
46131,Johnson County,IN,NA,29.629629629629626
46143,Johnson County,IN,24.689440993788818,NA
46221,Marion County,IN,31.521739130434785,NA
46240,Marion County,IN,89.44099378881988,NA
46241,Marion County,IN,21.583850931677016,NA
46254,Marion County,IN,NA,77.44107744107744
46268,Marion County,IN,NA,47.81144781144781
46312,Lake County,IN,18.633540372670808,NA
46321,Lake County,IN,NA,53.198653198653204
46342,Lake County,IN,8.074534161490684,NA
46350,LaPorte County,IN,11.801242236024844,NA
46360,LaPorte County,IN,26.70807453416149,NA
46368,Porter County,IN,3.571428571428571,NA
46385,Porter County,IN,NA,3.3670033670033668
46514,Elkhart County,IN,31.366459627329192,NA
46517,Elkhart County,IN,48.91304347826087,NA
46530,St. Joseph County,IN,NA,64.98316498316498
46701,Noble County,IN,72.98136645962732,NA
46706,DeKalb County,IN,45.03105590062112,NA
46783,Huntington County,IN,86.18012422360249,NA
46901,Howard County,IN,NA,4.377104377104377
46928,Grant County,IN,98.13664596273291,NA
46932,Cass County,IN,NA,96.96969696969697
47106,Clark County,IN,96.8944099378882,NA
47203,Bartholomew County,IN,36.80124223602485,NA
47803,Vigo County,IN,NA,57.57575757575758
50401,Cerro Gordo County,IA,NA,11.11111111111111
50501,Webster County,IA,25.62111801242236,NA
50588,Buena Vista County,IA,NA,81.14478114478115
50613,Black Hawk County,IA,50,NA
52241,Johnson County,IA,46.11801242236025,NA
52404,Linn County,IA,34.93788819875777,NA
52577,Mahaska County,IA,NA,44.44444444444444
52641,Henry County,IA,NA,57.91245791245792
52653,Louisa County,IA,NA,96.63299663299664
66217,Johnson County,KS,NA,96.29629629629629
66749,Allen County,KS,91.61490683229813,NA
67420,Mitchell County,KS,96.58385093167702,NA
40004,Nelson County,KY,20.652173913043477,NA
40211,Jefferson County,KY,15.838509316770185,NA
40214,Jefferson County,KY,NA,18.51851851851852
40242,Jefferson County,KY,95.65217391304348,NA
40502,Fayette County,KY,63.19875776397515,NA
40504,Fayette County,KY,NA,64.3097643097643
40509,Fayette County,KY,34.78260869565217,NA
41051,Kenton County,KY,38.81987577639752,NA
42029,Marshall County,KY,75.62111801242236,NA
42261,Butler County,KY,62.11180124223602,NA
42303,Daviess County,KY,12.732919254658384,NA
42501,Pulaski County,KY,NA,60.60606060606061
42754,Grayson County,KY,28.726708074534162,NA
70065,Jefferson Parish,LA,NA,3.0303030303030303
70117,Orleans Parish,LA,NA,20.53872053872054
70118,Orleans Parish,LA,20.496894409937887,NA
70126,Orleans Parish,LA,9.161490683229815,NA
70130,Orleans Parish,LA,43.01242236024845,NA
70454,Tangipahoa Parish,LA,11.335403726708075,NA
70471,St. Tammany Parish,LA,NA,58.92255892255892
70503,Lafayette Parish,LA,NA,27.27272727272727
70535,St. Landry Parish,LA,NA,45.11784511784512
70586,Evangeline Parish,LA,17.857142857142858,NA
70605,Calcasieu Parish,LA,20.031055900621116,NA
70776,Iberville Parish,LA,96.11801242236024,NA
70791,East Baton Rouge Parish,LA,16.304347826086957,NA
70805,East Baton Rouge Parish,LA,4.192546583850932,NA
71202,Ouachita Parish,LA,79.34782608695652,NA
71291,Ouachita Parish,LA,38.50931677018634,NA
71417,Grant Parish,LA,85.40372670807453,NA
04055,Cumberland County,ME,NA,97.64309764309765
04102,Cumberland County,ME,36.024844720496894,NA
04240,Androscoggin County,ME,NA,2.6936026936026933
04364,Kennebec County,ME,56.05590062111801,NA
04654,Washington County,ME,99.22360248447205,NA
20653,St. Mary's County,MD,65.21739130434783,74.41077441077442
20721,Prince George's County,MD,NA,70.70707070707071
20882,Montgomery County,MD,86.95652173913044,NA
21014,Harford County,MD,NA,33.33333333333333
21076,Anne Arundel County,MD,85.09316770186336,NA
21117,Baltimore County,MD,NA,26.936026936026934
21144,Anne Arundel County,MD,83.22981366459628,NA
21146,Anne Arundel County,MD,70.03105590062113,NA
21157,Carroll County,MD,50.465838509316775,NA
21216,Baltimore city,MD,37.11180124223603,NA
21225,Baltimore city,MD,36.95652173913043,NA
21702,Frederick County,MD,NA,67.003367003367
21788,Frederick County,MD,NA,89.56228956228956
21830,Wicomico County,MD,NA,97.97979797979798
01001,Hampden County,MA,28.1055900621118,NA
01085,Hampden County,MA,14.596273291925465,NA
01420,Worcester County,MA,0.15527950310559005,NA
01440,Worcester County,MA,NA,41.75084175084175
01453,Worcester County,MA,1.3975155279503106,NA
01473,Worcester County,MA,93.47826086956522,NA
01540,Worcester County,MA,98.6024844720497,NA
01545,Worcester County,MA,NA,19.19191919191919
01568,Worcester County,MA,71.42857142857143,NA
01609,Worcester County,MA,NA,7.07070707070707
01702,Middlesex County,MA,1.8633540372670807,NA
01748,Middlesex County,MA,43.7888198757764,NA
01752,Middlesex County,MA,49.68944099378882,NA
01760,Middlesex County,MA,13.509316770186336,NA
01775,Middlesex County,MA,NA,82.49158249158249
01841,Essex County,MA,0,NA
01887,Middlesex County,MA,9.782608695652174,NA
01890,Middlesex County,MA,97.51552795031056,NA
01902,Essex County,MA,0.3105590062111801,NA
01930,Essex County,MA,5.124223602484472,NA
01945,Essex County,MA,NA,22.55892255892256
01960,Essex County,MA,1.0869565217391304,NA
02026,Norfolk County,MA,7.142857142857142,NA
02050,Plymouth County,MA,21.73913043478261,NA
02062,Norfolk County,MA,NA,13.131313131313133
02093,Norfolk County,MA,55.590062111801245,NA
02125,Suffolk County,MA,NA,0.6734006734006733
02138,Middlesex County,MA,NA,7.4074074074074066
02148,Middlesex County,MA,NA,3.7037037037037033
02184,Norfolk County,MA,8.229813664596273,NA
02302,Plymouth County,MA,10.559006211180124,NA
02341,Plymouth County,MA,NA,76.0942760942761
02461,Middlesex County,MA,NA,69.02356902356902
02466,Middlesex County,MA,NA,89.22558922558923
02472,Middlesex County,MA,31.05590062111801,NA
02536,Barnstable County,MA,NA,16.835016835016837
02664,Barnstable County,MA,NA,39.39393939393939
02717,Bristol County,MA,NA,94.61279461279462
02743,Bristol County,MA,NA,66.32996632996633
02780,Bristol County,MA,5.279503105590062,NA
48009,Oakland County,MI,NA,63.63636363636363
48038,Macomb County,MI,NA,6.0606060606060606
48043,Macomb County,MI,33.85093167701863,NA
48066,Macomb County,MI,4.658385093167702,NA
48072,Oakland County,MI,NA,54.20875420875421
48073,Oakland County,MI,30.745341614906835,NA
48079,St. Clair County,MI,64.28571428571429,NA
48082,Macomb County,MI,88.50931677018633,NA
48108,Washtenaw County,MI,39.130434782608695,NA
48114,Livingston County,MI,51.70807453416148,NA
48116,Livingston County,MI,29.96894409937888,NA
48130,Washtenaw County,MI,78.57142857142857,NA
48180,Wayne County,MI,3.260869565217391,NA
48193,Wayne County,MI,NA,62.62626262626263
48204,Wayne County,MI,13.043478260869565,NA
48205,Wayne County,MI,6.211180124223603,NA
48207,Wayne County,MI,20.96273291925466,NA
48210,Wayne County,MI,26.86335403726708,NA
48212,Wayne County,MI,12.577639751552795,NA
48221,Wayne County,MI,25.465838509316768,NA
48238,Wayne County,MI,42.08074534161491,NA
48240,Wayne County,MI,22.049689440993788,NA
48309,Oakland County,MI,NA,28.95622895622896
48312,Macomb County,MI,NA,52.52525252525253
48326,Oakland County,MI,50.931677018633536,NA
48340,Oakland County,MI,NA,36.7003367003367
48356,Oakland County,MI,90.37267080745342,NA
48377,Oakland County,MI,65.99378881987577,NA
48438,Genesee County,MI,NA,90.23569023569024
48623,Saginaw County,MI,NA,50.16835016835017
48706,Bay County,MI,10.248447204968944,NA
48821,Eaton County,MI,NA,82.15488215488216
48858,Isabella County,MI,8.850931677018634,NA
48893,Isabella County,MI,73.4472049689441,NA
49024,Kalamazoo County,MI,27.795031055900623,NA
49099,St. Joseph County,MI,NA,91.58249158249158
49250,Hillsdale County,MI,77.63975155279503,NA
49301,Kent County,MI,69.09937888198758,NA
49341,Kent County,MI,62.267080745341616,NA
49401,Ottawa County,MI,57.608695652173914,NA
49417,Ottawa County,MI,48.75776397515528,NA
49424,Ottawa County,MI,17.236024844720497,NA
49504,Kent County,MI,16.61490683229814,NA
49506,Kent County,MI,25.15527950310559,NA
49601,Wexford County,MI,46.58385093167702,NA
49686,Grand Traverse County,MI,47.51552795031056,NA
49783,Chippewa County,MI,52.32919254658385,NA
49855,Marquette County,MI,16.61490683229814,NA
55122,Dakota County,MN,66.61490683229813,NA
55379,Scott County,MN,NA,47.474747474747474
55404,Hennepin County,MN,1.7080745341614907,NA
55407,Hennepin County,MN,9.472049689440993,NA
55409,Hennepin County,MN,90.6832298136646,NA
55410,Hennepin County,MN,86.49068322981367,NA
55411,Hennepin County,MN,NA,19.865319865319865
55720,Carlton County,MN,33.69565217391305,NA
55746,St. Louis County,MN,26.08695652173913,NA
55947,Houston County,MN,NA,81.48148148148148
56073,Brown County,MN,23.60248447204969,NA
56601,Beltrami County,MN,9.006211180124224,NA
38930,Leflore County,MS,NA,84.51178451178451
39429,Marion County,MS,NA,65.993265993266
39759,Oktibbeha County,MS,66.92546583850931,NA
63042,St. Louis County,MO,45.49689440993789,NA
63049,Jefferson County,MO,NA,99.32659932659934
63074,St. Louis County,MO,NA,54.54545454545454
63114,St. Louis County,MO,26.39751552795031,NA
63141,St. Louis County,MO,98.29192546583852,NA
63376,St. Charles County,MO,NA,1.6835016835016834
63379,Lincoln County,MO,NA,77.10437710437711
63401,Marion County,MO,NA,51.85185185185185
64058,Jackson County,MO,74.84472049689441,NA
64068,Clay County,MO,NA,8.417508417508419
64079,Platte County,MO,82.6086956521739,NA
64118,Clay County,MO,7.919254658385093,NA
64127,Jackson County,MO,NA,38.04713804713805
64130,Jackson County,MO,9.627329192546584,NA
64138,Jackson County,MO,14.906832298136646,NA
64468,Nodaway County,MO,NA,59.93265993265994
64506,Buchanan County,MO,NA,9.090909090909092
64720,Bates County,MO,NA,98.65319865319864
65355,Benton County,MO,NA,22.895622895622896
65689,Texas County,MO,92.3913043478261,NA
65742,Webster County,MO,88.35403726708074,NA
65804,Greene County,MO,30.900621118012424,NA
59801,Missoula County,MT,63.66459627329193,NA
59828,Ravalli County,MT,98.91304347826086,NA
68701,Madison County,NE,NA,72.72727272727273
68818,Hamilton County,NE,NA,94.94949494949495
89101,Clark County,NV,29.81366459627329,NA
89103,Clark County,NV,NA,58.24915824915825
89119,Clark County,NV,22.36024844720497,NA
89128,Clark County,NV,50.621118012422365,NA
89134,Clark County,NV,81.05590062111801,NA
89406,Churchill County,NV,NA,65.65656565656566
89433,Washoe County,NV,40.683229813664596,NA
89436,Washoe County,NV,23.91304347826087,NA
89512,Washoe County,NV,45.962732919254655,NA
89521,Washoe County,NV,49.84472049689441,NA
03079,Rockingham County,NH,NA,55.892255892255896
03820,Strafford County,NH,NA,41.41414141414141
07009,Essex County,NJ,NA,78.11447811447812
07017,Essex County,NJ,NA,18.181818181818183
07060,Union County,NJ,NA,24.242424242424242
07073,Bergen County,NJ,99.37888198757764,NA
07107,Essex County,NJ,2.1739130434782608,NA
07112,Essex County,NJ,4.968944099378882,NA
07305,Hudson County,NJ,0.9316770186335404,NA
07424,Passaic County,NJ,84.16149068322981,NA
07631,Bergen County,NJ,99.06832298136646,NA
07666,Bergen County,NJ,43.16770186335403,NA
07730,Monmouth County,NJ,97.82608695652173,NA
07733,Monmouth County,NJ,NA,72.05387205387206
07735,Monmouth County,NJ,80.27950310559007,NA
07739,Monmouth County,NJ,95.34161490683229,NA
07753,Monmouth County,NJ,NA,10.774410774410773
07834,Morris County,NJ,67.3913043478261,NA
07866,Morris County,NJ,64.90683229813664,NA
08037,Atlantic County,NJ,18.32298136645963,NA
08043,Camden County,NJ,43.63354037267081,NA
08053,Burlington County,NJ,57.919254658385086,NA
08062,Gloucester County,NJ,38.35403726708074,NA
08075,Burlington County,NJ,16.459627329192546,NA
08078,Camden County,NJ,95.03105590062113,NA
08080,Gloucester County,NJ,40.21739130434783,NA
08081,Camden County,NJ,27.32919254658385,NA
08087,Ocean County,NJ,19.875776397515526,NA
08232,Atlantic County,NJ,44.254658385093165,NA
08302,Cumberland County,NJ,2.329192546583851,NA
08330,Atlantic County,NJ,NA,32.323232323232325
08401,Atlantic County,NJ,0.4658385093167702,NA
08527,Ocean County,NJ,11.645962732919255,NA
08701,Ocean County,NJ,47.82608695652174,NA
08801,Hunterdon County,NJ,83.69565217391305,NA
08857,Middlesex County,NJ,NA,51.85185185185185
08865,Warren County,NJ,NA,78.45117845117845
87107,Bernalillo County,NM,34.161490683229815,NA
87121,Bernalillo County,NM,6.521739130434782,NA
87122,Bernalillo County,NM,89.13043478260869,NA
87124,Sandoval County,NM,14.440993788819876,NA
87401,San Juan County,NM,18.788819875776397,41.07744107744108
87410,San Juan County,NM,65.6832298136646,NA
88030,Luna County,NM,NA,46.801346801346796
88061,Grant County,NM,NA,70.03367003367003
88220,Eddy County,NM,22.67080745341615,NA
88352,Otero County,NM,84.472049689441,NA
10001,New York County,NY,15.372670807453417,NA
10029,New York County,NY,0.7763975155279503,NA
10301,Richmond County,NY,NA,13.804713804713806
10453,Bronx County,NY,NA,9.427609427609427
10458,Bronx County,NY,6.832298136645963,NA
10468,Bronx County,NY,2.018633540372671,NA
10550,Westchester County,NY,25.77639751552795,24.915824915824917
10552,Westchester County,NY,62.732919254658384,NA
10573,Westchester County,NY,67.54658385093167,NA
10701,Westchester County,NY,2.484472049689441,4.040404040404041
10960,Rockland County,NY,85.09316770186336,NA
11103,Queens County,NY,71.42857142857143,NA
11204,Kings County,NY,30.124223602484474,NA
11206,Kings County,NY,17.70186335403727,NA
11208,Kings County,NY,NA,1.0101010101010102
11219,Kings County,NY,NA,22.22222222222222
11379,Queens County,NY,82.45341614906833,NA
11427,Queens County,NY,74.22360248447205,NA
11432,Queens County,NY,59.62732919254658,NA
11691,Queens County,NY,10.869565217391305,NA
11713,Suffolk County,NY,85.86956521739131,NA
11756,Nassau County,NY,55.74534161490683,NA
11758,Nassau County,NY,90.527950310559,NA
12018,Rensselaer County,NY,NA,83.83838383838383
12065,Saratoga County,NY,24.37888198757764,NA
12157,Schoharie County,NY,93.16770186335404,NA
12203,Albany County,NY,NA,42.76094276094276
12822,Saratoga County,NY,75.15527950310559,NA
12831,Saratoga County,NY,45.807453416149066,NA
12883,Essex County,NY,78.41614906832298,NA
12953,Franklin County,NY,49.06832298136646,NA
13021,Cayuga County,NY,4.503105590062112,NA
13045,Cortland County,NY,5.745341614906832,NA
13073,Tompkins County,NY,57.608695652173914,NA
13126,Oswego County,NY,5.590062111801243,NA
13140,Cayuga County,NY,83.07453416149069,NA
13425,Oneida County,NY,96.73913043478261,NA
13662,St. Lawrence County,NY,32.7639751552795,NA
13820,Otsego County,NY,12.422360248447205,NA
14004,Erie County,NY,61.64596273291926,NA
14067,Niagara County,NY,95.1863354037267,NA
14086,Erie County,NY,51.86335403726709,NA
14094,Niagara County,NY,2.639751552795031,NA
14120,Niagara County,NY,NA,8.080808080808081
14208,Erie County,NY,NA,28.619528619528616
14210,Erie County,NY,27.018633540372672,NA
14217,Erie County,NY,26.552795031055897,NA
14224,Erie County,NY,26.242236024844722,NA
14227,Erie County,NY,25,NA
14432,Ontario County,NY,37.88819875776397,NA
14450,Monroe County,NY,3.7267080745341614,NA
14456,Ontario County,NY,9.937888198757763,NA
14505,Wayne County,NY,62.577639751552795,NA
14513,Wayne County,NY,7.608695652173914,NA
14526,Monroe County,NY,NA,91.24579124579124
14532,Ontario County,NY,NA,73.73737373737373
14534,Monroe County,NY,29.19254658385093,NA
14559,Monroe County,NY,70.80745341614907,23.56902356902357
14580,Monroe County,NY,1.2422360248447204,NA
14605,Monroe County,NY,11.490683229813664,NA
14609,Monroe County,NY,0.6211180124223602,NA
14610,Monroe County,NY,63.04347826086957,NA
14612,Monroe County,NY,2.7950310559006213,NA
14617,Monroe County,NY,NA,4.713804713804714
14626,Monroe County,NY,4.3478260869565215,NA
14701,Chautauqua County,NY,4.037267080745342,NA
14814,Chemung County,NY,NA,98.31649831649831
14850,Tompkins County,NY,24.84472049689441,NA
27103,Forsyth County,NC,44.565217391304344,NA
27127,Forsyth County,NC,NA,5.387205387205387
27209,Montgomery County,NC,NA,99.66329966329967
27312,Chatham County,NC,63.50931677018633,NA
27406,Guilford County,NC,6.055900621118012,NA
27519,Wake County,NC,47.98136645962733,NA
27530,Wayne County,NC,44.099378881987576,NA
27712,Durham County,NC,90.06211180124224,NA
27803,Nash County,NC,46.42857142857143,NA
27909,Pasquotank County,NC,NA,14.814814814814813
28052,Gaston County,NC,27.48447204968944,NA
28306,Bladen County,NC,33.54037267080746,NA
28357,Robeson County,NC,98.75776397515527,NA
28384,Bladen County,NC,61.18012422360248,NA
28562,Craven County,NC,40.838509316770185,NA
28731,Henderson County,NC,NA,51.515151515151516
28768,Transylvania County,NC,NA,63.97306397306397
28777,Mitchell County,NC,NA,68.68686868686868
28787,Buncombe County,NC,NA,73.4006734006734
28906,Cherokee County,NC,77.95031055900621,NA
58554,Morton County,ND,NA,89.8989898989899
58801,Williams County,ND,68.47826086956522,NA
43050,Knox County,OH,32.142857142857146,5.05050505050505
43055,Licking County,OH,15.062111801242237,NA
43123,Franklin County,OH,10.093167701863354,NA
43213,Franklin County,OH,12.267080745341614,NA
43229,Franklin County,OH,9.316770186335404,NA
43230,Franklin County,OH,18.012422360248447,NA
43311,Logan County,OH,31.521739130434785,NA
43334,Morrow County,OH,76.24223602484473,NA
43465,Wood County,OH,79.96894409937887,NA
43605,Lucas County,OH,2.950310559006211,NA
43612,Lucas County,OH,6.366459627329192,NA
43614,Lucas County,OH,13.819875776397517,NA
43725,Guernsey County,OH,NA,8.754208754208754
44035,Lorain County,OH,3.4161490683229814,NA
44039,Lorain County,OH,32.91925465838509,NA
44056,Summit County,OH,66.14906832298136,NA
44060,Lake County,OH,30.27950310559006,NA
44103,Cuyahoga County,OH,53.2608695652174,NA
44108,Cuyahoga County,OH,3.881987577639751,NA
44109,Cuyahoga County,OH,6.987577639751552,NA
44110,Cuyahoga County,OH,12.111801242236025,NA
44122,Cuyahoga County,OH,24.06832298136646,NA
44123,Cuyahoga County,OH,NA,25.252525252525253
44130,Cuyahoga County,OH,NA,0.33670033670033667
44141,Cuyahoga County,OH,NA,58.58585858585859
44143,Cuyahoga County,OH,NA,48.821548821548824
44146,Cuyahoga County,OH,NA,1.3468013468013467
44236,Summit County,OH,89.75155279503106,NA
44256,Medina County,OH,NA,0
44420,Trumbull County,OH,38.66459627329192,NA
44425,Trumbull County,OH,NA,27.609427609427613
44471,Mahoning County,OH,53.57142857142857,NA
44481,Trumbull County,OH,76.3975155279503,NA
44512,Mahoning County,OH,13.043478260869565,NA
44515,Mahoning County,OH,NA,12.794612794612794
44708,Stark County,OH,28.57142857142857,NA
44730,Stark County,OH,97.20496894409938,NA
44805,Ashland County,OH,NA,5.723905723905724
44883,Seneca County,OH,19.099378881987576,NA
44903,Richland County,OH,96.27329192546584,21.885521885521886
45011,Butler County,OH,2.950310559006211,NA
45013,Butler County,OH,4.813664596273292,NA
45044,Butler County,OH,7.763975155279502,NA
45066,Warren County,OH,NA,49.494949494949495
45113,Clinton County,OH,NA,100
45118,Brown County,OH,99.53416149068323,NA
45140,Clermont County,OH,73.29192546583852,NA
45150,Clermont County,OH,38.19875776397515,NA
45215,Hamilton County,OH,NA,38.72053872053872
45224,Hamilton County,OH,52.79503105590062,NA
45233,Hamilton County,OH,75.46583850931677,NA
45249,Hamilton County,OH,91.14906832298136,NA
45331,Darke County,OH,59.472049689441,NA
45347,Preble County,OH,76.70807453416148,NA
45365,Shelby County,OH,15.217391304347828,NA
45373,Miami County,OH,NA,14.47811447811448
45414,Montgomery County,OH,63.35403726708074,NA
45426,Montgomery County,OH,NA,38.38383838383838
45503,Clark County,OH,10.403726708074535,NA
45669,Lawrence County,OH,19.72049689440994,NA
45714,Washington County,OH,19.565217391304348,NA
45805,Allen County,OH,81.2111801242236,NA
45872,Wood County,OH,85.71428571428571,NA
73012,Oklahoma County,OK,NA,49.831649831649834
73026,Cleveland County,OK,80.12422360248446,NA
73030,Murray County,OK,84.93788819875776,NA
73034,Oklahoma County,OK,61.95652173913043,NA
73162,Oklahoma County,OK,49.378881987577635,NA
73401,Carter County,OK,16.149068322981368,NA
74006,Washington County,OK,NA,42.08754208754209
74132,Tulsa County,OK,NA,84.84848484848484
74437,Okmulgee County,OK,82.91925465838509,NA
97006,Washington County,OR,31.832298136645964,NA
97031,Hood River County,OR,70.34161490683229,NA
97045,Clackamas County,OR,43.94409937888199,NA
97302,Marion County,OR,NA,44.78114478114478
97420,Coos County,OR,49.22360248447205,NA
97601,Klamath County,OR,18.944099378881987,NA
97703,Deschutes County,OR,81.98757763975155,NA
97844,Morrow County,OR,91.77018633540372,NA
15010,Beaver County,PA,52.79503105590062,NA
15022,Washington County,PA,NA,76.43097643097643
15068,Westmoreland County,PA,NA,11.447811447811448
15108,Allegheny County,PA,40.993788819875775,NA
15143,Allegheny County,PA,NA,46.12794612794613
15201,Allegheny County,PA,59.3167701863354,NA
15218,Allegheny County,PA,79.8136645962733,NA
15226,Allegheny County,PA,69.72049689440993,NA
15237,Allegheny County,PA,48.60248447204969,24.579124579124578
15683,Westmoreland County,PA,77.79503105590062,NA
15904,Cambria County,PA,60.40372670807454,NA
16001,Butler County,PA,NA,2.356902356902357
16002,Butler County,PA,55.27950310559007,NA
16693,Blair County,PA,91.45962732919256,NA
17013,Cumberland County,PA,NA,18.855218855218855
17019,York County,PA,NA,49.158249158249156
17112,Dauphin County,PA,NA,6.7340067340067336
17403,York County,PA,35.714285714285715,NA
17538,Lancaster County,PA,88.04347826086956,NA
17701,Lycoming County,PA,NA,56.9023569023569
17857,Northumberland County,PA,66.45962732919256,NA
18326,Monroe County,PA,98.4472049689441,NA
18444,Lackawanna County,PA,58.07453416149069,NA
18446,Wyoming County,PA,NA,98.98989898989899
18466,Monroe County,PA,54.192546583850934,NA
18505,Lackawanna County,PA,NA,37.71043771043771
18901,Bucks County,PA,NA,25.589225589225588
18944,Bucks County,PA,80.90062111801242,NA
19031,Montgomery County,PA,95.4968944099379,NA
19032,Delaware County,PA,81.83229813664596,NA
19067,Bucks County,PA,20.341614906832298,NA
19111,Philadelphia County,PA,5.434782608695652,31.313131313131315
19120,Philadelphia County,PA,78.1055900621118,NA
19124,Philadelphia County,PA,1.5527950310559007,NA
19125,Philadelphia County,PA,47.670807453416145,NA
19132,Philadelphia County,PA,8.695652173913043,NA
19136,Philadelphia County,PA,14.751552795031056,NA
19147,Philadelphia County,PA,96.42857142857143,NA
19149,Philadelphia County,PA,31.211180124223603,NA
19335,Chester County,PA,NA,17.17171717171717
19341,Chester County,PA,NA,71.71717171717171
19355,Chester County,PA,72.36024844720497,NA
19380,Chester County,PA,NA,88.21548821548821
19382,Chester County,PA,44.409937888198755,NA
19403,Montgomery County,PA,20.18633540372671,NA
19428,Montgomery County,PA,45.18633540372671,NA
19460,Chester County,PA,24.53416149068323,NA
19468,Montgomery County,PA,NA,35.69023569023569
19508,Berks County,PA,51.24223602484472,NA
02864,Providence County,RI,NA,19.52861952861953
02878,Newport County,RI,78.26086956521739,NA
02889,Kent County,RI,25.931677018633543,NA
02919,Providence County,RI,NA,31.986531986531986
29010,Lee County,SC,74.37888198757764,NA
29033,Lexington County,SC,86.64596273291926,NA
29150,Sumter County,SC,37.422360248447205,NA
29229,Richland County,SC,38.975155279503106,NA
29307,Spartanburg County,SC,61.80124223602485,NA
29406,Charleston County,SC,NA,80.47138047138047
29466,Charleston County,SC,48.29192546583851,NA
29571,Marion County,SC,67.85714285714286,NA
29585,Georgetown County,SC,89.90683229813664,NA
29642,Pickens County,SC,NA,20.2020202020202
29710,York County,SC,NA,50.841750841750844
29835,McCormick County,SC,NA,88.55218855218855
57042,Lake County,SD,NA,48.148148148148145
57401,Brown County,SD,NA,9.764309764309765
57785,Meade County,SD,NA,86.86868686868688
37075,Sumner County,TN,18.478260869565215,NA
37090,Wilson County,TN,64.44099378881988,NA
37122,Wilson County,TN,NA,62.2895622895623
37128,Rutherford County,TN,28.88198757763975,NA
37172,Robertson County,TN,17.546583850931675,NA
37207,Davidson County,TN,72.20496894409938,NA
37218,Davidson County,TN,51.08695652173913,NA
37379,Hamilton County,TN,NA,64.98316498316498
37725,Jefferson County,TN,NA,60.26936026936027
38018,Shelby County,TN,67.85714285714286,NA
38116,Shelby County,TN,NA,34.00673400673401
38122,Shelby County,TN,53.41614906832298,NA
38141,Shelby County,TN,46.58385093167702,NA
75007,Denton County,TX,NA,26.262626262626267
75040,Dallas County,TX,NA,29.96632996632997
75060,Dallas County,TX,41.45962732919254,NA
75071,Collin County,TX,29.347826086956523,NA
75074,Collin County,TX,NA,34.68013468013468
75082,Collin County,TX,NA,43.77104377104377
75098,Collin County,TX,23.29192546583851,NA
75217,Dallas County,TX,11.956521739130435,NA
75220,Dallas County,TX,47.36024844720497,NA
75231,Dallas County,TX,44.87577639751553,NA
75240,Dallas County,TX,69.40993788819875,NA
75418,Fannin County,TX,64.59627329192547,NA
75604,Gregg County,TX,NA,60.94276094276094
75703,Smith County,TX,65.06211180124224,NA
75951,Jasper County,TX,79.03726708074534,NA
76028,Johnson County,TX,95.80745341614907,NA
76036,Tarrant County,TX,84.00621118012423,NA
76051,Tarrant County,TX,33.22981366459628,NA
76087,Parker County,TX,NA,43.43434343434344
76114,Tarrant County,TX,42.857142857142854,NA
76458,Jack County,TX,NA,93.26599326599326
76504,Bell County,TX,12.888198757763975,NA
76549,Bell County,TX,NA,67.003367003367
76643,McLennan County,TX,71.11801242236024,NA
77021,Harris County,TX,36.64596273291926,NA
77028,Harris County,TX,49.378881987577635,NA
77331,San Jacinto County,TX,NA,85.52188552188552
77345,Harris County,TX,NA,86.19528619528619
77346,Harris County,TX,22.82608695652174,36.02693602693603
77373,Harris County,TX,NA,29.292929292929294
77379,Harris County,TX,NA,11.784511784511785
77385,Montgomery County,TX,NA,90.9090909090909
77414,Matagorda County,TX,44.72049689440994,NA
77459,Fort Bend County,TX,82.29813664596274,NA
77511,Brazoria County,TX,17.391304347826086,NA
77515,Brazoria County,TX,48.13664596273292,NA
77545,Fort Bend County,TX,67.70186335403726,NA
77584,Brazoria County,TX,13.354037267080745,NA
77611,Orange County,TX,77.17391304347827,NA
77619,Jefferson County,TX,72.04968944099379,NA
77657,Hardin County,TX,NA,63.2996632996633
77708,Jefferson County,TX,NA,95.62289562289563
77845,Brazos County,TX,NA,27.946127946127948
77879,Burleson County,TX,94.09937888198758,NA
78045,Webb County,TX,NA,67.67676767676768
78102,Bee County,TX,NA,88.88888888888889
78133,Comal County,TX,NA,70.37037037037037
78209,Bexar County,TX,NA,61.61616161616161
78247,Bexar County,TX,NA,61.95286195286195
78253,Bexar County,TX,NA,69.6969696969697
78414,Nueces County,TX,61.024844720496894,NA
78574,Hidalgo County,TX,37.577639751552795,NA
78576,Hidalgo County,TX,94.72049689440993,NA
78613,Williamson County,TX,34.47204968944099,NA
78626,Williamson County,TX,56.83229813664597,NA
78628,Williamson County,TX,73.13664596273291,NA
78641,Williamson County,TX,22.981366459627328,NA
78643,Llano County,TX,87.73291925465838,59.59595959595959
78734,Travis County,TX,92.70186335403726,NA
78749,Travis County,TX,NA,76.76767676767676
79119,Randall County,TX,83.85093167701864,NA
79364,Lubbock County,TX,90.21739130434783,NA
79602,Taylor County,TX,58.22981366459628,NA
79707,Midland County,TX,35.24844720496895,NA
84029,Tooele County,UT,58.38509316770186,NA
84036,Summit County,UT,NA,97.3063973063973
84532,Grand County,UT,NA,83.16498316498317
84601,Utah County,UT,71.27329192546584,NA
05641,Washington County,VT,34.316770186335404,30.303030303030305
20111,Prince William County,VA,52.484472049689444,NA
20124,Fairfax County,VA,92.08074534161491,NA
20148,Loudoun County,VA,83.22981366459628,NA
20152,Loudoun County,VA,NA,85.85858585858585
22003,Fairfax County,VA,32.45341614906832,NA
22039,Fairfax County,VA,81.36645962732919,NA
22180,Fairfax County,VA,81.36645962732919,NA
22205,Arlington County,VA,87.26708074534162,82.82828282828282
22556,Stafford County,VA,NA,68.01346801346801
22655,Frederick County,VA,57.453416149068325,NA
22701,Culpeper County,VA,NA,20.875420875420875
22827,Rockingham County,VA,94.40993788819875,NA
22932,Albemarle County,VA,93.94409937888199,NA
22963,Fluvanna County,VA,76.5527950310559,NA
22980,Waynesboro city,VA,11.180124223602485,NA
23060,Henrico County,VA,62.422360248447205,NA
23061,Gloucester County,VA,NA,40.74074074074074
23229,Henrico County,VA,68.16770186335404,NA
23601,Newport News city,VA,56.98757763975155,NA
23666,Hampton city,VA,13.975155279503104,NA
24014,Roanoke city,VA,NA,31.64983164983165
24018,Roanoke County,VA,NA,32.996632996633
24060,Montgomery County,VA,NA,92.5925925925926
24112,Henry County,VA,46.8944099378882,NA
98002,King County,WA,36.18012422360248,NA
98004,King County,WA,74.06832298136646,NA
98027,King County,WA,NA,44.107744107744104
98032,King County,WA,42.391304347826086,NA
98058,King County,WA,33.38509316770186,NA
98223,Snohomish County,WA,57.14285714285714,NA
98272,Snohomish County,WA,56.52173913043478,NA
98274,Skagit County,WA,63.81987577639752,NA
98321,Pierce County,WA,62.88819875776398,NA
98335,Pierce County,WA,60.55900621118012,NA
98363,Clallam County,WA,NA,40.4040404040404
98407,Pierce County,WA,69.25465838509317,NA
99301,Franklin County,WA,NA,7.744107744107744
99338,Benton County,WA,NA,33.670033670033675
99350,Benton County,WA,87.5776397515528,NA
99352,Benton County,WA,41.14906832298137,NA
20001,District of Columbia,DC,93.63354037267081,NA
20003,District of Columbia,DC,50.15527950310559,NA
20011,District of Columbia,DC,NA,15.824915824915825
25045,Kanawha County,WV,NA,94.27609427609428
25177,Kanawha County,WV,NA,79.12457912457911
25276,Roane County,WV,92.85714285714286,NA
25438,Jefferson County,WV,NA,87.54208754208754
25840,Fayette County,WV,NA,75.42087542087542
26034,Hancock County,WV,NA,80.8080808080808
26101,Wood County,WV,7.453416149068323,NA
26416,Barbour County,WV,NA,72.39057239057239
26501,Monongalia County,WV,19.25465838509317,NA
26537,Preston County,WV,55.12422360248447,NA
53085,Sheboygan County,WI,NA,91.91919191919192
53092,Ozaukee County,WI,NA,43.09764309764309
53105,Racine County,WI,NA,12.457912457912458
53118,Waukesha County,WI,NA,87.20538720538721
53154,Milwaukee County,WI,23.4472049689441,NA
53172,Milwaukee County,WI,38.04347826086957,NA
53185,Racine County,WI,57.298136645962735,NA
53217,Milwaukee County,WI,68.32298136645963,NA
53405,Racine County,WI,NA,47.13804713804714
53406,Racine County,WI,NA,2.0202020202020203
54028,St. Croix County,WI,99.84472049689441,NA
54313,Brown County,WI,60.71428571428571,NA
54487,Lincoln County,WI,50.77639751552795,NA
54555,Price County,WI,NA,87.87878787878788
54724,Chippewa County,WI,NA,79.7979797979798
54729,Chippewa County,WI,NA,23.905723905723907
54822,Barron County,WI,NA,79.7979797979798
54901,Winnebago County,WI,60.86956521739131,NA
54935,Fond du Lac County,WI,NA,15.151515151515152
54982,Waushara County,WI,NA,95.95959595959596
