ZipCode,county,state,Adult,Retirement
35005,Jefferson County,AL,84.5272206303725,NA
35007,Shelby County,AL,54.87106017191977,NA
35160,Talladega County,AL,NA,44.299674267100976
35214,Jefferson County,AL,32.808022922636106,NA
35215,Jefferson County,AL,8.45272206303725,NA
35221,Jefferson County,AL,92.26361031518626,NA
35580,Walker County,AL,94.69914040114614,NA
35801,Madison County,AL,73.35243553008596,NA
36272,Calhoun County,AL,51.28939828080229,NA
36312,Houston County,AL,83.66762177650429,NA
99504,Anchorage Municipality,AK,22.922636103151863,NA
85017,Maricopa County,AZ,33.2378223495702,NA
85032,Maricopa County,AZ,NA,24.7557003257329
85035,Maricopa County,AZ,15.902578796561603,NA
85041,Maricopa County,AZ,35.100286532951294,NA
85086,Maricopa County,AZ,NA,40.71661237785016
85138,Pinal County,AZ,42.97994269340974,NA
85225,Maricopa County,AZ,10.888252148997136,NA
85233,Maricopa County,AZ,NA,54.72312703583062
85255,Maricopa County,AZ,54.01146131805158,NA
85281,Maricopa County,AZ,37.106017191977074,NA
85282,Maricopa County,AZ,NA,43.32247557003257
85301,Maricopa County,AZ,NA,21.49837133550489
85306,Maricopa County,AZ,57.879656160458445,NA
85323,Maricopa County,AZ,33.0945558739255,NA
85326,Maricopa County,AZ,NA,41.36807817589577
85345,Maricopa County,AZ,11.74785100286533,NA
85364,Yuma County,AZ,3.8681948424068766,NA
85704,Pima County,AZ,51.146131805157594,NA
85716,Pima County,AZ,NA,25.407166123778502
86314,Yavapai County,AZ,16.189111747851005,NA
86409,Mohave County,AZ,NA,5.537459283387622
86503,Apache County,AZ,35.95988538681949,NA
71671,Bradley County,AR,NA,87.62214983713355
72703,Washington County,AR,92.12034383954155,NA
72732,Benton County,AR,NA,99.0228013029316
72762,Washington County,AR,NA,61.563517915309454
72901,Sebastian County,AR,57.163323782234954,NA
90006,Los Angeles County,CA,69.77077363896849,NA
90029,Los Angeles County,CA,64.32664756446992,NA
90065,Los Angeles County,CA,82.378223495702,NA
90603,Los Angeles County,CA,NA,53.09446254071661
90620,Orange County,CA,52.72206303724928,NA
90706,Los Angeles County,CA,60.458452722063036,NA
90745,Los Angeles County,CA,NA,29.967426710097723
90808,Los Angeles County,CA,NA,78.82736156351791
91206,Los Angeles County,CA,75.35816618911176,NA
91214,Los Angeles County,CA,NA,81.10749185667753
91311,Los Angeles County,CA,NA,51.465798045602604
91504,Los Angeles County,CA,74.35530085959886,NA
91601,Los Angeles County,CA,70.34383954154728,NA
91606,Los Angeles County,CA,62.46418338108882,NA
91745,Los Angeles County,CA,NA,43.648208469055376
91750,Los Angeles County,CA,87.53581661891118,NA
91763,San Bernardino County,CA,67.3352435530086,NA
91766,Los Angeles County,CA,43.83954154727794,NA
91773,Los Angeles County,CA,75.93123209169055,NA
91790,Los Angeles County,CA,56.446991404011456,NA
91911,San Diego County,CA,24.355300859598856,NA
92058,San Diego County,CA,88.53868194842407,NA
92065,San Diego County,CA,52.72206303724928,68.72964169381108
92078,San Diego County,CA,NA,46.90553745928339
92103,San Diego County,CA,49.570200573065904,NA
92104,San Diego County,CA,NA,35.83061889250814
92110,San Diego County,CA,NA,85.01628664495115
92111,San Diego County,CA,NA,51.79153094462541
92201,Riverside County,CA,NA,17.91530944625407
92211,Riverside County,CA,72.49283667621776,NA
92234,Riverside County,CA,NA,2.6058631921824107
92240,Riverside County,CA,NA,36.807817589576544
92262,Riverside County,CA,21.91977077363897,NA
92264,Riverside County,CA,NA,11.400651465798045
92316,San Bernardino County,CA,80.22922636103151,NA
92335,San Bernardino County,CA,37.67908309455588,NA
92407,San Bernardino County,CA,17.621776504297994,NA
92410,San Bernardino County,CA,NA,30.944625407166125
92509,Riverside County,CA,NA,37.45928338762215
92606,Orange County,CA,81.51862464183381,NA
92653,Orange County,CA,76.93409742120345,52.11726384364821
92704,Orange County,CA,34.38395415472779,NA
92805,Orange County,CA,61.46131805157593,NA
92843,Orange County,CA,NA,84.69055374592834
92886,Orange County,CA,NA,18.892508143322477
93013,Santa Barbara County,CA,96.84813753581662,NA
93030,Ventura County,CA,17.335243553008596,NA
93041,Ventura County,CA,67.47851002865329,NA
93454,Santa Barbara County,CA,66.6189111747851,NA
93933,Monterey County,CA,68.33810888252148,NA
94019,San Mateo County,CA,82.23495702005731,NA
94127,San Francisco County,CA,NA,73.61563517915309
94568,Alameda County,CA,56.73352435530086,NA
94571,Solano County,CA,NA,64.82084690553745
94597,Contra Costa County,CA,NA,78.17589576547232
95033,Santa Cruz County,CA,98.71060171919771,NA
95112,Santa Clara County,CA,NA,40.390879478827365
95126,Santa Clara County,CA,68.0515759312321,NA
95139,Santa Clara County,CA,98.99713467048711,NA
95220,San Joaquin County,CA,NA,94.46254071661238
95242,San Joaquin County,CA,NA,53.74592833876222
95324,Merced County,CA,94.98567335243553,NA
95350,Stanislaus County,CA,18.05157593123209,NA
95351,Stanislaus County,CA,21.776504297994272,NA
95358,Stanislaus County,CA,65.7593123209169,NA
95366,San Joaquin County,CA,81.37535816618912,NA
95501,Humboldt County,CA,55.730659025787965,NA
95610,Sacramento County,CA,48.99713467048711,NA
95630,Sacramento County,CA,27.650429799426934,NA
95660,Sacramento County,CA,43.40974212034384,NA
95667,El Dorado County,CA,67.90830945558739,NA
95688,Solano County,CA,69.05444126074498,NA
95821,Sacramento County,CA,45.41547277936962,NA
95825,Sacramento County,CA,53.29512893982808,NA
95828,Sacramento County,CA,43.69627507163324,NA
96002,Shasta County,CA,NA,67.42671009771986
96003,Shasta County,CA,46.41833810888252,NA
80007,Jefferson County,CO,89.97134670487105,NA
80010,Arapahoe County,CO,53.86819484240688,NA
80022,Adams County,CO,16.6189111747851,NA
80132,El Paso County,CO,85.24355300859598,NA
80134,Douglas County,CO,27.07736389684814,NA
80219,Denver County,CO,5.157593123209169,NA
80231,Denver County,CO,41.833810888252145,NA
80233,Adams County,CO,28.08022922636103,NA
80260,Adams County,CO,NA,62.54071661237784
80401,Jefferson County,CO,39.541547277936964,NA
80534,Weld County,CO,72.77936962750717,NA
80549,Larimer County,CO,87.39255014326648,NA
80903,El Paso County,CO,NA,85.66775244299674
81003,Pueblo County,CO,36.38968481375358,NA
81082,Las Animas County,CO,NA,78.17589576547232
81321,Montezuma County,CO,70.91690544412607,NA
81501,Mesa County,CO,47.421203438395416,NA
81520,Mesa County,CO,74.21203438395415,NA
06010,Hartford County,CT,NA,3.5830618892508146
06029,Tolland County,CT,91.40401146131805,NA
06051,Hartford County,CT,20.057306590257877,NA
06053,Hartford County,CT,10.17191977077364,NA
06071,Tolland County,CT,84.38395415472779,NA
06074,Hartford County,CT,82.52148997134671,NA
06093,Hartford County,CT,97.56446991404012,NA
06098,Litchfield County,CT,NA,43.97394136807817
06105,Hartford County,CT,22.636103151862464,NA
06111,Hartford County,CT,41.117478510028654,NA
06114,Hartford County,CT,16.7621776504298,NA
06234,Windham County,CT,66.7621776504298,NA
06281,Windham County,CT,69.62750716332378,NA
06488,New Haven County,CT,NA,37.13355048859935
06516,New Haven County,CT,NA,4.88599348534202
06770,New Haven County,CT,24.92836676217765,NA
19709,New Castle County,DE,21.20343839541547,NA
19904,Kent County,DE,NA,15.309446254071663
19945,Sussex County,DE,NA,65.14657980456026
19958,Sussex County,DE,NA,5.211726384364821
32055,Columbia County,FL,44.126074498567334,NA
32071,Suwannee County,FL,NA,87.94788273615634
32080,St. Johns County,FL,73.49570200573066,NA
32084,St. Johns County,FL,30.515759312320917,NA
32127,Volusia County,FL,62.75071633237822,NA
32148,Putnam County,FL,79.36962750716332,NA
32209,Duval County,FL,4.7277936962750715,NA
32226,Duval County,FL,47.277936962750715,NA
32303,Leon County,FL,NA,45.27687296416938
32401,Bay County,FL,40.68767908309456,NA
32459,Walton County,FL,NA,29.64169381107492
32464,Holmes County,FL,93.12320916905445,NA
32506,Escambia County,FL,14.040114613180515,NA
32534,Escambia County,FL,77.22063037249283,NA
32541,Okaloosa County,FL,70.34383954154728,NA
32608,Alachua County,FL,7.4498567335243555,NA
32609,Alachua County,FL,NA,50.1628664495114
32668,Levy County,FL,NA,84.36482084690554
32738,Volusia County,FL,39.39828080229226,NA
32832,Orange County,FL,86.53295128939828,NA
32839,Orange County,FL,28.36676217765043,NA
32905,Brevard County,FL,NA,44.951140065146575
32920,Brevard County,FL,84.09742120343839,NA
32935,Brevard County,FL,19.054441260744987,NA
32960,Indian River County,FL,51.719197707736384,NA
33015,Miami-Dade County,FL,55.15759312320917,NA
33021,Broward County,FL,NA,23.778501628664493
33023,Broward County,FL,19.197707736389685,NA
33025,Broward County,FL,31.088825214899714,NA
33033,Miami-Dade County,FL,NA,52.76872964169381
33140,Miami-Dade County,FL,80.08595988538681,NA
33169,Miami-Dade County,FL,NA,47.88273615635179
33174,Miami-Dade County,FL,NA,73.28990228013029
33177,Miami-Dade County,FL,46.99140401146132,48.85993485342019
33334,Broward County,FL,NA,50.814332247557005
33411,Palm Beach County,FL,41.833810888252145,NA
33463,Palm Beach County,FL,52.43553008595988,NA
33566,Hillsborough County,FL,NA,69.05537459283387
33604,Hillsborough County,FL,24.785100286532952,NA
33606,Hillsborough County,FL,88.10888252148997,NA
33706,Pinellas County,FL,NA,72.9641693811075
33710,Pinellas County,FL,NA,42.01954397394137
33844,Polk County,FL,41.40401146131805,NA
34212,Manatee County,FL,NA,55.37459283387622
34286,Sarasota County,FL,60.17191977077364,NA
34474,Marion County,FL,65.32951289398281,NA
34484,Sumter County,FL,96.99140401146131,NA
34491,Marion County,FL,64.46991404011462,NA
34602,Hernando County,FL,92.97994269340974,NA
34748,Lake County,FL,20.20057306590258,NA
34785,Sumter County,FL,NA,81.43322475570032
34951,St. Lucie County,FL,NA,75.2442996742671
34982,St. Lucie County,FL,57.306590257879655,NA
30016,Newton County,GA,11.89111747851003,NA
30038,DeKalb County,GA,75.64469914040114,NA
30064,Cobb County,GA,64.61318051575931,NA
30094,Rockdale County,GA,NA,31.596091205211724
30126,Cobb County,GA,NA,66.12377850162866
30134,Douglas County,GA,26.36103151862464,NA
30135,Douglas County,GA,13.61031518624642,NA
30165,Floyd County,GA,NA,28.013029315960914
30214,Fayette County,GA,NA,77.85016286644951
30224,Spalding County,GA,57.02005730659025,NA
30253,Henry County,GA,27.507163323782237,NA
30263,Coweta County,GA,9.598853868194842,NA
30308,Fulton County,GA,77.79369627507164,NA
30340,DeKalb County,GA,93.83954154727793,NA
30542,Hall County,GA,NA,40.06514657980456
30577,Stephens County,GA,NA,72.31270358306189
30680,Barrow County,GA,NA,23.12703583061889
30721,Whitfield County,GA,25.358166189111746,NA
30728,Walker County,GA,NA,90.55374592833876
30815,Richmond County,GA,NA,13.680781758957655
30824,McDuffie County,GA,NA,83.06188925081433
30830,Burke County,GA,NA,64.49511400651465
31093,Houston County,GA,34.81375358166189,NA
31096,Johnson County,GA,94.12607449856733,NA
31808,Harris County,GA,90.83094555873924,NA
31907,Muscogee County,GA,NA,4.234527687296417
39823,Early County,GA,NA,81.43322475570032
39842,Terrell County,GA,68.48137535816619,NA
96706,Honolulu County,HI,9.885386819484241,NA
96732,Maui County,HI,79.22636103151862,NA
96768,Maui County,HI,NA,89.25081433224756
96792,Honolulu County,HI,11.174785100286533,NA
96826,Honolulu County,HI,45.55873925501432,NA
83401,Bonneville County,ID,14.326647564469914,NA
83406,Bonneville County,ID,69.05444126074498,NA
83605,Canyon County,ID,85.53008595988538,NA
83616,Ada County,ID,78.93982808022922,NA
83644,Canyon County,ID,NA,51.14006514657981
83704,Ada County,ID,NA,4.5602605863192185
83713,Ada County,ID,72.20630372492836,16.286644951140065
83854,Kootenai County,ID,34.097421203438394,NA
60016,Cook County,IL,25.07163323782235,NA
60025,Cook County,IL,45.702005730659025,NA
60062,Cook County,IL,95.27220630372493,NA
60067,Cook County,IL,45.98853868194843,NA
60137,DuPage County,IL,35.53008595988539,NA
60175,Kane County,IL,29.369627507163326,NA
60185,DuPage County,IL,NA,27.36156351791531
60187,DuPage County,IL,NA,36.48208469055375
60302,Cook County,IL,35.38681948424069,NA
60440,Will County,IL,19.770773638968482,NA
60443,Cook County,IL,49.4269340974212,NA
60462,Cook County,IL,27.936962750716333,NA
60484,Will County,IL,97.134670487106,NA
60491,Will County,IL,37.96561604584527,NA
60506,Kane County,IL,NA,24.429967426710096
60543,Kendall County,IL,38.53868194842407,NA
60563,DuPage County,IL,49.28366762177651,NA
60605,Cook County,IL,62.03438395415473,NA
60616,Cook County,IL,NA,39.413680781758956
60618,Cook County,IL,8.022922636103152,NA
60634,Cook County,IL,NA,9.77198697068404
60640,Cook County,IL,8.30945558739255,NA
60914,Kankakee County,IL,34.67048710601719,57.32899022801303
61008,Boone County,IL,NA,20.521172638436482
61019,Stephenson County,IL,99.8567335243553,NA
61107,Winnebago County,IL,47.70773638968481,NA
61115,Winnebago County,IL,NA,26.058631921824105
61244,Rock Island County,IL,NA,76.8729641693811
61350,LaSalle County,IL,NA,32.89902280130293
61520,Fulton County,IL,74.78510028653295,NA
61531,Fulton County,IL,99.42693409742121,NA
62040,Madison County,IL,20.487106017191977,NA
62550,Shelby County,IL,98.56733524355302,NA
46038,Hamilton County,IN,83.95415472779369,NA
46064,Madison County,IN,NA,57.98045602605863
46202,Marion County,IN,64.04011461318052,NA
46205,Marion County,IN,NA,58.95765472312704
46254,Marion County,IN,23.35243553008596,NA
46304,Porter County,IN,NA,19.54397394136808
46322,Lake County,IN,26.07449856733524,NA
46323,Lake County,IN,20.916905444126073,NA
46360,LaPorte County,IN,5.444126074498568,6.514657980456026
46385,Porter County,IN,7.163323782234957,NA
46394,Lake County,IN,58.02292263610315,NA
46404,Lake County,IN,34.95702005730659,NA
46410,Lake County,IN,6.876790830945559,NA
46516,Elkhart County,IN,16.9054441260745,NA
46517,Elkhart County,IN,52.29226361031518,NA
46628,St. Joseph County,IN,NA,47.55700325732899
46711,Adams County,IN,96.56160458452722,NA
46750,Huntington County,IN,19.340974212034386,NA
46787,Whitley County,IN,99.5702005730659,NA
46806,Allen County,IN,28.510028653295127,NA
46845,Allen County,IN,61.174785100286535,NA
47265,Jennings County,IN,59.16905444126075,NA
47356,Henry County,IN,89.25501432664757,NA
47374,Wayne County,IN,4.871060171919771,NA
47421,Lawrence County,IN,36.10315186246418,NA
47807,Vigo County,IN,50.1432664756447,NA
47885,Vigo County,IN,84.5272206303725,77.52442996742671
47960,White County,IN,NA,63.84364820846905
50010,Story County,IA,60.31518624641834,NA
50138,Marion County,IA,NA,63.19218241042345
50310,Polk County,IA,NA,46.579804560260584
50313,Polk County,IA,NA,89.90228013029315
52233,Linn County,IA,NA,89.57654723127035
52302,Linn County,IA,21.91977077363897,NA
52601,Des Moines County,IA,11.60458452722063,14.332247557003258
52753,Scott County,IA,NA,93.15960912052117
52761,Muscatine County,IA,10.601719197707736,NA
52804,Scott County,IA,16.045845272206304,NA
66061,Johnson County,KS,19.484240687679083,NA
66104,Wyandotte County,KS,29.656160458452725,NA
66441,Geary County,KS,73.92550143266476,NA
66502,Riley County,KS,76.64756446991404,72.63843648208469
66614,Shawnee County,KS,NA,20.195439739413683
40204,Jefferson County,KY,79.79942693409741,NA
40212,Jefferson County,KY,26.790830945558742,NA
40216,Jefferson County,KY,NA,12.052117263843648
40228,Jefferson County,KY,69.48424068767909,NA
40258,Jefferson County,KY,23.638968481375358,NA
40272,Jefferson County,KY,13.03724928366762,NA
40324,Scott County,KY,12.464183381088825,NA
40361,Bourbon County,KY,38.825214899713465,NA
40391,Clark County,KY,33.95415472779369,NA
40734,Knox County,KY,87.67908309455588,NA
40741,Laurel County,KY,NA,39.73941368078176
40965,Bell County,KY,28.223495702005728,NA
41005,Boone County,KY,63.323782234957015,NA
41073,Campbell County,KY,NA,100
42101,Warren County,KY,6.303724928366762,NA
42351,Hancock County,KY,91.26074498567334,NA
42420,Henderson County,KY,71.20343839541547,NA
42445,Caldwell County,KY,NA,67.10097719869707
42718,Taylor County,KY,11.318051575931232,NA
42754,Grayson County,KY,29.083094555873924,NA
70002,Jefferson Parish,LA,87.82234957020057,NA
70003,Jefferson Parish,LA,NA,97.06840390879479
70056,Jefferson Parish,LA,23.78223495702006,NA
70065,Jefferson Parish,LA,21.63323782234957,NA
70128,Orleans Parish,LA,98.8538681948424,NA
70301,Lafourche Parish,LA,2.148997134670487,NA
70359,Terrebonne Parish,LA,31.805157593123205,NA
70364,Terrebonne Parish,LA,7.593123209169055,NA
70373,Lafourche Parish,LA,57.44985673352435,NA
70438,Washington Parish,LA,92.55014326647564,NA
70443,Tangipahoa Parish,LA,83.5243553008596,NA
70448,St. Tammany Parish,LA,42.12034383954155,NA
70458,St. Tammany Parish,LA,26.64756446991404,NA
70501,Lafayette Parish,LA,90.54441260744986,NA
70517,St. Martin Parish,LA,12.177650429799428,NA
70815,East Baton Rouge Parish,LA,NA,38.11074918566775
71108,Caddo Parish,LA,9.312320916905444,NA
71241,Union Parish,LA,NA,82.08469055374593
71322,Avoyelles Parish,LA,NA,93.48534201954396
71417,Grant Parish,LA,85.81661891117479,NA
04101,Cumberland County,ME,NA,24.104234527687296
04210,Androscoggin County,ME,18.48137535816619,NA
04240,Androscoggin County,ME,1.7191977077363898,NA
20646,Charles County,MD,77.07736389684814,NA
20721,Prince George's County,MD,91.69054441260745,NA
20774,Prince George's County,MD,46.27507163323782,NA
21090,Anne Arundel County,MD,86.96275071633238,NA
21231,Baltimore city,MD,NA,71.66123778501628
21234,Baltimore County,MD,15.616045845272206,NA
21244,Baltimore County,MD,46.561604584527224,NA
21601,Talbot County,MD,72.34957020057307,NA
21811,Worcester County,MD,83.0945558739255,NA
01028,Hampden County,MA,77.36389684813754,NA
01069,Hampden County,MA,86.10315186246417,NA
01089,Hampden County,MA,4.441260744985674,NA
01420,Worcester County,MA,8.166189111747851,NA
01473,Worcester County,MA,93.69627507163324,NA
01545,Worcester County,MA,17.048710601719197,NA
01702,Middlesex County,MA,0.7163323782234957,NA
01742,Middlesex County,MA,NA,76.2214983713355
01752,Middlesex County,MA,3.29512893982808,NA
01803,Middlesex County,MA,NA,26.384364820846905
01821,Middlesex County,MA,NA,1.9543973941368076
01830,Essex County,MA,0.8595988538681949,NA
01832,Essex County,MA,3.5816618911174785,NA
01844,Essex County,MA,55.873925501432666,NA
01851,Middlesex County,MA,1.8624641833810889,NA
01867,Middlesex County,MA,89.54154727793696,NA
01887,Middlesex County,MA,NA,3.257328990228013
01940,Essex County,MA,NA,46.25407166123778
01960,Essex County,MA,15.04297994269341,NA
02125,Suffolk County,MA,9.742120343839542,NA
02169,Norfolk County,MA,NA,0.6514657980456027
02176,Middlesex County,MA,7.306590257879657,NA
02190,Norfolk County,MA,29.22636103151863,NA
02421,Middlesex County,MA,91.54727793696274,NA
02459,Middlesex County,MA,47.56446991404012,NA
02468,Middlesex County,MA,88.82521489971347,NA
02476,Middlesex County,MA,40.114613180515754,NA
02559,Barnstable County,MA,NA,90.22801302931596
02720,Bristol County,MA,0,NA
02721,Bristol County,MA,NA,6.188925081433225
02777,Bristol County,MA,7.736389684813753,NA
48021,Macomb County,MI,59.31232091690545,NA
48038,Macomb County,MI,44.69914040114613,NA
48060,St. Clair County,MI,3.0085959885386817,NA
48065,Macomb County,MI,77.65042979942693,NA
48083,Oakland County,MI,59.598853868194844,NA
48152,Wayne County,MI,NA,7.166123778501629
48154,Wayne County,MI,25.644699140401144,NA
48182,Monroe County,MI,85.95988538681948,NA
48187,Wayne County,MI,9.312320916905444,NA
48195,Wayne County,MI,24.641833810888254,NA
48315,Macomb County,MI,NA,19.86970684039088
48323,Oakland County,MI,57.59312320916905,NA
48326,Oakland County,MI,54.44126074498568,NA
48348,Oakland County,MI,38.25214899713467,NA
48359,Oakland County,MI,NA,96.09120521172639
48430,Genesee County,MI,NA,21.172638436482085
48505,Genesee County,MI,17.908309455587393,NA
48601,Saginaw County,MI,30.229226361031518,NA
48602,Saginaw County,MI,NA,11.074918566775244
48617,Clare County,MI,73.63896848137536,NA
48640,Midland County,MI,9.025787965616045,NA
48768,Tuscola County,MI,57.59312320916905,NA
48813,Eaton County,MI,41.260744985673355,NA
48838,Montcalm County,MI,32.23495702005731,NA
48858,Isabella County,MI,5.730659025787966,NA
49022,Berrien County,MI,NA,12.37785016286645
49057,Van Buren County,MI,80.94555873925502,NA
49203,Jackson County,MI,31.661891117478508,8.469055374592834
49250,Hillsdale County,MI,78.36676217765043,NA
49316,Kent County,MI,53.72492836676218,NA
49330,Kent County,MI,NA,97.71986970684038
49424,Ottawa County,MI,NA,12.703583061889251
49442,Muskegon County,MI,18.19484240687679,NA
49444,Muskegon County,MI,8.882521489971348,NA
49506,Kent County,MI,25.787965616045845,NA
49548,Kent County,MI,7.020057306590258,NA
49696,Grand Traverse County,MI,NA,77.19869706840392
49735,Otsego County,MI,33.6676217765043,NA
49746,Montmorency County,MI,91.83381088825216,NA
49849,Marquette County,MI,51.43266475644699,NA
55411,Hennepin County,MN,NA,16.938110749185668
55437,Hennepin County,MN,94.41260744985674,NA
55438,Hennepin County,MN,NA,80.45602605863192
55446,Hennepin County,MN,93.40974212034384,NA
55944,Dodge County,MN,90.68767908309455,NA
56601,Beltrami County,MN,5.873925501432665,NA
38618,Tate County,MS,85.67335243553008,NA
38637,DeSoto County,MS,52.14899713467048,NA
38701,Washington County,MS,NA,88.59934853420195
38732,Bolivar County,MS,40.83094555873926,NA
39083,Copiah County,MS,79.65616045845272,NA
39402,Lamar County,MS,66.9054441260745,55.700325732899024
39452,George County,MS,NA,22.475570032573287
39553,Jackson County,MS,48.28080229226361,NA
39556,Hancock County,MS,65.90257879656161,NA
39563,Jackson County,MS,52.57879656160458,NA
39701,Lowndes County,MS,70.20057306590259,NA
63040,St. Louis County,MO,95.55873925501433,NA
63050,Jefferson County,MO,NA,74.2671009771987
63121,St. Louis County,MO,30.37249283667622,NA
63136,St. Louis County,MO,NA,10.749185667752444
63141,St. Louis County,MO,NA,76.54723127035831
63379,Lincoln County,MO,NA,28.338762214983714
63401,Marion County,MO,NA,48.85993485342019
63670,Ste. Genevieve County,MO,NA,75.57003257328991
63901,Butler County,MO,12.893982808022923,NA
64014,Jackson County,MO,21.060171919770774,NA
64015,Jackson County,MO,63.89684813753582,NA
64029,Jackson County,MO,42.693409742120345,NA
64050,Jackson County,MO,14.899713467048711,NA
64075,Jackson County,MO,45.12893982808023,NA
64134,Jackson County,MO,12.034383954154727,NA
64701,Cass County,MO,NA,61.88925081433225
64836,Jasper County,MO,18.33810888252149,NA
65301,Pettis County,MO,4.297994269340974,NA
65616,Taney County,MO,38.96848137535817,NA
59047,Park County,MT,78.51002865329512,NA
59105,Yellowstone County,MT,87.24928366762178,NA
59701,Silver Bow County,MT,65.61604584527221,NA
68776,Dakota County,NE,80.37249283667622,NA
68801,Hall County,NE,85.10028653295129,NA
03079,Rockingham County,NH,14.756446991404012,NA
03833,Rockingham County,NH,41.54727793696275,NA
07042,Essex County,NJ,75.35816618911176,NA
07055,Passaic County,NJ,NA,3.908794788273615
07071,Bergen County,NJ,97.42120343839542,NA
07093,Hudson County,NJ,6.017191977077363,NA
07104,Essex County,NJ,0.42979942693409745,NA
07106,Essex County,NJ,89.39828080229226,NA
07110,Essex County,NJ,76.79083094555874,NA
07112,Essex County,NJ,3.4383954154727796,NA
07302,Hudson County,NJ,91.97707736389685,NA
07417,Bergen County,NJ,98.42406876790831,NA
07430,Bergen County,NJ,NA,50.4885993485342
07501,Passaic County,NJ,NA,49.5114006514658
07514,Passaic County,NJ,31.51862464183381,NA
07644,Bergen County,NJ,NA,31.921824104234524
07751,Monmouth County,NJ,70.05730659025788,NA
07885,Morris County,NJ,81.80515759312321,NA
07930,Morris County,NJ,96.41833810888252,NA
07960,Morris County,NJ,18.624641833810887,NA
08051,Gloucester County,NJ,84.2406876790831,92.18241042345277
08080,Gloucester County,NJ,41.69054441260745,NA
08087,Ocean County,NJ,53.15186246418339,NA
08210,Cape May County,NJ,NA,42.34527687296417
08260,Cape May County,NJ,NA,87.29641693811075
08270,Cape May County,NJ,90.40114613180515,NA
08330,Atlantic County,NJ,NA,97.39413680781759
08730,Monmouth County,NJ,NA,96.74267100977198
08863,Middlesex County,NJ,100,NA
08873,Somerset County,NJ,NA,59.28338762214984
87026,Valencia County,NM,NA,99.3485342019544
87059,Bernalillo County,NM,NA,85.34201954397395
87102,Bernalillo County,NM,22.77936962750716,NA
87109,Bernalillo County,NM,17.478510028653297,NA
87110,Bernalillo County,NM,43.26647564469914,NA
87120,Bernalillo County,NM,NA,13.355048859934854
87401,San Juan County,NM,51.57593123209169,NA
87544,Los Alamos County,NM,64.18338108882521,NA
88005,Doa Ana County,NM,45.12893982808023,NA
88203,Chaves County,NM,18.911174785100286,NA
88220,Eddy County,NM,21.48997134670487,NA
88345,Lincoln County,NM,75.21489971346705,NA
10019,New York County,NY,65.4727793696275,NA
10023,New York County,NY,51.862464183381086,NA
10029,New York County,NY,0.28653295128939826,NA
10031,New York County,NY,7.8796561604584525,NA
10034,New York County,NY,NA,15.960912052117262
10301,Richmond County,NY,15.18624641833811,NA
10310,Richmond County,NY,50.1432664756447,NA
10453,Bronx County,NY,NA,0.9771986970684038
10456,Bronx County,NY,0.14326647564469913,NA
10460,Bronx County,NY,1.4326647564469914,NA
10466,Bronx County,NY,4.584527220630372,NA
10550,Westchester County,NY,NA,59.934853420195445
10801,Westchester County,NY,32.95128939828081,NA
11206,Kings County,NY,67.76504297994269,NA
11221,Kings County,NY,16.332378223495702,NA
11233,Kings County,NY,1.002865329512894,1.6286644951140066
11357,Queens County,NY,91.11747851002865,NA
11372,Queens County,NY,30.945558739255013,NA
11565,Nassau County,NY,99.7134670487106,NA
11714,Nassau County,NY,80.37249283667622,NA
11722,Suffolk County,NY,NA,68.07817589576547
11776,Suffolk County,NY,58.73925501432665,NA
11951,Suffolk County,NY,71.77650429799426,NA
11963,Suffolk County,NY,NA,95.11400651465797
12010,Montgomery County,NY,NA,6.840390879478828
12148,Saratoga County,NY,95.70200573065902,NA
12210,Albany County,NY,NA,88.27361563517914
12822,Saratoga County,NY,76.50429799426934,NA
12883,Essex County,NY,NA,79.15309446254072
13045,Cortland County,NY,4.011461318051576,NA
13077,Cortland County,NY,NA,71.33550488599349
13090,Onondaga County,NY,15.329512893982807,NA
13126,Oswego County,NY,NA,7.491856677524431
13214,Onondaga County,NY,82.6647564469914,NA
13309,Oneida County,NY,88.68194842406876,NA
13367,Lewis County,NY,NA,65.79804560260585
13407,Herkimer County,NY,63.03724928366762,NA
13421,Madison County,NY,24.498567335243553,NA
13440,Oneida County,NY,1.5759312320916905,NA
13492,Oneida County,NY,66.33237822349571,NA
13601,Jefferson County,NY,22.206303724928368,NA
13760,Broome County,NY,NA,0.32573289902280134
13815,Chenango County,NY,13.32378223495702,NA
14047,Erie County,NY,81.08882521489971,NA
14052,Erie County,NY,58.45272206303726,NA
14092,Niagara County,NY,53.581661891117484,NA
14103,Orleans County,NY,46.84813753581662,NA
14120,Niagara County,NY,NA,8.143322475570033
14150,Erie County,NY,26.93409742120344,NA
14206,Erie County,NY,NA,25.0814332247557
14215,Erie County,NY,1.2893982808022924,NA
14220,Erie County,NY,12.750716332378223,NA
14304,Niagara County,NY,23.925501432664756,NA
14425,Ontario County,NY,17.191977077363894,NA
14435,Livingston County,NY,95.41547277936962,NA
14437,Livingston County,NY,45.98853868194843,NA
14543,Monroe County,NY,NA,94.78827361563518
14580,Monroe County,NY,NA,0
14618,Monroe County,NY,51.00286532951289,NA
14626,Monroe County,NY,2.865329512893983,NA
14727,Allegany County,NY,75.07163323782235,NA
14757,Chautauqua County,NY,NA,98.37133550488599
14845,Chemung County,NY,NA,66.44951140065146
14850,Tompkins County,NY,NA,30.293159609120522
14882,Tompkins County,NY,85.38681948424069,NA
27253,Alamance County,NC,15.472779369627506,NA
27540,Wake County,NC,48.853868194842406,NA
27707,Durham County,NC,11.461318051575931,NA
27837,Pitt County,NC,90.97421203438395,NA
27886,Edgecombe County,NC,NA,80.45602605863192
27896,Wilson County,NC,54.58452722063038,NA
27958,Currituck County,NC,NA,95.43973941368078
27962,Washington County,NC,73.20916905444126,NA
28023,Rowan County,NC,71.48997134670488,NA
28078,Mecklenburg County,NC,NA,32.57328990228013
28105,Mecklenburg County,NC,61.60458452722063,NA
28139,Rutherford County,NC,39.82808022922636,NA
28202,Mecklenburg County,NC,90.11461318051576,NA
28203,Mecklenburg County,NC,NA,82.73615635179154
28212,Mecklenburg County,NC,26.21776504297994,NA
28226,Mecklenburg County,NC,NA,41.69381107491857
28227,Mecklenburg County,NC,NA,17.263843648208468
28337,Bladen County,NC,NA,64.16938110749186
28340,Robeson County,NC,58.30945558739254,NA
28405,New Hanover County,NC,35.816618911174785,NA
28425,Pender County,NC,70.91690544412607,NA
28655,Burke County,NC,5.300859598853868,NA
28759,Henderson County,NC,92.83667621776505,NA
58103,Cass County,ND,6.446991404011461,NA
58801,Williams County,ND,37.249283667621775,NA
43017,Franklin County,OH,92.40687679083095,NA
43123,Franklin County,OH,NA,9.120521172638437
43204,Franklin County,OH,47.134670487106014,NA
43235,Franklin County,OH,47.99426934097421,NA
43338,Morrow County,OH,NA,61.23778501628665
43420,Sandusky County,OH,39.25501432664756,NA
43528,Lucas County,OH,43.12320916905444,NA
43537,Lucas County,OH,29.799426934097422,NA
43605,Lucas County,OH,NA,22.149837133550488
43611,Lucas County,OH,13.46704871060172,NA
43623,Lucas County,OH,27.22063037249284,NA
43701,Muskingum County,OH,0.5730659025787965,NA
43832,Tuscarawas County,OH,84.81375358166189,68.40390879478826
44003,Ashtabula County,OH,88.39541547277938,NA
44035,Lorain County,OH,2.4355300859598854,NA
44052,Lorain County,OH,50.5730659025788,NA
44105,Cuyahoga County,OH,39.68481375358166,NA
44108,Cuyahoga County,OH,2.5787965616045847,NA
44120,Cuyahoga County,OH,3.151862464183381,NA
44125,Cuyahoga County,OH,NA,10.423452768729643
44129,Cuyahoga County,OH,NA,13.680781758957655
44130,Cuyahoga County,OH,NA,1.3029315960912053
44135,Cuyahoga County,OH,52.00573065902579,NA
44140,Cuyahoga County,OH,NA,28.664495114006517
44141,Cuyahoga County,OH,84.9570200573066,NA
44144,Cuyahoga County,OH,10.744985673352435,NA
44145,Cuyahoga County,OH,NA,5.863192182410423
44233,Medina County,OH,NA,56.67752442996743
44256,Medina County,OH,4.154727793696275,NA
44275,Medina County,OH,NA,98.0456026058632
44301,Summit County,OH,31.23209169054441,NA
44306,Summit County,OH,37.392550143266476,NA
44311,Summit County,OH,54.297994269340975,NA
44444,Trumbull County,OH,55.30085959885387,NA
44446,Trumbull County,OH,NA,15.63517915309446
44621,Tuscarawas County,OH,89.68481375358166,NA
44730,Stark County,OH,97.99426934097421,NA
44805,Ashland County,OH,12.177650429799428,NA
44827,Crawford County,OH,80.65902578796562,NA
44903,Richland County,OH,79.51289398280802,NA
45005,Warren County,OH,NA,17.58957654723127
45011,Butler County,OH,2.292263610315186,NA
45014,Butler County,OH,14.183381088825215,NA
45036,Warren County,OH,20.34383954154728,NA
45067,Butler County,OH,59.742120343839545,NA
45069,Butler County,OH,NA,19.218241042345277
45120,Clermont County,OH,96.27507163323781,NA
45205,Hamilton County,OH,22.349570200573066,NA
45211,Hamilton County,OH,8.595988538681947,NA
45230,Hamilton County,OH,55.587392550143264,NA
45238,Hamilton County,OH,13.18051575931232,14.983713355048861
45324,Greene County,OH,8.739255014326648,NA
45327,Montgomery County,OH,NA,82.08469055374593
45342,Montgomery County,OH,10.028653295128938,NA
45356,Miami County,OH,13.753581661891118,NA
45403,Montgomery County,OH,38.96848137535817,NA
45404,Montgomery County,OH,NA,70.03257328990227
45406,Montgomery County,OH,67.1919770773639,NA
45414,Montgomery County,OH,NA,96.09120521172639
45440,Montgomery County,OH,NA,75.8957654723127
45449,Montgomery County,OH,36.53295128939828,NA
45612,Ross County,OH,82.9512893982808,NA
45661,Pike County,OH,50.71633237822349,NA
45750,Washington County,OH,1.146131805157593,NA
45804,Allen County,OH,10.458452722063036,NA
45807,Allen County,OH,63.467048710601716,NA
45856,Putnam County,OH,94.84240687679083,NA
73008,Oklahoma County,OK,NA,85.99348534201955
73107,Oklahoma County,OK,NA,44.299674267100976
73134,Oklahoma County,OK,94.55587392550143,NA
73170,Cleveland County,OK,32.5214899713467,NA
73401,Carter County,OK,NA,41.042345276872965
73443,Carter County,OK,92.69340974212035,NA
73460,Johnston County,OK,NA,69.38110749185668
73507,Comanche County,OK,NA,29.31596091205212
74066,Creek County,OK,NA,35.83061889250814
74136,Tulsa County,OK,NA,42.671009771986974
74851,Pottawatomie County,OK,78.65329512893983,NA
97005,Washington County,OR,78.08022922636103,NA
97015,Clackamas County,OR,56.30372492836676,NA
97016,Columbia County,OR,NA,90.87947882736157
97086,Clackamas County,OR,56.59025787965616,NA
97132,Yamhill County,OR,42.26361031518625,NA
97220,Multnomah County,OR,36.96275071633238,NA
97222,Clackamas County,OR,30.659025787965614,NA
97304,Polk County,OR,59.45558739255014,NA
97317,Marion County,OR,NA,58.306188925081436
97330,Benton County,OR,79.94269340974212,NA
97362,Marion County,OR,97.27793696275072,NA
97367,Lincoln County,OR,74.06876790830945,NA
97426,Lane County,OR,NA,79.80456026058633
97444,Curry County,OR,90.25787965616045,NA
97467,Douglas County,OR,94.98567335243553,NA
97503,Jackson County,OR,NA,86.64495114006515
97504,Jackson County,OR,56.01719197707736,NA
97838,Umatilla County,OR,NA,16.612377850162865
97914,Malheur County,OR,24.068767908309454,NA
15022,Washington County,PA,81.66189111747852,NA
15037,Allegheny County,PA,NA,71.9869706840391
15106,Allegheny County,PA,NA,60.26058631921825
15122,Allegheny County,PA,NA,57.00325732899023
15137,Allegheny County,PA,63.61031518624641,NA
15642,Westmoreland County,PA,22.492836676217763,NA
15683,Westmoreland County,PA,NA,62.866449511400646
15690,Westmoreland County,PA,77.93696275071633,NA
16066,Butler County,PA,68.19484240687679,NA
16137,Mercer County,PA,72.63610315186246,NA
16148,Mercer County,PA,NA,21.824104234527688
16214,Clarion County,PA,NA,71.00977198697068
16510,Erie County,PA,42.40687679083094,NA
16648,Blair County,PA,60.74498567335244,NA
16801,Centre County,PA,42.550143266475644,NA
16866,Centre County,PA,65.0429799426934,NA
17013,Cumberland County,PA,20.630372492836678,NA
17022,Lancaster County,PA,NA,14.65798045602606
17331,York County,PA,6.59025787965616,NA
17360,York County,PA,93.55300859598854,NA
17362,York County,PA,NA,47.23127035830619
17403,York County,PA,70.77363896848138,NA
17404,York County,PA,10.315186246418339,NA
17543,Lancaster County,PA,24.212034383954155,NA
17545,Lancaster County,PA,NA,31.27035830618892
17601,Lancaster County,PA,35.673352435530084,NA
17701,Lycoming County,PA,NA,54.071661237785015
17842,Snyder County,PA,80.80229226361033,NA
17846,Columbia County,PA,NA,99.6742671009772
17857,Northumberland County,PA,69.34097421203438,NA
17866,Northumberland County,PA,64.61318051575931,NA
17954,Schuylkill County,PA,83.3810888252149,NA
18073,Montgomery County,PA,79.08309455587393,NA
18080,Lehigh County,PA,NA,92.83387622149837
18103,Lehigh County,PA,46.70487106017192,NA
18301,Monroe County,PA,NA,28.990228013029316
18503,Lackawanna County,PA,98.28080229226362,NA
18509,Lackawanna County,PA,58.73925501432665,NA
18704,Luzerne County,PA,15.759312320916905,NA
18902,Bucks County,PA,89.11174785100286,NA
18966,Bucks County,PA,NA,65.47231270358306
19013,Delaware County,PA,3.7249283667621778,NA
19063,Delaware County,PA,NA,11.726384364820847
19119,Philadelphia County,PA,25.501432664756447,NA
19121,Philadelphia County,PA,35.24355300859599,NA
19128,Philadelphia County,PA,53.43839541547278,NA
19131,Philadelphia County,PA,5.587392550143266,NA
19134,Philadelphia County,PA,2.722063037249284,NA
19138,Philadelphia County,PA,44.412607449856736,NA
19139,Philadelphia County,PA,20.773638968481375,NA
19140,Philadelphia County,PA,14.469914040114611,38.43648208469055
19148,Philadelphia County,PA,33.3810888252149,NA
19151,Philadelphia County,PA,12.607449856733524,NA
19428,Montgomery County,PA,77.50716332378224,NA
19454,Montgomery County,PA,75.78796561604585,NA
19464,Montgomery County,PA,NA,7.81758957654723
19512,Berks County,PA,62.75071633237822,NA
19540,Berks County,PA,99.2836676217765,NA
19601,Berks County,PA,17.765042979942695,NA
02865,Providence County,RI,NA,58.63192182410424
02874,Washington County,RI,95.84527220630372,NA
29045,Kershaw County,SC,74.92836676217765,NA
29063,Richland County,SC,59.885386819484246,NA
29150,Sumter County,SC,37.53581661891118,NA
29212,Lexington County,SC,65.90257879656161,NA
29360,Laurens County,SC,43.553008595988544,NA
29372,Spartanburg County,SC,NA,91.53094462540716
29405,Charleston County,SC,NA,39.08794788273616
29456,Dorchester County,SC,36.81948424068768,NA
29461,Berkeley County,SC,34.52722063037249,32.89902280130293
29512,Marlboro County,SC,82.09169054441261,NA
29520,Chesterfield County,SC,NA,60.91205211726385
29605,Greenville County,SC,25.07163323782235,NA
29650,Greenville County,SC,40.54441260744986,NA
29661,Greenville County,SC,NA,84.03908794788273
29662,Greenville County,SC,66.4756446991404,NA
29669,Anderson County,SC,64.89971346704871,NA
29707,Lancaster County,SC,78.22349570200574,NA
29805,Aiken County,SC,97.85100286532952,NA
57006,Brookings County,SD,66.189111747851,NA
37027,Williamson County,TN,NA,22.80130293159609
37064,Williamson County,TN,49.8567335243553,NA
37138,Davidson County,TN,54.15472779369628,NA
37172,Robertson County,TN,NA,32.24755700325733
37203,Davidson County,TN,62.607449856733524,NA
37209,Davidson County,TN,32.37822349570201,NA
37218,Davidson County,TN,55.014326647564474,NA
37321,Rhea County,TN,30.08595988538682,NA
37322,Meigs County,TN,NA,83.71335504885994
37327,Sequatchie County,TN,44.55587392550143,NA
37398,Franklin County,TN,48.13753581661891,NA
37407,Hamilton County,TN,86.53295128939828,NA
37419,Hamilton County,TN,NA,92.50814332247556
37421,Hamilton County,TN,NA,27.035830618892508
37615,Washington County,TN,NA,59.60912052117264
37658,Carter County,TN,89.82808022922636,NA
37659,Washington County,TN,NA,26.710097719869708
37660,Sullivan County,TN,NA,10.097719869706841
37692,Unicoi County,TN,NA,91.20521172638436
37801,Blount County,TN,14.613180515759314,NA
37807,Union County,TN,73.06590257879655,NA
37914,Knox County,TN,38.68194842406877,NA
37931,Knox County,TN,44.84240687679083,NA
38001,Crockett County,TN,NA,93.81107491856677
38068,Fayette County,TN,NA,83.38762214983714
38128,Shelby County,TN,19.62750716332378,NA
38138,Shelby County,TN,88.25214899713467,NA
38401,Maury County,TN,6.73352435530086,NA
38501,Putnam County,TN,NA,18.241042345276874
38558,Cumberland County,TN,NA,49.8371335504886
75009,Collin County,TX,86.24641833810888,NA
75020,Grayson County,TX,NA,35.50488599348534
75034,Denton County,TX,40.114613180515754,NA
75043,Dallas County,TX,NA,18.566775244299674
75056,Denton County,TX,31.94842406876791,NA
75061,Dallas County,TX,54.72779369627507,NA
75068,Denton County,TX,NA,56.02605863192183
75070,Collin County,TX,49.14040114613181,NA
75089,Dallas County,TX,63.75358166189111,NA
75098,Collin County,TX,23.065902578796564,NA
75115,Dallas County,TX,23.20916905444126,NA
75137,Dallas County,TX,NA,79.47882736156352
75224,Dallas County,TX,49.8567335243553,NA
75401,Hunt County,TX,NA,86.31921824104235
75692,Harrison County,TX,93.98280802292264,NA
75701,Smith County,TX,36.67621776504298,NA
75766,Cherokee County,TX,NA,9.446254071661238
75785,Cherokee County,TX,71.91977077363897,NA
75951,Jasper County,TX,53.00859598853869,NA
76023,Wise County,TX,NA,88.92508143322475
76051,Tarrant County,TX,NA,34.85342019543974
76063,Tarrant County,TX,13.896848137535816,13.029315960912053
76065,Ellis County,TX,NA,35.17915309446254
76103,Tarrant County,TX,66.9054441260745,NA
76134,Tarrant County,TX,27.793696275071632,NA
76180,Tarrant County,TX,NA,34.20195439739413
76208,Denton County,TX,62.17765042979943,NA
76227,Denton County,TX,68.91117478510029,NA
76240,Cooke County,TX,42.83667621776504,NA
76504,Bell County,TX,9.169054441260744,NA
76708,McLennan County,TX,50.429799426934096,NA
76801,Brown County,TX,56.87679083094556,NA
76802,Brown County,TX,95.98853868194843,NA
77005,Harris County,TX,74.64183381088824,NA
77043,Harris County,TX,81.23209169054442,NA
77070,Harris County,TX,NA,23.452768729641694
77077,Harris County,TX,NA,30.618892508143325
77338,Harris County,TX,48.567335243553,NA
77340,Walker County,TX,87.10601719197709,NA
77355,Montgomery County,TX,60.88825214899713,NA
77388,Harris County,TX,47.85100286532951,NA
77433,Harris County,TX,11.031518624641834,NA
77494,Fort Bend County,TX,16.475644699140403,NA
77520,Harris County,TX,45.702005730659025,NA
77539,Galveston County,TX,19.91404011461318,NA
77571,Harris County,TX,29.512893982808023,NA
77575,Liberty County,TX,NA,60.586319218241044
77581,Brazoria County,TX,30.659025787965614,NA
77802,Brazos County,TX,NA,20.846905537459286
78223,Bexar County,TX,18.76790830945559,NA
78227,Bexar County,TX,38.108882521489974,NA
78256,Bexar County,TX,97.70773638968481,NA
78382,Aransas County,TX,86.38968481375359,NA
78516,Hidalgo County,TX,NA,48.534201954397396
78574,Hidalgo County,TX,37.82234957020057,NA
78611,Burnet County,TX,96.70487106017191,NA
78613,Williamson County,TX,34.097421203438394,NA
78621,Bastrop County,TX,NA,70.68403908794788
78634,Williamson County,TX,61.891117478510026,NA
78664,Williamson County,TX,48.28080229226361,NA
78666,Hays County,TX,28.653295128939828,NA
78701,Travis County,TX,NA,94.13680781758957
78759,Travis County,TX,78.79656160458453,NA
79109,Randall County,TX,40.40114613180516,NA
79403,Lubbock County,TX,NA,48.20846905537459
79413,Lubbock County,TX,71.34670487106017,NA
79549,Scurry County,TX,43.98280802292264,NA
79761,Ector County,TX,NA,57.65472312703584
79934,El Paso County,TX,81.9484240687679,NA
84037,Davis County,UT,72.06303724928367,NA
84075,Davis County,UT,73.63896848137536,NA
84103,Salt Lake County,UT,68.62464183381088,NA
84105,Salt Lake County,UT,NA,67.75244299674267
84116,Salt Lake County,UT,NA,33.55048859934853
84660,Utah County,UT,69.91404011461319,NA
05250,Bennington County,VT,NA,95.76547231270358
20109,Prince William County,VA,32.664756446991404,NA
20121,Fairfax County,VA,68.62464183381088,NA
20186,Fauquier County,VA,82.6647564469914,NA
22015,Fairfax County,VA,55.44412607449857,NA
22033,Fairfax County,VA,62.32091690544412,NA
22153,Fairfax County,VA,NA,56.35179153094463
22205,Arlington County,VA,86.81948424068769,NA
22206,Arlington County,VA,60.02865329512894,NA
22315,Fairfax County,VA,58.59598853868195,NA
22408,Spotsylvania County,VA,67.621776504298,NA
22630,Warren County,VA,60.60171919770774,33.876221498371336
23320,Chesapeake city,VA,28.939828080229223,NA
23608,Newport News city,VA,NA,34.527687296416936
23669,Hampton city,VA,23.49570200573066,NA
24083,Botetourt County,VA,NA,98.69706840390879
24540,Danville city,VA,NA,25.732899022801302
24551,Bedford County,VA,83.810888252149,NA
98001,King County,WA,NA,38.762214983713356
98002,King County,WA,36.24641833810888,NA
98011,King County,WA,61.74785100286533,NA
98034,King County,WA,33.3810888252149,NA
98036,Snohomish County,WA,50.85959885386819,NA
98055,King County,WA,75.93123209169055,NA
98059,King County,WA,48.71060171919771,NA
98102,King County,WA,74.49856733524355,NA
98104,King County,WA,NA,37.785016286644954
98133,King County,WA,29.942693409742123,NA
98208,Snohomish County,WA,21.346704871060172,NA
98233,Skagit County,WA,NA,53.420195439739416
98239,Island County,WA,NA,63.51791530944625
98248,Whatcom County,WA,97.99426934097421,NA
98275,Snohomish County,WA,NA,73.9413680781759
98310,Kitsap County,WA,70.34383954154728,NA
98312,Kitsap County,WA,40.97421203438395,NA
98360,Pierce County,WA,NA,86.97068403908796
98372,Pierce County,WA,61.31805157593123,NA
98382,Clallam County,WA,56.01719197707736,2.9315960912052117
98409,Pierce County,WA,58.16618911174785,NA
98683,Clark County,WA,NA,74.5928338762215
98801,Chelan County,WA,NA,8.794788273615636
98823,Grant County,WA,93.26647564469914,NA
98908,Yakima County,WA,39.97134670487106,NA
99021,Spokane County,WA,94.26934097421203,NA
99202,Spokane County,WA,63.180515759312314,NA
99223,Spokane County,WA,NA,52.44299674267101
99337,Benton County,WA,27.363896848137536,NA
20018,District of Columbia,DC,44.985673352435526,NA
20020,District of Columbia,DC,2.005730659025788,NA
20032,District of Columbia,DC,25.787965616045845,NA
24740,Mercer County,WV,31.37535816618911,NA
24801,McDowell County,WV,96.13180515759312,NA
25314,Kanawha County,WV,NA,45.928338762214985
25401,Berkeley County,WV,38.25214899713467,NA
25508,Logan County,WV,NA,70.03257328990227
25901,Fayette County,WV,49.570200573065904,NA
25951,Summers County,WV,72.92263610315186,NA
26241,Randolph County,WV,32.09169054441261,NA
26452,Lewis County,WV,61.03151862464183,NA
26501,Monongalia County,WV,NA,27.68729641693811
26508,Monongalia County,WV,5.014326647564469,NA
26537,Preston County,WV,59.02578796561605,NA
26726,Mineral County,WV,44.269340974212035,NA
26757,Hampshire County,WV,87.96561604584528,NA
53024,Ozaukee County,WI,65.18624641833811,NA
53045,Waukesha County,WI,NA,45.60260586319218
53098,Dodge County,WI,NA,55.048859934853425
53104,Kenosha County,WI,NA,74.9185667752443
53144,Kenosha County,WI,NA,66.77524429967427
53202,Milwaukee County,WI,NA,42.99674267100978
53204,Milwaukee County,WI,6.160458452722064,NA
53220,Milwaukee County,WI,NA,62.21498371335505
53221,Milwaukee County,WI,88.96848137535817,NA
53226,Milwaukee County,WI,71.63323782234957,NA
53402,Racine County,WI,NA,2.2801302931596092
53520,Green County,WI,NA,54.39739413680782
53548,Rock County,WI,26.504297994269344,NA
53551,Jefferson County,WI,NA,80.13029315960912
53593,Dane County,WI,99.14040114613181,NA
54001,Polk County,WI,NA,91.85667752442997
54153,Oconto County,WI,76.21776504297995,NA
54403,Marathon County,WI,76.36103151862464,NA
54703,Eau Claire County,WI,NA,69.38110749185668
54729,Chippewa County,WI,33.810888252149,NA
54843,Sawyer County,WI,83.2378223495702,NA
54901,Winnebago County,WI,28.796561604584525,NA
