ZipCode,county,state,Adult,Retirement
35205,Jefferson County,AL,74.17840375586854,NA
35214,Jefferson County,AL,NA,46.55172413793103
35215,Jefferson County,AL,7.82472613458529,NA
35404,Tuscaloosa County,AL,16.901408450704224,NA
35601,Morgan County,AL,13.928012519561817,NA
35620,Limestone County,AL,86.2284820031299,NA
35634,Lauderdale County,AL,90.14084507042254,NA
35660,Colbert County,AL,76.83881064162755,NA
35754,Morgan County,AL,NA,94.39655172413794
36010,Pike County,AL,NA,98.27586206896551
36022,Elmore County,AL,NA,86.63793103448276
36049,Crenshaw County,AL,NA,95.6896551724138
36106,Montgomery County,AL,87.63693270735524,NA
85020,Maricopa County,AZ,NA,40.51724137931034
85032,Maricopa County,AZ,16.118935837245697,NA
85051,Maricopa County,AZ,15.179968701095461,NA
85255,Maricopa County,AZ,57.43348982785602,NA
85301,Maricopa County,AZ,26.76056338028169,NA
85379,Maricopa County,AZ,37.558685446009385,NA
85396,Maricopa County,AZ,88.57589984350548,NA
85645,Pima County,AZ,99.37402190923318,NA
85650,Cochise County,AZ,85.60250391236308,NA
85710,Pima County,AZ,8.137715179968701,NA
85712,Pima County,AZ,NA,82.75862068965517
85713,Pima County,AZ,35.52425665101722,NA
85730,Pima County,AZ,30.829420970266042,NA
86326,Yavapai County,AZ,28.169014084507044,NA
86556,Apache County,AZ,94.83568075117371,NA
71913,Garland County,AR,45.07042253521127,NA
72015,Saline County,AR,NA,38.793103448275865
72023,Lonoke County,AR,69.17057902973396,NA
72032,Faulkner County,AR,NA,51.724137931034484
72416,Craighead County,AR,NA,93.53448275862068
72703,Washington County,AR,82.15962441314554,NA
72730,Washington County,AR,96.87010954616588,NA
90018,Los Angeles County,CA,76.68231611893583,NA
90032,Los Angeles County,CA,55.86854460093896,NA
90045,Los Angeles County,CA,NA,65.51724137931035
90062,Los Angeles County,CA,60.40688575899843,NA
90201,Los Angeles County,CA,38.028169014084504,NA
90230,Los Angeles County,CA,83.09859154929578,NA
90503,Los Angeles County,CA,56.65101721439749,NA
90504,Los Angeles County,CA,76.36932707355243,NA
91104,Los Angeles County,CA,80.75117370892019,NA
91306,Los Angeles County,CA,47.26134585289515,NA
91356,Los Angeles County,CA,NA,56.46551724137932
91605,Los Angeles County,CA,53.834115805946794,NA
91709,San Bernardino County,CA,74.49139280125195,NA
91710,San Bernardino County,CA,44.44444444444444,NA
91767,Los Angeles County,CA,NA,60.3448275862069
91790,Los Angeles County,CA,98.74804381846636,NA
91950,San Diego County,CA,43.97496087636933,NA
92026,San Diego County,CA,63.38028169014085,NA
92037,San Diego County,CA,NA,59.48275862068966
92111,San Diego County,CA,NA,61.63793103448276
92223,Riverside County,CA,NA,49.137931034482754
92301,San Bernardino County,CA,NA,53.879310344827594
92307,San Bernardino County,CA,34.27230046948357,NA
92316,San Bernardino County,CA,84.03755868544602,NA
92324,San Bernardino County,CA,NA,48.275862068965516
92335,San Bernardino County,CA,9.076682316118937,NA
92376,San Bernardino County,CA,7.981220657276995,NA
92394,San Bernardino County,CA,55.712050078247266,NA
92395,San Bernardino County,CA,32.70735524256651,NA
92404,San Bernardino County,CA,18.779342723004692,NA
92407,San Bernardino County,CA,19.874804381846637,NA
92509,Riverside County,CA,27.073552425665103,NA
92543,Riverside County,CA,46.635367762128325,NA
92583,Riverside County,CA,71.51799687010954,NA
92646,Orange County,CA,30.359937402190923,NA
92647,Orange County,CA,62.91079812206573,NA
92649,Orange County,CA,63.84976525821596,NA
92672,Orange County,CA,74.80438184663537,NA
92677,Orange County,CA,40.21909233176839,NA
92801,Orange County,CA,NA,75.86206896551724
92804,Orange County,CA,15.023474178403756,NA
92805,Orange County,CA,30.51643192488263,NA
93277,Tulare County,CA,29.42097026604069,NA
93292,Tulare County,CA,48.5133020344288,NA
93304,Kern County,CA,28.482003129890455,NA
93401,San Luis Obispo County,CA,NA,62.93103448275862
93436,Santa Barbara County,CA,17.05790297339593,NA
93552,Los Angeles County,CA,65.88419405320813,NA
94015,San Mateo County,CA,50.07824726134585,NA
94080,San Mateo County,CA,NA,10.775862068965516
94549,Contra Costa County,CA,NA,68.96551724137932
94563,Contra Costa County,CA,NA,84.91379310344827
94605,Alameda County,CA,NA,28.448275862068968
95204,San Joaquin County,CA,64.63223787167449,NA
95315,Merced County,CA,92.64475743348983,NA
95350,Stanislaus County,CA,20.344287949921753,NA
95357,Stanislaus County,CA,89.358372456964,NA
95380,Stanislaus County,CA,32.863849765258216,NA
95451,Lake County,CA,NA,58.189655172413794
95621,Sacramento County,CA,49.29577464788733,NA
95823,Sacramento County,CA,NA,24.568965517241377
95926,Butte County,CA,74.64788732394366,NA
95966,Butte County,CA,NA,15.086206896551724
95973,Butte County,CA,26.291079812206576,NA
80011,Arapahoe County,CO,7.042253521126761,NA
80012,Arapahoe County,CO,NA,85.77586206896551
80027,Boulder County,CO,69.95305164319248,NA
80207,Denver County,CO,80.12519561815337,NA
80219,Denver County,CO,4.068857589984351,NA
80920,El Paso County,CO,66.97965571205008,NA
81004,Pueblo County,CO,NA,35.3448275862069
81082,Las Animas County,CO,NA,79.74137931034483
81212,Fremont County,CO,46.79186228482003,NA
81321,Montezuma County,CO,74.96087636932708,NA
06032,Hartford County,CT,83.09859154929578,NA
06042,Hartford County,CT,45.539906103286384,NA
06066,Tolland County,CT,NA,25
06082,Hartford County,CT,58.05946791862285,NA
06095,Hartford County,CT,78.56025039123631,NA
06237,Tolland County,CT,96.24413145539906,NA
06415,New London County,CT,62.441314553990615,NA
06450,New Haven County,CT,5.164319248826291,NA
06517,New Haven County,CT,57.12050078247262,NA
06708,New Haven County,CT,25.821596244131456,NA
19711,New Castle County,DE,37.8716744913928,NA
19901,Kent County,DE,19.718309859154928,NA
19945,Sussex County,DE,NA,70.25862068965517
32003,Clay County,FL,67.6056338028169,NA
32011,Nassau County,FL,68.54460093896714,NA
32055,Columbia County,FL,48.35680751173709,NA
32065,Clay County,FL,49.13928012519562,NA
32097,Nassau County,FL,NA,43.96551724137931
32114,Volusia County,FL,64.47574334898279,NA
32277,Duval County,FL,NA,52.1551724137931
32506,Escambia County,FL,NA,23.275862068965516
32618,Alachua County,FL,NA,88.36206896551724
32641,Alachua County,FL,29.577464788732392,NA
32701,Seminole County,FL,63.84976525821596,NA
32720,Volusia County,FL,67.13615023474179,NA
32746,Seminole County,FL,NA,50
32807,Orange County,FL,NA,69.82758620689656
32810,Orange County,FL,46.478873239436616,NA
32825,Orange County,FL,39.436619718309856,NA
32832,Orange County,FL,89.67136150234741,NA
32907,Brevard County,FL,NA,65.94827586206897
33069,Broward County,FL,75.43035993740219,NA
33314,Broward County,FL,75.7433489827856,NA
33430,Palm Beach County,FL,58.68544600938967,NA
33604,Hillsborough County,FL,NA,46.12068965517241
33605,Hillsborough County,FL,NA,85.34482758620689
33607,Hillsborough County,FL,NA,88.79310344827587
33612,Hillsborough County,FL,10.954616588419405,NA
33755,Pinellas County,FL,89.98435054773083,NA
33771,Pinellas County,FL,51.173708920187785,NA
33774,Pinellas County,FL,78.87323943661971,NA
33841,Polk County,FL,94.36619718309859,NA
33870,Highlands County,FL,35.2112676056338,NA
33935,Hendry County,FL,82.47261345852895,NA
33980,Charlotte County,FL,93.74021909233177,NA
33991,Lee County,FL,NA,45.258620689655174
34119,Collier County,FL,49.45226917057903,NA
34205,Manatee County,FL,40.68857589984351,NA
34208,Manatee County,FL,30.985915492957744,NA
34221,Manatee County,FL,NA,32.327586206896555
34234,Sarasota County,FL,NA,50.43103448275862
34292,Sarasota County,FL,NA,56.46551724137932
34606,Hernando County,FL,49.60876369327074,NA
34614,Hernando County,FL,97.80907668231612,NA
34997,Martin County,FL,NA,12.5
30046,Gwinnett County,GA,54.61658841940532,NA
30094,Rockdale County,GA,NA,36.637931034482754
30127,Cobb County,GA,20.657276995305164,NA
30180,Carroll County,GA,26.917057902973397,NA
30241,Troup County,GA,34.11580594679186,NA
30253,Henry County,GA,30.985915492957744,NA
30311,Fulton County,GA,16.74491392801252,NA
30506,Hall County,GA,36.93270735524257,NA
30553,Franklin County,GA,92.01877934272301,NA
30680,Barrow County,GA,NA,28.01724137931034
30705,Murray County,GA,36.30672926447575,46.98275862068966
30736,Catoosa County,GA,11.424100156494523,NA
31206,Bibb County,GA,NA,60.775862068965516
31503,Ware County,GA,59.624413145539904,NA
31705,Dougherty County,GA,36.61971830985916,31.46551724137931
31791,Worth County,GA,61.03286384976526,NA
39837,Miller County,GA,79.81220657276995,NA
96707,Honolulu County,HI,42.87949921752739,NA
96734,Honolulu County,HI,76.52582159624414,NA
96778,Hawaii County,HI,77.46478873239437,NA
83301,Twin Falls County,ID,22.22222222222222,NA
83402,Bonneville County,ID,60.876369327073554,NA
83404,Bonneville County,ID,85.28951486697966,NA
83616,Ada County,ID,56.4945226917058,NA
83713,Ada County,ID,43.66197183098591,NA
83714,Ada County,ID,NA,57.327586206896555
83815,Kootenai County,ID,NA,26.29310344827586
60013,McHenry County,IL,87.01095461658842,NA
60046,Lake County,IL,45.69640062597809,NA
60056,Cook County,IL,46.165884194053206,NA
60074,Cook County,IL,48.98278560250392,NA
60099,Lake County,IL,48.04381846635368,NA
60101,DuPage County,IL,33.95931142410016,NA
60139,DuPage County,IL,NA,44.827586206896555
60148,DuPage County,IL,15.64945226917058,NA
60430,Cook County,IL,NA,59.05172413793104
60431,Will County,IL,47.57433489827856,NA
60440,Will County,IL,60.56338028169014,NA
60445,Cook County,IL,NA,61.206896551724135
60484,Will County,IL,97.339593114241,NA
60543,Kendall County,IL,43.50547730829421,NA
60554,Kane County,IL,90.76682316118936,NA
60632,Cook County,IL,14.084507042253522,NA
60640,Cook County,IL,7.668231611893583,NA
60649,Cook County,IL,NA,14.655172413793101
60707,Cook County,IL,23.161189358372457,NA
61021,Lee County,IL,NA,10.344827586206897
61265,Rock Island County,IL,52.895148669796555,NA
61550,Tazewell County,IL,91.07981220657277,NA
61554,Tazewell County,IL,35.83724569640063,NA
61832,Vermilion County,IL,NA,16.379310344827587
62034,Madison County,IL,95.93114241001565,NA
62040,Madison County,IL,61.34585289514867,NA
62274,Perry County,IL,NA,89.22413793103449
46064,Madison County,IN,NA,67.24137931034483
46113,Marion County,IN,75.11737089201877,NA
46131,Johnson County,IN,37.715179968701094,NA
46142,Johnson County,IN,49.76525821596244,NA
46224,Marion County,IN,73.0829420970266,NA
46237,Marion County,IN,21.90923317683881,NA
46304,Porter County,IN,NA,24.137931034482758
46320,Lake County,IN,41.94053208137715,59.91379310344828
46322,Lake County,IN,28.951486697965574,NA
46323,Lake County,IN,23.630672926447573,NA
46375,Lake County,IN,39.906103286384976,NA
46410,Lake County,IN,6.572769953051644,NA
46516,Elkhart County,IN,18.622848200312987,NA
46544,St. Joseph County,IN,55.24256651017214,NA
46561,St. Joseph County,IN,NA,93.10344827586206
46563,Marshall County,IN,79.02973395931141,NA
46619,St. Joseph County,IN,85.44600938967136,NA
46701,Noble County,IN,79.34272300469483,NA
46723,Whitley County,IN,NA,79.3103448275862
46725,Whitley County,IN,NA,27.155172413793103
46755,Noble County,IN,33.17683881064163,NA
47025,Dearborn County,IN,47.73082942097027,NA
47130,Clark County,IN,8.763693270735525,7.327586206896551
47138,Scott County,IN,NA,96.98275862068965
47170,Scott County,IN,NA,64.22413793103449
47265,Jennings County,IN,64.94522691705791,NA
47303,Delaware County,IN,42.09702660406886,NA
47371,Jay County,IN,62.91079812206573,NA
47421,Lawrence County,IN,NA,25.43103448275862
47620,Posey County,IN,NA,71.98275862068965
50111,Polk County,IA,91.70579029733959,NA
50701,Black Hawk County,IA,NA,29.74137931034483
51104,Woodbury County,IA,51.330203442879494,NA
51534,Mills County,IA,71.36150234741784,NA
66203,Johnson County,KS,84.97652582159625,NA
66502,Riley County,KS,NA,76.29310344827587
66604,Shawnee County,KS,54.460093896713616,NA
66701,Bourbon County,KS,74.02190923317684,NA
67213,Sedgwick County,KS,NA,87.5
67217,Sedgwick County,KS,NA,81.89655172413794
40019,Henry County,KY,95.30516431924883,NA
40207,Jefferson County,KY,78.24726134585289,NA
40212,Jefferson County,KY,29.890453834115803,NA
40220,Jefferson County,KY,45.22691705790297,NA
40228,Jefferson County,KY,74.33489827856025,NA
40272,Jefferson County,KY,14.397496087636933,NA
40330,Mercer County,KY,61.815336463223794,NA
40336,Estill County,KY,62.284820031298906,NA
40351,Rowan County,KY,NA,20.689655172413794
40504,Fayette County,KY,NA,71.12068965517241
40508,Fayette County,KY,40.845070422535215,73.27586206896551
40701,Whitley County,KY,10.641627543035993,NA
40741,Laurel County,KY,NA,47.8448275862069
41001,Campbell County,KY,73.55242566510172,NA
41015,Kenton County,KY,31.455399061032864,NA
41101,Boyd County,KY,19.248826291079812,25.862068965517242
41102,Boyd County,KY,24.2566510172144,NA
41701,Perry County,KY,39.123630672926446,NA
42025,Marshall County,KY,49.92175273865415,NA
42066,Graves County,KY,26.291079812206576,NA
42101,Warren County,KY,6.259780907668231,NA
42103,Warren County,KY,72.14397496087636,NA
42127,Barren County,KY,75.8998435054773,NA
42134,Simpson County,KY,59.937402190923315,NA
42141,Barren County,KY,NA,14.224137931034484
42171,Warren County,KY,86.2284820031299,NA
42220,Todd County,KY,90.29733959311424,NA
42261,Butler County,KY,NA,90.94827586206897
42303,Daviess County,KY,9.233176838810643,NA
42330,Muhlenberg County,KY,77.30829420970265,NA
42376,Daviess County,KY,86.85446009389672,NA
42420,Henderson County,KY,8.450704225352112,NA
42633,Wayne County,KY,60.25039123630673,NA
42754,Grayson County,KY,32.863849765258216,NA
42757,Hart County,KY,99.21752738654148,NA
70122,Orleans Parish,LA,NA,17.67241379310345
70433,St. Tammany Parish,LA,NA,12.068965517241379
70525,Acadia Parish,LA,56.65101721439749,NA
70578,Acadia Parish,LA,24.726134585289515,NA
70605,Calcasieu Parish,LA,20.187793427230048,NA
70726,Livingston Parish,LA,1.0954616588419406,NA
70802,East Baton Rouge Parish,LA,52.26917057902973,NA
71082,Caddo Parish,LA,NA,93.96551724137932
71106,Caddo Parish,LA,NA,19.82758620689655
71220,Morehouse Parish,LA,NA,99.56896551724138
71302,Rapides Parish,LA,67.4491392801252,NA
71360,Rapides Parish,LA,NA,32.758620689655174
71371,La Salle Parish,LA,99.8435054773083,NA
71457,Natchitoches Parish,LA,54.929577464788736,NA
03908,York County,ME,NA,66.8103448275862
04011,Cumberland County,ME,NA,71.55172413793103
04345,Kennebec County,ME,NA,62.5
20653,St. Mary's County,MD,73.39593114241002,NA
20657,Calvert County,MD,NA,87.93103448275862
20659,St. Mary's County,MD,NA,68.53448275862068
20740,Prince George's County,MD,NA,97.84482758620689
20744,Prince George's County,MD,51.956181533646316,45.689655172413794
20832,Montgomery County,MD,84.35054773082942,NA
21037,Anne Arundel County,MD,77.77777777777779,NA
21227,Baltimore County,MD,NA,55.603448275862064
21401,Anne Arundel County,MD,NA,37.06896551724138
21502,Allegany County,MD,27.699530516431924,NA
21804,Wicomico County,MD,54.30359937402191,NA
21811,Worcester County,MD,65.25821596244131,NA
21901,Cecil County,MD,NA,77.15517241379311
01002,Hampshire County,MA,45.852895148669795,NA
01107,Hampden County,MA,NA,66.37931034482759
01119,Hampden County,MA,17.52738654147105,NA
01510,Worcester County,MA,60.719874804381845,NA
01524,Worcester County,MA,79.65571205007824,NA
01757,Worcester County,MA,1.5649452269170578,NA
01843,Essex County,MA,2.8169014084507045,NA
01844,Essex County,MA,NA,3.0172413793103448
01854,Middlesex County,MA,48.82629107981221,NA
01887,Middlesex County,MA,34.42879499217527,NA
01905,Essex County,MA,NA,11.637931034482758
01960,Essex County,MA,0.3129890453834116,NA
02122,Suffolk County,MA,10.328638497652582,NA
02135,Suffolk County,MA,82.00312989045383,NA
02170,Norfolk County,MA,38.654147104851326,NA
02301,Plymouth County,MA,5.633802816901409,NA
02302,Plymouth County,MA,59.154929577464785,NA
02346,Plymouth County,MA,9.859154929577464,NA
02351,Plymouth County,MA,17.52738654147105,NA
02576,Plymouth County,MA,89.2018779342723,NA
02740,Bristol County,MA,0,NA
48043,Macomb County,MI,39.280125195618155,NA
48067,Oakland County,MI,76.05633802816901,NA
48114,Livingston County,MI,58.68544600938967,NA
48124,Wayne County,MI,22.535211267605636,NA
48152,Wayne County,MI,NA,8.189655172413794
48170,Wayne County,MI,71.67449139280126,NA
48187,Wayne County,MI,NA,1.7241379310344827
48188,Wayne County,MI,13.458528951486699,NA
48198,Washtenaw County,MI,2.190923317683881,NA
48224,Wayne County,MI,1.8779342723004695,NA
48229,Wayne County,MI,NA,77.58620689655173
48238,Wayne County,MI,NA,21.120689655172413
48313,Macomb County,MI,31.61189358372457,NA
48342,Oakland County,MI,50.39123630672926,NA
48346,Oakland County,MI,44.91392801251956,NA
48350,Oakland County,MI,NA,87.06896551724138
48382,Oakland County,MI,56.33802816901409,NA
48433,Genesee County,MI,NA,27.586206896551722
48642,Midland County,MI,21.752738654147105,NA
48706,Bay County,MI,37.245696400625974,NA
48801,Gratiot County,MI,NA,58.620689655172406
48837,Eaton County,MI,65.25821596244131,NA
48867,Shiawassee County,MI,NA,9.913793103448276
48876,Eaton County,MI,96.40062597809077,NA
48888,Montcalm County,MI,86.697965571205,NA
48910,Ingham County,MI,12.832550860719873,NA
48912,Ingham County,MI,59.937402190923315,NA
49001,Kalamazoo County,MI,23.943661971830984,NA
49015,Calhoun County,MI,18.30985915492958,NA
49017,Calhoun County,MI,36.46322378716745,NA
49021,Eaton County,MI,NA,78.87931034482759
49031,Cass County,MI,87.79342723004694,NA
49037,Calhoun County,MI,15.64945226917058,37.93103448275862
49090,Van Buren County,MI,65.72769953051643,NA
49091,St. Joseph County,MI,51.01721439749609,NA
49099,St. Joseph County,MI,92.48826291079813,NA
49201,Jackson County,MI,NA,6.0344827586206895
49251,Ingham County,MI,92.17527386541471,NA
49331,Kent County,MI,56.96400625978091,NA
49341,Kent County,MI,34.58528951486698,NA
49346,Mecosta County,MI,95.77464788732394,NA
49349,Newaygo County,MI,67.91862284820031,NA
49418,Kent County,MI,NA,31.896551724137932
49444,Muskegon County,MI,8.607198748043817,NA
49445,Muskegon County,MI,43.03599374021909,NA
49454,Mason County,MI,NA,91.37931034482759
49507,Kent County,MI,4.381846635367762,28.879310344827587
49546,Kent County,MI,NA,37.5
49684,Grand Traverse County,MI,64.31924882629107,NA
49685,Grand Traverse County,MI,59.31142410015649,NA
49855,Marquette County,MI,15.336463223787167,NA
49866,Marquette County,MI,66.51017214397497,NA
55045,Chisago County,MN,98.90453834115806,NA
55130,Ramsey County,MN,56.18153364632238,NA
55364,Hennepin County,MN,NA,82.32758620689656
55398,Sherburne County,MN,81.37715179968701,NA
55404,Hennepin County,MN,0.9389671361502347,NA
55427,Hennepin County,MN,62.59780907668232,NA
55806,St. Louis County,MN,32.3943661971831,NA
55912,Mower County,MN,NA,3.4482758620689653
56093,Waseca County,MN,NA,57.758620689655174
56431,Aitkin County,MN,78.40375586854461,NA
38654,DeSoto County,MS,27.386541471048513,NA
39507,Harrison County,MS,NA,39.224137931034484
39560,Harrison County,MS,NA,15.517241379310345
39667,Walthall County,MS,79.49921752738655,NA
63026,St. Louis County,MO,42.72300469483568,NA
63031,St. Louis County,MO,19.561815336463223,NA
63121,St. Louis County,MO,71.04851330203444,NA
63552,Macon County,MO,84.19405320813772,NA
63703,Cape Girardeau County,MO,66.04068857589984,NA
63755,Cape Girardeau County,MO,72.45696400625978,NA
63901,Butler County,MO,14.241001564945227,NA
64024,Clay County,MO,20.031298904538342,NA
64055,Jackson County,MO,6.885758998435055,NA
64110,Jackson County,MO,42.56651017214397,NA
64111,Jackson County,MO,30.203442879499214,NA
64133,Jackson County,MO,3.755868544600939,5.603448275862069
64138,Jackson County,MO,11.89358372456964,NA
64506,Buchanan County,MO,57.74647887323944,NA
64701,Cass County,MO,NA,69.39655172413794
64772,Vernon County,MO,NA,62.06896551724138
65202,Boone County,MO,11.267605633802818,NA
65240,Boone County,MO,98.12206572769952,NA
65301,Pettis County,MO,3.599374021909233,NA
65453,Crawford County,MO,88.26291079812206,NA
65483,Texas County,MO,97.4960876369327,NA
59405,Cascade County,MT,35.0547730829421,NA
68114,Douglas County,NE,83.4115805946792,NA
68154,Douglas County,NE,87.48043818466354,NA
89117,Clark County,NV,41.47104851330204,NA
89131,Clark County,NV,53.52112676056338,54.741379310344826
89148,Clark County,NV,51.79968701095462,NA
89166,Clark County,NV,71.83098591549296,NA
89436,Washoe County,NV,26.604068857589986,NA
89506,Washoe County,NV,21.12676056338028,NA
89511,Washoe County,NV,NA,32.758620689655174
89512,Washoe County,NV,17.214397496087635,NA
03038,Rockingham County,NH,NA,21.551724137931032
03055,Hillsborough County,NH,53.20813771517997,NA
03062,Hillsborough County,NH,NA,12.931034482758621
03867,Strafford County,NH,25.508607198748045,NA
07003,Essex County,NJ,8.294209702660407,NA
07026,Bergen County,NJ,16.431924882629108,NA
07036,Union County,NJ,NA,22.413793103448278
07040,Essex County,NJ,82.78560250391236,NA
07062,Union County,NJ,68.85758998435054,NA
07093,Hudson County,NJ,NA,18.103448275862068
07094,Hudson County,NJ,68.23161189358372,NA
07106,Essex County,NJ,64.7887323943662,NA
07108,Essex County,NJ,61.502347417840376,NA
07503,Passaic County,NJ,23.004694835680752,NA
07701,Monmouth County,NJ,NA,42.672413793103445
07733,Monmouth County,NJ,89.51486697965572,NA
07753,Monmouth County,NJ,4.694835680751173,NA
07860,Sussex County,NJ,NA,31.03448275862069
08035,Camden County,NJ,93.27073552425665,NA
08068,Burlington County,NJ,69.64006259780908,NA
08080,Gloucester County,NJ,76.99530516431925,NA
08088,Burlington County,NJ,82.62910798122066,NA
08102,Camden County,NJ,7.355242566510173,NA
08618,Mercer County,NJ,NA,11.206896551724139
87111,Bernalillo County,NM,3.4428794992175273,NA
87113,Bernalillo County,NM,83.7245696400626,NA
87114,Bernalillo County,NM,7.511737089201878,NA
87552,San Miguel County,NM,99.53051643192488,NA
88201,Chaves County,NM,41.78403755868544,NA
88203,Chaves County,NM,NA,63.36206896551724
88310,Otero County,NM,65.10172143974961,NA
10014,New York County,NY,89.82785602503913,NA
10037,New York County,NY,45.38341158059468,NA
10940,Orange County,NY,17.996870109546165,NA
11209,Kings County,NY,NA,26.72413793103448
11212,Kings County,NY,0.6259780907668232,NA
11229,Kings County,NY,31.92488262910798,NA
11418,Queens County,NY,NA,55.172413793103445
11518,Nassau County,NY,96.08763693270735,NA
12019,Saratoga County,NY,82.31611893583725,NA
12065,Saratoga County,NY,NA,21.982758620689655
12180,Rensselaer County,NY,1.4084507042253522,NA
12183,Albany County,NY,99.06103286384976,NA
12590,Dutchess County,NY,61.658841940532085,NA
12601,Dutchess County,NY,34.89827856025039,NA
12603,Dutchess County,NY,NA,63.793103448275865
12883,Essex County,NY,82.94209702660407,NA
13066,Onondaga County,NY,75.27386541471049,NA
13090,Onondaga County,NY,17.214397496087635,NA
13159,Onondaga County,NY,90.61032863849765,NA
13203,Onondaga County,NY,21.439749608763695,NA
13206,Onondaga County,NY,28.638497652582164,NA
13209,Onondaga County,NY,52.112676056338024,NA
13421,Madison County,NY,NA,86.20689655172413
13617,St. Lawrence County,NY,41.00156494522692,40.94827586206897
13760,Broome County,NY,20.970266040688575,NA
13795,Broome County,NY,NA,92.24137931034483
14004,Erie County,NY,NA,81.03448275862068
14067,Niagara County,NY,NA,90.08620689655173
14070,Erie County,NY,NA,92.67241379310344
14127,Erie County,NY,16.275430359937403,NA
14215,Erie County,NY,NA,40.08620689655172
14216,Erie County,NY,33.33333333333333,NA
14220,Erie County,NY,NA,30.17241379310345
14411,Orleans County,NY,32.08137715179969,NA
14420,Monroe County,NY,16.588419405320813,NA
14424,Ontario County,NY,2.3474178403755865,NA
14450,Monroe County,NY,2.503912363067293,NA
14513,Wayne County,NY,4.225352112676056,NA
14534,Monroe County,NY,6.103286384976526,NA
14550,Wyoming County,NY,94.20970266040689,NA
14559,Monroe County,NY,10.7981220657277,NA
14580,Monroe County,NY,NA,0.43103448275862066
14617,Monroe County,NY,NA,4.310344827586207
14724,Chautauqua County,NY,97.0266040688576,NA
14727,Allegany County,NY,NA,83.1896551724138
14760,Cattaraugus County,NY,8.92018779342723,NA
27012,Forsyth County,NC,37.08920187793427,NA
27330,Lee County,NC,25.039123630672925,NA
27522,Granville County,NC,NA,78.01724137931035
27542,Johnston County,NC,77.15179968701096,NA
27703,Durham County,NC,10.015649452269171,NA
27712,Durham County,NC,77.77777777777779,NA
27870,Halifax County,NC,25.821596244131456,NA
27893,Wilson County,NC,15.96244131455399,NA
27958,Currituck County,NC,91.39280125195619,NA
28025,Cabarrus County,NC,10.172143974960877,NA
28110,Union County,NC,24.88262910798122,NA
28112,Union County,NC,NA,43.53448275862069
28205,Mecklenburg County,NC,22.848200312989047,NA
28304,Cumberland County,NC,38.18466353677621,NA
28312,Cumberland County,NC,72.6134585289515,NA
28334,Sampson County,NC,NA,34.05172413793103
28390,Harnett County,NC,NA,90.51724137931035
28405,New Hanover County,NC,NA,36.206896551724135
28451,Brunswick County,NC,70.73552425665102,NA
28555,Onslow County,NC,98.59154929577466,NA
28719,Jackson County,NC,51.64319248826291,NA
28803,Buncombe County,NC,57.27699530516433,NA
58701,Ward County,ND,9.389671361502346,NA
43004,Franklin County,OH,48.200312989045386,NA
43015,Delaware County,OH,NA,9.482758620689655
43021,Delaware County,OH,91.54929577464789,NA
43050,Knox County,OH,NA,4.741379310344827
43065,Delaware County,OH,52.58215962441315,NA
43078,Champaign County,OH,40.375586854460096,NA
43081,Franklin County,OH,25.352112676056336,NA
43082,Delaware County,OH,69.79655712050078,NA
43103,Pickaway County,OH,NA,74.56896551724138
43113,Pickaway County,OH,14.710485133020345,NA
43119,Franklin County,OH,28.325508607198746,NA
43140,Madison County,OH,NA,38.362068965517246
43147,Fairfield County,OH,NA,30.603448275862068
43206,Franklin County,OH,47.417840375586856,NA
43223,Franklin County,OH,5.320813771517996,NA
43224,Franklin County,OH,4.851330203442879,NA
43302,Marion County,OH,1.2519561815336464,NA
43420,Sandusky County,OH,43.81846635367762,NA
43543,Williams County,OH,75.5868544600939,NA
43558,Fulton County,OH,63.69327073552425,NA
43611,Lucas County,OH,14.86697965571205,NA
43613,Lucas County,OH,57.90297339593115,NA
43623,Lucas County,OH,30.672926447574334,NA
43701,Muskingum County,OH,0.4694835680751174,NA
43725,Guernsey County,OH,50.39123630672926,NA
43920,Columbiana County,OH,41.62754303599374,NA
43938,Jefferson County,OH,58.21596244131455,NA
43952,Jefferson County,OH,NA,16.810344827586206
44004,Ashtabula County,OH,NA,2.586206896551724
44035,Lorain County,OH,0.1564945226917058,NA
44044,Lorain County,OH,55.08607198748044,NA
44054,Lorain County,OH,42.41001564945227,NA
44057,Lake County,OH,33.64632237871675,NA
44077,Lake County,OH,NA,2.1551724137931036
44094,Lake County,OH,20.81377151799687,NA
44095,Lake County,OH,22.69170579029734,NA
44108,Cuyahoga County,OH,2.660406885758998,7.758620689655173
44117,Cuyahoga County,OH,NA,53.01724137931034
44131,Cuyahoga County,OH,NA,23.70689655172414
44137,Cuyahoga County,OH,NA,15.517241379310345
44138,Cuyahoga County,OH,39.749608763693274,NA
44142,Cuyahoga County,OH,32.08137715179969,NA
44144,Cuyahoga County,OH,12.989045383411579,NA
44203,Summit County,OH,5.477308294209703,13.36206896551724
44224,Summit County,OH,24.413145539906104,NA
44438,Trumbull County,OH,77.62128325508607,NA
44451,Mahoning County,OH,98.43505477308294,NA
44601,Stark County,OH,6.416275430359937,13.793103448275861
44622,Tuscarawas County,OH,NA,39.224137931034484
44657,Stark County,OH,87.16744913928012,NA
44662,Stark County,OH,80.59467918622848,NA
44805,Ashland County,OH,13.615023474178404,NA
44830,Seneca County,OH,19.092331768388107,NA
44883,Seneca County,OH,19.405320813771517,NA
45014,Butler County,OH,15.492957746478872,NA
45044,Butler County,OH,4.538341158059469,NA
45069,Butler County,OH,25.665101721439747,NA
45157,Clermont County,OH,83.8810641627543,NA
45238,Hamilton County,OH,14.553990610328638,NA
45246,Hamilton County,OH,81.06416275430361,NA
45309,Montgomery County,OH,88.73239436619718,NA
45320,Preble County,OH,88.41940532081377,NA
45385,Greene County,OH,12.206572769953052,NA
45429,Montgomery County,OH,80.28169014084507,NA
45601,Ross County,OH,5.007824726134586,0
45631,Gallia County,OH,9.546165884194053,NA
45659,Lawrence County,OH,88.10641627543035,NA
45662,Scioto County,OH,NA,1.293103448275862
45701,Athens County,OH,70.2660406885759,NA
45801,Allen County,OH,12.050078247261347,NA
45804,Allen County,OH,12.363067292644757,NA
45805,Allen County,OH,13.77151799687011,NA
45833,Allen County,OH,70.89201877934272,NA
45875,Putnam County,OH,76.21283255086072,NA
73003,Oklahoma County,OK,73.23943661971832,NA
73030,Murray County,OK,89.04538341158059,NA
73036,Canadian County,OK,47.104851330203445,NA
73045,Oklahoma County,OK,84.66353677621284,NA
73072,Cleveland County,OK,33.48982785602504,NA
73107,Oklahoma County,OK,59.624413145539904,NA
73120,Oklahoma County,OK,NA,33.62068965517241
73121,Oklahoma County,OK,98.27856025039124,NA
74146,Tulsa County,OK,73.86541471048514,NA
74523,Pushmataha County,OK,93.58372456964005,NA
74820,Pontotoc County,OK,NA,6.4655172413793105
74955,Sequoyah County,OK,67.13615023474179,NA
97062,Washington County,OR,66.82316118935837,NA
97080,Multnomah County,OR,29.26447574334898,NA
97086,Clackamas County,OR,NA,74.13793103448276
97217,Multnomah County,OR,NA,83.62068965517241
97219,Multnomah County,OR,NA,34.48275862068966
97222,Clackamas County,OR,35.99374021909233,73.70689655172413
97321,Linn County,OR,32.550860719874805,NA
97411,Coos County,OR,86.07198748043818,NA
97415,Curry County,OR,52.738654147104846,NA
97471,Douglas County,OR,NA,8.620689655172415
97496,Douglas County,OR,63.22378716744914,NA
97838,Umatilla County,OR,18.9358372456964,NA
15074,Beaver County,PA,72.9264475743349,NA
15205,Allegheny County,PA,53.20813771517997,NA
15211,Allegheny County,PA,91.8622848200313,NA
15241,Allegheny County,PA,80.9076682316119,NA
15301,Washington County,PA,5.790297339593114,NA
15317,Washington County,PA,35.36776212832551,NA
15537,Bedford County,PA,84.97652582159625,NA
15656,Westmoreland County,PA,79.18622848200313,NA
15697,Westmoreland County,PA,97.96557120500783,NA
15801,Clearfield County,PA,7.198748043818466,NA
16125,Mercer County,PA,44.60093896713615,NA
16201,Armstrong County,PA,38.967136150234744,NA
16335,Crawford County,PA,9.702660406885759,NA
16438,Erie County,PA,90.92331768388107,NA
16508,Erie County,PA,58.52895148669796,NA
16509,Erie County,PA,40.062597809076685,NA
16511,Erie County,PA,NA,89.65517241379311
16662,Blair County,PA,NA,83.62068965517241
17044,Mifflin County,PA,13.302034428794993,NA
17403,York County,PA,2.97339593114241,NA
17517,Lancaster County,PA,NA,68.10344827586206
17527,Lancaster County,PA,NA,99.13793103448276
17724,Bradford County,PA,95.14866979655712,NA
17815,Columbia County,PA,NA,17.24137931034483
17872,Northumberland County,PA,46.948356807511736,NA
17963,Schuylkill County,PA,94.5226917057903,NA
18301,Monroe County,PA,NA,34.91379310344828
18328,Pike County,PA,95.46165884194053,NA
18360,Monroe County,PA,NA,19.396551724137932
18940,Bucks County,PA,NA,47.41379310344828
18951,Bucks County,PA,21.5962441314554,NA
19013,Delaware County,PA,NA,20.25862068965517
19015,Delaware County,PA,44.28794992175274,51.293103448275865
19020,Bucks County,PA,39.593114241001565,NA
19055,Bucks County,PA,61.18935837245696,NA
19063,Delaware County,PA,NA,50.86206896551724
19066,Montgomery County,PA,88.88888888888889,NA
19078,Delaware County,PA,73.70892018779342,NA
19082,Delaware County,PA,10.485133020344287,NA
19104,Philadelphia County,PA,10.954616588419405,NA
19111,Philadelphia County,PA,22.065727699530516,6.896551724137931
19119,Philadelphia County,PA,28.794992175273865,NA
19120,Philadelphia County,PA,3.286384976525822,NA
19123,Philadelphia County,PA,NA,78.44827586206897
19124,Philadelphia County,PA,0.7824726134585289,NA
19133,Philadelphia County,PA,81.53364632237871,NA
19134,Philadelphia County,PA,3.1298904538341157,NA
19136,Philadelphia County,PA,11.580594679186229,NA
19139,Philadelphia County,PA,23.474178403755868,NA
19140,Philadelphia County,PA,2.0344287949921753,NA
19144,Philadelphia County,PA,3.912363067292645,NA
19390,Chester County,PA,83.4115805946792,NA
19464,Montgomery County,PA,NA,9.051724137931034
02860,Providence County,RI,6.729264475743349,NA
02892,Washington County,RI,NA,97.41379310344827
29044,Richland County,SC,95.61815336463224,NA
29210,Richland County,SC,48.6697965571205,NA
29388,Spartanburg County,SC,70.4225352112676,NA
29406,Charleston County,SC,29.107981220657276,NA
29456,Dorchester County,SC,42.25352112676056,NA
29569,Horry County,SC,81.84663536776213,NA
29576,Horry County,SC,NA,18.53448275862069
29730,York County,SC,21.283255086071986,NA
37013,Davidson County,TN,43.1924882629108,NA
37036,Dickson County,TN,NA,94.82758620689656
37042,Montgomery County,TN,27.856025039123633,NA
37055,Dickson County,TN,NA,49.56896551724138
37067,Williamson County,TN,NA,76.72413793103449
37110,Warren County,TN,NA,29.310344827586203
37115,Davidson County,TN,12.519561815336463,NA
37130,Rutherford County,TN,23.317683881064163,NA
37137,Hickman County,TN,97.65258215962442,NA
37138,Davidson County,TN,57.58998435054773,NA
37148,Sumner County,TN,46.322378716744915,NA
37167,Rutherford County,TN,31.768388106416275,NA
37218,Davidson County,TN,58.37245696400626,NA
37343,Hamilton County,TN,26.134585289514867,NA
37354,Monroe County,TN,43.3489827856025,NA
37405,Hamilton County,TN,81.2206572769953,NA
37415,Hamilton County,TN,66.19718309859155,NA
37601,Washington County,TN,17.84037558685446,NA
37642,Hawkins County,TN,56.02503912363067,NA
37742,Loudon County,TN,80.43818466353677,NA
37857,Hawkins County,TN,40.532081377151805,NA
37912,Knox County,TN,35.68075117370892,NA
37920,Knox County,TN,11.737089201877934,NA
38111,Shelby County,TN,24.56964006259781,NA
38122,Shelby County,TN,62.1283255086072,NA
38125,Shelby County,TN,61.97183098591549,NA
38128,Shelby County,TN,22.37871674491393,NA
38134,Shelby County,TN,44.13145539906103,NA
38221,Benton County,TN,96.71361502347418,NA
75032,Rockwall County,TX,69.48356807511738,56.03448275862068
75033,,TX,91.23630672926447,NA
75071,Collin County,TX,NA,35.775862068965516
75089,Dallas County,TX,70.5790297339593,NA
75092,Grayson County,TX,53.051643192488264,NA
75093,Collin County,TX,96.55712050078247,NA
75126,Kaufman County,TX,38.497652582159624,NA
75204,Dallas County,TX,NA,75
75223,Dallas County,TX,NA,84.48275862068965
75228,Dallas County,TX,5.94679186228482,NA
75231,Dallas County,TX,50.86071987480438,NA
75551,Cass County,TX,85.75899843505478,NA
75703,Smith County,TX,NA,5.172413793103448
75762,Smith County,TX,81.69014084507043,NA
76010,Tarrant County,TX,NA,64.65517241379311
76058,Johnson County,TX,64.16275430359939,80.17241379310344
76065,Ellis County,TX,NA,42.241379310344826
76134,Tarrant County,TX,31.29890453834116,NA
76180,Tarrant County,TX,NA,41.810344827586206
76240,Cooke County,TX,46.009389671361504,NA
76248,Tarrant County,TX,72.76995305164318,NA
76308,Wichita County,TX,87.79342723004694,NA
76450,Young County,TX,NA,75.43103448275862
76502,Bell County,TX,NA,18.96551724137931
76704,McLennan County,TX,NA,98.70689655172413
77045,Harris County,TX,94.99217527386541,NA
77077,Harris County,TX,50.23474178403756,NA
77083,Harris County,TX,47.88732394366197,NA
77346,Harris County,TX,24.100156494522693,NA
77373,Harris County,TX,34.74178403755869,NA
77388,Harris County,TX,50.70422535211267,NA
77429,Harris County,TX,12.676056338028168,NA
77433,Harris County,TX,13.145539906103288,NA
77515,Brazoria County,TX,55.39906103286385,NA
77546,Galveston County,TX,29.890453834115803,NA
77554,Galveston County,TX,NA,52.58620689655172
77640,Jefferson County,TX,68.23161189358372,72.41379310344827
78154,Guadalupe County,TX,NA,80.60344827586206
78201,Bexar County,TX,27.54303599374022,NA
78215,Bexar County,TX,100,NA
78233,Bexar County,TX,NA,65.08620689655173
78237,Bexar County,TX,36.15023474178404,NA
78242,Bexar County,TX,54.77308294209703,NA
78245,Bexar County,TX,28.012519561815335,NA
78362,San Patricio County,TX,92.95774647887323,NA
78363,Kleberg County,TX,66.19718309859155,NA
78368,San Patricio County,TX,NA,95.25862068965517
78413,Nueces County,TX,78.71674491392801,NA
78415,Nueces County,TX,52.26917057902973,NA
78612,Bastrop County,TX,93.42723004694837,NA
78633,Williamson County,TX,NA,0.8620689655172413
78666,Hays County,TX,69.32707355242567,NA
78676,Hays County,TX,97.1830985915493,NA
78745,Travis County,TX,68.70109546165885,NA
78852,Maverick County,TX,63.53677621283255,NA
79118,Randall County,TX,78.09076682316119,NA
79924,El Paso County,TX,79.96870109546165,NA
84042,Utah County,UT,NA,100
84310,Weber County,UT,99.68701095461658,NA
20110,Manassas city,VA,NA,67.67241379310344
20147,Loudoun County,VA,44.75743348982786,NA
22003,Fairfax County,VA,37.40219092331768,70.6896551724138
22015,Fairfax County,VA,59.4679186228482,NA
22033,Fairfax County,VA,69.01408450704226,NA
22044,Fairfax County,VA,NA,91.8103448275862
22153,Fairfax County,VA,66.66666666666666,NA
22201,Arlington County,VA,68.07511737089203,NA
22701,Culpeper County,VA,67.76212832550861,NA
22824,Shenandoah County,VA,90.45383411580595,NA
22980,Waynesboro city,VA,NA,3.8793103448275863
23231,Henrico County,VA,27.230046948356808,NA
23435,Suffolk city,VA,NA,41.37931034482759
23453,Virginia Beach city,VA,NA,44.396551724137936
23462,Virginia Beach city,VA,20.50078247261346,NA
23607,Newport News city,VA,58.99843505477308,NA
23703,Portsmouth city,VA,NA,72.84482758620689
23860,Hopewell city,VA,38.341158059467915,NA
23930,Nottoway County,VA,93.89671361502347,NA
24018,Roanoke County,VA,53.834115805946794,NA
24112,Henry County,VA,18.153364632237874,NA
24153,Salem city,VA,41.00156494522692,NA
24211,Washington County,VA,84.82003129890454,NA
24333,Galax city,VA,53.677621283255085,NA
24381,Carroll County,VA,NA,96.12068965517241
24522,Appomattox County,VA,86.5414710485133,NA
98006,King County,WA,65.57120500782473,NA
98012,Snohomish County,WA,36.77621283255086,NA
98023,King County,WA,29.7339593114241,NA
98026,Snohomish County,WA,41.31455399061033,NA
98027,King County,WA,71.98748043818466,NA
98042,King County,WA,18.466353677621285,NA
98052,King County,WA,55.55555555555556,NA
98092,King County,WA,NA,22.844827586206897
98155,King County,WA,NA,48.706896551724135
98208,Snohomish County,WA,23.78716744913928,NA
98233,Skagit County,WA,94.67918622848201,NA
98272,Snohomish County,WA,87.32394366197182,NA
98354,Pierce County,WA,93.11424100156495,NA
98367,Kitsap County,WA,NA,54.310344827586206
98665,Clark County,WA,85.75899843505478,NA
98901,Yakima County,WA,62.75430359937402,NA
98902,Yakima County,WA,33.64632237871675,NA
99202,Spokane County,WA,69.95305164319248,NA
20020,District of Columbia,DC,1.7214397496087637,NA
25045,Kanawha County,WV,NA,96.55172413793103
25276,Roane County,WV,84.50704225352112,NA
25387,Kanawha County,WV,NA,81.46551724137932
26034,Hancock County,WV,92.33176838810641,NA
26047,Hancock County,WV,94.05320813771519,NA
26241,Randolph County,WV,38.810641627543035,NA
53098,Dodge County,WI,72.14397496087636,NA
53146,Waukesha County,WI,92.80125195618153,NA
53154,Milwaukee County,WI,25.039123630672925,NA
53589,Dane County,WI,NA,43.103448275862064
53705,Dane County,WI,NA,53.44827586206896
54016,St. Croix County,WI,51.4866979655712,NA
54656,Monroe County,WI,54.147104851330205,NA
54981,Waupaca County,WI,71.20500782472612,NA
