ZipCode,county,state,Adult
35115,Shelby County,AL,89.41798941798942
35211,Jefferson County,AL,21.164021164021165
36117,Montgomery County,AL,38.62433862433862
36567,Baldwin County,AL,74.07407407407408
85635,Cochise County,AZ,31.216931216931215
85648,Santa Cruz County,AZ,60.317460317460316
85710,Pima County,AZ,74.60317460317461
72903,Sebastian County,AR,78.3068783068783
72921,Crawford County,AR,84.12698412698413
90044,Los Angeles County,CA,10.052910052910052
92704,Orange County,CA,37.56613756613756
92867,Orange County,CA,68.78306878306879
93033,Ventura County,CA,17.989417989417987
93536,Los Angeles County,CA,49.735449735449734
94080,San Mateo County,CA,36.507936507936506
94553,Contra Costa County,CA,48.67724867724868
95138,Santa Clara County,CA,90.47619047619048
95358,Stanislaus County,CA,33.33333333333333
95425,Sonoma County,CA,92.5925925925926
95965,Butte County,CA,56.613756613756614
80014,Arapahoe County,CO,34.92063492063492
80227,Jefferson County,CO,65.07936507936508
80601,Adams County,CO,39.682539682539684
80917,El Paso County,CO,70.8994708994709
80920,El Paso County,CO,65.60846560846561
81003,Pueblo County,CO,41.7989417989418
06052,Hartford County,CT,83.5978835978836
06066,Tolland County,CT,24.867724867724867
06255,Windham County,CT,81.48148148148148
06604,Fairfield County,CT,26.984126984126984
32321,Liberty County,FL,95.23809523809523
32765,Seminole County,FL,64.02116402116403
32907,Brevard County,FL,82.01058201058201
33015,Miami-Dade County,FL,59.25925925925925
33155,Miami-Dade County,FL,79.8941798941799
33624,Hillsborough County,FL,60.84656084656085
33755,Pinellas County,FL,50.79365079365079
34224,Charlotte County,FL,91.53439153439153
34474,Marion County,FL,72.4867724867725
34480,Marion County,FL,69.31216931216932
34608,Hernando County,FL,45.5026455026455
30060,Cobb County,GA,44.97354497354497
30145,Bartow County,GA,89.94708994708994
30605,Clarke County,GA,61.37566137566137
31204,Bibb County,GA,35.978835978835974
31701,Dougherty County,GA,52.910052910052904
83686,Canyon County,ID,13.227513227513226
60153,Cook County,IL,46.03174603174603
60416,Grundy County,IL,70.37037037037037
60426,Cook County,IL,62.43386243386243
60617,Cook County,IL,10.582010582010582
60647,Cook County,IL,11.11111111111111
61008,Boone County,IL,40.21164021164021
61802,Champaign County,IL,73.01587301587301
62644,Mason County,IL,98.94179894179894
46229,Marion County,IN,29.629629629629626
46342,Lake County,IN,7.936507936507936
46360,LaPorte County,IN,8.465608465608465
47404,Monroe County,IN,88.88888888888889
47501,Daviess County,IN,43.386243386243386
52742,Clinton County,IA,97.35449735449735
67060,Sedgwick County,KS,93.65079365079364
67219,Sedgwick County,KS,88.35978835978835
67801,Ford County,KS,67.1957671957672
40143,Breckinridge County,KY,92.06349206349206
40229,Jefferson County,KY,18.51851851851852
40403,Madison County,KY,61.904761904761905
42104,Warren County,KY,49.2063492063492
42376,Daviess County,KY,86.77248677248677
42431,Hopkins County,KY,28.57142857142857
70058,Jefferson Parish,LA,34.39153439153439
70390,Assumption Parish,LA,65.60846560846561
70754,Livingston Parish,LA,63.49206349206349
71037,Bossier Parish,LA,25.396825396825395
71055,Webster Parish,LA,23.809523809523807
71104,Caddo Parish,LA,51.32275132275132
71112,Bossier Parish,LA,19.047619047619047
71232,Richland Parish,LA,97.88359788359789
20782,Prince George's County,MD,86.24338624338624
20866,Montgomery County,MD,91.005291005291
21218,Baltimore city,MD,16.402116402116402
01020,Hampden County,MA,6.878306878306878
01201,Berkshire County,MA,0
01440,Worcester County,MA,2.6455026455026456
01854,Middlesex County,MA,3.7037037037037033
01902,Essex County,MA,0.5291005291005291
02136,Suffolk County,MA,4.232804232804233
48178,Oakland County,MI,37.56613756613756
48706,Bay County,MI,32.804232804232804
49202,Jackson County,MI,37.03703703703704
49712,Charlevoix County,MI,87.3015873015873
55130,Ramsey County,MN,55.026455026455025
55371,Mille Lacs County,MN,58.201058201058196
55807,St. Louis County,MN,82.53968253968253
56441,Crow Wing County,MN,98.4126984126984
38654,DeSoto County,MS,29.100529100529098
39451,Greene County,MS,96.29629629629629
63033,St. Louis County,MO,21.693121693121693
63134,St. Louis County,MO,47.61904761904761
64063,Jackson County,MO,44.44444444444444
64068,Clay County,MO,13.756613756613756
64601,Livingston County,MO,55.55555555555556
65203,Boone County,MO,30.158730158730158
68502,Lancaster County,NE,75.13227513227513
89106,Clark County,NV,53.96825396825397
89108,Clark County,NV,28.04232804232804
89406,Churchill County,NV,47.08994708994709
89441,Washoe County,NV,84.65608465608466
89501,Washoe County,NV,96.82539682539682
03301,Merrimack County,NH,22.75132275132275
07055,Passaic County,NJ,2.1164021164021163
07087,Hudson County,NJ,5.82010582010582
08205,Atlantic County,NJ,22.22222222222222
08527,Ocean County,NJ,14.814814814814813
08753,Ocean County,NJ,4.761904761904762
10452,Bronx County,NY,1.0582010582010581
11106,Queens County,NY,58.730158730158735
12020,Saratoga County,NY,26.455026455026452
12901,Clinton County,NY,6.349206349206349
13743,Tioga County,NY,94.17989417989418
13760,Broome County,NY,1.5873015873015872
13820,Otsego County,NY,15.873015873015872
14207,Erie County,NY,11.64021164021164
14215,Erie County,NY,3.1746031746031744
14505,Wayne County,NY,71.42857142857143
14605,Monroe County,NY,14.285714285714285
14610,Monroe County,NY,32.27513227513227
27320,Rockingham County,NC,17.46031746031746
27539,Wake County,NC,67.72486772486772
27573,Person County,NC,51.85185185185185
28001,Stanly County,NC,34.92063492063492
28334,Sampson County,NC,31.746031746031743
28625,Iredell County,NC,23.28042328042328
43103,Pickaway County,OH,79.36507936507937
43605,Lucas County,OH,5.291005291005291
43611,Lucas County,OH,20.105820105820104
43968,Columbiana County,OH,56.08465608465608
44024,Geauga County,OH,53.43915343915344
44139,Cuyahoga County,OH,48.148148148148145
44601,Stark County,OH,9.523809523809524
44883,Seneca County,OH,24.33862433862434
45014,Butler County,OH,20.634920634920633
45211,Hamilton County,OH,15.343915343915343
45230,Hamilton County,OH,59.78835978835979
45231,Hamilton County,OH,12.16931216931217
45246,Hamilton County,OH,80.42328042328042
45344,Clark County,OH,64.55026455026454
45805,Allen County,OH,19.576719576719576
74337,Mayes County,OK,95.76719576719577
97306,Marion County,OR,62.96296296296296
97424,Lane County,OR,50.264550264550266
97479,Douglas County,OR,76.19047619047619
17302,York County,PA,100
17406,York County,PA,42.32804232804233
18102,Lehigh County,PA,12.698412698412698
18431,Wayne County,PA,71.95767195767195
19128,Philadelphia County,PA,25.925925925925924
19440,Montgomery County,PA,69.84126984126983
19606,Berks County,PA,16.93121693121693
29118,Orangeburg County,SC,80.95238095238095
29445,Berkeley County,SC,30.687830687830687
29910,Beaufort County,SC,75.66137566137566
37073,Robertson County,TN,87.83068783068782
37098,Hickman County,TN,83.06878306878306
75604,Gregg County,TX,76.71957671957672
75701,Smith County,TX,42.32804232804233
76115,Tarrant County,TX,57.14285714285714
78617,Travis County,TX,78.83597883597884
79107,Potter County,TX,40.74074074074074
79549,Scurry County,TX,46.56084656084656
79707,Midland County,TX,38.62433862433862
84015,Davis County,UT,27.513227513227513
84081,Salt Lake County,UT,33.86243386243386
20121,Fairfax County,VA,93.12169312169311
22546,Caroline County,VA,77.24867724867724
23505,Norfolk city,VA,43.91534391534391
24141,Radford city,VA,77.77777777777779
98026,Snohomish County,WA,41.269841269841265
98155,King County,WA,52.38095238095239
98274,Skagit County,WA,73.54497354497354
98372,Pierce County,WA,68.25396825396825
98682,Clark County,WA,66.66666666666666
98684,Clark County,WA,85.71428571428571
98844,Okanogan County,WA,99.47089947089947
20002,District of Columbia,DC,7.4074074074074066
25425,Jefferson County,WV,85.18518518518519
25550,Mason County,WV,57.67195767195767
26105,Wood County,WV,54.4973544973545
26704,Hampshire County,WV,94.70899470899471
53402,Racine County,WI,8.994708994708994
