ZipCode,county,state,Adult
36081,Pike County,AL,85.03649635036497
85020,Maricopa County,AZ,48.175182481751825
85203,Maricopa County,AZ,46.715328467153284
85335,Maricopa County,AZ,44.16058394160584
85374,Maricopa County,AZ,54.01459854014598
85387,Maricopa County,AZ,84.30656934306569
85716,Pima County,AZ,24.45255474452555
86053,Coconino County,AZ,91.24087591240875
72022,Saline County,AR,88.6861313868613
72936,Sebastian County,AR,80.65693430656934
90063,Los Angeles County,CA,57.299270072992705
90604,Los Angeles County,CA,62.40875912408759
90807,Los Angeles County,CA,57.66423357664233
91744,Los Angeles County,CA,25.91240875912409
91942,San Diego County,CA,70.8029197080292
92069,San Diego County,CA,73.72262773722628
92075,San Diego County,CA,90.51094890510949
92308,San Bernardino County,CA,55.839416058394164
92404,San Bernardino County,CA,22.99270072992701
92886,Orange County,CA,41.24087591240876
93036,Ventura County,CA,40.87591240875913
93654,Fresno County,CA,59.48905109489051
93704,Fresno County,CA,57.66423357664233
93723,Fresno County,CA,91.6058394160584
94605,Alameda County,CA,33.57664233576642
95123,Santa Clara County,CA,47.81021897810219
95130,Santa Clara County,CA,93.7956204379562
95351,Stanislaus County,CA,29.56204379562044
95363,Stanislaus County,CA,68.61313868613139
95453,Lake County,CA,76.64233576642336
95965,Butte County,CA,26.277372262773724
80005,Jefferson County,CO,64.59854014598541
80204,Denver County,CO,30.29197080291971
80221,Adams County,CO,42.700729927007295
80239,Denver County,CO,33.21167883211679
81401,Montrose County,CO,55.1094890510949
06415,New London County,CT,60.58394160583942
06451,New Haven County,CT,34.67153284671533
19966,Sussex County,DE,32.11678832116788
32789,Orange County,FL,77.37226277372264
32806,Orange County,FL,74.81751824817519
32926,Brevard County,FL,77.37226277372264
33830,Polk County,FL,73.35766423357664
33980,Charlotte County,FL,93.43065693430657
34205,Manatee County,FL,72.26277372262774
34232,Sarasota County,FL,53.64963503649635
34684,Pinellas County,FL,74.81751824817519
34952,St. Lucie County,FL,35.03649635036496
30120,Bartow County,GA,28.102189781021895
30217,Heard County,GA,72.99270072992701
30281,Henry County,GA,36.86131386861314
30401,Emanuel County,GA,76.27737226277372
30642,Greene County,GA,83.57664233576642
31032,Jones County,GA,87.59124087591242
31210,Bibb County,GA,68.24817518248175
31217,Bibb County,GA,69.34306569343066
83605,Canyon County,ID,38.32116788321168
83651,Canyon County,ID,24.817518248175183
60126,DuPage County,IL,15.328467153284672
60156,McHenry County,IL,45.62043795620438
60175,Kane County,IL,38.68613138686132
60181,DuPage County,IL,40.51094890510949
60543,Kendall County,IL,46.35036496350365
60601,Cook County,IL,90.14598540145985
61032,Stephenson County,IL,44.52554744525548
62896,Franklin County,IL,79.56204379562044
46113,Marion County,IN,72.62773722627736
46143,Johnson County,IN,31.751824817518248
46321,Lake County,IN,44.89051094890511
46350,LaPorte County,IN,14.233576642335766
46368,Porter County,IN,3.2846715328467155
46986,Grant County,IN,100
47331,Fayette County,IN,20.437956204379564
50314,Polk County,IA,52.55474452554745
66210,Johnson County,KS,81.38686131386861
66216,Johnson County,KS,78.1021897810219
67460,McPherson County,KS,83.21167883211679
40065,Shelby County,KY,50.36496350364964
40218,Jefferson County,KY,18.97810218978102
40517,Fayette County,KY,29.56204379562044
41015,Kenton County,KY,37.22627737226277
41030,Grant County,KY,79.92700729927007
42211,Trigg County,KY,70.07299270072993
42749,Hart County,KY,82.84671532846716
70056,Jefferson Parish,LA,7.2992700729927
70363,Terrebonne Parish,LA,28.467153284671532
70401,Tangipahoa Parish,LA,63.868613138686136
70403,Tangipahoa Parish,LA,9.48905109489051
70526,Acadia Parish,LA,33.941605839416056
70582,St. Martin Parish,LA,40.14598540145985
70663,Calcasieu Parish,LA,13.138686131386862
70805,East Baton Rouge Parish,LA,4.014598540145985
20602,Charles County,MD,80.2919708029197
21771,Frederick County,MD,71.16788321167883
01201,Berkshire County,MA,0
01950,Essex County,MA,27.73722627737226
02139,Middlesex County,MA,2.5547445255474455
02649,Barnstable County,MA,47.08029197080292
02721,Bristol County,MA,0.7299270072992701
02745,Bristol County,MA,1.824817518248175
48044,Macomb County,MI,12.773722627737227
48060,St. Clair County,MI,4.744525547445255
48174,Wayne County,MI,10.583941605839415
48223,Wayne County,MI,17.88321167883212
48224,Wayne County,MI,2.18978102189781
48505,Genesee County,MI,25.547445255474454
48801,Gratiot County,MI,54.74452554744526
48827,Eaton County,MI,51.09489051094891
48838,Montcalm County,MI,41.97080291970803
48866,Clinton County,MI,93.06569343065694
49202,Jackson County,MI,43.06569343065693
49417,Ottawa County,MI,24.087591240875913
49707,Alpena County,MI,41.605839416058394
55387,Carver County,MN,97.08029197080292
55407,Hennepin County,MN,9.124087591240876
55436,Hennepin County,MN,95.98540145985402
56072,Waseca County,MN,99.27007299270073
56649,Koochiching County,MN,85.76642335766424
39090,Attala County,MS,74.08759124087592
39759,Oktibbeha County,MS,71.8978102189781
63121,St. Louis County,MO,39.416058394160586
63146,St. Louis County,MO,56.934306569343065
63401,Marion County,MO,54.379562043795616
64076,Lafayette County,MO,95.25547445255475
64089,Clay County,MO,58.75912408759124
64683,Grundy County,MO,64.23357664233576
89115,Clark County,NV,28.832116788321166
89117,Clark County,NV,43.79562043795621
89506,Washoe County,NV,26.642335766423358
03101,Hillsborough County,NH,96.35036496350365
07016,Union County,NJ,89.78102189781022
07513,Passaic County,NJ,66.05839416058394
07646,Bergen County,NJ,70.43795620437956
07712,Monmouth County,NJ,4.37956204379562
08611,Mercer County,NJ,63.503649635036496
08701,Ocean County,NJ,3.64963503649635
08742,Ocean County,NJ,39.416058394160586
88240,Lea County,NM,8.75912408759124
10601,Westchester County,NY,88.32116788321169
11566,Nassau County,NY,90.87591240875912
11789,Suffolk County,NY,98.90510948905109
12118,Saratoga County,NY,66.42335766423358
12839,Washington County,NY,37.591240875912405
13148,Seneca County,NY,32.846715328467155
13340,Herkimer County,NY,62.04379562043796
13460,Chenango County,NY,56.20437956204379
13620,Lewis County,NY,98.17518248175182
13815,Chenango County,NY,19.708029197080293
14062,Chautauqua County,NY,97.44525547445255
14063,Chautauqua County,NY,50
14207,Erie County,NY,12.043795620437956
14224,Erie County,NY,35.4014598540146
14424,Ontario County,NY,2.9197080291970803
14425,Ontario County,NY,22.99270072992701
14464,Monroe County,NY,58.3941605839416
14502,Wayne County,NY,37.95620437956204
14559,Monroe County,NY,16.423357664233578
14622,Monroe County,NY,31.386861313868614
14737,Cattaraugus County,NY,87.95620437956204
27217,Alamance County,NC,18.248175182481752
27537,Vance County,NC,45.25547445255474
27606,Wake County,NC,53.284671532846716
28001,Stanly County,NC,42.33576642335766
28016,Gaston County,NC,52.18978102189781
28216,Mecklenburg County,NC,14.5985401459854
28345,Richmond County,NC,65.32846715328468
28539,Onslow County,NC,78.46715328467153
28713,Swain County,NC,77.00729927007299
28791,Henderson County,NC,82.11678832116789
43017,Franklin County,OH,67.51824817518248
43224,Franklin County,OH,8.394160583941606
43228,Franklin County,OH,5.839416058394161
43302,Marion County,OH,1.4598540145985401
43512,Defiance County,OH,29.1970802919708
43606,Lucas County,OH,21.897810218978105
43609,Lucas County,OH,7.664233576642336
43952,Jefferson County,OH,11.313868613138686
44035,Lorain County,OH,0.36496350364963503
44053,Lorain County,OH,11.678832116788321
44107,Cuyahoga County,OH,1.094890510948905
44112,Cuyahoga County,OH,12.408759124087592
44120,Cuyahoga County,OH,5.109489051094891
44129,Cuyahoga County,OH,20.072992700729927
44256,Medina County,OH,6.569343065693431
44305,Summit County,OH,19.34306569343066
44485,Trumbull County,OH,22.26277372262774
44512,Mahoning County,OH,15.328467153284672
44515,Mahoning County,OH,14.963503649635038
44685,Summit County,OH,51.82481751824818
44705,Stark County,OH,34.306569343065696
45030,Hamilton County,OH,61.67883211678832
45069,Butler County,OH,30.656934306569344
45107,Clinton County,OH,86.4963503649635
45122,Clermont County,OH,78.83211678832117
45140,Clermont County,OH,31.02189781021898
45232,Hamilton County,OH,81.02189781021897
45417,Montgomery County,OH,13.503649635036496
45419,Montgomery County,OH,86.86131386861314
45431,Montgomery County,OH,52.919708029197075
45690,Pike County,OH,22.26277372262774
45780,Athens County,OH,94.52554744525547
45801,Allen County,OH,48.54014598540146
45813,Paulding County,OH,89.05109489051095
45885,Auglaize County,OH,50.72992700729927
73132,Oklahoma County,OK,60.94890510948905
74073,Tulsa County,OK,95.62043795620438
97058,Wasco County,OR,49.27007299270073
97471,Douglas County,OR,23.722627737226276
97603,Klamath County,OR,27.00729927007299
15012,Westmoreland County,PA,67.15328467153284
15143,Allegheny County,PA,79.1970802919708
15690,Westmoreland County,PA,81.75182481751825
15963,Somerset County,PA,71.53284671532847
17331,York County,PA,9.854014598540147
18621,Luzerne County,PA,94.16058394160584
18704,Luzerne County,PA,21.532846715328464
19007,Bucks County,PA,35.76642335766424
19013,Delaware County,PA,6.204379562043796
19029,Delaware County,PA,94.8905109489051
19082,Delaware County,PA,47.44525547445255
19151,Philadelphia County,PA,18.613138686131386
19153,Philadelphia County,PA,89.41605839416059
19154,Philadelphia County,PA,21.16788321167883
19401,Montgomery County,PA,13.86861313868613
19464,Montgomery County,PA,8.02919708029197
19601,Berks County,PA,5.474452554744526
19602,Berks County,PA,16.78832116788321
02896,Providence County,RI,87.22627737226277
29461,Berkeley County,SC,43.43065693430657
29646,Greenwood County,SC,51.45985401459854
37013,Davidson County,TN,16.05839416058394
37027,Williamson County,TN,48.9051094890511
37743,Greene County,TN,17.51824817518248
38122,Shelby County,TN,59.854014598540154
38128,Shelby County,TN,27.37226277372263
38401,Maury County,TN,10.218978102189782
38571,Cumberland County,TN,60.94890510948905
75169,Van Zandt County,TX,75.54744525547446
76011,Tarrant County,TX,60.21897810218978
76247,Denton County,TX,84.67153284671532
77084,Harris County,TX,49.63503649635037
77318,Montgomery County,TX,82.48175182481752
77429,Harris County,TX,17.153284671532848
77546,Galveston County,TX,36.496350364963504
77571,Harris County,TX,39.05109489051095
77657,Hardin County,TX,62.77372262773723
78046,Webb County,TX,20.802919708029197
78224,Bexar County,TX,65.69343065693431
78538,Hidalgo County,TX,92.33576642335767
78602,Bastrop County,TX,69.7080291970803
78753,Travis County,TX,66.78832116788321
79765,Ector County,TX,74.45255474452554
84074,Tooele County,UT,6.934306569343065
20148,Loudoun County,VA,63.138686131386855
20152,Loudoun County,VA,98.54014598540147
22407,Spotsylvania County,VA,25.18248175182482
22556,Stafford County,VA,75.91240875912408
22645,Frederick County,VA,97.8102189781022
24251,Scott County,VA,86.13138686131386
98023,King County,WA,36.13138686131387
98052,King County,WA,55.47445255474452
98611,Cowlitz County,WA,85.40145985401459
98801,Chelan County,WA,32.481751824817515
98802,Douglas County,WA,56.56934306569343
99338,Benton County,WA,67.88321167883211
25045,Kanawha County,WV,96.71532846715328
53224,Milwaukee County,WI,45.98540145985402
53581,Richland County,WI,91.970802919708035
54157,Marinette County,WI,83.94160583941606
54173,Brown County,WI,99.63503649635037
54241,Manitowoc County,WI,68.97810218978103
54601,La Crosse County,WI,10.948905109489052
54603,La Crosse County,WI,59.12408759124088
82520,Fremont County,WY,92.7007299270073
82633,Converse County,WY,64.96350364963503
