ZipCode,county,state,Adult,Retirement
35010,Tallapoosa County,AL,85.0828729281768,NA
35055,Cullman County,AL,47.47434885556432,NA
35062,Jefferson County,AL,79.55801104972376,NA
35064,Jefferson County,AL,NA,78.69127516778524
35091,Jefferson County,AL,99.09234411996843,NA
35126,Jefferson County,AL,44.47513812154696,NA
35160,Talladega County,AL,NA,49.328859060402685
35179,Cullman County,AL,94.1594317284925,NA
35210,Jefferson County,AL,NA,69.46308724832215
35211,Jefferson County,AL,9.905288082083661,24.496644295302016
35215,Jefferson County,AL,45.69850039463299,NA
35235,Jefferson County,AL,47.51381215469613,NA
35243,Jefferson County,AL,76.63772691397,NA
35466,Pickens County,AL,83.42541436464089,NA
35480,Tuscaloosa County,AL,99.9605367008682,NA
35614,Limestone County,AL,68.31097079715865,NA
35633,Lauderdale County,AL,47.51381215469613,NA
35634,Lauderdale County,AL,81.61010260457773,NA
35645,Lauderdale County,AL,65.50907655880032,NA
35672,Lawrence County,AL,71.19179163378058,NA
35810,Madison County,AL,22.80978689818469,NA
35905,Etowah County,AL,84.5698500394633,NA
35976,Marshall County,AL,70.32359905288082,NA
36022,Elmore County,AL,65.82478295185477,NA
36043,Montgomery County,AL,98.34254143646409,NA
36067,Autauga County,AL,27.624309392265197,NA
36116,Montgomery County,AL,45.65903709550118,NA
36301,Houston County,AL,12.628255722178375,NA
36303,Houston County,AL,16.219415943172848,44.79865771812081
36305,Houston County,AL,50.789265982636145,NA
36360,Dale County,AL,38.23993685872139,NA
36467,Covington County,AL,67.008681925809,NA
36502,Escambia County,AL,35.83267561168114,NA
36526,Baldwin County,AL,43.05445935280189,NA
36545,Clarke County,AL,86.1483820047356,NA
36571,Mobile County,AL,63.141278610891874,NA
36609,Mobile County,AL,52.20994475138122,NA
36701,Dallas County,AL,NA,31.711409395973156
36703,Dallas County,AL,54.775059194948696,NA
36863,Chambers County,AL,NA,68.79194630872483
36867,Russell County,AL,62.74664561957379,NA
99502,Anchorage Municipality,AK,NA,79.36241610738254
99504,Anchorage Municipality,AK,NA,46.14093959731543
99611,Kenai Peninsula Borough,AK,NA,52.18120805369127
99669,Kenai Peninsula Borough,AK,66.29834254143645,NA
99709,Fairbanks North Star Borough,AK,57.4585635359116,NA
99801,Juneau City and Borough,AK,84.21468034727704,NA
85014,Maricopa County,AZ,36.46408839779006,NA
85015,Maricopa County,AZ,NA,55.536912751677846
85017,Maricopa County,AZ,24.230465666929753,NA
85020,Maricopa County,AZ,NA,37.080536912751676
85028,Maricopa County,AZ,NA,65.1006711409396
85032,Maricopa County,AZ,NA,26.845637583892618
85041,Maricopa County,AZ,45.501183898973956,NA
85048,Maricopa County,AZ,41.79163378058406,NA
85086,Maricopa County,AZ,31.728492501973165,NA
85122,Pinal County,AZ,5.05130228887135,NA
85128,Pinal County,AZ,31.610102604577744,NA
85142,Maricopa County,AZ,6.037884767166536,NA
85201,Maricopa County,AZ,NA,35.90604026845637
85204,Maricopa County,AZ,56.51144435674822,NA
85224,Maricopa County,AZ,37.056037884767164,NA
85225,Maricopa County,AZ,7.419100236779795,NA
85234,Maricopa County,AZ,NA,60.06711409395973
85248,Maricopa County,AZ,78.13733228097868,NA
85253,Maricopa County,AZ,94.47513812154696,NA
85257,Maricopa County,AZ,61.04972375690608,NA
85258,Maricopa County,AZ,61.60220994475139,84.22818791946308
85266,Maricopa County,AZ,NA,92.11409395973155
85282,Maricopa County,AZ,33.14917127071823,48.8255033557047
85286,Maricopa County,AZ,60.49723756906077,NA
85296,Maricopa County,AZ,25.33543804262036,NA
85304,Maricopa County,AZ,43.96211523283347,NA
85308,Maricopa County,AZ,NA,18.120805369127517
85323,Maricopa County,AZ,NA,57.5503355704698
85326,Maricopa County,AZ,21.2707182320442,NA
85331,Maricopa County,AZ,47.355958958168905,NA
85335,Maricopa County,AZ,26.243093922651934,NA
85355,Maricopa County,AZ,79.00552486187846,NA
85365,Yuma County,AZ,20.63930544593528,NA
85381,Maricopa County,AZ,NA,77.85234899328859
85382,Maricopa County,AZ,71.11286503551698,NA
85383,Maricopa County,AZ,19.455406471981057,NA
85541,Gila County,AZ,41.08129439621152,NA
85602,Cochise County,AZ,79.16337805840568,NA
85614,Pima County,AZ,NA,22.651006711409398
85635,Cochise County,AZ,NA,54.0268456375839
85648,Santa Cruz County,AZ,43.92265193370166,NA
85705,Pima County,AZ,2.0520915548539858,NA
85710,Pima County,AZ,NA,17.449664429530202
85730,Pima County,AZ,18.587213891081294,NA
85737,Pima County,AZ,57.4191002367798,NA
85739,Pinal County,AZ,NA,29.36241610738255
85741,Pima County,AZ,24.467245461720598,NA
85742,Pima County,AZ,42.34411996842936,NA
85743,Pima County,AZ,33.5043409629045,NA
85749,Pima County,AZ,NA,43.288590604026844
85757,Pima County,AZ,18.784530386740332,NA
86301,Yavapai County,AZ,92.30465666929756,NA
86305,Yavapai County,AZ,NA,38.08724832214765
86326,Yavapai County,AZ,16.53512233622731,NA
86327,Yavapai County,AZ,90.92344119968429,NA
86406,Mohave County,AZ,83.97790055248619,NA
86409,Mohave County,AZ,5.209155485398579,NA
71635,Ashley County,AR,77.07182320441989,NA
71665,Cleveland County,AR,94.86977111286504,NA
71801,Hempstead County,AR,97.79005524861878,NA
71854,Miller County,AR,29.63693764798737,NA
72118,Pulaski County,AR,95.97474348855565,NA
72135,Pulaski County,AR,NA,99.49664429530202
72150,Grant County,AR,76.24309392265194,NA
72204,Pulaski County,AR,42.97553275453828,NA
72206,Pulaski County,AR,45.34333070244673,NA
72209,Pulaski County,AR,44.79084451460142,NA
72364,Crittenden County,AR,83.74112075769534,NA
72404,Craighead County,AR,84.84609313338595,NA
72432,Poinsett County,AR,NA,94.29530201342283
72450,Greene County,AR,13.259668508287293,NA
72616,Carroll County,AR,81.68902920284135,NA
72701,Washington County,AR,NA,72.81879194630872
72715,Benton County,AR,88.71349644830308,NA
72756,Benton County,AR,79.55801104972376,38.92617449664429
72758,Benton County,AR,52.249408050513026,NA
72903,Sebastian County,AR,88.39779005524862,NA
72933,Franklin County,AR,97.59273875295975,NA
90002,Los Angeles County,CA,53.354380426203626,NA
90018,Los Angeles County,CA,29.479084451460142,NA
90019,Los Angeles County,CA,32.04419889502763,64.76510067114094
90024,Los Angeles County,CA,73.83583267561168,NA
90028,Los Angeles County,CA,57.813733228097874,NA
90029,Los Angeles County,CA,55.327545382794,NA
90032,Los Angeles County,CA,40.331491712707184,NA
90036,Los Angeles County,CA,60.063141278610885,NA
90042,Los Angeles County,CA,45.06708760852407,NA
90043,Los Angeles County,CA,37.056037884767164,NA
90044,Los Angeles County,CA,4.183109707971586,NA
90046,Los Angeles County,CA,73.67797947908446,86.24161073825503
90048,Los Angeles County,CA,97.04025256511444,NA
90057,Los Angeles County,CA,64.16732438831886,NA
90059,Los Angeles County,CA,26.44041041831097,NA
90064,Los Angeles County,CA,19.652722967640095,NA
90065,Los Angeles County,CA,77.07182320441989,NA
90069,Los Angeles County,CA,46.60615627466456,NA
90201,Los Angeles County,CA,22.730860299921073,NA
90211,Los Angeles County,CA,98.06629834254143,NA
90212,Los Angeles County,CA,96.01420678768746,NA
90220,Los Angeles County,CA,24.546172059984215,NA
90242,Los Angeles County,CA,67.83741120757696,NA
90262,Los Angeles County,CA,26.28255722178374,NA
90266,Los Angeles County,CA,81.01815311760063,NA
90277,Los Angeles County,CA,75.4932912391476,NA
90293,Los Angeles County,CA,89.22651933701657,86.40939597315436
90302,Los Angeles County,CA,88.47671665351223,NA
90503,Los Angeles County,CA,41.515390686661405,NA
90505,Los Angeles County,CA,50.59194948697711,NA
90602,Los Angeles County,CA,56.9455406471981,NA
90604,Los Angeles County,CA,NA,61.241610738255034
90605,Los Angeles County,CA,49.09234411996843,NA
90631,Orange County,CA,26.795580110497237,NA
90706,Los Angeles County,CA,93.0544593528019,NA
90710,Los Angeles County,CA,NA,65.77181208053692
90717,Los Angeles County,CA,79.87371744277822,NA
90731,Los Angeles County,CA,22.92817679558011,27.181208053691275
90740,Orange County,CA,62.35201262825573,NA
90745,Los Angeles County,CA,30.702446724546174,NA
90803,Los Angeles County,CA,70.2446724546172,NA
90804,Los Angeles County,CA,36.148382004735595,NA
90805,Los Angeles County,CA,11.404893449092345,NA
90814,Los Angeles County,CA,99.4475138121547,NA
91006,Los Angeles County,CA,81.09707971586425,NA
91030,Los Angeles County,CA,83.5438042620363,NA
91101,Los Angeles County,CA,86.66140489344909,NA
91104,Los Angeles County,CA,35.43804262036306,NA
91107,Los Angeles County,CA,71.42857142857143,NA
91207,Los Angeles County,CA,99.64483030781373,NA
91208,Los Angeles County,CA,91.39700078926597,NA
91304,Los Angeles County,CA,40.607734806629836,NA
91307,Los Angeles County,CA,97.86898184688239,NA
91311,Los Angeles County,CA,47.750591949486974,NA
91331,Los Angeles County,CA,52.95974743488555,NA
91335,Los Angeles County,CA,57.02446724546172,NA
91355,Los Angeles County,CA,86.89818468823994,NA
91356,Los Angeles County,CA,95.58011049723757,NA
91367,Los Angeles County,CA,48.3820047355959,53.02013422818792
91384,Los Angeles County,CA,70.12628255722178,NA
91401,Los Angeles County,CA,83.18863456985004,NA
91501,Los Angeles County,CA,NA,83.89261744966443
91601,Los Angeles County,CA,59.94475138121547,NA
91607,Los Angeles County,CA,92.46250986582479,NA
91701,San Bernardino County,CA,17.640094711917918,NA
91709,San Bernardino County,CA,NA,27.684563758389263
91710,San Bernardino County,CA,28.768745067087607,NA
91739,San Bernardino County,CA,56.11681136543015,NA
91741,Los Angeles County,CA,74.23046566692976,NA
91746,Los Angeles County,CA,69.92896606156275,NA
91754,Los Angeles County,CA,94.63299131807419,NA
91765,Los Angeles County,CA,59.51065509076558,NA
91767,Los Angeles County,CA,31.689029202841358,56.208053691275175
91784,San Bernardino County,CA,65.90370955011839,80.03355704697987
91786,San Bernardino County,CA,NA,36.577181208053695
91790,Los Angeles County,CA,44.711917916337804,NA
91910,San Diego County,CA,50.789265982636145,NA
91913,San Diego County,CA,93.76479873717443,NA
92009,San Diego County,CA,59.194948697711126,NA
92020,San Diego County,CA,15.114443567482242,NA
92024,San Diego County,CA,32.162588792423044,NA
92025,San Diego County,CA,39.423835832675614,NA
92027,San Diego County,CA,38.20047355958958,NA
92029,San Diego County,CA,78.80820836621942,NA
92037,San Diego County,CA,NA,55.536912751677846
92056,San Diego County,CA,46.36937647987372,NA
92064,San Diego County,CA,41.67324388318863,NA
92069,San Diego County,CA,62.11523283346487,NA
92078,San Diego County,CA,45.461720599842145,NA
92081,San Diego County,CA,64.71981057616418,NA
92083,San Diego County,CA,55.406471981057614,NA
92084,San Diego County,CA,50.5130228887135,NA
92102,San Diego County,CA,78.1767955801105,NA
92109,San Diego County,CA,86.22730860299922,NA
92111,San Diego County,CA,46.2904498816101,NA
92122,San Diego County,CA,66.10102604577742,NA
92124,San Diego County,CA,85.43804262036306,NA
92127,San Diego County,CA,60.53670086819258,NA
92129,San Diego County,CA,78.25572217837411,NA
92131,San Diego County,CA,64.71981057616418,NA
92154,San Diego County,CA,62.865035516969215,NA
92234,Riverside County,CA,NA,3.0201342281879198
92240,Riverside County,CA,15.074980268350435,NA
92243,Imperial County,CA,50.67087608524072,NA
92253,Riverside County,CA,36.81925808997632,NA
92277,San Bernardino County,CA,NA,64.59731543624162
92284,San Bernardino County,CA,52.05209155485399,NA
92301,San Bernardino County,CA,25.453827940015785,NA
92308,San Bernardino County,CA,NA,27.85234899328859
92311,San Bernardino County,CA,NA,93.79194630872483
92324,San Bernardino County,CA,13.654301499605367,NA
92335,San Bernardino County,CA,5.95895816890292,NA
92336,San Bernardino County,CA,61.83898973954223,NA
92342,San Bernardino County,CA,98.46093133385952,NA
92346,San Bernardino County,CA,52.88082083662194,49.49664429530201
92359,San Bernardino County,CA,98.10576164167324,NA
92373,San Bernardino County,CA,62.39147592738753,NA
92374,San Bernardino County,CA,81.17600631412786,NA
92397,San Bernardino County,CA,98.73717442778216,NA
92399,San Bernardino County,CA,NA,61.07382550335571
92410,San Bernardino County,CA,24.90134175217048,NA
92501,Riverside County,CA,72.45461720599842,NA
92545,Riverside County,CA,33.859510655090766,NA
92591,Riverside County,CA,71.38910812943962,NA
92595,Riverside County,CA,31.96527229676401,NA
92602,Orange County,CA,90.05524861878453,91.44295302013423
92603,Orange County,CA,93.96211523283347,NA
92614,Orange County,CA,53.70955011838989,NA
92618,Orange County,CA,56.27466456195738,NA
92620,Orange County,CA,34.92501973164956,NA
92626,Orange County,CA,34.21468034727703,NA
92629,Orange County,CA,NA,45.13422818791946
92646,Orange County,CA,69.06077348066299,NA
92647,Orange County,CA,46.96132596685083,NA
92648,Orange County,CA,54.49881610102605,NA
92649,Orange County,CA,76.83504340962905,NA
92653,Orange County,CA,89.10812943962115,NA
92656,Orange County,CA,59.74743488555643,NA
92683,Orange County,CA,10.773480662983426,NA
92688,Orange County,CA,28.650355169692187,NA
92705,Orange County,CA,65.982636148382,NA
92707,Orange County,CA,34.096290449881614,NA
92708,Orange County,CA,85.24072612470403,NA
92782,Orange County,CA,91.4759273875296,NA
92801,Orange County,CA,59.5895816890292,NA
92802,Orange County,CA,46.68508287292818,NA
92805,Orange County,CA,51.85477505919495,NA
92806,Orange County,CA,48.81610102604578,NA
92807,Orange County,CA,49.52644041041831,NA
92821,Orange County,CA,55.84056827150749,NA
92835,Orange County,CA,75.29597474348856,NA
92840,Orange County,CA,42.77821625887924,NA
92860,Riverside County,CA,NA,68.28859060402685
92867,Orange County,CA,52.36779794790844,NA
92868,Orange County,CA,82.63614838200473,NA
92879,Riverside County,CA,85.51696921862668,NA
92883,Riverside County,CA,59.5895816890292,NA
92886,Orange County,CA,72.65193370165746,19.12751677852349
92887,Orange County,CA,67.24546172059985,NA
93036,Ventura County,CA,56.827150749802676,NA
93065,Ventura County,CA,57.65588003157064,NA
93245,Kings County,CA,NA,72.6510067114094
93277,Tulare County,CA,17.482241515390687,NA
93306,Kern County,CA,44.86977111286504,NA
93307,Kern County,CA,55.722178374112076,NA
93308,Kern County,CA,20.2052091554854,NA
93311,Kern County,CA,55.09076558800315,NA
93402,San Luis Obispo County,CA,85.55643251775848,NA
93436,Santa Barbara County,CA,NA,16.610738255033556
93446,San Luis Obispo County,CA,NA,78.35570469798657
93455,Santa Barbara County,CA,23.83583267561168,NA
93552,Los Angeles County,CA,50.07892659826362,NA
93560,Kern County,CA,71.27071823204419,NA
93612,Fresno County,CA,35.674822415153905,NA
93618,Tulare County,CA,45.97474348855564,NA
93630,Fresno County,CA,76.55880031570639,NA
93638,Madera County,CA,12.312549329123915,NA
93702,Fresno County,CA,71.50749802683505,NA
93704,Fresno County,CA,73.63851617995265,NA
93722,Fresno County,CA,5.524861878453039,NA
93725,Fresno County,CA,94.98816101026046,NA
93727,Fresno County,CA,8.83977900552486,NA
93728,Fresno County,CA,70.83662194159432,NA
93901,Monterey County,CA,45.42225730071034,NA
93933,Monterey County,CA,58.36621941594318,NA
93940,Monterey County,CA,NA,66.10738255033557
94030,San Mateo County,CA,66.85082872928176,NA
94061,San Mateo County,CA,44.35674822415154,NA
94070,San Mateo County,CA,74.94080505130228,NA
94085,Santa Clara County,CA,82.359905288082075,NA
94105,San Francisco County,CA,94.1594317284925,NA
94109,San Francisco County,CA,95.10655090765589,47.98657718120805
94112,San Francisco County,CA,16.890292028413576,NA
94114,San Francisco County,CA,38.950276243093924,NA
94116,San Francisco County,CA,48.81610102604578,39.42953020134228
94127,San Francisco County,CA,94.23835832675613,NA
94404,San Mateo County,CA,87.64798737174428,NA
94501,Alameda County,CA,78.45303867403315,NA
94541,Alameda County,CA,77.78216258879243,NA
94544,Alameda County,CA,72.05998421468036,NA
94545,Alameda County,CA,90.13417521704814,NA
94546,Alameda County,CA,98.9344909234412,NA
94549,Contra Costa County,CA,92.50197316495658,62.41610738255034
94551,Alameda County,CA,40.331491712707184,57.88590604026845
94553,Contra Costa County,CA,33.82004735595896,NA
94555,Alameda County,CA,60.6156274664562,NA
94559,Napa County,CA,55.95895816890292,NA
94578,Alameda County,CA,41.94948697711129,NA
94588,Alameda County,CA,NA,75.16778523489933
94590,Solano County,CA,54.65666929755327,NA
94591,Solano County,CA,83.30702446724545,NA
94596,Contra Costa County,CA,96.7640094711918,NA
94601,Alameda County,CA,36.06945540647198,40.77181208053691
94603,Alameda County,CA,NA,59.56375838926174
94607,Alameda County,CA,65.66692975532754,NA
94611,Alameda County,CA,90.80505130228887,NA
94618,Alameda County,CA,81.29439621152328,NA
94619,Alameda County,CA,91.5153906866614,NA
94702,Alameda County,CA,81.68902920284135,NA
94703,Alameda County,CA,92.93606945540647,NA
94803,Contra Costa County,CA,84.92501973164957,NA
94806,Contra Costa County,CA,26.16416732438832,NA
94903,Marin County,CA,89.50276243093923,NA
94925,Marin County,CA,NA,92.4496644295302
94952,Sonoma County,CA,70.71823204419888,41.442953020134226
94954,Sonoma County,CA,40.88397790055249,NA
94965,Marin County,CA,92.0284135753749,NA
95008,Santa Clara County,CA,94.35674822415154,NA
95014,Santa Clara County,CA,94.59352801894238,NA
95020,Santa Clara County,CA,24.74348855564325,NA
95037,Santa Clara County,CA,48.57932123125494,NA
95050,Santa Clara County,CA,62.82557221783741,62.751677852349
95066,Santa Cruz County,CA,89.344909234412,NA
95070,Santa Clara County,CA,75.92738752959748,NA
95076,Santa Cruz County,CA,NA,18.959731543624162
95116,Santa Clara County,CA,67.95580110497238,NA
95118,Santa Clara County,CA,55.76164167324388,NA
95122,Santa Clara County,CA,82.9518547750592,NA
95123,Santa Clara County,CA,29.67640094711918,NA
95128,Santa Clara County,CA,28.058405682715076,NA
95131,Santa Clara County,CA,74.26992896606156,NA
95132,Santa Clara County,CA,90.68666140489346,NA
95136,Santa Clara County,CA,51.69692186266772,NA
95139,Santa Clara County,CA,98.77663772691398,NA
95205,San Joaquin County,CA,72.37569060773481,NA
95206,San Joaquin County,CA,14.64088397790055,NA
95207,San Joaquin County,CA,14.68034727703236,NA
95215,San Joaquin County,CA,92.42304656669297,NA
95242,San Joaquin County,CA,NA,58.053691275167786
95324,Merced County,CA,94.86977111286504,NA
95336,San Joaquin County,CA,22.138910812943962,NA
95337,San Joaquin County,CA,31.452249408050513,NA
95341,Merced County,CA,50.19731649565904,NA
95363,Stanislaus County,CA,90.48934490923442,NA
95376,San Joaquin County,CA,20.441988950276244,NA
95436,Sonoma County,CA,NA,97.6510067114094
95492,Sonoma County,CA,NA,62.08053691275168
95503,Humboldt County,CA,40.4104183109708,NA
95540,Humboldt County,CA,51.223362273086025,NA
95624,Sacramento County,CA,38.71349644830308,NA
95630,Sacramento County,CA,18.82399368587214,NA
95648,Placer County,CA,53.90686661404893,NA
95677,Placer County,CA,74.74348855564325,NA
95682,El Dorado County,CA,50.94711917916338,NA
95687,Solano County,CA,29.99210734017364,NA
95688,Solano County,CA,83.22809786898185,NA
95691,Yolo County,CA,44.593528018942386,NA
95695,Yolo County,CA,NA,58.55704697986577
95747,Placer County,CA,32.32044198895028,NA
95815,Sacramento County,CA,59.11602209944752,NA
95817,Sacramento County,CA,NA,71.47651006711409
95824,Sacramento County,CA,49.13180741910024,NA
95828,Sacramento County,CA,31.767955801104975,NA
95843,Sacramento County,CA,54.972375690607734,NA
95901,Yuba County,CA,16.456195737963693,NA
95949,Nevada County,CA,86.50355169692186,NA
95969,Butte County,CA,73.4017363851618,NA
95973,Butte County,CA,15.706393054459353,NA
96002,Shasta County,CA,48.737174427782165,NA
96019,Shasta County,CA,89.423835832675607,NA
96021,Tehama County,CA,69.33701657458563,NA
80003,Jefferson County,CO,NA,59.73154362416108
80005,Jefferson County,CO,51.69692186266772,NA
80014,Arapahoe County,CO,23.480662983425415,NA
80015,Arapahoe County,CO,NA,61.40939597315436
80016,Arapahoe County,CO,15.666929755327546,NA
80017,Arapahoe County,CO,63.97000789265983,NA
80023,Broomfield County,CO,78.53196527229677,NA
80031,Adams County,CO,64.40410418310971,NA
80104,Douglas County,CO,77.42699289660617,67.11409395973155
80107,Elbert County,CO,86.02999210734016,NA
80108,Douglas County,CO,71.70481452249408,NA
80110,Arapahoe County,CO,83.93843725335438,NA
80122,Arapahoe County,CO,NA,57.38255033557047
80123,Jefferson County,CO,39.06866614048934,NA
80129,Douglas County,CO,69.06077348066299,NA
80202,Denver County,CO,43.68587213891082,NA
80205,Denver County,CO,33.583267561168114,NA
80222,Denver County,CO,NA,80.87248322147651
80229,Adams County,CO,81.88634569850039,NA
80231,Denver County,CO,30.071033938437253,NA
80233,Adams County,CO,52.56511444356748,NA
80234,Adams County,CO,81.29439621152328,NA
80260,Adams County,CO,37.92423046566693,NA
80301,Boulder County,CO,NA,77.01342281879194
80501,Boulder County,CO,13.930544593528019,NA
80503,Boulder County,CO,NA,58.7248322147651
80526,Larimer County,CO,28.808208366219418,NA
80542,Weld County,CO,NA,99.16107382550335
80631,Weld County,CO,NA,25.503355704697988
80634,Weld County,CO,1.3022888713496448,1.8456375838926176
80908,El Paso County,CO,79.95264404104184,NA
80911,El Paso County,CO,66.57458563535911,NA
80918,El Paso County,CO,NA,38.59060402684564
80919,El Paso County,CO,64.20678768745067,NA
80920,El Paso County,CO,NA,63.758389261744966
81004,Pueblo County,CO,17.797947908445146,NA
81008,Pueblo County,CO,NA,89.42953020134227
81505,Mesa County,CO,NA,81.20805369127517
06040,Hartford County,CT,28.295185477505918,NA
06051,Hartford County,CT,2.209944751381215,NA
06066,Tolland County,CT,40.528808208366215,NA
06067,Hartford County,CT,85.12233622730861,NA
06082,Hartford County,CT,73.16495659037095,NA
06098,Litchfield County,CT,39.423835832675614,NA
06105,Hartford County,CT,46.48776637726914,NA
06108,Hartford County,CT,22.099447513812155,NA
06109,Hartford County,CT,NA,59.22818791946308
06114,Hartford County,CT,78.65035516969219,NA
06118,Hartford County,CT,17.403314917127073,40.604026845637584
06281,Windham County,CT,59.431728492501975,NA
06437,New Haven County,CT,56.432517758484614,NA
06484,Fairfield County,CT,27.348066298342545,NA
06492,New Haven County,CT,NA,11.74496644295302
06511,New Haven County,CT,58.40568271507498,NA
06512,New Haven County,CT,48.10576164167325,NA
06513,New Haven County,CT,70.56037884767167,NA
06516,New Haven County,CT,4.3409629044988165,NA
06519,New Haven County,CT,16.416732438831886,NA
06604,Fairfield County,CT,13.299131807419101,NA
06606,Fairfield County,CT,88.35832675611681,36.241610738255034
06608,Fairfield County,CT,57.06393054459353,NA
06615,Fairfield County,CT,NA,61.91275167785235
06705,New Haven County,CT,48.14522494080505,NA
06776,Litchfield County,CT,20.836621941594316,NA
06779,Litchfield County,CT,83.42541436464089,NA
06787,Litchfield County,CT,91.19968429360694,NA
06804,Fairfield County,CT,67.44277821625889,NA
06810,Fairfield County,CT,9.94475138121547,NA
06811,Fairfield County,CT,69.81057616416733,NA
06812,Fairfield County,CT,88.08208366219415,NA
06830,Fairfield County,CT,56.669297553275456,41.10738255033557
06850,Fairfield County,CT,65.82478295185477,NA
06854,Fairfield County,CT,NA,75.67114093959731
06905,Fairfield County,CT,NA,53.5234899328859
19701,New Castle County,DE,53.591160220994475,NA
19702,New Castle County,DE,9.629044988161011,NA
19709,New Castle County,DE,75.61168113654301,NA
19713,New Castle County,DE,22.730860299921073,NA
19720,New Castle County,DE,11.010260457774269,NA
19803,New Castle County,DE,55.209155485398576,53.691275167785236
19805,New Castle County,DE,39.700078926598266,NA
19809,New Castle County,DE,52.60457774269929,NA
19904,Kent County,DE,8.326756116811366,NA
19934,Kent County,DE,65.3906866614049,NA
19956,Sussex County,DE,38.910812943962114,NA
19963,Sussex County,DE,26.519337016574585,NA
19977,Kent County,DE,66.5351223362273,NA
32003,Clay County,FL,51.69692186266772,NA
32033,St. Johns County,FL,93.68587213891081,NA
32034,Nassau County,FL,42.69928966061563,NA
32043,Clay County,FL,36.06945540647198,NA
32055,Columbia County,FL,32.991318074191,NA
32063,Baker County,FL,62.54932912391475,NA
32084,St. Johns County,FL,21.704814522494082,NA
32097,Nassau County,FL,49.21073401736385,NA
32136,Flagler County,FL,NA,74.83221476510067
32137,Flagler County,FL,45.027624309392266,NA
32162,Sumter County,FL,NA,42.61744966442953
32168,Volusia County,FL,NA,37.75167785234899
32205,Duval County,FL,52.80189423835833,NA
32207,Duval County,FL,11.91791633780584,NA
32208,Duval County,FL,0.4735595895816891,NA
32209,Duval County,FL,31.176006314127864,NA
32210,Duval County,FL,14.088397790055248,NA
32211,Duval County,FL,14.443567482241516,NA
32218,Duval County,FL,2.131018153117601,NA
32219,Duval County,FL,36.81925808997632,NA
32221,Duval County,FL,21.86266771902131,38.758389261744966
32223,Duval County,FL,NA,36.74496644295302
32226,Duval County,FL,35.47750591949487,NA
32246,Duval County,FL,10.063141278610892,NA
32259,St. Johns County,FL,68.74506708760852,41.2751677852349
32266,Duval County,FL,97.71112865035518,NA
32304,Leon County,FL,48.697711128650354,NA
32340,Madison County,FL,71.94159431728492,95.63758389261746
32405,Bay County,FL,19.179163378058405,NA
32408,Bay County,FL,68.1531176006314,NA
32448,Jackson County,FL,93.0939226519337,NA
32459,Walton County,FL,57.9715864246251,NA
32507,Escambia County,FL,29.36069455406472,NA
32514,Escambia County,FL,16.692975532754538,13.926174496644295
32550,Walton County,FL,85.79321231254933,NA
32601,Alachua County,FL,54.18310970797159,NA
32605,Alachua County,FL,20.876085240726123,NA
32606,Alachua County,FL,25.96685082872928,NA
32608,Alachua County,FL,22.494080505130228,NA
32609,Alachua County,FL,13.693764798737174,NA
32669,Alachua County,FL,NA,68.12080536912751
32686,Marion County,FL,98.81610102604577,NA
32724,Volusia County,FL,46.52722967640095,NA
32738,Volusia County,FL,28.334648776637728,NA
32746,Seminole County,FL,45.2249408050513,NA
32765,Seminole County,FL,49.21073401736385,NA
32780,Brevard County,FL,31.570639305445937,NA
32792,Orange County,FL,52.92028413575375,NA
32803,Orange County,FL,66.96921862667719,NA
32805,Orange County,FL,24.822415153906867,NA
32807,Orange County,FL,37.41120757695343,NA
32808,Orange County,FL,37.68745067087608,NA
32814,Orange County,FL,99.25019731649566,NA
32822,Orange County,FL,NA,25.335570469798657
32828,Orange County,FL,29.16337805840568,NA
32832,Orange County,FL,81.17600631412786,90.43624161073825
32839,Orange County,FL,19.10023677979479,NA
32935,Brevard County,FL,13.062352012628256,NA
32940,Brevard County,FL,60.29992107340174,NA
32955,Brevard County,FL,41.67324388318863,NA
32960,Indian River County,FL,39.81846882399368,NA
32968,Indian River County,FL,76.08524072612471,NA
33009,Broward County,FL,56.51144435674822,NA
33012,Miami-Dade County,FL,35.674822415153905,NA
33015,Miami-Dade County,FL,43.25177584846093,NA
33016,Miami-Dade County,FL,46.96132596685083,NA
33018,Miami-Dade County,FL,69.37647987371744,NA
33023,Broward County,FL,43.172849250197316,NA
33024,Broward County,FL,87.2533543804262,24.664429530201343
33025,Broward County,FL,22.296764009471193,NA
33028,Broward County,FL,NA,83.22147651006712
33030,Miami-Dade County,FL,35.635359116022094,NA
33033,Miami-Dade County,FL,NA,56.87919463087249
33056,Miami-Dade County,FL,31.373322809786895,NA
33063,Broward County,FL,66.77190213101815,NA
33064,Broward County,FL,29.51854775059195,NA
33065,Broward County,FL,39.187056037884766,NA
33067,Broward County,FL,NA,79.69798657718121
33068,Broward County,FL,36.26677190213102,NA
33073,Broward County,FL,NA,90.93959731543623
33076,Broward County,FL,NA,88.75838926174497
33125,Miami-Dade County,FL,NA,40.26845637583892
33127,Miami-Dade County,FL,48.500394632991316,NA
33133,Miami-Dade County,FL,70.04735595895816,NA
33138,Miami-Dade County,FL,NA,86.74496644295301
33143,Miami-Dade County,FL,74.26992896606156,NA
33154,Miami-Dade County,FL,93.6069455406472,NA
33161,Miami-Dade County,FL,26.598263614838203,51.51006711409396
33168,Miami-Dade County,FL,63.378058405682715,NA
33169,Miami-Dade County,FL,34.01736385161799,NA
33172,Miami-Dade County,FL,76.87450670876085,NA
33175,Miami-Dade County,FL,47.829518547750595,NA
33178,Miami-Dade County,FL,NA,80.20134228187919
33179,Miami-Dade County,FL,54.064719810576165,66.94630872483222
33186,Miami-Dade County,FL,NA,34.395973154362416
33187,Miami-Dade County,FL,NA,98.48993288590604
33304,Broward County,FL,72.45461720599842,NA
33311,Broward County,FL,4.1041831097079715,NA
33312,Broward County,FL,60.53670086819258,NA
33317,Broward County,FL,71.50749802683505,NA
33319,Broward County,FL,67.16653512233623,NA
33324,Broward County,FL,85.35911602209944,NA
33326,Broward County,FL,74.07261247040252,NA
33331,Broward County,FL,90.29202841357538,NA
33334,Broward County,FL,45.2249408050513,NA
33351,Broward County,FL,65.62746645619573,NA
33404,Palm Beach County,FL,29.2817679558011,NA
33407,Palm Beach County,FL,55.88003157063931,NA
33408,Palm Beach County,FL,NA,70.63758389261746
33410,Palm Beach County,FL,42.26519337016575,NA
33415,Palm Beach County,FL,34.293606945540645,NA
33433,Palm Beach County,FL,89.58168902920283,NA
33441,Broward County,FL,48.184688239936854,NA
33442,Broward County,FL,91.94948697711128,NA
33445,Palm Beach County,FL,65.74585635359117,NA
33462,Palm Beach County,FL,85.95106550907656,NA
33463,Palm Beach County,FL,40.84451460142068,39.93288590604027
33511,Hillsborough County,FL,29.913180741910022,NA
33544,Pasco County,FL,76.0457774269929,NA
33545,Pasco County,FL,83.07024467245462,NA
33569,Hillsborough County,FL,69.49486977111286,NA
33572,Hillsborough County,FL,77.03235990528809,NA
33596,Hillsborough County,FL,83.62273086029992,NA
33604,Hillsborough County,FL,16.771902131018155,NA
33610,Hillsborough County,FL,35.55643251775849,NA
33613,Hillsborough County,FL,80.34727703235991,NA
33616,Hillsborough County,FL,86.46408839779005,NA
33617,Hillsborough County,FL,89.18705603788477,NA
33624,Hillsborough County,FL,86.66140489344909,NA
33625,Hillsborough County,FL,52.09155485398579,NA
33701,Pinellas County,FL,NA,66.77852348993288
33702,Pinellas County,FL,NA,86.91275167785236
33704,Pinellas County,FL,80.62352012628256,NA
33714,Pinellas County,FL,NA,71.64429530201343
33715,Pinellas County,FL,NA,79.86577181208054
33767,Pinellas County,FL,94.51460142067877,NA
33772,Pinellas County,FL,72.65193370165746,NA
33811,Polk County,FL,85.6353591160221,NA
33860,Polk County,FL,53.630623520126285,NA
33881,Polk County,FL,NA,35.57046979865772
33898,Polk County,FL,50.43409629044988,NA
33904,Lee County,FL,29.952644041041832,NA
33905,Lee County,FL,62.27308602999211,NA
33916,Lee County,FL,64.04893449092344,NA
33919,Lee County,FL,78.68981846882399,NA
33948,Charlotte County,FL,NA,43.95973154362416
33950,Charlotte County,FL,NA,31.879194630872483
33952,Charlotte County,FL,50.67087608524072,NA
33972,Lee County,FL,80.93922651933701,NA
33980,Charlotte County,FL,90.84451460142068,NA
33981,Charlotte County,FL,90.88397790055248,NA
33990,Lee County,FL,28.650355169692187,NA
33991,Lee County,FL,60.65509076558801,NA
34116,Collier County,FL,71.15232833464877,NA
34142,Collier County,FL,NA,91.94630872483222
34205,Manatee County,FL,NA,50.167785234899334
34209,Manatee County,FL,58.16890292028414,NA
34219,Manatee County,FL,48.460931333859506,NA
34221,Manatee County,FL,30.11049723756906,NA
34229,Sarasota County,FL,88.98973954222573,NA
34231,Sarasota County,FL,45.30386740331492,NA
34233,Sarasota County,FL,72.77032359905287,NA
34240,Sarasota County,FL,85.75374901341752,NA
34243,Manatee County,FL,52.48618784530387,NA
34432,Marion County,FL,87.8058405682715,NA
34442,Citrus County,FL,NA,84.73154362416108
34470,Marion County,FL,41.988950276243095,NA
34608,Hernando County,FL,30.347277032359905,NA
34609,Hernando County,FL,57.89265982636148,NA
34652,Pasco County,FL,32.438831886345696,NA
34655,Pasco County,FL,NA,26.34228187919463
34690,Pasco County,FL,65.74585635359117,NA
34698,Pinellas County,FL,46.36937647987372,61.74496644295302
34711,Lake County,FL,15.311760063141278,NA
34743,Osceola County,FL,70.95501183898973,NA
34758,Osceola County,FL,15.351223362273087,NA
34761,Orange County,FL,NA,45.469798657718115
34951,St. Lucie County,FL,78.72928176795581,NA
34952,St. Lucie County,FL,84.68823993685872,NA
34953,St. Lucie County,FL,36.50355169692187,NA
34957,Martin County,FL,NA,36.91275167785235
34983,St. Lucie County,FL,15.272296764009472,NA
34984,St. Lucie County,FL,47.19810576164167,NA
34990,Martin County,FL,55.76164167324388,NA
34997,Martin County,FL,56.03788476716653,NA
30004,Fulton County,GA,80.66298342541437,NA
30005,Fulton County,GA,62.50986582478295,NA
30013,Rockdale County,GA,69.92896606156275,NA
30016,Newton County,GA,75.41436464088397,NA
30017,Gwinnett County,GA,58.445146014206784,NA
30019,Gwinnett County,GA,30.702446724546174,NA
30022,Fulton County,GA,79.51854775059195,48.48993288590604
30024,Gwinnett County,GA,45.89581689029203,NA
30028,Forsyth County,GA,51.42067876874506,NA
30032,DeKalb County,GA,7.734806629834254,NA
30034,DeKalb County,GA,22.17837411207577,NA
30038,DeKalb County,GA,67.79794790844514,NA
30041,Forsyth County,GA,70.91554853985794,NA
30044,Gwinnett County,GA,43.56748224151539,NA
30046,Gwinnett County,GA,39.187056037884766,NA
30058,DeKalb County,GA,45.06708760852407,NA
30062,Cobb County,GA,34.60931333859511,NA
30064,Cobb County,GA,55.643251775848455,NA
30066,Cobb County,GA,38.71349644830308,27.516778523489933
30067,Cobb County,GA,53.43330702446725,NA
30080,Cobb County,GA,74.82241515390686,NA
30082,Cobb County,GA,NA,84.8993288590604
30083,DeKalb County,GA,53.03867403314917,NA
30088,DeKalb County,GA,31.018153117600633,NA
30092,Gwinnett County,GA,80.89976322020522,NA
30094,Rockdale County,GA,38.042620363062355,NA
30096,Gwinnett County,GA,19.10023677979479,NA
30102,Cherokee County,GA,38.476716653512234,NA
30113,Haralson County,GA,73.9542225730071,NA
30114,Cherokee County,GA,61.40489344909235,NA
30115,Cherokee County,GA,30.662983425414364,NA
30117,Carroll County,GA,25.0197316495659,NA
30127,Cobb County,GA,41.83109707971586,NA
30134,Douglas County,GA,17.24546172059984,89.26174496644296
30152,Cobb County,GA,76.99289660615626,NA
30176,Haralson County,GA,76.51933701657458,NA
30180,Carroll County,GA,66.73243883188634,NA
30184,Bartow County,GA,97.8295185477506,NA
30188,Cherokee County,GA,47.119179163378064,NA
30213,Fulton County,GA,45.81689029202841,NA
30214,Fayette County,GA,46.25098658247829,NA
30240,Troup County,GA,18.192580899763218,NA
30253,Henry County,GA,18.6266771902131,NA
30260,Clayton County,GA,65.31176006314128,NA
30269,Fayette County,GA,64.04893449092344,NA
30281,Henry County,GA,18.50828729281768,NA
30288,Clayton County,GA,87.29281767955801,NA
30291,Fulton County,GA,30.426203630623522,72.14765100671141
30294,DeKalb County,GA,80.34727703235991,NA
30296,Clayton County,GA,90.37095501183899,NA
30297,Clayton County,GA,49.4869771112865,NA
30310,Fulton County,GA,16.022099447513813,NA
30311,Fulton County,GA,9.826361483820047,NA
30312,Fulton County,GA,53.117600631412785,NA
30315,Fulton County,GA,22.020520915548538,NA
30316,DeKalb County,GA,45.77742699289661,52.85234899328859
30318,Fulton County,GA,92.65982636148382,NA
30328,Fulton County,GA,NA,72.31543624161074
30329,DeKalb County,GA,82.16258879242304,NA
30331,Fulton County,GA,11.444356748224152,NA
30337,Fulton County,GA,72.92817679558011,NA
30338,DeKalb County,GA,67.24546172059985,NA
30339,Cobb County,GA,69.37647987371744,NA
30340,DeKalb County,GA,78.49250197316495,NA
30342,Fulton County,GA,77.1902131018153,77.68456375838926
30354,Fulton County,GA,NA,78.18791946308725
30467,Screven County,GA,NA,87.41610738255034
30517,Jackson County,GA,78.92659826361484,NA
30518,Gwinnett County,GA,29.715864246250987,NA
30528,White County,GA,43.88318863456985,NA
30533,Lumpkin County,GA,NA,49.664429530201346
30565,Jackson County,GA,93.92265193370166,NA
30605,Clarke County,GA,76.71665351223362,NA
30620,Barrow County,GA,NA,88.42281879194631
30642,Greene County,GA,73.99368587213891,NA
30655,Walton County,GA,27.505919494869772,30.201342281879196
30705,Murray County,GA,21.941594317284924,NA
30736,Catoosa County,GA,6.708760852407261,NA
30742,Catoosa County,GA,73.67797947908446,NA
30752,Dade County,GA,53.23599052880821,NA
30909,Richmond County,GA,69.37647987371744,NA
31031,Wilkinson County,GA,96.2904498816101,NA
31036,Pulaski County,GA,65.66692975532754,NA
31063,Macon County,GA,93.80426203630624,NA
31088,Houston County,GA,10.181531176006315,NA
31093,Houston County,GA,25.21704814522494,NA
31204,Bibb County,GA,NA,28.859060402684566
31206,Bibb County,GA,22.533543804262035,NA
31407,Chatham County,GA,83.85951065509076,NA
31419,Chatham County,GA,NA,35.06711409395973
31522,Glynn County,GA,91.00236779794791,NA
31533,Coffee County,GA,55.52486187845304,NA
31562,Charlton County,GA,97.98737174427782,NA
31601,Lowndes County,GA,51.42067876874506,NA
31605,Lowndes County,GA,87.96369376479873,NA
31643,Brooks County,GA,61.64167324388319,NA
31701,Dougherty County,GA,37.2138910812944,NA
31714,Turner County,GA,70.28413575374901,NA
31721,Dougherty County,GA,69.6921862667719,NA
31779,Mitchell County,GA,95.81689029202842,NA
31791,Worth County,GA,44.238358326756114,NA
31816,Meriwether County,GA,86.10891870560378,NA
31904,Muscogee County,GA,23.204419889502763,NA
31906,Muscogee County,GA,32.71507498026835,NA
31909,Muscogee County,GA,30.939226519337016,NA
39819,Decatur County,GA,NA,80.70469798657717
39842,Terrell County,GA,58.60299921073402,NA
96703,Kauai County,HI,99.4869771112865,NA
96706,Honolulu County,HI,63.77269139700079,NA
96707,Honolulu County,HI,27.624309392265197,33.053691275167786
96720,Hawaii County,HI,25.059194948697712,NA
96734,Honolulu County,HI,29.123914759273877,NA
96756,Kauai County,HI,NA,93.6241610738255
96768,Maui County,HI,95.46172059984215,NA
96782,Honolulu County,HI,28.413575374901338,NA
96786,Honolulu County,HI,25.41436464088398,NA
96789,Honolulu County,HI,76.36148382004735,NA
96792,Honolulu County,HI,32.39936858721389,NA
96797,Honolulu County,HI,24.50670876085241,34.899328859060404
96813,Honolulu County,HI,25.73007103393844,NA
96815,Honolulu County,HI,40.607734806629836,26.677852348993287
96817,Honolulu County,HI,7.458563535911603,NA
96818,Honolulu County,HI,86.30623520126282,NA
96822,Honolulu County,HI,31.057616416732436,21.812080536912752
96825,Honolulu County,HI,75.4932912391476,NA
96826,Honolulu County,HI,NA,34.22818791946309
83221,Bingham County,ID,NA,58.38926174496645
83350,Minidoka County,ID,NA,93.45637583892618
83402,Bonneville County,ID,44.00157853196527,NA
83455,Teton County,ID,94.71191791633781,NA
83617,Gem County,ID,65.27229676400947,NA
83634,Ada County,ID,65.58800315706394,NA
83646,Ada County,ID,7.379636937647987,NA
83709,Ada County,ID,69.65272296764009,NA
83713,Ada County,ID,62.194159431728494,NA
83858,Kootenai County,ID,74.62509865824784,NA
60002,Lake County,IL,53.90686661404893,NA
60004,Cook County,IL,50.67087608524072,NA
60005,Cook County,IL,48.06629834254144,NA
60007,Cook County,IL,NA,18.79194630872483
60010,Lake County,IL,30.623520126282557,NA
60018,Cook County,IL,56.07734806629834,NA
60035,Lake County,IL,35.87213891081294,NA
60047,Lake County,IL,29.04498816101026,NA
60050,McHenry County,IL,30.386740331491712,NA
60056,Cook County,IL,64.64088397790056,NA
60060,Lake County,IL,39.857932123125494,NA
60061,Lake County,IL,91.5153906866614,NA
60085,Lake County,IL,11.720599842146804,NA
60087,Lake County,IL,85.43804262036306,NA
60089,Lake County,IL,31.254932912391475,10.40268456375839
60096,Lake County,IL,89.97632202052091,NA
60098,McHenry County,IL,23.559589581689032,NA
60099,Lake County,IL,32.636148382004734,NA
60102,McHenry County,IL,38.989739542225735,46.308724832214764
60103,DuPage County,IL,20.718232044198896,NA
60112,DeKalb County,IL,NA,99.66442953020133
60120,Kane County,IL,19.73164956590371,NA
60130,Cook County,IL,41.35753749013418,NA
60134,Kane County,IL,35.79321231254933,NA
60137,DuPage County,IL,26.203630623520123,NA
60143,DuPage County,IL,80.26835043409629,NA
60173,Cook County,IL,93.1333859510655,NA
60181,DuPage County,IL,NA,32.04697986577181
60185,DuPage County,IL,29.005524861878452,NA
60187,DuPage County,IL,NA,39.42953020134228
60191,DuPage County,IL,60.73401736385162,NA
60193,Cook County,IL,64.68034727703235,NA
60202,Cook County,IL,79.47908445146015,NA
60302,Cook County,IL,75.84846093133386,NA
60304,Cook County,IL,49.644830307813734,NA
60402,Cook County,IL,7.063930544593528,NA
60404,Will County,IL,68.35043409629044,NA
60409,Cook County,IL,87.52959747434885,NA
60416,Grundy County,IL,54.34096290449881,NA
60417,Will County,IL,56.27466456195738,NA
60419,Cook County,IL,89.70007892659825,NA
60422,Cook County,IL,96.60615627466457,NA
60423,Will County,IL,32.51775848460932,NA
60428,Cook County,IL,83.78058405682715,NA
60430,Cook County,IL,91.71270718232044,NA
60432,Will County,IL,49.32912391475928,NA
60440,Will County,IL,13.496448303078138,14.76510067114094
60443,Cook County,IL,37.569060773480665,NA
60446,Will County,IL,9.31333859510655,42.11409395973154
60450,Grundy County,IL,50,NA
60452,Cook County,IL,40.9629044988161,NA
60457,Cook County,IL,67.95580110497238,NA
60459,Cook County,IL,25.769534333070244,NA
60462,Cook County,IL,18.902920284135753,NA
60471,Cook County,IL,64.95659037095501,NA
60473,Cook County,IL,49.01341752170482,NA
60477,Cook County,IL,52.407261247040246,NA
60491,Will County,IL,27.742699289660617,NA
60506,Kane County,IL,51.657458563535904,NA
60513,Cook County,IL,NA,60.570469798657726
60516,DuPage County,IL,82.67561168113654,NA
60521,DuPage County,IL,64.95659037095501,NA
60525,Cook County,IL,16.179952644041045,NA
60532,DuPage County,IL,37.37174427782163,NA
60540,DuPage County,IL,21.152328334648775,NA
60543,Kendall County,IL,28.176795580110497,50.33557046979866
60545,Kendall County,IL,61.089187056037886,NA
60546,Cook County,IL,40.21310181531176,NA
60559,DuPage County,IL,35.87213891081294,NA
60564,Will County,IL,63.299131807419094,NA
60608,Cook County,IL,NA,14.093959731543624
60609,Cook County,IL,6.353591160220995,NA
60610,Cook County,IL,34.64877663772691,NA
60611,Cook County,IL,48.3820047355959,NA
60612,Cook County,IL,12.70718232044199,NA
60613,Cook County,IL,20.165745856353592,NA
60614,Cook County,IL,47.15864246250987,NA
60615,Cook County,IL,78.37411207576953,NA
60616,Cook County,IL,28.45303867403315,NA
60617,Cook County,IL,55.998421468034735,76.00671140939598
60619,Cook County,IL,63.22020520915549,28.691275167785236
60620,Cook County,IL,21.823204419889503,3.691275167785235
60622,Cook County,IL,28.96606156274665,NA
60623,Cook County,IL,41.515390686661405,NA
60625,Cook County,IL,6.590370955011839,NA
60626,Cook County,IL,43.13338595106551,NA
60628,Cook County,IL,4.301499605367009,4.026845637583892
60629,Cook County,IL,62.58879242304657,NA
60630,Cook County,IL,16.298342541436465,NA
60634,Cook County,IL,6.27466456195738,41.61073825503356
60636,Cook County,IL,59.826361483820044,NA
60637,Cook County,IL,77.5848460931334,NA
60638,Cook County,IL,27.190213101815313,NA
60639,Cook County,IL,NA,7.718120805369128
60640,Cook County,IL,25.33543804262036,NA
60642,Cook County,IL,72.4151539068666,NA
60643,Cook County,IL,5.327545382794002,NA
60646,Cook County,IL,41.041831097079715,NA
60647,Cook County,IL,4.696132596685083,NA
60649,Cook County,IL,81.3733228097869,43.12080536912752
60651,Cook County,IL,24.66456195737964,NA
60653,Cook County,IL,71.8232044198895,NA
60654,Cook County,IL,86.7797947908445,NA
60655,Cook County,IL,55.44593528018943,33.22147651006711
60656,Cook County,IL,71.66535122336228,NA
60657,Cook County,IL,45.58011049723757,NA
60659,Cook County,IL,38.8713496448303,NA
60660,Cook County,IL,19.41594317284925,NA
60661,Cook County,IL,96.44830307813733,NA
60707,Cook County,IL,13.575374901341753,9.731543624161073
60714,Cook County,IL,68.35043409629044,NA
60805,Cook County,IL,87.8058405682715,NA
60827,Cook County,IL,70.71823204419888,NA
60970,Iroquois County,IL,72.8097868981847,NA
61008,Boone County,IL,25.651144435674823,20.973154362416107
61021,Lee County,IL,NA,6.7114093959731544
61081,Whiteside County,IL,NA,16.10738255033557
61107,Winnebago County,IL,82.08366219415943,NA
61114,Winnebago County,IL,75.73007103393844,NA
61115,Winnebago County,IL,44.041041831097075,NA
61701,McLean County,IL,23.875295974743487,NA
61764,Livingston County,IL,64.32517758484609,NA
61953,Douglas County,IL,93.01499605367009,NA
62034,Madison County,IL,94.55406471981057,NA
62234,Madison County,IL,42.26519337016575,NA
62269,St. Clair County,IL,84.6093133385951,NA
62305,Adams County,IL,64.52249408050513,NA
62454,Crawford County,IL,88.63456985003947,NA
62656,Logan County,IL,68.94238358326757,69.96644295302013
62702,Sangamon County,IL,78.92659826361484,NA
62864,Jefferson County,IL,39.58168902920284,NA
62902,Jackson County,IL,NA,91.44295302013423
46012,Madison County,IN,29.873717442778215,NA
46037,Hamilton County,IN,60.45777426992897,NA
46064,Madison County,IN,61.957379636937645,NA
46143,Johnson County,IN,NA,18.288590604026847
46203,Marion County,IN,5.485398579321231,NA
46224,Marion County,IN,23.164956590370956,NA
46226,Marion County,IN,7.34017363851618,NA
46231,Marion County,IN,NA,69.29530201342283
46236,Marion County,IN,54.57774269928966,NA
46237,Marion County,IN,12.98342541436464,9.899328859060402
46241,Marion County,IN,44.277821625887924,NA
46268,Marion County,IN,36.385161799526436,NA
46304,Porter County,IN,7.892659826361484,NA
46307,Lake County,IN,45.7379636937648,NA
46310,Jasper County,IN,44.672454617206,NA
46311,Lake County,IN,NA,18.624161073825505
46319,Lake County,IN,85.83267561168114,NA
46321,Lake County,IN,76.5982636148382,NA
46322,Lake County,IN,91.35753749013418,NA
46360,LaPorte County,IN,61.286503551696924,NA
46373,Lake County,IN,72.29676400947119,NA
46375,Lake County,IN,74.19100236779795,NA
46383,Porter County,IN,4.775059194948698,NA
46391,LaPorte County,IN,73.52012628255721,NA
46407,Lake County,IN,37.96369376479874,NA
46410,Lake County,IN,21.54696132596685,NA
46514,Elkhart County,IN,21.941594317284924,NA
46517,Elkhart County,IN,40.44988161010261,NA
46545,St. Joseph County,IN,71.58642462509866,NA
46614,St. Joseph County,IN,51.89423835832676,NA
46738,DeKalb County,IN,64.40410418310971,NA
46807,Allen County,IN,42.97553275453828,NA
46809,Allen County,IN,96.17205998421467,NA
46901,Howard County,IN,0.9865824782951855,NA
46902,Howard County,IN,29.7947908445146,NA
46953,Grant County,IN,7.1033938437253346,NA
47025,Dearborn County,IN,79.95264404104184,NA
47130,Clark County,IN,NA,5.201342281879195
47165,Washington County,IN,NA,92.61744966442953
47203,Bartholomew County,IN,26.992896606156275,NA
47274,Jackson County,IN,20.2052091554854,NA
50021,Polk County,IA,89.10812943962115,NA
50213,Clarke County,IA,NA,82.88590604026845
50312,Polk County,IA,NA,86.57718120805369
50313,Polk County,IA,NA,67.78523489932886
50320,Polk County,IA,40.29202841357537,NA
50323,Dallas County,IA,95.61957379636937,NA
50588,Buena Vista County,IA,33.14917127071823,NA
51104,Woodbury County,IA,37.17442778216259,NA
51106,Woodbury County,IA,NA,51.34228187919463
51501,Pottawattamie County,IA,1.7758484609313336,NA
52172,Allamakee County,IA,98.57932123125494,NA
52240,Johnson County,IA,14.52249408050513,22.31543624161074
52245,Johnson County,IA,NA,44.29530201342282
52361,Iowa County,IA,97.19810576164167,NA
52402,Linn County,IA,NA,64.26174496644296
52544,Appanoose County,IA,33.93843725335438,NA
52627,Lee County,IA,35.99052880820837,NA
52730,Clinton County,IA,92.34411996842937,NA
52747,Cedar County,IA,97.67166535122335,NA
52761,Muscatine County,IA,6.945540647198106,NA
66007,Leavenworth County,KS,92.97553275453828,NA
66048,Leavenworth County,KS,24.269928966061563,NA
66104,Wyandotte County,KS,20.36306235201263,NA
66206,Johnson County,KS,NA,82.38255033557047
66216,Johnson County,KS,NA,85.40268456375838
66617,Shawnee County,KS,NA,94.12751677852349
66701,Bourbon County,KS,NA,67.4496644295302
66720,Neosho County,KS,NA,77.85234899328859
66762,Crawford County,KS,97.55327545382794,NA
66839,Coffey County,KS,95.38279400157853,NA
67124,Pratt County,KS,86.30623520126282,NA
67219,Sedgwick County,KS,82.12312549329124,NA
67456,McPherson County,KS,89.22651933701657,NA
67530,Barton County,KS,62.98342541436463,NA
40014,Oldham County,KY,NA,88.08724832214764
40071,Spencer County,KY,47.277032359905284,NA
40160,Hardin County,KY,74.54617205998422,NA
40204,Jefferson County,KY,72.13891081294396,NA
40211,Jefferson County,KY,8.24782951854775,NA
40214,Jefferson County,KY,3.946329913180742,NA
40215,Jefferson County,KY,NA,47.81879194630873
40216,Jefferson County,KY,5.564325177584846,NA
40245,Jefferson County,KY,NA,44.46308724832215
40258,Jefferson County,KY,15.469613259668508,NA
40299,Jefferson County,KY,26.400947119179165,NA
40353,Montgomery County,KY,14.956590370955011,NA
40475,Madison County,KY,NA,10.06711409395973
40514,Fayette County,KY,89.93685872138911,NA
40515,Fayette County,KY,84.72770323599053,NA
40744,Laurel County,KY,21.586424625098658,NA
41091,Boone County,KY,87.60852407261247,NA
41092,Boone County,KY,99.84214680347277,NA
41501,Pike County,KY,7.221783741120758,NA
41653,Floyd County,KY,NA,42.95302013422819
42003,McCracken County,KY,36.34569850039463,NA
42101,Warren County,KY,3.9068666140489343,NA
42141,Barren County,KY,NA,8.053691275167784
42206,Logan County,KY,93.17284925019732,NA
42220,Todd County,KY,82.00473559589582,NA
42240,Christian County,KY,19.968429360694554,NA
42345,Muhlenberg County,KY,46.8034727703236,NA
42701,Hardin County,KY,6.8271507498026835,NA
42748,Larue County,KY,80.26835043409629,NA
70006,Jefferson Parish,LA,NA,47.48322147651007
70056,Jefferson Parish,LA,2.6835043409629047,NA
70090,St. James Parish,LA,67.71902131018153,NA
70114,Orleans Parish,LA,28.49250197316496,NA
70115,Orleans Parish,LA,12.352012628255721,NA
70129,Orleans Parish,LA,66.14048934490924,NA
70346,Ascension Parish,LA,38.39779005524862,NA
70359,Terrebonne Parish,LA,22.967640094711918,NA
70422,Tangipahoa Parish,LA,91.67324388318863,NA
70435,St. Tammany Parish,LA,63.61483820047356,NA
70437,St. Tammany Parish,LA,98.973954222573,NA
70460,St. Tammany Parish,LA,7.813733228097869,NA
70506,Lafayette Parish,LA,3.4333070244672457,NA
70508,Lafayette Parish,LA,9.668508287292818,NA
70544,Iberia Parish,LA,59.74743488555643,NA
70560,Iberia Parish,LA,9.984214680347277,NA
70570,St. Landry Parish,LA,28.25572217837411,NA
70611,Calcasieu Parish,LA,21.191791633780586,NA
70648,Allen Parish,LA,NA,91.77852348993288
70737,Ascension Parish,LA,4.025256511444357,NA
70739,East Baton Rouge Parish,LA,89.73954222573008,NA
70764,Iberville Parish,LA,NA,62.58389261744966
70767,West Baton Rouge Parish,LA,37.805840568271506,NA
70807,East Baton Rouge Parish,LA,7.971586424625099,NA
70814,East Baton Rouge Parish,LA,84.37253354380427,NA
70815,East Baton Rouge Parish,LA,37.45067087608524,NA
71107,Caddo Parish,LA,1.420678768745067,NA
71112,Bossier Parish,LA,7.853196527229676,NA
71119,Caddo Parish,LA,51.26282557221784,NA
71232,Richland Parish,LA,40.134175217048146,NA
71282,Madison Parish,LA,97.75059194948697,NA
71351,Avoyelles Parish,LA,23.204419889502763,NA
71417,Grant Parish,LA,80.07103393843725,NA
03908,York County,ME,97.39542225730071,NA
03909,York County,ME,NA,57.21476510067114
04037,Oxford County,ME,NA,96.64429530201343
04102,Cumberland County,ME,60.29992107340174,NA
04103,Cumberland County,ME,14.917127071823206,NA
04106,Cumberland County,ME,84.5303867403315,NA
04843,Knox County,ME,NA,87.91946308724832
04953,Penobscot County,ME,NA,95.80536912751678
04967,Somerset County,ME,95.65903709550119,NA
20601,Charles County,MD,61.48382004735596,NA
20603,Charles County,MD,60.063141278610885,NA
20616,Charles County,MD,NA,99.83221476510067
20646,Charles County,MD,68.78453038674033,NA
20657,Calvert County,MD,62.62825572217837,NA
20659,St. Mary's County,MD,55.60378847671665,NA
20695,Charles County,MD,94.7513812154696,NA
20706,Prince George's County,MD,49.72375690607735,NA
20708,Prince George's County,MD,91.75217048145224,NA
20716,Prince George's County,MD,83.26756116811366,NA
20735,Prince George's County,MD,51.026045777427,NA
20743,Prince George's County,MD,92.5414364640884,71.97986577181209
20744,Prince George's County,MD,37.52959747434886,NA
20745,Prince George's County,MD,66.37726913970008,NA
20772,Prince George's County,MD,39.77900552486188,NA
20774,Prince George's County,MD,92.38358326756116,NA
20782,Prince George's County,MD,92.81767955801105,NA
20784,Prince George's County,MD,85.1617995264404,78.52348993288591
20817,Montgomery County,MD,NA,91.2751677852349
20837,Montgomery County,MD,97.07971586424625,NA
20850,Montgomery County,MD,NA,74.32885906040269
20882,Montgomery County,MD,93.96211523283347,NA
20895,Montgomery County,MD,86.42462509865825,NA
20901,Montgomery County,MD,70.99447513812154,NA
20902,Montgomery County,MD,61.32596685082873,NA
20906,Montgomery County,MD,44.711917916337804,NA
20912,Montgomery County,MD,94.1199684293607,NA
21009,Harford County,MD,93.21231254932913,NA
21042,Howard County,MD,85.87213891081295,NA
21043,Howard County,MD,62.667719021310184,NA
21054,Anne Arundel County,MD,84.0568271507498,NA
21061,Anne Arundel County,MD,5.919494869771113,NA
21075,Howard County,MD,59.94475138121547,NA
21076,Anne Arundel County,MD,NA,87.08053691275168
21078,Harford County,MD,41.87056037884767,NA
21114,Anne Arundel County,MD,82.67561168113654,NA
21117,Baltimore County,MD,22.375690607734807,NA
21128,Baltimore County,MD,82.75453827940015,NA
21144,Anne Arundel County,MD,49.84214680347277,NA
21202,Baltimore city,MD,33.78058405682715,NA
21206,Baltimore city,MD,31.412786108918706,NA
21208,Baltimore County,MD,54.18310970797159,NA
21209,Baltimore County,MD,56.235201262825576,NA
21211,Baltimore city,MD,66.4956590370955,NA
21212,Baltimore city,MD,33.385951065509076,NA
21215,Baltimore city,MD,42.936069455406475,NA
21216,Baltimore city,MD,27.150749802683507,NA
21217,Baltimore city,MD,15.548539857932123,NA
21218,Baltimore city,MD,5.998421468034728,NA
21228,Baltimore County,MD,43.330702446724544,NA
21229,Baltimore city,MD,11.76006314127861,NA
21230,Baltimore city,MD,27.071823204419886,NA
21231,Baltimore city,MD,NA,70.80536912751678
21234,Baltimore County,MD,10.457774269928965,NA
21286,Baltimore County,MD,76.00631412786109,NA
21702,Frederick County,MD,61.957379636937645,NA
21754,Frederick County,MD,NA,94.63087248322147
21801,Wicomico County,MD,81.80741910023677,NA
21811,Worcester County,MD,88.59510655090766,NA
01085,Hampden County,MA,0.749802683504341,NA
01089,Hampden County,MA,2.367797947908445,NA
01104,Hampden County,MA,0.59194948697711125,NA
01118,Hampden County,MA,19.179163378058405,NA
01119,Hampden County,MA,10.497237569060774,NA
01225,Berkshire County,MA,99.36858721389108,NA
01420,Worcester County,MA,0.03946329913180742,NA
01440,Worcester County,MA,NA,81.71140939597315
01450,Middlesex County,MA,61.87845303867403,NA
01504,Worcester County,MA,NA,82.21476510067114
01532,Worcester County,MA,71.31018153117601,NA
01590,Worcester County,MA,66.37726913970008,NA
01603,Worcester County,MA,0.7892659826361484,NA
01605,Worcester County,MA,0.5130228887134964,NA
01609,Worcester County,MA,NA,5.369127516778524
01719,Middlesex County,MA,98.65824782951856,NA
01720,Middlesex County,MA,25.84846093133386,34.56375838926174
01730,Middlesex County,MA,74.15153906866614,NA
01742,Middlesex County,MA,NA,40.43624161073826
01746,Middlesex County,MA,14.325177584846093,NA
01749,Middlesex County,MA,13.614838200473558,NA
01752,Middlesex County,MA,1.6969218626677192,NA
01754,Middlesex County,MA,59.826361483820044,NA
01760,Middlesex County,MA,49.01341752170482,NA
01776,Middlesex County,MA,67.640094711917925,NA
01803,Middlesex County,MA,13.772691397000788,NA
01821,Middlesex County,MA,34.530386740331494,NA
01826,Middlesex County,MA,2.525651144435675,NA
01830,Essex County,MA,0.6314127861089187,NA
01841,Essex County,MA,1.8942383583267564,NA
01843,Essex County,MA,1.3417521704814523,NA
01845,Essex County,MA,53.86740331491713,NA
01854,Middlesex County,MA,61.2075769534333,NA
01862,Middlesex County,MA,37.72691397000789,NA
01864,Middlesex County,MA,39.8973954222573,NA
01867,Middlesex County,MA,19.613259668508288,NA
01876,Middlesex County,MA,3.9857932123125495,NA
01879,Middlesex County,MA,20.520915548539858,NA
01880,Middlesex County,MA,4.143646408839778,NA
01887,Middlesex County,MA,3.867403314917127,NA
01890,Middlesex County,MA,35.35911602209944,34.060402684563755
01902,Essex County,MA,52.683504340962905,NA
01904,Essex County,MA,82.3993685872139,NA
01905,Essex County,MA,17.008681925808997,NA
01906,Essex County,MA,50.98658247829518,NA
01907,Essex County,MA,43.68587213891082,NA
01913,Essex County,MA,NA,9.060402684563758
01915,Essex County,MA,NA,10.738255033557047
01923,Essex County,MA,1.973164956590371,NA
01929,Essex County,MA,96.92186266771901,NA
01930,Essex County,MA,NA,0.5033557046979865
01951,Essex County,MA,NA,94.79865771812081
01960,Essex County,MA,NA,0.33557046979865773
01969,Essex County,MA,86.74033149171271,NA
01970,Essex County,MA,21.50749802683504,NA
02026,Norfolk County,MA,NA,16.778523489932887
02054,Norfolk County,MA,66.4561957379637,NA
02067,Norfolk County,MA,77.663772691397,NA
02081,Norfolk County,MA,15.035516969218627,NA
02090,Norfolk County,MA,59.11602209944752,NA
02093,Norfolk County,MA,48.973954222573006,NA
02113,Suffolk County,MA,96.09313338595106,NA
02114,Suffolk County,MA,11.562746645619573,NA
02115,Suffolk County,MA,3.7095501183898976,NA
02118,Suffolk County,MA,8.287292817679557,NA
02119,Suffolk County,MA,3.3938437253354383,0
02120,Suffolk County,MA,3.235990528808208,NA
02121,Suffolk County,MA,0.11838989739542227,NA
02122,Suffolk County,MA,49.921073401736386,47.651006711409394
02124,Suffolk County,MA,0.23677979479084454,3.523489932885906
02125,Suffolk County,MA,0.15785319652722968,1.006711409395973
02126,Suffolk County,MA,14.99605367008682,NA
02128,Suffolk County,MA,NA,1.5100671140939599
02129,Suffolk County,MA,12.470402525651144,NA
02130,Suffolk County,MA,NA,53.85906040268457
02131,Suffolk County,MA,0.7103393843725335,NA
02132,Suffolk County,MA,93.56748224151539,NA
02136,Suffolk County,MA,45.38279400157853,NA
02138,Middlesex County,MA,65.90370955011839,NA
02139,Middlesex County,MA,44.19889502762431,NA
02140,Middlesex County,MA,10.891870560378848,NA
02142,Middlesex County,MA,97.39542225730071,NA
02143,Middlesex County,MA,3.1570639305445938,NA
02145,Middlesex County,MA,2.722967640094712,NA
02148,Middlesex County,MA,2.8808208366219414,NA
02149,Middlesex County,MA,49.28966061562747,NA
02150,Suffolk County,MA,15.745856353591158,NA
02151,Suffolk County,MA,0,NA
02155,Middlesex County,MA,0.43409629044988163,NA
02169,Norfolk County,MA,60.22099447513812,NA
02176,Middlesex County,MA,NA,36.40939597315436
02180,Middlesex County,MA,7.774269928966062,NA
02186,Norfolk County,MA,8.484609313338595,NA
02188,Norfolk County,MA,NA,42.4496644295302
02190,Norfolk County,MA,20.047355958958168,NA
02301,Plymouth County,MA,0.2762430939226519,NA
02324,Plymouth County,MA,93.84372533543804,24.328859060402685
02332,Plymouth County,MA,66.06156274664562,NA
02343,Norfolk County,MA,63.65430149960537,NA
02360,Plymouth County,MA,0.35516969218626676,NA
02368,Norfolk County,MA,46.13259668508287,NA
02370,Plymouth County,MA,NA,25.503355704697988
02446,Norfolk County,MA,13.022888713496448,6.208053691275168
02452,Middlesex County,MA,96.05367008681925,NA
02453,Middlesex County,MA,NA,15.939597315436242
02465,Middlesex County,MA,NA,52.013422818791945
02467,Norfolk County,MA,NA,30.536912751677853
02474,Middlesex County,MA,75.88792423046567,NA
02476,Middlesex County,MA,78.05840568271508,NA
02482,Norfolk County,MA,67.24546172059985,81.04026845637584
02493,Middlesex County,MA,58.958168902920285,NA
02494,Norfolk County,MA,80.18942383583267,NA
02537,Barnstable County,MA,83.30702446724545,NA
02554,Nantucket County,MA,NA,83.05369127516778
02632,Barnstable County,MA,71.74427782162589,NA
02644,Barnstable County,MA,98.53985793212313,NA
02648,Barnstable County,MA,NA,88.9261744966443
02717,Bristol County,MA,80.46566692975533,NA
02723,Bristol County,MA,24.19100236779795,NA
02724,Bristol County,MA,2.091554853985793,NA
02744,Bristol County,MA,88.83188634569849,NA
02748,Bristol County,MA,NA,83.7248322147651
02766,Bristol County,MA,12.194159431728492,NA
02790,Bristol County,MA,14.483030781373325,NA
48044,Macomb County,MI,4.89344909234412,NA
48047,Macomb County,MI,34.72770323599053,NA
48054,St. Clair County,MI,87.7663772691397,NA
48066,Macomb County,MI,1.8153117600631412,NA
48071,Oakland County,MI,NA,39.09395973154363
48075,Oakland County,MI,NA,32.88590604026846
48080,Macomb County,MI,27.584846093133386,NA
48084,Oakland County,MI,73.32280978689818,NA
48092,Macomb County,MI,56.156274664561955,NA
48101,Wayne County,MI,15.864246250986582,NA
48103,Washtenaw County,MI,9.116022099447514,NA
48105,Washtenaw County,MI,NA,15.771812080536913
48111,Wayne County,MI,NA,6.0402684563758395
48116,Livingston County,MI,NA,16.2751677852349
48124,Wayne County,MI,13.338595106550907,NA
48125,Wayne County,MI,47.71112865035517,NA
48126,Wayne County,MI,6.077348066298343,NA
48135,Wayne County,MI,47.750591949486974,NA
48138,Wayne County,MI,90.4498816101026,NA
48146,Wayne County,MI,24.388318863456984,NA
48152,Wayne County,MI,74.70402525651144,5.5369127516778525
48154,Wayne County,MI,84.0568271507498,NA
48161,Monroe County,MI,4.498816101026046,NA
48162,Monroe County,MI,7.655880031570639,NA
48167,Oakland County,MI,31.097079715864247,NA
48170,Wayne County,MI,8.445146014206788,NA
48174,Wayne County,MI,21.783741120757696,NA
48176,Washtenaw County,MI,31.846882399368585,NA
48180,Wayne County,MI,1.2628255722178374,NA
48185,Wayne County,MI,3.314917127071823,NA
48187,Wayne County,MI,6.1168113654301495,NA
48188,Wayne County,MI,7.892659826361484,NA
48192,Wayne County,MI,11.799526440410418,NA
48197,Washtenaw County,MI,9.037095501183899,NA
48202,Wayne County,MI,22.336227308603,NA
48203,Wayne County,MI,77.1902131018153,NA
48204,Wayne County,MI,61.76006314127861,NA
48205,Wayne County,MI,45.54064719810576,14.93288590604027
48207,Wayne County,MI,80.42620363062352,NA
48210,Wayne County,MI,17.876874506708763,NA
48213,Wayne County,MI,6.471981057616416,NA
48214,Wayne County,MI,13.220205209155486,NA
48215,Wayne County,MI,28.334648776637728,NA
48218,Wayne County,MI,NA,83.38926174496645
48219,Wayne County,MI,16.4956590370955,NA
48221,Wayne County,MI,2.9597474348855566,NA
48225,Wayne County,MI,64.56195737963694,NA
48226,Wayne County,MI,92.73875295974744,NA
48227,Wayne County,MI,11.523283346487766,NA
48228,Wayne County,MI,0.6708760852407262,NA
48235,Wayne County,MI,1.0655090765588004,NA
48236,Wayne County,MI,22.888713496448304,NA
48237,Oakland County,MI,64.12786108918705,20.63758389261745
48238,Wayne County,MI,2.841357537490134,NA
48239,Wayne County,MI,58.68192580899764,NA
48310,Macomb County,MI,10.220994475138122,NA
48312,Macomb County,MI,17.324388318863456,NA
48316,Macomb County,MI,65.15390686661405,NA
48322,Oakland County,MI,33.859510655090766,NA
48324,Oakland County,MI,52.60457774269929,NA
48326,Oakland County,MI,42.69928966061563,NA
48329,Oakland County,MI,24.861878453038674,NA
48331,Oakland County,MI,28.650355169692187,NA
48334,Oakland County,MI,NA,37.919463087248324
48335,Oakland County,MI,42.5414364640884,NA
48342,Oakland County,MI,8.958168902920285,NA
48356,Oakland County,MI,87.09550118389897,NA
48371,Oakland County,MI,28.84767166535122,NA
48377,Oakland County,MI,82.991318074191,76.34228187919463
48381,Oakland County,MI,58.76085240726125,59.06040268456376
48386,Oakland County,MI,54.57774269928966,46.4765100671141
48430,Genesee County,MI,17.640094711917918,NA
48451,Genesee County,MI,69.53433307024467,NA
48503,Genesee County,MI,NA,21.476510067114095
48504,Genesee County,MI,40.9629044988161,NA
48601,Saginaw County,MI,0.8681925808997633,NA
48602,Saginaw County,MI,2.0126282557221784,NA
48603,Saginaw County,MI,NA,8.724832214765101
48616,Saginaw County,MI,47.98737174427782,NA
48642,Midland County,MI,NA,6.879194630872483
48655,Saginaw County,MI,58.12943962115232,NA
48708,Bay County,MI,4.656669297553275,NA
48750,Iosco County,MI,68.03472770323599,NA
48768,Tuscola County,MI,76.16416732438832,NA
48809,Ionia County,MI,NA,77.3489932885906
48840,Ingham County,MI,NA,65.93959731543623
48842,Ingham County,MI,63.65430149960537,NA
48843,Livingston County,MI,32.67561168113654,NA
48864,Ingham County,MI,65.4301499605367,79.53020134228188
48911,Ingham County,MI,20.32359905288082,NA
48912,Ingham County,MI,43.646408839779006,NA
49008,Kalamazoo County,MI,NA,54.530201342281885
49009,Kalamazoo County,MI,74.26992896606156,NA
49022,Berrien County,MI,27.308602999210734,NA
49042,St. Joseph County,MI,95.54064719810576,NA
49079,Van Buren County,MI,63.812154696132595,NA
49080,Allegan County,MI,34.41199684293607,NA
49090,Van Buren County,MI,50,NA
49091,St. Joseph County,MI,36.582478295185474,NA
49201,Jackson County,MI,5.288082083662194,NA
49319,Kent County,MI,21.86266771902131,NA
49346,Mecosta County,MI,NA,71.81208053691275
49401,Ottawa County,MI,50.355169692186266,NA
49423,Ottawa County,MI,7.261247040252565,NA
49424,Ottawa County,MI,NA,12.080536912751679
49442,Muskegon County,MI,12.115232833464876,NA
49445,Muskegon County,MI,27.821625887924228,NA
49461,Muskegon County,MI,NA,69.79865771812081
49464,Ottawa County,MI,43.05445935280189,NA
49503,Kent County,MI,6.43251775848461,NA
49504,Kent County,MI,8.87924230465667,NA
49506,Kent County,MI,49.96053670086819,NA
49507,Kent County,MI,73.52012628255721,NA
49508,Kent County,MI,36.54301499605367,NA
49509,Kent County,MI,NA,17.78523489932886
49548,Kent County,MI,41.63378058405683,NA
49643,Grand Traverse County,MI,97.11917916337805,NA
49646,Kalkaska County,MI,74.86187845303867,NA
49837,Delta County,MI,44.277821625887924,NA
49841,Marquette County,MI,79.71586424625099,NA
49849,Marquette County,MI,NA,57.04697986577181
49931,Houghton County,MI,NA,75
49938,Gogebic County,MI,86.62194159431729,NA
55011,Anoka County,MN,90.05524861878453,NA
55049,Steele County,MN,98.30307813733228,NA
55060,Steele County,MN,28.57142857142857,NA
55069,Chisago County,MN,95.85635359116023,NA
55075,Dakota County,MN,66.17995264404104,NA
55082,Washington County,MN,25.651144435674823,NA
55101,Ramsey County,MN,59.31333859510654,NA
55104,Ramsey County,MN,9.31333859510655,NA
55106,Ramsey County,MN,20.718232044198896,NA
55125,Washington County,MN,31.80741910023678,NA
55128,Washington County,MN,40.094711917916335,NA
55347,Hennepin County,MN,59.66850828729282,NA
55350,McLeod County,MN,NA,32.21476510067114
55354,McLeod County,MN,99.88161010260458,NA
55364,Hennepin County,MN,92.62036306235201,NA
55387,Carver County,MN,70.71823204419888,NA
55391,Hennepin County,MN,83.62273086029992,NA
55405,Hennepin County,MN,77.46645619573796,NA
55407,Hennepin County,MN,NA,5.87248322147651
55410,Hennepin County,MN,80.8208366219416,NA
55411,Hennepin County,MN,1.3812154696132597,NA
55421,Anoka County,MN,14.24625098658248,NA
55422,Hennepin County,MN,22.415153906866614,NA
55425,Hennepin County,MN,88.87134964483032,NA
55428,Hennepin County,MN,13.101815311760062,NA
55430,Hennepin County,MN,41.59431728492502,NA
55438,Hennepin County,MN,NA,79.0268456375839
55441,Hennepin County,MN,65.50907655880032,NA
55443,Hennepin County,MN,23.283346487766376,NA
55446,Hennepin County,MN,96.2115232833465,NA
55792,St. Louis County,MN,27.97947908445146,NA
55802,St. Louis County,MN,70.52091554853985,NA
55803,St. Louis County,MN,61.32596685082873,NA
55810,St. Louis County,MN,87.29281767955801,NA
55904,Olmsted County,MN,28.018942383583266,NA
56001,Blue Earth County,MN,23.638516179952642,NA
56003,Nicollet County,MN,81.9258089976322,NA
56074,Nicollet County,MN,NA,100
56085,Brown County,MN,96.8034727703236,NA
56301,Stearns County,MN,35.003946329913184,NA
56358,Kanabec County,MN,99.05288082083662,NA
56364,Morrison County,MN,99.56590370955011,NA
56381,Pope County,MN,99.60536700868192,NA
56520,Wilkin County,MN,69.85003946329913,NA
56763,Roseau County,MN,70.59984214680347,NA
38637,DeSoto County,MS,84.017363851618,NA
38654,DeSoto County,MS,48.53985793212313,NA
38671,DeSoto County,MS,75.5722178374112,58.22147651006711
38680,DeSoto County,MS,96.68508287292818,NA
38732,Bolivar County,MS,NA,43.624161073825505
38868,Lee County,MS,98.4214680347277,NA
39046,Madison County,MS,19.968429360694554,NA
39047,Rankin County,MS,44.554064719810576,NA
39051,Leake County,MS,NA,64.42953020134227
39073,Rankin County,MS,56.27466456195738,NA
39074,Scott County,MS,63.53591160220995,NA
39083,Copiah County,MS,71.94159431728492,NA
39092,Scott County,MS,91.79163378058406,NA
39095,Holmes County,MS,81.3733228097869,NA
39110,Madison County,MS,64.71981057616418,NA
39117,Scott County,MS,74.03314917127072,NA
39120,Adams County,MS,32.951854775059196,NA
39157,Madison County,MS,92.26519337016575,81.87919463087249
39168,Smith County,MS,90.13417521704814,NA
39169,Holmes County,MS,99.80268350434096,NA
39170,Hinds County,MS,78.09786898184689,NA
39183,Warren County,MS,56.9060773480663,NA
39209,Hinds County,MS,15.824782951854774,NA
39213,Hinds County,MS,60.89187056037885,NA
39272,Hinds County,MS,73.08602999210734,NA
39301,Lauderdale County,MS,12.430939226519337,NA
39307,Lauderdale County,MS,30.820836621941595,NA
39401,Forrest County,MS,23.677979479084453,NA
39439,Jasper County,MS,89.8184688239937,NA
39451,Greene County,MS,NA,98.99328859060402
39465,Forrest County,MS,63.49644830307813,NA
39479,Covington County,MS,94.27782162588792,NA
39532,Harrison County,MS,34.88555643251775,NA
39540,Harrison County,MS,75.05919494869772,NA
39564,Jackson County,MS,NA,33.38926174496644
39577,Stone County,MS,85.55643251775848,NA
63026,St. Louis County,MO,27.466456195737965,11.577181208053691
63051,Jefferson County,MO,57.57695343330702,NA
63084,Franklin County,MO,45.61957379636938,NA
63110,St. Louis city,MO,74.26992896606156,NA
63115,St. Louis city,MO,40.48934490923441,NA
63131,St. Louis County,MO,87.96369376479873,NA
63137,St. Louis County,MO,NA,46.644295302013425
63138,St. Louis County,MO,NA,51.84563758389261
63304,St. Charles County,MO,22.17837411207577,51.174496644295296
63801,Scott County,MO,15.390686661404892,NA
64012,Cass County,MO,19.376479873717443,NA
64014,Jackson County,MO,14.167324388318864,NA
64029,Jackson County,MO,30.505130228887133,NA
64030,Jackson County,MO,11.641673243883188,NA
64037,Lafayette County,MO,NA,81.3758389261745
64040,Johnson County,MO,NA,85.40268456375838
64050,Jackson County,MO,57.77426992896606,NA
64052,Jackson County,MO,6.235201262825572,NA
64055,Jackson County,MO,22.61247040252565,7.38255033557047
64058,Jackson County,MO,96.36937647987371,NA
64063,Jackson County,MO,30.26835043409629,NA
64067,Lafayette County,MO,58.80031570639306,NA
64068,Clay County,MO,24.980268350434095,NA
64081,Jackson County,MO,37.49013417521705,NA
64082,Jackson County,MO,63.57537490134175,NA
64093,Johnson County,MO,60.81294396211523,NA
64111,Jackson County,MO,18.153117600631415,NA
64113,Jackson County,MO,60.29992107340174,NA
64116,Clay County,MO,16.890292028413576,NA
64118,Clay County,MO,NA,7.046979865771812
64128,Jackson County,MO,13.535911602209943,NA
64130,Jackson County,MO,64.20678768745067,22.483221476510067
64131,Jackson County,MO,56.62983425414365,NA
64132,Jackson County,MO,9.31333859510655,NA
64134,Jackson County,MO,8.089976322020522,NA
64151,Platte County,MO,23.36227308602999,73.99328859060402
64152,Platte County,MO,13.101815311760062,NA
64154,Platte County,MO,67.71902131018153,NA
64155,Clay County,MO,47.8689818468824,24.161073825503358
64401,Buchanan County,MO,96.09313338595106,NA
64503,Buchanan County,MO,69.02131018153118,NA
64506,Buchanan County,MO,12.588792423046566,NA
64720,Bates County,MO,98.18468823993686,NA
65270,Randolph County,MO,20.91554853985793,NA
65459,Pulaski County,MO,NA,95.46979865771812
65565,Crawford County,MO,NA,97.98657718120806
65706,Webster County,MO,77.1507498026835,NA
65738,Greene County,MO,NA,80.36912751677853
65803,Greene County,MO,28.216258879242307,NA
59405,Cascade County,MT,55.05130228887135,NA
59714,Gallatin County,MT,58.484609313338595,NA
59725,Beaverhead County,MT,89.77900552486187,NA
59803,Missoula County,MT,82.51775848460932,78.85906040268456
59828,Ravalli County,MT,97.23756906077348,NA
59901,Flathead County,MT,23.441199684293608,NA
59937,Flathead County,MT,89.06866614048936,NA
68111,Douglas County,NE,13.733228097868983,NA
68123,Sarpy County,NE,57.9321231254933,NA
68128,Sarpy County,NE,75.05919494869772,NA
68154,Douglas County,NE,77.82162588792423,NA
68355,Richardson County,NE,NA,86.0738255033557
68434,Seward County,NE,90.52880820836621,NA
68505,Lancaster County,NE,77.50591949486977,NA
68510,Lancaster County,NE,71.90213101815311,NA
68512,Lancaster County,NE,91.27861089187056,NA
68521,Lancaster County,NE,90.64719810576165,NA
68776,Dakota County,NE,91.4364640883978,NA
68801,Hall County,NE,NA,71.14093959731544
68845,Buffalo County,NE,79.12391475927387,NA
69101,Lincoln County,NE,48.77663772691397,NA
89101,Clark County,NV,20.284135753749013,NA
89102,Clark County,NV,42.18626677190213,NA
89118,Clark County,NV,94.83030781373323,NA
89122,Clark County,NV,17.837411207576952,NA
89123,Clark County,NV,43.52801894238358,NA
89147,Clark County,NV,31.96527229676401,NA
89169,Clark County,NV,45.06708760852407,NA
89436,Washoe County,NV,15.785319652722968,NA
89519,Washoe County,NV,99.13180741910024,NA
03055,Hillsborough County,NH,38.003157063930544,NA
03062,Hillsborough County,NH,11.996842936069456,NA
03063,Hillsborough County,NH,81.53117600631413,NA
03076,Hillsborough County,NH,36.42462509865825,NA
03077,Rockingham County,NH,86.50355169692186,NA
03079,Rockingham County,NH,9.589581689029202,NA
03110,Hillsborough County,NH,88.75295974743489,NA
03446,Cheshire County,NH,NA,96.81208053691275
03743,Sullivan County,NH,NA,43.79194630872483
03755,Grafton County,NH,99.28966061562747,NA
03811,Rockingham County,NH,92.69928966061562,NA
03842,Rockingham County,NH,64.60142067876875,NA
03865,Rockingham County,NH,58.958168902920285,NA
03885,Rockingham County,NH,88.27940015785319,NA
03894,Carroll County,NH,NA,84.06040268456377
07001,Middlesex County,NJ,59.194948697711126,NA
07008,Middlesex County,NJ,18.113654301499604,NA
07013,Passaic County,NJ,32.08366219415943,NA
07017,Essex County,NJ,NA,53.355704697986575
07018,Essex County,NJ,36.97711128650355,NA
07036,Union County,NJ,5.761641673243883,NA
07047,Hudson County,NJ,92.89660615627466,NA
07050,Essex County,NJ,6.511444356748224,NA
07052,Essex County,NJ,9.19494869771113,NA
07059,Somerset County,NJ,79.55801104972376,NA
07078,Essex County,NJ,88.51617995264404,NA
07083,Union County,NJ,10.142067876874506,NA
07090,Union County,NJ,NA,67.9530201342282
07094,Hudson County,NJ,52.446724546172064,NA
07103,Essex County,NJ,32.79400157853197,NA
07104,Essex County,NJ,NA,4.194630872483222
07105,Essex County,NJ,NA,31.3758389261745
07108,Essex County,NJ,33.70165745856354,20.469798657718123
07109,Essex County,NJ,8.721389108129438,NA
07110,Essex County,NJ,68.58721389108129,NA
07111,Essex County,NJ,51.18389897395422,NA
07201,Union County,NJ,4.41988950276243,NA
07305,Hudson County,NJ,0.1973164956590371,NA
07306,Hudson County,NJ,2.999210734017364,NA
07405,Morris County,NJ,76.91397000789266,NA
07410,Bergen County,NJ,40.68666140489345,NA
07422,Sussex County,NJ,94.27782162588792,NA
07438,Morris County,NJ,83.03078137332281,NA
07442,Passaic County,NJ,NA,76.84563758389261
07450,Bergen County,NJ,73.44119968429361,NA
07470,Passaic County,NJ,58.91870560378848,NA
07501,Passaic County,NJ,0.8287292817679558,NA
07508,Passaic County,NJ,21.231254932912393,NA
07514,Passaic County,NJ,56.78768745067087,NA
07524,Passaic County,NJ,71.86266771902132,NA
07601,Bergen County,NJ,3.5516969218626673,NA
07628,Bergen County,NJ,95.2249408050513,NA
07631,Bergen County,NJ,20.67876874506709,NA
07712,Monmouth County,NJ,1.4601420678768744,NA
07719,Monmouth County,NJ,30.899763220205205,NA
07724,Monmouth County,NJ,19.258089976322022,NA
07728,Monmouth County,NJ,NA,14.597315436241612
07730,Monmouth County,NJ,87.1744277821626,NA
07734,Monmouth County,NJ,14.3646408839779,NA
07738,Monmouth County,NJ,NA,94.46308724832215
07747,Monmouth County,NJ,24.704025256511443,NA
07753,Monmouth County,NJ,3.0386740331491713,NA
07755,Monmouth County,NJ,89.22651933701657,NA
07760,Monmouth County,NJ,96.88239936858722,NA
07834,Morris County,NJ,99.32912391475928,NA
07853,Morris County,NJ,93.409629044988165,NA
07860,Sussex County,NJ,18.38989739542226,NA
07940,Morris County,NJ,93.72533543804262,NA
07946,Morris County,NJ,99.4080505130229,NA
07950,Morris County,NJ,55.09076558800315,NA
07960,Morris County,NJ,42.50197316495659,NA
08007,Camden County,NJ,98.46093133385952,NA
08012,Camden County,NJ,3.3543804262036305,NA
08015,Burlington County,NJ,9.47119179163378,NA
08016,Burlington County,NJ,1.6574585635359116,NA
08021,Camden County,NJ,0.07892659826361484,NA
08028,Gloucester County,NJ,11.838989739542226,NA
08033,Camden County,NJ,59.392265193370164,NA
08043,Camden County,NJ,34.84609313338595,NA
08046,Burlington County,NJ,19.297553275453826,26.34228187919463
08054,Burlington County,NJ,77.62430939226519,NA
08057,Burlington County,NJ,53.70955011838989,NA
08060,Burlington County,NJ,9.707971586424625,NA
08081,Camden County,NJ,30.584056827150754,NA
08085,Gloucester County,NJ,16.33780584056827,NA
08106,Camden County,NJ,85.67482241515391,NA
08108,Camden County,NJ,54.73559589581689,NA
08109,Camden County,NJ,80.58405682715075,41.61073825503356
08201,Atlantic County,NJ,46.72454617205998,NA
08234,Atlantic County,NJ,2.2888713496448303,50
08302,Cumberland County,NJ,16.140489344909234,NA
08401,Atlantic County,NJ,6.3141278610891876,NA
08610,Mercer County,NJ,4.538279400157854,NA
08618,Mercer County,NJ,0.3946329913180742,NA
08620,Mercer County,NJ,78.57142857142857,NA
08690,Mercer County,NJ,67.36385161799527,NA
08691,Mercer County,NJ,NA,89.93288590604027
08721,Ocean County,NJ,17.24546172059984,NA
08724,Ocean County,NJ,5.564325177584846,NA
08736,Monmouth County,NJ,81.13654301499605,NA
08742,Ocean County,NJ,21.625887924230465,NA
08758,Ocean County,NJ,78.88713496448302,NA
08759,Ocean County,NJ,NA,1.6778523489932886
08802,Hunterdon County,NJ,NA,97.48322147651007
08807,Somerset County,NJ,NA,97.31543624161074
08820,Middlesex County,NJ,NA,26.006711409395972
08857,Middlesex County,NJ,4.8539857932123125,NA
08859,Middlesex County,NJ,72.8887134964483,65.1006711409396
08861,Middlesex County,NJ,17.363851617995266,NA
08865,Warren County,NJ,2.8018942383583267,NA
08873,Somerset County,NJ,8.997632202052092,NA
08901,Middlesex County,NJ,16.574585635359114,NA
87043,Sandoval County,NM,NA,82.71812080536914
87105,Bernalillo County,NM,44.35674822415154,NA
87108,Bernalillo County,NM,3.7884767166535127,NA
87110,Bernalillo County,NM,7.18232044198895,NA
87113,Bernalillo County,NM,73.00710339384374,NA
87114,Bernalillo County,NM,NA,15.100671140939598
87544,Los Alamos County,NM,55.209155485398576,61.57718120805369
87571,Taos County,NM,NA,53.187919463087255
88001,Doa Ana County,NM,69.53433307024467,NA
88008,Doa Ana County,NM,97.90844514601422,NA
88011,Doa Ana County,NM,44.988161010260455,NA
88012,Doa Ana County,NM,25.80899763220205,NA
88231,Lea County,NM,87.37174427782163,NA
88242,Lea County,NM,90.25256511444357,NA
88260,Lea County,NM,31.491712707182316,NA
88310,Otero County,NM,16.574585635359114,NA
10003,New York County,NY,43.804262036306234,NA
10009,New York County,NY,80.03157063930544,NA
10011,New York County,NY,94.79084451460142,NA
10017,New York County,NY,95.2249408050513,NA
10024,New York County,NY,NA,62.91946308724832
10031,New York County,NY,5.011838989739542,NA
10033,New York County,NY,10.576164167324388,NA
10034,New York County,NY,25.09865824782952,72.98657718120806
10036,New York County,NY,63.33859510655091,NA
10038,New York County,NY,NA,44.966442953020135
10040,New York County,NY,58.16890292028414,NA
10302,Richmond County,NY,69.1791633780584,NA
10303,Richmond County,NY,93.25177584846092,NA
10304,Richmond County,NY,68.23204419889503,NA
10306,Richmond County,NY,12.904498816101025,NA
10309,Richmond County,NY,51.34175217048145,NA
10314,Richmond County,NY,32.35990528808209,NA
10451,Bronx County,NY,10.812943962115233,NA
10452,Bronx County,NY,62.470402525651146,NA
10453,Bronx County,NY,19.850039463299133,0.6711409395973155
10454,Bronx County,NY,63.45698500394633,NA
10455,Bronx County,NY,64.9171270718232,NA
10456,Bronx County,NY,4.972375690607735,NA
10457,Bronx County,NY,26.677190213101813,NA
10458,Bronx County,NY,2.565114443567482,NA
10459,Bronx County,NY,16.37726913970008,NA
10460,Bronx County,NY,54.14364640883977,NA
10461,Bronx County,NY,65.15390686661405,NA
10462,Bronx County,NY,19.337016574585636,NA
10465,Bronx County,NY,81.64956590370956,NA
10466,Bronx County,NY,79.2028413575375,NA
10467,Bronx County,NY,25.57221783741121,NA
10468,Bronx County,NY,56.3930544593528,57.71812080536913
10469,Bronx County,NY,1.617995264404104,37.41610738255034
10472,Bronx County,NY,NA,17.953020134228186
10473,Bronx County,NY,2.4861878453038675,NA
10543,Westchester County,NY,62.74664561957379,NA
10550,Westchester County,NY,84.49092344119968,NA
10552,Westchester County,NY,80.97868981846882,NA
10562,Westchester County,NY,67.0481452249408,NA
10566,Westchester County,NY,48.34254143646409,NA
10591,Westchester County,NY,57.813733228097874,NA
10708,Westchester County,NY,NA,83.55704697986577
10801,Westchester County,NY,23.99368587213891,NA
10901,Rockland County,NY,84.41199684293606,NA
10954,Rockland County,NY,47.19810576164167,NA
10977,Rockland County,NY,23.599052880820835,NA
10980,Rockland County,NY,95.77742699289661,NA
11105,Queens County,NY,79.24230465666929,NA
11201,Kings County,NY,14.04893449092344,22.818791946308725
11204,Kings County,NY,20.560378847671664,NA
11206,Kings County,NY,9.78689818468824,1.342281879194631
11208,Kings County,NY,51.53906866614049,13.087248322147651
11210,Kings County,NY,34.21468034727703,NA
11212,Kings County,NY,12.075769534333071,NA
11213,Kings County,NY,NA,56.54362416107382
11215,Kings County,NY,25.21704814522494,NA
11216,Kings County,NY,6.393054459352802,NA
11218,Kings County,NY,39.14759273875296,NA
11219,Kings County,NY,55.2880820836622,59.89932885906041
11220,Kings County,NY,27.348066298342545,NA
11221,Kings County,NY,85.99052880820837,NA
11222,Kings County,NY,53.354380426203626,NA
11224,Kings County,NY,42.62036306235201,NA
11225,Kings County,NY,77.38752959747434,NA
11226,Kings County,NY,64.00947119179163,NA
11230,Kings County,NY,38.08208366219416,NA
11231,Kings County,NY,32.75453827940016,NA
11233,Kings County,NY,18.863456985003946,NA
11235,Kings County,NY,31.333859510655092,NA
11236,Kings County,NY,81.76795580110497,NA
11237,Kings County,NY,49.13180741910024,15.604026845637584
11238,Kings County,NY,75.21704814522494,NA
11354,Queens County,NY,38.23993685872139,NA
11357,Queens County,NY,88.55564325177585,NA
11364,Queens County,NY,NA,74.66442953020133
11369,Queens County,NY,47.98737174427782,64.09395973154362
11375,Queens County,NY,71.07340173638516,NA
11377,Queens County,NY,11.128650355169691,NA
11412,Queens County,NY,83.78058405682715,NA
11413,Queens County,NY,39.73954222573008,NA
11419,Queens County,NY,NA,28.523489932885905
11421,Queens County,NY,59.31333859510654,NA
11422,Queens County,NY,61.16811365430151,NA
11428,Queens County,NY,56.98500394632992,NA
11432,Queens County,NY,51.93370165745856,NA
11434,Queens County,NY,68.54775059194948,NA
11435,Queens County,NY,6.550907655880031,54.194630872483216
11553,Nassau County,NY,46.56669297553275,NA
11598,Nassau County,NY,NA,89.59731543624162
11691,Queens County,NY,5.169692186266772,NA
11703,Suffolk County,NY,86.1483820047356,NA
11706,Suffolk County,NY,47.07971586424625,NA
11793,Nassau County,NY,83.42541436464089,NA
12010,Montgomery County,NY,2.920284135753749,NA
12019,Saratoga County,NY,NA,63.08724832214765
12065,Saratoga County,NY,16.25887924230466,NA
12078,Fulton County,NY,2.44672454617206,NA
12144,Rensselaer County,NY,31.176006314127864,NA
12159,Albany County,NY,95.69850039463299,NA
12182,Rensselaer County,NY,40.80505130228887,NA
12309,Schenectady County,NY,93.37016574585635,NA
12401,Ulster County,NY,NA,48.65771812080537
12508,Dutchess County,NY,71.34964483030781,NA
12534,Columbia County,NY,9.273875295974744,NA
12561,Ulster County,NY,89.50276243093923,NA
12590,Dutchess County,NY,NA,66.44295302013423
12701,Sullivan County,NY,68.70560378847672,NA
12901,Clinton County,NY,1.5785319652722969,NA
13021,Cayuga County,NY,1.7363851617995265,17.28187919463087
13027,Onondaga County,NY,8.366219415943172,17.114093959731544
13036,Oswego County,NY,51.42067876874506,NA
13078,Onondaga County,NY,48.934490923441196,NA
13080,Onondaga County,NY,99.01341752170481,NA
13090,Onondaga County,NY,10.260457774269929,NA
13140,Cayuga County,NY,77.97947908445147,NA
13142,Oswego County,NY,61.523283346487766,NA
13143,Wayne County,NY,97.63220205209156,NA
13165,Seneca County,NY,19.060773480662984,NA
13204,Onondaga County,NY,6.906077348066299,NA
13205,Onondaga County,NY,8.011049723756907,NA
13208,Onondaga County,NY,7.537490134175218,NA
13209,Onondaga County,NY,70.00789265982637,NA
13214,Onondaga County,NY,77.26913970007892,NA
13309,Oneida County,NY,60.93133385951065,NA
13323,Oneida County,NY,61.40489344909235,NA
13346,Madison County,NY,91.87056037884767,NA
13357,Herkimer County,NY,27.032359905288082,NA
13367,Lewis County,NY,30.228887134964484,NA
13411,Chenango County,NY,70.44198895027624,NA
13440,Oneida County,NY,0.9076558800315706,NA
13460,Chenango County,NY,41.19968429360695,NA
13601,Jefferson County,NY,2.407261247040253,19.29530201342282
13619,Jefferson County,NY,38.12154696132597,NA
13662,St. Lawrence County,NY,22.691397000789266,NA
13697,St. Lawrence County,NY,NA,98.8255033557047
13733,Chenango County,NY,61.957379636937645,63.59060402684564
13753,Delaware County,NY,82.87292817679558,NA
13754,Broome County,NY,87.01657458563537,NA
13815,Chenango County,NY,35.0828729281768,12.919463087248323
13827,Tioga County,NY,15.193370165745856,NA
13856,Delaware County,NY,41.75217048145225,NA
13901,Broome County,NY,2.1704814522494082,NA
13905,Broome County,NY,7.300710339384373,4.697986577181208
14051,Erie County,NY,32.478295185477506,NA
14057,Erie County,NY,72.336227308603,NA
14072,Erie County,NY,66.33780584056828,NA
14094,Niagara County,NY,0.9471191791633782,NA
14098,Orleans County,NY,NA,95.9731543624161
14105,Niagara County,NY,94.39621152328334,NA
14120,Niagara County,NY,2.644041041831097,NA
14136,Chautauqua County,NY,85.24072612470403,NA
14206,Erie County,NY,8.208366219415943,NA
14207,Erie County,NY,4.814522494080506,NA
14208,Erie County,NY,20.91554853985793,27.348993288590606
14213,Erie County,NY,12.66771902131018,NA
14214,Erie County,NY,NA,46.97986577181208
14215,Erie County,NY,7.576953433307025,NA
14216,Erie County,NY,19.771112865035516,43.95973154362416
14217,Erie County,NY,17.75848460931334,NA
14221,Erie County,NY,6.8271507498026835,NA
14224,Erie County,NY,17.442778216258876,7.885906040268456
14304,Niagara County,NY,33.109707971586424,NA
14423,Livingston County,NY,84.13575374901342,NA
14424,Ontario County,NY,NA,0.8389261744966443
14425,Ontario County,NY,NA,26.174496644295303
14428,Monroe County,NY,36.621941594317285,NA
14450,Monroe County,NY,25.295974743488554,1.174496644295302
14456,Ontario County,NY,4.262036306235202,NA
14464,Monroe County,NY,43.370165745856355,NA
14469,Ontario County,NY,32.87292817679558,NA
14485,Livingston County,NY,NA,94.96644295302013
14489,Wayne County,NY,NA,32.5503355704698
14502,Wayne County,NY,53.31491712707182,NA
14514,Monroe County,NY,60.29992107340174,NA
14534,Monroe County,NY,NA,2.013422818791946
14559,Monroe County,NY,50.355169692186266,NA
14564,Ontario County,NY,12.943962115232832,NA
14580,Monroe County,NY,0.31570639305445936,0.16778523489932887
14605,Monroe County,NY,5.406471981057616,NA
14609,Monroe County,NY,24.940805051302288,NA
14612,Monroe County,NY,35.240726124704025,NA
14613,Monroe County,NY,6.787687450670877,NA
14615,Monroe County,NY,30.189423835832674,NA
14617,Monroe County,NY,3.6306235201262824,NA
14618,Monroe County,NY,10.69455406471981,NA
14621,Monroe County,NY,3.196527229676401,NA
14623,Monroe County,NY,39.384372533543804,NA
14624,Monroe County,NY,24.585635359116022,2.684563758389262
14626,Monroe County,NY,11.247040252565114,NA
14701,Chautauqua County,NY,NA,2.1812080536912752
14706,Cattaraugus County,NY,49.60536700868193,NA
14772,Cattaraugus County,NY,NA,99.32885906040269
14801,Steuben County,NY,69.7711128650355,NA
14870,Steuben County,NY,53.117600631412785,NA
14883,Tioga County,NY,93.33070244672454,NA
27018,Yadkin County,NC,68.0741910023678,NA
27041,Surry County,NC,NA,74.16107382550335
27045,Forsyth County,NC,88.20047355958958,NA
27052,Stokes County,NC,58.60299921073402,NA
27055,Yadkin County,NC,57.182320441988956,NA
27103,Forsyth County,NC,9.037095501183899,NA
27105,Forsyth County,NC,1.1049723756906076,21.644295302013422
27106,Forsyth County,NC,8.050513022888714,NA
27107,Forsyth County,NC,14.167324388318864,NA
27127,Forsyth County,NC,68.66614048934491,NA
27203,Randolph County,NC,18.705603788476715,NA
27253,Alamance County,NC,10.418310970797158,NA
27260,Guilford County,NC,15.430149960536701,NA
27262,Guilford County,NC,31.649565903709547,NA
27278,Orange County,NC,46.882399368587215,12.416107382550337
27288,Rockingham County,NC,34.17521704814522,NA
27295,Davidson County,NC,13.417521704814522,NA
27360,Davidson County,NC,NA,4.530201342281879
27406,Guilford County,NC,2.3283346487766376,NA
27407,Guilford County,NC,42.06787687450671,38.422818791946305
27504,Johnston County,NC,55.485398579321235,NA
27514,Orange County,NC,51.34175217048145,NA
27516,Orange County,NC,NA,11.241610738255034
27519,Wake County,NC,NA,56.711409395973156
27530,Wayne County,NC,8.800315706393054,NA
27572,Person County,NC,83.89897395422258,NA
27587,Wake County,NC,14.68034727703236,NA
27592,Wake County,NC,63.85161799526441,NA
27596,Franklin County,NC,57.537490134175215,NA
27604,Wake County,NC,24.78295185477506,NA
27606,Wake County,NC,37.84530386740331,NA
27610,Wake County,NC,4.222573007103394,5.704697986577181
27612,Wake County,NC,50.43409629044988,NA
27613,Wake County,NC,40.88397790055249,NA
27615,Wake County,NC,31.136543014996054,NA
27701,Durham County,NC,38.59510655090765,NA
27703,Durham County,NC,29.16337805840568,NA
27705,Durham County,NC,46.44830307813733,NA
27707,Durham County,NC,32.83346487766377,NA
27834,Pitt County,NC,4.064719810576165,NA
27870,Halifax County,NC,15.588003157063932,NA
27909,Pasquotank County,NC,33.46487766377269,11.409395973154362
27954,Dare County,NC,92.14680347277032,NA
28012,Gaston County,NC,96.96132596685084,NA
28027,Cabarrus County,NC,12.39147592738753,NA
28043,Rutherford County,NC,30.3078137332281,NA
28078,Mecklenburg County,NC,23.4017363851618,NA
28086,Cleveland County,NC,17.205998421468035,NA
28144,Rowan County,NC,26.045777426992895,NA
28203,Mecklenburg County,NC,78.1767955801105,NA
28209,Mecklenburg County,NC,77.26913970007892,NA
28214,Mecklenburg County,NC,21.11286503551697,NA
28215,Mecklenburg County,NC,9.431728492501973,NA
28227,Mecklenburg County,NC,63.25966850828729,NA
28269,Mecklenburg County,NC,8.168902920284134,NA
28277,Mecklenburg County,NC,66.25887924230466,NA
28278,Mecklenburg County,NC,NA,79.19463087248322
28304,Cumberland County,NC,72.96764009471191,NA
28315,Moore County,NC,89.66061562746646,NA
28328,Sampson County,NC,84.64877663772693,NA
28351,Scotland County,NC,67.5217048145225,NA
28376,Hoke County,NC,NA,35.06711409395973
28383,Robeson County,NC,92.22573007103394,NA
28411,New Hanover County,NC,28.09786898184688,NA
28412,New Hanover County,NC,NA,27.01342281879195
28425,Pender County,NC,NA,63.25503355704698
28431,Columbus County,NC,69.1791633780584,NA
28443,Pender County,NC,77.54538279400158,NA
28461,Brunswick County,NC,34.37253354380426,NA
28546,Onslow County,NC,51.302288871349646,NA
28557,Carteret County,NC,73.00710339384374,NA
28586,Craven County,NC,92.77821625887924,NA
28601,Catawba County,NC,35.319652722967646,NA
28630,Caldwell County,NC,24.62509865824783,NA
28645,Caldwell County,NC,13.45698500394633,NA
28655,Burke County,NC,NA,3.859060402684564
28659,Wilkes County,NC,14.404104183109709,NA
28673,Catawba County,NC,87.37174427782163,NA
28719,Jackson County,NC,37.29281767955801,NA
28761,McDowell County,NC,72.45461720599842,NA
28806,Buncombe County,NC,30.860299921073402,NA
43015,Delaware County,OH,35.87213891081294,NA
43019,Knox County,OH,93.646408839779,NA
43023,Licking County,OH,85.20126282557221,NA
43026,Franklin County,OH,43.843725335438045,NA
43040,Union County,OH,17.995264404104184,NA
43072,Champaign County,OH,85.04340962904499,NA
43110,Franklin County,OH,16.101026045777427,NA
43113,Pickaway County,OH,NA,11.073825503355705
43119,Franklin County,OH,NA,52.51677852348994
43138,Hocking County,OH,22.020520915548538,NA
43147,Fairfield County,OH,16.732438831886345,NA
43204,Franklin County,OH,3.117600631412786,NA
43213,Franklin County,OH,26.716653512233624,NA
43219,Franklin County,OH,9.19494869771113,NA
43224,Franklin County,OH,3.2754538279400154,NA
43228,Franklin County,OH,12.233622730860299,NA
43230,Franklin County,OH,57.9715864246251,14.429530201342283
43235,Franklin County,OH,36.26677190213102,NA
43302,Marion County,OH,1.0260457774269929,NA
43311,Logan County,OH,56.19573796369376,NA
43316,Wyandot County,OH,74.4672454617206,NA
43351,Wyandot County,OH,NA,54.36241610738255
43420,Sandusky County,OH,6.195737963693765,NA
43502,Fulton County,OH,NA,95.30201342281879
43545,Henry County,OH,57.69534333070244,NA
43551,Wood County,OH,34.13575374901342,NA
43558,Fulton County,OH,47.43488555643252,NA
43560,Lucas County,OH,NA,15.100671140939598
43604,Lucas County,OH,33.22809786898185,NA
43607,Lucas County,OH,3.472770323599053,NA
43608,Lucas County,OH,5.0907655880031575,NA
43612,Lucas County,OH,14.561957379636938,NA
43613,Lucas County,OH,1.9337016574585635,NA
43623,Lucas County,OH,18.429360694554063,NA
43723,Guernsey County,OH,54.10418310970797,NA
43906,Belmont County,OH,38.516179952644045,NA
43907,Harrison County,OH,68.90292028413575,NA
43935,Belmont County,OH,38.63456985003946,NA
43938,Jefferson County,OH,73.32280978689818,NA
43952,Jefferson County,OH,NA,10.234899328859061
43953,Jefferson County,OH,58.16890292028414,NA
43964,Jefferson County,OH,17.640094711917918,NA
44011,Lorain County,OH,22.454617205998424,NA
44017,Cuyahoga County,OH,27.782162588792424,NA
44021,Geauga County,OH,NA,88.25503355704699
44028,Lorain County,OH,NA,73.3221476510067
44035,Lorain County,OH,10.576164167324388,NA
44039,Lorain County,OH,4.696132596685083,NA
44044,Lorain County,OH,39.58168902920284,NA
44054,Lorain County,OH,27.229676400947117,NA
44055,Lorain County,OH,5.248618784530387,NA
44057,Lake County,OH,54.025256511444354,NA
44067,Summit County,OH,26.637726913970006,NA
44074,Lorain County,OH,71.74427782162589,NA
44076,Ashtabula County,OH,72.09944751381215,NA
44090,Lorain County,OH,NA,46.81208053691275
44094,Lake County,OH,12.115232833464876,NA
44105,Cuyahoga County,OH,19.021310181531177,NA
44108,Cuyahoga County,OH,10.970797158642462,NA
44110,Cuyahoga County,OH,84.33307024467246,NA
44111,Cuyahoga County,OH,0.5524861878453038,3.1879194630872485
44112,Cuyahoga County,OH,57.616416732438836,NA
44113,Cuyahoga County,OH,23.086029992107342,NA
44116,Cuyahoga County,OH,30.702446724546174,NA
44120,Cuyahoga County,OH,11.602209944751381,NA
44122,Cuyahoga County,OH,48.224151539068664,NA
44125,Cuyahoga County,OH,61.56274664561957,NA
44126,Cuyahoga County,OH,42.0284135753749,NA
44129,Cuyahoga County,OH,NA,14.261744966442953
44130,Cuyahoga County,OH,2.6045777426992895,NA
44131,Cuyahoga County,OH,NA,19.463087248322147
44133,Cuyahoga County,OH,18.745067087608525,NA
44134,Cuyahoga County,OH,23.756906077348066,NA
44135,Cuyahoga County,OH,1.5390686661404893,7.550335570469799
44136,Cuyahoga County,OH,NA,39.93288590604027
44138,Cuyahoga County,OH,24.151539068666143,NA
44139,Cuyahoga County,OH,66.65351223362273,12.248322147651008
44143,Cuyahoga County,OH,92.06787687450671,NA
44145,Cuyahoga County,OH,40.173638516179956,NA
44146,Cuyahoga County,OH,3.749013417521705,NA
44147,Cuyahoga County,OH,38.8318863456985,NA
44149,Cuyahoga County,OH,34.49092344119968,NA
44256,Medina County,OH,2.249408050513023,NA
44266,Portage County,OH,5.445935280189424,NA
44306,Summit County,OH,5.840568271507498,NA
44312,Summit County,OH,8.642462509865826,NA
44313,Summit County,OH,54.775059194948696,NA
44403,Trumbull County,OH,NA,77.51677852348993
44436,Mahoning County,OH,97.27703235990529,NA
44483,Trumbull County,OH,10.063141278610892,NA
44505,Mahoning County,OH,23.125493291239145,NA
44511,Mahoning County,OH,15.90370955011839,NA
44514,Mahoning County,OH,39.26598263614839,NA
44515,Mahoning County,OH,61.68113654301499,NA
44644,Carroll County,OH,89.62115232833466,NA
44646,Stark County,OH,5.722178374112076,NA
44688,Stark County,OH,98.69771112865035,NA
44691,Wayne County,OH,NA,5.033557046979865
44710,Stark County,OH,54.89344909234411,NA
44720,Stark County,OH,NA,21.140939597315437
44857,Huron County,OH,15.232833464877663,NA
44907,Richland County,OH,NA,31.3758389261745
45011,Butler County,OH,1.1838989739542225,NA
45013,Butler County,OH,1.8547750591949488,NA
45036,Warren County,OH,13.812154696132598,NA
45040,Warren County,OH,57.49802683504341,NA
45044,Butler County,OH,86.85872138910813,NA
45066,Warren County,OH,NA,50.671140939597315
45069,Butler County,OH,15.509076558800317,NA
45202,Hamilton County,OH,13.338595106550907,NA
45205,Hamilton County,OH,14.83820047355959,NA
45206,Hamilton County,OH,91.91002367797948,NA
45223,Hamilton County,OH,NA,84.56375838926175
45231,Hamilton County,OH,NA,19.966442953020135
45245,Clermont County,OH,NA,50.50335570469798
45305,Greene County,OH,66.81136543014996,NA
45309,Montgomery County,OH,79.91318074191003,NA
45318,Miami County,OH,98.61878453038673,NA
45324,Greene County,OH,5.801104972375691,NA
45356,Miami County,OH,8.56353591160221,NA
45365,Shelby County,OH,NA,13.25503355704698
45377,Montgomery County,OH,62.98342541436463,NA
45387,Greene County,OH,NA,73.65771812080537
45416,Montgomery County,OH,78.72928176795581,NA
45417,Montgomery County,OH,5.130228887134964,NA
45420,Montgomery County,OH,51.93370165745856,NA
45426,Montgomery County,OH,43.25177584846093,NA
45440,Montgomery County,OH,53.43330702446725,NA
45449,Montgomery County,OH,76.67719021310182,NA
45619,Lawrence County,OH,19.57379636937648,NA
45669,Lawrence County,OH,41.39700078926598,NA
45692,Jackson County,OH,26.874506708760855,NA
45693,Adams County,OH,40.055248618784525,NA
45817,Allen County,OH,80.78137332280978,NA
45822,Mercer County,OH,28.84767166535122,NA
45830,Putnam County,OH,92.81767955801105,NA
45840,Hancock County,OH,10.53670086819258,NA
45850,Allen County,OH,98.3820047355959,NA
45891,Van Wert County,OH,21.468034727703238,NA
73012,Oklahoma County,OK,39.26598263614839,NA
73013,Oklahoma County,OK,NA,8.389261744966444
73036,Canadian County,OK,NA,65.43624161073825
73044,Logan County,OK,NA,13.590604026845638
73105,Oklahoma County,OK,91.5153906866614,NA
73111,Oklahoma County,OK,57.30071033938437,NA
73112,Oklahoma County,OK,NA,80.53691275167785
73129,Oklahoma County,OK,NA,76.34228187919463
73159,Oklahoma County,OK,37.01657458563536,NA
73160,Cleveland County,OK,7.616416732438831,NA
73162,Oklahoma County,OK,41.23914759273875,NA
73533,Stephens County,OK,14.798737174427782,NA
74012,Tulsa County,OK,17.08760852407261,NA
74014,Wagoner County,OK,27.703235990528807,NA
74030,Creek County,OK,97.94790844514601,NA
74037,Tulsa County,OK,95.30386740331491,NA
74070,Osage County,OK,74.62509865824784,NA
74074,Payne County,OK,NA,44.63087248322148
74133,Tulsa County,OK,23.04656669297553,NA
74135,Tulsa County,OK,72.8097868981847,NA
74137,Tulsa County,OK,90.33149171270718,NA
74434,Muskogee County,OK,95.1854775059195,NA
74447,Okmulgee County,OK,60.93133385951065,NA
74820,Pontotoc County,OK,4.932912391475927,4.865771812080537
74857,Cleveland County,OK,72.21783741120757,NA
74859,Okfuskee County,OK,87.09550118389897,NA
74868,Seminole County,OK,62.943962115232836,NA
74955,Sequoyah County,OK,51.14443567482242,NA
97002,Marion County,OR,NA,93.12080536912751
97048,Columbia County,OR,86.06945540647199,NA
97068,Clackamas County,OR,58.72138910812944,NA
97080,Multnomah County,OR,50.15785319652723,NA
97103,Clatsop County,OR,86.97711128650354,NA
97123,Washington County,OR,13.851617995264403,NA
97124,Washington County,OR,52.80189423835833,NA
97211,Multnomah County,OR,88.98973954222573,NA
97215,Multnomah County,OR,NA,74.49664429530202
97219,Multnomah County,OR,79.36069455406471,NA
97220,Multnomah County,OR,26.91397000789266,NA
97222,Clackamas County,OR,21.744277821625886,NA
97223,Washington County,OR,NA,63.42281879194631
97230,Multnomah County,OR,NA,13.758389261744966
97239,Multnomah County,OR,82.75453827940015,NA
97330,Benton County,OR,42.34411996842936,NA
97402,Lane County,OR,44.119968429360696,NA
97420,Coos County,OR,NA,45.63758389261745
97471,Douglas County,OR,11.207576953433307,NA
97478,Lane County,OR,29.40015785319653,NA
97502,Jackson County,OR,30.544593528018943,NA
97702,Deschutes County,OR,NA,42.281879194630875
97734,Jefferson County,OR,99.76322020520915,NA
97801,Umatilla County,OR,26.558800315706392,NA
97838,Umatilla County,OR,11.1681136543015,NA
97882,Umatilla County,OR,76.08524072612471,NA
97913,Malheur County,OR,97.31649565903709,NA
97914,Malheur County,OR,NA,23.322147651006713
15001,Beaver County,PA,NA,17.61744966442953
15012,Westmoreland County,PA,NA,55.033557046979865
15025,Allegheny County,PA,84.17521704814523,NA
15062,Westmoreland County,PA,79.28176795580112,NA
15068,Westmoreland County,PA,NA,9.563758389261745
15102,Allegheny County,PA,NA,28.02013422818792
15131,Allegheny County,PA,96.36937647987371,NA
15132,Allegheny County,PA,6.985003946329914,NA
15140,Allegheny County,PA,97.11917916337805,NA
15206,Allegheny County,PA,11.365430149960536,NA
15212,Allegheny County,PA,16.811365430149962,NA
15219,Allegheny County,PA,23.71744277821626,NA
15220,Allegheny County,PA,NA,75.16778523489933
15243,Allegheny County,PA,84.92501973164957,NA
15370,Greene County,PA,41.91002367797948,NA
15522,Bedford County,PA,56.669297553275456,NA
15658,Westmoreland County,PA,70.44198895027624,NA
15668,Westmoreland County,PA,75.73007103393844,NA
15717,Indiana County,PA,57.34017363851618,NA
15774,Indiana County,PA,NA,98.15436241610739
15801,Clearfield County,PA,NA,6.375838926174497
15857,Elk County,PA,18.074191002367797,NA
15902,Cambria County,PA,34.293606945540645,NA
15904,Cambria County,PA,79.40015785319653,NA
15905,Cambria County,PA,NA,39.09395973154363
15909,Cambria County,PA,NA,85.06711409395973
16046,Butler County,PA,83.5438042620363,NA
16055,Butler County,PA,NA,85.23489932885906
16066,Butler County,PA,58.28729281767956,NA
16146,Mercer County,PA,NA,45.63758389261745
16354,Crawford County,PA,NA,68.6241610738255
16406,Crawford County,PA,NA,98.3221476510067
16504,Erie County,PA,79.71586424625099,NA
16506,Erie County,PA,61.010260457774265,NA
16701,McKean County,PA,39.97632202052092,NA
16858,Clearfield County,PA,95.14601420678768,NA
17003,Lebanon County,PA,37.84530386740331,NA
17011,Cumberland County,PA,18.35043409629045,NA
17022,Lancaster County,PA,10.852407261247041,NA
17026,Lebanon County,PA,95.93528018942384,NA
17036,Dauphin County,PA,16.022099447513813,NA
17042,Lebanon County,PA,2.7624309392265194,NA
17044,Mifflin County,PA,32.912391475927386,NA
17055,Cumberland County,PA,20.994475138121548,NA
17057,Dauphin County,PA,11.681136543014995,NA
17061,Dauphin County,PA,80.18942383583267,NA
17067,Lebanon County,PA,82.55722178374111,NA
17073,Lebanon County,PA,96.56669297553276,NA
17104,Dauphin County,PA,40.68666140489345,NA
17109,Dauphin County,PA,17.5611681136543,NA
17111,Dauphin County,PA,10.023677979479084,NA
17112,Dauphin County,PA,11.049723756906078,NA
17202,Franklin County,PA,19.771112865035516,NA
17307,Adams County,PA,94.63299131807419,NA
17315,York County,PA,NA,52.68456375838926
17325,Adams County,PA,16.65351223362273,NA
17331,York County,PA,21.428571428571427,NA
17403,York County,PA,26.124704025256513,NA
17404,York County,PA,NA,12.583892617449665
17408,York County,PA,33.26756116811365,NA
17520,Lancaster County,PA,97.51381215469614,NA
17522,Lancaster County,PA,17.5611681136543,NA
17545,Lancaster County,PA,34.68823993685872,NA
17547,Lancaster County,PA,93.48855564325179,NA
17566,Lancaster County,PA,79.71586424625099,NA
17603,Lancaster County,PA,5.682715074980268,NA
17754,Lycoming County,PA,58.484609313338595,NA
17821,Montour County,PA,NA,15.436241610738255
18011,Lehigh County,PA,87.45067087608524,NA
18017,Northampton County,PA,3.591160220994475,NA
18018,Lehigh County,PA,NA,8.221476510067115
18042,Northampton County,PA,3.0781373322809786,NA
18069,Lehigh County,PA,81.53117600631413,NA
18102,Lehigh County,PA,NA,6.543624161073826
18104,Lehigh County,PA,8.524072612470404,NA
18109,Lehigh County,PA,18.23204419889503,NA
18301,Monroe County,PA,26.479873717442775,30.70469798657718
18353,Monroe County,PA,81.96527229676401,NA
18360,Monroe County,PA,19.928966061562747,NA
18414,Lackawanna County,PA,98.85556432517758,NA
18436,Wayne County,PA,47.59273875295975,NA
18447,Lackawanna County,PA,NA,97.81879194630872
18466,Monroe County,PA,NA,68.45637583892618
18504,Lackawanna County,PA,NA,47.31543624161073
18505,Lackawanna County,PA,66.89029202841358,NA
18610,Monroe County,PA,75.25651144435675,NA
18640,Luzerne County,PA,67.36385161799527,NA
18641,Luzerne County,PA,NA,73.15436241610739
18661,Luzerne County,PA,78.41357537490134,NA
18702,Luzerne County,PA,4.459352801894238,NA
18704,Luzerne County,PA,38.23993685872139,NA
18837,Bradford County,PA,98.89502762430939,NA
18901,Bucks County,PA,37.13496448303078,NA
18914,Bucks County,PA,52.09155485398579,NA
18960,Bucks County,PA,85.39857932123125,NA
18966,Bucks County,PA,10.891870560378848,NA
18974,Bucks County,PA,14.759273875295975,NA
19007,Bucks County,PA,50.789265982636145,NA
19008,Delaware County,PA,73.08602999210734,NA
19013,Delaware County,PA,12.70718232044199,NA
19014,Delaware County,PA,33.66219415943173,NA
19015,Delaware County,PA,NA,48.15436241610738
19020,Bucks County,PA,23.954222573007105,NA
19023,Delaware County,PA,55.56432517758485,60.738255033557046
19026,Delaware County,PA,40.25256511444357,NA
19032,Delaware County,PA,76.95343330702447,NA
19036,Delaware County,PA,44.86977111286504,NA
19047,Bucks County,PA,16.85082872928177,54.86577181208053
19050,Delaware County,PA,20.441988950276244,NA
19053,Bucks County,PA,57.103393843725335,NA
19067,Bucks County,PA,12.036306235201263,7.2147651006711415
19073,Delaware County,PA,43.764798737174424,NA
19079,Delaware County,PA,60.02367797947908,NA
19083,Delaware County,PA,NA,12.751677852348994
19086,Delaware County,PA,NA,90.1006711409396
19095,Montgomery County,PA,75.29597474348856,NA
19103,Philadelphia County,PA,36.7008681925809,NA
19104,Philadelphia County,PA,82.75453827940015,NA
19111,Philadelphia County,PA,62.430939226519335,NA
19114,Philadelphia County,PA,42.06787687450671,NA
19115,Philadelphia County,PA,12.50986582478295,19.463087248322147
19118,Philadelphia County,PA,86.26677190213103,90.60402684563759
19119,Philadelphia County,PA,67.91633780584057,NA
19120,Philadelphia County,PA,26.361483820047354,58.89261744966443
19121,Philadelphia County,PA,5.367008681925809,NA
19123,Philadelphia County,PA,46.60615627466456,NA
19124,Philadelphia County,PA,13.970007892659828,NA
19125,Philadelphia County,PA,71.19179163378058,NA
19130,Philadelphia County,PA,29.83425414364641,37.58389261744966
19131,Philadelphia County,PA,18.429360694554063,NA
19132,Philadelphia County,PA,36.77979479084452,NA
19134,Philadelphia County,PA,1.499605367008682,NA
19136,Philadelphia County,PA,64.3646408839779,NA
19138,Philadelphia County,PA,33.34648776637727,NA
19139,Philadelphia County,PA,44.83030781373323,NA
19140,Philadelphia County,PA,1.1444356748224151,NA
19141,Philadelphia County,PA,4.617205998421468,NA
19142,Philadelphia County,PA,32.55722178374112,NA
19144,Philadelphia County,PA,47.90844514601421,NA
19145,Philadelphia County,PA,4.380426203630623,NA
19146,Philadelphia County,PA,77.94001578531964,NA
19147,Philadelphia County,PA,41.43646408839779,NA
19149,Philadelphia County,PA,41.16022099447514,NA
19150,Philadelphia County,PA,23.914759273875298,NA
19151,Philadelphia County,PA,34.569850039463304,NA
19152,Philadelphia County,PA,12.54932912391476,NA
19154,Philadelphia County,PA,9.865824782951854,NA
19320,Chester County,PA,5.643251775848461,NA
19333,Chester County,PA,94.04104183109709,NA
19335,Chester County,PA,11.32596685082873,13.422818791946309
19341,Chester County,PA,67.16653512233623,NA
19342,Delaware County,PA,70.67876874506709,NA
19350,Chester County,PA,90.01578531965272,NA
19352,Chester County,PA,NA,96.47651006711409
19401,Montgomery County,PA,NA,23.48993288590604
19403,Montgomery County,PA,11.957379636937649,NA
19422,Montgomery County,PA,91.31807419100237,NA
19446,Montgomery County,PA,36.148382004735595,NA
19454,Montgomery County,PA,NA,49.832214765100666
19460,Chester County,PA,NA,62.248322147651
19464,Montgomery County,PA,17.12707182320442,NA
19465,Chester County,PA,43.21231254932913,93.12080536912751
19473,Montgomery County,PA,92.06787687450671,90.26845637583892
19504,Berks County,PA,NA,98.65771812080537
19525,Montgomery County,PA,62.194159431728494,NA
19565,Berks County,PA,72.13891081294396,NA
19604,Berks County,PA,7.02446724546172,NA
19610,Berks County,PA,82.91239147592738,NA
02818,Kent County,RI,60.18153117600631,NA
02830,Providence County,RI,78.29518547750592,NA
02860,Providence County,RI,21.665351223362272,NA
02864,Providence County,RI,18.310970797158642,55.369127516778526
02878,Newport County,RI,90.72612470402525,NA
02885,Bristol County,RI,75.05919494869772,NA
02886,Kent County,RI,23.796369376479873,NA
02893,Kent County,RI,26.756116811365434,NA
02909,Providence County,RI,80.14996053670087,NA
02920,Providence County,RI,21.310181531176006,NA
02921,Providence County,RI,91.94948697711128,NA
29006,Lexington County,SC,76.40094711917916,NA
29036,Lexington County,SC,63.18074191002368,NA
29063,Richland County,SC,77.70323599052881,NA
29069,Darlington County,SC,98.10576164167324,NA
29115,Orangeburg County,SC,28.13733228097869,NA
29118,Orangeburg County,SC,70.04735595895816,NA
29161,Florence County,SC,93.29123914759275,NA
29180,Fairfield County,SC,72.21783741120757,NA
29210,Richland County,SC,33.622730860299924,NA
29212,Lexington County,SC,56.590370955011835,NA
29323,Spartanburg County,SC,46.172059984214684,NA
29340,Cherokee County,SC,31.254932912391475,NA
29349,Spartanburg County,SC,NA,22.14765100671141
29414,Charleston County,SC,24.427782162588795,NA
29455,Charleston County,SC,73.79636937647987,NA
29464,Charleston County,SC,34.92501973164956,NA
29477,Dorchester County,SC,87.92423046566694,NA
29485,Dorchester County,SC,53.07813733228098,NA
29486,Berkeley County,SC,50.27624309392266,NA
29501,Florence County,SC,23.322809786898187,NA
29512,Marlboro County,SC,46.92186266771902,NA
29526,Horry County,SC,NA,10.570469798657719
29541,Florence County,SC,72.73086029992108,NA
29569,Horry County,SC,37.60852407261247,NA
29570,Marlboro County,SC,98.02683504340963,NA
29571,Marion County,SC,84.45146014206787,NA
29627,Anderson County,SC,51.5785319652723,NA
29640,Pickens County,SC,15.15390686661405,NA
29669,Anderson County,SC,55.68271507498027,NA
29681,Greenville County,SC,52.170481452249405,NA
29687,Greenville County,SC,NA,23.825503355704697
29715,York County,SC,60.26045777426992,NA
29720,Lancaster County,SC,9.155485398579321,28.187919463087248
29801,Aiken County,SC,30.978689818468823,NA
29803,Aiken County,SC,NA,8.557046979865772
29841,Aiken County,SC,44.041041831097075,NA
29851,Aiken County,SC,91.23914759273876,89.09395973154362
29909,Beaufort County,SC,NA,16.946308724832214
57006,Brookings County,SD,56.669297553275456,NA
57103,Minnehaha County,SD,48.303078137332285,NA
57401,Brown County,SD,11.483820047355959,NA
37013,Davidson County,TN,61.91791633780584,NA
37040,Montgomery County,TN,16.96921862667719,NA
37043,Montgomery County,TN,27.505919494869772,NA
37075,Sumner County,TN,10.299921073401737,NA
37115,Davidson County,TN,7.142857142857142,NA
37160,Bedford County,TN,12.786108918705605,NA
37167,Rutherford County,TN,NA,25
37206,Davidson County,TN,25.453827940015785,NA
37221,Davidson County,TN,91.83109707971586,NA
37312,Bradley County,TN,33.97790055248619,NA
37343,Hamilton County,TN,NA,23.657718120805367
37379,Hamilton County,TN,31.846882399368585,NA
37412,Hamilton County,TN,73.44119968429361,NA
37415,Hamilton County,TN,50.118389897395424,NA
37421,Hamilton County,TN,53.90686661404893,29.194630872483224
37604,Washington County,TN,13.180741910023677,NA
37620,Sullivan County,TN,7.695343330702446,56.04026845637584
37705,Anderson County,TN,95.30386740331491,NA
37801,Blount County,TN,9.550118389897396,NA
37804,Blount County,TN,20.560378847671664,NA
37830,Anderson County,TN,NA,24.832214765100673
37840,Roane County,TN,67.08760852407262,NA
37857,Hawkins County,TN,25.532754538279402,NA
37914,Knox County,TN,62.11523283346487,NA
37917,Knox County,TN,10.734017363851619,NA
37921,Knox County,TN,21.349644830307813,NA
37922,Knox County,TN,47.316495659037095,NA
38002,Shelby County,TN,NA,68.95973154362416
38004,Tipton County,TN,86.38516179952644,NA
38016,Shelby County,TN,85.31965272296765,NA
38053,Shelby County,TN,39.26598263614839,NA
38060,Fayette County,TN,NA,92.9530201342282
38068,Fayette County,TN,77.82162588792423,NA
38106,Shelby County,TN,10.655090765588003,NA
38111,Shelby County,TN,65.15390686661405,NA
38112,Shelby County,TN,81.49171270718232,NA
38114,Shelby County,TN,NA,33.7248322147651
38115,Shelby County,TN,NA,85.90604026845638
38117,Shelby County,TN,65.4696132596685,NA
38119,Shelby County,TN,91.08129439621152,NA
38122,Shelby County,TN,45.935280189423835,NA
38125,Shelby County,TN,75.65114443567482,NA
38127,Shelby County,TN,26.085240726124702,NA
38128,Shelby County,TN,NA,38.25503355704698
38135,Shelby County,TN,74.74348855564325,NA
38138,Shelby County,TN,NA,77.01342281879194
38141,Shelby County,TN,38.16101026045777,NA
38261,Obion County,TN,30.14996053670087,NA
38462,Lewis County,TN,62.904498816101025,NA
38501,Putnam County,TN,12.86503551696922,NA
38506,Putnam County,TN,32.991318074191,22.986577181208055
38544,Putnam County,TN,57.9715864246251,NA
38570,Overton County,TN,62.27308602999211,NA
38572,Cumberland County,TN,54.775059194948696,NA
38583,White County,TN,17.876874506708763,NA
75006,Dallas County,TX,69.73164956590371,NA
75007,Denton County,TX,38.39779005524862,NA
75010,Denton County,TX,83.38595106550908,NA
75013,Collin County,TX,39.97632202052092,69.46308724832215
75019,Dallas County,TX,45.97474348855564,NA
75022,Denton County,TX,73.24388318863457,NA
75023,Collin County,TX,44.15943172849251,NA
75024,Collin County,TX,53.630623520126285,NA
75028,Denton County,TX,47.63220205209156,40.77181208053691
75033,,TX,61.12865035516969,NA
75034,Denton County,TX,29.32123125493291,NA
75035,Collin County,TX,63.733228097868974,NA
75038,Dallas County,TX,53.70955011838989,NA
75039,Dallas County,TX,98.26361483820048,NA
75044,Dallas County,TX,46.172059984214684,NA
75051,Dallas County,TX,33.74112075769534,NA
75052,Dallas County,TX,11.286503551696923,NA
75054,Tarrant County,TX,83.10970797158642,NA
75056,Denton County,TX,82.24151539068666,NA
75061,Dallas County,TX,42.81767955801105,NA
75062,Dallas County,TX,37.2138910812944,NA
75063,Dallas County,TX,88.7924230465667,NA
75068,Denton County,TX,88.04262036306235,NA
75070,Collin County,TX,9.747434885556434,NA
75075,Collin County,TX,57.182320441988956,NA
75081,Dallas County,TX,62.98342541436463,NA
75082,Collin County,TX,NA,45.13422818791946
75088,Dallas County,TX,NA,49.16107382550335
75089,Dallas County,TX,90.37095501183899,NA
75093,Collin County,TX,39.423835832675614,33.89261744966443
75094,Collin County,TX,69.1791633780584,NA
75104,Dallas County,TX,77.34806629834254,NA
75126,Kaufman County,TX,23.007103393843725,NA
75140,Van Zandt County,TX,72.57300710339383,NA
75149,Dallas County,TX,NA,29.697986577181208
75154,Ellis County,TX,35.1223362273086,NA
75165,Ellis County,TX,20.047355958958168,NA
75180,Dallas County,TX,95.06708760852408,NA
75201,Dallas County,TX,71.62588792423047,NA
75204,Dallas County,TX,79.8342541436464,NA
75208,Dallas County,TX,54.538279400157855,NA
75215,Dallas County,TX,19.53433307024467,NA
75219,Dallas County,TX,73.75690607734806,NA
75228,Dallas County,TX,19.652722967640095,NA
75231,Dallas County,TX,69.13970007892661,NA
75235,Dallas County,TX,92.5808997632202,NA
75237,Dallas County,TX,35.47750591949487,NA
75241,Dallas County,TX,15.627466456195737,36.07382550335571
75248,Dallas County,TX,50.27624309392266,NA
75251,Dallas County,TX,99.17127071823204,NA
75252,Collin County,TX,59.0370955011839,NA
75287,Denton County,TX,31.491712707182316,NA
75426,Red River County,TX,95.02762430939227,NA
75454,Collin County,TX,93.44909234411996,NA
75474,Hunt County,TX,80.70244672454618,NA
75503,Bowie County,TX,NA,60.40268456375839
75570,Bowie County,TX,89.46329913180742,NA
75601,Gregg County,TX,67.08760852407262,NA
75650,Harrison County,TX,NA,91.10738255033557
75657,Marion County,TX,89.8973954222573,NA
75702,Smith County,TX,28.92659826361484,NA
75703,Smith County,TX,57.69534333070244,NA
75803,Anderson County,TX,NA,52.348993288590606
75835,Houston County,TX,92.14680347277032,NA
75901,Angelina County,TX,27.821625887924228,NA
75904,Angelina County,TX,25.611681136543012,NA
75951,Jasper County,TX,41.43646408839779,NA
75979,Tyler County,TX,NA,89.76510067114094
76012,Tarrant County,TX,38.7924230465667,NA
76017,Tarrant County,TX,57.14285714285714,NA
76018,Tarrant County,TX,49.881610102604576,NA
76039,Tarrant County,TX,28.531965272296766,NA
76040,Tarrant County,TX,69.85003946329913,NA
76048,Hood County,TX,68.0741910023678,33.557046979865774
76058,Johnson County,TX,47.67166535122336,NA
76063,Tarrant County,TX,35.39857932123125,NA
76087,Parker County,TX,60.142067876874506,NA
76108,Tarrant County,TX,30.031570639305443,NA
76112,Tarrant County,TX,8.405682715074981,NA
76116,Tarrant County,TX,48.658247829518544,NA
76117,Tarrant County,TX,25.84846093133386,NA
76119,Tarrant County,TX,42.14680347277032,NA
76120,Tarrant County,TX,42.65982636148382,NA
76135,Tarrant County,TX,77.7426992896606,NA
76137,Tarrant County,TX,13.891081294396212,NA
76140,Tarrant County,TX,29.55801104972376,NA
76148,Tarrant County,TX,32.12312549329124,NA
76226,Denton County,TX,60.73401736385162,NA
76227,Denton County,TX,83.14917127071824,NA
76262,Denton County,TX,36.81925808997632,NA
76266,Denton County,TX,82.24151539068666,NA
76354,Wichita County,TX,74.26992896606156,NA
76513,Bell County,TX,24.112075769534332,NA
76537,Williamson County,TX,97.00078926598263,NA
76541,Bell County,TX,36.81925808997632,NA
76542,Bell County,TX,68.50828729281768,NA
76549,Bell County,TX,15.943172849250198,NA
76705,McLennan County,TX,11.089187056037884,NA
77004,Harris County,TX,20.126282557221785,NA
77005,Harris County,TX,NA,60.06711409395973
77007,Harris County,TX,43.48855564325177,NA
77014,Harris County,TX,79.04498816101027,NA
77015,Harris County,TX,64.8382004735596,NA
77021,Harris County,TX,26.835043409629044,NA
77023,Harris County,TX,52.249408050513026,NA
77024,Harris County,TX,93.88318863456985,NA
77027,Harris County,TX,96.52722967640095,NA
77033,Harris County,TX,46.2904498816101,NA
77034,Harris County,TX,49.80268350434096,NA
77035,Harris County,TX,NA,54.69798657718121
77040,Harris County,TX,NA,30.033557046979865
77041,Harris County,TX,53.70955011838989,NA
77042,Harris County,TX,65.11444356748224,71.14093959731544
77044,Harris County,TX,NA,63.92617449664429
77045,Harris County,TX,49.408050513022886,NA
77047,Harris County,TX,47.90844514601421,NA
77054,Harris County,TX,70.59984214680347,NA
77055,Harris County,TX,50.59194948697711,NA
77058,Harris County,TX,76.79558011049724,NA
77059,Harris County,TX,76.75611681136543,NA
77062,Harris County,TX,52.762430939226526,NA
77066,Harris County,TX,60.81294396211523,NA
77071,Harris County,TX,54.41988950276243,NA
77073,Harris County,TX,NA,85.73825503355704
77077,Harris County,TX,NA,32.718120805369125
77079,Harris County,TX,68.46882399368587,NA
77080,Harris County,TX,63.85161799526441,NA
77083,Harris County,TX,32.59668508287293,NA
77089,Harris County,TX,35.1223362273086,NA
77090,Harris County,TX,21.033938437253354,NA
77091,Harris County,TX,45.81689029202841,NA
77096,Harris County,TX,78.80820836621942,NA
77304,Montgomery County,TX,80.46566692975533,NA
77345,Harris County,TX,79.08445146014206,NA
77346,Harris County,TX,75.69060773480662,NA
77365,Montgomery County,TX,41.23914759273875,NA
77375,Harris County,TX,14.83820047355959,NA
77377,Harris County,TX,35.04340962904499,NA
77379,Harris County,TX,68.6266771902131,NA
77380,Montgomery County,TX,65.31176006314128,NA
77381,Montgomery County,TX,NA,72.48322147651007
77384,Montgomery County,TX,70.83662194159432,NA
77385,Montgomery County,TX,53.55169692186267,NA
77386,Montgomery County,TX,75.73007103393844,NA
77388,Harris County,TX,36.148382004735595,37.24832214765101
77396,Harris County,TX,85.67482241515391,NA
77406,Fort Bend County,TX,68.86345698500395,NA
77407,Fort Bend County,TX,91.63378058405682,NA
77422,Brazoria County,TX,96.72454617205999,NA
77429,Harris County,TX,NA,4.3624161073825505
77433,Harris County,TX,7.49802683504341,20.302013422818792
77447,Harris County,TX,NA,87.24832214765101
77449,Harris County,TX,50.23677979479084,NA
77450,Harris County,TX,29.597474348855563,NA
77459,Fort Bend County,TX,90.9629044988161,NA
77469,Fort Bend County,TX,54.69613259668509,NA
77477,Fort Bend County,TX,46.96132596685083,NA
77478,Fort Bend County,TX,NA,51.006711409395976
77479,Fort Bend County,TX,NA,20.80536912751678
77489,Fort Bend County,TX,91.04183109707972,NA
77493,Harris County,TX,54.34096290449881,NA
77494,Fort Bend County,TX,71.03393843725335,NA
77498,Fort Bend County,TX,46.09313338595106,NA
77504,Harris County,TX,59.0370955011839,NA
77520,Harris County,TX,34.767166535122335,NA
77521,Harris County,TX,20.718232044198896,NA
77523,Chambers County,TX,49.52644041041831,NA
77530,Harris County,TX,48.81610102604578,NA
77532,Harris County,TX,32.162588792423044,NA
77539,Galveston County,TX,74.5067087608524,NA
77545,Fort Bend County,TX,84.29360694554065,NA
77546,Galveston County,TX,18.03472770323599,NA
77551,Galveston County,TX,18.666140489344908,NA
77562,Harris County,TX,71.42857142857143,NA
77573,Galveston County,TX,27.071823204419886,NA
77581,Brazoria County,TX,55.88003157063931,NA
77584,Brazoria County,TX,6.156274664561957,NA
77590,Galveston County,TX,8.12943962115233,NA
77612,Jasper County,TX,83.70165745856355,NA
77630,Orange County,TX,31.846882399368585,NA
77708,Jefferson County,TX,NA,96.14093959731544
77802,Brazos County,TX,NA,21.308724832214764
77807,Brazos County,TX,73.20441988950276,NA
77808,Brazos County,TX,53.43330702446725,NA
77833,Washington County,TX,69.29755327545382,NA
77840,Brazos County,TX,35.753749013417526,NA
77845,Brazos County,TX,27.426992896606155,NA
78025,Kerr County,TX,NA,92.78523489932886
78028,Kerr County,TX,29.08445146014207,NA
78040,Webb County,TX,NA,42.78523489932886
78041,Webb County,TX,28.57142857142857,NA
78046,Webb County,TX,37.332280978689816,NA
78065,Atascosa County,TX,84.80662983425414,NA
78109,Bexar County,TX,39.06866614048934,NA
78155,Guadalupe County,TX,NA,30.87248322147651
78204,Bexar County,TX,80.70244672454618,NA
78213,Bexar County,TX,37.60852407261247,NA
78214,Bexar County,TX,82.24151539068666,NA
78217,Bexar County,TX,60.65509076558801,67.61744966442953
78222,Bexar County,TX,59.5501183898974,NA
78233,Bexar County,TX,33.07024467245462,NA
78239,Bexar County,TX,55.09076558800315,NA
78247,Bexar County,TX,74.9802683504341,NA
78249,Bexar County,TX,NA,64.93288590604027
78251,Bexar County,TX,46.8034727703236,NA
78255,Bexar County,TX,94.39621152328334,NA
78260,Bexar County,TX,76.24309392265194,NA
78405,Nueces County,TX,73.24388318863457,NA
78413,Nueces County,TX,87.68745067087609,NA
78504,Hidalgo County,TX,64.40410418310971,NA
78520,Cameron County,TX,NA,29.026845637583893
78521,Cameron County,TX,24.03314917127072,NA
78542,Hidalgo County,TX,NA,28.355704697986578
78560,Hidalgo County,TX,95.69850039463299,NA
78572,Hidalgo County,TX,12.273086029992108,20.13422818791946
78576,Hidalgo County,TX,94.08050513022889,NA
78596,Hidalgo County,TX,66.21941594317285,NA
78617,Travis County,TX,88.95027624309392,NA
78640,Hays County,TX,33.385951065509076,NA
78641,Williamson County,TX,14.601420678768745,NA
78725,Travis County,TX,96.64561957379637,NA
78727,Travis County,TX,94.94869771112864,NA
78730,Travis County,TX,90.72612470402525,NA
78745,Travis County,TX,79.43962115232833,NA
78749,Travis County,TX,95.50118389897395,NA
78852,Maverick County,TX,NA,43.45637583892618
78945,Fayette County,TX,NA,81.54362416107382
79109,Randall County,TX,29.40015785319653,NA
79360,Gaines County,TX,43.409629044988165,NA
79407,Lubbock County,TX,38.989739542225735,NA
79415,Lubbock County,TX,59.66850828729282,NA
79423,Lubbock County,TX,21.349644830307813,NA
79424,Lubbock County,TX,18.271507498026835,NA
79549,Scurry County,TX,32.28097868981847,87.75167785234899
79602,Taylor County,TX,50.90765588003157,NA
79603,Taylor County,TX,22.257300710339383,NA
79703,Midland County,TX,95.42225730071034,NA
79707,Midland County,TX,25.09865824782952,NA
79762,Ector County,TX,20.36306235201263,NA
79763,Ector County,TX,26.28255722178374,NA
79764,Ector County,TX,87.49013417521705,NA
79902,El Paso County,TX,82.4782951854775,NA
79907,El Paso County,TX,29.16337805840568,NA
79912,El Paso County,TX,18.94238358326756,NA
79928,El Paso County,TX,NA,65.43624161073825
79932,El Paso County,TX,NA,76.6778523489933
79936,El Paso County,TX,84.25414364640883,NA
79938,El Paso County,TX,88.27940015785319,66.10738255033557
84014,Davis County,UT,87.56906077348067,NA
84029,Tooele County,UT,78.57142857142857,NA
84043,Utah County,UT,68.78453038674033,70.13422818791946
84054,Davis County,UT,NA,76.1744966442953
84066,Duchesne County,UT,52.72296764009471,NA
84074,Tooele County,UT,45.18547750591949,NA
84075,Davis County,UT,65.03551696921863,NA
84084,Salt Lake County,UT,69.61325966850829,NA
84093,Salt Lake County,UT,74.54617205998422,NA
84095,Salt Lake County,UT,65.07498026835043,NA
84098,Summit County,UT,58.484609313338595,NA
84116,Salt Lake County,UT,NA,35.40268456375839
84120,Salt Lake County,UT,4.577742699289661,NA
84121,Salt Lake County,UT,32.162588792423044,NA
84128,Salt Lake County,UT,NA,70.46979865771812
84341,Cache County,UT,77.82162588792423,NA
84404,Weber County,UT,14.24625098658248,NA
84414,Weber County,UT,66.57458563535911,NA
84737,Washington County,UT,NA,66.61073825503355
05403,Chittenden County,VT,NA,50.83892617449665
05404,Chittenden County,VT,93.52801894238358,NA
05452,Chittenden County,VT,51.026045777427,NA
05602,Washington County,VT,81.25493291239148,NA
05701,Rutland County,VT,NA,9.228187919463087
05753,Addison County,VT,NA,75.83892617449665
20111,Prince William County,VA,44.63299131807419,NA
20112,Prince William County,VA,68.42936069455406,NA
20124,Fairfax County,VA,NA,97.14765100671141
20136,Prince William County,VA,61.76006314127861,NA
20148,Loudoun County,VA,NA,88.59060402684564
20151,Fairfax County,VA,84.88555643251776,NA
20155,Prince William County,VA,52.52565114443567,48.322147651006716
20171,Fairfax County,VA,42.18626677190213,NA
20176,Loudoun County,VA,39.8973954222573,NA
20194,Fairfax County,VA,85.87213891081295,NA
22015,Fairfax County,VA,43.606945540647196,NA
22026,Prince William County,VA,81.80741910023677,NA
22032,Fairfax County,VA,57.37963693764798,NA
22033,Fairfax County,VA,53.117600631412785,NA
22039,Fairfax County,VA,75.92738752959748,NA
22043,Fairfax County,VA,86.7797947908445,NA
22079,Fairfax County,VA,88.43725335438043,NA
22150,Fairfax County,VA,44.86977111286504,NA
22152,Fairfax County,VA,76.47987371744279,NA
22153,Fairfax County,VA,50.5130228887135,NA
22181,Fairfax County,VA,86.50355169692186,NA
22182,Fairfax County,VA,58.83977900552486,NA
22191,Prince William County,VA,39.660615627466456,NA
22192,Prince William County,VA,42.896606156274665,NA
22201,Arlington County,VA,52.32833464877664,NA
22202,Arlington County,VA,70.1657458563536,NA
22203,Arlington County,VA,67.83741120757696,NA
22204,Arlington County,VA,54.2620363062352,NA
22207,Arlington County,VA,44.43567482241516,47.14765100671141
22301,Alexandria city,VA,NA,96.30872483221476
22302,Alexandria city,VA,59.471191791633785,NA
22303,Fairfax County,VA,88.20047355958958,NA
22304,Alexandria city,VA,8.760852407261247,NA
22306,Fairfax County,VA,55.36700868192581,NA
22308,Fairfax County,VA,95.89581689029202,NA
22309,Fairfax County,VA,18.94238358326756,NA
22310,Fairfax County,VA,75.37490134175216,NA
22312,Fairfax County,VA,35.59589581689029,NA
22314,Alexandria city,VA,22.573007103393845,NA
22315,Fairfax County,VA,88.16101026045777,NA
22443,Westmoreland County,VA,82.4388318863457,NA
22485,King George County,VA,57.182320441988956,NA
22546,Caroline County,VA,65.982636148382,NA
22551,Spotsylvania County,VA,53.23599052880821,NA
22554,Stafford County,VA,22.65193370165746,NA
22601,Winchester city,VA,52.95974743488555,NA
22602,Frederick County,VA,43.44909234411997,NA
22802,Harrisonburg city,VA,49.36858721389108,NA
22901,Albemarle County,VA,75.0197316495659,NA
22923,Greene County,VA,99.4869771112865,NA
22947,Albemarle County,VA,97.3559589581689,NA
22960,Orange County,VA,58.28729281767956,NA
23059,Henrico County,VA,73.8752959747435,NA
23060,Henrico County,VA,54.972375690607734,NA
23103,Goochland County,VA,100,NA
23113,Chesterfield County,VA,99.92107340173638,NA
23188,James City County,VA,NA,3.3557046979865772
23226,Richmond city,VA,96.8429360694554,NA
23228,Henrico County,VA,41.12075769534333,NA
23231,Henrico County,VA,15.982636148382005,18.456375838926174
23237,Chesterfield County,VA,38.23993685872139,NA
23320,Chesapeake city,VA,19.494869771112867,NA
23323,Chesapeake city,VA,25.96685082872928,NA
23434,Suffolk city,VA,NA,9.395973154362416
23456,Virginia Beach city,VA,49.72375690607735,8.89261744966443
23464,Virginia Beach city,VA,10.378847671665351,NA
23502,Norfolk city,VA,NA,32.38255033557047
23503,Norfolk city,VA,38.63456985003946,NA
23504,Norfolk city,VA,18.547750591949487,NA
23510,Norfolk city,VA,80.8208366219416,NA
23513,Norfolk city,VA,11.878453038674033,NA
23608,Newport News city,VA,42.5808997632202,NA
23703,Portsmouth city,VA,NA,30.369127516778523
23805,Petersburg city,VA,44.47513812154696,NA
23832,Chesterfield County,VA,35.99052880820837,NA
23836,Chesterfield County,VA,NA,84.39597315436241
23838,Chesterfield County,VA,NA,75.50335570469798
23851,Franklin city,VA,NA,55.536912751677846
24015,Roanoke city,VA,68.19258089976323,NA
24151,Franklin County,VA,36.66140489344909,NA
24153,Salem city,VA,NA,19.798657718120804
24210,Washington County,VA,26.953433307024465,NA
24260,Russell County,VA,63.378058405682715,NA
24401,Staunton city,VA,6.629834254143646,NA
24416,Buena Vista city,VA,58.83977900552486,NA
98001,King County,WA,66.92975532754538,NA
98004,King County,WA,67.6006314127861,NA
98006,King County,WA,49.408050513022886,29.86577181208054
98019,King County,WA,96.25098658247829,NA
98020,Snohomish County,WA,79.28176795580112,NA
98022,King County,WA,NA,23.993288590604024
98023,King County,WA,17.876874506708763,NA
98024,King County,WA,NA,96.97986577181209
98026,Snohomish County,WA,25.84846093133386,NA
98027,King County,WA,81.45224940805052,NA
98029,King County,WA,80.54459352801894,NA
98030,King County,WA,51.10497237569061,NA
98031,King County,WA,NA,16.44295302013423
98032,King County,WA,34.45146014206787,48.8255033557047
98033,King County,WA,NA,31.04026845637584
98034,King County,WA,24.269928966061563,NA
98036,Snohomish County,WA,38.516179952644045,NA
98038,King County,WA,25.09865824782952,NA
98042,King County,WA,39.54222573007103,NA
98043,Snohomish County,WA,67.67955801104972,NA
98055,King County,WA,88.87134964483032,NA
98056,King County,WA,76.40094711917916,NA
98058,King County,WA,23.480662983425415,NA
98065,King County,WA,77.97947908445147,NA
98075,King County,WA,73.8752959747435,NA
98087,Snohomish County,WA,89.8184688239937,NA
98092,King County,WA,17.048145224940807,NA
98102,King County,WA,NA,68.95973154362416
98103,King County,WA,37.72691397000789,NA
98106,King County,WA,80.11049723756905,NA
98107,King County,WA,61.957379636937645,NA
98108,King County,WA,66.69297553275455,NA
98109,King County,WA,89.344909234412,NA
98112,King County,WA,NA,67.28187919463086
98115,King County,WA,27.940015785319655,NA
98116,King County,WA,62.70718232044199,NA
98118,King County,WA,87.88476716653513,NA
98122,King County,WA,49.68429360694554,NA
98125,King County,WA,64.87766377269139,NA
98136,King County,WA,84.76716653512234,NA
98166,King County,WA,73.52012628255721,NA
98168,King County,WA,24.072612470402525,NA
98178,King County,WA,87.21389108129439,NA
98198,King County,WA,33.26756116811365,NA
98199,King County,WA,79.67640094711918,NA
98203,Snohomish County,WA,70.36306235201263,NA
98223,Snohomish County,WA,17.166535122336228,NA
98258,Snohomish County,WA,48.224151539068664,NA
98277,Island County,WA,NA,25.16778523489933
98284,Skagit County,WA,42.423046566692975,NA
98296,Snohomish County,WA,36.7008681925809,NA
98311,Kitsap County,WA,NA,55.20134228187919
98329,Pierce County,WA,68.98184688239937,NA
98331,Clallam County,WA,87.05603788476716,NA
98333,Pierce County,WA,99.72375690607734,NA
98354,Pierce County,WA,98.22415153906867,NA
98360,Pierce County,WA,67.5611681136543,NA
98370,Kitsap County,WA,NA,45.97315436241611
98372,Pierce County,WA,51.5785319652723,NA
98375,Pierce County,WA,NA,90.77181208053692
98391,Pierce County,WA,8.602999210734017,11.912751677852349
98405,Pierce County,WA,58.08997632202052,NA
98406,Pierce County,WA,NA,56.375838926174495
98422,Pierce County,WA,54.93291239147593,NA
98446,Pierce County,WA,NA,82.0469798657718
98498,Pierce County,WA,47.355958958168905,NA
98532,Lewis County,WA,84.92501973164957,NA
98569,Grays Harbor County,WA,96.44830307813733,NA
98597,Thurston County,WA,59.905288082083665,NA
98632,Cowlitz County,WA,12.825572217837411,NA
98660,Clark County,WA,82.55722178374111,NA
98661,Clark County,WA,40.568271507498025,NA
98663,Clark County,WA,70.40252565114443,NA
98664,Clark County,WA,78.33464877663772,70.30201342281879
98684,Clark County,WA,76.24309392265194,NA
98686,Clark County,WA,86.93764798737175,NA
98802,Douglas County,WA,72.61247040252566,NA
98815,Chelan County,WA,NA,93.95973154362416
98848,Grant County,WA,88.08208366219415,NA
98902,Yakima County,WA,19.88950276243094,NA
98908,Yakima County,WA,62.98342541436463,NA
98930,Yakima County,WA,82.16258879242304,NA
99004,Spokane County,WA,90.52880820836621,NA
99205,Spokane County,WA,NA,51.51006711409396
99301,Franklin County,WA,27.269139700078927,NA
99350,Benton County,WA,82.00473559589582,NA
99354,Benton County,WA,33.5043409629045,NA
20001,District of Columbia,DC,14.009471191791633,NA
20007,District of Columbia,DC,71.94159431728492,NA
20009,District of Columbia,DC,22.80978689818469,NA
20011,District of Columbia,DC,24.269928966061563,NA
20018,District of Columbia,DC,NA,25.503355704697988
20019,District of Columbia,DC,56.47198105761642,NA
20020,District of Columbia,DC,8.918705603788476,NA
20032,District of Columbia,DC,34.767166535122335,NA
25064,Kanawha County,WV,42.423046566692975,NA
25143,Kanawha County,WV,54.41988950276243,NA
25177,Kanawha County,WV,NA,35.738255033557046
25306,Kanawha County,WV,63.85161799526441,NA
25508,Logan County,WV,67.48224151539068,NA
25661,Mingo County,WV,90.21310181531176,NA
26062,Hancock County,WV,6.669297553275453,NA
26150,Wood County,WV,68.23204419889503,NA
26155,Wetzel County,WV,74.86187845303867,NA
26164,Jackson County,WV,54.2620363062352,NA
26181,Wood County,WV,NA,95.13422818791946
26354,Taylor County,WV,40.76558800315706,NA
26508,Monongalia County,WV,34.056827150749804,NA
53014,Calumet County,WI,NA,87.58389261744966
53024,Ozaukee County,WI,NA,60.90604026845637
53029,Waukesha County,WI,56.827150749802676,NA
53061,Calumet County,WI,90.52880820836621,NA
53066,Waukesha County,WI,NA,10.906040268456376
53085,Sheboygan County,WI,91.12075769534333,NA
53094,Jefferson County,WI,NA,29.53020134228188
53095,Washington County,WI,42.857142857142854,NA
53105,Racine County,WI,9.510655090765589,NA
53128,Walworth County,WI,61.720599842146804,NA
53142,Kenosha County,WI,5.880031570639305,NA
53144,Kenosha County,WI,59.27387529597474,NA
53146,Waukesha County,WI,87.68745067087609,NA
53147,Walworth County,WI,35.280189423835836,NA
53149,Waukesha County,WI,64.20678768745067,NA
53151,Waukesha County,WI,NA,21.97986577181208
53158,Kenosha County,WI,14.127861089187055,NA
53177,Racine County,WI,76.20363062352013,73.48993288590604
53204,Milwaukee County,WI,3.8279400157853196,NA
53207,Milwaukee County,WI,NA,31.20805369127517
53208,Milwaukee County,WI,6.748224151539069,NA
53209,Milwaukee County,WI,1.22336227308603,NA
53216,Milwaukee County,WI,3.6306235201262824,NA
53218,Milwaukee County,WI,21.07340173638516,NA
53222,Milwaukee County,WI,48.57932123125494,73.8255033557047
53223,Milwaukee County,WI,10.339384372533544,NA
53224,Milwaukee County,WI,27.900552486187845,NA
53225,Milwaukee County,WI,29.75532754538279,41.61073825503356
53226,Milwaukee County,WI,61.247040252565114,NA
53235,Milwaukee County,WI,NA,82.38255033557047
53402,Racine County,WI,NA,2.8523489932885906
53405,Racine County,WI,3.51223362273086,NA
53406,Racine County,WI,8.681925808997633,2.348993288590604
53511,Rock County,WI,41.23914759273875,NA
53548,Rock County,WI,17.521704814522494,NA
53563,Rock County,WI,75.05919494869772,NA
53716,Dane County,WI,88.67403314917127,NA
53809,Grant County,WI,99.21073401736386,NA
53946,Green Lake County,WI,97.47434885556433,NA
53954,Columbia County,WI,91.16022099447514,NA
53963,Dodge County,WI,46.72454617205998,NA
54017,St. Croix County,WI,NA,39.76510067114094
54136,Outagamie County,WI,96.32991318074191,NA
54143,Marinette County,WI,NA,59.395973154362416
54220,Manitowoc County,WI,NA,2.5167785234899327
54313,Brown County,WI,NA,34.73154362416108
54401,Marathon County,WI,30.426203630623522,NA
54403,Marathon County,WI,35.201262825572215,NA
54423,Portage County,WI,99.68429360694554,NA
54452,Lincoln County,WI,74.11207576953433,NA
54476,Marathon County,WI,70.1657458563536,NA
54501,Oneida County,WI,NA,23.154362416107382
54703,Eau Claire County,WI,45.97474348855564,NA
54956,Winnebago County,WI,52.012628255722184,70.9731543624161
54983,Waupaca County,WI,NA,92.28187919463086
82435,Park County,WY,81.05761641673243,NA
82604,Natrona County,WY,75.45382794001578,NA
82633,Converse County,WY,51.815311760063146,NA
