ZipCode,county,state,Youth,Pediatric,Adult,Retirement
35010,Tallapoosa County,AL,NA,NA,43.28042328042328,NA
35057,Cullman County,AL,NA,NA,NA,84.61538461538461
35125,St. Clair County,AL,NA,NA,NA,92.82051282051282
35150,Talladega County,AL,NA,56.872037914691944,NA,NA
35151,Talladega County,AL,NA,NA,92.5925925925926,NA
35160,Talladega County,AL,NA,35.07109004739337,NA,NA
35211,Jefferson County,AL,54.325259515570934,NA,NA,NA
35242,Shelby County,AL,NA,NA,38.41269841269842,NA
35405,Tuscaloosa County,AL,NA,NA,9.947089947089948,NA
35565,Winston County,AL,30.79584775086505,NA,76.08465608465609,NA
35640,Morgan County,AL,NA,NA,41.37566137566138,NA
35901,Etowah County,AL,NA,NA,NA,38.97435897435898
35903,Etowah County,AL,70.58823529411765,NA,NA,NA
35906,Etowah County,AL,NA,NA,91.11111111111111,NA
35953,St. Clair County,AL,NA,NA,NA,93.33333333333333
36067,Autauga County,AL,NA,37.91469194312796,NA,NA
36092,Elmore County,AL,NA,59.71563981042654,NA,NA
36109,Montgomery County,AL,NA,69.19431279620854,NA,NA
36110,Montgomery County,AL,NA,NA,63.38624338624339,NA
36116,Montgomery County,AL,NA,NA,24.761904761904763,NA
36207,Calhoun County,AL,NA,NA,NA,67.6923076923077
36272,Calhoun County,AL,NA,72.03791469194313,NA,NA
36350,Dale County,AL,92.04152249134948,NA,NA,NA
36582,Mobile County,AL,NA,NA,56.507936507936506,NA
36703,Dallas County,AL,NA,90.99526066350711,NA,NA
36830,Lee County,AL,NA,NA,73.12169312169313,NA
99501,Anchorage Municipality,AK,NA,NA,77.77777777777779,NA
99502,Anchorage Municipality,AK,NA,NA,59.25925925925925,NA
99503,Anchorage Municipality,AK,NA,NA,54.285714285714285,NA
99508,Anchorage Municipality,AK,NA,25.118483412322274,NA,NA
99516,Anchorage Municipality,AK,NA,NA,81.7989417989418,NA
99517,Anchorage Municipality,AK,NA,NA,69.62962962962963,NA
99559,Bethel Census Area,AK,NA,NA,91.42857142857143,NA
99835,Sitka City and Borough,AK,NA,NA,87.83068783068782,NA
85004,Maricopa County,AZ,NA,NA,92.38095238095238,NA
85014,Maricopa County,AZ,77.85467128027682,NA,NA,NA
85015,Maricopa County,AZ,22.491349480968857,NA,NA,NA
85022,Maricopa County,AZ,39.44636678200692,NA,23.703703703703706,NA
85023,Maricopa County,AZ,NA,NA,32.06349206349206,NA
85027,Maricopa County,AZ,NA,NA,48.35978835978836,NA
85029,Maricopa County,AZ,NA,NA,26.984126984126984,NA
85083,Maricopa County,AZ,NA,NA,83.7037037037037,NA
85122,Pinal County,AZ,NA,10.90047393364929,NA,NA
85142,Maricopa County,AZ,NA,NA,12.486772486772486,NA
85143,Pinal County,AZ,42.90657439446367,NA,NA,NA
85201,Maricopa County,AZ,NA,NA,15.661375661375661,NA
85203,Maricopa County,AZ,NA,40.28436018957346,NA,NA
85206,Maricopa County,AZ,NA,NA,52.80423280423281,NA
85257,Maricopa County,AZ,NA,NA,90.8994708994709,NA
85339,Maricopa County,AZ,NA,NA,25.396825396825395,NA
85349,Yuma County,AZ,NA,NA,73.01587301587301,NA
85365,Yuma County,AZ,NA,NA,NA,22.564102564102566
85396,Maricopa County,AZ,73.70242214532871,NA,NA,NA
85546,Graham County,AZ,NA,NA,58.0952380952381,NA
85634,Pima County,AZ,NA,NA,63.06878306878308,NA
85635,Cochise County,AZ,NA,NA,29.100529100529098,NA
85648,Santa Cruz County,AZ,NA,15.165876777251185,NA,NA
85653,Pima County,AZ,NA,NA,44.44444444444444,NA
85705,Pima County,AZ,10.034602076124568,NA,NA,NA
85711,Pima County,AZ,NA,NA,NA,14.871794871794872
85713,Pima County,AZ,NA,NA,8.042328042328043,NA
85739,Pinal County,AZ,NA,NA,71.005291005291,NA
85901,Navajo County,AZ,NA,67.29857819905213,NA,NA
85924,Apache County,AZ,NA,100,NA,NA
85941,Apache County,AZ,NA,NA,67.93650793650794,NA
86053,Coconino County,AZ,84.77508650519032,NA,NA,NA
86401,Mohave County,AZ,NA,NA,11.64021164021164,NA
86403,Mohave County,AZ,NA,NA,53.01587301587302,NA
86413,Mohave County,AZ,NA,NA,66.24338624338625,NA
86511,Apache County,AZ,NA,NA,NA,100
71603,Jefferson County,AR,35.6401384083045,NA,NA,26.666666666666668
71852,Howard County,AR,NA,NA,86.13756613756614,NA
71909,Garland County,AR,78.54671280276817,NA,NA,NA
71913,Garland County,AR,51.55709342560554,NA,NA,NA
71953,Polk County,AR,NA,NA,85.07936507936508,NA
72104,Hot Spring County,AR,50.17301038062284,NA,NA,66.66666666666666
72210,Pulaski County,AR,78.89273356401384,NA,NA,NA
72501,Independence County,AR,NA,NA,72.38095238095238,NA
72601,Boone County,AR,NA,NA,62.751322751322746,NA
72830,Johnson County,AR,83.73702422145328,NA,NA,NA
72904,Sebastian County,AR,93.42560553633218,NA,NA,NA
90003,Los Angeles County,CA,NA,NA,42.53968253968254,NA
90011,Los Angeles County,CA,NA,NA,28.78306878306878,NA
90013,Los Angeles County,CA,NA,NA,NA,73.84615384615385
90022,Los Angeles County,CA,NA,NA,43.492063492063494,NA
90044,Los Angeles County,CA,NA,NA,33.86243386243386,NA
90061,Los Angeles County,CA,NA,NA,77.14285714285715,NA
90201,Los Angeles County,CA,41.522491349480966,NA,NA,NA
90221,Los Angeles County,CA,NA,NA,12.698412698412698,NA
90250,Los Angeles County,CA,NA,NA,NA,28.717948717948715
90280,Los Angeles County,CA,NA,26.540284360189574,NA,NA
90601,Los Angeles County,CA,NA,NA,62.645502645502646,NA
90650,Los Angeles County,CA,NA,NA,NA,15.897435897435896
90706,Los Angeles County,CA,17.647058823529413,NA,NA,NA
90723,Los Angeles County,CA,NA,NA,60.10582010582011,NA
90802,Los Angeles County,CA,NA,NA,82.53968253968253,NA
90805,Los Angeles County,CA,NA,NA,56.719576719576715,NA
90810,Los Angeles County,CA,64.70588235294117,NA,NA,NA
90813,Los Angeles County,CA,NA,NA,39.36507936507937,NA
91042,Los Angeles County,CA,NA,NA,NA,59.48717948717949
91203,Los Angeles County,CA,NA,NA,95.34391534391534,NA
91214,Los Angeles County,CA,NA,NA,84.12698412698413,NA
91303,Los Angeles County,CA,NA,NA,86.56084656084656,NA
91320,Ventura County,CA,NA,NA,70.7936507936508,NA
91381,Los Angeles County,CA,75.77854671280276,NA,NA,NA
91607,Los Angeles County,CA,NA,NA,84.76190476190476,NA
91748,Los Angeles County,CA,NA,NA,75.13227513227513,NA
91767,Los Angeles County,CA,NA,NA,47.3015873015873,NA
91786,San Bernardino County,CA,NA,NA,38.62433862433862,NA
91913,San Diego County,CA,NA,NA,78.62433862433862,NA
92009,San Diego County,CA,55.70934256055363,NA,NA,NA
92027,San Diego County,CA,NA,NA,54.6031746031746,NA
92028,San Diego County,CA,NA,NA,89.41798941798942,NA
92064,San Diego County,CA,NA,60.66350710900474,NA,NA
92101,San Diego County,CA,NA,NA,51.11111111111111,NA
92107,San Diego County,CA,NA,NA,NA,76.41025641025641
92114,San Diego County,CA,NA,14.218009478672986,NA,NA
92220,Riverside County,CA,NA,NA,65.60846560846561,NA
92223,Riverside County,CA,47.75086505190311,NA,NA,81.53846153846153
92234,Riverside County,CA,NA,NA,16.084656084656086,NA
92307,San Bernardino County,CA,NA,NA,32.16931216931217,NA
92311,San Bernardino County,CA,39.10034602076124,NA,44.12698412698413,NA
92324,San Bernardino County,CA,NA,NA,23.809523809523807,45.12820512820513
92336,San Bernardino County,CA,NA,NA,12.380952380952381,NA
92404,San Bernardino County,CA,NA,NA,19.365079365079367,NA
92672,Orange County,CA,NA,NA,73.22751322751323,NA
92886,Orange County,CA,NA,NA,35.76719576719577,NA
92887,Orange County,CA,NA,NA,93.33333333333333,NA
93003,Ventura County,CA,NA,NA,17.67195767195767,NA
93015,Ventura County,CA,NA,64.45497630331754,NA,NA
93030,Ventura County,CA,NA,NA,NA,26.153846153846157
93033,Ventura County,CA,NA,NA,NA,9.7435897435897445
93101,Santa Barbara County,CA,NA,NA,NA,96.41025641025641
93110,Santa Barbara County,CA,NA,NA,93.01587301587301,NA
93304,Kern County,CA,NA,NA,27.83068783068783,NA
93307,Kern County,CA,31.141868512110726,NA,NA,NA
93309,Kern County,CA,NA,NA,37.77777777777778,NA
93401,San Luis Obispo County,CA,NA,NA,NA,62.56410256410256
93422,San Luis Obispo County,CA,NA,NA,54.4973544973545,NA
93446,San Luis Obispo County,CA,NA,11.848341232227488,NA,NA
93555,Kern County,CA,NA,NA,29.20634920634921,NA
93657,Fresno County,CA,NA,NA,85.82010582010582,NA
93706,Fresno County,CA,NA,NA,64.12698412698413,NA
93722,Fresno County,CA,NA,NA,11.216931216931217,NA
93727,Fresno County,CA,NA,NA,50.8994708994709,NA
93730,Fresno County,CA,87.19723183391004,NA,NA,NA
93905,Monterey County,CA,NA,NA,75.34391534391534,NA
93926,Monterey County,CA,NA,NA,NA,98.97435897435898
93940,Monterey County,CA,NA,NA,60,NA
94070,San Mateo County,CA,67.82006920415225,NA,NA,NA
94080,San Mateo County,CA,NA,NA,NA,8.205128205128204
94107,San Francisco County,CA,NA,NA,NA,75.38461538461539
94118,San Francisco County,CA,NA,NA,NA,36.92307692307693
94133,San Francisco County,CA,NA,NA,80.21164021164022,NA
94509,Contra Costa County,CA,NA,NA,25.608465608465607,NA
94519,Contra Costa County,CA,NA,NA,NA,86.66666666666667
94545,Alameda County,CA,73.01038062283737,NA,NA,NA
94565,Contra Costa County,CA,22.837370242214533,NA,NA,NA
94566,Alameda County,CA,NA,NA,68.78306878306879,NA
94607,Alameda County,CA,NA,NA,78.0952380952381,NA
94621,Alameda County,CA,NA,NA,38.3068783068783,NA
95035,Santa Clara County,CA,NA,91.9431279620853,NA,NA
95051,Santa Clara County,CA,NA,NA,51.85185185185185,NA
95122,Santa Clara County,CA,38.75432525951557,NA,NA,55.38461538461539
95125,Santa Clara County,CA,NA,NA,54.920634920634924,NA
95204,San Joaquin County,CA,NA,NA,64.33862433862434,NA
95307,Stanislaus County,CA,NA,NA,38.835978835978835,NA
95337,San Joaquin County,CA,NA,NA,92.27513227513228,NA
95350,Stanislaus County,CA,27.68166089965398,NA,NA,NA
95358,Stanislaus County,CA,NA,NA,35.34391534391534,NA
95621,Sacramento County,CA,NA,NA,49.629629629629626,NA
95632,Sacramento County,CA,NA,NA,67.4074074074074,NA
95660,Sacramento County,CA,77.50865051903114,NA,NA,NA
95670,Sacramento County,CA,NA,NA,41.58730158730159,NA
95762,El Dorado County,CA,NA,NA,58.51851851851851,NA
95776,Yolo County,CA,NA,NA,90.26455026455027,NA
95815,Sacramento County,CA,NA,NA,71.53439153439155,NA
95823,Sacramento County,CA,41.17647058823529,31.753554502369667,14.497354497354497,NA
95831,Sacramento County,CA,NA,NA,65.18518518518519,NA
95841,Sacramento County,CA,NA,NA,87.4074074074074,NA
95842,Sacramento County,CA,NA,NA,52.27513227513227,NA
95926,Butte County,CA,NA,NA,41.269841269841265,NA
95966,Butte County,CA,77.16262975778547,NA,NA,NA
96067,Siskiyou County,CA,NA,NA,97.03703703703704,NA
80010,Arapahoe County,CO,NA,NA,NA,49.23076923076923
80011,Arapahoe County,CO,NA,NA,9.100529100529101,NA
80015,Arapahoe County,CO,NA,NA,19.788359788359788,NA
80020,Broomfield County,CO,NA,NA,51.00529100529101,NA
80112,Arapahoe County,CO,NA,NA,61.7989417989418,NA
80120,Arapahoe County,CO,NA,NA,69.41798941798942,NA
80123,Jefferson County,CO,44.29065743944637,NA,NA,NA
80125,Douglas County,CO,90.65743944636678,NA,NA,NA
80138,Douglas County,CO,NA,NA,NA,74.35897435897436
80215,Jefferson County,CO,NA,74.88151658767772,NA,NA
80221,Adams County,CO,NA,NA,NA,62.05128205128205
80239,Denver County,CO,NA,10.42654028436019,NA,NA
80304,Boulder County,CO,NA,NA,86.77248677248677,NA
80465,Jefferson County,CO,NA,NA,89.84126984126985,NA
80501,Boulder County,CO,NA,NA,24.232804232804234,NA
80525,Larimer County,CO,NA,NA,NA,11.282051282051283
80538,Larimer County,CO,NA,NA,14.603174603174605,NA
80550,Weld County,CO,32.8719723183391,NA,NA,NA
80631,Weld County,CO,NA,23.696682464454977,10.37037037037037,NA
80701,Morgan County,CO,26.989619377162633,NA,NA,NA
80816,Teller County,CO,NA,NA,NA,90.25641025641026
80903,El Paso County,CO,NA,NA,75.23809523809524,NA
80910,El Paso County,CO,NA,NA,28.677248677248677,NA
80911,El Paso County,CO,75.77854671280276,NA,NA,NA
80917,El Paso County,CO,NA,NA,68.04232804232804,NA
81003,Pueblo County,CO,NA,NA,42.32804232804233,NA
81007,Pueblo County,CO,33.56401384083045,NA,52.59259259259259,NA
81334,Montezuma County,CO,NA,NA,99.04761904761905,NA
81401,Montrose County,CO,51.903114186851205,NA,NA,NA
81506,Mesa County,CO,82.35294117647058,NA,NA,NA
06010,Hartford County,CT,NA,NA,2.2222222222222223,NA
06033,Hartford County,CT,NA,NA,64.76190476190476,NA
06042,Hartford County,CT,NA,NA,45.60846560846561,NA
06098,Litchfield County,CT,NA,NA,55.23809523809524,NA
06457,Middlesex County,CT,NA,NA,9.206349206349207,NA
06513,New Haven County,CT,NA,NA,24.97354497354497,NA
06514,New Haven County,CT,NA,55.92417061611374,NA,NA
06515,New Haven County,CT,NA,NA,34.179894179894184,NA
06516,New Haven County,CT,20.415224913494807,NA,NA,NA
06604,Fairfield County,CT,NA,NA,23.386243386243386,NA
06607,Fairfield County,CT,NA,NA,85.5026455026455,NA
06702,New Haven County,CT,NA,NA,88.04232804232804,NA
06706,New Haven County,CT,NA,NA,NA,73.33333333333333
06708,New Haven County,CT,NA,NA,63.8095238095238,NA
06716,New Haven County,CT,NA,NA,NA,71.28205128205128
06784,Fairfield County,CT,NA,NA,99.36507936507937,NA
06825,Fairfield County,CT,NA,NA,86.87830687830687,NA
06850,Fairfield County,CT,NA,NA,78.2010582010582,NA
19702,New Castle County,DE,NA,NA,17.354497354497354,NA
19810,New Castle County,DE,NA,63.98104265402843,NA,NA
19946,Kent County,DE,NA,NA,97.03703703703704,NA
19958,Sussex County,DE,NA,NA,72.4867724867725,NA
19973,Sussex County,DE,NA,NA,53.86243386243387,NA
32073,Clay County,FL,NA,NA,27.61904761904762,NA
32084,St. Johns County,FL,NA,NA,33.96825396825397,NA
32129,Volusia County,FL,NA,71.56398104265402,NA,NA
32131,Putnam County,FL,80.62283737024222,NA,NA,NA
32132,Volusia County,FL,NA,97.6303317535545,NA,NA
32162,Sumter County,FL,NA,NA,NA,4.102564102564102
32221,Duval County,FL,NA,NA,34.4973544973545,NA
32224,Duval County,FL,NA,NA,65.71428571428571,NA
32304,Leon County,FL,NA,NA,64.65608465608466,92.3076923076923
32401,Bay County,FL,NA,NA,45.07936507936508,NA
32466,Bay County,FL,NA,NA,90.7936507936508,NA
32539,Okaloosa County,FL,NA,68.24644549763033,NA,NA
32563,Santa Rosa County,FL,NA,NA,39.89417989417989,NA
32570,Santa Rosa County,FL,71.280276816609,NA,NA,NA
32601,Alachua County,FL,NA,NA,88.46560846560847,NA
32608,Alachua County,FL,NA,NA,NA,17.435897435897434
32641,Alachua County,FL,NA,NA,29.523809523809526,NA
32653,Alachua County,FL,10.380622837370241,NA,NA,NA
32666,Putnam County,FL,NA,NA,90.37037037037037,NA
32738,Volusia County,FL,NA,NA,NA,40
32765,Seminole County,FL,56.747404844290664,NA,NA,NA
32773,Seminole County,FL,NA,NA,95.66137566137566,NA
32808,Orange County,FL,NA,NA,53.65079365079365,NA
32817,Orange County,FL,NA,NA,72.4867724867725,NA
32832,Orange County,FL,NA,NA,88.78306878306879,NA
32935,Brevard County,FL,NA,NA,22.962962962962962,NA
32937,Brevard County,FL,NA,NA,93.43915343915344,NA
33024,Broward County,FL,NA,NA,34.285714285714285,NA
33029,Broward County,FL,64.3598615916955,NA,NA,NA
33032,Miami-Dade County,FL,NA,18.009478672985782,48.57142857142857,NA
33033,Miami-Dade County,FL,NA,NA,48.994708994708994,NA
33068,Broward County,FL,49.48096885813148,NA,NA,NA
33134,Miami-Dade County,FL,NA,NA,94.28571428571428,NA
33135,Miami-Dade County,FL,NA,NA,NA,79.48717948717949
33169,Miami-Dade County,FL,NA,NA,49.2063492063492,NA
33177,Miami-Dade County,FL,NA,20.85308056872038,NA,NA
33187,Miami-Dade County,FL,NA,67.29857819905213,NA,NA
33311,Broward County,FL,NA,8.056872037914692,NA,NA
33312,Broward County,FL,NA,34.59715639810427,NA,NA
33316,Broward County,FL,NA,NA,96.93121693121694,NA
33323,Broward County,FL,92.38754325259517,NA,NA,NA
33409,Palm Beach County,FL,NA,42.18009478672986,NA,NA
33428,Palm Beach County,FL,85.46712802768167,NA,NA,NA
33440,Hendry County,FL,59.515570934256054,NA,NA,NA
33511,Hillsborough County,FL,NA,50.23696682464455,NA,NA
33534,Hillsborough County,FL,NA,NA,NA,80.51282051282051
33596,Hillsborough County,FL,NA,NA,NA,67.17948717948717
33610,Hillsborough County,FL,NA,NA,NA,42.56410256410256
33612,Hillsborough County,FL,NA,NA,13.12169312169312,NA
33637,Hillsborough County,FL,NA,87.20379146919431,NA,NA
33702,Pinellas County,FL,NA,NA,60.423280423280424,NA
33755,Pinellas County,FL,NA,NA,NA,72.82051282051282
33777,Pinellas County,FL,NA,NA,NA,77.94871794871796
33781,Pinellas County,FL,NA,NA,NA,38.46153846153847
33810,Polk County,FL,NA,20.379146919431278,NA,NA
33880,Polk County,FL,NA,NA,27.513227513227513,NA
33907,Lee County,FL,60.89965397923876,NA,NA,NA
33917,Lee County,FL,58.82352941176471,NA,NA,NA
33952,Charlotte County,FL,NA,NA,29.31216931216931,NA
33972,Lee County,FL,NA,NA,88.67724867724867,NA
34110,Collier County,FL,NA,NA,NA,58.97435897435898
34202,Manatee County,FL,NA,NA,74.17989417989418,NA
34209,Manatee County,FL,NA,NA,NA,27.17948717948718
34239,Sarasota County,FL,NA,NA,83.4920634920635,NA
34293,Sarasota County,FL,NA,NA,55.44973544973545,NA
34450,Citrus County,FL,94.80968858131487,NA,NA,NA
34481,Marion County,FL,NA,NA,78.94179894179895,NA
34668,Pasco County,FL,NA,NA,14.285714285714285,NA
34695,Pinellas County,FL,NA,NA,93.22751322751323,NA
34758,Osceola County,FL,NA,NA,26.24338624338624,NA
34759,Polk County,FL,6.5743944636678195,NA,NA,NA
34952,St. Lucie County,FL,NA,45.023696682464454,NA,NA
34953,St. Lucie County,FL,29.411764705882355,NA,NA,NA
34956,Martin County,FL,92.73356401384083,NA,NA,NA
30013,Rockdale County,GA,NA,NA,53.12169312169313,NA
30016,Newton County,GA,NA,61.61137440758294,NA,NA
30032,DeKalb County,GA,NA,NA,NA,12.82051282051282
30043,Gwinnett County,GA,34.2560553633218,51.18483412322274,NA,NA
30046,Gwinnett County,GA,NA,NA,55.026455026455025,NA
30060,Cobb County,GA,NA,NA,76.82539682539684,NA
30067,Cobb County,GA,61.93771626297578,NA,NA,NA
30088,DeKalb County,GA,NA,NA,NA,68.2051282051282
30113,Haralson County,GA,NA,NA,82.96296296296296,NA
30120,Bartow County,GA,NA,NA,61.05820105820106,NA
30132,Paulding County,GA,NA,NA,NA,41.53846153846154
30134,Douglas County,GA,NA,41.23222748815166,NA,NA
30152,Cobb County,GA,45.32871972318339,NA,NA,NA
30168,Cobb County,GA,NA,56.872037914691944,NA,NA
30176,Haralson County,GA,91.34948096885813,NA,NA,NA
30217,Heard County,GA,NA,NA,74.4973544973545,NA
30224,Spalding County,GA,NA,NA,61.48148148148148,NA
30236,Clayton County,GA,NA,NA,37.24867724867725,NA
30268,Fulton County,GA,NA,NA,83.17460317460318,NA
30276,Coweta County,GA,NA,NA,77.35449735449735,NA
30297,Clayton County,GA,NA,NA,65.07936507936508,NA
30312,Fulton County,GA,NA,NA,NA,61.02564102564103
30350,Fulton County,GA,NA,NA,70.68783068783068,NA
30436,Toombs County,GA,NA,NA,86.66666666666667,NA
30458,Bulloch County,GA,38.062283737024224,NA,NA,NA
30528,White County,GA,NA,NA,60.10582010582011,NA
30533,Lumpkin County,GA,NA,NA,71.74603174603175,NA
30549,Jackson County,GA,NA,81.99052132701422,NA,NA
30705,Murray County,GA,NA,NA,34.70899470899471,NA
30728,Walker County,GA,NA,NA,44.86772486772487,NA
30741,Walker County,GA,NA,NA,23.28042328042328,21.025641025641026
30809,Columbia County,GA,34.94809688581315,NA,43.7037037037037,NA
30906,Richmond County,GA,NA,NA,35.66137566137566,NA
30907,Columbia County,GA,NA,NA,30.264550264550266,NA
30909,Richmond County,GA,NA,NA,31.216931216931215,NA
31005,Houston County,GA,88.23529411764706,NA,NA,NA
31015,Crisp County,GA,NA,NA,55.55555555555556,NA
31029,Monroe County,GA,NA,NA,78.41269841269842,NA
31088,Houston County,GA,NA,45.97156398104265,NA,NA
31204,Bibb County,GA,37.37024221453287,41.70616113744076,NA,NA
31206,Bibb County,GA,NA,NA,35.55555555555556,NA
31520,Glynn County,GA,NA,NA,58.83597883597883,NA
31554,Coffee County,GA,NA,NA,98.3068783068783,NA
31636,Lowndes County,GA,NA,NA,87.08994708994709,NA
31808,Harris County,GA,NA,NA,92.8042328042328,NA
31833,Troup County,GA,NA,83.88625592417061,NA,NA
31904,Muscogee County,GA,NA,NA,36.71957671957672,NA
39842,Terrell County,GA,NA,97.1563981042654,NA,NA
96743,Hawaii County,HI,NA,NA,84.65608465608466,NA
96753,Maui County,HI,NA,NA,81.9047619047619,NA
96789,Honolulu County,HI,NA,NA,25.71428571428571,8.717948717948717
96817,Honolulu County,HI,NA,NA,14.074074074074074,NA
83211,Power County,ID,NA,NA,87.3015873015873,NA
83301,Twin Falls County,ID,NA,32.22748815165877,44.338624338624335,NA
83402,Bonneville County,ID,NA,NA,NA,52.820512820512825
83404,Bonneville County,ID,NA,44.54976303317535,NA,NA
83440,Madison County,ID,NA,NA,76.5079365079365,NA
83605,Canyon County,ID,NA,18.95734597156398,NA,NA
83617,Gem County,ID,NA,NA,77.35449735449735,NA
60010,Lake County,IL,NA,NA,46.34920634920635,NA
60018,Cook County,IL,NA,NA,69.1005291005291,NA
60056,Cook County,IL,NA,NA,46.24338624338624,NA
60060,Lake County,IL,NA,NA,56.19047619047619,NA
60062,Cook County,IL,NA,NA,46.666666666666664,NA
60073,Lake County,IL,NA,NA,18.201058201058203,NA
60085,Lake County,IL,NA,85.78199052132702,NA,NA
60090,Cook County,IL,75.4325259515571,NA,NA,NA
60131,Cook County,IL,97.57785467128028,NA,NA,NA
60142,McHenry County,IL,NA,NA,49.1005291005291,NA
60171,Cook County,IL,85.46712802768167,NA,NA,NA
60188,DuPage County,IL,NA,NA,21.798941798941797,NA
60191,DuPage County,IL,NA,NA,74.07407407407408,NA
60202,Cook County,IL,NA,NA,66.87830687830689,NA
60404,Will County,IL,NA,97.6303317535545,NA,NA
60431,Will County,IL,NA,NA,47.51322751322751,NA
60440,Will County,IL,NA,NA,NA,54.871794871794876
60452,Cook County,IL,NA,NA,57.24867724867725,NA
60465,Cook County,IL,NA,NA,57.460317460317455,NA
60471,Cook County,IL,NA,NA,77.24867724867724,NA
60504,DuPage County,IL,NA,NA,42.96296296296296,NA
60505,Kane County,IL,NA,NA,36.71957671957672,NA
60517,DuPage County,IL,NA,NA,NA,35.38461538461539
60555,DuPage County,IL,NA,NA,76.29629629629629,NA
60609,Cook County,IL,32.52595155709342,NA,NA,18.461538461538463
60612,Cook County,IL,NA,NA,21.693121693121693,NA
60622,Cook County,IL,NA,NA,44.55026455026455,50.256410256410255
60624,Cook County,IL,NA,NA,NA,29.230769230769234
60626,Cook County,IL,NA,NA,23.174603174603174,NA
60628,Cook County,IL,NA,79.62085308056872,NA,NA
60631,Cook County,IL,NA,NA,NA,53.84615384615385
60634,Cook County,IL,NA,95.73459715639811,NA,NA
60636,Cook County,IL,NA,NA,40.84656084656085,NA
60651,Cook County,IL,NA,NA,10.264550264550266,NA
60652,Cook County,IL,57.785467128027676,NA,NA,NA
60660,Cook County,IL,65.39792387543253,NA,NA,NA
60914,Kankakee County,IL,NA,NA,40.317460317460316,NA
60970,Iroquois County,IL,NA,NA,82.43386243386243,NA
61081,Whiteside County,IL,NA,NA,36.08465608465609,NA
61108,Winnebago County,IL,NA,NA,85.71428571428571,NA
61111,Winnebago County,IL,NA,NA,NA,63.07692307692307
61265,Rock Island County,IL,NA,88.15165876777252,NA,NA
61348,LaSalle County,IL,96.19377162629758,NA,NA,NA
61542,Fulton County,IL,NA,NA,99.7883597883598,NA
61701,McLean County,IL,50.86505190311419,NA,38.2010582010582,NA
61704,McLean County,IL,NA,NA,45.714285714285715,NA
61764,Livingston County,IL,84.77508650519032,NA,NA,NA
61832,Vermilion County,IL,27.68166089965398,NA,NA,NA
62010,Madison County,IL,NA,NA,82.01058201058201,NA
62025,Madison County,IL,NA,NA,73.65079365079366,NA
62052,Jersey County,IL,NA,NA,75.97883597883597,NA
62269,St. Clair County,IL,83.73702422145328,NA,NA,NA
62401,Effingham County,IL,NA,NA,NA,64.1025641025641
62901,Jackson County,IL,NA,NA,71.42857142857143,NA
62930,Saline County,IL,NA,NA,95.66137566137566,NA
46013,Madison County,IN,NA,NA,40.74074074074074,NA
46016,Madison County,IN,NA,NA,16.71957671957672,NA
46037,Hamilton County,IN,52.94117647058824,NA,NA,NA
46074,Hamilton County,IN,NA,NA,71.11111111111111,NA
46113,Marion County,IN,NA,NA,73.75661375661376,NA
46135,Putnam County,IN,79.58477508650519,NA,NA,NA
46151,Morgan County,IN,NA,NA,29.947089947089943,NA
46176,Shelby County,IN,NA,NA,17.989417989417987,NA
46222,Marion County,IN,NA,NA,59.894179894179885,30.76923076923077
46224,Marion County,IN,NA,NA,36.613756613756614,NA
46225,Marion County,IN,94.4636678200692,NA,NA,NA
46227,Marion County,IN,NA,NA,NA,6.666666666666667
46229,Marion County,IN,53.63321799307958,NA,NA,NA
46241,Marion County,IN,30.44982698961938,NA,NA,NA
46259,Marion County,IN,89.61937716262976,NA,NA,NA
46307,Lake County,IN,1.7301038062283738,NA,NA,NA
46323,Lake County,IN,NA,NA,61.37566137566137,NA
46350,LaPorte County,IN,12.802768166089965,NA,41.058201058201064,NA
46356,Lake County,IN,NA,NA,70.15873015873015,NA
46360,LaPorte County,IN,NA,NA,6.455026455026455,NA
46375,Lake County,IN,NA,80.56872037914692,NA,NA
46385,Porter County,IN,NA,NA,35.13227513227513,NA
46404,Lake County,IN,NA,NA,72.16931216931218,NA
46514,Elkhart County,IN,NA,NA,34.70899470899471,NA
46750,Huntington County,IN,18.33910034602076,NA,NA,NA
46774,Allen County,IN,NA,NA,67.1957671957672,NA
46804,Allen County,IN,60.553633217993074,NA,NA,NA
46806,Allen County,IN,NA,NA,66.98412698412697,NA
46816,Allen County,IN,NA,NA,34.074074074074076,NA
46962,Wabash County,IN,71.62629757785467,NA,NA,NA
47025,Dearborn County,IN,NA,NA,47.72486772486773,NA
47150,Floyd County,IN,19.72318339100346,NA,NA,NA
47170,Scott County,IN,NA,NA,66.56084656084657,NA
47250,Jefferson County,IN,NA,NA,73.96825396825398,NA
47302,Delaware County,IN,NA,NA,21.05820105820106,34.87179487179487
47396,Delaware County,IN,NA,99.0521327014218,NA,NA
47438,Greene County,IN,NA,NA,94.92063492063491,NA
47441,Greene County,IN,NA,80.09478672985783,91.53439153439153,NA
47446,Lawrence County,IN,NA,NA,NA,76.41025641025641
47591,Knox County,IN,NA,NA,43.17460317460318,NA
47620,Posey County,IN,NA,NA,NA,70.76923076923077
47714,Vanderburgh County,IN,NA,NA,50.37037037037037,NA
47834,Clay County,IN,NA,NA,38.51851851851852,NA
47885,Vigo County,IN,NA,NA,87.19576719576719,NA
47909,Tippecanoe County,IN,NA,NA,92.06349206349206,NA
47960,White County,IN,55.36332179930796,NA,NA,NA
50158,Marshall County,IA,NA,69.19431279620854,30.793650793650794,NA
50219,Marion County,IA,NA,NA,90.58201058201058,NA
50315,Polk County,IA,NA,NA,10.582010582010582,NA
50317,Polk County,IA,NA,NA,13.968253968253968,NA
50320,Polk County,IA,NA,NA,56.613756613756614,NA
50501,Webster County,IA,NA,NA,28.888888888888886,NA
51106,Woodbury County,IA,NA,78.67298578199052,NA,NA
51501,Pottawattamie County,IA,NA,NA,20.634920634920633,NA
51503,Pottawattamie County,IA,NA,NA,39.682539682539684,NA
52302,Linn County,IA,NA,NA,89.73544973544973,NA
52402,Linn County,IA,NA,NA,22.22222222222222,NA
52404,Linn County,IA,4.844290657439446,NA,NA,NA
52627,Lee County,IA,NA,NA,51.216931216931215,NA
66030,Johnson County,KS,NA,NA,NA,65.64102564102564
66044,Douglas County,KS,NA,NA,74.39153439153439,NA
66071,Miami County,KS,NA,NA,79.25925925925927,NA
66106,Wyandotte County,KS,NA,NA,54.70899470899471,NA
67217,Sedgwick County,KS,NA,94.3127962085308,NA,NA
67226,Sedgwick County,KS,NA,NA,89.1005291005291,NA
67550,Pawnee County,KS,NA,NA,93.12169312169311,NA
40004,Nelson County,KY,NA,NA,21.48148148148148,NA
40067,Shelby County,KY,NA,NA,96.61375661375662,NA
40146,Breckinridge County,KY,NA,NA,95.55555555555556,NA
40160,Hardin County,KY,NA,NA,39.15343915343915,NA
40206,Jefferson County,KY,NA,63.507109004739334,NA,NA
40212,Jefferson County,KY,NA,NA,30.158730158730158,NA
40223,Jefferson County,KY,NA,NA,71.32275132275132,NA
40272,Jefferson County,KY,13.84083044982699,NA,NA,NA
40351,Rowan County,KY,NA,NA,25.502645502645503,NA
40359,Owen County,KY,NA,NA,85.39682539682539,NA
40391,Clark County,KY,NA,NA,10.158730158730158,NA
40403,Madison County,KY,NA,NA,63.70370370370371,NA
40769,Whitley County,KY,NA,NA,40.52910052910053,NA
40873,Harlan County,KY,NA,NA,99.15343915343915,NA
41016,Kenton County,KY,NA,NA,84.44444444444444,NA
41017,Kenton County,KY,NA,NA,70.47619047619048,24.615384615384617
41144,Greenup County,KY,75.08650519031141,NA,NA,NA
41314,Owsley County,KY,NA,NA,NA,85.64102564102564
41701,Perry County,KY,NA,56.872037914691944,NA,69.74358974358974
42003,McCracken County,KY,NA,NA,16.71957671957672,NA
42129,Metcalfe County,KY,NA,83.41232227488152,NA,NA
42141,Barren County,KY,NA,NA,14.39153439153439,NA
42164,Allen County,KY,63.667820069204154,NA,NA,NA
42301,Daviess County,KY,NA,NA,11.64021164021164,NA
42633,Wayne County,KY,NA,NA,59.682539682539684,NA
42647,McCreary County,KY,NA,91.4691943127962,98.94179894179894,NA
70003,Jefferson Parish,LA,3.1141868512110724,NA,NA,NA
70056,Jefferson Parish,LA,NA,NA,4.973544973544974,NA
70058,Jefferson Parish,LA,NA,NA,2.9629629629629632,NA
70072,Jefferson Parish,LA,NA,NA,1.2698412698412698,NA
70116,Orleans Parish,LA,NA,NA,57.67195767195767,NA
70118,Orleans Parish,LA,NA,NA,NA,20
70363,Terrebonne Parish,LA,NA,NA,76.29629629629629,NA
70438,Washington Parish,LA,NA,8.530805687203792,NA,NA
70446,Tangipahoa Parish,LA,NA,NA,81.16402116402116,NA
70507,Lafayette Parish,LA,NA,NA,50.15873015873016,NA
70515,Evangeline Parish,LA,NA,NA,94.07407407407408,NA
70554,Evangeline Parish,LA,NA,99.52606635071089,NA,NA
70601,Calcasieu Parish,LA,NA,5.213270142180095,NA,NA
70663,Calcasieu Parish,LA,NA,NA,10.052910052910052,NA
70714,East Baton Rouge Parish,LA,NA,NA,27.40740740740741,NA
70730,East Feliciana Parish,LA,NA,87.20379146919431,NA,NA
70737,Ascension Parish,LA,NA,9.004739336492891,NA,NA
70775,West Feliciana Parish,LA,NA,NA,91.32275132275133,NA
70805,East Baton Rouge Parish,LA,NA,NA,78.51851851851852,NA
70810,East Baton Rouge Parish,LA,NA,31.27962085308057,NA,NA
70816,East Baton Rouge Parish,LA,NA,NA,6.666666666666667,NA
71106,Caddo Parish,LA,NA,NA,7.5132275132275135,NA
71107,Caddo Parish,LA,NA,NA,3.28042328042328,NA
71109,Caddo Parish,LA,NA,3.7914691943127963,NA,NA
71343,Catahoula Parish,LA,NA,NA,98.62433862433862,NA
71360,Rapides Parish,LA,NA,7.5829383886255926,NA,NA
71467,Grant Parish,LA,NA,96.6824644549763,NA,NA
04101,Cumberland County,ME,NA,NA,42.43386243386244,NA
04210,Androscoggin County,ME,NA,NA,21.375661375661377,NA
04240,Androscoggin County,ME,NA,NA,2.328042328042328,NA
04401,Penobscot County,ME,NA,NA,NA,2.564102564102564
04530,Sagadahoc County,ME,NA,NA,72.06349206349206,51.7948717948718
04927,Kennebec County,ME,98.6159169550173,NA,NA,NA
20706,Prince George's County,MD,70.93425605536332,NA,NA,65.12820512820512
20715,Prince George's County,MD,66.08996539792388,NA,NA,NA
20720,Prince George's County,MD,78.89273356401384,NA,NA,NA
20732,Calvert County,MD,NA,NA,94.49735449735451,NA
20772,Prince George's County,MD,NA,NA,55.87301587301587,NA
20785,Prince George's County,MD,NA,NA,NA,82.05128205128204
21076,Anne Arundel County,MD,NA,NA,88.25396825396825,NA
21207,Baltimore County,MD,65.7439446366782,NA,26.031746031746035,NA
21213,Baltimore city,MD,NA,NA,22.328042328042326,NA
21218,Baltimore city,MD,NA,NA,12.16931216931217,NA
21229,Baltimore city,MD,NA,NA,20.317460317460316,NA
21231,Baltimore city,MD,NA,NA,72.4867724867725,NA
21632,Caroline County,MD,NA,NA,88.78306878306879,NA
01001,Hampden County,MA,NA,NA,80.84656084656085,NA
01007,Hampshire County,MA,95.50173010380622,NA,NA,NA
01020,Hampden County,MA,NA,NA,86.98412698412699,NA
01028,Hampden County,MA,NA,NA,51.32275132275132,NA
01030,Hampden County,MA,46.36678200692042,NA,99.25925925925925,NA
01033,Hampshire County,MA,NA,NA,NA,97.94871794871794
01040,Hampden County,MA,NA,NA,20.952380952380953,NA
01057,Hampden County,MA,NA,66.35071090047393,NA,NA
01105,Hampden County,MA,NA,NA,95.13227513227514,NA
01108,Hampden County,MA,NA,NA,13.227513227513226,NA
01109,Hampden County,MA,NA,NA,9.312169312169312,NA
01201,Berkshire County,MA,NA,NA,4.550264550264551,NA
01230,Berkshire County,MA,NA,NA,98.2010582010582,NA
01370,Franklin County,MA,NA,NA,97.98941798941799,NA
01440,Worcester County,MA,NA,NA,2.0105820105820107,NA
01527,Worcester County,MA,83.04498269896193,NA,NA,NA
01545,Worcester County,MA,47.05882352941176,NA,NA,NA
01562,Worcester County,MA,NA,NA,32.48677248677249,NA
01610,Worcester County,MA,NA,NA,5.82010582010582,NA
01775,Middlesex County,MA,NA,NA,NA,89.74358974358975
01801,Middlesex County,MA,NA,13.744075829383887,NA,NA
01841,Essex County,MA,0,NA,0,NA
01844,Essex County,MA,NA,3.3175355450236967,NA,NA
01876,Middlesex County,MA,NA,NA,NA,21.53846153846154
01890,Middlesex County,MA,NA,NA,NA,34.35897435897436
01905,Essex County,MA,17.301038062283737,NA,NA,NA
01915,Essex County,MA,9.688581314878892,NA,NA,NA
02026,Norfolk County,MA,NA,NA,48.25396825396825,NA
02048,Bristol County,MA,43.944636678200695,NA,NA,13.333333333333334
02052,Norfolk County,MA,NA,NA,69.31216931216932,NA
02114,Suffolk County,MA,NA,NA,56.82539682539682,NA
02118,Suffolk County,MA,3.4602076124567476,NA,0.10582010582010583,NA
02119,Suffolk County,MA,NA,2.843601895734597,NA,NA
02124,Suffolk County,MA,5.88235294117647,NA,NA,NA
02127,Suffolk County,MA,NA,NA,1.5873015873015872,NA
02129,Suffolk County,MA,37.0242214532872,NA,NA,NA
02130,Suffolk County,MA,NA,NA,0.8465608465608466,3.076923076923077
02139,Middlesex County,MA,NA,NA,NA,94.35897435897435
02143,Middlesex County,MA,NA,NA,29.629629629629626,NA
02149,Middlesex County,MA,NA,NA,0.31746031746031744,NA
02180,Middlesex County,MA,NA,NA,14.708994708994707,NA
02184,Norfolk County,MA,NA,17.061611374407583,6.56084656084656,NA
02302,Plymouth County,MA,NA,NA,0.9523809523809524,NA
02370,Plymouth County,MA,NA,NA,16.296296296296298,NA
02536,Barnstable County,MA,NA,NA,26.34920634920635,NA
02568,Dukes County,MA,NA,NA,77.56613756613756,NA
02571,Plymouth County,MA,NA,NA,68.25396825396825,NA
02631,Barnstable County,MA,NA,NA,99.68253968253968,NA
02660,Barnstable County,MA,NA,NA,92.48677248677248,NA
02719,Bristol County,MA,68.5121107266436,NA,NA,NA
02720,Bristol County,MA,NA,NA,0.21164021164021166,0.5128205128205128
02721,Bristol County,MA,NA,NA,0.4232804232804233,NA
02723,Bristol County,MA,8.650519031141869,33.649289099526065,3.1746031746031744,NA
02726,Bristol County,MA,NA,NA,68.46560846560847,NA
02746,Bristol County,MA,NA,NA,84.86772486772487,NA
02747,Bristol County,MA,NA,NA,32.27513227513227,NA
02748,Bristol County,MA,NA,NA,47.195767195767196,NA
02771,Bristol County,MA,NA,NA,45.925925925925924,NA
02777,Bristol County,MA,NA,NA,9.62962962962963,NA
02780,Bristol County,MA,NA,NA,NA,2.051282051282051
48017,Oakland County,MI,93.07958477508652,NA,NA,NA
48035,Macomb County,MI,NA,NA,12.063492063492063,NA
48038,Macomb County,MI,NA,NA,14.920634920634921,31.28205128205128
48060,St. Clair County,MI,NA,NA,3.492063492063492,NA
48062,Macomb County,MI,NA,NA,87.4074074074074,NA
48067,Oakland County,MI,76.8166089965398,NA,NA,NA
48073,Oakland County,MI,NA,NA,33.65079365079365,NA
48075,Oakland County,MI,NA,73.93364928909952,NA,NA
48080,Macomb County,MI,NA,NA,42.75132275132275,14.358974358974358
48085,Oakland County,MI,49.13494809688581,NA,NA,NA
48088,Macomb County,MI,NA,NA,51.746031746031754,NA
48093,Macomb County,MI,53.28719723183391,58.29383886255924,NA,NA
48094,Macomb County,MI,56.40138408304498,89.57345971563981,NA,NA
48101,Wayne County,MI,NA,NA,26.77248677248677,NA
48103,Washtenaw County,MI,26.643598615916954,NA,NA,NA
48105,Washtenaw County,MI,NA,NA,46.13756613756614,NA
48111,Wayne County,MI,NA,NA,7.936507936507936,NA
48124,Wayne County,MI,NA,NA,23.49206349206349,NA
48138,Wayne County,MI,NA,NA,94.6031746031746,NA
48146,Wayne County,MI,NA,NA,59.78835978835979,NA
48152,Wayne County,MI,NA,NA,NA,6.153846153846154
48186,Wayne County,MI,NA,NA,6.878306878306878,NA
48192,Wayne County,MI,NA,NA,20.529100529100532,NA
48193,Wayne County,MI,NA,NA,62.01058201058201,NA
48197,Washtenaw County,MI,NA,NA,2.5396825396825395,NA
48198,Washtenaw County,MI,NA,NA,3.068783068783069,NA
48204,Wayne County,MI,NA,NA,12.275132275132275,NA
48205,Wayne County,MI,NA,NA,4.444444444444445,NA
48209,Wayne County,MI,NA,25.59241706161137,NA,NA
48219,Wayne County,MI,2.0761245674740483,NA,5.608465608465608,NA
48220,Oakland County,MI,NA,NA,53.54497354497354,NA
48221,Wayne County,MI,NA,NA,5.9259259259259265,NA
48224,Wayne County,MI,NA,NA,2.6455026455026456,NA
48228,Wayne County,MI,NA,NA,1.6931216931216932,NA
48235,Wayne County,MI,NA,NA,2.751322751322751,NA
48236,Wayne County,MI,NA,NA,36.19047619047619,NA
48237,Oakland County,MI,NA,35.07109004739337,NA,NA
48306,Oakland County,MI,NA,NA,49.84126984126984,NA
48335,Oakland County,MI,NA,NA,NA,60
48346,Oakland County,MI,61.5916955017301,NA,NA,NA
48348,Oakland County,MI,40.13840830449827,NA,NA,NA
48374,Oakland County,MI,NA,NA,79.68253968253968,NA
48390,Oakland County,MI,41.86851211072664,NA,NA,NA
48430,Genesee County,MI,NA,NA,29.735449735449738,NA
48439,Genesee County,MI,NA,NA,14.814814814814813,NA
48442,Oakland County,MI,NA,NA,55.34391534391534,NA
48446,Lapeer County,MI,50.51903114186851,NA,NA,NA
48462,Oakland County,MI,NA,NA,81.26984126984127,NA
48506,Genesee County,MI,54.67128027681662,NA,NA,NA
48532,Genesee County,MI,NA,NA,NA,43.58974358974359
48651,Roscommon County,MI,NA,NA,94.39153439153439,NA
48734,Saginaw County,MI,NA,NA,87.72486772486772,NA
48823,Ingham County,MI,NA,NA,40.63492063492063,NA
48836,Livingston County,MI,NA,NA,61.904761904761905,NA
48854,Ingham County,MI,NA,NA,57.88359788359788,NA
48917,Eaton County,MI,NA,NA,11.005291005291005,NA
49007,Kalamazoo County,MI,39.792387543252595,NA,NA,NA
49009,Kalamazoo County,MI,30.103806228373703,NA,NA,NA
49048,Kalamazoo County,MI,NA,NA,19.682539682539684,NA
49058,Barry County,MI,NA,NA,35.87301587301587,NA
49203,Jackson County,MI,NA,NA,8.88888888888889,NA
49247,Lenawee County,MI,NA,NA,78.73015873015873,NA
49331,Kent County,MI,NA,80.56872037914692,NA,NA
49417,Ottawa County,MI,40.484429065743946,NA,NA,NA
49428,Ottawa County,MI,NA,NA,59.36507936507937,NA
49442,Muskegon County,MI,NA,NA,20.84656084656085,NA
49444,Muskegon County,MI,NA,NA,11.851851851851853,NA
49461,Muskegon County,MI,NA,NA,79.57671957671958,NA
49504,Kent County,MI,NA,NA,16.402116402116402,NA
49507,Kent County,MI,NA,NA,28.465608465608465,NA
49519,Kent County,MI,NA,29.383886255924168,NA,NA
55016,Washington County,MN,NA,NA,47.72486772486773,NA
55040,Isanti County,MN,82.69896193771626,NA,NA,NA
55044,Dakota County,MN,NA,47.39336492890995,NA,NA
55056,Chisago County,MN,67.82006920415225,NA,NA,NA
55057,Rice County,MN,NA,70.61611374407583,NA,NA
55069,Chisago County,MN,NA,NA,97.67195767195767,NA
55075,Dakota County,MN,NA,NA,48.148148148148145,NA
55101,Ramsey County,MN,NA,NA,40.10582010582011,NA
55106,Ramsey County,MN,NA,NA,NA,83.58974358974359
55117,Ramsey County,MN,NA,NA,18.306878306878307,NA
55118,Dakota County,MN,NA,NA,58.201058201058196,NA
55303,Anoka County,MN,10.726643598615917,NA,NA,NA
55315,Carver County,MN,NA,NA,98.83597883597884,NA
55337,Dakota County,MN,16.608996539792386,NA,72.4867724867725,NA
55345,Hennepin County,MN,NA,61.137440758293835,NA,NA
55350,McLeod County,MN,NA,NA,32.804232804232804,NA
55364,Hennepin County,MN,NA,NA,85.18518518518519,NA
55379,Scott County,MN,NA,33.175355450236964,NA,NA
55401,Hennepin County,MN,NA,NA,70.37037037037037,NA
55403,Hennepin County,MN,NA,NA,26.666666666666668,37.43589743589744
55404,Hennepin County,MN,NA,NA,1.164021164021164,NA
55405,Hennepin County,MN,NA,NA,43.80952380952381,NA
55406,Hennepin County,MN,NA,NA,28.465608465608465,NA
55407,Hennepin County,MN,NA,NA,7.4074074074074066,NA
55411,Hennepin County,MN,NA,NA,NA,17.94871794871795
55412,Hennepin County,MN,NA,NA,10.793650793650794,NA
55415,Hennepin County,MN,NA,NA,77.03703703703704,NA
55416,Hennepin County,MN,NA,NA,78.83597883597884,NA
55422,Hennepin County,MN,NA,NA,35.23809523809524,45.64102564102564
55426,Hennepin County,MN,NA,NA,91.64021164021165,NA
55430,Hennepin County,MN,NA,NA,20.74074074074074,NA
55435,Hennepin County,MN,NA,NA,96.4021164021164,NA
55441,Hennepin County,MN,NA,NA,77.98941798941799,NA
55443,Hennepin County,MN,NA,NA,70.26455026455027,NA
55446,Hennepin County,MN,NA,NA,86.03174603174604,NA
55447,Hennepin County,MN,NA,NA,79.36507936507937,NA
55792,St. Louis County,MN,NA,NA,43.597883597883595,NA
55803,St. Louis County,MN,NA,NA,74.60317460317461,NA
55811,St. Louis County,MN,NA,NA,81.6931216931217,5.641025641025641
55901,Olmsted County,MN,20.069204152249135,NA,NA,70.25641025641025
56011,Scott County,MN,NA,NA,91.85185185185185,NA
56031,Martin County,MN,NA,NA,52.6984126984127,NA
56058,Le Sueur County,MN,NA,NA,97.46031746031746,NA
56201,Kandiyohi County,MN,NA,NA,NA,68.71794871794872
56301,Stearns County,MN,NA,NA,50.264550264550266,NA
56303,Stearns County,MN,80.27681660899654,NA,NA,NA
56304,Sherburne County,MN,NA,NA,66.34920634920634,NA
56345,Morrison County,MN,NA,NA,NA,42.05128205128205
56560,Clay County,MN,NA,12.796208530805686,2.1164021164021163,NA
56601,Beltrami County,MN,NA,NA,7.195767195767195,NA
56621,Clearwater County,MN,NA,NA,84.23280423280424,NA
56636,Itasca County,MN,NA,73.93364928909952,NA,NA
38663,Tippah County,MS,NA,NA,76.19047619047619,NA
38732,Bolivar County,MS,NA,NA,NA,43.07692307692308
39047,Rankin County,MS,NA,NA,60.63492063492063,NA
39056,Hinds County,MS,70.24221453287197,NA,NA,NA
39170,Hinds County,MS,NA,96.2085308056872,86.45502645502646,NA
39180,Warren County,MS,NA,NA,79.15343915343915,NA
39204,Hinds County,MS,NA,26.066350710900476,NA,NA
39232,Rankin County,MS,NA,NA,97.35449735449735,NA
39272,Hinds County,MS,NA,NA,NA,94.87179487179486
39365,Neshoba County,MS,62.28373702422145,NA,NA,NA
39401,Forrest County,MS,NA,NA,38.095238095238095,NA
39452,George County,MS,NA,NA,30.37037037037037,NA
39459,Jones County,MS,NA,NA,99.89417989417989,NA
39501,Harrison County,MS,NA,NA,22.53968253968254,NA
39581,Jackson County,MS,NA,72.98578199052133,NA,NA
39702,Lowndes County,MS,NA,NA,44.65608465608465,NA
39750,Webster County,MS,NA,NA,99.47089947089947,NA
63033,St. Louis County,MO,NA,NA,17.989417989417987,13.846153846153847
63103,St. Louis city,MO,NA,NA,96.71957671957672,NA
63106,St. Louis city,MO,NA,NA,80.42328042328042,NA
63116,St. Louis city,MO,45.674740484429066,NA,NA,NA
63118,St. Louis city,MO,NA,NA,38.94179894179894,NA
63134,St. Louis County,MO,NA,NA,48.35978835978836,NA
63135,St. Louis County,MO,NA,NA,35.978835978835974,NA
63136,St. Louis County,MO,NA,NA,8.571428571428571,NA
63501,Adair County,MO,NA,NA,75.76719576719577,NA
63876,Dunklin County,MO,NA,92.89099526066352,NA,NA
64015,Jackson County,MO,NA,49.28909952606635,NA,NA
64050,Jackson County,MO,11.418685121107266,NA,NA,NA
64068,Clay County,MO,NA,NA,10.476190476190476,NA
64078,Cass County,MO,NA,61.61137440758294,NA,NA
64082,Jackson County,MO,NA,NA,75.87301587301587,NA
64109,Jackson County,MO,NA,NA,32.38095238095238,NA
64118,Clay County,MO,NA,NA,6.031746031746032,NA
64124,Jackson County,MO,NA,NA,NA,72.3076923076923
64127,Jackson County,MO,NA,NA,6.984126984126984,NA
64138,Jackson County,MO,NA,NA,NA,58.46153846153847
64429,Clinton County,MO,22.145328719723185,NA,NA,NA
64505,Buchanan County,MO,NA,NA,37.56613756613756,NA
64507,Buchanan County,MO,NA,NA,31.005291005291006,NA
64633,Carroll County,MO,74.39446366782006,NA,NA,NA
64683,Grundy County,MO,NA,NA,66.03174603174602,NA
64735,Henry County,MO,NA,NA,39.78835978835979,NA
64772,Vernon County,MO,NA,NA,47.93650793650794,NA
65616,Taney County,MO,NA,NA,44.02116402116402,NA
65706,Webster County,MO,NA,66.82464454976304,NA,NA
59405,Cascade County,MT,NA,NA,33.33333333333333,NA
59457,Fergus County,MT,81.66089965397923,NA,NA,NA
59714,Gallatin County,MT,NA,NA,71.21693121693121,NA
59901,Flathead County,MT,NA,NA,37.03703703703704,NA
68117,Douglas County,NE,NA,NA,NA,91.7948717948718
68132,Douglas County,NE,67.1280276816609,NA,NA,NA
69341,Scotts Bluff County,NE,NA,NA,NA,87.6923076923077
89102,Clark County,NV,NA,NA,58.41269841269842,NA
89103,Clark County,NV,66.78200692041523,NA,NA,NA
89104,Clark County,NV,NA,NA,45.29100529100529,NA
89108,Clark County,NV,NA,NA,25.29100529100529,NA
89110,Clark County,NV,NA,37.44075829383886,NA,NA
89113,Clark County,NV,89.96539792387543,NA,NA,NA
89115,Clark County,NV,NA,NA,24.33862433862434,NA
89117,Clark County,NV,NA,NA,72.91005291005291,39.48717948717949
89122,Clark County,NV,NA,NA,30.052910052910054,54.35897435897436
89128,Clark County,NV,NA,NA,58.3068783068783,NA
89129,Clark County,NV,71.62629757785467,NA,NA,NA
89130,Clark County,NV,NA,NA,83.91534391534393,NA
89131,Clark County,NV,NA,NA,54.39153439153439,NA
89142,Clark County,NV,NA,NA,71.95767195767195,NA
89147,Clark County,NV,NA,NA,47.61904761904761,NA
89165,Clark County,NV,NA,NA,98.4126984126984,98.46153846153847
89441,Washoe County,NV,NA,NA,NA,78.97435897435898
89502,Washoe County,NV,19.377162629757784,NA,NA,NA
89706,Carson City,NV,NA,NA,67.61904761904762,NA
03031,Hillsborough County,NH,NA,NA,NA,74.87179487179488
03038,Rockingham County,NH,24.22145328719723,NA,NA,18.974358974358974
03053,Rockingham County,NH,NA,75.35545023696683,NA,NA
03062,Hillsborough County,NH,32.17993079584775,NA,NA,NA
03246,Belknap County,NH,NA,NA,55.87301587301587,NA
03264,Grafton County,NH,NA,68.24644549763033,NA,NA
03275,Merrimack County,NH,76.47058823529412,NA,NA,NA
03301,Merrimack County,NH,NA,NA,19.15343915343915,NA
03570,Coos County,NH,NA,52.60663507109005,NA,NA
07011,Passaic County,NJ,NA,86.25592417061611,NA,NA
07026,Bergen County,NJ,NA,24.170616113744074,NA,NA
07030,Hudson County,NJ,NA,NA,31.851851851851855,NA
07072,Bergen County,NJ,NA,NA,NA,93.84615384615384
07087,Hudson County,NJ,NA,NA,3.5978835978835977,NA
07111,Essex County,NJ,14.53287197231834,17.535545023696685,NA,NA
07305,Hudson County,NJ,NA,NA,0.6349206349206349,NA
07306,Hudson County,NJ,NA,NA,50.476190476190474,NA
07307,Hudson County,NJ,NA,NA,13.333333333333334,NA
07512,Passaic County,NJ,NA,NA,95.97883597883597,NA
07524,Passaic County,NJ,NA,NA,34.6031746031746,NA
07601,Bergen County,NJ,NA,NA,7.089947089947089,NA
07628,Bergen County,NJ,NA,NA,78.3068783068783,NA
07732,Monmouth County,NJ,NA,NA,95.87301587301587,NA
07751,Monmouth County,NJ,NA,NA,96.82539682539682,NA
07869,Morris County,NJ,NA,NA,NA,53.333333333333336
08003,Camden County,NJ,NA,NA,30.687830687830687,NA
08016,Burlington County,NJ,NA,NA,3.7037037037037033,NA
08030,Camden County,NJ,NA,NA,25.185185185185183,NA
08046,Burlington County,NJ,NA,NA,7.301587301587302,NA
08052,Burlington County,NJ,NA,NA,67.3015873015873,NA
08059,Camden County,NJ,94.80968858131487,NA,NA,NA
08060,Burlington County,NJ,NA,NA,17.566137566137566,NA
08085,Gloucester County,NJ,NA,NA,27.3015873015873,NA
08094,Gloucester County,NJ,NA,47.867298578199055,NA,NA
08103,Camden County,NJ,NA,NA,96.29629629629629,NA
08104,Camden County,NJ,NA,0.47393364928909953,NA,NA
08105,Camden County,NJ,NA,1.8957345971563981,24.444444444444443,NA
08109,Camden County,NJ,NA,NA,22.645502645502646,NA
08204,Cape May County,NJ,NA,79.14691943127961,NA,NA
08215,Atlantic County,NJ,NA,33.649289099526065,NA,NA
08232,Atlantic County,NJ,NA,NA,29.841269841269842,NA
08242,Cape May County,NJ,NA,61.61137440758294,NA,NA
08260,Cape May County,NJ,NA,NA,36.2962962962963,NA
08270,Cape May County,NJ,NA,NA,63.597883597883595,NA
08302,Cumberland County,NJ,NA,NA,1.4814814814814816,NA
08332,Cumberland County,NJ,NA,NA,73.43915343915344,NA
08520,Mercer County,NJ,NA,NA,NA,69.23076923076923
08527,Ocean County,NJ,NA,NA,10.899470899470899,NA
08610,Mercer County,NJ,NA,NA,35.44973544973545,NA
87001,Sandoval County,NM,NA,46.44549763033176,NA,NA
87016,Torrance County,NM,NA,NA,100,NA
87105,Bernalillo County,NM,NA,NA,24.126984126984127,NA
87108,Bernalillo County,NM,NA,NA,7.830687830687831,NA
87114,Bernalillo County,NM,NA,NA,9.841269841269842,NA
87121,Bernalillo County,NM,NA,NA,4.656084656084656,NA
87123,Bernalillo County,NM,23.52941176470588,NA,NA,NA
87144,Sandoval County,NM,NA,NA,59.57671957671957,NA
87402,San Juan County,NM,NA,NA,88.57142857142857,NA
87505,Santa Fe County,NM,NA,NA,27.724867724867725,NA
87532,Santa Fe County,NM,NA,NA,45.82010582010582,NA
87571,Taos County,NM,NA,NA,64.02116402116403,NA
87701,San Miguel County,NM,NA,NA,57.67195767195767,NA
88012,Doa Ana County,NM,NA,NA,41.164021164021165,NA
88101,Curry County,NM,6.5743944636678195,NA,11.534391534391535,NA
88130,Roosevelt County,NM,NA,NA,NA,44.61538461538462
88201,Chaves County,NM,NA,NA,NA,40.51282051282051
88203,Chaves County,NM,NA,30.33175355450237,22.645502645502646,NA
88260,Lea County,NM,53.979238754325266,NA,NA,NA
10009,New York County,NY,NA,NA,11.11111111111111,NA
10025,New York County,NY,NA,NA,30.8994708994709,NA
10027,New York County,NY,NA,NA,5.291005291005291,NA
10029,New York County,NY,NA,NA,0.5291005291005291,NA
10031,New York County,NY,NA,NA,60.317460317460316,NA
10034,New York County,NY,35.6401384083045,NA,40.21164021164021,NA
10035,New York County,NY,NA,NA,NA,9.230769230769232
10037,New York County,NY,NA,NA,45.5026455026455,NA
10040,New York County,NY,NA,NA,NA,19.48717948717949
10301,Richmond County,NY,NA,18.48341232227488,NA,NA
10303,Richmond County,NY,NA,NA,46.77248677248677,NA
10304,Richmond County,NY,13.494809688581316,NA,NA,NA
10306,Richmond County,NY,NA,NA,22.116402116402117,NA
10457,Bronx County,NY,NA,0,NA,NA
10458,Bronx County,NY,NA,NA,NA,0
10459,Bronx County,NY,7.26643598615917,NA,5.396825396825397,NA
10462,Bronx County,NY,NA,NA,NA,29.743589743589745
10467,Bronx County,NY,NA,13.270142180094787,NA,NA
10468,Bronx County,NY,NA,NA,NA,3.5897435897435894
10704,Westchester County,NY,86.159169550173,NA,NA,NA
10924,Orange County,NY,NA,NA,93.54497354497354,NA
10940,Orange County,NY,NA,NA,18.941798941798943,NA
10977,Rockland County,NY,NA,NA,37.98941798941799,NA
10980,Rockland County,NY,NA,NA,97.56613756613757,NA
11201,Kings County,NY,NA,NA,24.55026455026455,NA
11207,Kings County,NY,1.0380622837370241,NA,NA,NA
11208,Kings County,NY,NA,NA,9.523809523809524,NA
11211,Kings County,NY,NA,NA,15.555555555555555,NA
11212,Kings County,NY,NA,1.4218009478672986,NA,NA
11213,Kings County,NY,NA,36.492890995260666,NA,NA
11221,Kings County,NY,NA,7.109004739336493,NA,NA
11228,Kings County,NY,NA,NA,88.14814814814815,47.179487179487175
11230,Kings County,NY,NA,NA,18.624338624338623,NA
11233,Kings County,NY,NA,NA,NA,1.0256410256410255
11234,Kings County,NY,NA,NA,NA,12.307692307692308
11249,Kings County,NY,NA,NA,71.85185185185186,NA
11365,Queens County,NY,NA,NA,57.14285714285714,NA
11368,Queens County,NY,NA,NA,8.35978835978836,NA
11372,Queens County,NY,20.761245674740483,NA,NA,NA
11373,Queens County,NY,NA,NA,NA,16.923076923076923
11385,Queens County,NY,NA,NA,62.857142857142854,NA
11413,Queens County,NY,NA,NA,55.55555555555556,NA
11421,Queens County,NY,42.21453287197232,NA,NA,NA
11435,Queens County,NY,NA,NA,NA,56.92307692307692
11510,Nassau County,NY,NA,NA,89.20634920634922,NA
11575,Nassau County,NY,NA,NA,41.7989417989418,NA
11691,Queens County,NY,NA,NA,NA,7.6923076923076925
11706,Suffolk County,NY,37.71626297577855,NA,NA,NA
11735,Nassau County,NY,81.31487889273356,NA,NA,NA
11746,Suffolk County,NY,NA,NA,57.98941798941799,NA
11754,Suffolk County,NY,NA,NA,85.60846560846561,NA
11776,Suffolk County,NY,NA,NA,64.55026455026454,NA
11793,Nassau County,NY,89.27335640138409,NA,NA,NA
12125,Columbia County,NY,NA,NA,98.73015873015873,NA
12203,Albany County,NY,NA,NA,44.97354497354497,NA
12206,Albany County,NY,NA,NA,NA,55.8974358974359
12590,Dutchess County,NY,NA,NA,61.58730158730159,NA
12601,Dutchess County,NY,NA,NA,33.22751322751323,NA
12754,Sullivan County,NY,NA,76.77725118483413,NA,NA
12804,Warren County,NY,NA,NA,9.735449735449736,NA
12816,Washington County,NY,96.88581314878893,NA,NA,NA
12828,Washington County,NY,NA,NA,48.888888888888886,NA
13031,Onondaga County,NY,78.20069204152249,NA,NA,NA
13045,Cortland County,NY,5.536332179930796,NA,4.021164021164021,NA
13165,Seneca County,NY,NA,NA,NA,24.102564102564102
13343,Lewis County,NY,96.19377162629758,NA,NA,NA
13439,Otsego County,NY,NA,NA,86.34920634920636,NA
13495,Oneida County,NY,97.92387543252595,NA,NA,NA
13617,St. Lawrence County,NY,NA,NA,40.95238095238095,NA
13760,Broome County,NY,NA,NA,8.677248677248677,NA
13901,Broome County,NY,NA,NA,3.9153439153439153,NA
14006,Erie County,NY,84.42906574394463,NA,NA,NA
14075,Erie County,NY,NA,89.57345971563981,NA,NA
14094,Niagara County,NY,9.342560553633218,NA,NA,NA
14120,Niagara County,NY,NA,NA,4.867724867724868,NA
14132,Niagara County,NY,99.65397923875432,NA,NA,NA
14150,Erie County,NY,21.453287197231834,NA,NA,NA
14207,Erie County,NY,NA,39.33649289099526,NA,NA
14213,Erie County,NY,NA,NA,21.58730158730159,NA
14215,Erie County,NY,8.996539792387544,NA,NA,NA
14220,Erie County,NY,NA,NA,15.343915343915343,NA
14221,Erie County,NY,NA,NA,13.862433862433862,NA
14225,Erie County,NY,68.85813148788927,NA,NA,NA
14414,Livingston County,NY,NA,NA,68.88888888888889,NA
14428,Monroe County,NY,NA,NA,51.957671957671955,NA
14445,Monroe County,NY,NA,NA,76.6137566137566,NA
14467,Monroe County,NY,NA,NA,65.5026455026455,NA
14621,Monroe County,NY,NA,NA,0.7407407407407408,NA
14626,Monroe County,NY,NA,NA,3.3862433862433865,NA
14830,Steuben County,NY,NA,NA,27.195767195767196,NA
14850,Tompkins County,NY,12.110726643598616,NA,5.714285714285714,NA
14901,Chemung County,NY,NA,NA,35.026455026455025,NA
27023,Forsyth County,NC,NA,NA,74.70899470899471,NA
27030,Surry County,NC,NA,NA,7.724867724867725,NA
27105,Forsyth County,NC,NA,NA,2.857142857142857,NA
27107,Forsyth County,NC,NA,NA,4.338624338624339,NA
27215,Alamance County,NC,NA,NA,NA,31.794871794871792
27260,Guilford County,NC,NA,NA,26.560846560846564,NA
27330,Lee County,NC,NA,NA,62.857142857142854,NA
27403,Guilford County,NC,NA,95.260663507109,NA,NA
27405,Guilford County,NC,NA,NA,12.91005291005291,NA
27410,Guilford County,NC,NA,NA,37.24867724867725,NA
27510,Orange County,NC,NA,NA,66.34920634920634,NA
27526,Wake County,NC,NA,NA,31.428571428571427,NA
27530,Wayne County,NC,NA,42.65402843601896,16.19047619047619,NA
27536,Vance County,NC,NA,NA,NA,33.84615384615385
27560,Wake County,NC,NA,NA,80,NA
27576,Johnston County,NC,NA,NA,64.97354497354497,NA
27577,Johnston County,NC,NA,NA,50.68783068783069,NA
27603,Wake County,NC,NA,NA,62.53968253968254,NA
27610,Wake County,NC,NA,NA,8.253968253968253,NA
27615,Wake County,NC,NA,NA,77.67195767195767,NA
27801,Edgecombe County,NC,69.8961937716263,55.45023696682464,NA,NA
27834,Pitt County,NC,6.228373702422145,NA,NA,NA
27910,Hertford County,NC,NA,NA,46.87830687830688,NA
28025,Cabarrus County,NC,NA,NA,12.804232804232804,NA
28027,Cabarrus County,NC,NA,NA,21.26984126984127,NA
28056,Gaston County,NC,48.09688581314879,NA,NA,NA
28086,Cleveland County,NC,NA,NA,28.994708994708994,NA
28120,Gaston County,NC,NA,NA,NA,50.76923076923077
28146,Rowan County,NC,NA,54.02843601895735,39.470899470899475,NA
28174,Union County,NC,80.96885813148789,89.57345971563981,NA,NA
28215,Mecklenburg County,NC,NA,NA,17.142857142857142,NA
28304,Cumberland County,NC,33.910034602076124,NA,NA,NA
28305,Cumberland County,NC,NA,NA,88.35978835978835,NA
28358,Robeson County,NC,NA,38.862559241706165,NA,NA
28371,Robeson County,NC,88.92733564013841,NA,NA,NA
28403,New Hanover County,NC,NA,59.241706161137444,NA,NA
28412,New Hanover County,NC,NA,NA,17.24867724867725,NA
28461,Brunswick County,NC,NA,NA,49.523809523809526,NA
28478,Pender County,NC,NA,88.62559241706161,NA,NA
28501,Lenoir County,NC,NA,NA,49.94708994708994,NA
28551,Lenoir County,NC,NA,NA,67.51322751322752,NA
28560,Craven County,NC,NA,NA,33.01587301587301,NA
28601,Catawba County,NC,NA,NA,15.76719576719577,NA
28634,Iredell County,NC,NA,86.7298578199052,NA,NA
28645,Caldwell County,NC,NA,NA,3.8095238095238098,NA
28658,Catawba County,NC,NA,NA,49.31216931216931,NA
28715,Buncombe County,NC,24.91349480968858,NA,NA,NA
28752,McDowell County,NC,NA,NA,17.77777777777778,NA
28753,Madison County,NC,NA,NA,83.5978835978836,NA
28792,Henderson County,NC,21.453287197231834,NA,NA,NA
28801,Buncombe County,NC,NA,NA,93.75661375661376,NA
58201,Grand Forks County,ND,7.612456747404845,NA,NA,NA
58503,Burleigh County,ND,NA,NA,NA,30.256410256410255
58554,Morton County,ND,15.570934256055363,NA,NA,NA
43050,Knox County,OH,18.685121107266436,NA,NA,NA
43056,Licking County,OH,NA,43.60189573459716,NA,NA
43078,Champaign County,OH,NA,32.70142180094787,40.423280423280424,NA
43130,Fairfield County,OH,NA,NA,1.7989417989417988,NA
43138,Hocking County,OH,NA,19.431279620853083,34.92063492063492,NA
43203,Franklin County,OH,NA,NA,NA,88.71794871794872
43204,Franklin County,OH,NA,NA,6.349206349206349,NA
43206,Franklin County,OH,NA,NA,14.074074074074074,NA
43207,Franklin County,OH,NA,NA,1.9047619047619049,NA
43219,Franklin County,OH,NA,NA,17.037037037037038,NA
43222,Franklin County,OH,NA,NA,63.8095238095238,NA
43232,Franklin County,OH,NA,NA,NA,15.384615384615385
43302,Marion County,OH,NA,NA,2.433862433862434,NA
43402,Wood County,OH,35.6401384083045,NA,NA,NA
43410,Sandusky County,OH,NA,NA,57.354497354497354,NA
43506,Williams County,OH,NA,NA,27.936507936507937,NA
43528,Lucas County,OH,NA,NA,46.56084656084656,NA
43551,Wood County,OH,NA,NA,15.132275132275133,NA
43606,Lucas County,OH,NA,NA,19.047619047619047,NA
43607,Lucas County,OH,NA,NA,6.772486772486773,NA
43701,Muskingum County,OH,0.34602076124567477,NA,18.73015873015873,NA
43725,Guernsey County,OH,NA,NA,51.32275132275132,NA
43764,Perry County,OH,NA,NA,91.005291005291,NA
43901,Jefferson County,OH,NA,NA,98.51851851851852,NA
43952,Jefferson County,OH,NA,NA,NA,10.256410256410255
44004,Ashtabula County,OH,1.384083044982699,NA,NA,NA
44017,Cuyahoga County,OH,NA,40.758293838862556,NA,NA
44102,Cuyahoga County,OH,NA,0.9478672985781991,12.592592592592592,NA
44104,Cuyahoga County,OH,NA,NA,NA,20.51282051282051
44106,Cuyahoga County,OH,NA,NA,74.70899470899471,NA
44109,Cuyahoga County,OH,NA,2.3696682464454977,NA,NA
44113,Cuyahoga County,OH,NA,44.07582938388626,NA,NA
44114,Cuyahoga County,OH,NA,NA,37.56613756613756,NA
44117,Cuyahoga County,OH,NA,NA,NA,51.28205128205128
44118,Cuyahoga County,OH,74.74048442906575,NA,13.65079365079365,NA
44122,Cuyahoga County,OH,NA,NA,64.23280423280423,NA
44125,Cuyahoga County,OH,NA,NA,1.3756613756613756,NA
44126,Cuyahoga County,OH,NA,NA,82.22222222222221,NA
44127,Cuyahoga County,OH,NA,NA,68.35978835978837,NA
44145,Cuyahoga County,OH,NA,NA,19.576719576719576,NA
44146,Cuyahoga County,OH,NA,NA,7.6190476190476195,NA
44147,Cuyahoga County,OH,NA,54.02843601895735,NA,NA
44212,Medina County,OH,NA,NA,20.211640211640212,NA
44223,Summit County,OH,NA,NA,54.074074074074076,NA
44236,Summit County,OH,NA,NA,61.164021164021165,NA
44256,Medina County,OH,NA,23.22274881516588,4.1269841269841265,NA
44270,Wayne County,OH,NA,52.60663507109005,NA,NA
44307,Summit County,OH,NA,NA,52.169312169312164,NA
44312,Summit County,OH,NA,NA,15.978835978835978,NA
44314,Summit County,OH,7.958477508650519,NA,NA,NA
44405,Mahoning County,OH,NA,NA,80.31746031746032,NA
44420,Trumbull County,OH,NA,NA,44.232804232804234,NA
44445,Columbiana County,OH,NA,NA,95.02645502645503,NA
44460,Columbiana County,OH,NA,27.014218009478675,NA,NA
44484,Trumbull County,OH,NA,NA,32.592592592592595,NA
44505,Mahoning County,OH,49.48096885813148,NA,NA,NA
44511,Mahoning County,OH,29.06574394463668,NA,NA,NA
44601,Stark County,OH,NA,NA,8.148148148148149,NA
44646,Stark County,OH,NA,NA,11.428571428571429,NA
44657,Stark County,OH,NA,64.45497630331754,NA,NA
44691,Wayne County,OH,NA,NA,8.783068783068783,NA
44707,Stark County,OH,NA,NA,65.82010582010582,NA
44720,Stark County,OH,NA,NA,32.91005291005291,NA
44833,Crawford County,OH,NA,28.90995260663507,NA,NA
44857,Huron County,OH,NA,NA,26.031746031746035,NA
44905,Richland County,OH,NA,69.19431279620854,NA,NA
45011,Butler County,OH,NA,NA,NA,5.128205128205128
45013,Butler County,OH,2.768166089965398,NA,NA,NA
45030,Hamilton County,OH,NA,NA,63.28042328042328,NA
45036,Warren County,OH,NA,NA,24.021164021164022,NA
45042,Butler County,OH,NA,38.388625592417064,NA,NA
45102,Clermont County,OH,NA,NA,43.386243386243386,NA
45121,Brown County,OH,NA,NA,76.71957671957672,NA
45202,Hamilton County,OH,NA,NA,23.49206349206349,NA
45224,Hamilton County,OH,NA,NA,24.867724867724867,NA
45237,Hamilton County,OH,NA,NA,33.12169312169313,NA
45238,Hamilton County,OH,NA,NA,15.44973544973545,NA
45239,Hamilton County,OH,NA,NA,18.835978835978835,NA
45241,Hamilton County,OH,79.93079584775087,NA,NA,NA
45324,Greene County,OH,8.304498269896193,NA,NA,NA
45344,Clark County,OH,NA,NA,65.29100529100529,NA
45371,Miami County,OH,NA,NA,84.02116402116403,23.076923076923077
45414,Montgomery County,OH,NA,NA,81.37566137566138,NA
45420,Montgomery County,OH,NA,NA,66.13756613756614,NA
45424,Montgomery County,OH,NA,21.32701421800948,NA,NA
45619,Lawrence County,OH,NA,NA,31.64021164021164,NA
45648,Scioto County,OH,NA,45.023696682464454,NA,NA
45652,Scioto County,OH,NA,NA,94.70899470899471,NA
45662,Scioto County,OH,NA,NA,19.25925925925926,NA
45761,Athens County,OH,NA,NA,97.88359788359789,NA
45769,Meigs County,OH,NA,NA,69.1005291005291,NA
45801,Allen County,OH,NA,NA,13.756613756613756,NA
45840,Hancock County,OH,16.955017301038062,NA,NA,NA
73010,McClain County,OK,NA,NA,53.22751322751322,NA
73030,Murray County,OK,69.55017301038062,NA,NA,NA
73036,Canadian County,OK,NA,54.02843601895735,NA,NA
73072,Cleveland County,OK,NA,NA,31.957671957671955,NA
73089,Grady County,OK,NA,NA,84.33862433862433,NA
73106,Oklahoma County,OK,NA,NA,76.93121693121692,NA
73159,Oklahoma County,OK,NA,NA,52.27513227513227,NA
73401,Carter County,OK,NA,NA,NA,10.76923076923077
73448,Love County,OK,91.00346020761245,NA,NA,NA
73701,Garfield County,OK,NA,NA,52.48677248677248,NA
74035,Osage County,OK,NA,NA,99.57671957671957,NA
74044,Creek County,OK,NA,NA,82.01058201058201,NA
74136,Tulsa County,OK,73.01038062283737,NA,NA,NA
74745,McCurtain County,OK,NA,NA,NA,95.38461538461539
97015,Clackamas County,OR,NA,NA,60.84656084656085,NA
97070,Clackamas County,OR,NA,NA,68.04232804232804,NA
97203,Multnomah County,OR,NA,NA,47.08994708994709,NA
97206,Multnomah County,OR,NA,NA,49.735449735449734,NA
97233,Multnomah County,OR,NA,NA,17.883597883597886,NA
97266,Multnomah County,OR,NA,73.45971563981043,NA,NA
97303,Marion County,OR,NA,NA,48.042328042328045,NA
97325,Marion County,OR,NA,NA,88.78306878306879,NA
97411,Coos County,OR,NA,NA,84.97354497354497,NA
97423,Coos County,OR,NA,NA,91.21693121693121,NA
97463,Lane County,OR,98.96193771626297,NA,NA,NA
97526,Josephine County,OR,NA,NA,29.31216931216931,NA
97530,Jackson County,OR,NA,NA,NA,84.61538461538461
97603,Klamath County,OR,NA,NA,23.06878306878307,NA
97703,Deschutes County,OR,NA,NA,85.29100529100529,NA
97720,Harney County,OR,NA,NA,95.44973544973546,NA
97801,Umatilla County,OR,NA,NA,41.904761904761905,NA
15001,Beaver County,PA,NA,NA,23.915343915343914,NA
15003,Beaver County,PA,NA,NA,75.66137566137566,NA
15057,Washington County,PA,50.86505190311419,NA,NA,NA
15136,Allegheny County,PA,NA,NA,NA,37.94871794871795
15203,Allegheny County,PA,NA,NA,87.93650793650794,NA
15205,Allegheny County,PA,NA,NA,NA,64.61538461538461
15208,Allegheny County,PA,NA,NA,60.84656084656085,NA
15212,Allegheny County,PA,NA,NA,64.86772486772486,NA
15217,Allegheny County,PA,NA,NA,93.96825396825396,NA
15218,Allegheny County,PA,NA,93.36492890995261,NA,NA
15222,Allegheny County,PA,NA,NA,90.15873015873017,NA
15301,Washington County,PA,NA,24.644549763033176,NA,NA
15425,Fayette County,PA,NA,NA,70.05291005291005,NA
15613,Westmoreland County,PA,NA,NA,70.58201058201058,NA
15644,Westmoreland County,PA,56.747404844290664,NA,NA,NA
15668,Westmoreland County,PA,86.159169550173,NA,NA,NA
15801,Clearfield County,PA,NA,NA,9.417989417989418,NA
15943,Cambria County,PA,NA,98.5781990521327,NA,NA
16066,Butler County,PA,NA,71.09004739336493,NA,NA
16137,Mercer County,PA,NA,NA,75.02645502645503,NA
16146,Mercer County,PA,NA,NA,26.87830687830688,NA
16301,Venango County,PA,NA,NA,55.13227513227513,NA
16323,Venango County,PA,58.47750865051903,NA,NA,NA
16428,Erie County,PA,NA,NA,86.24338624338624,NA
16511,Erie County,PA,74.0484429065744,NA,NA,NA
16652,Huntingdon County,PA,44.29065743944637,NA,NA,NA
16668,Cambria County,PA,NA,NA,NA,98.97435897435898
17042,Lebanon County,PA,NA,NA,5.185185185185185,NA
17057,Dauphin County,PA,NA,NA,20.105820105820104,NA
17103,Dauphin County,PA,NA,36.96682464454976,NA,NA
17104,Dauphin County,PA,NA,NA,19.894179894179896,NA
17113,Dauphin County,PA,72.31833910034602,NA,50.79365079365079,NA
17345,York County,PA,59.515570934256054,NA,NA,NA
17403,York County,PA,61.245674740484425,NA,NA,NA
17512,Lancaster County,PA,NA,NA,48.67724867724868,NA
17745,Clinton County,PA,NA,NA,46.87830687830688,NA
17866,Northumberland County,PA,NA,NA,68.57142857142857,NA
18013,Northampton County,PA,63.32179930795848,NA,NA,NA
18032,Lehigh County,PA,NA,NA,65.39682539682539,NA
18042,Northampton County,PA,NA,NA,6.243386243386243,NA
18045,Northampton County,PA,NA,NA,44.761904761904766,NA
18102,Lehigh County,PA,NA,NA,1.0582010582010581,NA
18103,Lehigh County,PA,NA,16.113744075829384,6.137566137566138,NA
18109,Lehigh County,PA,NA,NA,30.476190476190478,NA
18232,Carbon County,PA,NA,NA,NA,97.43589743589743
18235,Carbon County,PA,NA,NA,36.402116402116405,NA
18301,Monroe County,PA,NA,NA,41.6931216931217,NA
18302,Monroe County,PA,56.05536332179931,NA,NA,NA
18428,Pike County,PA,NA,85.30805687203792,NA,NA
18431,Wayne County,PA,NA,NA,68.67724867724868,88.2051282051282
18444,Lackawanna County,PA,83.04498269896193,NA,NA,NA
18508,Lackawanna County,PA,69.20415224913495,NA,NA,NA
18509,Lackawanna County,PA,87.5432525951557,NA,NA,NA
18517,Lackawanna County,PA,NA,NA,95.23809523809523,NA
18603,Columbia County,PA,NA,63.03317535545023,NA,NA
18634,Luzerne County,PA,43.59861591695502,NA,NA,NA
18651,Luzerne County,PA,NA,NA,73.86243386243386,NA
18706,Luzerne County,PA,64.70588235294117,NA,NA,NA
18840,Bradford County,PA,NA,NA,69.94708994708995,NA
19002,Montgomery County,PA,NA,NA,NA,25.64102564102564
19010,Delaware County,PA,NA,NA,NA,81.02564102564102
19053,Bucks County,PA,48.09688581314879,NA,NA,NA
19107,Philadelphia County,PA,NA,NA,51.53439153439153,NA
19111,Philadelphia County,PA,11.072664359861593,NA,NA,NA
19114,Philadelphia County,PA,66.08996539792388,NA,NA,NA
19119,Philadelphia County,PA,NA,NA,28.253968253968253,NA
19120,Philadelphia County,PA,5.190311418685121,12.322274881516588,NA,NA
19121,Philadelphia County,PA,NA,NA,10.687830687830688,NA
19124,Philadelphia County,PA,4.1522491349480966,NA,39.576719576719576,46.666666666666664
19126,Philadelphia County,PA,NA,NA,40,NA
19132,Philadelphia County,PA,NA,21.80094786729858,NA,NA
19134,Philadelphia County,PA,3.8062283737024223,NA,19.47089947089947,NA
19135,Philadelphia County,PA,NA,NA,16.93121693121693,NA
19136,Philadelphia County,PA,NA,NA,13.544973544973546,NA
19139,Philadelphia County,PA,NA,NA,4.232804232804233,NA
19140,Philadelphia County,PA,NA,NA,37.142857142857146,NA
19144,Philadelphia County,PA,NA,NA,5.079365079365079,NA
19149,Philadelphia County,PA,NA,NA,34.285714285714285,NA
19150,Philadelphia County,PA,NA,NA,NA,27.692307692307693
19152,Philadelphia County,PA,NA,NA,NA,22.05128205128205
19446,Montgomery County,PA,NA,NA,16.613756613756614,16.41025641025641
19473,Montgomery County,PA,NA,NA,NA,80
19604,Berks County,PA,NA,9.95260663507109,NA,NA
02861,Providence County,RI,NA,NA,36.507936507936506,NA
02891,Washington County,RI,NA,NA,85.92592592592592,NA
02904,Providence County,RI,NA,NA,71.64021164021163,NA
02905,Providence County,RI,40.830449826989614,NA,NA,NA
02908,Providence County,RI,11.76470588235294,NA,NA,NA
02920,Providence County,RI,NA,NA,33.43915343915344,NA
29010,Lee County,SC,NA,NA,93.65079365079364,NA
29036,Lexington County,SC,NA,NA,75.44973544973544,NA
29072,Lexington County,SC,33.21799307958477,NA,NA,NA
29164,Aiken County,SC,NA,NA,NA,96.92307692307692
29170,Lexington County,SC,NA,NA,73.54497354497354,NA
29180,Fairfield County,SC,NA,NA,81.58730158730158,NA
29204,Richland County,SC,NA,83.88625592417061,NA,NA
29210,Richland County,SC,57.43944636678201,NA,NA,NA
29301,Spartanburg County,SC,NA,NA,NA,40.51282051282051
29316,Spartanburg County,SC,44.982698961937714,NA,NA,NA
29330,Spartanburg County,SC,NA,NA,NA,86.15384615384616
29464,Charleston County,SC,27.33564013840831,NA,NA,NA
29505,Florence County,SC,NA,NA,55.55555555555556,NA
29506,Florence County,SC,43.252595155709344,NA,NA,NA
29512,Marlboro County,SC,58.13148788927336,NA,NA,NA
29536,Dillon County,SC,NA,NA,62.22222222222222,NA
29565,Dillon County,SC,NA,NA,93.86243386243386,NA
29566,Horry County,SC,NA,NA,NA,57.43589743589743
29569,Horry County,SC,NA,NA,80.63492063492063,NA
29579,Horry County,SC,NA,NA,61.69312169312169,NA
29605,Greenville County,SC,NA,NA,28.04232804232804,NA
29630,Pickens County,SC,NA,NA,90.68783068783068,NA
29651,Greenville County,SC,NA,48.34123222748815,NA,NA
29661,Greenville County,SC,NA,NA,90.37037037037037,NA
29681,Greenville County,SC,NA,NA,31.322751322751323,NA
29730,York County,SC,45.674740484429066,NA,NA,NA
29732,York County,SC,NA,NA,37.77777777777778,NA
29745,York County,SC,NA,NA,82.64550264550265,NA
29936,Jasper County,SC,NA,NA,84.55026455026456,NA
57105,Minnehaha County,SD,NA,NA,52.80423280423281,NA
57106,Minnehaha County,SD,NA,52.60663507109005,NA,NA
37013,Davidson County,TN,NA,14.691943127962084,NA,NA
37064,Williamson County,TN,21.10726643598616,NA,NA,NA
37074,Trousdale County,TN,47.40484429065744,NA,NA,NA
37110,Warren County,TN,NA,NA,18.51851851851852,NA
37115,Davidson County,TN,18.685121107266436,NA,NA,NA
37122,Wilson County,TN,NA,NA,81.05820105820106,NA
37150,Macon County,TN,NA,NA,97.77777777777777,NA
37160,Bedford County,TN,NA,NA,21.798941798941797,NA
37179,Williamson County,TN,NA,NA,90.05291005291005,NA
37207,Davidson County,TN,14.186851211072666,22.274881516587676,NA,NA
37214,Davidson County,TN,NA,NA,NA,63.589743589743584
37303,McMinn County,TN,NA,NA,25.925925925925924,NA
37311,Bradley County,TN,NA,NA,NA,36.41025641025641
37370,McMinn County,TN,NA,NA,91.95767195767196,NA
37411,Hamilton County,TN,NA,36.018957345971565,45.3968253968254,NA
37412,Hamilton County,TN,NA,NA,NA,89.23076923076924
37415,Hamilton County,TN,NA,55.92417061611374,NA,NA
37416,Hamilton County,TN,NA,NA,62.32804232804233,NA
37620,Sullivan County,TN,NA,49.28909952606635,NA,NA
37650,Unicoi County,TN,NA,75.35545023696683,NA,48.717948717948715
37659,Washington County,TN,NA,NA,42.96296296296296,NA
37711,Hawkins County,TN,NA,91.9431279620853,NA,NA
37814,Hamblen County,TN,NA,NA,36.93121693121693,NA
37830,Anderson County,TN,NA,59.71563981042654,NA,NA
37841,Scott County,TN,NA,83.88625592417061,NA,NA
37849,Knox County,TN,NA,NA,NA,56.41025641025641
37857,Hawkins County,TN,NA,NA,NA,44.1025641025641
37862,Sevier County,TN,NA,NA,NA,61.53846153846154
37874,Monroe County,TN,52.24913494809689,NA,NA,NA
38002,Shelby County,TN,NA,NA,74.28571428571429,NA
38017,Shelby County,TN,NA,NA,80.1058201058201,NA
38018,Shelby County,TN,NA,51.65876777251185,NA,NA
38109,Shelby County,TN,4.498269896193772,NA,13.43915343915344,NA
38114,Shelby County,TN,NA,NA,26.455026455026452,NA
38116,Shelby County,TN,NA,NA,20.423280423280424,NA
38117,Shelby County,TN,NA,NA,77.88359788359789,NA
38127,Shelby County,TN,NA,NA,11.322751322751323,NA
38257,Obion County,TN,NA,NA,91.74603174603175,NA
38301,Madison County,TN,NA,NA,42.645502645502646,NA
38401,Maury County,TN,NA,NA,33.75661375661376,NA
38478,Giles County,TN,62.28373702422145,NA,64.44444444444444,NA
38501,Putnam County,TN,NA,NA,22.01058201058201,NA
38583,White County,TN,34.2560553633218,NA,NA,NA
75020,Grayson County,TX,NA,NA,54.81481481481482,NA
75025,Collin County,TX,NA,NA,NA,87.17948717948718
75028,Denton County,TX,63.667820069204154,NA,NA,NA
75041,Dallas County,TX,NA,NA,50.476190476190474,NA
75051,Dallas County,TX,15.22491349480969,NA,48.783068783068785,NA
75052,Dallas County,TX,NA,NA,NA,11.794871794871794
75067,Denton County,TX,NA,NA,70.8994708994709,NA
75116,Dallas County,TX,NA,NA,82.32804232804233,NA
75143,Henderson County,TX,NA,NA,NA,66.15384615384615
75150,Dallas County,TX,NA,NA,NA,60.51282051282051
75189,Rockwall County,TX,NA,NA,51.53439153439153,83.07692307692308
75203,Dallas County,TX,NA,NA,NA,75.8974358974359
75211,Dallas County,TX,NA,9.47867298578199,NA,NA
75215,Dallas County,TX,NA,NA,67.08994708994709,NA
75217,Dallas County,TX,31.4878892733564,11.374407582938389,NA,NA
75218,Dallas County,TX,NA,NA,79.78835978835978,NA
75227,Dallas County,TX,NA,NA,NA,35.8974358974359
75230,Dallas County,TX,52.595155709342556,NA,NA,52.307692307692314
75237,Dallas County,TX,59.515570934256054,NA,NA,NA
75249,Dallas County,TX,NA,NA,75.55555555555556,NA
75407,Collin County,TX,62.9757785467128,NA,NA,NA
75645,Upshur County,TX,NA,NA,83.06878306878306,NA
75754,Van Zandt County,TX,NA,NA,96.5079365079365,NA
75833,Leon County,TX,97.23183391003461,NA,NA,NA
76014,Tarrant County,TX,NA,NA,56.08465608465608,NA
76018,Tarrant County,TX,NA,48.34123222748815,NA,NA
76102,Tarrant County,TX,NA,NA,96.08465608465609,NA
76105,Tarrant County,TX,NA,NA,22.433862433862434,NA
76108,Tarrant County,TX,NA,NA,NA,28.205128205128204
76116,Tarrant County,TX,12.45674740484429,NA,NA,NA
76132,Tarrant County,TX,NA,NA,69.84126984126983,NA
76209,Denton County,TX,NA,NA,NA,82.564102564102555
76354,Wichita County,TX,NA,NA,83.28042328042328,NA
76574,Williamson County,TX,NA,NA,56.93121693121693,NA
76692,Hill County,TX,NA,89.0995260663507,NA,NA
77004,Harris County,TX,16.26297577854671,NA,NA,48.205128205128204
77007,Harris County,TX,NA,NA,59.15343915343916,NA
77015,Harris County,TX,NA,27.96208530805687,NA,NA
77062,Harris County,TX,NA,NA,66.77248677248677,NA
77072,Harris County,TX,NA,5.687203791469194,NA,NA
77082,Harris County,TX,NA,NA,57.56613756613756,NA
77083,Harris County,TX,25.951557093425603,NA,NA,NA
77086,Harris County,TX,NA,NA,72.27513227513226,NA
77095,Harris County,TX,25.60553633217993,NA,NA,NA
77096,Harris County,TX,NA,NA,65.82010582010582,NA
77303,Montgomery County,TX,NA,58.767772511848335,NA,NA
77340,Walker County,TX,NA,NA,89.3121693121693,NA
77357,Montgomery County,TX,NA,NA,68.994708994709,NA
77373,Harris County,TX,NA,22.748815165876778,NA,NA
77375,Harris County,TX,28.719723183391004,NA,NA,NA
77378,Montgomery County,TX,42.56055363321799,NA,NA,NA
77379,Harris County,TX,13.148788927335639,NA,NA,NA
77422,Brazoria County,TX,NA,NA,80.42328042328042,NA
77449,Harris County,TX,NA,NA,13.015873015873018,NA
77515,Brazoria County,TX,NA,NA,56.4021164021164,NA
77539,Galveston County,TX,NA,NA,NA,71.7948717948718
77566,Brazoria County,TX,NA,NA,NA,49.743589743589745
77573,Galveston County,TX,2.422145328719723,NA,NA,NA
77584,Brazoria County,TX,17.99307958477509,NA,NA,NA
77590,Galveston County,TX,NA,NA,15.026455026455027,NA
77591,Galveston County,TX,31.833910034602077,NA,NA,NA
77627,Jefferson County,TX,NA,76.77725118483413,NA,NA
77630,Orange County,TX,NA,NA,47.40740740740741,NA
77705,Jefferson County,TX,NA,NA,49.31216931216931,NA
77901,Victoria County,TX,NA,27.96208530805687,NA,NA
77905,Victoria County,TX,NA,82.93838862559242,NA,NA
77964,Lavaca County,TX,NA,NA,89.62962962962962,NA
78041,Webb County,TX,35.294117647058826,27.488151658767773,NA,NA
78045,Webb County,TX,NA,NA,27.089947089947092,NA
78046,Webb County,TX,NA,NA,17.46031746031746,NA
78064,Atascosa County,TX,NA,NA,80.95238095238095,NA
78101,Bexar County,TX,NA,76.77725118483413,NA,NA
78114,Wilson County,TX,NA,NA,62.43386243386243,NA
78124,Guadalupe County,TX,NA,NA,NA,95.8974358974359
78155,Guadalupe County,TX,NA,NA,NA,32.82051282051282
78213,Bexar County,TX,NA,16.587677725118482,NA,NA
78216,Bexar County,TX,NA,NA,49.94708994708994,NA
78218,Bexar County,TX,NA,29.85781990521327,NA,NA
78223,Bexar County,TX,NA,19.431279620853083,NA,NA
78239,Bexar County,TX,NA,39.33649289099526,NA,NA
78258,Bexar County,TX,26.297577854671278,NA,NA,NA
78264,Bexar County,TX,NA,NA,89.52380952380953,NA
78332,Jim Wells County,TX,23.875432525951556,NA,NA,NA
78414,Nueces County,TX,46.71280276816609,NA,NA,NA
78415,Nueces County,TX,NA,NA,53.22751322751322,NA
78516,Hidalgo County,TX,24.91349480968858,NA,NA,NA
78521,Cameron County,TX,NA,NA,38.730158730158735,NA
78541,Hidalgo County,TX,NA,30.80568720379147,NA,NA
78552,Cameron County,TX,NA,NA,74.92063492063492,NA
78557,Hidalgo County,TX,NA,42.65402843601896,NA,NA
78570,Hidalgo County,TX,NA,4.265402843601896,NA,NA
78572,Hidalgo County,TX,NA,6.6350710900473935,21.164021164021165,NA
78589,Hidalgo County,TX,NA,NA,46.455026455026456,NA
78595,Hidalgo County,TX,91.34948096885813,NA,NA,NA
78610,Hays County,TX,NA,NA,NA,78.46153846153847
78633,Williamson County,TX,NA,NA,NA,1.5384615384615385
78641,Williamson County,TX,NA,52.13270142180095,NA,NA
78645,Travis County,TX,86.85121107266436,NA,NA,NA
78676,Hays County,TX,NA,NA,NA,77.435897435897445
78681,Williamson County,TX,NA,NA,63.06878306878308,NA
78730,Travis County,TX,95.8477508650519,NA,NA,NA
78735,Travis County,TX,NA,NA,94.81481481481482,NA
78741,Travis County,TX,54.67128027681662,NA,NA,NA
78758,Travis County,TX,NA,NA,60.52910052910053,NA
78852,Maverick County,TX,NA,NA,63.38624338624339,NA
79108,Potter County,TX,NA,NA,82.85714285714286,NA
79336,Hockley County,TX,NA,64.45497630331754,NA,NA
79415,Lubbock County,TX,72.66435986159169,NA,NA,NA
79424,Lubbock County,TX,NA,NA,30.582010582010582,NA
79605,Taylor County,TX,NA,4.739336492890995,NA,NA
79606,Taylor County,TX,59.16955017301038,NA,NA,NA
79705,Midland County,TX,NA,NA,31.53439153439154,NA
79707,Midland County,TX,NA,93.36492890995261,NA,NA
79849,El Paso County,TX,NA,50.23696682464455,NA,NA
79902,El Paso County,TX,NA,NA,89.94708994708994,NA
79907,El Paso County,TX,NA,NA,NA,23.589743589743588
79915,El Paso County,TX,NA,NA,60.74074074074074,NA
79928,El Paso County,TX,NA,15.639810426540285,NA,NA
84078,Uintah County,UT,NA,NA,18.412698412698415,NA
84115,Salt Lake County,UT,48.78892733564014,NA,NA,NA
84321,Cache County,UT,NA,NA,73.22751322751323,NA
84404,Weber County,UT,14.878892733564014,NA,NA,NA
84601,Utah County,UT,NA,NA,92.16931216931216,NA
05301,Windham County,VT,NA,NA,NA,90.76923076923077
05401,Chittenden County,VT,NA,NA,56.93121693121693,NA
05495,Chittenden County,VT,NA,NA,92.91005291005291,NA
05641,Washington County,VT,NA,NA,39.15343915343915,NA
20176,Loudoun County,VA,NA,NA,56.2962962962963,NA
20187,Fauquier County,VA,NA,NA,83.3862433862434,NA
20190,Fairfax County,VA,NA,NA,87.61904761904762,NA
22026,Prince William County,VA,NA,NA,69.73544973544973,NA
22101,Fairfax County,VA,NA,NA,59.04761904761905,NA
22150,Fairfax County,VA,15.916955017301039,NA,NA,NA
22193,Prince William County,VA,NA,NA,15.238095238095239,NA
22201,Arlington County,VA,NA,NA,66.66666666666666,NA
22202,Arlington County,VA,NA,NA,NA,91.28205128205128
22204,Arlington County,VA,24.567474048442904,NA,NA,NA
22520,Westmoreland County,VA,NA,NA,NA,84.1025641025641
22815,Rockingham County,VA,NA,NA,59.36507936507937,NA
22827,Rockingham County,VA,NA,NA,79.04761904761905,NA
23117,Louisa County,VA,NA,76.77725118483413,NA,NA
23185,James City County,VA,NA,NA,43.91534391534391,NA
23188,James City County,VA,NA,NA,NA,4.615384615384616
23314,Isle of Wight County,VA,98.26989619377161,NA,NA,NA
23434,Suffolk city,VA,NA,NA,53.96825396825397,NA
23452,Virginia Beach city,VA,NA,NA,25.82010582010582,NA
23803,Petersburg city,VA,23.18339100346021,NA,NA,NA
23836,Chesterfield County,VA,NA,NA,94.07407407407408,NA
23847,Greensville County,VA,NA,46.91943127962085,NA,NA
24014,Roanoke city,VA,NA,NA,NA,32.30769230769231
24091,Floyd County,VA,93.42560553633218,NA,NA,NA
24095,Bedford County,VA,NA,NA,97.03703703703704,NA
24148,Henry County,VA,88.58131487889274,NA,NA,NA
24171,Patrick County,VA,NA,NA,79.8941798941799,NA
24202,Washington County,VA,NA,72.51184834123224,NA,NA
24228,Dickenson County,VA,82.00692041522491,NA,NA,NA
24354,Smyth County,VA,NA,NA,98.09523809523809,NA
24501,Lynchburg city,VA,NA,NA,32.698412698412696,NA
24540,Danville city,VA,NA,NA,31.746031746031743,NA
24541,Danville city,VA,NA,NA,42.22222222222222,NA
24563,Pittsylvania County,VA,NA,NA,96.19047619047619,NA
98002,King County,WA,NA,NA,41.904761904761905,NA
98027,King County,WA,NA,NA,69.41798941798942,NA
98037,Snohomish County,WA,NA,76.30331753554502,NA,NA
98058,King County,WA,NA,NA,37.46031746031746,25.128205128205128
98087,Snohomish County,WA,NA,NA,53.75661375661376,NA
98092,King County,WA,NA,NA,28.359788359788357,NA
98166,King County,WA,NA,NA,82.75132275132276,57.948717948717956
98178,King County,WA,NA,65.87677725118483,NA,NA
98225,Whatcom County,WA,NA,NA,NA,47.69230769230769
98312,Kitsap County,WA,NA,NA,45.18518518518518,NA
98362,Clallam County,WA,NA,NA,41.48148148148148,NA
98375,Pierce County,WA,NA,NA,58.941798941798936,NA
98382,Clallam County,WA,NA,81.51658767772511,NA,NA
98391,Pierce County,WA,NA,NA,15.873015873015872,NA
98520,Grays Harbor County,WA,NA,NA,67.72486772486772,NA
98541,Grays Harbor County,WA,67.47404844290658,NA,NA,NA
98661,Clark County,WA,NA,81.99052132701422,NA,NA
98801,Chelan County,WA,NA,NA,28.14814814814815,NA
98862,Okanogan County,WA,100,NA,NA,NA
98926,Kittitas County,WA,NA,NA,61.164021164021165,NA
99301,Franklin County,WA,NA,6.161137440758294,11.957671957671957,7.179487179487179
20011,District of Columbia,DC,NA,NA,39.04761904761905,NA
20020,District of Columbia,DC,NA,NA,16.507936507936506,NA
24701,Mercer County,WV,NA,NA,33.544973544973544,NA
24870,Wyoming County,WV,98.96193771626297,NA,NA,NA
25064,Kanawha County,WV,NA,NA,58.730158730158735,NA
25403,Berkeley County,WV,NA,NA,92.6984126984127,NA
25411,Morgan County,WV,NA,NA,80.63492063492063,NA
25414,Jefferson County,WV,NA,NA,67.83068783068784,NA
25419,Berkeley County,WV,NA,NA,83.80952380952381,NA
25705,Cabell County,WV,NA,NA,20,NA
25880,Raleigh County,WV,NA,NA,81.48148148148148,NA
25901,Fayette County,WV,NA,NA,53.22751322751322,NA
26101,Wood County,WV,NA,NA,5.502645502645502,NA
26104,Wood County,WV,NA,NA,42.857142857142854,NA
26164,Jackson County,WV,NA,94.7867298578199,NA,NA
26554,Marion County,WV,NA,NA,25.07936507936508,NA
53081,Sheboygan County,WI,NA,NA,54.179894179894184,NA
53108,Racine County,WI,89.96539792387543,NA,NA,NA
53158,Kenosha County,WI,NA,NA,24.656084656084655,NA
53186,Waukesha County,WI,35.6401384083045,NA,NA,NA
53207,Milwaukee County,WI,NA,NA,31.11111111111111,NA
53210,Milwaukee County,WI,NA,NA,8.994708994708994,NA
53215,Milwaukee County,WI,NA,NA,4.761904761904762,NA
53221,Milwaukee County,WI,NA,NA,22.645502645502646,NA
53402,Racine County,WI,38.4083044982699,NA,NA,NA
53511,Rock County,WI,0.6920415224913495,NA,NA,NA
53566,Green County,WI,NA,NA,58.62433862433862,NA
53590,Dane County,WI,NA,NA,NA,46.15384615384615
53704,Dane County,WI,28.373702422145332,NA,NA,NA
54005,Polk County,WI,94.11764705882352,NA,NA,NA
54022,Pierce County,WI,NA,NA,62.116402116402114,NA
54303,Brown County,WI,NA,NA,52.06349206349207,NA
54401,Marathon County,WI,NA,NA,46.03174603174603,NA
54403,Marathon County,WI,NA,NA,79.47089947089947,NA
54601,La Crosse County,WI,NA,NA,8.465608465608465,NA
54703,Eau Claire County,WI,NA,NA,NA,33.33333333333333
54751,Dunn County,WI,29.757785467128027,NA,NA,NA
54915,Outagamie County,WI,NA,NA,42.11640211640212,NA
82201,Platte County,WY,87.88927335640139,NA,NA,NA
