ZipCode,county,state,Adult
35007,Shelby County,AL,33.15769665035755
35023,Jefferson County,AL,16.936394429808054
35206,Jefferson County,AL,42.52916823485133
35208,Jefferson County,AL,23.447497177267596
35216,Jefferson County,AL,87.24124952954459
35218,Jefferson County,AL,44.561535566428304
35601,Morgan County,AL,6.9251035001881815
35633,Lauderdale County,AL,36.432066240120434
35661,Colbert County,AL,45.27662777568687
35758,Madison County,AL,22.882950696273994
35805,Madison County,AL,27.926232593150168
35810,Madison County,AL,43.84644335716974
35811,Madison County,AL,52.7286413248024
36092,Elmore County,AL,28.490779074143774
36116,Montgomery County,AL,10.726383138878434
36609,Mobile County,AL,39.932254422280764
36610,Mobile County,AL,42.717350395182535
36618,Mobile County,AL,52.80391418893488
36804,Lee County,AL,39.292435077154686
99501,Anchorage Municipality,AK,11.328566051938276
99508,Anchorage Municipality,AK,9.55965374482499
99604,Wade Hampton Census Area,AK,96.83853970643584
99611,Kenai Peninsula Borough,AK,50.77154685735792
99623,,AK,62.852841550620994
99664,Kenai Peninsula Borough,AK,96.7256304102371
99801,Juneau City and Borough,AK,31.162965750846823
99901,Ketchikan Gateway Borough,AK,53.18027850959729
85009,Maricopa County,AZ,6.849830636055702
85017,Maricopa County,AZ,87.73052314640573
85018,Maricopa County,AZ,20.097854723372226
85028,Maricopa County,AZ,59.76665412118931
85031,Maricopa County,AZ,32.3673315769665
85035,Maricopa County,AZ,8.581106511102748
85086,Maricopa County,AZ,24.538953707188558
85122,Pinal County,AZ,18.592397440722618
85202,Maricopa County,AZ,50.69627399322544
85248,Maricopa County,AZ,38.276251411366204
85249,Maricopa County,AZ,28.904779826872414
85251,Maricopa County,AZ,24.275498682724876
85259,Maricopa County,AZ,63.0410237109522
85282,Maricopa County,AZ,90.85434700790364
85339,Maricopa County,AZ,75.76213774934136
85378,Maricopa County,AZ,81.8968761761385
85388,Maricopa County,AZ,47.53481369966127
85546,Graham County,AZ,60.067745577719236
85634,Pima County,AZ,11.667293940534437
85706,Pima County,AZ,0.7527286413248023
85710,Pima County,AZ,3.8765525028227326
85713,Pima County,AZ,42.41625893865262
85714,Pima County,AZ,19.232216785848703
85716,Pima County,AZ,9.446744448626271
85735,Pima County,AZ,98.94617990214527
85746,Pima County,AZ,6.0971019947309
85747,Pima County,AZ,50.508091832894245
85901,Navajo County,AZ,33.60933383515243
85941,Apache County,AZ,77.30523146405721
86004,Coconino County,AZ,50.545728264960474
86025,Navajo County,AZ,78.20850583364697
86044,San Juan County,AZ,55.21264584117426
86503,Apache County,AZ,72.14904027098231
86505,Apache County,AZ,44.48626270229582
86510,Navajo County,AZ,64.734663153933
86538,Apache County,AZ,92.32216785848702
72002,Saline County,AR,96.46217538577343
72007,Lonoke County,AR,95.25780955965375
72019,Saline County,AR,52.95445991719985
72034,Faulkner County,AR,33.08242378622507
72110,Conway County,AR,83.62815205118554
72113,Pulaski County,AR,76.40195709446745
72210,Pulaski County,AR,89.64998118178397
72223,Pulaski County,AR,84.41851712457658
72653,Baxter County,AR,54.8739179525781
90001,Los Angeles County,CA,57.24501317275122
90003,Los Angeles County,CA,20.850583364697027
90011,Los Angeles County,CA,38.539706435829885
90017,Los Angeles County,CA,71.3963116296575
90031,Los Angeles County,CA,49.64245389537072
90037,Los Angeles County,CA,80.46669175762138
90044,Los Angeles County,CA,16.22130222054949
90049,Los Angeles County,CA,59.126834776063234
90059,Los Angeles County,CA,47.083176514866395
90064,Los Angeles County,CA,40.91080165600301
90220,Los Angeles County,CA,45.35190063981934
90221,Los Angeles County,CA,37.74934136243884
90250,Los Angeles County,CA,12.90929619872036
90255,Los Angeles County,CA,16.484757245013174
90272,Los Angeles County,CA,72.6006774557772
90504,Los Angeles County,CA,49.416635302973276
90601,Los Angeles County,CA,62.325931501693645
90620,Orange County,CA,59.05156191193075
90638,Los Angeles County,CA,36.281520511855476
90640,Los Angeles County,CA,47.27135867519759
90703,Los Angeles County,CA,41.475348136996615
90745,Los Angeles County,CA,81.29469326307867
90746,Los Angeles County,CA,94.76853594279262
90807,Los Angeles County,CA,89.42416258938653
91301,Los Angeles County,CA,96.57508468197214
91320,Ventura County,CA,44.9378998870907
91342,Los Angeles County,CA,10.500564546480993
91343,Los Angeles County,CA,61.1592021076402
91402,Los Angeles County,CA,14.414753481369965
91405,Los Angeles County,CA,54.98682724877681
91602,Los Angeles County,CA,61.94956718103124
91730,San Bernardino County,CA,10.237109522017313
91768,Los Angeles County,CA,26.57132103876553
91910,San Diego County,CA,13.436206247647723
91911,San Diego County,CA,12.42002258185924
91941,San Diego County,CA,39.33007150922093
92008,San Diego County,CA,32.517877305231465
92011,San Diego County,CA,84.9830636055702
92014,San Diego County,CA,85.84870154309372
92019,San Diego County,CA,29.356417011667297
92020,San Diego County,CA,62.476477229958604
92025,San Diego County,CA,71.54685735792246
92028,San Diego County,CA,43.4324426044411
92037,San Diego County,CA,63.45502446368084
92040,San Diego County,CA,71.35867519759127
92056,San Diego County,CA,35.90515619119308
92058,San Diego County,CA,72.45013172751223
92071,San Diego County,CA,13.511479111780202
92075,San Diego County,CA,94.0910801656003
92078,San Diego County,CA,35.11479111780203
92084,San Diego County,CA,38.72788859616109
92101,San Diego County,CA,7.602559277380504
92103,San Diego County,CA,56.90628528415507
92104,San Diego County,CA,14.678208505833648
92106,San Diego County,CA,94.50508091832894
92113,San Diego County,CA,77.79450508091833
92114,San Diego County,CA,18.103123823861498
92115,San Diego County,CA,70.68121942039895
92116,San Diego County,CA,56.60519382762514
92122,San Diego County,CA,52.84155062100113
92126,San Diego County,CA,28.00150545728265
92127,San Diego County,CA,83.4023334587881
92173,San Diego County,CA,96.91381257056831
92223,Riverside County,CA,16.18366578848325
92225,Riverside County,CA,57.5084681972149
92230,Riverside County,CA,99.84945427173504
92240,Riverside County,CA,80.05269100489274
92243,Imperial County,CA,82.12269476853594
92262,Riverside County,CA,10.914565299209634
92308,San Bernardino County,CA,31.200602182913062
92311,San Bernardino County,CA,49.153180278509595
92324,San Bernardino County,CA,74.52013549115544
92335,San Bernardino County,CA,4.403462551750094
92336,San Bernardino County,CA,21.37749341362439
92337,San Bernardino County,CA,39.74407226194956
92373,San Bernardino County,CA,84.23033496424539
92376,San Bernardino County,CA,61.799021452766276
92382,San Bernardino County,CA,90.21452766277757
92392,San Bernardino County,CA,67.40684983063605
92404,San Bernardino County,CA,8.99510726383139
92407,San Bernardino County,CA,9.484380880692509
92408,San Bernardino County,CA,92.62325931501694
92410,San Bernardino County,CA,45.69062852841551
92501,Riverside County,CA,59.99247271358675
92503,Riverside County,CA,10.124200225818592
92504,Riverside County,CA,25.592773805043283
92508,Riverside County,CA,62.852841550620994
92509,Riverside County,CA,12.156567557395558
92545,Riverside County,CA,53.89537071885585
92551,Riverside County,CA,88.48325178773052
92557,Riverside County,CA,73.65449755363191
92570,Riverside County,CA,53.82009785472337
92571,Riverside County,CA,52.46518630033873
92585,Riverside County,CA,89.42416258938653
92596,Riverside County,CA,86.63906661648475
92620,Orange County,CA,54.72337222431314
92630,Orange County,CA,19.570944674444863
92673,Orange County,CA,46.93263078660143
92677,Orange County,CA,19.15694392171622
92679,Orange County,CA,41.32480240873166
92691,Orange County,CA,74.33195333082423
92692,Orange County,CA,52.013549115543846
92703,Orange County,CA,51.14791117802032
92704,Orange County,CA,18.968761761385018
92707,Orange County,CA,26.044410989838163
92801,Orange County,CA,61.83665788483251
92802,Orange County,CA,75.95031990967256
92806,Orange County,CA,63.83138878434325
92807,Orange County,CA,64.62175385773429
92833,Orange County,CA,60.18065487391795
92835,Orange County,CA,61.46029356417012
92843,Orange County,CA,64.88520888219796
92865,Orange County,CA,84.45615355664283
92869,Orange County,CA,67.10575837410614
93013,Santa Barbara County,CA,92.84907790741438
93033,Ventura County,CA,24.42604441098984
93223,Tulare County,CA,74.40722619495672
93241,Kern County,CA,93.56417011667294
93257,Tulare County,CA,6.511102747459541
93291,Tulare County,CA,10.764019570944674
93304,Kern County,CA,64.4335716974031
93305,Kern County,CA,77.34286789612345
93306,Kern County,CA,34.81369966127211
93307,Kern County,CA,42.642077531050056
93309,Kern County,CA,17.839668799397817
93313,Kern County,CA,86.52615732028603
93402,San Luis Obispo County,CA,89.27361686112157
93436,Santa Barbara County,CA,78.99887090703801
93442,San Luis Obispo County,CA,99.58599924727136
93444,San Luis Obispo County,CA,85.43470079036507
93446,San Luis Obispo County,CA,66.65412118931125
93454,Santa Barbara County,CA,98.34399698908544
93455,Santa Barbara County,CA,17.99021452766278
93458,Santa Barbara County,CA,69.70267218667671
93534,Los Angeles County,CA,21.71622130222055
93543,Los Angeles County,CA,93.37598795634175
93546,Mono County,CA,94.88144523899135
93550,Los Angeles County,CA,6.586375611592022
93551,Los Angeles County,CA,35.942792623259315
93552,Los Angeles County,CA,38.464433571697406
93555,Kern County,CA,72.67595031990967
93612,Fresno County,CA,27.39932254422281
93619,Fresno County,CA,68.31012420022581
93631,Fresno County,CA,86.60143018441852
93637,Madera County,CA,60.97101994730899
93662,Fresno County,CA,63.68084305607829
93701,Fresno County,CA,56.266465939028976
93722,Fresno County,CA,20.060218291305983
93726,Fresno County,CA,11.065111027474597
93727,Fresno County,CA,43.50771546857358
93728,Fresno County,CA,57.99774181407602
93905,Monterey County,CA,64.92284531426421
93906,Monterey County,CA,23.899134362062476
93927,Monterey County,CA,55.73955589010162
93930,Monterey County,CA,91.19307489649981
93955,Monterey County,CA,23.560406473466315
94022,Santa Clara County,CA,92.32216785848702
94043,Santa Clara County,CA,54.98682724877681
94061,San Mateo County,CA,74.63304478735417
94063,San Mateo County,CA,26.194956718103125
94080,San Mateo County,CA,45.464809936018064
94086,Santa Clara County,CA,40.79789235980429
94103,San Francisco County,CA,5.8336469702672185
94105,San Francisco County,CA,95.2201731275875
94107,San Francisco County,CA,27.28641324802409
94110,San Francisco County,CA,6.2852841550621
94112,San Francisco County,CA,38.16334211516748
94114,San Francisco County,CA,30.2973278133233
94116,San Francisco County,CA,63.83138878434325
94117,San Francisco County,CA,88.97252540459164
94118,San Francisco County,CA,37.109522017312756
94123,San Francisco County,CA,69.47685359427926
94124,San Francisco County,CA,86.94015807301467
94131,San Francisco County,CA,81.3323296951449
94134,San Francisco County,CA,50.88445615355665
94301,Santa Clara County,CA,96.27399322544223
94303,San Mateo County,CA,57.84719608581107
94306,Santa Clara County,CA,86.82724877681596
94401,San Mateo County,CA,79.71396311629657
94501,Alameda County,CA,22.80767783214151
94509,Contra Costa County,CA,80.0150545728265
94533,Solano County,CA,86.14979299962363
94534,Solano County,CA,81.63342115167482
94536,Alameda County,CA,77.22995859992473
94539,Alameda County,CA,84.60669928490779
94552,Alameda County,CA,91.90816710575838
94556,Contra Costa County,CA,76.21377493413625
94558,Napa County,CA,43.92171622130222
94559,Napa County,CA,90.28980052691004
94582,Contra Costa County,CA,48.88972525404592
94585,Solano County,CA,95.5965374482499
94588,Alameda County,CA,54.23409860745201
94602,Alameda County,CA,61.08392924350772
94605,Alameda County,CA,12.984569062852842
94606,Alameda County,CA,62.627022958223556
94610,Alameda County,CA,95.4083552879187
94611,Alameda County,CA,98.41926985321791
94618,Alameda County,CA,69.06285284155062
94706,Alameda County,CA,96.12344749717727
94708,Alameda County,CA,96.9890854347008
94806,Contra Costa County,CA,46.59390289800527
94901,Marin County,CA,62.51411366202484
94903,Marin County,CA,56.417011667293934
94945,Marin County,CA,92.47271358675198
95012,Monterey County,CA,86.67670304855099
95020,Santa Clara County,CA,18.93112532931878
95037,Santa Clara County,CA,37.29770417764396
95076,Santa Cruz County,CA,10.048927361686113
95131,Santa Clara County,CA,82.27324049680091
95133,Santa Clara County,CA,93.3383515242755
95202,San Joaquin County,CA,16.108392924350774
95203,San Joaquin County,CA,91.79525780955964
95212,San Joaquin County,CA,82.27324049680091
95301,Merced County,CA,56.90628528415507
95307,Stanislaus County,CA,18.36657884832518
95315,Merced County,CA,75.72450131727511
95482,Mendocino County,CA,22.01731275875047
95608,Sacramento County,CA,24.35077154685736
95660,Sacramento County,CA,93.82762514113662
95682,El Dorado County,CA,39.028980052691004
95694,Yolo County,CA,89.04779826872412
95695,Yolo County,CA,88.3703424915318
95747,Placer County,CA,82.27324049680091
95757,Sacramento County,CA,78.77305231464057
95765,Placer County,CA,85.73579224689499
95817,Sacramento County,CA,93.18780579601054
95823,Sacramento County,CA,52.84155062100113
95825,Sacramento County,CA,31.878057960105384
95826,Sacramento County,CA,61.76138502070003
95926,Butte County,CA,46.44335716974031
95949,Nevada County,CA,74.82122694768536
96001,Shasta County,CA,69.74030861874294
96097,Siskiyou County,CA,83.96687993978172
96130,Lassen County,CA,55.8148287542341
80010,Arapahoe County,CO,32.32969514490026
80011,Arapahoe County,CO,3.12382386149793
80012,Arapahoe County,CO,59.653744824990596
80013,Arapahoe County,CO,57.960105382009786
80014,Arapahoe County,CO,81.67105758374106
80015,Arapahoe County,CO,31.12532931878058
80017,Arapahoe County,CO,22.732404968009032
80022,Adams County,CO,65.71321038765525
80033,Jefferson County,CO,85.69815581482875
80107,Elbert County,CO,74.25668046669176
80108,Douglas County,CO,31.08769288671434
80110,Arapahoe County,CO,46.70681219420399
80112,Arapahoe County,CO,89.95107263831389
80204,Denver County,CO,11.178020323673316
80211,Denver County,CO,22.05494919081671
80219,Denver County,CO,12.45765901392548
80220,Denver County,CO,46.480993601806546
80224,Denver County,CO,43.20662401204366
80234,Adams County,CO,80.76778321415131
80238,Denver County,CO,79.48814452389912
80401,Jefferson County,CO,21.79149416635303
80501,Boulder County,CO,69.28867143394805
80526,Larimer County,CO,64.32066240120436
80534,Weld County,CO,49.755363191569444
80537,Larimer County,CO,11.102747459540835
80549,Larimer County,CO,70.38012796386901
80610,Weld County,CO,95.93526533684607
80620,Weld County,CO,55.438464433571696
80621,Weld County,CO,55.927738050432815
80631,Weld County,CO,3.763643206624012
80634,Weld County,CO,8.392924350771548
80751,Logan County,CO,26.119683853970642
80863,Teller County,CO,78.24614226571322
80916,El Paso County,CO,21.67858487015431
80917,El Paso County,CO,42.378622506586375
81004,Pueblo County,CO,13.549115543846444
81101,Alamosa County,CO,26.797139631162963
81125,Saguache County,CO,97.89235980429055
81403,Montrose County,CO,60.293564170116674
81625,Moffat County,CO,24.04968009032744
81650,Garfield County,CO,81.031238238614975
06019,Hartford County,CT,80.50432818968761
06040,Hartford County,CT,4.666917576213775
06062,Hartford County,CT,39.25479864508844
06070,Hartford County,CT,60.44410989838164
06084,Tolland County,CT,88.18216033120059
06085,Hartford County,CT,98.00526910048927
06088,Hartford County,CT,96.49981181783967
06112,Hartford County,CT,8.95747083176515
06114,Hartford County,CT,30.598419269853217
06118,Hartford County,CT,13.360933383515242
06239,Windham County,CT,73.05231464057206
06260,Windham County,CT,43.9969890854347
06401,New Haven County,CT,17.199849454271735
06511,New Haven County,CT,76.47722995859992
06512,New Haven County,CT,36.921339856981554
06513,New Haven County,CT,35.49115543846443
06514,New Haven County,CT,20.361309747835904
06515,New Haven County,CT,16.37184794881445
06516,New Haven County,CT,16.710575837410612
06519,New Haven County,CT,12.34474971772676
06525,New Haven County,CT,84.15506210011291
06605,Fairfield County,CT,19.796763266842305
06610,Fairfield County,CT,14.866390666164847
06612,Fairfield County,CT,94.58035378246143
06706,New Haven County,CT,85.5476100865638
06770,New Haven County,CT,12.68347760632292
06810,Fairfield County,CT,8.204742190440346
06825,Fairfield County,CT,96.38690252164095
06897,Fairfield County,CT,79.41287165976667
19702,New Castle County,DE,28.82950696273993
19703,New Castle County,DE,40.15807301467821
19720,New Castle County,DE,39.217162213022206
19801,New Castle County,DE,50.92209258562288
19802,New Castle County,DE,44.147534813699664
19941,Sussex County,DE,89.91343620624764
19950,Sussex County,DE,67.70794128716598
19966,Sussex County,DE,38.01279638690252
19968,Sussex County,DE,55.47610086563793
19971,Sussex County,DE,52.088821979676325
19973,Sussex County,DE,29.243507715468574
32084,St. Johns County,FL,68.83703424915318
32114,Volusia County,FL,37.034249153180276
32119,Volusia County,FL,55.777192322167856
32205,Duval County,FL,56.868648852088825
32206,Duval County,FL,75.64922845314264
32207,Duval County,FL,9.71019947308995
32208,Duval County,FL,11.817839668799397
32209,Duval County,FL,52.088821979676325
32211,Duval County,FL,35.453519006398196
32216,Duval County,FL,9.860745201354911
32218,Duval County,FL,33.98569815581483
32220,Duval County,FL,46.51863003387279
32224,Duval County,FL,39.367707941287165
32246,Duval County,FL,45.163718479488146
32303,Leon County,FL,27.098231087692888
32348,Taylor County,FL,58.938652615732025
32506,Escambia County,FL,7.452013549115543
32514,Escambia County,FL,12.60820474219044
32539,Okaloosa County,FL,66.76703048550998
32547,Okaloosa County,FL,25.705683101242
32566,Santa Rosa County,FL,20.511855476100866
32606,Alachua County,FL,19.909672563041024
32608,Alachua County,FL,17.011667293940537
32653,Alachua County,FL,70.4554008280015
32669,Alachua County,FL,83.28942416258938
32778,Lake County,FL,40.15807301467821
32806,Orange County,FL,51.486639066616476
32808,Orange County,FL,29.130598419269855
32818,Orange County,FL,8.543470079036506
32829,Orange County,FL,57.65901392547986
32837,Orange County,FL,10.688746706812195
32839,Orange County,FL,14.339480617237484
32967,Indian River County,FL,30.184418517124577
33023,Broward County,FL,10.086563793752353
33030,Miami-Dade County,FL,27.36168611215657
33033,Miami-Dade County,FL,25.705683101242
33035,Miami-Dade County,FL,81.5205118554761
33054,Miami-Dade County,FL,32.29205871283402
33065,Broward County,FL,30.447873541588255
33126,Miami-Dade County,FL,48.588633797515996
33130,Miami-Dade County,FL,65.14866390666165
33136,Miami-Dade County,FL,72.97704177643959
33147,Miami-Dade County,FL,18.81821603312006
33150,Miami-Dade County,FL,33.45878810688747
33157,Miami-Dade County,FL,20.436582611968383
33161,Miami-Dade County,FL,72.41249529544599
33314,Broward County,FL,48.17463304478735
33406,Palm Beach County,FL,58.637561159202114
33473,Palm Beach County,FL,90.06398193451261
33569,Hillsborough County,FL,56.417011667293934
33578,Hillsborough County,FL,20.361309747835904
33596,Hillsborough County,FL,71.3963116296575
33604,Hillsborough County,FL,12.645841174256681
33609,Hillsborough County,FL,54.98682724877681
33610,Hillsborough County,FL,7.339104252916824
33616,Hillsborough County,FL,74.78359051561911
33617,Hillsborough County,FL,19.570944674444863
33619,Hillsborough County,FL,20.66240120436583
33710,Pinellas County,FL,32.14151298456906
33711,Pinellas County,FL,36.54497553631916
33712,Pinellas County,FL,20.775310500564547
33716,Pinellas County,FL,78.54723372224312
33805,Polk County,FL,51.750094091080165
33809,Polk County,FL,71.92322167858487
33830,Polk County,FL,63.56793375987956
33853,Polk County,FL,71.69740308618742
33873,Hardee County,FL,54.61046292811441
33947,Charlotte County,FL,82.53669552126458
33952,Charlotte County,FL,13.323296951449
33991,Lee County,FL,47.42190440346255
34116,Collier County,FL,30.560782837786977
34243,Manatee County,FL,40.120436582611966
34286,Sarasota County,FL,38.539706435829885
34446,Citrus County,FL,83.47760632292058
34450,Citrus County,FL,64.80993601806549
34479,Marion County,FL,45.1260820474219
34652,Pasco County,FL,24.764772299586
34982,St. Lucie County,FL,35.19006398193451
34983,St. Lucie County,FL,11.780203236733158
30019,Gwinnett County,GA,23.673315769665034
30021,DeKalb County,GA,58.33646970267219
30024,Gwinnett County,GA,35.37824614226571
30032,DeKalb County,GA,6.021829130598419
30035,DeKalb County,GA,88.67143394806173
30047,Gwinnett County,GA,91.8328942416259
30076,Fulton County,GA,42.52916823485133
30102,Cherokee County,GA,29.996236356793375
30115,Cherokee County,GA,23.635679337598795
30175,Pickens County,GA,79.18705306736922
30241,Troup County,GA,15.092209258562288
30319,DeKalb County,GA,75.15995483628151
30328,Fulton County,GA,46.59390289800527
30329,DeKalb County,GA,69.96612721114039
30349,Fulton County,GA,18.253669552126457
30474,Toombs County,GA,40.045163718479486
30504,Hall County,GA,62.02484004516372
30606,Clarke County,GA,23.071132856605196
30643,Hart County,GA,70.49303726006775
30830,Burke County,GA,34.58788106887467
30901,Richmond County,GA,73.76740684983064
31204,Bibb County,GA,18.178396687993978
31206,Bibb County,GA,17.049303726006777
31211,Bibb County,GA,52.578095596537445
31510,Bacon County,GA,58.75047045540083
31904,Muscogee County,GA,17.613850207000375
31907,Muscogee County,GA,18.517124576590138
96701,Honolulu County,HI,46.33044787354159
96706,Honolulu County,HI,22.619495671810313
96708,Maui County,HI,88.78434324426044
96768,Maui County,HI,93.94053443733534
96782,Honolulu County,HI,73.65449755363191
96789,Honolulu County,HI,11.554384644335718
96792,Honolulu County,HI,5.758374106134738
96797,Honolulu County,HI,3.575461046292811
96813,Honolulu County,HI,19.759126834776065
96817,Honolulu County,HI,40.53443733534061
96818,Honolulu County,HI,34.51260820474219
96819,Honolulu County,HI,45.652992096349266
96822,Honolulu County,HI,24.124952954459918
96826,Honolulu County,HI,26.345502446368087
83301,Twin Falls County,ID,33.23296951449002
83607,Canyon County,ID,23.221678584870155
83616,Ada County,ID,72.29958599924727
83646,Ada County,ID,24.614226571321037
83706,Ada County,ID,68.64885208882198
83713,Ada County,ID,21.60331200602183
83714,Ada County,ID,28.67896123447497
83814,Kootenai County,ID,19.646217538577343
60016,Cook County,IL,81.48287542340987
60031,Lake County,IL,58.41174256680467
60045,Lake County,IL,90.17689123071133
60062,Cook County,IL,75.53631915694392
60084,Lake County,IL,91.15543846443357
60085,Lake County,IL,9.52201731275875
60089,Lake County,IL,24.313135114791116
60104,Cook County,IL,75.98795634173881
60118,Kane County,IL,54.49755363191569
60120,Kane County,IL,40.98607452013549
60134,Kane County,IL,55.55137372977042
60136,Kane County,IL,99.09672563041023
60143,DuPage County,IL,86.07452013549116
60148,DuPage County,IL,63.19156943921717
60152,McHenry County,IL,58.18592397440723
60201,Cook County,IL,27.211140383891607
60202,Cook County,IL,40.34625517500941
60302,Cook County,IL,78.39668799397818
60402,Cook County,IL,23.748588633797514
60410,Will County,IL,58.56228829506963
60411,Cook County,IL,6.4734663153933
60423,Will County,IL,24.9529544599172
60432,Will County,IL,38.01279638690252
60435,Will County,IL,21.75385773428679
60441,Will County,IL,11.968385397064358
60445,Cook County,IL,63.41738803161461
60447,Grundy County,IL,63.981934512608206
60452,Cook County,IL,31.275875047045542
60453,Cook County,IL,27.022958223560405
60465,Cook County,IL,31.388784343244257
60471,Cook County,IL,85.17124576590139
60477,Cook County,IL,14.151298456906286
60480,Cook County,IL,98.30636055701919
60487,Cook County,IL,36.921339856981554
60490,Will County,IL,41.550621001129095
60503,Will County,IL,64.1701166729394
60504,DuPage County,IL,79.29996236356793
60513,Cook County,IL,76.81595784719607
60515,DuPage County,IL,52.502822732404965
60526,Cook County,IL,77.75686864885209
60527,DuPage County,IL,33.45878810688747
60540,DuPage County,IL,15.76966503575461
60543,Kendall County,IL,21.49040270982311
60559,DuPage County,IL,91.41889348889725
60560,Kendall County,IL,54.64809936018066
60585,Will County,IL,36.46970267218668
60586,Will County,IL,27.85095972901769
60613,Cook County,IL,41.32480240873166
60614,Cook County,IL,62.6646593902898
60615,Cook County,IL,78.09559653744826
60617,Cook County,IL,16.334211516748212
60619,Cook County,IL,14.565299209634928
60623,Cook County,IL,2.822732404968009
60624,Cook County,IL,29.017689123071133
60629,Cook County,IL,2.145276627775687
60630,Cook County,IL,37.41061347384268
60632,Cook County,IL,6.962739932254422
60637,Cook County,IL,8.167105758374106
60638,Cook County,IL,36.5826119683854
60644,Cook County,IL,17.95257809559654
60653,Cook County,IL,16.37184794881445
60707,Cook County,IL,10.387655250282274
60804,Cook County,IL,10.274745954083553
60954,Kankakee County,IL,79.71396311629657
61063,Winnebago County,IL,95.97290176891231
61108,Winnebago County,IL,37.29770417764396
61115,Winnebago County,IL,34.43733534060971
61455,McDonough County,IL,68.83703424915318
61520,Fulton County,IL,97.6665412118931
61607,Peoria County,IL,62.815205118554765
61614,Peoria County,IL,54.98682724877681
61615,Peoria County,IL,58.82574331953331
61832,Vermilion County,IL,4.704554008280015
62025,Madison County,IL,47.233722243131346
62206,St. Clair County,IL,49.002634550244636
62207,St. Clair County,IL,86.4885208882198
62234,Madison County,IL,32.668423033496424
62236,Monroe County,IL,91.53180278509598
62269,St. Clair County,IL,47.49717726759503
62521,Macon County,IL,6.24764772299586
62550,Shelby County,IL,98.8709070380128
62626,Macoupin County,IL,79.86450884456153
62806,Edwards County,IL,92.62325931501694
62896,Franklin County,IL,54.91155438464433
46011,Madison County,IN,31.72751223184042
46052,Boone County,IN,26.006774557771923
46060,Hamilton County,IN,17.689123071132855
46221,Marion County,IN,43.056078283778696
46226,Marion County,IN,40.49680090327437
46227,Marion County,IN,47.835905156191195
46228,Marion County,IN,60.48174633044787
46229,Marion County,IN,81.445238991343615
46237,Marion County,IN,78.17086940158073
46241,Marion County,IN,10.462928114414753
46312,Lake County,IN,29.845690628528416
46321,Lake County,IN,83.51524275498683
46322,Lake County,IN,13.135114791117802
46350,LaPorte County,IN,67.51975912683477
46368,Porter County,IN,0.8280015054572827
46371,LaPorte County,IN,83.21415129845691
46383,Porter County,IN,3.2743695897628906
46410,Lake County,IN,16.14602935641701
46514,Elkhart County,IN,16.522393677079414
46563,Marshall County,IN,67.48212269476853
46733,Adams County,IN,25.93150169363944
46750,Huntington County,IN,33.345878810688745
46795,LaGrange County,IN,80.24087316522393
46901,Howard County,IN,0.5269100489273617
46947,Cass County,IN,5.683101242002258
47006,Ripley County,IN,53.06736921339857
47043,Switzerland County,IN,89.8757997741814
47117,Harrison County,IN,93.60180654873918
47274,Jackson County,IN,58.14828754234098
47336,Jay County,IN,96.68799397817087
47362,Henry County,IN,11.027474595408355
47396,Delaware County,IN,86.97779450508092
47421,Lawrence County,IN,88.52088821979677
47553,Martin County,IN,69.96612721114039
47620,Posey County,IN,75.08468197214904
47670,Gibson County,IN,88.7467068121942
47710,Vanderburgh County,IN,79.22468949943546
47711,Vanderburgh County,IN,41.550621001129095
47713,Vanderburgh County,IN,81.25705683101242
47714,Vanderburgh County,IN,26.797139631162963
47715,Vanderburgh County,IN,69.43921716221301
47720,Vanderburgh County,IN,55.6266465939029
47959,White County,IN,99.77418140760255
50158,Marshall County,IA,39.70643582988333
50317,Polk County,IA,5.382009785472337
50588,Buena Vista County,IA,25.3293187805796
50644,Buchanan County,IA,60.782837786977794
50659,Chickasaw County,IA,81.10651110274746
50701,Black Hawk County,IA,45.91644712081295
51501,Pottawattamie County,IA,1.0161836657884833
51503,Pottawattamie County,IA,34.851336093338354
51632,Page County,IA,58.110651110274745
52001,Dubuque County,IA,8.129469326307866
52101,Winneshiek County,IA,51.52427549868273
52246,Johnson County,IA,40.42152803914189
52301,Iowa County,IA,95.48362815205118
52317,Johnson County,IA,74.03086187429432
52403,Linn County,IA,26.496048174633046
52501,Wapello County,IA,7.150922092585622
52556,Jefferson County,IA,94.31689875799775
52601,Des Moines County,IA,5.984192698532179
66104,Wyandotte County,KS,15.318027850959728
66106,Wyandotte County,KS,57.546104629281146
66109,Wyandotte County,KS,35.604064734663154
66112,Wyandotte County,KS,87.46706812194203
66202,Johnson County,KS,57.84719608581107
66219,Johnson County,KS,71.17049303726006
66801,Lyon County,KS,32.668423033496424
67301,Montgomery County,KS,84.07978923598043
40203,Jefferson County,KY,35.98042905532556
40361,Bourbon County,KY,21.565675573955588
40403,Madison County,KY,11.930748964998118
40475,Madison County,KY,18.4794881445239
40509,Fayette County,KY,45.803537824614224
40514,Fayette County,KY,79.0741437711705
40701,Whitley County,KY,38.389160707564926
40769,Whitley County,KY,19.345126082047422
41004,Bracken County,KY,93.86526157320286
41005,Boone County,KY,67.89612344749717
41006,Pendleton County,KY,78.73541588257433
41008,Carroll County,KY,59.91719984945427
41010,Grant County,KY,96.0481746330448
41011,Kenton County,KY,27.060594655626645
41018,Kenton County,KY,38.91607075649228
41042,Boone County,KY,39.40534437335341
41048,Boone County,KY,64.35829883327061
41073,Campbell County,KY,85.50997365449756
41076,Campbell County,KY,93.03726006774558
41091,Boone County,KY,52.691004892736174
41094,Boone County,KY,92.05871283402334
41095,Gallatin County,KY,94.05344373353405
41465,Magoffin County,KY,39.06661648475725
41501,Pike County,KY,5.457282649604817
42003,McCracken County,KY,7.8283778697779445
42066,Graves County,KY,12.043658261196837
42071,Calloway County,KY,25.06586375611592
42141,Barren County,KY,40.873165223936766
42240,Christian County,KY,2.446368084305608
42301,Daviess County,KY,4.215280391418894
42420,Henderson County,KY,56.529920963492664
42501,Pulaski County,KY,31.990967256304103
42642,Russell County,KY,47.42190440346255
42765,Hart County,KY,90.70380127963868
70001,Jefferson Parish,LA,52.05118554761009
70002,Jefferson Parish,LA,29.619872036130975
70003,Jefferson Parish,LA,79.67632668423033
70006,Jefferson Parish,LA,97.2901768912307
70032,St. Bernard Parish,LA,77.60632292058712
70037,Plaquemines Parish,LA,68.42303349642454
70047,St. Charles Parish,LA,94.2792623259315
70053,Jefferson Parish,LA,98.53217914941663
70056,Jefferson Parish,LA,82.38614979299962
70058,Jefferson Parish,LA,28.07677832141513
70062,Jefferson Parish,LA,32.81896876176138
70065,Jefferson Parish,LA,10.801656003010915
70072,Jefferson Parish,LA,11.742566804666918
70092,St. Bernard Parish,LA,82.00978547233723
70094,Jefferson Parish,LA,12.721114038389162
70112,Orleans Parish,LA,67.557395558901
70115,Orleans Parish,LA,60.030109145652986
70117,Orleans Parish,LA,24.576590139254797
70118,Orleans Parish,LA,47.911178020323675
70119,Orleans Parish,LA,53.36846066992849
70123,Jefferson Parish,LA,88.9348889725254
70128,Orleans Parish,LA,98.26872412495295
70129,Orleans Parish,LA,99.1719984945427
70341,Assumption Parish,LA,99.69890854347008
70346,Ascension Parish,LA,97.70417764395935
70394,Lafourche Parish,LA,61.23447497177268
70427,Washington Parish,LA,8.091832894241625
70456,Tangipahoa Parish,LA,87.27888596161084
70461,St. Tammany Parish,LA,82.91305984192698
70462,Livingston Parish,LA,39.856981558148284
70466,Tangipahoa Parish,LA,89.76289047798268
70508,Lafayette Parish,LA,87.46706812194203
70512,St. Landry Parish,LA,44.26044410989839
70517,St. Martin Parish,LA,25.630410237109523
70529,Lafayette Parish,LA,58.86337975159955
70560,Iberia Parish,LA,18.44185171245766
70586,Evangeline Parish,LA,56.83101242002259
70706,Livingston Parish,LA,92.24689499435453
70714,East Baton Rouge Parish,LA,54.00828001505458
70737,Ascension Parish,LA,15.957847196085812
70764,Iberville Parish,LA,19.947308995107264
70769,Ascension Parish,LA,21.151674821226948
70805,East Baton Rouge Parish,LA,69.21339856981558
70806,East Baton Rouge Parish,LA,73.12758750470455
70807,East Baton Rouge Parish,LA,6.360557019194581
70810,East Baton Rouge Parish,LA,18.103123823861498
70811,East Baton Rouge Parish,LA,57.16974030861874
70812,East Baton Rouge Parish,LA,15.280391418893489
70816,East Baton Rouge Parish,LA,78.43432442604441
70820,East Baton Rouge Parish,LA,57.01919458035378
71037,Bossier Parish,LA,31.53933007150922
71038,Claiborne Parish,LA,99.96236356793376
71047,Caddo Parish,LA,34.06097101994731
71052,De Soto Parish,LA,84.45615355664283
71078,De Soto Parish,LA,81.55814828754234
71101,Caddo Parish,LA,99.36018065487391
71104,Caddo Parish,LA,91.23071132856604
71105,Caddo Parish,LA,94.24162589386526
71106,Caddo Parish,LA,87.95634173880316
71107,Caddo Parish,LA,94.54271735039518
71108,Caddo Parish,LA,94.61799021452765
71109,Caddo Parish,LA,92.99962363567934
71111,Bossier Parish,LA,1.7689123071132857
71112,Bossier Parish,LA,25.479864508844564
71118,Caddo Parish,LA,97.25254045916446
71201,Ouachita Parish,LA,47.27135867519759
71202,Ouachita Parish,LA,77.38050432818969
71203,Ouachita Parish,LA,3.6883703424915315
71251,Jackson Parish,LA,29.883327060594656
71343,Catahoula Parish,LA,35.07715468573579
71449,Sabine Parish,LA,51.29845690628528
03904,York County,ME,79.41287165976667
04005,York County,ME,75.38577342867896
04038,Cumberland County,ME,35.71697403086188
04086,Sagadahoc County,ME,59.08919834399698
04092,Cumberland County,ME,23.786225065863757
04210,Androscoggin County,ME,48.62627022958223
04240,Androscoggin County,ME,0.5645464809936018
04254,Androscoggin County,ME,86.45088445615356
04282,Androscoggin County,ME,91.45652992096349
04364,Kennebec County,ME,38.088069251035
04412,Penobscot County,ME,44.41098983816334
04572,Lincoln County,ME,48.28754234098607
04976,Somerset County,ME,29.469326307866012
20603,Charles County,MD,46.81972149040271
20724,Anne Arundel County,MD,66.16484757245014
20745,Prince George's County,MD,76.77832141512985
20747,Prince George's County,MD,29.732781332329694
20815,Montgomery County,MD,63.26684230334965
20832,Montgomery County,MD,82.49905908919834
20850,Montgomery County,MD,93.30071509220926
20861,Montgomery County,MD,99.8118178396688
20895,Montgomery County,MD,74.74595408355287
20910,Montgomery County,MD,39.40534437335341
21009,Harford County,MD,30.636055701919457
21014,Harford County,MD,66.99284907790741
21029,Howard County,MD,99.4354535190064
21040,Harford County,MD,94.39217162213023
21042,Howard County,MD,49.7177267595032
21043,Howard County,MD,84.30560782837787
21044,Howard County,MD,31.01242002258186
21045,Howard County,MD,30.82423786225066
21047,Harford County,MD,65.9390289800527
21050,Harford County,MD,52.653368460669924
21061,Anne Arundel County,MD,20.888219796763266
21075,Howard County,MD,46.51863003387279
21084,Harford County,MD,88.78434324426044
21090,Anne Arundel County,MD,69.40158073014679
21093,Baltimore County,MD,54.347007903650734
21102,Carroll County,MD,72.9017689123071
21104,Carroll County,MD,98.04290553255551
21113,Anne Arundel County,MD,37.56115920210764
21114,Anne Arundel County,MD,44.71208129469326
21117,Baltimore County,MD,16.861121565675575
21136,Baltimore County,MD,65.14866390666165
21144,Anne Arundel County,MD,77.71923221678585
21202,Baltimore city,MD,25.555137372977043
21204,Baltimore County,MD,49.83063605570192
21206,Baltimore city,MD,24.46368084305608
21207,Baltimore County,MD,36.093338351524274
21208,Baltimore County,MD,41.32480240873166
21212,Baltimore city,MD,25.442228076778324
21213,Baltimore city,MD,49.3413624388408
21214,Baltimore city,MD,66.80466691757621
21215,Baltimore city,MD,3.3496424538953704
21221,Baltimore County,MD,10.199473089951072
21224,Baltimore city,MD,70.90703801279639
21228,Baltimore County,MD,74.1061347384268
21231,Baltimore city,MD,46.17990214527663
21236,Baltimore County,MD,23.522770041400076
21403,Anne Arundel County,MD,43.20662401204366
21601,Talbot County,MD,49.153180278509595
21769,Frederick County,MD,85.20888219796763
21771,Frederick County,MD,44.072261949567185
21784,Carroll County,MD,83.25178773052315
21793,Frederick County,MD,73.57922468949944
01007,Hampshire County,MA,31.8027850959729
01020,Hampden County,MA,23.259315016936394
01040,Hampden County,MA,0.03763643206624012
01060,Hampshire County,MA,26.119683853970642
01108,Hampden County,MA,22.657132103876553
01109,Hampden County,MA,3.1990967256304104
01201,Berkshire County,MA,0
01460,Middlesex County,MA,76.51486639066617
01462,Worcester County,MA,73.42867896123447
01469,Middlesex County,MA,57.20737674068498
01516,Worcester County,MA,61.64847572450132
01532,Worcester County,MA,30.673692133985696
01540,Worcester County,MA,75.42340986074521
01545,Worcester County,MA,79.97741814076026
01550,Worcester County,MA,3.5378246142265715
01568,Worcester County,MA,51.90063981934513
01606,Worcester County,MA,58.712834023334594
01608,Worcester County,MA,62.777568686488515
01609,Worcester County,MA,8.919834399698908
01610,Worcester County,MA,12.834023334587883
01612,Worcester County,MA,93.67707941287165
01702,Middlesex County,MA,29.506962739932252
01742,Middlesex County,MA,87.16597666541212
01746,Middlesex County,MA,51.11027474595409
01749,Middlesex County,MA,10.425291682348513
01757,Worcester County,MA,7.564922845314265
01801,Middlesex County,MA,61.723748588633796
01810,Essex County,MA,25.8938652615732
01824,Middlesex County,MA,56.191193074896496
01826,Middlesex County,MA,11.366202484004516
01832,Essex County,MA,32.06624012043658
01841,Essex County,MA,1.0538200978547234
01850,Middlesex County,MA,17.463304478735417
01852,Middlesex County,MA,0.07527286413248024
01860,Essex County,MA,64.24538953707189
01864,Middlesex County,MA,58.449378998870905
01867,Middlesex County,MA,14.791117802032366
01887,Middlesex County,MA,2.5592773805043283
01890,Middlesex County,MA,55.175009409108014
01902,Essex County,MA,0.18818216033120058
01906,Essex County,MA,0.8656379375235227
01915,Essex County,MA,15.054572826496049
01930,Essex County,MA,1.0914565299209635
01944,Essex County,MA,87.09070380127963
01970,Essex County,MA,0.301091456529921
01982,Essex County,MA,54.72337222431314
02019,Norfolk County,MA,21.114038389160708
02021,Norfolk County,MA,17.388031614602937
02026,Norfolk County,MA,1.5807301467820851
02048,Bristol County,MA,10.350018818216034
02061,Plymouth County,MA,47.72299585999247
02072,Norfolk County,MA,19.00639819345126
02114,Suffolk County,MA,31.0500564546481
02115,Suffolk County,MA,14.941663530297328
02116,Suffolk County,MA,44.335716974030866
02118,Suffolk County,MA,6.699284907790741
02119,Suffolk County,MA,62.702295822356035
02121,Suffolk County,MA,22.43131351147911
02122,Suffolk County,MA,0.3387278885961611
02124,Suffolk County,MA,59.27738050432819
02125,Suffolk County,MA,46.405720737674066
02126,Suffolk County,MA,1.543093714715845
02128,Suffolk County,MA,4.892736168611216
02130,Suffolk County,MA,65.82611968385396
02131,Suffolk County,MA,55.40082800150545
02135,Suffolk County,MA,1.3549115543846444
02136,Suffolk County,MA,65.07339104252917
02138,Middlesex County,MA,67.21866767030485
02139,Middlesex County,MA,0.11290929619872037
02143,Middlesex County,MA,95.89762890477984
02144,Middlesex County,MA,74.482499059089207
02148,Middlesex County,MA,6.736921339856981
02149,Middlesex County,MA,34.023334587881074
02150,Suffolk County,MA,18.893488897252542
02155,Middlesex County,MA,42.67971396311629
02171,Norfolk County,MA,16.672939405344373
02186,Norfolk County,MA,7.038012796386902
02301,Plymouth County,MA,0.26345502446368085
02343,Norfolk County,MA,65.26157320286036
02360,Plymouth County,MA,2.5969138125705684
02364,Plymouth County,MA,33.57169740308619
02445,Norfolk County,MA,14.377117049303726
02446,Norfolk County,MA,73.84267971396311
02451,Middlesex County,MA,55.32555513737297
02453,Middlesex County,MA,67.6326684230335
02466,Middlesex County,MA,87.0530673692134
02472,Middlesex County,MA,52.239367707941284
02474,Middlesex County,MA,73.24049680090327
02478,Middlesex County,MA,83.70342491531802
02481,Norfolk County,MA,37.786977794505084
02482,Norfolk County,MA,54.15882574331954
02492,Norfolk County,MA,40.60971019947309
02537,Barnstable County,MA,95.85999247271359
02645,Barnstable County,MA,82.68724124952954
02720,Bristol County,MA,8.016560030109146
02744,Bristol County,MA,90.47798268724125
02780,Bristol County,MA,0.22581859239744073
02790,Bristol County,MA,10.839292435077155
48030,Oakland County,MI,26.082047421904402
48033,Oakland County,MI,94.8438088069251
48036,Macomb County,MI,41.28716597666541
48038,Macomb County,MI,6.4358298833270595
48042,Macomb County,MI,11.516748212269476
48044,Macomb County,MI,17.9149416635303
48080,Macomb County,MI,21.001129092961985
48085,Oakland County,MI,17.199849454271735
48089,Macomb County,MI,3.387278885961611
48093,Macomb County,MI,49.60481746330448
48101,Wayne County,MI,37.07188558524652
48105,Washtenaw County,MI,81.18178396687993
48108,Washtenaw County,MI,50.094091080165605
48120,Wayne County,MI,77.15468573579226
48125,Wayne County,MI,52.99209634926609
48126,Wayne County,MI,4.554008280015054
48127,Wayne County,MI,5.946556266465939
48135,Wayne County,MI,53.02973278133233
48154,Wayne County,MI,12.984569062852842
48160,Washtenaw County,MI,52.7286413248024
48162,Monroe County,MI,41.02371095220173
48169,Livingston County,MI,30.410237109522015
48170,Wayne County,MI,54.64809936018066
48174,Wayne County,MI,16.296575084681972
48178,Oakland County,MI,45.54008280015054
48180,Wayne County,MI,0.7150922092585623
48183,Wayne County,MI,56.191193074896496
48185,Wayne County,MI,48.21226947685359
48186,Wayne County,MI,78.66014301844186
48187,Wayne County,MI,4.591644712081295
48189,Washtenaw County,MI,40.72261949567181
48195,Wayne County,MI,37.786977794505084
48197,Washtenaw County,MI,7.7154685735792246
48198,Washtenaw County,MI,28.79187053067369
48205,Wayne County,MI,1.4301844185171246
48206,Wayne County,MI,57.32028603688371
48207,Wayne County,MI,9.93601806548739
48210,Wayne County,MI,13.586751975912684
48211,Wayne County,MI,97.32781332329695
48212,Wayne County,MI,21.03876552502823
48213,Wayne County,MI,22.46894994354535
48214,Wayne County,MI,33.72224313135115
48219,Wayne County,MI,12.49529544599172
48223,Wayne County,MI,25.21640948438088
48224,Wayne County,MI,66.8799397817087
48225,Wayne County,MI,23.409860745201357
48227,Wayne County,MI,9.40910801656003
48228,Wayne County,MI,5.005645464809936
48230,Wayne County,MI,33.270605946556266
48234,Wayne County,MI,17.726759503199098
48235,Wayne County,MI,27.963869025216407
48240,Wayne County,MI,10.575837410613474
48301,Oakland County,MI,70.19194580353782
48304,Oakland County,MI,45.991719984945426
48307,Oakland County,MI,9.597290176891232
48310,Macomb County,MI,29.431689875799776
48313,Macomb County,MI,14.188934888972526
48322,Oakland County,MI,25.668046669175766
48328,Oakland County,MI,50.31990967256304
48336,Oakland County,MI,45.20135491155439
48341,Oakland County,MI,16.560030109145654
48346,Oakland County,MI,22.20549491908167
48359,Oakland County,MI,43.73353406097102
48371,Oakland County,MI,21.97967632668423
48390,Oakland County,MI,87.69288671433948
48393,Oakland County,MI,29.619872036130975
48420,Genesee County,MI,78.84832517877305
48429,Shiawassee County,MI,44.1851712457659
48439,Genesee County,MI,68.15957847196086
48446,Lapeer County,MI,7.527286413248024
48457,Genesee County,MI,94.42980805419646
48503,Genesee County,MI,47.94881445238992
48507,Genesee County,MI,36.99661272111403
48532,Genesee County,MI,84.79488144523899
48601,Saginaw County,MI,0.45163718479488146
48603,Saginaw County,MI,5.570191945803538
48706,Bay County,MI,2.9356417011667295
48744,Tuscola County,MI,72.18667670304855
48756,Ogemaw County,MI,98.64508844561536
48823,Ingham County,MI,19.533308242378624
48837,Eaton County,MI,37.97515995483628
48843,Livingston County,MI,5.908919834399699
48846,Ionia County,MI,50.8468197214904
48864,Ingham County,MI,52.38991343620625
48895,Ingham County,MI,62.51411366202484
48911,Ingham County,MI,41.77643959352653
48912,Ingham County,MI,34.249153180278505
49007,Kalamazoo County,MI,51.14791117802032
49009,Kalamazoo County,MI,5.7207376740684985
49013,Van Buren County,MI,73.9179525780956
49036,Branch County,MI,15.581482875423411
49057,Van Buren County,MI,82.80015054572827
49080,Allegan County,MI,26.270229582235604
49103,Berrien County,MI,72.03613097478359
49203,Jackson County,MI,17.086940158073013
49221,Lenawee County,MI,1.2796386902521641
49232,Hillsdale County,MI,93.97817086940158
49251,Ingham County,MI,74.59540835528792
49286,Lenawee County,MI,63.34211516748213
49316,Kent County,MI,32.254422280767784
49319,Kent County,MI,59.31501693639443
49321,Kent County,MI,37.711704930372605
49329,Montcalm County,MI,38.35152427549868
49341,Kent County,MI,42.19044034625517
49412,Newaygo County,MI,45.08844561535567
49417,Ottawa County,MI,30.899510726383138
49418,Kent County,MI,22.506586375611594
49423,Ottawa County,MI,5.494919081671058
49424,Ottawa County,MI,44.29808054196462
49426,Ottawa County,MI,24.501317275122318
49431,Mason County,MI,19.08167105758374
49437,Muskegon County,MI,88.59616108392925
49441,Muskegon County,MI,5.796010538200978
49444,Muskegon County,MI,4.290553255551374
49503,Kent County,MI,58.90101618366579
49504,Kent County,MI,27.39932254422281
49506,Kent County,MI,13.059841926985321
49507,Kent County,MI,38.276251411366204
49508,Kent County,MI,48.47572450131727
49509,Kent County,MI,25.85622882950696
49525,Kent County,MI,47.34663153933007
49548,Kent County,MI,31.689875799774182
49677,Osceola County,MI,70.75649228453142
49829,Delta County,MI,19.08167105758374
49837,Delta County,MI,86.75197591268348
49855,Marquette County,MI,7.489649981181784
49868,Luce County,MI,71.2834023334588
55016,Washington County,MN,76.40195709446745
55033,Dakota County,MN,59.87956341738803
55044,Dakota County,MN,32.3673315769665
55075,Dakota County,MN,25.1411366202484
55082,Washington County,MN,46.14226571321039
55103,Ramsey County,MN,78.81068874670682
55108,Ramsey County,MN,88.29506962739933
55112,Ramsey County,MN,85.73579224689499
55117,Ramsey County,MN,8.430560782837787
55118,Dakota County,MN,32.21678584870155
55122,Dakota County,MN,88.03161460293563
55124,Dakota County,MN,22.995859992472713
55305,Hennepin County,MN,59.39028980052691
55309,Sherburne County,MN,57.09446744448626
55313,Wright County,MN,76.10086563793752
55317,Carver County,MN,59.39028980052691
55328,Wright County,MN,91.56943921716221
55336,McLeod County,MN,50.35754610462928
55337,Dakota County,MN,19.646217538577343
55345,Hennepin County,MN,75.6115920210764
55346,Hennepin County,MN,70.8317651486639
55350,McLeod County,MN,15.619119307489651
55371,Mille Lacs County,MN,32.89424162589387
55387,Carver County,MN,57.84719608581107
55404,Hennepin County,MN,4.102371095220173
55406,Hennepin County,MN,64.96048174633044
55407,Hennepin County,MN,74.294316898758
55408,Hennepin County,MN,23.071132856605196
55409,Hennepin County,MN,86.33797515995484
55410,Hennepin County,MN,98.38163342115168
55411,Hennepin County,MN,61.87429431689876
55412,Hennepin County,MN,19.382762514113665
55417,Hennepin County,MN,59.013925479864504
55418,Hennepin County,MN,14.753481369966126
55421,Anoka County,MN,10.651110274745953
55422,Hennepin County,MN,16.898757997741814
55423,Hennepin County,MN,33.64697026721867
55426,Hennepin County,MN,58.29883327060594
55428,Hennepin County,MN,49.529544599172
55429,Hennepin County,MN,52.91682348513361
55430,Hennepin County,MN,59.69138125705683
55433,Anoka County,MN,62.965750846819724
55434,Anoka County,MN,80.80541964621753
55435,Hennepin County,MN,85.96161083929243
55438,Hennepin County,MN,77.83214151298456
55441,Hennepin County,MN,85.66051938276252
55443,Hennepin County,MN,92.81144147534813
55446,Hennepin County,MN,84.07978923598043
55449,Anoka County,MN,81.40760255927738
55709,Itasca County,MN,86.56379375235228
55734,St. Louis County,MN,78.88596161083929
55744,Itasca County,MN,75.42340986074521
55792,St. Louis County,MN,21.339856981558146
55803,St. Louis County,MN,48.06172374858863
55808,St. Louis County,MN,63.2292058712834
55912,Mower County,MN,2.6721866767030487
55987,Winona County,MN,18.78057960105382
56073,Brown County,MN,11.704930372600678
56143,Jackson County,MN,91.68234851336094
56187,Nobles County,MN,47.12081294693263
56303,Stearns County,MN,17.613850207000375
56329,Benton County,MN,72.2243131351148
56347,Todd County,MN,65.14866390666165
56358,Kanabec County,MN,98.15581482875423
56364,Morrison County,MN,74.6706812194204
56425,Crow Wing County,MN,72.03613097478359
56474,Cass County,MN,76.55250282273241
56482,Wadena County,MN,30.97478359051562
56537,Otter Tail County,MN,66.72939405344374
56560,Clay County,MN,64.62175385773429
56671,Beltrami County,MN,81.36996612721113
56716,Polk County,MN,76.85359427926232
56721,Polk County,MN,35.604064734663154
56751,Roseau County,MN,97.59126834776063
38671,DeSoto County,MS,45.84117425668047
38701,Washington County,MS,41.09898381633421
38703,Washington County,MS,50.35754610462928
38769,Bolivar County,MS,97.06435829883327
38834,Alcorn County,MS,49.529544599172
38843,Itawamba County,MS,56.11592021076402
38851,Chickasaw County,MS,86.18742943168988
38921,Tallahatchie County,MS,80.35378246142267
38941,Leflore County,MS,98.19345126082048
39046,Madison County,MS,15.016936394429809
39083,Copiah County,MS,59.39028980052691
39111,Simpson County,MS,56.5675573955589
39189,Leake County,MS,96.95144900263455
39194,Yazoo County,MS,60.48174633044787
39204,Hinds County,MS,36.80843056078284
39206,Hinds County,MS,80.31614602935642
39208,Rankin County,MS,87.88106887467067
39301,Lauderdale County,MS,9.823108769288671
39350,Neshoba County,MS,39.81934512608205
39426,Pearl River County,MS,36.206247647722996
39466,Pearl River County,MS,66.20248400451636
39503,Harrison County,MS,49.37899887090704
39574,Harrison County,MS,33.79751599548363
39645,Amite County,MS,77.38050432818969
63031,St. Louis County,MO,9.33383515242755
63033,St. Louis County,MO,8.355287918705306
63034,St. Louis County,MO,68.98757997741815
63051,Jefferson County,MO,70.60594655626646
63080,Franklin County,MO,27.700414000752726
63112,St. Louis city,MO,34.73842679713963
63114,St. Louis County,MO,13.473842679713963
63116,St. Louis city,MO,62.43884079789236
63118,St. Louis city,MO,18.40421528039142
63121,St. Louis County,MO,75.83741061347385
63122,St. Louis County,MO,38.953707188558525
63123,St. Louis County,MO,21.82913059841927
63130,St. Louis County,MO,33.87278885961611
63135,St. Louis County,MO,17.275122318404215
63136,St. Louis County,MO,2.8603688370342493
63137,St. Louis County,MO,84.68197214904028
63138,St. Louis County,MO,73.95558901016184
63146,St. Louis County,MO,32.856605193827626
63147,St. Louis city,MO,38.878434324426046
63376,St. Charles County,MO,21.189311253293187
63385,St. Charles County,MO,8.468197214904027
63501,Adair County,MO,50.169363944298084
64014,Jackson County,MO,50.997365449755364
64016,Jackson County,MO,70.98231087692886
64029,Jackson County,MO,51.2231840421528
64052,Jackson County,MO,49.228453142642074
64055,Jackson County,MO,3.04855099736545
64060,Clay County,MO,28.56605193827625
64068,Clay County,MO,19.15694392171622
64080,Cass County,MO,42.90553255551374
64081,Jackson County,MO,87.65525028227324
64085,Ray County,MO,59.84192698532179
64089,Clay County,MO,61.196838539706434
64106,Jackson County,MO,41.550621001129095
64109,Jackson County,MO,41.51298456906286
64110,Jackson County,MO,48.249905908919835
64113,Jackson County,MO,47.12081294693263
64114,Jackson County,MO,48.0240873165224
64127,Jackson County,MO,2.107640195709447
64128,Jackson County,MO,61.121565675573954
64131,Jackson County,MO,27.135867519759127
64133,Jackson County,MO,1.4678208505833648
64134,Jackson County,MO,53.782461422657136
64136,Jackson County,MO,90.06398193451261
64157,Clay County,MO,61.5355664283026
64429,Clinton County,MO,72.93940534437336
64468,Nodaway County,MO,71.05758374106135
64772,Vernon County,MO,24.80240873165224
64804,Jasper County,MO,58.374106134738426
64854,McDonald County,MO,77.117049303726
65201,Boone County,MO,28.15205118554761
65301,Pettis County,MO,10.613473842679715
65401,Phelps County,MO,22.24313135114791
65714,Christian County,MO,71.24576590139255
65740,Taney County,MO,97.81708694015808
65757,Greene County,MO,92.32216785848702
59457,Fergus County,MT,80.88069251035002
59501,Hill County,MT,80.65487391795257
59833,Ravalli County,MT,97.77945050809184
68007,Douglas County,NE,68.7617613850207
68025,Dodge County,NE,20.474219044034626
68132,Douglas County,NE,56.11592021076402
68135,Douglas County,NE,51.29845690628528
68144,Douglas County,NE,47.760632292058716
68164,Douglas County,NE,53.97064358298833
68505,Lancaster County,NE,63.981934512608206
68516,Lancaster County,NE,71.3963116296575
89101,Clark County,NV,15.242754986827247
89108,Clark County,NV,11.102747459540835
89117,Clark County,NV,19.947308995107264
89148,Clark County,NV,28.86714339480617
89156,Clark County,NV,45.991719984945426
89408,Lyon County,NV,22.05494919081671
89434,Washoe County,NV,26.646593902898
89436,Washoe County,NV,12.081294693263079
89521,Washoe County,NV,31.57696650357546
89801,Elko County,NV,71.09522017312759
03038,Rockingham County,NH,6.398193451260821
03052,Hillsborough County,NH,77.07941287165977
03053,Rockingham County,NH,14.452389913436207
03060,Hillsborough County,NH,2.4840045163718476
03062,Hillsborough County,NH,9.74783590515619
03063,Hillsborough County,NH,26.985321791494165
03103,Hillsborough County,NH,1.9570944674444861
03110,Hillsborough County,NH,38.23861497929996
03264,Grafton County,NH,83.62815205118554
03820,Strafford County,NH,10.952201731275874
07008,Middlesex County,NJ,39.51825366955213
07011,Passaic County,NJ,31.238238614979302
07012,Passaic County,NJ,84.90779074143772
07017,Essex County,NJ,17.162213022205496
07026,Bergen County,NJ,81.85923974407227
07030,Hudson County,NJ,30.071509220925858
07042,Essex County,NJ,54.38464433571697
07047,Hudson County,NJ,12.49529544599172
07055,Passaic County,NJ,11.629657508468197
07057,Bergen County,NJ,63.71847948814452
07060,Union County,NJ,93.48889725254045
07062,Union County,NJ,40.383891607075654
07080,Middlesex County,NJ,37.56115920210764
07090,Union County,NJ,59.126834776063234
07103,Essex County,NJ,3.08618742943169
07104,Essex County,NJ,7.790741437711706
07105,Essex County,NJ,24.04968009032744
07106,Essex County,NJ,37.184794881445235
07107,Essex County,NJ,4.516371847948815
07108,Essex County,NJ,0.41400075272864134
07201,Union County,NJ,2.898005269100489
07202,Union County,NJ,2.3710952201731272
07304,Hudson County,NJ,46.066992849077906
07305,Hudson County,NJ,33.04478735415883
07306,Hudson County,NJ,13.248024087316523
07307,Hudson County,NJ,22.732404968009032
07442,Passaic County,NJ,96.5374482499059
07461,Sussex County,NJ,23.97440722619496
07501,Passaic County,NJ,73.1652239367708
07502,Passaic County,NJ,73.31576966503576
07504,Passaic County,NJ,86.18742943168988
07514,Passaic County,NJ,69.58976289047799
07605,Bergen County,NJ,97.13963116296576
07607,Bergen County,NJ,57.28264960481746
07642,Bergen County,NJ,91.11780203236734
07646,Bergen County,NJ,69.36394429808054
07730,Monmouth County,NJ,62.137749341362436
07838,Warren County,NJ,100
07850,Morris County,NJ,80.24087316522393
07860,Sussex County,NJ,14.000752728641325
07930,Morris County,NJ,91.34362062476478
07946,Morris County,NJ,98.6827248776816
07960,Morris County,NJ,48.92736168611216
08003,Camden County,NJ,39.631162965750846
08004,Camden County,NJ,36.65788483251788
08009,Camden County,NJ,78.35905156191193
08010,Burlington County,NJ,94.80617237485886
08016,Burlington County,NJ,20.587128340233345
08021,Camden County,NJ,9.672563041023711
08028,Gloucester County,NJ,9.634926608957471
08033,Camden County,NJ,96.7256304102371
08037,Atlantic County,NJ,45.238991343620626
08043,Camden County,NJ,89.499435453519
08046,Burlington County,NJ,2.182913059841927
08048,Burlington County,NJ,92.58562288295069
08053,Burlington County,NJ,72.52540459164472
08054,Burlington County,NJ,12.5705683101242
08055,Burlington County,NJ,72.11140383891606
08056,Gloucester County,NJ,99.66127211140385
08057,Burlington County,NJ,85.81106511102747
08059,Camden County,NJ,31.313511479111778
08060,Burlington County,NJ,78.6977794505081
08062,Gloucester County,NJ,49.26608957470832
08069,Salem County,NJ,27.81332329695145
08077,Burlington County,NJ,92.28453142642078
08078,Camden County,NJ,67.33157696650358
08080,Gloucester County,NJ,22.920587128340234
08085,Gloucester County,NJ,37.5235227700414
08090,Gloucester County,NJ,47.986450884456154
08094,Gloucester County,NJ,2.3334587881068876
08096,Gloucester County,NJ,25.291682348513362
08097,Gloucester County,NJ,97.21490402709823
08108,Camden County,NJ,80.12796386902522
08205,Atlantic County,NJ,30.22205494919082
08210,Cape May County,NJ,22.280767783214152
08226,Cape May County,NJ,65.5626646593903
08260,Cape May County,NJ,60.368837034249154
08302,Cumberland County,NJ,48.85208882197968
08344,Gloucester County,NJ,92.7738050432819
08360,Cumberland County,NJ,36.88370342491532
08527,Ocean County,NJ,19.721490402709822
08540,Mercer County,NJ,84.34324426044411
08609,Mercer County,NJ,70.64358298833271
08611,Mercer County,NJ,79.52578095596537
08618,Mercer County,NJ,2.6345502446368085
08628,Mercer County,NJ,46.70681219420399
08722,Ocean County,NJ,32.931878057960105
08817,Middlesex County,NJ,51.674821226947685
08831,Middlesex County,NJ,96.65035754610463
08835,Somerset County,NJ,92.32216785848702
08852,Middlesex County,NJ,75.0470455400828
08854,Middlesex County,NJ,3.424915318027851
08857,Middlesex County,NJ,86.26270229582235
08861,Middlesex County,NJ,62.1001129092962
08869,Somerset County,NJ,53.55664283025969
08872,Middlesex County,NJ,63.11629657508468
08873,Somerset County,NJ,90.8167105758374
08876,Somerset County,NJ,9.898381633421153
08879,Middlesex County,NJ,45.728264960481745
08886,Warren County,NJ,85.35942792623258
08901,Middlesex County,NJ,77.49341362438841
87002,Valencia County,NM,31.6146029356417
87102,Bernalillo County,NM,11.215656755739555
87104,Bernalillo County,NM,66.46593902898005
87105,Bernalillo County,NM,1.1667293940534438
87106,Bernalillo County,NM,51.37372977041777
87111,Bernalillo County,NM,10.312382386149793
87121,Bernalillo County,NM,35.8298833270606
87123,Bernalillo County,NM,6.059465562664659
87313,McKinley County,NM,80.69251035001882
87401,San Juan County,NM,8.882197967632669
87505,Santa Fe County,NM,1.6936394429808055
88001,Doa Ana County,NM,14.113662024840046
88101,Curry County,NM,4.140007527286413
88203,Chaves County,NM,10.011290929619872
88210,Eddy County,NM,25.78095596537448
88220,Eddy County,NM,35.22770041400075
88240,Lea County,NM,2.0700037636432067
88242,Lea County,NM,57.99774181407602
10002,New York County,NY,50.62100112909296
10005,New York County,NY,87.39179525780956
10019,New York County,NY,69.3263078660143
10023,New York County,NY,90.89198343996989
10024,New York County,NY,34.92660895747083
10025,New York County,NY,28.15205118554761
10029,New York County,NY,37.67406849830636
10031,New York County,NY,34.39969890854347
10034,New York County,NY,19.269853217914942
10037,New York County,NY,22.80767783214151
10039,New York County,NY,60.218291305984195
10302,Richmond County,NY,78.50959729017688
10303,Richmond County,NY,90.13925479864508
10451,Bronx County,NY,8.731652239367708
10452,Bronx County,NY,64.28302596913812
10453,Bronx County,NY,2.408731652239368
10454,Bronx County,NY,74.44486262702296
10455,Bronx County,NY,75.31050056454647
10457,Bronx County,NY,26.947685359427926
10458,Bronx County,NY,18.32894241625894
10460,Bronx County,NY,15.205118554761007
10462,Bronx County,NY,2.220549491908167
10463,Bronx County,NY,43.545351900639815
10466,Bronx County,NY,24.200225818592397
10467,Bronx County,NY,1.618366578848325
10468,Bronx County,NY,66.57884832517877
10469,Bronx County,NY,54.12118931125329
10470,Bronx County,NY,61.42265713210387
10472,Bronx County,NY,66.42830259691381
10473,Bronx County,NY,62.25065863756116
10543,Westchester County,NY,74.1061347384268
10580,Westchester County,NY,89.98870907038012
10591,Westchester County,NY,44.67444486262702
10601,Westchester County,NY,99.28490779074144
10701,Westchester County,NY,4.968009032743695
10704,Westchester County,NY,49.416635302973276
10950,Orange County,NY,47.007903650733915
10952,Rockland County,NY,89.19834399698908
11101,Queens County,NY,63.6055701919458
11103,Queens County,NY,51.90063981934513
11203,Kings County,NY,68.34776063229205
11204,Kings County,NY,41.92698532179149
11205,Kings County,NY,24.99059089198344
11206,Kings County,NY,51.260820474219045
11207,Kings County,NY,53.82009785472337
11208,Kings County,NY,25.78095596537448
11209,Kings County,NY,18.592397440722618
11210,Kings County,NY,68.68648852088822
11211,Kings County,NY,26.684230334964244
11212,Kings County,NY,24.72713586751976
11213,Kings County,NY,1.6560030109145654
11214,Kings County,NY,29.318780579601057
11219,Kings County,NY,54.196462175385776
11220,Kings County,NY,32.103876552502825
11221,Kings County,NY,58.22356040647346
11222,Kings County,NY,66.95521264584117
11223,Kings County,NY,35.039518253669556
11225,Kings County,NY,80.99360180654874
11226,Kings County,NY,65.4873917952578
11230,Kings County,NY,71.01994730899511
11233,Kings County,NY,24.162589386526157
11235,Kings County,NY,52.201731275875055
11236,Kings County,NY,61.49792999623636
11237,Kings County,NY,91.04252916823485
11355,Queens County,NY,57.32028603688371
11368,Queens County,NY,87.76815957847197
11372,Queens County,NY,90.440346255175
11373,Queens County,NY,83.32706059465562
11375,Queens County,NY,71.54685735792246
11377,Queens County,NY,76.70304855099737
11385,Queens County,NY,4.064734663153933
11412,Queens County,NY,71.73503951825367
11413,Queens County,NY,30.673692133985696
11418,Queens County,NY,27.662777568686487
11420,Queens County,NY,29.958599924727135
11421,Queens County,NY,45.76590139254799
11422,Queens County,NY,47.79826872412495
11423,Queens County,NY,91.30598419269853
11432,Queens County,NY,66.12721114038389
11433,Queens County,NY,56.07828377869778
11434,Queens County,NY,43.31953330824238
11435,Queens County,NY,70.79412871659767
11520,Nassau County,NY,18.027850959729015
11542,Nassau County,NY,89.72525404591644
11550,Nassau County,NY,23.372224313135114
11552,Nassau County,NY,63.71847948814452
11553,Nassau County,NY,62.288295069627395
11590,Nassau County,NY,94.95671810312383
11701,Suffolk County,NY,89.53707188558525
11706,Suffolk County,NY,36.05570191945803
11735,Nassau County,NY,88.29506962739933
11763,Suffolk County,NY,27.77568686488521
11787,Suffolk County,NY,67.03048550997366
11953,Suffolk County,NY,67.4444862627023
12010,Montgomery County,NY,26.383138878434327
12053,Schenectady County,NY,84.15506210011291
12078,Fulton County,NY,1.5054572826496047
12090,Rensselaer County,NY,82.53669552126458
12116,Otsego County,NY,87.8057960105382
12122,Schoharie County,NY,90.55325555137374
12143,Albany County,NY,75.98795634173881
12309,Schenectady County,NY,52.277004140007534
12428,Ulster County,NY,66.57884832517877
12590,Dutchess County,NY,35.00188182160331
12816,Washington County,NY,70.19194580353782
12901,Clinton County,NY,0.940910801656003
12916,Franklin County,NY,73.57922468949944
12946,Essex County,NY,72.86413248024087
12972,Clinton County,NY,63.45502446368084
13031,Onondaga County,NY,26.684230334964244
13032,Madison County,NY,44.9378998870907
13040,Cortland County,NY,72.7888596161084
13131,Oswego County,NY,94.12871659766654
13165,Seneca County,NY,14.264207753105005
13203,Onondaga County,NY,60.48174633044787
13204,Onondaga County,NY,5.2314640572073765
13208,Onondaga County,NY,5.645464809936018
13219,Onondaga County,NY,83.74106134738427
13357,Herkimer County,NY,20.700037636432068
13365,Herkimer County,NY,19.834399698908545
13460,Chenango County,NY,72.56304102371095
13461,Oneida County,NY,77.83214151298456
13491,Herkimer County,NY,68.91230711328566
13601,Jefferson County,NY,24.0120436582612
13625,St. Lawrence County,NY,90.36507339104253
13733,Chenango County,NY,49.04027098231088
13753,Delaware County,NY,44.9378998870907
13760,Broome County,NY,43.20662401204366
13790,Broome County,NY,3.9518253669552124
13815,Chenango County,NY,77.94505080918329
13825,Otsego County,NY,94.35453519006398
13830,Chenango County,NY,45.389537071885584
13833,Broome County,NY,86.78961234474973
13850,Broome County,NY,8.242378622506587
13856,Delaware County,NY,31.878057960105384
13901,Broome County,NY,84.75724501317275
13905,Broome County,NY,63.379751599548364
14009,Wyoming County,NY,85.96161083929243
14020,Genesee County,NY,40.45916447120813
14043,Erie County,NY,18.74294316898758
14051,Erie County,NY,24.80240873165224
14070,Erie County,NY,58.48701543093715
14072,Erie County,NY,67.59503199096726
14075,Erie County,NY,3.6130974783590517
14092,Niagara County,NY,32.179149416635305
14103,Orleans County,NY,83.55287918705307
14108,Niagara County,NY,63.793752352277
14127,Erie County,NY,70.56831012420022
14150,Erie County,NY,13.737297704177646
14207,Erie County,NY,3.3120060218291307
14208,Erie County,NY,74.93413624388407
14213,Erie County,NY,32.5555137372977
14215,Erie County,NY,0.37636432066240116
14220,Erie County,NY,26.420775310500566
14221,Erie County,NY,5.193827625141137
14224,Erie County,NY,13.398569815581482
14228,Erie County,NY,29.168234851336095
14424,Ontario County,NY,0.7903650733910426
14425,Ontario County,NY,30.78660143018442
14482,Genesee County,NY,33.12006021829131
14489,Wayne County,NY,18.178396687993978
14502,Wayne County,NY,14.490026345502447
14513,Wayne County,NY,1.7312758750470454
14519,Wayne County,NY,36.16861121565675
14534,Monroe County,NY,30.25969138125706
14548,Ontario County,NY,70.38012796386901
14559,Monroe County,NY,22.544222807677833
14580,Monroe County,NY,23.146405720737672
14590,Wayne County,NY,27.54986827248777
14605,Monroe County,NY,35.41588257433195
14606,Monroe County,NY,38.72788859616109
14608,Monroe County,NY,6.134738426797139
14609,Monroe County,NY,19.0440346255175
14613,Monroe County,NY,51.07263831388784
14615,Monroe County,NY,23.146405720737672
14617,Monroe County,NY,2.2958223560406474
14618,Monroe County,NY,30.146782085058337
14620,Monroe County,NY,2.0323673315769666
14621,Monroe County,NY,1.881821603312006
14623,Monroe County,NY,65.675573955589
14624,Monroe County,NY,18.70530673692134
14626,Monroe County,NY,0.9032743695897629
14701,Chautauqua County,NY,19.4203989461799
14733,Chautauqua County,NY,64.09484380880693
14737,Cattaraugus County,NY,69.13812570568311
14738,Chautauqua County,NY,93.1501693639443
14760,Cattaraugus County,NY,36.7707941287166
27006,Davie County,NC,41.85171245765901
27012,Forsyth County,NC,16.785848701543095
27030,Surry County,NC,15.16748212269477
27105,Forsyth County,NC,0.602182913059842
27107,Forsyth County,NC,43.394806172374864
27127,Forsyth County,NC,7.414377117049304
27209,Montgomery County,NC,96.9890854347008
27215,Alamance County,NC,4.441098983816334
27249,Guilford County,NC,82.68724124952954
27260,Guilford County,NC,36.24388407978923
27263,Randolph County,NC,26.910048927361686
27265,Guilford County,NC,10.161836657884834
27278,Orange County,NC,11.441475348136997
27284,Forsyth County,NC,15.656755739555889
27292,Davidson County,NC,11.215656755739555
27401,Guilford County,NC,68.04666917576215
27405,Guilford County,NC,22.280767783214152
27406,Guilford County,NC,23.485133609333836
27410,Guilford County,NC,17.802032367331577
27510,Orange County,NC,85.24651863003388
27514,Orange County,NC,39.48061723748589
27517,Orange County,NC,75.12231840421528
27519,Wake County,NC,85.05833646970267
27527,Johnston County,NC,50.169363944298084
27534,Wayne County,NC,20.286036883703424
27537,Vance County,NC,20.925856228829506
27540,Wake County,NC,28.37786977794505
27557,Nash County,NC,78.05796010538201
27560,Wake County,NC,55.8148287542341
27573,Person County,NC,89.80052691004893
27587,Wake County,NC,35.867519759126836
27592,Wake County,NC,50.43281896876176
27603,Wake County,NC,62.213022205494916
27604,Wake County,NC,45.54008280015054
27607,Wake County,NC,86.8648852088822
27609,Wake County,NC,48.09936018065488
27610,Wake County,NC,64.05720737674069
27615,Wake County,NC,85.47233722243132
27616,Wake County,NC,51.03500188182161
27701,Durham County,NC,87.9939781708694
27703,Durham County,NC,38.200978547233724
27704,Durham County,NC,23.334587881068874
27707,Durham County,NC,41.06134738426797
27713,Durham County,NC,71.77267595031991
27856,Nash County,NC,57.621377493413625
27858,Pitt County,NC,13.586751975912684
27892,Martin County,NC,29.996236356793375
27893,Wilson County,NC,7.866014301844185
28016,Gaston County,NC,28.227324049680092
28052,Gaston County,NC,13.963116296575084
28081,Cabarrus County,NC,11.290929619872037
28110,Union County,NC,11.441475348136997
28112,Union County,NC,28.71659766654121
28144,Rowan County,NC,19.947308995107264
28205,Mecklenburg County,NC,34.21151674821227
28206,Mecklenburg County,NC,24.651863003387277
28211,Mecklenburg County,NC,16.823485133609335
28212,Mecklenburg County,NC,38.614979299962364
28269,Mecklenburg County,NC,6.586375611592022
28301,Cumberland County,NC,49.9059089198344
28304,Cumberland County,NC,43.84644335716974
28306,Bladen County,NC,44.41098983816334
28312,Cumberland County,NC,69.7779450508092
28314,Cumberland County,NC,16.974030861874294
28334,Sampson County,NC,40.57207376740685
28345,Richmond County,NC,66.0519382762514
28386,Robeson County,NC,88.25743319533308
28387,Moore County,NC,98.45690628528415
28398,Duplin County,NC,84.00451637184794
28403,New Hanover County,NC,23.823861497929997
28409,New Hanover County,NC,51.56191193074896
28411,New Hanover County,NC,21.45276627775687
28412,New Hanover County,NC,74.8588633797516
28429,New Hanover County,NC,90.96725630410238
28451,Brunswick County,NC,15.76966503575461
28466,Duplin County,NC,48.55099736544975
28518,Duplin County,NC,88.3703424915318
28540,Onslow County,NC,65.90139254798645
28551,Lenoir County,NC,41.211893112532934
28560,Craven County,NC,42.15280391418894
28586,Craven County,NC,90.92961987203613
28605,Watauga County,NC,95.74708317651486
28610,Catawba County,NC,62.51411366202484
28612,Burke County,NC,43.545351900639815
28655,Burke County,NC,27.248776815957847
28657,Avery County,NC,71.88558524651863
28677,Iredell County,NC,28.942416258938653
28713,Swain County,NC,53.10500564546481
28734,Macon County,NC,8.656379375235227
28779,Jackson County,NC,37.41061347384268
28801,Buncombe County,NC,78.02032367331577
28806,Buncombe County,NC,51.599548362815206
58201,Grand Forks County,ND,43.545351900639815
58301,Ramsey County,ND,49.11554384644335
58316,Rolette County,ND,96.19872036130975
58318,Bottineau County,ND,93.78998870907039
58701,Ward County,ND,21.49040270982311
58703,Ward County,ND,68.53594279262326
58801,Williams County,ND,47.87354158825743
43015,Delaware County,OH,7.602559277380504
43016,Franklin County,OH,41.17425668046669
43021,Delaware County,OH,73.353406097102
43040,Union County,OH,13.662024840045165
43055,Licking County,OH,56.0030109145653
43068,Franklin County,OH,4.365826119683854
43082,Delaware County,OH,40.94843808806925
43110,Franklin County,OH,53.51900639819345
43123,Franklin County,OH,43.16898757997742
43125,Franklin County,OH,90.32743695897629
43138,Hocking County,OH,16.597666541211893
43160,Fayette County,OH,54.08355287918706
43203,Franklin County,OH,48.7768159578472
43205,Franklin County,OH,28.11441475348137
43206,Franklin County,OH,5.607828377869778
43207,Franklin County,OH,5.344373353406097
43211,Franklin County,OH,4.817463304478736
43220,Franklin County,OH,49.98118178396688
43224,Franklin County,OH,48.13699661272111
43227,Franklin County,OH,36.3944298080542
43228,Franklin County,OH,40.76025592773805
43229,Franklin County,OH,2.220549491908167
43231,Franklin County,OH,28.415506210011294
43232,Franklin County,OH,1.2420022581859238
43311,Logan County,OH,16.635302973278133
43326,Hardin County,OH,71.92322167858487
43344,Union County,OH,87.01543093714716
43402,Wood County,OH,35.30297327813323
43410,Sandusky County,OH,31.313511479111778
43420,Sandusky County,OH,4.6292811441475346
43515,Fulton County,OH,46.292811441475344
43522,Wood County,OH,96.08581106511103
43537,Lucas County,OH,41.92698532179149
43545,Henry County,OH,81.70869401580731
43560,Lucas County,OH,55.13737297704178
43570,Williams County,OH,98.04290553255551
43604,Lucas County,OH,53.14264207753106
43605,Lucas County,OH,44.52389913436206
43606,Lucas County,OH,65.29920963492661
43607,Lucas County,OH,76.32668423033496
43608,Lucas County,OH,18.6676703048551
43609,Lucas County,OH,12.307113285660519
43610,Lucas County,OH,82.19796763266842
43611,Lucas County,OH,7.075649228453143
43612,Lucas County,OH,88.10688746706812
43613,Lucas County,OH,41.73880316146029
43614,Lucas County,OH,22.130222054949193
43615,Lucas County,OH,49.077907414377115
43620,Lucas County,OH,94.73089951072639
43623,Lucas County,OH,14.038389160707565
43701,Muskingum County,OH,22.35604064734663
43731,Perry County,OH,52.61573202860369
43764,Perry County,OH,89.19834399698908
43812,Coshocton County,OH,13.285660519382764
43830,Muskingum County,OH,87.617613850207
43845,Coshocton County,OH,42.792623259315015
43920,Columbiana County,OH,3.9141889348889722
43943,Jefferson County,OH,99.13436206247648
43947,Belmont County,OH,78.99887090703801
43950,Belmont County,OH,51.97591268347761
43952,Jefferson County,OH,2.9732781332329696
43968,Columbiana County,OH,59.126834776063234
44004,Ashtabula County,OH,7.677832141512984
44011,Lorain County,OH,76.36432066240121
44028,Lorain County,OH,67.89612344749717
44035,Lorain County,OH,0.1505457282649605
44039,Lorain County,OH,3.1614602935641702
44044,Lorain County,OH,90.66616484757245
44050,Lorain County,OH,76.06322920587128
44057,Lake County,OH,14.979299962363568
44070,Cuyahoga County,OH,36.507339104252914
44092,Lake County,OH,89.12307113285661
44094,Lake County,OH,67.0681219420399
44095,Lake County,OH,33.94806172374859
44102,Cuyahoga County,OH,55.28791870530674
44103,Cuyahoga County,OH,67.29394053443734
44104,Cuyahoga County,OH,69.5144900263455
44105,Cuyahoga County,OH,14.226571321038767
44107,Cuyahoga County,OH,6.3229205871283405
44108,Cuyahoga County,OH,8.769288671433948
44109,Cuyahoga County,OH,69.25103500188182
44110,Cuyahoga County,OH,72.26194956718103
44111,Cuyahoga County,OH,77.90741437711705
44112,Cuyahoga County,OH,53.74482499059089
44113,Cuyahoga County,OH,65.3744824990591
44114,Cuyahoga County,OH,44.3733534060971
44115,Cuyahoga County,OH,90.2521640948438
44116,Cuyahoga County,OH,23.673315769665034
44117,Cuyahoga County,OH,67.67030485509974
44118,Cuyahoga County,OH,5.118554761008657
44120,Cuyahoga County,OH,40.08280015054573
44121,Cuyahoga County,OH,62.36356793375988
44122,Cuyahoga County,OH,86.11215656755739
44124,Cuyahoga County,OH,13.172751223184044
44125,Cuyahoga County,OH,57.58374106134738
44126,Cuyahoga County,OH,73.27813323296951
44128,Cuyahoga County,OH,8.505833646970268
44129,Cuyahoga County,OH,69.7779450508092
44130,Cuyahoga County,OH,67.14339480617238
44131,Cuyahoga County,OH,82.87542340986074
44132,Cuyahoga County,OH,37.41061347384268
44133,Cuyahoga County,OH,85.32179149416635
44134,Cuyahoga County,OH,65.82611968385396
44135,Cuyahoga County,OH,46.89499435453519
44136,Cuyahoga County,OH,14.904027098231087
44137,Cuyahoga County,OH,70.15430937147158
44138,Cuyahoga County,OH,45.050809183289424
44142,Cuyahoga County,OH,78.92359804290552
44143,Cuyahoga County,OH,19.45803537824614
44144,Cuyahoga County,OH,40.30861874294317
44146,Cuyahoga County,OH,62.702295822356035
44147,Cuyahoga County,OH,57.77192322167859
44149,Cuyahoga County,OH,83.13887843432443
44203,Summit County,OH,28.75423409860745
44212,Medina County,OH,31.50169363944298
44223,Summit County,OH,29.58223560406473
44224,Summit County,OH,70.04140007527286
44240,Portage County,OH,57.43319533308242
44241,Portage County,OH,17.425668046669177
44256,Medina County,OH,1.204365826119684
44302,Summit County,OH,84.26797139631162
44305,Summit County,OH,26.60895747083177
44306,Summit County,OH,20.812946932630787
44310,Summit County,OH,37.86225065863756
44312,Summit County,OH,7.263831388784343
44314,Summit County,OH,14.076025592773805
44320,Summit County,OH,30.37260067745578
44405,Mahoning County,OH,56.68046669175762
44432,Columbiana County,OH,69.7779450508092
44440,Trumbull County,OH,70.34249153180279
44445,Columbiana County,OH,98.75799774181408
44446,Trumbull County,OH,6.6616484757245
44483,Trumbull County,OH,8.280015054572827
44484,Trumbull County,OH,15.318027850959728
44485,Trumbull County,OH,8.806925103500188
44502,Mahoning County,OH,53.707188558524656
44509,Mahoning County,OH,26.533684606699286
44515,Mahoning County,OH,21.264584117425667
44622,Tuscarawas County,OH,61.38502070003764
44644,Carroll County,OH,78.62250658637561
44646,Stark County,OH,4.0270982310876935
44654,Holmes County,OH,93.22544222807679
44657,Stark County,OH,91.08016560030109
44663,Tuscarawas County,OH,6.21001129092962
44691,Wayne County,OH,3.0109145652992093
44708,Stark County,OH,40.79789235980429
44721,Stark County,OH,63.26684230334965
44820,Crawford County,OH,70.7188558524652
44833,Crawford County,OH,81.97214904027098
44870,Erie County,OH,0.48927361686112153
44883,Seneca County,OH,9.22092585622883
45005,Warren County,OH,78.1332329695145
45011,Butler County,OH,0.6398193451260821
45013,Butler County,OH,20.737674068498308
45014,Butler County,OH,55.66428302596914
45040,Warren County,OH,70.53067369213399
45044,Butler County,OH,47.38426797139631
45066,Warren County,OH,86.30033872788859
45068,Warren County,OH,91.75762137749342
45069,Butler County,OH,93.07489649981181
45102,Clermont County,OH,21.07640195709447
45103,Clermont County,OH,40.23334587881069
45135,Highland County,OH,89.27361686112157
45140,Clermont County,OH,88.14452389913437
45150,Clermont County,OH,48.7768159578472
45157,Clermont County,OH,92.96198720361309
45159,Clinton County,OH,95.97290176891231
45169,Clinton County,OH,57.39555890101619
45171,Brown County,OH,92.2092585622883
45177,Clinton County,OH,12.34474971772676
45202,Hamilton County,OH,78.47196085811066
45205,Hamilton County,OH,75.76213774934136
45206,Hamilton County,OH,35.11479111780203
45208,Hamilton County,OH,91.2683477606323
45209,Hamilton County,OH,92.09634926608958
45211,Hamilton County,OH,83.10124200225819
45212,Hamilton County,OH,88.558524651863
45213,Hamilton County,OH,95.67181031238239
45215,Hamilton County,OH,81.82160331200602
45216,Hamilton County,OH,63.83138878434325
45217,Hamilton County,OH,68.1972149040271
45223,Hamilton County,OH,82.98833270605947
45225,Hamilton County,OH,97.96763266842304
45227,Hamilton County,OH,79.90214527662778
45229,Hamilton County,OH,84.04215280391419
45231,Hamilton County,OH,60.82047421904403
45232,Hamilton County,OH,91.60707564922845
45238,Hamilton County,OH,54.53519006398193
45239,Hamilton County,OH,65.1110274745954
45240,Hamilton County,OH,39.14188934888973
45241,Hamilton County,OH,50.018818216033125
45242,Hamilton County,OH,74.36958976289047
45244,Hamilton County,OH,81.59578471960857
45245,Clermont County,OH,68.3853970643583
45248,Hamilton County,OH,93.52653368460669
45249,Hamilton County,OH,78.24614226571322
45251,Hamilton County,OH,86.37561159202107
45331,Darke County,OH,13.887843432442605
45335,Greene County,OH,79.56341738803161
45365,Shelby County,OH,66.80466691757621
45373,Miami County,OH,2.521640948438088
45405,Montgomery County,OH,37.63643206624012
45406,Montgomery County,OH,7.978923598042906
45417,Montgomery County,OH,18.855852465186302
45420,Montgomery County,OH,56.341738803161455
45426,Montgomery County,OH,33.38351524275499
45449,Montgomery County,OH,20.549491908167106
45458,Montgomery County,OH,22.581859239744073
45601,Ross County,OH,1.919458035378246
45614,Gallia County,OH,80.50432818968761
45619,Lawrence County,OH,14.678208505833648
45631,Gallia County,OH,37.86225065863756
45634,Vinton County,OH,98.83327060594655
45638,Lawrence County,OH,12.0060218291306
45659,Lawrence County,OH,65.60030109145653
45661,Pike County,OH,87.91870530673692
45662,Scioto County,OH,30.485509973654494
45663,Scioto County,OH,72.3372224313135
45686,Gallia County,OH,66.0519382762514
45690,Pike County,OH,8.806925103500188
45692,Jackson County,OH,47.53481369966127
45769,Meigs County,OH,80.73014678208506
45771,Meigs County,OH,98.90854347007904
45801,Allen County,OH,5.156191193074896
45805,Allen County,OH,25.969138125705683
45806,Allen County,OH,42.98080541964622
45810,Hardin County,OH,79.26232593150169
45813,Paulding County,OH,70.07903650733911
45822,Mercer County,OH,80.09032743695897
45833,Allen County,OH,80.3914188934889
45840,Hancock County,OH,52.35227700414
45872,Wood County,OH,68.08430560782838
73013,Oklahoma County,OK,17.576213774934136
73034,Oklahoma County,OK,15.430937147158449
73069,Cleveland County,OK,45.27662777568687
73086,Murray County,OK,50.2822732404968
73112,Oklahoma County,OK,20.963492660895746
73116,Oklahoma County,OK,80.88069251035002
73122,Oklahoma County,OK,61.27211140383891
73129,Oklahoma County,OK,72.97704177643959
73130,Oklahoma County,OK,67.70794128716598
73149,Oklahoma County,OK,95.82235604064735
73501,Comanche County,OK,37.22243131351148
74003,Osage County,OK,43.9969890854347
74073,Tulsa County,OK,84.38088069251035
74074,Payne County,OK,28.03914188934889
74129,Tulsa County,OK,36.018065487391794
74361,Mayes County,OK,70.07903650733911
74451,Cherokee County,OK,95.70944674444863
74525,Atoka County,OK,67.33157696650358
74941,Haskell County,OK,99.88709070380128
74960,Adair County,OK,13.925479864508844
97031,Hood River County,OR,49.491908167105755
97038,Clackamas County,OR,72.37485886337976
97058,Wasco County,OR,24.35077154685736
97062,Washington County,OR,38.8407978923598
97071,Marion County,OR,37.22243131351148
97123,Washington County,OR,34.62551750094091
97124,Washington County,OR,14.301844185171245
97132,Yamhill County,OR,23.033496424538953
97138,Clatsop County,OR,40.00752728641325
97201,Multnomah County,OR,79.56341738803161
97202,Multnomah County,OR,14.828754234098607
97206,Multnomah County,OR,6.812194203989462
97210,Multnomah County,OR,56.49228453142642
97219,Multnomah County,OR,40.23334587881069
97224,Washington County,OR,34.06097101994731
97229,Washington County,OR,48.43808806925104
97232,Multnomah County,OR,98.72036130974784
97233,Multnomah County,OR,8.317651486639067
97321,Linn County,OR,14.527662777568686
97322,Linn County,OR,6.887467068121943
97333,Benton County,OR,46.81972149040271
97351,Polk County,OR,55.21264584117426
97355,Linn County,OR,39.55589010161837
97365,Lincoln County,OR,53.89537071885585
97367,Lincoln County,OR,52.277004140007534
97378,Yamhill County,OR,86.41324802408732
97383,Marion County,OR,81.031238238614975
97391,Lincoln County,OR,94.46744448626269
97394,Lincoln County,OR,81.8968761761385
97415,Curry County,OR,29.506962739932252
97501,Jackson County,OR,3.7260067745577716
97503,Jackson County,OR,43.8088069251035
97527,Josephine County,OR,27.51223184042153
97601,Klamath County,OR,9.108016560030109
97603,Klamath County,OR,60.85811065111027
97702,Deschutes County,OR,54.94919081671058
75036,NA,NA,83.81633421151675
97756,Deschutes County,OR,49.30372600677455
97838,Umatilla County,OR,9.070380127963869
97882,Umatilla County,OR,62.401204365826125
97914,Malheur County,OR,12.23184042152804
15044,Allegheny County,PA,42.228076778321416
15071,Allegheny County,PA,63.64320662401204
15122,Allegheny County,PA,85.84870154309372
15136,Allegheny County,PA,59.35265336846067
15206,Allegheny County,PA,30.861874294316898
15208,Allegheny County,PA,34.776063229205874
15210,Allegheny County,PA,27.888596161083928
15214,Allegheny County,PA,34.964245389537076
15217,Allegheny County,PA,39.631162965750846
15219,Allegheny County,PA,44.636808430560784
15227,Allegheny County,PA,64.77229958599925
15301,Washington County,PA,77.19232216785848
15425,Fayette County,PA,17.124576590139252
15601,Westmoreland County,PA,1.1290929619872037
15650,Westmoreland County,PA,7.903650733910425
15681,Indiana County,PA,83.81633421151675
15767,Jefferson County,PA,15.092209258562288
15801,Clearfield County,PA,3.23673315769665
15825,Jefferson County,PA,27.54986827248777
15902,Cambria County,PA,89.01016183665789
16057,Butler County,PA,45.61535566428302
16117,Lawrence County,PA,33.759879563417385
16148,Mercer County,PA,57.47083176514867
16226,Armstrong County,PA,48.663906661648475
16335,Crawford County,PA,4.779826872412495
16365,Warren County,PA,20.323673315769668
16407,Erie County,PA,60.105382009785465
16423,Erie County,PA,93.9028980052691
16502,Erie County,PA,26.458411742566806
16503,Erie County,PA,47.68535942792623
16511,Erie County,PA,61.27211140383891
16601,Blair County,PA,67.85848701543094
16602,Blair County,PA,6.774557771923222
16630,Cambria County,PA,97.40308618742944
16652,Huntingdon County,PA,66.01430184418517
16662,Blair County,PA,78.96123447497177
16693,Blair County,PA,97.44072261949567
16803,Centre County,PA,79.14941663530297
16830,Clearfield County,PA,15.50621001129093
16833,Clearfield County,PA,52.38991343620625
17013,Cumberland County,PA,10.538200978547234
17019,York County,PA,44.072261949567185
17026,Lebanon County,PA,99.059089198344
17042,Lebanon County,PA,53.293187805796
17044,Mifflin County,PA,25.17877305231464
17055,Cumberland County,PA,15.694392171622129
17201,Franklin County,PA,4.7421904403462545
17319,York County,PA,46.59390289800527
17331,York County,PA,2.709823108769289
17356,York County,PA,16.258938652615733
17366,York County,PA,69.13812570568311
17401,York County,PA,56.040647346631545
17403,York County,PA,9.03274369589763
17404,York County,PA,39.59352653368461
17512,Lancaster County,PA,53.48136996612721
17540,Lancaster County,PA,59.39028980052691
17557,Lancaster County,PA,97.62890477982687
17566,Lancaster County,PA,98.79563417388032
17603,Lancaster County,PA,3.989461799021453
17701,Lycoming County,PA,11.403838916070756
17745,Clinton County,PA,23.861497929996236
17756,Lycoming County,PA,76.89123071132856
17821,Montour County,PA,65.41211893112533
17844,Union County,PA,90.51561911930749
17866,Northumberland County,PA,42.52916823485133
17901,Schuylkill County,PA,55.51373729770418
17931,Schuylkill County,PA,88.44561535566429
17961,Schuylkill County,PA,67.8208505833647
18011,Lehigh County,PA,76.10086563793752
18013,Northampton County,PA,21.86676703048551
18014,Northampton County,PA,26.194956718103125
18015,Northampton County,PA,3.6130974783590517
18017,Northampton County,PA,29.281144147534814
18031,Lehigh County,PA,58.56228829506963
18042,Northampton County,PA,47.64772299585999
18062,Lehigh County,PA,87.12834023334588
18067,Northampton County,PA,23.899134362062476
18074,Montgomery County,PA,88.06925103500188
18088,Northampton County,PA,47.007903650733915
18102,Lehigh County,PA,34.32442604441099
18103,Lehigh County,PA,1.8441851712457658
18104,Lehigh County,PA,7.1132856605193835
18109,Lehigh County,PA,55.890101618366586
18201,Luzerne County,PA,73.7297704177644
18202,Luzerne County,PA,29.808054196462173
18222,Luzerne County,PA,64.96048174633044
18224,Luzerne County,PA,55.927738050432815
18232,Carbon County,PA,99.73654497553632
18235,Carbon County,PA,60.40647346631539
18252,Schuylkill County,PA,36.80843056078284
18301,Monroe County,PA,20.248400451637185
18302,Monroe County,PA,34.13624388407979
18328,Pike County,PA,85.35942792623258
18344,Monroe County,PA,95.63417388031614
18353,Monroe County,PA,69.58976289047799
18360,Monroe County,PA,41.136620248400455
18403,Lackawanna County,PA,68.46066992849077
18505,Lackawanna County,PA,25.517500940910804
18603,Columbia County,PA,7.000376364320663
18612,Luzerne County,PA,37.109522017312756
18634,Luzerne County,PA,77.56868648852088
18635,Luzerne County,PA,97.51599548362815
18640,Luzerne County,PA,83.02596913812572
18643,Luzerne County,PA,35.56642830259691
18657,Wyoming County,PA,43.545351900639815
18702,Luzerne County,PA,59.95483628152051
18704,Luzerne County,PA,82.64960481746331
18706,Luzerne County,PA,84.87015430937147
18707,Luzerne County,PA,38.12570568310124
18901,Bucks County,PA,28.453142642077534
18902,Bucks County,PA,73.99322544222807
18914,Bucks County,PA,66.27775686864885
18929,Bucks County,PA,74.89649981181785
18944,Bucks County,PA,61.57320286036884
18947,Bucks County,PA,96.3492660895747
18951,Bucks County,PA,9.93601806548739
18960,Bucks County,PA,83.92924350771547
18966,Bucks County,PA,45.95408355287919
18974,Bucks County,PA,51.82536695521265
18976,Bucks County,PA,73.08995107263831
19004,Montgomery County,PA,64.62175385773429
19007,Bucks County,PA,93.75235227700414
19010,Delaware County,PA,63.83138878434325
19013,Delaware County,PA,32.63078660143018
19014,Delaware County,PA,68.27248776815958
19015,Delaware County,PA,89.34888972525404
19020,Bucks County,PA,44.824990590891986
19021,Bucks County,PA,79.6386902521641
19023,Delaware County,PA,16.03312006021829
19025,Montgomery County,PA,82.68724124952954
19026,Delaware County,PA,77.00414000752728
19027,Montgomery County,PA,69.02521640948439
19038,Montgomery County,PA,79.11178020323673
19040,Montgomery County,PA,30.74896499811818
19044,Montgomery County,PA,42.792623259315015
19046,Montgomery County,PA,28.227324049680092
19047,Bucks County,PA,12.796386902521641
19050,Delaware County,PA,58.26119683853971
19054,Bucks County,PA,68.23485133609334
19055,Bucks County,PA,74.6706812194204
19057,Bucks County,PA,60.632292058712835
19061,Delaware County,PA,79.93978170869401
19063,Delaware County,PA,83.06360557019194
19064,Delaware County,PA,80.9559653744825
19067,Bucks County,PA,31.76514866390666
19072,Montgomery County,PA,46.21753857734287
19075,Montgomery County,PA,74.55777192322168
19078,Delaware County,PA,98.118178396688
19079,Delaware County,PA,46.70681219420399
19081,Delaware County,PA,74.97177267595032
19082,Delaware County,PA,58.78810688746707
19083,Delaware County,PA,67.2563041023711
19094,Delaware County,PA,99.02145276627776
19096,Montgomery County,PA,32.78133232969515
19103,Philadelphia County,PA,91.60707564922845
19111,Philadelphia County,PA,42.07753105005646
19114,Philadelphia County,PA,48.51336093338352
19115,Philadelphia County,PA,32.44260444109898
19116,Philadelphia County,PA,41.550621001129095
19119,Philadelphia County,PA,54.45991719984945
19120,Philadelphia County,PA,9.258562288295069
19121,Philadelphia County,PA,3.838916070756492
19122,Philadelphia County,PA,56.379375235227705
19124,Philadelphia County,PA,50.73391042529168
19126,Philadelphia County,PA,82.83778697779451
19128,Philadelphia County,PA,48.28754234098607
19130,Philadelphia County,PA,96.6127211140384
19131,Philadelphia County,PA,66.24012043658261
19132,Philadelphia County,PA,1.9947308995107265
19133,Philadelphia County,PA,8.054196462175387
19134,Philadelphia County,PA,9.14565299209635
19135,Philadelphia County,PA,44.222807677832144
19136,Philadelphia County,PA,5.043281896876176
19137,Philadelphia County,PA,44.900263455024465
19140,Philadelphia County,PA,17.764395935265338
19141,Philadelphia County,PA,43.95935265336846
19142,Philadelphia County,PA,5.8336469702672185
19143,Philadelphia County,PA,33.53406097101995
19144,Philadelphia County,PA,36.65788483251788
19145,Philadelphia County,PA,16.748212269476852
19146,Philadelphia County,PA,57.1321038765525
19147,Philadelphia County,PA,59.616108392924346
19148,Philadelphia County,PA,3.4625517500940908
19149,Philadelphia County,PA,64.20775310500565
19150,Philadelphia County,PA,44.7497177267595
19152,Philadelphia County,PA,32.48024087316522
19154,Philadelphia County,PA,75.19759126834776
19312,Chester County,PA,44.7497177267595
19330,Chester County,PA,82.42378622506587
19333,Chester County,PA,99.20963492660896
19335,Chester County,PA,92.92435077154686
19341,Chester County,PA,54.04591644712081
19343,Chester County,PA,88.89725254045916
19352,Chester County,PA,71.8479488144524
19380,Chester County,PA,92.88671433948062
19382,Chester County,PA,27.625141136620247
19390,Chester County,PA,60.25592773805043
19401,Montgomery County,PA,3.801279638690252
19405,Montgomery County,PA,93.37598795634175
19406,Montgomery County,PA,56.71810312382386
19428,Montgomery County,PA,97.17726759503199
19438,Montgomery County,PA,29.619872036130975
19440,Montgomery County,PA,79.37523522770041
19446,Montgomery County,PA,7.753105005645465
19454,Montgomery County,PA,77.6815957847196
19468,Montgomery County,PA,24.237862250658637
19512,Berks County,PA,67.18103123823862
19540,Berks County,PA,54.72337222431314
19601,Berks County,PA,0.9785472337222431
19602,Berks County,PA,39.17952578095596
19604,Berks County,PA,5.306736921339858
19608,Berks County,PA,15.844937899887091
02806,Bristol County,RI,75.91268347760632
02838,Providence County,RI,99.51072638313889
02882,Washington County,RI,96.23635679337599
02908,Providence County,RI,24.68949943545352
02910,Providence County,RI,81.10651110274746
02911,Providence County,RI,46.93263078660143
29203,Richland County,SC,4.855099736544975
29223,Richland County,SC,12.269476853594279
29340,Cherokee County,SC,52.164094843808805
29405,Charleston County,SC,14.565299209634928
29406,Charleston County,SC,38.65261573202861
29418,Charleston County,SC,22.958223560406473
29420,Dorchester County,SC,30.109145652992098
29429,Charleston County,SC,93.63944298080543
29455,Charleston County,SC,33.421151674821225
29456,Dorchester County,SC,20.624764772299585
29472,Dorchester County,SC,62.137749341362436
29483,Dorchester County,SC,30.523146405720738
29536,Dillon County,SC,35.75461046292811
29550,Darlington County,SC,25.3293187805796
29577,Horry County,SC,42.4915318027851
29607,Greenville County,SC,58.0730146782085
29609,Greenville County,SC,81.78396687993978
29611,Greenville County,SC,6.17237485886338
29644,Greenville County,SC,73.50395182536695
29650,Greenville County,SC,80.5796010538201
29687,Greenville County,SC,17.463304478735417
29690,Greenville County,SC,23.59804290553256
29720,Lancaster County,SC,7.941287165976665
29918,Hampton County,SC,97.9299962363568
29920,Beaufort County,SC,66.91757621377494
57104,Minnehaha County,SD,15.995483628152051
57252,Grant County,SD,95.25780955965375
57350,Beadle County,SD,36.356793375987955
57401,Brown County,SD,30.93714715844938
57702,Pennington County,SD,38.953707188558525
57770,Shannon County,SD,63.0410237109522
37025,Hickman County,TN,68.08430560782838
37040,Montgomery County,TN,12.871659766654119
37080,Davidson County,TN,56.90628528415507
37160,Bedford County,TN,32.7436958976289
37322,Meigs County,TN,92.51035001881822
37385,Monroe County,TN,60.105382009785465
37410,Hamilton County,TN,91.68234851336094
37701,Blount County,TN,74.21904403462551
37716,Anderson County,TN,22.167858487015433
37748,Roane County,TN,46.25517500940911
37830,Anderson County,TN,12.721114038389162
37861,Grainger County,TN,60.293564170116674
37871,Jefferson County,TN,86.03688370342492
37876,Sevier County,TN,19.307489649981182
37912,Knox County,TN,42.45389537071886
37917,Knox County,TN,8.694015807301469
37919,Knox County,TN,35.22770041400075
37920,Knox County,TN,5.080918328942417
37921,Knox County,TN,15.88257433195333
38016,Shelby County,TN,73.39104252916823
38107,Shelby County,TN,76.96650357546105
38108,Shelby County,TN,95.44599171998495
38111,Shelby County,TN,10.989838163342116
38114,Shelby County,TN,11.855476100865637
38115,Shelby County,TN,53.25555137372977
38116,Shelby County,TN,59.57847196085812
38118,Shelby County,TN,31.953330824237863
38127,Shelby County,TN,67.78321415129845
38128,Shelby County,TN,33.83515242754987
38134,Shelby County,TN,21.64094843808807
38201,Carroll County,TN,58.938652615732025
38574,Putnam County,TN,60.74520135491156
75006,Dallas County,TX,87.4294316898758
75028,Denton County,TX,63.00338727888596
75040,Dallas County,TX,9.296198720361309
75041,Dallas County,TX,98.2310876928867
75042,Dallas County,TX,90.40270982310878
75044,Dallas County,TX,61.94956718103124
75052,Dallas County,TX,9.18328942416259
75057,Denton County,TX,64.35829883327061
75061,Dallas County,TX,60.66992849077908
75062,Dallas County,TX,28.56605193827625
75067,Denton County,TX,89.68761761385021
75068,Denton County,TX,17.538577342867896
75074,Collin County,TX,91.87053067369213
75080,Dallas County,TX,38.464433571697406
75089,Dallas County,TX,42.00225818592397
75104,Dallas County,TX,53.669552126458406
75110,Navarro County,TX,77.45577719232217
75115,Dallas County,TX,89.16070756492284
75142,Kaufman County,TX,42.039894617990214
75149,Dallas County,TX,32.028603688370346
75150,Dallas County,TX,53.21791494166354
75154,Ellis County,TX,54.836281520511854
75161,Kaufman County,TX,99.32254422280768
75180,Dallas County,TX,82.95069627399323
75203,Dallas County,TX,78.24614226571322
75210,Dallas County,TX,72.7888596161084
75211,Dallas County,TX,77.98268724124952
75214,Dallas County,TX,86.8648852088822
75215,Dallas County,TX,14.640572073767407
75216,Dallas County,TX,50.470455400827994
75217,Dallas County,TX,89.38652615732029
75218,Dallas County,TX,55.32555513737297
75220,Dallas County,TX,88.21979676326684
75224,Dallas County,TX,29.092961987203616
75227,Dallas County,TX,32.5555137372977
75228,Dallas County,TX,29.920963492660896
75230,Dallas County,TX,50.95972901768913
75231,Dallas County,TX,87.20361309747837
75232,Dallas County,TX,27.700414000752726
75233,Dallas County,TX,90.02634550244638
75234,Dallas County,TX,88.63379751599548
75235,Dallas County,TX,88.70907038012797
75236,Dallas County,TX,92.51035001881822
75237,Dallas County,TX,27.135867519759127
75238,Dallas County,TX,45.84117425668047
75240,Dallas County,TX,92.17162213022205
75241,Dallas County,TX,36.620248400451636
75243,Dallas County,TX,43.09371471584494
75249,Dallas County,TX,50.13172751223184
75254,Dallas County,TX,84.83251787730524
75287,Denton County,TX,85.58524651863003
75442,Collin County,TX,61.046292811441475
75460,Lamar County,TX,64.84757245013174
75701,Smith County,TX,72.6006774557772
75702,Smith County,TX,64.5464809936018
75704,Smith County,TX,66.69175762137749
75706,Smith County,TX,89.57470831765148
75771,Smith County,TX,62.06247647722996
75783,Wood County,TX,90.70380127963868
75835,Houston County,TX,46.36808430560782
75964,Nacogdoches County,TX,42.867896123447494
76010,Tarrant County,TX,85.09597290176892
76017,Tarrant County,TX,84.71960858110651
76020,Tarrant County,TX,16.07075649228453
76021,Tarrant County,TX,83.17651486639068
76022,Tarrant County,TX,62.92811441475348
76039,Tarrant County,TX,21.90440346255175
76040,Tarrant County,TX,94.91908167105758
76052,Tarrant County,TX,83.74106134738427
76058,Johnson County,TX,76.59013925479866
76063,Tarrant County,TX,7.301467820850584
76103,Tarrant County,TX,70.19194580353782
76104,Tarrant County,TX,92.13398569815581
76106,Tarrant County,TX,79.33759879563418
76110,Tarrant County,TX,89.08543470079037
76112,Tarrant County,TX,42.75498682724878
76114,Tarrant County,TX,54.30937147158449
76115,Tarrant County,TX,31.8027850959729
76119,Tarrant County,TX,43.69589762890478
76164,Tarrant County,TX,84.56906285284155
76179,Tarrant County,TX,75.49868272487768
76182,Tarrant County,TX,44.561535566428304
76426,Wise County,TX,72.71358675197591
76502,Bell County,TX,64.09484380880693
76504,Bell County,TX,4.478735415882575
76513,Bell County,TX,61.00865637937524
76528,Coryell County,TX,42.303349642453895
76542,Bell County,TX,7.150922092585622
76543,Bell County,TX,57.73428678961234
76549,Bell County,TX,12.118931125329318
76571,Bell County,TX,92.02107640195709
76579,Bell County,TX,97.1019947308995
76643,McLennan County,TX,75.27286413248024
76657,McLennan County,TX,69.06285284155062
76705,McLennan County,TX,91.49416635302974
76706,McLennan County,TX,20.210764019570945
76708,McLennan County,TX,29.770417764395933
76903,Tom Green County,TX,25.40459164471208
77004,Harris County,TX,57.80955965374483
77011,Harris County,TX,63.11629657508468
77014,Harris County,TX,66.3153933007151
77015,Harris County,TX,75.235227700414
77017,Harris County,TX,87.54234098607452
77026,Harris County,TX,35.34060971019947
77030,Harris County,TX,76.92886714339481
77035,Harris County,TX,24.80240873165224
77036,Harris County,TX,34.36206247647723
77043,Harris County,TX,61.64847572450132
77044,Harris County,TX,21.302220549491906
77047,Harris County,TX,87.84343244260444
77050,Harris County,TX,99.54836281520511
77051,Harris County,TX,91.98343996989085
77053,Fort Bend County,TX,98.4945427173504
77055,Harris County,TX,95.18253669552126
77058,Harris County,TX,90.59089198343997
77060,Harris County,TX,67.89612344749717
77062,Harris County,TX,95.55890101618367
77063,Harris County,TX,91.38125705683102
77070,Harris County,TX,28.980052691004893
77072,Harris County,TX,61.61083929243508
77074,Harris County,TX,94.20398946179903
77075,Harris County,TX,59.39028980052691
77076,Harris County,TX,97.5536319156944
77078,Harris County,TX,56.266465939028976
77083,Harris County,TX,82.4614226571321
77084,Harris County,TX,5.532555513737298
77086,Harris County,TX,46.10462928114415
77087,Harris County,TX,83.59051561911932
77088,Harris County,TX,43.01844185171246
77089,Harris County,TX,83.43996989085434
77090,Harris County,TX,15.73202860368837
77093,Harris County,TX,68.46066992849077
77096,Harris County,TX,65.97666541211893
77301,Montgomery County,TX,96.87617613850207
77302,Montgomery County,TX,49.755363191569444
77304,Montgomery County,TX,79.82687241249529
77306,Montgomery County,TX,99.24727135867519
77320,Walker County,TX,96.80090327436959
77327,Liberty County,TX,81.70869401580731
77336,Harris County,TX,76.28904779826873
77340,Walker County,TX,92.69853217914942
77365,Montgomery County,TX,95.37071885585246
77371,San Jacinto County,TX,88.85961610839293
77378,Montgomery County,TX,60.707564922845314
77386,Montgomery County,TX,19.45803537824614
77396,Harris County,TX,21.94203989461799
77406,Fort Bend County,TX,69.8908543470079
77407,Fort Bend County,TX,34.13624388407979
77429,Harris County,TX,51.86300338727888
77433,Harris County,TX,40.684983063605564
77445,Waller County,TX,71.2834023334588
77447,Harris County,TX,51.44900263455025
77449,Harris County,TX,80.61723748588633
77474,Austin County,TX,82.16033120060219
77477,Fort Bend County,TX,95.52126458411743
77479,Fort Bend County,TX,59.126834776063234
77484,Waller County,TX,97.74181407602559
77489,Fort Bend County,TX,43.131351147911175
77502,Harris County,TX,82.61196838539706
77503,Harris County,TX,94.16635302973279
77506,Harris County,TX,94.6556266465939
77511,Brazoria County,TX,85.9239744072262
77515,Brazoria County,TX,80.16560030109146
77530,Harris County,TX,83.89160707564923
77531,Brazoria County,TX,73.84267971396311
77536,Harris County,TX,65.60030109145653
77539,Galveston County,TX,97.47835905156191
77545,Fort Bend County,TX,95.0319909672563
77546,Galveston County,TX,13.699661272111404
77547,Harris County,TX,99.47308995107264
77550,Galveston County,TX,33.19533308242379
77551,Galveston County,TX,66.35302973278134
77566,Brazoria County,TX,95.7847196085811
77568,Galveston County,TX,61.91193074896499
77571,Harris County,TX,89.83816334211517
77578,Brazoria County,TX,71.50922092585623
77581,Brazoria County,TX,75.87504704554007
77583,Brazoria County,TX,73.5415882574332
77584,Brazoria County,TX,73.46631539330072
77587,Harris County,TX,82.00978547233723
77590,Galveston County,TX,6.511102747459541
77591,Galveston County,TX,76.7406849830636
77598,Harris County,TX,95.14490026345503
77627,Jefferson County,TX,75.57395558901017
77632,Orange County,TX,33.270605946556266
77642,Jefferson County,TX,42.34098607452014
77657,Hardin County,TX,64.4335716974031
77662,Orange County,TX,27.32404968009033
77703,Jefferson County,TX,98.6074520135491
77706,Jefferson County,TX,71.62213022205495
77708,Jefferson County,TX,93.67707941287165
77801,Brazos County,TX,95.06962739932254
77803,Brazos County,TX,39.781708694015805
77807,Brazos County,TX,60.48174633044787
77833,Washington County,TX,28.227324049680092
77840,Brazos County,TX,27.47459540835529
77845,Brazos County,TX,85.28415506210011
77859,Robertson County,TX,65.52502822732404
78002,Bexar County,TX,90.70380127963868
78028,Kerr County,TX,49.86827248776816
78155,Guadalupe County,TX,37.937523522770036
78216,Bexar County,TX,54.57282649604818
78223,Bexar County,TX,32.931878057960105
78227,Bexar County,TX,21.41512984569063
78228,Bexar County,TX,42.11516748212269
78229,Bexar County,TX,33.87278885961611
78237,Bexar County,TX,16.447120812946935
78238,Bexar County,TX,54.422280767783214
78266,Comal County,TX,92.69853217914942
78412,Nueces County,TX,34.28678961234475
78415,Nueces County,TX,29.055325555137372
78504,Hidalgo County,TX,65.78848325178774
78516,Hidalgo County,TX,41.32480240873166
78537,Hidalgo County,TX,87.31652239367708
78541,Hidalgo County,TX,80.84305607828378
78572,Hidalgo County,TX,48.28754234098607
78574,Hidalgo County,TX,48.400451637184794
78580,Willacy County,TX,74.97177267595032
78582,Starr County,TX,47.19608581106512
78584,Starr County,TX,93.45126082047422
78589,Hidalgo County,TX,51.411366202484
78599,Hidalgo County,TX,84.90779074143772
78602,Bastrop County,TX,68.91230711328566
78610,Hays County,TX,53.55664283025969
78611,Burnet County,TX,59.76665412118931
78628,Williamson County,TX,94.99435453519006
78660,Travis County,TX,39.96989085434701
78758,Travis County,TX,61.34738426797139
78840,Val Verde County,TX,42.26571321038766
78852,Maverick County,TX,76.25141136620248
79104,Potter County,TX,99.92472713586751
79106,Potter County,TX,35.679337598795634
79108,Potter County,TX,60.93338351524275
79118,Randall County,TX,75.68686488520888
79316,Terry County,TX,69.66503575461046
79404,Lubbock County,TX,56.64283025969138
79407,Lubbock County,TX,30.33496424538954
79416,Lubbock County,TX,96.1610839292435
79423,Lubbock County,TX,15.88257433195333
79424,Lubbock County,TX,13.812570568310123
79762,Ector County,TX,15.318027850959728
79763,Ector County,TX,20.173127587504705
79912,El Paso County,TX,56.7557395558901
79936,El Paso County,TX,25.02822732404968
79938,El Paso County,TX,60.89574708317651
84029,Tooele County,UT,39.104252916823484
84045,Utah County,UT,57.05683101242002
84047,Salt Lake County,UT,73.76740684983064
84060,Summit County,UT,98.98381633421151
84065,Salt Lake County,UT,50.05645464809936
84074,Tooele County,UT,1.3549115543846444
84075,Davis County,UT,51.63718479488144
84081,Salt Lake County,UT,17.275122318404215
84084,Salt Lake County,UT,28.56605193827625
84095,Salt Lake County,UT,51.71245765901392
84096,Salt Lake County,UT,89.57470831765148
84097,Utah County,UT,96.42453895370718
84103,Salt Lake County,UT,70.94467444486263
84104,Salt Lake County,UT,29.356417011667297
84106,Salt Lake County,UT,47.53481369966127
84109,Salt Lake County,UT,87.57997741814077
84116,Salt Lake County,UT,15.46857357922469
84118,Salt Lake County,UT,9.37147158449379
84119,Salt Lake County,UT,25.06586375611592
84302,Box Elder County,UT,58.67519759126834
84319,Cache County,UT,81.18178396687993
84321,Cache County,UT,71.99849454271735
84414,Weber County,UT,53.33082423786225
84664,Utah County,UT,91.90816710575838
05454,Franklin County,VT,97.36544975536319
05641,Washington County,VT,18.554761008656378
20109,Prince William County,VA,18.06548739179526
20120,Fairfax County,VA,34.47497177267595
20176,Loudoun County,VA,71.81031238238616
22003,Fairfax County,VA,43.35716974030862
22041,Fairfax County,VA,50.24463680843056
22101,Fairfax County,VA,33.64697026721867
22152,Fairfax County,VA,76.17613850207
22153,Fairfax County,VA,38.72788859616109
22172,Prince William County,VA,99.6236356793376
22180,Fairfax County,VA,95.33308242378622
22191,Prince William County,VA,71.6597666541212
22201,Arlington County,VA,78.58487015430937
22204,Arlington County,VA,41.550621001129095
22205,Arlington County,VA,86.71433948061724
22207,Arlington County,VA,34.700790365073395
22301,Alexandria city,VA,54.271735039518255
22303,Fairfax County,VA,53.40609710199473
22304,Alexandria city,VA,7.376740684983063
22306,Fairfax County,VA,68.72412495295445
22310,Fairfax County,VA,34.8889725254046
22314,Alexandria city,VA,43.470079036507336
22315,Fairfax County,VA,77.04177643959352
22406,Stafford County,VA,64.4335716974031
22407,Spotsylvania County,VA,66.54121189311253
22554,Stafford County,VA,69.92849077907415
22603,Frederick County,VA,68.79939781708694
22655,Frederick County,VA,38.65261573202861
23002,Amelia County,VA,67.89612344749717
23113,Chesterfield County,VA,66.46593902898005
23139,Powhatan County,VA,49.94354535190064
23220,Richmond city,VA,68.61121565675575
23223,Henrico County,VA,55.58901016183666
23228,Henrico County,VA,31.426420775310497
23229,Henrico County,VA,72.48776815957847
23231,Henrico County,VA,12.1942039894618
23452,Virginia Beach city,VA,11.592021076401956
23462,Virginia Beach city,VA,9.785472337222432
23505,Norfolk city,VA,50.6586375611592
23508,Norfolk city,VA,55.70191945803538
23605,Newport News city,VA,85.62288295069628
23669,Hampton city,VA,11.893112532931879
23803,Petersburg city,VA,5.269100489273617
24012,Roanoke city,VA,58.524651863003385
24013,Roanoke city,VA,57.69665035754611
24017,Roanoke city,VA,13.210387655250283
24401,Staunton city,VA,4.9303726006774555
24522,Appomattox County,VA,63.45502446368084
24523,Bedford County,VA,17.877305231464057
98005,King County,WA,65.29920963492661
98011,King County,WA,39.856981558148284
98026,Snohomish County,WA,19.87203613097478
98028,King County,WA,53.44373353406097
98031,King County,WA,25.254045916447122
98032,King County,WA,26.307866014301844
98036,Snohomish County,WA,71.13285660519382
98053,King County,WA,56.79337598795634
98059,King County,WA,28.227324049680092
98075,King County,WA,82.00978547233723
98087,Snohomish County,WA,29.168234851336095
98106,King County,WA,41.24952954459917
98115,King County,WA,48.739179525780955
98133,King County,WA,15.54384644335717
98136,King County,WA,72.75122318404216
98168,King County,WA,18.2913059841927
98177,King County,WA,51.750094091080165
98188,King County,WA,48.92736168611216
98226,Whatcom County,WA,83.32706059465562
98272,Snohomish County,WA,64.58411742566804
98294,Snohomish County,WA,77.53105005645466
98363,Clallam County,WA,48.663906661648475
98366,Kitsap County,WA,12.90929619872036
98375,Pierce County,WA,74.06849830636055
98391,Pierce County,WA,7.226194956718103
98404,Pierce County,WA,45.50244636808431
98409,Pierce County,WA,76.66541211893112
98445,Pierce County,WA,85.02070003763643
98466,Pierce County,WA,94.69326307866014
98516,Thurston County,WA,73.20286036883704
98531,Lewis County,WA,53.55664283025969
98541,Grays Harbor County,WA,79.71396311629657
98580,Pierce County,WA,87.35415882574333
98589,Thurston County,WA,93.26307866014302
98632,Cowlitz County,WA,33.007150922092585
98801,Chelan County,WA,77.64395935265337
99301,Franklin County,WA,36.73315769665036
99338,Benton County,WA,41.85171245765901
20002,District of Columbia,DC,1.8065487391795259
20003,District of Columbia,DC,31.652239367707942
20010,District of Columbia,DC,34.55024463680843
20011,District of Columbia,DC,3.4625517500940908
20017,District of Columbia,DC,34.66315393300715
20018,District of Columbia,DC,68.53594279262326
20019,District of Columbia,DC,1.3172751223184043
20020,District of Columbia,DC,43.77117049303726
20024,District of Columbia,DC,65.03575461046293
20032,District of Columbia,DC,13.059841926985321
25302,Kanawha County,WV,35.792246894994356
25387,Kanawha County,WV,97.85472337222431
25425,Jefferson County,WV,95.10726383138879
25705,Cabell County,WV,77.26759503199096
26070,Brooke County,WV,91.00489273616861
26143,Wirt County,WV,94.01580730146783
26201,Upshur County,WV,36.13097478359052
26301,Harrison County,WV,2.747459540835529
26431,Harrison County,WV,65.44975536319157
26505,Monongalia County,WV,4.177643959352653
26554,Marion County,WV,10.876928867143395
53029,Waukesha County,WI,90.62852841550621
53038,Jefferson County,WI,99.39781708694015
53040,Washington County,WI,84.45615355664283
53051,Waukesha County,WI,26.872412495295446
53072,Waukesha County,WI,38.42679713963116
53074,Ozaukee County,WI,49.64245389537072
53105,Racine County,WI,28.490779074143774
53121,Walworth County,WI,26.759503199096724
53132,Milwaukee County,WI,23.296951449002634
53142,Kenosha County,WI,4.328189687617614
53144,Kenosha County,WI,8.618742943168987
53151,Waukesha County,WI,75.34813699661272
53189,Waukesha County,WI,36.281520511855476
53204,Milwaukee County,WI,41.81407602559277
53206,Milwaukee County,WI,4.252916823485134
53208,Milwaukee County,WI,50.80918328942416
53209,Milwaukee County,WI,0.6774557771923222
53210,Milwaukee County,WI,76.62777568686488
53211,Milwaukee County,WI,70.86940158073016
53212,Milwaukee County,WI,42.94316898757998
53213,Milwaukee County,WI,31.46405720737674
53214,Milwaukee County,WI,5.419646217538578
53215,Milwaukee County,WI,44.86262702295822
53216,Milwaukee County,WI,40.647346631539335
53218,Milwaukee County,WI,80.2032367331577
53220,Milwaukee County,WI,17.350395182536698
53222,Milwaukee County,WI,37.29770417764396
53223,Milwaukee County,WI,45.42717350395182
53224,Milwaukee County,WI,21.22694768535943
53225,Milwaukee County,WI,22.39367707941287
53402,Racine County,WI,13.774934136243886
53403,Racine County,WI,71.20812946932631
53405,Racine County,WI,66.39066616484757
53511,Rock County,WI,2.785095972901769
53538,Jefferson County,WI,59.729017689123076
53548,Rock County,WI,82.23560406473467
53590,Dane County,WI,22.694768535942792
53713,Dane County,WI,93.11253293187805
53717,Dane County,WI,70.19194580353782
53916,Dodge County,WI,24.80240873165224
53950,Juneau County,WI,69.55212645841175
54021,Pierce County,WI,84.64433571697403
54022,Pierce County,WI,35.528791870530675
54302,Brown County,WI,13.850207000376363
54311,Brown County,WI,52.54045916447121
54612,Trempealeau County,WI,85.13360933383515
54724,Chippewa County,WI,74.1061347384268
54751,Dunn County,WI,20.097854723372226
54913,Outagamie County,WI,65.71321038765525
54944,Outagamie County,WI,80.42905532555513
54963,Winnebago County,WI,50.583364697026724
82240,Goshen County,WY,96.31162965750846
82941,Sublette County,WY,98.56981558148289
