ZipCode,county,state,Adult,Retirement
35173,Jefferson County,AL,45.787234042553195,NA
35213,Jefferson County,AL,93.87234042553192,NA
35223,Jefferson County,AL,86.12765957446808,NA
35226,Jefferson County,AL,44.08510638297872,NA
35563,Marion County,AL,98.04255319148936,NA
35645,Lauderdale County,AL,66.55319148936171,NA
35758,Madison County,AL,32.93617021276596,NA
35768,Jackson County,AL,55.14893617021277,NA
35806,Madison County,AL,NA,59.40460081190798
35811,Madison County,AL,86.46808510638297,NA
35904,Etowah County,AL,NA,58.05142083897158
35950,Marshall County,AL,36,NA
35960,Cherokee County,AL,67.06382978723404,NA
35967,DeKalb County,AL,NA,68.87686062246279
35976,Marshall County,AL,42.212765957446805,32.205683355886336
36066,Autauga County,AL,48.42553191489362,NA
36093,Elmore County,AL,88.17021276595744,NA
36109,Montgomery County,AL,NA,62.24627875507443
36266,Clay County,AL,91.57446808510639,NA
36330,Coffee County,AL,41.61702127659574,NA
36401,Conecuh County,AL,82.63829787234043,NA
36507,Baldwin County,AL,NA,65.35859269282814
36526,Baldwin County,AL,NA,38.02435723951286
36530,Baldwin County,AL,80.42553191489363,NA
36532,Baldwin County,AL,NA,22.46278755074425
36561,Baldwin County,AL,97.02127659574468,NA
36571,Mobile County,AL,NA,72.12449255751014
36608,Mobile County,AL,39.57446808510638,NA
36726,Wilcox County,AL,83.48936170212767,NA
36744,Hale County,AL,92.76595744680851,NA
36830,Lee County,AL,61.361702127659576,NA
36854,Chambers County,AL,NA,63.46414073071719
36870,Lee County,AL,89.02127659574468,NA
99611,Kenai Peninsula Borough,AK,65.27659574468086,NA
99712,Fairbanks North Star Borough,AK,76.93617021276596,NA
85006,Maricopa County,AZ,37.19148936170213,NA
85015,Maricopa County,AZ,16,NA
85018,Maricopa County,AZ,29.021276595744684,NA
85020,Maricopa County,AZ,32.51063829787234,NA
85023,Maricopa County,AZ,55.82978723404255,NA
85028,Maricopa County,AZ,72.85106382978724,NA
85040,Maricopa County,AZ,NA,55.88633288227334
85044,Maricopa County,AZ,16.93617021276596,NA
85053,Maricopa County,AZ,NA,84.4384303112314
85119,Pinal County,AZ,NA,75.77807848443842
85194,Pinal County,AZ,90.63829787234042,NA
85207,Maricopa County,AZ,NA,25.304465493910687
85212,Maricopa County,AZ,52.34042553191489,NA
85213,Maricopa County,AZ,NA,57.37483085250338
85224,Maricopa County,AZ,40.93617021276596,NA
85233,Maricopa County,AZ,34.8936170212766,NA
85248,Maricopa County,AZ,NA,64.95263870094723
85249,Maricopa County,AZ,41.191489361702125,NA
85254,Maricopa County,AZ,NA,30.17591339648173
85257,Maricopa County,AZ,NA,65.49391069012178
85262,Maricopa County,AZ,NA,74.56021650879568
85296,Maricopa County,AZ,28.340425531914892,NA
85303,Maricopa County,AZ,46.638297872340424,NA
85308,Maricopa County,AZ,NA,51.6914749661705
85335,Maricopa County,AZ,29.19148936170213,NA
85344,La Paz County,AZ,NA,31.799729364005415
85345,Maricopa County,AZ,NA,11.366711772665765
85375,Maricopa County,AZ,NA,21.515561569688767
85382,Maricopa County,AZ,NA,44.113667117726656
85621,Santa Cruz County,AZ,NA,44.113667117726656
85648,Santa Cruz County,AZ,NA,66.17050067658998
85653,Pima County,AZ,NA,34.50608930987821
85705,Pima County,AZ,3.234042553191489,NA
85746,Pima County,AZ,10.46808510638298,NA
85756,Pima County,AZ,29.4468085106383,NA
86004,Coconino County,AZ,23.74468085106383,12.449255751014885
86046,Coconino County,AZ,89.70212765957447,NA
86301,Yavapai County,AZ,61.61702127659574,NA
86305,Yavapai County,AZ,NA,31.52909336941813
86323,Yavapai County,AZ,47.57446808510638,NA
86409,Mohave County,AZ,7.1489361702127665,4.7361299052774015
71602,Jefferson County,AR,NA,70.77131258457375
71635,Ashley County,AR,76.59574468085107,NA
71730,Union County,AR,42.5531914893617,NA
71801,Hempstead County,AR,NA,78.34912043301759
71909,Garland County,AR,NA,29.36400541271989
71913,Garland County,AR,NA,23.68064952638701
71923,Clark County,AR,77.19148936170212,NA
72034,Faulkner County,AR,84.93617021276596,NA
72065,Saline County,AR,97.1063829787234,NA
72143,White County,AR,NA,10.013531799729364
72160,Arkansas County,AR,86.97872340425532,NA
72205,Pulaski County,AR,NA,57.1041948579161
72370,Mississippi County,AR,85.02127659574468,NA
72404,Craighead County,AR,45.787234042553195,NA
72450,Greene County,AR,16.851063829787233,NA
72501,Independence County,AR,NA,60.35182679296346
72632,Carroll County,AR,NA,94.31664411366711
72703,Washington County,AR,70.29787234042553,NA
72704,Washington County,AR,73.7872340425532,NA
72712,Benton County,AR,44,NA
72745,Benton County,AR,NA,93.50473612990527
72758,Benton County,AR,54.55319148936171,NA
90015,Los Angeles County,CA,78.2127659574468,NA
90023,Los Angeles County,CA,32.340425531914896,NA
90066,Los Angeles County,CA,69.02127659574468,NA
90094,Los Angeles County,CA,93.02127659574468,NA
90255,Los Angeles County,CA,24.93617021276596,NA
90260,Los Angeles County,CA,69.61702127659575,NA
90266,Los Angeles County,CA,57.446808510638306,NA
90277,Los Angeles County,CA,48.851063829787236,NA
90503,Los Angeles County,CA,45.361702127659576,NA
90603,Los Angeles County,CA,74.29787234042553,52.90933694181326
90604,Los Angeles County,CA,51.57446808510638,NA
90620,Orange County,CA,45.1063829787234,33.96481732070365
90712,Los Angeles County,CA,54.212765957446805,NA
90808,Los Angeles County,CA,NA,41.67794316644114
91016,Los Angeles County,CA,NA,56.4276048714479
91042,Los Angeles County,CA,NA,51.15020297699594
91304,Los Angeles County,CA,44.765957446808514,NA
91321,Los Angeles County,CA,NA,64.81732070365359
91344,Los Angeles County,CA,NA,22.868741542625166
91361,Ventura County,CA,85.19148936170214,NA
91362,Ventura County,CA,NA,40.59539918809202
91364,Los Angeles County,CA,77.7872340425532,NA
91384,Los Angeles County,CA,70.04255319148936,NA
91387,Los Angeles County,CA,96.76595744680851,NA
91501,Los Angeles County,CA,84.51063829787235,NA
91706,Los Angeles County,CA,21.27659574468085,NA
91709,San Bernardino County,CA,28.510638297872344,NA
91711,Los Angeles County,CA,NA,28.68741542625169
91748,Los Angeles County,CA,63.91489361702127,NA
91763,San Bernardino County,CA,NA,70.90663058186739
91767,Los Angeles County,CA,34.8936170212766,NA
91773,Los Angeles County,CA,68.25531914893617,NA
91780,Los Angeles County,CA,92.93617021276596,NA
91784,San Bernardino County,CA,NA,46.9553450608931
91791,Los Angeles County,CA,NA,48.9851150202977
92021,San Diego County,CA,NA,12.990527740189444
92027,San Diego County,CA,70.72340425531914,NA
92037,San Diego County,CA,76.93617021276596,51.0148849797023
92040,San Diego County,CA,43.40425531914894,NA
92069,San Diego County,CA,NA,54.66847090663058
92071,San Diego County,CA,21.02127659574468,NA
92082,San Diego County,CA,86.55319148936171,NA
92108,San Diego County,CA,NA,93.234100135318
92120,San Diego County,CA,73.70212765957447,NA
92203,Riverside County,CA,37.87234042553192,80.92016238159675
92234,Riverside County,CA,12.25531914893617,NA
92240,Riverside County,CA,18.21276595744681,NA
92252,San Bernardino County,CA,68.59574468085107,NA
92253,Riverside County,CA,40.51063829787234,NA
92262,Riverside County,CA,NA,41.27198917456021
92277,San Bernardino County,CA,66.72340425531915,NA
92335,San Bernardino County,CA,7.74468085106383,14.884979702300406
92363,San Bernardino County,CA,NA,77.13125845737483
92377,San Bernardino County,CA,73.95744680851064,NA
92382,San Bernardino County,CA,NA,94.45196211096076
92395,San Bernardino County,CA,22.893617021276597,NA
92407,San Bernardino County,CA,14.97872340425532,NA
92506,Riverside County,CA,66.8936170212766,NA
92563,Riverside County,CA,NA,41.00135317997294
92610,Orange County,CA,NA,93.36941813261164
92620,Orange County,CA,39.06382978723404,NA
92627,Orange County,CA,65.4468085106383,NA
92648,Orange County,CA,56.340425531914896,NA
92651,Orange County,CA,NA,45.87280108254398
92656,Orange County,CA,28.595744680851066,NA
92660,Orange County,CA,NA,38.971583220568334
92672,Orange County,CA,83.91489361702128,NA
92677,Orange County,CA,NA,9.878213802435724
92691,Orange County,CA,47.319148936170215,NA
92692,Orange County,CA,34.21276595744681,22.32746955345061
92694,Orange County,CA,51.659574468085104,NA
92802,Orange County,CA,85.87234042553192,NA
92807,Orange County,CA,52.255319148936174,NA
92832,Orange County,CA,51.148936170212764,NA
92840,Orange County,CA,NA,35.72395128552097
92868,Orange County,CA,NA,95.39918809201625
92883,Riverside County,CA,NA,62.38159675236806
93001,Ventura County,CA,22.29787234042553,NA
93003,Ventura County,CA,13.106382978723405,NA
93012,Ventura County,CA,62.21276595744681,NA
93015,Ventura County,CA,64.42553191489363,NA
93021,Ventura County,CA,NA,79.16102841677943
93030,Ventura County,CA,14.468085106382977,NA
93035,Ventura County,CA,NA,61.299052774018946
93065,Ventura County,CA,12.936170212765957,NA
93257,Tulare County,CA,37.02127659574468,NA
93274,Tulare County,CA,NA,18.26792963464141
93306,Kern County,CA,NA,37.07713125845737
93307,Kern County,CA,11.063829787234042,NA
93313,Kern County,CA,NA,53.45060893098782
93405,San Luis Obispo County,CA,NA,94.72259810554804
93454,Santa Barbara County,CA,NA,77.80784844384303
93535,Los Angeles County,CA,7.659574468085106,NA
93536,Los Angeles County,CA,38.12765957446808,NA
93543,Los Angeles County,CA,NA,87.1447902571042
93550,Los Angeles County,CA,10.893617021276595,NA
93926,Monterey County,CA,NA,98.78213802435724
93955,Monterey County,CA,NA,31.25845737483085
94002,San Mateo County,CA,90.72340425531915,NA
94010,San Mateo County,CA,NA,30.85250338294993
94109,San Francisco County,CA,NA,11.502029769959405
94116,San Francisco County,CA,51.31914893617021,NA
94123,San Francisco County,CA,88.85106382978724,NA
94501,Alameda County,CA,65.19148936170212,NA
94526,Contra Costa County,CA,83.06382978723404,NA
94530,Contra Costa County,CA,89.27659574468085,NA
94538,Alameda County,CA,42.8936170212766,NA
94563,Contra Costa County,CA,82.38297872340425,NA
94580,Alameda County,CA,71.82978723404256,NA
94582,Contra Costa County,CA,84.68085106382979,NA
94610,Alameda County,CA,NA,67.9296346414073
94611,Alameda County,CA,57.361702127659576,NA
94702,Alameda County,CA,58.29787234042553,NA
94901,Marin County,CA,76.25531914893617,NA
94925,Marin County,CA,NA,96.34641407307171
95023,San Benito County,CA,23.659574468085108,NA
95046,Santa Clara County,CA,NA,94.18132611637347
95062,Santa Cruz County,CA,67.57446808510639,NA
95110,Santa Clara County,CA,77.70212765957447,NA
95124,Santa Clara County,CA,53.531914893617014,71.31258457374831
95134,Santa Clara County,CA,72,NA
95210,San Joaquin County,CA,65.61702127659575,NA
95242,San Joaquin County,CA,62.12765957446808,NA
95252,Calaveras County,CA,78.38297872340425,NA
95336,San Joaquin County,CA,25.361702127659573,NA
95348,Merced County,CA,83.06382978723404,NA
95376,San Joaquin County,CA,24.085106382978726,NA
95382,Stanislaus County,CA,NA,63.734776725304464
95482,Mendocino County,CA,31.744680851063826,NA
95503,Humboldt County,CA,44.51063829787234,NA
95619,El Dorado County,CA,94.5531914893617,NA
95648,Placer County,CA,55.659574468085104,NA
95650,Placer County,CA,NA,80.24357239512855
95661,Placer County,CA,60.59574468085106,NA
95662,Sacramento County,CA,62.38297872340426,NA
95670,Sacramento County,CA,NA,29.36400541271989
95747,Placer County,CA,35.48936170212766,NA
95818,Sacramento County,CA,NA,72.93640054127198
95831,Sacramento County,CA,NA,50.608930987821374
95843,Sacramento County,CA,NA,63.05818673883626
95926,Butte County,CA,NA,78.07848443843031
95949,Nevada County,CA,NA,50.20297699594046
95959,Nevada County,CA,NA,49.39106901217862
95963,Glenn County,CA,94.8936170212766,NA
96003,Shasta County,CA,68.42553191489363,NA
80005,Jefferson County,CO,54.212765957446805,NA
80010,Arapahoe County,CO,16.085106382978722,NA
80012,Arapahoe County,CO,9.276595744680852,NA
80013,Arapahoe County,CO,30.72340425531915,NA
80014,Arapahoe County,CO,26.80851063829787,NA
80026,Boulder County,CO,56.00000000000001,48.03788903924222
80030,Adams County,CO,69.87234042553192,NA
80109,Douglas County,CO,64.59574468085107,NA
80122,Arapahoe County,CO,49.1063829787234,NA
80124,Douglas County,CO,59.57446808510638,NA
80134,Douglas County,CO,21.78723404255319,34.50608930987821
80202,Denver County,CO,47.74468085106383,NA
80205,Denver County,CO,NA,30.717185385656293
80241,Adams County,CO,50.46808510638298,NA
80487,Routt County,CO,NA,92.69282814614344
80524,Larimer County,CO,25.872340425531913,NA
80537,Larimer County,CO,17.78723404255319,NA
80601,Adams County,CO,NA,37.21244925575101
80602,Adams County,CO,42.12765957446808,NA
80759,Yuma County,CO,96,NA
80918,El Paso County,CO,41.53191489361702,NA
81004,Pueblo County,CO,NA,27.33423545331529
81052,Prowers County,CO,79.57446808510639,NA
81082,Las Animas County,CO,NA,74.28958051420838
81147,Archuleta County,CO,NA,58.18673883626523
81611,Pitkin County,CO,96.51063829787235,NA
81623,Garfield County,CO,94.38297872340425,NA
81625,Moffat County,CO,66.29787234042553,NA
81631,Eagle County,CO,96.08510638297872,NA
06001,Hartford County,CT,NA,67.2530446549391
06035,Hartford County,CT,92.59574468085107,NA
06053,Hartford County,CT,9.106382978723405,NA
06057,Litchfield County,CT,NA,88.63328822733423
06076,Tolland County,CT,68.34042553191489,NA
06084,Tolland County,CT,NA,64.14073071718539
06260,Windham County,CT,NA,45.06089309878214
06405,New Haven County,CT,36.08510638297872,NA
06450,New Haven County,CT,54.12765957446809,NA
06460,New Haven County,CT,24.51063829787234,NA
06478,New Haven County,CT,NA,62.92286874154263
06492,New Haven County,CT,17.53191489361702,NA
06498,Middlesex County,CT,86.12765957446808,NA
06525,New Haven County,CT,NA,97.9702300405954
06606,Fairfield County,CT,44.93617021276596,NA
06611,Fairfield County,CT,70.5531914893617,NA
06776,Litchfield County,CT,24.25531914893617,NA
06790,Litchfield County,CT,4.680851063829787,NA
06810,Fairfield County,CT,13.276595744680849,NA
06840,Fairfield County,CT,95.48936170212767,NA
06854,Fairfield County,CT,40.34042553191489,NA
06880,Fairfield County,CT,44.851063829787236,NA
19701,New Castle County,DE,23.06382978723404,NA
19720,New Castle County,DE,43.829787234042556,NA
19804,New Castle County,DE,NA,76.99594046008119
19808,New Castle County,DE,18.808510638297875,NA
19933,Sussex County,DE,64.51063829787233,NA
19952,Kent County,DE,76.76595744680851,NA
19958,Sussex County,DE,NA,4.600811907983761
19973,Sussex County,DE,41.702127659574465,NA
32034,Nassau County,FL,46.5531914893617,NA
32065,Clay County,FL,NA,34.776725304465494
32068,Clay County,FL,9.957446808510637,9.472259810554803
32081,St. Johns County,FL,NA,80.37889039242219
32204,Duval County,FL,89.36170212765957,NA
32206,Duval County,FL,NA,21.650879566982407
32208,Duval County,FL,1.0212765957446808,5.818673883626523
32218,Duval County,FL,3.404255319148936,NA
32220,Duval County,FL,NA,80.78484438430311
32223,Duval County,FL,NA,30.311231393775373
32225,Duval County,FL,NA,15.020297699594046
32244,Duval County,FL,21.53191489361702,NA
32257,Duval County,FL,20.340425531914892,NA
32259,St. Johns County,FL,68.76595744680851,NA
32435,Walton County,FL,NA,89.71583220568336
32439,Walton County,FL,NA,68.20027063599458
32444,Bay County,FL,64,NA
32459,Walton County,FL,59.23404255319149,NA
32503,Escambia County,FL,92.51063829787233,NA
32548,Okaloosa County,FL,58.8936170212766,NA
32550,Walton County,FL,NA,54.397834912043294
32601,Alachua County,FL,79.91489361702128,NA
32608,Alachua County,FL,6.127659574468085,15.561569688768607
32641,Alachua County,FL,20.93617021276596,NA
32653,Alachua County,FL,97.95744680851064,NA
32724,Volusia County,FL,49.95744680851064,NA
32746,Seminole County,FL,48.765957446808514,NA
32757,Lake County,FL,NA,26.522327469553453
32779,Seminole County,FL,87.91489361702128,NA
32804,Orange County,FL,78.55319148936171,NA
32807,Orange County,FL,41.27659574468085,NA
32819,Orange County,FL,NA,71.85385656292287
32826,Orange County,FL,NA,94.04600811907984
32837,Orange County,FL,17.361702127659576,88.4979702300406
32903,Brevard County,FL,95.82978723404256,NA
32927,Brevard County,FL,NA,46.2787550744249
32934,Brevard County,FL,NA,57.23951285520974
32935,Brevard County,FL,NA,42.8958051420839
32937,Brevard County,FL,NA,83.49120433017592
32976,Brevard County,FL,NA,52.63870094722598
33010,Miami-Dade County,FL,60.51063829787234,NA
33024,Broward County,FL,24.851063829787236,NA
33035,Miami-Dade County,FL,89.19148936170212,NA
33040,Monroe County,FL,NA,42.2192151556157
33069,Broward County,FL,NA,96.48173207036535
33157,Miami-Dade County,FL,NA,20.83897158322057
33181,Miami-Dade County,FL,NA,92.01623815967524
33193,Miami-Dade County,FL,57.95744680851064,NA
33313,Broward County,FL,17.617021276595747,NA
33316,Broward County,FL,NA,72.66576454668471
33334,Broward County,FL,96.17021276595744,NA
33458,Palm Beach County,FL,52.76595744680851,NA
33473,Palm Beach County,FL,NA,87.95669824086603
33647,Hillsborough County,FL,NA,44.79025710419486
33714,Pinellas County,FL,50.808510638297875,NA
33801,Polk County,FL,NA,41.81326116373478
33898,Polk County,FL,NA,68.06495263870094
33909,Lee County,FL,67.91489361702128,NA
33914,Lee County,FL,34.808510638297875,13.667117726657645
33948,Charlotte County,FL,NA,37.75372124492557
33967,Lee County,FL,NA,84.70906630581867
33976,Lee County,FL,66.38297872340425,NA
33991,Lee County,FL,NA,36.67117726657646
34104,Collier County,FL,NA,97.42895805142085
34112,Collier County,FL,50.723404255319146,NA
34113,Collier County,FL,NA,57.7807848443843
34114,Collier County,FL,76.59574468085107,NA
34205,Manatee County,FL,28.595744680851066,NA
34221,Manatee County,FL,NA,24.76319350473613
34229,Sarasota County,FL,87.40425531914894,NA
34237,Sarasota County,FL,NA,89.1745602165088
34293,Sarasota County,FL,NA,7.442489851150203
34476,Marion County,FL,79.40425531914893,NA
34481,Marion County,FL,NA,23.81596752368065
34601,Hernando County,FL,45.4468085106383,NA
34608,Hernando County,FL,NA,47.22598105548038
34652,Pasco County,FL,35.65957446808511,NA
34655,Pasco County,FL,27.74468085106383,NA
34684,Pinellas County,FL,65.87234042553192,NA
34714,Lake County,FL,87.31914893617021,NA
34787,Orange County,FL,NA,56.698240866035185
34953,St. Lucie County,FL,21.617021276595743,NA
34972,Okeechobee County,FL,NA,75.37212449255752
34983,St. Lucie County,FL,18.553191489361705,NA
34986,St. Lucie County,FL,71.91489361702128,NA
30005,Fulton County,GA,63.65957446808511,NA
30014,Newton County,GA,22.382978723404257,NA
30022,Fulton County,GA,34.72340425531915,NA
30039,Gwinnett County,GA,33.53191489361702,NA
30043,Gwinnett County,GA,NA,12.719891745602165
30047,Gwinnett County,GA,54.80851063829787,NA
30066,Cobb County,GA,NA,24.22192151556157
30068,Cobb County,GA,NA,58.32205683355887
30080,Cobb County,GA,48,NA
30082,Cobb County,GA,NA,81.7320703653586
30102,Cherokee County,GA,42.8936170212766,NA
30115,Cherokee County,GA,33.61702127659574,NA
30116,Carroll County,GA,43.744680851063826,NA
30127,Cobb County,GA,NA,28.822733423545333
30132,Paulding County,GA,27.829787234042552,35.047361299052774
30147,Floyd County,GA,NA,95.12855209742895
30176,Haralson County,GA,76.34042553191489,NA
30180,Carroll County,GA,19.23404255319149,NA
30214,Fayette County,GA,NA,38.43031123139377
30223,Spalding County,GA,NA,33.28822733423545
30236,Clayton County,GA,NA,38.836265223274694
30241,Troup County,GA,23.574468085106385,NA
30248,Henry County,GA,53.70212765957447,NA
30263,Coweta County,GA,8.425531914893616,NA
30296,Clayton County,GA,NA,71.44790257104194
30305,Fulton County,GA,74.46808510638297,NA
30318,Fulton County,GA,NA,27.604871447902575
30344,Fulton County,GA,39.31914893617021,NA
30518,Gwinnett County,GA,32.680851063829785,31.66441136671177
30549,Jackson County,GA,70.2127659574468,NA
30601,Clarke County,GA,NA,68.6062246278755
30655,Walton County,GA,30.29787234042553,NA
30701,Gordon County,GA,NA,25.98105548037889
30707,Walker County,GA,67.40425531914893,NA
30720,Whitfield County,GA,NA,96.88768606224627
30809,Columbia County,GA,30.97872340425532,NA
30814,Columbia County,GA,96.3404255319149,NA
30906,Richmond County,GA,6.212765957446809,NA
31021,Laurens County,GA,33.95744680851064,NA
31032,Jones County,GA,79.91489361702128,NA
31047,Houston County,GA,82.72340425531914,NA
31088,Houston County,GA,13.531914893617023,NA
31322,Chatham County,GA,NA,73.07171853856563
31503,Ware County,GA,NA,43.301759133964815
31632,Lowndes County,GA,76.42553191489363,NA
31774,Irwin County,GA,75.57446808510639,NA
31820,Muscogee County,GA,90.46808510638297,82.81461434370772
31906,Muscogee County,GA,35.829787234042556,NA
96701,Honolulu County,HI,28.851063829787233,NA
96707,Honolulu County,HI,30.46808510638298,NA
96778,Hawaii County,HI,65.27659574468086,NA
96782,Honolulu County,HI,31.319148936170212,NA
96817,Honolulu County,HI,NA,6.901217861975644
96819,Honolulu County,HI,NA,13.531799729364005
83201,Bannock County,ID,19.148936170212767,36.94181326116374
83204,Bannock County,ID,85.53191489361703,NA
83221,Bingham County,ID,55.82978723404255,18.132611637347768
83276,Caribou County,ID,NA,97.15832205683355
83301,Twin Falls County,ID,3.3191489361702122,NA
83401,Bonneville County,ID,40.08510638297872,NA
83402,Bonneville County,ID,89.44680851063829,NA
83404,Bonneville County,ID,90.12765957446808,NA
83448,Madison County,ID,99.65957446808511,NA
83501,Nez Perce County,ID,39.48936170212766,10.554803788903925
83544,Clearwater County,ID,91.23404255319149,NA
83605,Canyon County,ID,23.404255319148938,NA
83607,Canyon County,ID,NA,66.03518267929634
83616,Ada County,ID,72.17021276595744,10.148849797023004
83634,Ada County,ID,35.148936170212764,NA
83642,Ada County,ID,NA,7.983761840324763
83676,Canyon County,ID,98.8936170212766,NA
83706,Ada County,ID,NA,21.921515561569688
83709,Ada County,ID,NA,5.142083897158322
83713,Ada County,ID,31.148936170212764,NA
83864,Bonner County,ID,85.36170212765958,NA
60007,Cook County,IL,49.53191489361702,NA
60022,Cook County,IL,84.59574468085106,NA
60030,Lake County,IL,37.787234042553195,NA
60042,McHenry County,IL,75.82978723404256,NA
60047,Lake County,IL,32.08510638297872,NA
60048,Lake County,IL,NA,91.74560216508796
60087,Lake County,IL,NA,70.50067658998647
60089,Lake County,IL,NA,10.419485791610285
60103,DuPage County,IL,56.765957446808514,NA
60108,DuPage County,IL,NA,97.69959404600812
60123,Kane County,IL,17.70212765957447,NA
60124,Kane County,IL,81.87234042553192,NA
60126,DuPage County,IL,8,NA
60130,Cook County,IL,45.276595744680854,NA
60134,Kane County,IL,39.659574468085104,NA
60135,DeKalb County,IL,92.42553191489363,NA
60145,DeKalb County,IL,97.36170212765958,NA
60148,DuPage County,IL,NA,5.548037889039242
60164,Cook County,IL,34.5531914893617,NA
60188,DuPage County,IL,NA,96.07577807848445
60192,Cook County,IL,82.46808510638299,NA
60304,Cook County,IL,52.34042553191489,NA
60404,Will County,IL,NA,41.40730717185386
60419,Cook County,IL,NA,33.15290933694182
60422,Cook County,IL,NA,45.46684709066306
60436,Will County,IL,NA,56.292286874154264
60439,Cook County,IL,NA,17.591339648173207
60446,Will County,IL,NA,36.129905277401896
60447,Grundy County,IL,51.40425531914894,NA
60450,Grundy County,IL,20.25531914893617,NA
60453,Cook County,IL,12.170212765957448,NA
60491,Will County,IL,30.5531914893617,NA
60502,DuPage County,IL,48.255319148936174,NA
60505,Kane County,IL,26.468085106382976,NA
60515,DuPage County,IL,66.63829787234043,NA
60516,DuPage County,IL,41.1063829787234,NA
60517,DuPage County,IL,NA,66.71177266576454
60523,DuPage County,IL,79.06382978723404,NA
60540,DuPage County,IL,NA,26.38700947225981
60565,DuPage County,IL,NA,19.485791610284167
60586,Will County,IL,12.680851063829786,NA
60605,Cook County,IL,NA,45.33152909336942
60618,Cook County,IL,7.0638297872340425,NA
60623,Cook County,IL,NA,43.978349120433016
60634,Cook County,IL,NA,8.795669824086604
60643,Cook County,IL,7.319148936170213,NA
60644,Cook County,IL,27.148936170212767,NA
60646,Cook County,IL,45.191489361702125,NA
60651,Cook County,IL,NA,8.930987821380242
60657,Cook County,IL,NA,12.043301759133964
60659,Cook County,IL,43.148936170212764,NA
60707,Cook County,IL,NA,39.783491204330176
60804,Cook County,IL,17.106382978723406,NA
61021,Lee County,IL,27.23404255319149,NA
61063,Winnebago County,IL,97.61702127659575,NA
61107,Winnebago County,IL,39.744680851063826,NA
61114,Winnebago County,IL,75.40425531914894,67.65899864682002
61354,LaSalle County,IL,NA,52.09742895805142
61364,LaSalle County,IL,50.97872340425532,NA
61705,McLean County,IL,NA,75.23680649526388
62206,St. Clair County,IL,62.97872340425532,NA
62223,St. Clair County,IL,NA,67.2530446549391
62230,Clinton County,IL,NA,90.12178619756428
62269,St. Clair County,IL,61.95744680851064,NA
62301,Adams County,IL,28.936170212765955,34.37077131258457
62557,Christian County,IL,91.91489361702128,NA
62711,Sangamon County,IL,86.38297872340426,NA
46032,Hamilton County,IN,70.8936170212766,NA
46062,Hamilton County,IN,NA,16.23815967523681
46106,Johnson County,IN,92.17021276595744,NA
46142,Johnson County,IN,38.38297872340426,NA
46143,Johnson County,IN,19.74468085106383,NA
46176,Shelby County,IN,NA,10.960757780784844
46203,Marion County,IN,49.70212765957447,NA
46219,Marion County,IN,NA,81.0554803788904
46221,Marion County,IN,25.106382978723403,NA
46228,Marion County,IN,73.44680851063829,NA
46304,Porter County,IN,NA,17.591339648173207
46322,Lake County,IN,NA,89.03924221921515
46323,Lake County,IN,NA,17.320703653585927
46342,Lake County,IN,NA,11.907983761840326
46368,Porter County,IN,2.6382978723404253,NA
46385,Porter County,IN,5.872340425531915,NA
46392,Jasper County,IN,NA,93.64005412719891
46538,Kosciusko County,IN,NA,95.66982408660351
46574,St. Joseph County,IN,NA,77.67253044654939
46628,St. Joseph County,IN,NA,48.3085250338295
46703,Steuben County,IN,NA,36.40054127198917
46725,Whitley County,IN,25.872340425531913,NA
46733,Adams County,IN,37.276595744680854,NA
46750,Huntington County,IN,16.76595744680851,NA
46761,LaGrange County,IN,NA,60.757780784844385
46901,Howard County,IN,1.5319148936170213,NA
46902,Howard County,IN,NA,4.194857916102842
46928,Grant County,IN,97.87234042553192,NA
46936,Howard County,IN,NA,81.32611637347767
46952,Grant County,IN,15.574468085106382,NA
46970,Miami County,IN,7.914893617021276,NA
46996,Pulaski County,IN,NA,83.085250338295
47006,Ripley County,IN,NA,61.70500676589986
47012,Franklin County,IN,NA,81.86738836265224
47025,Dearborn County,IN,35.57446808510638,NA
47150,Floyd County,IN,8.51063829787234,NA
47304,Delaware County,IN,NA,40.46008119079838
47330,Wayne County,IN,85.61702127659574,NA
47711,Vanderburgh County,IN,23.829787234042556,24.62787550744249
47714,Vanderburgh County,IN,11.48936170212766,NA
47803,Vigo County,IN,NA,99.3234100135318
47804,Vigo County,IN,NA,72.39512855209743
50125,Warren County,IA,64.17021276595744,NA
50321,Polk County,IA,NA,91.2043301759134
50322,Polk County,IA,NA,56.56292286874154
50511,Kossuth County,IA,87.74468085106383,NA
50595,Hamilton County,IA,72.93617021276596,NA
50613,Black Hawk County,IA,45.4468085106383,65.08795669824087
50701,Black Hawk County,IA,28.25531914893617,NA
50703,Black Hawk County,IA,NA,28.55209742895805
52002,Dubuque County,IA,NA,83.62652232746956
52205,Jones County,IA,86.80851063829788,NA
52601,Des Moines County,IA,10.127659574468085,NA
52632,Lee County,IA,34.46808510638298,NA
52761,Muscatine County,IA,9.617021276595745,NA
52806,Scott County,IA,49.19148936170213,NA
66067,Franklin County,KS,NA,54.12719891745602
66202,Johnson County,KS,70.97872340425532,NA
66203,Johnson County,KS,75.48936170212765,NA
66209,Johnson County,KS,NA,43.16644113667118
66213,Johnson County,KS,NA,46.68470906630582
67042,Butler County,KS,NA,62.38159675236806
67124,Pratt County,KS,NA,74.42489851150202
67211,Sedgwick County,KS,49.276595744680854,NA
67212,Sedgwick County,KS,58.38297872340426,NA
67337,Montgomery County,KS,NA,71.71853856562923
67460,McPherson County,KS,73.87234042553192,NA
67526,Barton County,KS,98.38297872340426,NA
67530,Barton County,KS,NA,57.51014884979703
67550,Pawnee County,KS,NA,85.1150202976996
67846,Finney County,KS,NA,21.380243572395127
40071,Spencer County,KY,50.38297872340426,NA
40165,Bullitt County,KY,12.085106382978724,NA
40229,Jefferson County,KY,NA,19.621109607577807
40242,Jefferson County,KY,76.76595744680851,NA
40245,Jefferson County,KY,NA,38.29499323410013
40272,Jefferson County,KY,38.04255319148936,NA
40291,Jefferson County,KY,NA,17.456021650879567
40391,Clark County,KY,6.978723404255319,NA
40475,Madison County,KY,6.723404255319148,NA
41051,Kenton County,KY,64.34042553191489,NA
41071,Campbell County,KY,22.638297872340427,NA
41076,Campbell County,KY,66.97872340425532,NA
41102,Boyd County,KY,81.95744680851064,NA
41501,Pike County,KY,9.787234042553191,NA
42001,McCracken County,KY,NA,20.16238159675237
42025,Marshall County,KY,38.808510638297875,NA
42240,Christian County,KY,5.0212765957446805,NA
70001,Jefferson Parish,LA,82.2127659574468,NA
70003,Jefferson Parish,LA,47.48936170212766,NA
70058,Jefferson Parish,LA,2.0425531914893615,NA
70065,Jefferson Parish,LA,NA,3.1123139377537212
70118,Orleans Parish,LA,NA,18.80920162381597
70119,Orleans Parish,LA,4.085106382978723,NA
70122,Orleans Parish,LA,4.340425531914894,NA
70123,Jefferson Parish,LA,NA,18.67388362652233
70126,Orleans Parish,LA,4.851063829787234,NA
70360,Terrebonne Parish,LA,8.851063829787234,NA
70363,Terrebonne Parish,LA,3.74468085106383,NA
70427,Washington Parish,LA,NA,58.4573748308525
70471,St. Tammany Parish,LA,36.17021276595745,NA
70510,Vermilion Parish,LA,NA,35.994587280108256
70535,St. Landry Parish,LA,23.148936170212767,NA
70560,Iberia Parish,LA,2.382978723404255,NA
70570,St. Landry Parish,LA,NA,10.825439783491204
70577,St. Landry Parish,LA,67.74468085106383,NA
70601,Calcasieu Parish,LA,1.276595744680851,NA
70615,Calcasieu Parish,LA,18.72340425531915,NA
70663,Calcasieu Parish,LA,NA,20.70365358592693
70737,Ascension Parish,LA,5.276595744680851,NA
70764,Iberville Parish,LA,61.02127659574468,NA
70810,East Baton Rouge Parish,LA,6.6382978723404245,NA
70811,East Baton Rouge Parish,LA,NA,72.66576454668471
70812,East Baton Rouge Parish,LA,23.914893617021278,NA
71006,Bossier Parish,LA,47.91489361702128,NA
71037,Bossier Parish,LA,NA,53.179972936400546
71078,De Soto Parish,LA,73.61702127659574,NA
71115,Caddo Parish,LA,89.1063829787234,NA
71203,Ouachita Parish,LA,NA,58.86332882273342
71360,Rapides Parish,LA,33.276595744680854,24.89851150202977
71409,Rapides Parish,LA,85.95744680851064,NA
04064,York County,ME,87.48936170212765,NA
04107,Cumberland County,ME,92,NA
04240,Androscoggin County,ME,1.6170212765957446,NA
04364,Kennebec County,ME,52.08510638297872,NA
04756,Aroostook County,ME,81.53191489361701,NA
20602,Charles County,MD,69.1063829787234,NA
20619,St. Mary's County,MD,NA,86.73883626522327
20764,Anne Arundel County,MD,NA,100
20772,Prince George's County,MD,NA,51.420838971583215
20861,Montgomery County,MD,NA,99.72936400541272
20872,Montgomery County,MD,NA,95.53450608930987
20878,Montgomery County,MD,82.5531914893617,NA
21060,Anne Arundel County,MD,NA,40.32476319350474
21076,Anne Arundel County,MD,79.82978723404256,NA
21108,Anne Arundel County,MD,82.72340425531914,NA
21117,Baltimore County,MD,25.617021276595747,NA
21136,Baltimore County,MD,NA,49.52638700947226
21157,Carroll County,MD,73.1063829787234,NA
21208,Baltimore County,MD,79.91489361702128,NA
21216,Baltimore city,MD,29.95744680851064,NA
21224,Baltimore city,MD,13.702127659574467,NA
21231,Baltimore city,MD,60.68085106382979,NA
21234,Baltimore County,MD,13.787234042553193,NA
21601,Talbot County,MD,NA,42.48985115020298
21804,Wicomico County,MD,NA,55.20974289580515
21811,Worcester County,MD,51.744680851063826,NA
21911,Cecil County,MD,NA,74.83085250338294
01040,Hampden County,MA,0,NA
01062,Hampshire County,MA,68.08510638297872,NA
01073,Hampshire County,MA,NA,84.30311231393776
01201,Berkshire County,MA,NA,3.7889039242219216
01331,Worcester County,MA,NA,29.905277401894452
01420,Worcester County,MA,NA,1.8944519621109608
01432,Middlesex County,MA,NA,71.04194857916103
01440,Worcester County,MA,1.1914893617021276,9.201623815967523
01450,Middlesex County,MA,62.89361702127659,NA
01453,Worcester County,MA,0.9361702127659575,NA
01550,Worcester County,MA,NA,3.6535859269282813
01569,Worcester County,MA,NA,29.63464140730717
01603,Worcester County,MA,1.3617021276595744,NA
01610,Worcester County,MA,0.6808510638297872,NA
01730,Middlesex County,MA,74.04255319148936,NA
01742,Middlesex County,MA,NA,35.317997293640055
01746,Middlesex County,MA,NA,70.23004059539919
01775,Middlesex County,MA,NA,85.25033829499323
01803,Middlesex County,MA,74.55319148936171,NA
01845,Essex County,MA,23.23404255319149,NA
01850,Middlesex County,MA,84.76595744680851,NA
01876,Middlesex County,MA,5.191489361702128,NA
01950,Essex County,MA,64.85106382978724,NA
01960,Essex County,MA,0.7659574468085106,NA
02019,Norfolk County,MA,NA,9.066305818673884
02115,Suffolk County,MA,4.9361702127659575,NA
02119,Suffolk County,MA,NA,0.2706359945872801
02122,Suffolk County,MA,NA,0.8119079837618403
02124,Suffolk County,MA,NA,0.13531799729364005
02125,Suffolk County,MA,0.2553191489361702,NA
02128,Suffolk County,MA,0.1702127659574468,NA
02130,Suffolk County,MA,92.34042553191489,NA
02136,Suffolk County,MA,NA,5.2774018944519625
02148,Middlesex County,MA,NA,53.31529093369418
02149,Middlesex County,MA,13.191489361702127,NA
02150,Suffolk County,MA,0.5106382978723404,NA
02155,Middlesex County,MA,5.617021276595745,NA
02169,Norfolk County,MA,0.3404255319148936,NA
02176,Middlesex County,MA,46.04255319148936,NA
02180,Middlesex County,MA,NA,21.24492557510149
02301,Plymouth County,MA,NA,0
02324,Plymouth County,MA,8.936170212765958,NA
02332,Plymouth County,MA,67.14893617021276,NA
02368,Norfolk County,MA,1.446808510638298,NA
02460,Middlesex County,MA,80.59574468085107,NA
02492,Norfolk County,MA,NA,62.65223274695535
02532,Barnstable County,MA,50.29787234042553,52.77401894451962
02536,Barnstable County,MA,NA,12.584573748308525
02538,Plymouth County,MA,96.59574468085106,NA
02556,Barnstable County,MA,NA,90.5277401894452
02601,Barnstable County,MA,3.9148936170212765,NA
02642,Barnstable County,MA,NA,92.28687415426252
02740,Bristol County,MA,15.48936170212766,NA
02762,Norfolk County,MA,50.8936170212766,NA
02780,Bristol County,MA,3.148936170212766,NA
02790,Bristol County,MA,NA,22.73342354533153
48009,Oakland County,MI,NA,60.216508795669824
48017,Oakland County,MI,74.72340425531915,NA
48038,Macomb County,MI,10.72340425531915,NA
48042,Macomb County,MI,NA,24.89851150202977
48059,St. Clair County,MI,NA,43.437077131258455
48062,Macomb County,MI,NA,79.56698240866035
48066,Macomb County,MI,NA,8.389715832205685
48076,Oakland County,MI,27.063829787234045,NA
48089,Macomb County,MI,6.553191489361702,NA
48108,Washtenaw County,MI,64.68085106382979,NA
48117,Monroe County,MI,89.61702127659575,NA
48118,Washtenaw County,MI,72.3404255319149,NA
48124,Wayne County,MI,17.02127659574468,NA
48138,Wayne County,MI,88.42553191489361,NA
48144,Monroe County,MI,85.27659574468085,NA
48154,Wayne County,MI,NA,7.7131258457374825
48161,Monroe County,MI,5.957446808510639,NA
48168,Wayne County,MI,49.02127659574468,NA
48183,Wayne County,MI,7.48936170212766,6.089309878213803
48185,Wayne County,MI,NA,6.7658998646820026
48187,Wayne County,MI,NA,2.841677943166441
48224,Wayne County,MI,1.9574468085106382,NA
48239,Wayne County,MI,6.893617021276596,9.607577807848443
48322,Oakland County,MI,36.68085106382979,7.848443843031124
48324,Oakland County,MI,54.80851063829787,NA
48329,Oakland County,MI,60.170212765957444,NA
48341,Oakland County,MI,25.02127659574468,NA
48346,Oakland County,MI,NA,49.6617050067659
48371,Oakland County,MI,31.574468085106382,NA
48377,Oakland County,MI,NA,73.88362652232748
48381,Oakland County,MI,59.829787234042556,NA
48386,Oakland County,MI,88.25531914893617,NA
48423,Genesee County,MI,NA,20.974289580514206
48439,Genesee County,MI,36.42553191489362,NA
48462,Oakland County,MI,71.31914893617022,NA
48504,Genesee County,MI,15.148936170212766,NA
48506,Genesee County,MI,NA,36.265223274695536
48618,Midland County,MI,82.8936170212766,NA
48640,Midland County,MI,NA,13.261163734776726
48657,Midland County,MI,75.74468085106383,NA
48708,Bay County,MI,NA,8.119079837618404
48723,Tuscola County,MI,23.319148936170212,NA
48734,Saginaw County,MI,79.06382978723404,NA
48820,Clinton County,MI,64,NA
48827,Eaton County,MI,80.51063829787233,NA
48838,Montcalm County,MI,26.72340425531915,NA
48840,Ingham County,MI,74.38297872340426,NA
48843,Livingston County,MI,NA,4.871447902571042
48848,Shiawassee County,MI,92.08510638297872,NA
48858,Isabella County,MI,4.76595744680851,NA
48881,Ionia County,MI,NA,90.66305818673884
48906,Ingham County,MI,10.553191489361701,NA
48917,Eaton County,MI,28.76595744680851,NA
49002,Kalamazoo County,MI,27.829787234042552,NA
49004,Kalamazoo County,MI,38.5531914893617,NA
49010,Allegan County,MI,NA,43.707713125845736
49017,Calhoun County,MI,25.361702127659573,NA
49043,Van Buren County,MI,99.82978723404256,NA
49048,Kalamazoo County,MI,14.808510638297873,NA
49053,Kalamazoo County,MI,NA,82.81461434370772
49058,Barry County,MI,NA,36.53585926928282
49068,Calhoun County,MI,50.97872340425532,NA
49080,Allegan County,MI,NA,40.73071718538566
49082,Branch County,MI,75.14893617021276,NA
49085,Berrien County,MI,NA,74.96617050067658
49090,Van Buren County,MI,NA,39.512855209742895
49107,Berrien County,MI,NA,76.72530446549392
49221,Lenawee County,MI,NA,25.84573748308525
49331,Kent County,MI,NA,42.625169147496614
49408,Allegan County,MI,73.19148936170212,NA
49412,Newaygo County,MI,59.40425531914894,NA
49441,Muskegon County,MI,55.40425531914893,4.330175913396482
49503,Kent County,MI,NA,70.36535859269283
49504,Kent County,MI,12.51063829787234,NA
49506,Kent County,MI,20.170212765957444,NA
49601,Wexford County,MI,NA,50.20297699594046
49686,Grand Traverse County,MI,43.91489361702128,NA
49707,Alpena County,MI,NA,20.29769959404601
49735,Otsego County,MI,27.404255319148934,NA
49783,Chippewa County,MI,65.1063829787234,NA
49829,Delta County,MI,60.42553191489362,NA
55008,Isanti County,MN,NA,53.85656292286875
55013,Chisago County,MN,92.25531914893617,NA
55021,Rice County,MN,NA,37.88903924221921
55040,Isanti County,MN,NA,69.55345060893099
55041,Wabasha County,MN,NA,64.5466847090663
55051,Kanabec County,MN,79.48936170212765,NA
55057,Rice County,MN,NA,61.56968876860623
55060,Steele County,MN,NA,27.46955345060893
55124,Dakota County,MN,33.1063829787234,NA
55126,Ramsey County,MN,NA,93.09878213802436
55305,Hennepin County,MN,72.51063829787235,NA
55379,Scott County,MN,22.127659574468083,NA
55403,Hennepin County,MN,NA,69.14749661705007
55411,Hennepin County,MN,2.8085106382978724,NA
55416,Hennepin County,MN,37.53191489361702,NA
55423,Hennepin County,MN,NA,38.02435723951286
55429,Hennepin County,MN,10.042553191489361,NA
55437,Hennepin County,MN,80.25531914893617,79.97293640054127
55744,Itasca County,MN,NA,7.036535859269283
55746,St. Louis County,MN,20.595744680851062,NA
55803,St. Louis County,MN,62.5531914893617,NA
55806,St. Louis County,MN,55.06382978723404,NA
55811,St. Louis County,MN,25.53191489361702,NA
55902,Olmsted County,MN,NA,60.081190798376184
55912,Mower County,MN,24.595744680851066,NA
56007,Freeborn County,MN,13.02127659574468,NA
56303,Stearns County,MN,NA,46.00811907983762
56308,Douglas County,MN,22.5531914893617,NA
56345,Morrison County,MN,72.68085106382979,35.859269282814616
56444,Crow Wing County,MN,NA,85.38565629228687
56630,Beltrami County,MN,99.06382978723404,NA
56636,Itasca County,MN,87.65957446808511,NA
38652,Union County,MS,69.4468085106383,NA
38654,DeSoto County,MS,19.404255319148938,NA
38701,Washington County,MS,NA,63.59945872801083
39073,Rankin County,MS,58.12765957446808,NA
39120,Adams County,MS,NA,92.82814614343707
39170,Hinds County,MS,78.04255319148936,NA
39194,Yazoo County,MS,73.44680851063829,NA
39325,Lauderdale County,MS,94.97872340425532,NA
39345,Newton County,MS,NA,89.445196211096075
39439,Jasper County,MS,87.74468085106383,NA
39443,Jones County,MS,59.40425531914894,NA
39470,Pearl River County,MS,75.31914893617021,NA
39503,Harrison County,MS,8.170212765957446,NA
39520,Hancock County,MS,NA,36.80649526387009
39540,Harrison County,MS,NA,61.70500676589986
39553,Jackson County,MS,40.170212765957444,NA
39601,Lincoln County,MS,41.95744680851064,NA
63017,St. Louis County,MO,NA,11.231393775372124
63031,St. Louis County,MO,92.68085106382978,NA
63040,St. Louis County,MO,94.29787234042554,NA
63114,St. Louis County,MO,20.76595744680851,NA
63123,St. Louis County,MO,31.404255319148938,NA
63128,St. Louis County,MO,67.48936170212765,NA
63146,St. Louis County,MO,46.46808510638298,NA
63366,St. Charles County,MO,NA,5.006765899864682
63368,St. Charles County,MO,36.340425531914896,NA
63376,St. Charles County,MO,NA,51.96211096075778
63379,Lincoln County,MO,NA,26.928281461434374
63385,St. Charles County,MO,13.957446808510637,11.772665764546684
63601,St. Francois County,MO,38.297872340425535,54.93910690121786
63640,St. Francois County,MO,34.38297872340426,NA
63775,Perry County,MO,84.42553191489361,NA
63901,Butler County,MO,37.95744680851064,NA
64024,Clay County,MO,NA,32.61163734776725
64029,Jackson County,MO,NA,78.21380243572395
64052,Jackson County,MO,NA,32.34100135317997
64056,Jackson County,MO,21.19148936170213,NA
64057,Jackson County,MO,NA,48.714479025710425
64064,Jackson County,MO,47.23404255319149,NA
64067,Lafayette County,MO,60,NA
64068,Clay County,MO,NA,7.307171853856563
64080,Cass County,MO,57.87234042553191,NA
64089,Clay County,MO,47.829787234042556,NA
64112,Jackson County,MO,70.29787234042553,91.61028416779432
64118,Clay County,MO,4.425531914893617,NA
64119,Clay County,MO,8.51063829787234,20.027063599458728
64151,Platte County,MO,NA,51.420838971583215
64152,Platte County,MO,16.51063829787234,32.070365358592696
64155,Clay County,MO,19.06382978723404,NA
64157,Clay County,MO,28.085106382978726,NA
64485,Andrew County,MO,NA,59.945872801082544
64503,Buchanan County,MO,NA,29.22868741542625
64505,Buchanan County,MO,58.723404255319146,NA
64701,Cass County,MO,38.12765957446808,NA
64734,Cass County,MO,100,NA
64747,Cass County,MO,97.7872340425532,NA
64772,Vernon County,MO,NA,52.503382949932345
65202,Boone County,MO,8.76595744680851,NA
65301,Pettis County,MO,33.361702127659576,NA
65401,Phelps County,MO,NA,52.232746955345064
65459,Pulaski County,MO,NA,86.06224627875507
65785,Cedar County,MO,72.51063829787235,NA
65802,Greene County,MO,NA,18.538565629228685
65807,Greene County,MO,NA,15.290933694181327
65810,Greene County,MO,NA,63.870094722598104
59457,Fergus County,MT,88.76595744680851,NA
59602,Lewis and Clark County,MT,NA,28.416779431664413
59715,Gallatin County,MT,46.808510638297875,NA
59718,Gallatin County,MT,30.04255319148936,NA
59802,Missoula County,MT,91.40425531914894,NA
59804,Missoula County,MT,95.14893617021276,NA
59808,Missoula County,MT,NA,83.085250338295
59911,Flathead County,MT,NA,84.03247631935047
68110,Douglas County,NE,70.80851063829788,NA
68128,Sarpy County,NE,74.63829787234042,NA
68526,Lancaster County,NE,96.42553191489361,NA
89107,Clark County,NV,46.97872340425532,NA
89128,Clark County,NV,46.12765957446808,NA
89135,Clark County,NV,83.48936170212767,NA
89144,Clark County,NV,NA,83.7618403247632
89169,Clark County,NV,48.68085106382979,NA
89410,Douglas County,NV,82.04255319148936,NA
89423,Douglas County,NV,77.27659574468085,NA
89429,Lyon County,NV,NA,84.57374830852503
89441,Washoe County,NV,NA,71.85385656292287
89451,Washoe County,NV,NA,86.19756427604871
89506,Washoe County,NV,15.74468085106383,27.74018944519621
89508,Washoe County,NV,NA,73.61299052774018
89519,Washoe County,NV,NA,84.70906630581867
89523,Washoe County,NV,75.06382978723404,NA
89801,Elko County,NV,NA,66.30581867388364
03038,Rockingham County,NH,10.638297872340425,NA
03062,Hillsborough County,NH,NA,35.182679296346414
03104,Hillsborough County,NH,11.23404255319149,NA
03766,Grafton County,NH,93.4468085106383,94.85791610284167
03819,Rockingham County,NH,NA,97.56427604871448
03841,Rockingham County,NH,90.2127659574468,NA
03848,Rockingham County,NH,94.80851063829788,NA
03865,Rockingham County,NH,60.08510638297872,NA
03874,Rockingham County,NH,42.5531914893617,NA
07003,Essex County,NJ,97.19148936170214,24.357239512855212
07008,Middlesex County,NJ,21.361702127659573,NA
07010,Bergen County,NJ,99.48936170212765,NA
07011,Passaic County,NJ,15.063829787234043,NA
07017,Essex County,NJ,NA,96.617050067659
07030,Hudson County,NJ,43.06382978723404,NA
07036,Union County,NJ,NA,16.644113667117725
07041,Essex County,NJ,95.57446808510637,NA
07050,Essex County,NJ,53.276595744680854,NA
07052,Essex County,NJ,12.76595744680851,NA
07095,Middlesex County,NJ,33.702127659574465,NA
07304,Hudson County,NJ,2.723404255319149,NA
07403,Passaic County,NJ,NA,90.93369418132612
07407,Bergen County,NJ,NA,98.24086603518268
07462,Sussex County,NJ,NA,94.99323410013531
07470,Passaic County,NJ,14.042553191489363,NA
07480,Passaic County,NJ,NA,72.53044654939107
07628,Bergen County,NJ,99.23404255319149,NA
07646,Bergen County,NJ,58.21276595744681,NA
07731,Monmouth County,NJ,26.04255319148936,NA
07753,Monmouth County,NJ,4.51063829787234,NA
07801,Morris County,NJ,NA,98.37618403247632
07825,Warren County,NJ,84.08510638297872,NA
07850,Morris County,NJ,71.40425531914893,NA
07860,Sussex County,NJ,22.04255319148936,NA
07885,Morris County,NJ,75.91489361702128,NA
07974,Union County,NJ,89.53191489361703,NA
08012,Camden County,NJ,21.361702127659573,NA
08034,Camden County,NJ,29.106382978723406,NA
08035,Camden County,NJ,98.12765957446808,NA
08053,Burlington County,NJ,20.680851063829785,NA
08062,Gloucester County,NJ,63.23404255319149,NA
08070,Salem County,NJ,44.08510638297872,NA
08079,Salem County,NJ,37.70212765957447,NA
08081,Camden County,NJ,1.1063829787234043,NA
08085,Gloucester County,NJ,19.659574468085104,NA
08094,Gloucester County,NJ,22.97872340425532,NA
08225,Atlantic County,NJ,95.91489361702128,NA
08234,Atlantic County,NJ,NA,77.40189445196211
08302,Cumberland County,NJ,30.893617021276597,NA
08318,Salem County,NJ,93.36170212765957,NA
08520,Mercer County,NJ,47.06382978723404,NA
08527,Ocean County,NJ,7.404255319148937,NA
08540,Mercer County,NJ,NA,69.14749661705007
08550,Mercer County,NJ,NA,88.36265223274695
08690,Mercer County,NJ,37.361702127659576,NA
08721,Ocean County,NJ,53.4468085106383,NA
08724,Ocean County,NJ,7.574468085106383,NA
08753,Ocean County,NJ,2.127659574468085,NA
08873,Somerset County,NJ,NA,21.650879566982407
08886,Warren County,NJ,91.14893617021276,NA
87031,Valencia County,NM,NA,26.928281461434374
87105,Bernalillo County,NM,NA,4.059539918809202
87106,Bernalillo County,NM,NA,40.054127198917456
87112,Bernalillo County,NM,11.74468085106383,NA
87123,Bernalillo County,NM,10.297872340425531,NA
87124,Sandoval County,NM,9.191489361702128,NA
88030,Luna County,NM,NA,44.9255751014885
88210,Eddy County,NM,NA,59.67523680649527
88240,Lea County,NM,NA,17.861975642760484
88345,Lincoln County,NM,NA,82.13802435723952
10011,New York County,NY,33.191489361702125,NA
10022,New York County,NY,NA,48.84979702300406
10024,New York County,NY,NA,22.19215155615697
10025,New York County,NY,NA,0.9472259810554804
10028,New York County,NY,NA,28.010825439783492
10075,New York County,NY,81.1063829787234,NA
10306,Richmond County,NY,16.425531914893618,NA
10458,Bronx County,NY,0.425531914893617,NA
10461,Bronx County,NY,34.12765957446808,NA
10465,Bronx County,NY,25.78723404255319,NA
10472,Bronx County,NY,NA,1.7591339648173208
10509,Putnam County,NY,NA,56.833558863328825
10541,Putnam County,NY,83.82978723404256,NA
10605,Westchester County,NY,NA,67.65899864682002
11021,Nassau County,NY,NA,89.851150202977
11206,Kings County,NY,NA,1.3531799729364005
11207,Kings County,NY,0.5957446808510638,NA
11231,Kings County,NY,35.91489361702128,NA
11236,Kings County,NY,33.4468085106383,NA
11237,Kings County,NY,NA,48.17320703653586
11249,Kings County,NY,60.340425531914896,NA
11360,Queens County,NY,NA,79.43166441136671
11369,Queens County,NY,99.31914893617021,NA
11377,Queens County,NY,14.382978723404255,NA
11436,Queens County,NY,63.06382978723404,NA
11550,Nassau County,NY,NA,16.102841677943168
11590,Nassau County,NY,NA,27.875507442489848
11746,Suffolk County,NY,45.70212765957447,40.189445196211096
11764,Suffolk County,NY,NA,93.77537212449256
11767,Suffolk County,NY,NA,90.25710419485792
11801,Nassau County,NY,53.02127659574468,NA
11937,Suffolk County,NY,NA,87.8213802435724
12019,Saratoga County,NY,NA,59.1339648173207
12020,Saratoga County,NY,16.680851063829788,NA
12180,Rensselaer County,NY,1.702127659574468,NA
12197,Otsego County,NY,97.70212765957447,NA
12834,Washington County,NY,64.25531914893618,NA
12866,Saratoga County,NY,11.574468085106384,NA
12885,Warren County,NY,69.7872340425532,NA
12926,Franklin County,NY,93.95744680851064,NA
12953,Franklin County,NY,45.02127659574468,NA
13021,Cayuga County,NY,NA,51.285520974289575
13029,Onondaga County,NY,NA,90.39242219215156
13035,Madison County,NY,79.23404255319149,NA
13039,Onondaga County,NY,39.31914893617021,NA
13045,Cortland County,NY,3.5744680851063833,NA
13053,Tompkins County,NY,NA,82.4086603518268
13073,Tompkins County,NY,91.06382978723404,NA
13159,Onondaga County,NY,82.29787234042554,NA
13204,Onondaga County,NY,9.446808510638299,NA
13327,Lewis County,NY,99.14893617021276,NA
13343,Lewis County,NY,94.2127659574468,NA
13367,Lewis County,NY,65.53191489361701,85.92692828146143
13411,Chenango County,NY,70.63829787234043,NA
13421,Madison County,NY,19.914893617021274,NA
13433,Lewis County,NY,NA,99.45872801082544
13440,Oneida County,NY,24.680851063829788,NA
13461,Oneida County,NY,87.14893617021276,NA
13619,Jefferson County,NY,42.723404255319146,NA
13662,St. Lawrence County,NY,NA,14.749661705006767
13667,St. Lawrence County,NY,78.72340425531915,NA
13676,St. Lawrence County,NY,NA,39.918809201623816
13760,Broome County,NY,NA,0.5412719891745602
13820,Otsego County,NY,NA,7.577807848443843
13850,Broome County,NY,13.361702127659575,NA
13862,Broome County,NY,NA,88.09201623815967
13901,Broome County,NY,NA,23.00405953991881
14020,Genesee County,NY,NA,45.6021650879567
14036,Genesee County,NY,83.74468085106383,NA
14042,Cattaraugus County,NY,NA,95.9404600811908
14068,Erie County,NY,87.06382978723404,NA
14094,Niagara County,NY,11.404255319148936,2.435723951285521
14125,Genesee County,NY,80.85106382978722,NA
14127,Erie County,NY,NA,13.937753721244924
14131,Niagara County,NY,NA,69.01217861975643
14174,Niagara County,NY,NA,76.18403247631935
14220,Erie County,NY,11.148936170212766,23.27469553450609
14224,Erie County,NY,4.595744680851064,NA
14227,Erie County,NY,20,NA
14411,Orleans County,NY,NA,39.377537212449255
14416,Genesee County,NY,NA,87.00947225981055
14424,Ontario County,NY,27.659574468085108,NA
14454,Livingston County,NY,86.29787234042553,NA
14456,Ontario County,NY,5.702127659574468,NA
14468,Monroe County,NY,44.340425531914896,NA
14505,Wayne County,NY,NA,89.30987821380243
14510,Livingston County,NY,NA,73.61299052774018
14512,Ontario County,NY,NA,64.27604871447903
14519,Wayne County,NY,18.638297872340427,NA
14533,Livingston County,NY,96.85106382978724,NA
14534,Monroe County,NY,56.08510638297872,1.6238159675236805
14559,Monroe County,NY,NA,19.756427604871448
14606,Monroe County,NY,2.553191489361702,NA
14612,Monroe County,NY,11.914893617021278,1.4884979702300407
14616,Monroe County,NY,14.893617021276595,NA
14617,Monroe County,NY,22.72340425531915,NA
14701,Chautauqua County,NY,NA,2.029769959404601
14706,Cattaraugus County,NY,93.61702127659575,NA
14735,Allegany County,NY,NA,98.6468200270636
14737,Cattaraugus County,NY,81.36170212765957,NA
14760,Cattaraugus County,NY,30.21276595744681,NA
14770,Cattaraugus County,NY,93.95744680851064,NA
14837,Yates County,NY,71.23404255319149,NA
14873,Steuben County,NY,NA,97.83491204330176
27028,Davie County,NC,NA,8.254397834912043
27104,Forsyth County,NC,NA,6.359945872801083
27127,Forsyth County,NC,12.425531914893618,NA
27253,Alamance County,NC,NA,15.967523680649526
27262,Guilford County,NC,NA,83.085250338295
27284,Forsyth County,NC,5.106382978723404,NA
27292,Davidson County,NC,3.829787234042553,NA
27299,Davidson County,NC,83.31914893617022,NA
27332,Lee County,NC,32.170212765957444,NA
27344,Chatham County,NC,43.319148936170215,NA
27349,Alamance County,NC,74.72340425531915,NA
27357,Rockingham County,NC,80.34042553191489,NA
27410,Guilford County,NC,NA,12.855209742895804
27539,Wake County,NC,53.95744680851063,NA
27540,Wake County,NC,40.76595744680851,NA
27565,Granville County,NC,NA,53.72124492557511
27577,Johnston County,NC,81.70212765957446,29.093369418132614
27591,Wake County,NC,77.61702127659575,NA
27603,Wake County,NC,17.95744680851064,23.410013531799727
27610,Wake County,NC,NA,5.683355886332882
27614,Wake County,NC,NA,32.47631935047362
27804,Nash County,NC,NA,33.42354533152909
27817,Beaufort County,NC,NA,76.58998646820027
28052,Gaston County,NC,21.95744680851064,NA
28075,Cabarrus County,NC,84.17021276595744,NA
28083,Cabarrus County,NC,57.53191489361702,NA
28110,Union County,NC,18.21276595744681,NA
28138,Rowan County,NC,56.93617021276596,NA
28139,Rutherford County,NC,63.65957446808511,NA
28215,Mecklenburg County,NC,NA,17.997293640054128
28227,Mecklenburg County,NC,NA,15.696887686062247
28270,Mecklenburg County,NC,NA,90.93369418132612
28365,Wayne County,NC,57.702127659574465,NA
28479,Brunswick County,NC,90.04255319148936,NA
28518,Duplin County,NC,83.48936170212767,NA
28532,Craven County,NC,NA,93.9106901217862
28539,Onslow County,NC,67.31914893617021,NA
28601,Catawba County,NC,12,NA
28645,Caldwell County,NC,3.4893617021276593,NA
28658,Catawba County,NC,NA,73.47767253044654
28659,Wilkes County,NC,17.4468085106383,NA
28673,Catawba County,NC,86.04255319148936,NA
28704,Buncombe County,NC,NA,71.58322056833559
28712,Transylvania County,NC,NA,69.82408660351827
28714,Yancey County,NC,61.787234042553195,NA
28716,Haywood County,NC,NA,38.56562922868741
28734,Macon County,NC,43.234042553191486,34.912043301759134
28752,McDowell County,NC,41.4468085106383,NA
28785,Haywood County,NC,NA,65.76454668470907
28790,Henderson County,NC,99.91489361702128,NA
28803,Buncombe County,NC,73.27659574468085,NA
28804,Buncombe County,NC,90.97872340425532,73.20703653585927
58075,Richland County,ND,NA,92.42219215155616
58078,Cass County,ND,53.87234042553192,NA
58854,McKenzie County,ND,84.17021276595744,NA
43015,Delaware County,OH,NA,6.630581867388363
43023,Licking County,OH,NA,79.29634641407307
43025,Licking County,OH,95.40425531914893,NA
43050,Knox County,OH,5.787234042553192,NA
43054,Franklin County,OH,74.04255319148936,NA
43056,Licking County,OH,77.87234042553192,33.01759133964817
43064,Madison County,OH,NA,81.59675236806495
43071,Licking County,OH,NA,96.75236806495265
43081,Franklin County,OH,NA,10.284167794316645
43082,Delaware County,OH,55.48936170212766,NA
43113,Pickaway County,OH,11.319148936170214,NA
43125,Franklin County,OH,NA,59.810554803788904
43213,Franklin County,OH,NA,17.050067658998646
43228,Franklin County,OH,3.0638297872340425,NA
43326,Hardin County,OH,NA,40.8660351826793
43331,Logan County,OH,88.93617021276596,NA
43402,Wood County,OH,NA,13.802435723951287
43420,Sandusky County,OH,8.085106382978724,NA
43528,Lucas County,OH,NA,43.031123139377534
43558,Fulton County,OH,NA,46.41407307171853
43605,Lucas County,OH,2.2127659574468086,NA
43611,Lucas County,OH,11.659574468085106,NA
43612,Lucas County,OH,34.04255319148936,NA
43614,Lucas County,OH,31.914893617021278,NA
43615,Lucas County,OH,31.06382978723404,NA
43701,Muskingum County,OH,0.851063829787234,0.6765899864682002
43725,Guernsey County,OH,12.595744680851064,30.581867388362653
43731,Perry County,OH,NA,86.60351826792963
43755,Guernsey County,OH,98.2127659574468,NA
43777,Muskingum County,OH,88,NA
43920,Columbiana County,OH,NA,9.742895805142084
44001,Lorain County,OH,NA,3.924221921515562
44004,Ashtabula County,OH,1.872340425531915,NA
44011,Lorain County,OH,NA,23.13937753721245
44023,Geauga County,OH,62.723404255319146,NA
44035,Lorain County,OH,0.0851063829787234,16.914749661705006
44053,Lorain County,OH,26.21276595744681,NA
44054,Lorain County,OH,30.127659574468087,NA
44067,Summit County,OH,29.361702127659573,NA
44074,Lorain County,OH,72.08510638297872,87.41542625169147
44077,Lake County,OH,NA,2.9769959404600814
44087,Summit County,OH,NA,14.073071718538566
44089,Erie County,OH,31.234042553191486,NA
44094,Lake County,OH,15.659574468085106,NA
44111,Cuyahoga County,OH,NA,2.571041948579161
44131,Cuyahoga County,OH,36.93617021276596,NA
44133,Cuyahoga County,OH,22.21276595744681,NA
44138,Cuyahoga County,OH,59.31914893617021,NA
44139,Cuyahoga County,OH,36.255319148936174,NA
44140,Cuyahoga County,OH,90.2127659574468,NA
44212,Medina County,OH,2.893617021276596,NA
44221,Summit County,OH,12.340425531914894,16.508795669824085
44224,Summit County,OH,66.04255319148936,NA
44236,Summit County,OH,48.51063829787234,21.10960757780785
44256,Medina County,OH,3.6595744680851063,NA
44305,Summit County,OH,NA,70.09472259810555
44313,Summit County,OH,57.02127659574469,NA
44406,Mahoning County,OH,50.212765957446805,25.16914749661705
44412,Portage County,OH,98.72340425531915,NA
44431,Columbiana County,OH,88.68085106382979,NA
44445,Columbiana County,OH,89.87234042553192,NA
44460,Columbiana County,OH,NA,8.525033829499323
44484,Trumbull County,OH,24,NA
44514,Mahoning County,OH,43.659574468085104,NA
44515,Mahoning County,OH,NA,10.690121786197563
44601,Stark County,OH,5.361702127659575,NA
44614,Stark County,OH,69.19148936170212,NA
44615,Carroll County,OH,NA,79.83761840324763
44647,Stark County,OH,NA,42.2192151556157
44667,Wayne County,OH,NA,84.16779431664412
44691,Wayne County,OH,6.042553191489362,5.412719891745602
44702,Stark County,OH,78.97872340425532,NA
44705,Stark County,OH,53.106382978723396,NA
44706,Stark County,OH,59.91489361702128,NA
44830,Seneca County,OH,NA,27.198917456021647
44857,Huron County,OH,18.46808510638298,NA
44870,Erie County,OH,24.425531914893618,NA
44882,Wyandot County,OH,NA,99.86468200270636
44903,Richland County,OH,15.23404255319149,NA
45005,Warren County,OH,7.234042553191489,NA
45011,Butler County,OH,2.2127659574468086,3.5182679296346415
45013,Butler County,OH,2.9787234042553195,NA
45014,Butler County,OH,NA,55.074424898511495
45015,Butler County,OH,49.276595744680854,NA
45036,Warren County,OH,17.27659574468085,NA
45039,Warren County,OH,NA,62.78755074424899
45044,Butler County,OH,20.425531914893615,NA
45056,Butler County,OH,90.55319148936171,NA
45069,Butler County,OH,50.638297872340424,NA
45102,Clermont County,OH,30.638297872340424,NA
45113,Clinton County,OH,96.93617021276596,NA
45130,Brown County,OH,98.55319148936171,NA
45140,Clermont County,OH,19.48936170212766,NA
45169,Clinton County,OH,NA,95.80514208389715
45204,Hamilton County,OH,79.91489361702128,NA
45215,Hamilton County,OH,NA,32.88227334235454
45217,Hamilton County,OH,NA,78.48443843031123
45229,Hamilton County,OH,24.76595744680851,NA
45230,Hamilton County,OH,47.57446808510638,NA
45238,Hamilton County,OH,NA,14.614343707713125
45243,Hamilton County,OH,93.70212765957446,NA
45246,Hamilton County,OH,NA,65.8998646820027
45251,Hamilton County,OH,46.808510638297875,NA
45322,Montgomery County,OH,NA,47.090663058186735
45371,Miami County,OH,NA,19.215155615696887
45387,Greene County,OH,NA,69.68876860622463
45417,Montgomery County,OH,NA,14.343707713125845
45426,Montgomery County,OH,NA,32.61163734776725
45503,Clark County,OH,NA,11.637347767253045
45601,Ross County,OH,NA,3.247631935047361
45612,Ross County,OH,77.53191489361703,NA
45619,Lawrence County,OH,55.234042553191486,NA
45623,Gallia County,OH,NA,94.5872801082544
45628,Ross County,OH,79.31914893617021,NA
45631,Gallia County,OH,8.25531914893617,NA
45680,Lawrence County,OH,10.382978723404255,NA
45701,Athens County,OH,56.17021276595745,NA
45804,Allen County,OH,9.53191489361702,NA
45805,Allen County,OH,10.808510638297872,NA
45807,Allen County,OH,NA,61.02841677943166
45840,Hancock County,OH,2.4680851063829787,NA
45882,Mercer County,OH,NA,97.02300405953991
73005,Caddo County,OK,80.76595744680851,NA
73012,Oklahoma County,OK,NA,47.496617050067655
73013,Oklahoma County,OK,NA,9.336941813261165
73025,Oklahoma County,OK,NA,57.91610284167794
73026,Cleveland County,OK,NA,74.69553450608932
73036,Canadian County,OK,35.06382978723404,NA
73047,,OK,97.53191489361703,NA
73065,McClain County,OK,83.40425531914893,NA
73071,Cleveland County,OK,19.319148936170212,13.396481732070365
73072,Cleveland County,OK,23.404255319148938,NA
73075,Garvin County,OK,81.36170212765957,NA
73078,Canadian County,OK,88.59574468085107,NA
73099,Canadian County,OK,10.97872340425532,6.2246278755074425
73107,Oklahoma County,OK,47.40425531914894,NA
73112,Oklahoma County,OK,NA,48.44384303112314
73127,Oklahoma County,OK,NA,71.04194857916103
73139,Oklahoma County,OK,49.53191489361702,NA
73439,Marshall County,OK,67.23404255319149,NA
73505,Comanche County,OK,NA,15.155615696887686
73521,Jackson County,OK,NA,57.64546684709067
74016,Rogers County,OK,NA,89.98646820027064
74019,Rogers County,OK,70.12765957446808,NA
74023,Payne County,OK,NA,55.20974289580515
74036,Rogers County,OK,NA,77.94316644113667
74037,Tulsa County,OK,72.93617021276596,NA
74055,Tulsa County,OK,48.340425531914896,NA
74126,Tulsa County,OK,71.40425531914893,NA
74361,Mayes County,OK,58.63829787234043,NA
74525,Atoka County,OK,79.74468085106383,NA
74601,Kay County,OK,38.808510638297875,NA
74647,Kay County,OK,NA,98.91745602165088
74804,Pottawatomie County,OK,59.744680851063826,NA
74851,Pottawatomie County,OK,NA,66.98240866035182
74857,Cleveland County,OK,72.76595744680851,NA
97006,Washington County,OR,25.19148936170213,NA
97035,Clackamas County,OR,NA,61.163734776725306
97056,Columbia County,OR,85.1063829787234,NA
97086,Clackamas County,OR,74.72340425531915,NA
97128,Yamhill County,OR,15.829787234042552,NA
97140,Washington County,OR,51.23404255319149,NA
97223,Washington County,OR,71.14893617021276,NA
97225,Washington County,OR,95.74468085106383,NA
75072,NA,NA,NA,96.21109607577807
97239,Multnomah County,OR,95.65957446808511,NA
97321,Linn County,OR,22.72340425531915,NA
97330,Benton County,OR,46.38297872340426,NA
97457,Douglas County,OR,63.48936170212765,NA
97471,Douglas County,OR,NA,5.818673883626523
97527,Josephine County,OR,68.85106382978722,NA
97754,Crook County,OR,42.04255319148936,NA
97756,Deschutes County,OR,63.31914893617021,NA
97801,Umatilla County,OR,29.27659574468085,NA
97814,Baker County,OR,36.68085106382979,NA
97862,Umatilla County,OR,NA,59.26928281461434
97882,Umatilla County,OR,76.08510638297872,NA
15005,Beaver County,PA,NA,76.04871447902572
15021,Washington County,PA,94.63829787234043,NA
15025,Allegheny County,PA,44.680851063829785,NA
15037,Allegheny County,PA,77.4468085106383,NA
15061,Beaver County,PA,NA,68.74154262516915
15068,Westmoreland County,PA,NA,39.242219215155615
15101,Allegheny County,PA,62.638297872340424,NA
15122,Allegheny County,PA,46.12765957446808,NA
15145,Allegheny County,PA,81.53191489361701,NA
15205,Allegheny County,PA,NA,54.80378890392422
15211,Allegheny County,PA,84.85106382978724,NA
15212,Allegheny County,PA,52,NA
15218,Allegheny County,PA,73.36170212765958,NA
15221,Allegheny County,PA,14.553191489361703,22.59810554803789
15401,Fayette County,PA,6.468085106382978,NA
15537,Bedford County,PA,NA,61.43437077131259
15601,Westmoreland County,PA,17.19148936170213,NA
15642,Westmoreland County,PA,49.87234042553192,NA
15656,Westmoreland County,PA,NA,64.41136671177267
15668,Westmoreland County,PA,NA,58.59269282814614
15825,Jefferson County,PA,NA,44.38430311231394
15902,Cambria County,PA,37.4468085106383,NA
15963,Somerset County,PA,NA,55.61569688768606
16001,Butler County,PA,NA,2.3004059539918806
16002,Butler County,PA,NA,33.55886332882274
16117,Lawrence County,PA,47.14893617021277,NA
16137,Mercer County,PA,63.40425531914894,NA
16201,Armstrong County,PA,26.553191489361698,NA
16301,Venango County,PA,71.06382978723404,NA
16335,Crawford County,PA,8.340425531914894,NA
16354,Crawford County,PA,60.93617021276596,NA
16417,Erie County,PA,NA,87.28010825439783
16901,Tioga County,PA,NA,72.25981055480379
17003,Lebanon County,PA,41.87234042553192,NA
17011,Cumberland County,PA,21.872340425531913,NA
17026,Lebanon County,PA,94.46808510638299,NA
17042,Lebanon County,PA,4,NA
17067,Lebanon County,PA,58.808510638297875,NA
17103,Dauphin County,PA,NA,67.2530446549391
17110,Dauphin County,PA,NA,23.545331529093367
17111,Dauphin County,PA,13.446808510638297,6.495263870094722
17307,Adams County,PA,93.27659574468085,NA
17319,York County,PA,61.1063829787234,NA
17322,York County,PA,95.31914893617022,NA
17331,York County,PA,5.446808510638298,NA
17512,Lancaster County,PA,NA,41.94857916102841
17522,Lancaster County,PA,20.851063829787233,NA
17543,Lancaster County,PA,19.574468085106382,NA
17569,Lancaster County,PA,93.7872340425532,NA
17756,Lycoming County,PA,86.72340425531915,NA
17801,Northumberland County,PA,NA,19.891745602165088
17815,Columbia County,PA,14.127659574468085,NA
17837,Union County,PA,NA,38.700947225981054
17857,Northumberland County,PA,60.255319148936174,NA
18040,Northampton County,PA,NA,42.760487144790254
18052,Lehigh County,PA,90.8936170212766,NA
18091,Northampton County,PA,91.31914893617021,NA
18104,Lehigh County,PA,11.74468085106383,NA
18240,Carbon County,PA,93.4468085106383,NA
18428,Pike County,PA,68.51063829787233,NA
18505,Lackawanna County,PA,36.51063829787234,NA
18508,Lackawanna County,PA,54.38297872340425,NA
18702,Luzerne County,PA,25.70212765957447,NA
18840,Bradford County,PA,58.5531914893617,NA
18902,Bucks County,PA,63.65957446808511,NA
18938,Bucks County,PA,89.70212765957447,NA
18940,Bucks County,PA,56.42553191489361,38.971583220568334
18951,Bucks County,PA,NA,52.368064952638704
19012,Montgomery County,PA,NA,99.05277401894452
19027,Montgomery County,PA,38.5531914893617,NA
19047,Bucks County,PA,52.170212765957444,NA
19066,Montgomery County,PA,79.57446808510639,NA
19076,Delaware County,PA,NA,82.27334235453316
19090,Montgomery County,PA,42.80851063829787,NA
19104,Philadelphia County,PA,NA,17.185385656292286
19114,Philadelphia County,PA,16.170212765957448,NA
19126,Philadelphia County,PA,27.829787234042552,NA
19128,Philadelphia County,PA,45.95744680851064,NA
19139,Philadelphia County,PA,NA,7.036535859269283
19140,Philadelphia County,PA,12.851063829787234,NA
19141,Philadelphia County,PA,6.382978723404255,NA
19148,Philadelphia County,PA,67.91489361702128,NA
19154,Philadelphia County,PA,NA,53.044654939106906
19335,Chester County,PA,14.72340425531915,NA
19382,Chester County,PA,39.91489361702128,NA
19403,Montgomery County,PA,15.404255319148936,NA
19426,Montgomery County,PA,61.53191489361702,NA
19440,Montgomery County,PA,55.659574468085104,NA
19464,Montgomery County,PA,4.25531914893617,NA
19468,Montgomery County,PA,34.297872340425535,NA
19508,Berks County,PA,46.72340425531915,NA
19518,Berks County,PA,44.25531914893617,NA
19526,Berks County,PA,NA,90.79837618403248
19533,Berks County,PA,86.8936170212766,NA
02804,Washington County,RI,NA,99.59404600811908
02818,Kent County,RI,61.27659574468085,NA
02825,Providence County,RI,91.82978723404254,NA
02886,Kent County,RI,26.978723404255316,NA
02905,Providence County,RI,NA,41.94857916102841
02906,Providence County,RI,50.04255319148936,NA
02908,Providence County,RI,NA,33.96481732070365
02917,Providence County,RI,72.42553191489361,NA
29040,Sumter County,SC,NA,98.51150202976996
29073,Lexington County,SC,18.21276595744681,NA
29108,Newberry County,SC,51.48936170212765,NA
29118,Orangeburg County,SC,69.95744680851064,NA
29203,Richland County,SC,NA,20.29769959404601
29209,Richland County,SC,39.82978723404255,NA
29306,Spartanburg County,SC,31.574468085106382,NA
29406,Charleston County,SC,20.51063829787234,NA
29456,Dorchester County,SC,29.70212765957447,NA
29461,Berkeley County,SC,27.574468085106385,NA
29466,Charleston County,SC,71.65957446808511,50.608930987821374
29472,Dorchester County,SC,NA,97.2936400541272
29506,Florence County,SC,40,54.53315290933695
29627,Anderson County,SC,54.04255319148936,56.968876860622466
29650,Greenville County,SC,64.76595744680851,NA
29653,Greenwood County,SC,93.1063829787234,NA
29673,Greenville County,SC,32.851063829787236,NA
29681,Greenville County,SC,54.46808510638298,NA
29696,Oconee County,SC,96.68085106382979,NA
29706,Chester County,SC,28.425531914893615,NA
29835,McCormick County,SC,78.80851063829788,NA
29902,Beaufort County,SC,NA,64.68200270635994
29909,Beaufort County,SC,NA,15.426251691474965
57005,Minnehaha County,SD,76.51063829787233,NA
57006,Brookings County,SD,58.38297872340426,NA
57105,Minnehaha County,SD,41.36170212765957,NA
57106,Minnehaha County,SD,18.893617021276597,NA
57350,Beadle County,SD,50.46808510638298,NA
57718,Meade County,SD,98.46808510638297,NA
37014,Williamson County,TN,98.63829787234043,NA
37015,Cheatham County,TN,NA,44.65493910690122
37027,Williamson County,TN,33.787234042553195,NA
37029,Dickson County,TN,97.27659574468085,NA
37043,Montgomery County,TN,30.29787234042553,NA
37064,Williamson County,TN,NA,14.208389715832206
37069,Williamson County,TN,84.17021276595744,NA
37072,Davidson County,TN,NA,23.951285520974288
37087,Wilson County,TN,60.851063829787236,59.53991880920162
37110,Warren County,TN,13.872340425531915,NA
37174,Williamson County,TN,43.40425531914894,NA
37207,Davidson County,TN,9.872340425531915,26.65764546684709
37211,Davidson County,TN,16.51063829787234,NA
37311,Bradley County,TN,NA,31.393775372124495
37327,Sequatchie County,TN,NA,62.11096075778079
37343,Hamilton County,TN,18.893617021276597,NA
37363,Hamilton County,TN,35.319148936170215,NA
37379,Hamilton County,TN,35.23404255319149,NA
37381,Rhea County,TN,78.29787234042553,NA
37405,Hamilton County,TN,NA,77.53721244925575
37615,Washington County,TN,87.57446808510639,NA
37645,Hawkins County,TN,87.14893617021276,NA
37660,Sullivan County,TN,6.723404255319148,NA
37683,Johnson County,TN,NA,60.622462787550745
37716,Anderson County,TN,32,NA
37743,Greene County,TN,35.40425531914894,NA
37771,Loudon County,TN,NA,55.751014884979696
37777,Blount County,TN,NA,81.19079837618403
37814,Hamblen County,TN,26.553191489361698,NA
37861,Grainger County,TN,94.12765957446808,NA
37862,Sevier County,TN,31.829787234042556,NA
37920,Knox County,TN,9.361702127659575,NA
37931,Knox County,TN,36.851063829787236,NA
37934,Knox County,TN,NA,41.5426251691475
38001,Crockett County,TN,85.44680851063829,NA
38024,Dyer County,TN,20,NA
38257,Obion County,TN,NA,86.33288227334236
38372,Hardin County,TN,NA,46.14343707713126
38401,Maury County,TN,5.531914893617021,NA
38485,Wayne County,TN,77.36170212765957,NA
38558,Cumberland County,TN,NA,50.47361299052774
38583,White County,TN,21.106382978723403,NA
75002,Collin County,TX,17.872340425531917,NA
75009,Collin County,TX,80.85106382978722,NA
75019,Dallas County,TX,49.4468085106383,NA
75021,Grayson County,TX,NA,86.87415426251691
75022,Denton County,TX,NA,79.02571041948579
75024,Collin County,TX,55.319148936170215,NA
75040,Dallas County,TX,NA,25.710419485791608
75042,Dallas County,TX,NA,63.32882273342354
75043,Dallas County,TX,NA,16.77943166441137
75054,Tarrant County,TX,NA,92.15155615696887
75077,Denton County,TX,NA,47.902571041948576
75078,Collin County,TX,71.40425531914893,NA
75080,Dallas County,TX,52.851063829787236,NA
75081,Dallas County,TX,NA,48.57916102841678
75082,Collin County,TX,NA,74.15426251691474
75087,Rockwall County,TX,NA,54.26251691474966
75092,Grayson County,TX,42.212765957446805,NA
75098,Collin County,TX,18.127659574468087,34.23545331529093
75115,Dallas County,TX,NA,18.944519621109606
75126,Kaufman County,TX,26.382978723404253,NA
75142,Kaufman County,TX,56.85106382978723,NA
75143,Henderson County,TX,58.04255319148937,NA
75159,Dallas County,TX,NA,76.31935047361299
75205,Dallas County,TX,59.148936170212764,NA
75218,Dallas County,TX,68.68085106382978,NA
75219,Dallas County,TX,NA,84.97970230040596
75225,Dallas County,TX,69.70212765957446,NA
75454,Collin County,TX,NA,98.10554803788904
75457,Franklin County,TX,88.34042553191489,NA
75644,Upshur County,TX,63.48936170212765,NA
75654,Rusk County,TX,NA,92.96346414073072
75703,Smith County,TX,26.893617021276594,NA
75708,Smith County,TX,NA,81.86738836265224
75751,Henderson County,TX,41.78723404255319,NA
75766,Cherokee County,TX,NA,8.660351826792963
75771,Smith County,TX,NA,26.79296346414073
75790,Van Zandt County,TX,90.80851063829786,NA
75904,Angelina County,TX,NA,13.125845737483086
75935,Shelby County,TX,97.36170212765958,NA
75949,Angelina County,TX,74.97872340425532,NA
75965,Nacogdoches County,TX,62.808510638297875,NA
76006,Tarrant County,TX,63.06382978723404,NA
76009,Johnson County,TX,57.787234042553195,NA
76011,Tarrant County,TX,49.70212765957447,NA
76016,Tarrant County,TX,NA,58.72801082543978
76017,Tarrant County,TX,26.29787234042553,NA
76063,Tarrant County,TX,98.80851063829788,NA
76107,Tarrant County,TX,NA,81.46143437077131
76116,Tarrant County,TX,NA,12.313937753721245
76140,Tarrant County,TX,32.42553191489362,NA
76179,Tarrant County,TX,57.19148936170213,29.76995940460081
76205,Denton County,TX,91.48936170212765,NA
76209,Denton County,TX,NA,75.91339648173206
76262,Denton County,TX,40.51063829787234,NA
76302,Wichita County,TX,NA,73.34235453315291
76310,Wichita County,TX,NA,77.26657645466847
76384,Wilbarger County,TX,NA,58.99864682002707
76401,Erath County,TX,56.680851063829785,78.75507442489851
76450,Young County,TX,NA,66.44113667117728
76513,Bell County,TX,NA,1.0825439783491204
76550,Lampasas County,TX,NA,56.021650879566984
76643,McLennan County,TX,65.7872340425532,NA
76901,Tom Green County,TX,44.59574468085106,NA
76904,Tom Green County,TX,NA,35.588633288227335
77006,Harris County,TX,69.53191489361701,NA
77017,Harris County,TX,50.12765957446808,NA
77018,Harris County,TX,81.19148936170212,NA
77021,Harris County,TX,NA,69.95940460081191
77022,Harris County,TX,NA,51.82679296346414
77024,Harris County,TX,57.1063829787234,NA
77025,Harris County,TX,62.04255319148936,NA
77034,Harris County,TX,52.59574468085106,86.468200270636
77035,Harris County,TX,35.74468085106383,NA
77039,Harris County,TX,65.95744680851064,NA
77041,Harris County,TX,55.48936170212766,NA
77042,Harris County,TX,85.7872340425532,66.71177266576454
77044,Harris County,TX,30.80851063829787,NA
77049,Harris County,TX,NA,75.50744248985114
77051,Harris County,TX,48.93617021276596,NA
77059,Harris County,TX,NA,91.47496617050066
77061,Harris County,TX,86.63829787234043,NA
77077,Harris County,TX,81.70212765957446,28.146143437077132
77095,Harris County,TX,44.340425531914896,NA
77304,Montgomery County,TX,56.51063829787234,NA
77316,Montgomery County,TX,68.93617021276596,NA
77338,Harris County,TX,40.25531914893617,NA
77345,Harris County,TX,NA,87.68606224627875
77346,Harris County,TX,NA,30.987821380243574
77354,Montgomery County,TX,88.51063829787233,NA
77373,Harris County,TX,NA,24.49255751014885
77377,Harris County,TX,39.148936170212764,NA
77379,Harris County,TX,NA,39.648173207036535
77389,Harris County,TX,90.38297872340425,NA
77396,Harris County,TX,31.48936170212766,NA
77406,Fort Bend County,TX,NA,26.116373477672532
77437,Wharton County,TX,NA,60.487144790257105
77449,Harris County,TX,8.680851063829788,NA
77450,Harris County,TX,NA,18.403247631935045
77477,Fort Bend County,TX,NA,85.7916102841678
77478,Fort Bend County,TX,98.29787234042553,47.36129905277402
77484,Waller County,TX,NA,78.61975642760487
77494,Fort Bend County,TX,14.212765957446807,NA
77504,Harris County,TX,NA,75.10148849797022
77536,Harris County,TX,33.02127659574468,NA
77541,Brazoria County,TX,NA,55.48037889039242
77551,Galveston County,TX,NA,24.08660351826793
77573,Galveston County,TX,29.872340425531913,4.465493910690121
77578,Brazoria County,TX,NA,79.70230040595399
77590,Galveston County,TX,37.02127659574468,NA
77591,Galveston County,TX,NA,44.51962110960758
77598,Harris County,TX,53.36170212765957,NA
77619,Jefferson County,TX,66.80851063829788,NA
77657,Hardin County,TX,51.91489361702127,NA
77665,Chambers County,TX,84,NA
77705,Jefferson County,TX,37.53191489361702,NA
77802,Brazos County,TX,53.78723404255319,NA
77830,Grimes County,TX,NA,99.18809201623816
77845,Brazos County,TX,7.74468085106383,NA
77868,Grimes County,TX,NA,41.00135317997294
77904,Victoria County,TX,33.87234042553192,31.935047361299052
78023,Bexar County,TX,85.70212765957447,NA
78102,Bee County,TX,NA,70.63599458728011
78109,Bexar County,TX,43.40425531914894,NA
78154,Guadalupe County,TX,67.82978723404256,NA
78216,Bexar County,TX,38.46808510638298,NA
78221,Bexar County,TX,40.42553191489361,NA
78223,Bexar County,TX,16.25531914893617,NA
78237,Bexar County,TX,NA,21.921515561569688
78238,Bexar County,TX,68.08510638297872,NA
78245,Bexar County,TX,19.74468085106383,NA
78249,Bexar County,TX,NA,85.65629228687416
78251,Bexar County,TX,NA,76.45466847090663
78254,Bexar County,TX,40.85106382978723,NA
78336,San Patricio County,TX,88.08510638297872,NA
78501,Hidalgo County,TX,42.212765957446805,NA
78526,Cameron County,TX,NA,60.893098782138026
78539,Hidalgo County,TX,NA,65.2232746955345
78582,Starr County,TX,61.702127659574465,NA
78613,Williamson County,TX,27.489361702127656,16.373477672530445
78624,Gillespie County,TX,NA,47.767253044654936
78633,Williamson County,TX,NA,1.2178619756427604
78634,Williamson County,TX,54.638297872340424,NA
78639,Llano County,TX,74.04255319148936,NA
78654,Burnet County,TX,69.36170212765957,NA
78703,Travis County,TX,92.85106382978724,NA
78704,Travis County,TX,62.21276595744681,NA
78801,Uvalde County,TX,57.27659574468085,NA
78852,Maverick County,TX,NA,37.48308525033829
78957,Bastrop County,TX,NA,85.52097428958051
79109,Randall County,TX,32.25531914893617,43.5723951285521
79339,Lamb County,TX,89.87234042553192,NA
79403,Lubbock County,TX,NA,49.12043301759134
79512,Mitchell County,TX,NA,82.67929634641408
79606,Taylor County,TX,56.17021276595745,80.51420838971583
79705,Midland County,TX,22.46808510638298,NA
79707,Midland County,TX,28.170212765957448,NA
79714,Andrews County,TX,NA,88.22733423545331
79761,Ector County,TX,NA,56.156968876860624
79901,El Paso County,TX,NA,82.4086603518268
79903,El Paso County,TX,81.19148936170212,NA
79904,El Paso County,TX,58.97872340425532,NA
79907,El Paso County,TX,98.97872340425532,19.350473612990527
79912,El Paso County,TX,NA,31.123139377537214
79925,El Paso County,TX,NA,50.87956698240866
79938,El Paso County,TX,NA,92.5575101488498
84003,Utah County,UT,38.5531914893617,NA
84025,Davis County,UT,69.19148936170212,NA
84029,Tooele County,UT,78.46808510638297,NA
84040,Davis County,UT,70.29787234042553,NA
84078,Uintah County,UT,NA,33.82949932341001
84093,Salt Lake County,UT,NA,49.25575101488498
84094,Salt Lake County,UT,59.06382978723405,NA
84095,Salt Lake County,UT,NA,25.43978349120433
84098,Summit County,UT,NA,46.54939106901218
84106,Salt Lake County,UT,29.617021276595747,NA
84108,Salt Lake County,UT,NA,53.58592692828146
84117,Salt Lake County,UT,72.25531914893617,NA
84120,Salt Lake County,UT,6.297872340425532,19.079837618403246
84121,Salt Lake County,UT,NA,15.696887686062247
84123,Salt Lake County,UT,66.12765957446808,NA
84129,,UT,NA,26.251691474966172
84321,Cache County,UT,61.4468085106383,NA
84401,Weber County,UT,NA,88.76860622462787
84660,Utah County,UT,NA,83.7618403247632
84663,Utah County,UT,67.65957446808511,NA
84790,Washington County,UT,NA,12.178619756427606
05401,Chittenden County,VT,NA,46.820027063599454
05452,Chittenden County,VT,53.531914893617014,NA
05468,Chittenden County,VT,61.87234042553192,NA
05641,Washington County,VT,27.319148936170212,NA
05819,Caledonia County,VT,NA,74.01894451962112
20112,Prince William County,VA,NA,76.72530446549392
20148,Loudoun County,VA,52.68085106382979,NA
20186,Fauquier County,VA,77.1063829787234,89.58051420838972
22124,Fairfax County,VA,82.04255319148936,NA
22191,Prince William County,VA,14.297872340425533,NA
22304,Alexandria city,VA,NA,30.040595399188092
22306,Fairfax County,VA,NA,45.19621109607578
22308,Fairfax County,VA,75.91489361702128,NA
22314,Alexandria city,VA,NA,78.89039242219215
22655,Frederick County,VA,53.191489361702125,NA
22802,Harrisonburg city,VA,51.829787234042556,NA
22843,Augusta County,VA,99.40425531914894,NA
22942,Louisa County,VA,75.65957446808511,NA
22963,Fluvanna County,VA,NA,49.93234100135318
23188,James City County,VA,NA,2.706359945872801
23236,Chesterfield County,VA,54.97872340425531,NA
23238,Henrico County,VA,83.23404255319149,NA
23323,Chesapeake city,VA,NA,30.311231393775373
23454,Virginia Beach city,VA,NA,63.1935047361299
23456,Virginia Beach city,VA,52.51063829787233,NA
23462,Virginia Beach city,VA,62.46808510638297,NA
23464,Virginia Beach city,VA,NA,3.3829499323410013
23513,Norfolk city,VA,15.319148936170212,NA
23601,Newport News city,VA,NA,43.843031123139376
23805,Petersburg city,VA,48.08510638297872,NA
23834,Colonial Heights city,VA,NA,61.97564276048715
23838,Chesterfield County,VA,80.68085106382978,NA
23867,Greensville County,VA,99.57446808510639,NA
24012,Roanoke city,VA,24.340425531914896,NA
24055,Henry County,VA,NA,67.11772665764548
24151,Franklin County,VA,NA,49.79702300405954
24260,Russell County,VA,64.93617021276596,NA
24401,Staunton city,VA,9.02127659574468,NA
24422,Alleghany County,VA,78.12765957446808,NA
24477,Augusta County,VA,54.72340425531915,47.6319350473613
24521,Amherst County,VA,78.63829787234042,NA
24572,Amherst County,VA,NA,80.64952638700947
98001,King County,WA,36.59574468085106,37.34776725304466
98007,King County,WA,NA,75.64276048714478
98029,King County,WA,56.59574468085107,NA
98036,Snohomish County,WA,NA,37.61840324763194
98059,King County,WA,40.680851063829785,NA
98144,King County,WA,NA,68.20027063599458
98177,King County,WA,66.2127659574468,NA
98198,King County,WA,NA,25.57510148849797
98270,Snohomish County,WA,15.914893617021278,NA
98273,Skagit County,WA,NA,14.479025710419485
98312,Kitsap County,WA,65.02127659574468,NA
98349,Pierce County,WA,95.06382978723404,NA
98362,Clallam County,WA,61.191489361702125,NA
98370,Kitsap County,WA,66.38297872340425,NA
98498,Pierce County,WA,NA,53.85656292286875
98499,Pierce County,WA,38.97872340425532,NA
98531,Lewis County,WA,NA,91.8809201623816
98632,Cowlitz County,WA,16.340425531914892,NA
98683,Clark County,WA,NA,69.41813261163735
98837,Grant County,WA,NA,80.10825439783491
98944,Yakima County,WA,52.93617021276595,NA
99026,Stevens County,WA,NA,95.12855209742895
99203,Spokane County,WA,NA,66.5764546684709
99205,Spokane County,WA,34.5531914893617,NA
99338,Benton County,WA,NA,28.28146143437077
20015,District of Columbia,DC,82.97872340425532,NA
20020,District of Columbia,DC,1.7872340425531916,NA
24901,Greenbrier County,WV,NA,65.62922868741543
25177,Kanawha County,WV,10.212765957446807,NA
25276,Roane County,WV,NA,68.20027063599458
25312,Kanawha County,WV,60.765957446808514,NA
25419,Berkeley County,WV,75.2340425531915,NA
25443,Jefferson County,WV,95.23404255319149,NA
25504,Cabell County,WV,NA,87.55074424898511
25526,Putnam County,WV,32.51063829787234,35.453315290933695
25704,Wayne County,WV,24.170212765957448,NA
26288,Webster County,WV,76.17021276595744,NA
26508,Monongalia County,WV,4.170212765957447,NA
53051,Waukesha County,WI,39.234042553191486,NA
53066,Waukesha County,WI,65.70212765957447,NA
53081,Sheboygan County,WI,13.617021276595745,NA
53105,Racine County,WI,41.02127659574468,NA
53114,Walworth County,WI,94.72340425531914,NA
53115,Walworth County,WI,71.74468085106382,NA
53129,Milwaukee County,WI,NA,63.870094722598104
53211,Milwaukee County,WI,59.65957446808511,NA
53214,Milwaukee County,WI,9.702127659574469,NA
53217,Milwaukee County,WI,29.531914893617024,NA
53219,Milwaukee County,WI,NA,11.096075778078484
53220,Milwaukee County,WI,26.127659574468087,NA
53405,Racine County,WI,78.8936170212766,NA
53511,Rock County,WI,NA,0.40595399188092013
53533,Iowa County,WI,93.19148936170212,NA
53538,Jefferson County,WI,45.61702127659574,NA
53545,Rock County,WI,29.78723404255319,NA
53546,Rock County,WI,14.638297872340425,NA
53558,Dane County,WI,NA,91.33964817320704
53590,Dane County,WI,32.76595744680851,NA
54016,St. Croix County,WI,NA,45.73748308525033
54017,St. Croix County,WI,NA,33.69418132611637
54115,Brown County,WI,NA,28.95805142083897
54201,Kewaunee County,WI,91.74468085106383,NA
54220,Manitowoc County,WI,42.46808510638298,2.165087956698241
54241,Manitowoc County,WI,57.53191489361702,NA
54302,Brown County,WI,21.70212765957447,NA
54303,Brown County,WI,NA,88.90392422192151
54304,Brown County,WI,18.04255319148936,NA
54487,Lincoln County,WI,46.297872340425535,NA
54534,Iron County,WI,96.25531914893617,NA
54601,La Crosse County,WI,25.19148936170213,NA
54603,La Crosse County,WI,48.51063829787234,NA
54729,Chippewa County,WI,NA,20.56833558863329
54819,Rusk County,WI,99.74468085106383,NA
54843,Sawyer County,WI,77.87234042553192,NA
54848,Rusk County,WI,81.02127659574468,NA
54902,Winnebago County,WI,48.17021276595745,NA
54971,Fond du Lac County,WI,91.6595744680851,50.06765899864683
