ZipCode,county,state,Adult
35062,Jefferson County,AL,74.98248072880168
35207,Jefferson County,AL,57.8135949544499
35555,Fayette County,AL,53.538892782060266
35758,Madison County,AL,30.27330063069376
36542,Baldwin County,AL,69.23615977575332
36582,Mobile County,AL,38.6124737210932
36870,Lee County,AL,68.95585143658025
99504,Anchorage Municipality,AK,44.4989488437281
99669,Kenai Peninsula Borough,AK,61.73791170287316
85033,Maricopa County,AZ,36.93062368605466
85051,Maricopa County,AZ,11.492641906096706
85120,Pinal County,AZ,33.28661527680449
85122,Pinal County,AZ,25.858444288717592
85139,Pinal County,AZ,70.91800981079187
85142,Maricopa County,AZ,8.128941836019623
85210,Maricopa County,AZ,17.869656622284513
85257,Maricopa County,AZ,56.341976173791174
85260,Maricopa County,AZ,54.30974071478627
85284,Maricopa County,AZ,67.41415557112825
85706,Pima County,AZ,12.96426068675543
85713,Pima County,AZ,5.255781359495445
85746,Pima County,AZ,33.00630693763139
86001,Coconino County,AZ,70.56762438682551
86025,Navajo County,AZ,99.229152067274
86538,Apache County,AZ,84.72319551506658
71832,Sevier County,AR,75.54309740714787
72019,Saline County,AR,61.527680448493335
72032,Faulkner County,AR,31.534688156972667
72210,Pulaski County,AR,80.51857042747021
72223,Pulaski County,AR,73.23055360896986
72401,Craighead County,AR,11.983181499649614
72762,Washington County,AR,37.771548703573934
90016,Los Angeles County,CA,76.59425367904696
90019,Los Angeles County,CA,31.955150665732308
90025,Los Angeles County,CA,88.57743517869656
90034,Los Angeles County,CA,34.89838822704975
90064,Los Angeles County,CA,49.264190609670635
90266,Los Angeles County,CA,51.156271899089
90278,Los Angeles County,CA,49.68465311843027
90621,Orange County,CA,96.07568325157673
91335,Los Angeles County,CA,24.106517168885773
91406,Los Angeles County,CA,41.48563419761738
91602,Los Angeles County,CA,71.19831814996496
91606,Los Angeles County,CA,75.12263489838823
91702,Los Angeles County,CA,24.947442186405045
91706,Los Angeles County,CA,79.67764540995094
91764,San Bernardino County,CA,29.222144358794672
91765,Los Angeles County,CA,55.290819901892085
91950,San Diego County,CA,29.081990189208128
92008,San Diego County,CA,40.574632095304835
92025,San Diego County,CA,66.85353889278205
92064,San Diego County,CA,39.73370707778556
92069,San Diego County,CA,88.01681850035038
92075,San Diego County,CA,92.29152067274
92082,San Diego County,CA,81.77995795374913
92103,San Diego County,CA,92.92221443587947
92108,San Diego County,CA,76.66433076384023
92113,San Diego County,CA,19.6916608269096
92234,Riverside County,CA,11.352487736510161
92236,Riverside County,CA,35.10861948142957
92240,Riverside County,CA,17.02873160476524
92243,Imperial County,CA,73.72109320252278
92307,San Bernardino County,CA,49.614576033637
92314,San Bernardino County,CA,78.41625788367203
92316,San Bernardino County,CA,86.05466012613874
92324,San Bernardino County,CA,42.18640504555011
92335,San Bernardino County,CA,28.311142256482132
92336,San Bernardino County,CA,76.87456201822003
92345,San Bernardino County,CA,57.463209530483525
92374,San Bernardino County,CA,34.33777154870357
92404,San Bernardino County,CA,13.805185704274702
92501,Riverside County,CA,68.5353889278206
92507,Riverside County,CA,62.228451296426066
92557,Riverside County,CA,84.44288717589347
92620,Orange County,CA,34.54800280308339
92648,Orange County,CA,66.78346180798879
92677,Orange County,CA,26.3489838822705
92801,Orange County,CA,26.699369306236857
92880,Riverside County,CA,17.168885774351786
92882,Riverside County,CA,22.845129642606867
92886,Orange County,CA,24.036440084092504
93001,Ventura County,CA,21.2333566923616
93110,Santa Barbara County,CA,93.48283111422565
93221,Tulare County,CA,85.70427470217238
93230,Kings County,CA,14.225648213034336
93305,Kern County,CA,76.03363700070076
93307,Kern County,CA,10.861948142957253
93442,San Luis Obispo County,CA,98.66853538892782
93458,Santa Barbara County,CA,80.65872459705676
93550,Los Angeles County,CA,86.96566222845131
93611,Fresno County,CA,84.79327259985985
93619,Fresno County,CA,33.28661527680449
93638,Madera County,CA,75.40294323756132
93702,Fresno County,CA,50.525578135949544
93710,Fresno County,CA,51.08619481429572
93711,Fresno County,CA,56.06166783461808
93720,Fresno County,CA,70.77785564120532
93728,Fresno County,CA,66.5031534688157
94002,San Mateo County,CA,87.66643307638402
94014,San Mateo County,CA,87.80658724597058
94080,San Mateo County,CA,69.93693062368605
94109,San Francisco County,CA,22.214435879467416
94114,San Francisco County,CA,78.34618079887876
94118,San Francisco County,CA,72.24947442186405
94122,San Francisco County,CA,88.71758934828311
94123,San Francisco County,CA,51.92711983181499
94303,San Mateo County,CA,66.36299929922916
94403,San Mateo County,CA,41.625788367203924
94533,Solano County,CA,62.08829712683952
94544,Alameda County,CA,39.66362999299229
94558,Napa County,CA,52.90819901892081
94559,Napa County,CA,51.50665732305536
94572,Contra Costa County,CA,92.71198318149965
94578,Alameda County,CA,40.294323756131746
94589,Solano County,CA,48.56341976173791
94597,Contra Costa County,CA,60.96706377014717
94608,Alameda County,CA,97.89768745620182
94903,Marin County,CA,96.916608269096
94954,Sonoma County,CA,39.10301331464611
95035,Santa Clara County,CA,68.0448493342677
95062,Santa Cruz County,CA,90.39943938332165
95120,Santa Clara County,CA,91.59074982480729
95136,Santa Clara County,CA,74.35178696566223
95340,Merced County,CA,56.69236159775753
95341,Merced County,CA,47.16187806587246
95354,Stanislaus County,CA,26.419060967063768
95380,Stanislaus County,CA,49.33426769446391
95382,Stanislaus County,CA,19.761737911702873
95391,San Joaquin County,CA,72.10932025227751
95648,Placer County,CA,49.474421864050456
95673,Sacramento County,CA,94.46391030133147
95687,Solano County,CA,58.79467414155572
95822,Sacramento County,CA,81.21934127540294
95823,Sacramento County,CA,9.74071478626489
95842,Sacramento County,CA,64.68114926419061
95926,Butte County,CA,26.90960056061668
96002,Shasta County,CA,45.970567624386824
96003,Shasta County,CA,63.84022424667134
96019,Shasta County,CA,91.03013314646111
96097,Siskiyou County,CA,72.74001401541696
80007,Jefferson County,CO,81.14926419060967
80012,Arapahoe County,CO,8.969866853538893
80013,Arapahoe County,CO,7.918710581639804
80014,Arapahoe County,CO,24.667133847231955
80015,Arapahoe County,CO,55.92151366503153
80018,Arapahoe County,CO,65.45199719691661
80022,Adams County,CO,90.46951646811493
80026,Boulder County,CO,49.54449894884373
80112,Arapahoe County,CO,86.89558514365802
80134,Douglas County,CO,48.28311142256482
80207,Denver County,CO,63.209530483531886
80211,Denver County,CO,29.432375613174493
80228,Jefferson County,CO,44.639103013314646
80233,Adams County,CO,21.443587946741417
80234,Adams County,CO,93.20252277505256
80237,Denver County,CO,63.27960756832516
80501,Boulder County,CO,59.145059565522075
80526,Larimer County,CO,58.02382620882971
80538,Larimer County,CO,32.58584442887176
80543,Weld County,CO,90.32936229852838
80620,Weld County,CO,35.17869656622285
80631,Weld County,CO,42.81709880868956
80634,Weld County,CO,12.613875262789067
80916,El Paso County,CO,57.67344078486335
80921,El Paso County,CO,90.25928521373511
81521,Mesa County,CO,57.74351786965662
06010,Hartford County,CT,1.1212333566923616
06029,Tolland County,CT,46.81149264190609
06042,Hartford County,CT,30.203223545900492
06051,Hartford County,CT,15.90749824807288
06052,Hartford County,CT,85.9145059565522
06093,Hartford County,CT,95.51506657323056
06106,Hartford County,CT,18.710581639803785
06112,Hartford County,CT,13.665031534688158
06117,Hartford County,CT,81.63980378416258
06281,Windham County,CT,55.01051156271899
06450,New Haven County,CT,20.4625087596356
06460,New Haven County,CT,67.55430974071479
06484,Fairfield County,CT,28.241065171688856
06512,New Haven County,CT,17.79957953749124
06513,New Haven County,CT,2.8731604765241765
06516,New Haven County,CT,5.536089698668535
06518,New Haven County,CT,89.06797477224947
06519,New Haven County,CT,72.81009110021023
06605,Fairfield County,CT,26.769446391030133
06610,Fairfield County,CT,66.15276804484932
06611,Fairfield County,CT,65.94253679046952
06612,Fairfield County,CT,96.35599159074982
06614,Fairfield County,CT,47.37210932025228
06706,New Haven County,CT,74.84232655921514
06790,Litchfield County,CT,4.204625087596356
06840,Fairfield County,CT,85.63419761737912
06854,Fairfield County,CT,64.61107217939734
19709,New Castle County,DE,16.398037841625786
19713,New Castle County,DE,24.24667133847232
19720,New Castle County,DE,55.22074281709881
19805,New Castle County,DE,1.8220042046250877
19939,Sussex County,DE,82.90119131044149
19962,Kent County,DE,64.54099509460406
32114,Volusia County,FL,18.149964961457606
32117,Volusia County,FL,70.8479327259986
32206,Duval County,FL,44.148563419761736
32207,Duval County,FL,14.435879467414155
32208,Duval County,FL,17.379117028731606
32209,Duval County,FL,3.0133146461107216
32218,Duval County,FL,15.627189908899789
32220,Duval County,FL,87.10581639803785
32256,Duval County,FL,70.00700770847934
32505,Escambia County,FL,14.646110721793972
32605,Alachua County,FL,84.51296426068676
32606,Alachua County,FL,55.5010511562719
32608,Alachua County,FL,5.676243868255081
32693,Gilchrist County,FL,57.32305536089699
32811,Orange County,FL,17.51927119831815
32904,Brevard County,FL,38.33216538192011
33020,Broward County,FL,23.68605466012614
33025,Broward County,FL,23.265592151366505
33040,Monroe County,FL,35.0385423966363
33127,Miami-Dade County,FL,72.45970567624387
33135,Miami-Dade County,FL,91.38051857042747
33157,Miami-Dade County,FL,27.610371408549405
33176,Miami-Dade County,FL,56.832515767344084
33193,Miami-Dade County,FL,90.5395935529082
33311,Broward County,FL,5.466012613875263
33316,Broward County,FL,91.94113524877365
33407,Palm Beach County,FL,51.43658023826209
33493,Palm Beach County,FL,97.96776454099509
33527,Hillsborough County,FL,94.32375613174491
33567,Hillsborough County,FL,64.12053258584443
33624,Hillsborough County,FL,43.377715487035736
33701,Pinellas County,FL,37.63139453398738
33872,Highlands County,FL,80.16818500350385
34212,Manatee County,FL,70.3573931324457
34475,Marion County,FL,52.838121934127535
34705,Lake County,FL,99.71969166082691
34744,Osceola County,FL,21.58374211632796
34748,Lake County,FL,16.047652417659425
30005,Fulton County,GA,57.953749124036435
30013,Rockdale County,GA,36.37000700770848
30016,Newton County,GA,10.2312543798178
30021,DeKalb County,GA,66.9936930623686
30046,Gwinnett County,GA,37.91170287316047
30092,Gwinnett County,GA,51.016117729502454
30115,Cherokee County,GA,31.32445690259285
30127,Cobb County,GA,14.505956552207428
30143,Pickens County,GA,51.50665732305536
30180,Carroll County,GA,18.500350385423967
30214,Fayette County,GA,44.07848633496847
30293,Meriwether County,GA,99.92992291520673
30308,Fulton County,GA,65.7323055360897
30315,Fulton County,GA,22.985283812193412
30901,Richmond County,GA,80.09810791871058
31320,Liberty County,GA,68.88577435178696
31322,Chatham County,GA,93.13244569025927
96732,Maui County,HI,85.07358093903294
96786,Honolulu County,HI,55.080588647512265
96792,Honolulu County,HI,32.445690259285215
96818,Honolulu County,HI,42.396636299929924
83301,Twin Falls County,ID,50.385423966363
83336,Minidoka County,ID,95.09460406447093
83607,Canyon County,ID,30.623686054660126
83706,Ada County,ID,50.8759635599159
60013,McHenry County,IL,46.671338472319555
60016,Cook County,IL,73.1604765241766
60045,Lake County,IL,71.26839523475823
60056,Cook County,IL,31.18430273300631
60073,Lake County,IL,12.543798177995797
60089,Lake County,IL,31.674842326559215
60134,Kane County,IL,77.15487035739314
60176,Cook County,IL,71.6187806587246
60189,DuPage County,IL,28.100911002102315
60201,Cook County,IL,76.94463910301332
60202,Cook County,IL,74.9124036440084
60406,Cook County,IL,43.93833216538192
60451,Will County,IL,41.906096706377014
60467,Cook County,IL,40.784863349684656
60491,Will County,IL,28.451296426068673
60504,DuPage County,IL,84.23265592151367
60540,DuPage County,IL,22.63489838822705
60542,Kane County,IL,54.73020322354591
60543,Kendall County,IL,28.801681850035038
60545,Kendall County,IL,56.412053258584436
60559,DuPage County,IL,83.32165381920113
60560,Kendall County,IL,87.4562018220042
60563,DuPage County,IL,36.29992992291521
60618,Cook County,IL,6.447091800981079
60622,Cook County,IL,29.572529782761038
60625,Cook County,IL,8.829712683952348
60626,Cook County,IL,41.345480028030835
60629,Cook County,IL,4.344779257182902
60631,Cook County,IL,24.8072880168185
60637,Cook County,IL,12.333566923615978
60644,Cook County,IL,25.017519271198317
60652,Cook County,IL,22.564821303433778
60655,Cook County,IL,67.7645409950946
60901,Kankakee County,IL,13.314646110721796
61350,LaSalle County,IL,38.82270497547302
61866,Champaign County,IL,33.07638402242466
62236,Monroe County,IL,98.59845830413455
46001,Madison County,IN,79.18710581639805
46135,Putnam County,IN,55.9915907498248
46218,Marion County,IN,56.55220742817099
46219,Marion County,IN,9.600560616678345
46221,Marion County,IN,23.055360896986684
46222,Marion County,IN,15.697266993693063
46239,Marion County,IN,44.919411352487735
46241,Marion County,IN,15.977575332866154
46311,Lake County,IN,25.718290119131044
46321,Lake County,IN,27.680448493342674
46350,LaPorte County,IN,6.937631394533987
46356,Lake County,IN,24.386825508058866
46373,Lake County,IN,51.85704274702172
46403,Lake County,IN,57.18290119131044
46526,Elkhart County,IN,72.95024526979678
46805,Allen County,IN,70.21723896285914
46806,Allen County,IN,21.723896285914506
46901,Howard County,IN,1.1913104414856344
46947,Cass County,IN,49.194113524877366
47025,Dearborn County,IN,32.37561317449194
47043,Switzerland County,IN,92.64190609670638
47274,Jackson County,IN,22.004204625087596
47302,Delaware County,IN,68.46531184302734
47362,Henry County,IN,16.818500350385424
47591,Knox County,IN,28.381219341275404
47670,Gibson County,IN,68.39523475823405
47710,Vanderburgh County,IN,57.11282410651717
47711,Vanderburgh County,IN,87.59635599159074
47713,Vanderburgh County,IN,90.88997897687456
47714,Vanderburgh County,IN,63.770147161878064
47715,Vanderburgh County,IN,23.68605466012614
50126,Hardin County,IA,75.89348283111423
50428,Cerro Gordo County,IA,70.98808689558514
50616,Floyd County,IA,78.62648913805185
50648,Buchanan County,IA,98.52838121934127
51501,Pottawattamie County,IA,2.0322354590049057
51503,Pottawattamie County,IA,6.517168885774352
51601,Page County,IA,87.73651016117729
51632,Page County,IA,66.57323055360898
52246,Johnson County,IA,48.703573931324456
52302,Linn County,IA,16.53819201121233
52404,Linn County,IA,6.797477224947442
66061,Johnson County,KS,41.6958654519972
66086,Leavenworth County,KS,82.76103714085494
66502,Riley County,KS,83.18149964961458
67230,Sedgwick County,KS,96.28591450595655
40351,Rowan County,KY,16.888577435178696
40361,Bourbon County,KY,28.941836019621586
40403,Madison County,KY,77.7855641205326
40508,Fayette County,KY,55.43097407147862
40511,Fayette County,KY,31.04414856341976
41018,Kenton County,KY,20.042046250875963
41048,Boone County,KY,73.09039943938332
42003,McCracken County,KY,11.702873160476523
42066,Graves County,KY,17.729502452697968
42171,Warren County,KY,71.89908899789769
70005,Jefferson Parish,LA,26.97967764540995
70053,Jefferson Parish,LA,90.67974772249474
70065,Jefferson Parish,LA,2.8030833917309037
70072,Jefferson Parish,LA,60.75683251576734
70115,Orleans Parish,LA,56.97266993693062
70122,Orleans Parish,LA,47.02172389628592
70123,Jefferson Parish,LA,14.786264891380519
70126,Orleans Parish,LA,36.44008409250175
70131,Orleans Parish,LA,63.980378416257885
70363,Terrebonne Parish,LA,2.662929222144359
70364,Terrebonne Parish,LA,5.956552207428171
70517,St. Martin Parish,LA,10.441485634197617
70560,Iberia Parish,LA,60.12613875262789
70570,St. Landry Parish,LA,18.9208128941836
70706,Livingston Parish,LA,77.64540995094605
70767,West Baton Rouge Parish,LA,99.36930623686054
70770,East Baton Rouge Parish,LA,95.02452697967765
70785,Livingston Parish,LA,14.01541695865452
70802,East Baton Rouge Parish,LA,48.63349684653118
70805,East Baton Rouge Parish,LA,48.14295725297828
70808,East Baton Rouge Parish,LA,35.248773651016116
70816,East Baton Rouge Parish,LA,83.46180798878765
71037,Bossier Parish,LA,14.29572529782761
71047,Caddo Parish,LA,92.22144358794674
71078,De Soto Parish,LA,94.95444989488438
71101,Caddo Parish,LA,96.42606867554309
71106,Caddo Parish,LA,4.625087596355992
71107,Caddo Parish,LA,89.34828311142256
71108,Caddo Parish,LA,66.71338472319552
71109,Caddo Parish,LA,38.051857042747024
71111,Bossier Parish,LA,55.71128241065172
71112,Bossier Parish,LA,49.964961457603366
71118,Caddo Parish,LA,91.87105816398038
71119,Caddo Parish,LA,48.00280308339173
71202,Ouachita Parish,LA,97.68745620182202
71483,Winn Parish,LA,31.394533987386126
04002,York County,ME,65.10161177295024
04072,York County,ME,60.05606166783461
04073,York County,ME,19.341275402943236
04106,Cumberland County,ME,93.27259985984583
04240,Androscoggin County,ME,1.261387526278907
04330,Kennebec County,ME,20.882971268395234
04736,Aroostook County,ME,42.04625087596356
04938,Franklin County,ME,41.065171688857745
20708,Prince George's County,MD,92.50175192711984
20861,Montgomery County,MD,100
20876,Montgomery County,MD,56.48213034337771
20895,Montgomery County,MD,80.86895585143658
20906,Montgomery County,MD,43.02733006306937
21009,Harford County,MD,89.13805185704274
21032,Anne Arundel County,MD,94.74421864050456
21044,Howard County,MD,38.8927820602663
21048,Carroll County,MD,83.88227049754731
21050,Harford County,MD,60.82690960056062
21117,Baltimore County,MD,23.475823405746322
21122,Anne Arundel County,MD,25.087596355991593
21209,Baltimore County,MD,51.716888577435185
21210,Baltimore city,MD,83.1114225648213
21213,Baltimore city,MD,15.13665031534688
21228,Baltimore County,MD,92.15136650315347
21230,Baltimore city,MD,28.03083391730904
21234,Baltimore County,MD,36.86054660126139
21632,Caroline County,MD,76.52417659425367
01007,Hampshire County,MA,39.87386124737211
01027,Hampshire County,MA,9.390329362298528
01040,Hampden County,MA,0.8409250175192713
01105,Hampden County,MA,38.96285914505956
01109,Hampden County,MA,1.4015416958654519
01119,Hampden County,MA,12.754029432375614
01238,Berkshire County,MA,43.30763840224247
01331,Worcester County,MA,3.2235459004905396
01469,Middlesex County,MA,65.7323055360897
01540,Worcester County,MA,74.49194113524878
01581,Worcester County,MA,70.63770147161878
01603,Worcester County,MA,56.131744919411354
01604,Worcester County,MA,5.185704274702172
01605,Worcester County,MA,8.269096005606166
01702,Middlesex County,MA,79.39733707077785
01719,Middlesex County,MA,92.92221443587947
01721,Middlesex County,MA,54.51997196916608
01730,Middlesex County,MA,53.9593552908199
01740,Worcester County,MA,89.90889978976875
01772,Worcester County,MA,84.02242466713385
01778,Middlesex County,MA,69.65662228451296
01801,Middlesex County,MA,0.7708479327259986
01810,Essex County,MA,10.581639803784162
01824,Middlesex County,MA,75.82340574632094
01826,Middlesex County,MA,16.95865451997197
01841,Essex County,MA,23.615977575332867
01843,Essex County,MA,61.45760336370007
01844,Essex County,MA,0.7007708479327259
01864,Middlesex County,MA,38.542396636299934
01887,Middlesex County,MA,72.03924316748423
01902,Essex County,MA,7.56832515767344
01906,Essex County,MA,1.6818500350385426
01923,Essex County,MA,2.242466713384723
01950,Essex County,MA,58.58444288717589
01960,Essex County,MA,0.42046250875963564
01970,Essex County,MA,5.39593552908199
01982,Essex County,MA,63.62999299229152
02026,Norfolk County,MA,3.2936229852838124
02072,Norfolk County,MA,26.278906797477227
02119,Suffolk County,MA,78.06587245970567
02121,Suffolk County,MA,2.3826208829712687
02124,Suffolk County,MA,59.56552207428171
02125,Suffolk County,MA,0.2803083391730904
02130,Suffolk County,MA,15.487035739313246
02131,Suffolk County,MA,20.18220042046251
02136,Suffolk County,MA,50.45550105115627
02139,Middlesex County,MA,0.1401541695865452
02144,Middlesex County,MA,15.837421163279608
02148,Middlesex County,MA,0.35038542396636296
02150,Suffolk County,MA,10.091100210231255
02151,Suffolk County,MA,0.0700770847932726
02155,Middlesex County,MA,14.085494043447794
02170,Norfolk County,MA,53.048353188507356
02176,Middlesex County,MA,5.606166783461807
02180,Middlesex County,MA,10.021023125437981
02190,Norfolk County,MA,21.934127540294323
02301,Plymouth County,MA,0
02332,Plymouth County,MA,89.7687456201822
02368,Norfolk County,MA,62.78906797477225
02370,Plymouth County,MA,35.31885073580939
02451,Middlesex County,MA,47.58234057463209
02453,Middlesex County,MA,7.077785564120533
02472,Middlesex County,MA,22.91520672740014
02474,Middlesex County,MA,10.721793973370708
02481,Norfolk County,MA,82.48072880168185
02532,Barnstable County,MA,44.98948843728101
02554,Nantucket County,MA,54.94043447792571
02648,Barnstable County,MA,66.01261387526279
02717,Bristol County,MA,90.11913104414856
02760,Bristol County,MA,30.41345480028031
02790,Bristol County,MA,43.79817799579537
48005,Macomb County,MI,83.74211632796076
48021,Macomb County,MI,8.409250175192712
48042,Macomb County,MI,17.098808689558513
48065,Macomb County,MI,65.45199719691661
48066,Macomb County,MI,27.960756832515766
48076,Oakland County,MI,53.60896986685354
48093,Macomb County,MI,15.346881569726701
48101,Wayne County,MI,18.29011913104415
48116,Livingston County,MI,49.82480728801682
48117,Monroe County,MI,43.02733006306937
48126,Wayne County,MI,8.199018920812893
48146,Wayne County,MI,62.929222144358796
48150,Wayne County,MI,48.84372810091101
48162,Monroe County,MI,9.880868955851437
48170,Wayne County,MI,11.002102312543798
48178,Oakland County,MI,26.138752627890682
48185,Wayne County,MI,20.322354590049056
48187,Wayne County,MI,46.11072179397337
48188,Wayne County,MI,10.2312543798178
48197,Washtenaw County,MI,1.3314646110721795
48198,Washtenaw County,MI,12.263489838822705
48201,Wayne County,MI,30.763840224246668
48203,Wayne County,MI,11.84302733006307
48219,Wayne County,MI,3.433777154870357
48220,Oakland County,MI,65.17168885774352
48228,Wayne County,MI,8.89978976874562
48237,Oakland County,MI,59.0749824807288
48238,Wayne County,MI,19.271198318149967
48306,Oakland County,MI,34.05746320953048
48310,Macomb County,MI,54.30974071478627
48322,Oakland County,MI,62.57883672039243
48323,Oakland County,MI,44.56902592852137
48327,Oakland County,MI,25.29782761037141
48331,Oakland County,MI,84.58304134548003
48340,Oakland County,MI,67.13384723195514
48342,Oakland County,MI,11.632796075683252
48359,Oakland County,MI,90.96005606166784
48377,Oakland County,MI,54.16958654519972
48382,Oakland County,MI,39.03293622985284
48505,Genesee County,MI,14.155571128241066
48507,Genesee County,MI,79.74772249474422
48603,Saginaw County,MI,9.4604064470918
48661,Ogemaw County,MI,95.44498948843729
48739,Iosco County,MI,90.81990189208129
48843,Livingston County,MI,32.725998598458304
48855,Livingston County,MI,61.94814295725298
48876,Eaton County,MI,99.78976874562018
48879,Clinton County,MI,40.084092501751925
48895,Ingham County,MI,71.40854940434478
48906,Ingham County,MI,33.216538192011214
48910,Ingham County,MI,9.320252277505256
49009,Kalamazoo County,MI,9.600560616678345
49010,Allegan County,MI,34.47792571829012
49024,Kalamazoo County,MI,21.093202522775055
49071,Van Buren County,MI,81.56972669936931
49085,Berrien County,MI,71.75893482831114
49203,Jackson County,MI,5.746320953048353
49348,Allegan County,MI,25.5781359495445
49418,Kent County,MI,58.654519971969165
49503,Kent County,MI,8.759635599159076
49504,Kent County,MI,77.08479327259987
49507,Kent County,MI,3.5739313244569026
49519,Kent County,MI,73.58093903293623
49546,Kent County,MI,29.852838121934127
49735,Otsego County,MI,25.788367203924317
49829,Delta County,MI,70.49754730203223
49855,Marquette County,MI,52.4176594253679
55005,Anoka County,MN,99.57953749124037
55046,Rice County,MN,97.05676243868255
55051,Kanabec County,MN,48.983882270497546
55056,Chisago County,MN,69.37631394533987
55103,Ramsey County,MN,64.9614576033637
55106,Ramsey County,MN,5.1156271899089
55112,Ramsey County,MN,32.2354590049054
55122,Dakota County,MN,78.2761037140855
55336,McLeod County,MN,58.72459705676244
55372,Scott County,MN,49.05395935529082
55398,Sherburne County,MN,64.75122634898388
55403,Hennepin County,MN,17.939733707077785
55404,Hennepin County,MN,27.470217238962856
55410,Hennepin County,MN,76.17379117028732
55411,Hennepin County,MN,78.90679747722494
55412,Hennepin County,MN,6.867554309740714
55416,Hennepin County,MN,82.55080588647512
55422,Hennepin County,MN,23.826208829712684
55423,Hennepin County,MN,76.10371408549405
55425,Hennepin County,MN,63.48983882270498
55432,Anoka County,MN,18.220042046250875
55448,Anoka County,MN,32.165381920112125
55734,St. Louis County,MN,65.38192011212334
55744,Itasca County,MN,92.92221443587947
55792,St. Louis County,MN,28.661527680448494
55803,St. Louis County,MN,56.76243868255081
55811,St. Louis County,MN,23.405746320953046
56001,Blue Earth County,MN,53.46881569726699
56007,Freeborn County,MN,53.67904695164681
56073,Brown County,MN,17.23896285914506
56085,Brown County,MN,94.25367904695165
56187,Nobles County,MN,55.781359495444995
56345,Morrison County,MN,68.25508058864752
56347,Todd County,MN,73.51086194814296
56470,Hubbard County,MN,55.781359495444995
56474,Cass County,MN,96.49614576033638
56636,Itasca County,MN,65.03153468815698
56721,Polk County,MN,43.868255080588646
56751,Roseau County,MN,79.5374912403644
38666,Panola County,MS,95.65522074281711
38671,DeSoto County,MS,26.48913805185704
38801,Lee County,MS,30.693763139453402
38941,Leflore County,MS,99.85984583041345
39063,Holmes County,MS,95.23475823405747
39170,Hinds County,MS,73.23055360896986
39194,Yazoo County,MS,90.04905395935529
39206,Hinds County,MS,22.63489838822705
39208,Rankin County,MS,74.14155571128241
39213,Hinds County,MS,27.75052557813595
39426,Pearl River County,MS,45.2697967764541
39466,Pearl River County,MS,20.74281709880869
63010,Jefferson County,MO,30.903994393833216
63011,St. Louis County,MO,61.17729502452698
63026,St. Louis County,MO,56.97266993693062
63049,Jefferson County,MO,65.31184302733007
63080,Franklin County,MO,35.59915907498248
63109,St. Louis city,MO,84.37281009110022
63110,St. Louis city,MO,69.7967764540995
63114,St. Louis County,MO,20.112123335669235
63301,St. Charles County,MO,10.932025227750525
63366,St. Charles County,MO,32.2354590049054
63368,St. Charles County,MO,62.018220042046245
63376,St. Charles County,MO,7.8486334968465314
63385,St. Charles County,MO,12.754029432375614
64040,Johnson County,MO,72.17939733707078
64052,Jackson County,MO,8.33917309039944
64063,Jackson County,MO,30.763840224246668
64068,Clay County,MO,6.657323055360898
64089,Clay County,MO,42.25648213034338
64109,Jackson County,MO,75.75332866152769
64110,Jackson County,MO,83.95234758234056
64117,Clay County,MO,58.093903293622986
64124,Jackson County,MO,61.24737210932025
64128,Jackson County,MO,15.767344078486333
64134,Jackson County,MO,10.371408549404345
64138,Jackson County,MO,9.110021023125437
64836,Jasper County,MO,14.716187806587246
64854,McDonald County,MO,82.20042046250876
65613,Polk County,MO,94.67414155571127
59102,Yellowstone County,MT,34.68815697266994
59803,Missoula County,MT,77.5052557813595
59923,Lincoln County,MT,50.805886475122634
68128,Sarpy County,NE,70.0770847932726
68164,Douglas County,NE,95.30483531885073
68505,Lancaster County,NE,98.17799579537491
69337,Dawes County,NE,91.80098107918711
89433,Washoe County,NV,31.464611072179398
89502,Washoe County,NV,15.557112824106516
03062,Hillsborough County,NH,39.73370707778556
03079,Rockingham County,NH,12.193412754029433
03087,Rockingham County,NH,39.24316748423266
03225,Belknap County,NH,99.01892081289418
03249,Belknap County,NH,80.37841625788367
03848,Rockingham County,NH,82.13034337771549
03878,Strafford County,NH,71.40854940434478
07017,Essex County,NJ,11.56271899088998
07060,Union County,NJ,4.905395935529082
07065,Union County,NJ,17.939733707077785
07080,Middlesex County,NJ,46.461107217939734
07103,Essex County,NJ,52.55781359495445
07304,Hudson County,NJ,13.594954449894884
07410,Bergen County,NJ,67.90469516468114
07419,Sussex County,NJ,98.38822704975473
07420,Passaic County,NJ,86.26489138051858
07436,Bergen County,NJ,93.833216538192
07463,Bergen County,NJ,94.18360196215836
07514,Passaic County,NJ,52.277505255781364
07631,Bergen County,NJ,22.42466713384723
07860,Sussex County,NJ,20.74281709880869
07871,Sussex County,NJ,45.55010511562719
07932,Morris County,NJ,83.67203924316749
07960,Morris County,NJ,40.64470918009811
08012,Camden County,NJ,3.9943938332165385
08015,Burlington County,NJ,12.053258584442887
08016,Burlington County,NJ,39.45339873861247
08021,Camden County,NJ,0.21023125437981782
08030,Camden County,NJ,16.67834618079888
08033,Camden County,NJ,78.55641205325858
08034,Camden County,NJ,27.25998598458304
08043,Camden County,NJ,63.559915907498244
08046,Burlington County,NJ,21.653819201121234
08053,Burlington County,NJ,90.74982480728802
08054,Burlington County,NJ,46.60126138752628
08055,Burlington County,NJ,87.38612473721093
08056,Gloucester County,NJ,99.50946040644709
08057,Burlington County,NJ,84.16257883672039
08068,Burlington County,NJ,49.33426769446391
08077,Burlington County,NJ,25.92852137351086
08080,Gloucester County,NJ,30.343377715487037
08081,Camden County,NJ,0.9110021023125439
08085,Gloucester County,NJ,46.25087596355992
08096,Gloucester County,NJ,17.659425367904696
08097,Gloucester County,NJ,99.64961457603364
08106,Camden County,NJ,95.93552908199018
08109,Camden County,NJ,15.206727400140155
08110,Camden County,NJ,34.19761737911703
08205,Atlantic County,NJ,13.17449194113525
08226,Cape May County,NJ,73.79117028731605
08244,Atlantic County,NJ,29.36229852838122
08302,Cumberland County,NJ,62.43868255080589
08558,Somerset County,NJ,98.24807288016818
08611,Mercer County,NJ,19.62158374211633
08618,Mercer County,NJ,72.38962859145059
08690,Mercer County,NJ,33.63700070077085
08854,Middlesex County,NJ,6.306937631394534
08857,Middlesex County,NJ,6.166783461807989
08859,Middlesex County,NJ,79.88787666433076
08861,Middlesex County,NJ,87.17589348283111
08865,Warren County,NJ,3.363700070077085
08873,Somerset County,NJ,52.768044849334274
08901,Middlesex County,NJ,93.62298528381218
87013,Sandoval County,NM,87.94674141555711
87031,Valencia County,NM,22.14435879467414
87059,Bernalillo County,NM,81.99018920812894
87105,Bernalillo County,NM,2.522775052557814
87107,Bernalillo County,NM,25.508058864751227
87110,Bernalillo County,NM,9.250175192711984
87111,Bernalillo County,NM,41.836019621583745
87401,San Juan County,NM,38.26208829712684
87505,Santa Fe County,NM,19.20112123335669
10002,New York County,NY,58.864751226348986
10013,New York County,NY,74.4218640504555
10023,New York County,NY,84.6531184302733
10034,New York County,NY,26.48913805185704
10035,New York County,NY,3.9243167484232657
10040,New York County,NY,54.16958654519972
10452,Bronx County,NY,12.40364400840925
10454,Bronx County,NY,37.21093202522775
10455,Bronx County,NY,43.7281009110021
10456,Bronx County,NY,6.377014716187807
10457,Bronx County,NY,19.831814996496146
10458,Bronx County,NY,17.449194113524875
10460,Bronx County,NY,79.25718290119131
10462,Bronx County,NY,80.44849334267694
10466,Bronx County,NY,2.943237561317449
10468,Bronx County,NY,18.570427470217236
10530,Westchester County,NY,97.54730203223546
10960,Rockland County,NY,75.61317449194114
11103,Queens County,NY,60.33637000700771
11203,Kings County,NY,7.498248072880168
11204,Kings County,NY,50.10511562718991
11205,Kings County,NY,61.31744919411353
11207,Kings County,NY,10.51156271899089
11208,Kings County,NY,0.4905395935529082
11210,Kings County,NY,33.77715487035739
11212,Kings County,NY,39.94393833216538
11213,Kings County,NY,19.13104414856342
11214,Kings County,NY,12.473721093202522
11215,Kings County,NY,26.629292221443592
11218,Kings County,NY,78.48633496846531
11221,Kings County,NY,1.751927119831815
11226,Kings County,NY,51.716888577435185
11231,Kings County,NY,81.92011212333567
11232,Kings County,NY,50.24526979677646
11233,Kings County,NY,1.051156271899089
11235,Kings County,NY,60.54660126138752
11237,Kings County,NY,46.53118430273301
11368,Queens County,NY,72.8801681850035
11372,Queens County,NY,88.36720392431675
11373,Queens County,NY,51.64681149264191
11377,Queens County,NY,13.735108619481428
11418,Queens County,NY,64.33076384022425
11421,Queens County,NY,70.63770147161878
11429,Queens County,NY,89.27820602662929
11550,Nassau County,NY,59.49544498948843
11552,Nassau County,NY,72.59985984583042
11580,Nassau County,NY,47.93272599859846
11691,Queens County,NY,42.53679046951647
11692,Queens County,NY,68.32515767344078
11706,Suffolk County,NY,44.77925718290119
11779,Suffolk County,NY,81.42957252978276
12020,Saratoga County,NY,15.346881569726701
12203,Albany County,NY,29.922915206727403
12834,Washington County,NY,88.43728100911002
12916,Franklin County,NY,98.73861247372109
12986,Franklin County,NY,53.81920112123336
13203,Onondaga County,NY,40.854940434477925
13204,Onondaga County,NY,48.35318850735809
13208,Onondaga County,NY,48.91380518570428
13210,Onondaga County,NY,27.890679747722498
13340,Herkimer County,NY,44.98948843728101
13365,Herkimer County,NY,26.839523475823405
13660,St. Lawrence County,NY,98.24807288016818
13760,Broome County,NY,78.13594954449896
13778,Chenango County,NY,51.92711983181499
13790,Broome County,NY,27.049754730203222
13815,Chenango County,NY,85.42396636299931
13820,Otsego County,NY,7.778556412053258
13849,Otsego County,NY,67.97477224947443
13901,Broome County,NY,2.452697967764541
14072,Erie County,NY,61.80798878766643
14075,Erie County,NY,74.77224947442186
14086,Erie County,NY,86.1948142957253
14092,Niagara County,NY,40.22424667133847
14125,Genesee County,NY,76.31394533987385
14150,Erie County,NY,4.064470918009811
14201,Erie County,NY,37.42116327960757
14210,Erie County,NY,48.213034337771546
14211,Erie County,NY,42.81709880868956
14213,Erie County,NY,14.926419060967064
14214,Erie County,NY,24.31674842326559
14217,Erie County,NY,20.25227750525578
14223,Erie County,NY,66.64330763840223
14225,Erie County,NY,6.587245970567625
14305,Niagara County,NY,3.7140854940434482
14424,Ontario County,NY,1.6117729502452698
14433,Wayne County,NY,47.65241765942537
14456,Ontario County,NY,60.686755430974074
14489,Wayne County,NY,25.367904695164682
14513,Wayne County,NY,3.50385423966363
14526,Monroe County,NY,11.913104414856342
14534,Monroe County,NY,4.695164681149264
14580,Monroe County,NY,5.045550105115628
14606,Monroe County,NY,13.17449194113525
14608,Monroe County,NY,49.754730203223545
14613,Monroe County,NY,9.18009810791871
14618,Monroe County,NY,13.034337771548705
14619,Monroe County,NY,34.75823405746321
14620,Monroe County,NY,36.08969866853539
14621,Monroe County,NY,3.78416257883672
14626,Monroe County,NY,1.89208128941836
14701,Chautauqua County,NY,13.45480028030834
27030,Surry County,NC,4.835318850735809
27107,Forsyth County,NC,2.7330063069376314
27299,Davidson County,NC,78.83672039243167
27301,Guilford County,NC,92.29152067274
27312,Chatham County,NC,90.60967063770147
27405,Guilford County,NC,8.61948142957253
27407,Guilford County,NC,14.856341976173793
27410,Guilford County,NC,24.597056762438683
27520,Johnston County,NC,53.889278206026624
27536,Vance County,NC,66.9936930623686
27540,Wake County,NC,36.019621583742115
27587,Wake County,NC,44.42887175893483
27604,Wake County,NC,54.51997196916608
27609,Wake County,NC,28.170988086895587
27616,Wake County,NC,16.327960756832518
27701,Durham County,NC,78.20602662929223
27703,Durham County,NC,29.712683952347586
27704,Durham County,NC,30.97407147862649
27713,Durham County,NC,62.85914505956553
27850,Halifax County,NC,91.94113524877365
27856,Nash County,NC,66.08269096005606
28078,Mecklenburg County,NC,24.52697967764541
28117,Iredell County,NC,97.47722494744218
28208,Mecklenburg County,NC,7.217939733707078
28269,Mecklenburg County,NC,10.651716888577436
28374,Moore County,NC,86.40504555010511
28379,Richmond County,NC,13.104414856341975
28659,Wilkes County,NC,43.44779257182901
28734,Macon County,NC,73.65101611772951
28771,Graham County,NC,61.59775753328661
28906,Cherokee County,NC,38.75262789067975
58078,Cass County,ND,20.392431674842328
58474,Dickey County,ND,98.80868955851436
58701,Ward County,ND,46.25087596355992
43031,Licking County,OH,92.78206026629292
43110,Franklin County,OH,45.690259285213735
43130,Fairfield County,OH,0.9810791871058164
43160,Fayette County,OH,62.718990889978976
43201,Franklin County,OH,36.510161177295025
43205,Franklin County,OH,91.10021023125438
43211,Franklin County,OH,8.549404344779257
43213,Franklin County,OH,56.2718990889979
43223,Franklin County,OH,4.134548002803083
43224,Franklin County,OH,3.854239663629993
43229,Franklin County,OH,4.484933426769446
43232,Franklin County,OH,42.9572529782761
43235,Franklin County,OH,35.52908199018921
43302,Marion County,OH,11.422564821303434
43522,Wood County,OH,97.33707077785564
43537,Lucas County,OH,22.35459004905396
43551,Wood County,OH,33.707077785564124
43605,Lucas County,OH,46.180798878766645
43606,Lucas County,OH,37.63139453398738
43607,Lucas County,OH,4.274702172389628
43608,Lucas County,OH,54.44989488437281
43611,Lucas County,OH,71.54870357393133
43612,Lucas County,OH,66.43307638402243
43615,Lucas County,OH,28.731604765241762
43620,Lucas County,OH,81.70988086895585
43701,Muskingum County,OH,4.555010511562719
43713,Belmont County,OH,74.56201822004205
43787,Morgan County,OH,96.98668535388929
43952,Jefferson County,OH,23.826208829712684
43968,Columbiana County,OH,68.11492641906096
44001,Lorain County,OH,22.494744218640506
44076,Ashtabula County,OH,85.28381219341276
44094,Lake County,OH,14.576033637000702
44102,Cuyahoga County,OH,40.71478626489138
44103,Cuyahoga County,OH,78.69656622284514
44104,Cuyahoga County,OH,74.00140154169587
44108,Cuyahoga County,OH,47.86264891380518
44109,Cuyahoga County,OH,77.71548703573932
44110,Cuyahoga County,OH,75.9635599159075
44111,Cuyahoga County,OH,53.328661527680445
44112,Cuyahoga County,OH,6.166783461807989
44115,Cuyahoga County,OH,51.36650315346881
44118,Cuyahoga County,OH,74.07147862648914
44120,Cuyahoga County,OH,1.9621583742116329
44121,Cuyahoga County,OH,7.358093903293623
44124,Cuyahoga County,OH,73.44078486334968
44126,Cuyahoga County,OH,89.83882270497547
44128,Cuyahoga County,OH,54.66012613875263
44130,Cuyahoga County,OH,45.199719691660825
44132,Cuyahoga County,OH,18.85073580939033
44133,Cuyahoga County,OH,64.82130343377716
44135,Cuyahoga County,OH,27.330063069376315
44137,Cuyahoga County,OH,74.21163279607569
44138,Cuyahoga County,OH,89.55851436580238
44146,Cuyahoga County,OH,4.695164681149264
44149,Cuyahoga County,OH,34.05746320953048
44212,Medina County,OH,27.820602662929222
44236,Summit County,OH,86.75543097407147
44305,Summit County,OH,34.40784863349685
44310,Summit County,OH,8.479327259985984
44314,Summit County,OH,20.953048353188507
44432,Columbiana County,OH,52.48773651016118
44440,Trumbull County,OH,94.8843728100911
44460,Columbiana County,OH,16.1177295024527
44511,Mahoning County,OH,18.36019621583742
44512,Mahoning County,OH,7.988787666433077
44646,Stark County,OH,7.4281709880868965
44647,Stark County,OH,39.52347582340575
44704,Stark County,OH,88.08689558514365
44706,Stark County,OH,25.998598458304134
44805,Ashland County,OH,33.4968465311843
44830,Seneca County,OH,13.945339873861249
44857,Huron County,OH,17.30903994393833
45002,Hamilton County,OH,69.86685353889278
45011,Butler County,OH,1.4716187806587244
45013,Butler County,OH,2.102312543798178
45014,Butler County,OH,52.62789067974772
45039,Warren County,OH,38.19201121233357
45040,Warren County,OH,53.18850735809391
45044,Butler County,OH,76.80448493342676
45066,Warren County,OH,50.59565522074282
45069,Butler County,OH,45.33987386124737
45102,Clermont County,OH,28.52137351086195
45107,Clinton County,OH,96.21583742116327
45133,Highland County,OH,16.18780658724597
45135,Highland County,OH,97.54730203223546
45140,Clermont County,OH,62.508759635599155
45167,Brown County,OH,86.82550805886476
45204,Hamilton County,OH,75.6832515767344
45205,Hamilton County,OH,92.0812894183602
45212,Hamilton County,OH,93.76313945339874
45213,Hamilton County,OH,65.66222845129643
45214,Hamilton County,OH,88.9978976874562
45227,Hamilton County,OH,38.33216538192011
45229,Hamilton County,OH,85.00350385423965
45230,Hamilton County,OH,41.97617379117028
45231,Hamilton County,OH,24.737210932025228
45232,Hamilton County,OH,83.53188507358094
45236,Hamilton County,OH,42.116327960756834
45238,Hamilton County,OH,87.31604765241767
45239,Hamilton County,OH,12.894183601962158
45240,Hamilton County,OH,47.79257182901191
45241,Hamilton County,OH,58.30413454800281
45242,Hamilton County,OH,94.60406447091802
45245,Clermont County,OH,95.72529782761036
45246,Hamilton County,OH,83.25157673440785
45248,Hamilton County,OH,43.93833216538192
45331,Darke County,OH,20.60266292922214
45356,Miami County,OH,11.212333566923615
45365,Shelby County,OH,75.05255781359496
45371,Miami County,OH,44.148563419761736
45373,Miami County,OH,4.9754730203223545
45385,Greene County,OH,59.845830413454806
45405,Montgomery County,OH,18.990889978976874
45417,Montgomery County,OH,25.998598458304134
45420,Montgomery County,OH,20.672740014015417
45424,Montgomery County,OH,58.163980378416255
45505,Clark County,OH,23.54590049053959
45601,Ross County,OH,11.772950245269795
45631,Gallia County,OH,57.88367203924317
45638,Lawrence County,OH,3.153468815697267
45648,Scioto County,OH,62.99929922915207
45653,Scioto County,OH,85.28381219341276
45656,Jackson County,OH,92.43167484232656
45662,Scioto County,OH,37.98177995795375
45690,Pike County,OH,78.7666433076384
45694,Scioto County,OH,49.82480728801682
45697,Adams County,OH,93.41275402943238
45732,Athens County,OH,85.07358093903294
45771,Meigs County,OH,70.14716187806587
45780,Athens County,OH,86.33496846531185
45833,Allen County,OH,50.94604064470918
45840,Hancock County,OH,37.000700770847935
45875,Putnam County,OH,57.603363700070076
73160,Cleveland County,OK,9.530483531885075
74106,Tulsa County,OK,29.292221443587945
74601,Kay County,OK,82.97126839523476
97006,Washington County,OR,23.12543798177996
97015,Clackamas County,OR,42.74702172389628
97031,Hood River County,OR,80.3083391730904
97089,Clackamas County,OR,71.96916608269096
97103,Clatsop County,OR,44.28871758934828
97124,Washington County,OR,21.513665031534686
97138,Clatsop County,OR,74.63209530483532
97201,Multnomah County,OR,97.12683952347582
97212,Multnomah County,OR,52.97827610371408
97217,Multnomah County,OR,31.74491941135249
97224,Washington County,OR,69.5865451997197
97232,Multnomah County,OR,72.66993693062369
97301,Marion County,OR,9.950946040644709
97302,Marion County,OR,33.84723195515066
97317,Marion County,OR,60.82690960056062
97365,Lincoln County,OR,62.57883672039243
97383,Marion County,OR,68.67554309740714
97420,Coos County,OR,39.3833216538192
97502,Jackson County,OR,59.705676243868254
97503,Jackson County,OR,52.62789067974772
97741,Jefferson County,OR,63.62999299229152
97818,Morrow County,OR,91.73090399439383
97850,Union County,OR,59.915907498248075
15003,Beaver County,PA,80.72880168185004
15120,Allegheny County,PA,34.968465311843026
15122,Allegheny County,PA,40.36440084092502
15209,Allegheny County,PA,72.52978276103714
15210,Allegheny County,PA,35.66923615977575
15212,Allegheny County,PA,19.41135248773651
15221,Allegheny County,PA,13.875262789067975
15226,Allegheny County,PA,80.02803083391731
15235,Allegheny County,PA,41.345480028030835
15236,Allegheny County,PA,36.72039243167484
15301,Washington County,PA,36.65031534688157
15323,Washington County,PA,94.81429572529782
15370,Greene County,PA,40.1541695865452
15417,Fayette County,PA,97.33707077785564
15461,Fayette County,PA,89.41836019621584
15656,Westmoreland County,PA,62.1583742116328
15801,Clearfield County,PA,6.0967063770147165
15825,Jefferson County,PA,64.26068675543097
16125,Mercer County,PA,29.50245269796776
16146,Mercer County,PA,18.36019621583742
16201,Armstrong County,PA,24.45690259285214
16601,Blair County,PA,79.11702873160476
16693,Blair County,PA,99.29922915206727
16823,Centre County,PA,43.65802382620883
16830,Clearfield County,PA,22.214435879467416
16933,Tioga County,PA,83.04134548002803
17003,Lebanon County,PA,36.510161177295025
17011,Cumberland County,PA,95.16468114926418
17034,Dauphin County,PA,98.458304134548
17036,Dauphin County,PA,18.640504555010512
17066,Huntingdon County,PA,61.03714085494043
17202,Franklin County,PA,21.86405045550105
17319,York County,PA,55.57112824106517
17331,York County,PA,5.325858444288718
17350,Adams County,PA,47.44218640504555
17401,York County,PA,35.8093903293623
17404,York County,PA,59.63559915907498
17543,Lancaster County,PA,18.780658724597057
17552,Lancaster County,PA,59.28521373510862
17701,Lycoming County,PA,3.0833917309039944
17815,Columbia County,PA,37.49124036440084
17821,Montour County,PA,19.97196916608269
17844,Union County,PA,89.62859145059565
17866,Northumberland County,PA,51.226348983882275
17870,Snyder County,PA,66.29292221443588
18014,Northampton County,PA,76.2438682550806
18017,Northampton County,PA,4.414856341976174
18031,Lehigh County,PA,84.86334968465312
18040,Northampton County,PA,57.25297827610372
18042,Northampton County,PA,34.82831114225648
18064,Northampton County,PA,61.66783461807989
18102,Lehigh County,PA,0.6306937631394535
18104,Lehigh County,PA,11.142256482130342
18201,Luzerne County,PA,93.34267694463911
18407,Lackawanna County,PA,77.85564120532585
18508,Lackawanna County,PA,48.35318850735809
18509,Lackawanna County,PA,45.62018220042046
18610,Monroe County,PA,70.28731604765241
18702,Luzerne County,PA,51.92711983181499
18704,Luzerne County,PA,37.14085494043447
18705,Luzerne County,PA,42.32655921513665
18706,Luzerne County,PA,88.92782060266293
18801,Susquehanna County,PA,84.9334267694464
18902,Bucks County,PA,88.2270497547302
18929,Bucks County,PA,81.00911002102312
18944,Bucks County,PA,43.2375613174492
18960,Bucks County,PA,79.95795374912403
18974,Bucks County,PA,60.26629292221444
18976,Bucks County,PA,68.74562018220041
19004,Montgomery County,PA,88.50735809390329
19006,Montgomery County,PA,67.20392431674841
19007,Bucks County,PA,47.51226348983882
19008,Delaware County,PA,85.77435178696567
19010,Delaware County,PA,46.0406447091801
19013,Delaware County,PA,2.172389628591451
19014,Delaware County,PA,62.29852838121934
19020,Bucks County,PA,41.76594253679047
19038,Montgomery County,PA,79.46741415557112
19047,Bucks County,PA,19.551506657323056
19053,Bucks County,PA,77.29502452697969
19055,Bucks County,PA,42.606867554309744
19057,Bucks County,PA,88.85774351786966
19061,Delaware County,PA,50.315346881569724
19063,Delaware County,PA,16.468114926419062
19067,Bucks County,PA,85.49404344779256
19082,Delaware County,PA,46.88156972669937
19090,Montgomery County,PA,94.3938332165382
19106,Philadelphia County,PA,89.69866853538892
19111,Philadelphia County,PA,69.16608269096005
19116,Philadelphia County,PA,80.79887876664331
19122,Philadelphia County,PA,83.6019621583742
19128,Philadelphia County,PA,68.60546601261387
19130,Philadelphia County,PA,29.99299229152067
19133,Philadelphia County,PA,12.12333566923616
19134,Philadelphia County,PA,27.189908899789767
19135,Philadelphia County,PA,64.4709180098108
19136,Philadelphia County,PA,59.215136650315344
19138,Philadelphia County,PA,10.161177295024528
19139,Philadelphia County,PA,2.592852137351086
19141,Philadelphia County,PA,6.026629292221443
19142,Philadelphia County,PA,9.810791871058164
19143,Philadelphia County,PA,0.5606166783461808
19145,Philadelphia County,PA,23.335669236159777
19147,Philadelphia County,PA,14.365802382620881
19149,Philadelphia County,PA,98.94884372810091
19150,Philadelphia County,PA,25.227750525578134
19151,Philadelphia County,PA,63.13945339873861
19152,Philadelphia County,PA,40.43447792571829
19312,Chester County,PA,86.12473721093203
19320,Chester County,PA,7.288016818500351
19341,Chester County,PA,96.70637701471618
19355,Chester County,PA,32.09530483531885
19380,Chester County,PA,69.3062368605466
19401,Montgomery County,PA,6.72740014015417
19422,Montgomery County,PA,85.98458304134547
19426,Montgomery County,PA,87.24597056762438
19428,Montgomery County,PA,91.45059565522075
19446,Montgomery County,PA,35.459004905395936
19454,Montgomery County,PA,63.419761737911706
19460,Chester County,PA,46.25087596355992
19468,Montgomery County,PA,60.476524176594246
19508,Berks County,PA,41.27540294323756
19601,Berks County,PA,39.17309039943938
19604,Berks County,PA,48.49334267694464
19608,Berks County,PA,22.775052557813595
02838,Providence County,RI,96.14576033637002
02916,Providence County,RI,89.20812894183602
29053,Lexington County,SC,45.409950946040645
29301,Spartanburg County,SC,53.11843027330063
29365,Spartanburg County,SC,75.47302032235459
29414,Charleston County,SC,25.64821303433777
29420,Dorchester County,SC,37.281009110021024
29445,Berkeley County,SC,46.951646811492644
29455,Charleston County,SC,41.55571128241065
29461,Berkeley County,SC,97.82761037140855
29464,Charleston County,SC,34.54800280308339
29466,Charleston County,SC,38.6124737210932
29486,Berkeley County,SC,47.30203223545901
29605,Greenville County,SC,62.99929922915207
29642,Pickens County,SC,26.20882971268395
29662,Greenville County,SC,52.347582340574625
29910,Beaufort County,SC,58.444288717589345
29944,Hampton County,SC,91.52067274001402
57005,Minnehaha County,SD,71.68885774351786
37013,Davidson County,TN,8.05886475122635
37128,Rutherford County,TN,66.22284512964261
37363,Hamilton County,TN,31.955150665732308
37416,Hamilton County,TN,44.358794674141556
37683,Johnson County,TN,71.3384723195515
37709,Grainger County,TN,96.84653118430273
37748,Roane County,TN,70.98808689558514
37807,Union County,TN,58.37421163279608
37825,Claiborne County,TN,77.57533286615276
37830,Anderson County,TN,19.48142957252978
37914,Knox County,TN,28.87175893482831
37920,Knox County,TN,9.039943938332165
37924,Knox County,TN,80.93903293622985
38109,Shelby County,TN,30.483531885073585
38111,Shelby County,TN,16.67834618079888
38116,Shelby County,TN,39.59355290819902
38117,Shelby County,TN,60.6166783461808
38126,Shelby County,TN,87.52627890679747
38127,Shelby County,TN,7.147862648913805
38134,Shelby County,TN,29.152067274001404
75001,Dallas County,TX,81.77995795374913
75006,Dallas County,TX,36.229852838121936
75035,Collin County,TX,30.063069376313944
75040,Dallas County,TX,67.62438682550805
75050,Dallas County,TX,33.56692361597757
75051,Dallas County,TX,33.28661527680449
75057,Denton County,TX,97.26699369306236
75060,Dallas County,TX,32.655921513665035
75061,Dallas County,TX,40.99509460406447
75067,Denton County,TX,54.029432375613176
75074,Collin County,TX,86.61527680448494
75087,Rockwall County,TX,32.79607568325157
75093,Collin County,TX,38.1219341275403
75103,Van Zandt County,TX,69.09600560616678
75149,Dallas County,TX,40.01401541695866
75180,Dallas County,TX,55.15066573230554
75203,Dallas County,TX,64.1906096706377
75208,Dallas County,TX,50.035038542396634
75211,Dallas County,TX,40.43447792571829
75212,Dallas County,TX,35.87946741415557
75216,Dallas County,TX,37.8416257883672
75217,Dallas County,TX,7.00770847932726
75224,Dallas County,TX,65.17168885774352
75227,Dallas County,TX,14.926419060967064
75228,Dallas County,TX,37.070777855641204
75230,Dallas County,TX,59.355290819901896
75231,Dallas County,TX,35.739313244569026
75232,Dallas County,TX,64.40084092501752
75234,Dallas County,TX,56.20182200420463
75236,Dallas County,TX,51.226348983882275
75240,Dallas County,TX,87.87666433076384
75243,Dallas County,TX,76.7344078486335
75249,Dallas County,TX,80.58864751226349
75252,Collin County,TX,54.73020322354591
75442,Collin County,TX,69.72669936930623
75460,Lamar County,TX,46.74141555711282
75474,Hunt County,TX,50.735809390329365
75703,Smith County,TX,24.877365101611773
75707,Smith County,TX,83.81219341275403
75766,Cherokee County,TX,55.641205325858444
75901,Angelina County,TX,28.59145059565522
76010,Tarrant County,TX,67.34407848633496
76012,Tarrant County,TX,84.30273300630694
76021,Tarrant County,TX,27.1198318149965
76040,Tarrant County,TX,92.8521373510862
76063,Tarrant County,TX,11.282410651716889
76103,Tarrant County,TX,77.36510161177294
76106,Tarrant County,TX,37.281009110021024
76107,Tarrant County,TX,61.87806587245971
76110,Tarrant County,TX,33.91730903994394
76112,Tarrant County,TX,34.2676944639103
76114,Tarrant County,TX,33.98738612473721
76119,Tarrant County,TX,5.816398037841626
76123,Tarrant County,TX,65.87245970567625
76134,Tarrant County,TX,21.303433777154872
76164,Tarrant County,TX,58.51436580238262
76179,Tarrant County,TX,67.48423265592152
76210,Denton County,TX,45.900490539593555
76240,Cooke County,TX,31.114225648213033
76571,Bell County,TX,99.43938332165382
76661,Falls County,TX,84.02242466713385
76705,McLennan County,TX,38.47231955150666
77016,Harris County,TX,33.14646110721794
77017,Harris County,TX,44.70918009810792
77030,Harris County,TX,82.06026629292221
77035,Harris County,TX,32.51576734407849
77051,Harris County,TX,81.0791871058164
77053,Fort Bend County,TX,95.374912403644
77058,Harris County,TX,98.10791871058164
77074,Harris County,TX,67.20392431674841
77075,Harris County,TX,85.21373510861949
77081,Harris County,TX,86.6853538892782
77082,Harris County,TX,39.313244569025926
77083,Harris County,TX,61.387526278906805
77084,Harris County,TX,31.81499649614576
77089,Harris County,TX,63.84022424667134
77091,Harris County,TX,43.51786965662228
77093,Harris County,TX,82.34057463209531
77096,Harris County,TX,74.28170988086895
77099,Harris County,TX,43.51786965662228
77301,Montgomery County,TX,45.129642606867556
77303,Montgomery County,TX,70.3573931324457
77304,Montgomery County,TX,90.11913104414856
77327,Liberty County,TX,91.24036440084092
77328,San Jacinto County,TX,67.83461807988787
77354,Montgomery County,TX,67.62438682550805
77365,Montgomery County,TX,93.55290819901893
77375,Harris County,TX,81.49964961457603
77378,Montgomery County,TX,96.63629992992291
77386,Montgomery County,TX,55.290819901892085
77423,Waller County,TX,99.15907498248073
77437,Wharton County,TX,52.13735108619482
77447,Harris County,TX,89.41836019621584
77449,Harris County,TX,47.23195515066573
77459,Fort Bend County,TX,17.939733707077785
77478,Fort Bend County,TX,74.7021723896286
77484,Waller County,TX,97.12683952347582
77494,Fort Bend County,TX,13.384723195515067
77498,Fort Bend County,TX,81.28941836019622
77502,Harris County,TX,86.54519971969165
77504,Harris County,TX,54.73020322354591
77506,Harris County,TX,75.12263489838823
77511,Brazoria County,TX,36.15977575332866
77515,Brazoria County,TX,91.66082690960056
77531,Brazoria County,TX,88.15697266993693
77532,Harris County,TX,61.1072179397337
77535,Liberty County,TX,31.604765241765943
77539,Galveston County,TX,94.11352487736511
77550,Galveston County,TX,41.20532585844428
77551,Galveston County,TX,21.163279607568324
77563,Galveston County,TX,82.6208829712684
77566,Brazoria County,TX,96.00560616678347
77568,Galveston County,TX,78.97687456201822
77573,Galveston County,TX,7.708479327259986
77581,Brazoria County,TX,76.4540995094604
77584,Brazoria County,TX,29.011913104414855
77587,Harris County,TX,96.77645409950945
77591,Galveston County,TX,97.75753328661527
77598,Harris County,TX,88.78766643307638
77630,Orange County,TX,95.86545199719691
77632,Orange County,TX,93.69306236860547
77701,Jefferson County,TX,68.8156972669937
77801,Brazos County,TX,92.50175192711984
77802,Brazos County,TX,73.93132445690259
77808,Brazos County,TX,48.77365101611773
77845,Brazos County,TX,45.48002803083392
77954,DeWitt County,TX,58.23405746320953
78043,Webb County,TX,32.86615276804485
78155,Guadalupe County,TX,73.02032235459005
78221,Bexar County,TX,77.43517869656623
78223,Bexar County,TX,15.06657323055361
78229,Bexar County,TX,69.51646811492643
78242,Bexar County,TX,66.85353889278205
78247,Bexar County,TX,86.4751226348984
78501,Hidalgo County,TX,36.790469516468114
78516,Hidalgo County,TX,89.97897687456202
78526,Cameron County,TX,80.23826208829713
78574,Hidalgo County,TX,56.902592852137346
78628,Williamson County,TX,62.29852838121934
78705,Travis County,TX,99.08899789768746
79106,Potter County,TX,70.98808689558514
79107,Potter County,TX,83.3917309039944
79382,Lubbock County,TX,98.03784162578837
79424,Lubbock County,TX,20.532585844428873
79763,Ector County,TX,27.400140154169588
79835,El Paso County,TX,88.29712683952347
84010,Davis County,UT,75.26278906797477
84029,Tooele County,UT,47.65241765942537
84045,Utah County,UT,65.45199719691661
84054,Davis County,UT,82.76103714085494
84074,Tooele County,UT,16.257883672039245
84096,Salt Lake County,UT,21.79397337070778
84121,Salt Lake County,UT,75.33286615276805
84123,Salt Lake County,UT,16.608269096005607
84128,Salt Lake County,UT,59.42536790469517
20109,Prince William County,VA,25.157673440784862
20121,Fairfax County,VA,77.9957953749124
20147,Loudoun County,VA,29.64260686755431
22031,Fairfax County,VA,53.67904695164681
22032,Fairfax County,VA,85.84442887175894
22044,Fairfax County,VA,91.3104414856342
22101,Fairfax County,VA,69.37631394533987
22151,Fairfax County,VA,72.31955150665732
22191,Prince William County,VA,87.03573931324456
22192,Prince William County,VA,15.276804484933425
22193,Prince William County,VA,10.79187105816398
22204,Arlington County,VA,22.074281709880868
22207,Arlington County,VA,42.67694463910301
22301,Alexandria city,VA,98.87876664330764
22309,Fairfax County,VA,21.37351086194814
22312,Fairfax County,VA,77.01471618780658
22554,Stafford County,VA,24.176594253679045
22802,Harrisonburg city,VA,82.69096005606167
22963,Fluvanna County,VA,64.89138051857043
23005,Hanover County,VA,63.27960756832516
23223,Henrico County,VA,2.312543798177996
23224,Richmond city,VA,8.689558514365803
23225,Richmond city,VA,11.07217939733707
23324,Chesapeake city,VA,31.885073580939032
23505,Norfolk city,VA,58.934828311142255
23832,Chesterfield County,VA,35.38892782060266
24279,Wise County,VA,95.58514365802382
24503,Lynchburg city,VA,77.92571829011912
98011,King County,WA,94.04344779257184
98031,King County,WA,32.936229852838125
98034,King County,WA,25.43798177995795
98042,King County,WA,13.524877365101611
98056,King County,WA,44.84933426769446
98059,King County,WA,35.949544498948846
98107,King County,WA,57.5332866152768
98117,King County,WA,50.175192711983186
98119,King County,WA,81.35949544498949
98136,King County,WA,79.32725998598458
98177,King County,WA,60.196215837421164
98270,Snohomish County,WA,79.60756832515767
98292,Snohomish County,WA,49.05395935529082
98321,Pierce County,WA,76.31394533987385
98363,Clallam County,WA,79.81779957953749
98387,Pierce County,WA,45.76033637000701
98445,Pierce County,WA,79.0469516468115
98580,Pierce County,WA,91.17028731604765
98930,Yakima County,WA,77.2249474421864
99337,Benton County,WA,21.02312543798178
20002,District of Columbia,DC,19.901892081289418
20009,District of Columbia,DC,69.02592852137352
20010,District of Columbia,DC,42.4667133847232
20011,District of Columbia,DC,54.099509460406445
20012,District of Columbia,DC,71.82901191310441
20024,District of Columbia,DC,73.37070777855641
20032,District of Columbia,DC,3.6440084092501754
24740,Mercer County,WV,23.96636299929923
25309,Kanawha County,WV,93.97337070777856
25414,Jefferson County,WV,50.665732305536096
25550,Mason County,WV,85.56412053258585
25601,Logan County,WV,59.98598458304134
26426,Harrison County,WV,82.41065171688857
26452,Lewis County,WV,48.07288016818501
26508,Monongalia County,WV,19.06096706377015
26537,Preston County,WV,45.83041345480028
53066,Waukesha County,WI,31.254379817799578
53089,Waukesha County,WI,53.398738612473714
53092,Ozaukee County,WI,47.09180098107918
53095,Washington County,WI,41.135248773651014
53122,Waukesha County,WI,94.53398738612474
53144,Kenosha County,WI,37.49124036440084
53182,Racine County,WI,53.258584442887184
53188,Waukesha County,WI,17.589348283111423
53204,Milwaukee County,WI,59.00490539593552
53205,Milwaukee County,WI,1.5416958654519972
53206,Milwaukee County,WI,7.638402242466713
53208,Milwaukee County,WI,30.55360896986685
53210,Milwaukee County,WI,5.886475122634898
53213,Milwaukee County,WI,68.18500350385423
53218,Milwaukee County,WI,59.77575332866153
53222,Milwaukee County,WI,82.27049754730203
53223,Milwaukee County,WI,12.683952347582341
53224,Milwaukee County,WI,57.39313244569026
53226,Milwaukee County,WI,56.622284512964264
53562,Dane County,WI,64.05045550105115
53589,Dane County,WI,95.79537491240364
53590,Dane County,WI,30.13314646110722
53703,Dane County,WI,96.56622284512964
53704,Dane County,WI,29.782761037140855
53948,Juneau County,WI,88.64751226348983
54001,Polk County,WI,40.9250175192712
54020,Polk County,WI,93.90329362298529
54467,Portage County,WI,52.20742817098809
54482,Portage County,WI,73.79117028731605
54601,La Crosse County,WI,23.12543798177996
54650,La Crosse County,WI,43.16748423265592
54915,Outagamie County,WI,27.540294323756132
82009,Laramie County,WY,60.33637000700771
