ZipCode,county,state,Adult
35022,Jefferson County,AL,35.05355404089581
35131,St. Clair County,AL,97.56572541382667
35173,Jefferson County,AL,44.206426484907496
36582,Mobile County,AL,85.68646543330087
36618,Mobile County,AL,65.14118792599805
85006,Maricopa County,AZ,37.9746835443038
85023,Maricopa County,AZ,23.85589094449854
85040,Maricopa County,AZ,81.79162609542357
85048,Maricopa County,AZ,44.10905550146057
85202,Maricopa County,AZ,16.845180136319378
85286,Maricopa County,AZ,31.061343719571568
85344,La Paz County,AZ,91.62609542356378
85635,Cochise County,AZ,21.324245374878288
85706,Pima County,AZ,2.8237585199610513
85711,Pima County,AZ,7.59493670886076
85730,Pima County,AZ,52.093476144109054
85737,Pima County,AZ,56.3777994157741
85941,Apache County,AZ,11.002921129503408
86004,Coconino County,AZ,42.648490749756576
86005,Coconino County,AZ,81.40214216163584
86040,Coconino County,AZ,57.64362220058422
86047,Navajo County,AZ,30.866601752677703
72150,Grant County,AR,73.0282375851996
90023,Los Angeles County,CA,82.08373904576436
90064,Los Angeles County,CA,23.466407010710807
90201,Los Angeles County,CA,70.88607594936708
90250,Los Angeles County,CA,20.642648490749757
90280,Los Angeles County,CA,28.627069133398248
90291,Los Angeles County,CA,95.61830574488802
90301,Los Angeles County,CA,60.07789678675755
90621,Orange County,CA,74.97565725413826
90710,Los Angeles County,CA,73.61246348588121
90731,Los Angeles County,CA,28.042843232716653
90744,Los Angeles County,CA,75.55988315481986
90802,Los Angeles County,CA,70.98344693281402
91706,Los Angeles County,CA,67.28334956183058
91732,Los Angeles County,CA,37.3904576436222
91750,Los Angeles County,CA,57.254138266796495
91764,San Bernardino County,CA,32.81402142161636
91910,San Diego County,CA,84.51801363193768
91911,San Diego County,CA,19.961051606621226
92008,San Diego County,CA,45.18013631937682
92021,San Diego County,CA,41.187925998052584
92037,San Diego County,CA,87.73125608568647
92067,San Diego County,CA,87.63388510223953
92071,San Diego County,CA,21.713729308666018
92083,San Diego County,CA,77.70204479065238
92113,San Diego County,CA,80.91528724440117
92126,San Diego County,CA,67.38072054527751
92127,San Diego County,CA,87.2444011684518
92201,Riverside County,CA,20.155793573515094
92220,Riverside County,CA,88.80233690360274
92223,Riverside County,CA,26.09542356377799
92234,Riverside County,CA,11.879259980525804
92260,Riverside County,CA,48.88023369036028
92316,San Bernardino County,CA,45.86173320350536
92324,San Bernardino County,CA,71.95715676728335
92346,San Bernardino County,CA,52.775073028237586
92395,San Bernardino County,CA,76.53359298928919
92404,San Bernardino County,CA,94.157740993184035
92410,San Bernardino County,CA,58.61733203505355
92557,Riverside County,CA,74.39143135345667
92587,Riverside County,CA,63.68062317429406
92691,Orange County,CA,71.37293086660176
92706,Orange County,CA,72.54138266796495
92780,Orange County,CA,33.30087633885102
92805,Orange County,CA,67.6728334956183
93308,Kern County,CA,77.11781888997079
93309,Kern County,CA,56.9620253164557
93314,Kern County,CA,97.95520934761441
93436,Santa Barbara County,CA,41.77215189873418
93458,Santa Barbara County,CA,40.116845180136316
93534,Los Angeles County,CA,61.635832521908476
93543,Los Angeles County,CA,80.23369036027263
93550,Los Angeles County,CA,38.07205452775073
93552,Los Angeles County,CA,88.31548198636806
93555,Kern County,CA,51.31450827653359
93619,Fresno County,CA,37.58519961051607
93637,Madera County,CA,57.351509250243424
93662,Fresno County,CA,73.80720545277507
93726,Fresno County,CA,18.208373904576437
93906,Monterey County,CA,64.55696202531645
93940,Monterey County,CA,71.76241480038948
93955,Monterey County,CA,35.15092502434275
94002,San Mateo County,CA,83.83641674780915
94015,San Mateo County,CA,39.727361246348586
94062,San Mateo County,CA,49.65920155793573
94066,San Mateo County,CA,39.82473222979552
94107,San Francisco County,CA,94.6445959104187
94112,San Francisco County,CA,20.545277507302824
94116,San Francisco County,CA,50.04868549172347
94123,San Francisco County,CA,92.40506329113924
94303,San Mateo County,CA,24.050632911392405
94401,San Mateo County,CA,69.32814021421616
94501,Alameda County,CA,34.27458617332035
94534,Solano County,CA,90.55501460564753
94544,Alameda County,CA,15.384615384615385
94558,Napa County,CA,71.08081791626095
94559,Napa County,CA,85.97857838364168
94925,Marin County,CA,96.20253164556962
95117,Santa Clara County,CA,97.07887049659202
95122,Santa Clara County,CA,41.48003894839338
95133,Santa Clara County,CA,95.42356377799416
95138,Santa Clara County,CA,82.47322297955209
95404,Sonoma County,CA,82.76533592989288
95667,El Dorado County,CA,28.82181110029211
95762,El Dorado County,CA,44.98539435248296
95825,Sacramento County,CA,70.39922103213242
95828,Sacramento County,CA,35.92989289191821
95966,Butte County,CA,8.763388510223953
95988,Glenn County,CA,93.1840311587147
95991,Sutter County,CA,25.60856864654333
96001,Shasta County,CA,17.429406037000973
96002,Shasta County,CA,74.09931840311587
96094,Siskiyou County,CA,88.02336903602726
96150,El Dorado County,CA,63.77799415774099
80002,Jefferson County,CO,77.40993184031159
80010,Arapahoe County,CO,44.595910418695226
80012,Arapahoe County,CO,34.37195715676729
80123,Jefferson County,CO,69.23076923076923
80206,Denver County,CO,88.31548198636806
80303,Boulder County,CO,72.15189873417721
80534,Weld County,CO,81.98636806231742
80549,Larimer County,CO,78.96786757546252
80631,Weld County,CO,29.892891918208374
80634,Weld County,CO,13.631937682570594
80701,Morgan County,CO,79.35735150925024
80863,Teller County,CO,84.61538461538461
80910,El Paso County,CO,21.03213242453749
06051,Hartford County,CT,2.9211295034079843
06067,Hartford County,CT,61.24634858812074
06095,Hartford County,CT,35.73515092502434
06117,Hartford County,CT,83.54430379746836
06226,Windham County,CT,13.924050632911392
06250,Tolland County,CT,92.01557935735151
06260,Windham County,CT,28.334956183057447
06405,New Haven County,CT,37.195715676728334
06460,New Haven County,CT,54.722492697176236
06469,Middlesex County,CT,99.31840311587146
06511,New Haven County,CT,3.79746835443038
06515,New Haven County,CT,77.89678675754625
06770,New Haven County,CT,20.35053554040896
06810,Fairfield County,CT,13.14508276533593
06854,Fairfield County,CT,40.60370009737098
19720,New Castle County,DE,30.18500486854917
19808,New Castle County,DE,18.9873417721519
19966,Sussex County,DE,50.243427458617326
32068,Clay County,FL,10.223953261927946
32134,Marion County,FL,82.37585199610517
32206,Duval County,FL,47.906523855890946
32501,Escambia County,FL,49.074975657254136
32578,Okaloosa County,FL,47.224926971762414
32621,Levy County,FL,79.06523855890944
32828,Orange County,FL,61.92794547224927
33010,Miami-Dade County,FL,58.90944498539435
33054,Miami-Dade County,FL,70.78870496592016
33162,Miami-Dade County,FL,75.365141187926
33313,Broward County,FL,17.62414800389484
33460,Palm Beach County,FL,41.28529698149951
33510,Hillsborough County,FL,49.75657254138267
33565,Hillsborough County,FL,64.65433300876339
33572,Hillsborough County,FL,73.51509250243427
33584,Hillsborough County,FL,73.22297955209348
33605,Hillsborough County,FL,49.269717624148
33805,Polk County,FL,35.44303797468354
33873,Hardee County,FL,66.50438169425512
33898,Polk County,FL,51.02239532619279
34203,Manatee County,FL,48.685491723466406
34472,Marion County,FL,62.122687439143135
34474,Marion County,FL,55.11197663096398
34668,Pasco County,FL,92.50243427458618
34744,Osceola County,FL,23.17429406037001
34972,Okeechobee County,FL,52.385589094449855
30040,Forsyth County,GA,22.200584225900684
30248,Henry County,GA,75.26777020447906
30296,Clayton County,GA,54.13826679649465
30316,DeKalb County,GA,47.224926971762414
30327,Fulton County,GA,89.77604673807205
31313,Liberty County,GA,57.8383641674781
31324,Bryan County,GA,92.3076923076923
96817,Honolulu County,HI,36.12463485881207
96822,Honolulu County,HI,35.54040895813048
83704,Ada County,ID,14.605647517039921
83709,Ada County,ID,40.99318403115871
60126,DuPage County,IL,49.8539435248296
60139,DuPage County,IL,44.69328140214216
60172,DuPage County,IL,55.5014605647517
60187,DuPage County,IL,33.690360272638756
60422,Cook County,IL,93.57351509250243
60426,Cook County,IL,49.46445959104187
60440,Will County,IL,16.55306718597858
60523,DuPage County,IL,76.2414800389484
60565,DuPage County,IL,27.848101265822784
60625,Cook County,IL,33.98247322297955
60634,Cook County,IL,8.66601752677702
60641,Cook County,IL,11.100292112950342
60914,Kankakee County,IL,29.990262901655306
61201,Rock Island County,IL,88.51022395326193
61554,Tazewell County,IL,25.90068159688413
46131,Johnson County,IN,27.65335929892892
46241,Marion County,IN,46.445959104186954
46319,Lake County,IN,23.076923076923077
46322,Lake County,IN,20.934761441090554
46324,Lake County,IN,14.410905550146055
46373,Lake County,IN,27.069133398247324
46385,Porter County,IN,6.621226874391431
46783,Huntington County,IN,89.97078870496593
46806,Allen County,IN,23.27166504381694
46901,Howard County,IN,2.142161635832522
46947,Cass County,IN,10.321324245374878
47170,Scott County,IN,52.28821811100293
47201,Bartholomew County,IN,36.027263875365136
47274,Jackson County,IN,24.537487828627068
47421,Lawrence County,IN,72.93086660175267
47591,Knox County,IN,32.327166504381694
47601,Warrick County,IN,93.7682570593963
47713,Vanderburgh County,IN,55.7935735150925
47715,Vanderburgh County,IN,70.69133398247322
47720,Vanderburgh County,IN,67.08860759493672
47933,Montgomery County,IN,28.72444011684518
50219,Marion County,IA,80.4284323271665
50266,Polk County,IA,70.10710808179162
50311,Polk County,IA,45.37487828627069
50320,Polk County,IA,43.23271665043817
50401,Cerro Gordo County,IA,10.126582278481013
51250,Sioux County,IA,81.11002921129503
52240,Johnson County,IA,17.72151898734177
52402,Linn County,IA,16.163583252190847
52403,Linn County,IA,39.04576436222006
52632,Lee County,IA,35.637779941577406
52722,Scott County,IA,63.29113924050633
52803,Scott County,IA,60.467380720545286
66205,Johnson County,KS,81.20740019474196
66206,Johnson County,KS,94.0603700097371
67401,Saline County,KS,17.33203505355404
67701,Thomas County,KS,95.81304771178189
67871,Scott County,KS,57.93573515092503
40065,Shelby County,KY,36.90360272638753
40160,Hardin County,KY,29.308666017526775
40258,Jefferson County,KY,18.792599805258035
40351,Rowan County,KY,18.30574488802337
40409,Rockcastle County,KY,95.32619279454723
40437,Lincoln County,KY,92.59980525803311
40517,Fayette County,KY,17.91626095423564
41017,Kenton County,KY,56.864654333008765
41018,Kenton County,KY,51.41187925998053
41042,Boone County,KY,4.868549172346641
41091,Boone County,KY,89.28919182083739
41097,Grant County,KY,65.72541382667964
41501,Pike County,KY,71.27555988315481
42066,Graves County,KY,19.084712755598833
70001,Jefferson Parish,LA,3.700097370983447
70002,Jefferson Parish,LA,42.06426484907498
70003,Jefferson Parish,LA,46.05647517039922
70006,Jefferson Parish,LA,44.98539435248296
70062,Jefferson Parish,LA,91.33398247322297
70065,Jefferson Parish,LA,64.3622200584226
70094,Jefferson Parish,LA,20.44790652385589
70113,Orleans Parish,LA,56.3777994157741
70118,Orleans Parish,LA,96.68938656280429
70126,Orleans Parish,LA,5.355404089581304
70128,Orleans Parish,LA,88.7049659201558
70341,Assumption Parish,LA,99.90262901655306
70548,Vermilion Parish,LA,97.76046738072056
70805,East Baton Rouge Parish,LA,30.47711781888997
70807,East Baton Rouge Parish,LA,37.48782862706913
70808,East Baton Rouge Parish,LA,90.26290165530672
70814,East Baton Rouge Parish,LA,81.0126582278481
70816,East Baton Rouge Parish,LA,61.1489776046738
71106,Caddo Parish,LA,68.8412852969815
71107,Caddo Parish,LA,96.39727361246348
71108,Caddo Parish,LA,97.27361246348588
71109,Caddo Parish,LA,53.84615384615385
71202,Ouachita Parish,LA,66.11489776046739
71295,Franklin Parish,LA,15.676728334956183
71418,Caldwell Parish,LA,87.8286270691334
04021,Cumberland County,ME,98.63680623174295
04083,York County,ME,92.69717624148004
04103,Cumberland County,ME,48.49074975657254
04107,Cumberland County,ME,98.539435248296
04240,Androscoggin County,ME,55.30671859785784
04270,Oxford County,ME,81.5968841285297
04280,Androscoggin County,ME,69.62025316455697
04345,Kennebec County,ME,40.60370009737098
04843,Knox County,ME,88.9970788704966
20646,Charles County,MD,97.07887049659202
20747,Prince George's County,MD,85.10223953261928
20748,Prince George's County,MD,39.92210321324245
20902,Montgomery County,MD,60.75949367088608
21009,Harford County,MD,42.843232716650434
21014,Harford County,MD,36.22200584225901
21037,Anne Arundel County,MD,64.07010710808179
21044,Howard County,MD,43.427458617332036
21078,Harford County,MD,44.303797468354425
21113,Anne Arundel County,MD,93.08666017526777
21117,Baltimore County,MD,27.26387536514119
21224,Baltimore city,MD,42.356377799415775
21225,Baltimore city,MD,31.7429406037001
21230,Baltimore city,MD,31.7429406037001
21921,Cecil County,MD,12.560856864654331
01013,Hampden County,MA,14.897760467380722
01028,Hampden County,MA,67.18597857838364
01085,Hampden County,MA,1.8500486854917235
01109,Hampden County,MA,0.2921129503407984
01201,Berkshire County,MA,1.2658227848101267
01220,Berkshire County,MA,65.04381694255113
01247,Berkshire County,MA,5.160662122687439
01301,Franklin County,MA,9.34761441090555
01504,Worcester County,MA,91.91820837390458
01527,Worcester County,MA,47.71178188899708
01720,Middlesex County,MA,30.671859785783834
01740,Worcester County,MA,89.48393378773125
01748,Middlesex County,MA,66.69912366114897
01760,Middlesex County,MA,8.568646543330088
01776,Middlesex County,MA,38.558909444985396
01810,Essex County,MA,85.58909444985395
01824,Middlesex County,MA,48.296007789678676
01826,Middlesex County,MA,18.403115871470302
01841,Essex County,MA,0.19474196689386564
01845,Essex County,MA,23.563777994157743
01902,Essex County,MA,15.18987341772152
02026,Norfolk County,MA,3.894839337877313
02035,Norfolk County,MA,29.795520934761445
02090,Norfolk County,MA,58.519961051606614
02093,Norfolk County,MA,50.1460564751704
02116,Suffolk County,MA,56.66991236611489
02119,Suffolk County,MA,9.444985394352482
02121,Suffolk County,MA,9.055501460564752
02122,Suffolk County,MA,1.557935735150925
02124,Suffolk County,MA,0
02126,Suffolk County,MA,9.931840311587147
02130,Suffolk County,MA,16.455696202531644
02131,Suffolk County,MA,1.7526777020447908
02136,Suffolk County,MA,25.31645569620253
02139,Middlesex County,MA,2.726387536514119
02140,Middlesex County,MA,14.216163583252191
02148,Middlesex County,MA,7.6923076923076925
02149,Middlesex County,MA,13.047711781888996
02155,Middlesex County,MA,0.7789678675754625
02301,Plymouth County,MA,0.09737098344693282
02302,Plymouth County,MA,1.071080817916261
02343,Norfolk County,MA,75.0730282375852
02346,Plymouth County,MA,85.88120740019474
02368,Norfolk County,MA,61.34371957156767
02421,Middlesex County,MA,84.42064264849076
02459,Middlesex County,MA,39.92210321324245
02474,Middlesex County,MA,72.73612463485881
02478,Middlesex County,MA,91.43135345666991
02482,Norfolk County,MA,66.30963972736124
02568,Dukes County,MA,64.75170399221032
48003,Lapeer County,MI,91.13924050632912
48021,Macomb County,MI,32.716650438169424
48033,Oakland County,MI,37.098344693281405
48036,Macomb County,MI,24.342745861733203
48044,Macomb County,MI,6.91333982473223
48093,Macomb County,MI,16.358325219084712
48094,Macomb County,MI,45.277507302823764
48103,Washtenaw County,MI,12.366114897760468
48111,Wayne County,MI,6.0370009737098345
48116,Livingston County,MI,53.65141187925998
48124,Wayne County,MI,71.47030185004868
48152,Wayne County,MI,29.503407984420644
48170,Wayne County,MI,11.587147030185005
48178,Oakland County,MI,58.13047711781889
48185,Wayne County,MI,40.40895813047712
48186,Wayne County,MI,5.258033106134373
48198,Washtenaw County,MI,12.950340798442065
48201,Wayne County,MI,34.76144109055501
48204,Wayne County,MI,8.373904576436223
48207,Wayne County,MI,45.47224926971762
48211,Wayne County,MI,95.22882181110029
48212,Wayne County,MI,32.229795520934765
48228,Wayne County,MI,1.6553067185978578
48229,Wayne County,MI,74.87828627069133
48234,Wayne County,MI,56.572541382667964
48235,Wayne County,MI,2.5316455696202533
48238,Wayne County,MI,4.186952288218111
48240,Wayne County,MI,63.38851022395326
48336,Oakland County,MI,29.211295034079843
48340,Oakland County,MI,8.860759493670885
48341,Oakland County,MI,26.484907497565725
48342,Oakland County,MI,12.268743914313534
48374,Oakland County,MI,66.99123661148978
48430,Genesee County,MI,21.616358325219085
48433,Genesee County,MI,46.73807205452775
48439,Genesee County,MI,83.93378773125607
48451,Genesee County,MI,67.86757546251218
48458,Genesee County,MI,27.75073028237585
48471,Sanilac County,MI,67.77020447906524
48503,Genesee County,MI,15.579357351509252
48505,Genesee County,MI,15.28724440116845
48820,Clinton County,MI,61.830574488802334
48846,Ionia County,MI,34.469328140214216
48855,Livingston County,MI,65.43330087633885
48906,Ingham County,MI,53.943524829600776
48911,Ingham County,MI,24.634858812074
49009,Kalamazoo County,MI,36.61148977604674
49058,Barry County,MI,27.55598831548199
49099,St. Joseph County,MI,82.66796494644596
49203,Jackson County,MI,27.45861733203505
49412,Newaygo County,MI,57.74099318403116
49418,Kent County,MI,62.804284323271666
49441,Muskegon County,MI,10.41869522882181
49505,Kent County,MI,19.668938656280428
49507,Kent County,MI,4.284323271665044
49508,Kent County,MI,4.965920155793573
49519,Kent County,MI,42.55111976630964
49525,Kent County,MI,31.353456669912365
49706,Emmet County,MI,96.10516066212269
55005,Anoka County,MN,98.44206426484907
55126,Ramsey County,MN,53.35929892891919
55128,Washington County,MN,69.81499513145083
55302,Wright County,MN,90.36027263875364
55347,Hennepin County,MN,80.62317429406038
55369,Hennepin County,MN,59.78578383641675
55372,Scott County,MN,52.872444011684514
55387,Carver County,MN,69.03602726387537
55403,Hennepin County,MN,19.182083739045762
55406,Hennepin County,MN,20.74001947419669
55407,Hennepin County,MN,5.452775073028238
55412,Hennepin County,MN,7.497565725413827
55414,Hennepin County,MN,86.3680623174294
55418,Hennepin County,MN,76.63096397273613
55419,Hennepin County,MN,41.09055501460565
55420,Hennepin County,MN,34.858812074001946
55421,Anoka County,MN,17.137293086660176
55426,Hennepin County,MN,25.024342745861734
55433,Anoka County,MN,60.662122687439144
55438,Hennepin County,MN,84.22590068159688
55448,Anoka County,MN,64.84907497565725
55987,Winona County,MN,7.205452775073027
56187,Nobles County,MN,59.883154819863684
56267,Stevens County,MN,59.49367088607595
56303,Stearns County,MN,28.529698149951315
56482,Wadena County,MN,43.3300876338851
38804,Lee County,MS,99.61051606621227
38930,Leflore County,MS,63.87536514118792
38941,Leflore County,MS,99.1236611489776
39111,Simpson County,MS,90.65238558909445
39194,Yazoo County,MS,71.17818889970789
39206,Hinds County,MS,93.28140214216164
39452,George County,MS,75.46251217137294
63025,St. Louis County,MO,96.29990262901656
63033,St. Louis County,MO,41.96689386562804
63114,St. Louis County,MO,21.421616358325217
63131,St. Louis County,MO,92.89191820837391
63136,St. Louis County,MO,6.523855890944498
63304,St. Charles County,MO,26.679649464459594
63379,Lincoln County,MO,25.705939629990265
64056,Jackson County,MO,51.606621226874395
64118,Clay County,MO,4.381694255111976
64130,Jackson County,MO,25.121713729308663
64735,Henry County,MO,58.714703018500494
65355,Benton County,MO,91.72346640701072
65401,Phelps County,MO,62.220058422590064
68124,Douglas County,NE,94.3524829600779
68135,Douglas County,NE,82.57059396299903
68845,Buffalo County,NE,99.02629016553067
89101,Clark County,NV,69.1333982473223
89130,Clark County,NV,47.80915287244401
89434,Washoe County,NV,39.337877312560856
03038,Rockingham County,NH,10.905550146056475
03062,Hillsborough County,NH,43.9143135345667
03235,Merrimack County,NH,60.95423563777994
03842,Rockingham County,NH,64.16747809152874
07001,Middlesex County,NJ,58.714703018500494
07008,Middlesex County,NJ,51.703992210321324
07026,Bergen County,NJ,12.852969814995133
07030,Hudson County,NJ,5.744888023369036
07055,Passaic County,NJ,31.256085686465436
07063,Union County,NJ,54.62512171372931
07066,Union County,NJ,73.904576436222
07083,Union County,NJ,41.67478091528724
07087,Hudson County,NJ,52.19084712755598
07107,Essex County,NJ,19.571567672833496
07201,Union County,NJ,27.166504381694256
07410,Bergen County,NJ,43.52482960077897
07457,Morris County,NJ,96.59201557935735
07470,Passaic County,NJ,13.82667964946446
07501,Passaic County,NJ,61.051606621226874
07514,Passaic County,NJ,27.361246348588118
07624,Bergen County,NJ,100
07675,Bergen County,NJ,58.22784810126582
07724,Monmouth County,NJ,96.98149951314508
07840,Warren County,NJ,30.37974683544304
07920,Somerset County,NJ,74.7809152872444
07930,Morris County,NJ,93.37877312560857
08002,Camden County,NJ,48.19863680623174
08010,Burlington County,NJ,91.23661148977604
08015,Burlington County,NJ,12.755598831548198
08016,Burlington County,NJ,31.450827653359298
08028,Gloucester County,NJ,15.481986368062318
08037,Atlantic County,NJ,13.339824732229797
08043,Camden County,NJ,66.60175267770204
08053,Burlington County,NJ,50.925024342745864
08060,Burlington County,NJ,88.1207400194742
08066,Gloucester County,NJ,23.661148977604675
08075,Burlington County,NJ,12.171372930866601
08077,Burlington County,NJ,58.03310613437196
08083,Camden County,NJ,38.169425511197666
08094,Gloucester County,NJ,5.550146056475171
08103,Camden County,NJ,36.708860759493675
08108,Camden County,NJ,54.43037974683544
08109,Camden County,NJ,61.733203505355405
08225,Atlantic County,NJ,72.05452775073027
08226,Cape May County,NJ,51.50925024342746
08232,Atlantic County,NJ,4.673807205452775
08302,Cumberland County,NJ,1.4605647517039921
08360,Cumberland County,NJ,59.29892891918208
08618,Mercer County,NJ,69.91236611489776
08817,Middlesex County,NJ,17.818889970788703
08820,Middlesex County,NJ,84.90749756572541
08835,Somerset County,NJ,69.71762414800389
08854,Middlesex County,NJ,7.010710808179163
87105,Bernalillo County,NM,34.177215189873415
87107,Bernalillo County,NM,71.56767283349562
87109,Bernalillo County,NM,14.995131450827653
87121,Bernalillo County,NM,56.28042843232717
87123,Bernalillo County,NM,10.613437195715676
87124,Sandoval County,NM,9.250243427458617
87505,Santa Fe County,NM,4.089581304771178
87701,San Miguel County,NM,43.6222005842259
88220,Eddy County,NM,47.224926971762414
88352,Otero County,NM,76.04673807205454
10013,New York County,NY,75.75462512171373
10027,New York County,NY,37.682570593963
10032,New York County,NY,8.95813047711782
10034,New York County,NY,89.38656280428432
10304,Richmond County,NY,39.53261927945472
10306,Richmond County,NY,16.066212268743914
10452,Bronx County,NY,0.4868549172346641
10453,Bronx County,NY,0.5842259006815969
10454,Bronx County,NY,5.647517039922103
10455,Bronx County,NY,3.4079844206426486
10460,Bronx County,NY,10.516066212268745
10466,Bronx County,NY,3.6027263875365136
10467,Bronx County,NY,30.282375851996107
10468,Bronx County,NY,19.474196689386563
10472,Bronx County,NY,2.239532619279455
10473,Bronx County,NY,56.76728334956182
10550,Westchester County,NY,21.12950340798442
10573,Westchester County,NY,87.14703018500487
10601,Westchester County,NY,99.22103213242454
10801,Westchester County,NY,57.44888023369036
11102,Queens County,NY,79.8442064264849
11207,Kings County,NY,44.40116845180137
11208,Kings County,NY,0.8763388510223954
11213,Kings County,NY,38.266796494644595
11215,Kings County,NY,30.08763388510224
11226,Kings County,NY,87.5365141187926
11229,Kings County,NY,22.979552093476144
11235,Kings County,NY,35.83252190847128
11237,Kings County,NY,74.4888023369036
11355,Queens County,NY,68.64654333008764
11356,Queens County,NY,97.6630963972736
11368,Queens County,NY,26.192794547224928
11372,Queens County,NY,26.777020447906523
11373,Queens County,NY,39.14313534566699
11377,Queens County,NY,69.52288218111002
11379,Queens County,NY,73.70983446932814
11385,Queens County,NY,31.158714703018504
11418,Queens County,NY,40.50632911392405
11429,Queens County,NY,63.87536514118792
11435,Queens County,NY,9.152872444011685
11516,Nassau County,NY,99.51314508276533
11553,Nassau County,NY,72.83349561830575
11590,Nassau County,NY,68.45180136319377
11789,Suffolk County,NY,98.73417721518987
12522,Dutchess County,NY,88.89970788704966
12866,Saratoga County,NY,11.684518013631937
13027,Onondaga County,NY,38.75365141187926
13080,Onondaga County,NY,94.83933787731256
13090,Onondaga County,NY,13.437195715676728
13203,Onondaga County,NY,15.96884128529698
13204,Onondaga County,NY,9.542356377799416
13340,Herkimer County,NY,87.34177215189874
13365,Herkimer County,NY,30.5744888023369
13421,Madison County,NY,20.058422590068158
13440,Oneida County,NY,25.99805258033106
13491,Herkimer County,NY,77.79941577409932
13733,Chenango County,NY,61.53846153846154
13754,Broome County,NY,89.09444985394353
13778,Chenango County,NY,55.404089581304774
13820,Otsego County,NY,8.081791626095423
13830,Chenango County,NY,90.84712755598832
13856,Delaware County,NY,44.01168451801363
13905,Broome County,NY,2.044790652385589
14048,Chautauqua County,NY,33.008763388510225
14075,Erie County,NY,7.302823758519961
14127,Erie County,NY,12.658227848101266
14210,Erie County,NY,21.908471275559883
14214,Erie County,NY,78.67575462512171
14217,Erie County,NY,21.81110029211295
14220,Erie County,NY,38.948393378773126
14425,Ontario County,NY,14.800389483933788
14456,Ontario County,NY,6.426484907497566
14506,Monroe County,NY,95.71567672833496
14514,Monroe County,NY,59.883154819863684
14580,Monroe County,NY,0.6815968841285297
14590,Wayne County,NY,40.21421616358325
14623,Monroe County,NY,14.313534566699124
14733,Chautauqua County,NY,74.29406037000975
14741,Cattaraugus County,NY,99.80525803310614
14830,Steuben County,NY,19.76630963972736
27107,Forsyth County,NC,3.213242453748783
27127,Forsyth County,NC,12.074001947419669
27203,Randolph County,NC,22.59006815968841
27284,Forsyth County,NC,5.939629990262902
27301,Guilford County,NC,62.901655306718595
27401,Guilford County,NC,24.9269717624148
27406,Guilford County,NC,3.3106134371957157
27534,Wayne County,NC,30.963972736124635
27536,Vance County,NC,25.219084712755595
27540,Wake County,NC,40.89581304771178
27545,Wake County,NC,66.89386562804285
27583,Person County,NC,95.52093476144108
27587,Wake County,NC,18.111002921129504
27610,Wake County,NC,6.329113924050633
27807,Nash County,NC,85.19961051606622
27909,Pasquotank County,NC,37.29308666017527
27932,Chowan County,NC,48.393378773125605
27944,Perquimans County,NC,58.422590068159685
28092,Lincoln County,NC,18.889970788704964
28110,Union County,NC,18.500486854917234
28208,Mecklenburg County,NC,7.789678675754626
28213,Mecklenburg County,NC,22.103213242453748
28333,Wayne County,NC,55.988315481986376
28348,Cumberland County,NC,60.564751703992215
28379,Richmond County,NC,14.021421616358326
28403,New Hanover County,NC,35.24829600778968
28429,New Hanover County,NC,74.19668938656281
28574,Onslow County,NC,60.17526777020448
28586,Craven County,NC,73.904576436222
28655,Burke County,NC,4.576436222005842
28715,Buncombe County,NC,43.037974683544306
28731,Henderson County,NC,77.02044790652386
28771,Graham County,NC,89.5813047711782
58701,Ward County,ND,8.471275559883155
43055,Licking County,OH,67.47809152872443
43113,Pickaway County,OH,11.39240506329114
43130,Fairfield County,OH,1.9474196689386565
43224,Franklin County,OH,4.771178188899708
43227,Franklin County,OH,79.64946445959104
43302,Marion County,OH,55.69620253164557
43316,Wyandot County,OH,71.66504381694256
43522,Wood County,OH,96.78675754625121
43558,Fulton County,OH,49.17234664070107
43604,Lucas County,OH,65.33592989289193
43605,Lucas County,OH,68.06231742940604
43607,Lucas County,OH,22.39532619279455
43609,Lucas County,OH,66.01752677702045
43612,Lucas County,OH,18.013631937682568
43615,Lucas County,OH,15.87147030185005
43616,Lucas County,OH,10.808179162609543
43701,Muskingum County,OH,13.729308666017525
43812,Coshocton County,OH,4.47906523855891
43906,Belmont County,OH,68.93865628042843
43953,Jefferson County,OH,29.11392405063291
44004,Ashtabula County,OH,2.4342745861733204
44012,Lorain County,OH,30.76923076923077
44104,Cuyahoga County,OH,47.127555988315486
44106,Cuyahoga County,OH,32.521908471275566
44107,Cuyahoga County,OH,10.710808179162608
44109,Cuyahoga County,OH,18.6952288218111
44110,Cuyahoga County,OH,48.782862706913335
44111,Cuyahoga County,OH,33.787731256085685
44118,Cuyahoga County,OH,34.95618305744888
44122,Cuyahoga County,OH,65.53067185978578
44124,Cuyahoga County,OH,50.730282375852
44125,Cuyahoga County,OH,1.3631937682570594
44130,Cuyahoga County,OH,36.416747809152874
44132,Cuyahoga County,OH,19.863680623174293
44133,Cuyahoga County,OH,22.687439143135347
44134,Cuyahoga County,OH,57.156767283349566
44142,Cuyahoga County,OH,76.33885102239533
44144,Cuyahoga County,OH,52.58033106134372
44146,Cuyahoga County,OH,24.050632911392405
44221,Summit County,OH,11.976630963972736
44224,Summit County,OH,47.614410905550145
44236,Summit County,OH,46.93281402142161
44256,Medina County,OH,3.0185004868549172
44270,Wayne County,OH,54.040895813047705
44301,Summit County,OH,55.5014605647517
44484,Trumbull County,OH,24.732229795520936
44514,Mahoning County,OH,93.86562804284323
44515,Mahoning County,OH,8.27653359298929
44601,Stark County,OH,6.2317429406037
44621,Tuscarawas County,OH,82.1811100292113
44691,Wayne County,OH,86.95228821811101
44703,Stark County,OH,70.59396299902629
44706,Stark County,OH,29.600778967867576
44707,Stark County,OH,51.80136319376826
44714,Stark County,OH,59.59104186952289
44857,Huron County,OH,18.597857838364167
44906,Richland County,OH,29.40603700097371
45036,Warren County,OH,16.65043816942551
45039,Warren County,OH,80.4284323271665
45044,Butler County,OH,60.27263875365141
45120,Clermont County,OH,97.46835443037975
45133,Highland County,OH,72.34664070107108
45205,Hamilton County,OH,90.45764362220059
45211,Hamilton County,OH,48.00389483933788
45212,Hamilton County,OH,97.37098344693281
45215,Hamilton County,OH,50.82765335929893
45223,Hamilton County,OH,66.40701071080818
45224,Hamilton County,OH,72.63875365141188
45225,Hamilton County,OH,93.67088607594937
45227,Hamilton County,OH,42.94060370009737
45230,Hamilton County,OH,46.15384615384615
45231,Hamilton County,OH,6.815968841285297
45239,Hamilton County,OH,42.453748782862704
45241,Hamilton County,OH,95.91041869522883
45245,Clermont County,OH,54.33300876338851
45304,Darke County,OH,82.27848101265823
45324,Greene County,OH,7.98442064264849
45331,Darke County,OH,51.99610516066212
45380,Darke County,OH,98.83154819863681
45383,Miami County,OH,96.00778967867576
45406,Montgomery County,OH,12.4634858812074
45601,Ross County,OH,0.3894839337877313
45623,Gallia County,OH,98.34469328140214
45631,Gallia County,OH,78.57838364167478
45656,Jackson County,OH,98.05258033106135
45686,Gallia County,OH,75.85199610516065
45692,Jackson County,OH,60.37000973709834
45694,Scioto County,OH,24.732229795520936
45732,Athens County,OH,86.07594936708861
45750,Washington County,OH,10.029211295034079
45771,Meigs County,OH,72.24926971762414
45833,Allen County,OH,77.50730282375852
73401,Carter County,OK,11.197663096397275
74701,Bryan County,OK,53.06718597857838
74743,Choctaw County,OK,79.55209347614411
97015,Clackamas County,OR,46.64070107108082
97031,Hood River County,OR,81.88899707887049
97123,Washington County,OR,16.747809152872446
97124,Washington County,OR,22.88218111002921
97132,Yamhill County,OR,34.56669912366115
97138,Clatsop County,OR,52.48296007789679
97206,Multnomah County,OR,11.295034079844205
97211,Multnomah County,OR,39.62999026290166
97219,Multnomah County,OR,76.14410905550146
97229,Washington County,OR,32.13242453748783
97301,Marion County,OR,36.806231742940604
97403,Lane County,OR,94.44985394352483
97503,Jackson County,OR,56.085686465433305
97754,Crook County,OR,42.25900681596884
97814,Baker County,OR,37.77994157740993
15122,Allegheny County,PA,44.7906523855891
15132,Allegheny County,PA,9.639727361246349
15136,Allegheny County,PA,26.387536514118793
15201,Allegheny County,PA,51.89873417721519
15205,Allegheny County,PA,68.74391431353457
15214,Allegheny County,PA,47.03018500486855
15222,Allegheny County,PA,79.45472249269717
15301,Washington County,PA,62.0253164556962
15323,Washington County,PA,98.92891918208375
15701,Indiana County,PA,17.526777020447906
16121,Mercer County,PA,63.09639727361246
16214,Clarion County,PA,96.49464459591042
17042,Lebanon County,PA,3.992210321324245
17112,Dauphin County,PA,14.50827653359299
17202,Franklin County,PA,23.758519961051608
17406,York County,PA,31.450827653359298
17552,Lancaster County,PA,34.66407010710808
17751,Clinton County,PA,83.15481986368061
17815,Columbia County,PA,14.118792599805257
17821,Montour County,PA,51.11976630963972
17837,Union County,PA,85.29698149951315
17842,Snyder County,PA,71.85978578383641
17901,Schuylkill County,PA,21.518987341772153
17948,Schuylkill County,PA,81.49951314508277
17976,Schuylkill County,PA,88.21811100292113
18013,Northampton County,PA,32.91139240506329
18014,Northampton County,PA,38.364167478091524
18052,Lehigh County,PA,45.66699123661149
18064,Northampton County,PA,37.00097370983447
18102,Lehigh County,PA,38.85102239532619
18104,Lehigh County,PA,11.781888997078871
18109,Lehigh County,PA,22.005842259006815
18201,Luzerne County,PA,90.94449853943524
18235,Carbon County,PA,28.334956183057447
18360,Monroe County,PA,23.953261927945473
18428,Pike County,PA,66.79649464459591
18603,Columbia County,PA,77.99415774099319
18634,Luzerne County,PA,38.46153846153847
18641,Luzerne County,PA,78.09152872444012
18643,Luzerne County,PA,47.517039922103216
18657,Wyoming County,PA,55.7935735150925
18702,Luzerne County,PA,6.718597857838364
18704,Luzerne County,PA,58.32521908471276
18706,Luzerne County,PA,63.1937682570594
18902,Bucks County,PA,81.69425511197663
18940,Bucks County,PA,77.21518987341773
18951,Bucks County,PA,45.47224926971762
18966,Bucks County,PA,42.745861733203505
19002,Montgomery County,PA,33.398247322297955
19007,Bucks County,PA,75.17039922103214
19013,Delaware County,PA,61.44109055501461
19014,Delaware County,PA,65.72541382667964
19018,Delaware County,PA,23.27166504381694
19020,Bucks County,PA,28.82181110029211
19021,Bucks County,PA,98.24732229795521
19022,Delaware County,PA,86.75754625121714
19025,Montgomery County,PA,86.85491723466407
19036,Delaware County,PA,72.44401168451802
19038,Montgomery County,PA,60.75949367088608
19053,Bucks County,PA,27.945472249269717
19057,Bucks County,PA,78.77312560856865
19064,Delaware County,PA,63.4858812074002
19076,Delaware County,PA,87.04965920155794
19078,Delaware County,PA,90.74975657254139
19083,Delaware County,PA,91.82083739045764
19107,Philadelphia County,PA,40.31158714703019
19111,Philadelphia County,PA,33.20350535540409
19120,Philadelphia County,PA,15.092502434274586
19121,Philadelphia County,PA,7.400194741966894
19124,Philadelphia County,PA,1.1684518013631937
19130,Philadelphia County,PA,62.6095423563778
19131,Philadelphia County,PA,22.297955209347613
19135,Philadelphia County,PA,67.57546251217137
19139,Philadelphia County,PA,17.039922103213243
19140,Philadelphia County,PA,2.6290165530671863
19141,Philadelphia County,PA,28.237585199610514
19143,Philadelphia County,PA,0.9737098344693282
19146,Philadelphia County,PA,13.534566699123662
19147,Philadelphia County,PA,43.816942551119766
19148,Philadelphia County,PA,7.108081791626096
19153,Philadelphia County,PA,79.25998052580331
19301,Chester County,PA,99.7078870496592
19312,Chester County,PA,95.03407984420643
19320,Chester County,PA,7.8870496592015575
19330,Chester County,PA,86.46543330087634
19365,Chester County,PA,88.60759493670885
19380,Chester County,PA,9.834469328140214
19438,Montgomery County,PA,42.06426484907498
19440,Montgomery County,PA,53.16455696202531
19446,Montgomery County,PA,73.41772151898735
19506,Berks County,PA,75.9493670886076
19522,Berks County,PA,56.183057448880234
29445,Berkeley County,SC,20.83739045764362
29607,Greenville County,SC,24.44011684518014
29617,Greenville County,SC,32.03505355404089
29651,Greenville County,SC,17.234664070107108
29669,Anderson County,SC,54.9172346640701
29687,Greenville County,SC,28.042843232716653
29801,Aiken County,SC,35.34566699123661
29810,Allendale County,SC,89.87341772151899
29860,Edgefield County,SC,94.54722492697177
29907,Beaufort County,SC,93.96299902629016
57110,Minnehaha County,SD,46.835443037974684
57770,Shannon County,SD,73.32035053554041
37080,Davidson County,TN,68.35443037974683
37716,Anderson County,TN,33.49561830574489
37725,Jefferson County,TN,46.34858812074002
37840,Roane County,TN,66.11489776046739
38039,Hardeman County,TN,99.4157740993184
38106,Shelby County,TN,83.25219084712757
38107,Shelby County,TN,65.62804284323272
38108,Shelby County,TN,48.58812074001948
38112,Shelby County,TN,78.28627069133398
38115,Shelby County,TN,19.279454722492698
38134,Shelby County,TN,32.619279454722495
75035,Collin County,TX,33.88510223953262
75042,Dallas County,TX,86.17332035053555
75057,Denton County,TX,74.58617332035054
75080,Dallas County,TX,50.63291139240506
75104,Dallas County,TX,84.03115871470301
75115,Dallas County,TX,85.7838364167478
75134,Dallas County,TX,78.48101265822784
75146,Dallas County,TX,53.74878286270691
75180,Dallas County,TX,59.00681596884129
75211,Dallas County,TX,76.82570593963
75216,Dallas County,TX,24.24537487828627
75217,Dallas County,TX,82.96007789678676
75220,Dallas County,TX,80.33106134371957
75223,Dallas County,TX,89.97078870496593
75224,Dallas County,TX,41.38266796494644
75227,Dallas County,TX,76.92307692307693
75228,Dallas County,TX,52.96981499513145
75231,Dallas County,TX,78.87049659201558
75232,Dallas County,TX,84.71275559883155
75236,Dallas County,TX,54.81986368062317
75238,Dallas County,TX,80.13631937682571
75241,Dallas County,TX,79.74683544303798
75243,Dallas County,TX,55.20934761441091
75253,Dallas County,TX,57.54625121713729
75254,Dallas County,TX,96.88412852969816
75647,Gregg County,TX,55.014605647517044
75757,Smith County,TX,68.15968841285297
75758,Henderson County,TX,87.43914313534566
75901,Angelina County,TX,32.42453748782862
75951,Jasper County,TX,70.3018500486855
75961,Nacogdoches County,TX,59.39629990262901
76006,Tarrant County,TX,98.14995131450827
76010,Tarrant County,TX,75.55988315481986
76053,Tarrant County,TX,94.9367088607595
76102,Tarrant County,TX,64.94644595910418
76114,Tarrant County,TX,38.656280428432325
76117,Tarrant County,TX,59.20155793573515
76119,Tarrant County,TX,44.88802336903603
76133,Tarrant County,TX,15.774099318403115
76137,Tarrant County,TX,16.845180136319378
76164,Tarrant County,TX,62.414800389483936
76502,Bell County,TX,68.15968841285297
76504,Bell County,TX,8.179162609542356
76528,Coryell County,TX,25.511197663096397
76541,Bell County,TX,40.79844206426485
76543,Bell County,TX,76.72833495618305
76643,McLennan County,TX,64.3622200584226
76706,McLennan County,TX,59.68841285296982
77006,Harris County,TX,67.9649464459591
77007,Harris County,TX,45.95910418695229
77034,Harris County,TX,74.68354430379746
77036,Harris County,TX,46.25121713729309
77039,Harris County,TX,82.86270691333982
77049,Harris County,TX,95.13145082765337
77053,Fort Bend County,TX,91.52872444011685
77055,Harris County,TX,51.21713729308666
77060,Harris County,TX,53.554040895813046
77061,Harris County,TX,83.73904576436222
77062,Harris County,TX,52.67770204479065
77074,Harris County,TX,69.4255111976631
77076,Harris County,TX,90.16553067185978
77084,Harris County,TX,83.0574488802337
77085,Harris County,TX,78.18889970788705
77086,Harris County,TX,59.10418695228822
77087,Harris County,TX,83.64167478091528
77088,Harris County,TX,26.484907497565725
77092,Harris County,TX,49.5618305744888
77372,Montgomery County,TX,81.3047711781889
77401,Harris County,TX,62.31742940603701
77433,Harris County,TX,36.31937682570594
77447,Harris County,TX,94.74196689386562
77449,Harris County,TX,62.70691333982473
77471,Fort Bend County,TX,33.98247322297955
77477,Fort Bend County,TX,83.34956183057449
77489,Fort Bend County,TX,26.971762414800388
77493,Harris County,TX,92.11295034079843
77502,Harris County,TX,86.6601752677702
77504,Harris County,TX,79.94157740993184
77511,Brazoria County,TX,84.81012658227847
77530,Harris County,TX,92.98928919182083
77535,Liberty County,TX,89.19182083739045
77539,Galveston County,TX,62.51217137293087
77550,Galveston County,TX,16.260954235637783
77551,Galveston County,TX,22.49269717624148
77581,Brazoria County,TX,26.29016553067186
77583,Brazoria County,TX,86.27069133398247
77590,Galveston County,TX,85.49172346640701
77591,Galveston County,TX,49.36708860759494
77598,Harris County,TX,84.32327166504382
77630,Orange County,TX,83.44693281402142
77632,Orange County,TX,45.76436222005842
77657,Hardin County,TX,50.34079844206426
77708,Jefferson County,TX,73.12560856864654
77801,Brazos County,TX,92.21032132424537
77845,Brazos County,TX,31.93768257059396
78041,Webb County,TX,33.10613437195716
78216,Bexar County,TX,39.24050632911392
78537,Hidalgo County,TX,79.16260954235638
78542,Hidalgo County,TX,65.23855890944499
78572,Hidalgo County,TX,44.4985394352483
78573,Hidalgo County,TX,48.10126582278481
78589,Hidalgo County,TX,64.26484907497566
78599,Hidalgo County,TX,93.4761441090555
78611,Burnet County,TX,70.39922103213242
78628,Williamson County,TX,65.72541382667964
78748,Travis County,TX,62.999026290165524
78753,Travis County,TX,53.16455696202531
78840,Val Verde County,TX,25.413826679649464
78852,Maverick County,TX,48.97760467380721
79336,Hockley County,TX,63.4858812074002
79549,Scurry County,TX,36.5141187925998
79849,El Paso County,TX,94.25511197663097
79904,El Paso County,TX,57.05939629990263
79928,El Paso County,TX,80.81791626095423
79932,El Paso County,TX,87.92599805258034
20111,Prince William County,VA,46.54333008763388
20121,Fairfax County,VA,86.56280428432326
22079,Fairfax County,VA,37.877312560856865
22193,Prince William County,VA,77.60467380720544
22204,Arlington County,VA,53.45666991236612
22306,Fairfax County,VA,25.803310613437198
22309,Fairfax County,VA,22.78481012658228
22314,Alexandria city,VA,78.38364167478092
22802,Harrisonburg city,VA,20.155793573515094
22901,Albemarle County,VA,29.698149951314505
23222,Richmond city,VA,14.703018500486856
23228,Henrico County,VA,70.20447906523856
23834,Colonial Heights city,VA,41.77215189873418
24148,Henry County,VA,76.43622200584225
24426,Alleghany County,VA,41.57740993184031
98004,King County,WA,84.12852969814996
98012,Snohomish County,WA,26.777020447906523
98026,Snohomish County,WA,80.7205452775073
98036,Snohomish County,WA,80.03894839337877
98052,King County,WA,43.135345666991235
98087,Snohomish County,WA,68.5491723466407
98133,King County,WA,54.235637779941584
98258,Snohomish County,WA,19.37682570593963
98405,Pierce County,WA,29.01655306718598
98499,Pierce County,WA,39.43524829600779
98908,Yakima County,WA,33.59298928919182
99163,Whitman County,WA,97.85783836416748
99224,Spokane County,WA,91.04186952288218
99344,Adams County,WA,85.00486854917236
20002,District of Columbia,DC,21.226874391431352
20019,District of Columbia,DC,3.11587147030185
20020,District of Columbia,DC,2.3369036027263874
25064,Kanawha County,WV,89.67867575462513
25428,Berkeley County,WV,54.52775073028238
25701,Cabell County,WV,13.242453748782863
25840,Fayette County,WV,69.91236611489776
26541,Monongalia County,WV,92.79454722492697
26554,Marion County,WV,3.5053554040895816
53072,Waukesha County,WI,50.535540408958134
53204,Milwaukee County,WI,5.8422590068159685
53206,Milwaukee County,WI,31.645569620253166
53212,Milwaukee County,WI,11.489776046738072
53213,Milwaukee County,WI,43.6222005842259
53214,Milwaukee County,WI,9.737098344693282
53218,Milwaukee County,WI,6.134371957156767
53222,Milwaukee County,WI,49.95131450827653
53402,Racine County,WI,5.063291139240507
53534,Rock County,WI,50.43816942551119
54151,Marinette County,WI,85.39435248296007
54971,Fond du Lac County,WI,77.31256085686465
