ZipCode,county,state,Adult
35218,Jefferson County,AL,51.76470588235295
35810,Madison County,AL,23.627450980392155
35907,Etowah County,AL,73.92156862745098
36104,Montgomery County,AL,44.90196078431373
36542,Baldwin County,AL,68.23529411764706
36603,Mobile County,AL,74.70588235294117
36608,Mobile County,AL,34.21568627450981
99709,Fairbanks North Star Borough,AK,51.470588235294116
85009,Maricopa County,AZ,33.23529411764706
85033,Maricopa County,AZ,11.862745098039214
85037,Maricopa County,AZ,19.215686274509807
85142,Maricopa County,AZ,27.941176470588236
85208,Maricopa County,AZ,77.3529411764706
85210,Maricopa County,AZ,71.86274509803921
85301,Maricopa County,AZ,4.019607843137255
85339,Maricopa County,AZ,16.56862745098039
85530,Graham County,AZ,76.9607843137255
85629,Pima County,AZ,57.15686274509804
85713,Pima County,AZ,38.529411764705884
86538,Apache County,AZ,94.01960784313725
72401,Craighead County,AR,11.07843137254902
72704,Washington County,AR,68.33333333333333
90003,Los Angeles County,CA,71.66666666666667
90044,Los Angeles County,CA,5.588235294117648
90046,Los Angeles County,CA,68.33333333333333
90049,Los Angeles County,CA,66.76470588235294
90059,Los Angeles County,CA,84.2156862745098
90063,Los Angeles County,CA,40.3921568627451
90241,Los Angeles County,CA,43.23529411764706
90262,Los Angeles County,CA,70.19607843137254
90280,Los Angeles County,CA,51.86274509803922
90680,Orange County,CA,74.6078431372549
90713,Los Angeles County,CA,54.80392156862746
90715,Los Angeles County,CA,89.70588235294117
90740,Orange County,CA,56.07843137254902
90808,Los Angeles County,CA,73.62745098039215
91030,Los Angeles County,CA,94.90196078431372
91342,Los Angeles County,CA,42.05882352941177
91739,San Bernardino County,CA,76.66666666666667
91910,San Diego County,CA,46.27450980392157
92008,San Diego County,CA,39.705882352941174
92009,San Diego County,CA,52.84313725490196
92011,San Diego County,CA,74.31372549019608
92025,San Diego County,CA,65.58823529411765
92037,San Diego County,CA,71.96078431372548
92040,San Diego County,CA,37.254901960784316
92071,San Diego County,CA,19.31372549019608
92103,San Diego County,CA,35.88235294117647
92108,San Diego County,CA,96.07843137254902
92109,San Diego County,CA,81.56862745098039
92111,San Diego County,CA,43.529411764705884
92113,San Diego County,CA,45.78431372549019
92115,San Diego County,CA,23.92156862745098
92117,San Diego County,CA,83.23529411764706
92126,San Diego County,CA,77.74509803921569
92128,San Diego County,CA,92.74509803921569
92225,Riverside County,CA,85.09803921568627
92243,Imperial County,CA,18.823529411764707
92252,San Bernardino County,CA,62.64705882352941
92301,San Bernardino County,CA,69.80392156862744
92335,San Bernardino County,CA,27.35294117647059
92336,San Bernardino County,CA,7.352941176470589
92354,San Bernardino County,CA,73.33333333333333
92408,San Bernardino County,CA,85.88235294117646
92410,San Bernardino County,CA,25
92504,Riverside County,CA,32.549019607843135
92553,Riverside County,CA,64.50980392156863
92563,Riverside County,CA,52.54901960784314
92614,Orange County,CA,48.431372549019606
92618,Orange County,CA,50.588235294117645
92620,Orange County,CA,61.76470588235294
92646,Orange County,CA,19.411764705882355
92656,Orange County,CA,53.8235294117647
92660,Orange County,CA,75.29411764705883
92675,Orange County,CA,52.64705882352941
92688,Orange County,CA,72.74509803921568
92691,Orange County,CA,40.98039215686274
92704,Orange County,CA,24.705882352941178
92801,Orange County,CA,25.7843137254902
92804,Orange County,CA,10.196078431372548
92807,Orange County,CA,45.490196078431374
92870,Orange County,CA,28.52941176470588
92883,Riverside County,CA,53.529411764705884
92887,Orange County,CA,60.49019607843137
93030,Ventura County,CA,12.450980392156863
93063,Ventura County,CA,26.372549019607845
93109,Santa Barbara County,CA,99.31372549019608
93215,Kern County,CA,47.45098039215686
93306,Kern County,CA,15.490196078431373
93307,Kern County,CA,49.90196078431373
93313,Kern County,CA,41.37254901960784
93420,San Luis Obispo County,CA,80.29411764705883
93454,Santa Barbara County,CA,96.37254901960785
93546,Mono County,CA,82.6470588235294
93552,Los Angeles County,CA,94.6078431372549
93635,Merced County,CA,58.333333333333336
93637,Madera County,CA,51.9607843137255
93702,Fresno County,CA,65.98039215686275
93705,Fresno County,CA,52.94117647058824
93720,Fresno County,CA,25.392156862745097
93728,Fresno County,CA,65
93906,Monterey County,CA,30.58823529411765
93933,Monterey County,CA,78.43137254901961
94002,San Mateo County,CA,44.70588235294118
94014,San Mateo County,CA,77.94117647058823
94025,San Mateo County,CA,88.23529411764706
94028,San Mateo County,CA,94.2156862745098
94066,San Mateo County,CA,34.21568627450981
94080,San Mateo County,CA,24.6078431372549
94107,San Francisco County,CA,83.82352941176471
94109,San Francisco County,CA,75.88235294117646
94114,San Francisco County,CA,65
94116,San Francisco County,CA,45
94118,San Francisco County,CA,87.45098039215686
94122,San Francisco County,CA,98.52941176470588
94124,San Francisco County,CA,18.725490196078432
94131,San Francisco County,CA,94.41176470588235
94303,San Mateo County,CA,21.07843137254902
94533,Solano County,CA,17.647058823529413
94541,Alameda County,CA,45.3921568627451
94547,Contra Costa County,CA,90.88235294117646
94550,Alameda County,CA,65.3921568627451
94558,Napa County,CA,23.72549019607843
94568,Alameda County,CA,42.84313725490196
94577,Alameda County,CA,28.431372549019606
94580,Alameda County,CA,66.17647058823529
94589,Solano County,CA,47.647058823529406
94601,Alameda County,CA,62.94117647058823
94608,Alameda County,CA,93.62745098039215
94611,Alameda County,CA,97.45098039215686
94708,Alameda County,CA,92.45098039215686
94903,Marin County,CA,64.01960784313725
94904,Marin County,CA,85.7843137254902
95014,Santa Clara County,CA,52.05882352941177
95020,Santa Clara County,CA,52.450980392156865
95060,Santa Cruz County,CA,60.49019607843137
95062,Santa Cruz County,CA,60.78431372549019
95073,Santa Cruz County,CA,90.58823529411765
95122,Santa Clara County,CA,95.19607843137254
95123,Santa Clara County,CA,29.31372549019608
95240,San Joaquin County,CA,64.6078431372549
95337,San Joaquin County,CA,30.980392156862745
95340,Merced County,CA,80.7843137254902
95356,Stanislaus County,CA,31.372549019607842
95366,San Joaquin County,CA,69.90196078431372
95376,San Joaquin County,CA,85.49019607843137
95436,Sonoma County,CA,92.94117647058823
95476,Sonoma County,CA,58.43137254901961
95610,Sacramento County,CA,35.588235294117645
95628,Sacramento County,CA,49.705882352941174
95660,Sacramento County,CA,86.47058823529412
95687,Solano County,CA,91.86274509803921
95691,Yolo County,CA,42.254901960784316
95694,Yolo County,CA,96.96078431372548
95823,Sacramento County,CA,8.72549019607843
95965,Butte County,CA,55.09803921568628
95991,Sutter County,CA,22.15686274509804
96094,Siskiyou County,CA,87.54901960784314
96150,El Dorado County,CA,57.549019607843135
80005,Jefferson County,CO,74.50980392156863
80007,Jefferson County,CO,82.25490196078431
80013,Arapahoe County,CO,7.156862745098039
80016,Arapahoe County,CO,17.254901960784313
80017,Arapahoe County,CO,57.05882352941176
80209,Denver County,CO,50.68627450980392
80211,Denver County,CO,28.823529411764703
80241,Adams County,CO,71.37254901960785
80249,Denver County,CO,28.03921568627451
80304,Boulder County,CO,74.11764705882354
80403,Jefferson County,CO,91.27450980392156
80465,Jefferson County,CO,77.64705882352942
80501,Boulder County,CO,15.294117647058824
80503,Boulder County,CO,53.03921568627451
80602,Adams County,CO,36.17647058823529
80610,Weld County,CO,99.01960784313727
80631,Weld County,CO,42.450980392156865
80634,Weld County,CO,2.3529411764705883
80905,El Paso County,CO,53.431372549019606
81101,Alamosa County,CO,33.52941176470588
81505,Mesa County,CO,80.88235294117648
81632,Eagle County,CO,93.43137254901961
06043,Tolland County,CT,83.43137254901961
06051,Hartford County,CT,29.607843137254903
06082,Hartford County,CT,13.823529411764707
06084,Tolland County,CT,65.58823529411765
06106,Hartford County,CT,4.117647058823529
06108,Hartford County,CT,50.3921568627451
06118,Hartford County,CT,18.92156862745098
06424,Middlesex County,CT,66.56862745098039
06437,New Haven County,CT,77.05882352941177
06450,New Haven County,CT,4.6078431372549025
06457,Middlesex County,CT,23.52941176470588
06489,Hartford County,CT,23.235294117647058
06512,New Haven County,CT,17.45098039215686
06514,New Haven County,CT,54.607843137254896
06515,New Haven County,CT,50.19607843137255
06611,Fairfield County,CT,85
06770,New Haven County,CT,18.235294117647058
06851,Fairfield County,CT,46.372549019607845
06902,Fairfield County,CT,16.07843137254902
06905,Fairfield County,CT,66.96078431372548
19703,New Castle County,DE,75
19940,Sussex County,DE,81.86274509803921
19966,Sussex County,DE,80
32110,Flagler County,FL,56.1764705882353
32225,Duval County,FL,22.058823529411764
32257,Duval County,FL,18.43137254901961
32607,Alachua County,FL,68.52941176470588
32726,Lake County,FL,41.66666666666667
32735,Lake County,FL,90.3921568627451
32817,Orange County,FL,53.627450980392155
32822,Orange County,FL,14.313725490196077
32837,Orange County,FL,15.784313725490195
32909,Brevard County,FL,30.392156862745097
33068,Broward County,FL,34.705882352941174
33146,Miami-Dade County,FL,94.80392156862744
33157,Miami-Dade County,FL,26.568627450980394
33162,Miami-Dade County,FL,46.666666666666664
33179,Miami-Dade County,FL,97.84313725490196
33316,Broward County,FL,91.07843137254902
33317,Broward County,FL,65.98039215686275
33326,Broward County,FL,68.92156862745098
33432,Palm Beach County,FL,73.82352941176471
33545,Pasco County,FL,78.92156862745098
33559,Hillsborough County,FL,89.11764705882354
33572,Hillsborough County,FL,71.76470588235294
33612,Hillsborough County,FL,29.411764705882355
33625,Hillsborough County,FL,74.90196078431373
33763,Pinellas County,FL,88.52941176470588
33805,Polk County,FL,30.686274509803923
33990,Lee County,FL,28.627450980392155
34229,Sarasota County,FL,83.62745098039215
34237,Sarasota County,FL,45.88235294117647
34293,Sarasota County,FL,37.64705882352941
34652,Pasco County,FL,31.470588235294116
34743,Osceola County,FL,37.15686274509804
34990,Martin County,FL,50
30004,Fulton County,GA,32.745098039215684
30016,Newton County,GA,32.35294117647059
30017,Gwinnett County,GA,86.66666666666667
30022,Fulton County,GA,31.07843137254902
30040,Forsyth County,GA,20
30044,Gwinnett County,GA,56.470588235294116
30075,Fulton County,GA,74.01960784313727
30087,DeKalb County,GA,49.11764705882353
30094,Rockdale County,GA,36.27450980392157
30097,Fulton County,GA,85.19607843137254
30135,Douglas County,GA,62.35294117647059
30188,Cherokee County,GA,78.23529411764706
30240,Troup County,GA,19.411764705882355
30309,Fulton County,GA,71.56862745098039
30319,DeKalb County,GA,82.15686274509804
30329,DeKalb County,GA,77.45098039215686
30338,DeKalb County,GA,60.49019607843137
30344,Fulton County,GA,34.01960784313726
30750,Walker County,GA,93.92156862745098
31088,Houston County,GA,52.254901960784316
31211,Bibb County,GA,58.62745098039216
31405,Chatham County,GA,39.01960784313726
31513,Appling County,GA,56.86274509803921
31909,Muscogee County,GA,30.490196078431374
96734,Honolulu County,HI,56.372549019607845
96746,Kauai County,HI,79.70588235294119
96782,Honolulu County,HI,72.54901960784314
96792,Honolulu County,HI,8.627450980392156
96815,Honolulu County,HI,38.62745098039216
96819,Honolulu County,HI,11.96078431372549
83301,Twin Falls County,ID,40.68627450980392
83605,Canyon County,ID,81.66666666666667
83646,Ada County,ID,31.176470588235293
83651,Canyon County,ID,12.941176470588237
83716,Ada County,ID,40.19607843137255
60016,Cook County,IL,18.333333333333332
60031,Lake County,IL,38.13725490196078
60044,Lake County,IL,87.94117647058823
60084,Lake County,IL,61.568627450980394
60087,Lake County,IL,81.17647058823529
60123,Kane County,IL,16.274509803921568
60126,DuPage County,IL,7.254901960784315
60136,Kane County,IL,98.23529411764706
60148,DuPage County,IL,34.80392156862745
60152,McHenry County,IL,65.19607843137256
60172,DuPage County,IL,86.07843137254902
60194,Cook County,IL,61.86274509803922
60202,Cook County,IL,88.33333333333333
60304,Cook County,IL,45.588235294117645
60430,Cook County,IL,78.52941176470588
60440,Will County,IL,14.901960784313726
60442,Will County,IL,68.92156862745098
60447,Grundy County,IL,95.98039215686275
60453,Cook County,IL,50.78431372549019
60502,DuPage County,IL,42.35294117647059
60503,Will County,IL,72.6470588235294
60520,DeKalb County,IL,97.94117647058823
60527,DuPage County,IL,68.62745098039215
60542,Kane County,IL,79.41176470588235
60563,DuPage County,IL,35.78431372549019
60564,Will County,IL,29.215686274509807
60623,Cook County,IL,22.84313725490196
60626,Cook County,IL,14.411764705882351
60630,Cook County,IL,45
60632,Cook County,IL,9.705882352941178
60639,Cook County,IL,7.0588235294117645
60647,Cook County,IL,5.980392156862745
60655,Cook County,IL,22.254901960784313
60657,Cook County,IL,43.03921568627451
61008,Boone County,IL,25.7843137254902
61065,Boone County,IL,57.745098039215684
61265,Rock Island County,IL,64.70588235294117
61736,McLean County,IL,99.70588235294117
62959,Williamson County,IL,32.84313725490196
46038,Hamilton County,IN,74.41176470588235
46311,Lake County,IN,24.509803921568626
46342,Lake County,IN,62.549019607843135
46368,Porter County,IN,2.549019607843137
46403,Lake County,IN,87.3529411764706
46405,Lake County,IN,31.274509803921568
46816,Allen County,IN,50.09803921568627
47630,Warrick County,IN,61.96078431372549
50023,Polk County,IA,54.11764705882353
50315,Polk County,IA,69.50980392156862
51360,Dickinson County,IA,80.3921568627451
52003,Dubuque County,IA,80.68627450980392
52246,Johnson County,IA,48.03921568627451
52301,Iowa County,IA,98.92156862745098
52302,Linn County,IA,16.274509803921568
52405,Linn County,IA,30
52722,Scott County,IA,15.392156862745098
66083,Johnson County,KS,64.11764705882354
66208,Johnson County,KS,93.23529411764706
67203,Sedgwick County,KS,58.13725490196079
67801,Ford County,KS,46.470588235294116
40504,Fayette County,KY,33.13725490196078
40505,Fayette County,KY,18.03921568627451
40515,Fayette County,KY,38.92156862745098
41048,Boone County,KY,98.0392156862745
41101,Boyd County,KY,12.647058823529411
41102,Boyd County,KY,58.03921568627452
41230,Lawrence County,KY,46.96078431372549
41339,Breathitt County,KY,37.745098039215684
70002,Jefferson Parish,LA,78.62745098039215
70003,Jefferson Parish,LA,83.52941176470588
70052,St. James Parish,LA,83.72549019607844
70122,Orleans Parish,LA,76.86274509803923
70433,St. Tammany Parish,LA,21.764705882352942
70460,St. Tammany Parish,LA,48.92156862745098
70466,Tangipahoa Parish,LA,41.568627450980394
70508,Lafayette Parish,LA,11.372549019607844
70589,St. Landry Parish,LA,98.82352941176471
70802,East Baton Rouge Parish,LA,4.705882352941177
71111,Bossier Parish,LA,73.52941176470588
71373,Concordia Parish,LA,74.11764705882354
03904,York County,ME,98.72549019607844
04021,Cumberland County,ME,94.70588235294117
04032,Cumberland County,ME,75.7843137254902
04055,Cumberland County,ME,95.58823529411765
04086,Sagadahoc County,ME,66.66666666666666
04222,Androscoggin County,ME,98.62745098039215
04364,Kennebec County,ME,45.294117647058826
04401,Penobscot County,ME,10
04901,Kennebec County,ME,4.313725490196078
20646,Charles County,MD,97.25490196078431
20705,Prince George's County,MD,67.94117647058823
20716,Prince George's County,MD,79.31372549019608
20721,Prince George's County,MD,96.47058823529412
20743,Prince George's County,MD,26.96078431372549
20746,Prince George's County,MD,51.17647058823529
20781,Prince George's County,MD,93.52941176470588
20855,Montgomery County,MD,84.6078431372549
20886,Montgomery County,MD,64.2156862745098
21009,Harford County,MD,79.80392156862746
21030,Baltimore County,MD,57.84313725490197
21044,Howard County,MD,66.27450980392156
21048,Carroll County,MD,84.6078431372549
21076,Anne Arundel County,MD,88.52941176470588
21093,Baltimore County,MD,76.47058823529412
21102,Carroll County,MD,96.76470588235294
21113,Anne Arundel County,MD,87.6470588235294
21120,Baltimore County,MD,96.17647058823529
21144,Anne Arundel County,MD,93.03921568627452
21157,Carroll County,MD,67.45098039215686
21158,Carroll County,MD,72.94117647058823
21202,Baltimore city,MD,32.450980392156865
21213,Baltimore city,MD,55.98039215686275
21216,Baltimore city,MD,27.15686274509804
21220,Baltimore County,MD,13.23529411764706
21224,Baltimore city,MD,11.666666666666666
21228,Baltimore County,MD,81.37254901960785
21231,Baltimore city,MD,53.627450980392155
21234,Baltimore County,MD,11.76470588235294
21620,Kent County,MD,76.37254901960785
21784,Carroll County,MD,43.92156862745098
01040,Hampden County,MA,0
01062,Hampshire County,MA,61.47058823529412
01238,Berkshire County,MA,42.94117647058823
01460,Middlesex County,MA,31.76470588235294
01469,Middlesex County,MA,84.50980392156863
01510,Worcester County,MA,41.47058823529412
01532,Worcester County,MA,88.13725490196079
01605,Worcester County,MA,69.2156862745098
01608,Worcester County,MA,58.92156862745098
01609,Worcester County,MA,90.29411764705883
01612,Worcester County,MA,95.09803921568627
01721,Middlesex County,MA,24.705882352941178
01730,Middlesex County,MA,24.215686274509803
01741,Middlesex County,MA,92.64705882352942
01749,Middlesex County,MA,15
01754,Middlesex County,MA,53.92156862745098
01756,Worcester County,MA,83.03921568627452
01772,Worcester County,MA,85.19607843137254
01776,Middlesex County,MA,61.372549019607845
01778,Middlesex County,MA,69.11764705882352
01801,Middlesex County,MA,25.49019607843137
01803,Middlesex County,MA,41.76470588235294
01824,Middlesex County,MA,26.078431372549023
01863,Middlesex County,MA,69.70588235294117
01879,Middlesex County,MA,49.2156862745098
01913,Essex County,MA,46.1764705882353
01921,Essex County,MA,70.98039215686275
01938,Essex County,MA,36.470588235294116
02019,Norfolk County,MA,27.647058823529413
02030,Norfolk County,MA,87.25490196078431
02054,Norfolk County,MA,82.84313725490196
02066,Plymouth County,MA,92.84313725490196
02116,Suffolk County,MA,72.15686274509804
02119,Suffolk County,MA,1.4705882352941175
02126,Suffolk County,MA,3.823529411764706
02128,Suffolk County,MA,3.2352941176470593
02130,Suffolk County,MA,6.2745098039215685
02135,Suffolk County,MA,3.6274509803921573
02141,Middlesex County,MA,49.6078431372549
02149,Middlesex County,MA,41.07843137254902
02151,Suffolk County,MA,1.6666666666666667
02152,Suffolk County,MA,48.8235294117647
02155,Middlesex County,MA,5.490196078431373
02176,Middlesex County,MA,5.88235294117647
02301,Plymouth County,MA,0.49019607843137253
02302,Plymouth County,MA,1.0784313725490196
02347,Plymouth County,MA,59.90196078431372
02368,Norfolk County,MA,2.0588235294117645
02420,Middlesex County,MA,28.235294117647058
02446,Norfolk County,MA,68.13725490196079
02453,Middlesex County,MA,6.862745098039216
02472,Middlesex County,MA,5.686274509803922
02474,Middlesex County,MA,9.313725490196079
02492,Norfolk County,MA,20.49019607843137
02703,Bristol County,MA,0.7843137254901961
02760,Bristol County,MA,7.647058823529412
48017,Oakland County,MI,69.31372549019608
48044,Macomb County,MI,6.372549019607843
48111,Wayne County,MI,5.294117647058823
48117,Monroe County,MI,42.549019607843135
48127,Wayne County,MI,8.92156862745098
48150,Wayne County,MI,20.588235294117645
48152,Wayne County,MI,78.82352941176471
48170,Wayne County,MI,9.901960784313726
48178,Oakland County,MI,24.705882352941178
48185,Wayne County,MI,34.509803921568626
48192,Wayne County,MI,13.137254901960786
48205,Wayne County,MI,29.901960784313726
48209,Wayne County,MI,17.745098039215687
48227,Wayne County,MI,2.843137254901961
48317,Macomb County,MI,16.862745098039216
48322,Oakland County,MI,60
48331,Oakland County,MI,28.627450980392155
48348,Oakland County,MI,55.7843137254902
48393,Oakland County,MI,36.07843137254902
48864,Ingham County,MI,58.529411764705884
48910,Ingham County,MI,47.94117647058824
49064,Van Buren County,MI,99.6078431372549
49221,Lenawee County,MI,42.64705882352941
49256,Lenawee County,MI,95
49301,Kent County,MI,55.58823529411765
49424,Ottawa County,MI,10.980392156862745
49431,Mason County,MI,25.098039215686274
49546,Kent County,MI,73.72549019607844
49802,Dickinson County,MI,63.03921568627451
55046,Rice County,MN,96.56862745098039
55110,Ramsey County,MN,38.333333333333336
55119,Ramsey County,MN,9.509803921568627
55120,Dakota County,MN,98.4313725490196
55315,Carver County,MN,99.41176470588235
55379,Scott County,MN,20.19607843137255
55408,Hennepin County,MN,7.8431372549019605
55410,Hennepin County,MN,76.17647058823529
55411,Hennepin County,MN,38.03921568627451
55414,Hennepin County,MN,41.17647058823529
55416,Hennepin County,MN,61.1764705882353
55421,Anoka County,MN,15.686274509803921
55426,Hennepin County,MN,21.470588235294116
55427,Hennepin County,MN,43.8235294117647
55428,Hennepin County,MN,14.411764705882351
55807,St. Louis County,MN,85.58823529411764
56071,Scott County,MN,90.49019607843137
56073,Brown County,MN,70.7843137254902
56352,Stearns County,MN,89.90196078431373
56560,Clay County,MN,1.8627450980392157
56721,Polk County,MN,43.333333333333336
39573,Stone County,MS,83.92156862745098
63031,St. Louis County,MO,12.84313725490196
63118,St. Louis city,MO,52.156862745098046
63132,St. Louis County,MO,87.15686274509804
63138,St. Louis County,MO,40.588235294117645
63303,St. Charles County,MO,82.94117647058825
63304,St. Charles County,MO,22.745098039215687
63366,St. Charles County,MO,8.529411764705882
64093,Johnson County,MO,54.90196078431373
64131,Jackson County,MO,50.98039215686274
64155,Clay County,MO,59.31372549019608
64633,Carroll County,MO,79.11764705882352
65301,Pettis County,MO,3.5294117647058822
65712,Lawrence County,MO,100
65802,Greene County,MO,29.50980392156863
65804,Greene County,MO,66.47058823529412
59803,Missoula County,MT,90.19607843137256
68005,Sarpy County,NE,51.07843137254902
68007,Douglas County,NE,89.6078431372549
68130,Douglas County,NE,73.23529411764706
68164,Douglas County,NE,60.09803921568627
68504,Lancaster County,NE,67.3529411764706
89103,Clark County,NV,41.96078431372549
89166,Clark County,NV,50.49019607843137
03076,Hillsborough County,NH,34.90196078431372
03104,Hillsborough County,NH,9.705882352941178
03110,Hillsborough County,NH,45.68627450980392
03246,Belknap County,NH,37.745098039215684
03825,Strafford County,NH,91.47058823529412
03848,Rockingham County,NH,59.509803921568626
07011,Passaic County,NJ,54.509803921568626
07026,Bergen County,NJ,51.66666666666667
07066,Union County,NJ,72.25490196078431
07067,Middlesex County,NJ,62.745098039215684
07090,Union County,NJ,85.88235294117646
07095,Middlesex County,NJ,30.19607843137255
07108,Essex County,NJ,1.9607843137254901
07201,Union County,NJ,58.82352941176471
07302,Hudson County,NJ,84.6078431372549
07304,Hudson County,NJ,25.588235294117645
07307,Hudson County,NJ,29.705882352941178
07421,Passaic County,NJ,92.25490196078432
07432,Bergen County,NJ,89.90196078431373
07440,Morris County,NJ,99.2156862745098
07601,Bergen County,NJ,4.803921568627452
07652,Bergen County,NJ,91.37254901960785
07724,Monmouth County,NJ,48.13725490196079
07801,Morris County,NJ,40.78431372549019
07860,Sussex County,NJ,20
07930,Morris County,NJ,93.13725490196079
08003,Camden County,NJ,63.431372549019606
08016,Burlington County,NJ,2.941176470588235
08028,Gloucester County,NJ,75.19607843137254
08033,Camden County,NJ,96.66666666666667
08046,Burlington County,NJ,4.901960784313726
08051,Gloucester County,NJ,46.666666666666664
08056,Gloucester County,NJ,95.88235294117648
08057,Burlington County,NJ,48.431372549019606
08078,Camden County,NJ,48.627450980392155
08083,Camden County,NJ,60.882352941176464
08085,Gloucester County,NJ,45.19607843137255
08094,Gloucester County,NJ,20.68627450980392
08096,Gloucester County,NJ,32.15686274509804
08106,Camden County,NJ,91.56862745098039
08107,Camden County,NJ,49.411764705882355
08108,Camden County,NJ,75.98039215686273
08109,Camden County,NJ,40.490196078431374
08332,Cumberland County,NJ,1.1764705882352942
08527,Ocean County,NJ,53.92156862745098
08618,Mercer County,NJ,0.6862745098039216
08628,Mercer County,NJ,54.2156862745098
08648,Mercer County,NJ,60.882352941176464
08736,Monmouth County,NJ,76.5686274509804
08816,Middlesex County,NJ,70.49019607843138
08820,Middlesex County,NJ,87.74509803921569
08825,Hunterdon County,NJ,96.86274509803921
08831,Middlesex County,NJ,50.882352941176464
08854,Middlesex County,NJ,6.470588235294119
08861,Middlesex County,NJ,1.3725490196078431
08879,Middlesex County,NJ,25.19607843137255
08901,Middlesex County,NJ,61.078431372549026
87004,Sandoval County,NM,60.09803921568627
87020,Cibola County,NM,90.98039215686275
87106,Bernalillo County,NM,69.90196078431372
87109,Bernalillo County,NM,12.549019607843137
87111,Bernalillo County,NM,14.705882352941178
10002,New York County,NY,3.3333333333333335
10017,New York County,NY,90.7843137254902
10022,New York County,NY,72.94117647058823
10025,New York County,NY,19.901960784313726
10027,New York County,NY,32.64705882352941
10034,New York County,NY,53.13725490196079
10455,Bronx County,NY,16.176470588235293
10458,Bronx County,NY,3.9215686274509802
10460,Bronx County,NY,54.70588235294118
10461,Bronx County,NY,47.74509803921569
10463,Bronx County,NY,39.6078431372549
10465,Bronx County,NY,77.25490196078432
10466,Bronx County,NY,16.470588235294116
10467,Bronx County,NY,0.39215686274509803
10468,Bronx County,NY,1.2745098039215685
10474,Bronx County,NY,97.35294117647058
10528,Westchester County,NY,85.68627450980392
10583,Westchester County,NY,94.31372549019608
10591,Westchester County,NY,78.03921568627452
10603,Westchester County,NY,62.05882352941177
10952,Rockland County,NY,81.07843137254902
10980,Rockland County,NY,99.80392156862746
11102,Queens County,NY,79.01960784313725
11203,Kings County,NY,26.27450980392157
11205,Kings County,NY,8.823529411764707
11207,Kings County,NY,0.29411764705882354
11208,Kings County,NY,0.8823529411764706
11211,Kings County,NY,33.33333333333333
11218,Kings County,NY,65.29411764705883
11236,Kings County,NY,3.7254901960784315
11237,Kings County,NY,79.90196078431373
11368,Queens County,NY,72.45098039215686
11372,Queens County,NY,22.941176470588236
11416,Queens County,NY,65.88235294117646
11421,Queens County,NY,25.294117647058822
11422,Queens County,NY,80.3921568627451
11423,Queens County,NY,67.84313725490196
11590,Nassau County,NY,35.98039215686274
11691,Queens County,NY,6.666666666666667
11713,Suffolk County,NY,89.2156862745098
11720,Suffolk County,NY,57.647058823529406
11757,Suffolk County,NY,32.94117647058823
12304,Schenectady County,NY,22.647058823529413
12401,Ulster County,NY,15.588235294117647
12771,Orange County,NY,55.196078431372555
12866,Saratoga County,NY,10.098039215686274
13027,Onondaga County,NY,9.607843137254903
13040,Cortland County,NY,80.3921568627451
13214,Onondaga County,NY,92.54901960784314
13619,Jefferson County,NY,36.37254901960784
13732,Tioga County,NY,35.490196078431374
13753,Delaware County,NY,78.33333333333333
13820,Otsego County,NY,44.509803921568626
13850,Broome County,NY,11.568627450980392
14051,Erie County,NY,31.56862745098039
14072,Erie County,NY,75.68627450980392
14092,Niagara County,NY,39.31372549019608
14150,Erie County,NY,4.411764705882353
14206,Erie County,NY,9.215686274509805
14211,Erie County,NY,6.764705882352941
14213,Erie County,NY,88.72549019607843
14215,Erie County,NY,8.431372549019608
14219,Erie County,NY,40
14221,Erie County,NY,8.137254901960784
14222,Erie County,NY,71.17647058823529
14223,Erie County,NY,21.176470588235293
14424,Ontario County,NY,12.058823529411764
14454,Livingston County,NY,82.45098039215686
14472,Monroe County,NY,36.96078431372549
14526,Monroe County,NY,63.725490196078425
14580,Monroe County,NY,0.5882352941176471
14609,Monroe County,NY,0.19607843137254902
14612,Monroe County,NY,2.156862745098039
14617,Monroe County,NY,5.098039215686274
14618,Monroe County,NY,12.156862745098039
14619,Monroe County,NY,10.294117647058822
14620,Monroe County,NY,63.8235294117647
14623,Monroe County,NY,12.352941176470589
14624,Monroe County,NY,2.2549019607843137
14701,Chautauqua County,NY,2.7450980392156863
14738,Chautauqua County,NY,86.76470588235294
14741,Cattaraugus County,NY,99.11764705882354
27292,Davidson County,NC,16.666666666666664
27301,Guilford County,NC,56.96078431372549
27407,Guilford County,NC,13.627450980392156
27514,Orange County,NC,46.666666666666664
27517,Orange County,NC,82.05882352941177
27536,Vance County,NC,65.7843137254902
27565,Granville County,NC,16.96078431372549
27583,Person County,NC,79.6078431372549
27610,Wake County,NC,22.450980392156865
27701,Durham County,NC,36.56862745098039
27703,Durham County,NC,29.01960784313726
27704,Durham County,NC,7.941176470588235
27713,Durham County,NC,61.274509803921575
27834,Pitt County,NC,5.392156862745098
28027,Cabarrus County,NC,13.529411764705882
28052,Gaston County,NC,19.80392156862745
28078,Mecklenburg County,NC,51.5686274509804
28173,Union County,NC,57.35294117647059
28208,Mecklenburg County,NC,6.96078431372549
28209,Mecklenburg County,NC,72.05882352941177
28215,Mecklenburg County,NC,35.3921568627451
28227,Mecklenburg County,NC,14.607843137254903
28269,Mecklenburg County,NC,9.117647058823529
28273,Mecklenburg County,NC,33.72549019607843
28405,New Hanover County,NC,54.41176470588235
28601,Catawba County,NC,33.92156862745098
28734,Macon County,NC,12.254901960784313
58503,Burleigh County,ND,52.64705882352941
58701,Ward County,ND,28.03921568627451
43016,Franklin County,OH,75.58823529411765
43055,Licking County,OH,1.5686274509803921
43130,Fairfield County,OH,1.7647058823529411
43147,Fairfield County,OH,72.84313725490196
43215,Franklin County,OH,57.25490196078431
43219,Franklin County,OH,10.882352941176471
43229,Franklin County,OH,5
43235,Franklin County,OH,63.13725490196078
43402,Wood County,OH,15.980392156862743
43615,Lucas County,OH,3.0392156862745097
43950,Belmont County,OH,30.784313725490197
44011,Lorain County,OH,23.137254901960784
44060,Lake County,OH,37.94117647058823
44102,Cuyahoga County,OH,0.09803921568627451
44108,Cuyahoga County,OH,2.6470588235294117
44111,Cuyahoga County,OH,38.72549019607843
44116,Cuyahoga County,OH,30.098039215686274
44118,Cuyahoga County,OH,7.941176470588235
44123,Cuyahoga County,OH,20.784313725490197
44126,Cuyahoga County,OH,39.509803921568626
44128,Cuyahoga County,OH,2.450980392156863
44129,Cuyahoga County,OH,10.588235294117647
44133,Cuyahoga County,OH,20.294117647058822
44135,Cuyahoga County,OH,84.11764705882354
44137,Cuyahoga County,OH,19.607843137254903
44144,Cuyahoga County,OH,8.333333333333332
44212,Medina County,OH,27.058823529411764
44310,Summit County,OH,7.549019607843137
44320,Summit County,OH,37.05882352941177
44410,Trumbull County,OH,28.921568627450984
44646,Stark County,OH,26.176470588235297
44685,Summit County,OH,35.09803921568627
44705,Stark County,OH,18.529411764705884
44706,Stark County,OH,52.352941176470594
44837,Huron County,OH,76.27450980392156
45014,Butler County,OH,10.686274509803921
45030,Hamilton County,OH,70.98039215686275
45103,Clermont County,OH,20.392156862745097
45177,Clinton County,OH,18.137254901960784
45204,Hamilton County,OH,88.8235294117647
45205,Hamilton County,OH,43.72549019607843
45231,Hamilton County,OH,6.176470588235294
45232,Hamilton County,OH,63.52941176470588
45331,Darke County,OH,47.15686274509804
45403,Montgomery County,OH,28.235294117647058
45431,Montgomery County,OH,35.294117647058826
45449,Montgomery County,OH,71.27450980392157
45638,Lawrence County,OH,44.41176470588235
45694,Scioto County,OH,21.372549019607842
45697,Adams County,OH,97.6470588235294
45833,Allen County,OH,76.07843137254902
73012,Oklahoma County,OK,37.549019607843135
73025,Oklahoma County,OK,91.76470588235294
73044,Logan County,OK,40.294117647058826
73107,Oklahoma County,OK,41.27450980392157
73119,Oklahoma County,OK,17.058823529411764
73129,Oklahoma County,OK,39.411764705882355
73533,Stephens County,OK,43.627450980392155
74044,Creek County,OK,67.54901960784314
74872,Garvin County,OK,99.90196078431373
97056,Columbia County,OR,95.29411764705881
97060,Multnomah County,OR,59.705882352941174
97202,Multnomah County,OR,20.88235294117647
97212,Multnomah County,OR,90.09803921568627
97219,Multnomah County,OR,75.09803921568627
97229,Washington County,OR,27.54901960784314
97267,Clackamas County,OR,55.294117647058826
97504,Jackson County,OR,15.196078431372548
97702,Deschutes County,OR,62.254901960784316
97882,Umatilla County,OR,70.29411764705881
15001,Beaver County,PA,15.098039215686274
15204,Allegheny County,PA,79.2156862745098
15801,Clearfield County,PA,6.078431372549019
15905,Cambria County,PA,36.76470588235294
16508,Erie County,PA,40.88235294117647
16635,Blair County,PA,97.54901960784314
17011,Cumberland County,PA,19.705882352941178
17022,Lancaster County,PA,37.450980392156865
17044,Mifflin County,PA,31.862745098039213
17046,Lebanon County,PA,26.862745098039216
17110,Dauphin County,PA,11.470588235294118
17257,Cumberland County,PA,17.84313725490196
17324,Cumberland County,PA,94.01960784313725
17356,York County,PA,22.35294117647059
17370,York County,PA,84.31372549019608
17545,Lancaster County,PA,61.66666666666667
17565,Lancaster County,PA,99.50980392156863
17901,Schuylkill County,PA,19.11764705882353
17922,Schuylkill County,PA,89.50980392156863
18011,Lehigh County,PA,95.7843137254902
18015,Northampton County,PA,6.568627450980393
18042,Northampton County,PA,34.11764705882353
18052,Lehigh County,PA,14.019607843137255
18062,Lehigh County,PA,34.509803921568626
18069,Lehigh County,PA,77.15686274509804
18102,Lehigh County,PA,14.803921568627452
18360,Monroe County,PA,48.72549019607843
18508,Lackawanna County,PA,47.25490196078431
18603,Columbia County,PA,70.3921568627451
18610,Monroe County,PA,69.31372549019608
18847,Susquehanna County,PA,83.13725490196079
18902,Bucks County,PA,81.27450980392157
18929,Bucks County,PA,81.96078431372548
18940,Bucks County,PA,88.92156862745098
18966,Bucks County,PA,95.3921568627451
18976,Bucks County,PA,67.64705882352942
19001,Montgomery County,PA,71.47058823529412
19003,Montgomery County,PA,87.05882352941177
19006,Montgomery County,PA,93.82352941176471
19007,Bucks County,PA,19.019607843137255
19008,Delaware County,PA,39.80392156862745
19013,Delaware County,PA,27.84313725490196
19014,Delaware County,PA,89.41176470588236
19020,Bucks County,PA,24.11764705882353
19023,Delaware County,PA,66.37254901960785
19026,Delaware County,PA,12.745098039215685
19038,Montgomery County,PA,27.254901960784313
19046,Montgomery County,PA,35.19607843137255
19053,Bucks County,PA,77.54901960784314
19060,Delaware County,PA,89.2156862745098
19061,Delaware County,PA,21.666666666666668
19063,Delaware County,PA,43.431372549019606
19067,Bucks County,PA,67.25490196078432
19081,Delaware County,PA,92.05882352941175
19083,Delaware County,PA,81.47058823529412
19087,Chester County,PA,39.11764705882353
19090,Montgomery County,PA,87.84313725490196
19103,Philadelphia County,PA,63.52941176470588
19111,Philadelphia County,PA,86.37254901960785
19115,Philadelphia County,PA,55.68627450980392
19120,Philadelphia County,PA,47.549019607843135
19128,Philadelphia County,PA,13.431372549019608
19130,Philadelphia County,PA,56.76470588235294
19133,Philadelphia County,PA,11.176470588235295
19139,Philadelphia County,PA,3.431372549019608
19141,Philadelphia County,PA,51.27450980392156
19143,Philadelphia County,PA,0.9803921568627451
19145,Philadelphia County,PA,5.784313725490196
19150,Philadelphia County,PA,68.82352941176471
19320,Chester County,PA,44.01960784313725
19341,Chester County,PA,60.3921568627451
19342,Delaware County,PA,79.50980392156862
19355,Chester County,PA,88.4313725490196
19382,Chester County,PA,34.411764705882355
19426,Montgomery County,PA,54.31372549019608
19428,Montgomery County,PA,64.2156862745098
19440,Montgomery County,PA,75.49019607843137
19446,Montgomery County,PA,10.784313725490197
19602,Berks County,PA,7.745098039215686
19604,Berks County,PA,30.294117647058822
19608,Berks County,PA,49.50980392156863
02806,Bristol County,RI,82.35294117647058
02838,Providence County,RI,95.49019607843138
02852,Washington County,RI,33.431372549019606
02906,Providence County,RI,44.11764705882353
02919,Providence County,RI,30.88235294117647
29205,Richland County,SC,64.90196078431373
29229,Richland County,SC,29.117647058823533
29406,Charleston County,SC,18.627450980392158
29574,Marion County,SC,74.70588235294117
29615,Greenville County,SC,46.568627450980394
29732,York County,SC,23.823529411764703
57078,Yankton County,SD,56.27450980392157
37128,Rutherford County,TN,20.980392156862745
37330,Franklin County,TN,56.666666666666664
38115,Shelby County,TN,44.6078431372549
38116,Shelby County,TN,13.039215686274511
38242,Henry County,TN,36.56862745098039
75006,Dallas County,TX,35.68627450980392
75022,Denton County,TX,86.1764705882353
75038,Dallas County,TX,93.72549019607843
75041,Dallas County,TX,96.27450980392157
75042,Dallas County,TX,76.76470588235294
75060,Dallas County,TX,75.3921568627451
75067,Denton County,TX,24.313725490196077
75087,Rockwall County,TX,31.960784313725487
75149,Dallas County,TX,13.333333333333334
75180,Dallas County,TX,53.333333333333336
75203,Dallas County,TX,62.84313725490196
75215,Dallas County,TX,64.80392156862746
75217,Dallas County,TX,63.23529411764706
75220,Dallas County,TX,88.0392156862745
75227,Dallas County,TX,67.74509803921569
75229,Dallas County,TX,91.66666666666666
75230,Dallas County,TX,57.45098039215686
75231,Dallas County,TX,77.84313725490196
75240,Dallas County,TX,80.98039215686275
75241,Dallas County,TX,17.15686274509804
75243,Dallas County,TX,70.68627450980392
75904,Angelina County,TX,25.68627450980392
76012,Tarrant County,TX,97.15686274509804
76020,Tarrant County,TX,49.80392156862745
76053,Tarrant County,TX,58.72549019607843
76063,Tarrant County,TX,10.392156862745098
76119,Tarrant County,TX,59.11764705882353
76120,Tarrant County,TX,40.09803921568628
76133,Tarrant County,TX,13.725490196078432
76528,Coryell County,TX,21.96078431372549
76549,Bell County,TX,17.549019607843135
76645,Hill County,TX,66.96078431372548
77005,Harris County,TX,59.01960784313726
77017,Harris County,TX,44.2156862745098
77019,Harris County,TX,91.96078431372548
77021,Harris County,TX,26.764705882352942
77029,Harris County,TX,55.88235294117647
77035,Harris County,TX,31.56862745098039
77038,Harris County,TX,94.50980392156862
77047,Harris County,TX,82.6470588235294
77055,Harris County,TX,46.07843137254902
77057,Harris County,TX,55.392156862745104
77063,Harris County,TX,53.23529411764706
77081,Harris County,TX,95.68627450980392
77089,Harris County,TX,33.62745098039216
77092,Harris County,TX,92.3529411764706
77093,Harris County,TX,86.9607843137255
77096,Harris County,TX,47.05882352941176
77316,Montgomery County,TX,84.01960784313725
77354,Montgomery County,TX,80.09803921568628
77429,Harris County,TX,8.235294117647058
77447,Harris County,TX,57.94117647058824
77479,Fort Bend County,TX,22.54901960784314
77493,Harris County,TX,49.01960784313725
77494,Fort Bend County,TX,65.49019607843137
77515,Brazoria County,TX,38.23529411764706
77550,Galveston County,TX,14.117647058823529
77584,Brazoria County,TX,7.450980392156863
77590,Galveston County,TX,9.019607843137255
77801,Brazos County,TX,86.86274509803921
78109,Bexar County,TX,37.254901960784316
78201,Bexar County,TX,17.941176470588236
78223,Bexar County,TX,13.92156862745098
78368,San Patricio County,TX,78.72549019607843
78414,Nueces County,TX,48.333333333333336
78504,Hidalgo County,TX,29.80392156862745
78542,Hidalgo County,TX,59.21568627450981
78574,Hidalgo County,TX,27.450980392156865
78624,Gillespie County,TX,90.68627450980392
78744,Travis County,TX,51.37254901960784
78840,Val Verde County,TX,21.862745098039216
79403,Lubbock County,TX,39.90196078431373
79932,El Paso County,TX,72.35294117647058
84081,Salt Lake County,UT,23.333333333333332
84096,Salt Lake County,UT,48.23529411764706
84106,Salt Lake County,UT,54.90196078431373
05602,Washington County,VT,50.294117647058826
20110,Manassas city,VA,26.666666666666668
20132,Loudoun County,VA,84.6078431372549
22003,Fairfax County,VA,82.54901960784314
22015,Fairfax County,VA,93.33333333333333
22026,Prince William County,VA,89.80392156862746
22030,Fairfax County,VA,23.03921568627451
22031,Fairfax County,VA,78.13725490196079
22032,Fairfax County,VA,86.27450980392157
22079,Fairfax County,VA,32.94117647058823
22150,Fairfax County,VA,42.64705882352941
22152,Fairfax County,VA,70.88235294117648
22192,Prince William County,VA,14.215686274509803
22193,Prince William County,VA,9.411764705882353
22201,Arlington County,VA,84.41176470588235
22204,Arlington County,VA,21.274509803921568
22206,Arlington County,VA,73.13725490196077
22209,Arlington County,VA,92.15686274509804
22301,Alexandria city,VA,97.05882352941177
22303,Fairfax County,VA,89.01960784313725
22304,Alexandria city,VA,10.490196078431373
22305,Alexandria city,VA,62.05882352941177
22308,Fairfax County,VA,70.09803921568627
22309,Fairfax County,VA,47.84313725490196
22315,Fairfax County,VA,44.80392156862745
22903,Charlottesville city,VA,21.568627450980394
23059,Henrico County,VA,68.72549019607843
23223,Henrico County,VA,3.1372549019607843
23227,Henrico County,VA,32.254901960784316
23228,Henrico County,VA,38.82352941176471
23322,Chesapeake city,VA,43.13725490196079
23523,Norfolk city,VA,80.19607843137256
24018,Roanoke County,VA,36.86274509803922
24260,Russell County,VA,56.568627450980394
24523,Bedford County,VA,24.019607843137255
98001,King County,WA,59.80392156862745
98031,King County,WA,32.05882352941177
98052,King County,WA,38.43137254901961
98065,King County,WA,73.33333333333333
98117,King County,WA,49.31372549019608
98136,King County,WA,91.07843137254902
98155,King County,WA,34.90196078431372
98177,King County,WA,58.235294117647065
98198,King County,WA,59.411764705882355
98204,Snohomish County,WA,47.35294117647059
98208,Snohomish County,WA,15.88235294117647
98270,Snohomish County,WA,39.21568627450981
98290,Snohomish County,WA,59.6078431372549
98311,Kitsap County,WA,85.3921568627451
98354,Pierce County,WA,83.33333333333334
98391,Pierce County,WA,62.450980392156865
98513,Thurston County,WA,60.09803921568627
98823,Grant County,WA,70.49019607843138
99323,Walla Walla County,WA,98.33333333333333
99349,Grant County,WA,98.13725490196077
20002,District of Columbia,DC,33.82352941176471
20003,District of Columbia,DC,67.15686274509804
20007,District of Columbia,DC,66.86274509803921
20010,District of Columbia,DC,41.86274509803922
20011,District of Columbia,DC,24.41176470588235
20017,District of Columbia,DC,42.05882352941177
25411,Morgan County,WV,64.41176470588236
25419,Berkeley County,WV,69.6078431372549
26508,Monongalia County,WV,4.215686274509804
53105,Racine County,WI,11.176470588235295
53204,Milwaukee County,WI,5.196078431372549
53210,Milwaukee County,WI,23.431372549019606
53215,Milwaukee County,WI,16.76470588235294
53224,Milwaukee County,WI,27.745098039215687
53402,Racine County,WI,4.509803921568627
53551,Jefferson County,WI,68.03921568627452
53589,Dane County,WI,63.33333333333333
53590,Dane County,WI,81.76470588235294
53597,Dane County,WI,45.98039215686274
53719,Dane County,WI,44.31372549019608
53901,Columbia County,WI,55.490196078431374
54015,St. Croix County,WI,97.74509803921568
54020,Polk County,WI,63.921568627450974
54110,Calumet County,WI,86.5686274509804
54751,Dunn County,WI,25.98039215686275
54914,Outagamie County,WI,17.352941176470587
54915,Outagamie County,WI,26.47058823529412
