ZipCode,county,state,Adult
36350,Dale County,AL,80.72222222222221
36867,Russell County,AL,53.55555555555556
99507,Anchorage Municipality,AK,23
99518,Anchorage Municipality,AK,61.44444444444444
99611,Kenai Peninsula Borough,AK,78
99615,Kodiak Island Borough,AK,67.22222222222223
99654,Matanuska-Susitna Borough,AK,52.33333333333333
99901,Ketchikan Gateway Borough,AK,56.49999999999999
85006,Maricopa County,AZ,29.555555555555557
85008,Maricopa County,AZ,30.22222222222222
85120,Pinal County,AZ,29.333333333333332
85122,Pinal County,AZ,70.33333333333334
85203,Maricopa County,AZ,53.11111111111111
85251,Maricopa County,AZ,27.72222222222222
85256,Maricopa County,AZ,97.11111111111111
85282,Maricopa County,AZ,28.833333333333332
85284,Maricopa County,AZ,62.88888888888889
85339,Maricopa County,AZ,15.11111111111111
85706,Pima County,AZ,1.3888888888888888
85935,Navajo County,AZ,97.33333333333334
86004,Coconino County,AZ,33.88888888888889
86503,Apache County,AZ,23.61111111111111
86505,Apache County,AZ,48.833333333333336
86538,Apache County,AZ,83.44444444444444
72007,Lonoke County,AR,93.83333333333333
72019,Saline County,AR,56.166666666666664
72034,Faulkner County,AR,84.88888888888889
72210,Pulaski County,AR,77.33333333333333
90003,Los Angeles County,CA,24.5
90004,Los Angeles County,CA,73.5
90011,Los Angeles County,CA,17.055555555555554
90012,Los Angeles County,CA,73.94444444444444
90022,Los Angeles County,CA,52.5
90025,Los Angeles County,CA,80.77777777777779
90061,Los Angeles County,CA,54.50000000000001
90064,Los Angeles County,CA,77.5
90232,Los Angeles County,CA,88.72222222222223
90241,Los Angeles County,CA,38.88888888888889
90247,Los Angeles County,CA,37.166666666666664
90248,Los Angeles County,CA,93.83333333333333
90266,Los Angeles County,CA,72.22222222222221
90278,Los Angeles County,CA,45.44444444444444
90302,Los Angeles County,CA,80.22222222222221
90650,Los Angeles County,CA,11.944444444444445
90660,Los Angeles County,CA,62.44444444444445
90745,Los Angeles County,CA,26.944444444444443
90746,Los Angeles County,CA,63.77777777777778
90813,Los Angeles County,CA,22.333333333333332
91401,Los Angeles County,CA,49.611111111111114
91701,San Bernardino County,CA,17.61111111111111
91706,Los Angeles County,CA,17.833333333333336
91744,Los Angeles County,CA,80.44444444444444
91775,Los Angeles County,CA,74.6111111111111
91910,San Diego County,CA,58.666666666666664
91911,San Diego County,CA,16.5
91941,San Diego County,CA,69.55555555555556
91950,San Diego County,CA,25.222222222222225
92007,San Diego County,CA,80
92008,San Diego County,CA,64.05555555555556
92020,San Diego County,CA,74.05555555555556
92024,San Diego County,CA,28.499999999999996
92027,San Diego County,CA,33.22222222222222
92037,San Diego County,CA,67.55555555555556
92071,San Diego County,CA,43.388888888888886
92113,San Diego County,CA,69.16666666666667
92115,San Diego County,CA,85
92126,San Diego County,CA,31.944444444444443
92129,San Diego County,CA,81.05555555555556
92130,San Diego County,CA,48.55555555555556
92234,Riverside County,CA,8.944444444444443
92236,Riverside County,CA,31.222222222222225
92240,Riverside County,CA,15.222222222222223
92262,Riverside County,CA,14.888888888888888
92274,Riverside County,CA,59.94444444444444
92276,Riverside County,CA,93.33333333333333
92324,San Bernardino County,CA,37.94444444444444
92336,San Bernardino County,CA,5.666666666666666
92346,San Bernardino County,CA,82.11111111111111
92354,San Bernardino County,CA,68.88888888888889
92376,San Bernardino County,CA,59.22222222222222
92407,San Bernardino County,CA,11.88888888888889
92411,San Bernardino County,CA,60.22222222222222
92505,Riverside County,CA,32.94444444444444
92555,Riverside County,CA,88.1111111111111
92562,Riverside County,CA,70.16666666666667
92584,Riverside County,CA,31.5
92596,Riverside County,CA,57.99999999999999
92656,Orange County,CA,23.22222222222222
92688,Orange County,CA,25.61111111111111
92703,Orange County,CA,26.666666666666668
92801,Orange County,CA,23.055555555555557
92802,Orange County,CA,66.55555555555556
92805,Orange County,CA,17.944444444444443
92833,Orange County,CA,36.16666666666667
92870,Orange County,CA,52.888888888888886
92883,Riverside County,CA,75.5
92887,Orange County,CA,57.333333333333336
93001,Ventura County,CA,18.444444444444443
93010,Ventura County,CA,50.72222222222222
93033,Ventura County,CA,86.61111111111111
93063,Ventura County,CA,23.72222222222222
93286,Tulare County,CA,85.27777777777777
93292,Tulare County,CA,56.277777777777786
93305,Kern County,CA,57.05555555555556
93307,Kern County,CA,8.666666666666668
93313,Kern County,CA,65.16666666666666
93454,Santa Barbara County,CA,73.27777777777777
93458,Santa Barbara County,CA,67.11111111111111
93536,Los Angeles County,CA,72.61111111111111
93543,Los Angeles County,CA,97.88888888888889
93550,Los Angeles County,CA,92.05555555555556
93555,Kern County,CA,69.38888888888889
93562,San Bernardino County,CA,91.77777777777779
93618,Tulare County,CA,39
93619,Fresno County,CA,29.333333333333332
93620,Merced County,CA,87.5
93638,Madera County,CA,12.611111111111112
93647,Tulare County,CA,81.88888888888889
93654,Fresno County,CA,38.666666666666664
93662,Fresno County,CA,41.66666666666667
93701,Fresno County,CA,59.94444444444444
93723,Fresno County,CA,93.44444444444444
93927,Monterey County,CA,59.44444444444444
94014,San Mateo County,CA,86.94444444444444
94022,Santa Clara County,CA,83.44444444444444
94040,Santa Clara County,CA,61.94444444444444
94063,San Mateo County,CA,80.5
94080,San Mateo County,CA,80.66666666666666
94102,San Francisco County,CA,4.388888888888888
94107,San Francisco County,CA,58.88888888888889
94109,San Francisco County,CA,78.05555555555556
94110,San Francisco County,CA,7.777777777777778
94116,San Francisco County,CA,67.94444444444444
94118,San Francisco County,CA,67.5
94121,San Francisco County,CA,55.111111111111114
94122,San Francisco County,CA,92.5
94124,San Francisco County,CA,17.22222222222222
94127,San Francisco County,CA,89.77777777777777
94301,Santa Clara County,CA,98.38888888888889
94303,San Mateo County,CA,77.77777777777779
94533,Solano County,CA,86.83333333333333
94536,Alameda County,CA,21.5
94553,Contra Costa County,CA,93.27777777777779
94558,Napa County,CA,20.944444444444443
94560,Alameda County,CA,66.27777777777779
94589,Solano County,CA,44.22222222222222
94608,Alameda County,CA,85.66666666666667
94610,Alameda County,CA,99.55555555555556
94710,Alameda County,CA,99.27777777777777
94945,Marin County,CA,94.5
95012,Monterey County,CA,94.66666666666667
95051,Santa Clara County,CA,59.72222222222222
95060,Santa Cruz County,CA,57.333333333333336
95062,Santa Cruz County,CA,97.61111111111111
95076,Santa Cruz County,CA,53.05555555555556
95133,Santa Clara County,CA,97.83333333333334
95136,Santa Clara County,CA,43.72222222222222
95202,San Joaquin County,CA,19.833333333333332
95360,Stanislaus County,CA,68.16666666666666
95363,Stanislaus County,CA,46.5
95367,Stanislaus County,CA,66.33333333333333
95482,Mendocino County,CA,53.22222222222223
95621,Sacramento County,CA,30.11111111111111
95660,Sacramento County,CA,55.00000000000001
95758,Sacramento County,CA,78.16666666666666
95817,Sacramento County,CA,98.05555555555556
95828,Sacramento County,CA,79
95833,Sacramento County,CA,28.000000000000004
95835,Sacramento County,CA,91.11111111111111
95954,Butte County,CA,55.888888888888886
95965,Butte County,CA,12.38888888888889
96001,Shasta County,CA,14.499999999999998
96002,Shasta County,CA,67.88888888888889
96143,Placer County,CA,98.33333333333333
80010,Arapahoe County,CO,36.11111111111111
80012,Arapahoe County,CO,26.27777777777778
80013,Arapahoe County,CO,5.5
80014,Arapahoe County,CO,21.38888888888889
80016,Arapahoe County,CO,15.777777777777777
80033,Jefferson County,CO,35.5
80102,Adams County,CO,91.27777777777779
80104,Douglas County,CO,41.94444444444444
80110,Arapahoe County,CO,75.72222222222223
80236,Denver County,CO,86.38888888888889
80237,Denver County,CO,57.88888888888889
80239,Denver County,CO,16.833333333333332
80249,Denver County,CO,76.83333333333333
80504,Boulder County,CO,21.88888888888889
80524,Larimer County,CO,20.666666666666668
80528,Larimer County,CO,65.83333333333333
80538,Larimer County,CO,7.166666666666667
80550,Weld County,CO,47.61111111111111
80620,Weld County,CO,31.333333333333336
80634,Weld County,CO,10.11111111111111
80910,El Paso County,CO,17
80920,El Paso County,CO,87.5
81001,Pueblo County,CO,14.944444444444443
81101,Alamosa County,CO,30.88888888888889
81144,Rio Grande County,CO,79.5
81507,Mesa County,CO,78.77777777777779
06002,Hartford County,CT,76.05555555555556
06033,Hartford County,CT,42.388888888888886
06040,Hartford County,CT,25.38888888888889
06051,Hartford County,CT,13.88888888888889
06074,Hartford County,CT,41.05555555555556
06089,Hartford County,CT,97.16666666666667
06093,Hartford County,CT,95.27777777777777
06096,Hartford County,CT,65.5
06112,Hartford County,CT,34.333333333333336
06117,Hartford County,CT,92.72222222222221
06118,Hartford County,CT,17.444444444444446
06241,Windham County,CT,46.94444444444444
06437,New Haven County,CT,84.33333333333334
06447,Hartford County,CT,96.66666666666667
06457,Middlesex County,CT,4.277777777777778
06492,New Haven County,CT,14.666666666666666
06511,New Haven County,CT,2.3333333333333335
06512,New Haven County,CT,74.72222222222223
06514,New Haven County,CT,76.11111111111111
06516,New Haven County,CT,35.61111111111111
06606,Fairfield County,CT,35.333333333333336
06611,Fairfield County,CT,61.44444444444444
06790,Litchfield County,CT,3.2222222222222223
06810,Fairfield County,CT,74.16666666666667
06830,Fairfield County,CT,73.22222222222223
06870,Fairfield County,CT,80.61111111111111
06901,Fairfield County,CT,96.16666666666667
19805,New Castle County,DE,1.5
19901,Kent County,DE,11.777777777777777
19958,Sussex County,DE,23.11111111111111
19971,Sussex County,DE,54.94444444444444
19977,Kent County,DE,15.88888888888889
32066,Lafayette County,FL,93.33333333333333
32097,Nassau County,FL,42.27777777777778
32113,Marion County,FL,67.61111111111111
32127,Volusia County,FL,44.94444444444444
32205,Duval County,FL,70.44444444444444
32206,Duval County,FL,15.055555555555555
32209,Duval County,FL,27.72222222222222
32210,Duval County,FL,2.055555555555556
32218,Duval County,FL,13.555555555555557
32225,Duval County,FL,19.77777777777778
32244,Duval County,FL,3
32246,Duval County,FL,10
32539,Okaloosa County,FL,55.166666666666664
32605,Alachua County,FL,19.666666666666664
32606,Alachua County,FL,23.38888888888889
32693,Gilchrist County,FL,52.44444444444445
32771,Seminole County,FL,10.555555555555555
32931,Brevard County,FL,79.11111111111111
33025,Broward County,FL,20.27777777777778
33054,Miami-Dade County,FL,76.61111111111111
33130,Miami-Dade County,FL,87.3888888888889
33142,Miami-Dade County,FL,12.666666666666668
33169,Miami-Dade County,FL,57.166666666666664
33312,Broward County,FL,23.77777777777778
33319,Broward County,FL,29.666666666666668
33334,Broward County,FL,65.66666666666666
33426,Palm Beach County,FL,64.22222222222223
33510,Hillsborough County,FL,41.44444444444444
33545,Pasco County,FL,97.77777777777777
33596,Hillsborough County,FL,90.88888888888889
33610,Hillsborough County,FL,9.055555555555555
33612,Hillsborough County,FL,6.222222222222222
33616,Hillsborough County,FL,91.88888888888889
33755,Pinellas County,FL,58.333333333333336
33763,Pinellas County,FL,70.88888888888889
33801,Polk County,FL,16.055555555555557
33805,Polk County,FL,27.444444444444443
33815,Polk County,FL,28.444444444444443
33898,Polk County,FL,42.833333333333336
33948,Charlotte County,FL,68.33333333333333
34286,Sarasota County,FL,69.22222222222221
34287,Sarasota County,FL,37.72222222222222
34698,Pinellas County,FL,39.55555555555556
34715,Lake County,FL,40.05555555555556
34974,Okeechobee County,FL,39.38888888888889
30033,DeKalb County,GA,67.77777777777779
30076,Fulton County,GA,72.33333333333334
30107,Cherokee County,GA,92.61111111111111
30132,Paulding County,GA,22.833333333333332
30329,DeKalb County,GA,94.77777777777779
30528,White County,GA,77.66666666666666
30553,Franklin County,GA,77.55555555555556
30741,Walker County,GA,13.38888888888889
30809,Columbia County,GA,25
31525,Glynn County,GA,64.5
31907,Muscogee County,GA,22.22222222222222
96706,Honolulu County,HI,6.277777777777778
96732,Maui County,HI,83.94444444444444
96768,Maui County,HI,77
96797,Honolulu County,HI,4.555555555555555
96813,Honolulu County,HI,50.888888888888886
96819,Honolulu County,HI,10.38888888888889
96822,Honolulu County,HI,88.27777777777777
83221,Bingham County,ID,45.166666666666664
83318,Cassia County,ID,46.88888888888889
83706,Ada County,ID,83.61111111111111
60014,McHenry County,IL,42.66666666666667
60016,Cook County,IL,57.72222222222222
60061,Lake County,IL,49.111111111111114
60062,Cook County,IL,27.22222222222222
60073,Lake County,IL,49.5
60076,Cook County,IL,59.55555555555555
60085,Lake County,IL,63.27777777777778
60091,Cook County,IL,54.27777777777778
60099,Lake County,IL,28.61111111111111
60103,DuPage County,IL,19.555555555555557
60110,Kane County,IL,35.27777777777778
60126,DuPage County,IL,5.555555555555555
60136,Kane County,IL,86.5
60140,Kane County,IL,56.94444444444444
60148,DuPage County,IL,48.333333333333336
60178,DeKalb County,IL,40.55555555555556
60181,DuPage County,IL,63.888888888888886
60403,Will County,IL,94.11111111111111
60409,Cook County,IL,20.38888888888889
60411,Cook County,IL,8.166666666666666
60431,Will County,IL,70.66666666666667
60438,Cook County,IL,31.833333333333336
60440,Will County,IL,37.833333333333336
60446,Will County,IL,48.66666666666667
60459,Cook County,IL,23.27777777777778
60462,Cook County,IL,44.27777777777778
60463,Cook County,IL,81.11111111111111
60473,Cook County,IL,42.22222222222222
60504,DuPage County,IL,24.833333333333332
60513,Cook County,IL,56.388888888888886
60523,DuPage County,IL,88.5
60525,Cook County,IL,41.77777777777778
60546,Cook County,IL,34.88888888888889
60561,DuPage County,IL,43.27777777777778
60611,Cook County,IL,41.16666666666667
60617,Cook County,IL,19.944444444444446
60623,Cook County,IL,84.11111111111111
60629,Cook County,IL,18.5
60630,Cook County,IL,16.38888888888889
60634,Cook County,IL,25.27777777777778
60637,Cook County,IL,9.88888888888889
60643,Cook County,IL,4.833333333333333
60655,Cook County,IL,46.77777777777778
60660,Cook County,IL,18.833333333333332
61008,Boone County,IL,66.05555555555556
61350,LaSalle County,IL,35
62806,Edwards County,IL,94.66666666666667
46001,Madison County,IN,51.66666666666667
46011,Madison County,IN,35.66666666666667
46012,Madison County,IN,54
46013,Madison County,IN,50.66666666666667
46017,Madison County,IN,61.94444444444444
46036,Madison County,IN,71.16666666666667
46052,Boone County,IN,29.72222222222222
46074,Hamilton County,IN,49.44444444444444
46131,Johnson County,IN,64
46176,Shelby County,IN,32.88888888888889
46201,Marion County,IN,12.5
46221,Marion County,IN,20.11111111111111
46224,Marion County,IN,21
46226,Marion County,IN,6.944444444444445
46260,Marion County,IN,32.33333333333333
46307,Lake County,IN,8.333333333333332
46311,Lake County,IN,49.388888888888886
46322,Lake County,IN,80.83333333333333
46324,Lake County,IN,50.55555555555556
46350,LaPorte County,IN,4.944444444444445
46360,LaPorte County,IN,31.555555555555554
46385,Porter County,IN,20.5
46404,Lake County,IN,81.27777777777779
46501,Marshall County,IN,98.94444444444444
46619,St. Joseph County,IN,39.72222222222222
46737,Steuben County,IN,91.5
46767,Noble County,IN,77.66666666666666
46803,Allen County,IN,71.77777777777777
46805,Allen County,IN,22.666666666666664
46947,Cass County,IN,7.055555555555555
46970,Miami County,IN,5.388888888888889
47001,Dearborn County,IN,69.27777777777779
47150,Floyd County,IN,6
47274,Jackson County,IN,45.55555555555556
47304,Delaware County,IN,37.27777777777778
47336,Jay County,IN,97.38888888888889
47348,Blackford County,IN,49.55555555555556
47421,Lawrence County,IN,81.83333333333334
47591,Knox County,IN,24.944444444444443
47601,Warrick County,IN,82.83333333333334
47635,Spencer County,IN,75.1111111111111
47710,Vanderburgh County,IN,24.72222222222222
47714,Vanderburgh County,IN,93.72222222222221
47715,Vanderburgh County,IN,73
47959,White County,IN,100
50125,Warren County,IA,87.16666666666667
50126,Hardin County,IA,71.38888888888889
50314,Polk County,IA,32.166666666666664
50325,Polk County,IA,79.5
50613,Black Hawk County,IA,63.66666666666667
51106,Woodbury County,IA,35.11111111111111
51360,Dickinson County,IA,98.77777777777777
51401,Carroll County,IA,88.38888888888889
51503,Pottawattamie County,IA,78.11111111111111
51537,Shelby County,IA,86.66666666666667
51632,Page County,IA,90.83333333333333
52246,Johnson County,IA,44.72222222222222
52404,Linn County,IA,58.611111111111114
52577,Mahaska County,IA,25.666666666666664
52601,Des Moines County,IA,65.22222222222223
52761,Muscatine County,IA,26.944444444444443
66109,Wyandotte County,KS,39.111111111111114
66112,Wyandotte County,KS,90.22222222222223
66212,Johnson County,KS,80.16666666666666
67701,Thomas County,KS,60.94444444444444
40203,Jefferson County,KY,73.88888888888889
40353,Montgomery County,KY,15.166666666666668
40391,Clark County,KY,4.666666666666667
40403,Madison County,KY,15.611111111111112
40504,Fayette County,KY,30.166666666666668
40509,Fayette County,KY,50.27777777777778
40511,Fayette County,KY,70.05555555555556
40514,Fayette County,KY,82.22222222222221
40517,Fayette County,KY,14.777777777777779
41015,Kenton County,KY,60.38888888888889
41035,Grant County,KY,32.666666666666664
41042,Boone County,KY,17.77777777777778
41071,Campbell County,KY,44.83333333333333
41075,Campbell County,KY,54.27777777777778
41091,Boone County,KY,79.27777777777779
41230,Lawrence County,KY,17.888888888888886
41653,Floyd County,KY,59.111111111111114
41701,Perry County,KY,21.333333333333336
42240,Christian County,KY,3.5555555555555554
42701,Hardin County,KY,6.666666666666667
70006,Jefferson Parish,LA,84.83333333333334
70058,Jefferson Parish,LA,21.055555555555554
70062,Jefferson Parish,LA,52.61111111111111
70115,Orleans Parish,LA,52.27777777777778
70116,Orleans Parish,LA,63.44444444444445
70117,Orleans Parish,LA,15.333333333333332
70119,Orleans Parish,LA,63.61111111111111
70125,Orleans Parish,LA,24.77777777777778
70126,Orleans Parish,LA,79.77777777777779
70128,Orleans Parish,LA,10.888888888888888
70345,Lafourche Parish,LA,62.22222222222222
70390,Assumption Parish,LA,43.111111111111114
70433,St. Tammany Parish,LA,3.7777777777777777
70438,Washington Parish,LA,8.555555555555555
70460,St. Tammany Parish,LA,7.611111111111112
70501,Lafayette Parish,LA,1.0555555555555556
70508,Lafayette Parish,LA,87.05555555555556
70517,St. Martin Parish,LA,8.055555555555555
70570,St. Landry Parish,LA,34.05555555555556
70706,Livingston Parish,LA,22.11111111111111
70726,Livingston Parish,LA,6.833333333333333
70791,East Baton Rouge Parish,LA,30.61111111111111
70802,East Baton Rouge Parish,LA,18.555555555555557
70806,East Baton Rouge Parish,LA,8.38888888888889
70808,East Baton Rouge Parish,LA,31.38888888888889
70809,East Baton Rouge Parish,LA,89.72222222222223
70815,East Baton Rouge Parish,LA,9.88888888888889
71052,De Soto Parish,LA,94.55555555555556
71078,De Soto Parish,LA,64.61111111111111
71101,Caddo Parish,LA,95.33333333333334
71104,Caddo Parish,LA,99.11111111111111
71107,Caddo Parish,LA,11.166666666666666
71108,Caddo Parish,LA,95.83333333333334
71109,Caddo Parish,LA,19.444444444444446
71111,Bossier Parish,LA,78.44444444444446
71112,Bossier Parish,LA,46
71202,Ouachita Parish,LA,84.55555555555556
71203,Ouachita Parish,LA,38.27777777777778
71220,Morehouse Parish,LA,12.11111111111111
04011,Cumberland County,ME,38.22222222222222
04055,Cumberland County,ME,88.55555555555556
04090,York County,ME,47.94444444444444
04107,Cumberland County,ME,89.16666666666667
04210,Androscoggin County,ME,70.94444444444444
04240,Androscoggin County,ME,20.27777777777778
04401,Penobscot County,ME,53.11111111111111
04957,Somerset County,ME,60.55555555555555
20603,Charles County,MD,51.11111111111111
20743,Prince George's County,MD,24.11111111111111
20748,Prince George's County,MD,89.66666666666666
20772,Prince George's County,MD,34.38888888888889
20785,Prince George's County,MD,40.22222222222222
20850,Montgomery County,MD,50.22222222222222
20874,Montgomery County,MD,32.5
20876,Montgomery County,MD,51.83333333333333
20901,Montgomery County,MD,62.27777777777778
20906,Montgomery County,MD,38.388888888888886
20912,Montgomery County,MD,99.16666666666667
21017,Harford County,MD,81.5
21042,Howard County,MD,53.55555555555556
21045,Howard County,MD,62.77777777777778
21047,Harford County,MD,69.77777777777779
21050,Harford County,MD,55.55555555555556
21093,Baltimore County,MD,57.77777777777777
21117,Baltimore County,MD,20.444444444444446
21122,Anne Arundel County,MD,69.88888888888889
21133,Baltimore County,MD,43.44444444444445
21136,Baltimore County,MD,42.77777777777778
21144,Anne Arundel County,MD,68.94444444444444
21146,Anne Arundel County,MD,87.1111111111111
21206,Baltimore city,MD,28.055555555555557
21208,Baltimore County,MD,45.44444444444444
21214,Baltimore city,MD,44.72222222222222
21215,Baltimore city,MD,4.333333333333334
21225,Baltimore city,MD,67.05555555555556
21229,Baltimore city,MD,63.55555555555556
21230,Baltimore city,MD,24.27777777777778
21234,Baltimore County,MD,33.05555555555556
21244,Baltimore County,MD,31.11111111111111
21921,Cecil County,MD,9.555555555555555
01007,Hampshire County,MA,63.72222222222222
01089,Hampden County,MA,61.66666666666667
01107,Hampden County,MA,3.4444444444444446
01109,Hampden County,MA,9.388888888888888
01119,Hampden County,MA,10.333333333333334
01247,Berkshire County,MA,3.277777777777778
01331,Worcester County,MA,40.666666666666664
01462,Worcester County,MA,36.55555555555556
01469,Middlesex County,MA,82.27777777777779
01527,Worcester County,MA,39.22222222222223
01532,Worcester County,MA,83.22222222222221
01550,Worcester County,MA,44.111111111111114
01602,Worcester County,MA,20.166666666666664
01603,Worcester County,MA,62.11111111111111
01604,Worcester County,MA,11.38888888888889
01605,Worcester County,MA,70.55555555555556
01609,Worcester County,MA,56.05555555555556
01610,Worcester County,MA,16.72222222222222
01701,Middlesex County,MA,5.944444444444445
01702,Middlesex County,MA,5.277777777777778
01721,Middlesex County,MA,95.44444444444444
01746,Middlesex County,MA,38.55555555555556
01748,Middlesex County,MA,31
01749,Middlesex County,MA,13.722222222222221
01772,Worcester County,MA,82.72222222222221
01776,Middlesex County,MA,30.277777777777775
01801,Middlesex County,MA,0.5555555555555556
01824,Middlesex County,MA,5.111111111111112
01832,Essex County,MA,57.94444444444444
01841,Essex County,MA,0
01844,Essex County,MA,44.5
01845,Essex County,MA,19.11111111111111
01851,Middlesex County,MA,1
01854,Middlesex County,MA,76.44444444444444
01867,Middlesex County,MA,77.44444444444444
01876,Middlesex County,MA,34.94444444444444
01890,Middlesex County,MA,58.5
01913,Essex County,MA,42.94444444444444
01970,Essex County,MA,27.611111111111107
01982,Essex County,MA,89.44444444444444
02026,Norfolk County,MA,28.944444444444446
02050,Plymouth County,MA,13.944444444444445
02072,Norfolk County,MA,92.77777777777779
02109,Suffolk County,MA,93.05555555555556
02119,Suffolk County,MA,0.7222222222222222
02121,Suffolk County,MA,13.777777777777779
02122,Suffolk County,MA,0.6666666666666667
02124,Suffolk County,MA,0.33333333333333337
02125,Suffolk County,MA,0.16666666666666669
02126,Suffolk County,MA,21.61111111111111
02128,Suffolk County,MA,0.1111111111111111
02131,Suffolk County,MA,89.05555555555556
02139,Middlesex County,MA,1.3333333333333335
02140,Middlesex County,MA,34.166666666666664
02141,Middlesex County,MA,46.666666666666664
02145,Middlesex County,MA,2.388888888888889
02148,Middlesex County,MA,12.777777777777777
02149,Middlesex County,MA,45.88888888888889
02151,Suffolk County,MA,0.7777777777777778
02169,Norfolk County,MA,14.222222222222221
02176,Middlesex County,MA,4.111111111111112
02180,Middlesex County,MA,7.5
02188,Norfolk County,MA,98.5
02301,Plymouth County,MA,29.11111111111111
02302,Plymouth County,MA,4.444444444444445
02332,Plymouth County,MA,56.00000000000001
02359,Plymouth County,MA,19.88888888888889
02360,Plymouth County,MA,0.4444444444444444
02375,Bristol County,MA,40.166666666666664
02379,Plymouth County,MA,41.27777777777778
02421,Middlesex County,MA,94.94444444444444
02445,Norfolk County,MA,61
02452,Middlesex County,MA,73.16666666666667
02453,Middlesex County,MA,5.055555555555555
02459,Middlesex County,MA,58.77777777777777
02460,Middlesex County,MA,46.55555555555556
02465,Middlesex County,MA,39.33333333333333
02482,Norfolk County,MA,57.333333333333336
02493,Middlesex County,MA,49.72222222222222
02649,Barnstable County,MA,25.666666666666664
02760,Bristol County,MA,6.444444444444445
02780,Bristol County,MA,0.05555555555555555
48044,Macomb County,MI,21.666666666666668
48071,Oakland County,MI,43.5
48093,Macomb County,MI,13.277777777777777
48101,Wayne County,MI,15.944444444444445
48105,Washtenaw County,MI,69.83333333333334
48111,Wayne County,MI,54.44444444444444
48117,Monroe County,MI,85.38888888888889
48120,Wayne County,MI,56.833333333333336
48124,Wayne County,MI,72
48133,Monroe County,MI,82.83333333333334
48160,Washtenaw County,MI,55.722222222222214
48161,Monroe County,MI,55.77777777777778
48162,Monroe County,MI,7.333333333333333
48174,Wayne County,MI,47.38888888888889
48178,Oakland County,MI,22.555555555555557
48183,Wayne County,MI,39.611111111111114
48185,Wayne County,MI,2.944444444444444
48186,Wayne County,MI,3.3333333333333335
48188,Wayne County,MI,7.833333333333334
48192,Wayne County,MI,12.11111111111111
48197,Washtenaw County,MI,1.1111111111111112
48201,Wayne County,MI,26.5
48203,Wayne County,MI,9.333333333333334
48204,Wayne County,MI,5.555555555555555
48205,Wayne County,MI,2.111111111111111
48209,Wayne County,MI,41.333333333333336
48212,Wayne County,MI,61.83333333333333
48219,Wayne County,MI,2.5
48221,Wayne County,MI,2.7777777777777777
48224,Wayne County,MI,9.222222222222221
48226,Wayne County,MI,86.5
48228,Wayne County,MI,6.388888888888888
48234,Wayne County,MI,36.77777777777778
48235,Wayne County,MI,54.11111111111111
48238,Wayne County,MI,2.555555555555556
48239,Wayne County,MI,4.611111111111111
48307,Oakland County,MI,12.055555555555555
48322,Oakland County,MI,29.444444444444446
48327,Oakland County,MI,21.944444444444443
48340,Oakland County,MI,68.22222222222221
48360,Oakland County,MI,55.388888888888886
48363,Oakland County,MI,71.05555555555556
48377,Oakland County,MI,74.3888888888889
48433,Genesee County,MI,77.94444444444444
48439,Genesee County,MI,7.722222222222222
48458,Genesee County,MI,20.833333333333336
48503,Genesee County,MI,52.05555555555556
48506,Genesee County,MI,42.5
48507,Genesee County,MI,92.94444444444444
48601,Saginaw County,MI,8.5
48612,Gladwin County,MI,45.94444444444444
48838,Montcalm County,MI,21.22222222222222
48895,Ingham County,MI,85.94444444444444
48906,Ingham County,MI,7.666666666666666
49001,Kalamazoo County,MI,14.499999999999998
49057,Van Buren County,MI,65.61111111111111
49082,Branch County,MI,85.44444444444444
49120,Berrien County,MI,9.11111111111111
49319,Kent County,MI,20
49321,Kent County,MI,90.94444444444446
49330,Kent County,MI,85.33333333333334
49331,Kent County,MI,35.77777777777777
49336,Mecosta County,MI,89.77777777777777
49346,Mecosta County,MI,88.94444444444444
49348,Allegan County,MI,22.166666666666668
49349,Newaygo County,MI,81.72222222222221
49412,Newaygo County,MI,49.22222222222222
49426,Ottawa County,MI,28.166666666666668
49428,Ottawa County,MI,37.55555555555555
49441,Muskegon County,MI,7.111111111111111
49442,Muskegon County,MI,24.444444444444443
49503,Kent County,MI,6.166666666666667
49504,Kent County,MI,59
49505,Kent County,MI,16.22222222222222
49506,Kent County,MI,42.611111111111114
49509,Kent County,MI,8.222222222222223
49715,Chippewa County,MI,87
49738,Crawford County,MI,58.333333333333336
49829,Delta County,MI,75.05555555555556
55006,Isanti County,MN,99.6111111111111
55021,Rice County,MN,25.88888888888889
55103,Ramsey County,MN,94.05555555555556
55106,Ramsey County,MN,3.722222222222222
55110,Ramsey County,MN,34.77777777777778
55117,Ramsey County,MN,10.166666666666666
55122,Dakota County,MN,50
55337,Dakota County,MN,23.11111111111111
55343,Hennepin County,MN,30.88888888888889
55363,Wright County,MN,92.55555555555556
55372,Scott County,MN,45
55376,Wright County,MN,71.88888888888889
55379,Scott County,MN,18.22222222222222
55404,Hennepin County,MN,32.388888888888886
55406,Hennepin County,MN,42.55555555555556
55407,Hennepin County,MN,84.77777777777777
55408,Hennepin County,MN,6.555555555555556
55409,Hennepin County,MN,56.888888888888886
55411,Hennepin County,MN,34.44444444444444
55412,Hennepin County,MN,4.888888888888889
55416,Hennepin County,MN,30.055555555555557
55422,Hennepin County,MN,73.05555555555556
55432,Anoka County,MN,15.833333333333332
55441,Hennepin County,MN,55.222222222222214
55449,Anoka County,MN,95.94444444444444
55807,St. Louis County,MN,83.16666666666667
55808,St. Louis County,MN,86.72222222222223
55987,Winona County,MN,38
56073,Brown County,MN,55.44444444444444
56201,Kandiyohi County,MN,31.666666666666664
56258,Lyon County,MN,95.22222222222221
56308,Douglas County,MN,18.61111111111111
56334,Pope County,MN,73.05555555555556
56353,Mille Lacs County,MN,89.11111111111111
56364,Morrison County,MN,77.88888888888889
56378,Stearns County,MN,92.16666666666666
56379,Benton County,MN,46.33333333333333
56401,Crow Wing County,MN,61.05555555555555
56472,Crow Wing County,MN,77.27777777777777
56479,Todd County,MN,85.61111111111111
56560,Clay County,MN,38.166666666666664
56572,Otter Tail County,MN,87.66666666666667
56701,Pennington County,MN,13.277777777777777
56721,Polk County,MN,39.111111111111114
56751,Roseau County,MN,76.5
38916,Calhoun County,MS,99
39040,Yazoo County,MS,99.72222222222223
39110,Madison County,MS,26.833333333333332
39206,Hinds County,MS,19.72222222222222
39208,Rankin County,MS,69.72222222222221
39350,Neshoba County,MS,18.166666666666668
39507,Harrison County,MS,52.166666666666664
39565,Jackson County,MS,84.5
39574,Harrison County,MS,65
63074,St. Louis County,MO,82.94444444444444
63114,St. Louis County,MO,43
63123,St. Louis County,MO,25.444444444444443
63129,St. Louis County,MO,59.77777777777777
63130,St. Louis County,MO,37.5
63133,St. Louis County,MO,92.88888888888889
63136,St. Louis County,MO,4.055555555555555
63301,St. Charles County,MO,87.77777777777777
63343,Lincoln County,MO,94.44444444444444
63640,St. Francois County,MO,27.72222222222222
63834,Mississippi County,MO,89.16666666666667
63857,Dunklin County,MO,72.88888888888889
64015,Jackson County,MO,8.11111111111111
64030,Jackson County,MO,11.833333333333334
64034,Jackson County,MO,90.22222222222223
64050,Jackson County,MO,9.722222222222223
64052,Jackson County,MO,5.833333333333333
64063,Jackson County,MO,78.27777777777779
64064,Jackson County,MO,37.333333333333336
64068,Clay County,MO,4.777777777777778
64106,Jackson County,MO,19.27777777777778
64112,Jackson County,MO,94.22222222222221
64114,Jackson County,MO,24.38888888888889
64116,Clay County,MO,16.77777777777778
64126,Jackson County,MO,96.77777777777777
64130,Jackson County,MO,19.5
64131,Jackson County,MO,9
64133,Jackson County,MO,38.83333333333333
64134,Jackson County,MO,8
64150,Platte County,MO,86.22222222222223
64152,Platte County,MO,53.27777777777778
64157,Clay County,MO,22.88888888888889
64501,Buchanan County,MO,71.05555555555556
64601,Livingston County,MO,63.11111111111111
64735,Henry County,MO,90.61111111111111
64804,Jasper County,MO,11.055555555555555
64850,Newton County,MO,10.055555555555555
64854,McDonald County,MO,79.88888888888889
64870,Jasper County,MO,59.55555555555555
65233,Cooper County,MO,50.44444444444445
65301,Pettis County,MO,1.9444444444444444
65340,Saline County,MO,23.833333333333336
65622,Dallas County,MO,59.66666666666667
65711,Wright County,MO,75
65712,Lawrence County,MO,89.88888888888889
65775,Howell County,MO,74.11111111111111
65802,Greene County,MO,63.388888888888886
59501,Hill County,MT,63.33333333333333
59801,Missoula County,MT,92.66666666666666
59803,Missoula County,MT,73.77777777777777
68025,Dodge County,NE,24
68046,Sarpy County,NE,74.8888888888889
68104,Douglas County,NE,59.333333333333336
68122,Douglas County,NE,97.22222222222221
68130,Douglas County,NE,93.55555555555556
68135,Douglas County,NE,88
68503,Lancaster County,NE,57.611111111111114
68516,Lancaster County,NE,75.27777777777777
68601,Platte County,NE,47
68632,Butler County,NE,99.66666666666667
69101,Lincoln County,NE,16.333333333333332
89431,Washoe County,NV,15
89506,Washoe County,NV,35.888888888888886
03051,Hillsborough County,NH,15.722222222222223
03053,Rockingham County,NH,18.722222222222225
03062,Hillsborough County,NH,35.66666666666667
03079,Rockingham County,NH,32.22222222222222
03087,Rockingham County,NH,35.388888888888886
03276,Merrimack County,NH,61.33333333333333
03833,Rockingham County,NH,26.166666666666664
03842,Rockingham County,NH,92
03867,Strafford County,NH,15.555555555555555
07026,Bergen County,NJ,78.33333333333333
07030,Hudson County,NJ,19.166666666666668
07055,Passaic County,NJ,0.6111111111111112
07060,Union County,NJ,90
07062,Union County,NJ,44.666666666666664
07063,Union County,NJ,71.61111111111111
07071,Bergen County,NJ,50.5
07087,Hudson County,NJ,11.722222222222223
07093,Hudson County,NJ,19.055555555555557
07107,Essex County,NJ,5.444444444444444
07112,Essex County,NJ,1.7777777777777777
07305,Hudson County,NJ,2.666666666666667
07410,Bergen County,NJ,35.22222222222222
07417,Bergen County,NJ,90.5
07419,Sussex County,NJ,98.55555555555556
07442,Passaic County,NJ,87.27777777777777
07501,Passaic County,NJ,8.444444444444445
07513,Passaic County,NJ,91.38888888888889
07514,Passaic County,NJ,96.72222222222221
07666,Bergen County,NJ,8.777777777777777
07724,Monmouth County,NJ,98.11111111111111
07726,Monmouth County,NJ,20.22222222222222
07764,Monmouth County,NJ,95.88888888888889
07801,Morris County,NJ,13.166666666666666
07860,Sussex County,NJ,18.055555555555554
07885,Morris County,NJ,99.5
07960,Morris County,NJ,52.55555555555556
08002,Camden County,NJ,66.33333333333333
08004,Camden County,NJ,40.833333333333336
08010,Burlington County,NJ,93.66666666666667
08033,Camden County,NJ,85.44444444444444
08036,Burlington County,NJ,75.5
08037,Atlantic County,NJ,78.72222222222223
08043,Camden County,NJ,72.77777777777777
08046,Burlington County,NJ,18.666666666666668
08052,Burlington County,NJ,45.05555555555556
08053,Burlington County,NJ,17.333333333333336
08054,Burlington County,NJ,80.38888888888889
08055,Burlington County,NJ,51.33333333333333
08060,Burlington County,NJ,68.11111111111111
08069,Salem County,NJ,48.388888888888886
08083,Camden County,NJ,57.49999999999999
08085,Gloucester County,NJ,42.11111111111111
08087,Ocean County,NJ,12.333333333333334
08109,Camden County,NJ,13.111111111111112
08204,Cape May County,NJ,65.72222222222223
08302,Cumberland County,NJ,33.83333333333333
08520,Mercer County,NJ,77.16666666666666
08618,Mercer County,NJ,3.833333333333333
08629,Mercer County,NJ,21.27777777777778
08690,Mercer County,NJ,29.833333333333336
08805,Somerset County,NJ,96.61111111111111
08807,Somerset County,NJ,72.44444444444444
08835,Somerset County,NJ,94.38888888888889
08854,Middlesex County,NJ,21.833333333333332
08857,Middlesex County,NJ,64.83333333333333
08859,Middlesex County,NJ,91.33333333333333
08861,Middlesex County,NJ,17.38888888888889
08865,Warren County,NJ,16
08869,Somerset County,NJ,96.05555555555556
08872,Middlesex County,NJ,67.22222222222223
08901,Middlesex County,NJ,94.16666666666667
87001,Sandoval County,NM,86.11111111111111
87004,Sandoval County,NM,56.94444444444444
87105,Bernalillo County,NM,1.8888888888888888
87106,Bernalillo County,NM,78.55555555555556
87107,Bernalillo County,NM,74.44444444444444
87108,Bernalillo County,NM,3.6666666666666665
87109,Bernalillo County,NM,11.5
87111,Bernalillo County,NM,65.11111111111111
87121,Bernalillo County,NM,27.500000000000004
87328,McKinley County,NM,85.11111111111111
87401,San Juan County,NM,34.27777777777778
87410,San Juan County,NM,74.27777777777777
87416,San Juan County,NM,91.66666666666666
87532,Santa Fe County,NM,69.44444444444444
87571,Taos County,NM,40.72222222222222
88001,Doa Ana County,NM,18.27777777777778
10002,New York County,NY,14.11111111111111
10014,New York County,NY,72.66666666666667
10025,New York County,NY,43.833333333333336
10026,New York County,NY,17.27777777777778
10029,New York County,NY,0.2777777777777778
10030,New York County,NY,56.111111111111114
10034,New York County,NY,50.33333333333333
10303,Richmond County,NY,54.666666666666664
10451,Bronx County,NY,22.944444444444446
10452,Bronx County,NY,44.55555555555556
10454,Bronx County,NY,3.5000000000000004
10455,Bronx County,NY,27.055555555555554
10456,Bronx County,NY,1.2222222222222223
10457,Bronx County,NY,2.833333333333333
10458,Bronx County,NY,2.2777777777777777
10459,Bronx County,NY,16.444444444444446
10460,Bronx County,NY,7.555555555555555
10466,Bronx County,NY,2.166666666666667
10467,Bronx County,NY,36.16666666666667
10469,Bronx County,NY,12
10470,Bronx County,NY,89.61111111111111
10472,Bronx County,NY,40.33333333333333
10473,Bronx County,NY,27.944444444444443
10512,Putnam County,NY,95.55555555555556
10528,Westchester County,NY,83.55555555555556
10566,Westchester County,NY,41.11111111111111
10606,Westchester County,NY,71.55555555555554
10705,Westchester County,NY,24.055555555555554
10804,Westchester County,NY,97.72222222222223
10950,Orange County,NY,85.88888888888889
11103,Queens County,NY,92.16666666666666
11105,Queens County,NY,96.94444444444444
11203,Kings County,NY,60.333333333333336
11205,Kings County,NY,7.222222222222221
11206,Kings County,NY,1.1666666666666667
11207,Kings County,NY,0.2222222222222222
11208,Kings County,NY,43.55555555555555
11212,Kings County,NY,28.388888888888893
11213,Kings County,NY,50.77777777777778
11216,Kings County,NY,6.055555555555555
11219,Kings County,NY,29.888888888888886
11224,Kings County,NY,13
11225,Kings County,NY,67.83333333333333
11226,Kings County,NY,14.055555555555554
11229,Kings County,NY,82.05555555555556
11231,Kings County,NY,92.83333333333333
11235,Kings County,NY,27.88888888888889
11237,Kings County,NY,68.33333333333333
11368,Queens County,NY,47.333333333333336
11370,Queens County,NY,34.66666666666667
11372,Queens County,NY,47.66666666666667
11373,Queens County,NY,58.05555555555556
11419,Queens County,NY,78.5
11420,Queens County,NY,33.44444444444444
11429,Queens County,NY,54.27777777777778
11432,Queens County,NY,43.888888888888886
11520,Nassau County,NY,21.722222222222225
11550,Nassau County,NY,43.666666666666664
11691,Queens County,NY,4.722222222222222
11706,Suffolk County,NY,15.388888888888888
11727,Suffolk County,NY,47.16666666666667
11731,Suffolk County,NY,68.5
11789,Suffolk County,NY,96.22222222222221
11801,Nassau County,NY,42.72222222222222
11944,Suffolk County,NY,97.27777777777777
11953,Suffolk County,NY,88.72222222222223
12010,Montgomery County,NY,2.611111111111111
12090,Rensselaer County,NY,74.66666666666667
12143,Albany County,NY,78.88888888888889
12180,Rensselaer County,NY,0.9444444444444444
12206,Albany County,NY,71.88888888888889
12210,Albany County,NY,70
12534,Columbia County,NY,9.5
12550,Orange County,NY,48.72222222222222
12601,Dutchess County,NY,46.44444444444444
12839,Washington County,NY,61.16666666666667
13021,Cayuga County,NY,24.166666666666668
13027,Onondaga County,NY,8.61111111111111
13036,Oswego County,NY,69.66666666666667
13045,Cortland County,NY,1.8333333333333333
13203,Onondaga County,NY,36.666666666666664
13208,Onondaga County,NY,7.000000000000001
13209,Onondaga County,NY,74.16666666666667
13340,Herkimer County,NY,66.77777777777779
13357,Herkimer County,NY,24.22222222222222
13407,Herkimer County,NY,45.27777777777778
13440,Oneida County,NY,0.8888888888888888
13619,Jefferson County,NY,74.83333333333333
13733,Chenango County,NY,52.666666666666664
13746,Broome County,NY,78.88888888888889
13778,Chenango County,NY,48
13790,Broome County,NY,84.38888888888889
13850,Broome County,NY,60.72222222222222
13901,Broome County,NY,26.111111111111114
13905,Broome County,NY,28.22222222222222
14057,Erie County,NY,91.22222222222223
14059,Erie County,NY,54.166666666666664
14204,Erie County,NY,56.666666666666664
14206,Erie County,NY,80.27777777777779
14211,Erie County,NY,49.833333333333336
14215,Erie County,NY,51.27777777777778
14217,Erie County,NY,17.666666666666668
14220,Erie County,NY,47.11111111111111
14420,Monroe County,NY,32.27777777777778
14424,Ontario County,NY,10.444444444444445
14425,Ontario County,NY,11.222222222222221
14450,Monroe County,NY,1.4444444444444444
14456,Ontario County,NY,3.944444444444444
14502,Wayne County,NY,18.777777777777775
14522,Wayne County,NY,22.72222222222222
14526,Monroe County,NY,67.66666666666666
14534,Monroe County,NY,3.6111111111111107
14586,Monroe County,NY,22.055555555555557
14605,Monroe County,NY,38.77777777777778
14606,Monroe County,NY,10.722222222222221
14609,Monroe County,NY,29.22222222222222
14612,Monroe County,NY,8.88888888888889
14613,Monroe County,NY,6.611111111111111
14618,Monroe County,NY,10.61111111111111
14620,Monroe County,NY,83.88888888888889
14621,Monroe County,NY,0.3888888888888889
14622,Monroe County,NY,41.94444444444444
14624,Monroe County,NY,22.27777777777778
14626,Monroe County,NY,1.6111111111111112
14701,Chautauqua County,NY,10.944444444444445
14760,Cattaraugus County,NY,24.666666666666668
14775,Chautauqua County,NY,97.55555555555556
27030,Surry County,NC,45.33333333333333
27045,Forsyth County,NC,56.72222222222222
27103,Forsyth County,NC,31.77777777777778
27105,Forsyth County,NC,9.277777777777779
27106,Forsyth County,NC,7.944444444444445
27107,Forsyth County,NC,14.333333333333334
27127,Forsyth County,NC,48.16666666666667
27253,Alamance County,NC,10.166666666666666
27292,Davidson County,NC,66.44444444444444
27295,Davidson County,NC,13.666666666666666
27403,Guilford County,NC,76.16666666666667
27406,Guilford County,NC,14.444444444444443
27407,Guilford County,NC,70.83333333333334
27410,Guilford County,NC,64.72222222222223
27501,Harnett County,NC,37.388888888888886
27504,Johnston County,NC,46.833333333333336
27510,Orange County,NC,95.66666666666667
27514,Orange County,NC,98.27777777777777
27522,Granville County,NC,62.27777777777778
27530,Wayne County,NC,9.166666666666666
27536,Vance County,NC,71.27777777777777
27549,Franklin County,NC,15.5
27573,Person County,NC,31.833333333333336
27601,Wake County,NC,86.05555555555556
27604,Wake County,NC,22.555555555555557
27609,Wake County,NC,82.5
27610,Wake County,NC,3.888888888888889
27614,Wake County,NC,51.22222222222222
27615,Wake County,NC,54.888888888888886
27616,Wake County,NC,14.38888888888889
27704,Durham County,NC,43.611111111111114
27705,Durham County,NC,39.666666666666664
27707,Durham County,NC,7.444444444444444
27712,Durham County,NC,97.94444444444444
27713,Durham County,NC,16.61111111111111
27896,Wilson County,NC,64.33333333333333
28079,Union County,NC,33.55555555555556
28105,Mecklenburg County,NC,44.05555555555555
28205,Mecklenburg County,NC,13.61111111111111
28206,Mecklenburg County,NC,28.27777777777778
28208,Mecklenburg County,NC,5.166666666666667
28212,Mecklenburg County,NC,17.11111111111111
28213,Mecklenburg County,NC,18
28216,Mecklenburg County,NC,66.66666666666666
28303,Cumberland County,NC,39.88888888888889
28312,Cumberland County,NC,48.22222222222222
28365,Wayne County,NC,72.38888888888889
28398,Duplin County,NC,68
28405,New Hanover County,NC,23.5
28412,New Hanover County,NC,9.666666666666666
28425,Pender County,NC,51.388888888888886
28429,New Hanover County,NC,68
28518,Duplin County,NC,75.72222222222223
28580,Greene County,NC,62.83333333333333
28590,Pitt County,NC,88.83333333333333
28605,Watauga County,NC,82.55555555555556
28650,Catawba County,NC,90.16666666666666
28677,Iredell County,NC,9.833333333333332
28681,Alexander County,NC,13.833333333333334
28771,Graham County,NC,56.222222222222214
28792,Henderson County,NC,90.05555555555556
58103,Cass County,ND,78.66666666666666
58104,Cass County,ND,20.88888888888889
58701,Ward County,ND,25.166666666666664
58703,Ward County,ND,57.111111111111114
58801,Williams County,ND,24.333333333333336
43035,Delaware County,OH,79.27777777777779
43050,Knox County,OH,47.72222222222222
43055,Licking County,OH,49.666666666666664
43081,Franklin County,OH,15.444444444444445
43085,Franklin County,OH,49.111111111111114
43103,Pickaway County,OH,58.666666666666664
43110,Franklin County,OH,16.166666666666664
43207,Franklin County,OH,27.166666666666668
43211,Franklin County,OH,53.666666666666664
43213,Franklin County,OH,5.222222222222222
43219,Franklin County,OH,32.05555555555556
43223,Franklin County,OH,3.166666666666667
43224,Franklin County,OH,69.5
43227,Franklin County,OH,15.611111111111112
43228,Franklin County,OH,67.38888888888889
43229,Franklin County,OH,61.16666666666667
43302,Marion County,OH,40.38888888888889
43331,Logan County,OH,84.66666666666667
43402,Wood County,OH,14.61111111111111
43420,Sandusky County,OH,5.777777777777778
43537,Lucas County,OH,46.166666666666664
43551,Wood County,OH,46.72222222222222
43604,Lucas County,OH,56.44444444444444
43605,Lucas County,OH,42.05555555555556
43606,Lucas County,OH,10.722222222222221
43607,Lucas County,OH,44
43608,Lucas County,OH,37.888888888888886
43609,Lucas County,OH,41.888888888888886
43615,Lucas County,OH,76.77777777777777
43616,Lucas County,OH,7.888888888888888
43620,Lucas County,OH,55.55555555555556
43713,Belmont County,OH,70.27777777777777
43764,Perry County,OH,76.88888888888889
43787,Morgan County,OH,96.38888888888889
43832,Tuscarawas County,OH,81.77777777777779
43845,Coshocton County,OH,72.5
43938,Jefferson County,OH,36.72222222222222
44024,Geauga County,OH,32.44444444444444
44035,Lorain County,OH,10.5
44039,Lorain County,OH,56.611111111111114
44054,Lorain County,OH,24.5
44077,Lake County,OH,35.833333333333336
44102,Cuyahoga County,OH,25.11111111111111
44103,Cuyahoga County,OH,84.05555555555554
44104,Cuyahoga County,OH,26.611111111111114
44105,Cuyahoga County,OH,49.05555555555556
44106,Cuyahoga County,OH,5.722222222222222
44108,Cuyahoga County,OH,55.94444444444444
44109,Cuyahoga County,OH,66.94444444444444
44110,Cuyahoga County,OH,40.11111111111111
44111,Cuyahoga County,OH,26.055555555555554
44113,Cuyahoga County,OH,79.66666666666666
44120,Cuyahoga County,OH,1.6666666666666667
44121,Cuyahoga County,OH,23.5
44123,Cuyahoga County,OH,19
44125,Cuyahoga County,OH,5.333333333333334
44126,Cuyahoga County,OH,36.27777777777778
44135,Cuyahoga County,OH,51.16666666666667
44136,Cuyahoga County,OH,45.111111111111114
44139,Cuyahoga County,OH,29.166666666666668
44140,Cuyahoga County,OH,51.05555555555556
44142,Cuyahoga County,OH,44.83333333333333
44143,Cuyahoga County,OH,66
44144,Cuyahoga County,OH,6.888888888888889
44149,Cuyahoga County,OH,30.388888888888886
44212,Medina County,OH,1.7222222222222223
44224,Summit County,OH,14.722222222222223
44233,Medina County,OH,74.5
44266,Portage County,OH,5
44288,Portage County,OH,95.16666666666667
44301,Summit County,OH,20.61111111111111
44306,Summit County,OH,51.94444444444445
44310,Summit County,OH,5.888888888888888
44314,Summit County,OH,18.11111111111111
44432,Columbiana County,OH,48.22222222222222
44440,Trumbull County,OH,73.72222222222223
44445,Columbiana County,OH,98.61111111111111
44455,Columbiana County,OH,99.8888888888889
44615,Carroll County,OH,60.111111111111114
44646,Stark County,OH,39.94444444444444
44691,Wayne County,OH,4.111111111111112
44702,Stark County,OH,88.22222222222223
44706,Stark County,OH,22.38888888888889
44811,Sandusky County,OH,21.166666666666668
44833,Crawford County,OH,21.722222222222225
44870,Erie County,OH,0.8333333333333334
44875,Richland County,OH,27.666666666666668
44883,Seneca County,OH,63
44906,Richland County,OH,85.22222222222223
45011,Butler County,OH,64.94444444444444
45066,Warren County,OH,83.27777777777777
45067,Butler County,OH,42.333333333333336
45069,Butler County,OH,74.55555555555556
45133,Highland County,OH,14.166666666666666
45140,Clermont County,OH,90.77777777777779
45171,Brown County,OH,88.88888888888889
45204,Hamilton County,OH,71
45206,Hamilton County,OH,38.611111111111114
45211,Hamilton County,OH,75.66666666666667
45212,Hamilton County,OH,63.22222222222222
45214,Hamilton County,OH,75.3888888888889
45215,Hamilton County,OH,58.166666666666664
45217,Hamilton County,OH,71.44444444444444
45223,Hamilton County,OH,80.27777777777779
45230,Hamilton County,OH,77.38888888888889
45231,Hamilton County,OH,79.94444444444444
45233,Hamilton County,OH,81.5
45238,Hamilton County,OH,47.5
45239,Hamilton County,OH,49.77777777777778
45240,Hamilton County,OH,58.94444444444444
45244,Hamilton County,OH,84.94444444444444
45248,Hamilton County,OH,92.11111111111111
45251,Hamilton County,OH,37.166666666666664
45255,Hamilton County,OH,90.61111111111111
45327,Montgomery County,OH,62.61111111111111
45342,Montgomery County,OH,6.333333333333334
45365,Shelby County,OH,70.5
45403,Montgomery County,OH,52.72222222222223
45406,Montgomery County,OH,9.388888888888888
45409,Montgomery County,OH,81
45410,Montgomery County,OH,29.555555555555557
45419,Montgomery County,OH,88.05555555555556
45420,Montgomery County,OH,43.888888888888886
45424,Montgomery County,OH,53.72222222222223
45601,Ross County,OH,3.0555555555555554
45614,Gallia County,OH,83.77777777777777
45619,Lawrence County,OH,61.55555555555555
45661,Pike County,OH,92.33333333333333
45662,Scioto County,OH,34
45692,Jackson County,OH,91.05555555555556
45784,Washington County,OH,55.50000000000001
45805,Allen County,OH,46.61111111111111
45813,Paulding County,OH,73.55555555555556
45840,Hancock County,OH,33.166666666666664
73008,Oklahoma County,OK,48.888888888888886
73064,Canadian County,OK,36.333333333333336
73129,Oklahoma County,OK,36
73135,Oklahoma County,OK,29.72222222222222
73448,Love County,OK,69.94444444444444
73501,Comanche County,OK,41.44444444444444
74075,Payne County,OK,45.22222222222222
74361,Mayes County,OK,48.44444444444444
74451,Cherokee County,OK,96.55555555555554
97007,Washington County,OR,50.05555555555555
97045,Clackamas County,OR,58.833333333333336
97058,Wasco County,OR,70.38888888888889
97071,Marion County,OR,41.44444444444444
97116,Washington County,OR,35
97123,Washington County,OR,13.944444444444445
97124,Washington County,OR,60.611111111111114
97217,Multnomah County,OR,55.222222222222214
97219,Multnomah County,OR,44.44444444444444
97223,Washington County,OR,19.38888888888889
97229,Washington County,OR,86.72222222222223
97233,Multnomah County,OR,68.83333333333333
97301,Marion County,OR,7.388888888888889
97302,Marion County,OR,29.944444444444446
97306,Marion County,OR,41.333333333333336
97322,Linn County,OR,8.666666666666668
97325,Marion County,OR,72.55555555555556
97391,Lincoln County,OR,95.72222222222221
97415,Curry County,OR,32.83333333333333
97471,Douglas County,OR,11.333333333333332
97502,Jackson County,OR,26.77777777777778
97603,Klamath County,OR,13.222222222222221
97741,Jefferson County,OR,89.44444444444444
97818,Morrow County,OR,75.83333333333333
97838,Umatilla County,OR,11.277777777777779
97914,Malheur County,OR,41.44444444444444
15001,Beaver County,PA,54.05555555555556
15025,Allegheny County,PA,93.22222222222221
15042,Beaver County,PA,95.5
15068,Westmoreland County,PA,36.44444444444444
15122,Allegheny County,PA,76.66666666666667
15133,Allegheny County,PA,97.44444444444444
15204,Allegheny County,PA,74.77777777777777
15205,Allegheny County,PA,33.111111111111114
15210,Allegheny County,PA,59.5
15214,Allegheny County,PA,78.22222222222223
15217,Allegheny County,PA,87.8888888888889
15221,Allegheny County,PA,51
15229,Allegheny County,PA,71.83333333333334
15236,Allegheny County,PA,82.38888888888889
15801,Clearfield County,PA,21.11111111111111
15825,Jefferson County,PA,59.111111111111114
15853,Elk County,PA,45.77777777777778
15905,Cambria County,PA,33.666666666666664
15906,Cambria County,PA,41.16666666666667
16101,Lawrence County,PA,3.3888888888888893
16102,Lawrence County,PA,95.77777777777777
16125,Mercer County,PA,53.388888888888886
16365,Warren County,PA,23.666666666666668
16601,Blair County,PA,59.88888888888889
16602,Blair County,PA,66.22222222222223
16625,Blair County,PA,99.83333333333333
16630,Cambria County,PA,98
16635,Blair County,PA,82.16666666666667
16686,Blair County,PA,69.33333333333334
16693,Blair County,PA,81.66666666666667
16801,Centre County,PA,26.5
16830,Clearfield County,PA,62.38888888888889
16901,Tioga County,PA,91.11111111111111
16915,Potter County,PA,69.11111111111111
17007,Cumberland County,PA,91.83333333333333
17036,Dauphin County,PA,16.055555555555557
17038,Lebanon County,PA,89.27777777777777
17042,Lebanon County,PA,2.4444444444444446
17104,Dauphin County,PA,83.72222222222221
17109,Dauphin County,PA,43.166666666666664
17313,York County,PA,50.33333333333333
17401,York County,PA,32
17403,York County,PA,1.5555555555555556
17404,York County,PA,26.722222222222225
17408,York County,PA,28.888888888888886
17512,Lancaster County,PA,79.83333333333333
17516,Lancaster County,PA,85.94444444444444
17517,Lancaster County,PA,65.77777777777779
17543,Lancaster County,PA,16.27777777777778
17552,Lancaster County,PA,26.38888888888889
17557,Lancaster County,PA,82.66666666666667
17565,Lancaster County,PA,99.94444444444444
17701,Lycoming County,PA,40
17745,Clinton County,PA,27.333333333333332
17751,Clinton County,PA,55.333333333333336
17815,Columbia County,PA,10.666666666666668
17837,Union County,PA,62.16666666666667
17842,Snyder County,PA,85.16666666666667
17851,Northumberland County,PA,75.44444444444444
17857,Northumberland County,PA,49.888888888888886
17866,Northumberland County,PA,95.38888888888889
17870,Snyder County,PA,33.72222222222222
17901,Schuylkill County,PA,17.555555555555554
17963,Schuylkill County,PA,66.11111111111111
17976,Schuylkill County,PA,69.05555555555556
18013,Northampton County,PA,52.94444444444445
18014,Northampton County,PA,72.05555555555556
18015,Northampton County,PA,22.444444444444443
18017,Northampton County,PA,32.72222222222222
18031,Lehigh County,PA,62.88888888888889
18040,Northampton County,PA,52.388888888888886
18042,Northampton County,PA,58.55555555555556
18052,Lehigh County,PA,36.833333333333336
18058,Monroe County,PA,59.77777777777777
18064,Northampton County,PA,28.72222222222222
18067,Northampton County,PA,27.38888888888889
18073,Montgomery County,PA,94.61111111111111
18102,Lehigh County,PA,37.77777777777778
18201,Luzerne County,PA,52.83333333333333
18202,Luzerne County,PA,61.66666666666667
18235,Carbon County,PA,93
18328,Pike County,PA,88.33333333333333
18344,Monroe County,PA,96.5
18411,Lackawanna County,PA,33.94444444444444
18466,Monroe County,PA,66.72222222222223
18505,Lackawanna County,PA,29.27777777777778
18603,Columbia County,PA,47.55555555555556
18640,Luzerne County,PA,57.49999999999999
18643,Luzerne County,PA,39
18702,Luzerne County,PA,20.555555555555554
18704,Luzerne County,PA,33.27777777777778
18706,Luzerne County,PA,84.22222222222221
18707,Luzerne County,PA,68.66666666666667
18801,Susquehanna County,PA,63.11111111111111
18940,Bucks County,PA,46.111111111111114
18960,Bucks County,PA,98.83333333333333
18966,Bucks County,PA,75.33333333333333
18974,Bucks County,PA,39.5
19002,Montgomery County,PA,83.38888888888889
19003,Montgomery County,PA,75.83333333333333
19006,Montgomery County,PA,96.22222222222221
19007,Bucks County,PA,17.5
19012,Montgomery County,PA,98.16666666666667
19013,Delaware County,PA,58.333333333333336
19015,Delaware County,PA,68.44444444444444
19018,Delaware County,PA,88.61111111111111
19020,Bucks County,PA,95
19021,Bucks County,PA,83.05555555555556
19026,Delaware County,PA,11.555555555555555
19035,Montgomery County,PA,81.88888888888889
19038,Montgomery County,PA,67.16666666666666
19040,Montgomery County,PA,62.55555555555555
19041,Delaware County,PA,87.83333333333333
19044,Montgomery County,PA,47.22222222222222
19046,Montgomery County,PA,32.111111111111114
19047,Bucks County,PA,91.94444444444444
19050,Delaware County,PA,46.05555555555556
19053,Bucks County,PA,64.16666666666667
19055,Bucks County,PA,95.05555555555556
19056,Bucks County,PA,34.5
19057,Bucks County,PA,64.33333333333333
19060,Delaware County,PA,96
19061,Delaware County,PA,19.611111111111114
19063,Delaware County,PA,39.22222222222223
19064,Delaware County,PA,26.38888888888889
19067,Bucks County,PA,12.444444444444445
19070,Delaware County,PA,90.44444444444444
19072,Montgomery County,PA,50.83333333333333
19078,Delaware County,PA,98.44444444444444
19079,Delaware County,PA,85.83333333333333
19081,Delaware County,PA,99.22222222222223
19083,Delaware County,PA,61.77777777777778
19085,Delaware County,PA,76.16666666666667
19087,Chester County,PA,84.44444444444444
19095,Montgomery County,PA,65.5
19103,Philadelphia County,PA,96.33333333333334
19111,Philadelphia County,PA,25.555555555555554
19115,Philadelphia County,PA,84.72222222222221
19116,Philadelphia County,PA,45.611111111111114
19119,Philadelphia County,PA,16.88888888888889
19120,Philadelphia County,PA,11.61111111111111
19121,Philadelphia County,PA,65.88888888888889
19125,Philadelphia County,PA,34.22222222222222
19126,Philadelphia County,PA,50.16666666666667
19128,Philadelphia County,PA,63.83333333333333
19130,Philadelphia County,PA,53.94444444444444
19131,Philadelphia County,PA,65.44444444444444
19132,Philadelphia County,PA,3.111111111111111
19134,Philadelphia County,PA,11.444444444444445
19135,Philadelphia County,PA,93.11111111111111
19136,Philadelphia County,PA,87.6111111111111
19138,Philadelphia County,PA,45.72222222222222
19140,Philadelphia County,PA,9.61111111111111
19142,Philadelphia County,PA,7.222222222222221
19143,Philadelphia County,PA,13.444444444444445
19146,Philadelphia County,PA,61.27777777777778
19147,Philadelphia County,PA,12.222222222222221
19148,Philadelphia County,PA,49.333333333333336
19149,Philadelphia County,PA,55.05555555555556
19150,Philadelphia County,PA,87.8888888888889
19151,Philadelphia County,PA,30.444444444444446
19152,Philadelphia County,PA,86.8888888888889
19154,Philadelphia County,PA,68.55555555555556
19312,Chester County,PA,90.33333333333333
19320,Chester County,PA,60.16666666666667
19341,Chester County,PA,57.166666666666664
19342,Delaware County,PA,97.5
19380,Chester County,PA,64.77777777777777
19382,Chester County,PA,31.666666666666664
19390,Chester County,PA,63.94444444444445
19401,Montgomery County,PA,50.11111111111111
19403,Montgomery County,PA,35.5
19405,Montgomery County,PA,98.61111111111111
19426,Montgomery County,PA,66.5
19428,Montgomery County,PA,60.66666666666667
19454,Montgomery County,PA,30.5
19462,Montgomery County,PA,32.77777777777778
19508,Berks County,PA,64.88888888888889
19510,Berks County,PA,71.66666666666667
19518,Berks County,PA,34.55555555555556
19540,Berks County,PA,80.94444444444444
19543,Berks County,PA,93.16666666666666
19602,Berks County,PA,43.333333333333336
19604,Berks County,PA,6.777777777777779
19605,Berks County,PA,20.77777777777778
19611,Berks County,PA,99.05555555555556
02888,Kent County,RI,84
02889,Kent County,RI,17.166666666666668
02906,Providence County,RI,39.77777777777778
02909,Providence County,RI,12.88888888888889
29047,Orangeburg County,SC,96.38888888888889
29067,Lancaster County,SC,73.33333333333333
29073,Lexington County,SC,15.222222222222223
29154,Sumter County,SC,36.55555555555556
29340,Cherokee County,SC,78.83333333333333
29403,Charleston County,SC,72.66666666666667
29406,Charleston County,SC,58.27777777777777
29418,Charleston County,SC,26.222222222222225
29420,Dorchester County,SC,33.55555555555556
29456,Dorchester County,SC,51.77777777777778
29464,Charleston County,SC,30.72222222222222
29510,Georgetown County,SC,48.72222222222222
29576,Horry County,SC,30.666666666666664
29611,Greenville County,SC,29.055555555555557
29615,Greenville County,SC,69.61111111111111
29681,Greenville County,SC,18.27777777777778
57252,Grant County,SD,81.33333333333333
57262,Roberts County,SD,99.3888888888889
57350,Beadle County,SD,40.55555555555556
57702,Pennington County,SD,43
57752,Shannon County,SD,91.66666666666666
37030,Smith County,TN,59.22222222222222
37034,Marshall County,TN,67
37080,Davidson County,TN,60.77777777777777
37128,Rutherford County,TN,19.22222222222222
37160,Bedford County,TN,12.944444444444445
37204,Davidson County,TN,85.05555555555556
37211,Davidson County,TN,37.111111111111114
37217,Davidson County,TN,56.777777777777786
37311,Bradley County,TN,23.333333333333332
37342,Coffee County,TN,94.88888888888889
37363,Hamilton County,TN,79.16666666666666
37659,Washington County,TN,24.833333333333332
37701,Blount County,TN,77.22222222222223
37748,Roane County,TN,66.11111111111111
37764,Sevier County,TN,57.77777777777777
37874,Monroe County,TN,27.555555555555557
37879,Claiborne County,TN,37.666666666666664
38002,Shelby County,TN,51.72222222222223
38104,Shelby County,TN,54.77777777777778
38107,Shelby County,TN,71.22222222222221
38109,Shelby County,TN,6.5
38111,Shelby County,TN,39.44444444444444
38112,Shelby County,TN,84.16666666666667
38114,Shelby County,TN,55.833333333333336
38115,Shelby County,TN,56.55555555555556
38116,Shelby County,TN,35.44444444444444
38118,Shelby County,TN,70.72222222222221
38127,Shelby County,TN,50.94444444444445
38128,Shelby County,TN,13.5
38133,Shelby County,TN,82.72222222222221
38134,Shelby County,TN,25.27777777777778
38242,Henry County,TN,33.5
38261,Obion County,TN,26.333333333333332
75022,Denton County,TX,64.33333333333333
75023,Collin County,TX,38.05555555555556
75034,Denton County,TX,25.944444444444443
75040,Dallas County,TX,11.666666666666666
75041,Dallas County,TX,58.22222222222222
75042,Dallas County,TX,72.83333333333334
75043,Dallas County,TX,53.333333333333336
75050,Dallas County,TX,85.55555555555556
75057,Denton County,TX,68.61111111111111
75060,Dallas County,TX,28.61111111111111
75067,Denton County,TX,49.27777777777778
75074,Collin County,TX,65.38888888888889
75080,Dallas County,TX,80.88888888888889
75081,Dallas County,TX,53.77777777777778
75149,Dallas County,TX,86.33333333333333
75150,Dallas County,TX,41
75154,Ellis County,TX,89.55555555555556
75159,Dallas County,TX,76.72222222222223
75172,Dallas County,TX,99.77777777777777
75203,Dallas County,TX,59.05555555555555
75206,Dallas County,TX,36.05555555555556
75210,Dallas County,TX,51.888888888888886
75211,Dallas County,TX,12.722222222222221
75216,Dallas County,TX,45.38888888888889
75217,Dallas County,TX,75.6111111111111
75223,Dallas County,TX,89
75224,Dallas County,TX,32.611111111111114
75227,Dallas County,TX,36.5
75229,Dallas County,TX,30.777777777777775
75231,Dallas County,TX,73.66666666666667
75232,Dallas County,TX,59.38888888888889
75234,Dallas County,TX,51.61111111111111
75235,Dallas County,TX,76.27777777777777
75236,Dallas County,TX,47
75237,Dallas County,TX,81.22222222222221
75238,Dallas County,TX,75.1111111111111
75241,Dallas County,TX,40.77777777777778
75243,Dallas County,TX,77.11111111111111
75287,Denton County,TX,28.111111111111107
75407,Collin County,TX,47.22222222222222
75654,Rusk County,TX,93.5
75702,Smith County,TX,53.5
75703,Smith County,TX,21.555555555555557
75766,Cherokee County,TX,23.444444444444446
76006,Tarrant County,TX,52.77777777777778
76010,Tarrant County,TX,70.11111111111111
76012,Tarrant County,TX,99.33333333333333
76053,Tarrant County,TX,28.333333333333332
76054,Tarrant County,TX,94.27777777777779
76063,Tarrant County,TX,66.88888888888889
76105,Tarrant County,TX,13.055555555555557
76106,Tarrant County,TX,95.11111111111111
76110,Tarrant County,TX,30.277777777777775
76112,Tarrant County,TX,30.5
76119,Tarrant County,TX,82
76133,Tarrant County,TX,12.833333333333332
76137,Tarrant County,TX,38.333333333333336
76164,Tarrant County,TX,53.888888888888886
76209,Denton County,TX,64.11111111111111
76502,Bell County,TX,9.777777777777779
76513,Bell County,TX,22
76520,Milam County,TX,53.44444444444445
76542,Bell County,TX,31.166666666666664
76543,Bell County,TX,90.72222222222223
76574,Williamson County,TX,83.83333333333334
76643,McLennan County,TX,54.55555555555556
76705,McLennan County,TX,11.11111111111111
76903,Tom Green County,TX,28.999999999999996
77006,Harris County,TX,60.27777777777777
77007,Harris County,TX,37.388888888888886
77013,Harris County,TX,98.88888888888889
77015,Harris County,TX,26.88888888888889
77018,Harris County,TX,58.111111111111114
77023,Harris County,TX,70.22222222222221
77025,Harris County,TX,86.16666666666667
77026,Harris County,TX,65.94444444444446
77036,Harris County,TX,89.33333333333333
77039,Harris County,TX,95.61111111111111
77040,Harris County,TX,60.05555555555555
77047,Harris County,TX,40.833333333333336
77048,Harris County,TX,78.61111111111111
77053,Fort Bend County,TX,82.44444444444444
77054,Harris County,TX,62.05555555555555
77055,Harris County,TX,42.888888888888886
77057,Harris County,TX,76.55555555555556
77061,Harris County,TX,56.333333333333336
77062,Harris County,TX,44.611111111111114
77063,Harris County,TX,75.22222222222223
77073,Harris County,TX,65.33333333333333
77074,Harris County,TX,91
77078,Harris County,TX,94
77080,Harris County,TX,77.83333333333333
77081,Harris County,TX,49.888888888888886
77083,Harris County,TX,79.44444444444444
77087,Harris County,TX,67.22222222222223
77088,Harris County,TX,20.055555555555554
77089,Harris County,TX,91.55555555555556
77090,Harris County,TX,46.38888888888889
77093,Harris County,TX,71.66666666666667
77098,Harris County,TX,96.88888888888889
77099,Harris County,TX,38.666666666666664
77301,Montgomery County,TX,79.38888888888889
77304,Montgomery County,TX,46.22222222222222
77306,Montgomery County,TX,99.44444444444444
77354,Montgomery County,TX,75.94444444444444
77357,Montgomery County,TX,92.33333333333333
77365,Montgomery County,TX,97.66666666666667
77375,Harris County,TX,54.833333333333336
77380,Montgomery County,TX,88.44444444444444
77386,Montgomery County,TX,50.55555555555556
77389,Harris County,TX,39.83333333333333
77396,Harris County,TX,25.5
77401,Harris County,TX,53.833333333333336
77406,Fort Bend County,TX,73.44444444444444
77407,Fort Bend County,TX,37.611111111111114
77423,Waller County,TX,76
77429,Harris County,TX,64.55555555555556
77433,Harris County,TX,55.666666666666664
77450,Harris County,TX,26
77459,Fort Bend County,TX,79.5
77477,Fort Bend County,TX,79.05555555555556
77479,Fort Bend County,TX,47.44444444444444
77484,Waller County,TX,83
77489,Fort Bend County,TX,47.77777777777778
77493,Harris County,TX,45.77777777777778
77494,Fort Bend County,TX,10.833333333333334
77498,Fort Bend County,TX,89.94444444444444
77502,Harris County,TX,89.38888888888889
77503,Harris County,TX,98.16666666666667
77504,Harris County,TX,74.8888888888889
77506,Harris County,TX,70.61111111111111
77511,Brazoria County,TX,78.38888888888889
77515,Brazoria County,TX,62.66666666666667
77530,Harris County,TX,80.11111111111111
77531,Brazoria County,TX,97
77532,Harris County,TX,88.66666666666667
77539,Galveston County,TX,87.33333333333333
77541,Brazoria County,TX,33.27777777777778
77545,Fort Bend County,TX,51.5
77550,Galveston County,TX,53
77551,Galveston County,TX,18.38888888888889
77563,Galveston County,TX,80.5
77566,Brazoria County,TX,36.94444444444444
77568,Galveston County,TX,81.44444444444444
77573,Galveston County,TX,72.27777777777777
77583,Brazoria County,TX,91.44444444444444
77584,Brazoria County,TX,42.16666666666667
77587,Harris County,TX,91.61111111111111
77590,Galveston County,TX,8.277777777777779
77591,Galveston County,TX,90.55555555555556
77598,Harris County,TX,87.44444444444444
77632,Orange County,TX,37
77707,Jefferson County,TX,90.38888888888889
77802,Brazos County,TX,17.72222222222222
77807,Brazos County,TX,64.27777777777777
77808,Brazos County,TX,82.33333333333334
77840,Brazos County,TX,31.444444444444446
77845,Brazos County,TX,61.38888888888889
78028,Kerr County,TX,25.833333333333336
78155,Guadalupe County,TX,16.555555555555557
78211,Bexar County,TX,38.111111111111114
78213,Bexar County,TX,60.77777777777777
78245,Bexar County,TX,68.27777777777779
78260,Bexar County,TX,66.61111111111111
78501,Hidalgo County,TX,33
78537,Hidalgo County,TX,97.05555555555556
78538,Hidalgo County,TX,81.38888888888889
78541,Hidalgo County,TX,76.38888888888889
78542,Hidalgo County,TX,28.77777777777778
78570,Hidalgo County,TX,87.22222222222223
78572,Hidalgo County,TX,12.555555555555555
78574,Hidalgo County,TX,52.22222222222223
78582,Starr County,TX,51.44444444444445
78642,Williamson County,TX,96.77777777777777
78664,Williamson County,TX,73.61111111111111
78723,Travis County,TX,70.77777777777777
78751,Travis County,TX,93.55555555555556
78840,Val Verde County,TX,62.72222222222222
78852,Maverick County,TX,40.27777777777778
79106,Potter County,TX,85.77777777777777
79416,Lubbock County,TX,38.5
79549,Scurry County,TX,28.555555555555557
79714,Andrews County,TX,40.94444444444444
79849,El Paso County,TX,83.33333333333334
79912,El Paso County,TX,60.44444444444444
84047,Salt Lake County,UT,44.27777777777778
84060,Summit County,UT,88.16666666666667
84074,Tooele County,UT,2
84075,Davis County,UT,94.83333333333334
84078,Uintah County,UT,10.277777777777777
84081,Salt Lake County,UT,73.33333333333333
84087,Davis County,UT,74
84106,Salt Lake County,UT,66.83333333333333
84108,Salt Lake County,UT,94.33333333333334
84109,Salt Lake County,UT,49
84319,Cache County,UT,84.61111111111111
84401,Weber County,UT,29.944444444444446
84655,Utah County,UT,83.11111111111111
05408,Chittenden County,VT,68.77777777777779
05753,Addison County,VT,77
20147,Loudoun County,VA,25.77777777777778
20155,Prince William County,VA,44.388888888888886
20169,Prince William County,VA,65.05555555555556
20171,Fairfax County,VA,36.388888888888886
22003,Fairfax County,VA,48.11111111111111
22030,Fairfax County,VA,47.833333333333336
22032,Fairfax County,VA,90.11111111111111
22039,Fairfax County,VA,85.72222222222223
22041,Fairfax County,VA,77.61111111111111
22046,Falls Church city,VA,72.16666666666667
22066,Fairfax County,VA,93.94444444444444
22191,Prince William County,VA,62.5
22204,Arlington County,VA,19.27777777777778
22301,Alexandria city,VA,57.666666666666664
22305,Alexandria city,VA,93.77777777777779
22308,Fairfax County,VA,92.27777777777779
22309,Fairfax County,VA,60.44444444444444
22312,Fairfax County,VA,31.277777777777775
22314,Alexandria city,VA,20.72222222222222
22315,Fairfax County,VA,79.72222222222223
22401,Fredericksburg city,VA,87.72222222222223
22405,Stafford County,VA,42.44444444444444
22408,Spotsylvania County,VA,48.94444444444444
22485,King George County,VA,48.5
22603,Frederick County,VA,72.11111111111111
22657,Shenandoah County,VA,37.05555555555556
22801,Harrisonburg city,VA,29.5
22802,Harrisonburg city,VA,16.666666666666664
22901,Albemarle County,VA,22.5
23222,Richmond city,VA,34.55555555555556
23223,Henrico County,VA,36.888888888888886
23224,Richmond city,VA,6.111111111111111
23226,Richmond city,VA,82.61111111111111
23237,Chesterfield County,VA,33.27777777777778
23451,Virginia Beach city,VA,27.27777777777778
23513,Norfolk city,VA,12.277777777777779
23803,Petersburg city,VA,6.722222222222222
23831,Chesterfield County,VA,68.72222222222221
23832,Chesterfield County,VA,31.61111111111111
23834,Colonial Heights city,VA,61.111111111111114
24014,Roanoke city,VA,52
24018,Roanoke County,VA,33.72222222222222
24019,Roanoke County,VA,40.38888888888889
24502,Lynchburg city,VA,57.277777777777786
24517,Campbell County,VA,80
24590,Albemarle County,VA,79.22222222222223
98029,King County,WA,46.27777777777778
98030,King County,WA,43.22222222222222
98036,Snohomish County,WA,61.88888888888889
98042,King County,WA,11
98058,King County,WA,21.38888888888889
98087,Snohomish County,WA,74.33333333333333
98092,King County,WA,16.944444444444446
98115,King County,WA,67.72222222222221
98125,King County,WA,54.61111111111111
98136,King County,WA,76.33333333333333
98177,King County,WA,54.72222222222223
98204,Snohomish County,WA,43.77777777777778
98252,Snohomish County,WA,86.38888888888889
98270,Snohomish County,WA,35.94444444444444
98271,Snohomish County,WA,72.94444444444444
98368,Jefferson County,WA,76.94444444444444
98391,Pierce County,WA,48
98444,Pierce County,WA,23.88888888888889
98467,Pierce County,WA,67.44444444444444
98580,Pierce County,WA,73.77777777777777
98841,Okanogan County,WA,86.22222222222223
99216,Spokane County,WA,48.61111111111111
99301,Franklin County,WA,24.61111111111111
99338,Benton County,WA,71.27777777777777
99353,Benton County,WA,51.5
20001,District of Columbia,DC,38.44444444444444
20002,District of Columbia,DC,2.888888888888889
20007,District of Columbia,DC,63.5
20011,District of Columbia,DC,4.5
20017,District of Columbia,DC,65.27777777777779
20019,District of Columbia,DC,14.277777777777779
20032,District of Columbia,DC,2.722222222222222
24870,Wyoming County,WV,92.33333333333333
25401,Berkeley County,WV,25.055555555555554
25411,Morgan County,WV,60.77777777777777
25901,Fayette County,WV,32.55555555555556
26164,Jackson County,WV,45.611111111111114
26501,Monongalia County,WV,35.16666666666667
26537,Preston County,WV,41.66666666666667
26554,Marion County,WV,14.833333333333334
53090,Washington County,WI,47.833333333333336
53121,Walworth County,WI,30.777777777777775
53147,Walworth County,WI,31
53149,Waukesha County,WI,54.22222222222223
53151,Waukesha County,WI,27.111111111111114
53186,Waukesha County,WI,61.55555555555555
53189,Waukesha County,WI,40.38888888888889
53204,Milwaukee County,WI,34.11111111111111
53205,Milwaukee County,WI,1.277777777777778
53208,Milwaukee County,WI,84.27777777777777
53210,Milwaukee County,WI,4.222222222222222
53212,Milwaukee County,WI,8.833333333333334
53214,Milwaukee County,WI,44.166666666666664
53215,Milwaukee County,WI,2.2222222222222223
53216,Milwaukee County,WI,18.88888888888889
53218,Milwaukee County,WI,34.72222222222222
53219,Milwaukee County,WI,34.833333333333336
53222,Milwaukee County,WI,41.77777777777778
53226,Milwaukee County,WI,52.11111111111111
53403,Racine County,WI,22.77777777777778
53511,Rock County,WI,0.5
53520,Green County,WI,63.05555555555556
53562,Dane County,WI,81.16666666666667
53704,Dane County,WI,68.94444444444444
54022,Pierce County,WI,38.94444444444444
54201,Kewaunee County,WI,96.11111111111111
54220,Manitowoc County,WI,18.944444444444443
54303,Brown County,WI,81.61111111111111
54601,La Crosse County,WI,4
54915,Outagamie County,WI,23.88888888888889
54944,Outagamie County,WI,83.66666666666667
54971,Fond du Lac County,WI,71.44444444444444
82070,Albany County,WY,98.72222222222223
82501,Fremont County,WY,64.66666666666666
