ZipCode,county,state,Adult
35173,Jefferson County,AL,81.26677402039721
35205,Jefferson County,AL,57.380568974771876
35215,Jefferson County,AL,25.979602791196992
35217,Jefferson County,AL,40.365002683843265
35242,Shelby County,AL,24.36929683306495
35466,Pickens County,AL,80.40794417606011
35473,Tuscaloosa County,AL,47.12828770799785
35501,Walker County,AL,57.59527643585615
35570,Marion County,AL,58.50778314546431
35620,Limestone County,AL,73.80568974771873
35630,Lauderdale County,AL,55.716586151368766
35660,Colbert County,AL,61.24530327428879
35750,Madison County,AL,50.83199141170156
35950,Marshall County,AL,77.2410091250671
35954,Etowah County,AL,50.617283950617285
36109,Montgomery County,AL,40.09661835748793
36303,Houston County,AL,17.82071926999463
36527,Baldwin County,AL,72.6784755770263
99504,Anchorage Municipality,AK,16.371443907675793
99508,Anchorage Municipality,AK,40.68706387546967
99576,Dillingham Census Area,AK,85.93666129898014
99801,Juneau City and Borough,AK,80.89103596349973
85006,Maricopa County,AZ,64.84165324745035
85008,Maricopa County,AZ,33.923778851315085
85009,Maricopa County,AZ,9.554482018250134
85017,Maricopa County,AZ,24.90606548577563
85018,Maricopa County,AZ,26.570048309178745
85031,Maricopa County,AZ,41.599570585077835
85032,Maricopa County,AZ,56.09232420826624
85033,Maricopa County,AZ,11.969940955448202
85034,Maricopa County,AZ,88.13741277509394
85037,Maricopa County,AZ,19.162640901771336
85040,Maricopa County,AZ,14.224369296833064
85048,Maricopa County,AZ,41.277509393451425
85053,Maricopa County,AZ,36.7686527106817
85085,Maricopa County,AZ,58.615136876006446
85122,Pinal County,AZ,5.743424584004294
85128,Pinal County,AZ,63.338701019860444
85131,Pinal County,AZ,71.28287707997852
85139,Pinal County,AZ,45.3569511540526
85209,Maricopa County,AZ,78.26086956521739
85260,Maricopa County,AZ,56.79012345679012
85281,Maricopa County,AZ,27.428878153515836
85323,Maricopa County,AZ,24.584004294149224
85326,Maricopa County,AZ,22.06119162640902
85339,Maricopa County,AZ,16.317767042404725
85349,Yuma County,AZ,26.516371443907676
85364,Yuma County,AZ,14.009661835748794
85395,Maricopa County,AZ,65.11003757380568
85607,Cochise County,AZ,20.82662372517445
85648,Santa Cruz County,AZ,43.69296833064949
85711,Pima County,AZ,6.0654857756307035
85713,Pima County,AZ,22.168545356951157
85730,Pima County,AZ,76.16747181964574
85735,Pima County,AZ,95.43746645195921
85755,Pima County,AZ,87.97638217928073
85901,Navajo County,AZ,43.20987654320987
85941,Apache County,AZ,53.4621578099839
86004,Coconino County,AZ,38.539989264626946
86005,Coconino County,AZ,41.76060118089104
86040,Coconino County,AZ,87.65432098765432
86314,Yavapai County,AZ,38.43263553408481
72210,Pulaski County,AR,82.34031132581858
72223,Pulaski County,AR,98.92646269457863
72401,Craighead County,AR,11.003757380568976
72455,Randolph County,AR,73.75201288244766
72601,Boone County,AR,46.26945786366076
72927,Logan County,AR,98.60440150295223
90005,Los Angeles County,CA,81.105743424584
90022,Los Angeles County,CA,27.96564680622652
90023,Los Angeles County,CA,29.468599033816425
90025,Los Angeles County,CA,84.43370907139023
90044,Los Angeles County,CA,4.455179817498657
90063,Los Angeles County,CA,42.619431025228124
90064,Los Angeles County,CA,51.959205582393984
90220,Los Angeles County,CA,57.00483091787439
90221,Los Angeles County,CA,6.870638754696726
90270,Los Angeles County,CA,78.4219001610306
90301,Los Angeles County,CA,26.89210950080515
90304,Los Angeles County,CA,93.29039184111649
90501,Los Angeles County,CA,68.92109500805152
90602,Los Angeles County,CA,55.50187869028449
90605,Los Angeles County,CA,74.77187332259795
90660,Los Angeles County,CA,21.631776704240472
90680,Orange County,CA,50.348899624261946
90703,Los Angeles County,CA,52.603327965646805
90802,Los Angeles County,CA,41.9753086419753
90805,Los Angeles County,CA,12.936124530327428
90813,Los Angeles County,CA,57.11218464841653
91303,Los Angeles County,CA,75.57702630166399
91342,Los Angeles County,CA,82.76972624798712
91343,Los Angeles County,CA,43.63929146537842
91352,Los Angeles County,CA,19.484702093397747
91355,Los Angeles County,CA,62.74825550187869
91701,San Bernardino County,CA,19.216317767042405
91730,San Bernardino County,CA,43.53193773483628
91731,Los Angeles County,CA,60.49382716049383
91744,Los Angeles County,CA,76.48953301127214
91766,Los Angeles County,CA,32.045088566827694
91901,San Diego County,CA,55.394524959742355
91911,San Diego County,CA,18.14278046162104
91914,San Diego County,CA,91.78743961352657
91950,San Diego County,CA,28.556092324208265
92007,San Diego County,CA,96.34997316156736
92019,San Diego County,CA,95.86688137412776
92020,San Diego County,CA,16.532474503489
92025,San Diego County,CA,80.67632850241546
92028,San Diego County,CA,94.84702093397746
92040,San Diego County,CA,68.54535695115406
92054,San Diego County,CA,34.35319377348363
92065,San Diego County,CA,40.74074074074074
92067,San Diego County,CA,97.85292538915728
92071,San Diego County,CA,66.129898013956
92075,San Diego County,CA,99.62426194310252
92081,San Diego County,CA,62.42619431025228
92105,San Diego County,CA,12.66774020397209
92108,San Diego County,CA,78.69028448738594
92113,San Diego County,CA,49.11433172302738
92123,San Diego County,CA,88.51315083199141
92126,San Diego County,CA,66.45195920558238
92129,San Diego County,CA,49.32903918411165
92131,San Diego County,CA,94.90069779924852
92173,San Diego County,CA,87.22490606548577
92201,Riverside County,CA,48.57756307031669
92211,Riverside County,CA,60.33279656468062
92220,Riverside County,CA,49.704777241009126
92225,Riverside County,CA,68.06226516371444
92227,Imperial County,CA,92.0558239398819
92234,Riverside County,CA,10.305958132045088
92262,Riverside County,CA,15.942028985507244
92274,Riverside County,CA,66.66666666666666
92283,Imperial County,CA,99.6779388083736
92311,San Bernardino County,CA,81.85721953837896
92324,San Bernardino County,CA,82.55501878690285
92335,San Bernardino County,CA,27.697262479871178
92346,San Bernardino County,CA,67.41814278046162
92376,San Bernardino County,CA,26.194310252281266
92407,San Bernardino County,CA,40.4723564143854
92410,San Bernardino County,CA,25.442834138486315
92411,San Bernardino County,CA,66.82769726247987
92530,Riverside County,CA,26.94578636607622
92544,Riverside County,CA,39.88191089640365
92551,Riverside County,CA,58.77616747181964
92553,Riverside County,CA,51.368760064412236
92557,Riverside County,CA,28.663446054750402
92584,Riverside County,CA,66.18357487922705
92586,Riverside County,CA,71.76596886741814
92592,Riverside County,CA,21.578099838969404
92618,Orange County,CA,54.69672571121846
92624,Orange County,CA,97.69189479334408
92653,Orange County,CA,65.91519055287172
92655,Orange County,CA,99.19484702093398
92656,Orange County,CA,26.247987117552334
92673,Orange County,CA,58.34675254965111
92683,Orange County,CA,12.345679012345679
92703,Orange County,CA,62.31884057971014
92707,Orange County,CA,33.601717659688674
92801,Orange County,CA,73.00053676865271
92807,Orange County,CA,75.25496511003757
92832,Orange County,CA,47.61137949543747
92843,Orange County,CA,29.200214707461086
92866,Orange County,CA,74.12775093934513
92868,Orange County,CA,56.414385399892645
92870,Orange County,CA,60.440150295222764
93003,Ventura County,CA,11.379495437466453
93033,Ventura County,CA,31.615673644659154
93041,Ventura County,CA,56.253354804079436
93117,Santa Barbara County,CA,93.50509930220076
93215,Kern County,CA,50.45625335480408
93221,Tulare County,CA,70.74610842726786
93247,Tulare County,CA,70.53140096618358
93250,Kern County,CA,84.75577026301664
93274,Tulare County,CA,3.4889962426194314
93305,Kern County,CA,95.97423510466989
93306,Kern County,CA,44.229736983360176
93308,Kern County,CA,21.256038647342994
93309,Kern County,CA,71.33655394524959
93312,Kern County,CA,30.595813204508858
93314,Kern County,CA,72.62479871175523
93401,San Luis Obispo County,CA,74.8792270531401
93422,San Luis Obispo County,CA,37.68115942028986
93434,Santa Barbara County,CA,90.3918411164788
93436,Santa Barbara County,CA,11.755233494363928
93454,Santa Barbara County,CA,79.01234567901234
93458,Santa Barbara County,CA,90.66022544283415
93534,Los Angeles County,CA,74.82555018786903
93552,Los Angeles County,CA,49.22168545356951
93609,Fresno County,CA,91.94847020933977
93618,Tulare County,CA,45.51798174986581
93638,Madera County,CA,70.42404723564144
93657,Fresno County,CA,48.25550187869028
93701,Fresno County,CA,66.66666666666666
93706,Fresno County,CA,17.122920021470748
93710,Fresno County,CA,86.58078368223295
93726,Fresno County,CA,45.94739667203435
93727,Fresno County,CA,35.26570048309179
93905,Monterey County,CA,29.253891572732154
93927,Monterey County,CA,66.39828234031133
93930,Monterey County,CA,65.64680622651638
93960,Monterey County,CA,79.60279119699409
94025,San Mateo County,CA,69.296833064949
94085,Santa Clara County,CA,79.49543746645196
94112,San Francisco County,CA,48.8996242619431
94116,San Francisco County,CA,48.148148148148145
94131,San Francisco County,CA,55.77026301663983
94303,San Mateo County,CA,21.09500805152979
94503,Napa County,CA,83.41384863123994
94519,Contra Costa County,CA,83.25281803542673
94523,Contra Costa County,CA,58.990874932903914
94526,Contra Costa County,CA,57.48792270531401
94533,Solano County,CA,17.55233494363929
94536,Alameda County,CA,23.886205045625335
94541,Alameda County,CA,18.357487922705314
94552,Alameda County,CA,96.83306494900698
94572,Contra Costa County,CA,92.7536231884058
94589,Solano County,CA,50.778314546430494
94601,Alameda County,CA,79.28073000536769
94605,Alameda County,CA,49.06065485775631
94608,Alameda County,CA,45.03488996242619
95012,Monterey County,CA,78.4219001610306
95051,Santa Clara County,CA,35.85614600107353
95122,Santa Clara County,CA,37.0907139023081
95133,Santa Clara County,CA,80.51529790660226
95206,San Joaquin County,CA,16.210413311862588
95210,San Joaquin County,CA,30.273752012882447
95301,Merced County,CA,67.36446591519055
95307,Stanislaus County,CA,24.745034889962426
95324,Merced County,CA,91.35802469135803
95327,Tuolumne County,CA,82.23295759527643
95337,San Joaquin County,CA,31.72302737520129
95351,Stanislaus County,CA,15.834675254965111
95377,San Joaquin County,CA,59.634997316156735
95391,San Joaquin County,CA,95.49114331723028
95403,Sonoma County,CA,41.33118625872249
95490,Mendocino County,CA,91.14331723027375
95501,Humboldt County,CA,71.92699946323134
95562,Humboldt County,CA,97.53086419753086
95605,Yolo County,CA,93.45142243692969
95608,Sacramento County,CA,31.561996779388085
95621,Sacramento County,CA,33.81642512077295
95660,Sacramento County,CA,31.669350509930222
95688,Solano County,CA,57.21953837895867
95692,Yuba County,CA,99.51690821256038
95747,Placer County,CA,63.82179280730005
95757,Sacramento County,CA,67.04240472356415
95758,Sacramento County,CA,44.44444444444444
95815,Sacramento County,CA,57.27321524422974
95823,Sacramento County,CA,8.373590982286634
95826,Sacramento County,CA,88.45947396672035
95838,Sacramento County,CA,93.23671497584542
95842,Sacramento County,CA,93.9345142243693
95926,Butte County,CA,58.1857219538379
96002,Shasta County,CA,48.040794417606016
96013,Shasta County,CA,96.99409554482018
96022,Tehama County,CA,98.28234031132583
80010,Arapahoe County,CO,41.54589371980676
80011,Arapahoe County,CO,4.99194847020934
80012,Arapahoe County,CO,7.62211486849168
80015,Arapahoe County,CO,13.150831991411701
80016,Arapahoe County,CO,17.06924315619968
80027,Boulder County,CO,52.442297369833604
80108,Douglas County,CO,40.203972088030056
80122,Arapahoe County,CO,45.14224369296833
80209,Denver County,CO,93.07568438003221
80216,Denver County,CO,60.38647342995169
80226,Jefferson County,CO,39.77455716586151
80229,Adams County,CO,55.34084809447128
80236,Denver County,CO,73.91304347826086
80249,Denver County,CO,60.17176596886742
80260,Adams County,CO,67.68652710681697
80501,Boulder County,CO,61.72839506172839
80516,Weld County,CO,57.59527643585615
80524,Larimer County,CO,55.28717122920022
80526,Larimer County,CO,60.7085346215781
80530,Weld County,CO,98.12130971551262
80537,Larimer County,CO,16.264090177133657
80538,Larimer County,CO,8.427267847557703
80550,Weld County,CO,54.53569511540526
80601,Adams County,CO,25.925925925925924
80610,Weld County,CO,99.24852388620505
80631,Weld County,CO,5.904455179817498
80910,El Paso County,CO,18.679549114331724
81001,Pueblo County,CO,15.995705850778313
81007,Pueblo County,CO,36.44659151905529
81303,La Plata County,CO,93.66612989801396
81623,Garfield County,CO,82.9844337090714
81625,Moffat County,CO,31.34728931830381
81650,Garfield County,CO,70.42404723564144
06010,Hartford County,CT,22.27589908749329
06016,Hartford County,CT,92.32420826623725
06033,Hartford County,CT,48.57756307031669
06035,Hartford County,CT,96.61835748792271
06053,Hartford County,CT,7.568438003220612
06066,Tolland County,CT,69.1358024691358
06108,Hartford County,CT,22.5979602791197
06109,Hartford County,CT,55.50187869028449
06114,Hartford County,CT,12.560386473429952
06118,Hartford County,CT,19.055287171229203
06120,Hartford County,CT,40.955448201825014
06259,Windham County,CT,99.35587761674718
06410,New Haven County,CT,60.01073537305422
06420,New London County,CT,98.4970477724101
06457,Middlesex County,CT,5.045625335480408
06473,New Haven County,CT,60.81588835212024
06484,Fairfield County,CT,59.58132045088567
06489,Hartford County,CT,23.081052066559312
06513,New Haven County,CT,55.87761674718197
06606,Fairfield County,CT,40.633387010198604
06610,Fairfield County,CT,52.06655931293612
06710,New Haven County,CT,49.54374664519592
06831,Fairfield County,CT,72.03435319377348
06840,Fairfield County,CT,70.1556629092861
06851,Fairfield County,CT,49.704777241009126
19702,New Castle County,DE,66.98872785829307
19711,New Castle County,DE,23.18840579710145
19720,New Castle County,DE,1.3955984970477724
19801,New Castle County,DE,62.0504562533548
19804,New Castle County,DE,52.97906602254429
19808,New Castle County,DE,63.875469672571114
19904,Kent County,DE,9.447128287707999
19956,Sussex County,DE,38.32528180354267
19960,Sussex County,DE,67.6328502415459
19971,Sussex County,DE,63.12399355877617
32063,Baker County,FL,60.65485775630704
32084,St. Johns County,FL,54.05260332796564
32164,Flagler County,FL,91.68008588298443
32206,Duval County,FL,16.10305958132045
32209,Duval County,FL,2.4691358024691357
32210,Duval County,FL,30.381105743424584
32217,Duval County,FL,62.80193236714976
32218,Duval County,FL,1.8786902844873858
32221,Duval County,FL,54.37466451959205
32233,Duval County,FL,31.40096618357488
32246,Duval County,FL,11.701556629092861
32303,Leon County,FL,35.10466988727858
32310,Leon County,FL,58.23939881910897
32505,Escambia County,FL,41.38486312399356
32506,Escambia County,FL,10.466988727858293
32547,Okaloosa County,FL,33.3870101986044
32606,Alachua County,FL,26.35534084809447
32608,Alachua County,FL,4.884594739667204
32609,Alachua County,FL,43.80032206119163
32703,Orange County,FL,17.23027375201288
32736,Lake County,FL,72.94685990338165
32771,Seminole County,FL,12.292002147074612
32810,Orange County,FL,31.0252281266774
32829,Orange County,FL,68.38432635534085
32904,Brevard County,FL,39.18411164787977
32960,Indian River County,FL,39.398819108964034
32967,Indian River County,FL,38.056897477187334
33015,Miami-Dade County,FL,43.04884594739667
33020,Broward County,FL,54.96511003757381
33023,Broward County,FL,14.38539989264627
33055,Miami-Dade County,FL,42.72678475577026
33127,Miami-Dade County,FL,47.718733225979605
33130,Miami-Dade County,FL,89.31830381105743
33142,Miami-Dade County,FL,59.796027911969944
33147,Miami-Dade County,FL,25.22812667740204
33160,Miami-Dade County,FL,57.80998389694042
33168,Miami-Dade County,FL,61.35265700483091
33179,Miami-Dade County,FL,52.22758990874933
33301,Broward County,FL,80.13955984970478
33309,Broward County,FL,49.49006977992485
33321,Broward County,FL,47.82608695652174
33433,Palm Beach County,FL,50.72463768115942
33460,Palm Beach County,FL,36.822329575952764
33461,Palm Beach County,FL,76.16747181964574
33569,Hillsborough County,FL,66.88137412775093
33578,Hillsborough County,FL,27.106816961889425
33596,Hillsborough County,FL,80.6226516371444
33614,Hillsborough County,FL,27.375201288244767
33617,Hillsborough County,FL,26.140633387010197
33647,Hillsborough County,FL,42.8341384863124
33709,Pinellas County,FL,41.81427804616211
33711,Pinellas County,FL,47.12828770799785
33716,Pinellas County,FL,85.18518518518519
33803,Polk County,FL,52.38862050456253
33810,Polk County,FL,67.31078904991948
33839,Polk County,FL,94.41760601180891
33901,Lee County,FL,44.71282877079978
33904,Lee County,FL,29.790660225442835
33914,Lee County,FL,31.88405797101449
33966,Lee County,FL,88.99624261943102
33973,Lee County,FL,79.97852925389157
33983,Charlotte County,FL,65.11003757380568
34104,Collier County,FL,44.98121309715513
34135,Lee County,FL,40.57971014492754
34208,Manatee County,FL,20.075147611379496
34237,Sarasota County,FL,49.32903918411165
34243,Manatee County,FL,51.04669887278583
34474,Marion County,FL,54.750402576489535
34668,Pasco County,FL,8.212560386473431
34683,Pinellas County,FL,56.19967793880838
34743,Osceola County,FL,38.59366612989801
34744,Osceola County,FL,20.28985507246377
34953,St. Lucie County,FL,19.645732689210952
34997,Martin County,FL,22.490606548577563
30009,Fulton County,GA,92.37788513150832
30016,Newton County,GA,8.964036500268383
30028,Forsyth County,GA,49.9194847020934
30034,DeKalb County,GA,22.65163714439077
30039,Gwinnett County,GA,30.810520665593128
30040,Forsyth County,GA,19.96779388083736
30041,Forsyth County,GA,21.256038647342994
30047,Gwinnett County,GA,51.15405260332797
30054,Newton County,GA,62.42619431025228
30071,Gwinnett County,GA,77.67042404723564
30075,Fulton County,GA,61.943102522812666
30080,Cobb County,GA,43.853998926462694
30082,Cobb County,GA,66.07622114868492
30116,Carroll County,GA,38.91572732152442
30122,Douglas County,GA,74.020397208803
30127,Cobb County,GA,59.473966720343526
30161,Floyd County,GA,14.063338701019859
30188,Cherokee County,GA,46.53784219001611
30189,Cherokee County,GA,44.229736983360176
30308,Fulton County,GA,67.74020397208803
30311,Fulton County,GA,11.325818572195384
30314,Fulton County,GA,34.94363929146538
30315,Fulton County,GA,69.61889425657542
30329,DeKalb County,GA,79.17337627482554
30345,DeKalb County,GA,75.09393451422437
30809,Columbia County,GA,28.180354267310786
30901,Richmond County,GA,81.96457326892109
30906,Richmond County,GA,4.938271604938271
31324,Bryan County,GA,73.21524422973698
31535,Coffee County,GA,75.25496511003757
31906,Muscogee County,GA,32.58185721953838
31907,Muscogee County,GA,5.689747718733226
96717,Honolulu County,HI,98.38969404186795
96744,Honolulu County,HI,15.083199141170155
96766,Kauai County,HI,61.191626409017715
96771,Hawaii County,HI,90.17713365539453
96778,Hawaii County,HI,61.78207192699946
96786,Honolulu County,HI,72.78582930756843
96789,Honolulu County,HI,16.47879763821793
96792,Honolulu County,HI,8.319914117015566
96817,Honolulu County,HI,32.15244229736983
96819,Honolulu County,HI,57.27321524422974
96826,Honolulu County,HI,33.87010198604401
83607,Canyon County,ID,30.220075147611382
83634,Ada County,ID,63.499731615673646
83647,Elmore County,ID,35.21202361782072
60031,Lake County,IL,39.66720343531938
60035,Lake County,IL,35.37305421363393
60047,Lake County,IL,28.931830381105744
60053,Cook County,IL,94.31025228126677
60062,Cook County,IL,31.132581857219538
60085,Lake County,IL,13.258185721953838
60089,Lake County,IL,31.508319914117017
60101,DuPage County,IL,20.98765432098765
60124,Kane County,IL,87.17122920021471
60130,Cook County,IL,40.955448201825014
60148,DuPage County,IL,10.628019323671497
60154,Cook County,IL,43.263553408480945
60175,Kane County,IL,21.202361782071925
60188,DuPage County,IL,13.902308105206657
60201,Cook County,IL,84.70209339774557
60409,Cook County,IL,22.973698336017176
60440,Will County,IL,14.868491680085882
60446,Will County,IL,10.950080515297907
60452,Cook County,IL,69.40418679549114
60453,Cook County,IL,34.997316156736446
60462,Cook County,IL,20.182501341921633
60467,Cook County,IL,42.24369296833065
60480,Cook County,IL,98.8191089640365
60481,Will County,IL,59.366612989801396
60482,Cook County,IL,61.621041331186255
60502,DuPage County,IL,72.19538378958669
60505,Kane County,IL,23.456790123456788
60515,DuPage County,IL,31.937734836285557
60538,Kendall County,IL,85.39989264626946
60546,Cook County,IL,39.93558776167472
60555,DuPage County,IL,61.943102522812666
60559,DuPage County,IL,84.91680085882984
60560,Kendall County,IL,65.4320987654321
60563,DuPage County,IL,67.14975845410628
60564,Will County,IL,29.52227589908749
60565,DuPage County,IL,23.295759527643586
60586,Will County,IL,10.735373054213634
60617,Cook County,IL,4.562533548040794
60622,Cook County,IL,60.92324208266238
60623,Cook County,IL,22.758990874932906
60629,Cook County,IL,3.542673107890499
60631,Cook County,IL,23.993558776167472
60632,Cook County,IL,9.822866344605476
60634,Cook County,IL,6.816961889425658
60641,Cook County,IL,9.286097691894794
60644,Cook County,IL,79.87117552334944
60649,Cook County,IL,9.930220075147611
60652,Cook County,IL,21.900161030595815
60655,Cook County,IL,22.22222222222222
60659,Cook County,IL,38.164251207729464
60660,Cook County,IL,20.558239398819108
60804,Cook County,IL,14.707461084272676
60901,Kankakee County,IL,12.399355877616747
60914,Kankakee County,IL,25.872249060654855
61101,Winnebago County,IL,38.43263553408481
61104,Winnebago County,IL,87.70799785292539
61611,Tazewell County,IL,65.00268384326355
62014,Macoupin County,IL,100
62034,Madison County,IL,90.98228663446055
62521,Macon County,IL,8.80300590445518
62806,Edwards County,IL,98.4970477724101
46158,Morgan County,IN,46.162104133118625
46176,Shelby County,IN,75.46967257112185
46226,Marion County,IN,8.158883521202362
46236,Marion County,IN,53.03274288781535
46241,Marion County,IN,15.136876006441224
46260,Marion County,IN,36.500268384326354
46268,Marion County,IN,35.69511540526033
46304,Porter County,IN,33.33333333333333
46307,Lake County,IN,9.07139023081052
46311,Lake County,IN,56.84380032206119
46319,Lake County,IN,76.43585614600107
46327,Lake County,IN,78.58293075684381
46356,Lake County,IN,79.44176060118089
46373,Lake County,IN,69.94095544820182
46580,Kosciusko County,IN,67.4718196457327
46711,Adams County,IN,94.41760601180891
46732,Noble County,IN,95.27643585614601
46737,Steuben County,IN,87.54696725711219
46808,Allen County,IN,25.067096081588836
46902,Howard County,IN,1.932367149758454
46947,Cass County,IN,51.90552871712292
47025,Dearborn County,IN,87.81535158346753
47043,Switzerland County,IN,92.69994632313472
47112,Harrison County,IN,48.25550187869028
47265,Jennings County,IN,74.39613526570048
47302,Delaware County,IN,13.741277509393452
47336,Jay County,IN,97.53086419753086
47374,Wayne County,IN,16.74718196457327
47501,Daviess County,IN,28.77079978529254
47546,Dubois County,IN,44.0150295222759
47586,Perry County,IN,60.22544283413849
47713,Vanderburgh County,IN,79.01234567901234
47715,Vanderburgh County,IN,89.15727321524423
47909,Tippecanoe County,IN,31.239935587761675
50021,Polk County,IA,65.91519055287172
50023,Polk County,IA,58.132045088566834
50049,Lucas County,IA,85.72195383789587
50158,Marshall County,IA,19.860440150295222
50317,Polk County,IA,7.94417606011809
51103,Woodbury County,IA,68.86741814278045
51106,Woodbury County,IA,40.042941492216855
51503,Pottawattamie County,IA,80.30059044551798
51534,Mills County,IA,54.32098765432099
51537,Shelby County,IA,81.48148148148148
52245,Johnson County,IA,88.13741277509394
52349,Benton County,IA,64.4122383252818
52403,Linn County,IA,78.20719269994633
52722,Scott County,IA,15.458937198067632
52761,Muscatine County,IA,7.890499194847021
52803,Scott County,IA,27.26784755770263
52806,Scott County,IA,15.673644659151906
66006,Douglas County,KS,97.15512614063339
66102,Wyandotte County,KS,43.37090713902308
66112,Wyandotte County,KS,95.06172839506173
66203,Johnson County,KS,73.05421363392378
66221,Johnson County,KS,62.15780998389694
66608,Shawnee County,KS,87.54696725711219
67147,Sedgwick County,KS,95.16908212560386
67211,Sedgwick County,KS,45.410628019323674
67846,Finney County,KS,16.800858829844337
40211,Jefferson County,KY,9.286097691894794
40258,Jefferson County,KY,16.908212560386474
40291,Jefferson County,KY,12.989801395598496
40324,Scott County,KY,53.7842190016103
40361,Bourbon County,KY,28.44873859366613
40383,Woodford County,KY,89.90874932903918
40515,Fayette County,KY,40.955448201825014
40828,Harlan County,KY,89.47933440687063
41048,Boone County,KY,89.10359634997316
41056,Mason County,KY,93.61245303274289
41102,Boyd County,KY,15.727321524422974
41143,Carter County,KY,33.17230273752013
41339,Breathitt County,KY,39.34514224369297
42029,Marshall County,KY,66.55931293612453
42064,Crittenden County,KY,62.69457863660762
42071,Calloway County,KY,32.689210950080515
42101,Warren County,KY,4.240472356414386
42240,Christian County,KY,4.079441760601181
42413,Hopkins County,KY,97.7992485238862
42420,Henderson County,KY,6.226516371443908
42437,Union County,KY,67.90123456790124
42765,Hart County,KY,93.12936124530327
70002,Jefferson Parish,LA,80.08588298443371
70003,Jefferson Parish,LA,88.94256575415996
70005,Jefferson Parish,LA,26.40901771336554
70006,Jefferson Parish,LA,96.29629629629629
70056,Jefferson Parish,LA,46.96725711218465
70065,Jefferson Parish,LA,30.864197530864196
70117,Orleans Parish,LA,2.576489533011272
70122,Orleans Parish,LA,34.46054750402576
70341,Assumption Parish,LA,92.914653784219
70346,Ascension Parish,LA,68.27697262479872
70363,Terrebonne Parish,LA,2.147074610842727
70364,Terrebonne Parish,LA,5.099302200751476
70445,St. Tammany Parish,LA,48.8996242619431
70466,Tangipahoa Parish,LA,97.4771873322598
70560,Iberia Parish,LA,1.1808910359634999
70586,Evangeline Parish,LA,11.379495437466453
70719,West Baton Rouge Parish,LA,91.62640901771336
70726,Livingston Parish,LA,0.9125067096081589
70737,Ascension Parish,LA,4.294149221685454
70785,Livingston Parish,LA,80.7836822329576
70791,East Baton Rouge Parish,LA,9.769189479334408
70802,East Baton Rouge Parish,LA,37.03703703703704
70805,East Baton Rouge Parish,LA,58.0246913580247
70808,East Baton Rouge Parish,LA,96.24261943102523
70814,East Baton Rouge Parish,LA,26.99946323134729
70816,East Baton Rouge Parish,LA,85.13150831991412
71101,Caddo Parish,LA,97.10144927536231
71106,Caddo Parish,LA,68.11594202898551
71107,Caddo Parish,LA,82.50134192163178
71108,Caddo Parish,LA,78.85131508319914
71109,Caddo Parish,LA,68.65271068169619
71111,Bossier Parish,LA,18.51851851851852
71112,Bossier Parish,LA,64.25120772946859
71118,Caddo Parish,LA,44.927536231884055
71202,Ouachita Parish,LA,82.6086956521739
71203,Ouachita Parish,LA,5.850778314546431
71291,Ouachita Parish,LA,86.41975308641975
71295,Franklin Parish,LA,13.633923778851315
03904,York County,ME,86.04401502952228
04005,York County,ME,11.540526033279656
04032,Cumberland County,ME,77.29468599033817
04055,Cumberland County,ME,99.57058507783145
04096,Cumberland County,ME,92.7536231884058
20639,Calvert County,MD,71.87332259796028
20707,Prince George's County,MD,59.04455179817498
20711,Anne Arundel County,MD,83.7895866881374
20743,Prince George's County,MD,27.214170692431562
20747,Prince George's County,MD,37.41277509393451
20748,Prince George's County,MD,65.86151368760065
20785,Prince George's County,MD,83.57487922705315
20794,Howard County,MD,95.92055823939883
20832,Montgomery County,MD,72.03435319377348
20850,Montgomery County,MD,57.54159957058508
20855,Montgomery County,MD,94.14922168545357
21001,Harford County,MD,54.15995705850778
21012,Anne Arundel County,MD,71.71229200214707
21013,Baltimore County,MD,93.88083735909822
21076,Anne Arundel County,MD,94.20289855072464
21093,Baltimore County,MD,65.11003757380568
21113,Anne Arundel County,MD,48.41653247450349
21120,Baltimore County,MD,96.45732689210949
21122,Anne Arundel County,MD,24.315619967793882
21152,Baltimore County,MD,95.75952764358561
21202,Baltimore city,MD,64.46591519055286
21204,Baltimore County,MD,61.03059581320451
21206,Baltimore city,MD,8.051529790660226
21215,Baltimore city,MD,23.993558776167472
21222,Baltimore County,MD,2.6838432635534084
21224,Baltimore city,MD,37.466451959205585
21225,Baltimore city,MD,27.482555018786904
21228,Baltimore County,MD,92.48523886205045
21230,Baltimore city,MD,73.8593666129898
21234,Baltimore County,MD,37.52012882447665
21236,Baltimore County,MD,30.649490069779922
21237,Baltimore County,MD,72.5174449812131
21666,Queen Anne's County,MD,87.33225979602791
01028,Hampden County,MA,35.53408480944713
01075,Hampshire County,MA,2.3617820719269997
01106,Hampden County,MA,87.43961352657004
01107,Hampden County,MA,3.972088030059045
01201,Berkshire County,MA,0.05367686527106817
01267,Berkshire County,MA,73.16156736446592
01331,Worcester County,MA,2.63016639828234
01360,Franklin County,MA,96.56468062265164
01462,Worcester County,MA,42.24369296833065
01527,Worcester County,MA,73.10789049919485
01550,Worcester County,MA,61.298980139559845
01581,Worcester County,MA,25.657541599570582
01605,Worcester County,MA,17.981749865807835
01606,Worcester County,MA,40.09661835748793
01609,Worcester County,MA,1.5029522275899088
01702,Middlesex County,MA,0.7514761137949544
01730,Middlesex County,MA,24.745034889962426
01748,Middlesex County,MA,34.78260869565217
01757,Worcester County,MA,10.52066559312936
01801,Middlesex County,MA,44.82018250134192
01810,Essex County,MA,77.72410091250671
01824,Middlesex County,MA,26.67740203972088
01826,Middlesex County,MA,2.522812667740204
01841,Essex County,MA,4.7235641438539995
01844,Essex County,MA,15.190552871712292
01852,Middlesex County,MA,10.896403650026839
01854,Middlesex County,MA,21.73913043478261
01860,Essex County,MA,74.93290391841117
01876,Middlesex County,MA,89.5330112721417
01887,Middlesex County,MA,88.83521202361781
01902,Essex County,MA,1.7176596886741815
01904,Essex County,MA,28.878153515834676
01938,Essex County,MA,37.68115942028986
01960,Essex County,MA,0.3757380568974772
02019,Norfolk County,MA,27.91196994095545
02026,Norfolk County,MA,64.03650026838432
02045,Plymouth County,MA,25.657541599570582
02050,Plymouth County,MA,15.24422973698336
02054,Norfolk County,MA,63.98282340311325
02062,Norfolk County,MA,10.144927536231885
02121,Suffolk County,MA,54.106280193236714
02124,Suffolk County,MA,0
02126,Suffolk County,MA,0.1610305958132045
02128,Suffolk County,MA,69.08212560386472
02130,Suffolk County,MA,0.644122383252818
02131,Suffolk County,MA,73.32259796027913
02135,Suffolk County,MA,2.200751476113795
02136,Suffolk County,MA,53.35480407944176
02150,Suffolk County,MA,52.65700483091788
02155,Middlesex County,MA,0.4830917874396135
02169,Norfolk County,MA,2.0397208803005906
02176,Middlesex County,MA,4.777241009125067
02186,Norfolk County,MA,54.8040794417606
02301,Plymouth County,MA,11.486849168008588
02302,Plymouth County,MA,14.600107353730543
02339,Plymouth County,MA,61.56736446591518
02359,Plymouth County,MA,22.32957595276436
02452,Middlesex County,MA,78.90499194847021
02453,Middlesex County,MA,6.119162640901772
02472,Middlesex County,MA,4.508856682769726
02481,Norfolk County,MA,48.52388620504563
02494,Norfolk County,MA,89.80139559849705
02703,Bristol County,MA,4.40150295222759
48044,Macomb County,MI,5.421363392377885
48065,Macomb County,MI,85.56092324208267
48067,Oakland County,MI,28.39506172839506
48105,Washtenaw County,MI,62.265163714439076
48111,Wayne County,MI,74.07407407407408
48118,Washtenaw County,MI,69.45786366076221
48126,Wayne County,MI,6.602254428341385
48146,Wayne County,MI,5.58239398819109
48154,Wayne County,MI,65.32474503488996
48161,Monroe County,MI,70.37037037037037
48162,Monroe County,MI,8.53462157809984
48169,Livingston County,MI,38.70101986044015
48170,Wayne County,MI,9.876543209876543
48174,Wayne County,MI,40.794417606011805
48178,Oakland County,MI,25.33548040794418
48187,Wayne County,MI,6.655931293612453
48188,Wayne County,MI,53.19377348362856
48198,Washtenaw County,MI,1.1272141706924315
48205,Wayne County,MI,30.70316693505099
48206,Wayne County,MI,67.7938808373591
48210,Wayne County,MI,19.37734836285561
48212,Wayne County,MI,27.858293075684383
48224,Wayne County,MI,10.681696188942565
48227,Wayne County,MI,26.78475577026302
48234,Wayne County,MI,23.617820719269993
48235,Wayne County,MI,10.84272678475577
48312,Macomb County,MI,65.7541599570585
48326,Oakland County,MI,42.351046698872786
48340,Oakland County,MI,86.36607622114867
48346,Oakland County,MI,28.931830381105744
48439,Genesee County,MI,8.910359634997315
48458,Genesee County,MI,23.13472893183038
48473,Genesee County,MI,34.13848631239936
48507,Genesee County,MI,6.494900697799248
48509,Genesee County,MI,71.44390767579173
48602,Saginaw County,MI,1.8250134192163179
48661,Ogemaw County,MI,46.10842726784756
48823,Ingham County,MI,26.03327965646806
48906,Ingham County,MI,33.064949006978
48910,Ingham County,MI,7.997852925389156
49013,Van Buren County,MI,82.07192699946323
49047,Cass County,MI,71.65861513687601
49053,Kalamazoo County,MI,72.46376811594203
49085,Berrien County,MI,46.85990338164252
49319,Kent County,MI,22.544283413848632
49348,Allegan County,MI,25.013419216317768
49349,Newaygo County,MI,50.67096081588836
49404,Ottawa County,MI,81.42780461621041
49444,Muskegon County,MI,93.7734836285561
49503,Kent County,MI,69.24315619967794
49504,Kent County,MI,79.11969940955447
49505,Kent County,MI,17.713365539452496
49512,Kent County,MI,92.96833064949007
49519,Kent County,MI,38.110574342458406
49546,Kent County,MI,29.57595276435856
49783,Chippewa County,MI,15.351583467525495
49829,Delta County,MI,25.550187869028452
55020,Scott County,MN,99.8389694041868
55106,Ramsey County,MN,39.291465378421904
55107,Ramsey County,MN,64.35856146001073
55115,Washington County,MN,84.6484165324745
55119,Ramsey County,MN,9.500805152979067
55124,Dakota County,MN,86.95652173913044
55304,Anoka County,MN,31.830381105743427
55306,Dakota County,MN,91.84111647879763
55309,Sherburne County,MN,98.87278582930756
55313,Wright County,MN,46.484165324745035
55321,Wright County,MN,98.22866344605475
55336,McLeod County,MN,94.63231347289319
55347,Hennepin County,MN,57.80998389694042
55372,Scott County,MN,85.77563070316694
55376,Wright County,MN,77.93880837359099
55378,Scott County,MN,47.235641438539986
55386,Carver County,MN,96.40365002683843
55403,Hennepin County,MN,17.23027375201288
55404,Hennepin County,MN,16.586151368760063
55405,Hennepin County,MN,28.34138486312399
55406,Hennepin County,MN,65.37842190016103
55407,Hennepin County,MN,37.35909822866345
55412,Hennepin County,MN,6.011808910359635
55417,Hennepin County,MN,89.58668813741278
55420,Hennepin County,MN,30.434782608695656
55422,Hennepin County,MN,83.62855609232422
55428,Hennepin County,MN,14.278046162104133
55430,Hennepin County,MN,13.47289318303811
55443,Hennepin County,MN,23.510466988727856
55744,Itasca County,MN,56.62909286097692
55805,St. Louis County,MN,66.34460547504025
55807,St. Louis County,MN,39.18411164787977
55912,Mower County,MN,4.3478260869565215
56071,Scott County,MN,91.25067096081588
56201,Kandiyohi County,MN,79.17337627482554
56308,Douglas County,MN,20.343531937734834
56329,Benton County,MN,80.9447128287708
56352,Stearns County,MN,79.38808373590982
56364,Morrison County,MN,92.64626945786367
56378,Stearns County,MN,98.71175523349437
56601,Beltrami County,MN,3.6500268384326358
56716,Polk County,MN,84.00429414922168
56751,Roseau County,MN,97.20880300590446
38651,DeSoto County,MS,88.72785829307568
38666,Panola County,MS,88.88888888888889
38769,Bolivar County,MS,97.96027911969941
38941,Leflore County,MS,95.22275899087494
39095,Holmes County,MS,90.49919484702093
39183,Warren County,MS,55.394524959742355
39206,Hinds County,MS,90.01610305958133
39208,Rankin County,MS,30.542136339237793
39452,George County,MS,93.02200751476114
63074,St. Louis County,MO,77.34836285560924
63134,St. Louis County,MO,64.09017713365539
63137,St. Louis County,MO,86.74181427804616
63301,St. Charles County,MO,9.66183574879227
63304,St. Charles County,MO,22.65163714439077
63368,St. Charles County,MO,33.17230273752013
63376,St. Charles County,MO,6.5485775630703165
63385,St. Charles County,MO,37.62748255501879
63390,Warren County,MO,64.62694578636608
63445,Clark County,MO,98.6580783682233
63459,Ralls County,MO,98.9801395598497
64012,Cass County,MO,20.50456253354804
64063,Jackson County,MO,62.10413311862587
64068,Clay County,MO,25.60386473429952
64082,Jackson County,MO,61.51368760064412
64085,Ray County,MO,70.20933977455717
64086,Jackson County,MO,58.454106280193244
64111,Jackson County,MO,19.538378958668815
64113,Jackson County,MO,80.83735909822866
64114,Jackson County,MO,81.15942028985508
64119,Clay County,MO,7.085346215780998
64124,Jackson County,MO,83.73590982286635
64128,Jackson County,MO,14.92216854535695
64132,Jackson County,MO,36.231884057971016
64134,Jackson County,MO,53.408480944712835
64136,Jackson County,MO,92.86097691894794
64153,Platte County,MO,79.60279119699409
64601,Livingston County,MO,40.3113258185722
64772,Vernon County,MO,32.47450348899624
64804,Jasper County,MO,12.61406333870102
65202,Boone County,MO,7.4074074074074066
65301,Pettis County,MO,55.17981749865808
65340,Saline County,MO,58.829844337090705
65355,Benton County,MO,90.33816425120773
65740,Taney County,MO,98.44337090713903
65807,Greene County,MO,20.611916264090176
59501,Hill County,MT,69.51154052603327
59801,Missoula County,MT,54.6430488459474
68007,Douglas County,NE,99.78529253891573
68025,Dodge County,NE,27.160493827160494
68107,Douglas County,NE,42.08266237251744
68111,Douglas County,NE,43.96135265700483
68116,Douglas County,NE,51.85185185185185
68132,Douglas County,NE,66.6129898013956
68142,Douglas County,NE,97.31615673644659
68154,Douglas County,NE,75.25496511003757
68516,Lancaster County,NE,57.75630703166935
68632,Butler County,NE,96.18894256575416
68803,Hall County,NE,60.97691894793344
89110,Clark County,NV,14.975845410628018
89113,Clark County,NV,66.935050993022
89115,Clark County,NV,44.55179817498658
89117,Clark County,NV,26.40901771336554
89145,Clark County,NV,68.70638754696726
89403,Lyon County,NV,29.629629629629626
89431,Washoe County,NV,16.049382716049383
89506,Washoe County,NV,13.79495437466452
03053,Rockingham County,NH,20.45088566827697
03062,Hillsborough County,NH,13.526570048309178
03079,Rockingham County,NH,11.16478797638218
03102,Hillsborough County,NH,15.5126140633387
03235,Merrimack County,NH,59.5276435856146
03276,Merrimack County,NH,67.9549114331723
03825,Strafford County,NH,71.12184648416533
07001,Middlesex County,NJ,91.41170155662908
07024,Bergen County,NJ,72.78582930756843
07030,Hudson County,NJ,68.33064949006979
07062,Union County,NJ,51.4224369296833
07063,Union County,NJ,86.52710681696189
07076,Union County,NJ,76.81159420289855
07087,Hudson County,NJ,13.043478260869565
07103,Essex County,NJ,0.5904455179817499
07112,Essex County,NJ,13.580246913580247
07201,Union County,NJ,22.920021470746107
07202,Union County,NJ,3.9184111647879765
07203,Union County,NJ,19.32367149758454
07305,Hudson County,NJ,9.71551261406334
07306,Hudson County,NJ,49.275362318840585
07407,Bergen County,NJ,23.403113258185723
07422,Sussex County,NJ,90.7139023081052
07452,Bergen County,NJ,99.73161567364465
07456,Passaic County,NJ,95.81320450885669
07457,Morris County,NJ,90.98228663446055
07501,Passaic County,NJ,9.178743961352657
07522,Passaic County,NJ,64.94900697799248
07524,Passaic County,NJ,54.48201825013419
07675,Bergen County,NJ,93.71980676328504
07730,Monmouth County,NJ,83.19914117015567
07734,Monmouth County,NJ,44.87385936661299
07751,Monmouth County,NJ,57.971014492753625
07764,Monmouth County,NJ,83.7895866881374
07838,Warren County,NJ,99.46323134728931
07863,Warren County,NJ,95.59849704777241
07920,Somerset County,NJ,89.21095008051529
07946,Morris County,NJ,99.1411701556629
07950,Morris County,NJ,53.62318840579711
07960,Morris County,NJ,42.13633923778851
08002,Camden County,NJ,88.56682769726248
08003,Camden County,NJ,50.295222758990874
08012,Camden County,NJ,49.973161567364464
08015,Burlington County,NJ,11.057434245840044
08016,Burlington County,NJ,1.7713365539452495
08021,Camden County,NJ,0.10735373054213634
08028,Gloucester County,NJ,69.67257112184649
08030,Camden County,NJ,62.9092860976919
08034,Camden County,NJ,26.623725174449813
08043,Camden County,NJ,65.4320987654321
08046,Burlington County,NJ,3.7037037037037033
08048,Burlington County,NJ,86.68813741277509
08052,Burlington County,NJ,20.82662372517445
08057,Burlington County,NJ,76.91894793344069
08060,Burlington County,NJ,36.66129898013956
08075,Burlington County,NJ,35.158346752549654
08080,Gloucester County,NJ,29.951690821256037
08087,Ocean County,NJ,13.311862587224907
08088,Burlington County,NJ,68.59903381642512
08102,Camden County,NJ,5.314009661835748
08107,Camden County,NJ,22.00751476113795
08108,Camden County,NJ,89.96242619431025
08109,Camden County,NJ,42.673107890499196
08205,Atlantic County,NJ,75.7380568974772
08210,Cape May County,NJ,29.36124530327429
08221,Atlantic County,NJ,81.74986580783681
08360,Cumberland County,NJ,0.4294149221685454
08505,Burlington County,NJ,76.70424047235642
08520,Mercer County,NJ,43.15619967793881
08536,Middlesex County,NJ,46.69887278582931
08609,Mercer County,NJ,7.192699946323135
08610,Mercer County,NJ,63.71443907675792
08638,Mercer County,NJ,63.39237788513151
08690,Mercer County,NJ,33.5480407944176
08701,Ocean County,NJ,1.4492753623188406
08816,Middlesex County,NJ,94.95437466451959
08817,Middlesex County,NJ,15.780998389694043
08825,Hunterdon County,NJ,97.26247987117553
08829,Hunterdon County,NJ,97.85292538915728
08835,Somerset County,NJ,39.82823403113258
08859,Middlesex County,NJ,95.54482018250134
08861,Middlesex County,NJ,7.514761137949543
08872,Middlesex County,NJ,47.34299516908212
08901,Middlesex County,NJ,90.12345679012346
87031,Valencia County,NM,52.87171229200215
87105,Bernalillo County,NM,75.84541062801932
87107,Bernalillo County,NM,79.92485238862051
87112,Bernalillo County,NM,34.675254965110035
87113,Bernalillo County,NM,70.74610842726786
87121,Bernalillo County,NM,2.4154589371980677
87123,Bernalillo County,NM,8.641975308641975
87124,Sandoval County,NM,29.898013955984972
87144,Sandoval County,NM,14.761137949543745
87328,McKinley County,NM,97.42351046698873
87401,San Juan County,NM,39.130434782608695
87420,San Juan County,NM,69.83360171765969
87505,Santa Fe County,NM,2.844873859366613
87532,Santa Fe County,NM,30.112721417069245
87740,Colfax County,NM,75.7380568974772
88011,Doa Ana County,NM,44.33709071390231
88030,Luna County,NM,51.47611379495437
88240,Lea County,NM,3.2742887815351582
10002,New York County,NY,44.176060118089104
10021,New York County,NY,64.51959205582394
10026,New York County,NY,18.84057971014493
10029,New York County,NY,0.2683843263553409
10032,New York County,NY,48.792270531400966
10033,New York County,NY,12.130971551261407
10039,New York County,NY,55.60923242082663
10040,New York County,NY,92.5925925925926
10303,Richmond County,NY,93.98819108964037
10304,Richmond County,NY,34.514224369296834
10314,Richmond County,NY,8.2662372517445
10452,Bronx County,NY,3.435319377348363
10453,Bronx County,NY,12.184648416532475
10454,Bronx County,NY,4.025764895330113
10455,Bronx County,NY,45.30327428878154
10456,Bronx County,NY,5.636070853462158
10457,Bronx County,NY,0.322061191626409
10458,Bronx County,NY,0.2147074610842727
10460,Bronx County,NY,8.588298443370908
10461,Bronx County,NY,50.88566827697263
10462,Bronx County,NY,3.7573805689747717
10466,Bronx County,NY,46.00107353730542
10467,Bronx County,NY,26.08695652173913
10468,Bronx County,NY,17.60601180891036
10543,Westchester County,NY,96.67203435319377
10552,Westchester County,NY,53.83789586688137
10701,Westchester County,NY,0.8051529790660225
10950,Orange County,NY,88.62050456253355
11102,Queens County,NY,37.57380568974772
11103,Queens County,NY,62.96296296296296
11203,Kings County,NY,88.67418142780463
11205,Kings County,NY,32.52818035426731
11206,Kings County,NY,24.42297369833602
11207,Kings County,NY,2.737520128824477
11208,Kings County,NY,5.367686527106817
11211,Kings County,NY,54.589371980676326
11212,Kings County,NY,0.5367686527106817
11213,Kings County,NY,18.19645732689211
11220,Kings County,NY,27.64358561460011
11222,Kings County,NY,51.74449812130971
11223,Kings County,NY,15.566290928609769
11224,Kings County,NY,42.19001610305958
11225,Kings County,NY,80.46162104133118
11226,Kings County,NY,29.8443370907139
11230,Kings County,NY,68.00858829844337
11233,Kings County,NY,20.128824476650564
11237,Kings County,NY,18.089103596349972
11355,Queens County,NY,67.7938808373591
11365,Queens County,NY,40.41867954911433
11367,Queens County,NY,37.25174449812131
11368,Queens County,NY,54.267310789049915
11370,Queens County,NY,86.47342995169082
11372,Queens County,NY,69.88727858293076
11373,Queens County,NY,82.01825013419216
11385,Queens County,NY,46.323134728931834
11416,Queens County,NY,68.70638754696726
11421,Queens County,NY,94.52495974235104
11429,Queens County,NY,62.211486849168004
11432,Queens County,NY,50.40257648953301
11433,Queens County,NY,19.753086419753085
11520,Nassau County,NY,71.55126140633386
11550,Nassau County,NY,50.0805152979066
11552,Nassau County,NY,74.39613526570048
11577,Nassau County,NY,84.11164787976382
11701,Suffolk County,NY,82.1256038647343
11747,Suffolk County,NY,84.97047772410092
12065,Saratoga County,NY,48.040794417606016
12090,Rensselaer County,NY,57.1658615136876
12116,Otsego County,NY,91.30434782608695
12143,Albany County,NY,83.36017176596887
12208,Albany County,NY,78.26086956521739
12303,Schenectady County,NY,75.68438003220612
12550,Orange County,NY,79.81749865807836
12771,Orange County,NY,59.42028985507246
12956,Essex County,NY,99.24852388620505
13032,Madison County,NY,24.691358024691358
13057,Onondaga County,NY,39.720880300590444
13069,Oswego County,NY,3.0059044551798175
13104,Onondaga County,NY,42.99516908212561
13126,Oswego County,NY,14.492753623188406
13131,Oswego County,NY,82.93075684380032
13205,Onondaga County,NY,77.56307031669351
13208,Onondaga County,NY,32.31347289318304
13219,Onondaga County,NY,74.12775093934513
13491,Herkimer County,NY,78.26086956521739
13617,St. Lawrence County,NY,26.301663982823403
13676,St. Lawrence County,NY,24.42297369833602
13754,Broome County,NY,83.09178743961353
13790,Broome County,NY,45.78636607622115
13803,Cortland County,NY,73.48362855609233
13815,Chenango County,NY,78.74396135265701
13827,Tioga County,NY,16.6935050993022
13830,Chenango County,NY,57.058507783145465
13850,Broome County,NY,36.983360171765966
13901,Broome County,NY,1.9860440150295224
13905,Broome County,NY,0.966183574879227
14004,Erie County,NY,52.33494363929147
14020,Genesee County,NY,71.44390767579173
14057,Erie County,NY,69.99463231347289
14086,Erie County,NY,14.546430488459475
14094,Niagara County,NY,1.0735373054213635
14120,Niagara County,NY,32.420826623725176
14145,Wyoming County,NY,98.06763285024155
14208,Erie County,NY,53.3011272141707
14210,Erie County,NY,19.538378958668815
14211,Erie County,NY,25.389157273215247
14213,Erie County,NY,77.18733225979602
14215,Erie County,NY,20.77294685990338
14216,Erie County,NY,20.933977455716587
14218,Erie County,NY,41.4922168545357
14222,Erie County,NY,46.75254965110038
14223,Erie County,NY,52.54965110037574
14225,Erie County,NY,44.39076757917337
14227,Erie County,NY,18.303811057434245
14305,Niagara County,NY,19.001610305958135
14420,Monroe County,NY,11.218464841653248
14432,Ontario County,NY,27.804616210413315
14445,Monroe County,NY,30.273752012882447
14470,Orleans County,NY,36.71497584541063
14526,Monroe County,NY,36.231884057971016
14534,Monroe County,NY,4.13311862587225
14586,Monroe County,NY,84.3263553408481
14606,Monroe County,NY,1.3419216317767042
14608,Monroe County,NY,33.011272141706925
14609,Monroe County,NY,8.856682769726248
14612,Monroe County,NY,10.091250670960816
14616,Monroe County,NY,1.556629092860977
14619,Monroe County,NY,55.01878690284487
14621,Monroe County,NY,19.269994632313473
14622,Monroe County,NY,17.928073000536767
14624,Monroe County,NY,11.808910359634996
14750,Chautauqua County,NY,77.99248523886206
14760,Cattaraugus County,NY,6.44122383252818
14850,Tompkins County,NY,2.898550724637681
27105,Forsyth County,NC,35.80246913580247
27107,Forsyth County,NC,2.254428341384863
27217,Alamance County,NC,9.017713365539452
27278,Orange County,NC,63.44605475040258
27401,Guilford County,NC,21.470746108427267
27403,Guilford County,NC,58.93719806763285
27405,Guilford County,NC,7.139023081052066
27406,Guilford County,NC,2.3081052066559313
27409,Guilford County,NC,77.61674718196457
27513,Wake County,NC,52.012882447665056
27514,Orange County,NC,49.86580783682233
27525,Franklin County,NC,48.470209339774556
27537,Vance County,NC,27.750939345142246
27557,Nash County,NC,84.59473966720343
27603,Wake County,NC,63.177670424047236
27606,Wake County,NC,37.30542136339238
27703,Durham County,NC,29.09286097691895
27704,Durham County,NC,7.729468599033816
27705,Durham County,NC,46.05475040257649
27713,Durham County,NC,18.250134192163177
27807,Nash County,NC,85.88298443370907
27892,Martin County,NC,37.89586688137413
28034,Gaston County,NC,34.4068706387547
28110,Union County,NC,16.425120772946862
28117,Iredell County,NC,22.81266774020397
28146,Rowan County,NC,25.174449812130973
28170,Anson County,NC,46.96725711218465
28205,Mecklenburg County,NC,43.47826086956522
28206,Mecklenburg County,NC,31.991411701556626
28207,Mecklenburg County,NC,93.55877616747182
28209,Mecklenburg County,NC,74.28878153515835
28210,Mecklenburg County,NC,43.74664519592056
28212,Mecklenburg County,NC,18.733225979602793
28213,Mecklenburg County,NC,50.45625335480408
28216,Mecklenburg County,NC,6.333870101986045
28217,Mecklenburg County,NC,42.40472356414385
28227,Mecklenburg County,NC,14.653784219001611
28270,Mecklenburg County,NC,51.58346752549651
28273,Mecklenburg County,NC,34.72893183038111
28314,Cumberland County,NC,87.06387546967257
28358,Robeson County,NC,11.862587224906065
28376,Hoke County,NC,22.86634460547504
28387,Moore County,NC,85.23886205045625
28409,New Hanover County,NC,31.0252281266774
28411,New Hanover County,NC,28.287707997852923
28466,Duplin County,NC,81.69618894256575
28560,Craven County,NC,21.846484165324746
28601,Catawba County,NC,34.836285560923244
28625,Iredell County,NC,12.506709608158884
28734,Macon County,NC,38.2716049382716
28779,Jackson County,NC,74.55716586151368
28785,Haywood County,NC,84.75577026301664
58078,Cass County,ND,49.81213097155126
58703,Ward County,ND,77.77777777777779
43055,Licking County,OH,7.7831454643048845
43085,Franklin County,OH,56.52173913043478
43123,Franklin County,OH,4.616210413311863
43206,Franklin County,OH,32.15244229736983
43207,Franklin County,OH,0.8588298443370908
43211,Franklin County,OH,7.0316693505099295
43223,Franklin County,OH,3.22061191626409
43224,Franklin County,OH,3.1669350509930223
43228,Franklin County,OH,27.58990874932904
43230,Franklin County,OH,11.594202898550725
43232,Franklin County,OH,30.059044551798173
43235,Franklin County,OH,35.64143853998926
43302,Marion County,OH,10.413311862587225
43331,Logan County,OH,87.11755233494364
43420,Sandusky County,OH,6.763285024154589
43528,Lucas County,OH,30.971551261406333
43537,Lucas County,OH,21.68545356951154
43542,Lucas County,OH,99.03381642512076
43551,Wood County,OH,33.70907139023081
43560,Lucas County,OH,18.947933440687066
43604,Lucas County,OH,32.95759527643586
43605,Lucas County,OH,56.36070853462157
43607,Lucas County,OH,20.021470746108427
43609,Lucas County,OH,57.702630166398286
43612,Lucas County,OH,45.62533548040794
43614,Lucas County,OH,48.68491680085883
43616,Lucas County,OH,53.247450348899626
43620,Lucas County,OH,63.660762211486855
43713,Belmont County,OH,85.23886205045625
43762,Muskingum County,OH,86.09769189479334
43764,Perry County,OH,81.80354267310788
43812,Coshocton County,OH,3.059581320450886
43845,Coshocton County,OH,54.15995705850778
43943,Jefferson County,OH,80.73000536768653
43953,Jefferson County,OH,56.736446591519055
44035,Lorain County,OH,1.288244766505636
44056,Summit County,OH,87.86902844873859
44076,Ashtabula County,OH,69.67257112184649
44077,Lake County,OH,13.687600644122384
44102,Cuyahoga County,OH,60.06441223832528
44103,Cuyahoga County,OH,45.088566827697264
44104,Cuyahoga County,OH,72.57112184648416
44107,Cuyahoga County,OH,1.0198604401502953
44108,Cuyahoga County,OH,82.2866344605475
44109,Cuyahoga County,OH,63.76811594202898
44111,Cuyahoga County,OH,65.53945249597423
44112,Cuyahoga County,OH,23.886205045625335
44113,Cuyahoga County,OH,5.2066559312936125
44114,Cuyahoga County,OH,23.72517444981213
44115,Cuyahoga County,OH,94.57863660762212
44118,Cuyahoga County,OH,50.026838432635536
44120,Cuyahoga County,OH,1.610305958132045
44125,Cuyahoga County,OH,37.84219001610306
44126,Cuyahoga County,OH,41.6532474503489
44128,Cuyahoga County,OH,12.077294685990339
44130,Cuyahoga County,OH,46.806226516371446
44131,Cuyahoga County,OH,88.35212023617821
44135,Cuyahoga County,OH,91.19699409554482
44137,Cuyahoga County,OH,50.18786902844874
44138,Cuyahoga County,OH,24.745034889962426
44142,Cuyahoga County,OH,20.397208803005903
44146,Cuyahoga County,OH,38.164251207729464
44202,Portage County,OH,24.584004294149224
44221,Summit County,OH,10.359634997316157
44241,Portage County,OH,23.242082662372518
44260,Portage County,OH,81.48148148148148
44306,Summit County,OH,27.536231884057973
44312,Summit County,OH,10.25228126677402
44319,Summit County,OH,41.22383252818035
44413,Columbiana County,OH,90.2308105206656
44431,Columbiana County,OH,86.8491680085883
44483,Trumbull County,OH,75.2012882447665
44505,Mahoning County,OH,23.349436392914654
44511,Mahoning County,OH,17.444981213097154
44515,Mahoning County,OH,28.019323671497588
44615,Carroll County,OH,66.7740203972088
44618,Wayne County,OH,95.27643585614601
44644,Carroll County,OH,85.23886205045625
44646,Stark County,OH,6.226516371443908
44647,Stark County,OH,81.05206655931295
44688,Stark County,OH,97.638217928073
44691,Wayne County,OH,4.777241009125067
44703,Stark County,OH,70.26301663982824
44708,Stark County,OH,20.719269994632313
44811,Sandusky County,OH,23.564143853998925
44870,Erie County,OH,9.232420826623725
45005,Warren County,OH,5.958132045088567
45011,Butler County,OH,74.66451959205583
45013,Butler County,OH,13.419216317767043
45014,Butler County,OH,35.42673107890499
45015,Butler County,OH,45.410628019323674
45040,Warren County,OH,92.4315619967794
45042,Butler County,OH,14.439076757917338
45044,Butler County,OH,18.78690284487386
45050,Butler County,OH,82.17928073000536
45103,Clermont County,OH,20.2361782071927
45106,Clermont County,OH,40.4723564143854
45140,Clermont County,OH,47.987117552334944
45150,Clermont County,OH,28.126677402039718
45205,Hamilton County,OH,63.016639828234034
45211,Hamilton County,OH,86.90284487385937
45213,Hamilton County,OH,67.57917337627482
45215,Hamilton County,OH,65.5931293612453
45216,Hamilton County,OH,48.148148148148145
45217,Hamilton County,OH,77.50939345142244
45223,Hamilton County,OH,77.83145464304884
45225,Hamilton County,OH,58.72249060654858
45231,Hamilton County,OH,23.778851315083198
45233,Hamilton County,OH,85.07783145464305
45238,Hamilton County,OH,34.245840042941495
45239,Hamilton County,OH,88.08373590982286
45240,Hamilton County,OH,49.651100375738054
45241,Hamilton County,OH,61.13794954374665
45242,Hamilton County,OH,92.53891572732152
45244,Hamilton County,OH,42.51207729468599
45247,Hamilton County,OH,50.45625335480408
45304,Darke County,OH,82.76972624798712
45327,Montgomery County,OH,94.36392914653784
45335,Greene County,OH,86.20504562533549
45344,Clark County,OH,49.00697799248524
45365,Shelby County,OH,8.105206655931294
45373,Miami County,OH,39.02308105206656
45403,Montgomery County,OH,28.502415458937197
45405,Montgomery County,OH,18.035426731078903
45417,Montgomery County,OH,25.28180354267311
45420,Montgomery County,OH,19.91411701556629
45426,Montgomery County,OH,43.04884594739667
45505,Clark County,OH,54.911433172302736
45614,Gallia County,OH,86.63446054750402
45623,Gallia County,OH,95.00805152979066
45640,Jackson County,OH,39.452495974235106
45653,Scioto County,OH,97.04777241009126
45658,Gallia County,OH,99.89264626945786
45686,Gallia County,OH,76.11379495437467
45690,Pike County,OH,83.68223295759528
45692,Jackson County,OH,73.64465915190553
45694,Scioto County,OH,21.36339237788513
45769,Meigs County,OH,78.52925389157274
45780,Athens County,OH,87.70799785292539
45804,Allen County,OH,7.836822329575953
45805,Allen County,OH,9.125067096081589
45827,Putnam County,OH,96.45732689210949
45840,Hancock County,OH,1.2345679012345678
45872,Wood County,OH,77.45571658615137
45875,Putnam County,OH,60.22544283413849
73055,Stephens County,OK,83.9506172839506
73099,Canadian County,OK,9.39345142243693
73438,Carter County,OK,99.08749329039183
74003,Osage County,OK,55.984970477724104
74037,Tulsa County,OK,70.31669350509931
74063,Tulsa County,OK,75.14761137949544
74110,Tulsa County,OK,76.59688674181427
74127,Tulsa County,OK,53.945249597423505
74145,Tulsa County,OK,58.07836822329576
74429,Wagoner County,OK,69.02844873859367
74435,Sequoyah County,OK,93.82716049382715
74464,Cherokee County,OK,25.818572195383787
74801,Pottawatomie County,OK,28.71712292002147
74859,Okfuskee County,OK,83.1454643048846
74954,Sequoyah County,OK,99.40955448201825
97007,Washington County,OR,25.496511003757384
97008,Washington County,OR,48.7385936661299
97038,Clackamas County,OR,58.88352120236178
97056,Columbia County,OR,60.81588835212024
97070,Clackamas County,OR,53.51583467525497
97071,Marion County,OR,47.82608695652174
97123,Washington County,OR,15.24422973698336
97124,Washington County,OR,67.25711218464842
97132,Yamhill County,OR,30.16639828234031
97209,Multnomah County,OR,29.414922168545353
97213,Multnomah County,OR,60.06441223832528
97222,Clackamas County,OR,22.436929683306495
97229,Washington County,OR,59.6886741814278
97232,Multnomah County,OR,74.50348899624262
97236,Multnomah County,OR,14.278046162104133
97266,Multnomah County,OR,24.261943102522814
97301,Marion County,OR,32.63553408480945
97304,Polk County,OR,84.27267847557702
97305,Marion County,OR,19.37734836285561
97306,Marion County,OR,47.718733225979605
97322,Linn County,OR,9.608158883521202
97338,Polk County,OR,37.144390767579175
97439,Lane County,OR,51.690821256038646
97503,Jackson County,OR,55.77026301663983
97601,Klamath County,OR,12.775093934514226
97603,Klamath County,OR,84.97047772410092
97702,Deschutes County,OR,34.88996242619431
97801,Umatilla County,OR,26.838432635534087
15025,Allegheny County,PA,40.203972088030056
15063,Washington County,PA,55.072463768115945
15068,Westmoreland County,PA,41.81427804616211
15122,Allegheny County,PA,41.70692431561997
15206,Allegheny County,PA,58.40042941492217
15210,Allegheny County,PA,10.789049919484702
15219,Allegheny County,PA,24.208266237251745
15221,Allegheny County,PA,12.721417069243158
15301,Washington County,PA,3.81105743424584
15681,Indiana County,PA,89.04991948470209
15767,Jefferson County,PA,21.04133118625872
15801,Clearfield County,PA,5.26033279656468
15853,Elk County,PA,52.764358561460014
15902,Cambria County,PA,77.99248523886206
15906,Cambria County,PA,47.50402576489533
15931,Cambria County,PA,59.74235104669887
16101,Lawrence County,PA,3.3816425120772946
16335,Crawford County,PA,6.977992485238863
16502,Erie County,PA,34.084809447128286
16841,Centre County,PA,82.9844337090714
17036,Dauphin County,PA,47.66505636070853
17042,Lebanon County,PA,17.391304347826086
17050,Cumberland County,PA,16.961889425657542
17055,Cumberland County,PA,21.900161030595815
17110,Dauphin County,PA,11.272141706924316
17201,Franklin County,PA,6.924315619967794
17222,Franklin County,PA,86.79549114331722
17316,Adams County,PA,90.44551798174987
17325,Adams County,PA,74.98658078368223
17404,York County,PA,62.37251744498121
17512,Lancaster County,PA,92.16317767042405
17543,Lancaster County,PA,17.874396135265698
17552,Lancaster County,PA,87.0101986044015
17560,Lancaster County,PA,93.29039184111649
17603,Lancaster County,PA,6.172839506172839
17837,Union County,PA,68.43800322061192
17901,Schuylkill County,PA,19.108964036500268
17931,Schuylkill County,PA,91.7337627482555
18013,Northampton County,PA,60.49382716049383
18014,Northampton County,PA,33.762748255501876
18015,Northampton County,PA,5.797101449275362
18017,Northampton County,PA,3.5963499731615673
18042,Northampton County,PA,3.113258185721954
18069,Lehigh County,PA,78.79763821792807
18102,Lehigh County,PA,14.814814814814813
18103,Lehigh County,PA,18.894256575415998
18109,Lehigh County,PA,19.699409554482017
18201,Luzerne County,PA,71.22920021470746
18222,Luzerne County,PA,89.21095008051529
18229,Carbon County,PA,63.0703166935051
18235,Carbon County,PA,94.0955448201825
18344,Monroe County,PA,96.83306494900698
18466,Monroe County,PA,46.3768115942029
18603,Columbia County,PA,34.29951690821256
18610,Monroe County,PA,72.24906065485776
18612,Luzerne County,PA,47.50402576489533
18640,Luzerne County,PA,77.88513150831992
18661,Luzerne County,PA,75.8990874932904
18702,Luzerne County,PA,23.027375201288244
18706,Luzerne County,PA,82.87707997852925
18901,Bucks County,PA,36.33923778851315
18940,Bucks County,PA,52.87171229200215
18951,Bucks County,PA,42.45840042941492
18964,Montgomery County,PA,83.89694041867955
18966,Bucks County,PA,38.86205045625336
18974,Bucks County,PA,45.893719806763286
19003,Montgomery County,PA,58.50778314546431
19004,Montgomery County,PA,75.25496511003757
19007,Bucks County,PA,65.80783682232958
19008,Delaware County,PA,70.90713902308106
19013,Delaware County,PA,52.49597423510467
19020,Bucks County,PA,56.46806226516371
19034,Montgomery County,PA,92.00214707461085
19036,Delaware County,PA,72.24906065485776
19038,Montgomery County,PA,81.32045088566827
19040,Montgomery County,PA,39.61352657004831
19047,Bucks County,PA,84.38003220611915
19050,Delaware County,PA,21.524422973698336
19053,Bucks County,PA,70.74610842726786
19057,Bucks County,PA,96.08158883521203
19061,Delaware County,PA,21.792807300053678
19066,Montgomery County,PA,89.74771873322598
19075,Montgomery County,PA,82.66237251744498
19083,Delaware County,PA,68.16961889425657
19096,Montgomery County,PA,87.33225979602791
19104,Philadelphia County,PA,7.353730542136338
19111,Philadelphia County,PA,14.170692431561996
19114,Philadelphia County,PA,13.848631239935589
19115,Philadelphia County,PA,77.02630166398282
19116,Philadelphia County,PA,52.71068169618894
19119,Philadelphia County,PA,18.46484165324745
19120,Philadelphia County,PA,39.98926462694578
19124,Philadelphia County,PA,0.6977992485238862
19125,Philadelphia County,PA,39.02308105206656
19126,Philadelphia County,PA,80.35426731078906
19128,Philadelphia County,PA,41.438539989264626
19129,Philadelphia County,PA,55.12614063338701
19130,Philadelphia County,PA,61.46001073537305
19133,Philadelphia County,PA,11.11111111111111
19138,Philadelphia County,PA,8.695652173913043
19140,Philadelphia County,PA,23.67149758454106
19141,Philadelphia County,PA,5.152979066022544
19142,Philadelphia County,PA,8.480944712828771
19143,Philadelphia County,PA,5.475040257648954
19144,Philadelphia County,PA,32.850241545893724
19145,Philadelphia County,PA,4.669887278582931
19146,Philadelphia County,PA,56.89747718733226
19149,Philadelphia County,PA,63.23134728931831
19150,Philadelphia County,PA,24.42297369833602
19154,Philadelphia County,PA,67.20343531937735
19335,Chester County,PA,12.88244766505636
19341,Chester County,PA,84.21900161030595
19365,Chester County,PA,76.00644122383254
19382,Chester County,PA,35.53408480944713
19390,Chester County,PA,92.27053140096618
19401,Montgomery County,PA,44.55179817498658
19403,Montgomery County,PA,13.365539452495975
19428,Montgomery County,PA,36.822329575952764
19454,Montgomery County,PA,34.19216317767042
19462,Montgomery County,PA,67.52549651100375
19464,Montgomery County,PA,2.952227589908749
19468,Montgomery County,PA,31.45464304884595
19508,Berks County,PA,71.39023081052066
19601,Berks County,PA,1.6639828234031133
02806,Bristol County,RI,63.28502415458937
02864,Providence County,RI,19.753086419753085
02865,Providence County,RI,60.601180891035966
29078,Kershaw County,SC,71.1755233494364
29108,Newberry County,SC,48.36285560923242
29203,Richland County,SC,29.307568438003223
29210,Richland County,SC,33.11862587224906
29302,Spartanburg County,SC,68.43800322061192
29303,Spartanburg County,SC,33.97745571658615
29405,Charleston County,SC,20.665593129361245
29429,Charleston County,SC,99.94632313472893
29440,Georgetown County,SC,36.60762211486849
29445,Berkeley County,SC,18.625872249060656
29456,Dorchester County,SC,27.3215244229737
29466,Charleston County,SC,68.92109500805152
29479,Berkeley County,SC,84.54106280193237
29492,Berkeley County,SC,81.37412775093934
29526,Horry County,SC,60.76221148684917
29550,Darlington County,SC,32.90391841116479
29607,Greenville County,SC,21.148684916800857
29611,Greenville County,SC,8.749329039184111
29621,Anderson County,SC,28.609769189479334
29644,Greenville County,SC,71.06816961889426
29669,Anderson County,SC,53.89157273215244
29687,Greenville County,SC,79.33440687063876
29690,Greenville County,SC,30.75684380032206
29693,Oconee County,SC,87.92270531400966
29910,Beaufort County,SC,82.4476650563607
29927,Jasper County,SC,76.75791733762748
57301,Davison County,SD,38.59366612989801
57701,Pennington County,SD,13.955984970477726
37110,Warren County,TN,11.916264090177133
37128,Rutherford County,TN,52.17391304347826
37148,Sumner County,TN,30.917874396135264
37160,Bedford County,TN,42.028985507246375
37209,Davidson County,TN,23.778851315083198
37217,Davidson County,TN,33.279656468062264
37312,Bradley County,TN,64.73429951690821
37323,Bradley County,TN,32.367149758454104
37385,Monroe County,TN,70.58507783145464
37601,Washington County,TN,12.02361782071927
37615,Washington County,TN,50.13419216317767
37692,Unicoi County,TN,90.76757917337628
37755,Scott County,TN,97.36983360171766
37841,Scott County,TN,66.02254428341385
37849,Knox County,TN,31.186258722490606
37871,Jefferson County,TN,77.13365539452496
38106,Shelby County,TN,12.238325281803544
38108,Shelby County,TN,83.3064949006978
38109,Shelby County,TN,7.675791733762748
38115,Shelby County,TN,17.337627482555018
38116,Shelby County,TN,41.116478797638216
38127,Shelby County,TN,45.73268921095008
38141,Shelby County,TN,37.68115942028986
38201,Carroll County,TN,69.35050993022007
38242,Henry County,TN,37.9495437466452
38305,Madison County,TN,27.053140096618357
75009,Collin County,TX,78.09983896940419
75025,Collin County,TX,47.28931830381106
75035,Collin County,TX,29.736983360171763
75041,Dallas County,TX,65.70048309178745
75043,Dallas County,TX,42.941492216854535
75044,Dallas County,TX,45.571658615136876
75051,Dallas County,TX,88.24476650563608
75054,Tarrant County,TX,80.19323671497585
75056,Denton County,TX,55.93129361245304
75061,Dallas County,TX,89.85507246376811
75067,Denton County,TX,56.68276972624798
75075,Collin County,TX,56.038647342995176
75081,Dallas County,TX,61.084272678475585
75094,Collin County,TX,90.87493290391842
75110,Navarro County,TX,33.49436392914654
75119,Ellis County,TX,72.89318303811058
75140,Van Zandt County,TX,92.21685453569512
75150,Dallas County,TX,17.176596886741816
75206,Dallas County,TX,81.64251207729468
75208,Dallas County,TX,86.25872249060654
75211,Dallas County,TX,77.07997852925389
75214,Dallas County,TX,94.73966720343532
75216,Dallas County,TX,38.37895866881374
75217,Dallas County,TX,45.67901234567901
75219,Dallas County,TX,42.88781535158347
75227,Dallas County,TX,59.90338164251207
75228,Dallas County,TX,68.22329575952764
75229,Dallas County,TX,34.5679012345679
75233,Dallas County,TX,62.533548040794415
75235,Dallas County,TX,59.312936124530324
75238,Dallas County,TX,80.51529790660226
75240,Dallas County,TX,94.2565754159957
75243,Dallas County,TX,10.037573805689748
75248,Dallas County,TX,49.43639291465378
75253,Dallas County,TX,56.52173913043478
75254,Dallas County,TX,89.3719806763285
75287,Denton County,TX,31.77670424047236
75455,Titus County,TX,43.907675791733766
75645,Upshur County,TX,71.81964573268921
75701,Smith County,TX,59.25925925925925
75703,Smith County,TX,24.154589371980677
75706,Smith County,TX,51.58346752549651
75771,Smith County,TX,45.78636607622115
75951,Jasper County,TX,69.67257112184649
75961,Nacogdoches County,TX,58.293075684380035
75965,Nacogdoches County,TX,59.84970477724101
76012,Tarrant County,TX,38.00322061191627
76020,Tarrant County,TX,69.18947933440687
76040,Tarrant County,TX,85.5072463768116
76053,Tarrant County,TX,32.098765432098766
76054,Tarrant County,TX,96.94041867954911
76106,Tarrant County,TX,85.99033816425121
76111,Tarrant County,TX,65.05636070853463
76114,Tarrant County,TX,34.03113258185722
76115,Tarrant County,TX,41.17015566290929
76118,Tarrant County,TX,96.02791196994096
76119,Tarrant County,TX,70.63875469672571
76132,Tarrant County,TX,78.95866881374127
76133,Tarrant County,TX,41.92163177670424
76134,Tarrant County,TX,50.939345142243695
76137,Tarrant County,TX,15.405260332796564
76140,Tarrant County,TX,82.39398819108963
76148,Tarrant County,TX,32.25979602791197
76164,Tarrant County,TX,96.77938808373591
76209,Denton County,TX,87.27858293075684
76262,Denton County,TX,35.96349973161567
76301,Wichita County,TX,36.822329575952764
76513,Bell County,TX,5.528717122920022
76522,Coryell County,TX,35.748792270531396
76541,Bell County,TX,35.96349973161567
76543,Bell County,TX,52.22758990874933
76549,Bell County,TX,17.498658078368223
76657,McLennan County,TX,78.58293075684381
76706,McLennan County,TX,26.73107890499195
76707,McLennan County,TX,61.78207192699946
76711,McLennan County,TX,90.76757917337628
76825,McCulloch County,TX,81.48148148148148
77003,Harris County,TX,75.0402576489533
77012,Harris County,TX,82.66237251744498
77016,Harris County,TX,64.19753086419753
77017,Harris County,TX,46.3768115942029
77026,Harris County,TX,45.14224369296833
77028,Harris County,TX,40.90177133655394
77038,Harris County,TX,70.96081588835213
77040,Harris County,TX,36.12453032742888
77042,Harris County,TX,62.855609232420825
77047,Harris County,TX,47.34299516908212
77048,Harris County,TX,62.533548040794415
77049,Harris County,TX,80.03220611916264
77058,Harris County,TX,88.78153515834674
77062,Harris County,TX,51.2614063338701
77066,Harris County,TX,59.20558239398819
77070,Harris County,TX,85.45356951154052
77072,Harris County,TX,44.71282877079978
77074,Harris County,TX,96.1352657004831
77075,Harris County,TX,92.10950080515298
77089,Harris County,TX,94.79334406870639
77093,Harris County,TX,33.440687063875465
77095,Harris County,TX,12.828770799785291
77096,Harris County,TX,50.24154589371981
77099,Harris County,TX,45.14224369296833
77316,Montgomery County,TX,66.23725174449812
77318,Montgomery County,TX,70.96081588835213
77327,Liberty County,TX,56.30703166935051
77345,Harris County,TX,76.32850241545893
77346,Harris County,TX,15.619967793880837
77351,Polk County,TX,35.480407944176065
77357,Montgomery County,TX,95.65217391304348
77372,Montgomery County,TX,81.21309715512615
77377,Harris County,TX,34.62157809983897
77389,Harris County,TX,46.2157809983897
77449,Harris County,TX,7.3000536768652715
77477,Fort Bend County,TX,83.467525496511
77493,Harris County,TX,77.4020397208803
77494,Fort Bend County,TX,12.453032742887816
77502,Harris County,TX,44.12238325281804
77503,Harris County,TX,91.5727321524423
77511,Brazoria County,TX,36.553945249597426
77518,Galveston County,TX,97.74557165861513
77523,Chambers County,TX,48.84594739667204
77530,Harris County,TX,74.55716586151368
77532,Harris County,TX,76.86527106816962
77536,Harris County,TX,75.95276435856147
77539,Galveston County,TX,15.029522275899087
77541,Brazoria County,TX,85.82930756843801
77551,Galveston County,TX,76.27482555018787
77562,Harris County,TX,68.8137412775094
77563,Galveston County,TX,98.01395598497048
77566,Brazoria County,TX,87.49329039184111
77573,Galveston County,TX,90.28448738593666
77578,Brazoria County,TX,91.51905528717123
77583,Brazoria County,TX,81.91089640365003
77584,Brazoria County,TX,6.709608158883522
77587,Harris County,TX,95.11540526033279
77590,Galveston County,TX,64.78797638217928
77591,Galveston County,TX,73.96672034353193
77619,Jefferson County,TX,63.55340848094472
77630,Orange County,TX,76.59688674181427
77640,Jefferson County,TX,50.99302200751477
77662,Orange County,TX,90.60654857756307
77703,Jefferson County,TX,98.12130971551262
77801,Brazos County,TX,87.97638217928073
77808,Brazos County,TX,89.69404186795491
77833,Washington County,TX,36.12453032742888
77845,Brazos County,TX,47.45034889962426
78028,Kerr County,TX,29.03918411164788
78043,Webb County,TX,32.74288781535159
78045,Webb County,TX,17.767042404723565
78109,Bexar County,TX,38.70101986044015
78130,Comal County,TX,17.01556629092861
78132,Comal County,TX,61.67471819645732
78227,Bexar County,TX,28.234031132581855
78242,Bexar County,TX,38.969404186795494
78244,Bexar County,TX,51.52979066022544
78336,San Patricio County,TX,86.09769189479334
78412,Nueces County,TX,43.585614600107355
78418,Nueces County,TX,63.55340848094472
78520,Cameron County,TX,47.074610842726784
78537,Hidalgo County,TX,79.7638217928073
78539,Hidalgo County,TX,76.0601180891036
78542,Hidalgo County,TX,32.74288781535159
78576,Hidalgo County,TX,90.552871712292
78599,Hidalgo County,TX,89.42565754159956
78611,Burnet County,TX,69.99463231347289
78634,Williamson County,TX,51.04669887278583
78640,Hays County,TX,64.14385399892646
78644,Caldwell County,TX,59.04455179817498
78723,Travis County,TX,51.79817498658078
78727,Travis County,TX,80.24691358024691
78729,Williamson County,TX,69.51154052603327
78753,Travis County,TX,76.97262479871175
78758,Travis County,TX,72.14170692431561
79102,Potter County,TX,98.3360171765969
79415,Lubbock County,TX,57.80998389694042
79416,Lubbock County,TX,44.65915190552872
79762,Ector County,TX,21.36339237788513
79764,Ector County,TX,46.59151905528717
79905,El Paso County,TX,67.04240472356415
79907,El Paso County,TX,29.09286097691895
79934,El Paso County,TX,73.3762748255502
79938,El Paso County,TX,24.10091250670961
84010,Davis County,UT,83.52120236178207
84015,Davis County,UT,15.88835212023618
84043,Utah County,UT,35.319377348362856
84062,Utah County,UT,74.7181964573269
84081,Salt Lake County,UT,55.662909286097694
84095,Salt Lake County,UT,91.46537842190016
84102,Salt Lake County,UT,72.35641438539989
84104,Salt Lake County,UT,37.19806763285024
84115,Salt Lake County,UT,29.629629629629626
84118,Salt Lake County,UT,13.097155126140633
84119,Salt Lake County,UT,52.12023617820719
84123,Salt Lake County,UT,16.10305958132045
84128,Salt Lake County,UT,30.434782608695656
84129,,UT,22.383252818035427
84321,Cache County,UT,58.615136876006446
20105,Loudoun County,VA,89.64036500268384
20110,Manassas city,VA,59.15190552871712
20147,Loudoun County,VA,28.824476650563607
20191,Fairfax County,VA,64.573268921095
22003,Fairfax County,VA,55.23349436392915
22015,Fairfax County,VA,43.42458400429415
22030,Fairfax County,VA,54.85775630703167
22032,Fairfax County,VA,56.14600107353731
22033,Fairfax County,VA,76.5432098765432
22041,Fairfax County,VA,61.40633387010198
22044,Fairfax County,VA,90.98228663446055
22046,Falls Church city,VA,78.09983896940419
22066,Fairfax County,VA,84.75577026301664
22079,Fairfax County,VA,88.40579710144928
22101,Fairfax County,VA,43.263553408480945
22152,Fairfax County,VA,46.59151905528717
22192,Prince William County,VA,42.72678475577026
22203,Arlington County,VA,65.2710681696189
22205,Arlington County,VA,94.68599033816425
22305,Alexandria city,VA,84.4873859366613
22308,Fairfax County,VA,73.21524422973698
22309,Fairfax County,VA,94.04186795491142
22310,Fairfax County,VA,44.49812130971551
22315,Fairfax County,VA,74.23510466988728
22602,Frederick County,VA,71.60493827160494
22801,Harrisonburg city,VA,64.68062265163714
22980,Waynesboro city,VA,25.76489533011272
23220,Richmond city,VA,53.51583467525497
23222,Richmond city,VA,39.50617283950617
23223,Henrico County,VA,14.117015566290927
23225,Richmond city,VA,9.98389694041868
23228,Henrico County,VA,40.84809447128288
23231,Henrico County,VA,17.659688674181428
23233,Henrico County,VA,73.6983360171766
23434,Suffolk city,VA,11.647879763821793
23452,Virginia Beach city,VA,16.639828234031132
23454,Virginia Beach city,VA,22.114868491680088
23505,Norfolk city,VA,30.00536768652711
23669,Hampton city,VA,16.854535695115406
23834,Colonial Heights city,VA,85.61460010735374
24401,Staunton city,VA,7.461084272678475
24517,Campbell County,VA,84.16532474503488
24614,Buchanan County,VA,76.38217928073
98002,King County,WA,73.5373054213634
98011,King County,WA,96.72571121846484
98028,King County,WA,64.30488459473966
98030,King County,WA,49.59742351046699
98034,King County,WA,24.9597423510467
98045,King County,WA,73.42995169082126
98065,King County,WA,75.52334943639292
98072,King County,WA,53.62318840579711
98074,King County,WA,79.49543746645196
98108,King County,WA,84.05797101449275
98115,King County,WA,28.073000536768657
98117,King County,WA,53.03274288781535
98118,King County,WA,63.929146537842186
98125,King County,WA,62.64090177133655
98133,King County,WA,53.14009661835749
98146,King County,WA,51.20772946859904
98208,Snohomish County,WA,72.73215244229738
98296,Snohomish County,WA,35.909822866344605
98311,Kitsap County,WA,52.81803542673108
98335,Pierce County,WA,51.315083199141164
98374,Pierce County,WA,33.601717659688674
98387,Pierce County,WA,47.82608695652174
98390,Pierce County,WA,66.29092860976918
98391,Pierce County,WA,10.198604401502951
98406,Pierce County,WA,53.99892646269458
98444,Pierce County,WA,80.99838969404188
98445,Pierce County,WA,39.50617283950617
98502,Thurston County,WA,53.730542136339245
98801,Chelan County,WA,18.411164787976382
98837,Grant County,WA,70.69243156199678
99206,Spokane County,WA,36.39291465378422
99301,Franklin County,WA,6.387546967257113
99338,Benton County,WA,86.25872249060654
99344,Adams County,WA,85.6682769726248
20010,District of Columbia,DC,44.0150295222759
20019,District of Columbia,DC,2.0933977455716586
20020,District of Columbia,DC,10.574342458400428
20032,District of Columbia,DC,18.572195383789587
25130,Boone County,WV,90.92860976918948
25159,Putnam County,WV,88.29844337090714
25413,Berkeley County,WV,73.59098228663447
25508,Logan County,WV,90.06977992485238
25550,Mason County,WV,69.99463231347289
25705,Cabell County,WV,13.20450885668277
26003,Ohio County,WV,35.05099302200752
26070,Brooke County,WV,64.89533011272141
26261,Nicholas County,WV,93.39774557165862
26508,Monongalia County,WV,2.791196994095545
26537,Preston County,WV,74.34245840042941
26764,Preston County,WV,95.70585077831456
53012,Ozaukee County,WI,72.35641438539989
53038,Jefferson County,WI,98.76543209876543
53072,Waukesha County,WI,49.16800858829845
53092,Ozaukee County,WI,75.63070316693505
53095,Washington County,WI,42.56575415995706
53114,Walworth County,WI,93.18303811057434
53149,Waukesha County,WI,61.889425657541594
53168,Kenosha County,WI,91.8947933440687
53189,Waukesha County,WI,46.85990338164252
53204,Milwaukee County,WI,38.808373590982285
53205,Milwaukee County,WI,25.120772946859905
53211,Milwaukee County,WI,56.89747718733226
53212,Milwaukee County,WI,54.428341384863124
53214,Milwaukee County,WI,31.293612453032743
53216,Milwaukee County,WI,3.864734299516908
53218,Milwaukee County,WI,4.186795491143317
53225,Milwaukee County,WI,7.246376811594203
53403,Racine County,WI,57.43424584004294
53405,Racine County,WI,3.3279656468062266
53589,Dane County,WI,66.45195920558238
53704,Dane County,WI,79.71014492753623
54303,Brown County,WI,36.07085346215781
54538,Oneida County,WI,95.27643585614601
54729,Chippewa County,WI,71.98067632850241
82716,Campbell County,WY,59.957058507783145
