ZipCode,county,state,Adult
35007,Shelby County,AL,37.69386378961565
35126,Jefferson County,AL,39.244774106540795
35209,Jefferson County,AL,83.68172623061362
35210,Jefferson County,AL,55.360755225893456
35228,Jefferson County,AL,69.99325691166554
35674,Colbert County,AL,24.94942683749157
36526,Baldwin County,AL,37.96358732299393
99517,Anchorage Municipality,AK,72.2184760620364
99615,Kodiak Island Borough,AK,67.16115981119353
99654,Matanuska-Susitna Borough,AK,25.421443020903574
85007,Maricopa County,AZ,7.0128118678354685
85013,Maricopa County,AZ,63.317599460552934
85015,Maricopa County,AZ,13.621038435603506
85023,Maricopa County,AZ,19.68981793661497
85024,Maricopa County,AZ,59.06945380984491
85035,Maricopa County,AZ,51.44976399190829
85042,Maricopa County,AZ,44.774106540795685
85085,Maricopa County,AZ,52.596089008766015
85123,Pinal County,AZ,93.72892784895483
85202,Maricopa County,AZ,55.83277140930546
85225,Maricopa County,AZ,8.428860418071476
85295,Maricopa County,AZ,27.646662171274443
85326,Maricopa County,AZ,47.201618341200266
85335,Maricopa County,AZ,24.207687120701284
85364,Yuma County,AZ,1.9554956169925826
85706,Pima County,AZ,43.56035064059339
85710,Pima County,AZ,6.001348617666891
85941,Apache County,AZ,9.238031018206339
86004,Coconino County,AZ,62.30613621038435
86034,Navajo County,AZ,87.12070128118678
86045,Coconino County,AZ,18.206338503034388
86301,Yavapai County,AZ,52.663519892110585
86442,Mohave County,AZ,20.364126770060686
86556,Apache County,AZ,85.09777478084963
72002,Saline County,AR,77.006068779501
72076,Pulaski County,AR,36.54753877275792
72116,Pulaski County,AR,57.585974376264325
72223,Pulaski County,AR,97.10047201618342
72432,Poinsett County,AR,89.68307484828051
72927,Logan County,AR,98.85367498314228
90025,Los Angeles County,CA,68.1726230613621
90027,Los Angeles County,CA,68.9143627781524
90029,Los Angeles County,CA,71.07215104517869
90045,Los Angeles County,CA,49.0222521915037
90048,Los Angeles County,CA,63.51989211058665
90266,Los Angeles County,CA,71.20701281186783
90605,Los Angeles County,CA,67.56574511126095
90621,Orange County,CA,43.29062710721511
90638,Los Angeles County,CA,40.93054619015509
90650,Los Angeles County,CA,13.216453135536074
90680,Orange County,CA,68.98179366149697
90740,Orange County,CA,54.48415374241402
90808,Los Angeles County,CA,42.95347269049225
91311,Los Angeles County,CA,41.20026972353338
91316,Los Angeles County,CA,55.765340525960895
91320,Ventura County,CA,50.101146325016856
91326,Los Angeles County,CA,50.303438975050575
91335,Los Angeles County,CA,48.88739042481456
91342,Los Angeles County,CA,15.171948752528658
91504,Los Angeles County,CA,79.09642616318274
91737,San Bernardino County,CA,95.54956169925826
91910,San Diego County,CA,60.215778826702625
91911,San Diego County,CA,75.3877275792313
91941,San Diego County,CA,92.24544841537424
92007,San Diego County,CA,80.04045853000675
92021,San Diego County,CA,33.580579905596764
92054,San Diego County,CA,30.950775455158464
92084,San Diego County,CA,43.83007417397168
92101,San Diego County,CA,10.316925151719488
92110,San Diego County,CA,42.75118004045853
92114,San Diego County,CA,22.791638570465274
92115,San Diego County,CA,65.20566419420093
92116,San Diego County,CA,61.29467296021578
92126,San Diego County,CA,88.80647336480108
92129,San Diego County,CA,43.62778152393796
92139,San Diego County,CA,57.38368172623062
92243,Imperial County,CA,84.42346594740391
92335,San Bernardino County,CA,85.83951449763993
92345,San Bernardino County,CA,25.96089008766015
92373,San Bernardino County,CA,54.5515846257586
92374,San Bernardino County,CA,59.47403910991233
92395,San Bernardino County,CA,45.38098449089683
92404,San Bernardino County,CA,12.60957518543493
92411,San Bernardino County,CA,81.18678354686446
92544,Riverside County,CA,82.93998651382333
92545,Riverside County,CA,29.737019554956166
92557,Riverside County,CA,67.7006068779501
92584,Riverside County,CA,93.45920431557654
92596,Riverside County,CA,80.3776129467296
92610,Orange County,CA,79.70330411328388
92656,Orange County,CA,23.937963587322994
92688,Orange County,CA,54.68644639244774
92703,Orange County,CA,27.781523937963588
92705,Orange County,CA,57.51854349291976
92835,Orange County,CA,65.87997302764667
92870,Orange County,CA,54.41672285906945
92879,Riverside County,CA,37.42414025623736
93111,Santa Barbara County,CA,98.583951449764
93215,Kern County,CA,69.1166554281861
93240,Kern County,CA,96.02157788267026
93305,Kern County,CA,58.66486850977748
93306,Kern County,CA,65.81254214430209
93307,Kern County,CA,59.20431557653405
93308,Kern County,CA,46.25758597437626
93313,Kern County,CA,65.5428186109238
93401,San Luis Obispo County,CA,99.25826028320971
93454,Santa Barbara County,CA,48.75252865812542
93455,Santa Barbara County,CA,22.58934592043156
93618,Tulare County,CA,39.78422117329737
93703,Fresno County,CA,80.57990559676331
93720,Fresno County,CA,23.533378287255562
93722,Fresno County,CA,6.001348617666891
93726,Fresno County,CA,40.25623735670937
93727,Fresno County,CA,10.182063385030343
93905,Monterey County,CA,77.81523937963587
93906,Monterey County,CA,28.051247471341874
93927,Monterey County,CA,88.67161159811194
93930,Monterey County,CA,88.19959541469993
94015,San Mateo County,CA,31.35536075522589
94063,San Mateo County,CA,85.03034389750506
94066,San Mateo County,CA,72.42076871207013
94080,San Mateo County,CA,74.57855697909642
94105,San Francisco County,CA,88.40188806473364
94107,San Francisco County,CA,31.692515171948756
94110,San Francisco County,CA,46.79703304113284
94123,San Francisco County,CA,72.28590694538099
94124,San Francisco County,CA,59.94605529332434
94127,San Francisco County,CA,72.82535401213755
94131,San Francisco County,CA,49.08968307484828
94133,San Francisco County,CA,60.89008766014835
94301,Santa Clara County,CA,83.54686446392448
94531,Contra Costa County,CA,52.12407282535402
94533,Solano County,CA,79.77073499662846
94536,Alameda County,CA,22.31962238705327
94544,Alameda County,CA,36.14295347269049
94552,Alameda County,CA,81.79366149696561
94555,Alameda County,CA,89.68307484828051
94558,Napa County,CA,64.46392447741064
94578,Alameda County,CA,36.74983142279164
94585,Solano County,CA,66.89143627781525
94588,Alameda County,CA,59.002022926500345
94618,Alameda County,CA,71.81389076196898
94931,Sonoma County,CA,92.31287929871881
94965,Marin County,CA,99.19082939986514
95012,Monterey County,CA,93.12204989885367
95062,Santa Cruz County,CA,58.8671611598112
95073,Santa Cruz County,CA,89.27848954821307
95121,Santa Clara County,CA,57.99055967633176
95134,Santa Clara County,CA,63.25016857720836
95341,Merced County,CA,43.62778152393796
95482,Mendocino County,CA,54.75387727579232
95501,Humboldt County,CA,38.77275792312879
95620,Solano County,CA,96.49359406608227
95662,Sacramento County,CA,76.12946729602157
95687,Solano County,CA,27.37693863789616
95747,Placer County,CA,28.927848954821307
95758,Sacramento County,CA,78.35468644639245
95776,Yolo County,CA,74.44369521240728
95817,Sacramento County,CA,98.17936614969656
95824,Sacramento County,CA,42.144302090357385
96003,Shasta County,CA,31.153068105192176
96150,El Dorado County,CA,78.48954821308159
80012,Arapahoe County,CO,68.57720836142953
80013,Arapahoe County,CO,41.739716790289954
80027,Boulder County,CO,46.12272420768712
80204,Denver County,CO,73.49966284558327
80207,Denver County,CO,30.681051921780178
80212,Denver County,CO,82.33310856372218
80228,Jefferson County,CO,40.6608226567768
80239,Denver County,CO,17.532029669588674
80249,Denver County,CO,85.97437626432907
80435,Summit County,CO,98.92110586648684
80501,Boulder County,CO,91.03169251517194
80524,Larimer County,CO,21.780175320296696
80525,Larimer County,CO,89.00876601483479
80526,Larimer County,CO,67.76803776129468
80540,Boulder County,CO,99.66284558327713
80550,Weld County,CO,47.94335805799056
80620,Weld County,CO,60.350640593391766
80631,Weld County,CO,5.664194200944032
80734,Phillips County,CO,99.39312204989885
80863,Teller County,CO,80.84962913014161
80916,El Paso County,CO,26.298044504383007
06032,Hartford County,CT,83.74915711395819
06033,Hartford County,CT,42.41402562373567
06040,Hartford County,CT,86.10923803101821
06053,Hartford County,CT,7.484828051247472
06067,Hartford County,CT,54.01213755900203
06070,Hartford County,CT,64.5987862440998
06074,Hartford County,CT,41.469993256911664
06082,Hartford County,CT,70.53270397842212
06093,Hartford County,CT,94.26837491571139
06095,Hartford County,CT,28.253540121375593
06105,Hartford County,CT,15.846257585974378
06106,Hartford County,CT,29.534726904922454
06108,Hartford County,CT,71.94875252865812
06112,Hartford County,CT,68.64463924477411
06114,Hartford County,CT,35.06405933917735
06260,Windham County,CT,22.184760620364127
06469,Middlesex County,CT,100
06511,New Haven County,CT,2.8995279838165877
06716,New Haven County,CT,49.49426837491571
06776,Litchfield County,CT,20.5664194200944
06811,Fairfield County,CT,33.51314902225219
06825,Fairfield County,CT,86.8509777478085
06830,Fairfield County,CT,93.3243425488874
06880,Fairfield County,CT,83.2771409305462
06896,Fairfield County,CT,99.86513823331086
06905,Fairfield County,CT,63.72218476062036
19702,New Castle County,DE,11.193526635198921
19703,New Castle County,DE,44.976399190829405
19720,New Castle County,DE,23.735670937289278
19801,New Castle County,DE,27.5118004045853
19802,New Castle County,DE,32.2993931220499
19939,Sussex County,DE,80.31018206338503
32003,Clay County,FL,44.504383007417395
32114,Volusia County,FL,58.192852326365475
32118,Volusia County,FL,67.29602157788267
32206,Duval County,FL,73.22993931220499
32208,Duval County,FL,6.473364801078894
32210,Duval County,FL,15.374241402562374
32218,Duval County,FL,2.157788267026298
32219,Duval County,FL,61.024949426837495
32220,Duval County,FL,52.3937963587323
32221,Duval County,FL,21.51045178691841
32246,Duval County,FL,50.43830074173972
32277,Duval County,FL,16.11598111935266
32601,Alachua County,FL,46.19015509103169
32703,Orange County,FL,16.25084288604181
33010,Miami-Dade County,FL,74.78084962913015
33020,Broward County,FL,48.347943358058
33030,Miami-Dade County,FL,31.759946055293327
33034,Miami-Dade County,FL,42.8186109238031
33147,Miami-Dade County,FL,23.06136210384356
33161,Miami-Dade County,FL,53.06810519217802
33162,Miami-Dade County,FL,68.71207012811867
33169,Miami-Dade County,FL,30.1416048550236
33403,Palm Beach County,FL,67.97033041132838
33407,Palm Beach County,FL,47.741065407956846
33437,Palm Beach County,FL,65.94740391099123
33458,Palm Beach County,FL,17.801753202966957
33558,Hillsborough County,FL,73.63452461227243
33603,Hillsborough County,FL,45.4484153742414
33617,Hillsborough County,FL,23.803101820633852
33626,Hillsborough County,FL,82.33310856372218
33634,Hillsborough County,FL,95.6844234659474
33647,Hillsborough County,FL,37.96358732299393
33701,Pinellas County,FL,34.65947403910991
33830,Polk County,FL,25.623735670937286
33880,Polk County,FL,16.790289952798382
33901,Lee County,FL,39.514497639919085
33903,Lee County,FL,70.93728927848954
34237,Sarasota County,FL,80.51247471341874
34286,Sarasota County,FL,43.29062710721511
34652,Pasco County,FL,28.99527983816588
34690,Pasco County,FL,57.24881995954148
34996,Martin County,FL,77.20836142953472
30009,Fulton County,GA,76.53405259608901
30016,Newton County,GA,8.96830748482805
30022,Fulton County,GA,28.320971004720164
30041,Forsyth County,GA,46.25758597437626
30046,Gwinnett County,GA,34.86176668914362
30083,DeKalb County,GA,19.35266351989211
30106,Cobb County,GA,75.52258934592044
30134,Douglas County,GA,18.138907619689817
30296,Clayton County,GA,46.6621712744437
30297,Clayton County,GA,42.54888739042482
30345,DeKalb County,GA,67.83546864463923
30350,Fulton County,GA,49.966284558327715
30721,Whitfield County,GA,17.329737019554955
30901,Richmond County,GA,77.07349966284558
31055,Telfair County,GA,94.47066756574512
31406,Chatham County,GA,38.77275792312879
31419,Chatham County,GA,24.14025623735671
96706,Honolulu County,HI,7.215104517869183
96707,Honolulu County,HI,25.488873904248145
96732,Maui County,HI,89.95279838165881
96766,Kauai County,HI,55.158462575859744
96782,Honolulu County,HI,26.365475387727578
96786,Honolulu County,HI,75.05057316250843
96790,Maui County,HI,97.23533378287256
96819,Honolulu County,HI,34.4571813890762
83301,Twin Falls County,ID,2.0229265003371544
83647,Elmore County,ID,85.6372218476062
83669,Ada County,ID,74.98314227916386
83687,Canyon County,ID,40.79568442346595
60015,Lake County,IL,81.52393796358733
60035,Lake County,IL,60.485502360080915
60073,Lake County,IL,11.59811193526635
60089,Lake County,IL,84.08631153068106
60115,DeKalb County,IL,28.59069453809845
60126,DuPage County,IL,67.43088334457181
60140,Kane County,IL,58.5974376264329
60173,Cook County,IL,86.78354686446393
60174,Kane County,IL,81.72623061362104
60194,Cook County,IL,59.74376264329063
60304,Cook County,IL,42.61631827376939
60410,Will County,IL,62.980445043830066
60430,Cook County,IL,74.3762643290627
60438,Cook County,IL,73.02764666217128
60439,Cook County,IL,31.894807821982468
60440,Will County,IL,14.632501685772084
60446,Will County,IL,32.70397842211733
60451,Will County,IL,38.57046527309508
60478,Cook County,IL,63.72218476062036
60490,Will County,IL,70.465273095077535
60501,Cook County,IL,75.72488199595415
60506,Kane County,IL,76.46662171274443
60517,DuPage County,IL,28.051247471341874
60526,Cook County,IL,59.60890087660148
60538,Kendall County,IL,69.31894807821982
60540,DuPage County,IL,20.903573836817262
60542,Kane County,IL,51.18004045853001
60544,Will County,IL,68.37491571139583
60558,Cook County,IL,69.8583951449764
60559,DuPage County,IL,85.70465273095077
60560,Kendall County,IL,71.88132164531356
60564,Will County,IL,55.293324342548885
60565,DuPage County,IL,22.049898853674982
60585,Will County,IL,67.02629804450439
60586,Will County,IL,67.2285906945381
60608,Cook County,IL,7.619689817936615
60615,Cook County,IL,86.71611598111936
60617,Cook County,IL,4.720161834120027
60625,Cook County,IL,7.417397167902899
60626,Cook County,IL,14.227916385704653
60634,Cook County,IL,6.743088334457181
60637,Cook County,IL,49.89885367498314
60644,Cook County,IL,65.27309507754552
60646,Cook County,IL,35.94066082265678
60655,Cook County,IL,21.105866486850978
61201,Rock Island County,IL,27.17464598786244
61265,Rock Island County,IL,34.12002697235334
61301,LaSalle County,IL,48.28051247471342
61350,LaSalle County,IL,35.60350640593391
61364,LaSalle County,IL,41.60485502360081
61701,McLean County,IL,22.65677680377613
61705,McLean County,IL,65.74511126095753
62806,Edwards County,IL,97.90964261631827
46011,Madison County,IN,36.48010788941335
46016,Madison County,IN,78.15239379635874
46241,Marion County,IN,14.90222521915037
46268,Marion County,IN,32.23196223870532
46304,Porter County,IN,8.96830748482805
46307,Lake County,IN,9.30546190155091
46311,Lake County,IN,50.708024275118
46321,Lake County,IN,24.747134187457856
46322,Lake County,IN,17.9366149696561
46324,Lake County,IN,12.474713418745784
46342,Lake County,IN,44.03236682400539
46350,LaPorte County,IN,5.9339177343223195
46368,Porter County,IN,1.416048550236008
46371,LaPorte County,IN,98.3142279163857
46373,Lake County,IN,63.991908293998655
46383,Porter County,IN,5.124747134187458
46516,Elkhart County,IN,52.05664194200944
46534,Starke County,IN,79.16385704652731
46737,Steuben County,IN,84.15374241402563
46803,Allen County,IN,70.93728927848954
46816,Allen County,IN,71.61159811193527
46835,Allen County,IN,23.33108563722185
46947,Cass County,IN,28.860418071476733
46996,Pulaski County,IN,63.452461227242075
47112,Harrison County,IN,42.00944032366824
47117,Harrison County,IN,94.13351314902225
47167,Washington County,IN,37.22184760620364
47172,Clark County,IN,53.135536075522595
47201,Bartholomew County,IN,8.361429534726906
47265,Jennings County,IN,16.520566419420092
47303,Delaware County,IN,24.881995954146998
47304,Delaware County,IN,38.09844908968307
47401,Monroe County,IN,50.91031692515172
47408,Monroe County,IN,88.67161159811194
47438,Greene County,IN,84.62575859743762
47446,Lawrence County,IN,90.4248145650708
47710,Vanderburgh County,IN,53.94470667565745
47711,Vanderburgh County,IN,62.37356709372893
47715,Vanderburgh County,IN,48.347943358058
47802,Vigo County,IN,16.925151719487523
47804,Vigo County,IN,45.85300067430884
47933,Montgomery County,IN,22.521915037086988
50311,Polk County,IA,37.42414025623736
50312,Polk County,IA,97.97707349966285
50314,Polk County,IA,32.7714093054619
50428,Cerro Gordo County,IA,66.08226567768037
51105,Woodbury County,IA,53.877275792312886
51401,Carroll County,IA,97.3701955495617
52101,Winneshiek County,IA,56.50708024275119
52205,Jones County,IA,91.43627781523938
52302,Linn County,IA,40.05394470667566
52722,Scott County,IA,55.9676331759946
52738,Louisa County,IA,84.96291301416049
52761,Muscatine County,IA,8.024275118004045
52803,Scott County,IA,53.40525960890088
66208,Johnson County,KS,86.91840863115307
67210,Sedgwick County,KS,96.96561024949428
67410,Dickinson County,KS,87.92987188132165
40203,Jefferson County,KY,40.52596089008766
40353,Montgomery County,KY,15.913688469318949
40422,Boyle County,KY,75.32029669588671
40508,Fayette County,KY,24.005394470667564
40517,Fayette County,KY,15.64396493594066
41005,Boone County,KY,46.3924477410654
41018,Kenton County,KY,18.27376938637896
41031,Harrison County,KY,79.50101146325017
41042,Boone County,KY,3.3041132838840186
41075,Campbell County,KY,56.16992582602832
41076,Campbell County,KY,57.45111260957518
41501,Pike County,KY,45.043830074173975
41635,Floyd County,KY,96.22387053270398
42171,Warren County,KY,85.50236008091706
42320,Ohio County,KY,77.41065407956845
42420,Henderson County,KY,6.33850303438975
42437,Union County,KY,81.99595414699932
42701,Hardin County,KY,27.646662171274443
70062,Jefferson Parish,LA,54.21443020903573
70065,Jefferson Parish,LA,62.10384356035063
70085,St. Bernard Parish,LA,96.4261631827377
70092,St. Bernard Parish,LA,73.83681726230613
70094,Jefferson Parish,LA,3.034389750505732
70112,Orleans Parish,LA,29.265003371544168
70117,Orleans Parish,LA,28.455832771409305
70118,Orleans Parish,LA,13.35131490222522
70127,Orleans Parish,LA,4.922454484153742
70129,Orleans Parish,LA,79.36614969656102
70131,Orleans Parish,LA,80.6473364801079
70301,Lafourche Parish,LA,49.42683749157114
70345,Lafourche Parish,LA,82.60283209710047
70346,Ascension Parish,LA,62.03641267700607
70359,Terrebonne Parish,LA,64.53135536075523
70427,Washington Parish,LA,33.2434254888739
70438,Washington Parish,LA,9.507754551584625
70466,Tangipahoa Parish,LA,93.86378961564397
70508,Lafayette Parish,LA,33.37828725556305
70582,St. Martin Parish,LA,78.96156439649359
70706,Livingston Parish,LA,22.99393122049899
70711,Livingston Parish,LA,99.055967633176
70719,West Baton Rouge Parish,LA,96.29130141604854
70726,Livingston Parish,LA,8.091706001348618
70737,Ascension Parish,LA,4.585300067430883
70757,Iberville Parish,LA,96.56102494942684
70805,East Baton Rouge Parish,LA,66.2845583277141
70806,East Baton Rouge Parish,LA,58.79973027646662
70809,East Baton Rouge Parish,LA,84.8954821308159
70811,East Baton Rouge Parish,LA,96.08900876601484
70812,East Baton Rouge Parish,LA,70.60013486176669
70816,East Baton Rouge Parish,LA,87.5252865812542
70820,East Baton Rouge Parish,LA,96.76331759946055
71047,Caddo Parish,LA,90.82939986513824
71055,Webster Parish,LA,12.542144302090358
71105,Caddo Parish,LA,56.16992582602832
71106,Caddo Parish,LA,66.7565745111261
71107,Caddo Parish,LA,68.84693189480782
71108,Caddo Parish,LA,91.70600134861768
71111,Bossier Parish,LA,42.88604180714767
71202,Ouachita Parish,LA,16.857720836142953
71203,Ouachita Parish,LA,39.37963587322994
71220,Morehouse Parish,LA,36.14295347269049
71251,Jackson Parish,LA,34.322319622387056
71291,Ouachita Parish,LA,42.211732973701956
71295,Franklin Parish,LA,13.418745785569792
71334,Concordia Parish,LA,99.3256911665543
04103,Cumberland County,ME,40.45853000674309
04105,Cumberland County,ME,94.47066756574512
04106,Cumberland County,ME,24.679703304113286
04107,Cumberland County,ME,97.70734996628457
04240,Androscoggin County,ME,9.710047201618341
04254,Androscoggin County,ME,99.52798381658799
04270,Oxford County,ME,77.07349966284558
04280,Androscoggin County,ME,62.845583277140925
04330,Kennebec County,ME,3.5738368172623063
04401,Penobscot County,ME,1.2137559002022926
04468,Penobscot County,ME,54.34929197572488
04572,Lincoln County,ME,76.26432906271073
04957,Somerset County,ME,89.07619689817938
20850,Montgomery County,MD,51.51719487525287
21009,Harford County,MD,35.13149022252192
21042,Howard County,MD,77.41065407956845
21043,Howard County,MD,54.82130815913688
21044,Howard County,MD,83.14227916385704
21046,Howard County,MD,79.83816587997303
21048,Carroll County,MD,81.99595414699932
21060,Anne Arundel County,MD,20.83614295347269
21084,Harford County,MD,90.1550910316925
21093,Baltimore County,MD,30.6136210384356
21113,Anne Arundel County,MD,86.04180714767364
21117,Baltimore County,MD,88.2670262980445
21131,Baltimore County,MD,87.3229939312205
21146,Anne Arundel County,MD,54.619015509103164
21158,Carroll County,MD,94.87525286581254
21201,Baltimore city,MD,33.44571813890762
21214,Baltimore city,MD,45.17869184086312
21218,Baltimore city,MD,25.758597437626435
21220,Baltimore County,MD,36.345246122724205
21620,Kent County,MD,71.27444369521241
21704,Frederick County,MD,97.30276466621713
21921,Cecil County,MD,10.78894133513149
01028,Hampden County,MA,31.96223870532704
01056,Hampden County,MA,12.002697235333782
01104,Hampden County,MA,27.107215104517866
01107,Hampden County,MA,4.045853000674309
01462,Worcester County,MA,64.66621712744437
01463,Middlesex County,MA,32.7714093054619
01581,Worcester County,MA,74.84828051247472
01603,Worcester County,MA,94.80782198246797
01605,Worcester County,MA,65.61024949426837
01606,Worcester County,MA,86.98583951449764
01608,Worcester County,MA,73.97167902899528
01749,Middlesex County,MA,55.49561699258261
01754,Middlesex County,MA,52.19150370869858
01757,Worcester County,MA,10.249494268374916
01760,Middlesex County,MA,26.163182737693862
01776,Middlesex County,MA,30.54619015509103
01778,Middlesex County,MA,65.47538772757923
01801,Middlesex County,MA,31.62508428860418
01810,Essex County,MA,47.134187457855695
01841,Essex County,MA,0.5394470667565745
01843,Essex County,MA,1.6183412002697235
01844,Essex County,MA,14.969656102494945
01852,Middlesex County,MA,53.00067430883345
01867,Middlesex County,MA,45.58327714093055
01887,Middlesex County,MA,4.450438300741739
01915,Essex County,MA,29.197572488199597
01960,Essex County,MA,3.7761294672960215
01970,Essex County,MA,13.149022252191504
02050,Plymouth County,MA,39.177343223196225
02054,Norfolk County,MA,79.56844234659474
02109,Suffolk County,MA,99.73027646662172
02114,Suffolk County,MA,12.946729602157788
02119,Suffolk County,MA,7.754551584625759
02121,Suffolk County,MA,14.767363452461227
02122,Suffolk County,MA,35.670937289278484
02124,Suffolk County,MA,3.1018206338503034
02125,Suffolk County,MA,2.3600809170600137
02126,Suffolk County,MA,0.06743088334457181
02130,Suffolk County,MA,0.6068779501011463
02131,Suffolk County,MA,70.86985839514497
02134,Suffolk County,MA,93.0546190155091
02135,Suffolk County,MA,2.562373567093729
02136,Suffolk County,MA,53.74241402562373
02140,Middlesex County,MA,12.204989885367498
02148,Middlesex County,MA,0.26972353337828725
02150,Suffolk County,MA,8.766014834794337
02155,Middlesex County,MA,4.652730950775455
02180,Middlesex County,MA,29.33243425488874
02186,Norfolk County,MA,31.153068105192176
02190,Norfolk County,MA,19.892110586648684
02302,Plymouth County,MA,0.6743088334457181
02341,Plymouth County,MA,29.39986513823331
02356,Bristol County,MA,61.2272420768712
02359,Plymouth County,MA,21.308159136884694
02360,Plymouth County,MA,0.33715441672285906
02368,Norfolk County,MA,1.1463250168577208
02451,Middlesex County,MA,18.341200269723533
02466,Middlesex County,MA,93.45920431557654
02472,Middlesex County,MA,35.8732299393122
02474,Middlesex County,MA,30.276466621712743
02494,Norfolk County,MA,92.91975724881996
02568,Dukes County,MA,56.70937289278489
02703,Bristol County,MA,0.4045853000674309
02721,Bristol County,MA,2.629804450438301
02724,Bristol County,MA,2.0903573836817264
02746,Bristol County,MA,9.97977073499663
02780,Bristol County,MA,0
48021,Macomb County,MI,6.810519217801753
48035,Macomb County,MI,25.556304787592715
48088,Macomb County,MI,60.552933243425485
48103,Washtenaw County,MI,10.519217801753204
48120,Wayne County,MI,87.59271746459879
48133,Monroe County,MI,82.5354012137559
48154,Wayne County,MI,17.734322319622386
48162,Monroe County,MI,29.062710721510456
48178,Oakland County,MI,74.645987862441
48183,Wayne County,MI,6.203641267700607
48186,Wayne County,MI,19.28523263654754
48188,Wayne County,MI,8.96830748482805
48206,Wayne County,MI,45.31355360755226
48213,Wayne County,MI,43.7626432906271
48223,Wayne County,MI,8.698583951449763
48238,Wayne County,MI,17.127444369521243
48310,Macomb County,MI,68.10519217801753
48341,Oakland County,MI,48.01078894133513
48342,Oakland County,MI,10.384356035064059
48346,Oakland County,MI,77.68037761294673
48415,Saginaw County,MI,35.53607552258934
48439,Genesee County,MI,29.467296021577884
48457,Genesee County,MI,69.18408631153068
48504,Genesee County,MI,35.80579905596763
48507,Genesee County,MI,25.354012137559
48661,Ogemaw County,MI,66.55428186109238
48840,Ingham County,MI,84.6931894807822
48876,Eaton County,MI,89.41335131490223
48906,Ingham County,MI,8.900876601483478
49057,Van Buren County,MI,84.82805124747134
49120,Berrien County,MI,10.0472016183412
49201,Jackson County,MI,5.866486850977748
49202,Jackson County,MI,23.1962238705327
49230,Jackson County,MI,57.1813890761969
49242,Hillsdale County,MI,34.52461227242077
49323,Allegan County,MI,69.45380984490896
49418,Kent County,MI,68.24005394470667
49503,Kent County,MI,7.147673634524613
49504,Kent County,MI,31.827376938637897
49506,Kent County,MI,43.08833445718139
49508,Kent County,MI,18.67835468644639
49512,Kent County,MI,91.30141604855024
49519,Kent County,MI,11.935266351989211
49548,Kent County,MI,4.8550236008091705
49783,Chippewa County,MI,15.23937963587323
49829,Delta County,MI,23.46594740391099
49855,Marquette County,MI,48.81995954146999
49868,Luce County,MI,74.71341874578556
55006,Isanti County,MN,95.07754551584627
55044,Dakota County,MN,36.817262306136215
55075,Dakota County,MN,29.130141604855027
55104,Ramsey County,MN,10.856372218476062
55119,Ramsey County,MN,30.411328388401888
55125,Washington County,MN,28.523263654753876
55126,Ramsey County,MN,46.05529332434255
55317,Carver County,MN,63.654753877275795
55337,Dakota County,MN,23.870532703978423
55346,Hennepin County,MN,73.90424814565071
55352,Scott County,MN,78.08496291301415
55374,Hennepin County,MN,77.7478084962913
55379,Scott County,MN,19.01550910316925
55401,Hennepin County,MN,49.22454484153743
55406,Hennepin County,MN,42.95347269049225
55407,Hennepin County,MN,3.910991233985165
55411,Hennepin County,MN,44.30209035738368
55412,Hennepin County,MN,51.85434929197572
55414,Hennepin County,MN,38.5030343897505
55418,Hennepin County,MN,45.51584625758597
55431,Hennepin County,MN,47.403910991233985
55435,Hennepin County,MN,70.1281186783547
55444,Hennepin County,MN,42.481456507080246
55449,Anoka County,MN,93.66149696561024
55744,Itasca County,MN,61.4969656102495
55803,St. Louis County,MN,85.77208361429534
55987,Winona County,MN,38.975050573162505
56265,Chippewa County,MN,61.42953472690492
56401,Crow Wing County,MN,25.084288604180717
56501,Becker County,MN,68.50977747808497
56751,Roseau County,MN,90.35738368172623
38672,DeSoto County,MS,98.24679703304113
39047,Rankin County,MS,39.312204989885366
39170,Hinds County,MS,86.37896156439649
39206,Hinds County,MS,20.903573836817262
39759,Oktibbeha County,MS,51.58462575859743
63111,St. Louis city,MO,23.668240053944707
63130,St. Louis County,MO,38.43560350640593
63135,St. Louis County,MO,21.91503708698584
63136,St. Louis County,MO,4.787592717464599
63138,St. Louis County,MO,37.76129467296022
63141,St. Louis County,MO,84.35603506405934
63146,St. Louis County,MO,37.22184760620364
63368,St. Charles County,MO,58.395144976399195
63459,Ralls County,MO,98.71881321645314
64014,Jackson County,MO,15.441672285906947
64029,Jackson County,MO,27.84895482130816
64082,Jackson County,MO,86.58125421443022
64106,Jackson County,MO,20.161834120026974
64109,Jackson County,MO,20.0944032366824
64112,Jackson County,MO,61.90155091031693
64118,Clay County,MO,3.169251517194875
64119,Clay County,MO,26.77006068779501
64123,Jackson County,MO,95.75185434929197
64124,Jackson County,MO,57.6534052596089
64127,Jackson County,MO,3.7086985839514495
64130,Jackson County,MO,20.49898853674983
64132,Jackson County,MO,10.856372218476062
64134,Jackson County,MO,29.669588671611596
64152,Platte County,MO,14.227916385704653
64153,Platte County,MO,73.36480107889413
64601,Livingston County,MO,83.20971004720163
64850,Newton County,MO,11.395819285232637
65340,Saline County,MO,66.82400539447066
65355,Benton County,MO,77.95010114632501
65804,Greene County,MO,21.17329737019555
59718,Gallatin County,MT,25.21915037086986
59923,Lincoln County,MT,47.201618341200266
68022,Douglas County,NE,59.40660822656777
68028,Sarpy County,NE,91.23398516520567
68124,Douglas County,NE,97.84221173297371
68132,Douglas County,NE,81.05192178017532
68144,Douglas County,NE,53.47269049224545
68632,Butler County,NE,98.7862440997977
68701,Madison County,NE,64.26163182737695
89506,Washoe County,NV,13.553607552258933
89523,Washoe County,NV,39.447066756574515
03032,Rockingham County,NH,86.44639244774106
03052,Hillsborough County,NH,58.46257585974376
03060,Hillsborough County,NH,4.315576534052596
03079,Rockingham County,NH,61.159811193526636
03103,Hillsborough County,NH,3.4389750505731627
03104,Hillsborough County,NH,9.575185434929198
03276,Merrimack County,NH,61.83412002697235
03301,Merrimack County,NH,12.137559002022927
07011,Passaic County,NJ,35.73836817262306
07026,Bergen County,NJ,33.17599460552933
07030,Hudson County,NJ,45.71813890761969
07036,Union County,NJ,6.4059339177343215
07055,Passaic County,NJ,0.7417397167902899
07060,Union County,NJ,75.118004045853
07063,Union County,NJ,97.63991908293998
07067,Middlesex County,NJ,60.2832097100472
07103,Essex County,NJ,43.49291975724882
07304,Hudson County,NJ,1.5509103169251517
07407,Bergen County,NJ,49.15711395819285
07446,Bergen County,NJ,95.34726904922455
07456,Passaic County,NJ,77.41065407956845
07481,Bergen County,NJ,93.7963587322994
07501,Passaic County,NJ,9.440323668240055
07666,Bergen County,NJ,9.575185434929198
07677,Bergen County,NJ,91.90829399865137
07731,Monmouth County,NJ,48.95482130815913
07801,Morris County,NJ,77.2757923128793
07849,Morris County,NJ,51.71948752528658
07850,Morris County,NJ,96.29130141604854
07860,Sussex County,NJ,76.73634524612272
07946,Morris County,NJ,98.98853674983143
08010,Burlington County,NJ,64.19420094403236
08015,Burlington County,NJ,11.126095751854349
08029,Camden County,NJ,92.98718813216453
08030,Camden County,NJ,15.711395819285231
08034,Camden County,NJ,24.072825354012135
08046,Burlington County,NJ,74.30883344571814
08048,Burlington County,NJ,71.47673634524612
08054,Burlington County,NJ,42.3465947403911
08056,Gloucester County,NJ,99.46055293324343
08057,Burlington County,NJ,45.65070802427512
08066,Gloucester County,NJ,45.78556979096426
08070,Salem County,NJ,62.71072151045178
08075,Burlington County,NJ,48.68509777478085
08081,Camden County,NJ,51.11260957518543
08085,Gloucester County,NJ,67.4983142279164
08094,Gloucester County,NJ,3.978422117329737
08106,Camden County,NJ,94.67296021577883
08109,Camden County,NJ,70.8024275118004
08302,Cumberland County,NJ,34.79433580579905
08330,Atlantic County,NJ,20.43155765340526
08401,Atlantic County,NJ,21.038435603506407
08520,Mercer County,NJ,38.23331085637221
08609,Mercer County,NJ,7.080242751180041
08611,Mercer County,NJ,17.666891436277815
08638,Mercer County,NJ,28.388401888064735
08736,Monmouth County,NJ,71.5441672285907
08817,Middlesex County,NJ,39.91908293998652
08854,Middlesex County,NJ,49.831422791638566
08859,Middlesex County,NJ,37.0869858395145
08861,Middlesex County,NJ,0.8091706001348618
08863,Middlesex County,NJ,75.92717464598786
08873,Somerset County,NJ,32.02966958867161
87002,Valencia County,NM,36.412677006068776
87020,Cibola County,NM,63.38503034389751
87026,Valencia County,NM,82.13081591368847
87105,Bernalillo County,NM,15.104517869184086
87106,Bernalillo County,NM,15.509103169251517
87107,Bernalillo County,NM,50.505731625084294
87111,Bernalillo County,NM,2.2252191503708696
87114,Bernalillo County,NM,5.394470667565745
87313,McKinley County,NM,90.08766014834795
87410,San Juan County,NM,74.10654079568442
88005,Doa Ana County,NM,30.343897505057317
88240,Lea County,NM,3.6412677006068783
10001,New York County,NY,8.563722184760621
10023,New York County,NY,35.4012137559002
10025,New York County,NY,18.745785569790964
10026,New York County,NY,88.33445718138908
10027,New York County,NY,16.587997302764666
10030,New York County,NY,41.06540795684423
10035,New York County,NY,80.91706001348618
10306,Richmond County,NY,13.958192852326365
10451,Bronx County,NY,12.070128118678355
10453,Bronx County,NY,4.180714767363453
10454,Bronx County,NY,4.11328388401888
10455,Bronx County,NY,56.43964935940661
10457,Bronx County,NY,38.30074173971679
10459,Bronx County,NY,2.9669588671611598
10460,Bronx County,NY,53.20296695886716
10462,Bronx County,NY,33.85030343897505
10463,Bronx County,NY,5.057316250842886
10465,Bronx County,NY,72.35333782872556
10466,Bronx County,NY,2.6972353337828725
10467,Bronx County,NY,30.209035738368172
10472,Bronx County,NY,40.86311530681052
10528,Westchester County,NY,82.87255563047876
10552,Westchester County,NY,71.13958192852327
10583,Westchester County,NY,72.9602157788267
10701,Westchester County,NY,0.8766014834794336
10704,Westchester County,NY,90.62710721510452
10805,Westchester County,NY,82.80512474713419
10950,Orange County,NY,52.798381658799734
10952,Rockland County,NY,76.93863789615644
10960,Rockland County,NY,70.1281186783547
11101,Queens County,NY,41.67228590694538
11103,Queens County,NY,87.05327039784221
11105,Queens County,NY,44.90896830748483
11203,Kings County,NY,81.45650708024274
11207,Kings County,NY,0.20229265003371544
11208,Kings County,NY,29.871881321645315
11211,Kings County,NY,30.883344571813893
11212,Kings County,NY,0.4720161834120027
11213,Kings County,NY,42.27916385704653
11214,Kings County,NY,11.328388401888065
11221,Kings County,NY,1.4834794335805799
11224,Kings County,NY,37.35670937289278
11226,Kings County,NY,2.4275118004045853
11229,Kings County,NY,61.4969656102495
11231,Kings County,NY,70.06068779501011
11233,Kings County,NY,8.15913688469319
11234,Kings County,NY,55.091031692515166
11235,Kings County,NY,57.04652730950775
11355,Queens County,NY,19.487525286581253
11368,Queens County,NY,47.673634524612275
11372,Queens County,NY,72.0161834120027
11377,Queens County,NY,75.45515846257585
11385,Queens County,NY,52.8658125421443
11419,Queens County,NY,56.30478759271747
11421,Queens County,NY,94.7403910991234
11435,Queens County,NY,7.215104517869183
11520,Nassau County,NY,22.7242076871207
11550,Nassau County,NY,83.81658799730276
11703,Suffolk County,NY,94.94268374915711
11738,Suffolk County,NY,72.69049224544841
11778,Suffolk County,NY,87.18813216453135
11784,Suffolk County,NY,85.56979096426163
12010,Montgomery County,NY,17.397167902899525
12116,Otsego County,NY,89.27848954821307
12143,Albany County,NY,78.89413351314903
12303,Schenectady County,NY,55.563047875927175
12534,Columbia County,NY,10.721510451786918
12538,Dutchess County,NY,85.30006743088335
12804,Warren County,NY,5.259608900876602
13032,Madison County,NY,22.859069453809845
13036,Oswego County,NY,68.77950101146325
13045,Cortland County,NY,15.037086985839515
13078,Onondaga County,NY,41.942009440323666
13204,Onondaga County,NY,7.889413351314903
13316,Oneida County,NY,72.4881995954147
13365,Herkimer County,NY,52.326365475387725
13421,Madison County,NY,17.06001348617667
13753,Delaware County,NY,89.21105866486852
13790,Broome County,NY,6.136210384356035
13815,Chenango County,NY,31.085637221847605
13825,Otsego County,NY,69.04922454484154
13827,Tioga County,NY,40.72825354012137
13850,Broome County,NY,11.260957518543494
13901,Broome County,NY,27.309507754551582
13905,Broome County,NY,8.293998651382333
14057,Erie County,NY,95.48213081591369
14062,Chautauqua County,NY,89.4807821982468
14075,Erie County,NY,5.529332434254889
14103,Orleans County,NY,31.490222521915033
14120,Niagara County,NY,28.792987188132162
14127,Erie County,NY,10.991233985165206
14207,Erie County,NY,49.291975724882
14209,Erie County,NY,76.73634524612272
14215,Erie County,NY,0.9440323668240054
14221,Erie County,NY,7.687120701281187
14225,Erie County,NY,5.731625084288605
14227,Erie County,NY,83.88401888064733
14424,Ontario County,NY,11.800404585300067
14425,Ontario County,NY,12.60957518543493
14428,Monroe County,NY,32.43425488873905
14450,Monroe County,NY,34.9291975724882
14467,Monroe County,NY,43.15576534052596
14534,Monroe County,NY,19.95954146999326
14559,Monroe County,NY,27.24207687120701
14560,Livingston County,NY,94.26837491571139
14564,Ontario County,NY,37.62643290627107
14586,Monroe County,NY,50.236008091706
14589,Wayne County,NY,24.342548887390425
14604,Monroe County,NY,90.69453809844909
14607,Monroe County,NY,13.68846931894808
14609,Monroe County,NY,0.13486176668914363
14611,Monroe County,NY,35.46864463924477
14619,Monroe County,NY,31.55765340525961
14701,Chautauqua County,NY,12.407282535401214
14845,Chemung County,NY,11.53068105192178
14886,Tompkins County,NY,48.21308159136885
27023,Forsyth County,NC,94.60552933243426
27107,Forsyth County,NC,61.76668914362779
27203,Randolph County,NC,19.150370869858396
27292,Davidson County,NC,15.98111935266352
27295,Davidson County,NC,2.2926500337154416
27302,Alamance County,NC,21.443020903573835
27320,Rockingham County,NC,43.96493594066082
27332,Lee County,NC,26.837491571139584
27405,Guilford County,NC,73.56709372892784
27407,Guilford County,NC,36.884693189480785
27523,Wake County,NC,92.65003371544167
27573,Person County,NC,32.09710047201618
27592,Wake County,NC,78.21982467970331
27596,Franklin County,NC,49.35940660822657
27606,Wake County,NC,33.85030343897505
27610,Wake County,NC,56.97909642616318
27707,Durham County,NC,8.631153068105192
27909,Pasquotank County,NC,8.833445718138908
28092,Lincoln County,NC,16.04855023600809
28173,Union County,NC,27.44436952124073
28208,Mecklenburg County,NC,6.271072151045179
28210,Mecklenburg County,NC,65.67768037761294
28212,Mecklenburg County,NC,18.071476736345247
28215,Mecklenburg County,NC,11.058664868509778
28277,Mecklenburg County,NC,57.923128792987185
28301,Cumberland County,NC,54.88873904248146
28311,Cumberland County,NC,17.9366149696561
28320,Bladen County,NC,59.27174645987863
28339,Harnett County,NC,69.79096426163183
28387,Moore County,NC,61.362103843560355
28403,New Hanover County,NC,69.25151719487526
28409,New Hanover County,NC,27.9838165879973
28411,New Hanover County,NC,26.02832097100472
28412,New Hanover County,NC,49.629130141604854
28513,Pitt County,NC,64.26163182737695
28584,Carteret County,NC,61.09238031018206
28651,Wilkes County,NC,69.3863789615644
28655,Burke County,NC,18.408631153068107
58103,Cass County,ND,4.517869184086312
58237,Walsh County,ND,84.55832771409305
58501,Burleigh County,ND,38.16587997302764
58701,Ward County,ND,54.28186109238031
58703,Ward County,ND,58.73229939312205
43016,Franklin County,OH,45.92043155765341
43021,Delaware County,OH,76.53405259608901
43040,Union County,OH,18.61092380310182
43055,Licking County,OH,44.436952124072825
43081,Franklin County,OH,82.73769386378962
43085,Franklin County,OH,74.03910991233985
43103,Pickaway County,OH,80.71476736345247
43110,Franklin County,OH,16.38570465273095
43138,Hocking County,OH,21.57788267026298
43203,Franklin County,OH,54.07956844234659
43219,Franklin County,OH,10.654079568442347
43223,Franklin County,OH,3.5064059339177343
43232,Franklin County,OH,2.4949426837491573
43235,Franklin County,OH,32.16453135536075
43302,Marion County,OH,1.2811867835468644
43402,Wood County,OH,15.576534052596088
43460,Wood County,OH,62.980445043830066
43528,Lucas County,OH,56.57451112609575
43558,Fulton County,OH,40.99797707349966
43604,Lucas County,OH,70.39784221173298
43605,Lucas County,OH,22.454484153742413
43607,Lucas County,OH,32.90627107215104
43608,Lucas County,OH,38.907619689817935
43609,Lucas County,OH,16.65542818610924
43610,Lucas County,OH,50.101146325016856
43611,Lucas County,OH,9.777478084962913
43612,Lucas County,OH,62.23870532703979
43614,Lucas County,OH,6.877950101146325
43615,Lucas County,OH,1.8880647336480108
43616,Lucas County,OH,9.170600134861767
43620,Lucas County,OH,87.25556304787592
43623,Lucas County,OH,18.813216453135535
43701,Muskingum County,OH,11.665542818610925
43777,Muskingum County,OH,82.13081591368847
43906,Belmont County,OH,34.38975050573163
43943,Jefferson County,OH,75.72488199595415
44044,Lorain County,OH,35.13149022252192
44056,Summit County,OH,50.57316250842886
44094,Lake County,OH,76.19689817936614
44095,Lake County,OH,14.565070802427513
44102,Cuyahoga County,OH,60.14834794335806
44103,Cuyahoga County,OH,88.46931894807823
44104,Cuyahoga County,OH,27.579231287929872
44105,Cuyahoga County,OH,33.715441672285905
44107,Cuyahoga County,OH,1.0114632501685772
44108,Cuyahoga County,OH,12.339851652056643
44109,Cuyahoga County,OH,50.37086985839514
44111,Cuyahoga County,OH,49.56169925826028
44112,Cuyahoga County,OH,5.192178017532029
44113,Cuyahoga County,OH,22.252191503708698
44115,Cuyahoga County,OH,47.538772757923134
44116,Cuyahoga County,OH,96.695886716116
44117,Cuyahoga County,OH,58.057990559676334
44120,Cuyahoga County,OH,13.081591368846931
44121,Cuyahoga County,OH,66.62171274443696
44124,Cuyahoga County,OH,43.22319622387053
44126,Cuyahoga County,OH,97.16790289952797
44128,Cuyahoga County,OH,11.732973701955496
44130,Cuyahoga County,OH,28.65812542144302
44137,Cuyahoga County,OH,32.36682400539447
44142,Cuyahoga County,OH,69.5886716115981
44146,Cuyahoga County,OH,4.2481456507080235
44149,Cuyahoga County,OH,59.13688469318949
44212,Medina County,OH,1.8206338503034392
44301,Summit County,OH,21.645313553607554
44306,Summit County,OH,6.608226567768037
44307,Summit County,OH,32.50168577208362
44310,Summit County,OH,26.43290627107215
44408,Columbiana County,OH,58.530006743088336
44445,Columbiana County,OH,99.12339851652057
44615,Carroll County,OH,88.87390424814565
44622,Tuscarawas County,OH,80.44504383007417
44667,Wayne County,OH,73.16250842886042
44706,Stark County,OH,23.12879298718813
44709,Stark County,OH,56.70937289278489
44710,Stark County,OH,46.999325691166554
44720,Stark County,OH,20.633850303438976
44870,Erie County,OH,1.078894133513149
44882,Wyandot County,OH,98.44908968307486
45011,Butler County,OH,41.874578556979095
45013,Butler County,OH,25.151719487525288
45040,Warren County,OH,79.97302764666217
45042,Butler County,OH,14.430209035738367
45121,Brown County,OH,56.10249494268375
45133,Highland County,OH,15.3068105192178
45140,Clermont County,OH,85.9069453809845
45150,Clermont County,OH,25.826028320971005
45177,Clinton County,OH,16.992582602832094
45202,Hamilton County,OH,14.49763991908294
45205,Hamilton County,OH,40.32366824005395
45207,Hamilton County,OH,96.83074848280513
45208,Hamilton County,OH,68.30748482805124
45209,Hamilton County,OH,82.46797033041133
45211,Hamilton County,OH,60.75522589345921
45212,Hamilton County,OH,21.240728253540123
45223,Hamilton County,OH,87.66014834794336
45225,Hamilton County,OH,75.85974376264329
45229,Hamilton County,OH,21.375590020229264
45230,Hamilton County,OH,97.77478084962912
45231,Hamilton County,OH,37.82872555630479
45236,Hamilton County,OH,78.0175320296696
45237,Hamilton County,OH,20.768712070128117
45238,Hamilton County,OH,66.68914362778152
45248,Hamilton County,OH,66.08226567768037
45324,Greene County,OH,6.540795684423466
45342,Montgomery County,OH,7.349966284558327
45356,Miami County,OH,9.844908968307484
45365,Shelby County,OH,69.52124072825355
45380,Darke County,OH,99.59541469993258
45385,Greene County,OH,7.956844234659474
45404,Montgomery County,OH,39.514497639919085
45405,Montgomery County,OH,42.076871207012815
45410,Montgomery County,OH,30.00674308833446
45417,Montgomery County,OH,5.461901550910317
45424,Montgomery County,OH,6.945380984490897
45439,Montgomery County,OH,64.39649359406609
45657,Scioto County,OH,95.81928523263656
45694,Scioto County,OH,46.45987862440998
45771,Meigs County,OH,84.76062036412677
45805,Allen County,OH,9.372892784895482
45822,Mercer County,OH,26.567768037761297
74112,Tulsa County,OK,39.7167902899528
97007,Washington County,OR,23.39851652056642
97031,Hood River County,OR,86.24409979770735
97045,Clackamas County,OR,10.114632501685772
97051,Columbia County,OR,46.52730950775455
97062,Washington County,OR,44.099797707349964
97078,Washington County,OR,94.40323668240053
97301,Marion County,OR,57.788267026298044
97305,Marion County,OR,44.23465947403911
97317,Marion County,OR,57.31625084288604
97351,Polk County,OR,91.97572488199596
97355,Linn County,OR,7.82198246797033
97527,Josephine County,OR,60.418071476736344
97601,Klamath County,OR,12.811867835468643
97702,Deschutes County,OR,59.94605529332434
97739,Deschutes County,OR,66.4868509777478
15102,Allegheny County,PA,48.55023600809171
15120,Allegheny County,PA,72.55563047875927
15145,Allegheny County,PA,72.62306136210384
15146,Allegheny County,PA,34.187457855697915
15221,Allegheny County,PA,12.744436952124072
15235,Allegheny County,PA,14.227916385704653
15243,Allegheny County,PA,76.39919082939987
15601,Westmoreland County,PA,14.834794335805798
15642,Westmoreland County,PA,40.39109912339852
15644,Westmoreland County,PA,69.72353337828724
15801,Clearfield County,PA,37.5590020229265
15825,Jefferson County,PA,92.1105866486851
15902,Cambria County,PA,95.01011463250168
15963,Somerset County,PA,51.38233310856373
16148,Mercer County,PA,34.254888739042485
16502,Erie County,PA,30.681051921780178
16602,Blair County,PA,47.471341874578556
16635,Blair County,PA,97.57248819959543
16662,Blair County,PA,97.50505731625084
16841,Centre County,PA,95.21240728253541
17011,Cumberland County,PA,44.571813890761966
17074,Perry County,PA,90.22252191503709
17315,York County,PA,19.622387053270398
17319,York County,PA,89.54821308159137
17368,York County,PA,61.69925826028321
17404,York County,PA,56.372218476062045
17406,York County,PA,66.9588671611598
17512,Lancaster County,PA,70.73499662845583
17545,Lancaster County,PA,85.1652056641942
17551,Lancaster County,PA,90.28995279838166
17566,Lancaster County,PA,95.27983816587997
17701,Lycoming County,PA,2.7646662171274445
17745,Clinton County,PA,56.64194200944033
17801,Northumberland County,PA,14.699932569116655
17815,Columbia County,PA,11.867835468644639
17837,Union County,PA,62.17127444369521
17851,Northumberland County,PA,51.989211058664864
17901,Schuylkill County,PA,18.476062036412678
17931,Schuylkill County,PA,83.07484828051247
17960,Schuylkill County,PA,78.62440997977073
17981,Schuylkill County,PA,93.39177343223196
18011,Lehigh County,PA,95.4146999325691
18015,Northampton County,PA,5.529332434254889
18017,Northampton County,PA,3.8435603506405935
18018,Lehigh County,PA,58.12542144302091
18031,Lehigh County,PA,62.980445043830066
18042,Northampton County,PA,53.3378287255563
18062,Lehigh County,PA,73.02764666217128
18067,Northampton County,PA,28.051247471341874
18073,Montgomery County,PA,83.34457181389077
18078,Lehigh County,PA,85.36749831422792
18103,Lehigh County,PA,31.422791638570462
18109,Lehigh County,PA,44.369521240728254
18201,Luzerne County,PA,70.66756574511126
18229,Carbon County,PA,56.70937289278489
18301,Monroe County,PA,24.409979770734996
18360,Monroe County,PA,19.757248819959543
18431,Wayne County,PA,71.40930546190155
18505,Lackawanna County,PA,29.602157788267025
18603,Columbia County,PA,71.67902899527984
18634,Luzerne County,PA,30.47875927174646
18640,Luzerne County,PA,58.93459204315577
18643,Luzerne County,PA,39.78422117329737
18702,Luzerne County,PA,4.989885367498315
18705,Luzerne County,PA,39.042481456507076
18707,Luzerne County,PA,68.03776129467296
18847,Susquehanna County,PA,80.04045853000675
18901,Bucks County,PA,32.97370195549561
18914,Bucks County,PA,81.25421443020903
18925,Bucks County,PA,93.99865138233311
18944,Bucks County,PA,66.01483479433581
18951,Bucks County,PA,13.958192852326365
18954,Bucks County,PA,98.51652056641942
18966,Bucks County,PA,62.50842886041808
18969,Montgomery County,PA,73.70195549561699
18974,Bucks County,PA,40.1888064733648
19002,Montgomery County,PA,26.635198921105868
19003,Montgomery County,PA,52.528658125421444
19006,Montgomery County,PA,62.64329062710722
19007,Bucks County,PA,84.49089683074848
19012,Montgomery County,PA,90.49224544841537
19013,Delaware County,PA,59.87862440997978
19018,Delaware County,PA,92.44774106540797
19020,Bucks County,PA,38.36817262306136
19021,Bucks County,PA,90.96426163182738
19026,Delaware County,PA,12.879298718813217
19027,Montgomery County,PA,71.7464598786244
19030,Bucks County,PA,62.4409979770735
19036,Delaware County,PA,78.28725556304788
19040,Montgomery County,PA,62.77815239379636
19047,Bucks County,PA,17.262306136210384
19053,Bucks County,PA,22.117329737019556
19061,Delaware County,PA,46.93189480782198
19063,Delaware County,PA,39.91908293998652
19064,Delaware County,PA,93.25691166554282
19070,Delaware County,PA,97.03304113283883
19072,Montgomery County,PA,52.19150370869858
19073,Delaware County,PA,38.70532703978422
19078,Delaware County,PA,89.14362778152393
19081,Delaware County,PA,91.09912339851653
19082,Delaware County,PA,26.904922454484154
19083,Delaware County,PA,61.96898179366149
19085,Delaware County,PA,89.81793661496965
19087,Chester County,PA,36.614969656102495
19090,Montgomery County,PA,82.13081591368847
19094,Delaware County,PA,92.65003371544167
19096,Montgomery County,PA,37.15441672285907
19103,Philadelphia County,PA,60.89008766014835
19111,Philadelphia County,PA,65.13823331085638
19115,Philadelphia County,PA,13.75590020229265
19119,Philadelphia County,PA,98.0445043830074
19120,Philadelphia County,PA,83.0074173971679
19124,Philadelphia County,PA,31.28792987188132
19129,Philadelphia County,PA,48.48280512474714
19131,Philadelphia County,PA,18.813216453135535
19133,Philadelphia County,PA,33.041132838840184
19134,Philadelphia County,PA,1.6857720836142953
19136,Philadelphia County,PA,64.1267700606878
19140,Philadelphia County,PA,41.807147673634525
19146,Philadelphia County,PA,11.46325016857721
19147,Philadelphia County,PA,36.277815239379635
19148,Philadelphia County,PA,38.63789615643965
19152,Philadelphia County,PA,76.53405259608901
19154,Philadelphia County,PA,33.648010788941335
19301,Chester County,PA,95.61699258260283
19333,Chester County,PA,88.13216453135536
19341,Chester County,PA,80.17532029669589
19380,Chester County,PA,8.22656776803776
19382,Chester County,PA,92.17801753202967
19401,Montgomery County,PA,5.799055967633175
19403,Montgomery County,PA,13.283884018880649
19405,Montgomery County,PA,94.06608226567768
19426,Montgomery County,PA,87.39042481456507
19428,Montgomery County,PA,91.1665542818611
19438,Montgomery County,PA,34.052596089008766
19446,Montgomery County,PA,10.451786918408631
19460,Chester County,PA,16.72285906945381
19462,Montgomery County,PA,81.79366149696561
19475,Chester County,PA,81.65879973027647
19520,Chester County,PA,87.86244099797707
19543,Berks County,PA,91.57113958192852
19555,Berks County,PA,98.38165879973027
19565,Berks County,PA,63.72218476062036
19601,Berks County,PA,1.7532029669588671
19605,Berks County,PA,21.847606203641266
19610,Berks County,PA,74.10654079568442
02892,Washington County,RI,91.84086311530682
02896,Providence County,RI,69.65610249494269
02909,Providence County,RI,13.823331085637221
29150,Sumter County,SC,53.80984490896831
29407,Charleston County,SC,56.03506405933918
29461,Berkeley County,SC,51.31490222521915
29464,Charleston County,SC,88.06473364801079
29483,Dorchester County,SC,12.27242076871207
29571,Marion County,SC,85.23263654753877
29624,Anderson County,SC,26.500337154416727
29642,Pickens County,SC,23.263654753877276
29666,Greenwood County,SC,79.36614969656102
29681,Greenville County,SC,19.08293998651382
29690,Greenville County,SC,27.91638570465273
29720,Lancaster County,SC,10.586648685097774
57752,Shannon County,SD,96.62845583277141
57783,Lawrence County,SD,55.900202292650036
37040,Montgomery County,TN,17.599460552933245
37066,Sumner County,TN,25.691166554281864
37807,Union County,TN,55.225893459204315
37830,Anderson County,TN,17.194875252865813
37876,Sevier County,TN,23.600809170600133
38108,Shelby County,TN,40.59339177343223
38111,Shelby County,TN,15.711395819285231
38128,Shelby County,TN,54.956169925826025
38134,Shelby County,TN,26.230613621038433
38343,Gibson County,TN,33.98516520566419
38474,Maury County,TN,62.9130141604855
75006,Dallas County,TX,33.31085637221848
75028,Denton County,TX,67.09372892784896
75040,Dallas County,TX,52.730950775455156
75041,Dallas County,TX,59.8111935266352
75042,Dallas County,TX,93.18948078219825
75044,Dallas County,TX,78.6918408631153
75050,Dallas County,TX,29.80445043830074
75051,Dallas County,TX,87.45785569790965
75057,Denton County,TX,86.17666891436278
75060,Dallas County,TX,57.720836142953466
75061,Dallas County,TX,64.8685097774781
75062,Dallas County,TX,33.108563722184755
75067,Denton County,TX,22.92650033715442
75081,Dallas County,TX,54.956169925826025
75149,Dallas County,TX,13.486176668914363
75150,Dallas County,TX,16.183412002697235
75180,Dallas County,TX,51.85434929197572
75203,Dallas County,TX,88.5367498314228
75210,Dallas County,TX,53.60755225893459
75211,Dallas County,TX,37.01955495616993
75214,Dallas County,TX,59.67633175994605
75215,Dallas County,TX,69.92582602832097
75216,Dallas County,TX,34.72690492245448
75217,Dallas County,TX,60.687795010114634
75220,Dallas County,TX,75.118004045853
75224,Dallas County,TX,74.24140256237357
75227,Dallas County,TX,70.3304113283884
75228,Dallas County,TX,19.554956169925827
75230,Dallas County,TX,78.42211732973702
75231,Dallas County,TX,80.98449089683075
75236,Dallas County,TX,71.27444369521241
75237,Dallas County,TX,92.04315576534053
75238,Dallas County,TX,51.71948752528658
75240,Dallas County,TX,76.87120701281187
75241,Dallas County,TX,41.1328388401888
75243,Dallas County,TX,72.08361429534726
75252,Collin County,TX,51.18004045853001
75253,Dallas County,TX,50.033715441672285
75701,Smith County,TX,24.94942683749157
75706,Smith County,TX,45.24612272420769
75771,Smith County,TX,40.12137559002023
76010,Tarrant County,TX,75.65745111260958
76011,Tarrant County,TX,66.41942009440324
76012,Tarrant County,TX,34.52461227242077
76014,Tarrant County,TX,35.33378287255563
76053,Tarrant County,TX,79.02899527983817
76104,Tarrant County,TX,66.35198921105867
76112,Tarrant County,TX,59.33917734322319
76119,Tarrant County,TX,36.952124072825356
76140,Tarrant County,TX,26.972353337828725
76164,Tarrant County,TX,55.428186109238034
76234,Wise County,TX,77.88267026298044
76401,Erath County,TX,46.79703304113284
76457,Hamilton County,TX,99.79770734996627
76502,Bell County,TX,81.52393796358733
76513,Bell County,TX,5.327039784221173
76520,Milam County,TX,77.34322319622387
76528,Coryell County,TX,47.066756574511125
76543,Bell County,TX,19.824679703304113
76571,Bell County,TX,96.1564396493594
76706,McLennan County,TX,24.275118004045854
76711,McLennan County,TX,73.36480107889413
77004,Harris County,TX,45.98786244099798
77007,Harris County,TX,84.28860418071477
77018,Harris County,TX,30.815913688469323
77020,Harris County,TX,80.78219824679704
77026,Harris County,TX,39.64935940660823
77040,Harris County,TX,32.50168577208362
77049,Harris County,TX,50.57316250842886
77058,Harris County,TX,96.83074848280513
77063,Harris County,TX,74.91571139581929
77064,Harris County,TX,25.28658125421443
77074,Harris County,TX,95.14497639919082
77082,Harris County,TX,36.00809170600135
77085,Harris County,TX,98.65138233310856
77088,Harris County,TX,63.58732299393122
77089,Harris County,TX,72.08361429534726
77092,Harris County,TX,41.33513149022252
77093,Harris County,TX,29.93931220498989
77301,Montgomery County,TX,85.43492919757249
77306,Montgomery County,TX,99.93256911665543
77320,Walker County,TX,78.82670262980444
77336,Harris County,TX,79.23128792987188
77338,Harris County,TX,73.29737019554956
77365,Montgomery County,TX,83.47943358057991
77378,Montgomery County,TX,98.11193526635199
77380,Montgomery County,TX,56.91166554281861
77406,Fort Bend County,TX,72.89278489548214
77423,Waller County,TX,94.20094403236683
77433,Harris County,TX,8.496291301416047
77449,Harris County,TX,86.64868509777477
77450,Harris County,TX,27.039784221173296
77459,Fort Bend County,TX,92.38031018206338
77503,Harris County,TX,62.57585974376264
77506,Harris County,TX,90.76196898179366
77511,Brazoria County,TX,88.94133513149022
77531,Brazoria County,TX,95.88671611598112
77535,Liberty County,TX,78.75927174645987
77539,Galveston County,TX,86.51382333108563
77545,Fort Bend County,TX,52.933243425488875
77550,Galveston County,TX,14.093054619015511
77551,Galveston County,TX,44.841537424140256
77568,Galveston County,TX,66.21712744436951
77571,Harris County,TX,20.02697235333783
77573,Galveston County,TX,53.60755225893459
77584,Brazoria County,TX,26.09575185434929
77587,Harris County,TX,65.34052596089009
77590,Galveston County,TX,76.33175994605529
77598,Harris County,TX,43.83007417397168
77630,Orange County,TX,57.11395819285232
77662,Orange County,TX,72.69049224544841
77803,Brazos County,TX,44.706675657451115
77845,Brazos County,TX,41.26770060687795
78040,Webb County,TX,57.855697909642615
78213,Bexar County,TX,86.31153068105192
78221,Bexar County,TX,81.05192178017532
78223,Bexar County,TX,64.80107889413351
78228,Bexar County,TX,20.701281186783547
78237,Bexar County,TX,47.80849629130142
78242,Bexar County,TX,34.99662845583277
78253,Bexar County,TX,67.63317599460554
78332,Jim Wells County,TX,47.336480107889415
78368,San Patricio County,TX,74.44369521240728
78537,Hidalgo County,TX,91.57113958192852
78543,Hidalgo County,TX,97.43762643290627
78574,Hidalgo County,TX,92.7848954821308
78611,Burnet County,TX,64.05933917734322
78660,Travis County,TX,19.217801753202966
78749,Travis County,TX,77.41065407956845
78861,Medina County,TX,63.92447741065408
79549,Scurry County,TX,28.72555630478759
79938,El Paso County,TX,22.387053270397843
84005,Utah County,UT,65.00337154416724
84010,Davis County,UT,91.36884693189481
84025,Davis County,UT,60.62036412677006
84029,Tooele County,UT,44.16722859069454
84070,Salt Lake County,UT,36.07552258934592
84092,Salt Lake County,UT,51.58462575859743
84094,Salt Lake County,UT,49.763991908293995
84096,Salt Lake County,UT,19.420094403236682
84109,Salt Lake County,UT,84.2211732973702
84124,Salt Lake County,UT,84.01888064733647
84501,Carbon County,UT,47.87592717464599
84770,Washington County,UT,55.69790964261632
05495,Chittenden County,VT,79.56844234659474
20120,Fairfax County,VA,39.109912339851654
22003,Fairfax County,VA,21.712744436952125
22025,Prince William County,VA,75.99460552933243
22031,Fairfax County,VA,73.76938637896157
22032,Fairfax County,VA,91.50370869858395
22042,Fairfax County,VA,64.93594066082265
22153,Fairfax County,VA,90.02022926500337
22182,Fairfax County,VA,51.04517869184087
22191,Prince William County,VA,35.26635198921106
22204,Arlington County,VA,20.161834120026974
22301,Alexandria city,VA,91.77343223196223
22304,Alexandria city,VA,48.61766689143628
22310,Fairfax County,VA,92.51517194875252
22315,Fairfax County,VA,41.537424140256235
22406,Stafford County,VA,67.90289952798382
22546,Caroline County,VA,79.29871881321645
22657,Shenandoah County,VA,37.89615643964936
22821,Rockingham County,VA,93.59406608226568
22902,Charlottesville city,VA,17.4645987862441
22947,Albemarle County,VA,93.93122049898854
23075,Henrico County,VA,47.538772757923134
23231,Henrico County,VA,16.31827376938638
23504,Norfolk city,VA,18.94807821982468
23602,Newport News city,VA,87.7950101146325
23662,Poquoson city,VA,92.58260283209711
23831,Chesterfield County,VA,26.70262980445044
24277,Lee County,VA,81.3216453135536
98002,King County,WA,24.477410654079566
98003,King County,WA,46.59474039109912
98005,King County,WA,68.44234659474039
98012,Snohomish County,WA,48.0782198246797
98023,King County,WA,18.54349291975725
98059,King County,WA,32.50168577208362
98075,King County,WA,65.34052596089009
98087,Snohomish County,WA,33.782872555630476
98108,King County,WA,58.32771409305462
98117,King County,WA,46.6621712744437
98118,King County,WA,70.26298044504384
98125,King County,WA,78.55697909642616
98133,King County,WA,82.67026298044505
98146,King County,WA,45.111260957518546
98188,King County,WA,54.14699932569117
98221,Skagit County,WA,87.72757923128793
98258,Snohomish County,WA,41.40256237356709
98270,Snohomish County,WA,36.682400539447066
98271,Snohomish County,WA,59.94605529332434
98273,Skagit County,WA,20.161834120026974
98294,Snohomish County,WA,80.24275118004046
98310,Kitsap County,WA,75.590020229265
98312,Kitsap County,WA,55.63047875927175
98371,Pierce County,WA,50.91031692515172
98387,Pierce County,WA,16.45313553607552
98391,Pierce County,WA,9.912339851652057
98444,Pierce County,WA,24.54484153742414
98466,Pierce County,WA,81.92852326365475
98626,Cowlitz County,WA,30.950775455158464
98632,Cowlitz County,WA,13.890761968981794
98837,Grant County,WA,21.98246797033041
98930,Yakima County,WA,88.60418071476737
98944,Yakima County,WA,43.42548887390425
99163,Whitman County,WA,59.54146999325691
99301,Franklin County,WA,6.67565745111261
20002,District of Columbia,DC,3.236682400539447
20007,District of Columbia,DC,83.61429534726905
20016,District of Columbia,DC,58.26028320971005
20018,District of Columbia,DC,30.00674308833446
20020,District of Columbia,DC,1.3486176668914363
20032,District of Columbia,DC,17.86918408631153
25271,Jackson County,WV,52.461227242076866
25401,Berkeley County,WV,25.893459204315576
25411,Morgan County,WV,61.4969656102495
26062,Hancock County,WV,7.552258934592043
26501,Monongalia County,WV,13.01416048550236
26505,Monongalia County,WV,24.814565070802427
53021,Ozaukee County,WI,95.9541469993257
53089,Waukesha County,WI,49.696561024949425
53090,Washington County,WI,48.14565070802427
53105,Racine County,WI,81.38907619689817
53168,Kenosha County,WI,89.61564396493594
53204,Milwaukee County,WI,4.3830074173971685
53205,Milwaukee County,WI,50.84288604180715
53207,Milwaukee County,WI,44.63924477410654
53211,Milwaukee County,WI,50.77545515846258
53212,Milwaukee County,WI,83.41200269723534
53213,Milwaukee County,WI,76.062036412677
53215,Milwaukee County,WI,2.832097100472016
53217,Milwaukee County,WI,53.270397842211736
53221,Milwaukee County,WI,14.160485502360082
53224,Milwaukee County,WI,67.36345246122724
53402,Racine County,WI,3.3715441672285906
53530,Lafayette County,WI,90.55967633175995
53534,Rock County,WI,42.61631827376939
53536,Rock County,WI,90.8968307484828
53551,Jefferson County,WI,65.0708024275118
53558,Dane County,WI,75.118004045853
53597,Dane County,WI,89.88536749831422
53703,Dane County,WI,83.9514497639919
53704,Dane County,WI,63.182737693863785
54015,St. Croix County,WI,92.85232636547539
54017,St. Croix County,WI,64.66621712744437
54302,Brown County,WI,60.822656776803775
54451,Taylor County,WI,87.92987188132165
54720,Eau Claire County,WI,79.83816587997303
54904,Winnebago County,WI,53.47269049224545
54915,Outagamie County,WI,24.54484153742414
