ZipCode,county,state,Youth,Adult,Retirement,Geriatric
35007,Shelby County,AL,71.57894736842105,NA,NA,54.41176470588235
35016,Marshall County,AL,NA,43.08510638297872,NA,NA
35022,Jefferson County,AL,NA,60.195035460992905,NA,NA
35023,Jefferson County,AL,NA,52.659574468085104,NA,NA
35058,Cullman County,AL,NA,NA,65.60319042871386,NA
35080,Shelby County,AL,NA,85.37234042553192,63.01096709870389,NA
35121,Blount County,AL,NA,NA,70.38883349950149,NA
35133,Blount County,AL,NA,93.88297872340425,NA,NA
35150,Talladega County,AL,38.94736842105263,61.25886524822695,NA,NA
35173,Jefferson County,AL,NA,39.273049645390074,62.91126620139581,NA
35208,Jefferson County,AL,57.89473684210527,NA,63.90827517447657,NA
35211,Jefferson County,AL,NA,NA,66.79960119641076,NA
35226,Jefferson County,AL,NA,37.5,74.97507477567298,NA
35242,Shelby County,AL,NA,NA,9.371884346959122,NA
35401,Tuscaloosa County,AL,NA,NA,14.65603190428714,NA
35406,Tuscaloosa County,AL,NA,NA,68.59421734795613,NA
35503,Walker County,AL,88.42105263157895,NA,NA,NA
35601,Morgan County,AL,NA,NA,NA,53.57142857142857
35761,Madison County,AL,NA,64.8936170212766,NA,NA
35801,Madison County,AL,NA,59.21985815602837,NA,32.983193277310924
35901,Etowah County,AL,NA,25.79787234042553,NA,NA
35903,Etowah County,AL,NA,NA,70.48853439680957,NA
35950,Marshall County,AL,NA,NA,75.17447657028913,NA
35954,Etowah County,AL,NA,49.11347517730496,NA,NA
35983,Cherokee County,AL,NA,96.98581560283688,NA,NA
36037,Butler County,AL,NA,46.98581560283688,NA,NA
36066,Autauga County,AL,NA,71.09929078014184,NA,NA
36092,Elmore County,AL,NA,34.840425531914896,NA,NA
36106,Montgomery County,AL,NA,74.46808510638297,NA,NA
36110,Montgomery County,AL,NA,NA,76.76969092721835,NA
36116,Montgomery County,AL,NA,12.588652482269502,NA,NA
36201,Calhoun County,AL,NA,NA,39.38185443668993,NA
36206,Calhoun County,AL,NA,NA,96.51046859421734,NA
36265,Calhoun County,AL,NA,42.819148936170215,NA,NA
36303,Houston County,AL,NA,14.9822695035461,NA,NA
36310,Henry County,AL,NA,NA,NA,79.41176470588235
36426,Escambia County,AL,NA,NA,NA,57.14285714285714
36526,Baldwin County,AL,NA,40.51418439716312,NA,NA
36605,Mobile County,AL,NA,NA,39.38185443668993,NA
36695,Mobile County,AL,22.105263157894736,NA,NA,NA
36804,Lee County,AL,NA,96.36524822695036,NA,NA
99507,Anchorage Municipality,AK,NA,NA,40.07976071784646,NA
99515,Anchorage Municipality,AK,NA,56.47163120567376,NA,NA
99623,,AK,NA,72.69503546099291,NA,NA
99669,Kenai Peninsula Borough,AK,NA,61.702127659574465,NA,NA
99701,Fairbanks North Star Borough,AK,NA,NA,NA,71.42857142857143
99705,Fairbanks North Star Borough,AK,NA,NA,NA,97.89915966386555
85006,Maricopa County,AZ,NA,32.09219858156028,NA,NA
85007,Maricopa County,AZ,NA,NA,25.22432701894317,NA
85016,Maricopa County,AZ,NA,63.20921985815603,NA,NA
85021,Maricopa County,AZ,17.36842105263158,NA,NA,NA
85027,Maricopa County,AZ,NA,NA,NA,58.40336134453782
85035,Maricopa County,AZ,NA,36.347517730496456,NA,NA
85050,Maricopa County,AZ,NA,44.769503546099294,NA,NA
85086,Maricopa County,AZ,17.894736842105264,NA,NA,NA
85122,Pinal County,AZ,NA,42.28723404255319,NA,NA
85142,Maricopa County,AZ,5.263157894736842,NA,NA,NA
85201,Maricopa County,AZ,NA,NA,NA,73.52941176470588
85204,Maricopa County,AZ,NA,NA,21.335992023928217,NA
85248,Maricopa County,AZ,NA,84.57446808510637,NA,NA
85249,Maricopa County,AZ,NA,NA,28.215353938185444,NA
85254,Maricopa County,AZ,NA,NA,NA,79.62184873949579
85257,Maricopa County,AZ,NA,NA,NA,32.773109243697476
85266,Maricopa County,AZ,NA,99.822695035461,NA,NA
85323,Maricopa County,AZ,NA,NA,71.88434695912264,NA
85331,Maricopa County,AZ,NA,NA,71.5852442671984,NA
85364,Yuma County,AZ,NA,NA,34.19740777666999,NA
85375,Maricopa County,AZ,NA,NA,NA,1.2605042016806722
85379,Maricopa County,AZ,NA,NA,NA,70.37815126050421
85383,Maricopa County,AZ,NA,NA,59.920239282153545,NA
85395,Maricopa County,AZ,NA,NA,NA,56.09243697478992
85396,Maricopa County,AZ,NA,NA,45.86241276171486,NA
85653,Pima County,AZ,NA,97.6063829787234,NA,NA
85706,Pima County,AZ,NA,NA,6.580259222333002,NA
85711,Pima County,AZ,NA,NA,10.16949152542373,NA
85714,Pima County,AZ,NA,NA,75.47357926221336,NA
85715,Pima County,AZ,NA,68.61702127659575,47.65702891326022,NA
85718,Pima County,AZ,NA,NA,14.456630109670987,NA
85719,Pima County,AZ,NA,85.28368794326241,NA,NA
85739,Pinal County,AZ,NA,54.43262411347518,21.23629112662014,21.428571428571427
85741,Pima County,AZ,NA,23.581560283687946,NA,NA
85747,Pima County,AZ,NA,59.21985815602837,NA,NA
85748,Pima County,AZ,NA,NA,83.74875373878365,NA
85750,Pima County,AZ,NA,NA,69.49152542372882,NA
85755,Pima County,AZ,NA,NA,NA,71.42857142857143
86001,Coconino County,AZ,NA,93.70567375886525,NA,NA
86045,Coconino County,AZ,NA,NA,NA,86.76470588235294
86324,Yavapai County,AZ,NA,85.99290780141844,NA,NA
86336,Yavapai County,AZ,NA,88.918439716312065,NA,NA
86351,Yavapai County,AZ,NA,98.22695035460993,NA,NA
71603,Jefferson County,AR,NA,NA,NA,21.638655462184875
71701,Ouachita County,AR,NA,NA,44.06779661016949,NA
71753,Columbia County,AR,NA,79.69858156028369,NA,NA
71901,Garland County,AR,NA,NA,NA,30.88235294117647
72116,Pulaski County,AR,NA,NA,97.80658025922233,NA
72204,Pulaski County,AR,NA,NA,NA,32.563025210084035
72212,Pulaski County,AR,NA,NA,88.43469591226321,NA
72450,Greene County,AR,NA,11.52482269503546,NA,NA
72601,Boone County,AR,NA,NA,24.02791625124626,NA
72712,Benton County,AR,NA,NA,31.106679960119642,NA
72715,Benton County,AR,83.6842105263158,NA,NA,NA
72753,Washington County,AR,NA,96.63120567375887,NA,NA
72761,Benton County,AR,61.05263157894737,NA,NA,NA
72764,Washington County,AR,NA,81.82624113475178,NA,NA
72949,Franklin County,AR,NA,NA,NA,62.81512605042017
72956,Crawford County,AR,NA,NA,NA,79.83193277310924
90001,Los Angeles County,CA,NA,35.54964539007092,NA,NA
90011,Los Angeles County,CA,NA,NA,35.3938185443669,NA
90014,Los Angeles County,CA,NA,80.0531914893617,NA,NA
90019,Los Angeles County,CA,NA,83.15602836879432,NA,NA
90023,Los Angeles County,CA,NA,NA,46.959122632103686,NA
90026,Los Angeles County,CA,NA,66.22340425531915,NA,NA
90027,Los Angeles County,CA,NA,NA,NA,15.966386554621847
90045,Los Angeles County,CA,NA,NA,NA,34.03361344537815
90049,Los Angeles County,CA,NA,68.43971631205675,NA,NA
90063,Los Angeles County,CA,NA,NA,34.19740777666999,NA
90066,Los Angeles County,CA,NA,NA,24.626121635094716,NA
90210,Los Angeles County,CA,63.1578947368421,NA,NA,NA
90248,Los Angeles County,CA,NA,NA,87.13858424725822,NA
90260,Los Angeles County,CA,NA,85.63829787234043,NA,NA
90274,Los Angeles County,CA,NA,NA,NA,35.08403361344538
90280,Los Angeles County,CA,NA,22.78368794326241,NA,NA
90292,Los Angeles County,CA,NA,62.85460992907801,NA,NA
90403,Los Angeles County,CA,NA,NA,82.65204386839483,NA
90404,Los Angeles County,CA,NA,NA,46.360917248255234,NA
90405,Los Angeles County,CA,NA,NA,73.37986041874377,NA
90602,Los Angeles County,CA,NA,NA,47.85643070787637,NA
90603,Los Angeles County,CA,NA,87.322695035461,NA,NA
90606,Los Angeles County,CA,95.26315789473684,NA,NA,NA
90621,Orange County,CA,NA,74.29078014184397,NA,NA
90630,Orange County,CA,NA,36.96808510638298,NA,NA
90640,Los Angeles County,CA,26.842105263157894,NA,22.43270189431705,NA
90660,Los Angeles County,CA,27.89473684210526,NA,NA,NA
90703,Los Angeles County,CA,NA,50.70921985815603,NA,NA
90706,Los Angeles County,CA,NA,16.578014184397162,NA,NA
90712,Los Angeles County,CA,NA,NA,39.0827517447657,NA
90713,Los Angeles County,CA,32.10526315789474,NA,NA,NA
90717,Los Angeles County,CA,NA,NA,NA,46.42857142857143
90731,Los Angeles County,CA,NA,NA,20.03988035892323,NA
90805,Los Angeles County,CA,NA,10.549645390070921,NA,NA
90807,Los Angeles County,CA,NA,NA,46.75972083748754,NA
90808,Los Angeles County,CA,NA,NA,31.904287138584248,NA
91001,Los Angeles County,CA,NA,74.11347517730496,60.219341974077764,NA
91007,Los Angeles County,CA,NA,NA,NA,38.445378151260506
91010,Los Angeles County,CA,NA,NA,78.76370887337985,NA
91011,Los Angeles County,CA,NA,98.67021276595744,NA,NA
91016,Los Angeles County,CA,NA,47.87234042553192,NA,NA
91202,Los Angeles County,CA,NA,NA,NA,23.52941176470588
91206,Los Angeles County,CA,NA,NA,43.96809571286141,NA
91311,Los Angeles County,CA,40,NA,NA,NA
91335,Los Angeles County,CA,NA,NA,NA,34.87394957983193
91360,Ventura County,CA,NA,NA,69.69092721834497,NA
91362,Ventura County,CA,NA,54.96453900709219,NA,NA
91364,Los Angeles County,CA,NA,NA,83.25024925224326,NA
91387,Los Angeles County,CA,NA,34.39716312056738,NA,NA
91401,Los Angeles County,CA,NA,NA,NA,74.36974789915966
91505,Los Angeles County,CA,NA,62.322695035460995,NA,NA
91604,Los Angeles County,CA,NA,96.45390070921985,NA,NA
91606,Los Angeles County,CA,72.63157894736842,NA,NA,NA
91710,San Bernardino County,CA,NA,27.482269503546096,84.24725822532403,NA
91737,San Bernardino County,CA,NA,NA,45.2642073778664,69.9579831932773
91739,San Bernardino County,CA,NA,NA,87.6370887337986,NA
91745,Los Angeles County,CA,NA,94.8581560283688,NA,NA
91748,Los Angeles County,CA,NA,NA,49.35194416749751,NA
91945,San Diego County,CA,NA,NA,59.12263210368893,NA
91950,San Diego County,CA,NA,NA,NA,13.865546218487395
92011,San Diego County,CA,NA,NA,52.94117647058824,NA
92020,San Diego County,CA,NA,13.297872340425531,28.015952143569294,NA
92037,San Diego County,CA,NA,NA,70.18943170488534,NA
92056,San Diego County,CA,NA,NA,25.124626121635096,NA
92064,San Diego County,CA,NA,39.00709219858156,NA,NA
92067,San Diego County,CA,NA,95.83333333333334,NA,NA
92114,San Diego County,CA,NA,NA,51.64506480558325,NA
92130,San Diego County,CA,NA,NA,86.54037886340977,NA
92131,San Diego County,CA,NA,82.62411347517731,NA,NA
92201,Riverside County,CA,NA,62.943262411347526,NA,NA
92203,Riverside County,CA,NA,NA,NA,26.260504201680675
92223,Riverside County,CA,NA,51.684397163120565,NA,36.134453781512605
92236,Riverside County,CA,NA,78.63475177304964,NA,NA
92262,Riverside County,CA,NA,12.677304964539008,NA,NA
92270,Riverside County,CA,NA,NA,60.817547357926216,NA
92354,San Bernardino County,CA,47.368421052631575,NA,NA,47.689075630252105
92359,San Bernardino County,CA,NA,96.80851063829788,NA,NA
92373,San Bernardino County,CA,NA,NA,NA,36.97478991596639
92374,San Bernardino County,CA,NA,NA,78.36490528414755,NA
92503,Riverside County,CA,NA,41.04609929078014,NA,NA
92508,Riverside County,CA,NA,72.69503546099291,NA,NA
92530,Riverside County,CA,NA,25.886524822695034,NA,NA
92563,Riverside County,CA,NA,24.29078014184397,NA,NA
92584,Riverside County,CA,NA,NA,47.25822532402791,NA
92587,Riverside County,CA,NA,NA,90.42871385842473,NA
92618,Orange County,CA,87.36842105263159,NA,NA,NA
92637,Orange County,CA,NA,NA,NA,64.70588235294117
92646,Orange County,CA,28.947368421052634,NA,NA,NA
92649,Orange County,CA,NA,45.39007092198582,NA,58.19327731092437
92656,Orange County,CA,NA,25.088652482269502,68.89332003988035,89.07563025210085
92672,Orange County,CA,NA,92.37588652482269,NA,NA
92675,Orange County,CA,NA,NA,34.59621136590229,NA
92801,Orange County,CA,NA,55.49645390070922,NA,NA
92802,Orange County,CA,64.21052631578948,NA,NA,NA
92804,Orange County,CA,NA,NA,NA,49.36974789915966
92844,Orange County,CA,NA,NA,62.71186440677966,NA
92866,Orange County,CA,70,NA,NA,NA
92867,Orange County,CA,NA,NA,73.678963110668,NA
92869,Orange County,CA,NA,49.734042553191486,NA,NA
93003,Ventura County,CA,NA,NA,45.363908275174474,NA
93021,Ventura County,CA,NA,85.54964539007092,NA,NA
93033,Ventura County,CA,NA,6.294326241134751,NA,NA
93060,Ventura County,CA,NA,27.21631205673759,NA,NA
93101,Santa Barbara County,CA,NA,NA,76.5702891326022,NA
93117,Santa Barbara County,CA,NA,NA,63.70887337986042,NA
93274,Tulare County,CA,NA,NA,13.758723828514457,NA
93277,Tulare County,CA,NA,16.93262411347518,NA,NA
93307,Kern County,CA,NA,71.89716312056737,NA,NA
93311,Kern County,CA,NA,51.41843971631206,NA,NA
93312,Kern County,CA,36.31578947368421,NA,NA,NA
93405,San Luis Obispo County,CA,NA,NA,NA,63.4453781512605
93420,San Luis Obispo County,CA,NA,NA,80.259222333001,NA
93446,San Luis Obispo County,CA,NA,49.29078014184397,NA,NA
93454,Santa Barbara County,CA,NA,22.163120567375884,NA,NA
93534,Los Angeles County,CA,55.78947368421052,NA,NA,NA
93536,Los Angeles County,CA,NA,33.06737588652482,71.08673978065802,NA
93550,Los Angeles County,CA,NA,7.535460992907801,NA,NA
93560,Kern County,CA,NA,NA,94.11764705882352,NA
93610,Madera County,CA,NA,83.24468085106383,NA,NA
93611,Fresno County,CA,NA,90.24822695035462,NA,47.89915966386555
93619,Fresno County,CA,NA,NA,97.30807577268196,NA
93635,Merced County,CA,NA,NA,67.59720837487538,NA
93636,Madera County,CA,NA,NA,98.70388833499501,NA
93662,Fresno County,CA,NA,NA,58.62412761714856,NA
93703,Fresno County,CA,NA,85.01773049645391,NA,NA
93711,Fresno County,CA,NA,NA,61.415752741774675,NA
93720,Fresno County,CA,NA,71.45390070921985,NA,NA
93723,Fresno County,CA,NA,84.21985815602837,NA,NA
93727,Fresno County,CA,NA,NA,19.04287138584247,NA
93728,Fresno County,CA,NA,86.25886524822694,NA,NA
93923,Monterey County,CA,NA,NA,75.87238285144566,NA
93940,Monterey County,CA,NA,42.10992907801418,NA,NA
93950,Monterey County,CA,NA,NA,NA,48.94957983193277
93955,Monterey County,CA,NA,NA,26.321036889332007,NA
94019,San Mateo County,CA,NA,97.4290780141844,NA,NA
94025,San Mateo County,CA,NA,NA,59.621136590229305,NA
94027,San Mateo County,CA,97.36842105263158,NA,NA,NA
94030,San Mateo County,CA,NA,NA,49.35194416749751,NA
94040,Santa Clara County,CA,NA,NA,66.89930209371884,NA
94041,Santa Clara County,CA,NA,NA,98.00598205383848,NA
94061,San Mateo County,CA,NA,42.641843971631204,72.18344965104686,NA
94107,San Francisco County,CA,NA,NA,53.73878364905285,NA
94110,San Francisco County,CA,NA,NA,6.4805583250249255,NA
94114,San Francisco County,CA,NA,92.2872340425532,NA,NA
94115,San Francisco County,CA,NA,67.81914893617021,NA,NA
94116,San Francisco County,CA,NA,NA,NA,10.714285714285714
94122,San Francisco County,CA,NA,35.99290780141844,NA,3.9915966386554618
94133,San Francisco County,CA,NA,64.62765957446808,NA,NA
94134,San Francisco County,CA,NA,NA,20.538384845463607,NA
94507,Contra Costa County,CA,NA,NA,83.34995014955135,NA
94534,Solano County,CA,NA,NA,33.99800598205383,NA
94546,Alameda County,CA,NA,NA,50.94715852442672,NA
94549,Contra Costa County,CA,NA,89.18439716312056,NA,27.941176470588236
94551,Alameda County,CA,NA,NA,NA,80.88235294117648
94556,Contra Costa County,CA,NA,NA,NA,99.36974789915966
94558,Napa County,CA,NA,NA,NA,74.15966386554622
94566,Alameda County,CA,NA,NA,NA,39.705882352941174
94568,Alameda County,CA,NA,43.262411347517734,NA,NA
94577,Alameda County,CA,NA,27.127659574468083,NA,NA
94578,Alameda County,CA,NA,39.71631205673759,NA,NA
94585,Solano County,CA,NA,NA,85.04486540378863,NA
94587,Alameda County,CA,54.21052631578947,NA,47.158524426719836,NA
94591,Solano County,CA,38.421052631578945,NA,NA,NA
94601,Alameda County,CA,NA,64.53900709219859,NA,NA
94605,Alameda County,CA,NA,NA,17.24825523429711,NA
94702,Alameda County,CA,NA,52.3936170212766,NA,NA
94706,Alameda County,CA,NA,NA,NA,96.63865546218487
94707,Alameda County,CA,NA,95.12411347517731,NA,NA
94901,Marin County,CA,NA,72.25177304964538,NA,NA
94903,Marin County,CA,NA,NA,NA,35.294117647058826
94920,Marin County,CA,NA,NA,NA,98.10924369747899
95032,Santa Clara County,CA,NA,67.10992907801419,NA,NA
95035,Santa Clara County,CA,NA,38.56382978723404,NA,NA
95037,Santa Clara County,CA,NA,NA,25.523429710867397,NA
95051,Santa Clara County,CA,NA,34.39716312056738,NA,NA
95060,Santa Cruz County,CA,NA,NA,38.384845463609174,NA
95062,Santa Cruz County,CA,NA,NA,94.91525423728814,NA
95076,Santa Cruz County,CA,NA,NA,91.42572283150548,NA
95112,Santa Clara County,CA,NA,94.59219858156028,NA,NA
95117,Santa Clara County,CA,NA,64.36170212765957,NA,NA
95119,Santa Clara County,CA,NA,NA,99.00299102691925,NA
95120,Santa Clara County,CA,73.68421052631578,80.31914893617021,NA,NA
95123,Santa Clara County,CA,NA,NA,89.93020937188435,NA
95125,Santa Clara County,CA,NA,36.61347517730496,NA,NA
95138,Santa Clara County,CA,NA,82.5354609929078,NA,NA
95148,Santa Clara County,CA,NA,NA,32.701894317048854,NA
95219,San Joaquin County,CA,NA,NA,87.13858424725822,NA
95220,San Joaquin County,CA,NA,NA,95.71286141575274,NA
95252,Calaveras County,CA,88.94736842105263,NA,NA,NA
95337,San Joaquin County,CA,NA,NA,78.86340977068794,NA
95348,Merced County,CA,NA,55.40780141843972,54.03788634097707,NA
95370,Tuolumne County,CA,NA,NA,2.6919242273180455,NA
95380,Stanislaus County,CA,NA,66.31205673758865,44.76570289132602,NA
95407,Sonoma County,CA,NA,NA,74.47657028913261,NA
95422,Lake County,CA,NA,NA,NA,61.5546218487395
95446,Sonoma County,CA,NA,89.71631205673759,NA,NA
95448,Sonoma County,CA,NA,NA,79.96011964107677,NA
95458,Lake County,CA,NA,NA,99.70089730807578,NA
95476,Sonoma County,CA,NA,NA,NA,92.64705882352942
95482,Mendocino County,CA,NA,NA,19.242273180458625,NA
95490,Mendocino County,CA,NA,NA,NA,73.94957983193278
95503,Humboldt County,CA,67.89473684210526,NA,NA,NA
95519,Humboldt County,CA,NA,62.76595744680851,NA,NA
95521,Humboldt County,CA,94.73684210526315,NA,NA,NA
95603,Placer County,CA,NA,NA,35.99202392821535,NA
95610,Sacramento County,CA,NA,NA,NA,33.61344537815126
95621,Sacramento County,CA,NA,32.71276595744681,NA,NA
95631,Placer County,CA,NA,NA,79.16251246261217,NA
95642,Amador County,CA,NA,NA,NA,90.12605042016807
95667,El Dorado County,CA,NA,NA,3.1904287138584246,NA
95670,Sacramento County,CA,NA,NA,94.71585244267199,NA
95673,Sacramento County,CA,NA,NA,NA,84.87394957983193
95677,Placer County,CA,45.26315789473684,NA,NA,NA
95683,Sacramento County,CA,NA,NA,89.13260219341974,NA
95688,Solano County,CA,NA,79.60992907801419,NA,66.38655462184873
95691,Yolo County,CA,NA,42.819148936170215,NA,NA
95695,Yolo County,CA,NA,NA,72.88135593220339,NA
95726,El Dorado County,CA,NA,NA,NA,89.91596638655463
95765,Placer County,CA,NA,61.347517730496456,NA,NA
95776,Yolo County,CA,78.42105263157895,NA,NA,NA
95826,Sacramento County,CA,NA,91.93262411347519,NA,NA
95901,Yuba County,CA,NA,NA,NA,50.63025210084034
95965,Butte County,CA,NA,NA,22.6321036889332,33.193277310924366
95971,Plumas County,CA,NA,89.8936170212766,NA,NA
95973,Butte County,CA,NA,79.52127659574468,NA,NA
95993,Sutter County,CA,NA,NA,30.209371884346957,NA
96150,El Dorado County,CA,NA,60.0177304964539,NA,NA
80004,Jefferson County,CO,NA,NA,NA,30.252100840336134
80012,Arapahoe County,CO,NA,5.76241134751773,NA,NA
80013,Arapahoe County,CO,NA,NA,16.94915254237288,NA
80015,Arapahoe County,CO,NA,86.52482269503547,NA,NA
80027,Boulder County,CO,NA,NA,71.9840478564307,NA
80108,Douglas County,CO,NA,38.38652482269504,NA,NA
80111,Arapahoe County,CO,NA,60.28368794326241,NA,NA
80121,Arapahoe County,CO,NA,NA,94.2173479561316,NA
80122,Arapahoe County,CO,NA,NA,42.17347956131605,NA
80127,Jefferson County,CO,NA,NA,81.65503489531406,NA
80132,El Paso County,CO,NA,91.13475177304964,NA,NA
80138,Douglas County,CO,NA,42.99645390070922,NA,NA
80203,Denver County,CO,NA,NA,NA,84.66386554621849
80209,Denver County,CO,NA,NA,NA,60.50420168067227
80215,Jefferson County,CO,NA,NA,88.33499501495513,NA
80219,Denver County,CO,NA,NA,47.357926221335994,NA
80224,Denver County,CO,NA,NA,NA,46.21848739495798
80247,Arapahoe County,CO,NA,NA,95.51345962113659,NA
80303,Boulder County,CO,NA,70.65602836879432,98.30508474576271,51.470588235294116
80304,Boulder County,CO,NA,74.91134751773049,NA,NA
80401,Jefferson County,CO,75.26315789473685,NA,NA,NA
80501,Boulder County,CO,NA,70.83333333333334,NA,NA
80513,Larimer County,CO,NA,66.13475177304964,NA,NA
80525,Larimer County,CO,NA,NA,78.06580259222333,NA
80526,Larimer County,CO,NA,58.156028368794324,NA,59.2436974789916
80528,Larimer County,CO,NA,88.38652482269504,NA,NA
80538,Larimer County,CO,NA,NA,89.23230309072781,NA
80550,Weld County,CO,NA,NA,NA,67.85714285714286
80634,Weld County,CO,NA,1.5957446808510638,NA,NA
80723,Morgan County,CO,54.736842105263165,NA,NA,NA
80917,El Paso County,CO,NA,NA,44.36689930209372,NA
80922,El Paso County,CO,NA,45.92198581560284,NA,NA
81301,La Plata County,CO,NA,NA,31.206380857427718,83.61344537815127
81303,La Plata County,CO,NA,NA,78.36490528414755,NA
81401,Montrose County,CO,98.42105263157895,NA,84.94516450648057,NA
81623,Garfield County,CO,NA,NA,96.01196410767697,NA
06010,Hartford County,CT,2.1052631578947367,1.0638297872340425,1.694915254237288,NA
06040,Hartford County,CT,16.842105263157894,NA,NA,NA
06051,Hartford County,CT,NA,2.2163120567375887,NA,NA
06053,Hartford County,CT,NA,5.673758865248227,NA,NA
06071,Tolland County,CT,NA,75.35460992907801,NA,NA
06074,Hartford County,CT,NA,NA,42.073778664007975,23.949579831932773
06082,Hartford County,CT,NA,11.347517730496454,NA,NA
06105,Hartford County,CT,NA,88.82978723404256,NA,NA
06106,Hartford County,CT,NA,NA,55.732801595214355,24.579831932773107
06239,Windham County,CT,NA,26.50709219858156,NA,NA
06260,Windham County,CT,NA,NA,34.49651046859422,NA
06410,New Haven County,CT,NA,NA,32.20338983050847,NA
06415,New London County,CT,NA,44.41489361702128,NA,NA
06450,New Haven County,CT,NA,NA,8.673978065802594,NA
06457,Middlesex County,CT,NA,4.787234042553192,29.212362911266197,NA
06470,Fairfield County,CT,NA,NA,71.68494516450647,NA
06478,New Haven County,CT,NA,NA,78.66400797607179,93.4873949579832
06511,New Haven County,CT,NA,31.028368794326237,NA,NA
06513,New Haven County,CT,NA,43.88297872340425,NA,NA
06514,New Haven County,CT,NA,25.975177304964536,25.02492522432702,NA
06515,New Haven County,CT,NA,51.95035460992907,90.32901296111665,NA
06519,New Haven County,CT,NA,15.24822695035461,NA,NA
06611,Fairfield County,CT,NA,NA,NA,28.15126050420168
06704,New Haven County,CT,NA,NA,NA,36.554621848739494
06705,New Haven County,CT,NA,14.361702127659576,22.033898305084744,NA
06759,Litchfield County,CT,NA,NA,80.45862412761716,NA
06770,New Haven County,CT,NA,15.425531914893616,NA,22.058823529411764
06776,Litchfield County,CT,NA,77.21631205673759,NA,NA
06790,Litchfield County,CT,NA,3.4574468085106385,NA,NA
06804,Fairfield County,CT,NA,62.5886524822695,NA,NA
06810,Fairfield County,CT,NA,9.308510638297872,NA,NA
06811,Fairfield County,CT,NA,NA,69.0927218344965,NA
06854,Fairfield County,CT,32.631578947368425,NA,NA,NA
06897,Fairfield County,CT,NA,NA,65.90229312063809,NA
06902,Fairfield County,CT,NA,NA,NA,3.571428571428571
19702,New Castle County,DE,NA,NA,72.58225324027916,NA
19707,New Castle County,DE,NA,NA,NA,38.02521008403361
19711,New Castle County,DE,NA,22.25177304964539,NA,NA
19720,New Castle County,DE,NA,NA,2.0937188434695915,NA
19808,New Castle County,DE,NA,NA,16.151545363908276,6.092436974789916
19809,New Castle County,DE,NA,NA,NA,93.69747899159664
19901,Kent County,DE,NA,NA,43.66899302093719,NA
19933,Sussex County,DE,NA,58.51063829787234,NA,NA
19934,Kent County,DE,NA,61.08156028368794,NA,NA
19952,Kent County,DE,NA,NA,85.84247258225324,NA
19958,Sussex County,DE,NA,25,NA,NA
19960,Sussex County,DE,NA,65.86879432624113,NA,NA
19968,Sussex County,DE,NA,NA,NA,82.98319327731093
19973,Sussex County,DE,NA,NA,15.353938185443669,NA
32068,Clay County,FL,NA,NA,29.810568295114653,NA
32082,St. Johns County,FL,NA,47.6063829787234,NA,NA
32092,St. Johns County,FL,84.21052631578947,NA,29.910269192422735,NA
32118,Volusia County,FL,NA,NA,NA,28.361344537815125
32162,Sumter County,FL,NA,NA,0.9970089730807578,NA
32176,Volusia County,FL,NA,82.3581560283688,62.412761714855435,NA
32207,Duval County,FL,NA,10.99290780141844,NA,NA
32225,Duval County,FL,NA,20.212765957446805,NA,13.23529411764706
32226,Duval County,FL,NA,NA,NA,65.75630252100841
32233,Duval County,FL,NA,NA,29.411764705882355,NA
32244,Duval County,FL,NA,17.73049645390071,NA,NA
32258,Duval County,FL,NA,NA,27.218344965104684,NA
32308,Leon County,FL,NA,63.20921985815603,NA,NA
32312,Leon County,FL,NA,NA,46.360917248255234,NA
32344,Jefferson County,FL,NA,84.48581560283688,NA,NA
32405,Bay County,FL,NA,NA,NA,15.756302521008402
32459,Walton County,FL,NA,NA,23.13060817547358,NA
32503,Escambia County,FL,NA,NA,NA,78.57142857142857
32570,Santa Rosa County,FL,NA,NA,NA,34.2436974789916
32615,Alachua County,FL,NA,96.27659574468085,NA,NA
32653,Alachua County,FL,NA,NA,28.614157527417746,NA
32656,Clay County,FL,NA,59.04255319148937,93.12063808574277,NA
32686,Marion County,FL,NA,98.04964539007092,NA,NA
32693,Gilchrist County,FL,NA,97.16312056737588,NA,NA
32707,Seminole County,FL,89.47368421052632,NA,NA,NA
32725,Volusia County,FL,NA,NA,29.611166500498502,NA
32738,Volusia County,FL,NA,58.06737588652482,NA,NA
32746,Seminole County,FL,NA,43.43971631205674,NA,NA
32765,Seminole County,FL,NA,84.13120567375887,31.804586241276173,NA
32780,Brevard County,FL,NA,61.170212765957444,NA,3.1512605042016806
32796,Brevard County,FL,NA,NA,NA,28.991596638655466
32810,Orange County,FL,NA,29.609929078014186,NA,NA
32920,Brevard County,FL,NA,NA,60.817547357926216,NA
32926,Brevard County,FL,NA,NA,NA,16.80672268907563
32931,Brevard County,FL,NA,NA,53.63908275174477,NA
32935,Brevard County,FL,NA,NA,NA,20.588235294117645
32952,Brevard County,FL,NA,NA,NA,16.596638655462183
32963,Indian River County,FL,NA,NA,71.48554336989032,NA
32976,Brevard County,FL,NA,NA,NA,17.857142857142858
33004,Broward County,FL,NA,66.84397163120568,NA,NA
33015,Miami-Dade County,FL,NA,NA,79.56131605184447,NA
33027,Broward County,FL,NA,NA,62.01395812562313,NA
33032,Miami-Dade County,FL,NA,NA,96.21136590229312,NA
33033,Miami-Dade County,FL,NA,NA,41.67497507477567,NA
33040,Monroe County,FL,NA,64.09574468085107,NA,NA
33064,Broward County,FL,NA,NA,61.3160518444666,NA
33065,Broward County,FL,NA,NA,NA,73.10924369747899
33071,Broward County,FL,NA,43.351063829787236,NA,NA
33133,Miami-Dade County,FL,NA,85.81560283687944,NA,NA
33137,Miami-Dade County,FL,NA,70.92198581560284,NA,NA
33162,Miami-Dade County,FL,NA,48.58156028368794,NA,97.26890756302521
33168,Miami-Dade County,FL,NA,93.43971631205675,NA,NA
33173,Miami-Dade County,FL,NA,72.96099290780141,NA,NA
33174,Miami-Dade County,FL,NA,NA,58.0259222333001,NA
33175,Miami-Dade County,FL,NA,45.56737588652482,NA,NA
33176,Miami-Dade County,FL,NA,NA,26.819541375872387,NA
33181,Miami-Dade County,FL,NA,73.75886524822694,NA,NA
33308,Broward County,FL,NA,NA,NA,2.73109243697479
33324,Broward County,FL,NA,57.62411347517731,NA,NA
33418,Palm Beach County,FL,NA,44.32624113475177,NA,NA
33428,Palm Beach County,FL,NA,NA,NA,14.495798319327733
33433,Palm Beach County,FL,NA,NA,NA,14.705882352941178
33436,Palm Beach County,FL,NA,46.54255319148936,NA,NA
33437,Palm Beach County,FL,NA,NA,43.76869391824527,0.21008403361344538
33442,Broward County,FL,NA,NA,59.02293120638086,NA
33446,Palm Beach County,FL,NA,NA,23.728813559322035,NA
33467,Palm Beach County,FL,NA,46.89716312056738,NA,NA
33484,Palm Beach County,FL,NA,NA,NA,1.680672268907563
33486,Palm Beach County,FL,NA,NA,NA,48.529411764705884
33496,Palm Beach County,FL,NA,NA,NA,5.6722689075630255
33510,Hillsborough County,FL,NA,89.62765957446808,NA,NA
33542,Pasco County,FL,38.94736842105263,NA,NA,NA
33558,Hillsborough County,FL,98.94736842105263,NA,NA,NA
33565,Hillsborough County,FL,NA,NA,NA,51.68067226890757
33573,Hillsborough County,FL,NA,NA,NA,2.100840336134454
33596,Hillsborough County,FL,NA,80.23049645390071,NA,NA
33612,Hillsborough County,FL,NA,48.04964539007092,NA,NA
33614,Hillsborough County,FL,NA,NA,80.15952143569292,NA
33617,Hillsborough County,FL,NA,NA,26.520438683948157,NA
33701,Pinellas County,FL,NA,36.43617021276596,NA,NA
33713,Pinellas County,FL,NA,NA,54.93519441674975,NA
33714,Pinellas County,FL,NA,NA,57.32801595214357,NA
33755,Pinellas County,FL,NA,NA,53.040877367896314,NA
33761,Pinellas County,FL,NA,NA,83.64905284147557,NA
33764,Pinellas County,FL,NA,NA,37.08873379860419,NA
33773,Pinellas County,FL,NA,NA,61.11665004985045,NA
33901,Lee County,FL,NA,NA,NA,96.21848739495799
33908,Lee County,FL,NA,NA,23.33000997008973,30.672268907563026
33914,Lee County,FL,NA,30.319148936170215,NA,NA
33917,Lee County,FL,NA,41.40070921985816,NA,NA
33928,Lee County,FL,NA,NA,24.32701894317049,18.277310924369747
33947,Charlotte County,FL,NA,87.677304964539,NA,NA
33952,Charlotte County,FL,NA,NA,25.423728813559322,NA
33967,Lee County,FL,NA,NA,49.55134596211366,NA
33990,Lee County,FL,NA,81.56028368794325,NA,NA
34105,Collier County,FL,NA,NA,NA,35.50420168067227
34110,Collier County,FL,NA,71.63120567375887,NA,NA
34135,Lee County,FL,NA,NA,85.44366899302094,NA
34145,Collier County,FL,NA,NA,NA,94.74789915966386
34201,Manatee County,FL,NA,NA,NA,67.64705882352942
34205,Manatee County,FL,NA,NA,NA,97.05882352941177
34208,Manatee County,FL,NA,18.26241134751773,NA,NA
34219,Manatee County,FL,NA,92.19858156028369,NA,NA
34222,Manatee County,FL,NA,NA,NA,67.22689075630252
34231,Sarasota County,FL,NA,43.52836879432624,41.5752741774676,68.0672268907563
34232,Sarasota County,FL,NA,NA,NA,65.96638655462185
34233,Sarasota County,FL,NA,NA,68.39481555333998,22.899159663865547
34234,Sarasota County,FL,NA,30.407801418439718,NA,76.05042016806722
34235,Sarasota County,FL,NA,NA,NA,81.72268907563026
34236,Sarasota County,FL,NA,NA,NA,70.58823529411765
34239,Sarasota County,FL,NA,NA,NA,36.344537815126046
34240,Sarasota County,FL,NA,NA,NA,95.58823529411765
34243,Manatee County,FL,NA,NA,NA,67.43697478991596
34275,Sarasota County,FL,NA,NA,NA,13.445378151260504
34420,Marion County,FL,NA,NA,51.046859421734794,NA
34475,Marion County,FL,NA,53.10283687943262,NA,NA
34479,Marion County,FL,NA,NA,73.47956131605184,NA
34609,Hernando County,FL,NA,NA,NA,20.3781512605042
34685,Pinellas County,FL,NA,NA,64.80558325024926,NA
34695,Pinellas County,FL,NA,NA,82.35294117647058,41.17647058823529
34698,Pinellas County,FL,NA,71.98581560283688,NA,NA
34711,Lake County,FL,NA,13.829787234042554,NA,NA
34758,Osceola County,FL,14.736842105263156,13.918439716312056,NA,NA
34786,Orange County,FL,44.21052631578947,NA,NA,NA
34950,St. Lucie County,FL,NA,43.17375886524823,NA,NA
34952,St. Lucie County,FL,NA,NA,6.679960119641076,NA
34953,St. Lucie County,FL,NA,3.368794326241135,NA,18.277310924369747
34983,St. Lucie County,FL,NA,13.652482269503546,NA,NA
34990,Martin County,FL,NA,NA,18.64406779661017,NA
34994,Martin County,FL,NA,NA,NA,29.831932773109244
30013,Rockdale County,GA,NA,NA,50.34895314057827,NA
30019,Gwinnett County,GA,NA,29.521276595744684,NA,NA
30038,DeKalb County,GA,11.578947368421053,NA,NA,NA
30041,Forsyth County,GA,NA,NA,NA,84.24369747899159
30082,Cobb County,GA,NA,94.68085106382979,NA,NA
30088,DeKalb County,GA,NA,NA,NA,75.84033613445378
30113,Haralson County,GA,NA,NA,NA,96.00840336134453
30125,Polk County,GA,NA,27.836879432624112,NA,NA
30127,Cobb County,GA,NA,68.88297872340425,23.82851445663011,NA
30135,Douglas County,GA,NA,NA,NA,76.68067226890757
30179,Carroll County,GA,NA,NA,54.536390827517444,NA
30184,Bartow County,GA,NA,NA,85.24426719840478,NA
30233,Butts County,GA,NA,48.58156028368794,NA,NA
30274,Clayton County,GA,NA,30.0531914893617,NA,NA
30281,Henry County,GA,NA,17.99645390070922,NA,NA
30308,Fulton County,GA,NA,65.95744680851064,NA,NA
30340,DeKalb County,GA,NA,74.7340425531915,NA,NA
30417,Evans County,GA,82.10526315789474,NA,NA,NA
30467,Screven County,GA,48.421052631578945,48.847517730496456,NA,NA
30519,Gwinnett County,GA,NA,NA,NA,83.82352941176471
30677,Oconee County,GA,NA,96.71985815602837,NA,NA
30728,Walker County,GA,NA,NA,56.63010967098704,NA
30736,Catoosa County,GA,NA,5.851063829787234,NA,NA
30815,Richmond County,GA,NA,12.411347517730496,NA,NA
30824,McDuffie County,GA,77.89473684210526,NA,NA,NA
30904,Richmond County,GA,NA,25.44326241134752,NA,NA
30906,Richmond County,GA,NA,22.074468085106382,NA,NA
30907,Columbia County,GA,NA,NA,7.976071784646062,NA
31024,Putnam County,GA,NA,46.63120567375886,NA,53.99159663865546
31069,Houston County,GA,NA,NA,68.19541375872383,NA
31211,Bibb County,GA,NA,NA,73.57926221335993,NA
31217,Bibb County,GA,NA,51.77304964539007,NA,NA
31322,Chatham County,GA,93.15789473684211,NA,NA,NA
31406,Chatham County,GA,NA,NA,21.435692921236292,NA
31411,Chatham County,GA,NA,NA,65.20438683948156,NA
31503,Ware County,GA,22.63157894736842,41.93262411347518,NA,NA
31516,Pierce County,GA,NA,NA,57.926221335992025,NA
31545,Wayne County,GA,NA,61.87943262411347,NA,NA
31546,Wayne County,GA,NA,NA,82.85144566301096,NA
31548,Camden County,GA,NA,NA,NA,89.70588235294117
31632,Lowndes County,GA,NA,72.51773049645391,NA,NA
31774,Irwin County,GA,NA,71.71985815602837,NA,NA
31907,Muscogee County,GA,NA,23.49290780141844,NA,NA
39819,Decatur County,GA,NA,NA,87.83649052841476,NA
39842,Terrell County,GA,NA,79.43262411347519,NA,NA
96701,Honolulu County,HI,NA,25.265957446808514,NA,NA
96778,Hawaii County,HI,NA,59.57446808510638,NA,NA
96782,Honolulu County,HI,NA,NA,18.44466600199402,NA
96817,Honolulu County,HI,NA,NA,67.39780658025923,NA
96822,Honolulu County,HI,NA,NA,80.05982053838484,NA
83201,Bannock County,ID,NA,NA,61.814556331006976,NA
83263,Franklin County,ID,NA,NA,79.26221335992024,NA
83338,Jerome County,ID,NA,72.6063829787234,83.05084745762711,NA
83340,Blaine County,ID,NA,NA,NA,98.52941176470588
83402,Bonneville County,ID,0.5263157894736842,NA,35.7926221335992,NA
83442,Jefferson County,ID,NA,NA,85.74277168494517,NA
83501,Nez Perce County,ID,NA,33.77659574468085,NA,NA
83530,Idaho County,ID,NA,89.45035460992908,NA,NA
83544,Clearwater County,ID,NA,NA,84.44666001994018,NA
83607,Canyon County,ID,NA,59.840425531914896,NA,NA
83616,Ada County,ID,NA,NA,95.0149551345962,NA
83634,Ada County,ID,86.8421052631579,NA,NA,NA
83644,Canyon County,ID,NA,NA,41.076769690927215,NA
83651,Canyon County,ID,NA,NA,66.10169491525424,NA
83686,Canyon County,ID,NA,23.93617021276596,NA,NA
83687,Canyon County,ID,NA,13.741134751773048,NA,NA
83702,Ada County,ID,NA,68.79432624113475,NA,NA
83704,Ada County,ID,NA,NA,33.89830508474576,17.22689075630252
83705,Ada County,ID,NA,NA,69.89032901296112,NA
83706,Ada County,ID,NA,NA,NA,61.13445378151261
83713,Ada County,ID,NA,81.47163120567376,88.53439680957128,NA
83815,Kootenai County,ID,NA,NA,NA,42.016806722689076
83835,Kootenai County,ID,NA,NA,27.916251246261215,NA
83843,Latah County,ID,NA,NA,89.3320039880359,NA
83854,Kootenai County,ID,NA,NA,16.450648055832502,NA
60005,Cook County,IL,NA,NA,29.710867397806577,26.05042016806723
60015,Lake County,IL,NA,49.202127659574465,NA,NA
60030,Lake County,IL,NA,32.89007092198582,NA,NA
60046,Lake County,IL,NA,28.723404255319153,NA,NA
60060,Lake County,IL,NA,NA,NA,37.60504201680672
60061,Lake County,IL,NA,NA,39.18245264207378,NA
60062,Cook County,IL,NA,60.63829787234043,NA,NA
60074,Cook County,IL,NA,31.648936170212767,NA,NA
60076,Cook County,IL,NA,NA,17.647058823529413,NA
60077,Cook County,IL,NA,76.06382978723404,NA,80.25210084033614
60084,Lake County,IL,NA,NA,81.25623130608174,NA
60085,Lake County,IL,NA,75.79787234042553,NA,NA
60087,Lake County,IL,NA,57.97872340425532,NA,NA
60090,Cook County,IL,NA,NA,NA,43.48739495798319
60091,Cook County,IL,NA,NA,47.05882352941176,NA
60093,Cook County,IL,42.10526315789473,NA,39.780658025922236,NA
60098,McHenry County,IL,16.315789473684212,NA,NA,NA
60102,McHenry County,IL,NA,NA,32.00398803589232,NA
60115,DeKalb County,IL,NA,NA,70.98703888334995,NA
60120,Kane County,IL,NA,50.0886524822695,NA,NA
60123,Kane County,IL,NA,78.72340425531915,11.665004985044865,NA
60126,DuPage County,IL,NA,57.53546099290781,NA,NA
60130,Cook County,IL,NA,NA,55.23429710867398,NA
60137,DuPage County,IL,NA,NA,NA,11.974789915966387
60142,McHenry County,IL,NA,31.914893617021278,7.7766699900299106,NA
60148,DuPage County,IL,NA,NA,NA,10.504201680672269
60152,McHenry County,IL,NA,67.10992907801419,NA,NA
60153,Cook County,IL,NA,29.343971631205672,NA,NA
60154,Cook County,IL,NA,NA,19.441674975074775,NA
60163,Cook County,IL,NA,NA,99.80059820538385,NA
60164,Cook County,IL,NA,NA,63.609172482552346,NA
60173,Cook County,IL,NA,90.69148936170212,NA,NA
60174,Kane County,IL,NA,65.51418439716312,NA,NA
60185,DuPage County,IL,NA,NA,NA,38.865546218487395
60193,Cook County,IL,NA,75.44326241134752,30.109670987038882,NA
60201,Cook County,IL,NA,NA,65.30408773678963,4.831932773109244
60304,Cook County,IL,NA,47.4290780141844,NA,NA
60402,Cook County,IL,NA,NA,NA,27.521008403361346
60404,Will County,IL,34.21052631578947,NA,NA,NA
60423,Will County,IL,NA,61.52482269503546,NA,NA
60435,Will County,IL,NA,NA,7.377866400797608,NA
60436,Will County,IL,NA,NA,NA,49.78991596638656
60439,Cook County,IL,NA,NA,13.260219341974079,NA
60440,Will County,IL,NA,87.41134751773049,10.667996011964108,NA
60448,Will County,IL,NA,83.33333333333334,NA,NA
60451,Will County,IL,NA,78.01418439716312,NA,NA
60462,Cook County,IL,31.57894736842105,NA,3.8883349950149553,NA
60466,Cook County,IL,NA,NA,72.68195413758724,NA
60467,Cook County,IL,NA,NA,20.33898305084746,NA
60477,Cook County,IL,NA,NA,35.09471585244267,NA
60510,Kane County,IL,NA,81.02836879432624,NA,NA
60513,Cook County,IL,NA,61.96808510638297,NA,NA
60516,DuPage County,IL,NA,35.0177304964539,21.834496510468593,NA
60521,DuPage County,IL,NA,60.54964539007093,NA,NA
60543,Kendall County,IL,NA,57.89007092198582,NA,NA
60544,Will County,IL,NA,58.86524822695035,NA,NA
60564,Will County,IL,15.789473684210526,NA,NA,NA
60586,Will County,IL,NA,53.28014184397163,54.835493519441684,NA
60607,Cook County,IL,NA,38.47517730496454,NA,NA
60611,Cook County,IL,NA,46.187943262411345,87.93619142572282,NA
60614,Cook County,IL,NA,13.47517730496454,NA,NA
60615,Cook County,IL,NA,16.75531914893617,77.96610169491525,NA
60620,Cook County,IL,NA,4.521276595744681,NA,NA
60622,Cook County,IL,NA,27.659574468085108,NA,NA
60625,Cook County,IL,NA,NA,NA,16.80672268907563
60629,Cook County,IL,NA,65.60283687943263,NA,NA
60630,Cook County,IL,NA,NA,8.873379860418744,NA
60631,Cook County,IL,NA,NA,36.989032901296106,NA
60634,Cook County,IL,NA,67.37588652482269,NA,NA
60636,Cook County,IL,NA,NA,20.638085742771686,NA
60647,Cook County,IL,NA,NA,14.855433698903289,NA
60653,Cook County,IL,NA,NA,NA,68.27731092436974
60655,Cook County,IL,NA,20.74468085106383,NA,NA
60657,Cook County,IL,NA,12.5,NA,NA
60707,Cook County,IL,NA,11.879432624113475,7.178464606181456,NA
60914,Kankakee County,IL,72.10526315789474,NA,15.054835493519441,NA
60950,Kankakee County,IL,NA,NA,54.63609172482552,NA
61008,Boone County,IL,NA,NA,14.257228315054835,NA
61021,Lee County,IL,7.368421052631578,NA,NA,18.907563025210084
61065,Boone County,IL,NA,96.54255319148936,NA,NA
61068,Ogle County,IL,NA,57.09219858156028,NA,NA
61072,Winnebago County,IL,NA,86.61347517730496,NA,NA
61081,Whiteside County,IL,NA,69.23758865248227,NA,NA
61114,Winnebago County,IL,NA,NA,57.32801595214357,NA
61342,LaSalle County,IL,NA,80.93971631205675,NA,NA
61350,LaSalle County,IL,NA,68.26241134751773,NA,NA
61356,Bureau County,IL,NA,NA,NA,63.4453781512605
61362,Bureau County,IL,NA,NA,80.35892323030907,NA
61364,LaSalle County,IL,NA,46.27659574468085,NA,34.45378151260504
61401,Knox County,IL,NA,NA,22.333000997008973,NA
61761,McLean County,IL,NA,29.875886524822693,NA,NA
61801,Champaign County,IL,NA,NA,36.78963110667996,NA
61802,Champaign County,IL,NA,52.21631205673759,NA,NA
61821,Champaign County,IL,NA,NA,NA,10.92436974789916
61832,Vermilion County,IL,NA,NA,7.577268195413758,NA
61874,Champaign County,IL,NA,NA,78.96311066799602,NA
61938,Coles County,IL,NA,35.28368794326241,NA,NA
62040,Madison County,IL,NA,12.056737588652481,NA,NA
62230,Clinton County,IL,NA,85.72695035460993,NA,NA
62521,Macon County,IL,NA,NA,6.380857427716849,2.941176470588235
62522,Macon County,IL,NA,NA,40.67796610169492,NA
62615,Sangamon County,IL,NA,NA,97.50747756729811,NA
62650,Morgan County,IL,NA,NA,NA,29.20168067226891
62702,Sangamon County,IL,NA,17.907801418439718,NA,NA
62832,Perry County,IL,NA,76.68439716312056,NA,NA
62881,Marion County,IL,NA,NA,67.59720837487538,NA
62951,Williamson County,IL,NA,NA,89.03290129611166,NA
46012,Madison County,IN,NA,NA,NA,28.57142857142857
46037,Hamilton County,IN,NA,56.205673758865245,NA,NA
46038,Hamilton County,IN,NA,NA,42.273180458624125,NA
46062,Hamilton County,IN,NA,NA,86.34097706879362,NA
46074,Hamilton County,IN,NA,54.78723404255319,NA,NA
46077,Boone County,IN,NA,NA,54.735792622133594,NA
46112,Hendricks County,IN,NA,NA,37.188434695912264,27.310924369747898
46118,Hendricks County,IN,NA,NA,99.40179461615155,NA
46123,Hendricks County,IN,NA,37.5886524822695,NA,NA
46142,Johnson County,IN,81.05263157894737,NA,NA,NA
46143,Johnson County,IN,NA,73.67021276595744,NA,NA
46151,Morgan County,IN,NA,NA,NA,25.630252100840334
46158,Morgan County,IN,NA,NA,21.036889332003987,NA
46168,Hendricks County,IN,NA,NA,83.9481555333998,NA
46173,Rush County,IN,NA,90.33687943262412,NA,NA
46201,Marion County,IN,NA,80.85106382978722,NA,NA
46203,Marion County,IN,NA,NA,NA,24.789915966386555
46208,Marion County,IN,NA,56.294326241134755,NA,NA
46260,Marion County,IN,NA,35.0177304964539,NA,NA
46304,Porter County,IN,NA,NA,13.260219341974079,NA
46307,Lake County,IN,NA,7.446808510638298,11.266201395812562,NA
46324,Lake County,IN,NA,NA,NA,38.23529411764706
46342,Lake County,IN,NA,NA,54.13758723828514,NA
46373,Lake County,IN,NA,68.70567375886525,NA,NA
46385,Porter County,IN,NA,4.698581560283688,2.1934197407776668,NA
46391,LaPorte County,IN,NA,NA,79.76071784646062,NA
46410,Lake County,IN,NA,21.01063829787234,3.489531405782652,NA
46517,Elkhart County,IN,NA,NA,92.82153539381855,NA
46534,Starke County,IN,NA,44.858156028368796,NA,NA
46550,Elkhart County,IN,NA,94.32624113475178,NA,NA
46563,Marshall County,IN,NA,NA,17.846460618145564,NA
46580,Kosciusko County,IN,NA,NA,72.38285144566301,NA
46619,St. Joseph County,IN,NA,NA,NA,64.28571428571429
46703,Steuben County,IN,NA,40.691489361702125,NA,NA
46706,DeKalb County,IN,53.68421052631579,35.195035460992905,NA,NA
46710,Noble County,IN,NA,87.14539007092199,NA,NA
46805,Allen County,IN,NA,NA,NA,68.69747899159664
46806,Allen County,IN,NA,18.79432624113475,NA,NA
46835,Allen County,IN,NA,55.14184397163121,NA,NA
46901,Howard County,IN,NA,1.2411347517730498,3.090727816550349,5.042016806722689
46962,Wabash County,IN,NA,NA,NA,56.09243697478992
46970,Miami County,IN,NA,26.684397163120565,NA,NA
46979,Howard County,IN,NA,77.12765957446808,NA,NA
47119,Floyd County,IN,NA,88.29787234042553,NA,NA
47130,Clark County,IN,NA,5.319148936170213,NA,NA
47150,Floyd County,IN,NA,68.17375886524822,5.682951146560319,NA
47167,Washington County,IN,NA,NA,69.19242273180458,NA
47250,Jefferson County,IN,NA,NA,NA,47.05882352941176
47374,Wayne County,IN,NA,NA,19.14257228315055,NA
47454,Orange County,IN,NA,95.2127659574468,NA,NA
47501,Daviess County,IN,NA,NA,67.098703888335,21.008403361344538
47546,Dubois County,IN,NA,42.5531914893617,NA,NA
47906,Tippecanoe County,IN,NA,72.87234042553192,NA,NA
47987,Fountain County,IN,NA,90.78014184397163,NA,NA
50201,Story County,IA,78.94736842105263,NA,NA,NA
50219,Marion County,IA,NA,NA,71.68494516450647,NA
50322,Polk County,IA,NA,NA,46.16151545363908,NA
50401,Cerro Gordo County,IA,NA,6.471631205673758,NA,11.344537815126051
50441,Franklin County,IA,NA,NA,NA,59.45378151260504
50662,Fayette County,IA,NA,81.11702127659575,NA,NA
51039,Woodbury County,IA,NA,99.46808510638297,NA,NA
51566,Montgomery County,IA,NA,NA,73.77866400797608,NA
52233,Linn County,IA,46.8421052631579,NA,NA,NA
52317,Johnson County,IA,85.26315789473684,NA,NA,NA
52501,Wapello County,IA,NA,7.712765957446808,NA,NA
52531,Monroe County,IA,NA,96.01063829787235,NA,NA
52577,Mahaska County,IA,NA,27.659574468085108,65.30408773678963,19.747899159663866
52732,Clinton County,IA,NA,44.50354609929078,NA,NA
66048,Leavenworth County,KS,NA,23.22695035460993,NA,NA
66203,Johnson County,KS,NA,NA,81.45563310069791,NA
66208,Johnson County,KS,40.526315789473685,NA,38.584247258225325,NA
66221,Johnson County,KS,NA,NA,NA,77.10084033613445
66542,Shawnee County,KS,NA,NA,97.00897308075773,NA
66609,Shawnee County,KS,83.15789473684211,NA,NA,NA
66614,Shawnee County,KS,NA,NA,90.62811565304088,59.03361344537815
66739,Cherokee County,KS,NA,93.52836879432624,NA,NA
66743,Crawford County,KS,NA,NA,82.35294117647058,NA
66762,Crawford County,KS,86.31578947368422,NA,NA,NA
67110,Sedgwick County,KS,NA,96.18794326241135,NA,NA
67206,Sedgwick County,KS,NA,NA,76.9690927218345,NA
67207,Sedgwick County,KS,NA,73.22695035460993,NA,NA
67208,Sedgwick County,KS,NA,69.06028368794325,NA,NA
67217,Sedgwick County,KS,NA,42.4645390070922,NA,NA
67550,Pawnee County,KS,NA,NA,NA,61.34453781512605
67601,Ellis County,KS,NA,NA,43.17048853439681,NA
67846,Finney County,KS,NA,NA,16.550348953140578,NA
67871,Scott County,KS,NA,NA,55.43369890329013,NA
67901,Seward County,KS,NA,NA,63.21036889332004,NA
40014,Oldham County,KY,34.73684210526316,59.39716312056738,NA,NA
40047,Bullitt County,KY,NA,21.27659574468085,NA,NA
40165,Bullitt County,KY,NA,NA,70.68793619142572,NA
40207,Jefferson County,KY,NA,NA,25.822532402791627,NA
40214,Jefferson County,KY,NA,20.47872340425532,NA,NA
40243,Jefferson County,KY,75.78947368421053,NA,NA,NA
40291,Jefferson County,KY,NA,NA,13.160518444666003,NA
40403,Madison County,KY,NA,NA,30.608175473579262,NA
40508,Fayette County,KY,NA,25.177304964539005,NA,NA
40513,Fayette County,KY,NA,NA,97.20837487537388,NA
40977,Bell County,KY,NA,43.61702127659575,NA,NA
41001,Campbell County,KY,80.52631578947368,NA,NA,NA
41011,Kenton County,KY,NA,63.829787234042556,NA,NA
41017,Kenton County,KY,NA,NA,91.12662013958126,NA
41091,Boone County,KY,NA,NA,56.03190428713859,NA
41144,Greenup County,KY,NA,NA,42.77168494516451,NA
42041,Fulton County,KY,NA,NA,95.11465603190429,NA
42141,Barren County,KY,NA,NA,NA,8.61344537815126
42301,Daviess County,KY,NA,26.418439716312058,NA,NA
42345,Muhlenberg County,KY,NA,44.59219858156028,NA,NA
42633,Wayne County,KY,NA,70.39007092198581,NA,NA
42718,Taylor County,KY,NA,NA,70.88733798604187,NA
70003,Jefferson Parish,LA,NA,NA,NA,47.47899159663865
70005,Jefferson Parish,LA,NA,NA,48.753738783649055,NA
70006,Jefferson Parish,LA,NA,NA,65.70289132602194,NA
70056,Jefferson Parish,LA,NA,NA,NA,21.84873949579832
70065,Jefferson Parish,LA,NA,NA,30.309072781655033,NA
70068,St. John the Baptist Parish,LA,NA,NA,NA,53.36134453781513
70094,Jefferson Parish,LA,NA,2.925531914893617,39.28215353938185,NA
70116,Orleans Parish,LA,NA,NA,NA,94.11764705882352
70118,Orleans Parish,LA,NA,NA,NA,93.27731092436974
70121,Jefferson Parish,LA,NA,NA,NA,99.15966386554622
70125,Orleans Parish,LA,10,NA,NA,NA
70131,Orleans Parish,LA,NA,89.36170212765957,NA,NA
70344,Terrebonne Parish,LA,NA,NA,92.92123629112662,NA
70403,Tangipahoa Parish,LA,NA,NA,NA,22.478991596638657
70431,St. Tammany Parish,LA,NA,NA,60.11964107676969,NA
70448,St. Tammany Parish,LA,NA,28.900709219858157,NA,NA
70471,St. Tammany Parish,LA,NA,NA,15.553339980059821,NA
70501,Lafayette Parish,LA,NA,NA,67.79661016949152,NA
70507,Lafayette Parish,LA,NA,NA,NA,68.4873949579832
70518,Lafayette Parish,LA,NA,92.73049645390071,NA,NA
70563,Iberia Parish,LA,NA,NA,51.844466600199404,NA
70586,Evangeline Parish,LA,NA,9.219858156028367,NA,NA
70601,Calcasieu Parish,LA,NA,NA,6.281156530408774,NA
70611,Calcasieu Parish,LA,NA,20.124113475177303,NA,NA
70647,Calcasieu Parish,LA,NA,34.308510638297875,NA,NA
70663,Calcasieu Parish,LA,NA,NA,NA,65.12605042016807
70722,East Feliciana Parish,LA,NA,68.08510638297872,NA,NA
70737,Ascension Parish,LA,NA,4.166666666666666,NA,NA
70739,East Baton Rouge Parish,LA,NA,94.9468085106383,NA,NA
70767,West Baton Rouge Parish,LA,NA,NA,57.128614157527416,NA
70785,Livingston Parish,LA,NA,NA,90.22931206380858,NA
70805,East Baton Rouge Parish,LA,NA,10.372340425531915,NA,NA
70811,East Baton Rouge Parish,LA,NA,76.50709219858156,NA,NA
70815,East Baton Rouge Parish,LA,NA,9.131205673758865,NA,NA
70817,East Baton Rouge Parish,LA,NA,NA,38.983050847457626,NA
71006,Bossier Parish,LA,NA,NA,58.82352941176471,NA
71055,Webster Parish,LA,NA,NA,NA,44.537815126050425
71109,Caddo Parish,LA,4.2105263157894735,NA,NA,NA
71118,Caddo Parish,LA,13.684210526315791,NA,NA,NA
71225,Ouachita Parish,LA,NA,93.61702127659575,NA,NA
71280,Ouachita Parish,LA,71.05263157894737,NA,NA,NA
71295,Franklin Parish,LA,NA,11.081560283687942,NA,NA
71360,Rapides Parish,LA,NA,48.49290780141844,NA,NA
03902,York County,ME,NA,NA,96.80957128614158,NA
04009,Cumberland County,ME,NA,NA,40.37886340977069,NA
04072,York County,ME,85.78947368421052,NA,NA,NA
04079,Cumberland County,ME,NA,NA,NA,98.73949579831933
04092,Cumberland County,ME,NA,NA,NA,36.76470588235294
04093,York County,ME,NA,NA,NA,94.32773109243698
04106,Cumberland County,ME,NA,26.063829787234045,27.018943170488534,NA
04240,Androscoggin County,ME,NA,NA,1.3958125623130608,NA
04268,Oxford County,ME,NA,NA,NA,69.32773109243698
04282,Androscoggin County,ME,NA,75.177304964539,NA,NA
04364,Kennebec County,ME,NA,73.84751773049646,NA,NA
04462,Penobscot County,ME,NA,NA,72.38285144566301,NA
04468,Penobscot County,ME,NA,NA,NA,97.68907563025209
04572,Lincoln County,ME,NA,57.00354609929078,NA,NA
04605,Hancock County,ME,NA,NA,NA,47.05882352941176
04730,Aroostook County,ME,NA,NA,37.587238285144565,NA
04769,Aroostook County,ME,NA,NA,33.59920239282154,82.77310924369748
04917,Kennebec County,ME,NA,NA,81.55533399800599,NA
04967,Somerset County,ME,NA,87.85460992907801,NA,NA
04976,Somerset County,ME,NA,9.48581560283688,NA,NA
20639,Calvert County,MD,NA,98.31560283687944,NA,NA
20716,Prince George's County,MD,NA,NA,76.07178464606181,NA
20735,Prince George's County,MD,NA,NA,56.43070787637089,NA
20754,Calvert County,MD,NA,NA,93.51944167497508,NA
20772,Prince George's County,MD,NA,67.73049645390071,NA,NA
20854,Montgomery County,MD,NA,NA,89.53140578265204,NA
20872,Montgomery County,MD,78.94736842105263,NA,NA,NA
20874,Montgomery County,MD,NA,65.42553191489363,NA,NA
20902,Montgomery County,MD,NA,NA,51.24626121635095,NA
21030,Baltimore County,MD,NA,NA,93.61914257228315,NA
21035,Anne Arundel County,MD,NA,85.90425531914893,86.4406779661017,NA
21044,Howard County,MD,NA,38.297872340425535,NA,55.04201680672269
21045,Howard County,MD,NA,37.765957446808514,NA,NA
21085,Harford County,MD,NA,NA,95.81256231306082,NA
21117,Baltimore County,MD,60.526315789473685,NA,NA,NA
21133,Baltimore County,MD,NA,NA,39.88035892323031,63.86554621848739
21202,Baltimore city,MD,NA,31.560283687943265,NA,NA
21210,Baltimore city,MD,NA,84.9290780141844,NA,NA
21211,Baltimore city,MD,NA,62.056737588652474,NA,NA
21212,Baltimore city,MD,NA,NA,NA,87.18487394957984
21222,Baltimore County,MD,NA,14.893617021276595,NA,NA
21229,Baltimore city,MD,NA,10.815602836879433,NA,NA
21234,Baltimore County,MD,NA,86.081560283687935,NA,NA
21237,Baltimore County,MD,NA,71.36524822695036,NA,NA
21666,Queen Anne's County,MD,NA,86.96808510638297,NA,NA
21919,Cecil County,MD,NA,NA,99.6011964107677,NA
21921,Cecil County,MD,NA,8.51063829787234,24.52642073778664,62.60504201680672
01040,Hampden County,MA,NA,62.14539007092199,NA,NA
01085,Hampden County,MA,NA,NA,0.897308075772682,NA
01089,Hampden County,MA,NA,NA,NA,90.54621848739495
01095,Hampden County,MA,NA,64.62765957446808,NA,NA
01104,Hampden County,MA,NA,16.312056737588655,NA,NA
01108,Hampden County,MA,NA,0.7978723404255319,NA,NA
01201,Berkshire County,MA,NA,NA,NA,0.6302521008403361
01240,Berkshire County,MA,NA,NA,88.23529411764706,NA
01247,Berkshire County,MA,NA,NA,NA,19.327731092436977
01370,Franklin County,MA,NA,99.29078014184397,NA,NA
01450,Middlesex County,MA,62.63157894736842,NA,NA,NA
01501,Worcester County,MA,NA,NA,81.0568295114656,NA
01532,Worcester County,MA,NA,37.145390070921984,NA,NA
01550,Worcester County,MA,NA,11.790780141843973,NA,NA
01570,Worcester County,MA,NA,NA,17.94616151545364,NA
01581,Worcester County,MA,NA,NA,98.60418743768695,NA
01583,Worcester County,MA,NA,NA,NA,84.87394957983193
01602,Worcester County,MA,NA,NA,45.66301096709871,20.798319327731093
01604,Worcester County,MA,NA,NA,52.043868394815554,NA
01701,Middlesex County,MA,NA,NA,NA,6.932773109243698
01721,Middlesex County,MA,NA,NA,NA,99.78991596638656
01746,Middlesex County,MA,NA,NA,NA,46.008403361344534
01748,Middlesex County,MA,NA,33.42198581560284,NA,NA
01756,Worcester County,MA,NA,NA,86.839481555334,NA
01757,Worcester County,MA,NA,NA,22.532402791625124,NA
01801,Middlesex County,MA,NA,24.822695035460992,NA,NA
01810,Essex County,MA,NA,7.358156028368794,NA,15.126050420168067
01821,Middlesex County,MA,NA,15.514184397163119,NA,NA
01824,Middlesex County,MA,NA,NA,NA,6.722689075630252
01826,Middlesex County,MA,13.157894736842104,2.4822695035460995,NA,NA
01835,Essex County,MA,NA,NA,46.26121635094716,NA
01844,Essex County,MA,NA,0.5319148936170213,NA,NA
01852,Middlesex County,MA,NA,NA,36.88933200398804,17.647058823529413
01867,Middlesex County,MA,NA,19.148936170212767,NA,NA
01880,Middlesex County,MA,NA,4.343971631205674,NA,NA
01886,Middlesex County,MA,NA,14.27304964539007,NA,NA
01887,Middlesex County,MA,NA,NA,1.5952143569292123,NA
01890,Middlesex County,MA,NA,78.45744680851064,NA,NA
01905,Essex County,MA,NA,27.925531914893615,NA,NA
01913,Essex County,MA,NA,NA,6.979062811565304,NA
01915,Essex County,MA,NA,NA,0.29910269192422734,NA
01930,Essex County,MA,NA,50,NA,5.88235294117647
01945,Essex County,MA,NA,30.76241134751773,62.811565304087736,NA
01950,Essex County,MA,NA,NA,18.344965104685944,NA
01952,Essex County,MA,NA,NA,47.557328015952145,NA
01960,Essex County,MA,NA,NA,24.825523429710866,NA
01982,Essex County,MA,NA,NA,96.90927218344964,NA
01985,Essex County,MA,NA,88.12056737588652,NA,NA
02019,Norfolk County,MA,NA,NA,29.01296111665005,NA
02026,Norfolk County,MA,NA,NA,11.56530408773679,NA
02030,Norfolk County,MA,NA,97.96099290780141,NA,NA
02053,Norfolk County,MA,56.84210526315789,NA,NA,NA
02054,Norfolk County,MA,NA,83.51063829787235,NA,NA
02062,Norfolk County,MA,NA,NA,NA,15.546218487394958
02072,Norfolk County,MA,NA,NA,6.181455633100698,NA
02108,Suffolk County,MA,NA,83.42198581560284,NA,NA
02121,Suffolk County,MA,NA,NA,0.19940179461615154,NA
02122,Suffolk County,MA,NA,15.957446808510639,NA,NA
02128,Suffolk County,MA,NA,NA,NA,3.361344537815126
02138,Middlesex County,MA,NA,NA,NA,66.59663865546219
02140,Middlesex County,MA,NA,36.87943262411347,NA,NA
02149,Middlesex County,MA,NA,NA,16.849451645064807,NA
02150,Suffolk County,MA,1.0526315789473684,NA,NA,NA
02151,Suffolk County,MA,NA,NA,0,NA
02169,Norfolk County,MA,NA,0.08865248226950355,NA,54.20168067226891
02170,Norfolk County,MA,NA,83.77659574468085,NA,NA
02176,Middlesex County,MA,NA,NA,44.26719840478564,NA
02184,Norfolk County,MA,NA,NA,27.81655034895314,NA
02301,Plymouth County,MA,NA,84.39716312056737,NA,NA
02360,Plymouth County,MA,NA,0.3546099290780142,0.09970089730807577,10.92436974789916
02382,Plymouth County,MA,23.684210526315788,NA,NA,NA
02420,Middlesex County,MA,NA,NA,75.3738783649053,NA
02445,Norfolk County,MA,NA,18.70567375886525,NA,NA
02459,Middlesex County,MA,NA,64.18439716312056,NA,NA
02460,Middlesex County,MA,NA,51.329787234042556,NA,NA
02465,Middlesex County,MA,NA,NA,NA,34.66386554621849
02466,Middlesex County,MA,NA,NA,84.04785643070788,NA
02474,Middlesex County,MA,NA,51.41843971631206,NA,NA
02476,Middlesex County,MA,NA,28.01418439716312,NA,32.142857142857146
02536,Barnstable County,MA,NA,NA,55.83250249252243,12.184873949579831
02540,Barnstable County,MA,92.10526315789474,NA,NA,NA
02554,Nantucket County,MA,NA,NA,NA,86.97478991596638
02631,Barnstable County,MA,NA,NA,35.99202392821535,NA
02632,Barnstable County,MA,NA,NA,37.28813559322034,NA
02673,Barnstable County,MA,NA,43.97163120567376,NA,NA
02675,Barnstable County,MA,NA,NA,62.31306081754736,NA
02740,Bristol County,MA,NA,NA,84.64606181455633,0
02744,Bristol County,MA,29.47368421052631,NA,NA,NA
02760,Bristol County,MA,NA,48.138297872340424,NA,NA
02777,Bristol County,MA,NA,22.872340425531913,NA,NA
02790,Bristol County,MA,NA,86.17021276595744,NA,NA
48009,Oakland County,MI,NA,NA,NA,44.11764705882353
48017,Oakland County,MI,NA,70.92198581560284,NA,NA
48034,Oakland County,MI,NA,NA,41.9740777666999,NA
48035,Macomb County,MI,NA,NA,6.879361914257228,NA
48036,Macomb County,MI,NA,NA,68.99302093718843,15.336134453781513
48039,St. Clair County,MI,NA,74.91134751773049,NA,NA
48042,Macomb County,MI,NA,NA,51.54536390827518,NA
48044,Macomb County,MI,NA,4.875886524822695,NA,NA
48045,Macomb County,MI,NA,16.134751773049647,NA,NA
48047,Macomb County,MI,30,NA,10.568295114656031,NA
48048,Macomb County,MI,NA,NA,93.32003988035892,NA
48049,St. Clair County,MI,NA,97.25177304964538,NA,NA
48059,St. Clair County,MI,NA,56.560283687943254,NA,NA
48060,St. Clair County,MI,NA,1.8617021276595744,NA,NA
48066,Macomb County,MI,59.473684210526315,NA,NA,NA
48084,Oakland County,MI,NA,NA,86.04187437686939,75.42016806722688
48092,Macomb County,MI,NA,91.75531914893617,NA,NA
48101,Wayne County,MI,NA,14.627659574468085,NA,NA
48103,Washtenaw County,MI,NA,8.24468085106383,9.970089730807578,1.4705882352941175
48104,Washtenaw County,MI,90.52631578947368,66.40070921985816,26.62013958125623,NA
48105,Washtenaw County,MI,NA,90.95744680851064,NA,NA
48108,Washtenaw County,MI,NA,NA,NA,50.42016806722689
48111,Wayne County,MI,NA,4.078014184397164,NA,NA
48116,Livingston County,MI,NA,19.76950354609929,NA,NA
48118,Washtenaw County,MI,NA,NA,NA,69.32773109243698
48124,Wayne County,MI,NA,41.48936170212766,17.74675972083749,NA
48126,Wayne County,MI,NA,NA,30.408773678963108,NA
48130,Washtenaw County,MI,43.684210526315795,NA,NA,NA
48131,Monroe County,MI,NA,88.74113475177306,NA,NA
48133,Monroe County,MI,NA,NA,77.86640079760718,NA
48134,Wayne County,MI,NA,19.50354609929078,NA,NA
48141,Wayne County,MI,NA,24.20212765957447,NA,NA
48158,Washtenaw County,MI,NA,NA,69.39182452642075,NA
48160,Washtenaw County,MI,NA,NA,45.66301096709871,NA
48162,Monroe County,MI,NA,31.117021276595747,1.9940179461615155,NA
48165,Oakland County,MI,NA,86.79078014184397,NA,NA
48166,Monroe County,MI,25.789473684210527,31.826241134751772,NA,NA
48173,Wayne County,MI,NA,NA,NA,50.84033613445378
48176,Washtenaw County,MI,NA,76.32978723404256,18.743768693918245,NA
48183,Wayne County,MI,NA,5.141843971631205,NA,NA
48188,Wayne County,MI,NA,31.471631205673763,NA,NA
48192,Wayne County,MI,NA,38.91843971631206,NA,NA
48197,Washtenaw County,MI,NA,1.4184397163120568,NA,NA
48198,Washtenaw County,MI,NA,8.865248226950355,NA,NA
48213,Wayne County,MI,NA,NA,19.740777666999005,NA
48214,Wayne County,MI,NA,NA,82.95114656031905,NA
48225,Wayne County,MI,47.89473684210526,NA,NA,NA
48235,Wayne County,MI,NA,1.5070921985815602,NA,NA
48237,Oakland County,MI,NA,12.145390070921986,NA,NA
48306,Oakland County,MI,NA,NA,16.25124626121635,NA
48312,Macomb County,MI,NA,NA,NA,7.563025210084033
48314,Macomb County,MI,NA,NA,28.31505483549352,NA
48316,Macomb County,MI,NA,NA,33.499501495513464,NA
48317,Macomb County,MI,NA,NA,14.755732801595215,NA
48327,Oakland County,MI,NA,23.04964539007092,NA,NA
48328,Oakland County,MI,NA,28.45744680851064,NA,NA
48329,Oakland County,MI,NA,24.379432624113477,NA,NA
48334,Oakland County,MI,NA,NA,NA,75.63025210084034
48362,Oakland County,MI,NA,NA,43.36989032901296,NA
48374,Oakland County,MI,NA,64.00709219858156,NA,87.39495798319328
48375,Oakland County,MI,NA,39.9822695035461,NA,NA
48381,Oakland County,MI,NA,NA,NA,68.90756302521008
48382,Oakland County,MI,21.578947368421055,NA,NA,NA
48390,Oakland County,MI,NA,NA,NA,83.19327731092437
48393,Oakland County,MI,NA,NA,74.37686939182453,NA
48415,Saginaw County,MI,NA,67.99645390070921,NA,NA
48416,Sanilac County,MI,NA,99.02482269503547,NA,NA
48422,Sanilac County,MI,93.6842105263158,NA,NA,NA
48423,Genesee County,MI,NA,22.69503546099291,NA,NA
48430,Genesee County,MI,NA,NA,44.66600199401795,NA
48439,Genesee County,MI,NA,NA,NA,11.554621848739496
48442,Oakland County,MI,NA,NA,37.68693918245265,NA
48473,Genesee County,MI,NA,NA,29.51146560319043,NA
48504,Genesee County,MI,NA,NA,33.300099700897306,NA
48601,Saginaw County,MI,NA,32.4468085106383,NA,NA
48604,Saginaw County,MI,NA,NA,41.47557328015952,NA
48609,Saginaw County,MI,NA,NA,87.6370887337986,NA
48616,Saginaw County,MI,NA,NA,87.53738783649054,NA
48617,Clare County,MI,NA,NA,52.14356929212363,NA
48623,Saginaw County,MI,NA,NA,68.79361914257228,NA
48624,Gladwin County,MI,NA,28.634751773049643,NA,NA
48640,Midland County,MI,NA,NA,10.36889332003988,NA
48642,Midland County,MI,NA,NA,5.483549351944168,NA
48653,Roscommon County,MI,NA,66.04609929078015,NA,NA
48706,Bay County,MI,NA,39.09574468085106,NA,NA
48708,Bay County,MI,NA,NA,5.782652043868395,NA
48723,Tuscola County,MI,NA,50.177304964539005,NA,NA
48820,Clinton County,MI,NA,58.24468085106383,NA,NA
48836,Livingston County,MI,NA,NA,42.273180458624125,NA
48842,Ingham County,MI,NA,28.368794326241137,28.51445663010967,NA
48843,Livingston County,MI,NA,7.00354609929078,20.73778664007976,7.773109243697479
48864,Ingham County,MI,55.26315789473685,NA,NA,NA
48879,Clinton County,MI,NA,39.361702127659576,NA,NA
48883,Isabella County,MI,NA,55.939716312056746,NA,NA
48917,Eaton County,MI,NA,NA,60.51844466600199,10.294117647058822
49002,Kalamazoo County,MI,NA,NA,NA,66.80672268907563
49009,Kalamazoo County,MI,NA,30.939716312056735,NA,53.78151260504202
49014,Calhoun County,MI,NA,39.71631205673759,NA,NA
49021,Eaton County,MI,NA,NA,62.51246261216351,NA
49022,Berrien County,MI,NA,NA,66.60019940179461,NA
49024,Kalamazoo County,MI,NA,18.26241134751773,NA,NA
49036,Branch County,MI,NA,94.23758865248227,18.045862412761714,NA
49037,Calhoun County,MI,NA,53.191489361702125,NA,NA
49048,Kalamazoo County,MI,NA,38.03191489361702,NA,NA
49055,Van Buren County,MI,NA,NA,98.8035892323031,NA
49068,Calhoun County,MI,49.473684210526315,NA,NA,NA
49080,Allegan County,MI,NA,NA,85.54336989032902,NA
49120,Berrien County,MI,NA,NA,NA,14.07563025210084
49203,Jackson County,MI,NA,52.836879432624116,5.284147557328016,NA
49221,Lenawee County,MI,NA,52.304964539007095,NA,NA
49230,Jackson County,MI,NA,NA,NA,55.67226890756303
49240,Jackson County,MI,NA,98.13829787234043,NA,NA
49250,Hillsdale County,MI,NA,67.6418439716312,NA,NA
49286,Lenawee County,MI,NA,NA,35.89232303090728,NA
49307,Mecosta County,MI,NA,NA,48.85343968095713,NA
49315,Kent County,MI,NA,NA,28.11565304087737,NA
49345,Kent County,MI,NA,60.815602836879435,NA,NA
49348,Allegan County,MI,NA,54.52127659574468,NA,NA
49401,Ottawa County,MI,NA,NA,74.8753738783649,NA
49412,Newaygo County,MI,NA,NA,NA,46.63865546218487
49417,Ottawa County,MI,NA,38.12056737588653,NA,NA
49424,Ottawa County,MI,NA,8.687943262411348,34.89531405782652,31.932773109243694
49431,Mason County,MI,NA,71.18794326241135,18.843469591226324,NA
49464,Ottawa County,MI,NA,40.51418439716312,NA,26.89075630252101
49504,Kent County,MI,NA,95.47872340425532,NA,7.352941176470589
49507,Kent County,MI,NA,NA,17.347956131605187,NA
49519,Kent County,MI,NA,10.0177304964539,NA,NA
49548,Kent County,MI,NA,4.609929078014184,NA,NA
49617,Benzie County,MI,NA,NA,90.02991026919243,NA
49677,Osceola County,MI,NA,53.98936170212766,NA,NA
49707,Alpena County,MI,NA,69.14893617021278,93.71884346959123,NA
49712,Charlevoix County,MI,NA,75.62056737588652,NA,NA
49720,Charlevoix County,MI,NA,NA,NA,42.64705882352941
49721,Cheboygan County,MI,NA,NA,75.2741774675972,NA
49749,Cheboygan County,MI,NA,94.14893617021278,NA,NA
49756,Montmorency County,MI,NA,NA,67.99601196410767,NA
49783,Chippewa County,MI,NA,11.96808510638298,NA,NA
49801,Dickinson County,MI,NA,NA,30.009970089730807,NA
49802,Dickinson County,MI,NA,NA,NA,57.35294117647059
49829,Delta County,MI,NA,55.23049645390071,NA,NA
49841,Marquette County,MI,NA,NA,65.0049850448654,NA
49930,Houghton County,MI,NA,92.99645390070921,NA,NA
49953,Ontonagon County,MI,NA,NA,NA,52.3109243697479
55008,Isanti County,MN,NA,NA,96.11166500498504,NA
55009,Goodhue County,MN,NA,NA,47.85643070787637,NA
55021,Rice County,MN,NA,NA,NA,80.0420168067227
55045,Chisago County,MN,NA,NA,84.84546360917248,NA
55076,Dakota County,MN,NA,93.17375886524822,NA,NA
55104,Ramsey County,MN,NA,8.599290780141844,NA,NA
55106,Ramsey County,MN,NA,37.145390070921984,NA,NA
55110,Ramsey County,MN,NA,80.76241134751773,NA,NA
55121,Dakota County,MN,NA,NA,97.10867397806581,NA
55122,Dakota County,MN,NA,NA,51.4456630109671,NA
55123,Dakota County,MN,NA,NA,66.40079760717846,NA
55125,Washington County,MN,NA,30.49645390070922,NA,NA
55303,Anoka County,MN,5.7894736842105265,NA,NA,NA
55311,Hennepin County,MN,NA,NA,94.81555333998006,NA
55320,Wright County,MN,NA,97.07446808510637,NA,NA
55347,Hennepin County,MN,20.526315789473685,NA,NA,NA
55350,McLeod County,MN,NA,NA,54.43668993020937,NA
55356,Hennepin County,MN,93.6842105263158,NA,NA,NA
55369,Hennepin County,MN,9.473684210526317,NA,NA,NA
55396,Sibley County,MN,NA,NA,98.90329012961116,NA
55403,Hennepin County,MN,NA,NA,58.923230309072785,NA
55404,Hennepin County,MN,NA,NA,NA,29.6218487394958
55408,Hennepin County,MN,NA,48.40425531914894,NA,NA
55420,Hennepin County,MN,NA,NA,46.061814556331,NA
55422,Hennepin County,MN,NA,52.3936170212766,NA,NA
55423,Hennepin County,MN,NA,11.436170212765957,NA,NA
55427,Hennepin County,MN,NA,NA,50.847457627118644,NA
55428,Hennepin County,MN,NA,58.333333333333336,NA,NA
55431,Hennepin County,MN,NA,NA,66.6999002991027,NA
55432,Anoka County,MN,NA,14.450354609929079,NA,NA
55449,Anoka County,MN,NA,40.159574468085104,59.421734795613155,NA
55744,Itasca County,MN,NA,NA,4.685942173479561,NA
55746,St. Louis County,MN,NA,NA,NA,24.159663865546218
55792,St. Louis County,MN,NA,27.03900709219858,NA,NA
55807,St. Louis County,MN,NA,37.05673758865248,NA,NA
55906,Olmsted County,MN,NA,59.57446808510638,NA,NA
55912,Mower County,MN,NA,NA,2.7916251246261217,NA
55963,Goodhue County,MN,NA,NA,97.50747756729811,NA
55987,Winona County,MN,NA,NA,16.749750747756732,NA
56001,Blue Earth County,MN,NA,53.812056737588655,NA,NA
56031,Martin County,MN,NA,NA,44.466600199401796,NA
56073,Brown County,MN,NA,13.386524822695037,NA,NA
56187,Nobles County,MN,NA,NA,76.37088733798603,69.11764705882352
56362,Stearns County,MN,NA,NA,NA,44.32773109243697
56401,Crow Wing County,MN,NA,45.21276595744681,NA,NA
56425,Crow Wing County,MN,NA,NA,60.618145563310065,NA
56473,Cass County,MN,NA,97.87234042553192,NA,NA
56482,Wadena County,MN,NA,NA,45.46360917248255,NA
56537,Otter Tail County,MN,NA,NA,49.85044865403789,57.56302521008403
56540,Polk County,MN,84.73684210526315,NA,NA,NA
56544,Becker County,MN,NA,82.18085106382979,NA,NA
56560,Clay County,MN,NA,19.680851063829788,NA,0.8403361344537815
56572,Otter Tail County,MN,NA,98.581560283687935,NA,NA
38637,DeSoto County,MS,NA,NA,NA,55.67226890756303
38652,Union County,MS,NA,64.98226950354609,NA,NA
38701,Washington County,MS,NA,NA,52.841475573280164,NA
38829,Prentiss County,MS,NA,NA,NA,46.84873949579832
38865,Alcorn County,MS,NA,79.69858156028369,92.123629112662,NA
38930,Leflore County,MS,15.263157894736842,NA,NA,NA
38967,Montgomery County,MS,NA,76.86170212765957,NA,NA
39042,Rankin County,MS,NA,NA,22.13359920239282,NA
39046,Madison County,MS,52.10526315789473,NA,NA,92.85714285714286
39051,Leake County,MS,34.73684210526316,NA,NA,NA
39157,Madison County,MS,NA,NA,NA,51.26050420168067
39209,Hinds County,MS,NA,46.01063829787234,NA,NA
39350,Neshoba County,MS,NA,18.173758865248228,NA,NA
39401,Forrest County,MS,NA,NA,73.08075772681954,NA
39482,Lamar County,MS,NA,92.4645390070922,NA,NA
39501,Harrison County,MS,NA,NA,92.6221335992024,NA
39503,Harrison County,MS,NA,27.393617021276594,NA,NA
39507,Harrison County,MS,NA,NA,NA,52.73109243697479
39520,Hancock County,MS,NA,21.631205673758867,NA,NA
39532,Harrison County,MS,NA,33.244680851063826,NA,NA
39540,Harrison County,MS,NA,70.74468085106383,NA,NA
39553,Jackson County,MS,NA,34.21985815602837,NA,NA
39560,Harrison County,MS,NA,NA,NA,12.815126050420167
39562,Jackson County,MS,NA,46.45390070921986,NA,NA
39563,Jackson County,MS,NA,NA,42.871385842472584,NA
39564,Jackson County,MS,NA,NA,23.928215353938185,NA
39654,Lawrence County,MS,NA,NA,95.21435692921236,NA
39744,Webster County,MS,NA,71.27659574468085,NA,NA
63005,St. Louis County,MO,NA,92.10992907801419,64.10767696909272,NA
63010,Jefferson County,MO,NA,NA,20.23928215353938,NA
63012,Jefferson County,MO,NA,NA,77.16849451645065,NA
63017,St. Louis County,MO,NA,NA,NA,1.8907563025210083
63021,St. Louis County,MO,NA,NA,NA,6.932773109243698
63033,St. Louis County,MO,NA,35.46099290780142,NA,NA
63049,Jefferson County,MO,NA,65.69148936170212,52.34297108673977,NA
63108,St. Louis city,MO,NA,39.8936170212766,NA,NA
63109,St. Louis city,MO,NA,NA,63.50947158524427,NA
63117,St. Louis County,MO,NA,NA,89.7308075772682,NA
63118,St. Louis city,MO,20,NA,NA,NA
63122,St. Louis County,MO,NA,74.7340425531915,NA,NA
63125,St. Louis County,MO,NA,32.00354609929078,NA,NA
63129,St. Louis County,MO,NA,NA,NA,7.9831932773109235
63136,St. Louis County,MO,NA,NA,7.2781655034895305,NA
63138,St. Louis County,MO,NA,40.33687943262411,NA,NA
63139,St. Louis city,MO,NA,59.75177304964539,NA,NA
63301,St. Charles County,MO,NA,NA,2.4925224327018944,86.5546218487395
63303,St. Charles County,MO,NA,NA,32.5024925224327,NA
63304,St. Charles County,MO,NA,NA,10.468594217347956,NA
63357,Warren County,MO,NA,95.65602836879432,NA,NA
63376,St. Charles County,MO,NA,46.36524822695036,0.6979062811565304,NA
63385,St. Charles County,MO,NA,NA,8.97308075772682,NA
63389,Lincoln County,MO,NA,NA,83.44965104685942,NA
63552,Macon County,MO,NA,93.26241134751773,NA,NA
63640,St. Francois County,MO,NA,NA,74.67597208374876,NA
63775,Perry County,MO,NA,26.95035460992908,NA,NA
63801,Scott County,MO,NA,NA,20.837487537387837,NA
63873,New Madrid County,MO,NA,89.98226950354609,NA,NA
64020,Lafayette County,MO,92.63157894736842,NA,NA,NA
64024,Clay County,MO,NA,NA,NA,43.90756302521008
64048,Clay County,MO,NA,94.06028368794325,NA,NA
64056,Jackson County,MO,NA,NA,73.28015952143569,NA
64060,Clay County,MO,NA,65.0709219858156,NA,NA
64062,Ray County,MO,NA,NA,87.03888334995014,NA
64076,Lafayette County,MO,NA,57.180851063829785,NA,NA
64080,Cass County,MO,69.47368421052632,NA,NA,NA
64085,Ray County,MO,NA,39.09574468085106,NA,NA
64093,Johnson County,MO,NA,26.24113475177305,NA,NA
64109,Jackson County,MO,NA,NA,27.018943170488534,NA
64130,Jackson County,MO,NA,80.49645390070921,NA,NA
64132,Jackson County,MO,18.421052631578945,NA,NA,NA
64138,Jackson County,MO,NA,75.2659574468085,NA,NA
64701,Cass County,MO,NA,63.47517730496454,NA,NA
64735,Henry County,MO,NA,24.73404255319149,NA,NA
65203,Boone County,MO,NA,NA,51.34596211365903,NA
65251,Callaway County,MO,NA,NA,NA,40.54621848739496
65265,Audrain County,MO,NA,48.138297872340424,NA,NA
65336,Johnson County,MO,NA,92.6418439716312,NA,NA
65401,Phelps County,MO,NA,81.73758865248227,NA,NA
65622,Dallas County,MO,50.526315789473685,NA,NA,NA
65625,Barry County,MO,NA,NA,NA,62.18487394957983
65712,Lawrence County,MO,NA,NA,NA,97.47899159663865
65721,Christian County,MO,NA,44.680851063829785,NA,NA
65804,Greene County,MO,NA,20.921985815602838,NA,NA
59047,Park County,MT,NA,NA,NA,40.96638655462185
59102,Yellowstone County,MT,NA,NA,3.589232303090728,NA
59230,Valley County,MT,NA,94.50354609929079,NA,NA
59301,Custer County,MT,NA,NA,60.31904287138584,NA
59404,Cascade County,MT,NA,NA,72.28315054835494,NA
59405,Cascade County,MT,NA,NA,59.32203389830508,NA
59457,Fergus County,MT,95.78947368421052,NA,NA,NA
59601,Lewis and Clark County,MT,NA,NA,42.97108673978066,NA
59602,Lewis and Clark County,MT,NA,NA,NA,82.35294117647058
59701,Silver Bow County,MT,NA,NA,28.913260219341975,NA
59714,Gallatin County,MT,NA,NA,48.45463609172482,74.36974789915966
59715,Gallatin County,MT,NA,40.78014184397163,NA,19.11764705882353
59752,Gallatin County,MT,NA,100,NA,NA
59803,Missoula County,MT,NA,78.81205673758865,65.90229312063809,NA
68046,Sarpy County,NE,NA,NA,NA,65.33613445378151
68131,Douglas County,NE,NA,79.69858156028369,NA,NA
68133,Sarpy County,NE,NA,NA,83.1505483549352,NA
68135,Douglas County,NE,NA,60.37234042553191,NA,NA
68138,Sarpy County,NE,NA,98.49290780141844,NA,NA
68147,Sarpy County,NE,82.63157894736842,NA,NA,NA
68701,Madison County,NE,NA,39.53900709219858,NA,NA
69162,Cheyenne County,NE,NA,NA,NA,56.51260504201681
89106,Clark County,NV,NA,36.52482269503546,NA,NA
89108,Clark County,NV,NA,12.943262411347517,NA,NA
89138,Clark County,NV,NA,NA,88.13559322033898,NA
89166,Clark County,NV,NA,NA,89.43170488534396,NA
89406,Churchill County,NV,NA,61.43617021276596,NA,NA
89434,Washoe County,NV,NA,NA,NA,59.45378151260504
89436,Washoe County,NV,18.947368421052634,NA,NA,NA
89519,Washoe County,NV,91.05263157894737,NA,NA,NA
89523,Washoe County,NV,NA,NA,22.731804586241275,NA
89706,Carson City,NV,NA,NA,58.62412761714856,NA
89801,Elko County,NV,NA,55.053191489361694,NA,NA
03038,Rockingham County,NH,NA,7.2695035460992905,NA,NA
03051,Hillsborough County,NH,NA,73.04964539007092,43.469591226321036,23.10924369747899
03053,Rockingham County,NH,NA,18.79432624113475,NA,NA
03054,Hillsborough County,NH,NA,NA,NA,78.15126050420169
03060,Hillsborough County,NH,NA,NA,NA,45.168067226890756
03063,Hillsborough County,NH,NA,33.51063829787234,78.1655034895314,NA
03071,Hillsborough County,NH,NA,95.74468085106383,NA,NA
03079,Rockingham County,NH,NA,NA,12.961116650049851,NA
03087,Rockingham County,NH,NA,38.741134751773046,NA,NA
03106,Merrimack County,NH,NA,88.47517730496453,NA,NA
03246,Belknap County,NH,NA,37.322695035460995,56.23130608175474,NA
03275,Merrimack County,NH,NA,NA,34.097706879361915,NA
03301,Merrimack County,NH,NA,NA,66.3010967098704,NA
03431,Cheshire County,NH,26.31578947368421,77.83687943262412,NA,NA
03570,Coos County,NH,NA,60.46099290780141,70.7876370887338,NA
03766,Grafton County,NH,NA,67.2872340425532,NA,NA
03820,Strafford County,NH,NA,12.76595744680851,NA,NA
03835,Strafford County,NH,NA,77.21631205673759,NA,NA
03842,Rockingham County,NH,NA,NA,21.535393818544364,NA
03858,Rockingham County,NH,NA,NA,92.2233300099701,NA
03867,Strafford County,NH,NA,45.12411347517731,94.41674975074775,NA
03873,Rockingham County,NH,62.10526315789474,NA,NA,NA
07020,Bergen County,NJ,NA,NA,NA,79.2016806722689
07052,Essex County,NJ,NA,8.421985815602836,NA,NA
07054,Morris County,NJ,NA,NA,25.922233300099702,NA
07055,Passaic County,NJ,NA,0.7092198581560284,NA,NA
07072,Bergen County,NJ,NA,84.57446808510637,NA,NA
07081,Union County,NJ,NA,79.9645390070922,NA,53.15126050420168
07087,Hudson County,NJ,NA,NA,21.834496510468593,NA
07090,Union County,NJ,NA,68.43971631205675,NA,NA
07093,Hudson County,NJ,NA,3.723404255319149,NA,NA
07424,Passaic County,NJ,NA,NA,NA,35.924369747899156
07457,Morris County,NJ,NA,97.25177304964538,NA,NA
07470,Passaic County,NJ,NA,NA,85.34396809571287,NA
07480,Passaic County,NJ,53.1578947368421,NA,NA,NA
07506,Passaic County,NJ,NA,NA,NA,52.10084033613446
07508,Passaic County,NJ,NA,20.212765957446805,NA,NA
07514,Passaic County,NJ,NA,NA,56.530408773678964,NA
07601,Bergen County,NJ,NA,76.15248226950354,NA,NA
07603,Bergen County,NJ,NA,NA,91.82452642073778,NA
07607,Bergen County,NJ,NA,98.40425531914893,NA,NA
07631,Bergen County,NJ,NA,NA,NA,42.436974789915965
07666,Bergen County,NJ,NA,32.97872340425532,NA,56.9327731092437
07727,Monmouth County,NJ,NA,NA,75.47357926221336,NA
07834,Morris County,NJ,NA,NA,61.51545363908275,63.02521008403361
07901,Union County,NJ,NA,NA,NA,85.29411764705883
07945,Morris County,NJ,NA,86.34751773049646,NA,NA
07950,Morris County,NJ,NA,NA,NA,42.857142857142854
07980,Morris County,NJ,NA,NA,99.90029910269193,NA
08002,Camden County,NJ,NA,NA,32.80159521435693,NA
08010,Burlington County,NJ,NA,39.45035460992908,NA,NA
08012,Camden County,NJ,NA,3.2801418439716312,NA,NA
08021,Camden County,NJ,NA,1.950354609929078,NA,NA
08037,Atlantic County,NJ,35.78947368421053,NA,NA,NA
08053,Burlington County,NJ,NA,16.48936170212766,50.14955134596212,NA
08054,Burlington County,NJ,NA,NA,9.870388833499502,NA
08075,Burlington County,NJ,NA,NA,21.734795613160518,NA
08079,Salem County,NJ,NA,NA,35.69292123629113,NA
08080,Gloucester County,NJ,NA,NA,64.90528414755732,NA
08081,Camden County,NJ,NA,0.8865248226950355,NA,NA
08107,Camden County,NJ,NA,20.390070921985814,NA,NA
08204,Cape May County,NJ,NA,NA,75.07477567298105,NA
08210,Cape May County,NJ,NA,28.191489361702125,NA,NA
08234,Atlantic County,NJ,NA,12.23404255319149,NA,NA
08322,Gloucester County,NJ,NA,71.80851063829788,NA,NA
08360,Cumberland County,NJ,NA,19.858156028368796,NA,NA
08502,Somerset County,NJ,NA,94.76950354609929,NA,NA
08527,Ocean County,NJ,NA,5.053191489361701,NA,NA
08690,Mercer County,NJ,NA,NA,40.87736789631107,NA
08721,Ocean County,NJ,NA,16.666666666666664,97.90628115653041,NA
08742,Ocean County,NJ,NA,21.099290780141843,NA,NA
08753,Ocean County,NJ,NA,NA,NA,33.82352941176471
08755,Ocean County,NJ,NA,NA,14.15752741774676,NA
08757,Ocean County,NJ,NA,6.5602836879432624,NA,NA
08831,Middlesex County,NJ,NA,NA,29.112662013958122,NA
87002,Valencia County,NM,NA,NA,43.868394815553344,NA
87042,Valencia County,NM,NA,NA,NA,98.94957983193278
87043,Sandoval County,NM,96.3157894736842,NA,NA,NA
87102,Bernalillo County,NM,NA,NA,NA,48.739495798319325
87104,Bernalillo County,NM,NA,NA,NA,95.7983193277311
87106,Bernalillo County,NM,NA,43.794326241134755,NA,NA
87107,Bernalillo County,NM,NA,23.404255319148938,NA,NA
87108,Bernalillo County,NM,NA,19.592198581560282,NA,NA
87111,Bernalillo County,NM,NA,2.127659574468085,NA,NA
87113,Bernalillo County,NM,NA,69.50354609929079,NA,NA
87121,Bernalillo County,NM,NA,2.393617021276596,NA,NA
87124,Sandoval County,NM,NA,NA,NA,9.663865546218489
87144,Sandoval County,NM,NA,58.59929078014184,NA,NA
87410,San Juan County,NM,NA,54.166666666666664,NA,NA
87413,San Juan County,NM,NA,NA,NA,73.73949579831933
87505,Santa Fe County,NM,NA,NA,24.825523429710866,NA
87547,,NM,NA,NA,92.32303090727817,NA
88005,Doa Ana County,NM,NA,62.5886524822695,NA,NA
88061,Grant County,NM,NA,NA,82.15353938185443,NA
88101,Curry County,NM,NA,26.152482269503547,NA,NA
10011,New York County,NY,NA,NA,NA,92.22689075630252
10014,New York County,NY,NA,NA,NA,91.59663865546219
10023,New York County,NY,NA,NA,NA,38.655462184873954
10025,New York County,NY,NA,64.80496453900709,NA,NA
10026,New York County,NY,NA,NA,79.66101694915254,NA
10034,New York County,NY,NA,80.1418439716312,NA,NA
10075,New York County,NY,NA,95.30141843971631,NA,NA
10301,Richmond County,NY,NA,NA,33.00099700897308,NA
10305,Richmond County,NY,NA,NA,40.27916251246261,NA
10314,Richmond County,NY,NA,NA,35.49351944167498,NA
10451,Bronx County,NY,NA,NA,NA,4.201680672268908
10452,Bronx County,NY,NA,18.617021276595743,NA,NA
10453,Bronx County,NY,NA,3.8120567375886525,NA,NA
10454,Bronx County,NY,NA,3.6347517730496453,NA,NA
10456,Bronx County,NY,NA,15.691489361702127,NA,NA
10457,Bronx County,NY,NA,3.0141843971631204,5.18444666001994,NA
10458,Bronx County,NY,NA,0.1773049645390071,24.72582253240279,NA
10459,Bronx County,NY,NA,2.74822695035461,NA,NA
10460,Bronx County,NY,NA,NA,23.42971086739781,NA
10463,Bronx County,NY,NA,74.37943262411348,NA,NA
10466,Bronx County,NY,NA,NA,NA,9.033613445378151
10467,Bronx County,NY,NA,0.26595744680851063,4.287138584247258,NA
10701,Westchester County,NY,NA,NA,NA,19.537815126050422
10954,Rockland County,NY,NA,NA,NA,39.49579831932773
10956,Rockland County,NY,NA,NA,93.02093718843469,NA
10990,Orange County,NY,NA,82.97872340425532,NA,NA
11001,Nassau County,NY,NA,75.97517730496453,NA,NA
11020,Nassau County,NY,NA,NA,86.14157527417746,NA
11102,Queens County,NY,NA,35.815602836879435,NA,NA
11106,Queens County,NY,NA,69.76950354609929,NA,30.04201680672269
11206,Kings County,NY,NA,9.042553191489363,NA,NA
11214,Kings County,NY,NA,NA,NA,6.302521008403361
11221,Kings County,NY,NA,24.911347517730498,NA,NA
11225,Kings County,NY,NA,NA,NA,26.680672268907564
11231,Kings County,NY,NA,61.61347517730496,NA,NA
11232,Kings County,NY,NA,51.152482269503544,NA,NA
11235,Kings County,NY,37.368421052631575,NA,10.967098703888336,NA
11236,Kings County,NY,3.684210526315789,NA,NA,NA
11239,Kings County,NY,76.84210526315789,NA,NA,NA
11354,Queens County,NY,NA,NA,24.426719840478565,NA
11375,Queens County,NY,NA,NA,NA,5.2521008403361344
11385,Queens County,NY,4.736842105263158,NA,7.876370887337986,NA
11520,Nassau County,NY,NA,22.96099290780142,NA,NA
11542,Nassau County,NY,NA,NA,40.67796610169492,NA
11576,Nassau County,NY,NA,NA,94.51645064805582,NA
11590,Nassau County,NY,NA,NA,23.0309072781655,NA
11704,Suffolk County,NY,NA,NA,38.18544366899302,NA
11709,Nassau County,NY,NA,NA,93.22033898305084,NA
11717,Suffolk County,NY,12.631578947368421,NA,NA,NA
11722,Suffolk County,NY,NA,14.184397163120568,NA,NA
11727,Suffolk County,NY,NA,51.86170212765957,NA,NA
11731,Suffolk County,NY,NA,NA,NA,51.89075630252101
11735,Nassau County,NY,61.05263157894737,NA,NA,NA
11762,Nassau County,NY,NA,NA,NA,31.72268907563025
12118,Saratoga County,NY,25.263157894736842,NA,NA,NA
12148,Saratoga County,NY,NA,NA,91.62512462612163,NA
12205,Albany County,NY,90,NA,NA,NA
12208,Albany County,NY,NA,NA,52.44267198404786,NA
12303,Schenectady County,NY,NA,NA,64.40677966101694,NA
12306,Schenectady County,NY,NA,NA,57.6271186440678,NA
12533,Dutchess County,NY,NA,NA,77.26819541375872,NA
12550,Orange County,NY,52.63157894736842,22.5177304964539,NA,NA
12603,Dutchess County,NY,NA,62.5,NA,NA
12771,Orange County,NY,NA,56.91489361702128,NA,NA
12804,Warren County,NY,NA,NA,7.477567298105684,NA
12839,Washington County,NY,NA,18.97163120567376,NA,NA
12941,Essex County,NY,NA,91.31205673758865,NA,NA
12953,Franklin County,NY,NA,NA,14.057826520438685,NA
13027,Onondaga County,NY,NA,NA,40.47856430707876,NA
13030,Madison County,NY,NA,NA,NA,100
13035,Madison County,NY,NA,NA,85.54336989032902,NA
13074,Oswego County,NY,NA,70.0354609929078,NA,NA
13104,Onondaga County,NY,NA,40.86879432624114,NA,78.78151260504201
13108,Onondaga County,NY,NA,91.66666666666666,81.75473579262214,NA
13114,Oswego County,NY,NA,48.93617021276596,NA,NA
13126,Oswego County,NY,NA,2.039007092198582,4.48654037886341,52.94117647058824
13135,Oswego County,NY,NA,51.59574468085106,NA,NA
13145,Oswego County,NY,NA,NA,98.50448654037886,NA
13148,Seneca County,NY,NA,63.12056737588653,NA,NA
13165,Seneca County,NY,NA,NA,15.254237288135593,NA
13203,Onondaga County,NY,NA,NA,42.273180458624125,NA
13204,Onondaga County,NY,NA,29.25531914893617,NA,NA
13214,Onondaga County,NY,74.21052631578947,NA,NA,NA
13346,Madison County,NY,NA,NA,NA,57.773109243697476
13350,Herkimer County,NY,NA,NA,NA,72.26890756302521
13413,Oneida County,NY,NA,NA,NA,22.268907563025213
13421,Madison County,NY,NA,NA,41.37587238285145,NA
13601,Jefferson County,NY,NA,NA,12.662013958125623,NA
13617,St. Lawrence County,NY,NA,NA,73.97806580259221,NA
13642,St. Lawrence County,NY,NA,NA,46.560319042871384,NA
13648,Lewis County,NY,NA,90.42553191489363,NA,NA
13732,Tioga County,NY,NA,34.9290780141844,NA,NA
13733,Chenango County,NY,NA,89.80496453900709,NA,NA
13753,Delaware County,NY,NA,93.97163120567376,NA,NA
13760,Broome County,NY,NA,0.44326241134751776,NA,1.050420168067227
13790,Broome County,NY,NA,NA,5.88235294117647,NA
13820,Otsego County,NY,NA,NA,26.12163509471585,NA
13862,Broome County,NY,NA,NA,81.25623130608174,NA
13905,Broome County,NY,NA,NA,NA,72.89915966386555
14006,Erie County,NY,NA,88.65248226950354,50.74775672981057,NA
14011,Wyoming County,NY,NA,63.56382978723404,NA,NA
14043,Erie County,NY,NA,23.75886524822695,NA,NA
14048,Chautauqua County,NY,NA,27.30496453900709,NA,NA
14075,Erie County,NY,NA,NA,24.22731804586241,9.873949579831933
14086,Erie County,NY,NA,11.613475177304965,NA,NA
14092,Niagara County,NY,NA,39.53900709219858,NA,NA
14094,Niagara County,NY,NA,1.152482269503546,1.0967098703888334,NA
14120,Niagara County,NY,NA,2.6595744680851063,NA,NA
14215,Erie County,NY,NA,6.73758865248227,NA,NA
14216,Erie County,NY,NA,19.23758865248227,NA,NA
14217,Erie County,NY,NA,17.19858156028369,NA,39.705882352941174
14221,Erie County,NY,12.105263157894736,NA,NA,NA
14227,Erie County,NY,NA,NA,NA,86.34453781512606
14304,Niagara County,NY,NA,NA,2.293120638085743,NA
14414,Livingston County,NY,NA,NA,80.6580259222333,NA
14420,Monroe County,NY,NA,8.77659574468085,NA,NA
14424,Ontario County,NY,NA,36.17021276595745,NA,NA
14428,Monroe County,NY,NA,NA,44.06779661016949,NA
14445,Monroe County,NY,NA,29.166666666666668,NA,NA
14450,Monroe County,NY,NA,36.79078014184397,0.3988035892323031,3.7815126050420167
14456,Ontario County,NY,NA,NA,3.688933200398804,NA
14464,Monroe County,NY,NA,41.22340425531915,NA,NA
14467,Monroe County,NY,NA,47.78368794326241,NA,NA
14468,Monroe County,NY,NA,37.854609929078016,NA,NA
14482,Genesee County,NY,NA,NA,82.65204386839483,NA
14487,Livingston County,NY,NA,NA,48.05583250249252,NA
14502,Wayne County,NY,NA,19.060283687943265,NA,NA
14505,Wayne County,NY,NA,77.6595744680851,NA,NA
14513,Wayne County,NY,NA,15.602836879432624,NA,NA
14519,Wayne County,NY,NA,14.00709219858156,20.438683948155536,NA
14527,Yates County,NY,NA,NA,92.52243270189432,NA
14532,Ontario County,NY,NA,NA,NA,92.43697478991596
14534,Monroe County,NY,NA,NA,59.222333000997004,NA
14550,Wyoming County,NY,NA,87.2340425531915,NA,NA
14559,Monroe County,NY,NA,58.77659574468085,45.56331006979063,NA
14580,Monroe County,NY,3.1578947368421053,29.078014184397162,30.508474576271187,NA
14586,Monroe County,NY,NA,NA,53.43968095712861,NA
14589,Wayne County,NY,NA,25.620567375886527,NA,71.00840336134453
14606,Monroe County,NY,NA,9.929078014184398,8.574277168494516,NA
14609,Monroe County,NY,NA,24.46808510638298,32.60219341974078,17.436974789915965
14611,Monroe County,NY,NA,NA,12.562313060817548,NA
14612,Monroe County,NY,NA,1.3297872340425532,37.986041874376866,NA
14615,Monroe County,NY,NA,6.028368794326241,72.98105682951147,NA
14616,Monroe County,NY,NA,56.02836879432624,6.0817547357926225,NA
14617,Monroe County,NY,NA,NA,50.64805583250249,NA
14620,Monroe County,NY,NA,57.446808510638306,NA,NA
14621,Monroe County,NY,NA,34.04255319148936,NA,NA
14622,Monroe County,NY,NA,15.070921985815602,13.958125623130607,NA
14624,Monroe County,NY,1.5789473684210527,23.670212765957448,41.77467597208375,NA
14626,Monroe County,NY,NA,1.773049645390071,NA,5.46218487394958
14701,Chautauqua County,NY,NA,NA,12.362911266201396,NA
14715,Allegany County,NY,NA,74.64539007092199,NA,NA
14733,Chautauqua County,NY,NA,NA,80.55832502492522,NA
14837,Yates County,NY,NA,67.5531914893617,NA,NA
14882,Tompkins County,NY,NA,76.32978723404256,NA,NA
14886,Tompkins County,NY,NA,NA,91.72482552342971,NA
27006,Davie County,NC,NA,NA,19.242273180458625,NA
27012,Forsyth County,NC,NA,NA,35.59322033898305,NA
27028,Davie County,NC,NA,8.333333333333332,NA,NA
27030,Surry County,NC,NA,3.900709219858156,NA,NA
27055,Yadkin County,NC,NA,53.36879432624113,34.89531405782652,NA
27104,Forsyth County,NC,NA,NA,4.3868394815553335,NA
27105,Forsyth County,NC,NA,NA,14.556331006979061,NA
27106,Forsyth County,NC,NA,77.3936170212766,NA,NA
27107,Forsyth County,NC,NA,NA,2.59222333000997,NA
27127,Forsyth County,NC,NA,NA,3.290129611166501,NA
27253,Alamance County,NC,NA,NA,NA,25.42016806722689
27278,Orange County,NC,NA,NA,54.23728813559322,NA
27292,Davidson County,NC,NA,NA,8.47457627118644,NA
27295,Davidson County,NC,NA,NA,1.8943170488534395,NA
27312,Chatham County,NC,NA,78.19148936170212,43.07078763708873,NA
27330,Lee County,NC,NA,NA,49.05284147557328,NA
27332,Lee County,NC,NA,28.01418439716312,NA,NA
27403,Guilford County,NC,NA,NA,54.93519441674975,NA
27406,Guilford County,NC,NA,NA,NA,16.386554621848738
27407,Guilford County,NC,NA,11.170212765957446,NA,NA
27502,Wake County,NC,NA,NA,NA,71.42857142857143
27509,Granville County,NC,NA,NA,83.5493519441675,94.53781512605042
27514,Orange County,NC,NA,48.58156028368794,NA,NA
27517,Orange County,NC,NA,NA,51.844466600199404,NA
27522,Granville County,NC,NA,NA,62.213359920239284,NA
27539,Wake County,NC,NA,NA,52.2432701894317,NA
27541,Person County,NC,NA,99.20212765957447,NA,NA
27565,Granville County,NC,NA,44.9468085106383,NA,NA
27576,Johnston County,NC,NA,47.251773049645394,NA,NA
27596,Franklin County,NC,NA,53.54609929078015,NA,NA
27603,Wake County,NC,NA,13.209219858156029,NA,NA
27610,Wake County,NC,NA,68.35106382978722,NA,NA
27615,Wake County,NC,NA,30.0531914893617,9.471585244267198,NA
27616,Wake County,NC,NA,12.322695035460992,NA,NA
27703,Durham County,NC,NA,5.49645390070922,NA,NA
27713,Durham County,NC,NA,NA,12.761714855433699,NA
27817,Beaufort County,NC,NA,NA,67.19840478564308,NA
27837,Pitt County,NC,NA,83.59929078014184,NA,NA
27850,Halifax County,NC,NA,NA,NA,93.0672268907563
27949,Dare County,NC,NA,NA,68.6939182452642,NA
28016,Gaston County,NC,NA,NA,50.04985044865404,NA
28023,Rowan County,NC,NA,56.560283687943254,NA,NA
28075,Cabarrus County,NC,NA,NA,NA,63.23529411764706
28090,Cleveland County,NC,NA,56.826241134751776,NA,NA
28105,Mecklenburg County,NC,32.631578947368425,85.46099290780141,NA,NA
28139,Rutherford County,NC,NA,NA,47.357926221335994,NA
28146,Rowan County,NC,NA,23.847517730496453,NA,NA
28214,Mecklenburg County,NC,NA,20.0354609929078,NA,NA
28216,Mecklenburg County,NC,NA,NA,NA,22.689075630252102
28227,Mecklenburg County,NC,NA,NA,11.964107676969093,NA
28318,Sampson County,NC,NA,85.1063829787234,NA,NA
28328,Sampson County,NC,NA,NA,65.10468594217348,NA
28340,Robeson County,NC,NA,46.09929078014184,NA,NA
28358,Robeson County,NC,NA,9.574468085106384,NA,NA
28376,Hoke County,NC,NA,21.54255319148936,NA,NA
28382,Sampson County,NC,NA,69.9468085106383,NA,NA
28403,New Hanover County,NC,NA,NA,84.54636091724825,NA
28409,New Hanover County,NC,NA,29.609929078014186,NA,NA
28431,Columbus County,NC,43.15789473684211,NA,NA,NA
28461,Brunswick County,NC,NA,NA,4.985044865403789,NA
28462,Brunswick County,NC,NA,NA,49.950149551345966,NA
28513,Pitt County,NC,NA,68.97163120567376,NA,NA
28532,Craven County,NC,NA,59.04255319148937,NA,NA
28540,Onslow County,NC,6.842105263157896,NA,NA,NA
28560,Craven County,NC,NA,NA,NA,39.285714285714285
28571,Pamlico County,NC,NA,NA,NA,88.4453781512605
28580,Greene County,NC,NA,86.43617021276596,NA,NA
28625,Iredell County,NC,NA,10.195035460992907,NA,NA
28655,Burke County,NC,NA,3.1914893617021276,NA,NA
28659,Wilkes County,NC,NA,43.705673758865245,NA,NA
28721,Haywood County,NC,NA,NA,NA,75
28734,Macon County,NC,NA,10.106382978723403,NA,NA
28786,Haywood County,NC,NA,NA,NA,48.109243697478995
28792,Henderson County,NC,NA,NA,50.24925224327019,NA
28806,Buncombe County,NC,41.05263157894737,NA,NA,NA
28904,Clay County,NC,NA,NA,56.82951146560319,NA
58078,Cass County,ND,NA,17.641843971631204,NA,NA
58103,Cass County,ND,NA,NA,1.296111665004985,NA
58104,Cass County,ND,NA,NA,NA,2.5210084033613445
58701,Ward County,ND,NA,NA,NA,51.05042016806722
58703,Ward County,ND,NA,62.4113475177305,NA,NA
58801,Williams County,ND,NA,56.73758865248227,NA,NA
43015,Delaware County,OH,19.473684210526315,NA,NA,NA
43016,Franklin County,OH,NA,50.35460992907801,NA,NA
43017,Franklin County,OH,NA,NA,27.417746759720842,NA
43019,Knox County,OH,NA,NA,63.90827517447657,NA
43026,Franklin County,OH,NA,42.02127659574468,NA,NA
43050,Knox County,OH,NA,21.45390070921986,NA,NA
43056,Licking County,OH,NA,73.93617021276596,59.720837487537395,NA
43074,Delaware County,OH,NA,70.0354609929078,NA,NA
43081,Franklin County,OH,NA,NA,63.409770687936195,NA
43085,Franklin County,OH,NA,NA,87.33798604187437,NA
43110,Franklin County,OH,NA,14.804964539007093,NA,NA
43119,Franklin County,OH,NA,NA,37.78664007976072,NA
43147,Fairfield County,OH,NA,47.07446808510639,19.54137587238285,NA
43207,Franklin County,OH,NA,84.04255319148936,NA,NA
43220,Franklin County,OH,NA,NA,39.38185443668993,NA
43230,Franklin County,OH,80,NA,NA,64.91596638655463
43232,Franklin County,OH,NA,2.304964539007092,NA,NA
43357,Logan County,OH,NA,NA,NA,54.83193277310925
43402,Wood County,OH,NA,NA,10.867397806580259,NA
43518,Williams County,OH,NA,NA,95.41375872382851,NA
43532,Henry County,OH,NA,91.84397163120568,NA,NA
43537,Lucas County,OH,NA,NA,9.571286141575275,NA
43543,Williams County,OH,NA,NA,45.06480558325025,NA
43551,Wood County,OH,NA,32.62411347517731,4.586241276171486,NA
43560,Lucas County,OH,NA,NA,10.767696909272182,NA
43606,Lucas County,OH,NA,55.319148936170215,NA,NA
43611,Lucas County,OH,NA,NA,52.74177467597209,NA
43614,Lucas County,OH,NA,NA,31.306081754735793,NA
43615,Lucas County,OH,2.631578947368421,NA,NA,NA
43616,Lucas County,OH,NA,NA,8.075772681954138,NA
43701,Muskingum County,OH,NA,NA,NA,12.394957983193278
43725,Guernsey County,OH,NA,53.01418439716312,NA,66.17647058823529
43731,Perry County,OH,NA,NA,NA,96.42857142857143
43845,Coshocton County,OH,NA,NA,66.20139581256231,NA
43943,Jefferson County,OH,58.94736842105262,NA,NA,NA
43952,Jefferson County,OH,NA,21.71985815602837,NA,NA
43953,Jefferson County,OH,NA,23.31560283687943,NA,NA
44001,Lorain County,OH,NA,NA,2.3928215353938187,NA
44011,Lorain County,OH,NA,21.897163120567377,NA,8.823529411764707
44017,Cuyahoga County,OH,NA,26.861702127659576,NA,NA
44023,Geauga County,OH,NA,95.0354609929078,NA,91.80672268907563
44030,Ashtabula County,OH,NA,14.095744680851062,NA,NA
44035,Lorain County,OH,NA,0,NA,NA
44047,Ashtabula County,OH,NA,NA,42.671984047856434,NA
44052,Lorain County,OH,NA,NA,12.861415752741776,NA
44057,Lake County,OH,NA,50.26595744680851,NA,NA
44060,Lake County,OH,NA,37.4113475177305,5.583250249252243,NA
44090,Lorain County,OH,NA,49.02482269503546,NA,NA
44095,Lake County,OH,NA,11.702127659574469,NA,NA
44103,Cuyahoga County,OH,NA,NA,8.773678963110667,NA
44108,Cuyahoga County,OH,NA,1.6843971631205674,NA,NA
44109,Cuyahoga County,OH,NA,NA,11.06679960119641,NA
44110,Cuyahoga County,OH,NA,NA,NA,92.01680672268907
44118,Cuyahoga County,OH,NA,60.1063829787234,30.707876370887337,NA
44119,Cuyahoga County,OH,NA,NA,89.63110667996011,NA
44120,Cuyahoga County,OH,NA,NA,15.952143569292124,NA
44121,Cuyahoga County,OH,NA,NA,NA,64.07563025210085
44122,Cuyahoga County,OH,NA,73.31560283687944,NA,NA
44125,Cuyahoga County,OH,NA,26.595744680851062,49.65104685942173,NA
44128,Cuyahoga County,OH,NA,NA,0.5982053838484547,NA
44129,Cuyahoga County,OH,NA,33.86524822695036,NA,NA
44130,Cuyahoga County,OH,NA,2.5709219858156027,NA,0.42016806722689076
44132,Cuyahoga County,OH,NA,15.070921985815602,NA,NA
44133,Cuyahoga County,OH,NA,NA,53.24027916251246,NA
44135,Cuyahoga County,OH,NA,10.460992907801419,46.85942173479562,NA
44139,Cuyahoga County,OH,NA,31.382978723404253,NA,NA
44146,Cuyahoga County,OH,NA,NA,NA,4.201680672268908
44149,Cuyahoga County,OH,NA,NA,40.87736789631107,NA
44221,Summit County,OH,NA,7.890070921985816,NA,12.605042016806722
44230,Wayne County,OH,NA,NA,95.91226321036889,NA
44240,Portage County,OH,NA,49.822695035460995,44.56630109670987,NA
44288,Portage County,OH,NA,99.37943262411348,NA,NA
44301,Summit County,OH,NA,21.808510638297875,NA,NA
44310,Summit County,OH,NA,NA,NA,43.48739495798319
44312,Summit County,OH,NA,NA,6.779661016949152,NA
44314,Summit County,OH,NA,17.99645390070922,NA,NA
44319,Summit County,OH,NA,NA,17.148554336989033,NA
44405,Mahoning County,OH,NA,NA,53.539381854436684,NA
44432,Columbiana County,OH,74.73684210526315,NA,NA,NA
44444,Trumbull County,OH,NA,NA,NA,61.97478991596639
44446,Trumbull County,OH,NA,NA,40.17946161515454,NA
44460,Columbiana County,OH,8.421052631578947,NA,NA,NA
44505,Mahoning County,OH,NA,83.59929078014184,NA,NA
44515,Mahoning County,OH,NA,5.407801418439717,NA,NA
44647,Stark County,OH,NA,NA,32.40279162512463,NA
44663,Tuscarawas County,OH,NA,7.180851063829788,NA,NA
44685,Summit County,OH,NA,34.39716312056738,NA,NA
44691,Wayne County,OH,NA,NA,NA,11.76470588235294
44870,Erie County,OH,NA,NA,1.4955134596211366,NA
44889,Huron County,OH,NA,NA,49.25224327018943,NA
45013,Butler County,OH,NA,NA,1.794616151545364,NA
45036,Warren County,OH,6.315789473684211,NA,NA,NA
45066,Warren County,OH,NA,NA,NA,49.159663865546214
45068,Warren County,OH,NA,NA,60.019940179461614,NA
45171,Brown County,OH,NA,76.86170212765957,NA,NA
45211,Hamilton County,OH,8.947368421052632,NA,22.233300099700898,NA
45215,Hamilton County,OH,NA,16.22340425531915,NA,NA
45220,Hamilton County,OH,NA,89.09574468085107,NA,NA
45230,Hamilton County,OH,NA,NA,37.387836490528414,NA
45233,Hamilton County,OH,NA,NA,NA,95.37815126050421
45236,Hamilton County,OH,66.3157894736842,NA,NA,NA
45240,Hamilton County,OH,NA,17.109929078014186,NA,NA
45241,Hamilton County,OH,NA,NA,28.414755732801595,NA
45242,Hamilton County,OH,41.578947368421055,NA,NA,NA
45243,Hamilton County,OH,97.89473684210527,NA,NA,NA
45246,Hamilton County,OH,45.78947368421053,NA,NA,NA
45251,Hamilton County,OH,51.578947368421055,NA,NA,NA
45342,Montgomery County,OH,NA,NA,NA,19.95798319327731
45356,Miami County,OH,NA,NA,85.94217347956132,NA
45365,Shelby County,OH,NA,6.382978723404255,9.67098703888335,NA
45405,Montgomery County,OH,NA,46.808510638297875,34.59621136590229,NA
45410,Montgomery County,OH,NA,32.09219858156028,NA,NA
45414,Montgomery County,OH,NA,21.099290780141843,NA,NA
45419,Montgomery County,OH,NA,75.44326241134752,NA,NA
45424,Montgomery County,OH,NA,47.5177304964539,NA,NA
45458,Montgomery County,OH,NA,28.45744680851064,NA,NA
45459,Montgomery County,OH,NA,51.24113475177305,NA,NA
45638,Lawrence County,OH,NA,NA,18.14556331006979,NA
45640,Jackson County,OH,NA,3.9893617021276597,4.187437686939183,NA
45662,Scioto County,OH,NA,NA,1.1964107676969093,NA
45680,Lawrence County,OH,36.84210526315789,31.29432624113475,NA,NA
45750,Washington County,OH,NA,0.975177304964539,NA,13.655462184873949
45764,Athens County,OH,NA,NA,NA,81.5126050420168
45804,Allen County,OH,NA,6.117021276595745,NA,NA
45805,Allen County,OH,NA,32.269503546099294,NA,NA
45807,Allen County,OH,NA,NA,NA,40.33613445378151
45833,Allen County,OH,NA,NA,92.02392821535393,NA
45891,Van Wert County,OH,NA,NA,NA,25.840336134453786
73010,McClain County,OK,NA,NA,77.56729810568295,NA
73026,Cleveland County,OK,NA,NA,NA,88.02521008403362
73030,Murray County,OK,NA,91.40070921985816,NA,NA
73034,Oklahoma County,OK,NA,50.97517730496454,NA,NA
73036,Canadian County,OK,NA,76.24113475177306,NA,NA
73044,Logan County,OK,NA,40.248226950354606,9.770687936191425,NA
73055,Stephens County,OK,NA,NA,84.14755732801595,NA
73065,McClain County,OK,NA,NA,91.32602193419741,NA
73069,Cleveland County,OK,NA,54.60992907801418,NA,NA
73072,Cleveland County,OK,NA,66.57801418439716,NA,NA
73075,Garvin County,OK,NA,NA,67.99601196410767,NA
73099,Canadian County,OK,NA,71.54255319148936,NA,NA
73106,Oklahoma County,OK,NA,82.4468085106383,NA,NA
73116,Oklahoma County,OK,75.78947368421053,NA,NA,NA
73130,Oklahoma County,OK,NA,50.62056737588653,NA,NA
73135,Oklahoma County,OK,NA,32.358156028368796,45.96211365902293,NA
73159,Oklahoma County,OK,NA,NA,NA,77.73109243697479
73160,Cleveland County,OK,NA,6.826241134751773,NA,NA
73170,Cleveland County,OK,NA,53.63475177304965,NA,NA
73179,Oklahoma County,OK,NA,92.81914893617021,NA,NA
73501,Comanche County,OK,NA,NA,37.48753738783649,NA
73529,Stephens County,OK,NA,NA,95.61316051844466,NA
73533,Stephens County,OK,NA,NA,NA,14.705882352941178
73601,Custer County,OK,NA,NA,72.78165503489531,NA
73717,Woods County,OK,NA,NA,71.1864406779661,NA
74006,Washington County,OK,NA,72.07446808510637,NA,NA
74055,Tulsa County,OK,28.421052631578945,NA,NA,NA
74066,Creek County,OK,NA,NA,27.716849451645064,NA
74105,Tulsa County,OK,NA,NA,36.191425722831504,NA
74133,Tulsa County,OK,NA,NA,NA,9.453781512605042
74136,Tulsa County,OK,NA,45.301418439716315,NA,NA
74301,Craig County,OK,NA,49.645390070921984,NA,NA
74344,Delaware County,OK,NA,NA,NA,89.28571428571429
74403,Muskogee County,OK,NA,24.55673758865248,NA,NA
74601,Kay County,OK,NA,33.156028368794324,NA,NA
74801,Pottawatomie County,OK,NA,27.570921985815605,NA,NA
74804,Pottawatomie County,OK,NA,54.87588652482269,NA,NA
97009,Clackamas County,OR,NA,81.64893617021278,NA,NA
97024,Multnomah County,OR,NA,53.45744680851063,NA,NA
97031,Hood River County,OR,NA,NA,60.31904287138584,NA
97034,Clackamas County,OR,NA,NA,48.35493519441675,NA
97055,Clackamas County,OR,NA,80.58510638297872,NA,NA
97058,Wasco County,OR,NA,NA,53.838484546360924,NA
97068,Clackamas County,OR,NA,87.58865248226951,NA,NA
97080,Multnomah County,OR,NA,16.400709219858157,14.356929212362912,NA
97128,Yamhill County,OR,NA,NA,78.5643070787637,NA
97132,Yamhill County,OR,NA,28.98936170212766,NA,NA
97146,Clatsop County,OR,NA,NA,62.11365902293121,NA
97215,Multnomah County,OR,NA,NA,97.70687936191426,84.45378151260505
97224,Washington County,OR,NA,41.57801418439716,NA,NA
97230,Multnomah County,OR,NA,NA,36.49052841475574,NA
97233,Multnomah County,OR,NA,54.60992907801418,26.919242273180462,NA
97266,Multnomah County,OR,NA,NA,NA,88.23529411764706
97301,Marion County,OR,NA,NA,18.24526420737787,NA
97304,Polk County,OR,NA,84.30851063829788,NA,NA
97305,Marion County,OR,NA,64.45035460992908,NA,NA
97317,Marion County,OR,NA,NA,NA,60.50420168067227
97322,Linn County,OR,NA,NA,9.072781655034895,NA
97333,Benton County,OR,NA,55.76241134751773,NA,45.79831932773109
97355,Linn County,OR,NA,NA,41.17647058823529,NA
97378,Yamhill County,OR,NA,77.48226950354609,NA,NA
97426,Lane County,OR,NA,NA,65.50348953140578,NA
97448,Lane County,OR,NA,83.06737588652481,NA,NA
97462,Douglas County,OR,NA,88.56382978723404,NA,NA
97471,Douglas County,OR,NA,NA,4.087736789631107,NA
97477,Lane County,OR,NA,15.336879432624114,NA,NA
97526,Josephine County,OR,NA,16.843971631205672,NA,NA
97527,Josephine County,OR,NA,NA,13.858424725822532,NA
97601,Klamath County,OR,NA,NA,95.31405782652044,NA
97701,Deschutes County,OR,NA,NA,37.78664007976072,29.411764705882355
97703,Deschutes County,OR,NA,NA,60.71784646061814,NA
97756,Deschutes County,OR,NA,NA,NA,60.08403361344538
97814,Baker County,OR,NA,31.73758865248227,NA,NA
97862,Umatilla County,OR,NA,NA,76.47058823529412,NA
15001,Beaver County,PA,NA,82.09219858156028,NA,NA
15005,Beaver County,PA,NA,NA,91.92422731804587,NA
15010,Beaver County,PA,NA,NA,19.940179461615156,NA
15017,Allegheny County,PA,NA,NA,NA,41.806722689075634
15042,Beaver County,PA,NA,NA,63.11066799601196,NA
15061,Beaver County,PA,NA,NA,58.424725822532395,NA
15102,Allegheny County,PA,NA,78.54609929078015,NA,NA
15108,Allegheny County,PA,NA,29.78723404255319,NA,8.403361344537815
15132,Allegheny County,PA,NA,NA,NA,32.35294117647059
15135,Allegheny County,PA,NA,NA,NA,96.84873949579831
15136,Allegheny County,PA,NA,21.365248226950353,NA,NA
15137,Allegheny County,PA,NA,NA,50.44865403788634,NA
15139,Allegheny County,PA,NA,93.79432624113475,NA,NA
15147,Allegheny County,PA,NA,55.58510638297872,NA,NA
15202,Allegheny County,PA,NA,40.42553191489361,NA,NA
15206,Allegheny County,PA,NA,NA,NA,43.0672268907563
15210,Allegheny County,PA,NA,NA,30.907278165503488,NA
15217,Allegheny County,PA,57.36842105263158,NA,15.653040877367896,NA
15227,Allegheny County,PA,NA,NA,64.50648055832502,NA
15236,Allegheny County,PA,NA,35.638297872340424,NA,NA
15237,Allegheny County,PA,NA,NA,17.44765702891326,NA
15241,Allegheny County,PA,NA,NA,NA,42.226890756302524
15301,Washington County,PA,NA,3.546099290780142,21.635094715852443,NA
15425,Fayette County,PA,NA,NA,NA,58.82352941176471
15522,Bedford County,PA,NA,NA,34.19740777666999,NA
15557,Somerset County,PA,NA,NA,99.50149551345963,NA
15601,Westmoreland County,PA,NA,42.37588652482269,0.4985044865403789,NA
15642,Westmoreland County,PA,NA,13.031914893617023,NA,NA
15644,Westmoreland County,PA,NA,NA,57.02891326021934,NA
15650,Westmoreland County,PA,NA,NA,59.52143569292123,NA
15658,Westmoreland County,PA,NA,NA,67.8963110667996,NA
15668,Westmoreland County,PA,NA,NA,75.97208374875373,NA
15690,Westmoreland County,PA,NA,NA,93.419740777667,NA
15824,Jefferson County,PA,NA,NA,76.17148554336988,NA
16001,Butler County,PA,NA,11.25886524822695,0.7976071784646062,NA
16055,Butler County,PA,NA,80.67375886524822,NA,NA
16066,Butler County,PA,NA,54.343971631205676,NA,NA
16101,Lawrence County,PA,NA,35.37234042553192,NA,NA
16125,Mercer County,PA,NA,NA,11.76470588235294,NA
16146,Mercer County,PA,NA,14.716312056737587,NA,NA
16150,Mercer County,PA,NA,NA,NA,88.65546218487394
16201,Armstrong County,PA,NA,NA,NA,13.025210084033615
16226,Armstrong County,PA,NA,57.35815602836879,NA,NA
16229,Armstrong County,PA,NA,NA,NA,76.47058823529412
16335,Crawford County,PA,NA,NA,7.07876370887338,NA
16602,Blair County,PA,20.526315789473685,NA,NA,19.95798319327731
16803,Centre County,PA,NA,NA,NA,62.39495798319328
16828,Centre County,PA,NA,NA,79.46161515453639,NA
16915,Potter County,PA,NA,74.20212765957447,NA,NA
16947,Bradford County,PA,NA,NA,NA,77.31092436974791
17003,Lebanon County,PA,NA,79.25531914893617,NA,NA
17015,Cumberland County,PA,NA,NA,NA,28.781512605042014
17025,Cumberland County,PA,NA,24.645390070921984,73.87836490528414,NA
17033,Dauphin County,PA,NA,NA,15.453639082751744,NA
17036,Dauphin County,PA,NA,NA,79.06281156530409,NA
17038,Lebanon County,PA,NA,63.03191489361703,NA,NA
17042,Lebanon County,PA,NA,NA,3.988035892323031,NA
17043,Cumberland County,PA,NA,NA,90.1296111665005,NA
17044,Mifflin County,PA,NA,NA,5.383848454636091,NA
17051,Mifflin County,PA,NA,NA,NA,76.26050420168067
17067,Lebanon County,PA,NA,53.63475177304965,NA,NA
17070,Cumberland County,PA,NA,NA,64.10767696909272,NA
17103,Dauphin County,PA,NA,28.812056737588655,NA,NA
17109,Dauphin County,PA,NA,17.02127659574468,NA,NA
17110,Dauphin County,PA,NA,NA,19.740777666999005,NA
17111,Dauphin County,PA,66.84210526315789,9.397163120567376,NA,NA
17201,Franklin County,PA,NA,NA,74.27716849451646,NA
17202,Franklin County,PA,NA,NA,12.163509471585245,NA
17225,Franklin County,PA,NA,47.340425531914896,NA,NA
17315,York County,PA,NA,NA,38.18544366899302,NA
17325,Adams County,PA,58.42105263157895,NA,3.788634097706879,9.243697478991598
17331,York County,PA,NA,4.25531914893617,NA,NA
17339,York County,PA,NA,NA,NA,99.57983193277312
17345,York County,PA,77.36842105263158,NA,NA,NA
17347,York County,PA,NA,NA,NA,94.9579831932773
17349,York County,PA,NA,97.51773049645391,NA,NA
17402,York County,PA,32.631578947368425,NA,NA,NA
17403,York County,PA,NA,55.673758865248224,64.10767696909272,NA
17404,York County,PA,NA,NA,9.272183449651047,NA
17406,York County,PA,NA,26.329787234042552,NA,NA
17527,Lancaster County,PA,100,NA,NA,NA
17543,Lancaster County,PA,NA,NA,32.30309072781655,NA
17545,Lancaster County,PA,NA,NA,55.1345962113659,NA
17560,Lancaster County,PA,NA,83.86524822695036,NA,NA
17584,Lancaster County,PA,NA,NA,NA,33.403361344537814
17815,Columbia County,PA,60,9.840425531914894,7.676969092721834,55.25210084033614
17857,Northumberland County,PA,NA,88.03191489361703,NA,NA
17870,Snyder County,PA,NA,NA,70.28913260219342,NA
18015,Northampton County,PA,NA,24.02482269503546,NA,NA
18017,Northampton County,PA,NA,NA,2.8913260219341974,NA
18032,Lehigh County,PA,NA,90.60283687943263,NA,NA
18036,Lehigh County,PA,NA,56.38297872340425,NA,NA
18049,Lehigh County,PA,NA,NA,77.7666999002991,NA
18054,Montgomery County,PA,NA,NA,97.40777666999003,NA
18062,Lehigh County,PA,NA,NA,NA,23.319327731092436
18064,Northampton County,PA,NA,NA,17.547357926221334,16.176470588235293
18067,Northampton County,PA,NA,82.89007092198581,21.136590229312063,NA
18069,Lehigh County,PA,NA,78.36879432624113,NA,NA
18071,Carbon County,PA,NA,NA,91.02691924227318,NA
18103,Lehigh County,PA,NA,3.102836879432624,NA,NA
18109,Lehigh County,PA,NA,17.819148936170212,NA,NA
18214,Schuylkill County,PA,NA,NA,99.20239282153538,NA
18222,Luzerne County,PA,NA,90.51418439716312,NA,NA
18301,Monroe County,PA,NA,25.70921985815603,NA,NA
18302,Monroe County,PA,NA,41.66666666666667,NA,NA
18360,Monroe County,PA,NA,97.69503546099291,NA,NA
18421,Susquehanna County,PA,NA,NA,86.93918245264207,NA
18504,Lackawanna County,PA,NA,52.5709219858156,NA,NA
18508,Lackawanna County,PA,NA,NA,35.09471585244267,NA
18612,Luzerne County,PA,NA,97.78368794326241,NA,NA
18635,Luzerne County,PA,NA,NA,96.61016949152543,NA
18641,Luzerne County,PA,NA,NA,NA,61.76470588235294
18661,Luzerne County,PA,NA,NA,98.4047856430708,NA
18707,Luzerne County,PA,NA,NA,23.52941176470588,NA
18853,Bradford County,PA,NA,NA,99.30209371884347,NA
18938,Bucks County,PA,NA,88.20921985815603,NA,NA
18940,Bucks County,PA,NA,76.86170212765957,NA,NA
18966,Bucks County,PA,NA,NA,NA,10.084033613445378
18976,Bucks County,PA,68.42105263157895,NA,NA,NA
19006,Montgomery County,PA,NA,NA,55.932203389830505,NA
19010,Delaware County,PA,NA,NA,77.66699900299102,NA
19012,Montgomery County,PA,NA,NA,91.22632103688933,NA
19013,Delaware County,PA,NA,40.0709219858156,NA,NA
19018,Delaware County,PA,NA,NA,27.517447657028914,NA
19023,Delaware County,PA,NA,20.833333333333336,NA,NA
19027,Montgomery County,PA,NA,NA,26.420737786640082,NA
19040,Montgomery County,PA,NA,NA,NA,26.47058823529412
19041,Delaware County,PA,NA,90.86879432624113,80.95712861415753,NA
19053,Bucks County,PA,NA,NA,56.729810568295115,NA
19061,Delaware County,PA,NA,NA,90.5284147557328,NA
19063,Delaware County,PA,NA,NA,8.275174476570289,NA
19064,Delaware County,PA,NA,NA,34.79561316051844,NA
19087,Chester County,PA,NA,NA,81.95413758723828,NA
19090,Montgomery County,PA,NA,36.08156028368794,94.51645064805582,NA
19103,Philadelphia County,PA,NA,34.751773049645394,NA,NA
19115,Philadelphia County,PA,NA,NA,13.060817547357924,NA
19120,Philadelphia County,PA,NA,10.638297872340425,NA,NA
19124,Philadelphia County,PA,NA,0.6205673758865249,NA,NA
19125,Philadelphia County,PA,NA,NA,74.17746759720838,NA
19130,Philadelphia County,PA,NA,NA,81.85443668993021,NA
19134,Philadelphia County,PA,NA,NA,10.069790628115653,NA
19139,Philadelphia County,PA,NA,NA,4.685942173479561,NA
19140,Philadelphia County,PA,0,NA,NA,NA
19142,Philadelphia County,PA,NA,NA,31.704885343968098,NA
19143,Philadelphia County,PA,NA,NA,9.172482552342972,NA
19145,Philadelphia County,PA,7.894736842105263,NA,NA,NA
19147,Philadelphia County,PA,NA,10.904255319148938,NA,NA
19148,Philadelphia County,PA,NA,NA,NA,39.075630252100844
19312,Chester County,PA,NA,NA,NA,44.537815126050425
19333,Chester County,PA,NA,98.84751773049646,NA,NA
19335,Chester County,PA,NA,37.94326241134752,36.29112662013958,NA
19355,Chester County,PA,NA,NA,63.808574277168496,NA
19380,Chester County,PA,NA,NA,22.93120638085743,NA
19382,Chester County,PA,65.26315789473685,NA,28.8135593220339,NA
19401,Montgomery County,PA,NA,63.74113475177305,NA,82.56302521008404
19422,Montgomery County,PA,NA,NA,27.517447657028914,NA
19438,Montgomery County,PA,NA,NA,NA,54.621848739495796
19446,Montgomery County,PA,NA,8.156028368794328,57.726819541375875,NA
19465,Chester County,PA,NA,40.86879432624114,NA,NA
19468,Montgomery County,PA,NA,29.875886524822693,26.021934197407777,NA
19475,Chester County,PA,NA,65.24822695035462,NA,NA
19508,Berks County,PA,NA,NA,31.505483549351943,NA
19512,Berks County,PA,NA,49.9113475177305,NA,NA
19522,Berks County,PA,NA,NA,26.719840478564304,NA
19526,Berks County,PA,NA,82.00354609929079,NA,NA
19560,Berks County,PA,NA,72.4290780141844,70.58823529411765,NA
19567,Berks County,PA,NA,NA,NA,75
19601,Berks County,PA,NA,NA,36.68993020937189,NA
19606,Berks County,PA,NA,58.687943262411345,NA,NA
19607,Berks County,PA,NA,NA,87.43768693918246,NA
19610,Berks County,PA,NA,NA,58.125623130608176,NA
02809,Bristol County,RI,NA,NA,56.33100697906281,NA
02852,Washington County,RI,NA,33.33333333333333,NA,NA
02857,Providence County,RI,NA,NA,NA,81.9327731092437
02861,Providence County,RI,NA,NA,NA,72.68907563025209
02878,Newport County,RI,NA,NA,93.91824526420737,NA
02885,Bristol County,RI,NA,87.85460992907801,NA,NA
02886,Kent County,RI,NA,NA,48.65403788634098,6.512605042016808
02893,Kent County,RI,NA,NA,17.048853439680958,NA
02904,Providence County,RI,30.526315789473685,NA,13.65902293120638,NA
02906,Providence County,RI,NA,NA,33.100697906281155,80.67226890756302
02908,Providence County,RI,NA,30.673758865248228,NA,NA
02915,Providence County,RI,NA,66.48936170212765,NA,NA
02919,Providence County,RI,NA,NA,53.33998005982053,NA
02920,Providence County,RI,51.05263157894737,NA,NA,NA
02921,Providence County,RI,NA,NA,73.97806580259221,NA
29053,Lexington County,SC,NA,45.56737588652482,NA,NA
29072,Lexington County,SC,NA,18.439716312056735,NA,NA
29073,Lexington County,SC,NA,NA,29.31206380857428,NA
29078,Kershaw County,SC,NA,NA,59.82053838484547,NA
29154,Sumter County,SC,NA,69.59219858156028,NA,NA
29205,Richland County,SC,NA,66.66666666666666,NA,NA
29229,Richland County,SC,NA,NA,73.08075772681954,NA
29365,Spartanburg County,SC,NA,93.35106382978722,NA,NA
29388,Spartanburg County,SC,NA,51.06382978723404,NA,NA
29401,Charleston County,SC,NA,NA,76.27118644067797,NA
29445,Berkeley County,SC,NA,16.04609929078014,NA,NA
29485,Dorchester County,SC,NA,NA,NA,35.714285714285715
29486,Berkeley County,SC,NA,NA,80.85742771684946,NA
29511,Horry County,SC,NA,NA,88.63409770687937,NA
29527,Horry County,SC,NA,NA,36.59022931206381,NA
29536,Dillon County,SC,NA,44.148936170212764,NA,NA
29554,Williamsburg County,SC,NA,92.99645390070921,NA,NA
29574,Marion County,SC,NA,75.70921985815603,NA,NA
29577,Horry County,SC,NA,NA,39.980059820538386,NA
29615,Greenville County,SC,NA,NA,NA,18.067226890756302
29621,Anderson County,SC,31.05263157894737,NA,NA,NA
29653,Greenwood County,SC,NA,98.93617021276596,NA,NA
29720,Lancaster County,SC,NA,NA,51.74476570289133,NA
29812,Barnwell County,SC,NA,NA,96.41076769690928,NA
29924,Hampton County,SC,99.47368421052632,NA,NA,NA
57033,Minnehaha County,SD,NA,96.09929078014184,NA,NA
57103,Minnehaha County,SD,NA,NA,NA,4.621848739495799
57105,Minnehaha County,SD,NA,NA,88.03589232303091,NA
57301,Davison County,SD,NA,NA,25.623130608175476,NA
57350,Beadle County,SD,NA,NA,57.82652043868395,NA
57701,Pennington County,SD,NA,57.801418439716315,11.964107676969093,NA
57702,Pennington County,SD,NA,NA,NA,30.462184873949578
57783,Lawrence County,SD,NA,82.26950354609929,NA,NA
37013,Davidson County,TN,NA,NA,11.864406779661017,NA
37027,Williamson County,TN,NA,NA,16.650049850448653,NA
37072,Davidson County,TN,NA,52.92553191489362,NA,NA
37075,Sumner County,TN,NA,NA,56.929212362911265,NA
37076,Davidson County,TN,NA,NA,23.230309072781655,NA
37080,Davidson County,TN,NA,NA,83.84845463609173,NA
37087,Wilson County,TN,NA,NA,18.544366899302094,NA
37110,Warren County,TN,NA,35.90425531914894,NA,NA
37127,Rutherford County,TN,64.73684210526316,NA,NA,NA
37128,Rutherford County,TN,NA,19.326241134751772,NA,NA
37135,Williamson County,TN,NA,NA,86.14157527417746,NA
37167,Rutherford County,TN,NA,49.37943262411347,NA,NA
37172,Robertson County,TN,NA,8.953900709219859,NA,NA
37188,Robertson County,TN,NA,NA,91.52542372881356,NA
37204,Davidson County,TN,NA,NA,90.82751744765703,NA
37355,Coffee County,TN,NA,55.85106382978723,NA,NA
37357,Warren County,TN,NA,82.62411347517731,NA,NA
37377,Hamilton County,TN,NA,NA,15.154536390827516,NA
37601,Washington County,TN,NA,9.663120567375886,NA,NA
37604,Washington County,TN,NA,58.42198581560284,NA,NA
37620,Sullivan County,TN,NA,7.092198581560284,NA,NA
37643,Carter County,TN,NA,6.914893617021277,NA,NA
37650,Unicoi County,TN,NA,NA,33.79860418743769,NA
37659,Washington County,TN,NA,26.773049645390074,NA,NA
37665,Sullivan County,TN,NA,NA,90.72781655034895,NA
37742,Loudon County,TN,NA,63.38652482269504,NA,NA
37745,Greene County,TN,NA,17.4645390070922,NA,NA
37763,Roane County,TN,NA,NA,31.006979062811563,NA
37769,Anderson County,TN,NA,73.581560283687935,NA,NA
37803,Blount County,TN,NA,54.25531914893617,NA,NA
37804,Blount County,TN,NA,NA,NA,78.99159663865547
37813,Hamblen County,TN,NA,19.414893617021274,NA,NA
37921,Knox County,TN,NA,20.47872340425532,NA,NA
38017,Shelby County,TN,NA,34.66312056737589,40.47856430707876,NA
38058,Tipton County,TN,NA,NA,NA,90.96638655462185
38109,Shelby County,TN,NA,NA,82.05383848454636,NA
38112,Shelby County,TN,NA,52.12765957446809,NA,NA
38116,Shelby County,TN,NA,NA,23.629112662013956,NA
38122,Shelby County,TN,NA,NA,92.72183449651047,NA
38301,Madison County,TN,NA,45.744680851063826,NA,NA
38375,McNairy County,TN,50,NA,NA,NA
38401,Maury County,TN,NA,NA,NA,18.69747899159664
38583,White County,TN,NA,17.287234042553195,NA,NA
75002,Collin County,TX,NA,13.120567375886525,NA,NA
75006,Dallas County,TX,NA,78.98936170212765,NA,NA
75023,Collin County,TX,NA,NA,27.31804586241276,NA
75025,Collin County,TX,NA,45.47872340425532,NA,NA
75039,Dallas County,TX,NA,87.677304964539,NA,NA
75040,Dallas County,TX,14.210526315789473,NA,NA,NA
75052,Dallas County,TX,NA,NA,64.70588235294117,NA
75075,Collin County,TX,NA,NA,25.72283150548355,37.39495798319328
75080,Dallas County,TX,NA,NA,NA,14.285714285714285
75087,Rockwall County,TX,NA,31.20567375886525,NA,NA
75103,Van Zandt County,TX,NA,NA,38.48454636091725,NA
75115,Dallas County,TX,NA,13.563829787234042,NA,NA
75137,Dallas County,TX,NA,91.57801418439716,NA,NA
75189,Rockwall County,TX,27.368421052631582,34.13120567375886,NA,NA
75205,Dallas County,TX,NA,92.02127659574468,NA,NA
75212,Dallas County,TX,NA,NA,NA,40.12605042016807
75223,Dallas County,TX,NA,77.48226950354609,NA,NA
75240,Dallas County,TX,NA,57.62411347517731,NA,NA
75474,Hunt County,TX,NA,NA,NA,69.74789915966386
75551,Cass County,TX,NA,NA,NA,83.40336134453781
75602,Gregg County,TX,NA,NA,NA,65.54621848739495
75604,Gregg County,TX,NA,30.230496453900706,NA,NA
75650,Harrison County,TX,81.57894736842105,NA,NA,NA
75701,Smith County,TX,NA,NA,NA,27.100840336134453
75703,Smith County,TX,NA,NA,NA,60.924369747899156
75751,Henderson County,TX,NA,NA,38.6839481555334,NA
75752,Henderson County,TX,NA,NA,NA,98.31932773109243
75758,Henderson County,TX,NA,NA,32.103688933200395,NA
75762,Smith County,TX,NA,65.1595744680851,NA,NA
75791,Smith County,TX,NA,NA,NA,27.73109243697479
75801,Anderson County,TX,NA,NA,NA,81.09243697478992
75954,Shelby County,TX,96.3157894736842,NA,NA,NA
76011,Tarrant County,TX,NA,44.237588652482266,NA,NA
76020,Tarrant County,TX,NA,NA,52.64207377866401,NA
76021,Tarrant County,TX,NA,95.39007092198581,NA,NA
76034,Tarrant County,TX,NA,NA,77.3678963110668,NA
76039,Tarrant County,TX,24.736842105263158,NA,49.750747756729815,NA
76048,Hood County,TX,NA,89.00709219858156,NA,NA
76049,Hood County,TX,NA,NA,NA,67.01680672268907
76052,Tarrant County,TX,NA,89.53900709219859,NA,NA
76109,Tarrant County,TX,56.315789473684205,NA,NA,NA
76116,Tarrant County,TX,NA,46.71985815602837,NA,NA
76119,Tarrant County,TX,NA,NA,5.982053838484546,NA
76134,Tarrant County,TX,NA,18.52836879432624,NA,NA
76179,Tarrant County,TX,NA,20.656028368794328,NA,NA
76182,Tarrant County,TX,NA,NA,NA,45.588235294117645
76209,Denton County,TX,NA,69.41489361702128,NA,NA
76244,Tarrant County,TX,NA,48.315602836879435,NA,NA
76262,Denton County,TX,NA,NA,61.7148554336989,NA
76501,Bell County,TX,NA,NA,NA,25
76513,Bell County,TX,NA,79.16666666666666,NA,NA
76541,Bell County,TX,NA,NA,33.39980059820538,NA
76542,Bell County,TX,NA,7.712765957446808,NA,NA
76645,Hill County,TX,NA,NA,NA,70.16806722689076
76657,McLennan County,TX,NA,78.28014184397163,NA,NA
76708,McLennan County,TX,NA,NA,71.28614157527417,NA
76711,McLennan County,TX,NA,95.56737588652481,NA,NA
76821,Runnels County,TX,NA,NA,98.10568295114656,NA
77007,Harris County,TX,NA,70.30141843971631,NA,NA
77016,Harris County,TX,NA,NA,61.814556331006976,NA
77047,Harris County,TX,NA,45.744680851063826,NA,NA
77064,Harris County,TX,NA,73.13829787234043,NA,NA
77065,Harris County,TX,NA,NA,31.60518444666002,NA
77066,Harris County,TX,NA,NA,74.57627118644068,NA
77077,Harris County,TX,NA,NA,71.38584247258225,NA
77079,Harris County,TX,NA,63.652482269503544,NA,NA
77080,Harris County,TX,NA,NA,NA,48.319327731092436
77084,Harris County,TX,NA,49.55673758865248,NA,NA
77090,Harris County,TX,NA,19.9468085106383,NA,NA
77095,Harris County,TX,NA,NA,35.294117647058826,NA
77345,Harris County,TX,NA,NA,NA,52.52100840336135
77346,Harris County,TX,NA,NA,26.22133599202393,NA
77354,Montgomery County,TX,NA,38.20921985815603,NA,NA
77356,Montgomery County,TX,NA,NA,61.016949152542374,NA
77380,Montgomery County,TX,NA,60.99290780141844,NA,NA
77382,Montgomery County,TX,NA,NA,50.54835493519442,NA
77407,Fort Bend County,TX,NA,41.66666666666667,NA,NA
77422,Brazoria County,TX,NA,95.92198581560284,NA,NA
77429,Harris County,TX,NA,6.205673758865248,3.389830508474576,NA
77433,Harris County,TX,NA,6.648936170212766,NA,NA
77445,Waller County,TX,NA,NA,NA,82.14285714285714
77449,Harris County,TX,NA,5.585106382978723,NA,NA
77480,Brazoria County,TX,NA,92.90780141843972,NA,NA
77486,Brazoria County,TX,NA,91.48936170212765,NA,NA
77518,Galveston County,TX,NA,NA,NA,93.69747899159664
77539,Galveston County,TX,NA,42.10992907801418,32.901296111665005,NA
77546,Galveston County,TX,NA,17.5531914893617,NA,NA
77584,Brazoria County,TX,NA,81.38297872340425,NA,NA
77591,Galveston County,TX,NA,NA,89.83050847457628,NA
77657,Hardin County,TX,NA,47.16312056737589,NA,NA
77701,Jefferson County,TX,NA,NA,54.33698903290129,NA
77705,Jefferson County,TX,NA,77.92553191489363,NA,NA
77708,Jefferson County,TX,NA,NA,92.42273180458625,NA
77713,Jefferson County,TX,NA,69.8581560283688,NA,NA
77802,Brazos County,TX,NA,NA,62.612163509471586,31.30252100840336
77807,Brazos County,TX,48.94736842105264,87.05673758865248,NA,NA
77840,Brazos County,TX,NA,33.86524822695036,NA,NA
77845,Brazos County,TX,NA,NA,19.641076769690926,NA
77901,Victoria County,TX,NA,NA,15.752741774675972,NA
77963,Goliad County,TX,NA,NA,80.75772681954138,NA
78016,Medina County,TX,NA,NA,NA,77.52100840336135
78028,Kerr County,TX,NA,NA,11.365902293120637,NA
78109,Bexar County,TX,NA,36.702127659574465,NA,NA
78112,Bexar County,TX,66.84210526315789,NA,NA,NA
78132,Comal County,TX,NA,59.48581560283688,NA,NA
78222,Bexar County,TX,NA,NA,68.49451645064806,NA
78229,Bexar County,TX,NA,NA,75.77268195413758,NA
78233,Bexar County,TX,NA,61.702127659574465,NA,NA
78332,Jim Wells County,TX,NA,77.6595744680851,NA,NA
78501,Hidalgo County,TX,NA,35.726950354609926,NA,NA
78521,Cameron County,TX,NA,23.138297872340424,NA,NA
78613,Williamson County,TX,NA,24.113475177304963,NA,NA
78629,Gonzales County,TX,NA,81.91489361702128,NA,74.78991596638656
78633,Williamson County,TX,NA,NA,NA,44.957983193277315
78641,Williamson County,TX,NA,44.06028368794326,NA,NA
78664,Williamson County,TX,NA,NA,NA,21.218487394957982
78665,Williamson County,TX,NA,NA,NA,59.87394957983193
78681,Williamson County,TX,NA,NA,24.127617148554336,NA
78750,Travis County,TX,NA,NA,66.99900299102693,NA
79102,Potter County,TX,NA,81.29432624113475,NA,NA
79103,Potter County,TX,NA,86.70212765957447,NA,NA
79109,Randall County,TX,NA,NA,NA,40.54621848739496
79110,Randall County,TX,NA,54.07801418439716,NA,NA
79118,Randall County,TX,NA,60.90425531914894,88.93320039880359,NA
79360,Gaines County,TX,NA,41.312056737588655,NA,NA
79414,Lubbock County,TX,NA,NA,61.11665004985045,NA
79512,Mitchell County,TX,NA,75.88652482269504,NA,NA
79763,Ector County,TX,NA,25.53191489361702,NA,NA
79766,Ector County,TX,NA,87.5,NA,NA
79904,El Paso County,TX,NA,53.90070921985816,NA,NA
79905,El Paso County,TX,NA,NA,NA,43.27731092436975
79932,El Paso County,TX,NA,73.49290780141844,NA,NA
79936,El Paso County,TX,NA,NA,13.559322033898304,NA
84009,Salt Lake County,UT,NA,NA,48.155533399800596,NA
84010,Davis County,UT,NA,30.585106382978722,NA,NA
84047,Salt Lake County,UT,NA,65.33687943262412,NA,NA
84065,Salt Lake County,UT,NA,28.280141843971627,NA,NA
84084,Salt Lake County,UT,NA,NA,NA,55.46218487394958
84087,Davis County,UT,NA,NA,75.47357926221336,NA
84088,Salt Lake County,UT,NA,NA,41.27617148554337,NA
84092,Salt Lake County,UT,NA,NA,66.50049850448654,NA
84096,Salt Lake County,UT,NA,NA,49.152542372881356,NA
84105,Salt Lake County,UT,NA,67.02127659574468,NA,NA
84116,Salt Lake County,UT,NA,76.77304964539007,NA,NA
84118,Salt Lake County,UT,NA,10.72695035460993,NA,NA
84121,Salt Lake County,UT,NA,30.851063829787233,NA,NA
84123,Salt Lake County,UT,NA,12.854609929078014,NA,NA
84124,Salt Lake County,UT,NA,NA,NA,41.17647058823529
84720,Iron County,UT,NA,91.22340425531915,NA,NA
84737,Washington County,UT,NA,89.98226950354609,NA,NA
84780,Washington County,UT,NA,NA,68.29511465603191,NA
84790,Washington County,UT,NA,33.59929078014184,NA,NA
05201,Bennington County,VT,NA,36.258865248226954,NA,NA
05446,Chittenden County,VT,NA,NA,78.26520438683949,NA
05478,Franklin County,VT,NA,NA,25.22432701894317,NA
20109,Prince William County,VA,NA,NA,NA,71.21848739495799
20110,Manassas city,VA,NA,89.27304964539007,NA,NA
20175,Loudoun County,VA,NA,82.80141843971631,NA,NA
20176,Loudoun County,VA,NA,67.90780141843972,48.85343968095713,NA
20186,Fauquier County,VA,NA,73.40425531914893,NA,NA
20194,Fairfax County,VA,NA,NA,NA,85.50420168067227
22031,Fairfax County,VA,NA,79.07801418439716,NA,NA
22033,Fairfax County,VA,46.31578947368421,NA,94.01794616151545,NA
22039,Fairfax County,VA,NA,NA,86.64007976071785,NA
22066,Fairfax County,VA,NA,85.19503546099291,NA,NA
22153,Fairfax County,VA,NA,NA,44.8654037886341,91.38655462184873
22180,Fairfax County,VA,NA,NA,70.08973080757727,NA
22193,Prince William County,VA,NA,7.624113475177305,NA,NA
22201,Arlington County,VA,NA,NA,57.22831505483549,NA
22204,Arlington County,VA,NA,NA,67.4975074775673,NA
22205,Arlington County,VA,NA,78.10283687943263,NA,NA
22304,Alexandria city,VA,NA,7.9787234042553195,NA,NA
22309,Fairfax County,VA,NA,NA,NA,50.21008403361344
22310,Fairfax County,VA,NA,NA,53.938185443669,NA
22314,Alexandria city,VA,NA,21.98581560283688,NA,NA
22407,Spotsylvania County,VA,NA,NA,13.459621136590231,NA
22408,Spotsylvania County,VA,NA,NA,46.560319042871384,NA
22553,Spotsylvania County,VA,NA,NA,56.13160518444666,NA
22554,Stafford County,VA,NA,22.340425531914892,NA,NA
22664,Shenandoah County,VA,NA,64.27304964539007,NA,NA
22801,Harrisonburg city,VA,NA,83.95390070921985,58.524426719840484,NA
22802,Harrisonburg city,VA,NA,NA,38.88334995014955,NA
22853,Rockingham County,VA,NA,NA,NA,70.7983193277311
22903,Charlottesville city,VA,NA,NA,NA,57.98319327731093
23060,Henrico County,VA,NA,NA,43.56929212362911,NA
23111,Hanover County,VA,NA,38.652482269503544,NA,NA
23112,Chesterfield County,VA,NA,NA,51.14656031904287,31.512605042016805
23188,James City County,VA,NA,NA,NA,8.193277310924369
23226,Richmond city,VA,NA,NA,48.25523429710867,NA
23229,Henrico County,VA,NA,NA,30.807577268195413,NA
23320,Chesapeake city,VA,NA,NA,39.38185443668993,NA
23321,Chesapeake city,VA,NA,66.75531914893617,NA,NA
23434,Suffolk city,VA,NA,NA,NA,37.18487394957983
23455,Virginia Beach city,VA,NA,32.801418439716315,NA,NA
23464,Virginia Beach city,VA,NA,NA,16.051844466600198,NA
23508,Norfolk city,VA,NA,NA,NA,80.46218487394958
23513,Norfolk city,VA,NA,NA,55.63310069790628,NA
23523,Norfolk city,VA,NA,92.5531914893617,NA,NA
23601,Newport News city,VA,NA,47.695035460992905,NA,NA
23605,Newport News city,VA,NA,38.82978723404255,98.20538384845464,NA
23606,Newport News city,VA,NA,NA,20.03988035892323,60.29411764705882
23661,Hampton city,VA,NA,52.03900709219859,NA,NA
23701,Portsmouth city,VA,NA,80.31914893617021,48.45463609172482,NA
23703,Portsmouth city,VA,10.526315789473683,NA,NA,NA
23805,Petersburg city,VA,NA,42.730496453900706,NA,NA
23936,Buckingham County,VA,NA,NA,67.29810568295115,NA
24015,Roanoke city,VA,NA,84.75177304964538,NA,NA
24019,Roanoke County,VA,NA,NA,NA,90.33613445378151
24055,Henry County,VA,NA,NA,96.31106679960119,NA
24112,Henry County,VA,NA,9.75177304964539,NA,NA
24134,Giles County,VA,NA,NA,81.15653040877368,NA
24382,Wythe County,VA,NA,NA,38.783649052841476,NA
24502,Lynchburg city,VA,NA,NA,NA,37.81512605042017
24517,Campbell County,VA,NA,96.89716312056737,NA,NA
24590,Albemarle County,VA,NA,NA,NA,72.47899159663865
98003,King County,WA,NA,67.4645390070922,NA,NA
98005,King County,WA,NA,74.55673758865248,NA,NA
98012,Snohomish County,WA,NA,90.1595744680851,NA,NA
98021,Snohomish County,WA,NA,72.25177304964538,NA,NA
98023,King County,WA,NA,17.287234042553195,NA,NA
98026,Snohomish County,WA,NA,25.354609929078016,NA,NA
98027,King County,WA,NA,NA,NA,45.378151260504204
98028,King County,WA,NA,NA,NA,87.81512605042016
98031,King County,WA,NA,NA,11.465603190428714,NA
98042,King County,WA,NA,10.28368794326241,NA,NA
98056,King County,WA,NA,NA,NA,85.71428571428571
98058,King County,WA,NA,22.606382978723406,NA,NA
98059,King County,WA,NA,NA,84.7457627118644,NA
98075,King County,WA,NA,70.2127659574468,NA,NA
98092,King County,WA,NA,15.868794326241135,NA,NA
98106,King County,WA,NA,50.443262411347526,NA,NA
98107,King County,WA,NA,NA,NA,90.75630252100841
98117,King County,WA,NA,NA,NA,88.8655462184874
98119,King County,WA,NA,60.72695035460993,NA,NA
98225,Whatcom County,WA,NA,NA,33.20039880358923,NA
98226,Whatcom County,WA,NA,NA,28.713858424725824,NA
98248,Whatcom County,WA,NA,NA,NA,49.78991596638656
98258,Snohomish County,WA,NA,14.539007092198581,NA,NA
98261,San Juan County,WA,NA,NA,NA,84.03361344537815
98273,Skagit County,WA,NA,50.797872340425535,NA,NA
98282,Island County,WA,NA,NA,84.3469591226321,NA
98310,Kitsap County,WA,NA,NA,53.14057826520438,NA
98312,Kitsap County,WA,NA,58.95390070921985,NA,NA
98335,Pierce County,WA,NA,49.46808510638298,NA,NA
98349,Pierce County,WA,NA,94.32624113475178,NA,NA
98359,Kitsap County,WA,NA,NA,NA,95.16806722689076
98362,Clallam County,WA,NA,NA,NA,24.369747899159663
98365,Jefferson County,WA,NA,NA,77.06879361914257,89.49579831932773
98366,Kitsap County,WA,NA,15.780141843971633,NA,NA
98370,Kitsap County,WA,NA,NA,31.405782652043868,NA
98374,Pierce County,WA,NA,32.5354609929078,NA,NA
98375,Pierce County,WA,NA,41.04609929078014,NA,NA
98380,Kitsap County,WA,NA,99.91134751773049,NA,NA
98407,Pierce County,WA,NA,NA,NA,64.49579831932773
98408,Pierce County,WA,NA,NA,74.77567298105683,NA
98498,Pierce County,WA,23.157894736842106,NA,NA,NA
98499,Pierce County,WA,24.210526315789473,NA,NA,NA
98531,Lewis County,WA,NA,62.23404255319149,NA,NA
98550,Grays Harbor County,WA,NA,74.91134751773049,NA,NA
98606,Clark County,WA,NA,NA,96.61016949152543,NA
98665,Clark County,WA,NA,NA,63.31006979062812,NA
98672,Klickitat County,WA,NA,99.7340425531915,NA,NA
98684,Clark County,WA,NA,72.16312056737588,NA,NA
98802,Douglas County,WA,NA,NA,52.54237288135594,NA
98837,Grant County,WA,NA,NA,22.831505483549353,NA
98841,Okanogan County,WA,NA,NA,58.32502492522432,NA
98848,Grant County,WA,NA,NA,69.99002991026919,NA
98948,Yakima County,WA,NA,NA,90.9272183449651,NA
99009,Spokane County,WA,NA,99.46808510638297,NA,NA
99016,Spokane County,WA,63.68421052631579,NA,NA,NA
99169,Adams County,WA,NA,99.11347517730496,NA,NA
99206,Spokane County,WA,44.73684210526316,NA,NA,NA
99207,Spokane County,WA,NA,81.20567375886525,NA,NA
99336,Benton County,WA,NA,76.59574468085107,NA,NA
99337,Benton County,WA,NA,NA,5.084745762711865,NA
99338,Benton County,WA,NA,NA,NA,76.89075630252101
99350,Benton County,WA,NA,NA,NA,49.57983193277311
99352,Benton County,WA,NA,NA,NA,2.3109243697478994
99353,Benton County,WA,NA,NA,NA,86.1344537815126
99354,Benton County,WA,NA,NA,NA,87.60504201680672
99357,Grant County,WA,NA,NA,100,NA
99362,Walla Walla County,WA,NA,NA,8.374875373878366,NA
20010,District of Columbia,DC,NA,NA,36.390827517447654,NA
20011,District of Columbia,DC,10.526315789473683,4.964539007092199,NA,NA
20015,District of Columbia,DC,NA,NA,72.08374875373879,NA
20016,District of Columbia,DC,NA,NA,NA,78.36134453781513
25177,Kanawha County,WV,NA,50.53191489361703,NA,NA
25312,Kanawha County,WV,NA,NA,82.55234297108674,NA
25404,Berkeley County,WV,NA,59.9290780141844,NA,NA
25504,Cabell County,WV,NA,NA,55.43369890329013,NA
25506,Lincoln County,WV,NA,NA,69.29212362911267,NA
25705,Cabell County,WV,NA,NA,45.16450648055832,NA
26041,Marshall County,WV,NA,NA,14.955134596211368,NA
26070,Brooke County,WV,NA,NA,79.86041874376869,NA
26104,Wood County,WV,42.63157894736842,NA,16.350947158524427,NA
26155,Wetzel County,WV,NA,70.56737588652481,NA,58.61344537815126
26164,Jackson County,WV,NA,50.797872340425535,NA,81.30252100840336
26187,Wood County,WV,NA,NA,41.77467597208375,NA
26241,Randolph County,WV,NA,22.429078014184398,NA,NA
26301,Harrison County,WV,NA,4.432624113475177,NA,NA
26426,Harrison County,WV,NA,NA,86.73978065802592,NA
26501,Monongalia County,WV,NA,56.11702127659575,NA,NA
26505,Monongalia County,WV,NA,NA,4.885343968095713,NA
26508,Monongalia County,WV,NA,2.8368794326241136,NA,NA
26651,Nicholas County,WV,NA,NA,88.83349950149551,NA
53012,Ozaukee County,WI,NA,NA,38.08574277168494,NA
53024,Ozaukee County,WI,37.89473684210527,NA,NA,NA
53027,Washington County,WI,NA,NA,94.31704885343967,NA
53051,Waukesha County,WI,NA,84.8404255319149,NA,NA
53066,Waukesha County,WI,NA,29.432624113475175,NA,NA
53073,Sheboygan County,WI,NA,74.02482269503547,NA,NA
53098,Dodge County,WI,NA,52.74822695035461,NA,NA
53104,Kenosha County,WI,NA,66.84397163120568,NA,NA
53115,Walworth County,WI,65.78947368421053,NA,NA,NA
53120,Walworth County,WI,68.94736842105263,NA,NA,NA
53128,Walworth County,WI,NA,NA,79.36191425722832,NA
53132,Milwaukee County,WI,NA,NA,15.852442671984049,NA
53142,Kenosha County,WI,NA,5.2304964539007095,NA,NA
53143,Kenosha County,WI,NA,NA,20.937188434695912,NA
53149,Waukesha County,WI,NA,NA,61.615154536390826,NA
53154,Milwaukee County,WI,NA,NA,8.175473579262214,NA
53168,Kenosha County,WI,NA,47.96099290780142,NA,NA
53182,Racine County,WI,73.15789473684211,NA,NA,NA
53202,Milwaukee County,WI,NA,NA,33.698903290129614,NA
53208,Milwaukee County,WI,NA,5.939716312056738,NA,NA
53212,Milwaukee County,WI,NA,NA,10.269192422731804,NA
53218,Milwaukee County,WI,NA,37.677304964539005,NA,NA
53219,Milwaukee County,WI,NA,NA,65.70289132602194,NA
53223,Milwaukee County,WI,NA,79.34397163120568,NA,NA
53224,Milwaukee County,WI,NA,57.26950354609929,NA,NA
53406,Racine County,WI,NA,33.687943262411345,12.462612163509473,NA
53511,Rock County,WI,NA,NA,12.26321036889332,25.210084033613445
53520,Green County,WI,NA,NA,43.17048853439681,NA
53528,Dane County,WI,NA,NA,77.3678963110668,NA
53532,Dane County,WI,NA,NA,76.76969092721835,NA
53534,Rock County,WI,NA,NA,42.57228315054836,NA
53536,Rock County,WI,NA,NA,76.66999002991027,NA
53546,Rock County,WI,NA,NA,2.991026919242273,NA
53548,Rock County,WI,NA,NA,18.943170488534395,NA
53549,Jefferson County,WI,NA,NA,NA,77.94117647058823
53562,Dane County,WI,NA,63.91843971631206,NA,NA
53563,Rock County,WI,87.89473684210526,98.75886524822694,NA,NA
53597,Dane County,WI,NA,NA,NA,72.05882352941177
53703,Dane County,WI,NA,86.87943262411348,NA,NA
53705,Dane County,WI,NA,41.66666666666667,NA,NA
53711,Dane County,WI,NA,NA,11.166500498504487,NA
53713,Dane County,WI,NA,70.47872340425532,NA,NA
53717,Dane County,WI,91.57894736842105,NA,NA,NA
53718,Dane County,WI,NA,NA,57.527417746759724,NA
53719,Dane County,WI,NA,45.0354609929078,85.14456630109672,NA
53821,Crawford County,WI,NA,NA,69.79062811565304,NA
53916,Dodge County,WI,NA,NA,NA,23.739495798319325
54001,Polk County,WI,NA,69.68085106382979,NA,NA
54143,Marinette County,WI,NA,NA,NA,31.092436974789916
54151,Marinette County,WI,NA,NA,55.33399800598205,NA
54154,Oconto County,WI,NA,78.90070921985816,NA,NA
54401,Marathon County,WI,NA,NA,93.8185443668993,NA
54476,Marathon County,WI,NA,65.78014184397163,NA,NA
54487,Lincoln County,WI,NA,69.32624113475178,64.6061814556331,91.17647058823529
54501,Oneida County,WI,NA,NA,NA,85.92436974789915
54634,Vernon County,WI,NA,99.64539007092199,NA,NA
54650,La Crosse County,WI,NA,NA,47.756729810568295,NA
54669,La Crosse County,WI,NA,NA,NA,56.51260504201681
54837,Polk County,WI,NA,NA,NA,73.31932773109243
54880,Douglas County,WI,NA,8.067375886524824,58.125623130608176,NA
54935,Fond du Lac County,WI,NA,NA,NA,41.596638655462186
54949,Waupaca County,WI,NA,NA,99.10269192422732,NA
82009,Laramie County,WY,NA,91.04609929078015,44.96510468594217,NA
82201,Platte County,WY,NA,NA,82.25324027916251,NA
82240,Goshen County,WY,NA,NA,69.59122632103688,NA
82414,Park County,WY,70,NA,88.73379860418744,NA
