ZipCode,county,state,Adult,Retirement
35004,St. Clair County,AL,NA,83.98791540785498
35023,Jefferson County,AL,27.012278308321964,NA
35033,Cullman County,AL,95.22510231923602,NA
35043,Shelby County,AL,98.36289222373806,NA
35057,Cullman County,AL,64.25648021828103,NA
35071,Jefferson County,AL,62.48294679399727,NA
35080,Shelby County,AL,51.56889495225102,NA
35096,Talladega County,AL,95.49795361527967,NA
35204,Jefferson County,AL,60.7094133697135,NA
35215,Jefferson County,AL,29.877216916780352,NA
35218,Jefferson County,AL,55.66166439290586,NA
35404,Tuscaloosa County,AL,56.070941336971345,NA
35474,Hale County,AL,NA,75.22658610271903
35476,Tuscaloosa County,AL,NA,72.20543806646525
35504,Walker County,AL,NA,55.58912386706949
35586,Lamar County,AL,NA,88.21752265861026
35613,Limestone County,AL,35.879945429740786,NA
35661,Colbert County,AL,NA,63.44410876132931
35810,Madison County,AL,27.421555252387446,NA
35967,DeKalb County,AL,55.934515688949524,NA
35983,Cherokee County,AL,89.08594815825374,NA
36037,Butler County,AL,49.931787175989086,85.49848942598187
36064,Montgomery County,AL,85.12960436562074,NA
36093,Elmore County,AL,83.90177353342429,NA
36104,Montgomery County,AL,81.9918144611187,NA
36265,Calhoun County,AL,NA,51.3595166163142
36442,Covington County,AL,98.90859481582538,98.79154078549848
36451,Clarke County,AL,79.53615279672579,NA
36502,Escambia County,AL,NA,67.37160120845923
36551,Baldwin County,AL,98.77216916780355,NA
36609,Mobile County,AL,52.11459754433834,NA
36801,Lee County,AL,93.99727148703957,NA
99508,Anchorage Municipality,AK,42.701227830832195,NA
85032,Maricopa County,AZ,13.096862210095498,NA
85033,Maricopa County,AZ,14.870395634379264,NA
85202,Maricopa County,AZ,18.144611186903138,NA
85212,Maricopa County,AZ,50.20463847203275,NA
85281,Maricopa County,AZ,31.105047748976805,NA
85302,Maricopa County,AZ,NA,24.169184290030213
85326,Maricopa County,AZ,NA,38.368580060422964
85339,Maricopa County,AZ,19.099590723055933,NA
85364,Yuma County,AZ,32.196452933151434,NA
85710,Pima County,AZ,7.91268758526603,14.501510574018129
85711,Pima County,AZ,30.013642564802183,NA
85713,Pima County,AZ,6.412005457025921,NA
85730,Pima County,AZ,65.4843110504775,81.2688821752266
85739,Pinal County,AZ,NA,25.075528700906347
85756,Pima County,AZ,71.48703956343793,NA
86040,Coconino County,AZ,89.90450204638472,NA
86303,Yavapai County,AZ,55.38881309686221,NA
86514,Apache County,AZ,96.86221009549796,NA
71602,Jefferson County,AR,53.206002728512956,NA
71655,Drew County,AR,NA,58.30815709969789
71701,Ouachita County,AR,NA,47.73413897280967
72404,Craighead County,AR,43.38335607094134,NA
90016,Los Angeles County,CA,37.653478854024556,NA
90022,Los Angeles County,CA,31.78717598908595,NA
90032,Los Angeles County,CA,NA,50.755287009063444
90038,Los Angeles County,CA,94.6793997271487,NA
90044,Los Angeles County,CA,6.684856753069577,NA
90045,Los Angeles County,CA,76.53478854024557,NA
90247,Los Angeles County,CA,69.30422919508868,NA
90280,Los Angeles County,CA,28.240109140518417,NA
90293,Los Angeles County,CA,NA,98.48942598187311
90404,Los Angeles County,CA,NA,50.15105740181269
90501,Los Angeles County,CA,42.01909959072306,NA
90505,Los Angeles County,CA,50.75034106412005,NA
90660,Los Angeles County,CA,24.829467939972716,NA
90703,Los Angeles County,CA,52.796725784447474,NA
90706,Los Angeles County,CA,21.69167803547067,NA
90717,Los Angeles County,CA,NA,54.98489425981873
90746,Los Angeles County,CA,97.27148703956344,NA
90805,Los Angeles County,CA,NA,21.75226586102719
90806,Los Angeles County,CA,49.113233287858115,NA
91006,Los Angeles County,CA,75.7162346521146,NA
91016,Los Angeles County,CA,93.45156889495226,NA
91104,Los Angeles County,CA,86.08458390177354,NA
91105,Los Angeles County,CA,NA,56.49546827794561
91387,Los Angeles County,CA,64.66575716234652,NA
91710,San Bernardino County,CA,NA,87.31117824773413
91752,Riverside County,CA,45.020463847203274,NA
91770,Los Angeles County,CA,91.40518417462484,NA
91776,Los Angeles County,CA,NA,90.6344410876133
91942,San Diego County,CA,54.979536152796726,NA
92064,San Diego County,CA,43.11050477489768,NA
92118,San Diego County,CA,NA,56.797583081571
92119,San Diego County,CA,77.76261937244202,NA
92123,San Diego County,CA,NA,39.87915407854985
92227,Imperial County,CA,36.15279672578445,NA
92284,San Bernardino County,CA,NA,70.09063444108762
92301,San Bernardino County,CA,NA,42.296072507552864
92311,San Bernardino County,CA,72.71487039563438,NA
92325,San Bernardino County,CA,75.03410641200546,NA
92373,San Bernardino County,CA,91.81446111869032,NA
92374,San Bernardino County,CA,NA,54.0785498489426
92505,Riverside County,CA,83.08321964529331,NA
92509,Riverside County,CA,49.24965893587995,NA
92557,Riverside County,CA,32.33287858117326,NA
92563,Riverside County,CA,NA,36.555891238670696
92567,Riverside County,CA,91.95088676671213,NA
92592,Riverside County,CA,80.76398362892225,NA
92604,Orange County,CA,NA,85.80060422960725
92620,Orange County,CA,96.45293315143248,NA
92649,Orange County,CA,48.43110504774898,NA
92802,Orange County,CA,47.61255115961801,NA
93004,Ventura County,CA,48.97680763983629,NA
93010,Ventura County,CA,NA,52.567975830815705
93023,Ventura County,CA,98.63574351978171,NA
93030,Ventura County,CA,NA,66.16314199395771
93033,Ventura County,CA,10.095497953615281,NA
93063,Ventura County,CA,30.69577080491132,NA
93215,Kern County,CA,51.84174624829468,NA
93230,Kings County,CA,15.961800818553886,NA
93280,Kern County,CA,94.1336971350614,NA
93292,Tulare County,CA,35.60709413369714,NA
93534,Los Angeles County,CA,NA,62.53776435045317
93555,Kern County,CA,50.886766712141885,NA
93638,Madera County,CA,59.2087312414734,NA
93704,Fresno County,CA,80.0818553888131,48.6404833836858
93720,Fresno County,CA,57.02592087312415,NA
93727,Fresno County,CA,54.70668485675307,NA
93907,Monterey County,CA,99.18144611186904,NA
93950,Monterey County,CA,90.72305593451568,NA
94112,San Francisco County,CA,20.73669849931787,NA
94114,San Francisco County,CA,41.06412005457026,NA
94124,San Francisco County,CA,21.418826739427015,NA
94131,San Francisco County,CA,76.67121418826738,NA
94134,San Francisco County,CA,NA,24.47129909365559
94303,San Mateo County,CA,24.147339699863572,NA
94513,Contra Costa County,CA,71.07776261937244,22.054380664652566
94534,Solano County,CA,55.52523874488404,NA
94568,Alameda County,CA,46.24829467939973,NA
94607,Alameda County,CA,61.80081855388813,NA
94619,Alameda County,CA,69.44065484311051,NA
94702,Alameda County,CA,89.7680763983629,NA
94930,Marin County,CA,98.4993178717599,NA
95008,Santa Clara County,CA,NA,79.15407854984893
95020,Santa Clara County,CA,NA,78.54984894259819
95023,San Benito County,CA,NA,31.1178247734139
95051,Santa Clara County,CA,86.49386084583902,NA
95070,Santa Clara County,CA,96.1800818553888,NA
95076,Santa Cruz County,CA,17.189631650750343,NA
95126,Santa Clara County,CA,77.35334242837654,NA
95148,Santa Clara County,CA,57.2987721691678,NA
95212,San Joaquin County,CA,69.84993178717599,NA
95301,Merced County,CA,97.81718963165075,NA
95336,San Joaquin County,CA,26.330150068212827,NA
95337,San Joaquin County,CA,NA,39.274924471299094
95350,Stanislaus County,CA,NA,10.876132930513595
95482,Mendocino County,CA,32.605729877216916,NA
95757,Sacramento County,CA,82.94679399727148,72.80966767371602
95818,Sacramento County,CA,65.62073669849931,NA
95826,Sacramento County,CA,81.17326057298773,NA
95843,Sacramento County,CA,NA,91.54078549848943
95926,Butte County,CA,70.8049113233288,NA
95945,Nevada County,CA,50.34106412005457,NA
95965,Butte County,CA,16.098226466575717,NA
95973,Butte County,CA,19.64529331514325,NA
96022,Tehama County,CA,92.36016371077763,NA
96080,Tehama County,CA,37.10777626193724,NA
80011,Arapahoe County,CO,7.230559345156889,NA
80108,Douglas County,CO,79.1268758526603,NA
80112,Arapahoe County,CO,80.90040927694406,NA
80138,Douglas County,CO,80.6275579809004,NA
80204,Denver County,CO,81.30968622100954,NA
80233,Adams County,CO,23.328785811732605,NA
80517,Larimer County,CO,97.95361527967258,NA
80524,Larimer County,CO,26.875852660300136,NA
80528,Larimer County,CO,46.65757162346521,62.53776435045317
80602,Adams County,CO,NA,48.6404833836858
80908,El Paso County,CO,74.7612551159618,NA
80923,El Paso County,CO,97.5443383356071,NA
81004,Pueblo County,CO,22.10095497953615,NA
81101,Alamosa County,CO,63.98362892223738,NA
81401,Montrose County,CO,NA,35.34743202416919
81506,Mesa County,CO,99.86357435197817,NA
06040,Hartford County,CT,8.458390177353342,NA
06051,Hartford County,CT,3.6834924965893587,NA
06111,Hartford County,CT,NA,67.06948640483384
06112,Hartford County,CT,57.571623465211466,NA
06457,Middlesex County,CT,43.79263301500682,NA
06460,New Haven County,CT,NA,13.897280966767372
06482,Fairfield County,CT,83.62892223738064,NA
06489,Hartford County,CT,NA,16.314199395770395
06492,New Haven County,CT,18.826739427012278,NA
06514,New Haven County,CT,90.85948158253751,NA
06770,New Haven County,CT,20.600272851296044,NA
06776,Litchfield County,CT,NA,29.607250755287005
06851,Fairfield County,CT,51.29604365620737,NA
06854,Fairfield County,CT,64.93860845839018,NA
19701,New Castle County,DE,88.54024556616645,NA
19802,New Castle County,DE,12.824010914051842,NA
19901,Kent County,DE,58.11732605729877,NA
19960,Sussex County,DE,66.16643929058664,NA
19963,Sussex County,DE,58.2537517053206,NA
19973,Sussex County,DE,14.188267394270124,NA
32034,Nassau County,FL,69.03137789904503,NA
32086,St. Johns County,FL,NA,17.82477341389728
32209,Duval County,FL,NA,11.48036253776435
32226,Duval County,FL,38.199181446111865,NA
32244,Duval County,FL,22.373806275579806,NA
32303,Leon County,FL,NA,41.69184290030212
32317,Leon County,FL,NA,77.64350453172206
32424,Calhoun County,FL,NA,69.48640483383686
32503,Escambia County,FL,46.52114597544338,NA
32504,Escambia County,FL,NA,82.17522658610272
32656,Clay County,FL,NA,89.42598187311178
32703,Orange County,FL,62.346521145975444,NA
32792,Orange County,FL,52.38744884038199,NA
32796,Brevard County,FL,NA,24.773413897280967
32824,Orange County,FL,37.10777626193724,NA
32828,Orange County,FL,33.0150068212824,NA
33025,Broward County,FL,53.88813096862211,NA
33032,Miami-Dade County,FL,NA,58.006042296072515
33076,Broward County,FL,63.30150068212824,NA
33136,Miami-Dade County,FL,68.4856753069577,NA
33140,Miami-Dade County,FL,NA,59.516616314199396
33179,Miami-Dade County,FL,52.660300136425654,NA
33186,Miami-Dade County,FL,44.065484311050476,NA
33187,Miami-Dade County,FL,71.62346521145976,NA
33308,Broward County,FL,NA,88.82175226586104
33418,Palm Beach County,FL,NA,81.87311178247734
33430,Palm Beach County,FL,44.88403819918145,NA
33605,Hillsborough County,FL,48.567530695770806,NA
33617,Hillsborough County,FL,30.15006821282401,NA
33705,Pinellas County,FL,67.25784447476126,NA
33707,Pinellas County,FL,NA,27.492447129909365
33712,Pinellas County,FL,72.03274215552524,NA
33714,Pinellas County,FL,NA,58.91238670694864
33759,Pinellas County,FL,NA,66.46525679758308
33760,Pinellas County,FL,66.9849931787176,NA
33905,Lee County,FL,32.46930422919509,NA
33914,Lee County,FL,34.65211459754434,78.85196374622356
34209,Manatee County,FL,77.48976807639836,NA
34234,Sarasota County,FL,34.924965893587995,NA
34609,Hernando County,FL,28.785811732605733,NA
34655,Pasco County,FL,NA,23.26283987915408
34688,Pinellas County,FL,NA,90.33232628398792
34714,Lake County,FL,63.847203274215545,NA
34741,Osceola County,FL,20.463847203274216,NA
34759,Polk County,FL,33.969986357435204,NA
30004,Fulton County,GA,62.89222373806276,NA
30016,Newton County,GA,10.914051841746248,NA
30022,Fulton County,GA,NA,40.483383685800604
30034,DeKalb County,GA,26.46657571623465,NA
30038,DeKalb County,GA,36.97135061391542,NA
30046,Gwinnett County,GA,41.47339699863574,NA
30058,DeKalb County,GA,18.281036834924965,NA
30281,Henry County,GA,22.919508867667123,NA
30340,DeKalb County,GA,73.66984993178718,NA
30417,Evans County,GA,NA,90.93655589123867
30513,Fannin County,GA,66.30286493860847,NA
30528,White County,GA,45.56616643929058,NA
30680,Barrow County,GA,18.55388813096862,NA
30701,Gordon County,GA,27.55798090040928,NA
30906,Richmond County,GA,62.07366984993179,4.833836858006042
31030,Peach County,GA,NA,64.04833836858006
31088,Houston County,GA,14.461118690313779,NA
31601,Lowndes County,GA,NA,32.62839879154079
31707,Dougherty County,GA,44.2019099590723,NA
31709,Sumter County,GA,97.40791268758527,NA
31788,Colquitt County,GA,88.4038199181446,NA
31791,Worth County,GA,45.70259208731242,NA
31792,Thomas County,GA,78.71759890859482,NA
31833,Troup County,GA,67.53069577080491,NA
31906,Muscogee County,GA,NA,37.764350453172206
31907,Muscogee County,GA,29.331514324693043,21.148036253776432
96744,Honolulu County,HI,17.462482946793997,38.670694864048336
96817,Honolulu County,HI,10.368349249658936,6.3444108761329305
96818,Honolulu County,HI,45.839017735334245,NA
96819,Honolulu County,HI,78.30832196452933,NA
96822,Honolulu County,HI,61.25511596180082,NA
83341,Twin Falls County,ID,94.95225102319236,NA
83440,Madison County,ID,87.58526603001364,NA
83605,Canyon County,ID,NA,20.84592145015106
83634,Ada County,ID,35.06139154160982,NA
83703,Ada County,ID,NA,23.867069486404834
83716,Ada County,ID,91.54160982264665,NA
83860,Bonner County,ID,NA,73.71601208459214
60007,Cook County,IL,NA,16.012084592145015
60085,Lake County,IL,15.82537517053206,NA
60089,Lake County,IL,NA,36.25377643504532
60102,McHenry County,IL,41.20054570259209,NA
60123,Kane County,IL,NA,13.595166163141995
60124,Kane County,IL,97.13506139154161,NA
60137,DuPage County,IL,30.559345156889496,NA
60148,DuPage County,IL,NA,28.09667673716012
60193,Cook County,IL,NA,90.03021148036254
60411,Cook County,IL,NA,9.06344410876133
60417,Will County,IL,84.4474761255116,NA
60419,Cook County,IL,39.972714870395635,NA
60431,Will County,IL,61.66439290586631,NA
60453,Cook County,IL,54.160982264665755,NA
60473,Cook County,IL,90.58663028649386,NA
60555,DuPage County,IL,NA,97.2809667673716
60608,Cook County,IL,68.34924965893589,NA
60614,Cook County,IL,19.236016371077763,NA
60619,Cook County,IL,5.5934515688949515,NA
60625,Cook County,IL,NA,43.202416918429
60632,Cook County,IL,NA,26.283987915407852
60638,Cook County,IL,NA,6.948640483383686
60643,Cook County,IL,86.9031377899045,NA
60647,Cook County,IL,7.3669849931787175,NA
60656,Cook County,IL,42.42837653478854,NA
60657,Cook County,IL,NA,57.40181268882175
60914,Kankakee County,IL,57.16234652114598,NA
60942,Vermilion County,IL,NA,84.89425981873111
61016,Winnebago County,IL,94.27012278308322,NA
61102,Winnebago County,IL,51.15961800818554,NA
61603,Peoria County,IL,NA,64.95468277945619
61611,Tazewell County,IL,NA,74.92447129909365
61920,Coles County,IL,48.158253751705324,NA
62521,Macon County,IL,NA,7.250755287009064
46011,Madison County,IN,NA,19.637462235649547
46142,Johnson County,IN,37.51705320600273,NA
46173,Rush County,IN,NA,41.08761329305136
46184,Johnson County,IN,63.43792633015006,NA
46217,Marion County,IN,45.1568894952251,NA
46218,Marion County,IN,8.185538881309688,NA
46226,Marion County,IN,10.231923601637108,NA
46240,Marion County,IN,80.35470668485675,NA
46304,Porter County,IN,36.289222373806275,NA
46312,Lake County,IN,NA,34.13897280966767
46321,Lake County,IN,30.832196452933154,NA
46323,Lake County,IN,18.417462482946796,NA
46360,LaPorte County,IN,5.0477489768076405,3.625377643504532
46368,Porter County,IN,2.728512960436562,NA
46385,Porter County,IN,6.957708049113233,2.416918429003021
46403,Lake County,IN,59.34515688949522,NA
46563,Marshall County,IN,NA,51.66163141993958
46803,Allen County,IN,75.30695770804911,NA
46816,Allen County,IN,NA,70.69486404833837
46901,Howard County,IN,71.35061391541609,NA
46902,Howard County,IN,45.429740791268756,NA
46952,Grant County,IN,58.79945429740792,NA
47112,Harrison County,IN,49.65893587994543,NA
47130,Clark County,IN,NA,4.229607250755287
47553,Martin County,IN,NA,80.06042296072508
47905,Tippecanoe County,IN,35.470668485675304,NA
50703,Black Hawk County,IA,25.2387448840382,NA
51503,Pottawattamie County,IA,29.740791268758528,3.3232628398791544
52722,Scott County,IA,87.44884038199181,NA
52748,Scott County,IA,97.68076398362892,NA
66002,Atchison County,KS,65.34788540245566,NA
66062,Johnson County,KS,8.594815825375171,NA
66104,Wyandotte County,KS,52.9331514324693,NA
66213,Johnson County,KS,NA,42.90030211480362
66434,Brown County,KS,NA,77.34138972809667
66436,Jackson County,KS,NA,77.0392749244713
66441,Geary County,KS,87.99454297407912,NA
67042,Butler County,KS,53.069577080491136,NA
67213,Sedgwick County,KS,75.98908594815825,NA
40059,Jefferson County,KY,69.16780354706685,NA
40067,Shelby County,KY,NA,99.39577039274926
40210,Jefferson County,KY,84.99317871759891,NA
40216,Jefferson County,KY,65.075034106412,NA
40229,Jefferson County,KY,61.937244201909955,NA
40391,Clark County,KY,29.6043656207367,NA
40419,Lincoln County,KY,NA,86.404833836858
40513,Fayette County,KY,NA,96.97885196374622
40517,Fayette County,KY,18.963165075034105,NA
40701,Whitley County,KY,9.004092769440655,NA
40906,Knox County,KY,56.480218281036834,NA
40962,Clay County,KY,NA,19.033232628398792
41051,Kenton County,KY,32.87858117326057,NA
41701,Perry County,KY,28.10368349249659,NA
42101,Warren County,KY,6.2755798090040935,NA
42408,Hopkins County,KY,91.67803547066849,NA
70065,Jefferson Parish,LA,4.092769440654844,NA
70070,St. Charles Parish,LA,83.4924965893588,NA
70072,Jefferson Parish,LA,1.364256480218281,NA
70114,Orleans Parish,LA,67.12141882673943,NA
70118,Orleans Parish,LA,16.5075034106412,NA
70122,Orleans Parish,LA,4.638472032742155,NA
70123,Jefferson Parish,LA,16.64392905866303,NA
70345,Lafourche Parish,LA,41.336971350613915,NA
70392,St. Mary Parish,LA,NA,82.77945619335347
70427,Washington Parish,LA,NA,20.54380664652568
70507,Lafayette Parish,LA,95.63437926330151,NA
70508,Lafayette Parish,LA,NA,82.4773413897281
70570,St. Landry Parish,LA,NA,9.365558912386707
70578,Acadia Parish,LA,47.47612551159618,NA
70586,Evangeline Parish,LA,NA,33.23262839879154
70592,Lafayette Parish,LA,89.49522510231922,NA
70805,East Baton Rouge Parish,LA,3.0013642564802185,NA
70817,East Baton Rouge Parish,LA,88.13096862210095,NA
71104,Caddo Parish,LA,NA,93.95770392749245
71105,Caddo Parish,LA,60.84583901773534,NA
71107,Caddo Parish,LA,15.552523874488402,NA
71109,Caddo Parish,LA,NA,22.9607250755287
71111,Bossier Parish,LA,21.00954979536153,NA
71360,Rapides Parish,LA,9.549795361527966,NA
71457,Natchitoches Parish,LA,NA,93.05135951661632
03909,York County,ME,85.40245566166439,NA
04005,York County,ME,NA,25.981873111782477
04210,Androscoggin County,ME,43.92905866302865,NA
04401,Penobscot County,ME,11.869031377899045,NA
04976,Somerset County,ME,14.597544338335608,NA
20603,Charles County,MD,57.98090040927695,NA
20723,Howard County,MD,85.81173260572987,NA
20774,Prince George's County,MD,NA,65.55891238670695
20852,Montgomery County,MD,NA,84.59214501510573
20879,Montgomery County,MD,74.48840381991815,NA
21001,Harford County,MD,53.34242837653479,NA
21076,Anne Arundel County,MD,74.89768076398363,NA
21093,Baltimore County,MD,NA,74.62235649546828
21117,Baltimore County,MD,54.02455661664393,NA
21122,Anne Arundel County,MD,44.74761255115961,NA
21201,Baltimore city,MD,NA,70.39274924471299
21213,Baltimore city,MD,17.053206002728512,NA
21215,Baltimore city,MD,7.503410641200546,8.157099697885197
21222,Baltimore County,MD,20.190995907230562,NA
21921,Cecil County,MD,13.642564802182811,NA
01013,Hampden County,MA,15.688949522510232,NA
01105,Hampden County,MA,3.1377899045020468,NA
01109,Hampden County,MA,0.1364256480218281,NA
01201,Berkshire County,MA,1.227830832196453,NA
01420,Worcester County,MA,NA,60.42296072507553
01463,Middlesex County,MA,39.42701227830832,NA
01519,Worcester County,MA,99.31787175989086,NA
01540,Worcester County,MA,NA,45.01510574018127
01605,Worcester County,MA,1.6371077762619373,NA
01610,Worcester County,MA,0.6821282401091405,3.0211480362537766
01776,Middlesex County,MA,36.69849931787176,NA
01832,Essex County,MA,NA,53.47432024169184
01854,Middlesex County,MA,2.1828103683492497,NA
01879,Middlesex County,MA,24.829467939972716,NA
01915,Essex County,MA,10.641200545702592,NA
01923,Essex County,MA,3.4106412005457027,NA
01938,Essex County,MA,66.43929058663028,NA
01970,Essex County,MA,NA,6.646525679758309
02021,Norfolk County,MA,95.77080491132332,NA
02050,Plymouth County,MA,17.871759890859483,NA
02115,Suffolk County,MA,NA,60.72507552870091
02118,Suffolk County,MA,0,NA
02119,Suffolk County,MA,39.017735334242836,NA
02120,Suffolk County,MA,79.67257844474761,NA
02121,Suffolk County,MA,3.547066848567531,NA
02122,Suffolk County,MA,8.731241473396999,NA
02125,Suffolk County,MA,9.140518417462483,NA
02130,Suffolk County,MA,NA,12.990936555891238
02131,Suffolk County,MA,1.9099590723055935,NA
02132,Suffolk County,MA,10.504774897680765,1.812688821752266
02135,Suffolk County,MA,NA,8.761329305135952
02138,Middlesex County,MA,NA,5.13595166163142
02144,Middlesex County,MA,92.08731241473397,NA
02148,Middlesex County,MA,25.78444747612551,NA
02149,Middlesex County,MA,0.2728512960436562,NA
02169,Norfolk County,MA,NA,0
02171,Norfolk County,MA,90.99590723055935,NA
02190,Norfolk County,MA,24.01091405184175,NA
02301,Plymouth County,MA,0.9549795361527967,NA
02360,Plymouth County,MA,NA,14.803625377643503
02368,Norfolk County,MA,2.3192360163710775,NA
02370,Plymouth County,MA,38.47203274215553,NA
02446,Norfolk County,MA,NA,48.338368580060425
02459,Middlesex County,MA,38.33560709413369,NA
02467,Norfolk County,MA,NA,26.586102719033235
02472,Middlesex County,MA,42.83765347885403,NA
02635,Barnstable County,MA,NA,94.25981873111783
02703,Bristol County,MA,NA,0.906344410876133
02724,Bristol County,MA,60.027285129604365,NA
02780,Bristol County,MA,16.916780354706685,NA
48033,Oakland County,MI,NA,28.700906344410875
48034,Oakland County,MI,NA,91.8429003021148
48043,Macomb County,MI,28.376534788540248,NA
48044,Macomb County,MI,28.512960436562075,NA
48065,Macomb County,MI,66.0300136425648,NA
48076,Oakland County,MI,NA,23.564954682779458
48080,Macomb County,MI,83.35607094133697,NA
48104,Washtenaw County,MI,78.1718963165075,NA
48126,Wayne County,MI,49.5225102319236,NA
48141,Wayne County,MI,63.710777626193725,NA
48152,Wayne County,MI,29.46793997271487,NA
48161,Monroe County,MI,7.094133697135062,NA
48167,Oakland County,MI,95.08867667121419,NA
48180,Wayne County,MI,2.592087312414734,NA
48183,Wayne County,MI,87.03956343792633,NA
48192,Wayne County,MI,NA,27.794561933534744
48197,Washtenaw County,MI,54.979536152796726,NA
48203,Wayne County,MI,12.96043656207367,NA
48205,Wayne County,MI,NA,11.782477341389729
48224,Wayne County,MI,55.25238744884038,NA
48225,Wayne County,MI,60.84583901773534,NA
48237,Oakland County,MI,60.572987721691675,NA
48240,Wayne County,MI,NA,49.546827794561935
48302,Oakland County,MI,80.90040927694406,NA
48314,Macomb County,MI,62.755798090040926,NA
48317,Macomb County,MI,NA,18.429003021148034
48327,Oakland County,MI,28.922237380627557,NA
48360,Oakland County,MI,92.63301500682128,NA
48371,Oakland County,MI,59.89085948158254,NA
48430,Genesee County,MI,51.02319236016372,NA
48439,Genesee County,MI,91.13233287858117,NA
48601,Saginaw County,MI,25.51159618008186,NA
48638,Saginaw County,MI,50.4774897680764,NA
48722,Saginaw County,MI,NA,96.67673716012085
48840,Ingham County,MI,NA,75.52870090634441
49013,Van Buren County,MI,79.94542974079127,NA
49021,Eaton County,MI,93.31514324693042,NA
49037,Calhoun County,MI,12.687585266030013,NA
49058,Barry County,MI,93.86084583901774,NA
49085,Berrien County,MI,71.89631650750341,NA
49201,Jackson County,MI,NA,3.927492447129909
49203,Jackson County,MI,54.570259208731244,NA
49256,Lenawee County,MI,NA,100
49285,Ingham County,MI,74.62482946793997,NA
49319,Kent County,MI,53.61527967257844,NA
49417,Ottawa County,MI,NA,28.3987915407855
49431,Mason County,MI,56.753069577080495,NA
49508,Kent County,MI,39.017735334242836,NA
49509,Kent County,MI,11.050477489768076,NA
55021,Rice County,MN,NA,34.44108761329305
55045,Chisago County,MN,NA,65.25679758308158
55130,Ramsey County,MN,67.93997271487041,NA
55337,Dakota County,MN,57.70804911323329,NA
55345,Hennepin County,MN,NA,61.329305135951664
55363,Wright County,MN,92.49658935879945,NA
55407,Hennepin County,MN,23.465211459754435,NA
55411,Hennepin County,MN,2.8649386084583903,NA
55419,Hennepin County,MN,39.83628922237381,NA
55430,Hennepin County,MN,16.234652114597544,NA
55435,Hennepin County,MN,NA,75.83081570996978
56007,Freeborn County,MN,55.7980900409277,NA
38916,Calhoun County,MS,NA,80.36253776435045
39212,Hinds County,MS,47.203274215552526,NA
39443,Jones County,MS,56.20736698499318,NA
39466,Pearl River County,MS,51.9781718963165,NA
39540,Harrison County,MS,NA,97.58308157099698
39560,Harrison County,MS,NA,8.459214501510575
39562,Jackson County,MS,72.44201909959072,NA
39666,Pike County,MS,89.63165075034107,NA
39702,Lowndes County,MS,NA,71.6012084592145
39744,Webster County,MS,70.53206002728513,NA
39759,Oktibbeha County,MS,56.889495225102316,NA
63011,St. Louis County,MO,NA,16.91842900302115
63021,St. Louis County,MO,36.69849931787176,NA
63042,St. Louis County,MO,40.10914051841746,NA
63050,Jefferson County,MO,63.02864938608458,NA
63112,St. Louis city,MO,70.25920873124147,NA
63113,St. Louis city,MO,76.94406548431105,NA
63115,St. Louis city,MO,NA,47.43202416918429
63121,St. Louis County,MO,NA,44.10876132930513
63123,St. Louis County,MO,72.8512960436562,NA
63133,St. Louis County,MO,72.16916780354707,NA
63138,St. Louis County,MO,44.33833560709413,NA
63376,St. Charles County,MO,NA,15.407854984894259
63645,Madison County,MO,NA,64.35045317220543
63650,Iron County,MO,NA,98.18731117824774
63755,Cape Girardeau County,MO,NA,45.61933534743202
63775,Perry County,MO,NA,96.37462235649546
63857,Dunklin County,MO,37.78990450204638,NA
64106,Jackson County,MO,24.42019099590723,NA
64108,Jackson County,MO,52.251023192360165,NA
64130,Jackson County,MO,41.60982264665758,NA
64720,Bates County,MO,95.90723055934515,NA
64730,Bates County,MO,82.67394270122783,NA
64801,Jasper County,MO,96.72578444747613,NA
65020,Camden County,MO,64.12005457025921,NA
65037,Morgan County,MO,NA,86.70694864048339
65560,Dent County,MO,72.98772169167803,NA
65706,Webster County,MO,NA,57.70392749244713
65746,Webster County,MO,NA,94.86404833836858
65803,Greene County,MO,66.84856753069577,NA
59047,Park County,MT,67.39427012278308,NA
59718,Gallatin County,MT,93.1787175989086,NA
59803,Missoula County,MT,NA,67.6737160120846
68005,Sarpy County,NE,54.84311050477489,NA
68123,Sarpy County,NE,77.21691678035471,NA
68776,Dakota County,NE,NA,69.78851963746223
89134,Clark County,NV,70.66848567530695,NA
89156,Clark County,NV,57.43519781718963,NA
89503,Washoe County,NV,NA,38.066465256797585
03031,Hillsborough County,NH,67.80354706684857,NA
03062,Hillsborough County,NH,16.371077762619375,NA
07006,Essex County,NJ,52.52387448840382,NA
07017,Essex County,NJ,12.551159618008187,NA
07047,Hudson County,NJ,NA,9.667673716012084
07055,Passaic County,NJ,79.39972714870396,NA
07080,Middlesex County,NJ,NA,51.057401812688816
07104,Essex County,NJ,0.8185538881309686,NA
07111,Essex County,NJ,85.9481582537517,NA
07508,Passaic County,NJ,NA,95.46827794561933
07524,Passaic County,NJ,26.05729877216917,NA
07726,Monmouth County,NJ,26.193724420190996,NA
07728,Monmouth County,NJ,13.506139154160982,NA
07730,Monmouth County,NJ,NA,41.389728096676734
07746,Monmouth County,NJ,68.21282401091405,NA
07753,Monmouth County,NJ,4.774897680763983,NA
07764,Monmouth County,NJ,99.59072305593452,NA
07860,Sussex County,NJ,87.72169167803547,NA
07871,Sussex County,NJ,49.38608458390178,NA
08012,Camden County,NJ,64.5293315143247,NA
08021,Camden County,NJ,3.2742155525238745,NA
08052,Burlington County,NJ,NA,35.95166163141994
08080,Gloucester County,NJ,NA,50.453172205438065
08096,Gloucester County,NJ,NA,7.854984894259818
08110,Camden County,NJ,75.57980900409277,NA
08234,Atlantic County,NJ,54.29740791268759,NA
08302,Cumberland County,NJ,1.5006821282401093,NA
08360,Cumberland County,NJ,72.3055934515689,NA
08609,Mercer County,NJ,84.17462482946793,NA
08618,Mercer County,NJ,25.648021828103683,NA
08724,Ocean County,NJ,65.075034106412,NA
08742,Ocean County,NJ,NA,35.64954682779456
08816,Middlesex County,NJ,NA,51.963746223564954
08859,Middlesex County,NJ,68.75852660300137,NA
08861,Middlesex County,NJ,1.7735334242837655,NA
08873,Somerset County,NJ,NA,20.241691842900302
08884,Middlesex County,NJ,75.03410641200546,NA
87059,Bernalillo County,NM,NA,87.61329305135952
87105,Bernalillo County,NM,17.735334242837652,NA
87109,Bernalillo County,NM,NA,12.688821752265861
87112,Bernalillo County,NM,12.141882673942701,NA
87113,Bernalillo County,NM,68.89495225102318,NA
87114,Bernalillo County,NM,69.71350613915416,12.386706948640484
87124,Sandoval County,NM,9.413369713506139,NA
87505,Santa Fe County,NM,4.502046384720328,NA
87506,Santa Fe County,NM,73.39699863574351,NA
87507,Santa Fe County,NM,90.3137789904502,NA
88012,Doa Ana County,NM,30.286493860845837,NA
88203,Chaves County,NM,NA,17.220543806646525
88240,Lea County,NM,5.184174624829468,NA
88242,Lea County,NM,66.71214188267395,NA
10029,New York County,NY,0.5457025920873124,14.19939577039275
10310,Richmond County,NY,40.24556616643929,NA
10452,Bronx County,NY,5.320600272851296,NA
10453,Bronx County,NY,5.729877216916781,NA
10455,Bronx County,NY,4.229195088676671,NA
10458,Bronx County,NY,29.058663028649384,NA
10460,Bronx County,NY,2.046384720327422,NA
10463,Bronx County,NY,90.45020463847203,NA
10467,Bronx County,NY,0.4092769440654843,NA
10468,Bronx County,NY,40.791268758526606,NA
10472,Bronx County,NY,NA,15.105740181268882
10473,Bronx County,NY,4.365620736698499,NA
10475,Bronx County,NY,21.145975443383357,NA
10549,Westchester County,NY,84.58390177353343,NA
11040,Nassau County,NY,73.2605729877217,NA
11050,Nassau County,NY,NA,47.73413897280967
11105,Queens County,NY,NA,80.96676737160121
11206,Kings County,NY,NA,1.5105740181268883
11208,Kings County,NY,7.639836289222374,NA
11217,Kings County,NY,34.51568894952251,NA
11221,Kings County,NY,NA,2.719033232628399
11226,Kings County,NY,NA,2.1148036253776437
11230,Kings County,NY,78.03547066848567,NA
11236,Kings County,NY,46.384720327421554,NA
11238,Kings County,NY,18.00818553888131,NA
11369,Queens County,NY,48.84038199181446,NA
11377,Queens County,NY,15.416098226466577,NA
11432,Queens County,NY,51.705320600272856,NA
11434,Queens County,NY,NA,13.293051359516618
11557,Nassau County,NY,NA,99.09365558912387
11575,Nassau County,NY,79.26330150068213,NA
11590,Nassau County,NY,NA,57.09969788519638
11754,Suffolk County,NY,86.63028649386084,NA
11787,Suffolk County,NY,NA,32.3262839879154
12203,Albany County,NY,33.69713506139154,NA
12308,Schenectady County,NY,33.83356070941337,NA
12572,Dutchess County,NY,89.35879945429741,NA
12992,Clinton County,NY,49.79536152796726,NA
13032,Madison County,NY,29.058663028649384,NA
13045,Cortland County,NY,3.819918144611187,34.74320241691843
13057,Onondaga County,NY,41.882673942701224,NA
13104,Onondaga County,NY,NA,40.78549848942598
13209,Onondaga County,NY,NA,94.5619335347432
13492,Oneida County,NY,NA,43.80664652567976
13601,Jefferson County,NY,61.11869031377899,16.61631419939577
13667,St. Lawrence County,NY,73.806275579809,NA
13815,Chenango County,NY,NA,10.27190332326284
13827,Tioga County,NY,NA,30.211480362537763
13850,Broome County,NY,14.051841746248295,NA
13901,Broome County,NY,NA,22.658610271903324
14052,Erie County,NY,NA,47.129909365558916
14072,Erie County,NY,35.743519781718966,NA
14086,Erie County,NY,17.32605729877217,NA
14094,Niagara County,NY,11.732605729877218,NA
14120,Niagara County,NY,19.37244201909959,NA
14217,Erie County,NY,21.964529331514324,NA
14225,Erie County,NY,7.776261937244201,NA
14305,Niagara County,NY,4.911323328785812,30.815709969788518
14424,Ontario County,NY,NA,0.3021148036253776
14456,Ontario County,NY,NA,55.2870090634441
14472,Monroe County,NY,NA,25.6797583081571
14532,Ontario County,NY,NA,65.86102719033232
14580,Monroe County,NY,5.866302864938609,NA
14609,Monroe County,NY,10.77762619372442,1.2084592145015105
14611,Monroe County,NY,6.139154160982264,46.52567975830816
14612,Monroe County,NY,2.455661664392906,NA
14706,Cattaraugus County,NY,NA,54.38066465256798
14779,Cattaraugus County,NY,58.39017735334243,NA
27012,Forsyth County,NC,26.73942701227831,NA
27021,Stokes County,NC,34.106412005457024,NA
27205,Randolph County,NC,92.90586630286494,NA
27262,Guilford County,NC,34.78854024556617,NA
27284,Forsyth County,NC,6.002728512960437,NA
27302,Alamance County,NC,NA,55.89123867069487
27330,Lee County,NC,61.52796725784447,NA
27510,Orange County,NC,NA,85.1963746223565
27573,Person County,NC,38.74488403819918,NA
27592,Wake County,NC,60.436562073669855,NA
27703,Durham County,NC,33.0150068212824,NA
27704,Durham County,NC,9.686221009549795,NA
27822,Wilson County,NC,94.40654843110505,NA
27870,Halifax County,NC,77.89904502046384,NA
27886,Edgecombe County,NC,31.65075034106412,NA
27983,Bertie County,NC,70.3956343792633,NA
28012,Gaston County,NC,75.44338335607094,NA
28018,Rutherford County,NC,NA,93.35347432024169
28025,Cabarrus County,NC,33.28785811732606,NA
28027,Cabarrus County,NC,43.656207366984994,NA
28075,Cabarrus County,NC,79.80900409276944,NA
28079,Union County,NC,40.65484311050477,NA
28215,Mecklenburg County,NC,13.77899045020464,NA
28269,Mecklenburg County,NC,11.323328785811732,NA
28318,Sampson County,NC,82.40109140518418,NA
28348,Cumberland County,NC,30.968622100954978,NA
28352,Scotland County,NC,22.237380627557982,NA
28360,Robeson County,NC,84.31105047748977,NA
28376,Hoke County,NC,26.603001364256478,NA
28411,New Hanover County,NC,NA,33.8368580060423
28625,Iredell County,NC,15.279672578444748,NA
28681,Alexander County,NC,17.598908594815825,NA
28715,Buncombe County,NC,NA,44.41087613293052
28739,Henderson County,NC,43.38335607094134,NA
58104,Cass County,ND,27.285129604365622,NA
58801,Williams County,ND,31.377899045020463,NA
43040,Union County,OH,51.4324693042292,NA
43219,Franklin County,OH,13.369713506139155,NA
43229,Franklin County,OH,40.381991814461124,33.53474320241692
43231,Franklin County,OH,39.56343792633015,NA
43232,Franklin County,OH,3.956343792633015,12.084592145015106
43543,Williams County,OH,91.268758526603,NA
43608,Lucas County,OH,NA,38.972809667673715
43611,Lucas County,OH,12.005457025920874,NA
43701,Muskingum County,OH,NA,5.438066465256798
44011,Lorain County,OH,NA,52.26586102719033
44035,Lorain County,OH,61.39154160982264,NA
44092,Lake County,OH,NA,29.305135951661633
44112,Cuyahoga County,OH,44.61118690313779,NA
44120,Cuyahoga County,OH,NA,37.160120845921455
44129,Cuyahoga County,OH,NA,10.574018126888216
44130,Cuyahoga County,OH,NA,0.6042296072507553
44145,Cuyahoga County,OH,67.66712141882674,NA
44201,Portage County,OH,82.12824010914052,NA
44255,Portage County,OH,62.61937244201909,NA
44320,Summit County,OH,NA,46.82779456193353
44505,Mahoning County,OH,27.694406548431104,NA
44515,Mahoning County,OH,31.923601637107772,NA
44720,Stark County,OH,NA,18.12688821752266
45102,Clermont County,OH,31.51432469304229,NA
45212,Hamilton County,OH,25.92087312414734,NA
45224,Hamilton County,OH,18.69031377899045,NA
45249,Hamilton County,OH,93.7244201909959,NA
45342,Montgomery County,OH,9.27694406548431,NA
45434,Greene County,OH,NA,58.91238670694864
45663,Scioto County,OH,42.56480218281037,NA
73025,Oklahoma County,OK,80.21828103683492,NA
73068,Cleveland County,OK,98.09004092769442,NA
73071,Cleveland County,OK,20.05457025920873,NA
73072,Cleveland County,OK,66.57571623465212,NA
73107,Oklahoma County,OK,45.1568894952251,NA
73114,Oklahoma County,OK,47.203274215552526,NA
73115,Oklahoma County,OK,NA,95.16616314199395
73122,Oklahoma County,OK,70.12278308321964,NA
73505,Comanche County,OK,19.508867667121418,NA
73507,Comanche County,OK,64.39290586630287,NA
73542,Tillman County,OK,NA,79.45619335347432
73662,Beckham County,OK,88.67667121418826,NA
73701,Garfield County,OK,39.69986357435198,NA
73703,Garfield County,OK,NA,15.709969788519636
73750,Kingfisher County,OK,NA,68.27794561933534
73801,Woodward County,OK,75.98908594815825,NA
74136,Tulsa County,OK,81.71896316507502,NA
74331,Delaware County,OK,NA,67.97583081570997
74344,Delaware County,OK,82.26466575716235,NA
74354,Ottawa County,OK,69.98635743519782,NA
74801,Pottawatomie County,OK,32.74215552523875,NA
74804,Pottawatomie County,OK,56.34379263301501,NA
74884,Seminole County,OK,NA,68.8821752265861
97060,Multnomah County,OR,NA,68.58006042296071
97213,Multnomah County,OR,32.06002728512961,NA
97220,Multnomah County,OR,58.663028649386085,NA
97236,Multnomah County,OR,NA,69.18429003021149
97239,Multnomah County,OR,NA,63.141993957703924
97322,Linn County,OR,11.596180081855389,NA
97520,Jackson County,OR,86.22100954979535,NA
15061,Beaver County,PA,88.94952251023193,NA
15068,Westmoreland County,PA,16.780354706684857,NA
15084,Allegheny County,PA,58.93587994542974,NA
15221,Allegheny County,PA,85.53888130968622,NA
15235,Allegheny County,PA,NA,44.71299093655589
15748,Indiana County,PA,NA,73.41389728096676
15834,Cameron County,PA,NA,58.610271903323266
16023,Butler County,PA,100,NA
16066,Butler County,PA,NA,63.74622356495468
16101,Lawrence County,PA,23.192360163710777,NA
16105,Lawrence County,PA,NA,26.888217522658607
16125,Mercer County,PA,86.76671214188268,NA
16142,Lawrence County,PA,NA,77.94561933534743
16146,Mercer County,PA,19.781718963165076,NA
16148,Mercer County,PA,40.518417462482944,49.848942598187314
17038,Lebanon County,PA,63.5743519781719,NA
17046,Lebanon County,PA,8.049113233287859,NA
17048,Dauphin County,PA,99.45429740791269,NA
17111,Dauphin County,PA,NA,5.740181268882175
17112,Dauphin County,PA,NA,4.531722054380665
17201,Franklin County,PA,NA,88.51963746223565
17202,Franklin County,PA,23.874488403819917,NA
17320,Adams County,PA,NA,62.2356495468278
17402,York County,PA,68.62210095497954,NA
17569,Lancaster County,PA,96.31650750341065,NA
17842,Snyder County,PA,NA,59.818731117824775
18014,Northampton County,PA,85.26603001364256,NA
18040,Northampton County,PA,59.481582537517056,NA
18058,Monroe County,PA,64.80218281036835,NA
18103,Lehigh County,PA,21.55525238744884,NA
18434,Lackawanna County,PA,NA,95.77039274924472
18436,Wayne County,PA,48.294679399727144,NA
18447,Lackawanna County,PA,83.90177353342429,NA
18466,Monroe County,PA,47.88540245566166,NA
18509,Lackawanna County,PA,72.44201909959072,NA
18643,Luzerne County,PA,47.0668485675307,NA
18704,Luzerne County,PA,15.006821282401091,NA
18914,Bucks County,PA,74.07912687585267,NA
19003,Montgomery County,PA,78.99045020463848,NA
19007,Bucks County,PA,21.828103683492497,NA
19027,Montgomery County,PA,NA,31.419939577039273
19072,Montgomery County,PA,NA,53.776435045317214
19090,Montgomery County,PA,NA,41.99395770392749
19114,Philadelphia County,PA,NA,49.244712990936556
19116,Philadelphia County,PA,24.42019099590723,NA
19124,Philadelphia County,PA,1.0914051841746248,NA
19131,Philadelphia County,PA,NA,36.85800604229607
19135,Philadelphia County,PA,13.096862210095498,NA
19143,Philadelphia County,PA,28.6493860845839,NA
19146,Philadelphia County,PA,NA,21.45015105740181
19149,Philadelphia County,PA,6.8212824010914055,NA
19151,Philadelphia County,PA,11.459754433833561,NA
19355,Chester County,PA,35.33424283765348,NA
19382,Chester County,PA,NA,7.552870090634441
19454,Montgomery County,PA,75.85266030013642,NA
19464,Montgomery County,PA,NA,6.042296072507553
19547,Berks County,PA,NA,91.23867069486404
19551,Berks County,PA,84.85675306957708,NA
19607,Berks County,PA,23.73806275579809,NA
02861,Providence County,RI,27.694406548431104,NA
02907,Providence County,RI,34.24283765347885,NA
02911,Providence County,RI,78.71759890859482,NA
29150,Sumter County,SC,59.07230559345157,NA
29169,Lexington County,SC,48.567530695770806,NA
29209,Richland County,SC,38.608458390177354,NA
29223,Richland County,SC,NA,53.17220543806647
29403,Charleston County,SC,85.67530695770806,NA
29466,Charleston County,SC,42.01909959072306,NA
29506,Florence County,SC,38.74488403819918,NA
29605,Greenville County,SC,50.068212824010914,NA
29624,Anderson County,SC,73.12414733969986,NA
29626,Anderson County,SC,NA,64.6525679758308
29646,Greenwood County,SC,37.92633015006821,NA
37013,Davidson County,TN,NA,45.9214501510574
37115,Davidson County,TN,9.822646657571624,NA
37166,DeKalb County,TN,50.61391541609823,NA
37217,Davidson County,TN,NA,87.91540785498489
37228,Davidson County,TN,99.72714870395635,NA
37341,Hamilton County,TN,NA,70.99697885196375
37354,Monroe County,TN,NA,66.76737160120845
37620,Sullivan County,TN,NA,45.31722054380665
37664,Sullivan County,TN,NA,42.59818731117825
37716,Anderson County,TN,NA,76.73716012084593
37804,Blount County,TN,25.102319236016374,NA
37821,Cocke County,TN,NA,25.377643504531722
37869,Hancock County,TN,81.85538881309687,NA
37914,Knox County,TN,NA,32.93051359516616
37917,Knox County,TN,NA,19.939577039274926
37923,Knox County,TN,NA,35.04531722054381
38109,Shelby County,TN,NA,83.68580060422961
38116,Shelby County,TN,42.97407912687585,NA
38118,Shelby County,TN,43.24693042291951,NA
38127,Shelby County,TN,57.844474761255114,61.027190332326285
38257,Obion County,TN,NA,76.43504531722054
38344,Carroll County,TN,NA,99.69788519637463
38401,Maury County,TN,6.548431105047749,NA
38464,Lawrence County,TN,77.08049113233287,NA
38501,Putnam County,TN,59.61800818553888,61.631419939577036
75042,Dallas County,TX,53.75170532060027,NA
75051,Dallas County,TX,36.4256480218281,NA
75077,Denton County,TX,37.3806275579809,NA
75135,Hunt County,TX,NA,83.38368580060424
75165,Ellis County,TX,NA,52.87009063444109
75203,Dallas County,TX,96.58935879945429,NA
75220,Dallas County,TX,NA,92.44712990936556
75402,Hunt County,TX,65.89358799454298,NA
75407,Collin County,TX,53.34242837653479,NA
75551,Cass County,TX,92.76944065484311,NA
75862,Trinity County,TX,78.44474761255115,NA
76021,Tarrant County,TX,70.94133697135061,NA
76028,Johnson County,TX,90.04092769440655,NA
76051,Tarrant County,TX,27.967257844474762,NA
76063,Tarrant County,TX,12.414733969986358,NA
76065,Ellis County,TX,34.379263301500686,NA
76528,Coryell County,TX,NA,11.178247734138973
76549,Bell County,TX,19.918144611186904,NA
76642,Limestone County,TX,87.17598908594816,NA
76667,Limestone County,TX,NA,89.72809667673715
76901,Tom Green County,TX,68.07639836289222,NA
77034,Harris County,TX,96.043656207367,NA
77047,Harris County,TX,86.3574351978172,NA
77058,Harris County,TX,93.04229195088676,NA
77060,Harris County,TX,88.81309686221009,NA
77086,Harris County,TX,78.581173260573,NA
77089,Harris County,TX,37.92633015006821,NA
77090,Harris County,TX,89.22237380627558,NA
77091,Harris County,TX,46.93042291950887,NA
77301,Montgomery County,TX,48.0218281036835,NA
77354,Montgomery County,TX,42.29195088676671,NA
77360,Polk County,TX,NA,83.08157099697885
77429,Harris County,TX,9.959072305593452,NA
77494,Fort Bend County,TX,15.143246930422919,NA
77504,Harris County,TX,56.61664392905866,NA
77511,Brazoria County,TX,NA,9.969788519637463
77531,Brazoria County,TX,59.754433833560704,NA
77566,Brazoria County,TX,44.33833560709413,NA
77573,Galveston County,TX,31.241473396998636,NA
77584,Brazoria County,TX,8.321964529331515,NA
77590,Galveston County,TX,11.186903137789903,NA
77642,Jefferson County,TX,25.375170532060025,28.700906344410875
77833,Washington County,TX,39.2905866302865,NA
78025,Kerr County,TX,NA,86.10271903323263
78109,Bexar County,TX,83.76534788540245,NA
78130,Comal County,TX,NA,19.335347432024168
78132,Comal County,TX,92.2237380627558,NA
78201,Bexar County,TX,20.327421555252386,NA
78227,Bexar County,TX,NA,46.22356495468278
78230,Bexar County,TX,87.8581173260573,NA
78231,Bexar County,TX,NA,87.00906344410876
78251,Bexar County,TX,47.748976807639835,NA
78261,Bexar County,TX,81.44611186903138,NA
78368,San Patricio County,TX,90.17735334242838,NA
78503,Hidalgo County,TX,60.16371077762619,NA
78577,Hidalgo County,TX,24.283765347885403,NA
78589,Hidalgo County,TX,NA,60.12084592145015
78645,Travis County,TX,NA,97.88519637462235
78757,Travis County,TX,82.81036834924966,NA
78852,Maverick County,TX,71.75989085948157,NA
78945,Fayette County,TX,84.72032742155525,NA
79331,Dawson County,TX,80.49113233287858,NA
79424,Lubbock County,TX,22.510231923601637,NA
79562,Taylor County,TX,98.90859481582538,NA
79903,El Paso County,TX,98.22646657571623,NA
79936,El Paso County,TX,NA,17.522658610271904
84025,Davis County,UT,82.537517053206,NA
84075,Davis County,UT,NA,74.01812688821752
84078,Uintah County,UT,14.733969986357435,NA
84081,Salt Lake County,UT,76.39836289222373,NA
84115,Salt Lake County,UT,33.42428376534789,NA
84117,Salt Lake County,UT,94.81582537517053,NA
84601,Utah County,UT,NA,89.12386706948641
84737,Washington County,UT,95.36152796725784,NA
05452,Chittenden County,VT,87.31241473396999,NA
05468,Chittenden County,VT,NA,84.29003021148036
05641,Washington County,VT,NA,54.68277945619335
05661,Lamoille County,VT,NA,76.13293051359517
05676,Washington County,VT,83.21964529331515,NA
20155,Prince William County,VA,NA,39.577039274924466
20186,Fauquier County,VA,NA,61.933534743202415
22150,Fairfax County,VA,46.1118690313779,NA
22304,Alexandria city,VA,NA,29.909365558912388
22310,Fairfax County,VA,NA,56.19335347432024
22485,King George County,VA,76.80763983628923,NA
22554,Stafford County,VA,27.148703956343795,NA
22664,Shenandoah County,VA,93.58799454297409,NA
22801,Harrisonburg city,VA,NA,79.7583081570997
22802,Harrisonburg city,VA,63.16507503410641,NA
22911,Albemarle County,VA,62.21009549795361,NA
23112,Chesterfield County,VA,36.56207366984993,NA
23139,Powhatan County,VA,60.30013642564802,NA
23224,Richmond city,VA,8.867667121418826,NA
23229,Henrico County,VA,58.52660300136425,NA
23321,Chesapeake city,VA,40.92769440654843,NA
23434,Suffolk city,VA,77.62619372442019,74.32024169184291
23453,Virginia Beach city,VA,41.7462482946794,NA
23666,Hampton city,VA,96.99863574351978,NA
23805,Petersburg city,VA,45.975443383356065,NA
24017,Roanoke city,VA,21.282401091405184,NA
24018,Roanoke County,VA,NA,27.19033232628399
24060,Montgomery County,VA,NA,92.74924471299094
24153,Salem city,VA,NA,81.57099697885197
98003,King County,WA,24.69304229195089,NA
98005,King County,WA,73.53342428376534,NA
98011,King County,WA,74.21555252387448,NA
98021,Snohomish County,WA,71.21418826739428,NA
98026,Snohomish County,WA,30.42291950886767,NA
98034,King County,WA,69.57708049113234,NA
98118,King County,WA,NA,30.513595166163142
98208,Snohomish County,WA,46.793997271487044,NA
98221,Skagit County,WA,NA,18.731117824773413
98275,Snohomish County,WA,88.26739427012278,NA
98332,Pierce County,WA,NA,96.07250755287009
98366,Kitsap County,WA,20.8731241473397,NA
98368,Jefferson County,WA,NA,22.356495468277945
98466,Pierce County,WA,NA,31.722054380664655
98524,Mason County,WA,NA,72.50755287009063
99352,Benton County,WA,35.19781718963165,NA
99354,Benton County,WA,NA,71.90332326283988
99362,Walla Walla County,WA,22.646657571623464,NA
25177,Kanawha County,WV,36.01637107776262,NA
25526,Putnam County,WV,33.42428376534789,NA
26416,Barbour County,WV,65.75716234652114,NA
26452,Lewis County,WV,NA,93.65558912386706
26525,Preston County,WV,81.58253751705321,NA
53005,Waukesha County,WI,NA,43.50453172205438
53029,Waukesha County,WI,54.43383356070941,NA
53105,Racine County,WI,13.915416098226466,NA
53147,Walworth County,WI,76.2619372442019,NA
53149,Waukesha County,WI,NA,73.111782477341393
53186,Waukesha County,WI,NA,32.02416918429003
53209,Milwaukee County,WI,14.32469304229195,NA
53216,Milwaukee County,WI,5.457025920873124,NA
53405,Racine County,WI,23.05593451568895,NA
53406,Racine County,WI,12.278308321964529,NA
53549,Jefferson County,WI,NA,80.66465256797582
53563,Rock County,WI,NA,37.46223564954683
53711,Dane County,WI,NA,71.29909365558912
54151,Marinette County,WI,NA,78.24773413897282
54154,Oconto County,WI,NA,92.14501510574019
54220,Manitowoc County,WI,23.601637107776263,NA
54601,La Crosse County,WI,NA,40.181268882175225
54956,Winnebago County,WI,22.78308321964529,NA
54971,Fond du Lac County,WI,94.40654843110505,NA
82070,Albany County,WY,74.35197817189632,NA
82609,Natrona County,WY,73.94270122783084,NA
