ZipCode,county,state,Youth
35404,Tuscaloosa County,AL,73.34656084656085
35456,Tuscaloosa County,AL,96.0978835978836
35549,Walker County,AL,93.78306878306879
35601,Morgan County,AL,19.775132275132275
35603,Morgan County,AL,58.201058201058196
35661,Colbert County,AL,67.1957671957672
35672,Lawrence County,AL,90.8068783068783
35673,Morgan County,AL,77.05026455026454
36049,Crenshaw County,AL,83.3994708994709
36108,Montgomery County,AL,54.43121693121693
36110,Montgomery County,AL,52.64550264550265
36111,Montgomery County,AL,83.26719576719577
36116,Montgomery County,AL,21.428571428571427
36330,Coffee County,AL,46.82539682539682
36421,Covington County,AL,84.65608465608466
36441,Escambia County,AL,98.01587301587301
36460,Monroe County,AL,89.02116402116403
36507,Baldwin County,AL,46.82539682539682
36526,Baldwin County,AL,37.764550264550266
36608,Mobile County,AL,32.67195767195767
36877,Lee County,AL,74.73544973544973
99501,Anchorage Municipality,AK,57.804232804232804
99576,Dillingham Census Area,AK,75.39682539682539
99645,Matanuska-Susitna Borough,AK,17.857142857142858
85003,Maricopa County,AZ,98.74338624338624
85008,Maricopa County,AZ,33.3994708994709
85015,Maricopa County,AZ,51.91798941798942
85016,Maricopa County,AZ,8.664021164021165
85017,Maricopa County,AZ,50.33068783068783
85022,Maricopa County,AZ,32.407407407407405
85023,Maricopa County,AZ,26.984126984126984
85024,Maricopa County,AZ,79.36507936507937
85031,Maricopa County,AZ,28.902116402116402
85035,Maricopa County,AZ,14.682539682539684
85040,Maricopa County,AZ,25.462962962962965
85043,Maricopa County,AZ,45.370370370370374
85051,Maricopa County,AZ,22.023809523809522
85123,Pinal County,AZ,69.31216931216932
85193,Pinal County,AZ,98.28042328042328
85203,Maricopa County,AZ,25.264550264550266
85207,Maricopa County,AZ,30.687830687830687
85209,Maricopa County,AZ,27.976190476190478
85255,Maricopa County,AZ,48.41269841269841
85283,Maricopa County,AZ,69.84126984126983
85301,Maricopa County,AZ,4.365079365079365
85323,Maricopa County,AZ,22.023809523809522
85326,Maricopa County,AZ,7.605820105820106
85335,Maricopa County,AZ,79.96031746031747
85338,Maricopa County,AZ,35.317460317460316
85382,Maricopa County,AZ,61.838624338624335
85530,Graham County,AZ,91.86507936507937
85539,Gila County,AZ,98.94179894179894
85542,Gila County,AZ,92.52645502645503
85543,Graham County,AZ,96.82539682539682
85550,Graham County,AZ,94.97354497354497
85616,Cochise County,AZ,97.22222222222221
85621,Santa Cruz County,AZ,19.642857142857142
85629,Pima County,AZ,58.3994708994709
85634,Pima County,AZ,77.64550264550265
85648,Santa Cruz County,AZ,45.17195767195767
85701,Pima County,AZ,65.34391534391534
85704,Pima County,AZ,47.023809523809526
85705,Pima County,AZ,8.3994708994709
85706,Pima County,AZ,21.428571428571427
85710,Pima County,AZ,82.34126984126983
85713,Pima County,AZ,4.8280423280423275
85716,Pima County,AZ,39.81481481481482
85719,Pima County,AZ,38.425925925925924
85730,Pima County,AZ,35.383597883597886
85742,Pima County,AZ,54.298941798941804
85746,Pima County,AZ,22.42063492063492
85757,Pima County,AZ,50
86001,Coconino County,AZ,43.452380952380956
86040,Coconino County,AZ,58.3994708994709
86047,Navajo County,AZ,55.026455026455025
86314,Yavapai County,AZ,90.74074074074075
86326,Yavapai County,AZ,26.984126984126984
72211,Pulaski County,AR,59.589947089947096
90003,Los Angeles County,CA,39.682539682539684
90011,Los Angeles County,CA,16.071428571428573
90020,Los Angeles County,CA,89.21957671957672
90045,Los Angeles County,CA,81.74603174603175
90063,Los Angeles County,CA,54.4973544973545
90221,Los Angeles County,CA,34.78835978835979
90245,Los Angeles County,CA,78.04232804232805
90250,Los Angeles County,CA,20.56878306878307
90280,Los Angeles County,CA,26.455026455026452
90301,Los Angeles County,CA,71.95767195767195
90403,Los Angeles County,CA,94.31216931216932
90604,Los Angeles County,CA,70.43650793650794
90620,Orange County,CA,18.71693121693122
90621,Orange County,CA,67.1957671957672
90670,Los Angeles County,CA,98.54497354497354
90805,Los Angeles County,CA,19.047619047619047
90806,Los Angeles County,CA,64.35185185185185
90810,Los Angeles County,CA,61.30952380952381
91306,Los Angeles County,CA,53.10846560846561
91326,Los Angeles County,CA,84.06084656084656
91343,Los Angeles County,CA,50.661375661375665
91387,Los Angeles County,CA,67.1957671957672
91405,Los Angeles County,CA,80.15873015873017
91605,Los Angeles County,CA,80.15873015873017
91730,San Bernardino County,CA,34.58994708994709
91740,Los Angeles County,CA,77.91005291005291
91745,Los Angeles County,CA,88.42592592592592
91762,San Bernardino County,CA,29.298941798941797
91763,San Bernardino County,CA,92.52645502645503
91768,Los Angeles County,CA,57.804232804232804
91910,San Diego County,CA,34.58994708994709
91941,San Diego County,CA,76.65343915343915
92025,San Diego County,CA,46.62698412698413
92065,San Diego County,CA,62.301587301587304
92071,San Diego County,CA,49.66931216931217
92083,San Diego County,CA,44.17989417989418
92111,San Diego County,CA,74.27248677248677
92154,San Diego County,CA,55.952380952380956
92201,Riverside County,CA,21.097883597883598
92253,Riverside County,CA,62.43386243386243
92311,San Bernardino County,CA,32.142857142857146
92316,San Bernardino County,CA,73.80952380952381
92324,San Bernardino County,CA,30.224867724867728
92335,San Bernardino County,CA,14.087301587301587
92345,San Bernardino County,CA,29.695767195767196
92346,San Bernardino County,CA,49.2063492063492
92395,San Bernardino County,CA,52.64550264550265
92404,San Bernardino County,CA,8.068783068783068
92530,Riverside County,CA,42.98941798941799
92570,Riverside County,CA,53.902116402116405
92582,Riverside County,CA,93.65079365079364
92584,Riverside County,CA,53.10846560846561
92648,Orange County,CA,74.93386243386243
92677,Orange County,CA,58.3994708994709
92704,Orange County,CA,28.240740740740737
92801,Orange County,CA,23.346560846560845
92879,Riverside County,CA,81.87830687830689
93003,Ventura County,CA,37.235449735449734
93030,Ventura County,CA,63.49206349206349
93033,Ventura County,CA,35.25132275132275
93036,Ventura County,CA,73.87566137566137
93060,Ventura County,CA,67.46031746031747
93105,Santa Barbara County,CA,89.61640211640211
93212,Kings County,CA,73.34656084656085
93230,Kings County,CA,51.388888888888886
93256,Tulare County,CA,98.4126984126984
93304,Kern County,CA,18.51851851851852
93313,Kern County,CA,68.91534391534393
93454,Santa Barbara County,CA,39.94708994708995
93552,Los Angeles County,CA,46.42857142857143
93618,Tulare County,CA,72.22222222222221
93619,Fresno County,CA,23.941798941798943
93631,Fresno County,CA,79.16666666666666
93635,Merced County,CA,50
93648,Fresno County,CA,57.07671957671958
93650,Fresno County,CA,99.66931216931218
93702,Fresno County,CA,11.177248677248677
93722,Fresno County,CA,2.976190476190476
93727,Fresno County,CA,71.16402116402116
94080,San Mateo County,CA,50.52910052910053
94134,San Francisco County,CA,44.70899470899471
94303,San Mateo County,CA,39.285714285714285
94544,Alameda County,CA,36.904761904761905
94589,Solano County,CA,87.23544973544973
94606,Alameda County,CA,86.30952380952381
94621,Alameda County,CA,37.764550264550266
94703,Alameda County,CA,91.20370370370371
95035,Santa Clara County,CA,60.71428571428571
95240,San Joaquin County,CA,23.41269841269841
95301,Merced County,CA,42.857142857142854
95320,San Joaquin County,CA,90.93915343915344
95337,San Joaquin County,CA,51.98412698412699
95341,Merced County,CA,72.55291005291006
95348,Merced County,CA,20.105820105820104
95355,Stanislaus County,CA,40.41005291005291
95368,Stanislaus County,CA,81.08465608465607
95380,Stanislaus County,CA,66.66666666666666
95388,Merced County,CA,56.481481481481474
95490,Mendocino County,CA,94.17989417989418
95618,Yolo County,CA,84.65608465608466
95640,Amador County,CA,98.80952380952381
95747,Placer County,CA,66.4021164021164
95765,Placer County,CA,82.4074074074074
95827,Sacramento County,CA,92.92328042328042
95901,Yuba County,CA,66.005291005291
95946,Nevada County,CA,93.12169312169311
95961,Yuba County,CA,63.82275132275132
95991,Sutter County,CA,93.58465608465607
80004,Jefferson County,CO,38.62433862433862
80011,Arapahoe County,CO,64.02116402116403
80020,Broomfield County,CO,15.013227513227514
80026,Boulder County,CO,27.24867724867725
80030,Adams County,CO,85.38359788359789
80107,Elbert County,CO,94.37830687830689
80111,Arapahoe County,CO,57.07671957671958
80113,Arapahoe County,CO,40.476190476190474
80123,Jefferson County,CO,41.6005291005291
80127,Jefferson County,CO,48.67724867724868
80134,Douglas County,CO,33.2010582010582
80219,Denver County,CO,19.642857142857142
80223,Denver County,CO,60.71428571428571
80227,Jefferson County,CO,65.34391534391534
80229,Adams County,CO,7.738095238095238
80236,Denver County,CO,88.09523809523809
80526,Larimer County,CO,25.925925925925924
80601,Adams County,CO,20.833333333333336
80631,Weld County,CO,10.978835978835978
80634,Weld County,CO,4.761904761904762
80701,Morgan County,CO,22.023809523809522
80723,Morgan County,CO,75.39682539682539
80817,El Paso County,CO,64.94708994708994
80903,El Paso County,CO,88.42592592592592
80915,El Paso County,CO,61.70634920634921
80917,El Paso County,CO,68.51851851851852
80922,El Paso County,CO,79.62962962962963
81001,Pueblo County,CO,34.92063492063492
81120,Conejos County,CO,99.33862433862434
81507,Mesa County,CO,69.37830687830689
06052,Hartford County,CT,50.92592592592593
06105,Hartford County,CT,51.12433862433863
06106,Hartford County,CT,9.126984126984127
06114,Hartford County,CT,10.714285714285714
06118,Hartford County,CT,33.92857142857143
06226,Windham County,CT,57.07671957671958
06450,New Haven County,CT,21.097883597883598
06451,New Haven County,CT,26.455026455026452
06457,Middlesex County,CT,52.57936507936508
06483,New Haven County,CT,80.48941798941799
06515,New Haven County,CT,41.269841269841265
06605,Fairfield County,CT,64.74867724867724
06705,New Haven County,CT,70.17195767195767
06779,Litchfield County,CT,96.56084656084656
06790,Litchfield County,CT,19.775132275132275
06804,Fairfield County,CT,84.45767195767195
06830,Fairfield County,CT,53.505291005291
06854,Fairfield County,CT,50
19801,New Castle County,DE,76.45502645502646
32034,Nassau County,FL,79.96031746031747
32068,Clay County,FL,25.727513227513228
32073,Clay County,FL,36.507936507936506
32114,Volusia County,FL,71.23015873015873
32205,Duval County,FL,41.00529100529101
32206,Duval County,FL,45.83333333333333
32209,Duval County,FL,11.706349206349206
32210,Duval County,FL,1.2566137566137565
32221,Duval County,FL,83.73015873015873
32225,Duval County,FL,22.883597883597883
32246,Duval County,FL,40.07936507936508
32404,Bay County,FL,37.764550264550266
32506,Escambia County,FL,33.664021164021165
32536,Okaloosa County,FL,64.35185185185185
32569,Okaloosa County,FL,97.81746031746032
32607,Alachua County,FL,24.735449735449734
32696,Levy County,FL,59.12698412698413
32703,Orange County,FL,32.142857142857146
32707,Seminole County,FL,70.43650793650794
32725,Volusia County,FL,28.835978835978835
32805,Orange County,FL,41.00529100529101
32835,Orange County,FL,72.88359788359789
32905,Brevard County,FL,54.96031746031746
32948,Indian River County,FL,94.84126984126983
33016,Miami-Dade County,FL,34.39153439153439
33023,Broward County,FL,18.18783068783069
33024,Broward County,FL,27.645502645502646
33025,Broward County,FL,21.825396825396826
33034,Miami-Dade County,FL,75.39682539682539
33054,Miami-Dade County,FL,31.67989417989418
33055,Miami-Dade County,FL,25
33056,Miami-Dade County,FL,23.015873015873016
33125,Miami-Dade County,FL,25
33133,Miami-Dade County,FL,84.39153439153439
33143,Miami-Dade County,FL,59.39153439153439
33147,Miami-Dade County,FL,18.849206349206348
33157,Miami-Dade County,FL,65.93915343915344
33165,Miami-Dade County,FL,31.613756613756617
33177,Miami-Dade County,FL,18.849206349206348
33179,Miami-Dade County,FL,37.56613756613756
33185,Miami-Dade County,FL,55.75396825396825
33186,Miami-Dade County,FL,3.373015873015873
33187,Miami-Dade County,FL,87.10317460317461
33312,Broward County,FL,77.24867724867724
33313,Broward County,FL,10.383597883597883
33314,Broward County,FL,71.56084656084656
33319,Broward County,FL,69.51058201058201
33322,Broward County,FL,70.23809523809523
33323,Broward County,FL,92.92328042328042
33324,Broward County,FL,61.30952380952381
33330,Broward County,FL,78.63756613756614
33407,Palm Beach County,FL,55.48941798941799
33440,Hendry County,FL,56.15079365079365
33510,Hillsborough County,FL,74.53703703703704
33523,Pasco County,FL,86.04497354497354
33525,Pasco County,FL,64.94708994708994
33541,Pasco County,FL,96.0978835978836
33544,Pasco County,FL,60.58201058201058
33565,Hillsborough County,FL,80.75396825396825
33606,Hillsborough County,FL,88.16137566137566
33612,Hillsborough County,FL,13.029100529100528
33614,Hillsborough County,FL,35.978835978835974
33615,Hillsborough County,FL,55.75396825396825
33708,Pinellas County,FL,96.82539682539682
33755,Pinellas County,FL,62.43386243386243
33763,Pinellas County,FL,90.0132275132275
33830,Polk County,FL,60.84656084656085
33841,Polk County,FL,90.0132275132275
33853,Polk County,FL,57.473544973544975
33971,Lee County,FL,42.65873015873016
34212,Manatee County,FL,58.730158730158735
34470,Marion County,FL,52.38095238095239
34473,Marion County,FL,30.555555555555557
34475,Marion County,FL,27.314814814814813
34606,Hernando County,FL,66.07142857142857
34654,Pasco County,FL,69.64285714285714
34731,Lake County,FL,88.69047619047619
34741,Osceola County,FL,29.563492063492063
34744,Osceola County,FL,20.17195767195767
34746,Osceola County,FL,47.55291005291005
34753,Lake County,FL,95.43650793650794
34759,Polk County,FL,4.9603174603174605
34787,Orange County,FL,30.82010582010582
34953,St. Lucie County,FL,23.677248677248677
34982,St. Lucie County,FL,39.351851851851855
34997,Martin County,FL,21.891534391534393
30034,DeKalb County,GA,15.145502645502646
30047,Gwinnett County,GA,55.62169312169311
30066,Cobb County,GA,33.664021164021165
30083,DeKalb County,GA,46.230158730158735
30117,Carroll County,GA,40.01322751322751
30120,Bartow County,GA,47.55291005291005
30122,Douglas County,GA,27.513227513227513
30153,Polk County,GA,51.98412698412699
30179,Carroll County,GA,77.24867724867724
30180,Carroll County,GA,13.624338624338625
30236,Clayton County,GA,48.87566137566138
30310,Fulton County,GA,71.42857142857143
30312,Fulton County,GA,81.08465608465607
30314,Fulton County,GA,69.17989417989418
30315,Fulton County,GA,50
30318,Fulton County,GA,23.41269841269841
30331,Fulton County,GA,10.185185185185185
30342,Fulton County,GA,66.73280423280423
30510,Habersham County,GA,97.35449735449735
30518,Gwinnett County,GA,36.24338624338625
30519,Gwinnett County,GA,53.70370370370371
30523,Habersham County,GA,91.6005291005291
30680,Barrow County,GA,35.91269841269841
30735,Gordon County,GA,94.37830687830689
30736,Catoosa County,GA,18.386243386243386
31027,Laurens County,GA,83.26719576719577
31036,Pulaski County,GA,92.65873015873017
31088,Houston County,GA,55.35714285714286
31602,Lowndes County,GA,43.452380952380956
31705,Dougherty County,GA,39.48412698412698
31833,Troup County,GA,85.58201058201058
96817,Honolulu County,HI,21.428571428571427
83201,Bannock County,ID,15.674603174603174
83274,Bingham County,ID,83.3994708994709
83330,Gooding County,ID,87.63227513227513
83338,Jerome County,ID,71.03174603174604
83402,Bonneville County,ID,16.071428571428573
83501,Nez Perce County,ID,12.235449735449736
83605,Canyon County,ID,7.208994708994709
83646,Ada County,ID,59.1931216931217
83647,Elmore County,ID,44.77513227513227
83705,Ada County,ID,32.076719576719576
60002,Lake County,IL,42.46031746031746
60004,Cook County,IL,28.902116402116402
60126,DuPage County,IL,13.624338624338625
60202,Cook County,IL,69.24603174603175
60410,Will County,IL,41.46825396825397
60436,Will County,IL,40.145502645502646
60451,Will County,IL,14.550264550264549
60461,Cook County,IL,87.83068783068782
60515,DuPage County,IL,56.547619047619044
60545,Kendall County,IL,51.78571428571429
60555,DuPage County,IL,74.53703703703704
60586,Will County,IL,17.59259259259259
61821,Champaign County,IL,68.25396825396825
62230,Clinton County,IL,92.3941798941799
46218,Marion County,IN,7.4074074074074066
46219,Marion County,IN,36.37566137566138
46226,Marion County,IN,16.335978835978835
46239,Marion County,IN,41.9973544973545
46254,Marion County,IN,14.219576719576722
46342,Lake County,IN,13.558201058201059
46545,St. Joseph County,IN,71.56084656084656
46563,Marshall County,IN,64.94708994708994
46614,St. Joseph County,IN,20.767195767195766
46815,Allen County,IN,43.783068783068785
46816,Allen County,IN,41.2037037037037
47150,Floyd County,IN,17.12962962962963
47201,Bartholomew County,IN,3.7698412698412698
47591,Knox County,IN,32.407407407407405
47711,Vanderburgh County,IN,48.61111111111111
50129,Greene County,IA,94.77513227513228
50131,Polk County,IA,70.23809523809523
50138,Marion County,IA,79.82804232804233
50213,Clarke County,IA,69.64285714285714
50436,Winnebago County,IA,87.63227513227513
50588,Buena Vista County,IA,46.62698412698413
50613,Black Hawk County,IA,44.84126984126984
50644,Buchanan County,IA,96.29629629629629
51041,Sioux County,IA,78.37301587301587
51106,Woodbury County,IA,48.41269841269841
51566,Montgomery County,IA,78.04232804232805
52068,Dubuque County,IA,96.56084656084656
52162,Allamakee County,IA,98.61111111111111
52240,Johnson County,IA,3.902116402116402
52241,Johnson County,IA,46.0978835978836
52501,Wapello County,IA,33.664021164021165
52556,Jefferson County,IA,87.96296296296296
52577,Mahaska County,IA,38.095238095238095
52627,Lee County,IA,46.62698412698413
52632,Lee County,IA,35.978835978835974
52732,Clinton County,IA,24.14021164021164
52804,Scott County,IA,38.2936507936508
66061,Johnson County,KS,10.052910052910052
66062,Johnson County,KS,12.764550264550264
66102,Wyandotte County,KS,86.37566137566137
67740,Sheridan County,KS,95.3042328042328
40204,Jefferson County,KY,81.61375661375662
40214,Jefferson County,KY,19.378306878306876
40360,Bath County,KY,75.1984126984127
40403,Madison County,KY,58.333333333333336
40505,Fayette County,KY,23.941798941798943
40515,Fayette County,KY,72.22222222222221
41015,Kenton County,KY,62.43386243386243
41031,Harrison County,KY,54.1005291005291
41101,Boyd County,KY,4.62962962962963
41144,Greenup County,KY,75.13227513227513
41301,Wolfe County,KY,85.51587301587301
42025,Marshall County,KY,61.30952380952381
42101,Warren County,KY,65.34391534391534
42141,Barren County,KY,21.693121693121693
42164,Allen County,KY,60.449735449735456
42320,Ohio County,KY,47.75132275132275
42501,Pulaski County,KY,38.82275132275132
42567,Pulaski County,KY,88.69047619047619
42701,Hardin County,KY,15.674603174603174
42748,Larue County,KY,85.58201058201058
70001,Jefferson Parish,LA,8.928571428571429
70003,Jefferson Parish,LA,2.7777777777777777
70056,Jefferson Parish,LA,0.6613756613756614
70058,Jefferson Parish,LA,0.26455026455026454
70065,Jefferson Parish,LA,1.1243386243386242
70068,St. John the Baptist Parish,LA,25.992063492063494
70072,Jefferson Parish,LA,0
70094,Jefferson Parish,LA,56.41534391534392
70114,Orleans Parish,LA,5.952380952380952
70118,Orleans Parish,LA,23.677248677248677
70122,Orleans Parish,LA,27.77777777777778
70123,Jefferson Parish,LA,4.894179894179894
70125,Orleans Parish,LA,15.939153439153438
70128,Orleans Parish,LA,47.15608465608466
70301,Lafourche Parish,LA,11.507936507936508
70346,Ascension Parish,LA,59.98677248677249
70363,Terrebonne Parish,LA,3.1084656084656084
70401,Tangipahoa Parish,LA,83.2010582010582
70403,Tangipahoa Parish,LA,9.523809523809524
70420,St. Tammany Parish,LA,63.227513227513235
70431,St. Tammany Parish,LA,99.93386243386243
70433,St. Tammany Parish,LA,26.851851851851855
70454,Tangipahoa Parish,LA,6.018518518518518
70458,St. Tammany Parish,LA,1.7195767195767195
70460,St. Tammany Parish,LA,45.83333333333333
70461,St. Tammany Parish,LA,7.5396825396825395
70507,Lafayette Parish,LA,27.645502645502646
70525,Acadia Parish,LA,68.45238095238095
70544,Iberia Parish,LA,96.494708994709
70586,Evangeline Parish,LA,17.658730158730158
70592,Lafayette Parish,LA,14.880952380952381
70601,Calcasieu Parish,LA,65.87301587301587
70605,Calcasieu Parish,LA,36.24338624338625
70785,Livingston Parish,LA,38.492063492063494
70788,Iberville Parish,LA,97.94973544973546
70811,East Baton Rouge Parish,LA,42.32804232804233
70812,East Baton Rouge Parish,LA,43.452380952380956
71019,Red River Parish,LA,41.00529100529101
71107,Caddo Parish,LA,83.86243386243386
71109,Caddo Parish,LA,33.06878306878307
71202,Ouachita Parish,LA,40.54232804232804
71327,Avoyelles Parish,LA,78.04232804232805
71446,Vernon Parish,LA,61.838624338624335
04002,York County,ME,55.092592592592595
04005,York County,ME,18.650793650793652
04011,Cumberland County,ME,54.82804232804233
04072,York County,ME,41.9973544973545
04073,York County,ME,56.94444444444444
04101,Cumberland County,ME,22.75132275132275
04106,Cumberland County,ME,63.82275132275132
04210,Androscoggin County,ME,76.45502645502646
04240,Androscoggin County,ME,3.968253968253968
04330,Kennebec County,ME,3.7037037037037033
04416,Hancock County,ME,88.16137566137566
04572,Lincoln County,ME,80.88624338624338
04605,Hancock County,ME,57.07671957671958
04742,Aroostook County,ME,68.25396825396825
04843,Knox County,ME,92.3941798941799
04927,Kennebec County,ME,96.29629629629629
04937,Somerset County,ME,63.62433862433863
04963,Kennebec County,ME,88.16137566137566
04976,Somerset County,ME,66.6005291005291
20603,Charles County,MD,68.58465608465607
20720,Prince George's County,MD,79.62962962962963
21113,Anne Arundel County,MD,61.30952380952381
21204,Baltimore County,MD,75.85978835978835
21797,Howard County,MD,94.57671957671958
21830,Wicomico County,MD,93.25396825396825
01089,Hampden County,MA,27.314814814814813
01107,Hampden County,MA,63.75661375661375
01119,Hampden County,MA,51.98412698412699
01129,Hampden County,MA,97.68518518518519
01201,Berkshire County,MA,1.984126984126984
01420,Worcester County,MA,3.835978835978836
01701,Middlesex County,MA,23.14814814814815
01749,Middlesex County,MA,84.45767195767195
01757,Worcester County,MA,53.70370370370371
01760,Middlesex County,MA,16.203703703703702
01801,Middlesex County,MA,14.285714285714285
01841,Essex County,MA,0.06613756613756613
01843,Essex County,MA,82.01058201058201
01844,Essex County,MA,33.13492063492063
01851,Middlesex County,MA,72.75132275132276
01852,Middlesex County,MA,8.796296296296296
01854,Middlesex County,MA,3.505291005291005
01880,Middlesex County,MA,33.267195767195766
01915,Essex County,MA,8.068783068783068
02081,Norfolk County,MA,75.72751322751323
02114,Suffolk County,MA,42.65873015873016
02122,Suffolk County,MA,56.018518518518526
02124,Suffolk County,MA,0.13227513227513227
02128,Suffolk County,MA,1.5211640211640212
02144,Middlesex County,MA,51.98412698412699
02145,Middlesex County,MA,13.095238095238097
02170,Norfolk County,MA,82.6058201058201
02186,Norfolk County,MA,30.02645502645503
02302,Plymouth County,MA,79.62962962962963
02324,Plymouth County,MA,45.63492063492063
02476,Middlesex County,MA,49.86772486772487
02568,Dukes County,MA,67.1957671957672
02668,Barnstable County,MA,49.2063492063492
02746,Bristol County,MA,29.034391534391535
48026,Macomb County,MI,91.6005291005291
48033,Oakland County,MI,69.97354497354497
48043,Macomb County,MI,67.12962962962963
48044,Macomb County,MI,12.764550264550264
48060,St. Clair County,MI,8.862433862433862
48091,Macomb County,MI,9.656084656084655
48101,Wayne County,MI,15.41005291005291
48105,Washtenaw County,MI,31.878306878306876
48116,Livingston County,MI,23.875661375661377
48126,Wayne County,MI,7.804232804232804
48133,Monroe County,MI,87.43386243386243
48135,Wayne County,MI,79.2989417989418
48146,Wayne County,MI,62.764550264550266
48152,Wayne County,MI,43.05555555555556
48154,Wayne County,MI,51.19047619047619
48160,Washtenaw County,MI,26.38888888888889
48162,Monroe County,MI,15.145502645502646
48164,Wayne County,MI,84.06084656084656
48169,Livingston County,MI,64.55026455026454
48180,Wayne County,MI,1.3227513227513228
48183,Wayne County,MI,50.595238095238095
48185,Wayne County,MI,6.15079365079365
48186,Wayne County,MI,17.724867724867725
48188,Wayne County,MI,5.291005291005291
48207,Wayne County,MI,47.28835978835979
48217,Wayne County,MI,85.58201058201058
48221,Wayne County,MI,26.71957671957672
48223,Wayne County,MI,45.304232804232804
48228,Wayne County,MI,1.1904761904761905
48229,Wayne County,MI,68.12169312169311
48312,Macomb County,MI,18.78306878306878
48326,Oakland County,MI,45.370370370370374
48457,Genesee County,MI,71.75925925925925
48507,Genesee County,MI,15.608465608465607
48602,Saginaw County,MI,3.1746031746031744
48616,Saginaw County,MI,81.87830687830689
48640,Midland County,MI,20.634920634920633
48706,Bay County,MI,7.208994708994709
48708,Bay County,MI,57.67195767195767
48723,Tuscola County,MI,86.11111111111111
48838,Montcalm County,MI,46.03174603174603
48858,Isabella County,MI,8.994708994708994
49009,Kalamazoo County,MI,24.14021164021164
49010,Allegan County,MI,47.42063492063492
49014,Calhoun County,MI,29.894179894179896
49022,Berrien County,MI,50
49037,Calhoun County,MI,8.597883597883598
49090,Van Buren County,MI,78.04232804232805
49093,St. Joseph County,MI,48.67724867724868
49103,Berrien County,MI,95.03968253968253
49201,Jackson County,MI,38.55820105820106
49203,Jackson County,MI,26.785714285714285
49221,Lenawee County,MI,2.579365079365079
49307,Mecosta County,MI,50.92592592592593
49316,Kent County,MI,82.73809523809523
49337,Newaygo County,MI,43.98148148148148
49401,Ottawa County,MI,58.86243386243386
49424,Ottawa County,MI,60.05291005291006
49425,Muskegon County,MI,98.28042328042328
49431,Mason County,MI,54.1005291005291
49444,Muskegon County,MI,17.32804232804233
49504,Kent County,MI,45.17195767195767
49508,Kent County,MI,3.3068783068783065
49512,Kent County,MI,90.54232804232805
49525,Kent County,MI,79.1005291005291
49548,Kent County,MI,6.8121693121693125
49643,Grand Traverse County,MI,97.55291005291006
49660,Manistee County,MI,53.70370370370371
49756,Montmorency County,MI,95.8994708994709
55009,Goodhue County,MN,95.43650793650794
55021,Rice County,MN,52.64550264550265
55025,Washington County,MN,37.36772486772487
55103,Ramsey County,MN,60.317460317460316
55104,Ramsey County,MN,6.878306878306878
55106,Ramsey County,MN,17.12962962962963
55107,Ramsey County,MN,48.214285714285715
55121,Dakota County,MN,98.14814814814815
55122,Dakota County,MN,32.870370370370374
55128,Washington County,MN,80.62169312169311
55316,Hennepin County,MN,29.563492063492063
55336,McLeod County,MN,72.08994708994709
55369,Hennepin County,MN,13.822751322751323
55371,Mille Lacs County,MN,90.34391534391534
55372,Scott County,MN,25
55379,Scott County,MN,26.190476190476193
55403,Hennepin County,MN,66.07142857142857
55407,Hennepin County,MN,4.497354497354497
55422,Hennepin County,MN,67.98941798941799
55429,Hennepin County,MN,67.5925925925926
55434,Anoka County,MN,57.473544973544975
55435,Hennepin County,MN,78.37301587301587
55719,St. Louis County,MN,73.34656084656085
55744,Itasca County,MN,40.67460317460318
55746,St. Louis County,MN,66.53439153439153
55792,St. Louis County,MN,80.62169312169311
55811,St. Louis County,MN,92.79100529100529
55901,Olmsted County,MN,48.87566137566138
55904,Olmsted County,MN,34.78835978835979
55912,Mower County,MN,77.77777777777779
56101,Cottonwood County,MN,99.27248677248677
56164,Pipestone County,MN,85.11904761904762
56301,Stearns County,MN,26.190476190476193
56308,Douglas County,MN,5.621693121693121
56345,Morrison County,MN,74.27248677248677
56601,Beltrami County,MN,24.33862433862434
56621,Clearwater County,MN,66.07142857142857
56636,Itasca County,MN,78.63756613756614
38614,Coahoma County,MS,47.55291005291005
38637,DeSoto County,MS,33.86243386243386
38655,Lafayette County,MS,38.095238095238095
38732,Bolivar County,MS,30.489417989417987
38866,Lee County,MS,76.91798941798942
39073,Rankin County,MS,55.62169312169311
39090,Attala County,MS,52.38095238095239
39114,Simpson County,MS,93.32010582010582
39120,Adams County,MS,41.86507936507937
39183,Warren County,MS,61.838624338624335
39191,Copiah County,MS,78.63756613756614
39209,Hinds County,MS,16.93121693121693
39212,Hinds County,MS,7.473544973544974
39339,Winston County,MS,83.3994708994709
39355,Clarke County,MS,75.79365079365078
39367,Wayne County,MS,18.98148148148148
39426,Pearl River County,MS,55.092592592592595
39503,Harrison County,MS,38.75661375661375
39573,Stone County,MS,86.83862433862434
39574,Harrison County,MS,71.03174603174604
39654,Lawrence County,MS,88.69047619047619
39705,Lowndes County,MS,58.3994708994709
39750,Webster County,MS,97.22222222222221
63010,Jefferson County,MO,34.32539682539682
63021,St. Louis County,MO,28.703703703703702
63033,St. Louis County,MO,51.388888888888886
63034,St. Louis County,MO,78.37301587301587
63049,Jefferson County,MO,73.87566137566137
63074,St. Louis County,MO,79.16666666666666
63080,Franklin County,MO,80.88624338624338
63104,St. Louis city,MO,60.18518518518518
63129,St. Louis County,MO,81.74603174603175
63136,St. Louis County,MO,17.526455026455025
63137,St. Louis County,MO,24.14021164021164
63368,St. Charles County,MO,12.433862433862434
63376,St. Charles County,MO,12.103174603174603
63379,Lincoln County,MO,77.18253968253968
63385,St. Charles County,MO,15.41005291005291
63389,Lincoln County,MO,86.83862433862434
63640,St. Francois County,MO,31.67989417989418
63670,Ste. Genevieve County,MO,78.57142857142857
63863,Dunklin County,MO,82.93650793650794
64014,Jackson County,MO,47.22222222222222
64024,Clay County,MO,28.240740740740737
64037,Lafayette County,MO,63.161375661375665
64050,Jackson County,MO,10.44973544973545
64057,Jackson County,MO,78.96825396825396
64076,Lafayette County,MO,86.5079365079365
64086,Jackson County,MO,51.78571428571429
64093,Johnson County,MO,37.235449735449734
64116,Clay County,MO,77.5132275132275
64118,Clay County,MO,9.457671957671957
64119,Clay County,MO,10.185185185185185
64123,Jackson County,MO,89.15343915343915
64124,Jackson County,MO,84.32539682539682
64126,Jackson County,MO,61.838624338624335
64130,Jackson County,MO,10.515873015873016
64138,Jackson County,MO,19.510582010582013
64152,Platte County,MO,17.063492063492063
64429,Clinton County,MO,51.05820105820106
64485,Andrew County,MO,54.761904761904766
64501,Buchanan County,MO,61.30952380952381
64503,Buchanan County,MO,74.93386243386243
64507,Buchanan County,MO,43.783068783068785
64683,Grundy County,MO,41.269841269841265
64730,Bates County,MO,72.61904761904762
64801,Jasper County,MO,12.764550264550264
64850,Newton County,MO,40.145502645502646
64870,Jasper County,MO,47.023809523809526
65018,Moniteau County,MO,33.92857142857143
65026,Miller County,MO,58.730158730158735
65084,Morgan County,MO,92.12962962962963
65202,Boone County,MO,1.984126984126984
65265,Audrain County,MO,59.25925925925925
65301,Pettis County,MO,36.904761904761905
65340,Saline County,MO,59.589947089947096
65355,Benton County,MO,80.75396825396825
65560,Dent County,MO,82.27513227513228
65584,Pulaski County,MO,95.63492063492063
65619,Greene County,MO,93.78306878306879
65775,Howell County,MO,35.05291005291005
65785,Cedar County,MO,86.83862433862434
65802,Greene County,MO,49.66931216931217
65803,Greene County,MO,28.76984126984127
65807,Greene County,MO,80.0925925925926
68136,Sarpy County,NE,39.682539682539684
68410,Otoe County,NE,92.12962962962963
68521,Lancaster County,NE,65.67460317460318
68601,Platte County,NE,68.25396825396825
68661,Colfax County,NE,91.93121693121694
68803,Hall County,NE,64.55026455026454
89128,Clark County,NV,47.817460317460316
89148,Clark County,NV,82.20899470899471
89434,Washoe County,NV,52.64550264550265
89445,Humboldt County,NV,63.227513227513235
03054,Hillsborough County,NH,76.5873015873016
03825,Strafford County,NH,68.58465608465607
07030,Hudson County,NJ,48.41269841269841
07054,Morris County,NJ,85.84656084656085
07102,Essex County,NJ,63.35978835978836
07104,Essex County,NJ,2.8439153439153437
07105,Essex County,NJ,19.17989417989418
07107,Essex County,NJ,61.64021164021164
07111,Essex County,NJ,42.923280423280424
07302,Hudson County,NJ,89.81481481481481
07305,Hudson County,NJ,5.026455026455026
07470,Passaic County,NJ,22.61904761904762
07757,Monmouth County,NJ,94.70899470899471
08016,Burlington County,NJ,51.25661375661375
08030,Camden County,NJ,61.24338624338625
08070,Salem County,NJ,58.86243386243386
08075,Burlington County,NJ,64.68253968253968
08103,Camden County,NJ,25
08104,Camden County,NJ,38.22751322751323
08110,Camden County,NJ,48.148148148148145
08223,Cape May County,NJ,93.65079365079364
08611,Mercer County,NJ,13.624338624338625
08638,Mercer County,NJ,49.404761904761905
08742,Ocean County,NJ,40.145502645502646
08805,Somerset County,NJ,95.56878306878306
08901,Middlesex County,NJ,2.2486772486772484
87013,Sandoval County,NM,81.67989417989418
87031,Valencia County,NM,31.878306878306876
87052,Sandoval County,NM,89.41798941798942
87107,Bernalillo County,NM,42.592592592592595
87111,Bernalillo County,NM,15.939153439153438
87114,Bernalillo County,NM,12.698412698412698
87120,Bernalillo County,NM,14.682539682539684
87121,Bernalillo County,NM,21.362433862433864
87124,Sandoval County,NM,25.264550264550266
87325,McKinley County,NM,90.21164021164022
87505,Santa Fe County,NM,50.33068783068783
87528,Rio Arriba County,NM,77.91005291005291
87566,Rio Arriba County,NM,95.8994708994709
87740,Colfax County,NM,86.83862433862434
88007,Doa Ana County,NM,50.661375661375665
88011,Doa Ana County,NM,35.383597883597886
88012,Doa Ana County,NM,72.22222222222221
88072,Doa Ana County,NM,97.02380952380952
88101,Curry County,NM,27.84391534391534
88242,Lea County,NM,76.12433862433863
88340,Otero County,NM,97.15608465608466
88346,Lincoln County,NM,96.29629629629629
10001,New York County,NY,59.25925925925925
10002,New York County,NY,52.38095238095239
10009,New York County,NY,36.904761904761905
10026,New York County,NY,67.72486772486772
10031,New York County,NY,30.224867724867728
10040,New York County,NY,46.164021164021165
10451,Bronx County,NY,60.11904761904761
10456,Bronx County,NY,34.72222222222222
10458,Bronx County,NY,9.722222222222223
10461,Bronx County,NY,22.288359788359788
10463,Bronx County,NY,27.976190476190478
10465,Bronx County,NY,62.301587301587304
10466,Bronx County,NY,9.920634920634921
10467,Bronx County,NY,0.4629629629629629
10472,Bronx County,NY,13.425925925925927
10473,Bronx County,NY,2.513227513227513
10553,Westchester County,NY,98.61111111111111
10562,Westchester County,NY,16.46825396825397
10703,Westchester County,NY,91.53439153439153
10950,Orange County,NY,84.65608465608466
11205,Kings County,NY,53.505291005291
11207,Kings County,NY,0.5952380952380952
11208,Kings County,NY,29.43121693121693
11213,Kings County,NY,24.867724867724867
11218,Kings County,NY,6.613756613756613
11219,Kings County,NY,6.481481481481481
11223,Kings County,NY,26.190476190476193
11230,Kings County,NY,31.084656084656086
11235,Kings County,NY,22.22222222222222
11236,Kings County,NY,6.944444444444445
11237,Kings County,NY,41.46825396825397
11360,Queens County,NY,69.84126984126983
11368,Queens County,NY,0.9259259259259258
11385,Queens County,NY,8.201058201058201
11416,Queens County,NY,70.63492063492063
11417,Queens County,NY,92.06349206349206
11418,Queens County,NY,88.02910052910053
11419,Queens County,NY,56.08465608465608
11433,Queens County,NY,46.42857142857143
11435,Queens County,NY,76.25661375661376
11436,Queens County,NY,92.79100529100529
11553,Nassau County,NY,86.37566137566137
11691,Queens County,NY,9.39153439153439
11693,Queens County,NY,94.57671957671958
11713,Suffolk County,NY,87.16931216931218
11722,Suffolk County,NY,78.9021164021164
11738,Suffolk County,NY,92.32804232804233
11746,Suffolk County,NY,83.79629629629629
11766,Suffolk County,NY,98.01587301587301
11776,Suffolk County,NY,74.73544973544973
11778,Suffolk County,NY,97.02380952380952
11784,Suffolk County,NY,79.36507936507937
11951,Suffolk County,NY,70.8994708994709
11967,Suffolk County,NY,61.838624338624335
12010,Montgomery County,NY,59.523809523809526
12051,Greene County,NY,98.80952380952381
12095,Fulton County,NY,34.92063492063492
12180,Rensselaer County,NY,6.67989417989418
12188,Saratoga County,NY,89.61640211640211
12210,Albany County,NY,57.07671957671958
12302,Schenectady County,NY,56.74603174603175
12304,Schenectady County,NY,49.86772486772487
12306,Schenectady County,NY,73.28042328042328
12550,Orange County,NY,43.32010582010582
13021,Cayuga County,NY,61.70634920634921
13029,Onondaga County,NY,63.62433862433863
13040,Cortland County,NY,93.32010582010582
13045,Cortland County,NY,4.298941798941799
13053,Tompkins County,NY,84.06084656084656
13069,Oswego County,NY,3.571428571428571
13076,Oswego County,NY,90.41005291005291
13090,Onondaga County,NY,39.48412698412698
13126,Oswego County,NY,4.563492063492063
13203,Onondaga County,NY,47.28835978835979
13206,Onondaga County,NY,71.56084656084656
13209,Onondaga County,NY,80.35714285714286
13317,Montgomery County,NY,88.42592592592592
13340,Herkimer County,NY,74.73544973544973
13343,Lewis County,NY,96.82539682539682
13492,Oneida County,NY,58.0026455026455
13601,Jefferson County,NY,8.73015873015873
13642,St. Lawrence County,NY,76.78571428571429
13655,St. Lawrence County,NY,95.03968253968253
13667,St. Lawrence County,NY,90.54232804232805
13753,Delaware County,NY,70.63492063492063
13760,Broome County,NY,12.037037037037036
13778,Chenango County,NY,54.82804232804233
13803,Cortland County,NY,83.3994708994709
13820,Otsego County,NY,47.94973544973545
13862,Broome County,NY,90.8068783068783
13901,Broome County,NY,16.666666666666664
13905,Broome County,NY,2.314814814814815
14020,Genesee County,NY,14.417989417989418
14094,Niagara County,NY,8.002645502645503
14206,Erie County,NY,44.84126984126984
14420,Monroe County,NY,16.732804232804234
14424,Ontario County,NY,57.60582010582011
14425,Ontario County,NY,17.12962962962963
14505,Wayne County,NY,52.910052910052904
14548,Ontario County,NY,81.28306878306879
14559,Monroe County,NY,12.5
14606,Monroe County,NY,32.67195767195767
14610,Monroe County,NY,49.404761904761905
14617,Monroe County,NY,37.43386243386244
14701,Chautauqua County,NY,4.166666666666666
14727,Allegany County,NY,79.4973544973545
14760,Cattaraugus County,NY,14.550264550264549
14810,Steuben County,NY,25.462962962962965
14843,Steuben County,NY,23.214285714285715
14895,Allegany County,NY,29.365079365079367
27017,Surry County,NC,89.0873015873016
27030,Surry County,NC,44.37830687830688
27103,Forsyth County,NC,40.87301587301587
27253,Alamance County,NC,36.507936507936506
27260,Guilford County,NC,30.82010582010582
27262,Guilford County,NC,36.904761904761905
27295,Davidson County,NC,5.82010582010582
27311,Caswell County,NC,99.66931216931218
27379,Caswell County,NC,94.17989417989418
27405,Guilford County,NC,5.158730158730158
27407,Guilford County,NC,34.19312169312169
27455,Guilford County,NC,60.912698412698404
27526,Wake County,NC,28.240740740740737
27534,Wayne County,NC,50.661375661375665
27546,Harnett County,NC,64.94708994708994
27573,Person County,NC,85.9126984126984
27577,Johnston County,NC,22.288359788359788
27604,Wake County,NC,36.904761904761905
27606,Wake County,NC,32.53968253968254
27609,Wake County,NC,29.166666666666668
27610,Wake County,NC,19.775132275132275
27803,Nash County,NC,30.224867724867728
27855,Hertford County,NC,91.20370370370371
27858,Pitt County,NC,41.6005291005291
27889,Beaufort County,NC,13.161375661375663
27983,Bertie County,NC,76.91798941798942
28001,Stanly County,NC,68.71693121693121
28016,Gaston County,NC,69.51058201058201
28027,Cabarrus County,NC,11.243386243386242
28043,Rutherford County,NC,55.092592592592595
28052,Gaston County,NC,16.865079365079367
28110,Union County,NC,26.917989417989418
28112,Union County,NC,51.521164021164026
28128,Stanly County,NC,84.65608465608466
28170,Anson County,NC,77.24867724867724
28208,Mecklenburg County,NC,8.465608465608465
28215,Mecklenburg County,NC,39.81481481481482
28216,Mecklenburg County,NC,8.465608465608465
28227,Mecklenburg County,NC,24.47089947089947
28262,Mecklenburg County,NC,31.878306878306876
28303,Cumberland County,NC,30.82010582010582
28306,Bladen County,NC,25.992063492063494
28328,Sampson County,NC,62.83068783068783
28348,Cumberland County,NC,24.867724867724867
28358,Robeson County,NC,14.351851851851851
28365,Wayne County,NC,67.98941798941799
28366,Sampson County,NC,95.03968253968253
28379,Richmond County,NC,29.166666666666668
28398,Duplin County,NC,86.77248677248677
28441,Sampson County,NC,97.35449735449735
28451,Brunswick County,NC,30.555555555555557
28540,Onslow County,NC,9.58994708994709
28625,Iredell County,NC,17.989417989417987
28638,Caldwell County,NC,74.20634920634922
28645,Caldwell County,NC,28.505291005291006
28719,Jackson County,NC,85.97883597883597
58103,Cass County,ND,15.343915343915343
58104,Cass County,ND,7.936507936507936
58201,Grand Forks County,ND,6.283068783068783
58301,Ramsey County,ND,84.45767195767195
58504,Burleigh County,ND,80.15873015873017
58701,Ward County,ND,4.365079365079365
58801,Williams County,ND,12.103174603174603
43004,Franklin County,OH,20.304232804232804
43026,Franklin County,OH,59.457671957671955
43081,Franklin County,OH,11.970899470899472
43119,Franklin County,OH,47.48677248677249
43138,Hocking County,OH,20.502645502645503
43143,Madison County,OH,75.1984126984127
43202,Franklin County,OH,95.83333333333334
43203,Franklin County,OH,68.84920634920636
43204,Franklin County,OH,0.7275132275132274
43205,Franklin County,OH,40.67460317460318
43207,Franklin County,OH,22.61904761904762
43219,Franklin County,OH,69.97354497354497
43223,Franklin County,OH,41.4021164021164
43224,Franklin County,OH,46.56084656084656
43227,Franklin County,OH,1.6534391534391533
43228,Franklin County,OH,3.2407407407407405
43229,Franklin County,OH,1.8518518518518516
43231,Franklin County,OH,48.34656084656085
43235,Franklin County,OH,6.547619047619048
43334,Morrow County,OH,86.57407407407408
43351,Wyandot County,OH,73.61111111111111
43452,Ottawa County,OH,69.77513227513228
43512,Defiance County,OH,2.380952380952381
43545,Henry County,OH,73.87566137566137
43606,Lucas County,OH,12.235449735449736
43609,Lucas County,OH,8.201058201058201
43615,Lucas County,OH,4.695767195767195
43616,Lucas County,OH,32.142857142857146
43623,Lucas County,OH,39.08730158730159
43701,Muskingum County,OH,0.1984126984126984
43812,Coshocton County,OH,13.955026455026456
43906,Belmont County,OH,98.47883597883597
43943,Jefferson County,OH,81.08465608465607
43952,Jefferson County,OH,20.17195767195767
44003,Ashtabula County,OH,90.0132275132275
44004,Ashtabula County,OH,0.7936507936507936
44035,Lorain County,OH,0.3968253968253968
44052,Lorain County,OH,38.35978835978836
44053,Lorain County,OH,56.15079365079365
44054,Lorain County,OH,64.74867724867724
44055,Lorain County,OH,1.8518518518518516
44060,Lake County,OH,24.735449735449734
44070,Cuyahoga County,OH,77.84391534391534
44087,Summit County,OH,60.383597883597886
44094,Lake County,OH,84.65608465608466
44095,Lake County,OH,64.28571428571429
44102,Cuyahoga County,OH,39.41798941798942
44105,Cuyahoga County,OH,23.544973544973544
44107,Cuyahoga County,OH,2.6455026455026456
44109,Cuyahoga County,OH,0.3306878306878307
44110,Cuyahoga County,OH,76.85185185185185
44111,Cuyahoga County,OH,11.375661375661375
44112,Cuyahoga County,OH,10.648148148148149
44120,Cuyahoga County,OH,70.63492063492063
44124,Cuyahoga County,OH,67.46031746031747
44130,Cuyahoga County,OH,43.25396825396825
44136,Cuyahoga County,OH,25.462962962962965
44137,Cuyahoga County,OH,14.880952380952381
44139,Cuyahoga County,OH,29.96031746031746
44142,Cuyahoga County,OH,58.3994708994709
44144,Cuyahoga County,OH,17.989417989417987
44146,Cuyahoga County,OH,29.034391534391535
44203,Summit County,OH,48.08201058201058
44241,Portage County,OH,82.67195767195767
44256,Medina County,OH,26.65343915343915
44260,Portage County,OH,60.912698412698404
44266,Portage County,OH,72.88359788359789
44278,Summit County,OH,83.13492063492063
44305,Summit County,OH,29.4973544973545
44306,Summit County,OH,5.224867724867725
44307,Summit County,OH,56.74603174603175
44310,Summit County,OH,21.428571428571427
44314,Summit County,OH,6.415343915343915
44320,Summit County,OH,75.1984126984127
44406,Mahoning County,OH,18.584656084656086
44420,Trumbull County,OH,62.83068783068783
44432,Columbiana County,OH,54.4973544973545
44438,Trumbull County,OH,86.57407407407408
44444,Trumbull County,OH,88.35978835978835
44446,Trumbull County,OH,46.82539682539682
44460,Columbiana County,OH,10.912698412698413
44483,Trumbull County,OH,41.9973544973545
44485,Trumbull County,OH,9.25925925925926
44505,Mahoning County,OH,64.88095238095238
44512,Mahoning County,OH,9.788359788359788
44514,Mahoning County,OH,18.18783068783069
44601,Stark County,OH,48.80952380952381
44614,Stark County,OH,93.32010582010582
44632,Stark County,OH,91.4021164021164
44685,Summit County,OH,43.32010582010582
44703,Stark County,OH,31.67989417989418
44706,Stark County,OH,68.91534391534393
44714,Stark County,OH,87.23544973544973
44720,Stark County,OH,55.29100529100529
44805,Ashland County,OH,85.25132275132276
44820,Crawford County,OH,29.695767195767196
44830,Seneca County,OH,21.957671957671955
44842,Ashland County,OH,95.03968253968253
44870,Erie County,OH,10.978835978835978
44903,Richland County,OH,23.809523809523807
45002,Hamilton County,OH,30.224867724867728
45011,Butler County,OH,0.5291005291005291
45014,Butler County,OH,11.574074074074074
45102,Clermont County,OH,32.870370370370374
45154,Brown County,OH,67.72486772486772
45157,Clermont County,OH,82.73809523809523
45206,Hamilton County,OH,58.86243386243386
45216,Hamilton County,OH,45.83333333333333
45217,Hamilton County,OH,82.07671957671958
45225,Hamilton County,OH,61.838624338624335
45238,Hamilton County,OH,5.357142857142857
45240,Hamilton County,OH,33.46560846560847
45246,Hamilton County,OH,85.58201058201058
45247,Hamilton County,OH,60.912698412698404
45249,Hamilton County,OH,73.87566137566137
45322,Montgomery County,OH,27.91005291005291
45324,Greene County,OH,6.944444444444445
45365,Shelby County,OH,10.317460317460316
45405,Montgomery County,OH,18.452380952380953
45414,Montgomery County,OH,20.833333333333336
45417,Montgomery County,OH,15.806878306878309
45420,Montgomery County,OH,56.15079365079365
45439,Montgomery County,OH,78.04232804232805
45502,Clark County,OH,65.67460317460318
45601,Ross County,OH,0.8597883597883598
45612,Ross County,OH,84.06084656084656
45613,Pike County,OH,92.26190476190477
45614,Gallia County,OH,99.0079365079365
45628,Ross County,OH,82.73809523809523
45631,Gallia County,OH,83.92857142857143
45640,Jackson County,OH,63.095238095238095
45656,Jackson County,OH,66.07142857142857
45662,Scioto County,OH,35.714285714285715
45669,Lawrence County,OH,65.27777777777779
45686,Gallia County,OH,86.11111111111111
45694,Scioto County,OH,39.48412698412698
45714,Washington County,OH,62.43386243386243
45750,Washington County,OH,4.034391534391534
45760,Meigs County,OH,85.11904761904762
45769,Meigs County,OH,42.46031746031746
45771,Meigs County,OH,89.81481481481481
45786,Washington County,OH,97.88359788359789
45805,Allen County,OH,35.383597883597886
45822,Mercer County,OH,31.349206349206348
45840,Hancock County,OH,15.079365079365079
45875,Putnam County,OH,85.38359788359789
73015,Caddo County,OK,96.6931216931217
73071,Cleveland County,OK,33.46560846560847
73077,Noble County,OK,99.07407407407408
73107,Oklahoma County,OK,19.510582010582013
73109,Oklahoma County,OK,5.357142857142857
73114,Oklahoma County,OK,66.86507936507937
73119,Oklahoma County,OK,29.695767195767196
73135,Oklahoma County,OK,41.6005291005291
73160,Cleveland County,OK,19.775132275132275
73460,Johnston County,OK,74.53703703703704
73501,Comanche County,OK,71.23015873015873
74010,Creek County,OK,59.589947089947096
74012,Tulsa County,OK,14.02116402116402
74015,Rogers County,OK,91.46825396825396
74019,Rogers County,OK,76.25661375661376
74056,Osage County,OK,87.43386243386243
74066,Creek County,OK,20.833333333333336
74107,Tulsa County,OK,61.838624338624335
74128,Tulsa County,OK,71.23015873015873
74129,Tulsa County,OK,44.17989417989418
74136,Tulsa County,OK,71.82539682539682
74354,Ottawa County,OK,31.48148148148148
74370,Ottawa County,OK,99.47089947089947
74451,Cherokee County,OK,94.37830687830689
74464,Cherokee County,OK,25.66137566137566
74547,Pittsburg County,OK,99.47089947089947
74631,Kay County,OK,79.03439153439153
74647,Kay County,OK,99.20634920634922
74728,McCurtain County,OK,53.10846560846561
74745,McCurtain County,OK,77.05026455026454
74864,Lincoln County,OK,87.43386243386243
74948,Sequoyah County,OK,89.94708994708994
74954,Sequoyah County,OK,93.78306878306879
74955,Sequoyah County,OK,83.92857142857143
74960,Adair County,OK,25.727513227513228
97005,Washington County,OR,54.298941798941804
97038,Clackamas County,OR,91.20370370370371
97116,Washington County,OR,63.35978835978836
97132,Yamhill County,OR,62.43386243386243
97146,Clatsop County,OR,94.84126984126983
97220,Multnomah County,OR,60.449735449735456
97317,Marion County,OR,49.2063492063492
97322,Linn County,OR,51.98412698412699
97365,Lincoln County,OR,89.41798941798942
97404,Lane County,OR,81.28306878306879
97501,Jackson County,OR,23.61111111111111
97601,Klamath County,OR,59.589947089947096
97603,Klamath County,OR,52.910052910052904
97850,Union County,OR,70.83333333333334
15001,Beaver County,PA,65.21164021164022
15025,Allegheny County,PA,82.07671957671958
15201,Allegheny County,PA,89.21957671957672
15221,Allegheny County,PA,10.978835978835978
15235,Allegheny County,PA,76.65343915343915
16150,Mercer County,PA,51.521164021164026
16415,Erie County,PA,97.4867724867725
16417,Erie County,PA,89.41798941798942
16428,Erie County,PA,78.63756613756614
16502,Erie County,PA,66.86507936507937
16504,Erie County,PA,62.83068783068783
16601,Blair County,PA,25.264550264550266
16686,Blair County,PA,54.03439153439153
16701,McKean County,PA,11.772486772486772
16901,Tioga County,PA,73.14814814814815
17046,Lebanon County,PA,36.64021164021164
17055,Cumberland County,PA,76.05820105820106
17078,Lebanon County,PA,7.208994708994709
17103,Dauphin County,PA,12.5
17104,Dauphin County,PA,13.35978835978836
17109,Dauphin County,PA,28.174603174603174
17112,Dauphin County,PA,16.93121693121693
17339,York County,PA,93.78306878306879
17345,York County,PA,56.15079365079365
17350,Adams County,PA,56.74603174603175
17404,York County,PA,19.31216931216931
17842,Snyder County,PA,89.21957671957672
17931,Schuylkill County,PA,91.6005291005291
18042,Northampton County,PA,31.084656084656086
18102,Lehigh County,PA,9.126984126984127
18103,Lehigh County,PA,1.455026455026455
18104,Lehigh County,PA,18.121693121693124
18235,Carbon County,PA,45.370370370370374
18252,Schuylkill County,PA,70.23809523809523
18504,Lackawanna County,PA,58.86243386243386
18701,Luzerne County,PA,99.14021164021165
18702,Luzerne County,PA,17.79100529100529
18704,Luzerne County,PA,31.216931216931215
19020,Bucks County,PA,19.246031746031747
19111,Philadelphia County,PA,38.955026455026456
19120,Philadelphia County,PA,4.1005291005291005
19121,Philadelphia County,PA,14.087301587301587
19124,Philadelphia County,PA,22.817460317460316
19131,Philadelphia County,PA,11.64021164021164
19133,Philadelphia County,PA,43.18783068783068
19134,Philadelphia County,PA,40.60846560846561
19140,Philadelphia County,PA,0.992063492063492
19143,Philadelphia County,PA,11.904761904761903
19149,Philadelphia County,PA,31.283068783068785
19454,Montgomery County,PA,66.86507936507937
29033,Lexington County,SC,91.93121693121694
29063,Richland County,SC,68.12169312169311
29153,Sumter County,SC,17.857142857142858
29303,Spartanburg County,SC,60.912698412698404
29461,Berkeley County,SC,47.94973544973545
29464,Charleston County,SC,22.42063492063492
29466,Charleston County,SC,64.21957671957672
29472,Dorchester County,SC,79.82804232804233
29485,Dorchester County,SC,6.349206349206349
29488,Colleton County,SC,81.54761904761905
29569,Horry County,SC,57.01058201058201
29577,Horry County,SC,66.73280423280423
29607,Greenville County,SC,19.113756613756614
29609,Greenville County,SC,59.589947089947096
29624,Anderson County,SC,69.44444444444444
29696,Oconee County,SC,99.33862433862434
29707,Lancaster County,SC,83.3994708994709
29715,York County,SC,56.547619047619044
29926,Beaufort County,SC,95.63492063492063
57262,Roberts County,SD,93.05555555555556
57401,Brown County,SD,5.357142857142857
57625,Dewey County,SD,91.07142857142857
57701,Pennington County,SD,38.02910052910053
57770,Shannon County,SD,97.61904761904762
37013,Davidson County,TN,2.447089947089947
37030,Smith County,TN,93.32010582010582
37066,Sumner County,TN,14.417989417989418
37073,Robertson County,TN,71.95767195767195
37074,Trousdale County,TN,43.98148148148148
37075,Sumner County,TN,38.62433862433862
37128,Rutherford County,TN,35.05291005291005
37135,Williamson County,TN,84.65608465608466
37160,Bedford County,TN,15.873015873015872
37167,Rutherford County,TN,13.227513227513226
37186,Sumner County,TN,92.72486772486772
37210,Davidson County,TN,64.0873015873016
37379,Hamilton County,TN,36.7063492063492
37411,Hamilton County,TN,91.13756613756614
37412,Hamilton County,TN,71.42857142857143
37604,Washington County,TN,34.12698412698413
37659,Washington County,TN,42.65873015873016
37711,Hawkins County,TN,96.6931216931217
37772,Loudon County,TN,77.71164021164022
37774,Loudon County,TN,68.71693121693121
37814,Hamblen County,TN,40.87301587301587
37830,Anderson County,TN,25.992063492063494
37857,Hawkins County,TN,51.25661375661375
37877,Hamblen County,TN,72.88359788359789
37909,Knox County,TN,80.88624338624338
37918,Knox County,TN,11.375661375661375
37921,Knox County,TN,46.230158730158735
37931,Knox County,TN,26.984126984126984
38008,Hardeman County,TN,85.31746031746032
38018,Shelby County,TN,48.214285714285715
38024,Dyer County,TN,35.648148148148145
38104,Shelby County,TN,75.66137566137566
38105,Shelby County,TN,82.93650793650794
38106,Shelby County,TN,68.91534391534393
38107,Shelby County,TN,65.34391534391534
38108,Shelby County,TN,38.955026455026456
38115,Shelby County,TN,15.277777777777779
38116,Shelby County,TN,35.84656084656085
38118,Shelby County,TN,7.142857142857142
38127,Shelby County,TN,2.976190476190476
38128,Shelby County,TN,11.772486772486772
38133,Shelby County,TN,76.12433862433863
38301,Madison County,TN,13.293650793650794
38305,Madison County,TN,2.1825396825396823
38501,Putnam County,TN,28.240740740740737
38553,Fentress County,TN,99.66931216931218
75002,Collin County,TX,8.201058201058201
75019,Dallas County,TX,51.521164021164026
75041,Dallas County,TX,49.007936507936506
75044,Dallas County,TX,32.67195767195767
75052,Dallas County,TX,13.822751322751323
75061,Dallas County,TX,9.788359788359788
75067,Denton County,TX,63.49206349206349
75071,Collin County,TX,21.097883597883598
75087,Rockwall County,TX,38.82275132275132
75119,Ellis County,TX,60.58201058201058
75142,Kaufman County,TX,51.521164021164026
75149,Dallas County,TX,3.439153439153439
75160,Kaufman County,TX,5.092592592592593
75181,Dallas County,TX,70.43650793650794
75211,Dallas County,TX,7.87037037037037
75216,Dallas County,TX,6.018518518518518
75217,Dallas County,TX,24.6031746031746
75220,Dallas County,TX,30.02645502645503
75227,Dallas County,TX,4.232804232804233
75229,Dallas County,TX,44.51058201058201
75234,Dallas County,TX,27.976190476190478
75253,Dallas County,TX,33.92857142857143
75407,Collin County,TX,60.18518518518518
75570,Bowie County,TX,74.27248677248677
75684,Rusk County,TX,75.85978835978835
75704,Smith County,TX,90.93915343915344
75773,Wood County,TX,73.34656084656085
75783,Wood County,TX,97.68518518518519
75904,Angelina County,TX,51.98412698412699
75964,Nacogdoches County,TX,64.0873015873016
76017,Tarrant County,TX,33.33333333333333
76028,Johnson County,TX,10.052910052910052
76031,Johnson County,TX,67.65873015873017
76040,Tarrant County,TX,41.6005291005291
76058,Johnson County,TX,47.817460317460316
76106,Tarrant County,TX,49.66931216931217
76111,Tarrant County,TX,34.39153439153439
76115,Tarrant County,TX,49.007936507936506
76116,Tarrant County,TX,10.846560846560847
76117,Tarrant County,TX,44.44444444444444
76119,Tarrant County,TX,2.1164021164021163
76133,Tarrant County,TX,19.378306878306876
76179,Tarrant County,TX,15.542328042328043
76180,Tarrant County,TX,35.978835978835974
76234,Wise County,TX,67.72486772486772
76266,Denton County,TX,81.28306878306879
76302,Wichita County,TX,82.93650793650794
76426,Wise County,TX,72.22222222222221
76502,Bell County,TX,43.91534391534391
76504,Bell County,TX,31.415343915343914
76513,Bell County,TX,28.505291005291006
76520,Milam County,TX,73.87566137566137
76522,Coryell County,TX,11.30952380952381
76542,Bell County,TX,16.7989417989418
76549,Bell County,TX,7.076719576719577
76657,McLennan County,TX,87.63227513227513
76692,Hill County,TX,82.4074074074074
76706,McLennan County,TX,57.67195767195767
77023,Harris County,TX,66.86507936507937
77028,Harris County,TX,82.4074074074074
77034,Harris County,TX,21.097883597883598
77039,Harris County,TX,45.63492063492063
77058,Harris County,TX,80.35714285714286
77060,Harris County,TX,41.9973544973545
77081,Harris County,TX,44.84126984126984
77089,Harris County,TX,24.669312169312168
77301,Montgomery County,TX,34.39153439153439
77346,Harris County,TX,25.85978835978836
77351,Polk County,TX,46.230158730158735
77378,Montgomery County,TX,39.08730158730159
77380,Montgomery County,TX,66.4021164021164
77396,Harris County,TX,30.158730158730158
77449,Harris County,TX,3.6375661375661372
77480,Brazoria County,TX,86.11111111111111
77502,Harris County,TX,32.142857142857146
77504,Harris County,TX,67.72486772486772
77515,Brazoria County,TX,90.27777777777779
77541,Brazoria County,TX,36.37566137566138
77546,Galveston County,TX,22.42063492063492
77550,Galveston County,TX,16.203703703703702
77571,Harris County,TX,16.46825396825397
77573,Galveston County,TX,1.5873015873015872
77575,Liberty County,TX,74.93386243386243
77590,Galveston County,TX,10.78042328042328
77627,Jefferson County,TX,54.1005291005291
77954,DeWitt County,TX,72.08994708994709
78026,Atascosa County,TX,94.04761904761905
78045,Webb County,TX,7.605820105820106
78064,Atascosa County,TX,63.82275132275132
78069,Atascosa County,TX,79.4973544973545
78114,Wilson County,TX,81.28306878306879
78154,Guadalupe County,TX,76.25661375661376
78213,Bexar County,TX,56.67989417989418
78221,Bexar County,TX,24.404761904761905
78223,Bexar County,TX,73.67724867724867
78225,Bexar County,TX,72.75132275132276
78227,Bexar County,TX,9.060846560846562
78238,Bexar County,TX,44.113756613756614
78240,Bexar County,TX,20.304232804232804
78245,Bexar County,TX,50.46296296296296
78250,Bexar County,TX,44.17989417989418
78251,Bexar County,TX,49.60317460317461
78253,Bexar County,TX,21.693121693121693
78254,Bexar County,TX,53.37301587301587
78332,Jim Wells County,TX,53.042328042328045
78408,Nueces County,TX,74.27248677248677
78411,Nueces County,TX,43.452380952380956
78412,Nueces County,TX,28.63756613756614
78415,Nueces County,TX,44.642857142857146
78504,Hidalgo County,TX,39.08730158730159
78577,Hidalgo County,TX,37.43386243386244
78589,Hidalgo County,TX,43.452380952380956
78612,Bastrop County,TX,84.65608465608466
78624,Gillespie County,TX,75.85978835978835
78654,Burnet County,TX,95.37037037037037
78754,Travis County,TX,66.07142857142857
78801,Uvalde County,TX,72.68518518518519
78840,Val Verde County,TX,16.46825396825397
79107,Potter County,TX,45.10582010582011
79360,Gaines County,TX,65.60846560846561
79752,Upton County,TX,95.76719576719577
79763,Ector County,TX,12.367724867724867
79772,Reeves County,TX,89.74867724867724
79830,Brewster County,TX,95.8994708994709
79907,El Paso County,TX,27.314814814814813
79915,El Paso County,TX,53.902116402116405
79934,El Paso County,TX,75.39682539682539
79938,El Paso County,TX,49.404761904761905
84044,Salt Lake County,UT,43.05555555555556
84074,Tooele County,UT,1.0582010582010581
84075,Davis County,UT,55.48941798941799
84401,Weber County,UT,32.53968253968254
84404,Weber County,UT,12.5
84660,Utah County,UT,71.89153439153439
20109,Prince William County,VA,5.6878306878306875
20110,Manassas city,VA,10.582010582010582
20120,Fairfax County,VA,60.912698412698404
20152,Loudoun County,VA,53.10846560846561
20164,Loudoun County,VA,35.714285714285715
20165,Loudoun County,VA,53.37301587301587
22191,Prince William County,VA,6.15079365079365
22304,Alexandria city,VA,30.82010582010582
22554,Stafford County,VA,23.082010582010582
22601,Winchester city,VA,55.35714285714286
23224,Richmond city,VA,9.325396825396826
23227,Henrico County,VA,40.67460317460318
23234,Chesterfield County,VA,2.7116402116402116
23236,Chesterfield County,VA,57.804232804232804
23320,Chesapeake city,VA,58.201058201058196
23452,Virginia Beach city,VA,21.03174603174603
23454,Virginia Beach city,VA,77.5132275132275
23464,Virginia Beach city,VA,5.555555555555555
23503,Norfolk city,VA,55.75396825396825
23510,Norfolk city,VA,73.67724867724867
23513,Norfolk city,VA,41.93121693121693
23607,Newport News city,VA,37.56613756613756
23901,Prince Edward County,VA,73.14814814814815
24073,Montgomery County,VA,35.383597883597886
24401,Staunton city,VA,36.7063492063492
24540,Danville city,VA,26.455026455026452
24590,Albemarle County,VA,70.8994708994709
98023,King County,WA,9.920634920634921
98204,Snohomish County,WA,20.634920634920633
98270,Snohomish County,WA,35.05291005291005
98273,Skagit County,WA,20.436507936507937
98274,Skagit County,WA,45.370370370370374
98409,Pierce County,WA,33.5978835978836
98589,Thurston County,WA,90.54232804232805
98682,Clark County,WA,30.687830687830687
98683,Clark County,WA,87.23544973544973
98902,Yakima County,WA,41.9973544973545
98908,Yakima County,WA,63.02910052910053
98930,Yakima County,WA,58.0026455026455
98932,Yakima County,WA,99.66931216931218
99208,Spokane County,WA,13.492063492063492
99212,Spokane County,WA,64.35185185185185
99301,Franklin County,WA,33.0026455026455
99320,Benton County,WA,91.6005291005291
99336,Benton County,WA,58.0026455026455
99337,Benton County,WA,22.883597883597883
99344,Adams County,WA,90.41005291005291
99352,Benton County,WA,27.579365079365083
99353,Benton County,WA,44.51058201058201
99362,Walla Walla County,WA,65.67460317460318
20011,District of Columbia,DC,17.32804232804233
20019,District of Columbia,DC,5.6878306878306875
20020,District of Columbia,DC,5.82010582010582
24901,Greenbrier County,WV,94.04761904761905
25320,Kanawha County,WV,87.83068783068782
25550,Mason County,WV,57.07671957671958
25705,Cabell County,WV,72.88359788359789
25801,Raleigh County,WV,14.682539682539684
26101,Wood County,WV,34.25925925925926
26241,Randolph County,WV,37.56613756613756
97003,NA,NA,59.589947089947096
26508,Monongalia County,WV,2.91005291005291
26554,Marion County,WV,12.764550264550264
53045,Waukesha County,WI,40.145502645502646
53074,Ozaukee County,WI,86.57407407407408
53094,Jefferson County,WI,45.767195767195766
53207,Milwaukee County,WI,36.17724867724868
53209,Milwaukee County,WI,1.3888888888888888
53210,Milwaukee County,WI,36.7063492063492
53212,Milwaukee County,WI,17.46031746031746
53213,Milwaukee County,WI,53.505291005291
53214,Milwaukee County,WI,20.03968253968254
53215,Milwaukee County,WI,1.7857142857142856
53218,Milwaukee County,WI,24.47089947089947
53221,Milwaukee County,WI,23.28042328042328
53224,Milwaukee County,WI,16.335978835978835
53402,Racine County,WI,6.746031746031746
53403,Racine County,WI,80.48941798941799
53545,Rock County,WI,18.32010582010582
53546,Rock County,WI,37.764550264550266
53563,Rock County,WI,50.661375661375665
53589,Dane County,WI,88.42592592592592
53593,Dane County,WI,44.84126984126984
53597,Dane County,WI,49.007936507936506
53718,Dane County,WI,88.69047619047619
53821,Crawford County,WI,77.24867724867724
54017,St. Croix County,WI,31.48148148148148
54153,Oconto County,WI,96.23015873015873
54154,Oconto County,WI,69.97354497354497
54166,Shawano County,WI,68.91534391534393
54303,Brown County,WI,72.22222222222221
54409,Langlade County,WI,54.4973544973545
54538,Oneida County,WI,99.47089947089947
54568,Vilas County,WI,93.12169312169311
54601,La Crosse County,WI,26.984126984126984
54738,Eau Claire County,WI,98.21428571428571
54751,Dunn County,WI,23.941798941798943
54829,Barron County,WI,88.69047619047619
54868,Barron County,WI,54.695767195767196
54891,Bayfield County,WI,100
54952,Winnebago County,WI,42.39417989417989
