ZipCode,county,state,Youth,Adult
35125,St. Clair County,AL,68.11819595645412,NA
35503,Walker County,AL,51.16640746500778,NA
35810,Madison County,AL,61.89735614307932,NA
35903,Etowah County,AL,NA,51.37844611528822
35953,St. Clair County,AL,NA,71.9298245614035
36305,Houston County,AL,64.0746500777605,NA
36618,Mobile County,AL,NA,68.42105263157895
36619,Mobile County,AL,NA,74.43609022556392
99501,Anchorage Municipality,AK,19.906687402799378,NA
85004,Maricopa County,AZ,96.26749611197512,NA
85008,Maricopa County,AZ,79.16018662519441,NA
85009,Maricopa County,AZ,NA,12.781954887218044
85022,Maricopa County,AZ,NA,19.799498746867165
85023,Maricopa County,AZ,NA,25.062656641604008
85029,Maricopa County,AZ,7.4650077760497675,NA
85032,Maricopa County,AZ,47.58942457231726,NA
85040,Maricopa County,AZ,20.52877138413686,NA
85041,Maricopa County,AZ,21.30637636080871,NA
85050,Maricopa County,AZ,NA,51.62907268170426
85122,Pinal County,AZ,2.7993779160186625,NA
85225,Maricopa County,AZ,NA,10.776942355889723
85233,Maricopa County,AZ,69.98444790046656,NA
85234,Maricopa County,AZ,25.34992223950233,NA
85254,Maricopa County,AZ,27.216174183514774,NA
85257,Maricopa County,AZ,NA,65.16290726817043
85281,Maricopa County,AZ,65.31881804043546,NA
85284,Maricopa County,AZ,42.30171073094868,NA
85301,Maricopa County,AZ,2.332814930015552,NA
85326,Maricopa County,AZ,5.287713841368585,NA
85331,Maricopa County,AZ,NA,52.130325814536334
85361,Maricopa County,AZ,92.84603421461898,NA
85392,Maricopa County,AZ,91.1353032659409,NA
85621,Santa Cruz County,AZ,14.618973561430792,NA
85712,Pima County,AZ,NA,20.551378446115287
85713,Pima County,AZ,2.6438569206842923,NA
85718,Pima County,AZ,NA,55.639097744360896
86045,Coconino County,AZ,16.018662519440124,NA
86303,Yavapai County,AZ,NA,61.65413533834586
71929,Hot Spring County,AR,86.93623639191291,NA
72019,Saline County,AR,65.78538102643857,NA
72034,Faulkner County,AR,67.49611197511665,NA
72113,Pulaski County,AR,43.2348367029549,NA
72116,Pulaski County,AR,NA,68.42105263157895
72143,White County,AR,NA,66.16541353383458
72401,Craighead County,AR,16.796267496111973,NA
72703,Washington County,AR,53.96578538102644,NA
72908,Sebastian County,AR,97.51166407465007,NA
90001,Los Angeles County,CA,65.16329704510109,NA
90011,Los Angeles County,CA,11.35303265940902,NA
90018,Los Angeles County,CA,80.40435458786936,NA
90020,Los Angeles County,CA,82.73716951788491,NA
90026,Los Angeles County,CA,NA,44.3609022556391
90247,Los Angeles County,CA,NA,49.122807017543856
90250,Los Angeles County,CA,45.41213063763608,NA
90255,Los Angeles County,CA,37.16951788491446,NA
90266,Los Angeles County,CA,43.701399688958006,NA
90274,Los Angeles County,CA,69.51788491446345,NA
90277,Los Angeles County,CA,89.11353032659409,NA
90278,Los Angeles County,CA,55.52099533437014,57.64411027568922
90505,Los Angeles County,CA,NA,54.88721804511278
90603,Los Angeles County,CA,NA,89.47368421052632
90731,Los Angeles County,CA,19.12908242612753,NA
90732,Los Angeles County,CA,63.29704510108864,NA
91016,Los Angeles County,CA,50.38880248833593,NA
91101,Los Angeles County,CA,NA,84.71177944862156
91205,Los Angeles County,CA,98.60031104199068,NA
91331,Los Angeles County,CA,28.92690513219285,NA
91350,Los Angeles County,CA,90.97978227060653,NA
91377,Ventura County,CA,NA,96.2406015037594
91381,Los Angeles County,CA,NA,85.46365914786968
91604,Los Angeles County,CA,97.97822706065318,NA
91724,Los Angeles County,CA,NA,85.71428571428571
91744,Los Angeles County,CA,17.884914463452567,64.91228070175438
91765,Los Angeles County,CA,66.87402799377917,NA
91790,Los Angeles County,CA,44.32348367029549,NA
91913,San Diego County,CA,NA,91.72932330827066
91915,San Diego County,CA,79.47122861586314,NA
91932,San Diego County,CA,63.91912908242613,NA
92021,San Diego County,CA,NA,43.609022556390975
92057,San Diego County,CA,NA,53.63408521303258
92083,San Diego County,CA,64.69673405909798,NA
92102,San Diego County,CA,96.8895800933126,NA
92105,San Diego County,CA,14.930015552099535,NA
92113,San Diego County,CA,18.973561430793158,NA
92115,San Diego County,CA,27.216174183514774,NA
92117,San Diego County,CA,41.679626749611195,NA
92119,San Diego County,CA,97.66718506998446,NA
92123,San Diego County,CA,NA,64.41102756892231
92154,San Diego County,CA,48.67807153965785,NA
92203,Riverside County,CA,54.43234836702955,NA
92236,Riverside County,CA,47.12286158631415,NA
92243,Imperial County,CA,24.57231726283048,NA
92251,Imperial County,CA,86.15863141524106,NA
92274,Riverside County,CA,77.91601866251943,NA
92373,San Bernardino County,CA,30.48211508553655,NA
92501,Riverside County,CA,88.4914463452566,NA
92504,Riverside County,CA,44.012441679626754,NA
92530,Riverside County,CA,NA,31.32832080200501
92557,Riverside County,CA,86.78071539657853,NA
92591,Riverside County,CA,NA,74.18546365914787
92595,Riverside County,CA,40.43545878693624,NA
92675,Orange County,CA,61.27527216174183,NA
92683,Orange County,CA,NA,15.538847117794486
92694,Orange County,CA,NA,78.19548872180451
92704,Orange County,CA,22.55054432348367,NA
92821,Orange County,CA,NA,58.89724310776943
92840,Orange County,CA,33.43701399688958,NA
92865,Orange County,CA,78.69362363919129,NA
92880,Riverside County,CA,29.082426127527217,NA
93021,Ventura County,CA,52.87713841368584,NA
93041,Ventura County,CA,88.4914463452566,NA
93063,Ventura County,CA,26.905132192846033,NA
93215,Kern County,CA,40.27993779160187,NA
93230,Kings County,CA,NA,17.293233082706767
93270,Tulare County,CA,99.68895800933126,NA
93274,Tulare County,CA,63.60808709175739,NA
93306,Kern County,CA,NA,20.30075187969925
93309,Kern County,CA,NA,28.82205513784461
93312,Kern County,CA,45.878693623639194,NA
93446,San Luis Obispo County,CA,NA,72.68170426065163
93534,Los Angeles County,CA,NA,32.33082706766917
93611,Fresno County,CA,NA,66.41604010025063
93615,Tulare County,CA,96.57853810264385,NA
93630,Fresno County,CA,84.13685847589424,NA
93648,Fresno County,CA,NA,92.73182957393483
93657,Fresno County,CA,53.654743390357694,NA
93662,Fresno County,CA,81.64852255054433,NA
93702,Fresno County,CA,34.05909797822706,NA
93726,Fresno County,CA,54.27682737169518,NA
93727,Fresno County,CA,7.153965785381026,NA
94010,San Mateo County,CA,NA,75.93984962406014
94109,San Francisco County,CA,NA,58.64661654135338
94112,San Francisco County,CA,25.972006220839816,NA
94118,San Francisco County,CA,NA,77.44360902255639
94544,Alameda County,CA,NA,17.794486215538846
94561,Contra Costa County,CA,28.615863141524105,NA
94565,Contra Costa County,CA,14.152410575427682,NA
94901,Marin County,CA,53.34370139968896,NA
95070,Santa Clara County,CA,NA,76.19047619047619
95111,Santa Clara County,CA,NA,34.08521303258145
95122,Santa Clara County,CA,55.05443234836703,NA
95334,Merced County,CA,NA,80.45112781954887
95357,Stanislaus County,CA,NA,80.20050125313283
95380,Stanislaus County,CA,88.18040435458786,NA
95388,Merced County,CA,73.25038880248833,NA
95490,Mendocino County,CA,90.20217729393468,NA
95833,Sacramento County,CA,81.18195956454122,NA
95901,Yuba County,CA,26.283048211508554,88.22055137844612
95966,Butte County,CA,76.36080870917574,8.521303258145362
95973,Butte County,CA,37.480559875583204,NA
96064,Siskiyou County,CA,NA,95.48872180451127
80012,Arapahoe County,CO,NA,10.025062656641603
80013,Arapahoe County,CO,5.132192846034215,NA
80015,Arapahoe County,CO,NA,74.93734335839599
80023,Broomfield County,CO,77.76049766718506,NA
80134,Douglas County,CO,NA,24.31077694235589
80221,Adams County,CO,16.329704510108865,NA
80238,Denver County,CO,38.41368584758943,NA
80517,Larimer County,CO,97.04510108864697,NA
80524,Larimer County,CO,21.461897356143076,NA
80537,Larimer County,CO,74.18351477449455,NA
80602,Adams County,CO,5.909797822706065,NA
80631,Weld County,CO,7.776049766718507,7.518796992481203
80751,Logan County,CO,NA,39.59899749373433
80831,El Paso County,CO,NA,65.6641604010025
80916,El Paso County,CO,69.51788491446345,NA
06010,Hartford County,CT,NA,2.2556390977443606
06042,Hartford County,CT,NA,34.335839598997495
06053,Hartford County,CT,62.51944012441679,NA
06084,Tolland County,CT,28.149300155520997,NA
06108,Hartford County,CT,25.972006220839816,NA
06109,Hartford County,CT,NA,59.64912280701754
06112,Hartford County,CT,41.52410575427683,NA
06114,Hartford County,CT,7.309486780715396,NA
06118,Hartford County,CT,NA,22.807017543859647
06260,Windham County,CT,NA,60.902255639097746
06401,New Haven County,CT,NA,59.899749373433586
06451,New Haven County,CT,NA,22.305764411027567
06461,New Haven County,CT,95.80093312597201,NA
06513,New Haven County,CT,43.856920684292376,NA
06517,New Haven County,CT,57.38724727838258,NA
06519,New Haven County,CT,NA,21.804511278195488
06850,Fairfield County,CT,75.11664074650078,NA
06880,Fairfield County,CT,44.47900466562986,NA
19702,New Castle County,DE,10.57542768273717,NA
19720,New Castle County,DE,NA,15.789473684210526
19901,Kent County,DE,26.749611197511662,NA
19963,Sussex County,DE,NA,31.07769423558897
19973,Sussex County,DE,NA,14.536340852130325
32063,Baker County,FL,81.33748055987559,NA
32073,Clay County,FL,30.637636080870916,NA
32086,St. Johns County,FL,51.32192846034215,NA
32159,Lake County,FL,NA,64.16040100250626
32164,Flagler County,FL,60.186625194401245,NA
32176,Volusia County,FL,NA,95.23809523809523
32208,Duval County,FL,NA,1.5037593984962405
32257,Duval County,FL,64.23017107309487,NA
32259,St. Johns County,FL,NA,41.60401002506266
32309,Leon County,FL,NA,72.4310776942356
32504,Escambia County,FL,NA,48.1203007518797
32577,Escambia County,FL,NA,93.23308270676691
32608,Alachua County,FL,NA,6.265664160401002
32640,Putnam County,FL,84.29237947122861,NA
32822,Orange County,FL,31.57076205287714,NA
32825,Orange County,FL,20.99533437013997,NA
32926,Brevard County,FL,NA,69.17293233082707
32955,Brevard County,FL,NA,47.368421052631575
33023,Broward County,FL,NA,19.047619047619047
33037,Monroe County,FL,NA,84.9624060150376
33138,Miami-Dade County,FL,NA,67.16791979949875
33401,Palm Beach County,FL,34.99222395023328,NA
33428,Palm Beach County,FL,54.74339035769829,NA
33523,Pasco County,FL,78.22706065318819,NA
33613,Hillsborough County,FL,23.63919129082426,NA
33625,Hillsborough County,FL,NA,56.390977443609025
33634,Hillsborough County,FL,81.95956454121306,NA
33647,Hillsborough County,FL,39.0357698289269,NA
33702,Pinellas County,FL,NA,49.87468671679198
33709,Pinellas County,FL,81.80404354587868,NA
33710,Pinellas County,FL,61.89735614307932,NA
33714,Pinellas County,FL,79.47122861586314,NA
33778,Pinellas County,FL,56.92068429237948,NA
33908,Lee County,FL,61.74183514774495,NA
33917,Lee County,FL,48.52255054432349,NA
33952,Charlotte County,FL,NA,22.55639097744361
34119,Collier County,FL,NA,40.100250626566414
34240,Sarasota County,FL,NA,84.21052631578947
34292,Sarasota County,FL,80.40435458786936,NA
34470,Marion County,FL,87.09175738724728,NA
34471,Marion County,FL,NA,49.62406015037594
34472,Marion County,FL,51.632970451010884,NA
34473,Marion County,FL,24.10575427682737,NA
34480,Marion County,FL,49.4556765163297,NA
34609,Hernando County,FL,36.70295489891136,NA
34610,Pasco County,FL,NA,63.90977443609023
34668,Pasco County,FL,15.707620528771384,NA
34736,Lake County,FL,78.69362363919129,NA
30028,Forsyth County,GA,NA,79.19799498746866
30068,Cobb County,GA,NA,69.67418546365914
30144,Cobb County,GA,39.657853810264385,NA
30180,Carroll County,GA,9.953343701399689,NA
30315,Fulton County,GA,NA,26.56641604010025
30436,Toombs County,GA,71.3841368584759,NA
30501,Hall County,GA,NA,82.95739348370927
30534,Dawson County,GA,60.031104199066874,NA
30566,Hall County,GA,84.29237947122861,NA
30620,Barrow County,GA,76.82737169517885,NA
30809,Columbia County,GA,53.03265940902022,NA
31088,Houston County,GA,47.900466562986004,NA
31096,Johnson County,GA,80.87091757387248,NA
31324,Bryan County,GA,NA,76.441102756892235
96732,Maui County,HI,49.922239502332815,NA
96766,Kauai County,HI,NA,66.66666666666666
96789,Honolulu County,HI,NA,51.127819548872175
96792,Honolulu County,HI,13.374805598755831,NA
96817,Honolulu County,HI,46.96734059097978,NA
96819,Honolulu County,HI,10.419906687402799,NA
83642,Ada County,ID,15.552099533437014,NA
83646,Ada County,ID,7.620528771384137,NA
60004,Cook County,IL,22.70606531881804,NA
60005,Cook County,IL,56.60964230171073,NA
60010,Lake County,IL,30.326594090202175,NA
60035,Lake County,IL,NA,42.10526315789473
60056,Cook County,IL,21.77293934681182,NA
60062,Cook County,IL,NA,67.91979949874687
60068,Cook County,IL,67.96267496111975,NA
60089,Lake County,IL,38.25816485225506,36.59147869674185
60093,Cook County,IL,50.38880248833593,NA
60124,Kane County,IL,NA,60.150375939849624
60137,DuPage County,IL,66.40746500777604,NA
60139,DuPage County,IL,53.96578538102644,NA
60148,DuPage County,IL,12.908242612752721,NA
60152,McHenry County,IL,NA,73.93483709273183
60155,Cook County,IL,88.33592534992223,NA
60173,Cook County,IL,94.2457231726283,NA
60174,Kane County,IL,58.94245723172629,NA
60192,Cook County,IL,NA,96.74185463659147
60304,Cook County,IL,85.38102643856921,NA
60435,Will County,IL,NA,8.771929824561402
60438,Cook County,IL,NA,42.606516290726816
60446,Will County,IL,23.17262830482115,NA
60451,Will County,IL,10.730948678071538,NA
60487,Cook County,IL,45.72317262830482,NA
60560,Kendall County,IL,NA,40.852130325814535
60586,Will County,IL,NA,13.533834586466165
60607,Cook County,IL,97.3561430793157,NA
60608,Cook County,IL,19.12908242612753,NA
60614,Cook County,IL,NA,20.80200501253133
60625,Cook County,IL,37.947122861586315,NA
60630,Cook County,IL,36.08087091757387,NA
60643,Cook County,IL,17.573872472783826,NA
60649,Cook County,IL,30.637636080870916,NA
60653,Cook County,IL,NA,26.31578947368421
60914,Kankakee County,IL,60.49766718506998,NA
60950,Kankakee County,IL,NA,69.42355889724311
61081,Whiteside County,IL,9.953343701399689,NA
61108,Winnebago County,IL,42.92379471228615,NA
61350,LaSalle County,IL,58.320373250388805,NA
61354,LaSalle County,IL,NA,76.69172932330827
61561,Woodford County,IL,99.84447900466563,NA
61726,McLean County,IL,99.37791601866252,NA
62263,Washington County,IL,NA,88.97243107769424
62278,Randolph County,IL,NA,87.96992481203007
62521,Macon County,IL,NA,12.030075187969924
62568,Christian County,IL,NA,73.43358395989975
62702,Sangamon County,IL,30.637636080870916,NA
62704,Sangamon County,IL,NA,44.611528822055135
62966,Jackson County,IL,56.298600311041994,NA
46013,Madison County,IN,NA,30.576441102756892
46017,Madison County,IN,75.11664074650078,NA
46037,Hamilton County,IN,41.679626749611195,NA
46158,Morgan County,IN,46.18973561430793,NA
46229,Marion County,IN,NA,78.44611528822055
46235,Marion County,IN,31.726283048211506,NA
46256,Marion County,IN,79.78227060653188,NA
46356,Lake County,IN,NA,28.32080200501253
46614,St. Joseph County,IN,NA,56.14035087719298
46809,Allen County,IN,NA,77.94486215538848
46947,Cass County,IN,NA,11.779448621553884
47025,Dearborn County,IN,32.65940902021773,NA
47031,Ripley County,IN,91.75738724727839,NA
47111,Clark County,IN,62.363919129082426,NA
47150,Floyd County,IN,12.441679626749611,NA
47167,Washington County,IN,NA,48.370927318295735
47172,Clark County,IN,68.11819595645412,NA
47265,Jennings County,IN,NA,77.69423558897243
47274,Jackson County,IN,22.23950233281493,NA
47336,Jay County,IN,98.28926905132192,NA
47421,Lawrence County,IN,35.45878693623639,NA
47715,Vanderburgh County,IN,NA,27.06766917293233
47978,Jasper County,IN,55.2099533437014,NA
50009,Polk County,IA,91.91290824261276,NA
50322,Polk County,IA,57.8538102643857,NA
50701,Black Hawk County,IA,NA,30.32581453634085
52002,Dubuque County,IA,79.31570762052877,71.42857142857143
52653,Louisa County,IA,NA,98.49624060150376
66044,Douglas County,KS,89.26905132192846,NA
66062,Johnson County,KS,9.486780715396579,NA
66064,Miami County,KS,87.55832037325038,NA
66092,Franklin County,KS,NA,98.99749373433583
66604,Shawnee County,KS,NA,45.11278195488722
66701,Bourbon County,KS,75.58320373250389,NA
67010,Butler County,KS,93.62363919129082,NA
67210,Sedgwick County,KS,NA,97.74436090225564
67235,Sedgwick County,KS,96.42301710730948,NA
40013,Nelson County,KY,NA,90.72681704260651
40071,Spencer County,KY,65.6298600311042,NA
40210,Jefferson County,KY,68.11819595645412,NA
40212,Jefferson County,KY,17.107309486780714,NA
40216,Jefferson County,KY,10.88646967340591,NA
40218,Jefferson County,KY,18.195956454121305,NA
40299,Jefferson County,KY,88.02488335925351,NA
40489,Lincoln County,KY,NA,97.4937343358396
41001,Campbell County,KY,32.03732503888025,NA
41071,Campbell County,KY,71.07309486780716,24.561403508771928
41143,Carter County,KY,NA,91.47869674185463
41164,Carter County,KY,35.30326594090202,NA
41465,Magoffin County,KY,83.04821150855366,NA
42025,Marshall County,KY,52.255054432348366,NA
42053,McCracken County,KY,NA,92.98245614035088
42420,Henderson County,KY,23.017107309486782,NA
42717,Cumberland County,KY,NA,53.1328320802005
42748,Larue County,KY,77.44945567651634,NA
70043,St. Bernard Parish,LA,32.50388802488336,NA
70058,Jefferson Parish,LA,NA,2.506265664160401
70068,St. John the Baptist Parish,LA,39.0357698289269,NA
70433,St. Tammany Parish,LA,40.1244167962675,NA
70445,St. Tammany Parish,LA,NA,54.385964912280706
70458,St. Tammany Parish,LA,0.9331259720062209,NA
70501,Lafayette Parish,LA,NA,52.63157894736842
70506,Lafayette Parish,LA,89.73561430793157,NA
70769,Ascension Parish,LA,97.20062208398133,NA
71106,Caddo Parish,LA,1.7107309486780715,NA
71111,Bossier Parish,LA,43.54587869362364,NA
71355,Avoyelles Parish,LA,99.06687402799378,NA
04092,Cumberland County,ME,25.660964230171075,NA
04274,Androscoggin County,ME,90.20217729393468,NA
04276,Oxford County,ME,NA,59.14786967418546
04901,Kennebec County,ME,NA,22.05513784461153
04938,Franklin County,ME,29.704510108864696,NA
20619,St. Mary's County,MD,NA,92.4812030075188
20706,Prince George's County,MD,NA,54.63659147869674
20872,Montgomery County,MD,84.60342146189736,NA
20877,Montgomery County,MD,89.73561430793157,NA
21012,Anne Arundel County,MD,59.40902021772939,NA
21037,Anne Arundel County,MD,95.3343701399689,NA
21093,Baltimore County,MD,43.390357698289264,NA
21113,Anne Arundel County,MD,52.255054432348366,NA
21206,Baltimore city,MD,3.8880248833592534,NA
21225,Baltimore city,MD,77.29393468118197,NA
21771,Frederick County,MD,NA,61.152882205513784
21911,Cecil County,MD,96.11197511664075,NA
01109,Hampden County,MA,NA,2.756892230576441
01462,Worcester County,MA,NA,48.62155388471178
01507,Worcester County,MA,NA,35.08771929824561
01522,Worcester County,MA,NA,98.24561403508771
01604,Worcester County,MA,NA,1.0025062656641603
01605,Worcester County,MA,0.3110419906687403,NA
01752,Middlesex County,MA,NA,17.543859649122805
01754,Middlesex County,MA,95.64541213063764,NA
01757,Worcester County,MA,15.396578538102643,NA
01841,Essex County,MA,NA,0
01863,Middlesex County,MA,65.78538102643857,NA
01864,Middlesex County,MA,NA,46.616541353383454
01879,Middlesex County,MA,NA,25.81453634085213
01880,Middlesex County,MA,27.216174183514774,NA
01886,Middlesex County,MA,NA,68.92230576441104
01902,Essex County,MA,3.1104199066874028,NA
01923,Essex County,MA,NA,4.010025062656641
01970,Essex County,MA,1.3996889580093312,NA
02038,Norfolk County,MA,33.12597200622084,NA
02048,Bristol County,MA,NA,19.548872180451127
02053,Norfolk County,MA,NA,45.86466165413533
02062,Norfolk County,MA,38.72472783825817,71.17794486215539
02115,Suffolk County,MA,NA,57.393483709273184
02119,Suffolk County,MA,1.8662519440124419,NA
02121,Suffolk County,MA,53.810264385692065,9.273182957393484
02132,Suffolk County,MA,NA,38.095238095238095
02138,Middlesex County,MA,23.63919129082426,11.528822055137844
02139,Middlesex County,MA,NA,0.7518796992481203
02143,Middlesex County,MA,NA,55.388471177944865
02149,Middlesex County,MA,NA,0.2506265664160401
02151,Suffolk County,MA,20.37325038880249,NA
02170,Norfolk County,MA,74.33903576982893,NA
02301,Plymouth County,MA,0.15552099533437014,81.95488721804512
02324,Plymouth County,MA,38.41368584758943,NA
02343,Norfolk County,MA,52.255054432348366,NA
02360,Plymouth County,MA,3.7325038880248838,5.764411027568922
02364,Plymouth County,MA,NA,49.373433583959894
02445,Norfolk County,MA,46.500777604976676,NA
02474,Middlesex County,MA,33.43701399688958,NA
02476,Middlesex County,MA,86.62519440124416,NA
02481,Norfolk County,MA,55.52099533437014,53.383458646616546
02493,Middlesex County,MA,60.186625194401245,NA
02563,Barnstable County,MA,NA,67.41854636591479
02703,Bristol County,MA,68.89580093312597,NA
02739,Plymouth County,MA,81.95956454121306,NA
02740,Bristol County,MA,NA,3.7593984962406015
02766,Bristol County,MA,NA,18.045112781954884
02771,Bristol County,MA,NA,35.08771929824561
02777,Bristol County,MA,3.421461897356143,NA
02779,Bristol County,MA,92.2239502332815,76.94235588972431
48042,Macomb County,MI,82.42612752721618,NA
48060,St. Clair County,MI,6.6874027993779155,NA
48094,Macomb County,MI,45.10108864696734,NA
48111,Wayne County,MI,5.598755832037325,NA
48116,Livingston County,MI,NA,58.1453634085213
48125,Wayne County,MI,23.48367029548989,21.052631578947366
48131,Monroe County,MI,79.93779160186625,NA
48180,Wayne County,MI,0.6220839813374806,NA
48198,Washtenaw County,MI,NA,14.285714285714285
48417,Saginaw County,MI,NA,99.24812030075188
48420,Genesee County,MI,94.09020217729393,NA
48602,Saginaw County,MI,1.5552099533437014,NA
48603,Saginaw County,MI,NA,11.027568922305765
48650,Bay County,MI,49.922239502332815,NA
48706,Bay County,MI,4.5101088646967336,NA
48708,Bay County,MI,19.751166407465007,NA
48813,Eaton County,MI,37.636080870917574,33.83458646616541
48827,Eaton County,MI,NA,38.847117794486216
48836,Livingston County,MI,46.500777604976676,NA
48837,Eaton County,MI,NA,53.88471177944862
49002,Kalamazoo County,MI,NA,29.82456140350877
49006,Kalamazoo County,MI,NA,47.86967418546366
49007,Kalamazoo County,MI,71.69517884914464,NA
49015,Calhoun County,MI,15.085536547433904,NA
49017,Calhoun County,MI,NA,26.81704260651629
49071,Van Buren County,MI,69.20684292379471,NA
49080,Allegan County,MI,NA,39.849624060150376
49093,St. Joseph County,MI,NA,27.56892230576441
49120,Berrien County,MI,35.769828926905134,NA
49221,Lenawee County,MI,15.241057542768274,NA
49315,Kent County,MI,NA,43.859649122807014
49333,Barry County,MI,56.298600311041994,NA
49341,Kent County,MI,17.729393468118197,NA
49345,Kent County,MI,72.93934681181959,NA
49509,Kent County,MI,20.839813374805598,NA
49659,Antrim County,MI,NA,74.68671679197995
49684,Grand Traverse County,MI,30.637636080870916,NA
49712,Charlevoix County,MI,86.31415241057543,NA
49837,Delta County,MI,87.86936236391914,50.125313283208015
55024,Dakota County,MN,57.07620528771385,NA
55121,Dakota County,MN,NA,93.98496240601504
55124,Dakota County,MN,12.597200622083982,34.83709273182957
55337,Dakota County,MN,39.813374805598755,30.82706766917293
55372,Scott County,MN,20.21772939346812,NA
55412,Hennepin County,MN,NA,8.020050125313283
55413,Hennepin County,MN,64.69673405909798,NA
55446,Hennepin County,MN,33.903576982892695,NA
55448,Anoka County,MN,NA,37.84461152882205
55454,Hennepin County,MN,NA,78.94736842105263
56304,Sherburne County,MN,44.94556765163297,NA
56537,Otter Tail County,MN,13.996889580093313,NA
56560,Clay County,MN,NA,2.0050125313283207
38606,Panola County,MS,59.40902021772939,NA
38801,Lee County,MS,7.931570762052877,NA
38834,Alcorn County,MS,28.615863141524105,18.546365914786968
38901,Grenada County,MS,47.27838258164852,NA
38930,Leflore County,MS,NA,35.58897243107769
38965,Yalobusha County,MS,88.95800933125972,NA
39046,Madison County,MS,48.367029548989116,NA
39066,Hinds County,MS,NA,99.49874686716792
39180,Warren County,MS,16.174183514774494,NA
39367,Wayne County,MS,13.841368584758943,NA
39702,Lowndes County,MS,58.164852255054434,NA
39730,Monroe County,MS,59.72006220839814,NA
63017,St. Louis County,MO,NA,60.40100250626567
63069,Franklin County,MO,NA,73.68421052631578
63074,St. Louis County,MO,NA,57.89473684210527
63077,Franklin County,MO,NA,67.66917293233082
63123,St. Louis County,MO,72.16174183514774,NA
63303,St. Charles County,MO,18.35147744945568,NA
64012,Cass County,MO,14.618973561430792,NA
64029,Jackson County,MO,25.660964230171075,35.83959899749373
64056,Jackson County,MO,NA,24.06015037593985
64063,Jackson County,MO,50.69984447900466,NA
64076,Lafayette County,MO,NA,65.41353383458647
64082,Jackson County,MO,36.39191290824261,NA
64083,Cass County,MO,NA,32.08020050125313
64110,Jackson County,MO,65.31881804043546,NA
64118,Clay County,MO,NA,4.511278195488721
64151,Platte County,MO,83.51477449455676,NA
64157,Clay County,MO,11.508553654743391,NA
64601,Livingston County,MO,NA,47.11779448621554
64831,McDonald County,MO,82.73716951788491,NA
65026,Miller County,MO,74.4945567651633,NA
65202,Boone County,MO,12.752721617418352,NA
65203,Boone County,MO,48.055987558320375,NA
65301,Pettis County,MO,76.98289269051321,NA
65351,Saline County,MO,92.06842923794713,NA
65548,Howell County,MO,NA,96.99248120300751
65622,Dallas County,MO,NA,71.67919799498746
65804,Greene County,MO,27.838258164852252,NA
68105,Douglas County,NE,47.43390357698289,NA
68124,Douglas County,NE,80.248833592535,NA
68127,Douglas County,NE,69.36236391912908,NA
68510,Lancaster County,NE,NA,75.18796992481202
68901,Adams County,NE,NA,63.65914786967418
89119,Clark County,NV,53.34370139968896,NA
89129,Clark County,NV,NA,45.363408521303256
89451,Washoe County,NV,NA,98.74686716791979
03087,Rockingham County,NH,NA,87.71929824561403
03246,Belknap County,NH,32.65940902021773,NA
03801,Rockingham County,NH,76.049766718507,NA
03867,Strafford County,NH,21.61741835147745,NA
07001,Middlesex County,NJ,65.78538102643857,NA
07060,Union County,NJ,63.76360808709176,NA
07306,Hudson County,NJ,93.7791601866252,NA
07421,Passaic County,NJ,84.9144634525661,NA
07605,Bergen County,NJ,94.2457231726283,NA
07731,Monmouth County,NJ,32.34836702954899,NA
07853,Morris County,NJ,NA,90.97744360902256
07924,Somerset County,NJ,NA,94.48621553884712
08015,Burlington County,NJ,18.662519440124417,NA
08043,Camden County,NJ,NA,70.42606516290726
08068,Burlington County,NJ,100,NA
08070,Salem County,NJ,NA,45.86466165413533
08080,Gloucester County,NJ,NA,9.774436090225564
08087,Ocean County,NJ,61.58631415241057,NA
08091,Camden County,NJ,71.85069984447901,NA
08230,Cape May County,NJ,87.09175738724728,NA
08322,Gloucester County,NJ,48.83359253499223,NA
08505,Burlington County,NJ,NA,57.14285714285714
08701,Ocean County,NJ,60.80870917573873,NA
08753,Ocean County,NJ,6.376360808709176,NA
08820,Middlesex County,NJ,75.73872472783826,NA
87031,Valencia County,NM,93.15707620528771,NA
87112,Bernalillo County,NM,NA,13.032581453634084
87114,Bernalillo County,NM,NA,7.017543859649122
87317,McKinley County,NM,92.37947122861586,NA
87401,San Juan County,NM,NA,16.290726817042607
88220,Eddy County,NM,21.15085536547434,NA
10002,New York County,NY,NA,4.260651629072681
10035,New York County,NY,NA,4.761904761904762
10455,Bronx County,NY,NA,36.09022556390977
10456,Bronx County,NY,NA,0.5012531328320802
10458,Bronx County,NY,6.998444790046657,NA
10562,Westchester County,NY,11.81959564541213,NA
10962,Rockland County,NY,94.71228615863141,NA
11105,Queens County,NY,83.04821150855366,NA
11206,Kings County,NY,6.531881804043546,NA
11208,Kings County,NY,23.32814930015552,NA
11209,Kings County,NY,61.27527216174183,NA
11210,Kings County,NY,94.55676516329704,NA
11219,Kings County,NY,NA,12.531328320802004
11225,Kings County,NY,24.10575427682737,NA
11230,Kings County,NY,25.038880248833596,NA
11235,Kings County,NY,NA,36.84210526315789
11378,Queens County,NY,NA,94.23558897243107
11420,Queens County,NY,41.05754276827372,NA
11701,Suffolk County,NY,80.40435458786936,NA
11746,Suffolk County,NY,NA,47.61904761904761
11801,Nassau County,NY,78.22706065318819,NA
11949,Suffolk County,NY,84.60342146189736,NA
12018,Rensselaer County,NY,NA,93.48370927318295
12065,Saratoga County,NY,35.769828926905134,NA
12204,Albany County,NY,NA,63.1578947368421
12534,Columbia County,NY,NA,13.784461152882205
13662,St. Lawrence County,NY,49.766718506998444,NA
13676,St. Lawrence County,NY,68.58475894245724,NA
13732,Tioga County,NY,89.5800933125972,NA
13760,Broome County,NY,22.3950233281493,1.2531328320802004
14020,Genesee County,NY,NA,10.526315789473683
14031,Erie County,NY,84.9144634525661,NA
14105,Niagara County,NY,NA,82.20551378446115
14150,Erie County,NY,NA,5.012531328320802
14206,Erie County,NY,37.947122861586315,NA
14207,Erie County,NY,NA,6.516290726817042
14221,Erie County,NY,69.98444790046656,NA
14420,Monroe County,NY,67.80715396578539,NA
14437,Livingston County,NY,NA,70.67669172932331
14450,Monroe County,NY,NA,3.508771929824561
14526,Monroe County,NY,NA,14.035087719298245
14559,Monroe County,NY,9.331259720062208,NA
14561,Ontario County,NY,75.73872472783826,NA
14564,Ontario County,NY,22.08398133748056,NA
14568,Wayne County,NY,82.58164852255054,NA
14589,Wayne County,NY,44.012441679626754,NA
14606,Monroe County,NY,4.5101088646967336,NA
14608,Monroe County,NY,31.41524105754277,NA
14615,Monroe County,NY,19.12908242612753,NA
14616,Monroe County,NY,2.488335925349922,NA
14845,Chemung County,NY,NA,15.037593984962406
14895,Allegany County,NY,69.05132192846034,NA
27055,Yadkin County,NC,NA,61.152882205513784
27284,Forsyth County,NC,NA,5.513784461152882
27501,Harnett County,NC,73.87247278382581,NA
27527,Johnston County,NC,73.87247278382581,NA
27573,Person County,NC,NA,42.606516290726816
27574,Person County,NC,29.39346811819596,NA
27583,Person County,NC,70.76205287713842,NA
27704,Durham County,NC,NA,10.275689223057643
27707,Durham County,NC,49.14463452566096,NA
28001,Stanly County,NC,58.63141524105754,NA
28083,Cabarrus County,NC,87.71384136858475,NA
28146,Rowan County,NC,NA,62.65664160401002
28152,Cleveland County,NC,NA,32.581453634085214
28328,Sampson County,NC,NA,31.57894736842105
28383,Robeson County,NC,90.82426127527216,NA
28409,New Hanover County,NC,45.56765163297045,36.340852130325814
28412,New Hanover County,NC,NA,43.10776942355889
28594,Carteret County,NC,93.46811819595645,NA
28601,Catawba County,NC,19.906687402799378,NA
28602,Catawba County,NC,92.53499222395023,NA
28681,Alexander County,NC,NA,20.050125313283207
28716,Haywood County,NC,40.74650077760498,NA
28734,Macon County,NC,NA,15.288220551378446
28761,McDowell County,NC,63.14152410575428,NA
28792,Henderson County,NC,13.374805598755831,NA
58075,Richland County,ND,98.4447900466563,NA
58104,Cass County,ND,5.7542768273716955,NA
58401,Stutsman County,ND,85.22550544323484,NA
58503,Burleigh County,ND,67.34059097978226,NA
58504,Burleigh County,ND,45.878693623639194,NA
58601,Stark County,ND,NA,89.97493734335839
58801,Williams County,ND,9.17573872472784,NA
43056,Licking County,OH,62.208398133748055,NA
43081,Franklin County,OH,8.864696734059098,NA
43085,Franklin County,OH,42.30171073094868,NA
43119,Franklin County,OH,40.90202177293934,NA
43130,Fairfield County,OH,NA,1.7543859649122806
43201,Franklin County,OH,NA,44.11027568922306
43219,Franklin County,OH,0.7776049766718507,NA
43229,Franklin County,OH,0,NA
43231,Franklin County,OH,42.14618973561431,NA
43232,Franklin County,OH,NA,34.58646616541353
43420,Sandusky County,OH,NA,8.270676691729323
43465,Wood County,OH,NA,75.6892230576441
43517,Williams County,OH,95.17884914463453,NA
43551,Wood County,OH,9.79782270606532,NA
43607,Lucas County,OH,29.86003110419907,NA
43612,Lucas County,OH,1.244167962674961,NA
43771,Muskingum County,OH,94.867807153965785,NA
43812,Coshocton County,OH,10.26438569206843,NA
43920,Columbiana County,OH,6.842923794712286,NA
43943,Jefferson County,OH,72.47278382581649,NA
44125,Cuyahoga County,OH,11.04199066874028,NA
44128,Cuyahoga County,OH,NA,3.258145363408521
44133,Cuyahoga County,OH,33.12597200622084,NA
44136,Cuyahoga County,OH,20.52877138413686,NA
44145,Cuyahoga County,OH,NA,17.042606516290725
44231,Portage County,OH,NA,81.70426065162907
44240,Portage County,OH,17.418351477449455,NA
44313,Summit County,OH,42.76827371695179,NA
44403,Trumbull County,OH,NA,79.9498746867168
44438,Trumbull County,OH,NA,84.46115288220551
44481,Trumbull County,OH,49.4556765163297,NA
44483,Trumbull County,OH,NA,14.786967418546364
44511,Mahoning County,OH,73.09486780715396,NA
44601,Stark County,OH,3.265940902021773,6.015037593984962
44614,Stark County,OH,73.56143079315707,NA
44646,Stark County,OH,8.553654743390357,NA
44805,Ashland County,OH,NA,12.280701754385964
45005,Warren County,OH,NA,7.769423558897243
45011,Butler County,OH,NA,29.07268170426065
45014,Butler County,OH,8.242612752721618,NA
45040,Warren County,OH,6.065318818040436,NA
45133,Highland County,OH,NA,81.203007518797
45150,Clermont County,OH,72.78382581648522,NA
45211,Hamilton County,OH,9.020217729393467,NA
45223,Hamilton County,OH,28.304821150855364,70.17543859649122
45231,Hamilton County,OH,4.199066874027993,NA
45239,Hamilton County,OH,46.18973561430793,NA
45240,Hamilton County,OH,5.287713841368585,NA
45245,Clermont County,OH,39.0357698289269,NA
45246,Hamilton County,OH,NA,85.96491228070175
45341,Clark County,OH,90.04665629860031,NA
45344,Clark County,OH,32.97045101088647,NA
45373,Miami County,OH,NA,5.263157894736842
45440,Montgomery County,OH,39.968895800933126,NA
45628,Ross County,OH,74.4945567651633,NA
45638,Lawrence County,OH,NA,62.40601503759399
45832,Van Wert County,OH,86.31415241057543,NA
45891,Van Wert County,OH,32.03732503888025,NA
73010,McClain County,OK,66.87402799377917,NA
73107,Oklahoma County,OK,14.463452566096425,NA
73129,Oklahoma County,OK,26.43856920684292,NA
73162,Oklahoma County,OK,51.94401244167963,NA
73169,Oklahoma County,OK,99.53343701399689,NA
74056,Osage County,OK,79.93779160186625,NA
74063,Tulsa County,OK,NA,54.13533834586466
74136,Tulsa County,OK,NA,52.38095238095239
74955,Sequoyah County,OK,34.52566096423017,NA
97045,Clackamas County,OR,12.28615863141524,NA
97086,Clackamas County,OR,69.98444790046656,NA
97123,Washington County,OR,34.21461897356143,NA
97138,Clatsop County,OR,NA,56.64160401002506
97217,Multnomah County,OR,60.9642301710731,37.34335839598997
97236,Multnomah County,OR,41.679626749611195,NA
97305,Marion County,OR,NA,23.55889724310777
97317,Marion County,OR,68.7402799377916,NA
97470,Douglas County,OR,NA,27.31829573934837
97478,Lane County,OR,56.60964230171073,NA
97504,Jackson County,OR,25.34992223950233,NA
97526,Josephine County,OR,34.99222395023328,NA
97701,Deschutes County,OR,50.233281493001556,NA
97741,Jefferson County,OR,74.4945567651633,NA
15090,Allegheny County,PA,41.368584758942454,NA
15237,Allegheny County,PA,22.86158631415241,NA
15501,Somerset County,PA,58.63141524105754,NA
15668,Westmoreland County,PA,77.44945567651634,NA
15909,Cambria County,PA,NA,82.95739348370927
16105,Lawrence County,PA,90.51321928460342,NA
16505,Erie County,PA,NA,66.66666666666666
16511,Erie County,PA,NA,96.49122807017544
16625,Blair County,PA,96.57853810264385,NA
16673,Blair County,PA,NA,95.98997493734336
17003,Lebanon County,PA,38.72472783825817,NA
17015,Cumberland County,PA,NA,40.35087719298245
17025,Cumberland County,PA,NA,29.57393483709273
17044,Mifflin County,PA,18.040435458786934,NA
17109,Dauphin County,PA,76.20528771384136,NA
17112,Dauphin County,PA,57.54276827371695,16.040100250626566
17225,Franklin County,PA,92.6905132192846,NA
17257,Cumberland County,PA,NA,21.553884711779446
17313,York County,PA,NA,63.1578947368421
17325,Adams County,PA,29.237947122861584,NA
17362,York County,PA,72.62830482115086,NA
17368,York County,PA,NA,73.1829573934837
17522,Lancaster County,PA,NA,23.05764411027569
17543,Lancaster County,PA,13.685847589424572,NA
17547,Lancaster County,PA,55.83203732503888,NA
17603,Lancaster County,PA,11.19751166407465,NA
17872,Northumberland County,PA,NA,37.092731829573935
18015,Northampton County,PA,NA,7.268170426065162
18040,Northampton County,PA,62.98600311041991,NA
18041,Montgomery County,PA,99.22239502332815,NA
18104,Lehigh County,PA,NA,13.032581453634084
18634,Luzerne County,PA,75.42768273716952,NA
18641,Luzerne County,PA,NA,80.7017543859649
18925,Bucks County,PA,NA,89.72431077694235
18940,Bucks County,PA,NA,79.69924812030075
19004,Montgomery County,PA,69.98444790046656,NA
19008,Delaware County,PA,NA,88.7218045112782
19020,Bucks County,PA,60.65318818040435,6.7669172932330826
19021,Bucks County,PA,NA,58.39598997493734
19033,Delaware County,PA,NA,86.71679197994987
19118,Philadelphia County,PA,98.13374805598755,NA
19133,Philadelphia County,PA,36.236391912908246,NA
19149,Philadelphia County,PA,4.043545878693624,NA
19150,Philadelphia County,PA,52.255054432348366,NA
19151,Philadelphia County,PA,88.80248833592535,NA
19312,Chester County,PA,NA,89.22305764411027
19382,Chester County,PA,2.9548989113530326,NA
19422,Montgomery County,PA,NA,48.87218045112782
19475,Chester County,PA,59.72006220839814,NA
19518,Berks County,PA,83.67029548989113,NA
19522,Berks County,PA,NA,60.6516290726817
19530,Berks County,PA,NA,69.92481203007519
19606,Berks County,PA,NA,9.022556390977442
02806,Bristol County,RI,NA,85.21303258145363
02814,Providence County,RI,NA,78.69674185463658
02817,Kent County,RI,NA,83.70927318295739
02857,Providence County,RI,NA,82.70676691729322
02871,Newport County,RI,51.788491446345255,NA
02886,Kent County,RI,NA,29.32330827067669
02892,Washington County,RI,76.36080870917574,NA
02907,Providence County,RI,57.698289269051315,NA
02909,Providence County,RI,NA,18.295739348370926
02919,Providence County,RI,58.94245723172629,NA
29209,Richland County,SC,NA,42.35588972431078
29349,Spartanburg County,SC,NA,23.308270676691727
29405,Charleston County,SC,33.43701399688958,NA
29407,Charleston County,SC,49.14463452566096,NA
29420,Dorchester County,SC,NA,83.45864661654136
29464,Charleston County,SC,17.107309486780714,NA
29483,Dorchester County,SC,3.576982892690513,NA
29501,Florence County,SC,16.485225505443236,28.57142857142857
29526,Horry County,SC,NA,32.83208020050125
29909,Beaufort County,SC,NA,91.22807017543859
57430,Marshall County,SD,NA,94.9874686716792
37040,Montgomery County,TN,55.36547433903577,NA
37043,Montgomery County,TN,NA,31.82957393483709
37067,Williamson County,TN,NA,79.4486215538847
37087,Wilson County,TN,15.863141524105753,NA
37096,Perry County,TN,90.6687402799378,NA
37128,Rutherford County,TN,NA,24.81203007518797
37135,Williamson County,TN,NA,86.46616541353383
37167,Rutherford County,TN,9.642301710730948,NA
37206,Davidson County,TN,72.31726283048211,NA
37207,Davidson County,TN,NA,11.278195488721805
37210,Davidson County,TN,54.74339035769829,NA
37211,Davidson County,TN,NA,18.546365914786968
37367,Bledsoe County,TN,NA,59.3984962406015
37615,Washington County,TN,NA,55.88972431077694
37762,Campbell County,TN,NA,97.24310776942356
37804,Blount County,TN,16.951788491446347,NA
37863,Sevier County,TN,NA,77.19298245614034
37874,Monroe County,TN,67.18506998444789,NA
37922,Knox County,TN,NA,51.8796992481203
38111,Shelby County,TN,52.099533437014,68.1704260651629
38118,Shelby County,TN,4.354587869362364,NA
38128,Shelby County,TN,NA,19.298245614035086
38237,Weakley County,TN,NA,72.93233082706767
38301,Madison County,TN,0.46656298600311047,NA
38305,Madison County,TN,1.088646967340591,NA
38340,Chester County,TN,NA,61.904761904761905
38372,Hardin County,TN,NA,75.43859649122807
38401,Maury County,TN,8.242612752721618,NA
38474,Maury County,TN,60.9642301710731,87.21804511278195
38583,White County,TN,NA,23.55889724310777
75006,Dallas County,TX,28.46034214618974,NA
75010,Denton County,TX,24.416796267496114,NA
75025,Collin County,TX,69.82892690513219,NA
75051,Dallas County,TX,83.98133748055989,NA
75087,Rockwall County,TX,31.88180404354588,NA
75125,Ellis County,TX,92.84603421461898,NA
75149,Dallas County,TX,34.68118195956454,NA
75181,Dallas County,TX,93.31259720062208,NA
75217,Dallas County,TX,2.177293934681182,NA
75229,Dallas County,TX,37.16951788491446,NA
75241,Dallas County,TX,19.12908242612753,NA
75254,Dallas County,TX,95.3343701399689,NA
75418,Fannin County,TX,78.22706065318819,NA
75495,Grayson County,TX,NA,86.96741854636592
75961,Nacogdoches County,TX,34.83670295489891,NA
76001,Tarrant County,TX,77.13841368584758,NA
76010,Tarrant County,TX,12.130637636080872,16.541353383458645
76040,Tarrant County,TX,34.3701399688958,NA
76054,Tarrant County,TX,NA,93.734335839599
76106,Tarrant County,TX,13.063763608087092,NA
76205,Denton County,TX,71.3841368584759,NA
76450,Young County,TX,65.78538102643857,NA
76513,Bell County,TX,91.601866251944,NA
76549,Bell County,TX,26.43856920684292,NA
76712,McLennan County,TX,18.662519440124417,NA
77008,Harris County,TX,67.49611197511665,NA
77009,Harris County,TX,NA,72.18045112781954
77012,Harris County,TX,93.93468118195956,NA
77015,Harris County,TX,14.307931570762053,NA
77020,Harris County,TX,NA,55.13784461152882
77025,Harris County,TX,48.055987558320375,NA
77029,Harris County,TX,NA,65.91478696741855
77066,Harris County,TX,44.63452566096423,NA
77075,Harris County,TX,47.744945567651634,NA
77076,Harris County,TX,73.71695178849144,NA
77077,Harris County,TX,37.636080870917574,NA
77083,Harris County,TX,85.69206842923795,NA
77087,Harris County,TX,78.0715396578538,NA
77092,Harris County,TX,48.83359253499223,NA
77095,Harris County,TX,NA,64.66165413533834
77301,Montgomery County,TX,29.39346811819596,NA
77316,Montgomery County,TX,46.500777604976676,NA
77328,San Jacinto County,TX,95.02332814930016,87.468671679198
77339,Harris County,TX,70.60653188180405,NA
77375,Harris County,TX,83.67029548989113,NA
77377,Harris County,TX,27.682737169517885,NA
77380,Montgomery County,TX,55.98755832037325,NA
77396,Harris County,TX,23.950233281493002,NA
77406,Fort Bend County,TX,NA,81.45363408521304
77429,Harris County,TX,NA,56.89223057644111
77434,Colorado County,TX,91.29082426127528,NA
77447,Harris County,TX,74.96111975116641,NA
77450,Harris County,TX,NA,33.583959899749374
77479,Fort Bend County,TX,8.709175738724728,NA
77515,Brazoria County,TX,50.85536547433903,NA
77521,Harris County,TX,16.640746500777606,NA
77532,Harris County,TX,45.10108864696734,NA
77535,Liberty County,TX,41.05754276827372,NA
77581,Brazoria County,TX,24.883359253499222,NA
77590,Galveston County,TX,NA,39.34837092731829
77642,Jefferson County,TX,36.85847589424572,NA
77662,Orange County,TX,30.015552099533437,NA
77707,Jefferson County,TX,64.38569206842924,NA
77845,Brazos County,TX,27.060653188180407,NA
78045,Webb County,TX,NA,21.303258145363408
78065,Atascosa County,TX,76.36080870917574,NA
78240,Bexar County,TX,NA,40.6015037593985
78249,Bexar County,TX,42.92379471228615,NA
78411,Nueces County,TX,36.54743390357698,NA
78412,Nueces County,TX,53.18818040435459,NA
78572,Hidalgo County,TX,71.85069984447901,NA
78576,Hidalgo County,TX,NA,92.23057644110276
78629,Gonzales County,TX,64.38569206842924,NA
78634,Williamson County,TX,35.45878693623639,NA
78704,Travis County,TX,95.95645412130638,NA
78840,Val Verde County,TX,11.81959564541213,NA
78852,Maverick County,TX,25.038880248833596,NA
79401,Lubbock County,TX,98.9113530326594,NA
79556,Nolan County,TX,55.98755832037325,NA
79701,Midland County,TX,NA,39.097744360902254
79762,Ector County,TX,NA,25.31328320802005
79764,Ector County,TX,21.77293934681182,NA
84009,Salt Lake County,UT,NA,50.37593984962406
84043,Utah County,UT,NA,41.854636591478695
84078,Uintah County,UT,2.021772939346812,NA
84084,Salt Lake County,UT,NA,43.10776942355889
84088,Salt Lake County,UT,13.21928460342146,NA
84106,Salt Lake County,UT,70.91757387247279,NA
84118,Salt Lake County,UT,NA,46.8671679197995
84120,Salt Lake County,UT,31.259720062208395,27.819548872180448
84121,Salt Lake County,UT,NA,38.095238095238095
84129,,UT,NA,26.065162907268167
84655,Utah County,UT,85.69206842923795,NA
84663,Utah County,UT,NA,91.97994987468672
05488,Franklin County,VT,51.01088646967341,NA
05663,Washington County,VT,NA,97.99498746867168
20112,Prince William County,VA,NA,70.92731829573935
20147,Loudoun County,VA,NA,33.08270676691729
22193,Prince William County,VA,4.821150855365474,NA
22960,Orange County,VA,42.61275272161742,NA
23072,Gloucester County,VA,NA,86.21553884711778
23222,Richmond city,VA,NA,46.365914786967416
23324,Chesapeake city,VA,NA,37.59398496240601
23462,Virginia Beach city,VA,40.59097978227061,NA
23608,Newport News city,VA,11.508553654743391,NA
23661,Hampton city,VA,66.7185069984448,NA
23704,Portsmouth city,VA,NA,25.563909774436087
23834,Colonial Heights city,VA,NA,82.45614035087719
24013,Roanoke city,VA,58.94245723172629,NA
24018,Roanoke County,VA,NA,44.86215538847117
24202,Washington County,VA,NA,62.907268170426065
24401,Staunton city,VA,NA,9.523809523809524
24501,Lynchburg city,VA,24.57231726283048,NA
98027,King County,WA,NA,80.95238095238095
98033,King County,WA,NA,88.47117794486216
98036,Snohomish County,WA,NA,95.73934837092732
98058,King County,WA,NA,62.15538847117794
98118,King County,WA,NA,38.59649122807017
98177,King County,WA,80.87091757387248,NA
98226,Whatcom County,WA,NA,90.22556390977444
98292,Snohomish County,WA,51.32192846034215,NA
98312,Kitsap County,WA,54.43234836702955,NA
98391,Pierce County,WA,27.838258164852252,NA
98584,Mason County,WA,NA,30.075187969924812
98801,Chelan County,WA,62.83048211508554,NA
98837,Grant County,WA,73.25038880248833,NA
99141,Stevens County,WA,91.29082426127528,NA
99159,Lincoln County,WA,NA,99.74937343358395
99208,Spokane County,WA,37.01399688958009,NA
20005,District of Columbia,DC,85.38102643856921,NA
20009,District of Columbia,DC,NA,28.07017543859649
20032,District of Columbia,DC,6.2208398133748055,NA
25427,Berkeley County,WV,57.8538102643857,NA
25438,Jefferson County,WV,87.09175738724728,NA
26037,Brooke County,WV,78.69362363919129,NA
26330,Harrison County,WV,71.07309486780716,NA
26757,Hampshire County,WV,86.00311041990669,NA
53038,Jefferson County,WI,NA,94.73684210526315
53051,Waukesha County,WI,NA,41.10275689223057
53073,Sheboygan County,WI,89.42457231726283,NA
53081,Sheboygan County,WI,81.95956454121306,NA
53095,Washington County,WI,63.29704510108864,NA
53121,Walworth County,WI,39.502332814930014,NA
53147,Walworth County,WI,NA,41.35338345864661
53150,Waukesha County,WI,58.47589424572317,NA
53207,Milwaukee County,WI,30.171073094867808,NA
53209,Milwaukee County,WI,NA,3.007518796992481
53214,Milwaukee County,WI,44.7900466562986,NA
53217,Milwaukee County,WI,18.506998444790046,NA
53226,Milwaukee County,WI,62.674961119751174,83.95989974937343
53228,Milwaukee County,WI,NA,90.47619047619048
53405,Racine County,WI,8.087091757387247,NA
53534,Rock County,WI,65.00777604976672,NA
53546,Rock County,WI,NA,16.791979949874687
53711,Dane County,WI,57.23172628304821,NA
54022,Pierce County,WI,NA,50.877192982456144
54110,Calumet County,WI,83.04821150855366,NA
54143,Marinette County,WI,66.56298600311042,NA
54409,Langlade County,WI,NA,33.33333333333333
54603,La Crosse County,WI,NA,50.6265664160401
54738,Eau Claire County,WI,98.75583203732504,NA
54770,Trempealeau County,WI,97.82270606531883,NA
54829,Barron County,WI,81.49300155520996,NA
54914,Outagamie County,WI,NA,52.88220551378446
54950,Waupaca County,WI,NA,100
54952,Winnebago County,WI,NA,45.614035087719294
54956,Winnebago County,WI,4.976671850699844,NA
