ZipCode,county,state,Adult,Retirement,Geriatric
35221,Jefferson County,AL,90.07874015748033,NA,NA
35244,Jefferson County,AL,49.29133858267716,NA,NA
35404,Tuscaloosa County,AL,NA,91.51193633952255,NA
35405,Tuscaloosa County,AL,NA,15.119363395225463,88.61209964412812
35555,Fayette County,AL,64.56692913385827,NA,NA
35674,Colbert County,AL,36.06299212598425,NA,NA
35750,Madison County,AL,NA,59.6816976127321,NA
35759,Madison County,AL,89.29133858267716,NA,NA
36109,Montgomery County,AL,50.70866141732283,NA,NA
36527,Baldwin County,AL,NA,85.14588859416446,NA
85020,Maricopa County,AZ,38.425196850393704,NA,NA
85037,Maricopa County,AZ,25.511811023622048,NA,NA
85208,Maricopa County,AZ,NA,NA,22.064056939501782
85248,Maricopa County,AZ,58.425196850393704,NA,NA
85260,Maricopa County,AZ,65.03937007874015,NA,NA
85262,Maricopa County,AZ,NA,75.06631299734748,NA
85286,Maricopa County,AZ,NA,77.9840848806366,NA
85297,Maricopa County,AZ,63.46456692913386,NA,NA
85301,Maricopa County,AZ,5.511811023622047,NA,NA
85364,Yuma County,AZ,20,NA,NA
85373,Maricopa County,AZ,NA,NA,53.380782918149464
85710,Pima County,AZ,NA,NA,4.6263345195729535
85730,Pima County,AZ,60.47244094488189,NA,NA
86403,Mohave County,AZ,75.74803149606299,NA,NA
71854,Miller County,AR,NA,64.9867374005305,NA
72150,Grant County,AR,80.94488188976378,NA,NA
72173,Faulkner County,AR,85.19685039370079,NA,NA
72396,Cross County,AR,NA,93.63395225464191,NA
72712,Benton County,AR,NA,44.03183023872679,NA
90004,Los Angeles County,CA,44.40944881889764,NA,NA
90025,Los Angeles County,CA,NA,NA,40.213523131672595
90029,Los Angeles County,CA,63.1496062992126,NA,NA
90033,Los Angeles County,CA,43.46456692913386,NA,NA
90038,Los Angeles County,CA,NA,94.16445623342176,NA
90047,Los Angeles County,CA,NA,16.445623342175068,NA
90062,Los Angeles County,CA,79.52755905511812,NA,NA
90064,Los Angeles County,CA,NA,NA,21.352313167259787
90201,Los Angeles County,CA,92.75590551181102,NA,53.736654804270465
90220,Los Angeles County,CA,NA,NA,95.72953736654804
90241,Los Angeles County,CA,54.645669291338585,NA,NA
90247,Los Angeles County,CA,52.59842519685039,NA,NA
90275,Los Angeles County,CA,59.055118110236215,NA,61.56583629893239
90638,Los Angeles County,CA,NA,NA,24.555160142348754
90640,Los Angeles County,CA,NA,81.9628647214854,NA
90703,Los Angeles County,CA,NA,84.61538461538461,NA
90807,Los Angeles County,CA,NA,85.94164456233422,NA
90808,Los Angeles County,CA,58.425196850393704,NA,NA
90810,Los Angeles County,CA,59.68503937007874,NA,NA
91016,Los Angeles County,CA,58.89763779527559,NA,NA
91030,Los Angeles County,CA,85.8267716535433,NA,NA
91103,Los Angeles County,CA,NA,83.55437665782493,NA
91106,Los Angeles County,CA,91.49606299212599,NA,NA
91107,Los Angeles County,CA,96.53543307086613,NA,NA
91304,Los Angeles County,CA,NA,NA,13.523131672597867
91316,Los Angeles County,CA,71.02362204724409,NA,NA
91342,Los Angeles County,CA,NA,16.710875331564985,NA
91344,Los Angeles County,CA,75.27559055118111,NA,NA
91355,Los Angeles County,CA,71.81102362204724,NA,NA
91384,Los Angeles County,CA,NA,NA,84.69750889679716
91710,San Bernardino County,CA,37.00787401574803,NA,NA
91730,San Bernardino County,CA,NA,40.05305039787798,NA
91733,Los Angeles County,CA,67.8740157480315,NA,NA
91765,Los Angeles County,CA,66.61417322834644,NA,NA
91786,San Bernardino County,CA,95.59055118110236,NA,NA
91789,Los Angeles County,CA,82.36220472440945,62.59946949602122,NA
91911,San Diego County,CA,NA,21.220159151193634,NA
91941,San Diego County,CA,60,NA,NA
91977,San Diego County,CA,35.90551181102362,NA,NA
92008,San Diego County,CA,NA,64.72148541114059,NA
92019,San Diego County,CA,46.45669291338583,NA,NA
92026,San Diego County,CA,NA,NA,32.028469750889684
92054,San Diego County,CA,NA,NA,74.73309608540926
92104,San Diego County,CA,NA,72.14854111405835,NA
92111,San Diego County,CA,55.59055118110236,NA,NA
92114,San Diego County,CA,32.75590551181102,NA,NA
92116,San Diego County,CA,94.80314960629921,NA,NA
92126,San Diego County,CA,75.11811023622047,36.339522546419104,42.34875444839858
92139,San Diego County,CA,72.75590551181102,NA,NA
92173,San Diego County,CA,94.48818897637796,NA,NA
92264,Riverside County,CA,NA,13.527851458885943,NA
92324,San Bernardino County,CA,NA,NA,62.989323843416365
92335,San Bernardino County,CA,76.69291338582677,NA,NA
92346,San Bernardino County,CA,61.25984251968504,NA,NA
92392,San Bernardino County,CA,NA,35.54376657824933,NA
92407,San Bernardino County,CA,NA,51.9893899204244,NA
92505,Riverside County,CA,76.22047244094489,NA,NA
92553,Riverside County,CA,26.92913385826772,NA,NA
92592,Riverside County,CA,28.346456692913385,NA,NA
92612,Orange County,CA,93.85826771653544,NA,NA
92620,Orange County,CA,84.88188976377953,NA,43.06049822064057
92626,Orange County,CA,94.1732283464567,NA,NA
92656,Orange County,CA,66.77165354330708,NA,NA
92692,Orange County,CA,NA,25.9946949602122,NA
92782,Orange County,CA,79.21259842519684,NA,NA
92807,Orange County,CA,88.81889763779527,NA,NA
92870,Orange County,CA,NA,25.46419098143236,NA
93003,Ventura County,CA,NA,NA,12.455516014234876
93035,Ventura County,CA,69.13385826771653,NA,NA
93060,Ventura County,CA,70.07874015748031,NA,NA
93063,Ventura County,CA,35.275590551181104,NA,NA
93230,Kings County,CA,NA,NA,20.640569395017792
93245,Kings County,CA,NA,NA,76.86832740213522
93274,Tulare County,CA,7.244094488188976,NA,77.93594306049823
93292,Tulare County,CA,41.574803149606296,NA,NA
93422,San Luis Obispo County,CA,NA,NA,69.3950177935943
93454,Santa Barbara County,CA,30.866141732283463,NA,NA
93536,Los Angeles County,CA,43.30708661417323,NA,NA
93630,Fresno County,CA,NA,89.38992042440319,NA
93901,Monterey County,CA,NA,NA,49.8220640569395
93923,Monterey County,CA,NA,NA,40.92526690391459
94002,San Mateo County,CA,56.535433070866134,NA,NA
94010,San Mateo County,CA,NA,NA,8.540925266903916
94014,San Mateo County,CA,NA,30.76923076923077,NA
94015,San Mateo County,CA,NA,NA,2.135231316725979
94024,Santa Clara County,CA,NA,71.61803713527851,NA
94028,San Mateo County,CA,98.74015748031496,NA,NA
94043,Santa Clara County,CA,NA,69.49602122015915,NA
94087,Santa Clara County,CA,79.05511811023622,NA,21.70818505338078
94102,San Francisco County,CA,32.125984251968504,NA,89.6797153024911
94109,San Francisco County,CA,NA,14.058355437665782,1.7793594306049825
94110,San Francisco County,CA,NA,11.405835543766578,NA
94112,San Francisco County,CA,24.409448818897637,NA,NA
94117,San Francisco County,CA,NA,45.09283819628647,NA
94118,San Francisco County,CA,NA,38.726790450928384,NA
94122,San Francisco County,CA,47.40157480314961,NA,NA
94124,San Francisco County,CA,NA,24.6684350132626,NA
94134,San Francisco County,CA,71.18110236220473,30.238726790450926,25.97864768683274
94303,San Mateo County,CA,27.716535433070867,NA,NA
94306,Santa Clara County,CA,NA,68.96551724137932,NA
94403,San Mateo County,CA,NA,20.689655172413794,NA
94509,Contra Costa County,CA,NA,NA,13.87900355871886
94510,Solano County,CA,NA,65.78249336870027,NA
94513,Contra Costa County,CA,34.488188976377955,NA,NA
94518,Contra Costa County,CA,78.74015748031496,NA,NA
94521,Contra Costa County,CA,NA,NA,20.284697508896798
94533,Solano County,CA,23.30708661417323,28.116710875331563,NA
94541,Alameda County,CA,24.251968503937007,NA,NA
94544,Alameda County,CA,NA,46.94960212201592,NA
94547,Contra Costa County,CA,NA,NA,92.52669039145907
94551,Alameda County,CA,NA,NA,90.0355871886121
94555,Alameda County,CA,68.34645669291338,NA,NA
94559,Napa County,CA,NA,NA,46.263345195729535
94579,Alameda County,CA,NA,76.39257294429707,NA
94585,Solano County,CA,81.41732283464566,NA,NA
94588,Alameda County,CA,73.54330708661418,NA,NA
94589,Solano County,CA,NA,NA,41.99288256227758
94591,Solano County,CA,NA,NA,17.437722419928825
94602,Alameda County,CA,NA,95.22546419098144,NA
94806,Contra Costa County,CA,67.24409448818898,NA,NA
94949,Marin County,CA,NA,NA,63.70106761565836
95014,Santa Clara County,CA,NA,66.04774535809018,NA
95035,Santa Clara County,CA,96.69291338582677,NA,NA
95037,Santa Clara County,CA,NA,NA,28.825622775800714
95066,Santa Cruz County,CA,NA,NA,87.90035587188612
95120,Santa Clara County,CA,NA,52.785145888594165,NA
95121,Santa Clara County,CA,NA,58.355437665782496,NA
95123,Santa Clara County,CA,38.267716535433074,NA,NA
95131,Santa Clara County,CA,79.68503937007874,NA,NA
95132,Santa Clara County,CA,NA,NA,54.804270462633454
95206,San Joaquin County,CA,22.04724409448819,NA,NA
95240,San Joaquin County,CA,16.69291338582677,NA,NA
95340,Merced County,CA,NA,82.22811671087533,NA
95350,Stanislaus County,CA,NA,NA,16.014234875444842
95366,San Joaquin County,CA,NA,81.6976127320955,NA
95376,San Joaquin County,CA,28.188976377952756,NA,NA
95386,Stanislaus County,CA,82.20472440944881,NA,NA
95467,Lake County,CA,97.95275590551181,NA,NA
95608,Sacramento County,CA,40.78740157480315,NA,6.405693950177936
95610,Sacramento County,CA,45.511811023622045,NA,NA
95678,Placer County,CA,NA,NA,60.4982206405694
95691,Yolo County,CA,NA,55.702917771883286,NA
95742,Sacramento County,CA,99.5275590551181,NA,NA
95758,Sacramento County,CA,NA,90.71618037135278,39.8576512455516
95817,Sacramento County,CA,NA,70.55702917771883,NA
95818,Sacramento County,CA,NA,NA,81.85053380782918
95820,Sacramento County,CA,NA,NA,51.95729537366548
95821,Sacramento County,CA,NA,NA,37.01067615658363
95827,Sacramento County,CA,NA,92.57294429708223,NA
95835,Sacramento County,CA,68.81889763779527,NA,NA
95966,Butte County,CA,11.023622047244094,NA,NA
96130,Lassen County,CA,89.44881889763779,NA,NA
80003,Jefferson County,CO,45.354330708661415,NA,NA
80004,Jefferson County,CO,NA,62.06896551724138,37.36654804270463
80005,Jefferson County,CO,89.76377952755905,NA,NA
80011,Arapahoe County,CO,31.181102362204726,NA,NA
80021,Jefferson County,CO,61.732283464566926,NA,NA
80123,Jefferson County,CO,48.661417322834644,NA,NA
80134,Douglas County,CO,26.14173228346457,NA,NA
80223,Denver County,CO,NA,56.49867374005305,NA
80224,Denver County,CO,NA,NA,54.44839857651246
80229,Adams County,CO,15.433070866141732,NA,NA
80247,Arapahoe County,CO,NA,NA,84.34163701067615
80501,Boulder County,CO,NA,NA,70.1067615658363
80601,Adams County,CO,34.01574803149606,NA,NA
80920,El Paso County,CO,NA,88.06366047745358,NA
81004,Pueblo County,CO,25.826771653543307,NA,NA
81007,Pueblo County,CO,NA,43.76657824933687,NA
81403,Montrose County,CO,NA,NA,96.08540925266904
06010,Hartford County,CT,2.047244094488189,NA,NA
06042,Hartford County,CT,38.89763779527559,NA,NA
06053,Hartford County,CT,NA,29.177718832891248,NA
06067,Hartford County,CT,NA,66.57824933687002,66.19217081850533
06071,Tolland County,CT,82.51968503937009,NA,NA
06095,Hartford County,CT,NA,34.217506631299734,NA
06106,Hartford County,CT,65.98425196850394,NA,NA
06108,Hartford County,CT,63.622047244094496,NA,NA
06111,Hartford County,CT,NA,45.62334217506631,NA
06249,New London County,CT,81.88976377952756,NA,NA
06260,Windham County,CT,31.338582677165356,NA,NA
06401,New Haven County,CT,31.023622047244093,NA,NA
06410,New Haven County,CT,69.60629921259842,NA,NA
06461,New Haven County,CT,NA,NA,88.25622775800713
06468,Fairfield County,CT,80.31496062992126,NA,NA
06470,Fairfield County,CT,NA,NA,75.08896797153025
06473,New Haven County,CT,70.55118110236221,NA,NA
06475,Middlesex County,CT,NA,94.9602122015915,NA
06511,New Haven County,CT,5.039370078740157,NA,NA
06512,New Haven County,CT,NA,NA,12.811387900355871
06513,New Haven County,CT,4.724409448818897,42.44031830238727,NA
06518,New Haven County,CT,NA,NA,29.537366548042705
06606,Fairfield County,CT,NA,NA,35.231316725978644
06610,Fairfield County,CT,27.244094488188974,NA,NA
06611,Fairfield County,CT,NA,NA,30.604982206405694
06776,Litchfield County,CT,28.661417322834648,NA,NA
06812,Fairfield County,CT,NA,79.3103448275862,67.61565836298932
06830,Fairfield County,CT,NA,NA,10.676156583629894
06902,Fairfield County,CT,21.73228346456693,NA,NA
19701,New Castle County,DE,NA,19.893899204244033,NA
19702,New Castle County,DE,16.062992125984252,NA,NA
19806,New Castle County,DE,NA,NA,44.128113879003564
19962,Kent County,DE,NA,75.86206896551724,NA
19970,Sussex County,DE,NA,60.742705570291776,NA
32129,Volusia County,FL,NA,NA,38.07829181494662
32137,Flagler County,FL,NA,10.344827586206897,NA
32164,Flagler County,FL,80.78740157480316,18.037135278514587,NA
32210,Duval County,FL,80.15748031496062,NA,NA
32221,Duval County,FL,29.92125984251969,NA,NA
32244,Duval County,FL,6.6141732283464565,NA,NA
32351,Gadsden County,FL,NA,88.85941644562334,NA
32505,Escambia County,FL,19.055118110236222,NA,NA
32507,Escambia County,FL,NA,47.214854111405835,NA
32609,Alachua County,FL,53.38582677165354,NA,NA
32641,Alachua County,FL,25.196850393700785,NA,NA
32738,Volusia County,FL,69.92125984251969,NA,NA
32757,Lake County,FL,NA,32.891246684350136,NA
32763,Volusia County,FL,83.93700787401575,NA,NA
32807,Orange County,FL,NA,63.395225464190986,NA
32808,Orange County,FL,16.69291338582677,NA,NA
32811,Orange County,FL,22.992125984251967,NA,NA
32818,Orange County,FL,NA,53.315649867374006,NA
32825,Orange County,FL,32.44094488188976,NA,NA
32835,Orange County,FL,59.527559055118104,NA,NA
32922,Brevard County,FL,NA,70.29177718832891,NA
32927,Brevard County,FL,54.330708661417326,NA,NA
32952,Brevard County,FL,91.96850393700787,NA,NA
32967,Indian River County,FL,NA,NA,75.44483985765125
32968,Indian River County,FL,NA,NA,74.37722419928826
33037,Monroe County,FL,NA,72.94429708222812,NA
33062,Broward County,FL,87.4015748031496,NA,NA
33065,Broward County,FL,48.976377952755904,NA,NA
33134,Miami-Dade County,FL,NA,NA,28.46975088967972
33139,Miami-Dade County,FL,60.94488188976378,80.90185676392572,NA
33146,Miami-Dade County,FL,NA,NA,79.00355871886121
33155,Miami-Dade County,FL,74.64566929133858,68.16976127320955,NA
33165,Miami-Dade County,FL,NA,38.196286472148536,NA
33168,Miami-Dade County,FL,86.92913385826772,NA,NA
33177,Miami-Dade County,FL,NA,NA,19.572953736654807
33182,Miami-Dade County,FL,98.11023622047243,NA,NA
33311,Broward County,FL,8.188976377952756,NA,NA
33312,Broward County,FL,81.10236220472441,NA,NA
33432,Palm Beach County,FL,NA,NA,24.91103202846975
33458,Palm Beach County,FL,24.7244094488189,NA,NA
33467,Palm Beach County,FL,57.637795275590555,NA,NA
33498,Palm Beach County,FL,NA,NA,56.93950177935944
33604,Hillsborough County,FL,23.937007874015748,NA,NA
33614,Hillsborough County,FL,NA,NA,70.8185053380783
33617,Hillsborough County,FL,NA,NA,83.27402135231317
33702,Pinellas County,FL,NA,NA,70.46263345195729
33707,Pinellas County,FL,62.36220472440945,NA,NA
33771,Pinellas County,FL,44.724409448818896,NA,NA
33815,Polk County,FL,91.81102362204724,NA,NA
33884,Polk County,FL,NA,46.684350132625994,NA
33897,Polk County,FL,74.17322834645668,NA,NA
33904,Lee County,FL,NA,20.159151193633953,4.98220640569395
33908,Lee County,FL,NA,7.957559681697612,NA
33916,Lee County,FL,NA,71.08753315649867,NA
33947,Charlotte County,FL,99.68503937007874,79.3103448275862,NA
33952,Charlotte County,FL,NA,NA,30.2491103202847
33953,Charlotte County,FL,NA,93.36870026525199,NA
33981,Charlotte County,FL,NA,72.67904509283821,NA
34116,Collier County,FL,NA,63.12997347480106,NA
34120,Collier County,FL,NA,NA,86.12099644128114
34202,Manatee County,FL,NA,41.90981432360743,NA
34229,Sarasota County,FL,NA,70.026525198939,NA
34231,Sarasota County,FL,54.01574803149606,NA,NA
34238,Sarasota County,FL,NA,42.17506631299735,NA
34429,Citrus County,FL,NA,NA,68.32740213523132
34450,Citrus County,FL,NA,NA,65.48042704626334
34472,Marion County,FL,37.95275590551181,NA,NA
34653,Pasco County,FL,29.763779527559052,NA,NA
34695,Pinellas County,FL,NA,NA,48.39857651245551
34698,Pinellas County,FL,NA,24.93368700265252,NA
34743,Osceola County,FL,NA,63.92572944297083,NA
34761,Orange County,FL,NA,NA,29.537366548042705
34786,Orange County,FL,NA,NA,72.95373665480427
34949,St. Lucie County,FL,NA,80.37135278514589,NA
34951,St. Lucie County,FL,NA,NA,55.871886120996436
30004,Fulton County,GA,42.04724409448819,NA,NA
30016,Newton County,GA,13.858267716535433,NA,NA
30047,Gwinnett County,GA,82.83464566929133,NA,NA
30075,Fulton County,GA,39.52755905511811,NA,NA
30076,Fulton County,GA,NA,NA,64.05693950177937
30094,Rockdale County,GA,47.08661417322835,83.28912466843501,NA
30106,Cobb County,GA,NA,74.80106100795756,NA
30135,Douglas County,GA,44.25196850393701,NA,NA
30214,Fayette County,GA,55.43307086614173,NA,NA
30273,Clayton County,GA,62.67716535433071,NA,NA
30276,Coweta County,GA,87.55905511811024,NA,NA
30297,Clayton County,GA,NA,77.9840848806366,NA
30305,Fulton County,GA,NA,NA,71.53024911032028
30311,Fulton County,GA,16.22047244094488,NA,NA
30314,Fulton County,GA,NA,NA,50.5338078291815
30328,Fulton County,GA,67.24409448818898,NA,30.604982206405694
30457,Treutlen County,GA,94.33070866141732,NA,NA
30518,Gwinnett County,GA,87.08661417322836,NA,NA
30904,Richmond County,GA,NA,22.811671087533156,NA
31522,Glynn County,GA,NA,NA,69.7508896797153
31820,Muscogee County,GA,NA,NA,97.86476868327402
31833,Troup County,GA,NA,79.04509283819628,NA
31909,Muscogee County,GA,40.47244094488189,NA,NA
96706,Honolulu County,HI,11.968503937007874,15.649867374005305,50.177935943060504
96741,Kauai County,HI,89.60629921259843,NA,NA
96768,Maui County,HI,95.43307086614173,NA,NA
96778,Hawaii County,HI,NA,66.3129973474801,NA
96789,Honolulu County,HI,22.20472440944882,NA,NA
96792,Honolulu County,HI,61.88976377952756,NA,NA
96797,Honolulu County,HI,53.22834645669291,NA,9.608540925266903
96815,Honolulu County,HI,NA,NA,93.95017793594306
96816,Honolulu County,HI,32.59842519685039,NA,NA
96817,Honolulu County,HI,NA,NA,2.8469750889679712
96818,Honolulu County,HI,87.24409448818898,37.13527851458886,NA
96819,Honolulu County,HI,65.8267716535433,49.3368700265252,58.362989323843415
96825,Honolulu County,HI,NA,56.233421750663126,NA
83221,Bingham County,ID,NA,21.750663129973475,NA
83709,Ada County,ID,15.905511811023624,NA,NA
60005,Cook County,IL,NA,42.70557029177719,27.046263345195733
60010,Lake County,IL,NA,NA,14.94661921708185
60016,Cook County,IL,24.094488188976378,NA,NA
60025,Cook County,IL,NA,33.15649867374005,NA
60046,Lake County,IL,39.05511811023622,27.851458885941643,NA
60053,Cook County,IL,77.32283464566929,NA,NA
60062,Cook County,IL,NA,7.161803713527852,NA
60064,Lake County,IL,77.00787401574803,NA,NA
60068,Cook County,IL,NA,39.52254641909814,NA
60070,Cook County,IL,NA,NA,59.7864768683274
60077,Cook County,IL,NA,NA,35.94306049822064
60089,Lake County,IL,40.62992125984252,NA,NA
60102,McHenry County,IL,48.503937007874015,NA,NA
60103,DuPage County,IL,90.5511811023622,NA,NA
60108,DuPage County,IL,60.31496062992125,NA,NA
60119,Kane County,IL,NA,96.02122015915118,NA
60126,DuPage County,IL,10.708661417322835,NA,NA
60137,DuPage County,IL,NA,NA,11.387900355871885
60139,DuPage County,IL,NA,39.257294429708224,NA
60148,DuPage County,IL,NA,NA,9.252669039145907
60153,Cook County,IL,NA,NA,50.88967971530249
60171,Cook County,IL,NA,NA,82.20640569395017
60174,Kane County,IL,NA,41.11405835543766,NA
60185,DuPage County,IL,37.480314960629926,31.830238726790448,NA
60190,DuPage County,IL,90.23622047244095,NA,NA
60192,Cook County,IL,NA,84.88063660477454,NA
60193,Cook County,IL,39.84251968503937,NA,NA
60201,Cook County,IL,NA,NA,4.270462633451958
60202,Cook County,IL,61.102362204724415,NA,NA
60438,Cook County,IL,NA,NA,66.90391459074732
60441,Will County,IL,22.83464566929134,NA,NA
60462,Cook County,IL,NA,7.6923076923076925,7.829181494661921
60467,Cook County,IL,52.125984251968504,NA,NA
60473,Cook County,IL,NA,NA,22.419928825622776
60490,Will County,IL,NA,92.3076923076923,NA
60504,DuPage County,IL,NA,61.273209549071616,NA
60527,DuPage County,IL,52.75590551181102,NA,NA
60545,Kendall County,IL,NA,80.63660477453581,NA
60558,Cook County,IL,84.09448818897638,NA,NA
60613,Cook County,IL,27.874015748031493,NA,NA
60614,Cook County,IL,NA,53.05039787798409,NA
60616,Cook County,IL,70.07874015748031,NA,NA
60619,Cook County,IL,7.716535433070866,NA,NA
60621,Cook County,IL,68.97637795275591,NA,NA
60632,Cook County,IL,14.803149606299213,NA,NA
60633,Cook County,IL,69.76377952755905,NA,NA
60634,Cook County,IL,NA,11.671087533156498,NA
60636,Cook County,IL,66.92913385826772,NA,NA
60637,Cook County,IL,45.82677165354331,NA,NA
60643,Cook County,IL,NA,27.055702917771885,NA
60950,Kankakee County,IL,NA,NA,36.654804270462634
61108,Winnebago County,IL,NA,NA,63.345195729537366
61554,Tazewell County,IL,NA,45.35809018567639,NA
62233,Randolph County,IL,97.63779527559055,NA,NA
62450,Richland County,IL,NA,56.76392572944297,NA
62704,Sangamon County,IL,NA,34.748010610079575,NA
46032,Hamilton County,IN,NA,NA,85.40925266903915
46038,Hamilton County,IN,NA,93.10344827586206,NA
46052,Boone County,IN,42.362204724409445,NA,NA
46222,Marion County,IN,NA,31.56498673740053,NA
46226,Marion County,IN,NA,50.397877984084886,NA
46360,LaPorte County,IN,6.299212598425196,NA,NA
46383,Porter County,IN,NA,6.36604774535809,NA
46407,Lake County,IN,NA,73.74005305039788,NA
47909,Tippecanoe County,IN,40.31496062992126,NA,NA
50010,Story County,IA,NA,98.14323607427056,NA
50112,Poweshiek County,IA,95.74803149606299,NA,NA
50317,Polk County,IA,NA,NA,38.79003558718861
50616,Floyd County,IA,NA,51.724137931034484,NA
51104,Woodbury County,IA,NA,82.75862068965517,NA
52240,Johnson County,IA,54.96062992125984,57.55968169761273,NA
52806,Scott County,IA,54.48818897637795,NA,NA
66006,Douglas County,KS,NA,93.89920424403184,NA
66112,Wyandotte County,KS,94.96062992125984,NA,NA
66210,Johnson County,KS,76.37795275590551,NA,NA
66605,Shawnee County,KS,NA,55.96816976127321,NA
66616,Shawnee County,KS,90.39370078740157,NA,NA
66801,Lyon County,KS,NA,NA,27.75800711743772
67220,Sedgwick County,KS,97.00787401574803,NA,NA
67701,Thomas County,KS,76.06299212598425,NA,NA
67801,Ford County,KS,59.68503937007874,NA,NA
40165,Bullitt County,KY,NA,NA,44.128113879003564
40207,Jefferson County,KY,72.1259842519685,NA,NA
40215,Jefferson County,KY,19.52755905511811,NA,NA
40216,Jefferson County,KY,9.448818897637794,NA,9.9644128113879
40220,Jefferson County,KY,NA,24.40318302387268,NA
40258,Jefferson County,KY,56.22047244094488,NA,NA
40504,Fayette County,KY,NA,NA,76.51245551601423
40515,Fayette County,KY,NA,54.64190981432361,NA
41051,Kenton County,KY,NA,37.93103448275862,NA
42351,Hancock County,KY,88.66141732283465,NA,NA
42701,Hardin County,KY,NA,63.660477453580896,NA
70005,Jefferson Parish,LA,NA,NA,5.338078291814947
70056,Jefferson Parish,LA,4.881889763779528,NA,NA
70092,St. Bernard Parish,LA,85.35433070866142,NA,NA
70122,Orleans Parish,LA,43.77952755905512,NA,NA
70363,Terrebonne Parish,LA,NA,NA,38.43416370106761
70364,Terrebonne Parish,LA,NA,NA,43.41637010676156
70373,Lafourche Parish,LA,NA,67.37400530503979,NA
70403,Tangipahoa Parish,LA,NA,34.48275862068966,NA
70435,St. Tammany Parish,LA,20.94488188976378,NA,NA
70506,Lafayette Parish,LA,88.03149606299212,NA,NA
70601,Calcasieu Parish,LA,NA,11.140583554376658,NA
70634,Beauregard Parish,LA,NA,41.644562334217504,NA
70737,Ascension Parish,LA,NA,NA,31.672597864768683
70769,Ascension Parish,LA,NA,41.37931034482759,NA
70809,East Baton Rouge Parish,LA,54.17322834645669,NA,NA
70810,East Baton Rouge Parish,LA,32.75590551181102,29.973474801061005,56.22775800711744
70816,East Baton Rouge Parish,LA,NA,NA,91.10320284697508
71106,Caddo Parish,LA,NA,16.180371352785148,NA
71203,Ouachita Parish,LA,NA,NA,32.38434163701068
71220,Morehouse Parish,LA,68.66141732283465,NA,NA
71269,Richland Parish,LA,45.03937007874016,NA,NA
71303,Rapides Parish,LA,NA,74.0053050397878,NA
71409,Rapides Parish,LA,NA,88.59416445623343,NA
04005,York County,ME,NA,NA,65.83629893238434
04046,York County,ME,92.28346456692913,NA,NA
04074,Cumberland County,ME,67.8740157480315,NA,NA
04101,Cumberland County,ME,NA,NA,49.11032028469751
04330,Kennebec County,ME,7.086614173228346,NA,NA
04429,Penobscot County,ME,NA,NA,89.32384341637011
04976,Somerset County,ME,17.00787401574803,NA,NA
20603,Charles County,MD,NA,87.0026525198939,NA
20659,St. Mary's County,MD,NA,60.212201591511935,NA
20685,Calvert County,MD,NA,NA,98.57651245551602
20706,Prince George's County,MD,58.110236220472444,NA,NA
20744,Prince George's County,MD,45.98425196850393,NA,NA
20747,Prince George's County,MD,46.92913385826772,NA,NA
20833,Montgomery County,MD,NA,NA,94.66192170818505
20854,Montgomery County,MD,NA,37.40053050397878,NA
20877,Montgomery County,MD,78.11023622047244,NA,NA
21014,Harford County,MD,41.10236220472441,NA,NA
21030,Baltimore County,MD,71.65354330708661,NA,NA
21042,Howard County,MD,NA,59.15119363395226,45.55160142348754
21054,Anne Arundel County,MD,NA,95.75596816976127,NA
21060,Anne Arundel County,MD,NA,43.50132625994695,NA
21061,Anne Arundel County,MD,76.53543307086615,NA,NA
21102,Carroll County,MD,86.45669291338582,NA,NA
21108,Anne Arundel County,MD,NA,NA,81.13879003558719
21211,Baltimore city,MD,88.18897637795276,NA,NA
21213,Baltimore city,MD,NA,16.710875331564985,NA
21229,Baltimore city,MD,18.425196850393704,23.872679045092838,NA
01027,Hampshire County,MA,93.7007874015748,NA,85.05338078291815
01057,Hampden County,MA,NA,NA,99.28825622775801
01240,Berkshire County,MA,96.37795275590551,NA,NA
01453,Worcester County,MA,9.133858267716535,NA,NA
01463,Middlesex County,MA,45.196850393700785,NA,NA
01524,Worcester County,MA,73.38582677165354,NA,NA
01527,Worcester County,MA,55.118110236220474,NA,NA
01543,Worcester County,MA,NA,83.81962864721486,NA
01603,Worcester County,MA,13.700787401574804,3.4482758620689653,NA
01605,Worcester County,MA,NA,0.7957559681697612,NA
01609,Worcester County,MA,NA,NA,52.313167259786475
01701,Middlesex County,MA,NA,99.46949602122017,NA
01757,Worcester County,MA,2.3622047244094486,NA,NA
01801,Middlesex County,MA,1.7322834645669292,NA,NA
01803,Middlesex County,MA,NA,NA,35.587188612099645
01810,Essex County,MA,14.330708661417324,NA,NA
01821,Middlesex County,MA,NA,2.6525198938992043,NA
01826,Middlesex County,MA,NA,44.827586206896555,55.16014234875445
01843,Essex County,MA,3.622047244094488,54.37665782493368,NA
01851,Middlesex County,MA,NA,NA,19.217081850533805
01852,Middlesex County,MA,0.31496062992125984,NA,17.08185053380783
01876,Middlesex County,MA,8.031496062992126,NA,5.6939501779359425
01880,Middlesex County,MA,8.346456692913385,NA,NA
01887,Middlesex County,MA,28.818897637795278,NA,NA
01890,Middlesex County,MA,NA,NA,11.032028469750891
01902,Essex County,MA,NA,0.5305039787798408,NA
01907,Essex County,MA,NA,NA,14.23487544483986
01915,Essex County,MA,1.889763779527559,1.8567639257294428,NA
01923,Essex County,MA,NA,36.07427055702917,NA
01960,Essex County,MA,0.9448818897637795,NA,NA
01983,Essex County,MA,84.72440944881889,NA,NA
02019,Norfolk County,MA,NA,11.936339522546419,NA
02026,Norfolk County,MA,5.354330708661418,NA,NA
02072,Norfolk County,MA,NA,NA,8.896797153024911
02114,Suffolk County,MA,NA,40.58355437665783,NA
02118,Suffolk County,MA,NA,NA,3.9145907473309607
02121,Suffolk County,MA,NA,NA,25.622775800711743
02124,Suffolk County,MA,83.46456692913385,0,NA
02125,Suffolk County,MA,4.409448818897638,NA,NA
02126,Suffolk County,MA,0.6299212598425197,4.509283819628647,NA
02128,Suffolk County,MA,83.30708661417323,NA,NA
02129,Suffolk County,MA,3.937007874015748,NA,NA
02131,Suffolk County,MA,51.023622047244096,5.305039787798409,NA
02132,Suffolk County,MA,13.228346456692913,NA,3.558718861209965
02140,Middlesex County,MA,17.95275590551181,NA,NA
02141,Middlesex County,MA,62.834645669291334,NA,NA
02143,Middlesex County,MA,NA,NA,82.91814946619218
02148,Middlesex County,MA,NA,3.978779840848806,NA
02150,Suffolk County,MA,NA,NA,2.491103202846975
02151,Suffolk County,MA,0.15748031496062992,26.790450928381965,26.334519572953734
02155,Middlesex County,MA,1.574803149606299,NA,18.86120996441281
02169,Norfolk County,MA,0.47244094488188976,NA,NA
02170,Norfolk County,MA,NA,NA,95.01779359430606
02176,Middlesex County,MA,8.818897637795276,NA,NA
02190,Norfolk County,MA,NA,NA,55.51601423487544
02301,Plymouth County,MA,0,NA,NA
02343,Norfolk County,MA,NA,NA,66.54804270462633
02368,Norfolk County,MA,NA,7.427055702917771,NA
02445,Norfolk County,MA,NA,36.87002652519894,NA
02446,Norfolk County,MA,NA,36.60477453580902,NA
02452,Middlesex County,MA,64.09448818897637,NA,NA
02474,Middlesex County,MA,14.488188976377952,26.525198938992045,NA
02478,Middlesex County,MA,NA,NA,34.87544483985765
02481,Norfolk County,MA,57.48031496062992,NA,NA
02493,Middlesex County,MA,NA,70.82228116710876,NA
02631,Barnstable County,MA,92.1259842519685,NA,NA
02649,Barnstable County,MA,NA,NA,71.88612099644128
02660,Barnstable County,MA,NA,NA,65.12455516014235
02703,Bristol County,MA,1.4173228346456692,1.5915119363395225,NA
02745,Bristol County,MA,2.204724409448819,NA,NA
02760,Bristol County,MA,NA,13.793103448275861,NA
02766,Bristol County,MA,18.89763779527559,NA,NA
48001,St. Clair County,MI,NA,71.88328912466844,NA
48021,Macomb County,MI,NA,NA,29.181494661921707
48033,Oakland County,MI,97.79527559055119,NA,NA
48035,Macomb County,MI,NA,NA,37.72241992882562
48038,Macomb County,MI,NA,NA,1.4234875444839856
48044,Macomb County,MI,NA,9.018567639257293,NA
48045,Macomb County,MI,NA,52.254641909814325,NA
48073,Oakland County,MI,29.448818897637796,NA,NA
48081,Macomb County,MI,39.21259842519685,25.72944297082228,NA
48088,Macomb County,MI,74.96062992125985,NA,17.793594306049823
48093,Macomb County,MI,20.47244094488189,NA,NA
48152,Wayne County,MI,NA,55.172413793103445,NA
48170,Wayne County,MI,74.01574803149606,NA,NA
48176,Washtenaw County,MI,NA,NA,60.14234875444839
48185,Wayne County,MI,NA,9.814323607427056,NA
48187,Wayne County,MI,36.53543307086614,NA,33.80782918149466
48197,Washtenaw County,MI,2.5196850393700787,NA,NA
48198,Washtenaw County,MI,2.8346456692913384,NA,NA
48203,Wayne County,MI,NA,NA,36.29893238434164
48207,Wayne County,MI,NA,NA,71.17437722419929
48210,Wayne County,MI,25.984251968503933,NA,NA
48213,Wayne County,MI,NA,NA,52.66903914590747
48219,Wayne County,MI,5.826771653543307,NA,NA
48221,Wayne County,MI,5.984251968503937,8.222811671087534,NA
48224,Wayne County,MI,NA,NA,53.02491103202846
48235,Wayne County,MI,44.56692913385827,NA,NA
48312,Macomb County,MI,NA,NA,6.761565836298933
48315,Macomb County,MI,NA,NA,23.487544483985765
48322,Oakland County,MI,NA,10.610079575596817,NA
48329,Oakland County,MI,33.22834645669291,NA,NA
48340,Oakland County,MI,11.181102362204724,NA,NA
48390,Oakland County,MI,38.74015748031496,NA,NA
48439,Genesee County,MI,NA,18.30238726790451,NA
48503,Genesee County,MI,51.338582677165356,NA,NA
48756,Ogemaw County,MI,NA,79.84084880636605,NA
48840,Ingham County,MI,79.84251968503938,NA,NA
48864,Ingham County,MI,72.44094488188976,47.48010610079575,NA
48911,Ingham County,MI,28.03149606299213,NA,NA
49014,Calhoun County,MI,NA,NA,23.843416370106763
49017,Calhoun County,MI,30.236220472440944,NA,NA
49048,Kalamazoo County,MI,67.71653543307087,NA,NA
49068,Calhoun County,MI,56.85039370078741,NA,NA
49221,Lenawee County,MI,4.566929133858268,NA,NA
49316,Kent County,MI,51.811023622047244,NA,NA
49321,Kent County,MI,NA,59.94694960212201,NA
49341,Kent County,MI,28.976377952755904,NA,NA
49426,Ottawa County,MI,NA,40.318302387267906,NA
49445,Muskegon County,MI,NA,23.872679045092838,NA
49456,Ottawa County,MI,NA,30.50397877984085,NA
49503,Kent County,MI,11.496062992125983,NA,NA
49519,Kent County,MI,NA,32.62599469496021,NA
49525,Kent County,MI,35.43307086614173,NA,NA
49685,Grand Traverse County,MI,52.91338582677165,NA,NA
49938,Gogebic County,MI,NA,NA,56.58362989323843
55075,Dakota County,MN,73.07086614173228,NA,NA
55118,Dakota County,MN,51.653543307086615,NA,NA
55119,Ramsey County,MN,42.51968503937008,NA,NA
55126,Ramsey County,MN,NA,NA,60.854092526690394
55130,Ramsey County,MN,50.86614173228347,NA,NA
55418,Hennepin County,MN,NA,NA,46.97508896797153
55987,Winona County,MN,NA,3.7135278514588856,NA
56071,Scott County,MN,NA,82.49336870026525,NA
56304,Sherburne County,MN,60.629921259842526,NA,NA
56345,Morrison County,MN,NA,40.84880636604775,NA
56601,Beltrami County,MN,NA,2.3872679045092835,NA
39428,Covington County,MS,NA,89.92042440318302,NA
63080,Franklin County,MO,74.80314960629921,NA,NA
63138,St. Louis County,MO,NA,91.24668435013263,NA
63139,St. Louis city,MO,93.07086614173228,NA,NA
63304,St. Charles County,MO,NA,17.24137931034483,NA
63366,St. Charles County,MO,13.543307086614172,NA,NA
63376,St. Charles County,MO,NA,19.363395225464192,NA
64068,Clay County,MO,33.54330708661417,NA,NA
64082,Jackson County,MO,NA,75.3315649867374,NA
64123,Jackson County,MO,42.99212598425196,NA,NA
64127,Jackson County,MO,45.66929133858268,NA,NA
64130,Jackson County,MO,NA,23.342175066312997,NA
64138,Jackson County,MO,39.68503937007874,NA,NA
64151,Platte County,MO,NA,NA,48.754448398576514
64429,Clinton County,MO,78.4251968503937,NA,NA
65203,Boone County,MO,NA,12.9973474801061,NA
65340,Saline County,MO,NA,61.80371352785146,NA
65714,Christian County,MO,NA,NA,72.24199288256227
59715,Gallatin County,MT,NA,NA,57.29537366548043
68046,Sarpy County,NE,65.66929133858268,NA,NA
68111,Douglas County,NE,21.102362204724407,NA,NA
68112,Douglas County,NE,81.25984251968504,NA,NA
68128,Sarpy County,NE,80,NA,NA
68132,Douglas County,NE,75.43307086614173,NA,NA
68133,Sarpy County,NE,95.90551181102363,NA,NA
68134,Douglas County,NE,99.84251968503936,NA,NA
68505,Lancaster County,NE,81.73228346456692,NA,NA
68731,Dakota County,NE,100,NA,NA
68826,Merrick County,NE,NA,NA,96.79715302491103
89115,Clark County,NV,21.41732283464567,NA,NA
89141,Clark County,NV,NA,95.49071618037135,NA
89511,Washoe County,NV,NA,NA,41.281138790035584
89703,Carson City,NV,89.13385826771653,NA,NA
03062,Hillsborough County,NH,51.181102362204726,NA,NA
03063,Hillsborough County,NH,74.48818897637796,NA,NA
03110,Hillsborough County,NH,NA,38.46153846153847,NA
03234,Merrimack County,NH,98.4251968503937,NA,NA
03446,Cheshire County,NH,NA,NA,86.47686832740213
03801,Rockingham County,NH,NA,NA,51.60142348754449
03878,Strafford County,NH,NA,NA,68.68327402135232
07003,Essex County,NJ,10.078740157480315,NA,NA
07024,Bergen County,NJ,66.2992125984252,NA,NA
07045,Morris County,NJ,NA,88.3289124668435,NA
07050,Essex County,NJ,NA,67.90450928381962,NA
07052,Essex County,NJ,NA,NA,15.302491103202847
07063,Union County,NJ,84.40944881889763,NA,NA
07302,Hudson County,NJ,89.92125984251969,NA,NA
07458,Bergen County,NJ,NA,NA,87.54448398576513
07461,Sussex County,NJ,71.96850393700788,NA,NA
07470,Passaic County,NJ,47.55905511811024,78.51458885941645,NA
07481,Bergen County,NJ,NA,97.87798408488064,NA
07621,Bergen County,NJ,57.322834645669296,NA,NA
07628,Bergen County,NJ,72.91338582677164,66.84350132625994,NA
07643,Bergen County,NJ,80.47244094488188,NA,NA
07652,Bergen County,NJ,51.49606299212598,NA,NA
07675,Bergen County,NJ,NA,48.80636604774536,NA
07716,Monmouth County,NJ,88.50393700787401,NA,NA
07733,Monmouth County,NJ,84.56692913385827,NA,NA
07740,Monmouth County,NJ,49.76377952755905,NA,NA
07747,Monmouth County,NJ,65.51181102362204,NA,NA
07834,Morris County,NJ,95.2755905511811,NA,NA
07921,Somerset County,NJ,NA,NA,99.644128113879
07932,Morris County,NJ,NA,NA,73.66548042704626
08005,Ocean County,NJ,NA,NA,14.590747330960854
08012,Camden County,NJ,6.456692913385827,NA,NA
08021,Camden County,NJ,86.2992125984252,NA,NA
08051,Gloucester County,NJ,NA,94.42970822281167,NA
08053,Burlington County,NJ,NA,28.381962864721483,NA
08057,Burlington County,NJ,62.047244094488185,NA,NA
08071,Gloucester County,NJ,86.61417322834646,NA,NA
08094,Gloucester County,NJ,7.559055118110236,NA,42.704626334519574
08104,Camden County,NJ,1.2598425196850394,NA,NA
08110,Camden County,NJ,14.645669291338583,NA,NA
08232,Atlantic County,NJ,NA,29.44297082228117,NA
08527,Ocean County,NJ,NA,9.549071618037134,NA
08540,Mercer County,NJ,NA,38.9920424403183,NA
08560,Mercer County,NJ,98.8976377952756,NA,NA
08618,Mercer County,NJ,57.00787401574803,NA,NA
08690,Mercer County,NJ,NA,NA,48.04270462633452
08701,Ocean County,NJ,3.4645669291338583,NA,1.0676156583629894
08742,Ocean County,NJ,29.606299212598426,NA,NA
08817,Middlesex County,NJ,21.88976377952756,NA,NA
08857,Middlesex County,NJ,NA,18.56763925729443,NA
87020,Cibola County,NM,NA,76.92307692307693,NA
87107,Bernalillo County,NM,33.07086614173229,NA,NA
87122,Bernalillo County,NM,NA,NA,62.27758007117438
87501,Santa Fe County,NM,NA,NA,28.11387900355872
88220,Eddy County,NM,21.5748031496063,NA,NA
10001,New York County,NY,NA,55.437665782493376,NA
10011,New York County,NY,NA,NA,78.64768683274022
10013,New York County,NY,82.67716535433071,NA,NA
10021,New York County,NY,NA,NA,15.658362989323843
10023,New York County,NY,49.4488188976378,NA,NA
10029,New York County,NY,0.7874015748031495,0.2652519893899204,NA
10030,New York County,NY,NA,31.03448275862069,NA
10040,New York County,NY,NA,22.015915119363395,NA
10301,Richmond County,NY,16.37795275590551,NA,NA
10304,Richmond County,NY,93.38582677165354,NA,NA
10314,Richmond County,NY,NA,62.3342175066313,NA
10453,Bronx County,NY,27.401574803149607,NA,NA
10455,Bronx County,NY,NA,87.79840848806366,NA
10457,Bronx County,NY,35.74803149606299,NA,NA
10458,Bronx County,NY,13.070866141732285,NA,NA
10459,Bronx County,NY,5.669291338582677,NA,NA
10461,Bronx County,NY,NA,20.424403183023873,NA
10462,Bronx County,NY,46.77165354330708,NA,NA
10467,Bronx County,NY,NA,68.70026525198939,NA
10468,Bronx County,NY,NA,NA,32.74021352313167
10473,Bronx County,NY,NA,NA,7.11743772241993
10538,Westchester County,NY,NA,96.81697612732096,NA
10552,Westchester County,NY,NA,NA,69.03914590747331
10553,Westchester County,NY,96.06299212598425,NA,NA
10583,Westchester County,NY,85.03937007874016,NA,NA
10701,Westchester County,NY,NA,4.244031830238726,NA
10954,Rockland County,NY,NA,81.43236074270557,NA
10994,Rockland County,NY,NA,NA,95.37366548042705
11003,Nassau County,NY,NA,58.88594164456234,NA
11206,Kings County,NY,NA,NA,3.202846975088968
11207,Kings County,NY,14.173228346456693,1.3262599469496021,NA
11214,Kings County,NY,46.2992125984252,13.262599469496022,NA
11216,Kings County,NY,11.338582677165354,NA,NA
11218,Kings County,NY,48.818897637795274,NA,NA
11220,Kings County,NY,19.212598425196852,NA,NA
11224,Kings County,NY,19.84251968503937,NA,NA
11226,Kings County,NY,21.25984251968504,NA,NA
11228,Kings County,NY,84.25196850393701,NA,45.195729537366546
11229,Kings County,NY,NA,23.076923076923077,NA
11230,Kings County,NY,47.24409448818898,NA,NA
11354,Queens County,NY,47.71653543307087,NA,NA
11373,Queens County,NY,14.960629921259844,NA,NA
11375,Queens County,NY,77.63779527559055,NA,NA
11377,Queens County,NY,49.4488188976378,NA,NA
11378,Queens County,NY,NA,59.41644562334217,NA
11385,Queens County,NY,10.236220472440944,NA,NA
11417,Queens County,NY,78.26771653543307,NA,NA
11420,Queens County,NY,47.874015748031496,NA,NA
11421,Queens County,NY,33.70078740157481,NA,NA
11422,Queens County,NY,NA,NA,64.76868327402136
11434,Queens County,NY,15.118110236220472,NA,NA
11435,Queens County,NY,11.968503937007874,NA,NA
11436,Queens County,NY,NA,NA,83.62989323843416
11510,Nassau County,NY,63.93700787401575,NA,NA
11518,Nassau County,NY,NA,89.65517241379311,NA
11552,Nassau County,NY,92.5984251968504,NA,NA
11557,Nassau County,NY,NA,NA,91.45907473309609
11563,Nassau County,NY,NA,NA,53.736654804270465
11590,Nassau County,NY,85.66929133858268,NA,NA
11729,Suffolk County,NY,NA,62.864721485411145,43.77224199288256
11733,Suffolk County,NY,NA,NA,59.430604982206404
11746,Suffolk County,NY,NA,NA,7.473309608540925
11776,Suffolk County,NY,NA,57.824933687002655,NA
11780,Suffolk County,NY,NA,86.47214854111405,NA
11782,Suffolk County,NY,NA,NA,67.61565836298932
11797,Nassau County,NY,NA,NA,88.96797153024912
11949,Suffolk County,NY,NA,85.6763925729443,NA
12020,Saratoga County,NY,20.47244094488189,NA,NA
12065,Saratoga County,NY,NA,19.628647214854112,NA
12078,Fulton County,NY,NA,NA,8.185053380782918
12202,Albany County,NY,26.614173228346456,NA,NA
12203,Albany County,NY,70.70866141732284,NA,NA
12306,Schenectady County,NY,NA,NA,41.637010676156585
12414,Greene County,NY,NA,97.34748010610079,NA
12428,Ulster County,NY,83.14960629921259,NA,NA
12572,Dutchess County,NY,NA,NA,73.30960854092527
13032,Madison County,NY,NA,46.15384615384615,NA
13088,Onondaga County,NY,NA,48.01061007957559,59.07473309608541
13090,Onondaga County,NY,NA,31.29973474801061,NA
13206,Onondaga County,NY,24.566929133858267,NA,NA
13208,Onondaga County,NY,NA,NA,97.50889679715303
13340,Herkimer County,NY,NA,NA,97.15302491103202
13403,Oneida County,NY,NA,NA,98.93238434163702
13413,Oneida County,NY,77.79527559055119,NA,NA
13440,Oneida County,NY,NA,6.10079575596817,NA
13617,St. Lawrence County,NY,34.17322834645669,NA,NA
13820,Otsego County,NY,10.551181102362204,NA,NA
13833,Broome County,NY,NA,99.73474801061008,NA
13849,Otsego County,NY,91.02362204724409,NA,NA
14006,Erie County,NY,67.08661417322834,NA,NA
14020,Genesee County,NY,12.913385826771654,NA,NA
14031,Erie County,NY,NA,NA,93.23843416370107
14075,Erie County,NY,9.291338582677165,NA,NA
14094,Niagara County,NY,87.71653543307086,3.183023872679045,NA
14108,Niagara County,NY,NA,NA,86.83274021352312
14120,Niagara County,NY,NA,10.079575596816976,NA
14127,Erie County,NY,15.748031496062993,NA,NA
14150,Erie County,NY,6.771653543307086,NA,NA
14207,Erie County,NY,8.976377952755906,NA,NA
14215,Erie County,NY,13.385826771653544,NA,NA
14225,Erie County,NY,33.38582677165354,NA,NA
14226,Erie County,NY,30.078740157480315,NA,NA
14227,Erie County,NY,NA,NA,61.92170818505338
14228,Erie County,NY,46.14173228346456,NA,NA
14424,Ontario County,NY,2.9921259842519685,28.647214854111407,NA
14432,Ontario County,NY,36.22047244094488,NA,NA
14435,Livingston County,NY,NA,96.28647214854111,NA
14450,Monroe County,NY,3.149606299212598,NA,NA
14456,Ontario County,NY,NA,32.09549071618037,NA
14471,Ontario County,NY,NA,89.12466843501326,NA
14510,Livingston County,NY,61.417322834645674,NA,79.35943060498221
14534,Monroe County,NY,48.346456692913385,18.83289124668435,NA
14559,Monroe County,NY,11.811023622047244,NA,NA
14564,Ontario County,NY,52.44094488188976,NA,NA
14580,Monroe County,NY,1.1023622047244095,5.835543766578249,NA
14606,Monroe County,NY,NA,NA,31.316725978647685
14607,Monroe County,NY,19.37007874015748,NA,NA
14609,Monroe County,NY,NA,NA,16.72597864768683
14612,Monroe County,NY,NA,17.771883289124666,NA
14615,Monroe County,NY,12.440944881889763,NA,NA
14621,Monroe County,NY,6.141732283464567,NA,13.167259786476867
14622,Monroe County,NY,23.77952755905512,NA,NA
14626,Monroe County,NY,3.779527559055118,NA,NA
14830,Steuben County,NY,NA,NA,75.80071174377224
14867,Tompkins County,NY,98.26771653543307,NA,NA
14891,Schuyler County,NY,88.34645669291339,NA,NA
14901,Chemung County,NY,NA,58.09018567639257,NA
14905,Chemung County,NY,80.62992125984252,NA,NA
27012,Forsyth County,NC,NA,27.586206896551722,NA
27045,Forsyth County,NC,NA,57.294429708222815,NA
27104,Forsyth County,NC,29.133858267716533,NA,NA
27107,Forsyth County,NC,NA,NA,51.245551601423486
27203,Randolph County,NC,26.456692913385826,NA,NA
27253,Alamance County,NC,65.19685039370079,NA,NA
27278,Orange County,NC,NA,67.63925729442971,NA
27292,Davidson County,NC,82.99212598425197,NA,NA
27360,Davidson County,NC,NA,49.86737400530504,NA
27455,Guilford County,NC,NA,NA,44.83985765124555
27509,Granville County,NC,NA,NA,83.98576512455516
27514,Orange County,NC,93.22834645669292,NA,NA
27516,Orange County,NC,78.89763779527559,NA,NA
27540,Wake County,NC,NA,50.132625994694955,NA
27545,Wake County,NC,NA,NA,87.18861209964413
27596,Franklin County,NC,NA,63.92572944297083,NA
27610,Wake County,NC,8.503937007874015,NA,NA
27712,Durham County,NC,NA,NA,34.519572953736656
28079,Union County,NC,NA,49.07161803713528,NA
28144,Rowan County,NC,NA,35.80901856763926,NA
28146,Rowan County,NC,NA,46.41909814323608,NA
28205,Mecklenburg County,NC,20.787401574803148,64.45623342175067,NA
28208,Mecklenburg County,NC,9.606299212598426,NA,40.569395017793596
28217,Mecklenburg County,NC,52.28346456692914,NA,NA
28269,Mecklenburg County,NC,NA,65.51724137931035,NA
28270,Mecklenburg County,NC,NA,77.71883289124668,NA
28277,Mecklenburg County,NC,73.22834645669292,NA,NA
28405,New Hanover County,NC,34.80314960629921,NA,NA
28409,New Hanover County,NC,40.15748031496063,NA,NA
28532,Craven County,NC,NA,NA,80.0711743772242
28609,Catawba County,NC,99.21259842519686,NA,NA
28734,Macon County,NC,NA,10.875331564986737,NA
58801,Williams County,ND,NA,50.663129973474796,NA
43016,Franklin County,OH,62.519685039370074,NA,NA
43081,Franklin County,OH,72.59842519685039,NA,NA
43082,Delaware County,OH,62.047244094488185,NA,NA
43213,Franklin County,OH,10.393700787401574,NA,NA
43220,Franklin County,OH,NA,NA,39.14590747330961
43227,Franklin County,OH,22.677165354330707,NA,NA
43229,Franklin County,OH,7.4015748031496065,NA,NA
43230,Franklin County,OH,16.535433070866144,NA,19.9288256227758
43452,Ottawa County,OH,NA,NA,77.58007117437722
43606,Lucas County,OH,17.79527559055118,35.278514588859416,NA
44004,Ashtabula County,OH,NA,NA,0.7117437722419928
44021,Geauga County,OH,NA,NA,77.22419928825623
44023,Geauga County,OH,69.29133858267717,NA,NA
44067,Summit County,OH,NA,20.954907161803714,NA
44089,Erie County,OH,36.69291338582677,NA,NA
44092,Lake County,OH,NA,68.43501326259947,NA
44094,Lake County,OH,18.740157480314963,NA,NA
44102,Cuyahoga County,OH,4.251968503937007,NA,NA
44103,Cuyahoga County,OH,NA,15.384615384615385,NA
44106,Cuyahoga County,OH,10.866141732283465,NA,NA
44108,Cuyahoga County,OH,3.3070866141732282,35.0132625994695,NA
44121,Cuyahoga County,OH,9.763779527559056,14.323607427055704,NA
44122,Cuyahoga County,OH,NA,NA,0
44130,Cuyahoga County,OH,NA,1.0610079575596816,NA
44131,Cuyahoga County,OH,42.204724409448815,NA,NA
44137,Cuyahoga County,OH,NA,NA,22.77580071174377
44144,Cuyahoga County,OH,12.598425196850393,NA,NA
44149,Cuyahoga County,OH,NA,19.098143236074268,NA
44202,Portage County,OH,NA,73.47480106100795,NA
44241,Portage County,OH,NA,58.355437665782496,NA
44301,Summit County,OH,30.708661417322837,NA,NA
44310,Summit County,OH,70.39370078740157,NA,NA
44420,Trumbull County,OH,36.85039370078741,NA,NA
44445,Columbiana County,OH,96.8503937007874,NA,NA
44484,Trumbull County,OH,NA,14.588859416445624,NA
44485,Trumbull County,OH,18.26771653543307,NA,NA
44805,Ashland County,OH,14.015748031496065,NA,NA
45215,Hamilton County,OH,24.881889763779526,NA,NA
45240,Hamilton County,OH,25.669291338582678,NA,NA
45342,Montgomery County,OH,NA,NA,58.718861209964416
45439,Montgomery County,OH,NA,75.59681697612733,NA
45440,Montgomery County,OH,83.77952755905513,NA,NA
45640,Jackson County,OH,NA,NA,10.320284697508896
45680,Lawrence County,OH,41.88976377952756,NA,NA
45885,Auglaize County,OH,41.41732283464567,NA,NA
73030,Murray County,OK,NA,87.26790450928382,NA
73071,Cleveland County,OK,23.46456692913386,NA,NA
74129,Tulsa County,OK,56.06299212598426,NA,NA
74604,Kay County,OK,81.5748031496063,NA,NA
74801,Pottawatomie County,OK,37.16535433070866,NA,NA
97006,Washington County,OR,63.622047244094496,NA,NA
97027,Clackamas County,OR,78.58267716535433,NA,NA
97031,Hood River County,OR,NA,72.41379310344827,NA
97124,Washington County,OR,NA,60.47745358090185,NA
97206,Multnomah County,OR,NA,NA,33.096085409252666
97215,Multnomah County,OR,88.9763779527559,NA,NA
97233,Multnomah County,OR,17.165354330708663,NA,NA
97239,Multnomah County,OR,85.35433070866142,NA,NA
97266,Multnomah County,OR,64.40944881889764,NA,NA
97402,Lane County,OR,NA,33.95225464190981,NA
97405,Lane County,OR,NA,NA,47.330960854092524
97471,Douglas County,OR,NA,8.753315649867375,NA
97504,Jackson County,OR,NA,15.649867374005305,NA
97530,Jackson County,OR,NA,83.0238726790451,NA
97601,Klamath County,OR,50.23622047244094,NA,NA
15003,Beaver County,PA,NA,NA,67.25978647686833
15139,Allegheny County,PA,NA,97.08222811671088,NA
15219,Allegheny County,PA,32.28346456692913,NA,NA
15220,Allegheny County,PA,92.91338582677166,NA,NA
15227,Allegheny County,PA,37.79527559055118,NA,24.199288256227756
15234,Allegheny County,PA,NA,NA,79.7153024911032
15235,Allegheny County,PA,NA,NA,6.049822064056939
15650,Westmoreland County,PA,15.590551181102363,NA,NA
15834,Cameron County,PA,NA,69.76127320954907,NA
16001,Butler County,PA,4.094488188976378,2.9177718832891246,NA
16117,Lawrence County,PA,NA,NA,78.29181494661923
16159,Mercer County,PA,NA,97.61273209549071,NA
16201,Armstrong County,PA,31.811023622047248,NA,NA
16335,Crawford County,PA,NA,12.20159151193634,NA
16345,Warren County,PA,99.37007874015748,NA,NA
16365,Warren County,PA,35.118110236220474,NA,26.690391459074732
16504,Erie County,PA,NA,73.20954907161804,NA
16505,Erie County,PA,NA,85.41114058355438,NA
16652,Huntingdon County,PA,71.49606299212599,NA,NA
16830,Clearfield County,PA,28.503937007874015,NA,NA
17032,Dauphin County,PA,97.48031496062993,NA,NA
17055,Cumberland County,PA,NA,52.51989389920424,NA
17066,Huntingdon County,PA,NA,86.73740053050398,NA
17109,Dauphin County,PA,59.37007874015748,NA,NA
17325,Adams County,PA,NA,6.631299734748011,NA
17331,York County,PA,NA,NA,0.3558718861209964
17603,Lancaster County,PA,9.921259842519685,NA,NA
17701,Lycoming County,PA,NA,8.488063660477453,NA
17815,Columbia County,PA,17.637795275590552,NA,NA
17821,Montour County,PA,25.03937007874016,17.50663129973475,NA
17870,Snyder County,PA,NA,67.10875331564988,NA
17901,Schuylkill County,PA,25.354330708661415,NA,NA
18037,Lehigh County,PA,75.90551181102362,NA,NA
18045,Northampton County,PA,37.637795275590555,NA,NA
18080,Lehigh County,PA,NA,NA,81.49466192170819
18104,Lehigh County,PA,43.93700787401575,NA,NA
18222,Luzerne County,PA,99.05511811023622,NA,NA
18229,Carbon County,PA,72.28346456692914,NA,NA
18301,Monroe County,PA,34.960629921259844,NA,NA
18360,Monroe County,PA,NA,NA,80.42704626334519
18431,Wayne County,PA,NA,57.02917771883289,NA
18508,Lackawanna County,PA,60.15748031496063,NA,NA
18512,Lackawanna County,PA,NA,76.39257294429707,NA
18643,Luzerne County,PA,54.803149606299215,NA,80.78291814946618
18702,Luzerne County,PA,8.661417322834646,NA,NA
18704,Luzerne County,PA,17.480314960629922,NA,NA
18901,Bucks County,PA,NA,61.53846153846154,NA
18966,Bucks County,PA,17.95275590551181,44.297082228116714,NA
19002,Montgomery County,PA,37.32283464566929,NA,18.505338078291814
19003,Montgomery County,PA,NA,71.3527851458886,NA
19007,Bucks County,PA,NA,NA,92.52669039145907
19012,Montgomery County,PA,86.77165354330708,NA,NA
19013,Delaware County,PA,19.68503937007874,NA,NA
19014,Delaware County,PA,NA,74.53580901856765,NA
19026,Delaware County,PA,67.55905511811024,NA,NA
19040,Montgomery County,PA,NA,NA,27.402135231316727
19046,Montgomery County,PA,NA,NA,33.45195729537366
19050,Delaware County,PA,NA,NA,72.59786476868328
19053,Bucks County,PA,64.25196850393701,NA,NA
19064,Delaware County,PA,NA,NA,39.50177935943061
19072,Montgomery County,PA,NA,65.25198938992042,NA
19079,Delaware County,PA,98.58267716535433,NA,NA
19090,Montgomery County,PA,47.874015748031496,NA,NA
19107,Philadelphia County,PA,NA,48.54111405835544,NA
19111,Philadelphia County,PA,91.65354330708662,NA,NA
19115,Philadelphia County,PA,51.96850393700787,NA,NA
19120,Philadelphia County,PA,NA,9.283819628647215,NA
19124,Philadelphia County,PA,44.09448818897638,12.46684350132626,NA
19126,Philadelphia County,PA,NA,NA,57.65124555160143
19130,Philadelphia County,PA,82.04724409448819,NA,NA
19131,Philadelphia County,PA,26.299212598425196,NA,NA
19139,Philadelphia County,PA,NA,NA,16.370106761565836
19140,Philadelphia County,PA,2.677165354330709,NA,34.16370106761566
19143,Philadelphia County,PA,NA,2.122015915119363,NA
19144,Philadelphia County,PA,5.196850393700787,NA,NA
19146,Philadelphia County,PA,NA,NA,47.686832740213525
19148,Philadelphia County,PA,NA,NA,12.099644128113878
19152,Philadelphia County,PA,NA,23.342175066312997,NA
19320,Chester County,PA,NA,14.854111405835543,NA
19348,Chester County,PA,57.16535433070866,NA,NA
19350,Chester County,PA,NA,NA,92.17081850533808
19355,Chester County,PA,41.259842519685044,NA,NA
19380,Chester County,PA,40.94488188976378,NA,NA
19403,Montgomery County,PA,NA,77.18832891246684,NA
19422,Montgomery County,PA,NA,39.52254641909814,NA
19425,Chester County,PA,NA,90.98143236074272,NA
19518,Berks County,PA,NA,NA,91.81494661921708
02816,Kent County,RI,NA,69.23076923076923,NA
02861,Providence County,RI,NA,33.42175066312997,NA
02886,Kent County,RI,64.7244094488189,NA,NA
02891,Washington County,RI,NA,28.912466843501328,NA
02892,Washington County,RI,96.22047244094489,NA,NA
02895,Providence County,RI,12.755905511811024,NA,NA
02904,Providence County,RI,NA,22.546419098143236,NA
02911,Providence County,RI,NA,NA,64.41281138790036
02920,Providence County,RI,NA,NA,62.63345195729537
29042,Bamberg County,SC,97.16535433070867,NA,NA
29053,Lexington County,SC,56.37795275590551,NA,NA
29072,Lexington County,SC,26.77165354330709,NA,NA
29135,Calhoun County,SC,NA,90.18567639257294,NA
29223,Richland County,SC,23.62204724409449,NA,NA
29302,Spartanburg County,SC,77.00787401574803,NA,NA
29334,Spartanburg County,SC,91.33858267716536,NA,NA
29341,Cherokee County,SC,46.61417322834646,NA,NA
29369,Spartanburg County,SC,70.86614173228347,NA,NA
29376,Spartanburg County,SC,92.44094488188976,NA,NA
29405,Charleston County,SC,27.086614173228345,NA,NA
29412,Charleston County,SC,66.14173228346458,NA,NA
29466,Charleston County,SC,NA,98.40848806366049,NA
29483,Dorchester County,SC,77.48031496062993,NA,NA
29501,Florence County,SC,31.65354330708661,NA,NA
29576,Horry County,SC,43.1496062992126,NA,NA
29607,Greenville County,SC,NA,29.708222811671085,NA
29654,Anderson County,SC,71.33858267716535,NA,NA
29657,Pickens County,SC,49.13385826771653,NA,NA
29732,York County,SC,NA,61.0079575596817,NA
37075,Sumner County,TN,17.322834645669293,NA,NA
37076,Davidson County,TN,35.59055118110236,NA,NA
37128,Rutherford County,TN,27.559055118110237,NA,NA
37148,Sumner County,TN,40,NA,NA
37207,Davidson County,TN,61.574803149606296,NA,NA
37211,Davidson County,TN,20.31496062992126,NA,NA
37214,Davidson County,TN,NA,NA,61.20996441281139
37355,Coffee County,TN,NA,51.45888594164456,NA
38109,Shelby County,TN,NA,51.19363395225464,NA
75023,Collin County,TX,53.54330708661418,NA,NA
75044,Dallas County,TX,55.2755905511811,NA,NA
75068,Denton County,TX,31.496062992125985,NA,NA
75081,Dallas County,TX,97.32283464566929,NA,NA
75098,Collin County,TX,55.90551181102362,NA,NA
75110,Navarro County,TX,NA,47.745358090185675,NA
75115,Dallas County,TX,22.51968503937008,NA,NA
75209,Dallas County,TX,68.18897637795276,NA,NA
75229,Dallas County,TX,NA,NA,96.44128113879003
75236,Dallas County,TX,63.30708661417322,NA,NA
75253,Dallas County,TX,NA,83.81962864721486,NA
75407,Collin County,TX,NA,91.77718832891246,NA
75551,Cass County,TX,NA,80.10610079575596,NA
75602,Gregg County,TX,NA,NA,76.15658362989323
75702,Smith County,TX,NA,42.97082228116711,NA
75901,Angelina County,TX,36.37795275590551,NA,NA
76012,Tarrant County,TX,48.188976377952756,NA,NA
76018,Tarrant County,TX,58.26771653543307,NA,NA
76028,Johnson County,TX,39.37007874015748,NA,NA
76063,Tarrant County,TX,15.275590551181104,NA,NA
76110,Tarrant County,TX,42.67716535433071,NA,NA
76117,Tarrant County,TX,34.330708661417326,NA,NA
76120,Tarrant County,TX,NA,84.3501326259947,NA
76135,Tarrant County,TX,57.79527559055118,NA,NA
76543,Bell County,TX,76.85039370078741,NA,NA
76549,Bell County,TX,56.69291338582677,NA,NA
77025,Harris County,TX,68.50393700787401,NA,NA
77042,Harris County,TX,93.54330708661416,NA,NA
77084,Harris County,TX,95.11811023622047,NA,NA
77094,Harris County,TX,94.64566929133859,NA,NA
77336,Harris County,TX,NA,NA,94.30604982206405
77354,Montgomery County,TX,50.55118110236221,NA,NA
77389,Harris County,TX,55.748031496062985,NA,NA
77407,Fort Bend County,TX,79.37007874015748,NA,NA
77429,Harris County,TX,NA,5.039787798408488,NA
77433,Harris County,TX,NA,22.281167108753316,NA
77449,Harris County,TX,11.653543307086615,NA,NA
77450,Harris County,TX,38.110236220472444,NA,NA
77459,Fort Bend County,TX,23.1496062992126,NA,NA
77498,Fort Bend County,TX,NA,53.58090185676393,NA
77515,Brazoria County,TX,50.07874015748032,NA,NA
77578,Brazoria County,TX,66.45669291338582,NA,NA
77619,Jefferson County,TX,NA,NA,49.46619217081851
77833,Washington County,TX,75.59055118110236,NA,NA
77845,Brazos County,TX,NA,4.774535809018567,NA
78028,Kerr County,TX,NA,50.92838196286472,NA
78148,Bexar County,TX,NA,94.6949602122016,NA
78218,Bexar County,TX,NA,54.907161803713535,NA
78223,Bexar County,TX,20.15748031496063,NA,NA
78237,Bexar County,TX,NA,NA,82.56227758007117
78727,Travis County,TX,NA,90.45092838196287,NA
78730,Travis County,TX,90.86614173228347,NA,NA
78741,Travis County,TX,NA,76.12732095490716,NA
78758,Travis County,TX,53.85826771653544,NA,NA
79423,Lubbock County,TX,62.99212598425197,NA,NA
79605,Taylor County,TX,38.582677165354326,NA,NA
79707,Midland County,TX,33.85826771653544,NA,NA
79763,Ector County,TX,34.645669291338585,NA,NA
79924,El Paso County,TX,42.83464566929134,NA,NA
79932,El Paso County,TX,NA,98.6737400530504,NA
84088,Salt Lake County,UT,NA,53.84615384615385,NA
84094,Salt Lake County,UT,64.88188976377953,NA,NA
84601,Utah County,UT,NA,NA,90.74733096085409
05403,Chittenden County,VT,NA,NA,24.91103202846975
05452,Chittenden County,VT,59.21259842519685,NA,NA
05468,Chittenden County,VT,NA,98.93899204244032,NA
20112,Prince William County,VA,74.33070866141732,NA,NA
20120,Fairfax County,VA,53.54330708661418,NA,NA
20152,Loudoun County,VA,77.95275590551181,NA,NA
20187,Fauquier County,VA,NA,74.27055702917772,NA
22015,Fairfax County,VA,53.07086614173229,NA,NA
22025,Prince William County,VA,85.98425196850393,NA,NA
22030,Fairfax County,VA,30.551181102362207,NA,NA
22180,Fairfax County,VA,NA,80.90185676392572,NA
22306,Fairfax County,VA,29.291338582677167,NA,NA
22406,Stafford County,VA,NA,NA,46.619217081850536
22407,Spotsylvania County,VA,NA,21.485411140583555,23.131672597864767
22554,Stafford County,VA,NA,45.88859416445623,NA
22601,Winchester city,VA,NA,37.6657824933687,NA
22901,Albemarle County,VA,65.35433070866141,NA,NA
22902,Charlottesville city,VA,73.85826771653544,NA,NA
23192,Hanover County,VA,NA,96.28647214854111,NA
23513,Norfolk city,VA,18.58267716535433,NA,NA
23701,Portsmouth city,VA,NA,NA,18.14946619217082
24054,Henry County,VA,NA,92.57294429708223,NA
24523,Bedford County,VA,31.968503937007874,NA,NA
98004,King County,WA,73.70078740157481,NA,NA
98006,King County,WA,57.79527559055118,33.687002652519894,NA
98011,King County,WA,60.629921259842526,NA,NA
98012,Snohomish County,WA,30.393700787401574,NA,NA
98031,King County,WA,41.574803149606296,NA,74.02135231316726
98059,King County,WA,44.881889763779526,NA,NA
98119,King County,WA,NA,78.77984084880637,NA
98144,King County,WA,NA,92.04244031830238,NA
98198,King County,WA,94.01574803149606,NA,20.99644128113879
98252,Snohomish County,WA,NA,99.20424403183023,NA
98258,Snohomish County,WA,NA,48.275862068965516,NA
98275,Snohomish County,WA,87.8740157480315,NA,NA
98284,Skagit County,WA,NA,27.320954907161806,NA
98311,Kitsap County,WA,NA,NA,58.00711743772242
98328,Pierce County,WA,83.62204724409449,NA,NA
98349,Pierce County,WA,NA,NA,98.22064056939502
98365,Jefferson County,WA,NA,87.53315649867373,NA
98406,Pierce County,WA,91.18110236220473,NA,NA
98407,Pierce County,WA,69.44881889763779,NA,NA
98524,Mason County,WA,NA,86.20689655172413,NA
98626,Cowlitz County,WA,43.46456692913386,NA,NA
98664,Clark County,WA,NA,NA,45.55160142348754
98682,Clark County,WA,NA,77.45358090185677,NA
99019,Spokane County,WA,NA,NA,85.76512455516014
99156,Pend Oreille County,WA,86.14173228346456,NA,NA
99205,Spokane County,WA,NA,49.602122015915114,NA
20019,District of Columbia,DC,NA,5.570291777188329,NA
20024,District of Columbia,DC,58.740157480314956,NA,NA
26062,Hancock County,WV,12.283464566929133,NA,NA
26105,Wood County,WV,49.92125984251968,NA,NA
26301,Harrison County,WV,NA,12.73209549071618,NA
26330,Harrison County,WV,NA,32.360742705570296,NA
26508,Monongalia County,WV,NA,6.896551724137931,NA
53037,Washington County,WI,NA,NA,100
53154,Milwaukee County,WI,22.362204724409448,NA,NA
53211,Milwaukee County,WI,NA,25.198938992042443,NA
53218,Milwaukee County,WI,7.874015748031496,NA,NA
53219,Milwaukee County,WI,50.39370078740157,NA,NA
53220,Milwaukee County,WI,NA,26.25994694960212,NA
53402,Racine County,WI,6.929133858267717,NA,NA
53406,Racine County,WI,NA,53.84615384615385,NA
53563,Rock County,WI,NA,44.56233421750663,NA
53590,Dane County,WI,NA,43.236074270557026,NA
53711,Dane County,WI,NA,NA,11.743772241992882
53717,Dane County,WI,NA,NA,90.39145907473309
54155,Brown County,WI,90.70866141732283,NA,NA
82443,Hot Springs County,WY,NA,NA,93.59430604982207
82637,Converse County,WY,NA,100,NA
