ZipCode,county,state,Adult,Retirement,Geriatric
35004,St. Clair County,AL,NA,78.03365810451727,NA
35007,Shelby County,AL,81.437125748502993,NA,NA
35040,Shelby County,AL,NA,75.28786536758193,NA
35062,Jefferson County,AL,NA,86.27103631532329,NA
35096,Talladega County,AL,NA,79.98228520814881,NA
35115,Shelby County,AL,89.32135728542914,NA,NA
35121,Blount County,AL,65.5688622754491,NA,NA
35124,Shelby County,AL,66.76646706586826,NA,NA
35126,Jefferson County,AL,NA,52.17006200177148,NA
35173,Jefferson County,AL,52.39520958083832,NA,NA
35175,Marshall County,AL,89.62075848303394,NA,NA
35226,Jefferson County,AL,NA,22.4977856510186,NA
35242,Shelby County,AL,NA,NA,11.444141689373296
35405,Tuscaloosa County,AL,NA,NA,48.228882833787466
35503,Walker County,AL,68.16367265469061,85.20814880425155,NA
35611,Limestone County,AL,27.045908183632733,NA,NA
35749,Madison County,AL,80.13972055888223,NA,NA
35756,Limestone County,AL,NA,82.01948627103631,NA
35758,Madison County,AL,40.31936127744511,NA,NA
35759,Madison County,AL,92.21556886227546,NA,NA
35763,Madison County,AL,NA,59.96457041629761,NA
35801,Madison County,AL,NA,34.9867139061116,NA
35811,Madison County,AL,42.41516966067864,NA,NA
35903,Etowah County,AL,NA,NA,98.09264305177112
35906,Etowah County,AL,NA,79.62798937112488,NA
35907,Etowah County,AL,85.62874251497006,NA,NA
35956,Etowah County,AL,92.81437125748504,NA,NA
36043,Montgomery County,AL,98.30339321357286,NA,NA
36049,Crenshaw County,AL,NA,95.12843224092117,NA
36067,Autauga County,AL,37.82435129740519,NA,NA
36105,Montgomery County,AL,67.76447105788424,NA,87.19346049046321
36109,Montgomery County,AL,50.79840319361277,NA,NA
36116,Montgomery County,AL,22.55489021956088,NA,NA
36266,Clay County,AL,NA,92.11691762621788,NA
36526,Baldwin County,AL,NA,42.33835252435784,NA
36535,Baldwin County,AL,NA,NA,40.32697547683924
36608,Mobile County,AL,NA,49.42426926483614,NA
36619,Mobile County,AL,NA,73.25066430469442,NA
36701,Dallas County,AL,29.34131736526946,NA,NA
99577,Anchorage Municipality,AK,NA,89.9911426040744,NA
99623,,AK,83.63273453093812,NA,NA
85003,Maricopa County,AZ,NA,93.79982285208148,NA
85009,Maricopa County,AZ,NA,28.60938883968113,NA
85013,Maricopa County,AZ,50.998003992015974,NA,NA
85018,Maricopa County,AZ,36.12774451097805,NA,NA
85022,Maricopa County,AZ,21.656686626746506,NA,NA
85024,Maricopa County,AZ,NA,NA,94.55040871934605
85027,Maricopa County,AZ,NA,58.015943312666074,NA
85029,Maricopa County,AZ,NA,44.81842338352524,NA
85048,Maricopa County,AZ,52.29540918163673,NA,NA
85050,Maricopa County,AZ,58.08383233532935,NA,NA
85086,Maricopa County,AZ,74.35129740518963,43.57838795394154,NA
85087,Maricopa County,AZ,90.21956087824351,NA,NA
85119,Pinal County,AZ,NA,NA,51.49863760217984
85122,Pinal County,AZ,7.584830339321358,NA,NA
85204,Maricopa County,AZ,NA,30.73516386182462,NA
85213,Maricopa County,AZ,NA,60.23029229406555,NA
85224,Maricopa County,AZ,NA,78.7422497785651,NA
85225,Maricopa County,AZ,12.17564870259481,NA,NA
85234,Maricopa County,AZ,NA,58.28166519043402,NA
85251,Maricopa County,AZ,41.51696606786427,NA,42.234332425068125
85255,Maricopa County,AZ,53.293413173652695,NA,NA
85258,Maricopa County,AZ,NA,57.57307351638619,NA
85260,Maricopa County,AZ,67.46506986027944,NA,26.430517711171664
85268,Maricopa County,AZ,NA,59.34455270150576,NA
85286,Maricopa County,AZ,36.82634730538922,NA,NA
85326,Maricopa County,AZ,NA,NA,69.48228882833789
85344,La Paz County,AZ,NA,72.98494242692648,NA
85351,Maricopa County,AZ,NA,10.186005314437557,NA
85356,Yuma County,AZ,NA,98.40566873339239,NA
85373,Maricopa County,AZ,NA,50.93002657218778,NA
85374,Maricopa County,AZ,NA,18.95482728077945,NA
85379,Maricopa County,AZ,NA,61.82462356067317,NA
85383,Maricopa County,AZ,29.141716566866265,38.79539415411869,NA
85390,Maricopa County,AZ,NA,NA,75.47683923705722
85395,Maricopa County,AZ,NA,79.89371124889283,NA
85541,Gila County,AZ,NA,43.7555358724535,NA
85614,Pima County,AZ,NA,NA,31.33514986376022
85635,Cochise County,AZ,NA,NA,40.05449591280654
85706,Pima County,AZ,60.079840319361274,9.300265721877768,NA
85710,Pima County,AZ,NA,16.82905225863596,NA
85713,Pima County,AZ,NA,62.79893711248893,NA
85718,Pima County,AZ,NA,NA,22.888283378746593
85735,Pima County,AZ,NA,72.54207263064659,NA
86305,Yavapai County,AZ,88.62275449101796,37.28963684676705,NA
86326,Yavapai County,AZ,NA,23.82639503985828,NA
86401,Mohave County,AZ,9.281437125748502,NA,NA
86406,Mohave County,AZ,NA,27.015057573073513,NA
86413,Mohave County,AZ,NA,65.36758193091231,NA
86429,Mohave County,AZ,NA,NA,74.65940054495913
86432,Mohave County,AZ,NA,99.73427812223207,NA
71602,Jefferson County,AR,NA,75.11071744906998,NA
71854,Miller County,AR,NA,28.875110717449072,NA
71909,Garland County,AR,NA,NA,17.166212534059948
72007,Lonoke County,AR,96.7065868263473,NA,NA
72205,Pulaski County,AR,NA,NA,21.798365122615802
72206,Pulaski County,AR,NA,31.709477413640393,NA
72223,Pulaski County,AR,84.73053892215569,NA,NA
72335,St. Francis County,AR,89.82035928143712,NA,NA
72712,Benton County,AR,49.700598802395206,NA,NA
72715,Benton County,AR,NA,89.28255093002657,NA
72802,Pope County,AR,NA,67.75907883082374,NA
72903,Sebastian County,AR,NA,65.81045172719222,NA
72904,Sebastian County,AR,NA,NA,66.7574931880109
72936,Sebastian County,AR,77.24550898203593,NA,NA
90003,Los Angeles County,CA,37.5249500998004,NA,NA
90006,Los Angeles County,CA,NA,94.5969884853853,NA
90012,Los Angeles County,CA,NA,54.82728077945084,38.69209809264305
90020,Los Angeles County,CA,NA,56.6873339238264,NA
90022,Los Angeles County,CA,NA,48.184233835252435,NA
90024,Los Angeles County,CA,NA,NA,8.174386920980927
90025,Los Angeles County,CA,NA,73.51638618246236,NA
90034,Los Angeles County,CA,46.007984031936125,NA,NA
90038,Los Angeles County,CA,79.54091816367266,NA,NA
90039,Los Angeles County,CA,85.32934131736528,NA,NA
90043,Los Angeles County,CA,NA,22.67493356953056,NA
90045,Los Angeles County,CA,66.1676646706587,NA,NA
90046,Los Angeles County,CA,53.99201596806387,NA,NA
90220,Los Angeles County,CA,NA,58.015943312666074,NA
90255,Los Angeles County,CA,NA,NA,79.01907356948229
90262,Los Angeles County,CA,NA,55.89016829052259,NA
90277,Los Angeles County,CA,56.187624750499,34.45527015057573,NA
90301,Los Angeles County,CA,36.92614770459082,NA,NA
90503,Los Angeles County,CA,51.896207584830336,NA,NA
90620,Orange County,CA,NA,39.06111603188663,NA
90650,Los Angeles County,CA,18.7624750499002,NA,NA
90706,Los Angeles County,CA,26.646706586826348,NA,NA
90712,Los Angeles County,CA,NA,NA,85.55858310626702
90720,Orange County,CA,NA,NA,73.84196185286103
90723,Los Angeles County,CA,55.18962075848304,NA,NA
90802,Los Angeles County,CA,90.41916167664671,NA,NA
90805,Los Angeles County,CA,18.6626746506986,NA,NA
90808,Los Angeles County,CA,59.78043912175649,NA,NA
91001,Los Angeles County,CA,NA,74.31355181576616,NA
91024,Los Angeles County,CA,NA,97.43135518157662,NA
91201,Los Angeles County,CA,87.42514970059881,NA,NA
91351,Los Angeles County,CA,NA,NA,87.73841961852861
91356,Los Angeles County,CA,NA,50.487156775907884,NA
91360,Ventura County,CA,65.76846307385229,82.63950398582817,NA
91362,Ventura County,CA,NA,44.37555358724535,NA
91381,Los Angeles County,CA,NA,NA,95.09536784741145
91402,Los Angeles County,CA,29.041916167664674,NA,35.694822888283376
91406,Los Angeles County,CA,NA,41.54118689105403,NA
91423,Los Angeles County,CA,NA,NA,58.855585831062676
91606,Los Angeles County,CA,NA,57.66164747564216,NA
91607,Los Angeles County,CA,83.43313373253493,NA,NA
91706,Los Angeles County,CA,NA,36.403897254207266,NA
91722,Los Angeles County,CA,NA,60.14171833480957,NA
91724,Los Angeles County,CA,NA,75.46501328609388,NA
91730,San Bernardino County,CA,NA,NA,41.41689373297003
91737,San Bernardino County,CA,NA,58.90168290522586,NA
91740,Los Angeles County,CA,NA,84.5881310894597,69.20980926430518
91741,Los Angeles County,CA,NA,NA,53.67847411444142
91744,Los Angeles County,CA,NA,27.723649247121347,23.43324250681199
91750,Los Angeles County,CA,67.06586826347305,NA,NA
91767,Los Angeles County,CA,42.01596806387226,53.23294951284322,NA
91773,Los Angeles County,CA,NA,31.44375553587245,NA
91792,Los Angeles County,CA,NA,85.47387068201948,NA
91911,San Diego County,CA,NA,18.511957484499558,NA
92021,San Diego County,CA,NA,14.70327723649247,NA
92024,San Diego County,CA,NA,46.855624446412754,NA
92026,San Diego County,CA,NA,49.95571302037201,NA
92116,San Diego County,CA,77.64471057884231,NA,NA
92117,San Diego County,CA,59.181636726546905,NA,NA
92131,San Diego County,CA,NA,77.5022143489814,NA
92154,San Diego County,CA,NA,59.52170062001771,NA
92201,Riverside County,CA,25.848303393213573,NA,NA
92234,Riverside County,CA,NA,1.9486271036315321,NA
92243,Imperial County,CA,26.84630738522954,NA,NA
92251,Imperial County,CA,74.25149700598801,NA,NA
92262,Riverside County,CA,NA,11.160318866253322,NA
92270,Riverside County,CA,NA,NA,2.452316076294278
92301,San Bernardino County,CA,NA,48.53852967227635,NA
92315,San Bernardino County,CA,94.311377245509,NA,NA
92335,San Bernardino County,CA,9.68063872255489,NA,NA
92336,San Bernardino County,CA,38.42315369261477,NA,NA
92345,San Bernardino County,CA,NA,15.411868910540303,NA
92352,San Bernardino County,CA,NA,99.5571302037201,NA
92373,San Bernardino County,CA,71.35728542914171,NA,NA
92392,San Bernardino County,CA,19.860279441117765,NA,NA
92399,San Bernardino County,CA,NA,NA,31.33514986376022
92501,Riverside County,CA,80.938123752495,NA,NA
92504,Riverside County,CA,NA,NA,42.77929155313351
92539,Riverside County,CA,98.60279441117764,NA,NA
92544,Riverside County,CA,79.74051896207584,NA,NA
92545,Riverside County,CA,NA,75.64216120460586,NA
92555,Riverside County,CA,61.477045908183634,NA,NA
92562,Riverside County,CA,27.54491017964072,NA,NA
92583,Riverside County,CA,65.06986027944112,NA,NA
92604,Orange County,CA,81.93612774451098,NA,NA
92627,Orange County,CA,NA,NA,20.435967302452315
92630,Orange County,CA,68.8622754491018,NA,NA
92646,Orange County,CA,27.345309381237527,NA,NA
92647,Orange County,CA,24.05189620758483,21.434898139946856,NA
92648,Orange County,CA,NA,24.446412754650133,NA
92651,Orange County,CA,NA,48.804251550044285,NA
92653,Orange County,CA,NA,54.29583702391497,NA
92663,Orange County,CA,NA,NA,65.12261580381471
92683,Orange County,CA,NA,19.929140832595216,NA
92688,Orange County,CA,NA,93.17980513728963,NA
92691,Orange County,CA,NA,22.40921169176262,NA
92692,Orange County,CA,41.417165668662676,NA,NA
92705,Orange County,CA,96.00798403193613,NA,NA
92801,Orange County,CA,35.62874251497006,NA,NA
92802,Orange County,CA,57.884231536926144,NA,NA
92804,Orange County,CA,14.97005988023952,NA,NA
92821,Orange County,CA,NA,50.752878653675815,NA
92833,Orange County,CA,52.99401197604791,33.03808680248007,NA
92835,Orange County,CA,81.83632734530939,NA,NA
92840,Orange County,CA,53.49301397205589,NA,NA
92843,Orange County,CA,71.7564870259481,NA,NA
92869,Orange County,CA,62.874251497005986,NA,54.223433242506815
92881,Riverside County,CA,NA,NA,85.83106267029973
92886,Orange County,CA,NA,17.71479185119575,NA
93001,Ventura County,CA,NA,68.20194862710363,NA
93003,Ventura County,CA,16.367265469061877,20.637732506643047,NA
93010,Ventura County,CA,NA,NA,14.713896457765669
93021,Ventura County,CA,61.77644710578842,NA,NA
93063,Ventura County,CA,NA,26.660761736049604,NA
93101,Santa Barbara County,CA,76.24750499001996,NA,NA
93277,Tulare County,CA,NA,NA,37.87465940054496
93436,Santa Barbara County,CA,67.56487025948104,52.25863596102746,NA
93455,Santa Barbara County,CA,NA,32.5066430469442,NA
93458,Santa Barbara County,CA,15.169660678642716,NA,NA
93534,Los Angeles County,CA,39.02195608782435,NA,NA
93536,Los Angeles County,CA,45.00998003992016,NA,NA
93543,Los Angeles County,CA,89.12175648702595,NA,NA
93550,Los Angeles County,CA,13.373253493013973,NA,NA
93612,Fresno County,CA,46.60678642714571,NA,NA
93614,Madera County,CA,NA,83.52524357838796,NA
93619,Fresno County,CA,44.11177644710579,44.19840566873339,NA
93631,Fresno County,CA,NA,91.93976970770593,NA
93662,Fresno County,CA,NA,73.07351638618246,NA
93702,Fresno County,CA,30.33932135728543,NA,NA
93705,Fresno County,CA,NA,45.79273693534101,NA
93710,Fresno County,CA,64.57085828343313,NA,NA
93720,Fresno County,CA,NA,27.457927369353406,NA
93725,Fresno County,CA,NA,94.06554472984942,NA
94010,San Mateo County,CA,NA,36.58104517271922,NA
94022,Santa Clara County,CA,92.71457085828342,NA,NA
94025,San Mateo County,CA,51.09780439121756,38.44109831709478,NA
94044,San Mateo County,CA,55.38922155688623,NA,NA
94070,San Mateo County,CA,NA,68.99911426040744,NA
94080,San Mateo County,CA,34.3313373253493,NA,NA
94103,San Francisco County,CA,NA,NA,17.43869209809264
94110,San Francisco County,CA,12.974051896207584,NA,NA
94116,San Francisco County,CA,58.982035928143716,38.79539415411869,NA
94122,San Francisco County,CA,NA,NA,7.3569482288828345
94132,San Francisco County,CA,NA,67.67050487156776,NA
94403,San Mateo County,CA,NA,18.42338352524358,NA
94404,San Mateo County,CA,74.6506986027944,NA,NA
94501,Alameda County,CA,NA,91.14260407440213,NA
94510,Solano County,CA,NA,65.54472984942427,NA
94533,Solano County,CA,24.850299401197603,NA,NA
94536,Alameda County,CA,NA,22.940655447298493,NA
94538,Alameda County,CA,NA,78.65367581930911,23.978201634877383
94547,Contra Costa County,CA,NA,77.14791851195749,NA
94550,Alameda County,CA,78.94211576846307,NA,NA
94555,Alameda County,CA,NA,NA,82.01634877384197
94558,Napa County,CA,NA,NA,3.5422343324250685
94566,Alameda County,CA,NA,NA,56.675749318801095
94574,Napa County,CA,NA,87.24534986713907,NA
94582,Contra Costa County,CA,70.55888223552894,NA,NA
94583,Contra Costa County,CA,54.59081836327345,NA,NA
94585,Solano County,CA,NA,76.88219663418955,NA
94587,Alameda County,CA,NA,23.02922940655447,NA
94601,Alameda County,CA,76.94610778443113,NA,NA
94610,Alameda County,CA,NA,71.83348095659876,NA
94706,Alameda County,CA,NA,87.42249778565102,NA
94707,Alameda County,CA,NA,NA,82.83378746594006
94952,Sonoma County,CA,NA,40.30115146147033,NA
95019,Santa Cruz County,CA,94.81037924151696,NA,NA
95020,Santa Clara County,CA,67.96407185628742,NA,NA
95070,Santa Clara County,CA,82.53493013972056,NA,NA
95076,Santa Cruz County,CA,53.89221556886228,NA,NA
95112,Santa Clara County,CA,72.0558882235529,NA,NA
95123,Santa Clara County,CA,NA,29.495128432240918,NA
95126,Santa Clara County,CA,NA,NA,97.82016348773843
95138,Santa Clara County,CA,91.11776447105788,NA,NA
95202,San Joaquin County,CA,31.137724550898206,NA,NA
95204,San Joaquin County,CA,NA,71.12488928255092,NA
95206,San Joaquin County,CA,NA,29.229406554472988,NA
95207,San Joaquin County,CA,23.55289421157685,31.798051372896367,NA
95209,San Joaquin County,CA,NA,59.61027457927369,NA
95228,Calaveras County,CA,NA,86.00531443755536,NA
95324,Merced County,CA,NA,NA,94.00544959128065
95326,Stanislaus County,CA,97.2055888223553,NA,NA
95341,Merced County,CA,NA,NA,85.01362397820164
95355,Stanislaus County,CA,8.283433133732535,NA,NA
95356,Stanislaus County,CA,42.81437125748503,NA,NA
95361,Stanislaus County,CA,87.02594810379242,32.86093888396812,NA
95380,Stanislaus County,CA,63.17365269461078,20.28343666961913,NA
95403,Sonoma County,CA,52.39520958083832,41.54118689105403,19.07356948228883
95453,Lake County,CA,NA,80.51372896368467,NA
95482,Mendocino County,CA,71.45708582834331,NA,NA
95602,Placer County,CA,91.41716566866268,NA,NA
95605,Yolo County,CA,92.01596806387225,NA,NA
95621,Sacramento County,CA,44.61077844311377,NA,NA
95624,Sacramento County,CA,NA,26.83790965456156,NA
95640,Amador County,CA,95.10978043912176,NA,NA
95648,Placer County,CA,63.37325349301397,NA,NA
95661,Placer County,CA,68.36327345309381,NA,NA
95670,Sacramento County,CA,36.52694610778443,NA,NA
95672,El Dorado County,CA,98.00399201596807,NA,NA
95682,El Dorado County,CA,NA,42.249778565101856,NA
95687,Solano County,CA,NA,22.852081488042515,NA
95747,Placer County,CA,42.91417165668663,42.515500442869794,NA
95776,Yolo County,CA,88.92215568862275,NA,NA
95825,Sacramento County,CA,52.09580838323353,NA,NA
95828,Sacramento County,CA,42.115768463073856,NA,NA
95834,Sacramento County,CA,NA,81.22232063773251,NA
95841,Sacramento County,CA,NA,NA,82.28882833787466
95843,Sacramento County,CA,NA,66.69619131975199,NA
95928,Butte County,CA,35.92814371257485,NA,NA
95954,Butte County,CA,43.013972055888225,NA,NA
95965,Butte County,CA,NA,84.05668733392383,NA
95969,Butte County,CA,NA,NA,4.632152588555858
95973,Butte County,CA,NA,NA,22.3433242506812
95991,Sutter County,CA,NA,40.12400354295837,NA
96021,Tehama County,CA,NA,60.318866253321524,NA
96080,Tehama County,CA,NA,NA,47.13896457765668
80015,Arapahoe County,CO,NA,22.054915854738706,NA
80020,Broomfield County,CO,76.74650698602794,36.04960141718335,NA
80022,Adams County,CO,17.764471057884233,NA,NA
80111,Arapahoe County,CO,73.15369261477046,66.16474756421611,NA
80113,Arapahoe County,CO,61.97604790419161,NA,69.48228882833789
80123,Jefferson County,CO,NA,54.207263064658996,NA
80127,Jefferson County,CO,NA,51.01860053144376,NA
80134,Douglas County,CO,27.445109780439118,39.32683790965456,NA
80203,Denver County,CO,72.55489021956087,NA,NA
80211,Denver County,CO,NA,49.24712134632418,NA
80212,Denver County,CO,NA,NA,89.64577656675749
80221,Adams County,CO,33.63273453093812,NA,NA
80236,Denver County,CO,83.93213572854292,NA,NA
80525,Larimer County,CO,16.26746506986028,NA,NA
80526,Larimer County,CO,39.12175648702595,NA,NA
80534,Weld County,CO,71.55688622754491,NA,NA
80537,Larimer County,CO,23.652694610778443,NA,NA
80538,Larimer County,CO,NA,8.591674047829938,NA
80631,Weld County,CO,7.684630738522954,NA,NA
80907,El Paso County,CO,NA,64.12754650132861,NA
80918,El Paso County,CO,NA,NA,46.049046321525886
81004,Pueblo County,CO,NA,32.5066430469442,NA
81005,Pueblo County,CO,NA,25.066430469441986,NA
81211,Chaffee County,CO,NA,91.49689991142604,NA
81303,La Plata County,CO,NA,96.63418954827281,NA
81503,Mesa County,CO,67.06586826347305,NA,NA
81601,Garfield County,CO,NA,83.87953941541187,NA
06033,Hartford County,CT,NA,57.30735163861824,NA
06037,Hartford County,CT,NA,62.0903454384411,NA
06040,Hartford County,CT,10.479041916167663,NA,NA
06042,Hartford County,CT,NA,47.475642161204604,NA
06053,Hartford County,CT,NA,27.103631532329498,NA
06074,Hartford County,CT,NA,NA,32.9700272479564
06114,Hartford County,CT,17.864271457085827,NA,NA
06249,New London County,CT,84.53093812375249,93.53410097431355,NA
06413,Middlesex County,CT,NA,69.44198405668733,NA
06416,Middlesex County,CT,73.55289421157684,NA,NA
06419,Middlesex County,CT,NA,94.1541186891054,NA
06422,Middlesex County,CT,86.22754491017965,NA,NA
06443,New Haven County,CT,70.65868263473054,NA,NA
06450,New Haven County,CT,61.27744510978044,NA,NA
06451,New Haven County,CT,26.646706586826348,NA,NA
06460,New Haven County,CT,NA,16.29760850310009,NA
06461,New Haven County,CT,NA,78.29937998228522,NA
06473,New Haven County,CT,NA,69.9734278122232,NA
06492,New Haven County,CT,23.053892215568865,47.12134632418069,NA
06776,Litchfield County,CT,NA,34.89813994685562,NA
06790,Litchfield County,CT,NA,1.771479185119575,NA
06810,Fairfield County,CT,NA,20.90345438441098,NA
06811,Fairfield County,CT,77.84431137724552,NA,NA
06830,Fairfield County,CT,NA,74.93356953055802,NA
06850,Fairfield County,CT,NA,39.41541186891054,NA
06880,Fairfield County,CT,51.09780439121756,NA,NA
19702,New Castle County,DE,NA,18.777679362267495,NA
19803,New Castle County,DE,NA,NA,35.967302452316076
19805,New Castle County,DE,NA,9.654561558901682,NA
19808,New Castle County,DE,NA,23.20637732506643,9.264305177111716
19810,New Castle County,DE,NA,NA,39.509536784741144
19904,Kent County,DE,13.77245508982036,NA,NA
19958,Sussex County,DE,35.728542914171655,3.8972542072630643,NA
19963,Sussex County,DE,36.72654690618762,NA,NA
19970,Sussex County,DE,NA,62.267493356953054,NA
32033,St. Johns County,FL,NA,93.3569530558016,NA
32034,Nassau County,FL,53.39321357285429,NA,NA
32043,Clay County,FL,46.8063872255489,22.4977856510186,NA
32046,Nassau County,FL,NA,88.66253321523472,NA
32060,Suwannee County,FL,NA,48.98139946855625,NA
32065,Clay County,FL,NA,39.681133746678476,NA
32068,Clay County,FL,12.574850299401197,9.920283436669619,NA
32073,Clay County,FL,NA,NA,25.068119891008173
32080,St. Johns County,FL,73.55289421157684,NA,32.69754768392371
32091,Bradford County,FL,44.411177644710584,NA,NA
32114,Volusia County,FL,24.550898203592812,NA,NA
32127,Volusia County,FL,62.974051896207584,NA,NA
32164,Flagler County,FL,36.62674650698603,15.500442869796279,NA
32168,Volusia County,FL,64.27145708582835,37.1124889282551,NA
32189,Putnam County,FL,NA,90.78830823737822,NA
32218,Duval County,FL,3.8922155688622757,NA,NA
32219,Duval County,FL,NA,91.85119574844995,NA
32220,Duval County,FL,69.061876247505,NA,NA
32221,Duval County,FL,NA,NA,47.956403269754766
32244,Duval County,FL,NA,11.603188662533215,NA
32258,Duval County,FL,58.48303393213573,37.46678476527901,NA
32259,St. Johns County,FL,46.506986027944116,NA,NA
32304,Leon County,FL,NA,91.76262178919397,NA
32351,Gadsden County,FL,NA,90.34543844109831,NA
32401,Bay County,FL,NA,31.178033658104514,NA
32404,Bay County,FL,NA,22.054915854738706,NA
32413,Bay County,FL,76.14770459081836,NA,NA
32433,Walton County,FL,NA,43.04694419840567,NA
32526,Escambia County,FL,14.97005988023952,NA,NA
32548,Okaloosa County,FL,66.86626746506987,NA,NA
32565,Santa Rosa County,FL,81.73652694610777,NA,NA
32566,Santa Rosa County,FL,NA,23.91496899911426,NA
32571,Santa Rosa County,FL,14.570858283433132,NA,NA
32578,Okaloosa County,FL,NA,19.840566873339238,NA
32579,Okaloosa County,FL,NA,89.5482728077945,NA
32583,Santa Rosa County,FL,28.143712574850298,NA,NA
32601,Alachua County,FL,NA,86.18246235606732,NA
32606,Alachua County,FL,36.02794411177645,NA,NA
32608,Alachua County,FL,NA,16.474756421612046,NA
32640,Putnam County,FL,61.17764471057884,NA,NA
32653,Alachua County,FL,NA,74.84499557130204,NA
32669,Alachua County,FL,69.36127744510978,68.29052258635961,NA
32712,Orange County,FL,65.96806387225548,NA,NA
32720,Volusia County,FL,NA,41.09831709477413,NA
32746,Seminole County,FL,NA,NA,62.67029972752044
32750,Seminole County,FL,69.86027944111777,NA,NA
32751,Orange County,FL,NA,84.23383525243578,NA
32757,Lake County,FL,NA,31.178033658104514,NA
32771,Seminole County,FL,NA,37.20106288751107,NA
32776,Lake County,FL,NA,83.25952170062003,NA
32780,Brevard County,FL,NA,NA,5.449591280653951
32808,Orange County,FL,16.46706586826347,NA,NA
32810,Orange County,FL,NA,59.43312666076174,NA
32811,Orange County,FL,24.451097804391217,NA,NA
32812,Orange County,FL,38.822355289421154,79.36226749335695,NA
32818,Orange County,FL,NA,53.32152347209921,NA
32821,Orange County,FL,83.8323353293413,NA,NA
32822,Orange County,FL,20.758483033932134,89.10540301151461,NA
32829,Orange County,FL,92.61477045908184,NA,NA
32835,Orange County,FL,60.97804391217565,NA,NA
32836,Orange County,FL,NA,87.33392382639505,NA
32837,Orange County,FL,22.355289421157686,NA,NA
32904,Brevard County,FL,49.800399201596804,NA,NA
32920,Brevard County,FL,NA,93.09123117803367,NA
32940,Brevard County,FL,NA,27.103631532329498,NA
32955,Brevard County,FL,NA,24.977856510186005,NA
32958,Indian River County,FL,NA,12.488928255093002,NA
32960,Indian River County,FL,NA,NA,53.950953678474114
32963,Indian River County,FL,NA,54.65013286093888,NA
32966,Indian River County,FL,NA,33.30380868024801,NA
32968,Indian River County,FL,NA,63.06465899025686,NA
33009,Broward County,FL,NA,NA,14.986376021798364
33012,Miami-Dade County,FL,46.60678642714571,NA,NA
33021,Broward County,FL,NA,NA,6.539509536784741
33024,Broward County,FL,31.53692614770459,25.597874224977858,NA
33025,Broward County,FL,NA,NA,46.321525885558586
33027,Broward County,FL,NA,41.275465013286095,NA
33028,Broward County,FL,83.53293413173652,NA,NA
33040,Monroe County,FL,46.10778443113773,NA,NA
33063,Broward County,FL,43.91217564870259,NA,NA
33064,Broward County,FL,39.72055888223553,NA,NA
33076,Broward County,FL,94.71057884231537,NA,NA
33126,Miami-Dade County,FL,NA,47.29849424269265,64.57765667574932
33131,Miami-Dade County,FL,NA,97.43135518157662,NA
33136,Miami-Dade County,FL,52.794411177644704,NA,NA
33149,Miami-Dade County,FL,94.41117764471058,NA,NA
33166,Miami-Dade County,FL,78.0439121756487,56.067316209034544,NA
33173,Miami-Dade County,FL,NA,NA,20.98092643051771
33176,Miami-Dade County,FL,70.15968063872255,NA,NA
33183,Miami-Dade County,FL,NA,93.3569530558016,NA
33190,Miami-Dade County,FL,NA,98.22852081488043,NA
33193,Miami-Dade County,FL,NA,57.04162976085031,NA
33196,Miami-Dade County,FL,NA,66.34189548272808,NA
33301,Broward County,FL,NA,70.59344552701505,NA
33304,Broward County,FL,92.91417165668663,NA,NA
33309,Broward County,FL,NA,91.40832595217006,NA
33315,Broward County,FL,NA,88.48538529672277,NA
33319,Broward County,FL,NA,32.32949512843224,NA
33322,Broward County,FL,72.85429141716567,NA,NA
33324,Broward County,FL,70.65868263473054,NA,NA
33334,Broward County,FL,91.01796407185628,53.67581930912312,NA
33351,Broward County,FL,NA,63.418954827280785,NA
33410,Palm Beach County,FL,NA,85.65101860053144,NA
33411,Palm Beach County,FL,72.45508982035929,NA,25.61307901907357
33414,Palm Beach County,FL,47.30538922155689,NA,NA
33415,Palm Beach County,FL,NA,69.35341009743135,NA
33418,Palm Beach County,FL,NA,30.292294065544727,14.168937329700274
33433,Palm Beach County,FL,NA,NA,2.17983651226158
33436,Palm Beach County,FL,NA,51.01860053144376,NA
33446,Palm Beach County,FL,NA,33.83525243578388,NA
33463,Palm Beach County,FL,NA,39.5925597874225,NA
33467,Palm Beach County,FL,59.281437125748504,NA,NA
33478,Palm Beach County,FL,NA,88.57395925597874,NA
33511,Hillsborough County,FL,NA,30.026572187776797,NA
33543,Pasco County,FL,NA,NA,83.37874659400545
33559,Hillsborough County,FL,87.12574850299401,NA,NA
33563,Hillsborough County,FL,49.9001996007984,NA,NA
33565,Hillsborough County,FL,NA,75.99645704162977,NA
33566,Hillsborough County,FL,NA,68.3790965456156,NA
33567,Hillsborough County,FL,NA,97.60850310008857,NA
33569,Hillsborough County,FL,NA,95.03985828166519,88.5558583106267
33572,Hillsborough County,FL,NA,88.04251550044287,NA
33596,Hillsborough County,FL,89.12175648702595,62.71036315323295,NA
33604,Hillsborough County,FL,25.64870259481038,NA,NA
33606,Hillsborough County,FL,NA,81.39946855624446,NA
33611,Hillsborough County,FL,NA,NA,62.125340599455036
33618,Hillsborough County,FL,79.84031936127745,NA,NA
33625,Hillsborough County,FL,61.77644710578842,NA,NA
33629,Hillsborough County,FL,NA,82.72807794508414,NA
33647,Hillsborough County,FL,53.99201596806387,47.03277236492471,NA
33710,Pinellas County,FL,NA,NA,46.86648501362398
33713,Pinellas County,FL,NA,69.26483613817538,NA
33760,Pinellas County,FL,79.14171656686626,NA,NA
33761,Pinellas County,FL,NA,74.40212577502214,NA
33763,Pinellas County,FL,NA,NA,47.41144414168937
33774,Pinellas County,FL,NA,71.74490699734278,NA
33810,Polk County,FL,78.1437125748503,36.935341009743134,31.33514986376022
33813,Polk County,FL,NA,49.42426926483614,72.20708446866485
33825,Highlands County,FL,NA,15.766164747564215,NA
33830,Polk County,FL,38.12375249500998,NA,NA
33844,Polk County,FL,72.2554890219561,NA,NA
33876,Highlands County,FL,93.812375249501,NA,NA
33881,Polk County,FL,NA,NA,17.71117166212534
33884,Polk County,FL,NA,46.6784765279008,NA
33901,Lee County,FL,NA,NA,71.11716621253406
33903,Lee County,FL,64.47105788423154,NA,NA
33913,Lee County,FL,84.3313373253493,33.21523472099203,NA
33914,Lee County,FL,41.91616766467065,NA,NA
33917,Lee County,FL,NA,19.574844995571304,NA
33919,Lee County,FL,NA,NA,4.087193460490464
33922,Lee County,FL,NA,81.04517271922055,NA
33928,Lee County,FL,NA,NA,24.52316076294278
33931,Lee County,FL,95.90818363273453,NA,NA
33936,Lee County,FL,NA,64.5704162976085,NA
33948,Charlotte County,FL,NA,41.71833480956599,NA
33952,Charlotte County,FL,26.84630738522954,35.34100974313552,NA
33957,Lee County,FL,NA,76.17360496014172,NA
33966,Lee County,FL,93.7125748502994,NA,NA
33974,Lee County,FL,81.63672654690619,NA,NA
33990,Lee County,FL,NA,42.0726306465899,NA
33991,Lee County,FL,69.76047904191617,NA,NA
34112,Collier County,FL,58.38323353293413,NA,NA
34113,Collier County,FL,NA,60.673162090345436,NA
34116,Collier County,FL,NA,NA,89.10081743869209
34117,Collier County,FL,68.26347305389223,NA,NA
34135,Lee County,FL,NA,15.146147032772364,NA
34202,Manatee County,FL,NA,41.18689105403012,NA
34203,Manatee County,FL,NA,21.70062001771479,NA
34235,Sarasota County,FL,NA,60.584588131089454,NA
34243,Manatee County,FL,NA,26.04074402125775,NA
34286,Sarasota County,FL,NA,60.93888396811338,NA
34291,Sarasota County,FL,90.9181636726547,NA,NA
34293,Sarasota County,FL,49.40119760479042,NA,NA
34461,Citrus County,FL,86.62674650698602,NA,NA
34482,Marion County,FL,88.42315369261478,NA,NA
34606,Hernando County,FL,NA,41.45261293179805,NA
34608,Hernando County,FL,NA,NA,52.043596730245234
34609,Hernando County,FL,NA,25.863596102745795,NA
34639,Pasco County,FL,NA,58.990256864481836,NA
34652,Pasco County,FL,43.11377245508982,NA,NA
34653,Pasco County,FL,31.3373253493014,34.1895482728078,NA
34655,Pasco County,FL,NA,64.48184233835252,NA
34668,Pasco County,FL,NA,22.232063773250665,NA
34684,Pinellas County,FL,73.25349301397206,NA,NA
34689,Pinellas County,FL,NA,42.0726306465899,NA
34731,Lake County,FL,86.52694610778443,86.53675819309123,NA
34741,Osceola County,FL,NA,NA,70.57220708446866
34747,Osceola County,FL,NA,61.20460584588131,NA
34759,Polk County,FL,40.718562874251496,NA,NA
34787,Orange County,FL,NA,21.87776793622675,NA
34947,St. Lucie County,FL,56.986027944111775,NA,NA
34953,St. Lucie County,FL,5.089820359281437,NA,NA
34957,Martin County,FL,51.69660678642715,NA,NA
34994,Martin County,FL,NA,NA,44.141689373297005
34996,Martin County,FL,NA,NA,32.15258855585831
34997,Martin County,FL,31.437125748502993,NA,5.994550408719346
30005,Fulton County,GA,NA,NA,89.91825613079018
30016,Newton County,GA,13.073852295409182,NA,NA
30030,DeKalb County,GA,47.604790419161674,NA,NA
30045,Gwinnett County,GA,NA,75.55358724534986,NA
30047,Gwinnett County,GA,NA,27.900797165633307,NA
30066,Cobb County,GA,48.902195608782435,NA,NA
30068,Cobb County,GA,75.249500998004,NA,NA
30076,Fulton County,GA,NA,45.70416297608503,NA
30093,Gwinnett County,GA,NA,82.46235606731621,NA
30094,Rockdale County,GA,48.50299401197605,NA,NA
30107,Cherokee County,GA,91.31736526946108,NA,NA
30117,Carroll County,GA,NA,34.720992028343666,NA
30121,Bartow County,GA,NA,NA,81.47138964577657
30132,Paulding County,GA,35.12974051896208,NA,NA
30153,Polk County,GA,43.812375249500995,NA,NA
30165,Floyd County,GA,NA,67.31620903454385,NA
30179,Carroll County,GA,NA,69.08768821966342,NA
30180,Carroll County,GA,NA,39.14968999114261,NA
30188,Cherokee County,GA,NA,16.12046058458813,NA
30228,Henry County,GA,32.035928143712574,NA,NA
30230,Troup County,GA,78.64271457085829,NA,NA
30241,Troup County,GA,NA,52.87865367581931,NA
30252,Henry County,GA,40.91816367265469,51.461470327723646,NA
30281,Henry County,GA,NA,18.689105403011514,52.31607629427793
30316,DeKalb County,GA,56.4870259481038,50.752878653675815,NA
30318,Fulton County,GA,NA,NA,38.41961852861036
30401,Emanuel County,GA,NA,67.84765279007972,NA
30518,Gwinnett County,GA,NA,NA,49.04632152588556
30542,Hall County,GA,55.08982035928144,42.78122232063774,NA
30635,Elbert County,GA,66.56686626746507,NA,NA
30650,Morgan County,GA,NA,70.4162976085031,NA
30680,Barrow County,GA,22.255489021956087,NA,NA
30701,Gordon County,GA,32.634730538922156,NA,NA
30720,Whitfield County,GA,57.48502994011976,NA,63.21525885558583
30721,Whitfield County,GA,25.948103792415168,NA,49.863760217983646
30736,Catoosa County,GA,11.27744510978044,NA,NA
30750,Walker County,GA,97.0059880239521,NA,NA
30805,Richmond County,GA,99.7005988023952,NA,NA
30809,Columbia County,GA,38.522954091816366,NA,NA
30814,Columbia County,GA,82.73453093812375,NA,NA
30817,Lincoln County,GA,NA,91.05403011514615,NA
31014,Bleckley County,GA,NA,76.35075287865367,NA
31021,Laurens County,GA,NA,NA,57.765667574931875
31028,Houston County,GA,NA,96.89991142604075,NA
31052,Bibb County,GA,93.31337325349301,NA,NA
31061,Baldwin County,GA,31.2375249500998,NA,NA
31093,Houston County,GA,35.42914171656687,NA,NA
31326,Effingham County,GA,65.6686626746507,NA,NA
31404,Chatham County,GA,NA,42.78122232063774,NA
31503,Ware County,GA,54.79041916167665,NA,NA
31523,Glynn County,GA,86.72654690618764,NA,NA
31636,Lowndes County,GA,85.72854291417165,NA,NA
31701,Dougherty County,GA,NA,38.52967227635075,NA
31714,Turner County,GA,NA,NA,78.7465940054496
31763,Lee County,GA,52.99401197604791,NA,NA
31792,Thomas County,GA,NA,35.4295837023915,NA
39842,Terrell County,GA,NA,70.15057573073517,NA
96701,Honolulu County,HI,NA,17.62621789193977,NA
96707,Honolulu County,HI,NA,33.56953055801594,NA
96753,Maui County,HI,80.938123752495,NA,NA
96782,Honolulu County,HI,NA,NA,15.258855585831062
96793,Maui County,HI,NA,66.60761736049602,NA
96813,Honolulu County,HI,NA,37.46678476527901,NA
96815,Honolulu County,HI,NA,NA,24.795640326975477
96817,Honolulu County,HI,NA,6.731620903454385,NA
96825,Honolulu County,HI,56.187624750499,NA,NA
83221,Bingham County,ID,NA,18.86625332152347,NA
83301,Twin Falls County,ID,3.792415169660679,NA,NA
83328,Twin Falls County,ID,NA,96.54561558901683,NA
83333,Blaine County,ID,82.63473053892216,NA,NA
83338,Jerome County,ID,NA,NA,45.776566757493185
83340,Blaine County,ID,95.40918163672654,NA,NA
83401,Bonneville County,ID,47.00598802395209,NA,NA
83544,Clearwater County,ID,NA,75.73073516386182,NA
83616,Ada County,ID,NA,10.628875110717448,NA
83642,Ada County,ID,NA,7.971656333038086,NA
83854,Kootenai County,ID,NA,NA,21.525885558583106
60004,Cook County,IL,NA,43.22409211691763,NA
60007,Cook County,IL,NA,17.537643932683793,NA
60010,Lake County,IL,41.01796407185629,14.437555358724536,NA
60012,McHenry County,IL,NA,NA,71.66212534059946
60015,Lake County,IL,62.17564870259481,NA,NA
60018,Cook County,IL,64.87025948103793,NA,NA
60025,Cook County,IL,NA,52.524357838795396,NA
60026,Cook County,IL,NA,NA,30.79019073569482
60030,Lake County,IL,44.81037924151697,NA,NA
60031,Lake County,IL,NA,61.027457927369355,NA
60033,McHenry County,IL,72.85429141716567,NA,NA
60046,Lake County,IL,NA,26.217891939769704,NA
60047,Lake County,IL,NA,23.29495128432241,NA
60048,Lake County,IL,NA,28.43224092116918,NA
60051,McHenry County,IL,NA,28.166519043401237,NA
60056,Cook County,IL,40.818363273453095,15.323294951284321,NA
60060,Lake County,IL,50.199600798403196,NA,NA
60070,Cook County,IL,NA,77.59078830823738,NA
60077,Cook County,IL,NA,32.41806908768822,NA
60084,Lake County,IL,NA,71.30203720106289,NA
60085,Lake County,IL,18.862275449101794,NA,NA
60089,Lake County,IL,NA,10.983170947741364,NA
60090,Cook County,IL,NA,66.2533215234721,NA
60101,DuPage County,IL,NA,23.29495128432241,NA
60107,Cook County,IL,NA,40.921169176262175,NA
60108,DuPage County,IL,NA,NA,38.14713896457766
60123,Kane County,IL,NA,52.61293179805138,NA
60126,DuPage County,IL,10.079840319361278,NA,6.267029972752043
60130,Cook County,IL,NA,69.44198405668733,NA
60137,DuPage County,IL,36.227544910179645,NA,NA
60139,DuPage County,IL,NA,38.26395039858282,NA
60148,DuPage County,IL,15.369261477045908,NA,NA
60155,Cook County,IL,NA,67.22763507528786,NA
60172,DuPage County,IL,NA,44.02125775022144,NA
60178,DeKalb County,IL,NA,NA,60.76294277929155
60184,DuPage County,IL,NA,99.2028343666962,NA
60185,DuPage County,IL,NA,30.73516386182462,NA
60187,DuPage County,IL,NA,86.97962798937112,NA
60188,DuPage County,IL,20.159680638722556,NA,NA
60201,Cook County,IL,46.20758483033932,NA,NA
60302,Cook County,IL,NA,49.867139061116035,NA
60415,Cook County,IL,NA,76.2621789193977,NA
60416,Grundy County,IL,NA,76.61647475642161,NA
60419,Cook County,IL,NA,38.706820194862715,NA
60425,Cook County,IL,NA,75.37643932683791,NA
60430,Cook County,IL,NA,NA,48.77384196185286
60440,Will County,IL,21.457085828343313,NA,NA
60446,Will County,IL,15.6686626746507,40.65544729849424,NA
60451,Will County,IL,NA,15.589016829052257,NA
60453,Cook County,IL,NA,8.945969884853854,NA
60462,Cook County,IL,NA,5.314437555358724,NA
60465,Cook County,IL,51.39720558882236,NA,NA
60467,Cook County,IL,NA,28.875110717449072,NA
60490,Will County,IL,63.67265469061876,NA,92.64305177111717
60506,Kane County,IL,NA,27.369353410097432,NA
60510,Kane County,IL,37.624750499002,50.22143489813995,NA
60513,Cook County,IL,NA,58.458813108945975,NA
60525,Cook County,IL,25.24950099800399,NA,NA
60527,DuPage County,IL,NA,10.894596988485384,NA
60540,DuPage County,IL,NA,67.13906111603188,NA
60548,DeKalb County,IL,NA,70.32772364924712,NA
60560,Kendall County,IL,45.309381237524946,55.97874224977857,NA
60609,Cook County,IL,NA,16.740478299379983,NA
60610,Cook County,IL,44.91017964071856,NA,NA
60613,Cook County,IL,NA,72.01062887511071,NA
60614,Cook County,IL,NA,16.651904340124005,NA
60616,Cook County,IL,NA,10.097431355181577,NA
60618,Cook County,IL,34.73053892215569,NA,NA
60620,Cook County,IL,NA,NA,4.35967302452316
60622,Cook County,IL,NA,NA,51.771117166212534
60625,Cook County,IL,10.978043912175648,14.614703277236494,NA
60628,Cook County,IL,6.387225548902195,NA,NA
60629,Cook County,IL,NA,3.985828166519043,NA
60630,Cook County,IL,NA,13.020372010628876,NA
60632,Cook County,IL,13.972055888223553,NA,NA
60638,Cook County,IL,9.3812375249501,8.148804251550045,NA
60640,Cook County,IL,NA,7.440212577502214,NA
60641,Cook County,IL,NA,16.20903454384411,NA
60643,Cook County,IL,8.383233532934131,NA,NA
60644,Cook County,IL,33.433133732534934,NA,NA
60645,Cook County,IL,38.92215568862276,NA,NA
60647,Cook County,IL,7.18562874251497,NA,NA
60651,Cook County,IL,NA,9.12311780336581,NA
60657,Cook County,IL,NA,13.640389725420727,NA
60659,Cook County,IL,49.00199600798403,NA,NA
60804,Cook County,IL,NA,14.348981399468554,NA
60827,Cook County,IL,NA,57.484499557130206,NA
60901,Kankakee County,IL,NA,14.083259521700619,NA
60940,Kankakee County,IL,99.8003992015968,NA,NA
61008,Boone County,IL,NA,19.75199291408326,NA
61032,Stephenson County,IL,NA,NA,16.348773841961854
61048,Stephenson County,IL,98.50299401197606,NA,NA
61114,Winnebago County,IL,NA,71.6563330380868,NA
61455,McDonough County,IL,NA,NA,77.11171662125341
61525,Peoria County,IL,NA,94.77413640389726,NA
61530,Woodford County,IL,NA,94.33126660761737,NA
61611,Tazewell County,IL,NA,44.10983170947741,NA
61615,Peoria County,IL,NA,64.65899025686448,NA
61704,McLean County,IL,NA,45.08414526129318,NA
61755,Tazewell County,IL,NA,99.64570416297609,NA
61832,Vermilion County,IL,NA,10.54030115146147,NA
61834,Vermilion County,IL,NA,95.837023914969,NA
61853,Champaign County,IL,NA,NA,72.47956403269755
61866,Champaign County,IL,74.750499001996,NA,NA
61883,Vermilion County,IL,NA,96.27989371124889,NA
62002,Madison County,IL,NA,19.66341895482728,NA
62025,Madison County,IL,NA,44.64127546501329,NA
62040,Madison County,IL,21.756487025948104,NA,NA
62062,Madison County,IL,96.10778443113772,NA,NA
62234,Madison County,IL,NA,46.41275465013286,28.610354223433244
62294,Madison County,IL,NA,95.57130203720106,NA
62420,Clark County,IL,NA,97.8742249778565,NA
62568,Christian County,IL,78.2435129740519,NA,NA
62650,Morgan County,IL,NA,35.69530558015943,NA
62703,Sangamon County,IL,NA,NA,50.40871934604905
62832,Perry County,IL,86.42714570858283,NA,NA
62881,Marion County,IL,NA,80.07085916740479,NA
62896,Franklin County,IL,76.04790419161677,NA,NA
46064,Madison County,IN,NA,59.69884853852967,NA
46142,Johnson County,IN,NA,NA,27.79291553133515
46151,Morgan County,IN,NA,21.16917626217892,NA
46214,Marion County,IN,NA,NA,43.596730245231605
46220,Marion County,IN,77.44510978043913,48.00708591674048,NA
46228,Marion County,IN,NA,74.13640389725421,NA
46235,Marion County,IN,21.25748502994012,NA,NA
46307,Lake County,IN,NA,1.0628875110717448,NA
46312,Lake County,IN,16.966067864271455,NA,NA
46319,Lake County,IN,28.842315369261478,28.43224092116918,65.39509536784742
46321,Lake County,IN,NA,52.79007971656333,66.21253405994551
46324,Lake County,IN,17.964071856287426,NA,NA
46342,Lake County,IN,NA,13.374667847652791,NA
46350,LaPorte County,IN,NA,7.263064658990256,NA
46360,LaPorte County,IN,NA,4.428697962798937,NA
46366,Starke County,IN,NA,92.91408325952169,NA
46368,Porter County,IN,NA,1.2400354295837024,NA
46375,Lake County,IN,33.83233532934132,16.91762621789194,NA
46385,Porter County,IN,6.686626746506986,NA,NA
46403,Lake County,IN,NA,64.92471213463243,NA
46404,Lake County,IN,NA,NA,58.03814713896458
46408,Lake County,IN,NA,48.71567759078831,NA
46410,Lake County,IN,51.29740518962076,NA,NA
46516,Elkhart County,IN,18.063872255489024,NA,NA
46563,Marshall County,IN,NA,25.243578387953942,NA
46580,Kosciusko County,IN,48.003992015968066,NA,NA
46613,St. Joseph County,IN,89.02195608782435,NA,NA
46614,St. Joseph County,IN,NA,NA,45.23160762942779
46765,Allen County,IN,NA,99.02568644818423,NA
46805,Allen County,IN,NA,51.815766164747565,NA
46806,Allen County,IN,62.5748502994012,NA,NA
46952,Grant County,IN,19.46107784431138,NA,NA
46970,Miami County,IN,37.924151696606785,NA,NA
47129,Clark County,IN,NA,NA,90.46321525885558
47170,Scott County,IN,62.07584830339321,NA,NA
47201,Bartholomew County,IN,NA,13.108945969884852,NA
47274,Jackson County,IN,NA,34.27812223206377,NA
47302,Delaware County,IN,19.660678642714572,NA,NA
47396,Delaware County,IN,NA,94.68556244464128,NA
47421,Lawrence County,IN,NA,19.22054915854739,NA
47446,Lawrence County,IN,70.95808383233533,NA,NA
47546,Dubois County,IN,55.489021956087825,NA,NA
47711,Vanderburgh County,IN,29.840319361277444,NA,NA
47714,Vanderburgh County,IN,NA,NA,37.60217983651226
47715,Vanderburgh County,IN,NA,75.90788308237379,NA
47802,Vigo County,IN,25.449101796407188,NA,NA
47872,Parke County,IN,NA,NA,80.92643051771117
47932,Fountain County,IN,NA,NA,87.46594005449592
47978,Jasper County,IN,70.25948103792416,NA,NA
50125,Warren County,IA,NA,87.68821966341895,NA
50129,Greene County,IA,98.70259481037924,NA,NA
50131,Polk County,IA,NA,84.67670504871568,NA
50266,Polk County,IA,80.03992015968065,NA,NA
50315,Polk County,IA,NA,25.775022143489814,NA
50316,Polk County,IA,NA,NA,79.291553133515
50325,Polk County,IA,91.81636726546905,NA,NA
50401,Cerro Gordo County,IA,12.275449101796406,NA,NA
50801,Union County,IA,NA,NA,59.945504087193456
51031,Plymouth County,IA,NA,53.94154118689105,NA
51360,Dickinson County,IA,90.01996007984032,NA,NA
51503,Pottawattamie County,IA,7.984031936127744,3.8086802480070863,29.972752043596728
52068,Dubuque County,IA,NA,100,NA
52302,Linn County,IA,NA,37.37821080602303,NA
52501,Wapello County,IA,NA,32.683790965456154,NA
52544,Appanoose County,IA,NA,NA,55.5858310626703
52632,Lee County,IA,NA,37.73250664304694,NA
52655,Des Moines County,IA,NA,84.32240921169176,NA
52806,Scott County,IA,22.954091816367264,NA,NA
52807,Scott County,IA,NA,84.85385296722764,NA
66043,Leavenworth County,KS,83.13373253493013,NA,NA
66061,Johnson County,KS,21.057884231536928,NA,NA
66067,Franklin County,KS,85.12974051896207,NA,NA
66083,Johnson County,KS,77.7445109780439,NA,NA
66106,Wyandotte County,KS,NA,95.12843224092117,NA
66208,Johnson County,KS,85.72854291417165,NA,NA
66216,Johnson County,KS,74.8502994011976,NA,NA
66227,Johnson County,KS,96.20758483033931,NA,NA
66502,Riley County,KS,NA,71.30203720106289,NA
66604,Shawnee County,KS,49.101796407185624,NA,NA
66609,Shawnee County,KS,NA,89.19397697077059,NA
66610,Shawnee County,KS,NA,90.34543844109831,NA
66801,Lyon County,KS,NA,56.775907883082375,NA
67401,Saline County,KS,NA,21.87776793622675,NA
67501,Reno County,KS,NA,74.5792736935341,NA
67601,Ellis County,KS,43.51297405189621,NA,NA
40014,Oldham County,KY,94.2115768463074,NA,NA
40023,Jefferson County,KY,NA,98.49424269264836,NA
40071,Spencer County,KY,NA,52.96722763507529,NA
40165,Bullitt County,KY,NA,17.006200177147917,NA
40206,Jefferson County,KY,NA,80.8680248007086,NA
40214,Jefferson County,KY,6.187624750499002,NA,50.13623978201635
40245,Jefferson County,KY,NA,76.08503100088573,NA
40272,Jefferson County,KY,14.171656686626747,NA,NA
40291,Jefferson County,KY,NA,18.3348095659876,NA
40299,Jefferson County,KY,NA,NA,22.615803814713896
40353,Montgomery County,KY,57.58483033932136,NA,44.4141689373297
40484,Lincoln County,KY,71.6566866267465,NA,NA
40509,Fayette County,KY,35.22954091816367,NA,NA
40511,Fayette County,KY,NA,50.044286979628,NA
40741,Laurel County,KY,NA,NA,54.495912806539515
41031,Harrison County,KY,58.78243512974052,NA,NA
41101,Boyd County,KY,18.36327345309381,NA,NA
41144,Greenup County,KY,42.315369261477045,55.53587245349867,NA
41164,Carter County,KY,35.32934131736527,NA,57.49318801089919
41169,Greenup County,KY,NA,81.48804251550045,NA
41311,Lee County,KY,91.51696606786427,83.7023914968999,NA
42066,Graves County,KY,NA,NA,41.14441416893733
42101,Warren County,KY,6.087824351297405,NA,NA
42104,Warren County,KY,NA,47.74136403897254,NA
42127,Barren County,KY,NA,82.55093002657219,NA
42134,Simpson County,KY,NA,72.18777679362267,NA
42211,Trigg County,KY,65.06986027944112,NA,NA
42220,Todd County,KY,NA,84.67670504871568,NA
42240,Christian County,KY,29.640718562874252,15.057573073516387,NA
42327,McLean County,KY,NA,98.31709477413641,NA
42408,Hopkins County,KY,NA,85.91674047829937,NA
42420,Henderson County,KY,NA,47.564216120460586,NA
42501,Pulaski County,KY,52.19560878243513,NA,NA
42653,McCreary County,KY,NA,96.10274579273693,NA
42724,Hardin County,KY,NA,99.91142604074402,NA
70001,Jefferson Parish,LA,NA,10.274579273693533,NA
70072,Jefferson Parish,LA,0.998003992015968,NA,NA
70084,St. John the Baptist Parish,LA,69.56087824351297,NA,NA
70090,St. James Parish,LA,75.64870259481037,NA,NA
70115,Orleans Parish,LA,NA,62.17891939769707,NA
70124,Orleans Parish,LA,NA,77.32506643046945,NA
70126,Orleans Parish,LA,5.688622754491018,NA,NA
70127,Orleans Parish,LA,31.936127744510976,NA,NA
70360,Terrebonne Parish,LA,10.878243512974052,65.19043401240036,NA
70427,Washington Parish,LA,NA,61.736049601417186,NA
70518,Lafayette Parish,LA,51.996007984031934,NA,NA
70535,St. Landry Parish,LA,98.80239520958084,NA,NA
70544,Iberia Parish,LA,35.82834331337325,NA,NA
70546,Jefferson Davis Parish,LA,30.63872255489022,NA,NA
70555,Vermilion Parish,LA,86.32734530938124,NA,NA
70601,Calcasieu Parish,LA,12.375249500998004,NA,NA
70605,Calcasieu Parish,LA,19.261477045908183,NA,NA
70607,Calcasieu Parish,LA,14.37125748502994,NA,NA
70748,East Feliciana Parish,LA,82.33532934131736,NA,NA
71232,Richland Parish,LA,50.399201596806385,NA,NA
71295,Franklin Parish,LA,NA,57.66164747564216,47.68392370572207
71446,Vernon Parish,LA,NA,40.38972542072631,NA
03903,York County,ME,NA,NA,76.566757493188
04011,Cumberland County,ME,55.58882235528942,28.786536758193094,NA
04055,Cumberland County,ME,97.90419161676647,NA,NA
04074,Cumberland County,ME,69.26147704590818,NA,NA
04083,York County,ME,93.51297405189621,NA,NA
04401,Penobscot County,ME,2.19560878243513,0.9743135518157661,NA
04843,Knox County,ME,NA,NA,55.858310626703
04950,Somerset County,ME,76.24750499001996,NA,NA
04967,Somerset County,ME,93.21357285429141,NA,95.91280653950953
20603,Charles County,MD,69.16167664670658,NA,NA
20634,St. Mary's County,MD,96.30738522954093,NA,NA
20637,Charles County,MD,NA,95.92559787422498,NA
20743,Prince George's County,MD,NA,NA,59.12806539509536
20770,Prince George's County,MD,79.14171656686626,NA,NA
20817,Montgomery County,MD,NA,79.62798937112488,NA
20850,Montgomery County,MD,NA,NA,62.39782016348774
20852,Montgomery County,MD,NA,63.24180690876883,NA
20901,Montgomery County,MD,NA,NA,61.30790190735694
20905,Montgomery County,MD,NA,NA,85.28610354223434
21009,Harford County,MD,49.40119760479042,NA,NA
21040,Harford County,MD,61.477045908183634,NA,NA
21061,Anne Arundel County,MD,9.580838323353294,NA,NA
21085,Harford County,MD,73.85229540918164,NA,NA
21093,Baltimore County,MD,NA,NA,12.534059945504087
21158,Carroll County,MD,NA,NA,83.92370572207084
21204,Baltimore County,MD,NA,79.62798937112488,NA
21206,Baltimore city,MD,NA,NA,29.972752043596728
21208,Baltimore County,MD,86.82634730538922,NA,NA
21209,Baltimore County,MD,65.26946107784431,NA,NA
21212,Baltimore city,MD,NA,35.25243578387954,NA
21218,Baltimore city,MD,9.980039920159681,NA,NA
21220,Baltimore County,MD,51.796407185628745,NA,NA
21222,Baltimore County,MD,NA,NA,6.811989100817439
21230,Baltimore city,MD,NA,53.94154118689105,NA
21236,Baltimore County,MD,NA,42.78122232063774,NA
21401,Anne Arundel County,MD,NA,NA,23.705722070844686
21619,Queen Anne's County,MD,95.20958083832335,NA,NA
21701,Frederick County,MD,60.97804391217565,NA,NA
21771,Frederick County,MD,66.36726546906188,NA,NA
21784,Carroll County,MD,57.684630738522955,NA,NA
01010,Hampden County,MA,99.30139720558883,NA,NA
01040,Hampden County,MA,0,NA,0.2724795640326975
01069,Hampden County,MA,NA,99.46855624446412,NA
01082,Hampshire County,MA,NA,39.946855624446414,NA
01089,Hampden County,MA,82.13572854291418,NA,NA
01104,Hampden County,MA,1.4970059880239521,NA,NA
01220,Berkshire County,MA,NA,42.69264836138175,NA
01225,Berkshire County,MA,99.50099800399201,NA,NA
01331,Worcester County,MA,NA,96.45704162976085,NA
01420,Worcester County,MA,NA,1.328609388839681,NA
01460,Middlesex County,MA,NA,88.13108945969886,NA
01568,Worcester County,MA,73.95209580838323,NA,NA
01588,Worcester County,MA,20.958083832335326,NA,NA
01604,Worcester County,MA,NA,1.5057573073516386,NA
01609,Worcester County,MA,2.9940119760479043,NA,NA
01701,Middlesex County,MA,10.578842315369261,NA,NA
01749,Middlesex County,MA,21.55688622754491,39.50398582816652,NA
01752,Middlesex County,MA,NA,13.197519929140833,NA
01754,Middlesex County,MA,NA,56.775907883082375,89.10081743869209
01772,Worcester County,MA,96.9061876247505,NA,NA
01773,Middlesex County,MA,NA,NA,83.10626702997274
01810,Essex County,MA,44.31137724550898,NA,NA
01824,Middlesex County,MA,36.327345309381236,NA,NA
01830,Essex County,MA,1.5968063872255487,NA,NA
01845,Essex County,MA,NA,12.75465013286094,NA
01860,Essex County,MA,96.40718562874252,NA,NA
01876,Middlesex County,MA,6.287425149700598,NA,NA
01886,Middlesex County,MA,NA,34.100974313551816,NA
01904,Essex County,MA,NA,NA,33.787465940054496
01906,Essex County,MA,NA,9.565987599645705,7.629427792915531
01907,Essex County,MA,54.890219560878236,NA,NA
01945,Essex County,MA,NA,19.929140832595216,NA
02072,Norfolk County,MA,7.784431137724551,NA,NA
02116,Suffolk County,MA,16.067864271457086,NA,19.618528610354225
02118,Suffolk County,MA,0.09980039920159679,NA,NA
02119,Suffolk County,MA,NA,0,NA
02121,Suffolk County,MA,NA,5.580159433126661,NA
02122,Suffolk County,MA,NA,0.44286979627989376,NA
02124,Suffolk County,MA,2.095808383233533,NA,NA
02127,Suffolk County,MA,1.3972055888223553,NA,NA
02128,Suffolk County,MA,0.39920159680638717,NA,NA
02130,Suffolk County,MA,NA,1.0628875110717448,NA
02132,Suffolk County,MA,12.4750499001996,NA,NA
02138,Middlesex County,MA,NA,5.66873339238264,NA
02139,Middlesex County,MA,NA,NA,16.076294277929154
02148,Middlesex County,MA,4.790419161676647,NA,NA
02149,Middlesex County,MA,0.19960079840319359,NA,NA
02155,Middlesex County,MA,0.5988023952095809,NA,NA
02170,Norfolk County,MA,NA,9.477413640389726,NA
02188,Norfolk County,MA,NA,40.8325952170062,NA
02302,Plymouth County,MA,0.6986027944111777,NA,5.177111716621254
02330,Plymouth County,MA,NA,NA,75.47683923705722
02341,Plymouth County,MA,NA,82.01948627103631,NA
02356,Bristol County,MA,77.54491017964071,67.0504871567759,NA
02360,Plymouth County,MA,5.9880239520958085,NA,NA
02445,Norfolk County,MA,28.942115768463072,NA,NA
02451,Middlesex County,MA,60.67864271457086,19.04340124003543,NA
02474,Middlesex County,MA,13.47305389221557,NA,NA
02649,Barnstable County,MA,NA,65.19043401240036,NA
02762,Norfolk County,MA,NA,80.33658104517272,NA
02766,Bristol County,MA,19.560878243512974,NA,NA
02769,Bristol County,MA,NA,87.9539415411869,NA
48009,Oakland County,MI,NA,64.39326837909654,NA
48021,Macomb County,MI,NA,18.600531443755536,NA
48030,Oakland County,MI,NA,88.21966341895482,NA
48038,Macomb County,MI,13.273453093812376,NA,NA
48044,Macomb County,MI,7.385229540918163,NA,NA
48047,Macomb County,MI,14.37125748502994,NA,NA
48060,St. Clair County,MI,18.562874251497004,NA,NA
48065,Macomb County,MI,NA,77.85651018600531,NA
48076,Oakland County,MI,NA,27.54650132860939,NA
48080,Macomb County,MI,70.35928143712576,NA,NA
48082,Macomb County,MI,NA,38.972542072630645,NA
48088,Macomb County,MI,NA,25.50930026572188,NA
48091,Macomb County,MI,NA,51.99291408325952,NA
48098,Oakland County,MI,62.27544910179641,NA,NA
48118,Washtenaw County,MI,80.43912175648703,NA,NA
48128,Wayne County,MI,NA,81.93091231178033,NA
48146,Wayne County,MI,7.48502994011976,NA,NA
48152,Wayne County,MI,34.5309381237525,NA,NA
48154,Wayne County,MI,26.34730538922156,7.351638618246235,NA
48167,Oakland County,MI,NA,64.74756421612045,NA
48170,Wayne County,MI,NA,2.83436669619132,NA
48178,Oakland County,MI,NA,13.46324180690877,NA
48183,Wayne County,MI,NA,5.9344552701505755,NA
48193,Wayne County,MI,NA,63.684676705048716,NA
48205,Wayne County,MI,4.39121756487026,NA,NA
48210,Wayne County,MI,27.14570858283433,NA,NA
48221,Wayne County,MI,4.990019960079841,NA,NA
48227,Wayne County,MI,NA,7.883082373782107,NA
48235,Wayne County,MI,NA,NA,15.803814713896458
48302,Oakland County,MI,NA,47.9185119574845,NA
48310,Macomb County,MI,16.666666666666664,NA,NA
48315,Macomb County,MI,74.15169660678643,NA,NA
48316,Macomb County,MI,NA,NA,22.070844686648503
48329,Oakland County,MI,NA,21.257750221434897,NA
48336,Oakland County,MI,NA,43.312666076173606,NA
48346,Oakland County,MI,39.52095808383233,NA,NA
48348,Oakland County,MI,NA,46.855624446412754,NA
48360,Oakland County,MI,NA,NA,91.28065395095368
48382,Oakland County,MI,NA,37.643932683790965,NA
48386,Oakland County,MI,NA,44.72984942426926,NA
48420,Genesee County,MI,NA,NA,50.95367847411444
48442,Oakland County,MI,NA,NA,67.0299727520436
48509,Genesee County,MI,NA,81.13374667847653,NA
48603,Saginaw County,MI,NA,NA,13.896457765667575
48612,Gladwin County,MI,NA,NA,94.27792915531336
48622,Clare County,MI,NA,78.12223206377325,NA
48629,Roscommon County,MI,NA,70.50487156775908,NA
48640,Midland County,MI,NA,14.791851195748452,NA
48661,Ogemaw County,MI,NA,55.713020372010625,NA
48823,Ingham County,MI,35.528942115768466,NA,NA
48827,Eaton County,MI,NA,34.9867139061116,NA
48837,Eaton County,MI,NA,35.69530558015943,NA
48842,Ingham County,MI,40.019960079840324,NA,NA
48848,Shiawassee County,MI,NA,77.76793622674933,NA
48858,Isabella County,MI,NA,NA,13.079019073569482
48867,Shiawassee County,MI,NA,NA,10.354223433242508
48880,Gratiot County,MI,NA,86.62533215234721,NA
48910,Ingham County,MI,NA,13.906111603188661,NA
48912,Ingham County,MI,NA,70.77059344552701,NA
48917,Eaton County,MI,8.682634730538922,NA,NA
49009,Kalamazoo County,MI,NA,8.41452612931798,NA
49080,Allegan County,MI,NA,44.46412754650133,NA
49091,St. Joseph County,MI,NA,39.85828166519043,NA
49093,St. Joseph County,MI,NA,NA,40.59945504087194
49202,Jackson County,MI,34.63073852295409,NA,NA
49203,Jackson County,MI,6.88622754491018,7.174490699734277,10.626702997275205
49337,Newaygo County,MI,NA,61.293179805137285,NA
49340,Mecosta County,MI,NA,99.11426040744021,NA
49348,Allegan County,MI,34.03193612774451,NA,NA
49442,Muskegon County,MI,3.3932135728542914,27.63507528786537,NA
49445,Muskegon County,MI,38.12375249500998,NA,NA
49456,Ottawa County,MI,46.40718562874252,NA,NA
49505,Kent County,MI,NA,26.395039858281667,NA
49659,Antrim County,MI,NA,85.29672276350753,NA
49740,Emmet County,MI,NA,64.92471213463243,NA
49770,Emmet County,MI,63.57285429141717,52.25863596102746,NA
49779,Presque Isle County,MI,96.50698602794411,NA,NA
49801,Dickinson County,MI,NA,42.604074402125775,NA
49802,Dickinson County,MI,77.04590818363273,NA,NA
49849,Marquette County,MI,NA,54.91585473870681,NA
49858,Menominee County,MI,NA,74.04782993799823,NA
49913,Houghton County,MI,60.578842315369265,NA,NA
55063,Pine County,MN,NA,NA,68.66485013623979
55077,Dakota County,MN,91.51696606786427,NA,NA
55118,Dakota County,MN,NA,NA,26.70299727520436
55123,Dakota County,MN,NA,NA,94.82288828337875
55124,Dakota County,MN,40.5189620758483,NA,NA
55127,Ramsey County,MN,NA,78.91939769707706,NA
55317,Carver County,MN,80.73852295409182,NA,NA
55362,Wright County,MN,NA,NA,68.93732970027247
55404,Hennepin County,MN,0.8982035928143712,NA,NA
55411,Hennepin County,MN,3.093812375249501,NA,NA
55412,Hennepin County,MN,8.483033932135728,NA,NA
55437,Hennepin County,MN,86.92614770459082,NA,NA
55811,St. Louis County,MN,31.83632734530938,NA,NA
55987,Winona County,MN,34.3313373253493,NA,NA
56003,Nicollet County,MN,88.02395209580838,92.55978742249779,NA
56093,Waseca County,MN,NA,51.90434012400355,NA
56241,Yellow Medicine County,MN,NA,97.34278122232064,NA
56560,Clay County,MN,NA,3.454384410983171,NA
56716,Polk County,MN,NA,75.19929140832595,NA
38611,Marshall County,MS,NA,66.07617360496015,NA
38635,Marshall County,MS,76.44710578842316,NA,NA
38654,DeSoto County,MS,24.9500998003992,NA,NA
38821,Monroe County,MS,NA,NA,61.30790190735694
39083,Copiah County,MS,80.73852295409182,NA,NA
39111,Simpson County,MS,NA,90.16829052258636,NA
39120,Adams County,MS,43.31337325349301,NA,NA
39213,Hinds County,MS,37.3253493013972,NA,NA
39305,Lauderdale County,MS,57.38522954091816,NA,NA
39350,Neshoba County,MS,28.043912175648707,NA,NA
39401,Forrest County,MS,NA,NA,37.05722070844686
39402,Lamar County,MS,NA,NA,60.217983651226156
39429,Marion County,MS,NA,91.58547387068202,NA
39440,Jones County,MS,59.48103792415169,NA,NA
39501,Harrison County,MS,20.65868263473054,NA,NA
39540,Harrison County,MS,NA,65.63330380868024,NA
39648,Pike County,MS,21.35728542914172,NA,NA
39652,Pike County,MS,NA,82.37378210806024,NA
39654,Lawrence County,MS,NA,NA,96.73024523160763
63012,Jefferson County,MO,NA,NA,91.82561307901908
63017,St. Louis County,MO,NA,12.223206377325067,NA
63028,Jefferson County,MO,26.147704590818364,NA,NA
63034,St. Louis County,MO,64.77045908183634,NA,NA
63042,St. Louis County,MO,NA,41.36403897254207,NA
63049,Jefferson County,MO,NA,66.87333923826395,NA
63052,Jefferson County,MO,NA,61.64747564216121,NA
63105,St. Louis County,MO,NA,83.25952170062003,NA
63107,St. Louis city,MO,NA,NA,81.74386920980926
63116,St. Louis city,MO,NA,56.421612046058456,NA
63130,St. Louis County,MO,NA,NA,48.501362397820166
63136,St. Louis County,MO,6.487025948103792,NA,NA
63141,St. Louis County,MO,NA,74.75642161204605,NA
63301,St. Charles County,MO,NA,2.9229406554472983,NA
63303,St. Charles County,MO,24.65069860279441,NA,NA
63304,St. Charles County,MO,NA,14.968999114260406,NA
63366,St. Charles County,MO,NA,4.340124003542958,NA
63367,St. Charles County,MO,NA,35.96102745792737,NA
63376,St. Charles County,MO,9.780439121756487,1.41718334809566,NA
63379,Lincoln County,MO,NA,31.620903454384415,NA
63383,Warren County,MO,57.18562874251497,NA,NA
63640,St. Francois County,MO,41.51696606786427,NA,NA
63703,Cape Girardeau County,MO,NA,NA,84.74114441416893
63857,Dunklin County,MO,NA,52.70150575730735,NA
63901,Butler County,MO,14.071856287425149,NA,NA
64024,Clay County,MO,NA,38.352524357838796,NA
64029,Jackson County,MO,NA,81.31089459698848,NA
64048,Clay County,MO,92.11576846307385,98.05137289636848,NA
64050,Jackson County,MO,NA,17.183348095659877,NA
64063,Jackson County,MO,40.618762475049905,NA,NA
64064,Jackson County,MO,NA,48.62710363153233,NA
64068,Clay County,MO,8.183632734530939,NA,NA
64075,Jackson County,MO,NA,68.82196634189548,NA
64082,Jackson County,MO,71.9560878243513,NA,NA
64083,Cass County,MO,38.622754491017965,NA,NA
64086,Jackson County,MO,36.427145708582835,NA,NA
64093,Johnson County,MO,NA,37.998228520814884,NA
64155,Clay County,MO,NA,24.00354295837024,NA
64468,Nodaway County,MO,67.96407185628742,NA,NA
64503,Buchanan County,MO,27.245508982035926,NA,NA
64507,Buchanan County,MO,NA,40.035429583702395,NA
64628,Linn County,MO,NA,NA,91.00817438692098
64831,McDonald County,MO,NA,NA,92.37057220708446
64836,Jasper County,MO,NA,NA,19.618528610354225
65203,Boone County,MO,NA,11.071744906997342,NA
65233,Cooper County,MO,68.46307385229541,NA,NA
65265,Audrain County,MO,NA,NA,55.313351498637594
65355,Benton County,MO,54.890219560878236,NA,NA
65453,Crawford County,MO,NA,NA,82.56130790190736
65459,Pulaski County,MO,NA,NA,93.18801089918256
65622,Dallas County,MO,NA,87.86536758193091,NA
65785,Cedar County,MO,NA,90.87688219663418,NA
65802,Greene County,MO,NA,19.486271036315323,NA
65803,Greene County,MO,10.27944111776447,NA,24.250681198910083
59102,Yellowstone County,MT,NA,NA,0.544959128065395
59330,Dawson County,MT,NA,83.08237378210806,NA
59801,Missoula County,MT,65.36926147704591,NA,NA
68022,Douglas County,NE,75.74850299401199,NA,NA
68106,Douglas County,NE,78.3433133732535,NA,NA
68122,Douglas County,NE,NA,92.11691762621788,NA
68136,Sarpy County,NE,84.93013972055888,NA,NA
69361,Scotts Bluff County,NE,79.94011976047905,NA,NA
89108,Clark County,NV,23.652694610778443,NA,NA
89109,Clark County,NV,NA,96.98848538529671,NA
89113,Clark County,NV,NA,80.33658104517272,NA
89123,Clark County,NV,54.39121756487027,NA,NA
89128,Clark County,NV,NA,72.45349867139062,NA
89130,Clark County,NV,NA,56.421612046058456,53.40599455040872
89134,Clark County,NV,82.23552894211576,NA,NA
89135,Clark County,NV,89.52095808383234,NA,NA
89141,Clark County,NV,79.04191616766467,NA,NA
89145,Clark County,NV,NA,79.5394154118689,NA
89147,Clark County,NV,NA,NA,61.03542234332425
89149,Clark County,NV,65.86826347305389,NA,NA
89178,Clark County,NV,74.9500998003992,NA,NA
03052,Hillsborough County,NH,NA,78.7422497785651,NA
03062,Hillsborough County,NH,19.36127744510978,NA,NA
03079,Rockingham County,NH,NA,17.891939769707708,NA
03102,Hillsborough County,NH,NA,51.37289636846767,NA
03103,Hillsborough County,NH,5.289421157684631,NA,NA
03244,Hillsborough County,NH,NA,88.66253321523472,NA
03809,Belknap County,NH,NA,95.3941541186891,NA
03827,Rockingham County,NH,94.51097804391217,NA,NA
07002,Hudson County,NJ,1.2974051896207583,1.6829052258635961,NA
07003,Essex County,NJ,NA,29.052258635961024,NA
07010,Bergen County,NJ,NA,65.98759964570417,NA
07011,Passaic County,NJ,NA,28.077945084145263,NA
07029,Hudson County,NJ,NA,87.68821966341895,NA
07032,Hudson County,NJ,NA,33.392382639503985,NA
07033,Union County,NJ,NA,NA,95.64032697547684
07036,Union County,NJ,8.882235528942116,NA,NA
07044,Essex County,NJ,NA,89.45969884853852,NA
07047,Hudson County,NJ,4.590818363273453,NA,NA
07058,Morris County,NJ,97.40518962075848,NA,NA
07059,Somerset County,NJ,NA,86.09388839681134,NA
07076,Union County,NJ,99.20159680638723,NA,NA
07083,Union County,NJ,NA,29.67227635075288,NA
07090,Union County,NJ,80.53892215568862,NA,NA
07092,Union County,NJ,NA,93.62267493356953,NA
07107,Essex County,NJ,1.1976047904191618,NA,NA
07110,Essex County,NJ,NA,59.167404782993806,NA
07202,Union County,NJ,NA,41.00974313551816,32.42506811989101
07206,Union County,NJ,NA,73.16209034543844,NA
07302,Hudson County,NJ,NA,96.01417183348096,NA
07307,Hudson County,NJ,10.978043912175648,NA,NA
07424,Passaic County,NJ,40.41916167664671,NA,NA
07430,Bergen County,NJ,NA,53.41009743135518,NA
07440,Morris County,NJ,NA,98.93711248892826,NA
07461,Sussex County,NJ,41.11776447105788,NA,NA
07480,Passaic County,NJ,NA,NA,77.65667574931881
07502,Passaic County,NJ,NA,73.87068201948627,NA
07514,Passaic County,NJ,NA,70.94774136403898,NA
07522,Passaic County,NJ,NA,NA,92.09809264305177
07524,Passaic County,NJ,NA,71.12488928255092,NA
07607,Bergen County,NJ,NA,81.75376439326838,NA
07631,Bergen County,NJ,NA,24.62356067316209,NA
07663,Bergen County,NJ,NA,78.21080602302924,NA
07670,Bergen County,NJ,NA,89.5482728077945,NA
07722,Monmouth County,NJ,NA,NA,96.18528610354224
07726,Monmouth County,NJ,NA,27.723649247121347,NA
07728,Monmouth County,NJ,NA,NA,3.2697547683923704
07740,Monmouth County,NJ,93.6127744510978,NA,NA
07746,Monmouth County,NJ,80.33932135728543,NA,NA
07747,Monmouth County,NJ,NA,NA,63.76021798365122
07751,Monmouth County,NJ,NA,NA,89.91825613079018
07753,Monmouth County,NJ,NA,9.83170947741364,14.441416893732969
07860,Sussex County,NJ,27.844311377245507,NA,NA
07876,Morris County,NJ,92.41516966067864,NA,NA
07920,Somerset County,NJ,NA,62.62178919397697,NA
07960,Morris County,NJ,NA,20.814880425155007,NA
08033,Camden County,NJ,NA,89.72542072630647,NA
08043,Camden County,NJ,NA,23.472099202834368,NA
08050,Ocean County,NJ,39.221556886227546,NA,NA
08053,Burlington County,NJ,26.546906187624753,26.749335695305582,NA
08054,Burlington County,NJ,NA,14.526129317980512,NA
08077,Burlington County,NJ,NA,65.72187776793623,NA
08088,Burlington County,NJ,49.20159680638723,NA,NA
08094,Gloucester County,NJ,NA,11.691762621789193,NA
08104,Camden County,NJ,NA,2.2143489813994686,NA
08110,Camden County,NJ,13.872255489021956,NA,NA
08204,Cape May County,NJ,NA,22.67493356953056,NA
08205,Atlantic County,NJ,17.365269461077844,22.320637732506643,NA
08215,Atlantic County,NJ,NA,60.05314437555359,NA
08221,Atlantic County,NJ,90.51896207584831,NA,NA
08234,Atlantic County,NJ,NA,13.728963684676703,NA
08260,Cape May County,NJ,NA,28.3436669619132,NA
08401,Atlantic County,NJ,NA,2.657218777679362,NA
08518,Burlington County,NJ,85.02994011976048,NA,NA
08527,Ocean County,NJ,8.582834331337326,6.288751107174491,NA
08530,Hunterdon County,NJ,94.61077844311377,NA,NA
08611,Mercer County,NJ,75.94810379241517,NA,NA
08619,Mercer County,NJ,NA,59.25597874224978,NA
08701,Ocean County,NJ,2.8942115768463075,NA,NA
08731,Ocean County,NJ,NA,NA,71.93460490463215
08734,Ocean County,NJ,NA,NA,93.73297002724796
08753,Ocean County,NJ,2.4950099800399204,4.162976085031001,NA
08759,Ocean County,NJ,NA,0.8857395925597875,NA
08816,Middlesex County,NJ,69.66067864271457,NA,NA
08817,Middlesex County,NJ,NA,23.472099202834368,NA
08822,Hunterdon County,NJ,NA,36.22674933569531,NA
08831,Middlesex County,NJ,NA,9.388839681133748,NA
08844,Somerset County,NJ,NA,60.761736049601424,NA
08846,Middlesex County,NJ,71.05788423153693,NA,NA
08848,Hunterdon County,NJ,93.01397205588823,NA,NA
08857,Middlesex County,NJ,NA,NA,25.340599455040874
08861,Middlesex County,NJ,1.6966067864271457,NA,NA
08879,Middlesex County,NJ,NA,NA,76.29427792915531
08884,Middlesex County,NJ,NA,NA,92.91553133514986
87002,Valencia County,NM,NA,NA,73.29700272479565
87102,Bernalillo County,NM,NA,NA,65.66757493188011
87108,Bernalillo County,NM,NA,4.9601417183348095,NA
87110,Bernalillo County,NM,11.87624750499002,NA,NA
87111,Bernalillo County,NM,NA,45.34986713906112,NA
87123,Bernalillo County,NM,NA,31.000885739592558,NA
87144,Sandoval County,NM,NA,20.549158547387066,NA
87557,Taos County,NM,NA,83.43666961913198,NA
88030,Luna County,NM,62.4750499001996,NA,NA
88203,Chaves County,NM,NA,55.624446412754644,NA
88220,Eddy County,NM,NA,NA,27.247956403269757
88310,Otero County,NM,NA,3.720106288751107,NA
10014,New York County,NY,87.5249500998004,NA,NA
10022,New York County,NY,NA,NA,28.882833787465938
10023,New York County,NY,50.29940119760479,NA,NA
10027,New York County,NY,NA,NA,31.062670299727518
10030,New York County,NY,NA,29.67227635075288,NA
10032,New York County,NY,NA,NA,35.42234332425068
10033,New York County,NY,17.16566866267465,19.397697077059345,NA
10036,New York County,NY,NA,48.27280779450842,NA
10040,New York County,NY,33.93213572854291,NA,NA
10065,New York County,NY,NA,63.77325066430469,NA
10452,Bronx County,NY,NA,0.2657218777679362,15.531335149863759
10453,Bronx County,NY,NA,8.237378210806023,NA
10454,Bronx County,NY,NA,5.491585473870682,NA
10455,Bronx County,NY,NA,NA,20.16348773841962
10456,Bronx County,NY,2.5948103792415167,NA,NA
10457,Bronx County,NY,0.499001996007984,NA,NA
10458,Bronx County,NY,NA,NA,7.901907356948229
10461,Bronx County,NY,NA,18.24623560673162,NA
10463,Bronx County,NY,NA,3.3658104517271923,NA
10467,Bronx County,NY,NA,0.1771479185119575,NA
10473,Bronx County,NY,NA,6.111603188662533,NA
10524,Putnam County,NY,NA,NA,95.36784741144415
10541,Putnam County,NY,89.72055888223552,NA,NA
10550,Westchester County,NY,NA,24.889282550930027,NA
10566,Westchester County,NY,58.88223552894212,72.80779450841453,NA
10701,Westchester County,NY,NA,26.12931798051373,NA
10703,Westchester County,NY,NA,NA,61.85286103542234
10801,Westchester County,NY,33.532934131736525,NA,NA
10940,Orange County,NY,48.70259481037924,NA,NA
10950,Orange County,NY,NA,86.80248007085916,NA
11040,Nassau County,NY,NA,NA,34.05994550408719
11206,Kings County,NY,NA,0.70859167404783,NA
11208,Kings County,NY,7.285429141716566,NA,20.708446866485016
11210,Kings County,NY,44.510978043912175,NA,NA
11213,Kings County,NY,4.69061876247505,5.225863596102745,NA
11214,Kings County,NY,16.56686626746507,NA,NA
11215,Kings County,NY,82.03592814371258,NA,NA
11216,Kings County,NY,10.67864271457086,7.6173604960141725,NA
11218,Kings County,NY,17.465069860279442,NA,NA
11219,Kings County,NY,13.672654690618764,NA,NA
11224,Kings County,NY,NA,4.871567759078831,NA
11232,Kings County,NY,NA,91.2311780336581,NA
11233,Kings County,NY,NA,11.780336581045173,NA
11236,Kings County,NY,NA,NA,9.536784741144414
11237,Kings County,NY,25.54890219560878,NA,NA
11355,Queens County,NY,NA,54.56155890168291,NA
11372,Queens County,NY,31.736526946107784,NA,NA
11413,Queens County,NY,49.9001996007984,NA,NA
11417,Queens County,NY,NA,NA,78.4741144414169
11418,Queens County,NY,46.9061876247505,NA,NA
11420,Queens County,NY,NA,NA,37.32970027247956
11432,Queens County,NY,27.644710578842314,NA,NA
11510,Nassau County,NY,NA,43.666961913197525,NA
11563,Nassau County,NY,NA,86.27103631532329,NA
11575,Nassau County,NY,NA,NA,91.55313351498637
11692,Queens County,NY,NA,NA,84.19618528610354
11720,Suffolk County,NY,73.05389221556887,NA,NA
11743,Suffolk County,NY,76.84630738522954,NA,17.71117166212534
11763,Suffolk County,NY,77.14570858283433,NA,NA
11772,Suffolk County,NY,NA,26.57218777679362,NA
11778,Suffolk County,NY,86.02794411177645,NA,NA
11787,Suffolk County,NY,NA,NA,35.14986376021799
11793,Nassau County,NY,NA,67.49335695305581,NA
11946,Suffolk County,NY,NA,94.41984056687333,NA
11967,Suffolk County,NY,33.33333333333333,NA,NA
12010,Montgomery County,NY,4.8902195608782435,4.694419840566874,NA
12019,Saratoga County,NY,NA,62.8875110717449,73.56948228882834
12020,Saratoga County,NY,20.85828343313373,28.166519043401237,NA
12047,Albany County,NY,30.13972055888224,NA,NA
12057,Washington County,NY,NA,99.82285208148805,NA
12061,Rensselaer County,NY,NA,89.81399468556245,NA
12077,Albany County,NY,NA,97.78565101860053,NA
12159,Albany County,NY,NA,NA,79.56403269754769
12180,Rensselaer County,NY,NA,8.857395925597874,12.26158038147139
12303,Schenectady County,NY,NA,NA,40.87193460490463
12304,Schenectady County,NY,NA,40.74402125775023,NA
12414,Greene County,NY,NA,NA,77.3841961852861
12524,Dutchess County,NY,NA,93.88839681133747,NA
12603,Dutchess County,NY,75.44910179640718,NA,NA
12809,Washington County,NY,93.11377245508982,NA,NA
12883,Essex County,NY,80.23952095808383,NA,NA
12901,Clinton County,NY,NA,4.517271922054915,8.446866485013624
12953,Franklin County,NY,18.862275449101794,NA,26.975476839237057
12962,Clinton County,NY,NA,NA,86.10354223433242
12972,Clinton County,NY,84.23153692614771,NA,NA
12981,Clinton County,NY,95.50898203592814,NA,NA
12992,Clinton County,NY,NA,NA,98.36512261580381
13027,Onondaga County,NY,NA,53.055801594331264,NA
13030,Madison County,NY,81.53692614770459,NA,NA
13032,Madison County,NY,33.73253493013972,NA,NA
13033,Cayuga County,NY,NA,98.75996457041629,NA
13036,Oswego County,NY,NA,83.17094774136405,NA
13045,Cortland County,NY,NA,NA,45.50408719346049
13066,Onondaga County,NY,89.92015968063872,NA,NA
13069,Oswego County,NY,NA,NA,52.86103542234333
13073,Tompkins County,NY,60.27944111776448,NA,NA
13077,Cortland County,NY,86.12774451097805,70.23914968999114,NA
13082,Madison County,NY,75.0499001996008,NA,NA
13088,Onondaga County,NY,28.642714570858285,NA,NA
13090,Onondaga County,NY,67.66467065868264,66.43046944198406,NA
13126,Oswego County,NY,NA,6.111603188662533,NA
13148,Seneca County,NY,26.047904191616766,NA,NA
13152,Onondaga County,NY,43.31337325349301,84.41098317094774,NA
13158,Cortland County,NY,97.0059880239521,NA,NA
13203,Onondaga County,NY,NA,55.27015057573074,NA
13215,Onondaga County,NY,53.59281437125748,NA,NA
13219,Onondaga County,NY,NA,82.01948627103631,NA
13224,Onondaga County,NY,48.60279441117765,NA,NA
13309,Oneida County,NY,70.05988023952095,NA,NA
13323,Oneida County,NY,NA,51.461470327723646,NA
13339,Montgomery County,NY,NA,55.0044286979628,NA
13340,Herkimer County,NY,NA,71.83348095659876,NA
13357,Herkimer County,NY,NA,56.2444641275465,NA
13421,Madison County,NY,59.08183632734531,NA,NA
13425,Oneida County,NY,NA,99.29140832595216,NA
13440,Oneida County,NY,1.996007984031936,NA,NA
13492,Oneida County,NY,NA,50.31000885739593,NA
13601,Jefferson County,NY,NA,17.803365810451727,NA
13617,St. Lawrence County,NY,NA,36.58104517271922,NA
13662,St. Lawrence County,NY,NA,15.943312666076173,NA
13669,St. Lawrence County,NY,NA,23.472099202834368,NA
13790,Broome County,NY,8.78243512974052,NA,NA
13797,Broome County,NY,94.91017964071857,NA,NA
13830,Chenango County,NY,NA,NA,76.83923705722071
13901,Broome County,NY,4.091816367265469,3.277236492471213,NA
14013,Genesee County,NY,99.10179640718563,NA,NA
14020,Genesee County,NY,12.075848303393213,NA,NA
14048,Chautauqua County,NY,NA,43.932683790965456,NA
14067,Niagara County,NY,NA,90.87688219663418,NA
14075,Erie County,NY,NA,5.757307351638618,NA
14085,Erie County,NY,85.52894211576846,NA,NA
14086,Erie County,NY,54.29141716566866,57.30735163861824,NA
14092,Niagara County,NY,81.23752495009981,NA,NA
14094,Niagara County,NY,14.271457085828343,NA,NA
14120,Niagara County,NY,NA,6.643046944198405,NA
14127,Erie County,NY,15.868263473053892,NA,NA
14141,Erie County,NY,84.83033932135729,NA,NA
14150,Erie County,NY,5.189620758483033,NA,NA
14208,Erie County,NY,30.239520958083833,NA,NA
14215,Erie County,NY,1.8962075848303395,6.8201948627103635,NA
14216,Erie County,NY,NA,41.71833480956599,NA
14218,Erie County,NY,19.760479041916167,NA,NA
14221,Erie County,NY,NA,2.3029229406554474,16.893732970027248
14222,Erie County,NY,NA,68.3790965456156,NA
14224,Erie County,NY,NA,40.47829937998229,NA
14225,Erie County,NY,8.08383233532934,16.386182462356068,NA
14420,Monroe County,NY,16.16766467065868,21.523472099202834,NA
14422,Genesee County,NY,NA,97.25420726306466,NA
14424,Ontario County,NY,2.694610778443114,NA,NA
14450,Monroe County,NY,NA,32.94951284322409,NA
14456,Ontario County,NY,NA,31.089459698848536,NA
14482,Genesee County,NY,NA,73.60496014171834,NA
14516,Wayne County,NY,98.10379241516966,94.24269264836138,NA
14522,Wayne County,NY,34.930139720558884,NA,NA
14526,Monroe County,NY,15.6686626746507,NA,NA
14532,Ontario County,NY,56.786427145708586,NA,NA
14534,Monroe County,NY,NA,16.563330380868024,NA
14551,Wayne County,NY,79.44111776447106,NA,NA
14561,Ontario County,NY,82.83433133732535,NA,NA
14564,Ontario County,NY,20.55888223552894,NA,NA
14580,Monroe County,NY,NA,0.08857395925597875,NA
14586,Monroe County,NY,NA,67.84765279007972,NA
14606,Monroe County,NY,NA,45.881310894596986,NA
14612,Monroe County,NY,2.2954091816367264,NA,NA
14615,Monroe County,NY,11.477045908183632,NA,NA
14616,Monroe County,NY,3.293413173652695,NA,NA
14619,Monroe County,NY,NA,42.42692648361382,NA
14626,Monroe County,NY,NA,3.100088573959256,8.71934604904632
14701,Chautauqua County,NY,NA,17.271922054915855,NA
14760,Cattaraugus County,NY,9.481037924151696,NA,NA
14843,Steuben County,NY,NA,33.12666076173605,NA
27030,Surry County,NC,5.788423153692615,NA,NA
27105,Forsyth County,NC,2.3952095808383236,NA,9.809264305177113
27107,Forsyth County,NC,4.291417165668663,NA,NA
27205,Randolph County,NC,NA,25.952170062001773,NA
27239,Davidson County,NC,69.96007984031935,77.94508414526129,NA
27244,Alamance County,NC,87.92415169660678,79.09654561558902,NA
27284,Forsyth County,NC,30.439121756487026,NA,NA
27295,Davidson County,NC,3.992015968063872,NA,NA
27332,Lee County,NC,NA,NA,56.94822888283378
27360,Davidson County,NC,NA,4.251550044286979,NA
27405,Guilford County,NC,NA,12.931798051372898,NA
27514,Orange County,NC,NA,NA,41.689373297002724
27516,Orange County,NC,32.13572854291417,NA,NA
27518,Wake County,NC,NA,55.18157661647476,NA
27529,Wake County,NC,26.24750499001996,NA,NA
27536,Vance County,NC,29.94011976047904,NA,NA
27540,Wake County,NC,NA,50.3985828166519,NA
27565,Granville County,NC,NA,NA,33.5149863760218
27701,Durham County,NC,48.80239520958084,NA,NA
27855,Hertford County,NC,NA,NA,98.63760217983652
27889,Beaufort County,NC,32.23552894211577,NA,NA
28012,Gaston County,NC,NA,53.85296722763508,NA
28037,Lincoln County,NC,NA,51.72719220549159,NA
28168,Lincoln County,NC,73.95209580838323,NA,NA
28210,Mecklenburg County,NC,NA,NA,36.78474114441417
28214,Mecklenburg County,NC,NA,92.38263950398583,NA
28305,Cumberland County,NC,NA,NA,86.64850136239782
28315,Moore County,NC,NA,78.38795394154118,NA
28334,Sampson County,NC,NA,30.558015943312668,NA
28451,Brunswick County,NC,NA,25.33215234720992,NA
28501,Lenoir County,NC,NA,45.527015057573074,NA
28602,Catawba County,NC,23.45309381237525,NA,NA
28640,Ashe County,NC,NA,90.61116031886625,NA
28677,Iredell County,NC,NA,20.726306465899025,NA
28697,Wilkes County,NC,NA,86.27103631532329,NA
28714,Yancey County,NC,NA,46.235606731620905,NA
28734,Macon County,NC,NA,8.325952170062003,NA
28739,Henderson County,NC,NA,13.28609388839681,NA
28748,Buncombe County,NC,63.07385229540918,NA,NA
28786,Haywood County,NC,37.22554890219561,NA,NA
28904,Clay County,NC,91.91616766467065,NA,NA
58103,Cass County,ND,NA,NA,18.80108991825613
58701,Ward County,ND,NA,NA,1.6348773841961852
43015,Delaware County,OH,NA,6.465899025686449,NA
43021,Delaware County,OH,90.31936127744511,NA,NA
43025,Licking County,OH,NA,NA,97.00272479564033
43028,Knox County,OH,NA,80.77945084145261,NA
43055,Licking County,OH,NA,0.5314437555358724,NA
43068,Franklin County,OH,NA,10.45172719220549,NA
43081,Franklin County,OH,NA,43.844109831709474,NA
43110,Franklin County,OH,24.9500998003992,NA,NA
43113,Pickaway County,OH,NA,NA,10.899182561307901
43123,Franklin County,OH,6.58682634730539,NA,NA
43130,Fairfield County,OH,1.7964071856287425,NA,NA
43138,Hocking County,OH,31.636726546906186,NA,NA
43146,Pickaway County,OH,NA,90.07971656333038,NA
43201,Franklin County,OH,48.30339321357285,NA,NA
43206,Franklin County,OH,NA,57.9273693534101,NA
43207,Franklin County,OH,NA,6.37732506643047,NA
43223,Franklin County,OH,5.489021956087824,26.30646589902569,NA
43228,Franklin County,OH,3.493013972055888,NA,NA
43229,Franklin County,OH,NA,9.12311780336581,63.48773841961853
43231,Franklin County,OH,47.40518962075848,NA,NA
43311,Logan County,OH,NA,38.08680248007086,NA
43351,Wyandot County,OH,42.61477045908183,NA,NA
43512,Defiance County,OH,4.191616766467066,NA,NA
43537,Lucas County,OH,30.039920159680637,NA,NA
43543,Williams County,OH,NA,58.81310894596988,NA
43558,Fulton County,OH,NA,NA,66.4850136239782
43611,Lucas County,OH,14.770459081836327,NA,NA
43612,Lucas County,OH,23.253493013972058,NA,NA
43613,Lucas County,OH,3.592814371257485,NA,NA
43615,Lucas County,OH,NA,NA,11.716621253405995
43756,Morgan County,OH,NA,NA,70.02724795640327
43830,Muskingum County,OH,NA,95.30558015943312,NA
44001,Lorain County,OH,63.97205588822356,NA,NA
44017,Cuyahoga County,OH,NA,NA,34.60490463215259
44024,Geauga County,OH,88.82235528942117,NA,NA
44030,Ashtabula County,OH,24.151696606786427,NA,NA
44035,Lorain County,OH,NA,NA,0
44039,Lorain County,OH,NA,44.28697962798937,4.904632152588556
44052,Lorain County,OH,NA,1.5943312666076175,NA
44055,Lorain County,OH,NA,19.13197519929141,NA
44057,Lake County,OH,63.47305389221557,NA,NA
44074,Lorain County,OH,NA,NA,60.49046321525886
44077,Lake County,OH,NA,2.3914968999114263,NA
44102,Cuyahoga County,OH,0.29940119760479045,NA,NA
44105,Cuyahoga County,OH,NA,NA,25.885558583106267
44106,Cuyahoga County,OH,78.74251497005989,NA,NA
44107,Cuyahoga County,OH,NA,2.568644818423383,NA
44110,Cuyahoga County,OH,8.982035928143713,NA,NA
44113,Cuyahoga County,OH,7.0858283433133735,NA,NA
44115,Cuyahoga County,OH,NA,87.15677590788307,NA
44122,Cuyahoga County,OH,NA,29.93799822852081,NA
44125,Cuyahoga County,OH,1.097804391217565,NA,NA
44126,Cuyahoga County,OH,53.1936127744511,NA,NA
44131,Cuyahoga County,OH,NA,17.980513728963686,NA
44133,Cuyahoga County,OH,28.343313373253494,NA,NA
44136,Cuyahoga County,OH,63.27345309381237,NA,NA
44143,Cuyahoga County,OH,NA,NA,1.9073569482288828
44144,Cuyahoga County,OH,41.71656686626746,NA,NA
44202,Portage County,OH,NA,19.309123117803363,11.989100817438691
44212,Medina County,OH,NA,0.354295837023915,NA
44224,Summit County,OH,23.15369261477046,NA,NA
44236,Summit County,OH,55.98802395209581,NA,NA
44278,Summit County,OH,61.377245508982035,NA,NA
44303,Summit County,OH,NA,72.63064658990257,NA
44321,Summit County,OH,NA,45.61558901682905,NA
44405,Mahoning County,OH,NA,68.02480070859167,NA
44408,Columbiana County,OH,75.249500998004,NA,NA
44410,Trumbull County,OH,NA,64.03897254207263,NA
44420,Trumbull County,OH,71.25748502994011,NA,NA
44446,Trumbull County,OH,13.572854291417165,NA,NA
44460,Columbiana County,OH,21.856287425149702,NA,NA
44470,Trumbull County,OH,99.40119760479041,NA,NA
44481,Trumbull County,OH,28.542914171656687,NA,NA
44483,Trumbull County,OH,NA,12.577502214348982,NA
44511,Mahoning County,OH,NA,33.746678476527904,NA
44514,Mahoning County,OH,NA,32.063773250664305,NA
44601,Stark County,OH,NA,9.03454384410983,NA
44615,Carroll County,OH,77.34530938123753,NA,NA
44632,Stark County,OH,NA,94.50841452612931,NA
44646,Stark County,OH,NA,12.400354295837024,NA
44691,Wayne County,OH,52.8942115768463,NA,NA
44703,Stark County,OH,52.59481037924152,NA,NA
44705,Stark County,OH,NA,38.52967227635075,NA
44805,Ashland County,OH,13.17365269461078,30.912311780336584,NA
44820,Crawford County,OH,23.852295409181636,NA,NA
44870,Erie County,OH,NA,2.0372010628875112,NA
45103,Clermont County,OH,NA,24.80070859167405,NA
45150,Clermont County,OH,38.32335329341318,NA,NA
45169,Clinton County,OH,NA,97.69707705934455,NA
45208,Hamilton County,OH,NA,83.96811337466785,NA
45211,Hamilton County,OH,NA,32.24092116917626,NA
45214,Hamilton County,OH,49.30139720558882,NA,NA
45215,Hamilton County,OH,NA,NA,39.23705722070845
45233,Hamilton County,OH,NA,72.63064658990257,NA
45237,Hamilton County,OH,30.439121756487026,NA,NA
45238,Hamilton County,OH,NA,NA,13.35149863760218
45241,Hamilton County,OH,NA,39.76970770593445,NA
45246,Hamilton County,OH,NA,69.1762621789194,NA
45311,Preble County,OH,NA,NA,96.18528610354224
45323,Clark County,OH,94.01197604790418,NA,NA
45324,Greene County,OH,9.181636726546905,17.44906997342781,NA
45356,Miami County,OH,NA,NA,30.517711171662125
45365,Shelby County,OH,NA,14.260407440212578,NA
45373,Miami County,OH,5.888223552894212,NA,NA
45385,Greene County,OH,NA,8.591674047829938,NA
45459,Montgomery County,OH,NA,21.523472099202834,NA
45503,Clark County,OH,6.786427145708583,12.66607617360496,NA
45638,Lawrence County,OH,4.491017964071856,NA,NA
45648,Scioto County,OH,NA,56.59875996457041,NA
45662,Scioto County,OH,2.7944111776447107,NA,3.8147138964577656
45680,Lawrence County,OH,12.77445109780439,31.975199291408323,NA
45744,Washington County,OH,98.90219560878243,NA,NA
45750,Washington County,OH,NA,NA,1.3623978201634876
45784,Washington County,OH,74.55089820359282,NA,NA
45806,Allen County,OH,64.97005988023952,NA,NA
45840,Hancock County,OH,NA,2.4800708591674048,NA
45844,Putnam County,OH,97.80439121756487,NA,NA
45891,Van Wert County,OH,NA,25.686448184233836,NA
73008,Oklahoma County,OK,88.42315369261478,NA,NA
73010,McClain County,OK,47.80439121756487,NA,NA
73012,Oklahoma County,OK,NA,49.68999114260407,64.30517711171662
73013,Oklahoma County,OK,NA,9.743135518157661,NA
73069,Cleveland County,OK,NA,NA,51.22615803814714
73099,Canadian County,OK,NA,6.023029229406554,21.25340599455041
73119,Oklahoma County,OK,24.251497005988025,NA,NA
73160,Cleveland County,OK,42.71457085828344,30.20372010628875,NA
73170,Cleveland County,OK,NA,15.234720992028345,43.32425068119891
73439,Marshall County,OK,NA,85.3852967227635,NA
73505,Comanche County,OK,24.251497005988025,NA,NA
74008,Tulsa County,OK,68.6626746506986,NA,NA
74011,Tulsa County,OK,NA,47.20992028343667,NA
74019,Rogers County,OK,48.20359281437126,NA,NA
74066,Creek County,OK,32.93413173652694,NA,NA
74114,Tulsa County,OK,88.72255489021956,NA,NA
74133,Tulsa County,OK,32.734530938123754,NA,NA
74403,Muskogee County,OK,34.830339321357286,NA,NA
74955,Sequoyah County,OK,60.87824351297405,85.56244464127548,NA
97008,Washington County,OR,59.48103792415169,NA,NA
97045,Clackamas County,OR,NA,11.426040744021257,NA
97071,Marion County,OR,NA,60.8503100088574,NA
97080,Multnomah County,OR,60.17964071856288,NA,NA
97202,Multnomah County,OR,29.44111776447106,NA,NA
97210,Multnomah County,OR,NA,92.73693534100974,NA
97222,Clackamas County,OR,NA,34.012400354295835,NA
97478,Lane County,OR,NA,47.82993799822852,NA
97504,Jackson County,OR,22.055888223552895,NA,NA
97703,Deschutes County,OR,84.03193612774452,NA,NA
97739,Deschutes County,OR,93.41317365269461,NA,NA
97756,Deschutes County,OR,71.15768463073853,NA,NA
15009,Beaver County,PA,NA,40.56687333923826,NA
15010,Beaver County,PA,22.654690618762473,NA,NA
15024,Allegheny County,PA,88.32335329341318,NA,NA
15045,Allegheny County,PA,NA,93.62267493356953,NA
15084,Allegheny County,PA,NA,92.02834366696192,NA
15085,Westmoreland County,PA,NA,77.41364038972543,NA
15108,Allegheny County,PA,41.21756487025948,NA,NA
15129,Allegheny County,PA,81.3373253493014,NA,NA
15136,Allegheny County,PA,NA,38.17537643932683,NA
15202,Allegheny County,PA,NA,76.79362267493357,NA
15207,Allegheny County,PA,NA,76.70504871567759,NA
15216,Allegheny County,PA,NA,53.67581930912312,59.67302452316077
15234,Allegheny County,PA,NA,NA,56.403269754768395
15235,Allegheny County,PA,NA,15.854738706820196,NA
15237,Allegheny County,PA,NA,24.53498671390611,NA
15301,Washington County,PA,NA,4.605845881310895,NA
15401,Fayette County,PA,NA,4.782993799822853,NA
15601,Westmoreland County,PA,NA,0.7971656333038087,NA
15613,Westmoreland County,PA,67.26546906187625,NA,NA
15650,Westmoreland County,PA,15.469061876247507,NA,NA
15668,Westmoreland County,PA,82.33532934131736,NA,NA
15690,Westmoreland County,PA,78.44311377245509,NA,NA
15825,Jefferson County,PA,NA,46.50132860938884,NA
15905,Cambria County,PA,NA,37.9096545615589,NA
16001,Butler County,PA,NA,NA,2.997275204359673
16117,Lawrence County,PA,NA,NA,29.70027247956403
16150,Mercer County,PA,NA,72.27635075287864,NA
16201,Armstrong County,PA,NA,10.717449069973428,18.256130790190735
16214,Clarion County,PA,75.74850299401199,NA,NA
16242,Clarion County,PA,97.50499001996008,NA,NA
16314,Crawford County,PA,NA,NA,97.54768392370572
16335,Crawford County,PA,39.421157684630735,NA,NA
16505,Erie County,PA,NA,59.78742249778565,NA
16601,Blair County,PA,NA,7.7945084145261285,NA
16635,Blair County,PA,92.51497005988024,NA,NA
16701,McKean County,PA,NA,NA,23.160762942779293
16801,Centre County,PA,NA,30.646589902568643,NA
16823,Centre County,PA,22.85429141716567,NA,NA
17013,Cumberland County,PA,21.856287425149702,NA,NA
17025,Cumberland County,PA,34.930139720558884,NA,NA
17036,Dauphin County,PA,NA,NA,29.155313351498634
17042,Lebanon County,PA,24.75049900199601,NA,NA
17050,Cumberland County,PA,NA,10.008857395925599,NA
17051,Mifflin County,PA,NA,81.84233835252435,NA
17055,Cumberland County,PA,NA,NA,10.899182561307901
17066,Huntingdon County,PA,NA,87.59964570416298,NA
17070,Cumberland County,PA,76.54690618762476,44.552701505757305,NA
17078,Lebanon County,PA,18.163672654690618,11.2488928255093,NA
17112,Dauphin County,PA,NA,5.137289636846766,NA
17202,Franklin County,PA,29.540918163672654,NA,NA
17268,Franklin County,PA,NA,NA,18.52861035422343
17319,York County,PA,NA,72.8963684676705,NA
17325,Adams County,PA,NA,5.048715677590788,NA
17366,York County,PA,87.62475049900199,NA,NA
17403,York County,PA,NA,21.78919397697077,NA
17404,York County,PA,11.57684630738523,48.095659875996454,NA
17408,York County,PA,43.6127744510978,NA,NA
17543,Lancaster County,PA,NA,11.33746678476528,NA
17584,Lancaster County,PA,NA,76.97077059344552,NA
17777,Northumberland County,PA,NA,81.48804251550045,NA
18020,Northampton County,PA,NA,32.063773250664305,NA
18032,Lehigh County,PA,59.88023952095808,NA,77.9291553133515
18045,Northampton County,PA,NA,NA,13.623978201634879
18102,Lehigh County,PA,0.7984031936127743,NA,NA
18104,Lehigh County,PA,14.870259481037923,3.631532329495128,NA
18201,Luzerne County,PA,NA,25.4207263064659,NA
18512,Lackawanna County,PA,87.32534930139721,NA,NA
18634,Luzerne County,PA,NA,NA,64.03269754768392
18914,Bucks County,PA,NA,58.990256864481836,NA
18966,Bucks County,PA,17.56487025948104,NA,NA
18969,Montgomery County,PA,67.36526946107784,NA,NA
18976,Bucks County,PA,NA,46.05845881310894,NA
19006,Montgomery County,PA,50.0998003992016,69.88485385296724,NA
19015,Delaware County,PA,NA,45.96988485385297,NA
19026,Delaware County,PA,18.46307385229541,NA,NA
19036,Delaware County,PA,55.88822355289421,NA,NA
19057,Bucks County,PA,66.46706586826348,NA,NA
19067,Bucks County,PA,NA,7.528786536758194,NA
19082,Delaware County,PA,10.778443113772456,26.83790965456156,NA
19083,Delaware County,PA,NA,13.551815766164749,NA
19087,Chester County,PA,NA,24.62356067316209,NA
19103,Philadelphia County,PA,NA,NA,28.065395095367844
19111,Philadelphia County,PA,3.6926147704590817,NA,NA
19115,Philadelphia County,PA,NA,17.980513728963686,NA
19116,Philadelphia County,PA,NA,14.880425155004428,NA
19124,Philadelphia County,PA,7.884231536926148,NA,NA
19132,Philadelphia County,PA,5.389221556886228,NA,NA
19134,Philadelphia County,PA,3.1936127744510974,NA,NA
19140,Philadelphia County,PA,15.968063872255488,NA,NA
19143,Philadelphia County,PA,NA,0.6200177147918512,NA
19147,Philadelphia County,PA,NA,29.317980513728966,NA
19148,Philadelphia County,PA,NA,13.994685562444642,NA
19152,Philadelphia County,PA,19.960079840319363,NA,NA
19335,Chester County,PA,50.59880239520959,NA,NA
19352,Chester County,PA,89.42115768463074,NA,NA
19363,Chester County,PA,NA,73.95925597874225,NA
19380,Chester County,PA,11.976047904191617,NA,NA
19403,Montgomery County,PA,NA,NA,7.084468664850137
19426,Montgomery County,PA,NA,68.3790965456156,NA
19446,Montgomery County,PA,NA,72.0992028343667,NA
19512,Berks County,PA,NA,52.0814880425155,NA
19525,Montgomery County,PA,NA,46.58990256864482,NA
19526,Berks County,PA,NA,61.38175376439327,NA
19608,Berks County,PA,NA,24.357838795394155,NA
02806,Bristol County,RI,NA,69.70770593445526,NA
02816,Kent County,RI,29.241516966067866,50.13286093888397,NA
02822,Washington County,RI,92.31536926147704,NA,NA
02852,Washington County,RI,45.40918163672655,NA,NA
02888,Kent County,RI,51.49700598802395,NA,NA
02889,Kent County,RI,26.44710578842315,18.157661647475642,NA
02893,Kent County,RI,37.12574850299401,NA,NA
02895,Providence County,RI,NA,64.83613817537643,NA
02905,Providence County,RI,NA,44.906997342781224,NA
02909,Providence County,RI,20.059880239520957,NA,NA
02917,Providence County,RI,80.63872255489022,NA,NA
29053,Lexington County,SC,NA,73.69353410097432,NA
29063,Richland County,SC,NA,49.68999114260407,NA
29072,Lexington County,SC,NA,65.36758193091231,NA
29073,Lexington County,SC,23.952095808383234,NA,NA
29203,Richland County,SC,39.62075848303393,NA,NA
29209,Richland County,SC,NA,NA,72.75204359673025
29210,Richland County,SC,NA,NA,58.58310626702997
29307,Spartanburg County,SC,NA,71.47918511957484,NA
29316,Spartanburg County,SC,40.119760479041915,NA,NA
29340,Cherokee County,SC,41.71656686626746,NA,NA
29349,Spartanburg County,SC,60.778443113772454,20.106288751107172,NA
29379,Union County,SC,NA,NA,58.31062670299727
29385,Spartanburg County,SC,88.02395209580838,NA,NA
29414,Charleston County,SC,34.231536926147704,NA,NA
29440,Georgetown County,SC,47.70459081836327,47.38706820194863,NA
29486,Berkeley County,SC,NA,49.42426926483614,NA
29505,Florence County,SC,NA,54.472984942426926,NA
29527,Horry County,SC,50.898203592814376,49.158547387068204,NA
29585,Georgetown County,SC,NA,NA,42.50681198910082
29611,Greenville County,SC,12.874251497005988,NA,NA
29625,Anderson County,SC,NA,NA,55.04087193460491
29650,Greenville County,SC,NA,45.261293179805136,NA
29651,Greenville County,SC,22.45508982035928,NA,NA
29662,Greenville County,SC,NA,61.91319751992914,NA
29673,Greenville County,SC,NA,NA,68.11989100817438
29681,Greenville County,SC,28.2435129740519,NA,NA
29687,Greenville County,SC,32.23552894211577,60.49601417183348,NA
29692,Laurens County,SC,NA,96.72276350752878,NA
29697,Anderson County,SC,73.75249500998004,NA,NA
29702,Cherokee County,SC,NA,80.95659875996458,NA
29715,York County,SC,69.46107784431138,NA,NA
29745,York County,SC,53.69261477045908,NA,NA
29801,Aiken County,SC,NA,80.24800708591674,NA
29910,Beaufort County,SC,71.8562874251497,NA,NA
57042,Lake County,SD,94.01197604790418,NA,NA
57069,Clay County,SD,NA,91.674047829938,NA
57105,Minnehaha County,SD,NA,11.95748449955713,NA
57108,Lincoln County,SD,NA,20.372010628875113,NA
57401,Brown County,SD,NA,8.591674047829938,NA
57701,Pennington County,SD,20.25948103792415,NA,NA
57783,Lawrence County,SD,72.55489021956087,NA,NA
37013,Davidson County,TN,10.179640718562874,NA,NA
37015,Cheatham County,TN,NA,46.76705048715677,NA
37027,Williamson County,TN,NA,61.116031886625336,NA
37040,Montgomery County,TN,NA,34.366696191319754,NA
37058,Stewart County,TN,NA,NA,99.1825613079019
37064,Williamson County,TN,47.90419161676647,NA,NA
37066,Sumner County,TN,9.880239520958083,NA,NA
37069,Williamson County,TN,90.11976047904191,NA,NA
37073,Robertson County,TN,87.82435129740519,NA,NA
37075,Sumner County,TN,48.40319361277445,NA,NA
37091,Marshall County,TN,NA,NA,68.39237057220708
37115,Davidson County,TN,11.676646706586826,NA,NA
37122,Wilson County,TN,NA,63.418954827280785,NA
37148,Sumner County,TN,NA,NA,67.8474114441417
37166,DeKalb County,TN,59.980039920159676,NA,NA
37204,Davidson County,TN,NA,89.01682905225864,NA
37209,Davidson County,TN,NA,58.458813108945975,NA
37329,McMinn County,TN,NA,93.002657218777685,NA
37343,Hamilton County,TN,NA,60.4074402125775,NA
37347,Marion County,TN,NA,87.42249778565102,NA
37363,Hamilton County,TN,NA,43.312666076173606,NA
37367,Bledsoe County,TN,88.22355289421158,NA,NA
37379,Hamilton County,TN,NA,31.886625332152345,70.29972752043598
37403,Hamilton County,TN,99.9001996007984,NA,NA
37404,Hamilton County,TN,NA,78.56510186005315,NA
37411,Hamilton County,TN,40.21956087824351,NA,NA
37601,Washington County,TN,17.065868263473057,NA,NA
37604,Washington County,TN,NA,20.194862710363154,NA
37615,Washington County,TN,NA,61.55890168290522,NA
37643,Carter County,TN,NA,8.060230292294065,NA
37659,Washington County,TN,38.02395209580838,30.380868024800712,29.427792915531338
37683,Johnson County,TN,83.33333333333334,NA,NA
37745,Greene County,TN,NA,23.737821080602302,NA
37813,Hamblen County,TN,NA,65.10186005314438,NA
37814,Hamblen County,TN,33.13373253493014,NA,39.509536784741144
37821,Cocke County,TN,15.568862275449103,NA,NA
37841,Scott County,TN,76.64670658682635,NA,NA
37849,Knox County,TN,NA,NA,50.40871934604905
37862,Sevier County,TN,39.321357285429144,NA,NA
37877,Hamblen County,TN,NA,90.16829052258636,NA
37919,Knox County,TN,56.4870259481038,NA,NA
37921,Knox County,TN,NA,85.8281665190434,NA
38017,Shelby County,TN,NA,53.055801594331264,NA
38024,Dyer County,TN,25.64870259481038,NA,NA
38063,Lauderdale County,TN,NA,NA,76.02179836512262
38111,Shelby County,TN,NA,48.804251550044285,NA
38114,Shelby County,TN,NA,69.9734278122232,NA
38116,Shelby County,TN,19.06187624750499,33.48095659875997,NA
38125,Shelby County,TN,NA,74.2249778565102,NA
38128,Shelby County,TN,21.157684630738522,NA,71.38964577656675
38242,Henry County,TN,NA,NA,54.76839237057221
38261,Obion County,TN,NA,36.49247121346324,NA
38305,Madison County,TN,57.98403193612774,NA,NA
38358,Gibson County,TN,NA,NA,65.9400544959128
38464,Lawrence County,TN,NA,32.683790965456154,NA
38478,Giles County,TN,NA,63.86182462356067,NA
38555,Cumberland County,TN,NA,NA,34.87738419618528
38558,Cumberland County,TN,NA,52.43578387953941,44.6866485013624
38583,White County,TN,NA,29.849424269264833,NA
75006,Dallas County,TX,NA,65.89902568644818,NA
75010,Denton County,TX,NA,80.15943312666076,NA
75025,Collin County,TX,58.68263473053892,56.775907883082375,NA
75035,Collin County,TX,72.15568862275448,NA,NA
75043,Dallas County,TX,NA,54.65013286093888,NA
75052,Dallas County,TX,NA,11.514614703277235,NA
75054,Tarrant County,TX,NA,NA,100
75056,Denton County,TX,32.53493013972056,85.11957484499557,NA
75062,Dallas County,TX,47.50499001996008,NA,NA
75068,Denton County,TX,32.83433133732535,NA,NA
75069,Collin County,TX,NA,34.9867139061116,NA
75070,Collin County,TX,NA,10.806023029229408,19.07356948228883
75071,Collin County,TX,29.740518962075846,NA,NA
75075,Collin County,TX,NA,35.60673162090345,NA
75078,Collin County,TX,79.54091816367266,NA,NA
75081,Dallas County,TX,90.61876247504989,50.487156775907884,NA
75088,Dallas County,TX,70.45908183632734,NA,NA
75089,Dallas County,TX,NA,70.59344552701505,NA
75098,Collin County,TX,NA,39.23826395039858,NA
75104,Dallas County,TX,25.149700598802394,NA,80.92643051771117
75115,Dallas County,TX,NA,NA,27.520435967302454
75146,Dallas County,TX,63.772455089820355,NA,NA
75149,Dallas County,TX,52.69461077844312,31.44375553587245,NA
75154,Ellis County,TX,45.70858283433134,NA,NA
75165,Ellis County,TX,NA,NA,67.30245231607628
75169,Van Zandt County,TX,NA,NA,73.02452316076294
75201,Dallas County,TX,NA,97.0770593445527,NA
75224,Dallas County,TX,NA,41.984056687333926,NA
75225,Dallas County,TX,NA,85.73959255978743,NA
75227,Dallas County,TX,NA,36.935341009743134,NA
75228,Dallas County,TX,NA,20.460584588131088,NA
75229,Dallas County,TX,45.60878243512974,47.65279007971656,NA
75230,Dallas County,TX,NA,48.36138175376439,NA
75234,Dallas County,TX,NA,50.66430469441984,NA
75240,Dallas County,TX,70.65868263473054,NA,NA
75243,Dallas County,TX,14.67065868263473,NA,NA
75252,Collin County,TX,NA,59.78742249778565,NA
75287,Denton County,TX,NA,51.01860053144376,NA
75482,Hopkins County,TX,NA,57.83879539415412,NA
75639,Panola County,TX,99.00199600798403,NA,NA
75662,Gregg County,TX,55.78842315369261,36.13817537643932,NA
75672,Harrison County,TX,NA,NA,64.85013623978202
75706,Smith County,TX,NA,71.03631532329496,NA
75766,Cherokee County,TX,NA,8.503100088573959,NA
75951,Jasper County,TX,NA,46.05845881310894,NA
76001,Tarrant County,TX,57.28542914171657,NA,NA
76010,Tarrant County,TX,18.263473053892216,NA,NA
76017,Tarrant County,TX,32.43512974051897,NA,NA
76028,Johnson County,TX,NA,3.188662533215235,NA
76049,Hood County,TX,NA,57.21877767936226,NA
76051,Tarrant County,TX,33.23353293413174,NA,NA
76053,Tarrant County,TX,42.21556886227545,NA,NA
76058,Johnson County,TX,NA,NA,86.37602179836512
76060,Tarrant County,TX,NA,96.191319751992907,NA
76065,Ellis County,TX,41.31736526946108,NA,NA
76067,Palo Pinto County,TX,56.087824351297414,NA,NA
76087,Parker County,TX,NA,43.04694419840567,NA
76107,Tarrant County,TX,43.6127744510978,NA,NA
76116,Tarrant County,TX,NA,14.1718334809566,NA
76119,Tarrant County,TX,6.986027944111776,NA,NA
76131,Tarrant County,TX,80.938123752495,NA,NA
76134,Tarrant County,TX,28.443113772455092,NA,NA
76148,Tarrant County,TX,NA,55.27015057573074,NA
76179,Tarrant County,TX,30.938123752495013,NA,NA
76182,Tarrant County,TX,66.96606786427147,NA,NA
76210,Denton County,TX,NA,86.7139061116032,NA
76227,Denton County,TX,67.86427145708582,NA,NA
76262,Denton County,TX,47.20558882235529,NA,NA
76309,Wichita County,TX,78.54291417165669,NA,NA
76502,Bell County,TX,NA,12.843224092116918,NA
76548,Bell County,TX,NA,17.006200177147917,NA
76655,McLennan County,TX,NA,81.48804251550045,NA
76667,Limestone County,TX,NA,88.39681133746679,NA
76705,McLennan County,TX,NA,76.43932683790965,NA
76712,McLennan County,TX,43.91217564870259,NA,NA
76901,Tom Green County,TX,NA,68.73339238263951,NA
76904,Tom Green County,TX,64.17165668662675,NA,NA
77007,Harris County,TX,54.191616766467064,73.25066430469442,NA
77018,Harris County,TX,NA,79.00797165633304,NA
77025,Harris County,TX,NA,72.36492471213464,NA
77026,Harris County,TX,56.68662674650699,NA,NA
77036,Harris County,TX,NA,24.180690876882196,NA
77044,Harris County,TX,NA,63.950398582816646,NA
77045,Harris County,TX,NA,NA,86.92098092643052
77047,Harris County,TX,NA,76.52790079716564,NA
77048,Harris County,TX,NA,79.27369353410097,NA
77053,Fort Bend County,TX,NA,58.724534986713905,NA
77055,Harris County,TX,60.37924151696606,NA,NA
77059,Harris County,TX,83.63273453093812,64.12754650132861,NA
77063,Harris County,TX,NA,NA,78.2016348773842
77067,Harris County,TX,NA,82.99379982285208,NA
77070,Harris County,TX,NA,25.155004428697964,NA
77072,Harris County,TX,NA,NA,84.46866485013625
77073,Harris County,TX,NA,87.0682019486271,NA
77075,Harris County,TX,NA,90.69973427812224,NA
77076,Harris County,TX,NA,68.64481842338353,NA
77083,Harris County,TX,43.213572854291414,NA,NA
77084,Harris County,TX,NA,24.092116917626218,NA
77085,Harris County,TX,87.72455089820359,NA,NA
77088,Harris County,TX,NA,35.51815766164748,NA
77089,Harris County,TX,45.70858283433134,34.54384410983171,NA
77093,Harris County,TX,44.21157684630739,NA,NA
77316,Montgomery County,TX,NA,64.30469441984057,NA
77338,Harris County,TX,NA,61.38175376439327,NA
77345,Harris County,TX,85.92814371257485,NA,NA
77346,Harris County,TX,22.75449101796407,36.75819309123118,NA
77354,Montgomery County,TX,50.69860279441117,NA,NA
77355,Montgomery County,TX,NA,49.06997342781222,NA
77356,Montgomery County,TX,NA,40.12400354295837,NA
77373,Harris County,TX,NA,29.14083259521701,NA
77377,Harris County,TX,NA,55.447298494242695,NA
77379,Harris County,TX,NA,10.363153232949513,NA
77388,Harris County,TX,NA,36.84676705048716,70.84468664850137
77407,Fort Bend County,TX,54.690618762475054,NA,NA
77429,Harris County,TX,11.776447105788424,4.0744021257750225,NA
77441,Fort Bend County,TX,NA,83.79096545615589,NA
77449,Harris County,TX,NA,26.483613817537645,NA
77450,Harris County,TX,39.82035928143712,NA,NA
77459,Fort Bend County,TX,NA,12.311780336581045,NA
77461,Fort Bend County,TX,NA,94.95128432240921,NA
77477,Fort Bend County,TX,NA,NA,97.27520435967303
77494,Fort Bend County,TX,17.664670658682635,16.031886625332152,41.689373297002724
77510,Galveston County,TX,65.96806387225548,NA,NA
77521,Harris County,TX,64.07185628742515,NA,NA
77523,Chambers County,TX,84.63073852295409,NA,NA
77532,Harris County,TX,42.51497005988024,NA,NA
77539,Galveston County,TX,NA,11.868910540301151,38.96457765667575
77562,Harris County,TX,79.34131736526946,NA,NA
77568,Galveston County,TX,NA,29.40655447298494,NA
77571,Harris County,TX,NA,80.60230292294067,NA
77573,Galveston County,TX,37.4251497005988,3.54295837023915,NA
77578,Brazoria County,TX,68.562874251497007,NA,NA
77581,Brazoria County,TX,NA,21.346324180690875,NA
77584,Brazoria County,TX,10.379241516966067,58.015943312666074,NA
77656,Hardin County,TX,NA,63.330380868024804,NA
77657,Hardin County,TX,59.3812375249501,NA,NA
77659,Hardin County,TX,97.60479041916167,NA,NA
77706,Jefferson County,TX,49.40119760479042,NA,NA
77707,Jefferson County,TX,77.9441117764471,NA,NA
77713,Jefferson County,TX,NA,88.83968113374667,NA
77803,Brazos County,TX,27.944111776447105,NA,NA
77808,Brazos County,TX,62.6746506986028,NA,NA
77904,Victoria County,TX,NA,73.25066430469442,28.337874659400548
78016,Medina County,TX,NA,92.82550930026572,NA
78028,Kerr County,TX,NA,NA,8.71934604904632
78041,Webb County,TX,NA,23.117803365810452,NA
78043,Webb County,TX,NA,31.178033658104514,NA
78045,Webb County,TX,25.24950099800399,NA,NA
78046,Webb County,TX,NA,27.989371124889285,NA
78063,Bandera County,TX,91.21756487025948,NA,NA
78076,Zapata County,TX,NA,91.31975199291408,NA
78114,Wilson County,TX,NA,NA,93.46049046321527
78130,Comal County,TX,NA,NA,12.806539509536785
78155,Guadalupe County,TX,NA,83.613817537643925,NA
78214,Bexar County,TX,66.26746506986028,NA,NA
78216,Bexar County,TX,45.209580838323355,NA,NA
78221,Bexar County,TX,47.1057884231537,NA,NA
78227,Bexar County,TX,38.622754491017965,NA,NA
78229,Bexar County,TX,54.39121756487027,NA,NA
78239,Bexar County,TX,NA,70.77059344552701,NA
78240,Bexar County,TX,NA,NA,43.869209809264305
78254,Bexar County,TX,NA,75.8193091231178,NA
78256,Bexar County,TX,97.70459081836327,NA,NA
78257,Bexar County,TX,98.20359281437125,NA,NA
78260,Bexar County,TX,83.23353293413174,NA,NA
78332,Jim Wells County,TX,NA,66.51904340124003,NA
78357,Duval County,TX,99.60079840319361,NA,NA
78363,Kleberg County,TX,NA,62.533215234721,NA
78373,Nueces County,TX,NA,NA,99.72752043596729
78384,Duval County,TX,NA,97.9627989371125,NA
78501,Hidalgo County,TX,NA,NA,52.58855585831063
78557,Hidalgo County,TX,NA,96.36846767050487,NA
78572,Hidalgo County,TX,NA,56.2444641275465,NA
78574,Hidalgo County,TX,37.72455089820359,NA,NA
78628,Williamson County,TX,75.1497005988024,NA,NA
78629,Gonzales County,TX,90.71856287425149,NA,NA
78636,Blanco County,TX,100,NA,NA
78641,Williamson County,TX,23.353293413173652,NA,NA
78660,Travis County,TX,NA,34.80956598759965,NA
78666,Hays County,TX,NA,73.78210806023029,NA
78723,Travis County,TX,62.6746506986028,NA,NA
78732,Travis County,TX,95.60878243512974,NA,NA
78741,Travis County,TX,NA,77.59078830823738,NA
78745,Travis County,TX,62.37524950099801,NA,NA
78746,Travis County,TX,NA,NA,90.73569482288828
78748,Travis County,TX,72.35528942115769,NA,NA
79331,Dawson County,TX,NA,NA,88.28337874659401
79403,Lubbock County,TX,NA,51.28432240921169,NA
79404,Lubbock County,TX,NA,93.26837909654562,NA
79415,Lubbock County,TX,68.9620758483034,NA,NA
79416,Lubbock County,TX,56.187624750499,NA,NA
79423,Lubbock County,TX,30.83832335329341,NA,NA
79549,Scurry County,TX,NA,45.172719220549155,NA
79606,Taylor County,TX,NA,54.29583702391497,NA
79705,Midland County,TX,28.74251497005988,35.87245349867139,NA
79706,Midland County,TX,NA,67.58193091231178,NA
79707,Midland County,TX,NA,45.43844109831709,NA
79758,Ector County,TX,98.40319361277446,NA,NA
79902,El Paso County,TX,NA,84.1452612931798,NA
79903,El Paso County,TX,NA,86.80248007085916,NA
79932,El Paso County,TX,NA,77.0593445527015,NA
79936,El Paso County,TX,12.674650698602793,NA,NA
79938,El Paso County,TX,NA,90.52258635961027,NA
84003,Utah County,UT,NA,88.92825509300266,NA
84004,Utah County,UT,96.8063872255489,NA,NA
84010,Davis County,UT,NA,NA,26.158038147138964
84015,Davis County,UT,57.08582834331337,NA,NA
84020,Salt Lake County,UT,45.10978043912176,NA,NA
84041,Davis County,UT,NA,63.15323294951284,NA
84050,Morgan County,UT,95.80838323353294,NA,NA
84057,Utah County,UT,68.76247504990019,NA,NA
84102,Salt Lake County,UT,NA,NA,79.56403269754769
84107,Salt Lake County,UT,74.45109780439122,NA,NA
84109,Salt Lake County,UT,NA,53.58724534986714,NA
84117,Salt Lake County,UT,NA,NA,75.20435967302453
84526,Carbon County,UT,NA,98.84853852967228,NA
84532,Grand County,UT,NA,89.90256864481843,NA
05089,Windsor County,VT,NA,NA,88.0108991825613
05468,Chittenden County,VT,NA,78.47652790079717,NA
20105,Loudoun County,VA,NA,93.97697077059345,NA
20110,Manassas city,VA,NA,NA,57.22070844686649
20111,Prince William County,VA,NA,74.66784765279007,NA
20147,Loudoun County,VA,NA,58.28166519043402,NA
20155,Prince William County,VA,NA,46.32418069087688,NA
20164,Loudoun County,VA,45.40918163672655,66.69619131975199,NA
20171,Fairfax County,VA,NA,74.49069973427812,NA
22003,Fairfax County,VA,NA,27.103631532329498,NA
22015,Fairfax County,VA,NA,NA,62.94277929155313
22032,Fairfax County,VA,66.66666666666666,NA,NA
22039,Fairfax County,VA,NA,NA,99.45504087193461
22079,Fairfax County,VA,NA,68.11337466784765,NA
22153,Fairfax County,VA,NA,58.63596102745793,NA
22192,Prince William County,VA,53.79241516966068,43.48981399468556,NA
22201,Arlington County,VA,NA,71.56775907883083,NA
22204,Arlington County,VA,78.84231536926147,NA,NA
22209,Arlington County,VA,NA,97.0770593445527,NA
22301,Alexandria city,VA,75.54890219560878,NA,NA
22312,Fairfax County,VA,NA,67.40478299379983,NA
22314,Alexandria city,VA,NA,51.6386182462356,NA
22406,Stafford County,VA,NA,NA,56.13079019073569
22407,Spotsylvania County,VA,NA,NA,33.2425068119891
22602,Frederick County,VA,NA,55.0044286979628,NA
22802,Harrisonburg city,VA,NA,82.81665190434012,NA
23009,King William County,VA,97.30538922155688,NA,NA
23116,Hanover County,VA,NA,56.155890168290526,NA
23185,James City County,VA,NA,3.011514614703277,NA
23188,James City County,VA,NA,2.1257750221434897,NA
23222,Richmond city,VA,NA,NA,44.6866485013624
23223,Henrico County,VA,NA,NA,36.51226158038147
23231,Henrico County,VA,NA,17.360496014171833,NA
23235,Chesterfield County,VA,56.786427145708586,NA,NA
23322,Chesapeake city,VA,NA,NA,59.40054495912806
23451,Virginia Beach city,VA,NA,82.28520814880426,NA
23464,Virginia Beach city,VA,NA,2.745792736935341,NA
23602,Newport News city,VA,30.938123752495013,NA,NA
23608,Newport News city,VA,20.359281437125748,NA,NA
23664,Hampton city,VA,NA,95.3941541186891,NA
23666,Hampton city,VA,NA,NA,10.08174386920981
23704,Portsmouth city,VA,NA,53.41009743135518,NA
24012,Roanoke city,VA,30.738522954091817,NA,NA
24019,Roanoke County,VA,58.183632734530946,NA,NA
24073,Montgomery County,VA,NA,54.11868910540301,NA
24091,Floyd County,VA,93.812375249501,NA,NA
24134,Giles County,VA,NA,92.29406554472985,NA
24151,Franklin County,VA,NA,NA,67.30245231607628
24210,Washington County,VA,NA,NA,49.31880108991826
24230,Wise County,VA,NA,75.022143489814,NA
24558,Halifax County,VA,NA,NA,74.11444141689373
24572,Amherst County,VA,64.37125748502994,NA,NA
24605,Tazewell County,VA,34.13173652694611,NA,NA
98002,King County,WA,NA,37.82108060230293,NA
98003,King County,WA,63.87225548902195,21.08060230292294,NA
98027,King County,WA,65.46906187624751,44.9955713020372,NA
98028,King County,WA,NA,66.96191319751993,NA
98032,King County,WA,44.71057884231537,NA,NA
98040,King County,WA,NA,NA,46.59400544959128
98045,King County,WA,82.93413173652695,NA,NA
98052,King County,WA,50.49900199600798,NA,NA
98059,King County,WA,NA,30.380868024800712,NA
98074,King County,WA,95.00998003992017,NA,NA
98087,Snohomish County,WA,48.003992015968066,NA,NA
98103,King County,WA,NA,41.895482728077944,NA
98106,King County,WA,NA,69.79627989371124,NA
98110,Kitsap County,WA,64.57085828343313,NA,NA
98112,King County,WA,58.48303393213573,NA,NA
98115,King County,WA,NA,NA,34.332425068119896
98117,King County,WA,NA,55.801594331266614,NA
98168,King County,WA,NA,NA,49.59128065395095
98178,King County,WA,57.784431137724546,NA,NA
98203,Snohomish County,WA,NA,36.315323294951284,NA
98270,Snohomish County,WA,NA,68.91054030115146,NA
98273,Skagit County,WA,NA,15.677590788308237,NA
98284,Skagit County,WA,NA,63.596102745792734,NA
98331,Clallam County,WA,NA,NA,98.9100817438692
98362,Clallam County,WA,NA,7.705934455270151,NA
98382,Clallam County,WA,55.688622754491014,NA,NA
98387,Pierce County,WA,NA,24.269264836138174,NA
98512,Thurston County,WA,83.03393213572853,NA,NA
98531,Lewis County,WA,NA,NA,43.05177111716621
98611,Cowlitz County,WA,84.13173652694611,NA,NA
98632,Cowlitz County,WA,20.459081836327346,NA,NA
98660,Clark County,WA,NA,NA,83.37874659400545
98662,Clark County,WA,NA,62.35606731620903,NA
98672,Klickitat County,WA,95.30938123752495,NA,NA
98685,Clark County,WA,NA,NA,74.38692098092643
98801,Chelan County,WA,59.48103792415169,NA,NA
99203,Spokane County,WA,85.12974051896207,NA,NA
99207,Spokane County,WA,NA,61.91319751992914,NA
99208,Spokane County,WA,NA,29.583702391496903,NA
99216,Spokane County,WA,NA,79.36226749335695,NA
99301,Franklin County,WA,NA,6.554472984942426,NA
99337,Benton County,WA,NA,7.0859167404783,NA
99362,Walla Walla County,WA,NA,12.134632418069087,NA
20001,District of Columbia,DC,22.15568862275449,82.9052258635961,NA
20007,District of Columbia,DC,NA,NA,74.93188010899182
20011,District of Columbia,DC,NA,13.817537643932685,NA
20015,District of Columbia,DC,NA,84.49955713020371,NA
20020,District of Columbia,DC,NA,5.845881310894597,NA
20037,District of Columbia,DC,95.70858283433134,NA,NA
24701,Mercer County,WV,NA,30.026572187776797,NA
24739,Mercer County,WV,NA,80.69087688219663,NA
24740,Mercer County,WV,NA,33.56953055801594,NA
25303,Kanawha County,WV,NA,79.185119574845,NA
25311,Kanawha County,WV,NA,62.44464127546502,NA
25427,Berkeley County,WV,NA,NA,80.38147138964578
25526,Putnam County,WV,39.920159680638726,NA,NA
25601,Logan County,WV,73.25349301397206,NA,NA
25813,Raleigh County,WV,91.71656686626747,NA,NA
26003,Ohio County,WV,NA,1.8600531443755535,2.7247956403269753
26047,Hancock County,WV,NA,84.85385296722764,NA
26062,Hancock County,WV,11.177644710578843,NA,NA
26101,Wood County,WV,NA,5.403011514614704,NA
26241,Randolph County,WV,32.93413173652694,NA,NA
26330,Harrison County,WV,46.20758483033932,NA,NA
26505,Monongalia County,WV,9.081836327345309,6.908768821966342,NA
26537,Preston County,WV,84.4311377245509,NA,NA
53081,Sheboygan County,WI,16.766467065868262,NA,NA
53083,Sheboygan County,WI,73.25349301397206,NA,NA
53092,Ozaukee County,WI,NA,89.37112488928256,NA
53097,Ozaukee County,WI,NA,95.74844995571303,NA
53104,Kenosha County,WI,NA,92.64836138175376,NA
53110,Milwaukee County,WI,NA,NA,36.23978201634878
53132,Milwaukee County,WI,NA,77.23649247121345,NA
53142,Kenosha County,WI,NA,20.992028343666963,NA
53143,Kenosha County,WI,19.16167664670659,NA,NA
53144,Kenosha County,WI,17.26546906187625,NA,NA
53147,Walworth County,WI,45.90818363273453,NA,NA
53149,Waukesha County,WI,72.75449101796407,NA,NA
53150,Waukesha County,WI,NA,NA,53.13351498637602
53181,Kenosha County,WI,61.477045908183634,NA,NA
53184,Walworth County,WI,NA,96.81133746678476,NA
53189,Waukesha County,WI,58.183632734530946,NA,NA
53190,Walworth County,WI,NA,62.976085031000885,NA
53208,Milwaukee County,WI,11.377245508982035,NA,NA
53213,Milwaukee County,WI,51.59680638722555,NA,NA
53217,Milwaukee County,WI,NA,28.69796279893711,NA
53219,Milwaukee County,WI,NA,12.046058458813109,NA
53223,Milwaukee County,WI,16.86626746506986,NA,NA
53402,Racine County,WI,NA,NA,1.08991825613079
53405,Racine County,WI,5.588822355289421,NA,NA
53536,Rock County,WI,90.8183632734531,NA,NA
53590,Dane County,WI,85.42914171656687,NA,NA
53593,Dane County,WI,NA,49.33569530558016,NA
53711,Dane County,WI,NA,NA,16.62125340599455
53713,Dane County,WI,55.18962075848304,NA,NA
53807,Grant County,WI,NA,98.13994685562444,NA
53948,Juneau County,WI,NA,NA,80.65395095367847
54022,Pierce County,WI,NA,48.44995571302037,NA
54115,Brown County,WI,NA,33.92382639503986,NA
54130,Outagamie County,WI,60.37924151696606,88.3082373782108,80.10899182561307
54143,Marinette County,WI,NA,57.13020372010629,NA
54151,Marinette County,WI,NA,69.6191319751993,NA
54155,Brown County,WI,NA,92.47121346324181,NA
54165,Outagamie County,WI,96.6067864271457,NA,NA
54216,Kewaunee County,WI,NA,94.86271036315324,NA
54217,Kewaunee County,WI,NA,95.65987599645705,NA
54313,Brown County,WI,NA,34.63241806908769,NA
54494,Wood County,WI,NA,6.997342781222321,NA
54629,Buffalo County,WI,NA,98.58281665190434,NA
54837,Polk County,WI,NA,NA,88.5558583106267
54880,Douglas County,WI,15.269461077844312,NA,0.8174386920980926
54913,Outagamie County,WI,NA,85.03100088573959,NA
54915,Outagamie County,WI,37.025948103792416,NA,NA
54935,Fond du Lac County,WI,NA,NA,5.722070844686648
54940,Waupaca County,WI,NA,99.37998228520814,NA
54956,Winnebago County,WI,27.744510978043913,NA,NA
54970,Waushara County,WI,NA,98.67139061116032,NA
54971,Fond du Lac County,WI,87.2255489021956,NA,NA
