ZipCode,county,state,Adult,Retirement,Geriatric
35068,Jefferson County,AL,88.98450946643717,NA,NA
35128,St. Clair County,AL,NA,65.12396694214875,NA
35150,Talladega County,AL,69.01893287435456,NA,NA
35151,Talladega County,AL,NA,82.47933884297521,NA
35180,Jefferson County,AL,NA,NA,80.11204481792717
35208,Jefferson County,AL,NA,87.27272727272727,NA
35214,Jefferson County,AL,33.734939759036145,NA,NA
35611,Limestone County,AL,NA,22.14876033057851,NA
35645,Lauderdale County,AL,NA,89.25619834710744,NA
35661,Colbert County,AL,63.16695352839932,NA,NA
35749,Madison County,AL,NA,NA,65.54621848739495
35971,DeKalb County,AL,91.39414802065404,NA,NA
36054,Elmore County,AL,NA,60.33057851239669,NA
36301,Houston County,AL,50.25817555938038,NA,NA
36303,Houston County,AL,24.78485370051635,NA,NA
36305,Houston County,AL,NA,58.67768595041323,NA
36572,Mobile County,AL,NA,94.04958677685951,NA
36604,Mobile County,AL,NA,85.2892561983471,NA
36617,Mobile County,AL,71.08433734939759,NA,NA
36619,Mobile County,AL,73.14974182444061,94.87603305785125,NA
99501,Anchorage Municipality,AK,23.06368330464716,NA,NA
99507,Anchorage Municipality,AK,35.111876075731494,NA,NA
99508,Anchorage Municipality,AK,49.225473321858864,NA,NA
99515,Anchorage Municipality,AK,84.85370051635111,NA,NA
99705,Fairbanks North Star Borough,AK,94.14802065404476,NA,NA
99835,Sitka City and Borough,AK,NA,75.04132231404958,NA
85028,Maricopa County,AZ,74.01032702237521,NA,NA
85035,Maricopa County,AZ,NA,52.892561983471076,NA
85050,Maricopa County,AZ,54.56110154905336,NA,NA
85202,Maricopa County,AZ,21.514629948364888,NA,NA
85266,Maricopa County,AZ,NA,NA,73.38935574229691
85308,Maricopa County,AZ,NA,13.884297520661157,NA
85345,Maricopa County,AZ,NA,9.421487603305785,NA
85350,Yuma County,AZ,50.602409638554214,61.81818181818181,NA
85365,Yuma County,AZ,NA,48.09917355371901,NA
85621,Santa Cruz County,AZ,NA,37.52066115702479,NA
86301,Yavapai County,AZ,NA,NA,75.91036414565826
86326,Yavapai County,AZ,NA,19.834710743801654,NA
86327,Yavapai County,AZ,NA,NA,86.27450980392157
86401,Mohave County,AZ,65.40447504302927,NA,NA
86429,Mohave County,AZ,85.54216867469879,NA,NA
71646,Ashley County,AR,NA,82.64462809917356,NA
72034,Faulkner County,AR,NA,NA,16.5266106442577
72076,Pulaski County,AR,49.91394148020654,NA,15.406162464985995
72116,Pulaski County,AR,NA,35.04132231404959,NA
72160,Arkansas County,AR,NA,NA,57.422969187675065
72212,Pulaski County,AR,NA,NA,46.778711484593835
72450,Greene County,AR,NA,22.8099173553719,NA
72455,Randolph County,AR,NA,NA,79.83193277310924
72472,Poinsett County,AR,NA,79.83471074380165,NA
72616,Carroll County,AR,81.41135972461274,NA,NA
72756,Benton County,AR,NA,30.247933884297524,NA
72801,Pope County,AR,77.79690189328744,NA,NA
72908,Sebastian County,AR,78.82960413080895,NA,NA
90006,Los Angeles County,CA,NA,52.396694214876035,NA
90007,Los Angeles County,CA,NA,88.26446280991735,NA
90022,Los Angeles County,CA,NA,74.21487603305785,NA
90026,Los Angeles County,CA,NA,95.86776859504133,24.92997198879552
90028,Los Angeles County,CA,NA,NA,37.254901960784316
90031,Los Angeles County,CA,85.71428571428571,NA,NA
90044,Los Angeles County,CA,NA,14.710743801652892,NA
90045,Los Angeles County,CA,62.1342512908778,96.03305785123966,NA
90066,Los Angeles County,CA,NA,27.933884297520663,NA
90245,Los Angeles County,CA,NA,57.52066115702479,NA
90272,Los Angeles County,CA,85.02581755593803,NA,NA
90274,Los Angeles County,CA,NA,54.54545454545454,NA
90405,Los Angeles County,CA,NA,NA,57.98319327731093
90501,Los Angeles County,CA,NA,50.413223140495866,NA
90620,Orange County,CA,NA,30.909090909090907,NA
90660,Los Angeles County,CA,NA,NA,71.42857142857143
90731,Los Angeles County,CA,NA,23.636363636363637,NA
90745,Los Angeles County,CA,41.480206540447504,NA,NA
90746,Los Angeles County,CA,89.84509466437177,NA,NA
90810,Los Angeles County,CA,57.14285714285714,NA,NA
91103,Los Angeles County,CA,NA,NA,88.51540616246498
91325,Los Angeles County,CA,NA,60.99173553719008,NA
91342,Los Angeles County,CA,21.17039586919105,62.14876033057851,NA
91343,Los Angeles County,CA,NA,NA,36.134453781512605
91367,Los Angeles County,CA,NA,NA,19.047619047619047
91403,Los Angeles County,CA,90.0172117039587,NA,NA
91406,Los Angeles County,CA,51.63511187607573,NA,NA
91423,Los Angeles County,CA,67.98623063683304,NA,NA
91706,Los Angeles County,CA,27.022375215146297,NA,NA
91722,Los Angeles County,CA,NA,50.247933884297524,NA
91741,Los Angeles County,CA,NA,44.46280991735537,NA
91748,Los Angeles County,CA,NA,53.05785123966942,NA
91762,San Bernardino County,CA,NA,41.98347107438016,NA
91766,Los Angeles County,CA,NA,NA,31.372549019607842
91791,Los Angeles County,CA,NA,42.64462809917355,NA
91792,Los Angeles County,CA,64.71600688468159,NA,NA
92037,San Diego County,CA,NA,44.132231404958674,NA
92064,San Diego County,CA,73.8382099827883,NA,NA
92101,San Diego County,CA,NA,NA,83.4733893557423
92103,San Diego County,CA,NA,NA,40.056022408963585
92127,San Diego County,CA,NA,64.29752066115702,NA
92154,San Diego County,CA,92.7710843373494,NA,NA
92211,Riverside County,CA,NA,32.72727272727273,NA
92231,Imperial County,CA,NA,11.570247933884298,NA
92307,San Bernardino County,CA,NA,48.264462809917354,NA
92313,San Bernardino County,CA,92.08261617900172,NA,NA
92316,San Bernardino County,CA,NA,NA,64.42577030812325
92324,San Bernardino County,CA,20.998278829604132,NA,NA
92325,San Bernardino County,CA,NA,NA,98.8795518207283
92504,Riverside County,CA,NA,NA,63.58543417366946
92539,Riverside County,CA,NA,98.18181818181819,NA
92557,Riverside County,CA,37.693631669535286,42.64462809917355,NA
92592,Riverside County,CA,NA,24.793388429752067,NA
92614,Orange County,CA,NA,55.867768595041326,NA
92618,Orange County,CA,61.44578313253012,NA,NA
92649,Orange County,CA,55.24956970740104,NA,NA
92673,Orange County,CA,84.16523235800344,NA,NA
92675,Orange County,CA,NA,73.55371900826447,NA
92708,Orange County,CA,NA,76.69421487603306,NA
92804,Orange County,CA,45.26678141135972,NA,NA
92832,Orange County,CA,55.59380378657487,NA,NA
92845,Orange County,CA,NA,59.50413223140496,NA
92870,Orange County,CA,38.03786574870912,NA,NA
93003,Ventura County,CA,NA,17.355371900826448,NA
93035,Ventura County,CA,NA,55.70247933884298,NA
93257,Tulare County,CA,14.113597246127366,19.50413223140496,NA
93274,Tulare County,CA,NA,15.041322314049587,NA
93292,Tulare County,CA,NA,NA,78.71148459383754
93422,San Luis Obispo County,CA,NA,74.3801652892562,NA
93446,San Luis Obispo County,CA,27.882960413080895,NA,NA
93454,Santa Barbara County,CA,NA,NA,38.095238095238095
93536,Los Angeles County,CA,44.57831325301205,NA,NA
93555,Kern County,CA,NA,48.925619834710744,NA
93612,Fresno County,CA,45.955249569707405,NA,NA
93637,Madera County,CA,33.218588640275385,NA,NA
93662,Fresno County,CA,55.93803786574871,NA,NA
93706,Fresno County,CA,24.440619621342513,NA,NA
93722,Fresno County,CA,9.81067125645439,NA,NA
93723,Fresno County,CA,87.60757314974182,NA,NA
93726,Fresno County,CA,NA,41.32231404958678,NA
93727,Fresno County,CA,16.00688468158348,NA,NA
94014,San Mateo County,CA,NA,NA,8.403361344537815
94030,San Mateo County,CA,NA,92.23140495867769,NA
94066,San Mateo County,CA,NA,56.36363636363636,10.644257703081232
94087,Santa Clara County,CA,NA,NA,54.621848739495796
94102,San Francisco County,CA,51.29087779690189,5.785123966942149,NA
94108,San Francisco County,CA,NA,NA,89.6358543417367
94110,San Francisco County,CA,43.54561101549053,31.40495867768595,NA
94122,San Francisco County,CA,NA,18.84297520661157,NA
94124,San Francisco County,CA,26.161790017211707,NA,NA
94127,San Francisco County,CA,94.83648881239243,NA,NA
94132,San Francisco County,CA,NA,59.008264462809926,NA
94134,San Francisco County,CA,NA,NA,56.86274509803921
94403,San Mateo County,CA,NA,NA,41.45658263305322
94505,Contra Costa County,CA,83.47676419965576,NA,NA
94506,Contra Costa County,CA,NA,NA,73.66946778711485
94544,Alameda County,CA,NA,38.67768595041322,NA
94560,Alameda County,CA,53.87263339070568,74.7107438016529,69.74789915966386
94610,Alameda County,CA,NA,84.79338842975207,NA
94702,Alameda County,CA,94.66437177280551,NA,NA
94904,Marin County,CA,NA,NA,93.27731092436974
94954,Sonoma County,CA,NA,NA,28.851540616246496
95003,Santa Cruz County,CA,80.55077452667814,NA,NA
95020,Santa Clara County,CA,63.85542168674698,NA,NA
95051,Santa Clara County,CA,NA,44.95867768595041,NA
95054,Santa Clara County,CA,NA,NA,98.31932773109243
95111,Santa Clara County,CA,39.93115318416523,NA,NA
95117,Santa Clara County,CA,NA,68.09917355371901,NA
95207,San Joaquin County,CA,22.89156626506024,NA,NA
95210,San Joaquin County,CA,40.61962134251291,NA,NA
95307,Stanislaus County,CA,NA,40.16528925619834,NA
95336,San Joaquin County,CA,61.2736660929432,NA,24.089635854341736
95370,Tuolumne County,CA,NA,NA,5.322128851540616
95437,Mendocino County,CA,NA,71.2396694214876,NA
95661,Placer County,CA,NA,46.776859504132226,NA
95670,Sacramento County,CA,35.800344234079176,NA,NA
95678,Placer County,CA,NA,63.1404958677686,NA
95747,Placer County,CA,NA,33.88429752066116,NA
95815,Sacramento County,CA,NA,NA,71.1484593837535
95828,Sacramento County,CA,NA,27.768595041322314,NA
95831,Sacramento County,CA,NA,NA,23.249299719887954
95973,Butte County,CA,NA,NA,18.487394957983195
80016,Arapahoe County,CO,23.924268502581754,NA,NA
80121,Arapahoe County,CO,NA,NA,76.47058823529412
80207,Denver County,CO,44.23407917383821,NA,NA
80224,Denver County,CO,61.79001721170396,NA,NA
80249,Denver County,CO,37.177280550774526,NA,NA
80260,Adams County,CO,NA,NA,60.22408963585434
80517,Larimer County,CO,NA,75.86776859504131,NA
80534,Weld County,CO,66.95352839931154,69.25619834710743,NA
80538,Larimer County,CO,NA,6.6115702479338845,NA
80550,Weld County,CO,30.46471600688468,NA,NA
80601,Adams County,CO,NA,32.396694214876035,NA
80631,Weld County,CO,9.294320137693632,NA,NA
80634,Weld County,CO,2.0654044750430294,NA,NA
80911,El Paso County,CO,43.373493975903614,NA,NA
81007,Pueblo County,CO,NA,71.40495867768595,NA
81122,La Plata County,CO,NA,99.00826446280992,NA
81212,Fremont County,CO,NA,45.6198347107438,NA
06010,Hartford County,CT,NA,2.3140495867768593,3.6414565826330536
06029,Tolland County,CT,NA,83.14049586776859,NA
06042,Hartford County,CT,89.67297762478485,NA,NA
06051,Hartford County,CT,3.4423407917383817,NA,NA
06066,Tolland County,CT,NA,15.37190082644628,51.820728291316534
06107,Hartford County,CT,NA,64.29752066115702,NA
06108,Hartford County,CT,73.66609294320138,NA,NA
06111,Hartford County,CT,39.41480206540447,NA,NA
06112,Hartford County,CT,NA,46.28099173553719,NA
06238,Tolland County,CT,66.60929432013769,NA,NA
06241,Windham County,CT,60.24096385542169,NA,NA
06260,Windham County,CT,NA,37.85123966942149,NA
06401,New Haven County,CT,NA,NA,91.87675070028011
06413,Middlesex County,CT,NA,NA,42.857142857142854
06422,Middlesex County,CT,NA,96.69421487603306,NA
06473,New Haven County,CT,NA,NA,52.38095238095239
06488,New Haven County,CT,NA,31.239669421487605,NA
06492,New Haven County,CT,NA,NA,5.042016806722689
06514,New Haven County,CT,NA,28.264462809917358,NA
06516,New Haven County,CT,7.917383820998279,NA,9.243697478991598
06606,Fairfield County,CT,NA,28.92561983471074,NA
06610,Fairfield County,CT,NA,48.595041322314046,NA
06611,Fairfield County,CT,NA,57.35537190082645,NA
06615,Fairfield County,CT,98.79518072289156,NA,NA
06702,New Haven County,CT,79.86230636833047,NA,NA
06820,Fairfield County,CT,70.91222030981066,NA,NA
06855,Fairfield County,CT,NA,98.84297520661157,NA
19703,New Castle County,DE,58.17555938037866,NA,NA
19709,New Castle County,DE,22.203098106712567,NA,NA
19720,New Castle County,DE,NA,2.809917355371901,NA
19901,Kent County,DE,18.9328743545611,15.702479338842975,NA
19934,Kent County,DE,NA,68.4297520661157,NA
19940,Sussex County,DE,NA,NA,95.51820728291317
19943,Kent County,DE,NA,85.45454545454545,NA
19963,Sussex County,DE,36.144578313253014,NA,NA
19966,Sussex County,DE,NA,7.107438016528926,12.885154061624648
19975,Sussex County,DE,NA,NA,46.49859943977591
32038,Columbia County,FL,NA,NA,87.39495798319328
32068,Clay County,FL,12.736660929432015,NA,NA
32176,Volusia County,FL,NA,69.91735537190083,NA
32205,Duval County,FL,NA,29.09090909090909,NA
32208,Duval County,FL,NA,NA,36.97478991596639
32277,Duval County,FL,NA,NA,85.15406162464986
32408,Bay County,FL,93.97590361445783,NA,NA
32435,Walton County,FL,74.52667814113597,NA,NA
32446,Jackson County,FL,62.306368330464714,NA,NA
32456,Gulf County,FL,NA,NA,68.0672268907563
32504,Escambia County,FL,50.25817555938038,NA,NA
32514,Escambia County,FL,NA,NA,7.563025210084033
32526,Escambia County,FL,NA,7.43801652892562,7.002801120448179
32533,Escambia County,FL,NA,NA,59.103641456582636
32534,Escambia County,FL,90.53356282271945,NA,NA
32539,Okaloosa County,FL,42.3407917383821,NA,NA
32565,Santa Rosa County,FL,NA,81.65289256198346,NA
32570,Santa Rosa County,FL,82.27194492254733,59.6694214876033,NA
32577,Escambia County,FL,NA,86.77685950413223,NA
32640,Putnam County,FL,NA,NA,79.55182072829132
32641,Alachua County,FL,26.506024096385545,NA,NA
32669,Alachua County,FL,NA,60,NA
32707,Seminole County,FL,NA,51.735537190082646,NA
32725,Volusia County,FL,NA,NA,32.773109243697476
32771,Seminole County,FL,NA,NA,38.655462184873954
32818,Orange County,FL,17.900172117039588,NA,NA
32907,Brevard County,FL,NA,NA,19.88795518207283
32951,Brevard County,FL,NA,79.66942148760332,NA
32960,Indian River County,FL,48.88123924268503,NA,NA
32967,Indian River County,FL,72.28915662650603,NA,NA
33142,Miami-Dade County,FL,NA,70.41322314049587,NA
33144,Miami-Dade County,FL,NA,NA,14.285714285714285
33147,Miami-Dade County,FL,34.251290877796905,NA,NA
33160,Miami-Dade County,FL,NA,NA,16.246498599439775
33161,Miami-Dade County,FL,NA,42.14876033057851,NA
33180,Miami-Dade County,FL,NA,NA,13.725490196078432
33181,Miami-Dade County,FL,77.96901893287436,NA,NA
33193,Miami-Dade County,FL,80.89500860585198,NA,NA
33311,Broward County,FL,NA,NA,27.450980392156865
33317,Broward County,FL,NA,NA,42.296918767507
33325,Broward County,FL,NA,94.21487603305785,NA
33331,Broward County,FL,NA,NA,63.02521008403361
33334,Broward County,FL,NA,77.35537190082644,NA
33411,Palm Beach County,FL,67.46987951807229,NA,NA
33432,Palm Beach County,FL,NA,38.18181818181819,NA
33458,Palm Beach County,FL,NA,21.15702479338843,NA
33584,Hillsborough County,FL,NA,60.66115702479339,NA
33704,Pinellas County,FL,NA,NA,79.27170868347339
33711,Pinellas County,FL,NA,70.9090909090909,NA
33772,Pinellas County,FL,NA,NA,36.69467787114846
33844,Polk County,FL,NA,NA,81.5126050420168
33870,Highlands County,FL,30.292598967297764,NA,NA
33901,Lee County,FL,76.07573149741825,NA,NA
33903,Lee County,FL,NA,83.96694214876032,NA
33917,Lee County,FL,NA,NA,13.165266106442578
34119,Collier County,FL,NA,NA,18.76750700280112
34208,Manatee County,FL,NA,NA,55.74229691876751
34219,Manatee County,FL,NA,NA,63.86554621848739
34233,Sarasota County,FL,NA,75.37190082644628,NA
34293,Sarasota County,FL,NA,82.14876033057851,NA
34442,Citrus County,FL,NA,49.421487603305785,NA
34472,Marion County,FL,NA,NA,70.30812324929971
34606,Hernando County,FL,NA,NA,31.092436974789916
34741,Osceola County,FL,NA,NA,91.59663865546219
34748,Lake County,FL,NA,NA,2.2408963585434174
34983,St. Lucie County,FL,23.23580034423408,NA,NA
34994,Martin County,FL,97.07401032702238,NA,35.57422969187675
30009,Fulton County,GA,NA,70.57851239669421,NA
30033,DeKalb County,GA,NA,NA,44.81792717086835
30034,DeKalb County,GA,NA,72.72727272727273,NA
30040,Forsyth County,GA,NA,NA,11.484593837535014
30041,Forsyth County,GA,NA,8.925619834710744,NA
30045,Gwinnett County,GA,56.62650602409639,NA,NA
30046,Gwinnett County,GA,48.364888123924274,NA,NA
30093,Gwinnett County,GA,56.28227194492255,NA,NA
30127,Cobb County,GA,NA,26.776859504132233,NA
30157,Paulding County,GA,NA,23.305785123966942,NA
30176,Haralson County,GA,NA,NA,91.03641456582633
30241,Troup County,GA,28.57142857142857,NA,NA
30263,Coweta County,GA,NA,NA,28.57142857142857
30268,Fulton County,GA,NA,87.10743801652893,NA
30296,Clayton County,GA,59.380378657487086,NA,NA
30305,Fulton County,GA,NA,70.57851239669421,34.73389355742297
30311,Fulton County,GA,17.03958691910499,50.082644628099175,97.19887955182072
30317,DeKalb County,GA,NA,74.87603305785125,NA
30318,Fulton County,GA,29.259896729776248,NA,NA
30342,Fulton County,GA,77.4526678141136,NA,NA
30349,Fulton County,GA,NA,9.256198347107437,NA
30436,Toombs County,GA,78.48537005163512,NA,NA
30531,Habersham County,GA,NA,86.2809917355372,NA
30677,Oconee County,GA,NA,NA,98.59943977591037
30815,Richmond County,GA,22.375215146299485,NA,NA
30817,Lincoln County,GA,NA,82.97520661157026,NA
30824,McDuffie County,GA,49.05335628227194,NA,NA
31021,Laurens County,GA,41.82444061962134,NA,NA
31404,Chatham County,GA,NA,NA,42.57703081232493
31415,Chatham County,GA,NA,NA,82.91316526610645
31533,Coffee County,GA,NA,NA,61.904761904761905
31605,Lowndes County,GA,69.70740103270224,NA,NA
31768,Colquitt County,GA,NA,NA,54.061624649859944
31803,Marion County,GA,NA,NA,92.43697478991596
31811,Harris County,GA,98.45094664371773,NA,NA
31904,Muscogee County,GA,62.47848537005164,NA,NA
31906,Muscogee County,GA,43.029259896729776,NA,NA
31907,Muscogee County,GA,NA,2.975206611570248,NA
96706,Honolulu County,HI,NA,9.917355371900827,NA
96815,Honolulu County,HI,84.33734939759037,NA,NA
83702,Ada County,ID,61.61790017211703,NA,NA
83703,Ada County,ID,NA,NA,88.23529411764706
83709,Ada County,ID,16.867469879518072,NA,NA
83714,Ada County,ID,NA,NA,58.82352941176471
60013,McHenry County,IL,NA,64.79338842975207,NA
60016,Cook County,IL,25.47332185886403,NA,NA
60025,Cook County,IL,NA,43.63636363636363,NA
60047,Lake County,IL,NA,51.2396694214876,NA
60048,Lake County,IL,NA,23.471074380165287,NA
60051,McHenry County,IL,NA,NA,32.49299719887955
60064,Lake County,IL,NA,NA,78.99159663865547
60074,Cook County,IL,NA,NA,41.17647058823529
60089,Lake County,IL,68.67469879518072,NA,NA
60119,Kane County,IL,NA,77.1900826446281,NA
60134,Kane County,IL,NA,NA,26.330532212885156
60148,DuPage County,IL,NA,5.12396694214876,NA
60153,Cook County,IL,NA,81.48760330578513,NA
60155,Cook County,IL,NA,NA,67.78711484593838
60160,Cook County,IL,75.5593803786575,85.12396694214877,NA
60174,Kane County,IL,NA,31.735537190082646,NA
60177,Kane County,IL,56.970740103270224,NA,NA
60181,DuPage County,IL,NA,NA,69.74789915966386
60185,DuPage County,IL,38.7263339070568,NA,NA
60187,DuPage County,IL,38.89845094664372,NA,NA
60191,DuPage County,IL,84.6815834767642,NA,NA
60202,Cook County,IL,NA,80.99173553719008,NA
60411,Cook County,IL,NA,55.20661157024793,NA
60417,Will County,IL,NA,NA,47.05882352941176
60422,Cook County,IL,NA,40.49586776859504,NA
60430,Cook County,IL,NA,43.80165289256198,NA
60431,Will County,IL,42.68502581755594,NA,NA
60438,Cook County,IL,46.29948364888124,NA,NA
60465,Cook County,IL,NA,46.11570247933884,NA
60472,Cook County,IL,NA,NA,96.07843137254902
60477,Cook County,IL,27.710843373493976,10.082644628099173,NA
60510,Kane County,IL,36.660929432013766,NA,NA
60516,DuPage County,IL,NA,24.958677685950413,NA
60525,Cook County,IL,NA,NA,12.324929971988796
60527,DuPage County,IL,NA,NA,15.126050420168067
60532,DuPage County,IL,NA,38.51239669421488,NA
60543,Kendall County,IL,NA,40.66115702479339,NA
60544,Will County,IL,39.24268502581756,NA,NA
60546,Cook County,IL,NA,NA,40.61624649859944
60560,Kendall County,IL,NA,NA,60.78431372549019
60561,DuPage County,IL,NA,26.446280991735538,NA
60563,DuPage County,IL,71.42857142857143,NA,NA
60586,Will County,IL,16.179001721170398,NA,NA
60605,Cook County,IL,NA,39.83471074380166,NA
60608,Cook County,IL,NA,11.239669421487603,NA
60614,Cook County,IL,NA,13.388429752066116,NA
60616,Cook County,IL,37.8657487091222,NA,NA
60623,Cook County,IL,NA,37.35537190082645,73.94957983193278
60628,Cook County,IL,NA,81.81818181818183,NA
60640,Cook County,IL,9.63855421686747,NA,NA
60649,Cook County,IL,44.922547332185886,NA,66.66666666666666
60707,Cook County,IL,75.7314974182444,NA,NA
60901,Kankakee County,IL,NA,NA,76.19047619047619
61443,Henry County,IL,NA,44.62809917355372,NA
61614,Peoria County,IL,70.56798623063683,NA,NA
61820,Champaign County,IL,69.70740103270224,NA,NA
62025,Madison County,IL,NA,35.20661157024794,NA
62040,Madison County,IL,NA,7.6033057851239665,NA
62088,Macoupin County,IL,88.46815834767642,NA,NA
62233,Randolph County,IL,NA,NA,68.0672268907563
62234,Madison County,IL,NA,37.68595041322314,NA
62249,Madison County,IL,92.42685025817556,NA,NA
62269,St. Clair County,IL,64.71600688468159,NA,64.70588235294117
62629,Sangamon County,IL,NA,83.63636363636363,NA
62650,Morgan County,IL,NA,NA,32.212885154061624
62681,Schuyler County,IL,NA,78.18181818181819,NA
62864,Jefferson County,IL,48.709122203098104,NA,NA
46013,Madison County,IN,NA,NA,29.411764705882355
46033,Hamilton County,IN,60.92943201376936,NA,NA
46037,Hamilton County,IN,NA,31.074380165289256,NA
46040,Hancock County,IN,NA,NA,90.75630252100841
46060,Hamilton County,IN,32.358003442340795,NA,NA
46112,Hendricks County,IN,NA,76.03305785123968,NA
46140,Hancock County,IN,NA,NA,17.366946778711483
46158,Morgan County,IN,76.93631669535283,NA,NA
46202,Marion County,IN,NA,67.10743801652893,NA
46205,Marion County,IN,NA,50.90909090909091,NA
46222,Marion County,IN,67.29776247848537,NA,NA
46226,Marion County,IN,NA,91.5702479338843,NA
46304,Porter County,IN,13.425129087779691,NA,NA
46311,Lake County,IN,NA,45.289256198347104,NA
46312,Lake County,IN,NA,NA,24.369747899159663
46319,Lake County,IN,NA,NA,52.94117647058824
46324,Lake County,IN,64.37177280550775,NA,NA
46327,Lake County,IN,NA,50.743801652892564,NA
46342,Lake County,IN,6.024096385542169,NA,NA
46360,LaPorte County,IN,NA,NA,77.59103641456583
46368,Porter County,IN,2.5817555938037864,1.322314049586777,NA
46375,Lake County,IN,62.99483648881239,NA,NA
46516,Elkhart County,IN,NA,33.057851239669425,NA
46540,Elkhart County,IN,86.91910499139415,NA,NA
46703,Steuben County,IN,51.29087779690189,32.06611570247934,NA
46750,Huntington County,IN,NA,75.20661157024794,NA
46805,Allen County,IN,34.59552495697074,NA,NA
46825,Allen County,IN,NA,76.36363636363637,NA
46835,Allen County,IN,NA,NA,56.30252100840336
46901,Howard County,IN,NA,3.4710743801652892,NA
46902,Howard County,IN,60.75731497418244,3.1404958677685952,NA
46979,Howard County,IN,80.37865748709122,NA,NA
47203,Bartholomew County,IN,NA,NA,10.92436974789916
47250,Jefferson County,IN,NA,52.231404958677686,NA
47501,Daviess County,IN,NA,21.983471074380166,NA
47532,Dubois County,IN,99.1394148020654,NA,NA
47714,Vanderburgh County,IN,45.09466437177281,NA,NA
47905,Tippecanoe County,IN,43.20137693631669,NA,NA
51334,Emmet County,IA,NA,NA,52.66106442577031
51501,Pottawattamie County,IA,2.753872633390706,NA,NA
52057,Delaware County,IA,81.92771084337349,NA,NA
52246,Johnson County,IA,NA,58.84297520661157,NA
52402,Linn County,IA,50.94664371772806,NA,NA
52501,Wapello County,IA,15.49053356282272,NA,NA
52556,Jefferson County,IA,NA,54.87603305785124,NA
66067,Franklin County,KS,NA,NA,38.93557422969188
66208,Johnson County,KS,NA,76.52892561983471,NA
66441,Geary County,KS,NA,NA,75.35014005602241
66720,Neosho County,KS,NA,93.38842975206612,NA
67301,Montgomery County,KS,NA,NA,65.82633053221288
67357,Labette County,KS,NA,52.56198347107438,NA
67871,Scott County,KS,63.16695352839932,NA,NA
40013,Nelson County,KY,96.21342512908778,NA,NA
40071,Spencer County,KY,54.73321858864028,NA,NA
40165,Bullitt County,KY,NA,NA,43.977591036414566
40205,Jefferson County,KY,NA,NA,53.50140056022409
40211,Jefferson County,KY,NA,31.5702479338843,NA
40216,Jefferson County,KY,NA,9.75206611570248,NA
40229,Jefferson County,KY,NA,17.520661157024794,53.78151260504202
40258,Jefferson County,KY,23.407917383820998,NA,NA
40351,Rowan County,KY,NA,NA,27.170868347338935
40475,Madison County,KY,NA,NA,22.128851540616246
40514,Fayette County,KY,NA,95.53719008264463,NA
40962,Clay County,KY,NA,48.760330578512395,NA
41011,Kenton County,KY,NA,NA,71.70868347338936
41056,Mason County,KY,80.72289156626506,NA,NA
41091,Boone County,KY,NA,84.29752066115702,NA
41129,Boyd County,KY,86.57487091222032,NA,NA
41858,Letcher County,KY,NA,81.15702479338843,NA
42303,Daviess County,KY,NA,NA,21.288515406162464
42345,Muhlenberg County,KY,NA,NA,81.79271708683473
42501,Pulaski County,KY,50.08605851979346,NA,NA
42544,Pulaski County,KY,NA,75.53719008264463,NA
42754,Grayson County,KY,NA,33.22314049586777,NA
70092,St. Bernard Parish,LA,82.96041308089501,NA,NA
70124,Orleans Parish,LA,89.1566265060241,NA,NA
70126,Orleans Parish,LA,NA,18.181818181818183,NA
70301,Lafourche Parish,LA,NA,6.9421487603305785,NA
70373,Lafourche Parish,LA,NA,90.08264462809917,NA
70390,Assumption Parish,LA,NA,65.6198347107438,NA
70427,Washington Parish,LA,82.78829604130809,NA,NA
70452,St. Tammany Parish,LA,22.030981067125648,NA,NA
70458,St. Tammany Parish,LA,26.67814113597246,NA,NA
70461,St. Tammany Parish,LA,NA,16.694214876033058,NA
70517,St. Martin Parish,LA,13.59724612736661,NA,NA
70518,Lafayette Parish,LA,49.74182444061962,NA,NA
70529,Lafayette Parish,LA,NA,NA,87.95518207282913
70535,St. Landry Parish,LA,95.5249569707401,NA,NA
70560,Iberia Parish,LA,NA,10.578512396694215,29.13165266106443
70601,Calcasieu Parish,LA,NA,6.776859504132231,NA
70663,Calcasieu Parish,LA,NA,71.900826446281,NA
70816,East Baton Rouge Parish,LA,NA,28.760330578512395,NA
71052,De Soto Parish,LA,67.12564543889845,NA,NA
71082,Caddo Parish,LA,100,NA,NA
71108,Caddo Parish,LA,10.843373493975903,NA,NA
71111,Bossier Parish,LA,5.679862306368331,NA,NA
71129,Caddo Parish,LA,41.13597246127367,NA,NA
71225,Ouachita Parish,LA,95.86919104991394,NA,NA
71328,Rapides Parish,LA,59.72461273666093,NA,NA
71360,Rapides Parish,LA,11.876075731497417,NA,NA
71457,Natchitoches Parish,LA,28.915662650602407,NA,NA
03903,York County,ME,79.17383820998279,NA,NA
04101,Cumberland County,ME,NA,22.31404958677686,NA
04106,Cumberland County,ME,NA,29.91735537190083,NA
04240,Androscoggin County,ME,15.146299483648882,NA,NA
04263,Androscoggin County,ME,NA,100,NA
04401,Penobscot County,ME,NA,53.553719008264466,NA
04530,Sagadahoc County,ME,NA,39.50413223140496,NA
04730,Aroostook County,ME,NA,42.31404958677686,NA
04915,Waldo County,ME,69.19104991394148,NA,74.2296918767507
04976,Somerset County,ME,47.84853700516351,NA,NA
20721,Prince George's County,MD,71.25645438898451,NA,NA
20774,Prince George's County,MD,NA,34.3801652892562,NA
20876,Montgomery County,MD,NA,NA,88.79551820728291
20895,Montgomery County,MD,NA,NA,66.1064425770308
20906,Montgomery County,MD,NA,NA,9.803921568627452
21060,Anne Arundel County,MD,NA,NA,37.81512605042017
21090,Anne Arundel County,MD,91.04991394148021,NA,NA
21108,Anne Arundel County,MD,NA,89.58677685950414,NA
21133,Baltimore County,MD,79.00172117039587,NA,NA
21205,Baltimore city,MD,NA,NA,47.33893557422969
21206,Baltimore city,MD,12.564543889845096,9.586776859504132,NA
21207,Baltimore County,MD,NA,20.826446280991735,NA
21215,Baltimore city,MD,NA,NA,35.294117647058826
21217,Baltimore city,MD,23.580034423407916,14.380165289256198,NA
21229,Baltimore city,MD,49.39759036144578,NA,21.568627450980394
21231,Baltimore city,MD,64.54388984509465,NA,NA
21239,Baltimore city,MD,NA,NA,26.05042016806723
21532,Allegany County,MD,92.94320137693632,NA,NA
21550,Garrett County,MD,NA,72.23140495867769,NA
21643,Dorchester County,MD,NA,NA,99.71988795518207
21804,Wicomico County,MD,72.46127366609294,NA,NA
21921,Cecil County,MD,16.351118760757316,NA,NA
01001,Hampden County,MA,NA,17.1900826446281,NA
01013,Hampden County,MA,18.244406196213426,NA,NA
01077,Hampden County,MA,66.43717728055077,NA,NA
01085,Hampden County,MA,NA,1.9834710743801653,NA
01089,Hampden County,MA,NA,NA,25.210084033613445
01119,Hampden County,MA,NA,84.13223140495867,NA
01201,Berkshire County,MA,NA,NA,39.49579831932773
01267,Berkshire County,MA,NA,67.10743801652893,NA
01453,Worcester County,MA,0.6884681583476765,16.03305785123967,NA
01588,Worcester County,MA,20.65404475043029,NA,NA
01602,Worcester County,MA,30.6368330464716,NA,NA
01605,Worcester County,MA,NA,NA,0.2801120448179272
01702,Middlesex County,MA,1.0327022375215147,NA,NA
01801,Middlesex County,MA,0.8605851979345954,8.099173553719009,NA
01810,Essex County,MA,14.285714285714285,NA,16.80672268907563
01826,Middlesex County,MA,NA,2.644628099173554,NA
01832,Essex County,MA,NA,NA,49.299719887955185
01851,Middlesex County,MA,55.07745266781411,NA,NA
01852,Middlesex County,MA,NA,NA,49.57983193277311
01864,Middlesex County,MA,NA,64.29752066115702,NA
01867,Middlesex County,MA,58.86402753872634,33.553719008264466,94.11764705882352
01876,Middlesex County,MA,7.401032702237521,NA,6.722689075630252
01915,Essex County,MA,NA,NA,26.89075630252101
01950,Essex County,MA,NA,NA,19.88795518207283
02021,Norfolk County,MA,NA,25.950413223140494,NA
02026,Norfolk County,MA,4.819277108433735,NA,NA
02038,Norfolk County,MA,NA,NA,25.770308123249297
02043,Plymouth County,MA,NA,NA,19.607843137254903
02111,Suffolk County,MA,NA,99.6694214876033,NA
02115,Suffolk County,MA,6.712564543889846,NA,NA
02118,Suffolk County,MA,NA,0.3305785123966942,NA
02125,Suffolk County,MA,0.17211703958691912,79.00826446280992,NA
02127,Suffolk County,MA,NA,NA,10.084033613445378
02131,Suffolk County,MA,NA,77.02479338842976,NA
02132,Suffolk County,MA,NA,12.561983471074381,NA
02136,Suffolk County,MA,1.376936316695353,58.34710743801653,NA
02152,Suffolk County,MA,NA,5.950413223140496,NA
02169,Norfolk County,MA,NA,0.1652892561983471,NA
02171,Norfolk County,MA,NA,16.363636363636363,NA
02301,Plymouth County,MA,0.34423407917383825,NA,NA
02351,Plymouth County,MA,NA,21.322314049586776,NA
02356,Bristol County,MA,NA,97.52066115702479,NA
02360,Plymouth County,MA,NA,NA,10.364145658263306
02368,Norfolk County,MA,78.65748709122204,4.462809917355372,NA
02420,Middlesex County,MA,37.52151462994836,NA,NA
02445,Norfolk County,MA,58.519793459552496,93.22314049586777,NA
02446,Norfolk County,MA,75.04302925989673,NA,NA
02478,Middlesex County,MA,24.612736660929432,NA,NA
02642,Barnstable County,MA,NA,76.19834710743801,NA
02660,Barnstable County,MA,NA,66.28099173553719,NA
02726,Bristol County,MA,NA,25.123966942148762,NA
02745,Bristol County,MA,1.7211703958691909,NA,NA
48021,Macomb County,MI,NA,NA,59.66386554621849
48042,Macomb County,MI,54.21686746987952,NA,26.610644257703083
48044,Macomb County,MI,33.3907056798623,NA,NA
48054,St. Clair County,MI,97.76247848537005,NA,NA
48066,Macomb County,MI,2.9259896729776247,NA,NA
48067,Oakland County,MI,37.177280550774526,NA,NA
48085,Oakland County,MI,32.01376936316696,NA,NA
48093,Macomb County,MI,NA,68.59504132231406,NA
48097,St. Clair County,MI,93.28743545611016,92.06611570247934,NA
48111,Wayne County,MI,29.776247848537007,NA,NA
48116,Livingston County,MI,28.74354561101549,NA,NA
48122,Wayne County,MI,NA,85.9504132231405,NA
48124,Wayne County,MI,20.82616179001721,NA,NA
48125,Wayne County,MI,NA,NA,87.6750700280112
48127,Wayne County,MI,13.080895008605854,NA,NA
48135,Wayne County,MI,NA,NA,48.739495798319325
48137,Livingston County,MI,95.00860585197934,NA,NA
48141,Wayne County,MI,8.950086058519794,NA,NA
48162,Monroe County,MI,NA,36.69421487603306,NA
48168,Wayne County,MI,53.700516351118765,NA,NA
48178,Oakland County,MI,NA,60.49586776859505,5.88235294117647
48187,Wayne County,MI,NA,16.528925619834713,6.442577030812324
48188,Wayne County,MI,NA,79.50413223140495,NA
48192,Wayne County,MI,NA,26.611570247933887,NA
48197,Washtenaw County,MI,NA,1.6528925619834711,NA
48198,Washtenaw County,MI,NA,10.909090909090908,NA
48207,Wayne County,MI,20.137693631669535,NA,NA
48217,Wayne County,MI,NA,NA,63.305322128851536
48219,Wayne County,MI,NA,17.024793388429753,NA
48229,Wayne County,MI,NA,67.76859504132231,NA
48234,Wayne County,MI,8.2616179001721175,NA,23.52941176470588
48235,Wayne County,MI,NA,19.173553719008265,9.523809523809524
48240,Wayne County,MI,21.858864027538726,NA,NA
48304,Oakland County,MI,NA,44.29752066115702,NA
48306,Oakland County,MI,NA,51.074380165289256,NA
48312,Macomb County,MI,NA,12.727272727272727,7.282913165266107
48314,Macomb County,MI,70.22375215146299,NA,NA
48316,Macomb County,MI,41.996557659208264,NA,NA
48317,Macomb County,MI,NA,47.768595041322314,NA
48329,Oakland County,MI,34.42340791738382,NA,NA
48342,Oakland County,MI,NA,30.57851239669421,NA
48371,Oakland County,MI,38.38209982788296,NA,NA
48390,Oakland County,MI,40.103270223752155,NA,NA
48455,Lapeer County,MI,79.51807228915662,NA,NA
48473,Genesee County,MI,NA,32.892561983471076,NA
48601,Saginaw County,MI,14.457831325301203,NA,NA
48602,Saginaw County,MI,NA,71.73553719008264,NA
48622,Clare County,MI,NA,72.06611570247934,NA
48632,Clare County,MI,98.10671256454388,NA,NA
48640,Midland County,MI,NA,41.81818181818181,NA
48723,Tuscola County,MI,NA,NA,39.77591036414566
48750,Iosco County,MI,NA,NA,83.19327731092437
48843,Livingston County,MI,NA,24.132231404958677,NA
48846,Ionia County,MI,40.44750430292599,NA,NA
48906,Ingham County,MI,NA,43.1404958677686,NA
49006,Kalamazoo County,MI,93.80378657487091,NA,NA
49009,Kalamazoo County,MI,NA,NA,59.943977591036415
49010,Allegan County,MI,44.75043029259897,37.1900826446281,NA
49015,Calhoun County,MI,64.02753872633392,NA,NA
49048,Kalamazoo County,MI,18.588640275387263,NA,NA
49057,Van Buren County,MI,NA,97.19008264462809,NA
49079,Van Buren County,MI,NA,39.00826446280992,NA
49088,Kalamazoo County,MI,96.72977624784855,NA,NA
49097,Kalamazoo County,MI,NA,NA,77.87114845938376
49127,Berrien County,MI,NA,NA,48.17927170868347
49201,Jackson County,MI,9.46643717728055,NA,NA
49203,Jackson County,MI,31.669535283993117,NA,NA
49221,Lenawee County,MI,NA,57.85123966942148,NA
49345,Kent County,MI,NA,79.33884297520662,NA
49348,Allegan County,MI,34.07917383820998,NA,NA
49412,Newaygo County,MI,NA,49.75206611570248,NA
49418,Kent County,MI,NA,56.19834710743802,NA
49442,Muskegon County,MI,3.2702237521514634,NA,30.81232492997199
49457,Muskegon County,MI,NA,NA,84.03361344537815
49503,Kent County,MI,NA,67.60330578512396,NA
49506,Kent County,MI,78.14113597246127,NA,NA
49508,Kent County,MI,6.368330464716007,NA,NA
49525,Kent County,MI,NA,86.11570247933884,34.45378151260504
49685,Grand Traverse County,MI,52.49569707401033,84.62809917355372,NA
49686,Grand Traverse County,MI,72.9776247848537,NA,76.75070028011206
49746,Montmorency County,MI,94.32013769363166,NA,NA
49837,Delta County,MI,NA,NA,50.98039215686274
49858,Menominee County,MI,NA,66.94214876033058,NA
49868,Luce County,MI,83.64888123924268,NA,57.98319327731093
49878,Delta County,MI,NA,80.82644628099173,NA
49916,Houghton County,MI,97.41824440619621,NA,NA
55009,Goodhue County,MN,NA,51.570247933884296,NA
55104,Ramsey County,MN,16.523235800344235,NA,NA
55109,Ramsey County,MN,NA,NA,28.291316526610643
55119,Ramsey County,MN,NA,26.942148760330582,NA
55350,McLeod County,MN,NA,90.24793388429751,NA
55412,Hennepin County,MN,NA,69.0909090909091,NA
55416,Hennepin County,MN,NA,60.16528925619835,NA
55720,Carlton County,MN,33.04647160068847,NA,NA
55744,Itasca County,MN,17.21170395869191,74.0495867768595,NA
55803,St. Louis County,MN,NA,NA,30.252100840336134
55805,St. Louis County,MN,46.64371772805508,NA,NA
55812,St. Louis County,MN,NA,96.69421487603306,NA
55906,Olmsted County,MN,67.64199655765921,NA,NA
56001,Blue Earth County,MN,NA,29.586776859504134,NA
56164,Pipestone County,MN,87.263339070568,NA,NA
56258,Lyon County,MN,NA,NA,85.99439775910365
56345,Morrison County,MN,30.98106712564544,NA,NA
56364,Morrison County,MN,86.05851979345955,NA,NA
56374,Stearns County,MN,NA,95.20661157024793,NA
56501,Becker County,MN,NA,NA,17.086834733893557
56601,Beltrami County,MN,28.055077452667813,77.85123966942149,NA
56633,Hubbard County,MN,92.08261617900172,NA,NA
56701,Pennington County,MN,NA,21.818181818181817,NA
38611,Marshall County,MS,NA,56.85950413223141,NA
38683,Tippah County,MS,NA,94.54545454545455,NA
39157,Madison County,MS,NA,89.91735537190083,NA
39208,Rankin County,MS,40.79173838209983,NA,NA
39232,Rankin County,MS,NA,98.34710743801654,NA
39367,Wayne County,MS,NA,57.85123966942148,NA
39532,Harrison County,MS,NA,15.537190082644628,15.686274509803921
39553,Jackson County,MS,NA,NA,69.187675070028
39562,Jackson County,MS,95.69707401032701,NA,NA
39601,Lincoln County,MS,NA,72.56198347107437,NA
63011,St. Louis County,MO,NA,NA,4.481792717086835
63021,St. Louis County,MO,44.061962134251296,NA,NA
63031,St. Louis County,MO,NA,NA,5.602240896358544
63130,St. Louis County,MO,NA,78.84297520661157,NA
63301,St. Charles County,MO,14.802065404475043,NA,NA
63304,St. Charles County,MO,30.98106712564544,NA,NA
63376,St. Charles County,MO,10.499139414802066,1.8181818181818181,NA
63552,Macon County,MO,NA,NA,82.6330532212885
63670,Ste. Genevieve County,MO,NA,NA,55.182072829131656
64015,Jackson County,MO,13.941480206540447,NA,NA
64024,Clay County,MO,64.71600688468159,NA,NA
64050,Jackson County,MO,16.69535283993115,NA,NA
64052,Jackson County,MO,66.26506024096386,NA,NA
64083,Cass County,MO,NA,32.396694214876035,NA
64109,Jackson County,MO,NA,NA,99.15966386554622
64114,Jackson County,MO,65.7487091222031,NA,NA
64116,Clay County,MO,NA,34.3801652892562,NA
64130,Jackson County,MO,7.056798623063683,NA,NA
64131,Jackson County,MO,15.66265060240964,NA,NA
64133,Jackson County,MO,4.475043029259897,NA,NA
64151,Platte County,MO,32.70223752151463,NA,NA
64155,Clay County,MO,24.096385542168676,NA,NA
64506,Buchanan County,MO,NA,NA,1.680672268907563
64759,Barton County,MO,NA,NA,66.94677871148458
64836,Jasper County,MO,NA,24.628099173553718,NA
64850,Newton County,MO,NA,18.512396694214875,NA
65018,Moniteau County,MO,90.18932874354562,NA,NA
65084,Morgan County,MO,NA,NA,74.78991596638656
65202,Boone County,MO,11.53184165232358,NA,NA
65360,Henry County,MO,83.64888123924268,NA,NA
65714,Christian County,MO,NA,39.17355371900826,NA
65721,Christian County,MO,54.38898450946644,NA,NA
65802,Greene County,MO,11.703958691910499,NA,NA
65804,Greene County,MO,NA,NA,14.565826330532214
65810,Greene County,MO,83.30464716006884,NA,NA
59301,Custer County,MT,NA,91.90082644628099,NA
59405,Cascade County,MT,90.87779690189329,NA,NA
59917,Lincoln County,MT,NA,94.7107438016529,NA
68022,Douglas County,NE,NA,NA,50.14005602240896
68066,Saunders County,NE,91.73838209982789,NA,NA
68106,Douglas County,NE,71.9449225473322,NA,NA
68123,Sarpy County,NE,NA,73.05785123966942,NA
68131,Douglas County,NE,NA,85.6198347107438,NA
68135,Douglas County,NE,67.98623063683304,NA,NA
68434,Seward County,NE,89.328743545611,NA,NA
68521,Lancaster County,NE,59.552495697074015,NA,NA
89104,Clark County,NV,39.41480206540447,NA,NA
89148,Clark County,NV,NA,69.58677685950413,NA
89509,Washoe County,NV,NA,NA,28.011204481792717
89706,Carson City,NV,59.036144578313255,NA,NA
03110,Hillsborough County,NH,NA,NA,12.605042016806722
03222,Grafton County,NH,97.93459552495698,NA,NA
03246,Belknap County,NH,NA,NA,87.11484593837535
03249,Belknap County,NH,NA,86.44628099173553,NA
03773,Sullivan County,NH,NA,NA,90.47619047619048
03842,Rockingham County,NH,67.81411359724613,NA,NA
03870,Rockingham County,NH,NA,92.89256198347108,NA
03885,Rockingham County,NH,NA,87.93388429752066,NA
07002,Hudson County,NJ,NA,NA,8.96358543417367
07003,Essex County,NJ,NA,NA,30.532212885154063
07024,Bergen County,NJ,NA,NA,8.683473389355742
07054,Morris County,NJ,NA,84.9586776859504,NA
07060,Union County,NJ,6.884681583476763,NA,NA
07092,Union County,NJ,NA,NA,77.87114845938376
07093,Hudson County,NJ,NA,9.090909090909092,NA
07110,Essex County,NJ,NA,NA,51.26050420168067
07206,Union County,NJ,8.777969018932874,NA,NA
07502,Passaic County,NJ,NA,65.95041322314049,NA
07508,Passaic County,NJ,29.948364888123923,NA,NA
07514,Passaic County,NJ,NA,NA,68.0672268907563
07643,Bergen County,NJ,76.592082616179,NA,NA
07661,Bergen County,NJ,94.49225473321859,NA,NA
07726,Monmouth County,NJ,30.808950086058516,NA,NA
07730,Monmouth County,NJ,NA,NA,61.34453781512605
07801,Morris County,NJ,NA,NA,68.90756302521008
07830,Hunterdon County,NJ,92.94320137693632,NA,NA
08016,Burlington County,NJ,NA,54.21487603305785,NA
08028,Gloucester County,NJ,NA,47.43801652892562,NA
08037,Atlantic County,NJ,NA,17.85123966942149,NA
08046,Burlington County,NJ,NA,23.140495867768596,NA
08070,Salem County,NJ,NA,NA,96.35854341736695
08079,Salem County,NJ,NA,NA,89.07563025210085
08080,Gloucester County,NJ,NA,NA,58.543417366946784
08086,Gloucester County,NJ,NA,NA,80.3921568627451
08088,Burlington County,NJ,72.63339070567987,NA,NA
08093,Gloucester County,NJ,NA,70.9090909090909,NA
08098,Salem County,NJ,93.63166953528399,NA,NA
08103,Camden County,NJ,NA,49.09090909090909,NA
08251,Cape May County,NJ,51.11876075731497,NA,NA
08270,Cape May County,NJ,90.36144578313254,NA,NA
08505,Burlington County,NJ,79.69018932874354,NA,NA
08691,Mercer County,NJ,85.37005163511188,NA,NA
08753,Ocean County,NJ,NA,3.9669421487603307,NA
08757,Ocean County,NJ,NA,NA,0.8403361344537815
08759,Ocean County,NJ,11.187607573149743,NA,NA
08807,Somerset County,NJ,NA,34.710743801652896,NA
08816,Middlesex County,NJ,NA,22.479338842975206,NA
08824,Middlesex County,NJ,93.45955249569707,NA,NA
08831,Middlesex County,NJ,NA,7.2727272727272725,NA
08850,Middlesex County,NJ,97.59036144578313,NA,NA
08857,Middlesex County,NJ,NA,43.471074380165284,NA
08865,Warren County,NJ,5.163511187607573,NA,NA
87002,Valencia County,NM,NA,NA,96.63865546218487
87107,Bernalillo County,NM,NA,20,NA
87110,Bernalillo County,NM,12.220309810671257,NA,NA
87123,Bernalillo County,NM,13.253012048192772,NA,NA
87505,Santa Fe County,NM,NA,5.454545454545454,NA
87506,Santa Fe County,NM,NA,41.15702479338843,NA
87507,Santa Fe County,NM,NA,NA,21.008403361344538
88007,Doa Ana County,NM,90.70567986230637,NA,NA
88130,Roosevelt County,NM,NA,90.57851239669421,NA
88201,Chaves County,NM,NA,67.93388429752066,NA
88210,Eddy County,NM,NA,NA,60.78431372549019
88230,Chaves County,NM,96.55765920826161,NA,NA
88310,Otero County,NM,NA,68.26446280991736,NA
88352,Otero County,NM,NA,73.71900826446281,NA
10002,New York County,NY,3.614457831325301,NA,NA
10025,New York County,NY,27.36660929432014,NA,NA
10026,New York County,NY,NA,15.867768595041323,NA
10027,New York County,NY,NA,10.413223140495868,NA
10030,New York County,NY,NA,NA,77.31092436974791
10032,New York County,NY,NA,63.96694214876033,NA
10039,New York County,NY,NA,NA,39.21568627450981
10303,Richmond County,NY,41.65232358003442,NA,NA
10304,Richmond County,NY,NA,18.34710743801653,NA
10455,Bronx County,NY,22.719449225473323,NA,NA
10456,Bronx County,NY,1.8932874354561102,NA,NA
10458,Bronx County,NY,NA,15.206611570247933,NA
10459,Bronx County,NY,25.301204819277107,NA,NA
10472,Bronx County,NY,31.497418244406195,13.71900826446281,NA
10550,Westchester County,NY,NA,72.89256198347107,NA
10580,Westchester County,NY,NA,NA,31.652661064425768
10589,Westchester County,NY,NA,NA,43.69747899159664
10705,Westchester County,NY,NA,56.03305785123966,NA
10710,Westchester County,NY,NA,51.404958677685954,NA
11003,Nassau County,NY,92.59896729776248,NA,NA
11103,Queens County,NY,68.50258175559381,NA,NA
11203,Kings County,NY,NA,NA,66.38655462184873
11207,Kings County,NY,24.95697074010327,NA,NA
11212,Kings County,NY,NA,0.49586776859504134,NA
11214,Kings County,NY,NA,57.02479338842975,NA
11235,Kings County,NY,NA,NA,1.1204481792717087
11236,Kings County,NY,NA,NA,6.162464985994398
11238,Kings County,NY,NA,NA,35.01400560224089
11357,Queens County,NY,NA,38.01652892561984,NA
11366,Queens County,NY,88.12392426850259,NA,NA
11416,Queens County,NY,NA,93.88429752066115,NA
11421,Queens County,NY,NA,78.51239669421489,NA
11426,Queens County,NY,NA,NA,59.103641456582636
11501,Nassau County,NY,75.21514629948365,NA,NA
11520,Nassau County,NY,NA,NA,33.89355742296919
11530,Nassau County,NY,NA,78.01652892561984,NA
11550,Nassau County,NY,NA,14.049586776859504,NA
11575,Nassau County,NY,NA,82.8099173553719,NA
11590,Nassau County,NY,47.50430292598967,NA,NA
11713,Suffolk County,NY,NA,NA,96.9187675070028
11722,Suffolk County,NY,23.752151462994835,NA,NA
11787,Suffolk County,NY,NA,NA,57.14285714285714
11901,Suffolk County,NY,NA,52.72727272727272,NA
11971,Suffolk County,NY,NA,90.9090909090909,NA
12009,Albany County,NY,99.82788296041308,NA,NA
12027,Saratoga County,NY,99.48364888123923,NA,NA
12078,Fulton County,NY,4.647160068846816,NA,NA
12095,Fulton County,NY,81.75559380378658,NA,NA
12180,Rensselaer County,NY,15.834767641996558,83.80165289256199,NA
12302,Schenectady County,NY,NA,20.99173553719008,NA
12534,Columbia County,NY,NA,NA,62.18487394957983
12804,Warren County,NY,52.151462994836486,7.768595041322314,NA
12839,Washington County,NY,NA,NA,50.42016806722689
12986,Franklin County,NY,82.96041308089501,NA,NA
13027,Onondaga County,NY,14.629948364888124,NA,NA
13057,Onondaga County,NY,NA,NA,62.745098039215684
13069,Oswego County,NY,NA,8.264462809917356,NA
13114,Oswego County,NY,NA,90.74380165289256,NA
13126,Oswego County,NY,51.97934595524957,NA,NA
13135,Oswego County,NY,60.413080895008605,NA,NA
13209,Onondaga County,NY,NA,NA,64.9859943977591
13461,Oneida County,NY,87.95180722891565,NA,NA
13613,St. Lawrence County,NY,NA,98.67768595041322,NA
13662,St. Lawrence County,NY,NA,NA,33.33333333333333
13732,Tioga County,NY,47.16006884681583,NA,NA
13760,Broome County,NY,31.32530120481928,NA,NA
13790,Broome County,NY,NA,6.115702479338843,NA
13797,Broome County,NY,NA,99.50413223140497,NA
13815,Chenango County,NY,NA,NA,75.07002801120449
13820,Otsego County,NY,NA,5.619834710743802,NA
13850,Broome County,NY,87.09122203098106,NA,NA
13865,Broome County,NY,48.53700516351119,NA,NA
13901,Broome County,NY,53.01204819277109,40,NA
14020,Genesee County,NY,68.84681583476764,NA,NA
14033,Erie County,NY,NA,98.51239669421487,NA
14150,Erie County,NY,NA,4.628099173553719,NA
14207,Erie County,NY,8.433734939759036,62.97520661157024,NA
14213,Erie County,NY,19.793459552495698,NA,NA
14214,Erie County,NY,NA,NA,73.10924369747899
14218,Erie County,NY,19.62134251290878,NA,NA
14220,Erie County,NY,NA,22.975206611570247,NA
14221,Erie County,NY,NA,NA,12.044817927170868
14224,Erie County,NY,26.333907056798623,NA,NA
14424,Ontario County,NY,NA,0.6611570247933884,NA
14428,Monroe County,NY,NA,46.776859504132226,NA
14456,Ontario County,NY,7.74526678141136,NA,NA
14505,Wayne County,NY,NA,91.73553719008265,NA
14530,Wyoming County,NY,NA,87.43801652892562,NA
14532,Ontario County,NY,76.24784853700515,NA,NA
14534,Monroe County,NY,NA,1.487603305785124,3.9215686274509802
14548,Ontario County,NY,NA,93.05785123966942,NA
14559,Monroe County,NY,NA,17.68595041322314,NA
14589,Wayne County,NY,35.9724612736661,NA,NA
14605,Monroe County,NY,NA,46.44628099173554,NA
14609,Monroe County,NY,5.335628227194492,NA,NA
14616,Monroe County,NY,NA,6.446280991735537,NA
14620,Monroe County,NY,NA,13.223140495867769,NA
14621,Monroe County,NY,6.196213425129088,NA,NA
14712,Chautauqua County,NY,NA,98.01652892561984,NA
14801,Steuben County,NY,91.56626506024097,NA,NA
14818,Schuyler County,NY,NA,99.17355371900827,NA
14850,Tompkins County,NY,5.507745266781412,NA,NA
27018,Yadkin County,NC,87.77969018932875,NA,NA
27021,Stokes County,NC,86.74698795180723,NA,NA
27040,Forsyth County,NC,66.60929432013769,NA,NA
27215,Alamance County,NC,10.154905335628227,NA,NA
27313,Guilford County,NC,NA,84.46280991735537,NA
27344,Chatham County,NC,NA,35.70247933884298,NA
27410,Guilford County,NC,NA,11.40495867768595,NA
27514,Orange County,NC,NA,NA,31.932773109243694
27517,Orange County,NC,NA,24.462809917355372,NA
27520,Johnston County,NC,NA,NA,45.65826330532213
27525,Franklin County,NC,56.11015490533563,NA,NA
27529,Wake County,NC,NA,12.892561983471074,NA
27537,Vance County,NC,NA,55.371900826446286,NA
27596,Franklin County,NC,62.65060240963856,NA,NA
27610,Wake County,NC,7.573149741824441,5.289256198347108,NA
27617,Wake County,NC,NA,96.52892561983471,NA
27705,Durham County,NC,NA,NA,19.327731092436977
27707,Durham County,NC,NA,80.16528925619835,86.5546218487395
27712,Durham County,NC,NA,NA,91.31652661064426
27834,Pitt County,NC,NA,12.396694214876034,NA
27891,Nash County,NC,NA,88.42975206611571,NA
27892,Martin County,NC,NA,60.82644628099173,NA
28031,Mecklenburg County,NC,57.831325301204814,NA,NA
28043,Rutherford County,NC,NA,33.71900826446281,NA
28086,Cleveland County,NC,NA,NA,71.98879551820728
28115,Iredell County,NC,NA,NA,29.69187675070028
28129,Stanly County,NC,NA,NA,78.43137254901961
28205,Mecklenburg County,NC,52.83993115318416,NA,NA
28262,Mecklenburg County,NC,36.48881239242685,NA,NA
28277,Mecklenburg County,NC,NA,NA,27.73109243697479
28306,Bladen County,NC,NA,88.7603305785124,NA
28358,Robeson County,NC,17.38382099827883,NA,NA
28374,Moore County,NC,NA,NA,11.76470588235294
28379,Richmond County,NC,NA,23.801652892561982,NA
28461,Brunswick County,NC,43.88984509466437,NA,NA
28602,Catawba County,NC,NA,NA,55.46218487394958
28605,Watauga County,NC,NA,80,NA
28739,Henderson County,NC,NA,10.24793388429752,NA
28789,Jackson County,NC,NA,NA,86.83473389355743
28904,Clay County,NC,NA,62.8099173553719,NA
43017,Franklin County,OH,NA,65.78512396694215,NA
43040,Union County,OH,NA,16.198347107438018,NA
43055,Licking County,OH,NA,0.8264462809917356,NA
43130,Fairfield County,OH,NA,2.1487603305785123,NA
43228,Franklin County,OH,NA,NA,20.448179271708682
43232,Franklin County,OH,3.7865748709122204,NA,NA
43326,Hardin County,OH,NA,NA,42.857142857142854
43351,Wyandot County,OH,NA,92.72727272727272,NA
43420,Sandusky County,OH,11.015490533562824,NA,NA
43452,Ottawa County,OH,NA,62.64462809917355,NA
43502,Fulton County,OH,77.62478485370052,NA,NA
43528,Lucas County,OH,NA,36.36363636363637,NA
43560,Lucas County,OH,NA,42.4793388429752,NA
43607,Lucas County,OH,6.540447504302927,NA,NA
43611,Lucas County,OH,15.3184165232358,NA,NA
43616,Lucas County,OH,NA,NA,20.72829131652661
43701,Muskingum County,OH,0.5163511187607573,NA,NA
43713,Belmont County,OH,NA,75.70247933884298,NA
43953,Jefferson County,OH,33.90705679862307,NA,NA
44023,Geauga County,OH,NA,36.19834710743802,NA
44035,Lorain County,OH,0,NA,0
44052,Lorain County,OH,2.2375215146299485,NA,NA
44060,Lake County,OH,NA,NA,0.5602240896358543
44094,Lake County,OH,19.44922547332186,NA,NA
44102,Cuyahoga County,OH,NA,NA,57.70308123249299
44103,Cuyahoga County,OH,NA,59.17355371900827,NA
44105,Cuyahoga County,OH,NA,NA,22.689075630252102
44107,Cuyahoga County,OH,NA,NA,72.82913165266106
44108,Cuyahoga County,OH,NA,4.958677685950414,NA
44112,Cuyahoga County,OH,NA,3.8016528925619832,NA
44116,Cuyahoga County,OH,79.34595524956971,NA,NA
44120,Cuyahoga County,OH,NA,NA,36.41456582633053
44122,Cuyahoga County,OH,NA,4.132231404958678,NA
44124,Cuyahoga County,OH,NA,18.016528925619834,NA
44125,Cuyahoga County,OH,1.2048192771084338,NA,NA
44128,Cuyahoga County,OH,17.555938037865747,NA,1.9607843137254901
44131,Cuyahoga County,OH,NA,NA,69.46778711484593
44134,Cuyahoga County,OH,NA,NA,4.201680672268908
44135,Cuyahoga County,OH,NA,30.413223140495866,NA
44136,Cuyahoga County,OH,NA,6.2809917355371905,NA
44137,Cuyahoga County,OH,27.19449225473322,NA,NA
44143,Cuyahoga County,OH,NA,11.074380165289256,NA
44144,Cuyahoga County,OH,12.392426850258175,NA,NA
44212,Medina County,OH,36.316695352839936,51.90082644628099,NA
44256,Medina County,OH,NA,NA,1.400560224089636
44278,Summit County,OH,NA,NA,93.8375350140056
44281,Medina County,OH,NA,NA,47.61904761904761
44310,Summit County,OH,NA,18.677685950413224,NA
44312,Summit County,OH,NA,54.049586776859506,NA
44320,Summit County,OH,18.072289156626507,NA,NA
44437,Trumbull County,OH,96.04130808950086,NA,NA
44444,Trumbull County,OH,75.38726333907057,NA,NA
44509,Mahoning County,OH,NA,69.91735537190083,NA
44515,Mahoning County,OH,10.671256454388985,8.429752066115702,NA
44708,Stark County,OH,NA,NA,17.647058823529413
44805,Ashland County,OH,13.59724612736661,76.85950413223141,NA
44811,Sandusky County,OH,32.53012048192771,NA,NA
44833,Crawford County,OH,33.56282271944922,NA,NA
44870,Erie County,OH,1.549053356282272,NA,NA
44890,Huron County,OH,NA,NA,90.19607843137256
44906,Richland County,OH,NA,NA,25.49019607843137
45013,Butler County,OH,3.098106712564544,NA,NA
45042,Butler County,OH,20.481927710843372,NA,NA
45069,Butler County,OH,NA,45.950413223140494,NA
45133,Highland County,OH,88.81239242685027,NA,NA
45140,Clermont County,OH,NA,12.066115702479339,NA
45205,Hamilton County,OH,NA,77.68595041322314,NA
45214,Hamilton County,OH,72.80550774526678,NA,95.7983193277311
45240,Hamilton County,OH,26.850258175559382,NA,NA
45324,Greene County,OH,NA,67.43801652892562,NA
45373,Miami County,OH,7.228915662650602,NA,NA
45415,Montgomery County,OH,NA,NA,65.26610644257703
45429,Montgomery County,OH,44.40619621342513,NA,NA
45601,Ross County,OH,NA,0,NA
45619,Lawrence County,OH,28.399311531841654,NA,NA
45638,Lawrence County,OH,NA,NA,23.809523809523807
45669,Lawrence County,OH,19.104991394148023,NA,NA
45680,Lawrence County,OH,NA,NA,33.0532212885154
45690,Pike County,OH,NA,NA,24.649859943977592
45750,Washington County,OH,NA,38.34710743801653,NA
45804,Allen County,OH,NA,21.65289256198347,NA
45840,Hancock County,OH,2.4096385542168677,NA,NA
45850,Allen County,OH,96.72977624784855,NA,NA
73044,Logan County,OK,NA,40.82644628099173,NA
73069,Cleveland County,OK,63.16695352839932,NA,NA
73071,Cleveland County,OK,NA,11.735537190082644,NA
73128,Canadian County,OK,97.24612736660929,NA,NA
73132,Oklahoma County,OK,NA,36.85950413223141,NA
73150,Oklahoma County,OK,NA,NA,93.55742296918767
73401,Carter County,OK,NA,7.933884297520661,NA
73439,Marshall County,OK,70.05163511187608,NA,NA
74012,Tulsa County,OK,NA,NA,7.8431372549019605
74014,Wagoner County,OK,36.83304647160069,NA,NA
74020,Pawnee County,OK,NA,NA,85.71428571428571
74137,Tulsa County,OK,NA,NA,67.50700280112045
74441,Cherokee County,OK,82.44406196213426,NA,NA
74462,Haskell County,OK,NA,NA,97.47899159663865
74801,Pottawatomie County,OK,38.55421686746988,NA,NA
74872,Garvin County,OK,NA,97.02479338842976,NA
74948,Sequoyah County,OK,NA,88.92561983471074,NA
97007,Washington County,OR,NA,56.69421487603306,NA
97055,Clackamas County,OR,64.19965576592082,NA,46.21848739495798
97068,Clackamas County,OR,NA,49.917355371900825,NA
97086,Clackamas County,OR,NA,61.65289256198348,NA
97103,Clatsop County,OR,NA,NA,52.10084033613446
97124,Washington County,OR,NA,19.669421487603305,NA
97140,Washington County,OR,55.76592082616179,NA,82.07282913165265
97212,Multnomah County,OR,NA,69.75206611570248,NA
97220,Multnomah County,OR,NA,25.6198347107438,NA
97229,Washington County,OR,NA,66.11570247933885,NA
97266,Multnomah County,OR,87.4354561101549,NA,NA
97330,Benton County,OR,74.69879518072288,NA,NA
97351,Polk County,OR,NA,78.34710743801652,NA
97467,Douglas County,OR,NA,NA,85.43417366946778
97470,Douglas County,OR,81.23924268502581,NA,NA
97501,Jackson County,OR,9.122203098106713,NA,NA
97502,Jackson County,OR,40.963855421686745,NA,NA
97535,Jackson County,OR,NA,65.45454545454545,NA
97739,Deschutes County,OR,76.76419965576592,NA,NA
15001,Beaver County,PA,53.184165232358005,NA,NA
15010,Beaver County,PA,22.547332185886404,NA,NA
15024,Allegheny County,PA,81.92771084337349,NA,NA
15102,Allegheny County,PA,NA,24.297520661157023,NA
15120,Allegheny County,PA,45.61101549053356,NA,NA
15137,Allegheny County,PA,80.20654044750431,NA,NA
15205,Allegheny County,PA,NA,NA,82.35294117647058
15219,Allegheny County,PA,NA,NA,84.31372549019608
15317,Washington County,PA,NA,NA,45.09803921568628
15342,Washington County,PA,NA,NA,94.9579831932773
15425,Fayette County,PA,NA,20,NA
15478,Fayette County,PA,NA,53.388429752066116,NA
15613,Westmoreland County,PA,62.822719449225474,NA,NA
15642,Westmoreland County,PA,NA,26.942148760330582,NA
15644,Westmoreland County,PA,NA,63.1404958677686,NA
15701,Indiana County,PA,NA,13.553719008264462,NA
15767,Jefferson County,PA,NA,26.115702479338843,NA
15904,Cambria County,PA,58.34767641996558,85.78512396694215,NA
16002,Butler County,PA,NA,30.74380165289256,NA
16025,Butler County,PA,98.9672977624785,NA,NA
16505,Erie County,PA,NA,NA,53.221288515406165
16510,Erie County,PA,NA,35.70247933884298,NA
16601,Blair County,PA,NA,50.57851239669422,NA
16648,Blair County,PA,56.79862306368331,NA,NA
16673,Blair County,PA,NA,97.68595041322314,NA
16801,Centre County,PA,NA,58.18181818181818,NA
16823,Centre County,PA,68.33046471600689,13.057851239669422,NA
16830,Clearfield County,PA,59.20826161790017,NA,NA
16875,Centre County,PA,95.18072289156626,NA,NA
16901,Tioga County,PA,NA,69.42148760330579,NA
17013,Cumberland County,PA,21.34251290877797,NA,NA
17018,Dauphin County,PA,99.65576592082617,NA,NA
17022,Lancaster County,PA,NA,12.231404958677686,NA
17042,Lebanon County,PA,4.991394148020654,NA,NA
17057,Dauphin County,PA,NA,81.98347107438016,NA
17090,Perry County,PA,98.62306368330465,NA,NA
17103,Dauphin County,PA,NA,63.47107438016529,NA
17113,Dauphin County,PA,91.22203098106712,NA,NA
17222,Franklin County,PA,NA,45.123966942148755,NA
17233,Fulton County,PA,NA,80.49586776859505,NA
17236,Franklin County,PA,NA,68.7603305785124,NA
17257,Cumberland County,PA,NA,22.644628099173552,NA
17313,York County,PA,NA,NA,56.022408963585434
17362,York County,PA,65.57659208261619,NA,NA
17408,York County,PA,NA,63.80165289256199,NA
17540,Lancaster County,PA,NA,NA,89.91596638655463
17701,Lycoming County,PA,NA,61.15702479338842,NA
17728,Lycoming County,PA,91.91049913941481,NA,NA
17745,Clinton County,PA,NA,NA,42.016806722689076
17777,Northumberland County,PA,99.31153184165233,NA,NA
17815,Columbia County,PA,NA,NA,13.445378151260504
17963,Schuylkill County,PA,NA,73.88429752066116,NA
18017,Northampton County,PA,NA,54.3801652892562,3.081232492997199
18036,Lehigh County,PA,NA,NA,35.57422969187675
18052,Lehigh County,PA,NA,28.595041322314053,NA
18055,Northampton County,PA,NA,NA,45.938375350140056
18064,Northampton County,PA,NA,20.66115702479339,NA
18066,Lehigh County,PA,NA,89.0909090909091,NA
18073,Montgomery County,PA,NA,NA,80.95238095238095
18104,Lehigh County,PA,NA,3.6363636363636362,NA
18201,Luzerne County,PA,20.309810671256454,NA,NA
18202,Luzerne County,PA,48.02065404475043,NA,NA
18353,Monroe County,PA,NA,82.31404958677686,NA
18428,Pike County,PA,NA,NA,89.35574229691878
18444,Lackawanna County,PA,NA,95.53719008264463,NA
18466,Monroe County,PA,NA,NA,94.67787114845937
18704,Luzerne County,PA,17.728055077452666,NA,NA
18706,Luzerne County,PA,40.27538726333907,NA,NA
18848,Bradford County,PA,NA,92.56198347107438,NA
19027,Montgomery County,PA,NA,NA,22.969187675070028
19038,Montgomery County,PA,NA,21.487603305785125,NA
19047,Bucks County,PA,25.645438898450944,NA,NA
19053,Bucks County,PA,NA,NA,70.86834733893558
19075,Montgomery County,PA,85.88640275387263,NA,97.75910364145658
19083,Delaware County,PA,NA,39.50413223140496,NA
19090,Montgomery County,PA,NA,39.17355371900826,NA
19120,Philadelphia County,PA,NA,28.09917355371901,NA
19131,Philadelphia County,PA,NA,2.479338842975207,NA
19139,Philadelphia County,PA,3.9586919104991396,NA,NA
19140,Philadelphia County,PA,NA,32.231404958677686,NA
19143,Philadelphia County,PA,NA,0.9917355371900827,NA
19144,Philadelphia County,PA,24.268502581755595,NA,NA
19145,Philadelphia County,PA,8.089500860585199,36.36363636363637,NA
19148,Philadelphia County,PA,8.605851979345955,NA,NA
19151,Philadelphia County,PA,60.58519793459553,45.6198347107438,NA
19152,Philadelphia County,PA,NA,16.859504132231404,NA
19311,Chester County,PA,NA,87.60330578512396,NA
19380,Chester County,PA,NA,4.793388429752066,NA
19401,Montgomery County,PA,34.76764199655766,NA,NA
19460,Chester County,PA,25.12908777969019,20.330578512396695,22.408963585434176
19504,Berks County,PA,96.3855421686747,NA,NA
19602,Berks County,PA,NA,25.28925619834711,NA
19604,Berks County,PA,57.48709122203098,NA,NA
19605,Berks County,PA,31.841652323580032,NA,NA
19606,Berks County,PA,11.359724612736661,NA,NA
19608,Berks County,PA,59.896729776247845,NA,NA
19611,Berks County,PA,NA,95.0413223140496,NA
02842,Newport County,RI,NA,90.24793388429751,47.89915966386555
02859,Providence County,RI,NA,92.39669421487604,NA
02860,Providence County,RI,NA,72.39669421487604,NA
02889,Kent County,RI,25.989672977624785,NA,NA
02904,Providence County,RI,NA,14.87603305785124,NA
02914,Providence County,RI,45.78313253012048,NA,NA
29072,Lexington County,SC,58.003442340791736,NA,NA
29118,Orangeburg County,SC,88.64027538726333,NA,NA
29180,Fairfield County,SC,NA,NA,75.63025210084034
29209,Richland County,SC,46.12736660929432,NA,NA
29212,Lexington County,SC,NA,35.53719008264463,NA
29229,Richland County,SC,NA,46.611570247933884,NA
29306,Spartanburg County,SC,NA,61.32231404958678,NA
29341,Cherokee County,SC,71.77280550774526,NA,NA
29406,Charleston County,SC,25.817555938037867,NA,NA
29449,Charleston County,SC,NA,93.71900826446281,NA
29456,Dorchester County,SC,77.28055077452667,NA,NA
29466,Charleston County,SC,NA,NA,34.173669467787114
29488,Colleton County,SC,NA,NA,92.71708683473389
29510,Georgetown County,SC,NA,91.2396694214876,NA
29581,Horry County,SC,NA,NA,92.15686274509804
29588,Horry County,SC,NA,34.21487603305785,NA
29605,Greenville County,SC,NA,38.84297520661157,NA
29611,Greenville County,SC,NA,27.603305785123965,NA
29640,Pickens County,SC,NA,19.00826446280992,NA
29645,Laurens County,SC,84.50946643717728,NA,NA
29651,Greenville County,SC,NA,41.48760330578513,NA
29657,Pickens County,SC,NA,81.32231404958678,NA
29669,Anderson County,SC,NA,52.066115702479344,NA
29708,York County,SC,NA,56.528925619834716,NA
57104,Minnehaha County,SD,NA,NA,13.725490196078432
57201,Codington County,SD,NA,NA,41.73669467787115
37036,Dickson County,TN,NA,NA,92.99719887955182
37148,Sumner County,TN,NA,73.22314049586777,NA
37166,DeKalb County,TN,NA,49.586776859504134,NA
37172,Robertson County,TN,NA,27.43801652892562,NA
37179,Williamson County,TN,NA,83.30578512396694,NA
37186,Sumner County,TN,63.683304647160064,NA,NA
37187,Dickson County,TN,NA,86.61157024793388,NA
37190,Cannon County,TN,73.49397590361446,NA,NA
37208,Davidson County,TN,NA,95.37190082644628,NA
37209,Davidson County,TN,32.87435456110155,NA,NA
37334,Lincoln County,TN,37.005163511187604,NA,NA
37355,Coffee County,TN,35.628227194492254,NA,NA
37363,Hamilton County,TN,42.857142857142854,34.049586776859506,NA
37375,Franklin County,TN,NA,97.35537190082646,NA
37398,Franklin County,TN,46.47160068846816,NA,NA
37620,Sullivan County,TN,NA,NA,15.966386554621847
37743,Greene County,TN,12.736660929432015,NA,NA
37748,Roane County,TN,35.45611015490533,NA,NA
37813,Hamblen County,TN,NA,55.53719008264463,NA
37857,Hawkins County,TN,NA,70.24793388429752,NA
37921,Knox County,TN,NA,47.43801652892562,NA
38011,Tipton County,TN,86.05851979345955,NA,NA
38024,Dyer County,TN,NA,29.91735537190083,NA
38114,Shelby County,TN,NA,26.942148760330582,NA
38117,Shelby County,TN,NA,NA,48.4593837535014
38128,Shelby County,TN,NA,29.75206611570248,NA
38134,Shelby County,TN,NA,47.107438016528924,NA
38242,Henry County,TN,NA,NA,43.417366946778714
38462,Lewis County,TN,NA,NA,80.67226890756302
38474,Maury County,TN,73.32185886402753,NA,NA
38501,Putnam County,TN,19.965576592082616,NA,NA
38555,Cumberland County,TN,NA,33.388429752066116,NA
38556,Fentress County,TN,NA,NA,83.75350140056022
38570,Overton County,TN,NA,NA,74.50980392156863
75010,Denton County,TX,83.99311531841653,NA,NA
75024,Collin County,TX,58.69191049913941,NA,NA
75025,Collin County,TX,55.42168674698795,NA,NA
75052,Dallas County,TX,18.416523235800344,NA,NA
75054,Tarrant County,TX,NA,89.42148760330578,NA
75160,Kaufman County,TX,NA,NA,94.39775910364145
75165,Ellis County,TX,NA,NA,54.34173669467787
75181,Dallas County,TX,75.90361445783132,NA,NA
75204,Dallas County,TX,NA,61.98347107438017,NA
75212,Dallas County,TX,46.815834767641995,NA,NA
75217,Dallas County,TX,NA,NA,37.53501400560224
75231,Dallas County,TX,NA,57.68595041322314,NA
75243,Dallas County,TX,14.974182444061961,NA,NA
75249,Dallas County,TX,NA,NA,100
75652,Rusk County,TX,86.40275387263338,NA,NA
75703,Smith County,TX,NA,NA,2.5210084033613445
75771,Smith County,TX,54.044750430292595,NA,NA
75904,Angelina County,TX,35.28399311531842,NA,NA
75935,Shelby County,TX,71.60068846815835,NA,NA
75965,Nacogdoches County,TX,66.09294320137694,NA,NA
75972,San Augustine County,TX,NA,89.75206611570248,NA
76015,Tarrant County,TX,74.18244406196214,NA,NA
76033,Johnson County,TX,NA,31.900826446280995,NA
76039,Tarrant County,TX,NA,53.71900826446281,NA
76049,Hood County,TX,39.070567986230635,NA,NA
76063,Tarrant County,TX,45.438898450946645,NA,NA
76067,Palo Pinto County,TX,NA,49.256198347107436,NA
76086,Parker County,TX,NA,NA,29.971988795518207
76112,Tarrant County,TX,NA,NA,67.22689075630252
76137,Tarrant County,TX,21.514629948364888,NA,NA
76248,Tarrant County,TX,NA,36.03305785123967,NA
76273,Grayson County,TX,NA,NA,84.87394957983193
76309,Wichita County,TX,72.1170395869191,NA,NA
76354,Wichita County,TX,NA,NA,64.14565826330532
76502,Bell County,TX,NA,NA,2.801120448179272
76504,Bell County,TX,10.327022375215146,NA,NA
76550,Lampasas County,TX,NA,78.67768595041322,NA
76657,McLennan County,TX,81.06712564543889,NA,NA
77004,Harris County,TX,NA,37.02479338842975,NA
77021,Harris County,TX,NA,NA,44.537815126050425
77031,Harris County,TX,NA,96.19834710743802,NA
77048,Harris County,TX,NA,73.38842975206612,NA
77067,Harris County,TX,70.39586919104991,NA,NA
77068,Harris County,TX,95.35283993115318,NA,NA
77076,Harris County,TX,53.35628227194492,NA,NA
77078,Harris County,TX,NA,54.710743801652896,NA
77084,Harris County,TX,NA,NA,60.50420168067227
77090,Harris County,TX,NA,NA,61.62464985994398
77092,Harris County,TX,NA,57.190082644628106,NA
77093,Harris County,TX,NA,44.79338842975207,NA
77389,Harris County,TX,77.10843373493977,NA,NA
77407,Fort Bend County,TX,52.667814113597245,NA,NA
77429,Harris County,TX,42.168674698795186,NA,NA
77469,Fort Bend County,TX,NA,29.256198347107436,NA
77477,Fort Bend County,TX,NA,NA,72.54901960784314
77523,Chambers County,TX,NA,97.85123966942149,NA
77662,Orange County,TX,NA,NA,77.03081232492998
77703,Jefferson County,TX,NA,87.93388429752066,NA
77845,Brazos County,TX,9.982788296041308,NA,NA
77868,Grimes County,TX,65.23235800344234,NA,NA
77905,Victoria County,TX,NA,53.223140495867774,NA
77954,DeWitt County,TX,NA,NA,49.01960784313725
78041,Webb County,TX,38.209982788296045,NA,NA
78155,Guadalupe County,TX,56.454388984509464,NA,NA
78209,Bexar County,TX,61.96213425129088,NA,NA
78218,Bexar County,TX,NA,45.45454545454545,NA
78223,Bexar County,TX,NA,83.47107438016529,NA
78228,Bexar County,TX,29.604130808950085,NA,NA
78229,Bexar County,TX,52.323580034423415,NA,NA
78230,Bexar County,TX,57.6592082616179,NA,NA
78253,Bexar County,TX,NA,NA,62.46498599439776
78413,Nueces County,TX,69.19104991394148,NA,NA
78521,Cameron County,TX,NA,14.214876033057852,NA
78537,Hidalgo County,TX,82.61617900172116,NA,NA
78577,Hidalgo County,TX,NA,20.49586776859504,NA
78582,Starr County,TX,NA,34.87603305785124,NA
78801,Uvalde County,TX,60.06884681583477,NA,NA
79336,Hockley County,TX,NA,55.04132231404959,NA
79360,Gaines County,TX,51.80722891566265,NA,NA
79416,Lubbock County,TX,53.35628227194492,NA,NA
84043,Utah County,UT,NA,NA,72.26890756302521
84062,Utah County,UT,NA,94.3801652892562,NA
84074,Tooele County,UT,4.3029259896729775,NA,NA
84107,Salt Lake County,UT,42.51290877796902,NA,NA
84118,Salt Lake County,UT,18.76075731497418,NA,NA
84780,Washington County,UT,NA,40.82644628099173,NA
84790,Washington County,UT,NA,80.33057851239668,NA
05201,Bennington County,VT,48.19277108433735,19.33884297520661,NA
05403,Chittenden County,VT,61.10154905335629,NA,NA
05602,Washington County,VT,NA,65.28925619834712,NA
05673,Washington County,VT,NA,99.83471074380165,NA
20169,Prince William County,VA,NA,66.44628099173553,NA
20191,Fairfax County,VA,NA,59.83471074380166,NA
22039,Fairfax County,VA,76.41996557659209,NA,NA
22401,Fredericksburg city,VA,NA,NA,54.90196078431373
22406,Stafford County,VA,NA,NA,45.378151260504204
22801,Harrisonburg city,VA,NA,64.95867768595042,NA
22821,Rockingham County,VA,NA,NA,98.0392156862745
22835,Page County,VA,NA,43.80165289256198,NA
22980,Waynesboro city,VA,NA,3.3057851239669422,NA
23325,Chesapeake city,VA,70.74010327022376,NA,NA
23417,Accomack County,VA,NA,86.94214876033057,NA
23454,Virginia Beach city,VA,NA,8.760330578512397,4.761904761904762
23456,Virginia Beach city,VA,NA,53.884297520661164,NA
23503,Norfolk city,VA,NA,66.77685950413223,NA
23513,Norfolk city,VA,19.27710843373494,NA,NA
23662,Poquoson city,VA,NA,NA,49.57983193277311
23666,Hampton city,VA,NA,71.5702479338843,NA
23803,Petersburg city,VA,NA,11.900826446280991,84.593837535014
24012,Roanoke city,VA,30.120481927710845,NA,NA
24019,Roanoke County,VA,NA,NA,40.33613445378151
24151,Franklin County,VA,46.815834767641995,NA,NA
24153,Salem city,VA,NA,14.545454545454545,NA
24179,Roanoke County,VA,49.5697074010327,NA,NA
24228,Dickenson County,VA,65.92082616179002,NA,NA
24266,Russell County,VA,NA,58.51239669421487,NA
24382,Wythe County,VA,NA,42.97520661157025,NA
24401,Staunton city,VA,NA,47.27272727272727,NA
24609,Tazewell County,VA,57.31497418244407,NA,NA
24630,Tazewell County,VA,88.2960413080895,NA,NA
98003,King County,WA,29.08777969018933,NA,NA
98004,King County,WA,NA,61.48760330578512,NA
98022,King County,WA,NA,NA,38.37535014005603
98027,King County,WA,NA,35.37190082644628,NA
98038,King County,WA,NA,66.44628099173553,NA
98042,King County,WA,NA,8.59504132231405,NA
98052,King County,WA,NA,NA,14.84593837535014
98103,King County,WA,47.67641996557659,NA,NA
98118,King County,WA,69.53528399311531,NA,NA
98178,King County,WA,NA,91.40495867768595,NA
98199,King County,WA,NA,68.92561983471074,NA
98230,Whatcom County,WA,NA,NA,70.58823529411765
98232,Skagit County,WA,NA,96.36363636363636,NA
98273,Skagit County,WA,NA,43.30578512396694,NA
98294,Snohomish County,WA,NA,93.55371900826445,NA
98332,Pierce County,WA,85.19793459552496,NA,NA
98374,Pierce County,WA,43.71772805507745,NA,NA
98387,Pierce County,WA,NA,NA,51.540616246498594
98407,Pierce County,WA,NA,74.54545454545455,NA
98466,Pierce County,WA,NA,29.421487603305785,NA
97003,NA,NA,NA,64.13223140495867,NA
98584,Mason County,WA,34.93975903614458,NA,NA
98632,Cowlitz County,WA,NA,4.297520661157025,NA
98640,Pacific County,WA,NA,NA,95.23809523809523
98642,Clark County,WA,NA,79.17355371900825,NA
98837,Grant County,WA,32.18588640275387,25.785123966942148,NA
98903,Yakima County,WA,NA,NA,56.582633053221286
99352,Benton County,WA,NA,NA,40.896358543417364
20019,District of Columbia,DC,4.130808950086059,NA,NA
24740,Mercer County,WV,NA,26.28099173553719,NA
25064,Kanawha County,WV,50.602409638554214,NA,NA
25403,Berkeley County,WV,NA,63.63636363636363,NA
25427,Berkeley County,WV,NA,62.314049586776854,NA
25704,Wayne County,WV,29.259896729776248,NA,NA
26003,Ohio County,WV,5.851979345955249,NA,NA
26070,Brooke County,WV,NA,59.33884297520661,NA
26101,Wood County,WV,74.35456110154905,NA,NA
26150,Wood County,WV,NA,48.4297520661157,NA
26155,Wetzel County,WV,NA,88.59504132231405,NA
26241,Randolph County,WV,74.87091222030982,NA,NA
26301,Harrison County,WV,NA,NA,21.568627450980394
26501,Monongalia County,WV,NA,NA,33.61344537815126
26505,Monongalia County,WV,NA,47.93388429752066,NA
26554,Marion County,WV,NA,1.1570247933884297,NA
53066,Waukesha County,WI,41.30808950086058,NA,NA
53092,Ozaukee County,WI,78.3132530120482,NA,NA
53207,Milwaukee County,WI,27.538726333907054,NA,NA
53212,Milwaukee County,WI,NA,41.65289256198347,NA
53214,Milwaukee County,WI,12.048192771084338,NA,NA
53216,Milwaukee County,WI,28.227194492254732,NA,99.43977591036415
53223,Milwaukee County,WI,NA,NA,11.204481792717088
53226,Milwaukee County,WI,NA,28.429752066115704,NA
53405,Racine County,WI,NA,77.52066115702479,NA
53406,Racine County,WI,81.58347676419966,NA,18.207282913165265
53531,Dane County,WI,98.2788296041308,NA,NA
53590,Dane County,WI,39.75903614457831,NA,NA
53719,Dane County,WI,54.90533562822719,NA,NA
53913,Sauk County,WI,NA,NA,44.25770308123249
53916,Dodge County,WI,80.03442340791739,NA,NA
54022,Pierce County,WI,NA,40.33057851239669,NA
54115,Brown County,WI,47.332185886402755,87.76859504132231,NA
54143,Marinette County,WI,NA,91.07438016528926,NA
54403,Marathon County,WI,NA,25.454545454545453,NA
54409,Langlade County,WI,NA,NA,8.123249299719888
54494,Wood County,WI,NA,NA,17.92717086834734
54650,La Crosse County,WI,NA,NA,3.361344537815126
54656,Monroe County,WI,NA,80.66115702479338,50.700280112044815
54660,Monroe County,WI,89.50086058519794,NA,NA
54751,Dunn County,WI,NA,23.96694214876033,NA
54830,Burnett County,WI,NA,NA,81.23249299719888
54922,Outagamie County,WI,NA,99.3388429752066,NA
54935,Fond du Lac County,WI,NA,10.743801652892563,NA
54956,Winnebago County,WI,NA,62.314049586776854,NA
