ZipCode,county,state,Adult,Retirement,Geriatric
35004,St. Clair County,AL,NA,NA,95.85492227979275
35040,Shelby County,AL,43.286788399570355,NA,NA
35058,Cullman County,AL,65.62835660580022,NA,NA
35146,St. Clair County,AL,88.7218045112782,NA,NA
35150,Talladega County,AL,63.26530612244898,NA,NA
35213,Jefferson County,AL,NA,NA,88.08290155440415
35242,Shelby County,AL,56.713211600429645,10.38961038961039,7.253886010362693
35243,Jefferson County,AL,NA,57.69944341372912,NA
35244,Jefferson County,AL,NA,40.816326530612244,NA
35475,Tuscaloosa County,AL,44.46831364124597,NA,NA
35601,Morgan County,AL,NA,12.80148423005566,NA
35661,Colbert County,AL,57.35767991407089,NA,NA
35756,Limestone County,AL,NA,76.25231910946196,NA
35763,Madison County,AL,NA,56.58627087198516,NA
35803,Madison County,AL,56.605800214822764,NA,NA
35957,Marshall County,AL,40.70891514500537,NA,NA
35976,Marshall County,AL,NA,67.71799628942486,NA
36092,Elmore County,AL,39.849624060150376,NA,NA
36266,Clay County,AL,78.62513426423202,NA,NA
36502,Escambia County,AL,NA,43.970315398886825,NA
36551,Baldwin County,AL,68.74328678839957,NA,NA
36619,Mobile County,AL,NA,67.16141001855289,NA
36830,Lee County,AL,58.53920515574651,NA,NA
36867,Russell County,AL,NA,NA,64.76683937823834
99507,Anchorage Municipality,AK,58.002148227712134,NA,NA
99516,Anchorage Municipality,AK,69.49516648764768,NA,NA
99801,Juneau City and Borough,AK,68.6358754027927,NA,NA
85015,Maricopa County,AZ,NA,77.55102040816327,NA
85043,Maricopa County,AZ,47.6906552094522,NA,NA
85215,Maricopa County,AZ,89.68850698174006,NA,NA
85253,Maricopa County,AZ,80.02148227712136,NA,NA
85308,Maricopa County,AZ,29.32330827067669,NA,NA
85321,Pima County,AZ,NA,91.09461966604823,NA
85339,Maricopa County,AZ,18.045112781954884,51.94805194805194,NA
85340,Maricopa County,AZ,NA,76.43784786641929,NA
85349,Yuma County,AZ,29.430719656283564,NA,NA
85364,Yuma County,AZ,31.68635875402793,NA,4.145077720207254
85607,Cochise County,AZ,23.952738990332975,NA,NA
85614,Pima County,AZ,NA,19.851576994434136,NA
85621,Santa Cruz County,AZ,NA,44.34137291280148,NA
85629,Pima County,AZ,62.08378088077337,NA,NA
85635,Cochise County,AZ,NA,49.35064935064935,NA
85650,Cochise County,AZ,73.57679914070891,NA,NA
85653,Pima County,AZ,32.2234156820623,NA,NA
85658,Pima County,AZ,69.0655209452202,NA,NA
85706,Pima County,AZ,1.8259935553168638,NA,NA
85730,Pima County,AZ,22.12674543501611,NA,NA
85741,Pima County,AZ,27.604726100966705,NA,NA
85743,Pima County,AZ,36.4124597207304,NA,NA
85747,Pima County,AZ,84.21052631578947,NA,NA
85749,Pima County,AZ,NA,69.57328385899815,NA
86001,Coconino County,AZ,NA,74.39703153988869,NA
86004,Coconino County,AZ,NA,11.131725417439704,NA
86314,Yavapai County,AZ,NA,NA,11.917098445595855
86333,Yavapai County,AZ,NA,90.9090909090909,NA
86401,Mohave County,AZ,NA,37.105751391465674,NA
86409,Mohave County,AZ,NA,26.53061224489796,NA
71601,Jefferson County,AR,92.9108485499463,NA,NA
71701,Ouachita County,AR,NA,53.432282003710576,NA
71822,Little River County,AR,96.13319011815253,NA,NA
72103,Saline County,AR,74.75832438238453,NA,NA
72401,Craighead County,AR,NA,NA,52.331606217616574
72653,Baxter County,AR,NA,20.037105751391465,NA
72704,Washington County,AR,70.24704618689582,NA,NA
72801,Pope County,AR,75.18796992481202,NA,NA
72956,Crawford County,AR,95.3813104189044,NA,NA
90008,Los Angeles County,CA,39.52738990332975,NA,NA
90019,Los Angeles County,CA,35.44575725026853,NA,NA
90029,Los Angeles County,CA,54.24274973147154,NA,NA
90034,Los Angeles County,CA,38.66809881847476,NA,NA
90036,Los Angeles County,CA,58.32438238453276,NA,NA
90062,Los Angeles County,CA,NA,NA,55.95854922279793
90064,Los Angeles County,CA,NA,49.53617810760667,NA
90066,Los Angeles County,CA,NA,33.024118738404454,NA
90201,Los Angeles County,CA,26.423200859291086,NA,NA
90241,Los Angeles County,CA,72.61009667024705,NA,NA
90266,Los Angeles County,CA,54.45757250268528,NA,NA
90272,Los Angeles County,CA,NA,65.49165120593692,NA
90275,Los Angeles County,CA,51.127819548872175,NA,NA
90278,Los Angeles County,CA,53.383458646616546,NA,NA
90291,Los Angeles County,CA,83.2438238453276,NA,NA
90301,Los Angeles County,CA,29.64554242749731,NA,NA
90405,Los Angeles County,CA,92.26638023630504,NA,NA
90601,Los Angeles County,CA,NA,85.89981447124305,NA
90638,Los Angeles County,CA,48.22771213748657,NA,NA
90650,Los Angeles County,CA,15.145005370569281,NA,NA
90712,Los Angeles County,CA,52.09452201933404,NA,NA
90731,Los Angeles County,CA,NA,25.97402597402597,NA
91001,Los Angeles County,CA,50.37593984962406,NA,NA
91103,Los Angeles County,CA,92.69602577873255,NA,NA
91105,Los Angeles County,CA,93.23308270676691,NA,NA
91202,Los Angeles County,CA,NA,NA,31.606217616580313
91326,Los Angeles County,CA,80.45112781954887,NA,NA
91331,Los Angeles County,CA,NA,NA,36.787564766839374
91354,Los Angeles County,CA,NA,91.4656771799629,NA
91362,Ventura County,CA,NA,NA,56.994818652849744
91364,Los Angeles County,CA,NA,98.14471243042672,NA
91367,Los Angeles County,CA,74.43609022556392,NA,22.279792746113987
91381,Los Angeles County,CA,64.98388829215897,NA,NA
91390,Los Angeles County,CA,NA,NA,81.86528497409327
91403,Los Angeles County,CA,NA,NA,38.860103626943
91504,Los Angeles County,CA,NA,87.38404452690168,NA
91601,Los Angeles County,CA,58.21697099892589,NA,NA
91607,Los Angeles County,CA,NA,90.72356215213358,NA
91730,San Bernardino County,CA,61.43931256713212,NA,NA
91737,San Bernardino County,CA,NA,54.73098330241187,NA
91741,Los Angeles County,CA,NA,50.83487940630798,NA
91745,Los Angeles County,CA,NA,NA,33.160621761658035
92019,San Diego County,CA,40.923737916219125,NA,NA
92026,San Diego County,CA,48.1203007518797,NA,NA
92054,San Diego County,CA,NA,61.224489795918366,NA
92067,San Diego County,CA,96.99248120300751,NA,NA
92117,San Diego County,CA,49.73147153598281,NA,NA
92118,San Diego County,CA,96.2406015037594,NA,NA
92128,San Diego County,CA,64.8764769065521,NA,NA
92234,Riverside County,CA,NA,17.996289424860855,NA
92260,Riverside County,CA,NA,NA,1.0362694300518136
92284,San Bernardino County,CA,NA,61.96660482374769,NA
92307,San Bernardino County,CA,NA,80.70500927643785,NA
92308,San Bernardino County,CA,NA,26.90166975881262,42.487046632124354
92316,San Bernardino County,CA,45.327604726100965,NA,NA
92504,Riverside County,CA,78.83995703544576,NA,NA
92544,Riverside County,CA,42.42749731471536,NA,NA
92602,Orange County,CA,67.3469387755102,NA,NA
92626,Orange County,CA,NA,NA,36.26943005181347
92630,Orange County,CA,29.001074113856067,NA,NA
92649,Orange County,CA,48.5499462943072,NA,NA
92657,Orange County,CA,NA,87.94063079777365,NA
92663,Orange County,CA,88.18474758324383,NA,NA
92692,Orange County,CA,NA,24.118738404452692,NA
92832,Orange County,CA,NA,64.7495361781076,NA
92867,Orange County,CA,NA,53.98886827458256,NA
92880,Riverside County,CA,18.58216970998926,NA,NA
92886,Orange County,CA,NA,16.512059369202227,NA
93001,Ventura County,CA,NA,30.79777365491651,NA
93010,Ventura County,CA,72.71750805585391,NA,NA
93030,Ventura County,CA,NA,89.23933209647495,NA
93035,Ventura County,CA,60.04296455424275,NA,NA
93036,Ventura County,CA,69.81740064446831,NA,NA
93060,Ventura County,CA,60.794844253490865,NA,NA
93212,Kings County,CA,82.59935553168636,NA,NA
93291,Tulare County,CA,NA,37.47680890538033,NA
93422,San Luis Obispo County,CA,NA,46.38218923933209,NA
93446,San Luis Obispo County,CA,22.986036519871107,NA,NA
93449,San Luis Obispo County,CA,94.41460794844254,NA,NA
93454,Santa Barbara County,CA,NA,NA,76.68393782383419
93458,Santa Barbara County,CA,66.38023630504833,NA,NA
93552,Los Angeles County,CA,50.805585392051555,NA,NA
93722,Fresno County,CA,7.9484425349087005,13.358070500927644,NA
93725,Fresno County,CA,NA,71.42857142857143,NA
93737,Fresno County,CA,99.140708915145,NA,NA
94015,San Mateo County,CA,79.59183673469387,NA,NA
94025,San Mateo County,CA,42.96455424274973,NA,NA
94030,San Mateo County,CA,64.0171858216971,NA,NA
94044,San Mateo County,CA,71.5359828141783,NA,NA
94066,San Mateo County,CA,NA,8.905380333951761,NA
94087,Santa Clara County,CA,NA,49.721706864564005,NA
94103,San Francisco County,CA,35.87540279269603,16.3265306122449,96.37305699481865
94105,San Francisco County,CA,92.4812030075188,NA,NA
94110,San Francisco County,CA,NA,7.792207792207792,NA
94121,San Francisco County,CA,97.20730397422128,NA,NA
94123,San Francisco County,CA,92.37379162191192,99.25788497217069,NA
94131,San Francisco County,CA,97.0998925886144,NA,NA
94134,San Francisco County,CA,NA,NA,34.715025906735754
94539,Alameda County,CA,NA,53.61781076066791,NA
94568,Alameda County,CA,NA,62.89424860853432,NA
94591,Solano County,CA,57.67991407089151,NA,NA
94608,Alameda County,CA,47.26100966702471,NA,NA
94705,Alameda County,CA,NA,NA,80.82901554404145
94903,Marin County,CA,86.03651987110635,NA,NA
94941,Marin County,CA,85.49946294307198,NA,NA
94945,Marin County,CA,NA,67.16141001855289,NA
94947,Marin County,CA,NA,76.06679035250464,NA
94949,Marin County,CA,71.75080558539206,NA,NA
94960,Marin County,CA,97.95918367346938,NA,NA
94965,Marin County,CA,NA,NA,78.75647668393782
95020,Santa Clara County,CA,27.819548872180448,NA,NA
95110,Santa Clara County,CA,NA,89.98144712430427,NA
95126,Santa Clara County,CA,57.25026852846402,NA,NA
95202,San Joaquin County,CA,NA,99.07235621521335,NA
95307,Stanislaus County,CA,27.175080558539204,NA,NA
95350,Stanislaus County,CA,15.35982814178303,NA,NA
95357,Stanislaus County,CA,79.0547798066595,NA,NA
95389,Mariposa County,CA,NA,94.24860853432281,NA
95404,Sonoma County,CA,NA,28.385899814471244,NA
95476,Sonoma County,CA,NA,35.25046382189239,29.015544041450774
95521,Humboldt County,CA,NA,NA,91.19170984455958
95624,Sacramento County,CA,NA,25.231910946196663,NA
95667,El Dorado County,CA,NA,4.823747680890538,NA
95713,Placer County,CA,NA,97.95918367346938,NA
95726,El Dorado County,CA,89.04403866809882,NA,NA
95757,Sacramento County,CA,NA,NA,59.58549222797927
95765,Placer County,CA,63.69495166487648,NA,NA
95826,Sacramento County,CA,NA,54.916512059369204,NA
95959,Nevada County,CA,NA,48.97959183673469,NA
95966,Butte County,CA,9.66702470461869,NA,NA
95988,Glenn County,CA,NA,95.54730983302412,NA
96067,Siskiyou County,CA,93.66272824919442,NA,NA
80016,Arapahoe County,CO,48.65735767991407,NA,NA
80020,Broomfield County,CO,39.20515574650913,NA,NA
80027,Boulder County,CO,53.276047261009666,NA,NA
80108,Douglas County,CO,82.38453276047261,NA,79.79274611398964
80118,Douglas County,CO,NA,92.76437847866418,NA
80123,Jefferson County,CO,41.568206229860365,NA,NA
80126,Douglas County,CO,45.54242749731471,NA,NA
80138,Douglas County,CO,NA,64.0074211502783,NA
80209,Denver County,CO,NA,NA,73.57512953367875
80231,Denver County,CO,33.83458646616541,NA,NA
80237,Denver County,CO,NA,59.183673469387756,NA
80241,Adams County,CO,73.89903329752954,NA,NA
80304,Boulder County,CO,NA,96.28942486085343,NA
80439,Jefferson County,CO,NA,50.09276437847866,NA
80524,Larimer County,CO,25.88614393125671,NA,NA
80526,Larimer County,CO,75.7250268528464,NA,NA
80537,Larimer County,CO,17.937701396348015,83.6734693877551,NA
80538,Larimer County,CO,78.08807733619764,NA,NA
80550,Weld County,CO,25.349087003222344,NA,NA
80601,Adams County,CO,28.893662728249193,NA,NA
80615,Weld County,CO,77.22878625134264,NA,NA
80620,Weld County,CO,66.16541353383458,NA,NA
80723,Morgan County,CO,66.59505907626209,NA,NA
80807,Kit Carson County,CO,98.81847475832438,NA,NA
80906,El Paso County,CO,NA,NA,83.93782383419689
80911,El Paso County,CO,NA,NA,92.2279792746114
80922,El Paso County,CO,48.764769065520944,NA,NA
81007,Pueblo County,CO,40.171858216971,NA,NA
81052,Prowers County,CO,77.87325456498388,NA,NA
81401,Montrose County,CO,41.78302900107411,NA,NA
81503,Mesa County,CO,NA,96.47495361781077,NA
81623,Garfield County,CO,NA,64.37847866419295,NA
06001,Hartford County,CT,71.1063372717508,NA,NA
06019,Hartford County,CT,87.4328678839957,NA,NA
06066,Tolland County,CT,NA,18.181818181818183,NA
06096,Hartford County,CT,NA,NA,97.40932642487047
06111,Hartford County,CT,NA,42.857142857142854,NA
06226,Windham County,CT,NA,44.89795918367347,NA
06260,Windham County,CT,NA,44.712430426716146,NA
06403,New Haven County,CT,NA,94.61966604823748,NA
06416,Middlesex County,CT,NA,71.61410018552876,NA
06418,New Haven County,CT,89.79591836734694,NA,NA
06424,Middlesex County,CT,68.74328678839957,NA,NA
06478,New Haven County,CT,87.11063372717508,NA,NA
06479,Hartford County,CT,NA,NA,75.64766839378238
06480,Middlesex County,CT,NA,NA,85.49222797927462
06488,New Haven County,CT,NA,NA,13.471502590673575
06489,Hartford County,CT,NA,16.14100185528757,9.32642487046632
06492,New Haven County,CT,17.400644468313644,NA,NA
06511,New Haven County,CT,3.544575725026853,NA,NA
06512,New Haven County,CT,NA,22.634508348794064,NA
06516,New Haven County,CT,NA,3.896103896103896,NA
06518,New Haven County,CT,76.90655209452201,NA,NA
06705,New Haven County,CT,19.548872180451127,NA,NA
06708,New Haven County,CT,NA,34.69387755102041,NA
06762,New Haven County,CT,91.72932330827066,NA,NA
06790,Litchfield County,CT,5.155746509129968,NA,NA
06811,Fairfield County,CT,40.38668098818475,27.643784786641927,NA
06825,Fairfield County,CT,NA,79.0352504638219,NA
06830,Fairfield County,CT,NA,NA,46.1139896373057
06880,Fairfield County,CT,NA,84.04452690166976,NA
06902,Fairfield County,CT,17.293233082706767,NA,NA
06905,Fairfield County,CT,69.17293233082707,NA,NA
19701,New Castle County,DE,23.630504833512354,NA,96.89119170984456
19720,New Castle County,DE,2.1482277121374866,NA,NA
19963,Sussex County,DE,29.53813104189044,NA,NA
32011,Nassau County,FL,NA,55.84415584415584,NA
32071,Suwannee County,FL,99.5703544575725,NA,NA
32073,Clay County,FL,NA,63.07977736549165,NA
32080,St. Johns County,FL,84.31793770139635,NA,NA
32082,St. Johns County,FL,50.483351235230934,NA,NA
32117,Volusia County,FL,28.786251342642323,NA,NA
32162,Sumter County,FL,NA,NA,54.40414507772021
32168,Volusia County,FL,53.92051557465092,NA,NA
32174,Volusia County,FL,NA,43.22820037105751,NA
32177,Putnam County,FL,39.63480128893663,NA,NA
32206,Duval County,FL,NA,NA,76.16580310880829
32217,Duval County,FL,NA,NA,63.212435233160626
32221,Duval County,FL,NA,34.87940630797773,NA
32225,Duval County,FL,NA,14.656771799628942,NA
32408,Bay County,FL,95.48872180451127,NA,NA
32444,Bay County,FL,61.00966702470462,NA,NA
32571,Santa Rosa County,FL,37.91621911922664,NA,NA
32609,Alachua County,FL,16.219119226638025,NA,NA
32724,Volusia County,FL,NA,23.747680890538035,NA
32725,Volusia County,FL,30.397422126745433,NA,NA
32738,Volusia County,FL,NA,68.27458256029685,NA
32778,Lake County,FL,NA,NA,35.751295336787564
32792,Orange County,FL,NA,96.1038961038961,24.870466321243523
32820,Orange County,FL,88.50698174006445,NA,NA
32825,Orange County,FL,26.96025778732546,NA,NA
32835,Orange County,FL,51.77228786251342,NA,NA
32903,Brevard County,FL,88.39957035445757,NA,NA
32908,Brevard County,FL,NA,97.03153988868274,NA
32931,Brevard County,FL,NA,85.52875695732838,NA
32968,Indian River County,FL,NA,93.69202226345084,NA
33012,Miami-Dade County,FL,NA,23.191094619666046,NA
33062,Broward County,FL,62.191192266380234,NA,NA
33157,Miami-Dade County,FL,NA,21.89239332096475,NA
33162,Miami-Dade County,FL,NA,59.74025974025974,NA
33168,Miami-Dade County,FL,61.546723952738994,NA,NA
33325,Broward County,FL,64.76906552094522,NA,NA
33411,Palm Beach County,FL,NA,20.964749536178108,NA
33418,Palm Beach County,FL,NA,29.12801484230056,NA
33428,Palm Beach County,FL,31.041890440386684,NA,NA
33458,Palm Beach County,FL,20.83780880773362,NA,NA
33463,Palm Beach County,FL,42.96455424274973,NA,NA
33467,Palm Beach County,FL,49.94629430719657,NA,NA
33469,Palm Beach County,FL,NA,56.21521335807051,NA
33624,Hillsborough County,FL,47.046186895810955,NA,NA
33634,Hillsborough County,FL,NA,86.64192949907236,NA
33647,Hillsborough County,FL,NA,44.526901669758814,NA
33770,Pinellas County,FL,51.02040816326531,NA,NA
33823,Polk County,FL,30.290010741138563,NA,NA
33825,Highlands County,FL,45.54242749731471,13.91465677179963,NA
33912,Lee County,FL,78.19548872180451,NA,NA
33928,Lee County,FL,75.61761546723953,32.467532467532465,NA
33957,Lee County,FL,NA,88.68274582560296,NA
33972,Lee County,FL,79.16219119226639,NA,NA
33990,Lee County,FL,NA,NA,60.10362694300518
33991,Lee County,FL,58.968850698174,38.775510204081634,NA
34104,Collier County,FL,47.15359828141783,NA,NA
34119,Collier County,FL,NA,NA,21.761658031088082
34142,Collier County,FL,76.1546723952739,NA,NA
34211,Manatee County,FL,91.08485499462942,NA,NA
34223,Sarasota County,FL,NA,80.51948051948052,NA
34235,Sarasota County,FL,NA,NA,37.82383419689119
34238,Sarasota County,FL,NA,NA,70.46632124352331
34293,Sarasota County,FL,NA,NA,3.6269430051813467
34472,Marion County,FL,32.867883995703544,NA,NA
34476,Marion County,FL,52.95381310418904,NA,NA
34608,Hernando County,FL,87.54027926960258,NA,NA
34747,Osceola County,FL,NA,57.88497217068645,NA
34772,Osceola County,FL,82.27712137486574,NA,NA
34957,Martin County,FL,NA,NA,19.170984455958546
34990,Martin County,FL,NA,NA,4.66321243523316
30009,Fulton County,GA,83.35123523093448,NA,NA
30014,Newton County,GA,22.878625134264233,31.910946196660483,NA
30030,DeKalb County,GA,40.06444683136412,NA,NA
30047,Gwinnett County,GA,52.524167561761544,NA,NA
30062,Cobb County,GA,37.486573576799145,NA,NA
30064,Cobb County,GA,NA,34.50834879406308,NA
30068,Cobb County,GA,64.33941997851772,NA,NA
30115,Cherokee County,GA,34.371643394199786,NA,NA
30132,Paulding County,GA,28.4640171858217,NA,NA
30152,Cobb County,GA,NA,43.59925788497217,NA
30268,Fulton County,GA,70.99892588614392,NA,NA
30297,Clayton County,GA,50.26852846401718,NA,NA
30346,DeKalb County,GA,98.06659505907626,NA,NA
30350,Fulton County,GA,NA,82.56029684601113,NA
30540,Gilmer County,GA,43.5016111707841,NA,NA
30553,Franklin County,GA,NA,NA,98.44559585492227
30646,Madison County,GA,81.203007518797,NA,NA
30809,Columbia County,GA,31.57894736842105,NA,NA
30830,Burke County,GA,NA,59.92578849721707,NA
31064,Jasper County,GA,71.64339419978518,NA,NA
31088,Houston County,GA,NA,56.77179962894249,NA
31204,Bibb County,GA,NA,28.385899814471244,NA
31501,Ware County,GA,NA,60.48237476808905,NA
31546,Wayne County,GA,79.37701396348012,NA,NA
31548,Camden County,GA,NA,70.68645640074212,NA
31558,Camden County,GA,59.828141783029,NA,NA
31606,Lowndes County,GA,NA,99.44341372912801,NA
31643,Brooks County,GA,NA,NA,68.9119170984456
31721,Dougherty County,GA,NA,61.781076066790355,NA
31907,Muscogee County,GA,7.411385606874328,NA,NA
96701,Honolulu County,HI,29.21589688506982,NA,NA
96789,Honolulu County,HI,18.474758324382385,NA,NA
96825,Honolulu County,HI,46.93877551020408,NA,NA
83301,Twin Falls County,ID,NA,NA,0
83401,Bonneville County,ID,NA,40.44526901669759,NA
83501,Nez Perce County,ID,12.88936627282492,NA,NA
83605,Canyon County,ID,24.06015037593985,23.376623376623375,NA
83642,Ada County,ID,58.75402792696026,NA,NA
83646,Ada County,ID,35.338345864661655,NA,NA
83702,Ada County,ID,25.671321160042964,NA,NA
83704,Ada County,ID,NA,66.41929499072357,NA
83709,Ada County,ID,NA,5.194805194805195,NA
83713,Ada County,ID,31.793770139634802,NA,NA
83716,Ada County,ID,44.683136412459724,NA,NA
83835,Kootenai County,ID,NA,NA,43.005181347150256
60004,Cook County,IL,NA,NA,8.290155440414509
60010,Lake County,IL,NA,NA,20.207253886010363
60014,McHenry County,IL,21.160042964554243,75.139146567718,NA
60015,Lake County,IL,NA,60.29684601113172,NA
60016,Cook County,IL,NA,79.59183673469387,NA
60030,Lake County,IL,65.3061224489796,NA,NA
60035,Lake County,IL,NA,NA,2.5906735751295336
60041,Lake County,IL,NA,71.79962894248608,NA
60045,Lake County,IL,NA,71.98515769944342,NA
60047,Lake County,IL,32.6530612244898,NA,NA
60050,McHenry County,IL,34.15682062298603,NA,NA
60060,Lake County,IL,NA,12.987012987012985,NA
60062,Cook County,IL,NA,50.649350649350644,NA
60068,Cook County,IL,35.12352309344791,NA,NA
60073,Lake County,IL,14.393125671321162,NA,NA
60076,Cook County,IL,39.31256713211601,NA,NA
60081,McHenry County,IL,83.88829215896885,NA,NA
60108,DuPage County,IL,NA,28.200371057513912,NA
60110,Kane County,IL,42.74973147153599,NA,NA
60126,DuPage County,IL,NA,2.782931354359926,NA
60131,Cook County,IL,63.90977443609023,NA,NA
60134,Kane County,IL,39.097744360902254,NA,NA
60136,Kane County,IL,89.36627282491945,NA,NA
60148,DuPage County,IL,NA,NA,12.435233160621761
60169,Cook County,IL,41.46079484425349,NA,NA
60178,DeKalb County,IL,NA,86.82745825602969,NA
60185,DuPage County,IL,83.6734693877551,NA,NA
60187,DuPage County,IL,NA,36.734693877551024,NA
60188,DuPage County,IL,NA,22.820037105751393,NA
60189,DuPage County,IL,30.397422126745433,NA,NA
60191,DuPage County,IL,59.183673469387756,NA,NA
60302,Cook County,IL,NA,11.873840445269018,NA
60304,Cook County,IL,NA,58.25602968460112,NA
60404,Will County,IL,38.45327604726101,NA,NA
60416,Grundy County,IL,53.70569280343717,NA,NA
60432,Will County,IL,50.05370569280344,NA,NA
60435,Will County,IL,31.90118152524167,NA,NA
60439,Cook County,IL,NA,17.25417439703154,NA
60446,Will County,IL,56.283566058002144,NA,NA
60448,Will County,IL,74.00644468313641,47.680890538033395,NA
60449,Will County,IL,NA,77.73654916512059,NA
60450,Grundy County,IL,NA,15.769944341372913,NA
60451,Will County,IL,15.896885069817401,13.729128014842301,NA
60452,Cook County,IL,NA,71.24304267161409,NA
60453,Cook County,IL,54.994629430719655,7.606679035250464,NA
60456,Cook County,IL,NA,NA,89.63730569948186
60457,Cook County,IL,NA,65.3061224489796,NA
60462,Cook County,IL,22.448979591836736,NA,NA
60504,DuPage County,IL,31.364124597207304,NA,NA
60517,DuPage County,IL,NA,33.58070500927644,NA
60538,Kendall County,IL,52.41675617615468,NA,NA
60544,Will County,IL,33.190118152524164,NA,NA
60546,Cook County,IL,42.534908700322234,NA,NA
60548,DeKalb County,IL,74.22126745435015,NA,NA
60601,Cook County,IL,80.66595059076262,NA,NA
60611,Cook County,IL,NA,20.59369202226345,NA
60616,Cook County,IL,32.00859291084855,NA,NA
60630,Cook County,IL,NA,NA,80.31088082901555
60641,Cook County,IL,NA,14.471243042671613,NA
60645,Cook County,IL,60.472610096670245,NA,NA
60657,Cook County,IL,NA,46.567717996289424,NA
60661,Cook County,IL,95.59613319011815,NA,NA
60707,Cook County,IL,NA,NA,9.844559585492227
60914,Kankakee County,IL,72.50268528464017,NA,NA
61108,Winnebago County,IL,NA,NA,31.088082901554404
61341,LaSalle County,IL,77.12137486573577,NA,NA
61401,Knox County,IL,78.51772287862514,NA,NA
61832,Vermilion County,IL,9.774436090225564,NA,NA
62035,Madison County,IL,93.87755102040816,NA,NA
62526,Macon County,IL,NA,7.235621521335807,NA
62568,Christian County,IL,NA,56.029684601113175,NA
62901,Jackson County,IL,NA,76.62337662337663,NA
46013,Madison County,IN,NA,18.923933209647494,NA
46052,Boone County,IN,36.84210526315789,NA,NA
46060,Hamilton County,IN,NA,NA,38.34196891191709
46112,Hendricks County,IN,73.03974221267454,NA,NA
46131,Johnson County,IN,NA,75.51020408163265,NA
46201,Marion County,IN,59.61331901181526,NA,NA
46202,Marion County,IN,NA,NA,87.04663212435233
46226,Marion County,IN,NA,13.543599257884972,NA
46229,Marion County,IN,20.408163265306122,NA,NA
46259,Marion County,IN,85.60687432867884,NA,NA
46311,Lake County,IN,98.38882921589689,NA,NA
46319,Lake County,IN,NA,NA,58.549222797927456
46324,Lake County,IN,14.715359828141782,NA,NA
46342,Lake County,IN,NA,NA,20.72538860103627
46360,LaPorte County,IN,21.58968850698174,NA,NA
46368,Porter County,IN,1.933404940923738,NA,NA
46373,Lake County,IN,69.28034371643395,NA,NA
46375,Lake County,IN,NA,15.398886827458256,NA
46385,Porter County,IN,NA,NA,26.42487046632124
46390,LaPorte County,IN,97.85177228786252,NA,NA
46391,LaPorte County,IN,NA,94.06307977736549,NA
46567,Kosciusko County,IN,NA,NA,98.96373056994818
46733,Adams County,IN,36.734693877551024,NA,NA
46774,Allen County,IN,53.16863587540279,NA,NA
46777,Wells County,IN,88.50698174006445,NA,NA
46804,Allen County,IN,66.48764769065521,NA,NA
46808,Allen County,IN,71.32116004296455,NA,NA
46845,Allen County,IN,NA,73.65491651205936,NA
46901,Howard County,IN,38.23845327604726,4.452690166975881,NA
46902,Howard County,IN,2.685284640171858,NA,NA
46936,Howard County,IN,86.89581095596132,NA,NA
46962,Wabash County,IN,NA,97.40259740259741,NA
47240,Decatur County,IN,28.24919441460795,NA,NA
47304,Delaware County,IN,45.11278195488722,NA,NA
47371,Jay County,IN,NA,31.72541743970315,NA
47546,Dubois County,IN,46.50912996777659,NA,NA
47591,Knox County,IN,NA,25.04638218923933,NA
47710,Vanderburgh County,IN,NA,NA,46.63212435233161
47711,Vanderburgh County,IN,24.2749731471536,NA,NA
47905,Tippecanoe County,IN,35.9828141783029,NA,NA
50322,Polk County,IA,54.56498388829216,NA,NA
50401,Cerro Gordo County,IA,11.815252416756177,NA,NA
50613,Black Hawk County,IA,43.82384532760473,NA,5.181347150259067
50616,Floyd County,IA,NA,76.99443413729128,NA
51031,Plymouth County,IA,NA,51.57699443413729,NA
51566,Montgomery County,IA,NA,NA,87.56476683937824
52246,Johnson County,IA,90.97744360902256,NA,NA
52349,Benton County,IA,64.12459720730398,NA,NA
52404,Linn County,IA,7.733619763694952,NA,NA
52405,Linn County,IA,62.620837808807735,NA,NA
52577,Mahaska County,IA,32.33082706766917,NA,NA
52722,Scott County,IA,16.541353383458645,NA,NA
52738,Louisa County,IA,NA,98.88682745825604,NA
66083,Johnson County,KS,66.80988184747582,NA,NA
66208,Johnson County,KS,NA,48.79406307977737,NA
66215,Johnson County,KS,NA,41.929499072356215,NA
66610,Shawnee County,KS,90.44038668098818,NA,NA
66748,Allen County,KS,98.92588614393125,NA,NA
67801,Ford County,KS,NA,NA,79.27461139896373
40031,Oldham County,KY,NA,NA,44.04145077720207
40033,Marion County,KY,51.98711063372718,NA,NA
40203,Jefferson County,KY,NA,NA,84.97409326424871
40216,Jefferson County,KY,8.378088077336198,NA,NA
40219,Jefferson County,KY,12.352309344790548,NA,NA
40324,Scott County,KY,NA,23.00556586270872,NA
40444,Garrard County,KY,NA,52.319109461966605,NA
40509,Fayette County,KY,57.78732545649839,NA,NA
40741,Laurel County,KY,18.796992481203006,NA,NA
40831,Harlan County,KY,NA,NA,93.78238341968913
41042,Boone County,KY,4.9409237379162185,NA,NA
41056,Mason County,KY,37.59398496240601,NA,NA
41091,Boone County,KY,63.587540279269604,NA,NA
41102,Boyd County,KY,NA,NA,28.497409326424872
41175,Greenup County,KY,56.9280343716434,NA,NA
42127,Barren County,KY,60.472610096670245,NA,NA
42301,Daviess County,KY,8.807733619763695,NA,NA
42408,Hopkins County,KY,96.45542427497314,NA,NA
42420,Henderson County,KY,NA,NA,19.689119170984455
42567,Pulaski County,KY,NA,87.01298701298701,NA
42717,Cumberland County,KY,49.62406015037594,NA,NA
42718,Taylor County,KY,12.1374865735768,NA,NA
42754,Grayson County,KY,77.87325456498388,NA,NA
70003,Jefferson Parish,LA,NA,3.339517625231911,NA
70006,Jefferson Parish,LA,NA,43.22820037105751,NA
70115,Orleans Parish,LA,44.25349087003222,NA,NA
70122,Orleans Parish,LA,21.052631578947366,NA,NA
70123,Jefferson Parish,LA,NA,85.71428571428571,10.362694300518134
70128,Orleans Parish,LA,NA,32.09647495361781,NA
70131,Orleans Parish,LA,55.20945220193341,NA,NA
70345,Lafourche Parish,LA,67.7765843179377,NA,NA
70360,Terrebonne Parish,LA,10.41890440386681,74.95361781076066,NA
70363,Terrebonne Parish,LA,3.1149301825993554,NA,NA
70420,St. Tammany Parish,LA,90.65520945220193,NA,NA
70435,St. Tammany Parish,LA,16.11170784103115,16.697588126159555,NA
70458,St. Tammany Parish,LA,4.833512352309345,4.081632653061225,NA
70461,St. Tammany Parish,LA,14.60794844253491,NA,NA
70466,Tangipahoa Parish,LA,71.42857142857143,NA,NA
70508,Lafayette Parish,LA,13.748657357679914,NA,NA
70510,Vermilion Parish,LA,9.881847475832437,NA,NA
70535,St. Landry Parish,LA,23.737916219119228,NA,NA
70549,Jefferson Davis Parish,LA,77.76584317937701,NA,NA
70560,Iberia Parish,LA,NA,45.640074211502785,NA
70582,St. Martin Parish,LA,79.484425349087,NA,NA
70665,Calcasieu Parish,LA,30.182599355531686,NA,NA
70726,Livingston Parish,LA,NA,7.977736549165121,NA
70774,Ascension Parish,LA,NA,92.20779220779221,NA
71006,Bossier Parish,LA,NA,95.36178107606679,NA
71105,Caddo Parish,LA,NA,90.53803339517626,NA
71107,Caddo Parish,LA,2.2556390977443606,NA,NA
71111,Bossier Parish,LA,37.59398496240601,NA,NA
71118,Caddo Parish,LA,NA,24.489795918367346,NA
71301,Rapides Parish,LA,6.981740064446831,NA,NA
04005,York County,ME,80.343716433942,NA,NA
04039,Cumberland County,ME,72.93233082706767,NA,NA
04090,York County,ME,79.69924812030075,NA,NA
04240,Androscoggin County,ME,NA,1.855287569573284,NA
04294,Franklin County,ME,97.42212674543501,NA,NA
04901,Kennebec County,ME,4.511278195488721,NA,NA
04938,Franklin County,ME,NA,92.94990723562152,NA
04967,Somerset County,ME,71.75080558539206,NA,NA
04976,Somerset County,ME,NA,14.100185528756956,NA
20745,Prince George's County,MD,63.80236305048334,NA,NA
20783,Prince George's County,MD,NA,79.40630797773655,NA
20815,Montgomery County,MD,NA,72.91280148423006,NA
20817,Montgomery County,MD,NA,73.8404452690167,NA
20895,Montgomery County,MD,NA,96.84601113172542,NA
21035,Anne Arundel County,MD,NA,89.79591836734694,NA
21061,Anne Arundel County,MD,9.129967776584317,26.159554730983302,NA
21093,Baltimore County,MD,NA,25.788497217068645,NA
21136,Baltimore County,MD,51.127819548872175,NA,NA
21209,Baltimore County,MD,NA,NA,68.39378238341969
21221,Baltimore County,MD,NA,21.70686456400742,NA
21222,Baltimore County,MD,NA,17.625231910946194,NA
21229,Baltimore city,MD,NA,NA,77.720207253886
21550,Garrett County,MD,NA,43.59925788497217,NA
21629,Caroline County,MD,89.15145005370569,NA,NA
21703,Frederick County,MD,NA,87.19851576994434,NA
21771,Frederick County,MD,55.961331901181524,NA,NA
21776,Carroll County,MD,95.05907626208379,NA,NA
21784,Carroll County,MD,NA,NA,47.66839378238342
21921,Cecil County,MD,13.426423200859292,NA,NA
01020,Hampden County,MA,3.22234156820623,NA,NA
01040,Hampden County,MA,0.21482277121374865,NA,NA
01062,Hampshire County,MA,NA,86.45640074211502,NA
01082,Hampshire County,MA,NA,37.84786641929499,NA
01085,Hampden County,MA,NA,1.4842300556586272,NA
01119,Hampden County,MA,NA,46.93877551020408,NA
01430,Worcester County,MA,70.67669172932331,NA,NA
01440,Worcester County,MA,11.170784103114931,NA,NA
01453,Worcester County,MA,37.27175080558539,0.3710575139146568,NA
01463,Middlesex County,MA,NA,50.278293135435995,NA
01473,Worcester County,MA,61.33190118152524,NA,NA
01545,Worcester County,MA,NA,14.842300556586272,NA
01605,Worcester County,MA,9.559613319011815,NA,NA
01701,Middlesex County,MA,NA,34.137291280148425,NA
01746,Middlesex County,MA,16.86358754027927,NA,NA
01772,Worcester County,MA,86.78839957035446,NA,NA
01776,Middlesex County,MA,37.056928034371644,NA,NA
01778,Middlesex County,MA,NA,47.49536178107607,NA
01803,Middlesex County,MA,61.868958109559614,NA,2.072538860103627
01810,Essex County,MA,NA,67.53246753246754,NA
01821,Middlesex County,MA,NA,12.615955473098332,7.772020725388601
01824,Middlesex County,MA,8.16326530612245,NA,NA
01826,Middlesex County,MA,18.367346938775512,NA,NA
01833,Essex County,MA,98.60365198711062,NA,NA
01851,Middlesex County,MA,1.5037593984962405,2.411873840445269,NA
01854,Middlesex County,MA,NA,5.936920222634509,NA
01860,Essex County,MA,NA,78.66419294990723,NA
01867,Middlesex County,MA,NA,59.36920222634509,NA
01876,Middlesex County,MA,6.015037593984962,NA,NA
01879,Middlesex County,MA,24.382384532760472,NA,NA
01880,Middlesex County,MA,NA,NA,14.507772020725387
01886,Middlesex County,MA,19.441460794844254,NA,NA
01890,Middlesex County,MA,66.05800214822771,NA,NA
01902,Essex County,MA,0.4296455424274973,NA,NA
01904,Essex County,MA,NA,10.018552875695732,32.64248704663213
01907,Essex County,MA,45.97207303974221,NA,NA
01913,Essex County,MA,21.374865735767994,NA,NA
01915,Essex County,MA,1.0741138560687433,NA,NA
01930,Essex County,MA,NA,NA,70.98445595854922
01945,Essex County,MA,NA,19.29499072356215,NA
01950,Essex County,MA,46.07948442534909,NA,NA
01960,Essex County,MA,5.263157894736842,82.74582560296847,NA
01970,Essex County,MA,6.337271750805586,NA,NA
01982,Essex County,MA,NA,81.26159554730982,NA
01983,Essex County,MA,NA,NA,99.48186528497409
01985,Essex County,MA,99.24812030075188,NA,NA
02025,Norfolk County,MA,NA,76.80890538033395,NA
02038,Norfolk County,MA,NA,NA,61.13989637305699
02043,Plymouth County,MA,NA,NA,22.797927461139896
02053,Norfolk County,MA,NA,63.4508348794063,NA
02111,Suffolk County,MA,51.4500537056928,NA,NA
02116,Suffolk County,MA,13.533834586466165,NA,NA
02124,Suffolk County,MA,0.10741138560687433,NA,NA
02128,Suffolk County,MA,54.35016111707841,NA,NA
02129,Suffolk County,MA,15.467239527389903,NA,NA
02130,Suffolk County,MA,NA,NA,30.05181347150259
02131,Suffolk County,MA,33.72717508055854,NA,NA
02132,Suffolk County,MA,77.65843179377015,NA,NA
02134,Suffolk County,MA,11.493018259935553,NA,NA
02139,Middlesex County,MA,0.322234156820623,NA,45.59585492227979
02141,Middlesex County,MA,54.13533834586466,NA,NA
02143,Middlesex County,MA,38.99033297529538,NA,NA
02144,Middlesex County,MA,16.004296455424274,NA,NA
02148,Middlesex County,MA,0,NA,NA
02155,Middlesex County,MA,71.9656283566058,45.083487940630796,0.5181347150259068
02180,Middlesex County,MA,NA,57.32838589981447,NA
02184,Norfolk County,MA,5.048335123523094,NA,NA
02188,Norfolk County,MA,45.86466165413533,NA,NA
02330,Plymouth County,MA,NA,64.56400742115028,NA
02359,Plymouth County,MA,25.02685284640172,NA,NA
02360,Plymouth County,MA,5.907626208378089,0.1855287569573284,NA
02445,Norfolk County,MA,23.308270676691727,NA,NA
02451,Middlesex County,MA,NA,NA,57.51295336787565
02472,Middlesex County,MA,6.552094522019335,NA,NA
02474,Middlesex County,MA,12.459720730397422,NA,NA
02536,Barnstable County,MA,19.011815252416756,NA,NA
02554,Nantucket County,MA,28.678839957035446,NA,NA
02649,Barnstable County,MA,32.33082706766917,NA,NA
02653,Barnstable County,MA,NA,NA,49.740932642487046
02660,Barnstable County,MA,NA,87.569573283859,65.28497409326425
02717,Bristol County,MA,NA,93.32096474953617,NA
02740,Bristol County,MA,0.7518796992481203,NA,NA
02748,Bristol County,MA,35.01611170784103,NA,NA
02760,Bristol County,MA,51.55746509129968,NA,NA
02777,Bristol County,MA,26.745435016111706,NA,NA
48009,Oakland County,MI,NA,60.1113172541744,84.4559585492228
48021,Macomb County,MI,NA,17.439703153988866,NA
48025,Oakland County,MI,NA,83.30241187384044,NA
48026,Macomb County,MI,NA,41.00185528756957,NA
48035,Macomb County,MI,NA,8.348794063079778,NA
48038,Macomb County,MI,64.66165413533834,NA,NA
48040,St. Clair County,MI,84.74758324382384,NA,NA
48044,Macomb County,MI,26.852846401718583,72.72727272727273,NA
48047,Macomb County,MI,12.674543501611172,NA,NA
48059,St. Clair County,MI,NA,44.15584415584416,NA
48060,St. Clair County,MI,2.3630504833512354,NA,NA
48062,Macomb County,MI,90.76262083780881,NA,NA
48065,Macomb County,MI,86.35875402792696,NA,NA
48071,Oakland County,MI,NA,81.07606679035251,NA
48073,Oakland County,MI,84.5327604726101,33.95176252319109,34.196891191709845
48074,St. Clair County,MI,60.68743286788399,NA,NA
48092,Macomb County,MI,25.456498388829218,NA,NA
48098,Oakland County,MI,NA,36.36363636363637,NA
48103,Washtenaw County,MI,NA,0.927643784786642,NA
48105,Washtenaw County,MI,NA,12.430426716141001,NA
48108,Washtenaw County,MI,32.975295381310424,NA,NA
48111,Wayne County,MI,NA,52.69016697588126,NA
48125,Wayne County,MI,19.226638023630503,NA,NA
48126,Wayne County,MI,9.452201933404941,NA,NA
48127,Wayne County,MI,35.9828141783029,NA,NA
48130,Washtenaw County,MI,NA,38.218923933209645,NA
48138,Wayne County,MI,87.21804511278195,NA,NA
48146,Wayne County,MI,27.28249194414608,NA,NA
48154,Wayne County,MI,20.730397422126746,NA,NA
48170,Wayne County,MI,NA,3.153988868274583,NA
48174,Wayne County,MI,NA,13.172541743970315,NA
48180,Wayne County,MI,NA,1.1131725417439702,NA
48183,Wayne County,MI,8.16326530612245,NA,NA
48192,Wayne County,MI,15.252416756176155,NA,NA
48193,Wayne County,MI,47.26100966702471,NA,NA
48224,Wayne County,MI,1.611170784103115,NA,NA
48230,Wayne County,MI,83.56605800214822,NA,NA
48304,Oakland County,MI,57.89473684210527,NA,NA
48307,Oakland County,MI,43.39419978517723,21.335807050092765,NA
48309,Oakland County,MI,NA,NA,27.979274611398964
48310,Macomb County,MI,NA,9.647495361781075,NA
48312,Macomb County,MI,NA,NA,8.808290155440414
48313,Macomb County,MI,22.663802363050483,NA,NA
48314,Macomb County,MI,NA,37.66233766233766,NA
48315,Macomb County,MI,63.1578947368421,18.552875695732837,33.67875647668394
48316,Macomb County,MI,87.8625134264232,NA,NA
48317,Macomb County,MI,NA,70.12987012987013,NA
48326,Oakland County,MI,NA,79.77736549165121,NA
48334,Oakland County,MI,NA,NA,41.45077720207254
48342,Oakland County,MI,NA,81.81818181818183,NA
48360,Oakland County,MI,84.74758324382384,NA,NA
48362,Oakland County,MI,NA,52.875695732838594,NA
48371,Oakland County,MI,75.93984962406014,NA,NA
48430,Genesee County,MI,NA,19.480519480519483,NA
48457,Genesee County,MI,NA,83.11688311688312,NA
48458,Genesee County,MI,26.31578947368421,NA,NA
48506,Genesee County,MI,20.515574650912995,NA,NA
48532,Genesee County,MI,NA,NA,48.704663212435236
48622,Clare County,MI,NA,71.98515769944342,NA
48624,Gladwin County,MI,33.619763694951665,NA,NA
48632,Clare County,MI,NA,82.3747680890538,NA
48640,Midland County,MI,30.71965628356606,NA,NA
48655,Saginaw County,MI,NA,82.00371057513914,NA
48732,Bay County,MI,46.723952738990334,NA,NA
48768,Tuscola County,MI,47.798066595059076,NA,NA
48817,Shiawassee County,MI,92.4812030075188,NA,NA
48823,Ingham County,MI,NA,27.27272727272727,NA
48837,Eaton County,MI,75.83243823845328,NA,NA
48843,Livingston County,MI,NA,27.458256029684602,NA
48858,Isabella County,MI,52.63157894736842,NA,NA
48867,Shiawassee County,MI,6.229860365198711,NA,NA
48880,Gratiot County,MI,79.80665950590763,NA,NA
48892,Ingham County,MI,87.32545649838883,NA,NA
49002,Kalamazoo County,MI,28.4640171858217,NA,NA
49017,Calhoun County,MI,25.563909774436087,NA,NA
49036,Branch County,MI,24.597207303974223,NA,NA
49047,Cass County,MI,NA,29.313543599257883,NA
49068,Calhoun County,MI,NA,NA,71.50259067357513
49085,Berrien County,MI,48.22771213748657,NA,NA
49090,Van Buren County,MI,50.69817400644469,39.70315398886827,NA
49221,Lenawee County,MI,33.941997851772285,NA,NA
49228,Lenawee County,MI,86.57357679914071,NA,NA
49242,Hillsdale County,MI,NA,46.01113172541744,NA
49270,Monroe County,MI,93.44790547798067,NA,NA
49331,Kent County,MI,69.38775510204081,NA,NA
49341,Kent County,MI,68.31364124597206,NA,NA
49345,Kent County,MI,NA,55.65862708719852,NA
49401,Ottawa County,MI,51.34264232008593,NA,NA
49417,Ottawa County,MI,NA,32.28200371057514,NA
49418,Kent County,MI,61.65413533834586,61.4100185528757,NA
49431,Mason County,MI,28.356605800214822,NA,NA
49437,Muskegon County,MI,82.59935553168636,NA,NA
49464,Ottawa County,MI,88.18474758324383,NA,NA
49506,Kent County,MI,50.5907626208378,NA,NA
49507,Kent County,MI,NA,58.070500927643785,NA
49508,Kent County,MI,39.41997851772288,NA,NA
49534,Kent County,MI,75.40279269602578,NA,NA
49660,Manistee County,MI,76.79914070891515,NA,NA
49668,Wexford County,MI,NA,100,NA
49684,Grand Traverse County,MI,NA,26.716141001855288,NA
49686,Grand Traverse County,MI,68.09881847475833,NA,NA
49696,Grand Traverse County,MI,67.23952738990333,NA,NA
49720,Charlevoix County,MI,NA,84.04452690166976,NA
49837,Delta County,MI,NA,NA,56.476683937823836
49868,Luce County,MI,81.41783029001074,NA,NA
49930,Houghton County,MI,NA,69.75881261595546,NA
55063,Pine County,MN,66.9172932330827,NA,NA
55066,Goodhue County,MN,NA,NA,11.398963730569948
55069,Chisago County,MN,94.30719656283566,NA,NA
55076,Dakota County,MN,52.84640171858217,NA,NA
55301,Wright County,MN,91.6219119226638,NA,NA
55359,Hennepin County,MN,94.62943071965628,NA,NA
55403,Hennepin County,MN,80.98818474758325,NA,NA
55406,Hennepin County,MN,20.945220193340493,NA,NA
55409,Hennepin County,MN,64.33941997851772,NA,NA
55436,Hennepin County,MN,NA,NA,74.09326424870466
55744,Itasca County,MN,14.070891514500536,6.679035250463822,NA
55792,St. Louis County,MN,NA,NA,27.461139896373055
55811,St. Louis County,MN,NA,51.39146567717996,NA
56444,Crow Wing County,MN,NA,NA,51.813471502590666
56482,Wadena County,MN,NA,55.10204081632652,NA
56636,Itasca County,MN,NA,68.83116883116884,NA
38618,Tate County,MS,78.30290010741139,NA,NA
38654,DeSoto County,MS,NA,22.07792207792208,NA
38769,Bolivar County,MS,98.71106337271752,NA,NA
39208,Rankin County,MS,NA,53.06122448979592,NA
39211,Hinds County,MS,NA,88.86827458256029,39.37823834196891
39466,Pearl River County,MS,22.019334049409238,NA,NA
39501,Harrison County,MS,NA,90.35250463821892,NA
39556,Hancock County,MS,55.424274973147156,NA,NA
39581,Jackson County,MS,69.92481203007519,NA,NA
63105,St. Louis County,MO,NA,77.1799628942486,NA
63108,St. Louis city,MO,NA,NA,89.11917098445595
63123,St. Louis County,MO,NA,11.688311688311687,NA
63129,St. Louis County,MO,NA,7.050092764378478,NA
63130,St. Louis County,MO,45.757250268528466,NA,NA
63132,St. Louis County,MO,73.25456498388829,NA,NA
63366,St. Charles County,MO,NA,5.009276437847866,NA
63368,St. Charles County,MO,NA,21.521335807050093,NA
63376,St. Charles County,MO,9.344790547798066,NA,NA
63628,St. Francois County,MO,NA,91.09461966604823,NA
63640,St. Francois County,MO,34.908700322234154,NA,NA
64055,Jackson County,MO,NA,NA,16.06217616580311
64057,Jackson County,MO,NA,NA,54.92227979274611
64119,Clay County,MO,10.204081632653061,NA,NA
64152,Platte County,MO,45.005370569280345,NA,NA
64506,Buchanan County,MO,15.574650912996777,6.8645640074211505,NA
64507,Buchanan County,MO,NA,38.03339517625232,NA
64776,St. Clair County,MO,NA,NA,93.26424870466322
64834,Jasper County,MO,NA,86.08534322820037,NA
64850,Newton County,MO,14.285714285714285,NA,NA
64870,Jasper County,MO,89.47368421052632,NA,NA
65560,Dent County,MO,49.73147153598281,NA,NA
65737,Stone County,MO,NA,60.667903525046384,NA
65810,Greene County,MO,NA,63.821892393320965,NA
59270,Richland County,MT,81.74006444683137,63.63636363636363,94.30051813471503
59501,Hill County,MT,NA,93.87755102040816,NA
59602,Lewis and Clark County,MT,NA,31.539888682745826,NA
59701,Silver Bow County,MT,54.88721804511278,NA,NA
59714,Gallatin County,MT,80.66595059076262,NA,NA
59718,Gallatin County,MT,30.71965628356606,NA,NA
59801,Missoula County,MT,54.7798066595059,NA,NA
59911,Flathead County,MT,94.19978517722879,NA,NA
68025,Dodge County,NE,29.752953813104188,NA,NA
68144,Douglas County,NE,NA,50.46382189239333,41.968911917098445
68508,Lancaster County,NE,97.63694951664877,NA,NA
89130,Clark County,NV,47.475832438238456,NA,NA
89406,Churchill County,NV,35.76799140708915,64.19294990723562,51.29533678756477
89423,Douglas County,NV,89.58109559613318,NA,NA
89431,Washoe County,NV,17.61546723952739,NA,NA
89434,Washoe County,NV,65.52094522019334,NA,NA
89460,Douglas County,NV,67.13211600429646,NA,NA
89509,Washoe County,NV,NA,72.5417439703154,NA
03032,Rockingham County,NH,76.36949516648764,NA,NA
03036,Rockingham County,NH,98.28141783029001,NA,NA
03051,Hillsborough County,NH,19.33404940923738,NA,NA
03076,Hillsborough County,NH,NA,NA,61.6580310880829
03079,Rockingham County,NH,NA,16.883116883116884,NA
03102,Hillsborough County,NH,16.648764769065522,NA,NA
03104,Hillsborough County,NH,NA,10.946196660482375,NA
03110,Hillsborough County,NH,95.27389903329752,NA,NA
03303,Merrimack County,NH,62.29860365198711,NA,NA
03461,Cheshire County,NH,NA,99.62894248608535,NA
03833,Rockingham County,NH,61.97636949516648,NA,NA
03862,Rockingham County,NH,NA,88.49721706864564,NA
07011,Passaic County,NJ,NA,60.667903525046384,NA
07013,Passaic County,NJ,NA,35.43599257884972,NA
07016,Union County,NJ,NA,42.67161410018553,NA
07032,Hudson County,NJ,16.86358754027927,NA,NA
07036,Union County,NJ,NA,15.955473098330241,NA
07090,Union County,NJ,68.95810955961332,NA,NA
07109,Essex County,NJ,12.996777658431794,NA,NA
07111,Essex County,NJ,88.82921589688507,NA,NA
07305,Hudson County,NJ,0.5370569280343717,NA,NA
07446,Bergen County,NJ,63.37271750805586,NA,NA
07450,Bergen County,NJ,NA,79.0352504638219,NA
07470,Passaic County,NJ,NA,4.267161410018553,NA
07607,Bergen County,NJ,NA,75.32467532467533,NA
07644,Bergen County,NJ,34.80128893662729,NA,NA
07666,Bergen County,NJ,NA,40.25974025974026,NA
07719,Monmouth County,NJ,NA,62.152133580705005,82.38341968911918
07728,Monmouth County,NJ,NA,12.059369202226346,NA
07730,Monmouth County,NJ,73.14715359828142,45.26901669758813,NA
07748,Monmouth County,NJ,NA,NA,95.33678756476684
07764,Monmouth County,NJ,94.84425349087003,NA,NA
07830,Hunterdon County,NJ,93.77013963480128,NA,NA
07836,Morris County,NJ,72.8249194414608,NA,NA
07843,Sussex County,NJ,NA,91.65120593692022,NA
07871,Sussex County,NJ,74.65091299677766,NA,NA
07940,Morris County,NJ,NA,68.46011131725417,NA
07981,Morris County,NJ,NA,NA,90.67357512953367
08002,Camden County,NJ,NA,42.486085343228204,NA
08005,Ocean County,NJ,44.038668098818476,NA,NA
08033,Camden County,NJ,81.52524167561761,61.038961038961034,NA
08053,Burlington County,NJ,65.95059076262085,NA,NA
08061,Gloucester County,NJ,98.49624060150376,NA,NA
08080,Gloucester County,NJ,10.633727175080558,82.18923933209648,NA
08081,Camden County,NJ,0.966702470461869,NA,NA
08085,Gloucester County,NJ,19.978517722878625,NA,NA
08087,Ocean County,NJ,43.71643394199785,NA,NA
08204,Cape May County,NJ,NA,22.263450834879407,NA
08215,Atlantic County,NJ,NA,56.95732838589982,NA
08514,Monmouth County,NJ,NA,94.43413729128015,NA
08540,Mercer County,NJ,32.76047261009667,NA,NA
08742,Ocean County,NJ,25.13426423200859,NA,NA
08750,Monmouth County,NJ,NA,98.51576994434137,NA
08755,Ocean County,NJ,19.763694951664874,NA,NA
08759,Ocean County,NJ,NA,NA,6.7357512953367875
08831,Middlesex County,NJ,25.88614393125671,NA,NA
08852,Middlesex County,NJ,72.3952738990333,NA,NA
08865,Warren County,NJ,3.866809881847476,NA,NA
08873,Somerset County,NJ,NA,NA,23.83419689119171
87031,Valencia County,NM,NA,29.499072356215212,NA
87105,Bernalillo County,NM,3.007518796992481,NA,NA
87109,Bernalillo County,NM,NA,NA,94.81865284974094
87110,Bernalillo County,NM,11.278195488721805,NA,NA
87111,Bernalillo County,NM,NA,9.090909090909092,NA
87112,Bernalillo County,NM,NA,39.332096474953616,NA
87124,Sandoval County,NM,10.526315789473683,NA,NA
87501,Santa Fe County,NM,NA,64.93506493506493,NA
87508,Santa Fe County,NM,NA,51.02040816326531,NA
88007,Doa Ana County,NM,NA,53.246753246753244,NA
88023,Grant County,NM,97.52953813104189,NA,NA
10003,New York County,NY,46.18689581095596,NA,NA
10021,New York County,NY,64.23200859291084,NA,NA
10022,New York County,NY,NA,48.608534322820034,86.01036269430051
10023,New York County,NY,NA,11.50278293135436,NA
10025,New York County,NY,NA,NA,39.89637305699482
10027,New York County,NY,19.87110633727175,NA,NA
10029,New York County,NY,NA,71.05751391465677,NA
10303,Richmond County,NY,NA,45.45454545454545,NA
10305,Richmond County,NY,70.03222341568205,NA,NA
10306,Richmond County,NY,NA,NA,69.43005181347151
10308,Richmond County,NY,90.87003222341569,NA,NA
10314,Richmond County,NY,12.030075187969924,NA,6.217616580310881
10458,Bronx County,NY,NA,33.209647495361786,NA
10459,Bronx County,NY,4.081632653061225,NA,NA
10460,Bronx County,NY,NA,31.3543599257885,NA
10462,Bronx County,NY,5.477980665950591,NA,NA
10463,Bronx County,NY,NA,NA,3.1088082901554404
10468,Bronx County,NY,NA,1.2987012987012987,NA
10605,Westchester County,NY,83.13641245972073,NA,NA
10701,Westchester County,NY,NA,NA,25.906735751295333
10994,Rockland County,NY,NA,97.58812615955473,NA
11209,Kings County,NY,NA,18.738404452690165,15.544041450777202
11211,Kings County,NY,NA,NA,17.098445595854923
11213,Kings County,NY,4.296455424274973,NA,NA
11221,Kings County,NY,NA,3.525046382189239,NA
11224,Kings County,NY,NA,5.565862708719852,1.5544041450777202
11230,Kings County,NY,NA,39.14656771799629,NA
11236,Kings County,NY,NA,37.291280148423006,NA
11238,Kings County,NY,16.433941997851772,NA,NA
11365,Queens County,NY,42.857142857142854,NA,NA
11375,Queens County,NY,NA,30.426716141001855,NA
11421,Queens County,NY,NA,NA,90.15544041450777
11554,Nassau County,NY,47.90547798066595,NA,NA
11720,Suffolk County,NY,62.513426423200855,NA,NA
11727,Suffolk County,NY,NA,NA,40.41450777202073
11787,Suffolk County,NY,NA,NA,35.233160621761655
12020,Saratoga County,NY,70.35445757250268,NA,NA
12302,Schenectady County,NY,85.28464017185821,NA,NA
12413,Greene County,NY,NA,74.02597402597402,NA
12550,Orange County,NY,NA,NA,52.84974093264248
12801,Warren County,NY,NA,59.554730983302406,NA
12804,Warren County,NY,7.303974221267455,NA,NA
12831,Saratoga County,NY,41.13856068743287,NA,NA
12866,Saratoga County,NY,38.02363050483351,NA,NA
12901,Clinton County,NY,2.4704618689581093,NA,NA
12937,Franklin County,NY,93.55531686358755,NA,NA
12946,Essex County,NY,30.397422126745433,NA,NA
12983,Franklin County,NY,42.64232008592911,NA,NA
12992,Clinton County,NY,75.40279269602578,NA,NA
13021,Cayuga County,NY,NA,15.0278293135436,NA
13036,Oswego County,NY,NA,95.17625231910947,NA
13037,Madison County,NY,86.68098818474759,NA,NA
13039,Onondaga County,NY,38.56068743286789,NA,NA
13041,Onondaga County,NY,61.1170784103115,NA,NA
13069,Oswego County,NY,65.62835660580022,NA,NA
13074,Oswego County,NY,96.77765843179377,NA,NA
13092,Cayuga County,NY,91.29967776584319,NA,NA
13104,Onondaga County,NY,NA,85.34322820037106,NA
13126,Oswego County,NY,76.26208378088077,NA,64.24870466321244
13148,Seneca County,NY,20.515574650912995,NA,NA
13152,Onondaga County,NY,78.41031149301826,NA,NA
13323,Oneida County,NY,59.828141783029,NA,NA
13335,Otsego County,NY,85.17722878625135,NA,NA
13367,Lewis County,NY,62.40601503759399,NA,NA
13408,Madison County,NY,90.11815252416756,NA,NA
13411,Chenango County,NY,67.3469387755102,NA,NA
13413,Oneida County,NY,NA,NA,29.533678756476682
13476,Oneida County,NY,83.88829215896885,NA,NA
13601,Jefferson County,NY,34.69387755102041,NA,NA
13605,Jefferson County,NY,91.72932330827066,NA,NA
13625,St. Lawrence County,NY,94.62943071965628,NA,NA
13634,Jefferson County,NY,92.80343716433941,NA,NA
13669,St. Lawrence County,NY,18.15252416756176,NA,NA
13760,Broome County,NY,0.8592910848549946,NA,NA
13795,Broome County,NY,NA,94.99072356215214,NA
13811,Tioga County,NY,74.22126745435015,NA,NA
13815,Chenango County,NY,12.781954887218044,NA,NA
13827,Tioga County,NY,18.689581095596132,NA,NA
13850,Broome County,NY,13.963480128893663,NA,NA
13901,Broome County,NY,2.9001074113856067,NA,NA
13905,Broome County,NY,23.200859291084853,NA,NA
14011,Wyoming County,NY,65.84317937701397,NA,NA
14020,Genesee County,NY,70.46186895810956,10.575139146567718,NA
14032,Erie County,NY,78.73254564983888,NA,NA
14047,Erie County,NY,72.28786251342643,NA,NA
14072,Erie County,NY,36.30504833512352,NA,NA
14092,Niagara County,NY,44.3609022556391,NA,NA
14094,Niagara County,NY,1.288936627282492,NA,NA
14120,Niagara County,NY,3.4371643394199785,NA,NA
14132,Niagara County,NY,56.17615467239527,75.88126159554731,NA
14212,Erie County,NY,35.23093447905478,NA,NA
14218,Erie County,NY,NA,39.888682745825605,NA
14219,Erie County,NY,87.64769065520946,NA,NA
14221,Erie County,NY,10.848549946294307,NA,NA
14224,Erie County,NY,4.726100966702471,NA,NA
14225,Erie County,NY,28.141783029001072,NA,NA
14227,Erie County,NY,65.09129967776585,NA,NA
14304,Niagara County,NY,NA,3.710575139146568,NA
14305,Niagara County,NY,21.267454350161117,NA,NA
14424,Ontario County,NY,41.35338345864661,0.5565862708719851,NA
14450,Monroe County,NY,2.0408163265306123,NA,NA
14454,Livingston County,NY,NA,78.29313543599258,NA
14468,Monroe County,NY,58.43179377013964,NA,NA
14513,Wayne County,NY,4.403866809881848,NA,NA
14522,Wayne County,NY,28.034371643394202,27.82931354359926,NA
14526,Monroe County,NY,NA,NA,30.569948186528496
14530,Wyoming County,NY,NA,89.42486085343229,NA
14564,Ontario County,NY,15.682062298603652,NA,NA
14580,Monroe County,NY,5.800214822771213,0,NA
14612,Monroe County,NY,1.3963480128893664,NA,NA
14617,Monroe County,NY,5.692803437164339,4.638218923933209,NA
14715,Allegany County,NY,76.5843179377014,NA,NA
14719,Cattaraugus County,NY,93.34049409237379,NA,NA
14733,Chautauqua County,NY,NA,86.2708719851577,NA
14750,Chautauqua County,NY,92.0515574650913,NA,NA
14810,Steuben County,NY,56.4983888292159,NA,NA
14813,Allegany County,NY,83.78088077336197,NA,NA
14814,Chemung County,NY,95.8109559613319,NA,NA
14837,Yates County,NY,68.2062298603652,NA,NA
14840,Steuben County,NY,92.15896885069817,92.02226345083488,NA
14843,Steuben County,NY,17.185821697099893,NA,NA
14850,Tompkins County,NY,NA,6.122448979591836,NA
14886,Tompkins County,NY,NA,85.15769944341372,NA
14892,Tioga County,NY,NA,53.80333951762524,NA
27105,Forsyth County,NC,1.7185821697099892,NA,NA
27203,Randolph County,NC,22.234156820622985,NA,NA
27215,Alamance County,NC,9.237379162191193,NA,NA
27253,Alamance County,NC,NA,51.20593692022264,NA
27332,Lee County,NC,NA,NA,50.259067357512954
27514,Orange County,NC,90.54779806659506,NA,NA
27516,Orange County,NC,55.85392051557465,NA,NA
27537,Vance County,NC,30.934479054779807,NA,NA
27592,Wake County,NC,61.76154672395274,NA,NA
27603,Wake County,NC,18.259935553168635,NA,NA
27610,Wake County,NC,6.44468313641246,NA,NA
27703,Durham County,NC,10.096670247046188,NA,NA
27713,Durham County,NC,20.193340494092375,NA,NA
27893,Wilson County,NC,NA,23.376623376623375,NA
28023,Rowan County,NC,NA,80.14842300556586,NA
28043,Rutherford County,NC,NA,39.51762523191095,NA
28210,Mecklenburg County,NC,46.29430719656283,NA,NA
28304,Cumberland County,NC,26.53061224489796,NA,NA
28390,Harnett County,NC,87.75510204081633,NA,NA
28580,Greene County,NC,68.42105263157895,NA,NA
28625,Iredell County,NC,41.890440386680986,NA,NA
28640,Ashe County,NC,NA,84.97217068645641,NA
28642,Yadkin County,NC,80.55853920515574,NA,NA
28690,Burke County,NC,NA,NA,67.35751295336787
28723,Jackson County,NC,86.14393125671322,NA,NA
28779,Jackson County,NC,75.08055853920516,NA,NA
58401,Stutsman County,ND,84.64017185821697,NA,NA
58504,Burleigh County,ND,46.83136412459721,NA,NA
58801,Williams County,ND,59.505907626208376,NA,NA
43026,Franklin County,OH,NA,20.408163265306122,NA
43050,Knox County,OH,6.874328678839957,NA,NA
43110,Franklin County,OH,19.656283566058004,NA,NA
43147,Fairfield County,OH,20.193340494092375,NA,NA
43227,Franklin County,OH,19.11922663802363,NA,NA
43229,Franklin County,OH,5.477980665950591,NA,NA
43412,Lucas County,OH,NA,94.8051948051948,NA
43416,Ottawa County,OH,99.03329752953813,NA,NA
43440,Ottawa County,OH,NA,73.28385899814471,NA
43452,Ottawa County,OH,NA,65.67717996289424,NA
43502,Fulton County,OH,94.95166487647691,NA,NA
43528,Lucas County,OH,62.83566058002148,NA,NA
43551,Wood County,OH,12.567132116004295,6.493506493506493,NA
43571,Lucas County,OH,78.94736842105263,NA,NA
43608,Lucas County,OH,7.518796992481203,NA,NA
43609,Lucas County,OH,3.9742212674543502,NA,NA
43611,Lucas County,OH,38.34586466165413,NA,NA
43612,Lucas County,OH,3.329752953813104,NA,NA
43613,Lucas County,OH,2.577873254564984,NA,NA
43713,Belmont County,OH,86.14393125671322,NA,NA
43756,Morgan County,OH,NA,NA,62.17616580310881
43830,Muskingum County,OH,66.9172932330827,NA,NA
43920,Columbiana County,OH,8.055853920515576,NA,NA
43964,Jefferson County,OH,21.482277121374864,NA,NA
44001,Lorain County,OH,NA,66.79035250463822,NA
44004,Ashtabula County,OH,13.319011815252416,2.2263450834879404,NA
44017,Cuyahoga County,OH,74.54350161117078,NA,NA
44028,Lorain County,OH,91.40708915145005,NA,NA
44039,Lorain County,OH,NA,20.77922077922078,NA
44053,Lorain County,OH,7.089151450053706,NA,NA
44055,Lorain County,OH,7.626208378088077,NA,NA
44056,Summit County,OH,NA,54.35992578849722,NA
44060,Lake County,OH,42.10526315789473,NA,NA
44070,Cuyahoga County,OH,NA,30.0556586270872,NA
44102,Cuyahoga County,OH,NA,1.6697588126159555,NA
44105,Cuyahoga County,OH,NA,NA,26.94300518134715
44113,Cuyahoga County,OH,7.196562835660581,NA,NA
44123,Cuyahoga County,OH,NA,73.09833024118738,NA
44124,Cuyahoga County,OH,NA,2.5974025974025974,NA
44129,Cuyahoga County,OH,13.211600429645543,NA,NA
44130,Cuyahoga County,OH,18.796992481203006,NA,NA
44131,Cuyahoga County,OH,NA,17.068645640074212,NA
44134,Cuyahoga County,OH,26.638023630504833,NA,NA
44135,Cuyahoga County,OH,NA,36.54916512059369,NA
44143,Cuyahoga County,OH,NA,10.760667903525047,NA
44144,Cuyahoga County,OH,11.385606874328678,NA,NA
44149,Cuyahoga County,OH,NA,77.92207792207793,NA
44202,Portage County,OH,57.14285714285714,NA,NA
44203,Summit County,OH,40.27926960257787,NA,NA
44266,Portage County,OH,7.841031149301826,NA,NA
44273,Medina County,OH,82.06229860365198,NA,NA
44319,Summit County,OH,NA,NA,24.352331606217618
44403,Trumbull County,OH,91.72932330827066,NA,NA
44408,Columbiana County,OH,64.33941997851772,66.04823747680891,NA
44410,Trumbull County,OH,NA,24.860853432282003,NA
44432,Columbiana County,OH,NA,69.38775510204081,NA
44514,Mahoning County,OH,81.63265306122449,NA,NA
44601,Stark County,OH,NA,NA,40.932642487046635
44618,Wayne County,OH,99.35553168635876,NA,NA
44646,Stark County,OH,58.64661654135338,NA,NA
44683,Tuscarawas County,OH,21.697099892588614,NA,NA
44691,Wayne County,OH,NA,NA,15.025906735751295
44833,Crawford County,OH,80.12889366272825,NA,NA
44870,Erie County,OH,1.1815252416756177,NA,NA
44906,Richland County,OH,27.712137486573578,NA,NA
45103,Clermont County,OH,22.771213748657356,NA,NA
45106,Clermont County,OH,42.96455424274973,NA,NA
45176,Clermont County,OH,NA,75.69573283858998,NA
45227,Hamilton County,OH,41.997851772287866,NA,NA
45238,Hamilton County,OH,65.41353383458647,NA,NA
45327,Montgomery County,OH,NA,74.76808905380335,NA
45365,Shelby County,OH,11.707841031149302,NA,NA
45420,Montgomery County,OH,21.804511278195488,NA,NA
45459,Montgomery County,OH,NA,21.150278293135436,NA
45601,Ross County,OH,0.644468313641246,2.9684601113172544,NA
45692,Jackson County,OH,29.860365198711065,NA,NA
45760,Meigs County,OH,74.86573576799141,NA,NA
73013,Oklahoma County,OK,56.068743286788404,NA,NA
73044,Logan County,OK,44.79054779806659,NA,NA
73072,Cleveland County,OK,24.06015037593985,NA,NA
73089,Grady County,OK,73.25456498388829,NA,NA
73112,Oklahoma County,OK,31.149301825993554,NA,NA
73134,Oklahoma County,OK,91.51450053705693,NA,NA
73142,Oklahoma County,OK,89.25886143931257,NA,NA
73160,Cleveland County,OK,11.92266380236305,NA,NA
74008,Tulsa County,OK,NA,49.90723562152134,NA
74021,Tulsa County,OK,NA,63.26530612244898,NA
74401,Muskogee County,OK,65.19871106337271,NA,NA
74501,Pittsburg County,OK,44.575725026852844,NA,NA
74601,Kay County,OK,NA,55.473098330241186,NA
97030,Multnomah County,OR,14.930182599355533,NA,NA
97086,Clackamas County,OR,46.616541353383454,NA,NA
97123,Washington County,OR,16.3265306122449,NA,NA
97138,Clatsop County,OR,NA,61.59554730983302,NA
97211,Multnomah County,OR,NA,NA,88.60103626943005
97222,Clackamas County,OR,54.672395273899035,NA,NA
97225,Washington County,OR,NA,65.86270871985158,NA
97229,Washington County,OR,31.256713211600427,NA,NA
97232,Multnomah County,OR,74.86573576799141,NA,NA
97321,Linn County,OR,23.523093447905477,NA,NA
97355,Linn County,OR,34.26423200859291,NA,NA
97402,Lane County,OR,NA,29.87012987012987,NA
97462,Douglas County,OR,NA,89.6103896103896,NA
97470,Douglas County,OR,25.77873254564984,NA,NA
97496,Douglas County,OR,48.01288936627282,NA,NA
97520,Jackson County,OR,NA,47.30983302411874,NA
97527,Josephine County,OR,NA,18.181818181818183,NA
97540,Jackson County,OR,NA,91.83673469387756,NA
97630,Lake County,OR,NA,NA,91.19170984455958
97702,Deschutes County,OR,NA,38.5899814471243,NA
97801,Umatilla County,OR,82.49194414607949,NA,NA
97882,Umatilla County,OR,94.52201933404942,NA,NA
15012,Westmoreland County,PA,NA,77.36549165120594,NA
15063,Washington County,PA,55.10204081632652,NA,NA
15090,Allegheny County,PA,NA,NA,60.62176165803109
15102,Allegheny County,PA,55.424274973147156,NA,NA
15108,Allegheny County,PA,34.58646616541353,NA,NA
15120,Allegheny County,PA,85.82169709989259,NA,NA
15122,Allegheny County,PA,NA,NA,21.243523316062177
15126,Allegheny County,PA,95.91836734693877,NA,NA
15136,Allegheny County,PA,NA,68.08905380333951,NA
15202,Allegheny County,PA,88.07733619763695,NA,NA
15214,Allegheny County,PA,NA,80.89053803339517,63.730569948186535
15216,Allegheny County,PA,48.442534908700324,NA,NA
15220,Allegheny County,PA,NA,NA,53.36787564766839
15236,Allegheny County,PA,NA,30.241187384044526,NA
15243,Allegheny County,PA,NA,71.98515769944342,NA
15301,Washington County,PA,NA,29.684601113172544,45.07772020725388
15317,Washington County,PA,24.919441460794843,NA,48.18652849740933
15323,Washington County,PA,NA,95.91836734693877,NA
15522,Bedford County,PA,55.639097744360896,NA,NA
15601,Westmoreland County,PA,2.7926960257787328,0.7421150278293136,NA
15626,Westmoreland County,PA,NA,NA,77.2020725388601
15644,Westmoreland County,PA,NA,33.76623376623377,NA
15658,Westmoreland County,PA,67.3469387755102,NA,NA
15668,Westmoreland County,PA,NA,58.25602968460112,NA
15701,Indiana County,PA,17.078410311493016,NA,NA
15714,Cambria County,PA,70.13963480128893,NA,NA
15717,Indiana County,PA,NA,41.74397031539889,NA
15774,Indiana County,PA,NA,98.33024118738405,NA
15904,Cambria County,PA,77.44360902255639,66.97588126159555,NA
15905,Cambria County,PA,NA,35.80705009276438,NA
16002,Butler County,PA,49.194414607948445,36.92022263450835,NA
16102,Lawrence County,PA,NA,73.46938775510205,NA
16137,Mercer County,PA,NA,78.84972170686456,NA
16335,Crawford County,PA,9.989258861439312,NA,NA
16345,Warren County,PA,96.6702470461869,NA,NA
16365,Warren County,PA,NA,30.612244897959183,NA
16508,Erie County,PA,45.22019334049409,NA,NA
16510,Erie County,PA,34.049409237379166,NA,NA
16511,Erie County,PA,NA,NA,72.53886010362694
16602,Blair County,PA,NA,9.833024118738404,NA
16678,Bedford County,PA,NA,99.81447124304268,NA
16743,McKean County,PA,NA,88.12615955473099,NA
16749,McKean County,PA,NA,83.85899814471243,NA
16833,Clearfield County,PA,NA,57.5139146567718,NA
16870,Centre County,PA,83.45864661654136,NA,NA
17015,Cumberland County,PA,37.27175080558539,NA,NA
17020,Perry County,PA,NA,67.90352504638219,NA
17042,Lebanon County,PA,3.7593984962406015,NA,NA
17043,Cumberland County,PA,84.1031149301826,NA,NA
17044,Mifflin County,PA,12.244897959183673,NA,NA
17046,Lebanon County,PA,8.700322234156822,NA,NA
17051,Mifflin County,PA,93.98496240601504,NA,NA
17066,Huntingdon County,PA,84.9624060150376,NA,NA
17070,Cumberland County,PA,38.775510204081634,NA,NA
17078,Lebanon County,PA,NA,41.55844155844156,NA
17082,Juniata County,PA,98.17400644468314,NA,NA
17111,Dauphin County,PA,14.178302900107411,NA,NA
17222,Franklin County,PA,NA,51.76252319109462,NA
17301,Adams County,PA,NA,98.7012987012987,NA
17315,York County,PA,NA,48.42300556586271,NA
17325,Adams County,PA,20.0859291084855,NA,NA
17331,York County,PA,6.122448979591836,NA,NA
17353,Adams County,PA,NA,95.73283858998145,NA
17406,York County,PA,NA,40.63079777365491,NA
17551,Lancaster County,PA,83.02900107411385,NA,NA
17728,Lycoming County,PA,80.66595059076262,NA,NA
18017,Northampton County,PA,5.370569280343716,24.675324675324674,NA
18018,Lehigh County,PA,NA,NA,10.880829015544041
18040,Northampton County,PA,60.150375939849624,NA,NA
18045,Northampton County,PA,NA,66.60482374768088,NA
18058,Monroe County,PA,NA,70.87198515769944,NA
18102,Lehigh County,PA,27.38990332975295,NA,NA
18103,Lehigh County,PA,4.618689581095596,NA,NA
18210,Carbon County,PA,85.71428571428571,NA,NA
18255,Carbon County,PA,NA,NA,82.90155440414507
18407,Lackawanna County,PA,41.245972073039745,NA,NA
18411,Lackawanna County,PA,41.67561761546724,NA,NA
18414,Lackawanna County,PA,95.70354457572503,NA,NA
18444,Lackawanna County,PA,76.69172932330827,NA,NA
18504,Lackawanna County,PA,25.88614393125671,NA,NA
18517,Lackawanna County,PA,96.88506981740065,NA,NA
18612,Luzerne County,PA,49.08700322234157,NA,NA
18621,Luzerne County,PA,96.45542427497314,NA,NA
18651,Luzerne County,PA,NA,92.39332096474953,NA
18704,Luzerne County,PA,67.66917293233082,NA,NA
18901,Bucks County,PA,NA,23.933209647495364,43.523316062176164
18951,Bucks County,PA,NA,15.584415584415584,NA
18976,Bucks County,PA,69.70998925886144,NA,NA
19002,Montgomery County,PA,32.33082706766917,NA,NA
19004,Montgomery County,PA,95.16648764769066,NA,NA
19010,Delaware County,PA,49.30182599355531,NA,47.15025906735752
19046,Montgomery County,PA,NA,89.98144712430427,NA
19047,Bucks County,PA,NA,NA,32.12435233160622
19050,Delaware County,PA,NA,NA,75.12953367875647
19053,Bucks County,PA,NA,33.39517625231911,NA
19060,Delaware County,PA,NA,NA,83.41968911917098
19063,Delaware County,PA,84.42534908700323,9.276437847866418,NA
19064,Delaware County,PA,90.11815252416756,NA,NA
19066,Montgomery County,PA,NA,84.60111317254174,NA
19067,Bucks County,PA,NA,35.99257884972171,NA
19072,Montgomery County,PA,81.84747583243825,NA,NA
19073,Delaware County,PA,71.21374865735768,NA,18.134715025906736
19078,Delaware County,PA,56.82062298603652,88.31168831168831,NA
19087,Chester County,PA,69.49516648764768,NA,NA
19106,Philadelphia County,PA,91.1922663802363,NA,NA
19111,Philadelphia County,PA,60.902255639097746,5.380333951762523,NA
19114,Philadelphia County,PA,NA,NA,24.870466321243523
19116,Philadelphia County,PA,53.598281417830286,NA,NA
19120,Philadelphia County,PA,NA,NA,44.559585492227974
19122,Philadelphia County,PA,66.70247046186896,NA,NA
19128,Philadelphia County,PA,44.14607948442535,NA,NA
19136,Philadelphia County,PA,10.741138560687432,NA,NA
19140,Philadelphia County,PA,NA,8.16326530612245,NA
19144,Philadelphia County,PA,3.6519871106337276,8.534322820037106,NA
19146,Philadelphia County,PA,NA,58.8126159554731,NA
19147,Philadelphia County,PA,43.609022556390975,NA,NA
19149,Philadelphia County,PA,6.7669172932330826,NA,NA
19152,Philadelphia County,PA,NA,19.480519480519483,13.989637305699482
19320,Chester County,PA,8.485499462943071,9.461966604823747,55.44041450777202
19335,Chester County,PA,NA,11.317254174397032,NA
19342,Delaware County,PA,NA,46.01113172541744,NA
19348,Chester County,PA,NA,NA,66.32124352331607
19355,Chester County,PA,NA,41.1873840445269,NA
19380,Chester County,PA,NA,5.75139146567718,NA
19390,Chester County,PA,NA,58.62708719851577,NA
19403,Montgomery County,PA,43.9312567132116,NA,NA
19428,Montgomery County,PA,NA,87.75510204081633,NA
19462,Montgomery County,PA,40.816326530612244,NA,NA
19604,Berks County,PA,10.955961331901182,NA,NA
19605,Berks County,PA,NA,38.40445269016698,NA
19606,Berks County,PA,33.08270676691729,NA,NA
19607,Berks County,PA,23.8453276047261,NA,NA
02842,Newport County,RI,NA,52.13358070500927,NA
02852,Washington County,RI,NA,27.087198515769945,NA
02879,Washington County,RI,59.3984962406015,NA,NA
02888,Kent County,RI,NA,84.78664192949907,NA
02891,Washington County,RI,75.2953813104189,NA,NA
02895,Providence County,RI,11.600429645542427,NA,NA
02904,Providence County,RI,27.926960257787325,NA,92.74611398963731
02908,Providence County,RI,35.44575725026853,NA,NA
02914,Providence County,RI,NA,41.37291280148423,NA
29006,Lexington County,SC,73.68421052631578,NA,NA
29161,Florence County,SC,63.05048335123523,NA,NA
29206,Richland County,SC,NA,NA,86.01036269430051
29209,Richland County,SC,NA,48.05194805194805,NA
29316,Spartanburg County,SC,33.51235230934479,NA,NA
29349,Spartanburg County,SC,NA,54.17439703153989,NA
29407,Charleston County,SC,NA,NA,17.616580310880828
29455,Charleston County,SC,45.327604726100965,NA,NA
29456,Dorchester County,SC,30.075187969924812,NA,NA
29560,Florence County,SC,NA,NA,66.83937823834198
29611,Greenville County,SC,NA,32.6530612244898,NA
29617,Greenville County,SC,NA,35.43599257884972,NA
29621,Anderson County,SC,NA,17.810760667903523,NA
29645,Laurens County,SC,59.07626208378088,NA,NA
29651,Greenville County,SC,16.756176154672396,NA,NA
29681,Greenville County,SC,NA,NA,37.30569948186528
29715,York County,SC,NA,69.20222634508349,NA
29909,Beaufort County,SC,NA,NA,18.65284974093264
57078,Yankton County,SD,61.224489795918366,NA,NA
57104,Minnehaha County,SD,NA,NA,16.580310880829018
57252,Grant County,SD,85.92910848549946,NA,NA
37013,Davidson County,TN,NA,15.213358070500927,NA
37064,Williamson County,TN,40.6015037593985,NA,NA
37130,Rutherford County,TN,NA,31.16883116883117,NA
37135,Williamson County,TN,97.74436090225564,NA,NA
37167,Rutherford County,TN,23.09344790547798,NA,NA
37172,Robertson County,TN,13.856068743286789,NA,NA
37174,Williamson County,TN,67.88399570354457,NA,NA
37205,Davidson County,TN,90.01074113856069,NA,NA
37217,Davidson County,TN,36.62728249194414,NA,NA
37311,Bradley County,TN,NA,34.32282003710575,NA
37347,Marion County,TN,68.52846401718583,NA,NA
37412,Hamilton County,TN,44.79054779806659,NA,NA
37415,Hamilton County,TN,NA,92.94990723562152,NA
37659,Washington County,TN,31.364124597207304,NA,NA
37687,Carter County,TN,NA,NA,100
37711,Hawkins County,TN,NA,81.44712430426716,NA
37748,Roane County,TN,81.95488721804512,NA,NA
37757,Campbell County,TN,90.11815252416756,NA,NA
37801,Blount County,TN,13.64124597207304,NA,NA
37841,Scott County,TN,66.27282491944146,NA,NA
37865,Sevier County,TN,NA,43.042671614100186,NA
37876,Sevier County,TN,NA,22.448979591836736,NA
37890,Jefferson County,TN,NA,78.4786641929499,NA
37917,Knox County,TN,14.500537056928033,NA,NA
37922,Knox County,TN,73.79162191192266,NA,NA
38019,Tipton County,TN,48.97959183673469,NA,NA
38059,Dyer County,TN,82.59935553168636,NA,NA
38119,Shelby County,TN,NA,NA,67.35751295336787
38305,Madison County,TN,8.592910848549947,NA,NA
38375,McNairy County,TN,74.11385606874329,NA,NA
75009,Collin County,TX,79.26960257787326,NA,NA
75023,Collin County,TX,46.40171858216971,35.064935064935064,NA
75033,,TX,59.29108485499462,NA,NA
75035,Collin County,TX,33.190118152524164,NA,NA
75043,Dallas County,TX,15.789473684210526,NA,NA
75150,Dallas County,TX,48.87218045112782,NA,NA
75165,Ellis County,TX,NA,25.41743970315399,NA
75205,Dallas County,TX,57.03544575725027,NA,NA
75230,Dallas County,TX,NA,NA,49.22279792746114
75252,Collin County,TX,57.57250268528465,NA,NA
75455,Titus County,TX,NA,NA,50.259067357512954
75462,Lamar County,TX,NA,79.962894248608535,NA
75758,Henderson County,TX,NA,84.4155844155844,NA
75904,Angelina County,TX,29.108485499462944,NA,NA
75964,Nacogdoches County,TX,NA,70.50092764378478,NA
76110,Tarrant County,TX,37.056928034371644,NA,NA
76182,Tarrant County,TX,56.390977443609025,NA,NA
76308,Wichita County,TX,NA,NA,73.05699481865285
76513,Bell County,TX,27.06766917293233,NA,NA
76705,McLennan County,TX,14.822771213748656,NA,NA
76708,McLennan County,TX,NA,NA,22.797927461139896
76710,McLennan County,TX,NA,42.30055658627087,NA
76901,Tom Green County,TX,NA,30.983302411873844,NA
77024,Harris County,TX,54.02792696025779,NA,NA
77027,Harris County,TX,76.47690655209452,NA,NA
77031,Harris County,TX,NA,81.63265306122449,NA
77033,Harris County,TX,NA,NA,74.61139896373057
77057,Harris County,TX,NA,55.287569573283854,58.03108808290155
77069,Harris County,TX,79.9140708915145,NA,NA
77071,Harris County,TX,NA,NA,62.69430051813472
77303,Montgomery County,TX,72.07303974221267,NA,NA
77339,Harris County,TX,85.39205155746508,NA,NA
77377,Harris County,TX,38.131041890440386,NA,NA
77407,Fort Bend County,TX,70.89151450053706,NA,NA
77429,Harris County,TX,11.063372717508056,26.34508348794063,NA
77447,Harris County,TX,62.72824919441461,NA,NA
77493,Harris County,TX,87.0032223415682,NA,NA
77494,Fort Bend County,TX,NA,14.285714285714285,NA
77506,Harris County,TX,52.7389903329753,NA,NA
77517,Galveston County,TX,93.01825993555317,NA,NA
77521,Harris County,TX,24.597207303974223,NA,NA
77530,Harris County,TX,49.30182599355531,NA,NA
77546,Galveston County,TX,51.8796992481203,NA,NA
77550,Galveston County,TX,NA,12.244897959183673,NA
77573,Galveston County,TX,8.915145005370569,NA,NA
77584,Brazoria County,TX,49.516648764769066,NA,NA
77630,Orange County,TX,63.48012889366272,NA,NA
78040,Webb County,TX,36.19763694951665,NA,NA
78041,Webb County,TX,32.11600429645542,NA,NA
78045,Webb County,TX,NA,32.83858998144712,NA
78046,Webb County,TX,NA,25.60296846011132,NA
78109,Bexar County,TX,67.88399570354457,NA,NA
78130,Comal County,TX,NA,20.222634508348794,NA
78232,Bexar County,TX,NA,NA,53.8860103626943
78372,Jim Wells County,TX,89.90332975295381,NA,NA
78380,Nueces County,TX,77.55102040816327,NA,NA
78410,Nueces County,TX,70.56928034371643,97.21706864564007,NA
78413,Nueces County,TX,85.06981740064447,NA,NA
78414,Nueces County,TX,52.95381310418904,NA,NA
78504,Hidalgo County,TX,77.0139634801289,NA,NA
78516,Hidalgo County,TX,53.383458646616546,NA,NA
78526,Cameron County,TX,NA,NA,72.02072538860104
78573,Hidalgo County,TX,47.58324382384533,NA,NA
78589,Hidalgo County,TX,NA,36.178107606679035,NA
78641,Williamson County,TX,17.61546723952739,NA,NA
78642,Williamson County,TX,NA,NA,65.80310880829016
78660,Travis County,TX,22.341568206229862,NA,NA
78722,Travis County,TX,99.46294307196563,NA,NA
79412,Lubbock County,TX,52.201933404940924,NA,NA
79605,Taylor County,TX,33.190118152524164,NA,NA
79703,Midland County,TX,52.3093447905478,NA,NA
79720,Howard County,TX,NA,52.50463821892394,NA
79912,El Paso County,TX,NA,92.57884972170687,NA
84009,Salt Lake County,UT,NA,93.5064935064935,NA
84015,Davis County,UT,17.508055853920514,NA,NA
84037,Davis County,UT,60.36519871106337,NA,NA
84044,Salt Lake County,UT,37.59398496240601,NA,NA
84047,Salt Lake County,UT,22.448979591836736,NA,NA
84054,Davis County,UT,NA,70.31539888682747,NA
84087,Davis County,UT,NA,96.66048237476808,NA
84096,Salt Lake County,UT,23.415682062298604,NA,NA
84104,Salt Lake County,UT,40.923737916219125,NA,NA
84106,Salt Lake County,UT,29.860365198711065,NA,NA
84121,Salt Lake County,UT,35.660580021482275,NA,NA
84123,Salt Lake County,UT,17.830290010741138,NA,NA
84129,,UT,25.241675617615467,NA,NA
84335,Cache County,UT,87.96992481203007,NA,NA
84701,Sevier County,UT,96.02577873254565,NA,NA
84770,Washington County,UT,NA,28.014842300556587,NA
84780,Washington County,UT,NA,74.58256029684601,NA
84790,Washington County,UT,NA,NA,5.699481865284974
05060,Orange County,VT,NA,74.21150278293135,NA
05201,Bennington County,VT,81.31041890440387,NA,NA
05401,Chittenden County,VT,NA,47.124304267161406,NA
05468,Chittenden County,VT,58.86143931256713,NA,NA
05495,Chittenden County,VT,NA,62.33766233766234,NA
05641,Washington County,VT,27.497314715359828,28.942486085343226,NA
05677,Washington County,VT,99.89258861439313,NA,NA
05701,Rutland County,VT,NA,8.719851576994433,NA
20120,Fairfax County,VA,NA,89.05380333951763,NA
20121,Fairfax County,VA,NA,69.9443413729128,NA
22015,Fairfax County,VA,NA,45.82560296846011,NA
22066,Fairfax County,VA,NA,80.3339517625232,NA
22182,Fairfax County,VA,57.46509129967776,NA,NA
22192,Prince William County,VA,NA,40.07421150278293,NA
22207,Arlington County,VA,NA,42.11502782931355,NA
22304,Alexandria city,VA,13.10418904403867,NA,NA
22308,Fairfax County,VA,NA,78.10760667903524,NA
22314,Alexandria city,VA,26.20837808807734,NA,NA
22712,Fauquier County,VA,93.12567132116004,NA,NA
23188,James City County,VA,NA,2.0408163265306123,NA
23454,Virginia Beach city,VA,24.81203007518797,NA,NA
23847,Greensville County,VA,62.94307196562836,NA,NA
24426,Alleghany County,VA,86.35875402792696,NA,NA
24477,Augusta County,VA,NA,47.86641929499073,NA
24586,Pittsylvania County,VA,96.34801288936627,NA,NA
24637,Tazewell County,VA,88.93662728249194,NA,NA
98045,King County,WA,73.25456498388829,NA,NA
98052,King County,WA,42.32008592910849,NA,NA
98117,King County,WA,53.81310418904404,NA,NA
98125,King County,WA,34.47905477980666,NA,NA
98133,King County,WA,24.489795918367346,NA,NA
98272,Snohomish County,WA,76.04726100966703,NA,NA
98284,Skagit County,WA,NA,24.304267161410017,NA
98290,Snohomish County,WA,36.51987110633727,NA,NA
98296,Snohomish County,WA,39.63480128893663,NA,NA
98331,Clallam County,WA,NA,97.58812615955473,NA
98332,Pierce County,WA,82.92158968850698,NA,NA
98362,Clallam County,WA,NA,7.421150278293136,NA
98367,Kitsap County,WA,82.16970998925886,NA,NA
98368,Jefferson County,WA,NA,83.48794063079778,NA
98382,Clallam County,WA,NA,19.109461966604822,NA
98383,Kitsap County,WA,70.78410311493019,NA,NA
98407,Pierce County,WA,60.257787325456505,NA,NA
98408,Pierce County,WA,77.33619763694952,56.400742115027825,NA
98445,Pierce County,WA,42.21267454350161,NA,NA
98604,Clark County,WA,NA,68.6456400742115,59.067357512953365
98682,Clark County,WA,51.66487647690655,NA,NA
98685,Clark County,WA,NA,66.23376623376623,NA
98826,Chelan County,WA,97.31471535982814,NA,NA
98926,Kittitas County,WA,72.18045112781954,NA,NA
98932,Yakima County,WA,99.67776584317937,NA,NA
99169,Adams County,WA,100,NA,NA
99301,Franklin County,WA,9.022556390977442,NA,NA
20008,District of Columbia,DC,NA,69.01669758812616,NA
20015,District of Columbia,DC,81.09559613319011,NA,NA
20020,District of Columbia,DC,NA,6.307977736549166,NA
24701,Mercer County,WV,NA,62.708719851577,NA
25130,Boone County,WV,NA,82.93135435992579,NA
25425,Jefferson County,WV,NA,NA,97.92746113989638
25427,Berkeley County,WV,55.20945220193341,NA,NA
25508,Logan County,WV,NA,65.12059369202227,NA
26041,Marshall County,WV,40.494092373791624,NA,NA
26101,Wood County,WV,4.189044038668099,NA,NA
26164,Jackson County,WV,94.09237379162191,NA,NA
26301,Harrison County,WV,6.659505907626208,NA,NA
26330,Harrison County,WV,38.88292158968851,NA,NA
26501,Monongalia County,WV,15.037593984962406,NA,NA
53012,Ozaukee County,WI,NA,48.237476808905384,NA
53022,Washington County,WI,80.23630504833513,NA,NA
53029,Waukesha County,WI,55.746509129967784,49.16512059369202,NA
53105,Racine County,WI,39.849624060150376,NA,NA
53115,Walworth County,WI,NA,38.961038961038966,NA
53143,Kenosha County,WI,NA,28.7569573283859,NA
53168,Kenosha County,WI,50.912996777658435,NA,NA
53179,Kenosha County,WI,58.002148227712134,NA,NA
53190,Walworth County,WI,NA,58.998144712430424,NA
53226,Milwaukee County,WI,59.61331901181526,NA,NA
53528,Dane County,WI,99.78517722878625,NA,NA
53566,Green County,WI,NA,NA,12.953367875647666
53704,Dane County,WI,10.311493018259936,NA,NA
53959,Sauk County,WI,36.94951664876477,NA,NA
54016,St. Croix County,WI,NA,46.75324675324675,NA
54220,Manitowoc County,WI,NA,NA,69.94818652849742
54409,Langlade County,WI,NA,57.14285714285714,NA
54455,Marathon County,WI,NA,62.52319109461967,NA
54935,Fond du Lac County,WI,NA,10.204081632653061,NA
54956,Winnebago County,WI,21.911922663802365,NA,NA
54961,Waupaca County,WI,50.161117078410314,NA,NA
82009,Laramie County,WY,NA,54.54545454545454,NA
82201,Platte County,WY,NA,NA,81.34715025906736
82609,Natrona County,WY,NA,NA,78.23834196891191
