ZipCode,county,state,Youth,Pediatric,Adult,Retirement
35014,Talladega County,AL,NA,96.66666666666667,NA,NA
35016,Marshall County,AL,82.91925465838509,NA,NA,NA
35031,Blount County,AL,NA,71.42857142857143,NA,NA
35057,Cullman County,AL,NA,NA,75.7751937984496,NA
35121,Blount County,AL,NA,NA,NA,55.865921787709496
35150,Talladega County,AL,56.52173913043478,NA,NA,NA
35160,Talladega County,AL,NA,34.76190476190476,NA,NA
35546,Fayette County,AL,NA,NA,91.86046511627907,NA
35565,Winston County,AL,NA,NA,NA,79.3296089385475
35580,Walker County,AL,NA,95.71428571428572,NA,NA
35603,Morgan County,AL,NA,NA,17.248062015503876,NA
35634,Lauderdale County,AL,NA,NA,86.43410852713178,NA
35640,Morgan County,AL,NA,NA,34.689922480620154,NA
35771,Jackson County,AL,NA,NA,96.51162790697676,NA
35953,St. Clair County,AL,87.26708074534162,NA,NA,NA
35962,DeKalb County,AL,NA,NA,83.52713178294574,NA
35976,Marshall County,AL,NA,NA,49.224806201550386,NA
36010,Pike County,AL,NA,NA,92.05426356589147,NA
36067,Autauga County,AL,NA,NA,37.2093023255814,NA
36251,Clay County,AL,NA,NA,NA,97.76536312849163
36264,Cleburne County,AL,NA,87.14285714285714,NA,NA
36604,Mobile County,AL,NA,NA,87.40310077519379,NA
36744,Hale County,AL,83.85093167701864,NA,NA,NA
99503,Anchorage Municipality,AK,64.59627329192547,NA,NA,NA
85009,Maricopa County,AZ,9.316770186335404,NA,NA,NA
85018,Maricopa County,AZ,NA,NA,34.883720930232556,NA
85027,Maricopa County,AZ,26.08695652173913,NA,NA,NA
85033,Maricopa County,AZ,NA,6.666666666666667,16.472868217054263,NA
85035,Maricopa County,AZ,NA,8.571428571428571,NA,NA
85037,Maricopa County,AZ,NA,NA,75.5813953488372,NA
85041,Maricopa County,AZ,4.968944099378882,NA,NA,26.256983240223462
85043,Maricopa County,AZ,NA,20.476190476190474,57.17054263565892,NA
85086,Maricopa County,AZ,NA,NA,43.21705426356589,43.575418994413404
85122,Pinal County,AZ,5.900621118012422,7.6190476190476195,NA,NA
85138,Pinal County,AZ,NA,NA,41.86046511627907,NA
85140,Pinal County,AZ,46.58385093167702,NA,NA,NA
85202,Maricopa County,AZ,63.975155279503106,NA,NA,NA
85203,Maricopa County,AZ,NA,NA,39.14728682170542,NA
85206,Maricopa County,AZ,NA,80.47619047619048,NA,NA
85225,Maricopa County,AZ,NA,12.857142857142856,NA,NA
85226,Maricopa County,AZ,NA,NA,NA,70.94972067039106
85234,Maricopa County,AZ,NA,NA,32.55813953488372,NA
85256,Maricopa County,AZ,92.54658385093167,NA,NA,NA
85301,Maricopa County,AZ,NA,NA,NA,19.553072625698324
85304,Maricopa County,AZ,NA,77.61904761904762,NA,NA
85326,Maricopa County,AZ,9.006211180124224,20,NA,46.36871508379888
85335,Maricopa County,AZ,51.5527950310559,NA,NA,58.659217877094974
85338,Maricopa County,AZ,NA,60,NA,NA
85350,Yuma County,AZ,NA,NA,53.48837209302325,NA
85353,Maricopa County,AZ,NA,NA,33.13953488372093,NA
85364,Yuma County,AZ,NA,NA,2.3255813953488373,NA
85379,Maricopa County,AZ,31.05590062111801,NA,NA,NA
85392,Maricopa County,AZ,14.285714285714285,NA,NA,NA
85550,Graham County,AZ,72.98136645962732,NA,NA,NA
85602,Cochise County,AZ,NA,NA,84.10852713178295,NA
85607,Cochise County,AZ,NA,NA,26.937984496124027,NA
85621,Santa Cruz County,AZ,21.11801242236025,10.476190476190476,NA,NA
85629,Pima County,AZ,NA,37.61904761904762,NA,NA
85634,Pima County,AZ,28.57142857142857,NA,NA,NA
85653,Pima County,AZ,NA,NA,NA,39.66480446927375
85705,Pima County,AZ,9.316770186335404,6.190476190476191,NA,NA
85710,Pima County,AZ,NA,25.71428571428571,7.55813953488372,NA
85712,Pima County,AZ,NA,NA,22.093023255813954,NA
85713,Pima County,AZ,5.590062111801243,NA,5.62015503875969,NA
85718,Pima County,AZ,NA,NA,91.08527131782945,NA
85735,Pima County,AZ,NA,NA,69.76744186046511,NA
85742,Pima County,AZ,NA,NA,NA,83.79888268156425
85756,Pima County,AZ,NA,NA,69.18604651162791,NA
86004,Coconino County,AZ,NA,NA,NA,49.162011173184354
86047,Navajo County,AZ,NA,NA,35.65891472868217,NA
71832,Sevier County,AR,NA,NA,NA,82.12290502793296
71929,Hot Spring County,AR,NA,NA,NA,98.32402234636871
72032,Faulkner County,AR,NA,NA,42.248062015503876,NA
72104,Hot Spring County,AR,44.72049689440994,NA,NA,NA
72315,Mississippi County,AR,NA,NA,NA,50.83798882681564
72401,Craighead County,AR,NA,NA,14.922480620155037,NA
72638,Carroll County,AR,95.03105590062113,NA,NA,NA
72653,Baxter County,AR,NA,NA,46.31782945736434,NA
90001,Los Angeles County,CA,NA,NA,48.837209302325576,NA
90022,Los Angeles County,CA,NA,NA,37.7906976744186,NA
90221,Los Angeles County,CA,NA,NA,38.565891472868216,NA
90241,Los Angeles County,CA,NA,63.8095238095238,NA,NA
90254,Los Angeles County,CA,76.08695652173914,NA,NA,NA
90605,Los Angeles County,CA,NA,NA,58.91472868217055,NA
90650,Los Angeles County,CA,NA,24.285714285714285,NA,NA
90703,Los Angeles County,CA,NA,NA,84.68992248062015,NA
91214,Los Angeles County,CA,NA,88.57142857142857,NA,NA
91320,Ventura County,CA,NA,NA,NA,58.10055865921788
91331,Los Angeles County,CA,NA,NA,10.077519379844961,NA
91342,Los Angeles County,CA,NA,15.714285714285714,NA,NA
91377,Ventura County,CA,NA,NA,94.37984496124031,NA
91605,Los Angeles County,CA,NA,51.90476190476191,NA,NA
91706,Los Angeles County,CA,NA,NA,25.581395348837212,NA
91791,Los Angeles County,CA,NA,NA,81.2015503875969,NA
92008,San Diego County,CA,NA,NA,53.29457364341085,NA
92056,San Diego County,CA,NA,57.61904761904761,NA,NA
92078,San Diego County,CA,45.962732919254655,NA,NA,NA
92101,San Diego County,CA,80.12422360248446,NA,NA,NA
92102,San Diego County,CA,NA,41.42857142857143,NA,NA
92105,San Diego County,CA,NA,7.142857142857142,NA,NA
92126,San Diego County,CA,NA,NA,47.286821705426355,NA
92128,San Diego County,CA,53.41614906832298,NA,NA,NA
92130,San Diego County,CA,52.484472049689444,NA,NA,NA
92270,Riverside County,CA,94.40993788819875,NA,NA,NA
92277,San Bernardino County,CA,NA,NA,73.25581395348837,NA
92281,Imperial County,CA,95.96273291925466,NA,NA,NA
92335,San Bernardino County,CA,NA,10,NA,NA
92344,San Bernardino County,CA,NA,82.38095238095238,NA,NA
92345,San Bernardino County,CA,29.503105590062113,NA,NA,NA
92505,Riverside County,CA,NA,NA,49.031007751937985,NA
92557,Riverside County,CA,NA,72.85714285714285,NA,NA
92602,Orange County,CA,NA,93.80952380952381,NA,NA
92646,Orange County,CA,45.65217391304348,NA,NA,NA
92649,Orange County,CA,NA,NA,57.94573643410853,NA
92692,Orange County,CA,NA,NA,NA,25.139664804469277
92868,Orange County,CA,NA,66.66666666666666,NA,NA
93041,Ventura County,CA,NA,NA,NA,65.36312849162012
93215,Kern County,CA,NA,32.857142857142854,NA,NA
93257,Tulare County,CA,NA,NA,12.015503875968992,NA
93277,Tulare County,CA,NA,NA,25.1937984496124,NA
93304,Kern County,CA,19.565217391304348,NA,NA,NA
93307,Kern County,CA,NA,NA,12.984496124031008,NA
93458,Santa Barbara County,CA,NA,NA,13.953488372093023,NA
93551,Los Angeles County,CA,NA,55.714285714285715,NA,NA
93657,Fresno County,CA,28.57142857142857,NA,NA,NA
93705,Fresno County,CA,NA,NA,33.33333333333333,NA
93706,Fresno County,CA,NA,10.952380952380953,NA,NA
93726,Fresno County,CA,NA,NA,22.48062015503876,NA
93955,Monterey County,CA,NA,NA,41.47286821705426,NA
94019,San Mateo County,CA,NA,52.85714285714286,NA,NA
94025,San Mateo County,CA,56.2111801242236,NA,NA,NA
94582,Contra Costa County,CA,NA,NA,NA,94.41340782122904
95018,Santa Cruz County,CA,NA,NA,97.67441860465115,NA
95127,Santa Clara County,CA,NA,NA,43.798449612403104,NA
95242,San Joaquin County,CA,NA,NA,NA,57.54189944134078
95367,Stanislaus County,CA,NA,NA,NA,80.44692737430168
95619,El Dorado County,CA,NA,NA,NA,87.15083798882681
95650,Placer County,CA,NA,NA,90.11627906976744,NA
95682,El Dorado County,CA,69.25465838509317,NA,NA,NA
95693,Sacramento County,CA,NA,NA,NA,90.5027932960894
95762,El Dorado County,CA,NA,NA,53.100775193798455,NA
95820,Sacramento County,CA,NA,NA,54.06976744186046,NA
95828,Sacramento County,CA,NA,52.38095238095239,NA,NA
95829,Sacramento County,CA,NA,NA,77.32558139534885,NA
95928,Butte County,CA,NA,19.523809523809526,NA,NA
95948,Butte County,CA,NA,NA,79.45736434108527,NA
96001,Shasta County,CA,NA,NA,NA,50.27932960893855
80002,Jefferson County,CO,NA,NA,85.46511627906976,NA
80020,Broomfield County,CO,NA,64.28571428571429,NA,NA
80026,Boulder County,CO,NA,NA,NA,51.39664804469274
80108,Douglas County,CO,NA,NA,51.55038759689923,NA
80123,Jefferson County,CO,NA,NA,49.8062015503876,NA
80233,Adams County,CO,NA,NA,61.627906976744185,NA
80247,Arapahoe County,CO,NA,NA,NA,51.39664804469274
80521,Larimer County,CO,NA,NA,70.15503875968993,NA
80525,Larimer County,CO,NA,39.523809523809526,15.69767441860465,NA
80526,Larimer County,CO,NA,NA,38.95348837209303,NA
80601,Adams County,CO,22.981366459627328,NA,NA,NA
80634,Weld County,CO,5.279503105590062,36.19047619047619,NA,NA
80808,El Paso County,CO,NA,NA,91.66666666666666,NA
80831,El Paso County,CO,NA,NA,70.93023255813954,NA
80903,El Paso County,CO,NA,NA,71.31782945736434,NA
80906,El Paso County,CO,81.98757763975155,NA,NA,NA
80916,El Paso County,CO,48.4472049689441,42.38095238095238,NA,NA
81005,Pueblo County,CO,NA,60.952380952380956,NA,NA
81050,Otero County,CO,NA,NA,74.8062015503876,NA
81147,Archuleta County,CO,95.65217391304348,NA,NA,NA
81212,Fremont County,CO,NA,NA,73.06201550387597,NA
81647,Garfield County,CO,NA,NA,95.15503875968993,NA
06002,Hartford County,CT,NA,NA,51.55038759689923,NA
06118,Hartford County,CT,NA,NA,25,NA
06226,Windham County,CT,NA,NA,16.86046511627907,NA
06238,Tolland County,CT,NA,NA,NA,65.92178770949721
06413,Middlesex County,CT,NA,NA,64.72868217054264,NA
06415,New London County,CT,NA,NA,56.97674418604651,NA
06457,Middlesex County,CT,NA,NA,NA,11.1731843575419
06514,New Haven County,CT,NA,NA,36.04651162790697,NA
06708,New Haven County,CT,NA,NA,23.25581395348837,NA
06790,Litchfield County,CT,NA,NA,4.651162790697675,NA
06801,Fairfield County,CT,NA,NA,72.09302325581395,NA
06851,Fairfield County,CT,NA,NA,NA,55.3072625698324
06897,Fairfield County,CT,60.24844720496895,NA,NA,NA
19709,New Castle County,DE,NA,NA,21.705426356589147,NA
19901,Kent County,DE,NA,NA,18.410852713178294,NA
32052,Hamilton County,FL,NA,NA,NA,88.8268156424581
32064,Suwannee County,FL,68.32298136645963,NA,NA,NA
32177,Putnam County,FL,38.50931677018634,NA,NA,NA
32207,Duval County,FL,33.54037267080746,NA,NA,NA
32208,Duval County,FL,NA,NA,1.1627906976744187,NA
32216,Duval County,FL,NA,NA,19.767441860465116,NA
32218,Duval County,FL,NA,NA,NA,2.2346368715083798
32226,Duval County,FL,NA,NA,NA,61.452513966480446
32301,Leon County,FL,68.01242236024845,NA,NA,NA
32405,Bay County,FL,NA,NA,26.356589147286826,NA
32505,Escambia County,FL,16.459627329192546,NA,NA,NA
32563,Santa Rosa County,FL,NA,NA,33.52713178294574,NA
32726,Lake County,FL,NA,58.57142857142858,NA,NA
32738,Volusia County,FL,36.33540372670808,NA,38.372093023255815,NA
32776,Lake County,FL,NA,94.76190476190476,NA,NA
32780,Brevard County,FL,NA,NA,42.82945736434108,NA
32901,Brevard County,FL,72.04968944099379,NA,NA,NA
32905,Brevard County,FL,NA,NA,NA,48.04469273743017
33063,Broward County,FL,49.378881987577635,NA,NA,NA
33155,Miami-Dade County,FL,NA,55.23809523809524,NA,NA
33165,Miami-Dade County,FL,NA,30.952380952380953,NA,NA
33167,Miami-Dade County,FL,NA,42.857142857142854,NA,NA
33176,Miami-Dade County,FL,NA,NA,NA,37.43016759776536
33177,Miami-Dade County,FL,19.875776397515526,NA,NA,NA
33179,Miami-Dade County,FL,35.40372670807454,NA,63.565891472868216,NA
33186,Miami-Dade County,FL,NA,NA,79.65116279069767,NA
33440,Hendry County,FL,56.52173913043478,NA,NA,NA
33478,Palm Beach County,FL,NA,NA,95.34883720930233,NA
33510,Hillsborough County,FL,71.42857142857143,NA,NA,NA
33634,Hillsborough County,FL,NA,71.42857142857143,NA,NA
33705,Pinellas County,FL,NA,NA,28.294573643410853,NA
33713,Pinellas County,FL,52.484472049689444,NA,NA,NA
33756,Pinellas County,FL,34.78260869565217,NA,NA,NA
33759,Pinellas County,FL,88.81987577639751,NA,NA,NA
33781,Pinellas County,FL,79.5031055900621,NA,NA,NA
33815,Polk County,FL,54.6583850931677,NA,NA,NA
33830,Polk County,FL,NA,27.61904761904762,NA,NA
33870,Highlands County,FL,NA,NA,NA,30.726256983240223
33898,Polk County,FL,80.74534161490683,NA,NA,NA
33904,Lee County,FL,NA,NA,40.50387596899225,NA
33931,Lee County,FL,NA,NA,NA,68.71508379888269
33952,Charlotte County,FL,NA,54.285714285714285,NA,NA
33971,Lee County,FL,NA,NA,59.10852713178295,NA
34110,Collier County,FL,NA,NA,81.5891472868217,NA
34112,Collier County,FL,NA,93.33333333333333,NA,NA
34203,Manatee County,FL,45.3416149068323,NA,NA,NA
34293,Sarasota County,FL,NA,NA,50.3875968992248,NA
34446,Citrus County,FL,NA,NA,NA,64.80446927374301
34481,Marion County,FL,NA,NA,75.1937984496124,NA
34610,Pasco County,FL,NA,NA,NA,72.06703910614524
34613,Hernando County,FL,NA,NA,75.96899224806202,NA
34667,Pasco County,FL,NA,NA,46.70542635658915,NA
34668,Pasco County,FL,NA,NA,10.65891472868217,NA
34677,Pinellas County,FL,NA,NA,77.51937984496125,NA
34715,Lake County,FL,NA,NA,NA,74.30167597765363
34743,Osceola County,FL,NA,40,NA,NA
34785,Sumter County,FL,53.72670807453416,NA,NA,NA
34946,St. Lucie County,FL,NA,91.42857142857143,NA,NA
34982,St. Lucie County,FL,NA,NA,NA,40.22346368715084
34983,St. Lucie County,FL,NA,NA,NA,30.726256983240223
30019,Gwinnett County,GA,NA,NA,NA,43.01675977653631
30022,Fulton County,GA,NA,NA,NA,47.486033519553075
30024,Gwinnett County,GA,22.67080745341615,NA,NA,NA
30041,Forsyth County,GA,NA,NA,27.51937984496124,NA
30052,Walton County,GA,NA,NA,19.186046511627907,NA
30087,DeKalb County,GA,NA,NA,64.53488372093024,NA
30093,Gwinnett County,GA,27.95031055900621,NA,NA,NA
30101,Cobb County,GA,NA,71.42857142857143,NA,NA
30108,Carroll County,GA,NA,NA,86.04651162790698,NA
30116,Carroll County,GA,NA,76.19047619047619,NA,NA
30125,Polk County,GA,43.47826086956522,NA,NA,NA
30132,Paulding County,GA,31.67701863354037,NA,NA,40.78212290502793
30161,Floyd County,GA,6.211180124223603,NA,20.155038759689923,NA
30180,Carroll County,GA,NA,NA,NA,38.547486033519554
30189,Cherokee County,GA,68.32298136645963,NA,NA,NA
30213,Fulton County,GA,NA,NA,NA,69.27374301675978
30224,Spalding County,GA,NA,NA,55.62015503875969,NA
30241,Troup County,GA,NA,NA,27.325581395348834,NA
30305,Fulton County,GA,NA,NA,81.0077519379845,NA
30316,DeKalb County,GA,NA,NA,56.201550387596896,NA
30349,Fulton County,GA,NA,NA,NA,14.52513966480447
30501,Hall County,GA,NA,NA,NA,70.39106145251397
30523,Habersham County,GA,89.44099378881988,NA,NA,NA
30525,Rabun County,GA,85.40372670807453,NA,NA,NA
30533,Lumpkin County,GA,NA,NA,NA,81.56424581005587
30606,Clarke County,GA,NA,68.57142857142857,NA,NA
30633,Madison County,GA,NA,98.09523809523809,NA,NA
30650,Morgan County,GA,NA,NA,68.4108527131783,NA
30705,Murray County,GA,NA,NA,NA,75.97765363128491
30734,Gordon County,GA,NA,98.57142857142858,NA,NA
30739,Walker County,GA,91.30434782608695,NA,NA,NA
30747,Chattooga County,GA,NA,NA,52.71317829457365,NA
31024,Putnam County,GA,76.3975155279503,NA,NA,NA
31204,Bibb County,GA,NA,NA,32.36434108527132,NA
31312,Effingham County,GA,NA,NA,80.42635658914729,NA
31410,Chatham County,GA,NA,NA,NA,46.927374301675975
96707,Honolulu County,HI,NA,NA,37.2093023255814,NA
96741,Kauai County,HI,94.72049689440993,NA,NA,NA
96782,Honolulu County,HI,NA,NA,NA,25.69832402234637
96786,Honolulu County,HI,NA,NA,33.91472868217054,NA
96792,Honolulu County,HI,NA,NA,11.046511627906977,NA
96817,Honolulu County,HI,NA,19.047619047619047,NA,NA
83338,Jerome County,ID,NA,NA,57.55813953488372,NA
83401,Bonneville County,ID,NA,NA,NA,44.134078212290504
83605,Canyon County,ID,NA,14.285714285714285,NA,NA
83702,Ada County,ID,39.130434782608695,NA,NA,NA
83705,Ada County,ID,NA,NA,28.68217054263566,NA
60047,Lake County,IL,NA,NA,NA,21.787709497206702
60073,Lake County,IL,NA,NA,16.08527131782946,NA
60118,Kane County,IL,75.46583850931677,NA,NA,NA
60126,DuPage County,IL,NA,NA,NA,45.81005586592179
60137,DuPage County,IL,25.465838509316768,NA,NA,NA
60140,Kane County,IL,49.06832298136646,NA,NA,NA
60148,DuPage County,IL,NA,NA,14.34108527131783,NA
60160,Cook County,IL,NA,NA,NA,73.74301675977654
60173,Cook County,IL,NA,NA,94.18604651162791,NA
60184,DuPage County,IL,NA,NA,99.03100775193798,NA
60410,Will County,IL,NA,NA,50.968992248062015,NA
60422,Cook County,IL,86.95652173913044,NA,NA,NA
60452,Cook County,IL,NA,NA,52.13178294573644,NA
60505,Kane County,IL,23.91304347826087,NA,NA,NA
60510,Kane County,IL,37.577639751552795,NA,NA,NA
60516,DuPage County,IL,NA,NA,NA,31.843575418994412
60525,Cook County,IL,NA,NA,23.837209302325583,NA
60543,Kendall County,IL,NA,NA,37.98449612403101,NA
60605,Cook County,IL,NA,NA,NA,48.60335195530726
60610,Cook County,IL,NA,NA,44.96124031007752,NA
60613,Cook County,IL,57.7639751552795,NA,NA,NA
60624,Cook County,IL,NA,NA,NA,27.932960893854748
60634,Cook County,IL,NA,NA,NA,10.05586592178771
60645,Cook County,IL,NA,NA,NA,20.670391061452513
60804,Cook County,IL,NA,NA,20.54263565891473,NA
61008,Boone County,IL,NA,NA,NA,17.877094972067038
61241,Henry County,IL,98.75776397515527,NA,NA,NA
61265,Rock Island County,IL,NA,NA,NA,33.5195530726257
61350,LaSalle County,IL,NA,NA,51.356589147286826,NA
61832,Vermilion County,IL,NA,NA,NA,13.40782122905028
62561,Sangamon County,IL,NA,NA,NA,97.20670391061452
62966,Jackson County,IL,63.66459627329193,NA,NA,NA
46041,Clinton County,IN,49.68944099378882,NA,NA,NA
46055,Hancock County,IN,93.7888198757764,91.9047619047619,NA,NA
46060,Hamilton County,IN,NA,NA,30.813953488372093,NA
46062,Hamilton County,IN,NA,NA,NA,16.201117318435752
46168,Hendricks County,IN,NA,NA,42.44186046511628,NA
46201,Marion County,IN,15.527950310559005,NA,NA,NA
46205,Marion County,IN,NA,NA,38.759689922480625,NA
46218,Marion County,IN,NA,21.904761904761905,NA,NA
46222,Marion County,IN,33.85093167701863,NA,NA,NA
46254,Marion County,IN,NA,35.714285714285715,NA,NA
46268,Marion County,IN,NA,NA,47.093023255813954,NA
46304,Porter County,IN,44.409937888198755,NA,NA,NA
46310,Jasper County,IN,NA,NA,55.23255813953488,NA
46322,Lake County,IN,NA,NA,24.418604651162788,NA
46342,Lake County,IN,NA,NA,4.263565891472868,NA
46356,Lake County,IN,NA,NA,30.23255813953488,NA
46360,LaPorte County,IN,NA,NA,4.457364341085271,NA
46385,Porter County,IN,NA,NA,6.395348837209303,NA
46738,DeKalb County,IN,NA,NA,72.48062015503875,NA
46755,Noble County,IN,12.111801242236025,NA,NA,NA
46804,Allen County,IN,NA,NA,47.480620155038764,NA
46806,Allen County,IN,NA,26.190476190476193,62.01550387596899,NA
46902,Howard County,IN,NA,NA,NA,3.35195530726257
46947,Cass County,IN,0.3105590062111801,NA,NA,NA
46953,Grant County,IN,45.962732919254655,45.714285714285715,NA,NA
46970,Miami County,IN,NA,NA,NA,22.905027932960895
47303,Delaware County,IN,72.36024844720497,NA,NA,NA
47362,Henry County,IN,NA,NA,22.28682170542636,NA
47452,Orange County,IN,91.92546583850931,NA,NA,NA
47591,Knox County,IN,NA,NA,37.5968992248062,NA
47601,Warrick County,IN,NA,NA,63.759689922480625,NA
47885,Vigo County,IN,NA,NA,83.72093023255815,NA
47906,Tippecanoe County,IN,NA,NA,57.751937984496124,NA
50138,Marion County,IA,NA,NA,55.03875968992248,NA
50158,Marshall County,IA,NA,64.76190476190476,NA,NA
50315,Polk County,IA,NA,NA,33.72093023255814,NA
50317,Polk County,IA,NA,31.428571428571427,NA,NA
50595,Hamilton County,IA,NA,81.9047619047619,NA,NA
50662,Fayette County,IA,NA,80,NA,NA
51031,Plymouth County,IA,79.8136645962733,NA,NA,NA
51501,Pottawattamie County,IA,7.763975155279502,NA,NA,NA
52301,Iowa County,IA,NA,NA,98.64341085271317,NA
52402,Linn County,IA,27.639751552795033,NA,NA,NA
52726,Scott County,IA,NA,NA,95.93023255813954,NA
52761,Muscatine County,IA,NA,NA,41.86046511627907,NA
67205,Sedgwick County,KS,90.6832298136646,NA,NA,NA
67211,Sedgwick County,KS,NA,NA,56.395348837209305,NA
40065,Shelby County,KY,NA,NA,43.992248062015506,NA
40146,Breckinridge County,KY,NA,92.85714285714286,NA,NA
40258,Jefferson County,KY,NA,50.476190476190474,NA,NA
40324,Scott County,KY,32.298136645962735,NA,12.5968992248062,NA
40409,Rockcastle County,KY,NA,NA,97.28682170542635,NA
40831,Harlan County,KY,NA,78.0952380952381,NA,NA
40906,Knox County,KY,NA,44.761904761904766,NA,NA
41056,Mason County,KY,NA,NA,45.15503875968992,NA
41143,Carter County,KY,59.006211180124225,NA,NA,NA
41175,Greenup County,KY,NA,NA,67.24806201550388,NA
41219,Johnson County,KY,NA,NA,98.06201550387597,NA
42001,McCracken County,KY,NA,NA,NA,18.994413407821227
42003,McCracken County,KY,NA,NA,46.89922480620155,NA
42041,Fulton County,KY,NA,NA,NA,88.26815642458101
42050,Fulton County,KY,NA,NA,96.89922480620154,NA
42134,Simpson County,KY,81.67701863354037,NA,NA,NA
42240,Christian County,KY,NA,24.761904761904763,5.038759689922481,NA
42539,Casey County,KY,72.67080745341616,NA,NA,NA
70053,Jefferson Parish,LA,NA,23.333333333333332,NA,NA
70058,Jefferson Parish,LA,NA,1.9047619047619049,NA,NA
70065,Jefferson Parish,LA,1.2422360248447204,NA,NA,NA
70068,St. John the Baptist Parish,LA,NA,2.380952380952381,NA,NA
70070,St. Charles Parish,LA,NA,29.04761904761905,NA,NA
70094,Jefferson Parish,LA,NA,11.428571428571429,NA,NA
70113,Orleans Parish,LA,50,NA,NA,NA
70114,Orleans Parish,LA,7.142857142857142,NA,NA,NA
70346,Ascension Parish,LA,NA,NA,49.41860465116279,NA
70363,Terrebonne Parish,LA,NA,0.9523809523809524,NA,NA
70364,Terrebonne Parish,LA,27.018633540372672,NA,NA,NA
70374,Lafourche Parish,LA,29.81366459627329,NA,NA,NA
70394,Lafourche Parish,LA,81.36645962732919,NA,NA,NA
70450,Washington Parish,LA,NA,NA,NA,99.4413407821229
70517,St. Martin Parish,LA,15.838509316770185,NA,NA,NA
70526,Acadia Parish,LA,59.93788819875776,NA,NA,NA
70533,Vermilion Parish,LA,NA,26.666666666666668,NA,NA
70535,St. Landry Parish,LA,NA,49.523809523809526,94.96124031007753,NA
70546,Jefferson Davis Parish,LA,NA,11.904761904761903,NA,NA
70560,Iberia Parish,LA,3.1055900621118013,NA,NA,NA
70570,St. Landry Parish,LA,0.6211180124223602,NA,NA,NA
70582,St. Martin Parish,LA,NA,NA,29.26356589147287,NA
70592,Lafayette Parish,LA,NA,NA,28.875968992248062,NA
70601,Calcasieu Parish,LA,NA,NA,10.465116279069768,NA
70607,Calcasieu Parish,LA,NA,NA,65.31007751937985,NA
70710,West Baton Rouge Parish,LA,NA,NA,96.70542635658916,NA
70726,Livingston Parish,LA,NA,NA,1.550387596899225,NA
70754,Livingston Parish,LA,NA,NA,58.720930232558146,NA
70775,West Feliciana Parish,LA,NA,86.19047619047619,NA,NA
70791,East Baton Rouge Parish,LA,23.29192546583851,NA,NA,NA
70806,East Baton Rouge Parish,LA,20.18633540372671,NA,NA,NA
71006,Bossier Parish,LA,NA,NA,93.4108527131783,NA
71075,Webster Parish,LA,NA,NA,69.57364341085271,NA
71111,Bossier Parish,LA,NA,NA,3.6821705426356592,NA
71112,Bossier Parish,LA,NA,17.61904761904762,11.627906976744185,NA
71203,Ouachita Parish,LA,NA,NA,NA,24.581005586592177
71220,Morehouse Parish,LA,NA,8.571428571428571,18.7984496124031,NA
04043,York County,ME,NA,NA,66.27906976744185,NA
04064,York County,ME,NA,NA,NA,45.2513966480447
04074,Cumberland County,ME,74.84472049689441,NA,NA,NA
04276,Oxford County,ME,62.11180124223602,NA,NA,NA
04330,Kennebec County,ME,4.037267080745342,NA,NA,NA
04609,Hancock County,ME,NA,NA,NA,92.73743016759776
04841,Knox County,ME,55.27950310559007,NA,NA,NA
04901,Kennebec County,ME,NA,NA,3.488372093023256,NA
20716,Prince George's County,MD,NA,NA,68.02325581395348,NA
20747,Prince George's County,MD,83.22981366459628,NA,NA,NA
20774,Prince George's County,MD,NA,NA,46.12403100775194,NA
20785,Prince George's County,MD,13.354037267080745,NA,NA,NA
20854,Montgomery County,MD,NA,NA,NA,36.312849162011176
21401,Anne Arundel County,MD,NA,NA,25.387596899224807,NA
21811,Worcester County,MD,61.49068322981367,NA,NA,NA
01002,Hampshire County,MA,NA,NA,NA,56.424581005586596
01089,Hampden County,MA,NA,NA,2.7131782945736433,NA
01105,Hampden County,MA,NA,NA,18.217054263565892,NA
01420,Worcester County,MA,NA,NA,49.6124031007752,NA
01468,Worcester County,MA,98.13664596273291,NA,NA,NA
01605,Worcester County,MA,NA,1.4285714285714286,NA,NA
01607,Worcester County,MA,59.62732919254658,NA,NA,NA
01749,Middlesex County,MA,NA,NA,80.81395348837209,NA
01776,Middlesex County,MA,42.54658385093168,NA,NA,NA
01821,Middlesex County,MA,30.124223602484474,NA,NA,NA
01844,Essex County,MA,NA,NA,21.124031007751938,NA
01913,Essex County,MA,NA,NA,24.612403100775193,NA
02126,Suffolk County,MA,NA,NA,NA,3.910614525139665
02149,Middlesex County,MA,NA,NA,0.1937984496124031,NA
02169,Norfolk County,MA,NA,NA,0.5813953488372093,NA
02180,Middlesex County,MA,NA,NA,NA,77.6536312849162
02301,Plymouth County,MA,NA,NA,0,NA
02341,Plymouth County,MA,NA,NA,NA,83.24022346368714
02364,Plymouth County,MA,NA,NA,54.45736434108527,NA
02474,Middlesex County,MA,NA,NA,12.4031007751938,NA
02747,Bristol County,MA,NA,61.42857142857143,NA,NA
02780,Bristol County,MA,1.8633540372670807,NA,0.3875968992248062,NA
48003,Lapeer County,MI,NA,NA,87.01550387596899,NA
48015,Macomb County,MI,40.683229813664596,80.95238095238095,NA,NA
48022,St. Clair County,MI,NA,NA,98.44961240310077,NA
48035,Macomb County,MI,NA,NA,8.333333333333332,NA
48043,Macomb County,MI,31.987577639751553,NA,NA,NA
48047,Macomb County,MI,NA,NA,45.542635658914726,NA
48075,Oakland County,MI,NA,NA,NA,34.07821229050279
48079,St. Clair County,MI,83.85093167701864,NA,NA,NA
48089,Macomb County,MI,NA,NA,6.782945736434108,NA
48103,Washtenaw County,MI,NA,NA,14.534883720930234,NA
48126,Wayne County,MI,NA,3.3333333333333335,NA,NA
48127,Wayne County,MI,18.944099378881987,NA,NA,NA
48141,Wayne County,MI,17.70186335403727,NA,NA,NA
48152,Wayne County,MI,NA,NA,NA,7.82122905027933
48164,Wayne County,MI,NA,90.47619047619048,73.83720930232558,NA
48192,Wayne County,MI,NA,NA,18.7984496124031,NA
48202,Wayne County,MI,NA,NA,29.457364341085274,NA
48204,Wayne County,MI,NA,NA,8.527131782945736,NA
48213,Wayne County,MI,66.77018633540372,NA,NA,NA
48223,Wayne County,MI,NA,43.80952380952381,NA,NA
48224,Wayne County,MI,NA,NA,NA,18.435754189944134
48228,Wayne County,MI,NA,13.80952380952381,NA,8.938547486033519
48313,Macomb County,MI,NA,46.666666666666664,NA,NA
48322,Oakland County,MI,NA,NA,NA,9.497206703910614
48375,Oakland County,MI,70.80745341614907,NA,NA,NA
48377,Oakland County,MI,NA,NA,67.44186046511628,NA
48415,Saginaw County,MI,NA,NA,50.968992248062015,NA
48423,Genesee County,MI,51.5527950310559,NA,NA,NA
48433,Genesee County,MI,NA,NA,NA,21.22905027932961
48457,Genesee County,MI,NA,85.23809523809524,NA,NA
48602,Saginaw County,MI,NA,NA,2.5193798449612403,NA
48603,Saginaw County,MI,NA,88.09523809523809,NA,NA
48622,Clare County,MI,NA,NA,NA,78.77094972067039
48650,Bay County,MI,NA,NA,81.3953488372093,NA
48706,Bay County,MI,8.385093167701864,NA,NA,NA
48809,Ionia County,MI,65.21739130434783,NA,NA,NA
48842,Ingham County,MI,NA,NA,39.922480620155035,NA
48846,Ionia County,MI,NA,NA,NA,52.513966480446925
48847,Gratiot County,MI,87.88819875776397,NA,NA,NA
48883,Isabella County,MI,NA,NA,68.9922480620155,NA
48893,Isabella County,MI,88.50931677018633,NA,NA,86.59217877094973
48910,Ingham County,MI,NA,NA,9.883720930232558,NA
49015,Calhoun County,MI,NA,NA,17.05426356589147,NA
49017,Calhoun County,MI,39.75155279503105,NA,NA,NA
49022,Berrien County,MI,NA,25.238095238095237,NA,NA
49036,Branch County,MI,29.19254658385093,NA,NA,NA
49046,Barry County,MI,NA,NA,NA,87.70949720670392
49067,Cass County,MI,92.85714285714286,NA,NA,NA
49071,Van Buren County,MI,NA,NA,NA,86.03351955307262
49083,Kalamazoo County,MI,NA,NA,84.88372093023256,89.94413407821229
49201,Jackson County,MI,NA,43.80952380952381,NA,NA
49202,Jackson County,MI,NA,NA,32.945736434108525,NA
49221,Lenawee County,MI,NA,NA,55.42635658914728,6.145251396648044
49242,Hillsdale County,MI,73.29192546583852,NA,NA,NA
49302,Kent County,MI,NA,NA,90.31007751937985,NA
49307,Mecosta County,MI,NA,NA,54.84496124031008,NA
49326,Kent County,MI,NA,95.71428571428572,NA,NA
49327,Newaygo County,MI,65.83850931677019,NA,NA,NA
49333,Barry County,MI,83.54037267080744,NA,NA,NA
49337,Newaygo County,MI,43.16770186335403,NA,NA,NA
49408,Allegan County,MI,NA,NA,78.68217054263566,NA
49412,Newaygo County,MI,NA,82.38095238095238,NA,NA
49423,Ottawa County,MI,11.801242236024844,NA,NA,NA
49444,Muskegon County,MI,NA,22.380952380952383,7.751937984496124,NA
49668,Wexford County,MI,98.75776397515527,NA,NA,NA
49686,Grand Traverse County,MI,62.732919254658384,NA,NA,NA
49707,Alpena County,MI,NA,NA,NA,19.553072625698324
49738,Crawford County,MI,NA,NA,NA,73.18435754189943
49749,Cheboygan County,MI,98.75776397515527,NA,NA,NA
49802,Dickinson County,MI,NA,NA,76.35658914728683,NA
49866,Marquette County,MI,NA,NA,NA,76.53631284916202
49931,Houghton County,MI,NA,NA,85.85271317829456,NA
49946,Baraga County,MI,96.8944099378882,NA,NA,NA
55057,Rice County,MN,55.27950310559007,NA,71.70542635658916,NA
55106,Ramsey County,MN,NA,NA,5.426356589147287,NA
55118,Dakota County,MN,33.22981366459628,NA,NA,NA
55119,Ramsey County,MN,NA,NA,44.76744186046512,NA
55303,Anoka County,MN,NA,NA,NA,35.754189944134076
55330,Sherburne County,MN,NA,NA,74.4186046511628,NA
55378,Scott County,MN,35.09316770186335,NA,NA,89.3854748603352
55429,Hennepin County,MN,NA,NA,11.24031007751938,NA
55438,Hennepin County,MN,NA,NA,90.50387596899225,NA
55446,Hennepin County,MN,NA,NA,82.75193798449612,NA
55734,St. Louis County,MN,NA,NA,NA,78.2122905027933
55744,Itasca County,MN,NA,16.666666666666664,NA,NA
55912,Mower County,MN,NA,4.761904761904762,NA,NA
55987,Winona County,MN,NA,NA,7.170542635658915,NA
56058,Le Sueur County,MN,NA,NA,88.56589147286822,NA
56470,Hubbard County,MN,NA,NA,NA,39.10614525139665
56636,Itasca County,MN,74.84472049689441,NA,NA,NA
56649,Koochiching County,MN,NA,NA,NA,63.128491620111724
38646,Quitman County,MS,NA,98.57142857142858,NA,NA
38863,Pontotoc County,MS,NA,NA,67.44186046511628,NA
38865,Alcorn County,MS,82.6086956521739,NA,NA,NA
38868,Lee County,MS,NA,NA,98.64341085271317,NA
38901,Grenada County,MS,NA,NA,59.30232558139535,NA
38965,Yalobusha County,MS,NA,NA,84.49612403100775,NA
39047,Rankin County,MS,23.60248447204969,NA,NA,NA
39074,Scott County,MS,NA,NA,39.72868217054263,NA
39157,Madison County,MS,NA,NA,68.7984496124031,NA
39211,Hinds County,MS,NA,38.57142857142858,NA,NA
39452,George County,MS,11.180124223602485,NA,NA,NA
39532,Harrison County,MS,23.91304347826087,NA,NA,NA
39564,Jackson County,MS,73.6024844720497,NA,NA,NA
39666,Pike County,MS,67.08074534161491,NA,NA,NA
63028,Jefferson County,MO,NA,NA,24.031007751937985,NA
63069,Franklin County,MO,NA,68.0952380952381,NA,NA
63089,Franklin County,MO,86.0248447204969,NA,NA,NA
63106,St. Louis city,MO,NA,NA,76.93798449612403,NA
63114,St. Louis County,MO,NA,NA,NA,32.402234636871505
63136,St. Louis County,MO,2.484472049689441,NA,NA,NA
63624,St. Francois County,MO,NA,73.80952380952381,NA,NA
63628,St. Francois County,MO,NA,NA,66.08527131782945,NA
63857,Dunklin County,MO,32.91925465838509,NA,NA,NA
63935,Ripley County,MO,NA,NA,56.007751937984494,NA
64052,Jackson County,MO,21.11801242236025,NA,8.720930232558139,NA
64060,Clay County,MO,26.08695652173913,NA,NA,NA
64067,Lafayette County,MO,86.64596273291926,NA,NA,NA
64118,Clay County,MO,NA,NA,3.875968992248062,NA
64123,Jackson County,MO,NA,47.14285714285714,NA,NA
64130,Jackson County,MO,NA,NA,5.232558139534884,NA
64131,Jackson County,MO,NA,NA,13.75968992248062,NA
64138,Jackson County,MO,20.80745341614907,NA,NA,NA
64153,Platte County,MO,NA,NA,86.62790697674419,NA
64503,Buchanan County,MO,NA,29.523809523809526,NA,NA
64683,Grundy County,MO,NA,NA,61.240310077519375,NA
64701,Cass County,MO,35.714285714285715,NA,NA,NA
64730,Bates County,MO,NA,NA,61.04651162790697,NA
64744,Cedar County,MO,NA,58.57142857142858,NA,NA
64836,Jasper County,MO,NA,40.95238095238095,NA,NA
65020,Camden County,MO,NA,NA,90.69767441860465,NA
65536,Laclede County,MO,32.608695652173914,NA,NA,NA
65606,Oregon County,MO,NA,NA,83.13953488372093,NA
65653,Taney County,MO,NA,NA,92.63565891472868,NA
65667,Wright County,MO,NA,93.80952380952381,NA,NA
59917,Lincoln County,MT,NA,NA,97.86821705426357,NA
68118,Douglas County,NE,NA,NA,95.34883720930233,NA
89103,Clark County,NV,NA,NA,NA,62.56983240223464
89121,Clark County,NV,NA,NA,62.5968992248062,NA
89123,Clark County,NV,NA,NA,54.65116279069767,NA
89139,Clark County,NV,NA,NA,77.13178294573643,NA
89142,Clark County,NV,69.56521739130434,NA,NA,NA
89178,Clark County,NV,NA,NA,NA,91.62011173184358
03054,Hillsborough County,NH,NA,NA,32.17054263565892,NA
03079,Rockingham County,NH,NA,NA,NA,17.318435754189945
03110,Hillsborough County,NH,NA,NA,59.68992248062015,NA
03458,Hillsborough County,NH,NA,NA,93.21705426356588,NA
07042,Essex County,NJ,NA,NA,NA,62.01117318435754
07065,Union County,NJ,NA,NA,23.449612403100776,NA
07080,Middlesex County,NJ,52.484472049689444,NA,NA,NA
07202,Union County,NJ,NA,0.4761904761904762,NA,NA
07305,Hudson County,NJ,NA,NA,13.178294573643413,NA
07461,Sussex County,NJ,60.55900621118012,NA,NA,NA
07463,Bergen County,NJ,NA,NA,96.31782945736434,NA
07480,Passaic County,NJ,NA,NA,59.883720930232556,NA
07501,Passaic County,NJ,NA,0,NA,NA
07728,Monmouth County,NJ,NA,NA,14.728682170542637,NA
07753,Monmouth County,NJ,22.36024844720497,NA,NA,NA
07825,Warren County,NJ,NA,NA,87.98449612403101,NA
08078,Camden County,NJ,NA,70,NA,NA
08081,Camden County,NJ,NA,NA,9.30232558139535,NA
08110,Camden County,NJ,NA,12.380952380952381,NA,NA
08332,Cumberland County,NJ,NA,NA,22.674418604651162,NA
08701,Ocean County,NJ,0,NA,NA,NA
08822,Hunterdon County,NJ,NA,NA,23.643410852713178,NA
08869,Somerset County,NJ,NA,NA,74.6124031007752,NA
08873,Somerset County,NJ,NA,NA,NA,24.022346368715084
87052,Sandoval County,NM,NA,45.23809523809524,NA,NA
87102,Bernalillo County,NM,NA,56.19047619047619,NA,NA
87121,Bernalillo County,NM,NA,NA,NA,7.262569832402235
87506,Santa Fe County,NM,NA,50.95238095238095,NA,NA
87532,Santa Fe County,NM,NA,NA,40.89147286821706,NA
88001,Doa Ana County,NM,37.267080745341616,NA,NA,NA
88011,Doa Ana County,NM,NA,73.80952380952381,NA,NA
88063,Doa Ana County,NM,77.01863354037268,NA,NA,NA
88203,Chaves County,NM,20.496894409937887,NA,NA,NA
88220,Eddy County,NM,NA,NA,NA,22.905027932960895
10009,New York County,NY,NA,NA,NA,5.027932960893855
10032,New York County,NY,NA,4.285714285714286,NA,NA
10701,Westchester County,NY,NA,NA,1.3565891472868217,NA
10703,Westchester County,NY,NA,18.571428571428573,NA,NA
10801,Westchester County,NY,NA,NA,31.976744186046513,NA
11030,Nassau County,NY,NA,NA,NA,91.06145251396647
11207,Kings County,NY,0.9316770186335404,NA,0.7751937984496124,NA
11208,Kings County,NY,NA,NA,0.9689922480620154,NA
11377,Queens County,NY,NA,9.523809523809524,NA,NA
11590,Nassau County,NY,NA,NA,NA,32.960893854748605
11716,Suffolk County,NY,NA,NA,NA,95.53072625698324
11784,Suffolk County,NY,NA,75.71428571428571,NA,NA
12118,Saratoga County,NY,NA,NA,84.30232558139535,NA
12550,Orange County,NY,NA,NA,31.007751937984494,NA
12839,Washington County,NY,NA,NA,26.550387596899228,NA
13027,Onondaga County,NY,NA,NA,12.790697674418606,NA
13035,Madison County,NY,NA,NA,NA,77.09497206703911
13053,Tompkins County,NY,NA,NA,80.62015503875969,NA
13069,Oswego County,NY,NA,NA,24.224806201550386,NA
13126,Oswego County,NY,NA,NA,20.348837209302324,NA
13131,Oswego County,NY,NA,NA,88.95348837209302,NA
13207,Onondaga County,NY,NA,NA,29.844961240310074,NA
13208,Onondaga County,NY,NA,NA,10.271317829457365,NA
13212,Onondaga County,NY,NA,NA,30.03875968992248,NA
13316,Oneida County,NY,NA,NA,65.89147286821705,NA
13326,Otsego County,NY,NA,NA,72.86821705426357,NA
13329,Herkimer County,NY,NA,NA,79.65116279069767,NA
13413,Oneida County,NY,NA,NA,50.1937984496124,NA
13439,Otsego County,NY,NA,NA,93.7984496124031,NA
13676,St. Lawrence County,NY,NA,NA,31.589147286821706,NA
13730,Chenango County,NY,NA,NA,91.47286821705426,NA
13733,Chenango County,NY,NA,NA,70.73643410852713,NA
13754,Broome County,NY,NA,NA,72.67441860465115,NA
13760,Broome County,NY,NA,NA,NA,0.5586592178770949
13778,Chenango County,NY,NA,NA,65.69767441860465,NA
13815,Chenango County,NY,NA,NA,13.565891472868216,NA
13820,Otsego County,NY,NA,NA,7.945736434108527,NA
13827,Tioga County,NY,31.366459627329192,NA,NA,NA
14011,Wyoming County,NY,64.90683229813664,NA,NA,NA
14052,Erie County,NY,NA,NA,NA,85.47486033519553
14063,Chautauqua County,NY,NA,NA,43.41085271317829,NA
14075,Erie County,NY,NA,NA,7.3643410852713185,NA
14174,Niagara County,NY,NA,NA,NA,81.00558659217877
14206,Erie County,NY,43.7888198757764,NA,NA,NA
14208,Erie County,NY,NA,NA,28.100775193798448,NA
14211,Erie County,NY,4.658385093167702,NA,NA,NA
14217,Erie County,NY,56.52173913043478,NA,NA,NA
14219,Erie County,NY,NA,NA,53.875968992248055,NA
14424,Ontario County,NY,NA,NA,1.744186046511628,12.849162011173185
14433,Wayne County,NY,NA,NA,60.65891472868217,NA
14437,Livingston County,NY,NA,65.71428571428571,NA,NA
14456,Ontario County,NY,NA,NA,6.2015503875969,NA
14470,Orleans County,NY,NA,NA,48.25581395348838,NA
14487,Livingston County,NY,NA,NA,77.71317829457365,NA
14502,Wayne County,NY,25.77639751552795,NA,NA,NA
14548,Ontario County,NY,NA,NA,66.47286821705426,NA
14580,Monroe County,NY,NA,NA,NA,0
14606,Monroe County,NY,8.385093167701864,NA,NA,NA
14610,Monroe County,NY,NA,NA,NA,26.81564245810056
14615,Monroe County,NY,NA,42.857142857142854,NA,NA
14617,Monroe County,NY,NA,NA,NA,4.4692737430167595
14624,Monroe County,NY,3.4161490683229814,NA,NA,NA
14626,Monroe County,NY,NA,NA,1.937984496124031,NA
14701,Chautauqua County,NY,NA,23.333333333333332,NA,NA
14712,Chautauqua County,NY,98.4472049689441,NA,NA,NA
14810,Steuben County,NY,NA,NA,31.3953488372093,NA
14818,Schuyler County,NY,97.82608695652173,NA,NA,NA
14850,Tompkins County,NY,12.422360248447205,NA,3.2945736434108532,NA
14865,Schuyler County,NY,89.75155279503106,NA,NA,NA
14892,Tioga County,NY,73.6024844720497,NA,78.68217054263566,NA
14895,Allegany County,NY,NA,NA,27.906976744186046,NA
14904,Chemung County,NY,NA,NA,26.744186046511626,NA
27021,Stokes County,NC,NA,NA,NA,34.63687150837989
27052,Stokes County,NC,NA,88.57142857142857,NA,NA
27215,Alamance County,NC,NA,NA,8.13953488372093,NA
27253,Alamance County,NC,NA,54.761904761904766,NA,NA
27260,Guilford County,NC,NA,38.095238095238095,NA,NA
27262,Guilford County,NC,NA,NA,43.02325581395349,NA
27284,Forsyth County,NC,37.577639751552795,NA,NA,NA
27295,Davidson County,NC,NA,NA,20.73643410852713,NA
27332,Lee County,NC,78.88198757763976,NA,NA,NA
27408,Guilford County,NC,NA,NA,94.76744186046511,NA
27537,Vance County,NC,NA,NA,37.01550387596899,NA
27583,Person County,NC,74.53416149068323,NA,NA,NA
27616,Wake County,NC,11.180124223602485,NA,NA,NA
27701,Durham County,NC,NA,33.80952380952381,NA,NA
27831,Northampton County,NC,NA,96.66666666666667,NA,NA
27870,Halifax County,NC,NA,33.33333333333333,NA,NA
27889,Beaufort County,NC,NA,48.57142857142857,NA,NA
28034,Gaston County,NC,NA,NA,45.93023255813954,NA
28054,Gaston County,NC,NA,NA,19.961240310077518,NA
28081,Cabarrus County,NC,41.30434782608695,NA,NA,NA
28112,Union County,NC,48.75776397515528,NA,NA,NA
28115,Iredell County,NC,NA,NA,21.899224806201552,NA
28139,Rutherford County,NC,NA,NA,NA,64.24581005586593
28152,Cleveland County,NC,NA,36.666666666666664,NA,NA
28173,Union County,NC,NA,NA,72.28682170542635,NA
28209,Mecklenburg County,NC,NA,NA,NA,72.62569832402235
28269,Mecklenburg County,NC,NA,NA,12.209302325581394,NA
28270,Mecklenburg County,NC,36.95652173913043,NA,NA,NA
28358,Robeson County,NC,NA,NA,16.27906976744186,NA
28384,Bladen County,NC,NA,NA,63.17829457364341,NA
28387,Moore County,NC,NA,NA,76.74418604651163,NA
28398,Duplin County,NC,NA,74.76190476190476,NA,NA
28470,Brunswick County,NC,NA,NA,71.89922480620154,NA
28501,Lenoir County,NC,NA,NA,45.348837209302324,NA
28512,Carteret County,NC,NA,NA,99.2248062015504,NA
28586,Craven County,NC,90.37267080745342,NA,NA,NA
28630,Caldwell County,NC,NA,NA,32.55813953488372,NA
28650,Catawba County,NC,NA,NA,66.86046511627907,NA
28677,Iredell County,NC,NA,35.23809523809524,NA,NA
28681,Alexander County,NC,NA,NA,NA,41.899441340782126
28719,Jackson County,NC,45.03105590062112,NA,NA,NA
28778,Buncombe County,NC,NA,NA,NA,93.29608938547486
28779,Jackson County,NC,NA,NA,58.52713178294574,NA
28787,Buncombe County,NC,NA,NA,68.4108527131783,NA
28789,Jackson County,NC,96.8944099378882,NA,NA,NA
28791,Henderson County,NC,NA,NA,78.29457364341084,29.05027932960894
28792,Henderson County,NC,NA,NA,30.620155038759687,NA
28801,Buncombe County,NC,NA,90.47619047619048,NA,NA
28803,Buncombe County,NC,NA,68.57142857142857,NA,NA
58329,Rolette County,ND,NA,66.66666666666666,NA,NA
43015,Delaware County,OH,NA,NA,14.147286821705427,NA
43017,Franklin County,OH,NA,NA,NA,37.988826815642454
43035,Delaware County,OH,NA,NA,73.64341085271317,NA
43055,Licking County,OH,NA,NA,NA,1.1173184357541899
43056,Licking County,OH,36.64596273291926,NA,NA,NA
43062,Licking County,OH,NA,NA,69.37984496124031,NA
43082,Delaware County,OH,NA,NA,62.7906976744186,NA
43130,Fairfield County,OH,2.1739130434782608,NA,NA,NA
43138,Hocking County,OH,NA,14.761904761904763,NA,NA
43143,Madison County,OH,71.73913043478261,NA,NA,NA
43351,Wyandot County,OH,NA,NA,NA,54.18994413407822
43518,Williams County,OH,95.96273291925466,NA,NA,NA
43528,Lucas County,OH,NA,66.66666666666666,NA,NA
43571,Lucas County,OH,NA,NA,85.65891472868216,NA
43609,Lucas County,OH,NA,18.095238095238095,3.10077519379845,NA
43616,Lucas County,OH,NA,NA,11.821705426356589,NA
43701,Muskingum County,OH,NA,2.857142857142857,16.666666666666664,NA
43713,Belmont County,OH,NA,58.57142857142858,NA,NA
43718,Belmont County,OH,88.81987577639751,NA,NA,NA
43812,Coshocton County,OH,15.217391304347828,NA,4.069767441860465,NA
43830,Muskingum County,OH,85.09316770186336,NA,NA,NA
43912,Belmont County,OH,NA,NA,55.62015503875969,NA
43920,Columbiana County,OH,NA,NA,NA,12.290502793296088
44004,Ashtabula County,OH,NA,5.714285714285714,NA,NA
44039,Lorain County,OH,38.19875776397515,NA,NA,NA
44044,Lorain County,OH,NA,NA,50.3875968992248,NA
44047,Ashtabula County,OH,NA,49.047619047619044,NA,NA
44056,Summit County,OH,NA,NA,NA,60.893854748603346
44057,Lake County,OH,40.993788819875775,NA,NA,16.75977653631285
44062,Geauga County,OH,NA,NA,90.69767441860465,NA
44067,Summit County,OH,NA,NA,NA,56.98324022346368
44095,Lake County,OH,NA,16.19047619047619,NA,NA
44103,Cuyahoga County,OH,NA,NA,34.30232558139535,NA
44110,Cuyahoga County,OH,10.559006211180124,NA,NA,NA
44116,Cuyahoga County,OH,NA,NA,NA,29.608938547486037
44121,Cuyahoga County,OH,NA,21.428571428571427,NA,NA
44131,Cuyahoga County,OH,NA,NA,44.57364341085272,NA
44221,Summit County,OH,34.47204968944099,NA,NA,NA
44272,Portage County,OH,90.6832298136646,NA,NA,NA
44287,Wayne County,OH,NA,69.52380952380952,NA,NA
44310,Summit County,OH,NA,NA,8.914728682170542,NA
44319,Summit County,OH,NA,NA,52.51937984496124,NA
44417,Trumbull County,OH,98.75776397515527,NA,NA,NA
44425,Trumbull County,OH,NA,NA,30.426356589147286,NA
44445,Columbiana County,OH,NA,99.52380952380952,NA,98.88268156424581
44471,Mahoning County,OH,NA,NA,56.58914728682171,NA
44481,Trumbull County,OH,NA,NA,25.968992248062015,NA
44483,Trumbull County,OH,NA,NA,15.891472868217054,NA
44601,Stark County,OH,NA,NA,5.813953488372093,NA
44646,Stark County,OH,NA,NA,35.46511627906977,NA
44691,Wayne County,OH,21.73913043478261,NA,NA,NA
44813,Richland County,OH,NA,NA,77.90697674418605,NA
44827,Crawford County,OH,NA,61.904761904761905,NA,NA
45030,Hamilton County,OH,54.96894409937888,NA,NA,NA
45044,Butler County,OH,1.5527950310559007,NA,NA,NA
45069,Butler County,OH,NA,26.666666666666668,NA,NA
45133,Highland County,OH,NA,NA,21.31782945736434,NA
45211,Hamilton County,OH,13.975155279503104,NA,NA,NA
45322,Montgomery County,OH,NA,NA,41.27906976744186,NA
45381,Preble County,OH,90.06211180124224,NA,NA,NA
45385,Greene County,OH,NA,20.952380952380953,NA,NA
45439,Montgomery County,OH,NA,50,NA,NA
45506,Clark County,OH,NA,48.095238095238095,NA,NA
45619,Lawrence County,OH,NA,NA,NA,60.33519553072626
45629,Scioto County,OH,NA,NA,82.36434108527132,NA
45656,Jackson County,OH,63.35403726708074,NA,NA,NA
45662,Scioto County,OH,2.7950310559006213,3.8095238095238098,NA,NA
45701,Athens County,OH,NA,NA,64.14728682170544,NA
45723,Athens County,OH,84.78260869565217,NA,NA,NA
45742,Washington County,OH,NA,NA,89.92248062015504,NA
45750,Washington County,OH,24.84472049689441,NA,NA,NA
73020,Oklahoma County,OK,NA,NA,NA,27.37430167597765
73030,Murray County,OK,65.527950310559,NA,NA,NA
73047,,OK,92.85714285714286,NA,NA,NA
73072,Cleveland County,OK,NA,NA,63.372093023255815,NA
73078,Canadian County,OK,NA,NA,92.63565891472868,NA
73109,Oklahoma County,OK,6.521739130434782,NA,NA,NA
73119,Oklahoma County,OK,NA,NA,22.868217054263564,NA
73170,Cleveland County,OK,NA,NA,31.2015503875969,NA
74023,Payne County,OK,NA,88.57142857142857,NA,NA
74115,Tulsa County,OK,NA,NA,41.66666666666667,NA
74354,Ottawa County,OK,63.04347826086957,NA,NA,NA
74361,Mayes County,OK,69.87577639751554,NA,NA,NA
74432,McIntosh County,OK,NA,NA,82.17054263565892,NA
74467,Wagoner County,OK,80.12422360248446,NA,NA,NA
74801,Pottawatomie County,OK,NA,NA,39.34108527131783,NA
75072,NA,NA,63.975155279503106,NA,NA,NA
74820,Pontotoc County,OK,NA,NA,6.976744186046512,NA
74851,Pottawatomie County,OK,95.03105590062113,NA,NA,NA
74859,Okfuskee County,OK,77.63975155279503,NA,NA,NA
74955,Sequoyah County,OK,NA,NA,NA,58.659217877094974
74960,Adair County,OK,24.53416149068323,NA,NA,NA
74962,Sequoyah County,OK,NA,NA,95.73643410852713,NA
97016,Columbia County,OR,NA,86.66666666666667,NA,NA
97055,Clackamas County,OR,78.57142857142857,NA,NA,NA
97128,Yamhill County,OR,NA,NA,19.379844961240313,NA
97138,Clatsop County,OR,NA,NA,61.434108527131784,NA
97221,Multnomah County,OR,87.88819875776397,NA,NA,NA
97381,Marion County,OR,NA,NA,82.94573643410853,NA
97402,Lane County,OR,NA,NA,20.930232558139537,NA
97443,Douglas County,OR,NA,100,NA,NA
97478,Lane County,OR,NA,65.23809523809524,NA,NA
97496,Douglas County,OR,77.01863354037268,NA,NA,NA
97818,Morrow County,OR,NA,NA,87.40310077519379,NA
15010,Beaver County,PA,NA,53.80952380952381,NA,28.49162011173184
15068,Westmoreland County,PA,NA,NA,NA,11.731843575418994
15132,Allegheny County,PA,8.074534161490684,NA,NA,NA
15370,Greene County,PA,NA,NA,52.90697674418605,NA
15425,Fayette County,PA,42.2360248447205,NA,NA,NA
15644,Westmoreland County,PA,NA,NA,NA,35.19553072625698
15670,Westmoreland County,PA,NA,NA,98.25581395348837,NA
15714,Cambria County,PA,92.85714285714286,NA,NA,NA
15717,Indiana County,PA,NA,NA,NA,44.6927374301676
16001,Butler County,PA,NA,NA,19.57364341085271,NA
16063,Butler County,PA,NA,NA,NA,94.97206703910615
16066,Butler County,PA,NA,NA,NA,41.340782122905026
16335,Crawford County,PA,NA,NA,9.108527131782946,NA
16505,Erie County,PA,NA,87.14285714285714,NA,NA
16686,Blair County,PA,NA,60.476190476190474,NA,NA
16743,McKean County,PA,NA,97.61904761904762,NA,NA
17022,Lancaster County,PA,NA,NA,17.441860465116278,NA
17050,Cumberland County,PA,NA,NA,23.06201550387597,NA
17756,Lycoming County,PA,NA,70,NA,NA
17872,Northumberland County,PA,NA,NA,42.63565891472868,NA
17948,Schuylkill County,PA,NA,84.76190476190476,NA,NA
17976,Schuylkill County,PA,NA,80.95238095238095,NA,NA
18042,Northampton County,PA,NA,NA,NA,5.58659217877095
18103,Lehigh County,PA,NA,NA,NA,6.70391061452514
18706,Luzerne County,PA,NA,NA,40.69767441860465,NA
19013,Delaware County,PA,NA,31.9047619047619,NA,NA
19015,Delaware County,PA,NA,NA,71.12403100775194,NA
19061,Delaware County,PA,30.434782608695656,NA,NA,NA
19104,Philadelphia County,PA,NA,NA,40.116279069767444,NA
19120,Philadelphia County,PA,NA,NA,2.131782945736434,NA
19133,Philadelphia County,PA,NA,NA,15.11627906976744,NA
19150,Philadelphia County,PA,NA,NA,31.589147286821706,NA
19333,Chester County,PA,NA,NA,NA,93.85474860335195
19539,Berks County,PA,NA,NA,97.48062015503875,NA
02889,Kent County,RI,25.15527950310559,NA,NA,NA
29341,Cherokee County,SC,NA,NA,48.643410852713174,NA
29349,Spartanburg County,SC,NA,NA,60.85271317829457,NA
29406,Charleston County,SC,NA,17.142857142857142,NA,NA
29464,Charleston County,SC,54.347826086956516,NA,NA,22.3463687150838
29488,Colleton County,SC,NA,NA,35.85271317829458,NA
29492,Berkeley County,SC,NA,NA,87.79069767441861,NA
29512,Marlboro County,SC,NA,NA,57.36434108527132,NA
29526,Horry County,SC,NA,NA,39.53488372093023,NA
29527,Horry County,SC,NA,NA,NA,49.72067039106145
29568,Horry County,SC,NA,NA,NA,67.0391061452514
29569,Horry County,SC,NA,41.904761904761905,NA,NA
29577,Horry County,SC,NA,NA,64.92248062015504,NA
29609,Greenville County,SC,NA,72.85714285714285,NA,NA
29611,Greenville County,SC,NA,NA,11.434108527131782,NA
29650,Greenville County,SC,39.75155279503105,NA,NA,NA
29706,Chester County,SC,NA,NA,34.10852713178294,NA
57103,Minnehaha County,SD,NA,NA,NA,2.793296089385475
57401,Brown County,SD,6.521739130434782,NA,NA,NA
57770,Shannon County,SD,74.22360248447205,NA,NA,NA
57772,Shannon County,SD,NA,NA,99.4186046511628,NA
37022,Sumner County,TN,NA,NA,86.24031007751938,NA
37025,Hickman County,TN,NA,NA,85.07751937984496,NA
37033,Hickman County,TN,NA,NA,88.37209302325581,NA
37076,Davidson County,TN,NA,NA,36.434108527131784,NA
37087,Wilson County,TN,NA,NA,17.829457364341085,NA
37115,Davidson County,TN,18.32298136645963,NA,9.496124031007753,NA
37166,DeKalb County,TN,NA,NA,60.27131782945736,NA
37167,Rutherford County,TN,NA,NA,26.16279069767442,NA
37323,Bradley County,TN,NA,51.42857142857142,NA,NA
37327,Sequatchie County,TN,NA,NA,74.03100775193798,NA
37347,Marion County,TN,NA,NA,78.29457364341084,NA
37355,Coffee County,TN,NA,NA,35.27131782945737,53.072625698324025
37363,Hamilton County,TN,NA,NA,73.44961240310077,NA
37385,Monroe County,TN,76.3975155279503,NA,NA,NA
37397,Marion County,TN,NA,NA,83.33333333333334,NA
37412,Hamilton County,TN,NA,NA,54.263565891472865,NA
37643,Carter County,TN,NA,NA,10.852713178294573,NA
37660,Sullivan County,TN,NA,NA,NA,10.614525139664805
37663,Sullivan County,TN,NA,NA,NA,65.92178770949721
37687,Carter County,TN,94.09937888198758,NA,NA,NA
37748,Roane County,TN,NA,NA,34.49612403100775,NA
37764,Sevier County,TN,NA,NA,75.3875968992248,NA
37766,Campbell County,TN,NA,NA,36.82170542635659,NA
37771,Loudon County,TN,NA,NA,56.58914728682171,NA
37774,Loudon County,TN,NA,NA,47.674418604651166,NA
37861,Grainger County,TN,NA,NA,79.26356589147287,NA
37914,Knox County,TN,NA,NA,38.17829457364341,NA
37920,Knox County,TN,28.26086956521739,NA,NA,NA
38004,Tipton County,TN,NA,NA,NA,96.64804469273743
38008,Hardeman County,TN,NA,NA,75,NA
38016,Shelby County,TN,NA,NA,53.48837209302325,NA
38109,Shelby County,TN,3.7267080745341614,8.095238095238095,NA,NA
38112,Shelby County,TN,NA,56.666666666666664,65.50387596899225,NA
38116,Shelby County,TN,9.937888198757763,NA,NA,NA
38119,Shelby County,TN,NA,NA,79.06976744186046,NA
38126,Shelby County,TN,NA,76.19047619047619,NA,NA
38261,Obion County,TN,NA,NA,40.89147286821706,NA
38301,Madison County,TN,NA,NA,NA,15.64245810055866
38469,Lawrence County,TN,NA,NA,94.57364341085271,NA
38501,Putnam County,TN,27.32919254658385,NA,NA,NA
75013,Collin County,TX,NA,NA,50.775193798449614,NA
75025,Collin County,TX,NA,NA,58.139534883720934,NA
75032,Rockwall County,TX,NA,NA,62.2093023255814,NA
75035,Collin County,TX,NA,NA,40.310077519379846,NA
75038,Dallas County,TX,NA,NA,62.7906976744186,NA
75041,Dallas County,TX,46.58385093167702,NA,NA,NA
75048,Dallas County,TX,NA,NA,NA,63.687150837988824
75057,Denton County,TX,81.05590062111801,NA,NA,NA
75070,Collin County,TX,NA,NA,15.503875968992247,NA
75087,Rockwall County,TX,NA,NA,44.18604651162791,NA
75089,Dallas County,TX,61.18012422360248,NA,NA,NA
75110,Navarro County,TX,NA,22.857142857142858,NA,NA
75116,Dallas County,TX,70.1863354037267,NA,NA,NA
75407,Collin County,TX,NA,NA,65.11627906976744,NA
75418,Fannin County,TX,NA,NA,66.66666666666666,NA
75494,Wood County,TX,NA,70.95238095238095,NA,NA
75644,Upshur County,TX,78.26086956521739,NA,NA,NA
75645,Upshur County,TX,NA,63.33333333333333,NA,NA
75840,Freestone County,TX,44.099378881987576,94.76190476190476,NA,NA
75860,Freestone County,TX,NA,NA,88.75968992248062,NA
75961,Nacogdoches County,TX,40.37267080745342,NA,NA,NA
75979,Tyler County,TX,NA,83.33333333333334,NA,NA
76006,Tarrant County,TX,50.621118012422365,NA,NA,NA
76009,Johnson County,TX,NA,46.19047619047619,NA,NA
76021,Tarrant County,TX,NA,NA,34.883720930232556,NA
76028,Johnson County,TX,10.869565217391305,NA,NA,NA
76033,Johnson County,TX,36.024844720496894,NA,NA,NA
76048,Hood County,TX,NA,90,NA,NA
76059,Johnson County,TX,NA,NA,NA,100
76082,Parker County,TX,NA,NA,58.333333333333336,NA
76087,Parker County,TX,NA,NA,87.20930232558139,NA
76112,Tarrant County,TX,NA,NA,13.372093023255813,NA
76119,Tarrant County,TX,NA,5.238095238095238,NA,NA
76126,Tarrant County,TX,50,NA,NA,NA
76179,Tarrant County,TX,16.459627329192546,NA,NA,NA
76209,Denton County,TX,82.29813664596274,NA,NA,NA
76272,Cooke County,TX,92.2360248447205,NA,NA,NA
76273,Grayson County,TX,NA,NA,NA,74.86033519553072
76401,Erath County,TX,58.38509316770186,NA,NA,NA
76522,Coryell County,TX,13.664596273291925,NA,NA,NA
76542,Bell County,TX,18.012422360248447,NA,NA,NA
76543,Bell County,TX,NA,NA,27.131782945736433,NA
76567,Milam County,TX,NA,NA,85.07751937984496,NA
76574,Williamson County,TX,NA,57.61904761904761,51.93798449612403,NA
76712,McLennan County,TX,NA,NA,NA,42.45810055865922
77011,Harris County,TX,NA,NA,82.55813953488372,NA
77034,Harris County,TX,67.70186335403726,NA,NA,NA
77037,Harris County,TX,NA,NA,89.34108527131784,NA
77062,Harris County,TX,NA,NA,61.82170542635659,NA
77063,Harris County,TX,NA,NA,68.21705426356588,75.41899441340783
77065,Harris County,TX,38.50931677018634,NA,NA,NA
77088,Harris County,TX,26.08695652173913,NA,NA,NA
77095,Harris County,TX,22.049689440993788,47.61904761904761,NA,NA
77318,Montgomery County,TX,NA,NA,80.03875968992247,NA
77320,Walker County,TX,47.82608695652174,NA,NA,NA
77340,Walker County,TX,77.95031055900621,NA,NA,NA
77355,Montgomery County,TX,53.72670807453416,NA,NA,NA
77365,Montgomery County,TX,NA,NA,52.32558139534884,NA
77377,Harris County,TX,NA,85.71428571428571,NA,NA
77379,Harris County,TX,13.043478260869565,NA,24.612403100775193,NA
77388,Harris County,TX,NA,NA,NA,36.87150837988827
77396,Harris County,TX,NA,34.285714285714285,NA,NA
77429,Harris County,TX,NA,NA,9.689922480620156,NA
77461,Fort Bend County,TX,NA,NA,NA,96.08938547486034
77479,Fort Bend County,TX,NA,NA,29.069767441860467,NA
77494,Fort Bend County,TX,NA,NA,17.635658914728683,NA
77503,Harris County,TX,60.86956521739131,NA,NA,NA
77515,Brazoria County,TX,59.006211180124225,NA,NA,NA
77518,Galveston County,TX,NA,NA,89.72868217054264,NA
77520,Harris County,TX,NA,NA,45.73643410852713,NA
77532,Harris County,TX,NA,NA,43.41085271317829,NA
77554,Galveston County,TX,NA,NA,91.27906976744185,NA
77571,Harris County,TX,NA,NA,27.51937984496124,NA
77584,Brazoria County,TX,17.391304347826086,NA,NA,NA
77590,Galveston County,TX,12.732919254658384,NA,NA,NA
77807,Brazos County,TX,66.14906832298136,NA,NA,NA
77808,Brazos County,TX,61.80124223602485,NA,NA,NA
77868,Grimes County,TX,47.82608695652174,NA,NA,NA
77954,DeWitt County,TX,68.94409937888199,NA,NA,NA
77957,Jackson County,TX,NA,NA,89.14728682170544,NA
77984,Lavaca County,TX,NA,NA,NA,92.17877094972067
77995,Lavaca County,TX,85.40372670807453,NA,NA,NA
78002,Bexar County,TX,NA,77.14285714285715,NA,NA
78017,Frio County,TX,100,NA,NA,NA
78023,Bexar County,TX,62.422360248447205,NA,NA,NA
78046,Webb County,TX,NA,NA,15.310077519379844,NA
78064,Atascosa County,TX,96.58385093167702,NA,NA,84.35754189944134
78102,Bee County,TX,NA,37.142857142857146,NA,NA
78152,Bexar County,TX,NA,NA,99.8062015503876,NA
78209,Bexar County,TX,57.453416149068325,NA,NA,NA
78213,Bexar County,TX,NA,13.333333333333334,NA,NA
78222,Bexar County,TX,NA,79.04761904761905,NA,NA
78223,Bexar County,TX,NA,14.761904761904763,NA,NA
78225,Bexar County,TX,NA,NA,88.17829457364341,NA
78226,Bexar County,TX,78.88198757763976,NA,NA,NA
78227,Bexar County,TX,10.248447204968944,NA,NA,NA
78239,Bexar County,TX,NA,NA,NA,71.50837988826815
78250,Bexar County,TX,14.906832298136646,NA,NA,NA
78254,Bexar County,TX,NA,NA,47.86821705426357,NA
78368,San Patricio County,TX,NA,NA,86.82170542635659,NA
78372,Jim Wells County,TX,91.61490683229813,NA,93.9922480620155,NA
78384,Duval County,TX,84.472049689441,NA,NA,NA
78414,Nueces County,TX,NA,NA,62.4031007751938,NA
78418,Nueces County,TX,58.69565217391305,NA,NA,NA
78516,Hidalgo County,TX,NA,31.9047619047619,63.95348837209303,NA
78552,Cameron County,TX,NA,NA,70.54263565891473,NA
78572,Hidalgo County,TX,50.931677018633536,NA,NA,NA
78580,Willacy County,TX,39.130434782608695,NA,NA,NA
78602,Bastrop County,TX,NA,NA,NA,67.59776536312849
78621,Bastrop County,TX,NA,NA,NA,69.83240223463687
78629,Gonzales County,TX,70.4968944099379,NA,NA,NA
78640,Hays County,TX,7.142857142857142,NA,NA,NA
78654,Burnet County,TX,NA,56.666666666666664,NA,NA
78664,Williamson County,TX,41.30434782608695,NA,NA,NA
78665,Williamson County,TX,NA,NA,NA,30.16759776536313
78666,Hays County,TX,17.080745341614907,NA,NA,NA
78704,Travis County,TX,NA,NA,69.96124031007753,NA
78753,Travis County,TX,4.3478260869565215,NA,NA,NA
78759,Travis County,TX,47.20496894409938,NA,NA,NA
78852,Maverick County,TX,30.745341614906835,NA,NA,NA
79323,Yoakum County,TX,55.27950310559007,NA,NA,NA
79336,Hockley County,TX,NA,84.28571428571429,NA,NA
79424,Lubbock County,TX,NA,40,NA,NA
79549,Scurry County,TX,47.51552795031056,NA,NA,NA
79601,Taylor County,TX,86.33540372670807,NA,NA,NA
79602,Taylor County,TX,42.54658385093168,NA,60.46511627906976,NA
79606,Taylor County,TX,NA,NA,64.14728682170544,NA
79706,Midland County,TX,NA,NA,NA,68.15642458100558
79762,Ector County,TX,16.149068322981368,NA,NA,NA
79763,Ector County,TX,NA,30,NA,NA
79936,El Paso County,TX,14.596273291925465,NA,NA,NA
84037,Davis County,UT,NA,NA,70.34883720930233,NA
84043,Utah County,UT,19.25465838509317,NA,NA,NA
84103,Salt Lake County,UT,NA,NA,67.82945736434108,NA
84738,Washington County,UT,NA,NA,NA,82.68156424581005
84790,Washington County,UT,NA,NA,NA,15.083798882681565
20110,Manassas city,VA,NA,NA,36.627906976744185,NA
22102,Fairfax County,VA,NA,NA,75.96899224806202,NA
22408,Spotsylvania County,VA,NA,NA,67.05426356589147,NA
22520,Westmoreland County,VA,87.5776397515528,NA,NA,NA
22572,Richmond County,VA,NA,NA,99.6124031007752,NA
22980,Waynesboro city,VA,NA,39.04761904761905,NA,NA
23225,Richmond city,VA,18.633540372670808,NA,NA,NA
23321,Chesapeake city,VA,NA,62.857142857142854,NA,NA
23430,Isle of Wight County,VA,NA,62.38095238095238,NA,NA
23456,Virginia Beach city,VA,NA,NA,59.496124031007746,NA
23502,Norfolk city,VA,66.14906832298136,NA,NA,NA
23701,Portsmouth city,VA,NA,NA,50,NA
23860,Hopewell city,VA,NA,28.57142857142857,NA,NA
24124,Giles County,VA,71.11801242236024,NA,NA,NA
24210,Washington County,VA,75.77639751552795,NA,NA,NA
24230,Wise County,VA,NA,NA,48.06201550387597,NA
24440,Augusta County,VA,NA,NA,97.09302325581395,NA
24637,Tazewell County,VA,NA,NA,93.6046511627907,NA
98008,King County,WA,NA,83.33333333333334,NA,NA
98042,King County,WA,NA,NA,NA,13.966480446927374
98108,King County,WA,NA,NA,74.2248062015504,NA
98126,King County,WA,NA,NA,83.91472868217055,NA
98233,Skagit County,WA,NA,NA,81.78294573643412,NA
98338,Pierce County,WA,67.3913043478261,NA,NA,NA
98503,Thurston County,WA,57.7639751552795,NA,NA,NA
98902,Yakima County,WA,NA,30,NA,NA
98944,Yakima County,WA,NA,NA,59.883720930232556,NA
99004,Spokane County,WA,NA,NA,92.05426356589147,NA
99337,Benton County,WA,NA,53.333333333333336,NA,NA
99362,Walla Walla County,WA,NA,NA,25.775193798449614,NA
20008,District of Columbia,DC,NA,NA,81.97674418604652,NA
24701,Mercer County,WV,NA,NA,28.488372093023255,NA
24739,Mercer County,WV,NA,65.71428571428571,NA,NA
24801,McDowell County,WV,NA,NA,96.12403100775194,NA
25276,Roane County,WV,NA,78.0952380952381,NA,NA
25313,Kanawha County,WV,NA,NA,NA,53.63128491620112
25705,Cabell County,WV,41.30434782608695,NA,18.6046511627907,NA
25918,Raleigh County,WV,97.51552795031056,NA,NA,NA
26041,Marshall County,WV,52.17391304347826,NA,48.25581395348838,NA
26101,Wood County,WV,NA,28.095238095238095,NA,NA
26288,Webster County,WV,NA,79.52380952380952,NA,NA
53050,Dodge County,WI,NA,NA,93.02325581395348,NA
53094,Jefferson County,WI,NA,NA,44.37984496124031,NA
53147,Walworth County,WI,NA,NA,46.51162790697674,NA
53150,Waukesha County,WI,34.161490683229815,NA,NA,NA
53158,Kenosha County,WI,NA,NA,21.511627906976745,NA
53182,Racine County,WI,50.931677018633536,NA,NA,NA
53186,Waukesha County,WI,NA,74.76190476190476,NA,NA
53190,Walworth County,WI,NA,91.9047619047619,NA,NA
53209,Milwaukee County,WI,NA,NA,NA,1.675977653631285
53210,Milwaukee County,WI,NA,NA,6.5891472868217065,NA
53215,Milwaukee County,WI,NA,NA,2.9069767441860463,NA
53216,Milwaukee County,WI,NA,NA,4.844961240310078,NA
53219,Milwaukee County,WI,NA,NA,18.023255813953487,NA
53511,Rock County,WI,NA,NA,6.007751937984496,NA
53549,Jefferson County,WI,NA,NA,NA,84.91620111731844
53589,Dane County,WI,NA,NA,76.55038759689923,NA
53818,Grant County,WI,NA,NA,78.10077519379846,NA
53916,Dodge County,WI,NA,NA,NA,79.88826815642457
53919,Fond du Lac County,WI,NA,NA,100,NA
54001,Polk County,WI,NA,NA,NA,59.77653631284916
54155,Brown County,WI,NA,NA,92.44186046511628,NA
54166,Shawano County,WI,NA,NA,71.31782945736434,NA
54494,Wood County,WI,NA,NA,29.651162790697676,8.379888268156424
54812,Barron County,WI,NA,NA,89.53488372093024,NA
54915,Outagamie County,WI,NA,NA,36.04651162790697,NA
54937,Fond du Lac County,WI,NA,NA,NA,54.7486033519553
82501,Fremont County,WY,NA,NA,80.23255813953489,NA
