ZipCode,county,state,Adult,Retirement
35023,Jefferson County,AL,35.16129032258065,NA
35080,Shelby County,AL,66.45161290322581,NA
35243,Jefferson County,AL,NA,65.78947368421053
36067,Autauga County,AL,41.12903225806452,NA
36108,Montgomery County,AL,48.87096774193548,NA
36426,Escambia County,AL,64.35483870967742,NA
99501,Anchorage Municipality,AK,61.45161290322581,NA
99503,Anchorage Municipality,AK,53.2258064516129,NA
99507,Anchorage Municipality,AK,38.225806451612904,NA
99709,Fairbanks North Star Borough,AK,71.61290322580646,NA
85004,Maricopa County,AZ,92.25806451612904,NA
85006,Maricopa County,AZ,77.90322580645162,NA
85007,Maricopa County,AZ,45,NA
85008,Maricopa County,AZ,NA,25.877192982456144
85012,Maricopa County,AZ,89.35483870967742,NA
85014,Maricopa County,AZ,51.61290322580645,65.35087719298247
85018,Maricopa County,AZ,39.67741935483871,NA
85022,Maricopa County,AZ,23.70967741935484,NA
85040,Maricopa County,AZ,22.419354838709676,NA
85042,Maricopa County,AZ,30.806451612903224,NA
85044,Maricopa County,AZ,23.06451612903226,NA
85050,Maricopa County,AZ,62.41935483870967,NA
85051,Maricopa County,AZ,50.967741935483865,NA
85201,Maricopa County,AZ,50.32258064516129,NA
85251,Maricopa County,AZ,46.61290322580645,NA
85257,Maricopa County,AZ,NA,72.80701754385966
85282,Maricopa County,AZ,48.064516129032256,NA
85301,Maricopa County,AZ,5.967741935483871,NA
85302,Maricopa County,AZ,NA,27.631578947368425
85335,Maricopa County,AZ,NA,60.96491228070175
85351,Maricopa County,AZ,NA,14.035087719298245
85364,Yuma County,AZ,4.193548387096775,NA
85603,Cochise County,AZ,86.93548387096774,NA
85634,Pima County,AZ,61.7741935483871,NA
85705,Pima County,AZ,4.354838709677419,NA
85713,Pima County,AZ,8.548387096774194,NA
85742,Pima County,AZ,58.387096774193544,NA
85941,Apache County,AZ,16.129032258064516,NA
86001,Coconino County,AZ,60.483870967741936,NA
86005,Coconino County,AZ,57.90322580645161,NA
71913,Garland County,AR,NA,27.192982456140353
72114,Pulaski County,AR,NA,71.49122807017544
72118,Pulaski County,AR,70.16129032258065,NA
72855,Logan County,AR,NA,93.42105263157895
90008,Los Angeles County,CA,52.09677419354839,NA
90027,Los Angeles County,CA,NA,63.1578947368421
90032,Los Angeles County,CA,55.80645161290323,NA
90043,Los Angeles County,CA,NA,22.36842105263158
90057,Los Angeles County,CA,NA,23.684210526315788
90062,Los Angeles County,CA,59.193548387096776,NA
90221,Los Angeles County,CA,42.74193548387097,NA
90250,Los Angeles County,CA,29.516129032258064,NA
90275,Los Angeles County,CA,65.16129032258064,NA
90278,Los Angeles County,CA,NA,59.64912280701754
90403,Los Angeles County,CA,73.70967741935483,NA
90501,Los Angeles County,CA,55.483870967741936,89.91228070175438
90805,Los Angeles County,CA,19.838709677419356,NA
90813,Los Angeles County,CA,NA,50.877192982456144
91335,Los Angeles County,CA,35.80645161290323,NA
91402,Los Angeles County,CA,NA,37.719298245614034
91706,Los Angeles County,CA,NA,36.40350877192983
91710,San Bernardino County,CA,43.064516129032256,NA
91761,San Bernardino County,CA,29.838709677419356,NA
91763,San Bernardino County,CA,NA,78.94736842105263
91935,San Diego County,CA,NA,96.05263157894737
91950,San Diego County,CA,41.774193548387096,NA
91977,San Diego County,CA,NA,28.947368421052634
92008,San Diego County,CA,58.06451612903226,NA
92009,San Diego County,CA,72.41935483870968,NA
92021,San Diego County,CA,18.387096774193548,NA
92024,San Diego County,CA,47.58064516129033,NA
92040,San Diego County,CA,NA,83.33333333333334
92083,San Diego County,CA,NA,72.36842105263158
92101,San Diego County,CA,71.29032258064515,68.42105263157895
92104,San Diego County,CA,31.290322580645164,76.75438596491229
92105,San Diego County,CA,55.00000000000001,NA
92111,San Diego County,CA,61.29032258064516,NA
92115,San Diego County,CA,NA,46.49122807017544
92122,San Diego County,CA,NA,73.68421052631578
92227,Imperial County,CA,48.38709677419355,NA
92253,Riverside County,CA,NA,13.596491228070176
92284,San Bernardino County,CA,30.64516129032258,NA
92376,San Bernardino County,CA,12.096774193548388,NA
92392,San Bernardino County,CA,57.74193548387097,NA
92399,San Bernardino County,CA,NA,18.859649122807017
92505,Riverside County,CA,53.2258064516129,NA
92530,Riverside County,CA,40.16129032258065,NA
92618,Orange County,CA,88.38709677419355,NA
92627,Orange County,CA,60.322580645161295,NA
92683,Orange County,CA,72.74193548387096,NA
92688,Orange County,CA,74.67741935483872,NA
92782,Orange County,CA,83.38709677419355,NA
92882,Riverside County,CA,69.03225806451613,NA
93004,Ventura County,CA,63.38709677419355,NA
93012,Ventura County,CA,73.54838709677419,NA
93110,Santa Barbara County,CA,NA,92.10526315789474
93305,Kern County,CA,49.03225806451613,NA
93307,Kern County,CA,49.83870967741936,NA
93591,Los Angeles County,CA,98.70967741935483,NA
93611,Fresno County,CA,44.03225806451613,NA
93612,Fresno County,CA,51.29032258064517,NA
93618,Tulare County,CA,85,NA
93637,Madera County,CA,36.774193548387096,NA
93657,Fresno County,CA,63.87096774193548,NA
93702,Fresno County,CA,33.064516129032256,NA
93706,Fresno County,CA,63.2258064516129,NA
93720,Fresno County,CA,37.74193548387097,NA
93722,Fresno County,CA,12.258064516129032,NA
93726,Fresno County,CA,25.645161290322584,NA
94102,San Francisco County,CA,NA,11.403508771929824
94103,San Francisco County,CA,15.483870967741936,57.01754385964912
94109,San Francisco County,CA,80.96774193548387,NA
94110,San Francisco County,CA,48.70967741935484,NA
94544,Alameda County,CA,20.483870967741936,NA
94582,Contra Costa County,CA,74.19354838709677,NA
94612,Alameda County,CA,80.48387096774194,NA
94804,Contra Costa County,CA,70.48387096774194,NA
94806,Contra Costa County,CA,39.516129032258064,NA
94920,Marin County,CA,93.87096774193549,NA
94960,Marin County,CA,94.6774193548387,NA
95003,Santa Cruz County,CA,87.74193548387098,NA
95073,Santa Cruz County,CA,96.7741935483871,NA
95129,Santa Clara County,CA,NA,80.7017543859649
95202,San Joaquin County,CA,33.387096774193544,NA
95212,San Joaquin County,CA,83.54838709677419,NA
95631,Placer County,CA,NA,91.22807017543859
95661,Placer County,CA,NA,60.08771929824561
95818,Sacramento County,CA,80,NA
95820,Sacramento County,CA,NA,42.98245614035088
95926,Butte County,CA,39.19354838709677,NA
95961,Yuba County,CA,51.774193548387096,NA
95965,Butte County,CA,20.806451612903228,32.45614035087719
95966,Butte County,CA,42.25806451612903,90.35087719298247
95973,Butte County,CA,NA,24.12280701754386
95991,Sutter County,CA,68.38709677419355,NA
96003,Shasta County,CA,50.483870967741936,NA
80011,Arapahoe County,CO,9.67741935483871,NA
80013,Arapahoe County,CO,13.38709677419355,NA
80015,Arapahoe County,CO,20.161290322580644,NA
80031,Adams County,CO,45.645161290322584,NA
80109,Douglas County,CO,75.16129032258064,NA
80112,Arapahoe County,CO,60.64516129032258,NA
80202,Denver County,CO,59.193548387096776,NA
80204,Denver County,CO,25.806451612903224,NA
80205,Denver County,CO,15.645161290322582,36.84210526315789
80211,Denver County,CO,43.225806451612904,NA
80218,Denver County,CO,67.41935483870968,NA
80219,Denver County,CO,6.290322580645161,NA
80220,Denver County,CO,39.35483870967742,NA
80234,Adams County,CO,69.6774193548387,NA
80246,Denver County,CO,88.87096774193549,NA
80401,Jefferson County,CO,74.51612903225806,NA
80501,Boulder County,CO,24.193548387096776,NA
80521,Larimer County,CO,73.87096774193549,NA
80601,Adams County,CO,NA,42.54385964912281
80602,Adams County,CO,53.5483870967742,NA
80603,Weld County,CO,82.09677419354838,NA
80631,Weld County,CO,37.58064516129032,NA
80634,Weld County,CO,3.064516129032258,NA
80903,El Paso County,CO,43.87096774193549,NA
80904,El Paso County,CO,NA,71.05263157894737
81052,Prowers County,CO,87.25806451612902,NA
81230,Gunnison County,CO,94.03225806451613,NA
81301,La Plata County,CO,62.096774193548384,NA
81504,Mesa County,CO,35.64516129032258,NA
81507,Mesa County,CO,91.77419354838709,NA
06010,Hartford County,CT,NA,2.1929824561403506
06040,Hartford County,CT,13.709677419354838,NA
06260,Windham County,CT,36.12903225806451,NA
06279,Tolland County,CT,95.16129032258065,NA
06437,New Haven County,CT,70,NA
06614,Fairfield County,CT,65.32258064516128,NA
06704,New Haven County,CT,NA,61.8421052631579
06784,Fairfield County,CT,99.67741935483872,NA
06851,Fairfield County,CT,65.96774193548387,NA
06890,Fairfield County,CT,98.87096774193549,NA
19963,Sussex County,DE,NA,39.473684210526315
19971,Sussex County,DE,76.12903225806451,NA
19973,Sussex County,DE,NA,19.298245614035086
32073,Clay County,FL,29.03225806451613,NA
32080,St. Johns County,FL,NA,23.24561403508772
32097,Nassau County,FL,64.03225806451613,NA
32162,Sumter County,FL,89.6774193548387,1.3157894736842104
32209,Duval County,FL,5.32258064516129,NA
32210,Duval County,FL,4.838709677419355,NA
32217,Duval County,FL,NA,49.122807017543856
32218,Duval County,FL,4.67741935483871,NA
32258,Duval County,FL,62.74193548387097,NA
32304,Leon County,FL,NA,92.98245614035088
32312,Leon County,FL,NA,64.91228070175438
32504,Escambia County,FL,58.06451612903226,NA
32505,Escambia County,FL,NA,14.912280701754385
32539,Okaloosa County,FL,47.25806451612903,NA
32570,Santa Rosa County,FL,NA,8.333333333333332
32720,Volusia County,FL,65.80645161290323,NA
32952,Brevard County,FL,84.67741935483872,NA
32953,Brevard County,FL,66.29032258064517,NA
32955,Brevard County,FL,56.774193548387096,NA
33010,Miami-Dade County,FL,72.58064516129032,NA
33024,Broward County,FL,81.93548387096774,NA
33033,Miami-Dade County,FL,NA,56.57894736842105
33065,Broward County,FL,NA,54.385964912280706
33126,Miami-Dade County,FL,NA,47.80701754385965
33134,Miami-Dade County,FL,NA,58.333333333333336
33140,Miami-Dade County,FL,82.9032258064516,NA
33186,Miami-Dade County,FL,NA,34.64912280701755
33445,Palm Beach County,FL,76.77419354838709,NA
33477,Palm Beach County,FL,97.90322580645162,NA
33592,Hillsborough County,FL,81.12903225806451,NA
33603,Hillsborough County,FL,67.25806451612904,NA
33706,Pinellas County,FL,92.74193548387096,NA
33712,Pinellas County,FL,40.483870967741936,NA
33774,Pinellas County,FL,76.93548387096774,NA
33904,Lee County,FL,NA,17.543859649122805
33952,Charlotte County,FL,30.161290322580648,NA
34285,Sarasota County,FL,90.64516129032259,NA
34287,Sarasota County,FL,59.03225806451613,NA
34436,Citrus County,FL,NA,85.52631578947368
34491,Marion County,FL,NA,35.08771929824561
34741,Osceola County,FL,28.70967741935484,NA
34785,Sumter County,FL,74.83870967741936,NA
34953,St. Lucie County,FL,NA,10.087719298245613
34994,Martin County,FL,82.09677419354838,NA
30064,Cobb County,GA,69.19354838709677,NA
30066,Cobb County,GA,54.03225806451613,NA
30082,Cobb County,GA,79.19354838709678,NA
30087,DeKalb County,GA,NA,20.614035087719298
30101,Cobb County,GA,30.967741935483872,NA
30107,Cherokee County,GA,NA,88.59649122807018
30188,Cherokee County,GA,26.61290322580645,NA
30223,Spalding County,GA,44.516129032258064,NA
30311,Fulton County,GA,NA,21.052631578947366
30316,DeKalb County,GA,60.967741935483865,NA
30331,Fulton County,GA,NA,41.228070175438596
30338,DeKalb County,GA,78.38709677419354,NA
30345,DeKalb County,GA,NA,82.89473684210526
30349,Fulton County,GA,10.64516129032258,NA
31513,Appling County,GA,75.48387096774194,NA
31768,Colquitt County,GA,37.25806451612903,NA
96761,Maui County,HI,90.48387096774194,NA
83301,Twin Falls County,ID,4.516129032258064,NA
83338,Jerome County,ID,NA,26.31578947368421
83467,Lemhi County,ID,NA,75.87719298245614
83814,Kootenai County,ID,38.54838709677419,NA
60056,Cook County,IL,45.96774193548387,NA
60108,DuPage County,IL,66.61290322580645,NA
60120,Kane County,IL,67.58064516129032,NA
60130,Cook County,IL,56.612903225806456,NA
60134,Kane County,IL,51.45161290322581,NA
60163,Cook County,IL,NA,98.68421052631578
60178,DeKalb County,IL,62.58064516129033,NA
60419,Cook County,IL,52.741935483870975,NA
60439,Cook County,IL,NA,18.421052631578945
60465,Cook County,IL,56.29032258064516,NA
60610,Cook County,IL,NA,21.929824561403507
60613,Cook County,IL,31.93548387096774,NA
60620,Cook County,IL,8.870967741935484,NA
60622,Cook County,IL,43.38709677419355,NA
60623,Cook County,IL,34.516129032258064,NA
60643,Cook County,IL,NA,5.701754385964912
60707,Cook County,IL,23.387096774193548,NA
61101,Winnebago County,IL,54.35483870967742,NA
61111,Winnebago County,IL,NA,57.89473684210527
61201,Rock Island County,IL,75.32258064516128,33.33333333333333
61615,Peoria County,IL,81.7741935483871,NA
61739,Livingston County,IL,96.61290322580646,NA
46013,Madison County,IN,38.387096774193544,NA
46038,Hamilton County,IN,66.12903225806451,NA
46074,Hamilton County,IN,72.25806451612902,NA
46218,Marion County,IN,40.64516129032258,NA
46222,Marion County,IN,23.225806451612904,NA
46234,Marion County,IN,NA,52.19298245614035
46235,Marion County,IN,NA,74.56140350877193
46236,Marion County,IN,68.06451612903226,NA
46237,Marion County,IN,22.096774193548388,NA
46250,Marion County,IN,98.06451612903226,NA
46254,Marion County,IN,26.7741935483871,NA
46350,LaPorte County,IN,38.87096774193549,NA
46394,Lake County,IN,NA,59.210526315789465
46407,Lake County,IN,53.70967741935484,NA
47374,Wayne County,IN,5.806451612903226,NA
47396,Delaware County,IN,96.29032258064515,NA
47834,Clay County,IN,36.935483870967744,NA
47842,Vermillion County,IN,NA,75
50112,Poweshiek County,IA,91.12903225806451,NA
50131,Polk County,IA,82.41935483870968,NA
50213,Clarke County,IA,82.58064516129032,NA
50315,Polk County,IA,11.774193548387096,NA
52353,Washington County,IA,NA,81.14035087719299
66064,Miami County,KS,NA,96.9298245614035
66215,Johnson County,KS,NA,45.614035087719294
66614,Shawnee County,KS,40,NA
67212,Sedgwick County,KS,70.64516129032258,NA
67230,Sedgwick County,KS,NA,97.80701754385966
40047,Bullitt County,KY,33.87096774193548,NA
40203,Jefferson County,KY,26.129032258064516,NA
40211,Jefferson County,KY,68.70967741935485,NA
40342,Anderson County,KY,NA,62.71929824561403
40447,Jackson County,KY,89.83870967741936,NA
40505,Fayette County,KY,28.870967741935484,NA
41230,Lawrence County,KY,30.483870967741932,46.92982456140351
41472,Morgan County,KY,94.19354838709677,NA
42066,Graves County,KY,27.419354838709676,NA
42171,Warren County,KY,85.64516129032258,NA
42445,Caldwell County,KY,NA,71.9298245614035
42455,Webster County,KY,95.80645161290322,NA
42501,Pulaski County,KY,56.935483870967744,NA
42701,Hardin County,KY,15,NA
70354,Lafourche Parish,LA,78.70967741935485,NA
70503,Lafayette Parish,LA,45.16129032258064,26.75438596491228
70517,St. Martin Parish,LA,15.806451612903224,NA
70601,Calcasieu Parish,LA,NA,12.719298245614036
70818,East Baton Rouge Parish,LA,81.61290322580645,NA
71203,Ouachita Parish,LA,37.41935483870968,NA
71263,West Carroll Parish,LA,99.35483870967742,NA
20619,St. Mary's County,MD,89.19354838709678,NA
20721,Prince George's County,MD,79.83870967741935,NA
21012,Anne Arundel County,MD,NA,75.87719298245614
21060,Anne Arundel County,MD,33.225806451612904,NA
21061,Anne Arundel County,MD,12.903225806451612,NA
21210,Baltimore city,MD,NA,77.19298245614034
21222,Baltimore County,MD,28.387096774193548,NA
21742,Washington County,MD,71.93548387096774,NA
01013,Hampden County,MA,3.387096774193549,NA
01030,Hampden County,MA,99.51612903225806,NA
01040,Hampden County,MA,0.16129032258064516,NA
01056,Hampden County,MA,94.83870967741936,NA
01085,Hampden County,MA,90.32258064516128,NA
01104,Hampden County,MA,93.38709677419355,NA
01105,Hampden County,MA,3.5483870967741935,NA
01107,Hampden County,MA,7.903225806451612,NA
01376,Franklin County,MA,99.83870967741936,NA
01420,Worcester County,MA,19.032258064516128,NA
01453,Worcester County,MA,1.7741935483870968,9.210526315789473
01510,Worcester County,MA,23.548387096774192,NA
01603,Worcester County,MA,2.258064516129032,NA
01607,Worcester County,MA,15.96774193548387,NA
01610,Worcester County,MA,69.35483870967742,6.140350877192982
01832,Essex County,MA,57.25806451612904,NA
01876,Middlesex County,MA,93.54838709677419,2.631578947368421
01890,Middlesex County,MA,NA,34.21052631578947
01902,Essex County,MA,0.4838709677419355,NA
01904,Essex County,MA,97.74193548387096,NA
02038,Norfolk County,MA,16.29032258064516,NA
02043,Plymouth County,MA,NA,53.94736842105263
02056,Norfolk County,MA,92.41935483870968,NA
02062,Norfolk County,MA,17.258064516129032,NA
02111,Suffolk County,MA,65.64516129032259,NA
02114,Suffolk County,MA,NA,41.66666666666667
02116,Suffolk County,MA,NA,5.263157894736842
02118,Suffolk County,MA,2.4193548387096775,9.649122807017543
02121,Suffolk County,MA,89.51612903225806,NA
02125,Suffolk County,MA,0.6451612903225806,NA
02128,Suffolk County,MA,58.87096774193549,NA
02139,Middlesex County,MA,0.3225806451612903,NA
02145,Middlesex County,MA,27.741935483870968,NA
02301,Plymouth County,MA,0,NA
02467,Norfolk County,MA,NA,30.263157894736842
02532,Barnstable County,MA,62.096774193548384,NA
02554,Nantucket County,MA,93.70967741935485,NA
02601,Barnstable County,MA,5.483870967741936,NA
02645,Barnstable County,MA,96.93548387096774,NA
02675,Barnstable County,MA,84.03225806451613,NA
02721,Bristol County,MA,35.483870967741936,NA
02744,Bristol County,MA,14.193548387096774,NA
02760,Bristol County,MA,NA,15.350877192982457
02780,Bristol County,MA,NA,0.43859649122807015
02790,Bristol County,MA,25.161290322580644,NA
48030,Oakland County,MI,49.516129032258064,NA
48035,Macomb County,MI,13.064516129032258,NA
48042,Macomb County,MI,61.61290322580645,NA
48045,Macomb County,MI,64.6774193548387,NA
48066,Macomb County,MI,3.7096774193548385,NA
48072,Oakland County,MI,58.70967741935483,55.70175438596491
48079,St. Clair County,MI,70.80645161290322,NA
48081,Macomb County,MI,45.322580645161295,NA
48082,Macomb County,MI,54.03225806451613,NA
48083,Oakland County,MI,NA,70.17543859649122
48089,Macomb County,MI,NA,22.807017543859647
48091,Macomb County,MI,31.774193548387096,NA
48098,Oakland County,MI,66.77419354838709,NA
48135,Wayne County,MI,27.09677419354839,NA
48170,Wayne County,MI,NA,4.824561403508771
48185,Wayne County,MI,7.096774193548387,NA
48187,Wayne County,MI,13.548387096774196,1.7543859649122806
48204,Wayne County,MI,NA,86.40350877192982
48205,Wayne County,MI,45.806451612903224,NA
48209,Wayne County,MI,28.064516129032256,NA
48213,Wayne County,MI,14.35483870967742,NA
48219,Wayne County,MI,6.451612903225806,NA
48227,Wayne County,MI,NA,12.280701754385964
48230,Wayne County,MI,NA,38.59649122807017
48238,Wayne County,MI,6.612903225806452,NA
48240,Wayne County,MI,24.35483870967742,NA
48335,Oakland County,MI,82.74193548387096,NA
48342,Oakland County,MI,18.064516129032256,NA
48420,Genesee County,MI,53.064516129032256,NA
48433,Genesee County,MI,60,NA
48446,Lapeer County,MI,17.903225806451616,NA
48505,Genesee County,MI,20.32258064516129,NA
48529,Genesee County,MI,NA,98.24561403508771
48657,Midland County,MI,85.16129032258064,NA
48708,Bay County,MI,10,NA
49043,Van Buren County,MI,99.03225806451613,NA
49127,Berrien County,MI,84.35483870967741,NA
49319,Kent County,MI,34.03225806451613,NA
49420,Oceana County,MI,91.93548387096774,NA
49442,Muskegon County,MI,3.870967741935484,NA
49503,Kent County,MI,64.83870967741936,NA
49509,Kent County,MI,16.451612903225808,NA
49631,Osceola County,MI,75.64516129032258,NA
49686,Grand Traverse County,MI,54.83870967741935,NA
55021,Rice County,MN,44.67741935483871,NA
55033,Dakota County,MN,34.83870967741935,NA
55060,Steele County,MN,42.90322580645161,NA
55075,Dakota County,MN,47.90322580645161,NA
55101,Ramsey County,MN,84.51612903225806,NA
55104,Ramsey County,MN,52.41935483870967,NA
55105,Ramsey County,MN,79.03225806451613,NA
55106,Ramsey County,MN,32.74193548387097,82.45614035087719
55113,Ramsey County,MN,NA,48.24561403508772
55116,Ramsey County,MN,73.06451612903226,66.66666666666666
55117,Ramsey County,MN,18.870967741935484,NA
55118,Dakota County,MN,57.58064516129032,NA
55129,Washington County,MN,78.06451612903226,NA
55130,Ramsey County,MN,55.96774193548387,NA
55306,Dakota County,MN,90.16129032258064,NA
55331,Hennepin County,MN,NA,79.82456140350878
55343,Hennepin County,MN,NA,43.859649122807014
55364,Hennepin County,MN,NA,95.6140350877193
55369,Hennepin County,MN,85.3225806451613,NA
55375,Hennepin County,MN,99.19354838709677,NA
55391,Hennepin County,MN,NA,83.77192982456141
55401,Hennepin County,MN,95,NA
55403,Hennepin County,MN,63.54838709677419,89.47368421052632
55404,Hennepin County,MN,95.48387096774194,4.385964912280701
55405,Hennepin County,MN,74.35483870967742,50
55407,Hennepin County,MN,98.22580645161291,NA
55411,Hennepin County,MN,81.45161290322581,54.824561403508774
55412,Hennepin County,MN,60.806451612903224,NA
55417,Hennepin County,MN,56.12903225806451,NA
55419,Hennepin County,MN,52.58064516129032,NA
55420,Hennepin County,MN,86.45161290322581,NA
55422,Hennepin County,MN,35,NA
55423,Hennepin County,MN,22.903225806451612,NA
55426,Hennepin County,MN,NA,90.78947368421053
55427,Hennepin County,MN,92.0967741935484,NA
55428,Hennepin County,MN,NA,99.56140350877193
55429,Hennepin County,MN,83.87096774193549,NA
55434,Anoka County,MN,88.2258064516129,NA
55441,Hennepin County,MN,76.45161290322581,NA
55987,Winona County,MN,11.129032258064516,NA
56215,Swift County,MN,94.35483870967742,NA
56283,Redwood County,MN,NA,87.28070175438597
56303,Stearns County,MN,36.29032258064516,NA
56304,Sherburne County,MN,NA,86.8421052631579
56345,Morrison County,MN,34.35483870967742,42.10526315789473
56379,Benton County,MN,NA,84.64912280701753
39204,Hinds County,MS,27.580645161290324,NA
39702,Lowndes County,MS,NA,53.50877192982456
63031,St. Louis County,MO,20,NA
63106,St. Louis city,MO,80.3225806451613,NA
63628,St. Francois County,MO,71.12903225806451,NA
64014,Jackson County,MO,24.516129032258064,NA
64055,Jackson County,MO,9.516129032258064,NA
64086,Jackson County,MO,39.83870967741935,NA
64113,Jackson County,MO,73.22580645161291,NA
64117,Clay County,MO,43.70967741935484,NA
64469,DeKalb County,MO,NA,100
65065,Camden County,MO,NA,77.63157894736842
65270,Randolph County,MO,NA,43.859649122807014
59718,Gallatin County,MT,40.96774193548387,NA
59808,Missoula County,MT,88.87096774193549,NA
89117,Clark County,NV,NA,38.59649122807017
89423,Douglas County,NV,86.12903225806451,NA
89512,Washoe County,NV,18.548387096774192,NA
03820,Strafford County,NH,25.322580645161292,NA
07002,Hudson County,NJ,2.0967741935483875,NA
07023,Union County,NJ,97.41935483870968,NA
07024,Bergen County,NJ,38.064516129032256,NA
07060,Union County,NJ,8.38709677419355,NA
07102,Essex County,NJ,9.838709677419356,NA
07201,Union County,NJ,9.193548387096774,NA
07461,Sussex County,NJ,46.12903225806452,NA
07731,Monmouth County,NJ,35.96774193548387,NA
07830,Hunterdon County,NJ,97.58064516129032,NA
07936,Morris County,NJ,91.61290322580645,NA
07960,Morris County,NJ,NA,97.36842105263158
08003,Camden County,NJ,NA,95.17543859649122
08021,Camden County,NJ,20.64516129032258,NA
08035,Camden County,NJ,93.06451612903226,NA
08052,Burlington County,NJ,31.61290322580645,NA
08054,Burlington County,NJ,96.12903225806451,NA
08104,Camden County,NJ,1.2903225806451613,NA
08105,Camden County,NJ,1.935483870967742,NA
08360,Cumberland County,NJ,98.38709677419355,NA
08609,Mercer County,NJ,NA,35.96491228070175
08610,Mercer County,NJ,9.35483870967742,NA
08721,Ocean County,NJ,30,NA
08724,Ocean County,NJ,12.419354838709678,NA
08753,Ocean County,NJ,87.41935483870968,NA
08817,Middlesex County,NJ,61.12903225806452,NA
08861,Middlesex County,NJ,NA,30.701754385964914
87108,Bernalillo County,NM,32.09677419354839,NA
87112,Bernalillo County,NM,17.096774193548388,NA
87114,Bernalillo County,NM,10.806451612903226,NA
87505,Santa Fe County,NM,49.354838709677416,NA
87532,Santa Fe County,NM,45.483870967741936,NA
88012,Doa Ana County,NM,39.03225806451613,NA
88061,Grant County,NM,NA,75.43859649122807
88201,Chaves County,NM,NA,40.78947368421053
88203,Chaves County,NM,22.258064516129032,NA
88220,Eddy County,NM,24.838709677419356,NA
88310,Otero County,NM,29.354838709677416,NA
10002,New York County,NY,NA,3.070175438596491
10021,New York County,NY,77.74193548387098,NA
10031,New York County,NY,10.967741935483872,NA
10032,New York County,NY,NA,10.526315789473683
10034,New York County,NY,37.903225806451616,NA
10035,New York County,NY,7.258064516129033,NA
10453,Bronx County,NY,1.129032258064516,NA
10458,Bronx County,NY,0.8064516129032258,NA
10459,Bronx County,NY,6.129032258064516,NA
10465,Bronx County,NY,70.3225806451613,NA
10466,Bronx County,NY,NA,0.8771929824561403
10470,Bronx County,NY,NA,67.54385964912281
10570,Westchester County,NY,NA,96.49122807017544
10701,Westchester County,NY,NA,48.68421052631579
11203,Kings County,NY,12.741935483870966,NA
11212,Kings County,NY,NA,11.842105263157894
11213,Kings County,NY,29.193548387096772,NA
11220,Kings County,NY,21.29032258064516,NA
11221,Kings County,NY,3.225806451612903,NA
11222,Kings County,NY,67.0967741935484,NA
11235,Kings County,NY,46.935483870967744,NA
11357,Queens County,NY,NA,81.57894736842105
11373,Queens County,NY,16.7741935483871,NA
11426,Queens County,NY,NA,82.01754385964912
11434,Queens County,NY,17.419354838709676,NA
11516,Nassau County,NY,100,NA
11550,Nassau County,NY,14.838709677419354,NA
11561,Nassau County,NY,77.58064516129032,NA
11691,Queens County,NY,NA,10.964912280701753
11727,Suffolk County,NY,NA,31.57894736842105
11729,Suffolk County,NY,79.19354838709678,NA
11791,Nassau County,NY,95.96774193548387,NA
12043,Schoharie County,NY,61.935483870967744,NA
12189,Albany County,NY,46.29032258064516,NA
12202,Albany County,NY,NA,68.85964912280701
12550,Orange County,NY,36.45161290322581,62.28070175438597
12601,Dutchess County,NY,68.2258064516129,NA
12804,Warren County,NY,10.32258064516129,NA
12946,Essex County,NY,40.806451612903224,66.22807017543859
13069,Oswego County,NY,6.935483870967742,NA
13090,Onondaga County,NY,18.548387096774192,NA
13132,Oswego County,NY,95.16129032258065,NA
13209,Onondaga County,NY,52.903225806451616,NA
13215,Onondaga County,NY,58.54838709677419,NA
13601,Jefferson County,NY,5.161290322580645,NA
13619,Jefferson County,NY,NA,69.73684210526315
13760,Broome County,NY,1.4516129032258065,NA
13801,Chenango County,NY,98.54838709677419,NA
14075,Erie County,NY,11.29032258064516,NA
14209,Erie County,NY,74.03225806451613,NA
14213,Erie County,NY,NA,44.73684210526316
14218,Erie County,NY,21.612903225806452,NA
14424,Ontario County,NY,NA,0
14456,Ontario County,NY,NA,7.456140350877193
14513,Wayne County,NY,6.774193548387098,NA
14534,Monroe County,NY,8.064516129032258,NA
14623,Monroe County,NY,19.516129032258064,NA
14735,Allegany County,NY,96.29032258064515,NA
14823,Steuben County,NY,84.67741935483872,NA
14895,Allegany County,NY,81.29032258064515,NA
27330,Lee County,NC,26.451612903225808,NA
27405,Guilford County,NC,NA,16.666666666666664
27504,Johnston County,NC,68.87096774193549,NA
27530,Wayne County,NC,NA,19.736842105263158
27573,Person County,NC,79.51612903225806,NA
27607,Wake County,NC,88.54838709677419,NA
27705,Durham County,NC,25.806451612903224,NA
28080,Lincoln County,NC,NA,94.73684210526315
28104,Union County,NC,72.90322580645162,NA
28117,Iredell County,NC,NA,33.771929824561404
28206,Mecklenburg County,NC,47.41935483870968,70.6140350877193
28216,Mecklenburg County,NC,NA,17.105263157894736
28345,Richmond County,NC,87.09677419354838,NA
28364,Robeson County,NC,50.806451612903224,NA
28398,Duplin County,NC,NA,93.85964912280701
28602,Catawba County,NC,25.483870967741932,NA
28739,Henderson County,NC,57.096774193548384,NA
28762,McDowell County,NC,83.54838709677419,NA
28768,Transylvania County,NC,87.90322580645162,NA
43062,Licking County,OH,40.32258064516129,NA
43140,Madison County,OH,41.935483870967744,NA
43228,Franklin County,OH,4.032258064516129,NA
43351,Wyandot County,OH,47.74193548387097,NA
43611,Lucas County,OH,16.93548387096774,NA
43614,Lucas County,OH,14.032258064516128,NA
43701,Muskingum County,OH,0.967741935483871,NA
44035,Lorain County,OH,11.451612903225806,NA
44104,Cuyahoga County,OH,5,NA
44122,Cuyahoga County,OH,NA,7.017543859649122
44646,Stark County,OH,12.580645161290322,NA
44820,Crawford County,OH,26.29032258064516,NA
45140,Clermont County,OH,28.225806451612907,NA
45205,Hamilton County,OH,NA,58.77192982456141
45241,Hamilton County,OH,NA,40.35087719298245
45638,Lawrence County,OH,26.93548387096774,NA
45784,Washington County,OH,76.61290322580645,NA
73036,Canadian County,OK,NA,69.2982456140351
73110,Oklahoma County,OK,20.967741935483872,NA
73122,Oklahoma County,OK,84.19354838709677,NA
73159,Oklahoma County,OK,NA,28.07017543859649
74106,Tulsa County,OK,42.58064516129032,NA
74464,Cherokee County,OK,11.935483870967742,NA
97035,Clackamas County,OR,75.96774193548387,NA
97045,Clackamas County,OR,17.741935483870968,NA
97058,Wasco County,OR,NA,31.140350877192986
97062,Washington County,OR,65.48387096774194,NA
97128,Yamhill County,OR,21.451612903225804,NA
97202,Multnomah County,OR,NA,51.75438596491229
97214,Multnomah County,OR,77.41935483870968,NA
97222,Clackamas County,OR,33.70967741935484,NA
97229,Washington County,OR,NA,38.15789473684211
97236,Multnomah County,OR,22.741935483870968,NA
97302,Marion County,OR,49.67741935483871,NA
97325,Marion County,OR,88.06451612903226,NA
97381,Marion County,OR,95.64516129032258,NA
97402,Lane County,OR,23.870967741935484,29.82456140350877
97526,Josephine County,OR,30.161290322580648,NA
97603,Klamath County,OR,22.419354838709676,NA
97701,Deschutes County,OR,67.74193548387096,NA
97756,Deschutes County,OR,42.41935483870968,NA
97838,Umatilla County,OR,55.32258064516129,NA
15136,Allegheny County,PA,34.193548387096776,NA
15205,Allegheny County,PA,NA,60.526315789473685
15219,Allegheny County,PA,36.612903225806456,NA
15227,Allegheny County,PA,44.354838709677416,NA
15401,Fayette County,PA,10.161290322580644,NA
16301,Venango County,PA,54.677419354838705,NA
16335,Crawford County,PA,43.54838709677419,NA
16506,Erie County,PA,73.38709677419355,NA
16602,Blair County,PA,16.612903225806452,NA
16823,Centre County,PA,25,NA
17050,Cumberland County,PA,62.74193548387097,NA
17113,Dauphin County,PA,51.12903225806451,NA
17201,Franklin County,PA,13.870967741935484,NA
17321,York County,PA,NA,99.12280701754386
17401,York County,PA,NA,94.2982456140351
17403,York County,PA,NA,3.508771929824561
17701,Lycoming County,PA,NA,8.771929824561402
17815,Columbia County,PA,19.35483870967742,NA
17837,Union County,PA,NA,43.42105263157895
18045,Northampton County,PA,44.03225806451613,NA
18201,Luzerne County,PA,NA,24.561403508771928
18252,Schuylkill County,PA,NA,57.45614035087719
18640,Luzerne County,PA,49.193548387096776,NA
18705,Luzerne County,PA,59.51612903225807,NA
18707,Luzerne County,PA,64.19354838709678,NA
18810,Bradford County,PA,86.7741935483871,NA
18901,Bucks County,PA,NA,25
18951,Bucks County,PA,21.935483870967744,NA
19013,Delaware County,PA,41.4516129032258,NA
19020,Bucks County,PA,10.483870967741936,NA
19036,Delaware County,PA,60.16129032258064,NA
19044,Montgomery County,PA,69.51612903225806,NA
19060,Delaware County,PA,87.58064516129032,NA
19083,Delaware County,PA,NA,49.56140350877193
19104,Philadelphia County,PA,14.516129032258066,NA
19115,Philadelphia County,PA,21.774193548387096,NA
19118,Philadelphia County,PA,NA,80.26315789473685
19131,Philadelphia County,PA,7.580645161290322,3.9473684210526314
19132,Philadelphia County,PA,7.419354838709677,52.19298245614035
19134,Philadelphia County,PA,19.67741935483871,NA
19140,Philadelphia County,PA,2.741935483870968,NA
19143,Philadelphia County,PA,1.6129032258064515,NA
19144,Philadelphia County,PA,27.258064516129032,NA
19147,Philadelphia County,PA,NA,28.50877192982456
19153,Philadelphia County,PA,71.7741935483871,NA
19312,Chester County,PA,NA,50.43859649122807
19348,Chester County,PA,85.96774193548387,NA
19380,Chester County,PA,15.161290322580644,NA
19382,Chester County,PA,NA,13.157894736842104
19425,Chester County,PA,86.61290322580645,NA
19426,Montgomery County,PA,NA,32.01754385964912
19438,Montgomery County,PA,NA,55.26315789473685
19468,Montgomery County,PA,46.45161290322581,NA
19475,Chester County,PA,NA,87.71929824561403
19518,Berks County,PA,55.16129032258065,NA
02860,Providence County,RI,8.709677419354838,NA
02888,Kent County,RI,56.451612903225815,NA
02910,Providence County,RI,57.41935483870968,NA
29036,Lexington County,SC,75,NA
29160,Lexington County,SC,85.80645161290322,NA
29223,Richland County,SC,28.387096774193548,NA
29340,Cherokee County,SC,46.774193548387096,NA
29486,Berkeley County,SC,NA,51.31578947368421
29550,Darlington County,SC,48.064516129032256,NA
29576,Horry County,SC,50,15.789473684210526
29655,Anderson County,SC,NA,85.08771929824562
57301,Davison County,SD,54.516129032258064,NA
37130,Rutherford County,TN,24.032258064516128,32.89473684210527
37203,Davidson County,TN,NA,74.12280701754386
37207,Davidson County,TN,15.32258064516129,NA
37411,Hamilton County,TN,NA,67.98245614035088
37415,Hamilton County,TN,NA,63.59649122807017
37748,Roane County,TN,38.70967741935484,NA
37801,Blount County,TN,18.225806451612904,NA
37934,Knox County,TN,NA,45.17543859649123
38117,Shelby County,TN,76.29032258064517,NA
38134,Shelby County,TN,42.096774193548384,NA
38401,Maury County,TN,33.5483870967742,NA
38501,Putnam County,TN,NA,17.982456140350877
75001,Dallas County,TX,92.58064516129032,NA
75007,Denton County,TX,NA,25.438596491228072
75013,Collin County,TX,NA,73.24561403508771
75215,Dallas County,TX,31.129032258064516,NA
75287,Denton County,TX,47.096774193548384,NA
75633,Panola County,TX,80.80645161290323,NA
76033,Johnson County,TX,41.612903225806456,NA
76123,Tarrant County,TX,53.70967741935484,NA
76262,Denton County,TX,NA,79.3859649122807
76504,Bell County,TX,13.225806451612904,NA
76522,Coryell County,TX,51.774193548387096,NA
76541,Bell County,TX,52.25806451612903,NA
77012,Harris County,TX,91.29032258064517,NA
77075,Harris County,TX,NA,91.22807017543859
77083,Harris County,TX,77.09677419354838,NA
77713,Jefferson County,TX,83.06451612903226,NA
78218,Bexar County,TX,55.64516129032258,NA
78228,Bexar County,TX,32.903225806451616,NA
78230,Bexar County,TX,NA,64.47368421052632
78260,Bexar County,TX,85.48387096774194,NA
78332,Jim Wells County,TX,68.54838709677419,NA
78411,Nueces County,TX,63.064516129032256,NA
78749,Travis County,TX,90.80645161290323,NA
79423,Lubbock County,TX,NA,21.49122807017544
79556,Nolan County,TX,63.70967741935484,NA
84020,Salt Lake County,UT,50.16129032258064,NA
84025,Davis County,UT,79.6774193548387,NA
84032,Wasatch County,UT,88.70967741935483,NA
84065,Salt Lake County,UT,44.83870967741935,NA
84067,Weber County,UT,41.29032258064516,NA
84093,Salt Lake County,UT,NA,53.07017543859649
84116,Salt Lake County,UT,32.25806451612903,NA
84404,Weber County,UT,24.677419354838708,NA
84601,Utah County,UT,75.80645161290323,NA
05301,Windham County,VT,67.90322580645162,NA
05641,Washington County,VT,72.09677419354838,NA
20111,Prince William County,VA,59.67741935483871,NA
20186,Fauquier County,VA,NA,78.0701754385965
22032,Fairfax County,VA,71.45161290322581,NA
22101,Fairfax County,VA,83.22580645161291,NA
22203,Arlington County,VA,78.87096774193549,NA
22304,Alexandria city,VA,17.580645161290324,35.526315789473685
22911,Albemarle County,VA,77.25806451612904,NA
22980,Waynesboro city,VA,11.612903225806452,NA
23117,Louisa County,VA,NA,88.1578947368421
23219,Richmond city,VA,97.25806451612902,NA
23453,Virginia Beach city,VA,90,NA
23462,Virginia Beach city,VA,21.129032258064516,NA
23608,Newport News city,VA,NA,37.280701754385966
23924,Mecklenburg County,VA,92.90322580645162,NA
24112,Henry County,VA,19.193548387096772,NA
24501,Lynchburg city,VA,32.41935483870968,NA
24504,Lynchburg city,VA,NA,78.50877192982456
98012,Snohomish County,WA,34.67741935483871,NA
98027,King County,WA,69.83870967741936,NA
98059,King County,WA,NA,29.385964912280706
98168,King County,WA,37.096774193548384,NA
98258,Snohomish County,WA,27.903225806451616,NA
98366,Kitsap County,WA,29.516129032258064,NA
98391,Pierce County,WA,NA,16.228070175438596
98642,Clark County,WA,NA,89.03508771929825
98662,Clark County,WA,80.64516129032258,NA
98663,Clark County,WA,NA,84.21052631578947
98684,Clark County,WA,NA,67.10526315789474
98816,Chelan County,WA,97.09677419354838,NA
98837,Grant County,WA,NA,92.54385964912281
98942,Yakima County,WA,80.16129032258064,NA
99218,Spokane County,WA,93.2258064516129,NA
20002,District of Columbia,DC,NA,39.91228070175439
20003,District of Columbia,DC,NA,46.05263157894737
20019,District of Columbia,DC,NA,7.894736842105263
20020,District of Columbia,DC,2.5806451612903225,NA
20024,District of Columbia,DC,64.51612903225806,NA
24740,Mercer County,WV,35.16129032258065,NA
25704,Wayne County,WV,32.58064516129032,NA
26070,Brooke County,WV,78.06451612903226,NA
26847,Grant County,WV,91.45161290322581,NA
53076,Washington County,WI,86.29032258064517,NA
53083,Sheboygan County,WI,NA,64.03508771929825
53092,Ozaukee County,WI,64.83870967741936,NA
53094,Jefferson County,WI,48.54838709677419,NA
53140,Kenosha County,WI,14.677419354838708,NA
53147,Walworth County,WI,50.645161290322584,NA
53186,Waukesha County,WI,31.290322580645164,NA
53188,Waukesha County,WI,NA,56.14035087719298
53204,Milwaukee County,WI,8.225806451612904,NA
53205,Milwaukee County,WI,2.903225806451613,NA
53206,Milwaukee County,WI,NA,14.473684210526317
53215,Milwaukee County,WI,5.64516129032258,NA
53511,Rock County,WI,9.032258064516128,NA
53546,Rock County,WI,NA,6.578947368421052
53714,Dane County,WI,NA,85.96491228070175
53716,Dane County,WI,NA,61.40350877192983
53916,Dodge County,WI,NA,47.368421052631575
54166,Shawano County,WI,90.96774193548387,NA
54220,Manitowoc County,WI,7.741935483870968,NA
54313,Brown County,WI,66.93548387096774,NA
54456,Clark County,WI,94.51612903225806,NA
54494,Wood County,WI,70.96774193548387,NA
54729,Chippewa County,WI,NA,20.175438596491226
54902,Winnebago County,WI,59.67741935483871,NA
82414,Park County,WY,78.54838709677419,NA
