ZipCode,county,state,Youth
35058,Cullman County,AL,78.49462365591397
35180,Jefferson County,AL,86.02150537634408
35215,Jefferson County,AL,38.70967741935484
35217,Jefferson County,AL,54.83870967741935
35405,Tuscaloosa County,AL,63.97849462365591
35453,Tuscaloosa County,AL,72.04301075268818
35456,Tuscaloosa County,AL,96.23655913978494
35475,Tuscaloosa County,AL,69.35483870967742
35613,Limestone County,AL,35.483870967741936
35672,Lawrence County,AL,89.78494623655914
35805,Madison County,AL,77.41935483870968
35810,Madison County,AL,39.247311827956985
35951,Marshall County,AL,48.38709677419355
36025,Elmore County,AL,87.09677419354838
36040,Lowndes County,AL,96.23655913978494
36116,Montgomery County,AL,20.967741935483872
36610,Mobile County,AL,60.752688172043015
36701,Dallas County,AL,25.268817204301076
99504,Anchorage Municipality,AK,13.978494623655912
85941,Apache County,AZ,29.56989247311828
90004,Los Angeles County,CA,62.365591397849464
90403,Los Angeles County,CA,93.01075268817203
91740,Los Angeles County,CA,77.41935483870968
91755,Los Angeles County,CA,95.6989247311828
92404,San Bernardino County,CA,8.60215053763441
92626,Orange County,CA,38.17204301075269
94062,San Mateo County,CA,88.70967741935483
94121,San Francisco County,CA,84.40860215053763
94941,Marin County,CA,25.806451612903224
95116,Santa Clara County,CA,69.89247311827957
95236,San Joaquin County,CA,87.63440860215054
95307,Stanislaus County,CA,31.72043010752688
95758,Sacramento County,CA,56.98924731182796
80234,Adams County,CO,49.46236559139785
80239,Denver County,CO,54.3010752688172
80759,Yuma County,CO,90.86021505376344
80909,El Paso County,CO,40.32258064516129
19720,New Castle County,DE,9.67741935483871
32132,Volusia County,FL,91.39784946236558
32351,Gadsden County,FL,45.69892473118279
32615,Alachua County,FL,22.043010752688172
33330,Broward County,FL,80.10752688172043
33442,Broward County,FL,93.01075268817203
33708,Pinellas County,FL,97.31182795698925
33712,Pinellas County,FL,55.376344086021504
33870,Highlands County,FL,66.12903225806451
33971,Lee County,FL,44.086021505376344
34142,Collier County,FL,33.33333333333333
34237,Sarasota County,FL,80.64516129032258
34950,St. Lucie County,FL,70.43010752688173
30013,Rockdale County,GA,84.94623655913979
30014,Newton County,GA,58.602150537634415
30228,Henry County,GA,70.96774193548387
30273,Clayton County,GA,62.903225806451616
30274,Clayton County,GA,45.16129032258064
30294,DeKalb County,GA,74.73118279569893
30436,Toombs County,GA,81.18279569892472
30605,Clarke County,GA,79.03225806451613
31210,Bibb County,GA,76.34408602150538
31326,Effingham County,GA,72.58064516129032
31503,Ware County,GA,36.02150537634409
96761,Maui County,HI,90.32258064516128
60471,Cook County,IL,97.84946236559139
60542,Kane County,IL,53.76344086021505
60618,Cook County,IL,6.989247311827956
60638,Cook County,IL,15.591397849462366
61109,Winnebago County,IL,85.48387096774194
61614,Peoria County,IL,65.05376344086021
62040,Madison County,IL,47.31182795698925
62864,Jefferson County,IL,60.215053763440864
46517,Elkhart County,IN,67.20430107526882
46534,Starke County,IN,57.52688172043011
47424,Greene County,IN,89.24731182795699
47804,Vigo County,IN,68.27956989247312
50047,Warren County,IA,98.9247311827957
52501,Wapello County,IA,32.795698924731184
52732,Clinton County,IA,24.731182795698924
66441,Geary County,KS,83.33333333333334
40031,Oldham County,KY,55.91397849462365
40033,Marion County,KY,83.87096774193549
40391,Clark County,KY,10.75268817204301
70592,Lafayette Parish,LA,14.516129032258066
71112,Bossier Parish,LA,4.838709677419355
71234,Union Parish,LA,94.6236559139785
20895,Montgomery County,MD,76.88172043010752
01776,Middlesex County,MA,74.19354838709677
02169,Norfolk County,MA,30.107526881720432
02301,Plymouth County,MA,68.81720430107528
48021,Macomb County,MI,17.20430107526882
48076,Oakland County,MI,18.817204301075268
48098,Oakland County,MI,63.44086021505376
48167,Oakland County,MI,52.68817204301075
48205,Wayne County,MI,1.6129032258064515
48234,Wayne County,MI,4.301075268817205
49022,Berrien County,MI,5.376344086021505
55103,Ramsey County,MN,61.82795698924731
55106,Ramsey County,MN,17.741935483870968
55108,Ramsey County,MN,82.25806451612904
55119,Ramsey County,MN,59.13978494623656
55121,Dakota County,MN,93.01075268817203
55362,Wright County,MN,58.06451612903226
39362,Wayne County,MS,99.46236559139786
63116,St. Louis city,MO,41.935483870967744
63801,Scott County,MO,37.634408602150536
65301,Pettis County,MO,10.21505376344086
59270,Richland County,MT,92.47311827956989
68132,Douglas County,NE,64.51612903225806
68601,Platte County,NE,34.40860215053764
07055,Passaic County,NJ,26.881720430107524
07060,Union County,NJ,5.913978494623656
07306,Hudson County,NJ,19.892473118279568
08302,Cumberland County,NJ,24.193548387096776
88001,Doa Ana County,NM,11.827956989247312
88240,Lea County,NM,12.365591397849462
10458,Bronx County,NY,36.55913978494624
10460,Bronx County,NY,11.29032258064516
10562,Westchester County,NY,16.129032258064516
11216,Kings County,NY,47.31182795698925
11237,Kings County,NY,12.903225806451612
11369,Queens County,NY,67.74193548387096
11550,Nassau County,NY,1.0752688172043012
12180,Rensselaer County,NY,30.64516129032258
12887,Washington County,NY,95.16129032258065
14216,Erie County,NY,31.182795698924732
14468,Monroe County,NY,19.35483870967742
27023,Forsyth County,NC,46.774193548387096
27536,Vance County,NC,50.53763440860215
27606,Wake County,NC,31.72043010752688
28034,Gaston County,NC,75.26881720430107
28128,Stanly County,NC,86.02150537634408
28328,Sampson County,NC,27.956989247311824
58104,Cass County,ND,56.451612903225815
43040,Union County,OH,39.784946236559136
43302,Marion County,OH,23.118279569892472
43609,Lucas County,OH,9.13978494623656
43701,Muskingum County,OH,28.49462365591398
44102,Cuyahoga County,OH,0
44221,Summit County,OH,34.946236559139784
45414,Montgomery County,OH,20.43010752688172
45424,Montgomery County,OH,2.6881720430107525
73159,Oklahoma County,OK,51.61290322580645
74701,Bryan County,OK,65.59139784946237
97216,Multnomah County,OR,88.17204301075269
97471,Douglas County,OR,44.623655913978496
97526,Josephine County,OR,43.54838709677419
15063,Washington County,PA,70.96774193548387
17315,York County,PA,52.1505376344086
17404,York County,PA,18.27956989247312
19143,Philadelphia County,PA,0.5376344086021506
19320,Chester County,PA,3.225806451612903
37138,Davidson County,TN,79.56989247311827
37167,Rutherford County,TN,13.440860215053762
37303,McMinn County,TN,41.39784946236559
37385,Monroe County,TN,81.72043010752688
37681,Washington County,TN,98.38709677419355
37814,Hamblen County,TN,40.86021505376344
37920,Knox County,TN,29.03225806451613
37922,Knox County,TN,53.2258064516129
37931,Knox County,TN,26.344086021505376
38115,Shelby County,TN,15.053763440860216
75224,Dallas County,TX,33.87096774193548
75234,Dallas County,TX,27.419354838709676
75961,Nacogdoches County,TX,41.935483870967744
76018,Tarrant County,TX,66.66666666666666
76021,Tarrant County,TX,37.096774193548384
76225,Wise County,TX,100
76244,Tarrant County,TX,7.526881720430108
76424,Stephens County,TX,61.29032258064516
76901,Tom Green County,TX,75.80645161290323
77073,Harris County,TX,48.924731182795696
77521,Harris County,TX,73.65591397849462
77539,Galveston County,TX,3.763440860215054
77868,Grimes County,TX,51.075268817204304
78121,Wilson County,TX,73.11827956989248
78573,Hidalgo County,TX,21.50537634408602
79772,Reeves County,TX,59.67741935483871
79905,El Paso County,TX,82.79569892473118
79925,El Paso County,TX,46.236559139784944
84078,Uintah County,UT,2.1505376344086025
84321,Cache County,UT,16.666666666666664
98290,Snohomish County,WA,50
25425,Jefferson County,WV,91.39784946236558
53095,Washington County,WI,22.58064516129032
53402,Racine County,WI,6.451612903225806
54935,Fond du Lac County,WI,23.655913978494624
54952,Winnebago County,WI,43.01075268817204
54956,Winnebago County,WI,8.064516129032258
