ZipCode,county,state,Adult,Retirement,Geriatric
35007,Shelby County,AL,NA,42.11764705882353,NA
35023,Jefferson County,AL,NA,NA,19.939577039274926
35034,Bibb County,AL,NA,NA,93.80664652567975
35045,Chilton County,AL,NA,NA,81.72205438066466
35094,Jefferson County,AL,NA,NA,77.79456193353475
35555,Fayette County,AL,98.58585858585859,NA,NA
35661,Colbert County,AL,NA,NA,63.29305135951662
35750,Madison County,AL,64.64646464646465,NA,NA
35758,Madison County,AL,NA,44.470588235294116,NA
35801,Madison County,AL,NA,37.411764705882355,NA
35904,Etowah County,AL,48.888888888888886,NA,NA
36043,Montgomery County,AL,NA,99.29411764705883,NA
36049,Crenshaw County,AL,NA,93.41176470588235,NA
36067,Autauga County,AL,37.57575757575757,NA,NA
36116,Montgomery County,AL,NA,NA,54.229607250755286
36251,Clay County,AL,NA,NA,93.05135951661632
36264,Cleburne County,AL,87.27272727272727,NA,NA
36303,Houston County,AL,25.656565656565654,NA,NA
36609,Mobile County,AL,NA,NA,80.36253776435045
36618,Mobile County,AL,75.75757575757575,NA,NA
36693,Mobile County,AL,NA,64.70588235294117,NA
99801,Juneau City and Borough,AK,52.52525252525253,NA,NA
99835,Sitka City and Borough,AK,NA,NA,92.74924471299094
85007,Maricopa County,AZ,13.535353535353536,NA,NA
85008,Maricopa County,AZ,16.161616161616163,NA,NA
85013,Maricopa County,AZ,NA,NA,74.77341389728097
85014,Maricopa County,AZ,NA,NA,88.67069486404834
85015,Maricopa County,AZ,NA,NA,63.59516616314199
85022,Maricopa County,AZ,NA,67.52941176470588,NA
85023,Maricopa County,AZ,NA,NA,69.63746223564955
85031,Maricopa County,AZ,53.333333333333336,NA,NA
85035,Maricopa County,AZ,19.7979797979798,NA,NA
85037,Maricopa County,AZ,NA,NA,79.30513595166163
85041,Maricopa County,AZ,NA,NA,65.70996978851964
85044,Maricopa County,AZ,NA,52.70588235294118,NA
85051,Maricopa County,AZ,17.77777777777778,NA,NA
85085,Maricopa County,AZ,NA,NA,86.25377643504531
85122,Pinal County,AZ,NA,NA,25.6797583081571
85139,Pinal County,AZ,NA,77.17647058823529,NA
85207,Maricopa County,AZ,NA,67.29411764705883,50.60422960725075
85208,Maricopa County,AZ,NA,NA,23.11178247734139
85248,Maricopa County,AZ,NA,NA,5.589123867069486
85250,Maricopa County,AZ,NA,86.58823529411764,NA
85251,Maricopa County,AZ,NA,NA,85.95166163141994
85283,Maricopa County,AZ,NA,29.88235294117647,NA
85286,Maricopa County,AZ,36.16161616161616,NA,NA
85297,Maricopa County,AZ,66.66666666666666,NA,NA
85304,Maricopa County,AZ,56.36363636363636,NA,NA
85306,Maricopa County,AZ,59.3939393939394,NA,NA
85324,Yavapai County,AZ,NA,90.3529411764706,NA
85340,Maricopa County,AZ,69.0909090909091,NA,NA
85374,Maricopa County,AZ,NA,20.705882352941178,NA
85390,Maricopa County,AZ,NA,NA,72.65861027190333
85501,Gila County,AZ,77.97979797979798,NA,NA
85530,Graham County,AZ,86.66666666666667,NA,NA
85634,Pima County,AZ,NA,NA,88.36858006042296
85650,Cochise County,AZ,82.82828282828282,NA,47.129909365558916
85704,Pima County,AZ,NA,34.8235294117647,NA
85705,Pima County,AZ,3.4343434343434343,NA,NA
85710,Pima County,AZ,NA,17.41176470588235,NA
85711,Pima County,AZ,NA,13.882352941176471,NA
85718,Pima County,AZ,NA,59.529411764705884,NA
85746,Pima County,AZ,NA,NA,81.41993957703929
86004,Coconino County,AZ,NA,NA,92.14501510574019
86005,Coconino County,AZ,53.73737373737374,NA,NA
86336,Yavapai County,AZ,82.62626262626263,NA,NA
86556,Apache County,AZ,93.53535353535354,NA,NA
71854,Miller County,AR,39.7979797979798,NA,NA
72002,Saline County,AR,NA,NA,69.33534743202418
72019,Saline County,AR,NA,NA,40.6344410876133
72032,Faulkner County,AR,NA,NA,69.93957703927492
72390,Phillips County,AR,NA,89.17647058823529,NA
72416,Craighead County,AR,NA,NA,93.65558912386706
72601,Boone County,AR,NA,NA,17.82477341389728
72956,Crawford County,AR,NA,32.23529411764706,NA
90006,Los Angeles County,CA,NA,NA,41.69184290030212
90031,Los Angeles County,CA,NA,NA,79.45619335347432
90042,Los Angeles County,CA,NA,55.05882352941176,NA
90043,Los Angeles County,CA,NA,24.235294117647058,NA
90044,Los Angeles County,CA,NA,NA,74.32024169184291
90047,Los Angeles County,CA,NA,12.705882352941176,23.26283987915408
90220,Los Angeles County,CA,33.535353535353536,NA,NA
90222,Los Angeles County,CA,72.12121212121212,NA,NA
90241,Los Angeles County,CA,NA,55.76470588235294,63.89728096676737
90301,Los Angeles County,CA,36.36363636363637,NA,NA
90304,Los Angeles County,CA,98.18181818181819,NA,NA
90404,Los Angeles County,CA,37.17171717171717,NA,NA
90601,Los Angeles County,CA,NA,NA,42.44712990936556
90604,Los Angeles County,CA,91.11111111111111,NA,NA
90605,Los Angeles County,CA,NA,76.70588235294117,NA
90703,Los Angeles County,CA,NA,NA,73.86706948640483
90713,Los Angeles County,CA,NA,NA,77.19033232628398
90731,Los Angeles County,CA,NA,NA,50.90634441087614
90745,Los Angeles County,CA,74.34343434343434,NA,19.033232628398792
90806,Los Angeles County,CA,60.60606060606061,NA,NA
90810,Los Angeles County,CA,NA,83.05882352941177,NA
91007,Los Angeles County,CA,NA,NA,48.48942598187311
91011,Los Angeles County,CA,NA,97.6470588235294,NA
91104,Los Angeles County,CA,NA,NA,41.842900302114806
91206,Los Angeles County,CA,91.51515151515152,NA,NA
91303,Los Angeles County,CA,84.84848484848484,NA,NA
91316,Los Angeles County,CA,NA,NA,22.356495468277945
91320,Ventura County,CA,NA,58.58823529411765,NA
91331,Los Angeles County,CA,NA,21.176470588235293,NA
91342,Los Angeles County,CA,NA,13.882352941176471,38.066465256797585
91343,Los Angeles County,CA,NA,NA,76.58610271903324
91344,Los Angeles County,CA,48.282828282828284,NA,NA
91377,Ventura County,CA,94.54545454545455,NA,NA
91384,Los Angeles County,CA,NA,NA,86.5558912386707
91403,Los Angeles County,CA,NA,66.82352941176471,35.95166163141994
91423,Los Angeles County,CA,NA,NA,52.416918429003026
91606,Los Angeles County,CA,NA,59.76470588235294,NA
91607,Los Angeles County,CA,NA,NA,34.13897280966767
91701,San Bernardino County,CA,NA,NA,53.47432024169184
91709,San Bernardino County,CA,NA,66.3529411764706,NA
91754,Los Angeles County,CA,NA,NA,80.06042296072508
91789,Los Angeles County,CA,NA,NA,54.833836858006045
91902,San Diego County,CA,NA,NA,71.45015105740181
91910,San Diego County,CA,26.86868686868687,NA,NA
91911,San Diego County,CA,25.858585858585858,19.76470588235294,NA
91941,San Diego County,CA,NA,NA,45.31722054380665
91950,San Diego County,CA,NA,NA,13.897280966767372
92010,San Diego County,CA,89.8989898989899,NA,NA
92020,San Diego County,CA,NA,7.764705882352942,31.570996978851962
92024,San Diego County,CA,NA,NA,29.607250755287005
92026,San Diego County,CA,59.79797979797979,NA,NA
92027,San Diego County,CA,NA,52.94117647058824,NA
92037,San Diego County,CA,NA,NA,20.84592145015106
92101,San Diego County,CA,NA,NA,38.670694864048336
92102,San Diego County,CA,NA,NA,77.19033232628398
92103,San Diego County,CA,NA,NA,44.259818731117825
92104,San Diego County,CA,NA,40.470588235294116,NA
92117,San Diego County,CA,NA,NA,17.673716012084594
92123,San Diego County,CA,NA,NA,66.16314199395771
92126,San Diego County,CA,NA,37.64705882352941,NA
92130,San Diego County,CA,NA,86.11764705882354,NA
92154,San Diego County,CA,39.1919191919192,NA,NA
92203,Riverside County,CA,NA,21.41176470588235,NA
92234,Riverside County,CA,NA,2.1176470588235294,NA
92240,Riverside County,CA,NA,41.411764705882355,NA
92277,San Bernardino County,CA,NA,64.70588235294117,NA
92336,San Bernardino County,CA,12.323232323232324,NA,43.957703927492446
92337,San Bernardino County,CA,64.04040404040404,NA,NA
92399,San Bernardino County,CA,NA,NA,23.867069486404834
92507,Riverside County,CA,NA,NA,64.04833836858006
92508,Riverside County,CA,93.73737373737374,78.58823529411765,NA
92553,Riverside County,CA,28.68686868686869,NA,NA
92555,Riverside County,CA,NA,NA,82.93051359516616
92586,Riverside County,CA,NA,NA,63.141993957703924
92620,Orange County,CA,NA,NA,81.57099697885197
92625,Orange County,CA,NA,70.82352941176471,NA
92629,Orange County,CA,NA,NA,34.44108761329305
92630,Orange County,CA,NA,NA,26.888217522658607
92646,Orange County,CA,27.27272727272727,NA,NA
92647,Orange County,CA,NA,23.52941176470588,NA
92663,Orange County,CA,NA,NA,62.2356495468278
92677,Orange County,CA,69.4949494949495,NA,NA
92692,Orange County,CA,NA,NA,9.06344410876133
92703,Orange County,CA,NA,NA,68.42900302114803
92780,Orange County,CA,NA,NA,75.67975830815709
92805,Orange County,CA,NA,NA,96.97885196374622
92833,Orange County,CA,53.333333333333336,70.35294117647058,NA
92835,Orange County,CA,NA,66.11764705882352,NA
92840,Orange County,CA,NA,NA,21.6012084592145
92841,Orange County,CA,78.18181818181819,NA,NA
92866,Orange County,CA,NA,84.94117647058823,NA
92883,Riverside County,CA,NA,NA,71.75226586102718
92886,Orange County,CA,NA,19.294117647058822,NA
93010,Ventura County,CA,70.3030303030303,NA,NA
93030,Ventura County,CA,20.2020202020202,NA,NA
93041,Ventura County,CA,68.48484848484848,NA,NA
93204,Kings County,CA,NA,98.82352941176471,NA
93257,Tulare County,CA,45.05050505050505,NA,NA
93291,Tulare County,CA,NA,NA,24.47129909365559
93308,Kern County,CA,30.303030303030305,NA,NA
93420,San Luis Obispo County,CA,NA,NA,45.770392749244714
93436,Santa Barbara County,CA,19.393939393939394,NA,NA
93444,San Luis Obispo County,CA,NA,NA,88.82175226586104
93455,Santa Barbara County,CA,32.92929292929293,NA,NA
93458,Santa Barbara County,CA,NA,NA,49.09365558912387
93534,Los Angeles County,CA,NA,NA,65.86102719033232
93550,Los Angeles County,CA,NA,51.05882352941177,NA
93561,Kern County,CA,NA,58.35294117647059,NA
93611,Fresno County,CA,NA,88.94117647058823,NA
93612,Fresno County,CA,NA,NA,42.14501510574018
93635,Merced County,CA,43.03030303030303,NA,NA
93636,Madera County,CA,NA,NA,92.29607250755288
93638,Madera County,CA,21.616161616161616,NA,NA
93706,Fresno County,CA,25.050505050505052,NA,NA
93720,Fresno County,CA,NA,29.64705882352941,NA
93722,Fresno County,CA,58.98989898989899,NA,NA
93728,Fresno County,CA,NA,NA,62.99093655589124
93927,Monterey County,CA,NA,85.88235294117646,NA
93933,Monterey County,CA,NA,50.588235294117645,NA
94070,San Mateo County,CA,NA,NA,58.91238670694864
94102,San Francisco County,CA,NA,6.8235294117647065,NA
94103,San Francisco County,CA,15.151515151515152,NA,NA
94111,San Francisco County,CA,NA,NA,91.38972809667673
94116,San Francisco County,CA,NA,NA,9.969788519637463
94121,San Francisco County,CA,NA,NA,10.574018126888216
94546,Alameda County,CA,55.757575757575765,NA,NA
94571,Solano County,CA,NA,NA,64.50151057401813
94583,Contra Costa County,CA,NA,67.76470588235294,NA
94610,Alameda County,CA,NA,NA,40.181268882175225
94702,Alameda County,CA,NA,NA,73.111782477341393
94804,Contra Costa County,CA,NA,NA,36.85800604229607
94903,Marin County,CA,78.58585858585857,56.94117647058824,NA
94920,Marin County,CA,NA,NA,48.18731117824773
95023,San Benito County,CA,NA,NA,48.036253776435046
95037,Santa Clara County,CA,61.212121212121204,NA,29.45619335347432
95050,Santa Clara County,CA,73.53535353535354,NA,NA
95121,Santa Clara County,CA,NA,NA,55.58912386706949
95129,Santa Clara County,CA,86.06060606060606,NA,NA
95135,Santa Clara County,CA,NA,NA,53.17220543806647
95307,Stanislaus County,CA,NA,51.294117647058826,NA
95341,Merced County,CA,85.05050505050505,NA,NA
95350,Stanislaus County,CA,NA,13.647058823529413,NA
95358,Stanislaus County,CA,67.47474747474747,NA,NA
95389,Mariposa County,CA,NA,96.70588235294117,NA
95407,Sonoma County,CA,NA,NA,68.42900302114803
95451,Lake County,CA,NA,NA,67.37160120845923
95476,Sonoma County,CA,NA,NA,22.20543806646526
95482,Mendocino County,CA,NA,29.411764705882355,NA
95492,Sonoma County,CA,67.07070707070707,NA,NA
95608,Sacramento County,CA,74.94949494949495,NA,62.53776435045317
95632,Sacramento County,CA,NA,46.588235294117645,95.61933534743203
95667,El Dorado County,CA,NA,NA,1.812688821752266
95678,Placer County,CA,NA,38.11764705882353,NA
95687,Solano County,CA,NA,24.47058823529412,NA
95691,Yolo County,CA,81.61616161616162,NA,NA
95747,Placer County,CA,43.83838383838384,NA,NA
95820,Sacramento County,CA,54.54545454545454,NA,NA
95821,Sacramento County,CA,NA,NA,76.58610271903324
95823,Sacramento County,CA,14.949494949494948,NA,NA
95826,Sacramento County,CA,NA,60.47058823529412,NA
95926,Butte County,CA,35.35353535353536,NA,NA
95991,Sutter County,CA,31.515151515151512,NA,NA
95993,Sutter County,CA,NA,NA,26.132930513595166
96002,Shasta County,CA,NA,87.29411764705883,43.65558912386707
96022,Tehama County,CA,NA,NA,93.50453172205438
96080,Tehama County,CA,NA,NA,78.70090634441088
96097,Siskiyou County,CA,NA,62.117647058823536,NA
80004,Jefferson County,CO,NA,NA,39.274924471299094
80007,Jefferson County,CO,90.30303030303031,83.76470588235294,NA
80013,Arapahoe County,CO,12.121212121212121,NA,NA
80017,Arapahoe County,CO,40.4040404040404,NA,NA
80030,Adams County,CO,79.1919191919192,NA,NA
80121,Arapahoe County,CO,NA,NA,55.438066465256796
80127,Jefferson County,CO,79.5959595959596,NA,NA
80214,Jefferson County,CO,NA,72.94117647058823,NA
80221,Adams County,CO,33.131313131313135,NA,NA
80223,Denver County,CO,NA,NA,90.4833836858006
80226,Jefferson County,CO,NA,NA,65.55891238670695
80227,Jefferson County,CO,NA,71.52941176470588,NA
80228,Jefferson County,CO,59.3939393939394,NA,NA
80232,Jefferson County,CO,80,NA,NA
80237,Denver County,CO,NA,NA,74.77341389728097
80241,Adams County,CO,NA,73.6470588235294,NA
80260,Adams County,CO,50.101010101010104,NA,NA
80421,Park County,CO,95.55555555555556,93.64705882352942,NA
80525,Larimer County,CO,49.292929292929294,NA,6.948640483383686
80526,Larimer County,CO,NA,38.588235294117645,NA
80537,Larimer County,CO,23.434343434343436,NA,20.241691842900302
80601,Adams County,CO,34.74747474747475,NA,77.94561933534743
80631,Weld County,CO,10.707070707070706,NA,NA
80919,El Paso County,CO,NA,57.41176470588235,NA
80920,El Paso County,CO,NA,NA,84.44108761329305
81001,Pueblo County,CO,NA,NA,57.70392749244713
81050,Otero County,CO,NA,82.11764705882352,NA
81054,Bent County,CO,NA,100,NA
81082,Las Animas County,CO,NA,NA,57.70392749244713
81252,Custer County,CO,NA,NA,96.67673716012085
81401,Montrose County,CO,NA,NA,70.99697885196375
81521,Mesa County,CO,NA,NA,76.13293051359517
06002,Hartford County,CT,NA,NA,31.268882175226587
06040,Hartford County,CT,NA,22.11764705882353,NA
06042,Hartford County,CT,NA,50.35294117647059,46.37462235649547
06057,Litchfield County,CT,88.28282828282829,NA,NA
06071,Tolland County,CT,NA,NA,82.4773413897281
06237,Tolland County,CT,NA,95.52941176470588,NA
06259,Windham County,CT,93.93939393939394,NA,NA
06450,New Haven County,CT,6.262626262626263,NA,NA
06480,Middlesex County,CT,NA,NA,88.06646525679758
06492,New Haven County,CT,NA,12,5.13595166163142
06770,New Haven County,CT,NA,28.47058823529412,NA
06776,Litchfield County,CT,NA,37.1764705882353,NA
06878,Fairfield County,CT,NA,96.47058823529412,NA
19805,New Castle County,DE,3.0303030303030303,NA,NA
19808,New Castle County,DE,NA,NA,6.646525679758309
19963,Sussex County,DE,35.95959595959596,NA,NA
19966,Sussex County,DE,NA,NA,12.990936555891238
19975,Sussex County,DE,NA,NA,53.776435045317214
32034,Nassau County,FL,NA,9.411764705882353,NA
32065,Clay County,FL,NA,NA,79.00302114803625
32073,Clay County,FL,NA,NA,78.85196374622356
32086,St. Johns County,FL,45.656565656565654,20.47058823529412,NA
32092,St. Johns County,FL,NA,NA,64.19939577039275
32162,Sumter County,FL,NA,NA,16.76737160120846
32208,Duval County,FL,NA,5.176470588235294,NA
32209,Duval County,FL,4.242424242424243,NA,NA
32218,Duval County,FL,3.6363636363636362,NA,NA
32225,Duval County,FL,NA,NA,73.41389728096676
32259,St. Johns County,FL,47.070707070707066,NA,NA
32277,Duval County,FL,24.848484848484848,NA,NA
32324,Gadsden County,FL,NA,97.88235294117648,NA
32428,Washington County,FL,NA,NA,97.2809667673716
32465,Gulf County,FL,NA,NA,95.77039274924472
32514,Escambia County,FL,26.060606060606062,NA,7.854984894259818
32566,Santa Rosa County,FL,NA,25.176470588235293,NA
32571,Santa Rosa County,FL,16.767676767676768,NA,NA
32608,Alachua County,FL,NA,NA,24.773413897280967
32618,Alachua County,FL,NA,NA,92.59818731117825
32702,Lake County,FL,NA,NA,87.91540785498489
32707,Seminole County,FL,NA,NA,79.15407854984893
32736,Lake County,FL,93.33333333333333,NA,NA
32763,Volusia County,FL,NA,NA,66.46525679758308
32765,Seminole County,FL,NA,NA,81.1178247734139
32792,Orange County,FL,NA,NA,60.12084592145015
32796,Brevard County,FL,NA,NA,33.987915407854985
32808,Orange County,FL,NA,NA,85.80060422960725
32817,Orange County,FL,70.5050505050505,NA,NA
32926,Brevard County,FL,NA,NA,17.371601208459214
32953,Brevard County,FL,NA,23.294117647058822,NA
32955,Brevard County,FL,52.92929292929293,NA,NA
32958,Indian River County,FL,NA,10.823529411764705,NA
33016,Miami-Dade County,FL,NA,NA,22.356495468277945
33021,Broward County,FL,51.11111111111111,NA,NA
33033,Miami-Dade County,FL,44.84848484848485,NA,NA
33069,Broward County,FL,NA,NA,11.63141993957704
33070,Monroe County,FL,NA,90.58823529411765,NA
33076,Broward County,FL,NA,NA,63.74622356495468
33127,Miami-Dade County,FL,60.80808080808081,NA,NA
33130,Miami-Dade County,FL,NA,NA,61.027190332326285
33139,Miami-Dade County,FL,NA,NA,9.365558912386707
33160,Miami-Dade County,FL,70.5050505050505,NA,NA
33169,Miami-Dade County,FL,76.76767676767676,NA,NA
33181,Miami-Dade County,FL,84.24242424242424,NA,NA
33183,Miami-Dade County,FL,80.8080808080808,NA,NA
33184,Miami-Dade County,FL,NA,NA,51.81268882175226
33186,Miami-Dade County,FL,54.141414141414145,NA,NA
33311,Broward County,FL,8.282828282828284,NA,NA
33314,Broward County,FL,72.52525252525253,NA,NA
33321,Broward County,FL,NA,NA,4.682779456193353
33411,Palm Beach County,FL,NA,23.764705882352942,NA
33414,Palm Beach County,FL,49.09090909090909,NA,NA
33415,Palm Beach County,FL,45.45454545454545,NA,NA
33418,Palm Beach County,FL,NA,NA,8.459214501510575
33433,Palm Beach County,FL,NA,NA,2.2658610271903323
33434,Palm Beach County,FL,NA,76.94117647058823,NA
33437,Palm Beach County,FL,NA,21.64705882352941,NA
33484,Palm Beach County,FL,83.03030303030303,NA,2.719033232628399
33486,Palm Beach County,FL,NA,NA,62.38670694864048
33496,Palm Beach County,FL,NA,NA,6.3444108761329305
33510,Hillsborough County,FL,NA,NA,75.22658610271903
33611,Hillsborough County,FL,NA,NA,85.3474320241692
33617,Hillsborough County,FL,NA,NA,55.740181268882175
33625,Hillsborough County,FL,97.57575757575758,NA,NA
33635,Hillsborough County,FL,85.65656565656565,NA,NA
33709,Pinellas County,FL,NA,NA,51.057401812688816
33771,Pinellas County,FL,NA,38.11764705882353,NA
33782,Pinellas County,FL,72.32323232323232,NA,52.11480362537765
33815,Polk County,FL,43.63636363636363,NA,NA
33850,Polk County,FL,NA,NA,84.29003021148036
33872,Highlands County,FL,72.72727272727273,45.41176470588235,NA
33901,Lee County,FL,90.1010101010101,NA,NA
33904,Lee County,FL,NA,18.823529411764707,6.495468277945619
33907,Lee County,FL,NA,NA,58.157099697885194
33919,Lee County,FL,NA,NA,3.927492447129909
33931,Lee County,FL,NA,69.88235294117648,NA
33950,Charlotte County,FL,NA,NA,21.90332326283988
33954,Charlotte County,FL,92.32323232323232,NA,NA
33966,Lee County,FL,NA,86.58823529411764,85.1963746223565
33967,Lee County,FL,63.43434343434343,NA,NA
34202,Manatee County,FL,71.51515151515152,NA,NA
34203,Manatee County,FL,NA,NA,13.746223564954683
34217,Manatee County,FL,NA,98.3529411764706,NA
34236,Sarasota County,FL,NA,NA,15.55891238670695
34266,DeSoto County,FL,37.77777777777778,NA,NA
34287,Sarasota County,FL,55.55555555555556,33.88235294117647,NA
34429,Citrus County,FL,92.92929292929293,NA,NA
34476,Marion County,FL,NA,42.8235294117647,24.773413897280967
34481,Marion County,FL,NA,NA,11.178247734138973
34482,Marion County,FL,87.47474747474747,NA,NA
34609,Hernando County,FL,NA,27.52941176470588,NA
34637,Pasco County,FL,NA,97.41176470588235,NA
34654,Pasco County,FL,NA,NA,87.7643504531722
34683,Pinellas County,FL,NA,52.470588235294116,NA
34698,Pinellas County,FL,NA,NA,15.105740181268882
34711,Lake County,FL,NA,4.705882352941177,4.229607250755287
34714,Lake County,FL,NA,NA,85.04531722054381
34951,St. Lucie County,FL,NA,NA,58.91238670694864
34952,St. Lucie County,FL,NA,9.176470588235293,NA
34974,Okeechobee County,FL,NA,45.41176470588235,NA
34986,St. Lucie County,FL,NA,NA,7.7039274924471295
34990,Martin County,FL,NA,NA,4.078549848942599
30019,Gwinnett County,GA,41.81818181818181,NA,NA
30034,DeKalb County,GA,31.91919191919192,NA,NA
30039,Gwinnett County,GA,NA,58.82352941176471,NA
30045,Gwinnett County,GA,62.62626262626263,NA,NA
30052,Walton County,GA,21.41414141414141,8.941176470588236,NA
30075,Fulton County,GA,73.73737373737373,NA,46.07250755287009
30076,Fulton County,GA,NA,NA,67.97583081570997
30093,Gwinnett County,GA,NA,NA,99.24471299093656
30096,Gwinnett County,GA,28.484848484848484,NA,NA
30132,Paulding County,GA,NA,NA,51.51057401812689
30135,Douglas County,GA,NA,NA,43.353474320241695
30141,Paulding County,GA,NA,NA,86.404833836858
30188,Cherokee County,GA,NA,NA,32.62839879154079
30217,Heard County,GA,NA,87.05882352941177,NA
30268,Fulton County,GA,NA,77.88235294117646,NA
30308,Fulton County,GA,79.39393939393939,NA,NA
30331,Fulton County,GA,21.01010101010101,NA,NA
30339,Cobb County,GA,NA,NA,86.10271903323263
30349,Fulton County,GA,9.8989898989899,NA,NA
30507,Hall County,GA,NA,68.70588235294117,NA
30548,Jackson County,GA,NA,54.352941176470594,NA
30650,Morgan County,GA,69.6969696969697,NA,NA
30720,Whitfield County,GA,NA,NA,59.21450151057401
30736,Catoosa County,GA,13.939393939393941,NA,NA
30741,Walker County,GA,NA,NA,51.963746223564954
30909,Richmond County,GA,28.08080808080808,NA,NA
31029,Monroe County,GA,76.16161616161617,NA,NA
31088,Houston County,GA,19.19191919191919,NA,NA
31216,Bibb County,GA,NA,95.29411764705881,NA
31406,Chatham County,GA,NA,33.1764705882353,NA
31569,Camden County,GA,96.16161616161617,NA,NA
31601,Lowndes County,GA,NA,NA,48.338368580060425
31602,Lowndes County,GA,NA,NA,32.779456193353475
31792,Thomas County,GA,35.55555555555556,NA,NA
31904,Muscogee County,GA,NA,NA,13.595166163141995
96771,Hawaii County,HI,94.34343434343434,NA,NA
96790,Maui County,HI,96.76767676767678,NA,NA
96791,Honolulu County,HI,NA,NA,96.52567975830816
96797,Honolulu County,HI,NA,NA,9.818731117824774
96815,Honolulu County,HI,NA,29.176470588235293,NA
96817,Honolulu County,HI,14.545454545454545,72.70588235294117,NA
96818,Honolulu County,HI,NA,39.05882352941176,NA
96821,Honolulu County,HI,NA,NA,14.04833836858006
96822,Honolulu County,HI,NA,NA,8.610271903323262
83301,Twin Falls County,ID,NA,0.7058823529411765,NA
83318,Cassia County,ID,66.46464646464646,NA,NA
83669,Ada County,ID,NA,61.64705882352941,NA
83815,Kootenai County,ID,NA,NA,14.501510574018129
60004,Cook County,IL,26.666666666666668,NA,NA
60005,Cook County,IL,NA,NA,27.945619335347434
60015,Lake County,IL,NA,NA,84.89425981873111
60016,Cook County,IL,NA,47.05882352941176,NA
60030,Lake County,IL,NA,NA,14.652567975830816
60053,Cook County,IL,NA,NA,26.283987915407852
60056,Cook County,IL,NA,15.764705882352942,NA
60067,Cook County,IL,NA,60,NA
60068,Cook County,IL,NA,NA,18.277945619335348
60081,McHenry County,IL,89.6969696969697,NA,NA
60083,Lake County,IL,NA,NA,73.111782477341393
60089,Lake County,IL,42.62626262626263,NA,NA
60103,DuPage County,IL,NA,27.294117647058826,NA
60123,Kane County,IL,NA,NA,17.069486404833835
60142,McHenry County,IL,NA,NA,2.56797583081571
60160,Cook County,IL,NA,73.41176470588235,NA
60191,DuPage County,IL,NA,NA,52.7190332326284
60403,Will County,IL,NA,NA,48.48942598187311
60419,Cook County,IL,NA,NA,57.250755287009056
60430,Cook County,IL,NA,NA,44.71299093655589
60440,Will County,IL,22.626262626262626,NA,NA
60442,Will County,IL,NA,81.64705882352942,NA
60453,Cook County,IL,17.575757575757574,NA,NA
60502,DuPage County,IL,57.17171717171718,NA,NA
60506,Kane County,IL,27.474747474747474,NA,NA
60525,Cook County,IL,NA,NA,12.537764350453173
60532,DuPage County,IL,NA,NA,45.31722054380665
60561,DuPage County,IL,63.23232323232323,NA,NA
60586,Will County,IL,NA,NA,68.12688821752266
60608,Cook County,IL,NA,NA,7.099697885196375
60611,Cook County,IL,NA,NA,9.214501510574017
60618,Cook County,IL,NA,NA,76.888217522658607
60620,Cook County,IL,8.484848484848486,2.823529411764706,NA
60626,Cook County,IL,NA,NA,59.516616314199396
60629,Cook County,IL,7.07070707070707,NA,NA
60630,Cook County,IL,NA,12.23529411764706,NA
60634,Cook County,IL,12.727272727272727,NA,7.250755287009064
60639,Cook County,IL,36.76767676767677,NA,NA
60640,Cook County,IL,NA,NA,7.552870090634441
60641,Cook County,IL,15.95959595959596,NA,NA
60707,Cook County,IL,NA,9.88235294117647,NA
60804,Cook County,IL,NA,NA,35.80060422960725
60901,Kankakee County,IL,20,NA,NA
60942,Vermilion County,IL,NA,NA,80.66465256797582
60950,Kankakee County,IL,NA,NA,38.670694864048336
61032,Stephenson County,IL,NA,NA,12.386706948640484
61065,Boone County,IL,NA,NA,92.44712990936556
61071,Whiteside County,IL,NA,NA,11.48036253776435
61108,Winnebago County,IL,NA,NA,23.413897280966765
61111,Winnebago County,IL,NA,NA,54.0785498489426
61201,Rock Island County,IL,NA,NA,38.368580060422964
61350,LaSalle County,IL,NA,NA,25.981873111782477
61611,Tazewell County,IL,76.96969696969697,NA,NA
61727,De Witt County,IL,NA,NA,47.73413897280967
61832,Vermilion County,IL,12.929292929292929,NA,NA
62035,Madison County,IL,NA,NA,40.03021148036254
62269,St. Clair County,IL,71.31313131313132,NA,NA
62294,Madison County,IL,92.72727272727272,NA,NA
62526,Macon County,IL,NA,7.0588235294117645,NA
62561,Sangamon County,IL,NA,NA,97.1299093655589
62801,Marion County,IL,NA,32.470588235294116,NA
46001,Madison County,IN,NA,NA,57.250755287009056
46038,Hamilton County,IN,NA,56.705882352941174,NA
46041,Clinton County,IN,34.94949494949495,NA,NA
46072,Tipton County,IN,NA,NA,88.51963746223565
46074,Hamilton County,IN,NA,64.47058823529412,NA
46131,Johnson County,IN,NA,NA,10.42296072507553
46203,Marion County,IN,11.313131313131313,NA,NA
46236,Marion County,IN,NA,53.88235294117647,NA
46311,Lake County,IN,NA,NA,66.61631419939576
46321,Lake County,IN,NA,16.470588235294116,NA
46342,Lake County,IN,6.0606060606060606,NA,NA
46350,LaPorte County,IN,NA,39.52941176470588,NA
46368,Porter County,IN,2.8282828282828283,NA,NA
46383,Porter County,IN,NA,NA,11.933534743202417
46530,St. Joseph County,IN,NA,NA,65.40785498489427
46635,St. Joseph County,IN,NA,94.11764705882352,NA
46835,Allen County,IN,NA,NA,25.6797583081571
46902,Howard County,IN,NA,3.5294117647058822,NA
47130,Clark County,IN,NA,NA,31.722054380664655
47172,Clark County,IN,NA,69.41176470588235,NA
47274,Jackson County,IN,30.303030303030305,NA,NA
47374,Wayne County,IN,NA,NA,1.2084592145015105
47404,Monroe County,IN,NA,NA,80.96676737160121
47421,Lawrence County,IN,35.75757575757576,NA,NA
47586,Perry County,IN,NA,NA,71.90332326283988
50315,Polk County,IA,11.11111111111111,27.058823529411764,NA
50588,Buena Vista County,IA,NA,NA,90.93655589123867
51301,Clay County,IA,NA,NA,26.73716012084592
52002,Dubuque County,IA,NA,85.6470588235294,NA
52245,Johnson County,IA,NA,NA,54.53172205438066
52641,Henry County,IA,NA,NA,55.89123867069487
52732,Clinton County,IA,NA,31.76470588235294,NA
52803,Scott County,IA,36.96969696969697,NA,NA
66061,Johnson County,KS,22.424242424242426,NA,NA
66064,Miami County,KS,NA,NA,89.87915407854985
66083,Johnson County,KS,NA,79.05882352941175,NA
66103,Wyandotte County,KS,78.98989898989899,NA,NA
66502,Riley County,KS,77.77777777777779,NA,NA
66614,Shawnee County,KS,NA,NA,53.02114803625378
66762,Crawford County,KS,NA,55.294117647058826,NA
67037,Sedgwick County,KS,NA,83.29411764705881,NA
67114,Harvey County,KS,NA,63.76470588235294,NA
67211,Sedgwick County,KS,58.58585858585859,NA,NA
67217,Sedgwick County,KS,NA,NA,72.05438066465257
67337,Montgomery County,KS,NA,NA,77.64350453172206
67550,Pawnee County,KS,NA,NA,76.13293051359517
40004,Nelson County,KY,NA,NA,40.78549848942598
40160,Hardin County,KY,33.33333333333333,57.41176470588235,NA
40219,Jefferson County,KY,NA,NA,30.211480362537763
40353,Montgomery County,KY,NA,NA,39.12386706948641
40356,Jessamine County,KY,17.373737373737374,NA,NA
40380,Powell County,KY,75.35353535353535,NA,NA
40403,Madison County,KY,24.242424242424242,NA,NA
40508,Fayette County,KY,NA,NA,77.0392749244713
40517,Fayette County,KY,NA,NA,46.37462235649547
41143,Carter County,KY,NA,NA,60.72507552870091
41164,Carter County,KY,NA,NA,51.20845921450151
41169,Greenup County,KY,NA,80,NA
41465,Magoffin County,KY,NA,88.47058823529412,NA
41701,Perry County,KY,68.28282828282828,NA,NA
42001,McCracken County,KY,NA,NA,37.91540785498489
42240,Christian County,KY,7.878787878787878,NA,NA
42347,Ohio County,KY,NA,NA,83.98791540785498
42629,Russell County,KY,NA,NA,94.86404833836858
42728,Adair County,KY,57.77777777777777,NA,NA
70002,Jefferson Parish,LA,50.101010101010104,NA,NA
70058,Jefferson Parish,LA,NA,11.294117647058824,NA
70065,Jefferson Parish,LA,58.38383838383838,NA,NA
70123,Jefferson Parish,LA,NA,NA,8.157099697885197
70125,Orleans Parish,LA,83.83838383838383,NA,NA
70130,Orleans Parish,LA,46.06060606060606,NA,NA
70426,Washington Parish,LA,NA,NA,84.74320241691842
70471,St. Tammany Parish,LA,NA,NA,15.407854984894259
70560,Iberia Parish,LA,18.98989898989899,NA,NA
70578,Acadia Parish,LA,NA,NA,72.35649546827794
70601,Calcasieu Parish,LA,2.4242424242424243,NA,NA
70769,Ascension Parish,LA,NA,NA,67.82477341389728
70802,East Baton Rouge Parish,LA,NA,45.88235294117647,NA
70806,East Baton Rouge Parish,LA,NA,NA,37.61329305135951
70809,East Baton Rouge Parish,LA,NA,NA,38.972809667673715
70817,East Baton Rouge Parish,LA,33.73737373737374,NA,NA
71105,Caddo Parish,LA,NA,NA,41.54078549848943
71112,Bossier Parish,LA,NA,NA,31.87311178247734
71118,Caddo Parish,LA,NA,NA,16.1631419939577
71225,Ouachita Parish,LA,NA,NA,94.41087613293051
04240,Androscoggin County,ME,NA,NA,14.803625377643503
04350,Kennebec County,ME,NA,NA,94.5619335347432
04401,Penobscot County,ME,NA,15.294117647058824,NA
04769,Aroostook County,ME,NA,NA,14.954682779456194
04843,Knox County,ME,NA,NA,49.848942598187314
20735,Prince George's County,MD,NA,72.23529411764706,NA
20744,Prince George's County,MD,NA,43.29411764705882,50.755287009063444
20746,Prince George's County,MD,NA,NA,90.03021148036254
20748,Prince George's County,MD,46.86868686868687,NA,NA
20878,Montgomery County,MD,NA,64,NA
20901,Montgomery County,MD,NA,NA,56.646525679758305
20906,Montgomery County,MD,NA,NA,10.876132930513595
21001,Harford County,MD,86.46464646464646,NA,NA
21035,Anne Arundel County,MD,NA,91.52941176470588,NA
21050,Harford County,MD,NA,NA,70.39274924471299
21102,Carroll County,MD,88.88888888888889,NA,NA
21113,Anne Arundel County,MD,NA,NA,58.610271903323266
21122,Anne Arundel County,MD,9.696969696969697,NA,NA
21128,Baltimore County,MD,NA,86.3529411764706,69.78851963746223
21206,Baltimore city,MD,NA,10.588235294117647,NA
21217,Baltimore city,MD,NA,19.52941176470588,NA
21224,Baltimore city,MD,NA,74.58823529411764,NA
21532,Allegany County,MD,NA,88.23529411764706,NA
21620,Kent County,MD,NA,NA,81.87311178247734
21811,Worcester County,MD,NA,NA,17.220543806646525
21921,Cecil County,MD,NA,36.705882352941174,NA
01020,Hampden County,MA,NA,97.1764705882353,NA
01035,Hampshire County,MA,NA,NA,97.58308157099698
01104,Hampden County,MA,NA,NA,3.3232628398791544
01453,Worcester County,MA,1.2121212121212122,NA,NA
01532,Worcester County,MA,NA,NA,55.2870090634441
01540,Worcester County,MA,42.02020202020202,NA,NA
01562,Worcester County,MA,30.707070707070706,NA,NA
01564,Worcester County,MA,NA,NA,91.8429003021148
01583,Worcester County,MA,NA,NA,60.87613293051359
01603,Worcester County,MA,95.75757575757575,2.3529411764705883,NA
01605,Worcester County,MA,38.78787878787879,7.529411764705881,NA
01701,Middlesex County,MA,NA,NA,35.64954682779456
01702,Middlesex County,MA,NA,NA,4.833836858006042
01773,Middlesex County,MA,NA,NA,94.10876132930514
01801,Middlesex County,MA,1.4141414141414141,NA,NA
01810,Essex County,MA,NA,NA,15.861027190332328
01830,Essex County,MA,NA,6.352941176470588,NA
01841,Essex County,MA,61.81818181818181,91.76470588235294,NA
01850,Middlesex County,MA,9.292929292929292,NA,NA
01852,Middlesex County,MA,NA,13.411764705882353,NA
01862,Middlesex County,MA,49.898989898989896,NA,NA
01864,Middlesex County,MA,51.91919191919192,NA,NA
01880,Middlesex County,MA,NA,5.88235294117647,NA
01902,Essex County,MA,0.20202020202020202,NA,NA
01906,Essex County,MA,NA,43.05882352941177,NA
01960,Essex County,MA,NA,NA,0.4531722054380665
02038,Norfolk County,MA,NA,NA,24.018126888217523
02072,Norfolk County,MA,NA,41.647058823529406,NA
02126,Suffolk County,MA,NA,NA,16.1631419939577
02132,Suffolk County,MA,NA,NA,4.984894259818732
02143,Middlesex County,MA,96.56565656565657,NA,NA
02148,Middlesex County,MA,NA,NA,7.401812688821751
02186,Norfolk County,MA,NA,28.941176470588236,NA
02301,Plymouth County,MA,NA,NA,97.43202416918429
02346,Plymouth County,MA,NA,NA,29.909365558912388
02360,Plymouth County,MA,0.6060606060606061,NA,NA
02382,Plymouth County,MA,98.38383838383838,NA,NA
02451,Middlesex County,MA,NA,20.941176470588236,NA
02452,Middlesex County,MA,NA,NA,51.3595166163142
02465,Middlesex County,MA,NA,53.17647058823529,NA
02467,Norfolk County,MA,NA,NA,28.3987915407855
02478,Middlesex County,MA,25.252525252525253,NA,NA
02536,Barnstable County,MA,NA,NA,12.235649546827794
02645,Barnstable County,MA,NA,NA,65.25679758308158
02664,Barnstable County,MA,NA,NA,33.68580060422961
02703,Bristol County,MA,0.8080808080808081,NA,NA
02719,Bristol County,MA,NA,NA,41.23867069486405
02720,Bristol County,MA,NA,NA,3.0211480362537766
02738,Plymouth County,MA,NA,NA,87.31117824773413
02739,Plymouth County,MA,99.19191919191918,NA,NA
02740,Bristol County,MA,NA,88,NA
02747,Bristol County,MA,NA,54.58823529411765,NA
02766,Bristol County,MA,NA,8.705882352941176,NA
48033,Oakland County,MI,44.04040404040404,NA,NA
48035,Macomb County,MI,11.91919191919192,NA,NA
48036,Macomb County,MI,30.1010101010101,NA,NA
48076,Oakland County,MI,NA,NA,35.34743202416919
48081,Macomb County,MI,40.80808080808081,NA,NA
48098,Oakland County,MI,64.84848484848484,NA,NA
48105,Washtenaw County,MI,NA,NA,3.1722054380664653
48116,Livingston County,MI,NA,NA,10.120845921450151
48117,Monroe County,MI,57.37373737373738,NA,NA
48141,Wayne County,MI,10.505050505050505,NA,30.513595166163142
48154,Wayne County,MI,NA,NA,5.287009063444108
48161,Monroe County,MI,9.090909090909092,NA,35.49848942598187
48164,Wayne County,MI,75.95959595959596,NA,NA
48165,Oakland County,MI,NA,NA,80.81570996978851
48167,Oakland County,MI,NA,NA,11.329305135951662
48168,Wayne County,MI,NA,NA,28.851963746223564
48183,Wayne County,MI,NA,5.411764705882352,NA
48186,Wayne County,MI,NA,68.23529411764706,NA
48195,Wayne County,MI,NA,NA,16.91842900302115
48206,Wayne County,MI,NA,32.70588235294118,NA
48216,Wayne County,MI,95.95959595959596,NA,NA
48219,Wayne County,MI,4.848484848484849,NA,NA
48221,Wayne County,MI,5.454545454545454,NA,NA
48224,Wayne County,MI,NA,NA,56.646525679758305
48228,Wayne County,MI,2.0202020202020203,NA,NA
48238,Wayne County,MI,5.252525252525253,NA,NA
48240,Wayne County,MI,NA,NA,27.341389728096676
48301,Oakland County,MI,NA,NA,47.583081570996974
48302,Oakland County,MI,74.14141414141415,NA,NA
48314,Macomb County,MI,NA,NA,22.658610271903324
48316,Macomb County,MI,NA,49.1764705882353,NA
48331,Oakland County,MI,NA,NA,26.435045317220546
48413,Huron County,MI,52.72727272727272,NA,NA
48420,Genesee County,MI,NA,47.294117647058826,NA
48430,Genesee County,MI,27.070707070707073,NA,NA
48433,Genesee County,MI,57.37373737373738,NA,NA
48451,Genesee County,MI,NA,NA,89.27492447129909
48473,Genesee County,MI,NA,44.23529411764706,NA
48503,Genesee County,MI,NA,22.823529411764707,NA
48532,Genesee County,MI,NA,NA,50.453172205438065
48642,Midland County,MI,22.02020202020202,NA,NA
48647,Oscoda County,MI,90.9090909090909,NA,NA
48813,Eaton County,MI,NA,NA,32.477341389728096
48820,Clinton County,MI,73.13131313131314,NA,NA
48838,Montcalm County,MI,32.525252525252526,NA,39.577039274924466
48843,Livingston County,MI,15.353535353535353,NA,NA
48917,Eaton County,MI,NA,8.235294117647058,NA
49013,Van Buren County,MI,NA,96,NA
49055,Van Buren County,MI,NA,77.41176470588236,NA
49083,Kalamazoo County,MI,86.26262626262627,NA,NA
49201,Jackson County,MI,NA,4.941176470588235,NA
49245,Calhoun County,MI,NA,99.52941176470588,NA
49265,Lenawee County,MI,NA,87.52941176470588,NA
49286,Lenawee County,MI,NA,51.52941176470588,NA
49412,Newaygo County,MI,NA,83.52941176470588,NA
49421,Oceana County,MI,NA,NA,91.23867069486404
49428,Ottawa County,MI,NA,35.529411764705884,NA
49431,Mason County,MI,NA,NA,79.7583081570997
49442,Muskegon County,MI,3.2323232323232323,NA,NA
49509,Kent County,MI,15.757575757575756,NA,NA
49633,Kalkaska County,MI,NA,92.23529411764706,NA
49855,Marquette County,MI,47.27272727272727,NA,NA
49913,Houghton County,MI,NA,NA,42.59818731117825
49938,Gogebic County,MI,NA,NA,59.516616314199396
55009,Goodhue County,MN,74.54545454545455,NA,NA
55021,Rice County,MN,NA,44.70588235294118,NA
55057,Rice County,MN,NA,NA,71.6012084592145
55060,Steele County,MN,72.92929292929293,NA,NA
55101,Ramsey County,MN,NA,82.82352941176471,NA
55104,Ramsey County,MN,NA,44.94117647058823,NA
55109,Ramsey County,MN,NA,NA,27.492447129909365
55318,Carver County,MN,94.14141414141413,NA,NA
55320,Wright County,MN,NA,NA,95.01510574018127
55328,Wright County,MN,NA,92.47058823529412,NA
55336,McLeod County,MN,NA,75.52941176470588,NA
55364,Hennepin County,MN,83.63636363636363,92,NA
55404,Hennepin County,MN,NA,NA,36.555891238670696
55407,Hennepin County,MN,7.474747474747474,NA,NA
55436,Hennepin County,MN,NA,NA,76.13293051359517
55441,Hennepin County,MN,75.15151515151514,NA,NA
55443,Hennepin County,MN,NA,49.64705882352941,NA
55447,Hennepin County,MN,NA,NA,84.13897280966768
55454,Hennepin County,MN,NA,95.05882352941177,NA
55803,St. Louis County,MN,NA,NA,32.02416918429003
55912,Mower County,MN,NA,27.764705882352942,NA
56001,Blue Earth County,MN,81.01010101010101,NA,NA
56241,Yellow Medicine County,MN,NA,99.05882352941177,NA
56379,Benton County,MN,NA,80.23529411764706,NA
56470,Hubbard County,MN,71.11111111111111,NA,NA
56557,Norman County,MN,98.7878787878788,NA,NA
56601,Beltrami County,MN,29.09090909090909,NA,1.0574018126888218
56636,Itasca County,MN,NA,NA,74.47129909365559
38668,Tate County,MS,NA,NA,94.7129909365559
38829,Prentiss County,MS,50.70707070707071,NA,NA
38834,Alcorn County,MS,NA,NA,33.383685800604226
38863,Pontotoc County,MS,NA,62.588235294117645,NA
39046,Madison County,MS,NA,NA,58.45921450151057
39120,Adams County,MS,NA,NA,79.60725075528701
39168,Smith County,MS,NA,87.76470588235294,81.2688821752266
39183,Warren County,MS,NA,81.88235294117648,NA
39191,Copiah County,MS,NA,NA,97.88519637462235
39350,Neshoba County,MS,NA,34.588235294117645,NA
39440,Jones County,MS,NA,61.411764705882355,NA
39466,Pearl River County,MS,NA,17.41176470588235,NA
39503,Harrison County,MS,NA,NA,31.1178247734139
39565,Jackson County,MS,NA,42.58823529411765,NA
39574,Harrison County,MS,NA,NA,82.02416918429003
63033,St. Louis County,MO,NA,12.941176470588237,NA
63090,Franklin County,MO,NA,NA,46.22356495468278
63108,St. Louis city,MO,NA,56.470588235294116,NA
63111,St. Louis city,MO,NA,NA,91.6918429003021
63114,St. Louis County,MO,NA,NA,36.85800604229607
63119,St. Louis County,MO,NA,48.470588235294116,NA
63121,St. Louis County,MO,NA,53.64705882352941,NA
63126,St. Louis County,MO,NA,NA,49.244712990936556
63128,St. Louis County,MO,76.56565656565657,NA,NA
63134,St. Louis County,MO,44.24242424242424,NA,NA
63136,St. Louis County,MO,8.686868686868687,NA,NA
63379,Lincoln County,MO,NA,NA,33.081570996978854
63640,St. Francois County,MO,NA,NA,34.59214501510574
63645,Madison County,MO,NA,NA,55.135951661631424
63670,Ste. Genevieve County,MO,63.63636363636363,NA,NA
63701,Cape Girardeau County,MO,NA,NA,20.54380664652568
63801,Scott County,MO,NA,NA,16.46525679758308
64040,Johnson County,MO,NA,NA,95.9214501510574
64062,Ray County,MO,62.02020202020202,NA,NA
64113,Jackson County,MO,NA,NA,90.18126888217523
64124,Jackson County,MO,NA,68.94117647058823,NA
64130,Jackson County,MO,8.080808080808081,NA,NA
64136,Jackson County,MO,96.36363636363636,NA,NA
64138,Jackson County,MO,14.14141414141414,NA,NA
64154,Platte County,MO,77.17171717171716,NA,NA
64424,Harrison County,MO,88.08080808080808,NA,NA
64429,Clinton County,MO,53.13131313131313,NA,NA
64506,Buchanan County,MO,NA,NA,2.1148036253776437
64671,Caldwell County,MO,99.5959595959596,NA,NA
64850,Newton County,MO,84.44444444444444,NA,NA
64870,Jasper County,MO,48.08080808080808,NA,NA
65018,Moniteau County,MO,82.22222222222221,NA,NA
65078,Morgan County,MO,NA,NA,95.16616314199395
65202,Boone County,MO,62.82828282828283,NA,NA
65714,Christian County,MO,NA,NA,40.483383685800604
65785,Cedar County,MO,NA,NA,66.01208459214502
65807,Greene County,MO,NA,NA,6.193353474320242
59102,Yellowstone County,MT,77.57575757575758,NA,NA
59105,Yellowstone County,MT,NA,96.23529411764706,NA
59405,Cascade County,MT,NA,NA,6.7975830815709974
59701,Silver Bow County,MT,67.27272727272727,NA,50.30211480362537
59859,Sanders County,MT,NA,98.11764705882354,NA
59870,Ravalli County,MT,NA,NA,82.62839879154077
59901,Flathead County,MT,NA,NA,0.7552870090634441
68154,Douglas County,NE,NA,NA,92.90030211480362
68801,Hall County,NE,NA,NA,70.69486404833837
89103,Clark County,NV,56.76767676767677,NA,NA
89108,Clark County,NV,23.434343434343436,NA,NA
89121,Clark County,NV,29.292929292929294,34.35294117647059,31.419939577039273
89122,Clark County,NV,NA,NA,49.244712990936556
89147,Clark County,NV,NA,NA,54.833836858006045
89447,Lyon County,NV,NA,NA,85.64954682779457
89502,Washoe County,NV,NA,22.58823529411765,NA
89511,Washoe County,NV,NA,NA,43.80664652567976
89523,Washoe County,NV,57.97979797979798,NA,NA
89706,Carson City,NV,NA,NA,61.78247734138973
03038,Rockingham County,NH,NA,17.88235294117647,NA
03235,Merrimack County,NH,NA,NA,47.43202416918429
03431,Cheshire County,NH,NA,NA,6.042296072507553
03576,Coos County,NH,NA,NA,89.72809667673715
03741,Grafton County,NH,99.39393939393939,NA,NA
03860,Carroll County,NH,NA,NA,67.37160120845923
07002,Hudson County,NJ,1.8181818181818181,NA,NA
07005,Morris County,NJ,33.939393939393945,NA,NA
07011,Passaic County,NJ,NA,30.117647058823525,NA
07039,Essex County,NJ,NA,40.94117647058824,NA
07041,Essex County,NJ,NA,NA,91.54078549848943
07042,Essex County,NJ,NA,60.94117647058823,NA
07054,Morris County,NJ,NA,NA,33.53474320241692
07066,Union County,NJ,NA,NA,48.79154078549849
07073,Bergen County,NJ,68.08080808080808,NA,NA
07106,Essex County,NJ,4.444444444444445,NA,NA
07202,Union County,NJ,7.6767676767676765,NA,NA
07203,Union County,NJ,NA,NA,86.85800604229608
07208,Union County,NJ,NA,NA,45.16616314199396
07307,Hudson County,NJ,13.737373737373737,NA,NA
07410,Bergen County,NJ,NA,NA,32.3262839879154
07628,Bergen County,NJ,NA,69.6470588235294,NA
07630,Bergen County,NJ,NA,NA,74.01812688821752
07640,Bergen County,NJ,100,NA,NA
07650,Bergen County,NJ,NA,NA,72.35649546827794
07652,Bergen County,NJ,NA,NA,9.516616314199396
07712,Monmouth County,NJ,NA,36.23529411764706,NA
07740,Monmouth County,NJ,NA,6.588235294117648,NA
07821,Sussex County,NJ,NA,88.70588235294117,91.99395770392749
07828,Morris County,NJ,NA,NA,100
07834,Morris County,NJ,NA,76.23529411764706,NA
07860,Sussex County,NJ,NA,31.058823529411768,NA
07932,Morris County,NJ,NA,NA,78.54984894259819
08002,Camden County,NJ,NA,47.529411764705884,NA
08004,Camden County,NJ,60.2020202020202,NA,NA
08029,Camden County,NJ,NA,96.94117647058823,NA
08030,Camden County,NJ,NA,NA,87.46223564954683
08046,Burlington County,NJ,7.2727272727272725,NA,NA
08069,Salem County,NJ,NA,49.88235294117647,NA
08078,Camden County,NJ,NA,NA,83.53474320241692
08083,Camden County,NJ,NA,76,NA
08093,Gloucester County,NJ,38.98989898989899,NA,NA
08110,Camden County,NJ,16.363636363636363,NA,NA
08204,Cape May County,NJ,NA,NA,29.154078549848943
08302,Cumberland County,NJ,1.6161616161616161,NA,NA
08360,Cumberland County,NJ,NA,NA,18.12688821752266
08401,Atlantic County,NJ,NA,NA,19.486404833836858
08520,Mercer County,NJ,NA,65.64705882352942,NA
08530,Hunterdon County,NJ,NA,NA,78.24773413897282
08540,Mercer County,NJ,NA,NA,28.700906344410875
08690,Mercer County,NJ,NA,NA,51.51057401812689
08742,Ocean County,NJ,NA,NA,72.20543806646525
08759,Ocean County,NJ,NA,NA,0
87105,Bernalillo County,NM,NA,3.294117647058824,NA
87108,Bernalillo County,NM,NA,33.88235294117647,NA
87110,Bernalillo County,NM,NA,NA,8.761329305135952
87120,Bernalillo County,NM,NA,NA,20.996978851963746
87123,Bernalillo County,NM,NA,NA,14.19939577039275
87413,San Juan County,NM,55.15151515151515,NA,NA
87505,Santa Fe County,NM,5.05050505050505,NA,NA
87507,Santa Fe County,NM,NA,NA,18.429003021148034
88001,Doa Ana County,NM,28.28282828282828,NA,NA
88005,Doa Ana County,NM,45.25252525252525,NA,NA
88021,Doa Ana County,NM,78.78787878787878,NA,NA
88030,Luna County,NM,NA,NA,59.969788519637454
88203,Chaves County,NM,NA,19.76470588235294,59.3655589123867
88220,Eddy County,NM,NA,24.941176470588236,NA
88240,Lea County,NM,6.666666666666667,NA,NA
10002,New York County,NY,NA,NA,1.6616314199395772
10014,New York County,NY,NA,59.05882352941176,NA
10021,New York County,NY,NA,NA,16.46525679758308
10026,New York County,NY,NA,21.64705882352941,NA
10031,New York County,NY,10.303030303030303,NA,NA
10040,New York County,NY,NA,NA,30.815709969788518
10301,Richmond County,NY,NA,48,NA
10304,Richmond County,NY,NA,24,NA
10314,Richmond County,NY,NA,28.000000000000004,NA
10453,Bronx County,NY,NA,NA,13.293051359516618
10457,Bronx County,NY,5.656565656565657,0.4705882352941176,NA
10458,Bronx County,NY,NA,0.2352941176470588,5.740181268882175
10463,Bronx County,NY,NA,3.7647058823529407,NA
10956,Rockland County,NY,82.02020202020202,NA,NA
11050,Nassau County,NY,NA,NA,27.19033232628399
11104,Queens County,NY,87.67676767676768,NA,NA
11203,Kings County,NY,59.1919191919192,NA,NA
11210,Kings County,NY,NA,NA,30.060422960725074
11211,Kings County,NY,46.464646464646464,NA,NA
11215,Kings County,NY,34.54545454545455,NA,NA
11220,Kings County,NY,NA,4.235294117647059,12.83987915407855
11226,Kings County,NY,3.8383838383838382,NA,NA
11235,Kings County,NY,42.82828282828282,53.41176470588235,NA
11362,Queens County,NY,NA,NA,38.066465256797585
11368,Queens County,NY,31.717171717171716,NA,NA
11370,Queens County,NY,51.91919191919192,NA,NA
11372,Queens County,NY,32.121212121212125,NA,NA
11373,Queens County,NY,16.565656565656568,74.11764705882354,19.033232628398792
11379,Queens County,NY,NA,NA,48.94259818731118
11530,Nassau County,NY,NA,NA,53.625377643504535
11580,Nassau County,NY,NA,57.1764705882353,NA
11590,Nassau County,NY,NA,35.76470588235294,21.299093655589125
11703,Suffolk County,NY,NA,NA,62.08459214501511
11704,Suffolk County,NY,NA,NA,24.773413897280967
11722,Suffolk County,NY,24.646464646464647,NA,NA
11746,Suffolk County,NY,NA,NA,8.006042296072508
11756,Nassau County,NY,NA,NA,42.74924471299094
11758,Nassau County,NY,NA,NA,57.09969788519638
11762,Nassau County,NY,NA,NA,40.78549848942598
11783,Nassau County,NY,NA,NA,69.03323262839879
11971,Suffolk County,NY,NA,93.88235294117648,NA
12078,Fulton County,NY,NA,NA,8.308157099697885
12182,Rensselaer County,NY,NA,NA,73.71601208459214
12205,Albany County,NY,58.18181818181818,NA,NA
12306,Schenectady County,NY,NA,NA,44.561933534743204
12414,Greene County,NY,NA,41.647058823529406,NA
12601,Dutchess County,NY,31.11111111111111,NA,NA
12803,Saratoga County,NY,NA,82.35294117647058,NA
13035,Madison County,NY,NA,NA,99.54682779456193
13037,Madison County,NY,NA,98.58823529411764,NA
13041,Onondaga County,NY,73.33333333333333,NA,NA
13045,Cortland County,NY,NA,NA,39.87915407854985
13066,Onondaga County,NY,NA,57.88235294117647,NA
13142,Oswego County,NY,NA,NA,98.18731117824774
13205,Onondaga County,NY,44.64646464646464,NA,44.10876132930513
13413,Oneida County,NY,NA,NA,22.80966767371601
13760,Broome County,NY,1.0101010101010102,NA,NA
13833,Broome County,NY,77.37373737373737,NA,NA
13901,Broome County,NY,22.828282828282827,NA,NA
14057,Erie County,NY,NA,NA,83.08157099697885
14059,Erie County,NY,NA,79.76470588235294,NA
14127,Erie County,NY,NA,14.823529411764705,NA
14222,Erie County,NY,83.23232323232324,NA,NA
14223,Erie County,NY,NA,NA,70.84592145015107
14456,Ontario County,NY,NA,90.11764705882352,NA
14468,Monroe County,NY,20.606060606060606,NA,NA
14559,Monroe County,NY,NA,NA,28.09667673716012
14607,Monroe County,NY,NA,46.82352941176471,NA
14612,Monroe County,NY,NA,NA,29.305135951661633
14622,Monroe County,NY,NA,NA,68.7311178247734
14626,Monroe County,NY,NA,3.058823529411765,NA
14772,Cattaraugus County,NY,90.7070707070707,NA,NA
14850,Tompkins County,NY,NA,NA,26.586102719033235
14886,Tompkins County,NY,NA,NA,96.37462235649546
14892,Tioga County,NY,NA,59.05882352941176,NA
27106,Forsyth County,NC,NA,NA,0.906344410876133
27203,Randolph County,NC,NA,NA,61.329305135951664
27262,Guilford County,NC,43.23232323232323,NA,NA
27278,Orange County,NC,NA,12.470588235294118,NA
27284,Forsyth County,NC,NA,0.9411764705882352,NA
27301,Guilford County,NC,NA,80.47058823529412,NA
27501,Harnett County,NC,55.35353535353536,NA,NA
27504,Johnston County,NC,NA,NA,72.9607250755287
27505,Harnett County,NC,87.87878787878788,NA,NA
27519,Wake County,NC,51.717171717171716,NA,NA
27530,Wayne County,NC,17.97979797979798,NA,NA
27536,Vance County,NC,NA,NA,18.882175226586103
27546,Harnett County,NC,65.65656565656566,NA,NA
27577,Johnston County,NC,NA,NA,21.75226586102719
27603,Wake County,NC,NA,NA,44.71299093655589
27701,Durham County,NC,NA,84.23529411764706,NA
27863,Wayne County,NC,86.86868686868688,NA,NA
27889,Beaufort County,NC,NA,26.11764705882353,NA
27909,Pasquotank County,NC,15.555555555555555,NA,NA
27910,Hertford County,NC,NA,55.529411764705884,NA
28023,Rowan County,NC,71.71717171717171,NA,NA
28025,Cabarrus County,NC,13.333333333333334,13.176470588235295,NA
28075,Cabarrus County,NC,NA,77.64705882352942,NA
28083,Cabarrus County,NC,NA,NA,74.16918429003022
28098,Gaston County,NC,97.37373737373738,NA,NA
28110,Union County,NC,23.83838383838384,NA,NA
28112,Union County,NC,NA,40,NA
28147,Rowan County,NC,NA,NA,66.76737160120845
28173,Union County,NC,NA,NA,41.389728096676734
28215,Mecklenburg County,NC,18.383838383838384,20.235294117647058,NA
28278,Mecklenburg County,NC,85.85858585858585,NA,NA
28327,Moore County,NC,NA,64.23529411764706,NA
28334,Sampson County,NC,NA,32,39.42598187311178
28340,Robeson County,NC,60.4040404040404,NA,NA
28365,Wayne County,NC,NA,76.47058823529412,NA
28379,Richmond County,NC,NA,30.58823529411765,NA
28411,New Hanover County,NC,38.58585858585858,NA,NA
28470,Brunswick County,NC,NA,NA,87.16012084592145
28472,Columbus County,NC,NA,48.470588235294116,46.82779456193353
28555,Onslow County,NC,95.35353535353536,NA,NA
28557,Carteret County,NC,NA,46.35294117647059,NA
28560,Craven County,NC,NA,NA,50.15105740181269
28562,Craven County,NC,42.22222222222222,NA,NA
28586,Craven County,NC,84.04040404040404,NA,NA
28590,Pitt County,NC,66.06060606060606,NA,NA
28625,Iredell County,NC,NA,NA,22.054380664652566
28636,Alexander County,NC,91.71717171717172,NA,NA
28651,Wilkes County,NC,NA,81.17647058823529,NA
28659,Wilkes County,NC,NA,31.529411764705884,NA
28748,Buncombe County,NC,65.45454545454545,NA,NA
28791,Henderson County,NC,NA,NA,13.141993957703926
28803,Buncombe County,NC,NA,NA,21.45015105740181
28806,Buncombe County,NC,NA,NA,73.56495468277946
58201,Grand Forks County,ND,NA,NA,2.416918429003021
43023,Licking County,OH,NA,NA,83.38368580060424
43054,Franklin County,OH,81.21212121212122,NA,NA
43056,Licking County,OH,NA,40.23529411764706,NA
43062,Licking County,OH,NA,33.64705882352941,NA
43130,Fairfield County,OH,2.2222222222222223,NA,NA
43201,Franklin County,OH,NA,94.35294117647058,NA
43206,Franklin County,OH,NA,NA,63.44410876132931
43211,Franklin County,OH,13.131313131313133,NA,NA
43215,Franklin County,OH,NA,79.52941176470588,NA
43219,Franklin County,OH,18.181818181818183,NA,NA
43227,Franklin County,OH,24.242424242424242,NA,NA
43229,Franklin County,OH,NA,8.470588235294118,NA
43232,Franklin County,OH,NA,14.352941176470587,NA
43235,Franklin County,OH,NA,NA,27.64350453172205
43338,Morrow County,OH,NA,NA,60.27190332326284
43402,Wood County,OH,NA,14.588235294117647,NA
43420,Sandusky County,OH,12.525252525252526,NA,19.637462235649547
43609,Lucas County,OH,4.646464646464646,NA,NA
43619,Wood County,OH,69.2929292929293,NA,NA
43701,Muskingum County,OH,0.40404040404040403,NA,1.3595166163141994
43832,Tuscarawas County,OH,64.44444444444444,NA,NA
43920,Columbiana County,OH,NA,9.647058823529411,NA
44022,Cuyahoga County,OH,NA,NA,17.97583081570997
44035,Lorain County,OH,0,0,NA
44052,Lorain County,OH,NA,1.647058823529412,NA
44057,Lake County,OH,29.6969696969697,NA,NA
44060,Lake County,OH,30.909090909090907,NA,NA
44077,Lake County,OH,NA,NA,0.6042296072507553
44087,Summit County,OH,NA,15.529411764705884,NA
44090,Lorain County,OH,NA,NA,60.57401812688822
44094,Lake County,OH,NA,NA,1.5105740181268883
44095,Lake County,OH,NA,NA,4.531722054380665
44113,Cuyahoga County,OH,9.494949494949495,NA,NA
44135,Cuyahoga County,OH,20.404040404040405,NA,NA
44203,Summit County,OH,6.8686868686868685,NA,NA
44240,Portage County,OH,NA,23.058823529411764,NA
44256,Medina County,OH,4.040404040404041,NA,NA
44313,Summit County,OH,NA,NA,13.444108761329304
44321,Summit County,OH,NA,48.94117647058824,NA
44333,Summit County,OH,NA,47.76470588235294,NA
44425,Trumbull County,OH,NA,28.705882352941174,NA
44445,Columbiana County,OH,NA,99.76470588235294,NA
44460,Columbiana County,OH,NA,8,NA
44484,Trumbull County,OH,NA,NA,16.012084592145015
44505,Mahoning County,OH,NA,40.705882352941174,NA
44511,Mahoning County,OH,NA,NA,57.55287009063444
44512,Mahoning County,OH,61.01010101010102,NA,14.350453172205437
44514,Mahoning County,OH,NA,NA,58.30815709969789
44614,Stark County,OH,78.3838383838384,NA,NA
44663,Tuscarawas County,OH,NA,NA,10.725075528700906
44685,Summit County,OH,NA,NA,23.564954682779458
44708,Stark County,OH,NA,72.47058823529412,NA
44710,Stark County,OH,NA,NA,71.29909365558912
44811,Sandusky County,OH,NA,NA,75.52870090634441
44833,Crawford County,OH,NA,18.823529411764707,NA
44839,Erie County,OH,NA,43.529411764705884,NA
44857,Huron County,OH,24.04040404040404,NA,NA
44870,Erie County,OH,2.6262626262626263,NA,NA
44883,Seneca County,OH,21.01010101010101,NA,NA
44890,Huron County,OH,42.42424242424242,NA,NA
45005,Warren County,OH,NA,NA,28.851963746223564
45011,Butler County,OH,NA,2.588235294117647,10.27190332326284
45213,Hamilton County,OH,NA,NA,95.31722054380664
45230,Hamilton County,OH,55.959595959595966,NA,NA
45233,Hamilton County,OH,NA,73.1764705882353,NA
45236,Hamilton County,OH,56.16161616161616,NA,NA
45241,Hamilton County,OH,NA,NA,45.770392749244714
45320,Preble County,OH,NA,75.05882352941177,NA
45322,Montgomery County,OH,41.01010101010101,NA,NA
45344,Clark County,OH,62.22222222222222,NA,70.2416918429003
45377,Montgomery County,OH,NA,NA,61.933534743202415
45380,Darke County,OH,NA,NA,94.25981873111783
45385,Greene County,OH,41.61616161616162,NA,NA
45406,Montgomery County,OH,NA,NA,87.00906344410876
45458,Montgomery County,OH,NA,NA,24.622356495468278
45503,Clark County,OH,NA,11.058823529411764,NA
45505,Clark County,OH,NA,60.705882352941174,NA
45601,Ross County,OH,NA,NA,0.1510574018126888
45628,Ross County,OH,NA,NA,82.17522658610272
45661,Pike County,OH,50.505050505050505,NA,NA
45662,Scioto County,OH,NA,NA,3.7764350453172204
45723,Athens County,OH,88.48484848484848,NA,NA
45801,Allen County,OH,NA,25.41176470588235,NA
45833,Allen County,OH,NA,NA,83.23262839879155
45843,Hardin County,OH,99.79797979797979,NA,NA
73072,Cleveland County,OK,NA,NA,34.894259818731115
73112,Oklahoma County,OK,37.37373737373738,NA,NA
73160,Cleveland County,OK,14.747474747474747,NA,NA
74047,Tulsa County,OK,NA,NA,96.82779456193353
74075,Payne County,OK,65.85858585858585,NA,NA
74127,Tulsa County,OK,66.86868686868686,NA,NA
74129,Tulsa County,OK,NA,NA,78.3987915407855
74135,Tulsa County,OK,NA,NA,34.74320241691843
74145,Tulsa County,OK,NA,NA,86.70694864048339
74301,Craig County,OK,NA,NA,71.14803625377644
74403,Muskogee County,OK,34.14141414141414,NA,27.0392749244713
97002,Marion County,OR,NA,93.17647058823529,NA
97015,Clackamas County,OR,81.81818181818183,74.3529411764706,NA
97086,Clackamas County,OR,NA,71.76470588235294,NA
97123,Washington County,OR,NA,NA,20.39274924471299
97206,Multnomah County,OR,NA,NA,35.04531722054381
97212,Multnomah County,OR,NA,89.64705882352942,NA
97219,Multnomah County,OR,NA,NA,56.49546827794561
97224,Washington County,OR,NA,73.88235294117646,NA
97303,Marion County,OR,NA,50.8235294117647,NA
97420,Coos County,OR,NA,46.11764705882353,NA
97458,Coos County,OR,NA,91.29411764705883,NA
97487,Lane County,OR,NA,NA,83.83685800604229
97520,Jackson County,OR,NA,52,NA
97603,Klamath County,OR,NA,NA,3.625377643504532
97624,Klamath County,OR,97.97979797979798,NA,NA
15001,Beaver County,PA,NA,17.88235294117647,NA
15025,Allegheny County,PA,NA,NA,62.688821752265866
15065,Allegheny County,PA,NA,NA,44.259818731117825
15068,Westmoreland County,PA,NA,NA,47.88519637462236
15106,Allegheny County,PA,NA,NA,66.16314199395771
15122,Allegheny County,PA,NA,NA,17.522658610271904
15129,Allegheny County,PA,NA,NA,82.77945619335347
15209,Allegheny County,PA,NA,NA,56.34441087613293
15212,Allegheny County,PA,26.262626262626267,NA,NA
15215,Allegheny County,PA,NA,NA,64.8036253776435
15219,Allegheny County,PA,NA,54.8235294117647,NA
15227,Allegheny County,PA,39.39393939393939,NA,NA
15237,Allegheny County,PA,NA,26.11764705882353,25.377643504531722
15239,Allegheny County,PA,84.64646464646465,NA,NA
15666,Westmoreland County,PA,NA,36.23529411764706,NA
15701,Indiana County,PA,NA,17.176470588235293,12.688821752265861
15824,Jefferson County,PA,NA,85.41176470588235,NA
16001,Butler County,PA,NA,1.411764705882353,NA
16314,Crawford County,PA,NA,75.29411764705883,NA
16323,Venango County,PA,NA,NA,43.202416918429
16508,Erie County,PA,NA,65.41176470588236,NA
16601,Blair County,PA,NA,7.294117647058823,NA
16602,Blair County,PA,NA,11.76470588235294,NA
16652,Huntingdon County,PA,41.21212121212121,NA,NA
16686,Blair County,PA,91.91919191919192,NA,NA
16701,McKean County,PA,NA,26.588235294117645,NA
17015,Cumberland County,PA,45.85858585858586,NA,NA
17022,Lancaster County,PA,69.6969696969697,NA,NA
17078,Lebanon County,PA,NA,NA,5.438066465256798
17111,Dauphin County,PA,NA,NA,36.102719033232624
17257,Cumberland County,PA,NA,28.235294117647058,NA
17315,York County,PA,NA,NA,41.99395770392749
17350,Adams County,PA,63.030303030303024,NA,NA
17702,Lycoming County,PA,NA,75.76470588235294,NA
17972,Schuylkill County,PA,NA,61.1764705882353,NA
18049,Lehigh County,PA,NA,77.88235294117646,NA
18062,Lehigh County,PA,NA,35.05882352941177,24.169184290030213
18091,Northampton County,PA,NA,NA,69.18429003021149
18109,Lehigh County,PA,NA,52.23529411764706,NA
18202,Luzerne County,PA,50.90909090909091,NA,NA
18328,Pike County,PA,NA,NA,88.82175226586104
18505,Lackawanna County,PA,NA,NA,50
18702,Luzerne County,PA,NA,4.470588235294118,NA
18964,Montgomery County,PA,NA,NA,68.8821752265861
19006,Montgomery County,PA,NA,NA,43.051359516616316
19010,Delaware County,PA,61.41414141414141,NA,NA
19020,Bucks County,PA,NA,NA,11.027190332326283
19046,Montgomery County,PA,NA,NA,35.196374622356494
19063,Delaware County,PA,58.78787878787879,48.23529411764706,NA
19067,Bucks County,PA,NA,NA,9.667673716012084
19082,Delaware County,PA,39.5959595959596,NA,NA
19096,Montgomery County,PA,NA,NA,62.839879154078545
19106,Philadelphia County,PA,NA,NA,59.516616314199396
19111,Philadelphia County,PA,NA,80.70588235294117,NA
19115,Philadelphia County,PA,NA,NA,45.61933534743202
19124,Philadelphia County,PA,NA,NA,66.91842900302115
19125,Philadelphia County,PA,NA,82.58823529411765,NA
19126,Philadelphia County,PA,NA,NA,60.42296072507553
19132,Philadelphia County,PA,6.4646464646464645,NA,NA
19133,Philadelphia County,PA,NA,38.588235294117645,NA
19136,Philadelphia County,PA,NA,NA,37.31117824773414
19144,Philadelphia County,PA,NA,NA,18.429003021148034
19145,Philadelphia County,PA,8.88888888888889,NA,32.17522658610272
19154,Philadelphia County,PA,18.787878787878785,NA,NA
19311,Chester County,PA,NA,91.05882352941177,96.07250755287009
19335,Chester County,PA,NA,NA,32.779456193353475
19355,Chester County,PA,43.43434343434344,NA,NA
19390,Chester County,PA,NA,62.82352941176471,NA
19406,Montgomery County,PA,NA,NA,53.32326283987915
19428,Montgomery County,PA,49.494949494949495,NA,NA
19438,Montgomery County,PA,NA,NA,30.664652567975832
19446,Montgomery County,PA,47.67676767676768,NA,NA
19460,Chester County,PA,NA,25.882352941176475,NA
19530,Berks County,PA,98.98989898989899,NA,NA
19610,Berks County,PA,NA,NA,22.9607250755287
02806,Bristol County,RI,NA,NA,58.006042296072515
02828,Providence County,RI,NA,NA,72.80966767371602
02864,Providence County,RI,NA,16.235294117647058,NA
02878,Newport County,RI,NA,56.23529411764706,NA
02888,Kent County,RI,NA,78.82352941176471,NA
02909,Providence County,RI,21.818181818181817,NA,NA
29130,Fairfield County,SC,NA,NA,93.80664652567975
29150,Sumter County,SC,NA,NA,19.335347432024168
29154,Sumter County,SC,53.939393939393945,NA,NA
29161,Florence County,SC,NA,NA,99.09365558912387
29203,Richland County,SC,NA,NA,33.23262839879154
29210,Richland County,SC,NA,NA,52.26586102719033
29223,Richland County,SC,25.454545454545453,NA,12.084592145015106
29334,Spartanburg County,SC,80.2020202020202,NA,NA
29356,Spartanburg County,SC,NA,NA,98.79154078549848
29405,Charleston County,SC,NA,NA,61.17824773413897
29418,Charleston County,SC,40.60606060606061,NA,NA
29466,Charleston County,SC,NA,NA,36.40483383685801
29483,Dorchester County,SC,51.31313131313131,NA,NA
29485,Dorchester County,SC,28.888888888888886,35.294117647058826,NA
29550,Darlington County,SC,NA,NA,38.368580060422964
29579,Horry County,SC,NA,NA,39.577039274924466
29588,Horry County,SC,38.18181818181819,NA,NA
29644,Greenville County,SC,54.34343434343434,NA,NA
29662,Greenville County,SC,NA,62.35294117647059,NA
29670,Anderson County,SC,NA,84,NA
29671,Pickens County,SC,NA,NA,34.29003021148036
29672,Oconee County,SC,NA,72,NA
29709,Chesterfield County,SC,NA,94.82352941176471,NA
29715,York County,SC,NA,NA,68.27794561933534
29745,York County,SC,54.74747474747475,NA,75.98187311178248
29944,Hampton County,SC,95.15151515151516,NA,NA
37027,Williamson County,TN,NA,24.705882352941178,56.19335347432024
37040,Montgomery County,TN,NA,NA,67.22054380664653
37064,Williamson County,TN,NA,NA,79.90936555891238
37075,Sumner County,TN,NA,6.11764705882353,NA
37076,Davidson County,TN,NA,36,NA
37087,Wilson County,TN,NA,NA,27.794561933534744
37110,Warren County,TN,19.5959595959596,NA,25.226586102719033
37172,Robertson County,TN,NA,NA,56.948640483383684
37324,Franklin County,TN,NA,NA,96.22356495468279
37334,Lincoln County,TN,37.77777777777778,NA,NA
37336,Bradley County,TN,94.74747474747474,NA,NA
37398,Franklin County,TN,47.878787878787875,NA,NA
37659,Washington County,TN,NA,68,NA
37683,Johnson County,TN,NA,65.88235294117646,NA
37821,Cocke County,TN,NA,68.94117647058823,NA
37857,Hawkins County,TN,NA,NA,36.25377643504532
37918,Knox County,TN,17.17171717171717,NA,NA
37920,Knox County,TN,NA,16.941176470588236,NA
37932,Knox County,TN,NA,70.11764705882354,NA
38006,Crockett County,TN,NA,NA,98.03625377643505
38008,Hardeman County,TN,NA,NA,77.49244712990937
38305,Madison County,TN,NA,10.352941176470589,NA
38344,Carroll County,TN,NA,84.47058823529412,NA
38372,Hardin County,TN,NA,NA,36.70694864048338
38556,Fentress County,TN,NA,45.1764705882353,NA
38570,Overton County,TN,NA,NA,83.68580060422961
38585,Van Buren County,TN,NA,NA,95.46827794561933
75007,Denton County,TX,NA,NA,33.8368580060423
75013,Collin County,TX,NA,71.05882352941177,NA
75020,Grayson County,TX,NA,NA,42.296072507552864
75023,Collin County,TX,56.56565656565656,39.76470588235294,85.49848942598187
75043,Dallas County,TX,22.22222222222222,NA,NA
75056,Denton County,TX,NA,NA,67.6737160120846
75076,Grayson County,TX,NA,NA,90.6344410876133
75080,Dallas County,TX,NA,NA,15.256797583081571
75088,Dallas County,TX,NA,50.117647058823536,NA
75092,Grayson County,TX,NA,NA,52.87009063444109
75098,Collin County,TX,NA,NA,61.631419939577036
75142,Kaufman County,TX,NA,NA,64.35045317220543
75180,Dallas County,TX,70.1010101010101,NA,NA
75189,Rockwall County,TX,47.474747474747474,NA,NA
75201,Dallas County,TX,79.7979797979798,NA,NA
75205,Dallas County,TX,68.68686868686868,NA,NA
75208,Dallas County,TX,66.26262626262627,NA,NA
75218,Dallas County,TX,NA,63.05882352941177,NA
75231,Dallas County,TX,NA,68.23529411764706,NA
75237,Dallas County,TX,NA,77.88235294117646,NA
75243,Dallas County,TX,16.969696969696972,NA,NA
75501,Bowie County,TX,32.323232323232325,NA,NA
75754,Van Zandt County,TX,NA,NA,82.17522658610272
75762,Smith County,TX,NA,NA,52.567975830815705
75904,Angelina County,TX,NA,NA,37.160120845921455
75972,San Augustine County,TX,NA,NA,90.78549848942599
76049,Hood County,TX,40,22.35294117647059,NA
76082,Parker County,TX,NA,51.76470588235295,NA
76087,Parker County,TX,70.9090909090909,NA,NA
76104,Tarrant County,TX,23.232323232323232,NA,NA
76105,Tarrant County,TX,NA,26.823529411764707,NA
76107,Tarrant County,TX,NA,NA,88.21752265861026
76133,Tarrant County,TX,NA,NA,20.694864048338367
76179,Tarrant County,TX,NA,37.88235294117647,61.329305135951664
76210,Denton County,TX,NA,NA,69.93957703927492
76240,Cooke County,TX,41.41414141414141,NA,NA
76249,Denton County,TX,94.94949494949495,NA,NA
76305,Wichita County,TX,NA,92.70588235294117,NA
76306,Wichita County,TX,67.87878787878789,NA,NA
76308,Wichita County,TX,85.25252525252526,NA,NA
76310,Wichita County,TX,NA,79.29411764705883,NA
76384,Wilbarger County,TX,NA,63.05882352941177,NA
76501,Bell County,TX,NA,5.647058823529412,NA
76541,Bell County,TX,48.484848484848484,NA,NA
76634,Bosque County,TX,NA,NA,64.50151057401813
76834,Coleman County,TX,NA,NA,93.202416918429
76901,Tom Green County,TX,52.323232323232325,NA,NA
77005,Harris County,TX,NA,60.23529411764705,NA
77012,Harris County,TX,NA,80.94117647058823,89.57703927492447
77034,Harris County,TX,62.22222222222222,NA,NA
77036,Harris County,TX,NA,NA,54.38066465256798
77038,Harris County,TX,NA,89.88235294117646,NA
77055,Harris County,TX,NA,61.882352941176464,NA
77064,Harris County,TX,NA,NA,69.33534743202418
77065,Harris County,TX,NA,NA,37.764350453172206
77085,Harris County,TX,NA,81.41176470588235,NA
77089,Harris County,TX,NA,36.94117647058823,NA
77096,Harris County,TX,63.83838383838384,49.411764705882355,NA
77304,Montgomery County,TX,NA,57.88235294117647,NA
77429,Harris County,TX,14.343434343434344,NA,NA
77461,Fort Bend County,TX,97.77777777777777,NA,NA
77474,Austin County,TX,93.13131313131314,NA,NA
77479,Fort Bend County,TX,NA,NA,29.758308157099698
77480,Brazoria County,TX,89.0909090909091,NA,NA
77520,Harris County,TX,NA,NA,56.04229607250756
77521,Harris County,TX,NA,NA,37.31117824773414
77546,Galveston County,TX,NA,10.117647058823529,NA
77573,Galveston County,TX,NA,4,NA
77642,Jefferson County,TX,NA,NA,54.53172205438066
77701,Jefferson County,TX,80.4040404040404,70.58823529411765,NA
77833,Washington County,TX,NA,31.294117647058822,NA
77845,Brazos County,TX,11.717171717171718,NA,2.8700906344410875
77859,Robertson County,TX,85.45454545454545,NA,NA
78065,Atascosa County,TX,88.68686868686869,NA,NA
78069,Atascosa County,TX,91.31313131313131,NA,NA
78207,Bexar County,TX,NA,NA,19.788519637462233
78209,Bexar County,TX,67.67676767676768,NA,NA
78210,Bexar County,TX,NA,NA,53.92749244712991
78213,Bexar County,TX,49.696969696969695,NA,NA
78242,Bexar County,TX,51.515151515151516,NA,NA
78247,Bexar County,TX,56.76767676767677,NA,NA
78254,Bexar County,TX,NA,NA,75.83081570996978
78405,Nueces County,TX,NA,84.70588235294117,NA
78541,Hidalgo County,TX,NA,64.70588235294117,NA
78577,Hidalgo County,TX,29.898989898989896,NA,NA
78584,Starr County,TX,NA,NA,91.08761329305136
78613,Williamson County,TX,NA,NA,5.740181268882175
78633,Williamson County,TX,NA,NA,0.3021148036253776
78717,Williamson County,TX,NA,90.58823529411765,NA
78741,Travis County,TX,75.55555555555556,NA,NA
78744,Travis County,TX,NA,NA,89.42598187311178
78749,Travis County,TX,89.29292929292929,NA,NA
78840,Val Verde County,TX,31.313131313131315,NA,NA
78861,Medina County,TX,NA,85.1764705882353,NA
78957,Bastrop County,TX,NA,NA,84.59214501510573
79103,Potter County,TX,NA,NA,98.48942598187311
79415,Lubbock County,TX,NA,NA,89.12386706948641
79416,Lubbock County,TX,96.96969696969697,NA,NA
79602,Taylor County,TX,NA,56.00000000000001,NA
79707,Midland County,TX,34.34343434343434,NA,NA
79772,Reeves County,TX,NA,NA,93.35347432024169
79912,El Paso County,TX,NA,NA,19.939577039274926
79938,El Paso County,TX,32.72727272727273,NA,NA
84020,Salt Lake County,UT,46.26262626262626,67.05882352941175,NA
84040,Davis County,UT,NA,NA,80.21148036253777
84057,Utah County,UT,NA,NA,90.33232628398792
84081,Salt Lake County,UT,NA,NA,99.39577039274926
84088,Salt Lake County,UT,NA,NA,77.94561933534743
84098,Summit County,UT,68.88888888888889,NA,NA
84107,Salt Lake County,UT,NA,NA,28.247734138972806
84117,Salt Lake County,UT,NA,NA,30.966767371601208
84119,Salt Lake County,UT,NA,NA,74.62235649546828
84414,Weber County,UT,76.36363636363637,NA,NA
05143,Windsor County,VT,97.17171717171718,NA,NA
20105,Loudoun County,VA,NA,NA,99.69788519637463
20124,Fairfax County,VA,92.52525252525253,NA,NA
20147,Loudoun County,VA,NA,NA,11.782477341389729
20155,Prince William County,VA,65.05050505050505,NA,NA
22033,Fairfax County,VA,65.25252525252525,NA,NA
22041,Fairfax County,VA,NA,71.29411764705881,NA
22181,Fairfax County,VA,NA,NA,99.8489425981873
22657,Shenandoah County,VA,NA,NA,43.353474320241695
22942,Louisa County,VA,82.42424242424242,NA,NA
22980,Waynesboro city,VA,10.909090909090908,NA,NA
23059,Henrico County,VA,NA,NA,87.61329305135952
23111,Hanover County,VA,NA,16,NA
23113,Chesterfield County,VA,NA,NA,49.546827794561935
23114,Chesterfield County,VA,89.29292929292929,NA,NA
23223,Henrico County,VA,NA,11.529411764705882,NA
23225,Richmond city,VA,NA,NA,28.54984894259819
23231,Henrico County,VA,NA,18.58823529411765,NA
23233,Henrico County,VA,NA,95.76470588235294,NA
23238,Henrico County,VA,NA,NA,40.181268882175225
23831,Chesterfield County,VA,NA,NA,45.01510574018127
24019,Roanoke County,VA,60,NA,NA
24073,Montgomery County,VA,NA,NA,46.97885196374622
24084,Pulaski County,VA,81.41414141414141,NA,NA
24354,Smyth County,VA,NA,43.76470588235294,NA
98001,King County,WA,44.44444444444444,NA,NA
98006,King County,WA,61.61616161616161,33.411764705882355,NA
98026,Snohomish County,WA,35.15151515151515,NA,NA
98074,King County,WA,87.07070707070706,NA,NA
98112,King County,WA,NA,NA,65.10574018126889
98115,King County,WA,NA,NA,25.528700906344408
98125,King County,WA,NA,39.294117647058826,NA
98204,Snohomish County,WA,27.878787878787882,NA,NA
98208,Snohomish County,WA,NA,30.58823529411765,47.2809667673716
98282,Island County,WA,NA,NA,46.37462235649547
98310,Kitsap County,WA,NA,NA,42.90030211480362
98312,Kitsap County,WA,40.2020202020202,NA,NA
98362,Clallam County,WA,NA,NA,4.380664652567976
98387,Pierce County,WA,NA,25.647058823529413,NA
98388,Pierce County,WA,NA,NA,98.94259818731118
98402,Pierce County,WA,NA,94.58823529411765,NA
98405,Pierce County,WA,NA,66.58823529411765,NA
98528,Mason County,WA,NA,NA,98.33836858006042
98664,Clark County,WA,NA,NA,97.58308157099698
98683,Clark County,WA,NA,74.82352941176471,NA
98801,Chelan County,WA,26.464646464646464,NA,NA
99109,Stevens County,WA,NA,NA,80.51359516616314
99202,Spokane County,WA,NA,89.41176470588236,NA
99207,Spokane County,WA,NA,NA,64.8036253776435
20001,District of Columbia,DC,23.03030303030303,NA,NA
20002,District of Columbia,DC,5.858585858585859,NA,NA
20011,District of Columbia,DC,10.1010101010101,NA,NA
20012,District of Columbia,DC,83.43434343434343,NA,NA
25309,Kanawha County,WV,NA,NA,49.69788519637463
25401,Berkeley County,WV,38.38383838383838,NA,NA
25403,Berkeley County,WV,NA,NA,98.64048338368579
25443,Jefferson County,WV,92.12121212121212,NA,NA
25801,Raleigh County,WV,NA,NA,40.78549848942598
25951,Summers County,WV,NA,NA,75.07552870090635
26062,Hancock County,WV,NA,NA,8.91238670694864
26187,Wood County,WV,71.91919191919192,NA,NA
26330,Harrison County,WV,NA,NA,30.362537764350456
26501,Monongalia County,WV,NA,32.94117647058823,NA
26554,Marion County,WV,NA,15.058823529411763,3.474320241691843
53005,Waukesha County,WI,74.74747474747475,NA,NA
53045,Waukesha County,WI,NA,NA,18.731117824773413
53095,Washington County,WI,54.74747474747475,NA,23.716012084592144
53105,Racine County,WI,18.585858585858585,NA,NA
53115,Walworth County,WI,NA,43.76470588235294,NA
53121,Walworth County,WI,46.666666666666664,NA,NA
53147,Walworth County,WI,NA,41.17647058823529,NA
53181,Kenosha County,WI,64.24242424242425,NA,NA
53186,Waukesha County,WI,29.494949494949495,NA,NA
53190,Walworth County,WI,NA,63.52941176470588,NA
53206,Milwaukee County,WI,11.515151515151516,NA,NA
53209,Milwaukee County,WI,NA,1.1764705882352942,NA
53217,Milwaukee County,WI,NA,30.352941176470587,NA
53219,Milwaukee County,WI,20.80808080808081,NA,NA
53402,Racine County,WI,NA,1.8823529411764703,1.9637462235649545
53538,Jefferson County,WI,NA,NA,24.3202416918429
53704,Dane County,WI,NA,16.705882352941178,NA
53711,Dane County,WI,NA,54.11764705882353,NA
54130,Outagamie County,WI,NA,NA,75.22658610271903
54301,Brown County,WI,80.60606060606061,NA,NA
54302,Brown County,WI,27.67676767676768,NA,NA
54303,Brown County,WI,48.68686868686869,NA,NA
54401,Marathon County,WI,NA,NA,15.709969788519636
54452,Lincoln County,WI,NA,NA,21.148036253776432
54455,Marathon County,WI,73.93939393939394,NA,NA
54481,Portage County,WI,NA,17.88235294117647,NA
54660,Monroe County,WI,NA,NA,67.06948640483384
54911,Outagamie County,WI,NA,NA,70.54380664652568
54915,Outagamie County,WI,36.56565656565657,NA,NA
54952,Winnebago County,WI,NA,42.35294117647059,58.76132930513596
82072,Albany County,WY,NA,92.94117647058823,NA
82401,Washakie County,WY,90.5050505050505,NA,NA
