ZipCode,county,state,Adult,Retirement,Geriatric
35023,Jefferson County,AL,31.763527054108216,NA,NA
35064,Jefferson County,AL,NA,NA,96.19686800894854
35080,Shelby County,AL,59.4188376753507,NA,NA
35125,St. Clair County,AL,57.31462925851704,NA,NA
35127,Jefferson County,AL,82.56513026052104,NA,NA
35160,Talladega County,AL,17.535070140280563,NA,NA
35180,Jefferson County,AL,68.8376753507014,NA,NA
35442,Pickens County,AL,84.46893787575151,NA,NA
35550,Walker County,AL,79.15831663326654,NA,NA
35555,Fayette County,AL,85.67134268537075,NA,NA
35622,Morgan County,AL,NA,NA,90.82774049217002
35630,Lauderdale County,AL,32.26452905811623,NA,NA
35640,Morgan County,AL,NA,36.054421768707485,NA
35661,Colbert County,AL,NA,NA,87.69574944071589
35758,Madison County,AL,NA,38.775510204081634,NA
35763,Madison County,AL,NA,57.48299319727891,NA
35773,Madison County,AL,NA,65.47619047619048,NA
35805,Madison County,AL,NA,NA,70.46979865771812
35824,Madison County,AL,NA,98.46938775510205,NA
36104,Montgomery County,AL,NA,74.14965986394559,NA
36207,Calhoun County,AL,57.414829659318634,NA,NA
36272,Calhoun County,AL,47.795591182364724,NA,NA
36301,Houston County,AL,20.541082164328657,NA,NA
36330,Coffee County,AL,NA,35.544217687074834,NA
36441,Escambia County,AL,97.09418837675351,NA,NA
36526,Baldwin County,AL,51.903807615230455,NA,NA
36532,Baldwin County,AL,NA,NA,20.3579418344519
36535,Baldwin County,AL,NA,NA,31.096196868008946
36542,Baldwin County,AL,77.05410821643287,NA,NA
36608,Mobile County,AL,NA,47.27891156462585,57.494407158836694
36804,Lee County,AL,NA,71.08843537414967,NA
36830,Lee County,AL,NA,NA,55.48098434004475
36862,Chambers County,AL,NA,88.43537414965986,NA
99503,Anchorage Municipality,AK,46.392785571142284,NA,NA
99504,Anchorage Municipality,AK,NA,42.00680272108844,NA
99508,Anchorage Municipality,AK,19.438877755511022,NA,NA
99603,Kenai Peninsula Borough,AK,76.05210420841684,NA,NA
99604,Wade Hampton Census Area,AK,99.6993987975952,NA,NA
99615,Kodiak Island Borough,AK,79.75951903807615,NA,NA
99623,,AK,NA,86.22448979591837,NA
99654,Matanuska-Susitna Borough,AK,NA,40.98639455782313,NA
99669,Kenai Peninsula Borough,AK,NA,NA,97.53914988814317
85007,Maricopa County,AZ,12.024048096192384,NA,NA
85009,Maricopa County,AZ,14.32865731462926,24.31972789115646,NA
85015,Maricopa County,AZ,NA,50.85034013605442,NA
85017,Maricopa County,AZ,33.26653306613226,NA,NA
85018,Maricopa County,AZ,NA,NA,48.99328859060403
85020,Maricopa County,AZ,38.07615230460922,NA,NA
85021,Maricopa County,AZ,13.126252505010019,NA,NA
85022,Maricopa County,AZ,53.3066132264529,NA,NA
85031,Maricopa County,AZ,50.20040080160321,NA,NA
85032,Maricopa County,AZ,NA,23.639455782312925,NA
85035,Maricopa County,AZ,17.935871743486974,NA,NA
85041,Maricopa County,AZ,9.418837675350701,NA,NA
85042,Maricopa County,AZ,82.86573146292585,NA,NA
85048,Maricopa County,AZ,76.45290581162325,NA,NA
85123,Pinal County,AZ,71.34268537074149,NA,NA
85202,Maricopa County,AZ,NA,47.61904761904761,NA
85204,Maricopa County,AZ,15.230460921843688,27.2108843537415,NA
85206,Maricopa County,AZ,NA,30.102040816326532,NA
85210,Maricopa County,AZ,24.04809619238477,NA,NA
85212,Maricopa County,AZ,NA,NA,99.32885906040269
85254,Maricopa County,AZ,53.807615230460925,NA,NA
85257,Maricopa County,AZ,NA,NA,38.25503355704698
85266,Maricopa County,AZ,NA,NA,80.98434004474274
85268,Maricopa County,AZ,NA,56.12244897959183,NA
85281,Maricopa County,AZ,35.671342685370746,NA,NA
85295,Maricopa County,AZ,NA,91.83673469387756,NA
85296,Maricopa County,AZ,66.03206412825652,NA,NA
85301,Maricopa County,AZ,4.709418837675351,NA,NA
85326,Maricopa County,AZ,29.759519038076153,NA,NA
85339,Maricopa County,AZ,55.010020040080164,NA,NA
85367,Yuma County,AZ,81.1623246492986,NA,NA
85373,Maricopa County,AZ,NA,77.55102040816327,NA
85379,Maricopa County,AZ,31.863727454909817,NA,NA
85381,Maricopa County,AZ,NA,NA,75.39149888143176
85641,Pima County,AZ,58.517034068136276,NA,NA
85704,Pima County,AZ,NA,28.741496598639454,NA
85705,Pima County,AZ,3.006012024048096,NA,NA
85706,Pima County,AZ,2.404809619238477,NA,NA
85718,Pima County,AZ,58.81763527054108,NA,NA
85745,Pima County,AZ,NA,16.49659863945578,NA
85746,Pima County,AZ,13.927855711422845,NA,NA
85941,Apache County,AZ,42.28456913827655,NA,NA
86301,Yavapai County,AZ,NA,28.2312925170068,NA
86305,Yavapai County,AZ,64.62925851703407,NA,NA
86314,Yavapai County,AZ,18.336673346693384,NA,NA
86323,Yavapai County,AZ,53.0060120240481,NA,NA
86403,Mohave County,AZ,45.29058116232465,55.61224489795919,NA
71603,Jefferson County,AR,NA,NA,21.700223713646533
71655,Drew County,AR,78.95791583166333,NA,NA
72012,White County,AR,83.66733466933867,NA,NA
72103,Saline County,AR,80.26052104208416,NA,NA
72104,Hot Spring County,AR,NA,60.37414965986394,NA
72110,Conway County,AR,80.06012024048096,NA,NA
72116,Pulaski County,AR,NA,41.49659863945578,NA
72120,Pulaski County,AR,43.587174348697395,NA,NA
72131,Cleburne County,AR,NA,95.23809523809523,NA
72204,Pulaski County,AR,51.80360721442886,NA,NA
72206,Pulaski County,AR,53.707414829659314,28.061224489795915,NA
72401,Craighead County,AR,16.23246492985972,NA,NA
72601,Boone County,AR,NA,30.4421768707483,52.348993288590606
72762,Washington County,AR,47.19438877755511,NA,NA
72830,Johnson County,AR,78.95791583166333,NA,NA
72916,Sebastian County,AR,NA,80.4421768707483,NA
90003,Los Angeles County,CA,NA,38.265306122448976,NA
90004,Los Angeles County,CA,43.987975951903806,NA,NA
90008,Los Angeles County,CA,NA,40.98639455782313,NA
90011,Los Angeles County,CA,25.951903807615228,NA,NA
90018,Los Angeles County,CA,37.77555110220441,NA,NA
90023,Los Angeles County,CA,81.2625250501002,NA,NA
90026,Los Angeles County,CA,NA,38.945578231292515,NA
90036,Los Angeles County,CA,67.03406813627254,NA,NA
90044,Los Angeles County,CA,NA,16.3265306122449,32.21476510067114
90045,Los Angeles County,CA,NA,55.78231292517006,NA
90047,Los Angeles County,CA,17.234468937875754,NA,NA
90057,Los Angeles County,CA,38.877755511022045,NA,NA
90059,Los Angeles County,CA,34.86973947895792,NA,NA
90064,Los Angeles County,CA,27.85571142284569,NA,20.13422818791946
90066,Los Angeles County,CA,NA,NA,24.161073825503358
90067,Los Angeles County,CA,NA,NA,74.49664429530202
90221,Los Angeles County,CA,37.37474949899799,NA,NA
90222,Los Angeles County,CA,NA,64.79591836734694,NA
90232,Los Angeles County,CA,93.18637274549098,NA,NA
90247,Los Angeles County,CA,NA,50.17006802721088,NA
90250,Los Angeles County,CA,25.651302605210418,NA,NA
90262,Los Angeles County,CA,67.13426853707415,NA,NA
90272,Los Angeles County,CA,NA,NA,24.832214765100673
90274,Los Angeles County,CA,NA,NA,40.7158836689038
90277,Los Angeles County,CA,53.807615230460925,NA,NA
90604,Los Angeles County,CA,57.014028056112224,NA,NA
90620,Orange County,CA,49.59919839679359,NA,NA
90630,Orange County,CA,47.89579158316633,NA,NA
90650,Los Angeles County,CA,19.03807615230461,NA,NA
90680,Orange County,CA,NA,90.47619047619048,NA
90713,Los Angeles County,CA,86.97394789579158,NA,NA
90717,Los Angeles County,CA,83.36673346693387,NA,NA
90731,Los Angeles County,CA,32.66533066132264,NA,NA
90732,Los Angeles County,CA,82.36472945891784,NA,NA
91006,Los Angeles County,CA,NA,NA,64.87695749440716
91007,Los Angeles County,CA,90.98196392785572,NA,78.52348993288591
91042,Los Angeles County,CA,NA,NA,76.95749440715883
91301,Los Angeles County,CA,NA,89.96598639455783,NA
91304,Los Angeles County,CA,NA,52.21088435374149,NA
91325,Los Angeles County,CA,NA,NA,52.12527964205817
91345,Los Angeles County,CA,85.17034068136272,NA,NA
91350,Los Angeles County,CA,NA,78.2312925170068,NA
91351,Los Angeles County,CA,NA,NA,85.4586129753915
91360,Ventura County,CA,NA,NA,15.883668903803134
91504,Los Angeles County,CA,NA,70.23809523809523,NA
91601,Los Angeles County,CA,66.83366733466933,NA,NA
91731,Los Angeles County,CA,37.27454909819639,NA,NA
91746,Los Angeles County,CA,74.74949899799599,NA,NA
91766,Los Angeles County,CA,40.5811623246493,NA,NA
91911,San Diego County,CA,NA,53.40136054421769,NA
91915,San Diego County,CA,85.77154308617234,NA,NA
91942,San Diego County,CA,63.326653306613224,NA,NA
92009,San Diego County,CA,NA,42.857142857142854,NA
92019,San Diego County,CA,45.791583166332664,46.25850340136054,NA
92021,San Diego County,CA,16.83366733466934,NA,NA
92026,San Diego County,CA,NA,48.12925170068027,NA
92028,San Diego County,CA,91.18236472945893,NA,NA
92037,San Diego County,CA,NA,50.85034013605442,NA
92058,San Diego County,CA,86.87374749498998,NA,NA
92065,San Diego County,CA,NA,66.66666666666666,NA
92075,San Diego County,CA,NA,NA,78.97091722595079
92102,San Diego County,CA,NA,NA,72.7069351230425
92104,San Diego County,CA,NA,70.578231292517,NA
92110,San Diego County,CA,NA,80.61224489795919,NA
92114,San Diego County,CA,NA,NA,26.62192393736018
92118,San Diego County,CA,NA,67.3469387755102,NA
92131,San Diego County,CA,NA,73.12925170068027,NA
92201,Riverside County,CA,NA,15.98639455782313,NA
92211,Riverside County,CA,68.7374749498998,NA,NA
92223,Riverside County,CA,30.561122244488974,NA,NA
92284,San Bernardino County,CA,26.65330661322645,NA,NA
92301,San Bernardino County,CA,34.3687374749499,NA,NA
92308,San Bernardino County,CA,NA,NA,38.702460850111855
92336,San Bernardino County,CA,11.22244488977956,15.816326530612246,NA
92345,San Bernardino County,CA,NA,14.1156462585034,NA
92397,San Bernardino County,CA,NA,NA,99.77628635346755
92404,San Bernardino County,CA,NA,67.51700680272108,NA
92509,Riverside County,CA,NA,NA,37.13646532438479
92530,Riverside County,CA,35.170340681362724,NA,NA
92544,Riverside County,CA,NA,46.7687074829932,NA
92545,Riverside County,CA,41.98396793587174,NA,12.751677852348994
92553,Riverside County,CA,NA,42.17687074829932,NA
92557,Riverside County,CA,80.7615230460922,NA,NA
92563,Riverside County,CA,33.86773547094188,NA,NA
92630,Orange County,CA,34.46893787575151,NA,NA
92646,Orange County,CA,26.452905811623246,NA,5.8165548098434
92648,Orange County,CA,NA,59.353741496598644,NA
92651,Orange County,CA,NA,86.73469387755102,NA
92655,Orange County,CA,95.69138276553106,NA,NA
92657,Orange County,CA,98.49699398797596,NA,NA
92672,Orange County,CA,NA,81.12244897959184,NA
92677,Orange County,CA,65.7314629258517,NA,NA
92683,Orange County,CA,47.59519038076152,NA,3.803131991051454
92688,Orange County,CA,NA,NA,52.57270693512305
92806,Orange County,CA,56.613226452905806,NA,NA
92841,Orange County,CA,73.54709418837675,NA,NA
92845,Orange County,CA,NA,66.3265306122449,NA
92867,Orange County,CA,NA,NA,28.859060402684566
92880,Riverside County,CA,22.74549098196393,NA,NA
92882,Riverside County,CA,61.923847695390776,NA,NA
92886,Orange County,CA,63.02605210420842,NA,NA
93010,Ventura County,CA,34.569138276553105,NA,NA
93023,Ventura County,CA,NA,58.673469387755105,51.006711409395976
93030,Ventura County,CA,18.7374749498998,19.897959183673468,NA
93101,Santa Barbara County,CA,NA,NA,91.05145413870245
93203,Kern County,CA,NA,97.27891156462584,NA
93234,Fresno County,CA,95.29058116232466,NA,NA
93292,Tulare County,CA,NA,32.82312925170068,NA
93306,Kern County,CA,21.64328657314629,NA,NA
93313,Kern County,CA,53.106212424849694,53.2312925170068,NA
93444,San Luis Obispo County,CA,NA,63.94557823129252,NA
93454,Santa Barbara County,CA,31.96392785571142,NA,NA
93535,Los Angeles County,CA,10.120240480961924,NA,NA
93536,Los Angeles County,CA,72.64529058116233,NA,NA
93551,Los Angeles County,CA,NA,55.27210884353742,NA
93561,Kern County,CA,NA,53.74149659863946,NA
93615,Tulare County,CA,98.99799599198397,NA,NA
93638,Madera County,CA,20.140280561122246,NA,NA
93648,Fresno County,CA,85.97194388777555,NA,NA
93657,Fresno County,CA,56.71342685370742,NA,NA
93703,Fresno County,CA,NA,NA,73.8255033557047
93704,Fresno County,CA,51.60320641282566,NA,NA
93706,Fresno County,CA,23.947895791583164,NA,NA
93722,Fresno County,CA,9.919839679358718,NA,NA
93727,Fresno County,CA,NA,22.61904761904762,NA
93730,Fresno County,CA,NA,NA,95.07829977628636
93901,Monterey County,CA,NA,NA,47.87472035794183
93905,Monterey County,CA,69.73947895791584,NA,NA
93907,Monterey County,CA,NA,75.68027210884354,NA
93940,Monterey County,CA,NA,26.53061224489796,NA
93955,Monterey County,CA,39.278557114228455,NA,NA
94010,San Mateo County,CA,NA,NA,8.053691275167784
94015,San Mateo County,CA,72.94589178356713,NA,NA
94024,Santa Clara County,CA,NA,NA,89.03803131991052
94063,San Mateo County,CA,42.78557114228457,NA,NA
94070,San Mateo County,CA,78.15631262525051,NA,NA
94087,Santa Clara County,CA,NA,49.82993197278912,NA
94112,San Francisco County,CA,25.551102204408814,NA,NA
94114,San Francisco County,CA,47.29458917835671,NA,NA
94121,San Francisco County,CA,NA,NA,8.724832214765101
94134,San Francisco County,CA,38.97795591182365,NA,NA
94501,Alameda County,CA,70.14028056112225,NA,NA
94520,Contra Costa County,CA,66.23246492985973,NA,NA
94521,Contra Costa County,CA,58.016032064128254,NA,NA
94538,Alameda County,CA,NA,NA,53.691275167785236
94544,Alameda County,CA,19.739478957915832,NA,NA
94551,Alameda County,CA,48.99799599198397,NA,NA
94558,Napa County,CA,32.565130260521045,NA,NA
94566,Alameda County,CA,NA,37.41496598639456,NA
94571,Solano County,CA,NA,NA,61.297539149888145
94580,Alameda County,CA,NA,65.81632653061224,NA
94582,Contra Costa County,CA,NA,NA,86.35346756152126
94587,Alameda County,CA,NA,NA,10.961968680089486
94601,Alameda County,CA,73.44689378757515,NA,NA
94603,Alameda County,CA,75.25050100200401,NA,NA
94606,Alameda County,CA,NA,60.71428571428571,NA
94608,Alameda County,CA,NA,51.36054421768708,NA
94609,Alameda County,CA,93.5871743486974,NA,NA
94703,Alameda County,CA,69.43887775551102,NA,NA
95060,Santa Cruz County,CA,NA,48.97959183673469,NA
95062,Santa Cruz County,CA,NA,90.81632653061224,NA
95070,Santa Clara County,CA,NA,89.62585034013605,NA
95073,Santa Cruz County,CA,NA,91.3265306122449,NA
95117,Santa Clara County,CA,NA,NA,66.44295302013423
95121,Santa Clara County,CA,NA,56.63265306122449,NA
95123,Santa Clara County,CA,NA,25.68027210884354,NA
95124,Santa Clara County,CA,NA,NA,38.03131991051455
95126,Santa Clara County,CA,86.07214428857716,NA,NA
95202,San Joaquin County,CA,30.460921843687377,NA,NA
95203,San Joaquin County,CA,92.98597194388778,NA,NA
95307,Stanislaus County,CA,33.166332665330664,NA,NA
95355,Stanislaus County,CA,9.118236472945892,NA,NA
95361,Stanislaus County,CA,41.583166332665336,NA,NA
95363,Stanislaus County,CA,61.523046092184366,NA,93.28859060402685
95365,Merced County,CA,97.09418837675351,NA,NA
95380,Stanislaus County,CA,27.955911823647295,NA,NA
95389,Mariposa County,CA,NA,95.91836734693877,NA
95448,Sonoma County,CA,89.97995991983969,NA,NA
95472,Sonoma County,CA,92.48496993987976,59.523809523809526,NA
95482,Mendocino County,CA,NA,NA,32.43847874720358
95603,Placer County,CA,NA,NA,24.60850111856823
95618,Yolo County,CA,NA,NA,88.81431767337807
95624,Sacramento County,CA,NA,NA,73.15436241610739
95648,Placer County,CA,NA,22.108843537414966,NA
95662,Sacramento County,CA,67.53507014028057,NA,35.79418344519016
95687,Solano County,CA,38.677354709418836,NA,NA
95726,El Dorado County,CA,NA,51.87074829931972,NA
95746,Placer County,CA,NA,90.1360544217687,NA
95758,Sacramento County,CA,NA,NA,36.46532438478747
95815,Sacramento County,CA,NA,64.28571428571429,NA
95816,Sacramento County,CA,NA,NA,77.40492170022371
95818,Sacramento County,CA,NA,71.93877551020408,NA
95823,Sacramento County,CA,40.6813627254509,NA,NA
95824,Sacramento County,CA,NA,63.775510204081634,NA
95826,Sacramento County,CA,54.10821643286573,55.952380952380956,NA
95831,Sacramento County,CA,NA,50.34013605442177,NA
95945,Nevada County,CA,NA,37.07482993197279,NA
96019,Shasta County,CA,73.94789579158316,NA,NA
96021,Tehama County,CA,74.24849699398798,NA,NA
96097,Siskiyou County,CA,80.66132264529058,NA,NA
96150,El Dorado County,CA,NA,NA,97.0917225950783
80007,Jefferson County,CO,88.87775551102204,NA,NA
80015,Arapahoe County,CO,49.498997995991985,NA,NA
80016,Arapahoe County,CO,NA,16.156462585034014,NA
80020,Broomfield County,CO,73.34669338677354,32.99319727891156,NA
80110,Arapahoe County,CO,66.93386773547094,NA,NA
80111,Arapahoe County,CO,NA,NA,69.12751677852349
80124,Douglas County,CO,NA,81.29251700680273,NA
80126,Douglas County,CO,52.505010020040075,58.50340136054422,NA
80202,Denver County,CO,77.75551102204409,NA,NA
80203,Denver County,CO,70.24048096192385,NA,NA
80204,Denver County,CO,NA,NA,89.48545861297539
80205,Denver County,CO,NA,33.50340136054422,NA
80210,Denver County,CO,55.81162324649298,NA,NA
80221,Adams County,CO,33.06613226452906,NA,NA
80223,Denver County,CO,NA,54.93197278911565,NA
80229,Adams County,CO,43.687374749499,NA,NA
80260,Adams County,CO,46.19238476953908,NA,NA
80401,Jefferson County,CO,NA,NA,42.505592841163306
80501,Boulder County,CO,NA,NA,68.90380313199105
80513,Larimer County,CO,NA,78.57142857142857,NA
80516,Weld County,CO,65.93186372745491,NA,NA
80524,Larimer County,CO,31.663326653306612,NA,NA
80525,Larimer County,CO,NA,41.83673469387755,NA
80537,Larimer County,CO,NA,14.285714285714285,NA
80538,Larimer County,CO,13.527054108216433,NA,NA
80550,Weld County,CO,31.162324649298593,NA,NA
80642,Weld County,CO,98.39679358717434,97.95918367346938,NA
80904,El Paso County,CO,NA,NA,58.38926174496645
80910,El Paso County,CO,72.74549098196393,NA,NA
80917,El Paso County,CO,84.16833667334669,NA,NA
80918,El Paso County,CO,45.390781563126254,NA,NA
80919,El Paso County,CO,NA,80.10204081632652,NA
80921,El Paso County,CO,96.19238476953907,NA,NA
81004,Pueblo County,CO,26.152304609218437,NA,NA
81008,Pueblo County,CO,NA,87.58503401360545,NA
81082,Las Animas County,CO,65.13026052104209,NA,NA
81301,La Plata County,CO,55.611222444889776,NA,NA
81416,Delta County,CO,NA,NA,93.0648769574944
81425,Montrose County,CO,94.0881763527054,NA,NA
06001,Hartford County,CT,NA,69.21768707482994,NA
06040,Hartford County,CT,11.623246492985972,NA,NA
06042,Hartford County,CT,38.77755511022044,NA,NA
06051,Hartford County,CT,3.406813627254509,NA,NA
06071,Tolland County,CT,82.76553106212425,NA,NA
06106,Hartford County,CT,NA,NA,25.279642058165546
06108,Hartford County,CT,NA,56.80272108843537,NA
06112,Hartford County,CT,18.637274549098194,NA,NA
06117,Hartford County,CT,71.34268537074149,NA,NA
06237,Tolland County,CT,97.49498997995993,NA,NA
06239,Windham County,CT,36.27254509018036,61.904761904761905,NA
06405,New Haven County,CT,NA,25.850340136054424,NA
06419,Middlesex County,CT,NA,90.98639455782312,NA
06460,New Haven County,CT,NA,14.625850340136054,NA
06470,Fairfield County,CT,NA,79.76190476190477,NA
06471,New Haven County,CT,NA,NA,67.11409395973155
06513,New Haven County,CT,4.208416833667335,NA,NA
06608,Fairfield County,CT,63.52705410821643,NA,NA
06614,Fairfield County,CT,NA,32.482993197278915,NA
06705,New Haven County,CT,24.148296593186373,NA,NA
06710,New Haven County,CT,82.06412825651303,NA,NA
06770,New Haven County,CT,NA,22.27891156462585,NA
06790,Litchfield County,CT,NA,2.0408163265306123,5.369127516778524
06831,Fairfield County,CT,NA,86.39455782312925,NA
19802,New Castle County,DE,15.831663326653306,NA,NA
19805,New Castle County,DE,2.50501002004008,NA,NA
19953,Kent County,DE,NA,NA,96.64429530201343
19958,Sussex County,DE,NA,4.421768707482993,NA
19970,Sussex County,DE,NA,NA,54.80984340044742
32011,Nassau County,FL,60.22044088176352,NA,NA
32024,Columbia County,FL,62.22444889779559,NA,NA
32025,Columbia County,FL,38.57715430861723,NA,65.1006711409396
32082,St. Johns County,FL,NA,29.931972789115648,NA
32117,Volusia County,FL,34.2685370741483,NA,NA
32132,Volusia County,FL,91.88376753507013,NA,NA
32136,Flagler County,FL,90.8817635270541,NA,NA
32159,Lake County,FL,NA,NA,4.697986577181208
32168,Volusia County,FL,NA,34.35374149659864,NA
32208,Duval County,FL,NA,5.442176870748299,NA
32209,Duval County,FL,22.54509018036072,NA,NA
32233,Duval County,FL,40.08016032064128,NA,NA
32246,Duval County,FL,45.59118236472946,NA,NA
32250,Duval County,FL,60.120240480961925,NA,NA
32352,Gadsden County,FL,95.59118236472945,NA,NA
32425,Holmes County,FL,54.809619238476955,NA,NA
32462,Washington County,FL,NA,NA,94.63087248322147
32507,Escambia County,FL,NA,12.414965986394558,NA
32534,Escambia County,FL,43.7875751503006,NA,NA
32550,Walton County,FL,NA,54.761904761904766,NA
32570,Santa Rosa County,FL,NA,NA,8.501118568232663
32571,Santa Rosa County,FL,NA,13.77551020408163,25.279642058165546
32577,Escambia County,FL,87.5751503006012,NA,NA
32605,Alachua County,FL,29.158316633266534,NA,NA
32703,Orange County,FL,NA,16.666666666666664,NA
32707,Seminole County,FL,NA,59.183673469387756,NA
32732,Seminole County,FL,99.49899799599199,NA,NA
32738,Volusia County,FL,37.17434869739479,NA,NA
32808,Orange County,FL,NA,21.768707482993197,NA
32818,Orange County,FL,NA,NA,57.04697986577181
32826,Orange County,FL,NA,NA,82.77404921700223
32904,Brevard County,FL,NA,NA,29.977628635346754
32922,Brevard County,FL,49.298597194388776,NA,NA
32935,Brevard County,FL,20.741482965931866,NA,NA
32937,Brevard County,FL,NA,NA,27.293064876957494
32962,Indian River County,FL,NA,39.455782312925166,NA
32976,Brevard County,FL,NA,52.721088435374156,NA
33014,Miami-Dade County,FL,NA,NA,21.476510067114095
33018,Miami-Dade County,FL,74.34869739478958,NA,NA
33021,Broward County,FL,NA,NA,4.026845637583892
33025,Broward County,FL,NA,NA,36.68903803131991
33043,Monroe County,FL,NA,96.93877551020408,NA
33056,Miami-Dade County,FL,NA,NA,44.29530201342282
33062,Broward County,FL,NA,NA,2.237136465324385
33125,Miami-Dade County,FL,NA,36.734693877551024,NA
33127,Miami-Dade County,FL,56.212424849699396,NA,NA
33128,Miami-Dade County,FL,NA,NA,72.48322147651007
33133,Miami-Dade County,FL,74.8496993987976,NA,NA
33136,Miami-Dade County,FL,NA,79.59183673469387,NA
33140,Miami-Dade County,FL,NA,NA,19.23937360178971
33142,Miami-Dade County,FL,20.240480961923847,NA,NA
33147,Miami-Dade County,FL,33.76753507014028,NA,NA
33150,Miami-Dade County,FL,52.40480961923848,NA,NA
33162,Miami-Dade County,FL,NA,61.73469387755102,NA
33172,Miami-Dade County,FL,79.65931863727455,NA,NA
33175,Miami-Dade County,FL,NA,NA,13.19910514541387
33183,Miami-Dade County,FL,76.95390781563127,NA,NA
33311,Broward County,FL,7.414829659318638,NA,NA
33317,Broward County,FL,NA,NA,41.387024608501115
33319,Broward County,FL,NA,28.401360544217685,NA
33328,Broward County,FL,NA,NA,38.702460850111855
33351,Broward County,FL,71.14228456913828,NA,NA
33407,Palm Beach County,FL,NA,54.08163265306123,NA
33408,Palm Beach County,FL,NA,NA,35.123042505592835
33415,Palm Beach County,FL,NA,NA,50.55928411633109
33428,Palm Beach County,FL,36.07214428857716,NA,NA
33442,Broward County,FL,NA,NA,7.38255033557047
33510,Hillsborough County,FL,56.4128256513026,NA,NA
33523,Pasco County,FL,NA,81.80272108843538,NA
33570,Hillsborough County,FL,NA,NA,64.42953020134227
33578,Hillsborough County,FL,35.27054108216433,NA,NA
33597,Sumter County,FL,90.08016032064128,NA,NA
33604,Hillsborough County,FL,NA,NA,45.41387024608501
33606,Hillsborough County,FL,NA,76.53061224489795,NA
33612,Hillsborough County,FL,NA,36.564625850340136,NA
33619,Hillsborough County,FL,NA,37.58503401360544,NA
33625,Hillsborough County,FL,59.919839679358724,NA,NA
33647,Hillsborough County,FL,51.903807615230455,NA,NA
33704,Pinellas County,FL,83.96793587174348,78.4013605442177,NA
33707,Pinellas County,FL,NA,NA,21.02908277404922
33711,Pinellas County,FL,NA,72.61904761904762,NA
33759,Pinellas County,FL,NA,NA,45.41387024608501
33761,Pinellas County,FL,NA,NA,36.91275167785235
33763,Pinellas County,FL,NA,58.333333333333336,NA
33778,Pinellas County,FL,NA,67.68707482993197,73.60178970917227
33852,Highlands County,FL,NA,17.346938775510203,NA
33859,Polk County,FL,NA,NA,75.83892617449665
33901,Lee County,FL,NA,NA,63.758389261744966
33917,Lee County,FL,NA,17.17687074829932,11.409395973154362
33919,Lee County,FL,59.018036072144284,NA,NA
33936,Lee County,FL,NA,84.52380952380952,NA
33954,Charlotte County,FL,NA,NA,70.02237136465325
33974,Lee County,FL,78.0561122244489,NA,NA
33983,Charlotte County,FL,72.44488977955912,NA,NA
34116,Collier County,FL,47.89579158316633,NA,NA
34145,Collier County,FL,NA,NA,24.832214765100673
34202,Manatee County,FL,67.33466933867736,NA,34.00447427293065
34203,Manatee County,FL,NA,NA,12.527964205816556
34207,Manatee County,FL,NA,NA,47.651006711409394
34209,Manatee County,FL,65.33066132264528,NA,NA
34234,Sarasota County,FL,40.480961923847694,NA,NA
34285,Sarasota County,FL,NA,NA,9.172259507829978
34292,Sarasota County,FL,NA,NA,9.395973154362416
34420,Marion County,FL,70.44088176352705,NA,NA
34475,Marion County,FL,63.326653306613224,NA,NA
34481,Marion County,FL,NA,24.149659863945576,10.06711409395973
34601,Hernando County,FL,NA,NA,40.26845637583892
34604,Hernando County,FL,75.35070140280561,NA,NA
34610,Pasco County,FL,NA,68.87755102040816,NA
34677,Pinellas County,FL,NA,NA,54.36241610738255
34683,Pinellas County,FL,NA,NA,78.07606263982103
34743,Osceola County,FL,47.59519038076152,NA,NA
34744,Osceola County,FL,NA,NA,46.308724832214764
34746,Osceola County,FL,36.67334669338677,NA,NA
34787,Orange County,FL,NA,19.217687074829932,NA
34953,St. Lucie County,FL,5.811623246492986,NA,NA
34983,St. Lucie County,FL,NA,27.380952380952383,NA
34990,Martin County,FL,NA,21.428571428571427,NA
34994,Martin County,FL,NA,NA,35.57046979865772
30025,Walton County,GA,NA,82.14285714285714,NA
30043,Gwinnett County,GA,NA,12.925170068027212,NA
30046,Gwinnett County,GA,NA,53.57142857142857,NA
30047,Gwinnett County,GA,83.06613226452906,NA,NA
30064,Cobb County,GA,62.02404809619239,NA,NA
30066,Cobb County,GA,NA,24.829931972789115,NA
30080,Cobb County,GA,NA,60.37414965986394,NA
30087,DeKalb County,GA,60.72144288577155,NA,NA
30101,Cobb County,GA,27.15430861723447,NA,NA
30102,Cherokee County,GA,46.893787575150306,NA,NA
30104,Polk County,GA,84.76953907815631,NA,NA
30108,Carroll County,GA,84.2685370741483,NA,NA
30135,Douglas County,GA,14.929859719438879,NA,NA
30144,Cobb County,GA,NA,NA,51.90156599552572
30157,Paulding County,GA,26.95390781563126,NA,NA
30161,Floyd County,GA,NA,NA,31.991051454138702
30179,Carroll County,GA,58.016032064128254,NA,NA
30180,Carroll County,GA,24.448897795591183,NA,NA
30224,Spalding County,GA,NA,NA,59.95525727069351
30252,Henry County,GA,39.37875751503006,NA,NA
30263,Coweta County,GA,11.823647294589177,NA,27.069351230425053
30281,Henry County,GA,26.65330661322645,NA,NA
30286,Upson County,GA,50.50100200400801,NA,NA
30297,Clayton County,GA,57.61523046092184,NA,NA
30319,DeKalb County,GA,NA,NA,23.937360178970916
30324,Fulton County,GA,80.46092184368737,NA,NA
30436,Toombs County,GA,NA,76.19047619047619,88.59060402684564
30453,Tattnall County,GA,NA,NA,99.55257270693512
30507,Hall County,GA,NA,64.96598639455783,NA
30510,Habersham County,GA,NA,93.36734693877551,NA
30528,White County,GA,NA,NA,65.32438478747203
30557,Stephens County,GA,97.89579158316634,NA,NA
30643,Hart County,GA,64.02805611222445,NA,NA
30710,Whitfield County,GA,90.5811623246493,NA,NA
30731,Chattooga County,GA,NA,99.31972789115646,NA
30736,Catoosa County,GA,12.5250501002004,NA,NA
30738,Dade County,GA,91.58316633266533,NA,NA
30739,Walker County,GA,92.18436873747495,NA,NA
30741,Walker County,GA,21.04208416833667,NA,NA
30809,Columbia County,GA,NA,11.564625850340136,NA
30824,McDuffie County,GA,48.99799599198397,NA,NA
30907,Columbia County,GA,26.352705410821642,9.863945578231291,NA
30909,Richmond County,GA,26.853707414829657,NA,NA
31008,Peach County,GA,42.58517034068136,NA,NA
31024,Putnam County,GA,NA,NA,27.96420581655481
31032,Jones County,GA,NA,77.72108843537416,NA
31047,Houston County,GA,NA,NA,91.94630872483222
31217,Bibb County,GA,NA,49.48979591836735,NA
31312,Effingham County,GA,77.15430861723446,NA,NA
31404,Chatham County,GA,53.206412825651306,39.965986394557824,NA
31405,Chatham County,GA,NA,NA,31.767337807606268
31533,Coffee County,GA,NA,68.5374149659864,NA
31546,Wayne County,GA,84.86973947895791,NA,NA
31569,Camden County,GA,95.09018036072145,NA,NA
31707,Dougherty County,GA,51.20240480961924,NA,NA
31721,Dougherty County,GA,74.54909819639278,NA,NA
31816,Meriwether County,GA,NA,89.1156462585034,NA
31906,Muscogee County,GA,40.78156312625251,NA,NA
96743,Hawaii County,HI,79.25851703406813,NA,NA
96749,Hawaii County,HI,78.55711422845691,71.7687074829932,NA
96814,Honolulu County,HI,69.83967935871743,NA,NA
96815,Honolulu County,HI,NA,23.299319727891156,NA
96819,Honolulu County,HI,17.73547094188377,NA,NA
96825,Honolulu County,HI,NA,NA,2.684563758389262
83201,Bannock County,ID,NA,37.92517006802721,NA
83263,Franklin County,ID,91.48296593186373,NA,NA
83686,Canyon County,ID,NA,NA,2.013422818791946
83703,Ada County,ID,NA,23.809523809523807,NA
83704,Ada County,ID,NA,NA,15.659955257270694
83706,Ada County,ID,NA,NA,14.76510067114094
83709,Ada County,ID,64.52905811623246,NA,NA
83714,Ada County,ID,NA,13.945578231292515,NA
83835,Kootenai County,ID,NA,NA,39.14988814317674
60014,McHenry County,IL,NA,13.435374149659864,NA
60015,Lake County,IL,NA,23.46938775510204,14.317673378076062
60025,Cook County,IL,43.08617234468938,NA,NA
60026,Cook County,IL,NA,76.0204081632653,23.2662192393736
60031,Lake County,IL,NA,20.238095238095237,NA
60053,Cook County,IL,NA,33.16326530612245,NA
60073,Lake County,IL,NA,26.02040816326531,NA
60074,Cook County,IL,41.883767535070135,NA,NA
60085,Lake County,IL,NA,29.761904761904763,NA
60101,DuPage County,IL,NA,NA,13.422818791946309
60102,McHenry County,IL,47.394789579158314,NA,NA
60106,DuPage County,IL,NA,63.435374149659864,30.87248322147651
60108,DuPage County,IL,59.6192384769539,NA,NA
60123,Kane County,IL,NA,14.45578231292517,NA
60126,DuPage County,IL,NA,NA,3.5794183445190155
60142,McHenry County,IL,42.38476953907816,NA,NA
60169,Cook County,IL,NA,53.74149659863946,NA
60190,DuPage County,IL,NA,NA,92.84116331096197
60402,Cook County,IL,NA,8.503401360544217,NA
60404,Will County,IL,NA,NA,50.11185682326622
60406,Cook County,IL,NA,NA,50.33557046979866
60417,Will County,IL,62.4248496993988,NA,NA
60426,Cook County,IL,89.87975951903807,NA,NA
60430,Cook County,IL,NA,NA,40.49217002237137
60440,Will County,IL,NA,13.26530612244898,NA
60450,Grundy County,IL,25.751503006012022,NA,17.002237136465325
60453,Cook County,IL,NA,NA,4.921700223713646
60464,Cook County,IL,NA,NA,62.86353467561522
60513,Cook County,IL,41.08216432865731,NA,NA
60543,Kendall County,IL,36.97394789579158,NA,NA
60561,DuPage County,IL,NA,30.272108843537417,NA
60563,DuPage County,IL,45.09018036072144,NA,NA
60608,Cook County,IL,12.625250501002002,NA,NA
60611,Cook County,IL,56.1122244488978,NA,NA
60614,Cook County,IL,NA,51.19047619047619,NA
60617,Cook County,IL,7.515030060120241,NA,NA
60619,Cook County,IL,6.4128256513026045,NA,NA
60623,Cook County,IL,31.262525050100198,NA,NA
60624,Cook County,IL,17.034068136272545,NA,NA
60625,Cook County,IL,NA,NA,15.436241610738255
60628,Cook County,IL,NA,4.081632653061225,NA
60629,Cook County,IL,6.212424849699398,NA,NA
60637,Cook County,IL,16.93386773547094,NA,NA
60643,Cook County,IL,NA,NA,6.0402684563758395
60652,Cook County,IL,61.22244488977956,NA,NA
60655,Cook County,IL,29.959919839679362,NA,NA
60656,Cook County,IL,49.19839679358717,NA,74.27293064876957
60660,Cook County,IL,NA,NA,32.88590604026846
60914,Kankakee County,IL,34.06813627254509,NA,NA
60915,Kankakee County,IL,NA,62.414965986394556,NA
61008,Boone County,IL,NA,NA,28.41163310961969
61010,Ogle County,IL,79.75951903807615,NA,NA
61032,Stephenson County,IL,NA,NA,10.51454138702461
61109,Winnebago County,IL,44.589178356713425,46.93877551020408,NA
61111,Winnebago County,IL,50.60120240480962,NA,NA
61201,Rock Island County,IL,NA,NA,35.34675615212528
61341,LaSalle County,IL,NA,NA,90.60402684563759
61401,Knox County,IL,NA,NA,16.331096196868007
61554,Tazewell County,IL,30.360721442885776,NA,NA
61607,Peoria County,IL,NA,NA,69.35123042505593
61611,Tazewell County,IL,72.34468937875751,NA,NA
61614,Peoria County,IL,NA,35.714285714285715,NA
61705,McLean County,IL,78.3567134268537,NA,NA
61821,Champaign County,IL,NA,47.7891156462585,NA
61856,Piatt County,IL,NA,NA,40.044742729306485
62052,Jersey County,IL,NA,NA,42.05816554809844
62205,St. Clair County,IL,NA,79.08163265306123,NA
62236,Monroe County,IL,95.89178356713427,NA,NA
62249,Madison County,IL,75.45090180360722,NA,NA
62294,Madison County,IL,98.19639278557113,NA,NA
62526,Macon County,IL,NA,6.462585034013606,NA
62561,Sangamon County,IL,97.69539078156313,NA,NA
62896,Franklin County,IL,NA,NA,47.427293064876956
62918,Williamson County,IL,NA,NA,64.20581655480984
62966,Jackson County,IL,65.03006012024048,NA,NA
46012,Madison County,IN,NA,NA,29.30648769574944
46013,Madison County,IN,66.53306613226452,NA,NA
46033,Hamilton County,IN,NA,NA,38.47874720357942
46038,Hamilton County,IN,NA,52.89115646258503,NA
46123,Hendricks County,IN,48.296593186372746,NA,NA
46131,Johnson County,IN,NA,25.510204081632654,NA
46135,Putnam County,IN,NA,NA,34.675615212527966
46140,Hancock County,IN,30.160320641282567,NA,NA
46143,Johnson County,IN,57.11422845691383,NA,NA
46158,Morgan County,IN,NA,NA,19.015659955257274
46201,Marion County,IN,49.899799599198396,NA,NA
46220,Marion County,IN,NA,45.40816326530612,NA
46234,Marion County,IN,NA,NA,33.557046979865774
46235,Marion County,IN,52.705410821643284,NA,NA
46254,Marion County,IN,23.04609218436874,NA,NA
46259,Marion County,IN,NA,89.79591836734694,NA
46278,Marion County,IN,NA,NA,91.49888143176734
46322,Lake County,IN,25.851703406813627,NA,NA
46323,Lake County,IN,NA,NA,31.543624161073826
46349,Newton County,IN,93.3867735470942,NA,NA
46356,Lake County,IN,NA,33.843537414965986,NA
46385,Porter County,IN,7.615230460921844,NA,NA
46392,Jasper County,IN,NA,82.99319727891157,NA
46406,Lake County,IN,63.62725450901804,NA,NA
46407,Lake County,IN,46.6933867735471,NA,NA
46408,Lake County,IN,NA,45.74829931972789,NA
46410,Lake County,IN,7.3146292585170345,NA,NA
46528,Elkhart County,IN,74.04809619238478,NA,NA
46563,Marshall County,IN,NA,NA,16.10738255033557
46580,Kosciusko County,IN,NA,NA,66.2192393736018
46617,St. Joseph County,IN,NA,96.42857142857143,NA
46703,Steuben County,IN,52.104208416833664,NA,NA
46723,Whitley County,IN,87.97595190380761,NA,NA
46750,Huntington County,IN,20.941883767535067,NA,NA
46755,Noble County,IN,28.0561122244489,NA,NA
46804,Allen County,IN,NA,22.448979591836736,NA
46806,Allen County,IN,27.55511022044088,NA,NA
46809,Allen County,IN,56.91382765531062,NA,NA
46845,Allen County,IN,59.21843687374749,NA,NA
46996,Pulaski County,IN,76.15230460921843,NA,NA
47130,Clark County,IN,10.62124248496994,NA,NA
47150,Floyd County,IN,NA,6.802721088435375,NA
47203,Bartholomew County,IN,NA,NA,10.290827740492169
47404,Monroe County,IN,63.92785571142284,NA,NA
47421,Lawrence County,IN,34.96993987975952,NA,NA
47446,Lawrence County,IN,68.43687374749499,NA,NA
47601,Warrick County,IN,60.62124248496994,NA,NA
47710,Vanderburgh County,IN,36.172344689378754,NA,NA
47711,Vanderburgh County,IN,28.45691382765531,NA,NA
47713,Vanderburgh County,IN,85.07014028056112,NA,NA
47909,Tippecanoe County,IN,NA,NA,34.22818791946309
47918,Fountain County,IN,85.57114228456913,NA,NA
47933,Montgomery County,IN,32.965931863727455,NA,NA
47960,White County,IN,NA,NA,71.81208053691275
50125,Warren County,IA,69.2384769539078,NA,NA
50211,Warren County,IA,91.38276553106212,NA,NA
50322,Polk County,IA,NA,57.14285714285714,NA
50536,Palo Alto County,IA,NA,NA,76.28635346756153
50613,Black Hawk County,IA,49.69939879759519,NA,NA
50644,Buchanan County,IA,NA,75.51020408163265,NA
50703,Black Hawk County,IA,29.058116232464933,NA,NA
50801,Union County,IA,39.97995991983968,NA,NA
51002,Buena Vista County,IA,97.59519038076152,NA,NA
51105,Woodbury County,IA,67.63527054108216,NA,NA
51108,Woodbury County,IA,90.38076152304609,NA,NA
51501,Pottawattamie County,IA,NA,NA,27.516778523489933
52001,Dubuque County,IA,NA,NA,44.51901565995526
52317,Johnson County,IA,52.204408817635276,NA,NA
52402,Linn County,IA,NA,61.904761904761905,NA
52627,Lee County,IA,NA,43.87755102040816,NA
52756,Scott County,IA,NA,99.65986394557824,NA
52761,Muscatine County,IA,39.478957915831664,11.224489795918368,NA
52803,Scott County,IA,35.57114228456914,53.06122448979592,NA
52804,Scott County,IA,18.03607214428858,NA,NA
52806,Scott County,IA,NA,NA,37.8076062639821
66025,Douglas County,KS,NA,94.38775510204081,NA
66061,Johnson County,KS,21.24248496993988,NA,NA
66092,Franklin County,KS,98.79759519038076,NA,NA
66106,Wyandotte County,KS,NA,NA,68.45637583892618
67037,Sedgwick County,KS,88.17635270541082,NA,NA
67114,Harvey County,KS,NA,NA,56.82326621923938
67211,Sedgwick County,KS,NA,NA,93.95973154362416
67212,Sedgwick County,KS,62.725450901803605,NA,NA
67230,Sedgwick County,KS,100,NA,NA
67337,Montgomery County,KS,NA,NA,72.93064876957494
67357,Labette County,KS,NA,60.03401360544217,NA
67401,Saline County,KS,21.8436873747495,NA,NA
67460,McPherson County,KS,NA,61.224489795918366,NA
67501,Reno County,KS,67.73547094188376,NA,89.26174496644296
40031,Oldham County,KY,77.9559118236473,NA,NA
40065,Shelby County,KY,NA,NA,63.534675615212535
40071,Spencer County,KY,55.71142284569138,NA,NA
40165,Bullitt County,KY,14.829659318637276,NA,NA
40202,Jefferson County,KY,80.86172344689379,96.08843537414967,NA
40203,Jefferson County,KY,NA,39.285714285714285,NA
40207,Jefferson County,KY,NA,33.33333333333333,NA
40219,Jefferson County,KY,NA,20.578231292517007,NA
40229,Jefferson County,KY,13.426853707414828,NA,58.38926174496645
40245,Jefferson County,KY,48.69739478957916,NA,NA
40272,Jefferson County,KY,14.529058116232466,NA,NA
40324,Scott County,KY,14.228456913827655,NA,NA
40383,Woodford County,KY,71.84368737474949,NA,NA
40385,Madison County,KY,97.89579158316634,NA,NA
40504,Fayette County,KY,42.88577154308617,NA,NA
40517,Fayette County,KY,22.24448897795591,NA,NA
40965,Bell County,KY,27.25450901803607,NA,NA
41008,Carroll County,KY,NA,92.85714285714286,NA
41015,Kenton County,KY,NA,60.71428571428571,NA
41017,Kenton County,KY,NA,56.4625850340136,NA
41042,Boone County,KY,5.7114228456913825,NA,NA
41048,Boone County,KY,80.96192384769539,NA,NA
41465,Magoffin County,KY,NA,NA,85.01118568232661
42001,McCracken County,KY,30.961923847695388,NA,NA
42345,Muhlenberg County,KY,55.31062124248497,NA,NA
42376,Daviess County,KY,NA,89.45578231292517,NA
42420,Henderson County,KY,NA,11.904761904761903,NA
42431,Hopkins County,KY,23.74749498997996,NA,NA
42602,Clinton County,KY,82.96593186372746,70.40816326530613,NA
42701,Hardin County,KY,12.725450901803606,NA,NA
42743,Green County,KY,NA,NA,45.19015659955257
42749,Hart County,KY,NA,85.37414965986395,NA
70002,Jefferson Parish,LA,46.19238476953908,NA,NA
70058,Jefferson Parish,LA,NA,10.884353741496598,NA
70072,Jefferson Parish,LA,1.2024048096192386,NA,NA
70119,Orleans Parish,LA,NA,NA,29.753914988814316
70454,Tangipahoa Parish,LA,9.318637274549097,NA,NA
70460,St. Tammany Parish,LA,13.827655310621243,NA,NA
70503,Lafayette Parish,LA,NA,22.95918367346939,NA
70506,Lafayette Parish,LA,NA,15.646258503401361,NA
70520,Lafayette Parish,LA,24.34869739478958,NA,NA
70570,St. Landry Parish,LA,1.3026052104208417,NA,NA
70611,Calcasieu Parish,LA,29.559118236472948,NA,NA
70647,Calcasieu Parish,LA,NA,NA,97.76286353467562
70665,Calcasieu Parish,LA,NA,NA,100
70744,Livingston Parish,LA,82.66533066132264,NA,NA
70791,East Baton Rouge Parish,LA,14.428857715430862,NA,NA
70816,East Baton Rouge Parish,LA,26.553106212424847,32.6530612244898,NA
70818,East Baton Rouge Parish,LA,NA,71.42857142857143,NA
71101,Caddo Parish,LA,49.79959919839679,NA,NA
71111,Bossier Parish,LA,5.210420841683367,NA,NA
71202,Ouachita Parish,LA,4.909819639278557,NA,NA
71263,West Carroll Parish,LA,52.90581162324649,NA,NA
71301,Rapides Parish,LA,7.715430861723446,NA,NA
71465,La Salle Parish,LA,95.39078156312625,NA,NA
04032,Cumberland County,ME,83.66733466933867,NA,NA
04084,Cumberland County,ME,70.94188376753507,NA,NA
04345,Kennebec County,ME,NA,NA,67.33780760626398
04401,Penobscot County,ME,NA,1.1904761904761905,NA
04426,Piscataquis County,ME,89.57915831663327,NA,NA
04901,Kennebec County,ME,NA,NA,2.9082774049217
20613,Prince George's County,MD,83.16633266533067,NA,NA
20639,Calvert County,MD,77.85571142284569,NA,NA
20678,Calvert County,MD,NA,92.51700680272108,NA
20707,Prince George's County,MD,67.23446893787575,NA,NA
20708,Prince George's County,MD,NA,71.5986394557823,NA
20770,Prince George's County,MD,75.65130260521042,NA,NA
20772,Prince George's County,MD,86.57314629258516,NA,NA
20774,Prince George's County,MD,NA,40.816326530612244,NA
20784,Prince George's County,MD,68.23647294589178,NA,NA
20850,Montgomery County,MD,86.27254509018036,NA,NA
20901,Montgomery County,MD,NA,81.4625850340136,NA
20906,Montgomery County,MD,NA,NA,8.94854586129754
21060,Anne Arundel County,MD,29.358717434869742,NA,NA
21061,Anne Arundel County,MD,10.821643286573146,NA,NA
21084,Harford County,MD,94.98997995991984,NA,NA
21113,Anne Arundel County,MD,56.813627254509015,NA,NA
21117,Baltimore County,MD,NA,22.789115646258505,NA
21157,Carroll County,MD,NA,44.72789115646258,NA
21158,Carroll County,MD,NA,NA,77.40492170022371
21161,Harford County,MD,98.69739478957916,NA,NA
21208,Baltimore County,MD,NA,32.142857142857146,NA
21211,Baltimore city,MD,NA,87.92517006802721,NA
21224,Baltimore city,MD,46.49298597194389,NA,NA
21227,Baltimore County,MD,54.70941883767535,NA,NA
21228,Baltimore County,MD,77.35470941883767,NA,NA
21229,Baltimore city,MD,NA,NA,18.344519015659955
21286,Baltimore County,MD,NA,NA,41.61073825503356
21704,Frederick County,MD,NA,97.61904761904762,NA
21771,Frederick County,MD,63.727454909819635,NA,NA
21788,Frederick County,MD,NA,89.28571428571429,NA
21804,Wicomico County,MD,47.49498997995992,NA,NA
21911,Cecil County,MD,NA,72.95918367346938,NA
01030,Hampden County,MA,49.899799599198396,NA,NA
01089,Hampden County,MA,NA,27.89115646258503,NA
01108,Hampden County,MA,1.402805611222445,NA,NA
01201,Berkshire County,MA,0.2004008016032064,NA,NA
01463,Middlesex County,MA,44.789579158316634,NA,NA
01464,Middlesex County,MA,68.6372745490982,NA,NA
01473,Worcester County,MA,97.29458917835672,NA,NA
01607,Worcester County,MA,NA,35.034013605442176,NA
01742,Middlesex County,MA,54.50901803607214,NA,NA
01752,Middlesex County,MA,2.80561122244489,NA,NA
01775,Middlesex County,MA,NA,84.18367346938776,NA
01844,Essex County,MA,21.442885771543086,NA,NA
01845,Essex County,MA,NA,NA,19.463087248322147
01851,Middlesex County,MA,NA,NA,91.72259507829978
01852,Middlesex County,MA,0.4008016032064128,NA,NA
01854,Middlesex County,MA,NA,5.272108843537415,NA
01867,Middlesex County,MA,NA,8.16326530612245,NA
01880,Middlesex County,MA,NA,NA,9.619686800894854
01905,Essex County,MA,69.63927855711422,NA,NA
01921,Essex County,MA,79.35871743486975,NA,NA
01960,Essex County,MA,1.002004008016032,NA,NA
02021,Norfolk County,MA,98.29659318637275,NA,NA
02048,Bristol County,MA,NA,98.12925170068027,NA
02061,Plymouth County,MA,NA,NA,72.03579418344519
02081,Norfolk County,MA,NA,NA,71.36465324384787
02118,Suffolk County,MA,61.82364729458918,NA,NA
02119,Suffolk County,MA,0.30060120240480964,NA,NA
02121,Suffolk County,MA,0.7014028056112225,NA,NA
02132,Suffolk County,MA,NA,NA,4.250559284116331
02143,Middlesex County,MA,NA,NA,13.646532438478747
02149,Middlesex County,MA,NA,NA,1.342281879194631
02151,Suffolk County,MA,NA,0,NA
02152,Suffolk County,MA,NA,94.72789115646259,NA
02184,Norfolk County,MA,96.8937875751503,NA,NA
02189,Norfolk County,MA,NA,NA,80.31319910514542
02301,Plymouth County,MA,0,NA,NA
02302,Plymouth County,MA,NA,1.7006802721088436,NA
02343,Norfolk County,MA,38.276553106212425,NA,NA
02346,Plymouth County,MA,NA,91.49659863945578,27.740492170022375
02382,Plymouth County,MA,NA,NA,86.12975391498881
02554,Nantucket County,MA,34.06813627254509,NA,NA
02601,Barnstable County,MA,4.509018036072145,NA,NA
02720,Bristol County,MA,1.8036072144288577,NA,NA
02721,Bristol County,MA,0.8016032064128256,NA,NA
02738,Plymouth County,MA,NA,NA,86.80089485458613
02739,Plymouth County,MA,92.68537074148297,NA,NA
02740,Bristol County,MA,0.1002004008016032,NA,NA
02743,Bristol County,MA,56.51302605210421,NA,NA
02746,Bristol County,MA,90.78156312625251,NA,NA
48023,St. Clair County,MI,NA,NA,96.42058165548099
48035,Macomb County,MI,10.92184368737475,NA,NA
48060,St. Clair County,MI,NA,NA,13.870246085011187
48076,Oakland County,MI,NA,NA,33.1096196868009
48079,St. Clair County,MI,62.82565130260521,NA,NA
48089,Macomb County,MI,NA,20.74829931972789,NA
48094,Macomb County,MI,50.80160320641283,NA,NA
48111,Wayne County,MI,NA,NA,23.713646532438478
48126,Wayne County,MI,11.322645290581162,NA,NA
48158,Washtenaw County,MI,NA,77.04081632653062,NA
48161,Monroe County,MI,NA,17.857142857142858,NA
48162,Monroe County,MI,NA,3.4013605442176873,NA
48203,Wayne County,MI,15.931863727454909,NA,NA
48204,Wayne County,MI,11.122244488977955,NA,NA
48205,Wayne County,MI,NA,13.435374149659864,NA
48207,Wayne County,MI,NA,35.204081632653065,NA
48209,Wayne County,MI,24.649298597194388,NA,NA
48212,Wayne County,MI,36.27254509018036,NA,NA
48224,Wayne County,MI,NA,18.70748299319728,NA
48229,Wayne County,MI,57.815631262525045,NA,NA
48239,Wayne County,MI,NA,8.843537414965986,NA
48317,Macomb County,MI,22.945891783567134,NA,NA
48340,Oakland County,MI,11.723446893787576,NA,NA
48386,Oakland County,MI,NA,NA,46.75615212527964
48421,Lapeer County,MI,NA,NA,98.88143176733782
48423,Genesee County,MI,NA,19.727891156462583,NA
48430,Genesee County,MI,NA,NA,18.568232662192393
48461,Lapeer County,MI,69.03807615230461,NA,NA
48603,Saginaw County,MI,NA,NA,7.158836689038031
48638,Saginaw County,MI,57.91583166332666,NA,NA
48655,Saginaw County,MI,65.23046092184369,NA,NA
48723,Tuscola County,MI,NA,20.918367346938776,NA
48732,Bay County,MI,53.50701402805611,NA,NA
48817,Shiawassee County,MI,NA,NA,67.56152125279642
48823,Ingham County,MI,NA,NA,34.45190156599553
48827,Eaton County,MI,NA,31.802721088435376,NA
48838,Montcalm County,MI,NA,67.00680272108843,NA
48843,Livingston County,MI,13.627254509018035,NA,NA
48881,Ionia County,MI,NA,91.15646258503402,NA
48911,Ingham County,MI,6.813627254509018,NA,NA
48912,Ingham County,MI,NA,68.5374149659864,NA
48917,Eaton County,MI,9.819639278557114,NA,NA
49002,Kalamazoo County,MI,NA,29.421768707482993,NA
49006,Kalamazoo County,MI,NA,NA,57.04697986577181
49022,Berrien County,MI,10.721442885771543,NA,NA
49031,Cass County,MI,81.86372745490982,NA,NA
49042,St. Joseph County,MI,NA,98.80952380952381,NA
49055,Van Buren County,MI,NA,NA,94.85458612975391
49099,St. Joseph County,MI,88.87775551102204,NA,NA
49107,Berrien County,MI,NA,75.17006802721087,NA
49202,Jackson County,MI,NA,NA,20.581655480984338
49230,Jackson County,MI,89.47895791583166,NA,NA
49286,Lenawee County,MI,56.01202404809619,NA,NA
49412,Newaygo County,MI,NA,57.31292517006803,NA
49424,Ottawa County,MI,NA,11.73469387755102,NA
49445,Muskegon County,MI,36.573146292585164,NA,NA
49461,Muskegon County,MI,NA,NA,85.90604026845638
49509,Kent County,MI,NA,15.306122448979592,NA
49512,Kent County,MI,89.17835671342685,NA,NA
49712,Charlevoix County,MI,NA,NA,54.138702460850105
49783,Chippewa County,MI,NA,18.027210884353742,37.58389261744966
49855,Marquette County,MI,15.430861723446892,NA,NA
55009,Goodhue County,MN,NA,NA,60.85011185682326
55033,Dakota County,MN,31.563126252505008,NA,NA
55075,Dakota County,MN,NA,NA,71.58836689038031
55102,Ramsey County,MN,30.561122244488974,NA,NA
55106,Ramsey County,MN,6.913827655310621,NA,NA
55110,Ramsey County,MN,48.69739478957916,NA,NA
55121,Dakota County,MN,83.56713426853707,NA,NA
55303,Anoka County,MN,19.03807615230461,NA,NA
55309,Sherburne County,MN,74.9498997995992,NA,NA
55313,Wright County,MN,94.58917835671342,NA,NA
55346,Hennepin County,MN,NA,86.90476190476191,NA
55376,Wright County,MN,NA,87.75510204081633,NA
55378,Scott County,MN,NA,83.84353741496598,NA
55388,Carver County,MN,NA,98.9795918367347,NA
55406,Hennepin County,MN,NA,94.5578231292517,NA
55419,Hennepin County,MN,44.98997995991984,NA,NA
55426,Hennepin County,MN,28.75751503006012,NA,NA
55427,Hennepin County,MN,55.11022044088176,NA,48.99328859060403
55431,Hennepin County,MN,84.66933867735472,NA,NA
55434,Anoka County,MN,NA,NA,76.7337807606264
55437,Hennepin County,MN,NA,NA,51.67785234899329
55444,Hennepin County,MN,57.51503006012024,NA,NA
55807,St. Louis County,MN,75.75150300601202,NA,NA
55912,Mower County,MN,7.114228456913827,NA,NA
56001,Blue Earth County,MN,NA,34.523809523809526,NA
56007,Freeborn County,MN,NA,NA,1.1185682326621924
56069,Le Sueur County,MN,94.68937875751503,NA,NA
56201,Kandiyohi County,MN,44.08817635270541,NA,NA
56273,Kandiyohi County,MN,NA,NA,85.68232662192393
56334,Pope County,MN,NA,74.82993197278913,90.1565995525727
38606,Panola County,MS,NA,NA,80.76062639821029
38614,Coahoma County,MS,NA,65.98639455782312,NA
38751,Sunflower County,MS,81.06212424849699,NA,NA
39042,Rankin County,MS,NA,NA,12.304250559284116
39117,Scott County,MS,52.805611222444895,NA,NA
39119,Covington County,MS,96.79358717434869,NA,NA
39145,Rankin County,MS,81.76352705410822,NA,NA
39153,Smith County,MS,96.9939879759519,NA,NA
39307,Lauderdale County,MS,39.67935871743487,NA,NA
39341,Noxubee County,MS,85.27054108216433,NA,NA
39470,Pearl River County,MS,78.55711422845691,NA,NA
39531,Harrison County,MS,NA,43.87755102040816,NA
39540,Harrison County,MS,NA,64.1156462585034,NA
39573,Stone County,MS,95.79158316633266,NA,NA
39654,Lawrence County,MS,NA,NA,95.52572706935123
39702,Lowndes County,MS,NA,88.26530612244898,NA
39735,Choctaw County,MS,NA,NA,95.9731543624161
63038,St. Louis County,MO,NA,90.3061224489796,NA
63042,St. Louis County,MO,45.791583166332664,NA,NA
63052,Jefferson County,MO,77.55511022044088,NA,NA
63106,St. Louis city,MO,74.64929859719439,NA,NA
63107,St. Louis city,MO,65.6312625250501,NA,NA
63128,St. Louis County,MO,NA,19.897959183673468,NA
63144,St. Louis County,MO,NA,NA,95.74944071588367
63147,St. Louis city,MO,58.416833667334664,NA,NA
63376,St. Charles County,MO,11.022044088176353,NA,NA
63801,Scott County,MO,23.146292585170343,NA,NA
63957,Wayne County,MO,NA,92.17687074829932,NA
64014,Jackson County,MO,NA,31.292517006802722,NA
64024,Clay County,MO,19.539078156312627,NA,48.54586129753915
64052,Jackson County,MO,11.52304609218437,NA,NA
64055,Jackson County,MO,7.915831663326653,NA,NA
64068,Clay County,MO,9.01803607214429,NA,NA
64070,Jackson County,MO,NA,98.63945578231292,NA
64081,Jackson County,MO,NA,38.605442176870746,36.241610738255034
64093,Johnson County,MO,35.47094188376754,NA,40.939597315436245
64098,Platte County,MO,96.09218436873748,NA,NA
64119,Clay County,MO,11.923847695390782,NA,NA
64152,Platte County,MO,NA,69.72789115646259,NA
64157,Clay County,MO,65.83166332665331,NA,NA
64492,Clinton County,MO,NA,99.48979591836735,NA
64506,Buchanan County,MO,NA,5.952380952380952,NA
64744,Cedar County,MO,NA,79.93197278911565,NA
64850,Newton County,MO,NA,19.387755102040817,NA
64870,Jasper County,MO,73.84769539078157,NA,NA
65202,Boone County,MO,12.124248496993987,NA,NA
65560,Dent County,MO,NA,NA,30.42505592841163
65613,Polk County,MO,NA,NA,12.97539149888143
65721,Christian County,MO,NA,NA,44.07158836689038
65738,Greene County,MO,64.82965931863728,NA,NA
65793,Howell County,MO,92.58517034068137,NA,NA
65802,Greene County,MO,NA,17.006802721088434,NA
59635,Lewis and Clark County,MT,90.6813627254509,NA,NA
59715,Gallatin County,MT,77.25450901803607,NA,NA
59803,Missoula County,MT,NA,73.9795918367347,NA
59808,Missoula County,MT,NA,95.06802721088435,NA
59901,Flathead County,MT,32.86573146292585,NA,NA
59937,Flathead County,MT,NA,70.74829931972789,NA
68107,Douglas County,NE,NA,NA,65.54809843400447
68154,Douglas County,NE,NA,48.29931972789115,NA
68506,Lancaster County,NE,NA,48.63945578231292,NA
68507,Lancaster County,NE,NA,93.19727891156462,NA
69301,Box Butte County,NE,69.03807615230461,NA,NA
89108,Clark County,NV,22.44488977955912,NA,NA
89113,Clark County,NV,74.44889779559118,NA,NA
89121,Clark County,NV,NA,28.57142857142857,NA
89122,Clark County,NV,NA,47.7891156462585,NA
89141,Clark County,NV,75.45090180360722,NA,NA
89165,Clark County,NV,97.89579158316634,NA,NA
89169,Clark County,NV,NA,NA,88.36689038031321
89410,Douglas County,NV,85.47094188376754,NA,NA
89423,Douglas County,NV,NA,82.6530612244898,NA
89431,Washoe County,NV,22.344689378757515,NA,NA
89445,Humboldt County,NV,NA,76.87074829931973,NA
89502,Washoe County,NV,21.142284569138276,17.687074829931973,NA
89506,Washoe County,NV,19.939879759519037,NA,NA
89701,Carson City,NV,NA,85.54421768707483,NA
03038,Rockingham County,NH,NA,15.136054421768709,NA
03062,Hillsborough County,NH,NA,NA,12.080536912751679
03103,Hillsborough County,NH,5.911823647294589,NA,NA
03301,Merrimack County,NH,NA,NA,2.460850111856823
03452,Cheshire County,NH,91.78356713426854,NA,NA
03741,Grafton County,NH,98.99799599198397,NA,NA
03842,Rockingham County,NH,70.54108216432866,NA,NA
03848,Rockingham County,NH,NA,87.07482993197279,NA
03867,Strafford County,NH,NA,25,NA
07003,Essex County,NJ,10.220440881763528,NA,NA
07004,Essex County,NJ,NA,NA,84.3400447427293
07009,Essex County,NJ,NA,78.91156462585033,NA
07030,Hudson County,NJ,NA,98.29931972789116,NA
07043,Essex County,NJ,88.77755511022045,NA,NA
07047,Hudson County,NJ,5.110220440881764,NA,NA
07065,Union County,NJ,24.148296593186373,NA,NA
07093,Hudson County,NJ,6.613226452905812,NA,NA
07102,Essex County,NJ,32.46492985971944,NA,NA
07103,Essex County,NJ,1.1022044088176353,NA,NA
07107,Essex County,NJ,NA,NA,84.56375838926175
07202,Union County,NJ,6.513026052104208,NA,NA
07407,Bergen County,NJ,NA,NA,63.08724832214765
07420,Passaic County,NJ,77.65531062124249,NA,NA
07470,Passaic County,NJ,17.535070140280563,NA,NA
07645,Bergen County,NJ,NA,93.87755102040816,NA
07649,Bergen County,NJ,NA,NA,93.51230425055928
07719,Monmouth County,NJ,NA,NA,78.74720357941834
07728,Monmouth County,NJ,NA,13.095238095238097,NA
07731,Monmouth County,NJ,32.06412825651302,NA,NA
07748,Monmouth County,NJ,NA,59.693877551020414,NA
07834,Morris County,NJ,NA,NA,37.13646532438479
07860,Sussex County,NJ,95.99198396793587,NA,NA
07866,Morris County,NJ,64.22845691382766,NA,NA
08015,Burlington County,NJ,16.33266533066132,NA,NA
08021,Camden County,NJ,35.77154308617235,6.63265306122449,NA
08043,Camden County,NJ,NA,NA,16.55480984340045
08048,Burlington County,NJ,62.124248496993985,NA,NA
08057,Burlington County,NJ,NA,55.10204081632652,55.70469798657718
08062,Gloucester County,NJ,37.07414829659319,NA,NA
08077,Burlington County,NJ,NA,NA,53.914988814317674
08085,Gloucester County,NJ,24.849699398797593,NA,NA
08088,Burlington County,NJ,NA,NA,46.085011185682326
08090,Gloucester County,NJ,NA,94.04761904761905,NA
08094,Gloucester County,NJ,6.312625250501001,10.204081632653061,NA
08232,Atlantic County,NJ,5.61122244488978,NA,NA
08302,Cumberland County,NJ,NA,9.183673469387756,NA
08520,Mercer County,NJ,NA,62.925170068027214,NA
08527,Ocean County,NJ,9.719438877755511,NA,NA
08753,Ocean County,NJ,2.004008016032064,NA,NA
08755,Ocean County,NJ,NA,NA,6.7114093959731544
08757,Ocean County,NJ,13.226452905811623,NA,NA
08759,Ocean County,NJ,NA,NA,0
08837,Middlesex County,NJ,NA,NA,60.178970917225946
08859,Middlesex County,NJ,50.70140280561122,NA,NA
87004,Sandoval County,NM,72.24448897795591,NA,NA
87059,Bernalillo County,NM,NA,NA,84.78747203579418
87105,Bernalillo County,NM,3.6072144288577155,3.741496598639456,NA
87106,Bernalillo County,NM,22.14428857715431,NA,NA
87108,Bernalillo County,NM,28.35671342685371,4.931972789115646,NA
87109,Bernalillo County,NM,48.897795591182366,NA,NA
87111,Bernalillo County,NM,3.306613226452906,NA,NA
87112,Bernalillo County,NM,NA,NA,3.3557046979865772
87113,Bernalillo County,NM,76.85370741482967,NA,NA
87114,Bernalillo County,NM,8.71743486973948,NA,NA
87121,Bernalillo County,NM,4.308617234468938,NA,NA
87124,Sandoval County,NM,12.324649298597194,NA,NA
87401,San Juan County,NM,18.537074148296593,NA,NA
87402,San Juan County,NM,NA,NA,81.87919463087249
87413,San Juan County,NM,52.30460921843687,NA,NA
87505,Santa Fe County,NM,25.150300601202403,NA,NA
87507,Santa Fe County,NM,NA,NA,17.67337807606264
88012,Doa Ana County,NM,66.73346693386773,NA,NA
88030,Luna County,NM,60.320641282565134,NA,NA
88061,Grant County,NM,NA,NA,81.20805369127517
88130,Roosevelt County,NM,NA,39.625850340136054,NA
88201,Chaves County,NM,34.76953907815631,36.904761904761905,NA
88240,Lea County,NM,NA,NA,25.95078299776286
10001,New York County,NY,NA,30.952380952380953,NA
10013,New York County,NY,NA,NA,49.88814317673378
10018,New York County,NY,88.37675350701403,NA,NA
10023,New York County,NY,48.296593186372746,NA,NA
10025,New York County,NY,NA,0.6802721088435374,NA
10026,New York County,NY,58.21643286573146,NA,NA
10027,New York County,NY,NA,12.074829931972788,NA
10034,New York County,NY,86.37274549098196,NA,NA
10075,New York County,NY,84.96993987975952,NA,NA
10303,Richmond County,NY,NA,86.05442176870748,NA
10310,Richmond County,NY,NA,40.64625850340136,NA
10456,Bronx County,NY,2.3046092184368736,0.17006802721088435,NA
10457,Bronx County,NY,NA,6.292517006802721,NA
10462,Bronx County,NY,27.75551102204409,NA,NA
10466,Bronx County,NY,4.408817635270541,NA,NA
10467,Bronx County,NY,5.01002004008016,NA,NA
10472,Bronx County,NY,NA,1.530612244897959,NA
10533,Westchester County,NY,NA,NA,92.17002237136465
10977,Rockland County,NY,64.32865731462925,NA,NA
11040,Nassau County,NY,81.56312625250501,NA,24.384787472035793
11104,Queens County,NY,NA,NA,82.5503355704698
11220,Kings County,NY,NA,NA,10.738255033557047
11223,Kings County,NY,21.743486973947896,NA,NA
11224,Kings County,NY,NA,4.761904761904762,NA
11225,Kings County,NY,NA,49.31972789115646,NA
11226,Kings County,NY,NA,2.7210884353741496,NA
11234,Kings County,NY,NA,10.374149659863946,NA
11236,Kings County,NY,4.008016032064128,NA,NA
11590,Nassau County,NY,NA,NA,19.910514541387027
11598,Nassau County,NY,NA,NA,73.37807606263982
11692,Queens County,NY,NA,96.25850340136054,NA
11742,Suffolk County,NY,NA,NA,86.80089485458613
11746,Suffolk County,NY,NA,72.44897959183673,NA
11783,Nassau County,NY,NA,81.63265306122449,NA
11937,Suffolk County,NY,NA,NA,66.8903803131991
11944,Suffolk County,NY,NA,NA,80.08948545861297
11961,Suffolk County,NY,87.87575150300601,NA,30.42505592841163
12020,Saratoga County,NY,20.841683366733466,NA,NA
12025,Fulton County,NY,NA,80.10204081632652,NA
12027,Saratoga County,NY,NA,100,NA
12065,Saratoga County,NY,NA,NA,56.152125279642064
12186,Albany County,NY,NA,NA,92.39373601789708
12203,Albany County,NY,NA,39.795918367346935,NA
12304,Schenectady County,NY,30.961923847695388,NA,NA
12561,Ulster County,NY,NA,NA,91.2751677852349
12790,Sullivan County,NY,98.59719438877755,NA,NA
12828,Washington County,NY,72.0440881763527,NA,NA
12866,Saratoga County,NY,14.729458917835672,NA,NA
12946,Essex County,NY,35.87174348697395,NA,NA
13031,Onondaga County,NY,NA,NA,65.99552572706935
13039,Onondaga County,NY,NA,64.62585034013605,NA
13045,Cortland County,NY,3.5070140280561124,8.333333333333332,NA
13069,Oswego County,NY,5.31062124248497,NA,NA
13074,Oswego County,NY,77.35470941883767,NA,NA
13140,Cayuga County,NY,NA,93.02721088435374,NA
13456,Oneida County,NY,93.687374749499,NA,NA
13736,Tioga County,NY,NA,96.7687074829932,NA
13827,Tioga County,NY,22.84569138276553,NA,NA
13901,Broome County,NY,21.34268537074148,NA,NA
13905,Broome County,NY,1.6032064128256511,NA,NA
14013,Genesee County,NY,99.19839679358718,NA,NA
14048,Chautauqua County,NY,37.4749498997996,NA,NA
14051,Erie County,NY,NA,NA,94.1834451901566
14052,Erie County,NY,NA,NA,62.41610738255034
14086,Erie County,NY,NA,NA,60.62639821029083
14094,Niagara County,NY,1.7034068136272544,NA,NA
14206,Erie County,NY,NA,23.97959183673469,NA
14207,Erie County,NY,8.316633266533065,NA,NA
14208,Erie County,NY,29.258517034068138,NA,NA
14215,Erie County,NY,NA,NA,52.79642058165548
14217,Erie County,NY,NA,16.83673469387755,NA
14223,Erie County,NY,28.1563126252505,NA,NA
14420,Monroe County,NY,NA,19.047619047619047,NA
14450,Monroe County,NY,NA,0.8503401360544218,NA
14456,Ontario County,NY,NA,4.591836734693878,NA
14471,Ontario County,NY,93.78757515030061,NA,NA
14482,Genesee County,NY,51.302605210420836,NA,NA
14512,Ontario County,NY,NA,85.8843537414966,NA
14519,Wayne County,NY,23.246492985971944,NA,NA
14591,Wyoming County,NY,94.28857715430861,NA,NA
14606,Monroe County,NY,18.13627254509018,NA,31.096196868008946
14607,Monroe County,NY,50.20040080160321,NA,NA
14609,Monroe County,NY,4.809619238476954,NA,NA
14610,Monroe County,NY,NA,21.93877551020408,NA
14617,Monroe County,NY,NA,NA,28.187919463087248
14620,Monroe County,NY,NA,14.795918367346939,NA
14621,Monroe County,NY,0.9018036072144289,NA,NA
14623,Monroe County,NY,NA,57.993197278911566,NA
14626,Monroe County,NY,2.6052104208416833,NA,NA
14739,Allegany County,NY,88.87775551102204,NA,NA
14840,Steuben County,NY,NA,78.74149659863946,NA
27018,Yadkin County,NC,NA,NA,46.5324384787472
27028,Davie County,NC,15.931863727454909,NA,NA
27048,Rockingham County,NC,NA,NA,81.65548098434004
27103,Forsyth County,NC,15.631262525050099,NA,0.6711409395973155
27104,Forsyth County,NC,61.72344689378757,NA,NA
27107,Forsyth County,NC,4.108216432865731,21.08843537414966,NA
27127,Forsyth County,NC,NA,NA,5.1454138702460845
27205,Randolph County,NC,NA,21.258503401360542,NA
27253,Alamance County,NC,17.334669338677354,NA,NA
27262,Guilford County,NC,40.3807615230461,NA,NA
27302,Alamance County,NC,NA,44.38775510204081,NA
27317,Randolph County,NC,NA,88.77551020408163,NA
27513,Wake County,NC,NA,NA,82.32662192393735
27517,Orange County,NC,54.008016032064134,NA,NA
27530,Wayne County,NC,15.33066132264529,NA,NA
27534,Wayne County,NC,34.96993987975952,NA,NA
27537,Vance County,NC,67.83567134268537,NA,NA
27540,Wake County,NC,74.14829659318637,NA,NA
27542,Johnston County,NC,NA,73.80952380952381,NA
27544,Vance County,NC,99.79959919839679,NA,NA
27574,Person County,NC,NA,52.55102040816326,NA
27577,Johnston County,NC,NA,NA,21.252796420581653
27591,Wake County,NC,57.214428857715426,NA,NA
27592,Wake County,NC,70.04008016032064,NA,NA
27596,Franklin County,NC,NA,NA,73.8255033557047
27603,Wake County,NC,55.21042084168337,NA,NA
27604,Wake County,NC,NA,39.1156462585034,NA
27606,Wake County,NC,NA,NA,82.10290827740492
27607,Wake County,NC,NA,NA,85.23489932885906
27613,Wake County,NC,NA,70.06802721088435,51.45413870246085
27705,Durham County,NC,NA,10.54421768707483,NA
27803,Nash County,NC,46.7935871743487,NA,NA
27856,Nash County,NC,75.0501002004008,NA,NA
27893,Wilson County,NC,15.731462925851702,NA,NA
27909,Pasquotank County,NC,41.28256513026052,11.054421768707483,NA
28023,Rowan County,NC,87.17434869739479,NA,NA
28027,Cabarrus County,NC,NA,5.782312925170068,NA
28034,Gaston County,NC,43.28657314629258,NA,NA
28056,Gaston County,NC,NA,47.44897959183674,NA
28097,Stanly County,NC,NA,87.41496598639455,NA
28115,Iredell County,NC,NA,NA,29.082774049217004
28120,Gaston County,NC,NA,45.06802721088435,NA
28139,Rutherford County,NC,NA,82.48299319727892,NA
28217,Mecklenburg County,NC,51.00200400801603,NA,NA
28306,Bladen County,NC,NA,34.01360544217687,NA
28312,Cumberland County,NC,NA,45.57823129251701,NA
28345,Richmond County,NC,59.719438877755515,NA,NA
28348,Cumberland County,NC,NA,83.50340136054422,NA
28360,Robeson County,NC,NA,62.755102040816325,NA
28364,Robeson County,NC,73.04609218436873,NA,NA
28374,Moore County,NC,NA,50.51020408163265,NA
28433,Bladen County,NC,NA,NA,88.14317673378076
28504,Lenoir County,NC,NA,84.35374149659864,NA
28560,Craven County,NC,NA,38.095238095238095,NA
28630,Caldwell County,NC,33.567134268537075,NA,NA
28655,Burke County,NC,5.511022044088176,NA,NA
28673,Catawba County,NC,89.17835671342685,NA,NA
28694,Ashe County,NC,95.49098196392785,NA,NA
28704,Buncombe County,NC,67.43486973947896,NA,NA
28712,Transylvania County,NC,NA,NA,6.935123042505594
28713,Swain County,NC,NA,60.204081632653065,NA
28762,McDowell County,NC,NA,93.5374149659864,NA
28803,Buncombe County,NC,50.40080160320641,NA,NA
28806,Buncombe County,NC,39.77955911823648,42.517006802721085,NA
28906,Cherokee County,NC,NA,26.190476190476193,NA
58103,Cass County,ND,7.014028056112225,NA,NA
58503,Burleigh County,ND,33.967935871743485,NA,NA
58554,Morton County,ND,NA,25.170068027210885,NA
43019,Knox County,OH,89.77955911823648,NA,NA
43055,Licking County,OH,1.503006012024048,1.0204081632653061,NA
43065,Delaware County,OH,NA,26.360544217687078,NA
43068,Franklin County,OH,10.521042084168336,9.35374149659864,NA
43085,Franklin County,OH,NA,63.095238095238095,NA
43103,Pickaway County,OH,NA,68.19727891156462,NA
43130,Fairfield County,OH,NA,NA,1.7897091722595078
43146,Pickaway County,OH,NA,84.6938775510204,NA
43201,Franklin County,OH,45.99198396793587,NA,NA
43204,Franklin County,OH,5.410821643286573,NA,NA
43211,Franklin County,OH,NA,NA,61.96868008948546
43214,Franklin County,OH,48.19639278557114,NA,NA
43232,Franklin County,OH,3.707414829659319,NA,NA
43338,Morrow County,OH,59.118236472945895,NA,NA
43452,Ottawa County,OH,NA,31.63265306122449,NA
43532,Henry County,OH,NA,99.14965986394559,NA
43537,Lucas County,OH,61.12224448897795,NA,NA
43566,Lucas County,OH,NA,NA,79.86577181208054
43606,Lucas County,OH,18.13627254509018,NA,NA
43607,Lucas County,OH,6.112224448897796,NA,NA
43611,Lucas County,OH,NA,65.1360544217687,NA
43612,Lucas County,OH,NA,NA,43.17673378076063
43701,Muskingum County,OH,NA,0.3401360544217687,NA
43725,Guernsey County,OH,15.531062124248496,NA,NA
43906,Belmont County,OH,46.9939879759519,NA,NA
43920,Columbiana County,OH,10.02004008016032,NA,NA
44001,Lorain County,OH,NA,3.571428571428571,NA
44022,Cuyahoga County,OH,NA,25.34013605442177,NA
44030,Ashtabula County,OH,23.34669338677355,NA,NA
44035,Lorain County,OH,0.501002004008016,1.870748299319728,NA
44039,Lorain County,OH,8.11623246492986,3.061224489795918,NA
44052,Lorain County,OH,17.43486973947896,NA,NA
44102,Cuyahoga County,OH,0.6012024048096193,NA,NA
44103,Cuyahoga County,OH,9.619238476953909,NA,NA
44110,Cuyahoga County,OH,10.32064128256513,NA,NA
44111,Cuyahoga County,OH,NA,2.380952380952381,NA
44112,Cuyahoga County,OH,8.41683366733467,NA,NA
44113,Cuyahoga County,OH,50.901803607214426,NA,NA
44128,Cuyahoga County,OH,NA,1.3605442176870748,NA
44130,Cuyahoga County,OH,4.609218436873747,NA,NA
44146,Cuyahoga County,OH,6.713426853707414,NA,NA
44202,Portage County,OH,NA,NA,56.375838926174495
44223,Summit County,OH,45.99198396793587,NA,NA
44255,Portage County,OH,NA,NA,92.39373601789708
44256,Medina County,OH,21.54308617234469,NA,NA
44260,Portage County,OH,68.03607214428857,NA,NA
44266,Portage County,OH,NA,NA,4.47427293064877
44306,Summit County,OH,10.420841683366733,NA,NA
44312,Summit County,OH,15.130260521042086,NA,NA
44404,Trumbull County,OH,94.78957915831663,NA,NA
44408,Columbiana County,OH,72.14428857715431,NA,NA
44420,Trumbull County,OH,NA,NA,43.40044742729307
44425,Trumbull County,OH,32.765531062124246,NA,NA
44514,Mahoning County,OH,NA,NA,16.778523489932887
44641,Stark County,OH,NA,44.5578231292517,NA
44646,Stark County,OH,NA,10.714285714285714,NA
44672,Mahoning County,OH,NA,NA,75.16778523489933
44691,Wayne County,OH,7.8156312625250495,NA,NA
44707,Stark County,OH,59.318637274549104,NA,NA
44820,Crawford County,OH,NA,NA,20.80536912751678
44830,Seneca County,OH,18.937875751503004,NA,NA
44878,Richland County,OH,99.39879759519037,NA,NA
44903,Richland County,OH,19.639278557114228,NA,NA
44906,Richland County,OH,33.46693386773547,NA,23.48993288590604
44907,Richland County,OH,NA,NA,36.017897091722595
45011,Butler County,OH,2.1042084168336674,3.231292517006803,NA
45013,Butler County,OH,19.839679358717436,NA,NA
45067,Butler County,OH,NA,74.65986394557824,NA
45069,Butler County,OH,23.34669338677355,NA,NA
45122,Clermont County,OH,NA,79.25170068027211,NA
45150,Clermont County,OH,36.87374749498998,NA,NA
45224,Hamilton County,OH,22.044088176352705,NA,NA
45229,Hamilton County,OH,30.861723446893784,NA,NA
45245,Clermont County,OH,NA,NA,68.45637583892618
45251,Hamilton County,OH,NA,NA,39.821029082774054
45324,Greene County,OH,NA,NA,17.89709172259508
45342,Montgomery County,OH,NA,NA,18.79194630872483
45344,Clark County,OH,57.71543086172345,NA,NA
45365,Shelby County,OH,13.026052104208416,NA,NA
45371,Miami County,OH,NA,NA,29.53020134228188
45377,Montgomery County,OH,NA,45.91836734693878,NA
45385,Greene County,OH,12.825651302605209,NA,NA
45405,Montgomery County,OH,24.949899799599198,NA,NA
45406,Montgomery County,OH,44.188376753507015,NA,NA
45410,Montgomery County,OH,42.48496993987976,NA,NA
45414,Montgomery County,OH,30.761523046092183,NA,NA
45415,Montgomery County,OH,NA,NA,70.46979865771812
45431,Montgomery County,OH,NA,NA,33.33333333333333
45459,Montgomery County,OH,61.22244488977956,NA,NA
45503,Clark County,OH,62.62525050100201,NA,8.277404921700224
45628,Ross County,OH,83.26653306613227,NA,NA
45651,Vinton County,OH,NA,NA,79.19463087248322
45686,Gallia County,OH,92.88577154308616,NA,NA
45693,Adams County,OH,NA,41.66666666666667,NA
45714,Washington County,OH,NA,NA,28.635346756152124
45750,Washington County,OH,NA,0.5102040816326531,NA
45805,Allen County,OH,14.128256513026052,NA,NA
73008,Oklahoma County,OK,NA,57.6530612244898,39.59731543624161
73026,Cleveland County,OK,NA,NA,81.20805369127517
73052,Garvin County,OK,96.29258517034069,NA,NA
73072,Cleveland County,OK,NA,24.65986394557823,NA
73099,Canadian County,OK,NA,NA,14.988814317673377
73112,Oklahoma County,OK,NA,48.80952380952381,NA
73118,Oklahoma County,OK,NA,73.29931972789116,NA
73129,Oklahoma County,OK,NA,72.10884353741497,NA
73159,Oklahoma County,OK,44.589178356713425,NA,41.163310961968676
73533,Stephens County,OK,NA,11.394557823129253,NA
73701,Garfield County,OK,44.88977955911824,NA,NA
74017,Rogers County,OK,NA,NA,22.371364653243848
74063,Tulsa County,OK,NA,NA,46.97986577181208
74075,Payne County,OK,NA,NA,44.742729306487696
74136,Tulsa County,OK,NA,43.707482993197274,NA
74344,Delaware County,OK,73.14629258517033,NA,NA
74441,Cherokee County,OK,85.37074148296593,NA,NA
74467,Wagoner County,OK,83.46693386773548,NA,NA
74523,Pushmataha County,OK,NA,83.33333333333334,NA
74601,Kay County,OK,NA,NA,70.46979865771812
74804,Pottawatomie County,OK,NA,44.21768707482993,NA
74820,Pontotoc County,OK,8.517034068136272,NA,NA
74868,Seminole County,OK,69.43887775551102,NA,NA
74872,Garvin County,OK,NA,97.10884353741497,NA
97023,Clackamas County,OR,88.67735470941884,NA,NA
97030,Multnomah County,OR,48.49699398797595,NA,NA
97045,Clackamas County,OR,NA,NA,11.856823266219239
97062,Washington County,OR,NA,63.60544217687075,NA
97086,Clackamas County,OR,NA,68.02721088435374,NA
97103,Clatsop County,OR,NA,45.23809523809524,NA
97132,Yamhill County,OR,39.078156312625254,NA,NA
97140,Washington County,OR,56.212424849699396,NA,NA
97202,Multnomah County,OR,NA,48.29931972789115,NA
97203,Multnomah County,OR,71.04208416833667,NA,NA
97209,Multnomah County,OR,37.77555110220441,NA,NA
97211,Multnomah County,OR,43.38677354709419,NA,NA
97221,Multnomah County,OR,87.0741482965932,81.97278911564626,NA
97223,Washington County,OR,28.65731462925852,NA,NA
97230,Multnomah County,OR,NA,NA,11.185682326621924
97236,Multnomah County,OR,NA,24.489795918367346,NA
97267,Clackamas County,OR,67.83567134268537,NA,53.46756152125279
97301,Marion County,OR,NA,NA,39.37360178970917
97303,Marion County,OR,NA,44.72789115646258,NA
97317,Marion County,OR,NA,57.82312925170068,NA
97333,Benton County,OR,NA,NA,50.78299776286354
97355,Linn County,OR,NA,5.1020408163265305,NA
97477,Lane County,OR,25.0501002004008,28.91156462585034,NA
97503,Jackson County,OR,63.22645290581163,NA,NA
97520,Jackson County,OR,NA,46.93877551020408,NA
97526,Josephine County,OR,NA,NA,42.95302013422819
97703,Deschutes County,OR,79.95991983967936,NA,NA
97814,Baker County,OR,41.98396793587174,NA,NA
97838,Umatilla County,OR,48.59719438877755,NA,NA
97850,Union County,OR,39.478957915831664,NA,NA
97882,Umatilla County,OR,91.98396793587175,NA,NA
15022,Washington County,PA,NA,77.89115646258503,NA
15065,Allegheny County,PA,66.33266533066133,NA,NA
15074,Beaver County,PA,63.727454909819635,NA,NA
15120,Allegheny County,PA,NA,43.53741496598639,NA
15202,Allegheny County,PA,51.703406813627254,NA,NA
15203,Allegheny County,PA,NA,69.89795918367348,NA
15207,Allegheny County,PA,58.717434869739485,NA,NA
15212,Allegheny County,PA,25.35070140280561,37.755102040816325,NA
15234,Allegheny County,PA,85.77154308617234,NA,NA
15238,Allegheny County,PA,NA,NA,70.24608501118567
15241,Allegheny County,PA,NA,61.904761904761905,NA
15317,Washington County,PA,NA,7.653061224489796,NA
15613,Westmoreland County,PA,64.72945891783567,NA,NA
15632,Westmoreland County,PA,88.57715430861724,NA,59.50782997762863
15666,Westmoreland County,PA,NA,NA,41.83445190156599
15801,Clearfield County,PA,8.216432865731463,NA,NA
15825,Jefferson County,PA,43.8877755511022,NA,NA
15845,Elk County,PA,91.08216432865731,NA,NA
15857,Elk County,PA,26.252505010020037,7.993197278911565,NA
15905,Cambria County,PA,NA,NA,54.80984340044742
16301,Venango County,PA,NA,NA,34.899328859060404
16323,Venango County,PA,NA,34.523809523809526,NA
16335,Crawford County,PA,37.675350701402806,NA,NA
16407,Erie County,PA,76.65330661322646,NA,NA
16424,Crawford County,PA,93.28657314629258,NA,NA
16505,Erie County,PA,69.83967935871743,NA,NA
16509,Erie County,PA,NA,31.97278911564626,NA
16511,Erie County,PA,NA,NA,69.79865771812081
16648,Blair County,PA,58.61723446893787,NA,NA
16652,Huntingdon County,PA,NA,NA,17.002237136465325
16686,Blair County,PA,58.31663326653307,NA,NA
17015,Cumberland County,PA,42.985971943887776,NA,NA
17033,Dauphin County,PA,NA,NA,19.686800894854585
17038,Lebanon County,PA,72.44488977955912,NA,NA
17050,Cumberland County,PA,23.547094188376754,8.673469387755102,NA
17057,Dauphin County,PA,19.238476953907817,14.965986394557824,NA
17070,Cumberland County,PA,NA,41.3265306122449,NA
17112,Dauphin County,PA,NA,NA,9.843400447427292
17241,Cumberland County,PA,75.1503006012024,NA,NA
17268,Franklin County,PA,18.837675350701403,NA,NA
17325,Adams County,PA,25.250501002004004,NA,NA
17331,York County,PA,NA,NA,0.8948545861297539
17339,York County,PA,90.48096192384769,NA,NA
17402,York County,PA,20.34068136272545,NA,NA
17540,Lancaster County,PA,76.35270541082164,NA,NA
17724,Bradford County,PA,92.68537074148297,NA,NA
17756,Lycoming County,PA,71.5430861723447,NA,NA
17870,Snyder County,PA,47.09418837675351,NA,NA
17972,Schuylkill County,PA,NA,56.292517006802726,NA
18015,Northampton County,PA,8.817635270541082,NA,NA
18017,Northampton County,PA,NA,3.9115646258503403,NA
18020,Northampton County,PA,42.68537074148296,NA,NA
18069,Lehigh County,PA,NA,NA,93.73601789709173
18104,Lehigh County,PA,NA,4.2517006802721085,NA
18201,Luzerne County,PA,51.503006012024045,NA,NA
18252,Schuylkill County,PA,55.91182364729459,NA,NA
18472,Wayne County,PA,NA,88.09523809523809,NA
18508,Lackawanna County,PA,59.519038076152306,NA,NA
18840,Bradford County,PA,NA,77.04081632653062,NA
18960,Bucks County,PA,NA,NA,86.57718120805369
18964,Montgomery County,PA,NA,NA,63.982102908277405
19013,Delaware County,PA,2.905811623246493,NA,NA
19018,Delaware County,PA,27.55511022044088,NA,NA
19054,Bucks County,PA,NA,NA,84.11633109619687
19095,Montgomery County,PA,NA,NA,87.24832214765101
19104,Philadelphia County,PA,38.37675350701403,NA,NA
19107,Philadelphia County,PA,NA,NA,83.22147651006712
19111,Philadelphia County,PA,3.2064128256513023,NA,NA
19120,Philadelphia County,PA,2.7054108216432864,NA,NA
19121,Philadelphia County,PA,9.519038076152304,NA,NA
19122,Philadelphia County,PA,NA,NA,79.41834451901566
19124,Philadelphia County,PA,8.917835671342687,NA,NA
19132,Philadelphia County,PA,6.012024048096192,NA,NA
19135,Philadelphia County,PA,16.132264529058116,NA,NA
19138,Philadelphia County,PA,14.02805611222445,NA,NA
19139,Philadelphia County,PA,3.807615230460922,NA,NA
19140,Philadelphia County,PA,1.903807615230461,NA,NA
19141,Philadelphia County,PA,8.016032064128256,NA,NA
19144,Philadelphia County,PA,23.847695390781563,NA,NA
19148,Philadelphia County,PA,8.617234468937877,NA,NA
19341,Chester County,PA,NA,NA,83.66890380313198
19344,Chester County,PA,NA,NA,72.03579418344519
19348,Chester County,PA,80.36072144288578,NA,NA
19401,Montgomery County,PA,NA,19.5578231292517,NA
19438,Montgomery County,PA,NA,NA,66.66666666666666
19567,Berks County,PA,NA,NA,87.91946308724832
19601,Berks County,PA,NA,12.755102040816327,NA
02817,Kent County,RI,86.67334669338678,NA,NA
02859,Providence County,RI,NA,95.578231292517,NA
02882,Washington County,RI,NA,52.04081632653062,NA
02920,Providence County,RI,29.859719438877757,NA,NA
29070,Lexington County,SC,73.24649298597194,80.78231292517006,NA
29072,Lexington County,SC,27.054108216432866,NA,NA
29108,Newberry County,SC,NA,NA,58.16554809843401
29127,Newberry County,SC,92.38476953907816,NA,NA
29160,Lexington County,SC,80.06012024048096,NA,NA
29204,Richland County,SC,88.17635270541082,NA,NA
29210,Richland County,SC,41.68336673346693,NA,NA
29212,Lexington County,SC,NA,42.68707482993197,NA
29229,Richland County,SC,NA,54.59183673469388,NA
29340,Cherokee County,SC,40.28056112224449,NA,NA
29341,Cherokee County,SC,NA,54.421768707483,NA
29349,Spartanburg County,SC,NA,55.44217687074829,NA
29414,Charleston County,SC,33.366733466933866,NA,NA
29435,Colleton County,SC,99.19839679358718,NA,NA
29440,Georgetown County,SC,NA,NA,26.39821029082774
29461,Berkeley County,SC,NA,31.462585034013607,NA
29464,Charleston County,SC,NA,20.408163265306122,NA
29483,Dorchester County,SC,NA,17.517006802721088,NA
29485,Dorchester County,SC,27.45490981963928,NA,NA
29520,Chesterfield County,SC,NA,NA,75.6152125279642
29526,Horry County,SC,NA,9.693877551020408,NA
29527,Horry County,SC,49.39879759519038,NA,NA
29550,Darlington County,SC,40.981963927855716,NA,NA
29556,Williamsburg County,SC,62.32464929859719,NA,NA
29588,Horry County,SC,68.33667334669339,NA,NA
29624,Anderson County,SC,37.5751503006012,NA,NA
29627,Anderson County,SC,NA,NA,57.94183445190156
29642,Pickens County,SC,NA,15.476190476190476,NA
29650,Greenville County,SC,38.07615230460922,NA,NA
29673,Greenville County,SC,NA,NA,61.07382550335571
29680,Greenville County,SC,45.190380761523045,NA,NA
29690,Greenville County,SC,70.74148296593187,NA,NA
29847,Edgefield County,SC,NA,NA,98.43400447427292
29928,Beaufort County,SC,NA,85.03401360544217,NA
29944,Hampton County,SC,NA,95.40816326530613,NA
37055,Dickson County,TN,NA,42.3469387755102,NA
37064,Williamson County,TN,45.49098196392786,NA,NA
37066,Sumner County,TN,NA,NA,22.371364653243848
37072,Davidson County,TN,32.364729458917836,NA,NA
37075,Sumner County,TN,NA,32.31292517006803,NA
37087,Wilson County,TN,NA,83.50340136054422,26.845637583892618
37091,Marshall County,TN,NA,49.14965986394558,NA
37128,Rutherford County,TN,NA,49.65986394557823,NA
37160,Bedford County,TN,20.64128256513026,NA,NA
37166,DeKalb County,TN,81.4629258517034,NA,58.836689038031324
37167,Rutherford County,TN,27.354709418837675,NA,NA
37179,Williamson County,TN,94.48897795591182,NA,NA
37184,Wilson County,TN,NA,87.07482993197279,NA
37214,Davidson County,TN,NA,54.25170068027211,NA
37307,Polk County,TN,91.28256513026052,NA,NA
37317,Polk County,TN,NA,99.82993197278913,NA
37327,Sequatchie County,TN,41.38276553106213,NA,NA
37336,Bradley County,TN,94.0881763527054,NA,NA
37363,Hamilton County,TN,NA,72.27891156462584,NA
37373,Hamilton County,TN,99.59919839679358,NA,NA
37377,Hamilton County,TN,NA,18.367346938775512,NA
37385,Monroe County,TN,NA,61.05442176870748,NA
37404,Hamilton County,TN,62.82565130260521,NA,NA
37407,Hamilton County,TN,NA,90.64625850340136,NA
37416,Hamilton County,TN,54.60921843687375,NA,NA
37617,Sullivan County,TN,71.9438877755511,64.45578231292517,NA
37620,Sullivan County,TN,13.72745490981964,NA,NA
37659,Washington County,TN,36.47294589178357,26.87074829931973,NA
37660,Sullivan County,TN,NA,7.312925170068027,7.829977628635347
37664,Sullivan County,TN,NA,45.91836734693878,NA
37683,Johnson County,TN,55.41082164328658,NA,NA
37745,Greene County,TN,NA,59.013605442176875,NA
37748,Roane County,TN,34.66933867735471,NA,NA
37766,Campbell County,TN,35.97194388777555,NA,NA
37801,Blount County,TN,16.53306613226453,12.244897959183673,NA
37803,Blount County,TN,NA,NA,48.09843400447427
37804,Blount County,TN,28.95791583166333,NA,NA
37830,Anderson County,TN,25.450901803607213,NA,NA
37841,Scott County,TN,NA,NA,97.98657718120806
37853,Blount County,TN,98.89779559118237,NA,NA
37861,Grainger County,TN,NA,66.15646258503402,NA
37863,Sevier County,TN,NA,NA,96.86800894854586
37873,Hawkins County,TN,NA,NA,98.2102908277405
37874,Monroe County,TN,NA,50.68027210884354,NA
37877,Hamblen County,TN,75.95190380761522,NA,NA
37885,Monroe County,TN,NA,93.70748299319727,NA
37912,Knox County,TN,30.060120240480963,NA,NA
37919,Knox County,TN,NA,36.394557823129254,NA
37932,Knox County,TN,NA,66.3265306122449,NA
37938,Knox County,TN,70.84168336673346,NA,NA
38024,Dyer County,TN,NA,35.204081632653065,NA
38106,Shelby County,TN,17.835671342685373,NA,NA
38117,Shelby County,TN,NA,NA,49.44071588366891
38127,Shelby County,TN,NA,36.224489795918366,NA
38310,McNairy County,TN,NA,NA,83.89261744966443
38315,McNairy County,TN,93.48697394789579,NA,NA
38351,Henderson County,TN,52.605210420841686,43.02721088435374,NA
38372,Hardin County,TN,49.899799599198396,46.42857142857143,NA
38401,Maury County,TN,7.214428857715431,6.122448979591836,NA
38469,Lawrence County,TN,93.88777555110221,NA,NA
38474,Maury County,TN,NA,NA,98.65771812080537
38506,Putnam County,TN,40.88176352705411,18.537414965986397,29.977628635346754
38556,Fentress County,TN,51.302605210420836,NA,NA
38571,Cumberland County,TN,54.90981963927856,NA,NA
75002,Collin County,TX,22.645290581162325,NA,NA
75006,Dallas County,TX,NA,NA,26.174496644295303
75019,Dallas County,TX,54.208416833667336,NA,NA
75024,Collin County,TX,60.52104208416834,NA,NA
75044,Dallas County,TX,NA,NA,64.65324384787472
75050,Dallas County,TX,42.18436873747495,NA,NA
75051,Dallas County,TX,41.78356713426854,NA,NA
75070,Collin County,TX,16.63326653306613,NA,NA
75078,Collin County,TX,75.85170340681363,NA,NA
75092,Grayson County,TX,46.59318637274549,NA,NA
75149,Dallas County,TX,NA,27.721088435374146,NA
75159,Dallas County,TX,68.43687374749499,NA,NA
75208,Dallas County,TX,61.02204408817635,NA,NA
75211,Dallas County,TX,20.440881763527056,NA,NA
75218,Dallas County,TX,NA,NA,53.24384787472036
75231,Dallas County,TX,NA,NA,63.31096196868009
75241,Dallas County,TX,23.647294589178355,NA,NA
75604,Gregg County,TX,NA,58.843537414965986,NA
75644,Upshur County,TX,68.8376753507014,NA,NA
75654,Rusk County,TX,NA,68.36734693877551,NA
75684,Rusk County,TX,92.28456913827655,NA,NA
75703,Smith County,TX,NA,NA,14.541387024608502
75752,Henderson County,TX,NA,NA,89.48545861297539
75763,Anderson County,TX,NA,82.6530612244898,NA
75803,Anderson County,TX,64.12825651302605,NA,NA
75904,Angelina County,TX,66.53306613226452,NA,NA
75979,Tyler County,TX,NA,69.5578231292517,NA
76015,Tarrant County,TX,76.55310621242485,NA,NA
76020,Tarrant County,TX,NA,27.040816326530614,NA
76036,Tarrant County,TX,82.06412825651303,NA,NA
76048,Hood County,TX,NA,30.612244897959183,NA
76049,Hood County,TX,NA,NA,22.818791946308725
76053,Tarrant County,TX,NA,68.87755102040816,NA
76065,Ellis County,TX,NA,34.863945578231295,NA
76067,Palo Pinto County,TX,NA,NA,48.769574944071586
76087,Parker County,TX,NA,NA,61.74496644295302
76119,Tarrant County,TX,NA,6.972789115646258,NA
76126,Tarrant County,TX,73.64729458917836,NA,NA
76137,Tarrant County,TX,NA,18.197278911564627,NA
76179,Tarrant County,TX,NA,NA,55.92841163310962
76180,Tarrant County,TX,41.18236472945892,NA,NA
76209,Denton County,TX,NA,74.31972789115646,NA
76240,Cooke County,TX,70.64128256513025,NA,NA
76244,Tarrant County,TX,NA,52.38095238095239,NA
76308,Wichita County,TX,81.86372745490982,NA,NA
76437,Eastland County,TX,NA,88.43537414965986,NA
76504,Bell County,TX,NA,2.5510204081632653,NA
76541,Bell County,TX,44.388777555110224,NA,NA
76642,Limestone County,TX,NA,NA,95.30201342281879
76667,Limestone County,TX,NA,NA,44.966442953020135
76801,Brown County,TX,53.607214428857716,NA,NA
76901,Tom Green County,TX,NA,NA,62.19239373601789
76903,Tom Green County,TX,NA,51.36054421768708,NA
77022,Harris County,TX,NA,51.70068027210885,48.322147651006716
77024,Harris County,TX,NA,NA,87.47203579418344
77056,Harris County,TX,NA,NA,42.72930648769575
77071,Harris County,TX,60.72144288577155,NA,NA
77072,Harris County,TX,NA,NA,79.64205816554811
77077,Harris County,TX,NA,NA,32.662192393736014
77081,Harris County,TX,65.53106212424849,NA,NA
77086,Harris County,TX,66.43286573146293,NA,NA
77096,Harris County,TX,NA,43.36734693877551,NA
77328,San Jacinto County,TX,NA,80.95238095238095,NA
77338,Harris County,TX,NA,83.16326530612244,NA
77346,Harris County,TX,NA,33.6734693877551,NA
77354,Montgomery County,TX,NA,43.197278911564624,NA
77358,Walker County,TX,NA,91.66666666666666,NA
77365,Montgomery County,TX,76.25250501002004,NA,NA
77371,San Jacinto County,TX,87.2745490981964,NA,NA
77372,Montgomery County,TX,87.2745490981964,NA,NA
77373,Harris County,TX,29.458917835671343,76.36054421768708,NA
77385,Montgomery County,TX,NA,NA,90.1565995525727
77386,Montgomery County,TX,NA,NA,83.22147651006712
77414,Matagorda County,TX,73.64729458917836,NA,NA
77418,Austin County,TX,86.77354709418837,NA,NA
77422,Brazoria County,TX,NA,NA,71.14093959731544
77429,Harris County,TX,12.925851703406813,NA,NA
77433,Harris County,TX,13.326653306613226,NA,NA
77450,Harris County,TX,37.97595190380761,NA,NA
77459,Fort Bend County,TX,NA,NA,21.92393736017897
77474,Austin County,TX,91.58316633266533,NA,NA
77480,Brazoria County,TX,87.4749498997996,NA,NA
77489,Fort Bend County,TX,31.362725450901802,NA,NA
77494,Fort Bend County,TX,18.43687374749499,NA,NA
77498,Fort Bend County,TX,54.30861723446894,NA,NA
77502,Harris County,TX,53.406813627254515,NA,NA
77518,Galveston County,TX,89.57915831663327,NA,NA
77520,Harris County,TX,43.08617234468938,NA,NA
77535,Liberty County,TX,40.08016032064128,NA,NA
77571,Harris County,TX,28.1563126252505,NA,NA
77584,Brazoria County,TX,11.422845691382765,NA,NA
77651,Jefferson County,TX,NA,70.91836734693877,NA
77701,Jefferson County,TX,76.75350701402806,NA,NA
78121,Wilson County,TX,84.46893787575151,NA,NA
78130,Comal County,TX,79.55911823647295,NA,NA
78133,Comal County,TX,93.08617234468937,NA,NA
78201,Bexar County,TX,24.749498997995993,NA,NA
78204,Bexar County,TX,84.06813627254509,84.8639455782313,NA
78240,Bexar County,TX,NA,59.863945578231295,NA
78247,Bexar County,TX,78.2565130260521,NA,NA
78264,Bexar County,TX,94.38877755511022,NA,NA
78412,Nueces County,TX,NA,NA,76.51006711409396
78418,Nueces County,TX,71.14228456913828,NA,67.78523489932886
78504,Hidalgo County,TX,NA,NA,59.06040268456376
78516,Hidalgo County,TX,NA,NA,51.006711409395976
78584,Starr County,TX,66.13226452905812,NA,NA
78628,Williamson County,TX,NA,NA,1.5659955257270695
78633,Williamson County,TX,NA,NA,0.22371364653243847
78634,Williamson County,TX,60.02004008016032,NA,NA
78665,Williamson County,TX,NA,26.53061224489796,NA
78669,Travis County,TX,NA,72.78911564625851,NA
78735,Travis County,TX,NA,NA,75.83892617449665
78801,Uvalde County,TX,NA,61.564625850340136,NA
78840,Val Verde County,TX,61.62324649298597,NA,7.606263982102908
79106,Potter County,TX,54.408817635270545,NA,NA
79701,Midland County,TX,NA,65.64625850340136,NA
79703,Midland County,TX,59.719438877755515,NA,NA
79706,Midland County,TX,44.28857715430862,NA,NA
79762,Ector County,TX,28.557114228456914,40.476190476190474,NA
79764,Ector County,TX,55.51102204408818,NA,NA
79902,El Paso County,TX,NA,79.421768707483,NA
79904,El Paso County,TX,64.42885771543087,NA,NA
79924,El Paso County,TX,NA,NA,18.120805369127517
84003,Utah County,UT,NA,84.01360544217688,NA
84014,Davis County,UT,NA,NA,74.72035794183445
84043,Utah County,UT,NA,67.85714285714286,NA
84060,Summit County,UT,NA,86.56462585034014,NA
84095,Salt Lake County,UT,39.879759519038075,NA,NA
84102,Salt Lake County,UT,78.4569138276553,NA,NA
84106,Salt Lake County,UT,NA,50,NA
84116,Salt Lake County,UT,60.92184368737475,NA,NA
84121,Salt Lake County,UT,NA,NA,15.212527964205815
84128,Salt Lake County,UT,39.17835671342685,NA,NA
84405,Weber County,UT,NA,NA,59.06040268456376
84414,Weber County,UT,71.6432865731463,NA,NA
84770,Washington County,UT,NA,NA,5.592841163310962
84790,Washington County,UT,NA,12.585034013605442,3.131991051454139
05143,Windsor County,VT,96.39278557114228,NA,NA
05156,Windsor County,VT,NA,NA,61.521252796420576
05346,Windham County,VT,NA,NA,77.85234899328859
05401,Chittenden County,VT,NA,75.85034013605441,NA
05488,Franklin County,VT,NA,58.16326530612245,NA
05855,Orleans County,VT,NA,76.53061224489795,NA
20190,Fairfax County,VA,NA,92.3469387755102,NA
20191,Fairfax County,VA,NA,66.83673469387756,NA
20194,Fairfax County,VA,NA,NA,94.40715883668904
22015,Fairfax County,VA,NA,NA,53.02013422818792
22030,Fairfax County,VA,31.462925851703403,NA,NA
22032,Fairfax County,VA,NA,73.46938775510205,NA
22150,Fairfax County,VA,NA,NA,22.14765100671141
22181,Fairfax County,VA,NA,92.68707482993197,NA
22182,Fairfax County,VA,NA,NA,82.99776286353467
22307,Fairfax County,VA,NA,NA,80.31319910514542
22309,Fairfax County,VA,NA,NA,60.40268456375839
22407,Spotsylvania County,VA,19.338677354709418,NA,NA
22553,Spotsylvania County,VA,82.26452905811624,NA,NA
22603,Frederick County,VA,NA,69.38775510204081,NA
22901,Albemarle County,VA,NA,NA,6.263982102908278
22942,Louisa County,VA,78.85771543086172,NA,NA
22960,Orange County,VA,NA,63.26530612244898,NA
22980,Waynesboro city,VA,9.218436873747494,NA,NA
23002,Amelia County,VA,NA,85.20408163265306,NA
23072,Gloucester County,VA,NA,NA,57.494407158836694
23114,Chesterfield County,VA,88.47695390781564,NA,NA
23150,Henrico County,VA,NA,78.06122448979592,NA
23188,James City County,VA,NA,2.891156462585034,0.44742729306487694
23222,Richmond city,VA,NA,27.55102040816326,NA
23223,Henrico County,VA,3.106212424849699,NA,NA
23231,Henrico County,VA,24.549098196392784,NA,NA
23430,Isle of Wight County,VA,NA,30.782312925170068,NA
23434,Suffolk city,VA,17.13426853707415,NA,NA
23452,Virginia Beach city,VA,NA,7.142857142857142,NA
23456,Virginia Beach city,VA,NA,7.8231292517006805,11.409395973154362
23513,Norfolk city,VA,NA,NA,17.449664429530202
23608,Newport News city,VA,NA,NA,45.86129753914989
23666,Hampton city,VA,12.224448897795591,NA,NA
23704,Portsmouth city,VA,28.75751503006012,NA,NA
23838,Chesterfield County,VA,84.3687374749499,NA,NA
23842,Prince George County,VA,97.39478957915831,NA,NA
23875,Prince George County,VA,80.46092184368737,NA,NA
24012,Roanoke city,VA,29.659318637274552,NA,NA
24088,Franklin County,VA,97.69539078156313,NA,NA
24112,Henry County,VA,NA,NA,25.727069351230426
24141,Radford city,VA,NA,NA,55.257270693512304
24251,Scott County,VA,81.3627254509018,NA,NA
24266,Russell County,VA,NA,NA,68.0089485458613
24277,Lee County,VA,90.08016032064128,NA,NA
24368,Wythe County,VA,NA,94.21768707482994,NA
24426,Alleghany County,VA,45.69138276553106,NA,NA
24504,Lynchburg city,VA,NA,71.25850340136054,NA
24531,Pittsylvania County,VA,93.88777555110221,NA,NA
24592,Halifax County,VA,NA,NA,65.77181208053692
24630,Tazewell County,VA,NA,73.63945578231292,NA
98001,King County,WA,NA,38.435374149659864,NA
98010,King County,WA,NA,97.78911564625851,NA
98021,Snohomish County,WA,NA,46.59863945578231,NA
98029,King County,WA,NA,NA,62.41610738255034
98030,King County,WA,26.052104208416832,NA,NA
98033,King County,WA,63.126252505010015,NA,NA
98038,King County,WA,NA,NA,47.20357941834452
98059,King County,WA,44.48897795591182,NA,NA
98107,King County,WA,88.07615230460922,NA,NA
98144,King County,WA,30.26052104208417,NA,NA
98177,King County,WA,NA,56.80272108843537,NA
98188,King County,WA,NA,NA,59.73154362416108
98199,King County,WA,NA,NA,54.58612975391499
98208,Snohomish County,WA,21.9438877755511,NA,NA
98223,Snohomish County,WA,NA,85.71428571428571,NA
98249,Island County,WA,NA,NA,97.31543624161074
98270,Snohomish County,WA,20.04008016032064,NA,NA
98274,Skagit County,WA,62.525050100200396,NA,NA
98275,Snohomish County,WA,89.17835671342685,NA,NA
98292,Snohomish County,WA,60.42084168336673,NA,NA
98328,Pierce County,WA,NA,NA,89.93288590604027
98332,Pierce County,WA,94.88977955911824,NA,NA
98338,Pierce County,WA,NA,NA,68.23266219239373
98359,Kitsap County,WA,96.59318637274549,NA,NA
98374,Pierce County,WA,NA,40.136054421768705,NA
98391,Pierce County,WA,15.030060120240481,NA,NA
98446,Pierce County,WA,95.19038076152304,NA,NA
98466,Pierce County,WA,NA,34.183673469387756,NA
98502,Thurston County,WA,NA,67.17687074829932,NA
98513,Thurston County,WA,NA,NA,69.57494407158836
98516,Thurston County,WA,87.7755511022044,NA,NA
98532,Lewis County,WA,NA,NA,56.59955257270693
98541,Grays Harbor County,WA,NA,94.89795918367348,NA
98579,Thurston County,WA,NA,92.00680272108843,NA
98604,Clark County,WA,64.92985971943888,NA,NA
98607,Clark County,WA,NA,82.14285714285714,NA
98632,Cowlitz County,WA,51.00200400801603,NA,NA
98671,Clark County,WA,82.46492985971943,NA,NA
98682,Clark County,WA,58.91783567134269,NA,NA
98823,Grant County,WA,92.08416833667334,NA,NA
98837,Grant County,WA,NA,29.591836734693878,NA
98948,Yakima County,WA,87.5751503006012,NA,NA
99201,Spokane County,WA,NA,77.38095238095238,NA
99203,Spokane County,WA,81.56312625250501,NA,NA
99206,Spokane County,WA,NA,61.39455782312925,NA
99224,Spokane County,WA,86.47294589178357,NA,NA
99344,Adams County,WA,90.28056112224448,NA,NA
99352,Benton County,WA,NA,21.598639455782312,NA
99354,Benton County,WA,NA,29.25170068027211,NA
99362,Walla Walla County,WA,NA,NA,6.487695749440715
20002,District of Columbia,DC,43.48697394789579,NA,NA
20018,District of Columbia,DC,NA,23.12925170068027,NA
20019,District of Columbia,DC,3.9078156312625247,NA,NA
20020,District of Columbia,DC,32.16432865731463,5.612244897959184,NA
24740,Mercer County,WV,NA,NA,43.40044742729307
24901,Greenbrier County,WV,79.45891783567134,NA,NA
25414,Jefferson County,WV,61.42284569138277,NA,NA
25430,Jefferson County,WV,68.13627254509018,NA,NA
25674,Mingo County,WV,NA,97.27891156462584,NA
25701,Cabell County,WV,NA,NA,23.042505592841163
26003,Ohio County,WV,NA,2.2108843537414966,NA
26037,Brooke County,WV,78.55711422845691,NA,NA
26041,Marshall County,WV,NA,NA,42.281879194630875
26062,Hancock County,WV,12.424849699398797,NA,NA
26101,Wood County,WV,NA,NA,14.093959731543624
26253,Randolph County,WV,96.69338677354709,NA,NA
26301,Harrison County,WV,NA,9.523809523809524,NA
26426,Harrison County,WV,NA,74.82993197278913,NA
53014,Calumet County,WI,71.6432865731463,NA,NA
53029,Waukesha County,WI,NA,NA,49.664429530201346
53038,Jefferson County,WI,96.4929859719439,NA,NA
53072,Waukesha County,WI,NA,40.30612244897959,NA
53074,Ozaukee County,WI,69.33867735470942,NA,NA
53094,Jefferson County,WI,41.48296593186373,NA,NA
53105,Racine County,WI,16.432865731462925,10.034013605442176,NA
53110,Milwaukee County,WI,NA,31.122448979591837,NA
53121,Walworth County,WI,72.84569138276554,65.3061224489796,NA
53182,Racine County,WI,NA,NA,77.18120805369128
53206,Milwaukee County,WI,NA,9.013605442176871,NA
53207,Milwaukee County,WI,NA,29.081632653061224,NA
53209,Milwaukee County,WI,2.2044088176352705,NA,NA
53212,Milwaukee County,WI,14.629258517034069,NA,NA
53218,Milwaukee County,WI,NA,7.482993197278912,33.78076062639821
53222,Milwaukee County,WI,NA,35.8843537414966,NA
53224,Milwaukee County,WI,36.77354709418837,NA,NA
53528,Dane County,WI,NA,95.74829931972789,NA
53533,Iowa County,WI,NA,NA,78.29977628635348
53559,Dane County,WI,86.17234468937876,NA,NA
53590,Dane County,WI,38.476953907815634,NA,NA
53711,Dane County,WI,33.66733466933868,NA,NA
53925,Columbia County,WI,NA,96.5986394557823,NA
54166,Shawano County,WI,NA,NA,43.84787472035794
54423,Portage County,WI,99.8997995991984,NA,NA
54495,Wood County,WI,NA,NA,74.72035794183445
54656,Monroe County,WI,NA,37.244897959183675,NA
54729,Chippewa County,WI,NA,18.877551020408163,NA
54868,Barron County,WI,65.4308617234469,74.48979591836735,NA
54915,Outagamie County,WI,35.27054108216433,NA,NA
54935,Fond du Lac County,WI,16.63326653306613,NA,NA
54942,Outagamie County,WI,NA,88.94557823129252,NA
54952,Winnebago County,WI,48.09619238476954,NA,NA
54971,Fond du Lac County,WI,83.86773547094188,NA,NA
54981,Waupaca County,WI,NA,75.34013605442176,NA
82001,Laramie County,WY,NA,62.585034013605444,NA
82801,Sheridan County,WY,70.34068136272545,NA,NA
82930,Uinta County,WY,NA,NA,99.10514541387025
