ZipCode,county,state,Adult
35064,Jefferson County,AL,62.101910828025474
35244,Jefferson County,AL,49.89384288747346
35805,Madison County,AL,47.66454352441614
35903,Etowah County,AL,57.324840764331206
36067,Autauga County,AL,37.68577494692145
36502,Escambia County,AL,47.13375796178344
36567,Baldwin County,AL,85.45647558386412
36605,Mobile County,AL,42.038216560509554
36619,Mobile County,AL,77.2823779193206
36879,Lee County,AL,99.89384288747345
85008,Maricopa County,AZ,13.26963906581741
85009,Maricopa County,AZ,13.375796178343949
85015,Maricopa County,AZ,19.32059447983015
85017,Maricopa County,AZ,79.93630573248409
85029,Maricopa County,AZ,24.840764331210192
85041,Maricopa County,AZ,7.749469214437367
85201,Maricopa County,AZ,13.800424628450106
85203,Maricopa County,AZ,39.27813163481954
85233,Maricopa County,AZ,72.1868365180467
85283,Maricopa County,AZ,18.259023354564754
85306,Maricopa County,AZ,57.21868365180467
85310,Maricopa County,AZ,97.34607218683652
85344,La Paz County,AZ,70.16985138004246
85345,Maricopa County,AZ,12.632696390658174
85349,Yuma County,AZ,35.881104033970274
85353,Maricopa County,AZ,66.56050955414013
85706,Pima County,AZ,3.0785562632696393
86401,Mohave County,AZ,8.598726114649681
86403,Mohave County,AZ,48.40764331210191
86442,Mohave County,AZ,29.723991507431
72764,Washington County,AR,39.596602972399154
90013,Los Angeles County,CA,57.85562632696391
90017,Los Angeles County,CA,97.0276008492569
90018,Los Angeles County,CA,70.06369426751591
90025,Los Angeles County,CA,83.33333333333334
90031,Los Angeles County,CA,69.42675159235668
90033,Los Angeles County,CA,46.07218683651805
90043,Los Angeles County,CA,75.90233545647558
90044,Los Angeles County,CA,6.687898089171974
90057,Los Angeles County,CA,40.76433121019109
90059,Los Angeles County,CA,36.41188959660297
90201,Los Angeles County,CA,32.59023354564756
90220,Los Angeles County,CA,34.182590233545646
90247,Los Angeles County,CA,53.503184713375795
90650,Los Angeles County,CA,51.27388535031847
90745,Los Angeles County,CA,83.97027600849258
91001,Los Angeles County,CA,59.76645435244161
91205,Los Angeles County,CA,89.38428874734608
91324,Los Angeles County,CA,76.75159235668791
91343,Los Angeles County,CA,80.2547770700637
91402,Los Angeles County,CA,28.556263269639064
91702,Los Angeles County,CA,33.12101910828025
91709,San Bernardino County,CA,35.138004246284495
91941,San Diego County,CA,60.509554140127385
91950,San Diego County,CA,38.747346072186836
91978,San Diego County,CA,99.04458598726114
92010,San Diego County,CA,89.59660297239915
92027,San Diego County,CA,49.36305732484077
92114,San Diego County,CA,33.65180467091295
92116,San Diego County,CA,76.11464968152866
92126,San Diego County,CA,47.77070063694268
92127,San Diego County,CA,68.04670912951167
92154,San Diego County,CA,69.7452229299363
92223,Riverside County,CA,31.210191082802545
92277,San Bernardino County,CA,90.44585987261146
92301,San Bernardino County,CA,34.92569002123142
92311,San Bernardino County,CA,82.48407643312102
92346,San Bernardino County,CA,61.995753715498935
92392,San Bernardino County,CA,19.63906581740977
92404,San Bernardino County,CA,16.878980891719745
92407,San Bernardino County,CA,17.40976645435244
92503,Riverside County,CA,20.8067940552017
92508,Riverside County,CA,93.20594479830149
92543,Riverside County,CA,42.35668789808918
92701,Orange County,CA,76.64543524416136
92703,Orange County,CA,41.40127388535032
92704,Orange County,CA,66.66666666666666
92707,Orange County,CA,45.11677282377919
92708,Orange County,CA,38.42887473460722
92782,Orange County,CA,79.72399150743101
92801,Orange County,CA,67.51592356687898
92833,Orange County,CA,78.343949044586
93003,Ventura County,CA,65.92356687898089
93036,Ventura County,CA,31.95329087048832
93065,Ventura County,CA,14.64968152866242
93274,Tulare County,CA,5.626326963906582
93309,Kern County,CA,32.90870488322717
93551,Los Angeles County,CA,56.68789808917197
93636,Madera County,CA,88.21656050955414
93638,Madera County,CA,19.10828025477707
93646,Fresno County,CA,89.70276008492569
93702,Fresno County,CA,30.254777070063692
93704,Fresno County,CA,89.27813163481953
93727,Fresno County,CA,14.012738853503185
93901,Monterey County,CA,55.52016985138004
93923,Monterey County,CA,95.01061571125265
93933,Monterey County,CA,66.2420382165605
94061,San Mateo County,CA,55.095541401273884
94109,San Francisco County,CA,29.936305732484076
94116,San Francisco County,CA,90.87048832271762
94124,San Francisco County,CA,26.43312101910828
94303,San Mateo County,CA,29.40552016985138
94577,Alameda County,CA,38.853503184713375
94583,Contra Costa County,CA,89.49044585987261
94587,Alameda County,CA,37.367303609341825
94601,Alameda County,CA,86.09341825902335
94954,Sonoma County,CA,51.167728237791934
95035,Santa Clara County,CA,51.38004246284501
95076,Santa Cruz County,CA,79.08704883227176
95111,Santa Clara County,CA,40.445859872611464
95112,Santa Clara County,CA,40.02123142250531
95117,Santa Clara County,CA,95.1167728237792
95301,Merced County,CA,48.61995753715499
95356,Stanislaus County,CA,43.524416135881104
95363,Stanislaus County,CA,63.481953290870486
95492,Sonoma County,CA,64.43736730360934
95501,Humboldt County,CA,54.45859872611465
95519,Humboldt County,CA,73.88535031847134
95687,Solano County,CA,40.65817409766454
95823,Sacramento County,CA,12.314225053078557
95838,Sacramento County,CA,37.79193205944799
95965,Butte County,CA,18.152866242038215
95966,Butte County,CA,9.554140127388536
95969,Butte County,CA,78.87473460721868
95991,Sutter County,CA,30.573248407643312
96101,Modoc County,CA,91.6135881104034
80012,Arapahoe County,CO,11.146496815286625
80013,Arapahoe County,CO,9.023354564755838
80015,Arapahoe County,CO,17.3036093418259
80020,Broomfield County,CO,47.13375796178344
80022,Adams County,CO,16.348195329087048
80122,Arapahoe County,CO,55.838641188959656
80134,Douglas County,CO,60.93418259023354
80204,Denver County,CO,23.248407643312103
80229,Adams County,CO,46.81528662420382
80435,Summit County,CO,97.5583864118896
80537,Larimer County,CO,23.142250530785564
80601,Adams County,CO,34.81953290870488
80615,Weld County,CO,84.18259023354565
80905,El Paso County,CO,67.19745222929936
80910,El Paso County,CO,26.008492569002122
80923,El Paso County,CO,63.16348195329087
81001,Pueblo County,CO,23.036093418259025
81005,Pueblo County,CO,69.42675159235668
06070,Hartford County,CT,78.76857749469215
06114,Hartford County,CT,16.454352441613587
06120,Hartford County,CT,51.59235668789809
06238,Tolland County,CT,69.2144373673036
06401,New Haven County,CT,32.27176220806794
06457,Middlesex County,CT,83.54564755838642
06479,Hartford County,CT,81.95329087048833
06513,New Haven County,CT,4.35244161358811
06515,New Haven County,CT,64.11889596602973
06606,Fairfield County,CT,17.51592356687898
06790,Litchfield County,CT,5.3078556263269645
06830,Fairfield County,CT,85.56263269639066
19709,New Castle County,DE,80.99787685774947
19711,New Castle County,DE,32.48407643312102
19801,New Castle County,DE,83.7579617834395
19802,New Castle County,DE,14.331210191082802
32065,Clay County,FL,44.79830148619958
32068,Clay County,FL,12.208067940552016
32141,Volusia County,FL,90.23354564755839
32207,Duval County,FL,18.046709129511676
32210,Duval County,FL,4.246284501061571
32216,Duval County,FL,20.382165605095544
32218,Duval County,FL,3.9278131634819533
32223,Duval County,FL,72.08067940552016
32246,Duval County,FL,15.074309978768577
32503,Escambia County,FL,22.717622080679405
32547,Okaloosa County,FL,73.67303609341825
32653,Alachua County,FL,86.30573248407643
32771,Seminole County,FL,66.7728237791932
32789,Orange County,FL,73.03609341825901
32809,Orange County,FL,50.21231422505308
32825,Orange County,FL,33.54564755838641
32829,Orange County,FL,76.85774946921444
32909,Brevard County,FL,71.86836518046708
33015,Miami-Dade County,FL,79.51167728237792
33018,Miami-Dade County,FL,75.79617834394905
33023,Broward County,FL,69.32059447983015
33025,Broward County,FL,31.634819532908704
33032,Miami-Dade County,FL,84.92569002123143
33055,Miami-Dade County,FL,53.18471337579618
33068,Broward County,FL,75.47770700636943
33069,Broward County,FL,88.6411889596603
33141,Miami-Dade County,FL,61.57112526539278
33143,Miami-Dade County,FL,80.04246284501062
33160,Miami-Dade County,FL,67.62208067940551
33161,Miami-Dade County,FL,36.730360934182585
33168,Miami-Dade County,FL,70.38216560509554
33172,Miami-Dade County,FL,81.95329087048833
33178,Miami-Dade County,FL,90.65817409766454
33187,Miami-Dade County,FL,81.63481953290871
33311,Broward County,FL,6.581740976645436
33313,Broward County,FL,22.929936305732486
33319,Broward County,FL,45.010615711252655
33323,Broward County,FL,81.42250530785563
33411,Palm Beach County,FL,83.65180467091295
33455,Martin County,FL,82.90870488322717
33473,Palm Beach County,FL,96.07218683651804
33596,Hillsborough County,FL,87.79193205944799
33605,Hillsborough County,FL,57.64331210191082
33609,Hillsborough County,FL,75.05307855626327
33610,Hillsborough County,FL,64.75583864118896
33614,Hillsborough County,FL,37.04883227176221
33772,Pinellas County,FL,78.343949044586
33805,Polk County,FL,94.47983014861995
33810,Polk County,FL,84.50106157112526
33830,Polk County,FL,38.1104033970276
33881,Polk County,FL,39.384288747346076
33909,Lee County,FL,45.43524416135881
33935,Hendry County,FL,76.96390658174099
33952,Charlotte County,FL,26.53927813163482
33971,Lee County,FL,90.97664543524417
34205,Manatee County,FL,35.56263269639066
34222,Manatee County,FL,77.70700636942675
34470,Marion County,FL,78.23779193205945
34668,Pasco County,FL,12.101910828025478
34683,Pinellas County,FL,65.49893842887474
34982,St. Lucie County,FL,55.62632696390658
30034,DeKalb County,GA,31.528662420382165
30054,Newton County,GA,71.76220806794055
30060,Cobb County,GA,71.3375796178344
30067,Cobb County,GA,62.42038216560509
30120,Bartow County,GA,22.611464968152866
30121,Bartow County,GA,56.79405520169851
30161,Floyd County,GA,20.488322717622083
30165,Floyd County,GA,26.963906581740975
30213,Fulton County,GA,81.21019108280255
30214,Fayette County,GA,56.05095541401274
30309,Fulton County,GA,93.31210191082803
30316,DeKalb County,GA,81.104033970276
30342,Fulton County,GA,82.27176220806794
30458,Bulloch County,GA,67.19745222929936
30474,Toombs County,GA,61.46496815286624
30529,Jackson County,GA,80.67940552016985
30809,Columbia County,GA,38.32271762208068
30906,Richmond County,GA,32.05944798301486
30907,Columbia County,GA,27.60084925690021
31014,Bleckley County,GA,83.12101910828027
31092,Dooly County,GA,84.81953290870489
31302,Effingham County,GA,87.15498938428875
31313,Liberty County,GA,66.13588110403397
31539,Jeff Davis County,GA,68.78980891719745
31545,Wayne County,GA,72.82377919320594
31605,Lowndes County,GA,73.03609341825901
31763,Lee County,GA,52.12314225053078
31907,Muscogee County,GA,34.07643312101911
31909,Muscogee County,GA,71.97452229299363
96712,Honolulu County,HI,95.96602972399151
96744,Honolulu County,HI,54.56475583864119
96746,Kauai County,HI,66.87898089171973
96789,Honolulu County,HI,23.56687898089172
96797,Honolulu County,HI,7.32484076433121
96815,Honolulu County,HI,51.061571125265395
83316,Twin Falls County,ID,88.1104033970276
83336,Minidoka County,ID,99.15074309978769
83402,Bonneville County,ID,54.77707006369427
83442,Jefferson County,ID,74.20382165605095
83704,Ada County,ID,16.560509554140125
83713,Ada County,ID,38.6411889596603
83864,Bonner County,ID,70.80679405520169
60004,Cook County,IL,26.53927813163482
60014,McHenry County,IL,26.11464968152866
60030,Lake County,IL,45.64755838641189
60046,Lake County,IL,71.12526539278132
60068,Cook County,IL,42.78131634819533
60073,Lake County,IL,15.605095541401273
60074,Cook County,IL,44.47983014861996
60102,McHenry County,IL,49.681528662420384
60126,DuPage County,IL,9.129511677282377
60201,Cook County,IL,46.92144373673036
60404,Will County,IL,74.73460721868365
60441,Will County,IL,23.991507430997878
60443,Cook County,IL,48.51380042462845
60457,Cook County,IL,74.3099787685775
60465,Cook County,IL,95.64755838641189
60467,Cook County,IL,52.653927813163484
60504,DuPage County,IL,38.004246284501065
60516,DuPage County,IL,48.30148619957537
60517,DuPage County,IL,42.14437367303609
60612,Cook County,IL,20.169851380042463
60618,Cook County,IL,7.43099787685775
60629,Cook County,IL,61.78343949044586
60647,Cook County,IL,7.006369426751593
60655,Cook County,IL,30.78556263269639
60660,Cook County,IL,62.31422505307855
60707,Cook County,IL,21.762208067940552
61109,Winnebago County,IL,47.983014861995755
61832,Vermilion County,IL,9.872611464968154
62226,St. Clair County,IL,46.28450106157113
46041,Clinton County,IN,67.62208067940551
46142,Johnson County,IN,45.75371549893843
46176,Shelby County,IN,48.938428874734605
46201,Marion County,IN,18.471337579617835
46214,Marion County,IN,59.554140127388536
46222,Marion County,IN,21.656050955414013
46234,Marion County,IN,63.05732484076433
46241,Marion County,IN,21.97452229299363
46307,Lake County,IN,13.05732484076433
46360,LaPorte County,IN,47.346072186836516
46404,Lake County,IN,87.89808917197452
46563,Marshall County,IN,72.61146496815286
46619,St. Joseph County,IN,56.90021231422505
46808,Allen County,IN,80.57324840764332
46825,Allen County,IN,40.445859872611464
46952,Grant County,IN,18.471337579617835
46953,Grant County,IN,11.78343949044586
46970,Miami County,IN,37.898089171974526
47250,Jefferson County,IN,68.25902335456475
47302,Delaware County,IN,18.789808917197455
47710,Vanderburgh County,IN,37.47346072186836
47711,Vanderburgh County,IN,29.617834394904456
47714,Vanderburgh County,IN,46.28450106157113
50588,Buena Vista County,IA,43.94904458598726
50644,Buchanan County,IA,79.08704883227176
50703,Black Hawk County,IA,30.148619957537154
51301,Clay County,IA,54.24628450106157
51503,Pottawattamie County,IA,7.643312101910828
52405,Linn County,IA,71.656050955414
52627,Lee County,IA,75.3715498938429
52722,Scott County,IA,55.20169851380042
52761,Muscatine County,IA,11.571125265392782
66801,Lyon County,KS,52.4416135881104
40014,Oldham County,KY,71.01910828025477
40216,Jefferson County,KY,36.09341825902335
40218,Jefferson County,KY,13.588110403397028
40403,Madison County,KY,23.88535031847134
40508,Fayette County,KY,35.6687898089172
40744,Laurel County,KY,63.90658174097664
41015,Kenton County,KY,28.237791932059448
41071,Campbell County,KY,28.450106157112526
41101,Boyd County,KY,17.197452229299362
42303,Daviess County,KY,8.81104033970276
42420,Henderson County,KY,8.174097664543524
70001,Jefferson Parish,LA,23.35456475583864
70043,St. Bernard Parish,LA,14.543524416135881
70047,St. Charles Parish,LA,71.44373673036092
70058,Jefferson Parish,LA,96.81528662420382
70072,Jefferson Parish,LA,96.39065817409767
70114,Orleans Parish,LA,98.19532908704883
70115,Orleans Parish,LA,19.21443736730361
70119,Orleans Parish,LA,24.734607218683653
70126,Orleans Parish,LA,28.662420382165603
70127,Orleans Parish,LA,90.55201698513801
70401,Tangipahoa Parish,LA,27.176220806794056
70420,St. Tammany Parish,LA,94.37367303609342
70454,Tangipahoa Parish,LA,97.45222929936305
70461,St. Tammany Parish,LA,49.78768577494692
70501,Lafayette Parish,LA,2.335456475583864
70510,Vermilion Parish,LA,96.4968152866242
70517,St. Martin Parish,LA,12.845010615711253
70722,East Feliciana Parish,LA,99.57537154989384
70726,Livingston Parish,LA,1.8046709129511678
70737,Ascension Parish,LA,6.475583864118896
70810,East Baton Rouge Parish,LA,33.65180467091295
70814,East Baton Rouge Parish,LA,36.624203821656046
71052,De Soto Parish,LA,98.30148619957538
71291,Ouachita Parish,LA,9.766454352441615
71483,Winn Parish,LA,41.71974522292994
04073,York County,ME,25.477707006369428
04330,Kennebec County,ME,5.414012738853503
04530,Sagadahoc County,ME,87.57961783439491
04976,Somerset County,ME,15.286624203821656
20748,Prince George's County,MD,47.0276008492569
20764,Anne Arundel County,MD,97.87685774946921
20772,Prince George's County,MD,50.10615711252654
20785,Prince George's County,MD,57.430997876857745
21076,Anne Arundel County,MD,84.71337579617835
21216,Baltimore city,MD,37.15498938428875
21224,Baltimore city,MD,15.711252653927813
21234,Baltimore County,MD,49.15074309978769
21237,Baltimore County,MD,55.4140127388535
21601,Talbot County,MD,95.85987261146497
21702,Frederick County,MD,89.171974522293
01040,Hampden County,MA,82.59023354564756
01104,Hampden County,MA,1.48619957537155
01462,Worcester County,MA,52.653927813163484
01501,Worcester County,MA,35.138004246284495
01545,Worcester County,MA,16.666666666666664
01604,Worcester County,MA,0.743099787685775
01606,Worcester County,MA,88.32271762208069
01607,Worcester County,MA,12.951167728237792
01748,Middlesex County,MA,74.84076433121018
01752,Middlesex County,MA,88.74734607218684
01803,Middlesex County,MA,22.080679405520172
01821,Middlesex County,MA,78.6624203821656
01841,Essex County,MA,0
01876,Middlesex County,MA,6.369426751592357
01905,Essex County,MA,10.40339702760085
01960,Essex County,MA,28.13163481953291
02048,Bristol County,MA,21.549893842887474
02052,Norfolk County,MA,64.22505307855626
02113,Suffolk County,MA,96.28450106157112
02115,Suffolk County,MA,5.9447983014862
02119,Suffolk County,MA,34.394904458598724
02121,Suffolk County,MA,39.91507430997877
02124,Suffolk County,MA,2.229299363057325
02125,Suffolk County,MA,73.56687898089172
02127,Suffolk County,MA,1.3800424628450108
02130,Suffolk County,MA,7.218683651804671
02131,Suffolk County,MA,1.6985138004246285
02136,Suffolk County,MA,1.910828025477707
02151,Suffolk County,MA,0.10615711252653928
02301,Plymouth County,MA,10.191082802547772
02302,Plymouth County,MA,79.61783439490446
02346,Plymouth County,MA,10.29723991507431
02360,Plymouth County,MA,0.8492569002123143
02382,Plymouth County,MA,61.146496815286625
02724,Bristol County,MA,3.821656050955414
02745,Bristol County,MA,2.335456475583864
48034,Oakland County,MI,81.74097664543525
48043,Macomb County,MI,65.711252653927815
48079,St. Clair County,MI,85.77494692144374
48083,Oakland County,MI,59.34182590233546
48089,Macomb County,MI,33.22717622080679
48131,Monroe County,MI,92.88747346072186
48161,Monroe County,MI,31.740976645435243
48162,Monroe County,MI,43.63057324840764
48184,Wayne County,MI,15.180467091295116
48192,Wayne County,MI,17.940552016985137
48215,Wayne County,MI,39.06581740976646
48221,Wayne County,MI,59.97876857749469
48234,Wayne County,MI,32.802547770700635
48235,Wayne County,MI,2.7600849256900215
48236,Wayne County,MI,64.96815286624204
48238,Wayne County,MI,4.989384288747346
48304,Oakland County,MI,66.98513800424628
48328,Oakland County,MI,40.23354564755839
48340,Oakland County,MI,9.660297239915074
48383,Oakland County,MI,69.95753715498938
48415,Saginaw County,MI,50.63694267515923
48430,Genesee County,MI,26.857749469214436
48462,Oakland County,MI,77.2823779193206
48601,Saginaw County,MI,2.1231422505307855
48638,Saginaw County,MI,59.87261146496815
48801,Gratiot County,MI,49.575371549893845
48813,Eaton County,MI,40.339702760084926
48842,Ingham County,MI,40.02123142250531
48875,Ionia County,MI,78.98089171974523
49006,Kalamazoo County,MI,92.46284501061571
49014,Calhoun County,MI,19.426751592356688
49022,Berrien County,MI,37.261146496815286
49036,Branch County,MI,63.26963906581741
49057,Van Buren County,MI,92.78131634819533
49071,Van Buren County,MI,72.1868365180467
49221,Lenawee County,MI,4.033970276008493
49307,Mecosta County,MI,53.92781316348195
49333,Barry County,MI,93.52441613588111
49417,Ottawa County,MI,50.74309978768577
49426,Ottawa County,MI,42.675159235668794
49442,Muskegon County,MI,3.6093418259023355
49444,Muskegon County,MI,8.70488322717622
49461,Muskegon County,MI,75.15923566878982
49503,Kent County,MI,10.828025477707007
49506,Kent County,MI,25.796178343949045
49783,Chippewa County,MI,22.29299363057325
49801,Dickinson County,MI,64.86199575371549
55107,Ramsey County,MN,73.46072186836517
55119,Ramsey County,MN,63.588110403397025
55130,Ramsey County,MN,50.955414012738856
55309,Sherburne County,MN,76.53927813163483
55343,Hennepin County,MN,74.52229299363057
55411,Hennepin County,MN,16.772823779193207
55412,Hennepin County,MN,7.855626326963907
55415,Hennepin County,MN,89.91507430997878
55432,Anoka County,MN,24.309978768577494
55434,Anoka County,MN,64.3312101910828
39119,Covington County,MS,94.26751592356688
39146,Holmes County,MS,98.08917197452229
39429,Marion County,MS,87.68577494692144
39474,Jefferson Davis County,MS,95.32908704883228
39503,Harrison County,MS,9.978768577494693
39562,Jackson County,MS,58.3864118895966
39702,Lowndes County,MS,69.63906581740976
63052,Jefferson County,MO,54.03397027600849
63303,St. Charles County,MO,24.416135881104033
64034,Jackson County,MO,86.62420382165605
64063,Jackson County,MO,40.976645435244166
64082,Jackson County,MO,70.48832271762208
64111,Jackson County,MO,60.828025477707
64116,Clay County,MO,25.583864118895967
64119,Clay County,MO,10.40339702760085
64134,Jackson County,MO,12.738853503184714
64153,Platte County,MO,86.1995753715499
64506,Buchanan County,MO,19.957537154989385
64850,Newton County,MO,15.392781316348195
65584,Pulaski County,MO,98.93842887473461
65804,Greene County,MO,30.997876857749468
59047,Park County,MT,77.2823779193206
59701,Silver Bow County,MT,64.54352441613588
68154,Douglas County,NE,83.01486199575372
68510,Lancaster County,NE,77.91932059447984
68801,Hall County,NE,84.39490445859873
89110,Clark County,NV,54.35244161358811
89113,Clark County,NV,76.00849256900213
89146,Clark County,NV,80.7855626326964
89178,Clark County,NV,73.35456475583864
89429,Lyon County,NV,82.16560509554141
89433,Washoe County,NV,84.07643312101911
89506,Washoe County,NV,19.002123142250532
89511,Washoe County,NV,64.64968152866241
03053,Rockingham County,NH,28.768577494692142
03054,Hillsborough County,NH,66.02972399150742
07002,Hudson County,NJ,1.2738853503184715
07011,Passaic County,NJ,17.51592356687898
07017,Essex County,NJ,2.547770700636943
07029,Hudson County,NJ,60.19108280254777
07030,Hudson County,NJ,5.7324840764331215
07035,Morris County,NJ,63.69426751592356
07055,Passaic County,NJ,91.0828025477707
07104,Essex County,NJ,89.06581740976645
07106,Essex County,NJ,95.43524416135881
07111,Essex County,NJ,7.112526539278131
07305,Hudson County,NJ,94.5859872611465
07306,Hudson County,NJ,5.201698513800425
07419,Sussex County,NJ,86.94267515923568
07501,Passaic County,NJ,2.0169851380042463
07642,Bergen County,NJ,96.60297239915074
07720,Monmouth County,NJ,98.40764331210191
07747,Monmouth County,NJ,34.50106157112526
07751,Monmouth County,NJ,67.83439490445859
07940,Morris County,NJ,98.72611464968153
08009,Camden County,NJ,60.29723991507431
08021,Camden County,NJ,0.3184713375796179
08035,Camden County,NJ,91.18895966029724
08085,Gloucester County,NJ,25.265392781316347
08103,Camden County,NJ,57.537154989384284
08110,Camden County,NJ,98.83227176220807
08205,Atlantic County,NJ,16.02972399150743
08302,Cumberland County,NJ,9.341825902335456
08618,Mercer County,NJ,0.9554140127388535
08701,Ocean County,NJ,35.45647558386412
08736,Monmouth County,NJ,94.90445859872611
08757,Ocean County,NJ,11.995753715498939
08886,Warren County,NJ,84.288747346072185
87102,Bernalillo County,NM,23.46072186836518
87109,Bernalillo County,NM,17.091295116772823
87120,Bernalillo County,NM,36.19957537154989
87566,Rio Arriba County,NM,95.75371549893843
88310,Otero County,NM,25.371549893842886
10011,New York County,NY,40.87048832271763
10029,New York County,NY,0.5307855626326964
10035,New York County,NY,27.494692144373673
10037,New York County,NY,70.80679405520169
10039,New York County,NY,78.55626326963908
10303,Richmond County,NY,41.932059447983015
10305,Richmond County,NY,69.10828025477707
10314,Richmond County,NY,80.14861995753716
10452,Bronx County,NY,5.520169851380043
10453,Bronx County,NY,5.83864118895966
10456,Bronx County,NY,0.21231422505307856
10457,Bronx County,NY,0.6369426751592357
10458,Bronx County,NY,43.09978768577495
10459,Bronx County,NY,58.81104033970276
10469,Bronx County,NY,3.5031847133757963
10470,Bronx County,NY,89.80891719745223
10522,Westchester County,NY,96.17834394904459
10701,Westchester County,NY,1.5923566878980893
10950,Orange County,NY,67.94055201698514
11101,Queens County,NY,58.28025477707006
11207,Kings County,NY,25.159235668789808
11208,Kings County,NY,1.167728237791932
11210,Kings County,NY,73.88535031847134
11219,Kings County,NY,45.32908704883227
11220,Kings County,NY,18.895966029723994
11225,Kings County,NY,58.59872611464968
11229,Kings County,NY,61.8895966029724
11236,Kings County,NY,41.082802547770704
11237,Kings County,NY,59.23566878980891
11355,Queens County,NY,28.980891719745223
11356,Queens County,NY,92.03821656050955
11368,Queens County,NY,6.794055201698514
11369,Queens County,NY,57.961783439490446
11370,Queens County,NY,77.70700636942675
11373,Queens County,NY,81.42250530785563
11385,Queens County,NY,76.2208067940552
11412,Queens County,NY,77.17622080679406
11415,Queens County,NY,86.7303609341826
11422,Queens County,NY,68.57749469214437
11432,Queens County,NY,27.70700636942675
11435,Queens County,NY,10.934182590233545
11520,Nassau County,NY,33.43949044585987
11550,Nassau County,NY,60.72186836518046
11704,Suffolk County,NY,82.37791932059449
11717,Suffolk County,NY,19.53290870488323
11757,Suffolk County,NY,44.904458598726116
12078,Fulton County,NY,4.564755838641188
12203,Albany County,NY,39.80891719745223
12206,Albany County,NY,21.019108280254777
12446,Ulster County,NY,94.79830148619958
12603,Dutchess County,NY,73.7791932059448
13029,Onondaga County,NY,74.09766454352442
13037,Madison County,NY,62.52653927813163
13045,Cortland County,NY,22.18683651804671
13057,Onondaga County,NY,50.424628450106155
13069,Oswego County,NY,5.095541401273886
13078,Onondaga County,NY,58.70488322717622
13104,Onondaga County,NY,79.40552016985139
13357,Herkimer County,NY,81.84713375796179
13440,Oneida County,NY,56.475583864118896
13746,Broome County,NY,90.33970276008493
13850,Broome County,NY,14.8619957537155
13901,Broome County,NY,21.86836518046709
14213,Erie County,NY,20.063694267515924
14220,Erie County,NY,13.481953290870488
14223,Erie County,NY,29.511677282377917
14489,Wayne County,NY,33.86411889596603
14522,Wayne County,NY,34.71337579617834
14534,Monroe County,NY,6.050955414012739
14606,Monroe County,NY,3.1847133757961785
14613,Monroe County,NY,41.29511677282378
14616,Monroe County,NY,3.397027600849257
14621,Monroe County,NY,27.070063694267514
14623,Monroe County,NY,16.13588110403397
14624,Monroe County,NY,2.9723991507431
14706,Cattaraugus County,NY,97.23991507430998
27055,Yadkin County,NC,92.56900212314225
27103,Forsyth County,NC,14.118895966029724
27215,Alamance County,NC,8.9171974522293
27233,Randolph County,NC,99.4692144373673
27260,Guilford County,NC,23.7791932059448
27265,Guilford County,NC,20.912951167728238
27284,Forsyth County,NC,6.263269639065817
27298,Randolph County,NC,83.33333333333334
27407,Guilford County,NC,19.745222929936308
27501,Harnett County,NC,53.82165605095541
27513,Wake County,NC,62.63269639065817
27525,Franklin County,NC,58.917197452229296
27546,Harnett County,NC,62.738853503184714
27560,Wake County,NC,75.6900212314225
27606,Wake County,NC,93.84288747346072
27801,Edgecombe County,NC,71.54989384288747
27870,Halifax County,NC,24.097664543524417
28104,Union County,NC,88.00424628450106
28144,Rowan County,NC,81.31634819532908
28208,Mecklenburg County,NC,8.067940552016985
28212,Mecklenburg County,NC,26.326963906581742
28216,Mecklenburg County,NC,8.280254777070063
28227,Mecklenburg County,NC,21.443736730360936
28277,Mecklenburg County,NC,43.73673036093418
28303,Cumberland County,NC,57.11252653927813
28315,Moore County,NC,95.22292993630573
28345,Richmond County,NC,61.04033970276008
28348,Cumberland County,NC,68.47133757961782
28358,Robeson County,NC,49.25690021231423
28472,Columbus County,NC,38.42887473460722
28681,Alexander County,NC,54.67091295116773
28761,McDowell County,NC,78.13163481953292
58201,Grand Forks County,ND,32.1656050955414
43040,Union County,OH,27.388535031847134
43110,Franklin County,OH,24.94692144373673
43213,Franklin County,OH,8.492569002123142
43230,Franklin County,OH,14.8619957537155
43351,Wyandot County,OH,43.31210191082803
43551,Wood County,OH,13.163481953290871
43604,Lucas County,OH,44.0552016985138
43605,Lucas County,OH,2.8662420382165608
43609,Lucas County,OH,4.777070063694268
43612,Lucas County,OH,4.45859872611465
43613,Lucas County,OH,3.715498938428875
43617,Lucas County,OH,88.53503184713377
44012,Lorain County,OH,35.98726114649681
44035,Lorain County,OH,7.537154989384288
44087,Summit County,OH,94.69214437367303
44102,Cuyahoga County,OH,0.42462845010615713
44108,Cuyahoga County,OH,35.35031847133758
44109,Cuyahoga County,OH,4.670912951167728
44221,Summit County,OH,46.70912951167728
44231,Portage County,OH,85.98726114649682
44301,Summit County,OH,31.84713375796178
44507,Mahoning County,OH,53.397027600849256
44511,Mahoning County,OH,24.522292993630572
44512,Mahoning County,OH,9.129511677282377
44890,Huron County,OH,42.462845010615716
45040,Warren County,OH,86.41188959660298
45056,Butler County,OH,88.85350318471338
45130,Brown County,OH,98.51380042462846
45202,Hamilton County,OH,21.337579617834397
45211,Hamilton County,OH,7.961783439490445
45212,Hamilton County,OH,31.104033970276006
45215,Hamilton County,OH,26.2208067940552
45231,Hamilton County,OH,32.90870488322717
45236,Hamilton County,OH,80.36093418259024
45240,Hamilton County,OH,26.751592356687897
45302,Shelby County,OH,96.70912951167729
45365,Shelby County,OH,11.8895966029724
45373,Miami County,OH,6.1571125265392785
45631,Gallia County,OH,10.084925690021231
45669,Lawrence County,OH,51.69851380042463
45784,Washington County,OH,72.50530785562633
73008,Oklahoma County,OK,65.60509554140127
73111,Oklahoma County,OK,65.18046709129511
73112,Oklahoma County,OK,37.47346072186836
73114,Oklahoma County,OK,56.15711252653928
73160,Cleveland County,OK,43.418259023354565
73601,Custer County,OK,65.39278131634819
74017,Rogers County,OK,46.17834394904459
74127,Tulsa County,OK,63.8004246284501
74133,Tulsa County,OK,32.696390658174096
74743,Choctaw County,OK,86.94267515923568
97140,Washington County,OR,58.3864118895966
97212,Multnomah County,OR,65.07430997876857
97217,Multnomah County,OR,42.88747346072187
97219,Multnomah County,OR,61.67728237791932
97222,Clackamas County,OR,31.422505307855626
97223,Washington County,OR,77.07006369426752
97233,Multnomah County,OR,15.392781316348195
97305,Marion County,OR,27.282377919320595
97386,Linn County,OR,92.1443736730361
97404,Lane County,OR,83.86411889596603
97741,Jefferson County,OR,91.29511677282377
97756,Deschutes County,OR,82.6963906581741
97838,Umatilla County,OR,16.985138004246284
15009,Beaver County,PA,91.40127388535032
15106,Allegheny County,PA,82.80254777070064
15132,Allegheny County,PA,11.67728237791932
15210,Allegheny County,PA,14.225053078556263
15235,Allegheny County,PA,79.29936305732484
15239,Allegheny County,PA,93.94904458598727
15613,Westmoreland County,PA,65.711252653927815
15666,Westmoreland County,PA,52.86624203821656
16146,Mercer County,PA,24.522292993630572
17111,Dauphin County,PA,48.832271762208066
17113,Dauphin County,PA,85.6687898089172
17401,York County,PA,93.41825902335457
17404,York County,PA,11.464968152866243
17408,York County,PA,72.92993630573248
17545,Lancaster County,PA,45.75371549893843
17601,Lancaster County,PA,36.30573248407643
17872,Northumberland County,PA,42.569002123142255
18062,Lehigh County,PA,47.452229299363054
18102,Lehigh County,PA,33.97027600849257
18419,Wyoming County,PA,99.25690021231422
18612,Luzerne County,PA,58.174097664543524
18969,Montgomery County,PA,86.51804670912952
19027,Montgomery County,PA,45.96602972399151
19044,Montgomery County,PA,85.24416135881104
19047,Bucks County,PA,59.447983014862
19073,Delaware County,PA,54.14012738853503
19111,Philadelphia County,PA,20.70063694267516
19115,Philadelphia County,PA,52.22929936305732
19121,Philadelphia County,PA,55.73248407643312
19131,Philadelphia County,PA,69.00212314225053
19134,Philadelphia County,PA,3.290870488322718
19136,Philadelphia County,PA,11.358811040339702
19142,Philadelphia County,PA,12.420382165605096
19145,Philadelphia County,PA,51.910828025477706
19422,Montgomery County,PA,53.18471337579618
19468,Montgomery County,PA,42.25053078556263
19610,Berks County,PA,86.7303609341826
02809,Bristol County,RI,83.2271762208068
02886,Kent County,RI,33.22717622080679
02909,Providence County,RI,20.276008492569
29072,Lexington County,SC,28.02547770700637
29201,Richland County,SC,97.66454352441613
29203,Richland County,SC,10.615711252653929
29229,Richland County,SC,39.490445859872615
29405,Charleston County,SC,29.087048832271762
29412,Charleston County,SC,87.47346072186836
29461,Berkeley County,SC,34.6072186836518
29505,Florence County,SC,50
29568,Horry County,SC,80.46709129511677
29621,Anderson County,SC,38.95966029723992
29651,Greenville County,SC,22.823779193205944
29910,Beaufort County,SC,70.27600849256899
57104,Minnehaha County,SD,30.89171974522293
57401,Brown County,SD,50.84925690021231
37042,Montgomery County,TN,59.023354564755834
37076,Davidson County,TN,36.836518046709124
37128,Rutherford County,TN,29.29936305732484
37130,Rutherford County,TN,22.39915074309979
37138,Davidson County,TN,52.22929936305732
37206,Davidson County,TN,34.92569002123142
37323,Bradley County,TN,43.20594479830149
37327,Sequatchie County,TN,44.26751592356688
37334,Lincoln County,TN,38.21656050955414
37357,Warren County,TN,90.02123142250531
37388,Coffee County,TN,34.288747346072185
37398,Franklin County,TN,47.5583864118896
37601,Washington County,TN,15.817409766454352
37709,Grainger County,TN,97.87685774946921
37748,Roane County,TN,35.774946921443735
37821,Cocke County,TN,14.437367303609342
37849,Knox County,TN,41.825902335456476
37879,Claiborne County,TN,79.83014861995754
38016,Shelby County,TN,52.547770700636946
38106,Shelby County,TN,15.92356687898089
38107,Shelby County,TN,44.37367303609342
38114,Shelby County,TN,23.673036093418258
38116,Shelby County,TN,17.8343949044586
38118,Shelby County,TN,18.259023354564754
38127,Shelby County,TN,56.36942675159236
38128,Shelby County,TN,21.019108280254777
38305,Madison County,TN,8.386411889596603
38351,Henderson County,TN,53.71549893842887
38571,Cumberland County,TN,56.581740976645435
75023,Collin County,TX,54.88322717622081
75050,Dallas County,TX,44.5859872611465
75082,Collin County,TX,75.26539278131635
75149,Dallas County,TX,18.683651804670912
75201,Dallas County,TX,77.2823779193206
75211,Dallas County,TX,19.851380042462846
75212,Dallas County,TX,47.87685774946922
75214,Dallas County,TX,74.52229299363057
75224,Dallas County,TX,91.50743099787687
75228,Dallas County,TX,29.1932059447983
75232,Dallas County,TX,75.58386411889597
75234,Dallas County,TX,68.36518046709129
75241,Dallas County,TX,57.74946921443737
75462,Lamar County,TX,88.42887473460722
75482,Hopkins County,TX,60.403397027600846
75561,Bowie County,TX,99.25690021231422
75706,Smith County,TX,62.20806794055201
75935,Shelby County,TX,76.43312101910828
76014,Tarrant County,TX,50.318471337579616
76028,Johnson County,TX,11.252653927813164
76039,Tarrant County,TX,39.171974522293
76116,Tarrant County,TX,25.05307855626327
76119,Tarrant County,TX,6.900212314225053
76123,Tarrant County,TX,49.044585987261144
76131,Tarrant County,TX,52.016985138004245
76137,Tarrant County,TX,22.505307855626327
76542,Bell County,TX,13.906581740976645
77004,Harris County,TX,62.84501061571125
77008,Harris County,TX,91.93205944798302
77016,Harris County,TX,73.24840764331209
77021,Harris County,TX,36.94267515923567
77026,Harris County,TX,90.12738853503186
77034,Harris County,TX,59.660297239915074
77054,Harris County,TX,91.71974522292994
77064,Harris County,TX,68.68365180467092
77079,Harris County,TX,74.94692144373673
77080,Harris County,TX,94.16135881104034
77086,Harris County,TX,67.40976645435244
77357,Montgomery County,TX,64.01273885350318
77371,San Jacinto County,TX,88.95966029723992
77373,Harris County,TX,30.46709129511677
77389,Harris County,TX,57.00636942675159
77396,Harris County,TX,93.63057324840764
77459,Fort Bend County,TX,24.203821656050955
77469,Fort Bend County,TX,30.254777070063692
77493,Harris County,TX,62.95116772823779
77494,Fort Bend County,TX,16.13588110403397
77515,Brazoria County,TX,50.530785562632694
77520,Harris County,TX,74.41613588110403
77521,Harris County,TX,63.26963906581741
77583,Brazoria County,TX,53.07855626326964
77584,Brazoria County,TX,9.447983014861997
77630,Orange County,TX,42.99363057324841
77707,Jefferson County,TX,76.32696390658175
78046,Webb County,TX,14.755838641188959
78147,Wilson County,TX,99.68152866242038
78213,Bexar County,TX,48.61995753715499
78217,Bexar County,TX,68.15286624203821
78253,Bexar County,TX,59.023354564755834
78254,Bexar County,TX,48.089171974522294
78336,San Patricio County,TX,91.82590233545648
78539,Hidalgo County,TX,60.615711252653924
78541,Hidalgo County,TX,78.02547770700637
78542,Hidalgo County,TX,43.84288747346072
78573,Hidalgo County,TX,56.15711252653928
78586,Cameron County,TX,46.496815286624205
78660,Travis County,TX,27.919320594479828
78665,Williamson County,TX,51.80467091295117
78666,Hays County,TX,28.874734607218684
78681,Williamson County,TX,93.09978768577494
79510,Callahan County,TX,90.65817409766454
79605,Taylor County,TX,70.59447983014861
79701,Midland County,TX,44.69214437367304
79762,Ector County,TX,29.830148619957537
79765,Ector County,TX,69.85138004246284
79912,El Paso County,TX,28.343949044585987
79924,El Paso County,TX,45.54140127388535
84043,Utah County,UT,85.88110403397027
84074,Tooele County,UT,4.140127388535031
84081,Salt Lake County,UT,32.37791932059448
84105,Salt Lake County,UT,95.54140127388536
84119,Salt Lake County,UT,12.526539278131635
84129,,UT,31.316348195329084
84528,Emery County,UT,100
84721,Iron County,UT,87.26114649681529
05201,Bennington County,VT,49.469214437367306
20121,Fairfax County,VA,66.34819532908705
20147,Loudoun County,VA,93.73673036093419
20164,Loudoun County,VA,85.35031847133759
20170,Fairfax County,VA,65.18046709129511
22042,Fairfax County,VA,52.9723991507431
22201,Arlington County,VA,61.3588110403397
22306,Fairfax County,VA,30.67940552016985
22407,Spotsylvania County,VA,17.72823779193206
22580,Caroline County,VA,92.67515923566879
22602,Frederick County,VA,53.609341825902334
22801,Harrisonburg city,VA,85.03184713375796
23111,Hanover County,VA,51.48619957537155
23224,Richmond city,VA,10.721868365180468
23231,Henrico County,VA,87.36730360934183
23234,Chesterfield County,VA,20.59447983014862
23504,Norfolk city,VA,27.81316348195329
23509,Norfolk city,VA,44.161358811040344
23607,Newport News city,VA,21.231422505307858
23707,Portsmouth city,VA,55.30785562632696
23805,Petersburg city,VA,96.92144373673037
98002,King County,WA,36.51804670912951
98003,King County,WA,29.936305732484076
98042,King County,WA,67.09129511677283
98092,King County,WA,25.690021231422506
98118,King County,WA,72.7176220806794
98125,King County,WA,41.6135881104034
98223,Snohomish County,WA,25.902335456475583
98271,Snohomish County,WA,46.602972399150744
98374,Pierce County,WA,45.11677282377919
98403,Pierce County,WA,92.99363057324841
98944,Yakima County,WA,60.08492569002123
99206,Spokane County,WA,48.19532908704883
20010,District of Columbia,DC,54.989384288747345
20020,District of Columbia,DC,2.6539278131634823
25314,Kanawha County,WV,55.9447983014862
26508,Monongalia County,WV,4.8832271762208075
53128,Walworth County,WI,68.895966029724
53132,Milwaukee County,WI,41.18895966029724
53140,Kenosha County,WI,11.040339702760086
53154,Milwaukee County,WI,72.39915074309978
53208,Milwaukee County,WI,71.23142250530785
53212,Milwaukee County,WI,13.694267515923567
53225,Milwaukee County,WI,39.70276008492569
53511,Rock County,WI,1.0615711252653928
53590,Dane County,WI,70.70063694267516
53813,Grant County,WI,97.13375796178345
53821,Crawford County,WI,94.0552016985138
54136,Outagamie County,WI,98.61995753715499
54151,Marinette County,WI,92.25053078556263
54235,Door County,WI,84.60721868365181
54499,Shawano County,WI,99.68152866242038
54636,La Crosse County,WI,66.45435244161358
54739,Dunn County,WI,97.77070063694268
54911,Outagamie County,WI,41.40127388535032
54914,Outagamie County,WI,58.067940552016985
54944,Outagamie County,WI,92.35668789808918
54956,Winnebago County,WI,61.146496815286625
82435,Park County,WY,85.13800424628451
82604,Natrona County,WY,80.89171974522293
