ZipCode,county,state,Adult
35555,Fayette County,AL,56.73758865248227
35968,DeKalb County,AL,87.94326241134752
36027,Barbour County,AL,37.11583924349882
36064,Montgomery County,AL,87.47044917257683
36610,Mobile County,AL,55.082742316784874
36877,Lee County,AL,69.97635933806147
85132,Pinal County,AZ,35.69739952718676
85713,Pima County,AZ,6.619385342789598
85941,Apache County,AZ,12.056737588652481
86001,Coconino County,AZ,19.858156028368796
90027,Los Angeles County,CA,73.5224586288416
90048,Los Angeles County,CA,84.86997635933807
90720,Orange County,CA,96.45390070921985
91342,Los Angeles County,CA,19.62174940898345
91505,Los Angeles County,CA,81.56028368794325
91605,Los Angeles County,CA,43.02600472813239
91732,Los Angeles County,CA,64.77541371158392
92026,San Diego County,CA,88.17966903073287
92078,San Diego County,CA,47.75413711583924
92124,San Diego County,CA,79.19621749408984
92173,San Diego County,CA,75.88652482269504
92544,Riverside County,CA,90.0709219858156
92557,Riverside County,CA,88.65248226950354
92562,Riverside County,CA,25.53191489361702
92692,Orange County,CA,38.061465721040186
92703,Orange County,CA,73.28605200945626
92804,Orange County,CA,41.13475177304964
92865,Orange County,CA,89.59810874704492
93012,Ventura County,CA,59.57446808510638
93250,Kern County,CA,82.50591016548464
93307,Kern County,CA,12.76595744680851
93401,San Luis Obispo County,CA,50.59101654846335
93420,San Luis Obispo County,CA,59.33806146572104
93455,Santa Barbara County,CA,81.7966903073286
93458,Santa Barbara County,CA,14.184397163120568
93465,San Luis Obispo County,CA,69.50354609929079
93618,Tulare County,CA,48.46335697399527
93638,Madera County,CA,69.03073286052009
93727,Fresno County,CA,13.947990543735225
93737,Fresno County,CA,100
93906,Monterey County,CA,37.5886524822695
94124,San Francisco County,CA,24.349881796690305
94403,San Mateo County,CA,69.73995271867612
94945,Marin County,CA,84.16075650118204
95035,Santa Clara County,CA,68.32151300236407
95380,Stanislaus County,CA,26.47754137115839
95691,Yolo County,CA,47.5177304964539
95765,Placer County,CA,64.0661938534279
95828,Sacramento County,CA,38.297872340425535
80210,Denver County,CO,49.1725768321513
80238,Denver County,CO,83.21513002364065
80631,Weld County,CO,7.801418439716312
80924,El Paso County,CO,93.14420803782507
81625,Moffat County,CO,37.825059101654844
81650,Garfield County,CO,69.03073286052009
06040,Hartford County,CT,8.983451536643026
06067,Hartford County,CT,60.99290780141844
06074,Hartford County,CT,49.40898345153664
06109,Hartford County,CT,55.7919621749409
06111,Hartford County,CT,36.17021276595745
06112,Hartford County,CT,16.07565011820331
06237,Tolland County,CT,92.43498817966903
06450,New Haven County,CT,5.200945626477541
06460,New Haven County,CT,54.84633569739953
06606,Fairfield County,CT,78.25059101654847
06710,New Haven County,CT,51.77304964539007
06880,Fairfield County,CT,45.62647754137116
19720,New Castle County,DE,1.6548463356973995
19805,New Castle County,DE,15.839243498817968
19958,Sussex County,DE,33.33333333333333
32011,Nassau County,FL,53.42789598108747
32114,Volusia County,FL,22.93144208037825
32219,Duval County,FL,76.35933806146572
32810,Orange County,FL,80.6146572104019
32825,Orange County,FL,31.914893617021278
33055,Miami-Dade County,FL,46.335697399527184
33147,Miami-Dade County,FL,57.446808510638306
33157,Miami-Dade County,FL,34.2789598108747
33168,Miami-Dade County,FL,62.174940898345156
33172,Miami-Dade County,FL,71.63120567375887
33414,Palm Beach County,FL,66.903073286052
33436,Palm Beach County,FL,49.881796690307326
33510,Hillsborough County,FL,98.3451536643026
33545,Pasco County,FL,77.06855791962175
33567,Hillsborough County,FL,91.725768321513
33592,Hillsborough County,FL,98.581560283687935
33813,Polk County,FL,94.32624113475178
33971,Lee County,FL,51.06382978723404
34222,Manatee County,FL,67.84869976359337
34753,Lake County,FL,92.67139479905437
30038,DeKalb County,GA,65.72104018912529
30040,Forsyth County,GA,25.768321513002363
30046,Gwinnett County,GA,43.73522458628842
30114,Cherokee County,GA,60.047281323877066
30265,Coweta County,GA,46.808510638297875
30331,Fulton County,GA,17.02127659574468
31750,Ben Hill County,GA,89.83451536643025
96792,Honolulu County,HI,38.77068557919622
96795,Honolulu County,HI,82.74231678486997
96818,Honolulu County,HI,79.43262411347519
83350,Minidoka County,ID,91.48936170212765
83501,Nez Perce County,ID,13.711583924349883
60035,Lake County,IL,94.08983451536643
60073,Lake County,IL,15.36643026004728
60076,Cook County,IL,41.60756501182033
60083,Lake County,IL,78.72340425531915
60103,DuPage County,IL,27.89598108747045
60189,DuPage County,IL,59.810874704491724
60435,Will County,IL,9.219858156028367
60442,Will County,IL,86.28841607565012
60459,Cook County,IL,33.56973995271868
60525,Cook County,IL,23.167848699763592
60544,Will County,IL,35.9338061465721
60560,Kendall County,IL,91.01654846335697
60586,Will County,IL,14.657210401891252
60626,Cook County,IL,19.148936170212767
60631,Cook County,IL,31.678486997635936
60637,Cook County,IL,14.893617021276595
60639,Cook County,IL,8.51063829787234
60644,Cook County,IL,7.328605200945626
60652,Cook County,IL,74.94089834515366
60657,Cook County,IL,47.99054373522459
60914,Kankakee County,IL,33.09692671394799
61354,LaSalle County,IL,71.15839243498819
61615,Peoria County,IL,84.39716312056737
46140,Hancock County,IN,28.368794326241137
46254,Marion County,IN,21.98581560283688
46321,Lake County,IN,59.10165484633569
46322,Lake County,IN,23.87706855791962
46323,Lake County,IN,20.094562647754138
46366,Starke County,IN,86.7612293144208
47374,Wayne County,IN,48.93617021276596
47725,Vanderburgh County,IN,75.41371158392435
51503,Pottawattamie County,IA,77.30496453900709
52302,Linn County,IA,21.04018912529551
52404,Linn County,IA,8.037825059101655
40475,Madison County,KY,7.5650118203309695
40517,Fayette County,KY,48.69976359338061
41017,Kenton County,KY,31.20567375886525
41042,Boone County,KY,70.2127659574468
41701,Perry County,KY,56.50118203309693
70117,Orleans Parish,LA,63.829787234042556
70127,Orleans Parish,LA,7.092198581560284
70131,Orleans Parish,LA,55.55555555555556
70445,St. Tammany Parish,LA,89.36170212765957
70582,St. Martin Parish,LA,29.550827423167846
70805,East Baton Rouge Parish,LA,16.548463356973993
70810,East Baton Rouge Parish,LA,47.28132387706856
70812,East Baton Rouge Parish,LA,27.18676122931442
71055,Webster Parish,LA,44.44444444444444
71202,Ouachita Parish,LA,4.25531914893617
71302,Rapides Parish,LA,25.295508274231675
04005,York County,ME,15.130023640661939
04330,Kennebec County,ME,76.59574468085107
04769,Aroostook County,ME,54.37352245862884
21009,Harford County,MD,43.97163120567376
21152,Baltimore County,MD,95.74468085106383
21204,Baltimore County,MD,89.12529550827422
21217,Baltimore city,MD,22.69503546099291
21220,Baltimore County,MD,85.1063829787234
01040,Hampden County,MA,32.38770685579196
01504,Worcester County,MA,62.4113475177305
01701,Middlesex County,MA,9.692671394799055
01775,Middlesex County,MA,99.29078014184397
01776,Middlesex County,MA,65.48463356973994
01821,Middlesex County,MA,4.491725768321513
01826,Middlesex County,MA,21.749408983451538
01845,Essex County,MA,26.713947990543733
01852,Middlesex County,MA,30.49645390070922
01860,Essex County,MA,88.88888888888889
01930,Essex County,MA,53.90070921985816
02124,Suffolk County,MA,13.002364066193852
02332,Plymouth County,MA,64.53900709219859
02379,Plymouth County,MA,81.32387706855792
02481,Norfolk County,MA,50.82742316784869
02790,Bristol County,MA,20.56737588652482
48023,St. Clair County,MI,85.34278959810875
48033,Oakland County,MI,39.00709219858156
48075,Oakland County,MI,30.260047281323878
48111,Wayne County,MI,6.382978723404255
48116,Livingston County,MI,95.50827423167848
48120,Wayne County,MI,90.54373522458629
48126,Wayne County,MI,61.22931442080378
48170,Wayne County,MI,82.03309692671394
48174,Wayne County,MI,29.078014184397162
48183,Wayne County,MI,70.92198581560284
48185,Wayne County,MI,24.822695035460992
48186,Wayne County,MI,5.673758865248227
48197,Washtenaw County,MI,14.420803782505912
48205,Wayne County,MI,20.33096926713948
48219,Wayne County,MI,23.404255319148938
48226,Wayne County,MI,88.4160756501182
48235,Wayne County,MI,0.4728132387706856
48313,Macomb County,MI,26.004728132387704
48331,Oakland County,MI,35.46099290780142
48359,Oakland County,MI,75.65011820330969
48439,Genesee County,MI,11.82033096926714
48836,Livingston County,MI,48.226950354609926
49242,Hillsdale County,MI,77.54137115839244
49329,Montcalm County,MI,72.81323877068559
49504,Kent County,MI,41.371158392434985
55021,Rice County,MN,61.938534278959814
55113,Ramsey County,MN,42.5531914893617
55301,Wright County,MN,98.81796690307328
55303,Anoka County,MN,17.494089834515368
55306,Dakota County,MN,99.76359338061465
55350,McLeod County,MN,83.68794326241135
55406,Hennepin County,MN,51.30023640661938
55407,Hennepin County,MN,5.91016548463357
55428,Hennepin County,MN,47.04491725768322
55435,Hennepin County,MN,74.70449172576832
55744,Itasca County,MN,95.0354609929078
55912,Mower County,MN,6.8557919621749415
56085,Brown County,MN,99.52718676122932
56537,Otter Tail County,MN,17.73049645390071
56633,Hubbard County,MN,77.77777777777779
38654,DeSoto County,MS,49.645390070921984
39452,George County,MS,78.95981087470449
63016,Jefferson County,MO,82.97872340425532
63021,St. Louis County,MO,40.66193853427896
63051,Jefferson County,MO,86.05200945626478
63110,St. Louis city,MO,98.10874704491725
63139,St. Louis city,MO,62.88416075650118
63801,Scott County,MO,83.92434988179669
64056,Jackson County,MO,52.00945626477541
64086,Jackson County,MO,33.80614657210402
64505,Buchanan County,MO,31.44208037825059
68104,Douglas County,NE,25.059101654846334
03076,Hillsborough County,NH,66.66666666666666
03102,Hillsborough County,NH,70.6855791962175
03801,Rockingham County,NH,90.30732860520094
07047,Hudson County,NJ,78.01418439716312
07410,Bergen County,NJ,45.39007092198582
07508,Passaic County,NJ,28.132387706855795
07726,Monmouth County,NJ,75.177304964539
08003,Camden County,NJ,52.4822695035461
08016,Burlington County,NJ,73.99527186761229
08087,Ocean County,NJ,17.96690307328605
08093,Gloucester County,NJ,35.22458628841608
08094,Gloucester County,NJ,26.24113475177305
08106,Camden County,NJ,97.63593380614657
08109,Camden County,NJ,18.912529550827422
08701,Ocean County,NJ,1.8912529550827424
87121,Bernalillo County,NM,85.81560283687944
10009,New York County,NY,8.274231678486997
10032,New York County,NY,72.3404255319149
10455,Bronx County,NY,2.8368794326241136
10457,Bronx County,NY,34.515366430260045
10460,Bronx County,NY,0
11205,Kings County,NY,11.583924349881796
11207,Kings County,NY,3.7825059101654848
11210,Kings County,NY,65.24822695035462
11212,Kings County,NY,18.203309692671397
11219,Kings County,NY,12.529550827423167
11221,Kings County,NY,1.4184397163120568
11224,Kings County,NY,85.57919621749409
11236,Kings County,NY,80.1418439716312
11434,Queens County,NY,13.47517730496454
12010,Montgomery County,NY,4.7281323877068555
12047,Albany County,NY,27.659574468085108
12078,Fulton County,NY,3.309692671394799
13057,Onondaga County,NY,67.84869976359337
13204,Onondaga County,NY,10.874704491725769
13207,Onondaga County,NY,29.78723404255319
13343,Lewis County,NY,93.3806146572104
13601,Jefferson County,NY,3.0732860520094563
13619,Jefferson County,NY,42.78959810874704
13850,Broome County,NY,42.08037825059102
14072,Erie County,NY,39.2434988179669
14221,Erie County,NY,10.638297872340425
14224,Erie County,NY,24.58628841607565
14226,Erie County,NY,29.314420803782504
14424,Ontario County,NY,1.1820330969267139
14526,Monroe County,NY,56.02836879432624
14527,Yates County,NY,53.191489361702125
14530,Wyoming County,NY,68.5579196217494
14580,Monroe County,NY,36.40661938534279
14586,Monroe County,NY,32.15130023640662
14609,Monroe County,NY,3.546099290780142
14618,Monroe County,NY,15.602836879432624
14620,Monroe County,NY,5.4373522458628845
14624,Monroe County,NY,32.62411347517731
27410,Guilford County,NC,30.969267139479907
27610,Wake County,NC,28.841607565011824
27705,Durham County,NC,21.513002364066196
27801,Edgecombe County,NC,63.12056737588653
28227,Mecklenburg County,NC,19.38534278959811
28352,Scotland County,NC,66.43026004728132
28391,Cumberland County,NC,93.85342789598108
28607,Watauga County,NC,46.09929078014184
28734,Macon County,NC,43.498817966903076
58201,Grand Forks County,ND,30.023640661938533
43125,Franklin County,OH,80.85106382978722
43211,Franklin County,OH,9.692671394799055
43214,Franklin County,OH,96.2174940898345
43551,Wood County,OH,12.293144208037825
43609,Lucas County,OH,3.7825059101654848
43613,Lucas County,OH,2.127659574468085
43615,Lucas County,OH,2.3640661938534278
44056,Summit County,OH,57.21040189125296
44138,Cuyahoga County,OH,56.973995271867615
44146,Cuyahoga County,OH,43.262411347517734
44270,Wayne County,OH,94.79905437352247
44306,Summit County,OH,8.747044917257684
44484,Trumbull County,OH,27.423167848699766
44662,Stark County,OH,82.26950354609929
44721,Stark County,OH,96.92671394799054
44870,Erie County,OH,0.2364066193853428
45011,Butler County,OH,0.9456264775413712
45067,Butler County,OH,72.10401891252955
45069,Butler County,OH,76.8321513002364
45227,Hamilton County,OH,83.451536643026
45238,Hamilton County,OH,13.238770685579196
45240,Hamilton County,OH,73.04964539007092
45247,Hamilton County,OH,52.71867612293144
45417,Montgomery County,OH,57.68321513002365
45424,Montgomery County,OH,10.16548463356974
73051,Cleveland County,OK,79.43262411347519
73119,Oklahoma County,OK,22.22222222222222
73159,Oklahoma County,OK,41.843971631205676
73701,Garfield County,OK,67.139479905437355
74014,Wagoner County,OK,34.988179669030735
74019,Rogers County,OK,42.31678486997636
97055,Clackamas County,OR,58.156028368794324
97217,Multnomah County,OR,38.297872340425535
97224,Washington County,OR,86.52482269503547
97471,Douglas County,OR,16.78486997635934
97502,Jackson County,OR,63.35697399527187
15132,Allegheny County,PA,11.11111111111111
16335,Crawford County,PA,9.456264775413711
16625,Blair County,PA,94.56264775413712
17007,Cumberland County,PA,95.98108747044918
17050,Cumberland County,PA,22.458628841607563
17301,Adams County,PA,96.6903073286052
17366,York County,PA,91.25295508274232
17404,York County,PA,36.64302600472813
17408,York County,PA,39.479905437352244
17543,Lancaster County,PA,50.11820330969267
18020,Northampton County,PA,40.189125295508276
18426,Pike County,PA,95.27186761229315
19023,Delaware County,PA,28.368794326241137
19040,Montgomery County,PA,44.680851063829785
19056,Bucks County,PA,44.2080378250591
19063,Delaware County,PA,93.61702127659575
19073,Delaware County,PA,90.78014184397163
19103,Philadelphia County,PA,76.12293144208037
19126,Philadelphia County,PA,32.860520094562645
19128,Philadelphia County,PA,18.439716312056735
19140,Philadelphia County,PA,0.7092198581560284
02806,Bristol County,RI,99.05437352245863
02863,Providence County,RI,55.319148936170215
02906,Providence County,RI,87.70685579196218
29410,Berkeley County,SC,91.96217494089835
29456,Dorchester County,SC,71.39479905437352
29527,Horry County,SC,45.15366430260047
29571,Marion County,SC,58.62884160756501
29690,Greenville County,SC,36.87943262411347
37074,Trousdale County,TN,58.86524822695035
37087,Wilson County,TN,16.312056737588655
37207,Davidson County,TN,11.347517730496454
37814,Hamblen County,TN,30.73286052009456
38107,Shelby County,TN,87.2340425531915
38118,Shelby County,TN,68.79432624113475
75050,Dallas County,TX,39.952718676122934
75216,Dallas County,TX,6.1465721040189125
75220,Dallas County,TX,67.37588652482269
75227,Dallas County,TX,18.67612293144208
75238,Dallas County,TX,57.919621749408975
75602,Gregg County,TX,51.536643026004725
75803,Anderson County,TX,56.26477541371159
76052,Tarrant County,TX,71.8676122931442
77005,Harris County,TX,64.0661938534279
77015,Harris County,TX,37.11583924349882
77019,Harris County,TX,62.64775413711584
77021,Harris County,TX,34.751773049645394
77028,Harris County,TX,45.8628841607565
77035,Harris County,TX,81.08747044917257
77067,Harris County,TX,65.95744680851064
77096,Harris County,TX,52.24586288416076
77098,Harris County,TX,97.39952718676122
77396,Harris County,TX,61.702127659574465
77521,Harris County,TX,67.61229314420804
77566,Brazoria County,TX,46.335697399527184
77584,Brazoria County,TX,61.46572104018912
77640,Jefferson County,TX,52.95508274231678
78210,Bexar County,TX,23.87706855791962
78541,Hidalgo County,TX,78.4869976359338
78572,Hidalgo County,TX,60.28368794326241
78580,Willacy County,TX,80.37825059101655
78641,Williamson County,TX,21.27659574468085
78748,Travis County,TX,79.90543735224587
79763,Ector County,TX,34.04255319148936
79902,El Paso County,TX,92.19858156028369
79928,El Paso County,TX,44.91725768321513
84003,Utah County,UT,66.19385342789597
84015,Davis County,UT,20.803782505910164
84062,Utah County,UT,50.35460992907801
84096,Salt Lake County,UT,92.90780141843972
20105,Loudoun County,VA,74.23167848699764
20120,Fairfax County,VA,70.44917257683215
22101,Fairfax County,VA,97.16312056737588
22193,Prince William County,VA,40.42553191489361
22206,Arlington County,VA,72.57683215130024
22701,Culpeper County,VA,86.99763593380615
22844,Shenandoah County,VA,74.46808510638297
23224,Richmond city,VA,10.401891252955082
24073,Montgomery County,VA,39.71631205673759
98037,Snohomish County,WA,54.60992907801418
98177,King County,WA,63.593380614657214
98273,Skagit County,WA,26.95035460992908
98445,Pierce County,WA,97.87234042553192
98466,Pierce County,WA,53.664302600472816
98532,Lewis County,WA,60.520094562647756
98801,Chelan County,WA,23.64066193853428
99338,Benton County,WA,54.1371158392435
20018,District of Columbia,DC,65.01182033096927
20019,District of Columbia,DC,2.6004728132387704
25312,Kanawha County,WV,58.392434988179666
26501,Monongalia County,WV,17.257683215130022
26554,Marion County,WV,73.75886524822694
53147,Walworth County,WI,40.8983451536643
53402,Racine County,WI,4.964539007092199
53718,Dane County,WI,84.63356973995272
53901,Columbia County,WI,60.7565011820331
