ZipCode,county,state,Adult,Retirement
35127,Jefferson County,AL,79.02511078286558,NA
35222,Jefferson County,AL,85.81979320531758,NA
35226,Jefferson County,AL,42.68833087149188,NA
35244,Jefferson County,AL,42.39290989660266,NA
35750,Madison County,AL,NA,73.41772151898735
35761,Madison County,AL,NA,63.29113924050633
35773,Madison County,AL,NA,54.74683544303798
35805,Madison County,AL,69.42392909896603,NA
35806,Madison County,AL,71.34416543574595,NA
35811,Madison County,AL,35.59822747415066,NA
35957,Marshall County,AL,40.91580502215657,NA
36037,Butler County,AL,77.25258493353027,NA
36040,Lowndes County,AL,100,NA
36091,Chilton County,AL,97.93205317577548,NA
36108,Montgomery County,AL,88.62629246676515,NA
36110,Montgomery County,AL,50.51698670605613,NA
36111,Montgomery County,AL,NA,76.26582278481013
36116,Montgomery County,AL,49.33530280649926,NA
36526,Baldwin County,AL,NA,35.12658227848101
36693,Mobile County,AL,50.66469719350074,NA
36695,Mobile County,AL,29.394387001477106,NA
36756,Perry County,AL,89.36484490398819,NA
99502,Anchorage Municipality,AK,93.94387001477105,NA
99611,Kenai Peninsula Borough,AK,64.40177252584934,NA
99801,Juneau City and Borough,AK,44.16543574593796,NA
85019,Maricopa County,AZ,33.382570162481535,NA
85041,Maricopa County,AZ,6.942392909896602,NA
85044,Maricopa County,AZ,17.57754800590842,NA
85138,Pinal County,AZ,33.97341211225997,NA
85201,Maricopa County,AZ,NA,29.430379746835445
85204,Maricopa County,AZ,11.964549483013293,92.08860759493672
85234,Maricopa County,AZ,NA,49.68354430379747
85296,Maricopa County,AZ,28.65583456425406,71.20253164556962
85304,Maricopa County,AZ,NA,55.69620253164557
85306,Maricopa County,AZ,50.369276218611525,NA
85541,Gila County,AZ,44.903988183161005,NA
85607,Cochise County,AZ,23.929098966026586,NA
85634,Pima County,AZ,20.53175775480059,NA
85706,Pima County,AZ,NA,32.91139240506329
85712,Pima County,AZ,49.77843426883309,NA
86004,Coconino County,AZ,4.579025110782865,NA
86305,Yavapai County,AZ,91.4327917282127,NA
86314,Yavapai County,AZ,NA,22.468354430379748
86401,Mohave County,AZ,50.66469719350074,NA
71655,Drew County,AR,NA,91.77215189873418
71801,Hempstead County,AR,83.60413589364845,NA
72315,Mississippi County,AR,NA,68.0379746835443
72401,Craighead County,AR,12.55539143279173,NA
72501,Independence County,AR,29.246676514032494,NA
72756,Benton County,AR,54.800590841949784,NA
72764,Washington County,AR,NA,81.0126582278481
72941,Sebastian County,AR,NA,88.29113924050634
90012,Los Angeles County,CA,57.754800590841946,NA
90043,Los Angeles County,CA,NA,21.518987341772153
90044,Los Angeles County,CA,5.317577548005908,NA
90601,Los Angeles County,CA,NA,56.0126582278481
90606,Los Angeles County,CA,74.59379615952733,NA
90631,Orange County,CA,NA,13.291139240506327
90660,Los Angeles County,CA,NA,95.56962025316456
90804,Los Angeles County,CA,69.27621861152143,NA
91042,Los Angeles County,CA,68.24224519940915,NA
91335,Los Angeles County,CA,26.14475627769572,NA
91342,Los Angeles County,CA,17.872968980797637,NA
91605,Los Angeles County,CA,41.802067946824224,NA
91911,San Diego County,CA,52.437223042836045,NA
91977,San Diego County,CA,NA,25.949367088607595
92027,San Diego County,CA,NA,91.13924050632912
92083,San Diego County,CA,55.83456425406204,NA
92104,San Diego County,CA,23.485967503692763,NA
92105,San Diego County,CA,NA,28.48101265822785
92107,San Diego County,CA,60.4135893648449,NA
92111,San Diego County,CA,NA,45.56962025316456
92231,Imperial County,CA,27.621861152141804,NA
92234,Riverside County,CA,38.847858197932055,NA
92251,Imperial County,CA,65.87887740029542,NA
92277,San Bernardino County,CA,NA,53.16455696202531
92283,Imperial County,CA,97.63663220088627,NA
92371,San Bernardino County,CA,NA,81.32911392405063
92392,San Bernardino County,CA,16.395864106351553,NA
92404,San Bernardino County,CA,42.98375184638109,NA
92407,San Bernardino County,CA,15.5096011816839,NA
92411,San Bernardino County,CA,69.86706056129985,NA
92504,Riverside County,CA,80.79763663220089,NA
92506,Riverside County,CA,NA,64.24050632911393
92545,Riverside County,CA,81.0930576070901,NA
92585,Riverside County,CA,NA,75.63291139240506
92595,Riverside County,CA,35.00738552437223,NA
92630,Orange County,CA,75.62776957163959,NA
92647,Orange County,CA,NA,20.253164556962027
92703,Orange County,CA,33.825701624815366,NA
92707,Orange County,CA,NA,45.25316455696203
92780,Orange County,CA,77.40029542097489,NA
92804,Orange County,CA,11.816838995568684,NA
92843,Orange County,CA,NA,89.87341772151899
92867,Orange County,CA,NA,72.78481012658227
93003,Ventura County,CA,13.146233382570163,NA
93021,Ventura County,CA,NA,44.303797468354425
93117,Santa Barbara County,CA,NA,63.29113924050633
93250,Kern County,CA,NA,90.18987341772153
93257,Tulare County,CA,NA,22.151898734177212
93291,Tulare County,CA,49.63072378138848,NA
93308,Kern County,CA,24.372230428360414,NA
93455,Santa Barbara County,CA,85.22895125553914,NA
93722,Fresno County,CA,59.822747415066466,NA
93737,Fresno County,CA,94.38700147710487,NA
93950,Monterey County,CA,95.12555391432792,NA
94102,San Francisco County,CA,46.38109305760709,NA
94103,San Francisco County,CA,92.90989660265879,NA
94122,San Francisco County,CA,41.211225997045794,NA
94533,Solano County,CA,21.270310192023633,NA
94536,Alameda County,CA,26.440177252584935,NA
94551,Alameda County,CA,NA,87.0253164556962
94560,Alameda County,CA,NA,41.139240506329116
94565,Contra Costa County,CA,19.49778434268833,59.81012658227848
94572,Contra Costa County,CA,NA,79.74683544303798
94597,Contra Costa County,CA,NA,96.20253164556962
94603,Alameda County,CA,41.506646971935005,NA
94605,Alameda County,CA,21.71344165435746,NA
94612,Alameda County,CA,86.41063515509602,NA
94806,Contra Costa County,CA,NA,21.835443037974684
95050,Santa Clara County,CA,63.07237813884786,NA
95127,Santa Clara County,CA,36.336779911373704,NA
95134,Santa Clara County,CA,NA,94.62025316455697
95148,Santa Clara County,CA,59.67503692762186,NA
95212,San Joaquin County,CA,74.1506646971935,NA
95242,San Joaquin County,CA,83.01329394387001,NA
95351,Stanislaus County,CA,19.202363367799112,NA
95448,Sonoma County,CA,67.50369276218612,NA
95482,Mendocino County,CA,62.924667651403254,NA
95531,Del Norte County,CA,56.27769571639586,NA
95540,Humboldt County,CA,NA,49.36708860759494
95608,Sacramento County,CA,NA,18.354430379746837
95628,Sacramento County,CA,90.84194977843427,NA
95667,El Dorado County,CA,58.050221565731164,NA
95969,Butte County,CA,NA,30.69620253164557
95973,Butte County,CA,NA,23.417721518987342
96001,Shasta County,CA,49.48301329394387,NA
96003,Shasta County,CA,38.70014771048744,NA
96080,Tehama County,CA,93.79615952732644,NA
80016,Arapahoe County,CO,NA,15.822784810126583
80017,Arapahoe County,CO,32.791728212703106,NA
80230,Denver County,CO,87.59231905465288,NA
80241,Adams County,CO,76.51403249630724,NA
80403,Jefferson County,CO,NA,71.83544303797468
80601,Adams County,CO,28.80354505169867,NA
80701,Morgan County,CO,NA,38.924050632911396
80903,El Paso County,CO,31.90546528803545,NA
80917,El Paso County,CO,96.7503692762186,NA
81005,Pueblo County,CO,31.610044313146236,NA
81007,Pueblo County,CO,NA,62.9746835443038
81226,Fremont County,CO,99.26144756277697,NA
06010,Hartford County,CT,1.1816838995568686,NA
06037,Hartford County,CT,90.54652880354506,NA
06042,Hartford County,CT,33.08714918759232,NA
06239,Windham County,CT,30.576070901033976,NA
06416,Middlesex County,CT,NA,64.55696202531645
06418,New Haven County,CT,NA,77.53164556962025
06492,New Haven County,CT,18.906942392909897,NA
06517,New Haven County,CT,NA,37.9746835443038
06704,New Haven County,CT,20.6794682422452,NA
06790,Litchfield County,CT,4.13589364844904,NA
06902,Fairfield County,CT,NA,11.075949367088606
19713,New Castle County,DE,57.163958641063516,NA
19720,New Castle County,DE,1.9202363367799113,NA
19734,New Castle County,DE,NA,69.9367088607595
19963,Sussex County,DE,NA,31.329113924050635
32073,Clay County,FL,NA,26.265822784810126
32114,Volusia County,FL,NA,65.50632911392405
32117,Volusia County,FL,NA,70.56962025316456
32130,Volusia County,FL,94.09158050221565,NA
32205,Duval County,FL,22.895125553914326,NA
32207,Duval County,FL,NA,10.759493670886076
32219,Duval County,FL,39.5864106351551,NA
32514,Escambia County,FL,NA,12.025316455696203
32550,Walton County,FL,92.61447562776958,NA
32643,Alachua County,FL,NA,82.27848101265823
32776,Lake County,FL,78.72968980797637,NA
32805,Orange County,FL,74.74150664697193,NA
32822,Orange County,FL,17.134416543574595,NA
32835,Orange County,FL,97.78434268833087,NA
32909,Brevard County,FL,65.14032496307239,NA
32935,Brevard County,FL,85.52437223042836,NA
32948,Indian River County,FL,89.6602658788774,NA
32960,Indian River County,FL,NA,36.075949367088604
32962,Indian River County,FL,NA,80.69620253164557
33033,Miami-Dade County,FL,NA,46.20253164556962
33068,Broward County,FL,NA,46.51898734177215
33185,Miami-Dade County,FL,73.70753323485968,NA
33406,Palm Beach County,FL,87.74002954209749,NA
33410,Palm Beach County,FL,NA,30.063291139240505
33412,Palm Beach County,FL,NA,69.62025316455697
33414,Palm Beach County,FL,NA,36.392405063291136
33523,Pasco County,FL,62.186115214180205,NA
33527,Hillsborough County,FL,80.20679468242245,NA
33594,Hillsborough County,FL,55.24372230428361,NA
33605,Hillsborough County,FL,89.06942392909897,NA
33614,Hillsborough County,FL,29.98522895125554,NA
33619,Hillsborough County,FL,29.83751846381093,NA
33647,Hillsborough County,FL,73.41211225997046,NA
33711,Pinellas County,FL,51.25553914327917,NA
33773,Pinellas County,FL,61.74298375184638,NA
33809,Polk County,FL,94.6824224519941,NA
33870,Highlands County,FL,24.81536189069424,NA
33872,Highlands County,FL,62.77695716395865,NA
33991,Lee County,FL,NA,34.177215189873415
34108,Collier County,FL,NA,93.35443037974683
34231,Sarasota County,FL,49.039881831610046,14.556962025316455
34234,Sarasota County,FL,66.17429837518463,NA
34288,Sarasota County,FL,NA,88.92405063291139
34448,Citrus County,FL,75.9231905465288,NA
34473,Marion County,FL,43.279172821270315,NA
34488,Marion County,FL,93.50073855243723,NA
34652,Pasco County,FL,36.04135893648449,NA
34685,Pinellas County,FL,NA,65.18987341772153
34691,Pasco County,FL,39.438700147710485,NA
34758,Osceola County,FL,66.61742983751846,NA
34953,St. Lucie County,FL,3.8404726735598227,30.37974683544304
30035,DeKalb County,GA,53.17577548005909,NA
30038,DeKalb County,GA,38.25701624815362,NA
30047,Gwinnett County,GA,NA,87.65822784810126
30084,DeKalb County,GA,81.53618906942393,NA
30087,DeKalb County,GA,NA,20.253164556962027
30102,Cherokee County,GA,89.51255539143278,NA
30103,Bartow County,GA,83.89955686853766,NA
30125,Polk County,GA,32.05317577548006,NA
30220,Coweta County,GA,84.93353028064993,NA
30223,Spalding County,GA,63.515509601181684,NA
30228,Henry County,GA,NA,83.54430379746836
30241,Troup County,GA,98.07976366322009,NA
30291,Fulton County,GA,64.84490398818316,NA
30311,Fulton County,GA,12.998522895125554,NA
30316,DeKalb County,GA,75.48005908419498,NA
30317,DeKalb County,GA,NA,96.51898734177216
30518,Gwinnett County,GA,32.64401772525849,NA
30680,Barrow County,GA,NA,82.91139240506328
30705,Murray County,GA,56.12998522895125,NA
30710,Whitfield County,GA,99.55686853766618,NA
30720,Whitfield County,GA,49.926144756277694,NA
30740,Whitfield County,GA,99.11373707533235,NA
30809,Columbia County,GA,30.72378138847858,NA
31015,Crisp County,GA,71.49187592319055,NA
31088,Houston County,GA,NA,21.202531645569618
31211,Bibb County,GA,89.80797636632201,NA
31548,Camden County,GA,NA,62.34177215189873
31602,Lowndes County,GA,32.348596750369275,NA
31705,Dougherty County,GA,NA,25.31645569620253
31763,Lee County,GA,45.64254062038405,NA
31794,Tift County,GA,24.076809453471196,NA
96782,Honolulu County,HI,31.462333825701627,NA
96791,Honolulu County,HI,NA,94.30379746835443
96793,Maui County,HI,71.04874446085671,NA
83301,Twin Falls County,ID,NA,0.6329113924050633
83501,Nez Perce County,ID,NA,10.443037974683545
83647,Elmore County,ID,38.99556868537666,NA
83854,Kootenai County,ID,74.44608567208272,NA
60042,McHenry County,IL,76.21861152141803,NA
60051,McHenry County,IL,47.56277695716396,NA
60091,Cook County,IL,64.99261447562778,NA
60104,Cook County,IL,34.85967503692763,NA
60185,DuPage County,IL,NA,54.43037974683544
60191,DuPage County,IL,61.00443131462334,NA
60402,Cook County,IL,NA,61.70886075949367
60419,Cook County,IL,NA,59.49367088607595
60441,Will County,IL,50.960118168389954,NA
60463,Cook County,IL,68.98079763663219,NA
60502,DuPage County,IL,NA,60.12658227848101
60532,DuPage County,IL,40.32496307237814,NA
60623,Cook County,IL,NA,38.607594936708864
60625,Cook County,IL,72.673559822747407,NA
60626,Cook County,IL,17.2821270310192,NA
60632,Cook County,IL,11.225997045790251,NA
60637,Cook County,IL,40.62038404726736,NA
60640,Cook County,IL,NA,7.59493670886076
60643,Cook County,IL,6.646971935007386,NA
60644,Cook County,IL,46.971935007385525,NA
60655,Cook County,IL,25.11078286558346,NA
61072,Winnebago County,IL,NA,56.9620253164557
61604,Peoria County,IL,35.30280649926144,NA
61705,McLean County,IL,NA,66.13924050632912
61739,Livingston County,IL,91.72821270310192,NA
61761,McLean County,IL,34.26883308714919,NA
62033,Macoupin County,IL,94.53471196454947,NA
62056,Montgomery County,IL,82.12703101920236,NA
62301,Adams County,IL,59.97045790251108,NA
62952,Union County,IL,91.1373707533235,NA
46012,Madison County,IN,NA,19.303797468354432
46060,Hamilton County,IN,73.26440177252584,NA
46122,Hendricks County,IN,NA,61.07594936708861
46124,Johnson County,IN,NA,98.73417721518987
46168,Hendricks County,IN,34.416543574593796,NA
46229,Marion County,IN,NA,29.746835443037973
46241,Marion County,IN,47.85819793205317,NA
46350,LaPorte County,IN,NA,7.2784810126582276
46375,Lake County,IN,NA,13.60759493670886
46383,Porter County,IN,5.908419497784342,NA
46403,Lake County,IN,62.0384047267356,NA
46635,St. Joseph County,IN,NA,87.34177215189874
46816,Allen County,IN,84.78581979320532,NA
46825,Allen County,IN,32.93943870014771,NA
46947,Cass County,IN,10.3397341211226,NA
46953,Grant County,IN,9.896602658788774,NA
46970,Miami County,IN,7.828655834564254,NA
47001,Dearborn County,IN,78.13884785819793,NA
47031,Ripley County,IN,95.27326440177252,NA
47130,Clark County,IN,NA,6.012658227848101
47374,Wayne County,IN,2.954209748892171,NA
47403,Monroe County,IN,55.686853766617425,NA
47546,Dubois County,IN,48.15361890694239,NA
47630,Warrick County,IN,NA,22.78481012658228
47714,Vanderburgh County,IN,68.68537666174298,NA
50014,Story County,IA,82.86558345642541,NA
50314,Polk County,IA,40.177252584933534,NA
50461,Mitchell County,IA,NA,97.46835443037975
50501,Webster County,IA,68.83308714918759,NA
50548,Humboldt County,IA,NA,90.50632911392405
50677,Bremer County,IA,74.2983751846381,NA
50801,Union County,IA,65.28803545051699,NA
51106,Woodbury County,IA,43.72230428360414,NA
52001,Dubuque County,IA,12.850812407680944,NA
52246,Johnson County,IA,NA,55.06329113924051
52402,Linn County,IA,NA,24.050632911392405
52404,Linn County,IA,NA,92.72151898734177
52601,Des Moines County,IA,10.487444608567207,NA
52807,Scott County,IA,NA,71.51898734177216
66062,Johnson County,KS,8.567208271787297,NA
66215,Johnson County,KS,NA,37.0253164556962
66611,Shawnee County,KS,NA,70.25316455696202
67005,Cowley County,KS,76.07090103397341,NA
67207,Sedgwick County,KS,76.95716395864106,NA
67301,Montgomery County,KS,NA,81.64556962025317
67401,Saline County,KS,NA,81.9620253164557
40118,Jefferson County,KY,50.073855243722306,NA
40207,Jefferson County,KY,65.73116691285081,NA
40211,Jefferson County,KY,NA,60.75949367088608
40222,Jefferson County,KY,92.17134416543574,NA
40229,Jefferson County,KY,35.745937961595274,NA
40311,Nicholas County,KY,67.79911373707533,NA
40965,Bell County,KY,22.74741506646972,NA
40977,Bell County,KY,49.18759231905465,NA
41042,Boone County,KY,3.6927621861152145,NA
41076,Campbell County,KY,NA,78.16455696202532
41144,Greenup County,KY,35.15509601181684,NA
41314,Owsley County,KY,87.14918759231905,NA
42633,Wayne County,KY,NA,31.0126582278481
70062,Jefferson Parish,LA,16.691285081240768,NA
70065,Jefferson Parish,LA,NA,3.481012658227848
70068,St. John the Baptist Parish,LA,NA,14.240506329113925
70118,Orleans Parish,LA,88.18316100443131,NA
70123,Jefferson Parish,LA,NA,16.77215189873418
70344,Terrebonne Parish,LA,NA,68.9873417721519
70438,Washington Parish,LA,10.782865583456426,NA
70458,St. Tammany Parish,LA,3.5450516986706058,NA
70507,Lafayette Parish,LA,85.37666174298376,NA
70560,Iberia Parish,LA,1.6248153618906942,NA
70578,Acadia Parish,LA,19.940915805022154,NA
70714,East Baton Rouge Parish,LA,67.20827178729691,NA
70769,Ascension Parish,LA,7.976366322008863,NA
70805,East Baton Rouge Parish,LA,2.06794682422452,NA
70806,East Baton Rouge Parish,LA,NA,32.278481012658226
70810,East Baton Rouge Parish,LA,96.30723781388478,NA
71052,De Soto Parish,LA,77.99113737075332,NA
71105,Caddo Parish,LA,NA,39.24050632911392
71106,Caddo Parish,LA,70.90103397341211,NA
71295,Franklin Parish,LA,NA,72.46835443037975
71328,Rapides Parish,LA,NA,65.82278481012658
04103,Cumberland County,ME,76.36632200886262,NA
04240,Androscoggin County,ME,11.669128508124077,NA
04401,Penobscot County,ME,NA,1.2658227848101267
04578,Lincoln County,ME,95.56868537666175,NA
04769,Aroostook County,ME,97.19350073855244,NA
20876,Montgomery County,MD,61.44756277695716,NA
20879,Montgomery County,MD,79.76366322008862,NA
20912,Montgomery County,MD,91.2850812407681,NA
21001,Harford County,MD,NA,54.11392405063291
21060,Anne Arundel County,MD,71.93500738552437,NA
21085,Harford County,MD,84.63810930576071,NA
21093,Baltimore County,MD,NA,53.79746835443038
21122,Anne Arundel County,MD,6.20384047267356,NA
21206,Baltimore city,MD,NA,11.39240506329114
21217,Baltimore city,MD,21.122599704579027,NA
21222,Baltimore County,MD,80.79763663220089,NA
21228,Baltimore County,MD,46.82422451994091,NA
21401,Anne Arundel County,MD,53.91432791728212,NA
21701,Frederick County,MD,85.67208271787297,NA
01040,Hampden County,MA,NA,0
01069,Hampden County,MA,24.66765140324963,NA
01082,Hampshire County,MA,21.86115214180207,NA
01104,Hampden County,MA,NA,9.81012658227848
01107,Hampden County,MA,23.338257016248154,NA
01545,Worcester County,MA,14.623338257016247,NA
01571,Worcester County,MA,NA,52.84810126582279
01603,Worcester County,MA,NA,2.5316455696202533
01610,Worcester County,MA,46.233382570162476,NA
01701,Middlesex County,MA,8.419497784342688,NA
01740,Worcester County,MA,90.25110782865583,NA
01801,Middlesex County,MA,6.794682422451995,NA
01803,Middlesex County,MA,NA,5.69620253164557
01830,Essex County,MA,0.8862629246676514,NA
01835,Essex County,MA,26.88330871491876,NA
01841,Essex County,MA,0.29542097488921715,0.31645569620253167
01852,Middlesex County,MA,33.23485967503693,NA
02045,Plymouth County,MA,NA,80.37974683544303
02119,Suffolk County,MA,86.2629246676514,NA
02121,Suffolk County,MA,NA,16.139240506329113
02132,Suffolk County,MA,NA,1.5822784810126582
02324,Plymouth County,MA,NA,95.25316455696202
02360,Plymouth County,MA,NA,6.329113924050633
02364,Plymouth County,MA,47.11964549483013,NA
02420,Middlesex County,MA,31.166912850812405,NA
02571,Plymouth County,MA,NA,32.91139240506329
02649,Barnstable County,MA,31.610044313146236,NA
02703,Bristol County,MA,5.1698670605613,NA
02760,Bristol County,MA,9.15805022156573,NA
02769,Bristol County,MA,86.41063515509602,NA
02780,Bristol County,MA,8.124076809453472,NA
48054,St. Clair County,MI,NA,79.43037974683544
48073,Oakland County,MI,25.406203840472674,NA
48082,Macomb County,MI,41.3589364844904,NA
48089,Macomb County,MI,6.056129985228951,NA
48114,Livingston County,MI,47.267355982274736,NA
48152,Wayne County,MI,59.08419497784343,NA
48161,Monroe County,MI,NA,18.670886075949365
48183,Wayne County,MI,80.64992614475628,NA
48187,Wayne County,MI,31.0192023633678,NA
48189,Washtenaw County,MI,NA,46.835443037974684
48195,Wayne County,MI,67.3559822747415,NA
48198,Washtenaw County,MI,1.4771048744460855,NA
48224,Wayne County,MI,NA,19.62025316455696
48228,Wayne County,MI,1.03397341211226,NA
48229,Wayne County,MI,52.88035450516987,NA
48307,Oakland County,MI,15.805022156573118,NA
48322,Oakland County,MI,NA,8.227848101265822
48340,Oakland County,MI,8.27178729689808,NA
48374,Oakland County,MI,69.1285081240768,NA
48423,Genesee County,MI,94.23929098966026,NA
48433,Genesee County,MI,NA,95.88607594936708
48439,Genesee County,MI,87.29689807976366,NA
48442,Oakland County,MI,42.245199409158054,NA
48473,Genesee County,MI,38.10930576070901,NA
48601,Saginaw County,MI,NA,86.70886075949366
48624,Gladwin County,MI,78.28655834564255,NA
48640,Midland County,MI,76.80945347119645,NA
48838,Montcalm County,MI,NA,27.531645569620256
48858,Isabella County,MI,4.283604135893649,NA
48881,Ionia County,MI,88.33087149187593,NA
49002,Kalamazoo County,MI,98.52289512555392,NA
49007,Kalamazoo County,MI,NA,73.10126582278481
49008,Kalamazoo County,MI,NA,44.936708860759495
49009,Kalamazoo County,MI,NA,8.544303797468354
49021,Eaton County,MI,NA,61.39240506329114
49048,Kalamazoo County,MI,NA,27.848101265822784
49078,Allegan County,MI,71.63958641063516,NA
49080,Allegan County,MI,37.51846381093058,NA
49202,Jackson County,MI,82.57016248153619,NA
49203,Jackson County,MI,5.612998522895126,NA
49301,Kent County,MI,NA,57.59493670886076
49307,Mecosta County,MI,73.55982274741507,NA
49423,Ottawa County,MI,NA,32.594936708860764
49660,Manistee County,MI,NA,25.63291139240506
49765,Presque Isle County,MI,81.68389955686854,NA
55075,Dakota County,MN,36.779911373707534,NA
55082,Washington County,MN,29.098966026587885,NA
55112,Ramsey County,MN,NA,67.40506329113924
55113,Ramsey County,MN,70.60561299852289,NA
55125,Washington County,MN,66.46971935007386,NA
55352,Scott County,MN,98.81831610044313,NA
55378,Scott County,MN,76.66174298375185,NA
55404,Hennepin County,MN,20.38404726735598,NA
55405,Hennepin County,MN,30.87149187592319,NA
55408,Hennepin County,MN,9.30576070901034,NA
55420,Hennepin County,MN,33.67799113737075,NA
55421,Anoka County,MN,18.31610044313146,NA
55432,Anoka County,MN,51.40324963072378,NA
55811,St. Louis County,MN,NA,6.6455696202531636
55912,Mower County,MN,NA,4.113924050632911
56001,Blue Earth County,MN,26.587887740029544,NA
56187,Nobles County,MN,60.56129985228951,NA
56304,Sherburne County,MN,79.1728212703102,NA
56537,Otter Tail County,MN,NA,9.49367088607595
56544,Becker County,MN,NA,85.12658227848101
56560,Clay County,MN,NA,4.746835443037975
56649,Koochiching County,MN,92.02363367799113,NA
38801,Lee County,MS,NA,87.9746835443038
38851,Chickasaw County,MS,NA,97.78481012658227
39046,Madison County,MS,24.076809453471196,NA
39056,Hinds County,MS,81.97932053175776,NA
39083,Copiah County,MS,72.82127031019202,NA
39120,Adams County,MS,NA,47.46835443037975
39422,Jasper County,MS,75.18463810930575,NA
39429,Marion County,MS,NA,56.32911392405063
39465,Forrest County,MS,NA,84.17721518987342
39501,Harrison County,MS,NA,15.18987341772152
39520,Hancock County,MS,92.31905465288035,NA
39556,Hancock County,MS,81.83161004431314,NA
39562,Jackson County,MS,89.21713441654357,NA
39563,Jackson County,MS,44.608567208271786,NA
63026,St. Louis County,MO,30.280649926144754,NA
63031,St. Louis County,MO,44.01772525849335,NA
63033,St. Louis County,MO,41.06351550960118,41.45569620253164
63088,St. Louis County,MO,88.47858197932054,NA
63106,St. Louis city,MO,91.87592319054653,NA
63130,St. Louis County,MO,47.41506646971935,50.31645569620253
63136,St. Louis County,MO,25.997045790251107,NA
63630,Washington County,MO,NA,97.15189873417721
63664,Washington County,MO,69.57163958641064,NA
63901,Butler County,MO,11.521418020679468,NA
64024,Clay County,MO,15.657311669128507,NA
64030,Jackson County,MO,15.36189069423929,NA
64080,Cass County,MO,88.0354505169867,62.65822784810127
64118,Clay County,MO,NA,7.9113924050632916
64128,Jackson County,MO,90.98966026587888,NA
64132,Jackson County,MO,99.40915805022156,NA
64735,Henry County,MO,75.03692762186115,NA
64804,Jasper County,MO,NA,69.30379746835443
64850,Newton County,MO,13.44165435745938,NA
65026,Miller County,MO,61.15214180206795,NA
65301,Pettis County,MO,48.89217134416543,60.44303797468354
65714,Christian County,MO,82.7178729689808,NA
65802,Greene County,MO,NA,48.41772151898734
65804,Greene County,MO,25.553914327917283,NA
65806,Greene County,MO,77.10487444608567,NA
59101,Yellowstone County,MT,64.54948301329394,NA
59714,Gallatin County,MT,58.78877400295421,NA
89104,Clark County,NV,63.8109305760709,NA
89108,Clark County,NV,19.35007385524372,NA
89119,Clark County,NV,18.61152141802068,NA
89403,Lyon County,NV,NA,34.49367088607595
89406,Churchill County,NV,NA,55.379746835443036
89431,Washoe County,NV,65.4357459379616,NA
89506,Washoe County,NV,16.248153618906944,NA
89523,Washoe County,NV,84.19497784342688,NA
03038,Rockingham County,NH,36.92762186115214,NA
03052,Hillsborough County,NH,94.97784342688331,NA
03053,Rockingham County,NH,NA,52.53164556962025
03054,Hillsborough County,NH,27.031019202363364,NA
03062,Hillsborough County,NH,NA,8.544303797468354
03064,Hillsborough County,NH,25.258493353028065,NA
03102,Hillsborough County,NH,18.168389955686852,NA
03431,Cheshire County,NH,24.963072378138847,NA
07024,Bergen County,NJ,28.80354505169867,NA
07042,Essex County,NJ,21.56573116691285,NA
07052,Essex County,NJ,57.31166912850812,NA
07440,Morris County,NJ,99.70457902511079,NA
07446,Bergen County,NJ,66.32200886262925,NA
07470,Passaic County,NJ,NA,4.430379746835443
07666,Bergen County,NJ,11.225997045790251,NA
07728,Monmouth County,NJ,57.459379615952734,NA
07871,Sussex County,NJ,51.698670605612996,NA
08012,Camden County,NJ,NA,43.67088607594937
08021,Camden County,NJ,23.190546528803544,NA
08043,Camden County,NJ,NA,51.89873417721519
08053,Burlington County,NJ,95.86410635155096,NA
08234,Atlantic County,NJ,NA,40.50632911392405
08302,Cumberland County,NJ,0.5908419497784343,NA
08401,Atlantic County,NJ,2.2156573116691285,NA
08611,Mercer County,NJ,NA,28.79746835443038
08742,Ocean County,NJ,25.70162481536189,NA
08863,Middlesex County,NJ,60.56129985228951,NA
87109,Bernalillo County,NM,14.918759231905465,NA
87123,Bernalillo County,NM,10.635155096011816,NA
87301,McKinley County,NM,NA,52.21518987341772
88260,Lea County,NM,79.61595273264402,NA
88310,Otero County,NM,NA,5.379746835443038
10004,New York County,NY,84.93353028064993,NA
10021,New York County,NY,NA,24.367088607594937
10025,New York County,NY,39.7341211225997,NA
10031,New York County,NY,27.326440177252586,NA
10035,New York County,NY,22.156573116691288,NA
10037,New York County,NY,64.10635155096011,NA
10040,New York County,NY,58.49335302806499,NA
10454,Bronx County,NY,23.633677991137368,NA
10456,Bronx County,NY,13.293943870014772,NA
10458,Bronx County,NY,3.10192023633678,NA
10467,Bronx County,NY,3.2496307237813884,NA
10980,Rockland County,NY,NA,78.79746835443038
11211,Kings County,NY,68.38995568685377,16.455696202531644
11212,Kings County,NY,0.14771048744460857,NA
11222,Kings County,NY,92.76218611521418,NA
11226,Kings County,NY,NA,2.848101265822785
11231,Kings County,NY,36.63220088626292,NA
11233,Kings County,NY,NA,48.734177215189874
11236,Kings County,NY,2.511078286558346,NA
11238,Kings County,NY,64.25406203840473,NA
11357,Queens County,NY,67.65140324963073,NA
11368,Queens County,NY,5.465288035450517,NA
11385,Queens County,NY,7.385524372230429,NA
11412,Queens County,NY,NA,83.22784810126582
11566,Nassau County,NY,NA,42.08860759493671
11746,Suffolk County,NY,83.16100443131462,NA
11756,Nassau County,NY,NA,58.86075949367089
11772,Suffolk County,NY,NA,23.734177215189874
11776,Suffolk County,NY,51.8463810930576,NA
11950,Suffolk County,NY,NA,99.68354430379746
11951,Suffolk County,NY,83.45642540620383,NA
12118,Saratoga County,NY,54.65288035450517,NA
12155,Otsego County,NY,NA,94.9367088607595
12182,Rensselaer County,NY,44.46085672082718,NA
12601,Dutchess County,NY,55.53914327917282,NA
12801,Warren County,NY,46.67651403249631,NA
12839,Washington County,NY,NA,42.405063291139236
12883,Essex County,NY,72.3781388478582,NA
12919,Clinton County,NY,86.85376661742984,NA
12946,Essex County,NY,30.132939438700145,NA
12986,Franklin County,NY,57.90251107828656,NA
13030,Madison County,NY,99.85228951255539,NA
13069,Oswego County,NY,3.3973412112259975,NA
13088,Onondaga County,NY,23.042836041358935,40.822784810126585
13131,Oswego County,NY,84.04726735598229,NA
13224,Onondaga County,NY,96.89807976366322,NA
13421,Madison County,NY,21.418020679468242,NA
13440,Oneida County,NY,11.078286558345644,NA
13669,St. Lawrence County,NY,19.64549483013294,NA
13901,Broome County,NY,NA,85.44303797468355
14009,Wyoming County,NY,96.01181683899557,NA
14051,Erie County,NY,NA,41.77215189873418
14072,Erie County,NY,NA,58.22784810126582
14075,Erie County,NY,27.91728212703102,NA
14141,Erie County,NY,NA,73.73417721518987
14150,Erie County,NY,3.9881831610044314,NA
14221,Erie County,NY,NA,3.1645569620253164
14304,Niagara County,NY,94.8301329394387,NA
14425,Ontario County,NY,NA,24.68354430379747
14437,Livingston County,NY,38.55243722304284,NA
14468,Monroe County,NY,NA,18.037974683544302
14477,Orleans County,NY,NA,100
14505,Wayne County,NY,NA,59.17721518987342
14512,Ontario County,NY,NA,76.58227848101265
14519,Wayne County,NY,20.82717872968981,NA
14613,Monroe County,NY,9.601181683899556,NA
14701,Chautauqua County,NY,14.47562776957164,31.645569620253166
27052,Stokes County,NC,NA,75.31645569620254
27104,Forsyth County,NC,NA,29.11392405063291
27203,Randolph County,NC,22.451994091580502,NA
27260,Guilford County,NC,20.974889217134415,NA
27278,Orange County,NC,66.02658788774004,NA
27344,Chatham County,NC,41.94977843426883,NA
27377,Guilford County,NC,NA,78.48101265822784
27513,Wake County,NC,55.096011816838995,NA
27521,Harnett County,NC,98.67060561299851,NA
27574,Person County,NC,NA,45.88607594936709
27603,Wake County,NC,19.79320531757755,NA
27703,Durham County,NC,32.20088626292467,10.126582278481013
27704,Durham County,NC,9.453471196454949,NA
27834,Pitt County,NC,5.022156573116692,NA
27870,Halifax County,NC,NA,85.75949367088607
27889,Beaufort County,NC,NA,23.10126582278481
28025,Cabarrus County,NC,63.36779911373708,NA
28031,Mecklenburg County,NC,NA,37.65822784810127
28054,Gaston County,NC,16.838995568685377,NA
28212,Mecklenburg County,NC,22.008862629246675,NA
28262,Mecklenburg County,NC,NA,58.54430379746836
28270,Mecklenburg County,NC,NA,66.77215189873418
28340,Robeson County,NC,51.55096011816839,NA
28352,Scotland County,NC,53.76661742983752,NA
28358,Robeson County,NC,13.58936484490399,NA
28383,Robeson County,NC,NA,74.36708860759494
28411,New Hanover County,NC,NA,33.860759493670884
28546,Onslow County,NC,53.91432791728212,NA
28602,Catawba County,NC,65.58345642540621,NA
28607,Watauga County,NC,46.08567208271787,NA
28638,Caldwell County,NC,48.59675036927622,NA
28792,Henderson County,NC,26.292466765140325,NA
28806,Buncombe County,NC,84.49039881831611,37.34177215189873
43016,Franklin County,OH,NA,71.83544303797468
43105,Fairfield County,OH,93.64844903988183,NA
43113,Pickaway County,OH,38.404726735598224,NA
43130,Fairfield County,OH,NA,1.89873417721519
43207,Franklin County,OH,34.12112259970458,67.08860759493672
43209,Franklin County,OH,42.540620384047266,NA
43232,Franklin County,OH,56.42540620384048,NA
43506,Williams County,OH,67.94682422451994,NA
43526,Defiance County,OH,91.5805022156573,NA
43612,Lucas County,OH,NA,13.924050632911392
43614,Lucas County,OH,77.5480059084195,NA
43812,Coshocton County,OH,NA,6.962025316455696
43920,Columbiana County,OH,7.23781388478582,NA
43947,Belmont County,OH,86.41063515509602,NA
43953,Jefferson County,OH,58.49335302806499,NA
44004,Ashtabula County,OH,1.329394387001477,NA
44035,Lorain County,OH,0,NA
44060,Lake County,OH,4.726735598227474,NA
44104,Cuyahoga County,OH,2.658788774002954,NA
44108,Cuyahoga County,OH,NA,28.164556962025316
44111,Cuyahoga County,OH,0.7385524372230428,NA
44113,Cuyahoga County,OH,5.760709010339734,NA
44124,Cuyahoga County,OH,NA,3.79746835443038
44128,Cuyahoga County,OH,1.7725258493353029,NA
44136,Cuyahoga County,OH,90.10339734121122,NA
44149,Cuyahoga County,OH,37.9615952732644,NA
44221,Summit County,OH,12.259970457902511,NA
44240,Portage County,OH,NA,18.9873417721519
44241,Portage County,OH,57.01624815361891,50.63291139240506
44256,Medina County,OH,33.53028064992615,NA
44314,Summit County,OH,54.35745937961596,20.88607594936709
44438,Trumbull County,OH,64.69719350073855,NA
44460,Columbiana County,OH,18.020679468242246,NA
44622,Tuscarawas County,OH,28.360413589364846,NA
44646,Stark County,OH,NA,80.0632911392405
44720,Stark County,OH,NA,17.405063291139243
44837,Huron County,OH,81.38847858197931,NA
44883,Seneca County,OH,15.214180206794683,NA
45011,Butler County,OH,12.703101920236337,NA
45150,Clermont County,OH,62.33382570162481,NA
45224,Hamilton County,OH,18.75923190546529,NA
45239,Hamilton County,OH,59.37961595273264,NA
45327,Montgomery County,OH,71.78729689807977,NA
45331,Darke County,OH,22.304283604135893,NA
45342,Montgomery County,OH,9.010339734121123,NA
45403,Montgomery County,OH,31.166912850812405,NA
45503,Clark County,OH,NA,11.708860759493671
45619,Lawrence County,OH,70.7533234859675,NA
45640,Jackson County,OH,4.874446085672083,NA
45662,Scioto County,OH,42.09748892171344,NA
45813,Paulding County,OH,97.48892171344166,NA
73008,Oklahoma County,OK,NA,51.58227848101266
73064,Canadian County,OK,45.79025110782865,NA
73080,McClain County,OK,98.22747415066469,NA
73110,Oklahoma County,OK,16.100443131462335,NA
73112,Oklahoma County,OK,NA,43.037974683544306
73160,Cleveland County,OK,NA,84.81012658227847
74011,Tulsa County,OK,59.23190546528804,NA
74014,Wagoner County,OK,87.00147710487445,NA
74354,Ottawa County,OK,NA,40.189873417721515
74434,Muskogee County,OK,NA,96.83544303797468
74462,Haskell County,OK,NA,74.68354430379746
74857,Cleveland County,OK,73.11669128508123,NA
74948,Sequoyah County,OK,56.57311669128509,NA
97013,Clackamas County,OR,54.20974889217134,NA
97030,Multnomah County,OR,14.771048744460858,NA
97058,Wasco County,OR,79.4682422451994,NA
97080,Multnomah County,OR,NA,17.72151898734177
97086,Clackamas County,OR,48.44903988183161,NA
97103,Clatsop County,OR,NA,39.55696202531646
97206,Multnomah County,OR,10.930576070901035,NA
97214,Multnomah County,OR,66.91285081240767,NA
97224,Washington County,OR,73.70753323485968,NA
97229,Washington County,OR,30.428360413589367,NA
97302,Marion County,OR,37.370753323485964,NA
97303,Marion County,OR,80.35450516986707,NA
97304,Polk County,OR,52.58493353028065,NA
97322,Linn County,OR,83.75184638109306,NA
97402,Lane County,OR,17.725258493353028,26.89873417721519
97415,Curry County,OR,93.35302806499261,NA
97477,Lane County,OR,NA,99.36708860759494
97487,Lane County,OR,NA,91.45569620253164
97501,Jackson County,OR,6.3515509601181686,NA
97504,Jackson County,OR,48.301329394387,NA
97527,Josephine County,OR,39.14327917282127,NA
97601,Klamath County,OR,43.1314623338257,NA
97741,Jefferson County,OR,68.53766617429838,NA
97838,Umatilla County,OR,NA,12.974683544303797
15137,Allegheny County,PA,55.391432791728214,NA
15206,Allegheny County,PA,15.066469719350073,19.936708860759495
15213,Allegheny County,PA,63.95864106351551,NA
15237,Allegheny County,PA,43.42688330871492,NA
15317,Washington County,PA,81.24076809453472,9.177215189873419
15601,Westmoreland County,PA,2.363367799113737,NA
15642,Westmoreland County,PA,NA,47.78481012658228
15656,Westmoreland County,PA,NA,76.89873417721519
15767,Jefferson County,PA,NA,86.39240506329115
15801,Clearfield County,PA,78.58197932053176,NA
16442,Erie County,PA,NA,98.41772151898735
16504,Erie County,PA,80.05908419497784,NA
16505,Erie County,PA,NA,50.9493670886076
16601,Blair County,PA,29.542097488921716,NA
16947,Bradford County,PA,87.44460856720828,NA
17015,Cumberland County,PA,68.09453471196456,NA
17036,Dauphin County,PA,67.0605612998523,NA
17046,Lebanon County,PA,7.680945347119645,NA
17356,York County,PA,NA,35.75949367088608
17368,York County,PA,70.45790251107829,NA
17408,York County,PA,NA,93.67088607594937
17543,Lancaster County,PA,51.994091580502214,NA
17702,Lycoming County,PA,86.11521418020679,NA
17745,Clinton County,PA,79.3205317577548,NA
17815,Columbia County,PA,13.737075332348597,NA
17842,Snyder County,PA,NA,57.91139240506329
18015,Northampton County,PA,27.91728212703102,NA
18045,Northampton County,PA,NA,12.658227848101266
18249,Luzerne County,PA,96.4549483013294,NA
18431,Wayne County,PA,55.98227474150664,NA
18436,Wayne County,PA,51.10782865583457,NA
18466,Monroe County,PA,88.77400295420975,NA
18510,Lackawanna County,PA,58.34564254062038,NA
18634,Luzerne County,PA,37.66617429837518,NA
18651,Luzerne County,PA,NA,93.0379746835443
18702,Luzerne County,PA,NA,42.721518987341774
19018,Delaware County,PA,70.31019202363368,NA
19046,Montgomery County,PA,40.02954209748892,NA
19107,Philadelphia County,PA,93.205317577548,NA
19115,Philadelphia County,PA,NA,15.50632911392405
19121,Philadelphia County,PA,7.0901033973412115,NA
19124,Philadelphia County,PA,0.4431314623338257,NA
19142,Philadelphia County,PA,NA,63.92405063291139
19147,Philadelphia County,PA,15.952732644017726,NA
19152,Philadelphia County,PA,16.54357459379616,NA
19342,Delaware County,PA,41.506646971935005,90.82278481012658
19380,Chester County,PA,10.19202363367799,NA
19440,Montgomery County,PA,80.50221565731167,NA
19601,Berks County,PA,44.75627769571639,NA
19602,Berks County,PA,53.61890694239291,NA
19604,Berks County,PA,9.748892171344165,NA
19606,Berks County,PA,8.862629246676514,NA
02895,Providence County,RI,NA,25
02919,Providence County,RI,34.416543574593796,NA
29078,Kershaw County,SC,NA,92.40506329113924
29115,Orangeburg County,SC,62.62924667651403,NA
29203,Richland County,SC,32.49630723781389,NA
29210,Richland County,SC,NA,88.92405063291139
29301,Spartanburg County,SC,NA,31.962025316455694
29369,Spartanburg County,SC,NA,88.60759493670885
29461,Berkeley County,SC,28.360413589364846,NA
29470,Charleston County,SC,98.3751846381093,NA
29483,Dorchester County,SC,14.32791728212703,NA
29485,Dorchester County,SC,NA,70.88607594936708
29568,Horry County,SC,93.0576070901034,NA
29574,Marion County,SC,54.505169867060566,NA
29579,Horry County,SC,NA,57.27848101265823
29617,Greenville County,SC,61.89069423929099,NA
29642,Pickens County,SC,28.21270310192024,NA
29841,Aiken County,SC,NA,26.582278481012654
57078,Yankton County,SD,63.07237813884786,NA
57105,Minnehaha County,SD,40.76809453471196,NA
57401,Brown County,SD,43.574593796159526,NA
57702,Pennington County,SD,78.43426883308715,NA
37083,Macon County,TN,45.49483013293944,NA
37115,Davidson County,TN,10.044313146233383,NA
37129,Rutherford County,TN,14.032496307237812,NA
37138,Davidson County,TN,45.937961595273265,NA
37172,Robertson County,TN,40.472673559822745,NA
37210,Davidson County,TN,53.32348596750369,NA
37388,Coffee County,TN,27.76957163958641,NA
37664,Sullivan County,TN,18.46381093057607,NA
37725,Jefferson County,TN,47.71048744460857,NA
37757,Campbell County,TN,NA,93.9873417721519
37774,Loudon County,TN,69.71935007385525,NA
37801,Blount County,TN,NA,39.87341772151899
37932,Knox County,TN,75.7754800590842,NA
38105,Shelby County,TN,82.42245199409159,NA
38108,Shelby County,TN,50.22156573116692,NA
38128,Shelby County,TN,63.663220088626296,NA
38141,Shelby County,TN,NA,82.59493670886076
38305,Madison County,TN,7.533234859675036,NA
38464,Lawrence County,TN,26.587887740029544,27.21518987341772
38469,Lawrence County,TN,96.15952732644017,NA
38544,Putnam County,TN,58.19793205317577,NA
75043,Dallas County,TX,17.429837518463813,NA
75077,Denton County,TX,NA,68.35443037974683
75189,Rockwall County,TX,39.29098966026588,NA
75228,Dallas County,TX,4.431314623338257,NA
75457,Franklin County,TX,98.96602658788774,NA
75604,Gregg County,TX,34.711964549483014,NA
75652,Rusk County,TX,NA,43.037974683544306
75702,Smith County,TX,NA,62.0253164556962
75703,Smith County,TX,NA,5.063291139240507
75757,Smith County,TX,70.01477104874446,NA
76036,Tarrant County,TX,53.4711964549483,NA
76063,Tarrant County,TX,11.964549483013293,NA
76067,Palo Pinto County,TX,48.74446085672083,NA
76085,Parker County,TX,NA,74.0506329113924
76131,Tarrant County,TX,45.347119645494836,NA
76148,Tarrant County,TX,35.450516986706056,NA
76458,Jack County,TX,92.46676514032495,NA
76504,Bell County,TX,71.19645494830132,2.2151898734177213
77005,Harris County,TX,NA,49.68354430379747
77035,Harris County,TX,36.1890694239291,NA
77066,Harris County,TX,61.15214180206795,NA
77083,Harris County,TX,36.484490398818316,NA
77339,Harris County,TX,52.28951255539144,NA
77354,Montgomery County,TX,43.72230428360414,NA
77494,Fort Bend County,TX,14.180206794682423,NA
77625,Hardin County,TX,NA,67.72151898734177
77632,Orange County,TX,NA,79.11392405063292
77713,Jefferson County,TX,NA,75.9493670886076
78211,Bexar County,TX,47.85819793205317,NA
78247,Bexar County,TX,NA,74.68354430379746
78521,Cameron County,TX,73.70753323485968,NA
78582,Starr County,TX,NA,36.708860759493675
78633,Williamson County,TX,NA,0.949367088607595
78724,Travis County,TX,66.76514032496307,NA
79106,Potter County,TX,NA,33.54430379746836
79720,Howard County,TX,46.5288035450517,47.151898734177216
79912,El Paso County,TX,22.599704579025108,NA
84009,Salt Lake County,UT,74.88921713441654,NA
84084,Salt Lake County,UT,NA,35.44303797468354
84121,Salt Lake County,UT,35.89364844903989,86.07594936708861
84128,Salt Lake County,UT,84.3426883308715,NA
05401,Chittenden County,VT,44.313146233382575,NA
22980,Waynesboro city,VA,6.499261447562777,NA
23220,Richmond city,VA,NA,48.10126582278481
23234,Chesterfield County,VA,16.986706056129986,NA
23464,Virginia Beach city,VA,58.93648449039882,NA
23502,Norfolk city,VA,29.68980797636632,NA
23607,Newport News city,VA,NA,38.291139240506325
23831,Chesterfield County,VA,NA,56.64556962025317
24014,Roanoke city,VA,61.595273264401776,NA
24101,Franklin County,VA,NA,99.0506329113924
24251,Scott County,VA,77.84342688330872,NA
24401,Staunton city,VA,NA,49.050632911392405
24540,Danville city,VA,23.78138847858198,NA
98001,King County,WA,NA,34.810126582278485
98023,King County,WA,78.87740029542097,NA
98032,King County,WA,37.66617429837518,NA
98033,King County,WA,56.72082717872969,NA
98070,King County,WA,89.95568685376661,NA
98092,King County,WA,NA,14.873417721518987
98122,King County,WA,77.69571639586411,NA
98188,King County,WA,62.481536189069416,NA
98272,Snohomish County,WA,NA,64.87341772151899
98273,Skagit County,WA,NA,12.341772151898734
98331,Clallam County,WA,97.34121122599704,NA
98335,Pierce County,WA,79.91137370753324,NA
98373,Pierce County,WA,83.30871491875924,NA
98375,Pierce County,WA,NA,66.45569620253164
98466,Pierce County,WA,54.94830132939439,NA
98584,Mason County,WA,NA,16.77215189873418
98620,Klickitat County,WA,72.52584933530281,NA
20003,District of Columbia,DC,72.96898079763663,NA
20018,District of Columbia,DC,37.07533234859675,NA
24701,Mercer County,WV,72.08271787296898,NA
25419,Berkeley County,WV,75.33234859675036,NA
25504,Cabell County,WV,52.14180206794683,NA
25550,Mason County,WV,45.199409158050216,NA
25704,Wayne County,WV,24.519940915805023,NA
25840,Fayette County,WV,72.23042836041358,NA
26104,Wood County,WV,NA,89.55696202531645
26508,Monongalia County,WV,37.22304283604136,NA
26554,Marion County,WV,2.806499261447563,NA
53022,Washington County,WI,82.27474150664698,NA
53027,Washington County,WI,60.856720827178734,NA
53029,Waukesha County,WI,NA,43.9873417721519
53050,Dodge County,WI,NA,77.84810126582279
53083,Sheboygan County,WI,NA,50.9493670886076
53110,Milwaukee County,WI,57.60709010339734,NA
53144,Kenosha County,WI,13.737075332348597,NA
53147,Walworth County,WI,NA,84.49367088607595
53154,Milwaukee County,WI,20.236336779911372,NA
53185,Racine County,WI,53.028064992614475,NA
53209,Milwaukee County,WI,27.17872968980798,NA
53213,Milwaukee County,WI,45.05169867060561,NA
53219,Milwaukee County,WI,60.26587887740029,NA
53225,Milwaukee County,WI,8.714918759231907,NA
53403,Racine County,WI,59.527326440177255,NA
53511,Rock County,WI,25.849335302806498,NA
53520,Green County,WI,87.8877400295421,NA
53589,Dane County,WI,85.96750369276218,NA
53597,Dane County,WI,NA,53.48101265822785
53704,Dane County,WI,52.732644017725264,NA
53711,Dane County,WI,27.474150664697195,NA
53719,Dane County,WI,88.92171344165436,NA
53821,Crawford County,WI,95.71639586410635,NA
54001,Polk County,WI,90.39881831610043,NA
54115,Brown County,WI,70.16248153618906,NA
54143,Marinette County,WI,42.836041358936484,NA
54303,Brown County,WI,39.7341211225997,NA
54304,Brown County,WI,20.088626292466767,NA
54494,Wood County,WI,56.72082717872969,NA
54660,Monroe County,WI,NA,77.21518987341773
54669,La Crosse County,WI,96.602658788774,NA
54703,Eau Claire County,WI,19.054652880354507,NA
54751,Dunn County,WI,60.118168389955684,NA
54853,Polk County,WI,90.69423929098967,68.67088607594937
54880,Douglas County,WI,12.40768094534712,NA
54901,Winnebago County,WI,NA,98.10126582278481
54971,Fond du Lac County,WI,NA,44.303797468354425
54982,Waushara County,WI,95.42097488921713,NA
82007,Laramie County,WY,97.04579025110783,NA
82609,Natrona County,WY,NA,83.86075949367088
