ZipCode,county,state,Adult,Retirement,Geriatric
35051,Shelby County,AL,NA,94.9944382647386,NA
35160,Talladega County,AL,NA,NA,27.129337539432175
35208,Jefferson County,AL,63.2,NA,NA
35211,Jefferson County,AL,40.160000000000004,NA,NA
35218,Jefferson County,AL,NA,81.75750834260289,NA
35234,Jefferson County,AL,NA,83.75973303670744,NA
35404,Tuscaloosa County,AL,13.28,NA,NA
35501,Walker County,AL,NA,74.74972191323694,NA
35611,Limestone County,AL,20.8,NA,NA
35749,Madison County,AL,NA,88.87652947719688,61.51419558359621
35757,Madison County,AL,NA,86.76307007786428,NA
35758,Madison County,AL,NA,NA,25.0788643533123
35805,Madison County,AL,68.32000000000001,NA,NA
35903,Etowah County,AL,NA,57.730812013348164,NA
35976,Marshall County,AL,NA,74.972191323693,NA
36104,Montgomery County,AL,49.919999999999995,NA,NA
36116,Montgomery County,AL,NA,42.04671857619577,NA
36201,Calhoun County,AL,NA,93.54838709677419,NA
36477,Geneva County,AL,NA,87.43047830923248,NA
36535,Baldwin County,AL,67.52,NA,NA
36607,Mobile County,AL,77.92,NA,NA
36693,Mobile County,AL,49.44,NA,NA
36756,Perry County,AL,97.28,NA,NA
36854,Chambers County,AL,NA,91.99110122358177,NA
36863,Chambers County,AL,NA,NA,68.61198738170347
36867,Russell County,AL,61.760000000000005,NA,NA
99504,Anchorage Municipality,AK,NA,65.51724137931035,NA
99518,Anchorage Municipality,AK,NA,76.86318131256952,NA
99835,Sitka City and Borough,AK,NA,68.40934371523916,NA
85019,Maricopa County,AZ,NA,93.65962180200222,NA
85022,Maricopa County,AZ,NA,26.362625139043384,NA
85023,Maricopa County,AZ,53.92,NA,NA
85031,Maricopa County,AZ,44.16,NA,NA
85042,Maricopa County,AZ,52.32,94.6607341490545,NA
85050,Maricopa County,AZ,86.72,NA,NA
85142,Maricopa County,AZ,NA,54.94994438264739,NA
85201,Maricopa County,AZ,NA,30.589543937708562,NA
85202,Maricopa County,AZ,62.56,NA,NA
85207,Maricopa County,AZ,NA,25.806451612903224,NA
85210,Maricopa County,AZ,NA,47.94215795328142,NA
85225,Maricopa County,AZ,NA,69.6329254727475,NA
85251,Maricopa County,AZ,NA,NA,28.391167192429023
85295,Maricopa County,AZ,NA,86.4293659621802,NA
85323,Maricopa County,AZ,27.200000000000003,45.383759733036705,NA
85339,Maricopa County,AZ,NA,44.38264738598443,NA
85364,Yuma County,AZ,NA,52.39154616240267,NA
85381,Maricopa County,AZ,56.8,NA,NA
85621,Santa Cruz County,AZ,NA,NA,60.56782334384858
85629,Pima County,AZ,62.239999999999995,76.30700778642937,NA
85634,Pima County,AZ,92.32000000000001,NA,NA
85711,Pima County,AZ,47.68,NA,30.5993690851735
85716,Pima County,AZ,NA,NA,72.08201892744479
85718,Pima County,AZ,NA,18.46496106785317,NA
85730,Pima County,AZ,21.92,NA,NA
85742,Pima County,AZ,NA,NA,47.634069400630914
85745,Pima County,AZ,76.8,45.60622914349277,NA
85746,Pima County,AZ,NA,75.63959955506118,NA
85901,Navajo County,AZ,NA,26.251390433815352,NA
86004,Coconino County,AZ,54.400000000000006,NA,NA
86047,Navajo County,AZ,82.39999999999999,NA,NA
86322,Yavapai County,AZ,NA,55.506117908787544,NA
86323,Yavapai County,AZ,NA,NA,93.21766561514195
86401,Mohave County,AZ,NA,7.007786429365963,NA
86503,Apache County,AZ,NA,43.60400444938821,NA
86505,Apache County,AZ,NA,64.40489432703004,50.315457413249206
71639,Desha County,AR,NA,83.31479421579533,NA
71854,Miller County,AR,NA,24.694104560622915,NA
71953,Polk County,AR,NA,44.938820912124584,NA
72205,Pulaski County,AR,90.72,NA,NA
72206,Pulaski County,AR,97.44,NA,NA
72601,Boone County,AR,48.32,NA,NA
72653,Baxter County,AR,68,NA,NA
72958,Scott County,AR,87.03999999999999,78.86540600667408,97.79179810725552
90005,Los Angeles County,CA,NA,65.7397107897664,NA
90006,Los Angeles County,CA,NA,NA,34.22712933753943
90007,Los Angeles County,CA,NA,NA,94.95268138801262
90011,Los Angeles County,CA,NA,87.20800889877643,77.7602523659306
90013,Los Angeles County,CA,NA,57.17463848720801,NA
90016,Los Angeles County,CA,NA,50.50055617352614,NA
90018,Los Angeles County,CA,NA,NA,76.02523659305994
90024,Los Angeles County,CA,NA,47.830923248053395,NA
90029,Los Angeles County,CA,55.36,NA,NA
90032,Los Angeles County,CA,NA,49.94438264738598,NA
90036,Los Angeles County,CA,NA,NA,24.13249211356467
90042,Los Angeles County,CA,84.96000000000001,42.714126807563964,NA
90057,Los Angeles County,CA,NA,92.1023359288098,NA
90066,Los Angeles County,CA,NA,NA,70.347003154574125
90201,Los Angeles County,CA,NA,62.5139043381535,NA
90220,Los Angeles County,CA,NA,73.97107897664071,88.32807570977917
90278,Los Angeles County,CA,54.24,NA,NA
90280,Los Angeles County,CA,NA,NA,34.38485804416404
90504,Los Angeles County,CA,NA,56.0622914349277,NA
90631,Orange County,CA,30.240000000000002,NA,NA
90640,Los Angeles County,CA,NA,28.47608453837597,NA
90650,Los Angeles County,CA,15.36,NA,NA
90723,Los Angeles County,CA,73.6,NA,NA
90744,Los Angeles County,CA,NA,NA,57.09779179810725
90805,Los Angeles County,CA,NA,22.024471635150167,NA
90808,Los Angeles County,CA,NA,36.48498331479422,NA
90810,Los Angeles County,CA,NA,NA,35.01577287066246
91206,Los Angeles County,CA,NA,46.38487208008899,NA
91307,Los Angeles County,CA,NA,NA,47.1608832807571
91340,Los Angeles County,CA,NA,NA,63.24921135646687
91343,Los Angeles County,CA,NA,81.86874304783093,32.49211356466877
91352,Los Angeles County,CA,NA,37.81979977753059,NA
91367,Los Angeles County,CA,49.76,NA,NA
91387,Los Angeles County,CA,NA,34.92769744160178,NA
91701,San Bernardino County,CA,NA,27.586206896551722,NA
91706,Los Angeles County,CA,NA,60.51167964404895,NA
91709,San Bernardino County,CA,74.24,NA,NA
91748,Los Angeles County,CA,NA,NA,60.094637223974765
91750,Los Angeles County,CA,NA,NA,80.28391167192429
91754,Los Angeles County,CA,NA,NA,51.26182965299685
91764,San Bernardino County,CA,32,NA,NA
91767,Los Angeles County,CA,35.04,NA,NA
91784,San Bernardino County,CA,NA,NA,32.64984227129338
91792,Los Angeles County,CA,NA,73.41490545050056,NA
91911,San Diego County,CA,NA,NA,52.05047318611987
91950,San Diego County,CA,31.680000000000003,NA,13.249211356466878
92011,San Diego County,CA,NA,NA,75.0788643533123
92025,San Diego County,CA,41.760000000000005,NA,NA
92027,San Diego County,CA,NA,41.26807563959956,NA
92029,San Diego County,CA,NA,91.65739710789767,NA
92071,San Diego County,CA,NA,NA,20.189274447949526
92109,San Diego County,CA,NA,NA,84.06940063091483
92117,San Diego County,CA,NA,NA,16.08832807570978
92118,San Diego County,CA,NA,NA,30.441640378548897
92120,San Diego County,CA,NA,NA,42.90220820189275
92123,San Diego County,CA,NA,NA,55.520504731861195
92131,San Diego County,CA,NA,NA,95.89905362776025
92173,San Diego County,CA,56.96,NA,58.83280757097792
92203,Riverside County,CA,37.44,NA,NA
92211,Riverside County,CA,NA,33.59288097886541,NA
92243,Imperial County,CA,NA,59.06562847608454,15.930599369085174
92260,Riverside County,CA,NA,NA,10.883280757097792
92284,San Bernardino County,CA,21.759999999999998,NA,NA
92316,San Bernardino County,CA,73.11999999999999,NA,NA
92335,San Bernardino County,CA,8.799999999999999,14.68298109010011,NA
92345,San Bernardino County,CA,NA,76.4182424916574,20.50473186119874
92346,San Bernardino County,CA,22.56,NA,76.34069400630915
92354,San Bernardino County,CA,NA,96.99666295884316,49.05362776025237
92374,San Bernardino County,CA,37.76,NA,95.74132492113566
92376,San Bernardino County,CA,NA,15.461624026696331,NA
92394,San Bernardino County,CA,NA,54.727474972191324,NA
92399,San Bernardino County,CA,NA,74.6384872080089,NA
92410,San Bernardino County,CA,NA,NA,87.85488958990535
92503,Riverside County,CA,NA,NA,64.66876971608832
92505,Riverside County,CA,NA,43.04783092324806,NA
92506,Riverside County,CA,NA,36.59621802002225,NA
92509,Riverside County,CA,NA,NA,34.06940063091483
92543,Riverside County,CA,34.08,NA,NA
92545,Riverside County,CA,NA,33.9265850945495,NA
92548,Riverside County,CA,NA,88.54282536151278,NA
92584,Riverside County,CA,NA,NA,56.15141955835961
92586,Riverside County,CA,NA,NA,18.29652996845426
92592,Riverside County,CA,84.48,NA,NA
92612,Orange County,CA,65.12,NA,NA
92614,Orange County,CA,NA,55.172413793103445,74.13249211356468
92627,Orange County,CA,NA,NA,14.66876971608833
92647,Orange County,CA,19.040000000000003,NA,NA
92656,Orange County,CA,NA,41.824249165739715,NA
92675,Orange County,CA,NA,38.70967741935484,NA
92694,Orange County,CA,NA,64.62736373748609,NA
92701,Orange County,CA,NA,100,NA
92704,Orange County,CA,27.68,NA,NA
92707,Orange County,CA,36.480000000000004,NA,NA
92801,Orange County,CA,NA,73.30367074527253,NA
92804,Orange County,CA,NA,46.60734149054505,NA
92866,Orange County,CA,NA,NA,65.45741324921136
92870,Orange County,CA,NA,NA,71.45110410094637
92886,Orange County,CA,NA,16.35150166852058,NA
93004,Ventura County,CA,49.6,NA,NA
93012,Ventura County,CA,NA,37.37486095661847,NA
93033,Ventura County,CA,NA,8.565072302558399,NA
93041,Ventura County,CA,NA,52.169076751946605,NA
93257,Tulare County,CA,NA,NA,97.63406940063092
93274,Tulare County,CA,40.32,NA,NA
93292,Tulare County,CA,NA,30.478309232480534,NA
93306,Kern County,CA,NA,33.481646273637374,NA
93436,Santa Barbara County,CA,NA,NA,11.987381703470032
93514,Inyo County,CA,NA,NA,85.64668769716089
93611,Fresno County,CA,NA,31.92436040044494,NA
93619,Fresno County,CA,NA,35.706340378198,NA
93630,Fresno County,CA,NA,78.75417130144605,NA
93662,Fresno County,CA,NA,82.8698553948832,NA
93701,Fresno County,CA,NA,NA,97.47634069400631
93703,Fresno County,CA,NA,75.75083426028921,NA
93704,Fresno County,CA,45.6,NA,NA
93705,Fresno County,CA,NA,37.37486095661847,NA
93720,Fresno County,CA,28.16,NA,40.536277602523654
93726,Fresno County,CA,NA,40.60066740823137,NA
94030,San Mateo County,CA,NA,NA,17.350157728706623
94044,San Mateo County,CA,NA,26.028921023359285,NA
94065,San Mateo County,CA,88,NA,NA
94066,San Mateo County,CA,NA,NA,57.88643533123028
94080,San Mateo County,CA,NA,6.562847608453838,NA
94103,San Francisco County,CA,35.52,NA,NA
94107,San Francisco County,CA,NA,NA,41.95583596214511
94110,San Francisco County,CA,NA,50.834260289210235,NA
94112,San Francisco County,CA,NA,30.923248053392662,NA
94116,San Francisco County,CA,NA,61.957730812013345,NA
94124,San Francisco County,CA,NA,19.13236929922136,NA
94131,San Francisco County,CA,NA,NA,49.684542586750794
94134,San Francisco County,CA,NA,55.39488320355951,NA
94303,San Mateo County,CA,NA,56.729699666295886,20.977917981072554
94403,San Mateo County,CA,NA,78.53170189098999,10.25236593059937
94404,San Mateo County,CA,NA,NA,65.29968454258676
94503,Napa County,CA,NA,91.87986651835372,NA
94509,Contra Costa County,CA,NA,11.345939933259176,NA
94530,Contra Costa County,CA,NA,53.726362625139046,36.75078864353312
94539,Alameda County,CA,NA,NA,32.965299684542586
94541,Alameda County,CA,NA,18.13125695216908,NA
94544,Alameda County,CA,NA,NA,16.876971608832807
94553,Contra Costa County,CA,36.32,55.951056729699665,NA
94555,Alameda County,CA,59.84,NA,NA
94558,Napa County,CA,NA,5.89543937708565,3.3123028391167195
94559,Napa County,CA,NA,NA,70.03154574132492
94561,Contra Costa County,CA,NA,NA,82.80757097791798
94565,Contra Costa County,CA,18.72,NA,NA
94580,Alameda County,CA,97.6,NA,NA
94587,Alameda County,CA,NA,49.72191323692992,NA
94591,Solano County,CA,NA,NA,46.845425867507885
94595,Contra Costa County,CA,NA,NA,6.624605678233439
94611,Alameda County,CA,NA,NA,59.148264984227126
94612,Alameda County,CA,NA,NA,65.61514195583597
94804,Contra Costa County,CA,56.32,NA,NA
94806,Contra Costa County,CA,NA,NA,16.7192429022082
94947,Marin County,CA,NA,NA,57.413249211356465
95006,Santa Cruz County,CA,NA,88.09788654060067,NA
95008,Santa Clara County,CA,NA,NA,55.678233438485805
95035,Santa Clara County,CA,42.88,NA,NA
95037,Santa Clara County,CA,75.84,NA,NA
95051,Santa Clara County,CA,NA,NA,31.703470031545745
95054,Santa Clara County,CA,NA,NA,74.29022082018928
95112,Santa Clara County,CA,NA,NA,45.268138801261834
95129,Santa Clara County,CA,NA,NA,38.958990536277604
95131,Santa Clara County,CA,NA,77.8642936596218,NA
95132,Santa Clara County,CA,NA,NA,90.22082018927445
95133,Santa Clara County,CA,NA,83.20355951056729,NA
95203,San Joaquin County,CA,NA,90.21134593993327,NA
95206,San Joaquin County,CA,NA,55.28364849833148,NA
95209,San Joaquin County,CA,NA,48.60956618464961,NA
95210,San Joaquin County,CA,85.11999999999999,NA,NA
95219,San Joaquin County,CA,NA,87.54171301446051,NA
95223,Calaveras County,CA,NA,NA,85.8044164037855
95307,Stanislaus County,CA,NA,67.74193548387096,NA
95316,Stanislaus County,CA,NA,88.87652947719688,NA
95341,Merced County,CA,NA,66.62958843159066,88.4858044164038
95350,Stanislaus County,CA,NA,12.903225806451612,NA
95361,Stanislaus County,CA,NA,28.364849833147943,NA
95368,Stanislaus County,CA,NA,NA,94.3217665615142
95382,Stanislaus County,CA,NA,NA,38.01261829652997
95467,Lake County,CA,NA,80.97886540600668,NA
95519,Humboldt County,CA,NA,91.43492769744161,NA
95608,Sacramento County,CA,34.239999999999995,NA,NA
95610,Sacramento County,CA,NA,NA,35.488958990536275
95620,Solano County,CA,NA,NA,67.19242902208202
95628,Sacramento County,CA,55.52,34.81646273637375,NA
95630,Sacramento County,CA,77.75999999999999,NA,NA
95648,Placer County,CA,NA,22.803114571746384,NA
95660,Sacramento County,CA,NA,50.61179087875417,NA
95667,El Dorado County,CA,27.04,NA,1.2618296529968454
95670,Sacramento County,CA,NA,NA,69.71608832807571
95672,El Dorado County,CA,NA,90.10011123470522,NA
95678,Placer County,CA,NA,73.08120133481646,NA
95687,Solano County,CA,NA,20.689655172413794,NA
95726,El Dorado County,CA,NA,NA,45.58359621451104
95757,Sacramento County,CA,NA,NA,52.83911671924291
95820,Sacramento County,CA,NA,76.52947719688544,NA
95821,Sacramento County,CA,36.96,NA,NA
95823,Sacramento County,CA,NA,NA,22.71293375394322
95824,Sacramento County,CA,50.88,NA,NA
95825,Sacramento County,CA,NA,98.44271412680756,63.8801261829653
95827,Sacramento County,CA,NA,60.95661846496107,NA
95828,Sacramento County,CA,NA,NA,27.287066246056785
95829,Sacramento County,CA,69.28,NA,NA
95945,Nevada County,CA,NA,32.81423804226919,NA
80003,Jefferson County,CO,39.36,NA,NA
80005,Jefferson County,CO,92,NA,NA
80007,Jefferson County,CO,NA,75.19466073414905,NA
80010,Arapahoe County,CO,16.16,NA,NA
80011,Arapahoe County,CO,NA,NA,39.11671924290221
80013,Arapahoe County,CO,69.92,NA,NA
80030,Adams County,CO,NA,87.65294771968854,NA
80121,Arapahoe County,CO,NA,NA,72.71293375394322
80127,Jefferson County,CO,NA,NA,51.419558359621455
80212,Denver County,CO,NA,82.98109010011123,NA
80231,Denver County,CO,NA,52.83648498331479,NA
80233,Adams County,CO,NA,NA,81.54574132492114
80236,Denver County,CO,NA,86.20689655172413,NA
80304,Boulder County,CO,NA,79.64404894327029,NA
80525,Larimer County,CO,NA,9.121245828698555,NA
80550,Weld County,CO,NA,NA,70.66246056782335
80634,Weld County,CO,2.88,1.8909899888765296,NA
80701,Morgan County,CO,48.64,NA,NA
80903,El Paso County,CO,76.16000000000001,NA,NA
80906,El Paso County,CO,NA,NA,72.55520504731862
80907,El Paso County,CO,NA,54.06006674082313,NA
80911,El Paso County,CO,35.839999999999996,NA,NA
81005,Pueblo County,CO,NA,21.913236929922135,NA
81507,Mesa County,CO,NA,NA,84.22712933753942
06040,Hartford County,CT,31.840000000000003,NA,NA
06051,Hartford County,CT,NA,63.84872080088988,NA
06052,Hartford County,CT,NA,92.43604004449388,NA
06082,Hartford County,CT,NA,12.903225806451612,NA
06106,Hartford County,CT,NA,NA,22.082018927444793
06114,Hartford County,CT,41.92,NA,NA
06238,Tolland County,CT,NA,77.41935483870968,NA
06239,Windham County,CT,NA,76.97441601779755,NA
06255,Windham County,CT,NA,84.53837597330367,NA
06260,Windham County,CT,26.240000000000002,NA,NA
06418,New Haven County,CT,83.67999999999999,NA,NA
06460,New Haven County,CT,24.48,NA,26.34069400630915
06478,New Haven County,CT,NA,97.99777530589544,NA
06484,Fairfield County,CT,31.2,NA,NA
06512,New Haven County,CT,NA,21.245828698553947,NA
06513,New Haven County,CT,4.8,NA,NA
06606,Fairfield County,CT,15.36,31.145717463848722,NA
06705,New Haven County,CT,19.68,NA,35.33123028391167
06716,New Haven County,CT,57.28,NA,NA
06786,Litchfield County,CT,NA,97.33036707452726,NA
06840,Fairfield County,CT,NA,NA,58.2018927444795
06902,Fairfield County,CT,18.240000000000002,9.67741935483871,NA
19720,New Castle County,DE,3.36,NA,NA
19802,New Castle County,DE,NA,51.724137931034484,NA
19803,New Castle County,DE,NA,69.85539488320356,NA
19804,New Castle County,DE,55.04,NA,NA
19808,New Castle County,DE,NA,20.912124582869858,NA
19810,New Castle County,DE,NA,33.03670745272525,NA
19901,Kent County,DE,NA,NA,18.61198738170347
19958,Sussex County,DE,NA,4.338153503893214,NA
19973,Sussex County,DE,NA,80.86763070077865,NA
19975,Sussex County,DE,NA,NA,43.69085173501578
32117,Volusia County,FL,NA,44.27141268075639,NA
32127,Volusia County,FL,NA,NA,77.91798107255521
32141,Volusia County,FL,63.839999999999996,NA,NA
32148,Putnam County,FL,NA,NA,94.6372239747634
32159,Lake County,FL,58.879999999999995,NA,NA
32168,Volusia County,FL,NA,31.368186874304783,NA
32181,Putnam County,FL,99.68,NA,NA
32206,Duval County,FL,64.16,66.40711902113459,NA
32207,Duval County,FL,NA,36.818687430478306,NA
32208,Duval County,FL,NA,29.14349276974416,NA
32209,Duval County,FL,NA,13.236929922135706,NA
32210,Duval County,FL,NA,6.0066740823136815,NA
32218,Duval County,FL,NA,38.598442714126804,NA
32220,Duval County,FL,NA,NA,66.08832807570978
32221,Duval County,FL,NA,NA,67.35015772870663
32226,Duval County,FL,NA,74.3047830923248,NA
32234,Duval County,FL,NA,65.62847608453838,NA
32244,Duval County,FL,80.32000000000001,NA,NA
32246,Duval County,FL,13.76,NA,NA
32401,Bay County,FL,NA,27.252502780867633,NA
32405,Bay County,FL,NA,NA,45.110410094637224
32462,Washington County,FL,NA,96.88542825361512,NA
32464,Holmes County,FL,96.96000000000001,NA,NA
32503,Escambia County,FL,NA,NA,73.97476340694006
32507,Escambia County,FL,NA,NA,13.406940063091483
32526,Escambia County,FL,56.16,NA,NA
32534,Escambia County,FL,NA,NA,37.381703470031546
32536,Okaloosa County,FL,52.480000000000004,NA,NA
32539,Okaloosa County,FL,34.88,NA,NA
32563,Santa Rosa County,FL,NA,NA,68.29652996845425
32566,Santa Rosa County,FL,30.080000000000002,NA,NA
32570,Santa Rosa County,FL,NA,NA,66.8769716088328
32746,Seminole County,FL,NA,65.96218020022246,NA
32771,Seminole County,FL,NA,74.3047830923248,NA
32780,Brevard County,FL,34.72,NA,NA
32808,Orange County,FL,13.44,NA,NA
32811,Orange County,FL,NA,NA,46.37223974763407
32901,Brevard County,FL,NA,39.822024471635146,NA
32909,Brevard County,FL,33.6,NA,NA
32922,Brevard County,FL,42.559999999999995,NA,NA
32926,Brevard County,FL,NA,38.26473859844272,NA
32953,Brevard County,FL,NA,NA,13.564668769716087
32958,Indian River County,FL,NA,NA,45.89905362776025
33021,Broward County,FL,70.56,NA,NA
33025,Broward County,FL,79.52,NA,NA
33032,Miami-Dade County,FL,36,NA,NA
33042,Monroe County,FL,NA,89.32146829810901,NA
33054,Miami-Dade County,FL,NA,NA,61.041009463722396
33055,Miami-Dade County,FL,45.28,NA,15.772870662460567
33056,Miami-Dade County,FL,NA,NA,39.905362776025235
33069,Broward County,FL,NA,55.83982202447163,NA
33135,Miami-Dade County,FL,NA,84.6496106785317,NA
33141,Miami-Dade County,FL,NA,61.29032258064516,NA
33142,Miami-Dade County,FL,78.24,NA,NA
33157,Miami-Dade County,FL,NA,NA,17.981072555205046
33167,Miami-Dade County,FL,79.67999999999999,NA,NA
33169,Miami-Dade County,FL,NA,NA,51.73501577287066
33170,Miami-Dade County,FL,NA,NA,82.96529968454259
33176,Miami-Dade County,FL,NA,31.590656284760843,NA
33319,Broward County,FL,66.72,NA,NA
33430,Palm Beach County,FL,NA,72.08008898776419,NA
33435,Palm Beach County,FL,NA,48.275862068965516,NA
33471,Glades County,FL,NA,92.32480533926585,NA
33472,Palm Beach County,FL,82.56,NA,NA
33496,Palm Beach County,FL,NA,NA,5.520504731861198
33513,Sumter County,FL,76.48,NA,NA
33523,Pasco County,FL,NA,49.2769744160178,NA
33573,Hillsborough County,FL,NA,NA,2.8391167192429023
33594,Hillsborough County,FL,NA,45.16129032258064,NA
33596,Hillsborough County,FL,NA,52.61401557285873,NA
33607,Hillsborough County,FL,NA,NA,52.52365930599369
33614,Hillsborough County,FL,75.2,NA,NA
33619,Hillsborough County,FL,30.72,NA,NA
33647,Hillsborough County,FL,NA,38.487208008898776,NA
33705,Pinellas County,FL,NA,47.27474972191324,NA
33707,Pinellas County,FL,53.76,28.9210233592881,NA
33713,Pinellas County,FL,74.56,NA,NA
33765,Pinellas County,FL,NA,99.77753058954394,NA
33774,Pinellas County,FL,65.60000000000001,NA,NA
33782,Pinellas County,FL,NA,NA,42.42902208201893
33809,Polk County,FL,NA,43.38153503893214,NA
33823,Polk County,FL,NA,67.29699666295885,NA
33837,Polk County,FL,NA,NA,86.43533123028391
33843,Polk County,FL,99.52,NA,NA
33875,Highlands County,FL,86.56,NA,NA
33903,Lee County,FL,NA,58.843159065628484,NA
33905,Lee County,FL,NA,NA,35.96214511041009
33914,Lee County,FL,NA,NA,48.26498422712934
33920,Lee County,FL,NA,NA,99.84227129337539
33935,Hendry County,FL,70.08,NA,NA
33948,Charlotte County,FL,NA,NA,43.53312302839117
33967,Lee County,FL,NA,NA,67.50788643533123
33991,Lee County,FL,NA,63.40378197997776,NA
34217,Manatee County,FL,NA,NA,89.27444794952682
34223,Sarasota County,FL,NA,NA,25.0788643533123
34228,Sarasota County,FL,NA,83.98220244716352,NA
34236,Sarasota County,FL,85.28,NA,NA
34285,Sarasota County,FL,NA,NA,10.56782334384858
34476,Marion County,FL,NA,NA,21.608832807570977
34684,Pinellas County,FL,NA,11.67964404894327,NA
34698,Pinellas County,FL,NA,NA,14.195583596214512
34746,Osceola County,FL,31.52,NA,NA
34747,Osceola County,FL,NA,90.65628476084538,NA
34758,Osceola County,FL,NA,42.15795328142381,55.20504731861199
34761,Orange County,FL,64,35.15016685205784,NA
34951,St. Lucie County,FL,NA,62.18020022246941,NA
34994,Martin County,FL,NA,NA,32.33438485804416
30034,DeKalb County,GA,71.84,NA,73.50157728706624
30045,Gwinnett County,GA,NA,NA,58.0441640378549
30047,Gwinnett County,GA,NA,NA,34.85804416403786
30058,DeKalb County,GA,NA,26.807563959955505,NA
30092,Gwinnett County,GA,NA,56.50723025583982,NA
30093,Gwinnett County,GA,NA,NA,75.70977917981072
30102,Cherokee County,GA,NA,58.73192436040044,NA
30153,Polk County,GA,NA,82.64738598442715,NA
30161,Floyd County,GA,45.12,19.35483870967742,NA
30165,Floyd County,GA,21.12,NA,29.96845425867508
30188,Cherokee County,GA,NA,14.905450500556173,NA
30217,Heard County,GA,60.160000000000004,NA,NA
30240,Troup County,GA,NA,NA,28.548895899053626
30265,Coweta County,GA,NA,35.26140155728587,NA
30291,Fulton County,GA,62.88,NA,NA
30310,Fulton County,GA,NA,NA,41.16719242902208
30311,Fulton County,GA,76,NA,NA
30314,Fulton County,GA,NA,68.18687430478309,NA
30315,Fulton County,GA,NA,23.5817575083426,NA
30316,DeKalb County,GA,47.199999999999996,NA,NA
30318,Fulton County,GA,NA,28.698553948832036,24.605678233438486
30331,Fulton County,GA,71.36,7.675194660734149,NA
30338,DeKalb County,GA,NA,NA,27.917981072555204
30349,Fulton County,GA,NA,10.122358175750835,NA
30439,Candler County,GA,NA,68.85428253615127,NA
30533,Lumpkin County,GA,NA,NA,50.315457413249206
30542,Hall County,GA,NA,64.96106785317018,NA
30606,Clarke County,GA,NA,25.361512791991103,22.87066246056782
30620,Barrow County,GA,85.44,NA,NA
30635,Elbert County,GA,NA,54.39377085650723,NA
30701,Gordon County,GA,NA,27.030033370411566,NA
30705,Murray County,GA,25.119999999999997,NA,NA
30721,Whitfield County,GA,67.04,NA,NA
30809,Columbia County,GA,60.8,NA,NA
30904,Richmond County,GA,NA,84.87208008898777,NA
30909,Richmond County,GA,NA,NA,19.873817034700316
31028,Houston County,GA,NA,NA,86.75078864353313
31061,Baldwin County,GA,55.67999999999999,NA,NA
31503,Ware County,GA,46.239999999999995,NA,NA
31601,Lowndes County,GA,NA,32.59176863181313,NA
31705,Dougherty County,GA,25.44,NA,NA
31792,Thomas County,GA,29.439999999999998,NA,NA
31816,Meriwether County,GA,NA,94.10456062291435,NA
31903,Muscogee County,GA,NA,37.93103448275862,NA
31906,Muscogee County,GA,NA,65.85094549499443,NA
96701,Honolulu County,HI,NA,NA,8.990536277602523
96707,Honolulu County,HI,NA,71.85761957730811,NA
96708,Maui County,HI,NA,99.33259176863181,NA
96744,Honolulu County,HI,NA,36.92992213570634,NA
96761,Maui County,HI,NA,82.53615127919912,NA
96778,Hawaii County,HI,NA,56.50723025583982,NA
96786,Honolulu County,HI,58.4,NA,NA
96789,Honolulu County,HI,NA,7.119021134593993,NA
96792,Honolulu County,HI,NA,22.246941045606228,NA
96795,Honolulu County,HI,98.4,NA,NA
96813,Honolulu County,HI,28.64,NA,NA
96817,Honolulu County,HI,10.24,NA,NA
96819,Honolulu County,HI,NA,13.5706340378198,NA
96821,Honolulu County,HI,NA,NA,43.217665615141954
83221,Bingham County,ID,NA,17.24137931034483,NA
83301,Twin Falls County,ID,NA,70.30033370411569,0.15772870662460567
83402,Bonneville County,ID,46.56,NA,NA
83605,Canyon County,ID,NA,NA,62.46056782334385
83634,Ada County,ID,NA,NA,55.20504731861199
83642,Ada County,ID,NA,NA,5.83596214511041
83644,Canyon County,ID,NA,44.048943270300335,NA
83669,Ada County,ID,NA,NA,55.83596214511041
83686,Canyon County,ID,NA,25.139043381535036,NA
83702,Ada County,ID,NA,48.49833147942158,32.17665615141956
83705,Ada County,ID,NA,42.49165739710789,NA
83713,Ada County,ID,NA,NA,60.252365930599375
83815,Kootenai County,ID,NA,17.908787541713014,NA
60018,Cook County,IL,NA,63.07007786429366,NA
60031,Lake County,IL,71.2,NA,NA
60033,McHenry County,IL,NA,65.29477196885428,NA
60098,McHenry County,IL,26.56,NA,NA
60099,Lake County,IL,NA,35.37263626251391,NA
60102,McHenry County,IL,NA,NA,97.0031545741325
60104,Cook County,IL,NA,84.20467185761957,NA
60107,Cook County,IL,NA,63.18131256952169,NA
60123,Kane County,IL,NA,NA,63.40694006309149
60124,Kane County,IL,NA,NA,33.4384858044164
60134,Kane County,IL,NA,NA,21.293375394321767
60139,DuPage County,IL,92.80000000000001,NA,NA
60153,Cook County,IL,NA,22.914349276974416,NA
60164,Cook County,IL,34.4,NA,NA
60176,Cook County,IL,NA,NA,92.42902208201893
60187,DuPage County,IL,32.64,NA,NA
60402,Cook County,IL,NA,34.37152391546162,NA
60409,Cook County,IL,79.84,NA,NA
60441,Will County,IL,NA,26.473859844271413,NA
60447,Grundy County,IL,94.08,NA,NA
60450,Grundy County,IL,NA,NA,74.9211356466877
60466,Cook County,IL,82.72,NA,NA
60473,Cook County,IL,NA,NA,82.49211356466877
60481,Will County,IL,NA,NA,66.08832807570978
60491,Will County,IL,NA,25.25027808676307,NA
60506,Kane County,IL,NA,24.137931034482758,NA
60515,DuPage County,IL,NA,31.70189098998888,NA
60523,DuPage County,IL,96,NA,NA
60525,Cook County,IL,NA,40.266963292547274,NA
60527,DuPage County,IL,NA,55.06117908787542,NA
60540,DuPage County,IL,NA,27.1412680756396,NA
60605,Cook County,IL,NA,39.59955506117909,NA
60608,Cook County,IL,81.44,12.680756395995552,6.309148264984227
60612,Cook County,IL,16.64,NA,NA
60615,Cook County,IL,NA,NA,74.44794952681389
60616,Cook County,IL,NA,NA,18.138801261829656
60617,Cook County,IL,NA,NA,1.8927444794952681
60618,Cook County,IL,77.92,NA,NA
60619,Cook County,IL,6.08,NA,NA
60620,Cook County,IL,43.2,79.19911012235818,NA
60623,Cook County,IL,25.6,NA,NA
60628,Cook County,IL,6.72,23.915461624026698,2.996845425867508
60629,Cook County,IL,NA,4.4493882091212456,NA
60631,Cook County,IL,NA,41.15684093437152,NA
60638,Cook County,IL,NA,7.230255839822025,NA
60639,Cook County,IL,NA,32.48053392658509,34.70031545741325
60640,Cook County,IL,NA,NA,6.940063091482649
60641,Cook County,IL,11.200000000000001,NA,NA
60644,Cook County,IL,57.440000000000005,NA,NA
60651,Cook County,IL,27.52,51.39043381535039,NA
60653,Cook County,IL,NA,NA,83.1230283911672
60659,Cook County,IL,41.28,NA,NA
61071,Whiteside County,IL,21.44,NA,NA
61101,Winnebago County,IL,41.44,NA,NA
61103,Winnebago County,IL,NA,NA,36.1198738170347
61108,Winnebago County,IL,NA,NA,20.82018927444795
61350,LaSalle County,IL,NA,NA,56.94006309148265
61364,LaSalle County,IL,NA,72.63626251390434,NA
61520,Fulton County,IL,NA,NA,24.9211356466877
61614,Peoria County,IL,NA,NA,18.92744479495268
61822,Champaign County,IL,NA,NA,80.4416403785489
61944,Edgar County,IL,NA,46.49610678531702,NA
62002,Madison County,IL,NA,NA,12.46056782334385
62088,Macoupin County,IL,95.84,NA,NA
62226,St. Clair County,IL,67.84,NA,NA
62249,Madison County,IL,NA,NA,26.65615141955836
62254,St. Clair County,IL,94.88,NA,NA
62274,Perry County,IL,74.4,NA,NA
62301,Adams County,IL,28.96,NA,NA
62305,Adams County,IL,NA,52.05784204671857,NA
62471,Fayette County,IL,NA,46.71857619577308,NA
62526,Macon County,IL,NA,6.562847608453838,NA
62656,Logan County,IL,NA,59.733036707452726,NA
62859,Hamilton County,IL,99.83999999999999,NA,NA
62864,Jefferson County,IL,42.08,NA,NA
62966,Jackson County,IL,NA,81.20133481646273,NA
46012,Madison County,IN,84.32,NA,NA
46036,Madison County,IN,54.559999999999995,NA,NA
46142,Johnson County,IN,NA,NA,19.242902208201894
46173,Rush County,IN,NA,38.82091212458287,NA
46202,Marion County,IN,NA,NA,91.9558359621451
46208,Marion County,IN,91.2,NA,NA
46214,Marion County,IN,NA,79.75528364849833,NA
46218,Marion County,IN,NA,74.19354838709677,NA
46219,Marion County,IN,NA,NA,11.67192429022082
46226,Marion County,IN,91.67999999999999,14.238042269187986,NA
46236,Marion County,IN,89.75999999999999,NA,NA
46307,Lake County,IN,NA,1.668520578420467,NA
46312,Lake County,IN,14.24,NA,NA
46322,Lake County,IN,NA,NA,57.72870662460568
46366,Starke County,IN,NA,93.77085650723026,NA
46373,Lake County,IN,25.919999999999998,NA,NA
46403,Lake County,IN,83.2,NA,NA
46410,Lake County,IN,NA,74.52725250278087,NA
46507,Elkhart County,IN,NA,NA,93.84858044164038
46514,Elkhart County,IN,NA,NA,38.801261829652994
46528,Elkhart County,IN,68.47999999999999,NA,NA
46540,Elkhart County,IN,85.76,NA,NA
46615,St. Joseph County,IN,68.16,NA,NA
46733,Adams County,IN,NA,40.3781979977753,NA
46783,Huntington County,IN,NA,97.10789766407119,NA
46805,Allen County,IN,NA,NA,42.11356466876971
46808,Allen County,IN,NA,54.17130144605117,NA
46901,Howard County,IN,2.08,NA,NA
46947,Cass County,IN,NA,NA,88.801261829653
46996,Pulaski County,IN,NA,NA,81.86119873817034
47170,Scott County,IN,NA,NA,87.69716088328076
47201,Bartholomew County,IN,NA,NA,12.302839116719243
47274,Jackson County,IN,NA,72.30255839822024,NA
47374,Wayne County,IN,NA,4.115684093437152,NA
47394,Randolph County,IN,66.56,NA,NA
47403,Monroe County,IN,NA,NA,63.722397476340696
47720,Vanderburgh County,IN,NA,75.97330367074527,NA
47803,Vigo County,IN,NA,46.941045606229146,NA
50158,Marshall County,IA,NA,34.03781979977753,NA
50310,Polk County,IA,NA,41.71301446051168,35.646687697160885
50312,Polk County,IA,80.47999999999999,NA,NA
50401,Cerro Gordo County,IA,35.199999999999996,NA,NA
51031,Plymouth County,IA,NA,NA,70.18927444794953
51104,Woodbury County,IA,NA,44.493882091212456,NA
51108,Woodbury County,IA,NA,NA,96.37223974763407
51301,Clay County,IA,NA,NA,83.4384858044164
51334,Emmet County,IA,NA,NA,49.684542586750794
52001,Dubuque County,IA,12.959999999999999,NA,NA
52240,Johnson County,IA,NA,92.76974416017798,NA
52317,Johnson County,IA,96.8,NA,NA
52404,Linn County,IA,NA,16.017797552836484,NA
52405,Linn County,IA,NA,NA,99.21135646687698
52601,Des Moines County,IA,NA,13.904338153503893,NA
52641,Henry County,IA,NA,NA,82.01892744479495
52732,Clinton County,IA,64.64,25.695216907675196,NA
52761,Muscatine County,IA,NA,NA,54.57413249211357
52803,Scott County,IA,60,NA,NA
52804,Scott County,IA,NA,32.25806451612903,NA
52806,Scott County,IA,18.4,NA,NA
66048,Leavenworth County,KS,27.36,NA,NA
66067,Franklin County,KS,NA,NA,35.17350157728706
66103,Wyandotte County,KS,68.8,NA,NA
66109,Wyandotte County,KS,NA,42.60289210233593,NA
66402,Shawnee County,KS,NA,98.10901001112346,NA
66611,Shawnee County,KS,NA,71.19021134593993,NA
67005,Cowley County,KS,NA,64.84983314794216,NA
67042,Butler County,KS,NA,55.506117908787544,NA
67205,Sedgwick County,KS,NA,91.54616240266962,NA
67801,Ford County,KS,NA,54.2825361512792,NA
67871,Scott County,KS,NA,59.17686318131257,NA
40031,Oldham County,KY,NA,45.49499443826474,NA
40069,Washington County,KY,NA,95.32814238042269,NA
40211,Jefferson County,KY,11.200000000000001,NA,NA
40215,Jefferson County,KY,16.32,NA,NA
40258,Jefferson County,KY,65.44,NA,NA
40324,Scott County,KY,11.52,NA,NA
40351,Rowan County,KY,64.8,NA,NA
40977,Bell County,KY,NA,60.40044493882091,NA
41015,Kenton County,KY,22.24,NA,NA
41018,Kenton County,KY,51.68000000000001,93.99332591768632,NA
41091,Boone County,KY,NA,59.733036707452726,NA
41230,Lawrence County,KY,NA,37.37486095661847,NA
41301,Wolfe County,KY,93.12,NA,NA
41858,Letcher County,KY,NA,53.17018909899889,NA
42025,Marshall County,KY,NA,36.70745272525028,NA
42141,Barren County,KY,NA,7.897664071190211,NA
42240,Christian County,KY,NA,13.348164627363737,NA
42301,Daviess County,KY,NA,35.483870967741936,NA
42431,Hopkins County,KY,NA,77.75305895439377,NA
42717,Cumberland County,KY,NA,NA,61.198738170347
70001,Jefferson Parish,LA,4.96,8.676307007786429,NA
70056,Jefferson Parish,LA,NA,14.349276974416018,NA
70058,Jefferson Parish,LA,NA,38.04226918798665,NA
70072,Jefferson Parish,LA,NA,3.5595105672969964,4.574132492113565
70094,Jefferson Parish,LA,NA,88.43159065628477,NA
70114,Orleans Parish,LA,9.120000000000001,NA,NA
70116,Orleans Parish,LA,NA,60.17797552836485,NA
70117,Orleans Parish,LA,5.12,NA,37.69716088328076
70119,Orleans Parish,LA,58.24,NA,NA
70122,Orleans Parish,LA,NA,9.343715239154617,88.95899053627761
70123,Jefferson Parish,LA,NA,NA,8.04416403785489
70126,Orleans Parish,LA,NA,19.46607341490545,NA
70127,Orleans Parish,LA,NA,28.47608453837597,NA
70343,Terrebonne Parish,LA,84.64,NA,NA
70345,Lafourche Parish,LA,NA,39.48832035595105,NA
70346,Ascension Parish,LA,NA,NA,83.59621451104101
70359,Terrebonne Parish,LA,NA,64.07119021134594,NA
70373,Lafourche Parish,LA,NA,57.61957730812013,NA
70377,Terrebonne Parish,LA,61.28,NA,NA
70390,Assumption Parish,LA,NA,NA,78.54889589905363
70401,Tangipahoa Parish,LA,NA,NA,75.55205047318611
70403,Tangipahoa Parish,LA,23.68,NA,NA
70422,Tangipahoa Parish,LA,NA,NA,63.09148264984227
70435,St. Tammany Parish,LA,17.599999999999998,44.71635150166852,NA
70437,St. Tammany Parish,LA,52.64,NA,NA
70448,St. Tammany Parish,LA,NA,56.95216907675194,NA
70454,Tangipahoa Parish,LA,NA,NA,24.44794952681388
70458,St. Tammany Parish,LA,20.96,NA,NA
70460,St. Tammany Parish,LA,10.56,NA,NA
70461,St. Tammany Parish,LA,NA,18.909899888765295,NA
70471,St. Tammany Parish,LA,NA,NA,44.479495268138805
70503,Lafayette Parish,LA,NA,NA,33.2807570977918
70510,Vermilion Parish,LA,87.83999999999999,NA,NA
70517,St. Martin Parish,LA,NA,NA,91.6403785488959
70525,Acadia Parish,LA,NA,NA,53.31230283911672
70533,Vermilion Parish,LA,53.28000000000001,NA,NA
70535,St. Landry Parish,LA,NA,NA,23.186119873817034
70548,Vermilion Parish,LA,NA,86.98553948832036,NA
70555,Vermilion Parish,LA,NA,99.55506117908787,NA
70563,Iberia Parish,LA,NA,55.72858731924361,NA
70570,St. Landry Parish,LA,0.96,NA,NA
70607,Calcasieu Parish,LA,93.92,NA,NA
70754,Livingston Parish,LA,NA,89.65517241379311,NA
70760,Pointe Coupee Parish,LA,NA,75.3058954393771,NA
70785,Livingston Parish,LA,NA,32.70300333704116,NA
70802,East Baton Rouge Parish,LA,22.400000000000002,NA,NA
70805,East Baton Rouge Parish,LA,14.879999999999999,78.42046718576195,53.94321766561514
70806,East Baton Rouge Parish,LA,NA,NA,31.703470031545745
70815,East Baton Rouge Parish,LA,NA,32.92547274749722,NA
70817,East Baton Rouge Parish,LA,NA,60.734149054505004,NA
71037,Bossier Parish,LA,15.68,45.05005561735261,NA
71109,Caddo Parish,LA,NA,NA,62.30283911671924
71201,Ouachita Parish,LA,NA,67.96440489432703,NA
71202,Ouachita Parish,LA,NA,25.917686318131256,NA
71295,Franklin Parish,LA,NA,NA,35.80441640378549
71322,Avoyelles Parish,LA,NA,NA,68.13880126182966
04002,York County,ME,NA,80.53392658509455,NA
04005,York County,ME,NA,NA,57.57097791798107
04039,Cumberland County,ME,NA,67.18576195773082,NA
04074,Cumberland County,ME,59.36,NA,NA
04103,Cumberland County,ME,48,NA,NA
04281,Oxford County,ME,NA,98.66518353726363,NA
04364,Kennebec County,ME,NA,75.52836484983315,NA
04401,Penobscot County,ME,NA,NA,0.6309148264984227
04530,Sagadahoc County,ME,NA,NA,76.97160883280758
04605,Hancock County,ME,NA,NA,93.69085173501577
04730,Aroostook County,ME,NA,41.601779755283644,NA
04742,Aroostook County,ME,NA,59.17686318131257,NA
20706,Prince George's County,MD,NA,95.43937708565072,NA
20737,Prince George's County,MD,NA,90.76751946607341,NA
20748,Prince George's County,MD,NA,NA,42.586750788643535
20772,Prince George's County,MD,71.04,NA,NA
20774,Prince George's County,MD,NA,NA,98.89589905362776
20877,Montgomery County,MD,NA,72.8587319243604,NA
20886,Montgomery County,MD,NA,68.29810901001112,NA
21014,Harford County,MD,NA,91.10122358175751,76.81388012618297
21122,Anne Arundel County,MD,45.92,68.07563959955506,NA
21154,Harford County,MD,NA,NA,98.58044164037855
21205,Baltimore city,MD,NA,NA,89.1167192429022
21207,Baltimore County,MD,80.80000000000001,22.135706340378196,NA
21211,Baltimore city,MD,NA,NA,66.5615141955836
21213,Baltimore city,MD,78.88,NA,NA
21215,Baltimore city,MD,26.72,NA,7.255520504731862
21216,Baltimore city,MD,99.2,NA,NA
21218,Baltimore city,MD,NA,NA,23.65930599369085
21222,Baltimore County,MD,NA,33.14794215795328,44.63722397476341
21224,Baltimore city,MD,NA,32.03559510567297,NA
21239,Baltimore city,MD,NA,18.687430478309235,NA
21286,Baltimore County,MD,NA,NA,79.49526813880126
21643,Dorchester County,MD,NA,97.66407119021135,NA
21740,Washington County,MD,16,NA,NA
21784,Carroll County,MD,48.16,NA,NA
21801,Wicomico County,MD,NA,NA,54.10094637223975
21921,Cecil County,MD,12.479999999999999,45.82869855394883,NA
01013,Hampden County,MA,NA,12.569521690767518,NA
01020,Hampden County,MA,NA,NA,11.198738170347003
01040,Hampden County,MA,1.44,NA,NA
01057,Hampden County,MA,NA,94.3270300333704,NA
01075,Hampshire County,MA,NA,NA,37.85488958990536
01104,Hampden County,MA,NA,0.6674082313681869,58.99053627760252
01107,Hampden County,MA,NA,3.4482758620689653,NA
01151,Hampden County,MA,83.84,NA,NA
01247,Berkshire County,MA,NA,NA,17.19242902208202
01301,Franklin County,MA,9.76,NA,NA
01420,Worcester County,MA,NA,2.1134593993325916,NA
01451,Worcester County,MA,NA,NA,79.17981072555204
01464,Middlesex County,MA,61.12,NA,NA
01473,Worcester County,MA,NA,NA,91.32492113564669
01504,Worcester County,MA,NA,NA,90.53627760252367
01571,Worcester County,MA,NA,NA,97.3186119873817
01581,Worcester County,MA,NA,45.717463848720804,NA
01604,Worcester County,MA,NA,NA,46.214511041009466
01701,Middlesex County,MA,NA,NA,50.78864353312302
01749,Middlesex County,MA,NA,83.64849833147943,NA
01757,Worcester County,MA,NA,5.116796440489433,NA
01775,Middlesex County,MA,NA,76.7519466073415,NA
01776,Middlesex County,MA,NA,NA,48.580441640378545
01801,Middlesex County,MA,28.32,NA,0.9463722397476341
01803,Middlesex County,MA,NA,NA,2.2082018927444795
01821,Middlesex County,MA,NA,53.058954393770854,NA
01840,Essex County,MA,45.76,NA,NA
01844,Essex County,MA,0.8,NA,3.4700315457413247
01854,Middlesex County,MA,NA,NA,23.974763406940063
01867,Middlesex County,MA,NA,NA,12.933753943217665
01876,Middlesex County,MA,NA,NA,6.466876971608833
01887,Middlesex County,MA,24,NA,51.10410094637224
01902,Essex County,MA,NA,6.7853170189099,NA
01905,Essex County,MA,1.1199999999999999,NA,NA
01906,Essex County,MA,NA,52.502780867630705,4.889589905362776
01915,Essex County,MA,54.08,NA,NA
01921,Essex County,MA,95.04,NA,NA
01944,Essex County,MA,NA,NA,86.59305993690852
01960,Essex County,MA,NA,NA,0
02035,Norfolk County,MA,NA,52.28031145717463,NA
02067,Norfolk County,MA,NA,NA,71.60883280757098
02072,Norfolk County,MA,27.839999999999996,7.452725250278086,NA
02093,Norfolk County,MA,50.4,NA,NA
02118,Suffolk County,MA,0,85.53948832035594,NA
02119,Suffolk County,MA,NA,0.11123470522803114,NA
02121,Suffolk County,MA,58.56,NA,22.555205047318612
02122,Suffolk County,MA,1.28,1.1123470522803114,8.517350157728707
02124,Suffolk County,MA,0.32,41.37931034482759,81.07255520504731
02125,Suffolk County,MA,NA,10.678531701890991,NA
02126,Suffolk County,MA,0.16,53.9488320355951,NA
02128,Suffolk County,MA,4.16,NA,NA
02129,Suffolk County,MA,NA,NA,36.90851735015773
02130,Suffolk County,MA,16.8,74.08231368186874,NA
02131,Suffolk County,MA,NA,4.78309232480534,NA
02134,Suffolk County,MA,NA,NA,47.94952681388013
02138,Middlesex County,MA,NA,66.51835372636262,NA
02140,Middlesex County,MA,NA,89.54393770856507,NA
02141,Middlesex County,MA,NA,NA,95.26813880126183
02145,Middlesex County,MA,NA,NA,55.047318611987386
02148,Middlesex County,MA,NA,85.76195773081201,NA
02149,Middlesex County,MA,NA,NA,2.050473186119874
02150,Suffolk County,MA,10.72,1.0011123470522802,3.7854889589905363
02151,Suffolk County,MA,NA,22.469410456062292,13.722397476340694
02152,Suffolk County,MA,NA,NA,7.570977917981073
02155,Middlesex County,MA,0.48,0.44493882091212456,NA
02169,Norfolk County,MA,4.64,NA,NA
02171,Norfolk County,MA,25.28,NA,NA
02176,Middlesex County,MA,NA,NA,39.58990536277602
02180,Middlesex County,MA,NA,NA,9.779179810725552
02186,Norfolk County,MA,NA,23.692992213570633,NA
02301,Plymouth County,MA,NA,0,NA
02346,Plymouth County,MA,NA,10.344827586206897,NA
02368,Norfolk County,MA,NA,28.25361512791991,NA
02370,Plymouth County,MA,NA,23.24805339265851,NA
02446,Norfolk County,MA,NA,NA,32.80757097791798
02451,Middlesex County,MA,NA,17.352614015572858,NA
02478,Middlesex County,MA,19.84,NA,NA
02494,Norfolk County,MA,NA,98.88765294771969,NA
02563,Barnstable County,MA,NA,NA,50.63091482649842
02703,Bristol County,MA,NA,NA,73.02839116719242
02720,Bristol County,MA,12.32,6.340378197997776,NA
02724,Bristol County,MA,NA,NA,4.100946372239748
02745,Bristol County,MA,2.4,NA,NA
02760,Bristol County,MA,NA,56.39599555061179,NA
48015,Macomb County,MI,NA,89.43270300333704,NA
48021,Macomb County,MI,50.72,17.130144605116797,NA
48026,Macomb County,MI,NA,35.706340378198,NA
48036,Macomb County,MI,78.4,NA,NA
48042,Macomb County,MI,NA,25.583982202447164,21.451104100946374
48044,Macomb County,MI,NA,5.672969966629588,NA
48047,Macomb County,MI,NA,13.348164627363737,25.709779179810727
48060,St. Clair County,MI,59.36,NA,NA
48062,Macomb County,MI,NA,NA,76.18296529968454
48075,Oakland County,MI,NA,29.03225806451613,NA
48080,Macomb County,MI,NA,12.347052280311457,NA
48088,Macomb County,MI,38.72,NA,NA
48094,Macomb County,MI,72.16,NA,NA
48103,Washtenaw County,MI,NA,NA,1.5772870662460567
48105,Washtenaw County,MI,NA,NA,2.6813880126182967
48108,Washtenaw County,MI,NA,58.39822024471635,NA
48111,Wayne County,MI,NA,86.54060066740823,NA
48117,Monroe County,MI,NA,58.954393770856505,NA
48130,Washtenaw County,MI,NA,NA,37.22397476340694
48146,Wayne County,MI,57.599999999999994,NA,NA
48150,Wayne County,MI,NA,19.577308120133484,NA
48152,Wayne County,MI,NA,5.450500556173527,NA
48168,Wayne County,MI,NA,33.815350389321466,NA
48169,Livingston County,MI,NA,57.50834260289211,NA
48180,Wayne County,MI,2.7199999999999998,NA,NA
48183,Wayne County,MI,8.64,NA,9.621451104100947
48187,Wayne County,MI,NA,3.225806451612903,NA
48188,Wayne County,MI,NA,NA,28.86435331230284
48198,Washtenaw County,MI,NA,12.013348164627363,19.400630914826497
48208,Wayne County,MI,NA,87.76418242491657,NA
48209,Wayne County,MI,NA,99.44382647385984,NA
48214,Wayne County,MI,NA,NA,33.753943217665615
48215,Wayne County,MI,NA,NA,96.84542586750788
48218,Wayne County,MI,NA,NA,89.90536277602523
48219,Wayne County,MI,NA,47.71968854282536,NA
48220,Oakland County,MI,NA,37.263626251390434,NA
48224,Wayne County,MI,NA,NA,45.74132492113564
48225,Wayne County,MI,NA,NA,91.7981072555205
48228,Wayne County,MI,NA,31.81312569521691,NA
48230,Wayne County,MI,NA,83.42602892102336,NA
48235,Wayne County,MI,NA,NA,10.094637223974763
48238,Wayne County,MI,NA,70.96774193548387,NA
48302,Oakland County,MI,63.36000000000001,NA,NA
48306,Oakland County,MI,NA,21.134593993325918,NA
48307,Oakland County,MI,NA,NA,12.145110410094636
48310,Macomb County,MI,NA,38.37597330367075,NA
48312,Macomb County,MI,NA,15.016685205784205,NA
48341,Oakland County,MI,71.67999999999999,NA,NA
48346,Oakland County,MI,32.48,NA,NA
48363,Oakland County,MI,98.24000000000001,NA,NA
48422,Sanilac County,MI,89.28,NA,NA
48423,Genesee County,MI,87.68,NA,NA
48473,Genesee County,MI,37.6,NA,NA
48503,Genesee County,MI,NA,NA,58.67507886435332
48532,Genesee County,MI,33.28,NA,NA
48602,Saginaw County,MI,NA,36.373748609566185,NA
48626,Saginaw County,MI,NA,83.87096774193549,NA
48658,Arenac County,MI,NA,NA,64.82649842271293
48706,Bay County,MI,NA,1.4460511679644048,66.40378548895899
48708,Bay County,MI,7.5200000000000005,NA,NA
48723,Tuscola County,MI,NA,22.35817575083426,NA
48759,Huron County,MI,NA,NA,64.1955835962145
48768,Tuscola County,MI,NA,NA,96.21451104100946
48801,Gratiot County,MI,NA,NA,73.18611987381703
48837,Eaton County,MI,NA,30.589543937708562,NA
48838,Montcalm County,MI,NA,NA,77.28706624605678
48910,Ingham County,MI,NA,58.509454949944384,NA
48917,Eaton County,MI,NA,7.452725250278086,NA
49007,Kalamazoo County,MI,NA,NA,69.4006309148265
49022,Berrien County,MI,NA,10.901001112347053,NA
49071,Van Buren County,MI,64.96,NA,NA
49090,Van Buren County,MI,51.519999999999996,NA,NA
49091,St. Joseph County,MI,NA,NA,87.22397476340694
49201,Jackson County,MI,NA,NA,49.21135646687697
49203,Jackson County,MI,NA,48.16462736373748,NA
49228,Lenawee County,MI,NA,NA,87.38170347003155
49240,Jackson County,MI,NA,NA,91.00946372239747
49250,Hillsdale County,MI,89.92,NA,NA
49319,Kent County,MI,24.959999999999997,NA,NA
49321,Kent County,MI,NA,49.94438264738598,NA
49327,Newaygo County,MI,NA,66.85205784204672,NA
49341,Kent County,MI,24.16,NA,NA
49343,Kent County,MI,85.92,NA,NA
49345,Kent County,MI,86.08,NA,NA
49401,Ottawa County,MI,NA,NA,80.5993690851735
49417,Ottawa County,MI,NA,NA,12.618296529968454
49418,Kent County,MI,32.800000000000004,NA,NA
49424,Ottawa County,MI,NA,NA,34.38485804416404
49441,Muskegon County,MI,NA,NA,31.07255520504732
49456,Ottawa County,MI,NA,91.7686318131257,NA
49507,Kent County,MI,5.6000000000000005,82.42491657397107,NA
49508,Kent County,MI,NA,71.0789766407119,7.413249211356467
49677,Osceola County,MI,90.88000000000001,NA,NA
49685,Grand Traverse County,MI,NA,NA,38.170347003154575
49735,Otsego County,MI,NA,17.797552836484982,NA
49770,Emmet County,MI,NA,42.93659621802002,NA
49783,Chippewa County,MI,NA,47.4972191323693,NA
55009,Goodhue County,MN,63.68000000000001,NA,NA
55056,Chisago County,MN,73.28,NA,NA
55075,Dakota County,MN,NA,NA,61.987381703470035
55076,Dakota County,MN,NA,47.60845383759733,NA
55106,Ramsey County,MN,6.4,23.136818687430477,NA
55107,Ramsey County,MN,NA,83.09232480533927,NA
55112,Ramsey County,MN,NA,23.470522803114573,NA
55116,Ramsey County,MN,NA,NA,41.798107255520506
55119,Ramsey County,MN,NA,NA,33.91167192429022
55336,McLeod County,MN,NA,NA,99.36908517350159
55337,Dakota County,MN,NA,NA,23.34384858044164
55350,McLeod County,MN,NA,NA,71.13564668769716
55372,Scott County,MN,52.959999999999994,NA,NA
55404,Hennepin County,MN,NA,NA,82.17665615141956
55406,Hennepin County,MN,67.36,NA,NA
55409,Hennepin County,MN,NA,73.85984427141268,NA
55418,Hennepin County,MN,84.16,NA,NA
55421,Anoka County,MN,NA,39.377085650723025,NA
55423,Hennepin County,MN,NA,64.51612903225806,NA
55429,Hennepin County,MN,10.4,NA,NA
55430,Hennepin County,MN,NA,NA,72.39747634069401
55433,Anoka County,MN,NA,45.93993325917686,NA
55437,Hennepin County,MN,NA,NA,46.68769716088328
55444,Hennepin County,MN,NA,NA,94.00630914826499
55720,Carlton County,MN,NA,NA,32.965299684542586
55744,Itasca County,MN,NA,NA,44.952681388012614
55811,St. Louis County,MN,NA,85.20578420467186,NA
55812,St. Louis County,MN,72.48,NA,NA
55901,Olmsted County,MN,77.28,24.026696329254726,NA
55902,Olmsted County,MN,74.08,NA,NA
55912,Mower County,MN,NA,3.8932146829810903,NA
56007,Freeborn County,MN,39.68,7.341490545050055,NA
56082,Nicollet County,MN,NA,71.96885428253616,NA
56301,Stearns County,MN,NA,NA,74.60567823343848
56308,Douglas County,MN,92.16,NA,NA
56364,Morrison County,MN,NA,90.87875417130145,NA
56425,Crow Wing County,MN,82.24000000000001,NA,NA
56470,Hubbard County,MN,NA,NA,29.652996845425868
56474,Cass County,MN,95.19999999999999,NA,NA
56537,Otter Tail County,MN,NA,NA,13.09148264984227
56601,Beltrami County,MN,NA,13.125695216907676,NA
56633,Hubbard County,MN,NA,64.18242491657396,69.87381703470031
56721,Polk County,MN,NA,81.0901001112347,85.96214511041009
38703,Washington County,MS,62.08,NA,NA
38834,Alcorn County,MS,NA,67.5194660734149,NA
38851,Chickasaw County,MS,NA,NA,83.2807570977918
38863,Pontotoc County,MS,NA,NA,91.16719242902208
39114,Simpson County,MS,NA,84.42714126807564,NA
39204,Hinds County,MS,66.24,NA,NA
39213,Hinds County,MS,30.4,NA,NA
39301,Lauderdale County,MS,43.84,NA,NA
39402,Lamar County,MS,NA,NA,43.69085173501578
39426,Pearl River County,MS,49.28,NA,NA
39501,Harrison County,MS,NA,NA,98.10725552050474
39503,Harrison County,MS,NA,3.781979977753059,NA
39525,Hancock County,MS,NA,84.09343715239154,NA
39648,Pike County,MS,NA,42.82536151279199,NA
39667,Walthall County,MS,95.52000000000001,NA,NA
63020,Jefferson County,MO,NA,85.09454949944383,NA
63028,Jefferson County,MO,NA,21.802002224694107,NA
63031,St. Louis County,MO,NA,10.233592880978867,NA
63033,St. Louis County,MO,NA,NA,47.003154574132495
63034,St. Louis County,MO,NA,44.60511679644049,NA
63084,Franklin County,MO,NA,NA,36.1198738170347
63106,St. Louis city,MO,NA,NA,90.85173501577287
63113,St. Louis city,MO,57.120000000000005,NA,NA
63116,St. Louis city,MO,NA,NA,44.164037854889585
63124,St. Louis County,MO,NA,NA,25.39432176656151
63125,St. Louis County,MO,NA,26.918798665183534,NA
63136,St. Louis County,MO,NA,NA,73.81703470031546
63137,St. Louis County,MO,NA,NA,64.03785488958991
63138,St. Louis County,MO,NA,41.490545050055616,NA
63367,St. Charles County,MO,50.080000000000005,NA,NA
63376,St. Charles County,MO,NA,2.2246941045606228,NA
63383,Warren County,MO,NA,NA,38.170347003154575
63385,St. Charles County,MO,NA,11.123470522803114,NA
63501,Adair County,MO,61.919999999999995,NA,NA
63703,Cape Girardeau County,MO,NA,64.293659621802007,NA
64015,Jackson County,MO,NA,15.572858731924361,NA
64030,Jackson County,MO,NA,16.46273637374861,NA
64050,Jackson County,MO,12.8,15.684093437152391,NA
64055,Jackson County,MO,NA,6.896551724137931,NA
64075,Jackson County,MO,36.480000000000004,NA,NA
64076,Lafayette County,MO,NA,70.63403781979977,NA
64109,Jackson County,MO,NA,96.21802002224695,NA
64111,Jackson County,MO,NA,NA,97.16088328075709
64116,Clay County,MO,NA,36.04004449388209,NA
64123,Jackson County,MO,67.2,NA,NA
64124,Jackson County,MO,65.92,NA,NA
64127,Jackson County,MO,68.64,NA,NA
64128,Jackson County,MO,91.84,NA,NA
64131,Jackson County,MO,75.36,NA,NA
64132,Jackson County,MO,12.64,NA,NA
64730,Bates County,MO,88.48,NA,NA
65013,Maries County,MO,NA,94.21579532814238,NA
65026,Miller County,MO,82.88,NA,NA
65233,Cooper County,MO,91.03999999999999,NA,NA
65270,Randolph County,MO,23.84,NA,NA
65301,Pettis County,MO,NA,NA,23.02839116719243
65605,Lawrence County,MO,NA,71.19021134593993,NA
65613,Polk County,MO,51.04,NA,NA
65705,Lawrence County,MO,NA,88.76529477196885,NA
65785,Cedar County,MO,NA,NA,77.60252365930599
65802,Greene County,MO,71.52,NA,NA
59102,Yellowstone County,MT,NA,26.585094549499445,NA
59301,Custer County,MT,NA,95.55061179087876,NA
59840,Ravalli County,MT,96.32,NA,NA
59859,Sanders County,MT,NA,NA,90.69400630914826
68104,Douglas County,NE,NA,NA,67.82334384858044
68107,Douglas County,NE,NA,47.052280311457174,NA
68112,Douglas County,NE,NA,87.09677419354838,NA
68131,Douglas County,NE,NA,82.75862068965517,NA
68132,Douglas County,NE,88.8,NA,NA
68133,Sarpy County,NE,NA,NA,81.54574132492114
68134,Douglas County,NE,NA,48.9432703003337,NA
69101,Lincoln County,NE,50.239999999999995,NA,NA
89115,Clark County,NV,17.919999999999998,NA,NA
89141,Clark County,NV,70.24000000000001,NA,NA
89406,Churchill County,NV,35.36,NA,NA
03053,Rockingham County,NH,NA,51.83537263626251,NA
03060,Hillsborough County,NH,62.4,NA,NA
03063,Hillsborough County,NH,NA,NA,75.39432176656152
03102,Hillsborough County,NH,NA,NA,5.678233438485805
03301,Merrimack County,NH,NA,NA,64.35331230283911
03576,Coos County,NH,NA,NA,78.23343848580441
03743,Sullivan County,NH,NA,NA,26.18296529968454
03862,Rockingham County,NH,95.36,NA,NA
03867,Strafford County,NH,19.36,NA,NA
03874,Rockingham County,NH,NA,NA,92.27129337539432
07003,Essex County,NJ,NA,68.74304783092325,NA
07018,Essex County,NJ,NA,82.20244716351502,NA
07111,Essex County,NJ,NA,8.231368186874304,NA
07112,Essex County,NJ,43.68,NA,NA
07203,Union County,NJ,NA,NA,91.48264984227129
07419,Sussex County,NJ,NA,78.9766407119021,NA
07644,Bergen County,NJ,NA,NA,40.37854889589905
07720,Monmouth County,NJ,NA,89.09899888765295,NA
07747,Monmouth County,NJ,NA,33.70411568409344,NA
07751,Monmouth County,NJ,NA,69.52169076751946,NA
07757,Monmouth County,NJ,NA,NA,95.42586750788644
07801,Morris County,NJ,NA,27.919911012235815,NA
07803,Morris County,NJ,99.36,NA,NA
07936,Morris County,NJ,NA,94.43826473859845,NA
08009,Camden County,NJ,52,NA,NA
08016,Burlington County,NJ,NA,53.39265850945495,NA
08086,Gloucester County,NJ,98.56,NA,NA
08096,Gloucester County,NJ,NA,NA,14.353312302839116
08201,Atlantic County,NJ,48.480000000000004,NA,NA
08205,Atlantic County,NJ,14.56,NA,NA
08234,Atlantic County,NJ,NA,11.7908787541713,NA
08360,Cumberland County,NJ,NA,8.120133481646272,NA
08530,Hunterdon County,NJ,NA,NA,65.14195583596214
08721,Ocean County,NJ,NA,NA,86.1198738170347
08723,Ocean County,NJ,NA,NA,31.545741324921135
08757,Ocean County,NJ,NA,4.226918798665183,NA
08817,Middlesex County,NJ,NA,NA,66.5615141955836
08857,Middlesex County,NJ,NA,NA,17.823343848580443
08861,Middlesex County,NJ,NA,NA,16.40378548895899
08879,Middlesex County,NJ,NA,NA,59.93690851735016
87004,Sandoval County,NM,NA,NA,62.77602523659306
87104,Bernalillo County,NM,NA,84.98331479421579,NA
87105,Bernalillo County,NM,4.4799999999999995,53.281423804226925,NA
87108,Bernalillo County,NM,NA,NA,21.13564668769716
87110,Bernalillo County,NM,10.08,NA,NA
87111,Bernalillo County,NM,NA,NA,42.27129337539432
87112,Bernalillo County,NM,NA,NA,43.05993690851735
87114,Bernalillo County,NM,7.84,NA,NA
87121,Bernalillo County,NM,33.92,NA,NA
87124,Sandoval County,NM,NA,NA,9.305993690851736
87301,McKinley County,NM,NA,NA,66.8769716088328
87416,San Juan County,NM,NA,NA,99.6845425867508
87506,Santa Fe County,NM,NA,81.20133481646273,NA
87740,Colfax County,NM,76.48,NA,NA
88063,Doa Ana County,NM,NA,97.77530589543937,NA
88101,Curry County,NM,NA,30.367074527252502,24.605678233438486
88201,Chaves County,NM,29.12,NA,NA
88203,Chaves County,NM,61.44,NA,NA
88220,Eddy County,NM,NA,NA,52.36593059936908
88242,Lea County,NM,NA,96.32925472747496,NA
88352,Otero County,NM,NA,98.5539488320356,NA
10002,New York County,NY,NA,35.92880978865406,NA
10021,New York County,NY,NA,23.35928809788654,NA
10029,New York County,NY,NA,5.005561735261402,26.813880126182966
10030,New York County,NY,NA,NA,73.65930599369085
10035,New York County,NY,NA,NA,10.725552050473187
10065,New York County,NY,NA,53.61512791991101,NA
10303,Richmond County,NY,33.6,39.265850945494996,NA
10304,Richmond County,NY,56.00000000000001,20.02224694104561,NA
10451,Bronx County,NY,NA,29.588431590656285,4.73186119873817
10452,Bronx County,NY,NA,NA,9.936908517350158
10454,Bronx County,NY,NA,NA,56.782334384858046
10457,Bronx County,NY,NA,6.229143492769744,9.14826498422713
10458,Bronx County,NY,NA,17.46384872080089,NA
10459,Bronx County,NY,NA,NA,77.44479495268138
10460,Bronx County,NY,1.92,1.3348164627363739,NA
10461,Bronx County,NY,NA,16.796440489432705,52.99684542586751
10462,Bronx County,NY,NA,25.027808676307007,48.42271293375394
10465,Bronx County,NY,NA,NA,17.034700315457414
10466,Bronx County,NY,NA,2.3359288097886544,NA
10467,Bronx County,NY,11.04,17.57508342602892,53.47003154574133
10468,Bronx County,NY,NA,2.4471635150166855,NA
10469,Bronx County,NY,NA,77.97552836484984,NA
10470,Bronx County,NY,NA,NA,64.98422712933754
10472,Bronx County,NY,NA,61.846496106785324,NA
10473,Bronx County,NY,NA,29.810901001112345,NA
10475,Bronx County,NY,20.32,NA,NA
10552,Westchester County,NY,96.48,NA,NA
10591,Westchester County,NY,NA,NA,53.62776025236593
10605,Westchester County,NY,NA,NA,28.23343848580442
10704,Westchester County,NY,NA,50.27808676307007,NA
10927,Rockland County,NY,NA,NA,100
10940,Orange County,NY,NA,NA,15.615141955835963
10954,Rockland County,NY,NA,70.85650723025584,NA
11203,Kings County,NY,NA,44.827586206896555,NA
11205,Kings County,NY,NA,80.08898776418243,NA
11206,Kings County,NY,NA,1.2235817575083427,NA
11207,Kings County,NY,NA,54.83870967741935,NA
11209,Kings County,NY,57.92,NA,39.27444794952682
11211,Kings County,NY,NA,46.162402669632925,NA
11212,Kings County,NY,NA,NA,5.205047318611988
11215,Kings County,NY,NA,NA,72.87066246056783
11220,Kings County,NY,3.84,NA,NA
11221,Kings County,NY,NA,NA,3.943217665615142
11230,Kings County,NY,40.8,NA,NA
11233,Kings County,NY,1.6,0.8898776418242491,NA
11234,Kings County,NY,46.08,9.788654060066742,NA
11237,Kings County,NY,NA,13.793103448275861,96.68769716088327
11367,Queens County,NY,68.96,NA,NA
11368,Queens County,NY,6.5600000000000005,NA,NA
11369,Queens County,NY,NA,NA,39.58990536277602
11372,Queens County,NY,25.759999999999998,NA,71.92429022082018
11377,Queens County,NY,NA,77.0856507230256,NA
11412,Queens County,NY,NA,NA,85.17350157728707
11418,Queens County,NY,NA,40.934371523915466,NA
11419,Queens County,NY,NA,88.09788654060067,NA
11422,Queens County,NY,NA,51.61290322580645,NA
11429,Queens County,NY,NA,71.7463848720801,NA
11433,Queens County,NY,NA,NA,22.239747634069403
11434,Queens County,NY,NA,14.46051167964405,NA
11435,Queens County,NY,NA,NA,21.92429022082019
11501,Nassau County,NY,NA,NA,65.77287066246058
11550,Nassau County,NY,NA,44.16017797552836,NA
11554,Nassau County,NY,NA,NA,18.92744479495268
11558,Nassau County,NY,NA,71.412680756396,NA
11694,Queens County,NY,87.36,NA,NA
11701,Suffolk County,NY,NA,79.08787541713015,NA
11725,Suffolk County,NY,NA,NA,80.12618296529969
11735,Nassau County,NY,NA,52.947719688542826,NA
11741,Suffolk County,NY,NA,88.65406006674083,NA
11763,Suffolk County,NY,NA,79.86651835372636,NA
11787,Suffolk County,NY,92.64,NA,NA
11788,Suffolk County,NY,NA,NA,79.96845425867508
11793,Nassau County,NY,NA,95.99555061179088,NA
12010,Montgomery County,NY,93.28,NA,NA
12019,Saratoga County,NY,NA,86.87430478309233,NA
12077,Albany County,NY,84.8,NA,NA
12078,Fulton County,NY,NA,63.73748609566184,NA
12122,Schoharie County,NY,NA,NA,69.5583596214511
12180,Rensselaer County,NY,NA,NA,85.33123028391168
12189,Albany County,NY,64.48,NA,NA
12203,Albany County,NY,NA,NA,28.706624605678233
12210,Albany County,NY,77.12,NA,NA
12308,Schenectady County,NY,32.96,NA,NA
12550,Orange County,NY,NA,46.82981090100111,NA
12701,Sullivan County,NY,100,NA,NA
12804,Warren County,NY,77.44,NA,NA
12828,Washington County,NY,NA,96.7741935483871,NA
12839,Washington County,NY,NA,81.20133481646273,NA
12901,Clinton County,NY,15.2,NA,NA
12944,Essex County,NY,97.92,NA,NA
12962,Clinton County,NY,NA,63.84872080088988,NA
13027,Onondaga County,NY,11.68,NA,36.435331230283914
13069,Oswego County,NY,NA,9.454949944382648,NA
13073,Tompkins County,NY,NA,59.399332591768626,NA
13088,Onondaga County,NY,NA,80.64516129032258,NA
13203,Onondaga County,NY,NA,45.272525027808676,NA
13365,Herkimer County,NY,NA,NA,43.375394321766564
13460,Chenango County,NY,90.24,NA,NA
13492,Oneida County,NY,NA,69.18798665183537,NA
13601,Jefferson County,NY,NA,16.46273637374861,NA
13619,Jefferson County,NY,NA,77.64182424916574,NA
13669,St. Lawrence County,NY,NA,66.18464961067853,NA
13733,Chenango County,NY,60.96,NA,NA
13760,Broome County,NY,0.64,NA,NA
13820,Otsego County,NY,60.31999999999999,NA,NA
13827,Tioga County,NY,19.2,NA,NA
13850,Broome County,NY,NA,4.004449388209121,NA
13865,Broome County,NY,NA,59.95550611790878,NA
14020,Genesee County,NY,NA,11.902113459399333,54.73186119873817
14067,Niagara County,NY,73.92,NA,NA
14075,Erie County,NY,NA,NA,9.46372239747634
14150,Erie County,NY,52.16,NA,NA
14211,Erie County,NY,NA,69.9666295884316,NA
14213,Erie County,NY,44.48,NA,NA
14215,Erie County,NY,1.76,NA,NA
14217,Erie County,NY,21.279999999999998,NA,NA
14304,Niagara County,NY,5.28,NA,NA
14450,Monroe County,NY,NA,NA,23.817034700315457
14467,Monroe County,NY,76.32,NA,NA
14489,Wayne County,NY,80.96,NA,NA
14512,Ontario County,NY,NA,57.28587319243604,NA
14513,Wayne County,NY,NA,51.05672969966629,79.652996845425875
14522,Wayne County,NY,NA,NA,83.91167192429022
14580,Monroe County,NY,NA,NA,1.7350157728706623
14608,Monroe County,NY,NA,32.146829810901004,NA
14609,Monroe County,NY,NA,0.778642936596218,NA
14610,Monroe County,NY,NA,53.50389321468298,NA
14620,Monroe County,NY,NA,70.74527252502781,NA
14621,Monroe County,NY,NA,2.5583982202447166,NA
14623,Monroe County,NY,NA,20.355951056729698,NA
14626,Monroe County,NY,NA,22.58064516129032,NA
14706,Cattaraugus County,NY,NA,56.284760845383765,NA
14830,Steuben County,NY,NA,57.95328142380423,NA
14870,Steuben County,NY,89.12,NA,NA
27006,Davie County,NC,NA,NA,15.141955835962145
27012,Forsyth County,NC,NA,72.52502780867631,NA
27018,Yadkin County,NC,NA,NA,80.91482649842271
27028,Davie County,NC,NA,32.36929922135706,NA
27030,Surry County,NC,NA,NA,0.7886435331230284
27103,Forsyth County,NC,NA,8.008898776418242,NA
27105,Forsyth County,NC,12.16,18.5761957730812,NA
27107,Forsyth County,NC,47.04,3.6707452725250276,14.037854889589903
27127,Forsyth County,NC,90.4,84.20467185761957,NA
27205,Randolph County,NC,NA,NA,33.59621451104101
27217,Alamance County,NC,10.879999999999999,NA,NA
27265,Guilford County,NC,NA,89.76640711902112,NA
27284,Forsyth County,NC,42.24,1.557285873192436,NA
27295,Davidson County,NC,16.96,NA,30.914826498422716
27316,Randolph County,NC,NA,NA,93.53312302839116
27357,Rockingham County,NC,79.03999999999999,NA,NA
27360,Davidson County,NC,NA,4.560622914349278,NA
27410,Guilford County,NC,NA,12.791991101223582,NA
27455,Guilford County,NC,NA,43.270300333704114,NA
27520,Johnston County,NC,26.88,NA,NA
27529,Wake County,NC,NA,15.127919911012237,NA
27536,Vance County,NC,23.52,NA,NA
27549,Franklin County,NC,49.120000000000005,NA,NA
27557,Nash County,NC,NA,82.31368186874305,NA
27565,Granville County,NC,NA,NA,21.766561514195583
27603,Wake County,NC,NA,54.50500556173527,NA
27704,Durham County,NC,81.76,NA,NA
27822,Wilson County,NC,92.96,NA,NA
27834,Pitt County,NC,NA,NA,39.43217665615142
27850,Halifax County,NC,94.39999999999999,87.87541713014461,NA
27863,Wayne County,NC,NA,62.8476084538376,NA
27870,Halifax County,NC,NA,27.697441601779754,NA
27886,Edgecombe County,NC,NA,37.708565072302555,NA
27944,Perquimans County,NC,NA,NA,50.94637223974764
27983,Bertie County,NC,46.88,NA,NA
28025,Cabarrus County,NC,9.28,NA,8.832807570977918
28034,Gaston County,NC,67.67999999999999,NA,NA
28075,Cabarrus County,NC,83.36,NA,NA
28303,Cumberland County,NC,NA,37.1523915461624,NA
28328,Sampson County,NC,NA,20.800889877641822,NA
28348,Cumberland County,NC,30.880000000000003,NA,NA
28374,Moore County,NC,NA,NA,11.041009463722396
28390,Harnett County,NC,NA,79.3103448275862,NA
28409,New Hanover County,NC,NA,15.350389321468297,NA
28562,Craven County,NC,NA,NA,11.829652996845425
28625,Iredell County,NC,14.719999999999999,NA,NA
28630,Caldwell County,NC,NA,NA,40.694006309148264
28642,Yadkin County,NC,81.6,NA,NA
28645,Caldwell County,NC,4.32,NA,75.23659305993691
28655,Burke County,NC,NA,61.73526140155728,NA
28673,Catawba County,NC,NA,81.53503893214683,NA
28681,Alexander County,NC,17.28,NA,NA
28711,Buncombe County,NC,97.11999999999999,NA,NA
28712,Transylvania County,NC,NA,NA,8.3596214511041
28713,Swain County,NC,NA,NA,89.58990536277602
28748,Buncombe County,NC,53.6,74.86095661846495,NA
58072,Barnes County,ND,NA,NA,59.779179810725545
58103,Cass County,ND,NA,2.7808676307007785,54.41640378548895
58368,Pierce County,ND,NA,99.88876529477196,NA
43023,Licking County,OH,NA,NA,70.82018927444796
43026,Franklin County,OH,46.400000000000006,NA,NA
43040,Union County,OH,NA,18.020022246941046,NA
43050,Knox County,OH,6.88,NA,NA
43076,Perry County,OH,NA,67.63070077864293,NA
43078,Champaign County,OH,NA,63.29254727474972,NA
43081,Franklin County,OH,NA,8.898776418242491,NA
43113,Pickaway County,OH,NA,10.789766407119021,NA
43123,Franklin County,OH,NA,NA,10.410094637223976
43204,Franklin County,OH,5.76,NA,NA
43205,Franklin County,OH,NA,75.08342602892102,NA
43207,Franklin County,OH,9.92,NA,NA
43211,Franklin County,OH,NA,29.699666295884313,NA
43213,Franklin County,OH,29.92,NA,NA
43219,Franklin County,OH,NA,NA,31.38801261829653
43224,Franklin County,OH,NA,14.015572858731925,NA
43227,Franklin County,OH,NA,NA,62.14511041009464
43232,Franklin County,OH,NA,NA,44.321766561514195
43302,Marion County,OH,2.2399999999999998,3.114571746384872,NA
43402,Wood County,OH,47.52,NA,NA
43410,Sandusky County,OH,NA,NA,60.41009463722398
43457,Wood County,OH,97.76,NA,NA
43512,Defiance County,OH,18.08,NA,NA
43526,Defiance County,OH,93.76,NA,NA
43543,Williams County,OH,83.04,NA,NA
43560,Lucas County,OH,NA,NA,18.769716088328074
43615,Lucas County,OH,4,NA,NA
43701,Muskingum County,OH,NA,0.33370411568409347,NA
43812,Coshocton County,OH,NA,6.451612903225806,NA
43906,Belmont County,OH,69.76,NA,NA
43920,Columbiana County,OH,8.48,NA,NA
43952,Jefferson County,OH,NA,NA,25.86750788643533
44001,Lorain County,OH,NA,NA,5.3627760252365935
44012,Lorain County,OH,NA,31.25695216907675,NA
44035,Lorain County,OH,3.04,16.240266963292544,NA
44044,Lorain County,OH,70.88,NA,NA
44047,Ashtabula County,OH,NA,NA,87.06624605678233
44052,Lorain County,OH,NA,16.68520578420467,NA
44060,Lake County,OH,NA,0.5561735261401557,NA
44067,Summit County,OH,NA,NA,38.64353312302839
44077,Lake County,OH,3.6799999999999997,NA,NA
44094,Lake County,OH,NA,23.804226918798665,11.514195583596216
44102,Cuyahoga County,OH,44.96,56.84093437152391,NA
44105,Cuyahoga County,OH,40,17.686318131256954,NA
44107,Cuyahoga County,OH,NA,NA,6.151419558359621
44108,Cuyahoga County,OH,3.2,NA,NA
44109,Cuyahoga County,OH,NA,73.74860956618465,65.93059936908517
44111,Cuyahoga County,OH,42.72,2.8921023359288096,NA
44112,Cuyahoga County,OH,7.68,NA,NA
44116,Cuyahoga County,OH,33.44,NA,NA
44119,Cuyahoga County,OH,17.44,NA,NA
44120,Cuyahoga County,OH,NA,49.165739710789765,64.51104100946372
44121,Cuyahoga County,OH,74.72,57.063403781979986,NA
44122,Cuyahoga County,OH,NA,4.671857619577309,0.31545741324921134
44123,Cuyahoga County,OH,53.44,NA,NA
44124,Cuyahoga County,OH,NA,NA,0.47318611987381703
44128,Cuyahoga County,OH,58.08,1.7797552836484982,NA
44129,Cuyahoga County,OH,12,68.52057842046719,NA
44130,Cuyahoga County,OH,NA,24.24916573971079,NA
44137,Cuyahoga County,OH,NA,81.64627363737486,NA
44140,Cuyahoga County,OH,NA,79.42157953281423,NA
44142,Cuyahoga County,OH,NA,NA,14.511041009463725
44146,Cuyahoga County,OH,6.239999999999999,NA,NA
44147,Cuyahoga County,OH,41.120000000000005,NA,NA
44212,Medina County,OH,NA,7.786429365962181,NA
44224,Summit County,OH,NA,NA,8.675078864353312
44233,Medina County,OH,NA,47.1635150166852,93.05993690851734
44241,Portage County,OH,26.08,NA,NA
44266,Portage County,OH,8.32,NA,NA
44306,Summit County,OH,NA,73.63737486095661,NA
44320,Summit County,OH,NA,15.906562847608456,NA
44446,Trumbull County,OH,36.480000000000004,NA,NA
44471,Mahoning County,OH,47.839999999999996,NA,NA
44483,Trumbull County,OH,13.76,NA,NA
44484,Trumbull County,OH,54.879999999999995,NA,NA
44512,Mahoning County,OH,NA,11.457174638487208,NA
44514,Mahoning County,OH,NA,27.808676307007786,16.246056782334385
44515,Mahoning County,OH,NA,NA,15.457413249211358
44612,Tuscarawas County,OH,NA,NA,77.12933753943217
44641,Stark County,OH,NA,39.04338153503893,NA
44691,Wayne County,OH,7.04,NA,NA
44708,Stark County,OH,NA,29.92213570634038,NA
45013,Butler County,OH,3.52,NA,NA
45042,Butler County,OH,NA,NA,36.59305993690852
45066,Warren County,OH,NA,40.48943270300334,NA
45068,Warren County,OH,NA,62.40266963292548,NA
45107,Clinton County,OH,76.96,90.43381535038932,NA
45202,Hamilton County,OH,NA,58.06451612903226,NA
45211,Hamilton County,OH,NA,57.39710789766407,NA
45227,Hamilton County,OH,NA,79.53281423804228,NA
45238,Hamilton County,OH,37.92,NA,NA
45245,Clermont County,OH,NA,NA,97.94952681388013
45344,Clark County,OH,NA,41.935483870967744,NA
45356,Miami County,OH,NA,10.011123470522804,NA
45377,Montgomery County,OH,NA,39.93325917686318,NA
45414,Montgomery County,OH,24.8,NA,NA
45417,Montgomery County,OH,8,NA,NA
45424,Montgomery County,OH,9.28,NA,NA
45429,Montgomery County,OH,NA,72.19132369299221,NA
45601,Ross County,OH,46.72,9.56618464961068,12.77602523659306
45619,Lawrence County,OH,53.12,NA,NA
45638,Lawrence County,OH,NA,NA,67.66561514195584
45640,Jackson County,OH,55.2,29.477196885428253,NA
45651,Vinton County,OH,NA,48.275862068965516,NA
45694,Scioto County,OH,NA,65.40600667408232,NA
45750,Washington County,OH,NA,77.53058954393771,NA
45840,Hancock County,OH,NA,3.337041156840934,NA
45885,Auglaize County,OH,NA,NA,42.74447949526814
73018,Grady County,OK,39.2,NA,NA
73044,Logan County,OK,NA,12.458286985539488,NA
73052,Garvin County,OK,90.56,NA,NA
73080,McClain County,OK,NA,86.09566184649611,NA
73086,Murray County,OK,NA,78.1979977753059,NA
73106,Oklahoma County,OK,NA,62.95884315906562,NA
73110,Oklahoma County,OK,15.840000000000002,NA,NA
73521,Jackson County,OK,NA,NA,40.063091482649845
73533,Stephens County,OK,18.56,11.012235817575084,NA
74014,Wagoner County,OK,31.36,NA,NA
74017,Rogers County,OK,NA,93.43715239154616,54.25867507886435
74044,Creek County,OK,72,NA,NA
74056,Osage County,OK,93.44,NA,NA
74112,Tulsa County,OK,NA,NA,58.359621451104104
74114,Tulsa County,OK,80.64,NA,NA
74127,Tulsa County,OK,NA,NA,59.305993690851736
74344,Delaware County,OK,NA,71.52391546162403,NA
74437,Okmulgee County,OK,NA,86.31813125695217,NA
74464,Cherokee County,OK,8.16,NA,NA
97005,Washington County,OR,41.6,NA,NA
97006,Washington County,OR,86.24000000000001,NA,NA
97008,Washington County,OR,NA,NA,29.81072555205047
97030,Multnomah County,OR,NA,NA,16.561514195583594
97058,Wasco County,OR,NA,28.03114571746385,NA
97060,Multnomah County,OR,NA,39.15461624026697,NA
97078,Washington County,OR,NA,49.49944382647386,NA
97116,Washington County,OR,NA,69.74416017797553,NA
97124,Washington County,OR,NA,50.38932146829811,NA
97203,Multnomah County,OR,64.32,NA,NA
97206,Multnomah County,OR,NA,21.69076751946607,NA
97217,Multnomah County,OR,NA,40.60066740823137,NA
97219,Multnomah County,OR,NA,NA,82.64984227129337
97221,Multnomah County,OR,NA,NA,79.81072555205047
97224,Washington County,OR,84,NA,NA
97230,Multnomah County,OR,19.52,NA,40.851735015772874
97236,Multnomah County,OR,61.6,NA,NA
97266,Multnomah County,OR,NA,81.97997775305895,56.46687697160884
97321,Linn County,OR,69.12,NA,69.2429022082019
97322,Linn County,OR,37.28,NA,NA
97383,Marion County,OR,NA,NA,91.9558359621451
97424,Lane County,OR,NA,NA,60.72555205047318
97444,Curry County,OR,86.88,NA,NA
97502,Jackson County,OR,NA,19.799777530589544,NA
97504,Jackson County,OR,73.76,NA,NA
97756,Deschutes County,OR,NA,18.798665183537263,NA
97862,Umatilla County,OR,54.559999999999995,NA,NA
97914,Malheur County,OR,NA,20.467185761957733,NA
15010,Beaver County,PA,NA,24.47163515016685,NA
15012,Westmoreland County,PA,NA,NA,29.179810725552052
15057,Washington County,PA,NA,91.32369299221357,NA
15065,Allegheny County,PA,81.92,NA,NA
15089,Westmoreland County,PA,NA,73.5261401557286,NA
15116,Allegheny County,PA,NA,NA,37.06624605678234
15122,Allegheny County,PA,44.32,NA,NA
15126,Allegheny County,PA,NA,NA,84.85804416403786
15214,Allegheny County,PA,NA,NA,56.62460567823344
15221,Allegheny County,PA,NA,NA,44.00630914826498
15224,Allegheny County,PA,NA,99.11012235817576,NA
15235,Allegheny County,PA,NA,14.57174638487208,NA
15301,Washington County,PA,NA,4.894327030033371,NA
15317,Washington County,PA,NA,92.99221357063404,NA
15417,Fayette County,PA,82.08,90.43381535038932,NA
15425,Fayette County,PA,NA,21.579532814238043,NA
15461,Fayette County,PA,NA,89.9888765294772,NA
15601,Westmoreland County,PA,NA,12.235817575083425,20.66246056782334
15644,Westmoreland County,PA,NA,NA,40.22082018927445
15666,Westmoreland County,PA,72.48,NA,NA
15853,Elk County,PA,NA,48.720800889877644,NA
15902,Cambria County,PA,NA,72.41379310344827,NA
16063,Butler County,PA,NA,NA,48.89589905362776
16125,Mercer County,PA,NA,43.49276974416018,55.99369085173501
16137,Mercer County,PA,NA,29.254727474972192,NA
16146,Mercer County,PA,NA,35.595105672969964,NA
16201,Armstrong County,PA,26.400000000000002,NA,NA
16214,Clarion County,PA,NA,89.21023359288098,NA
16323,Venango County,PA,NA,31.47942157953281,NA
16354,Crawford County,PA,NA,58.175750834260285,NA
16509,Erie County,PA,NA,NA,19.558359621451103
16511,Erie County,PA,NA,78.64293659621802,NA
16735,McKean County,PA,NA,57.730812013348164,NA
17019,York County,PA,NA,40.155728587319246,NA
17022,Lancaster County,PA,NA,60.62291434927698,71.76656151419559
17036,Dauphin County,PA,NA,NA,20.189274447949526
17050,Cumberland County,PA,NA,8.453837597330367,NA
17055,Cumberland County,PA,NA,15.127919911012237,29.49526813880126
17111,Dauphin County,PA,13.600000000000001,NA,NA
17319,York County,PA,NA,60.95661846496107,NA
17340,Adams County,PA,NA,NA,59.46372239747634
17403,York County,PA,NA,19.688542825361512,NA
17543,Lancaster County,PA,NA,NA,29.02208201892745
17552,Lancaster County,PA,NA,61.40155728587319,NA
17557,Lancaster County,PA,69.6,NA,NA
17701,Lycoming County,PA,18.88,5.561735261401557,25.55205047318612
17740,Lycoming County,PA,NA,43.937708565072306,NA
17821,Montour County,PA,NA,NA,3.1545741324921135
17837,Union County,PA,NA,NA,50.1577287066246
17847,Northumberland County,PA,80.16,NA,NA
17872,Northumberland County,PA,34.56,NA,NA
17901,Schuylkill County,PA,51.839999999999996,NA,NA
18018,Lehigh County,PA,NA,33.25917686318131,NA
18020,Northampton County,PA,NA,NA,20.031545741324923
18058,Monroe County,PA,88.64,NA,NA
18102,Lehigh County,PA,17.119999999999997,NA,NA
18328,Pike County,PA,NA,65.07230255839822,NA
18353,Monroe County,PA,NA,NA,94.1640378548896
18436,Wayne County,PA,NA,NA,58.51735015772871
18447,Lackawanna County,PA,NA,63.51501668520578,NA
18505,Lackawanna County,PA,NA,NA,41.00946372239748
18603,Columbia County,PA,11.84,NA,84.70031545741324
18610,Monroe County,PA,NA,NA,98.73817034700315
18612,Luzerne County,PA,75.52,NA,NA
18655,Luzerne County,PA,NA,NA,86.2776025236593
18657,Wyoming County,PA,56.48,NA,NA
18702,Luzerne County,PA,NA,NA,27.444794952681388
18704,Luzerne County,PA,14.399999999999999,NA,NA
18840,Bradford County,PA,NA,87.98665183537263,NA
18966,Bucks County,PA,NA,9.010011123470523,NA
19013,Delaware County,PA,NA,NA,73.34384858044164
19026,Delaware County,PA,NA,72.74749721913237,NA
19031,Montgomery County,PA,86.4,NA,NA
19044,Montgomery County,PA,55.84,NA,NA
19053,Bucks County,PA,NA,30.03337041156841,NA
19111,Philadelphia County,PA,45.28,NA,NA
19119,Philadelphia County,PA,51.2,NA,NA
19120,Philadelphia County,PA,NA,46.0511679644049,37.53943217665615
19121,Philadelphia County,PA,28.48,NA,NA
19122,Philadelphia County,PA,NA,84.76084538375973,NA
19131,Philadelphia County,PA,NA,NA,7.097791798107256
19133,Philadelphia County,PA,NA,73.1924360400445,NA
19138,Philadelphia County,PA,NA,21.023359288097886,NA
19141,Philadelphia County,PA,NA,14.794215795328142,24.290220820189273
19143,Philadelphia County,PA,NA,11.568409343715238,7.728706624605679
19146,Philadelphia County,PA,57.76,51.94660734149055,NA
19149,Philadelphia County,PA,NA,27.363737486095662,NA
19152,Philadelphia County,PA,16.48,NA,NA
19403,Montgomery County,PA,NA,5.3392658509454956,NA
19512,Berks County,PA,52.800000000000004,NA,NA
19518,Berks County,PA,NA,NA,61.82965299684543
19540,Berks County,PA,NA,85.31701890989989,NA
19601,Berks County,PA,29.759999999999998,NA,NA
19604,Berks County,PA,NA,NA,47.94952681388013
02809,Bristol County,RI,NA,NA,30.28391167192429
02816,Kent County,RI,NA,13.681868743047831,NA
02852,Washington County,RI,NA,25.472747497219135,NA
02871,Newport County,RI,NA,76.0845383759733,NA
02891,Washington County,RI,NA,NA,17.50788643533123
02905,Providence County,RI,NA,NA,46.52996845425867
02909,Providence County,RI,44.64,NA,NA
02914,Providence County,RI,NA,NA,19.71608832807571
02919,Providence County,RI,NA,27.474972191323694,NA
29115,Orangeburg County,SC,NA,29.36596218020022,NA
29127,Newberry County,SC,75.68,NA,NA
29150,Sumter County,SC,NA,24.916573971078975,NA
29154,Sumter County,SC,72.32,NA,NA
29206,Richland County,SC,NA,95.10567296996662,NA
29306,Spartanburg County,SC,32.32,NA,NA
29341,Cherokee County,SC,40.48,46.273637374860954,NA
29405,Charleston County,SC,22.720000000000002,76.64071190211345,49.52681388012618
29406,Charleston County,SC,20.64,NA,NA
29414,Charleston County,SC,NA,22.691879866518352,NA
29456,Dorchester County,SC,NA,93.2146829810901,NA
29461,Berkeley County,SC,27.839999999999996,NA,NA
29466,Charleston County,SC,NA,NA,30.5993690851735
29477,Dorchester County,SC,87.2,NA,NA
29575,Horry County,SC,NA,NA,68.45425867507886
29620,Abbeville County,SC,NA,NA,84.54258675078864
29644,Greenville County,SC,NA,77.30812013348165,NA
29673,Greenville County,SC,NA,NA,53.785488958990534
29682,Pickens County,SC,98.08,NA,NA
29690,Greenville County,SC,NA,61.179087875417125,NA
29902,Beaufort County,SC,NA,94.77196885428253,NA
29909,Beaufort County,SC,NA,NA,60.88328075709779
29924,Hampton County,SC,NA,97.44160177975529,NA
57006,Brookings County,SD,NA,36.04004449388209,NA
57401,Brown County,SD,42.4,NA,1.1041009463722398
57783,Lawrence County,SD,NA,85.87319243604004,NA
57785,Meade County,SD,NA,NA,68.76971608832808
37013,Davidson County,TN,NA,43.71523915461624,NA
37067,Williamson County,TN,NA,NA,62.77602523659306
37072,Davidson County,TN,NA,24.582869855394883,NA
37087,Wilson County,TN,58.720000000000006,NA,NA
37167,Rutherford County,TN,NA,NA,29.33753943217666
37174,Williamson County,TN,NA,NA,67.98107255520505
37211,Davidson County,TN,NA,79.97775305895439,NA
37312,Bradley County,TN,NA,40.82313681868743,NA
37339,Grundy County,TN,99.03999999999999,NA,NA
37415,Hamilton County,TN,NA,NA,85.48895899053628
37615,Washington County,TN,NA,50.723025583982206,NA
37683,Johnson County,TN,NA,54.61624026696329,NA
37708,Grainger County,TN,92.47999999999999,NA,NA
37766,Campbell County,TN,60.480000000000004,NA,NA
37830,Anderson County,TN,66.88,NA,NA
37887,Morgan County,TN,89.60000000000001,NA,NA
37919,Knox County,TN,47.199999999999996,NA,NA
38112,Shelby County,TN,NA,NA,95.11041009463722
38128,Shelby County,TN,NA,NA,57.25552050473186
38237,Weakley County,TN,NA,56.17352614015573,NA
38310,McNairy County,TN,NA,98.2202447163515,NA
38401,Maury County,TN,NA,6.117908787541713,NA
38574,Putnam County,TN,98.72,58.620689655172406,NA
38583,White County,TN,NA,NA,18.454258675078865
75032,Rockwall County,TX,NA,93.32591768631812,38.48580441640379
75038,Dallas County,TX,NA,80.7563959955506,NA
75041,Dallas County,TX,38.4,NA,NA
75042,Dallas County,TX,NA,88.32035595105673,NA
75043,Dallas County,TX,NA,16.129032258064516,NA
75057,Denton County,TX,95.67999999999999,NA,NA
75060,Dallas County,TX,35.68,NA,NA
75077,Denton County,TX,NA,69.07675194660735,NA
75104,Dallas County,TX,20.16,NA,NA
75160,Kaufman County,TX,NA,98.77641824249166,NA
75189,Rockwall County,TX,80,NA,NA
75204,Dallas County,TX,NA,97.21913236929922,NA
75209,Dallas County,TX,NA,NA,68.76971608832808
75211,Dallas County,TX,NA,66.0734149054505,NA
75212,Dallas County,TX,NA,40.04449388209122,NA
75220,Dallas County,TX,NA,66.96329254727475,NA
75224,Dallas County,TX,NA,NA,41.32492113564668
75228,Dallas County,TX,22.88,NA,NA
75229,Dallas County,TX,NA,80.20022246941045,NA
75233,Dallas County,TX,63.519999999999996,NA,NA
75234,Dallas County,TX,NA,69.41045606229143,NA
75243,Dallas County,TX,79.36,NA,NA
75254,Dallas County,TX,NA,NA,93.37539432176656
75442,Collin County,TX,94.72,NA,NA
75457,Franklin County,TX,NA,97.55283648498332,NA
75501,Bowie County,TX,72.96000000000001,NA,NA
75603,Gregg County,TX,NA,90.87875417130145,NA
75701,Smith County,TX,30.56,NA,4.2586750788643535
75702,Smith County,TX,NA,NA,23.501577287066247
75751,Henderson County,TX,NA,42.269187986651836,31.07255520504732
75801,Anderson County,TX,NA,61.512791991101224,NA
75951,Jasper County,TX,43.519999999999996,NA,NA
76001,Tarrant County,TX,NA,NA,62.46056782334385
76012,Tarrant County,TX,NA,71.63515016685206,NA
76014,Tarrant County,TX,NA,NA,61.198738170347
76021,Tarrant County,TX,59.199999999999996,NA,NA
76022,Tarrant County,TX,NA,NA,78.70662460567823
76033,Johnson County,TX,NA,95.66184649610679,NA
76036,Tarrant County,TX,88.32,NA,NA
76053,Tarrant County,TX,NA,60.06674082313682,NA
76067,Palo Pinto County,TX,NA,NA,44.79495268138801
76085,Parker County,TX,NA,50.16685205784205,NA
76086,Parker County,TX,NA,49.72191323692992,NA
76107,Tarrant County,TX,78.56,48.05339265850945,NA
76109,Tarrant County,TX,NA,NA,94.79495268138801
76116,Tarrant County,TX,NA,NA,74.76340694006309
76119,Tarrant County,TX,7.199999999999999,75.41713014460511,95.58359621451105
76134,Tarrant County,TX,22.08,NA,NA
76164,Tarrant County,TX,NA,61.62402669632926,NA
76208,Denton County,TX,NA,40.934371523915466,NA
76424,Stephens County,TX,63.04,NA,NA
76501,Bell County,TX,56.64,67.07452725250278,22.397476340694006
76502,Bell County,TX,39.839999999999996,10.567296996662959,NA
76504,Bell County,TX,8.959999999999999,3.0033370411568407,NA
76513,Bell County,TX,NA,NA,45.42586750788644
76520,Milam County,TX,NA,90.32258064516128,NA
76522,Coryell County,TX,38.879999999999995,9.899888765294772,NA
76541,Bell County,TX,39.04,98.33147942157953,NA
76542,Bell County,TX,NA,51.16796440489433,NA
76548,Bell County,TX,NA,83.53726362625139,NA
76549,Bell County,TX,NA,85.98442714126807,78.86435331230284
76571,Bell County,TX,98.88,NA,NA
76574,Williamson County,TX,NA,20.133481646273637,NA
76642,Limestone County,TX,NA,NA,68.76971608832808
76705,McLennan County,TX,NA,34.48275862068966,96.05678233438486
76706,McLennan County,TX,29.599999999999998,NA,NA
76707,McLennan County,TX,NA,96.1067853170189,NA
77004,Harris County,TX,23.04,NA,NA
77009,Harris County,TX,NA,NA,53.154574132492115
77015,Harris County,TX,NA,38.9321468298109,NA
77017,Harris County,TX,48.8,NA,NA
77019,Harris County,TX,62.72,NA,NA
77021,Harris County,TX,NA,62.06896551724138,NA
77022,Harris County,TX,48.8,NA,NA
77034,Harris County,TX,NA,NA,90.06309148264984
77035,Harris County,TX,NA,70.52280311457174,NA
77044,Harris County,TX,NA,53.726362625139046,NA
77047,Harris County,TX,NA,64.73859844271412,NA
77049,Harris County,TX,NA,NA,92.74447949526814
77051,Harris County,TX,85.6,NA,NA
77064,Harris County,TX,NA,34.705228031145715,NA
77065,Harris County,TX,NA,NA,32.018927444794954
77067,Harris County,TX,NA,70.18909899888766,NA
77081,Harris County,TX,NA,87.31924360400444,NA
77088,Harris County,TX,NA,30.14460511679644,NA
77090,Harris County,TX,NA,47.38598442714127,NA
77095,Harris County,TX,NA,11.234705228031146,NA
77354,Montgomery County,TX,NA,66.74082313681868,NA
77378,Montgomery County,TX,NA,NA,99.52681388012618
77379,Harris County,TX,NA,NA,56.30914826498423
77380,Montgomery County,TX,NA,49.38820912124583,NA
77480,Brazoria County,TX,NA,NA,79.02208201892745
77486,Brazoria County,TX,NA,95.21690767519466,NA
77506,Harris County,TX,NA,62.18020022246941,NA
77511,Brazoria County,TX,13.120000000000001,NA,13.880126182965299
77517,Galveston County,TX,93.60000000000001,NA,NA
77523,Chambers County,TX,NA,92.21357063403782,NA
77532,Harris County,TX,65.28,NA,NA
77539,Galveston County,TX,NA,37.04115684093437,NA
77545,Fort Bend County,TX,NA,NA,84.38485804416403
77546,Galveston County,TX,NA,9.232480533926585,NA
77550,Galveston County,TX,NA,82.09121245828699,5.047318611987381
77551,Galveston County,TX,NA,24.694104560622915,NA
77568,Galveston County,TX,28.799999999999997,NA,NA
77573,Galveston County,TX,NA,85.42825361512793,NA
77587,Harris County,TX,73.28,NA,NA
77590,Galveston County,TX,NA,12.124582869855395,NA
77703,Jefferson County,TX,NA,NA,85.01577287066246
77802,Brazos County,TX,NA,NA,8.201892744479496
77803,Brazos County,TX,94.56,NA,NA
77845,Brazos County,TX,NA,NA,2.365930599369085
77904,Victoria County,TX,NA,NA,89.74763406940063
77995,Lavaca County,TX,NA,NA,48.580441640378545
78040,Webb County,TX,NA,NA,61.51419558359621
78041,Webb County,TX,32.16,NA,NA
78046,Webb County,TX,NA,24.360400444938822,NA
78130,Comal County,TX,65.75999999999999,NA,NA
78132,Comal County,TX,NA,43.159065628476085,NA
78207,Bexar County,TX,17.76,NA,NA
78221,Bexar County,TX,NA,98.99888765294772,70.82018927444796
78223,Bexar County,TX,NA,94.54949944382648,NA
78225,Bexar County,TX,NA,80.31145717463849,NA
78228,Bexar County,TX,NA,NA,52.6813880126183
78230,Bexar County,TX,77.60000000000001,NA,NA
78259,Bexar County,TX,69.44,NA,NA
78362,San Patricio County,TX,87.52,NA,NA
78405,Nueces County,TX,72.8,NA,NA
78501,Hidalgo County,TX,NA,20.57842046718576,NA
78504,Hidalgo County,TX,NA,38.15350389321468,NA
78520,Cameron County,TX,NA,NA,50
78521,Cameron County,TX,NA,NA,79.33753943217665
78537,Hidalgo County,TX,NA,76.19577308120134,NA
78542,Hidalgo County,TX,NA,78.30923248053394,NA
78570,Hidalgo County,TX,NA,77.19688542825361,NA
78572,Hidalgo County,TX,60.64000000000001,NA,NA
78577,Hidalgo County,TX,23.200000000000003,51.50166852057843,NA
78582,Starr County,TX,94.24,NA,NA
78586,Cameron County,TX,38.24,NA,NA
78596,Hidalgo County,TX,NA,72.96996662958844,NA
78613,Williamson County,TX,NA,15.795328142380422,26.97160883280757
78624,Gillespie County,TX,NA,96.66295884315906,NA
78628,Williamson County,TX,NA,NA,15.29968454258675
78664,Williamson County,TX,NA,89.87764182424917,NA
78666,Hays County,TX,NA,NA,17.665615141955836
78741,Travis County,TX,NA,85.65072302558399,NA
78745,Travis County,TX,NA,49.61067853170189,NA
78801,Uvalde County,TX,90.08,NA,NA
78852,Maverick County,TX,NA,63.62625139043382,NA
79423,Lubbock County,TX,NA,20.24471635150167,NA
79556,Nolan County,TX,NA,42.380422691879865,NA
79763,Ector County,TX,NA,36.26251390433816,NA
79925,El Paso County,TX,NA,70.41156840934372,NA
79927,El Paso County,TX,NA,91.21245828698554,NA
79930,El Paso County,TX,70.24000000000001,NA,NA
84003,Utah County,UT,38.080000000000005,NA,NA
84044,Salt Lake County,UT,96.64,NA,NA
84057,Utah County,UT,NA,67.40823136818688,NA
84067,Weber County,UT,NA,51.279199110122356,NA
84084,Salt Lake County,UT,39.36,NA,NA
84117,Salt Lake County,UT,NA,NA,59.62145110410094
84118,Salt Lake County,UT,15.040000000000001,NA,NA
84120,Salt Lake County,UT,7.359999999999999,NA,NA
84121,Salt Lake County,UT,NA,NA,46.05678233438486
84123,Salt Lake County,UT,NA,33.37041156840934,NA
84128,Salt Lake County,UT,NA,96.440489432703,NA
84129,,UT,NA,70.07786429365962,NA
84405,Weber County,UT,NA,NA,51.57728706624606
05661,Lamoille County,VT,NA,NA,98.42271293375394
05733,Rutland County,VT,NA,NA,87.53943217665615
20110,Manassas city,VA,NA,48.9432703003337,41.6403785488959
22015,Fairfax County,VA,NA,NA,47.3186119873817
22304,Alexandria city,VA,NA,30.81201334816463,NA
22306,Fairfax County,VA,24.48,NA,NA
22405,Stafford County,VA,NA,NA,90.22082018927445
22630,Warren County,VA,NA,60.28921023359288,NA
22701,Culpeper County,VA,21.6,NA,NA
22844,Shenandoah County,VA,NA,NA,75.86750788643532
22903,Charlottesville city,VA,78.72,18.24249165739711,NA
22963,Fluvanna County,VA,88.96,NA,NA
23002,Amelia County,VA,NA,78.08676307007786,NA
23111,Hanover County,VA,43.04,NA,NA
23114,Chesterfield County,VA,NA,NA,87.85488958990535
23188,James City County,VA,NA,34.260289210233594,7.886435331230284
23226,Richmond city,VA,89.44,NA,NA
23229,Henrico County,VA,NA,65.18353726362626,NA
23231,Henrico County,VA,NA,NA,25.86750788643533
23320,Chesapeake city,VA,NA,NA,63.56466876971609
23434,Suffolk city,VA,NA,34.59399332591769,NA
23452,Virginia Beach city,VA,NA,NA,5.993690851735016
23454,Virginia Beach city,VA,NA,NA,3.627760252365931
23455,Virginia Beach city,VA,NA,8.342602892102335,1.4195583596214512
23503,Norfolk city,VA,40.96,NA,NA
23505,Norfolk city,VA,NA,59.399332591768626,NA
23513,Norfolk city,VA,NA,59.399332591768626,47.791798107255524
23602,Newport News city,VA,24.32,26.140155728587317,NA
23669,Hampton city,VA,81.28,NA,NA
23803,Petersburg city,VA,NA,14.126807563959956,NA
24017,Roanoke city,VA,20.48,NA,NA
24018,Roanoke County,VA,NA,28.809788654060064,NA
24104,Bedford County,VA,NA,NA,89.27444794952682
24141,Radford city,VA,65.92,NA,NA
24148,Henry County,VA,NA,NA,81.23028391167192
24153,Salem city,VA,NA,16.907675194660733,NA
24210,Washington County,VA,31.04,NA,NA
24273,Norton city,VA,NA,NA,92.74447949526814
24368,Wythe County,VA,91.36,NA,NA
24370,Smyth County,VA,NA,NA,82.33438485804416
24381,Carroll County,VA,NA,96.55172413793103,NA
24426,Alleghany County,VA,NA,67.74193548387096,NA
24502,Lynchburg city,VA,NA,NA,11.35646687697161
24651,Tazewell County,VA,NA,NA,86.90851735015774
98001,King County,WA,NA,NA,78.07570977917982
98003,King County,WA,NA,19.13236929922136,54.73186119873817
98007,King County,WA,91.52,NA,NA
98022,King County,WA,NA,21.357063403781982,NA
98028,King County,WA,NA,NA,88.17034700315457
98032,King County,WA,36.96,NA,NA
98042,King County,WA,NA,NA,51.73501577287066
98056,King County,WA,NA,NA,52.208201892744476
98059,King County,WA,NA,26.696329254727473,NA
98104,King County,WA,NA,95.77308120133482,NA
98109,King County,WA,NA,NA,47.47634069400631
98125,King County,WA,NA,NA,28.075709779179807
98144,King County,WA,79.2,NA,NA
98178,King County,WA,NA,97.8865406006674,94.4794952681388
98198,King County,WA,66.4,NA,NA
98203,Snohomish County,WA,40.64,NA,NA
98258,Snohomish County,WA,NA,NA,76.49842271293376
98270,Snohomish County,WA,NA,NA,49.369085173501574
98273,Skagit County,WA,NA,NA,6.782334384858044
98338,Pierce County,WA,NA,30.255839822024473,NA
98362,Clallam County,WA,29.12,NA,NA
98387,Pierce County,WA,20,21.46829810901001,NA
98391,Pierce County,WA,75.03999999999999,NA,NA
98408,Pierce County,WA,NA,48.720800889877644,NA
98501,Thurston County,WA,59.040000000000006,NA,NA
98520,Grays Harbor County,WA,NA,92.880978865406007,NA
98531,Lewis County,WA,NA,NA,29.96845425867508
98541,Grays Harbor County,WA,70.72,NA,NA
98550,Grays Harbor County,WA,NA,NA,96.52996845425868
98604,Clark County,WA,NA,62.736373748609566,NA
98626,Cowlitz County,WA,NA,28.142380422691883,41.48264984227129
98632,Cowlitz County,WA,NA,NA,2.5236593059936907
98640,Pacific County,WA,NA,NA,88.64353312302839
98661,Clark County,WA,NA,62.62513904338154,NA
98663,Clark County,WA,NA,68.85428253615127,NA
98801,Chelan County,WA,NA,NA,4.416403785488959
98802,Douglas County,WA,44,NA,NA
98815,Chelan County,WA,NA,99.22135706340379,NA
98841,Okanogan County,WA,NA,60.84538375973304,NA
98951,Yakima County,WA,NA,NA,80.7570977917981
99006,Spokane County,WA,NA,93.10344827586206,NA
99207,Spokane County,WA,NA,50.94549499443827,NA
99336,Benton County,WA,NA,31.03448275862069,NA
99353,Benton County,WA,59.68,NA,NA
99354,Benton County,WA,36,NA,NA
99362,Walla Walla County,WA,NA,NA,72.08201892744479
20020,District of Columbia,DC,38.56,5.784204671857619,NA
20032,District of Columbia,DC,51.35999999999999,NA,NA
25064,Kanawha County,WV,44.800000000000004,NA,NA
25387,Kanawha County,WV,NA,66.29588431590656,NA
25419,Berkeley County,WV,NA,NA,98.26498422712933
25504,Cabell County,WV,50.4,NA,NA
25951,Summers County,WV,NA,99.6662958843159,NA
26003,Ohio County,WV,NA,2.6696329254727478,NA
26062,Hancock County,WV,NA,22.914349276974416,NA
26101,Wood County,WV,NA,5.228031145717464,14.98422712933754
26201,Upshur County,WV,NA,43.82647385984427,81.38801261829653
26508,Monongalia County,WV,5.4399999999999995,NA,NA
53014,Calumet County,WI,NA,NA,83.59621451104101
53018,Waukesha County,WI,NA,80.42269187986652,NA
53045,Waukesha County,WI,NA,39.71078976640712,NA
53066,Waukesha County,WI,NA,10.456062291434929,NA
53090,Washington County,WI,NA,95.88431590656285,NA
53098,Dodge County,WI,NA,92.65850945494995,71.29337539432177
53142,Kenosha County,WI,NA,19.021134593993324,NA
53172,Milwaukee County,WI,NA,34.14905450500556,NA
53177,Racine County,WI,74.88,NA,NA
53182,Racine County,WI,NA,75.86206896551724,NA
53190,Walworth County,WI,NA,NA,76.65615141955836
53204,Milwaukee County,WI,23.36,NA,NA
53206,Milwaukee County,WI,NA,8.78754171301446,NA
53209,Milwaukee County,WI,2.56,2.0022246941045605,NA
53210,Milwaukee County,WI,NA,17.018909899888765,NA
53212,Milwaukee County,WI,NA,68.63181312569522,NA
53213,Milwaukee County,WI,43.36,NA,NA
53223,Milwaukee County,WI,14.08,NA,NA
53235,Milwaukee County,WI,NA,NA,99.05362776025235
53402,Racine County,WI,NA,NA,27.760252365930597
53405,Racine County,WI,5.92,52.72525027808677,NA
53511,Rock County,WI,NA,0.22246941045606228,NA
53545,Rock County,WI,NA,18.24249165739711,NA
53546,Rock County,WI,NA,NA,27.602523659305994
53566,Green County,WI,NA,92.54727474972191,NA
53581,Richland County,WI,88.16000000000001,NA,NA
53590,Dane County,WI,33.12,NA,NA
53704,Dane County,WI,9.6,NA,NA
53717,Dane County,WI,NA,NA,70.50473186119874
53719,Dane County,WI,NA,35.03893214682981,NA
54015,St. Croix County,WI,96.16,NA,NA
54024,Polk County,WI,81.12,NA,NA
54401,Marathon County,WI,NA,58.28698553948832,NA
54452,Lincoln County,WI,NA,69.2992213570634,NA
54487,Lincoln County,WI,83.52000000000001,NA,NA
54501,Oneida County,WI,NA,19.911012235817573,14.826498422712934
54603,La Crosse County,WI,NA,86.65183537263627,NA
54636,La Crosse County,WI,NA,NA,92.58675078864354
54837,Polk County,WI,NA,93.88209121245829,NA
54840,Burnett County,WI,NA,NA,78.23343848580441
54880,Douglas County,WI,NA,NA,26.498422712933756
54904,Winnebago County,WI,NA,94.88320355951056,NA
