ZipCode,county,state,Adult,Retirement
35022,Jefferson County,AL,NA,19.475655430711612
35040,Shelby County,AL,NA,67.04119850187266
35079,Blount County,AL,90.8289241622575,NA
35207,Jefferson County,AL,NA,74.15730337078652
35976,Marshall County,AL,35.626102292768955,NA
36109,Montgomery County,AL,NA,56.55430711610487
36268,Talladega County,AL,86.06701940035273,NA
36277,Calhoun County,AL,NA,87.26591760299625
36507,Baldwin County,AL,27.689594356261022,NA
36575,Mobile County,AL,46.20811287477954,NA
36854,Chambers County,AL,49.382716049382715,NA
85013,Maricopa County,AZ,64.90299823633157,NA
85029,Maricopa County,AZ,NA,69.28838951310861
85053,Maricopa County,AZ,34.39153439153439,NA
85139,Pinal County,AZ,41.9753086419753,NA
85203,Maricopa County,AZ,95.94356261022926,NA
85206,Maricopa County,AZ,34.21516754850088,NA
85248,Maricopa County,AZ,44.62081128747795,NA
85249,Maricopa County,AZ,33.86243386243386,NA
85374,Maricopa County,AZ,63.13932980599647,NA
85704,Pima County,AZ,87.65432098765432,NA
86404,Mohave County,AZ,NA,73.40823970037454
71822,Little River County,AR,81.48148148148148,NA
72034,Faulkner County,AR,NA,47.19101123595505
72207,Pulaski County,AR,NA,72.28464419475655
72404,Craighead County,AR,38.62433862433862,NA
72921,Crawford County,AR,68.07760141093475,NA
90008,Los Angeles County,CA,32.62786596119929,NA
90040,Los Angeles County,CA,91.71075837742504,NA
90047,Los Angeles County,CA,34.92063492063492,NA
90221,Los Angeles County,CA,7.231040564373897,NA
90503,Los Angeles County,CA,NA,70.0374531835206
90606,Los Angeles County,CA,NA,53.18352059925093
90680,Orange County,CA,46.56084656084656,NA
90723,Los Angeles County,CA,NA,65.54307116104869
90732,Los Angeles County,CA,NA,59.176029962546814
90744,Los Angeles County,CA,46.38447971781305,NA
90803,Los Angeles County,CA,62.78659611992945,NA
91423,Los Angeles County,CA,57.49559082892416,NA
91501,Los Angeles County,CA,77.42504409171076,NA
91733,Los Angeles County,CA,88.35978835978835,NA
91775,Los Angeles County,CA,75.30864197530865,NA
91784,San Bernardino County,CA,NA,46.06741573033708
92024,San Diego County,CA,NA,43.82022471910113
92037,San Diego County,CA,NA,71.91011235955057
92069,San Diego County,CA,89.2416225749559,NA
92105,San Diego County,CA,NA,32.20973782771536
92113,San Diego County,CA,16.049382716049383,NA
92115,San Diego County,CA,NA,41.57303370786517
92126,San Diego County,CA,32.451499118165785,NA
92324,San Bernardino County,CA,13.051146384479717,NA
92508,Riverside County,CA,NA,68.53932584269663
92591,Riverside County,CA,NA,52.43445692883895
92592,Riverside County,CA,19.223985890652557,NA
92660,Orange County,CA,47.266313932980594,NA
92882,Riverside County,CA,49.55908289241622,NA
93003,Ventura County,CA,80.59964726631394,NA
93033,Ventura County,CA,28.04232804232804,NA
93036,Ventura County,CA,65.60846560846561,NA
93065,Ventura County,CA,NA,23.220973782771537
93221,Tulare County,CA,66.13756613756614,NA
93422,San Luis Obispo County,CA,36.15520282186949,NA
93449,San Luis Obispo County,CA,90.12345679012346,NA
93635,Merced County,CA,58.201058201058196,NA
93638,Madera County,CA,NA,81.64794007490637
94044,San Mateo County,CA,40.56437389770723,NA
94080,San Mateo County,CA,NA,10.112359550561797
94102,San Francisco County,CA,NA,71.53558052434457
94115,San Francisco County,CA,64.19753086419753,NA
94123,San Francisco County,CA,50.264550264550266,NA
94124,San Francisco County,CA,16.225749559082892,NA
94158,San Francisco County,CA,98.05996472663139,NA
94403,San Mateo County,CA,66.84303350970018,NA
94518,Contra Costa County,CA,65.96119929453262,NA
94549,Contra Costa County,CA,70.19400352733686,NA
94553,Contra Costa County,CA,59.78835978835979,NA
94564,Contra Costa County,CA,NA,59.55056179775281
94565,Contra Costa County,CA,14.462081128747794,NA
94703,Alameda County,CA,78.1305114638448,NA
94954,Sonoma County,CA,92.23985890652557,NA
95014,Santa Clara County,CA,95.06172839506173,NA
95354,Stanislaus County,CA,22.22222222222222,NA
95355,Stanislaus County,CA,53.086419753086425,NA
95383,Tuolumne County,CA,NA,76.77902621722846
95608,Sacramento County,CA,NA,21.722846441947567
95632,Sacramento County,CA,48.32451499118166,NA
95667,El Dorado County,CA,NA,45.69288389513109
95678,Placer County,CA,37.38977072310406,NA
95682,El Dorado County,CA,45.5026455026455,38.951310861423224
95762,El Dorado County,CA,82.53968253968253,NA
95765,Placer County,CA,NA,64.04494382022472
95822,Sacramento County,CA,NA,41.947565543071164
95963,Glenn County,CA,79.54144620811287,NA
95991,Sutter County,CA,NA,37.82771535580524
95993,Sutter County,CA,NA,40.074906367041194
80031,Adams County,CO,71.95767195767195,NA
80111,Arapahoe County,CO,57.31922398589065,NA
80209,Denver County,CO,82.36331569664902,NA
80224,Denver County,CO,50.08818342151675,NA
80487,Routt County,CO,96.11992945326278,NA
80503,Boulder County,CO,NA,50.187265917603
80504,Boulder County,CO,NA,71.16104868913857
80524,Larimer County,CO,20.282186948853614,NA
80525,Larimer County,CO,10.582010582010582,NA
80528,Larimer County,CO,NA,91.01123595505618
80919,El Paso County,CO,56.4373897707231,NA
81504,Mesa County,CO,65.78483245149911,NA
06067,Hartford County,CT,55.026455026455025,NA
06071,Tolland County,CT,72.13403880070547,NA
06239,Windham County,CT,NA,54.30711610486891
06410,New Haven County,CT,55.379188712522044,NA
06437,New Haven County,CT,NA,27.340823970037455
06443,New Haven County,CT,NA,33.33333333333333
06457,Middlesex County,CT,20.634920634920633,NA
06468,Fairfield County,CT,69.31216931216932,NA
06484,Fairfield County,CT,23.809523809523807,NA
06488,New Haven County,CT,NA,75.28089887640449
06512,New Haven County,CT,70.72310405643739,NA
06513,New Haven County,CT,27.336860670194003,NA
06880,Fairfield County,CT,37.742504409171076,NA
06897,Fairfield County,CT,63.31569664902999,NA
19802,New Castle County,DE,10.229276895943562,NA
19971,Sussex County,DE,NA,70.78651685393258
32060,Suwannee County,FL,40.74074074074074,NA
32082,St. Johns County,FL,44.62081128747795,NA
32308,Leon County,FL,60.84656084656085,NA
32514,Escambia County,FL,43.738977072310405,NA
32621,Levy County,FL,94.88536155202821,NA
32708,Seminole County,FL,33.68606701940035,NA
32819,Orange County,FL,NA,98.50187265917603
32821,Orange County,FL,70.54673721340387,NA
33066,Broward County,FL,95.23809523809523,NA
33076,Broward County,FL,60.14109347442681,NA
33156,Miami-Dade County,FL,89.94708994708994,NA
33179,Miami-Dade County,FL,73.54497354497354,NA
33186,Miami-Dade County,FL,39.32980599647266,NA
33311,Broward County,FL,NA,23.970037453183522
33312,Broward County,FL,22.75132275132275,NA
33436,Palm Beach County,FL,79.36507936507937,NA
33462,Palm Beach County,FL,55.73192239858906,NA
33496,Palm Beach County,FL,NA,39.70037453183521
33544,Pasco County,FL,69.84126984126983,NA
33558,Hillsborough County,FL,75.13227513227513,NA
33579,Hillsborough County,FL,58.553791887125215,NA
33707,Pinellas County,FL,92.06349206349206,NA
34117,Collier County,FL,53.26278659611992,NA
34120,Collier County,FL,70.8994708994709,NA
34229,Sarasota County,FL,NA,62.92134831460674
34461,Citrus County,FL,73.72134038800705,NA
34465,Citrus County,FL,NA,58.42696629213483
34609,Hernando County,FL,21.340388007054674,NA
34654,Pasco County,FL,NA,49.812734082397
34684,Pinellas County,FL,NA,16.479400749063668
34957,Martin County,FL,37.91887125220458,NA
30004,Fulton County,GA,29.80599647266314,NA
30019,Gwinnett County,GA,27.160493827160494,NA
30041,Forsyth County,GA,18.51851851851852,85.39325842696628
30064,Cobb County,GA,82.01058201058201,NA
30132,Paulding County,GA,22.045855379188712,NA
30152,Cobb County,GA,NA,42.32209737827715
30180,Carroll County,GA,15.696649029982362,NA
30183,Cherokee County,GA,NA,97.75280898876404
30241,Troup County,GA,NA,48.31460674157304
30253,Henry County,GA,17.46031746031746,NA
30318,Fulton County,GA,19.400352733686066,NA
30349,Fulton County,GA,5.996472663139329,NA
30523,Habersham County,GA,69.1358024691358,NA
30558,Jackson County,GA,94.17989417989418,NA
30809,Columbia County,GA,24.867724867724867,15.730337078651685
31410,Chatham County,GA,94.3562610229277,NA
31774,Irwin County,GA,NA,94.00749063670412
96707,Honolulu County,HI,24.16225749559083,NA
96816,Honolulu County,HI,NA,66.66666666666666
83202,Bannock County,ID,40.917107583774246,NA
83330,Gooding County,ID,89.0652557319224,NA
83501,Nez Perce County,ID,31.746031746031743,NA
83617,Gem County,ID,NA,45.31835205992509
83716,Ada County,ID,66.49029982363317,NA
60004,Cook County,IL,16.402116402116402,NA
60008,Cook County,IL,91.88712522045856,NA
60013,McHenry County,IL,NA,64.7940074906367
60015,Lake County,IL,46.73721340388007,NA
60025,Cook County,IL,NA,8.239700374531834
60053,Cook County,IL,63.844797178130506,NA
60056,Cook County,IL,26.984126984126984,NA
60061,Lake County,IL,51.85185185185185,NA
60067,Cook County,IL,31.393298059964724,NA
60068,Cook County,IL,28.39506172839506,NA
60076,Cook County,IL,32.098765432098766,NA
60089,Lake County,IL,NA,14.232209737827715
60090,Cook County,IL,NA,83.89513108614233
60115,DeKalb County,IL,28.57142857142857,NA
60120,Kane County,IL,47.795414462081126,NA
60124,Kane County,IL,NA,30.337078651685395
60126,DuPage County,IL,NA,6.367041198501873
60134,Kane County,IL,31.922398589065253,NA
60164,Cook County,IL,28.21869488536155,NA
60174,Kane County,IL,34.5679012345679,NA
60175,Kane County,IL,18.342151675485006,NA
60181,DuPage County,IL,NA,31.086142322097377
60189,DuPage County,IL,85.00881834215167,NA
60201,Cook County,IL,NA,26.96629213483146
60302,Cook County,IL,NA,46.441947565543074
60402,Cook County,IL,NA,39.325842696629216
60467,Cook County,IL,38.97707231040564,NA
60477,Cook County,IL,17.636684303350968,NA
60487,Cook County,IL,43.03350970017637,NA
60565,DuPage County,IL,20.811287477954142,NA
60601,Cook County,IL,92.5925925925926,NA
60605,Cook County,IL,46.913580246913575,NA
60611,Cook County,IL,43.20987654320987,NA
60613,Cook County,IL,63.66843033509701,NA
60629,Cook County,IL,4.761904761904762,NA
60636,Cook County,IL,NA,56.17977528089888
60642,Cook County,IL,65.25573192239858,NA
60656,Cook County,IL,NA,43.445692883895134
60657,Cook County,IL,41.44620811287478,NA
60714,Cook County,IL,61.022927689594354,NA
60954,Kankakee County,IL,81.83421516754849,NA
61008,Boone County,IL,22.57495590828924,21.34831460674157
61277,Whiteside County,IL,98.76543209876543,NA
61341,LaSalle County,IL,72.31040564373897,NA
61571,Tazewell County,IL,61.37566137566137,NA
62025,Madison County,IL,54.14462081128748,NA
62896,Franklin County,IL,NA,32.958801498127336
46060,Hamilton County,IN,82.89241622574956,NA
46122,Hendricks County,IN,67.54850088183422,NA
46235,Marion County,IN,40.0352733686067,NA
46256,Marion County,IN,NA,41.19850187265918
46307,Lake County,IN,30.158730158730158,NA
46321,Lake County,IN,22.92768959435626,NA
46701,Noble County,IN,59.61199294532628,NA
46725,Whitley County,IN,NA,24.719101123595504
46750,Huntington County,IN,NA,28.83895131086142
46804,Allen County,IN,80.42328042328042,NA
47025,Dearborn County,IN,28.92416225749559,NA
47401,Monroe County,IN,NA,68.16479400749064
47803,Vigo County,IN,48.500881834215164,NA
50124,Story County,IA,99.64726631393297,NA
50461,Mitchell County,IA,NA,78.27715355805243
50677,Bremer County,IA,67.54850088183422,NA
52601,Des Moines County,IA,8.465608465608465,NA
66202,Johnson County,KS,NA,80.52434456928839
66213,Johnson County,KS,58.0246913580247,NA
66226,Johnson County,KS,85.71428571428571,NA
66801,Lyon County,KS,NA,51.68539325842697
67401,Saline County,KS,13.756613756613756,25.468164794007492
67456,McPherson County,KS,NA,96.62921348314607
40165,Bullitt County,KY,9.347442680776014,NA
40220,Jefferson County,KY,NA,23.970037453183522
40330,Mercer County,KY,NA,88.38951310861424
40383,Woodford County,KY,59.43562610229277,NA
40502,Fayette County,KY,95.59082892416225,NA
41017,Kenton County,KY,21.164021164021165,NA
41091,Boone County,KY,NA,61.42322097378277
41101,Boyd County,KY,NA,20.224719101123593
42041,Fulton County,KY,NA,76.40449438202246
42053,McCracken County,KY,99.47089947089947,NA
42164,Allen County,KY,26.278659611992943,NA
42240,Christian County,KY,5.114638447971781,NA
42330,Muhlenberg County,KY,56.08465608465608,NA
42378,Daviess County,KY,92.41622574955908,NA
42437,Union County,KY,NA,93.25842696629213
70065,Jefferson Parish,LA,NA,5.617977528089887
70301,Lafourche Parish,LA,NA,11.985018726591761
70373,Lafourche Parish,LA,NA,99.625468164794
70422,Tangipahoa Parish,LA,45.326278659611994,NA
70435,St. Tammany Parish,LA,67.90123456790124,NA
71075,Webster Parish,LA,99.82363315696648,NA
71112,Bossier Parish,LA,8.818342151675484,NA
71115,Caddo Parish,LA,66.31393298059965,NA
71429,Sabine Parish,LA,NA,98.12734082397003
04055,Cumberland County,ME,NA,99.25093632958801
04072,York County,ME,27.513227513227513,NA
04093,York County,ME,97.88359788359789,NA
04240,Androscoggin County,ME,1.9400352733686066,NA
04915,Waldo County,ME,58.90652557319223,NA
20636,St. Mary's County,MD,74.60317460317461,NA
20650,St. Mary's County,MD,NA,94.7565543071161
20676,Calvert County,MD,98.94179894179894,NA
20685,Calvert County,MD,86.77248677248677,NA
21037,Anne Arundel County,MD,56.96649029982363,NA
21044,Howard County,MD,37.213403880070544,NA
21114,Anne Arundel County,MD,NA,79.02621722846442
21146,Anne Arundel County,MD,55.55555555555556,NA
21221,Baltimore County,MD,12.874779541446207,NA
21234,Baltimore County,MD,10.758377425044092,NA
21403,Anne Arundel County,MD,NA,44.569288389513105
21918,Cecil County,MD,98.58906525573192,NA
01020,Hampden County,MA,NA,90.63670411985018
01089,Hampden County,MA,3.1746031746031744,NA
01095,Hampden County,MA,94.70899470899471,NA
01331,Worcester County,MA,15.343915343915343,NA
01463,Middlesex County,MA,61.72839506172839,NA
01505,Worcester County,MA,85.5379188712522,NA
01583,Worcester County,MA,88.18342151675485,NA
01605,Worcester County,MA,NA,26.217228464419474
01721,Middlesex County,MA,52.910052910052904,NA
01752,Middlesex County,MA,NA,16.10486891385768
01754,Middlesex County,MA,NA,51.68539325842697
01826,Middlesex County,MA,3.7037037037037033,NA
01833,Essex County,MA,69.48853615520282,NA
01834,Essex County,MA,NA,68.53932584269663
01851,Middlesex County,MA,50.44091710758377,NA
01852,Middlesex County,MA,NA,17.228464419475657
01880,Middlesex County,MA,86.94885361552028,NA
01902,Essex County,MA,6.525573192239858,1.1235955056179776
01904,Essex County,MA,25.220458553791886,NA
01905,Essex County,MA,1.2345679012345678,NA
01906,Essex County,MA,NA,12.734082397003746
01915,Essex County,MA,8.641975308641975,NA
01923,Essex County,MA,39.15343915343915,NA
02019,Norfolk County,MA,NA,38.20224719101123
02030,Norfolk County,MA,84.83245149911816,NA
02038,Norfolk County,MA,49.029982363315696,NA
02043,Plymouth County,MA,25.749559082892414,NA
02054,Norfolk County,MA,59.25925925925925,NA
02061,Plymouth County,MA,54.32098765432099,NA
02081,Norfolk County,MA,14.638447971781304,NA
02116,Suffolk County,MA,33.33333333333333,NA
02118,Suffolk County,MA,24.514991181657848,NA
02119,Suffolk County,MA,0.1763668430335097,NA
02129,Suffolk County,MA,92.9453262786596,NA
02139,Middlesex County,MA,0.5291005291005291,NA
02143,Middlesex County,MA,45.85537918871252,NA
02148,Middlesex County,MA,NA,0.37453183520599254
02151,Suffolk County,MA,0.3527336860670194,NA
02180,Middlesex County,MA,29.453262786596117,NA
02188,Norfolk County,MA,67.3721340388007,NA
02302,Plymouth County,MA,0.8818342151675485,37.07865168539326
02351,Plymouth County,MA,35.978835978835974,NA
02364,Plymouth County,MA,NA,56.92883895131086
02375,Bristol County,MA,NA,74.53183520599251
02382,Plymouth County,MA,77.77777777777779,NA
02446,Norfolk County,MA,12.522045855379188,NA
02453,Middlesex County,MA,53.79188712522046,NA
02472,Middlesex County,MA,NA,9.737827715355806
02476,Middlesex County,MA,25.396825396825395,NA
02478,Middlesex County,MA,87.12522045855378,NA
02481,Norfolk County,MA,71.42857142857143,NA
02492,Norfolk County,MA,17.989417989417987,NA
02632,Barnstable County,MA,37.56613756613756,NA
02703,Bristol County,MA,NA,2.6217228464419478
02740,Bristol County,MA,0,NA
48038,Macomb County,MI,NA,7.865168539325842
48047,Macomb County,MI,30.864197530864196,NA
48065,Macomb County,MI,62.43386243386243,NA
48071,Oakland County,MI,46.03174603174603,NA
48085,Oakland County,MI,20.458553791887123,NA
48089,Macomb County,MI,5.82010582010582,NA
48092,Macomb County,MI,NA,25.842696629213485
48103,Washtenaw County,MI,32.27513227513227,NA
48135,Wayne County,MI,15.520282186948853,NA
48150,Wayne County,MI,NA,25.0936329588015
48154,Wayne County,MI,NA,10.486891385767791
48161,Monroe County,MI,NA,84.26966292134831
48162,Monroe County,MI,NA,42.69662921348314
48174,Wayne County,MI,85.3615520282187,NA
48180,Wayne County,MI,NA,4.868913857677903
48183,Wayne County,MI,78.83597883597884,NA
48185,Wayne County,MI,16.75485008818342,NA
48192,Wayne County,MI,38.2716049382716,NA
48197,Washtenaw County,MI,NA,5.2434456928838955
48198,Washtenaw County,MI,NA,81.27340823970037
48237,Oakland County,MI,13.403880070546737,NA
48304,Oakland County,MI,97.00176366843033,NA
48317,Macomb County,MI,NA,22.09737827715356
48323,Oakland County,MI,NA,69.66292134831461
48331,Oakland County,MI,77.95414462081128,NA
48336,Oakland County,MI,NA,92.13483146067416
48353,Livingston County,MI,NA,77.15355805243446
48357,Oakland County,MI,85.89065255731923,NA
48362,Oakland County,MI,60.317460317460316,NA
48412,Lapeer County,MI,84.12698412698413,NA
48415,Saginaw County,MI,95.41446208112875,NA
48446,Lapeer County,MI,9.876543209876543,NA
48473,Genesee County,MI,30.335097001763668,NA
48507,Genesee County,MI,6.878306878306878,NA
48602,Saginaw County,MI,NA,14.606741573033707
48612,Gladwin County,MI,NA,89.51310861423221
48623,Saginaw County,MI,30.687830687830687,NA
48640,Midland County,MI,23.456790123456788,NA
48821,Eaton County,MI,NA,77.90262172284645
48823,Ingham County,MI,NA,29.588014981273407
48827,Eaton County,MI,29.80599647266314,NA
48837,Eaton County,MI,44.091710758377424,NA
48840,Ingham County,MI,89.77072310405644,NA
48858,Isabella County,MI,NA,50.56179775280899
48879,Clinton County,MI,NA,57.67790262172284
48893,Isabella County,MI,90.47619047619048,NA
49008,Kalamazoo County,MI,NA,87.64044943820225
49014,Calhoun County,MI,54.85008818342152,NA
49316,Kent County,MI,65.4320987654321,NA
49441,Muskegon County,MI,NA,27.715355805243448
49444,Muskegon County,MI,6.701940035273369,NA
49464,Ottawa County,MI,39.50617283950617,NA
49735,Otsego County,MI,NA,20.59925093632959
49829,Delta County,MI,21.869488536155202,NA
49854,Schoolcraft County,MI,93.29805996472663,NA
49855,Marquette County,MI,NA,18.352059925093634
55025,Washington County,MN,NA,58.052434456928836
55063,Pine County,MN,NA,60.2996254681648
55106,Ramsey County,MN,5.467372134038801,NA
55315,Carver County,MN,97.70723104056437,NA
55345,Hennepin County,MN,NA,66.29213483146067
55350,McLeod County,MN,NA,31.835205992509362
55379,Scott County,MN,17.28395061728395,NA
55407,Hennepin County,MN,17.813051146384478,NA
55409,Hennepin County,MN,59.9647266313933,NA
55806,St. Louis County,MN,47.08994708994709,NA
55912,Mower County,MN,NA,44.19475655430712
56057,Le Sueur County,MN,100,NA
56470,Hubbard County,MN,NA,65.91760299625467
56601,Beltrami County,MN,NA,4.119850187265917
56751,Roseau County,MN,88.88888888888889,NA
39083,Copiah County,MS,65.07936507936508,NA
39120,Adams County,MS,29.100529100529098,NA
39437,Jones County,MS,48.85361552028218,NA
39452,George County,MS,16.93121693121693,NA
63017,St. Louis County,MO,NA,58.80149812734082
63026,St. Louis County,MO,23.985890652557316,NA
63031,St. Louis County,MO,37.03703703703704,14.981273408239701
63052,Jefferson County,MO,40.38800705467372,NA
63077,Franklin County,MO,57.67195767195767,NA
63084,Franklin County,MO,41.622574955908284,NA
63090,Franklin County,MO,62.43386243386243,NA
63106,St. Louis city,MO,62.08112874779541,NA
63143,St. Louis County,MO,75.66137566137566,NA
63144,St. Louis County,MO,93.65079365079364,NA
63376,St. Charles County,MO,NA,19.101123595505616
63385,St. Charles County,MO,10.934744268077601,NA
63775,Perry County,MO,NA,64.41947565543072
64029,Jackson County,MO,26.807760141093475,NA
64030,Jackson County,MO,NA,48.68913857677903
64064,Jackson County,MO,67.1957671957672,NA
64079,Platte County,MO,71.60493827160494,NA
64082,Jackson County,MO,78.3068783068783,NA
64111,Jackson County,MO,77.07231040564373,NA
64112,Jackson County,MO,62.96296296296296,NA
64133,Jackson County,MO,3.3509700176366843,NA
64154,Platte County,MO,60.49382716049383,NA
64155,Clay County,MO,59.082892416225754,NA
64507,Buchanan County,MO,61.552028218694886,NA
64747,Cass County,MO,NA,96.25468164794007
65301,Pettis County,MO,2.9982363315696645,NA
65721,Christian County,MO,70.37037037037037,NA
59101,Yellowstone County,MT,56.613756613756614,NA
59715,Gallatin County,MT,39.682539682539684,NA
59716,Gallatin County,MT,97.17813051146385,NA
59759,Jefferson County,MT,NA,95.50561797752809
68510,Lancaster County,NE,96.64902998236332,NA
89118,Clark County,NV,NA,83.52059925093633
89406,Churchill County,NV,28.74779541446208,NA
03031,Hillsborough County,NH,88.53615520282186,NA
03036,Rockingham County,NH,96.11992945326278,NA
03103,Hillsborough County,NH,4.5855379188712515,NA
07006,Essex County,NJ,47.97178130511463,NA
07010,Bergen County,NJ,NA,57.30337078651685
07016,Union County,NJ,NA,93.63295880149812
07044,Essex County,NJ,83.42151675485009,NA
07060,Union County,NJ,5.291005291005291,NA
07087,Hudson County,NJ,70.01763668430335,NA
07204,Union County,NJ,99.11816578483244,NA
07457,Morris County,NJ,NA,100
07704,Monmouth County,NJ,NA,97.00374531835206
07728,Monmouth County,NJ,10.405643738977071,NA
07735,Monmouth County,NJ,67.01940035273368,NA
07930,Morris County,NJ,96.82539682539682,NA
07940,Morris County,NJ,74.07407407407408,NA
08003,Camden County,NJ,91.18165784832452,NA
08009,Camden County,NJ,NA,55.0561797752809
08035,Camden County,NJ,91.005291005291,NA
08054,Burlington County,NJ,43.56261022927689,NA
08065,Burlington County,NJ,NA,80.14981273408239
08077,Burlington County,NJ,NA,92.50936329588015
08098,Salem County,NJ,86.24338624338624,NA
08108,Camden County,NJ,74.25044091710758,NA
08360,Cumberland County,NJ,NA,76.02996254681648
08820,Middlesex County,NJ,NA,28.08988764044944
87104,Bernalillo County,NM,NA,95.13108614232209
87122,Bernalillo County,NM,77.42504409171076,NA
87124,Sandoval County,NM,7.583774250440917,NA
87413,San Juan County,NM,39.85890652557319,NA
88011,Doa Ana County,NM,40.917107583774246,NA
10002,New York County,NY,2.6455026455026456,NA
10025,New York County,NY,NA,3.3707865168539324
10029,New York County,NY,NA,0.7490636704119851
10453,Bronx County,NY,NA,1.4981273408239701
10459,Bronx County,NY,4.056437389770723,NA
10461,Bronx County,NY,NA,49.43820224719101
10462,Bronx County,NY,35.09700176366843,NA
10901,Rockland County,NY,76.3668430335097,NA
10990,Orange County,NY,79.01234567901234,NA
11010,Nassau County,NY,NA,60.67415730337079
11207,Kings County,NY,NA,2.247191011235955
11224,Kings County,NY,12.16931216931217,NA
11730,Suffolk County,NY,84.47971781305115,NA
11753,Nassau County,NY,NA,88.01498127340824
11756,Nassau County,NY,NA,95.88014981273409
11788,Suffolk County,NY,56.08465608465608,NA
12078,Fulton County,NY,3.527336860670194,NA
12986,Franklin County,NY,83.24514991181657,NA
13031,Onondaga County,NY,31.040564373897706,NA
13040,Cortland County,NY,76.71957671957672,NA
13045,Cortland County,NY,NA,13.108614232209737
13069,Oswego County,NY,4.232804232804233,NA
13148,Seneca County,NY,44.44444444444444,NA
13365,Herkimer County,NY,NA,34.08239700374532
13748,Broome County,NY,98.4126984126984,83.14606741573034
13790,Broome County,NY,76.01410934744268,NA
13811,Tioga County,NY,NA,86.51685393258427
13820,Otsego County,NY,NA,9.363295880149813
14001,Erie County,NY,78.65961199294532,NA
14004,Erie County,NY,48.500881834215164,NA
14036,Genesee County,NY,NA,85.76779026217228
14075,Erie County,NY,NA,8.98876404494382
14120,Niagara County,NY,NA,35.580524344569284
14220,Erie County,NY,9.171075837742503,NA
14433,Wayne County,NY,45.67901234567901,NA
14450,Monroe County,NY,53.43915343915344,NA
14456,Ontario County,NY,NA,7.490636704119851
14482,Genesee County,NY,NA,65.1685393258427
14526,Monroe County,NY,71.0758377425044,NA
14534,Monroe County,NY,NA,4.49438202247191
14559,Monroe County,NY,NA,23.595505617977526
14564,Ontario County,NY,12.345679012345679,18.726591760299627
14580,Monroe County,NY,0.7054673721340388,NA
14586,Monroe County,NY,NA,59.55056179775281
14589,Wayne County,NY,NA,70.4119850187266
14609,Monroe County,NY,NA,2.9962546816479403
14617,Monroe County,NY,35.44973544973545,NA
14618,Monroe County,NY,11.11111111111111,NA
14701,Chautauqua County,NY,22.39858906525573,NA
14750,Chautauqua County,NY,74.42680776014109,NA
14810,Steuben County,NY,NA,44.9438202247191
14837,Yates County,NY,88.00705467372134,NA
27106,Forsyth County,NC,29.629629629629626,NA
27127,Forsyth County,NC,NA,7.116104868913857
27325,Moore County,NC,86.59611992945327,NA
27455,Guilford County,NC,NA,47.940074906367045
27516,Orange County,NC,NA,15.355805243445692
27517,Orange County,NC,41.7989417989418,NA
27520,Johnston County,NC,21.516754850088184,NA
27529,Wake County,NC,15.873015873015872,NA
27544,Vance County,NC,NA,97.37827715355806
27604,Wake County,NC,21.693121693121693,NA
27609,Wake County,NC,NA,34.45692883895131
27701,Durham County,NC,36.33156966490299,NA
27704,Durham County,NC,7.936507936507936,NA
27707,Durham County,NC,8.289241622574956,NA
27712,Durham County,NC,56.96649029982363,NA
27713,Durham County,NC,43.91534391534391,NA
28023,Rowan County,NC,54.32098765432099,NA
28031,Mecklenburg County,NC,72.8395061728395,NA
28036,Mecklenburg County,NC,96.47266313932981,NA
28056,Gaston County,NC,91.35802469135803,NA
28083,Cabarrus County,NC,19.576719576719576,NA
28110,Union County,NC,14.814814814814813,NA
28150,Cleveland County,NC,NA,38.57677902621723
28208,Mecklenburg County,NC,NA,53.93258426966292
28216,Mecklenburg County,NC,NA,17.97752808988764
28602,Catawba County,NC,14.109347442680775,NA
28645,Caldwell County,NC,2.4691358024691357,NA
28721,Haywood County,NC,93.12169312169311,NA
28756,Polk County,NC,NA,98.87640449438202
28906,Cherokee County,NC,64.37389770723104,NA
58554,Morton County,ND,24.691358024691358,NA
58854,McKenzie County,ND,77.24867724867724,NA
43031,Licking County,OH,68.95943562610229,NA
43055,Licking County,OH,NA,3.7453183520599254
43065,Delaware County,OH,80.77601410934744,NA
43123,Franklin County,OH,49.91181657848324,NA
43130,Fairfield County,OH,1.5873015873015872,NA
43230,Franklin County,OH,52.38095238095239,NA
43545,Henry County,OH,NA,40.823970037453186
43613,Lucas County,OH,2.2927689594356258,NA
43617,Lucas County,OH,76.5432098765432,NA
43713,Belmont County,OH,73.01587301587301,NA
43725,Guernsey County,OH,10.052910052910052,NA
43910,Jefferson County,OH,75.48500881834215,NA
44017,Cuyahoga County,OH,24.33862433862434,NA
44024,Geauga County,OH,33.86243386243386,NA
44035,Lorain County,OH,6.349206349206349,NA
44039,Lorain County,OH,NA,5.992509363295881
44111,Cuyahoga County,OH,1.4109347442680775,NA
44123,Cuyahoga County,OH,18.165784832451497,NA
44124,Cuyahoga County,OH,44.97354497354497,NA
44125,Cuyahoga County,OH,1.0582010582010581,NA
44130,Cuyahoga County,OH,14.991181657848324,1.8726591760299627
44136,Cuyahoga County,OH,48.148148148148145,NA
44145,Cuyahoga County,OH,11.46384479717813,NA
44281,Medina County,OH,14.285714285714285,NA
44302,Summit County,OH,98.05996472663139,NA
44305,Summit County,OH,NA,37.453183520599254
44418,Trumbull County,OH,93.82716049382715,NA
44438,Trumbull County,OH,56.79012345679012,NA
44512,Mahoning County,OH,7.054673721340388,NA
44601,Stark County,OH,NA,11.610486891385769
44614,Stark County,OH,NA,62.172284644194754
44644,Carroll County,OH,NA,79.7752808988764
44805,Ashland County,OH,8.994708994708994,NA
44837,Huron County,OH,99.29453262786596,NA
44842,Ashland County,OH,94.00352733686067,NA
44883,Seneca County,OH,64.55026455026454,NA
45014,Butler County,OH,NA,20.973782771535582
45040,Warren County,OH,51.32275132275132,NA
45069,Butler County,OH,15.167548500881834,NA
45122,Clermont County,OH,60.670194003527335,NA
45177,Clinton County,OH,NA,62.546816479400746
45227,Hamilton County,OH,64.02116402116403,NA
45324,Greene County,OH,23.28042328042328,NA
45424,Montgomery County,OH,NA,13.48314606741573
45505,Clark County,OH,20.105820105820104,NA
45601,Ross County,OH,NA,0
45638,Lawrence County,OH,3.880070546737213,NA
45714,Washington County,OH,84.65608465608466,NA
45750,Washington County,OH,1.763668430335097,NA
45805,Allen County,OH,NA,28.46441947565543
45810,Hardin County,OH,81.48148148148148,NA
45833,Allen County,OH,49.2063492063492,NA
73034,Oklahoma County,OK,NA,16.853932584269664
73096,Custer County,OK,51.85185185185185,NA
73159,Oklahoma County,OK,32.98059964726631,NA
73737,Major County,OK,94.53262786596119,NA
97045,Clackamas County,OR,9.700176366843033,NA
97123,Washington County,OR,13.227513227513226,NA
97236,Multnomah County,OR,12.698412698412698,NA
97266,Multnomah County,OR,66.66666666666666,NA
97401,Lane County,OR,NA,63.29588014981273
97478,Lane County,OR,25.573192239858905,NA
97502,Jackson County,OR,NA,84.6441947565543
15010,Beaver County,PA,NA,29.213483146067414
15042,Beaver County,PA,NA,67.79026217228464
15102,Allegheny County,PA,NA,79.40074906367042
15108,Allegheny County,PA,27.86596119929453,NA
15126,Allegheny County,PA,81.12874779541445,NA
15133,Allegheny County,PA,NA,75.65543071161048
15147,Allegheny County,PA,53.61552028218695,NA
15218,Allegheny County,PA,NA,94.3820224719101
15238,Allegheny County,PA,NA,47.565543071161045
15317,Washington County,PA,85.18518518518519,NA
15342,Washington County,PA,76.89594356261023,NA
15668,Westmoreland County,PA,97.53086419753086,NA
15825,Jefferson County,PA,80.0705467372134,NA
16033,Butler County,PA,89.59435626102292,NA
16066,Butler County,PA,52.557319223985886,NA
16226,Armstrong County,PA,55.20282186948854,NA
16354,Crawford County,PA,75.83774250440916,NA
17007,Cumberland County,PA,NA,82.77153558052434
17020,Perry County,PA,68.60670194003528,NA
17042,Lebanon County,PA,NA,8.614232209737828
17057,Dauphin County,PA,11.64021164021164,NA
17225,Franklin County,PA,NA,49.063670411985015
17547,Lancaster County,PA,73.19223985890653,NA
17552,Lancaster County,PA,26.278659611992943,NA
17702,Lycoming County,PA,NA,90.2621722846442
17754,Lycoming County,PA,NA,86.14232209737828
17824,Northumberland County,PA,NA,85.0187265917603
17837,Union County,PA,93.47442680776014,NA
18017,Northampton County,PA,4.938271604938271,NA
18040,Northampton County,PA,95.76719576719577,NA
18064,Northampton County,PA,29.100529100529098,NA
18407,Lackawanna County,PA,35.273368606701936,NA
18702,Luzerne County,PA,5.64373897707231,NA
18810,Bradford County,PA,72.31040564373897,NA
18938,Bucks County,PA,83.77425044091711,NA
18951,Bucks County,PA,73.89770723104057,NA
19018,Delaware County,PA,NA,36.329588014981276
19025,Montgomery County,PA,83.5978835978836,NA
19036,Delaware County,PA,68.78306878306879,NA
19038,Montgomery County,PA,23.633156966490297,NA
19050,Delaware County,PA,19.047619047619047,NA
19053,Bucks County,PA,NA,34.831460674157306
19060,Delaware County,PA,NA,86.89138576779027
19064,Delaware County,PA,26.278659611992943,NA
19072,Montgomery County,PA,NA,55.430711610486895
19078,Delaware County,PA,51.67548500881834,NA
19083,Delaware County,PA,47.61904761904761,NA
19103,Philadelphia County,PA,74.77954144620811,NA
19119,Philadelphia County,PA,79.71781305114638,NA
19137,Philadelphia County,PA,51.85185185185185,NA
19139,Philadelphia County,PA,2.821869488536155,NA
19145,Philadelphia County,PA,19.929453262786595,NA
19335,Chester County,PA,36.68430335097001,NA
19454,Montgomery County,PA,30.511463844797177,NA
19526,Berks County,PA,NA,52.80898876404494
19606,Berks County,PA,7.4074074074074066,NA
02814,Providence County,RI,71.78130511463846,NA
02835,Newport County,RI,88.71252204585538,NA
02904,Providence County,RI,87.3015873015873,NA
02910,Providence County,RI,38.80070546737213,NA
29323,Spartanburg County,SC,69.66490299823633,NA
29349,Spartanburg County,SC,NA,22.846441947565545
29353,Union County,SC,NA,91.38576779026218
29464,Charleston County,SC,31.216931216931215,NA
29485,Dorchester County,SC,80.95238095238095,NA
29501,Florence County,SC,50.970017636684304,NA
29566,Horry County,SC,87.47795414462081,NA
29644,Greenville County,SC,NA,54.68164794007491
29681,Greenville County,SC,61.904761904761905,NA
57252,Grant County,SD,NA,80.89887640449437
37064,Williamson County,TN,90.29982363315696,NA
37067,Williamson County,TN,72.66313932980599,NA
37087,Wilson County,TN,11.28747795414462,NA
37138,Davidson County,TN,NA,50.56179775280899
37174,Williamson County,TN,36.507936507936506,NA
37367,Bledsoe County,TN,50.617283950617285,NA
37421,Hamilton County,TN,NA,29.962546816479403
37660,Sullivan County,TN,6.172839506172839,NA
37743,Greene County,TN,8.112874779541446,NA
37814,Hamblen County,TN,51.14638447971781,NA
37918,Knox County,TN,31.569664902998234,NA
38060,Fayette County,TN,79.8941798941799,NA
38363,Decatur County,TN,80.24691358024691,NA
75006,Dallas County,TX,33.50970017636684,NA
75024,Collin County,TX,47.44268077601411,NA
75040,Dallas County,TX,36.860670194003525,NA
75062,Dallas County,TX,NA,33.70786516853933
75081,Dallas County,TX,NA,46.81647940074906
75126,Kaufman County,TX,20.98765432098765,NA
75148,Henderson County,TX,NA,92.88389513108615
75209,Dallas County,TX,NA,82.02247191011236
75217,Dallas County,TX,NA,12.359550561797752
75602,Gregg County,TX,45.14991181657848,NA
76013,Tarrant County,TX,49.735449735449734,NA
76119,Tarrant County,TX,NA,11.235955056179774
76133,Tarrant County,TX,11.992945326278658,NA
76210,Denton County,TX,71.25220458553791,NA
76230,Montague County,TX,68.43033509700176,NA
76262,Denton County,TX,32.804232804232804,NA
76579,Bell County,TX,90.65255731922399,NA
76904,Tom Green County,TX,NA,89.8876404494382
77012,Harris County,TX,78.48324514991182,NA
77054,Harris County,TX,63.31569664902999,NA
77328,San Jacinto County,TX,64.72663139329806,NA
77423,Waller County,TX,76.19047619047619,NA
77514,Chambers County,TX,79.18871252204586,NA
77536,Harris County,TX,26.102292768959433,NA
77546,Galveston County,TX,16.57848324514991,NA
77550,Galveston County,TX,NA,17.60299625468165
77566,Brazoria County,TX,83.06878306878306,NA
77571,Harris County,TX,18.51851851851852,NA
77578,Brazoria County,TX,NA,72.65917602996255
77581,Brazoria County,TX,19.753086419753085,NA
77584,Brazoria County,TX,NA,22.09737827715356
77619,Jefferson County,TX,58.553791887125215,NA
78229,Bexar County,TX,40.21164021164021,NA
78233,Bexar County,TX,NA,51.31086142322098
78251,Bexar County,TX,42.504409171075835,NA
78254,Bexar County,TX,33.15696649029982,NA
78258,Bexar County,TX,52.733686067019406,NA
78501,Hidalgo County,TX,35.626102292768955,NA
78665,Williamson County,TX,38.447971781305114,NA
78734,Travis County,TX,83.77425044091711,NA
79119,Randall County,TX,NA,73.78277153558052
79329,Lubbock County,TX,97.35449735449735,NA
79424,Lubbock County,TX,17.10758377425044,NA
79705,Midland County,TX,NA,35.2059925093633
79714,Andrews County,TX,42.857142857142854,NA
79904,El Paso County,TX,51.49911816578483,NA
84015,Davis County,UT,13.932980599647266,NA
84040,Davis County,UT,91.53439153439153,NA
84041,Davis County,UT,25.044091710758376,NA
84062,Utah County,UT,43.386243386243386,NA
84070,Salt Lake County,UT,38.095238095238095,NA
84106,Salt Lake County,UT,23.10405643738977,NA
84121,Salt Lake County,UT,73.36860670194002,NA
84321,Cache County,UT,53.96825396825397,NA
84601,Utah County,UT,NA,74.90636704119851
05001,Windsor County,VT,NA,77.52808988764045
05301,Windham County,VT,NA,30.711610486891384
05602,Washington County,VT,86.41975308641975,NA
05676,Washington County,VT,81.30511463844798,NA
20124,Fairfax County,VA,82.18694885361552,NA
20170,Fairfax County,VA,50.79365079365079,NA
22041,Fairfax County,VA,55.908289241622576,NA
22102,Fairfax County,VA,61.19929453262787,NA
22124,Fairfax County,VA,74.95590828924162,NA
22201,Arlington County,VA,89.41798941798942,NA
22204,Arlington County,VA,18.871252204585538,NA
22207,Arlington County,VA,68.25396825396825,NA
22302,Alexandria city,VA,87.83068783068782,NA
22304,Alexandria city,VA,9.523809523809524,NA
22407,Spotsylvania County,VA,NA,19.850187265917604
22553,Spotsylvania County,VA,NA,61.79775280898876
22980,Waynesboro city,VA,41.269841269841265,6.741573033707865
23228,Henrico County,VA,NA,35.95505617977528
23503,Norfolk city,VA,NA,36.70411985018727
23666,Hampton city,VA,NA,13.857677902621724
24540,Danville city,VA,NA,55.80524344569289
98006,King County,WA,44.26807760141093,NA
98026,Snohomish County,WA,NA,32.58426966292135
98056,King County,WA,42.68077601410935,NA
98103,King County,WA,34.74426807760141,NA
98122,King County,WA,NA,40.44943820224719
98270,Snohomish County,WA,NA,31.46067415730337
98275,Snohomish County,WA,58.377425044091716,NA
98312,Kitsap County,WA,NA,53.558052434456926
98362,Clallam County,WA,NA,10.861423220973784
98390,Pierce County,WA,NA,67.41573033707866
98503,Thurston County,WA,54.673721340388006,NA
98506,Thurston County,WA,62.257495590828924,NA
98513,Thurston County,WA,NA,78.65168539325843
99037,Spokane County,WA,84.30335097001763,88.76404494382022
99354,Benton County,WA,NA,73.03370786516854
25276,Roane County,WV,NA,63.670411985018724
25302,Kanawha County,WV,42.32804232804233,NA
25526,Putnam County,WV,25.925925925925924,NA
26062,Hancock County,WV,7.760141093474426,NA
26104,Wood County,WV,NA,26.591760299625467
26554,Marion County,WV,42.151675485008816,NA
53115,Walworth County,WI,92.7689594356261,NA
53158,Kenosha County,WI,13.580246913580247,NA
53202,Milwaukee County,WI,NA,43.07116104868914
53209,Milwaukee County,WI,2.1164021164021163,NA
53228,Milwaukee County,WI,57.84832451499118,NA
53402,Racine County,WI,4.409171075837742,NA
53511,Rock County,WI,11.816578483245149,NA
53532,Dane County,WI,NA,91.76029962546816
53959,Sauk County,WI,NA,89.13857677902621
54220,Manitowoc County,WI,82.71604938271605,NA
54665,Vernon County,WI,NA,61.04868913857678
54669,La Crosse County,WI,NA,82.39700374531836
