ZipCode,county,state,Youth,Pediatric,Adult,Retirement,Geriatric
35016,Marshall County,AL,NA,NA,56.88800792864222,NA,46.814964610717894
35020,Jefferson County,AL,NA,NA,NA,33.63329583802025,NA
35022,Jefferson County,AL,NA,NA,NA,NA,56.62285136501517
35023,Jefferson County,AL,NA,NA,NA,14.960629921259844,NA
35045,Chilton County,AL,NA,NA,65.41129831516352,NA,77.65419615773509
35080,Shelby County,AL,NA,NA,NA,76.15298087739033,NA
35126,Jefferson County,AL,NA,52.05882352941177,NA,53.993250843644546,NA
35151,Talladega County,AL,NA,NA,NA,89.0888638920135,NA
35184,Bibb County,AL,NA,NA,78.98909811694747,NA,NA
35205,Jefferson County,AL,NA,NA,87.71060455896928,NA,NA
35206,Jefferson County,AL,NA,NA,NA,NA,85.74317492416583
35215,Jefferson County,AL,NA,NA,9.613478691774034,NA,NA
35216,Jefferson County,AL,NA,NA,58.47373637264618,53.430821147356575,NA
35242,Shelby County,AL,NA,NA,81.76412289395441,NA,NA
35243,Jefferson County,AL,50.21786492374728,NA,NA,NA,NA
35401,Tuscaloosa County,AL,NA,NA,NA,NA,94.74216380182003
35404,Tuscaloosa County,AL,NA,NA,16.650148662041627,NA,NA
35442,Pickens County,AL,NA,NA,NA,NA,93.83215369059657
35453,Tuscaloosa County,AL,NA,NA,NA,71.54105736782903,NA
35475,Tuscaloosa County,AL,NA,NA,NA,NA,75.83417593528817
35504,Walker County,AL,NA,NA,72.8444003964321,NA,NA
35549,Walker County,AL,NA,NA,NA,96.8503937007874,NA
35555,Fayette County,AL,NA,NA,68.48364717542121,NA,NA
35563,Marion County,AL,NA,NA,90.48562933597621,NA,NA
35611,Limestone County,AL,NA,NA,26.660059464816648,NA,NA
35630,Lauderdale County,AL,NA,NA,32.70564915758176,NA,NA
35633,Lauderdale County,AL,NA,NA,NA,64.1169853768279,NA
35640,Morgan County,AL,21.0239651416122,NA,NA,40.26996625421822,NA
35673,Morgan County,AL,NA,NA,72.15064420218039,NA,NA
35749,Madison County,AL,NA,NA,54.013875123885036,NA,NA
35758,Madison County,AL,NA,NA,41.427155599603566,42.1822272215973,NA
35810,Madison County,AL,NA,44.11764705882353,NA,NA,NA
35904,Etowah County,AL,NA,NA,77.89890981169475,NA,NA
35957,Marshall County,AL,NA,NA,NA,61.52980877390326,NA
36067,Autauga County,AL,NA,NA,NA,52.08098987626547,NA
36109,Montgomery County,AL,NA,NA,53.617443012884046,NA,45.5005055611729
36110,Montgomery County,AL,NA,NA,59.46481665014866,NA,NA
36116,Montgomery County,AL,18.30065359477124,NA,NA,NA,NA
36203,Calhoun County,AL,NA,NA,NA,95.61304836895388,75.22750252780587
36206,Calhoun County,AL,54.46623093681917,NA,NA,NA,79.17087967644085
36250,Calhoun County,AL,73.8562091503268,NA,NA,NA,NA
36305,Houston County,AL,NA,NA,NA,68.95388076490438,65.82406471183013
36521,Mobile County,AL,94.11764705882352,NA,NA,NA,NA
36526,Baldwin County,AL,31.590413943355124,NA,NA,43.532058492688414,NA
36571,Mobile County,AL,NA,NA,72.54707631318136,NA,86.45096056622852
36609,Mobile County,AL,50.21786492374728,NA,62.83448959365708,NA,NA
36701,Dallas County,AL,NA,NA,NA,33.74578177727784,NA
36784,Clarke County,AL,83.44226579520696,NA,NA,NA,NA
36801,Lee County,AL,NA,NA,64.12289395441032,NA,NA
36863,Chambers County,AL,NA,NA,NA,70.07874015748031,NA
36867,Russell County,AL,NA,NA,NA,88.75140607424072,NA
36870,Lee County,AL,NA,NA,81.36769078295342,NA,NA
99503,Anchorage Municipality,AK,NA,82.35294117647058,NA,77.05286839145107,NA
99504,Anchorage Municipality,AK,12.418300653594772,NA,NA,NA,NA
99508,Anchorage Municipality,AK,NA,NA,NA,41.61979752530934,NA
99515,Anchorage Municipality,AK,NA,NA,NA,78.177727784027,NA
99518,Anchorage Municipality,AK,NA,NA,78.98909811694747,NA,NA
99603,Kenai Peninsula Borough,AK,NA,NA,NA,60.404949381327334,NA
99645,Matanuska-Susitna Borough,AK,15.14161220043573,NA,NA,NA,NA
99901,Ketchikan Gateway Borough,AK,NA,NA,NA,56.58042744656918,NA
85007,Maricopa County,AZ,65.359477124183,NA,NA,NA,NA
85009,Maricopa County,AZ,60.130718954248366,NA,NA,NA,NA
85013,Maricopa County,AZ,NA,NA,NA,70.52868391451068,NA
85014,Maricopa County,AZ,NA,NA,NA,61.64229471316085,NA
85015,Maricopa County,AZ,44.88017429193899,NA,NA,NA,NA
85017,Maricopa County,AZ,15.468409586056644,NA,NA,NA,NA
85019,Maricopa County,AZ,NA,NA,NA,72.55343082114736,NA
85020,Maricopa County,AZ,NA,NA,NA,38.35770528683914,NA
85021,Maricopa County,AZ,NA,NA,NA,NA,44.590495449949444
85023,Maricopa County,AZ,NA,NA,NA,NA,64.61071789686552
85027,Maricopa County,AZ,NA,NA,NA,NA,69.05965621840244
85029,Maricopa County,AZ,33.66013071895425,NA,NA,NA,NA
85031,Maricopa County,AZ,24.727668845315904,NA,NA,NA,NA
85032,Maricopa County,AZ,NA,NA,15.95639246778989,NA,NA
85033,Maricopa County,AZ,84.53159041394336,NA,17.046580773042617,NA,NA
85035,Maricopa County,AZ,NA,NA,NA,NA,98.38220424671385
85040,Maricopa County,AZ,NA,13.529411764705882,NA,NA,NA
85041,Maricopa County,AZ,NA,NA,9.514370664023787,NA,NA
85042,Maricopa County,AZ,24.29193899782135,NA,NA,60.629921259842526,NA
85043,Maricopa County,AZ,38.12636165577342,NA,NA,NA,NA
85050,Maricopa County,AZ,NA,NA,59.26660059464817,NA,NA
85085,Maricopa County,AZ,NA,86.76470588235294,NA,NA,NA
85119,Pinal County,AZ,NA,NA,NA,78.51518560179977,NA
85120,Pinal County,AZ,NA,NA,NA,39.14510686164229,27.098078867542974
85122,Pinal County,AZ,70.37037037037037,NA,NA,NA,NA
85143,Pinal County,AZ,NA,NA,NA,39.707536557930254,NA
85201,Maricopa County,AZ,NA,24.11764705882353,NA,NA,35.49039433771487
85205,Maricopa County,AZ,NA,77.05882352941177,NA,NA,NA
85209,Maricopa County,AZ,NA,NA,65.51040634291377,NA,NA
85213,Maricopa County,AZ,60.78431372549019,NA,NA,NA,NA
85233,Maricopa County,AZ,43.4640522875817,NA,74.23191278493559,NA,NA
85251,Maricopa County,AZ,NA,NA,43.60753221010902,NA,32.96258847320526
85257,Maricopa County,AZ,72.98474945533769,NA,NA,NA,NA
85259,Maricopa County,AZ,NA,NA,NA,NA,53.48837209302325
85281,Maricopa County,AZ,NA,NA,37.85926660059465,NA,NA
85297,Maricopa County,AZ,61.43790849673203,NA,NA,NA,NA
85302,Maricopa County,AZ,33.33333333333333,NA,NA,NA,52.17391304347826
85331,Maricopa County,AZ,NA,NA,NA,NA,59.555106167846304
85338,Maricopa County,AZ,29.956427015250547,NA,NA,NA,NA
85339,Maricopa County,AZ,NA,NA,23.48860257680872,NA,NA
85345,Maricopa County,AZ,NA,NA,13.77601585728444,NA,NA
85350,Yuma County,AZ,48.03921568627451,NA,NA,NA,NA
85364,Yuma County,AZ,NA,NA,20.812685827552034,NA,NA
85365,Yuma County,AZ,NA,NA,30.22794846382557,NA,NA
85367,Yuma County,AZ,NA,NA,94.74727452923688,NA,74.01415571284126
85374,Maricopa County,AZ,NA,79.41176470588235,51.238850346878095,NA,NA
85392,Maricopa County,AZ,NA,NA,NA,53.655793025871766,NA
85395,Maricopa County,AZ,NA,NA,95.44103072348861,79.07761529808775,NA
85614,Pima County,AZ,NA,NA,NA,20.697412823397077,NA
85629,Pima County,AZ,NA,NA,NA,NA,82.10313447927199
85635,Cochise County,AZ,45.53376906318083,NA,NA,NA,NA
85643,Cochise County,AZ,NA,NA,88.800792864222,NA,NA
85653,Pima County,AZ,NA,23.235294117647058,NA,NA,NA
85701,Pima County,AZ,57.29847494553377,NA,NA,NA,NA
85705,Pima County,AZ,29.520697167755994,NA,NA,NA,NA
85706,Pima County,AZ,18.30065359477124,NA,NA,NA,NA
85713,Pima County,AZ,NA,NA,NA,NA,83.51870576339738
85716,Pima County,AZ,NA,NA,53.716551040634286,NA,NA
85743,Pima County,AZ,NA,27.941176470588236,NA,NA,NA
85745,Pima County,AZ,NA,NA,26.461843409316156,NA,NA
85746,Pima County,AZ,NA,NA,NA,NA,46.71385237613751
85749,Pima County,AZ,NA,NA,NA,NA,96.56218402426694
85901,Navajo County,AZ,NA,62.05882352941177,NA,NA,NA
86001,Coconino County,AZ,3.9215686274509802,NA,22.59663032705649,NA,NA
86301,Yavapai County,AZ,NA,NA,NA,32.508436445444325,NA
86326,Yavapai County,AZ,22.984749455337692,NA,NA,NA,NA
86327,Yavapai County,AZ,NA,NA,NA,NA,43.377148634984835
86409,Mohave County,AZ,NA,NA,9.31615460852329,NA,NA
86440,Mohave County,AZ,88.99782135076254,NA,NA,NA,NA
71601,Jefferson County,AR,NA,NA,NA,61.30483689538808,NA
71603,Jefferson County,AR,54.35729847494554,NA,NA,NA,NA
71653,Chicot County,AR,NA,NA,NA,NA,92.01213346814964
71730,Union County,AR,NA,NA,NA,68.8413948256468,NA
71854,Miller County,AR,NA,NA,72.74529236868187,NA,NA
72002,Saline County,AR,NA,NA,NA,NA,64.1051567239636
72010,White County,AR,NA,NA,NA,85.15185601799774,NA
72023,Lonoke County,AR,NA,NA,NA,30.371203599550057,NA
72076,Pulaski County,AR,NA,NA,NA,NA,50.05055611729019
72104,Hot Spring County,AR,NA,NA,NA,63.892013498312714,NA
72116,Pulaski County,AR,NA,NA,74.72745292368683,NA,31.243680485338725
72117,Pulaski County,AR,NA,NA,57.77998017839445,NA,NA
72143,White County,AR,NA,NA,NA,NA,31.749241658240646
72160,Arkansas County,AR,NA,NA,NA,NA,64.81294236602629
72209,Pulaski County,AR,NA,NA,56.987115956392465,NA,NA
72211,Pulaski County,AR,NA,NA,NA,NA,52.37613751263903
72223,Pulaski County,AR,NA,NA,NA,NA,46.20829120323559
72227,Pulaski County,AR,NA,NA,75.42120911793855,NA,NA
72315,Mississippi County,AR,NA,NA,82.1605550049554,NA,NA
72404,Craighead County,AR,27.233115468409586,NA,NA,NA,NA
72450,Greene County,AR,NA,NA,NA,NA,26.59251769464105
72501,Independence County,AR,NA,NA,NA,28.008998875140605,NA
72529,Sharp County,AR,NA,NA,NA,95.83802024746907,NA
72543,Cleburne County,AR,NA,NA,NA,NA,49.54499494438827
72653,Baxter County,AR,NA,NA,76.80872150644203,NA,NA
72714,Benton County,AR,NA,NA,NA,NA,60.262891809909
72715,Benton County,AR,NA,NA,90.98116947472745,NA,19.514661274014156
72762,Washington County,AR,NA,NA,NA,NA,80.99089989888778
72764,Washington County,AR,NA,NA,40.53518334985134,NA,NA
72802,Pope County,AR,NA,NA,NA,NA,66.0262891809909
72834,Yell County,AR,NA,NA,NA,83.46456692913385,NA
72956,Crawford County,AR,NA,NA,NA,NA,45.39939332659252
90004,Los Angeles County,CA,NA,NA,NA,NA,46.00606673407482
90006,Los Angeles County,CA,78.43137254901961,NA,NA,63.554555680539934,NA
90011,Los Angeles County,CA,40.08714596949891,8.823529411764707,NA,NA,NA
90012,Los Angeles County,CA,NA,NA,NA,57.25534308211474,NA
90016,Los Angeles County,CA,NA,NA,NA,NA,79.77755308392315
90017,Los Angeles County,CA,NA,NA,95.93657086223985,NA,NA
90022,Los Angeles County,CA,NA,NA,NA,50.61867266591676,NA
90025,Los Angeles County,CA,NA,NA,61.24876114965312,NA,NA
90034,Los Angeles County,CA,91.50326797385621,NA,NA,NA,NA
90035,Los Angeles County,CA,67.75599128540306,NA,NA,NA,NA
90039,Los Angeles County,CA,NA,95,NA,NA,NA
90044,Los Angeles County,CA,NA,42.05882352941177,NA,NA,NA
90047,Los Angeles County,CA,NA,NA,NA,50.39370078740157,NA
90057,Los Angeles County,CA,NA,NA,41.823587710604556,NA,NA
90062,Los Angeles County,CA,NA,NA,NA,98.98762654668167,NA
90064,Los Angeles County,CA,NA,NA,NA,NA,22.04246713852376
90069,Los Angeles County,CA,NA,NA,NA,54.21822272215972,NA
90222,Los Angeles County,CA,NA,NA,NA,67.94150731158605,NA
90250,Los Angeles County,CA,NA,19.705882352941178,NA,NA,NA
90277,Los Angeles County,CA,NA,NA,NA,36.67041619797525,NA
90292,Los Angeles County,CA,NA,NA,NA,59.5050618672666,NA
90304,Los Angeles County,CA,NA,NA,90.48562933597621,NA,NA
90305,Los Angeles County,CA,NA,NA,94.54905847373637,NA,NA
90505,Los Angeles County,CA,NA,NA,84.73736372646185,NA,NA
90620,Orange County,CA,NA,NA,NA,40.49493813273341,NA
90630,Orange County,CA,73.8562091503268,NA,NA,NA,NA
90713,Los Angeles County,CA,NA,NA,88.40436075322101,NA,NA
90731,Los Angeles County,CA,21.459694989106755,NA,NA,NA,NA
90808,Los Angeles County,CA,13.943355119825709,NA,NA,NA,NA
90810,Los Angeles County,CA,53.05010893246187,NA,NA,NA,NA
90813,Los Angeles County,CA,NA,NA,NA,NA,71.89079878665319
91001,Los Angeles County,CA,NA,NA,NA,73.11586051743532,NA
91011,Los Angeles County,CA,NA,NA,NA,NA,66.12740141557128
91107,Los Angeles County,CA,NA,NA,80.2775024777007,NA,NA
91202,Los Angeles County,CA,NA,NA,NA,NA,62.28513650151668
91205,Los Angeles County,CA,NA,NA,NA,82.11473565804275,NA
91344,Los Angeles County,CA,NA,NA,NA,27.10911136107986,NA
91352,Los Angeles County,CA,NA,NA,NA,NA,60.06066734074823
91402,Los Angeles County,CA,NA,NA,28.74132804757185,NA,NA
91604,Los Angeles County,CA,51.9607843137255,NA,NA,NA,NA
91706,Los Angeles County,CA,NA,NA,NA,38.24521934758155,NA
91709,San Bernardino County,CA,77.8867102396514,NA,NA,80.31496062992126,NA
91724,Los Angeles County,CA,NA,NA,76.21407333994054,NA,NA
91732,Los Angeles County,CA,33.66013071895425,NA,NA,NA,27.502527805864506
91745,Los Angeles County,CA,NA,NA,70.46580773042616,NA,NA
91746,Los Angeles County,CA,NA,NA,NA,NA,75.83417593528817
91761,San Bernardino County,CA,NA,NA,NA,37.570303712035994,NA
91763,San Bernardino County,CA,NA,63.8235294117647,NA,NA,NA
91767,Los Angeles County,CA,NA,NA,NA,82.56467941507312,NA
91789,Los Angeles County,CA,NA,NA,84.8364717542121,NA,51.76946410515673
91901,San Diego County,CA,NA,NA,66.99702675916748,NA,NA
91913,San Diego County,CA,49.673202614379086,NA,NA,NA,NA
91977,San Diego County,CA,NA,NA,37.462834489593654,NA,NA
92007,San Diego County,CA,89.65141612200436,NA,NA,NA,NA
92014,San Diego County,CA,NA,NA,NA,84.58942632170978,NA
92020,San Diego County,CA,NA,75,NA,NA,NA
92021,San Diego County,CA,NA,NA,NA,13.948256467941508,NA
92024,San Diego County,CA,48.25708061002179,NA,NA,NA,NA
92037,San Diego County,CA,NA,NA,NA,55.118110236220474,NA
92058,San Diego County,CA,NA,64.41176470588236,NA,NA,NA
92065,San Diego County,CA,NA,NA,54.60852329038652,NA,NA
92071,San Diego County,CA,85.94771241830065,NA,NA,42.29471316085489,22.851365015166834
92082,San Diego County,CA,65.79520697167756,NA,NA,NA,NA
92084,San Diego County,CA,NA,NA,61.74430128840436,NA,NA
92103,San Diego County,CA,NA,NA,50.04955401387512,NA,NA
92109,San Diego County,CA,NA,NA,72.8444003964321,NA,NA
92111,San Diego County,CA,NA,NA,58.57284440039643,NA,NA
92115,San Diego County,CA,NA,NA,NA,46.9066366704162,NA
92117,San Diego County,CA,40.74074074074074,NA,NA,NA,NA
92211,Riverside County,CA,35.83877995642701,NA,NA,NA,NA
92220,Riverside County,CA,91.39433551198258,NA,NA,NA,NA
92223,Riverside County,CA,NA,NA,31.219028741328046,NA,NA
92227,Imperial County,CA,NA,NA,NA,61.86726659167604,NA
92231,Imperial County,CA,NA,NA,NA,NA,6.572295247724974
92236,Riverside County,CA,70.26143790849673,NA,NA,NA,NA
92240,Riverside County,CA,NA,45.588235294117645,NA,NA,NA
92243,Imperial County,CA,NA,20.588235294117645,NA,NA,NA
92250,Imperial County,CA,NA,72.35294117647058,NA,NA,NA
92253,Riverside County,CA,NA,NA,48.46382556987116,9.448818897637794,NA
92260,Riverside County,CA,NA,NA,NA,NA,11.526794742163801
92270,Riverside County,CA,NA,NA,NA,7.64904386951631,2.224469160768453
92274,Riverside County,CA,78.43137254901961,NA,NA,NA,NA
92314,San Bernardino County,CA,NA,NA,NA,NA,87.56319514661274
92325,San Bernardino County,CA,NA,NA,97.7205153617443,NA,NA
92335,San Bernardino County,CA,65.57734204793029,NA,NA,NA,NA
92344,San Bernardino County,CA,65.0326797385621,NA,NA,NA,NA
92373,San Bernardino County,CA,NA,94.11764705882352,NA,NA,NA
92374,San Bernardino County,CA,NA,NA,NA,NA,47.320525783619814
92376,San Bernardino County,CA,19.934640522875817,NA,NA,NA,NA
92399,San Bernardino County,CA,NA,NA,32.01189296333003,NA,NA
92509,Riverside County,CA,NA,NA,NA,NA,39.332659251769464
92530,Riverside County,CA,NA,43.8235294117647,NA,NA,NA
92543,Riverside County,CA,NA,NA,43.409316154608526,NA,NA
92563,Riverside County,CA,18.51851851851852,NA,NA,NA,41.354903943377145
92570,Riverside County,CA,NA,NA,45.88701684836472,79.19010123734533,NA
92571,Riverside County,CA,51.4161220043573,NA,NA,NA,NA
92592,Riverside County,CA,NA,NA,30.128840436075322,NA,NA
92595,Riverside County,CA,NA,NA,NA,66.70416197975253,NA
92604,Orange County,CA,NA,NA,82.25966303270566,NA,NA
92612,Orange County,CA,NA,NA,NA,NA,50.96056622851365
92625,Orange County,CA,NA,NA,92.46778989098117,NA,NA
92630,Orange County,CA,NA,NA,35.678889990089196,NA,NA
92647,Orange County,CA,34.20479302832244,NA,NA,NA,48.43276036400405
92649,Orange County,CA,77.8867102396514,NA,NA,NA,NA
92651,Orange County,CA,NA,NA,NA,51.293588301462314,NA
92653,Orange County,CA,45.20697167755991,NA,NA,NA,NA
92655,Orange County,CA,NA,NA,NA,NA,91.10212335692619
92657,Orange County,CA,98.80174291938998,NA,NA,NA,NA
92677,Orange County,CA,NA,NA,NA,44.99437570303712,NA
92683,Orange County,CA,31.154684095860567,NA,NA,20.359955005624297,NA
92703,Orange County,CA,NA,45.588235294117645,NA,NA,NA
92704,Orange County,CA,NA,NA,NA,NA,40.74823053589484
92801,Orange County,CA,NA,NA,35.87710604558969,NA,NA
92805,Orange County,CA,NA,NA,NA,46.344206974128234,NA
92807,Orange County,CA,NA,NA,NA,NA,41.86046511627907
92808,Orange County,CA,99.01960784313727,NA,NA,NA,NA
92821,Orange County,CA,47.82135076252723,NA,NA,NA,NA
92833,Orange County,CA,97.60348583877996,NA,NA,NA,NA
92843,Orange County,CA,NA,NA,NA,57.59280089988752,NA
92845,Orange County,CA,63.18082788671025,NA,NA,NA,NA
92867,Orange County,CA,NA,NA,NA,NA,29.92922143579373
92870,Orange County,CA,NA,NA,NA,24.9718785151856,14.459049544994945
92880,Riverside County,CA,NA,NA,24.08325074331021,NA,NA
92886,Orange County,CA,32.13507625272331,NA,NA,NA,NA
93001,Ventura County,CA,NA,33.23529411764706,NA,NA,NA
93003,Ventura County,CA,NA,NA,49.75222993062438,NA,NA
93010,Ventura County,CA,NA,NA,NA,NA,41.05156723963599
93012,Ventura County,CA,NA,NA,NA,NA,25.581395348837212
93023,Ventura County,CA,NA,NA,89.79187314172448,NA,NA
93030,Ventura County,CA,11.982570806100219,10.294117647058822,NA,22.722159730033745,NA
93033,Ventura County,CA,15.032679738562091,NA,NA,10.46119235095613,20.525783619817997
93035,Ventura County,CA,NA,NA,NA,NA,70.37411526794742
93036,Ventura County,CA,NA,NA,31.813676907829535,NA,NA
93041,Ventura County,CA,NA,NA,87.21506442021804,NA,NA
93060,Ventura County,CA,NA,NA,NA,95.72553430821146,NA
93065,Ventura County,CA,NA,NA,49.05847373637265,NA,NA
93221,Tulare County,CA,NA,83.82352941176471,NA,NA,NA
93250,Kern County,CA,NA,NA,NA,NA,98.685540950455
93274,Tulare County,CA,NA,NA,NA,19.460067491563553,23.458038422649143
93277,Tulare County,CA,NA,NA,NA,NA,29.221435793731043
93286,Tulare County,CA,NA,NA,NA,NA,96.05662285136502
93291,Tulare County,CA,32.02614379084967,NA,NA,NA,24.570273003033368
93304,Kern County,CA,NA,27.058823529411764,NA,NA,NA
93306,Kern County,CA,NA,NA,22.398414271555996,NA,NA
93308,Kern County,CA,NA,NA,NA,33.52080989876266,NA
93314,Kern County,CA,NA,NA,82.3587710604559,NA,NA
93405,San Luis Obispo County,CA,NA,NA,90.68384539147671,NA,NA
93420,San Luis Obispo County,CA,NA,NA,NA,NA,42.669362992922146
93422,San Luis Obispo County,CA,NA,NA,50.94152626362736,NA,NA
93436,Santa Barbara County,CA,9.041394335511981,NA,NA,NA,13.043478260869565
93446,San Luis Obispo County,CA,38.77995642701525,NA,28.14667988107037,NA,NA
93454,Santa Barbara County,CA,74.18300653594771,NA,NA,NA,NA
93458,Santa Barbara County,CA,57.84313725490197,NA,NA,NA,NA
93514,Inyo County,CA,NA,NA,NA,NA,84.32760364004045
93534,Los Angeles County,CA,42.0479302832244,NA,NA,NA,NA
93535,Los Angeles County,CA,NA,9.705882352941178,NA,NA,NA
93555,Kern County,CA,NA,NA,NA,21.034870641169853,NA
93561,Kern County,CA,60.348583877995644,NA,NA,NA,59.95955510616785
93591,Los Angeles County,CA,NA,NA,NA,98.4251968503937,NA
93610,Madera County,CA,NA,NA,NA,85.03937007874016,NA
93619,Fresno County,CA,20.588235294117645,NA,NA,NA,NA
93622,Fresno County,CA,83.87799564270153,NA,NA,NA,NA
93638,Madera County,CA,5.337690631808279,NA,NA,NA,NA
93703,Fresno County,CA,NA,NA,47.27452923686818,NA,NA
93705,Fresno County,CA,NA,NA,35.18334985133796,NA,NA
93706,Fresno County,CA,NA,NA,NA,44.43194600674916,NA
93722,Fresno County,CA,3.159041394335512,NA,NA,NA,NA
93727,Fresno County,CA,NA,NA,NA,27.44656917885264,NA
93901,Monterey County,CA,NA,NA,NA,NA,49.646107178968656
93906,Monterey County,CA,NA,NA,NA,NA,42.9726996966633
93927,Monterey County,CA,43.24618736383442,NA,NA,NA,NA
94002,San Mateo County,CA,NA,NA,NA,43.30708661417323,NA
94010,San Mateo County,CA,NA,NA,NA,38.47019122609674,NA
94014,San Mateo County,CA,NA,NA,48.66204162537166,NA,NA
94015,San Mateo County,CA,56.644880174291934,NA,NA,NA,NA
94025,San Mateo County,CA,NA,NA,81.07036669970267,NA,NA
94062,San Mateo County,CA,NA,NA,NA,81.88976377952756,NA
94063,San Mateo County,CA,75.59912854030502,18.823529411764707,NA,NA,NA
94066,San Mateo County,CA,NA,NA,NA,NA,11.324570273003033
94080,San Mateo County,CA,43.4640522875817,NA,NA,NA,NA
94085,Santa Clara County,CA,78.10457516339869,NA,NA,NA,NA
94086,Santa Clara County,CA,NA,NA,NA,93.7007874015748,NA
94102,San Francisco County,CA,NA,NA,7.928642220019821,NA,NA
94105,San Francisco County,CA,NA,NA,NA,94.60067491563554,NA
94109,San Francisco County,CA,NA,NA,NA,NA,3.640040444893832
94110,San Francisco County,CA,35.18518518518518,NA,NA,NA,NA
94112,San Francisco County,CA,NA,18.529411764705884,NA,5.849268841394826,2.8311425682507583
94114,San Francisco County,CA,NA,NA,51.83349851337958,NA,NA
94118,San Francisco County,CA,47.05882352941176,NA,NA,NA,NA
94121,San Francisco County,CA,NA,NA,NA,42.96962879640045,NA
94122,San Francisco County,CA,NA,NA,NA,22.49718785151856,5.5611729019211324
94124,San Francisco County,CA,NA,NA,NA,93.13835770528684,NA
94132,San Francisco County,CA,NA,NA,NA,NA,37.51263902932255
94134,San Francisco County,CA,NA,NA,NA,NA,79.67644084934277
94303,San Mateo County,CA,85.83877995642702,NA,NA,NA,NA
94401,San Mateo County,CA,NA,NA,NA,90.5511811023622,NA
94403,San Mateo County,CA,NA,NA,NA,18.560179977502813,64.30738119312437
94509,Contra Costa County,CA,NA,NA,23.88503468780971,49.831271091113614,NA
94513,Contra Costa County,CA,NA,NA,36.76907829534192,NA,NA
94530,Contra Costa County,CA,NA,92.94117647058823,NA,NA,NA
94531,Contra Costa County,CA,NA,NA,35.97621407333994,NA,NA
94538,Alameda County,CA,NA,NA,NA,NA,19.009100101112235
94544,Alameda County,CA,NA,NA,18.929633300297326,NA,NA
94550,Alameda County,CA,NA,NA,NA,39.932508436445445,NA
94555,Alameda County,CA,NA,NA,NA,91.67604049493814,NA
94566,Alameda County,CA,NA,99.11764705882354,NA,74.12823397075366,NA
94591,Solano County,CA,NA,NA,NA,NA,73.20525783619817
94596,Contra Costa County,CA,NA,NA,NA,84.4769403824522,NA
94599,Napa County,CA,NA,NA,NA,NA,65.21739130434783
94607,Alameda County,CA,NA,32.64705882352941,NA,NA,NA
94610,Alameda County,CA,76.36165577342048,NA,NA,NA,NA
94611,Alameda County,CA,77.34204793028321,NA,NA,NA,NA
94621,Alameda County,CA,NA,20.588235294117645,NA,NA,NA
94706,Alameda County,CA,NA,NA,92.56689791873141,NA,NA
94804,Contra Costa County,CA,63.50762527233116,80.88235294117648,NA,NA,36.5015166835187
94901,Marin County,CA,NA,NA,58.969276511397425,NA,NA
94930,Marin County,CA,94.33551198257081,NA,NA,NA,NA
94949,Marin County,CA,NA,NA,NA,NA,61.880687563195146
94960,Marin County,CA,NA,NA,97.62140733399404,NA,NA
94965,Marin County,CA,NA,NA,NA,NA,75.42972699696662
95035,Santa Clara County,CA,NA,NA,NA,NA,20.12133468149646
95037,Santa Clara County,CA,NA,63.8235294117647,NA,NA,NA
95111,Santa Clara County,CA,NA,NA,NA,NA,38.01820020222447
95122,Santa Clara County,CA,82.78867102396515,NA,NA,NA,NA
95123,Santa Clara County,CA,NA,NA,NA,NA,29.221435793731043
95125,Santa Clara County,CA,NA,NA,NA,22.272215973003377,NA
95127,Santa Clara County,CA,NA,NA,90.18830525272547,NA,NA
95135,Santa Clara County,CA,NA,NA,NA,NA,49.44388270980789
95204,San Joaquin County,CA,NA,NA,NA,NA,68.14964610717897
95205,San Joaquin County,CA,NA,58.82352941176471,NA,NA,NA
95207,San Joaquin County,CA,NA,NA,NA,32.62092238470191,NA
95240,San Joaquin County,CA,20.152505446623092,NA,NA,49.9437570303712,NA
95301,Merced County,CA,NA,NA,NA,NA,71.28412537917089
95336,San Joaquin County,CA,NA,NA,81.26858275520317,NA,NA
95340,Merced County,CA,NA,NA,NA,NA,40.04044489383215
95348,Merced County,CA,45.751633986928105,NA,87.80971258671953,NA,NA
95355,Stanislaus County,CA,NA,NA,NA,NA,24.064711830131447
95356,Stanislaus County,CA,37.36383442265795,NA,NA,NA,NA
95358,Stanislaus County,CA,NA,NA,31.516352824578792,NA,NA
95367,Stanislaus County,CA,73.74727668845316,NA,NA,NA,NA
95382,Stanislaus County,CA,NA,NA,25.867195242814667,NA,NA
95391,San Joaquin County,CA,85.62091503267973,NA,NA,NA,NA
95403,Sonoma County,CA,NA,NA,NA,NA,14.762386248736098
95404,Sonoma County,CA,67.21132897603485,NA,NA,NA,NA
95422,Lake County,CA,NA,NA,63.82556987115956,NA,NA
95482,Mendocino County,CA,NA,75.88235294117646,NA,NA,NA
95492,Sonoma County,CA,NA,NA,66.30327056491576,NA,NA
95503,Humboldt County,CA,NA,NA,NA,50.95613048368954,NA
95531,Del Norte County,CA,NA,NA,NA,55.455568053993254,NA
95608,Sacramento County,CA,45.53376906318083,NA,NA,NA,7.583417593528817
95610,Sacramento County,CA,NA,NA,NA,NA,41.25379170879677
95616,Yolo County,CA,NA,NA,NA,NA,40.849342770475225
95624,Sacramento County,CA,NA,NA,51.4370664023786,NA,NA
95630,Sacramento County,CA,NA,NA,27.750247770069375,NA,NA
95632,Sacramento County,CA,74.7276688453159,NA,NA,NA,NA
95650,Placer County,CA,NA,NA,NA,83.01462317210348,NA
95662,Sacramento County,CA,NA,NA,NA,67.71653543307087,NA
95685,Amador County,CA,NA,NA,NA,NA,96.46107178968654
95776,Yolo County,CA,NA,NA,NA,NA,79.474216380182
95814,Sacramento County,CA,NA,NA,NA,86.72665916760405,NA
95816,Sacramento County,CA,33.2244008714597,NA,NA,NA,NA
95818,Sacramento County,CA,71.67755991285402,NA,NA,75.59055118110236,NA
95822,Sacramento County,CA,NA,NA,NA,47.01912260967379,20.626895854398384
95823,Sacramento County,CA,NA,NA,13.577799801783943,NA,26.39029322548028
95828,Sacramento County,CA,NA,NA,NA,36.22047244094488,NA
95831,Sacramento County,CA,NA,NA,60.95143706640238,NA,NA
95838,Sacramento County,CA,NA,NA,NA,70.75365579302587,NA
95926,Butte County,CA,NA,33.23529411764706,NA,NA,NA
95928,Butte County,CA,NA,NA,36.27353815659068,NA,NA
95965,Butte County,CA,NA,28.823529411764703,19.326065411298316,NA,NA
95966,Butte County,CA,NA,NA,10.901883052527255,NA,NA
95969,Butte County,CA,NA,NA,NA,NA,23.86248736097068
95991,Sutter County,CA,NA,NA,NA,40.83239595050618,NA
96001,Shasta County,CA,41.61220043572985,NA,NA,51.96850393700787,44.08493427704752
96002,Shasta County,CA,61.00217864923747,NA,NA,NA,NA
96080,Tehama County,CA,NA,NA,46.679881070366704,NA,NA
96101,Modoc County,CA,NA,NA,91.97224975222993,NA,NA
80002,Jefferson County,CO,76.36165577342048,NA,NA,NA,NA
80003,Jefferson County,CO,NA,NA,49.157581764122895,NA,NA
80004,Jefferson County,CO,32.570806100217865,NA,NA,NA,NA
80010,Arapahoe County,CO,NA,NA,20.01982160555005,48.4814398200225,NA
80011,Arapahoe County,CO,NA,7.941176470588235,NA,38.02024746906636,43.98382204246714
80013,Arapahoe County,CO,58.496732026143796,47.94117647058824,NA,NA,NA
80015,Arapahoe County,CO,80.17429193899783,NA,NA,NA,NA
80016,Arapahoe County,CO,4.248366013071895,NA,NA,NA,NA
80018,Arapahoe County,CO,67.53812636165577,NA,NA,NA,NA
80022,Adams County,CO,50.65359477124183,NA,NA,NA,NA
80023,Broomfield County,CO,66.12200435729847,NA,NA,80.08998875140607,NA
80027,Boulder County,CO,34.20479302832244,NA,NA,NA,NA
80109,Douglas County,CO,NA,NA,NA,NA,90.69767441860465
80110,Arapahoe County,CO,61.6557734204793,NA,NA,NA,NA
80111,Arapahoe County,CO,NA,NA,NA,NA,89.38321536905966
80120,Arapahoe County,CO,NA,NA,66.005946481665,NA,NA
80121,Arapahoe County,CO,74.07407407407408,NA,NA,NA,NA
80124,Douglas County,CO,97.38562091503267,NA,NA,NA,NA
80128,Jefferson County,CO,NA,NA,62.537165510406346,NA,NA
80130,Douglas County,CO,83.66013071895425,NA,NA,NA,NA
80203,Denver County,CO,NA,NA,NA,NA,92.11324570273003
80204,Denver County,CO,NA,24.705882352941178,NA,NA,NA
80207,Denver County,CO,76.25272331154684,NA,NA,NA,NA
80210,Denver County,CO,80.93681917211329,NA,NA,NA,NA
80219,Denver County,CO,NA,NA,NA,23.28458942632171,NA
80224,Denver County,CO,69.06318082788671,NA,NA,NA,NA
80226,Jefferson County,CO,NA,44.41176470588235,53.320118929633296,NA,NA
80236,Denver County,CO,NA,56.76470588235294,NA,NA,NA
80237,Denver County,CO,NA,NA,76.21407333994054,NA,NA
80241,Adams County,CO,68.1917211328976,NA,NA,NA,NA
80247,Arapahoe County,CO,NA,NA,NA,80.53993250843644,NA
80301,Boulder County,CO,97.93028322440087,NA,NA,NA,NA
80302,Boulder County,CO,NA,NA,NA,72.55343082114736,NA
80303,Boulder County,CO,NA,NA,82.06144697720515,NA,NA
80439,Jefferson County,CO,NA,NA,NA,NA,90.09100101112234
80487,Routt County,CO,NA,NA,NA,NA,93.52881698685542
80504,Boulder County,CO,NA,NA,33.79583746283449,NA,NA
80513,Larimer County,CO,79.30283224400871,NA,NA,NA,84.42871587462083
80517,Larimer County,CO,NA,NA,NA,NA,33.16481294236603
80521,Larimer County,CO,68.51851851851852,87.3529411764706,NA,NA,74.51971688574316
80524,Larimer County,CO,22.657952069716774,NA,NA,29.471316085489313,41.96157735085945
80525,Larimer County,CO,NA,NA,16.45193260654113,NA,NA
80534,Weld County,CO,NA,NA,NA,74.9156355455568,NA
80537,Larimer County,CO,NA,NA,NA,NA,20.930232558139537
80602,Adams County,CO,7.080610021786492,NA,NA,NA,NA
80620,Weld County,CO,NA,NA,NA,72.77840269966255,92.41658240647118
80723,Morgan County,CO,NA,NA,NA,NA,83.01314459049544
80734,Phillips County,CO,NA,NA,96.82854311199208,NA,NA
80863,Teller County,CO,92.15686274509804,NA,NA,87.62654668166479,NA
80906,El Paso County,CO,NA,NA,65.11397423191279,NA,28.816986855409503
80915,El Paso County,CO,23.965141612200437,NA,NA,NA,85.9453993933266
80916,El Paso County,CO,NA,NA,39.04856293359762,90.77615298087738,NA
81001,Pueblo County,CO,NA,NA,23.389494549058472,NA,NA
81101,Alamosa County,CO,NA,NA,47.07631318136769,84.3644544431946,92.92214357937311
81303,La Plata County,CO,NA,NA,97.52229930624381,NA,NA
81321,Montezuma County,CO,NA,NA,NA,NA,78.96865520728008
81401,Montrose County,CO,NA,NA,52.32903865213082,88.18897637795276,27.603640040444894
81503,Mesa County,CO,NA,NA,NA,NA,83.21536905965623
81521,Mesa County,CO,NA,NA,NA,NA,72.3963599595551
81632,Eagle County,CO,NA,NA,NA,89.20134983127109,NA
06002,Hartford County,CT,72.33115468409585,NA,NA,NA,NA
06010,Hartford County,CT,NA,40,14.568880079286423,NA,NA
06033,Hartford County,CT,NA,77.64705882352942,NA,NA,NA
06037,Hartford County,CT,NA,NA,NA,63.32958380202475,NA
06040,Hartford County,CT,NA,19.11764705882353,NA,NA,NA
06051,Hartford County,CT,NA,NA,4.558969276511397,NA,NA
06085,Hartford County,CT,71.67755991285402,NA,NA,NA,NA
06088,Hartford County,CT,NA,NA,93.26065411298316,97.97525309336334,NA
06098,Litchfield County,CT,NA,NA,NA,NA,73.60970677451971
06106,Hartford County,CT,NA,NA,5.2527254707631315,NA,NA
06110,Hartford County,CT,NA,NA,83.05252725470763,NA,NA
06114,Hartford County,CT,NA,14.411764705882351,NA,NA,NA
06119,Hartford County,CT,NA,NA,NA,80.98987626546682,NA
06260,Windham County,CT,NA,NA,67.69078295341923,48.93138357705287,NA
06268,Tolland County,CT,95.64270152505446,NA,NA,NA,NA
06401,New Haven County,CT,NA,49.705882352941174,NA,NA,NA
06405,New Haven County,CT,68.51851851851852,NA,NA,NA,9.605662285136502
06410,New Haven County,CT,NA,NA,NA,NA,38.624873609706775
06415,New London County,CT,NA,NA,NA,73.00337457817773,NA
06416,Middlesex County,CT,NA,NA,73.73637264618435,NA,NA
06424,Middlesex County,CT,NA,NA,NA,NA,77.35085945399393
06450,New Haven County,CT,NA,NA,NA,NA,23.356926188068755
06457,Middlesex County,CT,16.44880174291939,NA,7.730426164519326,NA,NA
06472,New Haven County,CT,NA,NA,NA,NA,86.5520728008089
06478,New Haven County,CT,76.36165577342048,NA,NA,NA,NA
06484,Fairfield County,CT,NA,NA,NA,33.18335208098988,NA
06488,New Haven County,CT,NA,NA,NA,NA,10.920121334681497
06489,Hartford County,CT,NA,NA,31.91278493557978,NA,NA
06492,New Haven County,CT,NA,NA,NA,NA,5.156723963599596
06511,New Haven County,CT,8.932461873638346,NA,NA,NA,NA
06519,New Haven County,CT,NA,NA,75.81764122893955,NA,NA
06608,Fairfield County,CT,NA,NA,67.49256689791872,NA,NA
06614,Fairfield County,CT,NA,NA,NA,93.8132733408324,NA
06759,Litchfield County,CT,NA,NA,NA,NA,86.04651162790698
06770,New Haven County,CT,NA,NA,NA,27.221597300337457,NA
06776,Litchfield County,CT,NA,NA,NA,70.64116985376828,55.51061678463094
06790,Litchfield County,CT,16.55773420479303,NA,NA,NA,NA
06811,Fairfield County,CT,NA,NA,NA,29.696287964004497,NA
06830,Fairfield County,CT,NA,NA,66.798810703667,NA,NA
06897,Fairfield County,CT,NA,NA,NA,NA,56.4206268958544
06905,Fairfield County,CT,NA,NA,NA,NA,40.44489383215369
19702,New Castle County,DE,12.527233115468409,NA,NA,NA,NA
19707,New Castle County,DE,72.54901960784314,NA,NA,NA,NA
19711,New Castle County,DE,NA,NA,32.507433102081265,NA,NA
19801,New Castle County,DE,NA,NA,NA,90.32620922384702,NA
19805,New Castle County,DE,NA,NA,3.3696729435084243,NA,NA
19807,New Castle County,DE,74.40087145969498,NA,NA,NA,NA
19901,Kent County,DE,NA,NA,NA,19.572553430821145,NA
19904,Kent County,DE,NA,NA,14.469772051536175,NA,NA
19933,Sussex County,DE,NA,64.70588235294117,72.64618434093163,NA,NA
19943,Kent County,DE,NA,NA,94.15262636273538,NA,NA
19946,Kent County,DE,NA,NA,NA,99.10011248593926,NA
19968,Sussex County,DE,NA,NA,NA,79.30258717660293,NA
19971,Sussex County,DE,76.03485838779956,NA,NA,NA,NA
32025,Columbia County,FL,NA,NA,NA,NA,86.95652173913044
32034,Nassau County,FL,NA,NA,NA,NA,15.975733063700709
32040,Baker County,FL,NA,NA,NA,81.66479190101236,NA
32054,Union County,FL,65.359477124183,NA,NA,NA,NA
32060,Suwannee County,FL,41.830065359477125,NA,NA,NA,NA
32065,Clay County,FL,91.72113289760348,NA,NA,NA,NA
32068,Clay County,FL,NA,NA,NA,10.011248593925758,NA
32080,St. Johns County,FL,NA,NA,NA,24.746906636670417,NA
32084,St. Johns County,FL,NA,NA,NA,29.58380202474691,NA
32128,Volusia County,FL,NA,NA,NA,65.12935883014623,NA
32159,Lake County,FL,NA,82.94117647058825,NA,25.084364454443193,NA
32164,Flagler County,FL,NA,NA,36.868186323092175,NA,NA
32177,Putnam County,FL,82.13507625272331,NA,NA,NA,NA
32202,Duval County,FL,NA,NA,NA,90.10123734533182,NA
32207,Duval County,FL,NA,NA,NA,NA,53.28614762386249
32208,Duval County,FL,NA,NA,1.5857284440039643,NA,NA
32210,Duval County,FL,NA,NA,NA,NA,9.403437815975733
32211,Duval County,FL,NA,NA,NA,NA,72.69969666329625
32217,Duval County,FL,NA,NA,NA,50.506186726659166,63.19514661274014
32218,Duval County,FL,NA,NA,NA,3.0371203599550056,NA
32219,Duval County,FL,NA,NA,NA,NA,71.48634984833164
32225,Duval County,FL,NA,NA,30.921704658077303,NA,NA
32244,Duval County,FL,NA,NA,NA,NA,33.67037411526795
32256,Duval County,FL,NA,NA,34.886025768087215,NA,NA
32257,Duval County,FL,NA,NA,25.966303270564918,NA,NA
32277,Duval County,FL,NA,NA,NA,47.91901012373454,NA
32304,Leon County,FL,NA,NA,NA,90.21372328458943,NA
32309,Leon County,FL,NA,NA,NA,71.8785151856018,NA
32352,Gadsden County,FL,NA,NA,97.1258671952428,NA,NA
32401,Bay County,FL,NA,NA,40.93161546085233,31.946006749156357,NA
32404,Bay County,FL,NA,NA,NA,60.967379077615306,NA
32428,Washington County,FL,NA,NA,NA,NA,77.5530839231547
32448,Jackson County,FL,NA,NA,NA,83.57705286839146,NA
32455,Walton County,FL,NA,NA,85.72844400396433,NA,NA
32460,Jackson County,FL,NA,NA,NA,86.95163104611923,NA
32465,Gulf County,FL,NA,NA,NA,NA,94.8432760364004
32504,Escambia County,FL,NA,NA,NA,31.38357705286839,NA
32514,Escambia County,FL,NA,NA,NA,NA,37.41152679474216
32526,Escambia County,FL,64.4880174291939,30.88235294117647,NA,NA,NA
32534,Escambia County,FL,NA,NA,NA,NA,86.75429726996967
32539,Okaloosa County,FL,NA,NA,44.00396432111001,NA,NA
32541,Okaloosa County,FL,NA,NA,NA,74.80314960629921,NA
32561,Santa Rosa County,FL,NA,NA,NA,NA,76.64307381193125
32563,Santa Rosa County,FL,NA,NA,35.282457879088206,NA,NA
32566,Santa Rosa County,FL,NA,80.88235294117648,NA,23.509561304836897,NA
32570,Santa Rosa County,FL,NA,NA,11.10009910802775,NA,NA
32571,Santa Rosa County,FL,39.869281045751634,NA,NA,15.073115860517436,NA
32577,Escambia County,FL,71.35076252723312,NA,NA,NA,NA
32605,Alachua County,FL,NA,NA,30.426164519326065,NA,21.941354903943378
32606,Alachua County,FL,95.53376906318083,NA,NA,30.371203599550057,NA
32608,Alachua County,FL,4.57516339869281,NA,NA,NA,NA
32618,Alachua County,FL,NA,NA,99.20713577799802,NA,NA
32643,Alachua County,FL,NA,NA,55.99603567888999,NA,NA
32656,Clay County,FL,NA,NA,73.14172447968286,NA,NA
32701,Seminole County,FL,NA,97.6470588235294,NA,NA,NA
32703,Orange County,FL,27.5599128540305,NA,NA,NA,32.76036400404449
32713,Volusia County,FL,NA,NA,NA,NA,56.01617795753286
32714,Seminole County,FL,NA,NA,69.57383548067394,NA,NA
32730,Seminole County,FL,NA,NA,97.81962338949455,NA,NA
32738,Volusia County,FL,NA,NA,NA,NA,48.129423660262894
32757,Lake County,FL,NA,NA,NA,31.946006749156357,NA
32765,Seminole County,FL,46.73202614379085,NA,NA,NA,NA
32773,Seminole County,FL,NA,NA,NA,79.86501687289089,NA
32778,Lake County,FL,NA,NA,NA,28.683914510686165,NA
32779,Seminole County,FL,81.48148148148148,NA,NA,NA,NA
32808,Orange County,FL,NA,13.23529411764706,NA,NA,NA
32809,Orange County,FL,NA,NA,NA,87.96400449943758,NA
32822,Orange County,FL,NA,NA,NA,NA,29.828109201213348
32825,Orange County,FL,NA,8.235294117647058,NA,NA,NA
32839,Orange County,FL,NA,NA,28.344895936570865,42.857142857142854,NA
32904,Brevard County,FL,NA,94.11764705882352,NA,NA,NA
32909,Brevard County,FL,NA,NA,NA,35.65804274465692,NA
32927,Brevard County,FL,NA,NA,NA,NA,93.32659251769464
32931,Brevard County,FL,NA,NA,NA,69.62879640044994,35.99595551061678
32935,Brevard County,FL,NA,NA,55.599603567889,NA,20.424671385237612
32940,Brevard County,FL,NA,NA,NA,NA,5.358948432760364
32952,Brevard County,FL,NA,NA,NA,50.168728908886386,53.99393326592518
32962,Indian River County,FL,NA,NA,NA,NA,23.25581395348837
32966,Indian River County,FL,NA,NA,NA,NA,15.57128412537917
32968,Indian River County,FL,79.520697167756,NA,NA,NA,NA
33012,Miami-Dade County,FL,NA,NA,NA,62.99212598425197,3.5389282103134483
33015,Miami-Dade County,FL,23.638344226579523,NA,NA,NA,NA
33019,Broward County,FL,NA,NA,NA,NA,84.0242669362993
33020,Broward County,FL,48.80174291938998,NA,NA,NA,NA
33023,Broward County,FL,NA,NA,NA,NA,47.82608695652174
33024,Broward County,FL,NA,NA,NA,26.321709786276713,NA
33037,Monroe County,FL,NA,NA,NA,NA,75.6319514661274
33040,Monroe County,FL,NA,NA,77.00693756194251,NA,NA
33063,Broward County,FL,NA,NA,NA,NA,11.02123356926188
33064,Broward County,FL,NA,NA,NA,73.90326209223848,NA
33127,Miami-Dade County,FL,NA,NA,60.35678889990089,NA,NA
33130,Miami-Dade County,FL,NA,NA,NA,68.05399325084365,NA
33135,Miami-Dade County,FL,64.27015250544662,NA,NA,NA,NA
33139,Miami-Dade County,FL,NA,NA,NA,NA,10.616784630940344
33140,Miami-Dade County,FL,NA,NA,NA,71.09111361079866,NA
33141,Miami-Dade County,FL,NA,NA,NA,NA,26.39029322548028
33150,Miami-Dade County,FL,NA,NA,NA,89.31383577052868,NA
33155,Miami-Dade County,FL,NA,54.11764705882353,NA,NA,NA
33157,Miami-Dade County,FL,57.51633986928104,NA,NA,NA,NA
33168,Miami-Dade County,FL,52.17864923747276,NA,NA,NA,NA
33172,Miami-Dade County,FL,NA,NA,NA,63.77952755905512,NA
33186,Miami-Dade County,FL,NA,NA,NA,NA,24.3680485338726
33196,Miami-Dade County,FL,NA,32.05882352941177,NA,NA,NA
33304,Broward County,FL,NA,NA,NA,NA,78.46309403437816
33311,Broward County,FL,NA,17.352941176470587,NA,NA,NA
33313,Broward County,FL,NA,NA,NA,45.219347581552306,NA
33328,Broward County,FL,NA,NA,85.03468780971258,NA,NA
33334,Broward County,FL,NA,NA,57.4826560951437,NA,NA
33410,Palm Beach County,FL,NA,NA,NA,37.907761529808774,NA
33414,Palm Beach County,FL,NA,NA,48.66204162537166,NA,NA
33428,Palm Beach County,FL,NA,NA,NA,NA,16.380182002022245
33431,Palm Beach County,FL,NA,NA,NA,NA,58.03842264914054
33433,Palm Beach County,FL,NA,NA,NA,21.597300337457817,76.54196157735086
33437,Palm Beach County,FL,NA,NA,NA,NA,0.40444893832153694
33461,Palm Beach County,FL,NA,35.294117647058826,NA,NA,NA
33462,Palm Beach County,FL,NA,NA,NA,NA,41.6582406471183
33469,Palm Beach County,FL,NA,NA,NA,NA,25.985844287158745
33484,Palm Beach County,FL,NA,NA,NA,NA,1.9211324570273005
33496,Palm Beach County,FL,NA,NA,90.38652130822597,NA,NA
33510,Hillsborough County,FL,NA,NA,NA,NA,71.28412537917089
33523,Pasco County,FL,NA,NA,NA,61.30483689538808,NA
33540,Pasco County,FL,NA,NA,NA,NA,84.22649140546005
33558,Hillsborough County,FL,96.62309368191721,NA,NA,NA,NA
33572,Hillsborough County,FL,NA,99.41176470588235,NA,NA,NA
33578,Hillsborough County,FL,37.908496732026144,37.05882352941177,NA,NA,NA
33594,Hillsborough County,FL,NA,NA,NA,57.59280089988752,NA
33604,Hillsborough County,FL,11.437908496732026,NA,NA,NA,48.23053589484327
33607,Hillsborough County,FL,100,NA,NA,NA,NA
33614,Hillsborough County,FL,NA,NA,NA,NA,35.18705763397371
33701,Pinellas County,FL,NA,NA,NA,NA,58.341759352881695
33705,Pinellas County,FL,NA,NA,30.62438057482656,NA,NA
33712,Pinellas County,FL,46.73202614379085,NA,NA,NA,NA
33714,Pinellas County,FL,79.8474945533769,NA,NA,NA,NA
33755,Pinellas County,FL,53.59477124183007,NA,NA,NA,NA
33761,Pinellas County,FL,NA,NA,NA,NA,38.624873609706775
33765,Pinellas County,FL,68.30065359477125,NA,NA,NA,NA
33770,Pinellas County,FL,NA,NA,61.54608523290387,NA,NA
33771,Pinellas County,FL,NA,NA,77.700693756194255,NA,NA
33772,Pinellas County,FL,58.71459694989106,NA,NA,NA,NA
33773,Pinellas County,FL,NA,NA,NA,73.79077615298087,NA
33774,Pinellas County,FL,NA,NA,NA,NA,57.22952477249748
33776,Pinellas County,FL,NA,NA,NA,NA,74.72194135490395
33782,Pinellas County,FL,81.8082788671024,NA,NA,NA,NA
33812,Polk County,FL,NA,NA,NA,NA,96.8655207280081
33813,Polk County,FL,33.87799564270153,NA,NA,52.08098987626547,NA
33830,Polk County,FL,NA,NA,NA,49.043869516310465,NA
33873,Hardee County,FL,NA,NA,NA,NA,51.56723963599595
33898,Polk County,FL,NA,NA,61.64519326065411,NA,NA
33903,Lee County,FL,NA,NA,NA,35.20809898762655,NA
33907,Lee County,FL,99.45533769063181,NA,52.428146679881074,NA,NA
33912,Lee County,FL,NA,NA,86.02576808721506,NA,NA
33917,Lee County,FL,NA,NA,56.19425173439049,NA,47.62386248736097
33950,Charlotte County,FL,NA,NA,NA,33.85826771653544,NA
33955,Charlotte County,FL,NA,NA,94.44995044598612,NA,NA
34135,Lee County,FL,NA,NA,54.31119920713577,NA,NA
34208,Manatee County,FL,NA,74.41176470588235,NA,NA,61.67846309403438
34211,Manatee County,FL,NA,NA,NA,82.00224971878515,NA
34219,Manatee County,FL,NA,NA,NA,NA,70.07077856420626
34228,Sarasota County,FL,NA,NA,NA,92.01349831271091,NA
34229,Sarasota County,FL,NA,NA,NA,NA,31.951466127401417
34234,Sarasota County,FL,NA,40.588235294117645,44.20218037661051,NA,38.92821031344793
34237,Sarasota County,FL,NA,NA,NA,NA,69.66632962588474
34269,DeSoto County,FL,NA,NA,NA,96.51293588301463,NA
34275,Sarasota County,FL,NA,NA,NA,NA,14.762386248736098
34286,Sarasota County,FL,NA,NA,NA,62.31721034870641,NA
34476,Marion County,FL,NA,NA,NA,NA,24.974721941354904
34606,Hernando County,FL,NA,NA,46.778989098116945,NA,NA
34608,Hernando County,FL,NA,57.35294117647059,NA,NA,NA
34638,Pasco County,FL,NA,NA,72.34886025768087,NA,NA
34653,Pasco County,FL,NA,NA,31.318136769078297,NA,NA
34654,Pasco County,FL,61.22004357298475,NA,NA,NA,NA
34655,Pasco County,FL,NA,NA,NA,NA,53.791708796764404
34689,Pinellas County,FL,NA,NA,NA,NA,18.90798786653185
34698,Pinellas County,FL,NA,NA,NA,NA,16.076845298281093
34715,Lake County,FL,NA,NA,58.969276511397425,NA,NA
34748,Lake County,FL,NA,NA,22.101090188305253,10.348706411698538,NA
34759,Polk County,FL,4.793028322440087,NA,NA,NA,NA
34761,Orange County,FL,12.091503267973856,NA,NA,NA,NA
34785,Sumter County,FL,NA,NA,72.34886025768087,NA,NA
34957,Martin County,FL,NA,NA,NA,NA,70.37411526794742
34972,Okeechobee County,FL,NA,NA,62.93359762140733,NA,NA
34990,Martin County,FL,NA,NA,NA,NA,3.336703741152679
34996,Martin County,FL,NA,NA,NA,NA,24.469160768452983
34997,Martin County,FL,NA,NA,NA,NA,4.3478260869565215
30013,Rockdale County,GA,49.78213507625273,NA,NA,NA,61.071789686552066
30014,Newton County,GA,NA,NA,28.047571853320118,NA,NA
30017,Gwinnett County,GA,30.718954248366014,NA,NA,NA,NA
30030,DeKalb County,GA,NA,NA,NA,NA,78.159757330637
30032,DeKalb County,GA,NA,NA,NA,NA,58.442871587462086
30040,Forsyth County,GA,7.952069716775599,NA,NA,NA,12.032355915065724
30043,Gwinnett County,GA,NA,NA,NA,13.72328458942632,NA
30052,Walton County,GA,NA,NA,NA,NA,60.56622851365015
30058,DeKalb County,GA,NA,NA,NA,NA,96.66329625884732
30064,Cobb County,GA,81.26361655773421,NA,NA,NA,NA
30066,Cobb County,GA,NA,NA,NA,NA,31.850353892821033
30075,Fulton County,GA,80.50108932461873,NA,NA,NA,NA
30076,Fulton County,GA,98.25708061002179,NA,NA,NA,NA
30078,Gwinnett County,GA,NA,NA,85.82755203171457,89.76377952755905,NA
30083,DeKalb County,GA,NA,NA,NA,36.33295838020247,NA
30084,DeKalb County,GA,62.309368191721134,NA,NA,NA,NA
30102,Cherokee County,GA,NA,61.47058823529412,51.13974231912785,34.983127109111365,NA
30106,Cobb County,GA,NA,NA,NA,NA,74.11526794742164
30114,Cherokee County,GA,62.63616557734205,NA,NA,NA,NA
30117,Carroll County,GA,NA,NA,NA,NA,28.61476238624874
30126,Cobb County,GA,NA,NA,NA,67.49156355455568,NA
30127,Cobb County,GA,NA,NA,19.62338949454906,NA,NA
30132,Paulding County,GA,58.387799564270146,NA,NA,NA,NA
30161,Floyd County,GA,NA,NA,NA,NA,32.55813953488372
30180,Carroll County,GA,11.76470588235294,NA,NA,NA,NA
30188,Cherokee County,GA,36.60130718954248,NA,NA,NA,NA
30213,Fulton County,GA,40.19607843137255,NA,NA,NA,NA
30214,Fayette County,GA,NA,NA,NA,NA,37.8159757330637
30215,Fayette County,GA,NA,NA,NA,NA,42.46713852376138
30241,Troup County,GA,NA,NA,NA,55.68053993250843,NA
30253,Henry County,GA,22.113289760348582,NA,NA,NA,85.84428715874621
30269,Fayette County,GA,NA,NA,NA,54.668166479190106,NA
30276,Coweta County,GA,NA,NA,NA,NA,82.81092012133469
30294,DeKalb County,GA,NA,NA,45.19326065411298,NA,NA
30296,Clayton County,GA,NA,NA,NA,NA,83.3164812942366
30310,Fulton County,GA,NA,NA,60.257680872150644,NA,48.02831142568251
30311,Fulton County,GA,NA,NA,NA,22.38470191226097,17.492416582406474
30312,Fulton County,GA,NA,62.35294117647059,NA,NA,NA
30315,Fulton County,GA,NA,NA,NA,NA,72.09302325581395
30316,DeKalb County,GA,NA,NA,58.176412289395444,NA,88.4732052578362
30319,DeKalb County,GA,NA,NA,NA,92.80089988751406,NA
30331,Fulton County,GA,8.714596949891067,NA,NA,NA,NA
30341,DeKalb County,GA,55.66448801742919,NA,NA,NA,NA
30401,Emanuel County,GA,NA,NA,NA,69.40382452193475,NA
30411,Wheeler County,GA,NA,NA,NA,99.77502812148481,NA
30504,Hall County,GA,NA,NA,NA,NA,80.18200202224469
30512,Union County,GA,NA,NA,NA,52.98087739032621,NA
30517,Jackson County,GA,NA,NA,NA,84.25196850393701,NA
30523,Habersham County,GA,NA,NA,NA,NA,59.85844287158746
30531,Habersham County,GA,NA,NA,NA,96.62542182227222,NA
30535,Habersham County,GA,NA,NA,93.35976214073341,NA,NA
30536,Gilmer County,GA,70.04357298474946,NA,NA,NA,NA
30548,Jackson County,GA,NA,NA,NA,NA,63.70070778564207
30553,Franklin County,GA,NA,NA,NA,NA,91.50657229524772
30601,Clarke County,GA,NA,NA,71.65510406342915,NA,NA
30606,Clarke County,GA,39.869281045751634,NA,NA,NA,NA
30655,Walton County,GA,NA,NA,NA,32.39595050618673,NA
30736,Catoosa County,GA,15.359477124183007,NA,NA,NA,NA
30741,Walker County,GA,NA,NA,NA,NA,48.7360970677452
30809,Columbia County,GA,24.183006535947712,NA,NA,NA,NA
30828,Warren County,GA,96.07843137254902,NA,NA,NA,NA
30830,Burke County,GA,NA,NA,56.68979187314173,NA,NA
30906,Richmond County,GA,NA,NA,7.5322101090188305,NA,NA
31027,Laurens County,GA,NA,NA,NA,NA,92.3154701718908
31028,Houston County,GA,NA,NA,NA,NA,93.93326592517694
31036,Pulaski County,GA,NA,NA,89.99008919722498,NA,NA
31204,Bibb County,GA,NA,NA,NA,NA,36.09706774519717
31210,Bibb County,GA,NA,NA,NA,61.754780652418454,NA
31302,Effingham County,GA,NA,NA,NA,NA,98.88776541961577
31406,Chatham County,GA,NA,NA,NA,32.28346456692913,NA
31407,Chatham County,GA,NA,NA,88.20614469772052,NA,NA
31411,Chatham County,GA,NA,NA,NA,NA,61.57735085945399
31419,Chatham County,GA,NA,NA,NA,36.895388076490434,NA
31601,Lowndes County,GA,NA,NA,NA,NA,94.23660262891809
31635,Lanier County,GA,94.880174291939,NA,NA,NA,NA
31643,Brooks County,GA,NA,77.3529411764706,NA,NA,NA
31707,Dougherty County,GA,NA,NA,NA,88.30146231721034,NA
31763,Lee County,GA,NA,NA,NA,NA,78.8675429726997
31768,Colquitt County,GA,NA,NA,34.489593657086225,NA,NA
31773,Thomas County,GA,NA,NA,NA,97.41282339707537,NA
31792,Thomas County,GA,NA,NA,NA,NA,57.73508594539939
31794,Tift County,GA,NA,NA,NA,18.89763779527559,NA
31803,Marion County,GA,NA,NA,NA,97.07536557930258,NA
31820,Muscogee County,GA,NA,NA,NA,NA,81.3953488372093
31833,Troup County,GA,NA,NA,80.57482656095144,NA,NA
31903,Muscogee County,GA,NA,NA,NA,NA,93.52881698685542
31904,Muscogee County,GA,NA,NA,33.201189296333,NA,NA
31906,Muscogee County,GA,NA,NA,NA,46.344206974128234,NA
31907,Muscogee County,GA,NA,NA,8.721506442021804,24.521934758155233,NA
39817,Decatur County,GA,NA,NA,NA,NA,94.13549039433772
39819,Decatur County,GA,60.56644880174292,NA,NA,NA,NA
96706,Honolulu County,HI,NA,NA,NA,12.710911136107987,NA
96707,Honolulu County,HI,NA,NA,38.35480673934589,NA,NA
96708,Maui County,HI,NA,NA,NA,96.73790776152981,NA
96734,Honolulu County,HI,NA,NA,NA,11.361079865016873,NA
96749,Hawaii County,HI,NA,NA,NA,75.47806524184477,NA
96782,Honolulu County,HI,NA,NA,NA,NA,10.010111223458038
96792,Honolulu County,HI,NA,NA,NA,25.421822272215973,NA
96793,Maui County,HI,NA,NA,79.28642220019822,NA,NA
96795,Honolulu County,HI,NA,NA,78.39444995044599,NA,96.25884732052579
96797,Honolulu County,HI,NA,NA,8.919722497522299,NA,NA
96816,Honolulu County,HI,NA,NA,NA,56.46794150731158,NA
96819,Honolulu County,HI,NA,NA,NA,14.623172103487065,NA
96825,Honolulu County,HI,NA,NA,57.8790882061447,NA,NA
96826,Honolulu County,HI,NA,NA,NA,NA,69.8685540950455
83201,Bannock County,ID,13.725490196078432,NA,59.86124876114965,NA,NA
83221,Bingham County,ID,NA,38.23529411764706,NA,NA,NA
83263,Franklin County,ID,68.95424836601308,NA,NA,NA,NA
83301,Twin Falls County,ID,NA,NA,NA,NA,0.3033367037411527
83316,Twin Falls County,ID,NA,NA,NA,NA,65.11627906976744
83338,Jerome County,ID,33.33333333333333,NA,NA,NA,NA
83501,Nez Perce County,ID,NA,NA,NA,NA,66.32962588473205
83605,Canyon County,ID,6.209150326797386,NA,NA,NA,NA
83607,Canyon County,ID,NA,NA,NA,35.43307086614173,NA
83617,Gem County,ID,NA,NA,NA,NA,67.3407482305359
83642,Ada County,ID,17.21132897603486,NA,NA,NA,NA
83646,Ada County,ID,NA,45.294117647058826,NA,NA,4.044489383215369
83647,Elmore County,ID,NA,NA,NA,NA,44.69160768452983
83669,Ada County,ID,NA,NA,88.10703666997026,NA,NA
83702,Ada County,ID,NA,NA,NA,21.70978627671541,37.2093023255814
83704,Ada County,ID,NA,NA,NA,2.81214848143982,NA
83709,Ada County,ID,NA,NA,NA,NA,3.842264914054601
83713,Ada County,ID,32.89760348583878,NA,NA,NA,NA
83714,Ada County,ID,NA,NA,49.45490584737364,NA,NA
83835,Kootenai County,ID,63.50762527233116,NA,NA,NA,NA
60004,Cook County,IL,NA,NA,NA,NA,7.886754297269969
60007,Cook County,IL,NA,NA,58.37462834489594,73.22834645669292,NA
60008,Cook County,IL,83.87799564270153,NA,NA,NA,NA
60022,Cook County,IL,NA,NA,NA,NA,67.54297269969666
60025,Cook County,IL,NA,NA,NA,NA,3.741152679474216
60031,Lake County,IL,NA,NA,NA,62.5421822272216,NA
60047,Lake County,IL,31.154684095860567,NA,NA,NA,NA
60050,McHenry County,IL,33.551198257080614,NA,NA,NA,NA
60053,Cook County,IL,NA,NA,NA,37.570303712035994,NA
60060,Lake County,IL,22.766884531590414,NA,NA,NA,45.5005055611729
60062,Cook County,IL,25.925925925925924,NA,NA,NA,19.817997977755308
60068,Cook County,IL,40.74074074074074,NA,NA,NA,55.61172901921132
60070,Cook County,IL,NA,NA,89.49454905847374,NA,NA
60076,Cook County,IL,NA,NA,77.40336967294351,24.746906636670417,NA
60089,Lake County,IL,NA,NA,43.70664023785927,NA,NA
60098,McHenry County,IL,NA,NA,NA,NA,12.537917087967642
60103,DuPage County,IL,29.73856209150327,NA,NA,NA,NA
60104,Cook County,IL,NA,NA,NA,NA,68.14964610717897
60106,DuPage County,IL,NA,NA,65.60951437066403,NA,NA
60108,DuPage County,IL,NA,NA,NA,30.371203599550057,NA
60110,Kane County,IL,45.751633986928105,NA,NA,NA,NA
60118,Kane County,IL,NA,NA,NA,69.85376827896513,NA
60119,Kane County,IL,87.4727668845316,NA,91.87314172447968,NA,NA
60120,Kane County,IL,NA,NA,NA,NA,51.2639029322548
60124,Kane County,IL,NA,NA,99.50445986124876,NA,NA
60130,Cook County,IL,NA,NA,55.00495540138751,NA,NA
60134,Kane County,IL,NA,NA,47.77006937561942,NA,NA
60154,Cook County,IL,NA,NA,56.19425173439049,NA,30.535894843276033
60155,Cook County,IL,NA,NA,84.14271555996035,NA,NA
60157,DuPage County,IL,95.64270152505446,NA,NA,NA,NA
60164,Cook County,IL,NA,NA,NA,NA,57.633973710819006
60169,Cook County,IL,NA,NA,51.635282457879086,NA,NA
60171,Cook County,IL,NA,NA,NA,71.65354330708661,NA
60174,Kane County,IL,NA,NA,NA,NA,35.8948432760364
60181,DuPage County,IL,NA,NA,NA,34.19572553430822,NA
60187,DuPage County,IL,NA,NA,40.13875123885035,NA,NA
60188,DuPage County,IL,NA,NA,20.614469772051535,NA,NA
60193,Cook County,IL,54.46623093681917,NA,NA,NA,NA
60302,Cook County,IL,30.501089324618736,NA,NA,NA,NA
60304,Cook County,IL,NA,NA,NA,63.10461192350956,NA
60402,Cook County,IL,NA,88.8235294117647,NA,NA,NA
60406,Cook County,IL,NA,NA,NA,75.14060742407199,NA
60411,Cook County,IL,NA,NA,NA,NA,17.99797775530839
60416,Grundy County,IL,NA,NA,64.42021803766104,NA,NA
60419,Cook County,IL,NA,NA,NA,NA,53.892821031344795
60425,Cook County,IL,NA,NA,83.34985133795837,NA,NA
60432,Will County,IL,NA,NA,NA,NA,81.69868554095045
60435,Will County,IL,NA,NA,39.24677898909812,NA,NA
60436,Will County,IL,NA,NA,NA,NA,59.75733063700708
60438,Cook County,IL,NA,NA,NA,74.57817772778402,NA
60441,Will County,IL,NA,NA,24.380574826560952,NA,NA
60442,Will County,IL,63.18082788671025,NA,NA,NA,NA
60443,Cook County,IL,NA,NA,49.950445986124876,NA,NA
60446,Will County,IL,NA,NA,16.05550049554014,NA,NA
60449,Will County,IL,NA,NA,85.23290386521309,NA,NA
60453,Cook County,IL,10.239651416122005,NA,NA,NA,NA
60457,Cook County,IL,NA,NA,76.41228939544104,90.88863892013498,NA
60462,Cook County,IL,42.0479302832244,NA,NA,NA,8.998988877654195
60487,Cook County,IL,NA,NA,59.9603567888999,NA,NA
60504,DuPage County,IL,NA,NA,NA,NA,78.66531850353893
60513,Cook County,IL,NA,NA,NA,NA,58.84732052578362
60514,DuPage County,IL,72.98474945533769,NA,NA,NA,NA
60527,DuPage County,IL,NA,NA,NA,NA,15.166835187057634
60540,DuPage County,IL,NA,NA,NA,31.833520809898765,NA
60543,Kendall County,IL,NA,NA,NA,NA,71.99191102123356
60544,Will County,IL,82.46187363834423,NA,NA,NA,16.48129423660263
60560,Kendall County,IL,NA,NA,46.8780971258672,NA,NA
60585,Will County,IL,33.11546840958606,NA,NA,NA,NA
60586,Will County,IL,59.694989106753816,NA,NA,NA,NA
60601,Cook County,IL,NA,NA,NA,88.63892013498312,NA
60608,Cook County,IL,NA,NA,41.72447968285431,NA,NA
60612,Cook County,IL,NA,NA,NA,34.645669291338585,NA
60616,Cook County,IL,NA,NA,39.345887016848366,NA,NA
60617,Cook County,IL,NA,NA,NA,1.799775028121485,NA
60618,Cook County,IL,NA,60.588235294117645,NA,NA,NA
60619,Cook County,IL,NA,NA,NA,NA,66.83518705763397
60622,Cook County,IL,32.24400871459695,NA,NA,NA,NA
60625,Cook County,IL,37.36383442265795,NA,NA,NA,17.89686552072801
60626,Cook County,IL,NA,NA,NA,NA,56.117290192113245
60629,Cook County,IL,NA,NA,NA,4.049493813273341,NA
60630,Cook County,IL,64.27015250544662,NA,NA,12.598425196850393,43.882709807886755
60634,Cook County,IL,NA,NA,NA,NA,35.591506572295245
60636,Cook County,IL,NA,NA,36.075322101090194,94.15073115860517,21.53690596562184
60640,Cook County,IL,72.87581699346404,NA,NA,NA,NA
60643,Cook County,IL,NA,NA,NA,3.59955005624297,NA
60651,Cook County,IL,NA,NA,9.217046580773044,41.28233970753656,NA
60652,Cook County,IL,NA,NA,30.723488602576808,NA,NA
60653,Cook County,IL,NA,NA,NA,NA,63.49848331648129
60655,Cook County,IL,NA,NA,31.119920713577798,NA,NA
60714,Cook County,IL,NA,NA,NA,44.09448818897638,NA
60827,Cook County,IL,NA,NA,NA,NA,60.76845298281091
60914,Kankakee County,IL,NA,NA,35.38156590683845,NA,NA
60915,Kankakee County,IL,77.77777777777779,NA,NA,NA,NA
61032,Stephenson County,IL,NA,92.94117647058823,NA,NA,NA
61073,Winnebago County,IL,NA,NA,NA,43.532058492688414,NA
61101,Winnebago County,IL,71.35076252723312,NA,NA,NA,NA
61115,Winnebago County,IL,NA,NA,NA,NA,53.58948432760364
61201,Rock Island County,IL,64.16122004357298,NA,NA,NA,NA
61254,Henry County,IL,NA,NA,93.7561942517344,NA,NA
61265,Rock Island County,IL,NA,NA,NA,NA,13.144590495449949
61310,Lee County,IL,NA,NA,NA,98.08773903262093,NA
61350,LaSalle County,IL,NA,NA,NA,NA,63.59959555106168
61443,Henry County,IL,73.31154684095861,NA,NA,NA,21.1324570273003
61455,McDonough County,IL,51.633986928104584,NA,NA,NA,NA
61571,Tazewell County,IL,NA,NA,NA,82.7896512935883,49.74721941354904
61611,Tazewell County,IL,39.651416122004356,NA,NA,NA,NA
61701,McLean County,IL,NA,NA,NA,31.38357705286839,NA
61739,Livingston County,IL,NA,NA,NA,NA,95.04550050556118
61761,McLean County,IL,NA,NA,43.31020812685827,NA,NA
61764,Livingston County,IL,89.54248366013073,NA,NA,NA,NA
61834,Vermilion County,IL,NA,NA,NA,84.92688413948257,NA
61874,Champaign County,IL,NA,NA,NA,NA,42.06268958543984
61944,Edgar County,IL,64.59694989106754,NA,NA,NA,NA
62033,Macoupin County,IL,NA,NA,NA,NA,95.44994944388272
62052,Jersey County,IL,NA,NA,73.0426164519326,NA,44.08493427704752
62226,St. Clair County,IL,NA,NA,NA,NA,24.16582406471183
62233,Randolph County,IL,NA,NA,NA,NA,72.90192113245702
62269,St. Clair County,IL,NA,NA,NA,75.70303712035995,NA
62471,Fayette County,IL,NA,NA,NA,NA,47.82608695652174
62521,Macon County,IL,NA,NA,13.875123885034688,NA,NA
62711,Sangamon County,IL,92.15686274509804,NA,NA,NA,NA
62946,Saline County,IL,NA,NA,NA,76.71541057367828,NA
46013,Madison County,IN,NA,NA,35.777998017839444,NA,NA
46016,Madison County,IN,NA,35.588235294117645,15.559960356788899,34.4206974128234,NA
46032,Hamilton County,IN,NA,NA,NA,NA,21.23356926188069
46033,Hamilton County,IN,NA,NA,65.60951437066403,NA,NA
46041,Clinton County,IN,NA,NA,69.97026759167493,NA,NA
46052,Boone County,IN,NA,NA,46.18434093161546,52.75590551181102,NA
46074,Hamilton County,IN,NA,NA,NA,65.01687289088865,NA
46107,Marion County,IN,NA,NA,63.42913776015857,NA,NA
46112,Hendricks County,IN,87.14596949891067,NA,NA,NA,NA
46143,Johnson County,IN,NA,NA,NA,NA,28.51365015166835
46158,Morgan County,IN,47.05882352941176,NA,NA,NA,NA
46167,Hendricks County,IN,NA,NA,98.01783944499505,NA,NA
46173,Rush County,IN,NA,NA,NA,NA,58.24064711830131
46176,Shelby County,IN,NA,49.11764705882353,NA,11.698537682789652,NA
46202,Marion County,IN,52.723311546840954,NA,NA,NA,NA
46208,Marion County,IN,NA,NA,NA,NA,67.54297269969666
46222,Marion County,IN,29.73856209150327,NA,NA,NA,NA
46224,Marion County,IN,NA,NA,NA,53.318335208098986,NA
46226,Marion County,IN,NA,NA,NA,15.6355455568054,NA
46227,Marion County,IN,NA,NA,10.307234886025768,NA,NA
46229,Marion County,IN,NA,NA,NA,NA,37.00707785642063
46234,Marion County,IN,NA,NA,NA,NA,35.38928210313448
46236,Marion County,IN,NA,NA,NA,52.86839145106862,NA
46237,Marion County,IN,NA,NA,NA,NA,13.549039433771487
46241,Marion County,IN,NA,NA,NA,NA,52.679474216380186
46260,Marion County,IN,NA,38.82352941176471,NA,NA,NA
46303,Lake County,IN,NA,NA,NA,NA,48.93832153690597
46307,Lake County,IN,NA,NA,NA,NA,18.6046511627907
46321,Lake County,IN,NA,NA,NA,16.87289088863892,NA
46341,Porter County,IN,55.446623093681914,NA,NA,NA,NA
46342,Lake County,IN,11.655773420479303,NA,26.26362735381566,NA,NA
46350,LaPorte County,IN,NA,62.94117647058823,NA,NA,NA
46356,Lake County,IN,NA,NA,32.90386521308226,NA,NA
46360,LaPorte County,IN,NA,NA,6.144697720515362,NA,NA
46368,Porter County,IN,NA,NA,NA,NA,12.740141557128412
46375,Lake County,IN,10.893246187363834,NA,33.99405351833499,NA,NA
46383,Porter County,IN,NA,NA,33.3994053518335,4.499437570303712,45.29828109201213
46385,Porter County,IN,NA,NA,66.402378592666,2.5871766029246346,NA
46391,LaPorte County,IN,NA,NA,NA,89.53880764904387,NA
46392,Jasper County,IN,NA,NA,NA,NA,97.16885743174925
46408,Lake County,IN,NA,NA,NA,51.181102362204726,NA
46410,Lake County,IN,NA,NA,7.135777998017839,NA,22.548028311425682
46526,Elkhart County,IN,NA,NA,NA,62.092238470191234,NA
46534,Starke County,IN,NA,NA,59.365708622398415,79.7525309336333,NA
46563,Marshall County,IN,NA,NA,NA,NA,18.200202224469162
46567,Kosciusko County,IN,NA,NA,96.13478691774033,NA,NA
46580,Kosciusko County,IN,59.47712418300654,NA,NA,58.38020247469067,NA
46733,Adams County,IN,NA,NA,NA,51.74353205849269,NA
46738,DeKalb County,IN,NA,NA,73.53815659068384,NA,NA
46750,Huntington County,IN,NA,NA,NA,28.346456692913385,NA
46755,Noble County,IN,NA,NA,29.23686818632309,NA,NA
46765,Allen County,IN,NA,NA,NA,99.21259842519686,NA
46774,Allen County,IN,NA,NA,NA,47.46906636670416,NA
46793,DeKalb County,IN,NA,NA,NA,100,NA
46795,LaGrange County,IN,NA,NA,NA,NA,93.73104145601617
46806,Allen County,IN,20.152505446623092,23.52941176470588,NA,NA,NA
46808,Allen County,IN,NA,30.58823529411765,NA,NA,NA
46809,Allen County,IN,NA,NA,60.555004955401394,NA,NA
46818,Allen County,IN,NA,NA,74.23191278493559,NA,NA
46845,Allen County,IN,37.254901960784316,NA,NA,NA,NA
46902,Howard County,IN,4.030501089324619,NA,4.261645193260654,NA,55.409504550050556
46928,Grant County,IN,NA,NA,98.90981169474728,NA,NA
46947,Cass County,IN,NA,NA,13.478691774033697,NA,NA
46952,Grant County,IN,NA,NA,NA,5.511811023622047,NA
46953,Grant County,IN,NA,NA,NA,11.923509561304838,NA
46970,Miami County,IN,NA,NA,NA,NA,67.23963599595551
46975,Fulton County,IN,40.305010893246184,NA,NA,NA,NA
46992,Wabash County,IN,NA,NA,NA,76.82789651293588,NA
47006,Ripley County,IN,94.55337690631809,NA,NA,NA,NA
47025,Dearborn County,IN,NA,NA,NA,57.14285714285714,NA
47043,Switzerland County,IN,NA,NA,NA,NA,99.49443882709808
47111,Clark County,IN,NA,NA,NA,NA,66.6329625884732
47150,Floyd County,IN,NA,NA,11.694747274529236,39.48256467941507,NA
47240,Decatur County,IN,NA,NA,NA,NA,25.176946410515672
47331,Fayette County,IN,NA,NA,15.857284440039642,13.048368953880765,NA
47390,Randolph County,IN,NA,NA,NA,NA,97.4721941354904
47394,Randolph County,IN,NA,NA,75.22299306243806,NA,53.083923154701715
47421,Lawrence County,IN,NA,69.41176470588235,NA,NA,NA
47501,Daviess County,IN,NA,NA,39.841427155599604,NA,NA
47532,Dubois County,IN,NA,NA,98.41427155599604,NA,NA
47591,Knox County,IN,NA,NA,NA,27.559055118110237,NA
47670,Gibson County,IN,NA,NA,NA,91.56355455568054,NA
47714,Vanderburgh County,IN,NA,NA,NA,NA,29.120323559150656
47715,Vanderburgh County,IN,37.36383442265795,NA,NA,NA,NA
47804,Vigo County,IN,NA,NA,64.3211100099108,NA,NA
47807,Vigo County,IN,NA,NA,NA,NA,98.28109201213347
47905,Tippecanoe County,IN,NA,NA,NA,NA,15.57128412537917
47909,Tippecanoe County,IN,NA,NA,73.83548067393458,NA,NA
50014,Story County,IA,NA,NA,NA,NA,57.22952477249748
50022,Cass County,IA,NA,NA,NA,83.80202474690664,NA
50036,Boone County,IA,NA,67.94117647058823,NA,NA,NA
50047,Warren County,IA,NA,98.82352941176471,NA,NA,NA
50158,Marshall County,IA,30.93681917211329,NA,NA,NA,26.693629929221434
50226,Polk County,IA,89.76034858387798,NA,NA,NA,NA
50310,Polk County,IA,NA,NA,NA,94.03824521934759,NA
50315,Polk County,IA,NA,NA,NA,26.546681664791898,NA
50316,Polk County,IA,NA,NA,NA,NA,70.98078867542974
50317,Polk County,IA,NA,26.176470588235297,NA,NA,NA
50401,Cerro Gordo County,IA,NA,NA,13.181367690782952,10.011248593925758,NA
50588,Buena Vista County,IA,NA,NA,44.99504459861249,NA,NA
50662,Fayette County,IA,NA,NA,71.15956392467791,NA,NA
50703,Black Hawk County,IA,NA,NA,NA,34.983127109111365,NA
52001,Dubuque County,IA,14.4880174291939,NA,NA,NA,NA
52002,Dubuque County,IA,NA,NA,NA,NA,75.42972699696662
52060,Jackson County,IA,NA,NA,NA,NA,83.82204246713853
52136,Howard County,IA,86.38344226579521,NA,NA,NA,NA
52240,Johnson County,IA,NA,NA,NA,NA,62.1840242669363
52317,Johnson County,IA,NA,NA,55.7978196233895,NA,NA
52403,Linn County,IA,62.527233115468405,NA,NA,NA,NA
52404,Linn County,IA,NA,NA,69.37561942517344,NA,NA
52501,Wapello County,IA,NA,NA,15.064420218037661,NA,NA
52627,Lee County,IA,NA,NA,NA,48.14398200224972,NA
52732,Clinton County,IA,21.0239651416122,NA,NA,NA,41.354903943377145
52761,Muscatine County,IA,NA,NA,NA,12.373453318335208,NA
66012,Wyandotte County,KS,NA,NA,89.197224975223,NA,NA
66030,Johnson County,KS,86.38344226579521,NA,NA,NA,NA
66061,Johnson County,KS,NA,NA,NA,NA,34.27704752275025
66062,Johnson County,KS,NA,NA,NA,15.973003374578179,17.290192113245702
66104,Wyandotte County,KS,25.381263616557735,NA,NA,NA,NA
66106,Wyandotte County,KS,NA,NA,51.04063429137761,69.96625421822273,NA
66202,Johnson County,KS,NA,NA,NA,69.74128233970754,NA
66208,Johnson County,KS,NA,NA,NA,NA,51.66835187057634
66210,Johnson County,KS,85.40305010893246,NA,NA,NA,NA
66226,Johnson County,KS,NA,NA,86.1248761149653,NA,NA
66227,Johnson County,KS,93.35511982570807,NA,NA,NA,NA
66604,Shawnee County,KS,NA,NA,52.130822596630324,88.41394825646795,NA
66610,Shawnee County,KS,83.11546840958606,NA,NA,NA,NA
66611,Shawnee County,KS,NA,NA,90.08919722497522,NA,NA
66614,Shawnee County,KS,NA,NA,NA,NA,14.964610717896864
66617,Shawnee County,KS,NA,NA,NA,85.60179977502813,NA
66736,Wilson County,KS,NA,NA,NA,NA,91.70879676440849
66762,Crawford County,KS,62.309368191721134,97.94117647058823,NA,55.005624296962885,NA
67152,Sumner County,KS,NA,NA,90.28741328047572,NA,NA
67220,Sedgwick County,KS,91.83006535947712,NA,NA,NA,NA
67357,Labette County,KS,NA,NA,54.31119920713577,NA,NA
67410,Dickinson County,KS,84.9673202614379,NA,NA,NA,NA
67460,McPherson County,KS,65.79520697167756,NA,NA,NA,NA
67601,Ellis County,KS,NA,NA,NA,NA,34.883720930232556
67801,Ford County,KS,NA,NA,62.140733399405356,65.46681664791902,75.73306370070779
40004,Nelson County,KY,25.925925925925924,NA,20.41625371655104,NA,NA
40014,Oldham County,KY,44.66230936819172,70.58823529411765,NA,NA,NA
40023,Jefferson County,KY,NA,NA,98.31516352824579,NA,NA
40033,Marion County,KY,48.80174291938998,NA,NA,NA,NA
40047,Bullitt County,KY,NA,NA,NA,NA,65.4196157735086
40078,Washington County,KY,NA,NA,NA,NA,99.79777553083923
40108,Meade County,KY,NA,NA,NA,82.22722159730034,NA
40202,Jefferson County,KY,NA,NA,84.24182358771061,NA,NA
40206,Jefferson County,KY,NA,57.35294117647059,NA,NA,NA
40210,Jefferson County,KY,NA,41.17647058823529,NA,60.51743532058492,NA
40211,Jefferson County,KY,NA,NA,NA,40.94488188976378,NA
40212,Jefferson County,KY,NA,NA,26.957383548067394,NA,NA
40214,Jefferson County,KY,NA,NA,NA,16.085489313835772,NA
40216,Jefferson County,KY,NA,20,NA,NA,NA
40219,Jefferson County,KY,NA,NA,14.073339940535185,NA,NA
40220,Jefferson County,KY,NA,NA,NA,21.484814398200225,57.53286147623863
40223,Jefferson County,KY,NA,NA,NA,NA,51.162790697674424
40229,Jefferson County,KY,NA,NA,NA,21.147356580427445,NA
40241,Jefferson County,KY,NA,NA,NA,44.43194600674916,NA
40291,Jefferson County,KY,35.18518518518518,NA,NA,NA,NA
40313,Rowan County,KY,NA,70.88235294117648,NA,NA,NA
40324,Scott County,KY,NA,31.176470588235293,14.370664023785926,NA,NA
40330,Mercer County,KY,53.92156862745098,NA,NA,56.13048368953881,NA
40336,Estill County,KY,NA,50.882352941176464,NA,NA,NA
40342,Anderson County,KY,59.150326797385624,NA,37.16551040634292,NA,NA
40353,Montgomery County,KY,NA,NA,NA,33.970753655793025,NA
40361,Bourbon County,KY,NA,NA,84.0436075322101,NA,NA
40380,Powell County,KY,NA,NA,NA,77.27784026996626,NA
40403,Madison County,KY,NA,NA,NA,44.76940382452194,NA
40502,Fayette County,KY,NA,NA,NA,NA,42.2649140546006
40503,Fayette County,KY,NA,NA,70.36669970267592,NA,NA
40508,Fayette County,KY,NA,NA,NA,70.3037120359955,NA
40509,Fayette County,KY,26.797385620915033,NA,NA,NA,NA
40511,Fayette County,KY,26.143790849673206,NA,NA,NA,NA
40517,Fayette County,KY,NA,NA,NA,45.66929133858268,NA
40701,Whitley County,KY,NA,NA,NA,12.823397075365579,NA
40729,Laurel County,KY,NA,NA,NA,85.8267716535433,NA
40741,Laurel County,KY,NA,NA,NA,NA,46.61274014155713
40759,Whitley County,KY,NA,NA,96.43211100099109,NA,NA
40831,Harlan County,KY,NA,NA,74.43012884043607,NA,NA
40935,Knox County,KY,NA,NA,NA,99.66254218222723,NA
41005,Boone County,KY,35.07625272331155,NA,NA,NA,NA
41011,Kenton County,KY,NA,NA,15.163528245787909,NA,NA
41015,Kenton County,KY,NA,NA,27.94846382556987,NA,36.19817997977755
41017,Kenton County,KY,NA,69.11764705882352,NA,21.934758155230597,NA
41040,Pendleton County,KY,NA,96.76470588235294,NA,NA,NA
41042,Boone County,KY,NA,NA,6.342913776015857,NA,NA
41051,Kenton County,KY,66.4488017429194,NA,NA,NA,NA
41071,Campbell County,KY,NA,NA,28.543111992071356,38.582677165354326,NA
41094,Boone County,KY,57.9520697167756,NA,NA,NA,NA
41101,Boyd County,KY,4.6840958605664484,NA,NA,NA,NA
41143,Carter County,KY,NA,NA,NA,NA,56.926188068756325
41175,Greenup County,KY,NA,NA,NA,NA,59.04954499494439
41230,Lawrence County,KY,NA,NA,NA,47.69403824521935,NA
41240,Johnson County,KY,NA,NA,NA,NA,69.36299292214359
41301,Wolfe County,KY,NA,NA,NA,NA,91.40546006066734
41537,Letcher County,KY,NA,NA,88.60257680872151,NA,NA
41701,Perry County,KY,NA,NA,68.08721506442022,NA,NA
42001,McCracken County,KY,40.305010893246184,NA,NA,NA,NA
42025,Marshall County,KY,53.05010893246187,NA,NA,NA,NA
42029,Marshall County,KY,NA,NA,NA,89.87626546681665,NA
42064,Crittenden County,KY,NA,NA,73.6372646184341,78.62767154105737,NA
42071,Calloway County,KY,NA,NA,NA,46.79415073115861,NA
42086,McCracken County,KY,NA,NA,96.53121902874133,NA,NA
42164,Allen County,KY,NA,53.529411764705884,NA,NA,NA
42167,Monroe County,KY,NA,NA,68.18632309217047,NA,NA
42351,Hancock County,KY,NA,100,NA,NA,NA
42420,Henderson County,KY,NA,NA,10.109018830525272,NA,NA
42503,Pulaski County,KY,NA,NA,NA,60.742407199100114,NA
42519,Pulaski County,KY,NA,NA,NA,99.8875140607424,NA
42629,Russell County,KY,NA,NA,NA,97.75028121484814,NA
42633,Wayne County,KY,NA,NA,NA,39.37007874015748,57.22952477249748
42718,Taylor County,KY,NA,NA,NA,43.869516310461194,NA
42728,Adair County,KY,NA,NA,NA,46.231721034870645,NA
42743,Green County,KY,NA,NA,NA,NA,78.05864509605662
42748,Larue County,KY,NA,NA,NA,75.92800899887514,NA
70001,Jefferson Parish,LA,84.640522875817,NA,NA,NA,9.30232558139535
70002,Jefferson Parish,LA,NA,24.11764705882353,NA,NA,NA
70003,Jefferson Parish,LA,NA,NA,NA,NA,20.020222446916076
70052,St. James Parish,LA,NA,87.94117647058823,NA,NA,NA
70058,Jefferson Parish,LA,NA,NA,NA,85.37682789651294,86.14762386248736
70065,Jefferson Parish,LA,84.42265795206971,NA,5.054509415262636,NA,NA
70072,Jefferson Parish,LA,NA,NA,NA,NA,5.460060667340748
70075,St. Bernard Parish,LA,NA,NA,90.98116947472745,NA,NA
70094,Jefferson Parish,LA,NA,NA,5.7482656095143705,NA,NA
70114,Orleans Parish,LA,5.664488017429194,NA,NA,NA,NA
70122,Orleans Parish,LA,10.56644880174292,NA,NA,NA,NA
70301,Lafourche Parish,LA,NA,NA,2.576808721506442,74.69066366704162,85.33872598584429
70364,Terrebonne Parish,LA,NA,NA,32.804757185332015,NA,NA
70380,St. Mary Parish,LA,NA,NA,24.182358771060457,NA,NA
70394,Lafourche Parish,LA,NA,NA,NA,35.65804274465692,NA
70422,Tangipahoa Parish,LA,NA,75.29411764705883,NA,NA,91.20323559150657
70433,St. Tammany Parish,LA,NA,NA,30.525272547076316,NA,NA
70435,St. Tammany Parish,LA,27.342047930283226,NA,NA,NA,88.16986855409505
70438,Washington Parish,LA,NA,41.47058823529412,NA,NA,NA
70443,Tangipahoa Parish,LA,NA,NA,26.16451932606541,NA,NA
70448,St. Tammany Parish,LA,NA,NA,NA,NA,25.278058645096056
70454,Tangipahoa Parish,LA,NA,NA,97.42319127849356,8.773903262092238,NA
70460,St. Tammany Parish,LA,88.12636165577342,NA,NA,NA,NA
70462,Livingston Parish,LA,NA,NA,62.735381565906835,NA,NA
70506,Lafayette Parish,LA,6.971677559912854,NA,27.452923686818632,NA,NA
70518,Lafayette Parish,LA,NA,NA,NA,NA,74.4186046511628
70542,Vermilion Parish,LA,97.49455337690632,NA,NA,NA,NA
70554,Evangeline Parish,LA,NA,NA,78.39444995044599,NA,NA
70555,Vermilion Parish,LA,50.76252723311547,NA,NA,NA,NA
70560,Iberia Parish,LA,2.287581699346405,NA,2.6759167492566895,NA,NA
70570,St. Landry Parish,LA,NA,NA,1.7839444995044598,NA,NA
70577,St. Landry Parish,LA,NA,NA,75.9167492566898,NA,NA
70582,St. Martin Parish,LA,NA,NA,31.41724479682854,45.44431946006749,NA
70586,Evangeline Parish,LA,NA,NA,NA,NA,45.80384226491405
70634,Beauregard Parish,LA,NA,NA,26.362735381565905,41.84476940382452,NA
70663,Calcasieu Parish,LA,NA,NA,9.018830525272548,NA,NA
70714,East Baton Rouge Parish,LA,NA,NA,24.777006937561943,NA,NA
70719,West Baton Rouge Parish,LA,NA,NA,96.23389494549059,NA,NA
70726,Livingston Parish,LA,0.8714596949891068,NA,NA,NA,NA
70754,Livingston Parish,LA,NA,NA,NA,95.05061867266592,NA
70767,West Baton Rouge Parish,LA,28.431372549019606,NA,NA,91.45106861642294,NA
70775,West Feliciana Parish,LA,NA,NA,NA,NA,74.92416582406472
70814,East Baton Rouge Parish,LA,NA,42.64705882352941,NA,NA,NA
70815,East Baton Rouge Parish,LA,NA,NA,NA,74.24071991001125,NA
70816,East Baton Rouge Parish,LA,NA,NA,NA,70.86614173228347,NA
70817,East Baton Rouge Parish,LA,6.427015250544662,NA,NA,NA,NA
70818,East Baton Rouge Parish,LA,74.83660130718954,NA,NA,NA,NA
71037,Bossier Parish,LA,NA,NA,18.830525272547078,NA,NA
71105,Caddo Parish,LA,NA,NA,42.22001982160555,NA,NA
71106,Caddo Parish,LA,NA,NA,6.739345887016849,NA,NA
71111,Bossier Parish,LA,NA,NA,NA,NA,29.01921132457027
71115,Caddo Parish,LA,85.29411764705883,NA,NA,NA,NA
71201,Ouachita Parish,LA,NA,NA,37.26461843409316,NA,NA
71203,Ouachita Parish,LA,NA,NA,NA,NA,31.951466127401417
71220,Morehouse Parish,LA,NA,NA,99.8017839444995,NA,NA
71292,Ouachita Parish,LA,NA,NA,64.42021803766104,NA,NA
71342,La Salle Parish,LA,NA,NA,NA,69.29133858267717,NA
71360,Rapides Parish,LA,NA,NA,NA,NA,25.783619817997977
71373,Concordia Parish,LA,NA,96.17647058823529,NA,NA,NA
71457,Natchitoches Parish,LA,NA,NA,NA,87.5140607424072,NA
04046,York County,ME,NA,NA,83.74628344895937,NA,NA
04072,York County,ME,NA,50.294117647058826,NA,NA,NA
04073,York County,ME,NA,NA,NA,NA,47.72497472194136
04083,York County,ME,87.4727668845316,NA,NA,NA,NA
04090,York County,ME,NA,NA,NA,33.970753655793025,NA
04093,York County,ME,94.98910675381264,NA,NA,NA,90.29322548028311
04101,Cumberland County,ME,18.845315904139433,NA,70.7631318136769,NA,49.140546006066735
04102,Cumberland County,ME,NA,NA,NA,40.719910011248594,NA
04210,Androscoggin County,ME,NA,NA,NA,9.336332958380202,9.80788675429727
04240,Androscoggin County,ME,NA,9.117647058823529,2.2794846382556986,NA,1.7189079878665317
04276,Oxford County,ME,55.446623093681914,NA,NA,NA,NA
04330,Kennebec County,ME,3.812636165577342,NA,NA,NA,NA
04401,Penobscot County,ME,13.398692810457517,NA,NA,NA,9.908998988877654
04426,Piscataquis County,ME,NA,NA,NA,NA,84.83316481294236
04462,Penobscot County,ME,NA,NA,NA,NA,66.22851365015167
04769,Aroostook County,ME,NA,NA,NA,NA,50.15166835187057
04901,Kennebec County,ME,NA,NA,NA,2.924634420697413,NA
04927,Kennebec County,ME,NA,72.94117647058823,NA,NA,NA
04950,Somerset County,ME,79.30283224400871,NA,NA,NA,NA
20707,Prince George's County,MD,NA,NA,70.66402378592666,NA,NA
20708,Prince George's County,MD,NA,NA,NA,NA,98.58442871587462
20715,Prince George's County,MD,76.36165577342048,NA,NA,NA,NA
20743,Prince George's County,MD,NA,NA,70.7631318136769,NA,NA
20747,Prince George's County,MD,NA,NA,50.545094152626355,64.0044994375703,NA
20770,Prince George's County,MD,NA,NA,79.8810703666997,87.17660292463442,NA
20774,Prince George's County,MD,NA,NA,47.07631318136769,NA,NA
20783,Prince George's County,MD,NA,NA,NA,NA,60.16177957532861
20814,Montgomery County,MD,NA,NA,80.97125867195243,NA,NA
20817,Montgomery County,MD,NA,NA,NA,NA,62.38624873609707
20850,Montgomery County,MD,NA,NA,NA,NA,54.19615773508595
20895,Montgomery County,MD,NA,NA,NA,NA,71.58746208291204
20904,Montgomery County,MD,NA,NA,NA,53.430821147356575,NA
20912,Montgomery County,MD,82.46187363834423,NA,NA,NA,NA
21001,Harford County,MD,36.81917211328976,NA,NA,NA,NA
21012,Anne Arundel County,MD,80.3921568627451,NA,NA,NA,NA
21015,Harford County,MD,49.128540305010894,NA,NA,NA,NA
21044,Howard County,MD,NA,NA,NA,NA,67.03741152679474
21045,Howard County,MD,80.61002178649237,NA,NA,NA,NA
21050,Harford County,MD,NA,NA,74.62834489593658,NA,NA
21061,Anne Arundel County,MD,NA,NA,10.406342913776017,NA,NA
21090,Anne Arundel County,MD,96.73202614379085,NA,NA,NA,NA
21102,Carroll County,MD,NA,NA,88.70168483647176,NA,NA
21114,Anne Arundel County,MD,NA,NA,NA,NA,87.8665318503539
21122,Anne Arundel County,MD,12.200435729847495,NA,NA,NA,23.96359959555106
21133,Baltimore County,MD,12.745098039215685,NA,NA,NA,39.737108190091
21144,Anne Arundel County,MD,39.32461873638344,NA,NA,NA,NA
21204,Baltimore County,MD,NA,NA,NA,78.96512935883014,52.37613751263903
21206,Baltimore city,MD,NA,NA,13.082259663032705,NA,NA
21208,Baltimore County,MD,NA,NA,NA,37.120359955005625,NA
21213,Baltimore city,MD,NA,NA,21.209117938553025,NA,NA
21215,Baltimore city,MD,NA,NA,NA,9.448818897637794,37.108190091001006
21220,Baltimore County,MD,48.5838779956427,NA,NA,NA,NA
21222,Baltimore County,MD,NA,NA,NA,NA,51.870576339737106
21223,Baltimore city,MD,86.81917211328975,NA,NA,97.52530933633295,NA
21227,Baltimore County,MD,NA,NA,NA,NA,27.704752275025278
21228,Baltimore County,MD,NA,NA,NA,12.148481439820022,NA
21230,Baltimore city,MD,NA,NA,NA,56.01799775028121,NA
21234,Baltimore County,MD,NA,NA,NA,7.086614173228346,NA
21237,Baltimore County,MD,NA,NA,57.58176412289395,57.48031496062992,41.55712841253792
21239,Baltimore city,MD,NA,NA,34.68780971258672,NA,NA
21401,Anne Arundel County,MD,54.90196078431373,NA,NA,NA,NA
21601,Talbot County,MD,NA,NA,NA,77.16535433070865,32.25480283114257
21754,Frederick County,MD,90.95860566448802,NA,NA,NA,NA
21817,Somerset County,MD,99.89106753812636,NA,NA,NA,NA
21911,Cecil County,MD,NA,NA,78.79088206144698,NA,NA
01040,Hampden County,MA,NA,NA,6.2438057482656095,NA,NA
01069,Hampden County,MA,NA,NA,64.81665014866203,NA,NA
01077,Hampden County,MA,NA,NA,NA,84.70191226096738,NA
01082,Hampshire County,MA,NA,NA,NA,NA,52.88169868554095
01085,Hampden County,MA,NA,NA,NA,NA,7.077856420626897
01104,Hampden County,MA,72.65795206971679,NA,NA,NA,NA
01107,Hampden County,MA,NA,NA,NA,2.0247469066366706,NA
01108,Hampden County,MA,NA,NA,41.12983151635283,NA,NA
01118,Hampden County,MA,NA,15.588235294117647,NA,NA,NA
01151,Hampden County,MA,NA,43.529411764705884,NA,NA,NA
01201,Berkshire County,MA,NA,NA,1.4866204162537164,NA,NA
01230,Berkshire County,MA,NA,NA,NA,53.88076490438694,NA
01238,Berkshire County,MA,NA,NA,NA,NA,77.45197168857432
01247,Berkshire County,MA,NA,NA,NA,9.111361079865016,NA
01301,Franklin County,MA,NA,NA,42.120911793855306,NA,NA
01420,Worcester County,MA,NA,NA,69.17740336967294,NA,NA
01463,Middlesex County,MA,NA,NA,NA,55.118110236220474,NA
01510,Worcester County,MA,NA,NA,21.902874132804754,NA,NA
01527,Worcester County,MA,NA,16.470588235294116,NA,NA,NA
01545,Worcester County,MA,36.38344226579521,NA,NA,16.76040494938133,NA
01562,Worcester County,MA,68.51851851851852,NA,NA,NA,NA
01569,Worcester County,MA,39.106753812636164,NA,NA,NA,NA
01570,Worcester County,MA,NA,NA,NA,NA,17.69464105156724
01581,Worcester County,MA,83.76906318082789,NA,NA,NA,NA
01590,Worcester County,MA,70.80610021786492,NA,75.02477700693755,NA,NA
01603,Worcester County,MA,NA,NA,2.180376610505451,NA,NA
01604,Worcester County,MA,84.85838779956427,NA,30.822596630327055,NA,NA
01605,Worcester County,MA,5.337690631808279,NA,NA,NA,15.369059656218404
01609,Worcester County,MA,NA,NA,NA,NA,4.853387259858443
01701,Middlesex County,MA,NA,NA,NA,NA,7.381193124368049
01752,Middlesex County,MA,5.773420479302832,NA,NA,NA,NA
01757,Worcester County,MA,NA,NA,32.40832507433102,NA,NA
01760,Middlesex County,MA,NA,NA,38.85034687809713,NA,NA
01773,Middlesex County,MA,NA,NA,93.65708622398414,NA,NA
01776,Middlesex County,MA,NA,NA,46.38255698711596,NA,NA
01801,Middlesex County,MA,38.01742919389978,11.176470588235295,1.3875123885034688,NA,1.314459049544995
01810,Essex County,MA,NA,NA,NA,NA,16.683518705763397
01830,Essex County,MA,NA,NA,1.9821605550049552,NA,NA
01832,Essex County,MA,30.28322440087146,NA,NA,NA,NA
01834,Essex County,MA,NA,NA,83.15163528245787,NA,NA
01841,Essex County,MA,NA,1.1764705882352942,0.19821605550049554,NA,NA
01843,Essex County,MA,NA,7.647058823529412,NA,NA,32.153690596562186
01844,Essex County,MA,NA,NA,1.288404360753221,NA,NA
01845,Essex County,MA,NA,NA,NA,12.260967379077616,NA
01850,Middlesex County,MA,7.8431372549019605,NA,NA,NA,NA
01852,Middlesex County,MA,NA,NA,60.158572844400396,NA,NA
01854,Middlesex County,MA,NA,NA,57.284440039643215,NA,NA
01864,Middlesex County,MA,NA,NA,53.12190287413281,NA,NA
01867,Middlesex County,MA,55.33769063180828,NA,NA,9.111361079865016,NA
01876,Middlesex County,MA,NA,NA,65.21308225966304,NA,NA
01886,Middlesex County,MA,NA,NA,24.4796828543112,NA,NA
01887,Middlesex County,MA,NA,NA,NA,1.9122609673790776,NA
01890,Middlesex County,MA,75.70806100217865,NA,NA,NA,NA
01902,Essex County,MA,NA,NA,0.4955401387512388,NA,NA
01904,Essex County,MA,NA,NA,11.397423191278493,NA,63.29625884732053
01907,Essex County,MA,NA,NA,NA,37.232845894263214,70.87967644084934
01913,Essex County,MA,NA,NA,26.560951437066404,NA,68.35187057633973
01915,Essex County,MA,NA,NA,NA,NA,1.2133468149646107
01938,Essex County,MA,NA,NA,NA,16.42294713160855,NA
01940,Essex County,MA,NA,NA,NA,NA,19.009100101112235
01950,Essex County,MA,NA,NA,NA,NA,18.70576339737108
01951,Essex County,MA,98.0392156862745,NA,NA,NA,NA
01960,Essex County,MA,NA,NA,0.9910802775024776,0.3374578177727784,NA
01982,Essex County,MA,NA,NA,76.70961347869178,NA,NA
01983,Essex County,MA,61.00217864923747,NA,NA,83.80202474690664,NA
02035,Norfolk County,MA,9.477124183006536,NA,NA,NA,NA
02048,Bristol County,MA,NA,NA,NA,NA,34.98483316481295
02050,Plymouth County,MA,NA,NA,NA,78.62767154105737,NA
02056,Norfolk County,MA,NA,NA,NA,NA,91.6076845298281
02062,Norfolk County,MA,38.67102396514161,NA,NA,NA,NA
02066,Plymouth County,MA,NA,NA,39.64321110009911,NA,NA
02072,Norfolk County,MA,NA,NA,NA,7.424071991001124,NA
02081,Norfolk County,MA,NA,NA,23.984142715559962,NA,NA
02093,Norfolk County,MA,73.31154684095861,NA,NA,NA,NA
02111,Suffolk County,MA,NA,84.11764705882354,NA,NA,NA
02119,Suffolk County,MA,19.389978213507625,NA,NA,NA,NA
02120,Suffolk County,MA,92.0479302832244,NA,NA,NA,NA
02121,Suffolk County,MA,5.228758169934641,NA,NA,NA,NA
02124,Suffolk County,MA,0.2178649237472767,NA,0.09910802775024777,NA,44.28715874620829
02125,Suffolk County,MA,NA,4.705882352941177,4.360753221010902,0.6749156355455568,NA
02126,Suffolk County,MA,NA,72.05882352941177,NA,3.712035995500562,NA
02127,Suffolk County,MA,NA,NA,1.6848364717542121,NA,NA
02128,Suffolk County,MA,12.962962962962962,NA,NA,1.0123734533183353,NA
02130,Suffolk County,MA,NA,3.5294117647058822,NA,NA,3.4378159757330633
02134,Suffolk County,MA,NA,NA,NA,NA,55.91506572295247
02135,Suffolk County,MA,53.37690631808278,NA,4.757185332011893,NA,43.5793731041456
02138,Middlesex County,MA,NA,NA,64.02378592666005,NA,NA
02139,Middlesex County,MA,6.753812636165578,NA,0.39643211100099107,NA,NA
02144,Middlesex County,MA,NA,NA,21.80376610505451,NA,NA
02145,Middlesex County,MA,36.492374727668846,NA,NA,NA,NA
02148,Middlesex County,MA,NA,NA,0,3.262092238470191,NA
02151,Suffolk County,MA,NA,NA,2.0812685827552033,NA,40.647118301314464
02155,Middlesex County,MA,NA,89.70588235294117,NA,NA,NA
02176,Middlesex County,MA,NA,NA,31.714568880079284,59.730033745781775,99.59555106167846
02184,Norfolk County,MA,NA,NA,NA,39.82002249718785,NA
02186,Norfolk County,MA,25.70806100217865,NA,NA,NA,NA
02190,Norfolk County,MA,59.694989106753816,NA,29.83151635282458,NA,NA
02301,Plymouth County,MA,0.10893246187363835,NA,NA,0,NA
02302,Plymouth County,MA,NA,NA,NA,NA,25.480283114256824
02324,Plymouth County,MA,NA,NA,12.190287413280476,NA,NA
02332,Plymouth County,MA,NA,NA,74.72745292368683,66.36670416197975,NA
02338,Plymouth County,MA,NA,NA,NA,99.32508436445444,NA
02341,Plymouth County,MA,NA,NA,NA,NA,93.93326592517694
02356,Bristol County,MA,NA,NA,NA,68.61642294713161,NA
02359,Plymouth County,MA,95.86056644880175,NA,NA,NA,NA
02364,Plymouth County,MA,NA,NA,55.99603567888999,NA,NA
02368,Norfolk County,MA,NA,NA,NA,97.30033745781778,20.222446916076844
02420,Middlesex County,MA,34.85838779956427,NA,NA,NA,NA
02421,Middlesex County,MA,NA,NA,20.911793855302278,NA,44.79271991911021
02445,Norfolk County,MA,NA,NA,NA,NA,80.38422649140546
02446,Norfolk County,MA,NA,NA,NA,NA,8.493427704752275
02452,Middlesex County,MA,NA,NA,NA,42.407199100112486,NA
02453,Middlesex County,MA,NA,NA,36.47175421209118,NA,NA
02458,Middlesex County,MA,23.52941176470588,NA,NA,NA,NA
02459,Middlesex County,MA,NA,NA,NA,23.397075365579305,NA
02467,Norfolk County,MA,NA,80,NA,NA,NA
02468,Middlesex County,MA,NA,NA,88.89990089197225,NA,NA
02472,Middlesex County,MA,25.272331154684096,NA,NA,NA,12.234580384226492
02476,Middlesex County,MA,NA,NA,NA,NA,39.93933265925177
02478,Middlesex County,MA,NA,NA,NA,26.43419572553431,NA
02536,Barnstable County,MA,38.99782135076253,NA,NA,NA,NA
02537,Barnstable County,MA,NA,NA,NA,87.85151856017997,NA
02540,Barnstable County,MA,64.92374727668845,NA,NA,NA,NA
02554,Nantucket County,MA,NA,NA,NA,57.03037120359955,NA
02568,Dukes County,MA,NA,NA,73.93458870168483,NA,NA
02632,Barnstable County,MA,NA,NA,54.21209117938554,NA,NA
02653,Barnstable County,MA,NA,NA,NA,83.01462317210348,NA
02703,Bristol County,MA,1.1982570806100217,59.411764705882355,77.20515361744302,NA,NA
02724,Bristol County,MA,NA,10.588235294117647,NA,NA,NA
02726,Bristol County,MA,57.08061002178649,NA,NA,NA,NA
02740,Bristol County,MA,NA,NA,19.52428146679881,13.273340832395949,NA
02745,Bristol County,MA,30.718954248366014,NA,NA,NA,NA
02748,Bristol County,MA,NA,NA,NA,58.15523059617548,NA
02760,Bristol County,MA,17.10239651416122,55.294117647058826,NA,11.586051743532058,NA
02762,Norfolk County,MA,NA,NA,NA,NA,98.48331648129424
02766,Bristol County,MA,97.05882352941177,NA,19.722497522299307,NA,NA
02767,Bristol County,MA,NA,52.05882352941177,NA,NA,NA
02769,Bristol County,MA,NA,78.23529411764706,NA,63.217097862767154,NA
02770,Plymouth County,MA,93.68191721132898,NA,NA,NA,NA
02777,Bristol County,MA,NA,NA,8.02775024777007,NA,NA
02779,Bristol County,MA,NA,NA,NA,71.7660292463442,NA
02780,Bristol County,MA,NA,6.176470588235294,NA,NA,NA
02790,Bristol County,MA,46.07843137254902,NA,NA,NA,65.01516683518706
48005,Macomb County,MI,NA,NA,91.97224975222993,NA,NA
48014,St. Clair County,MI,NA,NA,96.72943508424183,NA,NA
48021,Macomb County,MI,41.28540305010893,NA,39.14767096134787,NA,NA
48026,Macomb County,MI,NA,NA,38.45391476709614,NA,NA
48035,Macomb County,MI,NA,NA,NA,8.998875140607424,NA
48044,Macomb County,MI,NA,NA,8.126858275520316,NA,NA
48045,Macomb County,MI,NA,NA,NA,54.105736782902135,NA
48073,Oakland County,MI,27.450980392156865,NA,NA,NA,NA
48074,St. Clair County,MI,NA,NA,71.75421209117938,NA,NA
48082,Macomb County,MI,61.87363834422658,NA,NA,NA,23.154701718907987
48091,Macomb County,MI,8.49673202614379,NA,52.03171456888008,NA,NA
48093,Macomb County,MI,NA,NA,NA,41.05736782902137,NA
48094,Macomb County,MI,NA,NA,55.4013875123885,NA,NA
48098,Oakland County,MI,NA,NA,NA,NA,48.837209302325576
48101,Wayne County,MI,NA,NA,24.578790882061448,NA,NA
48103,Washtenaw County,MI,NA,NA,48.067393458870164,NA,33.26592517694641
48105,Washtenaw County,MI,NA,NA,NA,15.185601799775029,NA
48111,Wayne County,MI,NA,NA,NA,5.286839145106861,NA
48114,Livingston County,MI,NA,NA,NA,29.133858267716533,NA
48116,Livingston County,MI,NA,NA,NA,NA,10.717896865520729
48126,Wayne County,MI,28.649237472766885,NA,NA,NA,NA
48130,Washtenaw County,MI,52.17864923747276,NA,NA,NA,NA
48131,Monroe County,MI,NA,NA,94.05351833498513,NA,NA
48134,Wayne County,MI,NA,NA,29.930624380574827,78.40269966254219,NA
48138,Wayne County,MI,90.84967320261438,NA,NA,NA,NA
48141,Wayne County,MI,NA,NA,NA,NA,29.726996966632964
48154,Wayne County,MI,16.013071895424837,NA,NA,6.411698537682789,5.25783619817998
48160,Washtenaw County,MI,22.33115468409586,NA,NA,NA,NA
48161,Monroe County,MI,NA,NA,7.433102081268583,NA,NA
48176,Washtenaw County,MI,NA,NA,NA,NA,21.435793731041457
48183,Wayne County,MI,NA,NA,9.910802775024777,5.399325084364454,10.414560161779574
48185,Wayne County,MI,NA,NA,27.056491575817642,NA,NA
48188,Wayne County,MI,5.119825708061002,NA,NA,NA,NA
48192,Wayne County,MI,NA,NA,18.929633300297326,NA,68.5540950455005
48193,Wayne County,MI,NA,NA,NA,64.56692913385827,NA
48195,Wayne County,MI,NA,NA,NA,44.20697412823397,17.593528816986854
48198,Washtenaw County,MI,2.178649237472767,15,NA,NA,NA
48209,Wayne County,MI,NA,NA,24.677898909811695,NA,NA
48210,Wayne County,MI,NA,NA,62.04162537165511,NA,NA
48212,Wayne County,MI,NA,NA,10.604558969276512,NA,NA
48213,Wayne County,MI,NA,NA,11.892963330029731,NA,NA
48214,Wayne County,MI,NA,NA,NA,26.884139482564677,NA
48216,Wayne County,MI,88.12636165577342,NA,NA,NA,NA
48218,Wayne County,MI,NA,NA,75.02477700693755,NA,NA
48219,Wayne County,MI,NA,NA,NA,20.92238470191226,13.245702730030334
48221,Wayne County,MI,NA,NA,NA,5.061867266591676,2.3255813953488373
48226,Wayne County,MI,NA,NA,NA,95.16310461192352,NA
48227,Wayne County,MI,NA,NA,NA,6.749156355455568,NA
48234,Wayne County,MI,NA,NA,NA,81.10236220472441,22.345803842264914
48235,Wayne County,MI,NA,NA,33.0029732408325,NA,NA
48236,Wayne County,MI,NA,NA,67.49256689791872,NA,NA
48237,Oakland County,MI,NA,NA,NA,19.34758155230596,27.401415571284126
48238,Wayne County,MI,NA,NA,25.074331020812686,82.45219347581553,NA
48304,Oakland County,MI,NA,NA,69.67294350842418,NA,NA
48307,Oakland County,MI,NA,NA,18.731417244796827,NA,13.346814964610717
48310,Macomb County,MI,NA,NA,16.848364717542122,NA,54.70171890798786
48313,Macomb County,MI,NA,NA,NA,23.059617547806525,NA
48316,Macomb County,MI,NA,NA,43.21110009910803,NA,NA
48317,Macomb County,MI,32.570806100217865,67.3529411764706,NA,NA,NA
48323,Oakland County,MI,58.932461873638346,NA,NA,NA,NA
48329,Oakland County,MI,NA,NA,NA,22.04724409448819,90.49544994944388
48336,Oakland County,MI,NA,NA,NA,NA,25.884732052578364
48340,Oakland County,MI,14.161220043572984,NA,NA,NA,NA
48341,Oakland County,MI,21.568627450980394,NA,NA,NA,NA
48342,Oakland County,MI,NA,NA,15.361744301288404,NA,NA
48371,Oakland County,MI,NA,NA,72.05153617443013,NA,NA
48374,Oakland County,MI,NA,NA,91.57581764122894,NA,NA
48380,Oakland County,MI,NA,NA,NA,79.6400449943757,NA
48383,Oakland County,MI,NA,NA,NA,NA,88.87765419615774
48412,Lapeer County,MI,88.88888888888889,NA,NA,89.98875140607424,NA
48415,Saginaw County,MI,NA,NA,NA,66.47919010123734,NA
48423,Genesee County,MI,46.62309368191721,NA,NA,NA,NA
48429,Shiawassee County,MI,70.80610021786492,NA,NA,NA,NA
48430,Genesee County,MI,NA,NA,NA,NA,56.72396359959555
48439,Genesee County,MI,86.71023965141612,NA,14.172447968285432,NA,11.425682507583417
48442,Oakland County,MI,NA,NA,NA,NA,59.45399393326593
48471,Sanilac County,MI,56.644880174291934,NA,NA,NA,NA
48473,Genesee County,MI,NA,96.47058823529412,NA,NA,NA
48507,Genesee County,MI,NA,NA,10.505450941526263,NA,NA
48602,Saginaw County,MI,3.376906318082789,NA,NA,NA,NA
48603,Saginaw County,MI,NA,NA,NA,NA,9.2012133468149635
48604,Saginaw County,MI,NA,NA,NA,83.35208098987627,NA
48616,Saginaw County,MI,NA,NA,NA,91.33858267716536,NA
48640,Midland County,MI,46.40522875816993,NA,NA,NA,NA
48650,Bay County,MI,49.78213507625273,NA,NA,NA,NA
48706,Bay County,MI,57.62527233115469,58.82352941176471,NA,1.2373453318335208,2.730030333670374
48708,Bay County,MI,NA,NA,7.829534192269574,NA,NA
48723,Tuscola County,MI,NA,NA,NA,NA,85.64206268958544
48732,Bay County,MI,47.385620915032675,NA,NA,NA,NA
48734,Saginaw County,MI,NA,NA,NA,NA,66.53185035389282
48759,Huron County,MI,NA,NA,NA,NA,72.69969666329625
48817,Shiawassee County,MI,NA,NA,NA,NA,67.03741152679474
48820,Clinton County,MI,NA,NA,NA,51.631046119235094,NA
48836,Livingston County,MI,NA,NA,58.07730426164519,NA,NA
48838,Montcalm County,MI,NA,NA,NA,NA,37.71486349848331
48842,Ingham County,MI,25.054466230936818,NA,NA,NA,NA
48843,Livingston County,MI,15.250544662309368,NA,NA,NA,NA
48847,Gratiot County,MI,NA,NA,NA,NA,82.6086956521739
48855,Livingston County,MI,NA,NA,75.32210109018831,52.64341957255343,NA
48858,Isabella County,MI,NA,NA,NA,NA,8.59453993933266
48867,Shiawassee County,MI,NA,37.64705882352941,NA,NA,NA
48906,Ingham County,MI,NA,NA,13.875123885034688,NA,NA
48910,Ingham County,MI,NA,NA,NA,50.95613048368954,NA
48917,Eaton County,MI,34.967320261437905,NA,NA,NA,NA
49007,Kalamazoo County,MI,NA,NA,42.319127849355795,NA,NA
49008,Kalamazoo County,MI,NA,NA,NA,54.21822272215972,NA
49014,Calhoun County,MI,NA,NA,19.920713577799802,NA,NA
49015,Calhoun County,MI,NA,NA,51.932606541129836,NA,13.65015166835187
49033,Calhoun County,MI,NA,NA,NA,98.87514060742407,NA
49048,Kalamazoo County,MI,NA,NA,18.334985133795836,NA,NA
49053,Kalamazoo County,MI,89.43355119825708,NA,NA,NA,NA
49068,Calhoun County,MI,NA,NA,NA,49.156355455568054,NA
49076,Eaton County,MI,81.69934640522875,NA,NA,NA,NA
49082,Branch County,MI,NA,NA,NA,91.22609673790775,NA
49087,Kalamazoo County,MI,NA,NA,NA,NA,97.67441860465115
49091,St. Joseph County,MI,NA,60.588235294117645,NA,NA,NA
49097,Kalamazoo County,MI,69.06318082788671,NA,NA,NA,NA
49120,Berrien County,MI,NA,NA,NA,NA,15.06572295247725
49201,Jackson County,MI,NA,NA,9.415262636273539,NA,NA
49203,Jackson County,MI,NA,NA,NA,6.299212598425196,NA
49285,Ingham County,MI,96.73202614379085,NA,NA,NA,NA
49286,Lenawee County,MI,32.570806100217865,NA,NA,NA,NA
49301,Kent County,MI,62.745098039215684,NA,NA,NA,NA
49307,Mecosta County,MI,NA,76.47058823529412,NA,NA,NA
49323,Allegan County,MI,NA,NA,85.62933597621407,NA,NA
49341,Kent County,MI,NA,NA,NA,NA,22.143579373104146
49418,Kent County,MI,NA,NA,40.93161546085233,NA,NA
49419,Allegan County,MI,89.86928104575163,NA,NA,NA,NA
49423,Ottawa County,MI,NA,NA,12.983151635282459,7.761529808773904,5.055611729019211
49426,Ottawa County,MI,19.06318082788671,NA,43.904856293359764,NA,21.334681496461073
49437,Muskegon County,MI,67.21132897603485,NA,NA,NA,NA
49441,Muskegon County,MI,NA,NA,64.22200198216056,NA,NA
49442,Muskegon County,MI,NA,NA,3.865213082259663,NA,NA
49445,Muskegon County,MI,NA,NA,38.65213082259663,NA,22.95247724974722
49504,Kent County,MI,NA,NA,77.10604558969277,NA,NA
49505,Kent County,MI,NA,34.705882352941174,NA,NA,NA
49507,Kent County,MI,NA,NA,NA,23.847019122609677,NA
49519,Kent County,MI,NA,NA,17.443012884043608,31.608548931383577,NA
49525,Kent County,MI,NA,NA,NA,25.984251968503933,NA
49534,Kent County,MI,NA,NA,NA,47.13160854893139,NA
49548,Kent County,MI,NA,NA,NA,NA,31.648129423660265
49684,Grand Traverse County,MI,NA,NA,NA,29.358830146231725,NA
49686,Grand Traverse County,MI,NA,NA,NA,NA,52.07280080889788
49738,Crawford County,MI,NA,NA,76.90782953419227,NA,NA
49783,Chippewa County,MI,40.74074074074074,65.29411764705883,22.29930624380575,NA,NA
49913,Houghton County,MI,NA,NA,61.843409316154606,NA,NA
49920,Iron County,MI,NA,NA,NA,NA,92.51769464105156
49931,Houghton County,MI,NA,NA,NA,74.9156355455568,NA
49935,Iron County,MI,NA,NA,NA,96.17547806524185,NA
49938,Gogebic County,MI,NA,NA,NA,NA,56.117290192113245
55021,Rice County,MN,45.09803921568628,NA,NA,NA,NA
55041,Wabasha County,MN,NA,NA,95.8374628344896,NA,81.09201213346815
55076,Dakota County,MN,58.71459694989106,NA,NA,NA,NA
55082,Washington County,MN,NA,NA,NA,NA,44.99494438827098
55102,Ramsey County,MN,NA,NA,NA,42.407199100112486,NA
55105,Ramsey County,MN,94.77124183006535,NA,NA,NA,NA
55106,Ramsey County,MN,1.8518518518518516,5.588235294117648,6.838453914767097,NA,NA
55112,Ramsey County,MN,NA,NA,44.49950445986125,NA,NA
55113,Ramsey County,MN,NA,77.94117647058823,NA,NA,59.150657229524775
55117,Ramsey County,MN,NA,72.6470588235294,NA,NA,NA
55124,Dakota County,MN,NA,NA,41.823587710604556,NA,NA
55126,Ramsey County,MN,67.53812636165577,NA,NA,NA,93.02325581395348
55302,Wright County,MN,NA,NA,NA,NA,89.78766430738119
55305,Hennepin County,MN,NA,NA,NA,NA,33.367037411526795
55318,Carver County,MN,NA,NA,NA,NA,99.69666329625885
55320,Wright County,MN,99.67320261437908,NA,NA,NA,NA
55347,Hennepin County,MN,NA,NA,NA,65.91676040494939,NA
55362,Wright County,MN,48.25708061002179,NA,NA,NA,NA
55369,Hennepin County,MN,11.87363834422658,NA,NA,NA,NA
55401,Hennepin County,MN,NA,NA,67.88899900891973,NA,NA
55403,Hennepin County,MN,NA,NA,95.14370664023785,72.21597300337457,NA
55404,Hennepin County,MN,24.509803921568626,17.647058823529413,49.65312190287413,NA,NA
55406,Hennepin County,MN,NA,NA,NA,30.25871766029246,NA
55407,Hennepin County,MN,NA,34.411764705882355,NA,NA,NA
55416,Hennepin County,MN,31.372549019607842,NA,NA,NA,NA
55417,Hennepin County,MN,72.00435729847494,NA,NA,NA,NA
55418,Hennepin County,MN,9.477124183006536,NA,NA,NA,48.33164812942366
55423,Hennepin County,MN,NA,NA,NA,NA,69.26188068756319
55429,Hennepin County,MN,NA,85,NA,NA,NA
55435,Hennepin County,MN,NA,NA,NA,NA,58.74620829120324
55439,Hennepin County,MN,NA,NA,96.63032705649157,NA,NA
55444,Hennepin County,MN,97.27668845315904,NA,NA,NA,NA
55448,Anoka County,MN,NA,NA,44.400396432111,NA,NA
55807,St. Louis County,MN,NA,22.35294117647059,NA,NA,NA
55904,Olmsted County,MN,NA,66.76470588235294,NA,NA,NA
55906,Olmsted County,MN,NA,NA,NA,NA,62.588473205257834
55947,Houston County,MN,NA,NA,97.02675916749257,NA,NA
55981,Wabasha County,MN,NA,NA,NA,NA,50.6572295247725
56007,Freeborn County,MN,NA,NA,NA,NA,47.4216380182002
56073,Brown County,MN,NA,NA,59.16749256689792,NA,NA
56187,Nobles County,MN,NA,NA,88.30525272547077,NA,NA
56308,Douglas County,MN,42.48366013071895,NA,NA,NA,4.752275025278059
56401,Crow Wing County,MN,NA,NA,59.66303270564916,NA,NA
56474,Cass County,MN,74.83660130718954,NA,NA,NA,NA
56479,Todd County,MN,NA,NA,82.55698711595639,NA,NA
56537,Otter Tail County,MN,NA,NA,NA,9.448818897637794,NA
56557,Norman County,MN,NA,NA,NA,98.5376827896513,NA
56560,Clay County,MN,1.3071895424836601,NA,NA,NA,10.212335692618806
56601,Beltrami County,MN,NA,NA,NA,1.124859392575928,NA
56621,Clearwater County,MN,NA,NA,NA,65.80427446569179,NA
56636,Itasca County,MN,86.38344226579521,NA,NA,NA,NA
56701,Pennington County,MN,NA,NA,NA,NA,30.738119312436808
38618,Tate County,MS,82.24400871459694,NA,NA,NA,NA
38652,Union County,MS,NA,88.23529411764706,NA,NA,80.788675429727
38654,DeSoto County,MS,NA,NA,NA,22.49718785151856,NA
38671,DeSoto County,MS,NA,NA,NA,NA,91.30434782608695
38703,Washington County,MS,NA,NA,NA,NA,77.75530839231547
38804,Lee County,MS,64.70588235294117,NA,NA,NA,NA
38843,Itawamba County,MS,NA,NA,NA,92.2384701912261,NA
38860,Chickasaw County,MS,NA,NA,NA,93.58830146231722,NA
38863,Pontotoc County,MS,NA,NA,NA,NA,43.78159757330637
38930,Leflore County,MS,22.54901960784314,NA,NA,NA,NA
39042,Rankin County,MS,NA,NA,NA,32.95838020247469,NA
39047,Rankin County,MS,NA,NA,NA,NA,36.905965621840245
39059,Copiah County,MS,NA,NA,NA,NA,80.88978766430738
39083,Copiah County,MS,59.150326797385624,NA,NA,NA,NA
39090,Attala County,MS,NA,53.8235294117647,NA,68.39145106861643,NA
39092,Scott County,MS,NA,NA,93.55797819623389,NA,NA
39110,Madison County,MS,NA,54.70588235294118,NA,NA,NA
39180,Warren County,MS,NA,NA,NA,NA,34.681496461071795
39183,Warren County,MS,NA,NA,NA,NA,77.14863498483317
39206,Hinds County,MS,NA,NA,NA,NA,72.59858442871587
39213,Hinds County,MS,NA,NA,NA,55.118110236220474,NA
39272,Hinds County,MS,NA,NA,NA,NA,78.76643073811931
39307,Lauderdale County,MS,NA,NA,NA,71.42857142857143,NA
39350,Neshoba County,MS,NA,NA,NA,33.29583802024747,NA
39365,Neshoba County,MS,NA,NA,NA,NA,83.11425682507584
39401,Forrest County,MS,NA,NA,NA,NA,28.109201213346815
39428,Covington County,MS,NA,NA,80.67393458870168,NA,NA
39437,Jones County,MS,NA,NA,86.62041625371654,NA,NA
39452,George County,MS,8.823529411764707,NA,NA,NA,NA
39459,Jones County,MS,NA,91.76470588235294,NA,NA,NA
39475,Lamar County,MS,NA,NA,NA,NA,84.5298281092012
39483,Marion County,MS,NA,NA,86.22398414271557,NA,NA
39501,Harrison County,MS,NA,NA,NA,17.99775028121485,NA
39503,Harrison County,MS,NA,NA,NA,NA,5.763397371081901
39520,Hancock County,MS,NA,NA,NA,NA,54.60060667340748
39532,Harrison County,MS,20.588235294117645,NA,NA,NA,NA
39563,Jackson County,MS,NA,NA,54.31119920713577,NA,NA
39667,Walthall County,MS,NA,NA,NA,67.82902137232846,NA
39730,Monroe County,MS,NA,NA,NA,NA,58.64509605662285
39759,Oktibbeha County,MS,35.83877995642701,NA,NA,NA,NA
39773,Clay County,MS,82.6797385620915,NA,70.06937561942517,NA,NA
63028,Jefferson County,MO,NA,NA,25.569871159563924,NA,NA
63031,St. Louis County,MO,NA,NA,NA,NA,6.875631951466127
63033,St. Louis County,MO,NA,NA,NA,13.385826771653544,NA
63043,St. Louis County,MO,NA,NA,NA,53.093363329583795,NA
63109,St. Louis city,MO,NA,NA,NA,NA,54.80283114256825
63113,St. Louis city,MO,NA,NA,NA,NA,69.05965621840244
63115,St. Louis city,MO,NA,NA,NA,58.94263217097863,NA
63119,St. Louis County,MO,NA,NA,NA,47.35658042744657,NA
63120,St. Louis city,MO,NA,NA,NA,NA,95.24772497472193
63122,St. Louis County,MO,NA,NA,NA,25.75928008998875,NA
63123,St. Louis County,MO,NA,NA,39.345887016848366,NA,2.62891809908999
63129,St. Louis County,MO,NA,NA,NA,NA,8.796764408493427
63130,St. Louis County,MO,NA,NA,NA,60.17997750281214,NA
63146,St. Louis County,MO,NA,NA,NA,NA,6.471183013144591
63301,St. Charles County,MO,NA,NA,NA,3.149606299212598,NA
63366,St. Charles County,MO,9.368191721132897,NA,NA,4.274465691788527,NA
63385,St. Charles County,MO,NA,78.52941176470588,NA,NA,NA
63645,Madison County,MO,NA,50.294117647058826,NA,NA,NA
63703,Cape Girardeau County,MO,NA,NA,NA,NA,79.27199191102123
63755,Cape Girardeau County,MO,NA,NA,NA,NA,33.56926188068756
63801,Scott County,MO,8.60566448801743,NA,NA,30.708661417322837,52.37613751263903
63873,New Madrid County,MO,NA,NA,NA,NA,87.96764408493428
63876,Dunklin County,MO,NA,91.17647058823529,NA,NA,NA
63935,Ripley County,MO,62.745098039215684,NA,NA,66.47919010123734,NA
64029,Jackson County,MO,27.124183006535947,NA,NA,NA,NA
64030,Jackson County,MO,NA,NA,NA,NA,39.02932254802831
64048,Clay County,MO,98.47494553376906,NA,NA,NA,NA
64050,Jackson County,MO,NA,39.411764705882355,NA,NA,NA
64052,Jackson County,MO,NA,NA,10.802775024777008,NA,NA
64055,Jackson County,MO,35.5119825708061,NA,7.631318136769079,NA,NA
64060,Clay County,MO,NA,NA,NA,NA,65.31850353892821
64068,Clay County,MO,8.169934640522875,NA,NA,NA,NA
64086,Jackson County,MO,NA,NA,36.57086223984143,NA,52.27502527805864
64111,Jackson County,MO,NA,85.88235294117646,NA,NA,NA
64117,Clay County,MO,NA,NA,NA,47.80652418447694,79.77755308392315
64118,Clay County,MO,8.387799564270153,NA,NA,NA,NA
64119,Clay County,MO,NA,NA,NA,NA,33.872598584428715
64123,Jackson County,MO,NA,44.41176470588235,NA,NA,NA
64126,Jackson County,MO,53.37690631808278,NA,NA,NA,NA
64132,Jackson County,MO,67.86492374727669,NA,NA,NA,NA
64133,Jackson County,MO,51.525054466230934,NA,NA,NA,NA
64138,Jackson County,MO,NA,NA,NA,NA,30.030333670374116
64154,Platte County,MO,NA,NA,76.1149653121903,NA,NA
64157,Clay County,MO,NA,NA,87.90882061446978,NA,NA
64468,Nodaway County,MO,NA,NA,NA,62.31721034870641,NA
64501,Buchanan County,MO,NA,NA,86.32309217046581,NA,NA
64503,Buchanan County,MO,21.895424836601308,NA,NA,NA,NA
64505,Buchanan County,MO,29.193899782135073,NA,NA,NA,NA
64506,Buchanan County,MO,NA,NA,NA,NA,14.155712841253793
64644,Caldwell County,MO,NA,NA,98.41427155599604,NA,NA
64735,Henry County,MO,95.09803921568627,NA,NA,NA,71.68857431749241
64772,Vernon County,MO,45.969498910675384,NA,NA,NA,NA
64776,St. Clair County,MO,NA,NA,NA,NA,91.80990899898887
64801,Jasper County,MO,11.328976034858387,NA,NA,14.39820022497188,NA
64804,Jasper County,MO,NA,NA,17.74033696729435,NA,NA
65020,Camden County,MO,NA,NA,NA,NA,54.19615773508595
65202,Boone County,MO,1.9607843137254901,NA,NA,NA,NA
65203,Boone County,MO,NA,NA,NA,NA,29.524772497472195
65265,Audrain County,MO,NA,NA,NA,NA,47.118301314459046
65301,Pettis County,MO,NA,NA,NA,NA,27.199191102123354
65441,Crawford County,MO,96.51416122004358,NA,NA,93.25084364454443,NA
65536,Laclede County,MO,NA,NA,43.409316154608526,NA,NA
65613,Polk County,MO,NA,NA,90.78295341922696,NA,NA
65781,Greene County,MO,NA,NA,NA,NA,88.97876643073812
65803,Greene County,MO,NA,NA,NA,NA,19.312436804853387
65804,Greene County,MO,NA,NA,NA,NA,14.661274014155712
65807,Greene County,MO,NA,NA,29.137760158572846,NA,NA
59101,Yellowstone County,MT,NA,NA,NA,25.084364454443193,NA
59102,Yellowstone County,MT,NA,NA,NA,31.158605174353205,NA
59501,Hill County,MT,87.4727668845316,NA,NA,NA,NA
59602,Lewis and Clark County,MT,NA,NA,NA,NA,33.9737108190091
59701,Silver Bow County,MT,NA,NA,95.63924677898909,74.24071991001125,NA
59718,Gallatin County,MT,NA,NA,NA,92.57592800899887,NA
59860,Lake County,MT,NA,NA,NA,48.4814398200225,NA
59901,Flathead County,MT,NA,NA,NA,NA,1.0111223458038423
68106,Douglas County,NE,56.209150326797385,84.11764705882354,NA,NA,NA
68114,Douglas County,NE,NA,NA,NA,NA,46.30940343781597
68124,Douglas County,NE,NA,NA,92.76511397423192,NA,NA
68152,Douglas County,NE,NA,NA,NA,90.88863892013498,NA
68154,Douglas County,NE,77.12418300653596,NA,NA,NA,55.106167846309404
68310,Gage County,NE,NA,NA,NA,NA,15.267947421638016
68467,York County,NE,NA,NA,NA,68.7289088863892,NA
68507,Lancaster County,NE,96.94989106753813,NA,NA,NA,NA
68521,Lancaster County,NE,NA,NA,65.01486620416253,NA,NA
68522,Lancaster County,NE,90.95860566448802,NA,NA,NA,NA
68601,Platte County,NE,60.130718954248366,NA,NA,NA,NA
68801,Hall County,NE,NA,NA,85.53022794846382,NA,NA
68949,Phelps County,NE,69.06318082788671,NA,NA,NA,NA
69130,Dawson County,NE,NA,NA,98.71159563924678,NA,NA
69301,Box Butte County,NE,NA,NA,71.95242814667988,NA,NA
69361,Scotts Bluff County,NE,NA,NA,NA,NA,60.86956521739131
89101,Clark County,NV,NA,NA,30.02973240832507,NA,NA
89104,Clark County,NV,NA,NA,41.22893954410307,NA,NA
89119,Clark County,NV,NA,NA,NA,NA,60.46511627906976
89123,Clark County,NV,NA,NA,NA,NA,50.25278058645096
89135,Clark County,NV,NA,NA,NA,NA,56.926188068756325
89141,Clark County,NV,NA,NA,79.58374628344896,NA,NA
89144,Clark County,NV,NA,NA,NA,87.06411698537683,NA
89406,Churchill County,NV,NA,NA,44.5986124876115,NA,NA
89431,Washoe County,NV,30.610021786492375,NA,NA,43.41957255343082,NA
89441,Washoe County,NV,NA,NA,NA,NA,81.3953488372093
89445,Humboldt County,NV,NA,NA,92.9633300297324,80.76490438695163,NA
89460,Douglas County,NV,NA,NA,NA,51.5185601799775,NA
89512,Washoe County,NV,NA,NA,16.94747274529237,NA,NA
89701,Carson City,NV,NA,NA,NA,47.24409448818898,43.174924165824066
03037,Rockingham County,NH,98.14814814814815,NA,NA,NA,NA
03038,Rockingham County,NH,NA,70.29411764705881,NA,NA,NA
03049,Hillsborough County,NH,85.62091503267973,NA,NA,NA,NA
03053,Rockingham County,NH,NA,NA,28.840436075322103,24.521934758155233,NA
03060,Hillsborough County,NH,NA,15.88235294117647,NA,NA,NA
03062,Hillsborough County,NH,NA,NA,19.425173439048564,62.65466816647919,13.852376137512639
03076,Hillsborough County,NH,NA,NA,NA,NA,62.38624873609707
03102,Hillsborough County,NH,NA,52.05882352941177,22.398414271555996,15.748031496062993,NA
03103,Hillsborough County,NH,2.0697167755991286,NA,NA,NA,NA
03104,Hillsborough County,NH,NA,NA,14.767096134786916,NA,24.87360970677452
03246,Belknap County,NH,NA,NA,52.82457879088206,NA,NA
03249,Belknap County,NH,NA,NA,NA,NA,90.29322548028311
03264,Grafton County,NH,NA,62.35294117647059,NA,NA,NA
03301,Merrimack County,NH,19.06318082788671,NA,NA,NA,NA
03431,Cheshire County,NH,NA,NA,NA,29.808773903262093,NA
03458,Hillsborough County,NH,NA,NA,NA,NA,40.04044489383215
03743,Sullivan County,NH,NA,NA,NA,NA,31.04145601617796
03755,Grafton County,NH,NA,NA,98.1169474727453,NA,NA
03773,Sullivan County,NH,NA,55.00000000000001,NA,NA,NA
03820,Strafford County,NH,NA,65.29411764705883,NA,NA,NA
03833,Rockingham County,NH,NA,NA,NA,72.32845894263217,NA
03848,Rockingham County,NH,NA,NA,75.5203171456888,NA,NA
07001,Middlesex County,NJ,NA,71.76470588235294,NA,NA,NA
07003,Essex County,NJ,NA,NA,NA,NA,31.445904954499493
07011,Passaic County,NJ,NA,NA,NA,28.23397075365579,NA
07013,Passaic County,NJ,NA,NA,NA,NA,49.140546006066735
07024,Bergen County,NJ,NA,NA,69.47472745292369,NA,NA
07032,Hudson County,NJ,NA,NA,NA,NA,62.89180990899899
07039,Essex County,NJ,NA,NA,22.001982160555006,NA,65.52072800808898
07050,Essex County,NJ,50.108932461873636,NA,NA,NA,NA
07054,Morris County,NJ,NA,NA,NA,37.79527559055118,NA
07060,Union County,NJ,44.008714596949886,NA,NA,NA,NA
07083,Union County,NJ,NA,NA,NA,NA,25.075834175935285
07104,Essex County,NJ,NA,NA,NA,NA,22.75025278058645
07108,Essex County,NJ,NA,NA,NA,NA,67.74519716885743
07109,Essex County,NJ,NA,NA,NA,NA,63.902932254802835
07111,Essex County,NJ,NA,NA,95.34192269573836,NA,NA
07304,Hudson County,NJ,NA,NA,3.270564915758176,NA,38.119312436804854
07305,Hudson County,NJ,NA,NA,0.8919722497522299,NA,NA
07416,Sussex County,NJ,NA,75.29411764705883,NA,NA,NA
07419,Sussex County,NJ,88.77995642701525,NA,NA,NA,NA
07424,Passaic County,NJ,NA,NA,73.43904856293359,58.83014623172104,NA
07503,Passaic County,NJ,NA,NA,NA,NA,84.12537917087968
07512,Passaic County,NJ,90.6318082788671,NA,NA,NA,NA
07514,Passaic County,NJ,NA,NA,66.89791873141725,NA,NA
07522,Passaic County,NJ,92.9193899782135,NA,NA,NA,NA
07601,Bergen County,NJ,NA,13.823529411764707,NA,NA,NA
07607,Bergen County,NJ,NA,NA,NA,80.42744656917885,NA
07640,Bergen County,NJ,NA,NA,NA,NA,97.77553083923155
07660,Bergen County,NJ,NA,NA,NA,NA,82.91203235591507
07661,Bergen County,NJ,NA,NA,NA,NA,96.96663296258848
07666,Bergen County,NJ,40.74074074074074,NA,NA,NA,NA
07724,Monmouth County,NJ,NA,NA,28.44400396432111,NA,NA
07728,Monmouth County,NJ,NA,NA,NA,14.173228346456693,NA
07730,Monmouth County,NJ,NA,NA,NA,NA,66.73407482305359
07740,Monmouth County,NJ,NA,NA,6.937561942517344,NA,68.85743174924166
07753,Monmouth County,NJ,NA,NA,5.847373637264618,NA,9.504550050556118
07821,Sussex County,NJ,NA,NA,NA,NA,97.97775530839232
07828,Morris County,NJ,NA,NA,60.75322101090188,NA,NA
07850,Morris County,NJ,NA,NA,80.67393458870168,NA,NA
07885,Morris County,NJ,NA,56.1764705882353,NA,NA,NA
07922,Union County,NJ,NA,NA,NA,NA,85.54095045500506
07932,Morris County,NJ,NA,NA,NA,NA,73.7108190091001
07960,Morris County,NJ,NA,NA,NA,21.372328458942633,NA
08004,Camden County,NJ,NA,NA,NA,NA,98.17997977755309
08005,Ocean County,NJ,28.86710239651416,NA,NA,NA,NA
08012,Camden County,NJ,NA,NA,NA,NA,39.43377148634985
08021,Camden County,NJ,NA,3.823529411764706,NA,NA,NA
08043,Camden County,NJ,26.797385620915033,NA,NA,NA,NA
08052,Burlington County,NJ,72.98474945533769,NA,NA,45.556805399325086,NA
08054,Burlington County,NJ,30.065359477124183,NA,NA,NA,NA
08062,Gloucester County,NJ,50.21786492374728,NA,38.949454905847375,NA,NA
08079,Salem County,NJ,NA,NA,NA,NA,89.98988877654196
08096,Gloucester County,NJ,70.1525054466231,NA,NA,NA,NA
08106,Camden County,NJ,93.24618736383442,NA,NA,NA,NA
08204,Cape May County,NJ,NA,NA,NA,NA,28.412537917087967
08223,Cape May County,NJ,95.96949891067538,NA,NA,NA,NA
08232,Atlantic County,NJ,NA,NA,NA,NA,88.27098078867543
08330,Atlantic County,NJ,NA,NA,NA,32.73340832395951,NA
08332,Cumberland County,NJ,NA,NA,10.20812685827552,NA,NA
08401,Atlantic County,NJ,NA,NA,0.5946481665014867,2.3622047244094486,NA
08611,Mercer County,NJ,NA,6.764705882352941,NA,NA,NA
08618,Mercer County,NJ,NA,NA,NA,38.920134983127106,NA
08619,Mercer County,NJ,NA,NA,NA,60.292463442069746,NA
08701,Ocean County,NJ,0,NA,NA,NA,NA
08721,Ocean County,NJ,NA,NA,NA,58.04274465691789,NA
08757,Ocean County,NJ,NA,NA,13.37958374628345,NA,6.268958543983821
08812,Middlesex County,NJ,NA,NA,NA,NA,94.53993933265924
08831,Middlesex County,NJ,NA,NA,NA,8.211473565804274,1.6177957532861478
08854,Middlesex County,NJ,NA,NA,8.325074331020813,NA,NA
08861,Middlesex County,NJ,NA,NA,NA,4.724409448818897,NA
08873,Somerset County,NJ,42.70152505446623,NA,47.869177403369676,NA,NA
08882,Middlesex County,NJ,NA,NA,63.62735381565907,NA,NA
87015,Santa Fe County,NM,NA,NA,81.56590683845391,NA,NA
87031,Valencia County,NM,NA,28.52941176470588,NA,NA,NA
87102,Bernalillo County,NM,66.99346405228758,NA,NA,NA,NA
87105,Bernalillo County,NM,NA,6.470588235294119,NA,NA,68.95854398382204
87106,Bernalillo County,NM,19.498910675381264,NA,NA,NA,NA
87109,Bernalillo County,NM,NA,NA,18.23587710604559,NA,9.706774519716886
87110,Bernalillo County,NM,4.901960784313726,NA,NA,9.786276715410573,NA
87112,Bernalillo County,NM,NA,NA,NA,NA,4.246713852376137
87121,Bernalillo County,NM,2.941176470588235,NA,NA,NA,NA
87123,Bernalillo County,NM,61.546840958605664,NA,NA,NA,NA
87124,Sandoval County,NM,NA,NA,12.289395441030724,NA,NA
87301,McKinley County,NM,NA,83.23529411764706,NA,NA,NA
87323,McKinley County,NM,97.1677559912854,NA,NA,NA,NA
87327,Cibola County,NM,NA,26.764705882352942,NA,NA,NA
87402,San Juan County,NM,NA,NA,NA,88.86389201349832,NA
87420,San Juan County,NM,NA,NA,NA,95.95050618672666,NA
87501,Santa Fe County,NM,NA,NA,89.59365708622398,NA,NA
87505,Santa Fe County,NM,NA,NA,NA,NA,10.111223458038422
87740,Colfax County,NM,79.95642701525054,NA,NA,NA,NA
88007,Doa Ana County,NM,NA,NA,NA,59.280089988751406,NA
88011,Doa Ana County,NM,NA,NA,57.18533201189297,NA,NA
88021,Doa Ana County,NM,NA,NA,78.1962338949455,NA,NA
88030,Luna County,NM,NA,NA,NA,48.818897637795274,NA
88101,Curry County,NM,NA,NA,94.25173439048564,NA,NA
88240,Lea County,NM,NA,NA,NA,18.785151856017997,26.08695652173913
88310,Otero County,NM,NA,NA,NA,NA,5.96562184024267
88352,Otero County,NM,NA,NA,85.33201189296334,NA,NA
10002,New York County,NY,NA,NA,NA,2.1372328458942635,NA
10011,New York County,NY,NA,NA,NA,18.335208098987625,NA
10012,New York County,NY,NA,NA,NA,NA,80.58645096056622
10018,New York County,NY,NA,NA,NA,NA,88.97876643073812
10019,New York County,NY,NA,NA,66.20416253716552,NA,21.840242669362993
10025,New York County,NY,NA,NA,NA,0.7874015748031495,NA
10027,New York County,NY,NA,9.411764705882353,5.351833498513379,NA,23.761375126390295
10028,New York County,NY,NA,88.8235294117647,NA,NA,NA
10029,New York County,NY,NA,NA,NA,0.22497187851518563,NA
10031,New York County,NY,NA,NA,8.820614469772051,15.410573678290213,NA
10032,New York County,NY,NA,6.764705882352941,NA,NA,NA
10033,New York County,NY,NA,NA,69.27651139742319,NA,NA
10035,New York County,NY,NA,NA,NA,7.19910011248594,NA
10036,New York County,NY,NA,NA,40.634291377601585,NA,NA
10038,New York County,NY,NA,NA,NA,44.31946006749156,NA
10075,New York County,NY,NA,85.29411764705883,NA,NA,51.36501516683518
10304,Richmond County,NY,34.42265795206972,NA,NA,NA,NA
10305,Richmond County,NY,NA,NA,NA,NA,28.91809908998989
10309,Richmond County,NY,NA,NA,99.90089197224975,NA,NA
10310,Richmond County,NY,35.18518518518518,NA,NA,45.10686164229472,NA
10312,Richmond County,NY,NA,NA,NA,26.659167604049493,NA
10451,Bronx County,NY,NA,3.2352941176470593,NA,NA,30.434782608695656
10452,Bronx County,NY,1.5250544662309369,NA,NA,NA,NA
10453,Bronx County,NY,0.32679738562091504,NA,NA,NA,NA
10454,Bronx County,NY,7.18954248366013,NA,NA,NA,86.24873609706775
10455,Bronx County,NY,75.2723311546841,2.6470588235294117,NA,43.7570303712036,NA
10456,Bronx County,NY,NA,NA,0.29732408325074333,2.249718785151856,2.4266936299292214
10457,Bronx County,NY,NA,0.8823529411764706,NA,NA,NA
10458,Bronx County,NY,NA,0.5882352941176471,NA,NA,NA
10460,Bronx County,NY,NA,2.3529411764705883,NA,NA,NA
10462,Bronx County,NY,NA,NA,6.442021803766106,3.937007874015748,NA
10463,Bronx County,NY,23.74727668845316,36.470588235294116,NA,27.78402699662542,NA
10466,Bronx County,NY,32.24400871459695,NA,NA,1.574803149606299,NA
10467,Bronx County,NY,0.5446623093681917,0.29411764705882354,5.550049554013875,NA,1.4155712841253791
10468,Bronx County,NY,2.7233115468409586,NA,NA,NA,NA
10469,Bronx County,NY,NA,NA,NA,6.074240719910011,NA
10472,Bronx County,NY,NA,NA,NA,NA,49.140546006066735
10473,Bronx County,NY,NA,NA,23.785926660059463,NA,NA
10475,Bronx County,NY,NA,NA,NA,NA,31.344792719919113
10514,Westchester County,NY,84.74945533769062,NA,NA,NA,NA
10523,Westchester County,NY,NA,NA,95.73835480673935,NA,NA
10533,Westchester County,NY,NA,NA,NA,NA,68.45298281092013
10550,Westchester County,NY,NA,NA,NA,24.296962879640045,NA
10552,Westchester County,NY,NA,NA,NA,NA,67.9474216380182
10583,Westchester County,NY,NA,NA,NA,NA,26.08695652173913
10701,Westchester County,NY,NA,2.941176470588235,NA,NA,56.825075834175934
10705,Westchester County,NY,24.40087145969499,NA,NA,NA,NA
10706,Westchester County,NY,NA,NA,99.60356788899901,NA,NA
10708,Westchester County,NY,93.68191721132898,NA,NA,NA,NA
10801,Westchester County,NY,42.91938997821351,NA,NA,NA,NA
10952,Rockland County,NY,73.63834422657952,NA,NA,86.0517435320585,NA
10977,Rockland County,NY,NA,NA,NA,NA,49.94944388270981
10990,Orange County,NY,NA,NA,NA,NA,41.15267947421638
11023,Nassau County,NY,NA,NA,NA,NA,84.6309403437816
11096,Nassau County,NY,99.23747276688452,NA,NA,NA,NA
11101,Queens County,NY,NA,NA,83.84539147670962,NA,NA
11105,Queens County,NY,NA,NA,85.43111992071358,NA,NA
11201,Kings County,NY,NA,NA,NA,NA,22.24469160768453
11203,Kings County,NY,NA,NA,37.06640237859267,34.87064116985377,NA
11207,Kings County,NY,0.6535947712418301,1.4705882352941175,5.450941526263628,NA,NA
11208,Kings County,NY,NA,NA,1.1892963330029733,NA,NA
11212,Kings County,NY,12.745098039215685,NA,7.333994053518335,NA,NA
11213,Kings County,NY,21.67755991285403,12.941176470588237,NA,NA,NA
11214,Kings County,NY,76.90631808278867,NA,NA,NA,NA
11215,Kings County,NY,NA,NA,NA,35.9955005624297,NA
11218,Kings County,NY,44.44444444444444,NA,NA,14.735658042744657,5.864509605662286
11219,Kings County,NY,NA,21.764705882352942,NA,NA,NA
11220,Kings County,NY,29.629629629629626,0,4.063429137760158,NA,NA
11221,Kings County,NY,NA,NA,NA,NA,4.550050556117291
11223,Kings County,NY,22.113289760348582,NA,NA,NA,NA
11224,Kings County,NY,NA,5,20.713577799801783,NA,NA
11226,Kings County,NY,NA,NA,NA,20.022497187851517,NA
11230,Kings County,NY,NA,NA,NA,43.082114735658045,NA
11231,Kings County,NY,NA,38.529411764705884,NA,NA,NA
11232,Kings County,NY,NA,NA,95.24281466798811,NA,NA
11233,Kings County,NY,NA,NA,27.849355797819626,NA,NA
11234,Kings County,NY,30.065359477124183,NA,21.605550049554015,11.698537682789652,NA
11235,Kings County,NY,NA,NA,NA,NA,1.1122345803842264
11238,Kings County,NY,NA,NA,NA,13.498312710911136,NA
11354,Queens County,NY,21.78649237472767,NA,NA,NA,NA
11355,Queens County,NY,51.307189542483655,NA,NA,17.99775028121485,NA
11360,Queens County,NY,NA,NA,NA,NA,44.388270980788676
11362,Queens County,NY,NA,NA,96.92765113974232,NA,NA
11366,Queens County,NY,NA,NA,91.77403369672945,NA,NA
11367,Queens County,NY,NA,NA,50.24777006937562,NA,NA
11368,Queens County,NY,NA,NA,NA,17.66029246344207,NA
11372,Queens County,NY,NA,8.529411764705882,NA,NA,NA
11373,Queens County,NY,42.91938997821351,NA,NA,16.647919010123736,NA
11374,Queens County,NY,75.81699346405229,NA,71.45688800792864,NA,NA
11412,Queens County,NY,NA,NA,52.82457879088206,50.0562429696288,NA
11413,Queens County,NY,NA,NA,NA,NA,60.97067745197169
11416,Queens County,NY,81.59041394335512,NA,NA,NA,NA
11418,Queens County,NY,32.89760348583878,NA,47.968285431119924,NA,NA
11419,Queens County,NY,NA,NA,NA,68.16647919010124,NA
11420,Queens County,NY,NA,37.05882352941177,NA,NA,NA
11423,Queens County,NY,78.64923747276688,NA,NA,NA,NA
11427,Queens County,NY,NA,NA,90.8820614469772,NA,NA
11434,Queens County,NY,47.930283224400874,NA,NA,NA,16.582406471183013
11435,Queens County,NY,NA,NA,11.992071357779981,NA,NA
11510,Nassau County,NY,NA,NA,66.50148662041624,NA,NA
11560,Nassau County,NY,NA,NA,NA,94.48818897637796,NA
11563,Nassau County,NY,93.68191721132898,NA,NA,NA,NA
11570,Nassau County,NY,NA,NA,94.94549058473737,NA,NA
11691,Queens County,NY,NA,NA,NA,6.186726659167604,NA
11693,Queens County,NY,NA,70.88235294117648,NA,NA,NA
11717,Suffolk County,NY,15.795206971677562,NA,20.118929633300297,NA,NA
11754,Suffolk County,NY,NA,NA,NA,NA,90.59656218402426
11756,Nassau County,NY,91.83006535947712,NA,NA,NA,NA
11772,Suffolk County,NY,NA,NA,NA,27.334083239595053,NA
11798,Suffolk County,NY,NA,NA,NA,NA,77.24974721941355
11961,Suffolk County,NY,NA,NA,NA,64.90438695163104,NA
12018,Rensselaer County,NY,93.35511982570807,NA,NA,NA,NA
12020,Saratoga County,NY,NA,NA,21.506442021803764,NA,NA
12047,Albany County,NY,38.453159041394336,NA,NA,NA,NA
12078,Fulton County,NY,NA,NA,NA,8.548931383577054,NA
12180,Rensselaer County,NY,NA,NA,2.4777006937561943,NA,NA
12206,Albany County,NY,NA,NA,NA,NA,92.21435793731041
12303,Schenectady County,NY,NA,22.35294117647059,40.83250743310208,NA,NA
12306,Schenectady County,NY,NA,NA,87.41328047571854,NA,NA
12401,Ulster County,NY,NA,NA,22.794846382556987,NA,30.1314459049545
12414,Greene County,NY,NA,NA,55.50049554013875,NA,NA
12533,Dutchess County,NY,NA,NA,NA,NA,61.67846309403438
12534,Columbia County,NY,NA,NA,NA,20.13498312710911,13.447927199191101
12561,Ulster County,NY,NA,NA,91.67492566897918,NA,NA
12790,Sullivan County,NY,NA,NA,NA,NA,93.42770475227502
12804,Warren County,NY,NA,NA,8.424182358771061,NA,NA
12839,Washington County,NY,NA,NA,NA,51.85601799775028,NA
12866,Saratoga County,NY,NA,NA,14.866204162537166,NA,NA
12883,Essex County,NY,NA,NA,92.66600594648166,NA,NA
12901,Clinton County,NY,NA,NA,NA,NA,6.673407482305358
12953,Franklin County,NY,NA,NA,NA,19.68503937007874,NA
12986,Franklin County,NY,54.90196078431373,NA,NA,NA,NA
13021,Cayuga County,NY,NA,NA,3.7661050545094152,NA,NA
13039,Onondaga County,NY,48.69281045751634,NA,NA,NA,NA
13041,Onondaga County,NY,NA,NA,NA,79.41507311586051,NA
13069,Oswego County,NY,NA,NA,NA,NA,76.9464105156724
13114,Oswego County,NY,NA,NA,NA,NA,98.98887765419616
13152,Onondaga County,NY,74.40087145969498,NA,NA,NA,NA
13165,Seneca County,NY,NA,NA,28.14667988107037,NA,NA
13204,Onondaga County,NY,7.625272331154684,NA,NA,NA,NA
13206,Onondaga County,NY,NA,NA,NA,NA,88.37209302325581
13207,Onondaga County,NY,NA,NA,32.21010901883052,NA,NA
13208,Onondaga County,NY,50.871459694989106,NA,NA,NA,76.23862487360971
13209,Onondaga County,NY,NA,NA,NA,72.44094488188976,NA
13211,Onondaga County,NY,NA,NA,81.66501486620416,NA,NA
13346,Madison County,NY,NA,NA,NA,59.617547806524186,NA
13350,Herkimer County,NY,NA,NA,36.967294350842415,NA,NA
13357,Herkimer County,NY,NA,NA,37.9583746283449,NA,NA
13365,Herkimer County,NY,NA,63.23529411764706,NA,NA,NA
13409,Madison County,NY,96.07843137254902,NA,NA,NA,NA
13413,Oneida County,NY,NA,NA,NA,69.51631046119235,22.95247724974722
13421,Madison County,NY,NA,NA,24.975222993062438,NA,NA
13439,Otsego County,NY,NA,NA,84.53914767096134,NA,NA
13460,Chenango County,NY,NA,NA,54.905847373637265,NA,NA
13480,Oneida County,NY,83.87799564270153,NA,NA,NA,NA
13662,St. Lawrence County,NY,49.56427015250544,30,NA,16.197975253093365,NA
13733,Chenango County,NY,NA,NA,NA,64.79190101237346,NA
13743,Tioga County,NY,NA,NA,94.35084241823589,NA,NA
13748,Broome County,NY,89.32461873638344,NA,NA,NA,NA
13760,Broome County,NY,1.0893246187363834,NA,1.0901883052527255,18.672665916760405,10.313447927199192
13827,Tioga County,NY,28.104575163398692,NA,NA,NA,NA
13830,Chenango County,NY,NA,NA,68.97918731417245,NA,NA
13905,Broome County,NY,2.3965141612200433,NA,NA,31.046119235095617,NA
14006,Erie County,NY,76.36165577342048,NA,NA,NA,NA
14020,Genesee County,NY,38.344226579520694,NA,NA,NA,NA
14052,Erie County,NY,NA,NA,NA,NA,61.476238624873616
14059,Erie County,NY,86.05664488017429,NA,NA,NA,NA
14068,Erie County,NY,NA,NA,91.17938553022795,NA,NA
14072,Erie County,NY,NA,NA,44.99504459861249,NA,NA
14075,Erie County,NY,NA,NA,9.117938553022794,NA,NA
14103,Orleans County,NY,NA,90,47.472745292368685,NA,NA
14127,Erie County,NY,NA,NA,NA,15.185601799775029,NA
14141,Erie County,NY,68.08278867102396,NA,NA,NA,NA
14209,Erie County,NY,NA,NA,NA,75.25309336332958,NA
14210,Erie County,NY,65.79520697167756,NA,84.93557978196233,NA,NA
14213,Erie County,NY,14.37908496732026,NA,20.515361744301288,NA,80.48533872598584
14219,Erie County,NY,NA,NA,NA,56.69291338582677,NA
14220,Erie County,NY,NA,NA,NA,27.559055118110237,58.54398382204246
14221,Erie County,NY,43.4640522875817,NA,NA,NA,12.43680485338726
14225,Erie County,NY,NA,NA,NA,16.87289088863892,NA
14226,Erie County,NY,NA,NA,NA,NA,61.880687563195146
14305,Niagara County,NY,63.725490196078425,49.11764705882353,NA,NA,NA
14414,Livingston County,NY,48.474945533769066,NA,NA,NA,NA
14422,Genesee County,NY,NA,NA,NA,96.28796400449944,NA
14424,Ontario County,NY,NA,NA,2.973240832507433,NA,NA
14425,Ontario County,NY,NA,NA,17.938553022794846,28.1214848143982,NA
14432,Ontario County,NY,NA,NA,38.255698711595635,81.43982002249719,NA
14450,Monroe County,NY,0.9803921568627451,NA,17.542120911793855,0.8998875140607425,4.954499494438827
14468,Monroe County,NY,NA,NA,18.13676907829534,NA,39.53488372093023
14489,Wayne County,NY,NA,NA,33.89494549058474,NA,NA
14502,Wayne County,NY,NA,NA,63.72646184340932,NA,NA
14513,Wayne County,NY,10.021786492374728,NA,NA,NA,NA
14522,Wayne County,NY,NA,NA,NA,29.808773903262093,NA
14526,Monroe County,NY,NA,NA,67.98810703666997,NA,NA
14527,Yates County,NY,NA,NA,NA,28.57142857142857,NA
14534,Monroe County,NY,NA,NA,NA,1.3498312710911136,NA
14559,Monroe County,NY,11.11111111111111,NA,NA,NA,NA
14564,Ontario County,NY,23.202614379084967,NA,NA,NA,NA
14580,Monroe County,NY,26.361655773420477,NA,NA,NA,70.17189079878665
14606,Monroe County,NY,NA,NA,3.1714568880079286,12.03599550056243,NA
14609,Monroe County,NY,NA,NA,0.7928642220019821,0.562429696287964,NA
14610,Monroe County,NY,NA,NA,NA,26.884139482564677,NA
14611,Monroe County,NY,NA,NA,NA,56.2429696287964,NA
14612,Monroe County,NY,NA,NA,2.3785926660059467,NA,NA
14613,Monroe County,NY,51.74291938997821,NA,12.685827552031714,NA,NA
14617,Monroe County,NY,8.278867102396514,NA,6.640237859266601,NA,29.625884732052576
14619,Monroe County,NY,39.21568627450981,NA,66.6005946481665,NA,NA
14622,Monroe County,NY,71.13289760348583,NA,NA,NA,NA
14623,Monroe County,NY,9.694989106753813,NA,NA,NA,NA
14701,Chautauqua County,NY,4.357298474945534,NA,NA,1.4623172103487065,NA
14747,Chautauqua County,NY,NA,NA,NA,97.63779527559055,NA
14782,Chautauqua County,NY,NA,NA,96.33300297324084,NA,NA
14823,Steuben County,NY,NA,NA,82.65609514370664,NA,NA
14845,Chemung County,NY,16.55773420479303,NA,NA,NA,30.83923154701719
14850,Tompkins County,NY,NA,NA,5.649157581764123,4.949381327334083,NA
14867,Tompkins County,NY,NA,NA,86.42220019821606,NA,NA
14880,Allegany County,NY,92.15686274509804,NA,NA,NA,NA
14901,Chemung County,NY,NA,NA,NA,60.067491563554555,NA
14904,Chemung County,NY,NA,NA,NA,NA,76.64307381193125
14905,Chemung County,NY,NA,NA,82.95341922695738,NA,NA
27006,Davie County,NC,NA,NA,NA,NA,16.98685540950455
27012,Forsyth County,NC,NA,NA,NA,NA,32.45702730030334
27021,Stokes County,NC,NA,NA,42.41823587710605,NA,21.53690596562184
27023,Forsyth County,NC,NA,NA,NA,NA,34.47927199191102
27025,Rockingham County,NC,NA,NA,79.98017839444995,NA,NA
27028,Davie County,NC,52.614379084967325,NA,NA,6.86164229471316,NA
27030,Surry County,NC,21.350762527233115,NA,NA,NA,NA
27103,Forsyth County,NC,NA,NA,83.64717542120911,NA,NA
27104,Forsyth County,NC,NA,NA,NA,36.782902137232846,NA
27105,Forsyth County,NC,NA,NA,15.758176412289396,NA,7.17896865520728
27106,Forsyth County,NC,NA,NA,64.91575817641228,NA,11.122345803842265
27107,Forsyth County,NC,NA,NA,4.955401387512389,NA,NA
27127,Forsyth County,NC,NA,NA,15.262636273538158,NA,NA
27215,Alamance County,NC,14.052287581699346,NA,NA,NA,8.291203235591507
27217,Alamance County,NC,NA,NA,NA,NA,8.190091001011123
27239,Davidson County,NC,NA,NA,88.40436075322101,NA,NA
27249,Guilford County,NC,12.309368191721132,NA,NA,NA,NA
27253,Alamance County,NC,NA,NA,NA,NA,26.895854398382202
27260,Guilford County,NC,26.57952069716776,NA,NA,NA,NA
27262,Guilford County,NC,NA,NA,44.00396432111001,NA,NA
27263,Randolph County,NC,NA,NA,NA,NA,67.9474216380182
27265,Guilford County,NC,NA,NA,NA,14.285714285714285,NA
27282,Guilford County,NC,NA,NA,NA,NA,64.20626895854399
27292,Davidson County,NC,NA,16.176470588235293,NA,NA,NA
27295,Davidson County,NC,NA,NA,4.162537165510407,NA,NA
27301,Guilford County,NC,NA,NA,NA,81.214848143982,NA
27312,Chatham County,NC,NA,NA,NA,NA,14.054600606673407
27320,Rockingham County,NC,NA,NA,NA,9.898762654668166,NA
27332,Lee County,NC,NA,NA,NA,48.031496062992126,NA
27344,Chatham County,NC,NA,NA,51.73439048562933,NA,NA
27360,Davidson County,NC,NA,86.47058823529412,NA,NA,NA
27401,Guilford County,NC,NA,NA,79.78196233894946,NA,NA
27403,Guilford County,NC,NA,NA,70.56491575817641,NA,NA
27407,Guilford County,NC,NA,NA,NA,NA,34.47927199191102
27409,Guilford County,NC,86.9281045751634,NA,NA,NA,NA
27410,Guilford County,NC,NA,NA,33.49851337958374,NA,NA
27501,Harnett County,NC,NA,NA,NA,NA,65.72295247724975
27516,Orange County,NC,50.871459694989106,NA,NA,NA,NA
27519,Wake County,NC,36.60130718954248,NA,NA,NA,NA
27529,Wake County,NC,NA,NA,25.768087215064423,NA,NA
27530,Wayne County,NC,NA,65,NA,NA,NA
27536,Vance County,NC,40.74074074074074,NA,NA,NA,19.61577350859454
27537,Vance County,NC,NA,NA,NA,28.683914510686165,NA
27540,Wake County,NC,28.322440087145967,NA,48.66204162537166,NA,NA
27569,Johnston County,NC,NA,NA,NA,NA,86.5520728008089
27591,Wake County,NC,NA,NA,NA,NA,62.7906976744186
27606,Wake County,NC,27.77777777777778,NA,50.34687809712587,NA,NA
27610,Wake County,NC,45.42483660130719,NA,NA,NA,NA
27613,Wake County,NC,75.38126361655773,NA,NA,NA,NA
27614,Wake County,NC,NA,NA,70.26759167492567,NA,NA
27615,Wake County,NC,NA,NA,NA,NA,11.729019211324571
27701,Durham County,NC,NA,27.941176470588236,NA,NA,NA
27703,Durham County,NC,44.55337690631808,NA,11.496531219028741,NA,NA
27704,Durham County,NC,NA,NA,12.586719524281467,NA,NA
27705,Durham County,NC,NA,NA,23.48860257680872,NA,18.301314459049543
27707,Durham County,NC,20.806100217864923,NA,NA,NA,NA
27713,Durham County,NC,NA,NA,25.37165510406343,NA,NA
27803,Nash County,NC,NA,NA,NA,NA,77.95753286147624
27804,Nash County,NC,NA,NA,NA,NA,35.085945399393324
27834,Pitt County,NC,NA,11.76470588235294,NA,NA,NA
27856,Nash County,NC,NA,NA,NA,68.39145106861643,NA
27891,Nash County,NC,69.82570806100217,NA,NA,NA,NA
27892,Martin County,NC,NA,67.64705882352942,NA,NA,NA
27896,Wilson County,NC,NA,NA,NA,NA,68.5540950455005
27909,Pasquotank County,NC,NA,55.58823529411765,NA,NA,17.795753286147622
27910,Hertford County,NC,NA,NA,43.01288404360753,NA,NA
28012,Gaston County,NC,NA,NA,65.31219028741329,NA,NA
28025,Cabarrus County,NC,NA,NA,NA,13.610798650168729,NA
28027,Cabarrus County,NC,NA,51.17647058823529,19.821605550049554,NA,NA
28043,Rutherford County,NC,87.90849673202614,NA,NA,NA,NA
28054,Gaston County,NC,NA,NA,21.110009910802773,NA,NA
28079,Union County,NC,NA,70,NA,NA,39.737108190091
28086,Cleveland County,NC,NA,NA,NA,37.00787401574803,NA
28105,Mecklenburg County,NC,NA,NA,62.636273538156594,NA,NA
28115,Iredell County,NC,NA,NA,NA,32.8458942632171,30.23255813953488
28127,Stanly County,NC,95.42483660130719,NA,NA,NA,NA
28139,Rutherford County,NC,NA,73.82352941176471,NA,NA,NA
28144,Rowan County,NC,NA,NA,NA,35.54555680539933,NA
28147,Rowan County,NC,NA,NA,NA,NA,61.375126390293225
28150,Cleveland County,NC,NA,NA,NA,NA,34.27704752275025
28152,Cleveland County,NC,47.385620915032675,NA,39.742319127849356,NA,NA
28211,Mecklenburg County,NC,NA,NA,NA,NA,36.29929221435793
28212,Mecklenburg County,NC,NA,41.76470588235294,NA,NA,64.71183013144591
28213,Mecklenburg County,NC,18.082788671023962,NA,27.35381565906839,NA,74.31749241658241
28215,Mecklenburg County,NC,9.15032679738562,NA,NA,NA,NA
28216,Mecklenburg County,NC,NA,NA,NA,NA,85.03538928210314
28217,Mecklenburg County,NC,25.816993464052292,NA,NA,NA,NA
28262,Mecklenburg County,NC,57.407407407407405,NA,38.05748265609515,NA,NA
28269,Mecklenburg County,NC,NA,NA,46.08523290386521,NA,70.77856420626895
28273,Mecklenburg County,NC,NA,NA,NA,73.3408323959505,NA
28304,Cumberland County,NC,NA,NA,NA,48.368953880764906,NA
28306,Bladen County,NC,NA,NA,33.597621407333996,NA,NA
28311,Cumberland County,NC,72.22222222222221,NA,NA,NA,NA
28312,Cumberland County,NC,NA,NA,67.29435084241824,NA,NA
28326,Harnett County,NC,NA,NA,NA,99.55005624296963,NA
28328,Sampson County,NC,NA,NA,37.661050545094156,NA,NA
28333,Wayne County,NC,NA,NA,67.39345887016849,NA,NA
28358,Robeson County,NC,NA,NA,NA,NA,17.391304347826086
28360,Robeson County,NC,NA,NA,NA,65.24184476940383,NA
28365,Wayne County,NC,NA,79.41176470588235,NA,NA,NA
28366,Sampson County,NC,NA,NA,NA,NA,76.44084934277048
28401,New Hanover County,NC,NA,NA,NA,36.107986501687286,NA
28403,New Hanover County,NC,41.93899782135077,NA,NA,NA,NA
28405,New Hanover County,NC,41.61220043572985,NA,NA,NA,NA
28409,New Hanover County,NC,46.51416122004357,NA,NA,17.2103487064117,NA
28412,New Hanover County,NC,NA,NA,68.38453914767096,NA,NA
28425,Pender County,NC,86.16557734204792,NA,NA,NA,NA
28443,Pender County,NC,NA,90.58823529411765,NA,NA,NA
28445,Onslow County,NC,NA,85.29411764705883,NA,NA,NA
28451,Brunswick County,NC,NA,NA,NA,25.646794150731157,NA
28470,Brunswick County,NC,NA,81.76470588235294,NA,NA,NA
28530,Pitt County,NC,NA,83.52941176470588,NA,NA,NA
28540,Onslow County,NC,31.917211328976038,49.705882352941174,NA,NA,NA
28546,Onslow County,NC,NA,NA,NA,NA,83.61981799797775
28570,Carteret County,NC,NA,NA,NA,79.41507311586051,NA
28572,Duplin County,NC,81.91721132897604,NA,NA,NA,NA
28574,Onslow County,NC,NA,94.70588235294117,NA,NA,NA
28609,Catawba County,NC,NA,NA,NA,92.1259842519685,NA
28655,Burke County,NC,NA,NA,NA,NA,7.987866531850354
28675,Alleghany County,NC,NA,NA,NA,53.768278965129355,NA
28677,Iredell County,NC,23.420479302832245,NA,NA,21.25984251968504,42.9726996966633
28694,Ashe County,NC,NA,59.705882352941174,NA,NA,NA
28711,Buncombe County,NC,62.745098039215684,NA,NA,NA,66.93629929221436
28712,Transylvania County,NC,NA,NA,NA,39.595050618672666,NA
28732,Henderson County,NC,NA,NA,74.52923686818632,NA,NA
28734,Macon County,NC,23.856209150326798,NA,NA,7.311586051743532,45.90495449949444
28746,Rutherford County,NC,NA,NA,NA,97.86276715410574,97.87664307381193
28756,Polk County,NC,NA,NA,93.95441030723488,NA,NA
28779,Jackson County,NC,NA,NA,NA,NA,55.308392315470165
28785,Haywood County,NC,NA,NA,NA,NA,73.40748230535895
28792,Henderson County,NC,NA,NA,NA,NA,0.910010111223458
58103,Cass County,ND,13.616557734204793,NA,NA,1.687289088863892,NA
58201,Grand Forks County,ND,NA,NA,NA,NA,1.820020222446916
58203,Grand Forks County,ND,37.36383442265795,NA,NA,NA,50.45500505561172
58503,Burleigh County,ND,NA,NA,NA,NA,7.280080889787664
58554,Morton County,ND,NA,NA,NA,66.92913385826772,NA
58703,Ward County,ND,NA,NA,45.986124876114964,NA,NA
43017,Franklin County,OH,NA,25.588235294117645,NA,NA,NA
43019,Knox County,OH,NA,NA,NA,NA,95.95551061678464
43026,Franklin County,OH,NA,NA,21.704658077304263,NA,NA
43028,Knox County,OH,NA,NA,NA,NA,36.400404448938325
43040,Union County,OH,NA,NA,26.7591674925669,NA,NA
43054,Franklin County,OH,NA,NA,NA,89.65129358830146,NA
43055,Licking County,OH,20.47930283224401,NA,NA,NA,3.2355915065722956
43062,Licking County,OH,NA,NA,37.661050545094156,NA,NA
43065,Delaware County,OH,NA,NA,50.14866204162537,NA,NA
43068,Franklin County,OH,3.594771241830065,NA,NA,NA,NA
43078,Champaign County,OH,45.20697167755991,NA,35.4806739345887,NA,NA
43081,Franklin County,OH,10.457516339869281,NA,NA,NA,NA
43085,Franklin County,OH,41.394335511982575,NA,NA,NA,NA
43135,Hocking County,OH,98.25708061002179,NA,NA,NA,NA
43146,Pickaway County,OH,NA,75.88235294117646,NA,NA,NA
43160,Fayette County,OH,NA,NA,14.271555996035678,NA,57.93731041456016
43202,Franklin County,OH,97.82135076252723,NA,NA,NA,NA
43204,Franklin County,OH,NA,NA,6.045589692765114,NA,NA
43206,Franklin County,OH,NA,NA,NA,NA,58.948432760364
43207,Franklin County,OH,7.4074074074074066,NA,NA,5.736782902137233,NA
43211,Franklin County,OH,NA,12.352941176470589,NA,NA,NA
43213,Franklin County,OH,NA,NA,37.36372646184341,NA,NA
43214,Franklin County,OH,78.9760348583878,NA,NA,NA,45.70273003033367
43219,Franklin County,OH,NA,12.058823529411764,48.26560951437067,NA,36.804853387259854
43220,Franklin County,OH,34.42265795206972,NA,NA,NA,NA
43224,Franklin County,OH,2.505446623093682,1.7647058823529411,NA,NA,NA
43227,Franklin County,OH,1.7429193899782136,NA,59.5639246778989,NA,NA
43228,Franklin County,OH,9.803921568627452,15.294117647058824,3.9643211100099105,NA,NA
43229,Franklin County,OH,6.862745098039216,NA,NA,NA,NA
43231,Franklin County,OH,NA,NA,NA,85.26434195725534,NA
43232,Franklin County,OH,13.180827886710238,NA,NA,NA,NA
43235,Franklin County,OH,26.143790849673206,NA,NA,NA,NA
43311,Logan County,OH,NA,46.76470588235294,NA,NA,NA
43316,Wyandot County,OH,NA,NA,NA,78.62767154105737,NA
43326,Hardin County,OH,NA,47.05882352941176,NA,NA,NA
43334,Morrow County,OH,NA,NA,NA,NA,92.82103134479271
43351,Wyandot County,OH,64.70588235294117,NA,NA,NA,NA
43402,Wood County,OH,NA,NA,23.19127849355798,NA,NA
43420,Sandusky County,OH,NA,NA,NA,16.310461192350957,NA
43452,Ottawa County,OH,31.590413943355124,NA,NA,NA,NA
43506,Williams County,OH,58.605664488017425,NA,25.47076313181368,64.67941507311586,NA
43512,Defiance County,OH,NA,NA,22.893954410307234,NA,NA
43528,Lucas County,OH,NA,NA,42.91377601585729,NA,NA
43543,Williams County,OH,NA,NA,71.06045589692765,NA,NA
43551,Wood County,OH,NA,53.23529411764706,NA,NA,NA
43567,Fulton County,OH,NA,NA,NA,41.61979752530934,NA
43571,Lucas County,OH,NA,NA,86.81863230921705,NA,NA
43610,Lucas County,OH,NA,59.705882352941174,NA,NA,NA
43612,Lucas County,OH,NA,NA,NA,17.547806524184477,NA
43614,Lucas County,OH,21.0239651416122,NA,11.199207135777998,NA,NA
43615,Lucas County,OH,NA,NA,NA,4.161979752530934,NA
43616,Lucas County,OH,NA,NA,45.68880079286422,11.24859392575928,NA
43623,Lucas County,OH,NA,55.88235294117647,NA,NA,81.90091001011123
43701,Muskingum County,OH,NA,NA,NA,0.44994375703037126,NA
43725,Guernsey County,OH,46.07843137254902,NA,15.361744301288404,5.961754780652419,NA
43762,Muskingum County,OH,NA,NA,92.17046580773042,NA,NA
43812,Coshocton County,OH,NA,NA,NA,NA,42.366026289180994
43821,Muskingum County,OH,NA,NA,NA,92.91338582677166,NA
43830,Muskingum County,OH,80.06535947712419,NA,NA,NA,NA
43910,Jefferson County,OH,NA,NA,87.61149653121902,NA,NA
43912,Belmont County,OH,NA,NA,NA,53.2058492688414,71.18301314459049
43950,Belmont County,OH,57.62527233115469,NA,NA,NA,NA
44001,Lorain County,OH,NA,NA,80.17839444995045,NA,NA
44004,Ashtabula County,OH,0.7625272331154684,NA,NA,NA,NA
44011,Lorain County,OH,NA,NA,31.615460852329036,NA,NA
44035,Lorain County,OH,NA,14.117647058823529,3.072348860257681,NA,NA
44047,Ashtabula County,OH,NA,NA,NA,NA,46.30940343781597
44054,Lorain County,OH,NA,NA,NA,NA,44.99494438827098
44055,Lorain County,OH,14.596949891067537,NA,NA,NA,NA
44056,Summit County,OH,NA,NA,68.8800792864222,NA,NA
44057,Lake County,OH,NA,34.11764705882353,29.534192269573833,NA,NA
44060,Lake County,OH,NA,NA,NA,NA,50.25278058645096
44067,Summit County,OH,55.773420479302835,NA,NA,NA,NA
44076,Ashtabula County,OH,NA,NA,NA,NA,94.94438827098078
44077,Lake County,OH,NA,NA,NA,NA,0.6066734074823054
44090,Lorain County,OH,25.381263616557735,NA,NA,NA,NA
44094,Lake County,OH,NA,43.23529411764706,NA,NA,NA
44095,Lake County,OH,NA,NA,NA,10.236220472440944,4.145601617795753
44102,Cuyahoga County,OH,NA,5.88235294117647,NA,NA,11.223458038422649
44104,Cuyahoga County,OH,NA,22.35294117647059,22.993062438057482,NA,NA
44105,Cuyahoga County,OH,NA,NA,NA,5.62429696287964,NA
44109,Cuyahoga County,OH,16.122004357298476,NA,0.6937561942517344,NA,NA
44111,Cuyahoga County,OH,NA,NA,1.8830525272547076,NA,12.133468149646106
44114,Cuyahoga County,OH,NA,NA,NA,68.27896512935882,NA
44116,Cuyahoga County,OH,NA,NA,NA,30.93363329583802,NA
44118,Cuyahoga County,OH,NA,NA,NA,44.881889763779526,NA
44120,Cuyahoga County,OH,NA,NA,3.5678889990089195,NA,95.85439838220424
44121,Cuyahoga County,OH,NA,NA,10.009910802775025,NA,NA
44124,Cuyahoga County,OH,NA,NA,NA,NA,6.370070778564206
44125,Cuyahoga County,OH,NA,12.647058823529411,NA,8.661417322834646,7.684529828109202
44128,Cuyahoga County,OH,NA,NA,2.8741328047571852,NA,NA
44129,Cuyahoga County,OH,NA,NA,NA,NA,17.99797775530839
44130,Cuyahoga County,OH,NA,NA,5.153617443012884,NA,0.5055611729019212
44131,Cuyahoga County,OH,44.226579520697165,NA,NA,NA,4.550050556117291
44134,Cuyahoga County,OH,2.6143790849673203,NA,NA,NA,NA
44135,Cuyahoga County,OH,15.577342047930284,NA,3.468780971258672,NA,NA
44136,Cuyahoga County,OH,NA,NA,NA,NA,12.942366026289182
44137,Cuyahoga County,OH,13.071895424836603,NA,NA,NA,NA
44138,Cuyahoga County,OH,NA,NA,NA,24.409448818897637,NA
44139,Cuyahoga County,OH,NA,NA,45.19326065411298,NA,NA
44143,Cuyahoga County,OH,NA,48.529411764705884,35.579781962338956,NA,NA
44144,Cuyahoga County,OH,NA,NA,74.13280475718534,6.636670416197974,NA
44202,Portage County,OH,NA,NA,NA,59.055118110236215,NA
44203,Summit County,OH,NA,NA,NA,7.536557930258718,NA
44212,Medina County,OH,NA,NA,3.6669970267591676,NA,NA
44216,Summit County,OH,NA,61.47058823529412,NA,NA,NA
44224,Summit County,OH,11.546840958605664,NA,23.290386521308225,NA,NA
44260,Portage County,OH,NA,NA,71.25867195242814,NA,NA
44266,Portage County,OH,NA,NA,9.712586719524282,NA,NA
44272,Portage County,OH,99.56427015250546,NA,NA,NA,NA
44303,Summit County,OH,77.45098039215686,NA,NA,NA,NA
44306,Summit County,OH,NA,NA,70.9613478691774,NA,NA
44307,Summit County,OH,NA,NA,48.5629335976214,NA,NA
44312,Summit County,OH,83.2244008714597,NA,NA,NA,NA
44314,Summit County,OH,5.88235294117647,NA,NA,NA,NA
44319,Summit County,OH,NA,NA,NA,23.73453318335208,NA
44320,Summit County,OH,22.33115468409586,NA,NA,NA,NA
44321,Summit County,OH,92.15686274509804,NA,NA,47.58155230596176,NA
44405,Mahoning County,OH,NA,NA,78.29534192269574,NA,NA
44436,Mahoning County,OH,NA,NA,NA,NA,96.7644084934277
44460,Columbiana County,OH,NA,48.23529411764706,NA,NA,NA
44473,Trumbull County,OH,NA,NA,98.21605550049554,NA,NA
44484,Trumbull County,OH,NA,NA,NA,NA,16.78463094034378
44504,Mahoning County,OH,NA,NA,NA,NA,87.05763397371082
44512,Mahoning County,OH,NA,19.411764705882355,NA,NA,NA
44515,Mahoning County,OH,NA,35.588235294117645,NA,NA,NA
44601,Stark County,OH,NA,NA,7.036669970267592,7.874015748031496,NA
44646,Stark County,OH,93.13725490196079,NA,NA,NA,NA
44663,Tuscarawas County,OH,NA,10,NA,NA,NA
44683,Tuscarawas County,OH,31.372549019607842,25,NA,NA,NA
44685,Summit County,OH,36.0566448801743,NA,NA,NA,NA
44691,Wayne County,OH,16.884531590413943,NA,NA,4.499437570303712,11.627906976744185
44705,Stark County,OH,NA,NA,26.065411298315162,NA,NA
44707,Stark County,OH,NA,NA,62.338949454905844,NA,NA
44708,Stark County,OH,NA,58.235294117647065,NA,NA,NA
44718,Stark County,OH,NA,NA,NA,92.35095613048368,NA
44720,Stark County,OH,18.954248366013072,NA,NA,NA,12.639029322548028
44805,Ashland County,OH,NA,NA,NA,NA,3.1344792719919106
44824,Erie County,OH,NA,NA,NA,NA,99.3933265925177
44833,Crawford County,OH,28.9760348583878,NA,NA,17.772778402699664,NA
44883,Seneca County,OH,NA,NA,18.434093161546087,NA,18.503538928210315
44889,Huron County,OH,NA,NA,84.24182358771061,87.4015748031496,NA
45011,Butler County,OH,NA,NA,16.253716551040633,NA,NA
45014,Butler County,OH,34.42265795206972,NA,NA,19.797525309336333,NA
45015,Butler County,OH,NA,NA,NA,NA,98.78665318503539
45036,Warren County,OH,7.734204793028322,NA,22.2001982160555,NA,NA
45044,Butler County,OH,NA,NA,NA,49.60629921259843,NA
45050,Butler County,OH,NA,NA,NA,NA,74.51971688574316
45103,Clermont County,OH,NA,NA,NA,24.184476940382453,52.98281092012134
45118,Brown County,OH,99.12854030501089,NA,NA,NA,NA
45152,Warren County,OH,71.35076252723312,NA,NA,NA,NA
45154,Brown County,OH,NA,NA,NA,NA,88.57431749241658
45176,Clermont County,OH,NA,36.76470588235294,NA,NA,NA
45206,Hamilton County,OH,NA,NA,82.45787908820614,NA,NA
45209,Hamilton County,OH,NA,NA,NA,NA,81.19312436804853
45211,Hamilton County,OH,10.784313725490197,NA,NA,NA,NA
45212,Hamilton County,OH,NA,NA,NA,61.97975253093363,89.58543983822042
45224,Hamilton County,OH,70.69716775599129,NA,NA,NA,NA
45229,Hamilton County,OH,80.28322440087146,NA,NA,NA,NA
45231,Hamilton County,OH,6.1002178649237475,NA,NA,NA,NA
45233,Hamilton County,OH,62.20043572984749,NA,NA,NA,35.79373104145602
45238,Hamilton County,OH,24.509803921568626,NA,NA,NA,37.917087967644086
45239,Hamilton County,OH,17.429193899782135,NA,17.244796828543112,NA,NA
45244,Hamilton County,OH,42.26579520697168,NA,NA,NA,NA
45247,Hamilton County,OH,52.8322440087146,NA,NA,NA,NA
45248,Hamilton County,OH,38.453159041394336,NA,NA,NA,NA
45249,Hamilton County,OH,65.25054466230938,NA,NA,NA,NA
45255,Hamilton County,OH,62.745098039215684,NA,NA,NA,NA
45318,Miami County,OH,78.75816993464052,NA,NA,NA,NA
45320,Preble County,OH,NA,NA,NA,40.044994375703034,NA
45342,Montgomery County,OH,NA,40,12.091179385530229,8.886389201349832,NA
45347,Preble County,OH,NA,NA,NA,NA,90.09100101112234
45356,Miami County,OH,3.2679738562091507,NA,NA,NA,NA
45371,Miami County,OH,NA,82.6470588235294,NA,NA,NA
45377,Montgomery County,OH,NA,NA,NA,51.40607424071991,NA
45383,Miami County,OH,NA,NA,NA,NA,79.06976744186046
45385,Greene County,OH,27.77777777777778,NA,NA,NA,NA
45403,Montgomery County,OH,48.148148148148145,NA,NA,NA,NA
45405,Montgomery County,OH,NA,NA,NA,49.156355455568054,NA
45417,Montgomery County,OH,13.83442265795207,NA,NA,NA,NA
45419,Montgomery County,OH,NA,NA,85.13379583746283,NA,63.70070778564207
45424,Montgomery County,OH,NA,NA,11.59563924677899,NA,NA
45426,Montgomery County,OH,NA,NA,NA,NA,50.45500505561172
45431,Montgomery County,OH,69.93464052287581,47.05882352941176,NA,NA,NA
45601,Ross County,OH,NA,4.117647058823529,NA,0.11248593925759282,0
45640,Jackson County,OH,NA,NA,NA,36.55793025871766,NA
45657,Scioto County,OH,NA,NA,NA,98.31271091113611,NA
45661,Pike County,OH,NA,NA,NA,NA,89.48432760364004
45662,Scioto County,OH,NA,NA,17.641228939544103,NA,NA
45669,Lawrence County,OH,NA,NA,NA,20.47244094488189,NA
45680,Lawrence County,OH,NA,NA,NA,NA,34.78260869565217
45690,Pike County,OH,NA,NA,NA,17.09786276715411,NA
45714,Washington County,OH,NA,NA,NA,55.793025871766034,NA
45764,Athens County,OH,NA,NA,71.45688800792864,NA,89.18099089989889
45780,Athens County,OH,67.42919389978213,NA,NA,NA,NA
45801,Allen County,OH,NA,NA,NA,23.62204724409449,NA
45804,Allen County,OH,NA,NA,NA,NA,20.323559150657232
45806,Allen County,OH,NA,NA,NA,NA,95.55106167846309
45822,Mercer County,OH,NA,NA,89.29633300297324,NA,NA
45840,Hancock County,OH,13.507625272331156,NA,2.7750247770069376,NA,NA
73013,Oklahoma County,OK,NA,NA,33.10208126858276,NA,NA
73018,Grady County,OK,NA,NA,NA,35.32058492688414,NA
73028,Logan County,OK,NA,NA,99.40535183349851,NA,NA
73051,Cleveland County,OK,NA,NA,NA,NA,88.57431749241658
73055,Stephens County,OK,NA,NA,NA,NA,74.11526794742164
73069,Cleveland County,OK,NA,NA,NA,94.93813273340832,NA
73077,Noble County,OK,NA,NA,96.03567888999008,NA,NA
73086,Murray County,OK,NA,NA,NA,NA,75.0252780586451
73107,Oklahoma County,OK,NA,NA,NA,NA,82.6086956521739
73110,Oklahoma County,OK,NA,NA,NA,40.26996625421822,NA
73120,Oklahoma County,OK,NA,NA,45.490584737363726,NA,NA
73129,Oklahoma County,OK,NA,NA,NA,NA,75.0252780586451
73139,Oklahoma County,OK,NA,NA,NA,NA,57.83619817997978
73162,Oklahoma County,OK,NA,NA,NA,NA,54.095045500505556
73446,Marshall County,OK,NA,NA,86.5213082259663,NA,NA
73448,Love County,OK,NA,NA,NA,94.26321709786278,NA
73521,Jackson County,OK,39.54248366013072,NA,NA,NA,NA
73529,Stephens County,OK,87.36383442265794,NA,NA,NA,NA
73533,Stephens County,OK,NA,NA,NA,12.4859392575928,NA
73554,Greer County,OK,NA,NA,99.10802775024777,NA,NA
73703,Garfield County,OK,NA,NA,81.86323092170466,NA,NA
74011,Tulsa County,OK,42.91938997821351,NA,NA,NA,NA
74012,Tulsa County,OK,NA,NA,NA,NA,8.897876643073811
74014,Wagoner County,OK,NA,NA,38.45391476709614,NA,NA
74015,Rogers County,OK,NA,NA,NA,NA,94.43882709807887
74066,Creek County,OK,NA,NA,33.30029732408325,NA,NA
74074,Payne County,OK,NA,NA,48.16650148662042,NA,NA
74115,Tulsa County,OK,NA,NA,42.616451932606545,NA,NA
74129,Tulsa County,OK,36.81917211328976,NA,NA,NA,NA
74331,Delaware County,OK,NA,NA,NA,78.29021372328458,NA
74346,Delaware County,OK,NA,NA,NA,NA,85.13650151668351
74352,Mayes County,OK,NA,NA,NA,81.66479190101236,NA
74354,Ottawa County,OK,NA,NA,NA,NA,61.27401415571284
74403,Muskogee County,OK,NA,NA,NA,NA,26.289180990899897
74464,Cherokee County,OK,NA,NA,NA,19.23509561304837,NA
74467,Wagoner County,OK,74.83660130718954,NA,NA,NA,60.66734074823054
74525,Atoka County,OK,NA,NA,NA,82.67716535433071,87.76541961577351
74801,Pottawatomie County,OK,NA,NA,NA,27.896512935883017,NA
74848,Hughes County,OK,77.12418300653596,NA,NA,NA,NA
74864,Lincoln County,OK,NA,NA,NA,NA,71.0819009100101
74868,Seminole County,OK,NA,NA,NA,65.5793025871766,NA
97005,Washington County,OR,47.385620915032675,NA,NA,NA,NA
97008,Washington County,OR,NA,NA,NA,57.59280089988752,NA
97009,Clackamas County,OR,92.5925925925926,NA,NA,NA,NA
97015,Clackamas County,OR,NA,NA,56.78889990089198,NA,NA
97034,Clackamas County,OR,NA,NA,NA,63.32958380202475,33.67037411526795
97035,Clackamas County,OR,NA,NA,89.89098116947473,NA,NA
97045,Clackamas County,OR,NA,NA,NA,NA,13.751263902932253
97055,Clackamas County,OR,NA,NA,NA,55.56805399325084,NA
97058,Wasco County,OR,NA,NA,43.80574826560951,NA,NA
97060,Multnomah County,OR,NA,NA,45.58969276511397,NA,NA
97062,Washington County,OR,NA,NA,NA,NA,58.139534883720934
97068,Clackamas County,OR,NA,NA,NA,NA,91.91102123356926
97071,Marion County,OR,NA,NA,NA,86.27671541057367,NA
97078,Washington County,OR,90.41394335511983,NA,NA,NA,NA
97080,Multnomah County,OR,NA,NA,NA,20.247469066366705,NA
97103,Clatsop County,OR,NA,NA,82.85431119920713,NA,NA
97113,Washington County,OR,NA,80.58823529411765,NA,NA,NA
97123,Washington County,OR,87.03703703703704,NA,NA,NA,NA
97132,Yamhill County,OR,53.59477124183007,NA,42.02180376610505,NA,NA
97206,Multnomah County,OR,NA,NA,14.66798810703667,NA,NA
97209,Multnomah County,OR,NA,NA,40.33696729435084,NA,NA
97219,Multnomah County,OR,39.760348583878,NA,NA,69.17885264341957,NA
97220,Multnomah County,OR,52.17864923747276,NA,NA,NA,41.75935288169869
97221,Multnomah County,OR,NA,NA,NA,NA,87.66430738119313
97224,Washington County,OR,NA,NA,56.39246778989098,NA,NA
97233,Multnomah County,OR,30.28322440087146,NA,NA,NA,NA
97266,Multnomah County,OR,NA,NA,33.696729435084244,NA,NA
97267,Clackamas County,OR,63.834422657952075,NA,NA,NA,NA
97305,Marion County,OR,35.62091503267974,NA,NA,NA,NA
97355,Linn County,OR,NA,NA,12.784935579781962,NA,NA
97368,Lincoln County,OR,NA,91.76470588235294,NA,NA,NA
97378,Yamhill County,OR,90.19607843137256,NA,NA,NA,NA
97424,Lane County,OR,47.05882352941176,NA,NA,NA,NA
97470,Douglas County,OR,NA,65.29411764705883,NA,NA,NA
97477,Lane County,OR,NA,51.470588235294116,NA,NA,NA
97501,Jackson County,OR,NA,NA,NA,11.136107986501688,NA
97503,Jackson County,OR,NA,NA,NA,86.50168728908886,NA
97520,Jackson County,OR,NA,NA,NA,NA,28.2103134479272
97603,Klamath County,OR,NA,NA,NA,NA,2.932254802831143
97702,Deschutes County,OR,NA,NA,NA,41.39482564679415,NA
97814,Baker County,OR,NA,NA,NA,78.0652418447694,NA
97827,Union County,OR,NA,NA,NA,99.43757030371204,NA
97838,Umatilla County,OR,19.06318082788671,NA,NA,NA,NA
97850,Union County,OR,NA,NA,NA,NA,45.19716885743175
15001,Beaver County,PA,NA,NA,73.24083250743311,NA,NA
15009,Beaver County,PA,NA,NA,NA,41.16985376827896,NA
15010,Beaver County,PA,NA,NA,NA,28.45894263217098,NA
15021,Washington County,PA,NA,NA,NA,93.92575928008999,NA
15024,Allegheny County,PA,NA,NA,NA,93.36332958380203,NA
15026,Beaver County,PA,NA,NA,NA,98.76265466816648,NA
15042,Beaver County,PA,98.91067538126362,NA,NA,93.02587176602924,NA
15063,Washington County,PA,NA,NA,66.69970267591675,NA,NA
15068,Westmoreland County,PA,43.4640522875817,NA,20.218037661050545,NA,NA
15106,Allegheny County,PA,NA,NA,NA,NA,61.172901921132464
15208,Allegheny County,PA,66.7755991285403,NA,NA,NA,NA
15209,Allegheny County,PA,NA,NA,NA,NA,52.679474216380186
15210,Allegheny County,PA,NA,NA,15.659068384539149,NA,NA
15212,Allegheny County,PA,NA,NA,NA,NA,69.46410515672396
15216,Allegheny County,PA,NA,NA,NA,NA,49.848331648129424
15220,Allegheny County,PA,70.58823529411765,NA,NA,NA,NA
15221,Allegheny County,PA,51.85185185185185,NA,NA,NA,NA
15223,Allegheny County,PA,NA,NA,NA,84.81439820022497,NA
15227,Allegheny County,PA,NA,NA,40.0396432111001,NA,NA
15237,Allegheny County,PA,NA,NA,NA,NA,3.9433771486349847
15239,Allegheny County,PA,NA,NA,NA,NA,42.77047522750253
15243,Allegheny County,PA,NA,NA,NA,77.84026996625421,NA
15301,Washington County,PA,NA,NA,6.541129831516352,NA,NA
15317,Washington County,PA,NA,NA,31.020812685827554,NA,NA
15323,Washington County,PA,NA,NA,NA,97.18785151856018,NA
15367,Washington County,PA,68.51851851851852,NA,NA,NA,NA
15401,Fayette County,PA,NA,23.823529411764703,NA,NA,NA
15425,Fayette County,PA,NA,NA,32.21010901883052,NA,32.76036400404449
15530,Somerset County,PA,NA,NA,93.1615460852329,NA,NA
15537,Bedford County,PA,NA,NA,NA,66.25421822272216,NA
15557,Somerset County,PA,NA,98.23529411764706,NA,NA,NA
15601,Westmoreland County,PA,NA,NA,4.4598612487611495,NA,NA
15613,Westmoreland County,PA,NA,NA,NA,NA,29.42366026289181
15642,Westmoreland County,PA,20.043572984749456,NA,23.68681863230922,35.8830146231721,NA
15644,Westmoreland County,PA,NA,84.11764705882354,NA,NA,NA
15650,Westmoreland County,PA,NA,NA,77.50247770069376,NA,NA
15658,Westmoreland County,PA,NA,NA,79.18731417244797,NA,NA
15666,Westmoreland County,PA,49.78213507625273,NA,NA,NA,NA
15683,Westmoreland County,PA,NA,NA,NA,64.22947131608548,NA
15701,Indiana County,PA,NA,NA,23.09217046580773,17.322834645669293,NA
15748,Indiana County,PA,NA,NA,NA,87.28908886389202,NA
15824,Jefferson County,PA,NA,NA,NA,NA,50.6572295247725
15853,Elk County,PA,NA,NA,64.42021803766104,NA,NA
15857,Elk County,PA,NA,NA,NA,42.744656917885266,79.57532861476238
15902,Cambria County,PA,40.305010893246184,NA,NA,58.60517435320585,67.44186046511628
15904,Cambria County,PA,NA,NA,NA,NA,19.41354903943377
15905,Cambria County,PA,NA,NA,NA,NA,19.716885743174924
16002,Butler County,PA,60.56644880174292,NA,NA,NA,NA
16046,Butler County,PA,NA,NA,NA,76.4904386951631,NA
16053,Butler County,PA,87.25490196078431,NA,NA,NA,NA
16066,Butler County,PA,NA,NA,68.78097125867195,NA,38.22042467138524
16101,Lawrence County,PA,10.130718954248366,NA,NA,NA,NA
16146,Mercer County,PA,NA,35,60.05946481665014,NA,NA
16201,Armstrong County,PA,NA,NA,NA,10.686164229471316,NA
16226,Armstrong County,PA,79.73856209150327,NA,NA,NA,NA
16301,Venango County,PA,NA,63.23529411764706,NA,45.894263217097865,NA
16316,Crawford County,PA,NA,NA,NA,71.31608548931383,NA
16335,Crawford County,PA,NA,NA,11.298315163528246,NA,NA
16365,Warren County,PA,NA,NA,NA,NA,26.99696663296259
16403,Crawford County,PA,88.99782135076254,NA,NA,NA,NA
16509,Erie County,PA,NA,NA,34.98513379583746,NA,NA
16510,Erie County,PA,29.302832244008712,NA,NA,NA,21.03134479271992
16511,Erie County,PA,NA,NA,NA,NA,70.57633973710819
16630,Cambria County,PA,NA,NA,NA,NA,100
16686,Blair County,PA,NA,NA,NA,NA,51.46612740141558
16701,McKean County,PA,NA,NA,70.16848364717542,NA,NA
16735,McKean County,PA,NA,NA,75.9167492566898,NA,54.39838220424671
16830,Clearfield County,PA,NA,NA,NA,89.42632170978627,NA
16870,Centre County,PA,NA,NA,89.09811694747275,NA,NA
17007,Cumberland County,PA,86.16557734204792,NA,NA,NA,NA
17011,Cumberland County,PA,NA,NA,NA,NA,14.256825075834175
17013,Cumberland County,PA,NA,NA,NA,16.535433070866144,NA
17022,Lancaster County,PA,NA,NA,NA,15.860517435320585,NA
17032,Dauphin County,PA,NA,NA,87.01684836471755,NA,NA
17036,Dauphin County,PA,77.01525054466231,NA,NA,NA,NA
17044,Mifflin County,PA,19.716775599128542,NA,NA,NA,NA
17055,Cumberland County,PA,NA,NA,80.47571853320119,NA,NA
17057,Dauphin County,PA,NA,46.470588235294116,NA,NA,NA
17062,Perry County,PA,93.02832244008714,NA,NA,NA,NA
17067,Lebanon County,PA,NA,NA,87.31417244796829,NA,NA
17078,Lebanon County,PA,6.209150326797386,NA,NA,NA,NA
17103,Dauphin County,PA,NA,33.23529411764706,NA,NA,NA
17110,Dauphin County,PA,26.57952069716776,NA,NA,NA,NA
17111,Dauphin County,PA,NA,NA,16.74925668979187,NA,NA
17112,Dauphin County,PA,NA,NA,52.62636273538157,NA,NA
17201,Franklin County,PA,NA,NA,11.000991080277503,NA,NA
17257,Cumberland County,PA,NA,NA,75.7185332011893,NA,NA
17268,Franklin County,PA,NA,NA,NA,22.83464566929134,NA
17315,York County,PA,NA,NA,29.33597621407334,NA,40.34378159757331
17325,Adams County,PA,NA,NA,25.173439048562933,NA,NA
17331,York County,PA,NA,NA,NA,13.160854893138357,NA
17362,York County,PA,NA,NA,NA,NA,46.916076845298285
17364,York County,PA,NA,NA,NA,98.20022497187851,NA
17403,York County,PA,NA,NA,18.037661050545097,NA,NA
17501,Lancaster County,PA,NA,NA,NA,94.82564679415073,NA
17512,Lancaster County,PA,25.163398692810457,NA,NA,NA,NA
17543,Lancaster County,PA,44.11764705882353,NA,NA,NA,NA
17569,Lancaster County,PA,NA,NA,NA,NA,94.33771486349848
17584,Lancaster County,PA,NA,NA,NA,NA,40.950455005055616
17603,Lancaster County,PA,NA,NA,NA,8.098987626546682,34.07482305358948
17701,Lycoming County,PA,6.535947712418301,NA,NA,NA,NA
17702,Lycoming County,PA,NA,NA,NA,NA,65.62184024266936
17745,Clinton County,PA,NA,NA,43.01288404360753,NA,NA
17820,Columbia County,PA,NA,NA,NA,85.48931383577053,99.19110212335693
17901,Schuylkill County,PA,NA,NA,NA,31.608548931383577,NA
17963,Schuylkill County,PA,NA,NA,82.7552031714569,NA,NA
18013,Northampton County,PA,NA,NA,39.54410307234886,NA,NA
18017,Northampton County,PA,NA,NA,28.543111992071356,NA,NA
18032,Lehigh County,PA,NA,NA,61.34786917740337,NA,NA
18040,Northampton County,PA,NA,NA,NA,NA,38.624873609706775
18045,Northampton County,PA,NA,NA,NA,NA,8.998988877654195
18058,Monroe County,PA,NA,NA,77.7998017839445,NA,NA
18064,Northampton County,PA,NA,NA,44.89593657086224,NA,NA
18067,Northampton County,PA,95.31590413943356,NA,NA,NA,NA
18071,Carbon County,PA,NA,NA,55.10406342913776,NA,NA
18074,Montgomery County,PA,NA,NA,98.81070366699703,NA,NA
18102,Lehigh County,PA,NA,4.411764705882353,8.622398414271556,NA,NA
18104,Lehigh County,PA,NA,NA,14.965312190287413,NA,NA
18109,Lehigh County,PA,NA,NA,27.155599603567886,NA,NA
18201,Luzerne County,PA,NA,40.88235294117647,NA,25.871766029246345,NA
18301,Monroe County,PA,NA,37.64705882352941,NA,NA,NA
18302,Monroe County,PA,NA,NA,56.49157581764123,66.92913385826772,NA
18360,Monroe County,PA,NA,NA,29.73240832507433,NA,NA
18411,Lackawanna County,PA,83.44226579520696,NA,NA,NA,NA
18428,Pike County,PA,NA,NA,91.2784935579782,NA,NA
18504,Lackawanna County,PA,NA,NA,NA,46.681664791901014,NA
18603,Columbia County,PA,NA,NA,NA,18.222722159730033,NA
18612,Luzerne County,PA,NA,NA,NA,91.11361079865017,NA
18634,Luzerne County,PA,NA,82.05882352941177,NA,NA,NA
18655,Luzerne County,PA,NA,97.35294117647058,NA,NA,NA
18657,Wyoming County,PA,80.71895424836602,NA,NA,NA,85.43983822042466
18702,Luzerne County,PA,NA,18.235294117647058,NA,NA,NA
18704,Luzerne County,PA,NA,NA,17.145688800792865,NA,NA
18706,Luzerne County,PA,NA,NA,41.62537165510407,NA,NA
18707,Luzerne County,PA,NA,NA,NA,34.758155230596174,NA
18822,Susquehanna County,PA,93.57298474945533,NA,NA,NA,NA
18901,Bucks County,PA,NA,NA,NA,26.209223847019125,NA
18951,Bucks County,PA,NA,NA,NA,NA,24.67138523761375
18960,Bucks County,PA,NA,NA,NA,NA,83.9231547017189
18966,Bucks County,PA,NA,NA,NA,11.023622047244094,10.51567239635996
19004,Montgomery County,PA,43.4640522875817,NA,NA,NA,NA
19008,Delaware County,PA,NA,NA,NA,40.15748031496063,NA
19010,Delaware County,PA,NA,NA,60.45589692765114,NA,NA
19018,Delaware County,PA,NA,NA,63.52824578790882,NA,NA
19020,Bucks County,PA,NA,NA,NA,8.43644544431946,NA
19021,Bucks County,PA,NA,NA,NA,79.97750281214849,NA
19023,Delaware County,PA,28.104575163398692,NA,NA,NA,NA
19032,Delaware County,PA,NA,95.88235294117648,NA,NA,NA
19034,Montgomery County,PA,99.78213507625271,NA,NA,NA,NA
19044,Montgomery County,PA,NA,NA,NA,75.36557930258716,NA
19050,Delaware County,PA,22.766884531590414,NA,NA,NA,NA
19064,Delaware County,PA,NA,NA,NA,49.493813273340834,NA
19066,Montgomery County,PA,NA,NA,85.92666005946482,NA,82.20424671385238
19067,Bucks County,PA,NA,NA,NA,6.524184476940382,42.163801820020225
19073,Delaware County,PA,82.89760348583877,NA,NA,NA,NA
19076,Delaware County,PA,NA,NA,NA,NA,94.64105156723963
19082,Delaware County,PA,39.433551198257085,NA,NA,NA,NA
19087,Chester County,PA,NA,NA,NA,NA,36.602628918099086
19090,Montgomery County,PA,NA,NA,NA,NA,48.53387259858442
19103,Philadelphia County,PA,NA,NA,48.364717542120914,24.07199100112486,NA
19115,Philadelphia County,PA,NA,NA,NA,NA,10.819009100101113
19122,Philadelphia County,PA,NA,NA,48.9593657086224,NA,NA
19123,Philadelphia County,PA,NA,NA,58.77106045589693,NA,NA
19125,Philadelphia County,PA,NA,NA,52.52725470763132,59.955005624296966,NA
19126,Philadelphia County,PA,NA,NA,NA,49.156355455568054,56.52173913043478
19131,Philadelphia County,PA,NA,NA,NA,2.4746906636670416,8.088978766430738
19134,Philadelphia County,PA,3.0501089324618738,NA,NA,52.41844769403825,NA
19139,Philadelphia County,PA,NA,NA,4.658077304261645,38.13273340832396,NA
19142,Philadelphia County,PA,NA,NA,13.676907829534194,NA,NA
19143,Philadelphia County,PA,NA,NA,8.225966303270566,NA,NA
19144,Philadelphia County,PA,68.40958605664488,NA,NA,NA,55.81395348837209
19146,Philadelphia County,PA,NA,NA,50.44598612487612,NA,NA
19147,Philadelphia County,PA,NA,NA,19.127849355797817,NA,NA
19149,Philadelphia County,PA,NA,NA,NA,NA,28.71587462082912
19150,Philadelphia County,PA,NA,NA,NA,25.421822272215973,NA
19151,Philadelphia County,PA,58.932461873638346,NA,NA,NA,NA
19154,Philadelphia County,PA,83.33333333333334,NA,16.55104063429138,NA,NA
19320,Chester County,PA,4.139433551198257,NA,NA,NA,NA
19335,Chester County,PA,15.795206971677562,NA,NA,NA,NA
19341,Chester County,PA,NA,NA,NA,NA,51.061678463094026
19342,Delaware County,PA,NA,NA,51.536174430128845,NA,NA
19343,Chester County,PA,NA,NA,NA,95.50056242969629,NA
19348,Chester County,PA,NA,NA,NA,NA,27.704752275025278
19350,Chester County,PA,82.24400871459694,NA,NA,NA,NA
19355,Chester County,PA,NA,NA,NA,45.78177727784027,NA
19363,Chester County,PA,NA,NA,60.654112983151634,NA,NA
19380,Chester County,PA,NA,NA,NA,34.308211473565805,NA
19382,Chester County,PA,75.92592592592592,NA,NA,NA,17.087967644084934
19446,Montgomery County,PA,NA,NA,NA,NA,6.976744186046512
19460,Chester County,PA,16.775599128540307,NA,NA,23.847019122609677,NA
19465,Chester County,PA,NA,80,NA,NA,NA
19473,Montgomery County,PA,NA,NA,NA,92.68841394825647,NA
19475,Chester County,PA,NA,NA,NA,95.2755905511811,NA
19526,Berks County,PA,NA,NA,NA,62.76715410573678,NA
19560,Berks County,PA,NA,NA,83.25074331020814,NA,NA
19602,Berks County,PA,NA,NA,NA,33.07086614173229,NA
19604,Berks County,PA,9.25925925925926,NA,12.884043607532211,NA,NA
19605,Berks County,PA,NA,NA,66.99702675916748,NA,22.345803842264914
02816,Kent County,RI,NA,NA,NA,52.53093363329584,NA
02857,Providence County,RI,NA,NA,NA,92.35095613048368,NA
02860,Providence County,RI,NA,NA,7.234886025768088,NA,4.448938321536906
02863,Providence County,RI,93.68191721132898,NA,NA,NA,NA
02864,Providence County,RI,26.797385620915033,NA,27.254707631318137,NA,8.695652173913043
02865,Providence County,RI,NA,NA,71.85332011892963,NA,NA
02871,Newport County,RI,52.8322440087146,NA,NA,NA,NA
02878,Newport County,RI,NA,NA,80.87215064420218,NA,NA
02886,Kent County,RI,28.75816993464052,NA,NA,NA,NA
02889,Kent County,RI,NA,NA,NA,18.447694038245217,NA
02892,Washington County,RI,76.03485838779956,NA,NA,NA,NA
02896,Providence County,RI,NA,NA,NA,NA,73.30637007077856
02903,Providence County,RI,NA,NA,NA,NA,77.04752275025278
02904,Providence County,RI,NA,NA,35.08424182358771,NA,NA
02906,Providence County,RI,NA,NA,58.67195242814668,NA,47.52275025278059
02908,Providence County,RI,NA,NA,NA,40.49493813273341,NA
02909,Providence County,RI,NA,NA,NA,38.80764904386952,NA
02910,Providence County,RI,37.03703703703704,NA,NA,NA,NA
02914,Providence County,RI,52.17864923747276,NA,NA,NA,NA
02919,Providence County,RI,90.95860566448802,NA,NA,NA,NA
02921,Providence County,RI,57.9520697167756,NA,NA,NA,NA
29042,Bamberg County,SC,NA,NA,NA,NA,95.34883720930233
29063,Richland County,SC,NA,NA,NA,NA,53.083923154701715
29138,Saluda County,SC,78.10457516339869,NA,86.7195242814668,NA,NA
29150,Sumter County,SC,NA,NA,38.156590683845394,NA,NA
29154,Sumter County,SC,NA,NA,81.46679881070366,NA,NA
29170,Lexington County,SC,NA,73.82352941176471,NA,NA,NA
29203,Richland County,SC,NA,NA,61.14965312190287,NA,NA
29204,Richland County,SC,NA,NA,89.39544103072349,NA,NA
29210,Richland County,SC,NA,NA,NA,56.91788526434196,NA
29212,Lexington County,SC,59.150326797385624,NA,NA,NA,NA
29229,Richland County,SC,NA,NA,40.237859266600594,NA,44.48938321536906
29301,Spartanburg County,SC,NA,NA,NA,NA,56.926188068756325
29316,Spartanburg County,SC,NA,90.88235294117646,NA,NA,NA
29325,Laurens County,SC,NA,NA,NA,NA,97.97775530839232
29372,Spartanburg County,SC,NA,99.70588235294117,NA,NA,NA
29379,Union County,SC,NA,NA,NA,46.11923509561305,NA
29401,Charleston County,SC,NA,NA,NA,NA,69.46410515672396
29405,Charleston County,SC,33.98692810457516,NA,NA,NA,NA
29418,Charleston County,SC,NA,NA,41.52626362735381,NA,NA
29420,Dorchester County,SC,NA,NA,51.33795837462834,NA,NA
29429,Charleston County,SC,90.74074074074075,NA,NA,NA,NA
29451,Charleston County,SC,99.34640522875817,NA,NA,NA,NA
29455,Charleston County,SC,NA,NA,NA,NA,71.7896865520728
29461,Berkeley County,SC,14.270152505446623,NA,NA,NA,NA
29466,Charleston County,SC,NA,NA,53.5183349851338,NA,NA
29485,Dorchester County,SC,55.773420479302835,NA,NA,NA,NA
29505,Florence County,SC,NA,NA,52.72547076313181,NA,NA
29526,Horry County,SC,62.091503267973856,NA,NA,NA,NA
29536,Dillon County,SC,NA,NA,NA,83.68953880764904,NA
29565,Dillon County,SC,NA,NA,NA,91.78852643419573,NA
29572,Horry County,SC,NA,NA,NA,85.9392575928009,NA
29577,Horry County,SC,NA,NA,NA,54.5556805399325,NA
29588,Horry County,SC,NA,29.705882352941178,NA,NA,NA
29605,Greenville County,SC,19.825708061002178,NA,NA,12.935883014623172,NA
29615,Greenville County,SC,NA,NA,NA,NA,18.402426693629927
29621,Anderson County,SC,NA,NA,NA,NA,66.43073811931244
29640,Pickens County,SC,18.082788671023962,NA,NA,23.059617547806525,NA
29650,Greenville County,SC,NA,96.76470588235294,NA,NA,NA
29651,Greenville County,SC,71.24183006535948,NA,NA,NA,NA
29657,Pickens County,SC,24.074074074074073,NA,NA,NA,NA
29662,Greenville County,SC,NA,NA,NA,86.72665916760405,NA
29670,Anderson County,SC,NA,NA,NA,86.0517435320585,NA
29673,Greenville County,SC,NA,NA,NA,19.122609673790777,NA
29678,Oconee County,SC,NA,NA,59.762140733399406,NA,NA
29687,Greenville County,SC,24.94553376906318,NA,NA,NA,NA
29690,Greenville County,SC,NA,NA,42.616451932606545,39.0326209223847,NA
29707,Lancaster County,SC,NA,NA,NA,80.20247469066368,NA
29710,York County,SC,NA,NA,NA,NA,78.36198179979777
29801,Aiken County,SC,56.644880174291934,NA,NA,NA,NA
29824,Edgefield County,SC,NA,NA,NA,NA,80.68756319514662
29841,Aiken County,SC,NA,NA,81.9623389494549,NA,NA
29842,Aiken County,SC,NA,76.47058823529412,NA,NA,NA
29907,Beaufort County,SC,NA,NA,92.36868186323092,NA,NA
29909,Beaufort County,SC,NA,NA,NA,NA,16.076845298281093
29928,Beaufort County,SC,NA,NA,NA,67.2665916760405,NA
57005,Minnehaha County,SD,98.5838779956427,NA,NA,NA,NA
57042,Lake County,SD,NA,NA,NA,NA,38.42264914054601
57252,Grant County,SD,NA,NA,98.61248761149653,NA,NA
57701,Pennington County,SD,NA,NA,NA,17.435320584926885,NA
57719,Pennington County,SD,NA,NA,NA,NA,89.68655207280081
57783,Lawrence County,SD,NA,NA,NA,77.50281214848144,NA
37015,Cheatham County,TN,NA,NA,NA,48.706411698537686,NA
37040,Montgomery County,TN,NA,NA,25.66897918731417,36.33295838020247,NA
37043,Montgomery County,TN,NA,73.52941176470588,NA,NA,NA
37048,Sumner County,TN,NA,NA,NA,NA,95.65217391304348
37055,Dickson County,TN,NA,NA,24.87611496531219,NA,NA
37058,Stewart County,TN,NA,NA,NA,85.71428571428571,NA
37062,Williamson County,TN,NA,NA,83.44895936570862,NA,NA
37073,Robertson County,TN,NA,NA,NA,73.4533183352081,NA
37075,Sumner County,TN,NA,48.8235294117647,NA,NA,8.39231547017189
37083,Macon County,TN,NA,NA,NA,NA,63.397371081900914
37086,Rutherford County,TN,NA,35.588235294117645,NA,NA,NA
37090,Wilson County,TN,NA,NA,67.19524281466799,NA,NA
37122,Wilson County,TN,54.13943355119826,NA,NA,NA,NA
37127,Rutherford County,TN,NA,NA,NA,NA,85.13650151668351
37128,Rutherford County,TN,NA,NA,29.43508424182359,NA,NA
37172,Robertson County,TN,NA,31.76470588235294,NA,NA,NA
37174,Williamson County,TN,49.01960784313725,NA,52.130822596630324,NA,NA
37190,Cannon County,TN,NA,NA,NA,NA,68.75631951466129
37205,Davidson County,TN,NA,NA,NA,NA,19.009100101112235
37207,Davidson County,TN,NA,NA,13.280475718533202,32.170978627671545,NA
37211,Davidson County,TN,NA,NA,55.69871159563925,NA,NA
37215,Davidson County,TN,NA,NA,93.45887016848364,NA,NA
37217,Davidson County,TN,NA,31.176470588235293,NA,NA,NA
37228,Davidson County,TN,NA,NA,92.86422200198216,NA,NA
37306,Franklin County,TN,NA,NA,99.00891972249752,NA,NA
37331,McMinn County,TN,NA,NA,NA,NA,64.50960566228514
37347,Marion County,TN,NA,NA,NA,86.50168728908886,NA
37355,Coffee County,TN,NA,NA,36.57086223984143,NA,NA
37363,Hamilton County,TN,NA,NA,NA,NA,54.4994944388271
37388,Coffee County,TN,NA,NA,34.78691774033697,NA,NA
37412,Hamilton County,TN,82.02614379084967,NA,NA,NA,NA
37604,Washington County,TN,NA,NA,NA,20.58492688413948,NA
37615,Washington County,TN,NA,NA,NA,NA,59.150657229524775
37618,Sullivan County,TN,NA,NA,NA,NA,78.26086956521739
37620,Sullivan County,TN,NA,NA,NA,NA,15.773508594539939
37641,Greene County,TN,NA,NA,NA,NA,76.33973710819009
37659,Washington County,TN,NA,NA,NA,31.2710911136108,NA
37660,Sullivan County,TN,NA,NA,34.39048562933598,NA,NA
37683,Johnson County,TN,NA,NA,NA,NA,86.34984833164813
37686,Sullivan County,TN,NA,NA,NA,NA,97.06774519716885
37687,Carter County,TN,NA,NA,NA,NA,96.15773508594539
37701,Blount County,TN,NA,NA,NA,NA,67.84630940343781
37725,Jefferson County,TN,NA,NA,56.590683845391474,NA,NA
37738,Sevier County,TN,NA,NA,95.54013875123884,NA,NA
37745,Greene County,TN,17.647058823529413,NA,26.7591674925669,NA,NA
37748,Roane County,TN,NA,NA,NA,NA,38.42264914054601
37760,Jefferson County,TN,NA,NA,NA,77.72778402699663,NA
37771,Loudon County,TN,54.90196078431373,68.82352941176471,NA,NA,NA
37772,Loudon County,TN,NA,NA,79.58374628344896,NA,NA
37774,Loudon County,TN,NA,NA,77.89890981169475,NA,28.311425682507586
37777,Blount County,TN,NA,NA,NA,59.280089988751406,NA
37803,Blount County,TN,NA,NA,NA,NA,15.470171890798786
37814,Hamblen County,TN,33.98692810457516,NA,NA,NA,NA
37821,Cocke County,TN,NA,NA,NA,81.55230596175478,NA
37830,Anderson County,TN,NA,NA,NA,26.77165354330709,NA
37849,Knox County,TN,42.592592592592595,NA,NA,NA,NA
37857,Hawkins County,TN,44.226579520697165,NA,NA,NA,NA
37874,Monroe County,TN,NA,NA,NA,NA,55.61172901921132
37879,Claiborne County,TN,42.810457516339866,NA,NA,NA,NA
37914,Knox County,TN,32.24400871459695,NA,NA,NA,NA
37921,Knox County,TN,57.08061002178649,NA,NA,NA,NA
38008,Hardeman County,TN,NA,NA,NA,NA,73.0030333670374
38019,Tipton County,TN,NA,NA,NA,NA,73.1041456016178
38059,Dyer County,TN,97.7124183006536,NA,NA,NA,NA
38060,Fayette County,TN,NA,NA,91.37760158572844,NA,NA
38068,Fayette County,TN,29.08496732026144,NA,NA,NA,NA
38107,Shelby County,TN,NA,NA,45.39147670961348,NA,NA
38109,Shelby County,TN,NA,NA,12.388503468780971,NA,NA
38111,Shelby County,TN,NA,NA,NA,NA,42.46713852376138
38114,Shelby County,TN,NA,11.470588235294118,NA,NA,NA
38128,Shelby County,TN,10.348583877995644,60.29411764705882,NA,NA,NA
38133,Shelby County,TN,NA,NA,NA,NA,76.84529828109201
38305,Madison County,TN,NA,NA,NA,NA,14.35793731041456
38320,Benton County,TN,NA,NA,76.61050545094153,NA,NA
38478,Giles County,TN,NA,NA,NA,NA,60.364004044489384
38485,Wayne County,TN,NA,NA,NA,NA,72.19413549039434
38501,Putnam County,TN,NA,NA,NA,NA,23.660262891809907
38506,Putnam County,TN,NA,NA,NA,21.822272215973005,NA
75013,Collin County,TX,NA,NA,53.320118929633296,NA,NA
75032,Rockwall County,TX,NA,NA,NA,NA,99.29221435793731
75038,Dallas County,TX,49.34640522875817,NA,NA,NA,NA
75043,Dallas County,TX,NA,10.882352941176471,NA,NA,NA
75060,Dallas County,TX,88.01742919389977,NA,NA,NA,NA
75062,Dallas County,TX,24.836601307189543,NA,NA,NA,NA
75067,Denton County,TX,NA,NA,34.19226957383548,NA,NA
75070,Collin County,TX,7.516339869281046,NA,NA,10.911136107986502,NA
75071,Collin County,TX,17.86492374727669,NA,NA,NA,NA
75080,Dallas County,TX,88.67102396514161,NA,NA,NA,NA
75082,Collin County,TX,NA,NA,NA,76.37795275590551,NA
75087,Rockwall County,TX,NA,NA,44.79682854311199,NA,NA
75092,Grayson County,TX,54.90196078431373,NA,NA,NA,49.03943377148635
75110,Navarro County,TX,NA,21.470588235294116,NA,NA,NA
75115,Dallas County,TX,NA,NA,24.2814667988107,NA,NA
75143,Henderson County,TX,NA,NA,NA,62.092238470191234,NA
75146,Dallas County,TX,54.68409586056645,NA,NA,NA,NA
75148,Henderson County,TX,NA,NA,NA,88.9763779527559,NA
75149,Dallas County,TX,3.7037037037037033,NA,NA,NA,NA
75150,Dallas County,TX,17.538126361655774,NA,NA,NA,39.130434782608695
75156,Henderson County,TX,57.9520697167756,NA,NA,NA,NA
75159,Dallas County,TX,65.0326797385621,NA,NA,NA,NA
75165,Ellis County,TX,19.607843137254903,NA,NA,NA,59.656218402426695
75180,Dallas County,TX,NA,25.294117647058822,NA,NA,NA
75203,Dallas County,TX,NA,NA,NA,NA,82.40647118301314
75211,Dallas County,TX,NA,7.352941176470589,NA,NA,NA
75217,Dallas County,TX,NA,NA,9.712586719524282,NA,39.635995955510616
75224,Dallas County,TX,NA,NA,NA,43.194600674915634,NA
75228,Dallas County,TX,NA,NA,NA,20.80989876265467,NA
75231,Dallas County,TX,NA,NA,77.50247770069376,NA,NA
75237,Dallas County,TX,NA,NA,47.571853320118926,76.26546681664792,NA
75402,Hunt County,TX,NA,NA,78.59266600594648,NA,NA
75407,Collin County,TX,51.9607843137255,NA,NA,NA,NA
75455,Titus County,TX,NA,58.529411764705884,NA,NA,NA
75460,Lamar County,TX,NA,NA,NA,71.9910011248594,NA
75482,Hopkins County,TX,NA,NA,62.140733399405356,NA,39.130434782608695
75497,Wood County,TX,NA,NA,NA,NA,92.71991911021233
75503,Bowie County,TX,NA,NA,55.30227948463825,NA,NA
75551,Cass County,TX,NA,NA,NA,80.65241844769405,NA
75654,Rusk County,TX,NA,NA,NA,NA,59.35288169868554
75701,Smith County,TX,51.19825708061002,NA,NA,NA,NA
75752,Henderson County,TX,NA,NA,NA,83.23959505061868,NA
75757,Smith County,TX,NA,81.47058823529412,NA,NA,NA
75766,Cherokee County,TX,NA,NA,NA,NA,27.30030333670374
75783,Wood County,TX,NA,NA,97.22497522299307,NA,63.094034378159755
75844,Houston County,TX,NA,NA,95.0445986124876,NA,NA
75901,Angelina County,TX,NA,NA,NA,NA,35.69261880687563
75904,Angelina County,TX,NA,NA,69.87115956392468,NA,36.70374115267948
76010,Tarrant County,TX,NA,NA,NA,59.16760404949382,NA
76012,Tarrant County,TX,NA,NA,NA,57.25534308211474,44.893832153690596
76021,Tarrant County,TX,NA,NA,NA,42.63217097862767,NA
76028,Johnson County,TX,NA,NA,NA,3.487064116985377,NA
76040,Tarrant County,TX,34.42265795206972,NA,NA,NA,NA
76048,Hood County,TX,NA,NA,NA,NA,40.24266936299292
76063,Tarrant County,TX,NA,32.35294117647059,NA,NA,NA
76086,Parker County,TX,NA,66.17647058823529,NA,NA,NA
76102,Tarrant County,TX,NA,NA,NA,NA,89.88877654196158
76115,Tarrant County,TX,42.26579520697168,NA,NA,NA,NA
76117,Tarrant County,TX,NA,NA,36.37264618434094,NA,NA
76118,Tarrant County,TX,NA,NA,94.84638255698712,NA,NA
76123,Tarrant County,TX,17.647058823529413,NA,NA,NA,NA
76126,Tarrant County,TX,NA,NA,77.30426164519326,NA,NA
76132,Tarrant County,TX,NA,NA,NA,60.8548931383577,NA
76133,Tarrant County,TX,NA,NA,20.317145688800792,NA,NA
76134,Tarrant County,TX,NA,NA,NA,65.5793025871766,NA
76137,Tarrant County,TX,NA,NA,NA,NA,76.03640040444894
76140,Tarrant County,TX,20.152505446623092,NA,NA,NA,NA
76180,Tarrant County,TX,NA,NA,NA,38.69516310461192,NA
76208,Denton County,TX,NA,NA,63.23092170465807,NA,NA
76240,Cooke County,TX,NA,NA,42.51734390485629,NA,NA
76308,Wichita County,TX,NA,NA,NA,76.4904386951631,NA
76401,Erath County,TX,NA,NA,NA,NA,47.118301314459046
76501,Bell County,TX,12.527233115468409,NA,NA,NA,NA
76502,Bell County,TX,54.13943355119826,38.82352941176471,16.35282457879088,NA,0.20222446916076847
76504,Bell County,TX,NA,20.294117647058822,10.703666997026758,NA,NA
76513,Bell County,TX,5.010893246187364,21.176470588235293,NA,NA,NA
76528,Coryell County,TX,NA,NA,NA,13.948256467941508,NA
76543,Bell County,TX,NA,NA,NA,NA,30.63700707785642
76548,Bell County,TX,23.202614379084967,NA,NA,NA,NA
76642,Limestone County,TX,NA,NA,73.33994053518335,NA,NA
76667,Limestone County,TX,38.12636165577342,NA,84.4400396432111,NA,47.01718907987866
76705,McLennan County,TX,NA,22.058823529411764,NA,NA,NA
76710,McLennan County,TX,NA,NA,NA,NA,12.841253791708795
76711,McLennan County,TX,NA,NA,NA,96.962879640045,NA
76712,McLennan County,TX,20.806100217864923,NA,NA,NA,NA
76802,Brown County,TX,NA,NA,97.32408325074331,NA,NA
76903,Tom Green County,TX,NA,NA,NA,NA,42.871587462082914
76904,Tom Green County,TX,NA,NA,NA,NA,26.79474216380182
76905,Tom Green County,TX,NA,NA,NA,94.37570303712036,NA
77008,Harris County,TX,NA,NA,NA,NA,84.93427704752276
77011,Harris County,TX,NA,NA,83.44895936570862,NA,NA
77013,Harris County,TX,NA,NA,NA,NA,86.85540950455005
77015,Harris County,TX,16.33986928104575,NA,NA,NA,NA
77016,Harris County,TX,55.99128540305011,NA,NA,NA,NA
77028,Harris County,TX,NA,NA,NA,NA,79.97977755308392
77034,Harris County,TX,17.86492374727669,NA,NA,NA,NA
77035,Harris County,TX,NA,NA,NA,54.89313835770528,NA
77037,Harris County,TX,NA,NA,NA,NA,97.37108190091
77039,Harris County,TX,NA,NA,NA,NA,84.73205257836199
77040,Harris County,TX,NA,67.05882352941175,NA,NA,83.417593528817
77043,Harris County,TX,63.834422657952075,NA,NA,NA,NA
77057,Harris County,TX,46.949891067538125,NA,NA,NA,NA
77070,Harris County,TX,81.26361655773421,NA,NA,25.084364454443193,NA
77071,Harris County,TX,NA,88.23529411764706,NA,NA,NA
77072,Harris County,TX,50.871459694989106,NA,NA,NA,NA
77074,Harris County,TX,74.29193899782135,NA,80.2775024777007,NA,NA
77084,Harris County,TX,70.479302832244,17.058823529411764,NA,NA,NA
77087,Harris County,TX,NA,NA,NA,59.84251968503938,NA
77088,Harris County,TX,NA,NA,NA,37.232845894263214,NA
77091,Harris County,TX,NA,NA,NA,NA,55.106167846309404
77096,Harris County,TX,NA,NA,NA,NA,79.37310414560162
77303,Montgomery County,TX,37.03703703703704,NA,NA,NA,NA
77304,Montgomery County,TX,35.62091503267974,NA,NA,NA,NA
77351,Polk County,TX,66.66666666666666,NA,NA,NA,NA
77354,Montgomery County,TX,NA,NA,NA,NA,35.28816986855409
77357,Montgomery County,TX,43.35511982570806,NA,NA,NA,NA
77373,Harris County,TX,NA,NA,NA,29.021372328458945,NA
77379,Harris County,TX,NA,NA,NA,10.573678290213723,NA
77382,Montgomery County,TX,NA,NA,NA,NA,70.57633973710819
77388,Harris County,TX,NA,NA,NA,NA,62.99292214357938
77407,Fort Bend County,TX,94.66230936819173,NA,NA,NA,NA
77465,Matagorda County,TX,NA,NA,NA,NA,73.91304347826086
77478,Fort Bend County,TX,89.2156862745098,NA,NA,NA,NA
77480,Brazoria County,TX,NA,NA,NA,NA,87.05763397371082
77484,Waller County,TX,NA,NA,92.26957383548068,NA,NA
77489,Fort Bend County,TX,47.712418300653596,NA,NA,NA,NA
77502,Harris County,TX,27.5599128540305,NA,NA,NA,NA
77503,Harris County,TX,53.59477124183007,NA,NA,NA,NA
77505,Harris County,TX,NA,NA,NA,66.02924634420697,NA
77506,Harris County,TX,NA,NA,NA,72.89088863892013,NA
77515,Brazoria County,TX,NA,NA,53.22101090188305,NA,NA
77521,Harris County,TX,NA,66.17647058823529,NA,NA,NA
77530,Harris County,TX,NA,27.647058823529413,NA,NA,NA
77536,Harris County,TX,37.36383442265795,NA,NA,NA,NA
77539,Galveston County,TX,4.357298474945534,NA,NA,11.473565804274466,NA
77546,Galveston County,TX,NA,NA,NA,46.006749156355454,31.547017189079877
77550,Galveston County,TX,NA,NA,21.308225966303272,14.39820022497188,6.066734074823053
77551,Galveston County,TX,NA,NA,NA,28.90888638920135,22.649140546006066
77565,Galveston County,TX,NA,NA,NA,70.97862767154106,NA
77568,Galveston County,TX,NA,NA,36.174430128840434,NA,NA
77571,Harris County,TX,40.631808278867105,NA,NA,NA,50.859453993933265
77573,Galveston County,TX,NA,NA,NA,NA,19.919110212335692
77586,Harris County,TX,NA,NA,53.02279484638256,NA,NA
77598,Harris County,TX,NA,NA,NA,86.38920134983127,NA
77640,Jefferson County,TX,61.22004357298475,NA,NA,67.60404949381328,NA
77656,Hardin County,TX,NA,NA,NA,64.45444319460067,NA
77662,Orange County,TX,NA,NA,47.67096134786918,NA,NA
77701,Jefferson County,TX,NA,NA,NA,NA,81.3953488372093
77845,Brazos County,TX,6.64488017429194,NA,NA,3.824521934758155,2.1233569261880687
77901,Victoria County,TX,NA,NA,NA,76.94038245219348,NA
77904,Victoria County,TX,NA,NA,NA,39.257592800899886,NA
78006,Kendall County,TX,NA,NA,NA,60.967379077615306,NA
78015,Bexar County,TX,79.08496732026144,NA,NA,NA,NA
78023,Bexar County,TX,56.209150326797385,NA,NA,NA,NA
78028,Kerr County,TX,NA,NA,NA,NA,6.774519716885743
78043,Webb County,TX,5.555555555555555,NA,NA,NA,NA
78046,Webb County,TX,1.4161220043572984,29.411764705882355,NA,NA,NA
78130,Comal County,TX,NA,39.705882352941174,NA,NA,NA
78154,Guadalupe County,TX,66.88453159041394,NA,NA,NA,NA
78155,Guadalupe County,TX,NA,NA,25.272547076313177,NA,NA
78201,Bexar County,TX,16.23093681917211,NA,NA,NA,40.44489383215369
78209,Bexar County,TX,NA,57.35294117647059,NA,62.879640044994375,NA
78212,Bexar County,TX,NA,NA,NA,NA,76.03640040444894
78221,Bexar County,TX,49.45533769063181,NA,NA,NA,NA
78224,Bexar County,TX,NA,42.35294117647059,NA,NA,NA
78226,Bexar County,TX,NA,NA,NA,94.71316085489315,NA
78227,Bexar County,TX,NA,25.882352941176475,NA,NA,NA
78228,Bexar County,TX,2.832244008714597,NA,NA,NA,NA
78230,Bexar County,TX,NA,NA,NA,61.19235095613048,NA
78237,Bexar County,TX,14.923747276688454,NA,NA,NA,NA
78239,Bexar County,TX,96.40522875816994,NA,NA,NA,NA
78240,Bexar County,TX,NA,NA,46.58077304261645,NA,NA
78242,Bexar County,TX,NA,17.647058823529413,NA,NA,NA
78252,Bexar County,TX,96.07843137254902,NA,NA,NA,NA
78254,Bexar County,TX,NA,70.88235294117648,NA,NA,NA
78260,Bexar County,TX,NA,NA,NA,87.73903262092239,NA
78404,Nueces County,TX,61.87363834422658,NA,NA,NA,NA
78412,Nueces County,TX,85.18518518518519,NA,NA,NA,NA
78414,Nueces County,TX,NA,NA,63.924677898909806,NA,NA
78415,Nueces County,TX,NA,16.470588235294116,NA,NA,NA
78501,Hidalgo County,TX,9.912854030501089,NA,NA,NA,NA
78503,Hidalgo County,TX,NA,NA,NA,NA,72.4974721941355
78520,Cameron County,TX,NA,2.0588235294117645,NA,NA,20.72800808897877
78526,Cameron County,TX,NA,NA,NA,NA,70.27300303336703
78541,Hidalgo County,TX,NA,NA,NA,65.24184476940383,NA
78542,Hidalgo County,TX,5.991285403050109,NA,NA,30.821147356580425,NA
78552,Cameron County,TX,NA,NA,NA,72.10348706411699,NA
78570,Hidalgo County,TX,17.320261437908496,NA,NA,NA,NA
78574,Hidalgo County,TX,11.002178649237472,NA,NA,NA,NA
78596,Hidalgo County,TX,NA,26.176470588235297,NA,NA,NA
78599,Hidalgo County,TX,NA,NA,NA,96.40044994375702,NA
78613,Williamson County,TX,NA,NA,NA,NA,6.167846309403438
78621,Bastrop County,TX,NA,72.94117647058823,NA,NA,NA
78626,Williamson County,TX,44.989106753812635,NA,NA,NA,NA
78628,Williamson County,TX,NA,NA,75.61942517343905,NA,NA
78654,Burnet County,TX,NA,NA,NA,42.069741282339706,NA
78660,Travis County,TX,NA,NA,NA,NA,51.97168857431749
78665,Williamson County,TX,22.004357298474943,NA,NA,NA,NA
78723,Travis County,TX,NA,NA,NA,74.01574803149606,NA
78729,Williamson County,TX,60.348583877995644,NA,NA,NA,NA
78734,Travis County,TX,NA,92.94117647058823,NA,NA,NA
78737,Hays County,TX,74.83660130718954,NA,NA,NA,NA
78741,Travis County,TX,NA,NA,NA,77.39032620922384,NA
78745,Travis County,TX,NA,52.94117647058824,NA,NA,NA
78834,Dimmit County,TX,NA,93.82352941176471,NA,NA,NA
78852,Maverick County,TX,NA,27.35294117647059,NA,NA,53.38725985844287
79102,Potter County,TX,NA,NA,NA,NA,97.26996966632963
79109,Randall County,TX,NA,NA,NA,NA,48.634984833164815
79110,Randall County,TX,NA,NA,68.6818632309217,NA,NA
79119,Randall County,TX,81.15468409586056,NA,NA,NA,NA
79336,Hockley County,TX,NA,NA,NA,88.52643419572553,NA
79382,Lubbock County,TX,NA,NA,NA,NA,99.08998988877654
79407,Lubbock County,TX,NA,NA,NA,NA,56.31951466127402
79414,Lubbock County,TX,NA,NA,NA,NA,54.903943377148636
79423,Lubbock County,TX,NA,NA,NA,NA,31.04145601617796
79424,Lubbock County,TX,NA,NA,NA,NA,16.885743174924166
79602,Taylor County,TX,36.27450980392157,NA,NA,NA,NA
79745,Winkler County,TX,NA,95.58823529411765,NA,NA,NA
79756,Ward County,TX,NA,NA,NA,NA,65.92517694641052
79761,Ector County,TX,26.47058823529412,NA,NA,NA,NA
79849,El Paso County,TX,NA,47.05882352941176,NA,NA,NA
79907,El Paso County,TX,23.093681917211327,NA,39.94053518334985,NA,NA
79915,El Paso County,TX,69.6078431372549,14.705882352941178,NA,NA,NA
79924,El Paso County,TX,NA,NA,46.4816650148662,67.37907761529809,NA
79925,El Paso County,TX,NA,NA,NA,54.780652418447694,NA
79927,El Paso County,TX,NA,NA,NA,NA,61.880687563195146
79936,El Paso County,TX,36.165577342047925,5.294117647058823,NA,19.01012373453318,NA
79938,El Paso County,TX,NA,NA,68.28543111992072,98.65016872890888,NA
84009,Salt Lake County,UT,NA,NA,56.987115956392465,NA,NA
84020,Salt Lake County,UT,69.38997821350763,NA,NA,66.92913385826772,NA
84021,Duchesne County,UT,90.0871459694989,NA,NA,NA,NA
84029,Tooele County,UT,NA,NA,61.94251734390485,84.02699662542183,NA
84037,Davis County,UT,25.381263616557735,NA,NA,NA,NA
84043,Utah County,UT,14.814814814814813,NA,NA,NA,NA
84047,Salt Lake County,UT,NA,NA,63.13181367690783,49.71878515185602,NA
84058,Utah County,UT,NA,NA,NA,NA,77.75530839231547
84060,Summit County,UT,NA,NA,NA,90.32620922384702,NA
84065,Salt Lake County,UT,NA,NA,40.33696729435084,NA,NA
84066,Duchesne County,UT,NA,NA,63.23092170465807,NA,NA
84067,Weber County,UT,54.68409586056645,NA,NA,NA,NA
84074,Tooele County,UT,NA,NA,4.757185332011893,NA,NA
84075,Davis County,UT,72.00435729847494,NA,NA,NA,NA
84078,Uintah County,UT,NA,NA,50.842418235877105,NA,NA
84084,Salt Lake County,UT,NA,NA,49.157581764122895,43.98200224971879,NA
84096,Salt Lake County,UT,NA,NA,28.93954410307235,NA,NA
84103,Salt Lake County,UT,NA,NA,69.0782953419227,NA,NA
84104,Salt Lake County,UT,38.77995642701525,85.88235294117646,NA,NA,NA
84105,Salt Lake County,UT,NA,NA,79.48463825569871,NA,NA
84108,Salt Lake County,UT,NA,NA,NA,58.26771653543307,NA
84115,Salt Lake County,UT,NA,NA,40.73339940535183,NA,NA
84117,Salt Lake County,UT,NA,NA,NA,NA,30.23255813953488
84118,Salt Lake County,UT,NA,NA,18.533201189296335,NA,NA
84119,Salt Lake County,UT,NA,NA,44.697720515361745,NA,NA
84123,Salt Lake County,UT,NA,NA,NA,NA,46.51162790697674
84341,Cache County,UT,NA,NA,NA,NA,73.40748230535895
84401,Weber County,UT,27.77777777777778,NA,46.28344895936571,NA,NA
84404,Weber County,UT,11.11111111111111,NA,NA,NA,NA
84414,Weber County,UT,80.71895424836602,NA,NA,NA,NA
84651,Utah County,UT,NA,NA,73.93458870168483,NA,NA
84663,Utah County,UT,53.05010893246187,NA,NA,NA,NA
84770,Washington County,UT,63.834422657952075,NA,NA,30.033745781777277,NA
84790,Washington County,UT,NA,NA,47.37363726461844,NA,NA
05201,Bennington County,VT,NA,NA,NA,NA,33.367037411526795
05401,Chittenden County,VT,NA,NA,54.112983151635284,NA,NA
05403,Chittenden County,VT,69.71677559912854,NA,NA,NA,NA
05446,Chittenden County,VT,NA,NA,NA,NA,64.81294236602629
05454,Franklin County,VT,NA,NA,99.30624380574827,NA,NA
05602,Washington County,VT,NA,87.05882352941177,65.80773042616453,NA,NA
05733,Rutland County,VT,NA,NA,NA,74.24071991001125,NA
20110,Manassas city,VA,NA,NA,37.462834489593654,NA,NA
20121,Fairfax County,VA,87.4727668845316,NA,NA,NA,NA
20148,Loudoun County,VA,88.34422657952071,NA,NA,NA,NA
22015,Fairfax County,VA,NA,NA,NA,50.28121484814398,54.903943377148636
22026,Prince William County,VA,NA,79.11764705882352,NA,NA,NA
22180,Fairfax County,VA,78.75816993464052,NA,NA,NA,NA
22181,Fairfax County,VA,72.76688453159042,NA,NA,NA,NA
22182,Fairfax County,VA,NA,NA,NA,NA,80.28311425682507
22309,Fairfax County,VA,NA,NA,NA,55.90551181102362,NA
22310,Fairfax County,VA,49.23747276688453,NA,NA,NA,NA
22401,Fredericksburg city,VA,NA,NA,NA,73.67829021372329,NA
22405,Stafford County,VA,NA,NA,NA,57.59280089988752,NA
22406,Stafford County,VA,NA,NA,NA,77.84026996625421,NA
22408,Spotsylvania County,VA,NA,NA,68.58275520317146,NA,NA
22546,Caroline County,VA,NA,NA,NA,69.06636670416198,NA
22554,Stafford County,VA,NA,NA,32.60654112983152,NA,NA
22601,Winchester city,VA,NA,NA,NA,NA,62.689585439838226
22611,Clarke County,VA,NA,NA,NA,91.78852643419573,NA
22801,Harrisonburg city,VA,NA,NA,NA,NA,20.82912032355915
22849,Page County,VA,NA,NA,NA,NA,82.50758341759354
22901,Albemarle County,VA,NA,NA,NA,NA,7.785642062689585
22902,Charlottesville city,VA,NA,51.76470588235295,NA,NA,NA
22942,Louisa County,VA,90.95860566448802,NA,NA,NA,NA
22980,Waynesboro city,VA,NA,NA,NA,NA,3.0333670374115265
23002,Amelia County,VA,92.81045751633987,NA,NA,NA,NA
23005,Hanover County,VA,NA,NA,NA,NA,96.35995955510617
23060,Henrico County,VA,89.97821350762527,NA,NA,NA,75.32861476238625
23072,Gloucester County,VA,NA,NA,NA,73.4533183352081,NA
23075,Henrico County,VA,NA,NA,NA,NA,93.12436804853387
23111,Hanover County,VA,58.27886710239652,NA,54.70763131813678,NA,NA
23113,Chesterfield County,VA,NA,NA,NA,56.35545556805399,NA
23116,Hanover County,VA,NA,NA,NA,58.71766029246345,NA
23150,Henrico County,VA,NA,67.94117647058823,NA,NA,NA
23188,James City County,VA,31.590413943355124,NA,NA,NA,0.7077856420626896
23222,Richmond city,VA,NA,NA,17.839444995044598,NA,NA
23223,Henrico County,VA,3.376906318082789,NA,NA,NA,27.906976744186046
23224,Richmond city,VA,8.061002178649238,NA,NA,NA,NA
23225,Richmond city,VA,41.394335511982575,NA,NA,NA,27.906976744186046
23227,Henrico County,VA,90.52287581699346,NA,NA,NA,25.278058645096056
23231,Henrico County,VA,NA,NA,NA,NA,30.83923154701719
23235,Chesterfield County,VA,NA,NA,58.27552031714569,NA,NA
23294,Henrico County,VA,NA,NA,NA,NA,82.0020222446916
23314,Isle of Wight County,VA,NA,NA,NA,NA,90.89989888776542
23324,Chesapeake city,VA,NA,46.1764705882353,44.301288404360754,58.49268841394826,NA
23452,Virginia Beach city,VA,NA,NA,NA,7.986501687289089,NA
23454,Virginia Beach city,VA,NA,92.64705882352942,NA,NA,NA
23455,Virginia Beach city,VA,NA,56.76470588235294,NA,8.323959505061868,1.5166835187057632
23456,Virginia Beach city,VA,NA,NA,61.05054509415263,NA,NA
23462,Virginia Beach city,VA,NA,29.117647058823533,NA,NA,NA
23464,Virginia Beach city,VA,NA,NA,50.64420218037661,46.56917885264342,NA
23502,Norfolk city,VA,NA,NA,NA,34.53318335208099,NA
23513,Norfolk city,VA,NA,NA,19.22695738354807,NA,NA
23602,Newport News city,VA,NA,89.41176470588236,NA,NA,NA
23607,Newport News city,VA,NA,32.94117647058823,NA,NA,NA
23661,Hampton city,VA,NA,NA,NA,NA,74.82305358948432
23666,Hampton city,VA,NA,NA,NA,10.798650168728908,NA
23703,Portsmouth city,VA,NA,95.29411764705881,NA,NA,32.659251769464106
23704,Portsmouth city,VA,NA,NA,NA,NA,88.06875631951466
23803,Petersburg city,VA,NA,NA,NA,15.523059617547808,24.26693629929221
23834,Colonial Heights city,VA,NA,NA,NA,66.70416197975253,NA
23847,Greensville County,VA,NA,NA,NA,NA,80.0808897876643
23875,Prince George County,VA,NA,NA,83.94449950445986,NA,NA
24019,Roanoke County,VA,NA,NA,NA,29.24634420697413,NA
24055,Henry County,VA,NA,NA,65.80773042616453,NA,NA
24084,Pulaski County,VA,NA,NA,NA,93.47581552305961,NA
24112,Henry County,VA,NA,NA,NA,14.848143982002249,NA
24153,Salem city,VA,NA,NA,NA,NA,81.29423660262893
24202,Washington County,VA,NA,NA,87.90882061446978,NA,NA
24224,Russell County,VA,NA,NA,NA,NA,87.25985844287159
24228,Dickenson County,VA,NA,NA,71.25867195242814,NA,NA
24230,Wise County,VA,NA,60.588235294117645,NA,NA,NA
24293,Wise County,VA,NA,NA,54.70763131813678,NA,NA
24343,Carroll County,VA,NA,NA,74.92566897918731,NA,NA
24382,Wythe County,VA,NA,NA,49.45490584737364,NA,NA
24401,Staunton city,VA,30.93681917211329,NA,41.32804757185332,71.20359955005624,5.6622851365015165
24426,Alleghany County,VA,NA,NA,NA,50.73115860517435,NA
24477,Augusta County,VA,NA,91.76470588235294,NA,NA,NA
24502,Lynchburg city,VA,NA,NA,NA,NA,46.00606673407482
24540,Danville city,VA,NA,78.82352941176471,NA,NA,NA
24637,Tazewell County,VA,NA,NA,93.85530227948465,NA,NA
98001,King County,WA,NA,NA,45.68880079286422,NA,NA
98003,King County,WA,NA,NA,64.7175421209118,NA,NA
98011,King County,WA,66.23093681917211,NA,NA,NA,NA
98012,Snohomish County,WA,29.411764705882355,NA,NA,NA,NA
98022,King County,WA,NA,NA,62.93359762140733,NA,NA
98023,King County,WA,NA,NA,NA,13.835770528683913,NA
98032,King County,WA,NA,NA,NA,NA,64.00404448938322
98034,King County,WA,NA,NA,34.29137760158573,NA,NA
98036,Snohomish County,WA,NA,NA,NA,NA,33.06370070778564
98042,King County,WA,14.596949891067537,NA,69.77205153617443,NA,NA
98043,Snohomish County,WA,NA,NA,NA,82.33970753655792,NA
98057,King County,WA,NA,NA,NA,NA,97.57330637007078
98065,King County,WA,NA,NA,94.64816650148661,NA,NA
98092,King County,WA,NA,NA,76.51139742319127,NA,NA
98101,King County,WA,NA,NA,NA,NA,34.17593528816987
98103,King County,WA,44.66230936819172,NA,NA,NA,NA
98110,Kitsap County,WA,NA,NA,NA,NA,82.30535894843275
98121,King County,WA,NA,NA,57.97819623389494,NA,NA
98122,King County,WA,NA,NA,NA,45.3318335208099,NA
98125,King County,WA,NA,NA,42.81466798810703,NA,NA
98133,King County,WA,NA,NA,30.327056491575817,NA,NA
98146,King County,WA,NA,NA,NA,70.1912260967379,NA
98168,King County,WA,55.99128540305011,NA,NA,NA,NA
98178,King County,WA,59.47712418300654,NA,58.87016848364718,NA,78.46309403437816
98198,King County,WA,NA,NA,NA,NA,21.73913043478261
98203,Snohomish County,WA,66.23093681917211,NA,NA,NA,NA
98208,Snohomish County,WA,NA,NA,NA,NA,43.68048533872599
98221,Skagit County,WA,NA,NA,NA,NA,15.874620829120323
98225,Whatcom County,WA,91.61220043572985,NA,NA,NA,43.47826086956522
98230,Whatcom County,WA,84.9673202614379,NA,NA,NA,NA
98233,Skagit County,WA,69.49891067538127,NA,NA,NA,NA
98247,Whatcom County,WA,NA,NA,NA,NA,95.75328614762387
98248,Whatcom County,WA,NA,NA,NA,66.14173228346458,NA
98264,Whatcom County,WA,94.22657952069716,NA,NA,NA,NA
98270,Snohomish County,WA,71.0239651416122,NA,NA,NA,NA
98272,Snohomish County,WA,77.45098039215686,NA,NA,NA,NA
98273,Skagit County,WA,16.884531590413943,NA,NA,NA,NA
98274,Skagit County,WA,65.68627450980392,NA,NA,NA,NA
98284,Skagit County,WA,NA,NA,NA,NA,17.18907987866532
98296,Snohomish County,WA,NA,NA,NA,70.4161979752531,NA
98339,Jefferson County,WA,NA,NA,100,NA,NA
98362,Clallam County,WA,66.55773420479304,NA,NA,NA,25.581395348837212
98371,Pierce County,WA,NA,NA,NA,NA,43.27603640040445
98373,Pierce County,WA,72.4400871459695,NA,NA,NA,NA
98374,Pierce County,WA,NA,NA,NA,44.65691788526434,NA
98375,Pierce County,WA,28.540305010893245,NA,55.89692765113974,NA,NA
98382,Clallam County,WA,NA,NA,NA,NA,11.830131445904954
98383,Kitsap County,WA,75.38126361655773,NA,NA,NA,NA
98387,Pierce County,WA,15.686274509803921,NA,NA,NA,NA
98405,Pierce County,WA,NA,NA,33.99405351833499,NA,NA
98444,Pierce County,WA,83.00653594771242,NA,NA,NA,NA
98446,Pierce County,WA,67.97385620915033,NA,NA,NA,NA
98501,Thurston County,WA,98.69281045751634,NA,NA,NA,NA
98503,Thurston County,WA,73.31154684095861,NA,NA,NA,NA
98506,Thurston County,WA,60.893246187363836,NA,78.69177403369673,NA,NA
98516,Thurston County,WA,NA,98.52941176470588,NA,NA,NA
98528,Mason County,WA,NA,NA,NA,82.9021372328459,NA
98541,Grays Harbor County,WA,NA,NA,79.98017839444995,NA,NA
98569,Grays Harbor County,WA,NA,NA,NA,NA,92.61880687563195
98626,Cowlitz County,WA,NA,NA,46.97720515361744,NA,NA
98632,Cowlitz County,WA,NA,NA,21.010901883052526,NA,NA
98661,Clark County,WA,NA,NA,53.91476709613479,NA,NA
97003,NA,NA,NA,56.1764705882353,NA,NA,NA
98662,Clark County,WA,NA,NA,78.88999008919723,NA,NA
98802,Douglas County,WA,NA,NA,93.06243805748265,NA,NA
98901,Yakima County,WA,56.209150326797385,NA,NA,NA,NA
98902,Yakima County,WA,NA,NA,29.534192269573833,NA,NA
98908,Yakima County,WA,54.03050108932462,NA,NA,NA,NA
98922,Kittitas County,WA,NA,NA,NA,81.3273340832396,NA
98926,Kittitas County,WA,NA,NA,57.38354806739346,NA,NA
98951,Yakima County,WA,NA,NA,NA,NA,88.77654196157735
99006,Spokane County,WA,NA,NA,NA,90.6636670416198,NA
99156,Pend Oreille County,WA,NA,NA,NA,NA,72.19413549039434
99206,Spokane County,WA,NA,NA,78.09712586719525,NA,NA
99208,Spokane County,WA,NA,NA,NA,30.033745781777277,NA
99212,Spokane County,WA,56.209150326797385,NA,NA,NA,NA
99223,Spokane County,WA,NA,NA,NA,56.80539932508436,NA
99301,Franklin County,WA,1.6339869281045754,NA,NA,NA,NA
99337,Benton County,WA,NA,NA,27.651139742319124,NA,NA
99362,Walla Walla County,WA,NA,NA,62.43805748265609,NA,NA
20001,District of Columbia,DC,NA,NA,22.59663032705649,NA,NA
20002,District of Columbia,DC,NA,NA,NA,6.86164229471316,NA
20003,District of Columbia,DC,85.5119825708061,NA,NA,NA,NA
20005,District of Columbia,DC,83.87799564270153,NA,87.11595639246778,NA,73.81193124368049
20008,District of Columbia,DC,88.45315904139433,NA,NA,NA,NA
20009,District of Columbia,DC,NA,69.41176470588235,NA,NA,NA
20011,District of Columbia,DC,NA,NA,8.523290386521309,NA,NA
20019,District of Columbia,DC,NA,NA,NA,4.386951631046119,NA
20020,District of Columbia,DC,NA,NA,NA,5.174353205849269,NA
20032,District of Columbia,DC,7.298474945533768,NA,NA,NA,NA
20037,District of Columbia,DC,NA,NA,NA,NA,95.14661274014156
24901,Greenbrier County,WV,88.56209150326796,NA,NA,NA,NA
25213,Putnam County,WV,NA,NA,NA,NA,90.69767441860465
25248,Jackson County,WV,NA,NA,NA,NA,99.89888776541962
25276,Roane County,WV,NA,NA,57.58176412289395,NA,69.9696663296259
25306,Kanawha County,WV,NA,90,NA,NA,90.89989888776542
25311,Kanawha County,WV,NA,NA,NA,63.66704161979753,NA
25314,Kanawha County,WV,63.18082788671025,NA,NA,NA,NA
25387,Kanawha County,WV,NA,NA,NA,77.61529808773903,NA
25401,Berkeley County,WV,50.54466230936819,NA,38.75123885034688,37.4578177727784,NA
25411,Morgan County,WV,NA,NA,NA,NA,53.69059656218403
25506,Lincoln County,WV,NA,91.17647058823529,NA,NA,81.79979777553083
25670,Mingo County,WV,NA,NA,86.9177403369673,NA,NA
25701,Cabell County,WV,NA,NA,NA,NA,23.559150657229523
25705,Cabell County,WV,NA,NA,18.63230921704658,NA,NA
26003,Ohio County,WV,13.28976034858388,NA,5.946481665014866,NA,2.5278058645096055
26037,Brooke County,WV,79.08496732026144,NA,NA,NA,NA
26041,Marshall County,WV,NA,NA,49.85133795837463,NA,NA
26104,Wood County,WV,NA,54.41176470588235,NA,NA,18.806875631951467
26241,Randolph County,WV,NA,NA,67.78989098116948,NA,NA
26301,Harrison County,WV,18.627450980392158,NA,NA,NA,NA
26501,Monongalia County,WV,NA,NA,53.815659068384534,NA,NA
26508,Monongalia County,WV,NA,NA,NA,NA,16.27906976744186
26753,Mineral County,WV,NA,NA,NA,95.3880764904387,NA
26757,Hampshire County,WV,NA,87.3529411764706,NA,NA,NA
26847,Grant County,WV,NA,NA,NA,NA,89.28210313447927
53032,Dodge County,WI,78.10457516339869,NA,NA,NA,NA
53045,Waukesha County,WI,74.61873638344227,NA,NA,NA,NA
53051,Waukesha County,WI,NA,NA,NA,25.984251968503933,NA
53073,Sheboygan County,WI,NA,NA,84.63825569871159,NA,NA
53074,Ozaukee County,WI,NA,NA,72.24975222993062,NA,NA
53083,Sheboygan County,WI,NA,74.70588235294117,NA,NA,NA
53089,Waukesha County,WI,67.10239651416123,NA,NA,NA,NA
53090,Washington County,WI,NA,NA,66.10505450941527,NA,NA
53092,Ozaukee County,WI,NA,NA,61.446977205153615,NA,14.560161779575328
53095,Washington County,WI,18.736383442265794,NA,NA,NA,NA
53097,Ozaukee County,WI,NA,NA,NA,NA,87.46208291203236
53103,Waukesha County,WI,90.19607843137256,NA,NA,NA,NA
53104,Kenosha County,WI,NA,NA,79.38553022794846,NA,NA
53105,Racine County,WI,NA,NA,16.15460852329039,NA,NA
53115,Walworth County,WI,NA,NA,NA,41.95725534308212,NA
53130,Milwaukee County,WI,NA,NA,NA,NA,69.66632962588474
53132,Milwaukee County,WI,NA,NA,NA,22.15973003374578,NA
53144,Kenosha County,WI,NA,NA,17.34390485629336,NA,NA
53149,Waukesha County,WI,NA,NA,NA,41.50731158605174,NA
53154,Milwaukee County,WI,71.89542483660131,NA,NA,NA,NA
53168,Kenosha County,WI,59.694989106753816,NA,NA,NA,NA
53182,Racine County,WI,46.2962962962963,NA,NA,NA,NA
53188,Waukesha County,WI,10.56644880174292,67.94117647058823,NA,NA,NA
53190,Walworth County,WI,NA,NA,87.51238850346878,NA,NA
53191,Walworth County,WI,NA,NA,99.70267591674926,NA,NA
53204,Milwaukee County,WI,61.76470588235294,NA,NA,NA,NA
53208,Milwaukee County,WI,NA,NA,12.487611496531219,NA,NA
53213,Milwaukee County,WI,NA,NA,81.16947472745292,NA,NA
53216,Milwaukee County,WI,NA,NA,50.74331020812686,NA,NA
53221,Milwaukee County,WI,NA,30,21.407333994053516,NA,NA
53223,Milwaukee County,WI,81.04575163398692,NA,NA,NA,11.93124368048534
53224,Milwaukee County,WI,NA,NA,NA,54.443194600674914,NA
53226,Milwaukee County,WI,NA,NA,NA,NA,38.32153690596562
53228,Milwaukee County,WI,NA,NA,NA,48.25646794150732,37.613751263902934
53402,Racine County,WI,NA,NA,NA,NA,13.953488372093023
53405,Racine County,WI,NA,NA,49.35579781962339,3.374578177727784,NA
53406,Racine County,WI,NA,NA,NA,NA,2.0222446916076846
53511,Rock County,WI,NA,NA,NA,4.83689538807649,0.10111223458038424
53520,Green County,WI,NA,NA,NA,84.13948256467941,NA
53534,Rock County,WI,NA,NA,60.85232903865213,NA,NA
53536,Rock County,WI,NA,NA,89.69276511397423,NA,NA
53545,Rock County,WI,NA,NA,NA,19.797525309336333,NA
53562,Dane County,WI,NA,NA,91.47670961347869,NA,NA
53566,Green County,WI,NA,NA,55.203171456888015,NA,NA
53590,Dane County,WI,NA,NA,NA,76.04049493813272,NA
53593,Dane County,WI,77.66884531590415,NA,NA,NA,NA
53594,Jefferson County,WI,NA,NA,NA,96.06299212598425,NA
53704,Dane County,WI,NA,NA,11.793855302279486,NA,NA
53705,Dane County,WI,59.694989106753816,NA,NA,NA,NA
53711,Dane County,WI,NA,42.94117647058823,NA,NA,12.335692618806876
53713,Dane County,WI,84.31372549019608,NA,NA,NA,37.31041456016178
53718,Dane County,WI,92.5925925925926,NA,NA,NA,NA
53719,Dane County,WI,NA,NA,NA,NA,83.72093023255815
53809,Grant County,WI,NA,NA,97.9187314172448,NA,NA
53916,Dodge County,WI,NA,45,NA,NA,24.772497472194136
54002,St. Croix County,WI,NA,NA,88.9990089197225,NA,NA
54022,Pierce County,WI,NA,NA,NA,50.843644544431946,NA
54220,Manitowoc County,WI,NA,NA,NA,17.885264341957257,0.8088978766430739
54313,Brown County,WI,56.97167755991286,NA,NA,NA,NA
54403,Marathon County,WI,NA,NA,NA,33.40832395950506,NA
54409,Langlade County,WI,NA,NA,NA,22.83464566929134,NA
54452,Lincoln County,WI,79.520697167756,NA,NA,NA,NA
54457,Wood County,WI,NA,NA,NA,64.22947131608548,64.40849342770476
54481,Portage County,WI,NA,NA,NA,NA,7.482305358948432
54494,Wood County,WI,NA,NA,32.01189296333003,NA,NA
54701,Eau Claire County,WI,NA,NA,NA,NA,32.355915065722954
54729,Chippewa County,WI,NA,NA,34.58870168483647,NA,NA
54880,Douglas County,WI,0.4357298474945534,NA,NA,2.699662542182227,NA
54901,Winnebago County,WI,NA,NA,29.038652130822594,NA,NA
54902,Winnebago County,WI,95.20697167755992,NA,NA,NA,NA
54904,Winnebago County,WI,94.44444444444444,NA,NA,NA,NA
54911,Outagamie County,WI,NA,NA,NA,NA,87.36097067745197
54915,Outagamie County,WI,NA,NA,NA,52.30596175478065,NA
54956,Winnebago County,WI,NA,NA,27.55203171456888,NA,NA
82001,Laramie County,WY,NA,NA,NA,88.07649043869516,NA
82070,Albany County,WY,NA,NA,NA,75.81552305961755,NA
82240,Goshen County,WY,NA,NA,NA,80.87739032620922,NA
82935,Sweetwater County,WY,NA,NA,NA,NA,93.12436804853387
