ZipCode,county,state,Adult,Retirement
35211,Jefferson County,AL,83.24420677361853,NA
35222,Jefferson County,AL,82.88770053475936,NA
35601,Morgan County,AL,15.86452762923351,NA
35630,Lauderdale County,AL,57.57575757575758,NA
35660,Colbert County,AL,NA,72.41379310344827
36079,Pike County,AL,NA,82.26600985221675
36104,Montgomery County,AL,52.406417112299465,NA
36201,Calhoun County,AL,28.87700534759358,NA
36420,Covington County,AL,49.9108734402852,NA
36618,Mobile County,AL,66.48841354723707,NA
36801,Lee County,AL,NA,54.187192118226605
85041,Maricopa County,AZ,49.554367201426025,NA
85051,Maricopa County,AZ,16.577540106951872,NA
85140,Pinal County,AZ,60.78431372549019,NA
85326,Maricopa County,AZ,30.65953654188948,NA
71701,Ouachita County,AR,NA,44.827586206896555
72143,White County,AR,63.27985739750446,NA
72601,Boone County,AR,50.80213903743316,NA
72834,Yell County,AR,78.43137254901961,NA
90002,Los Angeles County,CA,54.72370766488414,NA
90003,Los Angeles County,CA,NA,64.03940886699507
90004,Los Angeles County,CA,NA,31.527093596059114
90012,Los Angeles County,CA,NA,43.84236453201971
90013,Los Angeles County,CA,81.81818181818183,NA
90033,Los Angeles County,CA,NA,41.37931034482759
90044,Los Angeles County,CA,10.338680926916222,NA
90063,Los Angeles County,CA,NA,34.97536945812808
90201,Los Angeles County,CA,31.907308377896616,NA
90242,Los Angeles County,CA,NA,46.79802955665024
90501,Los Angeles County,CA,45.632798573975045,NA
90605,Los Angeles County,CA,52.94117647058824,NA
90802,Los Angeles County,CA,NA,77.33990147783251
90813,Los Angeles County,CA,58.64527629233511,38.91625615763547
91101,Los Angeles County,CA,80.3921568627451,NA
91306,Los Angeles County,CA,39.750445632798574,NA
91311,Los Angeles County,CA,NA,42.364532019704434
91740,Los Angeles County,CA,57.93226381461676,NA
91748,Los Angeles County,CA,NA,49.75369458128079
91766,Los Angeles County,CA,NA,36.45320197044335
92057,San Diego County,CA,74.50980392156863,NA
92114,San Diego County,CA,32.97682709447415,NA
92373,San Bernardino County,CA,62.92335115864528,NA
92507,Riverside County,CA,40.28520499108734,NA
92677,Orange County,CA,NA,85.22167487684729
92683,Orange County,CA,18.71657754010695,NA
92801,Orange County,CA,34.58110516934047,NA
92868,Orange County,CA,95.90017825311944,NA
93307,Kern County,CA,NA,14.77832512315271
93309,Kern County,CA,32.263814616755795,NA
93701,Fresno County,CA,87.34402852049911,NA
93726,Fresno County,CA,25.13368983957219,NA
94014,San Mateo County,CA,69.16221033868094,NA
94028,San Mateo County,CA,92.6916221033868,NA
94102,San Francisco County,CA,11.229946524064172,NA
94103,San Francisco County,CA,NA,14.285714285714285
94501,Alameda County,CA,NA,74.38423645320196
94509,Contra Costa County,CA,50.98039215686274,NA
94541,Alameda County,CA,27.094474153297682,NA
94544,Alameda County,CA,NA,35.467980295566505
94565,Contra Costa County,CA,25.49019607843137,NA
94591,Solano County,CA,NA,32.51231527093596
94901,Marin County,CA,51.15864527629233,NA
95661,Placer County,CA,59.35828877005348,NA
95670,Sacramento County,CA,NA,23.15270935960591
95678,Placer County,CA,45.98930481283423,NA
95816,Sacramento County,CA,48.84135472370767,NA
95828,Sacramento County,CA,NA,56.65024630541872
95833,Sacramento County,CA,39.57219251336899,NA
95835,Sacramento County,CA,NA,59.60591133004927
95926,Butte County,CA,86.27450980392157,NA
95945,Nevada County,CA,NA,63.54679802955665
80102,Adams County,CO,NA,97.04433497536947
80210,Denver County,CO,NA,45.320197044334975
80303,Boulder County,CO,97.32620320855615,NA
80909,El Paso County,CO,53.297682709447415,NA
06010,Hartford County,CT,15.686274509803921,NA
06062,Hartford County,CT,94.11764705882352,NA
06105,Hartford County,CT,25.311942959001783,NA
06106,Hartford County,CT,NA,10.344827586206897
06112,Hartford County,CT,19.073083778966133,NA
06511,New Haven County,CT,6.23885918003565,NA
06604,Fairfield County,CT,NA,61.083743842364534
06706,New Haven County,CT,NA,73.39901477832512
06710,New Haven County,CT,NA,84.23645320197043
06804,Fairfield County,CT,82.174688057041,NA
06810,Fairfield County,CT,44.02852049910874,17.733990147783253
06830,Fairfield County,CT,NA,31.03448275862069
06851,Fairfield County,CT,90.9090909090909,NA
19802,New Castle County,DE,17.11229946524064,NA
19805,New Castle County,DE,34.40285204991088,NA
19973,Sussex County,DE,18.003565062388592,NA
32043,Clay County,FL,42.95900178253119,NA
32068,Clay County,FL,39.928698752228165,NA
32210,Duval County,FL,NA,3.9408866995073892
32725,Volusia County,FL,NA,32.01970443349754
32808,Orange County,FL,17.825311942959,NA
32811,Orange County,FL,NA,33.004926108374384
33013,Miami-Dade County,FL,89.48306595365419,NA
33015,Miami-Dade County,FL,48.1283422459893,NA
33056,Miami-Dade County,FL,NA,39.90147783251231
33126,Miami-Dade County,FL,62.03208556149733,NA
33136,Miami-Dade County,FL,84.13547237076648,NA
33141,Miami-Dade County,FL,NA,27.586206896551722
33147,Miami-Dade County,FL,33.68983957219251,NA
33157,Miami-Dade County,FL,NA,47.29064039408867
33160,Miami-Dade County,FL,78.96613190730838,NA
33166,Miami-Dade County,FL,69.5187165775401,NA
33169,Miami-Dade County,FL,40.819964349376114,NA
33177,Miami-Dade County,FL,42.24598930481284,NA
33407,Palm Beach County,FL,NA,44.33497536945813
33540,Pasco County,FL,79.85739750445633,NA
33604,Hillsborough County,FL,NA,88.17733990147784
33614,Hillsborough County,FL,35.47237076648842,NA
33707,Pinellas County,FL,76.11408199643493,NA
33710,Pinellas County,FL,46.702317290552585,NA
33712,Pinellas County,FL,35.650623885918,NA
33714,Pinellas County,FL,NA,58.128078817733986
33774,Pinellas County,FL,NA,58.620689655172406
33803,Polk County,FL,55.61497326203209,NA
33809,Polk County,FL,NA,41.87192118226601
33815,Polk County,FL,65.77540106951871,NA
33844,Polk County,FL,37.967914438502675,NA
33908,Lee County,FL,54.54545454545454,NA
34241,Sarasota County,FL,87.70053475935828,NA
34470,Marion County,FL,47.05882352941176,NA
34653,Pasco County,FL,31.194295900178254,NA
34689,Pinellas County,FL,NA,65.02463054187191
34758,Osceola County,FL,25.846702317290553,NA
34759,Polk County,FL,38.68092691622103,NA
30008,Cobb County,GA,57.39750445632799,NA
30017,Gwinnett County,GA,NA,78.32512315270937
30024,Gwinnett County,GA,24.420677361853834,NA
30039,Gwinnett County,GA,39.037433155080215,NA
30088,DeKalb County,GA,39.39393939393939,NA
30113,Haralson County,GA,NA,68.96551724137932
30117,Carroll County,GA,NA,57.635467980295566
30126,Cobb County,GA,77.36185383244207,NA
30157,Paulding County,GA,28.698752228163993,NA
30223,Spalding County,GA,NA,28.57142857142857
30273,Clayton County,GA,55.79322638146168,NA
30306,Fulton County,GA,NA,66.00985221674877
30308,Fulton County,GA,NA,84.72906403940887
30310,Fulton County,GA,26.916221033868094,NA
30312,Fulton County,GA,NA,42.857142857142854
30314,Fulton County,GA,82.53119429590018,NA
30324,Fulton County,GA,90.37433155080214,NA
30344,Fulton County,GA,42.06773618538324,NA
30349,Fulton County,GA,11.408199643493761,NA
30354,Fulton County,GA,59.001782531194294,NA
30577,Stephens County,GA,43.672014260249554,NA
30582,Towns County,GA,99.28698752228165,NA
30673,Wilkes County,GA,NA,63.05418719211823
30901,Richmond County,GA,95.36541889483065,NA
31029,Monroe County,GA,81.63992869875223,NA
31620,Cook County,GA,NA,97.53694581280789
31906,Muscogee County,GA,NA,33.497536945812804
96727,Hawaii County,HI,91.44385026737967,NA
96749,Hawaii County,HI,97.50445632798575,NA
96797,Honolulu County,HI,33.33333333333333,NA
96815,Honolulu County,HI,92.33511586452762,NA
83616,Ada County,ID,46.16755793226381,NA
83642,Ada County,ID,79.50089126559715,NA
83647,Elmore County,ID,42.42424242424242,NA
60004,Cook County,IL,NA,8.866995073891626
60076,Cook County,IL,43.31550802139038,NA
60101,DuPage County,IL,29.590017825311943,NA
60429,Cook County,IL,80.03565062388593,NA
60506,Kane County,IL,27.629233511586452,NA
60525,Cook County,IL,NA,37.93103448275862
60608,Cook County,IL,53.65418894830659,57.14285714285714
60628,Cook County,IL,31.372549019607842,NA
60633,Cook County,IL,85.56149732620321,NA
60649,Cook County,IL,56.68449197860963,7.8817733990147785
60914,Kankakee County,IL,34.046345811051694,NA
61021,Lee County,IL,32.79857397504456,NA
61081,Whiteside County,IL,57.75401069518716,NA
61107,Winnebago County,IL,NA,22.660098522167488
61108,Winnebago County,IL,52.584670231729056,NA
61109,Winnebago County,IL,43.49376114081996,NA
61201,Rock Island County,IL,37.4331550802139,NA
61605,Peoria County,IL,67.9144385026738,NA
61802,Champaign County,IL,NA,21.67487684729064
61832,Vermilion County,IL,37.076648841354725,NA
62702,Sangamon County,IL,54.188948306595364,NA
46016,Madison County,IN,16.93404634581105,NA
46112,Hendricks County,IN,50.26737967914438,NA
46140,Hancock County,IN,NA,15.270935960591133
46203,Marion County,IN,12.121212121212121,NA
46204,Marion County,IN,76.47058823529412,NA
46218,Marion County,IN,70.05347593582889,NA
46227,Marion County,IN,NA,2.955665024630542
46236,Marion County,IN,56.32798573975044,NA
46241,Marion County,IN,86.80926916221033,NA
46254,Marion County,IN,65.9536541889483,NA
46260,Marion County,IN,43.85026737967914,NA
46323,Lake County,IN,24.06417112299465,NA
46404,Lake County,IN,59.53654188948306,NA
46410,Lake County,IN,10.16042780748663,NA
46516,Elkhart County,IN,59.893048128342244,NA
46809,Allen County,IN,88.23529411764706,62.06896551724138
46901,Howard County,IN,3.7433155080213902,NA
46970,Miami County,IN,52.04991087344028,NA
47025,Dearborn County,IN,75.93582887700535,NA
47302,Delaware County,IN,NA,81.2807881773399
47446,Lawrence County,IN,62.38859180035651,NA
47454,Orange County,IN,77.00534759358288,NA
47591,Knox County,IN,36.185383244206776,NA
50659,Chickasaw County,IA,83.9572192513369,NA
51537,Shelby County,IA,85.20499108734403,NA
52136,Howard County,IA,NA,80.29556650246306
52402,Linn County,IA,21.92513368983957,NA
52501,Wapello County,IA,41.889483065953655,NA
66217,Johnson County,KS,89.12655971479501,NA
67204,Sedgwick County,KS,72.90552584670232,NA
67401,Saline County,KS,24.242424242424242,NA
40701,Whitley County,KY,13.547237076648841,NA
40734,Knox County,KY,NA,99.01477832512316
41040,Pendleton County,KY,60.249554367201426,NA
41041,Fleming County,KY,NA,88.66995073891626
41175,Greenup County,KY,58.46702317290553,NA
42071,Calloway County,KY,40.106951871657756,NA
42103,Warren County,KY,87.16577540106952,NA
42129,Metcalfe County,KY,53.11942959001783,NA
42754,Grayson County,KY,29.233511586452764,NA
70053,Jefferson Parish,LA,NA,48.76847290640394
70118,Orleans Parish,LA,NA,15.763546798029557
70131,Orleans Parish,LA,85.91800356506238,NA
70392,St. Mary Parish,LA,85.73975044563281,NA
70458,St. Tammany Parish,LA,8.0213903743315509,NA
70461,St. Tammany Parish,LA,18.89483065953654,NA
70462,Livingston Parish,LA,54.367201426024955,NA
70560,Iberia Parish,LA,33.155080213903744,NA
70592,Lafayette Parish,LA,31.016042780748666,NA
70601,Calcasieu Parish,LA,NA,6.896551724137931
70634,Beauregard Parish,LA,27.450980392156865,NA
70665,Calcasieu Parish,LA,NA,99.50738916256158
70714,East Baton Rouge Parish,LA,52.76292335115864,NA
70739,East Baton Rouge Parish,LA,91.97860962566845,NA
70802,East Baton Rouge Parish,LA,8.73440285204991,NA
70805,East Baton Rouge Parish,LA,4.991087344028521,NA
70806,East Baton Rouge Parish,LA,NA,30.049261083743843
70807,East Baton Rouge Parish,LA,95.54367201426025,NA
71109,Caddo Parish,LA,9.44741532976827,NA
71202,Ouachita Parish,LA,40.64171122994652,NA
71369,Avoyelles Parish,LA,86.63101604278076,NA
04103,Cumberland County,ME,77.89661319073083,NA
04240,Androscoggin County,ME,79.67914438502673,NA
04915,Waldo County,ME,NA,96.55172413793103
20705,Prince George's County,MD,71.83600713012478,NA
21207,Baltimore County,MD,65.59714795008912,NA
21213,Baltimore city,MD,22.103386809269164,NA
21215,Baltimore city,MD,11.051693404634582,NA
21224,Baltimore city,MD,44.20677361853833,94.08866995073892
21229,Baltimore city,MD,86.09625668449198,NA
21771,Frederick County,MD,NA,55.172413793103445
01060,Hampshire County,MA,41.17647058823529,NA
01085,Hampden County,MA,2.8520499108734403,NA
01107,Hampden County,MA,NA,70.44334975369459
01301,Franklin County,MA,14.260249554367203,NA
01376,Franklin County,MA,NA,59.11330049261084
01564,Worcester County,MA,80.21390374331551,NA
01605,Worcester County,MA,2.3172905525846703,NA
01610,Worcester County,MA,6.951871657754011,NA
01720,Middlesex County,MA,NA,76.35467980295566
01821,Middlesex County,MA,6.7736185383244205,NA
01826,Middlesex County,MA,6.0606060606060606,NA
01902,Essex County,MA,51.515151515151516,26.108374384236456
02045,Plymouth County,MA,59.180035650623886,NA
02114,Suffolk County,MA,70.76648841354724,NA
02115,Suffolk County,MA,9.269162210338681,NA
02124,Suffolk County,MA,0.17825311942959002,NA
02125,Suffolk County,MA,1.06951871657754,NA
02126,Suffolk County,MA,1.2477718360071302,NA
02129,Suffolk County,MA,NA,98.52216748768473
02130,Suffolk County,MA,85.02673796791443,25.12315270935961
02143,Middlesex County,MA,NA,52.70935960591133
02148,Middlesex County,MA,0,NA
02149,Middlesex County,MA,0.53475935828877,NA
02150,Suffolk County,MA,6.417112299465241,NA
02184,Norfolk County,MA,8.19964349376114,NA
02301,Plymouth County,MA,24.598930481283425,NA
02324,Plymouth County,MA,NA,18.7192118226601
02476,Middlesex County,MA,93.93939393939394,NA
02493,Middlesex County,MA,96.4349376114082,NA
02568,Dukes County,MA,65.06238859180036,NA
02703,Bristol County,MA,9.803921568627452,NA
02720,Bristol County,MA,26.737967914438503,NA
02724,Bristol County,MA,NA,0.9852216748768473
02740,Bristol County,MA,0.35650623885918004,90.14778325123153
02777,Bristol County,MA,NA,11.330049261083744
48116,Livingston County,MI,56.14973262032086,NA
48152,Wayne County,MI,33.51158645276293,NA
48161,Monroe County,MI,31.72905525846702,NA
48227,Wayne County,MI,5.169340463458111,NA
48228,Wayne County,MI,2.6737967914438503,NA
48313,Macomb County,MI,97.14795008912655,NA
48415,Saginaw County,MI,99.64349376114082,NA
48503,Genesee County,MI,NA,17.24137931034483
48504,Genesee County,MI,20.14260249554367,NA
48723,Tuscola County,MI,NA,49.26108374384236
48906,Ingham County,MI,15.32976827094474,NA
48911,Ingham County,MI,NA,11.822660098522167
49007,Kalamazoo County,MI,64.349376114082,NA
49038,Berrien County,MI,67.20142602495544,NA
49503,Kent County,MI,NA,29.55665024630542
49505,Kent County,MI,90.01782531194296,NA
49913,Houghton County,MI,75.0445632798574,NA
55076,Dakota County,MN,75.75757575757575,NA
55077,Dakota County,MN,81.46167557932263,NA
55110,Ramsey County,MN,79.32263814616756,NA
55113,Ramsey County,MN,NA,35.960591133004925
55118,Dakota County,MN,46.88057040998218,NA
55305,Hennepin County,MN,71.12299465240642,NA
55401,Hennepin County,MN,58.110516934046345,NA
55404,Hennepin County,MN,12.655971479500892,78.81773399014779
55411,Hennepin County,MN,34.93761140819964,NA
55413,Hennepin County,MN,NA,66.99507389162561
55415,Hennepin County,MN,80.3921568627451,NA
55422,Hennepin County,MN,31.550802139037433,NA
55428,Hennepin County,MN,NA,83.74384236453201
55431,Hennepin County,MN,96.07843137254902,NA
55449,Anoka County,MN,47.41532976827095,NA
55792,St. Louis County,MN,36.54188948306595,20.19704433497537
55803,St. Louis County,MN,61.49732620320856,NA
55901,Olmsted County,MN,27.807486631016044,NA
55987,Winona County,MN,11.58645276292335,NA
56073,Brown County,MN,51.33689839572193,NA
56201,Kandiyohi County,MN,42.60249554367201,NA
56241,Yellow Medicine County,MN,98.0392156862745,NA
56258,Lyon County,MN,NA,79.3103448275862
56304,Sherburne County,MN,NA,82.75862068965517
56431,Aitkin County,MN,64.88413547237076,NA
38614,Coahoma County,MS,48.3065953654189,NA
39046,Madison County,MS,NA,69.45812807881774
39170,Hinds County,MS,90.55258467023172,NA
39203,Hinds County,MS,94.4741532976827,NA
39204,Hinds County,MS,26.38146167557932,NA
39501,Harrison County,MS,62.92335115864528,NA
39503,Harrison County,MS,91.62210338680927,NA
39525,Hancock County,MS,77.71836007130125,NA
39530,Harrison County,MS,NA,87.68472906403942
63011,St. Louis County,MO,66.31016042780749,NA
63026,St. Louis County,MO,36.007130124777184,NA
63112,St. Louis city,MO,72.54901960784314,NA
63113,St. Louis city,MO,95.72192513368985,NA
63116,St. Louis city,MO,73.2620320855615,NA
63118,St. Louis city,MO,NA,34.48275862068966
63122,St. Louis County,MO,94.8306595365419,NA
63136,St. Louis County,MO,10.695187165775401,NA
63640,St. Francois County,MO,65.24064171122996,NA
63775,Perry County,MO,83.42245989304813,NA
64057,Jackson County,MO,41.35472370766489,NA
64068,Clay County,MO,NA,24.63054187192118
64080,Cass County,MO,56.50623885918004,NA
64083,Cass County,MO,36.72014260249554,NA
64106,Jackson County,MO,29.946524064171122,80.78817733990148
64109,Jackson County,MO,29.76827094474153,NA
64123,Jackson County,MO,94.6524064171123,NA
64133,Jackson County,MO,24.777183600713013,NA
65536,Laclede County,MO,NA,28.078817733990146
65608,Douglas County,MO,76.29233511586453,NA
65775,Howell County,MO,NA,24.137931034482758
65802,Greene County,MO,70.94474153297683,NA
65803,Greene County,MO,13.19073083778966,NA
65804,Greene County,MO,80.92691622103388,NA
68066,Saunders County,NE,87.87878787878788,NA
89104,Clark County,NV,63.992869875222816,NA
89107,Clark County,NV,47.95008912655972,NA
89115,Clark County,NV,23.885918003565063,NA
89142,Clark County,NV,NA,92.11822660098522
89156,Clark County,NV,59.71479500891266,NA
89183,Clark County,NV,57.21925133689839,NA
89431,Washoe County,NV,83.60071301247773,NA
89502,Washoe County,NV,NA,16.748768472906402
03301,Merrimack County,NH,44.919786096256686,NA
03431,Cheshire County,NH,NA,19.21182266009852
07011,Passaic County,NJ,19.786096256684495,NA
07017,Essex County,NJ,3.9215686274509802,12.807881773399016
07018,Essex County,NJ,28.16399286987522,NA
07032,Hudson County,NJ,NA,21.182266009852217
07040,Essex County,NJ,NA,85.71428571428571
07093,Hudson County,NJ,63.81461675579323,NA
07103,Essex County,NJ,69.6969696969697,NA
07111,Essex County,NJ,58.288770053475936,NA
07206,Union County,NJ,78.25311942959001,NA
07304,Hudson County,NJ,91.0873440285205,NA
07305,Hudson County,NJ,7.130124777183601,71.92118226600985
07306,Hudson County,NJ,7.308377896613191,NA
07501,Passaic County,NJ,15.508021390374333,NA
07502,Passaic County,NJ,36.36363636363637,NA
07503,Passaic County,NJ,100,NA
07628,Bergen County,NJ,NA,73.89162561576354
07652,Bergen County,NJ,71.4795008912656,NA
07712,Monmouth County,NJ,19.607843137254903,NA
07734,Monmouth County,NJ,NA,62.06896551724138
07801,Morris County,NJ,22.459893048128343,NA
07834,Morris County,NJ,60.42780748663101,NA
07840,Warren County,NJ,34.75935828877005,NA
07849,Morris County,NJ,84.84848484848484,NA
07950,Morris County,NJ,NA,65.51724137931035
08005,Ocean County,NJ,20.677361853832444,NA
08034,Camden County,NJ,60.071301247771835,NA
08088,Burlington County,NJ,NA,53.20197044334976
08215,Atlantic County,NJ,NA,70.93596059113301
08302,Cumberland County,NJ,67.37967914438502,NA
08360,Cumberland County,NJ,19.429590017825312,NA
08401,Atlantic County,NJ,0.8912655971479502,NA
08609,Mercer County,NJ,13.725490196078432,NA
08757,Ocean County,NJ,65.41889483065954,NA
08817,Middlesex County,NJ,92.8698752228164,NA
08861,Middlesex County,NJ,38.146167557932266,NA
08876,Somerset County,NJ,21.390374331550802,NA
87002,Valencia County,NM,46.524064171122994,NA
87031,Valencia County,NM,30.124777183600713,NA
87110,Bernalillo County,NM,14.973262032085561,NA
87120,Bernalillo County,NM,12.299465240641712,NA
10002,New York County,NY,23.52941176470588,56.15763546798029
10009,New York County,NY,92.51336898395722,53.69458128078818
10016,New York County,NY,35.82887700534759,NA
10023,New York County,NY,88.59180035650624,NA
10026,New York County,NY,68.62745098039215,NA
10027,New York County,NY,88.77005347593582,NA
10029,New York County,NY,40.998217468805706,NA
10031,New York County,NY,75.40106951871658,12.31527093596059
10032,New York County,NY,63.45811051693404,NA
10033,New York County,NY,18.538324420677363,NA
10035,New York County,NY,54.01069518716578,6.403940886699508
10037,New York County,NY,38.32442067736185,NA
10065,New York County,NY,NA,72.9064039408867
10301,Richmond County,NY,89.3048128342246,NA
10305,Richmond County,NY,NA,13.30049261083744
10306,Richmond County,NY,NA,91.62561576354679
10451,Bronx County,NY,33.8680926916221,NA
10452,Bronx County,NY,91.26559714795009,NA
10453,Bronx County,NY,1.9607843137254901,5.911330049261084
10456,Bronx County,NY,0.7130124777183601,NA
10457,Bronx County,NY,16.22103386809269,NA
10458,Bronx County,NY,25.668449197860966,NA
10463,Bronx County,NY,66.66666666666666,36.94581280788177
10466,Bronx County,NY,81.10516934046346,NA
10467,Bronx County,NY,6.59536541889483,NA
10469,Bronx County,NY,88.05704099821747,NA
10509,Putnam County,NY,98.3957219251337,NA
10591,Westchester County,NY,87.5222816399287,NA
10605,Westchester County,NY,98.75222816399287,NA
10703,Westchester County,NY,NA,75.36945812807882
10705,Westchester County,NY,84.31372549019608,NA
10801,Westchester County,NY,93.04812834224599,NA
10923,Rockland County,NY,NA,98.0295566502463
10940,Orange County,NY,NA,39.40886699507389
11203,Kings County,NY,12.4777183600713,NA
11204,Kings County,NY,88.94830659536542,NA
11206,Kings County,NY,64.52762923351159,NA
11207,Kings County,NY,1.6042780748663104,NA
11208,Kings County,NY,22.63814616755793,NA
11211,Kings County,NY,16.042780748663102,NA
11212,Kings County,NY,NA,67.48768472906403
11213,Kings County,NY,82.35294117647058,1.477832512315271
11214,Kings County,NY,NA,33.99014778325123
11215,Kings County,NY,34.22459893048128,NA
11216,Kings County,NY,37.254901960784316,NA
11217,Kings County,NY,84.49197860962568,NA
11219,Kings County,NY,NA,45.812807881773395
11220,Kings County,NY,NA,0.49261083743842365
11224,Kings County,NY,NA,68.4729064039409
11226,Kings County,NY,23.351158645276293,NA
11233,Kings County,NY,3.0303030303030303,0
11234,Kings County,NY,63.63636363636363,92.61083743842364
11236,Kings County,NY,56.86274509803921,NA
11238,Kings County,NY,23.707664884135475,NA
11239,Kings County,NY,88.41354723707666,NA
11354,Queens County,NY,70.40998217468805,NA
11357,Queens County,NY,86.45276292335116,NA
11367,Queens County,NY,93.76114081996435,NA
11368,Queens County,NY,83.06595365418895,NA
11369,Queens County,NY,74.15329768270945,NA
11370,Queens County,NY,79.14438502673798,NA
11372,Queens County,NY,NA,18.226600985221676
11377,Queens County,NY,19.25133689839572,NA
11385,Queens County,NY,69.34046345811052,NA
11412,Queens County,NY,45.27629233511586,NA
11413,Queens County,NY,45.09803921568628,NA
11422,Queens County,NY,95.18716577540107,NA
11423,Queens County,NY,98.57397504456328,NA
11427,Queens County,NY,NA,77.83251231527095
11432,Queens County,NY,68.98395721925134,NA
11434,Queens County,NY,16.39928698752228,NA
11435,Queens County,NY,37.78966131907308,NA
11436,Queens County,NY,96.96969696969697,NA
11520,Nassau County,NY,84.67023172905526,NA
11561,Nassau County,NY,67.02317290552585,NA
11691,Queens County,NY,11.76470588235294,4.433497536945813
11693,Queens County,NY,99.10873440285205,NA
11733,Suffolk County,NY,90.73083778966132,NA
11738,Suffolk County,NY,77.54010695187165,NA
11777,Suffolk County,NY,92.15686274509804,NA
11787,Suffolk County,NY,NA,26.60098522167488
11788,Suffolk County,NY,64.171122994652407,NA
11951,Suffolk County,NY,61.853832442067734,NA
12010,Montgomery County,NY,71.65775401069519,NA
12202,Albany County,NY,28.520499108734406,NA
12204,Albany County,NY,97.68270944741533,NA
12206,Albany County,NY,22.816399286987522,NA
12308,Schenectady County,NY,83.77896613190731,93.59605911330048
12534,Columbia County,NY,NA,16.25615763546798
12601,Dutchess County,NY,NA,87.192118226601
12839,Washington County,NY,89.83957219251337,NA
12953,Franklin County,NY,19.964349376114082,NA
12972,Clinton County,NY,52.22816399286988,NA
13021,Cayuga County,NY,5.525846702317291,NA
13045,Cortland County,NY,5.88235294117647,NA
13203,Onondaga County,NY,93.58288770053476,NA
13204,Onondaga County,NY,14.616755793226382,NA
13210,Onondaga County,NY,NA,89.65517241379311
13440,Oneida County,NY,30.83778966131907,NA
13815,Chenango County,NY,41.711229946524064,NA
14020,Genesee County,NY,75.57932263814617,NA
14094,Niagara County,NY,3.5650623885918007,NA
14214,Erie County,NY,NA,66.50246305418719
14215,Erie County,NY,55.43672014260249,NA
14482,Genesee County,NY,NA,60.09852216748769
14489,Wayne County,NY,NA,20.689655172413794
14604,Monroe County,NY,72.19251336898395,100
14609,Monroe County,NY,1.4260249554367201,NA
14611,Monroe County,NY,45.45454545454545,61.57635467980296
14620,Monroe County,NY,NA,89.16256157635468
14621,Monroe County,NY,53.83244206773619,NA
14623,Monroe County,NY,75.22281639928698,NA
14727,Allegany County,NY,67.5579322638146,NA
14901,Chemung County,NY,NA,46.30541871921182
27103,Forsyth County,NC,16.755793226381464,NA
27105,Forsyth County,NC,4.27807486631016,NA
27350,Randolph County,NC,NA,79.80295566502463
27501,Harnett County,NC,48.663101604278076,NA
27516,Orange County,NC,32.085561497326204,NA
27603,Wake County,NC,50.44563279857398,NA
27609,Wake County,NC,61.67557932263814,NA
27704,Durham County,NC,NA,67.98029556650246
27882,Nash County,NC,76.6488413547237,NA
27896,Wilson County,NC,47.771836007130126,NA
27910,Hertford County,NC,NA,43.34975369458128
27983,Bertie County,NC,NA,48.275862068965516
28139,Rutherford County,NC,NA,47.783251231527096
28269,Mecklenburg County,NC,67.7361853832442,NA
28273,Mecklenburg County,NC,NA,94.58128078817734
28301,Cumberland County,NC,NA,95.56650246305419
28401,New Hanover County,NC,70.58823529411765,NA
28409,New Hanover County,NC,39.21568627450981,NA
28504,Lenoir County,NC,43.13725490196079,NA
28602,Catawba County,NC,24.9554367201426,NA
28704,Buncombe County,NC,61.31907308377896,NA
43074,Delaware County,OH,72.37076648841355,NA
43203,Franklin County,OH,62.21033868092691,NA
43204,Franklin County,OH,7.8431372549019605,NA
43205,Franklin County,OH,NA,71.42857142857143
43207,Franklin County,OH,NA,3.4482758620689653
43222,Franklin County,OH,51.87165775401069,NA
43227,Franklin County,OH,51.69340463458111,NA
43605,Lucas County,OH,4.45632798573975,NA
43607,Lucas County,OH,8.55614973262032,NA
44001,Lorain County,OH,30.481283422459892,NA
44054,Lorain County,OH,NA,30.541871921182267
44057,Lake County,OH,29.411764705882355,NA
44062,Geauga County,OH,82.70944741532978,NA
44070,Cuyahoga County,OH,26.02495543672014,NA
44089,Erie County,OH,36.898395721925134,NA
44103,Cuyahoga County,OH,78.78787878787878,NA
44105,Cuyahoga County,OH,1.7825311942959003,NA
44106,Cuyahoga County,OH,13.01247771836007,NA
44107,Cuyahoga County,OH,3.3868092691622103,NA
44108,Cuyahoga County,OH,77.18360071301248,1.9704433497536946
44110,Cuyahoga County,OH,12.834224598930483,NA
44111,Cuyahoga County,OH,2.4955436720142603,NA
44113,Cuyahoga County,OH,10.87344028520499,NA
44114,Cuyahoga County,OH,90.19607843137256,81.77339901477832
44120,Cuyahoga County,OH,5.347593582887701,NA
44125,Cuyahoga County,OH,NA,8.374384236453201
44137,Cuyahoga County,OH,8.377896613190732,NA
44143,Cuyahoga County,OH,NA,37.4384236453202
44504,Mahoning County,OH,73.61853832442068,NA
44515,Mahoning County,OH,NA,9.35960591133005
44615,Carroll County,OH,NA,96.05911330049261
44647,Stark County,OH,46.3458110516934,NA
44657,Stark County,OH,NA,50.73891625615764
44830,Seneca County,OH,NA,74.8768472906404
44903,Richland County,OH,61.14081996434938,NA
45206,Hamilton County,OH,49.376114081996434,NA
45213,Hamilton County,OH,NA,76.84729064039408
45342,Montgomery County,OH,13.903743315508022,NA
45403,Montgomery County,OH,62.56684491978609,NA
45406,Montgomery County,OH,17.290552584670234,NA
45701,Athens County,OH,55.97147950089126,NA
45750,Washington County,OH,3.2085561497326207,NA
45801,Allen County,OH,14.43850267379679,NA
73015,Caddo County,OK,98.2174688057041,NA
73044,Logan County,OK,NA,10.83743842364532
73170,Cleveland County,OK,32.62032085561498,NA
73701,Garfield County,OK,NA,23.645320197044335
74023,Payne County,OK,78.07486631016043,NA
74105,Tulsa County,OK,37.61140819964349,NA
74301,Craig County,OK,54.90196078431373,NA
74429,Wagoner County,OK,NA,64.5320197044335
74501,Pittsburg County,OK,47.23707664884135,NA
97034,Clackamas County,OR,73.61853832442068,NA
97038,Clackamas County,OR,97.86096256684492,NA
97138,Clatsop County,OR,99.46524064171123,NA
97202,Multnomah County,OR,29.055258467023172,NA
97230,Multnomah County,OR,NA,38.42364532019704
97321,Linn County,OR,70.23172905525847,NA
97381,Marion County,OR,NA,86.20689655172413
15224,Allegheny County,PA,71.301247771836,NA
15301,Washington County,PA,8.9126559714795,NA
15473,Fayette County,PA,86.98752228163993,NA
15701,Indiana County,PA,NA,13.793103448275861
15834,Cameron County,PA,78.6096256684492,NA
17110,Dauphin County,PA,NA,93.10344827586206
17111,Dauphin County,PA,18.181818181818183,NA
17257,Cumberland County,PA,NA,95.07389162561576
17821,Montour County,PA,53.475935828877006,NA
18037,Lehigh County,PA,98.93048128342245,NA
18102,Lehigh County,PA,NA,69.95073891625616
18505,Lackawanna County,PA,NA,27.093596059113302
18518,Lackawanna County,PA,91.80035650623886,NA
19013,Delaware County,PA,5.704099821746881,NA
19096,Montgomery County,PA,47.593582887700535,NA
19106,Philadelphia County,PA,NA,86.69950738916256
19122,Philadelphia County,PA,95.00891265597147,NA
19124,Philadelphia County,PA,11.942959001782532,NA
19131,Philadelphia County,PA,72.72727272727273,NA
19132,Philadelphia County,PA,27.98573975044563,NA
19144,Philadelphia County,PA,58.82352941176471,NA
19146,Philadelphia County,PA,18.36007130124777,NA
19382,Chester County,PA,42.60249554367201,NA
19401,Montgomery County,PA,48.84135472370767,NA
02906,Providence County,RI,50.623885918003566,NA
29010,Lee County,SC,68.27094474153299,NA
29209,Richland County,SC,NA,40.39408866995074
29316,Spartanburg County,SC,NA,22.167487684729064
29403,Charleston County,SC,41.53297682709447,NA
29405,Charleston County,SC,55.258467023172905,NA
29407,Charleston County,SC,38.50267379679144,NA
29488,Colleton County,SC,NA,25.615763546798032
29605,Greenville County,SC,NA,9.852216748768473
29640,Pickens County,SC,89.66131907308377,NA
29827,Allendale County,SC,99.8217468805704,NA
29841,Aiken County,SC,93.22638146167557,NA
57770,Shannon County,SD,73.97504456327985,NA
37172,Robertson County,TN,17.647058823529413,NA
37203,Davidson County,TN,54.90196078431373,NA
37209,Davidson County,TN,32.263814616755795,NA
37814,Hamblen County,TN,NA,52.21674876847291
37840,Roane County,TN,81.99643493761141,NA
38075,Hardeman County,TN,96.79144385026738,NA
38114,Shelby County,TN,66.1319073083779,NA
38115,Shelby County,TN,26.559714795008915,NA
38116,Shelby County,TN,20.32085561497326,NA
38128,Shelby County,TN,48.484848484848484,NA
38242,Henry County,TN,44.38502673796791,NA
38401,Maury County,TN,9.982174688057041,NA
38501,Putnam County,TN,21.74688057040998,NA
75040,Dallas County,TX,NA,19.704433497536947
75149,Dallas County,TX,20.677361853832444,NA
75217,Dallas County,TX,NA,7.389162561576355
75241,Dallas County,TX,26.203208556149733,NA
75766,Cherokee County,TX,35.115864527629235,NA
76011,Tarrant County,TX,50.08912655971479,NA
76104,Tarrant County,TX,NA,51.724137931034484
76105,Tarrant County,TX,22.281639928698752,NA
76119,Tarrant County,TX,NA,4.926108374384237
76133,Tarrant County,TX,21.21212121212121,NA
76262,Denton County,TX,68.80570409982175,NA
76401,Erath County,TX,76.8270944741533,NA
76542,Bell County,TX,73.44028520499108,NA
77009,Harris County,TX,NA,29.064039408866993
77021,Harris County,TX,60.962566844919785,NA
77026,Harris County,TX,49.73262032085562,NA
77032,Harris County,TX,93.40463458110517,NA
77045,Harris County,TX,74.68805704099822,NA
77051,Harris County,TX,49.19786096256685,NA
77078,Harris County,TX,96.6131907308378,50.24630541871922
77437,Wharton County,TX,NA,51.231527093596064
77531,Brazoria County,TX,NA,90.64039408866995
77539,Galveston County,TX,23.1729055258467,NA
77551,Galveston County,TX,28.342245989304814,NA
77713,Jefferson County,TX,72.01426024955437,NA
78108,Guadalupe County,TX,66.84491978609626,NA
78216,Bexar County,TX,68.44919786096256,NA
78226,Bexar County,TX,NA,83.2512315270936
78228,Bexar County,TX,NA,55.66502463054187
78363,Kleberg County,TX,74.8663101604278,NA
78384,Duval County,TX,94.29590017825312,NA
78572,Hidalgo County,TX,21.03386809269162,NA
78741,Travis County,TX,81.28342245989305,NA
79106,Potter County,TX,80.74866310160428,NA
05156,Windsor County,VT,NA,54.679802955665025
22827,Rockingham County,VA,68.09269162210339,NA
23185,James City County,VA,74.33155080213903,NA
23235,Chesterfield County,VA,72.90552584670232,NA
23430,Isle of Wight County,VA,60.60606060606061,NA
23502,Norfolk city,VA,35.294117647058826,NA
23607,Newport News city,VA,22.994652406417114,NA
24017,Roanoke city,VA,27.27272727272727,NA
24333,Galax city,VA,44.38502673796791,NA
98101,King County,WA,62.56684491978609,NA
98104,King County,WA,69.87522281639929,NA
98116,King County,WA,NA,91.13300492610837
98125,King County,WA,64.70588235294117,NA
98133,King County,WA,30.303030303030305,NA
98577,Pacific County,WA,96.2566844919786,NA
98626,Cowlitz County,WA,NA,75.86206896551724
98632,Cowlitz County,WA,21.568627450980394,NA
99022,Spokane County,WA,85.38324420677363,NA
99202,Spokane County,WA,NA,60.591133004926114
99336,Benton County,WA,15.151515151515152,NA
20002,District of Columbia,DC,7.4866310160427805,5.41871921182266
20020,District of Columbia,DC,4.09982174688057,NA
26003,Ohio County,WV,7.66488413547237,NA
26101,Wood County,WV,NA,2.4630541871921183
26301,Harrison County,WV,10.51693404634581,NA
53029,Waukesha County,WI,57.04099821746881,NA
53143,Kenosha County,WI,20.499108734402853,NA
53202,Milwaukee County,WI,44.741532976827095,NA
53205,Milwaukee County,WI,4.81283422459893,NA
53208,Milwaukee County,WI,14.08199643493761,NA
53209,Milwaukee County,WI,4.634581105169341,NA
53214,Milwaukee County,WI,14.795008912655971,NA
53218,Milwaukee County,WI,9.62566844919786,NA
53511,Rock County,WI,2.13903743315508,NA
53704,Dane County,WI,13.368983957219251,NA
54166,Shawano County,WI,NA,40.88669950738916
54220,Manitowoc County,WI,9.090909090909092,NA
54660,Monroe County,WI,45.811051693404636,NA
54701,Eau Claire County,WI,40.46345811051694,NA
54911,Outagamie County,WI,38.68092691622103,NA
54935,Fond du Lac County,WI,17.46880570409982,NA
