ZipCode,county,state,Youth,Pediatric,Adult,Retirement,Geriatric
35020,Jefferson County,AL,NA,NA,17.954070981210858,NA,NA
35111,Tuscaloosa County,AL,NA,NA,NA,NA,66.26139817629179
35173,Jefferson County,AL,45.11278195488722,NA,NA,NA,NA
35226,Jefferson County,AL,NA,NA,NA,NA,28.57142857142857
35470,Sumter County,AL,NA,NA,NA,97.61467889908258,NA
35475,Tuscaloosa County,AL,59.899749373433586,NA,NA,NA,NA
35570,Marion County,AL,NA,NA,NA,NA,82.67477203647417
35603,Morgan County,AL,NA,NA,NA,NA,30.091185410334347
35620,Limestone County,AL,NA,NA,NA,NA,90.88145896656535
35672,Lawrence County,AL,88.97243107769424,NA,NA,NA,NA
35806,Madison County,AL,74.43609022556392,NA,NA,NA,NA
35950,Marshall County,AL,NA,NA,NA,57.98165137614679,NA
35957,Marshall County,AL,NA,54.41176470588235,NA,NA,NA
36420,Covington County,AL,NA,NA,57.20250521920668,NA,NA
36467,Covington County,AL,NA,NA,NA,NA,78.72340425531915
36542,Baldwin County,AL,NA,NA,79.74947807933194,NA,NA
36567,Baldwin County,AL,88.47117794486216,NA,NA,NA,NA
36605,Mobile County,AL,23.05764411027569,NA,NA,NA,NA
36613,Mobile County,AL,NA,NA,85.59498956158664,NA,NA
36619,Mobile County,AL,NA,NA,NA,69.90825688073394,NA
36695,Mobile County,AL,NA,NA,40.50104384133611,NA,NA
36853,Tallapoosa County,AL,NA,95.58823529411765,NA,NA,NA
99507,Anchorage Municipality,AK,NA,NA,40.08350730688935,NA,NA
99515,Anchorage Municipality,AK,NA,NA,70.14613778705638,NA,NA
99577,Anchorage Municipality,AK,NA,NA,74.73903966597078,NA,NA
99603,Kenai Peninsula Borough,AK,NA,NA,78.28810020876827,NA,NA
99645,Matanuska-Susitna Borough,AK,NA,NA,58.037578288100214,NA,NA
99654,Matanuska-Susitna Borough,AK,NA,NA,NA,41.284403669724774,NA
99701,Fairbanks North Star Borough,AK,NA,NA,NA,71.19266055045873,NA
85012,Maricopa County,AZ,NA,NA,NA,86.05504587155963,NA
85018,Maricopa County,AZ,21.303258145363408,NA,NA,NA,NA
85022,Maricopa County,AZ,NA,NA,25.469728601252612,NA,NA
85028,Maricopa County,AZ,NA,NA,NA,62.75229357798165,NA
85035,Maricopa County,AZ,NA,26.96078431372549,NA,NA,NA
85142,Maricopa County,AZ,NA,NA,42.17118997912318,27.155963302752294,NA
85201,Maricopa County,AZ,NA,NA,17.536534446764094,NA,NA
85215,Maricopa County,AZ,NA,NA,NA,NA,80.54711246200608
85258,Maricopa County,AZ,NA,NA,NA,54.862385321100916,NA
85283,Maricopa County,AZ,NA,NA,22.129436325678498,NA,NA
85286,Maricopa County,AZ,76.69172932330827,NA,NA,NA,NA
85301,Maricopa County,AZ,4.511278195488721,22.54901960784314,NA,NA,NA
85326,Maricopa County,AZ,NA,NA,NA,NA,64.74164133738601
85345,Maricopa County,AZ,63.90977443609023,NA,NA,NA,NA
85353,Maricopa County,AZ,NA,NA,68.6847599164927,NA,NA
85355,Maricopa County,AZ,NA,NA,NA,NA,97.26443768996961
85365,Yuma County,AZ,NA,72.05882352941177,NA,NA,NA
85374,Maricopa County,AZ,NA,NA,NA,19.63302752293578,NA
85375,Maricopa County,AZ,NA,NA,NA,74.6788990825688,NA
85392,Maricopa County,AZ,NA,51.470588235294116,NA,NA,NA
85635,Cochise County,AZ,NA,NA,NA,NA,35.56231003039514
85705,Pima County,AZ,7.017543859649122,NA,NA,NA,NA
85713,Pima County,AZ,5.012531328320802,7.352941176470589,NA,NA,NA
85743,Pima County,AZ,NA,NA,NA,NA,96.65653495440729
85750,Pima County,AZ,NA,NA,NA,NA,45.2887537993921
86045,Coconino County,AZ,NA,NA,NA,NA,51.97568389057751
86305,Yavapai County,AZ,NA,NA,NA,35.59633027522936,NA
86324,Yavapai County,AZ,NA,NA,NA,93.57798165137615,NA
86325,Yavapai County,AZ,NA,NA,NA,86.97247706422019,NA
86401,Mohave County,AZ,NA,NA,13.569937369519833,NA,NA
86503,Apache County,AZ,NA,9.803921568627452,NA,NA,NA
71601,Jefferson County,AR,NA,NA,NA,NA,74.46808510638297
71653,Chicot County,AR,NA,NA,100,NA,NA
71901,Garland County,AR,NA,NA,NA,45.50458715596331,NA
72031,Van Buren County,AR,NA,NA,94.36325678496868,NA,NA
72315,Mississippi County,AR,NA,NA,81.83716075156576,NA,NA
72450,Greene County,AR,NA,NA,NA,25.321100917431195,31.00303951367781
72687,Marion County,AR,NA,NA,NA,84.03669724770643,NA
72758,Benton County,AR,NA,NA,NA,82.56880733944955,NA
90016,Los Angeles County,CA,NA,NA,75.36534446764091,NA,NA
90042,Los Angeles County,CA,59.3984962406015,NA,NA,NA,NA
90056,Los Angeles County,CA,NA,NA,NA,NA,90.5775075987842
90066,Los Angeles County,CA,NA,NA,NA,31.743119266055047,NA
90068,Los Angeles County,CA,94.23558897243107,NA,NA,NA,NA
90222,Los Angeles County,CA,NA,42.15686274509804,NA,NA,NA
90232,Los Angeles County,CA,NA,NA,NA,89.90825688073394,NA
90247,Los Angeles County,CA,NA,70.09803921568627,NA,NA,NA
90254,Los Angeles County,CA,NA,NA,NA,79.44954128440367,NA
90255,Los Angeles County,CA,NA,NA,36.32567849686848,NA,NA
90260,Los Angeles County,CA,NA,53.431372549019606,NA,NA,NA
90274,Los Angeles County,CA,70.17543859649122,NA,NA,NA,NA
90277,Los Angeles County,CA,NA,NA,NA,32.11009174311927,NA
90601,Los Angeles County,CA,NA,NA,NA,NA,46.504559270516715
90623,Orange County,CA,NA,NA,NA,NA,75.98784194528876
90630,Orange County,CA,NA,NA,NA,20.91743119266055,NA
90631,Orange County,CA,NA,NA,NA,17.431192660550458,NA
90640,Los Angeles County,CA,NA,NA,NA,30.458715596330276,NA
90650,Los Angeles County,CA,NA,NA,NA,15.963302752293579,NA
90660,Los Angeles County,CA,NA,NA,NA,NA,27.0516717325228
90806,Los Angeles County,CA,NA,69.6078431372549,NA,NA,NA
91107,Los Angeles County,CA,NA,NA,NA,77.61467889908256,NA
91206,Los Angeles County,CA,NA,NA,NA,NA,14.58966565349544
91214,Los Angeles County,CA,NA,NA,NA,75.59633027522936,NA
91301,Los Angeles County,CA,NA,NA,NA,98.89908256880734,NA
91384,Los Angeles County,CA,73.43358395989975,NA,NA,NA,NA
91423,Los Angeles County,CA,NA,NA,NA,NA,81.15501519756839
91710,San Bernardino County,CA,NA,NA,42.79749478079332,NA,NA
91722,Los Angeles County,CA,NA,87.74509803921569,NA,NA,NA
91723,Los Angeles County,CA,NA,NA,80.1670146137787,NA,NA
91730,San Bernardino County,CA,NA,NA,NA,NA,38.297872340425535
91731,Los Angeles County,CA,NA,NA,NA,60.366972477064216,NA
91752,Riverside County,CA,NA,82.84313725490196,NA,NA,NA
91761,San Bernardino County,CA,NA,25,NA,NA,NA
91764,San Bernardino County,CA,69.17293233082707,NA,NA,NA,NA
91767,Los Angeles County,CA,87.71929824561403,NA,NA,NA,NA
91790,Los Angeles County,CA,NA,80.3921568627451,56.57620041753654,NA,NA
91791,Los Angeles County,CA,NA,NA,NA,49.357798165137616,NA
91911,San Diego County,CA,NA,29.901960784313726,NA,NA,NA
91935,San Diego County,CA,NA,NA,NA,NA,95.44072948328267
91941,San Diego County,CA,NA,NA,NA,46.23853211009175,NA
92009,San Diego County,CA,NA,NA,NA,42.75229357798165,NA
92020,San Diego County,CA,NA,NA,26.931106471816285,NA,NA
92021,San Diego County,CA,20.80200501253133,NA,NA,NA,NA
92037,San Diego County,CA,NA,NA,NA,51.37614678899083,NA
92054,San Diego County,CA,NA,46.07843137254902,NA,NA,NA
92056,San Diego County,CA,NA,58.333333333333336,NA,NA,NA
92083,San Diego County,CA,NA,21.07843137254902,NA,NA,NA
92105,San Diego County,CA,NA,22.058823529411764,NA,NA,NA
92113,San Diego County,CA,19.799498746867165,NA,NA,NA,NA
92118,San Diego County,CA,NA,NA,NA,NA,91.48936170212765
92126,San Diego County,CA,NA,55.392156862745104,NA,32.6605504587156,NA
92129,San Diego County,CA,NA,NA,NA,48.440366972477065,NA
92201,Riverside County,CA,NA,NA,29.853862212943632,NA,NA
92203,Riverside County,CA,NA,NA,74.94780793319416,NA,NA
92211,Riverside County,CA,NA,NA,NA,8.623853211009175,0
92243,Imperial County,CA,NA,NA,31.315240083507305,NA,NA
92262,Riverside County,CA,NA,NA,NA,10.825688073394495,NA
92264,Riverside County,CA,NA,NA,50.10438413361169,11.376146788990827,NA
92307,San Bernardino County,CA,31.07769423558897,NA,NA,NA,NA
92308,San Bernardino County,CA,NA,NA,NA,NA,86.93009118541033
92392,San Bernardino County,CA,10.275689223057643,NA,NA,NA,NA
92395,San Bernardino County,CA,47.11779448621554,NA,NA,NA,NA
92506,Riverside County,CA,NA,NA,NA,NA,57.14285714285714
92509,Riverside County,CA,NA,NA,NA,71.37614678899082,NA
92544,Riverside County,CA,NA,NA,NA,NA,93.61702127659575
92553,Riverside County,CA,NA,NA,NA,42.018348623853214,NA
92563,Riverside County,CA,NA,NA,NA,NA,47.72036474164133
92571,Riverside County,CA,NA,NA,NA,54.49541284403669,NA
92591,Riverside County,CA,46.11528822055138,NA,NA,NA,NA
92592,Riverside County,CA,NA,NA,35.07306889352819,NA,NA
92603,Orange County,CA,NA,NA,95.61586638830897,NA,NA
92624,Orange County,CA,NA,NA,NA,96.1467889908257,NA
92627,Orange County,CA,NA,NA,25.678496868475992,NA,NA
92679,Orange County,CA,NA,NA,NA,NA,75.6838905775076
92840,Orange County,CA,37.59398496240601,NA,54.48851774530271,NA,NA
92867,Orange County,CA,NA,NA,NA,55.04587155963303,NA
92870,Orange County,CA,NA,NA,NA,23.486238532110093,NA
92882,Riverside County,CA,52.88220551378446,NA,NA,NA,NA
92886,Orange County,CA,NA,NA,NA,18.1651376146789,NA
93001,Ventura County,CA,35.58897243107769,60.29411764705882,NA,NA,NA
93012,Ventura County,CA,NA,NA,70.35490605427975,NA,NA
93023,Ventura County,CA,NA,NA,NA,58.34862385321101,NA
93035,Ventura County,CA,NA,NA,NA,97.06422018348624,NA
93060,Ventura County,CA,NA,NA,NA,NA,70.82066869300911
93065,Ventura County,CA,NA,NA,NA,20.36697247706422,NA
93230,Kings County,CA,15.789473684210526,NA,NA,NA,NA
93235,Tulare County,CA,97.99498746867168,NA,NA,NA,NA
93245,Kings County,CA,NA,NA,NA,70.09174311926606,NA
93263,Kern County,CA,NA,NA,77.45302713987473,89.35779816513761,NA
93274,Tulare County,CA,3.007518796992481,NA,NA,NA,NA
93304,Kern County,CA,NA,25,NA,NA,NA
93306,Kern County,CA,59.14786967418546,NA,NA,NA,NA
93313,Kern County,CA,82.70676691729322,NA,NA,NA,82.06686930091185
93436,Santa Barbara County,CA,NA,NA,NA,NA,52.27963525835866
93551,Los Angeles County,CA,NA,NA,83.50730688935282,NA,NA
93636,Madera County,CA,NA,68.13725490196079,NA,NA,NA
93906,Monterey County,CA,NA,47.549019607843135,NA,NA,NA
94002,San Mateo County,CA,NA,NA,NA,NA,49.848024316109424
94015,San Mateo County,CA,NA,NA,NA,NA,4.86322188449848
94040,Santa Clara County,CA,NA,NA,77.03549060542797,NA,NA
94044,San Mateo County,CA,NA,NA,81.00208768267223,NA,NA
94061,San Mateo County,CA,NA,NA,NA,NA,72.3404255319149
94062,San Mateo County,CA,NA,NA,59.49895615866389,50.45871559633027,NA
94066,San Mateo County,CA,NA,NA,48.01670146137787,10.642201834862385,NA
94115,San Francisco County,CA,78.19548872180451,NA,NA,NA,NA
94118,San Francisco County,CA,49.122807017543856,NA,59.707724425887264,NA,NA
94121,San Francisco County,CA,90.97744360902256,NA,NA,NA,NA
94127,San Francisco County,CA,NA,NA,NA,NA,59.87841945288754
94306,Santa Clara County,CA,79.4486215538847,NA,NA,NA,NA
94505,Contra Costa County,CA,NA,NA,NA,82.93577981651377,NA
94509,Contra Costa County,CA,NA,NA,73.06889352818372,13.944954128440369,NA
94510,Solano County,CA,76.19047619047619,NA,NA,NA,NA
94539,Alameda County,CA,NA,NA,NA,NA,44.37689969604863
94544,Alameda County,CA,NA,NA,NA,NA,24.620060790273556
94583,Contra Costa County,CA,NA,NA,95.4070981210856,NA,NA
94598,Contra Costa County,CA,NA,NA,80.79331941544885,NA,NA
94602,Alameda County,CA,NA,NA,NA,59.63302752293578,NA
94901,Marin County,CA,NA,NA,57.62004175365344,NA,NA
94903,Marin County,CA,NA,NA,NA,53.21100917431193,NA
94920,Marin County,CA,NA,NA,NA,80.91743119266054,NA
94930,Marin County,CA,NA,NA,NA,96.3302752293578,NA
94947,Marin County,CA,NA,NA,85.80375782881002,NA,NA
94954,Sonoma County,CA,NA,NA,NA,34.4954128440367,NA
95003,Santa Cruz County,CA,81.45363408521304,NA,NA,NA,NA
95037,Santa Clara County,CA,81.70426065162907,NA,NA,NA,NA
95070,Santa Clara County,CA,NA,NA,NA,NA,22.796352583586625
95123,Santa Clara County,CA,NA,NA,43.21503131524008,NA,NA
95125,Santa Clara County,CA,NA,NA,51.356993736951985,21.28440366972477,NA
95207,San Joaquin County,CA,NA,NA,26.513569937369518,NA,NA
95336,San Joaquin County,CA,NA,NA,NA,22.018348623853214,NA
95377,San Joaquin County,CA,58.1453634085213,NA,NA,NA,NA
95380,Stanislaus County,CA,NA,NA,64.92693110647181,NA,NA
95386,Stanislaus County,CA,NA,NA,NA,91.00917431192661,NA
95401,Sonoma County,CA,NA,NA,NA,49.908256880733944,NA
95404,Sonoma County,CA,69.67418546365914,NA,NA,NA,NA
95409,Sonoma County,CA,NA,NA,NA,NA,17.02127659574468
95422,Lake County,CA,NA,NA,NA,NA,92.09726443768997
95423,Lake County,CA,NA,NA,NA,87.1559633027523,NA
95437,Mendocino County,CA,NA,NA,NA,40.550458715596335,NA
95472,Sonoma County,CA,NA,NA,NA,NA,57.446808510638306
95482,Mendocino County,CA,85.46365914786968,NA,NA,NA,NA
95605,Yolo County,CA,NA,99.50980392156863,NA,NA,NA
95608,Sacramento County,CA,48.370927318295735,NA,NA,NA,NA
95624,Sacramento County,CA,NA,NA,50.73068893528184,NA,NA
95648,Placer County,CA,NA,NA,NA,24.954128440366972,10.030395136778116
95682,El Dorado County,CA,NA,76.9607843137255,NA,NA,NA
95758,Sacramento County,CA,50.37593984962406,NA,NA,NA,NA
95815,Sacramento County,CA,NA,NA,NA,NA,93.9209726443769
95822,Sacramento County,CA,NA,NA,NA,NA,26.13981762917933
95826,Sacramento County,CA,NA,NA,NA,56.14678899082569,NA
95832,Sacramento County,CA,NA,NA,92.27557411273486,NA,NA
95928,Butte County,CA,NA,NA,NA,NA,62.31003039513677
95966,Butte County,CA,NA,NA,NA,NA,29.17933130699088
95973,Butte County,CA,NA,NA,NA,60.91743119266055,NA
96003,Shasta County,CA,NA,NA,NA,24.403669724770644,NA
96067,Siskiyou County,CA,NA,NA,NA,85.3211009174312,NA
96097,Siskiyou County,CA,NA,NA,NA,84.22018348623853,NA
80010,Arapahoe County,CO,52.38095238095239,NA,NA,NA,NA
80011,Arapahoe County,CO,NA,NA,NA,NA,50.15197568389058
80012,Arapahoe County,CO,58.64661654135338,NA,NA,78.71559633027523,NA
80014,Arapahoe County,CO,NA,NA,NA,26.788990825688074,NA
80016,Arapahoe County,CO,3.7593984962406015,NA,NA,NA,NA
80021,Jefferson County,CO,NA,84.31372549019608,NA,NA,NA
80023,Broomfield County,CO,NA,NA,85.17745302713988,NA,NA
80031,Adams County,CO,83.70927318295739,NA,NA,NA,NA
80111,Arapahoe County,CO,NA,NA,NA,64.03669724770641,NA
80128,Jefferson County,CO,37.84461152882205,NA,NA,NA,NA
80210,Denver County,CO,NA,NA,58.455114822546975,NA,NA
80233,Adams County,CO,NA,NA,NA,52.293577981651374,NA
80237,Denver County,CO,NA,NA,75.15657620041753,NA,NA
80238,Denver County,CO,66.16541353383458,NA,NA,NA,NA
80239,Denver County,CO,NA,NA,30.2713987473904,NA,NA
80241,Adams County,CO,NA,NA,58.872651356993735,NA,NA
80504,Boulder County,CO,9.022556390977442,NA,NA,NA,NA
80524,Larimer County,CO,NA,NA,NA,27.889908256880737,NA
80534,Weld County,CO,57.89473684210527,NA,NA,NA,NA
80603,Weld County,CO,NA,NA,78.49686847599166,NA,NA
80751,Logan County,CO,NA,NA,46.764091858037574,NA,NA
80863,Teller County,CO,NA,NA,NA,85.13761467889908,NA
80922,El Paso County,CO,NA,NA,NA,NA,76.59574468085107
81008,Pueblo County,CO,NA,93.62745098039215,NA,NA,NA
81301,La Plata County,CO,NA,NA,NA,40.91743119266055,NA
81303,La Plata County,CO,NA,NA,NA,NA,95.13677811550151
81403,Montrose County,CO,NA,NA,79.12317327766179,NA,NA
81413,Delta County,CO,NA,NA,NA,93.76146788990826,NA
81623,Garfield County,CO,89.22305764411027,NA,NA,NA,NA
81632,Eagle County,CO,NA,NA,NA,86.60550458715596,NA
06016,Hartford County,CT,NA,NA,NA,NA,88.75379939209726
06035,Hartford County,CT,NA,NA,NA,97.61467889908258,NA
06082,Hartford County,CT,NA,NA,NA,67.70642201834862,NA
06096,Hartford County,CT,NA,NA,82.04592901878914,NA,NA
06226,Windham County,CT,NA,24.509803921568626,NA,NA,NA
06450,New Haven County,CT,NA,28.921568627450984,NA,NA,NA
06513,New Haven County,CT,NA,37.254901960784316,6.263048016701461,NA,NA
06515,New Haven County,CT,38.34586466165413,NA,NA,NA,NA
06516,New Haven County,CT,NA,NA,NA,3.669724770642202,NA
06519,New Haven County,CT,NA,NA,NA,42.935779816513765,NA
06525,New Haven County,CT,NA,NA,94.57202505219206,NA,NA
06606,Fairfield County,CT,16.040100250626566,NA,NA,NA,NA
06610,Fairfield County,CT,NA,NA,33.61169102296451,NA,NA
06614,Fairfield County,CT,NA,NA,NA,32.84403669724771,NA
06716,New Haven County,CT,NA,78.92156862745098,NA,NA,NA
06811,Fairfield County,CT,NA,NA,NA,63.6697247706422,NA
06825,Fairfield County,CT,NA,73.0392156862745,NA,NA,87.53799392097264
06880,Fairfield County,CT,47.86967418546366,NA,NA,NA,NA
06905,Fairfield County,CT,NA,NA,78.70563674321504,NA,NA
19707,New Castle County,DE,NA,NA,95.61586638830897,NA,NA
19709,New Castle County,DE,16.290726817042607,NA,NA,NA,NA
19711,New Castle County,DE,NA,59.80392156862745,NA,NA,NA
19734,New Castle County,DE,NA,NA,NA,NA,84.80243161094225
19803,New Castle County,DE,NA,93.62745098039215,NA,NA,NA
19810,New Castle County,DE,NA,NA,NA,NA,34.650455927051674
19939,Sussex County,DE,NA,NA,NA,78.53211009174312,NA
19947,Sussex County,DE,NA,47.05882352941176,NA,NA,NA
32052,Hamilton County,FL,NA,89.2156862745098,NA,NA,NA
32060,Suwannee County,FL,NA,NA,56.36743215031316,NA,NA
32081,St. Johns County,FL,86.71679197994987,NA,NA,NA,NA
32086,St. Johns County,FL,NA,NA,NA,19.26605504587156,NA
32162,Sumter County,FL,NA,NA,NA,2.5688073394495414,NA
32208,Duval County,FL,NA,NA,NA,5.321100917431193,NA
32211,Duval County,FL,NA,NA,NA,NA,73.25227963525836
32257,Duval County,FL,40.852130325814535,NA,NA,NA,NA
32311,Leon County,FL,NA,85.29411764705883,NA,NA,NA
32327,Wakulla County,FL,NA,57.35294117647059,NA,NA,NA
32428,Washington County,FL,NA,NA,NA,NA,51.06382978723404
32504,Escambia County,FL,NA,NA,53.86221294363257,NA,NA
32506,Escambia County,FL,NA,NA,18.580375782881003,NA,16.717325227963524
32514,Escambia County,FL,NA,NA,NA,NA,10.94224924012158
32526,Escambia County,FL,NA,NA,17.745302713987474,NA,NA
32535,Escambia County,FL,NA,NA,77.66179540709813,NA,NA
32539,Okaloosa County,FL,NA,NA,NA,27.706422018348626,36.474164133738604
32568,Escambia County,FL,NA,NA,NA,99.81651376146789,NA
32578,Okaloosa County,FL,NA,NA,56.9937369519833,NA,NA
32605,Alachua County,FL,32.83208020050125,NA,NA,NA,NA
32609,Alachua County,FL,NA,NA,56.158663883089766,NA,NA
32615,Alachua County,FL,NA,NA,NA,57.61467889908257,NA
32656,Clay County,FL,NA,NA,NA,60.366972477064216,NA
32708,Seminole County,FL,NA,NA,NA,37.98165137614679,NA
32735,Lake County,FL,NA,NA,NA,95.77981651376147,NA
32750,Seminole County,FL,NA,76.47058823529412,NA,NA,NA
32779,Seminole County,FL,NA,NA,NA,NA,44.680851063829785
32792,Orange County,FL,NA,NA,NA,48.07339449541285,NA
32822,Orange County,FL,NA,NA,NA,25.688073394495415,NA
32835,Orange County,FL,NA,NA,NA,NA,58.35866261398176
32904,Brevard County,FL,NA,NA,NA,44.77064220183487,NA
32905,Brevard County,FL,NA,NA,63.88308977035491,NA,NA
32907,Brevard County,FL,NA,NA,50.52192066805845,NA,NA
32909,Brevard County,FL,NA,NA,NA,31.376146788990827,NA
32937,Brevard County,FL,NA,NA,NA,NA,31.61094224924012
32955,Brevard County,FL,NA,NA,NA,NA,13.677811550151976
32962,Indian River County,FL,NA,68.13725490196079,NA,NA,NA
33009,Broward County,FL,NA,NA,NA,76.14678899082568,NA
33018,Miami-Dade County,FL,NA,NA,76.20041753653445,NA,NA
33062,Broward County,FL,NA,NA,NA,NA,3.951367781155015
33063,Broward County,FL,47.11779448621554,NA,NA,NA,NA
33143,Miami-Dade County,FL,NA,NA,NA,NA,48.02431610942249
33173,Miami-Dade County,FL,NA,NA,NA,NA,21.580547112462007
33193,Miami-Dade County,FL,NA,NA,NA,NA,55.92705167173252
33313,Broward County,FL,NA,14.705882352941178,NA,NA,NA
33319,Broward County,FL,NA,NA,NA,30.275229357798167,NA
33324,Broward County,FL,NA,NA,NA,NA,55.62310030395137
33326,Broward County,FL,NA,75.98039215686273,NA,NA,NA
33351,Broward County,FL,44.11027568922306,NA,NA,NA,NA
33426,Palm Beach County,FL,NA,NA,79.33194154488518,NA,NA
33436,Palm Beach County,FL,NA,NA,60.33402922755741,NA,NA
33463,Palm Beach County,FL,NA,NA,52.609603340292274,NA,NA
33467,Palm Beach County,FL,NA,NA,NA,76.69724770642202,NA
33487,Palm Beach County,FL,87.96992481203007,NA,NA,NA,NA
33543,Pasco County,FL,89.72431077694235,NA,NA,NA,NA
33556,Hillsborough County,FL,NA,NA,NA,NA,68.9969604863222
33592,Hillsborough County,FL,NA,NA,NA,89.54128440366974,NA
33705,Pinellas County,FL,NA,NA,NA,55.96330275229357,NA
33763,Pinellas County,FL,NA,NA,86.84759916492693,NA,NA
33770,Pinellas County,FL,NA,NA,NA,55.779816513761475,NA
33803,Polk County,FL,NA,NA,NA,NA,39.51367781155015
33830,Polk County,FL,NA,NA,41.75365344467641,NA,NA
33837,Polk County,FL,NA,65.19607843137256,NA,NA,NA
33859,Polk County,FL,NA,NA,91.64926931106471,NA,NA
33904,Lee County,FL,NA,NA,NA,NA,8.51063829787234
33967,Lee County,FL,NA,NA,62.21294363256785,NA,94.22492401215806
34103,Collier County,FL,NA,NA,NA,NA,41.03343465045592
34108,Collier County,FL,NA,NA,NA,56.330275229357795,NA
34109,Collier County,FL,NA,NA,76.61795407098121,NA,NA
34119,Collier County,FL,NA,NA,NA,NA,23.10030395136778
34203,Manatee County,FL,NA,NA,NA,21.100917431192663,NA
34209,Manatee County,FL,NA,85.29411764705883,NA,NA,NA
34231,Sarasota County,FL,NA,NA,NA,17.98165137614679,NA
34292,Sarasota County,FL,NA,NA,NA,48.80733944954129,NA
34602,Hernando County,FL,NA,NA,NA,87.5229357798165,NA
34743,Osceola County,FL,NA,15.196078431372548,NA,NA,NA
34758,Osceola County,FL,22.55639097744361,NA,NA,NA,NA
34986,St. Lucie County,FL,NA,NA,NA,24.220183486238533,NA
34997,Martin County,FL,NA,NA,NA,58.532110091743114,NA
30013,Rockdale County,GA,NA,NA,NA,62.38532110091744,NA
30017,Gwinnett County,GA,NA,NA,88.30897703549061,NA,NA
30039,Gwinnett County,GA,40.852130325814535,NA,NA,NA,NA
30041,Forsyth County,GA,NA,NA,NA,11.559633027522937,NA
30047,Gwinnett County,GA,51.62907268170426,NA,NA,NA,NA
30066,Cobb County,GA,NA,NA,NA,62.93577981651376,NA
30101,Cobb County,GA,NA,NA,NA,27.339449541284406,NA
30110,Haralson County,GA,NA,NA,67.64091858037578,NA,NA
30120,Bartow County,GA,NA,NA,NA,44.95412844036697,NA
30121,Bartow County,GA,NA,NA,NA,NA,75.07598784194529
30135,Douglas County,GA,8.521303258145362,31.372549019607842,NA,NA,NA
30153,Polk County,GA,71.42857142857143,65.68627450980392,NA,NA,NA
30180,Carroll County,GA,42.35588972431078,50.98039215686274,NA,NA,NA
30223,Spalding County,GA,NA,NA,NA,NA,34.04255319148936
30241,Troup County,GA,NA,NA,34.23799582463465,NA,NA
30253,Henry County,GA,NA,64.2156862745098,NA,NA,NA
30294,DeKalb County,GA,NA,NA,NA,81.10091743119267,NA
30305,Fulton County,GA,NA,NA,NA,98.34862385321101,NA
30316,DeKalb County,GA,NA,NA,NA,NA,52.58358662613982
30328,Fulton County,GA,NA,NA,NA,NA,34.954407294832826
30340,DeKalb County,GA,60.902255639097746,NA,NA,NA,NA
30346,DeKalb County,GA,92.23057644110276,NA,NA,NA,NA
30349,Fulton County,GA,NA,NA,NA,11.926605504587156,NA
30354,Fulton County,GA,NA,49.50980392156863,NA,NA,NA
30401,Emanuel County,GA,NA,NA,72.65135699373695,NA,NA
30530,Banks County,GA,NA,NA,NA,94.67889908256882,NA
30635,Elbert County,GA,NA,NA,67.22338204592901,NA,NA
30650,Morgan County,GA,NA,NA,NA,67.3394495412844,NA
30736,Catoosa County,GA,45.86466165413533,NA,NA,NA,NA
30741,Walker County,GA,NA,70.58823529411765,24.4258872651357,NA,NA
30909,Richmond County,GA,62.907268170426065,NA,NA,NA,NA
31015,Crisp County,GA,NA,71.07843137254902,NA,NA,NA
31206,Bibb County,GA,NA,NA,NA,51.74311926605505,NA
31313,Liberty County,GA,NA,NA,NA,72.8440366972477,NA
31324,Bryan County,GA,NA,NA,NA,70.8256880733945,NA
31545,Wayne County,GA,42.606516290726816,NA,NA,NA,NA
31601,Lowndes County,GA,NA,NA,32.150313152400834,NA,NA
31903,Muscogee County,GA,NA,NA,NA,44.403669724770644,NA
31907,Muscogee County,GA,NA,NA,NA,NA,3.343465045592705
31909,Muscogee County,GA,NA,NA,NA,NA,34.34650455927052
96706,Honolulu County,HI,NA,NA,NA,NA,19.148936170212767
96708,Maui County,HI,96.99248120300751,NA,NA,NA,NA
96717,Honolulu County,HI,NA,90.19607843137256,NA,NA,NA
96797,Honolulu County,HI,NA,48.03921568627451,NA,NA,NA
96816,Honolulu County,HI,39.097744360902254,NA,NA,NA,NA
96818,Honolulu County,HI,NA,NA,NA,NA,35.25835866261398
96819,Honolulu County,HI,12.531328320802004,NA,NA,NA,NA
83201,Bannock County,ID,NA,NA,27.97494780793319,NA,70.2127659574468
83274,Bingham County,ID,78.94736842105263,NA,NA,88.62385321100918,NA
83301,Twin Falls County,ID,NA,NA,NA,29.724770642201836,NA
83340,Blaine County,ID,NA,NA,NA,58.1651376146789,NA
83442,Jefferson County,ID,NA,52.94117647058824,NA,NA,NA
83536,Idaho County,ID,NA,NA,NA,80.55045871559633,NA
83605,Canyon County,ID,NA,NA,NA,NA,42.857142857142854
83617,Gem County,ID,NA,NA,NA,46.788990825688074,NA
83634,Ada County,ID,56.390977443609025,NA,NA,NA,NA
83646,Ada County,ID,77.94486215538848,46.07843137254902,NA,NA,NA
83687,Canyon County,ID,NA,NA,27.139874739039666,NA,NA
83704,Ada County,ID,NA,NA,NA,NA,3.0395136778115504
83705,Ada County,ID,NA,NA,NA,16.14678899082569,NA
83709,Ada County,ID,NA,34.80392156862745,NA,NA,NA
83714,Ada County,ID,NA,NA,NA,15.77981651376147,NA
83814,Kootenai County,ID,NA,NA,NA,NA,33.43465045592705
83843,Latah County,ID,23.308270676691727,NA,NA,NA,NA
83856,Bonner County,ID,NA,NA,NA,93.39449541284404,NA
83864,Bonner County,ID,NA,NA,90.81419624217119,NA,NA
60025,Cook County,IL,21.553884711779446,NA,NA,NA,NA
60031,Lake County,IL,42.857142857142854,NA,51.774530271398746,NA,NA
60035,Lake County,IL,NA,NA,48.43423799582464,NA,NA
60067,Cook County,IL,NA,NA,NA,20.18348623853211,NA
60069,Lake County,IL,84.9624060150376,NA,NA,NA,NA
60085,Lake County,IL,71.67919799498746,NA,NA,NA,NA
60090,Cook County,IL,NA,NA,NA,NA,19.756838905775076
60099,Lake County,IL,NA,NA,NA,40.18348623853211,NA
60101,DuPage County,IL,NA,NA,34.029227557411275,NA,NA
60103,DuPage County,IL,74.93734335839599,NA,NA,NA,NA
60108,DuPage County,IL,NA,NA,63.25678496868476,NA,NA
60126,DuPage County,IL,NA,NA,NA,NA,5.775075987841945
60163,Cook County,IL,NA,NA,97.91231732776617,NA,NA
60164,Cook County,IL,NA,NA,NA,41.10091743119266,NA
60181,DuPage County,IL,NA,NA,36.95198329853862,NA,NA
60188,DuPage County,IL,NA,NA,23.382045929018787,NA,NA
60192,Cook County,IL,NA,NA,NA,82.75229357798165,NA
60201,Cook County,IL,NA,NA,NA,84.40366972477065,NA
60402,Cook County,IL,NA,NA,NA,NA,33.43465045592705
60409,Cook County,IL,NA,NA,NA,NA,37.38601823708207
60417,Will County,IL,NA,NA,NA,NA,56.838905775075986
60419,Cook County,IL,NA,NA,NA,36.51376146788991,NA
60435,Will County,IL,NA,NA,NA,NA,20.972644376899694
60440,Will County,IL,NA,NA,25.260960334029225,NA,NA
60462,Cook County,IL,NA,NA,NA,NA,12.462006079027356
60487,Cook County,IL,NA,NA,NA,NA,64.13373860182371
60510,Kane County,IL,NA,NA,41.544885177453025,NA,NA
60540,DuPage County,IL,NA,NA,35.908141962421716,NA,NA
60543,Kendall County,IL,NA,NA,NA,NA,72.64437689969606
60545,Kendall County,IL,NA,NA,96.65970772442589,NA,NA
60546,Cook County,IL,57.393483709273184,NA,NA,NA,NA
60564,Will County,IL,NA,NA,NA,NA,72.03647416413374
60607,Cook County,IL,NA,NA,NA,47.522935779816514,NA
60608,Cook County,IL,NA,NA,NA,14.862385321100918,NA
60611,Cook County,IL,NA,NA,NA,NA,14.893617021276595
60612,Cook County,IL,25.31328320802005,NA,NA,NA,NA
60613,Cook County,IL,NA,NA,NA,NA,44.07294832826747
60623,Cook County,IL,20.30075187969925,NA,NA,NA,NA
60629,Cook County,IL,NA,NA,NA,NA,13.37386018237082
60634,Cook County,IL,11.779448621553884,NA,NA,NA,NA
60636,Cook County,IL,51.8796992481203,NA,NA,NA,NA
60641,Cook County,IL,NA,54.90196078431373,NA,NA,NA
60645,Cook County,IL,NA,NA,NA,21.65137614678899,NA
60651,Cook County,IL,NA,NA,38.83089770354906,NA,NA
60654,Cook County,IL,NA,NA,72.02505219206681,NA,NA
60655,Cook County,IL,NA,NA,36.11691022964509,NA,NA
60657,Cook County,IL,NA,NA,NA,14.495412844036698,23.404255319148938
60804,Cook County,IL,28.07017543859649,NA,NA,NA,NA
61036,Jo Daviess County,IL,NA,NA,NA,NA,99.08814589665653
61061,Ogle County,IL,NA,NA,NA,NA,50.75987841945289
61081,Whiteside County,IL,NA,NA,37.36951983298539,NA,NA
61443,Henry County,IL,NA,NA,NA,52.293577981651374,NA
61523,Peoria County,IL,NA,NA,89.77035490605428,NA,NA
61761,McLean County,IL,42.10526315789473,NA,NA,NA,NA
61802,Champaign County,IL,NA,NA,87.47390396659708,NA,NA
61820,Champaign County,IL,NA,NA,73.48643006263048,NA,NA
61874,Champaign County,IL,NA,NA,NA,64.77064220183486,NA
61953,Douglas County,IL,NA,NA,94.78079331941545,NA,NA
62002,Madison County,IL,NA,NA,NA,NA,17.325227963525837
62062,Madison County,IL,NA,NA,NA,94.67889908256882,NA
62223,St. Clair County,IL,NA,NA,NA,NA,53.799392097264445
62231,Clinton County,IL,NA,NA,NA,NA,58.96656534954408
62549,Macon County,IL,NA,NA,NA,82.01834862385321,NA
62644,Mason County,IL,NA,NA,99.79123173277662,NA,NA
62704,Sangamon County,IL,NA,NA,NA,NA,16.109422492401215
62801,Marion County,IL,NA,NA,NA,28.990825688073397,NA
46037,Hamilton County,IN,NA,92.15686274509804,NA,NA,NA
46112,Hendricks County,IN,NA,NA,NA,NA,68.08510638297872
46122,Hendricks County,IN,68.1704260651629,NA,NA,NA,NA
46140,Hancock County,IN,NA,60.78431372549019,NA,NA,NA
46143,Johnson County,IN,NA,NA,29.436325678496868,NA,NA
46163,Hancock County,IN,NA,NA,NA,68.07339449541284,NA
46201,Marion County,IN,NA,41.17647058823529,NA,NA,NA
46224,Marion County,IN,18.295739348370926,NA,NA,NA,NA
46240,Marion County,IN,78.44611528822055,NA,NA,NA,NA
46256,Marion County,IN,NA,NA,NA,NA,85.1063829787234
46259,Marion County,IN,86.96741854636592,NA,NA,90.64220183486239,NA
46280,Hamilton County,IN,NA,93.13725490196079,NA,NA,NA
46303,Lake County,IN,NA,NA,49.478079331941544,NA,NA
46310,Jasper County,IN,55.639097744360896,NA,NA,NA,NA
46319,Lake County,IN,24.31077694235589,NA,NA,NA,NA
46373,Lake County,IN,44.86215538847117,NA,NA,NA,75.98784194528876
46375,Lake County,IN,NA,NA,NA,17.61467889908257,NA
46385,Porter County,IN,NA,NA,11.482254697286013,NA,NA
46392,Jasper County,IN,NA,93.62745098039215,NA,NA,NA
46516,Elkhart County,IN,NA,NA,NA,39.633027522935784,NA
46545,St. Joseph County,IN,63.40852130325815,NA,NA,NA,NA
46552,St. Joseph County,IN,NA,NA,94.98956158663883,NA,NA
46703,Steuben County,IN,NA,NA,NA,38.34862385321101,NA
46725,Whitley County,IN,47.86967418546366,NA,NA,NA,NA
46733,Adams County,IN,52.63157894736842,NA,NA,NA,NA
46806,Allen County,IN,19.047619047619047,NA,NA,NA,NA
46825,Allen County,IN,NA,50,NA,NA,NA
46835,Allen County,IN,NA,NA,39.03966597077244,NA,NA
46901,Howard County,IN,NA,NA,NA,3.853211009174312,NA
46902,Howard County,IN,NA,NA,NA,NA,7.90273556231003
47025,Dearborn County,IN,37.34335839598997,NA,NA,NA,NA
47129,Clark County,IN,NA,72.54901960784314,NA,NA,NA
47150,Floyd County,IN,NA,NA,NA,6.972477064220184,NA
47265,Jennings County,IN,NA,NA,28.39248434237996,NA,NA
47274,Jackson County,IN,NA,55.88235294117647,NA,NA,NA
47331,Fayette County,IN,NA,NA,NA,14.311926605504588,NA
47348,Blackford County,IN,NA,NA,68.4759916492693,NA,NA
47371,Jay County,IN,32.33082706766917,NA,NA,NA,NA
47421,Lawrence County,IN,NA,NA,NA,NA,37.08206686930091
47725,Vanderburgh County,IN,NA,NA,NA,NA,77.81155015197568
47803,Vigo County,IN,NA,64.2156862745098,NA,NA,NA
47932,Fountain County,IN,NA,NA,NA,71.55963302752293,NA
50049,Lucas County,IA,NA,81.37254901960785,NA,NA,NA
50138,Marion County,IA,73.1829573934837,NA,NA,NA,NA
50311,Polk County,IA,NA,NA,54.69728601252609,NA,NA
50313,Polk County,IA,NA,NA,NA,86.78899082568807,NA
50322,Polk County,IA,NA,63.23529411764706,NA,NA,NA
50701,Black Hawk County,IA,NA,NA,39.87473903966597,NA,NA
50801,Union County,IA,NA,NA,NA,NA,95.74468085106383
51105,Woodbury County,IA,73.68421052631578,NA,NA,NA,NA
51301,Clay County,IA,85.71428571428571,NA,NA,NA,NA
51503,Pottawattamie County,IA,4.010025062656641,NA,NA,NA,NA
52001,Dubuque County,IA,NA,39.21568627450981,NA,NA,NA
52003,Dubuque County,IA,NA,NA,90.18789144050105,NA,NA
52240,Johnson County,IA,3.508771929824561,NA,NA,NA,NA
52317,Johnson County,IA,39.59899749373433,NA,NA,NA,NA
52404,Linn County,IA,NA,NA,NA,NA,32.52279635258359
52601,Des Moines County,IA,NA,NA,16.075156576200417,NA,NA
52730,Clinton County,IA,91.72932330827066,NA,NA,NA,NA
66216,Johnson County,KS,NA,NA,NA,57.798165137614674,NA
66226,Johnson County,KS,86.46616541353383,NA,NA,NA,NA
66610,Shawnee County,KS,86.96741854636592,NA,NA,NA,NA
67217,Sedgwick County,KS,NA,NA,NA,NA,89.05775075987842
67601,Ellis County,KS,NA,NA,NA,19.449541284403672,NA
67846,Finney County,KS,41.60401002506266,NA,NA,NA,NA
40004,Nelson County,KY,NA,NA,23.173277661795407,NA,NA
40207,Jefferson County,KY,NA,NA,NA,33.39449541284404,NA
40258,Jefferson County,KY,33.583959899749374,NA,NA,NA,NA
40324,Scott County,KY,29.82456140350877,29.411764705882355,NA,22.568807339449542,NA
40475,Madison County,KY,NA,NA,NA,NA,25.227963525835868
40484,Lincoln County,KY,71.9298245614035,NA,NA,83.85321100917432,NA
40502,Fayette County,KY,NA,NA,NA,NA,76.89969604863222
40503,Fayette County,KY,53.63408521303258,NA,NA,NA,NA
40505,Fayette County,KY,NA,NA,29.018789144050107,NA,NA
41001,Campbell County,KY,NA,NA,67.84968684759917,69.1743119266055,NA
41017,Kenton County,KY,24.06015037593985,NA,NA,NA,NA
41030,Grant County,KY,96.2406015037594,NA,NA,NA,NA
41075,Campbell County,KY,NA,NA,71.60751565762004,NA,NA
41102,Boyd County,KY,45.11278195488722,NA,NA,NA,NA
41164,Carter County,KY,NA,NA,39.66597077244259,35.41284403669725,NA
42001,McCracken County,KY,68.92230576441104,NA,NA,NA,NA
42129,Metcalfe County,KY,NA,NA,NA,63.853211009174316,NA
42240,Christian County,KY,NA,NA,8.768267223382047,NA,NA
42303,Daviess County,KY,18.796992481203006,NA,NA,NA,NA
42633,Wayne County,KY,NA,NA,NA,35.96330275229358,NA
70001,Jefferson Parish,LA,NA,NA,6.471816283924843,NA,NA
70126,Orleans Parish,LA,NA,NA,NA,73.76146788990826,NA
70127,Orleans Parish,LA,30.82706766917293,NA,NA,NA,NA
70301,Lafourche Parish,LA,NA,NA,NA,NA,55.319148936170215
70339,Assumption Parish,LA,NA,NA,NA,NA,96.35258358662614
70357,Lafourche Parish,LA,NA,86.76470588235294,NA,NA,NA
70433,St. Tammany Parish,LA,NA,NA,35.49060542797495,NA,NA
70452,St. Tammany Parish,LA,NA,NA,25.887265135699373,NA,NA
70458,St. Tammany Parish,LA,NA,11.76470588235294,NA,NA,NA
70461,St. Tammany Parish,LA,NA,NA,NA,55.22935779816513,NA
70508,Lafayette Parish,LA,9.523809523809524,NA,NA,NA,NA
70737,Ascension Parish,LA,NA,NA,NA,17.79816513761468,NA
70774,Ascension Parish,LA,NA,79.41176470588235,NA,NA,NA
70809,East Baton Rouge Parish,LA,NA,NA,NA,NA,43.76899696048632
71064,Bossier Parish,LA,NA,NA,NA,NA,94.83282674772036
71106,Caddo Parish,LA,NA,NA,33.194154488517746,NA,NA
71108,Caddo Parish,LA,43.609022556390975,NA,NA,NA,NA
71111,Bossier Parish,LA,NA,NA,7.515657620041753,NA,NA
71203,Ouachita Parish,LA,NA,4.901960784313726,NA,NA,NA
71295,Franklin Parish,LA,NA,NA,NA,81.8348623853211,NA
71446,Vernon Parish,LA,NA,NA,NA,37.61467889908257,NA
04064,York County,ME,NA,NA,75.78288100208769,NA,NA
04072,York County,ME,39.849624060150376,NA,NA,NA,NA
04073,York County,ME,19.799498746867165,NA,NA,31.926605504587158,NA
04074,Cumberland County,ME,NA,NA,NA,56.88073394495413,NA
04090,York County,ME,NA,NA,NA,79.63302752293579,NA
04093,York County,ME,NA,NA,83.92484342379957,NA,NA
04105,Cumberland County,ME,NA,NA,NA,78.1651376146789,NA
04240,Androscoggin County,ME,NA,NA,3.549060542797495,53.94495412844037,NA
04330,Kennebec County,ME,NA,NA,NA,NA,13.98176291793313
04412,Penobscot County,ME,NA,NA,NA,NA,29.48328267477204
04917,Kennebec County,ME,NA,NA,NA,NA,98.17629179331307
04938,Franklin County,ME,NA,NA,55.11482254697286,NA,NA
04967,Somerset County,ME,NA,NA,81.21085594989562,NA,NA
20695,Charles County,MD,85.96491228070175,NA,NA,NA,NA
20706,Prince George's County,MD,NA,NA,NA,82.38532110091742,NA
20815,Montgomery County,MD,65.41353383458647,NA,NA,NA,NA
20904,Montgomery County,MD,NA,NA,NA,77.98165137614679,NA
21043,Howard County,MD,NA,NA,70.9812108559499,NA,NA
21044,Howard County,MD,NA,NA,77.8705636743215,NA,NA
21061,Anne Arundel County,MD,NA,NA,NA,NA,26.443768996960486
21076,Anne Arundel County,MD,NA,NA,NA,86.23853211009175,NA
21161,Harford County,MD,98.74686716791979,NA,NA,NA,NA
21213,Baltimore city,MD,NA,NA,24.008350730688935,NA,NA
21218,Baltimore city,MD,NA,NA,NA,12.110091743119266,NA
21221,Baltimore County,MD,NA,NA,NA,21.834862385321102,NA
21227,Baltimore County,MD,NA,NA,57.41127348643006,NA,NA
21230,Baltimore city,MD,NA,NA,41.127348643006265,NA,70.51671732522796
21234,Baltimore County,MD,NA,NA,19.832985386221296,NA,NA
21239,Baltimore city,MD,16.541353383458645,NA,NA,NA,NA
21502,Allegany County,MD,NA,NA,29.227557411273487,NA,NA
21550,Garrett County,MD,NA,NA,NA,43.48623853211009,NA
21651,Kent County,MD,97.4937343358396,NA,NA,NA,NA
21703,Frederick County,MD,NA,NA,NA,88.25688073394495,NA
21755,Frederick County,MD,NA,NA,NA,NA,99.3920972644377
01020,Hampden County,MA,NA,NA,5.6367432150313155,NA,NA
01069,Hampden County,MA,NA,NA,NA,41.8348623853211,NA
01089,Hampden County,MA,NA,NA,NA,29.357798165137616,NA
01105,Hampden County,MA,8.270676691729323,NA,NA,NA,NA
01106,Hampden County,MA,NA,NA,93.94572025052193,NA,48.93617021276596
01360,Franklin County,MA,NA,NA,99.37369519832986,NA,NA
01440,Worcester County,MA,NA,NA,15.657620041753653,NA,NA
01453,Worcester County,MA,NA,NA,NA,0.1834862385321101,NA
01473,Worcester County,MA,51.127819548872175,NA,NA,NA,NA
01501,Worcester County,MA,NA,NA,NA,NA,25.53191489361702
01510,Worcester County,MA,NA,56.86274509803921,NA,NA,NA
01520,Worcester County,MA,NA,NA,NA,50.64220183486239,NA
01540,Worcester County,MA,NA,NA,72.23382045929019,NA,NA
01568,Worcester County,MA,NA,NA,72.44258872651356,NA,NA
01570,Worcester County,MA,13.784461152882205,NA,86.0125260960334,NA,NA
01602,Worcester County,MA,NA,NA,10.855949895615867,NA,NA
01603,Worcester County,MA,NA,NA,3.1315240083507305,NA,NA
01604,Worcester County,MA,NA,NA,NA,37.247706422018354,NA
01605,Worcester County,MA,NA,NA,NA,0.7339449541284404,0.303951367781155
01609,Worcester County,MA,NA,NA,NA,NA,6.382978723404255
01610,Worcester County,MA,12.781954887218044,NA,NA,NA,NA
01702,Middlesex County,MA,NA,NA,2.0876826722338206,NA,NA
01730,Middlesex County,MA,55.88972431077694,NA,NA,NA,NA
01752,Middlesex County,MA,NA,19.607843137254903,NA,NA,NA
01756,Worcester County,MA,NA,NA,NA,NA,86.32218844984803
01757,Worcester County,MA,NA,23.03921568627451,NA,NA,NA
01803,Middlesex County,MA,NA,NA,NA,64.77064220183486,2.735562310030395
01810,Essex County,MA,25.563909774436087,NA,NA,NA,NA
01832,Essex County,MA,NA,NA,4.801670146137787,NA,NA
01843,Essex County,MA,3.258145363408521,NA,NA,NA,NA
01880,Middlesex County,MA,NA,NA,NA,5.871559633027523,NA
01887,Middlesex County,MA,NA,74.50980392156863,NA,NA,NA
01904,Essex County,MA,NA,NA,NA,13.577981651376147,NA
01960,Essex County,MA,NA,NA,1.0438413361169103,NA,NA
02025,Norfolk County,MA,NA,NA,NA,NA,83.89057750759878
02035,Norfolk County,MA,NA,NA,NA,60.73394495412844,NA
02045,Plymouth County,MA,NA,NA,NA,53.76146788990825,NA
02115,Suffolk County,MA,NA,NA,NA,46.60550458715596,NA
02122,Suffolk County,MA,NA,NA,NA,1.1009174311926606,NA
02125,Suffolk County,MA,NA,NA,NA,12.844036697247708,43.46504559270517
02126,Suffolk County,MA,NA,10.294117647058822,NA,NA,NA
02127,Suffolk County,MA,NA,NA,NA,7.155963302752294,NA
02140,Middlesex County,MA,NA,NA,NA,NA,86.62613981762918
02141,Middlesex County,MA,NA,NA,91.23173277661796,NA,NA
02149,Middlesex County,MA,43.10776942355889,NA,0.20876826722338201,NA,NA
02150,Suffolk County,MA,NA,NA,0.6263048016701461,0.9174311926605505,NA
02151,Suffolk County,MA,NA,NA,0,NA,6.079027355623101
02155,Middlesex County,MA,NA,NA,NA,0.3669724770642202,NA
02169,Norfolk County,MA,NA,NA,NA,NA,10.33434650455927
02170,Norfolk County,MA,NA,NA,NA,8.440366972477065,NA
02186,Norfolk County,MA,NA,NA,NA,26.238532110091743,NA
02189,Norfolk County,MA,NA,NA,60.125260960334025,NA,NA
02191,Norfolk County,MA,NA,NA,NA,75.41284403669725,NA
02301,Plymouth County,MA,NA,44.11764705882353,NA,8.990825688073395,NA
02351,Plymouth County,MA,NA,74.01960784313727,NA,NA,NA
02359,Plymouth County,MA,NA,NA,NA,NA,81.7629179331307
02364,Plymouth County,MA,NA,NA,80.3757828810021,63.30275229357798,NA
02368,Norfolk County,MA,NA,NA,NA,4.954128440366973,NA
02370,Plymouth County,MA,NA,91.17647058823529,NA,NA,NA
02379,Plymouth County,MA,NA,NA,59.91649269311065,NA,NA
02420,Middlesex County,MA,NA,NA,42.379958246346554,NA,NA
02446,Norfolk County,MA,14.786967418546364,NA,NA,NA,11.246200607902736
02453,Middlesex County,MA,NA,51.470588235294116,NA,NA,NA
02459,Middlesex County,MA,48.62155388471178,NA,NA,NA,NA
02467,Norfolk County,MA,NA,NA,51.56576200417536,NA,NA
02478,Middlesex County,MA,73.93483709273183,NA,NA,NA,NA
02492,Norfolk County,MA,NA,57.35294117647059,NA,NA,NA
02645,Barnstable County,MA,NA,NA,NA,65.5045871559633,63.829787234042556
02723,Bristol County,MA,NA,NA,4.175365344467641,NA,NA
02790,Bristol County,MA,NA,NA,NA,NA,31.30699088145897
48035,Macomb County,MI,NA,NA,13.987473903966595,9.174311926605505,NA
48038,Macomb County,MI,NA,NA,NA,4.587155963302752,NA
48042,Macomb County,MI,75.18796992481202,NA,NA,NA,NA
48059,St. Clair County,MI,NA,90.68627450980392,NA,NA,NA
48067,Oakland County,MI,68.67167919799499,NA,NA,NA,69.90881458966565
48085,Oakland County,MI,NA,NA,NA,NA,50.455927051671736
48091,Macomb County,MI,NA,NA,9.394572025052192,NA,NA
48101,Wayne County,MI,NA,NA,NA,NA,25.835866261398177
48103,Washtenaw County,MI,NA,NA,NA,14.678899082568808,2.127659574468085
48104,Washtenaw County,MI,NA,NA,NA,69.35779816513762,NA
48108,Washtenaw County,MI,NA,NA,71.18997912317327,NA,NA
48111,Wayne County,MI,NA,NA,10.22964509394572,NA,NA
48118,Washtenaw County,MI,NA,NA,NA,33.02752293577982,NA
48122,Wayne County,MI,NA,78.43137254901961,NA,NA,NA
48126,Wayne County,MI,6.516290726817042,NA,NA,NA,NA
48146,Wayne County,MI,NA,NA,55.741127348643005,16.3302752293578,NA
48150,Wayne County,MI,25.563909774436087,NA,NA,NA,NA
48160,Washtenaw County,MI,NA,NA,NA,56.513761467889914,NA
48169,Livingston County,MI,NA,86.76470588235294,NA,NA,37.38601823708207
48174,Wayne County,MI,NA,NA,NA,93.94495412844037,NA
48183,Wayne County,MI,NA,NA,NA,NA,14.285714285714285
48185,Wayne County,MI,NA,NA,NA,6.238532110091743,NA
48188,Wayne County,MI,NA,NA,16.49269311064718,NA,NA
48193,Wayne County,MI,53.88471177944862,NA,NA,NA,NA
48197,Washtenaw County,MI,NA,15.686274509803921,NA,NA,NA
48202,Wayne County,MI,NA,NA,36.74321503131524,NA,NA
48213,Wayne County,MI,34.83709273182957,NA,NA,NA,NA
48218,Wayne County,MI,NA,NA,73.2776617954071,NA,NA
48221,Wayne County,MI,NA,NA,7.724425887265135,NA,NA
48223,Wayne County,MI,13.032581453634084,NA,NA,NA,NA
48226,Wayne County,MI,85.96491228070175,NA,NA,NA,NA
48228,Wayne County,MI,NA,NA,NA,6.7889908256880735,NA
48234,Wayne County,MI,NA,28.431372549019606,NA,NA,NA
48239,Wayne County,MI,31.82957393483709,NA,NA,10.091743119266056,NA
48316,Macomb County,MI,49.122807017543856,NA,44.88517745302714,43.853211009174316,NA
48323,Oakland County,MI,NA,NA,NA,74.86238532110092,NA
48324,Oakland County,MI,NA,NA,64.30062630480167,NA,NA
48327,Oakland County,MI,NA,NA,NA,NA,52.88753799392097
48341,Oakland County,MI,NA,NA,NA,91.19266055045871,NA
48382,Oakland County,MI,30.32581453634085,NA,NA,NA,NA
48386,Oakland County,MI,61.152882205513784,NA,NA,42.201834862385326,NA
48436,Genesee County,MI,96.49122807017544,NA,NA,NA,NA
48503,Genesee County,MI,35.08771929824561,NA,NA,NA,NA
48601,Saginaw County,MI,NA,NA,NA,44.587155963302756,NA
48612,Gladwin County,MI,70.92731829573935,NA,NA,NA,NA
48624,Gladwin County,MI,46.616541353383454,NA,NA,20,NA
48640,Midland County,MI,17.042606516290725,NA,NA,NA,NA
48658,Arenac County,MI,NA,NA,NA,88.62385321100918,NA
48708,Bay County,MI,NA,NA,11.899791231732777,7.522935779816514,NA
48723,Tuscola County,MI,NA,NA,33.82045929018789,NA,NA
48726,Tuscola County,MI,NA,NA,NA,82.01834862385321,NA
48836,Livingston County,MI,49.87468671679198,NA,NA,NA,NA
48864,Ingham County,MI,NA,NA,NA,46.42201834862386,NA
48893,Isabella County,MI,NA,NA,NA,NA,84.49848024316108
49007,Kalamazoo County,MI,NA,NA,NA,83.11926605504587,NA
49009,Kalamazoo County,MI,NA,NA,NA,58.71559633027523,NA
49036,Branch County,MI,NA,NA,35.281837160751564,NA,NA
49068,Calhoun County,MI,NA,NA,NA,45.321100917431195,NA
49085,Berrien County,MI,NA,NA,NA,42.56880733944954,NA
49093,St. Joseph County,MI,NA,NA,66.38830897703549,NA,NA
49117,Berrien County,MI,NA,NA,NA,91.74311926605505,NA
49120,Berrien County,MI,NA,NA,18.37160751565762,NA,NA
49127,Berrien County,MI,NA,NA,81.21085594989562,NA,NA
49201,Jackson County,MI,NA,NA,NA,4.4036697247706424,NA
49202,Jackson County,MI,40.35087719298245,NA,NA,NA,27.35562310030395
49228,Lenawee County,MI,NA,NA,93.1106471816284,NA,NA
49285,Ingham County,MI,91.97994987468672,NA,NA,NA,NA
49307,Mecosta County,MI,NA,NA,NA,61.100917431192656,NA
49331,Kent County,MI,NA,91.66666666666666,NA,NA,NA
49423,Ottawa County,MI,NA,NA,15.866388308977037,NA,NA
49426,Ottawa County,MI,NA,NA,NA,37.43119266055046,26.74772036474164
49428,Ottawa County,MI,NA,NA,NA,NA,17.62917933130699
49431,Mason County,MI,NA,NA,NA,61.65137614678899,NA
49456,Ottawa County,MI,NA,NA,NA,NA,24.924012158054712
49508,Kent County,MI,2.506265664160401,NA,NA,NA,NA
49509,Kent County,MI,NA,17.15686274509804,NA,NA,NA
49519,Kent County,MI,NA,NA,50.939457202505224,NA,NA
49548,Kent County,MI,NA,NA,11.273486430062631,NA,NA
49643,Grand Traverse County,MI,95.98997493734336,NA,NA,NA,NA
49646,Kalkaska County,MI,NA,NA,NA,NA,94.52887537993921
49829,Delta County,MI,44.611528822055135,NA,NA,NA,NA
49855,Marquette County,MI,NA,NA,18.789144050104383,NA,NA
49931,Houghton County,MI,NA,NA,NA,NA,71.12462006079028
49938,Gogebic County,MI,NA,NA,NA,49.54128440366973,NA
55025,Washington County,MN,NA,NA,60.5427974947808,NA,NA
55044,Dakota County,MN,NA,45.09803921568628,NA,NA,NA
55066,Goodhue County,MN,NA,NA,NA,19.816513761467892,NA
55101,Ramsey County,MN,NA,NA,NA,95.41284403669725,NA
55105,Ramsey County,MN,53.1328320802005,NA,NA,NA,NA
55112,Ramsey County,MN,NA,NA,NA,26.055045871559635,NA
55113,Ramsey County,MN,NA,NA,NA,NA,27.659574468085108
55119,Ramsey County,MN,NA,NA,NA,NA,45.8966565349544
55120,Dakota County,MN,97.4937343358396,NA,NA,NA,NA
55123,Dakota County,MN,65.6641604010025,NA,NA,NA,NA
55127,Ramsey County,MN,61.904761904761905,NA,NA,NA,NA
55129,Washington County,MN,NA,NA,74.32150313152401,NA,NA
55313,Wright County,MN,NA,NA,NA,NA,67.17325227963525
55325,Meeker County,MN,95.23809523809523,NA,NA,NA,NA
55357,Hennepin County,MN,96.99248120300751,NA,NA,NA,NA
55364,Hennepin County,MN,NA,NA,NA,92.29357798165138,NA
55369,Hennepin County,MN,NA,35.78431372549019,NA,NA,NA
55378,Scott County,MN,33.08270676691729,NA,NA,NA,NA
55391,Hennepin County,MN,67.41854636591479,NA,NA,NA,NA
55408,Hennepin County,MN,NA,48.529411764705884,NA,NA,NA
55409,Hennepin County,MN,NA,82.84313725490196,NA,NA,NA
55435,Hennepin County,MN,70.67669172932331,NA,NA,NA,NA
55437,Hennepin County,MN,NA,75,NA,NA,NA
55719,St. Louis County,MN,NA,NA,NA,NA,82.06686930091185
55811,St. Louis County,MN,NA,NA,NA,NA,2.43161094224924
55901,Olmsted County,MN,NA,NA,NA,26.422018348623855,NA
55904,Olmsted County,MN,NA,NA,NA,37.06422018348624,NA
55912,Mower County,MN,NA,NA,10.438413361169102,NA,NA
55963,Goodhue County,MN,NA,97.54901960784314,NA,NA,NA
56001,Blue Earth County,MN,11.278195488721805,NA,NA,NA,NA
56071,Scott County,MN,89.97493734335839,NA,NA,NA,NA
56073,Brown County,MN,NA,NA,NA,45.68807339449542,NA
56156,Rock County,MN,NA,NA,92.48434237995825,NA,NA
56215,Swift County,MN,NA,NA,NA,96.69724770642202,NA
56258,Lyon County,MN,NA,NA,NA,54.12844036697248,NA
56352,Stearns County,MN,NA,NA,87.89144050104383,NA,NA
56377,Stearns County,MN,NA,NA,NA,95.96330275229357,NA
56401,Crow Wing County,MN,NA,NA,59.081419624217126,4.770642201834862,NA
56470,Hubbard County,MN,NA,NA,NA,70.64220183486239,NA
56474,Cass County,MN,NA,NA,92.06680584551148,NA,NA
56501,Becker County,MN,NA,NA,43.42379958246347,NA,NA
56560,Clay County,MN,NA,NA,3.3402922755741122,NA,0.60790273556231
56716,Polk County,MN,NA,NA,NA,71.74311926605505,NA
56721,Polk County,MN,NA,NA,82.6722338204593,NA,NA
38843,Itawamba County,MS,NA,NA,NA,90.27522935779817,NA
38866,Lee County,MS,NA,100,NA,NA,NA
38901,Grenada County,MS,NA,58.82352941176471,NA,NA,NA
39110,Madison County,MS,NA,77.45098039215686,NA,NA,32.21884498480243
39120,Adams County,MS,79.19799498746866,NA,NA,NA,NA
39154,Hinds County,MS,NA,NA,NA,NA,89.36170212765957
39307,Lauderdale County,MS,NA,NA,NA,95.22935779816514,NA
39422,Jasper County,MS,NA,NA,97.4947807933194,NA,NA
39426,Pearl River County,MS,NA,NA,58.66388308977035,NA,NA
39429,Marion County,MS,NA,62.254901960784316,NA,NA,NA
39503,Harrison County,MS,NA,NA,14.613778705636744,NA,NA
39530,Harrison County,MS,NA,NA,NA,87.33944954128441,NA
39553,Jackson County,MS,NA,NA,NA,NA,75.37993920972644
39652,Pike County,MS,NA,98.0392156862745,NA,NA,NA
63010,Jefferson County,MO,NA,49.01960784313725,NA,NA,NA
63011,St. Louis County,MO,77.69423558897243,NA,NA,NA,NA
63033,St. Louis County,MO,NA,NA,NA,NA,7.598784194528875
63040,St. Louis County,MO,NA,NA,NA,91.37614678899084,NA
63109,St. Louis city,MO,65.16290726817043,NA,NA,NA,58.662613981762924
63116,St. Louis city,MO,NA,31.862745098039213,NA,NA,NA
63118,St. Louis city,MO,NA,NA,38.20459290187891,NA,NA
63125,St. Louis County,MO,NA,NA,74.11273486430062,NA,NA
63129,St. Louis County,MO,NA,NA,NA,NA,11.55015197568389
63133,St. Louis County,MO,89.47368421052632,NA,NA,NA,NA
63136,St. Louis County,MO,NA,NA,11.064718162839249,10.458715596330276,NA
63146,St. Louis County,MO,62.65664160401002,NA,NA,NA,NA
63367,St. Charles County,MO,NA,NA,NA,33.211009174311926,NA
63376,St. Charles County,MO,NA,NA,NA,2.0183486238532113,NA
63379,Lincoln County,MO,26.065162907268167,NA,NA,NA,NA
63601,St. Francois County,MO,14.285714285714285,NA,NA,NA,NA
63640,St. Francois County,MO,NA,NA,NA,NA,71.73252279635258
63755,Cape Girardeau County,MO,NA,62.745098039215684,NA,NA,NA
63775,Perry County,MO,NA,38.23529411764706,NA,NA,NA
64012,Cass County,MO,NA,53.431372549019606,NA,NA,NA
64015,Jackson County,MO,NA,NA,NA,17.06422018348624,NA
64030,Jackson County,MO,NA,NA,21.711899791231733,NA,NA
64062,Ray County,MO,NA,NA,84.55114822546973,NA,NA
64075,Jackson County,MO,57.14285714285714,NA,NA,NA,NA
64089,Clay County,MO,81.203007518797,NA,NA,NA,NA
64093,Johnson County,MO,34.335839598997495,NA,NA,NA,NA
64114,Jackson County,MO,NA,NA,41.33611691022965,NA,NA
64118,Clay County,MO,34.58646616541353,NA,NA,NA,NA
64119,Clay County,MO,NA,NA,14.822546972860126,NA,NA
64123,Jackson County,MO,51.37844611528822,NA,NA,NA,NA
64131,Jackson County,MO,NA,NA,18.16283924843424,34.67889908256881,NA
64133,Jackson County,MO,0.7518796992481203,NA,NA,4.036697247706423,NA
64137,Jackson County,MO,NA,NA,NA,73.39449541284404,NA
64155,Clay County,MO,NA,NA,NA,22.752293577981654,85.71428571428571
64157,Clay County,MO,NA,NA,39.45720250521921,NA,96.04863221884499
64465,Clinton County,MO,NA,NA,NA,99.26605504587155,NA
64469,DeKalb County,MO,92.4812030075188,NA,NA,NA,NA
64503,Buchanan County,MO,22.05513784461153,NA,NA,NA,NA
64506,Buchanan County,MO,53.88471177944862,NA,22.964509394572026,NA,NA
64601,Livingston County,MO,NA,NA,NA,NA,27.96352583586626
64628,Linn County,MO,NA,NA,NA,88.62385321100918,NA
64735,Henry County,MO,54.88721804511278,NA,NA,40.73394495412844,NA
65020,Camden County,MO,NA,NA,NA,87.88990825688073,NA
65201,Boone County,MO,20.551378446115287,NA,NA,NA,NA
65251,Callaway County,MO,NA,NA,36.53444676409186,NA,NA
65301,Pettis County,MO,8.020050125313283,NA,5.427974947807933,NA,NA
65711,Wright County,MO,NA,NA,88.93528183716074,NA,NA
65803,Greene County,MO,NA,NA,NA,NA,24.316109422492403
65804,Greene County,MO,NA,NA,NA,34.862385321100916,NA
65807,Greene County,MO,NA,NA,NA,16.51376146788991,NA
59044,Yellowstone County,MT,83.95989974937343,NA,NA,NA,NA
59270,Richland County,MT,NA,NA,NA,NA,59.57446808510638
59602,Lewis and Clark County,MT,NA,NA,61.79540709812108,NA,NA
59802,Missoula County,MT,82.45614035087719,NA,NA,NA,NA
59901,Flathead County,MT,NA,NA,NA,3.1192660550458715,NA
68046,Sarpy County,NE,43.35839598997494,NA,NA,NA,NA
68114,Douglas County,NE,NA,NA,78.91440501043841,NA,NA
68116,Douglas County,NE,37.092731829573935,NA,NA,NA,NA
68124,Douglas County,NE,33.583959899749374,NA,NA,NA,NA
68131,Douglas County,NE,NA,NA,88.72651356993737,NA,NA
68144,Douglas County,NE,NA,NA,NA,51.559633027522935,NA
68154,Douglas County,NE,80.45112781954887,NA,NA,NA,NA
68301,Gage County,NE,100,NA,NA,NA,NA
68512,Lancaster County,NE,74.43609022556392,NA,NA,NA,NA
68847,Buffalo County,NE,66.66666666666666,NA,NA,NA,NA
68949,Phelps County,NE,NA,NA,NA,90.82568807339449,NA
69361,Scotts Bluff County,NE,NA,NA,78.07933194154488,NA,NA
89130,Clark County,NV,NA,88.72549019607843,NA,NA,NA
89406,Churchill County,NV,NA,NA,NA,NA,54.40729483282675
89502,Washoe County,NV,NA,NA,NA,NA,39.209726443769
89506,Washoe County,NV,NA,NA,NA,30.642201834862387,NA
03053,Rockingham County,NH,NA,NA,NA,75.77981651376146,NA
03060,Hillsborough County,NH,NA,NA,NA,11.192660550458717,NA
03103,Hillsborough County,NH,NA,NA,NA,NA,23.70820668693009
03110,Hillsborough County,NH,NA,NA,NA,35.77981651376147,NA
03301,Merrimack County,NH,NA,NA,NA,NA,5.167173252279635
03743,Sullivan County,NH,NA,NA,82.4634655532359,NA,35.86626139817629
03755,Grafton County,NH,NA,NA,NA,81.28440366972477,NA
03862,Rockingham County,NH,93.48370927318295,NA,NA,NA,NA
03865,Rockingham County,NH,71.9298245614035,NA,68.89352818371609,NA,NA
07006,Essex County,NJ,NA,NA,NA,47.88990825688074,80.85106382978722
07011,Passaic County,NJ,NA,NA,NA,NA,84.19452887537993
07042,Essex County,NJ,75.43859649122807,NA,NA,NA,NA
07054,Morris County,NJ,NA,NA,79.54070981210856,NA,NA
07055,Passaic County,NJ,NA,NA,NA,3.486238532110092,NA
07078,Essex County,NJ,90.47619047619048,NA,NA,NA,NA
07087,Hudson County,NJ,NA,16.666666666666664,NA,NA,6.68693009118541
07092,Union County,NJ,NA,NA,NA,97.9816513761468,NA
07305,Hudson County,NJ,NA,0.9803921568627451,7.306889352818372,NA,NA
07405,Morris County,NJ,66.66666666666666,NA,NA,NA,NA
07424,Passaic County,NJ,99.74937343358395,NA,NA,NA,NA
07463,Bergen County,NJ,NA,NA,98.32985386221294,NA,NA
07501,Passaic County,NJ,NA,NA,NA,NA,54.1033434650456
07514,Passaic County,NJ,NA,88.23529411764706,NA,NA,NA
07607,Bergen County,NJ,NA,66.66666666666666,NA,NA,NA
07640,Bergen County,NJ,NA,NA,NA,NA,97.56838905775076
07642,Bergen County,NJ,81.95488721804512,NA,NA,NA,NA
07724,Monmouth County,NJ,NA,27.450980392156865,32.5678496868476,NA,NA
07731,Monmouth County,NJ,76.94235588972431,NA,NA,NA,NA
07853,Morris County,NJ,NA,NA,NA,94.12844036697248,NA
07882,Warren County,NJ,NA,NA,NA,NA,71.42857142857143
08005,Ocean County,NJ,NA,61.76470588235294,NA,NA,NA
08007,Camden County,NJ,NA,NA,96.24217118997912,NA,NA
08021,Camden County,NJ,NA,NA,0.41753653444676403,NA,NA
08046,Burlington County,NJ,NA,NA,8.350730688935283,NA,NA
08057,Burlington County,NJ,NA,NA,NA,NA,60.48632218844985
08060,Burlington County,NJ,NA,NA,NA,33.76146788990826,NA
08081,Camden County,NJ,NA,NA,2.2964509394572024,NA,NA
08096,Gloucester County,NJ,NA,NA,NA,8.073394495412845,NA
08102,Camden County,NJ,NA,NA,37.78705636743215,NA,NA
08105,Camden County,NJ,NA,NA,NA,44.03669724770643,NA
08204,Cape May County,NJ,58.89724310776943,NA,NA,NA,NA
08302,Cumberland County,NJ,NA,2.941176470588235,NA,NA,NA
08312,Gloucester County,NJ,93.734335839599,NA,NA,NA,NA
08330,Atlantic County,NJ,NA,NA,NA,29.908256880733948,NA
08611,Mercer County,NJ,NA,92.64705882352942,NA,NA,NA
08701,Ocean County,NJ,NA,NA,NA,8.807339449541285,NA
08721,Ocean County,NJ,NA,NA,30.89770354906054,NA,NA
08755,Ocean County,NJ,NA,NA,NA,NA,13.069908814589665
08822,Hunterdon County,NJ,NA,NA,NA,NA,51.3677811550152
08831,Middlesex County,NJ,NA,NA,NA,NA,1.21580547112462
87013,Sandoval County,NM,NA,75.49019607843137,NA,NA,NA
87015,Santa Fe County,NM,NA,NA,79.95824634655533,NA,NA
87031,Valencia County,NM,NA,NA,NA,29.541284403669728,NA
87052,Sandoval County,NM,NA,68.13725490196079,NA,NA,NA
87102,Bernalillo County,NM,NA,NA,NA,47.33944954128441,NA
87105,Bernalillo County,NM,NA,NA,5.010438413361169,NA,NA
87106,Bernalillo County,NM,NA,NA,NA,73.21100917431193,NA
87108,Bernalillo County,NM,11.528822055137844,NA,NA,NA,NA
87110,Bernalillo County,NM,NA,NA,NA,9.357798165137615,NA
87144,Sandoval County,NM,NA,NA,25.052192066805844,NA,NA
87301,McKinley County,NM,NA,NA,NA,NA,93.00911854103343
87401,San Juan County,NM,NA,NA,20.668058455114824,72.29357798165138,NA
88001,Doa Ana County,NM,NA,NA,NA,64.40366972477064,NA
88007,Doa Ana County,NM,NA,66.17647058823529,NA,NA,NA
88061,Grant County,NM,NA,NA,72.86012526096033,NA,NA
88201,Chaves County,NM,26.065162907268167,NA,69.72860125260961,NA,NA
88203,Chaves County,NM,NA,NA,NA,18.34862385321101,NA
88242,Lea County,NM,NA,71.07843137254902,NA,NA,NA
88352,Otero County,NM,NA,NA,NA,76.5137614678899,NA
10003,New York County,NY,NA,NA,NA,39.26605504587156,NA
10009,New York County,NY,NA,NA,NA,4.220183486238533,NA
10014,New York County,NY,NA,NA,NA,54.67889908256881,NA
10021,New York County,NY,NA,NA,NA,25.871559633027523,NA
10025,New York County,NY,NA,NA,NA,NA,21.27659574468085
10026,New York County,NY,NA,NA,NA,NA,39.81762917933131
10028,New York County,NY,NA,NA,NA,30.825688073394495,NA
10029,New York County,NY,NA,0,NA,NA,NA
10032,New York County,NY,NA,NA,NA,68.80733944954129,NA
10034,New York County,NY,NA,NA,NA,16.69724770642202,NA
10312,Richmond County,NY,NA,NA,NA,61.284403669724774,NA
10451,Bronx County,NY,4.761904761904762,NA,NA,NA,NA
10452,Bronx County,NY,NA,3.431372549019608,NA,NA,NA
10453,Bronx County,NY,NA,1.9607843137254901,1.4613778705636742,NA,NA
10455,Bronx County,NY,NA,8.823529411764707,NA,NA,NA
10457,Bronx County,NY,NA,NA,NA,0.5504587155963303,NA
10467,Bronx County,NY,NA,0.49019607843137253,0.8350730688935281,NA,NA
10468,Bronx County,NY,NA,NA,13.987473903966595,NA,NA
10470,Bronx County,NY,NA,NA,NA,NA,73.86018237082067
10550,Westchester County,NY,19.298245614035086,NA,NA,NA,NA
10566,Westchester County,NY,NA,NA,NA,69.35779816513762,NA
10583,Westchester County,NY,NA,NA,NA,NA,30.3951367781155
10705,Westchester County,NY,NA,NA,NA,27.522935779816514,NA
10950,Orange County,NY,56.14035087719298,NA,NA,NA,NA
10990,Orange County,NY,NA,NA,91.8580375782881,38.53211009174312,NA
11101,Queens County,NY,NA,23.03921568627451,NA,NA,NA
11102,Queens County,NY,NA,NA,NA,NA,46.808510638297875
11106,Queens County,NY,83.20802005012531,NA,NA,NA,NA
11208,Kings County,NY,NA,2.450980392156863,1.6701461377870561,NA,NA
11209,Kings County,NY,NA,24.019607843137255,NA,NA,NA
11212,Kings County,NY,NA,NA,22.338204592901878,NA,NA
11213,Kings County,NY,NA,NA,46.5553235908142,NA,NA
11220,Kings County,NY,12.280701754385964,NA,NA,NA,NA
11221,Kings County,NY,NA,4.411764705882353,NA,NA,NA
11233,Kings County,NY,NA,NA,2.5052192066805845,NA,11.854103343465045
11236,Kings County,NY,NA,NA,NA,7.706422018348624,8.814589665653495
11239,Kings County,NY,NA,NA,NA,72.11009174311927,NA
11368,Queens County,NY,NA,12.745098039215685,NA,NA,NA
11377,Queens County,NY,NA,27.941176470588236,NA,NA,NA
11412,Queens County,NY,NA,32.35294117647059,NA,NA,NA
11413,Queens County,NY,NA,33.82352941176471,NA,NA,NA
11417,Queens County,NY,NA,NA,NA,51.19266055045871,NA
11418,Queens County,NY,NA,13.725490196078432,NA,NA,NA
11421,Queens County,NY,NA,12.254901960784313,NA,NA,NA
11432,Queens County,NY,NA,21.568627450980394,NA,NA,NA
11558,Nassau County,NY,NA,NA,NA,79.26605504587157,NA
11733,Suffolk County,NY,NA,NA,NA,84.77064220183486,NA
11746,Suffolk County,NY,NA,30.88235294117647,NA,NA,NA
11776,Suffolk County,NY,NA,NA,NA,55.41284403669725,NA
11789,Suffolk County,NY,NA,81.86274509803921,NA,NA,NA
12037,Columbia County,NY,NA,NA,NA,NA,89.96960486322189
12303,Schenectady County,NY,NA,NA,NA,41.467889908256886,NA
12919,Clinton County,NY,95.23809523809523,NA,NA,NA,NA
13029,Onondaga County,NY,NA,NA,74.53027139874739,NA,NA
13031,Onondaga County,NY,NA,NA,NA,56.69724770642202,NA
13167,Oswego County,NY,NA,NA,NA,99.44954128440368,NA
13204,Onondaga County,NY,NA,NA,63.04801670146137,NA,NA
13317,Montgomery County,NY,NA,NA,93.73695198329854,NA,NA
13323,Oneida County,NY,NA,NA,NA,49.72477064220184,NA
13326,Otsego County,NY,NA,NA,NA,NA,36.17021276595745
13438,Oneida County,NY,NA,NA,NA,92.84403669724772,NA
13492,Oneida County,NY,NA,NA,NA,48.62385321100918,NA
13617,St. Lawrence County,NY,28.07017543859649,NA,NA,NA,NA
13669,St. Lawrence County,NY,NA,NA,26.722338204592898,NA,NA
13760,Broome County,NY,1.0025062656641603,NA,NA,18.53211009174312,NA
13820,Otsego County,NY,NA,NA,NA,6.605504587155964,NA
13850,Broome County,NY,NA,NA,NA,NA,3.64741641337386
13856,Delaware County,NY,NA,40.19607843137255,NA,NA,NA
13901,Broome County,NY,NA,32.84313725490196,NA,NA,NA
13905,Broome County,NY,NA,NA,2.7139874739039667,NA,NA
14001,Erie County,NY,NA,NA,NA,80.55045871559633,NA
14020,Genesee County,NY,65.91478696741855,NA,NA,NA,NA
14043,Erie County,NY,60.150375939849624,NA,NA,NA,NA
14048,Chautauqua County,NY,26.81704260651629,NA,NA,NA,NA
14075,Erie County,NY,NA,NA,12.734864300626306,NA,NA
14086,Erie County,NY,NA,NA,24.63465553235908,NA,62.00607902735562
14120,Niagara County,NY,NA,NA,27.348643006263046,NA,NA
14127,Erie County,NY,NA,NA,18.997912317327767,NA,NA
14201,Erie County,NY,NA,66.66666666666666,NA,NA,NA
14206,Erie County,NY,NA,NA,16.910229645093946,NA,NA
14215,Erie County,NY,NA,NA,2.9227557411273484,NA,NA
14217,Erie County,NY,NA,NA,96.86847599164928,NA,NA
14220,Erie County,NY,6.7669172932330826,NA,NA,NA,NA
14221,Erie County,NY,15.288220551378446,NA,NA,NA,NA
14411,Orleans County,NY,NA,NA,32.77661795407098,NA,NA
14424,Ontario County,NY,8.771929824561402,NA,NA,NA,NA
14432,Ontario County,NY,NA,99.01960784313727,NA,NA,NA
14450,Monroe County,NY,0.5012531328320802,NA,NA,NA,NA
14487,Livingston County,NY,NA,NA,77.24425887265136,NA,NA
14521,Seneca County,NY,NA,NA,NA,95.59633027522936,NA
14534,Monroe County,NY,2.2556390977443606,NA,8.977035490605429,1.834862385321101,4.25531914893617
14559,Monroe County,NY,NA,NA,NA,NA,31.914893617021278
14564,Ontario County,NY,23.55889724310777,NA,23.799582463465555,NA,NA
14586,Monroe County,NY,NA,NA,38.413361169102295,NA,NA
14589,Wayne County,NY,NA,NA,NA,44.22018348623853,NA
14606,Monroe County,NY,NA,30.392156862745097,NA,NA,NA
14607,Monroe County,NY,NA,NA,22.755741127348646,NA,NA
14609,Monroe County,NY,2.756892230576441,NA,NA,NA,NA
14611,Monroe County,NY,NA,NA,10.020876826722338,NA,NA
14612,Monroe County,NY,NA,NA,3.7578288100208765,NA,NA
14618,Monroe County,NY,NA,NA,20.250521920668056,NA,NA
14621,Monroe County,NY,NA,6.862745098039216,NA,NA,NA
14622,Monroe County,NY,32.08020050125313,NA,NA,NA,NA
14624,Monroe County,NY,NA,NA,4.3841336116910234,2.385321100917431,NA
14701,Chautauqua County,NY,NA,20.098039215686274,NA,2.2018348623853212,NA
14706,Cattaraugus County,NY,67.41854636591479,NA,NA,NA,NA
14724,Chautauqua County,NY,98.99749373433583,NA,NA,NA,NA
14760,Cattaraugus County,NY,NA,NA,NA,13.394495412844037,NA
27028,Davie County,NC,NA,36.76470588235294,NA,NA,NA
27030,Surry County,NC,NA,NA,9.18580375782881,NA,NA
27043,Stokes County,NC,NA,NA,NA,66.05504587155964,NA
27045,Forsyth County,NC,NA,NA,73.90396659707724,NA,NA
27103,Forsyth County,NC,NA,NA,75.99164926931107,NA,0.911854103343465
27104,Forsyth County,NC,NA,NA,NA,5.688073394495413,NA
27262,Guilford County,NC,33.583959899749374,NA,NA,NA,NA
27278,Orange County,NC,78.44611528822055,NA,NA,13.761467889908257,NA
27284,Forsyth County,NC,NA,45.588235294117645,9.812108559498958,NA,NA
27302,Alamance County,NC,63.1578947368421,NA,NA,45.137614678899084,NA
27312,Chatham County,NC,NA,NA,NA,19.08256880733945,NA
27320,Rockingham County,NC,NA,NA,NA,9.541284403669724,NA
27360,Davidson County,NC,NA,35.78431372549019,NA,NA,NA
27370,Randolph County,NC,NA,NA,NA,60.18348623853211,79.33130699088146
27406,Guilford County,NC,29.07268170426065,NA,6.05427974947808,NA,NA
27545,Wake County,NC,NA,NA,47.80793319415449,NA,NA
27576,Johnston County,NC,50.125313283208015,NA,NA,NA,NA
27591,Wake County,NC,61.904761904761905,NA,NA,NA,NA
27703,Durham County,NC,46.8671679197995,NA,NA,NA,61.702127659574465
27707,Durham County,NC,NA,NA,NA,7.339449541284404,NA
27712,Durham County,NC,58.1453634085213,NA,NA,NA,41.641337386018236
27858,Pitt County,NC,NA,NA,NA,85.87155963302753,NA
27886,Edgecombe County,NC,55.388471177944865,NA,NA,NA,NA
27893,Wilson County,NC,NA,50,NA,NA,NA
28016,Gaston County,NC,NA,NA,49.06054279749478,62.20183486238532,NA
28031,Mecklenburg County,NC,NA,NA,NA,NA,65.95744680851064
28056,Gaston County,NC,NA,NA,NA,47.706422018348626,NA
28073,Cleveland County,NC,NA,NA,NA,89.72477064220183,NA
28110,Union County,NC,NA,NA,NA,NA,17.933130699088146
28115,Iredell County,NC,26.065162907268167,NA,NA,NA,NA
28129,Stanly County,NC,NA,NA,96.4509394572025,NA,NA
28146,Rowan County,NC,NA,NA,38.62212943632568,NA,NA
28152,Cleveland County,NC,84.71177944862156,NA,NA,NA,NA
28205,Mecklenburg County,NC,NA,NA,NA,26.788990825688074,NA
28215,Mecklenburg County,NC,NA,NA,NA,18.89908256880734,NA
28327,Moore County,NC,NA,NA,NA,61.8348623853211,NA
28328,Sampson County,NC,69.92481203007519,NA,NA,NA,NA
28420,Brunswick County,NC,NA,NA,97.28601252609603,NA,NA
28443,Pender County,NC,61.904761904761905,NA,NA,NA,NA
28461,Brunswick County,NC,NA,NA,NA,NA,19.45288753799392
28462,Brunswick County,NC,NA,NA,NA,NA,81.15501519756839
28472,Columbus County,NC,NA,NA,41.962421711899786,43.30275229357798,NA
28580,Greene County,NC,80.45112781954887,NA,NA,NA,NA
28645,Caldwell County,NC,NA,3.9215686274509802,NA,NA,NA
28650,Catawba County,NC,NA,NA,67.4321503131524,NA,NA
28677,Iredell County,NC,NA,NA,19.206680584551147,NA,NA
28712,Transylvania County,NC,NA,79.90196078431373,52.81837160751566,NA,NA
28713,Swain County,NC,80.20050125313283,NA,NA,NA,NA
28715,Buncombe County,NC,NA,NA,52.19206680584551,NA,NA
28734,Macon County,NC,24.81203007518797,NA,NA,NA,NA
28741,Macon County,NC,NA,NA,NA,NA,87.2340425531915
28752,McDowell County,NC,NA,NA,NA,NA,65.34954407294833
28759,Henderson County,NC,NA,NA,NA,NA,83.28267477203647
28779,Jackson County,NC,NA,NA,NA,60,NA
28792,Henderson County,NC,15.538847117794486,NA,NA,NA,NA
28803,Buncombe County,NC,NA,NA,NA,31.009174311926607,NA
58078,Cass County,ND,7.518796992481203,NA,31.941544885177453,NA,NA
58103,Cass County,ND,1.2531328320802004,NA,NA,NA,1.5197568389057752
58104,Cass County,ND,NA,NA,37.160751565762006,NA,NA
58201,Grand Forks County,ND,NA,NA,NA,6.055045871559633,NA
58401,Stutsman County,ND,NA,NA,NA,NA,47.41641337386018
58504,Burleigh County,ND,NA,NA,56.78496868475992,NA,NA
58701,Ward County,ND,NA,NA,60.75156576200418,NA,1.82370820668693
43015,Delaware County,OH,NA,NA,NA,NA,5.47112462006079
43017,Franklin County,OH,NA,NA,NA,36.14678899082569,NA
43025,Licking County,OH,NA,NA,93.31941544885177,NA,NA
43026,Franklin County,OH,NA,16.176470588235293,NA,NA,NA
43050,Knox County,OH,NA,43.627450980392155,NA,NA,NA
43062,Licking County,OH,NA,NA,89.97912317327767,NA,NA
43078,Champaign County,OH,NA,NA,NA,NA,72.94832826747721
43207,Franklin County,OH,NA,13.23529411764706,NA,NA,NA
43213,Franklin County,OH,29.32330827067669,NA,NA,NA,NA
43219,Franklin County,OH,NA,18.627450980392158,NA,NA,NA
43224,Franklin County,OH,NA,5.392156862745098,31.732776617954073,NA,NA
43230,Franklin County,OH,6.265664160401002,NA,19.41544885177453,NA,NA
43326,Hardin County,OH,NA,NA,89.56158663883089,NA,NA
43402,Wood County,OH,NA,NA,NA,NA,58.05471124620061
43543,Williams County,OH,NA,NA,70.35490605427975,NA,NA
43551,Wood County,OH,64.91228070175438,NA,17.118997912317326,NA,NA
43558,Fulton County,OH,38.34586466165413,NA,NA,NA,NA
43608,Lucas County,OH,4.260651629072681,NA,NA,NA,NA
43609,Lucas County,OH,NA,NA,6.8893528183716075,NA,NA
43616,Lucas County,OH,NA,NA,16.701461377870565,NA,NA
43623,Lucas County,OH,NA,NA,32.35908141962422,NA,NA
43701,Muskingum County,OH,0,NA,1.2526096033402923,NA,NA
43725,Guernsey County,OH,NA,NA,NA,6.422018348623854,NA
43764,Perry County,OH,82.70676691729322,NA,NA,NA,NA
43812,Coshocton County,OH,NA,NA,8.1419624217119,NA,NA
43968,Columbiana County,OH,NA,NA,NA,64.58715596330276,NA
44012,Lorain County,OH,NA,NA,83.08977035490605,34.12844036697248,NA
44017,Cuyahoga County,OH,60.6516290726817,NA,NA,NA,NA
44022,Cuyahoga County,OH,NA,NA,NA,28.073394495412845,NA
44024,Geauga County,OH,NA,NA,NA,15.229357798165138,NA
44026,Geauga County,OH,NA,NA,NA,51.92660550458715,NA
44030,Ashtabula County,OH,NA,NA,NA,15.59633027522936,NA
44039,Lorain County,OH,NA,NA,12.31732776617954,2.9357798165137616,NA
44052,Lorain County,OH,NA,NA,4.592901878914405,NA,NA
44053,Lorain County,OH,NA,NA,11.691022964509393,5.137614678899083,NA
44055,Lorain County,OH,NA,NA,12.943632567849686,NA,NA
44067,Summit County,OH,NA,NA,40.91858037578288,NA,NA
44077,Lake County,OH,5.263157894736842,NA,NA,NA,NA
44094,Lake County,OH,NA,NA,22.546972860125262,NA,NA
44095,Lake County,OH,NA,NA,24.843423799582464,NA,NA
44102,Cuyahoga County,OH,NA,1.4705882352941175,NA,NA,NA
44103,Cuyahoga County,OH,NA,NA,92.69311064718163,NA,NA
44104,Cuyahoga County,OH,NA,NA,5.845511482254697,NA,NA
44105,Cuyahoga County,OH,NA,NA,NA,0,NA
44109,Cuyahoga County,OH,NA,NA,NA,1.4678899082568808,NA
44110,Cuyahoga County,OH,NA,18.137254901960784,57.82881002087683,NA,NA
44111,Cuyahoga County,OH,NA,NA,75.5741127348643,NA,NA
44112,Cuyahoga County,OH,NA,NA,12.526096033402922,NA,NA
44113,Cuyahoga County,OH,NA,NA,12.10855949895616,NA,NA
44116,Cuyahoga County,OH,NA,NA,44.258872651356995,NA,NA
44120,Cuyahoga County,OH,35.83959899749373,NA,NA,3.302752293577982,NA
44121,Cuyahoga County,OH,NA,NA,NA,12.660550458715598,NA
44122,Cuyahoga County,OH,NA,NA,NA,28.440366972477065,NA
44124,Cuyahoga County,OH,NA,NA,NA,2.7522935779816518,NA
44128,Cuyahoga County,OH,37.84461152882205,5.88235294117647,NA,NA,NA
44131,Cuyahoga County,OH,NA,NA,46.13778705636743,NA,NA
44132,Cuyahoga County,OH,NA,NA,28.81002087682672,NA,NA
44137,Cuyahoga County,OH,NA,NA,NA,9.908256880733946,NA
44140,Cuyahoga County,OH,NA,NA,69.51983298538622,NA,NA
44143,Cuyahoga County,OH,NA,NA,40.08350730688935,47.1559633027523,NA
44202,Portage County,OH,NA,NA,NA,NA,9.72644376899696
44216,Summit County,OH,NA,NA,NA,96.88073394495413,NA
44221,Summit County,OH,NA,NA,NA,52.66055045871559,NA
44223,Summit County,OH,14.536340852130325,NA,NA,NA,NA
44236,Summit County,OH,NA,NA,NA,22.201834862385322,42.24924012158054
44262,Summit County,OH,NA,NA,NA,79.08256880733944,NA
44273,Medina County,OH,75.43859649122807,NA,NA,NA,NA
44278,Summit County,OH,NA,NA,NA,NA,48.632218844984806
44305,Summit County,OH,NA,NA,NA,36.69724770642202,NA
44306,Summit County,OH,NA,NA,NA,33.57798165137615,NA
44310,Summit County,OH,NA,NA,42.58872651356994,NA,NA
44313,Summit County,OH,NA,NA,35.699373695198325,NA,NA
44314,Summit County,OH,NA,NA,63.67432150313152,NA,NA
44319,Summit County,OH,NA,NA,NA,22.93577981651376,NA
44405,Mahoning County,OH,NA,NA,76.40918580375782,NA,NA
44406,Mahoning County,OH,NA,NA,58.24634655532359,NA,NA
44432,Columbiana County,OH,NA,NA,66.80584551148226,NA,NA
44444,Trumbull County,OH,NA,NA,NA,53.39449541284404,NA
44481,Trumbull County,OH,NA,NA,NA,68.9908256880734,NA
44484,Trumbull County,OH,NA,NA,34.65553235908142,NA,20.364741641337385
44485,Trumbull County,OH,NA,NA,20.45929018789144,NA,NA
44502,Mahoning County,OH,NA,NA,45.92901878914405,NA,NA
44515,Mahoning County,OH,NA,NA,NA,42.38532110091743,NA
44601,Stark County,OH,NA,NA,NA,59.082568807339456,NA
44622,Tuscarawas County,OH,NA,NA,NA,33.94495412844037,NA
44646,Stark County,OH,NA,NA,NA,12.477064220183486,NA
44654,Holmes County,OH,NA,NA,NA,80,NA
44813,Richland County,OH,NA,NA,NA,95.04587155963303,NA
44890,Huron County,OH,NA,NA,45.093945720250524,NA,NA
44903,Richland County,OH,NA,NA,21.920668058455114,NA,NA
44905,Richland County,OH,NA,NA,NA,NA,64.43768996960486
45005,Warren County,OH,NA,NA,NA,NA,32.82674772036474
45013,Butler County,OH,2.0050125313283207,NA,NA,NA,4.5592705167173255
45036,Warren County,OH,7.268170426065162,NA,NA,26.605504587155966,NA
45044,Butler County,OH,NA,NA,7.933194154488518,NA,NA
45102,Clermont County,OH,28.57142857142857,NA,NA,NA,NA
45103,Clermont County,OH,22.807017543859647,NA,NA,NA,NA
45120,Clermont County,OH,NA,NA,98.12108559498957,NA,NA
45150,Clermont County,OH,32.581453634085214,NA,NA,NA,NA
45211,Hamilton County,OH,11.027568922305765,NA,NA,NA,NA
45215,Hamilton County,OH,NA,NA,61.5866388308977,NA,NA
45217,Hamilton County,OH,76.19047619047619,NA,NA,NA,NA
45224,Hamilton County,OH,31.32832080200501,NA,NA,NA,NA
45238,Hamilton County,OH,NA,NA,17.32776617954071,NA,NA
45243,Hamilton County,OH,NA,NA,NA,77.79816513761469,NA
45251,Hamilton County,OH,NA,58.82352941176471,NA,NA,NA
45309,Montgomery County,OH,52.130325814536334,NA,NA,NA,NA
45371,Miami County,OH,NA,NA,NA,NA,69.30091185410335
45406,Montgomery County,OH,NA,NA,NA,73.57798165137615,NA
45414,Montgomery County,OH,NA,NA,65.76200417536533,NA,NA
45420,Montgomery County,OH,19.298245614035086,NA,63.465553235908146,NA,NA
45424,Montgomery County,OH,NA,NA,NA,NA,37.99392097264438
45429,Montgomery County,OH,NA,NA,NA,31.55963302752294,NA
45434,Greene County,OH,NA,NA,93.52818371607515,NA,NA
45458,Montgomery County,OH,15.037593984962406,NA,84.96868475991648,NA,NA
45619,Lawrence County,OH,NA,NA,86.63883089770354,NA,NA
45631,Gallia County,OH,39.34837092731829,NA,60.96033402922756,NA,NA
45638,Lawrence County,OH,10.526315789473683,NA,NA,NA,NA
45640,Jackson County,OH,NA,NA,9.603340292275574,NA,NA
45648,Scioto County,OH,NA,NA,30.062630480167012,NA,NA
45660,Adams County,OH,NA,NA,NA,97.43119266055047,NA
45661,Pike County,OH,NA,39.705882352941174,NA,NA,NA
45680,Lawrence County,OH,NA,NA,16.2839248434238,NA,NA
45710,Athens County,OH,79.69924812030075,NA,NA,NA,NA
45801,Allen County,OH,NA,26.47058823529412,NA,NA,NA
45804,Allen County,OH,NA,NA,91.02296450939458,NA,NA
45830,Putnam County,OH,NA,NA,98.53862212943632,NA,NA
45833,Allen County,OH,NA,73.52941176470588,NA,NA,NA
45856,Putnam County,OH,NA,NA,96.03340292275574,NA,NA
45872,Wood County,OH,NA,NA,87.2651356993737,NA,NA
45895,Auglaize County,OH,NA,NA,NA,97.24770642201835,NA
73020,Oklahoma County,OK,NA,NA,NA,NA,61.39817629179332
73025,Oklahoma County,OK,NA,NA,98.74739039665971,NA,NA
73044,Logan County,OK,NA,NA,54.90605427974948,NA,NA
73072,Cleveland County,OK,36.84210526315789,NA,NA,NA,40.121580547112465
73086,Murray County,OK,NA,NA,90.6054279749478,NA,NA
73096,Custer County,OK,NA,NA,68.05845511482255,NA,NA
73118,Oklahoma County,OK,NA,NA,NA,74.49541284403671,NA
73120,Oklahoma County,OK,NA,NA,NA,NA,18.237082066869302
73130,Oklahoma County,OK,NA,NA,NA,NA,29.78723404255319
73159,Oklahoma County,OK,NA,35.294117647058826,NA,NA,NA
73443,Carter County,OK,92.4812030075188,NA,NA,NA,NA
73533,Stephens County,OK,NA,NA,NA,NA,20.060790273556233
73701,Garfield County,OK,84.46115288220551,NA,NA,NA,NA
73703,Garfield County,OK,NA,NA,55.323590814196244,NA,NA
74008,Tulsa County,OK,NA,NA,NA,50.825688073394495,NA
74012,Tulsa County,OK,NA,NA,30.48016701461378,NA,NA
74017,Rogers County,OK,NA,NA,NA,NA,28.87537993920973
74029,Washington County,OK,94.48621553884712,NA,NA,NA,NA
74037,Tulsa County,OK,NA,NA,NA,84.95412844036697,NA
74104,Tulsa County,OK,NA,NA,NA,90.09174311926606,NA
74105,Tulsa County,OK,NA,NA,NA,46.972477064220186,NA
74114,Tulsa County,OK,NA,NA,NA,64.22018348623854,NA
74115,Tulsa County,OK,NA,NA,NA,NA,67.47720364741642
74129,Tulsa County,OK,41.854636591478695,NA,NA,NA,NA
74447,Okmulgee County,OK,NA,NA,NA,NA,48.328267477203646
74578,Latimer County,OK,NA,NA,97.07724425887265,NA,NA
74801,Pottawatomie County,OK,NA,NA,84.34237995824635,NA,NA
74960,Adair County,OK,22.05513784461153,NA,NA,NA,NA
97004,Clackamas County,OR,NA,NA,NA,96.3302752293578,NA
97007,Washington County,OR,NA,NA,82.25469728601253,NA,NA
97008,Washington County,OR,NA,NA,61.16910229645094,NA,NA
97013,Clackamas County,OR,NA,NA,62.63048016701461,NA,NA
97035,Clackamas County,OR,NA,NA,NA,62.93577981651376,NA
97071,Marion County,OR,NA,32.84313725490196,NA,NA,NA
97078,Washington County,OR,NA,NA,NA,57.43119266055046,NA
97128,Yamhill County,OR,NA,NA,NA,NA,28.267477203647417
97138,Clatsop County,OR,NA,NA,64.09185803757829,NA,NA
97146,Clatsop County,OR,NA,NA,NA,90.45871559633028,NA
97202,Multnomah County,OR,NA,NA,33.40292275574113,NA,NA
97206,Multnomah County,OR,NA,NA,47.18162839248434,NA,NA
97209,Multnomah County,OR,NA,NA,NA,85.5045871559633,NA
97212,Multnomah County,OR,NA,NA,67.01461377870564,NA,NA
97213,Multnomah County,OR,NA,NA,NA,NA,91.7933130699088
97222,Clackamas County,OR,NA,NA,NA,31.009174311926607,NA
97229,Washington County,OR,NA,NA,NA,36.3302752293578,NA
97236,Multnomah County,OR,NA,NA,NA,NA,60.790273556231
97267,Clackamas County,OR,NA,NA,NA,39.08256880733945,NA
97302,Marion County,OR,NA,NA,46.764091858037574,NA,NA
97321,Linn County,OR,67.41854636591479,NA,NA,NA,NA
97402,Lane County,OR,NA,NA,NA,NA,65.04559270516718
97424,Lane County,OR,NA,38.72549019607843,NA,NA,NA
97463,Lane County,OR,NA,89.2156862745098,NA,NA,NA
97501,Jackson County,OR,NA,42.64705882352941,NA,NA,NA
97702,Deschutes County,OR,NA,NA,NA,NA,33.130699088145896
97741,Jefferson County,OR,77.19298245614034,NA,NA,NA,NA
97814,Baker County,OR,NA,NA,NA,NA,49.24012158054711
15065,Allegheny County,PA,NA,NA,69.31106471816284,NA,NA
15101,Allegheny County,PA,NA,NA,NA,NA,68.38905775075987
15102,Allegheny County,PA,NA,NA,NA,28.256880733944957,NA
15108,Allegheny County,PA,30.576441102756892,NA,NA,NA,NA
15120,Allegheny County,PA,NA,NA,48.22546972860125,NA,NA
15210,Allegheny County,PA,NA,NA,NA,40.36697247706422,NA
15214,Allegheny County,PA,98.24561403508771,NA,NA,NA,NA
15221,Allegheny County,PA,NA,NA,21.08559498956159,NA,NA
15223,Allegheny County,PA,NA,NA,NA,81.46788990825688,NA
15226,Allegheny County,PA,NA,NA,NA,57.064220183486235,NA
15228,Allegheny County,PA,NA,NA,97.7035490605428,NA,NA
15234,Allegheny County,PA,NA,NA,NA,NA,53.191489361702125
15301,Washington County,PA,NA,NA,NA,NA,15.501519756838904
15314,Washington County,PA,NA,93.62745098039215,NA,NA,NA
15370,Greene County,PA,NA,NA,NA,NA,59.27051671732523
15701,Indiana County,PA,NA,NA,NA,16.88073394495413,NA
15834,Cameron County,PA,NA,NA,NA,NA,88.14589665653494
15905,Cambria County,PA,NA,NA,NA,NA,60.182370820668694
15931,Cambria County,PA,91.47869674185463,NA,NA,NA,NA
15956,Cambria County,PA,NA,98.52941176470588,NA,NA,NA
16056,Butler County,PA,95.73934837092732,NA,NA,NA,NA
16057,Butler County,PA,NA,NA,NA,74.31192660550458,NA
16127,Mercer County,PA,NA,NA,NA,81.65137614678899,NA
16148,Mercer County,PA,NA,NA,NA,21.467889908256883,NA
16401,Erie County,PA,NA,96.07843137254902,NA,NA,NA
16428,Erie County,PA,NA,NA,NA,92.66055045871559,NA
16509,Erie County,PA,NA,NA,NA,32.29357798165138,NA
16601,Blair County,PA,21.553884711779446,NA,13.361169102296449,NA,NA
16801,Centre County,PA,NA,NA,NA,65.3211009174312,NA
16823,Centre County,PA,NA,NA,NA,69.72477064220183,NA
16828,Centre County,PA,NA,NA,NA,NA,77.20364741641338
17036,Dauphin County,PA,NA,NA,NA,11.743119266055047,NA
17042,Lebanon County,PA,NA,NA,6.6805845511482245,NA,NA
17050,Cumberland County,PA,NA,NA,27.55741127348643,NA,NA
17078,Lebanon County,PA,NA,NA,20.876826722338205,NA,6.990881458966565
17202,Franklin County,PA,NA,NA,NA,52.11009174311927,NA
17257,Cumberland County,PA,NA,NA,NA,25.137614678899084,NA
17331,York County,PA,NA,NA,10.647181628392484,NA,NA
17356,York County,PA,NA,NA,NA,NA,41.33738601823708
17408,York County,PA,NA,NA,NA,NA,53.49544072948328
17603,Lancaster County,PA,13.533834586466165,NA,NA,NA,9.118541033434651
17815,Columbia County,PA,NA,NA,NA,NA,16.41337386018237
17821,Montour County,PA,NA,NA,31.106471816283925,NA,NA
17857,Northumberland County,PA,NA,NA,NA,49.174311926605505,NA
17922,Schuylkill County,PA,NA,NA,95.19832985386222,NA,NA
18020,Northampton County,PA,NA,NA,NA,30.091743119266056,NA
18031,Lehigh County,PA,NA,NA,NA,73.94495412844037,NA
18036,Lehigh County,PA,24.561403508771928,NA,69.93736951983298,NA,NA
18045,Northampton County,PA,NA,NA,NA,NA,12.462006079027356
18052,Lehigh County,PA,NA,NA,24.008350730688935,NA,NA
18055,Northampton County,PA,NA,NA,44.676409185803756,NA,NA
18064,Northampton County,PA,NA,NA,NA,23.30275229357798,NA
18109,Lehigh County,PA,NA,NA,62.839248434237994,NA,NA
18202,Luzerne County,PA,NA,NA,49.89561586638831,NA,NA
18353,Monroe County,PA,NA,NA,NA,63.48623853211009,NA
18360,Monroe County,PA,NA,NA,NA,76.3302752293578,NA
18466,Monroe County,PA,NA,NA,NA,66.42201834862385,NA
18702,Luzerne County,PA,NA,NA,53.65344467640919,NA,NA
18704,Luzerne County,PA,NA,NA,20.041753653444676,NA,NA
18902,Bucks County,PA,NA,NA,70.77244258872652,NA,NA
18966,Bucks County,PA,27.31829573934837,NA,NA,NA,NA
18969,Montgomery County,PA,88.22055137844612,NA,NA,NA,NA
19001,Montgomery County,PA,NA,97.05882352941177,NA,NA,NA
19064,Delaware County,PA,9.273182957393484,NA,NA,NA,NA
19087,Chester County,PA,NA,NA,53.444676409185796,NA,NA
19094,Delaware County,PA,NA,NA,NA,85.68807339449542,NA
19115,Philadelphia County,PA,63.65914786967418,NA,NA,NA,NA
19116,Philadelphia County,PA,NA,NA,34.44676409185804,NA,NA
19120,Philadelphia County,PA,NA,NA,NA,5.5045871559633035,NA
19123,Philadelphia County,PA,NA,NA,NA,72.47706422018348,NA
19124,Philadelphia County,PA,NA,NA,1.8789144050104383,NA,NA
19126,Philadelphia County,PA,NA,77.94117647058823,NA,NA,NA
19134,Philadelphia County,PA,NA,NA,NA,15.045871559633028,NA
19142,Philadelphia County,PA,NA,NA,NA,41.65137614678899,NA
19335,Chester County,PA,NA,NA,21.29436325678497,NA,NA
19341,Chester County,PA,60.40100250626567,NA,NA,NA,NA
19342,Delaware County,PA,50.37593984962406,NA,NA,NA,NA
19348,Chester County,PA,61.65413533834586,NA,NA,NA,NA
19352,Chester County,PA,NA,NA,89.35281837160751,NA,NA
19365,Chester County,PA,92.98245614035088,NA,NA,NA,NA
19401,Montgomery County,PA,NA,NA,NA,NA,40.121580547112465
19403,Montgomery County,PA,NA,NA,NA,NA,7.29483282674772
19425,Chester County,PA,91.22807017543859,NA,NA,NA,NA
19444,Montgomery County,PA,NA,NA,NA,86.42201834862385,NA
19601,Berks County,PA,NA,9.313725490196079,NA,NA,NA
19604,Berks County,PA,NA,7.8431372549019605,NA,NA,NA
19606,Berks County,PA,NA,44.6078431372549,NA,NA,NA
02809,Bristol County,RI,NA,NA,61.37787056367432,NA,NA
02828,Providence County,RI,NA,NA,NA,NA,89.66565349544074
02863,Providence County,RI,NA,NA,66.17954070981212,NA,NA
02885,Bristol County,RI,NA,NA,81.21085594989562,NA,NA
02886,Kent County,RI,29.82456140350877,NA,NA,NA,NA
02889,Kent County,RI,NA,NA,30.68893528183716,NA,NA
29047,Orangeburg County,SC,NA,NA,NA,NA,92.401215805471125
29055,Chester County,SC,NA,NA,NA,NA,100
29142,Orangeburg County,SC,NA,NA,99.58246346555325,NA,NA
29150,Sumter County,SC,NA,80.88235294117648,NA,NA,NA
29209,Richland County,SC,NA,NA,NA,48.25688073394495,NA
29223,Richland County,SC,NA,NA,28.60125260960334,NA,NA
29407,Charleston County,SC,NA,NA,43.63256784968685,13.027522935779817,18.84498480243161
29412,Charleston County,SC,NA,NA,NA,20.55045871559633,NA
29455,Charleston County,SC,NA,NA,NA,32.477064220183486,NA
29456,Dorchester County,SC,NA,NA,NA,77.43119266055047,NA
29483,Dorchester County,SC,5.513784461152882,NA,NA,NA,NA
29485,Dorchester County,SC,27.06766917293233,NA,NA,NA,NA
29486,Berkeley County,SC,NA,NA,61.79540709812108,NA,NA
29501,Florence County,SC,18.045112781954884,NA,NA,NA,NA
29532,Darlington County,SC,NA,NA,65.1356993736952,NA,NA
29576,Horry County,SC,NA,NA,NA,12.293577981651376,54.7112462006079
29609,Greenville County,SC,54.88721804511278,NA,NA,NA,49.544072948328264
29672,Oconee County,SC,NA,NA,NA,67.52293577981652,NA
29687,Greenville County,SC,NA,NA,37.578288100208766,NA,NA
29732,York County,SC,41.35338345864661,NA,NA,NA,NA
29803,Aiken County,SC,NA,NA,NA,NA,22.188449848024316
29812,Barnwell County,SC,NA,NA,NA,NA,91.1854103343465
29860,Edgefield County,SC,NA,61.274509803921575,NA,NA,NA
29906,Beaufort County,SC,NA,NA,NA,57.247706422018354,NA
29924,Hampton County,SC,94.73684210526315,NA,NA,NA,NA
57006,Brookings County,SD,NA,NA,66.59707724425887,NA,NA
57078,Yankton County,SD,NA,NA,NA,NA,88.44984802431611
57104,Minnehaha County,SD,NA,NA,65.34446764091858,NA,NA
57108,Lincoln County,SD,NA,NA,NA,NA,8.206686930091186
57110,Minnehaha County,SD,90.47619047619048,NA,NA,NA,NA
57401,Brown County,SD,NA,NA,NA,7.889908256880735,NA
37013,Davidson County,TN,NA,NA,NA,17.24770642201835,NA
37055,Dickson County,TN,72.93233082706767,NA,NA,NA,NA
37066,Sumner County,TN,NA,NA,14.40501043841336,NA,NA
37069,Williamson County,TN,NA,NA,NA,75.96330275229359,NA
37075,Sumner County,TN,NA,NA,NA,68.44036697247707,10.638297872340425
37087,Wilson County,TN,NA,NA,NA,24.587155963302752,NA
37101,Humphreys County,TN,NA,82.84313725490196,NA,NA,NA
37172,Robertson County,TN,NA,NA,NA,87.70642201834863,NA
37174,Williamson County,TN,NA,NA,NA,37.61467889908257,NA
37209,Davidson County,TN,NA,NA,NA,55.596330275229356,NA
37221,Davidson County,TN,NA,NA,89.14405010438414,NA,NA
37321,Rhea County,TN,NA,63.23529411764706,NA,NA,NA
37341,Hamilton County,TN,71.9298245614035,NA,NA,NA,NA
37379,Hamilton County,TN,33.08270676691729,NA,NA,NA,NA
37398,Franklin County,TN,NA,NA,48.643006263048015,NA,NA
37412,Hamilton County,TN,NA,NA,NA,59.44954128440367,NA
37421,Hamilton County,TN,31.32832080200501,NA,NA,NA,NA
37690,Washington County,TN,NA,NA,87.68267223382045,NA,NA
37742,Loudon County,TN,NA,NA,NA,92.11009174311927,NA
37745,Greene County,TN,NA,NA,NA,NA,40.72948328267477
37748,Roane County,TN,29.57393483709273,NA,NA,NA,NA
37763,Roane County,TN,NA,NA,69.10229645093946,NA,NA
37840,Roane County,TN,74.18546365914787,NA,NA,NA,NA
37857,Hawkins County,TN,NA,NA,NA,NA,41.94528875379939
37919,Knox County,TN,NA,NA,NA,36.88073394495413,NA
37938,Knox County,TN,NA,NA,71.81628392484343,NA,NA
38019,Tipton County,TN,61.152882205513784,NA,NA,NA,NA
38242,Henry County,TN,NA,NA,76.82672233820459,NA,NA
38305,Madison County,TN,1.7543859649122806,NA,NA,11.009174311926607,NA
38464,Lawrence County,TN,NA,NA,37.995824634655534,NA,NA
38506,Putnam County,TN,NA,NA,NA,20.733944954128443,NA
75007,Denton County,TX,NA,NA,50.31315240083507,NA,NA
75010,Denton County,TX,NA,NA,NA,92.4770642201835,NA
75013,Collin County,TX,NA,NA,NA,66.97247706422019,NA
75019,Dallas County,TX,NA,NA,NA,53.027522935779814,NA
75020,Grayson County,TX,50.37593984962406,NA,NA,NA,NA
75022,Denton County,TX,NA,NA,NA,78.34862385321101,NA
75040,Dallas County,TX,NA,NA,21.50313152400835,NA,NA
75050,Dallas County,TX,28.57142857142857,NA,NA,NA,NA
75069,Collin County,TX,24.81203007518797,NA,NA,NA,78.419452887538
75104,Dallas County,TX,NA,NA,NA,NA,73.55623100303951
75154,Ellis County,TX,NA,NA,47.59916492693111,NA,NA
75204,Dallas County,TX,NA,NA,NA,67.88990825688074,NA
75211,Dallas County,TX,NA,6.372549019607843,NA,NA,NA
75214,Dallas County,TX,NA,NA,47.390396659707726,NA,63.525835866261396
75216,Dallas County,TX,NA,11.27450980392157,NA,NA,NA
75231,Dallas County,TX,NA,25.98039215686275,NA,NA,NA
75240,Dallas County,TX,NA,NA,NA,NA,68.69300911854104
75244,Dallas County,TX,NA,NA,NA,84.58715596330275,NA
75459,Grayson County,TX,NA,NA,NA,100,NA
75482,Hopkins County,TX,40.100250626566414,NA,NA,NA,NA
75647,Gregg County,TX,NA,NA,65.97077244258872,NA,NA
75662,Gregg County,TX,NA,NA,NA,NA,77.50759878419453
75686,Camp County,TX,NA,51.470588235294116,NA,NA,NA
75703,Smith County,TX,NA,NA,NA,NA,21.88449848024316
75755,Upshur County,TX,NA,86.27450980392157,NA,98.53211009174312,NA
75758,Henderson County,TX,NA,NA,NA,73.94495412844037,NA
75840,Freestone County,TX,NA,NA,92.90187891440502,NA,NA
75904,Angelina County,TX,NA,NA,NA,NA,43.161094224924014
75941,Angelina County,TX,NA,NA,NA,83.6697247706422,NA
75948,Sabine County,TX,NA,NA,NA,NA,82.67477203647417
76010,Tarrant County,TX,NA,NA,51.98329853862212,NA,NA
76014,Tarrant County,TX,NA,NA,NA,45.87155963302752,NA
76016,Tarrant County,TX,NA,NA,NA,23.119266055045873,NA
76039,Tarrant County,TX,NA,NA,NA,61.46788990825688,NA
76063,Tarrant County,TX,NA,NA,NA,13.211009174311927,NA
76067,Palo Pinto County,TX,NA,34.31372549019608,NA,NA,NA
76082,Parker County,TX,53.88471177944862,NA,NA,NA,NA
76104,Tarrant County,TX,27.56892230576441,NA,NA,NA,NA
76105,Tarrant County,TX,NA,NA,NA,23.853211009174313,NA
76107,Tarrant County,TX,NA,NA,NA,NA,62.61398176291794
76109,Tarrant County,TX,70.17543859649122,NA,NA,NA,NA
76112,Tarrant County,TX,NA,NA,NA,NA,85.41033434650456
76116,Tarrant County,TX,NA,19.11764705882353,NA,NA,NA
76120,Tarrant County,TX,NA,NA,54.07098121085595,NA,NA
76140,Tarrant County,TX,NA,NA,NA,43.11926605504588,NA
76182,Tarrant County,TX,NA,NA,NA,34.31192660550459,NA
76234,Wise County,TX,NA,NA,NA,59.816513761467895,NA
76244,Tarrant County,TX,6.015037593984962,NA,NA,NA,NA
76273,Grayson County,TX,NA,NA,NA,70.8256880733945,NA
76502,Bell County,TX,NA,NA,NA,1.2844036697247707,24.012158054711247
76513,Bell County,TX,NA,7.8431372549019605,NA,NA,NA
76543,Bell County,TX,10.025062656641603,NA,NA,NA,NA
76634,Bosque County,TX,NA,NA,NA,88.62385321100918,NA
76643,McLennan County,TX,NA,NA,NA,62.018348623853214,NA
76705,McLennan County,TX,NA,NA,NA,39.816513761467895,NA
76710,McLennan County,TX,NA,NA,NA,NA,51.671732522796354
77004,Harris County,TX,NA,NA,NA,43.669724770642205,NA
77007,Harris County,TX,NA,NA,80.58455114822547,NA,NA
77026,Harris County,TX,NA,NA,NA,53.57798165137615,NA
77042,Harris County,TX,NA,NA,NA,99.08256880733946,NA
77062,Harris County,TX,NA,NA,64.50939457202504,NA,NA
77064,Harris County,TX,57.64411027568922,NA,NA,97.9816513761468,NA
77070,Harris County,TX,NA,NA,NA,NA,38.297872340425535
77075,Harris County,TX,NA,40.68627450980392,NA,NA,NA
77080,Harris County,TX,38.34586466165413,NA,NA,NA,NA
77339,Harris County,TX,NA,NA,NA,38.1651376146789,NA
77379,Harris County,TX,NA,NA,31.315240083507305,NA,NA
77401,Harris County,TX,68.1704260651629,NA,NA,NA,NA
77406,Fort Bend County,TX,NA,NA,NA,29.174311926605505,NA
77414,Matagorda County,TX,NA,NA,48.643006263048015,NA,NA
77429,Harris County,TX,7.518796992481203,NA,NA,NA,NA
77449,Harris County,TX,NA,14.215686274509803,NA,NA,NA
77450,Harris County,TX,NA,NA,43.0062630480167,NA,NA
77494,Fort Bend County,TX,NA,NA,85.38622129436325,NA,38.90577507598784
77503,Harris County,TX,NA,NA,NA,NA,86.01823708206688
77506,Harris County,TX,NA,37.745098039215684,NA,NA,NA
77515,Brazoria County,TX,NA,42.64705882352941,NA,NA,NA
77539,Galveston County,TX,NA,NA,55.94989561586638,NA,NA
77545,Fort Bend County,TX,36.340852130325814,NA,NA,NA,NA
77598,Harris County,TX,94.9874686716792,NA,NA,NA,NA
77656,Hardin County,TX,NA,NA,NA,NA,66.8693009118541
77662,Orange County,TX,59.64912280701754,NA,NA,NA,NA
77703,Jefferson County,TX,NA,NA,NA,91.55963302752293,93.3130699088146
77904,Victoria County,TX,35.338345864661655,NA,NA,NA,NA
77984,Lavaca County,TX,NA,NA,NA,88.07339449541286,99.69604863221885
78028,Kerr County,TX,NA,NA,NA,NA,79.0273556231003
78040,Webb County,TX,NA,NA,NA,38.899082568807344,NA
78043,Webb County,TX,NA,NA,45.72025052192067,NA,NA
78108,Guadalupe County,TX,56.64160401002506,NA,NA,NA,NA
78130,Comal County,TX,NA,NA,27.766179540709814,NA,NA
78155,Guadalupe County,TX,NA,NA,29.64509394572025,NA,NA
78164,DeWitt County,TX,NA,NA,NA,91.92660550458716,NA
78207,Bexar County,TX,NA,NA,NA,15.412844036697248,NA
78217,Bexar County,TX,NA,NA,NA,65.87155963302752,NA
78250,Bexar County,TX,12.030075187969924,NA,NA,NA,NA
78251,Bexar County,TX,NA,NA,83.7160751565762,NA,NA
78254,Bexar County,TX,NA,NA,NA,72.6605504587156,NA
78258,Bexar County,TX,17.293233082706767,NA,NA,NA,NA
78362,San Patricio County,TX,NA,NA,NA,NA,98.78419452887537
78501,Hidalgo County,TX,9.774436090225564,NA,NA,NA,NA
78521,Cameron County,TX,NA,NA,68.05845511482255,52.84403669724771,NA
78552,Cameron County,TX,NA,NA,NA,NA,62.91793313069909
78559,Cameron County,TX,NA,NA,NA,83.30275229357798,NA
78566,Cameron County,TX,69.17293233082707,NA,NA,NA,NA
78572,Hidalgo County,TX,16.541353383458645,NA,NA,NA,NA
78573,Hidalgo County,TX,17.794486215538846,NA,NA,NA,NA
78628,Williamson County,TX,NA,NA,NA,25.504587155963304,NA
78640,Hays County,TX,NA,NA,NA,73.02752293577981,NA
78648,Caldwell County,TX,NA,81.86274509803921,NA,NA,NA
78665,Williamson County,TX,NA,NA,NA,28.623853211009177,NA
78666,Hays County,TX,13.283208020050125,NA,NA,NA,NA
78759,Travis County,TX,NA,NA,NA,NA,69.6048632218845
78934,Colorado County,TX,NA,NA,88.51774530271399,NA,NA
79106,Potter County,TX,43.859649122807014,NA,NA,NA,NA
79118,Randall County,TX,NA,NA,91.44050104384134,NA,NA
79336,Hockley County,TX,53.88471177944862,NA,NA,NA,NA
79364,Lubbock County,TX,NA,NA,NA,NA,97.87234042553192
79424,Lubbock County,TX,NA,NA,NA,9.724770642201836,20.66869300911854
79556,Nolan County,TX,NA,NA,NA,50.27522935779817,NA
79603,Taylor County,TX,NA,NA,NA,68.62385321100918,NA
79762,Ector County,TX,NA,NA,NA,40,NA
79925,El Paso County,TX,NA,NA,NA,50.825688073394495,NA
79938,El Paso County,TX,NA,NA,NA,65.13761467889908,NA
84004,Utah County,UT,84.9624060150376,NA,NA,NA,NA
84015,Davis County,UT,NA,NA,26.304801670146137,NA,67.47720364741642
84043,Utah County,UT,NA,NA,NA,67.1559633027523,NA
84044,Salt Lake County,UT,40.6015037593985,NA,NA,NA,NA
84067,Weber County,UT,NA,NA,84.13361169102296,NA,NA
84070,Salt Lake County,UT,NA,NA,NA,59.26605504587156,NA
84074,Tooele County,UT,NA,NA,NA,NA,30.69908814589666
84096,Salt Lake County,UT,NA,NA,32.98538622129436,NA,NA
84107,Salt Lake County,UT,NA,NA,45.51148225469729,NA,NA
84111,Salt Lake County,UT,NA,NA,NA,NA,87.84194528875379
84115,Salt Lake County,UT,NA,NA,90.39665970772442,NA,NA
84116,Salt Lake County,UT,NA,NA,34.864300626304804,68.25688073394495,NA
84118,Salt Lake County,UT,17.543859649122805,NA,NA,NA,NA
84319,Cache County,UT,80.95238095238095,NA,NA,NA,NA
84501,Carbon County,UT,45.614035087719294,NA,NA,NA,NA
84532,Grand County,UT,NA,NA,NA,98.71559633027523,NA
05301,Windham County,VT,NA,NA,87.05636743215031,NA,NA
05401,Chittenden County,VT,49.62406015037594,NA,NA,NA,NA
05450,Franklin County,VT,NA,NA,NA,80.36697247706422,NA
05733,Rutland County,VT,NA,NA,NA,71.74311926605505,NA
20109,Prince William County,VA,5.764411027568922,NA,NA,NA,NA
22015,Fairfax County,VA,NA,NA,55.53235908141963,NA,NA
22044,Fairfax County,VA,98.49624060150376,NA,NA,NA,NA
22101,Fairfax County,VA,NA,NA,NA,77.24770642201835,NA
22193,Prince William County,VA,NA,NA,NA,NA,44.984802431610944
22308,Fairfax County,VA,71.17794486215539,NA,NA,94.4954128440367,NA
22310,Fairfax County,VA,NA,NA,NA,94.3119266055046,NA
22401,Fredericksburg city,VA,NA,NA,NA,NA,63.22188449848024
22407,Spotsylvania County,VA,NA,NA,NA,18.71559633027523,NA
22802,Harrisonburg city,VA,18.546365914786968,NA,NA,50.091743119266056,NA
22939,Augusta County,VA,NA,NA,NA,75.04587155963303,NA
22980,Waynesboro city,VA,NA,NA,13.152400835073069,NA,NA
23228,Henrico County,VA,82.20551378446115,NA,NA,NA,NA
23236,Chesterfield County,VA,NA,NA,64.50939457202504,NA,NA
23320,Chesapeake city,VA,20.80200501253133,NA,NA,NA,NA
23324,Chesapeake city,VA,NA,NA,NA,80.18348623853211,NA
23434,Suffolk city,VA,NA,NA,NA,10.275229357798166,NA
23452,Virginia Beach city,VA,NA,NA,NA,NA,9.422492401215806
23455,Virginia Beach city,VA,NA,NA,NA,NA,18.541033434650455
23462,Virginia Beach city,VA,NA,NA,NA,NA,55.01519756838906
23464,Virginia Beach city,VA,NA,NA,19.624217118997915,NA,NA
23505,Norfolk city,VA,NA,NA,NA,NA,83.58662613981764
23601,Newport News city,VA,77.19298245614034,NA,NA,NA,NA
23663,Hampton city,VA,NA,NA,NA,NA,66.56534954407294
23692,York County,VA,NA,NA,NA,NA,42.5531914893617
23838,Chesterfield County,VA,88.47117794486216,NA,NA,NA,NA
23970,Mecklenburg County,VA,NA,NA,NA,83.4862385321101,NA
24148,Henry County,VA,NA,NA,86.43006263048017,NA,NA
24179,Roanoke County,VA,NA,NA,53.027139874739035,NA,NA
24382,Wythe County,VA,NA,NA,49.26931106471816,NA,NA
24426,Alleghany County,VA,NA,66.66666666666666,NA,NA,NA
24503,Lynchburg city,VA,NA,NA,NA,NA,45.59270516717325
24630,Tazewell County,VA,79.69924812030075,NA,NA,NA,NA
98002,King County,WA,66.16541353383458,NA,NA,NA,NA
98012,Snohomish County,WA,NA,NA,NA,NA,22.492401215805472
98029,King County,WA,NA,NA,NA,62.56880733944954,65.65349544072949
98036,Snohomish County,WA,NA,NA,NA,39.44954128440367,NA
98037,Snohomish County,WA,NA,NA,NA,58.89908256880734,NA
98040,King County,WA,NA,NA,NA,NA,46.20060790273556
98059,King County,WA,47.11779448621554,NA,NA,NA,NA
98074,King County,WA,NA,NA,88.10020876826722,NA,NA
98105,King County,WA,NA,NA,82.88100208768267,NA,NA
98117,King County,WA,71.9298245614035,NA,NA,NA,NA
98125,King County,WA,NA,NA,44.258872651356995,35.04587155963303,NA
98226,Whatcom County,WA,NA,NA,NA,NA,15.19756838905775
98230,Whatcom County,WA,NA,NA,NA,88.44036697247707,NA
98233,Skagit County,WA,NA,NA,83.29853862212944,79.81651376146789,NA
98258,Snohomish County,WA,NA,NA,28.18371607515658,NA,NA
98296,Snohomish County,WA,46.365914786967416,NA,NA,NA,NA
98310,Kitsap County,WA,NA,NA,NA,65.68807339449542,NA
98321,Pierce County,WA,NA,NA,65.55323590814196,NA,NA
98337,Kitsap County,WA,98.99749373433583,NA,NA,NA,NA
98360,Pierce County,WA,48.87218045112782,NA,NA,NA,NA
98368,Jefferson County,WA,NA,NA,NA,24.036697247706424,NA
98374,Pierce County,WA,NA,NA,46.34655532359081,NA,NA
98375,Pierce County,WA,NA,NA,NA,75.22935779816514,NA
98387,Pierce County,WA,NA,55.88235294117647,NA,NA,NA
98391,Pierce County,WA,NA,NA,NA,66.05504587155964,NA
98409,Pierce County,WA,NA,NA,59.2901878914405,NA,NA
98445,Pierce County,WA,NA,NA,NA,NA,78.11550151975683
98467,Pierce County,WA,NA,NA,NA,70.45871559633028,NA
98569,Grays Harbor County,WA,NA,NA,NA,93.02752293577981,NA
98620,Klickitat County,WA,NA,NA,NA,66.60550458715596,NA
98625,Cowlitz County,WA,NA,NA,98.95615866388309,NA,NA
98632,Cowlitz County,WA,NA,NA,23.59081419624217,NA,NA
98660,Clark County,WA,NA,NA,NA,NA,96.96048632218846
98683,Clark County,WA,NA,NA,NA,70.27522935779817,NA
98686,Clark County,WA,NA,NA,99.16492693110646,NA,NA
98855,Okanogan County,WA,NA,NA,NA,NA,90.27355623100304
98926,Kittitas County,WA,NA,NA,NA,35.22935779816514,NA
99016,Spokane County,WA,NA,NA,NA,NA,74.77203647416414
99163,Whitman County,WA,64.16040100250626,NA,NA,NA,NA
99205,Spokane County,WA,NA,NA,45.3027139874739,NA,NA
99208,Spokane County,WA,NA,NA,43.84133611691023,NA,NA
99301,Franklin County,WA,1.5037593984962405,NA,NA,NA,NA
99338,Benton County,WA,NA,NA,NA,66.78899082568807,NA
99352,Benton County,WA,23.809523809523807,NA,NA,24.770642201834864,NA
20012,District of Columbia,DC,83.95989974937343,NA,NA,NA,NA
20019,District of Columbia,DC,NA,NA,5.219206680584551,NA,NA
20020,District of Columbia,DC,NA,NA,3.966597077244259,NA,NA
24954,Pocahontas County,WV,99.49874686716792,NA,NA,NA,NA
24986,Greenbrier County,WV,NA,NA,NA,93.21100917431193,NA
25053,Boone County,WV,NA,NA,86.22129436325679,NA,NA
25443,Jefferson County,WV,96.74185463659147,NA,NA,NA,NA
26003,Ohio County,WV,NA,20.588235294117645,NA,NA,NA
26070,Brooke County,WV,NA,84.31372549019608,NA,NA,NA
26101,Wood County,WV,NA,NA,7.09812108559499,NA,NA
26187,Wood County,WV,NA,NA,NA,NA,56.23100303951368
26241,Randolph County,WV,NA,NA,NA,23.669724770642205,NA
26301,Harrison County,WV,NA,41.66666666666667,NA,NA,NA
26431,Harrison County,WV,NA,NA,NA,NA,79.93920972644378
26452,Lewis County,WV,NA,NA,62.421711899791234,NA,NA
26505,Monongalia County,WV,35.83959899749373,NA,NA,NA,NA
53014,Calumet County,WI,NA,NA,73.69519832985387,NA,NA
53017,Washington County,WI,NA,NA,NA,99.63302752293578,NA
53045,Waukesha County,WI,NA,NA,NA,NA,92.70516717325228
53072,Waukesha County,WI,36.59147869674185,NA,NA,NA,NA
53073,Sheboygan County,WI,75.93984962406014,NA,NA,NA,NA
53081,Sheboygan County,WI,14.035087719298245,NA,NA,NA,NA
53083,Sheboygan County,WI,NA,NA,NA,NA,74.16413373860182
53086,Washington County,WI,83.45864661654136,NA,NA,NA,NA
53115,Walworth County,WI,NA,NA,NA,NA,47.11246200607903
53130,Milwaukee County,WI,64.16040100250626,NA,NA,NA,NA
53140,Kenosha County,WI,NA,NA,15.24008350730689,NA,NA
53142,Kenosha County,WI,NA,NA,13.778705636743215,NA,NA
53146,Waukesha County,WI,NA,NA,NA,NA,80.24316109422493
53149,Waukesha County,WI,NA,NA,NA,38.71559633027523,NA
53158,Kenosha County,WI,NA,NA,26.096033402922757,NA,NA
53172,Milwaukee County,WI,53.383458646616546,NA,NA,NA,NA
53188,Waukesha County,WI,10.776942355889723,NA,NA,NA,NA
53189,Waukesha County,WI,44.3609022556391,NA,NA,NA,NA
53202,Milwaukee County,WI,NA,NA,51.1482254697286,NA,NA
53208,Milwaukee County,WI,NA,17.647058823529413,15.44885177453027,28.807339449541285,NA
53209,Milwaukee County,WI,NA,10.784313725490197,NA,1.651376146788991,NA
53216,Milwaukee County,WI,NA,NA,8.559498956158663,NA,NA
53218,Milwaukee County,WI,NA,NA,NA,8.256880733944955,NA
53219,Milwaukee County,WI,NA,NA,NA,NA,15.80547112462006
53222,Milwaukee County,WI,64.66165413533834,NA,NA,NA,NA
53403,Racine County,WI,NA,NA,39.24843423799583,77.06422018348624,NA
53523,Dane County,WI,NA,NA,NA,78.89908256880734,NA
53536,Rock County,WI,NA,NA,NA,NA,79.63525835866263
53538,Jefferson County,WI,NA,NA,53.23590814196242,NA,NA
53546,Rock County,WI,NA,NA,NA,NA,36.77811550151976
53548,Rock County,WI,NA,NA,NA,76.88073394495413,NA
53593,Dane County,WI,86.96741854636592,NA,NA,NA,NA
53704,Dane County,WI,NA,NA,15.031315240083506,NA,NA
53805,Grant County,WI,NA,96.07843137254902,NA,NA,NA
53948,Juneau County,WI,90.22556390977444,NA,NA,NA,NA
54001,Polk County,WI,NA,NA,54.27974947807933,54.31192660550459,NA
54017,St. Croix County,WI,27.819548872180448,NA,NA,NA,NA
54021,Pierce County,WI,93.98496240601504,NA,NA,NA,NA
54115,Brown County,WI,NA,NA,49.68684759916493,NA,NA
54162,Brown County,WI,NA,NA,94.1544885177453,NA,NA
54220,Manitowoc County,WI,NA,NA,NA,NA,12.158054711246201
54302,Brown County,WI,NA,NA,NA,NA,57.75075987841946
54452,Lincoln County,WI,NA,NA,NA,48.9908256880734,NA
54455,Marathon County,WI,NA,NA,71.39874739039665,NA,NA
54646,Juneau County,WI,93.23308270676691,NA,NA,NA,NA
54660,Monroe County,WI,NA,NA,52.4008350730689,NA,NA
54701,Eau Claire County,WI,NA,NA,NA,22.385321100917434,NA
54703,Eau Claire County,WI,56.89223057644111,NA,NA,NA,NA
54751,Dunn County,WI,NA,NA,40.709812108559504,NA,NA
54843,Sawyer County,WI,NA,NA,84.75991649269311,NA,NA
54880,Douglas County,WI,0.2506265664160401,NA,NA,NA,NA
54901,Winnebago County,WI,NA,NA,NA,NA,61.09422492401215
54904,Winnebago County,WI,NA,NA,NA,NA,56.53495440729483
54911,Outagamie County,WI,NA,NA,44.05010438413361,NA,NA
54935,Fond du Lac County,WI,NA,NA,NA,14.128440366972479,NA
54937,Fond du Lac County,WI,66.66666666666666,NA,NA,NA,NA
54961,Waupaca County,WI,NA,NA,NA,46.055045871559635,NA
82930,Uinta County,WY,NA,NA,NA,NA,98.48024316109422
