ZipCode,county,state,Youth,Adult,Retirement,Geriatric
35007,Shelby County,AL,NA,NA,39.05429071803853,NA
35020,Jefferson County,AL,NA,NA,32.749562171628725,NA
35055,Cullman County,AL,NA,NA,64.62346760070052,NA
35094,Jefferson County,AL,NA,NA,87.39054290718039,NA
35126,Jefferson County,AL,NA,55.18590998043052,NA,NA
35205,Jefferson County,AL,NA,70.25440313111547,NA,NA
35209,Jefferson County,AL,67.97153024911033,NA,NA,NA
35211,Jefferson County,AL,NA,NA,25.21891418563923,NA
35212,Jefferson County,AL,NA,NA,NA,97.98994974874373
35242,Shelby County,AL,NA,34.24657534246575,NA,NA
35244,Jefferson County,AL,NA,NA,41.85639229422067,NA
35546,Fayette County,AL,86.83274021352312,NA,NA,NA
35601,Morgan County,AL,NA,NA,15.586690017513135,NA
35613,Limestone County,AL,NA,42.66144814090019,NA,NA
35670,Morgan County,AL,NA,NA,76.5323992994746,NA
35674,Colbert County,AL,NA,37.96477495107632,NA,NA
35802,Madison County,AL,75.08896797153025,NA,NA,NA
35954,Etowah County,AL,NA,NA,56.21716287215411,NA
36106,Montgomery County,AL,NA,NA,76.88266199649738,NA
36116,Montgomery County,AL,NA,22.700587084148726,NA,NA
36117,Montgomery County,AL,40.213523131672595,NA,NA,NA
36203,Calhoun County,AL,NA,NA,NA,72.8643216080402
36301,Houston County,AL,NA,NA,NA,21.85929648241206
36323,Coffee County,AL,NA,76.71232876712328,NA,NA
36350,Dale County,AL,91.81494661921708,NA,NA,NA
36360,Dale County,AL,NA,NA,38.353765323992995,NA
36526,Baldwin County,AL,44.48398576512456,NA,NA,NA
99654,Matanuska-Susitna Borough,AK,NA,NA,42.38178633975482,NA
85013,Maricopa County,AZ,82.20640569395017,NA,NA,NA
85015,Maricopa County,AZ,NA,20.743639921722114,NA,NA
85023,Maricopa County,AZ,NA,30.332681017612522,NA,NA
85032,Maricopa County,AZ,29.181494661921707,NA,NA,NA
85037,Maricopa County,AZ,58.362989323843415,NA,NA,NA
85085,Maricopa County,AZ,NA,NA,NA,81.65829145728644
85086,Maricopa County,AZ,NA,NA,NA,74.87437185929649
85123,Pinal County,AZ,NA,NA,94.39579684763572,NA
85202,Maricopa County,AZ,41.281138790035584,NA,NA,NA
85204,Maricopa County,AZ,12.099644128113878,NA,NA,NA
85210,Maricopa County,AZ,NA,25.83170254403131,NA,NA
85225,Maricopa County,AZ,NA,12.720156555772993,NA,NA
85253,Maricopa County,AZ,NA,NA,74.08056042031524,NA
85255,Maricopa County,AZ,NA,NA,43.43257443082312,NA
85282,Maricopa County,AZ,55.16014234875445,NA,NA,NA
85286,Maricopa County,AZ,33.096085409252666,NA,NA,NA
85335,Maricopa County,AZ,58.00711743772242,NA,NA,NA
85351,Maricopa County,AZ,NA,NA,NA,1.0050251256281406
85364,Yuma County,AZ,NA,NA,3.327495621716287,NA
85365,Yuma County,AZ,NA,30.919765166340508,NA,NA
85379,Maricopa County,AZ,40.569395017793596,NA,NA,NA
85381,Maricopa County,AZ,NA,NA,NA,44.221105527638194
85395,Maricopa County,AZ,80.0711743772242,NA,NA,NA
85635,Cochise County,AZ,56.22775800711744,NA,NA,NA
85648,Santa Cruz County,AZ,50.177935943060504,NA,NA,NA
85712,Pima County,AZ,NA,NA,NA,87.68844221105527
85901,Navajo County,AZ,NA,94.9119373776908,NA,NA
85941,Apache County,AZ,38.43416370106761,NA,NA,NA
86004,Coconino County,AZ,2.491103202846975,NA,NA,NA
86303,Yavapai County,AZ,NA,NA,43.957968476357266,NA
86322,Yavapai County,AZ,NA,52.64187866927593,NA,NA
86401,Mohave County,AZ,NA,NA,37.828371278458846,NA
86409,Mohave County,AZ,NA,NA,5.078809106830122,NA
72007,Lonoke County,AR,NA,NA,NA,95.97989949748744
72076,Pulaski County,AR,NA,NA,37.3029772329247,14.572864321608039
72223,Pulaski County,AR,NA,NA,62.17162872154116,NA
72401,Craighead County,AR,NA,17.22113502935421,NA,NA
72432,Poinsett County,AR,NA,NA,93.87040280210157,NA
72450,Greene County,AR,NA,NA,27.145359019264447,NA
72501,Independence County,AR,NA,70.64579256360078,28.021015761821367,NA
72543,Cleburne County,AR,NA,NA,NA,89.9497487437186
72631,Carroll County,AR,NA,99.80430528375733,NA,NA
72653,Baxter County,AR,NA,44.22700587084149,NA,NA
72703,Washington County,AR,NA,NA,NA,58.5427135678392
72762,Washington County,AR,NA,NA,60.42031523642733,NA
72921,Crawford County,AR,NA,80.82191780821918,NA,NA
72927,Logan County,AR,NA,NA,80.56042031523643,NA
90019,Los Angeles County,CA,NA,NA,NA,10.552763819095476
90057,Los Angeles County,CA,NA,NA,24.34325744308231,NA
90272,Los Angeles County,CA,NA,88.06262230919765,NA,NA
90403,Los Angeles County,CA,NA,72.40704500978474,NA,NA
90640,Los Angeles County,CA,NA,37.573385518590996,NA,NA
90805,Los Angeles County,CA,24.199288256227756,NA,NA,NA
91001,Los Angeles County,CA,NA,60.665362035225044,NA,NA
91042,Los Angeles County,CA,NA,NA,NA,73.86934673366834
91324,Los Angeles County,CA,NA,77.29941291585128,NA,NA
91340,Los Angeles County,CA,NA,67.12328767123287,NA,NA
91343,Los Angeles County,CA,NA,89.82387475538161,NA,NA
91344,Los Angeles County,CA,NA,NA,26.970227670753065,NA
91350,Los Angeles County,CA,NA,NA,NA,76.88442211055276
91406,Los Angeles County,CA,NA,53.22896281800391,NA,NA
91724,Los Angeles County,CA,NA,NA,90.01751313485113,NA
91932,San Diego County,CA,NA,NA,NA,89.19597989949749
92115,San Diego County,CA,41.99288256227758,33.659491193737765,NA,NA
92227,Imperial County,CA,NA,74.75538160469667,NA,NA
92284,San Bernardino County,CA,NA,NA,NA,57.78894472361809
92325,San Bernardino County,CA,NA,NA,NA,97.48743718592965
92335,San Bernardino County,CA,NA,38.35616438356164,NA,NA
92377,San Bernardino County,CA,NA,NA,79.15936952714536,NA
92392,San Bernardino County,CA,15.302491103202847,NA,NA,NA
92551,Riverside County,CA,NA,NA,75.65674255691769,NA
92582,Riverside County,CA,93.59430604982207,NA,NA,NA
92612,Orange County,CA,94.66192170818505,NA,NA,NA
92629,Orange County,CA,NA,NA,NA,68.5929648241206
92637,Orange County,CA,NA,NA,NA,3.2663316582914574
92649,Orange County,CA,NA,NA,31.523642732049034,NA
92656,Orange County,CA,NA,36.59491193737769,NA,NA
92683,Orange County,CA,NA,NA,21.19089316987741,NA
92705,Orange County,CA,64.76868327402136,NA,NA,NA
92802,Orange County,CA,NA,57.33855185909981,75.30647985989492,NA
92835,Orange County,CA,NA,NA,NA,19.597989949748744
93033,Ventura County,CA,NA,12.524461839530332,NA,NA
93065,Ventura County,CA,5.338078291814947,NA,NA,54.2713567839196
93230,Kings County,CA,24.199288256227756,NA,NA,NA
93240,Kern County,CA,NA,NA,93.16987740805604,NA
93263,Kern County,CA,NA,NA,89.14185639229422,NA
93292,Tulare County,CA,NA,NA,35.02626970227671,80.65326633165829
93304,Kern County,CA,NA,26.614481409001954,NA,NA
93306,Kern County,CA,NA,22.309197651663403,NA,NA
93307,Kern County,CA,NA,NA,18.388791593695274,NA
93309,Kern County,CA,NA,NA,32.57443082311734,NA
93313,Kern County,CA,NA,NA,53.76532399299475,NA
93427,Santa Barbara County,CA,98.93238434163702,NA,NA,NA
93706,Fresno County,CA,NA,25.63600782778865,NA,NA
93727,Fresno County,CA,NA,NA,27.32049036777583,NA
93728,Fresno County,CA,NA,NA,80.03502626970229,NA
93906,Monterey County,CA,NA,41.0958904109589,43.43257443082312,NA
94062,San Mateo County,CA,NA,NA,50.26269702276708,NA
94115,San Francisco County,CA,NA,NA,NA,11.809045226130653
94118,San Francisco County,CA,NA,58.9041095890411,NA,NA
94122,San Francisco County,CA,NA,NA,NA,6.78391959798995
94507,Contra Costa County,CA,NA,NA,70.75306479859896,NA
94510,Solano County,CA,NA,NA,62.87215411558669,NA
94533,Solano County,CA,NA,NA,NA,13.06532663316583
94534,Solano County,CA,NA,NA,44.483362521891415,NA
94544,Alameda County,CA,43.77224199288256,NA,NA,NA
94550,Alameda County,CA,NA,NA,37.65323992994746,NA
94558,Napa County,CA,NA,NA,NA,4.0201005025125625
94565,Contra Costa County,CA,NA,23.483365949119374,NA,NA
94587,Alameda County,CA,NA,NA,NA,13.316582914572864
94591,Solano County,CA,NA,NA,NA,17.839195979899497
94598,Contra Costa County,CA,NA,NA,55.166374781085814,NA
94707,Alameda County,CA,NA,NA,96.32224168126095,NA
94903,Marin County,CA,NA,NA,80.9106830122592,NA
94920,Marin County,CA,NA,98.23874755381604,NA,NA
95035,Santa Clara County,CA,NA,NA,47.8108581436077,NA
95076,Santa Cruz County,CA,NA,NA,NA,30.90452261306533
95112,Santa Clara County,CA,NA,NA,73.02977232924694,NA
95118,Santa Clara County,CA,80.42704626334519,NA,NA,NA
95124,Santa Clara County,CA,NA,NA,NA,39.949748743718594
95202,San Joaquin County,CA,NA,31.702544031311152,NA,NA
95338,Mariposa County,CA,92.17081850533808,NA,NA,NA
95341,Merced County,CA,NA,NA,75.65674255691769,NA
95380,Stanislaus County,CA,41.99288256227758,NA,NA,NA
95437,Mendocino County,CA,90.0355871886121,NA,NA,NA
95482,Mendocino County,CA,NA,39.138943248532286,NA,NA
95490,Mendocino County,CA,NA,NA,79.33450087565674,NA
95492,Sonoma County,CA,NA,NA,59.36952714535902,NA
95540,Humboldt County,CA,67.97153024911033,NA,NA,NA
95618,Yolo County,CA,NA,NA,91.59369527145358,NA
95623,El Dorado County,CA,NA,NA,NA,79.14572864321609
95624,Sacramento County,CA,NA,NA,NA,38.19095477386934
95628,Sacramento County,CA,NA,65.16634050880626,NA,NA
95667,El Dorado County,CA,NA,NA,4.553415061295972,NA
95672,El Dorado County,CA,NA,NA,93.6952714535902,NA
95762,El Dorado County,CA,55.871886120996436,NA,NA,NA
95959,Nevada County,CA,NA,NA,49.73730297723292,NA
95965,Butte County,CA,NA,20.15655577299413,33.09982486865149,NA
95966,Butte County,CA,NA,NA,40.280210157618214,NA
95973,Butte County,CA,NA,25.440313111545986,NA,NA
95988,Glenn County,CA,NA,NA,NA,82.91457286432161
96001,Shasta County,CA,NA,NA,NA,46.733668341708544
96019,Shasta County,CA,NA,NA,NA,91.4572864321608
96021,Tehama County,CA,NA,NA,57.4430823117338,NA
96055,Tehama County,CA,NA,NA,NA,95.47738693467338
80013,Arapahoe County,CO,NA,NA,23.46760070052539,NA
80016,Arapahoe County,CO,3.9145907473309607,25.244618395303327,NA,NA
80026,Boulder County,CO,34.87544483985765,NA,NA,NA
80120,Arapahoe County,CO,NA,65.94911937377691,NA,NA
80124,Douglas County,CO,69.7508896797153,NA,NA,NA
80125,Douglas County,CO,NA,NA,92.46935201401051,NA
80205,Denver County,CO,NA,14.090019569471623,NA,NA
80219,Denver County,CO,NA,6.066536203522505,NA,NA
80227,Jefferson County,CO,86.12099644128114,NA,NA,NA
80233,Adams County,CO,NA,29.354207436399214,51.138353765324,NA
80303,Boulder County,CO,NA,NA,88.09106830122592,NA
80401,Jefferson County,CO,NA,NA,50.0875656742557,NA
80403,Jefferson County,CO,NA,88.84540117416829,NA,NA
80517,Larimer County,CO,NA,92.17221135029354,NA,NA
80521,Larimer County,CO,79.35943060498221,NA,NA,NA
80524,Larimer County,CO,33.80782918149466,NA,29.071803852889666,NA
80525,Larimer County,CO,NA,NA,NA,8.291457286432161
80542,Weld County,CO,NA,NA,98.59894921190893,NA
80550,Weld County,CO,34.16370106761566,NA,NA,NA
80631,Weld County,CO,NA,NA,27.495621716287218,NA
80634,Weld County,CO,NA,18.199608610567513,NA,NA
80906,El Paso County,CO,NA,NA,NA,28.391959798994975
80915,El Paso County,CO,NA,69.86301369863014,NA,NA
81008,Pueblo County,CO,NA,NA,87.74080560420316,NA
81401,Montrose County,CO,NA,NA,NA,27.63819095477387
06029,Tolland County,CT,NA,NA,NA,54.52261306532663
06051,Hartford County,CT,NA,NA,54.64098073555166,NA
06052,Hartford County,CT,55.51601423487544,NA,NA,NA
06053,Hartford County,CT,27.75800711743772,NA,NA,NA
06074,Hartford County,CT,NA,NA,NA,24.623115577889447
06098,Litchfield County,CT,NA,NA,NA,39.949748743718594
06108,Hartford County,CT,NA,32.093933463796475,NA,NA
06405,New Haven County,CT,NA,NA,77.93345008756567,NA
06484,Fairfield County,CT,NA,NA,NA,15.07537688442211
06489,Hartford County,CT,NA,NA,18.038528896672503,NA
06513,New Haven County,CT,NA,NA,10.332749562171628,NA
06604,Fairfield County,CT,NA,NA,NA,63.81909547738693
06611,Fairfield County,CT,NA,NA,NA,29.64824120603015
06615,Fairfield County,CT,NA,50.88062622309197,NA,NA
06705,New Haven County,CT,NA,26.027397260273972,NA,NA
06708,New Haven County,CT,NA,NA,36.602451838879155,NA
06790,Litchfield County,CT,25.97864768683274,NA,NA,NA
06807,Fairfield County,CT,96.79715302491103,NA,NA,NA
06810,Fairfield County,CT,NA,NA,22.241681260945708,NA
06812,Fairfield County,CT,NA,NA,NA,66.33165829145729
06880,Fairfield County,CT,NA,49.902152641878665,NA,NA
06897,Fairfield County,CT,NA,91.97651663405088,NA,NA
06902,Fairfield County,CT,NA,56.360078277886494,NA,NA
19711,New Castle County,DE,NA,33.07240704500978,NA,NA
19720,New Castle County,DE,NA,18.590998043052835,NA,NA
19804,New Castle County,DE,NA,NA,45.709281961471106,NA
19805,New Castle County,DE,6.049822064056939,NA,NA,29.145728643216078
19945,Sussex County,DE,87.90035587188612,NA,NA,NA
19962,Kent County,DE,NA,NA,74.43082311733801,NA
19977,Kent County,DE,NA,NA,76.18213660245185,NA
32073,Clay County,FL,NA,NA,NA,19.849246231155778
32117,Volusia County,FL,NA,NA,NA,33.66834170854271
32164,Flagler County,FL,44.128113879003564,NA,NA,11.557788944723619
32174,Volusia County,FL,NA,NA,12.784588441331,NA
32209,Duval County,FL,NA,5.088062622309197,NA,NA
32327,Wakulla County,FL,NA,NA,NA,75.62814070351759
32331,Madison County,FL,NA,NA,97.19789842381786,NA
32404,Bay County,FL,NA,NA,NA,21.105527638190953
32408,Bay County,FL,NA,NA,66.54991243432575,NA
32413,Bay County,FL,NA,76.32093933463796,NA,NA
32431,Jackson County,FL,NA,NA,83.18739054290718,NA
32503,Escambia County,FL,NA,NA,15.061295971978982,NA
32534,Escambia County,FL,NA,45.79256360078278,NA,NA
32570,Santa Rosa County,FL,NA,NA,NA,41.959798994974875
32571,Santa Rosa County,FL,NA,NA,NA,25.376884422110553
32606,Alachua County,FL,NA,NA,30.297723292469353,NA
32618,Alachua County,FL,NA,79.06066536203522,NA,NA
32641,Alachua County,FL,NA,27.788649706457925,NA,NA
32724,Volusia County,FL,NA,NA,NA,22.613065326633166
32736,Lake County,FL,85.40925266903915,NA,NA,NA
32821,Orange County,FL,97.50889679715303,NA,NA,NA
32837,Orange County,FL,56.58362989323843,22.504892367906066,NA,NA
32907,Brevard County,FL,NA,NA,NA,18.090452261306535
33004,Broward County,FL,NA,92.17221135029354,NA,NA
33010,Miami-Dade County,FL,NA,NA,NA,11.055276381909549
33021,Broward County,FL,NA,NA,25.04378283712785,NA
33135,Miami-Dade County,FL,73.66548042704626,NA,NA,NA
33138,Miami-Dade County,FL,NA,NA,NA,47.73869346733669
33161,Miami-Dade County,FL,27.402135231316727,NA,NA,NA
33169,Miami-Dade County,FL,NA,NA,49.56217162872154,NA
33178,Miami-Dade County,FL,NA,74.36399217221134,NA,NA
33308,Broward County,FL,NA,NA,15.936952714535902,NA
33311,Broward County,FL,NA,8.21917808219178,NA,NA
33319,Broward County,FL,71.88612099644128,NA,NA,NA
33410,Palm Beach County,FL,NA,51.85909980430529,NA,NA
33411,Palm Beach County,FL,NA,NA,22.59194395796848,NA
33436,Palm Beach County,FL,NA,NA,NA,49.74874371859296
33467,Palm Beach County,FL,NA,NA,26.619964973730298,NA
33469,Palm Beach County,FL,NA,NA,57.26795096322241,25.879396984924625
33471,Glades County,FL,100,NA,NA,NA
33534,Hillsborough County,FL,74.37722419928826,NA,NA,NA
33542,Pasco County,FL,NA,NA,NA,74.62311557788944
33573,Hillsborough County,FL,95.01779359430606,NA,NA,NA
33607,Hillsborough County,FL,NA,53.03326810176125,NA,NA
33610,Hillsborough County,FL,NA,15.264187866927593,NA,NA
33618,Hillsborough County,FL,NA,NA,NA,33.41708542713568
33763,Pinellas County,FL,NA,NA,57.61821366024519,NA
33772,Pinellas County,FL,NA,NA,71.2784588441331,NA
33825,Highlands County,FL,NA,NA,NA,19.34673366834171
33852,Highlands County,FL,NA,NA,20.490367775831874,NA
33873,Hardee County,FL,NA,NA,NA,53.015075376884425
33880,Polk County,FL,NA,26.22309197651663,NA,NA
33904,Lee County,FL,NA,39.92172211350293,NA,NA
33907,Lee County,FL,NA,NA,NA,55.527638190954775
33908,Lee County,FL,NA,63.405088062622305,NA,NA
33914,Lee County,FL,53.736654804270465,NA,NA,NA
33974,Lee County,FL,39.50177935943061,80.43052837573386,NA,NA
33980,Charlotte County,FL,NA,NA,74.95621716287215,NA
34203,Manatee County,FL,NA,57.72994129158513,NA,NA
34207,Manatee County,FL,NA,NA,NA,51.507537688442206
34212,Manatee County,FL,NA,NA,55.51663747810858,NA
34219,Manatee County,FL,NA,NA,63.74781085814361,NA
34229,Sarasota County,FL,NA,NA,NA,32.41206030150754
34231,Sarasota County,FL,NA,NA,18.21366024518389,NA
34239,Sarasota County,FL,84.69750889679716,NA,NA,NA
34287,Sarasota County,FL,NA,53.8160469667319,NA,NA
34431,Marion County,FL,NA,90.8023483365949,NA,NA
34453,Citrus County,FL,NA,NA,NA,87.1859296482412
34655,Pasco County,FL,NA,NA,NA,16.331658291457288
34683,Pinellas County,FL,NA,NA,48.161120840630474,NA
34689,Pinellas County,FL,NA,NA,NA,18.592964824120603
34691,Pasco County,FL,NA,NA,NA,90.95477386934674
34711,Lake County,FL,NA,NA,30.297723292469353,NA
34731,Lake County,FL,NA,84.54011741682974,NA,NA
34758,Osceola County,FL,NA,NA,NA,62.06030150753769
34769,Osceola County,FL,NA,47.35812133072407,NA,NA
30005,Fulton County,GA,NA,72.79843444227005,NA,NA
30013,Rockdale County,GA,NA,47.162426614481404,NA,NA
30039,Gwinnett County,GA,NA,40.90019569471624,NA,NA
30044,Gwinnett County,GA,54.44839857651246,NA,NA,NA
30052,Walton County,GA,NA,19.960861056751465,NA,NA
30062,Cobb County,GA,NA,NA,49.21190893169877,NA
30066,Cobb County,GA,NA,48.53228962818004,NA,NA
30093,Gwinnett County,GA,NA,NA,NA,82.41206030150754
30096,Gwinnett County,GA,38.07829181494662,NA,NA,NA
30097,Fulton County,GA,NA,63.79647749510763,NA,NA
30144,Cobb County,GA,NA,38.35616438356164,NA,NA
30165,Floyd County,GA,NA,62.03522504892368,NA,NA
30217,Heard County,GA,NA,NA,85.28896672504378,NA
30223,Spalding County,GA,NA,39.53033268101761,NA,NA
30228,Henry County,GA,NA,33.268101761252446,NA,NA
30233,Butts County,GA,NA,NA,50.61295971978984,NA
30238,Clayton County,GA,36.29893238434164,55.57729941291585,NA,95.7286432160804
30253,Henry County,GA,NA,29.158512720156555,52.01401050788091,NA
30297,Clayton County,GA,NA,NA,76.70753064798599,NA
30306,Fulton County,GA,NA,NA,73.5551663747811,NA
30349,Fulton County,GA,NA,83.95303326810176,NA,NA
30415,Bulloch County,GA,NA,NA,NA,96.98492462311557
30417,Evans County,GA,NA,NA,85.81436077057793,NA
30507,Hall County,GA,NA,NA,NA,69.84924623115577
30512,Union County,GA,NA,NA,NA,45.22613065326633
30517,Jackson County,GA,67.25978647686833,NA,NA,NA
30519,Gwinnett County,GA,NA,NA,34.32574430823117,NA
30525,Rabun County,GA,87.18861209964413,NA,NA,NA
30536,Gilmer County,GA,NA,NA,77.05779334500875,NA
30542,Hall County,GA,NA,54.40313111545988,NA,NA
30701,Gordon County,GA,NA,NA,90.54290718038528,NA
30705,Murray County,GA,NA,31.898238747553815,NA,NA
30707,Walker County,GA,61.20996441281139,NA,NA,NA
30721,Whitfield County,GA,NA,NA,44.30823117338004,NA
30735,Gordon County,GA,NA,NA,92.11908931698774,NA
30741,Walker County,GA,NA,21.722113502935418,20.665499124343256,NA
30747,Chattooga County,GA,NA,NA,66.02451838879159,69.59798994974874
30906,Richmond County,GA,NA,NA,7.005253940455342,NA
30909,Richmond County,GA,NA,28.767123287671232,NA,NA
31023,Dodge County,GA,NA,NA,71.62872154115587,NA
31036,Pulaski County,GA,80.78291814946618,NA,NA,NA
31313,Liberty County,GA,NA,NA,72.67950963222417,NA
31406,Chatham County,GA,NA,54.59882583170255,NA,NA
31503,Ware County,GA,NA,NA,44.13309982486865,NA
31510,Bacon County,GA,NA,NA,NA,53.517587939698494
31525,Glynn County,GA,NA,NA,64.973730297723293,NA
31768,Colquitt County,GA,36.654804270462634,NA,NA,NA
31779,Mitchell County,GA,NA,NA,73.20490367775831,NA
31907,Muscogee County,GA,NA,NA,3.1523642732049035,3.015075376884422
96746,Kauai County,HI,NA,NA,69.35201401050787,NA
96786,Honolulu County,HI,NA,35.81213307240704,NA,NA
96797,Honolulu County,HI,18.86120996441281,NA,7.705779334500876,NA
96818,Honolulu County,HI,NA,54.99021526418787,NA,NA
96822,Honolulu County,HI,NA,NA,20.84063047285464,NA
96826,Honolulu County,HI,NA,43.83561643835616,NA,NA
83202,Bannock County,ID,NA,NA,87.56567425569177,NA
83338,Jerome County,ID,NA,NA,NA,37.93969849246231
83427,Bonneville County,ID,NA,99.21722113502935,NA,NA
83616,Ada County,ID,NA,NA,42.03152364273205,NA
83628,Owyhee County,ID,96.44128113879003,NA,NA,NA
83672,Washington County,ID,NA,NA,91.94395796847635,NA
83709,Ada County,ID,NA,46.57534246575342,NA,NA
60007,Cook County,IL,NA,NA,17.86339754816112,NA
60013,McHenry County,IL,NA,60.07827788649707,NA,NA
60044,Lake County,IL,NA,83.56164383561644,NA,NA
60045,Lake County,IL,NA,NA,23.642732049036777,NA
60067,Cook County,IL,NA,NA,21.015761821366024,NA
60068,Cook County,IL,53.02491103202846,NA,NA,NA
60073,Lake County,IL,46.619217081850536,NA,NA,NA
60090,Cook County,IL,NA,58.31702544031311,NA,NA
60101,DuPage County,IL,79.7153024911032,NA,NA,NA
60118,Kane County,IL,79.00355871886121,NA,NA,NA
60120,Kane County,IL,NA,29.9412915851272,NA,NA
60126,DuPage County,IL,NA,NA,NA,5.778894472361809
60152,McHenry County,IL,NA,NA,NA,60.80402010050251
60177,Kane County,IL,NA,62.230919765166334,NA,NA
60302,Cook County,IL,NA,36.399217221135025,NA,NA
60410,Will County,IL,NA,NA,70.57793345008757,NA
60435,Will County,IL,NA,NA,11.558669001751314,NA
60446,Will County,IL,NA,NA,NA,43.21608040201005
60447,Grundy County,IL,NA,59.295499021526425,NA,NA
60459,Cook County,IL,NA,NA,NA,41.20603015075377
60481,Will County,IL,NA,NA,55.69176882661997,NA
60527,DuPage County,IL,NA,53.42465753424658,NA,NA
60540,DuPage County,IL,NA,NA,NA,33.165829145728644
60561,DuPage County,IL,NA,61.64383561643836,NA,NA
60585,Will County,IL,NA,58.31702544031311,NA,NA
60586,Will County,IL,NA,16.046966731898237,NA,NA
60615,Cook County,IL,NA,NA,51.31348511383538,NA
60632,Cook County,IL,NA,NA,31.698774080560423,NA
60643,Cook County,IL,29.8932384341637,NA,NA,NA
60651,Cook County,IL,NA,NA,9.807355516637479,NA
60659,Cook County,IL,NA,48.92367906066536,NA,NA
60707,Cook County,IL,NA,22.113502935420744,NA,NA
60714,Cook County,IL,NA,NA,NA,41.70854271356784
61021,Lee County,IL,NA,NA,36.077057793345006,NA
61065,Boone County,IL,NA,NA,NA,97.23618090452261
61071,Whiteside County,IL,NA,NA,17.513134851138354,12.060301507537687
61115,Winnebago County,IL,NA,54.794520547945204,NA,NA
61265,Rock Island County,IL,NA,48.14090019569471,NA,13.5678391959799
61301,LaSalle County,IL,NA,66.34050880626224,NA,NA
61350,LaSalle County,IL,NA,78.47358121330724,NA,NA
61364,LaSalle County,IL,NA,NA,NA,42.462311557788944
61761,McLean County,IL,NA,NA,NA,32.1608040201005
61802,Champaign County,IL,NA,NA,NA,48.743718592964825
61866,Champaign County,IL,NA,NA,70.2276707530648,NA
61920,Coles County,IL,65.12455516014235,NA,NA,NA
61938,Coles County,IL,NA,46.96673189823875,40.4553415061296,NA
62010,Madison County,IL,NA,NA,69.00175131348512,NA
62208,St. Clair County,IL,NA,NA,65.8493870402802,NA
62232,St. Clair County,IL,NA,NA,88.2661996497373,NA
62249,Madison County,IL,NA,NA,66.90017513134852,NA
62450,Richland County,IL,NA,NA,NA,40.7035175879397
62557,Christian County,IL,NA,NA,79.6847635726795,NA
62702,Sangamon County,IL,NA,NA,38.003502626970224,NA
62832,Perry County,IL,NA,NA,NA,50.25125628140703
46072,Tipton County,IN,NA,79.2563600782779,NA,NA
46074,Hamilton County,IN,NA,NA,61.12084063047285,NA
46135,Putnam County,IN,NA,NA,85.11383537653239,NA
46143,Johnson County,IN,NA,59.49119373776908,NA,NA
46164,Johnson County,IN,NA,NA,99.64973730297724,NA
46201,Marion County,IN,NA,20.352250489236788,NA,NA
46203,Marion County,IN,NA,36.79060665362035,14.535901926444833,NA
46224,Marion County,IN,60.854092526690394,NA,NA,NA
46226,Marion County,IN,20.640569395017792,NA,NA,NA
46227,Marion County,IN,NA,NA,NA,4.773869346733668
46229,Marion County,IN,NA,NA,35.37653239929948,NA
46236,Marion County,IN,NA,NA,48.86164623467601,NA
46237,Marion County,IN,NA,NA,11.908931698774081,NA
46256,Marion County,IN,NA,NA,NA,59.04522613065326
46278,Marion County,IN,NA,94.32485322896281,NA,NA
46307,Lake County,IN,NA,NA,1.926444833625219,NA
46360,LaPorte County,IN,1.4234875444839856,6.457925636007827,NA,NA
46368,Porter County,IN,NA,NA,2.1015761821366024,NA
46404,Lake County,IN,NA,NA,52.01401050788091,NA
46516,Elkhart County,IN,NA,18.786692759295498,NA,NA
46563,Marshall County,IN,NA,NA,NA,17.08542713567839
46567,Kosciusko County,IN,NA,NA,NA,97.73869346733667
46582,Kosciusko County,IN,NA,NA,NA,76.63316582914574
46755,Noble County,IN,NA,30.136986301369863,NA,NA
46795,LaGrange County,IN,NA,92.75929549902152,NA,NA
46825,Allen County,IN,NA,40.11741682974559,NA,NA
46947,Cass County,IN,NA,13.111545988258316,NA,NA
46953,Grant County,IN,NA,12.32876712328767,NA,NA
47001,Dearborn County,IN,NA,NA,87.91593695271453,NA
47240,Decatur County,IN,NA,NA,57.61821366024519,NA
47250,Jefferson County,IN,NA,NA,NA,92.21105527638191
47302,Delaware County,IN,NA,NA,68.47635726795096,NA
47374,Wayne County,IN,NA,NA,3.852889667250438,NA
47404,Monroe County,IN,NA,NA,73.73029772329247,NA
47429,Monroe County,IN,NA,96.4774951076321,NA,NA
47460,Owen County,IN,NA,NA,73.38003502626971,NA
47501,Daviess County,IN,NA,NA,25.91943957968476,NA
47546,Dubois County,IN,NA,NA,NA,25.628140703517587
47620,Posey County,IN,NA,NA,NA,95.22613065326632
47803,Vigo County,IN,NA,64.38356164383562,NA,NA
47807,Vigo County,IN,67.25978647686833,91.58512720156556,NA,NA
47918,Fountain County,IN,NA,NA,82.31173380035027,NA
50022,Cass County,IA,74.73309608540926,NA,NA,NA
50138,Marion County,IA,NA,NA,NA,59.798994974874375
50213,Clarke County,IA,72.24199288256227,NA,NA,NA
50310,Polk County,IA,NA,NA,NA,41.45728643216081
50315,Polk County,IA,28.11387900355872,NA,NA,NA
50322,Polk County,IA,NA,65.55772994129158,NA,NA
50501,Webster County,IA,43.06049822064057,NA,NA,24.371859296482413
50613,Black Hawk County,IA,NA,NA,NA,23.869346733668344
50659,Chickasaw County,IA,NA,NA,88.79159369527146,NA
51401,Carroll County,IA,NA,NA,95.44658493870402,NA
51534,Mills County,IA,NA,65.75342465753424,NA,NA
51537,Shelby County,IA,NA,NA,81.61120840630473,NA
52001,Dubuque County,IA,NA,NA,NA,48.49246231155779
52136,Howard County,IA,NA,NA,NA,75.37688442211056
52246,Johnson County,IA,NA,NA,NA,92.71356783919597
52349,Benton County,IA,NA,NA,83.36252189141857,NA
52402,Linn County,IA,NA,21.135029354207436,NA,NA
52501,Wapello County,IA,NA,15.068493150684931,NA,NA
52577,Mahaska County,IA,NA,NA,43.08231173380035,NA
52655,Des Moines County,IA,NA,86.69275929549902,NA,NA
66032,Anderson County,KS,NA,NA,82.66199649737302,NA
66102,Wyandotte County,KS,NA,NA,42.20665499124343,NA
66106,Wyandotte County,KS,NA,NA,NA,89.69849246231156
66208,Johnson County,KS,NA,NA,NA,53.266331658291456
66219,Johnson County,KS,NA,NA,81.08581436077058,NA
66614,Shawnee County,KS,NA,NA,NA,51.256281407035175
66616,Shawnee County,KS,NA,NA,NA,98.99497487437185
66743,Crawford County,KS,NA,98.82583170254404,NA,NA
67205,Sedgwick County,KS,NA,NA,84.76357267950964,NA
67213,Sedgwick County,KS,NA,NA,NA,86.93467336683418
67337,Montgomery County,KS,NA,87.67123287671232,NA,NA
67432,Clay County,KS,NA,NA,97.72329246935202,NA
67601,Ellis County,KS,NA,42.857142857142854,NA,8.040201005025125
67871,Scott County,KS,82.91814946619218,NA,NA,NA
40004,Nelson County,KY,NA,20.939334637964773,29.422066549912433,NA
40019,Henry County,KY,NA,93.9334637964775,NA,NA
40031,Oldham County,KY,NA,NA,NA,44.72361809045226
40160,Hardin County,KY,51.60142348754449,NA,NA,NA
40175,Hardin County,KY,NA,NA,68.65148861646234,NA
40204,Jefferson County,KY,NA,79.45205479452055,NA,NA
40212,Jefferson County,KY,NA,62.426614481409004,NA,NA
40220,Jefferson County,KY,NA,NA,NA,20.85427135678392
40223,Jefferson County,KY,NA,NA,45.18388791593696,NA
40229,Jefferson County,KY,20.284697508896798,NA,NA,NA
40242,Jefferson County,KY,NA,NA,NA,82.1608040201005
40324,Scott County,KY,42.704626334519574,NA,NA,NA
40330,Mercer County,KY,NA,NA,51.83887915936952,NA
40361,Bourbon County,KY,64.41281138790036,NA,NA,NA
41051,Kenton County,KY,51.245551601423486,NA,NA,NA
41139,Greenup County,KY,NA,NA,58.66900175131349,NA
41339,Breathitt County,KY,NA,NA,71.97898423817864,NA
41537,Letcher County,KY,NA,NA,80.56042031523643,NA
42064,Crittenden County,KY,NA,NA,NA,88.19095477386935
42071,Calloway County,KY,NA,NA,NA,39.44723618090452
42101,Warren County,KY,NA,NA,NA,85.92964824120602
42240,Christian County,KY,NA,NA,14.886164623467602,NA
42303,Daviess County,KY,NA,NA,19.614711033274958,NA
42437,Union County,KY,NA,77.10371819960861,NA,NA
42501,Pulaski County,KY,NA,NA,59.01926444833625,35.427135678391956
42633,Wayne County,KY,NA,NA,NA,57.537688442211056
42701,Hardin County,KY,NA,11.545988258317024,11.208406304728546,NA
42728,Adair County,KY,NA,NA,85.81436077057793,NA
70037,Plaquemines Parish,LA,NA,NA,NA,94.9748743718593
70056,Jefferson Parish,LA,NA,NA,49.38704028021016,NA
70072,Jefferson Parish,LA,NA,NA,NA,29.396984924623116
70115,Orleans Parish,LA,63.70106761565836,NA,NA,NA
70123,Jefferson Parish,LA,NA,NA,19.96497373029772,NA
70126,Orleans Parish,LA,NA,6.653620352250488,NA,NA
70301,Lafourche Parish,LA,0.7117437722419928,NA,NA,NA
70359,Terrebonne Parish,LA,NA,66.92759295499022,NA,NA
70433,St. Tammany Parish,LA,NA,NA,NA,5.527638190954774
70452,St. Tammany Parish,LA,NA,NA,NA,83.16582914572864
70454,Tangipahoa Parish,LA,NA,NA,10.683012259194395,NA
70461,St. Tammany Parish,LA,NA,18.395303326810176,NA,NA
70501,Lafayette Parish,LA,NA,NA,NA,31.65829145728643
70508,Lafayette Parish,LA,13.87900355871886,NA,NA,NA
70560,Iberia Parish,LA,NA,NA,14.010507880910684,NA
70582,St. Martin Parish,LA,NA,32.4853228962818,NA,NA
70586,Evangeline Parish,LA,NA,NA,NA,47.48743718592965
70611,Calcasieu Parish,LA,NA,31.31115459882583,NA,NA
70726,Livingston Parish,LA,NA,2.152641878669276,NA,20.100502512562816
70737,Ascension Parish,LA,1.7793594306049825,NA,NA,NA
70774,Ascension Parish,LA,72.59786476868328,NA,79.50963222416813,NA
70808,East Baton Rouge Parish,LA,NA,45.20547945205479,NA,NA
71037,Bossier Parish,LA,14.590747330960854,NA,NA,NA
71047,Caddo Parish,LA,73.30960854092527,NA,NA,NA
71109,Caddo Parish,LA,96.08540925266904,NA,NA,NA
71115,Caddo Parish,LA,NA,NA,NA,37.68844221105528
71202,Ouachita Parish,LA,NA,5.870841487279844,NA,NA
71263,West Carroll Parish,LA,NA,NA,NA,55.27638190954774
71303,Rapides Parish,LA,NA,NA,NA,54.773869346733676
71378,Franklin Parish,LA,NA,99.60861056751467,NA,NA
03901,York County,ME,86.47686832740213,NA,NA,NA
04038,Cumberland County,ME,NA,56.555772994129164,NA,NA
04064,York County,ME,NA,NA,NA,30.65326633165829
04073,York County,ME,NA,26.418786692759294,NA,NA
04074,Cumberland County,ME,78.64768683274022,NA,NA,NA
04105,Cumberland County,ME,NA,93.54207436399217,NA,NA
04268,Oxford County,ME,NA,81.80039138943248,NA,NA
04401,Penobscot County,ME,NA,NA,1.5761821366024518,NA
04530,Sagadahoc County,ME,NA,NA,NA,59.54773869346733
04930,Penobscot County,ME,NA,NA,NA,93.71859296482413
04950,Somerset County,ME,69.3950177935943,NA,NA,NA
20695,Charles County,MD,89.32384341637011,NA,NA,NA
20720,Prince George's County,MD,NA,93.34637964774952,NA,NA
20737,Prince George's County,MD,NA,NA,NA,94.47236180904522
20783,Prince George's County,MD,NA,NA,81.43607705779334,NA
20855,Montgomery County,MD,91.10320284697508,NA,NA,NA
21078,Harford County,MD,NA,NA,51.31348511383538,NA
21210,Baltimore city,MD,NA,90.99804305283757,NA,77.1356783919598
21229,Baltimore city,MD,NA,NA,22.066549912434326,NA
21236,Baltimore County,MD,46.97508896797153,NA,NA,NA
21613,Dorchester County,MD,NA,NA,56.56742556917689,NA
21804,Wicomico County,MD,NA,49.11937377690802,NA,NA
21842,Worcester County,MD,NA,89.43248532289628,NA,NA
01002,Hampshire County,MA,NA,NA,NA,57.03517587939698
01040,Hampden County,MA,NA,NA,NA,1.507537688442211
01107,Hampden County,MA,NA,NA,2.8021015761821366,NA
01108,Hampden County,MA,NA,NA,6.830122591943957,NA
01109,Hampden County,MA,NA,0.19569471624266144,NA,NA
01201,Berkshire County,MA,NA,NA,NA,10.301507537688442
01220,Berkshire County,MA,NA,24.26614481409002,NA,NA
01534,Worcester County,MA,NA,NA,92.99474605954467,NA
01543,Worcester County,MA,89.6797153024911,NA,NA,NA
01545,Worcester County,MA,NA,18.98238747553816,NA,NA
01604,Worcester County,MA,NA,1.36986301369863,NA,NA
01605,Worcester County,MA,92.52669039145907,NA,NA,NA
01701,Middlesex County,MA,30.2491103202847,NA,NA,NA
01748,Middlesex County,MA,83.27402135231317,NA,NA,NA
01752,Middlesex County,MA,NA,3.326810176125244,NA,NA
01757,Worcester County,MA,NA,66.73189823874756,NA,NA
01760,Middlesex County,MA,NA,10.76320939334638,NA,NA
01824,Middlesex County,MA,NA,NA,8.581436077057793,NA
01832,Essex County,MA,NA,20.54794520547945,NA,NA
01833,Essex County,MA,NA,NA,NA,89.44723618090453
01841,Essex County,MA,4.270462633451958,NA,NA,NA
01844,Essex County,MA,NA,NA,2.9772329246935203,NA
01845,Essex County,MA,NA,NA,13.309982486865149,NA
01851,Middlesex County,MA,NA,44.81409001956947,NA,NA
01852,Middlesex County,MA,NA,0.3913894324853229,NA,NA
01890,Middlesex County,MA,NA,44.61839530332681,NA,NA
01902,Essex County,MA,NA,10.176125244618394,94.7460595446585,NA
01905,Essex County,MA,NA,NA,NA,52.01005025125628
01938,Essex County,MA,NA,NA,50.43782837127846,NA
01945,Essex County,MA,NA,NA,72.85464098073555,NA
01960,Essex County,MA,NA,NA,0.17513134851138354,NA
02019,Norfolk County,MA,NA,NA,10.157618213660244,NA
02026,Norfolk County,MA,NA,5.6751467710371815,NA,NA
02062,Norfolk County,MA,NA,NA,12.259194395796849,NA
02118,Suffolk County,MA,NA,NA,0.5253940455341506,NA
02132,Suffolk County,MA,NA,NA,NA,6.030150753768844
02140,Middlesex County,MA,43.41637010676156,NA,NA,NA
02145,Middlesex County,MA,37.72241992882562,NA,NA,9.798994974874372
02150,Suffolk County,MA,NA,NA,0.7005253940455342,NA
02151,Suffolk County,MA,NA,NA,1.7513134851138354,NA
02155,Middlesex County,MA,NA,1.761252446183953,NA,NA
02169,Norfolk County,MA,NA,NA,0,NA
02190,Norfolk County,MA,NA,NA,36.42732049036778,NA
02364,Plymouth County,MA,NA,NA,63.397548161120845,NA
02465,Middlesex County,MA,NA,NA,NA,42.71356783919598
02492,Norfolk County,MA,NA,NA,30.122591943957964,NA
02532,Barnstable County,MA,NA,90.60665362035225,NA,NA
02554,Nantucket County,MA,NA,NA,79.6847635726795,NA
02601,Barnstable County,MA,NA,NA,NA,39.19597989949749
02648,Barnstable County,MA,NA,77.29941291585128,NA,NA
02664,Barnstable County,MA,NA,NA,NA,34.17085427135678
02668,Barnstable County,MA,76.86832740213522,NA,NA,NA
02675,Barnstable County,MA,NA,80.62622309197651,NA,NA
02703,Bristol County,MA,NA,1.5655577299412915,NA,NA
02720,Bristol County,MA,NA,NA,NA,2.512562814070352
02721,Bristol County,MA,NA,NA,5.604203152364273,NA
02740,Bristol County,MA,NA,0,NA,NA
02746,Bristol County,MA,NA,76.51663405088063,NA,NA
02760,Bristol County,MA,NA,NA,12.609457092819614,NA
02780,Bristol County,MA,NA,0.5870841487279843,NA,NA
48033,Oakland County,MI,NA,NA,NA,20.35175879396985
48035,Macomb County,MI,NA,NA,NA,9.296482412060302
48036,Macomb County,MI,NA,30.528375733855185,29.246935201401055,NA
48038,Macomb County,MI,21.352313167259787,NA,NA,23.618090452261306
48044,Macomb County,MI,NA,NA,NA,58.291457286432156
48047,Macomb County,MI,NA,14.87279843444227,NA,NA
48051,Macomb County,MI,NA,NA,NA,77.63819095477386
48075,Oakland County,MI,NA,NA,33.45008756567426,NA
48089,Macomb County,MI,NA,8.610567514677104,NA,NA
48093,Macomb County,MI,53.380782918149464,NA,39.229422066549915,NA
48108,Washtenaw County,MI,38.43416370106761,NA,NA,NA
48135,Wayne County,MI,NA,25.048923679060664,NA,NA
48161,Monroe County,MI,NA,NA,55.86690017513135,NA
48162,Monroe County,MI,NA,13.50293542074364,NA,NA
48168,Wayne County,MI,NA,NA,NA,28.14070351758794
48170,Wayne County,MI,NA,NA,NA,2.763819095477387
48182,Monroe County,MI,NA,64.57925636007828,NA,NA
48183,Wayne County,MI,NA,9.784735812133071,NA,NA
48187,Wayne County,MI,14.94661921708185,NA,NA,NA
48188,Wayne County,MI,NA,NA,8.93169877408056,NA
48192,Wayne County,MI,NA,NA,33.62521891418564,NA
48197,Washtenaw County,MI,NA,NA,16.987740805604204,NA
48198,Washtenaw County,MI,NA,2.3483365949119372,NA,NA
48204,Wayne County,MI,NA,NA,NA,28.643216080402013
48205,Wayne County,MI,NA,4.6966731898238745,NA,NA
48207,Wayne County,MI,NA,NA,69.87740805604203,NA
48223,Wayne County,MI,66.54804270462633,13.698630136986301,NA,NA
48225,Wayne County,MI,NA,40.50880626223092,NA,NA
48230,Wayne County,MI,71.17437722419929,NA,NA,NA
48234,Wayne County,MI,NA,NA,69.52714535901926,NA
48238,Wayne County,MI,10.320284697508896,NA,NA,NA
48302,Oakland County,MI,NA,NA,NA,27.1356783919598
48306,Oakland County,MI,NA,NA,58.49387040280211,NA
48307,Oakland County,MI,NA,NA,23.29246935201401,NA
48317,Macomb County,MI,NA,NA,21.36602451838879,NA
48324,Oakland County,MI,NA,63.20939334637965,NA,NA
48331,Oakland County,MI,NA,NA,22.942206654991242,NA
48356,Oakland County,MI,NA,NA,82.83712784588442,NA
48360,Oakland County,MI,88.25622775800713,NA,NA,NA
48390,Oakland County,MI,NA,NA,NA,35.678391959798994
48439,Genesee County,MI,NA,14.285714285714285,NA,NA
48442,Oakland County,MI,NA,49.31506849315068,NA,NA
48602,Saginaw County,MI,2.8469750889679712,NA,NA,NA
48609,Saginaw County,MI,NA,NA,63.22241681260946,NA
48617,Clare County,MI,NA,90.21526418786692,NA,NA
48624,Gladwin County,MI,NA,NA,NA,20.603015075376884
48650,Bay County,MI,NA,81.01761252446184,NA,NA
48653,Roscommon County,MI,NA,76.90802348336595,NA,NA
48655,Saginaw County,MI,NA,69.08023483365949,NA,NA
48813,Eaton County,MI,NA,NA,17.68826619964974,NA
48821,Eaton County,MI,NA,NA,84.23817863397548,NA
48827,Eaton County,MI,NA,NA,34.50087565674256,NA
48831,Clinton County,MI,NA,99.02152641878669,NA,NA
48858,Isabella County,MI,NA,NA,7.880910683012258,NA
48867,Shiawassee County,MI,NA,8.023483365949119,NA,NA
48880,Gratiot County,MI,NA,NA,NA,74.12060301507537
48917,Eaton County,MI,NA,NA,NA,10.804020100502512
49009,Kalamazoo County,MI,NA,NA,NA,12.562814070351758
49010,Allegan County,MI,NA,NA,NA,50.753768844221106
49014,Calhoun County,MI,NA,NA,32.9246935201401,NA
49036,Branch County,MI,NA,NA,NA,27.63819095477387
49038,Berrien County,MI,NA,NA,63.92294220665499,NA
49047,Cass County,MI,NA,53.62035225048923,NA,NA
49085,Berrien County,MI,NA,NA,NA,80.15075376884423
49202,Jackson County,MI,NA,35.22504892367906,NA,NA
49221,Lenawee County,MI,NA,NA,5.779334500875657,NA
49286,Lenawee County,MI,NA,NA,NA,71.10552763819096
49307,Mecosta County,MI,78.29181494661923,NA,NA,NA
49337,Newaygo County,MI,NA,88.64970645792563,NA,NA
49341,Kent County,MI,30.96085409252669,31.115459882583167,NA,22.8643216080402
49348,Allegan County,MI,NA,NA,NA,71.35678391959799
49349,Newaygo County,MI,NA,62.81800391389433,NA,NA
49412,Newaygo County,MI,NA,NA,NA,56.03015075376885
49419,Allegan County,MI,NA,NA,NA,96.4824120603015
49424,Ottawa County,MI,NA,16.829745596868882,NA,NA
49437,Muskegon County,MI,NA,NA,NA,92.46231155778895
49441,Muskegon County,MI,NA,NA,NA,2.261306532663317
49442,Muskegon County,MI,NA,3.7181996086105675,NA,NA
49507,Kent County,MI,NA,NA,23.992994746059544,NA
49509,Kent County,MI,NA,NA,16.81260945709282,NA
49525,Kent County,MI,NA,37.76908023483366,NA,NA
49649,Grand Traverse County,MI,97.15302491103202,NA,NA,NA
49721,Cheboygan County,MI,NA,NA,38.17863397548161,NA
49740,Emmet County,MI,NA,91.3894324853229,NA,NA
49829,Delta County,MI,NA,NA,64.27320490367777,NA
49841,Marquette County,MI,NA,NA,91.24343257443083,NA
49938,Gogebic County,MI,NA,NA,NA,56.53266331658291
55011,Anoka County,MN,NA,NA,89.84238178633976,NA
55016,Washington County,MN,11.387900355871885,NA,NA,NA
55042,Washington County,MN,NA,NA,78.28371278458845,NA
55051,Kanabec County,MN,NA,NA,84.0630472854641,NA
55056,Chisago County,MN,69.03914590747331,NA,NA,NA
55068,Dakota County,MN,NA,NA,78.10858143607706,NA
55075,Dakota County,MN,NA,42.465753424657535,NA,NA
55106,Ramsey County,MN,22.419928825622776,NA,NA,NA
55112,Ramsey County,MN,NA,42.07436399217221,NA,NA
55303,Anoka County,MN,NA,NA,35.90192644483363,NA
55343,Hennepin County,MN,NA,NA,NA,40.95477386934673
55369,Hennepin County,MN,NA,NA,44.65849387040281,NA
55404,Hennepin County,MN,5.6939501779359425,NA,NA,NA
55405,Hennepin County,MN,NA,NA,46.93520140105078,NA
55407,Hennepin County,MN,NA,6.8493150684931505,NA,NA
55411,Hennepin County,MN,1.0676156583629894,NA,NA,NA
55412,Hennepin County,MN,NA,NA,NA,65.82914572864321
55413,Hennepin County,MN,97.86476868327402,NA,NA,NA
55416,Hennepin County,MN,NA,43.6399217221135,NA,NA
55419,Hennepin County,MN,NA,NA,NA,70.35175879396985
55422,Hennepin County,MN,NA,NA,41.68126094570928,NA
55429,Hennepin County,MN,NA,NA,84.41330998248687,NA
55744,Itasca County,MN,NA,68.88454011741683,NA,NA
55746,St. Louis County,MN,NA,NA,NA,25.125628140703515
55902,Olmsted County,MN,NA,NA,84.58844133099825,NA
56001,Blue Earth County,MN,NA,NA,NA,48.24120603015075
56031,Martin County,MN,64.05693950177937,46.771037181996086,NA,NA
56345,Morrison County,MN,NA,NA,NA,50
56378,Stearns County,MN,NA,81.40900195694715,NA,NA
56470,Hubbard County,MN,NA,71.23287671232876,NA,NA
56473,Cass County,MN,71.17437722419929,NA,NA,NA
56479,Todd County,MN,70.1067615658363,NA,NA,NA
56560,Clay County,MN,NA,NA,NA,1.256281407035176
56721,Polk County,MN,NA,NA,67.60070052539405,NA
38614,Coahoma County,MS,52.66903914590747,NA,NA,NA
38666,Panola County,MS,NA,NA,97.54816112084063,NA
38801,Lee County,MS,NA,40.31311154598826,NA,NA
38901,Grenada County,MS,NA,NA,NA,38.94472361809046
39063,Holmes County,MS,99.644128113879,NA,NA,NA
39117,Scott County,MS,NA,NA,NA,65.32663316582915
39120,Adams County,MS,NA,NA,53.94045534150613,NA
39154,Hinds County,MS,NA,84.93150684931507,NA,NA
39157,Madison County,MS,NA,NA,NA,62.311557788944725
39170,Hinds County,MS,NA,82.97455968688845,NA,NA
39213,Hinds County,MS,NA,NA,78.6339754816112,NA
39218,Rankin County,MS,NA,86.10567514677103,NA,NA
39301,Lauderdale County,MS,39.8576512455516,NA,NA,NA
39350,Neshoba County,MS,NA,NA,32.399299474605954,NA
39440,Jones County,MS,NA,60.46966731898239,NA,NA
39501,Harrison County,MS,NA,NA,NA,76.13065326633166
39562,Jackson County,MS,NA,NA,45.884413309982484,NA
39563,Jackson County,MS,NA,NA,NA,56.78391959798995
39648,Pike County,MS,NA,21.91780821917808,NA,68.09045226130654
39669,Wilkinson County,MS,NA,96.67318982387475,NA,NA
39773,Clay County,MS,NA,70.84148727984343,NA,NA
63011,St. Louis County,MO,NA,NA,NA,5.025125628140704
63031,St. Louis County,MO,NA,NA,NA,7.788944723618091
63051,Jefferson County,MO,NA,67.71037181996086,NA,NA
63084,Franklin County,MO,63.345195729537366,NA,NA,NA
63112,St. Louis city,MO,52.313167259786475,NA,NA,NA
63129,St. Louis County,MO,NA,NA,NA,9.547738693467336
63376,St. Charles County,MO,NA,59.099804305283755,2.4518388791593697,NA
63385,St. Charles County,MO,19.572953736654807,NA,NA,NA
63775,Perry County,MO,NA,NA,69.70227670753066,NA
63801,Scott County,MO,NA,NA,63.57267950963222,NA
63841,Stoddard County,MO,NA,51.2720156555773,NA,NA
63851,Pemiscot County,MO,NA,82.1917808219178,NA,NA
63869,New Madrid County,MO,98.22064056939502,NA,NA,NA
63901,Butler County,MO,NA,NA,NA,34.67336683417086
63935,Ripley County,MO,NA,55.96868884540117,NA,NA
64052,Jackson County,MO,NA,10.95890410958904,37.127845884413304,NA
64055,Jackson County,MO,15.658362989323843,NA,NA,NA
64060,Clay County,MO,NA,46.1839530332681,NA,NA
64067,Lafayette County,MO,NA,69.86301369863014,NA,NA
64068,Clay County,MO,NA,55.77299412915851,NA,NA
64081,Jackson County,MO,NA,NA,NA,70.85427135678391
64130,Jackson County,MO,NA,NA,NA,68.84422110552764
64131,Jackson County,MO,31.316725978647685,NA,NA,NA
64132,Jackson County,MO,NA,16.634050880626223,NA,NA
64133,Jackson County,MO,NA,NA,4.728546409807356,NA
64152,Platte County,MO,70.46263345195729,NA,NA,NA
64601,Livingston County,MO,NA,NA,NA,60.050251256281406
64772,Vernon County,MO,56.58362989323843,NA,NA,NA
64801,Jasper County,MO,NA,14.481409001956946,NA,NA
64844,Newton County,MO,NA,NA,NA,99.49748743718592
64850,Newton County,MO,NA,NA,23.117338003502628,NA
65026,Miller County,MO,NA,71.62426614481409,NA,NA
65049,Camden County,MO,NA,NA,81.78633975481611,NA
65203,Boone County,MO,NA,NA,NA,6.281407035175879
65233,Cooper County,MO,NA,NA,86.1646234676007,NA
65270,Randolph County,MO,NA,NA,41.155866900175134,NA
65355,Benton County,MO,NA,NA,21.541155866900176,NA
65401,Phelps County,MO,NA,NA,NA,26.633165829145728
65542,Texas County,MO,NA,NA,94.57092819614711,NA
65548,Howell County,MO,NA,NA,98.77408056042032,NA
65653,Taney County,MO,NA,NA,91.41856392294221,NA
65667,Wright County,MO,NA,NA,100,NA
65706,Webster County,MO,NA,82.38747553816047,NA,NA
65714,Christian County,MO,NA,NA,45.884413309982484,NA
65775,Howell County,MO,NA,68.4931506849315,NA,NA
65802,Greene County,MO,NA,11.154598825831702,54.991243432574436,NA
65803,Greene County,MO,NA,10.567514677103718,NA,NA
65804,Greene County,MO,NA,65.36203522504891,NA,NA
59105,Yellowstone County,MT,NA,86.49706457925636,NA,NA
59301,Custer County,MT,NA,NA,96.8476357267951,NA
59401,Cascade County,MT,NA,93.73776908023484,NA,NA
59404,Cascade County,MT,NA,NA,NA,12.311557788944723
59602,Lewis and Clark County,MT,NA,NA,NA,34.92462311557789
59701,Silver Bow County,MT,83.98576512455516,NA,NA,NA
59711,Deer Lodge County,MT,NA,NA,NA,96.73366834170855
59715,Gallatin County,MT,75.44483985765125,NA,NA,NA
59716,Gallatin County,MT,NA,100,NA,NA
59801,Missoula County,MT,NA,NA,65.49912434325745,NA
59860,Lake County,MT,NA,NA,45.008756567425564,NA
68130,Douglas County,NE,48.754448398576514,NA,NA,NA
68134,Douglas County,NE,NA,59.8825831702544,NA,NA
68310,Gage County,NE,NA,NA,NA,14.321608040201006
68506,Lancaster County,NE,NA,NA,48.68651488616462,NA
68510,Lancaster County,NE,NA,NA,75.4816112084063,NA
68516,Lancaster County,NE,NA,NA,NA,46.482412060301506
68901,Adams County,NE,NA,NA,43.78283712784589,29.899497487437188
89122,Clark County,NV,48.04270462633452,NA,NA,NA
89423,Douglas County,NV,NA,NA,58.844133099824866,NA
89509,Washoe County,NV,NA,NA,NA,26.38190954773869
89521,Washoe County,NV,NA,50.489236790606654,NA,NA
03038,Rockingham County,NH,NA,NA,NA,83.91959798994975
03104,Hillsborough County,NH,NA,14.677103718199607,NA,NA
03301,Merrimack County,NH,NA,NA,13.134851138353765,5.276381909547738
03446,Cheshire County,NH,NA,NA,NA,60.80402010050251
03452,Cheshire County,NH,NA,NA,NA,67.8391959798995
03766,Grafton County,NH,NA,NA,67.25043782837128,NA
03842,Rockingham County,NH,NA,NA,90.71803852889667,NA
03857,Rockingham County,NH,NA,NA,NA,92.96482412060301
03878,Strafford County,NH,NA,NA,NA,67.33668341708542
07003,Essex County,NJ,NA,NA,NA,30.90452261306533
07008,Middlesex County,NJ,NA,27.984344422700584,NA,NA
07011,Passaic County,NJ,62.27758007117438,NA,NA,NA
07013,Passaic County,NJ,NA,NA,36.952714535901926,NA
07024,Bergen County,NJ,92.88256227758008,NA,NA,NA
07026,Bergen County,NJ,NA,NA,64.44833625218914,72.36180904522614
07030,Hudson County,NJ,NA,NA,29.772329246935204,NA
07042,Essex County,NJ,NA,27.20156555772994,56.74255691768827,NA
07044,Essex County,NJ,NA,NA,NA,75.87939698492463
07047,Hudson County,NJ,NA,NA,13.485113835376533,NA
07054,Morris County,NJ,NA,NA,35.72679509632224,NA
07057,Bergen County,NJ,NA,NA,86.86514886164623,NA
07065,Union County,NJ,58.718861209964416,NA,NA,NA
07087,Hudson County,NJ,NA,2.935420743639922,NA,84.42211055276381
07103,Essex County,NJ,NA,NA,NA,51.507537688442206
07110,Essex County,NJ,76.15658362989323,NA,NA,NA
07201,Union County,NJ,NA,8.414872798434441,NA,NA
07304,Hudson County,NJ,NA,NA,NA,70.60301507537689
07307,Hudson County,NJ,NA,61.25244618395303,NA,NA
07410,Bergen County,NJ,NA,78.86497064579257,NA,NA
07446,Bergen County,NJ,77.22419928825623,73.97260273972603,NA,NA
07461,Sussex County,NJ,NA,NA,94.22066549912435,NA
07481,Bergen County,NJ,NA,NA,NA,61.80904522613066
07503,Passaic County,NJ,NA,54.20743639921722,NA,NA
07601,Bergen County,NJ,NA,NA,NA,52.26130653266332
07603,Bergen County,NJ,NA,73.38551859099805,NA,NA
07607,Bergen County,NJ,NA,NA,96.49737302977232,NA
07730,Monmouth County,NJ,NA,57.14285714285714,NA,NA
07753,Monmouth County,NJ,NA,NA,10.507880910683012,10.050251256281408
07849,Morris County,NJ,NA,NA,95.09632224168126,NA
07866,Morris County,NJ,NA,67.90606653620353,NA,NA
08048,Burlington County,NJ,NA,NA,NA,84.17085427135679
08052,Burlington County,NJ,NA,NA,73.90542907180385,NA
08085,Gloucester County,NJ,NA,NA,49.91243432574431,NA
08093,Gloucester County,NJ,NA,NA,NA,80.40201005025126
08096,Gloucester County,NJ,NA,NA,39.92994746059544,NA
08205,Atlantic County,NJ,90.74733096085409,NA,NA,NA
08232,Atlantic County,NJ,NA,NA,NA,66.58291457286433
08242,Cape May County,NJ,NA,NA,70.2276707530648,NA
08260,Cape May County,NJ,NA,NA,28.19614711033275,NA
08330,Atlantic County,NJ,NA,92.56360078277886,NA,NA
08332,Cumberland County,NJ,NA,NA,16.637478108581437,40.45226130653266
08360,Cumberland County,NJ,NA,NA,9.98248686514886,NA
08551,Hunterdon County,NJ,NA,NA,99.64973730297724,NA
08721,Ocean County,NJ,NA,27.59295499021526,NA,NA
08724,Ocean County,NJ,NA,NA,NA,14.824120603015075
08753,Ocean County,NJ,NA,88.25831702544032,NA,NA
08757,Ocean County,NJ,NA,NA,NA,7.537688442211055
08759,Ocean County,NJ,NA,NA,NA,0
08837,Middlesex County,NJ,NA,85.51859099804305,NA,NA
08840,Middlesex County,NJ,NA,NA,71.2784588441331,NA
08872,Middlesex County,NJ,NA,NA,83.71278458844134,NA
87068,Valencia County,NM,NA,96.86888454011742,NA,NA
87105,Bernalillo County,NM,8.185053380782918,NA,NA,NA
87108,Bernalillo County,NM,NA,7.436399217221135,NA,NA
87114,Bernalillo County,NM,NA,NA,NA,63.5678391959799
87505,Santa Fe County,NM,NA,NA,7.530647985989491,63.06532663316583
87544,Los Alamos County,NM,NA,NA,57.96847635726795,NA
88023,Grant County,NM,NA,NA,NA,99.74874371859298
88101,Curry County,NM,NA,NA,8.056042031523642,NA
88203,Chaves County,NM,NA,21.52641878669276,NA,NA
88220,Eddy County,NM,33.45195729537366,NA,NA,NA
88260,Lea County,NM,NA,73.77690802348337,NA,NA
88310,Otero County,NM,NA,NA,28.371278458844134,NA
10001,New York County,NY,NA,NA,7.180385288966725,NA
10009,New York County,NY,NA,9.393346379647749,5.253940455341506,4.522613065326634
10024,New York County,NY,NA,NA,24.86865148861646,NA
10026,New York County,NY,NA,60.861056751467714,NA,NA
10027,New York County,NY,NA,NA,NA,85.678391959799
10028,New York County,NY,NA,NA,33.274956217162874,NA
10029,New York County,NY,NA,NA,NA,0.7537688442211055
10036,New York County,NY,NA,NA,NA,80.90452261306532
10038,New York County,NY,95.37366548042705,NA,NA,NA
10040,New York County,NY,NA,34.63796477495107,NA,NA
10452,Bronx County,NY,NA,1.1741682974559686,NA,NA
10454,Bronx County,NY,NA,NA,33.97548161120841,NA
10459,Bronx County,NY,NA,NA,40.80560420315236,NA
10460,Bronx County,NY,0.3558718861209964,NA,NA,NA
10465,Bronx County,NY,NA,32.68101761252446,NA,NA
10469,Bronx County,NY,22.77580071174377,NA,NA,NA
10550,Westchester County,NY,61.20996441281139,NA,NA,NA
10965,Rockland County,NY,NA,95.8904109589041,NA,NA
11204,Kings County,NY,26.690391459074732,NA,NA,NA
11205,Kings County,NY,57.29537366548043,NA,NA,NA
11208,Kings County,NY,NA,1.9569471624266144,NA,NA
11209,Kings County,NY,NA,NA,72.50437828371278,NA
11214,Kings County,NY,NA,NA,12.084063047285463,NA
11226,Kings County,NY,NA,NA,2.626970227670753,NA
11355,Queens County,NY,NA,NA,52.88966725043783,NA
11369,Queens County,NY,NA,NA,61.646234676007005,NA
11374,Queens County,NY,NA,NA,26.444833625218916,NA
11385,Queens County,NY,8.896797153024911,NA,NA,NA
11414,Queens County,NY,NA,91.19373776908023,NA,NA
11419,Queens County,NY,NA,40.704500978473575,NA,NA
11423,Queens County,NY,67.97153024911033,NA,NA,NA
11432,Queens County,NY,17.437722419928825,NA,70.05253940455341,NA
11550,Nassau County,NY,NA,NA,17.338003502626968,NA
11691,Queens County,NY,NA,NA,NA,17.33668341708543
11706,Suffolk County,NY,NA,NA,82.13660245183888,NA
11709,Nassau County,NY,NA,NA,NA,94.72361809045226
11717,Suffolk County,NY,23.843416370106763,NA,NA,NA
11730,Suffolk County,NY,NA,NA,99.12434325744309,NA
12010,Montgomery County,NY,13.167259786476867,NA,NA,NA
12122,Schoharie County,NY,NA,74.16829745596868,NA,NA
12901,Clinton County,NY,NA,19.569471624266143,NA,NA
12953,Franklin County,NY,NA,NA,19.78984238178634,NA
12986,Franklin County,NY,NA,NA,NA,78.39195979899498
13021,Cayuga County,NY,NA,3.522504892367906,NA,NA
13045,Cortland County,NY,NA,NA,11.033274956217163,NA
13148,Seneca County,NY,NA,NA,32.04903677758319,NA
13204,Onondaga County,NY,10.320284697508896,NA,NA,NA
13208,Onondaga County,NY,NA,12.915851272015654,NA,NA
13323,Oneida County,NY,NA,72.21135029354208,NA,NA
13413,Oneida County,NY,NA,NA,NA,23.115577889447238
13439,Otsego County,NY,NA,NA,95.7968476357268,NA
13440,Oneida County,NY,NA,NA,NA,8.793969849246231
13787,Broome County,NY,NA,95.10763209393346,NA,NA
13820,Otsego County,NY,NA,38.16046966731898,NA,NA
13865,Broome County,NY,NA,NA,68.1260945709282,NA
14059,Erie County,NY,NA,73.18982387475538,NA,NA
14062,Chautauqua County,NY,NA,NA,95.97197898423818,NA
14120,Niagara County,NY,NA,5.47945205479452,35.37653239929948,NA
14125,Genesee County,NY,NA,NA,93.87040280210157,NA
14214,Erie County,NY,40.92526690391459,NA,NA,NA
14220,Erie County,NY,NA,NA,27.845884413309985,NA
14420,Monroe County,NY,NA,17.416829745596868,NA,NA
14424,Ontario County,NY,NA,NA,11.38353765323993,NA
14450,Monroe County,NY,NA,2.5440313111545985,NA,NA
14456,Ontario County,NY,NA,NA,5.954465849387041,NA
14472,Monroe County,NY,NA,NA,31.34851138353765,NA
14489,Wayne County,NY,NA,NA,NA,77.88944723618091
14534,Monroe County,NY,NA,7.240704500978473,NA,NA
14569,Wyoming County,NY,NA,NA,61.29597197898424,NA
14580,Monroe County,NY,NA,NA,16.112084063047284,NA
14606,Monroe County,NY,7.473309608540925,NA,NA,NA
14608,Monroe County,NY,NA,NA,37.478108581436075,NA
14613,Monroe County,NY,NA,11.350293542074363,NA,NA
14617,Monroe County,NY,NA,NA,NA,78.89447236180904
14618,Monroe County,NY,NA,NA,12.95971978984238,NA
14620,Monroe County,NY,NA,NA,50.96322241681261,NA
14623,Monroe County,NY,14.23487544483986,NA,NA,NA
14626,Monroe County,NY,NA,19.373776908023483,NA,NA
14750,Chautauqua County,NY,NA,NA,NA,98.49246231155779
14760,Cattaraugus County,NY,NA,10.371819960861057,NA,NA
14830,Steuben County,NY,NA,NA,78.98423817863399,NA
14879,Steuben County,NY,NA,NA,97.8984238178634,NA
14892,Tioga County,NY,NA,NA,81.9614711033275,NA
27030,Surry County,NC,NA,NA,NA,43.969849246231156
27101,Forsyth County,NC,NA,82.7788649706458,NA,NA
27104,Forsyth County,NC,NA,NA,NA,3.7688442211055273
27105,Forsyth County,NC,NA,16.43835616438356,NA,NA
27217,Alamance County,NC,NA,NA,NA,9.045226130653267
27249,Guilford County,NC,NA,NA,92.6444833625219,NA
27262,Guilford County,NC,NA,NA,59.54465849387041,NA
27278,Orange County,NC,NA,23.679060665362034,NA,NA
27284,Forsyth County,NC,NA,7.632093933463796,NA,NA
27288,Rockingham County,NC,NA,NA,23.817863397548162,NA
27292,Davidson County,NC,NA,5.283757338551859,NA,NA
27306,Montgomery County,NC,NA,NA,94.92119089316988,NA
27312,Chatham County,NC,NA,NA,NA,14.07035175879397
27379,Caswell County,NC,93.95017793594306,NA,NA,NA
27406,Guilford County,NC,NA,NA,0.8756567425569177,NA
27410,Guilford County,NC,NA,80.23483365949119,NA,NA
27511,Wake County,NC,NA,68.10176125244618,NA,NA
27513,Wake County,NC,NA,NA,54.115586690017516,NA
27516,Orange County,NC,NA,NA,44.65849387040281,NA
27517,Orange County,NC,NA,55.96868884540117,NA,NA
27530,Wayne County,NC,NA,15.655577299412915,NA,NA
27546,Harnett County,NC,NA,NA,77.75831873905429,NA
27576,Johnston County,NC,59.430604982206404,NA,NA,NA
27583,Person County,NC,NA,NA,NA,91.20603015075378
27596,Franklin County,NC,NA,NA,62.521891418563925,NA
27609,Wake County,NC,NA,NA,34.50087565674256,NA
27610,Wake County,NC,NA,NA,NA,24.120603015075375
27612,Wake County,NC,NA,61.05675146771037,NA,NA
27615,Wake County,NC,NA,NA,14.185639229422067,NA
27703,Durham County,NC,24.91103202846975,NA,NA,NA
27707,Durham County,NC,NA,NA,9.457092819614711,NA
27713,Durham County,NC,NA,59.68688845401174,NA,NA
27804,Nash County,NC,NA,NA,NA,35.175879396984925
27807,Nash County,NC,NA,NA,NA,93.46733668341709
27822,Wilson County,NC,NA,94.52054794520548,NA,NA
27834,Pitt County,NC,4.6263345195729535,NA,NA,NA
27892,Martin County,NC,47.330960854092524,NA,NA,NA
27893,Wilson County,NC,NA,16.2426614481409,NA,31.909547738693465
27910,Hertford County,NC,NA,84.14872798434442,NA,NA
28023,Rowan County,NC,85.76512455516014,NA,NA,NA
28034,Gaston County,NC,NA,85.71428571428571,NA,NA
28056,Gaston County,NC,NA,NA,47.98598949211909,NA
28092,Lincoln County,NC,NA,24.26614481409002,NA,NA
28104,Union County,NC,NA,70.45009784735812,NA,NA
28107,Cabarrus County,NC,NA,95.30332681017613,NA,NA
28112,Union County,NC,NA,NA,36.77758318739055,NA
28115,Iredell County,NC,NA,23.09197651663405,NA,NA
28146,Rowan County,NC,NA,35.0293542074364,NA,NA
28173,Union County,NC,NA,NA,77.23292469352015,NA
28209,Mecklenburg County,NC,NA,NA,68.82661996497373,NA
28210,Mecklenburg County,NC,NA,NA,NA,65.07537688442211
28215,Mecklenburg County,NC,12.455516014234876,17.025440313111545,NA,NA
28216,Mecklenburg County,NC,9.608540925266903,NA,NA,NA
28301,Cumberland County,NC,45.55160142348754,NA,NA,NA
28304,Cumberland County,NC,35.587188612099645,NA,NA,NA
28328,Sampson County,NC,NA,NA,58.31873905429072,NA
28334,Sampson County,NC,NA,29.74559686888454,30.823117338003502,NA
28339,Harnett County,NC,NA,NA,89.31698774080562,NA
28358,Robeson County,NC,NA,NA,64.79859894921191,NA
28376,Hoke County,NC,NA,NA,NA,42.96482412060301
28403,New Hanover County,NC,NA,NA,NA,30.15075376884422
28411,New Hanover County,NC,NA,NA,40.10507880910683,NA
28412,New Hanover County,NC,NA,46.1839530332681,NA,NA
28425,Pender County,NC,NA,NA,60.595446584938706,NA
28457,Pender County,NC,NA,75.34246575342466,NA,NA
28466,Duplin County,NC,NA,89.23679060665361,NA,NA
28470,Brunswick County,NC,81.49466192170819,NA,NA,NA
28560,Craven County,NC,NA,NA,40.63047285464098,NA
28601,Catawba County,NC,32.74021352313167,44.422700587084144,NA,NA
28607,Watauga County,NC,NA,80.03913894324853,NA,NA
28638,Caldwell County,NC,NA,NA,65.14886164623468,NA
28645,Caldwell County,NC,NA,3.9138943248532287,NA,2.0100502512562812
28655,Burke County,NC,NA,NA,3.677758318739054,NA
28697,Wilkes County,NC,NA,NA,NA,58.79396984924623
28705,Mitchell County,NC,NA,83.75733855185909,NA,NA
28712,Transylvania County,NC,NA,50.09784735812133,NA,38.69346733668342
28723,Jackson County,NC,NA,NA,85.63922942206655,NA
28734,Macon County,NC,NA,NA,38.704028021015766,23.366834170854272
28739,Henderson County,NC,NA,NA,45.53415061295972,NA
28806,Buncombe County,NC,62.27758007117438,NA,NA,NA
28906,Cherokee County,NC,NA,NA,NA,16.834170854271356
58075,Richland County,ND,NA,94.52054794520548,NA,NA
58601,Stark County,ND,NA,NA,67.77583187390543,NA
43015,Delaware County,OH,NA,NA,8.231173380035026,NA
43031,Licking County,OH,NA,NA,NA,81.90954773869346
43040,Union County,OH,NA,NA,NA,21.608040201005025
43050,Knox County,OH,NA,NA,4.203152364273205,NA
43055,Licking County,OH,NA,11.937377690802348,1.0507880910683012,NA
43062,Licking County,OH,NA,NA,NA,42.211055276381906
43068,Franklin County,OH,NA,58.70841487279843,NA,57.286432160804026
43072,Champaign County,OH,NA,89.04109589041096,NA,NA
43085,Franklin County,OH,NA,68.68884540117418,NA,NA
43130,Fairfield County,OH,NA,NA,19.439579684763572,NA
43160,Fayette County,OH,NA,NA,NA,21.105527638190953
43207,Franklin County,OH,9.9644128113879,NA,NA,NA
43228,Franklin County,OH,3.202846975088968,NA,NA,NA
43231,Franklin County,OH,22.064056939501782,NA,NA,93.96984924623115
43232,Franklin County,OH,NA,4.10958904109589,68.30122591943957,NA
43302,Marion County,OH,31.672597864768683,NA,NA,NA
43402,Wood County,OH,NA,NA,15.411558669001751,15.829145728643216
43537,Lucas County,OH,32.028469750889684,NA,NA,NA
43604,Lucas County,OH,NA,43.05283757338552,NA,NA
43612,Lucas County,OH,26.334519572953734,4.892367906066536,NA,47.23618090452261
43724,Noble County,OH,NA,NA,75.13134851138354,NA
44001,Lorain County,OH,NA,NA,NA,32.914572864321606
44004,Ashtabula County,OH,NA,NA,NA,1.7587939698492463
44011,Lorain County,OH,NA,32.87671232876712,NA,NA
44041,Ashtabula County,OH,NA,NA,NA,22.36180904522613
44056,Summit County,OH,NA,NA,56.042031523642734,NA
44087,Summit County,OH,NA,NA,15.761821366024517,NA
44102,Cuyahoga County,OH,NA,0.7827788649706457,NA,NA
44103,Cuyahoga County,OH,NA,36.007827788649706,NA,NA
44104,Cuyahoga County,OH,NA,4.500978473581213,NA,NA
44105,Cuyahoga County,OH,32.38434163701068,0.9784735812133072,NA,NA
44112,Cuyahoga County,OH,NA,NA,4.903677758318739,NA
44114,Cuyahoga County,OH,NA,NA,64.09807355516638,NA
44120,Cuyahoga County,OH,11.743772241992882,3.131115459882583,NA,NA
44128,Cuyahoga County,OH,NA,NA,2.276707530647986,NA
44129,Cuyahoga County,OH,NA,NA,NA,54.773869346733676
44130,Cuyahoga County,OH,NA,NA,11.733800350262696,NA
44137,Cuyahoga County,OH,18.505338078291814,NA,NA,NA
44142,Cuyahoga County,OH,NA,29.549902152641877,NA,NA
44144,Cuyahoga County,OH,NA,NA,9.106830122591944,NA
44145,Cuyahoga County,OH,NA,NA,NA,4.271356783919598
44149,Cuyahoga County,OH,45.195729537366546,NA,17.162872154115586,NA
44221,Summit County,OH,NA,NA,NA,47.98994974874372
44224,Summit County,OH,NA,23.28767123287671,NA,NA
44256,Medina County,OH,NA,NA,NA,49.246231155778894
44264,Summit County,OH,98.57651245551602,NA,NA,NA
44270,Wayne County,OH,NA,NA,NA,86.18090452261306
44272,Portage County,OH,NA,98.63013698630137,NA,NA
44273,Medina County,OH,NA,87.47553816046967,NA,NA
44314,Summit County,OH,NA,NA,22.76707530647986,NA
44319,Summit County,OH,NA,NA,NA,18.341708542713565
44321,Summit County,OH,72.95373665480427,NA,NA,NA
44333,Summit County,OH,NA,NA,43.25744308231174,NA
44432,Columbiana County,OH,NA,NA,NA,73.61809045226131
44691,Wayne County,OH,NA,NA,6.47985989492119,NA
44708,Stark County,OH,NA,NA,34.85113835376533,NA
44718,Stark County,OH,NA,NA,71.80385288966725,NA
44830,Seneca County,OH,NA,NA,32.22416812609457,NA
44883,Seneca County,OH,NA,NA,NA,17.587939698492463
45040,Warren County,OH,8.540925266903916,NA,NA,NA
45042,Butler County,OH,NA,NA,NA,44.472361809045225
45044,Butler County,OH,NA,NA,13.835376532399298,NA
45069,Butler County,OH,NA,24.26614481409002,18.914185639229423,NA
45113,Clinton County,OH,NA,97.4559686888454,NA,NA
45154,Brown County,OH,NA,79.6477495107632,NA,NA
45177,Clinton County,OH,44.48398576512456,NA,NA,NA
45211,Hamilton County,OH,NA,NA,NA,35.92964824120603
45229,Hamilton County,OH,NA,NA,NA,90.7035175879397
45237,Hamilton County,OH,47.686832740213525,NA,NA,NA
45239,Hamilton County,OH,NA,NA,35.20140105078809,NA
45240,Hamilton County,OH,NA,61.839530332681015,NA,NA
45241,Hamilton County,OH,NA,NA,38.528896672504374,NA
45244,Hamilton County,OH,NA,52.054794520547944,NA,NA
45248,Hamilton County,OH,NA,NA,NA,22.110552763819097
45318,Miami County,OH,NA,92.95499021526419,NA,NA
45320,Preble County,OH,NA,NA,NA,37.185929648241206
45331,Darke County,OH,NA,28.180039138943247,NA,NA
45377,Montgomery County,OH,54.804270462633454,NA,46.93520140105078,NA
45385,Greene County,OH,7.11743772241993,NA,NA,NA
45402,Montgomery County,OH,NA,57.33855185909981,NA,NA
45403,Montgomery County,OH,NA,NA,NA,86.68341708542714
45404,Montgomery County,OH,NA,NA,NA,98.74371859296483
45417,Montgomery County,OH,19.9288256227758,NA,NA,NA
45429,Montgomery County,OH,NA,NA,NA,16.08040201005025
45439,Montgomery County,OH,77.22419928825623,51.66340508806262,NA,NA
45449,Montgomery County,OH,NA,NA,NA,43.71859296482412
45459,Montgomery County,OH,NA,NA,NA,69.09547738693468
45601,Ross County,OH,NA,NA,NA,0.25125628140703515
45640,Jackson County,OH,NA,NA,7.355516637478108,NA
45660,Adams County,OH,NA,97.84735812133071,NA,NA
45680,Lawrence County,OH,NA,13.894324853228962,NA,NA
45723,Athens County,OH,NA,88.45401174168298,NA,NA
45750,Washington County,OH,NA,NA,0.3502626970227671,NA
45767,Washington County,OH,NA,97.06457925636008,NA,NA
45817,Allen County,OH,NA,NA,88.96672504378283,NA
45827,Putnam County,OH,NA,98.04305283757338,NA,NA
45840,Hancock County,OH,18.86120996441281,NA,NA,NA
45879,Paulding County,OH,NA,NA,NA,99.2462311557789
73018,Grady County,OK,NA,NA,33.80035026269702,NA
73075,Garvin County,OK,NA,85.71428571428571,NA,NA
73077,Noble County,OK,NA,NA,NA,90.45226130653266
73106,Oklahoma County,OK,NA,NA,NA,81.4070351758794
73112,Oklahoma County,OK,NA,NA,NA,52.76381909547738
73114,Oklahoma County,OK,NA,56.94716242661448,NA,NA
73117,Oklahoma County,OK,NA,91.78082191780823,NA,NA
73118,Oklahoma County,OK,88.61209964412812,NA,NA,NA
73159,Oklahoma County,OK,NA,NA,28.546409807355516,72.8643216080402
73162,Oklahoma County,OK,NA,50.09784735812133,NA,NA
73170,Cleveland County,OK,NA,33.659491193737765,NA,36.68341708542713
73505,Comanche County,OK,25.622775800711743,NA,NA,NA
73703,Garfield County,OK,NA,NA,52.364273204903675,NA
74006,Washington County,OK,NA,NA,72.15411558669001,NA
74056,Osage County,OK,87.54448398576513,NA,NA,NA
74059,Payne County,OK,NA,98.43444227005871,NA,NA
74063,Tulsa County,OK,NA,60.273972602739725,39.404553415061294,NA
74105,Tulsa County,OK,NA,39.726027397260275,NA,61.55778894472361
74146,Tulsa County,OK,NA,69.27592954990214,NA,NA
74331,Delaware County,OK,NA,NA,76.00700525394045,NA
74346,Delaware County,OK,NA,NA,NA,84.92462311557789
74525,Atoka County,OK,NA,NA,78.80910683012259,NA
74604,Kay County,OK,NA,82.58317025440313,NA,NA
97027,Clackamas County,OR,NA,79.84344422700586,NA,NA
97030,Multnomah County,OR,NA,NA,18.739054290718038,56.28140703517588
97031,Hood River County,OR,57.65124555160143,NA,NA,NA
97045,Clackamas County,OR,NA,15.459882583170254,NA,NA
97060,Multnomah County,OR,NA,43.24853228962818,NA,NA
97089,Clackamas County,OR,91.45907473309609,NA,NA,NA
97132,Yamhill County,OR,65.83629893238434,NA,30.998248686514884,NA
97209,Multnomah County,OR,NA,NA,61.29597197898424,NA
97210,Multnomah County,OR,83.62989323843416,NA,NA,NA
97212,Multnomah County,OR,NA,NA,72.3292469352014,NA
97220,Multnomah County,OR,NA,71.81996086105676,NA,NA
97223,Washington County,OR,NA,NA,NA,72.61306532663316
97230,Multnomah County,OR,NA,24.853228962818,NA,NA
97322,Linn County,OR,NA,NA,66.19964973730298,NA
97404,Lane County,OR,81.85053380782918,NA,NA,NA
97470,Douglas County,OR,NA,NA,NA,39.698492462311556
97502,Jackson County,OR,66.19217081850533,NA,NA,NA
97526,Josephine County,OR,NA,NA,NA,46.984924623115575
97754,Crook County,OR,NA,NA,NA,31.4070351758794
97814,Baker County,OR,NA,NA,NA,45.7286432160804
15005,Beaver County,PA,77.93594306049823,NA,NA,NA
15010,Beaver County,PA,NA,22.89628180039139,NA,13.819095477386934
15012,Westmoreland County,PA,NA,64.18786692759295,NA,NA
15025,Allegheny County,PA,NA,NA,46.409807355516634,NA
15057,Washington County,PA,51.95729537366548,NA,NA,NA
15074,Beaver County,PA,NA,67.31898238747553,NA,NA
15085,Westmoreland County,PA,NA,96.08610567514677,NA,78.14070351758794
15102,Allegheny County,PA,NA,NA,29.597197898423815,NA
15108,Allegheny County,PA,NA,41.291585127201564,NA,NA
15132,Allegheny County,PA,NA,12.13307240704501,NA,NA
15201,Allegheny County,PA,88.96797153024912,NA,NA,NA
15205,Allegheny County,PA,NA,NA,NA,59.2964824120603
15206,Allegheny County,PA,62.989323843416365,NA,NA,NA
15211,Allegheny County,PA,NA,89.62818003913894,NA,NA
15221,Allegheny County,PA,NA,19.17808219178082,NA,NA
15236,Allegheny County,PA,13.523131672597867,NA,NA,NA
15237,Allegheny County,PA,37.36654804270463,NA,NA,NA
15301,Washington County,PA,NA,7.045009784735812,6.304728546409807,NA
15317,Washington County,PA,NA,31.506849315068493,NA,NA
15425,Fayette County,PA,NA,NA,59.719789842381786,NA
15656,Westmoreland County,PA,NA,NA,65.32399299474606,NA
15658,Westmoreland County,PA,NA,NA,NA,60.050251256281406
15905,Cambria County,PA,NA,77.88649706457925,NA,NA
15906,Cambria County,PA,NA,NA,NA,76.38190954773869
16053,Butler County,PA,NA,NA,96.6725043782837,NA
16055,Butler County,PA,NA,NA,NA,64.57286432160804
16125,Mercer County,PA,NA,39.33463796477495,NA,NA
16201,Armstrong County,PA,NA,33.46379647749511,NA,NA
16335,Crawford County,PA,NA,NA,10.85814360770578,NA
16412,Erie County,PA,NA,NA,86.33975481611208,NA
16442,Erie County,PA,NA,NA,99.29947460595446,NA
16506,Erie County,PA,NA,71.81996086105676,NA,NA
16511,Erie County,PA,NA,NA,86.51488616462348,NA
16686,Blair County,PA,NA,NA,NA,52.51256281407035
16735,McKean County,PA,NA,75.73385518590999,87.215411558669,NA
16830,Clearfield County,PA,NA,NA,NA,15.577889447236181
16870,Centre County,PA,NA,NA,98.9492119089317,NA
17003,Lebanon County,PA,NA,47.94520547945205,NA,NA
17011,Cumberland County,PA,NA,28.37573385518591,NA,NA
17013,Cumberland County,PA,NA,NA,16.46234676007005,NA
17019,York County,PA,NA,NA,NA,64.321608040201
17046,Lebanon County,PA,NA,NA,24.69352014010508,NA
17057,Dauphin County,PA,NA,19.765166340508806,NA,NA
17059,Juniata County,PA,85.05338078291815,NA,NA,NA
17112,Dauphin County,PA,NA,NA,6.654991243432574,11.306532663316583
17257,Cumberland County,PA,NA,NA,26.79509632224168,NA
17331,York County,PA,NA,NA,1.4010507880910683,NA
17345,York County,PA,61.20996441281139,NA,NA,91.95979899497488
17356,York County,PA,30.2491103202847,NA,NA,NA
17401,York County,PA,NA,45.98825831702544,NA,NA
17403,York County,PA,NA,2.73972602739726,NA,NA
17404,York County,PA,25.26690391459075,11.741682974559687,NA,NA
17522,Lancaster County,PA,NA,NA,12.43432574430823,NA
17545,Lancaster County,PA,NA,76.1252446183953,NA,NA
17584,Lancaster County,PA,NA,NA,90.89316987740806,NA
17603,Lancaster County,PA,NA,9.980430528375733,NA,NA
17744,Lycoming County,PA,NA,NA,98.24868651488616,NA
17754,Lycoming County,PA,NA,69.47162426614481,NA,NA
17821,Montour County,PA,NA,NA,15.236427320490368,NA
17961,Schuylkill County,PA,NA,NA,NA,84.67336683417085
18015,Northampton County,PA,NA,9.001956947162427,NA,NA
18018,Lehigh County,PA,34.16370106761566,NA,NA,NA
18052,Lehigh County,PA,NA,21.330724070450096,NA,NA
18201,Luzerne County,PA,NA,52.25048923679061,NA,NA
18330,Monroe County,PA,NA,87.279843444227,NA,81.15577889447236
18419,Wyoming County,PA,NA,NA,98.07355516637479,NA
18444,Lackawanna County,PA,NA,83.36594911937377,NA,NA
18612,Luzerne County,PA,NA,NA,NA,30.402010050251256
18644,Luzerne County,PA,NA,84.73581213307241,65.49912434325745,NA
18702,Luzerne County,PA,NA,NA,5.42907180385289,NA
18964,Montgomery County,PA,NA,NA,83.0122591943958,NA
19006,Montgomery County,PA,NA,NA,NA,71.85929648241206
19013,Delaware County,PA,NA,NA,14.36077057793345,NA
19033,Delaware County,PA,NA,78.08219178082192,NA,NA
19056,Bucks County,PA,NA,49.510763209393346,NA,NA
19063,Delaware County,PA,65.12455516014235,NA,NA,NA
75036,NA,NA,NA,NA,99.47460595446584,NA
19064,Delaware County,PA,12.811387900355871,NA,NA,NA
19078,Delaware County,PA,70.8185053380783,NA,NA,NA
19082,Delaware County,PA,NA,NA,NA,64.82412060301507
19090,Montgomery County,PA,NA,NA,45.884413309982484,NA
19120,Philadelphia County,PA,NA,NA,NA,45.47738693467337
19141,Philadelphia County,PA,NA,NA,16.28721541155867,NA
19143,Philadelphia County,PA,NA,NA,1.2259194395796849,NA
19150,Philadelphia County,PA,NA,34.44227005870842,NA,NA
19320,Chester County,PA,NA,36.986301369863014,NA,16.331658291457288
19382,Chester County,PA,4.98220640569395,15.851272015655576,NA,NA
19401,Montgomery County,PA,NA,9.197651663405088,NA,NA
19403,Montgomery County,PA,NA,50.68493150684932,NA,6.532663316582915
19468,Montgomery County,PA,NA,41.48727984344423,NA,NA
19602,Berks County,PA,NA,NA,NA,66.08040201005025
19610,Berks County,PA,NA,NA,NA,61.30653266331658
02860,Providence County,RI,NA,NA,NA,26.13065326633166
02861,Providence County,RI,NA,NA,31.873905429071804,NA
02865,Providence County,RI,66.90391459074732,NA,NA,NA
02904,Providence County,RI,NA,35.61643835616438,NA,NA
02910,Providence County,RI,49.46619217081851,NA,NA,NA
02915,Providence County,RI,NA,NA,54.81611208406305,NA
02919,Providence County,RI,NA,73.5812133072407,NA,NA
29063,Richland County,SC,NA,NA,48.33625218914185,NA
29209,Richland County,SC,NA,NA,48.51138353765324,NA
29302,Spartanburg County,SC,NA,NA,71.10332749562171,NA
29303,Spartanburg County,SC,NA,NA,56.91768826619965,NA
29306,Spartanburg County,SC,NA,NA,67.95096322241682,NA
29307,Spartanburg County,SC,NA,NA,NA,48.99497487437186
29334,Spartanburg County,SC,NA,NA,78.45884413309983,NA
29340,Cherokee County,SC,NA,NA,53.239929947460595,NA
29379,Union County,SC,NA,34.833659491193735,NA,NA
29414,Charleston County,SC,NA,NA,26.26970227670753,NA
29445,Berkeley County,SC,NA,27.397260273972602,NA,NA
29455,Charleston County,SC,NA,NA,NA,36.4321608040201
29461,Berkeley County,SC,20.99644128113879,NA,NA,NA
29485,Dorchester County,SC,6.761565836298933,NA,NA,NA
29486,Berkeley County,SC,35.94306049822064,NA,NA,NA
29527,Horry County,SC,NA,78.6692759295499,NA,NA
29556,Williamsburg County,SC,NA,NA,NA,67.08542713567839
29572,Horry County,SC,NA,NA,NA,74.87437185929649
29588,Horry County,SC,NA,38.94324853228962,NA,NA
29605,Greenville County,SC,NA,26.810176125244617,NA,NA
29621,Anderson County,SC,NA,NA,19.264448336252187,NA
29624,Anderson County,SC,NA,NA,52.53940455341506,NA
29640,Pickens County,SC,NA,23.874755381604697,NA,NA
29642,Pickens County,SC,NA,35.42074363992172,NA,NA
29651,Greenville County,SC,NA,NA,14.711033274956216,NA
29669,Anderson County,SC,NA,NA,60.24518388791593,NA
29678,Oconee County,SC,NA,NA,NA,43.21608040201005
29687,Greenville County,SC,38.43416370106761,NA,NA,NA
29697,Anderson County,SC,NA,90.41095890410958,NA,NA
29708,York County,SC,NA,NA,63.04728546409807,NA
29710,York County,SC,NA,NA,49.036777583187394,NA
29732,York County,SC,NA,NA,24.518388791593697,19.09547738693467
29745,York County,SC,NA,52.44618395303326,NA,NA
29906,Beaufort County,SC,NA,NA,NA,79.64824120603015
29910,Beaufort County,SC,NA,NA,39.57968476357268,NA
57103,Minnehaha County,SD,NA,NA,25.74430823117338,NA
57201,Codington County,SD,NA,78.27788649706457,NA,NA
57350,Beadle County,SD,NA,58.121330724070454,88.44133099824869,NA
57401,Brown County,SD,NA,NA,38.879159369527144,NA
57501,Hughes County,SD,NA,NA,NA,27.386934673366838
37013,Davidson County,TN,2.135231316725979,NA,NA,NA
37043,Montgomery County,TN,50.5338078291815,38.74755381604697,NA,NA
37062,Williamson County,TN,NA,NA,NA,78.64321608040201
37066,Sumner County,TN,18.14946619217082,NA,NA,NA
37087,Wilson County,TN,NA,NA,25.91943957968476,NA
37150,Macon County,TN,NA,96.28180039138942,NA,NA
37206,Davidson County,TN,28.825622775800714,NA,NA,NA
37215,Davidson County,TN,NA,NA,97.02276707530648,36.93467336683417
37216,Davidson County,TN,NA,NA,84.93870402802102,NA
37327,Sequatchie County,TN,NA,74.95107632093934,NA,NA
37331,McMinn County,TN,NA,NA,74.78108581436076,NA
37381,Rhea County,TN,NA,83.17025440313111,NA,NA
37385,Monroe County,TN,NA,NA,60.595446584938706,NA
37388,Coffee County,TN,NA,NA,NA,51.005025125628144
37398,Franklin County,TN,80.78291814946618,NA,NA,NA
37601,Washington County,TN,NA,48.336594911937375,NA,NA
37643,Carter County,TN,NA,13.307240704500977,NA,NA
37660,Sullivan County,TN,NA,8.806262230919765,NA,NA
37664,Sullivan County,TN,NA,NA,46.93520140105078,NA
37737,Blount County,TN,NA,NA,81.26094570928196,NA
37764,Sevier County,TN,NA,75.92954990215264,NA,NA
37771,Loudon County,TN,NA,56.75146771037182,NA,NA
37843,Cocke County,TN,99.28825622775801,NA,NA,NA
37870,Claiborne County,TN,NA,95.30332681017613,NA,NA
37885,Monroe County,TN,NA,NA,97.19789842381786,NA
37915,Knox County,TN,NA,NA,98.24868651488616,NA
38012,Haywood County,TN,NA,NA,67.0753064798599,NA
38019,Tipton County,TN,NA,NA,92.81961471103327,NA
38053,Shelby County,TN,NA,NA,52.71453590192644,NA
38109,Shelby County,TN,3.558718861209965,NA,NA,NA
38112,Shelby County,TN,NA,66.14481409001957,NA,NA
38114,Shelby County,TN,NA,24.070450097847356,NA,NA
38127,Shelby County,TN,NA,9.58904109589041,NA,NA
38261,Obion County,TN,NA,NA,69.1768826619965,NA
38305,Madison County,TN,NA,NA,42.73204903677758,NA
38382,Gibson County,TN,76.15658362989323,NA,NA,NA
38401,Maury County,TN,NA,NA,NA,18.84422110552764
38551,Clay County,TN,NA,NA,80.21015761821366,NA
38562,Jackson County,TN,NA,86.3013698630137,93.34500875656742,NA
75021,Grayson County,TX,NA,87.08414872798434,NA,NA
75025,Collin County,TX,NA,NA,NA,60.050251256281406
75034,Denton County,TX,NA,NA,29.947460595446586,NA
75042,Dallas County,TX,NA,NA,NA,86.4321608040201
75043,Dallas County,TX,NA,NA,18.388791593695274,NA
75051,Dallas County,TX,16.72597864768683,NA,NA,NA
75067,Denton County,TX,17.793594306049823,NA,NA,70.10050251256281
75070,Collin County,TX,NA,17.80821917808219,NA,NA
75071,Collin County,TX,59.07473309608541,NA,NA,NA
75115,Dallas County,TX,21.352313167259787,NA,NA,NA
75224,Dallas County,TX,NA,47.74951076320939,NA,NA
75287,Denton County,TX,NA,NA,NA,85.42713567839196
75551,Cass County,TX,NA,81.99608610567515,NA,NA
75604,Gregg County,TX,NA,NA,59.19439579684763,NA
75605,Gregg County,TX,NA,54.01174168297456,NA,NA
75633,Panola County,TX,NA,NA,NA,77.1356783919598
75672,Harrison County,TX,NA,NA,62.34676007005254,NA
75709,Smith County,TX,NA,NA,NA,88.94472361809045
75961,Nacogdoches County,TX,NA,NA,74.6059544658494,NA
76012,Tarrant County,TX,NA,NA,53.06479859894922,NA
76016,Tarrant County,TX,NA,NA,24.168126094570926,NA
76028,Johnson County,TX,NA,NA,3.502626970227671,NA
76043,Somervell County,TX,NA,NA,NA,83.41708542713567
76092,Tarrant County,TX,60.14234875444839,NA,NA,NA
76106,Tarrant County,TX,23.131672597864767,NA,NA,NA
76119,Tarrant County,TX,NA,NA,9.632224168126093,NA
76137,Tarrant County,TX,NA,NA,21.891418563922944,NA
76148,Tarrant County,TX,NA,NA,53.59019264448336,88.44221105527639
76179,Tarrant County,TX,NA,64.9706457925636,NA,NA
76272,Cooke County,TX,94.30604982206405,NA,92.29422066549913,NA
76448,Eastland County,TX,NA,97.26027397260275,NA,NA
76502,Bell County,TX,17.08185053380783,NA,NA,NA
76520,Milam County,TX,NA,72.99412915851272,NA,NA
76543,Bell County,TX,48.39857651245551,NA,NA,7.035175879396985
76550,Lampasas County,TX,NA,NA,82.48686514886164,NA
76574,Williamson County,TX,NA,49.706457925636,NA,NA
76643,McLennan County,TX,82.56227758007117,NA,NA,NA
76645,Hill County,TX,NA,NA,67.25043782837128,NA
76692,Hill County,TX,NA,NA,58.14360770577933,NA
76706,McLennan County,TX,NA,37.18199608610567,NA,NA
76821,Runnels County,TX,NA,NA,88.61646234676007,NA
76834,Coleman County,TX,90.39145907473309,NA,NA,NA
76903,Tom Green County,TX,45.90747330960854,NA,NA,NA
77014,Harris County,TX,37.01067615658363,NA,NA,NA
77018,Harris County,TX,60.4982206405694,NA,NA,NA
77034,Harris County,TX,28.46975088967972,NA,NA,NA
77053,Fort Bend County,TX,NA,NA,56.3922942206655,NA
77064,Harris County,TX,NA,NA,41.33099824868651,NA
77077,Harris County,TX,49.8220640569395,NA,NA,NA
77078,Harris County,TX,NA,NA,NA,93.21608040201005
77083,Harris County,TX,NA,NA,NA,67.58793969849246
77316,Montgomery County,TX,NA,NA,61.646234676007005,NA
77373,Harris County,TX,NA,NA,28.7215411558669,NA
77386,Montgomery County,TX,NA,36.20352250489237,NA,NA
77422,Brazoria County,TX,NA,NA,NA,69.34673366834171
77511,Brazoria County,TX,7.829181494661921,17.61252446183953,NA,NA
77523,Chambers County,TX,29.537366548042705,NA,NA,NA
77530,Harris County,TX,59.7864768683274,NA,NA,NA
77632,Orange County,TX,NA,52.83757338551859,NA,NA
77659,Hardin County,TX,95.72953736654804,NA,NA,NA
77708,Jefferson County,TX,NA,NA,96.14711033274956,NA
77840,Brazos County,TX,NA,45.596868884540115,NA,NA
77845,Brazos County,TX,NA,NA,4.378283712784588,NA
78016,Medina County,TX,NA,NA,89.49211908931699,NA
78045,Webb County,TX,NA,NA,34.15061295971979,NA
78155,Guadalupe County,TX,NA,NA,NA,32.663316582914575
78209,Bexar County,TX,NA,66.53620352250489,NA,NA
78226,Bexar County,TX,NA,NA,NA,98.24120603015075
78230,Bexar County,TX,NA,62.62230919765166,NA,NA
78232,Bexar County,TX,NA,NA,42.90718038528897,54.020100502512555
78240,Bexar County,TX,NA,44.031311154598825,NA,NA
78258,Bexar County,TX,NA,69.47162426614481,NA,NA
78260,Bexar County,TX,NA,NA,NA,87.43718592964824
78382,Aransas County,TX,NA,85.32289628180038,NA,NA
78572,Hidalgo County,TX,27.046263345195733,NA,NA,NA
78574,Hidalgo County,TX,16.014234875444842,NA,NA,NA
78577,Hidalgo County,TX,NA,NA,60.07005253940455,NA
78582,Starr County,TX,NA,71.42857142857143,NA,NA
78605,Burnet County,TX,NA,NA,NA,87.93969849246231
78613,Williamson County,TX,NA,NA,NA,7.2864321608040195
78633,Williamson County,TX,NA,NA,NA,0.5025125628140703
78640,Hays County,TX,NA,NA,41.5061295971979,NA
78641,Williamson County,TX,NA,NA,19.089316987740805,NA
78723,Travis County,TX,48.754448398576514,NA,NA,NA
78748,Travis County,TX,NA,NA,NA,66.83417085427136
78749,Travis County,TX,NA,NA,NA,79.39698492462311
79124,Potter County,TX,93.23843416370107,NA,NA,NA
79407,Lubbock County,TX,NA,NA,62.6970227670753,NA
79413,Lubbock County,TX,NA,NA,54.46584938704028,NA
79510,Callahan County,TX,NA,NA,83.88791593695272,NA
79549,Scurry County,TX,NA,41.878669275929546,NA,NA
79606,Taylor County,TX,NA,NA,NA,88.69346733668341
79714,Andrews County,TX,NA,NA,NA,82.66331658291458
79764,Ector County,TX,35.231316725978644,NA,NA,NA
79936,El Paso County,TX,NA,63.992172211350294,NA,NA
79938,El Paso County,TX,NA,33.659491193737765,NA,NA
84037,Davis County,UT,NA,NA,NA,74.37185929648241
84043,Utah County,UT,NA,45.40117416829745,NA,NA
84074,Tooele County,UT,NA,4.305283757338552,NA,NA
84088,Salt Lake County,UT,NA,NA,NA,91.70854271356784
84098,Summit County,UT,NA,NA,47.635726795096325,NA
84120,Salt Lake County,UT,11.032028469750891,NA,NA,NA
84404,Weber County,UT,NA,NA,NA,46.231155778894475
84601,Utah County,UT,NA,NA,NA,90.20100502512562
05201,Bennington County,VT,NA,48.53228962818004,NA,NA
05403,Chittenden County,VT,NA,NA,77.5831873905429,NA
05495,Chittenden County,VT,NA,NA,NA,71.85929648241206
05701,Rutland County,VT,NA,NA,40.98073555166375,NA
20148,Loudoun County,VA,NA,NA,95.6217162872154,NA
20170,Fairfax County,VA,NA,67.5146771037182,NA,NA
20171,Fairfax County,VA,NA,51.07632093933464,NA,NA
20180,Loudoun County,VA,NA,94.12915851272015,NA,NA
22152,Fairfax County,VA,NA,57.925636007827784,NA,NA
22201,Arlington County,VA,NA,63.013698630136986,NA,NA
22312,Fairfax County,VA,NA,45.00978473581213,NA,NA
22408,Spotsylvania County,VA,NA,68.29745596868885,NA,NA
22508,Orange County,VA,NA,NA,76.35726795096322,73.36683417085426
22601,Winchester city,VA,NA,NA,NA,62.8140703517588
22664,Shenandoah County,VA,NA,NA,NA,37.437185929648244
22802,Harrisonburg city,VA,NA,NA,NA,26.884422110552762
22835,Page County,VA,NA,97.65166340508806,50.78809106830122,NA
22901,Albemarle County,VA,NA,NA,NA,36.18090452261307
22980,Waynesboro city,VA,NA,NA,NA,3.5175879396984926
23220,Richmond city,VA,NA,85.12720156555773,NA,NA
23324,Chesapeake city,VA,NA,41.68297455968688,NA,NA
23435,Suffolk city,VA,NA,NA,36.25218914185639,NA
23455,Virginia Beach city,VA,75.44483985765125,NA,NA,NA
23503,Norfolk city,VA,NA,NA,NA,62.562814070351756
23504,Norfolk city,VA,50.88967971530249,NA,NA,NA
23601,Newport News city,VA,83.98576512455516,NA,NA,24.87437185929648
23608,Newport News city,VA,NA,NA,NA,50.502512562814076
23707,Portsmouth city,VA,41.281138790035584,NA,NA,NA
23805,Petersburg city,VA,NA,55.18590998043052,NA,NA
23842,Prince George County,VA,NA,NA,93.52014010507881,NA
24017,Roanoke city,VA,NA,NA,42.556917688266196,64.07035175879398
24055,Henry County,VA,NA,NA,NA,63.31658291457286
24179,Roanoke County,VA,NA,NA,NA,49.497487437185924
24251,Scott County,VA,NA,NA,NA,85.17587939698493
24501,Lynchburg city,VA,NA,NA,NA,45.97989949748744
24502,Lynchburg city,VA,NA,NA,NA,12.814070351758794
24504,Lynchburg city,VA,NA,61.44814090019569,NA,NA
24523,Bedford County,VA,NA,NA,NA,33.91959798994975
24540,Danville city,VA,NA,NA,28.896672504378284,NA
24557,Pittsylvania County,VA,NA,NA,86.69001751313485,NA
24558,Halifax County,VA,NA,NA,NA,65.57788944723619
24572,Amherst County,VA,NA,NA,80.38528896672504,NA
24609,Tazewell County,VA,NA,NA,NA,71.60804020100502
24641,Tazewell County,VA,NA,81.2133072407045,NA,NA
24651,Tazewell County,VA,NA,95.69471624266144,NA,NA
98002,King County,WA,NA,37.37769080234833,NA,NA
98003,King County,WA,NA,30.724070450097845,NA,NA
98012,Snohomish County,WA,NA,32.28962818003914,NA,NA
98032,King County,WA,NA,NA,45.359019264448335,NA
98102,King County,WA,NA,NA,66.72504378283712,NA
98108,King County,WA,NA,75.14677103718199,NA,NA
98201,Snohomish County,WA,NA,NA,46.58493870402802,NA
98332,Pierce County,WA,NA,NA,53.41506129597198,NA
98362,Clallam County,WA,NA,71.0371819960861,9.281961471103326,NA
98382,Clallam County,WA,NA,NA,20.31523642732049,NA
98383,Kitsap County,WA,NA,NA,54.290718038528894,NA
98387,Pierce County,WA,23.487544483985765,NA,NA,NA
98422,Pierce County,WA,NA,64.77495107632095,NA,NA
98516,Thurston County,WA,NA,NA,70.92819614711033,NA
98683,Clark County,WA,NA,NA,NA,44.9748743718593
98801,Chelan County,WA,NA,27.00587084148728,NA,NA
98837,Grant County,WA,NA,NA,66.37478108581436,NA
98902,Yakima County,WA,NA,NA,25.39404553415061,NA
99004,Spokane County,WA,NA,NA,87.04028021015762,NA
99156,Pend Oreille County,WA,NA,NA,77.40805604203153,NA
99301,Franklin County,WA,NA,NA,8.40630472854641,NA
99320,Benton County,WA,NA,NA,51.66374781085814,NA
99337,Benton County,WA,NA,28.962818003913892,NA,NA
99353,Benton County,WA,NA,NA,59.89492119089317,NA
20011,District of Columbia,DC,NA,NA,46.760070052539405,NA
20018,District of Columbia,DC,NA,NA,27.495621716287218,NA
20019,District of Columbia,DC,NA,NA,6.129597197898424,NA
20020,District of Columbia,DC,6.405693950177936,NA,NA,NA
25213,Putnam County,WV,NA,NA,89.66725043782837,NA
25271,Jackson County,WV,NA,NA,60.94570928196147,NA
25302,Kanawha County,WV,NA,NA,57.09281961471103,NA
25314,Kanawha County,WV,NA,NA,47.46059544658494,NA
25403,Berkeley County,WV,NA,74.55968688845401,NA,NA
25405,Berkeley County,WV,NA,NA,90.19264448336253,NA
25670,Mingo County,WV,NA,NA,NA,83.66834170854271
25701,Cabell County,WV,NA,18.003913894324853,NA,NA
25901,Fayette County,WV,NA,47.55381604696673,NA,NA
26003,Ohio County,WV,NA,6.262230919765166,NA,NA
26041,Marshall County,WV,NA,NA,21.71628721541156,NA
26101,Wood County,WV,8.896797153024911,75.53816046966732,NA,NA
26155,Wetzel County,WV,NA,NA,NA,68.34170854271356
26181,Wood County,WV,NA,NA,85.46409807355516,NA
26351,Gilmer County,WV,NA,NA,NA,100
26456,Doddridge County,WV,NA,99.412915851272,NA,NA
26554,Marion County,WV,16.370106761565836,NA,NA,NA
26847,Grant County,WV,NA,90.01956947162427,NA,NA
53037,Washington County,WI,NA,87.866927592955,NA,NA
53051,Waukesha County,WI,NA,NA,25.569176882662,NA
53121,Walworth County,WI,NA,NA,31.17338003502627,NA
53143,Kenosha County,WI,NA,NA,30.64798598949212,NA
53177,Racine County,WI,NA,81.60469667318982,NA,NA
53202,Milwaukee County,WI,NA,86.88845401174167,NA,NA
53207,Milwaukee County,WI,NA,28.57142857142857,NA,NA
53218,Milwaukee County,WI,NA,7.8277886497064575,NA,NA
53221,Milwaukee County,WI,NA,NA,22.416812609457093,NA
53235,Milwaukee County,WI,NA,93.15068493150685,NA,NA
53511,Rock County,WI,0,NA,NA,NA
53545,Rock County,WI,NA,NA,20.140105078809107,15.326633165829145
53546,Rock County,WI,NA,NA,4.028021015761821,NA
53555,Columbia County,WI,NA,NA,95.27145359019265,NA
53566,Green County,WI,NA,51.46771037181996,NA,NA
53901,Columbia County,WI,74.02135231316726,NA,NA,NA
53916,Dodge County,WI,NA,42.27005870841487,NA,NA
53950,Juneau County,WI,NA,NA,NA,94.22110552763819
53965,Sauk County,WI,NA,72.6027397260274,NA,NA
54143,Marinette County,WI,NA,NA,55.34150612959719,38.44221105527638
54235,Door County,WI,NA,63.600782778864975,NA,NA
54311,Brown County,WI,NA,NA,NA,58.040201005025125
54449,Wood County,WI,NA,NA,74.25569176882661,NA
54481,Portage County,WI,NA,NA,NA,8.542713567839195
54494,Wood County,WI,NA,NA,8.756567425569177,NA
54552,Price County,WI,NA,NA,91.76882661996497,NA
54601,La Crosse County,WI,NA,NA,13.660245183887914,NA
54603,La Crosse County,WI,NA,NA,83.53765323992994,NA
54656,Monroe County,WI,NA,NA,39.57968476357268,NA
54701,Eau Claire County,WI,54.092526690391466,43.444227005870836,NA,NA
54703,Eau Claire County,WI,NA,NA,NA,34.42211055276382
54837,Polk County,WI,NA,NA,NA,96.23115577889448
54893,Burnett County,WI,NA,NA,NA,79.89949748743719
54902,Winnebago County,WI,45.90747330960854,NA,NA,NA
54952,Winnebago County,WI,NA,NA,NA,55.778894472361806
82001,Laramie County,WY,NA,NA,61.99649737302977,NA
82007,Laramie County,WY,NA,NA,91.06830122591944,NA
82009,Laramie County,WY,NA,NA,NA,53.768844221105525
82070,Albany County,WY,NA,84.34442270058709,90.36777583187391,NA
82601,Natrona County,WY,NA,77.69080234833659,NA,NA
82801,Sheridan County,WY,NA,NA,NA,28.894472361809044
