ZipCode,county,state,Adult,Retirement
35094,Jefferson County,AL,76.888217522658607,NA
35620,Limestone County,AL,73.86706948640483,NA
35763,Madison County,AL,67.5226586102719,NA
35773,Madison County,AL,59.66767371601208,NA
35901,Etowah County,AL,30.060422960725074,NA
35950,Marshall County,AL,34.894259818731115,NA
36064,Montgomery County,AL,86.85800604229608,NA
36116,Montgomery County,AL,19.486404833836858,NA
36526,Baldwin County,AL,70.99697885196375,NA
36571,Mobile County,AL,61.48036253776436,NA
36870,Lee County,AL,NA,89.85507246376811
85006,Maricopa County,AZ,36.25377643504532,NA
85008,Maricopa County,AZ,12.537764350453173,NA
85014,Maricopa County,AZ,66.01208459214502,NA
85027,Maricopa County,AZ,35.196374622356494,NA
85032,Maricopa County,AZ,13.897280966767372,NA
85035,Maricopa County,AZ,15.709969788519636,NA
85037,Maricopa County,AZ,22.80966767371601,NA
85048,Maricopa County,AZ,43.80664652567976,NA
85138,Pinal County,AZ,33.68580060422961,NA
85140,Pinal County,AZ,30.211480362537763,NA
85143,Pinal County,AZ,30.966767371601208,NA
85205,Maricopa County,AZ,24.47129909365559,NA
85284,Maricopa County,AZ,68.7311178247734,NA
85304,Maricopa County,AZ,46.97885196374622,NA
85614,Pima County,AZ,83.23262839879155,NA
85621,Santa Cruz County,AZ,NA,74.78260869565217
85710,Pima County,AZ,8.157099697885197,NA
85757,Pima County,AZ,23.413897280966765,NA
86004,Coconino County,AZ,NA,14.782608695652174
72002,Saline County,AR,NA,68.40579710144927
72118,Pulaski County,AR,NA,59.130434782608695
72205,Pulaski County,AR,70.39274924471299,NA
72212,Pulaski County,AR,NA,62.89855072463768
72450,Greene County,AR,18.882175226586103,NA
72455,Randolph County,AR,73.71601208459214,NA
72687,Marion County,AR,98.48942598187311,NA
72801,Pope County,AR,NA,98.55072463768117
90004,Los Angeles County,CA,38.82175226586103,NA
90018,Los Angeles County,CA,NA,30.72463768115942
90028,Los Angeles County,CA,79.30513595166163,NA
90041,Los Angeles County,CA,83.68580060422961,NA
90048,Los Angeles County,CA,94.25981873111783,NA
90061,Los Angeles County,CA,62.08459214501511,NA
90065,Los Angeles County,CA,50.30211480362537,NA
90211,Los Angeles County,CA,96.52567975830816,NA
90249,Los Angeles County,CA,NA,59.42028985507246
90255,Los Angeles County,CA,27.0392749244713,NA
90277,Los Angeles County,CA,48.18731117824773,NA
90403,Los Angeles County,CA,60.12084592145015,NA
90605,Los Angeles County,CA,74.16918429003022,NA
90706,Los Angeles County,CA,NA,35.36231884057971
90715,Los Angeles County,CA,NA,74.4927536231884
90731,Los Angeles County,CA,56.49546827794561,NA
91107,Los Angeles County,CA,91.23867069486404,NA
91331,Los Angeles County,CA,11.027190332326283,NA
91384,Los Angeles County,CA,66.76737160120845,NA
91761,San Bernardino County,CA,NA,33.04347826086956
91767,Los Angeles County,CA,34.29003021148036,NA
91780,Los Angeles County,CA,96.97885196374622,NA
92008,San Diego County,CA,NA,60.57971014492753
92067,San Diego County,CA,NA,91.88405797101449
92081,San Diego County,CA,NA,67.2463768115942
92101,San Diego County,CA,NA,11.884057971014492
92103,San Diego County,CA,NA,76.81159420289855
92109,San Diego County,CA,61.631419939577036,NA
92110,San Diego County,CA,NA,78.84057971014494
92115,San Diego County,CA,NA,40
92117,San Diego County,CA,51.20845921450151,NA
92120,San Diego County,CA,70.84592145015107,NA
92243,Imperial County,CA,22.507552870090635,NA
92260,Riverside County,CA,NA,15.072463768115943
92262,Riverside County,CA,20.090634441087612,NA
92264,Riverside County,CA,NA,13.333333333333334
92405,San Bernardino County,CA,39.72809667673716,NA
92506,Riverside County,CA,96.37462235649546,NA
92582,Riverside County,CA,93.05135951661632,NA
92620,Orange County,CA,37.46223564954683,40.57971014492754
92647,Orange County,CA,NA,24.347826086956523
92688,Orange County,CA,61.027190332326285,NA
92804,Orange County,CA,92.90030211480362,NA
92808,Orange County,CA,97.88519637462235,NA
93436,Santa Barbara County,CA,79.7583081570997,NA
93534,Los Angeles County,CA,31.1178247734139,NA
93702,Fresno County,CA,25.83081570996979,NA
93711,Fresno County,CA,59.818731117824775,NA
93726,Fresno County,CA,73.26283987915407,NA
94063,San Mateo County,CA,36.70694864048338,NA
94085,Santa Clara County,CA,90.6344410876133,NA
94105,San Francisco County,CA,90.33232628398792,NA
94114,San Francisco County,CA,84.89425981873111,NA
94117,San Francisco County,CA,30.815709969788518,NA
94118,San Francisco County,CA,NA,67.82608695652173
94122,San Francisco County,CA,NA,25.217391304347824
94403,San Mateo County,CA,NA,51.8840579710145
94555,Alameda County,CA,NA,66.95652173913044
94587,Alameda County,CA,NA,25.507246376811594
94588,Alameda County,CA,NA,69.56521739130434
94806,Contra Costa County,CA,NA,25.79710144927536
94945,Marin County,CA,93.95770392749245,88.40579710144928
95020,Santa Clara County,CA,NA,31.88405797101449
95112,Santa Clara County,CA,32.17522658610272,NA
95121,Santa Clara County,CA,NA,81.73913043478261
95123,Santa Clara County,CA,NA,28.695652173913043
95204,San Joaquin County,CA,50.453172205438065,NA
95240,San Joaquin County,CA,NA,42.89855072463768
95258,San Joaquin County,CA,96.67673716012085,NA
95361,Stanislaus County,CA,35.80060422960725,NA
95628,Sacramento County,CA,55.2870090634441,NA
95648,Placer County,CA,NA,27.246376811594203
95666,Amador County,CA,99.54682779456193,NA
95688,Solano County,CA,58.45921450151057,NA
95758,Sacramento County,CA,47.583081570996974,NA
95822,Sacramento County,CA,33.53474320241692,NA
95823,Sacramento County,CA,11.329305135951662,NA
80012,Arapahoe County,CO,32.93051359516616,NA
80016,Arapahoe County,CO,20.996978851963746,NA
80021,Jefferson County,CO,NA,54.492753623188406
80033,Jefferson County,CO,NA,59.710144927536234
80111,Arapahoe County,CO,NA,61.44927536231884
80116,Douglas County,CO,NA,96.52173913043478
80123,Jefferson County,CO,42.14501510574018,NA
80125,Douglas County,CO,86.5558912386707,NA
80134,Douglas County,CO,23.11178247734139,NA
80138,Douglas County,CO,72.50755287009063,NA
80207,Denver County,CO,NA,88.1159420289855
80210,Denver County,CO,NA,52.7536231884058
80224,Denver County,CO,NA,93.6231884057971
80233,Adams County,CO,NA,49.56521739130435
80301,Boulder County,CO,53.47432024169184,NA
80465,Jefferson County,CO,94.7129909365559,NA
80504,Boulder County,CO,57.70392749244713,NA
80513,Larimer County,CO,84.59214501510573,NA
80517,Larimer County,CO,NA,45.21739130434783
80537,Larimer County,CO,20.39274924471299,NA
80863,Teller County,CO,NA,84.05797101449275
80908,El Paso County,CO,77.19033232628398,NA
80917,El Paso County,CO,NA,53.04347826086957
81006,Pueblo County,CO,89.27492447129909,NA
81050,Otero County,CO,89.72809667673715,NA
81082,Las Animas County,CO,58.006042296072515,NA
06051,Hartford County,CT,NA,21.44927536231884
06468,Fairfield County,CT,NA,75.65217391304347
06708,New Haven County,CT,NA,34.78260869565217
06710,New Haven County,CT,52.567975830815705,NA
06851,Fairfield County,CT,52.87009063444109,NA
06878,Fairfield County,CT,94.41087613293051,NA
19713,New Castle County,DE,28.09667673716012,NA
19803,New Castle County,DE,NA,46.95652173913044
32043,Clay County,FL,39.12386706948641,NA
32095,St. Johns County,FL,NA,79.42028985507247
32162,Sumter County,FL,NA,37.10144927536232
32208,Duval County,FL,NA,8.405797101449275
32459,Walton County,FL,57.85498489425982,NA
32533,Escambia County,FL,55.89123867069487,NA
32608,Alachua County,FL,7.099697885196375,NA
32656,Clay County,FL,61.78247734138973,NA
32693,Gilchrist County,FL,60.42296072507553,NA
32792,Orange County,FL,53.92749244712991,NA
32920,Brevard County,FL,NA,90.14492753623189
32931,Brevard County,FL,NA,64.92753623188405
33040,Monroe County,FL,38.066465256797585,NA
33071,Broward County,FL,NA,60.86956521739131
33125,Miami-Dade County,FL,38.51963746223565,NA
33135,Miami-Dade County,FL,66.46525679758308,NA
33142,Miami-Dade County,FL,17.97583081570997,53.91304347826087
33147,Miami-Dade County,FL,NA,35.07246376811594
33150,Miami-Dade County,FL,71.29909365558912,NA
33183,Miami-Dade County,FL,NA,70.43478260869566
33186,Miami-Dade County,FL,NA,32.463768115942024
33334,Broward County,FL,47.88519637462236,NA
33351,Broward County,FL,62.99093655589124,NA
33435,Palm Beach County,FL,41.389728096676734,NA
33436,Palm Beach County,FL,50.60422960725075,NA
33449,Palm Beach County,FL,NA,94.4927536231884
33473,Palm Beach County,FL,NA,86.95652173913044
33542,Pasco County,FL,NA,46.08695652173913
33592,Hillsborough County,FL,68.42900302114803,NA
33812,Polk County,FL,67.82477341389728,NA
33876,Highlands County,FL,88.51963746223565,NA
33905,Lee County,FL,NA,75.94202898550725
33917,Lee County,FL,NA,22.318840579710145
34145,Collier County,FL,NA,41.449275362318836
34222,Manatee County,FL,NA,73.62318840579711
34234,Sarasota County,FL,34.44108761329305,NA
34241,Sarasota County,FL,90.78549848942599,NA
34442,Citrus County,FL,72.35649546827794,NA
34471,Marion County,FL,46.676737160120844,NA
34683,Pinellas County,FL,56.797583081571,NA
34684,Pinellas County,FL,62.53776435045317,NA
34685,Pinellas County,FL,NA,73.33333333333333
34689,Pinellas County,FL,NA,71.01449275362319
34952,St. Lucie County,FL,22.356495468277945,NA
34957,Martin County,FL,85.80060422960725,NA
34997,Martin County,FL,NA,11.014492753623188
30032,DeKalb County,GA,11.63141993957704,NA
30039,Gwinnett County,GA,NA,52.17391304347826
30041,Forsyth County,GA,24.924471299093657,NA
30083,DeKalb County,GA,NA,79.13043478260869
30092,Gwinnett County,GA,55.135951661631424,NA
30114,Cherokee County,GA,NA,61.73913043478261
30115,Cherokee County,GA,NA,69.85507246376812
30165,Floyd County,GA,22.9607250755287,NA
30224,Spalding County,GA,47.88519637462236,NA
30269,Fayette County,GA,NA,48.11594202898551
30286,Upson County,GA,NA,50.72463768115942
30294,DeKalb County,GA,35.64954682779456,NA
30310,Fulton County,GA,21.6012084592145,NA
30315,Fulton County,GA,27.19033232628399,NA
30318,Fulton County,GA,25.075528700906347,NA
30331,Fulton County,GA,NA,35.65217391304348
30605,Clarke County,GA,49.39577039274924,NA
30633,Madison County,GA,NA,86.37681159420289
30635,Elbert County,GA,56.646525679758305,NA
30728,Walker County,GA,74.47129909365559,NA
30830,Burke County,GA,82.02416918429003,NA
30906,Richmond County,GA,NA,31.01449275362319
31029,Monroe County,GA,63.59516616314199,NA
31052,Bibb County,GA,NA,99.1304347826087
31088,Houston County,GA,NA,24.637681159420293
31217,Bibb County,GA,55.740181268882175,NA
31302,Effingham County,GA,NA,95.3623188405797
31562,Charlton County,GA,96.07250755287009,NA
31620,Cook County,GA,NA,89.56521739130436
31907,Muscogee County,GA,7.854984894259818,NA
31909,Muscogee County,GA,75.67975830815709,NA
96701,Honolulu County,HI,NA,20
96789,Honolulu County,HI,79.60725075528701,NA
96792,Honolulu County,HI,11.178247734138973,NA
96795,Honolulu County,HI,66.61631419939576,NA
96815,Honolulu County,HI,43.202416918429,NA
96826,Honolulu County,HI,NA,32.17391304347826
83201,Bannock County,ID,50.15105740181269,NA
83338,Jerome County,ID,49.244712990936556,NA
83445,Fremont County,ID,100,NA
83647,Elmore County,ID,NA,46.3768115942029
83858,Kootenai County,ID,NA,65.21739130434783
83861,Benewah County,ID,87.46223564954683,NA
60016,Cook County,IL,51.3595166163142,NA
60061,Lake County,IL,NA,47.53623188405797
60062,Cook County,IL,NA,7.536231884057972
60099,Lake County,IL,63.29305135951662,NA
60123,Kane County,IL,NA,17.681159420289855
60126,DuPage County,IL,NA,4.057971014492753
60143,DuPage County,IL,99.24471299093656,NA
60152,McHenry County,IL,NA,51.01449275362319
60181,DuPage County,IL,56.19335347432024,NA
60302,Cook County,IL,NA,15.65217391304348
60402,Cook County,IL,10.574018126888216,NA
60416,Grundy County,IL,54.229607250755286,NA
60436,Will County,IL,74.92447129909365,NA
60446,Will County,IL,NA,68.69565217391305
60453,Cook County,IL,37.91540785498489,NA
60471,Cook County,IL,62.688821752265866,NA
60478,Cook County,IL,85.95166163141994,NA
60517,DuPage County,IL,82.62839879154077,32.7536231884058
60542,Kane County,IL,58.76132930513596,NA
60565,DuPage County,IL,69.93957703927492,NA
60585,Will County,IL,49.69788519637463,NA
60586,Will County,IL,13.595166163141995,NA
60614,Cook County,IL,63.141993957703924,NA
60618,Cook County,IL,NA,23.18840579710145
60620,Cook County,IL,NA,4.9275362318840585
60629,Cook County,IL,6.193353474320242,NA
60630,Cook County,IL,50.90634441087614,NA
60632,Cook County,IL,37.00906344410876,NA
60634,Cook County,IL,NA,36.231884057971016
60641,Cook County,IL,NA,17.681159420289855
60646,Cook County,IL,NA,75.36231884057972
60649,Cook County,IL,12.83987915407855,NA
60652,Cook County,IL,25.981873111782477,NA
60654,Cook County,IL,89.12386706948641,NA
60657,Cook County,IL,NA,43.768115942028984
61103,Winnebago County,IL,NA,45.79710144927536
61350,LaSalle County,IL,91.38972809667673,NA
61604,Peoria County,IL,NA,70.72463768115942
61704,McLean County,IL,32.779456193353475,NA
61761,McLean County,IL,76.28398791540786,NA
61801,Champaign County,IL,NA,98.26086956521739
61821,Champaign County,IL,77.94561933534743,NA
61866,Champaign County,IL,35.34743202416919,NA
62249,Madison County,IL,67.82477341389728,86.66666666666667
62526,Macon County,IL,10.725075528700906,NA
46032,Hamilton County,IN,84.74320241691842,NA
46072,Tipton County,IN,69.03323262839879,NA
46140,Hancock County,IN,26.283987915407852,NA
46202,Marion County,IN,54.68277945619335,NA
46205,Marion County,IN,NA,56.811594202898554
46226,Marion County,IN,NA,17.101449275362317
46228,Marion County,IN,70.2416918429003,NA
46375,Lake County,IN,58.006042296072515,NA
46404,Lake County,IN,NA,50.14492753623189
46408,Lake County,IN,41.54078549848943,NA
46410,Lake County,IN,NA,6.3768115942028984
46574,St. Joseph County,IN,85.1963746223565,NA
46703,Steuben County,IN,NA,36.811594202898554
46804,Allen County,IN,39.577039274924466,NA
46809,Allen County,IN,51.057401812688816,NA
46902,Howard County,IN,32.02416918429003,NA
46952,Grant County,IN,17.673716012084594,NA
47172,Clark County,IN,98.33836858006042,NA
47501,Daviess County,IN,61.17824773413897,NA
47885,Vigo County,IN,75.67975830815709,NA
47901,Tippecanoe County,IN,98.79154078549848,NA
50125,Warren County,IA,61.329305135951664,NA
50322,Polk County,IA,56.04229607250756,NA
52402,Linn County,IA,18.580060422960727,NA
52501,Wapello County,IA,13.141993957703926,NA
52753,Scott County,IA,NA,97.10144927536231
66030,Johnson County,KS,73.56495468277946,NA
66104,Wyandotte County,KS,77.49244712990937,NA
67114,Harvey County,KS,NA,58.84057971014492
67654,Norton County,KS,89.87915407854985,NA
40004,Nelson County,KY,18.12688821752266,NA
40071,Spencer County,KY,NA,48.98550724637681
40207,Jefferson County,KY,NA,33.33333333333333
40220,Jefferson County,KY,75.37764350453172,NA
40272,Jefferson County,KY,37.160120845921455,NA
40291,Jefferson County,KY,16.91842900302115,NA
40324,Scott County,KY,12.386706948640484,NA
40351,Rowan County,KY,20.54380664652568,NA
40701,Whitley County,KY,NA,14.202898550724639
40823,Harlan County,KY,86.10271903323263,NA
41097,Grant County,KY,64.04833836858006,NA
42066,Graves County,KY,21.148036253776432,72.46376811594203
42211,Trigg County,KY,NA,43.188405797101446
70071,St. James Parish,LA,96.97885196374622,NA
70123,Jefferson Parish,LA,17.82477341389728,NA
70128,Orleans Parish,LA,16.012084592145015,NA
70392,St. Mary Parish,LA,NA,91.30434782608695
70438,Washington Parish,LA,12.235649546827794,NA
70471,St. Tammany Parish,LA,NA,54.78260869565217
70506,Lafayette Parish,LA,5.740181268882175,NA
70544,Iberia Parish,LA,NA,72.17391304347827
70570,St. Landry Parish,LA,NA,62.02898550724638
70592,Lafayette Parish,LA,26.586102719033235,NA
70706,Livingston Parish,LA,28.54984894259819,NA
70726,Livingston Parish,LA,1.3595166163141994,NA
70806,East Baton Rouge Parish,LA,78.09667673716012,NA
70807,East Baton Rouge Parish,LA,80.96676737160121,NA
70816,East Baton Rouge Parish,LA,5.589123867069486,NA
71115,Caddo Parish,LA,91.8429003021148,NA
71328,Rapides Parish,LA,54.833836858006045,NA
71369,Avoyelles Parish,LA,90.03021148036254,NA
03903,York County,ME,NA,75.07246376811594
04011,Cumberland County,ME,NA,27.82608695652174
04257,Oxford County,ME,95.16616314199395,NA
04345,Kennebec County,ME,NA,78.26086956521739
04901,Kennebec County,ME,4.682779456193353,NA
04963,Kennebec County,ME,89.57703927492447,NA
04976,Somerset County,ME,40.93655589123867,NA
20640,Charles County,MD,91.54078549848943,NA
20716,Prince George's County,MD,58.610271903323266,NA
20772,Prince George's County,MD,42.59818731117825,NA
20783,Prince George's County,MD,NA,79.71014492753623
20817,Montgomery County,MD,85.49848942598187,NA
20854,Montgomery County,MD,NA,66.66666666666666
20878,Montgomery County,MD,40.6344410876133,NA
20906,Montgomery County,MD,47.2809667673716,NA
21030,Baltimore County,MD,62.38670694864048,NA
21040,Harford County,MD,NA,71.01449275362319
21206,Baltimore city,MD,10.876132930513595,NA
21215,Baltimore city,MD,7.552870090634441,NA
21217,Baltimore city,MD,20.84592145015106,NA
21239,Baltimore city,MD,28.851963746223564,NA
21502,Allegany County,MD,21.90332326283988,NA
21638,Queen Anne's County,MD,95.61933534743203,NA
21804,Wicomico County,MD,41.99395770392749,NA
21830,Wicomico County,MD,99.09365558912387,NA
21911,Cecil County,MD,84.44108761329305,NA
01001,Hampden County,MA,23.564954682779458,NA
01040,Hampden County,MA,38.670694864048336,NA
01075,Hampshire County,MA,19.788519637462233,NA
01119,Hampden County,MA,15.407854984894259,NA
01230,Berkshire County,MA,NA,47.82608695652174
01301,Franklin County,MA,NA,37.391304347826086
01524,Worcester County,MA,64.50151057401813,NA
01529,Worcester County,MA,98.64048338368579,NA
01550,Worcester County,MA,NA,77.97101449275362
01570,Worcester County,MA,NA,5.217391304347826
01588,Worcester County,MA,45.468277945619334,NA
01602,Worcester County,MA,83.98791540785498,NA
01605,Worcester County,MA,NA,1.1594202898550725
01610,Worcester County,MA,NA,27.536231884057973
01721,Middlesex County,MA,72.20543806646525,NA
01746,Middlesex County,MA,NA,68.11594202898551
01749,Middlesex County,MA,19.033232628398792,NA
01801,Middlesex County,MA,1.0574018126888218,1.4492753623188406
01843,Essex County,MA,2.719033232628399,NA
01880,Middlesex County,MA,26.73716012084592,NA
01923,Essex County,MA,3.625377643504532,NA
01960,Essex County,MA,0.3021148036253776,NA
02062,Norfolk County,MA,NA,12.753623188405797
02066,Plymouth County,MA,81.2688821752266,NA
02114,Suffolk County,MA,NA,35.94202898550725
02116,Suffolk County,MA,14.04833836858006,NA
02118,Suffolk County,MA,0.1510574018126888,NA
02120,Suffolk County,MA,5.438066465256798,NA
02124,Suffolk County,MA,NA,0.2898550724637681
02126,Suffolk County,MA,74.62235649546828,NA
02128,Suffolk County,MA,NA,2.318840579710145
02132,Suffolk County,MA,NA,34.492753623188406
02136,Suffolk County,MA,NA,7.246376811594203
02139,Middlesex County,MA,2.2658610271903323,NA
02140,Middlesex County,MA,15.861027190332328,NA
02143,Middlesex County,MA,5.287009063444108,NA
02144,Middlesex County,MA,46.82779456193353,NA
02176,Middlesex County,MA,6.948640483383686,NA
02188,Norfolk County,MA,46.22356495468278,NA
02301,Plymouth County,MA,0,NA
02302,Plymouth County,MA,0.7552870090634441,NA
02341,Plymouth County,MA,NA,77.10144927536233
02446,Norfolk County,MA,NA,10.144927536231885
02481,Norfolk County,MA,NA,51.59420289855072
02492,Norfolk County,MA,24.018126888217523,NA
02493,Middlesex County,MA,79.90936555891238,NA
02632,Barnstable County,MA,91.6918429003021,NA
02653,Barnstable County,MA,84.29003021148036,NA
02668,Barnstable County,MA,NA,96.81159420289856
02760,Bristol County,MA,NA,62.31884057971014
48025,Oakland County,MI,87.00906344410876,NA
48034,Oakland County,MI,30.664652567975832,NA
48035,Macomb County,MI,9.365558912386707,NA
48060,St. Clair County,MI,29.909365558912388,NA
48062,Macomb County,MI,76.13293051359517,NA
48066,Macomb County,MI,3.1722054380664653,NA
48072,Oakland County,MI,44.71299093655589,NA
48073,Oakland County,MI,26.435045317220546,NA
48074,St. Clair County,MI,60.57401812688822,NA
48076,Oakland County,MI,57.40181268882175,NA
48097,St. Clair County,MI,NA,83.47826086956522
48098,Oakland County,MI,53.776435045317214,NA
48103,Washtenaw County,MI,NA,2.608695652173913
48105,Washtenaw County,MI,NA,16.52173913043478
48108,Washtenaw County,MI,31.87311178247734,NA
48111,Wayne County,MI,NA,8.985507246376812
48141,Wayne County,MI,8.006042296072508,NA
48154,Wayne County,MI,22.20543806646526,NA
48162,Monroe County,MI,71.90332326283988,4.63768115942029
48165,Oakland County,MI,69.33534743202418,NA
48170,Wayne County,MI,65.10574018126889,NA
48180,Wayne County,MI,2.1148036253776437,NA
48183,Wayne County,MI,8.308157099697885,NA
48197,Washtenaw County,MI,65.70996978851964,NA
48204,Wayne County,MI,9.516616314199396,30.144927536231886
48221,Wayne County,MI,4.984894259818732,NA
48227,Wayne County,MI,17.220543806646525,NA
48230,Wayne County,MI,45.01510574018127,NA
48236,Wayne County,MI,NA,44.927536231884055
48312,Macomb County,MI,NA,67.53623188405797
48315,Macomb County,MI,34.13897280966767,NA
48322,Oakland County,MI,77.79456193353475,NA
48346,Oakland County,MI,NA,77.39130434782608
48381,Oakland County,MI,58.30815709969789,NA
48507,Genesee County,MI,NA,31.30434782608696
48601,Saginaw County,MI,1.5105740181268883,NA
48640,Midland County,MI,NA,15.36231884057971
48653,Roscommon County,MI,97.58308157099698,NA
48843,Livingston County,MI,11.48036253776435,NA
49036,Branch County,MI,82.17522658610272,NA
49042,St. Joseph County,MI,92.44712990936556,NA
49120,Berrien County,MI,NA,16.81159420289855
49203,Jackson County,MI,7.250755287009064,NA
49508,Kent County,MI,NA,11.594202898550725
49546,Kent County,MI,NA,78.55072463768116
49659,Antrim County,MI,NA,80
49721,Cheboygan County,MI,43.50453172205438,NA
49837,Delta County,MI,NA,50.43478260869565
49855,Marquette County,MI,13.444108761329304,NA
49866,Marquette County,MI,52.26586102719033,NA
55076,Dakota County,MN,NA,54.20289855072464
55106,Ramsey County,MN,25.528700906344408,NA
55107,Ramsey County,MN,64.35045317220543,NA
55115,Washington County,MN,NA,99.42028985507247
55116,Ramsey County,MN,80.36253776435045,NA
55117,Ramsey County,MN,15.256797583081571,NA
55316,Hennepin County,MN,NA,80.8695652173913
55406,Hennepin County,MN,NA,28.985507246376812
55408,Hennepin County,MN,NA,72.7536231884058
55413,Hennepin County,MN,36.40483383685801,NA
55421,Anoka County,MN,88.97280966767372,NA
55423,Hennepin County,MN,45.468277945619334,NA
55442,Hennepin County,MN,70.09063444108762,NA
55444,Hennepin County,MN,51.3595166163142,NA
55987,Winona County,MN,NA,4.3478260869565215
56073,Brown County,MN,85.3474320241692,NA
56093,Waseca County,MN,NA,47.2463768115942
56368,Stearns County,MN,95.31722054380664,NA
56379,Benton County,MN,92.59818731117825,NA
56537,Otter Tail County,MN,NA,38.550724637681164
56721,Polk County,MN,48.6404833836858,NA
39117,Scott County,MS,NA,74.20289855072464
39204,Hinds County,MS,21.299093655589125,NA
39211,Hinds County,MS,57.09969788519638,NA
39553,Jackson County,MS,87.91540785498489,NA
39562,Jackson County,MS,83.08157099697885,NA
63031,St. Louis County,MO,17.069486404833835,NA
63033,St. Louis County,MO,14.652567975830816,NA
63088,St. Louis County,MO,95.01510574018127,NA
63123,St. Louis County,MO,31.268882175226587,NA
63146,St. Louis County,MO,44.259818731117825,NA
63368,St. Charles County,MO,35.95166163141994,NA
63501,Adair County,MO,92.29607250755288,NA
64052,Jackson County,MO,9.667673716012084,NA
64081,Jackson County,MO,40.33232628398791,NA
64127,Jackson County,MO,6.042296072507553,NA
64134,Jackson County,MO,11.933534743202417,NA
64152,Platte County,MO,45.31722054380665,NA
64505,Buchanan County,MO,86.70694864048339,NA
64735,Henry County,MO,29.305135951661633,NA
65453,Crawford County,MO,95.9214501510574,NA
65737,Stone County,MO,NA,60.28985507246377
65807,Greene County,MO,24.169184290030213,NA
59102,Yellowstone County,MT,NA,6.956521739130435
59404,Cascade County,MT,39.42598187311178,NA
68124,Douglas County,NE,NA,80.8695652173913
68130,Douglas County,NE,93.50453172205438,NA
68135,Douglas County,NE,62.08459214501511,NA
68310,Gage County,NE,NA,89.27536231884058
68467,York County,NE,81.87311178247734,NA
69361,Scotts Bluff County,NE,93.95770392749245,NA
89121,Clark County,NV,24.3202416918429,NA
89131,Clark County,NV,67.37160120845923,NA
89145,Clark County,NV,68.58006042296071,NA
89423,Douglas County,NV,88.21752265861026,82.31884057971014
89434,Washoe County,NV,64.95468277945619,NA
89508,Washoe County,NV,60.87613293051359,NA
89512,Washoe County,NV,14.803625377643503,NA
89519,Washoe County,NV,NA,84.34782608695653
89521,Washoe County,NV,80.66465256797582,NA
89701,Carson City,NV,NA,40.869565217391305
89801,Elko County,NV,91.08761329305136,NA
03060,Hillsborough County,NH,NA,13.043478260869565
03076,Hillsborough County,NH,87.7643504531722,NA
03458,Hillsborough County,NH,NA,76.52173913043478
03801,Rockingham County,NH,70.54380664652568,NA
03820,Strafford County,NH,48.79154078549849,37.68115942028986
07008,Middlesex County,NJ,NA,73.91304347826086
07034,Morris County,NJ,66.31419939577039,NA
07036,Union County,NJ,8.610271903323262,NA
07065,Union County,NJ,21.45015105740181,NA
07068,Essex County,NJ,96.82779456193353,NA
07111,Essex County,NJ,0.6042296072507553,NA
07470,Passaic County,NJ,NA,6.086956521739131
07666,Bergen County,NJ,12.688821752265861,NA
07727,Monmouth County,NJ,NA,82.89855072463767
07728,Monmouth County,NJ,NA,15.942028985507244
07836,Morris County,NJ,73.111782477341393,NA
07901,Union County,NJ,NA,80.57971014492755
07960,Morris County,NJ,NA,24.057971014492754
08021,Camden County,NJ,NA,10.434782608695652
08051,Gloucester County,NJ,53.02114803625378,NA
08081,Camden County,NJ,1.2084592145015105,NA
08619,Mercer County,NJ,42.44712990936556,NA
08804,Hunterdon County,NJ,NA,100
87105,Bernalillo County,NM,19.184290030211482,NA
87112,Bernalillo County,NM,12.990936555891238,NA
87114,Bernalillo County,NM,7.7039274924471295,NA
87120,Bernalillo County,NM,29.758308157099698,NA
87121,Bernalillo County,NM,20.241691842900302,NA
87123,Bernalillo County,NM,11.782477341389729,91.01449275362319
87401,San Juan County,NM,16.314199395770395,NA
10003,New York County,NY,NA,69.85507246376812
10013,New York County,NY,75.52870090634441,NA
10014,New York County,NY,NA,53.04347826086957
10025,New York County,NY,NA,1.7391304347826086
10032,New York County,NY,10.120845921450151,NA
10033,New York County,NY,41.69184290030212,NA
10036,New York County,NY,NA,43.47826086956522
10037,New York County,NY,32.62839879154079,NA
10453,Bronx County,NY,0.4531722054380665,NA
10456,Bronx County,NY,1.9637462235649545,NA
10463,Bronx County,NY,7.401812688821751,NA
10465,Bronx County,NY,27.794561933534744,NA
10467,Bronx County,NY,NA,0.8695652173913043
10469,Bronx County,NY,3.0211480362537766,NA
10473,Bronx County,NY,4.380664652567976,NA
10504,Westchester County,NY,NA,98.84057971014492
10601,Westchester County,NY,90.18126888217523,NA
11106,Queens County,NY,44.864048338368576,NA
11203,Kings County,NY,NA,8.115942028985506
11212,Kings County,NY,27.492447129909365,NA
11213,Kings County,NY,NA,7.82608695652174
11219,Kings County,NY,NA,23.47826086956522
11224,Kings County,NY,18.277945619335348,NA
11226,Kings County,NY,3.927492447129909,NA
11229,Kings County,NY,NA,90.72463768115942
11236,Kings County,NY,4.229607250755287,NA
11355,Queens County,NY,NA,19.710144927536234
11356,Queens County,NY,85.04531722054381,NA
11362,Queens County,NY,92.74924471299094,NA
11372,Queens County,NY,NA,55.94202898550724
11375,Queens County,NY,NA,64.6376811594203
11434,Queens County,NY,65.25679758308158,NA
11542,Nassau County,NY,54.0785498489426,NA
11550,Nassau County,NY,NA,19.420289855072465
11570,Nassau County,NY,NA,57.10144927536231
11702,Suffolk County,NY,NA,95.65217391304348
11730,Suffolk County,NY,87.16012084592145,NA
11762,Nassau County,NY,97.73413897280967,NA
11763,Suffolk County,NY,NA,42.028985507246375
12020,Saratoga County,NY,18.731117824773413,NA
12306,Schenectady County,NY,28.3987915407855,NA
12308,Schenectady County,NY,32.3262839879154,NA
13066,Onondaga County,NY,59.969788519637454,NA
13069,Oswego County,NY,4.833836858006042,NA
13078,Onondaga County,NY,74.01812688821752,NA
13082,Madison County,NY,63.89728096676737,NA
13126,Oswego County,NY,45.9214501510574,NA
13140,Cayuga County,NY,74.77341389728097,NA
13148,Seneca County,NY,22.054380664652566,NA
13166,Cayuga County,NY,72.65861027190333,NA
13203,Onondaga County,NY,44.41087613293052,NA
13206,Onondaga County,NY,51.963746223564954,NA
13323,Oneida County,NY,NA,46.666666666666664
13617,St. Lawrence County,NY,NA,33.91304347826087
13760,Broome County,NY,NA,0.5797101449275363
14051,Erie County,NY,NA,44.34782608695652
14224,Erie County,NY,5.13595166163142,NA
14225,Erie County,NY,NA,18.55072463768116
14228,Erie County,NY,40.483383685800604,NA
14423,Livingston County,NY,80.51359516616314,NA
14424,Ontario County,NY,2.56797583081571,NA
14425,Ontario County,NY,16.46525679758308,NA
14437,Livingston County,NY,37.61329305135951,41.15942028985507
14482,Genesee County,NY,44.561933534743204,NA
14502,Wayne County,NY,23.867069486404834,NA
14510,Livingston County,NY,76.58610271903324,NA
14526,Monroe County,NY,39.87915407854985,16.231884057971012
14532,Ontario County,NY,48.338368580060425,NA
14534,Monroe County,NY,NA,48.69565217391305
14548,Ontario County,NY,78.85196374622356,NA
14568,Wayne County,NY,NA,92.46376811594203
14580,Monroe County,NY,25.226586102719033,NA
14615,Monroe County,NY,10.42296072507553,NA
14616,Monroe County,NY,17.371601208459214,NA
14618,Monroe County,NY,91.99395770392749,NA
14619,Monroe County,NY,NA,39.130434782608695
14620,Monroe County,NY,23.26283987915408,NA
14624,Monroe County,NY,41.23867069486405,NA
14625,Monroe County,NY,41.842900302114806,NA
14626,Monroe County,NY,2.8700906344410875,NA
14817,Tompkins County,NY,99.8489425981873,NA
14830,Steuben County,NY,50.755287009063444,NA
14838,Chemung County,NY,94.86404833836858,NA
14845,Chemung County,NY,14.954682779456194,NA
14892,Tioga County,NY,69.48640483383686,NA
14895,Allegany County,NY,25.6797583081571,NA
27106,Forsyth County,NC,NA,3.768115942028986
27205,Randolph County,NC,34.74320241691843,NA
27215,Alamance County,NC,9.214501510574017,NA
27295,Davidson County,NC,3.7764350453172204,NA
27549,Franklin County,NC,NA,86.95652173913044
27606,Wake County,NC,41.08761329305136,NA
27608,Wake County,NC,87.91540785498489,NA
27712,Durham County,NC,NA,38.550724637681164
27801,Edgecombe County,NC,93.65558912386706,NA
27909,Pasquotank County,NC,NA,63.18840579710145
27954,Dare County,NC,NA,81.44927536231884
28079,Union County,NC,NA,87.53623188405797
28114,Rutherford County,NC,NA,93.33333333333333
28152,Cleveland County,NC,31.419939577039273,NA
28216,Mecklenburg County,NC,8.761329305135952,NA
28226,Mecklenburg County,NC,46.52567975830816,NA
28270,Mecklenburg County,NC,76.73716012084593,NA
28371,Robeson County,NC,83.83685800604229,NA
28425,Pender County,NC,NA,83.76811594202898
28516,Carteret County,NC,NA,55.362318840579704
28609,Catawba County,NC,NA,90.43478260869566
28739,Henderson County,NC,NA,42.31884057971014
58103,Cass County,ND,6.646525679758309,3.1884057971014492
58201,Grand Forks County,ND,NA,9.565217391304348
58503,Burleigh County,ND,29.154078549848943,NA
58504,Burleigh County,ND,NA,33.6231884057971
43054,Franklin County,OH,NA,63.76811594202898
43062,Licking County,OH,NA,63.47826086956522
43068,Franklin County,OH,8.91238670694864,NA
43110,Franklin County,OH,NA,12.173913043478262
43130,Fairfield County,OH,43.957703927492446,NA
43201,Franklin County,OH,66.91842900302115,NA
43206,Franklin County,OH,34.59214501510574,NA
43215,Franklin County,OH,33.081570996978854,NA
43224,Franklin County,OH,38.972809667673715,NA
43227,Franklin County,OH,NA,69.27536231884058
43229,Franklin County,OH,6.3444108761329305,NA
43302,Marion County,OH,1.6616314199395772,NA
43450,Wood County,OH,95.77039274924472,NA
43615,Lucas County,OH,3.474320241691843,NA
43832,Tuscarawas County,OH,53.625377643504535,NA
44001,Lorain County,OH,NA,5.507246376811594
44035,Lorain County,OH,NA,0
44057,Lake County,OH,24.622356495468278,NA
44067,Summit County,OH,NA,20.579710144927535
44090,Lorain County,OH,53.17220543806647,NA
44104,Cuyahoga County,OH,NA,22.608695652173914
44107,Cuyahoga County,OH,25.377643504531722,NA
44111,Cuyahoga County,OH,NA,21.73913043478261
44119,Cuyahoga County,OH,72.05438066465257,NA
44122,Cuyahoga County,OH,NA,6.666666666666667
44124,Cuyahoga County,OH,NA,3.4782608695652173
44128,Cuyahoga County,OH,2.416918429003021,NA
44129,Cuyahoga County,OH,38.368580060422964,NA
44133,Cuyahoga County,OH,NA,41.73913043478261
44143,Cuyahoga County,OH,NA,14.492753623188406
44255,Portage County,OH,NA,44.63768115942029
44266,Portage County,OH,29.607250755287005,NA
44312,Summit County,OH,NA,37.971014492753625
44405,Mahoning County,OH,NA,63.76811594202898
44440,Trumbull County,OH,78.70090634441088,NA
44483,Trumbull County,OH,14.501510574018129,NA
44646,Stark County,OH,88.82175226586104,NA
44657,Stark County,OH,74.32024169184291,NA
44890,Huron County,OH,33.8368580060423,NA
45013,Butler County,OH,3.3232628398791544,NA
45106,Clermont County,OH,43.353474320241695,NA
45140,Clermont County,OH,21.75226586102719,NA
45227,Hamilton County,OH,NA,92.17391304347827
45320,Preble County,OH,33.987915407854985,NA
45356,Miami County,OH,13.141993957703926,NA
45406,Montgomery County,OH,NA,39.42028985507247
45415,Montgomery County,OH,NA,83.18840579710145
45449,Montgomery County,OH,30.513595166163142,NA
45502,Clark County,OH,NA,55.072463768115945
45505,Clark County,OH,27.64350453172205,NA
45619,Lawrence County,OH,89.42598187311178,NA
45623,Gallia County,OH,79.00302114803625,NA
45631,Gallia County,OH,9.818731117824774,NA
45652,Scioto County,OH,86.25377643504531,NA
45690,Pike County,OH,16.1631419939577,NA
45693,Adams County,OH,42.90030211480362,NA
45807,Allen County,OH,54.38066465256798,NA
45840,Hancock County,OH,15.55891238670695,NA
45891,Van Wert County,OH,55.58912386706949,26.956521739130434
73008,Oklahoma County,OK,57.09969788519638,NA
73064,Canadian County,OK,69.63746223564955,NA
73075,Garvin County,OK,78.24773413897282,NA
73439,Marshall County,OK,64.04833836858006,NA
74023,Payne County,OK,57.55287009063444,NA
74112,Tulsa County,OK,48.48942598187311,NA
74604,Kay County,OK,NA,57.971014492753625
74884,Seminole County,OK,72.80966767371602,NA
74959,Le Flore County,OK,71.6012084592145,NA
97062,Washington County,OR,88.67069486404834,NA
97080,Multnomah County,OR,NA,22.89855072463768
97206,Multnomah County,OR,NA,26.666666666666668
97224,Washington County,OR,46.37462235649547,NA
97229,Washington County,OR,87.61329305135952,NA
97230,Multnomah County,OR,49.848942598187314,NA
97411,Coos County,OR,NA,66.3768115942029
97527,Josephine County,OR,NA,52.46376811594203
97701,Deschutes County,OR,NA,87.82608695652175
15010,Beaver County,PA,19.637462235649547,NA
15017,Allegheny County,PA,81.72205438066466,NA
15033,Washington County,PA,83.53474320241692,NA
15068,Westmoreland County,PA,43.957703927492446,NA
15104,Allegheny County,PA,81.1178247734139,NA
15202,Allegheny County,PA,45.16616314199396,NA
15213,Allegheny County,PA,61.933534743202415,NA
15227,Allegheny County,PA,NA,24.92753623188406
15301,Washington County,PA,6.495468277945619,NA
15332,Washington County,PA,76.43504531722054,NA
16001,Butler County,PA,NA,2.898550724637681
16125,Mercer County,PA,31.570996978851962,NA
16201,Armstrong County,PA,28.247734138972806,NA
16335,Crawford County,PA,9.969788519637463,NA
16433,Crawford County,PA,69.78851963746223,NA
16509,Erie County,PA,29.003021148036257,NA
16635,Blair County,PA,NA,65.5072463768116
16668,Cambria County,PA,97.43202416918429,NA
16701,McKean County,PA,NA,26.3768115942029
16833,Clearfield County,PA,82.77945619335347,NA
17013,Cumberland County,PA,NA,18.26086956521739
17015,Cumberland County,PA,64.6525679758308,NA
17022,Lancaster County,PA,42.296072507552864,NA
17044,Mifflin County,PA,77.34138972809667,NA
17103,Dauphin County,PA,NA,94.20289855072464
17111,Dauphin County,PA,14.350453172205437,NA
17356,York County,PA,26.888217522658607,NA
17360,York County,PA,88.36858006042296,NA
17370,York County,PA,84.13897280966768,NA
17540,Lancaster County,PA,69.18429003021149,NA
17851,Northumberland County,PA,80.06042296072508,NA
18014,Northampton County,PA,36.70694864048338,NA
18034,Lehigh County,PA,NA,82.31884057971014
18052,Lehigh County,PA,NA,65.79710144927536
18062,Lehigh County,PA,39.274924471299094,29.855072463768117
18073,Montgomery County,PA,85.64954682779457,NA
18431,Wayne County,PA,55.438066465256796,NA
18621,Luzerne County,PA,NA,97.3913043478261
18702,Luzerne County,PA,6.7975830815709974,NA
18707,Luzerne County,PA,51.66163141993958,NA
18951,Bucks County,PA,18.429003021148034,NA
19030,Bucks County,PA,68.12688821752266,NA
19046,Montgomery County,PA,NA,58.26086956521739
19047,Bucks County,PA,51.66163141993958,NA
19050,Delaware County,PA,NA,42.608695652173914
19055,Bucks County,PA,47.129909365558916,NA
19064,Delaware County,PA,33.383685800604226,NA
19066,Montgomery County,PA,NA,85.79710144927536
19115,Philadelphia County,PA,NA,20.28985507246377
19119,Philadelphia County,PA,52.11480362537765,21.15942028985507
19120,Philadelphia County,PA,NA,9.27536231884058
19124,Philadelphia County,PA,0.906344410876133,NA
19126,Philadelphia County,PA,59.06344410876133,NA
19131,Philadelphia County,PA,5.8912386706948645,NA
19136,Philadelphia County,PA,33.23262839879154,NA
19140,Philadelphia County,PA,1.812688821752266,11.304347826086957
19145,Philadelphia County,PA,27.341389728096676,13.623188405797102
19147,Philadelphia County,PA,NA,28.405797101449277
19320,Chester County,PA,8.459214501510575,NA
19406,Montgomery County,PA,40.181268882175225,NA
19464,Montgomery County,PA,NA,9.855072463768117
19468,Montgomery County,PA,NA,96.23188405797102
19608,Berks County,PA,54.98489425981873,NA
02806,Bristol County,RI,62.839879154078545,NA
02907,Providence County,RI,NA,49.85507246376812
02921,Providence County,RI,NA,94.78260869565217
29067,Lancaster County,SC,78.54984894259819,NA
29349,Spartanburg County,SC,52.7190332326284,NA
29406,Charleston County,SC,NA,55.94202898550724
29418,Charleston County,SC,NA,57.391304347826086
29466,Charleston County,SC,43.051359516616316,NA
29488,Colleton County,SC,NA,34.20289855072463
29512,Marlboro County,SC,48.94259818731118,NA
29526,Horry County,SC,81.41993957703929,NA
29540,Darlington County,SC,90.93655589123867,NA
29576,Horry County,SC,NA,13.91304347826087
29607,Greenville County,SC,24.773413897280967,NA
29630,Pickens County,SC,80.21148036253777,NA
29676,Oconee County,SC,NA,73.04347826086956
29720,Lancaster County,SC,13.746223564954683,NA
57501,Hughes County,SD,82.3262839879154,NA
57701,Pennington County,SD,NA,18.84057971014493
37129,Rutherford County,TN,67.6737160120846,NA
37204,Davidson County,TN,NA,84.92753623188406
37214,Davidson County,TN,75.98187311178248,NA
37398,Franklin County,TN,65.86102719033232,NA
37643,Carter County,TN,NA,10.72463768115942
37663,Sullivan County,TN,60.72507552870091,NA
37692,Unicoi County,TN,NA,88.98550724637681
37922,Knox County,TN,49.09365558912387,NA
38320,Benton County,TN,64.8036253776435,NA
38483,Lawrence County,TN,NA,91.59420289855072
75010,Denton County,TX,58.91238670694864,NA
75025,Collin County,TX,50,NA
75043,Dallas County,TX,NA,51.30434782608696
75103,Van Zandt County,TX,70.69486404833837,NA
75150,Dallas County,TX,NA,19.130434782608695
75167,Ellis County,TX,NA,97.68115942028986
75189,Rockwall County,TX,65.55891238670695,NA
75208,Dallas County,TX,77.64350453172206,NA
75212,Dallas County,TX,66.16314199395771,NA
75751,Henderson County,TX,40.78549848942598,NA
76016,Tarrant County,TX,59.21450151057401,NA
76104,Tarrant County,TX,82.4773413897281,NA
76542,Bell County,TX,37.764350453172206,NA
76548,Bell County,TX,38.21752265861027,NA
76801,Brown County,TX,47.73413897280967,NA
77007,Harris County,TX,46.07250755287009,NA
77009,Harris County,TX,40.03021148036254,NA
77014,Harris County,TX,53.32326283987915,NA
77024,Harris County,TX,NA,38.26086956521739
77302,Montgomery County,TX,81.57099697885197,NA
77339,Harris County,TX,83.38368580060424,NA
77382,Montgomery County,TX,NA,60
77429,Harris County,TX,NA,45.507246376811594
77515,Brazoria County,TX,42.74924471299094,NA
77520,Harris County,TX,37.31117824773414,NA
77573,Galveston County,TX,NA,44.05797101449275
77590,Galveston County,TX,12.084592145015106,NA
77625,Hardin County,TX,72.9607250755287,NA
77808,Brazos County,TX,92.14501510574019,NA
77845,Brazos County,TX,9.06344410876133,NA
78028,Kerr County,TX,31.722054380664655,NA
78233,Bexar County,TX,34.894259818731115,NA
78242,Bexar County,TX,68.27794561933534,NA
78543,Hidalgo County,TX,NA,93.04347826086956
78578,Cameron County,TX,90.4833836858006,NA
78640,Hays County,TX,NA,71.8840579710145
78728,Travis County,TX,71.75226586102718,NA
78745,Travis County,TX,NA,56.52173913043478
79414,Lubbock County,TX,67.22054380664653,NA
79605,Taylor County,TX,32.3262839879154,NA
79707,Midland County,TX,29.45619335347432,NA
79756,Ward County,TX,63.74622356495468,NA
79928,El Paso County,TX,NA,61.15942028985507
79934,El Paso County,TX,73.41389728096676,NA
84037,Davis County,UT,NA,85.5072463768116
84044,Salt Lake County,UT,87.31117824773413,NA
84065,Salt Lake County,UT,75.07552870090635,NA
84074,Tooele County,UT,4.078549848942599,NA
84087,Davis County,UT,79.45619335347432,NA
84096,Salt Lake County,UT,23.716012084592144,NA
84118,Salt Lake County,UT,NA,77.68115942028986
84121,Salt Lake County,UT,77.0392749244713,49.275362318840585
84302,Box Elder County,UT,68.8821752265861,NA
84332,Cache County,UT,97.2809667673716,NA
84651,Utah County,UT,NA,97.97101449275362
05701,Rutland County,VT,75.22658610271903,NA
20109,Prince William County,VA,71.45015105740181,NA
20187,Fauquier County,VA,NA,71.59420289855073
22101,Fairfax County,VA,45.468277945619334,NA
22150,Fairfax County,VA,47.43202416918429,NA
22181,Fairfax County,VA,NA,92.7536231884058
22202,Arlington County,VA,NA,86.08695652173914
22601,Winchester city,VA,96.22356495468279,NA
22911,Albemarle County,VA,63.44410876132931,NA
23030,Charles City County,VA,NA,80.28985507246377
23061,Gloucester County,VA,56.34441087613293,NA
23181,King William County,VA,NA,85.21739130434783
23454,Virginia Beach city,VA,NA,40.28985507246377
23464,Virginia Beach city,VA,67.06948640483384,NA
23508,Norfolk city,VA,NA,62.60869565217392
23663,Hampton city,VA,65.40785498489427,NA
23666,Hampton city,VA,NA,12.46376811594203
23692,York County,VA,NA,76.23188405797102
23805,Petersburg city,VA,NA,58.550724637681164
23842,Prince George County,VA,NA,95.07246376811594
23875,Prince George County,VA,93.202416918429,NA
24012,Roanoke city,VA,26.132930513595166,NA
24014,Roanoke city,VA,80.81570996978851,NA
24019,Roanoke County,VA,49.546827794561935,NA
24202,Washington County,VA,59.21450151057401,NA
24315,Bland County,VA,94.41087613293051,NA
24319,Smyth County,VA,NA,82.02898550724638
24382,Wythe County,VA,79.15407854984893,NA
24501,Lynchburg city,VA,NA,68.98550724637681
24540,Danville city,VA,NA,28.115942028985508
24541,Danville city,VA,NA,31.594202898550726
24605,Tazewell County,VA,28.700906344410875,NA
24641,Tazewell County,VA,NA,88.69565217391305
98019,King County,WA,93.35347432024169,NA
98030,King County,WA,22.658610271903324,NA
98033,King County,WA,NA,29.275362318840582
98042,King County,WA,59.516616314199396,NA
98117,King County,WA,54.53172205438066,NA
98221,Skagit County,WA,NA,23.768115942028984
98229,Whatcom County,WA,71.14803625377644,NA
98236,Island County,WA,99.39577039274926,NA
98270,Snohomish County,WA,NA,30.434782608695656
98275,Snohomish County,WA,82.93051359516616,NA
98282,Island County,WA,NA,93.91304347826087
98310,Kitsap County,WA,95.46827794561933,NA
98365,Jefferson County,WA,NA,84.63768115942028
98374,Pierce County,WA,36.555891238670696,NA
98584,Mason County,WA,NA,22.028985507246375
98802,Douglas County,WA,86.404833836858,NA
20001,District of Columbia,DC,19.335347432024168,17.391304347826086
20020,District of Columbia,DC,NA,8.695652173913043
24870,Wyoming County,WV,NA,99.71014492753623
25550,Mason County,WV,43.65558912386707,NA
25705,Cabell County,WV,17.522658610271904,NA
26104,Wood County,WV,60.27190332326284,NA
26505,Monongalia County,WV,30.362537764350456,NA
26508,Monongalia County,WV,4.531722054380665,64.34782608695652
53027,Washington County,WI,NA,95.94202898550725
53033,Washington County,WI,98.94259818731118,NA
53042,Manitowoc County,WI,93.80664652567975,NA
53094,Jefferson County,WI,35.49848942598187,NA
53105,Racine County,WI,56.948640483383684,NA
53140,Kenosha County,WI,52.416918429003026,26.08695652173913
53151,Waukesha County,WI,NA,53.62318840579711
53209,Milwaukee County,WI,NA,48.40579710144928
53213,Milwaukee County,WI,NA,29.565217391304348
53215,Milwaukee County,WI,20.694864048338367,NA
53216,Milwaukee County,WI,NA,20.869565217391305
53219,Milwaukee County,WI,16.76737160120846,NA
53220,Milwaukee County,WI,27.945619335347434,NA
53223,Milwaukee County,WI,15.105740181268882,NA
53225,Milwaukee County,WI,10.27190332326284,NA
53405,Racine County,WI,NA,5.797101449275362
53546,Rock County,WI,16.61631419939577,NA
53593,Dane County,WI,98.03625377643505,NA
53718,Dane County,WI,99.69788519637463,66.08695652173913
53950,Juneau County,WI,78.3987915407855,NA
54487,Lincoln County,WI,NA,39.710144927536234
54501,Oneida County,WI,NA,55.65217391304348
54601,La Crosse County,WI,NA,2.0289855072463765
54701,Eau Claire County,WI,36.102719033232624,NA
54703,Eau Claire County,WI,19.939577039274926,NA
54911,Outagamie County,WI,NA,57.68115942028985
54935,Fond du Lac County,WI,14.19939577039275,NA
54942,Outagamie County,WI,98.18731117824774,NA
54952,Winnebago County,WI,NA,36.52173913043478
