ZipCode,county,state,Retirement,Geriatric
35022,Jefferson County,AL,NA,21.280276816608996
35128,St. Clair County,AL,NA,92.04152249134948
35209,Jefferson County,AL,NA,67.30103806228374
35217,Jefferson County,AL,46.478873239436616,NA
35226,Jefferson County,AL,55.35211267605634,NA
35473,Tuscaloosa County,AL,NA,87.71626297577855
35950,Marshall County,AL,55.91549295774648,NA
35951,Marshall County,AL,76.90140845070422,NA
36049,Crenshaw County,AL,94.08450704225352,NA
36251,Clay County,AL,97.1830985915493,NA
36301,Houston County,AL,14.647887323943662,NA
36360,Dale County,AL,35.63380281690141,NA
36532,Baldwin County,AL,NA,23.356401384083046
36618,Mobile County,AL,85.49295774647887,NA
99501,Anchorage Municipality,AK,68.87323943661971,NA
99504,Anchorage Municipality,AK,73.52112676056338,NA
99611,Kenai Peninsula Borough,AK,NA,71.62629757785467
85009,Maricopa County,AZ,24.788732394366196,NA
85014,Maricopa County,AZ,55.07042253521127,NA
85035,Maricopa County,AZ,NA,83.73702422145328
85037,Maricopa County,AZ,95.49295774647887,NA
85042,Maricopa County,AZ,54.22535211267606,NA
85194,Pinal County,AZ,90,NA
85206,Maricopa County,AZ,29.718309859154928,NA
85215,Maricopa County,AZ,NA,76.8166089965398
85251,Maricopa County,AZ,NA,35.813148788927336
85254,Maricopa County,AZ,NA,48.09688581314879
85255,Maricopa County,AZ,NA,26.643598615916954
85326,Maricopa County,AZ,41.40845070422535,NA
85364,Yuma County,AZ,3.5211267605633805,NA
85367,Yuma County,AZ,NA,11.245674740484429
85383,Maricopa County,AZ,34.78873239436619,NA
85614,Pima County,AZ,NA,3.2871972318339098
85615,Cochise County,AZ,NA,88.06228373702422
85648,Santa Cruz County,AZ,64.22535211267606,NA
85719,Pima County,AZ,37.32394366197183,NA
85739,Pinal County,AZ,27.1830985915493,NA
85746,Pima County,AZ,35.91549295774648,76.29757785467129
86045,Coconino County,AZ,38.45070422535211,NA
86409,Mohave County,AZ,4.084507042253521,NA
71730,Union County,AR,61.54929577464788,NA
71854,Miller County,AR,24.929577464788732,NA
71857,Nevada County,AR,95.91549295774648,NA
71957,Montgomery County,AR,NA,98.96193771626297
72015,Saline County,AR,32.53521126760563,NA
72032,Faulkner County,AR,42.25352112676056,NA
72118,Pulaski County,AR,58.45070422535211,NA
72401,Craighead County,AR,11.126760563380282,NA
72756,Benton County,AR,NA,58.99653979238755
72801,Pope County,AR,87.60563380281691,NA
72802,Pope County,AR,62.81690140845071,NA
90007,Los Angeles County,CA,91.54929577464789,NA
90012,Los Angeles County,CA,50.140845070422536,NA
90024,Los Angeles County,CA,53.52112676056338,NA
90026,Los Angeles County,CA,37.88732394366197,NA
90041,Los Angeles County,CA,75.49295774647888,NA
90044,Los Angeles County,CA,NA,36.851211072664356
90049,Los Angeles County,CA,44.929577464788736,NA
90065,Los Angeles County,CA,34.08450704225352,NA
90403,Los Angeles County,CA,NA,63.148788927335644
90405,Los Angeles County,CA,NA,64.01384083044984
90505,Los Angeles County,CA,NA,34.94809688581315
90631,Orange County,CA,15.492957746478872,NA
90680,Orange County,CA,91.12676056338029,NA
90712,Los Angeles County,CA,47.6056338028169,NA
90716,Los Angeles County,CA,NA,96.7128027681661
90717,Los Angeles County,CA,87.46478873239437,NA
90813,Los Angeles County,CA,45.63380281690141,NA
91030,Los Angeles County,CA,NA,95.67474048442907
91205,Los Angeles County,CA,47.74647887323943,NA
91206,Los Angeles County,CA,51.83098591549295,NA
91208,Los Angeles County,CA,69.01408450704226,NA
91321,Los Angeles County,CA,63.38028169014085,NA
91340,Los Angeles County,CA,85.2112676056338,NA
91344,Los Angeles County,CA,NA,20.761245674740483
91384,Los Angeles County,CA,NA,82.52595155709342
91387,Los Angeles County,CA,NA,72.66435986159169
91709,San Bernardino County,CA,NA,44.463667820069205
91711,Los Angeles County,CA,30,NA
91730,San Bernardino County,CA,35.070422535211264,NA
91732,Los Angeles County,CA,NA,63.84083044982699
91910,San Diego County,CA,29.43661971830986,NA
91911,San Diego County,CA,NA,38.92733564013841
91945,San Diego County,CA,NA,71.79930795847751
92021,San Diego County,CA,NA,59.34256055363322
92026,San Diego County,CA,NA,35.121107266435985
92057,San Diego County,CA,57.04225352112676,NA
92064,San Diego County,CA,36.47887323943662,NA
92082,San Diego County,CA,NA,90.83044982698962
92106,San Diego County,CA,NA,96.02076124567473
92113,San Diego County,CA,33.52112676056338,54.325259515570934
92115,San Diego County,CA,41.83098591549296,NA
92118,San Diego County,CA,93.94366197183098,NA
92123,San Diego County,CA,NA,60.38062283737025
92128,San Diego County,CA,NA,11.418685121107266
92154,San Diego County,CA,NA,49.30795847750865
92201,Riverside County,CA,15.91549295774648,NA
92211,Riverside County,CA,NA,0.17301038062283738
92220,Riverside County,CA,60.56338028169014,NA
92243,Imperial County,CA,29.859154929577464,NA
92250,Imperial County,CA,NA,83.91003460207612
92307,San Bernardino County,CA,90.84507042253522,NA
92324,San Bernardino County,CA,39.436619718309856,NA
92374,San Bernardino County,CA,60.84507042253521,NA
92399,San Bernardino County,CA,NA,26.81660899653979
92407,San Bernardino County,CA,78.73239436619718,NA
92501,Riverside County,CA,NA,82.17993079584775
92506,Riverside County,CA,40.845070422535215,NA
92508,Riverside County,CA,91.40845070422536,NA
92604,Orange County,CA,60.56338028169014,NA
92625,Orange County,CA,NA,78.20069204152249
92629,Orange County,CA,NA,36.67820069204152
92630,Orange County,CA,NA,29.93079584775086
92646,Orange County,CA,56.901408450704224,NA
92647,Orange County,CA,19.577464788732392,NA
92655,Orange County,CA,NA,91.17647058823529
92692,Orange County,CA,22.253521126760564,NA
92705,Orange County,CA,80,NA
92801,Orange County,CA,66.33802816901408,43.252595155709344
92879,Riverside County,CA,53.94366197183098,NA
92882,Riverside County,CA,NA,60.726643598615915
92883,Riverside County,CA,NA,65.57093425605537
92886,Orange County,CA,NA,58.13148788927336
93033,Ventura County,CA,59.154929577464785,NA
93063,Ventura County,CA,NA,45.674740484429066
93110,Santa Barbara County,CA,NA,96.19377162629758
93117,Santa Barbara County,CA,NA,94.29065743944636
93306,Kern County,CA,NA,42.21453287197232
93420,San Luis Obispo County,CA,44.647887323943664,NA
93436,Santa Barbara County,CA,NA,13.494809688581316
93463,Santa Barbara County,CA,96.3380281690141,NA
93536,Los Angeles County,CA,49.29577464788733,NA
93612,Fresno County,CA,NA,85.98615916955016
93636,Madera County,CA,78.87323943661971,NA
93657,Fresno County,CA,42.816901408450704,NA
93704,Fresno County,CA,82.25352112676056,NA
93706,Fresno County,CA,72.3943661971831,NA
93720,Fresno County,CA,23.943661971830984,49.13494809688581
94002,San Mateo County,CA,NA,75.08650519031141
94015,San Mateo County,CA,60.281690140845065,3.9792387543252596
94030,San Mateo County,CA,58.16901408450704,55.536332179930795
94044,San Mateo County,CA,25.915492957746476,NA
94066,San Mateo County,CA,NA,12.110726643598616
94102,San Francisco County,CA,67.6056338028169,NA
94103,San Francisco County,CA,16.619718309859156,NA
94109,San Francisco County,CA,NA,3.4602076124567476
94112,San Francisco County,CA,32.25352112676057,2.941176470588235
94115,San Francisco County,CA,35.49295774647888,NA
94122,San Francisco County,CA,NA,6.055363321799308
94132,San Francisco County,CA,NA,71.280276816609
94134,San Francisco County,CA,NA,29.757785467128027
94501,Alameda County,CA,NA,24.567474048442904
94503,Napa County,CA,86.76056338028168,NA
94507,Contra Costa County,CA,NA,79.58477508650519
94549,Contra Costa County,CA,NA,34.083044982698965
94553,Contra Costa County,CA,NA,74.39446366782006
94564,Contra Costa County,CA,63.098591549295776,NA
94568,Alameda County,CA,87.32394366197182,NA
94591,Solano County,CA,38.028169014084504,NA
94597,Contra Costa County,CA,73.09859154929578,NA
94606,Alameda County,CA,85.35211267605634,NA
94608,Alameda County,CA,NA,56.57439446366782
94611,Alameda County,CA,20.845070422535212,NA
94806,Contra Costa County,CA,NA,19.896193771626297
95005,Santa Cruz County,CA,NA,99.30795847750865
95020,Santa Clara County,CA,30.140845070422532,NA
95032,Santa Clara County,CA,NA,49.48096885813148
95035,Santa Clara County,CA,45.49295774647887,NA
95051,Santa Clara County,CA,NA,39.44636678200692
95111,Santa Clara County,CA,86.47887323943661,NA
95122,Santa Clara County,CA,NA,73.52941176470588
95132,Santa Clara County,CA,88.45070422535211,NA
95207,San Joaquin County,CA,62.676056338028175,NA
95242,San Joaquin County,CA,NA,87.88927335640139
95316,Stanislaus County,CA,97.88732394366197,NA
95354,Stanislaus County,CA,83.38028169014085,NA
95355,Stanislaus County,CA,36.76056338028169,NA
95356,Stanislaus County,CA,74.08450704225352,NA
95361,Stanislaus County,CA,NA,90.13840830449827
95367,Stanislaus County,CA,74.92957746478874,NA
95377,San Joaquin County,CA,NA,88.75432525951558
95380,Stanislaus County,CA,81.26760563380282,NA
95407,Sonoma County,CA,53.80281690140845,NA
95448,Sonoma County,CA,NA,46.71280276816609
95628,Sacramento County,CA,39.01408450704225,NA
95655,Sacramento County,CA,100,NA
95747,Placer County,CA,NA,60.89965397923876
95758,Sacramento County,CA,NA,41.17647058823529
95821,Sacramento County,CA,NA,40.31141868512111
95901,Yuba County,CA,48.02816901408451,NA
95948,Butte County,CA,82.67605633802818,NA
95959,Nevada County,CA,NA,58.3044982698962
95993,Sutter County,CA,38.87323943661972,NA
80011,Arapahoe County,CO,32.816901408450704,NA
80015,Arapahoe County,CO,NA,55.88235294117647
80020,Broomfield County,CO,32.3943661971831,NA
80023,Broomfield County,CO,NA,75.25951557093425
80104,Douglas County,CO,61.97183098591549,NA
80108,Douglas County,CO,57.32394366197183,NA
80122,Arapahoe County,CO,50.563380281690144,NA
80127,Jefferson County,CO,NA,57.43944636678201
80130,Douglas County,CO,NA,94.11764705882352
80202,Denver County,CO,90.28169014084507,NA
80222,Denver County,CO,NA,81.83391003460207
80227,Jefferson County,CO,64.92957746478874,NA
80238,Denver County,CO,93.09859154929578,NA
80401,Jefferson County,CO,NA,47.40484429065744
80501,Boulder County,CO,52.816901408450704,69.55017301038062
80504,Boulder County,CO,22.816901408450704,NA
80538,Larimer County,CO,7.605633802816901,NA
80549,Larimer County,CO,NA,97.23183391003461
80621,Weld County,CO,77.1830985915493,NA
80910,El Paso County,CO,82.95774647887325,NA
80916,El Paso County,CO,64.64788732394366,NA
81004,Pueblo County,CO,28.591549295774648,NA
81006,Pueblo County,CO,71.40845070422536,NA
81008,Pueblo County,CO,89.1549295774648,NA
81212,Fremont County,CO,49.859154929577464,NA
06076,Tolland County,CT,NA,69.37716262975778
06084,Tolland County,CT,87.88732394366198,NA
06096,Hartford County,CT,NA,73.70242214532871
06112,Hartford County,CT,NA,59.515570934256054
06450,New Haven County,CT,NA,25.432525951557096
06473,New Haven County,CT,NA,21.972318339100347
06787,Litchfield County,CT,76.61971830985915,69.20415224913495
06820,Fairfield County,CT,NA,79.06574394463668
06901,Fairfield County,CT,NA,99.13494809688581
06902,Fairfield County,CT,NA,31.4878892733564
19701,New Castle County,DE,15.91549295774648,NA
19703,New Castle County,DE,67.1830985915493,NA
19802,New Castle County,DE,NA,89.79238754325259
32137,Flagler County,FL,NA,7.7854671280276815
32159,Lake County,FL,NA,5.536332179930796
32162,Sumter County,FL,2.2535211267605635,NA
32163,Sumter County,FL,66.90140845070422,NA
32168,Volusia County,FL,33.23943661971831,NA
32174,Volusia County,FL,NA,10.034602076124568
32205,Duval County,FL,NA,89.27335640138409
32218,Duval County,FL,3.6619718309859155,NA
32220,Duval County,FL,50.985915492957744,NA
32533,Escambia County,FL,18.591549295774648,NA
32536,Okaloosa County,FL,NA,47.57785467128028
32561,Santa Rosa County,FL,NA,74.91349480968859
32701,Seminole County,FL,68.16901408450704,NA
32732,Seminole County,FL,98.87323943661971,NA
32757,Lake County,FL,27.605633802816904,NA
32765,Seminole County,FL,40.70422535211268,NA
32822,Orange County,FL,NA,33.21799307958477
32937,Brevard County,FL,NA,30.622837370242213
32960,Indian River County,FL,40.140845070422536,NA
33010,Miami-Dade County,FL,39.859154929577464,46.88581314878893
33014,Miami-Dade County,FL,68.73239436619718,NA
33015,Miami-Dade County,FL,NA,45.15570934256055
33016,Miami-Dade County,FL,82.8169014084507,NA
33018,Miami-Dade County,FL,53.09859154929577,NA
33019,Broward County,FL,NA,83.39100346020761
33021,Broward County,FL,NA,5.017301038062284
33025,Broward County,FL,NA,41.522491349480966
33027,Broward County,FL,NA,5.709342560553633
33028,Broward County,FL,79.85915492957747,NA
33029,Broward County,FL,93.66197183098592,NA
33033,Miami-Dade County,FL,49.71830985915493,NA
33037,Monroe County,FL,69.71830985915493,NA
33056,Miami-Dade County,FL,77.04225352112675,NA
33066,Broward County,FL,81.83098591549296,NA
33067,Broward County,FL,76.05633802816901,NA
33133,Miami-Dade County,FL,NA,62.629757785467135
33134,Miami-Dade County,FL,80.56338028169014,64.87889273356402
33135,Miami-Dade County,FL,70.98591549295776,NA
33136,Miami-Dade County,FL,NA,80.44982698961938
33139,Miami-Dade County,FL,48.16901408450705,NA
33140,Miami-Dade County,FL,NA,22.318339100346023
33141,Miami-Dade County,FL,83.2394366197183,NA
33142,Miami-Dade County,FL,18.732394366197184,NA
33143,Miami-Dade County,FL,64.22535211267606,45.501730103806224
33144,Miami-Dade County,FL,88.87323943661973,85.46712802768167
33149,Miami-Dade County,FL,NA,97.57785467128028
33150,Miami-Dade County,FL,NA,86.85121107266436
33156,Miami-Dade County,FL,82.53521126760563,NA
33157,Miami-Dade County,FL,NA,22.145328719723185
33160,Miami-Dade County,FL,NA,52.595155709342556
33165,Miami-Dade County,FL,92.8169014084507,NA
33168,Miami-Dade County,FL,71.12676056338029,NA
33172,Miami-Dade County,FL,NA,42.733564013840834
33174,Miami-Dade County,FL,NA,52.24913494809689
33175,Miami-Dade County,FL,21.971830985915496,NA
33176,Miami-Dade County,FL,NA,28.20069204152249
33180,Miami-Dade County,FL,43.239436619718305,NA
33186,Miami-Dade County,FL,30.84507042253521,NA
33187,Miami-Dade County,FL,81.69014084507043,NA
33193,Miami-Dade County,FL,51.83098591549295,NA
33308,Broward County,FL,13.943661971830986,NA
33319,Broward County,FL,63.23943661971831,53.806228373702425
33414,Palm Beach County,FL,NA,64.53287197231833
33415,Palm Beach County,FL,63.94366197183099,NA
33428,Palm Beach County,FL,NA,70.06920415224913
33458,Palm Beach County,FL,21.69014084507042,28.719723183391004
33471,Glades County,FL,NA,91.34948096885813
33523,Pasco County,FL,54.7887323943662,NA
33543,Pasco County,FL,57.887323943661976,NA
33767,Pinellas County,FL,80.14084507042254,NA
33771,Pinellas County,FL,NA,22.664359861591695
33773,Pinellas County,FL,NA,78.54671280276817
33777,Pinellas County,FL,69.57746478873239,NA
33852,Highlands County,FL,52.67605633802817,NA
33901,Lee County,FL,42.394366197183096,NA
33905,Lee County,FL,58.87323943661972,NA
33917,Lee County,FL,17.887323943661972,NA
33952,Charlotte County,FL,31.690140845070424,NA
34103,Collier County,FL,63.802816901408455,NA
34108,Collier County,FL,NA,32.35294117647059
34113,Collier County,FL,55.633802816901415,NA
34238,Sarasota County,FL,37.46478873239437,NA
34465,Citrus County,FL,61.408450704225345,NA
34472,Marion County,FL,49.859154929577464,NA
34609,Hernando County,FL,22.95774647887324,NA
34653,Pasco County,FL,30.28169014084507,NA
34688,Pinellas County,FL,85.91549295774648,NA
34711,Lake County,FL,26.197183098591548,3.633217993079585
34715,Lake County,FL,69.15492957746478,NA
34748,Lake County,FL,9.577464788732394,2.249134948096886
34772,Osceola County,FL,88.59154929577466,NA
30066,Cobb County,GA,25.352112676056336,NA
30075,Fulton County,GA,18.450704225352112,NA
30087,DeKalb County,GA,19.577464788732392,NA
30117,Carroll County,GA,NA,31.833910034602077
30132,Paulding County,GA,35.774647887323944,NA
30157,Paulding County,GA,23.80281690140845,NA
30187,Douglas County,GA,94.64788732394366,NA
30286,Upson County,GA,49.15492957746479,NA
30294,DeKalb County,GA,NA,67.1280276816609
30318,Fulton County,GA,29.014084507042252,65.7439446366782
30331,Fulton County,GA,7.746478873239436,NA
30341,DeKalb County,GA,75.91549295774648,NA
30548,Jackson County,GA,47.04225352112676,NA
30701,Gordon County,GA,27.323943661971832,NA
30736,Catoosa County,GA,18.87323943661972,NA
30755,Whitfield County,GA,NA,95.50173010380622
31092,Dooly County,GA,90.98591549295774,NA
31313,Liberty County,GA,NA,84.77508650519032
31404,Chatham County,GA,39.29577464788732,NA
31501,Ware County,GA,59.71830985915493,NA
31520,Glynn County,GA,NA,61.5916955017301
31525,Glynn County,GA,NA,70.76124567474048
31545,Wayne County,GA,79.71830985915493,NA
31548,Camden County,GA,72.67605633802818,NA
31804,Harris County,GA,NA,89.10034602076125
96701,Honolulu County,HI,16.47887323943662,NA
96740,Hawaii County,HI,59.436619718309856,NA
96819,Honolulu County,HI,65.91549295774648,NA
96821,Honolulu County,HI,71.69014084507043,NA
83301,Twin Falls County,ID,0.7042253521126761,NA
83642,Ada County,ID,7.183098591549296,NA
83646,Ada County,ID,6.619718309859154,NA
83864,Bonner County,ID,47.88732394366197,NA
60008,Cook County,IL,56.760563380281695,NA
60013,McHenry County,IL,33.80281690140845,NA
60014,McHenry County,IL,NA,21.79930795847751
60025,Cook County,IL,NA,3.8062283737024223
60026,Cook County,IL,NA,25.951557093425603
60035,Lake County,IL,NA,2.5951557093425603
60048,Lake County,IL,24.507042253521128,NA
60053,Cook County,IL,NA,62.11072664359861
60076,Cook County,IL,NA,51.73010380622838
60084,Lake County,IL,NA,91.86851211072664
60099,Lake County,IL,NA,66.26297577854672
60106,DuPage County,IL,NA,67.47404844290658
60123,Kane County,IL,NA,18.858131487889274
60131,Cook County,IL,68.45070422535211,NA
60169,Cook County,IL,NA,77.33564013840831
60176,Cook County,IL,NA,96.88581314878893
60302,Cook County,IL,NA,16.26297577854671
60411,Cook County,IL,10.140845070422536,NA
60416,Grundy County,IL,72.25352112676056,NA
60428,Cook County,IL,NA,83.56401384083046
60464,Cook County,IL,NA,61.0726643598616
60472,Cook County,IL,97.74647887323944,NA
60504,DuPage County,IL,57.605633802816904,NA
60523,DuPage County,IL,NA,41.17647058823529
60614,Cook County,IL,15.352112676056336,12.110726643598616
60622,Cook County,IL,NA,74.74048442906575
60623,Cook County,IL,42.67605633802817,14.878892733564014
60631,Cook County,IL,77.32394366197182,NA
60636,Cook County,IL,NA,22.837370242214533
60640,Cook County,IL,NA,9.342560553633218
60645,Cook County,IL,54.929577464788736,NA
60649,Cook County,IL,37.04225352112676,NA
60901,Kankakee County,IL,NA,10.899653979238755
60950,Kankakee County,IL,63.66197183098592,NA
61016,Winnebago County,IL,97.04225352112677,NA
61032,Stephenson County,IL,16.19718309859155,NA
61061,Ogle County,IL,NA,48.78892733564014
61074,Carroll County,IL,93.38028169014085,NA
61109,Winnebago County,IL,76.76056338028168,NA
61301,LaSalle County,IL,NA,58.65051903114187
61350,LaSalle County,IL,31.12676056338028,NA
61356,Bureau County,IL,NA,42.90657439446367
61364,LaSalle County,IL,NA,44.982698961937714
61944,Edgar County,IL,52.95774647887323,NA
62025,Madison County,IL,NA,26.47058823529412
62040,Madison County,IL,9.859154929577464,NA
62236,Monroe County,IL,93.38028169014085,NA
62454,Crawford County,IL,90.70422535211267,NA
62521,Macon County,IL,NA,4.325259515570934
62675,Menard County,IL,94.92957746478872,NA
62704,Sangamon County,IL,28.30985915492958,NA
62801,Marion County,IL,61.69014084507042,NA
46013,Madison County,IN,18.028169014084508,NA
46038,Hamilton County,IN,50.70422535211267,NA
46040,Hancock County,IN,86.90140845070422,NA
46041,Clinton County,IN,51.12676056338028,NA
46122,Hendricks County,IN,71.54929577464789,NA
46140,Hancock County,IN,17.04225352112676,NA
46163,Hancock County,IN,65.77464788732395,NA
46201,Marion County,IN,67.74647887323944,NA
46218,Marion County,IN,72.8169014084507,NA
46322,Lake County,IN,23.098591549295776,NA
46342,Lake County,IN,12.112676056338028,NA
46368,Porter County,IN,14.084507042253522,NA
46383,Porter County,IN,27.74647887323944,NA
46385,Porter County,IN,3.2394366197183095,NA
46563,Marshall County,IN,NA,19.377162629757784
46816,Allen County,IN,46.61971830985915,84.94809688581316
46825,Allen County,IN,NA,33.56401384083045
46835,Allen County,IN,10.56338028169014,NA
46845,Allen County,IN,43.802816901408455,NA
46970,Miami County,IN,NA,34.2560553633218
46979,Howard County,IN,98.73239436619718,NA
46992,Wabash County,IN,NA,82.8719723183391
47130,Clark County,IN,5.070422535211268,NA
47348,Blackford County,IN,NA,51.03806228373703
47401,Monroe County,IN,NA,61.76470588235294
47610,Warrick County,IN,91.26760563380282,NA
47715,Vanderburgh County,IN,NA,13.321799307958477
47842,Vermillion County,IN,97.46478873239437,NA
47960,White County,IN,NA,38.581314878892734
47978,Jasper County,IN,89.01408450704226,NA
50021,Polk County,IA,NA,89.61937716262976
50023,Polk County,IA,78.0281690140845,76.12456747404845
50213,Clarke County,IA,94.36619718309859,NA
50322,Polk County,IA,NA,56.05536332179931
50501,Webster County,IA,35.070422535211264,NA
51031,Plymouth County,IA,48.87323943661972,NA
51334,Emmet County,IA,79.5774647887324,NA
52052,Clayton County,IA,96.90140845070422,NA
52057,Delaware County,IA,NA,80.62283737024222
52205,Jones County,IA,81.97183098591549,NA
52317,Johnson County,IA,NA,92.21453287197232
52404,Linn County,IA,NA,64.70588235294117
52537,Davis County,IA,NA,94.63667820069203
52601,Des Moines County,IA,NA,48.44290657439446
52761,Muscatine County,IA,NA,75.9515570934256
66104,Wyandotte County,KS,NA,55.36332179930796
66206,Johnson County,KS,NA,71.45328719723183
66223,Johnson County,KS,84.22535211267605,NA
66441,Geary County,KS,NA,79.41176470588235
66502,Riley County,KS,66.47887323943662,NA
66604,Shawnee County,KS,39.718309859154935,NA
66720,Neosho County,KS,NA,80.79584775086505
67216,Sedgwick County,KS,65.63380281690141,NA
40229,Jefferson County,KY,19.295774647887324,NA
40291,Jefferson County,KY,16.901408450704224,NA
40324,Scott County,KY,20.704225352112676,NA
40351,Rowan County,KY,47.183098591549296,NA
40391,Clark County,KY,43.38028169014084,NA
40422,Boyle County,KY,NA,81.66089965397923
40447,Jackson County,KY,NA,93.77162629757785
40475,Madison County,KY,NA,21.453287197231834
40484,Lincoln County,KY,54.647887323943664,NA
40514,Fayette County,KY,90.14084507042254,NA
40906,Knox County,KY,75.07042253521126,NA
41005,Boone County,KY,51.267605633802816,NA
41076,Campbell County,KY,47.32394366197183,NA
41091,Boone County,KY,NA,56.40138408304498
41101,Boyd County,KY,NA,19.55017301038062
41501,Pike County,KY,12.676056338028168,NA
42104,Warren County,KY,44.08450704225352,NA
42141,Barren County,KY,NA,10.726643598615917
42211,Trigg County,KY,44.36619718309859,NA
42240,Christian County,KY,NA,93.9446366782007
42445,Caldwell County,KY,NA,98.26989619377161
42503,Pulaski County,KY,54.507042253521135,NA
70084,St. John the Baptist Parish,LA,73.23943661971832,NA
70118,Orleans Parish,LA,NA,32.52595155709342
70121,Jefferson Parish,LA,84.64788732394366,NA
70123,Jefferson Parish,LA,52.112676056338024,NA
70403,Tangipahoa Parish,LA,28.028169014084508,NA
70461,St. Tammany Parish,LA,NA,45.8477508650519
70508,Lafayette Parish,LA,NA,31.66089965397924
70515,Evangeline Parish,LA,97.60563380281691,NA
70520,Lafayette Parish,LA,NA,80.1038062283737
70592,Lafayette Parish,LA,66.7605633802817,NA
70769,Ascension Parish,LA,NA,86.33217993079585
70810,East Baton Rouge Parish,LA,25.492957746478872,NA
71037,Bossier Parish,LA,50.28169014084507,NA
71101,Caddo Parish,LA,99.01408450704226,NA
71107,Caddo Parish,LA,18.30985915492958,NA
71118,Caddo Parish,LA,23.239436619718308,NA
04092,Cumberland County,ME,NA,47.75086505190311
04102,Cumberland County,ME,36.19718309859155,NA
04239,Franklin County,ME,NA,72.14532871972318
04412,Penobscot County,ME,NA,61.245674740484425
04736,Aroostook County,ME,74.22535211267606,NA
04769,Aroostook County,ME,42.95774647887324,NA
04864,Knox County,ME,99.43661971830986,NA
20646,Charles County,MD,NA,74.0484429065744
20745,Prince George's County,MD,NA,83.91003460207612
20784,Prince George's County,MD,74.36619718309859,NA
20877,Montgomery County,MD,80.98591549295774,NA
20904,Montgomery County,MD,47.46478873239436,NA
21114,Anne Arundel County,MD,86.19718309859155,NA
21202,Baltimore city,MD,54.22535211267606,NA
21211,Baltimore city,MD,NA,72.83737024221453
21215,Baltimore city,MD,8.732394366197182,NA
21219,Baltimore County,MD,81.97183098591549,NA
21225,Baltimore city,MD,NA,53.11418685121107
21231,Baltimore city,MD,NA,73.01038062283737
21239,Baltimore city,MD,NA,28.373702422145332
21666,Queen Anne's County,MD,92.11267605633803,NA
01020,Hampden County,MA,NA,12.802768166089965
01069,Hampden County,MA,NA,65.05190311418684
01118,Hampden County,MA,56.056338028169016,95.15570934256056
01440,Worcester County,MA,8.450704225352112,43.59861591695502
01463,Middlesex County,MA,NA,84.60207612456747
01469,Middlesex County,MA,69.85915492957746,NA
01545,Worcester County,MA,NA,13.84083044982699
01801,Middlesex County,MA,0.5633802816901409,NA
01821,Middlesex County,MA,1.6901408450704223,NA
01844,Essex County,MA,21.12676056338028,NA
01851,Middlesex County,MA,2.676056338028169,NA
01876,Middlesex County,MA,NA,8.650519031141869
01886,Middlesex County,MA,NA,50.69204152249135
01913,Essex County,MA,9.014084507042254,68.16608996539793
01952,Essex County,MA,56.33802816901409,NA
01960,Essex County,MA,NA,2.768166089965398
02019,Norfolk County,MA,8.169014084507042,NA
02118,Suffolk County,MA,NA,32.00692041522492
02124,Suffolk County,MA,0.14084507042253522,1.384083044982699
02125,Suffolk County,MA,NA,9.688581314878892
02126,Suffolk County,MA,44.7887323943662,17.99307958477509
02128,Suffolk County,MA,NA,31.141868512110726
02129,Suffolk County,MA,NA,73.87543252595155
02130,Suffolk County,MA,NA,25.60553633217993
02131,Suffolk County,MA,NA,66.60899653979239
02132,Suffolk County,MA,NA,5.190311418685121
02136,Suffolk County,MA,NA,6.747404844290658
02140,Middlesex County,MA,10.704225352112676,NA
02143,Middlesex County,MA,60.4225352112676,17.647058823529413
02144,Middlesex County,MA,NA,18.685121107266436
02148,Middlesex County,MA,NA,9.16955017301038
02152,Suffolk County,MA,6.901408450704226,NA
02155,Middlesex County,MA,0.42253521126760557,NA
02170,Norfolk County,MA,8.309859154929578,NA
02171,Norfolk County,MA,17.74647887323944,NA
02189,Norfolk County,MA,83.94366197183099,NA
02301,Plymouth County,MA,NA,1.0380622837370241
02302,Plymouth County,MA,NA,4.498269896193772
02368,Norfolk County,MA,28.732394366197184,NA
02446,Norfolk County,MA,6.478873239436619,NA
02453,Middlesex County,MA,NA,17.82006920415225
02458,Middlesex County,MA,76.47887323943662,NA
02467,Norfolk County,MA,NA,64.18685121107266
02476,Middlesex County,MA,24.366197183098592,NA
02703,Bristol County,MA,10.28169014084507,NA
02780,Bristol County,MA,1.5492957746478873,NA
48001,St. Clair County,MI,NA,92.90657439446368
48009,Oakland County,MI,59.29577464788732,NA
48026,Macomb County,MI,40.28169014084507,NA
48033,Oakland County,MI,30.985915492957744,NA
48034,Oakland County,MI,50.42253521126761,NA
48042,Macomb County,MI,NA,28.546712802768166
48066,Macomb County,MI,NA,8.304498269896193
48067,Oakland County,MI,41.690140845070424,NA
48073,Oakland County,MI,NA,61.93771626297578
48076,Oakland County,MI,24.084507042253524,NA
48082,Macomb County,MI,34.92957746478873,NA
48085,Oakland County,MI,26.619718309859152,NA
48103,Washtenaw County,MI,1.1267605633802817,2.0761245674740483
48105,Washtenaw County,MI,85.63380281690141,19.031141868512112
48108,Washtenaw County,MI,NA,25.08650519031142
48116,Livingston County,MI,78.59154929577464,11.937716262975778
48118,Washtenaw County,MI,66.19718309859155,NA
48127,Wayne County,MI,NA,7.958477508650519
48130,Washtenaw County,MI,36.33802816901409,NA
48135,Wayne County,MI,NA,53.979238754325266
48138,Wayne County,MI,56.47887323943662,NA
48146,Wayne County,MI,NA,59.16955017301038
48152,Wayne County,MI,NA,40.830449826989614
48167,Oakland County,MI,NA,47.05882352941176
48168,Wayne County,MI,37.74647887323944,NA
48169,Livingston County,MI,28.169014084507044,NA
48174,Wayne County,MI,NA,39.792387543252595
48178,Oakland County,MI,12.253521126760564,NA
48185,Wayne County,MI,NA,8.131487889273355
48187,Wayne County,MI,NA,8.477508650519031
48188,Wayne County,MI,NA,69.8961937716263
48195,Wayne County,MI,59.014084507042256,NA
48197,Washtenaw County,MI,NA,69.72318339100346
48208,Wayne County,MI,92.95774647887323,NA
48219,Wayne County,MI,NA,13.667820069204154
48227,Wayne County,MI,NA,58.47750865051903
48230,Wayne County,MI,83.52112676056338,NA
48234,Wayne County,MI,NA,24.048442906574394
48238,Wayne County,MI,NA,80.96885813148789
48240,Wayne County,MI,NA,30.44982698961938
48301,Oakland County,MI,90.4225352112676,47.2318339100346
48304,Oakland County,MI,NA,27.162629757785467
48309,Oakland County,MI,NA,23.18339100346021
48310,Macomb County,MI,11.690140845070422,NA
48323,Oakland County,MI,41.971830985915496,35.98615916955018
48324,Oakland County,MI,NA,78.89273356401384
48331,Oakland County,MI,NA,29.58477508650519
48335,Oakland County,MI,NA,68.33910034602077
48336,Oakland County,MI,NA,62.28373702422145
48341,Oakland County,MI,41.54929577464789,NA
48381,Oakland County,MI,NA,51.384083044982695
48382,Oakland County,MI,NA,60.553633217993074
48390,Oakland County,MI,34.36619718309859,37.54325259515571
48446,Lapeer County,MI,21.408450704225352,NA
48801,Gratiot County,MI,NA,65.7439446366782
48813,Eaton County,MI,15.63380281690141,NA
48843,Livingston County,MI,4.225352112676056,NA
48855,Livingston County,MI,46.33802816901408,NA
48858,Isabella County,MI,6.338028169014084,NA
48911,Ingham County,MI,13.661971830985916,NA
49021,Eaton County,MI,71.83098591549296,NA
49028,Branch County,MI,NA,90.3114186851211
49048,Kalamazoo County,MI,NA,14.186851211072666
49242,Hillsdale County,MI,44.50704225352113,NA
49247,Lenawee County,MI,64.64788732394366,NA
49456,Ottawa County,MI,NA,20.588235294117645
49548,Kent County,MI,45.352112676056336,NA
49646,Kalkaska County,MI,91.97183098591549,NA
49837,Delta County,MI,NA,55.017301038062286
55021,Rice County,MN,38.16901408450704,NA
55038,Washington County,MN,85.77464788732394,NA
55044,Dakota County,MN,57.74647887323944,NA
55104,Ramsey County,MN,NA,48.26989619377163
55113,Ramsey County,MN,NA,23.52941176470588
55126,Ramsey County,MN,NA,57.266435986159166
55128,Washington County,MN,52.53521126760563,NA
55129,Washington County,MN,95.35211267605634,NA
55306,Dakota County,MN,67.46478873239437,NA
55309,Sherburne County,MN,96.7605633802817,NA
55337,Dakota County,MN,NA,30.79584775086505
55345,Hennepin County,MN,69.15492957746478,NA
55350,McLeod County,MN,NA,15.22491349480969
55371,Mille Lacs County,MN,NA,81.31487889273356
55376,Wright County,MN,89.5774647887324,NA
55391,Hennepin County,MN,NA,67.82006920415225
55404,Hennepin County,MN,3.0985915492957745,NA
55413,Hennepin County,MN,96.19718309859155,NA
55414,Hennepin County,MN,99.15492957746478,NA
55418,Hennepin County,MN,NA,49.82698961937716
55421,Anoka County,MN,NA,43.42560553633218
55423,Hennepin County,MN,NA,36.15916955017301
55427,Hennepin County,MN,60.140845070422536,53.46020761245674
55430,Hennepin County,MN,NA,79.93079584775087
55444,Hennepin County,MN,99.29577464788733,NA
55449,Anoka County,MN,68.45070422535211,NA
55720,Carlton County,MN,NA,40.65743944636678
55811,St. Louis County,MN,5.352112676056338,38.062283737024224
55912,Mower County,MN,NA,36.332179930795846
56007,Freeborn County,MN,NA,1.5570934256055362
56013,Faribault County,MN,NA,91.6955017301038
56031,Martin County,MN,NA,62.45674740484429
56101,Cottonwood County,MN,90.56338028169014,90.65743944636678
56258,Lyon County,MN,51.69014084507042,NA
56303,Stearns County,MN,NA,51.55709342560554
56308,Douglas County,MN,NA,31.314878892733567
56310,Stearns County,MN,NA,99.65397923875432
56470,Hubbard County,MN,NA,37.37024221453287
56484,Cass County,MN,NA,85.81314878892734
56515,Otter Tail County,MN,NA,64.18685121107266
56537,Otter Tail County,MN,8.732394366197182,1.7301038062283738
56560,Clay County,MN,45.2112676056338,NA
56601,Beltrami County,MN,1.267605633802817,1.2110726643598615
38654,DeSoto County,MS,NA,30.96885813148789
38732,Bolivar County,MS,37.605633802816904,NA
39114,Simpson County,MS,NA,97.40484429065745
39218,Rankin County,MS,NA,93.07958477508652
39350,Neshoba County,MS,28.450704225352112,NA
39576,Hancock County,MS,98.45070422535211,NA
39645,Amite County,MS,NA,98.09688581314879
39667,Walthall County,MS,60.985915492957744,48.615916955017305
63028,Jefferson County,MO,NA,46.19377162629758
63031,St. Louis County,MO,NA,7.612456747404845
63044,St. Louis County,MO,65.35211267605634,NA
63129,St. Louis County,MO,53.38028169014084,NA
63131,St. Louis County,MO,NA,55.70934256055363
63136,St. Louis County,MO,NA,33.391003460207614
63141,St. Louis County,MO,69.43661971830986,NA
63303,St. Charles County,MO,10.84507042253521,NA
63304,St. Charles County,MO,12.957746478873238,NA
64014,Jackson County,MO,30.704225352112672,NA
64029,Jackson County,MO,77.46478873239437,NA
64060,Clay County,MO,62.394366197183096,NA
64151,Platte County,MO,48.59154929577465,NA
64152,Platte County,MO,68.02816901408451,NA
64701,Cass County,MO,58.028169014084504,NA
65453,Crawford County,MO,93.2394366197183,NA
65625,Barry County,MO,NA,91.52249134948097
65737,Stone County,MO,59.859154929577464,NA
65757,Greene County,MO,NA,96.53979238754326
65802,Greene County,MO,NA,20.242214532871973
59901,Flathead County,MT,20.140845070422536,NA
59937,Flathead County,MT,89.85915492957747,NA
68106,Douglas County,NE,74.78873239436619,NA
68117,Douglas County,NE,88.16901408450704,NA
68467,York County,NE,NA,77.50865051903114
68506,Lancaster County,NE,NA,41.003460207612456
68522,Lancaster County,NE,NA,92.38754325259517
69153,Keith County,NE,75.35211267605634,NA
89815,Elko County,NV,76.19718309859155,NA
03051,Hillsborough County,NH,NA,27.33564013840831
03063,Hillsborough County,NH,73.66197183098592,NA
03222,Grafton County,NH,NA,98.78892733564014
03301,Merrimack County,NH,NA,4.1522491349480966
03431,Cheshire County,NH,NA,7.093425605536333
03766,Grafton County,NH,NA,50.34602076124568
03878,Strafford County,NH,89.29577464788733,NA
07047,Hudson County,NJ,62.53521126760564,NA
07087,Hudson County,NJ,4.929577464788732,NA
07104,Essex County,NJ,25.070422535211268,NA
07107,Essex County,NJ,NA,54.67128027681662
07109,Essex County,NJ,NA,29.411764705882355
07111,Essex County,NJ,NA,21.10726643598616
07410,Bergen County,NJ,NA,34.42906574394463
07631,Bergen County,NJ,NA,51.73010380622838
07660,Bergen County,NJ,81.40845070422536,NA
07675,Bergen County,NJ,45.91549295774648,NA
07728,Monmouth County,NJ,12.957746478873238,NA
07834,Morris County,NJ,NA,42.38754325259516
07840,Warren County,NJ,NA,33.910034602076124
07850,Morris County,NJ,99.71830985915493,NA
08069,Salem County,NJ,43.66197183098591,NA
08083,Camden County,NJ,70.28169014084507,NA
08106,Camden County,NJ,NA,87.0242214532872
08201,Atlantic County,NJ,NA,88.4083044982699
08260,Cape May County,NJ,60,NA
08332,Cumberland County,NJ,NA,43.0795847750865
08540,Mercer County,NJ,34.225352112676056,NA
08724,Ocean County,NJ,14.225352112676056,NA
08757,Ocean County,NJ,NA,0.5190311418685121
08807,Somerset County,NJ,40.42253521126761,38.23529411764706
08844,Somerset County,NJ,55.774647887323944,NA
08850,Middlesex County,NJ,93.80281690140845,NA
87301,McKinley County,NM,NA,73.01038062283737
87505,Santa Fe County,NM,6.197183098591549,NA
88240,Lea County,NM,NA,29.93079584775086
88310,Otero County,NM,NA,6.401384083044983
10002,New York County,NY,2.8169014084507045,NA
10016,New York County,NY,NA,24.22145328719723
10021,New York County,NY,23.52112676056338,71.10726643598616
10024,New York County,NY,21.408450704225352,NA
10025,New York County,NY,NA,2.422145328719723
10027,New York County,NY,NA,26.297577854671278
10033,New York County,NY,71.26760563380282,NA
10301,Richmond County,NY,87.1830985915493,NA
10304,Richmond County,NY,NA,28.027681660899656
10308,Richmond County,NY,NA,90.48442906574394
10314,Richmond County,NY,3.8028169014084505,NA
10452,Bronx County,NY,NA,11.76470588235294
10455,Bronx County,NY,NA,16.089965397923876
10458,Bronx County,NY,0.28169014084507044,NA
10461,Bronx County,NY,NA,23.875432525951556
10463,Bronx County,NY,3.943661971830986,NA
10465,Bronx County,NY,70.56338028169013,NA
10471,Bronx County,NY,NA,94.98269896193771
10504,Westchester County,NY,NA,93.42560553633218
10530,Westchester County,NY,82.25352112676056,NA
10567,Westchester County,NY,78.16901408450704,NA
10606,Westchester County,NY,NA,87.19723183391004
10990,Orange County,NY,NA,44.29065743944637
11023,Nassau County,NY,95.63380281690141,NA
11106,Queens County,NY,84.78873239436619,NA
11203,Kings County,NY,5.915492957746479,NA
11208,Kings County,NY,0.9859154929577465,NA
11212,Kings County,NY,NA,6.920415224913495
11213,Kings County,NY,5.633802816901409,NA
11214,Kings County,NY,10.985915492957748,NA
11219,Kings County,NY,NA,12.45674740484429
11221,Kings County,NY,3.3802816901408446,NA
11226,Kings County,NY,2.535211267605634,NA
11235,Kings County,NY,13.521126760563378,NA
11237,Kings County,NY,NA,53.28719723183391
11238,Kings County,NY,NA,39.273356401384085
11356,Queens County,NY,81.40845070422536,NA
11357,Queens County,NY,43.52112676056338,NA
11367,Queens County,NY,44.225352112676056,NA
11373,Queens County,NY,NA,20.415224913494807
11374,Queens County,NY,NA,20.761245674740483
11379,Queens County,NY,NA,48.96193771626297
11413,Queens County,NY,NA,59.86159169550172
11418,Queens County,NY,45.774647887323944,NA
11423,Queens County,NY,NA,56.747404844290664
11426,Queens County,NY,75.63380281690141,NA
11427,Queens County,NY,66.05633802816901,NA
11434,Queens County,NY,14.225352112676056,NA
11530,Nassau County,NY,80.84507042253522,NA
11580,Nassau County,NY,NA,63.49480968858131
11717,Suffolk County,NY,NA,28.892733564013838
11740,Suffolk County,NY,NA,84.42906574394463
11771,Nassau County,NY,92.67605633802816,NA
12009,Albany County,NY,NA,82.52595155709342
12020,Saratoga County,NY,NA,38.4083044982699
12043,Schoharie County,NY,NA,63.667820069204154
12182,Rensselaer County,NY,48.30985915492958,68.68512110726644
12206,Albany County,NY,NA,92.38754325259517
12211,Albany County,NY,NA,86.159169550173
12550,Orange County,NY,NA,53.63321799307958
13041,Onondaga County,NY,75.77464788732394,NA
13044,Oswego County,NY,98.16901408450704,NA
13209,Onondaga County,NY,68.16901408450704,70.41522491349481
13215,Onondaga County,NY,48.732394366197184,NA
13219,Onondaga County,NY,46.76056338028169,66.95501730103807
13456,Oneida County,NY,98.59154929577466,NA
13676,St. Lawrence County,NY,NA,29.93079584775086
13734,Tioga County,NY,99.85915492957747,NA
13850,Broome County,NY,NA,24.91349480968858
13856,Delaware County,NY,34.647887323943664,NA
14004,Erie County,NY,73.38028169014085,NA
14006,Erie County,NY,NA,87.19723183391004
14043,Erie County,NY,27.464788732394368,NA
14048,Chautauqua County,NY,NA,75.4325259515571
14051,Erie County,NY,NA,92.38754325259517
14063,Chautauqua County,NY,45.07042253521127,NA
14072,Erie County,NY,33.943661971830984,NA
14086,Erie County,NY,NA,85.29411764705883
14094,Niagara County,NY,NA,26.124567474048444
14127,Erie County,NY,13.380281690140844,NA
14213,Erie County,NY,40.563380281690144,NA
14217,Erie County,NY,17.6056338028169,NA
14218,Erie County,NY,NA,50.17301038062284
14224,Erie County,NY,7.887323943661972,NA
14227,Erie County,NY,23.380281690140844,NA
14414,Livingston County,NY,NA,83.91003460207612
14420,Monroe County,NY,19.859154929577468,NA
14424,Ontario County,NY,23.661971830985916,NA
14450,Monroe County,NY,11.971830985915492,NA
14519,Wayne County,NY,25.633802816901408,NA
14559,Monroe County,NY,19.43661971830986,NA
14589,Wayne County,NY,42.112676056338024,NA
14611,Monroe County,NY,15.63380281690141,NA
14612,Monroe County,NY,1.4084507042253522,NA
14616,Monroe County,NY,7.464788732394366,NA
14617,Monroe County,NY,NA,32.52595155709342
14619,Monroe County,NY,38.59154929577465,NA
14620,Monroe County,NY,14.929577464788732,NA
14626,Monroe County,NY,NA,35.294117647058826
14701,Chautauqua County,NY,1.971830985915493,NA
27103,Forsyth County,NC,NA,32.17993079584775
27104,Forsyth County,NC,NA,3.1141868512110724
27107,Forsyth County,NC,22.3943661971831,NA
27127,Forsyth County,NC,NA,5.88235294117647
27258,Alamance County,NC,NA,89.27335640138409
27302,Alamance County,NC,NA,59.515570934256054
27312,Chatham County,NC,NA,15.051903114186851
27330,Lee County,NC,21.69014084507042,NA
27360,Davidson County,NC,4.507042253521127,NA
27517,Orange County,NC,26.056338028169012,NA
27518,Wake County,NC,80.14084507042254,NA
27519,Wake County,NC,49.57746478873239,NA
27524,Johnston County,NC,67.88732394366197,NA
27529,Wake County,NC,14.788732394366196,18.5121107266436
27540,Wake County,NC,77.6056338028169,NA
27572,Person County,NC,84.36619718309859,NA
27587,Wake County,NC,57.46478873239437,NA
27607,Wake County,NC,91.69014084507042,NA
27614,Wake County,NC,34.50704225352113,NA
27713,Durham County,NC,16.76056338028169,17.474048442906575
27803,Nash County,NC,42.394366197183096,NA
27882,Nash County,NC,95.07042253521126,NA
27886,Edgecombe County,NC,NA,93.25259515570934
27893,Wilson County,NC,NA,67.99307958477509
28023,Rowan County,NC,NA,70.58823529411765
28054,Gaston County,NC,NA,32.8719723183391
28144,Rowan County,NC,NA,50.86505190311419
28205,Mecklenburg County,NC,24.647887323943664,NA
28227,Mecklenburg County,NC,NA,27.508650519031143
28269,Mecklenburg County,NC,NA,37.19723183391003
28328,Sampson County,NC,20.56338028169014,NA
28334,Sampson County,NC,26.76056338028169,NA
28401,New Hanover County,NC,30.422535211267604,NA
28625,Iredell County,NC,17.183098591549296,NA
28704,Buncombe County,NC,70.4225352112676,NA
28711,Buncombe County,NC,NA,66.78200692041523
28716,Haywood County,NC,72.11267605633803,NA
28739,Henderson County,NC,43.94366197183099,NA
28792,Henderson County,NC,38.732394366197184,NA
58078,Cass County,ND,NA,17.301038062283737
58201,Grand Forks County,ND,31.83098591549296,NA
58701,Ward County,ND,8.028169014084508,NA
43021,Delaware County,OH,80.70422535211267,NA
43056,Licking County,OH,NA,55.19031141868512
43062,Licking County,OH,NA,44.636678200692046
43078,Champaign County,OH,37.183098591549296,NA
43082,Delaware County,OH,71.9718309859155,NA
43140,Madison County,OH,31.26760563380282,NA
43215,Franklin County,OH,92.3943661971831,NA
43232,Franklin County,OH,13.239436619718308,52.7681660899654
43724,Noble County,OH,NA,82.00692041522491
43920,Columbiana County,OH,39.154929577464785,NA
44001,Lorain County,OH,NA,35.46712802768166
44004,Ashtabula County,OH,39.436619718309856,NA
44026,Geauga County,OH,79.15492957746478,NA
44035,Lorain County,OH,0,0.34602076124567477
44039,Lorain County,OH,2.9577464788732395,NA
44041,Ashtabula County,OH,32.95774647887324,NA
44052,Lorain County,OH,NA,7.26643598615917
44057,Lake County,OH,NA,14.013840830449828
44067,Summit County,OH,NA,12.629757785467127
44072,Geauga County,OH,NA,76.98961937716263
44087,Summit County,OH,13.802816901408452,NA
44089,Erie County,OH,9.15492957746479,NA
44095,Lake County,OH,9.43661971830986,NA
44102,Cuyahoga County,OH,2.3943661971830985,NA
44114,Cuyahoga County,OH,NA,96.36678200692042
44116,Cuyahoga County,OH,NA,5.3633217993079585
44124,Cuyahoga County,OH,NA,0.6920415224913495
44128,Cuyahoga County,OH,NA,1.9031141868512111
44134,Cuyahoga County,OH,2.112676056338028,NA
44135,Cuyahoga County,OH,7.042253521126761,NA
44136,Cuyahoga County,OH,56.19718309859155,NA
44138,Cuyahoga County,OH,NA,22.491349480968857
44139,Cuyahoga County,OH,NA,14.53287197231834
44143,Cuyahoga County,OH,12.394366197183098,NA
44145,Cuyahoga County,OH,4.366197183098591,NA
44146,Cuyahoga County,OH,1.8309859154929577,NA
44147,Cuyahoga County,OH,61.83098591549295,NA
44202,Portage County,OH,17.464788732394364,NA
44203,Summit County,OH,NA,6.228373702422145
44240,Portage County,OH,NA,19.031141868512112
44278,Summit County,OH,NA,46.02076124567474
44281,Medina County,OH,NA,17.1280276816609
44303,Summit County,OH,67.32394366197182,NA
44312,Summit County,OH,NA,95.32871972318338
44437,Trumbull County,OH,96.47887323943662,NA
44614,Stark County,OH,65.49295774647888,NA
44708,Stark County,OH,NA,18.33910034602076
44718,Stark County,OH,70.70422535211267,NA
44857,Huron County,OH,6.760563380281689,NA
45036,Warren County,OH,24.225352112676056,NA
45133,Highland County,OH,19.154929577464788,NA
45206,Hamilton County,OH,NA,79.06574394463668
45211,Hamilton County,OH,NA,37.88927335640138
45238,Hamilton County,OH,NA,10.207612456747404
45252,Hamilton County,OH,94.78873239436619,NA
45365,Shelby County,OH,12.535211267605634,NA
45373,Miami County,OH,11.549295774647888,NA
45417,Montgomery County,OH,NA,29.06574394463668
45440,Montgomery County,OH,NA,52.94117647058824
45601,Ross County,OH,NA,0
45614,Gallia County,OH,NA,100
45807,Allen County,OH,86.33802816901408,NA
45891,Van Wert County,OH,22.535211267605636,NA
73010,McClain County,OK,59.57746478873239,NA
73013,Oklahoma County,OK,8.591549295774648,NA
73064,Canadian County,OK,NA,72.31833910034602
73071,Cleveland County,OK,NA,62.80276816608996
73072,Cleveland County,OK,25.211267605633804,37.0242214532872
73119,Oklahoma County,OK,38.309859154929576,NA
73142,Oklahoma County,OK,NA,56.05536332179931
73159,Oklahoma County,OK,86.05633802816901,NA
73160,Cleveland County,OK,NA,11.591695501730104
73439,Marshall County,OK,81.12676056338029,NA
73533,Stephens County,OK,11.830985915492958,NA
74012,Tulsa County,OK,NA,10.55363321799308
74014,Wagoner County,OK,22.676056338028168,NA
74128,Tulsa County,OK,83.09859154929578,NA
74701,Bryan County,OK,52.112676056338024,NA
74820,Pontotoc County,OK,4.647887323943662,NA
74953,Le Flore County,OK,76.33802816901408,NA
97005,Washington County,OR,NA,43.944636678200695
97034,Clackamas County,OR,NA,36.50519031141869
97141,Tillamook County,OR,NA,70.24221453287197
97213,Multnomah County,OR,55.07042253521127,NA
97221,Multnomah County,OR,83.66197183098592,NA
97230,Multnomah County,OR,NA,94.4636678200692
97239,Multnomah County,OR,NA,56.92041522491349
97355,Linn County,OR,5.492957746478874,NA
97404,Lane County,OR,NA,54.844290657439444
15065,Allegheny County,PA,NA,45.32871972318339
15102,Allegheny County,PA,NA,99.48096885813149
15205,Allegheny County,PA,52.394366197183096,NA
15221,Allegheny County,PA,NA,16.43598615916955
15224,Allegheny County,PA,NA,78.02768166089965
15227,Allegheny County,PA,20.281690140845072,29.238754325259514
15235,Allegheny County,PA,14.507042253521126,8.823529411764707
15370,Greene County,PA,53.94366197183098,NA
15417,Fayette County,PA,83.80281690140845,NA
15642,Westmoreland County,PA,6.056338028169014,NA
15668,Westmoreland County,PA,84.50704225352112,NA
15931,Cambria County,PA,NA,78.20069204152249
15963,Somerset County,PA,53.239436619718305,NA
16033,Butler County,PA,NA,98.6159169550173
16121,Mercer County,PA,95.77464788732394,NA
16142,Lawrence County,PA,NA,87.5432525951557
16510,Erie County,PA,73.80281690140845,NA
16830,Clearfield County,PA,NA,16.782006920415224
16841,Centre County,PA,NA,74.39446366782006
16866,Centre County,PA,NA,51.73010380622838
17032,Dauphin County,PA,NA,97.75086505190312
17033,Dauphin County,PA,NA,23.01038062283737
17740,Lycoming County,PA,NA,44.11764705882353
17801,Northumberland County,PA,NA,33.73702422145329
17842,Snyder County,PA,NA,71.97231833910035
17901,Schuylkill County,PA,NA,23.70242214532872
18058,Monroe County,PA,72.95774647887325,NA
18062,Lehigh County,PA,NA,27.508650519031143
18103,Lehigh County,PA,5.774647887323944,NA
18224,Luzerne County,PA,84.08450704225352,NA
18411,Lackawanna County,PA,NA,25.259515570934255
18512,Lackawanna County,PA,73.94366197183099,NA
18610,Monroe County,PA,78.30985915492957,NA
18954,Bucks County,PA,74.64788732394366,NA
18966,Bucks County,PA,10.422535211267606,NA
19002,Montgomery County,PA,20.422535211267608,NA
19008,Delaware County,PA,35.352112676056336,NA
19027,Montgomery County,PA,67.04225352112675,NA
19047,Bucks County,PA,14.929577464788732,NA
19076,Delaware County,PA,98.02816901408451,NA
19081,Delaware County,PA,89.43661971830986,NA
19096,Montgomery County,PA,70.84507042253522,83.21799307958477
19111,Philadelphia County,PA,4.788732394366197,NA
19123,Philadelphia County,PA,NA,95.8477508650519
19128,Philadelphia County,PA,NA,34.77508650519031
19131,Philadelphia County,PA,20,NA
19144,Philadelphia County,PA,9.295774647887324,NA
19150,Philadelphia County,PA,21.267605633802816,NA
19151,Philadelphia County,PA,NA,60.034602076124564
19342,Delaware County,PA,NA,61.418685121107266
19426,Montgomery County,PA,28.87323943661972,NA
19610,Berks County,PA,33.38028169014085,NA
02860,Providence County,RI,NA,4.671280276816609
02904,Providence County,RI,17.323943661971832,NA
02917,Providence County,RI,NA,73.35640138408304
29379,Union County,SC,40.985915492957744,NA
29440,Georgetown County,SC,75.21126760563381,NA
29445,Berkeley County,SC,NA,41.69550173010381
29526,Horry County,SC,NA,57.785467128027676
29532,Darlington County,SC,NA,65.39792387543253
29576,Horry County,SC,NA,15.570934256055363
29640,Pickens County,SC,NA,33.04498269896194
29847,Edgefield County,SC,NA,98.44290657439446
29851,Aiken County,SC,NA,91.00346020761245
29927,Jasper County,SC,NA,75.60553633217994
57006,Brookings County,SD,NA,13.148788927335639
57104,Minnehaha County,SD,31.408450704225356,NA
57108,Lincoln County,SD,18.87323943661972,NA
57701,Pennington County,SD,NA,10.207612456747404
57719,Pennington County,SD,50.84507042253521,NA
37075,Sumner County,TN,NA,9.86159169550173
37096,Perry County,TN,98.30985915492958,NA
37166,DeKalb County,TN,NA,57.61245674740484
37185,Humphreys County,TN,NA,77.85467128027682
37205,Davidson County,TN,NA,19.72318339100346
37341,Hamilton County,TN,77.88732394366197,NA
37379,Hamilton County,TN,27.887323943661972,NA
37388,Coffee County,TN,NA,78.719723183391
37601,Washington County,TN,11.267605633802818,NA
37708,Grainger County,TN,84.92957746478874,NA
37748,Roane County,TN,NA,41.69550173010381
37849,Knox County,TN,NA,46.19377162629758
37876,Sevier County,TN,55.49295774647888,NA
37919,Knox County,TN,NA,40.484429065743946
38017,Shelby County,TN,48.45070422535211,NA
38116,Shelby County,TN,29.43661971830986,NA
38506,Putnam County,TN,NA,34.42906574394463
38583,White County,TN,26.338028169014084,NA
75006,Dallas County,TX,25.774647887323944,NA
75040,Dallas County,TX,26.338028169014084,NA
75044,Dallas County,TX,NA,62.80276816608996
75071,Collin County,TX,NA,67.47404844290658
75080,Dallas County,TX,NA,79.75778546712803
75087,Rockwall County,TX,51.54929577464789,NA
75115,Dallas County,TX,18.169014084507044,NA
75154,Ellis County,TX,40,NA
75211,Dallas County,TX,NA,42.56055363321799
75220,Dallas County,TX,91.69014084507042,NA
75230,Dallas County,TX,NA,49.653979238754324
75407,Collin County,TX,66.61971830985915,NA
75551,Cass County,TX,77.74647887323944,NA
75831,Leon County,TX,94.50704225352112,NA
75904,Angelina County,TX,12.816901408450704,NA
76016,Tarrant County,TX,57.183098591549296,NA
76051,Tarrant County,TX,33.52112676056338,NA
76108,Tarrant County,TX,58.309859154929576,50.34602076124568
76110,Tarrant County,TX,46.901408450704224,NA
76126,Tarrant County,TX,NA,68.5121107266436
76240,Cooke County,TX,NA,52.42214532871973
76634,Bosque County,TX,NA,85.6401384083045
76706,McLennan County,TX,41.12676056338028,NA
77019,Harris County,TX,NA,82.35294117647058
77045,Harris County,TX,61.12676056338028,NA
77070,Harris County,TX,NA,35.6401384083045
77096,Harris County,TX,NA,51.03806228373703
77371,San Jacinto County,TX,86.61971830985915,NA
77379,Harris County,TX,10,NA
77407,Fort Bend County,TX,NA,77.68166089965398
77418,Austin County,TX,72.3943661971831,NA
77459,Fort Bend County,TX,11.408450704225352,NA
77479,Fort Bend County,TX,51.40845070422535,NA
77494,Fort Bend County,TX,NA,68.68512110726644
77539,Galveston County,TX,NA,66.26297577854672
77550,Galveston County,TX,NA,6.5743944636678195
77554,Galveston County,TX,NA,60.034602076124564
77573,Galveston County,TX,NA,72.49134948096886
77578,Brazoria County,TX,79.29577464788733,NA
77706,Jefferson County,TX,32.67605633802817,NA
78006,Kendall County,TX,NA,88.23529411764706
78023,Bexar County,TX,79.29577464788733,NA
78028,Kerr County,TX,NA,7.439446366782007
78133,Comal County,TX,NA,75.77854671280276
78209,Bexar County,TX,56.47887323943662,NA
78210,Bexar County,TX,79.01408450704224,NA
78212,Bexar County,TX,NA,74.22145328719724
78217,Bexar County,TX,62.95774647887325,NA
78240,Bexar County,TX,NA,40.13840830449827
78253,Bexar County,TX,NA,88.92733564013841
78412,Nueces County,TX,NA,93.59861591695503
78504,Hidalgo County,TX,43.098591549295776,NA
78537,Hidalgo County,TX,96.05633802816902,NA
78572,Hidalgo County,TX,NA,4.844290657439446
78624,Gillespie County,TX,NA,76.64359861591696
78628,Williamson County,TX,NA,18.166089965397923
78703,Travis County,TX,96.61971830985917,NA
78752,Travis County,TX,89.71830985915493,NA
79106,Potter County,TX,36.901408450704224,NA
79603,Taylor County,TX,NA,43.77162629757785
79705,Midland County,TX,32.11267605633803,46.19377162629758
79912,El Paso County,TX,33.098591549295776,NA
79915,El Paso County,TX,NA,14.359861591695502
84003,Utah County,UT,58.59154929577465,86.50519031141869
84043,Utah County,UT,64.50704225352113,NA
84065,Salt Lake County,UT,NA,65.22491349480968
84070,Salt Lake County,UT,NA,39.792387543252595
84088,Salt Lake County,UT,49.014084507042256,NA
84098,Summit County,UT,NA,81.14186851211073
84106,Salt Lake County,UT,NA,24.74048442906574
84109,Salt Lake County,UT,NA,66.08996539792388
84117,Salt Lake County,UT,63.521126760563384,NA
84118,Salt Lake County,UT,NA,80.27681660899654
84332,Cache County,UT,NA,97.92387543252595
05001,Windsor County,VT,95.2112676056338,NA
05446,Chittenden County,VT,41.267605633802816,NA
05478,Franklin County,VT,31.408450704225356,NA
05701,Rutland County,VT,9.71830985915493,NA
20155,Prince William County,VA,74.50704225352112,NA
22152,Fairfax County,VA,65.21126760563381,NA
22201,Arlington County,VA,NA,89.96539792387543
22202,Arlington County,VA,88.02816901408451,NA
22207,Arlington County,VA,87.04225352112675,NA
22546,Caroline County,VA,61.97183098591549,NA
22553,Spotsylvania County,VA,64.92957746478874,NA
22701,Culpeper County,VA,70,NA
22901,Albemarle County,VA,NA,8.996539792387544
22902,Charlottesville city,VA,NA,39.44636678200692
22963,Fluvanna County,VA,78.45070422535211,NA
22968,Greene County,VA,NA,81.4878892733564
22973,Greene County,VA,87.60563380281691,NA
23228,Henrico County,VA,NA,24.39446366782007
23803,Petersburg city,VA,NA,26.989619377162633
23831,Chesterfield County,VA,29.295774647887324,NA
24333,Galax city,VA,49.29577464788733,NA
24343,Carroll County,VA,NA,83.04498269896193
24523,Bedford County,VA,NA,68.68512110726644
24572,Amherst County,VA,NA,57.95847750865052
98021,Snohomish County,WA,88.73239436619718,NA
98026,Snohomish County,WA,64.08450704225352,NA
98028,King County,WA,61.267605633802816,NA
98045,King County,WA,94.08450704225352,NA
98087,Snohomish County,WA,NA,86.67820069204151
98092,King County,WA,16.338028169014084,NA
98146,King County,WA,NA,63.32179930795848
98177,King County,WA,NA,54.498269896193776
98204,Snohomish County,WA,46.19718309859155,NA
98258,Snohomish County,WA,NA,57.09342560553633
98402,Pierce County,WA,NA,94.80968858131487
98802,Douglas County,WA,26.901408450704224,NA
20002,District of Columbia,DC,7.323943661971831,NA
20020,District of Columbia,DC,30.422535211267604,NA
24901,Greenbrier County,WV,88.30985915492958,NA
25401,Berkeley County,WV,31.971830985915496,NA
25514,Wayne County,WV,NA,99.82698961937716
26062,Hancock County,WV,NA,11.072664359861593
26354,Taylor County,WV,NA,88.58131487889274
26431,Harrison County,WV,NA,76.47058823529412
26505,Monongalia County,WV,NA,16.955017301038062
26508,Monongalia County,WV,5.211267605633803,NA
26537,Preston County,WV,58.732394366197184,NA
26764,Preston County,WV,99.5774647887324,NA
53024,Ozaukee County,WI,53.66197183098591,NA
53045,Waukesha County,WI,NA,20.069204152249135
53051,Waukesha County,WI,22.112676056338028,NA
53066,Waukesha County,WI,NA,21.626297577854672
53081,Sheboygan County,WI,20.985915492957748,NA
53089,Waukesha County,WI,70.14084507042253,NA
53092,Ozaukee County,WI,NA,15.7439446366782
53120,Walworth County,WI,92.3943661971831,NA
53129,Milwaukee County,WI,62.25352112676056,NA
53140,Kenosha County,WI,NA,25.77854671280277
53149,Waukesha County,WI,NA,58.82352941176471
53150,Waukesha County,WI,36.056338028169016,47.92387543252595
53151,Waukesha County,WI,NA,15.916955017301039
53189,Waukesha County,WI,NA,38.75432525951557
53208,Milwaukee County,WI,27.042253521126757,NA
53209,Milwaukee County,WI,NA,39.10034602076124
53211,Milwaukee County,WI,NA,42.04152249134948
53218,Milwaukee County,WI,NA,37.71626297577855
53220,Milwaukee County,WI,NA,15.397923875432525
53225,Milwaukee County,WI,36.61971830985916,NA
53233,Milwaukee County,WI,97.32394366197184,NA
53511,Rock County,WI,NA,9.515570934256056
53538,Jefferson County,WI,NA,27.854671280276815
53545,Rock County,WI,NA,16.608996539792386
53558,Dane County,WI,NA,85.12110726643598
53704,Dane County,WI,15.211267605633802,70.93425605536332
53711,Dane County,WI,NA,12.975778546712801
53717,Dane County,WI,NA,50
54016,St. Croix County,WI,NA,44.636678200692046
54220,Manitowoc County,WI,NA,0.8650519031141869
54401,Marathon County,WI,29.154929577464788,NA
54601,La Crosse County,WI,0.8450704225352111,NA
54603,La Crosse County,WI,NA,14.705882352941178
54630,Trempealeau County,WI,85.07042253521126,NA
54665,Vernon County,WI,NA,54.15224913494809
54669,La Crosse County,WI,46.056338028169016,NA
54840,Burnett County,WI,80.14084507042254,NA
54880,Douglas County,WI,NA,77.16262975778547
82401,Washakie County,WY,NA,97.05882352941177
82609,Natrona County,WY,92.25352112676056,NA
