ZipCode,county,state,Adult
36744,Hale County,AL,71.51515151515152
99508,Anchorage Municipality,AK,17.575757575757574
85226,Maricopa County,AZ,53.939393939393945
85338,Maricopa County,AZ,30.303030303030305
85716,Pima County,AZ,16.969696969696972
86040,Coconino County,AZ,63.030303030303024
72901,Sebastian County,AR,52.121212121212125
90006,Los Angeles County,CA,64.84848484848484
91352,Los Angeles County,CA,24.242424242424242
91740,Los Angeles County,CA,61.212121212121204
92277,San Bernardino County,CA,67.27272727272727
92345,San Bernardino County,CA,8.484848484848486
92804,Orange County,CA,12.727272727272727
93003,Ventura County,CA,13.939393939393941
93726,Fresno County,CA,20.606060606060606
94110,San Francisco County,CA,10.303030303030303
95111,Santa Clara County,CA,33.939393939393945
95128,Santa Clara County,CA,92.72727272727272
95327,Tuolumne County,CA,83.63636363636363
95670,Sacramento County,CA,30.909090909090907
95864,Sacramento County,CA,76.36363636363637
80226,Jefferson County,CO,46.06060606060606
80305,Boulder County,CO,90.9090909090909
81632,Eagle County,CO,94.54545454545455
06460,New Haven County,CT,26.666666666666668
32177,Putnam County,FL,44.84848484848485
32455,Walton County,FL,80
33701,Pinellas County,FL,45.45454545454545
33771,Pinellas County,FL,44.24242424242424
33884,Polk County,FL,78.78787878787878
34145,Collier County,FL,90.30303030303031
34950,St. Lucie County,FL,50.90909090909091
30187,Douglas County,GA,73.33333333333333
30252,Henry County,GA,37.57575757575757
30338,DeKalb County,GA,70.3030303030303
30442,Jenkins County,GA,75.15151515151514
30467,Screven County,GA,56.36363636363636
30540,Gilmer County,GA,48.484848484848484
60185,DuPage County,IL,32.72727272727273
60433,Will County,IL,59.3939393939394
60564,Will County,IL,33.33333333333333
60644,Cook County,IL,6.666666666666667
60901,Kankakee County,IL,15.757575757575756
61244,Rock Island County,IL,64.24242424242425
61530,Woodford County,IL,87.27272727272727
62703,Sangamon County,IL,80.60606060606061
46160,Brown County,IN,92.12121212121212
50662,Fayette County,IA,82.42424242424242
52001,Dubuque County,IA,72.12121212121212
66801,Lyon County,KS,49.09090909090909
40245,Jefferson County,KY,46.666666666666664
40330,Mercer County,KY,51.515151515151516
40741,Laurel County,KY,22.424242424242426
40831,Harlan County,KY,67.87878787878789
70121,Jefferson Parish,LA,74.54545454545455
20745,Prince George's County,MD,69.6969696969697
20879,Montgomery County,MD,79.39393939393939
20895,Montgomery County,MD,84.24242424242424
01040,Hampden County,MA,0
01520,Worcester County,MA,42.42424242424242
01760,Middlesex County,MA,32.121212121212125
01960,Essex County,MA,0.6060606060606061
02050,Plymouth County,MA,50.303030303030305
02061,Plymouth County,MA,95.15151515151516
02351,Plymouth County,MA,81.21212121212122
02668,Barnstable County,MA,100
48105,Washtenaw County,MI,36.36363636363637
48134,Wayne County,MI,58.78787878787879
48188,Wayne County,MI,40.60606060606061
48214,Wayne County,MI,18.787878787878785
48602,Saginaw County,MI,1.8181818181818181
55082,Washington County,MN,29.09090909090909
55124,Dakota County,MN,34.54545454545455
55401,Hennepin County,MN,61.81818181818181
55412,Hennepin County,MN,28.484848484848484
55413,Hennepin County,MN,41.81818181818181
55420,Hennepin County,MN,66.06060606060606
55431,Hennepin County,MN,87.87878787878788
55447,Hennepin County,MN,70.9090909090909
55448,Anoka County,MN,39.39393939393939
56549,Clay County,MN,95.75757575757575
39307,Lauderdale County,MS,66.66666666666666
63146,St. Louis County,MO,75.75757575757575
63825,Stoddard County,MO,89.6969696969697
64024,Clay County,MO,18.181818181818183
64030,Jackson County,MO,47.878787878787875
59701,Silver Bow County,MT,96.96969696969697
59937,Flathead County,MT,85.45454545454545
68410,Otoe County,NE,91.51515151515152
68803,Hall County,NE,65.45454545454545
03281,Hillsborough County,NH,73.93939393939394
07106,Essex County,NJ,3.6363636363636362
07648,Bergen County,NJ,99.39393939393939
08046,Burlington County,NJ,5.454545454545454
08807,Somerset County,NJ,98.18181818181819
88001,Doa Ana County,NM,56.96969696969697
10459,Bronx County,NY,23.636363636363637
11226,Kings County,NY,2.4242424242424243
11769,Suffolk County,NY,96.36363636363636
11776,Suffolk County,NY,55.15151515151515
12414,Greene County,NY,49.696969696969695
13164,Onondaga County,NY,98.7878787878788
13219,Onondaga County,NY,93.33333333333333
14623,Monroe County,NY,16.363636363636363
14886,Tompkins County,NY,60
27105,Forsyth County,NC,1.2121212121212122
27106,Forsyth County,NC,10.909090909090908
27536,Vance County,NC,25.454545454545453
27605,Wake County,NC,97.57575757575758
27704,Durham County,NC,9.696969696969697
27705,Durham County,NC,21.21212121212121
27804,Nash County,NC,29.6969696969697
28215,Mecklenburg County,NC,13.333333333333334
28358,Robeson County,NC,14.545454545454545
28677,Iredell County,NC,62.42424242424243
43609,Lucas County,OH,4.242424242424243
44055,Lorain County,OH,7.2727272727272725
44130,Cuyahoga County,OH,3.0303030303030303
73036,Canadian County,OK,38.18181818181819
73114,Oklahoma County,OK,53.333333333333336
73401,Carter County,OK,11.515151515151516
97402,Lane County,OR,19.393939393939394
97502,Jackson County,OR,36.96969696969697
15136,Allegheny County,PA,27.27272727272727
16101,Lawrence County,PA,4.848484848484849
18018,Lehigh County,PA,23.03030303030303
18080,Lehigh County,PA,43.63636363636363
18603,Columbia County,PA,12.121212121212121
19136,Philadelphia County,PA,9.090909090909092
29223,Richland County,SC,55.757575757575765
29847,Edgefield County,SC,83.03030303030303
37076,Davidson County,TN,31.515151515151512
37091,Marshall County,TN,35.75757575757576
37110,Warren County,TN,15.151515151515152
37128,Rutherford County,TN,58.18181818181818
37363,Hamilton County,TN,38.78787878787879
37919,Knox County,TN,52.72727272727272
38108,Shelby County,TN,89.0909090909091
38382,Gibson County,TN,86.66666666666667
75051,Dallas County,TX,41.21212121212121
75228,Dallas County,TX,76.96969696969697
75551,Cass County,TX,77.57575757575758
75633,Panola County,TX,72.72727272727273
76109,Tarrant County,TX,78.18181818181819
76137,Tarrant County,TX,20
76504,Bell County,TX,7.878787878787878
77004,Harris County,TX,24.848484848484848
77047,Harris County,TX,54.54545454545454
77437,Wharton County,TX,60.60606060606061
77469,Fort Bend County,TX,26.060606060606062
77523,Chambers County,TX,84.84848484848484
77575,Liberty County,TX,63.63636363636363
78634,Williamson County,TX,57.57575757575758
79415,Lubbock County,TX,81.81818181818183
22911,Albemarle County,VA,69.0909090909091
23452,Virginia Beach city,VA,21.818181818181817
24202,Washington County,VA,88.48484848484848
98112,King County,WA,93.93939393939394
98292,Snohomish County,WA,86.06060606060606
98837,Grant County,WA,27.878787878787882
99336,Benton County,WA,68.48484848484848
99354,Benton County,WA,40
25404,Berkeley County,WV,35.15151515151515
26301,Harrison County,WV,6.0606060606060606
53115,Walworth County,WI,47.27272727272727
53212,Milwaukee County,WI,43.03030303030303
