ZipCode,county,state,Retirement,Geriatric
35016,Marshall County,AL,44.31818181818182,NA
35243,Jefferson County,AL,NA,62.67942583732058
35810,Madison County,AL,NA,75.11961722488039
35976,Marshall County,AL,38.63636363636363,NA
99611,Kenai Peninsula Borough,AK,53.78787878787878,NA
85009,Maricopa County,AZ,26.89393939393939,NA
85050,Maricopa County,AZ,NA,68.89952153110048
85395,Maricopa County,AZ,NA,70.33492822966507
85621,Santa Cruz County,AZ,NA,73.20574162679426
85634,Pima County,AZ,30.303030303030305,NA
85730,Pima County,AZ,27.65151515151515,NA
85741,Pima County,AZ,NA,66.98564593301435
85756,Pima County,AZ,67.04545454545455,NA
85941,Apache County,AZ,96.96969696969697,NA
72103,Saline County,AR,90.15151515151516,NA
72204,Pulaski County,AR,NA,49.282296650717704
72206,Pulaski County,AR,NA,55.50239234449761
90706,Los Angeles County,CA,40.909090909090914,NA
90744,Los Angeles County,CA,62.878787878787875,NA
90806,Los Angeles County,CA,NA,81.81818181818183
91106,Los Angeles County,CA,83.71212121212122,NA
91362,Ventura County,CA,46.21212121212121,NA
91601,Los Angeles County,CA,NA,73.68421052631578
91754,Los Angeles County,CA,63.25757575757576,NA
91911,San Diego County,CA,NA,9.569377990430622
91942,San Diego County,CA,47.72727272727273,NA
92057,San Diego County,CA,NA,41.62679425837321
92084,San Diego County,CA,NA,75.5980861244019
92264,Riverside County,CA,15.151515151515152,NA
92336,San Bernardino County,CA,18.560606060606062,NA
92337,San Bernardino County,CA,NA,88.51674641148325
92345,San Bernardino County,CA,17.424242424242426,NA
92405,San Bernardino County,CA,79.54545454545455,NA
92585,Riverside County,CA,86.74242424242425,NA
92604,Orange County,CA,95.83333333333334,NA
92612,Orange County,CA,NA,90.43062200956938
92620,Orange County,CA,100,NA
92649,Orange County,CA,NA,38.75598086124402
92679,Orange County,CA,87.87878787878788,NA
92801,Orange County,CA,35.984848484848484,NA
92866,Orange County,CA,95.45454545454545,NA
92886,Orange County,CA,57.1969696969697,28.708133971291865
93111,Santa Barbara County,CA,NA,86.60287081339713
93245,Kings County,CA,73.48484848484848,NA
94010,San Mateo County,CA,NA,10.526315789473683
94070,San Mateo County,CA,NA,61.24401913875598
94102,San Francisco County,CA,37.878787878787875,NA
94114,San Francisco County,CA,NA,57.41626794258373
94116,San Francisco County,CA,40.53030303030303,NA
94121,San Francisco County,CA,44.696969696969695,NA
94303,San Mateo County,CA,67.8030303030303,NA
94506,Contra Costa County,CA,76.89393939393939,NA
94521,Contra Costa County,CA,75.37878787878788,NA
94530,Contra Costa County,CA,94.31818181818183,NA
94555,Alameda County,CA,90.9090909090909,NA
94589,Solano County,CA,NA,50.717703349282296
94611,Alameda County,CA,NA,35.406698564593306
94709,Alameda County,CA,NA,89.47368421052632
95135,Santa Clara County,CA,NA,79.90430622009569
95519,Humboldt County,CA,91.28787878787878,NA
95608,Sacramento County,CA,NA,42.10526315789473
95670,Sacramento County,CA,NA,31.100478468899524
95949,Nevada County,CA,56.060606060606055,NA
80111,Arapahoe County,CO,NA,72.72727272727273
80129,Douglas County,CO,87.12121212121212,NA
80206,Denver County,CO,89.01515151515152,NA
81003,Pueblo County,CO,82.95454545454545,NA
81506,Mesa County,CO,NA,85.64593301435407
06109,Hartford County,CT,84.0909090909091,NA
06513,New Haven County,CT,12.878787878787879,NA
06610,Fairfield County,CT,NA,60.28708133971292
32082,St. Johns County,FL,32.57575757575758,NA
32159,Lake County,FL,NA,34.92822966507177
32256,Duval County,FL,NA,34.44976076555024
32536,Okaloosa County,FL,25.757575757575758,NA
32607,Alachua County,FL,50.378787878787875,NA
32641,Alachua County,FL,61.74242424242424,NA
32724,Volusia County,FL,23.863636363636363,NA
32765,Seminole County,FL,46.590909090909086,NA
32771,Seminole County,FL,73.10606060606061,NA
32807,Orange County,FL,65.15151515151516,NA
32811,Orange County,FL,NA,59.33014354066985
32953,Brevard County,FL,NA,18.181818181818183
33027,Broward County,FL,43.93939393939394,6.220095693779904
33029,Broward County,FL,NA,56.45933014354066
33042,Monroe County,FL,NA,95.21531100478468
33126,Miami-Dade County,FL,NA,23.444976076555022
33133,Miami-Dade County,FL,45.07575757575758,NA
33134,Miami-Dade County,FL,57.95454545454546,NA
33135,Miami-Dade County,FL,NA,27.751196172248804
33147,Miami-Dade County,FL,85.22727272727273,NA
33149,Miami-Dade County,FL,NA,69.85645933014354
33160,Miami-Dade County,FL,39.39393939393939,NA
33161,Miami-Dade County,FL,NA,44.01913875598086
33162,Miami-Dade County,FL,NA,53.588516746411486
33167,Miami-Dade County,FL,NA,94.25837320574163
33170,Miami-Dade County,FL,NA,99.04306220095694
33189,Miami-Dade County,FL,84.46969696969697,NA
33193,Miami-Dade County,FL,NA,80.38277511961722
33321,Broward County,FL,NA,4.784688995215311
33455,Martin County,FL,NA,13.397129186602871
33463,Palm Beach County,FL,41.66666666666667,NA
33594,Hillsborough County,FL,57.57575757575758,NA
33647,Hillsborough County,FL,NA,44.97607655502392
33760,Pinellas County,FL,77.27272727272727,NA
33981,Charlotte County,FL,73.86363636363636,NA
34222,Manatee County,FL,77.65151515151516,NA
34446,Citrus County,FL,NA,39.23444976076555
34677,Pinellas County,FL,NA,83.73205741626795
34688,Pinellas County,FL,88.63636363636364,NA
34731,Lake County,FL,NA,87.08133971291866
34747,Osceola County,FL,62.5,NA
34787,Orange County,FL,NA,24.880382775119617
30032,DeKalb County,GA,NA,76.55502392344498
30033,DeKalb County,GA,75.75757575757575,NA
30228,Henry County,GA,65.53030303030303,NA
30263,Coweta County,GA,NA,33.014354066985646
30315,Fulton County,GA,25.37878787878788,NA
30401,Emanuel County,GA,68.56060606060606,NA
30680,Barrow County,GA,23.106060606060606,NA
30813,Columbia County,GA,NA,65.07177033492823
96701,Honolulu County,HI,18.939393939393938,NA
96732,Maui County,HI,NA,76.07655502392345
96749,Hawaii County,HI,92.42424242424242,NA
96797,Honolulu County,HI,NA,51.196172248803826
96821,Honolulu County,HI,91.66666666666666,NA
60056,Cook County,IL,NA,7.655502392344498
60083,Lake County,IL,NA,89.95215311004785
60104,Cook County,IL,NA,98.08612440191388
60110,Kane County,IL,87.87878787878788,NA
60153,Cook County,IL,24.62121212121212,NA
60201,Cook County,IL,61.74242424242424,NA
60449,Will County,IL,94.6969696969697,NA
60451,Will County,IL,17.803030303030305,NA
60452,Cook County,IL,76.51515151515152,NA
60563,DuPage County,IL,74.62121212121212,NA
60613,Cook County,IL,36.74242424242424,NA
60619,Cook County,IL,NA,0.9569377990430622
60620,Cook County,IL,4.545454545454546,NA
60621,Cook County,IL,70.45454545454545,NA
60623,Cook County,IL,48.86363636363637,NA
60624,Cook County,IL,27.27272727272727,NA
61021,Lee County,IL,9.848484848484848,NA
61108,Winnebago County,IL,24.242424242424242,NA
61114,Winnebago County,IL,71.96969696969697,NA
61801,Champaign County,IL,NA,54.066985645933016
61832,Vermilion County,IL,13.636363636363635,NA
61938,Coles County,IL,NA,35.406698564593306
62002,Madison County,IL,21.21212121212121,NA
62234,Madison County,IL,50,NA
46217,Marion County,IN,69.31818181818183,NA
46227,Marion County,IN,58.333333333333336,NA
46254,Marion County,IN,29.924242424242426,NA
46303,Lake County,IN,45.83333333333333,NA
46307,Lake County,IN,NA,22.00956937799043
46385,Porter County,IN,4.166666666666666,NA
46807,Allen County,IN,87.12121212121212,NA
50315,Polk County,IA,NA,50.23923444976076
51503,Pottawattamie County,IA,5.681818181818182,NA
52601,Des Moines County,IA,NA,53.110047846889955
40361,Bourbon County,KY,NA,64.5933014354067
70119,Orleans Parish,LA,10.606060606060606,NA
70127,Orleans Parish,LA,31.439393939393938,NA
70128,Orleans Parish,LA,33.33333333333333,NA
70131,Orleans Parish,LA,96.21212121212122,NA
70807,East Baton Rouge Parish,LA,68.18181818181817,NA
71457,Natchitoches Parish,LA,64.39393939393939,NA
04742,Aroostook County,ME,NA,63.63636363636363
04976,Somerset County,ME,NA,19.617224880382775
20783,Prince George's County,MD,95.07575757575758,NA
20906,Montgomery County,MD,NA,12.918660287081341
21074,Carroll County,MD,89.77272727272727,NA
21208,Baltimore County,MD,71.5909090909091,NA
21213,Baltimore city,MD,53.40909090909091,NA
21218,Baltimore city,MD,15.909090909090908,5.741626794258373
21221,Baltimore County,MD,NA,32.057416267942585
21224,Baltimore city,MD,38.63636363636363,NA
21229,Baltimore city,MD,NA,23.923444976076556
21403,Anne Arundel County,MD,NA,65.55023923444976
01603,Worcester County,MA,3.787878787878788,NA
01604,Worcester County,MA,NA,45.45454545454545
01605,Worcester County,MA,10.984848484848484,NA
01824,Middlesex County,MA,NA,8.61244019138756
01830,Essex County,MA,NA,39.71291866028708
01852,Middlesex County,MA,3.0303030303030303,NA
02026,Norfolk County,MA,NA,15.311004784688995
02118,Suffolk County,MA,9.090909090909092,NA
02121,Suffolk County,MA,0.7575757575757576,5.263157894736842
02124,Suffolk County,MA,NA,0.4784688995215311
02129,Suffolk County,MA,28.030303030303028,NA
02135,Suffolk County,MA,13.257575757575758,NA
02143,Middlesex County,MA,14.393939393939394,NA
02148,Middlesex County,MA,NA,44.49760765550239
02149,Middlesex County,MA,1.893939393939394,20.095693779904305
02150,Suffolk County,MA,NA,4.30622009569378
02155,Middlesex County,MA,35.60606060606061,NA
02169,Norfolk County,MA,8.712121212121213,NA
02170,Norfolk County,MA,NA,78.4688995215311
02186,Norfolk County,MA,79.16666666666666,NA
02368,Norfolk County,MA,6.8181818181818175,84.21052631578947
02451,Middlesex County,MA,58.333333333333336,NA
02453,Middlesex County,MA,17.045454545454543,NA
02476,Middlesex County,MA,NA,48.803827751196174
02494,Norfolk County,MA,NA,77.51196172248804
48036,Macomb County,MI,28.78787878787879,NA
48076,Oakland County,MI,NA,100
48105,Washtenaw County,MI,54.54545454545454,NA
48117,Monroe County,MI,70.07575757575758,NA
48125,Wayne County,MI,NA,88.99521531100478
48180,Wayne County,MI,3.4090909090909087,NA
48187,Wayne County,MI,60.22727272727273,NA
48188,Wayne County,MI,NA,40.66985645933015
48197,Washtenaw County,MI,56.81818181818182,NA
48219,Wayne County,MI,NA,15.789473684210526
48221,Wayne County,MI,NA,2.8708133971291865
48236,Wayne County,MI,52.27272727272727,NA
48239,Wayne County,MI,82.57575757575758,NA
48356,Oakland County,MI,84.84848484848484,NA
48381,Oakland County,MI,59.09090909090909,NA
48625,Clare County,MI,NA,51.674641148325364
48823,Ingham County,MI,28.40909090909091,NA
55118,Dakota County,MN,NA,25.837320574162682
55421,Anoka County,MN,78.78787878787878,NA
55426,Hennepin County,MN,NA,43.54066985645933
55432,Anoka County,MN,NA,92.82296650717703
55720,Carlton County,MN,47.34848484848485,45.933014354066984
55804,St. Louis County,MN,39.77272727272727,NA
55902,Olmsted County,MN,NA,67.46411483253588
56007,Freeborn County,MN,NA,1.4354066985645932
56031,Martin County,MN,NA,12.440191387559809
39073,Rankin County,MS,63.63636363636363,NA
63116,St. Louis city,MO,NA,81.3397129186603
64110,Jackson County,MO,42.42424242424242,NA
65203,Boone County,MO,14.772727272727273,NA
65301,Pettis County,MO,12.121212121212121,NA
68136,Sarpy County,NE,NA,98.56459330143541
89147,Clark County,NV,55.68181818181818,NA
89509,Washoe County,NV,48.10606060606061,NA
03431,Cheshire County,NH,NA,7.177033492822966
03766,Grafton County,NH,NA,96.17224880382776
07063,Union County,NJ,NA,91.38755980861244
07470,Passaic County,NJ,NA,6.698564593301436
87123,Bernalillo County,NM,NA,17.22488038277512
88011,Doa Ana County,NM,49.24242424242424,NA
10003,New York County,NY,NA,21.5311004784689
10012,New York County,NY,NA,93.77990430622009
10025,New York County,NY,NA,2.3923444976076556
10027,New York County,NY,16.28787878787879,NA
10033,New York County,NY,NA,16.267942583732058
10303,Richmond County,NY,78.4090909090909,NA
10308,Richmond County,NY,59.84848484848485,NA
10452,Bronx County,NY,1.5151515151515151,11.961722488038278
10453,Bronx County,NY,11.742424242424242,NA
10454,Bronx County,NY,7.575757575757576,NA
10456,Bronx County,NY,0,22.48803827751196
10457,Bronx County,NY,NA,10.526315789473683
10467,Bronx County,NY,1.1363636363636365,NA
10469,Bronx County,NY,37.121212121212125,NA
10579,Putnam County,NY,NA,79.42583732057416
10601,Westchester County,NY,97.34848484848484,NA
10704,Westchester County,NY,96.5909090909091,52.63157894736842
10990,Orange County,NY,43.18181818181818,NA
11102,Queens County,NY,53.03030303030303,94.73684210526315
11203,Kings County,NY,NA,9.090909090909092
11204,Kings County,NY,34.090909090909086,NA
11206,Kings County,NY,NA,69.377990430622
11209,Kings County,NY,20.833333333333336,NA
11210,Kings County,NY,22.348484848484848,NA
11211,Kings County,NY,75,NA
11213,Kings County,NY,NA,67.94258373205741
11225,Kings County,NY,NA,87.5598086124402
11226,Kings County,NY,NA,11.483253588516746
11229,Kings County,NY,NA,24.401913875598087
11234,Kings County,NY,NA,17.703349282296653
11237,Kings County,NY,54.166666666666664,NA
11364,Queens County,NY,74.24242424242425,NA
11368,Queens County,NY,NA,71.29186602870813
11379,Queens County,NY,86.36363636363636,NA
11412,Queens County,NY,NA,92.34449760765551
11419,Queens County,NY,81.81818181818183,NA
11575,Nassau County,NY,89.39393939393939,NA
11704,Suffolk County,NY,55.3030303030303,NA
11758,Nassau County,NY,NA,82.29665071770334
11788,Suffolk County,NY,NA,88.03827751196172
12019,Saratoga County,NY,64.01515151515152,NA
12020,Saratoga County,NY,26.136363636363637,NA
13492,Oneida County,NY,54.92424242424242,NA
14001,Erie County,NY,83.33333333333334,NA
14120,Niagara County,NY,NA,26.794258373205743
14206,Erie County,NY,26.515151515151516,NA
14559,Monroe County,NY,NA,33.49282296650718
14580,Monroe County,NY,0.3787878787878788,NA
14609,Monroe County,NY,2.272727272727273,NA
14610,Monroe County,NY,NA,35.406698564593306
14622,Monroe County,NY,20.454545454545457,NA
27127,Forsyth County,NC,5.303030303030303,NA
27215,Alamance County,NC,6.4393939393939394,NA
27260,Guilford County,NC,NA,63.1578947368421
27312,Chatham County,NC,NA,16.74641148325359
27410,Guilford County,NC,NA,38.27751196172249
27577,Johnston County,NC,32.95454545454545,NA
27804,Nash County,NC,NA,74.16267942583733
27882,Nash County,NC,85.98484848484848,NA
28144,Rowan County,NC,NA,55.980861244019145
28166,Iredell County,NC,92.8030303030303,NA
28216,Mecklenburg County,NC,NA,66.02870813397129
28697,Wilkes County,NC,NA,85.16746411483254
43205,Franklin County,OH,61.36363636363637,NA
43214,Franklin County,OH,78.03030303030303,NA
43223,Franklin County,OH,25,NA
43560,Lucas County,OH,NA,27.27272727272727
44050,Lorain County,OH,81.06060606060606,NA
44105,Cuyahoga County,OH,NA,49.760765550239235
44108,Cuyahoga County,OH,7.196969696969697,NA
44111,Cuyahoga County,OH,NA,14.354066985645932
44114,Cuyahoga County,OH,NA,95.69377990430623
44118,Cuyahoga County,OH,NA,31.57894736842105
44130,Cuyahoga County,OH,NA,8.133971291866029
44132,Cuyahoga County,OH,NA,46.411483253588514
44136,Cuyahoga County,OH,11.363636363636363,NA
44141,Cuyahoga County,OH,NA,43.0622009569378
44224,Summit County,OH,NA,66.50717703349282
44240,Portage County,OH,NA,59.80861244019139
44281,Medina County,OH,51.515151515151516,NA
44306,Summit County,OH,72.34848484848484,NA
44839,Erie County,OH,NA,33.97129186602871
45224,Hamilton County,OH,NA,52.15311004784689
45231,Hamilton County,OH,19.696969696969695,NA
45426,Montgomery County,OH,NA,57.89473684210527
45431,Montgomery County,OH,NA,42.58373205741627
45780,Athens County,OH,98.10606060606061,NA
73064,Canadian County,OK,48.484848484848484,NA
73401,Carter County,OK,14.015151515151514,NA
74136,Tulsa County,OK,49.621212121212125,NA
74820,Pontotoc County,OK,6.0606060606060606,NA
97006,Washington County,OR,32.196969696969695,NA
97060,Multnomah County,OR,NA,74.64114832535886
97124,Washington County,OR,22.727272727272727,NA
97201,Multnomah County,OR,97.72727272727273,NA
97210,Multnomah County,OR,NA,97.60765550239235
97221,Multnomah County,OR,85.60606060606061,NA
97225,Washington County,OR,NA,56.9377990430622
97741,Jefferson County,OR,NA,91.86602870813397
15210,Allegheny County,PA,NA,55.02392344497608
15213,Allegheny County,PA,NA,40.19138755980861
15219,Allegheny County,PA,NA,47.84688995215311
15801,Clearfield County,PA,9.469696969696969,NA
16001,Butler County,PA,NA,3.827751196172249
16057,Butler County,PA,NA,70.81339712918661
16652,Huntingdon County,PA,20.075757575757574,NA
17003,Lebanon County,PA,NA,83.25358851674642
17033,Dauphin County,PA,NA,26.31578947368421
17036,Dauphin County,PA,NA,29.665071770334926
17042,Lebanon County,PA,31.818181818181817,NA
17870,Snyder County,PA,30.303030303030305,NA
17921,Schuylkill County,PA,NA,99.52153110047847
18051,Lehigh County,PA,99.24242424242425,NA
19027,Montgomery County,PA,37.5,NA
19064,Delaware County,PA,NA,47.368421052631575
19083,Delaware County,PA,16.666666666666664,NA
19103,Philadelphia County,PA,NA,29.1866028708134
19121,Philadelphia County,PA,23.484848484848484,NA
19138,Philadelphia County,PA,NA,78.94736842105263
19140,Philadelphia County,PA,12.5,NA
19143,Philadelphia County,PA,NA,10.047846889952153
19151,Philadelphia County,PA,18.939393939393938,86.1244019138756
19312,Chester County,PA,52.65151515151515,NA
19403,Montgomery County,PA,7.954545454545454,NA
19422,Montgomery County,PA,40.15151515151515,NA
19609,Berks County,PA,92.04545454545455,NA
29061,Richland County,SC,NA,93.30143540669856
29223,Richland County,SC,NA,14.832535885167463
29349,Spartanburg County,SC,NA,27.751196172248804
29403,Charleston County,SC,NA,96.65071770334929
29928,Beaufort County,SC,66.66666666666666,NA
57105,Minnehaha County,SD,15.530303030303031,NA
37013,Davidson County,TN,18.181818181818183,NA
37027,Williamson County,TN,NA,20.574162679425836
37042,Montgomery County,TN,42.803030303030305,NA
37075,Sumner County,TN,35.22727272727273,NA
37083,Macon County,TN,NA,97.1291866028708
37087,Wilson County,TN,NA,32.535885167464116
37129,Rutherford County,TN,31.060606060606062,NA
37209,Davidson County,TN,NA,64.11483253588517
37343,Hamilton County,TN,NA,77.03349282296651
37415,Hamilton County,TN,60.984848484848484,NA
37777,Blount County,TN,59.46969696969697,NA
37934,Knox County,TN,46.96969696969697,NA
38320,Benton County,TN,NA,90.9090909090909
38363,Decatur County,TN,NA,84.688995215311
38401,Maury County,TN,10.227272727272728,NA
38583,White County,TN,29.545454545454547,NA
75024,Collin County,TX,93.18181818181817,NA
75042,Dallas County,TX,67.42424242424242,NA
75094,Collin County,TX,80.3030303030303,NA
75146,Dallas County,TX,65.9090909090909,NA
75149,Dallas County,TX,NA,48.32535885167464
75215,Dallas County,TX,NA,60.76555023923444
75216,Dallas County,TX,43.56060606060606,41.14832535885167
75223,Dallas County,TX,80.3030303030303,NA
75224,Dallas County,TX,NA,54.54545454545454
75241,Dallas County,TX,36.36363636363637,NA
75707,Smith County,TX,NA,37.79904306220095
75964,Nacogdoches County,TX,76.13636363636364,NA
76028,Johnson County,TX,NA,13.875598086124402
76111,Tarrant County,TX,NA,77.99043062200957
76119,Tarrant County,TX,41.28787878787879,NA
77033,Harris County,TX,NA,46.411483253588514
77051,Harris County,TX,60.60606060606061,NA
77429,Harris County,TX,NA,25.358851674641148
77514,Chambers County,TX,90.53030303030303,NA
77521,Harris County,TX,69.6969696969697,NA
77550,Galveston County,TX,NA,36.84210526315789
77807,Brazos County,TX,71.21212121212122,NA
77836,Burleson County,TX,81.43939393939394,NA
78382,Aransas County,TX,NA,80.86124401913875
78516,Hidalgo County,TX,82.1969696969697,NA
78734,Travis County,TX,70.83333333333334,NA
79407,Lubbock County,TX,NA,61.72248803827751
79556,Nolan County,TX,NA,58.3732057416268
79924,El Paso County,TX,29.166666666666668,NA
84041,Davis County,UT,64.77272727272727,NA
84121,Salt Lake County,UT,NA,21.052631578947366
05401,Chittenden County,VT,79.92424242424242,NA
22039,Fairfax County,VA,93.56060606060606,NA
22911,Albemarle County,VA,66.28787878787878,NA
23061,Gloucester County,VA,NA,58.85167464114832
23093,Louisa County,VA,NA,62.20095693779905
23139,Powhatan County,VA,51.89393939393939,NA
23430,Isle of Wight County,VA,33.71212121212121,NA
23451,Virginia Beach city,VA,NA,3.349282296650718
23455,Virginia Beach city,VA,NA,1.9138755980861244
24502,Lynchburg city,VA,50.75757575757576,NA
98040,King County,WA,98.86363636363636,NA
98092,King County,WA,NA,37.32057416267943
98102,King County,WA,68.93939393939394,NA
98338,Pierce County,WA,NA,71.77033492822966
98365,Jefferson County,WA,99.62121212121212,NA
98382,Clallam County,WA,21.59090909090909,NA
98926,Kittitas County,WA,72.72727272727273,NA
20009,District of Columbia,DC,51.13636363636363,NA
20016,District of Columbia,DC,NA,68.42105263157895
20020,District of Columbia,DC,8.333333333333332,NA
26416,Barbour County,WV,NA,82.77511961722487
26505,Monongalia County,WV,NA,19.138755980861244
26508,Monongalia County,WV,NA,18.660287081339714
26726,Mineral County,WV,42.04545454545455,NA
53045,Waukesha County,WI,NA,22.966507177033492
53095,Washington County,WI,NA,30.14354066985646
53142,Kenosha County,WI,21.96969696969697,72.24880382775119
53215,Milwaukee County,WI,4.924242424242424,NA
53224,Milwaukee County,WI,56.439393939393945,NA
53511,Rock County,WI,NA,0
53548,Rock County,WI,NA,30.62200956937799
53589,Dane County,WI,38.25757575757576,NA
53590,Dane County,WI,45.45454545454545,NA
54313,Brown County,WI,34.84848484848485,NA
54601,La Crosse County,WI,2.6515151515151514,NA
54667,Vernon County,WI,98.48484848484848,NA
54956,Winnebago County,WI,34.46969696969697,NA
82604,Natrona County,WY,93.93939393939394,NA
