ZipCode,county,state,Adult,Retirement,Geriatric
35007,Shelby County,AL,51.5,NA,NA
35044,Talladega County,AL,86,NA,NA
35217,Jefferson County,AL,NA,49.76525821596244,NA
35546,Fayette County,AL,NA,NA,98.59550561797754
35555,Fayette County,AL,NA,NA,49.43820224719101
36271,Calhoun County,AL,NA,NA,93.53932584269663
36345,Henry County,AL,94.5,NA,NA
36360,Dale County,AL,NA,35.68075117370892,NA
36605,Mobile County,AL,38.5,NA,NA
36608,Mobile County,AL,43.5,NA,NA
85120,Pinal County,AZ,NA,NA,29.775280898876407
85123,Pinal County,AZ,72,NA,NA
85367,Yuma County,AZ,NA,NA,11.797752808988763
85375,Maricopa County,AZ,NA,NA,1.1235955056179776
85641,Pima County,AZ,59.5,NA,NA
85706,Pima County,AZ,NA,NA,42.69662921348314
85746,Pima County,AZ,NA,NA,44.9438202247191
85929,Navajo County,AZ,82,NA,NA
86004,Coconino County,AZ,NA,13.615023474178404,NA
86005,Coconino County,AZ,51,NA,NA
86336,Yavapai County,AZ,NA,NA,70.2247191011236
71665,Cleveland County,AR,NA,91.07981220657277,NA
71667,Lincoln County,AR,NA,87.32394366197182,NA
72088,Van Buren County,AR,NA,NA,74.43820224719101
72113,Pulaski County,AR,NA,46.009389671361504,NA
72206,Pulaski County,AR,NA,30.046948356807512,NA
72401,Craighead County,AR,NA,NA,17.134831460674157
72650,Searcy County,AR,98,NA,NA
72653,Baxter County,AR,NA,NA,11.235955056179774
72715,Benton County,AR,NA,NA,55.89887640449438
90011,Los Angeles County,CA,NA,77.46478873239437,NA
90022,Los Angeles County,CA,NA,NA,23.595505617977526
90031,Los Angeles County,CA,70,NA,NA
90041,Los Angeles County,CA,NA,NA,61.79775280898876
90063,Los Angeles County,CA,NA,NA,54.7752808988764
90069,Los Angeles County,CA,55.50000000000001,NA,NA
90280,Los Angeles County,CA,NA,NA,39.325842696629216
90602,Los Angeles County,CA,NA,NA,63.20224719101124
90603,Los Angeles County,CA,NA,NA,43.53932584269663
90744,Los Angeles County,CA,NA,NA,67.13483146067416
90803,Los Angeles County,CA,NA,47.88732394366197,NA
90813,Los Angeles County,CA,33,NA,NA
91042,Los Angeles County,CA,NA,NA,79.21348314606742
91367,Los Angeles County,CA,NA,NA,19.382022471910112
91406,Los Angeles County,CA,NA,NA,53.65168539325843
91748,Los Angeles County,CA,69.5,NA,NA
91763,San Bernardino County,CA,NA,72.30046948356808,NA
91765,Los Angeles County,CA,NA,54.929577464788736,NA
91775,Los Angeles County,CA,NA,NA,76.12359550561798
91791,Los Angeles County,CA,95.5,NA,NA
92020,San Diego County,CA,NA,8.450704225352112,NA
92078,San Diego County,CA,NA,NA,25
92240,Riverside County,CA,20.5,NA,NA
92264,Riverside County,CA,NA,NA,16.853932584269664
92374,San Bernardino County,CA,NA,63.38028169014085,NA
92399,San Bernardino County,CA,NA,NA,28.08988764044944
92411,San Bernardino County,CA,NA,38.497652582159624,NA
92501,Riverside County,CA,NA,NA,85.39325842696628
92504,Riverside County,CA,41,NA,NA
92508,Riverside County,CA,NA,NA,86.23595505617978
92612,Orange County,CA,NA,NA,82.86516853932584
92651,Orange County,CA,NA,NA,30.89887640449438
92683,Orange County,CA,15.5,NA,NA
92708,Orange County,CA,NA,NA,22.752808988764045
92840,Orange County,CA,NA,NA,23.314606741573034
93003,Ventura County,CA,13,NA,15.44943820224719
93274,Tulare County,CA,5,NA,NA
93291,Tulare County,CA,NA,35.2112676056338,NA
93306,Kern County,CA,NA,NA,38.48314606741573
93307,Kern County,CA,42.5,NA,NA
93619,Fresno County,CA,40.5,NA,NA
93702,Fresno County,CA,NA,NA,79.21348314606742
93728,Fresno County,CA,NA,81.2206572769953,NA
94062,San Mateo County,CA,NA,51.173708920187785,NA
94110,San Francisco County,CA,10.5,NA,NA
94301,Santa Clara County,CA,NA,85.91549295774648,NA
94533,Solano County,CA,NA,NA,13.48314606741573
94544,Alameda County,CA,NA,NA,21.34831460674157
94579,Alameda County,CA,NA,75.11737089201877,NA
94618,Alameda County,CA,83,NA,NA
94708,Alameda County,CA,NA,84.50704225352112,NA
95012,Monterey County,CA,82.5,NA,NA
95020,Santa Clara County,CA,NA,NA,48.31460674157304
95110,Santa Clara County,CA,NA,NA,96.62921348314607
95111,Santa Clara County,CA,NA,NA,37.359550561797754
95135,Santa Clara County,CA,NA,NA,50
95356,Stanislaus County,CA,NA,NA,58.14606741573034
95370,Tuolumne County,CA,NA,NA,7.303370786516854
95401,Sonoma County,CA,91.5,NA,NA
95425,Sonoma County,CA,94,NA,NA
95482,Mendocino County,CA,NA,NA,33.98876404494382
95492,Sonoma County,CA,NA,NA,42.97752808988764
95630,Sacramento County,CA,NA,NA,78.37078651685393
95648,Placer County,CA,NA,NA,9.831460674157304
95693,Sacramento County,CA,99.5,NA,NA
95819,Sacramento County,CA,97,NA,NA
95826,Sacramento County,CA,53.5,NA,NA
95843,Sacramento County,CA,NA,64.31924882629107,NA
95945,Nevada County,CA,58.5,NA,NA
95949,Nevada County,CA,NA,51.64319248826291,NA
95969,Butte County,CA,31.5,NA,NA
80020,Broomfield County,CO,NA,NA,34.55056179775281
80112,Arapahoe County,CO,53,NA,NA
80128,Jefferson County,CO,NA,NA,73.87640449438202
80233,Adams County,CO,NA,52.58215962441315,NA
80249,Denver County,CO,35.5,NA,NA
80421,Park County,CO,NA,NA,100
80504,Boulder County,CO,NA,25.821596244131456,NA
80517,Larimer County,CO,NA,NA,32.86516853932584
80602,Adams County,CO,NA,56.33802816901409,NA
80906,El Paso County,CO,61.5,NA,NA
81147,Archuleta County,CO,NA,NA,67.41573033707866
81301,La Plata County,CO,56.00000000000001,NA,NA
81501,Mesa County,CO,44,NA,NA
81526,Mesa County,CO,NA,NA,96.06741573033707
06029,Tolland County,CT,59,NA,NA
06042,Hartford County,CT,NA,43.1924882629108,NA
06095,Hartford County,CT,39,NA,NA
06415,New London County,CT,54.50000000000001,NA,NA
06716,New Haven County,CT,65.5,NA,NA
06801,Fairfield County,CT,NA,55.86854460093896,NA
06831,Fairfield County,CT,NA,66.66666666666666,65.1685393258427
19711,New Castle County,DE,64,NA,NA
19934,Kent County,DE,NA,NA,60.95505617977528
32060,Suwannee County,FL,52.5,NA,NA
32084,St. Johns County,FL,NA,NA,32.30337078651686
32095,St. Johns County,FL,89,NA,NA
32117,Volusia County,FL,34,NA,NA
32127,Volusia County,FL,NA,NA,28.370786516853936
32134,Marion County,FL,89.5,NA,NA
32136,Flagler County,FL,93,NA,NA
32159,Lake County,FL,NA,NA,6.179775280898876
32205,Duval County,FL,26.5,NA,NA
32206,Duval County,FL,54,23.474178403755868,NA
32207,Duval County,FL,NA,11.737089201877934,NA
32246,Duval County,FL,NA,NA,45.78651685393258
32277,Duval County,FL,NA,NA,64.32584269662921
32433,Walton County,FL,NA,38.028169014084504,NA
32462,Washington County,FL,NA,NA,95.50561797752809
32507,Escambia County,FL,NA,13.145539906103288,NA
32615,Alachua County,FL,NA,NA,69.10112359550563
32640,Putnam County,FL,NA,70.4225352112676,NA
32669,Alachua County,FL,NA,66.19718309859155,NA
32818,Orange County,FL,NA,NA,58.70786516853933
32907,Brevard County,FL,47,NA,NA
32960,Indian River County,FL,NA,NA,44.38202247191011
33062,Broward County,FL,NA,NA,4.49438202247191
33133,Miami-Dade County,FL,NA,NA,28.932584269662918
33149,Miami-Dade County,FL,NA,NA,68.25842696629213
33428,Palm Beach County,FL,NA,NA,17.696629213483146
33434,Palm Beach County,FL,NA,NA,6.741573033707865
33441,Broward County,FL,NA,NA,43.258426966292134
33461,Palm Beach County,FL,NA,NA,54.21348314606742
33510,Hillsborough County,FL,57.49999999999999,NA,NA
33708,Pinellas County,FL,NA,NA,73.03370786516854
33772,Pinellas County,FL,NA,71.36150234741784,NA
33811,Polk County,FL,NA,NA,92.97752808988764
33872,Highlands County,FL,NA,73.23943661971832,NA
33919,Lee County,FL,NA,NA,25.56179775280899
33948,Charlotte County,FL,NA,NA,50.28089887640449
33950,Charlotte County,FL,NA,NA,23.876404494382022
33993,Lee County,FL,49,NA,NA
34108,Collier County,FL,NA,NA,30.61797752808989
34203,Manatee County,FL,NA,NA,16.573033707865168
34210,Manatee County,FL,84.5,NA,NA
34471,Marion County,FL,52,NA,NA
34476,Marion County,FL,NA,36.15023474178404,NA
34491,Marion County,FL,NA,32.863849765258216,NA
34655,Pasco County,FL,NA,NA,19.101123595505616
34746,Osceola County,FL,NA,46.478873239436616,NA
34748,Lake County,FL,18.5,NA,NA
34758,Osceola County,FL,NA,NA,62.35955056179775
34787,Orange County,FL,25,NA,NA
34951,St. Lucie County,FL,NA,NA,55.33707865168539
34952,St. Lucie County,FL,74.5,NA,NA
34953,St. Lucie County,FL,NA,NA,20.786516853932586
34974,Okeechobee County,FL,NA,73.23943661971832,NA
30025,Walton County,GA,92.5,NA,NA
30044,Gwinnett County,GA,NA,NA,42.13483146067416
30062,Cobb County,GA,NA,14.553990610328638,NA
30120,Bartow County,GA,19,NA,57.58426966292135
30141,Paulding County,GA,68,NA,NA
30145,Bartow County,GA,88.5,NA,NA
30161,Floyd County,GA,18,NA,32.02247191011236
30165,Floyd County,GA,NA,NA,35.39325842696629
30180,Carroll County,GA,22.5,NA,NA
30228,Henry County,GA,NA,NA,89.60674157303372
30288,Clayton County,GA,91,NA,NA
30314,Fulton County,GA,NA,45.07042253521127,NA
30341,DeKalb County,GA,NA,78.40375586854461,NA
30512,Union County,GA,73.5,NA,NA
30540,Gilmer County,GA,49.5,NA,NA
30635,Elbert County,GA,84.5,NA,NA
30707,Walker County,GA,NA,62.441314553990615,NA
30814,Columbia County,GA,NA,NA,76.40449438202246
30824,McDuffie County,GA,NA,NA,79.7752808988764
31008,Peach County,GA,41.5,NA,NA
31021,Laurens County,GA,NA,NA,48.87640449438202
31027,Laurens County,GA,NA,NA,94.66292134831461
31820,Muscogee County,GA,NA,NA,84.26966292134831
39819,Decatur County,GA,NA,NA,97.75280898876404
96766,Kauai County,HI,NA,72.76995305164318,NA
96817,Honolulu County,HI,NA,7.981220657276995,NA
96819,Honolulu County,HI,14.499999999999998,NA,NA
96825,Honolulu County,HI,NA,68.54460093896714,NA
83544,Clearwater County,ID,NA,NA,89.32584269662921
83619,Payette County,ID,NA,67.6056338028169,NA
83686,Canyon County,ID,NA,NA,4.213483146067416
83716,Ada County,ID,NA,37.558685446009385,NA
60014,McHenry County,IL,NA,NA,22.191011235955056
60031,Lake County,IL,NA,NA,82.58426966292134
60048,Lake County,IL,NA,27.230046948356808,NA
60061,Lake County,IL,NA,NA,36.79775280898877
60081,McHenry County,IL,70.5,NA,NA
60119,Kane County,IL,NA,NA,91.85393258426966
60126,DuPage County,IL,NA,2.3474178403755865,NA
60445,Cook County,IL,NA,NA,71.06741573033707
60478,Cook County,IL,NA,NA,48.03370786516854
60482,Cook County,IL,NA,76.99530516431925,NA
60551,LaSalle County,IL,100,NA,NA
60563,DuPage County,IL,45.5,NA,NA
60626,Cook County,IL,NA,NA,57.02247191011236
61008,Boone County,IL,NA,20.187793427230048,NA
61081,Whiteside County,IL,NA,NA,3.932584269662921
61101,Winnebago County,IL,NA,NA,41.29213483146067
61701,McLean County,IL,NA,NA,51.40449438202247
62231,Clinton County,IL,NA,NA,55.33707865168539
62521,Macon County,IL,NA,NA,5.056179775280898
62906,Union County,IL,NA,NA,69.9438202247191
46033,Hamilton County,IN,63,NA,NA
46041,Clinton County,IN,NA,54.460093896713616,NA
46135,Putnam County,IN,67,NA,NA
46143,Johnson County,IN,23,NA,NA
46173,Rush County,IN,NA,76.52582159624414,NA
46208,Marion County,IN,NA,68.07511737089203,NA
46237,Marion County,IN,17.5,NA,NA
46254,Marion County,IN,NA,30.51643192488263,NA
46256,Marion County,IN,NA,40.375586854460096,NA
46324,Lake County,IN,NA,28.169014084507044,NA
46410,Lake County,IN,7.000000000000001,NA,NA
46580,Kosciusko County,IN,NA,NA,30.0561797752809
46615,St. Joseph County,IN,74,NA,NA
46619,St. Joseph County,IN,55.00000000000001,NA,NA
46806,Allen County,IN,28.000000000000004,NA,NA
46947,Cass County,IN,10,NA,NA
46975,Fulton County,IN,NA,NA,60.1123595505618
47130,Clark County,IN,NA,5.164319248826291,NA
47374,Wayne County,IN,NA,NA,1.4044943820224718
47404,Monroe County,IN,NA,92.01877934272301,NA
47586,Perry County,IN,NA,70.89201877934272,NA
47660,Gibson County,IN,NA,NA,77.80898876404494
47885,Vigo County,IN,NA,NA,83.70786516853933
50310,Polk County,IA,NA,49.29577464788733,NA
50313,Polk County,IA,NA,NA,95.2247191011236
50701,Black Hawk County,IA,NA,26.291079812206576,NA
52001,Dubuque County,IA,12.5,NA,NA
52302,Linn County,IA,NA,34.27230046948357,NA
66205,Johnson County,KS,NA,NA,71.91011235955057
66213,Johnson County,KS,NA,46.948356807511736,NA
66216,Johnson County,KS,NA,57.74647887323944,NA
67502,Reno County,KS,NA,NA,52.52808988764045
40069,Washington County,KY,NA,NA,94.9438202247191
40324,Scott County,KY,NA,23.004694835680752,NA
40356,Jessamine County,KY,NA,NA,77.52808988764045
40383,Woodford County,KY,NA,40.845070422535215,NA
40514,Fayette County,KY,92,NA,NA
41230,Lawrence County,KY,NA,NA,68.82022471910112
41311,Lee County,KY,NA,NA,88.76404494382022
42038,Lyon County,KY,NA,NA,98.31460674157303
42141,Barren County,KY,9.5,NA,NA
42539,Casey County,KY,75.5,NA,NA
42718,Taylor County,KY,NA,10.328638497652582,NA
70072,Jefferson Parish,LA,NA,NA,7.02247191011236
70114,Orleans Parish,LA,NA,NA,59.269662921348306
70115,Orleans Parish,LA,NA,24.413145539906104,NA
70119,Orleans Parish,LA,4,NA,NA
70422,Tangipahoa Parish,LA,24.5,NA,NA
70570,St. Landry Parish,LA,9,NA,NA
70663,Calcasieu Parish,LA,NA,22.065727699530516,NA
70706,Livingston Parish,LA,32.5,NA,NA
70769,Ascension Parish,LA,NA,NA,65.1685393258427
71111,Bossier Parish,LA,NA,NA,30.337078651685395
71129,Caddo Parish,LA,38,NA,NA
71295,Franklin Parish,LA,50.5,NA,NA
71303,Rapides Parish,LA,31,NA,NA
71405,Rapides Parish,LA,NA,NA,98.03370786516854
04073,York County,ME,NA,NA,14.887640449438203
20659,St. Mary's County,MD,62.5,NA,NA
21075,Howard County,MD,NA,NA,92.69662921348315
21093,Baltimore County,MD,NA,27.699530516431924,NA
21157,Carroll County,MD,NA,43.66197183098591,NA
21207,Baltimore County,MD,21,NA,NA
21236,Baltimore County,MD,NA,NA,27.52808988764045
21502,Allegany County,MD,NA,19.248826291079812,NA
01108,Hampden County,MA,NA,NA,66.29213483146067
01118,Hampden County,MA,27,NA,NA
01463,Middlesex County,MA,45,NA,NA
01545,Worcester County,MA,NA,NA,15.168539325842698
01588,Worcester County,MA,NA,37.08920187793427,NA
01702,Middlesex County,MA,NA,52.112676056338024,NA
01902,Essex County,MA,NA,0.9389671361502347,NA
01906,Essex County,MA,2,NA,NA
01913,Essex County,MA,NA,9.389671361502346,NA
01923,Essex County,MA,NA,NA,2.8089887640449436
01966,Essex County,MA,NA,NA,72.47191011235955
01970,Essex County,MA,NA,NA,7.584269662921349
02139,Middlesex County,MA,14.000000000000002,NA,NA
02140,Middlesex County,MA,NA,NA,26.40449438202247
02150,Suffolk County,MA,NA,NA,5.337078651685393
02169,Norfolk County,MA,NA,NA,0.5617977528089888
02176,Middlesex County,MA,NA,83.56807511737088,NA
02368,Norfolk County,MA,NA,6.103286384976526,NA
02554,Nantucket County,MA,NA,NA,64.32584269662921
02760,Bristol County,MA,NA,12.206572769953052,NA
02771,Bristol County,MA,NA,NA,63.76404494382022
48035,Macomb County,MI,8.5,NA,NA
48036,Macomb County,MI,NA,28.638497652582164,NA
48043,Macomb County,MI,32,NA,NA
48044,Macomb County,MI,NA,6.572769953051644,NA
48060,St. Clair County,MI,NA,5.633802816901409,NA
48088,Macomb County,MI,44.5,NA,NA
48089,Macomb County,MI,NA,23.943661971830984,NA
48091,Macomb County,MI,5.5,NA,NA
48093,Macomb County,MI,NA,NA,20.224719101123593
48103,Washtenaw County,MI,NA,NA,2.247191011235955
48128,Wayne County,MI,NA,79.34272300469483,NA
48178,Oakland County,MI,NA,NA,7.865168539325842
48182,Monroe County,MI,NA,NA,46.348314606741575
48220,Oakland County,MI,46,NA,NA
48340,Oakland County,MI,NA,33.80281690140845,NA
48532,Genesee County,MI,36.5,NA,NA
48658,Arenac County,MI,96.5,NA,NA
48867,Shiawassee County,MI,NA,NA,8.146067415730338
48917,Eaton County,MI,NA,NA,66.57303370786516
49010,Allegan County,MI,43,NA,NA
49017,Calhoun County,MI,30.5,NA,NA
49028,Branch County,MI,90,NA,NA
49031,Cass County,MI,NA,96.24413145539906,NA
49046,Barry County,MI,NA,58.21596244131455,NA
49080,Allegan County,MI,NA,NA,56.17977528089888
49082,Branch County,MI,NA,88.26291079812206,NA
49117,Berrien County,MI,NA,92.95774647887323,NA
49319,Kent County,MI,NA,NA,46.91011235955056
49408,Allegan County,MI,NA,NA,87.07865168539325
49417,Ottawa County,MI,NA,NA,15.730337078651685
49428,Ottawa County,MI,NA,NA,16.01123595505618
49507,Kent County,MI,NA,NA,76.96629213483146
49660,Manistee County,MI,37,NA,NA
49677,Osceola County,MI,66,NA,NA
49720,Charlevoix County,MI,NA,NA,51.12359550561798
49738,Crawford County,MI,NA,69.95305164319248,NA
49801,Dickinson County,MI,NA,NA,45.50561797752809
49953,Ontonagon County,MI,NA,NA,65.73033707865169
55057,Rice County,MN,NA,NA,69.66292134831461
55110,Ramsey County,MN,NA,NA,72.19101123595506
55128,Washington County,MN,NA,83.09859154929578,NA
55317,Carver County,MN,93.5,NA,NA
55406,Hennepin County,MN,NA,29.107981220657276,NA
55427,Hennepin County,MN,NA,NA,53.08988764044944
55432,Anoka County,MN,NA,42.25352112676056,NA
55912,Mower County,MN,NA,NA,0.2808988764044944
56267,Stevens County,MN,NA,NA,75.56179775280899
56288,Kandiyohi County,MN,NA,99.53051643192488,NA
56308,Douglas County,MN,27.500000000000004,NA,NA
56352,Stearns County,MN,NA,91.54929577464789,NA
56401,Crow Wing County,MN,NA,NA,26.685393258426966
56633,Hubbard County,MN,NA,NA,80.0561797752809
56649,Koochiching County,MN,NA,NA,84.8314606741573
38635,Marshall County,MS,NA,86.85446009389672,NA
38655,Lafayette County,MS,NA,NA,75.84269662921348
38680,DeSoto County,MS,98.5,NA,NA
38701,Washington County,MS,NA,65.25821596244131,NA
39059,Copiah County,MS,77.5,NA,NA
39110,Madison County,MS,NA,NA,68.53932584269663
39355,Clarke County,MS,81.5,NA,NA
39367,Wayne County,MS,NA,64.7887323943662,NA
39466,Pearl River County,MS,60,NA,NA
39501,Harrison County,MS,NA,NA,27.808988764044944
63010,Jefferson County,MO,NA,NA,19.9438202247191
63012,Jefferson County,MO,NA,NA,87.92134831460675
63131,St. Louis County,MO,NA,74.17840375586854,NA
63143,St. Louis County,MO,NA,96.71361502347418,NA
63301,St. Charles County,MO,NA,NA,3.651685393258427
63366,St. Charles County,MO,NA,3.755868544600939,NA
63401,Marion County,MO,48,NA,NA
63601,St. Francois County,MO,NA,NA,69.3820224719101
63628,St. Francois County,MO,NA,65.72769953051643,67.69662921348315
63640,St. Francois County,MO,NA,NA,33.70786516853933
64012,Cass County,MO,28.499999999999996,NA,NA
64050,Jackson County,MO,NA,NA,41.57303370786517
64078,Cass County,MO,68.5,NA,NA
64089,Clay County,MO,NA,NA,96.34831460674157
64112,Jackson County,MO,76.5,NA,NA
64113,Jackson County,MO,NA,NA,88.48314606741573
64130,Jackson County,MO,6,NA,NA
64134,Jackson County,MO,NA,34.74178403755869,NA
64424,Harrison County,MO,86,NA,NA
64735,Henry County,MO,33.5,NA,NA
59047,Park County,MT,NA,NA,49.71910112359551
59701,Silver Bow County,MT,NA,NA,47.47191011235955
59860,Lake County,MT,NA,75.5868544600939,NA
68025,Dodge County,NE,NA,NA,10.393258426966293
68114,Douglas County,NE,NA,94.36619718309859,NA
68128,Sarpy County,NE,NA,NA,83.42696629213484
89117,Clark County,NV,NA,NA,35.95505617977528
89134,Clark County,NV,NA,NA,13.202247191011235
89436,Washoe County,NV,22,NA,NA
89523,Washoe County,NV,NA,NA,51.96629213483146
07006,Essex County,NJ,NA,NA,47.752808988764045
07013,Passaic County,NJ,39.5,NA,NA
07041,Essex County,NJ,NA,NA,91.29213483146067
07109,Essex County,NJ,NA,16.901408450704224,NA
07470,Passaic County,NJ,NA,NA,6.460674157303371
07501,Passaic County,NJ,NA,15.492957746478872,NA
07652,Bergen County,NJ,NA,NA,12.359550561797752
07670,Bergen County,NJ,NA,NA,59.8314606741573
07747,Monmouth County,NJ,NA,NA,56.46067415730337
07748,Monmouth County,NJ,NA,NA,62.92134831460674
07960,Morris County,NJ,NA,20.657276995305164,NA
08012,Camden County,NJ,4.5,NA,NA
08015,Burlington County,NJ,NA,NA,34.26966292134831
08090,Gloucester County,NJ,NA,82.62910798122066,NA
08232,Atlantic County,NJ,NA,89.67136150234741,NA
08360,Cumberland County,NJ,29.5,NA,NA
08527,Ocean County,NJ,NA,86.3849765258216,NA
08609,Mercer County,NJ,96,NA,NA
08619,Mercer County,NJ,NA,84.03755868544602,NA
08701,Ocean County,NJ,NA,NA,3.089887640449438
08724,Ocean County,NJ,NA,15.023474178403756,NA
08865,Warren County,NJ,NA,10.7981220657277,NA
87108,Bernalillo County,NM,NA,4.694835680751173,NA
88030,Luna County,NM,NA,NA,57.30337078651685
88203,Chaves County,NM,NA,18.30985915492958,NA
10306,Richmond County,NY,NA,15.96244131455399,45.2247191011236
10453,Bronx County,NY,NA,NA,16.292134831460675
10461,Bronx County,NY,NA,NA,24.43820224719101
10465,Bronx County,NY,NA,NA,56.74157303370787
10469,Bronx County,NY,2.5,NA,NA
10509,Putnam County,NY,NA,NA,70.78651685393258
10984,Rockland County,NY,NA,NA,99.71910112359551
11224,Kings County,NY,NA,NA,2.528089887640449
11716,Suffolk County,NY,NA,NA,91.57303370786516
11743,Suffolk County,NY,NA,NA,14.606741573033707
11783,Nassau County,NY,NA,97.1830985915493,NA
12180,Rensselaer County,NY,NA,NA,9.269662921348315
12538,Dutchess County,NY,NA,NA,52.24719101123596
12831,Saratoga County,NY,46.5,NA,NA
12866,Saratoga County,NY,11.5,NA,NA
12972,Clinton County,NY,NA,NA,90.73033707865169
13039,Onondaga County,NY,NA,63.84976525821596,NA
13073,Tompkins County,NY,NA,NA,94.10112359550563
13413,Oneida County,NY,NA,NA,25.842696629213485
13601,Jefferson County,NY,3.5000000000000004,NA,17.415730337078653
13617,St. Lawrence County,NY,NA,NA,42.13483146067416
13732,Tioga County,NY,NA,38.967136150234744,NA
14075,Erie County,NY,NA,NA,12.07865168539326
14086,Erie County,NY,NA,19.718309859154928,NA
14092,Niagara County,NY,NA,NA,44.662921348314605
14094,Niagara County,NY,NA,NA,26.96629213483146
14141,Erie County,NY,NA,84.97652582159625,NA
14210,Erie County,NY,NA,NA,78.65168539325843
14411,Orleans County,NY,NA,NA,89.8876404494382
14424,Ontario County,NY,NA,NA,71.62921348314607
14450,Monroe County,NY,NA,56.8075117370892,NA
14454,Livingston County,NY,NA,NA,73.59550561797754
14468,Monroe County,NY,16,NA,NA
14546,Monroe County,NY,NA,98.12206572769952,NA
14719,Cattaraugus County,NY,NA,97.65258215962442,NA
14760,Cattaraugus County,NY,8,NA,NA
14810,Steuben County,NY,NA,44.13145539906103,NA
27018,Yadkin County,NC,NA,NA,80.89887640449437
27030,Surry County,NC,NA,NA,0.8426966292134831
27107,Forsyth County,NC,NA,2.8169014084507045,NA
27217,Alamance County,NC,NA,NA,95.78651685393258
27248,Randolph County,NC,NA,100,NA
27360,Davidson County,NC,NA,NA,40.73033707865169
27520,Johnston County,NC,NA,NA,49.157303370786515
27545,Wake County,NC,NA,NA,38.764044943820224
27572,Person County,NC,87,NA,NA
27604,Wake County,NC,NA,NA,58.42696629213483
27705,Durham County,NC,NA,NA,19.662921348314608
27804,Nash County,NC,NA,NA,34.831460674157306
28018,Rutherford County,NC,NA,NA,96.62921348314607
28146,Rowan County,NC,NA,NA,35.674157303370784
28166,Iredell County,NC,NA,93.42723004694837,NA
28214,Mecklenburg County,NC,NA,89.2018779342723,NA
28311,Cumberland County,NC,23.5,NA,NA
28374,Moore County,NC,95,NA,NA
28376,Hoke County,NC,NA,NA,41.01123595505618
28409,New Hanover County,NC,NA,NA,62.07865168539326
28451,Brunswick County,NC,NA,61.03286384976526,NA
28551,Lenoir County,NC,61,NA,NA
28787,Buncombe County,NC,NA,74.64788732394366,NA
58201,Grand Forks County,ND,NA,NA,18.258426966292134
58701,Ward County,ND,NA,NA,1.9662921348314606
43119,Franklin County,OH,NA,50.23474178403756,NA
43130,Fairfield County,OH,NA,NA,23.03370786516854
43213,Franklin County,OH,NA,NA,39.60674157303371
43220,Franklin County,OH,NA,80.28169014084507,NA
43334,Morrow County,OH,76,NA,NA
43465,Wood County,OH,78,NA,NA
43526,Defiance County,OH,NA,NA,66.01123595505618
43605,Lucas County,OH,1.5,NA,NA
43701,Muskingum County,OH,1,NA,NA
44012,Lorain County,OH,NA,7.511737089201878,NA
44023,Geauga County,OH,NA,41.31455399061033,NA
44024,Geauga County,OH,NA,NA,14.325842696629213
44035,Lorain County,OH,0,NA,NA
44109,Cuyahoga County,OH,0.5,NA,NA
44125,Cuyahoga County,OH,NA,8.92018779342723,NA
44130,Cuyahoga County,OH,NA,NA,0
44139,Cuyahoga County,OH,NA,90.14084507042254,NA
44202,Portage County,OH,66.5,NA,NA
44224,Summit County,OH,NA,NA,10.674157303370785
44436,Mahoning County,OH,NA,NA,89.04494382022472
44446,Trumbull County,OH,NA,16.431924882629108,NA
44889,Huron County,OH,80,NA,NA
45040,Warren County,OH,NA,33.33333333333333,NA
45067,Butler County,OH,57.99999999999999,NA,NA
45107,Clinton County,OH,NA,NA,70.50561797752809
45206,Hamilton County,OH,NA,NA,81.74157303370787
45233,Hamilton County,OH,75,NA,NA
45238,Hamilton County,OH,11,NA,NA
45309,Montgomery County,OH,NA,NA,77.24719101123596
45322,Montgomery County,OH,NA,NA,71.34831460674157
45323,Clark County,OH,NA,87.79342723004694,NA
45345,Montgomery County,OH,NA,NA,80.6179775280899
45373,Miami County,OH,6.5,NA,NA
45601,Ross County,OH,NA,0,1.6853932584269662
45750,Washington County,OH,NA,0.4694835680751174,NA
45833,Allen County,OH,62,NA,NA
45840,Hancock County,OH,NA,NA,8.98876404494382
73051,Cleveland County,OK,NA,NA,91.01123595505618
73089,Grady County,OK,79.5,NA,NA
73096,Custer County,OK,NA,NA,76.68539325842697
73109,Oklahoma County,OK,64.5,NA,NA
73111,Oklahoma County,OK,84,NA,NA
73120,Oklahoma County,OK,NA,NA,48.59550561797753
73170,Cleveland County,OK,NA,NA,9.550561797752808
73533,Stephens County,OK,20,NA,NA
73703,Garfield County,OK,NA,NA,10.955056179775282
73717,Woods County,OK,NA,NA,81.17977528089888
74012,Tulsa County,OK,NA,NA,10.112359550561797
74055,Tulsa County,OK,NA,29.577464788732392,NA
74073,Tulsa County,OK,NA,NA,93.25842696629213
74128,Tulsa County,OK,NA,NA,98.87640449438202
74135,Tulsa County,OK,NA,39.906103286384976,NA
74501,Pittsburg County,OK,NA,NA,31.46067415730337
74801,Pottawatomie County,OK,NA,26.76056338028169,NA
74859,Okfuskee County,OK,90.5,NA,NA
74937,Le Flore County,OK,NA,NA,97.47191011235955
97005,Washington County,OR,NA,NA,40.168539325842694
97008,Washington County,OR,NA,NA,35.1123595505618
97048,Columbia County,OR,NA,90.61032863849765,NA
97080,Multnomah County,OR,24,NA,NA
97322,Linn County,OR,NA,77.93427230046949,NA
97355,Linn County,OR,NA,NA,8.707865168539326
97457,Douglas County,OR,69,NA,NA
97471,Douglas County,OR,NA,NA,12.640449438202248
97501,Jackson County,OR,NA,NA,29.49438202247191
97502,Jackson County,OR,37.5,NA,NA
97504,Jackson County,OR,NA,NA,4.775280898876404
97525,Jackson County,OR,99,NA,NA
97527,Josephine County,OR,NA,NA,22.47191011235955
97539,Jackson County,OR,NA,NA,93.82022471910112
97759,Deschutes County,OR,NA,NA,85.67415730337079
15010,Beaver County,PA,NA,NA,47.19101123595505
15066,Beaver County,PA,NA,NA,64.04494382022472
15108,Allegheny County,PA,NA,17.84037558685446,NA
15132,Allegheny County,PA,NA,25.352112676056336,NA
15137,Allegheny County,PA,NA,NA,62.64044943820225
15206,Allegheny County,PA,NA,21.5962441314554,NA
15212,Allegheny County,PA,NA,NA,33.146067415730336
15301,Washington County,PA,NA,4.225352112676056,NA
15417,Fayette County,PA,NA,NA,78.93258426966293
15650,Westmoreland County,PA,12,NA,NA
15666,Westmoreland County,PA,NA,NA,12.921348314606742
15717,Indiana County,PA,65,NA,NA
16001,Butler County,PA,NA,1.4084507042253522,NA
16127,Mercer County,PA,71,NA,NA
16335,Crawford County,PA,NA,9.859154929577464,NA
16365,Warren County,PA,34.5,NA,NA
16504,Erie County,PA,NA,71.83098591549296,NA
16509,Erie County,PA,NA,NA,24.719101123595504
16652,Huntingdon County,PA,NA,NA,20.50561797752809
17050,Cumberland County,PA,21.5,NA,NA
17202,Franklin County,PA,NA,NA,13.764044943820226
17315,York County,PA,NA,50.70422535211267,NA
17316,Adams County,PA,NA,NA,86.79775280898876
17339,York County,PA,NA,98.59154929577466,NA
17404,York County,PA,NA,12.676056338028168,NA
17543,Lancaster County,PA,NA,NA,8.426966292134832
17870,Snyder County,PA,NA,NA,37.07865168539326
18031,Lehigh County,PA,NA,NA,87.64044943820225
18091,Northampton County,PA,NA,NA,66.85393258426966
18109,Lehigh County,PA,25.5,NA,NA
18302,Monroe County,PA,NA,94.83568075117371,NA
18508,Lackawanna County,PA,NA,42.72300469483568,NA
18518,Lackawanna County,PA,NA,NA,90.1685393258427
18610,Monroe County,PA,NA,79.81220657276995,NA
18657,Wyoming County,PA,NA,58.68544600938967,NA
18708,Luzerne County,PA,NA,NA,55.0561797752809
18810,Bradford County,PA,81,NA,NA
18848,Bradford County,PA,NA,NA,84.5505617977528
19002,Montgomery County,PA,36,22.535211267605636,NA
19013,Delaware County,PA,16.5,NA,NA
19061,Delaware County,PA,28.999999999999996,NA,83.14606741573034
19087,Chester County,PA,NA,NA,36.235955056179776
19095,Montgomery County,PA,NA,NA,86.51685393258427
19114,Philadelphia County,PA,NA,NA,21.629213483146067
19147,Philadelphia County,PA,50,NA,NA
19390,Chester County,PA,NA,NA,53.37078651685393
19555,Berks County,PA,97.5,NA,NA
19606,Berks County,PA,NA,3.286384976525822,NA
29045,Kershaw County,SC,NA,NA,74.71910112359551
29108,Newberry County,SC,NA,NA,58.98876404494382
29142,Orangeburg County,SC,NA,NA,92.41573033707866
29209,Richland County,SC,NA,48.82629107981221,NA
29316,Spartanburg County,SC,NA,NA,40.44943820224719
29456,Dorchester County,SC,NA,48.35680751173709,NA
29483,Dorchester County,SC,NA,NA,51.68539325842697
29621,Anderson County,SC,NA,18.779342723004692,NA
29673,Greenville County,SC,NA,NA,60.67415730337079
29691,Oconee County,SC,NA,NA,81.46067415730337
29706,Chester County,SC,NA,NA,67.97752808988764
29920,Beaufort County,SC,NA,61.502347417840376,NA
57701,Pennington County,SD,17,NA,NA
37062,Williamson County,TN,NA,81.69014084507043,NA
37072,Davidson County,TN,NA,NA,60.39325842696629
37101,Humphreys County,TN,NA,88.73239436619718,NA
37216,Davidson County,TN,47.5,NA,NA
37217,Davidson County,TN,40,NA,NA
37404,Hamilton County,TN,NA,NA,75.28089887640449
37615,Washington County,TN,NA,NA,59.55056179775281
37642,Hawkins County,TN,NA,47.417840375586856,NA
37748,Roane County,TN,NA,NA,38.20224719101123
37763,Roane County,TN,NA,NA,53.93258426966292
37769,Anderson County,TN,NA,NA,97.19101123595506
37922,Knox County,TN,56.49999999999999,NA,NA
37934,Knox County,TN,NA,NA,44.10112359550562
38002,Shelby County,TN,67.5,NA,NA
38111,Shelby County,TN,19.5,NA,NA
38556,Fentress County,TN,NA,36.61971830985916,NA
38572,Cumberland County,TN,NA,NA,88.20224719101124
38581,Warren County,TN,83.5,NA,NA
75056,Denton County,TX,NA,32.3943661971831,NA
75135,Hunt County,TX,NA,92.48826291079813,NA
75150,Dallas County,TX,NA,17.370892018779344,NA
75214,Dallas County,TX,NA,60.56338028169014,NA
75228,Dallas County,TX,NA,55.39906103286385,NA
75409,Collin County,TX,NA,85.44600938967136,NA
75662,Gregg County,TX,NA,NA,41.853932584269664
75951,Jasper County,TX,NA,41.78403755868544,NA
76011,Tarrant County,TX,NA,59.154929577464785,NA
76067,Palo Pinto County,TX,NA,NA,52.80898876404494
76103,Tarrant County,TX,NA,NA,92.13483146067416
76180,Tarrant County,TX,NA,NA,29.213483146067414
76182,Tarrant County,TX,NA,NA,54.49438202247191
76244,Tarrant County,TX,NA,53.52112676056338,NA
76308,Wichita County,TX,80.5,NA,NA
76528,Coryell County,TX,NA,NA,25.280898876404496
76877,San Saba County,TX,NA,NA,90.4494382022472
77015,Harris County,TX,NA,NA,63.20224719101124
77038,Harris County,TX,NA,NA,94.3820224719101
77040,Harris County,TX,NA,80.75117370892019,NA
77306,Montgomery County,TX,NA,99.06103286384976,NA
77355,Montgomery County,TX,NA,NA,75
77389,Harris County,TX,NA,59.624413145539904,82.02247191011236
77494,Fort Bend County,TX,NA,NA,32.58426966292135
77571,Harris County,TX,NA,45.07042253521127,NA
77573,Galveston County,TX,NA,NA,21.910112359550563
77625,Hardin County,TX,NA,NA,99.15730337078652
77705,Jefferson County,TX,42,NA,NA
77803,Brazos County,TX,26,NA,NA
78076,Zapata County,TX,85.5,NA,NA
78102,Bee County,TX,77,NA,NA
78132,Comal County,TX,NA,NA,78.08988764044943
78155,Guadalupe County,TX,NA,NA,31.741573033707866
78201,Bexar County,TX,NA,NA,39.8876404494382
78213,Bexar County,TX,NA,62.91079812206573,NA
78244,Bexar County,TX,60.5,NA,NA
78572,Hidalgo County,TX,NA,NA,5.617977528089887
78611,Burnet County,TX,NA,61.97183098591549,NA
78633,Williamson County,TX,NA,NA,3.3707865168539324
78759,Travis County,TX,NA,NA,31.179775280898873
78852,Maverick County,TX,56.49999999999999,NA,NA
79118,Randall County,TX,71.5,NA,NA
79602,Taylor County,TX,NA,53.990610328638496,NA
84041,Davis County,UT,NA,NA,74.15730337078652
84067,Weber County,UT,35,NA,NA
84070,Salt Lake County,UT,88,NA,NA
84102,Salt Lake County,UT,NA,NA,73.31460674157303
84121,Salt Lake County,UT,NA,NA,18.820224719101123
05450,Franklin County,VT,NA,82.15962441314554,NA
05478,Franklin County,VT,NA,NA,26.12359550561798
05602,Washington County,VT,NA,NA,80.33707865168539
22182,Fairfax County,VA,NA,NA,82.30337078651685
22408,Spotsylvania County,VA,NA,56.8075117370892,NA
22902,Charlottesville city,VA,NA,NA,36.51685393258427
22980,Waynesboro city,VA,7.5,NA,NA
23113,Chesterfield County,VA,NA,NA,46.62921348314607
23117,Louisa County,VA,79,NA,NA
23223,Henrico County,VA,3,NA,NA
23225,Richmond city,VA,NA,21.12676056338028,NA
23238,Henrico County,VA,NA,NA,37.640449438202246
23451,Virginia Beach city,VA,NA,14.084507042253522,NA
23502,Norfolk city,VA,NA,30.985915492957744,NA
23513,Norfolk city,VA,NA,NA,21.06741573033708
23901,Prince Edward County,VA,NA,76.05633802816901,NA
24055,Henry County,VA,NA,69.01408450704226,NA
24141,Radford city,VA,72.5,NA,NA
24153,Salem city,VA,NA,NA,18.53932584269663
24171,Patrick County,VA,NA,NA,57.865168539325836
24426,Alleghany County,VA,NA,44.60093896713615,61.23595505617978
24503,Lynchburg city,VA,NA,NA,37.92134831460674
24609,Tazewell County,VA,NA,95.77464788732394,NA
98006,King County,WA,NA,NA,50.84269662921348
98007,King County,WA,NA,NA,50.28089887640449
98011,King County,WA,NA,NA,46.06741573033708
98031,King County,WA,73,NA,NA
98107,King County,WA,NA,NA,85.1123595505618
98115,King County,WA,NA,NA,28.651685393258425
98144,King County,WA,30,NA,NA
98146,King County,WA,NA,31.92488262910798,NA
98178,King County,WA,NA,69.48356807511738,NA
98383,Kitsap County,WA,78.5,NA,NA
98404,Pierce County,WA,NA,NA,99.43820224719101
98406,Pierce County,WA,NA,NA,43.82022471910113
98503,Thurston County,WA,NA,NA,33.42696629213483
98671,Clark County,WA,NA,NA,72.75280898876404
98801,Chelan County,WA,NA,NA,5.8988764044943816
98816,Chelan County,WA,NA,78.87323943661971,NA
98902,Yakima County,WA,NA,NA,14.04494382022472
99156,Pend Oreille County,WA,87.5,NA,NA
99201,Spokane County,WA,NA,95.30516431924883,NA
99301,Franklin County,WA,NA,7.042253521126761,NA
99338,Benton County,WA,NA,31.455399061032864,NA
20037,District of Columbia,DC,NA,NA,83.98876404494382
25071,Kanawha County,WV,NA,NA,61.51685393258427
25313,Kanawha County,WV,48.5,NA,NA
25401,Berkeley County,WV,NA,NA,64.8876404494382
25508,Logan County,WV,NA,67.13615023474179,NA
25701,Cabell County,WV,13.5,NA,NA
26003,Ohio County,WV,NA,1.8779342723004695,NA
26034,Hancock County,WV,NA,NA,87.35955056179775
26062,Hancock County,WV,NA,NA,11.51685393258427
26201,Upshur County,WV,NA,52.58215962441315,NA
26241,Randolph County,WV,NA,24.88262910798122,NA
26301,Harrison County,WV,NA,11.267605633802818,NA
26505,Monongalia County,WV,NA,NA,17.97752808988764
53072,Waukesha County,WI,NA,NA,39.04494382022472
53095,Washington County,WI,NA,NA,27.247191011235955
53144,Kenosha County,WI,15,NA,NA
53214,Milwaukee County,WI,NA,NA,24.15730337078652
53717,Dane County,WI,NA,59.624413145539904,NA
54216,Kewaunee County,WI,NA,93.89671361502347,NA
54467,Portage County,WI,63.5,NA,NA
54487,Lincoln County,WI,NA,39.436619718309856,NA
54615,Jackson County,WI,NA,NA,85.95505617977528
