ZipCode,county,state,Youth,Pediatric,Adult,Retirement,Geriatric
35120,St. Clair County,AL,NA,NA,63.93034825870647,NA,NA
35127,Jefferson County,AL,NA,NA,85.19900497512438,NA,NA
35207,Jefferson County,AL,85.18518518518519,NA,NA,NA,97.4308300395257
35211,Jefferson County,AL,NA,NA,NA,24.89539748953975,NA
35215,Jefferson County,AL,NA,NA,36.940298507462686,NA,NA
35217,Jefferson County,AL,65.55555555555556,68.19407008086253,53.73134328358209,NA,NA
35620,Limestone County,AL,NA,NA,84.07960199004975,NA,NA
35630,Lauderdale County,AL,NA,NA,NA,NA,48.616600790513836
36360,Dale County,AL,NA,NA,NA,38.49372384937239,NA
36521,Mobile County,AL,NA,NA,NA,99.16317991631799,NA
36526,Baldwin County,AL,NA,NA,NA,NA,31.027667984189723
36575,Mobile County,AL,NA,NA,85.44776119402985,NA,NA
36619,Mobile County,AL,NA,NA,NA,70.60669456066945,NA
36830,Lee County,AL,NA,NA,NA,60.98326359832637,NA
99507,Anchorage Municipality,AK,35.92592592592593,NA,NA,NA,NA
99508,Anchorage Municipality,AK,61.85185185185185,NA,NA,NA,NA
99576,Dillingham Census Area,AK,NA,90.29649595687331,NA,NA,NA
99577,Anchorage Municipality,AK,NA,NA,75.87064676616916,NA,NA
99801,Juneau City and Borough,AK,NA,NA,NA,89.64435146443515,NA
99835,Sitka City and Borough,AK,NA,NA,NA,78.55648535564853,NA
85003,Maricopa County,AZ,NA,81.94070080862534,NA,NA,NA
85007,Maricopa County,AZ,95.92592592592592,NA,NA,NA,NA
85008,Maricopa County,AZ,NA,11.05121293800539,NA,NA,NA
85015,Maricopa County,AZ,30.74074074074074,30.45822102425876,NA,NA,NA
85029,Maricopa County,AZ,NA,NA,NA,87.34309623430963,NA
85037,Maricopa County,AZ,NA,33.692722371967655,28.48258706467662,NA,NA
85040,Maricopa County,AZ,70.74074074074073,15.363881401617252,NA,NA,NA
85044,Maricopa County,AZ,NA,NA,56.343283582089555,NA,NA
85122,Pinal County,AZ,8.518518518518519,62.53369272237197,NA,NA,NA
85128,Pinal County,AZ,NA,56.8733153638814,44.527363184079604,NA,NA
85140,Pinal County,AZ,NA,NA,38.681592039801,NA,NA
85202,Maricopa County,AZ,NA,54.17789757412399,NA,NA,NA
85203,Maricopa County,AZ,NA,83.82749326145552,NA,NA,67.19367588932806
85224,Maricopa County,AZ,NA,NA,NA,47.071129707112966,51.581027667984195
85251,Maricopa County,AZ,NA,91.10512129380054,NA,NA,NA
85254,Maricopa County,AZ,NA,NA,58.333333333333336,NA,NA
85256,Maricopa County,AZ,NA,84.63611859838275,NA,NA,NA
85258,Maricopa County,AZ,NA,NA,71.14427860696517,NA,NA
85286,Maricopa County,AZ,NA,NA,38.55721393034826,NA,NA
85301,Maricopa County,AZ,NA,11.320754716981133,NA,NA,NA
85321,Pima County,AZ,NA,81.94070080862534,NA,NA,NA
85339,Maricopa County,AZ,NA,28.84097035040431,NA,NA,NA
85344,La Paz County,AZ,NA,52.56064690026954,72.636815920398,NA,93.47826086956522
85350,Yuma County,AZ,NA,39.892183288409704,NA,NA,NA
85374,Maricopa County,AZ,NA,86.79245283018868,NA,NA,NA
85392,Maricopa County,AZ,NA,NA,59.452736318407965,NA,NA
85530,Graham County,AZ,NA,NA,87.31343283582089,NA,NA
85542,Gila County,AZ,NA,NA,90.04975124378109,NA,NA
85550,Graham County,AZ,NA,NA,75.49751243781094,NA,NA
85621,Santa Cruz County,AZ,NA,16.172506738544474,NA,NA,NA
85629,Pima County,AZ,NA,NA,72.88557213930348,NA,NA
85634,Pima County,AZ,44.074074074074076,38.81401617250674,59.452736318407965,66.42259414225941,NA
85701,Pima County,AZ,NA,NA,NA,81.17154811715481,NA
85705,Pima County,AZ,48.148148148148145,NA,4.104477611940299,NA,NA
85716,Pima County,AZ,NA,NA,53.482587064676615,NA,NA
85746,Pima County,AZ,NA,NA,NA,38.70292887029289,NA
85941,Apache County,AZ,NA,2.6954177897574128,17.16417910447761,NA,NA
86001,Coconino County,AZ,NA,NA,23.756218905472636,NA,84.58498023715416
86004,Coconino County,AZ,NA,NA,8.706467661691542,NA,NA
86005,Coconino County,AZ,NA,92.45283018867924,NA,NA,NA
86025,Navajo County,AZ,NA,NA,91.7910447761194,NA,NA
86033,Navajo County,AZ,65.18518518518519,17.78975741239892,NA,96.65271966527197,NA
86034,Navajo County,AZ,NA,94.07008086253369,95.27363184079603,98.84937238493724,NA
86035,Coconino County,AZ,NA,64.95956873315365,NA,99.26778242677824,NA
86040,Coconino County,AZ,NA,NA,67.53731343283582,NA,NA
86043,Navajo County,AZ,NA,80.05390835579514,97.51243781094527,NA,NA
86044,San Juan County,AZ,NA,33.692722371967655,NA,NA,NA
86045,Coconino County,AZ,NA,39.62264150943396,62.06467661691543,74.16317991631799,NA
86047,Navajo County,AZ,NA,80.05390835579514,89.17910447761194,34.41422594142259,84.78260869565217
86301,Yavapai County,AZ,NA,92.45283018867924,NA,NA,NA
86327,Yavapai County,AZ,NA,NA,93.1592039800995,NA,NA
86401,Mohave County,AZ,NA,NA,NA,9.100418410041842,NA
86503,Apache County,AZ,40,10.781671159029651,95.77114427860697,94.4560669456067,NA
86505,Apache County,AZ,NA,21.83288409703504,87.93532338308458,74.16317991631799,NA
86510,Navajo County,AZ,NA,NA,84.70149253731343,88.59832635983264,NA
86538,Apache County,AZ,NA,64.95956873315365,93.03482587064677,98.74476987447699,NA
86556,Apache County,AZ,NA,NA,NA,97.59414225941423,NA
71909,Garland County,AR,NA,NA,NA,NA,18.774703557312254
71957,Montgomery County,AR,NA,NA,NA,NA,98.02371541501977
72002,Saline County,AR,NA,NA,71.76616915422885,NA,NA
72019,Saline County,AR,NA,NA,74.87562189054727,NA,NA
72058,Faulkner County,AR,NA,NA,84.32835820895522,NA,NA
72067,Cleburne County,AR,NA,NA,NA,NA,94.66403162055336
72086,Lonoke County,AR,NA,NA,89.42786069651741,NA,NA
72110,Conway County,AR,NA,NA,NA,NA,68.37944664031622
72113,Pulaski County,AR,NA,NA,NA,NA,53.952569169960476
72114,Pulaski County,AR,NA,NA,80.72139303482587,NA,NA
72116,Pulaski County,AR,NA,NA,NA,75.52301255230127,NA
72117,Pulaski County,AR,NA,NA,96.14427860696517,78.13807531380753,NA
72120,Pulaski County,AR,NA,NA,NA,17.782426778242677,NA
72150,Grant County,AR,NA,NA,83.5820895522388,NA,NA
72204,Pulaski County,AR,NA,NA,NA,31.903765690376567,NA
72206,Pulaski County,AR,72.5925925925926,NA,58.2089552238806,30.753138075313807,50.790513833992094
72207,Pulaski County,AR,NA,NA,NA,NA,82.21343873517787
72212,Pulaski County,AR,NA,NA,NA,87.65690376569037,53.359683794466406
72227,Pulaski County,AR,NA,NA,NA,NA,58.89328063241107
72450,Greene County,AR,37.03703703703704,NA,NA,NA,NA
72715,Benton County,AR,NA,NA,91.54228855721394,NA,NA
72947,Crawford County,AR,NA,NA,NA,96.23430962343096,NA
90011,Los Angeles County,CA,27.40740740740741,NA,NA,NA,NA
90024,Los Angeles County,CA,NA,NA,82.08955223880598,NA,NA
90042,Los Angeles County,CA,NA,NA,NA,51.778242677824274,NA
90044,Los Angeles County,CA,12.962962962962962,NA,NA,NA,NA
90057,Los Angeles County,CA,NA,NA,42.16417910447761,NA,NA
90069,Los Angeles County,CA,96.66666666666667,NA,NA,NA,NA
90262,Los Angeles County,CA,NA,28.03234501347709,NA,NA,NA
90270,Los Angeles County,CA,NA,75.2021563342318,NA,NA,NA
90278,Los Angeles County,CA,NA,NA,NA,NA,66.79841897233202
90304,Los Angeles County,CA,NA,NA,NA,99.05857740585773,NA
90621,Orange County,CA,NA,67.38544474393531,NA,NA,NA
90640,Los Angeles County,CA,57.407407407407405,NA,NA,NA,NA
90706,Los Angeles County,CA,NA,NA,28.109452736318406,NA,NA
90740,Orange County,CA,NA,NA,NA,NA,26.48221343873518
90745,Los Angeles County,CA,NA,52.02156334231805,43.28358208955223,NA,NA
90804,Los Angeles County,CA,NA,NA,48.507462686567166,NA,NA
91105,Los Angeles County,CA,NA,NA,NA,88.70292887029288,NA
91106,Los Angeles County,CA,87.03703703703704,NA,NA,NA,NA
91107,Los Angeles County,CA,NA,NA,NA,50.52301255230126,42.88537549407115
91206,Los Angeles County,CA,NA,97.84366576819407,NA,NA,NA
91306,Los Angeles County,CA,83.7037037037037,NA,NA,NA,NA
91352,Los Angeles County,CA,NA,NA,NA,46.75732217573222,NA
91605,Los Angeles County,CA,NA,NA,NA,NA,56.32411067193676
91744,Los Angeles County,CA,34.44444444444444,NA,NA,NA,NA
91745,Los Angeles County,CA,NA,NA,69.77611940298507,47.69874476987448,NA
91766,Los Angeles County,CA,NA,25.336927223719673,NA,NA,NA
91792,Los Angeles County,CA,NA,NA,NA,82.94979079497908,NA
91945,San Diego County,CA,NA,NA,63.18407960199005,NA,NA
92009,San Diego County,CA,NA,NA,NA,45.2928870292887,NA
92010,San Diego County,CA,NA,NA,NA,NA,86.7588932806324
92011,San Diego County,CA,80.37037037037037,NA,NA,NA,NA
92054,San Diego County,CA,NA,NA,47.38805970149254,NA,NA
92058,San Diego County,CA,NA,NA,NA,86.19246861924687,NA
92103,San Diego County,CA,NA,NA,50.24875621890548,NA,NA
92106,San Diego County,CA,NA,NA,NA,65.89958158995816,NA
92117,San Diego County,CA,NA,NA,NA,NA,24.308300395256918
92126,San Diego County,CA,NA,NA,49.004975124378106,69.14225941422593,NA
92231,Imperial County,CA,NA,NA,NA,14.853556485355648,NA
92324,San Bernardino County,CA,NA,NA,NA,42.57322175732218,63.04347826086957
92335,San Bernardino County,CA,NA,NA,NA,NA,46.6403162055336
92336,San Bernardino County,CA,NA,NA,12.189054726368159,18.09623430962343,NA
92374,San Bernardino County,CA,NA,NA,NA,65.06276150627615,NA
92376,San Bernardino County,CA,NA,NA,58.95522388059702,NA,54.54545454545454
92399,San Bernardino County,CA,NA,95.68733153638814,NA,21.652719665271967,NA
92405,San Bernardino County,CA,NA,NA,49.25373134328358,NA,NA
92532,Riverside County,CA,NA,NA,NA,81.27615062761507,NA
92551,Riverside County,CA,NA,NA,69.5273631840796,NA,NA
92582,Riverside County,CA,NA,NA,NA,93.72384937238493,NA
92584,Riverside County,CA,NA,NA,NA,59.51882845188285,NA
92620,Orange County,CA,67.77777777777779,NA,NA,NA,NA
92646,Orange County,CA,NA,NA,NA,NA,10.079051383399209
92647,Orange County,CA,NA,NA,NA,NA,19.76284584980237
92649,Orange County,CA,NA,NA,NA,30.543933054393307,NA
92651,Orange County,CA,NA,NA,NA,48.84937238493724,NA
92660,Orange County,CA,NA,NA,86.06965174129353,42.36401673640167,NA
92673,Orange County,CA,59.62962962962963,NA,NA,NA,NA
92694,Orange County,CA,64.81481481481481,NA,NA,NA,NA
92707,Orange County,CA,NA,NA,46.26865671641791,NA,NA
92804,Orange County,CA,NA,NA,NA,20.502092050209207,NA
92805,Orange County,CA,NA,NA,NA,45.18828451882845,NA
92865,Orange County,CA,NA,NA,84.95024875621891,NA,NA
92867,Orange County,CA,NA,NA,NA,56.38075313807531,NA
92870,Orange County,CA,NA,NA,NA,NA,20.948616600790515
92881,Riverside County,CA,NA,NA,77.23880597014924,NA,NA
93003,Ventura County,CA,NA,NA,NA,21.234309623430963,NA
93012,Ventura County,CA,NA,NA,NA,46.54811715481171,NA
93030,Ventura County,CA,NA,NA,NA,22.90794979079498,NA
93101,Santa Barbara County,CA,NA,NA,NA,NA,91.10671936758892
93111,Santa Barbara County,CA,NA,NA,NA,93.20083682008368,NA
93256,Tulare County,CA,NA,NA,99.6268656716418,NA,NA
93306,Kern County,CA,NA,NA,23.383084577114428,NA,NA
93401,San Luis Obispo County,CA,NA,NA,60.820895522388064,NA,NA
93420,San Luis Obispo County,CA,82.96296296296296,85.17520215633422,70.52238805970148,NA,NA
93433,San Luis Obispo County,CA,NA,NA,79.8507462686567,NA,NA
93434,Santa Barbara County,CA,NA,96.22641509433963,NA,99.7907949790795,NA
93444,San Luis Obispo County,CA,NA,73.58490566037736,92.28855721393035,NA,NA
93445,San Luis Obispo County,CA,98.51851851851852,86.52291105121293,NA,100,NA
93454,Santa Barbara County,CA,NA,34.50134770889488,NA,NA,NA
93631,Fresno County,CA,NA,72.77628032345014,NA,NA,NA
93635,Merced County,CA,NA,NA,44.27860696517413,NA,NA
93637,Madera County,CA,43.7037037037037,NA,NA,NA,NA
93702,Fresno County,CA,NA,NA,NA,35.25104602510461,77.4703557312253
93727,Fresno County,CA,NA,NA,NA,26.359832635983267,NA
93901,Monterey County,CA,NA,NA,58.457711442786064,NA,NA
94010,San Mateo County,CA,NA,NA,55.72139303482587,NA,12.845849802371543
94014,San Mateo County,CA,NA,67.38544474393531,NA,NA,NA
94019,San Mateo County,CA,NA,NA,83.95522388059702,NA,56.7193675889328
94025,San Mateo County,CA,NA,NA,89.30348258706468,37.238493723849366,NA
94041,Santa Clara County,CA,NA,NA,NA,89.9581589958159,NA
94044,San Mateo County,CA,NA,NA,82.33830845771143,28.870292887029287,NA
94061,San Mateo County,CA,NA,NA,57.08955223880597,NA,23.122529644268774
94062,San Mateo County,CA,NA,NA,60.32338308457711,NA,NA
94063,San Mateo County,CA,NA,26.68463611859838,46.39303482587065,NA,NA
94080,San Mateo County,CA,NA,NA,NA,83.89121338912135,NA
94102,San Francisco County,CA,NA,NA,34.950248756218905,8.158995815899582,NA
94103,San Francisco County,CA,NA,NA,NA,54.18410041841004,NA
94107,San Francisco County,CA,NA,NA,48.258706467661696,NA,NA
94109,San Francisco County,CA,NA,81.94070080862534,31.467661691542286,NA,NA
94110,San Francisco County,CA,55.55555555555556,NA,NA,39.43514644351465,27.27272727272727
94112,San Francisco County,CA,NA,25.336927223719673,NA,7.426778242677824,NA
94114,San Francisco County,CA,NA,NA,51.49253731343284,55.64853556485355,NA
94115,San Francisco County,CA,NA,NA,52.363184079601986,38.07531380753138,NA
94116,San Francisco County,CA,NA,NA,NA,71.75732217573221,NA
94117,San Francisco County,CA,NA,NA,39.800995024875625,NA,NA
94118,San Francisco County,CA,NA,NA,NA,36.40167364016737,NA
94121,San Francisco County,CA,NA,NA,NA,41.63179916317992,NA
94124,San Francisco County,CA,51.85185185185185,NA,27.860696517412936,21.75732217573222,NA
94127,San Francisco County,CA,NA,NA,NA,NA,57.905138339920946
94130,San Francisco County,CA,NA,NA,NA,NA,100
94132,San Francisco County,CA,NA,NA,94.02985074626866,NA,NA
94134,San Francisco County,CA,NA,59.02964959568733,NA,78.8702928870293,NA
94303,San Mateo County,CA,NA,81.40161725067385,64.05472636815921,NA,64.2292490118577
94401,San Mateo County,CA,NA,NA,92.91044776119402,89.43514644351464,NA
94403,San Mateo County,CA,62.59259259259259,NA,55.970149253731336,55.020920502092054,14.82213438735178
94502,Alameda County,CA,95.18518518518519,NA,NA,NA,NA
94509,Contra Costa County,CA,NA,NA,25.12437810945274,13.702928870292888,NA
94523,Contra Costa County,CA,60,NA,NA,NA,NA
94536,Alameda County,CA,NA,NA,NA,23.01255230125523,NA
94538,Alameda County,CA,NA,NA,NA,NA,24.90118577075099
94558,Napa County,CA,NA,NA,NA,56.69456066945606,NA
94559,Napa County,CA,NA,NA,65.29850746268657,NA,NA
94561,Contra Costa County,CA,NA,NA,NA,49.68619246861925,NA
94564,Contra Costa County,CA,NA,NA,85.94527363184079,NA,NA
94565,Contra Costa County,CA,NA,NA,NA,37.970711297071134,NA
94577,Alameda County,CA,NA,NA,NA,35.146443514644346,NA
94585,Solano County,CA,NA,NA,83.83084577114428,NA,NA
94590,Solano County,CA,NA,80.59299191374663,NA,28.24267782426778,NA
94591,Solano County,CA,NA,NA,NA,NA,24.703557312252965
94602,Alameda County,CA,NA,NA,NA,60.66945606694561,NA
94605,Alameda County,CA,NA,51.75202156334232,NA,NA,NA
94608,Alameda County,CA,NA,NA,83.08457711442786,NA,NA
94612,Alameda County,CA,NA,NA,NA,81.58995815899581,NA
94806,Contra Costa County,CA,NA,NA,NA,NA,25.09881422924901
95023,San Benito County,CA,NA,36.118598382749326,30.721393034825873,NA,NA
95120,Santa Clara County,CA,NA,NA,NA,NA,36.36363636363637
95127,Santa Clara County,CA,NA,NA,NA,47.59414225941423,NA
95128,Santa Clara County,CA,NA,NA,NA,85.041841004184107,NA
95131,Santa Clara County,CA,NA,NA,NA,96.44351464435147,NA
95148,Santa Clara County,CA,NA,NA,NA,45.5020920502092,NA
95202,San Joaquin County,CA,NA,NA,32.58706467661692,NA,NA
95307,Stanislaus County,CA,NA,NA,NA,48.32635983263599,NA
95330,San Joaquin County,CA,NA,75.2021563342318,NA,NA,NA
95336,San Joaquin County,CA,NA,NA,NA,22.698744769874477,NA
95348,Merced County,CA,31.11111111111111,NA,NA,NA,NA
95356,Stanislaus County,CA,NA,NA,45.024875621890544,45.92050209205021,NA
95361,Stanislaus County,CA,78.14814814814814,NA,NA,NA,NA
95363,Stanislaus County,CA,NA,85.98382749326146,NA,NA,NA
95377,San Joaquin County,CA,74.07407407407408,NA,NA,NA,NA
95382,Stanislaus County,CA,NA,NA,NA,30.334728033472803,NA
95437,Mendocino County,CA,90.74074074074075,NA,NA,NA,NA
95451,Lake County,CA,NA,NA,NA,51.67364016736402,NA
95482,Mendocino County,CA,NA,NA,40.67164179104478,62.55230125523013,38.3399209486166
95603,Placer County,CA,70,NA,NA,NA,NA
95608,Sacramento County,CA,NA,78.16711590296495,44.15422885572139,NA,NA
95610,Sacramento County,CA,NA,NA,49.875621890547265,NA,NA
95616,Yolo County,CA,NA,NA,NA,NA,44.07114624505929
95621,Sacramento County,CA,NA,NA,NA,37.65690376569037,NA
95624,Sacramento County,CA,NA,NA,NA,NA,74.30830039525692
95630,Sacramento County,CA,NA,NA,29.850746268656714,18.619246861924683,NA
95688,Solano County,CA,91.11111111111111,NA,NA,NA,NA
95693,Sacramento County,CA,NA,NA,NA,88.49372384937239,NA
95747,Placer County,CA,NA,NA,45.149253731343286,NA,NA
95757,Sacramento County,CA,NA,NA,NA,NA,87.15415019762845
95762,El Dorado County,CA,NA,NA,NA,NA,43.47826086956522
95765,Placer County,CA,NA,NA,74.6268656716418,NA,NA
95815,Sacramento County,CA,NA,NA,NA,64.7489539748954,NA
95823,Sacramento County,CA,NA,NA,15.547263681592039,19.456066945606697,30.434782608695656
95824,Sacramento County,CA,NA,66.30727762803235,NA,NA,NA
95838,Sacramento County,CA,NA,NA,NA,69.24686192468619,NA
95991,Sutter County,CA,NA,53.63881401617251,NA,NA,NA
96007,Shasta County,CA,80.37037037037037,NA,NA,NA,NA
80003,Jefferson County,CO,NA,NA,NA,NA,65.41501976284584
80004,Jefferson County,CO,NA,NA,NA,61.29707112970711,NA
80014,Arapahoe County,CO,36.666666666666664,NA,66.7910447761194,NA,10.869565217391305
80015,Arapahoe County,CO,NA,58.22102425876011,NA,NA,NA
80109,Douglas County,CO,NA,NA,72.38805970149254,NA,NA
80111,Arapahoe County,CO,NA,NA,NA,65.1673640167364,NA
80113,Arapahoe County,CO,NA,NA,NA,80.02092050209205,NA
80120,Arapahoe County,CO,NA,NA,NA,50.94142259414226,NA
80122,Arapahoe County,CO,NA,NA,NA,54.7071129707113,NA
80123,Jefferson County,CO,NA,NA,NA,53.45188284518828,NA
80126,Douglas County,CO,NA,NA,NA,59.20502092050209,NA
80129,Douglas County,CO,53.70370370370371,NA,NA,NA,NA
80202,Denver County,CO,NA,NA,NA,NA,86.7588932806324
80204,Denver County,CO,NA,61.18598382749326,24.62686567164179,NA,NA
80205,Denver County,CO,NA,NA,64.42786069651741,NA,NA
80211,Denver County,CO,NA,74.39353099730458,NA,NA,NA
80214,Jefferson County,CO,NA,NA,45.8955223880597,NA,NA
80216,Denver County,CO,NA,55.25606469002695,NA,NA,NA
80218,Denver County,CO,NA,NA,NA,80.85774058577407,NA
80219,Denver County,CO,NA,NA,6.592039800995026,76.35983263598327,57.509881422924906
80220,Denver County,CO,NA,NA,37.81094527363184,NA,NA
80221,Adams County,CO,NA,NA,NA,53.870292887029294,NA
80222,Denver County,CO,NA,97.30458221024259,NA,80.02092050209205,NA
80224,Denver County,CO,NA,NA,96.01990049751244,NA,NA
80234,Adams County,CO,NA,NA,65.54726368159204,NA,NA
80237,Denver County,CO,NA,NA,76.24378109452736,NA,NA
80239,Denver County,CO,NA,NA,26.616915422885572,NA,NA
80249,Denver County,CO,NA,49.865229110512125,40.42288557213931,92.25941422594143,NA
80260,Adams County,CO,NA,NA,50.74626865671642,NA,NA
80433,Jefferson County,CO,86.66666666666667,NA,NA,NA,NA
80487,Routt County,CO,NA,NA,NA,94.76987447698745,NA
80504,Boulder County,CO,NA,NA,35.32338308457712,NA,NA
80517,Larimer County,CO,NA,NA,NA,NA,37.54940711462451
80524,Larimer County,CO,NA,NA,33.582089552238806,NA,NA
80537,Larimer County,CO,NA,NA,NA,16.21338912133891,NA
80538,Larimer County,CO,NA,NA,15.671641791044777,NA,NA
80550,Weld County,CO,NA,NA,32.83582089552239,NA,NA
80634,Weld County,CO,NA,NA,67.7860696517413,NA,NA
80905,El Paso County,CO,NA,NA,68.40796019900498,NA,NA
80907,El Paso County,CO,67.03703703703704,NA,NA,NA,NA
81212,Fremont County,CO,NA,NA,NA,53.870292887029294,NA
81501,Mesa County,CO,NA,86.79245283018868,NA,NA,NA
06106,Hartford County,CT,NA,NA,6.218905472636816,NA,NA
06110,Hartford County,CT,NA,NA,83.70646766169155,NA,NA
06112,Hartford County,CT,NA,38.81401617250674,NA,NA,NA
06241,Windham County,CT,NA,NA,NA,85.14644351464436,NA
06471,New Haven County,CT,NA,NA,NA,80.3347280334728,NA
06489,Hartford County,CT,NA,NA,33.70646766169154,NA,11.462450592885375
06516,New Haven County,CT,NA,NA,NA,3.9748953974895396,NA
06517,New Haven County,CT,74.44444444444444,NA,NA,NA,NA
06790,Litchfield County,CT,NA,NA,NA,2.7196652719665275,NA
06810,Fairfield County,CT,NA,NA,NA,NA,97.23320158102767
06830,Fairfield County,CT,NA,NA,NA,NA,15.810276679841898
19702,New Castle County,DE,NA,NA,18.90547263681592,NA,NA
19802,New Castle County,DE,NA,NA,18.65671641791045,NA,NA
19904,Kent County,DE,NA,NA,17.537313432835823,NA,NA
32034,Nassau County,FL,NA,NA,NA,10.355648535564853,21.936758893280633
32113,Marion County,FL,NA,NA,94.40298507462687,NA,NA
32145,St. Johns County,FL,NA,NA,97.01492537313433,NA,NA
32162,Sumter County,FL,NA,NA,NA,2.615062761506276,3.7549407114624502
32208,Duval County,FL,NA,NA,NA,6.485355648535565,NA
32209,Duval County,FL,NA,NA,5.597014925373134,NA,NA
32216,Duval County,FL,41.11111111111111,NA,NA,NA,NA
32218,Duval County,FL,NA,NA,4.228855721393035,NA,NA
32225,Duval County,FL,NA,NA,79.97512437810946,NA,NA
32317,Leon County,FL,NA,NA,NA,89.01673640167364,NA
32439,Walton County,FL,NA,NA,NA,69.8744769874477,NA
32547,Okaloosa County,FL,72.96296296296296,NA,NA,NA,NA
32550,Walton County,FL,NA,NA,NA,NA,62.64822134387352
32601,Alachua County,FL,NA,NA,NA,83.47280334728033,NA
32606,Alachua County,FL,NA,NA,37.6865671641791,NA,NA
32609,Alachua County,FL,NA,NA,23.134328358208954,NA,NA
32641,Alachua County,FL,NA,NA,28.35820895522388,NA,NA
32669,Alachua County,FL,NA,NA,NA,67.15481171548117,NA
32703,Orange County,FL,NA,NA,NA,19.03765690376569,NA
32738,Volusia County,FL,NA,NA,71.64179104477611,NA,NA
32746,Seminole County,FL,NA,NA,57.960199004975124,NA,NA
32792,Orange County,FL,NA,NA,NA,50.2092050209205,NA
32825,Orange County,FL,NA,NA,NA,17.05020920502092,NA
32909,Brevard County,FL,NA,NA,NA,32.74058577405858,NA
32926,Brevard County,FL,NA,NA,NA,47.17573221757323,NA
32963,Indian River County,FL,NA,NA,94.65174129353234,NA,NA
33009,Broward County,FL,NA,NA,NA,47.28033472803347,NA
33012,Miami-Dade County,FL,NA,NA,NA,60.46025104602511,28.65612648221344
33014,Miami-Dade County,FL,NA,NA,68.78109452736318,NA,NA
33018,Miami-Dade County,FL,NA,NA,NA,57.00836820083682,NA
33020,Broward County,FL,NA,NA,NA,27.719665271966527,NA
33021,Broward County,FL,NA,NA,51.99004975124378,NA,NA
33024,Broward County,FL,NA,NA,NA,61.19246861924687,NA
33037,Monroe County,FL,NA,NA,NA,72.59414225941423,NA
33054,Miami-Dade County,FL,NA,NA,54.850746268656714,NA,NA
33067,Broward County,FL,NA,NA,81.59203980099502,77.82426778242679,NA
33070,Monroe County,FL,NA,NA,NA,92.36401673640168,NA
33126,Miami-Dade County,FL,NA,NA,NA,NA,25.296442687747035
33130,Miami-Dade County,FL,NA,NA,NA,65.48117154811716,NA
33133,Miami-Dade County,FL,NA,NA,78.85572139303483,NA,NA
33138,Miami-Dade County,FL,NA,NA,NA,62.76150627615063,NA
33142,Miami-Dade County,FL,NA,NA,NA,NA,83.00395256916995
33149,Miami-Dade County,FL,NA,NA,NA,90.7949790794979,66.600790513834
33154,Miami-Dade County,FL,NA,NA,98.50746268656717,NA,NA
33155,Miami-Dade County,FL,NA,NA,NA,32.63598326359833,16.99604743083004
33156,Miami-Dade County,FL,NA,NA,NA,57.42677824267782,NA
33167,Miami-Dade County,FL,NA,NA,NA,NA,82.6086956521739
33169,Miami-Dade County,FL,NA,46.091644204851754,NA,NA,NA
33175,Miami-Dade County,FL,NA,36.38814016172507,NA,NA,NA
33178,Miami-Dade County,FL,NA,NA,NA,NA,69.36758893280633
33180,Miami-Dade County,FL,NA,NA,NA,47.38493723849373,NA
33182,Miami-Dade County,FL,NA,91.91374663072777,NA,NA,NA
33304,Broward County,FL,NA,NA,NA,66.73640167364016,NA
33309,Broward County,FL,NA,NA,NA,NA,91.89723320158103
33322,Broward County,FL,NA,NA,NA,31.799163179916317,NA
33324,Broward County,FL,NA,NA,NA,49.05857740585774,NA
33325,Broward County,FL,NA,NA,NA,NA,76.48221343873519
33334,Broward County,FL,NA,NA,57.960199004975124,NA,NA
33436,Palm Beach County,FL,NA,NA,NA,79.70711297071131,NA
33463,Palm Beach County,FL,NA,NA,53.85572139303483,NA,NA
33511,Hillsborough County,FL,NA,NA,NA,29.288702928870293,NA
33523,Pasco County,FL,NA,NA,NA,58.57740585774059,NA
33541,Pasco County,FL,NA,NA,80.09950248756219,NA,NA
33567,Hillsborough County,FL,NA,94.60916442048517,NA,NA,NA
33616,Hillsborough County,FL,NA,NA,NA,96.86192468619247,NA
33760,Pinellas County,FL,78.51851851851852,NA,NA,NA,NA
33803,Polk County,FL,NA,NA,NA,58.26359832635983,NA
33908,Lee County,FL,NA,NA,NA,32.11297071129707,NA
33913,Lee County,FL,NA,NA,84.32835820895522,NA,NA
34108,Collier County,FL,NA,NA,NA,NA,33.99209486166008
34112,Collier County,FL,NA,NA,NA,72.07112970711297,NA
34229,Sarasota County,FL,NA,NA,NA,90.1673640167364,NA
34231,Sarasota County,FL,NA,NA,NA,53.76569037656904,NA
34238,Sarasota County,FL,NA,NA,NA,73.22175732217573,NA
34241,Sarasota County,FL,NA,NA,88.43283582089553,NA,NA
34285,Sarasota County,FL,NA,NA,NA,19.351464435146443,NA
34288,Sarasota County,FL,NA,NA,NA,92.88702928870293,NA
34292,Sarasota County,FL,NA,NA,NA,NA,16.007905138339922
34471,Marion County,FL,NA,NA,NA,48.32635983263599,NA
34473,Marion County,FL,NA,NA,NA,63.07531380753139,NA
34474,Marion County,FL,NA,NA,95.8955223880597,NA,NA
34482,Marion County,FL,NA,NA,67.03980099502488,NA,NA
34652,Pasco County,FL,NA,NA,NA,55.5439330543933,NA
34654,Pasco County,FL,NA,NA,NA,55.962343096234314,NA
34677,Pinellas County,FL,NA,NA,79.35323383084577,NA,NA
34736,Lake County,FL,NA,88.67924528301887,NA,NA,NA
34748,Lake County,FL,NA,NA,NA,NA,3.1620553359683794
34771,Osceola County,FL,NA,NA,90.17412935323384,NA,NA
34772,Osceola County,FL,NA,NA,69.27860696517413,NA,NA
34984,St. Lucie County,FL,75.55555555555556,NA,NA,NA,NA
34987,St. Lucie County,FL,NA,NA,89.80099502487562,NA,NA
30008,Cobb County,GA,NA,NA,66.66666666666666,NA,NA
30014,Newton County,GA,NA,NA,29.975124378109452,32.53138075313807,NA
30030,DeKalb County,GA,NA,NA,49.50248756218906,NA,NA
30032,DeKalb County,GA,NA,NA,16.044776119402986,NA,26.679841897233203
30038,DeKalb County,GA,NA,NA,47.01492537313433,NA,NA
30058,DeKalb County,GA,NA,NA,24.00497512437811,NA,NA
30066,Cobb County,GA,NA,NA,NA,28.03347280334728,NA
30083,DeKalb County,GA,NA,NA,NA,68.30543933054393,NA
30087,DeKalb County,GA,NA,NA,64.30348258706468,NA,NA
30132,Paulding County,GA,NA,NA,NA,38.59832635983263,NA
30180,Carroll County,GA,24.444444444444443,NA,NA,NA,NA
30263,Coweta County,GA,NA,63.342318059299195,NA,NA,NA
30297,Clayton County,GA,NA,NA,61.318407960199,NA,NA
30308,Fulton County,GA,NA,NA,NA,85.8786610878661,NA
30309,Fulton County,GA,NA,NA,NA,84.51882845188284,NA
30310,Fulton County,GA,NA,NA,25.99502487562189,NA,NA
30313,Fulton County,GA,NA,NA,95.39800995024875,NA,NA
30318,Fulton County,GA,NA,NA,NA,67.36401673640168,NA
30341,DeKalb County,GA,NA,NA,71.8905472636816,93.41004184100419,NA
30344,Fulton County,GA,NA,47.97843665768194,NA,NA,NA
30349,Fulton County,GA,NA,NA,NA,12.238493723849372,NA
30350,Fulton County,GA,NA,NA,NA,NA,66.00790513833992
30434,Jefferson County,GA,NA,NA,94.90049751243781,NA,NA
30510,Habersham County,GA,NA,NA,NA,94.8744769874477,NA
30548,Jackson County,GA,NA,NA,NA,NA,65.61264822134387
30642,Greene County,GA,NA,NA,NA,87.23849372384937,NA
30673,Wilkes County,GA,NA,NA,NA,95.60669456066945,NA
30725,Walker County,GA,NA,NA,NA,98.9539748953975,NA
30728,Walker County,GA,NA,NA,40.92039800995025,NA,NA
30815,Richmond County,GA,NA,NA,58.582089552238806,NA,NA
30830,Burke County,GA,NA,92.18328840970351,NA,61.71548117154811,NA
30904,Richmond County,GA,NA,NA,38.18407960199005,NA,NA
30906,Richmond County,GA,NA,NA,NA,6.171548117154812,NA
30907,Columbia County,GA,47.77777777777778,NA,28.855721393034827,NA,NA
30909,Richmond County,GA,NA,NA,NA,17.573221757322173,NA
31024,Putnam County,GA,NA,NA,NA,74.47698744769873,NA
31204,Bibb County,GA,NA,NA,NA,29.497907949790797,NA
31419,Chatham County,GA,NA,NA,NA,NA,48.22134387351779
31535,Coffee County,GA,NA,NA,NA,85.4602510460251,NA
31558,Camden County,GA,NA,NA,NA,NA,75.29644268774703
31803,Marion County,GA,NA,NA,NA,NA,96.44268774703558
96706,Honolulu County,HI,NA,NA,NA,13.179916317991633,NA
96707,Honolulu County,HI,NA,NA,NA,NA,55.33596837944664
96734,Honolulu County,HI,NA,NA,NA,NA,12.25296442687747
96792,Honolulu County,HI,NA,NA,15.422885572139302,NA,NA
96795,Honolulu County,HI,NA,92.99191374663073,78.73134328358209,NA,NA
96797,Honolulu County,HI,NA,NA,NA,7.00836820083682,14.42687747035573
96814,Honolulu County,HI,NA,NA,72.38805970149254,NA,NA
96816,Honolulu County,HI,NA,NA,NA,NA,7.905138339920949
96817,Honolulu County,HI,NA,25.87601078167116,14.800995024875622,NA,NA
96819,Honolulu County,HI,NA,NA,67.91044776119402,NA,NA
96821,Honolulu County,HI,NA,NA,99.50248756218906,NA,NA
96822,Honolulu County,HI,NA,NA,NA,56.48535564853556,NA
96826,Honolulu County,HI,NA,NA,46.64179104477612,NA,NA
83333,Blaine County,ID,NA,NA,NA,NA,73.3201581027668
83617,Gem County,ID,76.66666666666667,NA,NA,NA,NA
83814,Kootenai County,ID,NA,NA,37.3134328358209,NA,NA
60004,Cook County,IL,NA,NA,NA,11.08786610878661,NA
60016,Cook County,IL,NA,NA,61.06965174129353,11.820083682008368,NA
60045,Lake County,IL,NA,NA,NA,23.535564853556483,NA
60077,Cook County,IL,NA,NA,NA,NA,11.264822134387352
60084,Lake County,IL,NA,NA,76.3681592039801,69.35146443514645,NA
60085,Lake County,IL,NA,NA,NA,67.67782426778243,NA
60099,Lake County,IL,NA,NA,45.398009950248756,NA,NA
60107,Cook County,IL,54.074074074074076,NA,NA,NA,NA
60126,DuPage County,IL,57.03703703703704,NA,NA,22.80334728033473,NA
60130,Cook County,IL,80.37037037037037,NA,54.22885572139303,NA,NA
60133,Cook County,IL,NA,NA,NA,51.04602510460251,NA
60137,DuPage County,IL,NA,NA,38.059701492537314,NA,NA
60142,McHenry County,IL,NA,NA,NA,11.506276150627615,NA
60153,Cook County,IL,NA,NA,43.03482587064676,NA,NA
60154,Cook County,IL,NA,NA,NA,27.19665271966527,NA
60155,Cook County,IL,NA,NA,NA,NA,73.71541501976284
60164,Cook County,IL,NA,NA,44.40298507462687,NA,NA
60187,DuPage County,IL,52.22222222222223,NA,NA,NA,39.130434782608695
60189,DuPage County,IL,NA,NA,39.30348258706468,NA,NA
60193,Cook County,IL,NA,NA,NA,42.25941422594142,NA
60201,Cook County,IL,NA,NA,NA,NA,8.695652173913043
60304,Cook County,IL,NA,NA,NA,NA,99.01185770750988
60402,Cook County,IL,NA,NA,14.054726368159203,NA,NA
60409,Cook County,IL,NA,NA,66.04477611940298,NA,NA
60419,Cook County,IL,NA,NA,50.124378109452735,NA,NA
60436,Will County,IL,NA,NA,61.442786069651746,NA,NA
60438,Cook County,IL,NA,NA,48.507462686567166,NA,NA
60448,Will County,IL,NA,NA,59.82587064676616,NA,NA
60450,Grundy County,IL,NA,NA,NA,53.55648535564853,NA
60462,Cook County,IL,NA,NA,NA,53.24267782426778,NA
60467,Cook County,IL,NA,NA,NA,27.824267782426777,NA
60468,Will County,IL,87.03703703703704,NA,NA,NA,NA
60471,Cook County,IL,NA,NA,NA,NA,99.2094861660079
60478,Cook County,IL,NA,NA,NA,76.15062761506276,NA
60502,DuPage County,IL,NA,NA,82.58706467661692,NA,NA
60515,DuPage County,IL,NA,NA,44.65174129353234,NA,NA
60526,Cook County,IL,NA,NA,NA,75.31380753138075,NA
60540,DuPage County,IL,NA,NA,NA,29.811715481171547,NA
60546,Cook County,IL,NA,NA,52.86069651741293,NA,45.25691699604743
60558,Cook County,IL,NA,NA,86.19402985074626,64.85355648535564,NA
60607,Cook County,IL,NA,NA,53.98009950248757,NA,NA
60609,Cook County,IL,NA,NA,12.810945273631841,NA,NA
60611,Cook County,IL,NA,NA,NA,21.548117154811717,NA
60612,Cook County,IL,NA,NA,NA,32.32217573221757,NA
60613,Cook County,IL,NA,NA,NA,34.93723849372385,NA
60615,Cook County,IL,NA,NA,28.233830845771145,NA,NA
60620,Cook County,IL,NA,NA,32.71144278606965,3.8702928870292883,5.7312252964426875
60628,Cook County,IL,NA,NA,32.960199004975124,NA,NA
60629,Cook County,IL,NA,NA,8.084577114427862,NA,NA
60631,Cook County,IL,NA,NA,34.701492537313435,NA,NA
60632,Cook County,IL,NA,NA,17.786069651741293,NA,NA
60634,Cook County,IL,22.962962962962962,NA,NA,NA,NA
60637,Cook County,IL,NA,NA,19.154228855721392,NA,NA
60638,Cook County,IL,27.40740740740741,NA,NA,NA,6.91699604743083
60639,Cook County,IL,NA,NA,11.567164179104477,NA,NA
60641,Cook County,IL,NA,NA,17.412935323383085,NA,NA
60651,Cook County,IL,NA,NA,10.820895522388058,NA,NA
60656,Cook County,IL,NA,NA,NA,NA,89.32806324110672
60657,Cook County,IL,NA,NA,NA,NA,24.50592885375494
60661,Cook County,IL,NA,NA,97.38805970149254,NA,NA
60707,Cook County,IL,NA,NA,22.761194029850746,42.46861924686193,NA
60827,Cook County,IL,NA,99.19137466307278,92.66169154228857,NA,NA
60901,Kankakee County,IL,NA,NA,20.273631840796018,NA,NA
60915,Kankakee County,IL,NA,NA,86.94029850746269,NA,NA
60957,Ford County,IL,NA,NA,NA,NA,88.93280632411067
60964,Kankakee County,IL,NA,NA,96.26865671641791,NA,NA
61008,Boone County,IL,NA,NA,NA,20.397489539748953,NA
61021,Lee County,IL,NA,NA,67.41293532338308,NA,4.3478260869565215
61032,Stephenson County,IL,NA,NA,NA,18.200836820083683,17.588932806324113
61048,Stephenson County,IL,NA,NA,NA,NA,73.71541501976284
61072,Winnebago County,IL,NA,NA,NA,68.6192468619247,NA
61081,Whiteside County,IL,NA,NA,34.07960199004975,NA,NA
61254,Henry County,IL,NA,NA,NA,76.25523012552301,NA
61270,Whiteside County,IL,NA,NA,NA,78.97489539748955,NA
61350,LaSalle County,IL,NA,NA,53.10945273631841,NA,NA
61554,Tazewell County,IL,NA,NA,NA,12.02928870292887,NA
61764,Livingston County,IL,NA,NA,73.2587064676617,NA,NA
61802,Champaign County,IL,NA,NA,NA,NA,18.972332015810274
61820,Champaign County,IL,NA,NA,NA,NA,74.50592885375494
61821,Champaign County,IL,NA,NA,86.81592039800995,NA,47.233201581027664
61822,Champaign County,IL,NA,NA,83.33333333333334,51.46443514644351,25.691699604743086
61853,Champaign County,IL,NA,NA,NA,NA,32.608695652173914
61866,Champaign County,IL,NA,NA,75,70.81589958158996,89.72332015810277
61873,Champaign County,IL,NA,NA,NA,96.02510460251045,76.87747035573122
61883,Vermilion County,IL,NA,NA,97.13930348258707,NA,NA
62305,Adams County,IL,NA,NA,73.50746268656717,60.77405857740585,NA
62526,Macon County,IL,NA,NA,NA,35.66945606694561,NA
62703,Sangamon County,IL,NA,NA,NA,30.439330543933053,NA
46038,Hamilton County,IN,NA,NA,62.189054726368155,NA,NA
46112,Hendricks County,IN,NA,NA,NA,NA,33.794466403162055
46203,Marion County,IN,NA,NA,11.194029850746269,14.539748953974897,NA
46222,Marion County,IN,48.51851851851852,NA,NA,NA,NA
46227,Marion County,IN,30,NA,NA,NA,NA
46228,Marion County,IN,NA,NA,NA,NA,76.08695652173914
46229,Marion County,IN,NA,NA,26.243781094527364,34.62343096234309,NA
46235,Marion County,IN,NA,NA,NA,90.5857740585774,NA
46241,Marion County,IN,NA,NA,56.96517412935324,NA,NA
46250,Marion County,IN,84.44444444444444,NA,NA,NA,NA
46254,Marion County,IN,NA,NA,NA,31.066945606694564,NA
46260,Marion County,IN,NA,NA,NA,NA,42.490118577075094
46307,Lake County,IN,NA,NA,NA,1.778242677824268,NA
46360,LaPorte County,IN,NA,NA,NA,5.230125523012552,NA
46383,Porter County,IN,NA,NA,NA,5.543933054393305,NA
46517,Elkhart County,IN,NA,NA,53.35820895522389,NA,NA
46816,Allen County,IN,55.18518518518518,NA,NA,NA,NA
47356,Henry County,IN,NA,NA,NA,71.96652719665272,NA
47359,Blackford County,IN,NA,NA,100,NA,NA
47421,Lawrence County,IN,NA,NA,NA,19.560669456066947,NA
47978,Jasper County,IN,NA,NA,NA,68.20083682008368,NA
47987,Fountain County,IN,NA,NA,95.02487562189054,NA,NA
50309,Polk County,IA,NA,NA,NA,88.07531380753139,NA
50310,Polk County,IA,NA,NA,24.253731343283583,NA,NA
50313,Polk County,IA,NA,71.15902964959568,NA,NA,NA
50314,Polk County,IA,NA,NA,92.03980099502488,NA,NA
50315,Polk County,IA,NA,NA,11.069651741293532,NA,NA
50316,Polk County,IA,NA,NA,45.77114427860697,NA,NA
50317,Polk County,IA,NA,NA,14.17910447761194,NA,NA
50322,Polk County,IA,NA,NA,NA,NA,59.28853754940712
50588,Buena Vista County,IA,NA,NA,NA,NA,90.51383399209486
51103,Woodbury County,IA,NA,NA,NA,66.21338912133892,NA
51526,Pottawattamie County,IA,NA,NA,NA,98.64016736401673,NA
52001,Dubuque County,IA,NA,NA,NA,NA,49.40711462450593
52172,Allamakee County,IA,NA,97.30458221024259,NA,NA,NA
52240,Johnson County,IA,NA,54.17789757412399,24.502487562189053,NA,NA
52246,Johnson County,IA,NA,70.08086253369272,NA,NA,NA
52317,Johnson County,IA,NA,73.8544474393531,NA,73.9539748953975,NA
52402,Linn County,IA,NA,NA,55.223880597014926,26.464435146443517,NA
52405,Linn County,IA,NA,NA,NA,45.5020920502092,NA
52632,Lee County,IA,NA,NA,NA,35.98326359832636,NA
52742,Clinton County,IA,NA,NA,88.05970149253731,NA,NA
52778,Muscatine County,IA,NA,NA,NA,99.3723849372385,NA
66006,Douglas County,KS,NA,NA,NA,91.52719665271967,NA
66604,Shawnee County,KS,NA,NA,NA,42.99163179916318,NA
67301,Montgomery County,KS,NA,NA,NA,75,NA
40033,Marion County,KY,NA,NA,62.56218905472637,NA,NA
40383,Woodford County,KY,NA,NA,NA,46.02510460251046,NA
40503,Fayette County,KY,NA,NA,NA,87.76150627615063,NA
40517,Fayette County,KY,NA,NA,NA,43.82845188284519,NA
41001,Campbell County,KY,53.333333333333336,NA,NA,NA,55.33596837944664
41042,Boone County,KY,21.48148148148148,NA,NA,NA,NA
41139,Greenup County,KY,NA,NA,NA,59.51882845188285,NA
41465,Magoffin County,KY,NA,NA,NA,NA,84.18972332015811
41501,Pike County,KY,NA,NA,14.427860696517413,78.24267782426779,32.21343873517787
41522,Pike County,KY,NA,NA,NA,87.02928870292888,NA
41858,Letcher County,KY,NA,NA,NA,NA,62.25296442687747
42025,Marshall County,KY,NA,NA,NA,44.76987447698745,NA
42501,Pulaski County,KY,NA,NA,NA,59.83263598326359,NA
70002,Jefferson Parish,LA,NA,35.84905660377358,NA,NA,NA
70003,Jefferson Parish,LA,NA,NA,10.44776119402985,NA,NA
70043,St. Bernard Parish,LA,18.14814814814815,NA,NA,NA,NA
70056,Jefferson Parish,LA,NA,NA,NA,69.6652719665272,NA
70058,Jefferson Parish,LA,NA,NA,NA,12.866108786610878,NA
70065,Jefferson Parish,LA,NA,NA,NA,NA,5.138339920948617
70068,St. John the Baptist Parish,LA,NA,4.31266846361186,NA,18.305439330543933,31.818181818181817
70072,Jefferson Parish,LA,NA,NA,1.8656716417910446,NA,34.980237154150196
70085,St. Bernard Parish,LA,NA,NA,NA,99.89539748953975,NA
70086,St. James Parish,LA,NA,98.11320754716981,NA,NA,NA
70094,Jefferson Parish,LA,NA,33.42318059299191,NA,NA,80.23715415019763
70114,Orleans Parish,LA,NA,NA,12.56218905472637,NA,62.055335968379445
70115,Orleans Parish,LA,NA,NA,NA,24.476987447698743,NA
70118,Orleans Parish,LA,NA,NA,NA,20.188284518828453,NA
70124,Orleans Parish,LA,NA,NA,NA,92.57322175732217,NA
70126,Orleans Parish,LA,NA,NA,NA,58.05439330543933,NA
70127,Orleans Parish,LA,4.074074074074074,NA,NA,31.485355648535563,NA
70128,Orleans Parish,LA,NA,9.164420485175203,NA,NA,NA
70130,Orleans Parish,LA,NA,NA,NA,84.6234309623431,NA
70131,Orleans Parish,LA,NA,NA,NA,83.57740585774059,NA
70301,Lafourche Parish,LA,NA,NA,NA,9.937238493723848,NA
70359,Terrebonne Parish,LA,NA,63.881401617250674,NA,NA,NA
70363,Terrebonne Parish,LA,NA,NA,23.6318407960199,NA,NA
70364,Terrebonne Parish,LA,NA,NA,34.20398009950249,NA,NA
70394,Lafourche Parish,LA,95.55555555555556,NA,NA,NA,NA
70433,St. Tammany Parish,LA,NA,NA,8.955223880597014,71.86192468619247,6.521739130434782
70438,Washington Parish,LA,NA,NA,NA,14.958158995815898,NA
70452,St. Tammany Parish,LA,NA,NA,NA,NA,61.26482213438735
70458,St. Tammany Parish,LA,NA,3.7735849056603774,7.338308457711443,NA,NA
70460,St. Tammany Parish,LA,NA,2.15633423180593,NA,NA,48.418972332015805
70461,St. Tammany Parish,LA,NA,NA,NA,21.02510460251046,45.65217391304348
70471,St. Tammany Parish,LA,65.92592592592592,NA,NA,22.17573221757322,NA
70507,Lafayette Parish,LA,NA,NA,76.61691542288557,NA,NA
70517,St. Martin Parish,LA,NA,NA,64.55223880597015,NA,NA
70526,Acadia Parish,LA,NA,NA,NA,NA,85.96837944664031
70578,Acadia Parish,LA,NA,NA,NA,NA,98.22134387351778
70601,Calcasieu Parish,LA,NA,NA,NA,9.728033472803348,NA
70706,Livingston Parish,LA,NA,NA,NA,60.56485355648535,NA
70714,East Baton Rouge Parish,LA,NA,NA,NA,52.61506276150628,NA
70726,Livingston Parish,LA,NA,NA,NA,39.64435146443515,NA
70737,Ascension Parish,LA,NA,80.86253369272237,NA,NA,NA
70754,Livingston Parish,LA,NA,NA,NA,NA,79.05138339920948
70769,Ascension Parish,LA,NA,72.23719676549865,NA,39.74895397489539,NA
70774,Ascension Parish,LA,NA,95.14824797843666,NA,NA,NA
70791,East Baton Rouge Parish,LA,NA,53.36927223719676,NA,NA,NA
70806,East Baton Rouge Parish,LA,NA,NA,NA,NA,41.50197628458498
70807,East Baton Rouge Parish,LA,NA,NA,NA,94.0376569037657,NA
70808,East Baton Rouge Parish,LA,NA,NA,NA,42.57322175732218,47.43083003952569
70809,East Baton Rouge Parish,LA,NA,NA,NA,79.60251046025104,41.89723320158103
70810,East Baton Rouge Parish,LA,NA,NA,NA,28.451882845188287,NA
70815,East Baton Rouge Parish,LA,NA,21.024258760107816,NA,85.35564853556485,NA
70818,East Baton Rouge Parish,LA,NA,71.69811320754717,NA,73.43096234309623,NA
71006,Bossier Parish,LA,NA,NA,NA,70.50209205020921,NA
71047,Caddo Parish,LA,NA,NA,NA,51.15062761506276,NA
71104,Caddo Parish,LA,NA,70.88948787061994,NA,NA,NA
71202,Ouachita Parish,LA,NA,4.0431266846361185,NA,NA,NA
71291,Ouachita Parish,LA,NA,NA,NA,31.694560669456067,NA
71295,Franklin Parish,LA,28.888888888888886,NA,NA,NA,NA
71360,Rapides Parish,LA,NA,NA,42.41293532338308,28.661087866108787,NA
71423,Grant Parish,LA,NA,83.28840970350404,NA,NA,NA
04011,Cumberland County,ME,67.4074074074074,NA,NA,NA,NA
04062,Cumberland County,ME,68.51851851851852,NA,NA,NA,NA
04072,York County,ME,NA,NA,NA,19.874476987447697,NA
04079,Cumberland County,ME,NA,NA,99.00497512437812,NA,NA
04086,Sagadahoc County,ME,NA,NA,NA,NA,48.81422924901186
04105,Cumberland County,ME,NA,NA,NA,80.23012552301255,NA
04330,Kennebec County,ME,NA,NA,NA,7.217573221757322,13.636363636363635
04345,Kennebec County,ME,NA,NA,NA,81.90376569037657,NA
04530,Sagadahoc County,ME,NA,NA,68.1592039800995,NA,86.56126482213439
20613,Prince George's County,MD,NA,NA,85.82089552238806,NA,NA
20678,Calvert County,MD,NA,NA,NA,79.18410041841004,NA
20721,Prince George's County,MD,NA,NA,77.98507462686567,NA,NA
20910,Montgomery County,MD,NA,NA,NA,79.39330543933055,NA
21042,Howard County,MD,NA,NA,72.01492537313433,NA,NA
21093,Baltimore County,MD,NA,NA,46.89054726368159,NA,NA
21117,Baltimore County,MD,51.48148148148148,NA,66.16915422885572,62.13389121338913,NA
21128,Baltimore County,MD,NA,NA,88.05970149253731,NA,NA
21202,Baltimore city,MD,NA,NA,46.01990049751244,57.74058577405857,NA
21204,Baltimore County,MD,NA,NA,72.2636815920398,NA,NA
21205,Baltimore city,MD,NA,NA,51.865671641791046,NA,NA
21208,Baltimore County,MD,NA,NA,NA,33.995815899581586,NA
21213,Baltimore city,MD,NA,NA,55.348258706467654,NA,NA
21214,Baltimore city,MD,NA,NA,NA,70.39748953974896,NA
21215,Baltimore city,MD,NA,NA,34.701492537313435,41.63179916317992,NA
21216,Baltimore city,MD,NA,NA,NA,23.744769874476987,NA
21218,Baltimore city,MD,NA,NA,40.049751243781095,NA,7.707509881422925
21221,Baltimore County,MD,NA,NA,22.512437810945272,NA,NA
21223,Baltimore city,MD,NA,NA,68.28358208955224,NA,NA
21224,Baltimore city,MD,NA,NA,NA,36.71548117154811,NA
21227,Baltimore County,MD,NA,NA,59.20398009950249,NA,NA
21231,Baltimore city,MD,NA,NA,68.53233830845771,68.41004184100419,NA
21234,Baltimore County,MD,NA,NA,51.11940298507462,NA,NA
21236,Baltimore County,MD,NA,NA,42.91044776119403,NA,NA
21237,Baltimore County,MD,NA,NA,82.83582089552239,NA,NA
21244,Baltimore County,MD,NA,NA,48.00995024875622,NA,NA
21502,Allegany County,MD,NA,NA,NA,19.665271966527197,NA
21601,Talbot County,MD,NA,NA,NA,45.0836820083682,NA
01013,Hampden County,MA,NA,NA,20.771144278606965,NA,NA
01085,Hampden County,MA,NA,NA,2.1144278606965177,NA,NA
01089,Hampden County,MA,NA,NA,5.099502487562189,NA,NA
01095,Hampden County,MA,NA,NA,NA,65.3765690376569,NA
01104,Hampden County,MA,NA,9.973045822102426,NA,0.7322175732217573,NA
01105,Hampden County,MA,NA,8.89487870619946,3.6069651741293534,NA,NA
01109,Hampden County,MA,NA,2.4258760107816713,10.199004975124378,60.25104602510461,NA
01119,Hampden County,MA,NA,NA,NA,48.95397489539749,NA
01501,Worcester County,MA,NA,NA,NA,33.89121338912134,NA
01510,Worcester County,MA,NA,NA,22.885572139303484,NA,NA
01532,Worcester County,MA,NA,NA,NA,NA,54.1501976284585
01540,Worcester County,MA,NA,NA,43.53233830845771,NA,NA
01550,Worcester County,MA,NA,NA,NA,3.6610878661087867,NA
01562,Worcester County,MA,NA,NA,31.094527363184078,NA,NA
01570,Worcester County,MA,NA,NA,5.721393034825871,NA,NA
01603,Worcester County,MA,9.62962962962963,NA,NA,NA,NA
01605,Worcester County,MA,1.1111111111111112,NA,NA,8.891213389121338,NA
01606,Worcester County,MA,NA,NA,NA,17.154811715481173,NA
01609,Worcester County,MA,NA,NA,3.109452736318408,NA,NA
01610,Worcester County,MA,NA,NA,1.3681592039800996,NA,NA
01702,Middlesex County,MA,NA,NA,NA,5.96234309623431,NA
01720,Middlesex County,MA,NA,NA,NA,NA,87.54940711462451
01730,Middlesex County,MA,NA,NA,NA,NA,22.33201581027668
01748,Middlesex County,MA,NA,NA,77.11442786069652,NA,NA
01752,Middlesex County,MA,NA,NA,3.8557213930348255,NA,NA
01778,Middlesex County,MA,NA,NA,NA,NA,60.67193675889329
01801,Middlesex County,MA,NA,NA,NA,75.73221757322176,NA
01803,Middlesex County,MA,NA,NA,NA,5.02092050209205,NA
01810,Essex County,MA,NA,NA,NA,52.40585774058577,22.727272727272727
01821,Middlesex County,MA,NA,NA,6.965174129353234,15.690376569037657,40.51383399209486
01824,Middlesex County,MA,NA,NA,NA,NA,10.276679841897234
01832,Essex County,MA,NA,NA,21.144278606965177,NA,NA
01841,Essex County,MA,NA,NA,0,NA,NA
01844,Essex County,MA,NA,NA,NA,24.372384937238493,5.928853754940711
01850,Middlesex County,MA,NA,NA,NA,19.97907949790795,NA
01864,Middlesex County,MA,NA,NA,NA,83.68200836820083,NA
01867,Middlesex County,MA,NA,NA,NA,41.42259414225941,NA
01880,Middlesex County,MA,NA,NA,9.577114427860696,NA,NA
01886,Middlesex County,MA,NA,NA,NA,32.94979079497908,NA
01890,Middlesex County,MA,NA,NA,NA,33.26359832635983,16.205533596837945
01902,Essex County,MA,NA,NA,0.6218905472636816,21.96652719665272,NA
01904,Essex County,MA,NA,NA,NA,13.598326359832635,NA
01905,Essex County,MA,NA,11.859838274932615,NA,NA,NA
01906,Essex County,MA,NA,60.64690026954178,NA,NA,NA
01915,Essex County,MA,NA,NA,NA,0.9414225941422595,NA
01921,Essex County,MA,NA,NA,NA,88.80753138075313,NA
01923,Essex County,MA,NA,NA,NA,55.43933054393305,2.9644268774703555
01930,Essex County,MA,NA,NA,21.26865671641791,0.3138075313807531,NA
01944,Essex County,MA,NA,NA,NA,95.39748953974896,NA
01949,Essex County,MA,NA,NA,NA,67.05020920502092,NA
01950,Essex County,MA,NA,NA,NA,25.2092050209205,NA
01960,Essex County,MA,NA,NA,1.4925373134328357,0.10460251046025104,4.150197628458498
01970,Essex County,MA,NA,NA,9.45273631840796,NA,NA
01982,Essex County,MA,NA,NA,NA,84.4142259414226,NA
01983,Essex County,MA,NA,NA,NA,NA,80.63241106719367
01985,Essex County,MA,NA,NA,NA,86.40167364016736,NA
02035,Norfolk County,MA,NA,NA,36.44278606965174,NA,NA
02043,Plymouth County,MA,NA,NA,NA,51.987447698744774,NA
02050,Plymouth County,MA,NA,NA,NA,25,NA
02054,Norfolk County,MA,NA,NA,NA,90.89958158995816,NA
02072,Norfolk County,MA,54.81481481481482,NA,NA,38.70292887029289,13.83399209486166
02111,Suffolk County,MA,NA,NA,85.07462686567165,NA,30.632411067193676
02115,Suffolk County,MA,NA,53.09973045822103,NA,26.15062761506276,NA
02116,Suffolk County,MA,NA,NA,NA,NA,52.37154150197628
02118,Suffolk County,MA,32.96296296296296,13.746630727762804,0.12437810945273632,NA,33.39920948616601
02119,Suffolk County,MA,NA,10.512129380053908,13.805970149253731,24.686192468619247,4.940711462450593
02120,Suffolk County,MA,NA,58.22102425876011,48.383084577114424,NA,NA
02121,Suffolk County,MA,NA,29.380053908355798,13.059701492537313,18.828451882845187,51.976284584980235
02122,Suffolk County,MA,35.18518518518518,46.900269541778975,26.990049751243784,12.447698744769875,12.648221343873518
02124,Suffolk County,MA,NA,NA,22.01492537313433,3.0334728033472804,16.40316205533597
02125,Suffolk County,MA,NA,19.946091644204852,0.9950248756218906,46.96652719665272,41.50197628458498
02126,Suffolk County,MA,NA,12.129380053908356,25,61.92468619246861,NA
02127,Suffolk County,MA,NA,12.93800539083558,12.313432835820896,NA,NA
02128,Suffolk County,MA,NA,22.10242587601078,NA,1.2552301255230125,53.75494071146245
02129,Suffolk County,MA,NA,14.824797843665769,21.393034825870647,63.91213389121339,NA
02130,Suffolk County,MA,28.51851851851852,NA,35.07462686567165,NA,NA
02131,Suffolk County,MA,NA,45.82210242587601,41.66666666666667,NA,NA
02132,Suffolk County,MA,NA,NA,15.049751243781095,1.882845188284519,NA
02134,Suffolk County,MA,NA,52.56064690026954,NA,82.84518828451883,NA
02135,Suffolk County,MA,NA,NA,4.850746268656716,NA,NA
02136,Suffolk County,MA,11.11111111111111,NA,NA,30.230125523012553,8.893280632411066
02138,Middlesex County,MA,NA,NA,15.17412935323383,NA,NA
02139,Middlesex County,MA,NA,NA,0.4975124378109453,NA,15.217391304347828
02140,Middlesex County,MA,NA,NA,NA,NA,28.063241106719367
02141,Middlesex County,MA,NA,NA,32.33830845771145,26.569037656903767,NA
02143,Middlesex County,MA,NA,22.641509433962266,NA,43.93305439330544,71.73913043478261
02144,Middlesex County,MA,NA,NA,87.06467661691542,11.297071129707113,23.91304347826087
02145,Middlesex County,MA,NA,14.285714285714285,6.0945273631840795,42.15481171548117,43.280632411067195
02148,Middlesex County,MA,NA,17.52021563342318,2.6119402985074625,47.48953974895397,1.185770750988142
02149,Middlesex County,MA,1.8518518518518516,27.49326145552561,0.24875621890547264,NA,NA
02150,Suffolk County,MA,NA,NA,5.970149253731343,1.0460251046025104,6.324110671936759
02151,Suffolk County,MA,NA,5.929919137466308,13.930348258706468,1.5690376569037656,NA
02152,Suffolk County,MA,NA,NA,NA,NA,11.857707509881422
02155,Middlesex County,MA,NA,48.24797843665768,69.90049751243781,34.30962343096235,0.9881422924901186
02169,Norfolk County,MA,NA,30.18867924528302,1.1194029850746268,NA,11.067193675889328
02180,Middlesex County,MA,NA,57.68194070080862,16.169154228855724,NA,14.031620553359684
02184,Norfolk County,MA,NA,18.598382749326145,29.1044776119403,8.786610878661087,NA
02186,Norfolk County,MA,NA,NA,47.636815920398014,NA,NA
02189,Norfolk County,MA,NA,64.95956873315365,NA,NA,NA
02347,Plymouth County,MA,NA,NA,75.3731343283582,NA,NA
02351,Plymouth County,MA,NA,NA,NA,25.10460251046025,NA
02360,Plymouth County,MA,NA,NA,NA,0,NA
02364,Plymouth County,MA,NA,NA,NA,64.43514644351464,NA
02368,Norfolk County,MA,NA,NA,2.4875621890547266,NA,NA
02421,Middlesex County,MA,NA,NA,21.890547263681594,NA,NA
02446,Norfolk County,MA,NA,NA,NA,NA,11.6600790513834
02452,Middlesex County,MA,73.70370370370371,NA,66.29353233830845,NA,NA
02453,Middlesex County,MA,NA,NA,NA,15.585774058577407,NA
02458,Middlesex County,MA,NA,NA,NA,NA,46.837944664031625
02461,Middlesex County,MA,NA,NA,NA,69.76987447698745,NA
02465,Middlesex County,MA,NA,NA,59.079601990049746,NA,NA
02467,Norfolk County,MA,NA,NA,NA,NA,32.015810276679844
02478,Middlesex County,MA,66.66666666666666,NA,75.12437810945273,77.19665271966527,NA
02492,Norfolk County,MA,NA,NA,NA,NA,44.66403162055336
02703,Bristol County,MA,NA,NA,NA,0.8368200836820083,NA
02720,Bristol County,MA,6.296296296296296,NA,NA,NA,NA
02745,Bristol County,MA,NA,NA,NA,9.518828451882845,NA
02760,Bristol County,MA,NA,NA,NA,NA,52.96442687747036
02769,Bristol County,MA,NA,NA,50.62189054726368,NA,NA
02771,Bristol County,MA,NA,NA,42.66169154228855,NA,NA
02780,Bristol County,MA,NA,NA,0.7462686567164178,NA,NA
48025,Oakland County,MI,NA,NA,NA,NA,63.83399209486166
48038,Macomb County,MI,NA,NA,17.039800995024876,NA,NA
48042,Macomb County,MI,NA,NA,NA,28.661087866108787,NA
48067,Oakland County,MI,NA,NA,40.42288557213931,NA,NA
48080,Macomb County,MI,NA,NA,70.77114427860697,NA,NA
48091,Macomb County,MI,NA,NA,NA,16.527196652719663,NA
48093,Macomb County,MI,NA,NA,NA,39.53974895397489,NA
48098,Oakland County,MI,NA,NA,NA,NA,51.77865612648221
48103,Washtenaw County,MI,NA,35.04043126684636,NA,1.3598326359832638,2.766798418972332
48104,Washtenaw County,MI,NA,NA,NA,35.46025104602511,NA
48105,Washtenaw County,MI,NA,NA,NA,90.06276150627615,3.9525691699604746
48108,Washtenaw County,MI,NA,NA,NA,32.21757322175732,62.450592885375485
48111,Wayne County,MI,NA,NA,9.07960199004975,6.589958158995817,29.051383399209485
48114,Livingston County,MI,NA,NA,NA,28.556485355648537,NA
48116,Livingston County,MI,NA,NA,NA,16.84100418410042,NA
48124,Wayne County,MI,NA,NA,22.388059701492537,24.790794979079497,NA
48126,Wayne County,MI,NA,NA,60.69651741293532,NA,NA
48130,Washtenaw County,MI,NA,NA,80.84577114427861,39.22594142259414,NA
48141,Wayne County,MI,27.037037037037038,NA,NA,NA,34.78260869565217
48150,Wayne County,MI,NA,NA,NA,22.384937238493723,NA
48152,Wayne County,MI,NA,NA,NA,55.3347280334728,NA
48154,Wayne County,MI,NA,NA,NA,36.19246861924686,8.300395256916996
48161,Monroe County,MI,NA,NA,9.701492537313433,NA,NA
48162,Monroe County,MI,NA,56.06469002695418,NA,NA,NA
48165,Oakland County,MI,NA,NA,NA,NA,77.4703557312253
48167,Oakland County,MI,NA,NA,44.02985074626866,63.28451882845189,16.600790513833992
48168,Wayne County,MI,NA,NA,NA,41.10878661087866,NA
48169,Livingston County,MI,NA,NA,51.61691542288557,NA,NA
48170,Wayne County,MI,NA,NA,NA,3.556485355648536,NA
48176,Washtenaw County,MI,NA,NA,NA,61.50627615062761,NA
48178,Oakland County,MI,NA,NA,NA,14.01673640167364,NA
48180,Wayne County,MI,3.7037037037037033,NA,NA,NA,NA
48183,Wayne County,MI,NA,NA,NA,6.7991631799163175,NA
48184,Wayne County,MI,NA,NA,NA,NA,73.12252964426878
48185,Wayne County,MI,NA,NA,7.587064676616915,7.531380753138076,9.881422924901186
48186,Wayne County,MI,NA,NA,NA,12.133891213389122,NA
48187,Wayne County,MI,NA,NA,40.298507462686565,NA,NA
48188,Wayne County,MI,NA,NA,16.666666666666664,8.263598326359832,NA
48189,Washtenaw County,MI,NA,NA,63.43283582089553,54.39330543933054,NA
48197,Washtenaw County,MI,33.33333333333333,NA,2.736318407960199,52.928870292887034,52.569169960474305
48198,Washtenaw County,MI,NA,NA,NA,14.330543933054393,27.4703557312253
48202,Wayne County,MI,NA,NA,NA,86.61087866108787,NA
48208,Wayne County,MI,NA,NA,60.447761194029844,NA,NA
48210,Wayne County,MI,NA,NA,NA,NA,92.4901185770751
48212,Wayne County,MI,NA,NA,NA,13.912133891213388,NA
48214,Wayne County,MI,NA,86.25336927223721,NA,NA,NA
48219,Wayne County,MI,NA,NA,NA,3.3472803347280333,NA
48224,Wayne County,MI,NA,NA,18.53233830845771,NA,NA
48228,Wayne County,MI,NA,37.735849056603776,NA,8.368200836820083,NA
48230,Wayne County,MI,NA,NA,55.59701492537313,NA,NA
48237,Oakland County,MI,NA,NA,NA,NA,31.422924901185773
48239,Wayne County,MI,NA,NA,10.696517412935323,NA,NA
48302,Oakland County,MI,NA,NA,NA,48.11715481171548,NA
48309,Oakland County,MI,NA,NA,37.06467661691542,NA,NA
48312,Macomb County,MI,NA,NA,NA,NA,10.67193675889328
48322,Oakland County,MI,NA,NA,NA,8.99581589958159,NA
48341,Oakland County,MI,NA,NA,65.4228855721393,NA,NA
48346,Oakland County,MI,NA,78.97574123989219,40.79601990049751,NA,NA
48353,Livingston County,MI,94.07407407407408,86.79245283018868,NA,NA,NA
48375,Oakland County,MI,NA,NA,NA,52.719665271966534,NA
48377,Oakland County,MI,NA,NA,NA,NA,33.00395256916996
48380,Oakland County,MI,NA,NA,NA,NA,85.17786561264822
48382,Oakland County,MI,NA,NA,NA,35.87866108786611,63.63636363636363
48383,Oakland County,MI,NA,NA,NA,NA,70.15810276679841
48386,Oakland County,MI,NA,NA,NA,75.83682008368201,NA
48390,Oakland County,MI,NA,NA,NA,NA,39.32806324110672
48393,Oakland County,MI,NA,NA,NA,NA,79.2490118577075
48439,Genesee County,MI,NA,NA,NA,16.317991631799163,NA
48473,Genesee County,MI,NA,NA,NA,40.79497907949791,NA
48602,Saginaw County,MI,NA,NA,3.9800995024875623,NA,NA
48609,Saginaw County,MI,NA,NA,NA,64.1213389121339,NA
48640,Midland County,MI,NA,NA,11.940298507462686,NA,NA
48706,Bay County,MI,NA,NA,NA,NA,4.743083003952568
48734,Saginaw County,MI,NA,NA,NA,76.98744769874477,NA
48843,Livingston County,MI,NA,NA,NA,4.602510460251046,NA
48858,Isabella County,MI,NA,NA,NA,7.112970711297072,11.857707509881422
48880,Gratiot County,MI,NA,NA,NA,84.30962343096235,NA
48911,Ingham County,MI,NA,NA,NA,15.899581589958158,NA
49006,Kalamazoo County,MI,NA,NA,NA,63.70292887029289,NA
49015,Calhoun County,MI,32.22222222222222,NA,NA,NA,NA
49022,Berrien County,MI,NA,NA,NA,13.07531380753138,NA
49037,Calhoun County,MI,15.925925925925927,NA,NA,NA,NA
49080,Allegan County,MI,NA,NA,46.517412935323385,NA,NA
49203,Jackson County,MI,NA,NA,NA,8.05439330543933,NA
49228,Lenawee County,MI,NA,NA,NA,NA,95.0592885375494
49265,Lenawee County,MI,NA,NA,NA,NA,94.26877470355731
49418,Kent County,MI,NA,NA,NA,NA,28.063241106719367
49464,Ottawa County,MI,NA,NA,NA,37.55230125523013,NA
49601,Wexford County,MI,NA,NA,NA,NA,36.16600790513834
49646,Kalkaska County,MI,NA,NA,NA,NA,78.26086956521739
49855,Marquette County,MI,NA,NA,NA,17.259414225941423,NA
49953,Ontonagon County,MI,NA,NA,NA,86.29707112970712,NA
55008,Isanti County,MN,57.407407407407405,NA,NA,NA,NA
55025,Washington County,MN,51.11111111111111,NA,NA,NA,NA
55066,Goodhue County,MN,NA,NA,NA,55.85774058577406,64.62450592885376
55103,Ramsey County,MN,NA,NA,NA,NA,93.2806324110672
55104,Ramsey County,MN,13.703703703703704,NA,NA,NA,NA
55105,Ramsey County,MN,70.37037037037037,NA,NA,87.44769874476988,NA
55106,Ramsey County,MN,NA,NA,NA,NA,50.19762845849802
55107,Ramsey County,MN,NA,74.93261455525607,NA,NA,NA
55112,Ramsey County,MN,NA,NA,44.90049751243781,26.88284518828452,NA
55113,Ramsey County,MN,NA,NA,NA,47.90794979079498,27.07509881422925
55116,Ramsey County,MN,NA,NA,69.15422885572139,NA,NA
55117,Ramsey County,MN,11.11111111111111,NA,NA,NA,NA
55118,Dakota County,MN,NA,NA,NA,44.35146443514644,NA
55121,Dakota County,MN,NA,77.088948787062,NA,NA,NA
55122,Dakota County,MN,NA,79.78436657681941,NA,NA,NA
55124,Dakota County,MN,NA,NA,NA,73.5355648535565,NA
55129,Washington County,MN,NA,NA,NA,96.33891213389121,NA
55130,Ramsey County,MN,NA,NA,80.09950248756219,NA,NA
55343,Hennepin County,MN,NA,NA,76.86567164179104,NA,NA
55347,Hennepin County,MN,NA,NA,68.53233830845771,NA,NA
55350,McLeod County,MN,NA,NA,NA,NA,20.35573122529644
55376,Wright County,MN,NA,NA,NA,89.85355648535564,NA
55378,Scott County,MN,49.629629629629626,NA,NA,NA,NA
55390,Wright County,MN,NA,NA,NA,99.581589958159,NA
55404,Hennepin County,MN,NA,24.528301886792452,1.7412935323383085,44.97907949790795,NA
55406,Hennepin County,MN,NA,31.805929919137466,61.442786069651746,NA,NA
55407,Hennepin County,MN,NA,45.55256064690027,8.333333333333332,NA,NA
55408,Hennepin County,MN,25.925925925925924,NA,42.28855721393035,75,67.58893280632411
55411,Hennepin County,MN,21.85185185185185,15.09433962264151,NA,NA,NA
55412,Hennepin County,MN,NA,9.433962264150944,NA,39.9581589958159,NA
55413,Hennepin County,MN,NA,NA,46.14427860696517,NA,NA
55414,Hennepin County,MN,NA,NA,NA,92.57322175732217,NA
55418,Hennepin County,MN,NA,NA,78.98009950248756,NA,NA
55419,Hennepin County,MN,NA,29.380053908355798,78.48258706467661,NA,NA
55420,Hennepin County,MN,NA,NA,NA,NA,45.059288537549406
55422,Hennepin County,MN,NA,NA,81.46766169154229,NA,NA
55423,Hennepin County,MN,NA,14.016172506738545,NA,NA,37.54940711462451
55427,Hennepin County,MN,NA,NA,NA,63.28451882845189,NA
55428,Hennepin County,MN,NA,NA,NA,69.0376569037657,35.37549407114625
55429,Hennepin County,MN,NA,37.19676549865229,NA,74.3723849372385,NA
55431,Hennepin County,MN,NA,NA,NA,NA,71.14624505928853
55432,Anoka County,MN,NA,69.2722371967655,NA,NA,94.86166007905138
55433,Anoka County,MN,NA,NA,NA,82.63598326359832,NA
55436,Hennepin County,MN,NA,NA,NA,NA,72.72727272727273
55441,Hennepin County,MN,NA,NA,74.37810945273633,62.44769874476987,NA
55443,Hennepin County,MN,NA,NA,34.32835820895522,NA,NA
55448,Anoka County,MN,NA,NA,44.776119402985074,NA,NA
55449,Anoka County,MN,NA,NA,81.96517412935323,NA,NA
55454,Hennepin County,MN,NA,40.43126684636118,NA,NA,NA
55720,Carlton County,MN,64.44444444444444,42.58760107816711,NA,NA,42.094861660079054
55734,St. Louis County,MN,NA,NA,NA,76.56903765690377,NA
55744,Itasca County,MN,NA,23.450134770889488,NA,NA,NA
55746,St. Louis County,MN,NA,NA,27.736318407960198,NA,NA
55792,St. Louis County,MN,NA,NA,71.26865671641791,NA,NA
55803,St. Louis County,MN,NA,88.67924528301887,NA,NA,69.56521739130434
55804,St. Louis County,MN,NA,NA,73.75621890547264,NA,91.699604743083
55805,St. Louis County,MN,NA,NA,77.61194029850746,NA,NA
55806,St. Louis County,MN,NA,NA,62.93532338308457,NA,NA
55807,St. Louis County,MN,NA,NA,52.23880597014925,91.84100418410041,NA
55808,St. Louis County,MN,NA,NA,NA,92.57322175732217,NA
55810,St. Louis County,MN,NA,NA,NA,NA,67.98418972332016
55811,St. Louis County,MN,NA,NA,33.2089552238806,53.03347280334728,3.557312252964427
55812,St. Louis County,MN,NA,NA,93.65671641791045,89.1213389121339,NA
55901,Olmsted County,MN,NA,29.919137466307276,29.47761194029851,27.30125523012552,NA
55902,Olmsted County,MN,NA,NA,NA,NA,65.21739130434783
55904,Olmsted County,MN,NA,38.274932614555254,40.17412935323383,38.28451882845189,37.94466403162055
55906,Olmsted County,MN,NA,NA,73.00995024875621,88.28451882845188,NA
55912,Mower County,MN,17.037037037037038,7.816711590296496,64.80099502487562,71.1297071129707,38.14229249011858
55921,Houston County,MN,NA,NA,NA,94.97907949790795,88.53754940711462
55947,Houston County,MN,NA,NA,94.27860696517413,60.04184100418411,NA
55975,Fillmore County,MN,NA,NA,NA,NA,88.14229249011858
55987,Winona County,MN,NA,NA,10.572139303482588,69.4560669456067,21.73913043478261
56007,Freeborn County,MN,NA,24.528301886792452,84.5771144278607,9.414225941422593,2.1739130434782608
56013,Faribault County,MN,NA,NA,NA,NA,74.1106719367589
56031,Martin County,MN,39.62962962962963,NA,50,20.711297071129707,NA
56097,Faribault County,MN,NA,NA,NA,98.22175732217573,NA
56258,Lyon County,MN,NA,NA,75.74626865671642,96.75732217573221,45.45454545454545
56267,Stevens County,MN,NA,NA,NA,NA,75.09881422924902
56283,Redwood County,MN,NA,NA,NA,82.74058577405857,NA
56308,Douglas County,MN,NA,NA,NA,NA,7.312252964426877
56379,Benton County,MN,NA,NA,86.69154228855722,NA,NA
56464,Wadena County,MN,NA,NA,NA,91.42259414225941,NA
56470,Hubbard County,MN,NA,NA,NA,37.761506276150634,71.34387351778656
56482,Wadena County,MN,41.85185185185185,NA,NA,NA,NA
56484,Cass County,MN,NA,NA,92.16417910447761,NA,NA
56501,Becker County,MN,NA,41.509433962264154,41.7910447761194,63.59832635983263,NA
56529,Clay County,MN,NA,NA,96.51741293532339,NA,NA
56537,Otter Tail County,MN,NA,NA,70.02487562189054,10.564853556485355,87.94466403162056
56560,Clay County,MN,NA,26.954177897574123,57.33830845771144,27.09205020920502,13.438735177865613
56572,Otter Tail County,MN,NA,NA,95.02487562189054,NA,NA
56601,Beltrami County,MN,NA,NA,50.49751243781094,33.36820083682008,72.33201581027669
56621,Clearwater County,MN,NA,NA,83.45771144278606,NA,NA
56630,Beltrami County,MN,NA,NA,NA,NA,99.80237154150198
56633,Hubbard County,MN,NA,NA,96.64179104477611,73.64016736401673,NA
56649,Koochiching County,MN,NA,NA,NA,58.15899581589959,NA
38618,Tate County,MS,NA,NA,86.44278606965175,NA,NA
38632,DeSoto County,MS,NA,NA,NA,66.94560669456067,NA
39083,Copiah County,MS,75.18518518518519,NA,NA,NA,NA
39114,Simpson County,MS,85.92592592592592,NA,NA,NA,NA
39328,Kemper County,MS,94.07407407407408,NA,NA,NA,NA
39350,Neshoba County,MS,NA,66.0377358490566,NA,NA,36.95652173913043
39402,Lamar County,MS,NA,NA,NA,NA,53.16205533596838
39466,Pearl River County,MS,NA,NA,NA,71.23430962343096,NA
39652,Pike County,MS,NA,NA,NA,79.2887029288703,NA
39667,Walthall County,MS,NA,NA,NA,65.27196652719665,NA
63031,St. Louis County,MO,NA,NA,NA,12.343096234309623,NA
63049,Jefferson County,MO,81.85185185185185,NA,NA,NA,NA
63111,St. Louis city,MO,NA,42.857142857142854,NA,NA,NA
63115,St. Louis city,MO,NA,NA,NA,56.06694560669456,NA
63132,St. Louis County,MO,NA,NA,NA,83.26359832635984,NA
63301,St. Charles County,MO,23.703703703703706,NA,17.66169154228856,NA,NA
63366,St. Charles County,MO,18.51851851851852,NA,NA,NA,NA
63368,St. Charles County,MO,NA,NA,NA,22.594142259414227,NA
63501,Adair County,MO,88.51851851851852,NA,NA,NA,NA
64012,Cass County,MO,NA,38.544474393531,NA,NA,NA
64030,Jackson County,MO,NA,62.8032345013477,NA,NA,NA
64053,Jackson County,MO,NA,NA,NA,94.14225941422593,NA
64055,Jackson County,MO,NA,NA,9.82587064676617,NA,NA
64078,Cass County,MO,NA,69.81132075471697,NA,NA,NA
64081,Jackson County,MO,NA,NA,NA,40.89958158995816,NA
64106,Jackson County,MO,NA,NA,NA,61.08786610878661,NA
64108,Jackson County,MO,NA,NA,NA,86.92468619246861,NA
64109,Jackson County,MO,NA,NA,30.845771144278604,35.56485355648535,87.74703557312253
64114,Jackson County,MO,NA,NA,NA,43.30543933054393,NA
64116,Clay County,MO,NA,NA,26.492537313432834,NA,NA
64117,Clay County,MO,NA,NA,NA,46.65271966527197,NA
64123,Jackson County,MO,68.14814814814815,NA,75.99502487562188,NA,NA
64124,Jackson County,MO,NA,49.865229110512125,NA,66.10878661087865,NA
64126,Jackson County,MO,NA,NA,96.8905472636816,NA,NA
64127,Jackson County,MO,NA,NA,NA,NA,81.02766798418972
64130,Jackson County,MO,NA,NA,8.83084577114428,NA,NA
64132,Jackson County,MO,NA,NA,NA,NA,77.86561264822134
64133,Jackson County,MO,18.88888888888889,NA,NA,NA,NA
64134,Jackson County,MO,7.037037037037037,NA,16.91542288557214,NA,NA
64138,Jackson County,MO,NA,59.56873315363881,NA,52.30125523012552,NA
64151,Platte County,MO,68.88888888888889,NA,NA,NA,NA
64429,Clinton County,MO,30.37037037037037,NA,NA,NA,NA
64735,Henry County,MO,NA,NA,NA,NA,85.37549407114624
64772,Vernon County,MO,NA,55.25606469002695,NA,NA,NA
64776,St. Clair County,MO,NA,NA,NA,87.86610878661088,NA
65201,Boone County,MO,NA,NA,49.25373134328358,62.65690376569037,NA
65203,Boone County,MO,NA,NA,NA,NA,8.102766798418973
65441,Crawford County,MO,NA,NA,NA,NA,97.62845849802372
65608,Douglas County,MO,NA,NA,NA,80.5439330543933,NA
65721,Christian County,MO,NA,NA,NA,NA,78.85375494071147
65746,Webster County,MO,NA,NA,NA,NA,94.0711462450593
65785,Cedar County,MO,NA,NA,NA,NA,63.24110671936759
65802,Greene County,MO,NA,NA,13.308457711442786,NA,NA
65803,Greene County,MO,NA,NA,NA,12.552301255230125,NA
59019,Stillwater County,MT,93.7037037037037,NA,NA,NA,NA
59101,Yellowstone County,MT,NA,NA,NA,NA,17.786561264822133
59102,Yellowstone County,MT,NA,NA,47.76119402985074,NA,1.5810276679841897
68046,Sarpy County,NE,NA,NA,NA,73.01255230125523,NA
68048,Cass County,NE,NA,NA,NA,NA,97.82608695652173
68105,Douglas County,NE,NA,NA,71.01990049751244,NA,NA
68111,Douglas County,NE,NA,NA,23.258706467661693,NA,NA
68114,Douglas County,NE,NA,NA,81.8407960199005,NA,49.01185770750988
68128,Sarpy County,NE,NA,NA,82.46268656716418,NA,NA
68132,Douglas County,NE,NA,99.46091644204851,NA,NA,NA
68134,Douglas County,NE,NA,NA,NA,NA,56.52173913043478
68505,Lancaster County,NE,NA,NA,NA,90.27196652719665,NA
89129,Clark County,NV,NA,NA,NA,41.945606694560674,NA
89131,Clark County,NV,NA,NA,51.3681592039801,NA,NA
89406,Churchill County,NV,NA,NA,NA,66.63179916317992,NA
03054,Hillsborough County,NH,NA,NA,NA,18.514644351464433,NA
03060,Hillsborough County,NH,NA,NA,NA,11.92468619246862,NA
03063,Hillsborough County,NH,NA,NA,NA,44.8744769874477,NA
03076,Hillsborough County,NH,NA,NA,48.88059701492538,NA,NA
03079,Rockingham County,NH,NA,NA,NA,54.811715481171554,NA
03102,Hillsborough County,NH,NA,NA,23.383084577114428,NA,NA
03431,Cheshire County,NH,NA,NA,32.46268656716418,64.5397489539749,55.92885375494071
03766,Grafton County,NH,NA,NA,NA,NA,50.988142292490124
03878,Strafford County,NH,NA,NA,NA,96.96652719665272,NA
07008,Middlesex County,NJ,NA,NA,28.980099502487562,NA,NA
07011,Passaic County,NJ,NA,NA,NA,63.17991631799163,NA
07030,Hudson County,NJ,60.74074074074074,NA,NA,NA,NA
07076,Union County,NJ,79.25925925925927,NA,NA,NA,NA
07092,Union County,NJ,NA,NA,NA,97.69874476987448,NA
07107,Essex County,NJ,NA,1.078167115902965,NA,NA,NA
07424,Passaic County,NJ,NA,NA,NA,NA,47.62845849802372
07631,Bergen County,NJ,NA,NA,NA,24.05857740585774,NA
07648,Bergen County,NJ,NA,NA,NA,98.5355648535565,NA
07760,Monmouth County,NJ,NA,NA,NA,90.5857740585774,NA
08012,Camden County,NJ,26.666666666666668,NA,NA,NA,NA
08046,Burlington County,NJ,NA,NA,NA,26.98744769874477,NA
08332,Cumberland County,NJ,NA,NA,NA,17.364016736401673,NA
08701,Ocean County,NJ,NA,22.911051212938006,NA,NA,NA
08831,Middlesex County,NJ,46.2962962962963,NA,NA,10.0418410041841,NA
08840,Middlesex County,NJ,99.25925925925925,NA,NA,NA,NA
08901,Middlesex County,NJ,49.25925925925926,29.110512129380055,NA,NA,NA
08902,Middlesex County,NJ,99.62962962962963,NA,NA,NA,NA
87001,Sandoval County,NM,NA,54.98652291105122,NA,NA,NA
87004,Sandoval County,NM,NA,77.088948787062,NA,NA,NA
87013,Sandoval County,NM,NA,63.61185983827493,94.5273631840796,99.3723849372385,NA
87020,Cibola County,NM,NA,NA,93.28358208955224,76.67364016736403,NA
87024,Sandoval County,NM,96.29629629629629,NA,NA,NA,NA
87026,Valencia County,NM,NA,NA,92.53731343283582,NA,NA
87031,Valencia County,NM,NA,40.700808625336926,NA,NA,NA
87045,McKinley County,NM,NA,NA,99.37810945273633,NA,NA
87052,Sandoval County,NM,NA,NA,99.12935323383084,NA,NA
87102,Bernalillo County,NM,NA,NA,24.875621890547265,NA,NA
87105,Bernalillo County,NM,NA,7.008086253369273,4.477611940298507,25.627615062761507,NA
87106,Bernalillo County,NM,NA,NA,24.378109452736318,43.20083682008368,NA
87107,Bernalillo County,NM,55.925925925925924,NA,35.82089552238806,NA,NA
87109,Bernalillo County,NM,NA,33.692722371967655,21.019900497512438,NA,NA
87111,Bernalillo County,NM,NA,NA,22.63681592039801,NA,NA
87112,Bernalillo County,NM,NA,53.63881401617251,NA,NA,NA
87114,Bernalillo County,NM,NA,46.36118598382749,NA,NA,NA
87121,Bernalillo County,NM,5.9259259259259265,NA,43.78109452736319,NA,NA
87123,Bernalillo County,NM,NA,NA,16.29353233830846,NA,NA
87301,McKinley County,NM,42.22222222222222,45.01347708894879,85.3233830845771,NA,NA
87313,McKinley County,NM,NA,59.299191374663074,93.40796019900498,NA,NA
87317,McKinley County,NM,NA,NA,99.25373134328358,NA,NA
87323,McKinley County,NM,NA,NA,97.76119402985076,98.11715481171548,NA
87327,Cibola County,NM,NA,76.81940700808624,98.2587064676617,79.07949790794979,NA
87401,San Juan County,NM,NA,NA,79.72636815920397,40.1673640167364,NA
87413,San Juan County,NM,NA,NA,55.84577114427861,NA,NA
87416,San Juan County,NM,NA,66.84636118598382,NA,NA,NA
87420,San Juan County,NM,NA,NA,33.08457711442786,67.15481171548117,NA
87505,Santa Fe County,NM,NA,NA,6.8407960199004965,NA,NA
87528,Rio Arriba County,NM,NA,89.21832884097036,96.76616915422885,NA,NA
87532,Santa Fe County,NM,NA,NA,73.2587064676617,NA,NA
87566,Rio Arriba County,NM,NA,64.15094339622641,NA,NA,NA
88240,Lea County,NM,NA,NA,7.960199004975125,NA,NA
10001,New York County,NY,NA,NA,15.671641791044777,6.380753138075314,NA
10002,New York County,NY,NA,41.23989218328841,4.601990049751244,21.86192468619247,19.1699604743083
10004,New York County,NY,NA,NA,97.2636815920398,NA,NA
10009,New York County,NY,50.74074074074074,25.87601078167116,NA,NA,NA
10013,New York County,NY,NA,77.088948787062,85.69651741293532,NA,NA
10016,New York County,NY,NA,90.83557951482479,NA,50.627615062761514,NA
10021,New York County,NY,NA,NA,NA,26.778242677824267,NA
10024,New York County,NY,NA,NA,NA,NA,6.126482213438735
10025,New York County,NY,NA,NA,7.835820895522389,NA,NA
10026,New York County,NY,NA,47.43935309973046,27.985074626865668,19.769874476987447,NA
10027,New York County,NY,NA,11.590296495956872,NA,13.389121338912133,NA
10029,New York County,NY,NA,4.8517520215633425,6.467661691542288,5.543933054393305,0.592885375494071
10030,New York County,NY,NA,20.21563342318059,74.75124378109453,NA,NA
10031,New York County,NY,NA,12.398921832884097,35.9452736318408,16.00418410041841,NA
10032,New York County,NY,NA,28.03234501347709,NA,56.69456066945606,31.225296442687743
10033,New York County,NY,NA,NA,19.900497512437813,NA,NA
10034,New York County,NY,NA,NA,36.691542288557216,NA,NA
10035,New York County,NY,NA,NA,28.73134328358209,NA,NA
10036,New York County,NY,NA,NA,NA,NA,97.03557312252964
10037,New York County,NY,NA,NA,41.54228855721393,56.903765690376574,76.6798418972332
10038,New York County,NY,NA,NA,NA,86.50627615062761,NA
10039,New York County,NY,NA,NA,66.54228855721394,NA,43.873517786561266
10040,New York County,NY,NA,NA,35.69651741293532,19.246861924686193,NA
10301,Richmond County,NY,NA,19.137466307277627,NA,NA,NA
10302,Richmond County,NY,NA,NA,77.7363184079602,NA,NA
10303,Richmond County,NY,NA,NA,43.656716417910445,NA,NA
10304,Richmond County,NY,NA,44.20485175202156,65.79601990049751,NA,NA
10305,Richmond County,NY,NA,51.482479784366575,NA,NA,NA
10314,Richmond County,NY,NA,NA,63.557213930348254,4.184100418410042,NA
10451,Bronx County,NY,NA,NA,20.398009950248756,6.694560669456067,8.49802371541502
10452,Bronx County,NY,77.77777777777779,43.39622641509434,30.09950248756219,50.418410041841,NA
10453,Bronx County,NY,NA,NA,8.45771144278607,38.38912133891213,NA
10454,Bronx County,NY,NA,9.703504043126685,63.681592039801,67.99163179916317,NA
10455,Bronx County,NY,NA,1.8867924528301887,5.223880597014925,86.08786610878661,NA
10456,Bronx County,NY,0.7407407407407408,17.25067385444744,0.3731343283582089,33.054393305439326,43.08300395256917
10457,Bronx County,NY,NA,7.547169811320755,56.09452736318408,21.338912133891213,44.466403162055336
10458,Bronx County,NY,2.9629629629629632,2.964959568733154,14.925373134328357,33.57740585774059,NA
10459,Bronx County,NY,10.37037037037037,5.121293800539084,6.343283582089552,40.58577405857741,78.45849802371542
10460,Bronx County,NY,NA,19.67654986522911,2.36318407960199,14.225941422594143,13.043478260869565
10463,Bronx County,NY,NA,18.059299191374663,33.83084577114428,NA,4.545454545454546
10466,Bronx County,NY,NA,NA,5.472636815920398,NA,NA
10467,Bronx County,NY,77.4074074074074,6.46900269541779,17.288557213930346,6.903765690376569,2.371541501976284
10468,Bronx County,NY,NA,26.41509433962264,NA,18.723849372384937,NA
10469,Bronx County,NY,NA,8.62533692722372,38.681592039801,NA,6.719367588932807
10472,Bronx County,NY,24.074074074074073,NA,18.28358208955224,2.1966527196652716,NA
10473,Bronx County,NY,NA,NA,NA,NA,41.30434782608695
10475,Bronx County,NY,NA,NA,27.238805970149254,NA,NA
10524,Putnam County,NY,NA,NA,NA,NA,92.88537549407114
10550,Westchester County,NY,NA,NA,27.487562189054728,24.267782426778243,60.86956521739131
10562,Westchester County,NY,NA,50.943396226415096,NA,NA,NA
10573,Westchester County,NY,NA,NA,69.65174129353234,NA,NA
10603,Westchester County,NY,NA,36.65768194070081,NA,NA,NA
10701,Westchester County,NY,34.81481481481482,NA,1.9900497512437811,NA,NA
10950,Orange County,NY,NA,NA,NA,95.50209205020921,NA
10952,Rockland County,NY,NA,NA,71.39303482587064,NA,NA
10962,Rockland County,NY,97.03703703703704,NA,NA,NA,NA
11003,Nassau County,NY,NA,88.14016172506739,NA,NA,49.60474308300395
11040,Nassau County,NY,NA,NA,NA,69.56066945606695,NA
11101,Queens County,NY,NA,NA,60.57213930348259,NA,NA
11102,Queens County,NY,NA,NA,NA,49.68619246861925,44.07114624505929
11106,Queens County,NY,NA,64.42048517520216,NA,NA,NA
11201,Kings County,NY,NA,NA,57.83582089552238,21.443514644351463,NA
11203,Kings County,NY,NA,NA,NA,32.42677824267782,72.13438735177866
11204,Kings County,NY,NA,NA,31.8407960199005,NA,NA
11205,Kings County,NY,NA,31.805929919137466,15.92039800995025,NA,70.94861660079052
11206,Kings County,NY,NA,10.242587601078167,35.199004975124375,1.1506276150627615,NA
11207,Kings County,NY,NA,NA,NA,63.49372384937239,NA
11208,Kings County,NY,NA,20.485175202156334,NA,14.435146443514643,NA
11209,Kings County,NY,NA,84.09703504043127,NA,NA,17.193675889328063
11211,Kings County,NY,NA,56.334231805929925,NA,73.32635983263597,21.14624505928854
11212,Kings County,NY,NA,0.8086253369272237,33.33333333333333,8.577405857740587,9.288537549407115
11213,Kings County,NY,NA,NA,6.7164179104477615,6.066945606694561,NA
11214,Kings County,NY,31.11111111111111,NA,19.5273631840796,NA,NA
11216,Kings County,NY,NA,34.77088948787062,41.16915422885572,NA,NA
11218,Kings County,NY,NA,13.20754716981132,NA,NA,NA
11219,Kings County,NY,NA,1.3477088948787064,NA,NA,NA
11220,Kings County,NY,NA,0,NA,NA,NA
11221,Kings County,NY,NA,5.3908355795148255,36.81592039800995,3.765690376569038,NA
11223,Kings County,NY,NA,15.633423180592992,NA,NA,NA
11225,Kings County,NY,NA,45.28301886792453,NA,NA,NA
11226,Kings County,NY,7.4074074074074066,NA,NA,42.05020920502092,NA
11229,Kings County,NY,NA,41.77897574123989,NA,20.606694560669457,NA
11230,Kings County,NY,NA,NA,51.243781094527364,NA,NA
11233,Kings County,NY,NA,23.180592991913745,14.303482587064675,29.18410041841004,NA
11234,Kings County,NY,NA,NA,22.263681592039802,NA,NA
11236,Kings County,NY,NA,NA,NA,9.309623430962342,NA
11237,Kings County,NY,NA,8.086253369272237,NA,NA,81.42292490118577
11238,Kings County,NY,NA,NA,NA,NA,72.92490118577075
11354,Queens County,NY,37.03703703703704,NA,79.22885572139303,NA,NA
11355,Queens County,NY,NA,5.660377358490567,30.223880597014922,NA,NA
11365,Queens County,NY,NA,NA,80.4726368159204,NA,NA
11368,Queens County,NY,37.77777777777778,NA,NA,NA,NA
11369,Queens County,NY,NA,28.03234501347709,59.950248756218905,NA,NA
11373,Queens County,NY,44.44444444444444,22.371967654986523,NA,NA,NA
11374,Queens County,NY,NA,NA,NA,25.732217573221757,NA
11375,Queens County,NY,NA,NA,NA,NA,9.486166007905137
11377,Queens County,NY,NA,64.6900269541779,NA,NA,NA
11378,Queens County,NY,NA,61.99460916442049,NA,NA,NA
11385,Queens County,NY,NA,69.00269541778977,NA,11.610878661087867,NA
11411,Queens County,NY,NA,NA,NA,74.581589958159,NA
11412,Queens County,NY,NA,NA,NA,77.61506276150628,NA
11419,Queens County,NY,NA,NA,NA,29.079497907949794,NA
11420,Queens County,NY,NA,NA,NA,35.77405857740586,68.18181818181817
11421,Queens County,NY,75.92592592592592,NA,NA,NA,NA
11422,Queens County,NY,NA,NA,89.6766169154229,NA,NA
11423,Queens County,NY,NA,NA,54.975124378109456,NA,NA
11432,Queens County,NY,NA,33.153638814016176,NA,NA,NA
11433,Queens County,NY,NA,NA,29.35323383084577,NA,NA
11435,Queens County,NY,NA,NA,13.308457711442786,16.527196652719663,NA
11542,Nassau County,NY,NA,NA,NA,52.82426778242678,NA
11550,Nassau County,NY,NA,NA,13.681592039800993,NA,NA
11554,Nassau County,NY,NA,NA,NA,77.71966527196653,NA
11559,Nassau County,NY,NA,NA,NA,88.07531380753139,NA
11561,Nassau County,NY,NA,NA,NA,NA,61.06719367588933
11575,Nassau County,NY,NA,NA,NA,NA,89.52569169960475
11576,Nassau County,NY,NA,NA,NA,NA,64.82213438735178
11577,Nassau County,NY,NA,NA,91.4179104477612,NA,NA
11691,Queens County,NY,NA,NA,NA,7.949790794979079,NA
11714,Nassau County,NY,NA,NA,NA,NA,52.76679841897233
11738,Suffolk County,NY,NA,NA,87.43781094527363,NA,NA
11758,Nassau County,NY,NA,NA,NA,NA,24.110671936758894
11779,Suffolk County,NY,NA,61.45552560646901,NA,NA,NA
11797,Nassau County,NY,NA,NA,NA,91.10878661087865,NA
11961,Suffolk County,NY,NA,NA,NA,NA,35.37549407114625
12020,Saratoga County,NY,NA,NA,22.139303482587064,NA,NA
12043,Schoharie County,NY,NA,60.1078167115903,59.70149253731343,72.17573221757321,67.19367588932806
12078,Fulton County,NY,NA,NA,5.348258706467662,NA,NA
12095,Fulton County,NY,NA,NA,NA,32.74058577405858,NA
12122,Schoharie County,NY,NA,NA,90.92039800995025,NA,NA
12197,Otsego County,NY,NA,NA,98.88059701492537,NA,NA
12701,Sullivan County,NY,NA,NA,48.134328358208954,NA,NA
13021,Cayuga County,NY,NA,NA,NA,2.092050209205021,NA
13030,Madison County,NY,NA,NA,NA,94.4560669456067,NA
13045,Cortland County,NY,NA,NA,4.353233830845771,NA,NA
13308,Oneida County,NY,NA,NA,91.91542288557214,NA,NA
13326,Otsego County,NY,NA,NA,74.12935323383084,58.26359832635983,NA
13403,Oneida County,NY,NA,NA,NA,NA,93.08300395256917
13662,St. Lawrence County,NY,NA,NA,NA,16.84100418410042,NA
13790,Broome County,NY,NA,NA,NA,9.205020920502092,NA
13808,Otsego County,NY,NA,NA,98.00995024875621,NA,NA
13820,Otsego County,NY,60.370370370370374,NA,39.17910447761194,NA,NA
13833,Broome County,NY,NA,NA,76.49253731343283,NA,NA
13905,Broome County,NY,NA,NA,NA,4.916317991631799,NA
14001,Erie County,NY,NA,NA,73.88059701492537,NA,NA
14020,Genesee County,NY,NA,NA,14.55223880597015,NA,NA
14063,Chautauqua County,NY,NA,NA,NA,NA,64.42687747035573
14221,Erie County,NY,NA,NA,NA,2.928870292887029,18.181818181818183
14411,Orleans County,NY,56.666666666666664,NA,NA,NA,NA
14424,Ontario County,NY,NA,NA,2.9850746268656714,0.5230125523012552,NA
14454,Livingston County,NY,NA,NA,NA,81.79916317991632,NA
14472,Monroe County,NY,NA,NA,NA,30.020920502092054,NA
14534,Monroe County,NY,NA,NA,NA,1.9874476987447698,NA
14559,Monroe County,NY,NA,NA,13.184079601990051,NA,NA
14606,Monroe County,NY,NA,NA,20.024875621890548,12.656903765690378,NA
14608,Monroe County,NY,NA,NA,16.417910447761194,NA,NA
14610,Monroe County,NY,NA,NA,NA,25.83682008368201,NA
14611,Monroe County,NY,NA,NA,NA,17.99163179916318,NA
14612,Monroe County,NY,9.25925925925926,NA,NA,NA,NA
14617,Monroe County,NY,NA,NA,NA,4.393305439330543,NA
14619,Monroe County,NY,NA,NA,18.034825870646767,NA,NA
14620,Monroe County,NY,NA,NA,NA,52.40585774058577,NA
14621,Monroe County,NY,NA,NA,7.462686567164178,NA,NA
14626,Monroe County,NY,NA,NA,3.233830845771144,NA,NA
14845,Chemung County,NY,NA,NA,19.65174129353234,NA,NA
27012,Forsyth County,NC,NA,NA,NA,48.22175732217573,9.683794466403162
27023,Forsyth County,NC,NA,NA,NA,58.89121338912135,NA
27025,Rockingham County,NC,NA,NA,79.60199004975125,NA,NA
27040,Forsyth County,NC,91.48148148148148,NA,NA,NA,NA
27055,Yadkin County,NC,NA,NA,NA,47.69874476987448,NA
27103,Forsyth County,NC,NA,NA,NA,9.832635983263598,NA
27105,Forsyth County,NC,5.555555555555555,NA,NA,NA,NA
27106,Forsyth County,NC,NA,36.92722371967655,16.791044776119403,NA,15.41501976284585
27107,Forsyth County,NC,NA,NA,NA,NA,22.134387351778656
27260,Guilford County,NC,NA,NA,NA,52.09205020920502,NA
27288,Rockingham County,NC,NA,NA,NA,23.84937238493724,NA
27292,Davidson County,NC,NA,NA,NA,30.125523012552303,NA
27332,Lee County,NC,NA,NA,NA,46.86192468619247,NA
27360,Davidson County,NC,NA,NA,21.766169154228855,NA,NA
27406,Guilford County,NC,NA,NA,NA,12.97071129707113,NA
27513,Wake County,NC,NA,NA,NA,NA,51.38339920948617
27516,Orange County,NC,71.11111111111111,NA,NA,NA,60.47430830039525
27518,Wake County,NC,NA,NA,NA,82.21757322175732,NA
27529,Wake County,NC,NA,NA,26.865671641791046,NA,NA
27537,Vance County,NC,NA,NA,NA,NA,47.03557312252965
27565,Granville County,NC,NA,NA,NA,NA,29.446640316205535
27587,Wake County,NC,NA,NA,NA,10.146443514644352,NA
27589,Warren County,NC,NA,NA,NA,67.88702928870293,NA
27613,Wake County,NC,NA,NA,NA,36.82008368200837,NA
27705,Durham County,NC,NA,NA,87.68656716417911,NA,NA
27707,Durham County,NC,NA,NA,45.646766169154226,NA,NA
27712,Durham County,NC,NA,NA,NA,41.63179916317992,NA
27834,Pitt County,NC,8.148148148148149,NA,NA,NA,NA
27863,Wayne County,NC,NA,NA,NA,NA,94.46640316205533
27983,Bertie County,NC,NA,NA,NA,60.87866108786611,NA
28083,Cabarrus County,NC,NA,NA,64.92537313432835,NA,NA
28105,Mecklenburg County,NC,NA,NA,NA,49.89539748953975,NA
28146,Rowan County,NC,NA,NA,NA,NA,71.54150197628458
28150,Cleveland County,NC,NA,NA,NA,NA,38.93280632411067
28216,Mecklenburg County,NC,NA,NA,NA,16.10878661087866,NA
28227,Mecklenburg County,NC,NA,NA,NA,NA,28.85375494071146
28269,Mecklenburg County,NC,NA,NA,NA,28.34728033472803,NA
28277,Mecklenburg County,NC,52.22222222222223,NA,NA,NA,NA
28312,Cumberland County,NC,NA,68.19407008086253,NA,NA,NA
28327,Moore County,NC,NA,NA,73.13432835820896,NA,NA
28360,Robeson County,NC,NA,NA,81.09452736318407,NA,NA
28386,Robeson County,NC,NA,NA,NA,98.01255230125523,NA
28401,New Hanover County,NC,NA,NA,12.437810945273633,NA,NA
28405,New Hanover County,NC,NA,NA,38.43283582089552,NA,NA
28422,Brunswick County,NC,NA,NA,NA,91.0041841004184,NA
28433,Bladen County,NC,NA,NA,NA,92.15481171548117,NA
28443,Pender County,NC,NA,NA,NA,57.32217573221757,NA
28461,Brunswick County,NC,NA,NA,NA,7.845188284518828,NA
28470,Brunswick County,NC,NA,NA,NA,70.18828451882845,NA
28530,Pitt County,NC,NA,NA,NA,94.97907949790795,NA
28546,Onslow County,NC,NA,NA,NA,NA,38.537549407114625
28601,Catawba County,NC,NA,NA,NA,10.251046025104603,NA
28621,Surry County,NC,NA,NA,NA,NA,50.19762845849802
28659,Wilkes County,NC,NA,73.31536388140162,NA,NA,NA
28678,Alexander County,NC,NA,NA,NA,91.21338912133892,NA
28704,Buncombe County,NC,NA,NA,NA,73.01255230125523,54.347826086956516
28719,Jackson County,NC,NA,75.74123989218329,49.62686567164179,87.13389121338912,90.9090909090909
28739,Henderson County,NC,NA,NA,54.60199004975125,NA,12.450592885375494
28753,Madison County,NC,NA,NA,NA,NA,89.72332015810277
28759,Henderson County,NC,NA,NA,NA,NA,82.21343873517787
28771,Graham County,NC,NA,67.9245283018868,NA,NA,NA
28789,Jackson County,NC,NA,NA,NA,85.56485355648536,NA
58075,Richland County,ND,NA,NA,NA,93.82845188284519,NA
58078,Cass County,ND,NA,23.98921832884097,62.189054726368155,15.481171548117153,22.529644268774703
58103,Cass County,ND,NA,44.74393530997305,9.328358208955224,41.004184100418414,21.34387351778656
58104,Cass County,ND,NA,NA,33.95522388059701,NA,45.8498023715415
58201,Grand Forks County,ND,10.74074074074074,NA,NA,NA,3.3596837944664033
58203,Grand Forks County,ND,NA,NA,NA,NA,53.55731225296443
58301,Ramsey County,ND,NA,NA,NA,NA,66.40316205533597
58316,Rolette County,ND,NA,NA,97.88557213930348,NA,NA
58538,Sioux County,ND,NA,84.63611859838275,NA,NA,NA
58701,Ward County,ND,NA,NA,NA,39.853556485355654,37.351778656126484
58703,Ward County,ND,NA,NA,NA,44.03765690376569,NA
43015,Delaware County,OH,NA,NA,NA,7.322175732217573,NA
43017,Franklin County,OH,NA,NA,NA,36.92468619246862,NA
43023,Licking County,OH,NA,NA,NA,80.43933054393305,95.8498023715415
43026,Franklin County,OH,19.62962962962963,NA,NA,97.80334728033473,NA
43054,Franklin County,OH,NA,NA,NA,66.52719665271967,NA
43055,Licking County,OH,NA,NA,NA,13.807531380753138,5.533596837944664
43056,Licking County,OH,NA,NA,NA,37.34309623430963,57.31225296442688
43064,Madison County,OH,NA,NA,NA,84.2050209205021,NA
43065,Delaware County,OH,NA,NA,NA,29.39330543933054,NA
43068,Franklin County,OH,NA,NA,39.42786069651741,NA,NA
43076,Perry County,OH,NA,NA,NA,NA,99.40711462450594
43081,Franklin County,OH,NA,37.46630727762803,74.50248756218906,11.192468619246862,NA
43082,Delaware County,OH,NA,NA,63.80597014925373,NA,NA
43085,Franklin County,OH,NA,NA,NA,96.1297071129707,NA
43123,Franklin County,OH,2.2222222222222223,21.293800539083556,NA,8.472803347280335,NA
43147,Fairfield County,OH,NA,NA,60.94527363184079,27.405857740585777,NA
43160,Fayette County,OH,20.37037037037037,NA,NA,NA,NA
43162,Madison County,OH,NA,95.4177897574124,NA,NA,NA
43202,Franklin County,OH,NA,NA,80.97014925373134,NA,NA
43204,Franklin County,OH,NA,0.5390835579514826,NA,14.12133891213389,NA
43205,Franklin County,OH,NA,21.563342318059302,NA,NA,NA
43206,Franklin County,OH,NA,NA,NA,56.58995815899581,NA
43207,Franklin County,OH,16.296296296296298,16.9811320754717,NA,NA,NA
43209,Franklin County,OH,NA,88.40970350404312,NA,NA,NA
43211,Franklin County,OH,NA,3.5040431266846364,72.13930348258707,68.82845188284519,63.43873517786561
43213,Franklin County,OH,NA,69.2722371967655,NA,NA,NA
43214,Franklin County,OH,NA,NA,NA,NA,78.65612648221344
43219,Franklin County,OH,NA,3.234501347708895,NA,NA,86.36363636363636
43221,Franklin County,OH,NA,NA,94.15422885572139,42.57322175732218,NA
43223,Franklin County,OH,20.74074074074074,NA,7.711442786069651,NA,NA
43224,Franklin County,OH,0.3703703703703704,NA,28.60696517412935,15.690376569037657,NA
43227,Franklin County,OH,NA,NA,25.37313432835821,NA,NA
43228,Franklin County,OH,NA,18.867924528301888,NA,NA,NA
43229,Franklin County,OH,0,15.902964959568733,8.208955223880597,NA,NA
43230,Franklin County,OH,NA,NA,19.402985074626866,NA,NA
43232,Franklin County,OH,39.25925925925926,0.2695417789757413,4.72636815920398,15.271966527196653,NA
43235,Franklin County,OH,12.222222222222221,NA,NA,NA,NA
43302,Marion County,OH,NA,32.34501347708895,NA,NA,NA
43338,Morrow County,OH,NA,NA,NA,NA,58.30039525691699
43402,Wood County,OH,NA,NA,NA,NA,23.3201581027668
43512,Defiance County,OH,NA,NA,4.975124378109453,5.02092050209205,NA
43551,Wood County,OH,23.333333333333332,NA,NA,NA,NA
43566,Lucas County,OH,88.88888888888889,NA,NA,NA,NA
43615,Lucas County,OH,NA,NA,21.641791044776117,NA,NA
44004,Ashtabula County,OH,2.5925925925925926,NA,NA,NA,NA
44011,Lorain County,OH,NA,NA,NA,26.25523012552301,NA
44012,Lorain County,OH,NA,NA,69.02985074626866,56.27615062761506,59.683794466403164
44022,Cuyahoga County,OH,NA,NA,NA,64.22594142259415,NA
44023,Geauga County,OH,79.62962962962963,NA,NA,46.23430962343097,NA
44035,Lorain County,OH,NA,NA,57.58706467661692,2.301255230125523,NA
44039,Lorain County,OH,NA,NA,NA,43.72384937238494,NA
44040,Cuyahoga County,OH,NA,NA,NA,94.14225941422593,NA
44052,Lorain County,OH,5.185185185185185,8.355795148247978,19.776119402985074,2.405857740585774,NA
44053,Lorain County,OH,NA,78.16711590296495,NA,NA,NA
44054,Lorain County,OH,NA,NA,39.55223880597015,39.22594142259414,NA
44055,Lorain County,OH,NA,NA,10.945273631840797,NA,NA
44056,Summit County,OH,NA,NA,NA,83.36820083682008,NA
44060,Lake County,OH,NA,NA,NA,NA,7.114624505928854
44072,Geauga County,OH,NA,NA,NA,NA,79.44664031620553
44077,Lake County,OH,8.88888888888889,NA,NA,3.1380753138075312,NA
44087,Summit County,OH,NA,NA,45.27363184079602,NA,NA
44089,Erie County,OH,NA,NA,NA,10.669456066945607,NA
44092,Lake County,OH,NA,81.94070080862534,46.766169154228855,33.47280334728033,NA
44094,Lake County,OH,42.96296296296296,NA,NA,NA,1.7786561264822136
44095,Lake County,OH,NA,NA,56.59203980099502,NA,NA
44102,Cuyahoga County,OH,NA,NA,0.8706467661691543,NA,NA
44103,Cuyahoga County,OH,NA,50.673854447439346,NA,NA,NA
44104,Cuyahoga County,OH,NA,49.32614555256065,42.53731343283582,20.292887029288703,NA
44105,Cuyahoga County,OH,35.55555555555556,60.91644204851752,19.27860696517413,NA,60.27667984189723
44106,Cuyahoga County,OH,NA,NA,NA,14.539748953974897,NA
44107,Cuyahoga County,OH,NA,NA,16.54228855721393,22.280334728033473,NA
44108,Cuyahoga County,OH,14.444444444444443,19.40700808625337,NA,NA,NA
44109,Cuyahoga County,OH,NA,43.126684636118604,1.2437810945273633,1.6736401673640167,NA
44110,Cuyahoga County,OH,NA,NA,11.442786069651742,NA,43.67588932806324
44111,Cuyahoga County,OH,NA,1.6172506738544474,12.935323383084576,2.8242677824267783,NA
44112,Cuyahoga County,OH,NA,48.517520215633425,NA,50,23.517786561264824
44113,Cuyahoga County,OH,NA,NA,10.074626865671641,NA,NA
44114,Cuyahoga County,OH,NA,NA,34.57711442786069,93.93305439330544,NA
44115,Cuyahoga County,OH,NA,NA,65.04975124378109,NA,NA
44116,Cuyahoga County,OH,62.59259259259259,NA,NA,NA,33.201581027667984
44118,Cuyahoga County,OH,NA,60.37735849056604,42.78606965174129,NA,NA
44119,Cuyahoga County,OH,NA,NA,23.00995024875622,NA,NA
44120,Cuyahoga County,OH,NA,NA,3.731343283582089,44.45606694560669,NA
44121,Cuyahoga County,OH,26.296296296296294,NA,11.318407960199005,12.761506276150628,25.494071146245062
44122,Cuyahoga County,OH,NA,NA,25.74626865671642,73.74476987447699,0.3952569169960474
44123,Cuyahoga County,OH,NA,NA,79.1044776119403,NA,NA
44124,Cuyahoga County,OH,NA,NA,76.7412935323383,3.4518828451882846,35.77075098814229
44125,Cuyahoga County,OH,NA,NA,NA,10.460251046025103,NA
44126,Cuyahoga County,OH,NA,NA,81.71641791044776,75.2092050209205,NA
44128,Cuyahoga County,OH,NA,NA,36.44278606965174,NA,21.541501976284586
44130,Cuyahoga County,OH,NA,NA,25.24875621890547,0.6276150627615062,0.7905138339920948
44131,Cuyahoga County,OH,64.07407407407408,99.73045822102425,75.62189054726367,54.9163179916318,NA
44132,Cuyahoga County,OH,NA,NA,26.119402985074625,50.313807531380746,NA
44133,Cuyahoga County,OH,NA,NA,NA,NA,13.24110671936759
44134,Cuyahoga County,OH,65.92592592592592,NA,NA,2.510460251046025,NA
44135,Cuyahoga County,OH,4.814814814814815,NA,3.3582089552238807,8.682008368200837,NA
44136,Cuyahoga County,OH,NA,96.7654986522911,NA,NA,NA
44137,Cuyahoga County,OH,NA,NA,29.228855721393032,10.774058577405858,NA
44139,Cuyahoga County,OH,NA,NA,91.29353233830845,13.493723849372385,19.565217391304348
44140,Cuyahoga County,OH,NA,NA,NA,NA,35.96837944664031
44141,Cuyahoga County,OH,NA,NA,NA,84.10041841004184,39.723320158102766
44143,Cuyahoga County,OH,NA,NA,37.18905472636816,NA,NA
44144,Cuyahoga County,OH,29.629629629629626,40.700808625336926,NA,37.029288702928866,NA
44145,Cuyahoga County,OH,25.185185185185183,NA,20.8955223880597,4.707112970711297,NA
44146,Cuyahoga County,OH,NA,NA,8.582089552238806,NA,NA
44147,Cuyahoga County,OH,NA,NA,88.55721393034825,NA,30.8300395256917
44202,Portage County,OH,80,NA,NA,NA,NA
44203,Summit County,OH,NA,NA,NA,9.623430962343097,NA
44212,Medina County,OH,NA,47.7088948787062,NA,0.41841004184100417,NA
44224,Summit County,OH,81.48148148148148,NA,NA,60.14644351464435,NA
44230,Wayne County,OH,NA,NA,NA,NA,84.38735177865613
44231,Portage County,OH,NA,NA,87.56218905472637,NA,NA
44236,Summit County,OH,NA,89.75741239892183,NA,59.41422594142259,NA
44240,Portage County,OH,34.074074074074076,NA,NA,21.12970711297071,NA
44256,Medina County,OH,NA,NA,NA,0.20920502092050208,1.9762845849802373
44260,Portage County,OH,NA,NA,NA,58.995815899581594,NA
44266,Portage County,OH,22.59259259259259,NA,NA,NA,NA
44278,Summit County,OH,NA,NA,NA,46.44351464435147,NA
44281,Medina County,OH,NA,38.81401617250674,NA,NA,NA
44286,Summit County,OH,NA,NA,94.77611940298507,89.7489539748954,NA
44301,Summit County,OH,NA,NA,NA,53.661087866108794,NA
44303,Summit County,OH,NA,NA,NA,70.29288702928869,91.30434782608695
44305,Summit County,OH,NA,NA,NA,NA,58.30039525691699
44307,Summit County,OH,NA,95.95687331536388,NA,NA,NA
44310,Summit County,OH,33.7037037037037,66.57681940700809,12.686567164179104,22.489539748953973,81.22529644268775
44312,Summit County,OH,47.03703703703704,NA,NA,41.21338912133891,76.28458498023716
44313,Summit County,OH,NA,NA,32.08955223880597,71.44351464435147,20.158102766798418
44314,Summit County,OH,NA,NA,NA,75.418410041841,69.76284584980237
44319,Summit County,OH,56.2962962962963,NA,NA,23.640167364016737,NA
44320,Summit County,OH,NA,NA,20.149253731343283,82.00836820083683,91.50197628458498
44321,Summit County,OH,NA,NA,NA,NA,70.55335968379447
44333,Summit County,OH,NA,NA,NA,76.4644351464435,85.7707509881423
44425,Trumbull County,OH,NA,NA,NA,26.673640167364017,NA
44451,Mahoning County,OH,NA,NA,98.6318407960199,NA,NA
44460,Columbiana County,OH,19.25925925925926,NA,NA,NA,NA
44471,Mahoning County,OH,NA,NA,NA,NA,85.57312252964427
44632,Stark County,OH,NA,NA,NA,NA,78.06324110671937
44647,Stark County,OH,NA,NA,54.353233830845774,NA,NA
44667,Wayne County,OH,NA,NA,NA,85.6694560669456,NA
44685,Summit County,OH,NA,NA,49.12935323383085,23.430962343096233,NA
44691,Wayne County,OH,NA,NA,NA,NA,16.600790513833992
44705,Stark County,OH,NA,NA,NA,37.34309623430963,NA
44709,Stark County,OH,29.259259259259256,NA,NA,NA,NA
44805,Ashland County,OH,NA,NA,NA,5.334728033472803,NA
44813,Richland County,OH,NA,NA,NA,82.11297071129707,NA
44839,Erie County,OH,NA,NA,NA,40.48117154811715,NA
44870,Erie County,OH,20,NA,NA,NA,NA
44889,Huron County,OH,NA,98.38274932614556,NA,NA,NA
44906,Richland County,OH,NA,NA,36.069651741293534,NA,NA
45002,Hamilton County,OH,NA,76.28032345013477,NA,NA,NA
45011,Butler County,OH,59.25925925925925,50.40431266846361,NA,NA,NA
45013,Butler County,OH,4.444444444444445,NA,NA,NA,NA
45014,Butler County,OH,NA,37.735849056603776,NA,NA,NA
45039,Warren County,OH,NA,90.29649595687331,NA,NA,NA
45044,Butler County,OH,3.3333333333333335,6.199460916442049,7.08955223880597,NA,NA
45050,Butler County,OH,NA,76.54986522911051,NA,NA,NA
45065,Warren County,OH,89.25925925925927,NA,NA,NA,NA
45069,Butler County,OH,15.555555555555555,35.57951482479784,NA,NA,NA
45102,Clermont County,OH,46.666666666666664,NA,NA,NA,NA
45103,Clermont County,OH,NA,16.442048517520217,NA,NA,NA
45120,Clermont County,OH,98.14814814814815,NA,NA,NA,NA
45122,Clermont County,OH,77.03703703703704,NA,NA,NA,NA
45130,Brown County,OH,NA,91.10512129380054,NA,NA,NA
45133,Highland County,OH,24.814814814814813,43.93530997304582,NA,NA,NA
45171,Brown County,OH,92.5925925925926,NA,NA,NA,NA
45176,Clermont County,OH,74.44444444444444,NA,NA,NA,NA
45177,Clinton County,OH,NA,46.63072776280324,NA,NA,NA
45202,Hamilton County,OH,NA,NA,56.46766169154229,NA,NA
45204,Hamilton County,OH,NA,79.51482479784366,NA,NA,NA
45205,Hamilton County,OH,NA,71.42857142857143,24.62686567164179,NA,NA
45206,Hamilton County,OH,38.51851851851852,NA,82.96019900497512,NA,NA
45207,Hamilton County,OH,NA,NA,84.07960199004975,NA,NA
45211,Hamilton County,OH,NA,42.318059299191376,NA,NA,NA
45212,Hamilton County,OH,NA,NA,80.59701492537313,NA,NA
45215,Hamilton County,OH,63.70370370370371,30.727762803234505,27.363184079601986,NA,NA
45216,Hamilton County,OH,58.51851851851851,43.66576819407008,NA,66.31799163179917,NA
45223,Hamilton County,OH,NA,56.8733153638814,NA,NA,NA
45224,Hamilton County,OH,NA,35.04043126684636,58.70646766169154,53.24267782426778,NA
45225,Hamilton County,OH,NA,91.64420485175202,NA,98.32635983263597,NA
45227,Hamilton County,OH,NA,81.13207547169812,NA,NA,NA
45229,Hamilton County,OH,NA,31.266846361185983,NA,NA,NA
45231,Hamilton County,OH,45.18518518518518,13.477088948787062,NA,NA,NA
45233,Hamilton County,OH,NA,NA,NA,NA,40.11857707509881
45237,Hamilton County,OH,NA,NA,NA,59.83263598326359,NA
45238,Hamilton County,OH,NA,12.668463611859837,NA,NA,NA
45239,Hamilton County,OH,NA,27.22371967654987,NA,NA,NA
45240,Hamilton County,OH,47.03703703703704,16.711590296495956,NA,NA,NA
45245,Clermont County,OH,58.51851851851851,NA,NA,NA,NA
45246,Hamilton County,OH,NA,49.32614555256065,NA,NA,NA
45248,Hamilton County,OH,NA,56.8733153638814,NA,NA,NA
45255,Hamilton County,OH,78.51851851851852,NA,NA,NA,NA
45309,Montgomery County,OH,NA,NA,86.31840796019901,NA,NA
45311,Preble County,OH,90,NA,NA,NA,NA
45403,Montgomery County,OH,NA,NA,NA,77.30125523012552,NA
45409,Montgomery County,OH,NA,NA,91.66666666666666,NA,NA
45410,Montgomery County,OH,NA,NA,NA,64.5397489539749,NA
45424,Montgomery County,OH,NA,NA,41.04477611940299,10.98326359832636,NA
45432,Greene County,OH,NA,NA,NA,57.74058577405857,NA
45506,Clark County,OH,NA,NA,93.78109452736318,NA,NA
45601,Ross County,OH,NA,4.5822102425876015,NA,NA,NA
45614,Gallia County,OH,NA,NA,NA,97.28033472803347,NA
45619,Lawrence County,OH,NA,NA,NA,NA,89.13043478260869
45631,Gallia County,OH,NA,NA,NA,NA,34.18972332015811
45640,Jackson County,OH,NA,NA,NA,NA,15.019762845849801
45651,Vinton County,OH,NA,NA,NA,57.53138075313807,NA
45669,Lawrence County,OH,NA,NA,NA,NA,61.85770750988142
45686,Gallia County,OH,87.77777777777777,NA,NA,NA,NA
45692,Jackson County,OH,NA,27.762803234501348,70.1492537313433,NA,NA
45694,Scioto County,OH,NA,NA,31.218905472636816,NA,NA
45697,Adams County,OH,NA,77.89757412398922,NA,NA,NA
45723,Athens County,OH,NA,93.53099730458221,NA,NA,NA
45750,Washington County,OH,NA,NA,2.2388059701492535,NA,2.5691699604743086
45822,Mercer County,OH,NA,NA,NA,NA,74.90118577075098
45840,Hancock County,OH,NA,NA,NA,3.2426778242677825,NA
45872,Wood County,OH,NA,NA,95.52238805970148,NA,NA
73005,Caddo County,OK,NA,48.78706199460917,NA,81.58995815899581,NA
73006,Caddo County,OK,NA,96.49595687331536,NA,NA,NA
73010,McClain County,OK,NA,NA,NA,NA,86.16600790513834
73052,Garvin County,OK,NA,NA,93.53233830845771,NA,NA
73069,Cleveland County,OK,NA,NA,NA,68.72384937238493,NA
73071,Cleveland County,OK,NA,NA,NA,15.167364016736402,NA
73075,Garvin County,OK,NA,75.74123989218329,NA,93.51464435146444,NA
73089,Grady County,OK,NA,93.26145552560648,NA,NA,NA
73119,Oklahoma County,OK,NA,24.258760107816713,NA,NA,NA
73142,Oklahoma County,OK,NA,NA,NA,78.66108786610879,NA
73401,Carter County,OK,40.370370370370374,NA,NA,NA,NA
73439,Marshall County,OK,NA,86.79245283018868,NA,NA,93.67588932806325
73443,Carter County,OK,NA,98.6522911051213,NA,NA,NA
73505,Comanche County,OK,NA,44.474393530997304,NA,NA,NA
73701,Garfield County,OK,NA,NA,NA,33.68200836820084,NA
74017,Rogers County,OK,NA,78.97574123989219,NA,50.627615062761514,NA
74029,Washington County,OK,NA,NA,NA,92.99163179916317,NA
74048,Nowata County,OK,NA,NA,NA,90.3765690376569,NA
74066,Creek County,OK,NA,NA,34.452736318407965,NA,NA
74352,Mayes County,OK,NA,NA,88.93034825870647,NA,NA
74361,Mayes County,OK,NA,NA,NA,NA,80.8300395256917
74401,Muskogee County,OK,NA,NA,NA,NA,67.78656126482213
74426,McIntosh County,OK,NA,NA,NA,NA,92.29249011857708
74464,Cherokee County,OK,NA,NA,NA,19.142259414225943,NA
74501,Pittsburg County,OK,NA,NA,NA,48.64016736401673,NA
74525,Atoka County,OK,NA,NA,NA,81.06694560669456,NA
74571,Le Flore County,OK,NA,90.02695417789758,NA,87.55230125523012,NA
74604,Kay County,OK,90.37037037037037,NA,NA,NA,NA
74701,Bryan County,OK,NA,NA,NA,NA,46.44268774703557
74728,McCurtain County,OK,NA,NA,NA,84.72803347280335,NA
74743,Choctaw County,OK,NA,NA,NA,NA,72.5296442687747
74745,McCurtain County,OK,61.48148148148148,NA,NA,NA,NA
74820,Pontotoc County,OK,NA,NA,56.21890547263681,NA,NA
74851,Pottawatomie County,OK,NA,74.66307277628033,NA,NA,NA
74857,Cleveland County,OK,NA,NA,81.21890547263682,NA,NA
74859,Okfuskee County,OK,NA,NA,NA,87.86610878661088,92.09486166007905
74873,Pottawatomie County,OK,NA,83.01886792452831,NA,NA,NA
74948,Sequoyah County,OK,NA,NA,NA,78.24267782426779,NA
74953,Le Flore County,OK,NA,73.8544474393531,NA,NA,NA
74959,Le Flore County,OK,NA,81.6711590296496,NA,NA,NA
74960,Adair County,OK,NA,72.50673854447439,NA,41.31799163179916,NA
97006,Washington County,OR,NA,NA,65.67164179104478,NA,NA
97007,Washington County,OR,NA,NA,NA,64.3305439330544,NA
97009,Clackamas County,OR,NA,NA,89.92537313432835,NA,NA
97071,Marion County,OR,NA,NA,NA,NA,54.9407114624506
97124,Washington County,OR,NA,NA,NA,23.326359832635983,NA
97132,Yamhill County,OR,NA,66.84636118598382,NA,NA,NA
97215,Multnomah County,OR,98.88888888888889,NA,NA,NA,NA
97222,Clackamas County,OR,NA,NA,NA,NA,75.69169960474308
97223,Washington County,OR,NA,NA,NA,25.313807531380757,NA
97224,Washington County,OR,NA,NA,56.71641791044776,NA,NA
97230,Multnomah County,OR,NA,NA,25.621890547263682,NA,NA
97267,Clackamas County,OR,NA,NA,NA,40.1673640167364,NA
97338,Polk County,OR,49.629629629629626,NA,NA,NA,NA
97439,Lane County,OR,NA,NA,NA,NA,22.92490118577075
97470,Douglas County,OR,NA,NA,33.45771144278607,26.04602510460251,NA
97801,Umatilla County,OR,NA,NA,NA,27.405857740585777,NA
15106,Allegheny County,PA,82.96296296296296,NA,NA,NA,NA
15201,Allegheny County,PA,NA,NA,NA,NA,70.7509881422925
15236,Allegheny County,PA,NA,NA,50.87064676616916,NA,NA
15317,Washington County,PA,NA,NA,NA,NA,19.367588932806324
15370,Greene County,PA,NA,NA,NA,57.63598326359832,NA
15401,Fayette County,PA,NA,NA,10.323383084577115,5.7531380753138075,NA
16025,Butler County,PA,NA,NA,88.80597014925374,NA,NA
16301,Venango County,PA,NA,NA,NA,44.03765690376569,NA
16428,Erie County,PA,NA,NA,NA,93.30543933054393,NA
16442,Erie County,PA,NA,NA,NA,99.68619246861925,NA
16506,Erie County,PA,NA,NA,70.27363184079603,NA,NA
16652,Huntingdon County,PA,NA,NA,NA,18.93305439330544,NA
16830,Clearfield County,PA,NA,NA,NA,31.171548117154813,NA
16833,Clearfield County,PA,NA,NA,NA,59.72803347280335,NA
17011,Cumberland County,PA,NA,NA,NA,20.0836820083682,20.55335968379447
17019,York County,PA,NA,NA,NA,49.26778242677825,NA
17033,Dauphin County,PA,NA,NA,35.44776119402985,NA,NA
17036,Dauphin County,PA,6.666666666666667,NA,NA,NA,NA
17042,Lebanon County,PA,11.11111111111111,NA,NA,NA,NA
17055,Cumberland County,PA,40.74074074074074,NA,NA,NA,NA
17057,Dauphin County,PA,45.55555555555556,57.95148247978437,NA,NA,NA
17078,Lebanon County,PA,14.074074074074074,NA,20.522388059701495,NA,NA
17109,Dauphin County,PA,42.592592592592595,NA,NA,NA,NA
17111,Dauphin County,PA,76.29629629629629,NA,NA,NA,NA
17112,Dauphin County,PA,NA,NA,NA,5.857740585774058,NA
17202,Franklin County,PA,NA,NA,30.472636815920396,NA,NA
17319,York County,PA,92.96296296296296,NA,NA,NA,NA
17340,Adams County,PA,91.85185185185185,NA,NA,NA,NA
17402,York County,PA,NA,NA,21.51741293532338,NA,NA
17552,Lancaster County,PA,NA,NA,NA,NA,49.80237154150198
17701,Lycoming County,PA,NA,NA,NA,6.2761506276150625,NA
17754,Lycoming County,PA,NA,NA,NA,NA,29.249011857707508
17756,Lycoming County,PA,69.62962962962963,NA,NA,NA,NA
17801,Northumberland County,PA,NA,54.17789757412399,NA,NA,83.20158102766798
17815,Columbia County,PA,NA,64.95956873315365,68.03482587064677,43.61924686192469,50
17821,Montour County,PA,NA,NA,NA,15.376569037656903,25.889328063241106
17834,Northumberland County,PA,NA,NA,NA,93.6192468619247,79.64426877470355
17837,Union County,PA,82.5925925925926,NA,NA,74.68619246861925,NA
17842,Snyder County,PA,NA,NA,NA,70.0836820083682,NA
17851,Northumberland County,PA,NA,NA,NA,51.46443514644351,NA
17853,Snyder County,PA,NA,NA,98.75621890547264,NA,NA
17866,Northumberland County,PA,NA,70.35040431266847,NA,NA,NA
17870,Snyder County,PA,NA,NA,NA,31.276150627615063,NA
17872,Northumberland County,PA,NA,NA,NA,39.12133891213389,49.209486166007906
17963,Schuylkill County,PA,NA,NA,83.2089552238806,NA,NA
18224,Luzerne County,PA,NA,NA,NA,84.93723849372385,NA
18510,Lackawanna County,PA,NA,NA,67.66169154228857,NA,NA
18603,Columbia County,PA,NA,NA,NA,54.28870292887029,NA
18621,Luzerne County,PA,NA,94.07008086253369,NA,NA,NA
18642,Luzerne County,PA,NA,NA,NA,78.45188284518828,NA
18643,Luzerne County,PA,NA,NA,NA,NA,51.18577075098815
18651,Luzerne County,PA,NA,70.61994609164421,NA,NA,NA
18655,Luzerne County,PA,NA,NA,NA,85.8786610878661,NA
18702,Luzerne County,PA,NA,NA,81.34328358208955,4.497907949790795,NA
18704,Luzerne County,PA,NA,68.73315363881402,NA,NA,NA
18705,Luzerne County,PA,NA,NA,56.840796019900495,46.02510460251046,NA
18706,Luzerne County,PA,NA,NA,42.039800995024876,NA,NA
18707,Luzerne County,PA,NA,NA,61.19402985074627,NA,NA
18708,Luzerne County,PA,NA,NA,NA,NA,83.399209486166
19078,Delaware County,PA,NA,NA,67.28855721393035,NA,NA
19087,Chester County,PA,NA,NA,NA,NA,41.10671936758894
19094,Delaware County,PA,NA,NA,NA,NA,96.6403162055336
19104,Philadelphia County,PA,NA,NA,NA,54.49790794979079,NA
19114,Philadelphia County,PA,42.96296296296296,NA,NA,NA,NA
19120,Philadelphia County,PA,NA,NA,3.482587064676617,NA,NA
19138,Philadelphia County,PA,NA,NA,NA,23.117154811715483,NA
19139,Philadelphia County,PA,NA,NA,NA,7.635983263598327,NA
19143,Philadelphia County,PA,NA,NA,1.616915422885572,NA,NA
19145,Philadelphia County,PA,NA,NA,NA,NA,69.76284584980237
19149,Philadelphia County,PA,NA,NA,NA,30.857740585774057,33.59683794466403
19151,Philadelphia County,PA,NA,NA,NA,72.38493723849372,NA
19341,Chester County,PA,NA,NA,NA,72.90794979079497,NA
19380,Chester County,PA,12.592592592592592,NA,NA,NA,NA
19606,Berks County,PA,NA,NA,NA,4.811715481171548,NA
02852,Washington County,RI,NA,NA,NA,NA,36.75889328063241
02871,Newport County,RI,NA,NA,NA,NA,77.07509881422925
02889,Kent County,RI,NA,NA,27.611940298507463,NA,NA
02907,Providence County,RI,NA,NA,NA,81.3807531380753,NA
02908,Providence County,RI,17.77777777777778,NA,NA,NA,NA
02910,Providence County,RI,NA,NA,54.72636815920397,NA,NA
02920,Providence County,RI,NA,NA,NA,52.09205020920502,NA
29067,Lancaster County,SC,NA,NA,NA,86.71548117154812,NA
29138,Saluda County,SC,NA,NA,NA,92.05020920502092,NA
29150,Sumter County,SC,71.85185185185186,NA,NA,28.13807531380753,NA
29153,Sumter County,SC,NA,NA,NA,62.23849372384937,NA
29302,Spartanburg County,SC,NA,NA,79.47761194029852,72.48953974895397,NA
29401,Charleston County,SC,NA,NA,98.38308457711443,NA,NA
29403,Charleston County,SC,NA,NA,47.2636815920398,NA,NA
29405,Charleston County,SC,NA,NA,NA,NA,60.079051383399204
29406,Charleston County,SC,NA,23.71967654986523,NA,NA,NA
29407,Charleston County,SC,36.2962962962963,59.83827493261455,NA,NA,NA
29414,Charleston County,SC,NA,NA,NA,NA,90.71146245059289
29418,Charleston County,SC,NA,55.79514824797843,41.91542288557214,NA,NA
29456,Dorchester County,SC,NA,48.78706199460917,NA,NA,NA
29466,Charleston County,SC,NA,NA,52.61194029850746,NA,NA
29472,Dorchester County,SC,NA,89.21832884097036,NA,96.54811715481172,NA
29483,Dorchester County,SC,9.62962962962963,NA,NA,NA,NA
29588,Horry County,SC,NA,NA,NA,NA,26.284584980237153
29601,Greenville County,SC,NA,NA,73.50746268656717,NA,NA
29627,Anderson County,SC,NA,NA,NA,58.47280334728033,NA
29650,Greenville County,SC,NA,NA,NA,45.81589958158996,NA
29651,Greenville County,SC,NA,NA,NA,14.748953974895398,NA
29673,Greenville County,SC,NA,NA,41.417910447761194,NA,NA
29707,Lancaster County,SC,NA,NA,NA,NA,26.08695652173913
29710,York County,SC,NA,NA,NA,79.39330543933055,NA
29732,York County,SC,NA,NA,NA,NA,58.10276679841897
29832,Edgefield County,SC,NA,98.6522911051213,NA,NA,NA
29910,Beaufort County,SC,94.81481481481482,NA,NA,NA,NA
57006,Brookings County,SD,NA,NA,NA,43.51464435146444,18.57707509881423
57042,Lake County,SD,NA,NA,NA,48.012552301255226,NA
57103,Minnehaha County,SD,NA,NA,NA,25.418410041841007,NA
57339,Buffalo County,SD,NA,32.88409703504043,NA,NA,NA
57380,Charles Mix County,SD,NA,72.77628032345014,NA,NA,NA
57601,Walworth County,SD,NA,NA,98.13432835820896,NA,NA
57625,Dewey County,SD,NA,NA,97.636815920398,97.90794979079497,NA
37027,Williamson County,TN,NA,NA,NA,23.221757322175733,NA
37040,Montgomery County,TN,NA,NA,26.741293532338307,NA,NA
37066,Sumner County,TN,NA,NA,NA,NA,27.865612648221344
37076,Davidson County,TN,NA,NA,NA,32.00836820083682,NA
37087,Wilson County,TN,NA,NA,NA,25.523012552301257,NA
37128,Rutherford County,TN,NA,NA,30.597014925373134,NA,65.61264822134387
37144,Lincoln County,TN,NA,NA,99.87562189054727,NA,NA
37160,Bedford County,TN,NA,NA,NA,34.10041841004184,NA
37187,Dickson County,TN,NA,NA,78.1094527363184,NA,NA
37210,Davidson County,TN,NA,NA,NA,68.51464435146444,NA
37215,Davidson County,TN,NA,NA,NA,NA,40.71146245059288
37218,Davidson County,TN,NA,71.69811320754717,NA,NA,NA
37220,Davidson County,TN,NA,NA,NA,NA,95.25691699604744
37324,Franklin County,TN,NA,NA,91.04477611940298,NA,NA
37343,Hamilton County,TN,NA,NA,25.497512437810943,NA,NA
37370,McMinn County,TN,NA,NA,90.29850746268657,NA,NA
37617,Sullivan County,TN,NA,NA,NA,64.85355648535564,NA
37643,Carter County,TN,NA,NA,15.298507462686567,NA,NA
37748,Roane County,TN,NA,NA,37.43781094527363,NA,NA
37766,Campbell County,TN,NA,NA,39.55223880597015,NA,NA
37830,Anderson County,TN,38.88888888888889,NA,NA,NA,NA
38127,Shelby County,TN,NA,NA,NA,37.761506276150634,NA
38135,Shelby County,TN,92.22222222222223,NA,NA,NA,NA
38351,Henderson County,TN,NA,NA,NA,45.39748953974895,NA
75002,Collin County,TX,NA,NA,NA,63.91213389121339,NA
75019,Dallas County,TX,NA,NA,NA,NA,75.8893280632411
75020,Grayson County,TX,NA,NA,NA,36.61087866108787,NA
75041,Dallas County,TX,NA,NA,47.885572139303484,NA,NA
75056,Denton County,TX,NA,30.727762803234505,NA,NA,NA
75076,Grayson County,TX,NA,NA,NA,91.94560669456067,NA
75090,Grayson County,TX,NA,NA,NA,57.21757322175732,NA
75104,Dallas County,TX,NA,NA,NA,30.648535564853557,NA
75154,Ellis County,TX,NA,NA,NA,43.41004184100418,NA
75211,Dallas County,TX,NA,7.277628032345014,NA,NA,NA
75212,Dallas County,TX,NA,31.536388140161726,NA,NA,NA
75232,Dallas County,TX,NA,NA,48.756218905472636,NA,NA
75235,Dallas County,TX,NA,NA,70.27363184079603,NA,NA
75440,Rains County,TX,NA,NA,90.54726368159204,NA,NA
75633,Panola County,TX,NA,NA,92.41293532338308,NA,NA
75662,Gregg County,TX,NA,NA,NA,NA,46.24505928853755
75701,Smith County,TX,NA,NA,NA,NA,7.5098814229249005
75703,Smith County,TX,NA,NA,NA,27.615062761506277,40.909090909090914
75766,Cherokee County,TX,NA,NA,89.05472636815921,NA,NA
75904,Angelina County,TX,NA,NA,NA,15.062761506276152,NA
75948,Sabine County,TX,NA,NA,NA,NA,81.62055335968378
76110,Tarrant County,TX,NA,NA,NA,50.836820083682014,NA
76140,Tarrant County,TX,NA,32.61455525606469,84.82587064676616,NA,NA
76244,Tarrant County,TX,NA,47.16981132075472,NA,NA,NA
76255,Montague County,TX,NA,NA,95.64676616915423,NA,NA
76502,Bell County,TX,NA,20.754716981132077,NA,NA,0.1976284584980237
76504,Bell County,TX,NA,NA,12.064676616915424,NA,NA
76513,Bell County,TX,NA,NA,NA,NA,1.383399209486166
76522,Coryell County,TX,21.11111111111111,NA,NA,NA,NA
76549,Bell County,TX,NA,NA,25.870646766169152,NA,NA
76705,McLennan County,TX,NA,NA,20.64676616915423,NA,NA
76706,McLennan County,TX,NA,NA,38.308457711442784,44.6652719665272,NA
76707,McLennan County,TX,17.037037037037038,NA,NA,NA,NA
76708,McLennan County,TX,NA,NA,50.99502487562189,53.870292887029294,92.4901185770751
76710,McLennan County,TX,NA,NA,58.83084577114428,NA,NA
76712,McLennan County,TX,NA,NA,NA,NA,69.1699604743083
76823,Brown County,TX,NA,NA,96.39303482587064,NA,NA
76903,Tom Green County,TX,52.22222222222223,NA,NA,NA,NA
77008,Harris County,TX,NA,NA,NA,72.28033472803347,NA
77015,Harris County,TX,NA,NA,43.159203980099505,NA,NA
77023,Harris County,TX,NA,NA,62.810945273631845,NA,NA
77024,Harris County,TX,NA,NA,NA,41.52719665271967,NA
77028,Harris County,TX,NA,NA,54.1044776119403,NA,NA
77030,Harris County,TX,69.25925925925925,NA,NA,NA,NA
77031,Harris County,TX,NA,NA,78.60696517412936,NA,NA
77033,Harris County,TX,NA,NA,NA,NA,42.490118577075094
77036,Harris County,TX,44.81481481481481,NA,NA,23.95397489539749,NA
77037,Harris County,TX,NA,NA,NA,90.48117154811716,NA
77040,Harris County,TX,NA,NA,NA,30.857740585774057,NA
77041,Harris County,TX,NA,NA,NA,40.37656903765691,NA
77049,Harris County,TX,NA,NA,NA,76.77824267782427,NA
77051,Harris County,TX,NA,NA,NA,57.94979079497908,NA
77058,Harris County,TX,NA,NA,NA,80.9623430962343,NA
77060,Harris County,TX,NA,NA,64.17910447761194,NA,NA
77067,Harris County,TX,NA,58.760107816711596,NA,NA,NA
77071,Harris County,TX,NA,NA,92.7860696517413,NA,NA
77073,Harris County,TX,NA,NA,57.46268656716418,84.8326359832636,NA
77078,Harris County,TX,NA,NA,77.7363184079602,62.34309623430963,NA
77082,Harris County,TX,NA,NA,NA,NA,61.462450592885375
77084,Harris County,TX,NA,NA,14.676616915422885,NA,NA
77088,Harris County,TX,NA,NA,NA,34.10041841004184,NA
77090,Harris County,TX,62.22222222222222,NA,NA,NA,NA
77091,Harris County,TX,NA,NA,NA,NA,56.7193675889328
77092,Harris County,TX,NA,NA,NA,65.69037656903765,NA
77339,Harris County,TX,63.33333333333333,NA,NA,NA,NA
77373,Harris County,TX,NA,NA,32.21393034825871,NA,NA
77396,Harris County,TX,NA,42.04851752021563,NA,NA,NA
77406,Fort Bend County,TX,NA,97.03504043126685,NA,NA,99.40711462450594
77407,Fort Bend County,TX,NA,NA,NA,NA,95.65217391304348
77422,Brazoria County,TX,NA,NA,NA,NA,98.81422924901186
77445,Waller County,TX,100,NA,NA,NA,NA
77469,Fort Bend County,TX,NA,NA,31.965174129353237,NA,NA
77506,Harris County,TX,NA,NA,62.93532338308457,NA,NA
77510,Galveston County,TX,NA,NA,66.4179104477612,NA,83.59683794466403
77511,Brazoria County,TX,14.814814814814813,NA,19.029850746268657,NA,NA
77539,Galveston County,TX,NA,NA,NA,45.71129707112971,NA
77546,Galveston County,TX,NA,NA,NA,75.6276150627615,NA
77550,Galveston County,TX,NA,18.328840970350406,NA,68.93305439330544,NA
77551,Galveston County,TX,NA,NA,62.68656716417911,27.824267782426777,NA
77554,Galveston County,TX,NA,NA,NA,77.30125523012552,NA
77563,Galveston County,TX,NA,94.87870619946092,NA,NA,NA
77568,Galveston County,TX,NA,NA,37.56218905472637,91.73640167364016,59.48616600790514
77573,Galveston County,TX,NA,NA,NA,83.15899581589959,58.69565217391305
77581,Brazoria County,TX,NA,NA,NA,22.07112970711297,NA
77583,Brazoria County,TX,NA,NA,55.09950248756219,NA,NA
77587,Harris County,TX,NA,NA,82.2139303482587,NA,NA
77630,Orange County,TX,38.148148148148145,NA,NA,34.41422594142259,NA
77656,Hardin County,TX,NA,NA,NA,61.61087866108787,NA
77706,Jefferson County,TX,NA,NA,NA,34.72803347280335,NA
77802,Brazos County,TX,60.74074074074074,NA,NA,NA,NA
77808,Brazos County,TX,NA,NA,NA,61.29707112970711,NA
77836,Burleson County,TX,NA,NA,NA,79.70711297071131,NA
77845,Brazos County,TX,NA,NA,NA,94.6652719665272,NA
77859,Robertson County,TX,82.22222222222221,NA,NA,NA,NA
77864,Madison County,TX,NA,85.71428571428571,NA,NA,NA
78109,Bexar County,TX,NA,NA,51.61691542288557,NA,NA
78202,Bexar County,TX,NA,51.21293800539084,NA,NA,NA
78254,Bexar County,TX,31.851851851851855,NA,NA,73.84937238493724,NA
78501,Hidalgo County,TX,NA,NA,NA,58.78661087866108,NA
78520,Cameron County,TX,NA,NA,NA,29.602510460251047,NA
78537,Hidalgo County,TX,NA,6.738544474393531,NA,NA,NA
78542,Hidalgo County,TX,NA,NA,NA,28.97489539748954,NA
78550,Cameron County,TX,NA,NA,NA,NA,31.422924901185773
78577,Hidalgo County,TX,NA,NA,NA,NA,14.624505928853754
78613,Williamson County,TX,NA,NA,NA,17.88702928870293,8.893280632411066
78621,Bastrop County,TX,NA,NA,NA,67.78242677824268,NA
78626,Williamson County,TX,NA,NA,NA,48.74476987447699,NA
78628,Williamson County,TX,NA,NA,NA,61.71548117154811,55.13833992094862
78633,Williamson County,TX,NA,NA,NA,13.284518828451883,23.715415019762844
78666,Hays County,TX,NA,NA,NA,37.13389121338912,NA
78739,Travis County,TX,NA,NA,NA,97.17573221757321,NA
78745,Travis County,TX,22.22222222222222,NA,NA,NA,NA
78753,Travis County,TX,NA,NA,NA,70.60669456066945,NA
78758,Travis County,TX,NA,NA,57.08955223880597,NA,NA
79347,Bailey County,TX,86.29629629629629,NA,NA,NA,NA
79707,Midland County,TX,NA,NA,NA,46.33891213389121,NA
79766,Ector County,TX,NA,NA,93.90547263681593,NA,NA
79927,El Paso County,TX,NA,14.555256064690028,60.19900497512438,NA,NA
84003,Utah County,UT,NA,NA,47.13930348258707,NA,NA
84010,Davis County,UT,NA,NA,NA,60.35564853556485,NA
84060,Summit County,UT,NA,NA,NA,89.3305439330544,NA
84065,Salt Lake County,UT,NA,NA,41.29353233830846,NA,68.77470355731225
84074,Tooele County,UT,NA,NA,NA,NA,30.039525691699602
84081,Salt Lake County,UT,NA,NA,NA,58.68200836820083,93.87351778656127
84092,Salt Lake County,UT,NA,NA,NA,93.09623430962343,NA
84103,Salt Lake County,UT,NA,NA,NA,70.92050209205021,NA
84104,Salt Lake County,UT,NA,NA,NA,NA,87.35177865612648
84105,Salt Lake County,UT,NA,NA,NA,NA,74.70355731225297
84109,Salt Lake County,UT,NA,NA,88.05970149253731,NA,NA
84115,Salt Lake County,UT,NA,NA,NA,34.8326359832636,NA
84116,Salt Lake County,UT,NA,NA,31.343283582089555,NA,NA
84118,Salt Lake County,UT,NA,NA,NA,53.13807531380753,NA
84119,Salt Lake County,UT,NA,NA,45.52238805970149,NA,NA
84120,Salt Lake County,UT,NA,NA,NA,20.81589958158996,50.59288537549407
84121,Salt Lake County,UT,NA,NA,NA,17.677824267782427,NA
84124,Salt Lake County,UT,NA,NA,NA,68.09623430962343,NA
84129,,UT,NA,NA,NA,29.707112970711297,NA
84401,Weber County,UT,NA,NA,NA,NA,73.3201581027668
84404,Weber County,UT,NA,NA,NA,72.69874476987448,NA
84501,Carbon County,UT,NA,NA,NA,NA,96.83794466403161
84532,Grand County,UT,NA,NA,NA,NA,84.98023715415019
84741,Kane County,UT,NA,NA,99.75124378109453,NA,NA
05001,Windsor County,VT,NA,NA,86.44278606965175,NA,NA
05091,Windsor County,VT,NA,NA,NA,95.81589958158996,NA
05346,Windham County,VT,NA,NA,NA,97.07112970711297,NA
05446,Chittenden County,VT,NA,NA,NA,76.0460251046025,NA
05452,Chittenden County,VT,NA,NA,NA,35.98326359832636,NA
05495,Chittenden County,VT,NA,NA,91.16915422885572,NA,NA
05602,Washington County,VT,NA,NA,NA,36.40167364016737,NA
05701,Rutland County,VT,NA,NA,NA,62.02928870292887,NA
05733,Rutland County,VT,NA,NA,NA,72.80334728033473,NA
05735,Rutland County,VT,NA,NA,NA,98.43096234309623,NA
20121,Fairfax County,VA,NA,NA,NA,73.9539748953975,NA
20176,Loudoun County,VA,NA,NA,52.48756218905473,NA,NA
22408,Spotsylvania County,VA,NA,NA,67.16417910447761,NA,NA
22664,Shenandoah County,VA,NA,NA,NA,59.20502092050209,NA
22802,Harrisonburg city,VA,NA,NA,NA,51.35983263598326,NA
22901,Albemarle County,VA,NA,NA,36.318407960199,63.80753138075313,NA
22902,Charlottesville city,VA,NA,62.8032345013477,76.11940298507463,33.78661087866109,NA
22903,Charlottesville city,VA,NA,NA,31.592039800995025,56.17154811715481,70.35573122529645
22911,Albemarle County,VA,NA,NA,NA,NA,29.841897233201582
22936,Albemarle County,VA,NA,NA,NA,NA,96.24505928853755
22942,Louisa County,VA,NA,NA,NA,71.65271966527197,NA
22947,Albemarle County,VA,NA,NA,NA,91.63179916317992,NA
22963,Fluvanna County,VA,NA,NA,NA,51.778242677824274,NA
22968,Greene County,VA,NA,NA,65.17412935323384,NA,NA
22980,Waynesboro city,VA,NA,NA,NA,NA,5.33596837944664
23114,Chesterfield County,VA,NA,NA,NA,67.46861924686193,NA
23430,Isle of Wight County,VA,NA,NA,69.40298507462687,NA,NA
23434,Suffolk city,VA,NA,NA,NA,10.87866108786611,NA
23504,Norfolk city,VA,NA,NA,NA,82.42677824267783,NA
23508,Norfolk city,VA,NA,NA,77.48756218905473,NA,NA
23666,Hampton city,VA,NA,NA,61.940298507462686,NA,NA
24012,Roanoke city,VA,NA,NA,NA,74.7907949790795,NA
24228,Dickenson County,VA,NA,NA,70.77114427860697,NA,NA
24354,Smyth County,VA,NA,NA,NA,40.69037656903765,NA
24382,Wythe County,VA,NA,NA,49.75124378109453,NA,NA
24401,Staunton city,VA,NA,NA,13.557213930348258,NA,NA
24416,Buena Vista city,VA,NA,86.79245283018868,NA,NA,NA
24501,Lynchburg city,VA,NA,NA,31.592039800995025,NA,NA
24540,Danville city,VA,NA,NA,30.34825870646766,NA,NA
24590,Albemarle County,VA,NA,NA,NA,NA,83.99209486166008
98001,King County,WA,NA,NA,NA,NA,64.82213438735178
98004,King County,WA,NA,NA,NA,89.5397489539749,NA
98005,King County,WA,NA,NA,NA,80.5439330543933,NA
98006,King County,WA,NA,NA,NA,94.35146443514645,98.41897233201581
98007,King County,WA,NA,NA,NA,76.98744769874477,NA
98011,King County,WA,NA,NA,NA,91.31799163179917,NA
98020,Snohomish County,WA,NA,NA,NA,NA,68.97233201581028
98023,King County,WA,NA,NA,77.363184079602,NA,NA
98026,Snohomish County,WA,NA,NA,68.90547263681593,NA,NA
98028,King County,WA,NA,NA,75.24875621890547,NA,NA
98033,King County,WA,NA,NA,NA,31.380753138075313,NA
98034,King County,WA,NA,NA,35.57213930348259,NA,82.80632411067194
98036,Snohomish County,WA,NA,NA,NA,NA,37.15415019762846
98038,King County,WA,32.592592592592595,NA,NA,NA,NA
98040,King County,WA,NA,NA,NA,57.11297071129707,NA
98056,King County,WA,NA,85.17520215633422,NA,NA,NA
98072,King County,WA,NA,NA,64.6766169154229,NA,NA
98087,Snohomish County,WA,NA,NA,NA,51.25523012552301,NA
98101,King County,WA,NA,NA,71.39303482587064,NA,NA
98104,King County,WA,NA,NA,50.373134328358205,NA,NA
98109,King County,WA,NA,NA,62.43781094527363,82.53138075313807,57.11462450592886
98115,King County,WA,NA,NA,NA,NA,29.64426877470356
98117,King County,WA,NA,NA,NA,82.32217573221757,NA
98118,King County,WA,57.407407407407405,NA,NA,35.0418410041841,NA
98119,King County,WA,NA,NA,90.4228855721393,NA,NA
98121,King County,WA,NA,NA,NA,66.84100418410041,NA
98125,King County,WA,NA,NA,NA,35.35564853556485,NA
98133,King County,WA,NA,NA,NA,NA,44.86166007905138
98144,King County,WA,NA,NA,NA,69.8744769874477,83.79446640316206
98155,King County,WA,NA,NA,NA,43.09623430962343,NA
98166,King County,WA,NA,NA,NA,80.75313807531381,NA
98178,King County,WA,NA,NA,NA,NA,95.45454545454545
98198,King County,WA,NA,NA,NA,NA,26.877470355731226
98204,Snohomish County,WA,NA,NA,NA,50.10460251046025,NA
98221,Skagit County,WA,NA,83.55795148247978,NA,NA,NA
98223,Snohomish County,WA,NA,NA,27.114427860696516,NA,NA
98249,Island County,WA,NA,NA,NA,85.14644351464436,NA
98272,Snohomish County,WA,NA,NA,NA,75.94142259414227,NA
98273,Skagit County,WA,NA,NA,30.970149253731343,16.422594142259413,39.920948616600796
98274,Skagit County,WA,NA,NA,65.92039800995025,74.89539748953975,NA
98277,Island County,WA,NA,NA,NA,NA,15.612648221343871
98284,Skagit County,WA,NA,NA,NA,25.83682008368201,NA
98332,Pierce County,WA,NA,NA,NA,54.60251046025104,NA
98335,Pierce County,WA,NA,NA,NA,NA,34.58498023715415
98354,Pierce County,WA,NA,NA,NA,97.48953974895397,NA
98367,Kitsap County,WA,NA,NA,52.98507462686567,NA,NA
98368,Jefferson County,WA,NA,NA,NA,NA,46.047430830039524
98372,Pierce County,WA,NA,NA,NA,58.995815899581594,NA
98391,Pierce County,WA,NA,NA,18.1592039800995,NA,NA
98404,Pierce County,WA,NA,NA,NA,44.56066945606695,NA
98405,Pierce County,WA,NA,52.2911051212938,NA,NA,NA
98422,Pierce County,WA,NA,NA,NA,65.7949790794979,NA
98445,Pierce County,WA,NA,NA,NA,NA,77.27272727272727
98499,Pierce County,WA,NA,NA,47.51243781094527,NA,NA
98632,Cowlitz County,WA,NA,NA,NA,5.439330543933055,NA
98660,Clark County,WA,NA,NA,87.81094527363184,NA,NA
98801,Chelan County,WA,NA,61.99460916442049,26.368159203980102,95.18828451882845,68.57707509881423
98802,Douglas County,WA,NA,NA,NA,66.0041841004184,NA
98815,Chelan County,WA,NA,100,89.42786069651741,95.29288702928869,NA
98816,Chelan County,WA,NA,NA,NA,NA,75.49407114624506
99336,Benton County,WA,NA,NA,NA,1.4644351464435146,NA
99354,Benton County,WA,NA,NA,NA,31.589958158995817,NA
99362,Walla Walla County,WA,NA,NA,29.601990049751244,NA,NA
20001,District of Columbia,DC,NA,NA,23.756218905472636,NA,NA
20002,District of Columbia,DC,NA,NA,NA,NA,42.29249011857708
20010,District of Columbia,DC,NA,NA,NA,49.47698744769875,59.09090909090909
20024,District of Columbia,DC,NA,NA,61.69154228855721,NA,NA
24739,Mercer County,WV,NA,NA,NA,78.03347280334728,NA
25306,Kanawha County,WV,NA,NA,NA,83.9958158995816,NA
25309,Kanawha County,WV,NA,NA,NA,55.1255230125523,NA
25314,Kanawha County,WV,NA,NA,NA,49.37238493723849,NA
25403,Berkeley County,WV,89.62962962962962,NA,NA,NA,NA
25526,Putnam County,WV,NA,NA,NA,38.912133891213394,NA
25550,Mason County,WV,NA,NA,NA,NA,38.73517786561265
25701,Cabell County,WV,NA,NA,NA,16.527196652719663,28.458498023715418
25704,Wayne County,WV,NA,NA,NA,71.33891213389121,NA
25962,Greenbrier County,WV,NA,NA,NA,89.22594142259415,NA
26003,Ohio County,WV,NA,NA,7.213930348258707,NA,NA
26047,Hancock County,WV,NA,NA,NA,55.753138075313814,NA
26101,Wood County,WV,15.185185185185185,NA,NA,NA,NA
26301,Harrison County,WV,NA,NA,NA,11.401673640167365,NA
26354,Taylor County,WV,NA,NA,53.60696517412935,NA,NA
26416,Barbour County,WV,NA,NA,78.35820895522389,NA,NA
26426,Harrison County,WV,NA,NA,NA,77.51046025104603,NA
26501,Monongalia County,WV,NA,NA,NA,NA,40.11857707509881
26505,Monongalia County,WV,NA,NA,11.691542288557214,7.740585774058577,NA
26508,Monongalia County,WV,54.44444444444444,NA,NA,NA,NA
26525,Preston County,WV,NA,NA,90.79601990049751,NA,NA
26847,Grant County,WV,93.33333333333333,NA,NA,NA,NA
53005,Waukesha County,WI,16.666666666666664,NA,43.90547263681592,49.58158995815899,NA
53021,Ozaukee County,WI,97.4074074074074,NA,NA,NA,NA
53024,Ozaukee County,WI,NA,NA,NA,NA,56.126482213438734
53040,Washington County,WI,NA,NA,NA,97.38493723849372,NA
53045,Waukesha County,WI,NA,NA,NA,48.53556485355649,NA
53051,Waukesha County,WI,NA,NA,NA,85.6694560669456,NA
53066,Waukesha County,WI,NA,NA,NA,76.88284518828452,98.61660079051383
53072,Waukesha County,WI,NA,NA,NA,NA,88.14229249011858
53081,Sheboygan County,WI,28.14814814814815,NA,NA,NA,NA
53089,Waukesha County,WI,NA,NA,66.91542288557214,95.7112970711297,NA
53092,Ozaukee County,WI,73.33333333333333,NA,NA,NA,NA
53095,Washington County,WI,NA,NA,55.472636815920396,NA,88.73517786561264
53105,Racine County,WI,NA,NA,18.781094527363184,NA,32.80632411067194
53110,Milwaukee County,WI,NA,NA,NA,33.15899581589959,32.21343873517787
53115,Walworth County,WI,NA,NA,53.233830845771145,NA,NA
53120,Walworth County,WI,88.14814814814815,NA,NA,NA,NA
53121,Walworth County,WI,NA,NA,NA,29.811715481171547,NA
53142,Kenosha County,WI,13.333333333333334,NA,NA,NA,NA
53144,Kenosha County,WI,NA,NA,NA,65.5857740585774,NA
53147,Walworth County,WI,NA,NA,NA,38.17991631799163,NA
53150,Waukesha County,WI,NA,NA,NA,39.01673640167364,NA
53151,Waukesha County,WI,NA,NA,43.407960199004975,20.920502092050206,52.17391304347826
53154,Milwaukee County,WI,NA,NA,59.32835820895522,11.715481171548117,NA
53158,Kenosha County,WI,NA,NA,24.129353233830848,NA,NA
53172,Milwaukee County,WI,71.11111111111111,NA,NA,NA,NA
53185,Racine County,WI,NA,NA,61.81592039800995,NA,NA
53186,Waukesha County,WI,NA,NA,NA,NA,34.387351778656125
53188,Waukesha County,WI,NA,NA,NA,18.410041841004183,30.039525691699602
53189,Waukesha County,WI,NA,84.36657681940702,NA,92.46861924686193,NA
53204,Milwaukee County,WI,NA,NA,NA,70.92050209205021,66.99604743083005
53205,Milwaukee County,WI,NA,NA,2.8606965174129355,NA,81.81818181818183
53206,Milwaukee County,WI,NA,NA,11.81592039800995,NA,NA
53207,Milwaukee County,WI,48.888888888888886,56.334231805929925,29.726368159203982,NA,NA
53209,Milwaukee County,WI,NA,NA,74.00497512437812,17.468619246861923,NA
53210,Milwaukee County,WI,49.629629629629626,25.067385444743934,9.950248756218906,NA,NA
53211,Milwaukee County,WI,NA,NA,NA,NA,62.845849802371546
53212,Milwaukee County,WI,NA,NA,17.91044776119403,NA,89.72332015810277
53213,Milwaukee County,WI,NA,NA,NA,NA,90.31620553359684
53215,Milwaukee County,WI,NA,NA,5.845771144278607,4.079497907949791,NA
53216,Milwaukee County,WI,NA,NA,63.30845771144279,55.23012552301255,NA
53217,Milwaukee County,WI,NA,NA,NA,NA,18.379446640316203
53218,Milwaukee County,WI,NA,NA,9.203980099502488,40.06276150627615,39.52569169960474
53219,Milwaukee County,WI,25.555555555555554,NA,NA,NA,NA
53220,Milwaukee County,WI,NA,NA,NA,NA,20.75098814229249
53222,Milwaukee County,WI,NA,NA,NA,71.54811715481172,55.73122529644269
53223,Milwaukee County,WI,41.11111111111111,NA,NA,44.03765690376569,17.391304347826086
53224,Milwaukee County,WI,NA,NA,39.92537313432835,NA,NA
53225,Milwaukee County,WI,45.925925925925924,NA,NA,NA,64.03162055335969
53227,Milwaukee County,WI,NA,61.45552560646901,39.0547263681592,NA,54.74308300395256
53228,Milwaukee County,WI,NA,NA,90.54726368159204,NA,NA
53402,Racine County,WI,NA,NA,NA,NA,19.960474308300398
53406,Racine County,WI,NA,NA,NA,NA,66.20553359683794
53511,Rock County,WI,1.4814814814814816,NA,NA,NA,0
53527,Dane County,WI,85.55555555555556,NA,NA,NA,NA
53532,Dane County,WI,NA,NA,70.64676616915423,NA,NA
53536,Rock County,WI,97.77777777777777,NA,NA,NA,NA
53545,Rock County,WI,NA,NA,38.930348258706466,NA,NA
53546,Rock County,WI,NA,NA,52.736318407960205,4.288702928870293,36.56126482213439
53558,Dane County,WI,NA,NA,88.68159203980099,NA,NA
53562,Dane County,WI,NA,NA,NA,62.76150627615063,NA
53566,Green County,WI,NA,NA,NA,NA,14.229249011857709
53589,Dane County,WI,NA,NA,NA,36.19246861924686,NA
53590,Dane County,WI,NA,NA,72.76119402985076,42.88702928870293,27.66798418972332
53593,Dane County,WI,NA,93.53099730458221,85.57213930348259,NA,NA
53597,Dane County,WI,NA,NA,NA,62.97071129707113,NA
53704,Dane County,WI,NA,NA,NA,NA,71.93675889328063
53705,Dane County,WI,NA,NA,NA,77.82426778242679,48.023715415019765
53711,Dane County,WI,NA,NA,36.19402985074627,NA,17.984189723320156
53713,Dane County,WI,NA,78.70619946091644,NA,NA,NA
53714,Dane County,WI,NA,NA,NA,81.48535564853556,NA
53716,Dane County,WI,NA,NA,NA,83.05439330543933,59.88142292490119
53717,Dane County,WI,84.81481481481481,NA,NA,NA,80.03952569169961
53718,Dane County,WI,NA,NA,80.34825870646766,NA,NA
53948,Juneau County,WI,NA,NA,NA,88.80753138075313,NA
54011,Pierce County,WI,NA,NA,NA,86.82008368200836,NA
54020,Polk County,WI,NA,NA,78.23383084577115,NA,NA
54481,Portage County,WI,NA,NA,NA,NA,10.474308300395258
54482,Portage County,WI,NA,NA,NA,NA,57.509881422924906
54601,La Crosse County,WI,7.777777777777778,39.892183288409704,54.47761194029851,83.78661087866108,47.82608695652174
54603,La Crosse County,WI,72.22222222222221,NA,82.71144278606965,24.581589958158993,79.84189723320159
54630,Trempealeau County,WI,NA,NA,NA,95.92050209205021,80.43478260869566
54636,La Crosse County,WI,NA,NA,NA,79.9163179916318,82.01581027667984
54650,La Crosse County,WI,NA,NA,57.711442786069654,88.38912133891213,61.6600790513834
54660,Monroe County,WI,NA,NA,NA,49.163179916317986,NA
54665,Vernon County,WI,NA,NA,NA,67.46861924686193,NA
54669,La Crosse County,WI,NA,NA,NA,78.76569037656904,NA
54720,Eau Claire County,WI,NA,NA,NA,NA,96.04743083003953
54751,Dunn County,WI,NA,NA,37.93532338308458,NA,NA
54880,Douglas County,WI,NA,NA,18.407960199004975,24.163179916317993,35.177865612648226
54952,Winnebago County,WI,NA,NA,52.11442786069652,NA,NA
54981,Waupaca County,WI,NA,NA,87.18905472636816,NA,NA
54982,Waushara County,WI,NA,NA,76.99004975124379,NA,NA
82009,Laramie County,WY,NA,NA,74.12935323383084,NA,NA
82070,Albany County,WY,83.7037037037037,NA,NA,NA,NA
82901,Sweetwater County,WY,NA,NA,60.07462686567165,NA,NA
