ZipCode,county,state,Youth,Pediatric,Adult,Retirement,Geriatric
35007,Shelby County,AL,NA,53,NA,41.19718309859155,NA
35023,Jefferson County,AL,NA,NA,NA,NA,22.903225806451612
35054,St. Clair County,AL,NA,NA,NA,NA,88.70967741935483
35085,Chilton County,AL,NA,NA,86.30239520958084,NA,NA
35094,Jefferson County,AL,71.9672131147541,NA,NA,NA,NA
35096,Talladega County,AL,68.52459016393443,NA,NA,NA,NA
35126,Jefferson County,AL,NA,53.333333333333336,NA,NA,NA
35128,St. Clair County,AL,NA,NA,75.97305389221557,NA,NA
35150,Talladega County,AL,NA,54.666666666666664,NA,NA,NA
35179,Cullman County,AL,NA,NA,95.50898203592814,NA,NA
35180,Jefferson County,AL,NA,NA,NA,73.82629107981221,NA
35213,Jefferson County,AL,78.36065573770492,NA,NA,NA,NA
35214,Jefferson County,AL,NA,NA,33.23353293413174,NA,NA
35215,Jefferson County,AL,NA,NA,NA,40.375586854460096,NA
35218,Jefferson County,AL,NA,NA,65.5688622754491,NA,96.61290322580646
35223,Jefferson County,AL,NA,NA,90.7934131736527,NA,NA
35563,Marion County,AL,NA,NA,NA,NA,87.25806451612902
35594,Marion County,AL,NA,NA,NA,NA,91.45161290322581
35650,Lawrence County,AL,NA,NA,58.38323353293413,NA,NA
35660,Colbert County,AL,NA,NA,70.65868263473054,NA,NA
35805,Madison County,AL,47.377049180327866,NA,NA,NA,73.54838709677419
35901,Etowah County,AL,NA,NA,36.227544910179645,NA,NA
35954,Etowah County,AL,59.01639344262295,NA,NA,NA,NA
35976,Marshall County,AL,NA,NA,47.30538922155689,NA,NA
35978,DeKalb County,AL,95.73770491803279,NA,NA,NA,NA
35980,Marshall County,AL,NA,NA,96.40718562874252,NA,NA
35983,Cherokee County,AL,NA,NA,NA,NA,99.35483870967742
36067,Autauga County,AL,NA,NA,NA,53.286384976525824,NA
36110,Montgomery County,AL,NA,69,NA,NA,NA
36111,Montgomery County,AL,NA,NA,NA,88.96713615023474,NA
36116,Montgomery County,AL,NA,NA,20.359281437125748,NA,NA
36117,Montgomery County,AL,NA,NA,NA,NA,21.451612903225804
36268,Talladega County,AL,NA,NA,85.47904191616766,NA,NA
36360,Dale County,AL,NA,NA,NA,NA,55.80645161290323
36401,Conecuh County,AL,NA,NA,NA,86.50234741784037,NA
36420,Covington County,AL,NA,NA,81.437125748502993,NA,NA
36522,Mobile County,AL,90.81967213114754,NA,NA,NA,NA
36587,Mobile County,AL,66.88524590163935,NA,NA,NA,NA
36801,Lee County,AL,NA,NA,62.5748502994012,NA,NA
36854,Chambers County,AL,NA,NA,63.99700598802395,NA,NA
36869,Russell County,AL,NA,NA,58.00898203592815,NA,NA
99504,Anchorage Municipality,AK,NA,NA,21.631736526946106,NA,NA
99508,Anchorage Municipality,AK,NA,NA,17.58982035928144,NA,NA
99515,Anchorage Municipality,AK,NA,NA,94.16167664670658,NA,NA
99517,Anchorage Municipality,AK,NA,NA,64.37125748502994,NA,NA
99559,Bethel Census Area,AK,NA,NA,89.89520958083833,NA,NA
99576,Dillingham Census Area,AK,NA,NA,92.88922155688623,NA,NA
99623,,AK,NA,NA,82.03592814371258,NA,NA
99645,Matanuska-Susitna Borough,AK,NA,81.33333333333333,NA,NA,NA
99669,Kenai Peninsula Borough,AK,NA,NA,73.42814371257485,NA,NA
99712,Fairbanks North Star Borough,AK,79.34426229508198,NA,NA,NA,NA
99762,Nome Census Area,AK,NA,NA,97.52994011976048,NA,NA
85006,Maricopa County,AZ,NA,21,NA,NA,NA
85007,Maricopa County,AZ,NA,NA,NA,36.502347417840376,NA
85008,Maricopa County,AZ,33.278688524590166,NA,13.023952095808383,NA,NA
85012,Maricopa County,AZ,76.72131147540983,NA,NA,NA,NA
85018,Maricopa County,AZ,26.065573770491802,NA,NA,NA,NA
85021,Maricopa County,AZ,30.16393442622951,NA,NA,NA,NA
85022,Maricopa County,AZ,32.459016393442624,NA,54.041916167664674,NA,NA
85023,Maricopa County,AZ,57.377049180327866,NA,NA,NA,NA
85035,Maricopa County,AZ,15.901639344262295,NA,NA,NA,NA
85037,Maricopa County,AZ,NA,NA,26.047904191616766,NA,NA
85041,Maricopa County,AZ,NA,NA,35.104790419161674,NA,NA
85044,Maricopa County,AZ,34.0983606557377,NA,NA,NA,NA
85045,Maricopa County,AZ,NA,NA,NA,98.94366197183099,NA
85119,Pinal County,AZ,NA,NA,89.67065868263472,49.178403755868544,NA
85128,Pinal County,AZ,NA,NA,NA,62.441314553990615,NA
85132,Pinal County,AZ,59.83606557377049,NA,NA,NA,NA
85140,Pinal County,AZ,46.885245901639344,NA,NA,NA,NA
85143,Pinal County,AZ,NA,NA,37.4251497005988,NA,NA
85205,Maricopa County,AZ,NA,NA,NA,27.816901408450708,NA
85207,Maricopa County,AZ,31.311475409836063,NA,NA,NA,NA
85208,Maricopa County,AZ,NA,NA,86.82634730538922,NA,NA
85254,Maricopa County,AZ,NA,NA,NA,37.558685446009385,NA
85255,Maricopa County,AZ,NA,NA,52.02095808383233,NA,NA
85282,Maricopa County,AZ,NA,NA,42.88922155688623,NA,NA
85286,Maricopa County,AZ,NA,NA,67.51497005988024,NA,NA
85295,Maricopa County,AZ,32.950819672131146,NA,40.41916167664671,NA,NA
85296,Maricopa County,AZ,NA,NA,35.029940119760475,NA,NA
85297,Maricopa County,AZ,NA,NA,64.14670658682635,NA,NA
85303,Maricopa County,AZ,NA,NA,52.76946107784431,NA,NA
85304,Maricopa County,AZ,NA,NA,54.11676646706587,NA,NA
85308,Maricopa County,AZ,NA,NA,35.70359281437126,NA,NA
85339,Maricopa County,AZ,NA,NA,21.107784431137723,NA,NA
85351,Maricopa County,AZ,NA,NA,NA,NA,1.2903225806451613
85383,Maricopa County,AZ,NA,NA,28.443113772455092,NA,NA
85390,Maricopa County,AZ,75.40983606557377,NA,NA,NA,NA
85541,Gila County,AZ,NA,NA,50.44910179640718,44.835680751173705,NA
85603,Cochise County,AZ,NA,NA,NA,80.04694835680752,NA
85621,Santa Cruz County,AZ,NA,12.333333333333334,NA,NA,NA
85635,Cochise County,AZ,NA,NA,NA,NA,33.387096774193544
85701,Pima County,AZ,NA,NA,NA,83.68544600938968,NA
85705,Pima County,AZ,NA,NA,18.937125748502996,NA,NA
85710,Pima County,AZ,NA,NA,7.859281437125748,NA,NA
85713,Pima County,AZ,NA,5.666666666666666,NA,NA,22.419354838709676
85718,Pima County,AZ,46.885245901639344,NA,NA,21.36150234741784,NA
85743,Pima County,AZ,50.1639344262295,NA,NA,NA,NA
85757,Pima County,AZ,47.868852459016395,NA,NA,NA,NA
86040,Coconino County,AZ,NA,NA,NA,82.98122065727699,NA
86053,Coconino County,AZ,NA,NA,91.46706586826348,NA,NA
86305,Yavapai County,AZ,NA,NA,NA,38.61502347417841,NA
86333,Yavapai County,AZ,NA,NA,NA,94.01408450704226,NA
86401,Mohave County,AZ,NA,58.666666666666664,8.757485029940119,NA,NA
86442,Mohave County,AZ,NA,71.33333333333334,NA,NA,NA
71602,Jefferson County,AR,NA,NA,NA,76.05633802816901,65.32258064516128
71671,Bradley County,AR,NA,NA,92.58982035928143,NA,NA
71730,Union County,AR,NA,NA,NA,31.92488262910798,NA
71854,Miller County,AR,NA,NA,NA,29.225352112676056,NA
71913,Garland County,AR,NA,NA,NA,28.638497652582164,14.032258064516128
72015,Saline County,AR,NA,NA,NA,37.441314553990615,NA
72058,Faulkner County,AR,92.1311475409836,NA,NA,NA,NA
72076,Pulaski County,AR,NA,NA,51.122754491017965,NA,NA
72103,Saline County,AR,NA,NA,NA,70.77464788732394,NA
72114,Pulaski County,AR,NA,NA,78.1437125748503,NA,NA
72117,Pulaski County,AR,NA,NA,55.38922155688623,NA,NA
72118,Pulaski County,AR,NA,NA,NA,65.3755868544601,NA
72206,Pulaski County,AR,NA,NA,NA,32.74647887323944,NA
72401,Craighead County,AR,22.62295081967213,NA,14.820359281437126,NA,NA
72455,Randolph County,AR,NA,NA,NA,73.59154929577466,NA
72472,Poinsett County,AR,NA,NA,NA,87.20657276995306,NA
72576,Fulton County,AR,NA,NA,91.76646706586826,NA,NA
72601,Boone County,AR,NA,NA,57.26047904191617,NA,21.129032258064516
72701,Washington County,AR,NA,NA,NA,NA,77.25806451612904
72703,Washington County,AR,NA,NA,76.79640718562875,NA,NA
72704,Washington County,AR,NA,NA,79.49101796407186,NA,NA
72802,Pope County,AR,NA,NA,NA,69.95305164319248,NA
72921,Crawford County,AR,80.65573770491802,NA,NA,NA,NA
90002,Los Angeles County,CA,NA,NA,62.27544910179641,NA,NA
90004,Los Angeles County,CA,NA,NA,NA,42.136150234741784,NA
90007,Los Angeles County,CA,NA,NA,30.164670658682635,NA,NA
90022,Los Angeles County,CA,NA,24,NA,NA,NA
90024,Los Angeles County,CA,NA,NA,NA,60.91549295774647,NA
90026,Los Angeles County,CA,NA,NA,47.380239520958085,NA,26.129032258064516
90031,Los Angeles County,CA,NA,NA,NA,74.17840375586854,NA
90044,Los Angeles County,CA,NA,NA,5.838323353293413,NA,NA
90059,Los Angeles County,CA,NA,NA,35.92814371257485,NA,NA
90201,Los Angeles County,CA,NA,9.666666666666666,NA,NA,NA
90241,Los Angeles County,CA,NA,NA,56.51197604790419,NA,NA
90242,Los Angeles County,CA,NA,90.33333333333333,NA,NA,NA
90250,Los Angeles County,CA,20.81967213114754,NA,NA,NA,NA
90266,Los Angeles County,CA,90.1639344262295,NA,NA,NA,NA
90274,Los Angeles County,CA,NA,NA,NA,NA,77.90322580645162
90275,Los Angeles County,CA,NA,NA,NA,43.309859154929576,NA
90277,Los Angeles County,CA,64.59016393442623,NA,NA,72.41784037558685,53.2258064516129
90280,Los Angeles County,CA,NA,NA,NA,40.375586854460096,NA
90302,Los Angeles County,CA,NA,NA,NA,83.45070422535211,NA
90403,Los Angeles County,CA,NA,NA,68.937125748502993,NA,NA
90404,Los Angeles County,CA,NA,NA,NA,NA,54.516129032258064
90605,Los Angeles County,CA,NA,NA,59.206586826347305,NA,NA
90606,Los Angeles County,CA,62.95081967213115,NA,NA,NA,NA
90631,Orange County,CA,NA,NA,36.52694610778443,NA,NA
90640,Los Angeles County,CA,NA,NA,NA,NA,30.483870967741932
90717,Los Angeles County,CA,92.45901639344262,NA,NA,NA,NA
90744,Los Angeles County,CA,NA,27.333333333333332,NA,NA,NA
90805,Los Angeles County,CA,NA,NA,16.991017964071855,NA,NA
91104,Los Angeles County,CA,NA,NA,45.134730538922156,NA,NA
91204,Los Angeles County,CA,NA,NA,84.05688622754491,NA,NA
91306,Los Angeles County,CA,NA,NA,42.21556886227545,NA,NA
91307,Los Angeles County,CA,NA,NA,89.44610778443113,NA,NA
91311,Los Angeles County,CA,NA,NA,58.308383233532936,NA,NA
91331,Los Angeles County,CA,NA,NA,11.302395209580839,NA,NA
91342,Los Angeles County,CA,NA,15.333333333333332,NA,NA,NA
91343,Los Angeles County,CA,NA,NA,53.967065868263475,NA,NA
91384,Los Angeles County,CA,NA,99.33333333333333,NA,NA,NA
91401,Los Angeles County,CA,70.32786885245902,NA,NA,NA,NA
91402,Los Angeles County,CA,NA,NA,NA,38.84976525821596,NA
91405,Los Angeles County,CA,NA,NA,NA,48.12206572769953,48.87096774193548
91607,Los Angeles County,CA,NA,NA,81.811377245509,NA,NA
91701,San Bernardino County,CA,93.77049180327869,NA,NA,NA,NA
91709,San Bernardino County,CA,NA,NA,35.25449101796407,NA,NA
91724,Los Angeles County,CA,58.032786885245905,NA,NA,NA,NA
91748,Los Angeles County,CA,77.8688524590164,NA,NA,NA,NA
91763,San Bernardino County,CA,NA,NA,NA,NA,62.25806451612903
91790,Los Angeles County,CA,NA,59.66666666666667,NA,NA,NA
91791,Los Angeles County,CA,83.77049180327869,NA,NA,NA,NA
91792,Los Angeles County,CA,NA,NA,67.88922155688623,NA,NA
91910,San Diego County,CA,NA,NA,25.97305389221557,NA,NA
91911,San Diego County,CA,NA,NA,NA,NA,8.064516129032258
91942,San Diego County,CA,NA,NA,NA,NA,64.19354838709678
92007,San Diego County,CA,93.44262295081968,NA,NA,NA,NA
92020,San Diego County,CA,NA,NA,22.005988023952096,NA,NA
92024,San Diego County,CA,NA,NA,NA,NA,31.93548387096774
92037,San Diego County,CA,NA,NA,82.63473053892216,NA,NA
92054,San Diego County,CA,NA,NA,74.92514970059881,NA,NA
92064,San Diego County,CA,NA,NA,NA,41.431924882629104,NA
92071,San Diego County,CA,47.704918032786885,NA,NA,NA,NA
92081,San Diego County,CA,77.37704918032787,NA,71.55688622754491,NA,NA
92108,San Diego County,CA,NA,NA,86.30239520958084,NA,NA
92111,San Diego County,CA,NA,NA,NA,57.74647887323944,NA
92113,San Diego County,CA,NA,NA,60.25449101796407,NA,NA
92115,San Diego County,CA,NA,NA,65.41916167664671,NA,NA
92120,San Diego County,CA,NA,NA,79.34131736526946,NA,NA
92127,San Diego County,CA,NA,NA,67.58982035928143,NA,NA
92129,San Diego County,CA,NA,NA,NA,NA,49.03225806451613
92130,San Diego County,CA,NA,NA,NA,NA,80
92220,Riverside County,CA,NA,NA,NA,89.31924882629107,NA
92262,Riverside County,CA,NA,NA,NA,12.793427230046946,NA
92284,San Bernardino County,CA,NA,NA,NA,NA,58.225806451612904
92324,San Bernardino County,CA,NA,33.33333333333333,NA,NA,NA
92335,San Bernardino County,CA,15.245901639344261,NA,NA,NA,NA
92346,San Bernardino County,CA,NA,NA,NA,NA,59.67741935483871
92562,Riverside County,CA,NA,NA,26.79640718562874,NA,NA
92563,Riverside County,CA,NA,NA,34.4311377245509,NA,NA
92586,Riverside County,CA,NA,NA,NA,NA,24.35483870967742
92592,Riverside County,CA,16.065573770491802,72.66666666666667,NA,NA,NA
92630,Orange County,CA,NA,89.66666666666666,NA,NA,NA
92647,Orange County,CA,69.34426229508198,NA,22.15568862275449,NA,NA
92648,Orange County,CA,NA,NA,29.565868263473057,NA,NA
92649,Orange County,CA,NA,NA,NA,32.3943661971831,NA
92672,Orange County,CA,85.40983606557377,NA,NA,NA,NA
92691,Orange County,CA,NA,NA,53.1437125748503,NA,NA
92692,Orange County,CA,NA,NA,41.39221556886227,NA,10.64516129032258
92707,Orange County,CA,NA,25,NA,NA,NA
92708,Orange County,CA,NA,NA,NA,17.018779342723008,NA
92801,Orange County,CA,NA,NA,NA,36.971830985915496,NA
92805,Orange County,CA,NA,NA,NA,NA,72.41935483870968
92821,Orange County,CA,NA,NA,NA,NA,31.61290322580645
92844,Orange County,CA,NA,NA,NA,NA,95.64516129032258
92865,Orange County,CA,NA,NA,NA,NA,86.93548387096774
93001,Ventura County,CA,NA,NA,27.54491017964072,NA,NA
93003,Ventura County,CA,NA,NA,NA,22.183098591549296,NA
93013,Santa Barbara County,CA,NA,NA,NA,NA,99.19354838709677
93015,Ventura County,CA,NA,NA,70.20958083832335,NA,NA
93030,Ventura County,CA,14.918032786885247,NA,NA,NA,NA
93033,Ventura County,CA,NA,NA,NA,NA,58.225806451612904
93036,Ventura County,CA,NA,20,NA,NA,NA
93065,Ventura County,CA,NA,NA,NA,22.065727699530516,NA
93101,Santa Barbara County,CA,NA,80.66666666666666,NA,NA,NA
93110,Santa Barbara County,CA,NA,NA,91.24251497005989,NA,NA
93117,Santa Barbara County,CA,NA,NA,NA,78.52112676056338,NA
93203,Kern County,CA,NA,NA,85.85329341317365,NA,NA
93247,Tulare County,CA,NA,83.66666666666667,NA,NA,NA
93257,Tulare County,CA,NA,NA,12.574850299401197,NA,58.87096774193549
93267,Tulare County,CA,NA,NA,NA,NA,99.83870967741936
93274,Tulare County,CA,NA,NA,4.940119760479042,NA,NA
93292,Tulare County,CA,NA,NA,NA,NA,55.16129032258065
93306,Kern County,CA,33.77049180327869,NA,NA,NA,NA
93307,Kern County,CA,NA,NA,13.09880239520958,NA,NA
93308,Kern County,CA,NA,51.33333333333333,NA,NA,NA
93436,Santa Barbara County,CA,NA,NA,15.344311377245509,NA,NA
93446,San Luis Obispo County,CA,44.26229508196721,NA,NA,79.5774647887324,50.967741935483865
93454,Santa Barbara County,CA,37.868852459016395,NA,NA,NA,NA
93458,Santa Barbara County,CA,16.721311475409838,NA,NA,NA,NA
93552,Los Angeles County,CA,44.91803278688525,NA,NA,NA,NA
93611,Fresno County,CA,43.114754098360656,NA,NA,NA,NA
93635,Merced County,CA,76.39344262295083,NA,NA,NA,NA
93636,Madera County,CA,NA,NA,NA,83.33333333333334,NA
93638,Madera County,CA,NA,6,18.188622754491018,NA,NA
93646,Fresno County,CA,NA,NA,NA,94.60093896713614,NA
93702,Fresno County,CA,NA,9,NA,NA,NA
93704,Fresno County,CA,NA,NA,52.69461077844312,NA,NA
93705,Fresno County,CA,NA,NA,NA,48.23943661971831,60.483870967741936
93706,Fresno County,CA,NA,NA,23.12874251497006,NA,NA
93710,Fresno County,CA,NA,NA,NA,55.751173708920184,NA
93722,Fresno County,CA,NA,NA,7.859281437125748,NA,NA
94002,San Mateo County,CA,NA,NA,NA,NA,46.29032258064516
94025,San Mateo County,CA,NA,NA,NA,NA,28.387096774193548
94030,San Mateo County,CA,NA,NA,NA,65.02347417840375,NA
94040,Santa Clara County,CA,NA,NA,NA,NA,70.48387096774194
94044,San Mateo County,CA,72.45901639344262,NA,NA,30.751173708920188,NA
94065,San Mateo County,CA,98.36065573770492,NA,NA,NA,NA
94070,San Mateo County,CA,NA,NA,NA,NA,56.774193548387096
94085,Santa Clara County,CA,NA,NA,NA,93.30985915492957,NA
94102,San Francisco County,CA,NA,NA,6.811377245508981,8.685446009389672,NA
94109,San Francisco County,CA,NA,NA,NA,13.849765258215962,NA
94303,San Mateo County,CA,NA,NA,29.041916167664674,NA,NA
94401,San Mateo County,CA,NA,NA,93.03892215568862,NA,NA
94501,Alameda County,CA,45.40983606557377,NA,NA,NA,25.645161290322584
94503,Napa County,CA,NA,NA,90.7934131736527,NA,NA
94507,Contra Costa County,CA,NA,NA,92.51497005988024,75.11737089201877,NA
94510,Solano County,CA,NA,NA,NA,67.72300469483568,NA
94513,Contra Costa County,CA,NA,NA,NA,26.056338028169012,NA
94518,Contra Costa County,CA,NA,NA,NA,NA,55.80645161290323
94520,Contra Costa County,CA,NA,NA,NA,NA,71.93548387096774
94521,Contra Costa County,CA,NA,NA,60.47904191616767,NA,NA
94531,Contra Costa County,CA,NA,NA,NA,56.33802816901409,44.83870967741935
94538,Alameda County,CA,NA,NA,47.75449101796407,NA,NA
94544,Alameda County,CA,NA,NA,NA,NA,21.774193548387096
94545,Alameda County,CA,NA,NA,NA,NA,60
94546,Alameda County,CA,NA,92,NA,NA,NA
94553,Contra Costa County,CA,NA,NA,NA,NA,78.87096774193549
94558,Napa County,CA,NA,NA,NA,7.863849765258216,NA
94559,Napa County,CA,NA,NA,NA,88.73239436619718,NA
94561,Contra Costa County,CA,NA,NA,NA,NA,53.87096774193548
94563,Contra Costa County,CA,75.90163934426229,NA,NA,NA,80.80645161290323
94565,Contra Costa County,CA,NA,NA,21.407185628742514,NA,NA
94589,Solano County,CA,NA,NA,61.377245508982035,NA,NA
94590,Solano County,CA,NA,NA,29.790419161676645,NA,NA
94602,Alameda County,CA,NA,NA,NA,64.2018779342723,NA
94603,Alameda County,CA,NA,35.333333333333336,NA,NA,NA
94605,Alameda County,CA,NA,NA,NA,63.96713615023474,NA
94606,Alameda County,CA,85.08196721311475,NA,NA,NA,NA
94607,Alameda County,CA,NA,NA,NA,NA,74.83870967741936
94608,Alameda County,CA,NA,NA,56.287425149700596,NA,NA
94610,Alameda County,CA,NA,NA,NA,73.12206572769952,NA
94611,Alameda County,CA,NA,NA,63.92215568862275,NA,NA
94710,Alameda County,CA,99.50819672131146,NA,NA,NA,NA
94801,Contra Costa County,CA,NA,NA,NA,NA,100
94804,Contra Costa County,CA,NA,NA,NA,46.948356807511736,NA
95023,San Benito County,CA,NA,NA,29.11676646706587,NA,NA
95032,Santa Clara County,CA,NA,NA,77.32035928143712,NA,NA
95050,Santa Clara County,CA,NA,NA,NA,64.43661971830986,NA
95051,Santa Clara County,CA,NA,NA,NA,57.3943661971831,NA
95062,Santa Cruz County,CA,89.8360655737705,NA,NA,NA,NA
95070,Santa Clara County,CA,NA,NA,NA,NA,20.32258064516129
95111,Santa Clara County,CA,NA,NA,39.67065868263473,NA,NA
95116,Santa Clara County,CA,NA,NA,NA,57.04225352112676,58.06451612903226
95118,Santa Clara County,CA,NA,NA,NA,NA,65
95120,Santa Clara County,CA,87.70491803278688,NA,NA,NA,34.67741935483871
95123,Santa Clara County,CA,NA,NA,NA,30.51643192488263,NA
95132,Santa Clara County,CA,NA,NA,77.69461077844312,NA,NA
95203,San Joaquin County,CA,NA,NA,NA,86.97183098591549,NA
95206,San Joaquin County,CA,NA,NA,20.88323353293413,NA,NA
95210,San Joaquin County,CA,NA,NA,40.26946107784431,NA,NA
95212,San Joaquin County,CA,82.1311475409836,NA,NA,NA,NA
95240,San Joaquin County,CA,NA,NA,46.781437125748504,NA,NA
95307,Stanislaus County,CA,32.622950819672134,NA,NA,NA,NA
95337,San Joaquin County,CA,NA,NA,72.30538922155688,47.652582159624416,NA
95340,Merced County,CA,NA,NA,NA,NA,42.90322580645161
95355,Stanislaus County,CA,NA,NA,NA,10.7981220657277,NA
95361,Stanislaus County,CA,NA,NA,NA,NA,52.903225806451616
95366,San Joaquin County,CA,66.06557377049181,NA,NA,NA,NA
95367,Stanislaus County,CA,NA,NA,NA,80.16431924882629,53.5483870967742
95370,Tuolumne County,CA,NA,70.33333333333334,NA,NA,NA
95391,San Joaquin County,CA,NA,NA,82.48502994011976,NA,NA
95404,Sonoma County,CA,NA,NA,NA,NA,60.483870967741936
95407,Sonoma County,CA,NA,NA,62.5,NA,NA
95409,Sonoma County,CA,85.90163934426229,NA,NA,NA,NA
95436,Sonoma County,CA,NA,NA,NA,97.30046948356808,NA
95453,Lake County,CA,NA,NA,NA,93.42723004694837,NA
95457,Lake County,CA,NA,NA,NA,95.18779342723005,NA
95503,Humboldt County,CA,NA,NA,78.0688622754491,NA,NA
95521,Humboldt County,CA,NA,NA,NA,83.56807511737088,NA
95603,Placer County,CA,55.40983606557377,NA,NA,NA,NA
95605,Yolo County,CA,NA,NA,91.61676646706587,NA,NA
95616,Yolo County,CA,NA,NA,NA,NA,44.193548387096776
95619,El Dorado County,CA,NA,NA,NA,87.32394366197182,NA
95620,Solano County,CA,NA,NA,83.8323353293413,NA,NA
95630,Sacramento County,CA,NA,NA,27.619760479041915,NA,NA
95640,Amador County,CA,NA,97.33333333333334,NA,NA,NA
95642,Amador County,CA,NA,NA,NA,NA,82.9032258064516
95688,Solano County,CA,NA,99,NA,NA,NA
95691,Yolo County,CA,NA,NA,80.38922155688623,NA,NA
95709,El Dorado County,CA,NA,NA,NA,84.6244131455399,NA
95821,Sacramento County,CA,NA,NA,44.01197604790419,NA,NA
95828,Sacramento County,CA,NA,NA,NA,35.68075117370892,NA
95831,Sacramento County,CA,90.49180327868852,NA,NA,NA,NA
95834,Sacramento County,CA,NA,NA,71.40718562874252,NA,NA
95835,Sacramento County,CA,NA,NA,68.33832335329342,NA,NA
95841,Sacramento County,CA,NA,NA,NA,NA,77.58064516129032
95842,Sacramento County,CA,61.147540983606554,NA,NA,NA,NA
95926,Butte County,CA,NA,NA,NA,29.577464788732392,NA
95945,Nevada County,CA,NA,NA,60.02994011976048,NA,NA
95969,Butte County,CA,NA,NA,32.41017964071856,NA,NA
95993,Sutter County,CA,NA,NA,47.455089820359284,NA,29.838709677419356
96093,Trinity County,CA,NA,NA,NA,93.07511737089203,NA
96150,El Dorado County,CA,NA,NA,NA,70.89201877934272,NA
80003,Jefferson County,CO,28.852459016393446,NA,46.33233532934132,NA,NA
80012,Arapahoe County,CO,NA,NA,10.778443113772456,NA,NA
80015,Arapahoe County,CO,NA,NA,NA,23.474178403755868,NA
80017,Arapahoe County,CO,NA,NA,39.52095808383233,NA,NA
80020,Broomfield County,CO,NA,NA,45.65868263473054,NA,NA
80022,Adams County,CO,11.475409836065573,NA,NA,NA,NA
80033,Jefferson County,CO,NA,NA,NA,66.43192488262912,NA
80104,Douglas County,CO,NA,NA,NA,69.48356807511738,NA
80107,Elbert County,CO,NA,NA,89.59580838323353,NA,NA
80122,Arapahoe County,CO,NA,NA,NA,NA,50.645161290322584
80123,Jefferson County,CO,NA,NA,48.57784431137724,NA,NA
80130,Douglas County,CO,NA,NA,77.61976047904191,NA,NA
80138,Douglas County,CO,34.91803278688524,NA,54.79041916167665,NA,NA
80203,Denver County,CO,84.09836065573771,NA,71.03293413173652,NA,NA
80204,Denver County,CO,31.311475409836063,NA,NA,NA,NA
80205,Denver County,CO,NA,NA,12.350299401197605,NA,NA
80206,Denver County,CO,93.11475409836065,NA,NA,NA,NA
80207,Denver County,CO,NA,48.66666666666667,NA,NA,NA
80209,Denver County,CO,NA,NA,NA,69.71830985915493,NA
80219,Denver County,CO,NA,3,NA,NA,NA
80222,Denver County,CO,NA,NA,43.48802395209581,NA,NA
80223,Denver County,CO,NA,62,NA,60.2112676056338,NA
80224,Denver County,CO,NA,NA,64.52095808383234,NA,NA
80226,Jefferson County,CO,27.21311475409836,NA,NA,NA,NA
80229,Adams County,CO,NA,NA,45.28443113772455,NA,NA
80230,Denver County,CO,NA,NA,93.33832335329342,NA,NA
80231,Denver County,CO,NA,NA,NA,65.14084507042254,NA
80232,Jefferson County,CO,NA,NA,77.84431137724552,NA,NA
80236,Denver County,CO,NA,NA,82.33532934131736,NA,NA
80239,Denver County,CO,NA,NA,24.9251497005988,NA,NA
80241,Adams County,CO,48.85245901639344,NA,NA,NA,NA
80249,Denver County,CO,NA,NA,37.72455089820359,NA,NA
80302,Boulder County,CO,NA,NA,NA,NA,71.29032258064515
80304,Boulder County,CO,NA,NA,83.98203592814372,NA,NA
80403,Jefferson County,CO,NA,NA,88.92215568862275,NA,NA
80439,Jefferson County,CO,NA,NA,NA,56.690140845070424,NA
80501,Boulder County,CO,NA,NA,NA,85.7981220657277,NA
80516,Weld County,CO,NA,NA,NA,67.48826291079813,NA
80537,Larimer County,CO,NA,40.33333333333333,NA,NA,NA
80538,Larimer County,CO,NA,NA,11.901197604790418,NA,NA
80601,Adams County,CO,NA,NA,35.17964071856288,NA,75.96774193548387
80631,Weld County,CO,NA,NA,NA,NA,36.12903225806451
80634,Weld County,CO,NA,NA,NA,NA,9.35483870967742
80817,El Paso County,CO,NA,82.66666666666667,NA,NA,NA
80916,El Paso County,CO,NA,NA,38.09880239520958,NA,NA
80920,El Paso County,CO,NA,75,NA,65.96244131455398,NA
81144,Rio Grande County,CO,NA,NA,NA,NA,76.93548387096774
81147,Archuleta County,CO,NA,NA,NA,63.732394366197184,NA
81230,Gunnison County,CO,NA,NA,91.99101796407186,NA,NA
81401,Montrose County,CO,NA,50.33333333333333,NA,77.46478873239437,NA
81428,Delta County,CO,NA,NA,NA,98.47417840375586,NA
81520,Mesa County,CO,NA,NA,72.82934131736528,NA,NA
81521,Mesa County,CO,NA,NA,89.37125748502994,NA,NA
81632,Eagle County,CO,NA,97,NA,89.67136150234741,NA
81650,Garfield County,CO,NA,NA,96.25748502994011,NA,NA
06032,Hartford County,CT,NA,NA,NA,NA,49.516129032258064
06066,Tolland County,CT,NA,NA,NA,20.422535211267608,NA
06074,Hartford County,CT,NA,NA,NA,58.45070422535211,28.548387096774192
06082,Hartford County,CT,NA,NA,NA,NA,15.645161290322582
06085,Hartford County,CT,NA,95,NA,NA,NA
06095,Hartford County,CT,NA,NA,84.73053892215569,NA,NA
06118,Hartford County,CT,NA,NA,25.898203592814372,NA,NA
06226,Windham County,CT,NA,NA,NA,49.647887323943664,NA
06281,Windham County,CT,65.08196721311475,NA,NA,NA,NA
06403,New Haven County,CT,94.59016393442623,NA,NA,NA,NA
06415,New London County,CT,NA,NA,NA,75.35211267605634,NA
06457,Middlesex County,CT,NA,NA,NA,NA,8.225806451612904
06492,New Haven County,CT,NA,NA,NA,NA,5.64516129032258
06512,New Haven County,CT,NA,NA,NA,24.647887323943664,NA
06513,New Haven County,CT,NA,NA,3.293413173652695,NA,21.612903225806452
06516,New Haven County,CT,NA,NA,NA,3.6384976525821595,NA
06518,New Haven County,CT,NA,NA,83.90718562874252,NA,NA
06519,New Haven County,CT,NA,NA,23.877245508982035,47.53521126760563,NA
06606,Fairfield County,CT,NA,NA,17.440119760479043,NA,NA
06804,Fairfield County,CT,NA,NA,74.32634730538922,NA,NA
06830,Fairfield County,CT,NA,NA,NA,NA,13.225806451612904
06851,Fairfield County,CT,NA,NA,NA,NA,30.32258064516129
06854,Fairfield County,CT,NA,46.666666666666664,NA,NA,65.64516129032259
06880,Fairfield County,CT,NA,NA,NA,66.90140845070422,NA
06902,Fairfield County,CT,NA,NA,20.508982035928145,NA,NA
06905,Fairfield County,CT,NA,NA,NA,82.74647887323944,NA
19707,New Castle County,DE,NA,NA,NA,NA,47.90322580645161
19711,New Castle County,DE,27.704918032786885,NA,NA,NA,NA
19805,New Castle County,DE,NA,11.666666666666666,NA,11.150234741784038,32.74193548387097
19901,Kent County,DE,NA,NA,17.290419161676645,NA,NA
19904,Kent County,DE,3.278688524590164,NA,63.84730538922155,NA,NA
19934,Kent County,DE,54.09836065573771,NA,NA,NA,NA
19938,Kent County,DE,NA,NA,66.69161676646706,65.84507042253522,NA
19947,Sussex County,DE,NA,NA,45.88323353293413,NA,NA
19956,Sussex County,DE,NA,NA,NA,53.051643192488264,NA
19958,Sussex County,DE,NA,60.66666666666667,NA,NA,NA
19966,Sussex County,DE,NA,NA,24.40119760479042,NA,NA
19977,Kent County,DE,NA,NA,23.20359281437126,NA,NA
32040,Baker County,FL,NA,NA,89.89520958083833,NA,NA
32055,Columbia County,FL,45.73770491803278,NA,73.27844311377245,NA,65.16129032258064
32068,Clay County,FL,26.229508196721312,NA,NA,NA,NA
32091,Bradford County,FL,97.21311475409836,NA,NA,NA,66.77419354838709
32117,Volusia County,FL,NA,33.666666666666664,NA,NA,NA
32127,Volusia County,FL,NA,NA,NA,42.370892018779344,NA
32159,Lake County,FL,NA,NA,NA,25.704225352112676,NA
32211,Duval County,FL,NA,NA,20.58383233532934,NA,NA
32216,Duval County,FL,NA,NA,NA,33.098591549295776,NA
32221,Duval County,FL,NA,NA,NA,74.06103286384976,NA
32225,Duval County,FL,23.442622950819672,NA,NA,NA,NA
32233,Duval County,FL,NA,NA,NA,42.25352112676056,NA
32254,Duval County,FL,NA,NA,48.952095808383234,NA,NA
32256,Duval County,FL,NA,NA,NA,NA,31.290322580645164
32305,Leon County,FL,NA,NA,NA,81.45539906103286,NA
32309,Leon County,FL,NA,NA,NA,NA,56.612903225806456
32333,Gadsden County,FL,NA,NA,NA,82.3943661971831,NA
32401,Bay County,FL,NA,NA,NA,32.27699530516432,NA
32404,Bay County,FL,NA,NA,NA,23.474178403755868,NA
32421,Calhoun County,FL,NA,NA,NA,NA,84.83870967741936
32428,Washington County,FL,NA,NA,55.76347305389222,NA,NA
32433,Walton County,FL,NA,NA,84.5059880239521,NA,NA
32444,Bay County,FL,47.21311475409836,NA,NA,NA,NA
32446,Jackson County,FL,NA,NA,NA,89.43661971830986,NA
32448,Jackson County,FL,NA,NA,NA,84.38967136150235,NA
32501,Escambia County,FL,NA,50.66666666666667,NA,NA,NA
32502,Escambia County,FL,NA,NA,97.67964071856288,NA,NA
32503,Escambia County,FL,NA,NA,20.134730538922156,NA,NA
32506,Escambia County,FL,NA,NA,NA,58.21596244131455,NA
32507,Escambia County,FL,1.8032786885245904,NA,38.772455089820355,NA,18.225806451612904
32514,Escambia County,FL,NA,NA,NA,72.06572769953051,NA
32526,Escambia County,FL,NA,NA,NA,11.384976525821596,NA
32533,Escambia County,FL,NA,NA,31.2125748502994,NA,NA
32534,Escambia County,FL,NA,NA,95.58383233532935,NA,NA
32566,Santa Rosa County,FL,NA,NA,67.73952095808383,NA,NA
32571,Santa Rosa County,FL,NA,NA,NA,16.549295774647888,NA
32578,Okaloosa County,FL,NA,NA,56.287425149700596,NA,NA
32579,Okaloosa County,FL,NA,81.66666666666667,NA,NA,NA
32583,Santa Rosa County,FL,NA,NA,27.320359281437124,NA,NA
32607,Alachua County,FL,NA,48.66666666666667,NA,NA,NA
32641,Alachua County,FL,NA,NA,60.853293413173645,NA,NA
32701,Seminole County,FL,NA,NA,NA,NA,55.64516129032258
32707,Seminole County,FL,NA,NA,67.88922155688623,NA,NA
32724,Volusia County,FL,NA,NA,90.71856287425149,NA,NA
32765,Seminole County,FL,NA,NA,NA,46.009389671361504,46.774193548387096
32767,Lake County,FL,NA,NA,99.77544910179641,NA,NA
32771,Seminole County,FL,NA,NA,NA,38.38028169014084,NA
32778,Lake County,FL,NA,NA,NA,NA,30.967741935483872
32796,Brevard County,FL,NA,NA,53.66766467065869,NA,NA
32805,Orange County,FL,39.18032786885246,NA,NA,NA,NA
32808,Orange County,FL,NA,11.333333333333332,NA,NA,NA
32820,Orange County,FL,NA,NA,93.937125748502993,NA,NA
32821,Orange County,FL,NA,NA,NA,90.49295774647888,NA
32835,Orange County,FL,NA,NA,61.07784431137725,NA,NA
32901,Brevard County,FL,NA,72.66666666666667,NA,NA,NA
32903,Brevard County,FL,NA,NA,NA,NA,81.61290322580645
32905,Brevard County,FL,NA,NA,NA,50.70422535211267,NA
32955,Brevard County,FL,NA,NA,NA,NA,11.29032258064516
32958,Indian River County,FL,NA,NA,NA,NA,6.290322580645161
32963,Indian River County,FL,NA,NA,NA,NA,16.93548387096774
33004,Broward County,FL,NA,79.33333333333333,NA,NA,NA
33010,Miami-Dade County,FL,NA,NA,NA,44.248826291079816,NA
33012,Miami-Dade County,FL,NA,11,NA,NA,NA
33013,Miami-Dade County,FL,62.78688524590164,NA,NA,NA,NA
33015,Miami-Dade County,FL,NA,NA,NA,NA,45
33023,Broward County,FL,18.852459016393443,NA,NA,NA,NA
33029,Broward County,FL,58.36065573770492,NA,NA,NA,NA
33030,Miami-Dade County,FL,NA,NA,NA,NA,88.06451612903226
33032,Miami-Dade County,FL,NA,14.000000000000002,NA,NA,NA
33034,Miami-Dade County,FL,NA,NA,83.00898203592814,NA,NA
33040,Monroe County,FL,NA,NA,45.359281437125745,NA,NA
33054,Miami-Dade County,FL,NA,NA,51.87125748502994,NA,NA
33064,Broward County,FL,NA,NA,NA,NA,14.838709677419354
33066,Broward County,FL,NA,NA,NA,60.798122065727696,NA
33071,Broward County,FL,41.80327868852459,NA,NA,NA,NA
33125,Miami-Dade County,FL,NA,NA,NA,NA,11.451612903225806
33126,Miami-Dade County,FL,NA,23.333333333333332,NA,NA,NA
33135,Miami-Dade County,FL,NA,28.666666666666668,NA,NA,NA
33141,Miami-Dade County,FL,NA,NA,92.44011976047905,NA,NA
33146,Miami-Dade County,FL,NA,NA,98.27844311377245,NA,NA
33147,Miami-Dade County,FL,NA,NA,NA,39.31924882629108,NA
33155,Miami-Dade County,FL,NA,NA,NA,NA,14.35483870967742
33157,Miami-Dade County,FL,NA,16.333333333333332,NA,NA,NA
33165,Miami-Dade County,FL,NA,NA,61.97604790419161,NA,NA
33169,Miami-Dade County,FL,NA,32.666666666666664,NA,NA,NA
33173,Miami-Dade County,FL,NA,72,NA,NA,19.67741935483871
33174,Miami-Dade County,FL,65.24590163934427,NA,NA,NA,NA
33177,Miami-Dade County,FL,19.34426229508197,NA,NA,NA,NA
33186,Miami-Dade County,FL,NA,NA,NA,NA,27.419354838709676
33301,Broward County,FL,NA,NA,NA,NA,83.22580645161291
33311,Broward County,FL,3.606557377049181,3.6666666666666665,5.763473053892216,NA,NA
33322,Broward County,FL,NA,NA,NA,NA,12.580645161290322
33327,Broward County,FL,NA,NA,NA,92.13615023474179,NA
33401,Palm Beach County,FL,NA,NA,66.1676646706587,77.11267605633803,63.70967741935484
33404,Palm Beach County,FL,NA,NA,70.13473053892216,52.230046948356815,NA
33405,Palm Beach County,FL,NA,NA,NA,NA,76.29032258064517
33408,Palm Beach County,FL,NA,NA,NA,72.30046948356808,40.32258064516129
33409,Palm Beach County,FL,NA,38.666666666666664,NA,NA,NA
33417,Palm Beach County,FL,NA,NA,NA,NA,22.58064516129032
33428,Palm Beach County,FL,NA,NA,37.050898203592816,NA,NA
33431,Palm Beach County,FL,NA,NA,NA,NA,59.51612903225807
33433,Palm Beach County,FL,NA,NA,NA,NA,18.870967741935484
33434,Palm Beach County,FL,NA,NA,95.05988023952095,NA,NA
33437,Palm Beach County,FL,NA,NA,NA,59.624413145539904,0.16129032258064516
33442,Broward County,FL,NA,NA,NA,39.671361502347416,10.161290322580644
33446,Palm Beach County,FL,NA,NA,NA,NA,4.516129032258064
33460,Palm Beach County,FL,NA,NA,NA,NA,71.7741935483871
33463,Palm Beach County,FL,NA,NA,50.1497005988024,40.72769953051643,NA
33467,Palm Beach County,FL,NA,NA,NA,NA,16.612903225806452
33480,Palm Beach County,FL,NA,NA,NA,NA,38.87096774193549
33484,Palm Beach County,FL,NA,NA,NA,34.154929577464785,2.5806451612903225
33486,Palm Beach County,FL,NA,NA,87.87425149700599,NA,59.193548387096776
33487,Palm Beach County,FL,74.26229508196721,NA,NA,NA,NA
33511,Hillsborough County,FL,NA,48,NA,NA,NA
33570,Hillsborough County,FL,NA,52.33333333333333,NA,NA,NA
33572,Hillsborough County,FL,NA,NA,NA,NA,86.61290322580645
33578,Hillsborough County,FL,NA,NA,36.30239520958084,NA,NA
33596,Hillsborough County,FL,NA,NA,88.17365269461078,NA,NA
33613,Hillsborough County,FL,NA,NA,43.18862275449102,NA,NA
33615,Hillsborough County,FL,NA,NA,NA,NA,54.83870967741935
33624,Hillsborough County,FL,NA,NA,56.06287425149701,NA,NA
33701,Pinellas County,FL,NA,NA,NA,NA,61.12903225806452
33709,Pinellas County,FL,NA,NA,52.09580838323353,NA,NA
33713,Pinellas County,FL,NA,NA,56.73652694610778,71.12676056338029,NA
33777,Pinellas County,FL,NA,NA,NA,75.82159624413146,NA
33782,Pinellas County,FL,NA,NA,68.48802395209582,NA,NA
33801,Polk County,FL,NA,NA,23.353293413173652,NA,NA
33805,Polk County,FL,NA,NA,41.24251497005988,NA,NA
33809,Polk County,FL,41.80327868852459,NA,NA,NA,NA
33810,Polk County,FL,34.42622950819672,NA,NA,NA,NA
33830,Polk County,FL,NA,NA,NA,49.53051643192488,NA
33844,Polk County,FL,41.80327868852459,NA,39.52095808383233,NA,NA
33853,Polk County,FL,NA,NA,66.91616766467065,NA,NA
33860,Polk County,FL,NA,NA,85.02994011976048,NA,NA
33873,Hardee County,FL,NA,NA,74.8502994011976,NA,NA
33881,Polk County,FL,NA,NA,NA,36.85446009389671,NA
33898,Polk County,FL,NA,NA,60.703592814371255,NA,NA
33914,Lee County,FL,NA,NA,41.91616766467065,NA,NA
33936,Lee County,FL,NA,NA,49.47604790419162,NA,NA
33973,Lee County,FL,NA,NA,NA,91.07981220657277,NA
33990,Lee County,FL,NA,70.33333333333334,NA,NA,62.903225806451616
33993,Lee County,FL,NA,NA,50.59880239520959,NA,NA
34109,Collier County,FL,83.27868852459017,NA,NA,NA,NA
34110,Collier County,FL,NA,NA,NA,NA,15.32258064516129
34112,Collier County,FL,NA,81.66666666666667,NA,NA,NA
34145,Collier County,FL,NA,NA,NA,79.81220657276995,NA
34203,Manatee County,FL,NA,NA,57.33532934131736,NA,NA
34207,Manatee County,FL,44.26229508196721,NA,NA,NA,NA
34210,Manatee County,FL,NA,NA,87.12574850299401,NA,NA
34266,DeSoto County,FL,NA,NA,NA,NA,37.41935483870968
34285,Sarasota County,FL,NA,NA,NA,NA,12.258064516129032
34434,Citrus County,FL,NA,NA,NA,NA,93.54838709677419
34452,Citrus County,FL,NA,NA,65.11976047904191,NA,NA
34470,Marion County,FL,NA,63.33333333333333,NA,NA,NA
34471,Marion County,FL,NA,NA,53.89221556886228,NA,NA
34473,Marion County,FL,NA,NA,NA,NA,85.80645161290322
34606,Hernando County,FL,NA,NA,NA,42.6056338028169,NA
34613,Hernando County,FL,NA,NA,NA,NA,33.064516129032256
34652,Pasco County,FL,NA,NA,NA,59.037558685446015,45.645161290322584
34654,Pasco County,FL,65.90163934426229,NA,NA,NA,NA
34667,Pasco County,FL,NA,NA,45.43413173652694,NA,NA
34677,Pinellas County,FL,NA,NA,NA,NA,57.58064516129032
34731,Lake County,FL,88.19672131147541,NA,NA,NA,NA
34769,Osceola County,FL,NA,NA,NA,83.09859154929578,NA
34786,Orange County,FL,NA,NA,59.73053892215569,NA,NA
34952,St. Lucie County,FL,NA,NA,25.823353293413177,NA,NA
34953,St. Lucie County,FL,NA,NA,4.565868263473054,NA,NA
34984,St. Lucie County,FL,NA,NA,NA,NA,80.96774193548387
30022,Fulton County,GA,NA,NA,NA,NA,50.806451612903224
30025,Walton County,GA,94.09836065573771,NA,NA,NA,NA
30043,Gwinnett County,GA,NA,NA,NA,NA,80.3225806451613
30046,Gwinnett County,GA,NA,NA,48.80239520958084,NA,NA
30052,Walton County,GA,NA,NA,NA,11.032863849765258,NA
30062,Cobb County,GA,71.47540983606558,NA,NA,NA,NA
30064,Cobb County,GA,49.8360655737705,NA,64.07185628742515,NA,NA
30066,Cobb County,GA,NA,NA,NA,67.25352112676056,NA
30067,Cobb County,GA,56.88524590163935,NA,NA,NA,NA
30075,Fulton County,GA,26.39344262295082,NA,40.044910179640716,NA,NA
30083,DeKalb County,GA,NA,NA,27.994011976047904,NA,NA
30092,Gwinnett County,GA,NA,NA,63.772455089820355,NA,NA
30097,Fulton County,GA,NA,NA,62.6497005988024,NA,NA
30106,Cobb County,GA,NA,NA,NA,78.40375586854461,NA
30120,Bartow County,GA,NA,NA,NA,NA,57.90322580645161
30121,Bartow County,GA,NA,72.33333333333334,NA,NA,NA
30126,Cobb County,GA,43.44262295081967,NA,NA,NA,NA
30127,Cobb County,GA,17.21311475409836,44.666666666666664,NA,NA,NA
30134,Douglas County,GA,NA,NA,25.673652694610777,NA,NA
30144,Cobb County,GA,NA,NA,36.90119760479042,NA,NA
30145,Bartow County,GA,NA,NA,NA,93.66197183098592,NA
30165,Floyd County,GA,NA,NA,NA,69.36619718309859,NA
30168,Cobb County,GA,NA,77.33333333333333,NA,NA,NA
30176,Haralson County,GA,NA,NA,NA,90.25821596244131,NA
30179,Carroll County,GA,75.40983606557377,NA,60.47904191616767,NA,NA
30236,Clayton County,GA,NA,45.33333333333333,NA,NA,NA
30240,Troup County,GA,NA,NA,NA,NA,37.41935483870968
30248,Henry County,GA,NA,NA,60.928143712574844,NA,NA
30263,Coweta County,GA,15.40983606557377,NA,NA,NA,NA
30265,Coweta County,GA,NA,NA,NA,44.60093896713615,NA
30274,Clayton County,GA,NA,NA,72.15568862275448,NA,NA
30294,DeKalb County,GA,NA,NA,NA,59.859154929577464,NA
30305,Fulton County,GA,NA,NA,NA,NA,74.51612903225806
30310,Fulton County,GA,38.196721311475414,74,NA,NA,49.67741935483871
30318,Fulton County,GA,NA,NA,29.71556886227545,NA,NA
30319,DeKalb County,GA,NA,NA,NA,NA,28.064516129032256
30331,Fulton County,GA,10.819672131147541,NA,49.77544910179641,NA,NA
30360,DeKalb County,GA,89.67213114754098,73.66666666666667,NA,NA,NA
30427,Tattnall County,GA,NA,NA,85.17964071856288,NA,NA
30436,Toombs County,GA,NA,NA,83.38323353293413,NA,NA
30504,Hall County,GA,NA,58.666666666666664,NA,NA,NA
30507,Hall County,GA,NA,NA,44.68562874251497,NA,NA
30512,Union County,GA,NA,NA,75.07485029940119,NA,94.03225806451613
30517,Jackson County,GA,NA,NA,NA,85.32863849765259,NA
30518,Gwinnett County,GA,35.73770491803279,NA,39.29640718562874,NA,NA
30529,Jackson County,GA,NA,NA,80.38922155688623,NA,NA
30546,Towns County,GA,NA,NA,NA,73.47417840375586,NA
30582,Towns County,GA,97.8688524590164,NA,NA,NA,NA
30601,Clarke County,GA,25.245901639344265,NA,NA,NA,NA
30607,Clarke County,GA,NA,NA,82.70958083832335,NA,NA
30620,Barrow County,GA,NA,NA,71.25748502994011,NA,NA
30635,Elbert County,GA,NA,NA,NA,66.43192488262912,NA
30655,Walton County,GA,NA,NA,37.200598802395206,NA,NA
30721,Whitfield County,GA,NA,NA,NA,49.06103286384976,NA
30728,Walker County,GA,NA,NA,NA,72.76995305164318,NA
30741,Walker County,GA,21.9672131147541,NA,NA,NA,NA
30824,McDuffie County,GA,NA,NA,NA,82.04225352112677,NA
30828,Warren County,GA,NA,NA,NA,92.84037558685446,NA
30906,Richmond County,GA,5.901639344262295,NA,6.362275449101797,NA,NA
30909,Richmond County,GA,NA,NA,NA,NA,25.806451612903224
31031,Wilkinson County,GA,NA,NA,NA,NA,96.7741935483871
31036,Pulaski County,GA,NA,NA,NA,NA,71.61290322580646
31217,Bibb County,GA,NA,NA,64.22155688622755,NA,NA
31220,Bibb County,GA,NA,NA,81.66167664670658,NA,NA
31331,McIntosh County,GA,NA,NA,NA,NA,95
31523,Glynn County,GA,NA,93,NA,NA,NA
31525,Glynn County,GA,NA,NA,NA,69.83568075117371,NA
31545,Wayne County,GA,42.62295081967213,NA,NA,NA,NA
31602,Lowndes County,GA,NA,NA,38.772455089820355,NA,NA
31719,Sumter County,GA,NA,NA,72.30538922155688,NA,NA
31774,Irwin County,GA,NA,NA,81.51197604790418,NA,NA
31779,Mitchell County,GA,90.65573770491804,NA,NA,NA,NA
31903,Muscogee County,GA,NA,NA,NA,48.943661971830984,NA
31907,Muscogee County,GA,NA,NA,NA,NA,4.032258064516129
31909,Muscogee County,GA,NA,NA,NA,30.164319248826292,NA
39845,Seminole County,GA,NA,NA,76.42215568862275,NA,NA
96706,Honolulu County,HI,12.950819672131148,NA,10.479041916167663,NA,NA
96720,Hawaii County,HI,42.295081967213115,NA,NA,NA,NA
96734,Honolulu County,HI,NA,85.66666666666667,NA,NA,NA
96741,Kauai County,HI,NA,NA,92.06586826347305,NA,NA
96744,Honolulu County,HI,NA,NA,19.535928143712574,NA,NA
96753,Maui County,HI,NA,NA,NA,77.69953051643192,NA
96755,Hawaii County,HI,NA,NA,99.25149700598801,NA,NA
96766,Kauai County,HI,NA,NA,70.58383233532935,NA,NA
96789,Honolulu County,HI,NA,NA,21.931137724550897,9.624413145539906,NA
96813,Honolulu County,HI,NA,NA,NA,NA,44.03225806451613
96817,Honolulu County,HI,NA,NA,11.377245508982035,NA,NA
96818,Honolulu County,HI,NA,NA,54.41616766467065,NA,NA
96821,Honolulu County,HI,NA,NA,NA,NA,18.064516129032256
96822,Honolulu County,HI,NA,NA,NA,21.5962441314554,NA
83221,Bingham County,ID,59.67213114754099,NA,62.94910179640718,NA,NA
83301,Twin Falls County,ID,NA,NA,NA,NA,0
83333,Blaine County,ID,NA,NA,81.3622754491018,NA,NA
83338,Jerome County,ID,NA,NA,57.93413173652695,NA,NA
83402,Bonneville County,ID,16.885245901639344,NA,54.26646706586826,81.10328638497653,NA
83501,Nez Perce County,ID,13.114754098360656,NA,NA,NA,NA
83530,Idaho County,ID,NA,NA,NA,85.2112676056338,NA
83617,Gem County,ID,66.55737704918033,NA,NA,NA,NA
83642,Ada County,ID,NA,NA,NA,NA,7.419354838709677
83644,Canyon County,ID,NA,NA,NA,83.80281690140845,NA
83651,Canyon County,ID,NA,NA,NA,13.96713615023474,NA
83672,Washington County,ID,NA,NA,78.89221556886228,NA,NA
83687,Canyon County,ID,18.688524590163937,NA,NA,19.718309859154928,NA
83704,Ada County,ID,NA,NA,NA,NA,3.387096774193549
83714,Ada County,ID,NA,NA,NA,54.22535211267606,NA
83805,Boundary County,ID,NA,83.66666666666667,99.8502994011976,NA,NA
83815,Kootenai County,ID,NA,NA,37.3502994011976,NA,NA
83864,Bonner County,ID,NA,NA,NA,NA,51.935483870967744
60002,Lake County,IL,NA,NA,NA,38.028169014084504,NA
60004,Cook County,IL,NA,NA,NA,12.323943661971832,NA
60005,Cook County,IL,NA,NA,58.60778443113772,NA,NA
60007,Cook County,IL,67.37704918032786,NA,NA,NA,NA
60015,Lake County,IL,NA,NA,61.52694610778443,NA,NA
60016,Cook County,IL,51.47540983606558,NA,NA,NA,NA
60025,Cook County,IL,NA,NA,NA,5.868544600938967,NA
60050,McHenry County,IL,NA,NA,NA,36.38497652582159,NA
60056,Cook County,IL,NA,NA,40.6437125748503,NA,NA
60061,Lake County,IL,NA,NA,NA,56.2206572769953,NA
60067,Cook County,IL,NA,NA,NA,21.71361502347418,NA
60068,Cook County,IL,NA,NA,NA,40.02347417840376,NA
60077,Cook County,IL,NA,NA,61.90119760479041,NA,8.548387096774194
60087,Lake County,IL,NA,NA,NA,NA,60.322580645161295
60089,Lake County,IL,NA,NA,NA,NA,18.70967741935484
60090,Cook County,IL,NA,NA,NA,31.455399061032864,NA
60103,DuPage County,IL,NA,NA,29.865269461077844,NA,NA
60107,Cook County,IL,NA,NA,52.32035928143712,NA,NA
60108,DuPage County,IL,NA,NA,NA,31.220657276995308,NA
60123,Kane County,IL,NA,NA,20.733532934131738,NA,NA
60126,DuPage County,IL,NA,NA,NA,3.051643192488263,NA
60134,Kane County,IL,52.29508196721312,NA,NA,NA,NA
60139,DuPage County,IL,60.65573770491803,NA,93.562874251497007,NA,NA
60142,McHenry County,IL,43.44262295081967,NA,NA,NA,NA
60160,Cook County,IL,NA,NA,NA,73.70892018779342,NA
60164,Cook County,IL,67.37704918032786,NA,41.76646706586826,NA,NA
60172,DuPage County,IL,60.983606557377044,NA,NA,NA,58.225806451612904
60181,DuPage County,IL,52.622950819672134,NA,NA,NA,NA
60187,DuPage County,IL,NA,NA,39.07185628742515,NA,NA
60189,DuPage County,IL,NA,NA,NA,25.352112676056336,NA
60201,Cook County,IL,NA,NA,NA,24.413145539906104,NA
60202,Cook County,IL,NA,NA,NA,88.02816901408451,NA
60402,Cook County,IL,NA,NA,10.928143712574851,NA,NA
60404,Will County,IL,NA,NA,NA,45.89201877934273,NA
60409,Cook County,IL,NA,NA,NA,36.267605633802816,NA
60415,Cook County,IL,91.47540983606557,NA,NA,NA,NA
60429,Cook County,IL,NA,NA,70.80838323353294,NA,NA
60431,Will County,IL,NA,NA,NA,46.5962441314554,NA
60435,Will County,IL,NA,NA,NA,44.36619718309859,NA
60448,Will County,IL,NA,NA,NA,53.16901408450704,NA
60449,Will County,IL,NA,NA,NA,NA,88.54838709677419
60451,Will County,IL,43.44262295081967,NA,NA,55.28169014084507,NA
60452,Cook County,IL,NA,NA,NA,46.244131455399064,NA
60453,Cook County,IL,NA,NA,NA,10.328638497652582,5.806451612903226
60471,Cook County,IL,NA,NA,NA,71.36150234741784,NA
60491,Will County,IL,NA,NA,NA,30.046948356807512,NA
60510,Kane County,IL,38.0327868852459,NA,NA,NA,NA
60544,Will County,IL,NA,NA,39.37125748502994,NA,NA
60558,Cook County,IL,NA,NA,84.88023952095809,NA,NA
60560,Kendall County,IL,NA,NA,NA,59.154929577464785,NA
60564,Will County,IL,26.721311475409838,NA,39.221556886227546,NA,72.09677419354838
60565,DuPage County,IL,20.491803278688526,NA,NA,NA,NA
60585,Will County,IL,NA,NA,NA,62.441314553990615,NA
60586,Will County,IL,NA,NA,14.520958083832337,NA,NA
60605,Cook County,IL,NA,NA,NA,NA,61.7741935483871
60607,Cook County,IL,58.852459016393446,NA,50.22455089820359,NA,NA
60610,Cook County,IL,NA,NA,74.62574850299401,NA,NA
60611,Cook County,IL,NA,NA,NA,NA,45.16129032258064
60613,Cook County,IL,NA,NA,NA,NA,75
60614,Cook County,IL,NA,NA,87.42514970059881,NA,13.38709677419355
60615,Cook County,IL,NA,NA,75.2994011976048,NA,NA
60616,Cook County,IL,NA,NA,NA,11.737089201877934,NA
60617,Cook County,IL,NA,NA,NA,NA,18.548387096774192
60619,Cook County,IL,2.459016393442623,NA,NA,NA,NA
60622,Cook County,IL,NA,NA,38.47305389221557,NA,NA
60623,Cook County,IL,NA,NA,6.062874251497006,NA,NA
60628,Cook County,IL,NA,NA,5.9880239520958085,4.694835680751173,NA
60629,Cook County,IL,NA,NA,5.014970059880239,NA,9.838709677419356
60630,Cook County,IL,NA,NA,23.727544910179642,NA,NA
60631,Cook County,IL,78.68852459016394,NA,32.78443113772455,NA,NA
60639,Cook County,IL,NA,NA,NA,9.741784037558686,NA
60641,Cook County,IL,NA,NA,NA,NA,24.032258064516128
60643,Cook County,IL,NA,NA,NA,4.107981220657277,NA
60644,Cook County,IL,NA,NA,6.961077844311377,NA,NA
60646,Cook County,IL,NA,NA,50.374251497005986,NA,NA
60647,Cook County,IL,NA,NA,NA,21.948356807511736,NA
60649,Cook County,IL,NA,NA,13.323353293413174,NA,NA
60651,Cook County,IL,NA,NA,NA,10.56338028169014,NA
60654,Cook County,IL,NA,NA,NA,NA,92.90322580645162
60655,Cook County,IL,23.442622950819672,NA,NA,NA,NA
60656,Cook County,IL,NA,NA,NA,NA,44.516129032258064
60657,Cook County,IL,NA,NA,NA,NA,55.483870967741936
60660,Cook County,IL,NA,NA,NA,18.07511737089202,NA
60707,Cook County,IL,35.40983606557377,NA,NA,NA,NA
60804,Cook County,IL,NA,NA,NA,15.610328638497654,NA
60805,Cook County,IL,78.36065573770492,NA,NA,NA,NA
60901,Kankakee County,IL,NA,NA,NA,15.375586854460094,NA
60914,Kankakee County,IL,36.885245901639344,NA,34.880239520958085,NA,NA
60964,Kankakee County,IL,NA,NA,NA,NA,86.45161290322581
61068,Ogle County,IL,NA,NA,69.16167664670658,NA,NA
61071,Whiteside County,IL,NA,NA,NA,NA,14.677419354838708
61072,Winnebago County,IL,NA,NA,78.21856287425149,NA,NA
61073,Winnebago County,IL,NA,NA,65.86826347305389,NA,NA
61080,Winnebago County,IL,NA,NA,84.80538922155688,NA,86.61290322580645
61102,Winnebago County,IL,NA,NA,NA,61.61971830985915,NA
61111,Winnebago County,IL,40.98360655737705,NA,NA,NA,NA
61350,LaSalle County,IL,NA,NA,NA,NA,29.677419354838708
61401,Knox County,IL,NA,NA,NA,NA,20.64516129032258
61550,Tazewell County,IL,NA,NA,NA,73.94366197183099,NA
61604,Peoria County,IL,NA,NA,42.51497005988024,88.38028169014085,NA
61605,Peoria County,IL,NA,NA,NA,NA,91.29032258064517
61614,Peoria County,IL,62.62295081967213,NA,NA,NA,NA
61701,McLean County,IL,NA,NA,NA,31.8075117370892,NA
61764,Livingston County,IL,83.11475409836065,NA,NA,80.51643192488262,NA
61801,Champaign County,IL,NA,NA,NA,94.13145539906104,NA
61802,Champaign County,IL,NA,NA,NA,NA,15.483870967741936
61821,Champaign County,IL,86.72131147540983,NA,NA,53.52112676056338,12.741935483870966
61832,Vermilion County,IL,NA,NA,9.805389221556887,NA,NA
61834,Vermilion County,IL,NA,NA,NA,85.91549295774648,NA
61846,Vermilion County,IL,NA,NA,NA,NA,93.06451612903226
61866,Champaign County,IL,NA,NA,NA,74.29577464788733,NA
61873,Champaign County,IL,NA,NA,NA,NA,78.2258064516129
61920,Coles County,IL,NA,NA,NA,57.3943661971831,NA
62016,Greene County,IL,94.91803278688525,NA,NA,NA,NA
62049,Montgomery County,IL,NA,NA,NA,NA,69.51612903225806
62052,Jersey County,IL,NA,NA,NA,NA,46.45161290322581
62095,Madison County,IL,NA,NA,NA,NA,52.41935483870967
62208,St. Clair County,IL,NA,NA,NA,NA,61.29032258064516
62220,St. Clair County,IL,NA,NA,NA,NA,92.41935483870968
62234,Madison County,IL,NA,NA,52.17065868263473,NA,NA
62236,Monroe County,IL,NA,NA,NA,NA,79.19354838709678
62305,Adams County,IL,82.78688524590164,NA,NA,NA,NA
62363,Pike County,IL,NA,NA,NA,NA,71.12903225806451
62450,Richland County,IL,NA,NA,88.39820359281437,NA,NA
62526,Macon County,IL,NA,NA,11.002994011976048,8.80281690140845,NA
62681,Schuyler County,IL,NA,NA,NA,NA,93.54838709677419
62702,Sangamon County,IL,35.90163934426229,NA,NA,NA,NA
62703,Sangamon County,IL,NA,98.66666666666667,NA,NA,NA
62832,Perry County,IL,NA,NA,84.95508982035929,NA,NA
62864,Jefferson County,IL,NA,NA,49.101796407185624,NA,NA
62881,Marion County,IL,84.26229508196721,NA,72.60479041916167,NA,NA
62901,Jackson County,IL,NA,NA,66.09281437125748,NA,NA
62918,Williamson County,IL,84.26229508196721,NA,NA,NA,NA
62948,Williamson County,IL,NA,NA,68.8622754491018,NA,NA
62960,Massac County,IL,NA,NA,NA,NA,50
46012,Madison County,IN,NA,55.666666666666664,NA,78.05164319248826,NA
46013,Madison County,IN,NA,NA,35.40419161676647,NA,NA
46016,Madison County,IN,NA,NA,14.37125748502994,NA,NA
46017,Madison County,IN,NA,NA,NA,81.33802816901408,NA
46036,Madison County,IN,NA,NA,63.24850299401198,NA,NA
46040,Hancock County,IN,73.11475409836066,NA,NA,NA,NA
46074,Hamilton County,IN,NA,NA,NA,65.72769953051643,NA
46123,Hendricks County,IN,NA,NA,49.32634730538922,NA,NA
46140,Hancock County,IN,NA,NA,NA,85.09389671361502,NA
46142,Johnson County,IN,NA,NA,NA,14.671361502347418,NA
46201,Marion County,IN,NA,NA,NA,38.967136150234744,NA
46203,Marion County,IN,NA,22.333333333333332,NA,NA,NA
46205,Marion County,IN,NA,NA,38.24850299401197,NA,NA
46218,Marion County,IN,NA,NA,8.907185628742514,NA,NA
46219,Marion County,IN,NA,NA,11.676646706586826,NA,NA
46220,Marion County,IN,NA,NA,NA,80.75117370892019,NA
46221,Marion County,IN,NA,NA,31.511976047904195,NA,NA
46226,Marion County,IN,NA,NA,NA,NA,25.483870967741932
46234,Marion County,IN,NA,NA,NA,55.04694835680751,NA
46237,Marion County,IN,NA,NA,18.7874251497006,NA,NA
46254,Marion County,IN,NA,30.666666666666664,NA,NA,NA
46260,Marion County,IN,NA,NA,NA,NA,87.41935483870968
46303,Lake County,IN,NA,NA,NA,44.95305164319249,NA
46307,Lake County,IN,1.1475409836065573,NA,1.1976047904191618,NA,NA
46312,Lake County,IN,NA,NA,15.6437125748503,NA,NA
46322,Lake County,IN,NA,NA,NA,27.11267605633803,NA
46324,Lake County,IN,NA,NA,16.24251497005988,NA,NA
46341,Porter County,IN,NA,90.66666666666666,NA,NA,NA
46350,LaPorte County,IN,NA,35.66666666666667,NA,NA,NA
46360,LaPorte County,IN,NA,47.66666666666667,NA,NA,NA
46368,Porter County,IN,NA,NA,NA,1.643192488262911,NA
46373,Lake County,IN,46.72131147540984,NA,NA,NA,NA
46375,Lake County,IN,NA,NA,NA,18.896713615023476,NA
46385,Porter County,IN,8.852459016393443,NA,NA,NA,NA
46526,Elkhart County,IN,NA,NA,NA,62.676056338028175,NA
46538,Kosciusko County,IN,95.40983606557377,NA,NA,NA,NA
46544,St. Joseph County,IN,NA,NA,49.17664670658682,NA,NA
46563,Marshall County,IN,NA,NA,42.81437125748503,25.821596244131456,NA
46574,St. Joseph County,IN,NA,NA,NA,81.57276995305163,NA
46580,Kosciusko County,IN,NA,NA,NA,NA,31.774193548387096
46619,St. Joseph County,IN,NA,74.33333333333333,NA,71.47887323943662,NA
46714,Wells County,IN,NA,NA,60.778443113772454,NA,NA
46721,DeKalb County,IN,NA,NA,97.90419161676647,NA,NA
46725,Whitley County,IN,NA,NA,64.67065868263472,NA,NA
46750,Huntington County,IN,NA,NA,85.70359281437125,NA,NA
46808,Allen County,IN,NA,NA,91.69161676646706,NA,NA
46809,Allen County,IN,NA,NA,NA,75.70422535211267,NA
46819,Allen County,IN,81.31147540983606,NA,NA,NA,NA
46825,Allen County,IN,NA,NA,NA,68.07511737089203,NA
46901,Howard County,IN,NA,NA,1.4970059880239521,4.577464788732395,NA
46928,Grant County,IN,NA,NA,NA,96.47887323943662,NA
46970,Miami County,IN,23.114754098360656,NA,NA,NA,NA
46978,Cass County,IN,98.19672131147541,NA,NA,NA,NA
46992,Wabash County,IN,NA,NA,67.06586826347305,NA,NA
47006,Ripley County,IN,NA,NA,NA,67.84037558685446,64.35483870967742
47025,Dearborn County,IN,38.196721311475414,NA,NA,NA,NA
47102,Scott County,IN,NA,NA,89.29640718562875,NA,93.54838709677419
47129,Clark County,IN,29.016393442622952,NA,NA,NA,NA
47161,Harrison County,IN,NA,NA,99.55089820359282,NA,NA
47165,Washington County,IN,67.37704918032786,NA,NA,NA,NA
47240,Decatur County,IN,NA,NA,NA,NA,66.29032258064517
47304,Delaware County,IN,NA,NA,NA,45.42253521126761,NA
47331,Fayette County,IN,NA,NA,NA,NA,7.741935483870968
47362,Henry County,IN,NA,NA,21.03293413173653,NA,NA
47404,Monroe County,IN,75.08196721311475,NA,NA,NA,80
47408,Monroe County,IN,NA,NA,NA,NA,78.70967741935485
47421,Lawrence County,IN,NA,NA,36.00299401197605,20.539906103286384,NA
47429,Monroe County,IN,NA,93.66666666666667,NA,NA,NA
47452,Orange County,IN,NA,NA,NA,NA,94.35483870967742
47620,Posey County,IN,NA,NA,71.40718562874252,NA,NA
47710,Vanderburgh County,IN,NA,NA,37.200598802395206,NA,NA
47711,Vanderburgh County,IN,NA,NA,29.34131736526946,NA,NA
47804,Vigo County,IN,NA,NA,62.874251497005986,NA,NA
47874,Parke County,IN,NA,NA,99.7005988023952,NA,NA
50021,Polk County,IA,71.9672131147541,NA,NA,NA,NA
50036,Boone County,IA,49.67213114754098,NA,NA,NA,NA
50129,Greene County,IA,NA,NA,98.95209580838323,NA,NA
50266,Polk County,IA,NA,NA,NA,NA,82.41935483870968
50313,Polk County,IA,NA,NA,41.16766467065868,NA,NA
50511,Kossuth County,IA,82.1311475409836,NA,NA,NA,NA
50595,Hamilton County,IA,NA,NA,78.59281437125748,NA,NA
50613,Black Hawk County,IA,NA,NA,NA,15.023474178403756,4.67741935483871
50644,Buchanan County,IA,88.85245901639345,NA,NA,NA,NA
50677,Bremer County,IA,NA,NA,80.08982035928143,70.07042253521126,NA
50702,Black Hawk County,IA,NA,NA,74.25149700598801,NA,NA
50703,Black Hawk County,IA,NA,NA,NA,34.97652582159624,NA
51104,Woodbury County,IA,NA,NA,NA,57.981220657277,NA
51106,Woodbury County,IA,NA,NA,NA,53.755868544600936,NA
51501,Pottawattamie County,IA,NA,NA,17.739520958083833,12.676056338028168,NA
51576,Pottawattamie County,IA,NA,NA,99.32634730538922,NA,NA
52001,Dubuque County,IA,17.868852459016395,NA,NA,NA,NA
52205,Jones County,IA,NA,NA,97.08083832335329,86.26760563380282,NA
52213,Linn County,IA,98.85245901639344,NA,NA,NA,NA
52240,Johnson County,IA,NA,NA,NA,NA,27.419354838709676
52241,Johnson County,IA,NA,NA,76.49700598802394,NA,NA
52402,Linn County,IA,29.34426229508197,NA,18.862275449101794,NA,NA
52404,Linn County,IA,NA,NA,7.634730538922156,NA,NA
52501,Wapello County,IA,NA,NA,13.47305389221557,34.037558685446015,NA
52537,Davis County,IA,NA,NA,88.47305389221557,NA,NA
52556,Jefferson County,IA,87.54098360655738,NA,NA,NA,NA
52726,Scott County,IA,NA,NA,NA,98.12206572769952,NA
52803,Scott County,IA,NA,NA,NA,58.68544600938967,NA
66061,Johnson County,KS,NA,NA,53.0688622754491,NA,NA
66071,Miami County,KS,NA,NA,NA,NA,76.77419354838709
66109,Wyandotte County,KS,NA,NA,NA,NA,32.25806451612903
66212,Johnson County,KS,NA,NA,NA,82.27699530516432,NA
66214,Johnson County,KS,74.42622950819671,NA,NA,NA,NA
66219,Johnson County,KS,NA,NA,87.94910179640718,NA,NA
66436,Jackson County,KS,NA,NA,94.01197604790418,NA,NA
66536,Pottawatomie County,KS,90.32786885245902,NA,NA,NA,NA
66604,Shawnee County,KS,NA,NA,48.57784431137724,NA,NA
66609,Shawnee County,KS,NA,NA,NA,NA,91.77419354838709
66762,Crawford County,KS,NA,NA,NA,NA,57.25806451612904
66901,Cloud County,KS,NA,NA,NA,NA,81.45161290322581
67037,Sedgwick County,KS,NA,NA,NA,NA,82.09677419354838
67124,Pratt County,KS,NA,NA,90.11976047904191,NA,NA
67203,Sedgwick County,KS,NA,NA,NA,72.1830985915493,NA
67420,Mitchell County,KS,NA,NA,NA,96.24413145539906,NA
67439,Ellsworth County,KS,NA,NA,NA,97.88732394366197,NA
67473,Osborne County,KS,NA,NA,NA,95.53990610328638,NA
67526,Barton County,KS,NA,NA,99.40119760479041,NA,NA
67601,Ellis County,KS,NA,NA,NA,20.305164319248824,NA
67701,Thomas County,KS,NA,NA,NA,96.59624413145539,84.03225806451613
67801,Ford County,KS,NA,NA,NA,66.31455399061032,NA
67880,Grant County,KS,85.40983606557377,NA,NA,NA,NA
40031,Oldham County,KY,NA,NA,33.68263473053892,NA,NA
40160,Hardin County,KY,NA,NA,33.75748502994012,NA,NA
40202,Jefferson County,KY,96.88524590163935,NA,82.93413173652695,NA,NA
40204,Jefferson County,KY,NA,NA,78.44311377245509,NA,NA
40205,Jefferson County,KY,83.93442622950819,NA,NA,NA,NA
40207,Jefferson County,KY,79.50819672131148,NA,NA,NA,NA
40215,Jefferson County,KY,NA,30,NA,NA,NA
40216,Jefferson County,KY,NA,21.333333333333336,8.158682634730539,NA,12.096774193548388
40218,Jefferson County,KY,24.75409836065574,NA,13.17365269461078,NA,NA
40219,Jefferson County,KY,NA,NA,NA,25.352112676056336,NA
40220,Jefferson County,KY,NA,68.66666666666667,NA,NA,NA
40222,Jefferson County,KY,NA,NA,78.2934131736527,NA,27.09677419354839
40229,Jefferson County,KY,NA,NA,11.60179640718563,NA,NA
40322,Menifee County,KY,NA,77.33333333333333,NA,NA,NA
40330,Mercer County,KY,NA,NA,55.38922155688623,NA,NA
40383,Woodford County,KY,NA,NA,73.72754491017965,NA,NA
40403,Madison County,KY,NA,NA,22.679640718562872,NA,NA
40447,Jackson County,KY,NA,NA,87.94910179640718,86.03286384976526,NA
40508,Fayette County,KY,NA,56.333333333333336,NA,NA,NA
40513,Fayette County,KY,75.40983606557377,NA,NA,NA,NA
40515,Fayette County,KY,NA,NA,NA,57.863849765258216,NA
40517,Fayette County,KY,NA,NA,NA,45.42253521126761,NA
40701,Whitley County,KY,NA,NA,39.14670658682635,NA,NA
40741,Laurel County,KY,NA,40.666666666666664,NA,NA,NA
40823,Harlan County,KY,NA,NA,78.6676646706587,NA,NA
41014,Kenton County,KY,NA,NA,54.715568862275454,NA,NA
41015,Kenton County,KY,59.01639344262295,NA,27.694610778443113,NA,NA
41016,Kenton County,KY,NA,NA,81.73652694610777,NA,NA
41031,Harrison County,KY,NA,NA,58.458083832335326,NA,NA
41035,Grant County,KY,NA,NA,47.00598802395209,NA,NA
41076,Campbell County,KY,NA,NA,73.05389221556887,NA,NA
41101,Boyd County,KY,5.245901639344262,NA,49.700598802395206,NA,NA
41102,Boyd County,KY,NA,NA,56.66167664670658,NA,25
41164,Carter County,KY,NA,NA,34.955089820359284,NA,NA
41314,Owsley County,KY,93.27868852459017,NA,NA,NA,NA
41537,Letcher County,KY,90.81967213114754,NA,NA,NA,NA
41701,Perry County,KY,NA,NA,NA,NA,84.51612903225806
42001,McCracken County,KY,NA,NA,31.2874251497006,NA,NA
42003,McCracken County,KY,NA,NA,14.37125748502994,NA,NA
42025,Marshall County,KY,NA,NA,44.61077844311377,NA,NA
42103,Warren County,KY,NA,NA,NA,NA,72.90322580645162
42104,Warren County,KY,41.47540983606557,NA,NA,NA,NA
42134,Simpson County,KY,81.9672131147541,NA,NA,NA,NA
42261,Butler County,KY,NA,NA,63.547904191616766,NA,NA
42301,Daviess County,KY,13.60655737704918,NA,NA,NA,NA
42420,Henderson County,KY,NA,NA,8.383233532934131,NA,NA
42437,Union County,KY,NA,NA,NA,NA,84.19354838709677
42459,Union County,KY,92.95081967213115,NA,94.08682634730539,NA,NA
42501,Pulaski County,KY,NA,NA,51.19760479041916,NA,NA
42633,Wayne County,KY,NA,NA,53.74251497005989,NA,NA
42642,Russell County,KY,NA,NA,NA,NA,89.6774193548387
42718,Taylor County,KY,NA,45,NA,NA,NA
70003,Jefferson Parish,LA,NA,NA,NA,3.403755868544601,NA
70053,Jefferson Parish,LA,NA,63.33333333333333,NA,NA,NA
70072,Jefferson Parish,LA,NA,NA,8.607784431137725,NA,NA
70128,Orleans Parish,LA,NA,NA,16.092814371257486,NA,NA
70341,Assumption Parish,LA,NA,91,NA,NA,NA
70344,Terrebonne Parish,LA,47.377049180327866,NA,NA,NA,NA
70354,Lafourche Parish,LA,NA,NA,74.55089820359282,NA,NA
70359,Terrebonne Parish,LA,NA,NA,32.11077844311377,76.64319248826291,NA
70364,Terrebonne Parish,LA,5.409836065573771,NA,NA,NA,NA
70377,Terrebonne Parish,LA,85.40983606557377,NA,NA,NA,NA
70380,St. Mary Parish,LA,NA,NA,22.305389221556887,NA,NA
70394,Lafourche Parish,LA,28.524590163934427,NA,NA,NA,NA
70433,St. Tammany Parish,LA,NA,NA,NA,9.507042253521126,NA
70452,St. Tammany Parish,LA,NA,5,NA,NA,NA
70458,St. Tammany Parish,LA,NA,NA,4.416167664670659,3.9906103286384975,NA
70460,St. Tammany Parish,LA,NA,NA,80.31437125748504,NA,NA
70461,St. Tammany Parish,LA,NA,19.333333333333332,16.017964071856287,NA,NA
70471,St. Tammany Parish,LA,NA,NA,NA,78.63849765258216,NA
70510,Vermilion Parish,LA,NA,NA,9.95508982035928,NA,NA
70512,St. Landry Parish,LA,NA,NA,87.27544910179641,NA,NA
70570,St. Landry Parish,LA,NA,NA,23.802395209580837,NA,NA
70601,Calcasieu Parish,LA,NA,NA,11.526946107784433,NA,NA
70611,Calcasieu Parish,LA,NA,86.66666666666667,NA,95.30516431924883,NA
70615,Calcasieu Parish,LA,NA,NA,73.12874251497006,NA,NA
70634,Beauregard Parish,LA,NA,NA,NA,NA,38.54838709677419
70726,Livingston Parish,LA,NA,NA,1.0479041916167664,10.68075117370892,NA
70737,Ascension Parish,LA,NA,NA,NA,19.248826291079812,34.193548387096776
70764,Iberville Parish,LA,NA,NA,NA,64.31924882629107,NA
70769,Ascension Parish,LA,NA,NA,9.281437125748502,NA,NA
70785,Livingston Parish,LA,NA,NA,17.065868263473057,40.845070422535215,NA
70816,East Baton Rouge Parish,LA,4.918032786885246,NA,NA,NA,NA
71006,Bossier Parish,LA,NA,NA,95.20958083832335,NA,NA
71037,Bossier Parish,LA,NA,NA,NA,84.6244131455399,NA
71082,Caddo Parish,LA,NA,NA,91.91616766467065,NA,NA
71107,Caddo Parish,LA,NA,NA,35.62874251497006,21.244131455399064,28.870967741935484
71109,Caddo Parish,LA,81.14754098360656,NA,NA,NA,NA
71111,Bossier Parish,LA,NA,NA,4.04191616766467,NA,NA
71118,Caddo Parish,LA,NA,NA,20.28443113772455,NA,NA
71202,Ouachita Parish,LA,3.4426229508196724,NA,NA,NA,NA
71282,Madison Parish,LA,NA,NA,51.94610778443114,NA,NA
71291,Ouachita Parish,LA,NA,NA,9.73053892215569,NA,NA
71302,Rapides Parish,LA,34.59016393442623,NA,NA,NA,NA
71350,Avoyelles Parish,LA,NA,NA,NA,NA,97.09677419354838
71467,Grant Parish,LA,NA,NA,NA,99.4131455399061,NA
71483,Winn Parish,LA,NA,39.666666666666664,NA,NA,NA
03904,York County,ME,NA,NA,77.24550898203593,NA,NA
03908,York County,ME,NA,NA,NA,61.85446009389671,NA
03909,York County,ME,NA,NA,NA,58.45070422535211,NA
04043,York County,ME,NA,NA,NA,44.95305164319249,NA
04046,York County,ME,NA,NA,NA,77.34741784037558,NA
04062,Cumberland County,ME,NA,NA,NA,NA,74.35483870967742
04090,York County,ME,NA,NA,64.44610778443113,34.27230046948357,NA
04092,Cumberland County,ME,NA,NA,40.86826347305389,NA,NA
04103,Cumberland County,ME,NA,NA,21.33233532934132,NA,NA
04281,Oxford County,ME,NA,NA,NA,NA,70
04330,Kennebec County,ME,4.098360655737705,NA,NA,NA,NA
04401,Penobscot County,ME,NA,NA,1.4221556886227544,NA,NA
04742,Aroostook County,ME,NA,NA,NA,71.71361502347418,NA
04769,Aroostook County,ME,NA,NA,NA,48.708920187793424,NA
04938,Franklin County,ME,NA,NA,52.61976047904192,NA,NA
04957,Somerset County,ME,NA,NA,76.34730538922156,NA,NA
04976,Somerset County,ME,NA,NA,15.344311377245509,17.48826291079812,NA
20650,St. Mary's County,MD,NA,NA,NA,NA,70.96774193548387
20685,Calvert County,MD,NA,NA,95.65868263473054,NA,NA
20737,Prince George's County,MD,NA,NA,86.67664670658682,NA,NA
20745,Prince George's County,MD,NA,NA,NA,62.20657276995305,NA
20851,Montgomery County,MD,NA,NA,93.48802395209582,NA,NA
20853,Montgomery County,MD,NA,NA,NA,76.29107981220658,NA
20854,Montgomery County,MD,NA,NA,NA,NA,35
20886,Montgomery County,MD,NA,NA,NA,NA,87.74193548387098
20904,Montgomery County,MD,NA,NA,NA,56.10328638497653,NA
21045,Howard County,MD,NA,NA,77.69461077844312,NA,NA
21047,Harford County,MD,73.11475409836066,NA,NA,NA,NA
21050,Harford County,MD,NA,NA,72.82934131736528,NA,NA
21057,Baltimore County,MD,NA,NA,NA,97.41784037558685,NA
21076,Anne Arundel County,MD,NA,NA,NA,89.08450704225352,NA
21084,Harford County,MD,NA,NA,NA,92.48826291079813,NA
21133,Baltimore County,MD,15.737704918032788,NA,NA,NA,NA
21204,Baltimore County,MD,NA,NA,69.98502994011976,NA,NA
21218,Baltimore city,MD,NA,NA,NA,13.615023474178404,NA
21225,Baltimore city,MD,NA,NA,NA,46.83098591549296,NA
21228,Baltimore County,MD,NA,NA,52.99401197604791,NA,NA
21403,Anne Arundel County,MD,NA,NA,64.52095808383234,NA,NA
21788,Frederick County,MD,NA,NA,81.1377245508982,NA,NA
21911,Cecil County,MD,NA,NA,76.64670658682635,NA,NA
21921,Cecil County,MD,22.459016393442624,NA,NA,NA,NA
01001,Hampden County,MA,NA,NA,NA,NA,73.38709677419355
01005,Worcester County,MA,NA,NA,71.63173652694611,NA,NA
01020,Hampden County,MA,NA,NA,3.0688622754491015,NA,NA
01035,Hampshire County,MA,NA,NA,NA,NA,85.96774193548387
01089,Hampden County,MA,NA,NA,3.218562874251497,NA,NA
01201,Berkshire County,MA,NA,NA,NA,0,NA
01247,Berkshire County,MA,NA,39.666666666666664,27.47005988023952,NA,NA
01440,Worcester County,MA,NA,NA,NA,NA,10.483870967741936
01450,Middlesex County,MA,NA,NA,NA,95.65727699530517,NA
01453,Worcester County,MA,13.278688524590162,NA,0.5988023952095809,NA,NA
01507,Worcester County,MA,NA,NA,40.344311377245504,NA,NA
01545,Worcester County,MA,14.098360655737704,NA,16.392215568862277,NA,16.129032258064516
01550,Worcester County,MA,NA,NA,7.260479041916168,NA,NA
01603,Worcester County,MA,NA,NA,28.967065868263475,NA,NA
01604,Worcester County,MA,NA,NA,0.4491017964071856,NA,NA
01609,Worcester County,MA,NA,NA,NA,NA,99.03225806451613
01610,Worcester County,MA,NA,NA,24.70059880239521,4.460093896713615,NA
01721,Middlesex County,MA,NA,NA,NA,41.78403755868544,NA
01742,Middlesex County,MA,NA,NA,NA,40.962441314553985,NA
01746,Middlesex County,MA,77.04918032786885,NA,NA,40.61032863849765,NA
01747,Worcester County,MA,NA,NA,NA,NA,83.87096774193549
01754,Middlesex County,MA,NA,NA,66.99101796407186,NA,NA
01756,Worcester County,MA,85.08196721311475,NA,NA,NA,NA
01757,Worcester County,MA,NA,NA,NA,6.220657276995305,NA
01760,Middlesex County,MA,17.21311475409836,NA,NA,NA,NA
01776,Middlesex County,MA,NA,NA,NA,45.42253521126761,NA
01801,Middlesex County,MA,15.573770491803279,NA,NA,NA,NA
01810,Essex County,MA,29.508196721311474,NA,NA,NA,NA
01821,Middlesex County,MA,30.81967213114754,NA,NA,NA,NA
01832,Essex County,MA,NA,24,2.470059880239521,NA,NA
01833,Essex County,MA,NA,NA,81.2874251497006,NA,NA
01834,Essex County,MA,50.49180327868853,NA,NA,NA,NA
01835,Essex County,MA,NA,NA,33.308383233532936,NA,NA
01841,Essex County,MA,NA,0.6666666666666667,NA,NA,NA
01845,Essex County,MA,NA,NA,NA,NA,23.06451612903226
01850,Middlesex County,MA,10.163934426229508,NA,NA,NA,78.54838709677419
01852,Middlesex County,MA,NA,2,NA,NA,NA
01854,Middlesex County,MA,NA,NA,83.15868263473054,NA,NA
01862,Middlesex County,MA,77.04918032786885,NA,NA,NA,NA
01863,Middlesex County,MA,NA,NA,56.06287425149701,NA,NA
01864,Middlesex County,MA,NA,NA,49.40119760479042,38.732394366197184,NA
01880,Middlesex County,MA,NA,NA,NA,NA,13.709677419354838
01887,Middlesex County,MA,NA,NA,NA,2.5821596244131455,NA
01901,Essex County,MA,NA,NA,NA,NA,97.90322580645162
01902,Essex County,MA,NA,4,8.532934131736528,NA,NA
01904,Essex County,MA,NA,NA,59.88023952095808,NA,NA
01923,Essex County,MA,NA,71,NA,NA,NA
01945,Essex County,MA,57.213114754098356,NA,NA,NA,NA
01950,Essex County,MA,NA,NA,19.46107784431138,NA,NA
01952,Essex County,MA,NA,NA,NA,NA,54.19354838709678
01970,Essex County,MA,38.68852459016394,7.000000000000001,NA,0.5868544600938966,NA
02045,Plymouth County,MA,NA,97.33333333333334,NA,NA,NA
02048,Bristol County,MA,NA,NA,19.386227544910177,NA,NA
02062,Norfolk County,MA,44.09836065573771,NA,NA,NA,NA
02067,Norfolk County,MA,NA,NA,NA,41.54929577464789,NA
02072,Norfolk County,MA,39.18032786885246,NA,NA,NA,NA
02093,Norfolk County,MA,80.32786885245902,NA,NA,NA,NA
02111,Suffolk County,MA,60.81967213114754,NA,NA,NA,NA
02115,Suffolk County,MA,NA,NA,5.4640718562874255,NA,NA
02116,Suffolk County,MA,NA,NA,NA,3.286384976525822,NA
02119,Suffolk County,MA,NA,NA,0.8982035928143712,NA,NA
02120,Suffolk County,MA,NA,NA,NA,NA,82.09677419354838
02124,Suffolk County,MA,NA,0.33333333333333337,NA,NA,NA
02128,Suffolk County,MA,NA,15.666666666666668,NA,NA,NA
02130,Suffolk County,MA,NA,NA,NA,NA,26.61290322580645
02132,Suffolk County,MA,NA,NA,NA,1.7605633802816902,NA
02135,Suffolk County,MA,NA,NA,NA,43.42723004694836,NA
02136,Suffolk County,MA,NA,NA,1.122754491017964,5.751173708920188,NA
02138,Middlesex County,MA,30.81967213114754,NA,NA,NA,NA
02139,Middlesex County,MA,NA,NA,NA,2.699530516431925,NA
02140,Middlesex County,MA,NA,NA,NA,13.145539906103288,NA
02143,Middlesex County,MA,NA,NA,NA,67.6056338028169,NA
02144,Middlesex County,MA,NA,NA,NA,NA,20
02145,Middlesex County,MA,14.262295081967213,NA,42.964071856287426,NA,10
02148,Middlesex County,MA,NA,NA,24.176646706586826,0.11737089201877934,NA
02150,Suffolk County,MA,NA,NA,NA,0.9389671361502347,NA
02151,Suffolk County,MA,NA,NA,0,NA,NA
02152,Suffolk County,MA,NA,NA,12.20059880239521,NA,NA
02155,Middlesex County,MA,NA,NA,17.514970059880238,NA,NA
02171,Norfolk County,MA,NA,NA,NA,NA,42.90322580645161
02180,Middlesex County,MA,NA,NA,NA,24.295774647887324,NA
02188,Norfolk County,MA,NA,NA,53.293413173652695,NA,NA
02302,Plymouth County,MA,NA,NA,NA,1.9953051643192488,NA
02332,Plymouth County,MA,NA,NA,NA,NA,51.29032258064517
02360,Plymouth County,MA,6.393442622950819,NA,NA,NA,NA
02368,Norfolk County,MA,NA,NA,NA,6.103286384976526,NA
02370,Plymouth County,MA,NA,NA,13.847305389221557,NA,NA
02420,Middlesex County,MA,69.50819672131148,NA,NA,NA,NA
02445,Norfolk County,MA,NA,76.33333333333333,NA,NA,NA
02446,Norfolk County,MA,18.852459016393443,NA,NA,NA,9.032258064516128
02453,Middlesex County,MA,NA,NA,57.11077844311377,NA,NA
02461,Middlesex County,MA,88.36065573770492,NA,NA,NA,95.96774193548387
02472,Middlesex County,MA,NA,NA,NA,8.450704225352112,NA
02474,Middlesex County,MA,39.01639344262295,NA,NA,NA,NA
02478,Middlesex County,MA,NA,NA,23.278443113772454,26.76056338028169,NA
02482,Norfolk County,MA,83.44262295081967,NA,NA,NA,NA
02556,Barnstable County,MA,NA,NA,NA,NA,94.6774193548387
02563,Barnstable County,MA,NA,NA,71.18263473053892,NA,NA
02568,Dukes County,MA,NA,NA,72.0059880239521,NA,NA
02601,Barnstable County,MA,NA,NA,57.55988023952096,NA,NA
02645,Barnstable County,MA,NA,NA,NA,95.89201877934272,NA
02653,Barnstable County,MA,NA,NA,NA,84.03755868544602,NA
02660,Barnstable County,MA,NA,NA,90.94311377245509,NA,NA
02667,Barnstable County,MA,NA,NA,NA,98.70892018779342,NA
02673,Barnstable County,MA,NA,NA,56.73652694610778,NA,NA
02719,Bristol County,MA,NA,NA,87.57485029940119,NA,NA
02720,Bristol County,MA,NA,NA,58.75748502994011,NA,NA
02723,Bristol County,MA,8.360655737704919,NA,NA,NA,NA
02748,Bristol County,MA,NA,NA,41.84131736526946,NA,NA
02760,Bristol County,MA,20.983606557377048,NA,NA,NA,NA
02766,Bristol County,MA,NA,NA,17.964071856287426,NA,NA
02780,Bristol County,MA,NA,42.333333333333336,9.431137724550897,NA,NA
48002,St. Clair County,MI,99.01639344262296,NA,NA,NA,NA
48017,Oakland County,MI,NA,NA,80.83832335329342,NA,NA
48021,Macomb County,MI,NA,NA,9.655688622754491,19.953051643192488,NA
48035,Macomb County,MI,NA,NA,NA,NA,8.870967741935484
48038,Macomb County,MI,17.704918032786885,NA,12.5,5.516431924882629,NA
48044,Macomb County,MI,NA,NA,6.88622754491018,6.690140845070422,NA
48047,Macomb County,MI,NA,NA,NA,16.314553990610328,NA
48048,Macomb County,MI,61.31147540983607,NA,NA,NA,NA
48066,Macomb County,MI,NA,NA,2.3952095808383236,NA,NA
48070,Oakland County,MI,84.75409836065573,NA,NA,NA,NA
48072,Oakland County,MI,NA,91,NA,NA,NA
48073,Oakland County,MI,NA,NA,NA,37.91079812206573,29.193548387096772
48074,St. Clair County,MI,NA,NA,69.61077844311377,NA,NA
48079,St. Clair County,MI,NA,NA,64.82035928143712,NA,NA
48080,Macomb County,MI,NA,NA,NA,15.727699530516432,NA
48081,Macomb County,MI,NA,NA,NA,NA,17.419354838709676
48082,Macomb County,MI,NA,NA,47.90419161676647,NA,25.967741935483872
48088,Macomb County,MI,NA,NA,NA,26.643192488262912,NA
48093,Macomb County,MI,NA,NA,19.08682634730539,NA,NA
48098,Oakland County,MI,NA,NA,61.67664670658682,NA,NA
48101,Wayne County,MI,16.229508196721312,NA,NA,32.98122065727699,NA
48103,Washtenaw County,MI,21.639344262295083,NA,NA,15.96244131455399,NA
48117,Monroe County,MI,NA,NA,54.86526946107785,NA,NA
48125,Wayne County,MI,NA,34,22.904191616766468,NA,NA
48126,Wayne County,MI,NA,NA,9.505988023952096,NA,NA
48127,Wayne County,MI,NA,NA,12.050898203592816,NA,NA
48128,Wayne County,MI,NA,NA,NA,94.48356807511738,NA
48134,Wayne County,MI,NA,NA,63.17365269461078,NA,NA
48140,Monroe County,MI,97.37704918032787,NA,NA,NA,NA
48141,Wayne County,MI,NA,NA,34.3562874251497,NA,NA
48152,Wayne County,MI,NA,NA,NA,6.455399061032864,NA
48161,Monroe County,MI,NA,31,NA,NA,NA
48162,Monroe County,MI,NA,NA,NA,24.76525821596244,NA
48166,Monroe County,MI,NA,NA,43.56287425149701,NA,NA
48167,Oakland County,MI,NA,NA,NA,66.78403755868545,NA
48169,Livingston County,MI,NA,NA,48.57784431137724,33.68544600938967,NA
48170,Wayne County,MI,NA,NA,13.248502994011977,NA,3.7096774193548385
48173,Wayne County,MI,NA,NA,83.68263473053892,NA,NA
48174,Wayne County,MI,NA,NA,5.913173652694611,NA,NA
48176,Washtenaw County,MI,28.0327868852459,NA,NA,NA,NA
48178,Oakland County,MI,NA,NA,NA,NA,36.612903225806456
48183,Wayne County,MI,19.18032786885246,NA,8.08383233532934,NA,NA
48186,Wayne County,MI,18.524590163934427,NA,NA,NA,NA
48188,Wayne County,MI,6.065573770491803,NA,NA,8.92018779342723,NA
48192,Wayne County,MI,NA,NA,17.664670658682635,NA,NA
48193,Wayne County,MI,NA,NA,NA,65.61032863849765,NA
48197,Washtenaw County,MI,NA,NA,1.7964071856287425,NA,NA
48205,Wayne County,MI,NA,9.333333333333334,NA,16.431924882629108,NA
48206,Wayne County,MI,NA,NA,62.3502994011976,NA,NA
48209,Wayne County,MI,24.098360655737704,NA,NA,NA,NA
48210,Wayne County,MI,NA,NA,61.15269461077845,NA,NA
48212,Wayne County,MI,NA,8.666666666666668,9.206586826347305,NA,NA
48217,Wayne County,MI,83.44262295081967,NA,NA,NA,NA
48218,Wayne County,MI,NA,NA,73.57784431137725,NA,NA
48219,Wayne County,MI,NA,NA,3.8922155688622757,2.8169014084507045,NA
48220,Oakland County,MI,NA,NA,46.706586826347305,NA,NA
48221,Wayne County,MI,NA,NA,4.116766467065868,NA,NA
48224,Wayne County,MI,0.819672131147541,NA,1.87125748502994,NA,NA
48227,Wayne County,MI,NA,NA,NA,9.389671361502346,NA
48228,Wayne County,MI,12.786885245901638,NA,NA,NA,NA
48229,Wayne County,MI,NA,NA,60.40419161676647,NA,NA
48234,Wayne County,MI,NA,NA,6.661676646706587,NA,NA
48239,Wayne County,MI,NA,NA,34.206586826347305,NA,41.612903225806456
48240,Wayne County,MI,NA,NA,19.91017964071856,NA,NA
48301,Oakland County,MI,NA,NA,NA,75.93896713615024,NA
48302,Oakland County,MI,NA,NA,NA,50.93896713615024,NA
48306,Oakland County,MI,NA,NA,44.16167664670659,24.178403755868544,NA
48307,Oakland County,MI,22.131147540983605,NA,NA,NA,NA
48309,Oakland County,MI,NA,NA,35.32934131736527,NA,NA
48312,Macomb County,MI,NA,NA,25.748502994011975,17.95774647887324,NA
48314,Macomb County,MI,NA,NA,43.33832335329341,NA,NA
48323,Oakland County,MI,NA,NA,NA,47.76995305164319,NA
48327,Oakland County,MI,NA,NA,NA,44.71830985915493,49.193548387096776
48334,Oakland County,MI,68.52459016393443,NA,NA,NA,NA
48335,Oakland County,MI,NA,NA,NA,91.19718309859155,NA
48341,Oakland County,MI,NA,NA,31.437125748502993,NA,NA
48342,Oakland County,MI,NA,NA,14.146706586826346,NA,NA
48348,Oakland County,MI,NA,NA,69.53592814371258,NA,NA
48356,Oakland County,MI,NA,NA,90.4940119760479,NA,NA
48371,Oakland County,MI,38.85245901639344,NA,NA,NA,NA
48382,Oakland County,MI,NA,NA,50,NA,NA
48462,Oakland County,MI,NA,NA,77.54491017964071,NA,NA
48506,Genesee County,MI,NA,NA,24.775449101796408,NA,NA
48507,Genesee County,MI,NA,NA,NA,35.093896713615024,NA
48509,Genesee County,MI,NA,NA,NA,NA,90.64516129032259
48601,Saginaw County,MI,NA,NA,12.79940119760479,NA,5.483870967741936
48603,Saginaw County,MI,NA,NA,42.290419161676645,NA,NA
48616,Saginaw County,MI,NA,NA,58.458083832335326,NA,NA
48618,Midland County,MI,NA,87.33333333333333,NA,NA,NA
48624,Gladwin County,MI,76.88524590163934,NA,NA,NA,NA
48625,Clare County,MI,NA,NA,30.239520958083833,NA,NA
48626,Saginaw County,MI,91.9672131147541,NA,NA,NA,NA
48637,Saginaw County,MI,96.06557377049181,NA,NA,98.82629107981221,NA
48642,Midland County,MI,NA,NA,NA,61.502347417840376,NA
48653,Roscommon County,MI,73.9344262295082,NA,NA,NA,NA
48657,Midland County,MI,NA,NA,NA,71.83098591549296,NA
48706,Bay County,MI,NA,NA,NA,1.2910798122065728,3.870967741935484
48708,Bay County,MI,NA,NA,6.58682634730539,NA,NA
48732,Bay County,MI,NA,NA,55.01497005988024,NA,NA
48744,Tuscola County,MI,NA,NA,NA,93.07511737089203,NA
48746,Tuscola County,MI,NA,NA,79.94011976047905,NA,NA
48813,Eaton County,MI,NA,NA,NA,19.483568075117372,34.35483870967742
48820,Clinton County,MI,NA,NA,69.91017964071857,52.46478873239436,NA
48827,Eaton County,MI,NA,NA,43.41317365269461,NA,NA
48840,Ingham County,MI,NA,NA,80.16467065868264,NA,NA
48843,Livingston County,MI,NA,NA,NA,NA,8.38709677419355
48867,Shiawassee County,MI,NA,NA,NA,7.394366197183098,NA
48879,Clinton County,MI,NA,83.66666666666667,NA,NA,NA
48906,Ingham County,MI,NA,NA,NA,55.633802816901415,NA
48910,Ingham County,MI,NA,NA,NA,NA,34.516129032258064
48911,Ingham County,MI,NA,NA,5.538922155688622,NA,NA
49001,Kalamazoo County,MI,NA,NA,20.434131736526943,NA,NA
49002,Kalamazoo County,MI,NA,NA,34.73053892215569,NA,NA
49006,Kalamazoo County,MI,NA,NA,51.49700598802395,NA,NA
49014,Calhoun County,MI,30.655737704918035,NA,NA,NA,29.03225806451613
49017,Calhoun County,MI,NA,NA,31.58682634730539,NA,NA
49022,Berrien County,MI,NA,NA,36.82634730538922,14.43661971830986,NA
49024,Kalamazoo County,MI,NA,NA,27.395209580838326,24.061032863849764,NA
49028,Branch County,MI,NA,NA,NA,NA,92.0967741935484
49036,Branch County,MI,NA,NA,29.865269461077844,NA,NA
49090,Van Buren County,MI,75.90163934426229,NA,NA,NA,NA
49093,St. Joseph County,MI,NA,NA,NA,NA,34.83870967741935
49201,Jackson County,MI,10.655737704918032,NA,NA,NA,NA
49203,Jackson County,MI,NA,NA,6.287425149700598,NA,NA
49221,Lenawee County,MI,3.114754098360656,NA,NA,5.28169014084507,7.096774193548387
49229,Lenawee County,MI,94.09836065573771,NA,NA,NA,NA
49242,Hillsdale County,MI,NA,NA,48.05389221556886,NA,NA
49269,Jackson County,MI,NA,NA,90.94311377245509,NA,NA
49286,Lenawee County,MI,NA,NA,58.68263473053892,NA,NA
49302,Kent County,MI,NA,NA,NA,92.37089201877934,NA
49304,Lake County,MI,NA,NA,96.40718562874252,NA,NA
49306,Kent County,MI,NA,NA,NA,88.49765258215963,98.38709677419355
49329,Montcalm County,MI,NA,NA,60.25449101796407,NA,NA
49331,Kent County,MI,NA,NA,51.272455089820355,NA,NA
49337,Newaygo County,MI,NA,87,NA,NA,NA
49417,Ottawa County,MI,NA,NA,NA,6.807511737089202,NA
49420,Oceana County,MI,NA,NA,NA,86.15023474178403,NA
49424,Ottawa County,MI,NA,NA,NA,50.117370892018776,NA
49441,Muskegon County,MI,25.40983606557377,NA,11.826347305389222,NA,2.903225806451613
49442,Muskegon County,MI,NA,NA,NA,28.52112676056338,NA
49455,Oceana County,MI,NA,NA,96.10778443113772,NA,NA
49456,Ottawa County,MI,NA,NA,45.43413173652694,30.399061032863848,NA
49464,Ottawa County,MI,37.704918032786885,NA,NA,NA,31.451612903225808
49504,Kent County,MI,NA,NA,NA,NA,39.03225806451613
49507,Kent County,MI,1.9672131147540985,NA,25.149700598802394,NA,NA
49508,Kent County,MI,NA,NA,4.715568862275449,NA,NA
49509,Kent County,MI,NA,NA,NA,18.779342723004692,NA
49519,Kent County,MI,NA,NA,NA,32.04225352112676,NA
49525,Kent County,MI,NA,NA,NA,88.26291079812206,NA
49548,Kent County,MI,NA,NA,NA,NA,34.03225806451613
49685,Grand Traverse County,MI,NA,NA,53.443113772455085,NA,NA
49707,Alpena County,MI,23.770491803278688,NA,31.886227544910177,NA,NA
49735,Otsego County,MI,NA,NA,NA,21.009389671361504,NA
49740,Emmet County,MI,95.90163934426229,NA,NA,NA,NA
49756,Montmorency County,MI,94.91803278688525,NA,NA,NA,NA
49770,Emmet County,MI,29.016393442622952,NA,63.09880239520959,NA,NA
49801,Dickinson County,MI,NA,NA,64.97005988023952,NA,NA
49802,Dickinson County,MI,NA,88.33333333333333,75.74850299401199,NA,NA
49829,Delta County,MI,NA,64.33333333333333,34.58083832335329,NA,NA
49841,Marquette County,MI,NA,NA,NA,79.10798122065728,NA
49849,Marquette County,MI,80.65573770491802,NA,NA,NA,NA
49855,Marquette County,MI,NA,NA,13.922155688622754,NA,NA
49868,Luce County,MI,NA,NA,88.09880239520959,NA,NA
49913,Houghton County,MI,84.91803278688525,NA,NA,NA,NA
49931,Houghton County,MI,NA,NA,85.85329341317365,NA,NA
55014,Anoka County,MN,NA,NA,65.19461077844312,NA,98.87096774193549
55021,Rice County,MN,NA,NA,NA,76.76056338028168,NA
55024,Dakota County,MN,NA,NA,78.81736526946108,NA,NA
55033,Dakota County,MN,44.75409836065574,NA,NA,NA,68.54838709677419
55040,Isanti County,MN,NA,NA,NA,74.53051643192488,NA
55063,Pine County,MN,NA,NA,NA,NA,63.87096774193548
55082,Washington County,MN,NA,NA,NA,NA,46.935483870967744
55102,Ramsey County,MN,NA,NA,NA,43.075117370892016,NA
55105,Ramsey County,MN,NA,NA,NA,NA,77.74193548387098
55107,Ramsey County,MN,NA,NA,NA,NA,91.12903225806451
55110,Ramsey County,MN,NA,NA,NA,41.07981220657277,NA
55112,Ramsey County,MN,NA,NA,NA,NA,19.838709677419356
55119,Ramsey County,MN,NA,61.66666666666667,NA,35.44600938967136,NA
55122,Dakota County,MN,NA,NA,66.31736526946108,NA,NA
55304,Anoka County,MN,NA,NA,NA,47.30046948356807,NA
55307,Sibley County,MN,NA,NA,98.72754491017965,NA,NA
55330,Sherburne County,MN,NA,NA,NA,77.23004694835682,NA
55331,Hennepin County,MN,NA,NA,88.84730538922156,NA,NA
55346,Hennepin County,MN,NA,NA,87.42514970059881,NA,78.38709677419354
55350,McLeod County,MN,NA,NA,30.01497005988024,NA,NA
55352,Scott County,MN,89.18032786885246,NA,NA,NA,NA
55369,Hennepin County,MN,NA,37.333333333333336,NA,NA,NA
55372,Scott County,MN,NA,80,62.4251497005988,NA,NA
55378,Scott County,MN,36.22950819672131,NA,NA,NA,NA
55388,Carver County,MN,NA,NA,NA,99.06103286384976,NA
55391,Hennepin County,MN,NA,NA,96.03293413173652,NA,NA
55398,Sherburne County,MN,72.45901639344262,NA,NA,NA,99.51612903225806
55401,Hennepin County,MN,NA,NA,65.34431137724552,NA,NA
55403,Hennepin County,MN,16.39344262295082,NA,73.65269461077844,NA,NA
55404,Hennepin County,MN,NA,NA,0.7485029940119761,NA,NA
55405,Hennepin County,MN,NA,NA,NA,51.87793427230047,NA
55407,Hennepin County,MN,NA,NA,NA,35.563380281690144,NA
55411,Hennepin County,MN,NA,NA,16.46706586826347,NA,NA
55421,Anoka County,MN,NA,NA,55.53892215568862,51.173708920187785,NA
55430,Hennepin County,MN,NA,NA,50.97305389221557,NA,NA
55437,Hennepin County,MN,NA,NA,NA,NA,54.83870967741935
55438,Hennepin County,MN,NA,NA,97.45508982035929,NA,NA
55443,Hennepin County,MN,NA,NA,NA,NA,61.45161290322581
55447,Hennepin County,MN,NA,NA,75,NA,81.93548387096774
55792,St. Louis County,MN,52.131147540983605,NA,NA,33.80281690140845,NA
55802,St. Louis County,MN,NA,NA,NA,97.65258215962442,NA
55804,St. Louis County,MN,NA,NA,71.3323353293413,NA,NA
55806,St. Louis County,MN,NA,NA,NA,65.25821596244131,NA
55811,St. Louis County,MN,NA,NA,NA,33.92018779342723,NA
55906,Olmsted County,MN,NA,NA,NA,NA,65.48387096774194
55912,Mower County,MN,NA,NA,NA,NA,0.6451612903225806
55987,Winona County,MN,NA,NA,54.34131736526946,3.169014084507042,NA
56007,Freeborn County,MN,NA,41.333333333333336,15.119760479041917,NA,NA
56011,Scott County,MN,NA,NA,NA,NA,98.06451612903226
56013,Faribault County,MN,NA,NA,NA,86.50234741784037,NA
56048,Waseca County,MN,96.39344262295081,NA,NA,NA,NA
56055,Blue Earth County,MN,NA,NA,NA,99.64788732394366,NA
56073,Brown County,MN,NA,NA,22.45508982035928,NA,3.225806451612903
56082,Nicollet County,MN,NA,NA,NA,84.85915492957746,NA
56093,Waseca County,MN,NA,NA,71.10778443113772,NA,26.29032258064516
56143,Jackson County,MN,NA,NA,92.21556886227546,NA,NA
56178,Lincoln County,MN,96.06557377049181,NA,NA,NA,NA
56187,Nobles County,MN,NA,NA,67.44011976047905,NA,NA
56258,Lyon County,MN,NA,NA,74.40119760479041,NA,45.483870967741936
56303,Stearns County,MN,NA,NA,NA,NA,50.967741935483865
56308,Douglas County,MN,NA,NA,NA,14.084507042253522,NA
56353,Mille Lacs County,MN,NA,NA,85.85329341317365,NA,NA
56362,Stearns County,MN,NA,NA,87.6497005988024,91.43192488262912,NA
56364,Morrison County,MN,NA,NA,90.19461077844312,NA,NA
56378,Stearns County,MN,NA,NA,NA,82.3943661971831,NA
56401,Crow Wing County,MN,NA,NA,NA,NA,26.451612903225808
56470,Hubbard County,MN,NA,NA,NA,40.25821596244131,NA
56473,Cass County,MN,64.59016393442623,NA,NA,NA,NA
56479,Todd County,MN,NA,84.66666666666667,NA,NA,NA
56537,Otter Tail County,MN,NA,NA,NA,NA,2.0967741935483875
56549,Clay County,MN,73.77049180327869,NA,NA,NA,NA
56560,Clay County,MN,1.4754098360655739,NA,NA,NA,NA
56573,Otter Tail County,MN,NA,NA,NA,NA,68.70967741935485
56601,Beltrami County,MN,NA,NA,5.164670658682635,NA,1.4516129032258065
56670,Beltrami County,MN,NA,NA,NA,100,NA
56701,Pennington County,MN,NA,NA,19.08682634730539,NA,NA
56716,Polk County,MN,NA,NA,32.26047904191617,NA,NA
56763,Roseau County,MN,NA,NA,92.96407185628742,NA,NA
38606,Panola County,MS,NA,NA,88.54790419161677,NA,NA
38632,DeSoto County,MS,NA,NA,51.571856287425156,NA,NA
38654,DeSoto County,MS,25.73770491803279,NA,NA,NA,NA
38701,Washington County,MS,NA,NA,63.02395209580839,NA,NA
38824,Prentiss County,MS,NA,NA,NA,NA,75.48387096774194
38827,Tishomingo County,MS,NA,NA,95.43413173652695,NA,NA
38865,Alcorn County,MS,NA,NA,NA,NA,97.41935483870968
38901,Grenada County,MS,NA,NA,NA,NA,42.096774193548384
38916,Calhoun County,MS,NA,NA,NA,NA,95.48387096774194
38967,Montgomery County,MS,NA,NA,NA,NA,90.48387096774194
39051,Leake County,MS,NA,NA,46.55688622754491,NA,NA
39069,Jefferson County,MS,NA,NA,82.33532934131736,NA,NA
39090,Attala County,MS,NA,NA,NA,68.54460093896714,NA
39092,Scott County,MS,97.04918032786885,NA,NA,NA,NA
39120,Adams County,MS,NA,NA,NA,58.920187793427225,NA
39170,Hinds County,MS,NA,NA,98.57784431137725,NA,NA
39206,Hinds County,MS,NA,20.333333333333332,NA,NA,NA
39208,Rankin County,MS,NA,NA,NA,59.50704225352113,NA
39350,Neshoba County,MS,NA,NA,NA,NA,35.96774193548387
39367,Wayne County,MS,NA,NA,80.38922155688623,68.89671361502347,NA
39426,Pearl River County,MS,NA,NA,NA,76.99530516431925,NA
39440,Jones County,MS,NA,NA,NA,61.3849765258216,NA
39452,George County,MS,10.98360655737705,NA,NA,NA,NA
39455,Lamar County,MS,NA,NA,79.19161676646706,NA,NA
39501,Harrison County,MS,NA,NA,19.01197604790419,NA,27.258064516129032
39556,Hancock County,MS,NA,NA,64.67065868263472,NA,NA
39560,Harrison County,MS,NA,77,83.38323353293413,11.619718309859154,NA
39562,Jackson County,MS,NA,NA,NA,NA,75.80645161290323
39601,Lincoln County,MS,NA,NA,NA,NA,40.806451612903224
39629,Lincoln County,MS,NA,NA,NA,NA,97.74193548387096
39667,Walthall County,MS,NA,NA,NA,NA,48.225806451612904
39702,Lowndes County,MS,NA,NA,38.547904191616766,NA,NA
39730,Monroe County,MS,NA,85,NA,NA,NA
39759,Oktibbeha County,MS,40.81967213114754,NA,66.39221556886228,NA,89.83870967741936
63011,St. Louis County,MO,56.72131147540984,NA,NA,NA,NA
63017,St. Louis County,MO,49.01639344262295,NA,NA,NA,NA
63026,St. Louis County,MO,NA,NA,37.050898203592816,14.319248826291082,NA
63028,Jefferson County,MO,NA,NA,NA,NA,45.96774193548387
63031,St. Louis County,MO,NA,NA,17.140718562874252,NA,NA
63033,St. Louis County,MO,NA,NA,NA,15.492957746478872,NA
63043,St. Louis County,MO,NA,NA,54.94011976047904,NA,NA
63052,Jefferson County,MO,NA,NA,53.293413173652695,NA,NA
63084,Franklin County,MO,NA,45.666666666666664,NA,NA,NA
63090,Franklin County,MO,NA,NA,NA,NA,45.806451612903224
63115,St. Louis city,MO,NA,25.666666666666664,NA,NA,NA
63116,St. Louis city,MO,NA,NA,36.00299401197605,NA,NA
63119,St. Louis County,MO,45.40983606557377,NA,66.46706586826348,NA,NA
63121,St. Louis County,MO,NA,42.66666666666667,NA,NA,NA
63136,St. Louis County,MO,NA,NA,NA,44.014084507042256,NA
63301,St. Charles County,MO,NA,35,NA,26.291079812206576,NA
63303,St. Charles County,MO,NA,NA,NA,13.262910798122066,7.258064516129033
63304,St. Charles County,MO,NA,NA,NA,16.19718309859155,NA
63353,Pike County,MO,NA,NA,NA,NA,90
63368,St. Charles County,MO,13.442622950819672,NA,NA,23.826291079812208,NA
63376,St. Charles County,MO,NA,NA,37.5,1.8779342723004695,4.838709677419355
63383,Warren County,MO,NA,NA,NA,47.88732394366197,NA
63385,St. Charles County,MO,NA,NA,NA,70.4225352112676,NA
63390,Warren County,MO,NA,NA,74.02694610778443,NA,NA
63841,Stoddard County,MO,NA,NA,NA,76.40845070422534,NA
63863,Dunklin County,MO,NA,NA,87.05089820359282,NA,NA
64014,Jackson County,MO,NA,44.333333333333336,NA,NA,NA
64024,Clay County,MO,NA,NA,67.88922155688623,NA,NA
64050,Jackson County,MO,NA,NA,15.04491017964072,NA,NA
64055,Jackson County,MO,NA,NA,6.437125748502994,9.272300469483568,15.806451612903224
64057,Jackson County,MO,NA,NA,NA,54.22535211267606,NA
64067,Lafayette County,MO,NA,NA,87.7994011976048,NA,NA
64068,Clay County,MO,0.32786885245901637,NA,NA,7.629107981220658,NA
64076,Lafayette County,MO,NA,NA,69.23652694610777,NA,NA
64081,Jackson County,MO,39.18032786885246,NA,NA,NA,NA
64083,Cass County,MO,32.131147540983605,NA,37.5748502994012,NA,NA
64109,Jackson County,MO,NA,NA,29.266467065868262,NA,NA
64114,Jackson County,MO,54.26229508196722,NA,NA,NA,NA
64118,Clay County,MO,10.327868852459018,NA,44.91017964071856,NA,NA
64127,Jackson County,MO,NA,15,NA,NA,NA
64128,Jackson County,MO,NA,23,NA,NA,NA
64130,Jackson County,MO,11.639344262295081,NA,NA,NA,NA
64131,Jackson County,MO,53.278688524590166,NA,NA,NA,NA
64155,Clay County,MO,NA,NA,22.979041916167663,NA,NA
64506,Buchanan County,MO,NA,NA,NA,8.333333333333332,NA
64730,Bates County,MO,NA,NA,61.227544910179645,NA,57.41935483870968
64744,Cedar County,MO,NA,59.333333333333336,NA,NA,NA
64772,Vernon County,MO,50.1639344262295,NA,NA,NA,NA
64776,St. Clair County,MO,NA,NA,NA,90.02347417840375,NA
64843,McDonald County,MO,NA,NA,99.02694610778443,NA,NA
64850,Newton County,MO,NA,NA,NA,NA,23.225806451612904
65065,Camden County,MO,NA,NA,NA,75.5868544600939,NA
65201,Boone County,MO,NA,NA,46.18263473053892,NA,NA
65202,Boone County,MO,NA,NA,NA,NA,17.580645161290324
65203,Boone County,MO,NA,NA,24.476047904191617,NA,NA
65301,Pettis County,MO,NA,NA,2.9191616766467066,NA,NA
65360,Henry County,MO,93.60655737704919,NA,95.95808383233533,NA,NA
65737,Stone County,MO,NA,NA,NA,66.66666666666666,NA
65807,Greene County,MO,NA,NA,28.36826347305389,18.30985915492958,NA
59102,Yellowstone County,MT,NA,NA,NA,5.164319248826291,NA
59270,Richland County,MT,NA,NA,88.32335329341318,NA,NA
59404,Cascade County,MT,NA,NA,46.10778443113773,NA,NA
59405,Cascade County,MT,NA,NA,30.613772455089823,NA,NA
59602,Lewis and Clark County,MT,NA,NA,NA,34.859154929577464,NA
59701,Silver Bow County,MT,80.65573770491802,NA,NA,NA,NA
59715,Gallatin County,MT,NA,NA,89.52095808383234,NA,NA
59828,Ravalli County,MT,NA,NA,NA,86.97183098591549,NA
59840,Ravalli County,MT,NA,NA,NA,NA,42.58064516129032
59870,Ravalli County,MT,NA,NA,92.21556886227546,NA,NA
59901,Flathead County,MT,NA,NA,NA,2.9342723004694835,NA
59911,Flathead County,MT,NA,NA,NA,64.7887323943662,NA
59912,Flathead County,MT,NA,NA,73.27844311377245,NA,NA
68025,Dodge County,NE,NA,NA,NA,27.230046948356808,NA
68031,Dodge County,NE,NA,NA,NA,99.88262910798123,NA
68112,Douglas County,NE,NA,NA,81.811377245509,NA,NA
68124,Douglas County,NE,NA,NA,NA,86.3849765258216,NA
68128,Sarpy County,NE,NA,NA,NA,NA,95.80645161290322
68132,Douglas County,NE,NA,NA,NA,NA,95.16129032258065
68516,Lancaster County,NE,NA,NA,66.54191616766467,NA,NA
89106,Clark County,NV,NA,NA,48.50299401197605,NA,NA
89115,Clark County,NV,NA,31,NA,NA,NA
89121,Clark County,NV,NA,NA,NA,NA,33.5483870967742
89123,Clark County,NV,NA,NA,53.218562874251496,NA,52.09677419354839
89130,Clark County,NV,NA,NA,95.73353293413174,NA,NA
89131,Clark County,NV,NA,NA,NA,52.347417840375584,NA
89143,Clark County,NV,NA,NA,NA,93.66197183098592,NA
89431,Washoe County,NV,NA,NA,20.808383233532936,NA,NA
89433,Washoe County,NV,NA,NA,71.78143712574851,NA,NA
89502,Washoe County,NV,18.0327868852459,NA,NA,21.47887323943662,NA
89506,Washoe County,NV,NA,NA,18.03892215568862,NA,NA
89509,Washoe County,NV,NA,NA,50.898203592814376,NA,NA
89512,Washoe County,NV,NA,NA,15.494011976047902,NA,NA
89523,Washoe County,NV,NA,NA,55.16467065868264,NA,NA
03034,Rockingham County,NH,NA,NA,98.50299401197606,NA,NA
03038,Rockingham County,NH,19.836065573770494,NA,NA,NA,NA
03045,Hillsborough County,NH,71.31147540983606,NA,89.14670658682635,NA,NA
03053,Rockingham County,NH,NA,NA,96.63173652694611,NA,NA
03060,Hillsborough County,NH,NA,NA,29.416167664670656,NA,53.387096774193544
03063,Hillsborough County,NH,67.37704918032786,NA,44.98502994011976,NA,NA
03064,Hillsborough County,NH,NA,NA,30.91317365269461,NA,NA
03087,Rockingham County,NH,27.86885245901639,NA,NA,NA,NA
03103,Hillsborough County,NH,NA,NA,26.871257485029943,NA,NA
03110,Hillsborough County,NH,NA,NA,60.10479041916168,39.436619718309856,NA
03220,Belknap County,NH,99.34426229508196,NA,NA,NA,NA
03222,Grafton County,NH,NA,NA,NA,85.44600938967136,NA
03235,Merrimack County,NH,NA,NA,88.99700598802394,73.12206572769952,NA
03244,Hillsborough County,NH,NA,NA,93.7125748502994,88.6150234741784,NA
03246,Belknap County,NH,NA,NA,NA,36.15023474178404,NA
03261,Rockingham County,NH,99.8360655737705,NA,NA,NA,NA
03275,Merrimack County,NH,NA,NA,NA,49.29577464788733,NA
03276,Merrimack County,NH,NA,NA,NA,NA,67.0967741935484
03301,Merrimack County,NH,23.934426229508198,NA,NA,NA,NA
03303,Merrimack County,NH,31.311475409836063,NA,NA,NA,NA
03431,Cheshire County,NH,NA,NA,NA,30.868544600938968,NA
03458,Hillsborough County,NH,NA,NA,NA,NA,42.90322580645161
03570,Coos County,NH,NA,NA,71.63173652694611,NA,NA
03598,Coos County,NH,NA,87.33333333333333,NA,NA,NA
03743,Sullivan County,NH,NA,NA,56.51197604790419,NA,NA
03773,Sullivan County,NH,NA,NA,NA,NA,79.35483870967742
03811,Rockingham County,NH,NA,NA,82.48502994011976,NA,NA
03820,Strafford County,NH,60.49180327868853,NA,NA,NA,NA
03825,Strafford County,NH,NA,NA,NA,52.58215962441315,NA
03867,Strafford County,NH,27.54098360655738,NA,NA,NA,NA
07002,Hudson County,NJ,NA,6.666666666666667,NA,NA,NA
07008,Middlesex County,NJ,NA,NA,NA,NA,47.25806451612903
07010,Bergen County,NJ,NA,NA,49.25149700598803,NA,NA
07024,Bergen County,NJ,NA,NA,96.78143712574851,NA,NA
07026,Bergen County,NJ,NA,NA,NA,69.01408450704226,NA
07030,Hudson County,NJ,NA,NA,5.389221556886228,30.633802816901408,NA
07039,Essex County,NJ,NA,NA,NA,NA,30.806451612903224
07047,Hudson County,NJ,NA,NA,24.02694610778443,NA,NA
07050,Essex County,NJ,NA,NA,NA,NA,54.35483870967742
07052,Essex County,NJ,NA,NA,NA,16.666666666666664,NA
07060,Union County,NJ,NA,NA,29.640718562874252,NA,NA
07066,Union County,NJ,NA,NA,NA,NA,48.54838709677419
07080,Middlesex County,NJ,NA,NA,NA,NA,69.83870967741936
07083,Union County,NJ,74.59016393442623,NA,NA,NA,NA
07094,Hudson County,NJ,NA,NA,NA,81.2206572769953,NA
07107,Essex County,NJ,5.737704918032787,NA,NA,NA,NA
07110,Essex County,NJ,NA,NA,75.22455089820359,NA,NA
07111,Essex County,NJ,NA,NA,0.5239520958083832,NA,NA
07304,Hudson County,NJ,NA,6.333333333333334,NA,NA,NA
07306,Hudson County,NJ,NA,37,NA,NA,NA
07307,Hudson County,NJ,NA,NA,10.62874251497006,NA,NA
07405,Morris County,NJ,NA,NA,82.26047904191617,NA,NA
07416,Sussex County,NJ,NA,94.33333333333334,NA,NA,98.22580645161291
07420,Passaic County,NJ,NA,NA,79.86526946107784,NA,NA
07450,Bergen County,NJ,45.24590163934426,NA,NA,NA,NA
07470,Passaic County,NJ,NA,NA,15.718562874251496,4.225352112676056,NA
07481,Bergen County,NJ,NA,NA,NA,NA,64.03225806451613
07522,Passaic County,NJ,NA,NA,59.4311377245509,NA,NA
07644,Bergen County,NJ,53.60655737704918,NA,NA,NA,NA
07728,Monmouth County,NJ,NA,NA,14.745508982035929,NA,4.354838709677419
07730,Monmouth County,NJ,NA,NA,NA,50,NA
07740,Monmouth County,NJ,0.16393442622950818,NA,NA,NA,NA
07747,Monmouth County,NJ,65.73770491803279,NA,NA,NA,NA
07751,Monmouth County,NJ,NA,67,NA,NA,NA
07801,Morris County,NJ,NA,NA,85.62874251497006,NA,NA
07860,Sussex County,NJ,NA,NA,NA,29.460093896713612,NA
07865,Warren County,NJ,NA,NA,99.8502994011976,NA,NA
07869,Morris County,NJ,NA,NA,56.212574850299404,NA,NA
07882,Warren County,NJ,NA,NA,52.91916167664671,61.267605633802816,NA
07928,Morris County,NJ,NA,NA,93.7874251497006,NA,NA
07960,Morris County,NJ,NA,NA,18.48802395209581,NA,NA
08002,Camden County,NJ,NA,NA,NA,NA,39.83870967741935
08012,Camden County,NJ,NA,NA,4.491017964071856,NA,NA
08020,Gloucester County,NJ,99.01639344262296,NA,NA,NA,NA
08046,Burlington County,NJ,NA,NA,NA,28.169014084507044,NA
08054,Burlington County,NJ,65.24590163934427,NA,NA,NA,NA
08066,Gloucester County,NJ,NA,NA,NA,93.42723004694837,NA
08077,Burlington County,NJ,NA,NA,33.90718562874252,NA,NA
08078,Camden County,NJ,NA,NA,62.72455089820359,NA,NA
08079,Salem County,NJ,NA,NA,NA,51.173708920187785,NA
08080,Gloucester County,NJ,NA,68,NA,NA,NA
08087,Ocean County,NJ,NA,NA,17.739520958083833,NA,NA
08094,Gloucester County,NJ,NA,NA,5.239520958083832,NA,NA
08096,Gloucester County,NJ,NA,NA,3.6676646706586826,NA,NA
08102,Camden County,NJ,NA,NA,32.709580838323355,NA,NA
08103,Camden County,NJ,NA,NA,NA,NA,63.2258064516129
08105,Camden County,NJ,NA,NA,34.6556886227545,NA,NA
08110,Camden County,NJ,NA,NA,NA,NA,87.58064516129032
08210,Cape May County,NJ,NA,NA,70.35928143712576,NA,NA
08251,Cape May County,NJ,NA,NA,NA,98.23943661971832,NA
08260,Cape May County,NJ,NA,NA,32.11077844311377,NA,NA
08302,Cumberland County,NJ,4.2622950819672125,NA,NA,NA,NA
08322,Gloucester County,NJ,54.26229508196722,NA,NA,NA,NA
08330,Atlantic County,NJ,NA,NA,NA,NA,48.38709677419355
08618,Mercer County,NJ,6.229508196721312,NA,NA,NA,37.25806451612903
08701,Ocean County,NJ,NA,3.3333333333333335,NA,NA,NA
08721,Ocean County,NJ,NA,NA,NA,NA,62.41935483870967
08742,Ocean County,NJ,NA,NA,31.137724550898206,45.18779342723005,NA
08755,Ocean County,NJ,NA,NA,NA,NA,9.516129032258064
08757,Ocean County,NJ,NA,NA,NA,NA,0.4838709677419355
08816,Middlesex County,NJ,NA,NA,NA,NA,40.96774193548387
08824,Middlesex County,NJ,NA,NA,97.30538922155688,NA,NA
08840,Middlesex County,NJ,NA,NA,72.23053892215569,NA,NA
08859,Middlesex County,NJ,NA,96,NA,NA,NA
08861,Middlesex County,NJ,NA,NA,10.703592814371257,NA,NA
87002,Valencia County,NM,63.77049180327868,NA,NA,59.97652582159625,NA
87031,Valencia County,NM,NA,28.333333333333332,NA,32.51173708920187,NA
87035,Torrance County,NM,NA,NA,91.54191616766467,NA,NA
87043,Sandoval County,NM,NA,NA,NA,NA,91.93548387096774
87047,Bernalillo County,NM,NA,NA,NA,NA,99.67741935483872
87048,Sandoval County,NM,NA,NA,94.38622754491018,NA,NA
87102,Bernalillo County,NM,NA,NA,57.18562874251497,NA,NA
87106,Bernalillo County,NM,24.262295081967213,NA,NA,44.13145539906103,NA
87107,Bernalillo County,NM,NA,NA,65.71856287425149,25,NA
87108,Bernalillo County,NM,13.60655737704918,NA,NA,33.45070422535211,NA
87109,Bernalillo County,NM,NA,NA,16.91616766467066,NA,10.967741935483872
87110,Bernalillo County,NM,NA,NA,11.077844311377245,NA,NA
87111,Bernalillo County,NM,NA,NA,NA,NA,29.354838709677416
87112,Bernalillo County,NM,NA,NA,44.83532934131736,NA,5
87114,Bernalillo County,NM,NA,NA,53.81736526946108,NA,NA
87120,Bernalillo County,NM,NA,NA,8.233532934131736,NA,NA
87123,Bernalillo County,NM,NA,14.666666666666666,NA,5.39906103286385,NA
87301,McKinley County,NM,NA,NA,26.422155688622755,NA,NA
87416,San Juan County,NM,NA,56.333333333333336,NA,NA,NA
87505,Santa Fe County,NM,NA,NA,24.10179640718563,NA,NA
87506,Santa Fe County,NM,NA,NA,NA,52.93427230046949,NA
87507,Santa Fe County,NM,NA,NA,33.98203592814371,22.535211267605636,NA
87532,Santa Fe County,NM,NA,NA,40.044910179640716,47.417840375586856,NA
87544,Los Alamos County,NM,91.31147540983606,99.66666666666667,NA,NA,NA
87701,San Miguel County,NM,NA,49.666666666666664,NA,NA,NA
87740,Colfax County,NM,NA,NA,NA,NA,79.6774193548387
88001,Doa Ana County,NM,NA,NA,NA,NA,49.83870967741936
88005,Doa Ana County,NM,NA,NA,43.712574850299404,NA,NA
88007,Doa Ana County,NM,48.36065573770492,NA,59.50598802395209,NA,NA
88008,Doa Ana County,NM,NA,81.66666666666667,NA,NA,NA
88012,Doa Ana County,NM,NA,21.666666666666668,35.55389221556886,NA,NA
88030,Luna County,NM,NA,NA,61.97604790419161,NA,57.74193548387097
88063,Doa Ana County,NM,NA,NA,90.34431137724552,NA,NA
88072,Doa Ana County,NM,NA,NA,98.80239520958084,NA,NA
88101,Curry County,NM,NA,NA,NA,7.159624413145541,6.129032258064516
88130,Roosevelt County,NM,NA,NA,NA,43.779342723004696,NA
88203,Chaves County,NM,NA,NA,NA,19.835680751173708,NA
88220,Eddy County,NM,26.557377049180324,NA,NA,63.262910798122064,NA
88242,Lea County,NM,74.75409836065575,NA,NA,NA,NA
88340,Otero County,NM,NA,NA,88.77245508982035,NA,NA
88352,Otero County,NM,NA,NA,84.65568862275448,NA,NA
10002,New York County,NY,NA,NA,19.610778443113773,NA,NA
10009,New York County,NY,NA,18,NA,NA,NA
10021,New York County,NY,NA,NA,NA,28.051643192488264,NA
10024,New York County,NY,NA,NA,NA,25.821596244131456,NA
10026,New York County,NY,NA,NA,NA,20.89201877934272,37.74193548387097
10027,New York County,NY,NA,NA,3.74251497005988,50.5868544600939,NA
10028,New York County,NY,NA,NA,NA,NA,20.967741935483872
10029,New York County,NY,NA,NA,NA,NA,0.3225806451612903
10032,New York County,NY,NA,NA,NA,7.863849765258216,NA
10034,New York County,NY,NA,NA,34.80538922155689,NA,36.612903225806456
10035,New York County,NY,NA,NA,NA,9.859154929577464,13.548387096774196
10038,New York County,NY,NA,NA,NA,43.89671361502347,NA
10040,New York County,NY,NA,NA,33.60778443113773,NA,NA
10303,Richmond County,NY,NA,NA,40.86826347305389,NA,NA
10304,Richmond County,NY,NA,NA,NA,NA,28.225806451612907
10312,Richmond County,NY,NA,NA,44.23652694610779,NA,NA
10451,Bronx County,NY,NA,NA,2.1706586826347305,NA,6.612903225806452
10452,Bronx County,NY,NA,NA,0.2245508982035928,NA,NA
10453,Bronx County,NY,NA,NA,15.793413173652695,NA,NA
10454,Bronx County,NY,NA,NA,5.31437125748503,NA,NA
10455,Bronx County,NY,NA,2.3333333333333335,NA,NA,NA
10456,Bronx County,NY,NA,0,NA,NA,NA
10457,Bronx County,NY,NA,NA,0.14970059880239522,NA,NA
10458,Bronx County,NY,NA,NA,0.07485029940119761,0.4694835680751174,NA
10460,Bronx County,NY,0.6557377049180327,NA,NA,NA,NA
10468,Bronx County,NY,NA,NA,NA,2.2300469483568075,NA
10471,Bronx County,NY,NA,NA,98.87724550898204,NA,NA
10472,Bronx County,NY,NA,NA,NA,19.014084507042252,NA
10473,Bronx County,NY,NA,NA,3.5179640718562872,NA,NA
10475,Bronx County,NY,56.393442622950815,NA,NA,NA,NA
10512,Putnam County,NY,NA,NA,77.91916167664671,NA,NA
10520,Westchester County,NY,NA,NA,NA,NA,63.38709677419355
10553,Westchester County,NY,NA,NA,NA,NA,92.74193548387096
10580,Westchester County,NY,NA,NA,NA,NA,36.45161290322581
10601,Westchester County,NY,NA,NA,86.60179640718563,NA,78.06451612903226
10603,Westchester County,NY,NA,NA,NA,79.46009389671362,NA
10606,Westchester County,NY,NA,NA,85.77844311377245,NA,NA
10703,Westchester County,NY,NA,17.333333333333336,NA,NA,NA
10704,Westchester County,NY,NA,NA,69.76047904191617,NA,NA
10901,Rockland County,NY,NA,NA,NA,70.53990610328638,NA
10918,Orange County,NY,93.93442622950819,NA,NA,NA,NA
11040,Nassau County,NY,NA,NA,83.38323353293413,73.35680751173709,NA
11201,Kings County,NY,NA,NA,NA,22.417840375586852,NA
11204,Kings County,NY,NA,NA,NA,NA,35.32258064516129
11210,Kings County,NY,NA,NA,43.862275449101794,NA,NA
11211,Kings County,NY,NA,4.666666666666667,NA,NA,NA
11212,Kings County,NY,1.639344262295082,1,NA,NA,NA
11215,Kings County,NY,NA,NA,NA,NA,19.032258064516128
11220,Kings County,NY,NA,NA,NA,4.929577464788732,NA
11226,Kings County,NY,NA,NA,NA,2.464788732394366,NA
11230,Kings County,NY,NA,NA,NA,NA,5.806451612903226
11231,Kings County,NY,NA,35.66666666666667,NA,NA,53.70967741935484
11235,Kings County,NY,NA,NA,41.61676646706587,NA,NA
11357,Queens County,NY,NA,NA,NA,49.88262910798122,35.16129032258065
11361,Queens County,NY,NA,NA,NA,79.69483568075117,NA
11365,Queens County,NY,NA,48,NA,NA,NA
11374,Queens County,NY,NA,NA,NA,27.464788732394368,NA
11417,Queens County,NY,62.295081967213115,NA,NA,NA,NA
11435,Queens County,NY,NA,NA,10.479041916167663,NA,NA
11510,Nassau County,NY,NA,NA,NA,44.48356807511737,NA
11553,Nassau County,NY,NA,NA,NA,71.0093896713615,NA
11554,Nassau County,NY,NA,NA,NA,NA,24.838709677419356
11706,Suffolk County,NY,NA,NA,22.380239520958085,NA,NA
11731,Suffolk County,NY,NA,NA,82.85928143712576,NA,NA
11738,Suffolk County,NY,NA,NA,NA,91.31455399061032,NA
11743,Suffolk County,NY,NA,NA,75.59880239520959,NA,NA
11751,Suffolk County,NY,86.39344262295083,NA,NA,NA,NA
11753,Nassau County,NY,NA,NA,NA,NA,89.03225806451613
11777,Suffolk County,NY,NA,NA,97.75449101796407,NA,NA
11779,Suffolk County,NY,NA,NA,NA,53.990610328638496,NA
11788,Suffolk County,NY,NA,NA,NA,79.92957746478874,NA
11795,Suffolk County,NY,NA,NA,76.87125748502994,NA,NA
11901,Suffolk County,NY,NA,NA,51.42215568862275,NA,NA
11933,Suffolk County,NY,NA,NA,NA,NA,70
12010,Montgomery County,NY,NA,NA,3.967065868263473,NA,NA
12065,Saratoga County,NY,40.49180327868853,NA,23.652694610778443,NA,23.387096774193548
12159,Albany County,NY,NA,NA,NA,NA,92.25806451612904
12167,Delaware County,NY,NA,NA,98.42814371257485,NA,NA
12180,Rensselaer County,NY,NA,NA,1.6467065868263475,NA,7.903225806451612
12203,Albany County,NY,NA,NA,NA,NA,37.903225806451616
12205,Albany County,NY,NA,NA,55.83832335329342,NA,43.70967741935484
12206,Albany County,NY,NA,NA,19.236526946107784,NA,NA
12428,Ulster County,NY,NA,NA,NA,92.95774647887323,NA
12446,Ulster County,NY,NA,NA,NA,77.58215962441315,NA
12572,Dutchess County,NY,NA,NA,NA,94.36619718309859,76.45161290322581
12733,Sullivan County,NY,NA,95,NA,NA,NA
12832,Washington County,NY,NA,NA,76.19760479041916,NA,NA
12834,Washington County,NY,NA,NA,NA,74.88262910798123,NA
12839,Washington County,NY,NA,NA,28.068862275449103,NA,NA
12845,Warren County,NY,NA,NA,96.9311377245509,NA,NA
12944,Essex County,NY,NA,NA,75.67365269461078,NA,NA
12946,Essex County,NY,NA,NA,68.7125748502994,NA,NA
12983,Franklin County,NY,NA,NA,49.9251497005988,NA,NA
12986,Franklin County,NY,NA,NA,NA,96.12676056338029,NA
13027,Onondaga County,NY,27.377049180327866,NA,NA,NA,NA
13148,Seneca County,NY,NA,NA,24.775449101796408,NA,NA
13203,Onondaga County,NY,NA,NA,18.637724550898206,NA,NA
13205,Onondaga County,NY,19.836065573770494,NA,NA,NA,NA
13309,Oneida County,NY,81.63934426229508,NA,68.188622754491007,NA,NA
13348,Otsego County,NY,94.75409836065573,NA,NA,NA,NA
13350,Herkimer County,NY,NA,NA,35.85329341317365,NA,NA
13357,Herkimer County,NY,NA,51.33333333333333,68.33832335329342,NA,NA
13408,Madison County,NY,94.42622950819673,NA,NA,NA,NA
13413,Oneida County,NY,NA,NA,49.02694610778443,NA,NA
13440,Oneida County,NY,NA,NA,1.347305389221557,NA,NA
13460,Chenango County,NY,NA,NA,50.59880239520959,NA,NA
13476,Oneida County,NY,NA,NA,90.04491017964071,NA,NA
13601,Jefferson County,NY,NA,NA,3.44311377245509,NA,NA
13620,Lewis County,NY,NA,NA,97.60479041916167,NA,NA
13642,St. Lawrence County,NY,46.0655737704918,NA,33.08383233532935,NA,NA
13648,Lewis County,NY,NA,NA,94.46107784431138,NA,NA
13658,St. Lawrence County,NY,NA,NA,NA,98.00469483568075,NA
13662,St. Lawrence County,NY,NA,NA,6.5119760479041915,NA,NA
13667,St. Lawrence County,NY,NA,NA,84.13173652694611,NA,NA
13669,St. Lawrence County,NY,NA,NA,21.55688622754491,NA,NA
13730,Chenango County,NY,NA,NA,92.14071856287424,NA,NA
13760,Broome County,NY,1.3114754098360655,NA,6.137724550898203,0.35211267605633806,NA
13790,Broome County,NY,NA,NA,NA,NA,15
13808,Otsego County,NY,NA,NA,NA,96.83098591549296,NA
13815,Chenango County,NY,29.67213114754098,NA,NA,NA,NA
13838,Delaware County,NY,NA,NA,68.188622754491007,NA,NA
13856,Delaware County,NY,NA,NA,78.51796407185628,NA,NA
13901,Broome County,NY,NA,NA,2.769461077844311,NA,NA
13905,Broome County,NY,NA,17,11.22754491017964,5.046948356807512,NA
14004,Erie County,NY,NA,NA,NA,NA,87.90322580645162
14006,Erie County,NY,NA,NA,67.14071856287424,NA,NA
14009,Wyoming County,NY,NA,NA,85.10479041916167,NA,NA
14051,Erie County,NY,NA,NA,42.66467065868264,NA,NA
14075,Erie County,NY,NA,NA,7.410179640718563,NA,NA
14092,Niagara County,NY,66.88524590163935,NA,NA,51.525821596244135,NA
14150,Erie County,NY,48.52459016393443,NA,NA,NA,19.35483870967742
14201,Erie County,NY,56.88524590163935,NA,NA,NA,NA
14204,Erie County,NY,NA,NA,NA,61.03286384976526,NA
14206,Erie County,NY,NA,NA,NA,28.755868544600936,NA
14207,Erie County,NY,NA,NA,6.736526946107785,NA,NA
14211,Erie County,NY,NA,27,NA,NA,NA
14214,Erie County,NY,NA,NA,NA,47.183098591549296,NA
14215,Erie County,NY,NA,NA,NA,7.863849765258216,NA
14216,Erie County,NY,NA,NA,28.74251497005988,NA,NA
14224,Erie County,NY,NA,NA,4.341317365269461,NA,11.935483870967742
14225,Erie County,NY,NA,NA,7.48502994011976,NA,NA
14227,Erie County,NY,NA,NA,24.251497005988025,NA,NA
14304,Niagara County,NY,NA,NA,23.053892215568865,NA,15.96774193548387
14422,Genesee County,NY,NA,NA,94.311377245509,NA,NA
14433,Wayne County,NY,86.39344262295083,NA,NA,NA,NA
14437,Livingston County,NY,43.114754098360656,NA,NA,NA,NA
14464,Monroe County,NY,NA,97.33333333333334,NA,NA,NA
14467,Monroe County,NY,NA,NA,NA,NA,62.096774193548384
14468,Monroe County,NY,NA,NA,16.84131736526946,21.830985915492956,NA
14489,Wayne County,NY,NA,NA,NA,34.74178403755869,NA
14505,Wayne County,NY,NA,88.66666666666667,NA,NA,NA
14510,Livingston County,NY,NA,NA,62.125748502994014,NA,NA
14512,Ontario County,NY,72.45901639344262,NA,75.44910179640718,NA,NA
14519,Wayne County,NY,NA,NA,22.604790419161677,NA,NA
14548,Ontario County,NY,NA,NA,87.2005988023952,NA,NA
14568,Wayne County,NY,69.67213114754098,NA,65.7934131736527,NA,NA
14580,Monroe County,NY,NA,NA,0.37425149700598803,0.2347417840375587,NA
14590,Wayne County,NY,NA,NA,75.52395209580838,NA,NA
14606,Monroe County,NY,32.78688524590164,NA,NA,NA,NA
14607,Monroe County,NY,NA,NA,NA,46.71361502347418,NA
14609,Monroe County,NY,NA,NA,NA,0.8215962441314555,NA
14611,Monroe County,NY,7.868852459016394,NA,5.61377245508982,NA,NA
14612,Monroe County,NY,NA,NA,1.5718562874251496,NA,NA
14617,Monroe County,NY,NA,NA,47.23053892215569,NA,NA
14618,Monroe County,NY,NA,NA,15.868263473053892,NA,NA
14621,Monroe County,NY,NA,5.333333333333334,NA,NA,NA
14626,Monroe County,NY,6.721311475409836,NA,NA,NA,NA
14701,Chautauqua County,NY,NA,NA,16.16766467065868,NA,NA
14712,Chautauqua County,NY,97.37704918032787,NA,NA,NA,NA
14715,Allegany County,NY,87.8688524590164,NA,NA,NA,NA
14727,Allegany County,NY,NA,NA,74.17664670658682,NA,NA
14735,Allegany County,NY,NA,NA,95.35928143712576,97.53521126760563,NA
14738,Chautauqua County,NY,91.14754098360656,NA,NA,NA,NA
14801,Steuben County,NY,NA,NA,76.27245508982035,NA,NA
14823,Steuben County,NY,NA,NA,81.2125748502994,NA,NA
14843,Steuben County,NY,NA,NA,NA,34.50704225352113,NA
14845,Chemung County,NY,NA,NA,NA,30.985915492957744,NA
14858,Steuben County,NY,NA,NA,96.18263473053892,NA,NA
14886,Tompkins County,NY,63.60655737704918,NA,NA,NA,NA
14892,Tioga County,NY,NA,NA,NA,60.328638497652584,NA
27021,Stokes County,NC,NA,NA,NA,NA,23.870967741935484
27023,Forsyth County,NC,42.295081967213115,NA,NA,NA,NA
27030,Surry County,NC,4.590163934426229,NA,NA,NA,NA
27040,Forsyth County,NC,89.34426229508196,NA,NA,NA,59.354838709677416
27045,Forsyth County,NC,NA,NA,NA,NA,59.03225806451613
27103,Forsyth County,NC,69.01639344262294,NA,14.296407185628743,NA,NA
27105,Forsyth County,NC,NA,NA,14.595808383233532,NA,NA
27107,Forsyth County,NC,9.672131147540984,NA,NA,NA,NA
27127,Forsyth County,NC,NA,NA,13.697604790419163,NA,NA
27215,Alamance County,NC,NA,NA,NA,5.985915492957746,8.709677419354838
27243,Orange County,NC,NA,NA,98.65269461077844,NA,NA
27253,Alamance County,NC,NA,NA,15.568862275449103,NA,NA
27262,Guilford County,NC,NA,NA,NA,63.84976525821596,NA
27265,Guilford County,NC,46.557377049180324,NA,NA,NA,NA
27278,Orange County,NC,NA,NA,21.856287425149702,NA,NA
27282,Guilford County,NC,70,NA,NA,NA,NA
27284,Forsyth County,NC,NA,46.33333333333333,NA,1.4084507042253522,NA
27288,Rockingham County,NC,NA,NA,43.787425149700596,24.88262910798122,NA
27292,Davidson County,NC,NA,NA,21.482035928143713,NA,NA
27295,Davidson County,NC,6.557377049180328,NA,19.311377245508982,NA,NA
27298,Randolph County,NC,NA,NA,83.08383233532935,NA,NA
27301,Guilford County,NC,NA,NA,70.88323353293413,NA,NA
27302,Alamance County,NC,NA,NA,NA,14.2018779342723,NA
27310,Guilford County,NC,NA,NA,NA,92.48826291079813,NA
27316,Randolph County,NC,NA,NA,92.81437125748504,NA,NA
27317,Randolph County,NC,NA,NA,55.613772455089816,74.88262910798123,NA
27320,Rockingham County,NC,NA,NA,39.44610778443114,90.84507042253522,NA
27326,Rockingham County,NC,NA,NA,NA,96.94835680751174,NA
27330,Lee County,NC,NA,NA,22.005988023952096,NA,NA
27332,Lee County,NC,NA,NA,NA,NA,50.16129032258064
27344,Chatham County,NC,NA,NA,48.42814371257485,NA,NA
27350,Randolph County,NC,NA,NA,93.6377245508982,NA,NA
27360,Davidson County,NC,NA,NA,2.694610778443114,NA,NA
27401,Guilford County,NC,NA,NA,29.491017964071858,NA,NA
27405,Guilford County,NC,NA,NA,38.92215568862276,14.906103286384976,22.741935483870968
27406,Guilford County,NC,NA,NA,3.143712574850299,1.056338028169014,NA
27407,Guilford County,NC,NA,29.333333333333332,NA,94.95305164319248,NA
27408,Guilford County,NC,NA,NA,86.90119760479041,NA,NA
27409,Guilford County,NC,NA,NA,94.91017964071857,NA,NA
27410,Guilford County,NC,NA,NA,32.634730538922156,94.24882629107981,NA
27455,Guilford County,NC,NA,NA,50.29940119760479,NA,NA
27514,Orange County,NC,NA,NA,NA,32.04225352112676,NA
27516,Orange County,NC,NA,NA,32.035928143712574,NA,NA
27520,Johnston County,NC,25.08196721311475,NA,33.15868263473054,NA,NA
27526,Wake County,NC,NA,NA,NA,23.943661971830984,NA
27529,Wake County,NC,NA,32.666666666666664,NA,18.07511737089202,NA
27537,Vance County,NC,NA,NA,NA,29.107981220657276,NA
27560,Wake County,NC,58.36065573770492,NA,NA,NA,NA
27563,Warren County,NC,NA,NA,NA,80.86854460093896,NA
27591,Wake County,NC,68.0327868852459,61.33333333333333,59.58083832335329,NA,NA
27597,Wake County,NC,NA,NA,51.34730538922155,NA,NA
27603,Wake County,NC,NA,NA,21.631736526946106,NA,NA
27604,Wake County,NC,36.39344262295082,NA,NA,NA,NA
27610,Wake County,NC,NA,NA,NA,6.572769953051644,NA
27612,Wake County,NC,NA,NA,NA,42.01877934272301,NA
27613,Wake County,NC,57.377049180327866,NA,NA,NA,NA
27616,Wake County,NC,10.98360655737705,NA,NA,40.140845070422536,NA
27703,Durham County,NC,NA,NA,10.104790419161677,NA,NA
27704,Durham County,NC,NA,NA,10.853293413173652,NA,NA
27713,Durham County,NC,NA,NA,NA,19.600938967136152,NA
27805,Hertford County,NC,NA,NA,99.55089820359282,NA,NA
27828,Pitt County,NC,NA,NA,68.7874251497006,NA,NA
27870,Halifax County,NC,NA,NA,58.23353293413174,NA,NA
27949,Dare County,NC,NA,NA,90.6437125748503,81.69014084507043,NA
28025,Cabarrus County,NC,NA,NA,10.179640718562874,NA,NA
28027,Cabarrus County,NC,NA,NA,18.263473053892216,NA,NA
28054,Gaston County,NC,NA,NA,18.7125748502994,NA,NA
28078,Mecklenburg County,NC,NA,NA,NA,35.798122065727696,NA
28103,Union County,NC,NA,62.66666666666667,78.36826347305389,NA,NA
28104,Union County,NC,NA,NA,NA,74.64788732394366,NA
28110,Union County,NC,NA,NA,NA,17.72300469483568,NA
28115,Iredell County,NC,29.67213114754098,NA,NA,NA,NA
28117,Iredell County,NC,NA,NA,NA,NA,51.61290322580645
28146,Rowan County,NC,NA,NA,34.05688622754491,NA,NA
28147,Rowan County,NC,61.47540983606557,57.333333333333336,NA,NA,NA
28152,Cleveland County,NC,NA,NA,69.83532934131736,NA,NA
28206,Mecklenburg County,NC,NA,NA,NA,67.95774647887323,NA
28217,Mecklenburg County,NC,NA,NA,NA,72.53521126760563,NA
28227,Mecklenburg County,NC,NA,NA,NA,NA,27.741935483870968
28269,Mecklenburg County,NC,NA,NA,12.724550898203594,NA,NA
28270,Mecklenburg County,NC,NA,NA,62.20059880239521,NA,NA
28303,Cumberland County,NC,NA,NA,NA,NA,47.41935483870968
28304,Cumberland County,NC,NA,39,79.04191616766467,NA,NA
28306,Bladen County,NC,NA,NA,32.859281437125745,NA,NA
28311,Cumberland County,NC,53.278688524590166,NA,NA,NA,NA
28328,Sampson County,NC,NA,NA,NA,NA,39.516129032258064
28334,Sampson County,NC,NA,NA,28.29341317365269,NA,NA
28348,Cumberland County,NC,NA,NA,NA,42.95774647887324,86.29032258064517
28352,Scotland County,NC,NA,NA,26.19760479041916,NA,51.29032258064517
28364,Robeson County,NC,NA,NA,NA,62.20657276995305,94.83870967741936
28379,Richmond County,NC,NA,51,15.943113772455089,NA,NA
28387,Moore County,NC,NA,NA,76.12275449101796,93.89671361502347,NA
28390,Harnett County,NC,NA,NA,NA,90.02347417840375,NA
28403,New Hanover County,NC,NA,NA,NA,NA,33.225806451612904
28412,New Hanover County,NC,NA,NA,14.97005988023952,NA,NA
28425,Pender County,NC,NA,NA,NA,NA,78.87096774193549
28457,Pender County,NC,NA,NA,73.80239520958084,NA,NA
28461,Brunswick County,NC,NA,NA,NA,8.215962441314554,NA
28463,Columbus County,NC,NA,NA,NA,76.87793427230048,NA
28465,Brunswick County,NC,NA,NA,89.74550898203593,NA,NA
28472,Columbus County,NC,NA,NA,NA,48.00469483568075,46.12903225806452
28501,Lenoir County,NC,NA,NA,44.38622754491018,NA,NA
28530,Pitt County,NC,87.21311475409837,NA,NA,NA,NA
28540,Onslow County,NC,NA,NA,26.497005988023954,28.169014084507044,NA
28560,Craven County,NC,49.50819672131148,NA,30.08982035928144,NA,NA
28574,Onslow County,NC,NA,NA,NA,94.83568075117371,NA
28601,Catawba County,NC,NA,NA,13.39820359281437,NA,20.161290322580644
28607,Watauga County,NC,NA,NA,52.47005988023952,NA,NA
28612,Burke County,NC,NA,NA,65.04491017964071,NA,NA
28613,Catawba County,NC,73.11475409836066,NA,NA,NA,NA
28630,Caldwell County,NC,73.60655737704917,NA,NA,NA,NA
28642,Yadkin County,NC,55.9016393442623,NA,NA,NA,NA
28645,Caldwell County,NC,NA,NA,NA,0.7042253521126761,NA
28657,Avery County,NC,NA,NA,NA,NA,77.09677419354838
28659,Wilkes County,NC,NA,NA,NA,29.812206572769952,NA
28669,Wilkes County,NC,NA,NA,NA,99.53051643192488,NA
28681,Alexander County,NC,NA,NA,NA,42.840375586854464,NA
28690,Burke County,NC,NA,NA,55.83832335329342,NA,NA
28704,Buncombe County,NC,NA,NA,68.562874251497007,NA,NA
28705,Mitchell County,NC,NA,94.33333333333334,NA,85.44600938967136,NA
28714,Yancey County,NC,NA,NA,NA,48.59154929577465,NA
28741,Macon County,NC,NA,NA,NA,NA,89.19354838709678
28752,McDowell County,NC,NA,NA,46.48203592814371,NA,NA
28762,McDowell County,NC,NA,95,80.01497005988024,NA,NA
28771,Graham County,NC,NA,57.666666666666664,NA,NA,NA
28779,Jackson County,NC,NA,NA,59.056886227544915,NA,NA
28786,Haywood County,NC,NA,NA,NA,NA,22.258064516129032
28792,Henderson County,NC,NA,32.33333333333333,NA,NA,NA
28806,Buncombe County,NC,55.9016393442623,NA,NA,NA,NA
28904,Clay County,NC,NA,NA,NA,72.88732394366197,NA
28906,Cherokee County,NC,NA,NA,77.9940119760479,68.30985915492957,NA
58072,Barnes County,ND,NA,NA,NA,83.21596244131455,NA
58075,Richland County,ND,NA,NA,85.55389221556887,NA,NA
58078,Cass County,ND,9.836065573770492,NA,26.34730538922156,NA,NA
58103,Cass County,ND,NA,NA,NA,42.72300469483568,2.258064516129032
58201,Grand Forks County,ND,7.213114754098362,NA,NA,7.042253521126761,NA
58237,Walsh County,ND,NA,NA,93.8622754491018,NA,NA
58401,Stutsman County,ND,NA,NA,NA,NA,44.67741935483871
58501,Burleigh County,ND,NA,NA,NA,NA,41.12903225806452
58554,Morton County,ND,NA,92,NA,NA,NA
58601,Stark County,ND,66.88524590163935,NA,NA,NA,NA
58701,Ward County,ND,5.081967213114754,NA,9.580838323353294,NA,17.903225806451616
58703,Ward County,ND,52.950819672131146,91,43.637724550898206,NA,NA
43015,Delaware County,OH,NA,NA,NA,37.20657276995305,NA
43055,Licking County,OH,NA,NA,0.9730538922155689,NA,NA
43068,Franklin County,OH,NA,NA,9.056886227544911,NA,NA
43110,Franklin County,OH,NA,8.333333333333332,NA,NA,NA
43130,Fairfield County,OH,2.1311475409836063,NA,26.94610778443114,NA,NA
43135,Hocking County,OH,NA,NA,97.23053892215569,NA,NA
43140,Madison County,OH,NA,NA,37.949101796407184,NA,NA
43206,Franklin County,OH,NA,8,11.377245508982035,NA,NA
43211,Franklin County,OH,NA,2.666666666666667,NA,NA,NA
43213,Franklin County,OH,NA,10.666666666666668,36.452095808383234,NA,42.74193548387097
43215,Franklin County,OH,30.16393442622951,NA,NA,NA,NA
43219,Franklin County,OH,NA,NA,NA,NA,40.16129032258065
43223,Franklin County,OH,NA,1.6666666666666667,NA,NA,NA
43224,Franklin County,OH,NA,NA,NA,16.901408450704224,NA
43227,Franklin County,OH,NA,NA,58.08383233532935,NA,NA
43228,Franklin County,OH,NA,NA,2.5449101796407185,NA,NA
43302,Marion County,OH,NA,NA,13.622754491017963,NA,NA
43351,Wyandot County,OH,NA,NA,42.58982035928144,NA,NA
43460,Wood County,OH,55.57377049180327,NA,NA,NA,NA
43515,Fulton County,OH,NA,88.66666666666667,NA,NA,NA
43526,Defiance County,OH,51.31147540983606,NA,NA,NA,NA
43551,Wood County,OH,NA,NA,12.874251497005988,NA,14.032258064516128
43605,Lucas County,OH,NA,19.333333333333332,NA,NA,NA
43606,Lucas County,OH,NA,NA,48.278443113772454,NA,NA
43608,Lucas County,OH,NA,NA,7.335329341317365,NA,NA
43611,Lucas County,OH,NA,38,NA,NA,NA
43612,Lucas County,OH,NA,NA,3.3682634730538923,NA,NA
43613,Lucas County,OH,NA,18.333333333333332,18.562874251497004,NA,79.51612903225806
43614,Lucas County,OH,NA,NA,10.029940119760479,NA,NA
43701,Muskingum County,OH,NA,NA,0.29940119760479045,NA,NA
43718,Belmont County,OH,90,NA,NA,NA,NA
43731,Perry County,OH,NA,NA,72.67964071856288,NA,NA
43830,Muskingum County,OH,NA,NA,NA,94.71830985915493,NA
43920,Columbiana County,OH,NA,NA,NA,12.206572769953052,NA
43952,Jefferson County,OH,NA,41.333333333333336,NA,NA,NA
43964,Jefferson County,OH,NA,NA,26.122754491017965,NA,NA
44003,Ashtabula County,OH,NA,NA,88.24850299401199,NA,NA
44004,Ashtabula County,OH,0.49180327868852464,NA,1.721556886227545,NA,NA
44011,Lorain County,OH,33.114754098360656,NA,NA,NA,NA
44024,Geauga County,OH,40.16393442622951,NA,NA,NA,NA
44030,Ashtabula County,OH,NA,NA,NA,NA,39.67741935483871
44041,Ashtabula County,OH,NA,NA,NA,NA,24.516129032258064
44052,Lorain County,OH,2.9508196721311477,NA,NA,NA,NA
44054,Lorain County,OH,NA,NA,NA,41.19718309859155,NA
44060,Lake County,OH,NA,NA,NA,9.15492957746479,NA
44074,Lorain County,OH,NA,NA,NA,52.112676056338024,NA
44076,Ashtabula County,OH,NA,96.66666666666667,NA,NA,NA
44077,Lake County,OH,NA,NA,36.75149700598803,NA,NA
44081,Lake County,OH,NA,NA,NA,84.85915492957746,NA
44087,Summit County,OH,NA,NA,NA,54.460093896713616,NA
44089,Erie County,OH,NA,NA,NA,NA,10.32258064516129
44092,Lake County,OH,NA,NA,NA,NA,43.38709677419355
44094,Lake County,OH,NA,NA,NA,NA,15.161290322580644
44102,Cuyahoga County,OH,NA,NA,NA,NA,12.903225806451612
44103,Cuyahoga County,OH,NA,NA,7.784431137724551,14.788732394366196,NA
44104,Cuyahoga County,OH,NA,7.666666666666666,NA,NA,NA
44109,Cuyahoga County,OH,0,NA,NA,NA,NA
44110,Cuyahoga County,OH,NA,NA,NA,NA,43.54838709677419
44111,Cuyahoga County,OH,NA,NA,0.8233532934131738,NA,NA
44116,Cuyahoga County,OH,NA,NA,NA,NA,5.32258064516129
44119,Cuyahoga County,OH,NA,NA,54.191616766467064,48.47417840375587,NA
44129,Cuyahoga County,OH,NA,NA,NA,16.079812206572768,NA
44130,Cuyahoga County,OH,NA,NA,3.592814371257485,NA,NA
44132,Cuyahoga County,OH,NA,NA,NA,NA,75.32258064516128
44136,Cuyahoga County,OH,NA,NA,28.66766467065868,NA,NA
44137,Cuyahoga County,OH,NA,NA,4.640718562874251,NA,NA
44144,Cuyahoga County,OH,NA,NA,11.152694610778443,NA,NA
44145,Cuyahoga County,OH,NA,NA,16.766467065868262,NA,NA
44202,Portage County,OH,NA,NA,65.6437125748503,20.657276995305164,NA
44203,Summit County,OH,NA,NA,NA,10.093896713615024,NA
44212,Medina County,OH,6.885245901639345,NA,NA,NA,NA
44221,Summit County,OH,35.40983606557377,NA,NA,NA,NA
44224,Summit County,OH,NA,NA,NA,NA,42.25806451612903
44233,Medina County,OH,NA,NA,NA,60.56338028169014,NA
44240,Portage County,OH,23.278688524590162,NA,NA,NA,NA
44241,Portage County,OH,NA,NA,31.961077844311376,NA,NA
44256,Medina County,OH,0.9836065573770493,NA,NA,NA,NA
44270,Wayne County,OH,NA,52.33333333333333,NA,NA,NA
44278,Summit County,OH,NA,NA,61.30239520958084,NA,NA
44280,Medina County,OH,NA,NA,NA,78.28638497652582,NA
44281,Medina County,OH,NA,NA,21.107784431137723,NA,NA
44305,Summit County,OH,NA,12.666666666666668,NA,NA,NA
44306,Summit County,OH,46.22950819672131,NA,8.832335329341317,NA,NA
44312,Summit County,OH,NA,NA,13.547904191616766,NA,NA
44314,Summit County,OH,NA,NA,27.17065868263473,NA,NA
44420,Trumbull County,OH,59.50819672131148,NA,NA,NA,NA
44460,Columbiana County,OH,NA,NA,19.68562874251497,9.859154929577464,NA
44471,Mahoning County,OH,NA,NA,56.886227544910184,NA,NA
44512,Mahoning County,OH,NA,NA,NA,15.140845070422534,NA
44515,Mahoning County,OH,NA,NA,9.3562874251497,NA,NA
44601,Stark County,OH,NA,7.333333333333333,NA,NA,NA
44614,Stark County,OH,80,NA,NA,NA,NA
44641,Stark County,OH,NA,NA,NA,NA,29.516129032258064
44646,Stark County,OH,12.295081967213115,NA,NA,NA,NA
44676,Wayne County,OH,NA,NA,93.26347305389223,NA,NA
44691,Wayne County,OH,NA,NA,6.212574850299401,NA,NA
44710,Stark County,OH,NA,66.33333333333333,NA,NA,NA
44820,Crawford County,OH,NA,NA,21.781437125748504,NA,NA
44830,Seneca County,OH,NA,NA,16.61676646706587,NA,NA
44870,Erie County,OH,NA,NA,1.2724550898203593,NA,5.161290322580645
44890,Huron County,OH,36.721311475409834,NA,NA,NA,NA
44905,Richland County,OH,NA,64.66666666666666,NA,75.23474178403757,NA
45005,Warren County,OH,15.081967213114755,NA,NA,NA,NA
45011,Butler County,OH,NA,NA,1.9461077844311379,NA,NA
45013,Butler County,OH,2.7868852459016393,NA,NA,NA,NA
45036,Warren County,OH,NA,NA,NA,NA,41.29032258064516
45040,Warren County,OH,NA,29.333333333333332,NA,NA,NA
45042,Butler County,OH,11.967213114754099,NA,NA,NA,NA
45044,Butler County,OH,NA,NA,NA,50.352112676056336,NA
45069,Butler County,OH,9.344262295081968,NA,22.679640718562872,NA,NA
45103,Clermont County,OH,NA,NA,NA,25.586854460093893,NA
45133,Highland County,OH,NA,NA,19.835329341317365,NA,NA
45140,Clermont County,OH,9.01639344262295,NA,NA,NA,NA
45154,Brown County,OH,63.934426229508205,NA,NA,NA,NA
45157,Clermont County,OH,NA,NA,79.56586826347305,NA,NA
45171,Brown County,OH,NA,NA,97.82934131736528,NA,NA
45207,Hamilton County,OH,NA,43.666666666666664,NA,NA,NA
45211,Hamilton County,OH,NA,10,NA,NA,NA
45212,Hamilton County,OH,NA,NA,31.062874251497007,NA,NA
45214,Hamilton County,OH,NA,28.999999999999996,NA,NA,NA
45215,Hamilton County,OH,NA,NA,25.299401197604794,NA,NA
45227,Hamilton County,OH,NA,NA,NA,NA,56.12903225806451
45230,Hamilton County,OH,NA,NA,NA,NA,63.064516129032256
45237,Hamilton County,OH,NA,14.333333333333334,NA,NA,NA
45238,Hamilton County,OH,NA,NA,NA,17.253521126760564,NA
45239,Hamilton County,OH,21.311475409836063,NA,NA,NA,NA
45240,Hamilton County,OH,NA,13.333333333333334,NA,NA,NA
45241,Hamilton County,OH,NA,NA,70.35928143712576,NA,NA
45242,Hamilton County,OH,NA,NA,NA,NA,42.41935483870968
45246,Hamilton County,OH,NA,NA,NA,NA,95.16129032258065
45248,Hamilton County,OH,NA,NA,NA,NA,23.548387096774192
45249,Hamilton County,OH,NA,NA,NA,87.67605633802818,NA
45305,Greene County,OH,82.1311475409836,NA,NA,NA,NA
45342,Montgomery County,OH,NA,NA,NA,NA,21.935483870967744
45344,Clark County,OH,NA,47,NA,NA,NA
45368,Clark County,OH,NA,NA,91.24251497005989,NA,NA
45371,Miami County,OH,NA,67,NA,NA,NA
45403,Montgomery County,OH,NA,NA,37.87425149700599,NA,NA
45404,Montgomery County,OH,NA,25.333333333333336,NA,NA,NA
45415,Montgomery County,OH,NA,NA,76.94610778443113,NA,NA
45431,Montgomery County,OH,NA,NA,NA,60.093896713615024,NA
45432,Greene County,OH,NA,75.66666666666667,96.7065868263473,92.25352112676056,NA
45459,Montgomery County,OH,NA,NA,NA,61.61971830985915,NA
45601,Ross County,OH,NA,13,NA,NA,NA
45631,Gallia County,OH,NA,NA,9.880239520958083,NA,NA
45634,Vinton County,OH,NA,NA,95.88323353293413,NA,NA
45638,Lawrence County,OH,NA,NA,NA,26.291079812206576,NA
45640,Jackson County,OH,14.59016393442623,NA,NA,NA,12.419354838709678
45648,Scioto County,OH,NA,NA,NA,20.774647887323944,NA
45662,Scioto County,OH,2.622950819672131,NA,2.245508982035928,NA,NA
45679,Adams County,OH,NA,NA,97.38023952095809,NA,NA
45690,Pike County,OH,NA,34.333333333333336,NA,NA,NA
45694,Scioto County,OH,NA,NA,NA,23.004694835680752,NA
45750,Washington County,OH,NA,NA,42.140718562874255,21.12676056338028,NA
45780,Athens County,OH,NA,NA,98.20359281437125,NA,NA
45805,Allen County,OH,NA,NA,12.649700598802397,NA,NA
45813,Paulding County,OH,NA,NA,NA,97.06572769953051,NA
45840,Hancock County,OH,NA,NA,2.095808383233533,NA,NA
45891,Van Wert County,OH,NA,NA,30.988023952095805,26.877934272300468,NA
73012,Oklahoma County,OK,58.36065573770492,NA,NA,NA,NA
73013,Oklahoma County,OK,NA,NA,NA,11.267605633802818,NA
73025,Oklahoma County,OK,NA,NA,NA,87.55868544600939,NA
73044,Logan County,OK,NA,NA,52.544910179640716,NA,NA
73055,Stephens County,OK,NA,78.33333333333333,NA,NA,NA
73064,Canadian County,OK,NA,75,NA,48.35680751173709,NA
73065,McClain County,OK,92.1311475409836,NA,NA,NA,NA
73072,Cleveland County,OK,NA,NA,NA,29.342723004694836,NA
73084,Oklahoma County,OK,NA,NA,NA,NA,74.03225806451613
73098,Garvin County,OK,NA,NA,NA,96.71361502347418,NA
73099,Canadian County,OK,NA,NA,12.949101796407186,NA,NA
73107,Oklahoma County,OK,NA,NA,53.59281437125748,NA,NA
73127,Oklahoma County,OK,NA,NA,NA,76.17370892018779,NA
73129,Oklahoma County,OK,NA,NA,51.796407185628745,NA,NA
73160,Cleveland County,OK,NA,NA,NA,NA,11.612903225806452
73170,Cleveland County,OK,NA,NA,NA,NA,61.61290322580645
73439,Marshall County,OK,NA,NA,73.87724550898204,NA,NA
73443,Carter County,OK,NA,NA,93.41317365269461,NA,NA
73501,Comanche County,OK,NA,NA,58.90718562874252,NA,NA
73505,Comanche County,OK,19.672131147540984,NA,NA,NA,NA
73533,Stephens County,OK,NA,43.666666666666664,NA,NA,NA
74008,Tulsa County,OK,NA,NA,66.61676646706587,NA,NA
74011,Tulsa County,OK,NA,NA,NA,NA,51.774193548387096
74012,Tulsa County,OK,NA,NA,25.0748502994012,NA,NA
74014,Wagoner County,OK,32.295081967213115,NA,NA,NA,NA
74033,Tulsa County,OK,NA,85.66666666666667,NA,NA,NA
74037,Tulsa County,OK,NA,NA,NA,NA,74.03225806451613
74055,Tulsa County,OK,NA,NA,NA,82.62910798122066,NA
74066,Creek County,OK,NA,NA,NA,NA,52.25806451612903
74136,Tulsa County,OK,NA,NA,NA,NA,30
74370,Ottawa County,OK,NA,NA,99.47604790419162,NA,NA
74432,McIntosh County,OK,NA,NA,81.96107784431138,NA,NA
74464,Cherokee County,OK,NA,NA,NA,20.187793427230048,NA
74728,McCurtain County,OK,NA,NA,NA,NA,80.48387096774194
74801,Pottawatomie County,OK,34.26229508196722,NA,38.398203592814376,NA,NA
74820,Pontotoc County,OK,NA,13.666666666666666,7.110778443113773,NA,NA
74953,Le Flore County,OK,NA,63,NA,NA,NA
74966,Le Flore County,OK,NA,NA,NA,91.90140845070422,NA
97007,Washington County,OR,NA,NA,34.50598802395209,NA,NA
97008,Washington County,OR,NA,NA,59.80538922155688,NA,NA
97009,Clackamas County,OR,NA,NA,89.74550898203593,NA,NA
97015,Clackamas County,OR,NA,NA,NA,95.07042253521126,NA
97027,Clackamas County,OR,NA,NA,78.96706586826348,NA,NA
97031,Hood River County,OR,51.147540983606554,NA,NA,75.46948356807512,NA
97045,Clackamas County,OR,NA,NA,13.77245508982036,NA,NA
97062,Washington County,OR,35.90163934426229,NA,NA,NA,NA
97071,Marion County,OR,NA,NA,NA,63.02816901408451,53.064516129032256
97086,Clackamas County,OR,76.55737704918033,NA,NA,NA,NA
97116,Washington County,OR,NA,NA,NA,55.86854460093896,NA
97119,Washington County,OR,NA,NA,NA,99.76525821596243,NA
97128,Yamhill County,OR,NA,NA,18.113772455089823,NA,NA
97132,Yamhill County,OR,59.01639344262295,NA,NA,31.690140845070424,NA
97140,Washington County,OR,50.81967213114754,NA,NA,NA,NA
97146,Clatsop County,OR,NA,NA,NA,NA,85.96774193548387
97215,Multnomah County,OR,NA,NA,NA,91.66666666666666,NA
97218,Multnomah County,OR,NA,NA,NA,88.84976525821597,NA
97224,Washington County,OR,NA,NA,NA,39.08450704225352,NA
97229,Washington County,OR,NA,85,69.08682634730539,NA,NA
97236,Multnomah County,OR,NA,NA,NA,28.9906103286385,NA
97239,Multnomah County,OR,NA,NA,98.12874251497006,NA,NA
97267,Clackamas County,OR,70,NA,NA,NA,NA
97321,Linn County,OR,NA,NA,NA,26.525821596244132,26.93548387096774
97330,Benton County,OR,NA,NA,52.24550898203593,NA,NA
97355,Linn County,OR,NA,NA,NA,NA,7.580645161290322
97365,Lincoln County,OR,NA,NA,73.95209580838323,NA,NA
97383,Marion County,OR,NA,NA,78.6676646706587,NA,NA
97394,Lincoln County,OR,NA,NA,NA,NA,70.64516129032258
97401,Lane County,OR,NA,NA,40.41916167664671,NA,NA
97405,Lane County,OR,NA,NA,NA,66.07981220657277,NA
97444,Curry County,OR,NA,NA,NA,NA,71.45161290322581
97470,Douglas County,OR,NA,NA,NA,27.699530516431924,NA
97477,Lane County,OR,NA,NA,23.952095808383234,NA,NA
97495,Douglas County,OR,NA,NA,NA,99.17840375586854,NA
97502,Jackson County,OR,NA,NA,NA,78.75586854460094,NA
97504,Jackson County,OR,NA,66.66666666666666,NA,NA,NA
97520,Jackson County,OR,NA,NA,NA,NA,31.129032258064516
97526,Josephine County,OR,NA,NA,75.37425149700599,NA,NA
97527,Josephine County,OR,NA,NA,45.65868263473054,NA,NA
97601,Klamath County,OR,NA,NA,NA,13.380281690140844,NA
97603,Klamath County,OR,NA,47.333333333333336,NA,NA,NA
97702,Deschutes County,OR,NA,NA,45.05988023952096,NA,NA
97801,Umatilla County,OR,49.18032786885246,NA,NA,NA,NA
97850,Union County,OR,37.37704918032787,NA,NA,NA,NA
97914,Malheur County,OR,NA,NA,NA,NA,48.70967741935484
15010,Beaver County,PA,NA,NA,NA,28.87323943661972,NA
15025,Allegheny County,PA,80,NA,NA,NA,60.16129032258064
15042,Beaver County,PA,NA,NA,84.13173652694611,NA,73.06451612903226
15061,Beaver County,PA,NA,NA,63.32335329341318,NA,NA
15068,Westmoreland County,PA,NA,NA,NA,12.089201877934272,NA
15074,Beaver County,PA,NA,NA,NA,61.15023474178404,NA
15102,Allegheny County,PA,NA,65.33333333333333,NA,NA,NA
15132,Allegheny County,PA,NA,NA,NA,26.173708920187792,NA
15136,Allegheny County,PA,NA,NA,31.362275449101794,NA,NA
15146,Allegheny County,PA,NA,NA,47.529940119760475,NA,67.74193548387096
15202,Allegheny County,PA,74.09836065573771,NA,NA,NA,NA
15206,Allegheny County,PA,NA,NA,NA,22.887323943661972,NA
15208,Allegheny County,PA,NA,NA,80.61377245508982,NA,NA
15218,Allegheny County,PA,NA,NA,79.11676646706587,NA,NA
15219,Allegheny County,PA,NA,NA,33.00898203592814,NA,NA
15220,Allegheny County,PA,NA,NA,70.95808383233533,NA,NA
15221,Allegheny County,PA,NA,NA,NA,NA,18.387096774193548
15236,Allegheny County,PA,NA,NA,NA,33.21596244131456,NA
15237,Allegheny County,PA,59.83606557377049,NA,NA,NA,NA
15301,Washington County,PA,NA,NA,47.1556886227545,NA,NA
15401,Fayette County,PA,12.459016393442624,NA,NA,NA,NA
15425,Fayette County,PA,NA,NA,NA,25,NA
15501,Somerset County,PA,NA,NA,58.15868263473054,NA,NA
15537,Bedford County,PA,87.8688524590164,NA,NA,NA,NA
15601,Westmoreland County,PA,NA,NA,NA,NA,0.967741935483871
15632,Westmoreland County,PA,NA,NA,90.26946107784431,NA,NA
15642,Westmoreland County,PA,NA,NA,21.25748502994012,NA,NA
15650,Westmoreland County,PA,NA,NA,NA,56.92488262910798,NA
15666,Westmoreland County,PA,NA,NA,NA,35.328638497652584,NA
15717,Indiana County,PA,NA,NA,NA,78.9906103286385,NA
15851,Jefferson County,PA,NA,NA,72.52994011976048,NA,NA
15902,Cambria County,PA,NA,NA,NA,59.27230046948356,NA
15931,Cambria County,PA,92.45901639344262,NA,NA,NA,NA
16066,Butler County,PA,41.147540983606554,NA,NA,NA,NA
16101,Lawrence County,PA,NA,NA,4.865269461077845,7.746478873239436,3.5483870967741935
16105,Lawrence County,PA,NA,NA,NA,NA,12.903225806451612
16226,Armstrong County,PA,NA,NA,89.22155688622755,NA,NA
16346,Venango County,PA,NA,NA,NA,96.36150234741784,NA
16365,Warren County,PA,17.21311475409836,NA,NA,NA,NA
16417,Erie County,PA,NA,NA,NA,90.61032863849765,86.93548387096774
16504,Erie County,PA,NA,NA,NA,NA,66.93548387096774
16506,Erie County,PA,NA,NA,NA,NA,43.87096774193549
16511,Erie County,PA,NA,NA,80.23952095808383,89.7887323943662,NA
16601,Blair County,PA,NA,NA,8.008982035928144,NA,NA
16602,Blair County,PA,NA,NA,44.08682634730539,NA,NA
16648,Blair County,PA,NA,NA,NA,39.08450704225352,NA
16652,Huntingdon County,PA,NA,NA,40.5688622754491,20.070422535211268,21.29032258064516
16678,Bedford County,PA,99.672131147541,NA,NA,NA,NA
16735,McKean County,PA,NA,NA,74.47604790419162,NA,NA
16830,Clearfield County,PA,NA,61,NA,33.33333333333333,NA
17003,Lebanon County,PA,NA,NA,NA,53.755868544600936,96.12903225806451
17013,Cumberland County,PA,21.311475409836063,49.666666666666664,19.68562874251497,17.84037558685446,NA
17018,Dauphin County,PA,NA,NA,NA,97.76995305164318,NA
17022,Lancaster County,PA,9.508196721311474,NA,NA,55.39906103286385,NA
17032,Dauphin County,PA,86.88524590163934,NA,NA,NA,NA
17033,Dauphin County,PA,NA,NA,NA,NA,24.193548387096776
17042,Lebanon County,PA,NA,NA,NA,34.38967136150235,NA
17044,Mifflin County,PA,NA,NA,12.125748502994012,NA,NA
17078,Lebanon County,PA,NA,NA,NA,13.028169014084506,NA
17104,Dauphin County,PA,NA,37.666666666666664,17.365269461077844,NA,NA
17112,Dauphin County,PA,NA,NA,16.317365269461078,NA,NA
17201,Franklin County,PA,NA,NA,38.32335329341318,NA,NA
17202,Franklin County,PA,NA,NA,NA,57.27699530516433,NA
17241,Cumberland County,PA,NA,NA,NA,NA,75.16129032258064
17257,Cumberland County,PA,NA,NA,23.57784431137725,NA,NA
17268,Franklin County,PA,NA,NA,16.541916167664674,NA,17.096774193548388
17325,Adams County,PA,NA,NA,NA,NA,11.129032258064516
17331,York County,PA,NA,NA,5.688622754491018,NA,1.7741935483870968
17402,York County,PA,NA,NA,NA,11.854460093896714,NA
17406,York County,PA,NA,NA,NA,78.16901408450704,NA
17512,Lancaster County,PA,NA,NA,NA,NA,73.70967741935483
17517,Lancaster County,PA,NA,NA,NA,NA,69.03225806451613
17522,Lancaster County,PA,NA,NA,NA,13.497652582159624,38.70967741935484
17543,Lancaster County,PA,NA,NA,NA,46.478873239436616,NA
17584,Lancaster County,PA,NA,NA,83.75748502994011,NA,NA
17603,Lancaster County,PA,NA,NA,8.308383233532934,10.915492957746478,NA
17701,Lycoming County,PA,8.032786885245901,NA,NA,NA,NA
17754,Lycoming County,PA,NA,NA,NA,NA,66.45161290322581
17756,Lycoming County,PA,NA,69.66666666666667,NA,NA,NA
17801,Northumberland County,PA,NA,NA,NA,NA,32.903225806451616
17857,Northumberland County,PA,NA,NA,NA,54.5774647887324,NA
17866,Northumberland County,PA,NA,NA,NA,NA,46.61290322580645
17961,Schuylkill County,PA,NA,NA,85.32934131736528,NA,NA
18015,Northampton County,PA,7.704918032786885,NA,NA,26.995305164319248,NA
18017,Northampton County,PA,NA,NA,5.089820359281437,4.342723004694836,NA
18020,Northampton County,PA,NA,NA,43.93712574850299,NA,NA
18042,Northampton County,PA,NA,NA,4.266467065868264,NA,NA
18049,Lehigh County,PA,NA,NA,NA,77.93427230046949,NA
18055,Northampton County,PA,68.85245901639344,NA,NA,NA,NA
18080,Lehigh County,PA,62.295081967213115,NA,NA,NA,NA
18102,Lehigh County,PA,NA,NA,0.6736526946107785,7.394366197183098,NA
18229,Carbon County,PA,NA,NA,72.0059880239521,NA,NA
18235,Carbon County,PA,NA,NA,65.26946107784431,NA,NA
18301,Monroe County,PA,NA,NA,NA,33.568075117370896,NA
18330,Monroe County,PA,NA,88.66666666666667,NA,NA,NA
18337,Pike County,PA,NA,NA,NA,NA,63.54838709677419
18360,Monroe County,PA,NA,NA,NA,NA,16.7741935483871
18428,Pike County,PA,NA,NA,75.1497005988024,NA,NA
18447,Lackawanna County,PA,NA,NA,77.39520958083833,NA,NA
18505,Lackawanna County,PA,NA,NA,NA,NA,49.354838709677416
18509,Lackawanna County,PA,NA,NA,58.83233532934131,NA,NA
18641,Luzerne County,PA,NA,NA,95.28443113772454,74.4131455399061,NA
18657,Wyoming County,PA,87.21311475409837,NA,NA,NA,NA
18840,Bradford County,PA,NA,NA,64.82035928143712,NA,NA
18901,Bucks County,PA,85.90163934426229,NA,NA,NA,NA
18942,Bucks County,PA,NA,NA,100,NA,NA
18964,Montgomery County,PA,NA,NA,73.42814371257485,NA,NA
18966,Bucks County,PA,NA,NA,48.877245508982035,NA,NA
18976,Bucks County,PA,NA,NA,89.07185628742515,NA,41.4516129032258
19003,Montgomery County,PA,54.75409836065573,NA,NA,NA,NA
19004,Montgomery County,PA,NA,NA,NA,71.24413145539906,NA
19008,Delaware County,PA,59.83606557377049,NA,NA,NA,NA
19010,Delaware County,PA,NA,NA,59.056886227544915,NA,NA
19013,Delaware County,PA,NA,NA,2.619760479041916,15.258215962441316,NA
19014,Delaware County,PA,NA,NA,43.26347305389221,NA,NA
19020,Bucks County,PA,19.508196721311474,NA,NA,42.48826291079813,NA
19023,Delaware County,PA,NA,36.666666666666664,30.83832335329341,NA,NA
19027,Montgomery County,PA,NA,NA,44.461077844311376,NA,NA
19033,Delaware County,PA,71.47540983606558,NA,NA,NA,NA
19040,Montgomery County,PA,NA,NA,NA,49.413145539906104,NA
19047,Bucks County,PA,NA,NA,NA,18.427230046948356,NA
19063,Delaware County,PA,NA,NA,20.65868263473054,NA,NA
19067,Bucks County,PA,35.24590163934426,NA,17.889221556886227,9.03755868544601,NA
19073,Delaware County,PA,NA,NA,NA,38.028169014084504,NA
19075,Montgomery County,PA,96.72131147540983,NA,NA,NA,NA
19076,Delaware County,PA,NA,NA,NA,87.32394366197182,NA
19082,Delaware County,PA,NA,NA,10.404191616766468,NA,NA
19083,Delaware County,PA,49.18032786885246,NA,NA,NA,NA
19086,Delaware County,PA,64.26229508196721,NA,NA,NA,NA
19096,Montgomery County,PA,NA,NA,52.39520958083832,NA,NA
19111,Philadelphia County,PA,11.311475409836065,NA,NA,5.633802816901409,NA
19114,Philadelphia County,PA,59.83606557377049,NA,18.33832335329341,NA,NA
19115,Philadelphia County,PA,NA,63.33333333333333,NA,NA,NA
19120,Philadelphia County,PA,NA,NA,2.3203592814371254,NA,NA
19121,Philadelphia County,PA,42.786885245901644,NA,7.709580838323353,NA,NA
19122,Philadelphia County,PA,NA,59.66666666666667,87.3502994011976,NA,NA
19124,Philadelphia County,PA,3.7704918032786887,NA,66.24251497005989,NA,NA
19126,Philadelphia County,PA,NA,NA,NA,49.647887323943664,NA
19128,Philadelphia County,PA,NA,NA,51.571856287425156,30.28169014084507,NA
19131,Philadelphia County,PA,NA,NA,4.790419161676647,NA,NA
19132,Philadelphia County,PA,NA,16.666666666666664,75.89820359281437,NA,NA
19133,Philadelphia County,PA,NA,NA,65.41916167664671,73.00469483568075,NA
19134,Philadelphia County,PA,NA,NA,49.47604790419162,NA,NA
19136,Philadelphia County,PA,NA,NA,40.19461077844311,NA,NA
19138,Philadelphia County,PA,NA,NA,12.275449101796406,NA,NA
19140,Philadelphia County,PA,NA,NA,46.25748502994012,NA,NA
19142,Philadelphia County,PA,NA,NA,11.976047904191617,78.87323943661971,NA
19143,Philadelphia County,PA,12.622950819672132,NA,7.0359281437125745,1.1737089201877933,NA
19145,Philadelphia County,PA,NA,18.666666666666668,NA,NA,NA
19146,Philadelphia County,PA,NA,NA,47.08083832335329,NA,NA
19147,Philadelphia County,PA,NA,81,NA,NA,NA
19149,Philadelphia County,PA,NA,NA,50.52395209580839,32.863849765258216,NA
19151,Philadelphia County,PA,NA,NA,NA,NA,64.35483870967742
19154,Philadelphia County,PA,NA,NA,NA,NA,30.64516129032258
19301,Chester County,PA,70.65573770491802,NA,NA,NA,NA
19312,Chester County,PA,34.91803278688524,NA,NA,NA,NA
19320,Chester County,PA,4.754098360655737,NA,NA,NA,NA
19335,Chester County,PA,NA,NA,NA,15.845070422535212,NA
19342,Delaware County,PA,NA,NA,48.05389221556886,NA,NA
19344,Chester County,PA,NA,NA,80.61377245508982,NA,NA
19350,Chester County,PA,88.36065573770492,NA,76.72155688622755,NA,NA
19382,Chester County,PA,5.573770491803279,NA,14.146706586826346,10.44600938967136,NA
19403,Montgomery County,PA,NA,NA,NA,6.338028169014084,NA
19406,Montgomery County,PA,NA,NA,46.40718562874252,NA,NA
19422,Montgomery County,PA,84.26229508196721,NA,NA,NA,NA
19425,Chester County,PA,NA,NA,84.13173652694611,NA,NA
19426,Montgomery County,PA,NA,NA,67.29041916167665,NA,NA
19440,Montgomery County,PA,NA,NA,62.79940119760479,NA,NA
19444,Montgomery County,PA,NA,NA,95.80838323353294,NA,NA
19454,Montgomery County,PA,NA,NA,44.31137724550898,NA,NA
19506,Berks County,PA,NA,NA,84.58083832335329,NA,NA
19520,Chester County,PA,NA,NA,95.13473053892216,NA,NA
19522,Berks County,PA,31.80327868852459,NA,NA,38.497652582159624,NA
19526,Berks County,PA,NA,NA,70.73353293413174,NA,NA
19540,Berks County,PA,NA,NA,91.84131736526946,NA,NA
19601,Berks County,PA,22.950819672131146,NA,NA,NA,NA
19602,Berks County,PA,NA,NA,39.895209580838326,NA,NA
19605,Berks County,PA,NA,NA,31.736526946107784,NA,NA
19606,Berks County,PA,20.655737704918035,NA,NA,NA,NA
19607,Berks County,PA,NA,NA,NA,NA,16.29032258064516
19611,Berks County,PA,NA,NA,77.02095808383234,NA,NA
02861,Providence County,RI,NA,NA,32.33532934131736,NA,NA
02863,Providence County,RI,43.44262295081967,NA,NA,NA,NA
02864,Providence County,RI,NA,NA,26.721556886227543,NA,NA
02865,Providence County,RI,62.13114754098361,NA,NA,NA,NA
02888,Kent County,RI,NA,NA,50.59880239520959,NA,NA
02891,Washington County,RI,NA,NA,NA,28.4037558685446,NA
02895,Providence County,RI,NA,NA,42.06586826347306,NA,NA
29203,Richland County,SC,NA,NA,10.32934131736527,NA,NA
29209,Richland County,SC,52.950819672131146,NA,NA,NA,NA
29303,Spartanburg County,SC,NA,NA,NA,86.50234741784037,NA
29340,Cherokee County,SC,NA,NA,NA,58.333333333333336,NA
29356,Spartanburg County,SC,NA,NA,NA,NA,89.35483870967742
29360,Laurens County,SC,NA,NA,41.91616766467065,NA,NA
29403,Charleston County,SC,NA,NA,44.535928143712574,NA,NA
29405,Charleston County,SC,NA,NA,NA,43.1924882629108,NA
29406,Charleston County,SC,NA,NA,25.449101796407188,NA,NA
29407,Charleston County,SC,NA,NA,39.970059880239525,14.43661971830986,NA
29412,Charleston County,SC,51.47540983606558,NA,NA,NA,NA
29414,Charleston County,SC,NA,NA,NA,NA,82.74193548387096
29420,Dorchester County,SC,NA,NA,NA,NA,88.2258064516129
29440,Georgetown County,SC,77.8688524590164,NA,NA,NA,NA
29455,Charleston County,SC,NA,NA,NA,36.73708920187793,39.19354838709677
29456,Dorchester County,SC,NA,36.333333333333336,36.601796407185624,NA,NA
29461,Berkeley County,SC,NA,NA,NA,36.032863849765256,NA
29464,Charleston County,SC,NA,NA,NA,24.53051643192488,NA
29466,Charleston County,SC,NA,NA,49.62574850299401,NA,39.35483870967742
29470,Charleston County,SC,NA,NA,NA,98.59154929577466,NA
29483,Dorchester County,SC,NA,NA,NA,NA,52.741935483870975
29485,Dorchester County,SC,7.540983606557377,NA,NA,NA,NA
29486,Berkeley County,SC,NA,NA,NA,53.286384976525824,NA
29501,Florence County,SC,NA,NA,32.55988023952096,NA,NA
29506,Florence County,SC,NA,NA,46.032934131736525,NA,NA
29512,Marlboro County,SC,NA,NA,57.48502994011976,NA,NA
29526,Horry County,SC,NA,NA,NA,12.910798122065728,24.677419354838708
29527,Horry County,SC,NA,NA,NA,NA,64.83870967741936
29550,Darlington County,SC,NA,NA,NA,23.708920187793428,NA
29566,Horry County,SC,NA,NA,77.17065868263472,NA,NA
29568,Horry County,SC,NA,NA,NA,67.01877934272301,NA
29569,Horry County,SC,55.24590163934426,NA,NA,NA,NA
29585,Georgetown County,SC,NA,NA,NA,54.10798122065727,NA
29605,Greenville County,SC,24.59016393442623,NA,24.476047904191617,NA,NA
29607,Greenville County,SC,NA,64.66666666666666,NA,NA,NA
29617,Greenville County,SC,NA,NA,36.97604790419162,NA,NA
29640,Pickens County,SC,22.131147540983605,NA,NA,NA,NA
29642,Pickens County,SC,NA,NA,NA,19.131455399061036,NA
29646,Greenwood County,SC,NA,NA,44.68562874251497,51.40845070422535,NA
29651,Greenville County,SC,NA,NA,20.209580838323355,NA,NA
29655,Anderson County,SC,NA,NA,94.53592814371258,NA,NA
29670,Anderson County,SC,NA,90,NA,NA,NA
29680,Greenville County,SC,NA,NA,NA,NA,67.90322580645162
29690,Greenville County,SC,91.80327868852459,NA,NA,NA,NA
29706,Chester County,SC,NA,NA,NA,NA,68.06451612903226
29709,Chesterfield County,SC,NA,NA,NA,NA,97.25806451612902
29710,York County,SC,NA,NA,NA,54.5774647887324,NA
29715,York County,SC,NA,NA,NA,NA,65.80645161290323
29829,Aiken County,SC,NA,79.33333333333333,NA,NA,NA
29906,Beaufort County,SC,37.049180327868854,NA,NA,NA,NA
29926,Beaufort County,SC,NA,NA,94.61077844311377,NA,NA
29927,Jasper County,SC,NA,NA,NA,97.1830985915493,NA
57105,Minnehaha County,SD,NA,NA,NA,NA,6.935483870967742
57106,Minnehaha County,SD,NA,NA,22.82934131736527,NA,NA
57401,Brown County,SD,NA,NA,NA,10.211267605633804,NA
57601,Walworth County,SD,NA,NA,97.97904191616766,NA,NA
57702,Pennington County,SD,NA,NA,NA,NA,9.193548387096774
57783,Lawrence County,SD,NA,NA,NA,47.06572769953052,37.096774193548384
57785,Meade County,SD,NA,NA,NA,NA,80.64516129032258
37013,Davidson County,TN,NA,NA,NA,18.661971830985916,NA
37027,Williamson County,TN,NA,NA,40.793413173652695,79.34272300469483,NA
37040,Montgomery County,TN,NA,49.333333333333336,NA,NA,NA
37072,Davidson County,TN,37.37704918032787,NA,NA,NA,NA
37074,Trousdale County,TN,NA,NA,67.73952095808383,80.98591549295774,NA
37075,Sumner County,TN,NA,NA,65.94311377245509,NA,NA
37080,Davidson County,TN,NA,NA,NA,NA,93.2258064516129
37122,Wilson County,TN,14.426229508196723,NA,NA,27.582159624413144,NA
37127,Rutherford County,TN,81.63934426229508,NA,NA,NA,NA
37128,Rutherford County,TN,NA,NA,28.817365269461074,NA,NA
37138,Davidson County,TN,NA,NA,NA,59.74178403755869,NA
37150,Macon County,TN,NA,NA,96.8562874251497,NA,NA
37167,Rutherford County,TN,NA,NA,27.844311377245507,27.347417840375588,38.225806451612904
37172,Robertson County,TN,82.62295081967214,NA,NA,NA,NA
37179,Williamson County,TN,86.22950819672131,NA,NA,NA,NA
37185,Humphreys County,TN,NA,NA,88.54790419161677,NA,NA
37186,Sumner County,TN,64.09836065573771,NA,NA,NA,NA
37211,Davidson County,TN,NA,NA,NA,NA,20.806451612903228
37214,Davidson County,TN,NA,55.333333333333336,NA,NA,NA
37303,McMinn County,TN,NA,NA,57.63473053892215,NA,NA
37321,Rhea County,TN,28.0327868852459,NA,30.538922155688624,NA,NA
37327,Sequatchie County,TN,NA,NA,43.038922155688624,NA,NA
37330,Franklin County,TN,77.70491803278688,NA,NA,NA,NA
37336,Bradley County,TN,97.8688524590164,NA,NA,NA,NA
37343,Hamilton County,TN,57.70491803278689,NA,NA,NA,NA
37362,Polk County,TN,100,NA,NA,NA,NA
37363,Hamilton County,TN,41.47540983606557,NA,NA,NA,NA
37370,McMinn County,TN,38.196721311475414,NA,NA,NA,NA
37388,Coffee County,TN,56.557377049180324,NA,NA,NA,NA
37397,Marion County,TN,NA,NA,84.4311377245509,NA,NA
37411,Hamilton County,TN,NA,NA,NA,64.90610328638498,NA
37601,Washington County,TN,NA,NA,NA,13.732394366197184,NA
37620,Sullivan County,TN,NA,NA,NA,18.544600938967136,NA
37641,Greene County,TN,NA,NA,NA,62.79342723004695,NA
37643,Carter County,TN,NA,NA,11.751497005988023,NA,NA
37660,Sullivan County,TN,NA,NA,NA,NA,10.806451612903226
37663,Sullivan County,TN,NA,NA,69.68562874251496,NA,NA
37664,Sullivan County,TN,NA,NA,NA,NA,28.70967741935484
37725,Jefferson County,TN,NA,NA,NA,NA,38.064516129032256
37742,Loudon County,TN,86.88524590163934,NA,NA,NA,NA
37745,Greene County,TN,NA,NA,26.272455089820358,NA,NA
37748,Roane County,TN,NA,NA,NA,NA,41.935483870967744
37757,Campbell County,TN,65.24590163934427,NA,NA,NA,70.64516129032258
37763,Roane County,TN,NA,NA,NA,45.18779342723005,NA
37777,Blount County,TN,NA,NA,61.82634730538922,NA,NA
37801,Blount County,TN,NA,NA,14.895209580838323,NA,NA
37803,Blount County,TN,NA,NA,33.458083832335326,NA,NA
37804,Blount County,TN,22.78688524590164,NA,NA,NA,NA
37813,Hamblen County,TN,54.75409836065573,NA,NA,67.37089201877934,NA
37821,Cocke County,TN,NA,NA,14.67065868263473,NA,NA
37853,Blount County,TN,96.39344262295081,NA,NA,NA,NA
37862,Sevier County,TN,NA,NA,38.547904191616766,NA,NA
37865,Sevier County,TN,NA,NA,41.541916167664674,NA,NA
37869,Hancock County,TN,NA,NA,91.39221556886228,NA,NA
37874,Monroe County,TN,NA,NA,41.31736526946108,NA,NA
37876,Sevier County,TN,NA,NA,NA,NA,38.387096774193544
37909,Knox County,TN,NA,NA,84.3562874251497,NA,NA
37914,Knox County,TN,37.213114754098356,NA,37.799401197604794,NA,NA
37932,Knox County,TN,70.32786885245902,NA,NA,NA,NA
37934,Knox County,TN,NA,NA,NA,46.12676056338028,NA
37938,Knox County,TN,NA,NA,NA,68.1924882629108,NA
38024,Dyer County,TN,NA,39,24.251497005988025,NA,NA
38052,Hardeman County,TN,NA,NA,98.05389221556887,NA,NA
38053,Shelby County,TN,NA,NA,NA,58.098591549295776,NA
38103,Shelby County,TN,NA,74.66666666666667,NA,NA,NA
38108,Shelby County,TN,NA,54.333333333333336,NA,NA,NA
38109,Shelby County,TN,NA,NA,NA,17.370892018779344,NA
38111,Shelby County,TN,NA,NA,20.88323353293413,51.76056338028169,NA
38114,Shelby County,TN,NA,10,NA,NA,NA
38115,Shelby County,TN,NA,16,NA,63.497652582159624,NA
38117,Shelby County,TN,79.67213114754098,NA,NA,NA,NA
38119,Shelby County,TN,NA,NA,NA,NA,68.87096774193549
38134,Shelby County,TN,NA,NA,38.02395209580838,NA,NA
38237,Weakley County,TN,70.65573770491802,NA,NA,NA,NA
38261,Obion County,TN,NA,NA,NA,37.79342723004695,NA
38301,Madison County,TN,NA,NA,9.131736526946108,NA,NA
38305,Madison County,TN,NA,NA,8.45808383233533,NA,NA
38320,Benton County,TN,NA,NA,NA,NA,73.87096774193549
38351,Henderson County,TN,NA,NA,79.79041916167665,NA,NA
38372,Hardin County,TN,NA,NA,NA,51.99530516431925,NA
38551,Clay County,TN,NA,NA,86.52694610778443,NA,NA
38558,Cumberland County,TN,NA,NA,NA,NA,40.64516129032258
38583,White County,TN,28.0327868852459,NA,NA,NA,NA
75007,Denton County,TX,30.16393442622951,NA,NA,NA,NA
75013,Collin County,TX,55.9016393442623,NA,NA,NA,NA
75020,Grayson County,TX,NA,NA,47.90419161676647,NA,NA
75028,Denton County,TX,57.70491803278689,NA,NA,NA,NA
75033,,TX,NA,NA,NA,NA,96.29032258064515
75050,Dallas County,TX,NA,NA,NA,54.81220657276995,NA
75061,Dallas County,TX,NA,22,NA,NA,NA
75062,Dallas County,TX,NA,54,NA,NA,NA
75068,Denton County,TX,NA,40.666666666666664,NA,NA,NA
75070,Collin County,TX,NA,NA,NA,12.44131455399061,NA
75071,Collin County,TX,NA,NA,NA,34.624413145539904,NA
75074,Collin County,TX,NA,45.666666666666664,NA,NA,NA
75077,Denton County,TX,NA,NA,74.62574850299401,NA,NA
75078,Collin County,TX,61.47540983606557,NA,NA,NA,NA
75081,Dallas County,TX,NA,NA,70.20958083832335,NA,NA
75104,Dallas County,TX,NA,NA,NA,32.629107981220656,NA
75115,Dallas County,TX,NA,NA,22.52994011976048,NA,NA
75149,Dallas County,TX,3.7704918032786887,NA,NA,NA,NA
75154,Ellis County,TX,NA,NA,NA,NA,74.67741935483872
75189,Rockwall County,TX,NA,NA,45.958083832335326,NA,NA
75217,Dallas County,TX,25.573770491803277,NA,NA,NA,NA
75225,Dallas County,TX,NA,NA,NA,NA,33.70967741935484
75228,Dallas County,TX,NA,NA,47.604790419161674,NA,NA
75231,Dallas County,TX,NA,28.000000000000004,NA,NA,NA
75232,Dallas County,TX,NA,59.66666666666667,NA,NA,NA
75235,Dallas County,TX,54.26229508196722,NA,NA,71.94835680751174,NA
75237,Dallas County,TX,NA,NA,45.209580838323355,NA,NA
75240,Dallas County,TX,NA,NA,NA,NA,69.35483870967742
75402,Hunt County,TX,NA,NA,NA,NA,76.61290322580645
75457,Franklin County,TX,NA,NA,93.11377245508982,NA,NA
75474,Hunt County,TX,47.868852459016395,NA,NA,NA,NA
75482,Hopkins County,TX,40,NA,NA,NA,NA
75494,Wood County,TX,82.78688524590164,NA,NA,NA,NA
75601,Gregg County,TX,58.032786885245905,NA,NA,NA,NA
75604,Gregg County,TX,NA,NA,NA,63.38028169014085,NA
75605,Gregg County,TX,40.32786885245901,NA,NA,NA,NA
75662,Gregg County,TX,NA,NA,80.61377245508982,NA,NA
75703,Smith County,TX,NA,NA,32.93413173652694,NA,2.741935483870968
75751,Henderson County,TX,NA,NA,46.9311377245509,NA,40
75762,Smith County,TX,NA,NA,NA,57.159624413145536,NA
75789,Smith County,TX,NA,NA,NA,68.42723004694837,NA
75860,Freestone County,TX,NA,100,NA,NA,NA
75901,Angelina County,TX,49.8360655737705,NA,NA,NA,NA
75951,Jasper County,TX,NA,NA,50.82335329341318,NA,NA
75961,Nacogdoches County,TX,39.83606557377049,NA,NA,NA,NA
75965,Nacogdoches County,TX,NA,NA,NA,NA,60.806451612903224
75972,San Augustine County,TX,NA,NA,NA,NA,90.16129032258064
75979,Tyler County,TX,NA,NA,86.15269461077844,NA,NA
76001,Tarrant County,TX,NA,NA,56.96107784431138,NA,NA
76017,Tarrant County,TX,NA,NA,NA,NA,35.80645161290323
76028,Johnson County,TX,NA,NA,NA,NA,13.870967741935484
76039,Tarrant County,TX,NA,NA,38.17365269461078,NA,NA
76067,Palo Pinto County,TX,NA,NA,55.16467065868264,NA,NA
76092,Tarrant County,TX,NA,NA,NA,65.49295774647888,NA
76104,Tarrant County,TX,NA,34.333333333333336,NA,NA,NA
76114,Tarrant County,TX,52.78688524590164,NA,NA,NA,NA
76116,Tarrant County,TX,NA,NA,23.502994011976046,NA,NA
76117,Tarrant County,TX,NA,31.666666666666664,NA,NA,NA
76119,Tarrant County,TX,NA,NA,NA,NA,27.903225806451616
76131,Tarrant County,TX,18.360655737704917,NA,NA,NA,NA
76132,Tarrant County,TX,NA,NA,NA,61.97183098591549,NA
76133,Tarrant County,TX,NA,NA,18.41317365269461,23.239436619718308,NA
76135,Tarrant County,TX,NA,NA,59.65568862275449,NA,NA
76137,Tarrant County,TX,NA,NA,NA,22.300469483568076,NA
76140,Tarrant County,TX,24.91803278688525,NA,NA,NA,NA
76177,Tarrant County,TX,NA,NA,94.83532934131736,NA,NA
76179,Tarrant County,TX,NA,NA,30.688622754491018,NA,NA
76205,Denton County,TX,NA,NA,85.17964071856288,NA,NA
76226,Denton County,TX,NA,NA,67.88922155688623,NA,NA
76244,Tarrant County,TX,NA,NA,NA,NA,75.64516129032258
76273,Grayson County,TX,89.34426229508196,NA,NA,NA,NA
76401,Erath County,TX,NA,NA,63.47305389221557,NA,NA
76501,Bell County,TX,NA,NA,NA,6.924882629107981,NA
76502,Bell County,TX,NA,NA,15.194610778443113,NA,NA
76513,Bell County,TX,NA,NA,7.18562874251497,NA,1.129032258064516
76522,Coryell County,TX,12.131147540983607,NA,NA,NA,NA
76543,Bell County,TX,NA,NA,NA,NA,6.774193548387098
76574,Williamson County,TX,NA,NA,50.0748502994012,23.239436619718308,NA
76645,Hill County,TX,NA,NA,NA,NA,81.7741935483871
76657,McLennan County,TX,NA,NA,86.22754491017965,NA,NA
76705,McLennan County,TX,NA,NA,NA,43.66197183098591,NA
76706,McLennan County,TX,NA,NA,35.778443113772454,89.2018779342723,59.83870967741935
76711,McLennan County,TX,NA,NA,NA,NA,90.32258064516128
76901,Tom Green County,TX,45.90163934426229,NA,NA,NA,NA
76943,Crockett County,TX,NA,NA,NA,98.35680751173709,NA
76950,Sutton County,TX,NA,NA,98.35329341317365,NA,NA
77011,Harris County,TX,77.54098360655738,NA,NA,NA,NA
77015,Harris County,TX,NA,NA,40.718562874251496,NA,NA
77016,Harris County,TX,NA,NA,NA,76.52582159624414,NA
77021,Harris County,TX,NA,67,NA,NA,NA
77022,Harris County,TX,NA,58.333333333333336,NA,NA,NA
77028,Harris County,TX,NA,NA,NA,70.07042253521126,NA
77034,Harris County,TX,NA,NA,NA,69.24882629107981,NA
77037,Harris County,TX,NA,NA,NA,NA,90.96774193548387
77038,Harris County,TX,NA,NA,NA,92.01877934272301,NA
77045,Harris County,TX,36.39344262295082,NA,NA,NA,NA
77050,Harris County,TX,NA,94,NA,NA,NA
77051,Harris County,TX,NA,NA,55.98802395209581,NA,NA
77058,Harris County,TX,NA,NA,82.18562874251496,NA,NA
77059,Harris County,TX,NA,NA,82.03592814371258,NA,NA
77068,Harris County,TX,91.63934426229508,NA,NA,NA,NA
77074,Harris County,TX,NA,31.666666666666664,NA,NA,NA
77090,Harris County,TX,NA,NA,30.31437125748503,NA,NA
77098,Harris County,TX,NA,NA,NA,NA,93.38709677419355
77301,Montgomery County,TX,NA,NA,NA,84.15492957746478,NA
77304,Montgomery County,TX,40.49180327868853,NA,63.398203592814376,NA,NA
77306,Montgomery County,TX,79.67213114754098,NA,NA,NA,NA
77316,Montgomery County,TX,51.967213114754095,NA,NA,NA,NA
77339,Harris County,TX,NA,78.33333333333333,59.281437125748504,NA,NA
77355,Montgomery County,TX,52.459016393442624,NA,61.00299401197605,NA,NA
77365,Montgomery County,TX,NA,22.666666666666664,NA,NA,NA
77373,Harris County,TX,NA,NA,30.31437125748503,NA,NA
77386,Montgomery County,TX,28.688524590163933,NA,NA,NA,NA
77389,Harris County,TX,48.68852459016394,NA,NA,NA,NA
77414,Matagorda County,TX,53.93442622950819,NA,NA,NA,NA
77433,Harris County,TX,7.377049180327869,NA,NA,NA,NA
77469,Fort Bend County,TX,NA,NA,NA,38.26291079812207,NA
77471,Fort Bend County,TX,NA,43.333333333333336,NA,NA,NA
77479,Fort Bend County,TX,39.67213114754099,NA,NA,NA,NA
77502,Harris County,TX,NA,NA,NA,63.14553990610329,NA
77514,Chambers County,TX,NA,NA,90.94311377245509,NA,NA
77520,Harris County,TX,NA,26.333333333333332,NA,NA,NA
77535,Liberty County,TX,NA,NA,NA,50.46948356807511,NA
77571,Harris County,TX,NA,NA,29.191616766467064,NA,NA
77578,Brazoria County,TX,NA,NA,NA,NA,94.51612903225806
77587,Harris County,TX,74.75409836065575,NA,NA,NA,NA
77625,Hardin County,TX,NA,NA,80.91317365269461,NA,NA
77627,Jefferson County,TX,NA,NA,71.8562874251497,NA,NA
77630,Orange County,TX,NA,NA,42.365269461077844,NA,NA
77642,Jefferson County,TX,NA,NA,NA,35.91549295774648,NA
77662,Orange County,TX,34.75409836065574,NA,NA,NA,NA
77833,Washington County,TX,NA,NA,NA,29.694835680751176,NA
77845,Brazos County,TX,8.19672131147541,NA,NA,4.812206572769953,NA
77901,Victoria County,TX,NA,NA,25.523952095808383,23.122065727699532,NA
77904,Victoria County,TX,66.22950819672131,NA,NA,NA,NA
77964,Lavaca County,TX,NA,NA,NA,NA,56.774193548387096
77979,Calhoun County,TX,75.90163934426229,NA,NA,NA,NA
78006,Kendall County,TX,68.0327868852459,NA,NA,NA,NA
78023,Bexar County,TX,NA,NA,90.41916167664671,NA,NA
78045,Webb County,TX,8.524590163934425,NA,NA,NA,NA
78070,Comal County,TX,NA,NA,NA,NA,88.70967741935483
78073,Bexar County,TX,NA,NA,NA,NA,97.41935483870968
78124,Guadalupe County,TX,NA,NA,NA,95.4225352112676,NA
78148,Bexar County,TX,NA,NA,NA,92.72300469483568,NA
78155,Guadalupe County,TX,NA,NA,NA,NA,35.483870967741936
78201,Bexar County,TX,NA,23.666666666666668,NA,NA,NA
78207,Bexar County,TX,NA,NA,19.985029940119762,NA,NA
78210,Bexar County,TX,NA,NA,NA,56.8075117370892,NA
78211,Bexar County,TX,NA,NA,NA,63.6150234741784,NA
78214,Bexar County,TX,NA,NA,NA,69.13145539906104,NA
78217,Bexar County,TX,NA,NA,67.66467065868264,NA,NA
78221,Bexar County,TX,NA,NA,NA,56.455399061032864,81.29032258064515
78222,Bexar County,TX,NA,NA,NA,NA,83.54838709677419
78223,Bexar County,TX,NA,NA,NA,NA,69.19354838709677
78224,Bexar County,TX,NA,42,NA,NA,NA
78225,Bexar County,TX,NA,NA,NA,NA,85.64516129032258
78227,Bexar County,TX,10,26.333333333333332,NA,NA,NA
78228,Bexar County,TX,NA,4.333333333333334,NA,NA,25.161290322580644
78230,Bexar County,TX,44.26229508196721,NA,NA,NA,NA
78239,Bexar County,TX,NA,NA,63.69760479041916,NA,NA
78240,Bexar County,TX,NA,NA,NA,64.55399061032864,NA
78244,Bexar County,TX,NA,NA,NA,NA,84.35483870967741
78249,Bexar County,TX,NA,NA,NA,67.01877934272301,NA
78258,Bexar County,TX,NA,NA,NA,NA,62.58064516129033
78264,Bexar County,TX,NA,NA,86.75149700598801,NA,NA
78387,San Patricio County,TX,NA,76.33333333333333,NA,NA,NA
78410,Nueces County,TX,NA,42.66666666666667,NA,NA,NA
78411,Nueces County,TX,41.147540983606554,NA,NA,NA,70.3225806451613
78501,Hidalgo County,TX,NA,NA,NA,NA,14.516129032258066
78516,Hidalgo County,TX,NA,27.666666666666668,NA,NA,NA
78521,Cameron County,TX,14.754098360655737,1.3333333333333335,NA,NA,NA
78570,Hidalgo County,TX,NA,NA,70.35928143712576,66.19718309859155,NA
78574,Hidalgo County,TX,NA,NA,69.01197604790418,NA,NA
78596,Hidalgo County,TX,NA,NA,73.20359281437125,NA,NA
78602,Bastrop County,TX,63.44262295081967,NA,NA,NA,NA
78613,Williamson County,TX,NA,NA,34.281437125748504,19.366197183098592,NA
78624,Gillespie County,TX,NA,NA,76.57185628742515,NA,NA
78633,Williamson County,TX,NA,NA,NA,NA,2.4193548387096775
78634,Williamson County,TX,NA,NA,61.52694610778443,NA,NA
78641,Williamson County,TX,NA,NA,57.035928143712574,NA,NA
78664,Williamson County,TX,NA,NA,86.97604790419162,NA,NA
78665,Williamson County,TX,NA,NA,NA,31.572769953051644,NA
78666,Hays County,TX,16.557377049180328,NA,NA,39.7887323943662,NA
78681,Williamson County,TX,NA,NA,57.70958083832335,NA,NA
78704,Travis County,TX,NA,NA,68.6377245508982,NA,NA
78725,Travis County,TX,NA,72.66666666666667,NA,NA,NA
78750,Travis County,TX,NA,NA,NA,NA,84.67741935483872
78753,Travis County,TX,4.426229508196721,24,NA,NA,NA
78758,Travis County,TX,45.08196721311475,NA,54.56586826347305,NA,NA
78759,Travis County,TX,NA,NA,NA,86.85446009389672,NA
79104,Potter County,TX,92.45901639344262,NA,NA,NA,NA
79107,Potter County,TX,NA,NA,NA,NA,67.0967741935484
79108,Potter County,TX,NA,75.66666666666667,NA,NA,NA
79118,Randall County,TX,NA,NA,NA,84.38967136150235,NA
79403,Lubbock County,TX,NA,NA,NA,55.04694835680751,NA
79413,Lubbock County,TX,8.688524590163935,NA,67.36526946107784,NA,NA
79416,Lubbock County,TX,NA,NA,55.613772455089816,NA,NA
79512,Mitchell County,TX,NA,NA,NA,NA,82.58064516129032
79549,Scurry County,TX,NA,NA,NA,NA,55.32258064516129
79603,Taylor County,TX,NA,NA,NA,NA,44.354838709677416
79705,Midland County,TX,19.836065573770494,NA,27.91916167664671,NA,NA
79714,Andrews County,TX,72.29508196721312,NA,NA,NA,NA
79720,Howard County,TX,NA,NA,52.84431137724551,NA,NA
79762,Ector County,TX,NA,NA,NA,NA,60.967741935483865
79763,Ector County,TX,NA,NA,NA,45.774647887323944,NA
79772,Reeves County,TX,NA,92,NA,79.22535211267606,NA
79904,El Paso County,TX,NA,NA,NA,NA,69.6774193548387
79915,El Paso County,TX,NA,NA,NA,NA,16.451612903225808
79928,El Paso County,TX,21.803278688524593,NA,NA,NA,NA
79930,El Paso County,TX,NA,53.666666666666664,NA,NA,NA
79934,El Paso County,TX,NA,NA,NA,NA,96.93548387096774
84003,Utah County,UT,63.278688524590166,NA,NA,NA,65.96774193548387
84041,Davis County,UT,NA,NA,37.6497005988024,NA,NA
84043,Utah County,UT,18.19672131147541,NA,45.58383233532935,NA,NA
84045,Utah County,UT,NA,NA,NA,NA,96.45161290322581
84057,Utah County,UT,54.75409836065573,NA,66.76646706586826,NA,NA
84062,Utah County,UT,NA,NA,NA,71.47887323943662,NA
84067,Weber County,UT,NA,NA,NA,64.08450704225352,NA
84074,Tooele County,UT,NA,NA,2.9940119760479043,NA,NA
84078,Uintah County,UT,NA,77.33333333333333,NA,NA,72.74193548387096
84088,Salt Lake County,UT,NA,NA,NA,NA,75.96774193548387
84095,Salt Lake County,UT,NA,NA,41.01796407185629,NA,NA
84096,Salt Lake County,UT,NA,NA,28.143712574850298,NA,NA
84097,Utah County,UT,NA,NA,NA,89.90610328638498,NA
84105,Salt Lake County,UT,78.85245901639344,NA,NA,NA,NA
84108,Salt Lake County,UT,NA,NA,NA,58.80281690140845,NA
84109,Salt Lake County,UT,70.65573770491802,NA,NA,NA,NA
84111,Salt Lake County,UT,NA,NA,NA,85.68075117370893,NA
84116,Salt Lake County,UT,46.39344262295082,NA,NA,NA,48.064516129032256
84117,Salt Lake County,UT,NA,NA,NA,70.65727699530517,NA
84119,Salt Lake County,UT,NA,NA,NA,41.901408450704224,NA
84129,,UT,31.147540983606557,NA,NA,NA,NA
84501,Carbon County,UT,NA,NA,NA,84.27230046948357,NA
84532,Grand County,UT,NA,NA,NA,NA,85.16129032258064
84601,Utah County,UT,NA,NA,71.9311377245509,NA,NA
84701,Sevier County,UT,NA,NA,92.66467065868264,NA,NA
84721,Iron County,UT,NA,NA,66.01796407185628,NA,NA
84738,Washington County,UT,NA,NA,94.98502994011976,NA,NA
84770,Washington County,UT,NA,NA,NA,30.985915492957744,NA
05101,Windham County,VT,NA,NA,NA,91.54929577464789,NA
05401,Chittenden County,VT,51.80327868852459,NA,NA,NA,NA
05403,Chittenden County,VT,77.8688524590164,NA,NA,NA,NA
05445,Chittenden County,VT,NA,NA,99.10179640718563,NA,NA
05478,Franklin County,VT,NA,NA,NA,36.502347417840376,NA
05495,Chittenden County,VT,NA,NA,97.0059880239521,NA,NA
05602,Washington County,VT,NA,NA,64.29640718562875,NA,NA
05641,Washington County,VT,NA,NA,33.75748502994012,NA,NA
05661,Lamoille County,VT,95.24590163934427,NA,NA,NA,NA
05676,Washington County,VT,NA,NA,92.66467065868264,NA,NA
05701,Rutland County,VT,NA,NA,83.30838323353294,11.854460093896714,NA
05819,Caledonia County,VT,NA,NA,NA,77.69953051643192,NA
20110,Manassas city,VA,11.80327868852459,NA,NA,NA,NA
20112,Prince William County,VA,68.0327868852459,NA,NA,80.51643192488262,NA
20147,Loudoun County,VA,NA,NA,NA,60.44600938967136,NA
20148,Loudoun County,VA,NA,NA,60.17964071856288,NA,NA
20152,Loudoun County,VA,NA,NA,77.47005988023952,NA,NA
20155,Prince William County,VA,NA,NA,NA,NA,53.87096774193548
20176,Loudoun County,VA,69.67213114754098,NA,NA,88.14553990610328,NA
20194,Fairfax County,VA,NA,NA,NA,NA,94.19354838709677
22015,Fairfax County,VA,NA,NA,53.517964071856284,NA,56.451612903225815
22025,Prince William County,VA,88.68852459016394,NA,NA,NA,NA
22030,Fairfax County,VA,NA,NA,31.66167664670659,NA,NA
22042,Fairfax County,VA,NA,NA,NA,80.39906103286386,NA
22043,Fairfax County,VA,NA,NA,NA,NA,88.38709677419355
22044,Fairfax County,VA,66.22950819672131,NA,NA,NA,NA
22066,Fairfax County,VA,NA,NA,NA,NA,85
22102,Fairfax County,VA,NA,NA,NA,NA,81.12903225806451
22151,Fairfax County,VA,NA,NA,NA,87.67605633802818,NA
22152,Fairfax County,VA,NA,NA,57.85928143712575,NA,NA
22180,Fairfax County,VA,NA,NA,NA,NA,66.12903225806451
22191,Prince William County,VA,6.885245901639345,NA,NA,NA,NA
22207,Arlington County,VA,NA,NA,54.64071856287425,NA,NA
22309,Fairfax County,VA,NA,NA,27.76946107784431,NA,62.74193548387097
22312,Fairfax County,VA,NA,NA,NA,NA,89.51612903225806
22314,Alexandria city,VA,NA,NA,NA,55.516431924882625,NA
22315,Fairfax County,VA,55.57377049180327,NA,NA,NA,NA
22655,Frederick County,VA,NA,NA,60.62874251497006,NA,NA
22712,Fauquier County,VA,81.47540983606557,NA,NA,NA,NA
22802,Harrisonburg city,VA,24.42622950819672,NA,NA,NA,NA
22815,Rockingham County,VA,NA,NA,NA,NA,57.096774193548384
22827,Rockingham County,VA,NA,NA,NA,72.65258215962442,NA
22849,Page County,VA,75.24590163934425,NA,94.76047904191617,NA,NA
22932,Albemarle County,VA,NA,NA,NA,90.3755868544601,NA
22936,Albemarle County,VA,NA,NA,NA,99.29577464788733,NA
22942,Louisa County,VA,NA,NA,81.58682634730539,NA,NA
22968,Greene County,VA,NA,NA,NA,74.76525821596243,NA
22980,Waynesboro city,VA,NA,NA,7.559880239520958,NA,NA
23002,Amelia County,VA,NA,NA,85.40419161676647,NA,NA
23059,Henrico County,VA,61.47540983606557,NA,NA,NA,NA
23111,Hanover County,VA,NA,38.333333333333336,NA,NA,NA
23141,New Kent County,VA,NA,NA,96.55688622754491,NA,NA
23150,Henrico County,VA,NA,69.33333333333334,77.02095808383234,NA,NA
23185,James City County,VA,NA,NA,NA,3.755868544600939,NA
23188,James City County,VA,NA,NA,NA,NA,0.8064516129032258
23220,Richmond city,VA,NA,NA,63.622754491017965,NA,NA
23223,Henrico County,VA,NA,62,NA,NA,NA
23225,Richmond city,VA,NA,NA,NA,22.769953051643192,NA
23227,Henrico County,VA,NA,NA,43.11377245508982,NA,NA
23228,Henrico County,VA,NA,NA,NA,37.67605633802817,25.322580645161292
23235,Chesterfield County,VA,NA,NA,56.43712574850299,NA,NA
23237,Chesterfield County,VA,NA,NA,47.67964071856288,NA,NA
23238,Henrico County,VA,NA,65.66666666666666,NA,NA,NA
23321,Chesapeake city,VA,NA,20.666666666666668,NA,NA,22.096774193548388
23322,Chesapeake city,VA,NA,NA,NA,25,NA
23430,Isle of Wight County,VA,NA,NA,88.69760479041916,NA,NA
23434,Suffolk city,VA,21.147540983606557,NA,NA,NA,NA
23451,Virginia Beach city,VA,NA,NA,41.09281437125748,16.784037558685448,NA
23452,Virginia Beach city,VA,NA,NA,22.15568862275449,NA,NA
23487,Isle of Wight County,VA,NA,NA,NA,NA,98.70967741935483
23503,Norfolk city,VA,NA,NA,47.82934131736527,NA,NA
23508,Norfolk city,VA,NA,NA,NA,68.7793427230047,NA
23518,Norfolk city,VA,NA,NA,NA,69.60093896713614,NA
23601,Newport News city,VA,NA,30.333333333333336,NA,NA,NA
23602,Newport News city,VA,16.885245901639344,NA,30.688622754491018,NA,NA
23693,York County,VA,NA,NA,NA,NA,68.2258064516129
23832,Chesterfield County,VA,NA,NA,45.808383233532936,81.8075117370892,NA
23836,Chesterfield County,VA,80.49180327868852,NA,NA,NA,NA
23851,Franklin city,VA,61.47540983606557,NA,NA,NA,NA
23901,Prince Edward County,VA,NA,NA,NA,NA,64.35483870967742
24017,Roanoke city,VA,NA,NA,25.37425149700599,NA,NA
24018,Roanoke County,VA,NA,NA,48.278443113772454,NA,NA
24019,Roanoke County,VA,NA,NA,NA,29.929577464788732,NA
24065,Franklin County,VA,NA,NA,99.17664670658682,NA,NA
24073,Montgomery County,VA,NA,NA,NA,57.3943661971831,NA
24112,Henry County,VA,NA,NA,NA,NA,30.161290322580648
24124,Giles County,VA,72.45901639344262,NA,NA,NA,NA
24153,Salem city,VA,33.278688524590166,NA,35.47904191616767,NA,19.193548387096772
24179,Roanoke County,VA,69.18032786885246,NA,NA,NA,NA
24210,Washington County,VA,NA,NA,36.67664670658682,NA,NA
24216,Wise County,VA,NA,57.666666666666664,NA,NA,NA
24219,Wise County,VA,NA,NA,41.39221556886227,NA,NA
24251,Scott County,VA,NA,NA,83.23353293413174,NA,NA
24277,Lee County,VA,NA,NA,92.21556886227546,NA,NA
24293,Wise County,VA,64.59016393442623,NA,NA,NA,NA
24319,Smyth County,VA,NA,NA,94.23652694610777,NA,NA
24354,Smyth County,VA,NA,NA,41.691616766467064,NA,NA
24370,Smyth County,VA,NA,NA,79.64071856287424,NA,NA
24401,Staunton city,VA,NA,NA,NA,NA,6.451612903225806
24450,Rockbridge County,VA,NA,NA,74.77544910179641,NA,NA
24477,Augusta County,VA,NA,NA,61.67664670658682,53.52112676056338,NA
24502,Lynchburg city,VA,NA,NA,NA,50.23474178403756,NA
24540,Danville city,VA,NA,NA,28.592814371257486,NA,NA
24541,Danville city,VA,NA,NA,36.377245508982035,35.2112676056338,NA
24558,Halifax County,VA,NA,NA,96.3323353293413,NA,NA
24563,Pittsylvania County,VA,89.01639344262296,NA,NA,NA,NA
24592,Halifax County,VA,NA,NA,30.464071856287422,37.32394366197183,NA
98001,King County,WA,47.868852459016395,NA,NA,NA,NA
98002,King County,WA,NA,NA,36.15269461077844,NA,NA
98005,King County,WA,NA,NA,NA,NA,50.32258064516129
98012,Snohomish County,WA,9.01639344262295,NA,NA,NA,NA
98020,Snohomish County,WA,79.01639344262294,NA,NA,NA,NA
98022,King County,WA,66.55737704918033,NA,61.452095808383234,NA,NA
98023,King County,WA,10.491803278688524,NA,NA,NA,NA
98031,King County,WA,NA,NA,NA,NA,45.322580645161295
98034,King County,WA,NA,NA,NA,NA,32.58064516129032
98036,Snohomish County,WA,NA,83.33333333333334,NA,NA,NA
98038,King County,WA,NA,71.66666666666667,NA,NA,NA
98052,King County,WA,NA,NA,NA,NA,17.741935483870968
98056,King County,WA,NA,NA,57.70958083832335,NA,NA
98075,King County,WA,NA,NA,79.71556886227546,NA,NA
98092,King County,WA,NA,NA,25,NA,33.87096774193548
98104,King County,WA,NA,NA,46.8562874251497,NA,NA
98106,King County,WA,NA,NA,NA,NA,90.64516129032259
98108,King County,WA,NA,NA,NA,68.66197183098592,NA
98121,King County,WA,NA,NA,NA,70.30516431924883,NA
98122,King County,WA,NA,NA,59.955089820359284,NA,NA
98125,King County,WA,NA,79,NA,NA,NA
98155,King County,WA,NA,NA,75.82335329341318,NA,NA
98166,King County,WA,NA,NA,79.26646706586826,NA,NA
98198,King County,WA,NA,NA,NA,31.338028169014088,NA
98203,Snohomish County,WA,NA,NA,NA,NA,67.41935483870968
98208,Snohomish County,WA,19.836065573770494,NA,NA,NA,NA
98223,Snohomish County,WA,NA,NA,25.22455089820359,59.38967136150235,NA
98273,Skagit County,WA,NA,NA,NA,17.018779342723008,NA
98284,Skagit County,WA,NA,NA,NA,NA,19.35483870967742
98359,Kitsap County,WA,NA,NA,NA,96.0093896713615,NA
98360,Pierce County,WA,NA,NA,NA,87.91079812206573,NA
98374,Pierce County,WA,NA,NA,86.07784431137725,NA,NA
98375,Pierce County,WA,33.9344262295082,NA,NA,NA,NA
98382,Clallam County,WA,NA,NA,NA,NA,1.6129032258064515
98387,Pierce County,WA,NA,56.333333333333336,23.42814371257485,NA,NA
98391,Pierce County,WA,33.278688524590166,82.66666666666667,NA,NA,NA
98405,Pierce County,WA,NA,NA,33.38323353293413,NA,NA
98407,Pierce County,WA,NA,NA,69.311377245509,51.525821596244135,NA
98501,Thurston County,WA,NA,NA,67.21556886227546,NA,NA
98512,Thurston County,WA,NA,NA,NA,NA,67.58064516129032
98513,Thurston County,WA,NA,NA,74.02694610778443,NA,NA
98532,Lewis County,WA,NA,87.33333333333333,NA,NA,NA
98550,Grays Harbor County,WA,NA,69.66666666666667,NA,NA,NA
98577,Pacific County,WA,NA,NA,NA,81.92488262910797,NA
98801,Chelan County,WA,NA,NA,24.625748502994014,8.568075117370892,NA
98802,Douglas County,WA,NA,NA,NA,NA,20.483870967741936
98901,Yakima County,WA,NA,NA,57.41017964071856,NA,NA
98902,Yakima County,WA,NA,NA,28.892215568862273,NA,NA
98930,Yakima County,WA,NA,68.33333333333333,NA,NA,NA
98942,Yakima County,WA,NA,NA,NA,NA,79.83870967741935
99114,Stevens County,WA,NA,NA,79.34131736526946,NA,NA
99141,Stevens County,WA,NA,NA,NA,91.78403755868545,NA
99163,Whitman County,WA,70.65573770491802,NA,NA,NA,NA
99203,Spokane County,WA,NA,NA,83.38323353293413,NA,NA
99207,Spokane County,WA,NA,NA,51.721556886227546,NA,NA
99208,Spokane County,WA,NA,NA,NA,NA,11.774193548387096
99212,Spokane County,WA,NA,93,NA,NA,NA
99301,Franklin County,WA,NA,NA,NA,7.276995305164319,NA
99320,Benton County,WA,NA,NA,86.45209580838323,NA,NA
99326,Franklin County,WA,95.40983606557377,NA,NA,NA,NA
99336,Benton County,WA,NA,NA,NA,1.5258215962441315,NA
99337,Benton County,WA,NA,NA,27.245508982035926,NA,NA
99352,Benton County,WA,NA,NA,42.44011976047904,NA,4.193548387096775
99354,Benton County,WA,25.901639344262296,NA,NA,NA,NA
99362,Walla Walla County,WA,NA,NA,26.94610778443114,NA,NA
20001,District of Columbia,DC,NA,NA,55.08982035928144,NA,36.29032258064516
20002,District of Columbia,DC,NA,NA,25.59880239520958,NA,NA
20009,District of Columbia,DC,NA,NA,NA,NA,73.22580645161291
20010,District of Columbia,DC,NA,NA,54.49101796407185,52.816901408450704,NA
20011,District of Columbia,DC,NA,NA,33.532934131736525,NA,NA
20016,District of Columbia,DC,NA,NA,NA,55.98591549295775,NA
20018,District of Columbia,DC,NA,51.33333333333333,NA,27.93427230046948,NA
20019,District of Columbia,DC,NA,NA,2.844311377245509,NA,NA
20020,District of Columbia,DC,NA,NA,14.071856287425149,NA,NA
24740,Mercer County,WV,NA,NA,NA,NA,47.58064516129033
24870,Wyoming County,WV,NA,98.33333333333333,NA,NA,NA
25043,Clay County,WV,NA,NA,97.15568862275448,NA,NA
25053,Boone County,WV,NA,NA,NA,90.96244131455398,NA
25271,Jackson County,WV,NA,80,NA,NA,NA
25276,Roane County,WV,NA,NA,55.31437125748503,NA,72.09677419354838
25306,Kanawha County,WV,50.81967213114754,NA,NA,NA,NA
25311,Kanawha County,WV,NA,NA,69.98502994011976,64.55399061032864,NA
25314,Kanawha County,WV,NA,NA,NA,52.58215962441315,NA
25404,Berkeley County,WV,NA,NA,NA,43.544600938967136,NA
25443,Jefferson County,WV,NA,NA,NA,89.55399061032864,NA
25504,Cabell County,WV,NA,NA,82.78443113772454,NA,NA
25506,Lincoln County,WV,97.70491803278688,NA,NA,NA,NA
25550,Mason County,WV,NA,NA,NA,NA,72.41935483870968
25570,Wayne County,WV,NA,NA,72.67964071856288,NA,NA
25701,Cabell County,WV,NA,55.00000000000001,15.269461077844312,17.6056338028169,26.7741935483871
25704,Wayne County,WV,NA,NA,NA,39.906103286384976,47.74193548387097
25705,Cabell County,WV,NA,NA,NA,60.68075117370893,NA
25801,Raleigh County,WV,NA,NA,12.425149700598801,11.502347417840376,NA
25901,Fayette County,WV,NA,86.33333333333333,46.63173652694611,NA,82.9032258064516
26003,Ohio County,WV,NA,NA,4.191616766467066,NA,NA
26041,Marshall County,WV,NA,65.66666666666666,NA,NA,NA
26062,Hancock County,WV,NA,NA,39.82035928143712,NA,NA
26101,Wood County,WV,NA,NA,59.3562874251497,NA,NA
26104,Wood County,WV,NA,55.666666666666664,NA,62.91079812206573,NA
26170,Pleasants County,WV,NA,NA,90.4940119760479,NA,NA
26181,Wood County,WV,NA,NA,NA,NA,85.48387096774194
26201,Upshur County,WV,NA,19,NA,NA,17.258064516129032
26241,Randolph County,WV,NA,NA,32.48502994011976,NA,NA
26301,Harrison County,WV,NA,NA,72.45508982035929,12.55868544600939,NA
26416,Barbour County,WV,NA,NA,76.04790419161677,NA,NA
26501,Monongalia County,WV,NA,NA,17.21556886227545,NA,NA
26505,Monongalia County,WV,NA,NA,8.682634730538922,NA,NA
26508,Monongalia County,WV,NA,NA,3.817365269461078,NA,NA
26537,Preston County,WV,NA,NA,58.982035928143716,NA,NA
26554,Marion County,WV,13.934426229508196,NA,NA,37.08920187793427,NA
26582,Marion County,WV,NA,96.33333333333334,NA,NA,NA
26601,Braxton County,WV,NA,NA,94.68562874251496,NA,NA
26757,Hampshire County,WV,NA,NA,87.72455089820359,NA,NA
53022,Washington County,WI,NA,NA,NA,NA,56.29032258064516
53029,Waukesha County,WI,NA,NA,NA,82.86384976525821,NA
53083,Sheboygan County,WI,NA,NA,NA,62.08920187793427,NA
53092,Ozaukee County,WI,NA,NA,NA,95.77464788732394,50.483870967741936
53115,Walworth County,WI,NA,NA,49.8502994011976,NA,NA
53140,Kenosha County,WI,NA,NA,39.74550898203593,NA,NA
53142,Kenosha County,WI,NA,NA,8.982035928143713,22.652582159624412,NA
53144,Kenosha County,WI,NA,NA,48.20359281437126,NA,NA
53158,Kenosha County,WI,NA,NA,20.059880239520957,NA,NA
53179,Kenosha County,WI,NA,NA,66.76646706586826,NA,NA
53186,Waukesha County,WI,NA,NA,28.517964071856287,NA,32.41935483870968
53202,Milwaukee County,WI,NA,NA,NA,48.82629107981221,NA
53205,Milwaukee County,WI,29.67213114754098,NA,2.020958083832335,NA,NA
53209,Milwaukee County,WI,NA,NA,NA,NA,61.935483870967744
53210,Milwaukee County,WI,NA,17.333333333333336,NA,NA,NA
53211,Milwaukee County,WI,NA,NA,NA,NA,9.67741935483871
53215,Milwaukee County,WI,2.2950819672131146,NA,NA,3.873239436619718,NA
53216,Milwaukee County,WI,NA,12,NA,NA,NA
53219,Milwaukee County,WI,NA,25.666666666666664,NA,NA,NA
53224,Milwaukee County,WI,NA,NA,69.38622754491018,56.57276995305164,NA
53402,Racine County,WI,NA,NA,26.57185628742515,2.3474178403755865,1.935483870967742
53405,Racine County,WI,NA,NA,81.062874251497007,NA,NA
53406,Racine County,WI,50.65573770491804,NA,NA,2.112676056338028,NA
53511,Rock County,WI,NA,NA,NA,NA,3.064516129032258
53520,Green County,WI,79.18032786885246,NA,NA,NA,NA
53538,Jefferson County,WI,NA,NA,51.047904191616766,NA,NA
53545,Rock County,WI,NA,NA,NA,NA,52.58064516129032
53546,Rock County,WI,NA,NA,16.691616766467064,NA,NA
53581,Richland County,WI,NA,NA,NA,83.92018779342723,NA
53589,Dane County,WI,NA,NA,NA,39.55399061032864,NA
53703,Dane County,WI,NA,NA,NA,NA,91.61290322580645
53704,Dane County,WI,NA,NA,10.254491017964073,NA,NA
53705,Dane County,WI,64.26229508196721,NA,NA,NA,NA
53713,Dane County,WI,NA,NA,NA,NA,40.483870967741936
53714,Dane County,WI,NA,NA,NA,NA,68.38709677419355
53718,Dane County,WI,NA,NA,NA,NA,66.61290322580645
53719,Dane County,WI,NA,NA,NA,NA,58.70967741935483
53901,Columbia County,WI,NA,NA,NA,NA,47.096774193548384
53913,Sauk County,WI,NA,NA,38.92215568862276,NA,NA
53916,Dodge County,WI,NA,NA,42.66467065868264,NA,NA
53959,Sauk County,WI,NA,NA,NA,NA,54.677419354838705
53963,Dodge County,WI,NA,NA,NA,NA,83.70967741935483
54002,St. Croix County,WI,NA,NA,NA,NA,85.3225806451613
54114,Marinette County,WI,98.36065573770492,NA,93.11377245508982,NA,NA
54143,Marinette County,WI,NA,NA,NA,NA,41.774193548387096
54302,Brown County,WI,NA,NA,26.646706586826348,NA,NA
54304,Brown County,WI,NA,NA,NA,50.93896713615024,NA
54409,Langlade County,WI,NA,NA,38.69760479041916,NA,NA
54426,Marathon County,WI,98.36065573770492,NA,NA,NA,NA
54449,Wood County,WI,NA,NA,72.97904191616766,NA,NA
54452,Lincoln County,WI,62.95081967213115,NA,NA,NA,NA
54487,Lincoln County,WI,NA,NA,NA,46.244131455399064,NA
54494,Wood County,WI,NA,NA,31.811377245508982,NA,NA
54552,Price County,WI,NA,NA,NA,NA,77.25806451612904
54601,La Crosse County,WI,27.049180327868854,NA,NA,NA,NA
54603,La Crosse County,WI,NA,NA,80.98802395209582,NA,NA
54615,Jackson County,WI,NA,NA,NA,80.28169014084507,NA
54636,La Crosse County,WI,NA,NA,NA,54.929577464788736,NA
54650,La Crosse County,WI,NA,NA,NA,NA,23.70967741935484
54660,Monroe County,WI,53.77049180327869,NA,NA,NA,NA
54701,Eau Claire County,WI,NA,NA,NA,NA,35.483870967741936
54703,Eau Claire County,WI,NA,NA,NA,NA,36.935483870967744
54729,Chippewa County,WI,26.721311475409838,NA,34.05688622754491,NA,NA
54801,Washburn County,WI,NA,NA,NA,NA,92.58064516129032
54853,Polk County,WI,NA,NA,NA,82.15962441314554,NA
54880,Douglas County,WI,NA,NA,13.997005988023952,3.5211267605633805,NA
54901,Winnebago County,WI,NA,NA,28.218562874251496,NA,NA
54913,Outagamie County,WI,71.47540983606558,NA,NA,NA,NA
54914,Outagamie County,WI,31.967213114754102,NA,NA,NA,NA
54923,Green Lake County,WI,NA,NA,91.1676646706587,NA,NA
54952,Winnebago County,WI,NA,NA,NA,41.66666666666667,NA
54956,Winnebago County,WI,NA,NA,27.095808383233532,NA,NA
54963,Winnebago County,WI,NA,NA,NA,90.61032863849765,NA
54981,Waupaca County,WI,NA,NA,NA,50.82159624413145,NA
54983,Waupaca County,WI,NA,NA,NA,NA,98.54838709677419
82604,Natrona County,WY,NA,NA,NA,NA,83.22580645161291
82716,Campbell County,WY,NA,NA,69.46107784431138,NA,NA
82801,Sheridan County,WY,NA,NA,NA,NA,32.09677419354839
82901,Sweetwater County,WY,42.950819672131146,NA,NA,NA,NA
