ZipCode,county,state,Adult,Retirement,Geriatric
35803,Madison County,AL,NA,NA,33.78016085790885
36541,Mobile County,AL,87.83269961977186,NA,NA
85007,Maricopa County,AZ,NA,NA,96.51474530831099
85015,Maricopa County,AZ,30.798479087452474,NA,NA
85023,Maricopa County,AZ,73.00380228136882,NA,NA
85041,Maricopa County,AZ,NA,NA,90.0804289544236
85050,Maricopa County,AZ,NA,86.36363636363636,NA
85283,Maricopa County,AZ,29.65779467680608,NA,NA
85349,Yuma County,AZ,NA,NA,67.828418230563
85361,Maricopa County,AZ,97.71863117870723,NA,NA
85364,Yuma County,AZ,NA,5.263157894736842,NA
85383,Maricopa County,AZ,NA,75.11961722488039,NA
85713,Pima County,AZ,44.106463878327,NA,NA
86033,Navajo County,AZ,91.25475285171103,NA,NA
86505,Apache County,AZ,NA,NA,61.3941018766756
71953,Polk County,AR,NA,NA,41.01876675603217
72120,Pulaski County,AR,NA,23.444976076555022,NA
72204,Pulaski County,AR,NA,NA,45.0402144772118
72211,Pulaski County,AR,NA,97.36842105263158,NA
72212,Pulaski County,AR,NA,69.85645933014354,NA
72223,Pulaski County,AR,NA,NA,50.93833780160858
72227,Pulaski County,AR,NA,88.99521531100478,NA
72921,Crawford County,AR,NA,83.25358851674642,NA
90013,Los Angeles County,CA,NA,NA,95.97855227882037
90240,Los Angeles County,CA,NA,NA,83.91420911528151
90242,Los Angeles County,CA,NA,62.67942583732058,NA
90604,Los Angeles County,CA,NA,95.21531100478468,NA
90660,Los Angeles County,CA,42.20532319391635,NA,NA
91311,Los Angeles County,CA,67.30038022813687,NA,NA
91325,Los Angeles County,CA,87.07224334600761,NA,NA
91351,Los Angeles County,CA,77.56653992395437,NA,NA
91770,Los Angeles County,CA,64.63878326996198,NA,NA
92130,San Diego County,CA,77.18631178707224,NA,NA
92262,Riverside County,CA,NA,16.507177033492823,NA
92335,San Bernardino County,CA,19.771863117870723,NA,NA
92336,San Bernardino County,CA,20.53231939163498,NA,NA
92345,San Bernardino County,CA,21.292775665399237,NA,NA
92553,Riverside County,CA,39.543726235741445,NA,NA
92571,Riverside County,CA,53.61216730038023,NA,NA
92612,Orange County,CA,NA,86.60287081339713,56.03217158176944
92614,Orange County,CA,NA,66.74641148325358,NA
92620,Orange County,CA,NA,49.52153110047847,NA
92625,Orange County,CA,NA,NA,53.08310991957105
92626,Orange County,CA,57.03422053231939,NA,NA
92629,Orange County,CA,NA,48.5645933014354,NA
92647,Orange County,CA,33.460076045627375,NA,NA
92672,Orange County,CA,NA,NA,77.7479892761394
92673,Orange County,CA,NA,70.33492822966507,NA
92707,Orange County,CA,NA,57.41626794258373,NA
92866,Orange County,CA,NA,NA,76.13941018766755
92883,Riverside County,CA,NA,95.93301435406698,NA
93012,Ventura County,CA,NA,NA,31.903485254691688
93030,Ventura County,CA,27.756653992395435,NA,NA
93036,Ventura County,CA,46.38783269961977,NA,NA
93305,Kern County,CA,56.27376425855514,NA,NA
93420,San Luis Obispo County,CA,79.84790874524715,NA,NA
93722,Fresno County,CA,NA,NA,39.67828418230563
94041,Santa Clara County,CA,NA,91.86602870813397,NA
94043,Santa Clara County,CA,NA,NA,55.76407506702413
94044,San Mateo County,CA,NA,34.688995215311,NA
94063,San Mateo County,CA,NA,78.94736842105263,NA
94085,Santa Clara County,CA,NA,95.69377990430623,NA
94102,San Francisco County,CA,15.96958174904943,NA,NA
94103,San Francisco County,CA,NA,24.16267942583732,NA
94108,San Francisco County,CA,98.47908745247148,NA,NA
94109,San Francisco County,CA,NA,17.703349282296653,NA
94110,San Francisco County,CA,NA,13.397129186602871,NA
94111,San Francisco County,CA,99.61977186311786,NA,NA
94118,San Francisco County,CA,NA,NA,25.737265415549597
94122,San Francisco County,CA,NA,NA,8.310991957104557
94123,San Francisco County,CA,NA,NA,60.05361930294906
94134,San Francisco County,CA,NA,66.98564593301435,NA
94303,San Mateo County,CA,41.06463878326996,NA,NA
94403,San Mateo County,CA,NA,NA,16.0857908847185
94501,Alameda County,CA,51.71102661596958,NA,NA
94533,Solano County,CA,NA,31.57894736842105,NA
94534,Solano County,CA,NA,NA,89.54423592493298
94538,Alameda County,CA,NA,NA,58.98123324396782
94560,Alameda County,CA,NA,NA,45.84450402144772
95020,Santa Clara County,CA,77.9467680608365,NA,NA
95033,Santa Cruz County,CA,99.23954372623575,NA,NA
95065,Santa Cruz County,CA,NA,NA,98.39142091152814
95120,Santa Clara County,CA,NA,84.688995215311,NA
95121,Santa Clara County,CA,NA,62.20095693779905,NA
95131,Santa Clara County,CA,NA,NA,86.32707774798928
95133,Santa Clara County,CA,NA,93.54066985645933,NA
95367,Stanislaus County,CA,66.92015209125475,NA,NA
95482,Mendocino County,CA,NA,NA,39.946380697050934
95820,Sacramento County,CA,NA,46.889952153110045,NA
95835,Sacramento County,CA,NA,NA,51.474530831099194
95965,Butte County,CA,NA,37.08133971291866,NA
80002,Jefferson County,CO,NA,81.10047846889952,NA
80012,Arapahoe County,CO,NA,36.36363636363637,NA
80014,Arapahoe County,CO,NA,89.71291866028707,11.796246648793565
80016,Arapahoe County,CO,NA,24.880382775119617,NA
80017,Arapahoe County,CO,51.33079847908745,NA,NA
80023,Broomfield County,CO,NA,NA,95.97855227882037
80125,Douglas County,CO,NA,NA,100
80129,Douglas County,CO,NA,88.75598086124403,NA
80204,Denver County,CO,33.07984790874524,NA,NA
80211,Denver County,CO,NA,54.30622009569378,NA
80212,Denver County,CO,NA,74.16267942583733,NA
80214,Jefferson County,CO,55.13307984790875,NA,NA
80219,Denver County,CO,9.505703422053232,29.1866028708134,NA
80222,Denver County,CO,NA,83.73205741626795,NA
80223,Denver County,CO,NA,60.28708133971292,NA
80224,Denver County,CO,95.81749049429658,NA,NA
80226,Jefferson County,CO,NA,NA,65.95174262734585
80231,Denver County,CO,NA,65.55023923444976,NA
80236,Denver County,CO,NA,95.45454545454545,NA
80238,Denver County,CO,NA,NA,97.58713136729223
80239,Denver County,CO,NA,56.9377990430622,NA
80247,Arapahoe County,CO,NA,55.50239234449761,NA
80249,Denver County,CO,NA,79.42583732057416,NA
80620,Weld County,CO,60.07604562737643,NA,NA
80905,El Paso County,CO,78.70722433460075,NA,NA
06033,Hartford County,CT,NA,87.08133971291866,NA
06460,New Haven County,CT,NA,22.48803827751196,NA
06492,New Haven County,CT,NA,98.56459330143541,NA
06511,New Haven County,CT,7.604562737642586,NA,NA
06519,New Haven County,CT,35.361216730038024,NA,NA
19804,New Castle County,DE,NA,51.674641148325364,NA
19940,Sussex County,DE,NA,NA,99.46380697050938
32162,Sumter County,FL,NA,NA,24.128686327077748
32209,Duval County,FL,7.224334600760455,NA,NA
32277,Duval County,FL,NA,50.47846889952153,NA
32536,Okaloosa County,FL,NA,32.77511961722488,NA
32703,Orange County,FL,34.60076045627377,NA,NA
32738,Volusia County,FL,NA,43.54066985645933,NA
32807,Orange County,FL,61.59695817490495,NA,NA
32839,Orange County,FL,38.78326996197718,NA,NA
32907,Brevard County,FL,62.737642585551335,NA,NA
32966,Indian River County,FL,NA,85.4066985645933,NA
33004,Broward County,FL,NA,74.88038277511961,NA
33014,Miami-Dade County,FL,NA,94.01913875598086,NA
33016,Miami-Dade County,FL,NA,NA,27.882037533512065
33019,Broward County,FL,NA,NA,62.19839142091153
33021,Broward County,FL,NA,NA,7.238605898123325
33026,Broward County,FL,NA,63.63636363636363,NA
33029,Broward County,FL,NA,NA,81.76943699731903
33032,Miami-Dade County,FL,55.13307984790875,NA,NA
33054,Miami-Dade County,FL,NA,NA,73.45844504021449
33062,Broward County,FL,NA,34.92822966507177,NA
33069,Broward County,FL,79.46768060836501,NA,NA
33076,Broward County,FL,NA,71.5311004784689,NA
33125,Miami-Dade County,FL,NA,76.07655502392345,NA
33126,Miami-Dade County,FL,NA,50.95693779904307,NA
33132,Miami-Dade County,FL,98.85931558935361,NA,NA
33134,Miami-Dade County,FL,86.69201520912547,59.09090909090909,NA
33139,Miami-Dade County,FL,NA,NA,68.09651474530831
33140,Miami-Dade County,FL,88.212927756654,NA,26.273458445040216
33141,Miami-Dade County,FL,71.48288973384031,42.10526315789473,NA
33142,Miami-Dade County,FL,65.0190114068441,NA,58.17694369973191
33167,Miami-Dade County,FL,NA,93.77990430622009,NA
33169,Miami-Dade County,FL,NA,NA,63.53887399463807
33172,Miami-Dade County,FL,NA,NA,44.23592493297587
33173,Miami-Dade County,FL,NA,57.89473684210527,NA
33180,Miami-Dade County,FL,NA,81.3397129186603,NA
33181,Miami-Dade County,FL,88.97338403041825,NA,98.12332439678283
33182,Miami-Dade County,FL,NA,90.43062200956938,NA
33186,Miami-Dade County,FL,NA,NA,30.831099195710454
33308,Broward County,FL,NA,21.770334928229666,NA
33312,Broward County,FL,NA,NA,97.85522788203752
33327,Broward County,FL,NA,NA,91.15281501340483
33328,Broward County,FL,NA,NA,46.38069705093834
33458,Palm Beach County,FL,36.50190114068441,NA,NA
33477,Palm Beach County,FL,NA,80.86124401913875,NA
33525,Pasco County,FL,80.6083650190114,NA,NA
33774,Pinellas County,FL,NA,73.44497607655502,NA
33841,Polk County,FL,NA,98.08612440191388,NA
34223,Sarasota County,FL,NA,60.526315789473685,34.584450402144775
34285,Sarasota County,FL,NA,NA,16.621983914209114
34420,Marion County,FL,81.36882129277566,NA,NA
34475,Marion County,FL,76.42585551330798,NA,NA
34654,Pasco County,FL,NA,59.33014354066985,NA
34953,St. Lucie County,FL,NA,10.76555023923445,NA
30030,DeKalb County,GA,60.836501901140686,NA,NA
30033,DeKalb County,GA,NA,94.73684210526315,NA
30035,DeKalb County,GA,69.20152091254754,NA,NA
30058,DeKalb County,GA,NA,69.61722488038278,NA
30083,DeKalb County,GA,NA,39.473684210526315,NA
30093,Gwinnett County,GA,88.59315589353612,NA,NA
30141,Paulding County,GA,80.22813688212928,NA,NA
30306,Fulton County,GA,93.5361216730038,NA,NA
30310,Fulton County,GA,84.4106463878327,NA,52.01072386058981
30314,Fulton County,GA,59.31558935361216,52.39234449760766,93.8337801608579
30315,Fulton County,GA,NA,32.29665071770335,41.55495978552279
30317,DeKalb County,GA,NA,83.01435406698565,NA
30318,Fulton County,GA,42.585551330798474,NA,NA
30328,Fulton County,GA,NA,73.92344497607655,NA
30331,Fulton County,GA,28.89733840304182,NA,23.056300268096514
30338,DeKalb County,GA,NA,NA,38.069705093833775
30354,Fulton County,GA,78.32699619771863,NA,NA
30513,Fannin County,GA,86.31178707224335,NA,NA
96819,Honolulu County,HI,NA,NA,26.005361930294907
60002,Lake County,IL,72.6235741444867,NA,NA
60016,Cook County,IL,NA,16.985645933014354,NA
60018,Cook County,IL,NA,45.69377990430622,NA
60025,Cook County,IL,NA,36.124401913875595,30.563002680965145
60035,Lake County,IL,NA,20.095693779904305,NA
60044,Lake County,IL,NA,90.19138755980862,NA
60047,Lake County,IL,50.950570342205324,28.947368421052634,NA
60056,Cook County,IL,NA,21.291866028708135,NA
60062,Cook County,IL,52.851711026615966,8.61244019138756,NA
60077,Cook County,IL,NA,36.84210526315789,12.868632707774799
60090,Cook County,IL,NA,NA,21.715817694369974
60091,Cook County,IL,NA,28.708133971291865,NA
60101,DuPage County,IL,NA,63.1578947368421,22.78820375335121
60106,DuPage County,IL,NA,NA,37.26541554959786
60108,DuPage County,IL,70.72243346007605,NA,NA
60126,DuPage County,IL,NA,NA,6.702412868632708
60130,Cook County,IL,NA,NA,79.08847184986595
60155,Cook County,IL,88.97338403041825,NA,NA
60164,Cook County,IL,82.88973384030417,NA,NA
60177,Kane County,IL,69.96197718631178,NA,NA
60181,DuPage County,IL,NA,37.32057416267943,45.84450402144772
60191,DuPage County,IL,NA,NA,54.42359249329759
60193,Cook County,IL,NA,15.311004784688995,NA
60201,Cook County,IL,NA,NA,35.924932975871315
60302,Cook County,IL,NA,NA,55.49597855227882
60462,Cook County,IL,NA,9.569377990430622,NA
60475,Will County,IL,NA,87.5598086124402,NA
60513,Cook County,IL,NA,NA,62.466487935656836
60525,Cook County,IL,NA,20.574162679425836,NA
60561,DuPage County,IL,NA,71.77033492822966,34.048257372654156
60586,Will County,IL,26.61596958174905,NA,NA
60605,Cook County,IL,90.11406844106465,NA,63.00268096514745
60610,Cook County,IL,57.79467680608364,NA,NA
60611,Cook County,IL,NA,87.79904306220095,NA
60625,Cook County,IL,22.0532319391635,NA,NA
60632,Cook County,IL,25.09505703422053,NA,NA
60634,Cook County,IL,49.80988593155893,NA,11.26005361930295
60637,Cook County,IL,NA,19.85645933014354,NA
60651,Cook County,IL,17.490494296577946,45.45454545454545,20.37533512064343
60652,Cook County,IL,43.346007604562736,NA,NA
60653,Cook County,IL,45.247148288973385,NA,NA
60804,Cook County,IL,NA,20.334928229665074,NA
61021,Lee County,IL,NA,NA,44.50402144772118
61081,Whiteside County,IL,76.04562737642586,NA,5.361930294906166
61244,Rock Island County,IL,NA,77.51196172248804,NA
61270,Whiteside County,IL,NA,NA,89.81233243967829
61604,Peoria County,IL,NA,77.99043062200957,NA
61802,Champaign County,IL,NA,NA,89.00804289544236
61820,Champaign County,IL,NA,NA,95.44235924932975
61821,Champaign County,IL,NA,54.78468899521531,17.158176943699733
61822,Champaign County,IL,NA,83.97129186602871,60.32171581769437
61853,Champaign County,IL,NA,NA,70.24128686327077
61866,Champaign County,IL,NA,74.16267942583733,NA
61874,Champaign County,IL,NA,68.89952153110048,NA
62034,Madison County,IL,96.1977186311787,NA,NA
46176,Shelby County,IN,NA,NA,10.187667560321715
46203,Marion County,IN,NA,NA,68.63270777479893
46204,Marion County,IN,55.13307984790875,NA,NA
46205,Marion County,IN,50.19011406844106,NA,NA
46214,Marion County,IN,NA,81.57894736842105,NA
46219,Marion County,IN,NA,59.569377990430624,NA
46222,Marion County,IN,NA,NA,88.20375335120644
46227,Marion County,IN,NA,10.047846889952153,6.166219839142091
46229,Marion County,IN,NA,NA,42.0911528150134
46241,Marion County,IN,NA,93.30143540669856,NA
46304,Porter County,IN,NA,25.11961722488038,NA
46391,LaPorte County,IN,NA,98.80382775119617,NA
46615,St. Joseph County,IN,NA,79.18660287081339,NA
50313,Polk County,IA,NA,70.81339712918661,NA
50662,Fayette County,IA,NA,90.66985645933015,NA
50801,Union County,IA,NA,85.88516746411483,NA
52233,Linn County,IA,93.15589353612167,NA,NA
52240,Johnson County,IA,NA,78.70813397129187,30.831099195710454
52246,Johnson County,IA,NA,NA,84.71849865951742
52302,Linn County,IA,NA,NA,44.77211796246649
52317,Johnson County,IA,NA,78.4688995215311,NA
52402,Linn County,IA,NA,32.057416267942585,NA
52404,Linn County,IA,NA,23.923444976076556,NA
52501,Wapello County,IA,25.85551330798479,NA,NA
52544,Appanoose County,IA,56.27376425855514,NA,NA
52601,Des Moines County,IA,23.954372623574145,NA,18.766756032171582
52641,Henry County,IA,NA,NA,57.9088471849866
52722,Scott County,IA,NA,35.88516746411483,NA
52748,Scott County,IA,NA,94.49760765550239,NA
66720,Neosho County,KS,NA,80.38277511961722,NA
40324,Scott County,KY,NA,29.42583732057416,NA
42101,Warren County,KY,12.167300380228136,NA,NA
42320,Ohio County,KY,66.15969581749049,NA,NA
42718,Taylor County,KY,23.574144486692013,NA,NA
70002,Jefferson Parish,LA,NA,NA,38.337801608579085
70005,Jefferson Parish,LA,NA,NA,39.14209115281501
70094,Jefferson Parish,LA,9.885931558935361,NA,NA
70114,Orleans Parish,LA,NA,NA,63.00268096514745
70123,Jefferson Parish,LA,64.25855513307985,NA,NA
70125,Orleans Parish,LA,NA,NA,85.79088471849866
70301,Lafourche Parish,LA,NA,NA,53.61930294906166
70363,Terrebonne Parish,LA,NA,37.55980861244019,NA
70422,Tangipahoa Parish,LA,37.6425855513308,NA,NA
70431,St. Tammany Parish,LA,NA,75.35885167464114,NA
70447,St. Tammany Parish,LA,NA,NA,70.24128686327077
70458,St. Tammany Parish,LA,NA,NA,14.209115281501342
70460,St. Tammany Parish,LA,NA,NA,50.67024128686327
71040,Claiborne Parish,LA,NA,99.04306220095694,NA
71104,Caddo Parish,LA,NA,72.00956937799043,NA
71106,Caddo Parish,LA,NA,NA,54.95978552278821
71107,Caddo Parish,LA,NA,27.033492822966508,NA
71115,Caddo Parish,LA,NA,NA,42.35924932975871
04083,York County,ME,NA,93.0622009569378,NA
04090,York County,ME,75.66539923954373,NA,NA
04240,Androscoggin County,ME,3.4220532319391634,NA,NA
04401,Penobscot County,ME,3.041825095057034,NA,14.745308310991955
04412,Penobscot County,ME,NA,NA,90.61662198391421
04416,Hancock County,ME,NA,98.32535885167464,NA
04444,Penobscot County,ME,NA,NA,92.76139410187668
04457,Penobscot County,ME,NA,75.35885167464114,NA
04609,Hancock County,ME,NA,NA,85.25469168900804
04743,Aroostook County,ME,NA,NA,98.92761394101876
04841,Knox County,ME,NA,NA,58.4450402144772
04849,Waldo County,ME,NA,NA,75.60321715817693
20721,Prince George's County,MD,85.93155893536122,NA,59.24932975871313
20744,Prince George's County,MD,NA,45.933014354066984,NA
20817,Montgomery County,MD,NA,81.81818181818183,NA
21015,Harford County,MD,83.65019011406845,NA,NA
21029,Howard County,MD,NA,99.52153110047847,NA
21040,Harford County,MD,71.10266159695817,NA,NA
21093,Baltimore County,MD,NA,33.73205741626794,NA
21158,Carroll County,MD,NA,70.57416267942584,NA
21209,Baltimore County,MD,NA,88.99521531100478,NA
21212,Baltimore city,MD,54.752851711026615,NA,40.21447721179624
21215,Baltimore city,MD,15.5893536121673,NA,NA
21217,Baltimore city,MD,33.840304182509506,NA,NA
21221,Baltimore County,MD,NA,80.14354066985646,NA
21222,Baltimore County,MD,NA,NA,7.506702412868632
21223,Baltimore city,MD,NA,82.77511961722487,NA
21228,Baltimore County,MD,NA,17.942583732057415,NA
21234,Baltimore County,MD,27.376425855513308,NA,NA
21237,Baltimore County,MD,NA,58.133971291866025,NA
21244,Baltimore County,MD,58.935361216730044,NA,NA
01109,Hampden County,MA,0.38022813688212925,NA,NA
01450,Middlesex County,MA,NA,NA,88.47184986595174
01550,Worcester County,MA,17.110266159695815,NA,NA
01604,Worcester County,MA,NA,76.31578947368422,NA
01701,Middlesex County,MA,NA,NA,10.723860589812332
01730,Middlesex County,MA,NA,NA,21.983914209115284
01742,Middlesex County,MA,NA,44.49760765550239,NA
01773,Middlesex County,MA,NA,NA,99.19571045576407
01801,Middlesex County,MA,NA,1.674641148325359,1.876675603217158
01803,Middlesex County,MA,NA,7.4162679425837315,4.021447721179625
01810,Essex County,MA,NA,22.727272727272727,NA
01821,Middlesex County,MA,NA,2.8708133971291865,11.528150134048257
01824,Middlesex County,MA,NA,10.526315789473683,NA
01832,Essex County,MA,30.418250950570343,16.028708133971293,NA
01864,Middlesex County,MA,NA,NA,64.6112600536193
01867,Middlesex County,MA,NA,15.07177033492823,NA
01880,Middlesex County,MA,NA,NA,17.426273458445042
01886,Middlesex County,MA,34.22053231939163,72.24880382775119,NA
01887,Middlesex County,MA,NA,27.27272727272727,NA
01890,Middlesex County,MA,NA,38.995215311004785,NA
01906,Essex County,MA,NA,NA,8.847184986595174
01907,Essex County,MA,NA,NA,22.5201072386059
01913,Essex County,MA,37.26235741444867,NA,NA
01915,Essex County,MA,NA,NA,1.0723860589812333
01921,Essex County,MA,NA,90.9090909090909,NA
01923,Essex County,MA,6.4638783269961975,9.808612440191387,3.485254691689008
01938,Essex County,MA,NA,56.45933014354066,NA
01945,Essex County,MA,NA,NA,32.43967828418231
01952,Essex County,MA,NA,63.397129186602875,NA
01960,Essex County,MA,NA,NA,0
01970,Essex County,MA,NA,NA,9.115281501340483
01985,Essex County,MA,94.67680608365019,NA,NA
02026,Norfolk County,MA,7.984790874524715,NA,NA
02043,Plymouth County,MA,NA,97.84688995215312,NA
02045,Plymouth County,MA,NA,94.25837320574163,NA
02072,Norfolk County,MA,NA,NA,15.013404825737265
02111,Suffolk County,MA,NA,NA,69.43699731903486
02114,Suffolk County,MA,NA,45.21531100478469,NA
02115,Suffolk County,MA,NA,NA,50.134048257372655
02116,Suffolk County,MA,NA,NA,54.6916890080429
02118,Suffolk County,MA,NA,26.794258373205743,57.10455764075068
02120,Suffolk County,MA,70.34220532319392,NA,NA
02122,Suffolk County,MA,NA,NA,13.941018766756033
02124,Suffolk County,MA,NA,0.23923444976076555,33.51206434316354
02125,Suffolk County,MA,NA,18.421052631578945,12.600536193029491
02127,Suffolk County,MA,20.912547528517113,12.679425837320574,16.353887399463808
02128,Suffolk County,MA,NA,2.15311004784689,NA
02129,Suffolk County,MA,85.17110266159695,NA,47.72117962466488
02130,Suffolk County,MA,NA,NA,29.49061662198391
02131,Suffolk County,MA,NA,7.894736842105263,NA
02135,Suffolk County,MA,NA,47.60765550239234,69.70509383378017
02136,Suffolk County,MA,NA,8.133971291866029,NA
02139,Middlesex County,MA,4.942965779467681,NA,NA
02140,Middlesex County,MA,NA,NA,29.2225201072386
02143,Middlesex County,MA,NA,NA,74.53083109919572
02145,Middlesex County,MA,8.365019011406844,NA,NA
02148,Middlesex County,MA,NA,5.502392344497608,52.27882037533512
02149,Middlesex County,MA,0.7604562737642585,NA,3.753351206434316
02150,Suffolk County,MA,NA,NA,6.434316353887399
02151,Suffolk County,MA,0,NA,NA
02152,Suffolk County,MA,NA,12.440191387559809,NA
02155,Middlesex County,MA,NA,0.9569377990430622,NA
02169,Norfolk County,MA,NA,0.7177033492822966,0.8042895442359249
02170,Norfolk County,MA,NA,13.875598086124402,27.61394101876676
02171,Norfolk County,MA,NA,26.076555023923444,NA
02176,Middlesex County,MA,12.927756653992395,NA,18.498659517426276
02186,Norfolk County,MA,25.475285171102662,32.535885167464116,NA
02189,Norfolk County,MA,34.98098859315589,NA,NA
02332,Plymouth County,MA,NA,NA,82.30563002680965
02351,Plymouth County,MA,NA,31.100478468899524,NA
02359,Plymouth County,MA,NA,NA,82.03753351206434
02360,Plymouth County,MA,NA,NA,1.6085790884718498
02364,Plymouth County,MA,NA,67.94258373205741,NA
02368,Norfolk County,MA,NA,9.090909090909092,NA
02421,Middlesex County,MA,NA,76.55502392344498,18.230563002680967
02446,Norfolk County,MA,65.39923954372624,NA,NA
02451,Middlesex County,MA,NA,NA,60.58981233243968
02466,Middlesex County,MA,NA,NA,64.07506702412869
02467,Norfolk County,MA,63.11787072243346,84.92822966507177,NA
02472,Middlesex County,MA,12.547528517110266,NA,NA
02474,Middlesex County,MA,NA,NA,15.81769436997319
02703,Bristol County,MA,NA,1.4354066985645932,NA
02724,Bristol County,MA,NA,70.81339712918661,NA
02767,Bristol County,MA,36.88212927756654,NA,NA
02769,Bristol County,MA,NA,64.83253588516746,NA
02780,Bristol County,MA,NA,2.631578947368421,NA
48009,Oakland County,MI,65.77946768060836,NA,57.64075067024129
48033,Oakland County,MI,NA,39.71291866028708,NA
48034,Oakland County,MI,NA,85.64593301435407,NA
48035,Macomb County,MI,NA,14.5933014354067,NA
48036,Macomb County,MI,NA,34.21052631578947,NA
48045,Macomb County,MI,NA,22.248803827751196,NA
48067,Oakland County,MI,NA,49.282296650717704,NA
48075,Oakland County,MI,NA,38.27751196172249,NA
48076,Oakland County,MI,NA,33.25358851674641,NA
48080,Macomb County,MI,49.049429657794676,NA,NA
48083,Oakland County,MI,NA,67.22488038277513,NA
48092,Macomb County,MI,NA,NA,84.1823056300268
48103,Washtenaw County,MI,NA,20.813397129186605,2.680965147453083
48104,Washtenaw County,MI,NA,NA,84.45040214477211
48105,Washtenaw County,MI,NA,73.20574162679426,24.932975871313673
48108,Washtenaw County,MI,NA,38.038277511961724,65.14745308310992
48111,Wayne County,MI,11.787072243346007,39.952153110047846,NA
48116,Livingston County,MI,NA,NA,15.549597855227882
48118,Washtenaw County,MI,NA,40.909090909090914,NA
48124,Wayne County,MI,NA,65.07177033492823,NA
48127,Wayne County,MI,54.372623574144484,NA,9.383378016085791
48130,Washtenaw County,MI,NA,44.97607655502392,48.525469168900806
48135,Wayne County,MI,NA,NA,23.86058981233244
48146,Wayne County,MI,16.730038022813687,NA,NA
48152,Wayne County,MI,NA,58.61244019138756,42.62734584450402
48154,Wayne County,MI,36.12167300380228,11.722488038277511,NA
48160,Washtenaw County,MI,NA,NA,64.07506702412869
48162,Monroe County,MI,23.193916349809886,NA,NA
48165,Oakland County,MI,NA,91.14832535885168,78.55227882037534
48167,Oakland County,MI,53.2319391634981,NA,49.32975871313673
48170,Wayne County,MI,58.174904942965775,4.784688995215311,NA
48180,Wayne County,MI,NA,NA,4.289544235924933
48187,Wayne County,MI,NA,3.588516746411483,10.455764075067025
48189,Washtenaw County,MI,NA,NA,73.9946380697051
48197,Washtenaw County,MI,26.23574144486692,23.205741626794257,NA
48198,Washtenaw County,MI,NA,NA,64.87935656836461
48202,Wayne County,MI,NA,NA,90.3485254691689
48203,Wayne County,MI,NA,28.4688995215311,NA
48205,Wayne County,MI,NA,21.052631578947366,NA
48206,Wayne County,MI,NA,35.645933014354064,66.75603217158177
48207,Wayne County,MI,NA,NA,74.26273458445041
48210,Wayne County,MI,NA,60.526315789473685,NA
48214,Wayne County,MI,NA,NA,43.69973190348526
48215,Wayne County,MI,NA,NA,76.40750670241286
48219,Wayne County,MI,NA,27.51196172248804,NA
48220,Oakland County,MI,NA,NA,53.35120643431635
48221,Wayne County,MI,NA,NA,4.557640750670242
48223,Wayne County,MI,NA,46.411483253588514,NA
48224,Wayne County,MI,NA,NA,84.71849865951742
48226,Wayne County,MI,NA,99.28229665071771,NA
48230,Wayne County,MI,NA,43.0622009569378,85.52278820375335
48234,Wayne County,MI,14.82889733840304,21.5311004784689,NA
48235,Wayne County,MI,NA,4.545454545454546,15.281501340482572
48236,Wayne County,MI,NA,53.34928229665071,67.5603217158177
48237,Oakland County,MI,NA,25.598086124401913,NA
48238,Wayne County,MI,NA,NA,71.84986595174263
48301,Oakland County,MI,NA,NA,49.597855227882036
48302,Oakland County,MI,NA,51.674641148325364,NA
48304,Oakland County,MI,NA,NA,67.02412868632707
48307,Oakland County,MI,29.277566539923956,NA,NA
48314,Macomb County,MI,NA,NA,28.150134048257375
48322,Oakland County,MI,NA,43.301435406698566,51.206434316353885
48323,Oakland County,MI,NA,49.760765550239235,NA
48324,Oakland County,MI,NA,61.48325358851675,93.2975871313673
48328,Oakland County,MI,NA,NA,38.8739946380697
48331,Oakland County,MI,50.57034220532319,27.990430622009573,68.90080428954424
48334,Oakland County,MI,NA,NA,42.89544235924933
48335,Oakland County,MI,NA,NA,37.801608579088466
48336,Oakland County,MI,NA,48.08612440191388,NA
48348,Oakland County,MI,NA,NA,62.466487935656836
48356,Oakland County,MI,NA,NA,97.31903485254692
48380,Oakland County,MI,NA,96.88995215311004,NA
48381,Oakland County,MI,NA,NA,52.54691689008043
48382,Oakland County,MI,NA,NA,66.48793565683646
48390,Oakland County,MI,NA,42.3444976076555,40.75067024128686
48393,Oakland County,MI,NA,NA,79.62466487935657
48442,Oakland County,MI,NA,55.26315789473685,NA
48455,Lapeer County,MI,NA,78.22966507177034,NA
48603,Saginaw County,MI,NA,14.114832535885165,NA
48617,Clare County,MI,NA,68.6602870813397,NA
48638,Saginaw County,MI,NA,50.23923444976076,NA
48843,Livingston County,MI,NA,NA,12.332439678284182
49091,St. Joseph County,MI,NA,44.01913875598086,NA
49112,Cass County,MI,NA,96.65071770334929,NA
49201,Jackson County,MI,18.250950570342205,NA,NA
49203,Jackson County,MI,13.307984790874524,NA,NA
49224,Calhoun County,MI,NA,NA,76.94369973190348
49233,Hillsdale County,MI,NA,100,NA
49269,Jackson County,MI,92.39543726235742,NA,NA
49424,Ottawa County,MI,NA,19.37799043062201,NA
49709,Montmorency County,MI,96.57794676806084,NA,NA
55009,Goodhue County,MN,NA,63.8755980861244,NA
55066,Goodhue County,MN,NA,25.358851674641148,NA
55105,Ramsey County,MN,NA,69.13875598086125,NA
55125,Washington County,MN,83.26996197718631,NA,NA
55405,Hennepin County,MN,NA,52.63157894736842,NA
55407,Hennepin County,MN,11.02661596958175,NA,NA
55413,Hennepin County,MN,NA,NA,87.39946380697052
55428,Hennepin County,MN,NA,NA,36.46112600536193
55441,Hennepin County,MN,NA,89.47368421052632,NA
55445,Hennepin County,MN,NA,99.76076555023924,NA
55720,Carlton County,MN,NA,49.04306220095694,NA
55746,St. Louis County,MN,NA,38.75598086124402,NA
55792,St. Louis County,MN,NA,71.29186602870813,NA
55803,St. Louis County,MN,NA,NA,35.656836461126005
55804,St. Louis County,MN,81.74904942965779,42.822966507177036,NA
55806,St. Louis County,MN,39.92395437262358,NA,NA
55807,St. Louis County,MN,NA,NA,61.93029490616622
55808,St. Louis County,MN,NA,NA,91.95710455764075
55810,St. Louis County,MN,NA,55.02392344497608,NA
55811,St. Louis County,MN,NA,8.851674641148326,41.28686327077748
55812,St. Louis County,MN,96.95817490494296,NA,NA
55906,Olmsted County,MN,NA,NA,67.29222520107238
55987,Winona County,MN,NA,NA,2.949061662198391
56031,Martin County,MN,NA,NA,48.793565683646115
56073,Brown County,MN,NA,19.617224880382775,24.396782841823057
56143,Jackson County,MN,93.91634980988593,NA,NA
56283,Redwood County,MN,NA,NA,86.05898123324397
56308,Douglas County,MN,72.24334600760456,NA,NA
56320,Stearns County,MN,NA,NA,89.27613941018767
56431,Aitkin County,MN,82.50950570342205,NA,NA
56470,Hubbard County,MN,79.08745247148289,43.7799043062201,73.7265415549598
56484,Cass County,MN,NA,88.27751196172248,NA
56501,Becker County,MN,NA,89.95215311004785,75.06702412868633
56560,Clay County,MN,NA,52.87081339712919,80.42895442359249
56573,Otter Tail County,MN,75.2851711026616,NA,NA
56601,Beltrami County,MN,NA,2.3923444976076556,83.10991957104558
56621,Clearwater County,MN,NA,NA,36.193029490616624
56633,Hubbard County,MN,91.63498098859316,NA,79.89276139410187
56649,Koochiching County,MN,NA,NA,97.05093833780161
63026,St. Louis County,MO,NA,NA,59.78552278820375
63129,St. Louis County,MO,NA,NA,13.404825737265416
63303,St. Charles County,MO,NA,16.74641148325359,NA
63376,St. Charles County,MO,20.15209125475285,NA,NA
64109,Jackson County,MO,41.44486692015209,NA,NA
64110,Jackson County,MO,NA,44.01913875598086,NA
64130,Jackson County,MO,11.406844106463879,NA,NA
64735,Henry County,MO,NA,NA,74.79892761394102
65202,Boone County,MO,NA,88.03827751196172,54.15549597855228
65203,Boone County,MO,NA,16.267942583732058,NA
65233,Cooper County,MO,NA,68.18181818181817,NA
65622,Dallas County,MO,85.55133079847909,NA,NA
59102,Yellowstone County,MT,NA,7.177033492822966,17.962466487935657
68104,Douglas County,NE,NA,NA,49.865951742627345
68135,Douglas County,NE,NA,92.58373205741627,NA
03431,Cheshire County,NH,43.72623574144487,NA,36.99731903485255
03755,Grafton County,NH,NA,NA,98.65951742627345
03766,Grafton County,NH,NA,91.6267942583732,81.23324396782841
07036,Union County,NJ,19.011406844106464,NA,NA
07080,Middlesex County,NJ,68.8212927756654,NA,NA
07087,Hudson County,NJ,5.323193916349809,NA,NA
07093,Hudson County,NJ,NA,50,NA
07111,Essex County,NJ,1.9011406844106464,NA,NA
07417,Bergen County,NJ,NA,NA,87.39946380697052
07666,Bergen County,NJ,NA,NA,19.839142091152816
08031,Camden County,NJ,NA,NA,82.84182305630027
08046,Burlington County,NJ,NA,NA,34.316353887399465
08062,Gloucester County,NJ,NA,82.53588516746412,NA
08070,Salem County,NJ,87.45247148288973,NA,NA
08109,Camden County,NJ,NA,76.79425837320574,NA
08514,Monmouth County,NJ,NA,96.88995215311004,NA
08724,Ocean County,NJ,18.631178707224336,NA,NA
08753,Ocean County,NJ,4.182509505703422,NA,NA
87048,Sandoval County,NM,NA,79.90430622009569,NA
87106,Bernalillo County,NM,NA,48.32535885167464,NA
87108,Bernalillo County,NM,NA,8.373205741626794,NA
87114,Bernalillo County,NM,NA,NA,31.36729222520107
87420,San Juan County,NM,45.627376425855516,NA,NA
88012,Doa Ana County,NM,NA,83.49282296650718,NA
10002,New York County,NY,NA,3.827751196172249,19.034852546916888
10009,New York County,NY,NA,NA,30.02680965147453
10029,New York County,NY,9.125475285171103,NA,NA
10032,New York County,NY,NA,11.004784688995215,NA
10034,New York County,NY,47.52851711026616,22.966507177033492,NA
10037,New York County,NY,NA,NA,47.45308310991957
10306,Richmond County,NY,31.1787072243346,NA,NA
10452,Bronx County,NY,10.646387832699618,12.918660287081341,NA
10453,Bronx County,NY,1.520912547528517,1.1961722488038278,NA
10460,Bronx County,NY,2.6615969581749046,NA,NA
10461,Bronx County,NY,NA,58.3732057416268,NA
10463,Bronx County,NY,NA,NA,5.093833780160858
10465,Bronx County,NY,NA,NA,59.51742627345844
10466,Bronx County,NY,NA,NA,14.47721179624665
10467,Bronx County,NY,8.745247148288973,NA,NA
10469,Bronx County,NY,6.083650190114068,NA,NA
10475,Bronx County,NY,NA,NA,35.388739946380696
10550,Westchester County,NY,NA,NA,61.3941018766756
10580,Westchester County,NY,NA,94.97607655502392,NA
10701,Westchester County,NY,2.2813688212927756,NA,NA
11101,Queens County,NY,68.06083650190115,NA,NA
11102,Queens County,NY,NA,NA,45.57640750670242
11206,Kings County,NY,26.996197718631176,1.9138755980861244,NA
11209,Kings County,NY,NA,26.31578947368421,NA
11213,Kings County,NY,NA,9.330143540669857,NA
11216,Kings County,NY,NA,11.961722488038278,NA
11221,Kings County,NY,NA,NA,6.970509383378016
11223,Kings County,NY,NA,19.138755980861244,NA
11249,Kings County,NY,NA,NA,72.11796246648794
11354,Queens County,NY,NA,NA,27.07774798927614
11367,Queens County,NY,NA,82.05741626794259,NA
11385,Queens County,NY,19.39163498098859,NA,NA
11419,Queens County,NY,52.09125475285171,NA,NA
11420,Queens County,NY,62.3574144486692,41.866028708133975,NA
11691,Queens County,NY,NA,11.24401913875598,NA
11743,Suffolk County,NY,NA,NA,19.302949061662197
11746,Suffolk County,NY,NA,48.803827751196174,NA
11788,Suffolk County,NY,80.98859315589354,NA,NA
11801,Nassau County,NY,NA,84.44976076555024,NA
12095,Fulton County,NY,59.6958174904943,NA,NA
12180,Rensselaer County,NY,3.802281368821293,NA,NA
13088,Onondaga County,NY,38.78326996197718,NA,NA
13205,Onondaga County,NY,NA,51.196172248803826,NA
13365,Herkimer County,NY,NA,NA,54.95978552278821
13407,Herkimer County,NY,73.38403041825094,NA,NA
13617,St. Lawrence County,NY,NA,NA,78.01608579088472
13662,St. Lawrence County,NY,NA,NA,40.48257372654155
13676,St. Lawrence County,NY,NA,47.84688995215311,NA
13843,Chenango County,NY,NA,96.41148325358851,NA
13850,Broome County,NY,NA,6.220095693779904,NA
14120,Niagara County,NY,NA,10.287081339712918,NA
14207,Erie County,NY,15.209125475285171,NA,NA
14211,Erie County,NY,17.870722433460077,NA,NA
14216,Erie County,NY,40.68441064638783,NA,NA
14487,Livingston County,NY,NA,64.11483253588517,NA
14580,Monroe County,NY,NA,0.4784688995215311,NA
27006,Davie County,NC,NA,32.77511961722488,23.324396782841823
27012,Forsyth County,NC,NA,31.33971291866029,86.59517426273459
27030,Surry County,NC,NA,NA,1.3404825737265416
27040,Forsyth County,NC,NA,69.13875598086125,NA
27048,Rockingham County,NC,NA,NA,80.9651474530831
27055,Yadkin County,NC,NA,NA,57.10455764075068
27103,Forsyth County,NC,NA,NA,2.1447721179624666
27104,Forsyth County,NC,NA,40.19138755980861,27.34584450402145
27106,Forsyth County,NC,NA,4.30622009569378,32.707774798927616
27107,Forsyth County,NC,NA,5.741626794258373,NA
27127,Forsyth County,NC,NA,6.698564593301436,8.04289544235925
27262,Guilford County,NC,NA,64.35406698564593,NA
27288,Rockingham County,NC,NA,29.904306220095695,43.16353887399464
27295,Davidson County,NC,NA,5.023923444976076,NA
27312,Chatham County,NC,NA,NA,20.10723860589812
27317,Randolph County,NC,NA,NA,75.33512064343164
27455,Guilford County,NC,NA,56.698564593301434,NA
27513,Wake County,NC,NA,58.85167464114832,NA
27544,Vance County,NC,100,NA,NA
27573,Person County,NC,NA,59.80861244019139,NA
27707,Durham County,NC,NA,NA,58.71313672922251
27713,Durham County,NC,35.741444866920155,NA,NA
27909,Pasquotank County,NC,24.334600760456272,NA,NA
28036,Mecklenburg County,NC,NA,97.36842105263158,NA
28105,Mecklenburg County,NC,NA,54.54545454545454,NA
28398,Duplin County,NC,NA,NA,91.42091152815014
28645,Caldwell County,NC,NA,NA,3.2171581769436997
28655,Burke County,NC,NA,5.980861244019139,NA
28739,Henderson County,NC,NA,NA,13.672922252010725
28806,Buncombe County,NC,NA,NA,37.533512064343164
58078,Cass County,ND,38.40304182509506,72.96650717703349,56.56836461126006
58103,Cass County,ND,NA,25.837320574162682,2.4128686327077746
58104,Cass County,ND,NA,17.22488038277512,NA
58401,Stutsman County,ND,NA,NA,46.64879356568365
58703,Ward County,ND,NA,NA,28.686327077747993
43026,Franklin County,OH,NA,27.751196172248804,NA
43204,Franklin County,OH,10.26615969581749,NA,NA
43211,Franklin County,OH,NA,86.8421052631579,NA
43219,Franklin County,OH,NA,41.62679425837321,41.8230563002681
43235,Franklin County,OH,NA,NA,32.975871313672926
43357,Logan County,OH,NA,NA,92.22520107238606
43512,Defiance County,OH,NA,7.4162679425837315,NA
43616,Lucas County,OH,24.714828897338403,NA,NA
43723,Guernsey County,OH,NA,NA,95.17426273458445
43845,Coshocton County,OH,74.90494296577947,NA,NA
44001,Lorain County,OH,NA,86.1244019138756,9.919571045576408
44011,Lorain County,OH,NA,31.818181818181817,66.21983914209115
44012,Lorain County,OH,NA,NA,60.85790884718498
44022,Cuyahoga County,OH,NA,67.70334928229666,NA
44026,Geauga County,OH,95.05703422053232,NA,NA
44035,Lorain County,OH,1.1406844106463878,0,49.06166219839142
44039,Lorain County,OH,14.44866920152091,4.0669856459330145,51.742627345844504
44041,Ashtabula County,OH,NA,NA,93.02949061662198
44052,Lorain County,OH,NA,3.110047846889952,78.82037533512064
44053,Lorain County,OH,46.7680608365019,38.516746411483254,69.97319034852548
44054,Lorain County,OH,NA,NA,50.402144772117964
44057,Lake County,OH,NA,23.684210526315788,NA
44060,Lake County,OH,NA,28.22966507177033,0.5361930294906166
44067,Summit County,OH,48.28897338403042,NA,NA
44074,Lorain County,OH,NA,NA,94.36997319034852
44087,Summit County,OH,53.99239543726235,NA,28.418230563002684
44089,Erie County,OH,NA,47.12918660287082,76.67560321715817
44090,Lorain County,OH,NA,NA,95.71045576407506
44095,Lake County,OH,NA,66.02870813397129,NA
44107,Cuyahoga County,OH,42.96577946768061,NA,NA
44108,Cuyahoga County,OH,NA,NA,83.37801608579089
44110,Cuyahoga County,OH,NA,12.200956937799043,NA
44111,Cuyahoga County,OH,NA,3.349282296650718,NA
44112,Cuyahoga County,OH,NA,NA,23.59249329758713
44116,Cuyahoga County,OH,52.47148288973384,NA,56.83646112600537
44117,Cuyahoga County,OH,NA,51.674641148325364,NA
44118,Cuyahoga County,OH,NA,15.550239234449762,31.63538873994638
44120,Cuyahoga County,OH,5.7034220532319395,NA,NA
44121,Cuyahoga County,OH,47.90874524714829,18.181818181818183,NA
44122,Cuyahoga County,OH,NA,NA,0.2680965147453083
44124,Cuyahoga County,OH,NA,NA,36.72922252010724
44125,Cuyahoga County,OH,NA,14.354066985645932,NA
44130,Cuyahoga County,OH,NA,15.789473684210526,NA
44131,Cuyahoga County,OH,NA,24.641148325358852,NA
44133,Cuyahoga County,OH,NA,18.660287081339714,NA
44134,Cuyahoga County,OH,16.34980988593156,NA,NA
44138,Cuyahoga County,OH,47.14828897338403,30.62200956937799,NA
44140,Cuyahoga County,OH,NA,36.60287081339713,NA
44141,Cuyahoga County,OH,89.73384030418251,NA,NA
44145,Cuyahoga County,OH,NA,NA,5.898123324396782
44149,Cuyahoga County,OH,84.79087452471484,NA,NA
44202,Portage County,OH,NA,77.75119617224881,NA
44203,Summit County,OH,61.21673003802282,NA,NA
44212,Medina County,OH,NA,13.636363636363635,NA
44223,Summit County,OH,NA,NA,39.41018766756032
44224,Summit County,OH,NA,13.157894736842104,NA
44233,Medina County,OH,NA,61.004784688995215,NA
44240,Portage County,OH,40.3041825095057,NA,NA
44270,Wayne County,OH,74.1444866920152,NA,NA
44303,Summit County,OH,NA,92.82296650717703,92.49329758713137
44310,Summit County,OH,NA,NA,83.37801608579089
44313,Summit County,OH,NA,NA,72.65415549597856
44319,Summit County,OH,NA,29.665071770334926,NA
44320,Summit County,OH,NA,NA,26.541554959785525
44321,Summit County,OH,NA,NA,73.19034852546918
44512,Mahoning County,OH,NA,NA,20.91152815013405
44839,Erie County,OH,NA,46.172248803827756,70.77747989276139
44857,Huron County,OH,NA,61.961722488038276,NA
44889,Huron County,OH,NA,65.311004784689,NA
45229,Hamilton County,OH,44.866920152091254,NA,NA
45414,Montgomery County,OH,44.48669201520912,NA,NA
45440,Montgomery County,OH,NA,75.83732057416267,NA
45640,Jackson County,OH,NA,NA,16.890080428954423
45651,Vinton County,OH,NA,61.72248803827751,NA
73160,Cleveland County,OK,22.813688212927758,NA,NA
73533,Stephens County,OK,32.69961977186312,NA,NA
74467,Wagoner County,OK,NA,NA,65.68364611260054
74960,Adair County,OK,NA,NA,68.36461126005362
97217,Multnomah County,OR,NA,53.827751196172244,NA
97222,Clackamas County,OR,NA,NA,77.21179624664879
97224,Washington County,OR,66.53992395437263,NA,NA
97322,Linn County,OR,NA,NA,13.136729222520108
97601,Klamath County,OR,28.13688212927757,NA,NA
15235,Allegheny County,PA,31.93916349809886,NA,NA
16105,Lawrence County,PA,69.20152091254754,NA,NA
16503,Erie County,PA,48.669201520912544,NA,NA
17015,Cumberland County,PA,57.414448669201526,NA,NA
17046,Lebanon County,PA,NA,30.861244019138756,NA
17821,Montour County,PA,NA,88.51674641148325,NA
17837,Union County,PA,NA,47.368421052631575,NA
17847,Northumberland County,PA,NA,NA,56.30026809651475
17872,Northumberland County,PA,NA,44.73684210526316,NA
17901,Schuylkill County,PA,38.02281368821293,NA,NA
18042,Northampton County,PA,NA,6.937799043062201,NA
18603,Columbia County,PA,NA,24.401913875598087,NA
19003,Montgomery County,PA,NA,73.68421052631578,NA
19010,Delaware County,PA,68.44106463878326,NA,NA
19026,Delaware County,PA,NA,NA,63.806970509383376
19027,Montgomery County,PA,NA,41.38755980861244,NA
19056,Bucks County,PA,63.49809885931559,NA,NA
19073,Delaware County,PA,NA,NA,21.179624664879356
19087,Chester County,PA,NA,30.14354066985646,NA
19104,Philadelphia County,PA,21.673003802281368,NA,NA
19139,Philadelphia County,PA,6.844106463878327,NA,NA
19154,Philadelphia County,PA,NA,NA,33.24396782841823
02911,Providence County,RI,NA,62.44019138755981,NA
02916,Providence County,RI,95.43726235741445,NA,NA
29138,Saluda County,SC,90.49429657794677,NA,NA
29407,Charleston County,SC,NA,NA,20.64343163538874
29412,Charleston County,SC,NA,NA,17.694369973190348
29611,Greenville County,SC,NA,38.995215311004785,NA
57006,Brookings County,SD,NA,NA,71.58176943699732
57103,Minnehaha County,SD,NA,NA,8.579088471849866
57104,Minnehaha County,SD,NA,NA,19.571045576407506
57108,Lincoln County,SD,NA,NA,9.383378016085791
57110,Minnehaha County,SD,NA,33.97129186602871,NA
57301,Davison County,SD,NA,NA,78.28418230563003
57719,Pennington County,SD,NA,NA,93.5656836461126
37205,Davidson County,TN,NA,NA,25.46916890080429
37221,Davidson County,TN,NA,33.25358851674641,NA
37641,Greene County,TN,NA,62.91866028708134,NA
37664,Sullivan County,TN,32.31939163498099,NA,NA
37743,Greene County,TN,NA,6.4593301435406705,NA
37760,Jefferson County,TN,71.86311787072243,NA,NA
75013,Collin County,TX,63.87832699619772,NA,NA
75150,Dallas County,TX,NA,NA,43.96782841823057
75223,Dallas County,TX,NA,NA,99.73190348525469
75561,Bowie County,TX,NA,NA,94.10187667560321
75791,Smith County,TX,NA,80.622009569378,NA
76502,Bell County,TX,NA,NA,4.557640750670242
76549,Bell County,TX,NA,37.79904306220095,NA
76712,McLennan County,TX,NA,46.65071770334928,7.774798927613941
77065,Harris County,TX,73.76425855513308,NA,NA
77336,Harris County,TX,92.77566539923954,NA,NA
77338,Harris County,TX,60.45627376425855,NA,NA
77382,Montgomery County,TX,76.80608365019012,NA,NA
77396,Harris County,TX,NA,NA,80.16085790884718
77459,Fort Bend County,TX,NA,17.464114832535884,NA
77489,Fort Bend County,TX,46.00760456273764,NA,NA
77494,Fort Bend County,TX,NA,22.00956937799043,NA
77514,Chambers County,TX,NA,92.10526315789474,NA
77546,Galveston County,TX,NA,67.46411483253588,NA
77550,Galveston County,TX,31.55893536121673,NA,94.90616621983914
77551,Galveston County,TX,NA,NA,28.9544235924933
77563,Galveston County,TX,NA,55.74162679425837,82.57372654155496
77568,Galveston County,TX,NA,34.44976076555024,NA
77573,Galveston County,TX,NA,53.110047846889955,NA
77581,Brazoria County,TX,NA,79.66507177033493,NA
77586,Harris County,TX,NA,70.09569377990431,NA
77590,Galveston County,TX,NA,NA,30.29490616621984
78112,Bexar County,TX,94.29657794676805,NA,NA
78207,Bexar County,TX,NA,NA,26.80965147453083
78413,Nueces County,TX,84.03041825095056,NA,NA
78657,Llano County,TX,NA,NA,86.8632707774799
78734,Travis County,TX,NA,72.72727272727273,NA
78801,Uvalde County,TX,74.52471482889734,NA,NA
84010,Davis County,UT,NA,64.5933014354067,NA
84015,Davis County,UT,NA,NA,91.68900804289544
84041,Davis County,UT,NA,65.78947368421053,NA
84060,Summit County,UT,NA,91.38755980861244,NA
84067,Weber County,UT,NA,NA,94.63806970509383
84088,Salt Lake County,UT,NA,57.655502392344495,NA
84095,Salt Lake County,UT,NA,NA,45.30831099195711
84103,Salt Lake County,UT,NA,74.64114832535886,NA
84116,Salt Lake County,UT,NA,40.66985645933015,NA
84117,Salt Lake County,UT,NA,NA,34.852546916890084
84120,Salt Lake County,UT,14.068441064638785,NA,NA
84128,Salt Lake County,UT,NA,72.48803827751196,NA
84532,Grand County,UT,NA,NA,87.93565683646113
05401,Chittenden County,VT,NA,53.827751196172244,NA
05452,Chittenden County,VT,NA,NA,47.98927613941019
05491,Addison County,VT,NA,NA,88.47184986595174
05495,Chittenden County,VT,NA,68.42105263157895,NA
22902,Charlottesville city,VA,NA,40.430622009569376,NA
22903,Charlottesville city,VA,NA,26.555023923444978,72.92225201072387
22911,Albemarle County,VA,NA,NA,32.171581769437
22963,Fluvanna County,VA,NA,56.2200956937799,79.35656836461126
23462,Virginia Beach city,VA,30.038022813688215,NA,NA
24078,Henry County,VA,98.09885931558935,NA,NA
24230,Wise County,VA,NA,77.03349282296651,NA
24348,Grayson County,VA,NA,NA,96.7828418230563
24502,Lynchburg city,VA,NA,51.43540669856459,NA
98003,King County,WA,41.825095057034225,NA,29.75871313672922
98040,King County,WA,NA,61.24401913875598,NA
98045,King County,WA,NA,85.16746411483254,NA
98055,King County,WA,NA,96.17224880382776,NA
98059,King County,WA,NA,35.167464114832534,NA
98087,Snohomish County,WA,NA,55.980861244019145,NA
98103,King County,WA,61.97718631178707,NA,NA
98107,King County,WA,NA,NA,86.8632707774799
98110,Kitsap County,WA,NA,42.58373205741627,NA
98112,King County,WA,NA,NA,65.41554959785523
98115,King County,WA,49.42965779467681,NA,NA
98118,King County,WA,NA,41.14832535885167,NA
98125,King County,WA,NA,NA,38.337801608579085
98199,King County,WA,NA,77.27272727272727,NA
98248,Whatcom County,WA,NA,66.50717703349282,NA
98329,Pierce County,WA,NA,84.21052631578947,NA
98368,Jefferson County,WA,NA,NA,47.98927613941019
98584,Mason County,WA,NA,NA,69.16890080428955
98682,Clark County,WA,NA,50.717703349282296,NA
98801,Chelan County,WA,NA,11.483253588516746,71.31367292225201
98802,Douglas County,WA,NA,NA,24.664879356568363
20010,District of Columbia,DC,NA,53.34928229665071,NA
25661,Mingo County,WV,NA,NA,80.6970509383378
25801,Raleigh County,WV,NA,14.832535885167463,NA
26062,Hancock County,WV,22.433460076045627,NA,NA
26170,Pleasants County,WV,97.33840304182509,NA,NA
26505,Monongalia County,WV,NA,NA,22.25201072386059
26508,Monongalia County,WV,NA,NA,21.447721179624665
53094,Jefferson County,WI,NA,35.406698564593306,81.50134048257372
53098,Dodge County,WI,NA,60.04784688995215,52.81501340482574
53118,Waukesha County,WI,NA,92.34449760765551,NA
53147,Walworth County,WI,58.55513307984791,NA,NA
53151,Waukesha County,WI,NA,NA,53.88739946380697
53205,Milwaukee County,WI,4.562737642585551,NA,NA
53206,Milwaukee County,WI,NA,NA,46.91689008042895
53210,Milwaukee County,WI,13.688212927756654,NA,NA
53211,Milwaukee County,WI,NA,NA,43.43163538873995
53228,Milwaukee County,WI,82.12927756653993,NA,NA
53511,Rock County,WI,NA,NA,12.064343163538874
53520,Green County,WI,NA,NA,71.0455764075067
53545,Rock County,WI,NA,NA,90.88471849865952
53546,Rock County,WI,28.517110266159694,NA,72.38605898123325
53566,Green County,WI,NA,NA,47.18498659517426
53594,Jefferson County,WI,92.01520912547528,NA,NA
54455,Marathon County,WI,NA,NA,75.87131367292224
54481,Portage County,WI,NA,57.17703349282297,10.991957104557642
54482,Portage County,WI,NA,66.26794258373205,NA
54487,Lincoln County,WI,NA,NA,61.12600536193029
54601,La Crosse County,WI,NA,18.899521531100476,5.630026809651475
54656,Monroe County,WI,NA,NA,25.201072386058982
54730,Dunn County,WI,NA,87.32057416267942,NA
54806,Ashland County,WI,NA,82.29665071770334,77.4798927613941
54880,Douglas County,WI,NA,30.38277511961722,35.120643431635386
54981,Waupaca County,WI,90.8745247148289,NA,NA
82901,Sweetwater County,WY,67.68060836501901,NA,NA
