ZipCode,county,state,Youth,Adult,Retirement,Geriatric
35121,Blount County,AL,NA,NA,NA,75.21739130434783
35603,Morgan County,AL,NA,19.090909090909093,NA,NA
35674,Colbert County,AL,NA,84.54545454545455,NA,NA
35968,DeKalb County,AL,NA,97.57575757575758,NA,NA
36109,Montgomery County,AL,73.68421052631578,NA,NA,NA
36274,Randolph County,AL,NA,83.33333333333334,NA,NA
36344,Geneva County,AL,NA,NA,NA,89.56521739130436
36608,Mobile County,AL,38.8663967611336,NA,NA,NA
36804,Lee County,AL,NA,NA,NA,86.52173913043478
99501,Anchorage Municipality,AK,NA,26.060606060606062,NA,NA
99504,Anchorage Municipality,AK,20.242914979757085,NA,NA,NA
99508,Anchorage Municipality,AK,NA,20.606060606060606,NA,NA
99701,Fairbanks North Star Borough,AK,NA,37.57575757575757,NA,NA
99705,Fairbanks North Star Borough,AK,NA,92.12121212121212,NA,NA
85012,Maricopa County,AZ,NA,88.48484848484848,NA,NA
85015,Maricopa County,AZ,NA,22.12121212121212,NA,NA
85018,Maricopa County,AZ,29.1497975708502,NA,NA,NA
85023,Maricopa County,AZ,NA,30.303030303030305,NA,NA
85042,Maricopa County,AZ,32.79352226720648,NA,NA,NA
85048,Maricopa County,AZ,NA,51.81818181818182,NA,NA
85050,Maricopa County,AZ,NA,58.18181818181818,NA,NA
85085,Maricopa County,AZ,91.09311740890689,NA,NA,NA
85201,Maricopa County,AZ,NA,16.363636363636363,NA,NA
85204,Maricopa County,AZ,14.979757085020243,NA,NA,NA
85209,Maricopa County,AZ,NA,NA,NA,25.217391304347824
85224,Maricopa County,AZ,67.61133603238866,NA,NA,NA
85234,Maricopa County,AZ,36.43724696356275,NA,NA,NA
85255,Maricopa County,AZ,NA,52.42424242424243,NA,NA
85283,Maricopa County,AZ,71.65991902834008,NA,NA,NA
85286,Maricopa County,AZ,NA,36.666666666666664,NA,NA
85298,Maricopa County,AZ,58.70445344129555,NA,NA,NA
85301,Maricopa County,AZ,9.7165991902834,NA,NA,NA
85339,Maricopa County,AZ,NA,25.454545454545453,NA,NA
85340,Maricopa County,AZ,NA,67.87878787878789,NA,NA
85351,Maricopa County,AZ,NA,NA,NA,2.1739130434782608
85390,Maricopa County,AZ,95.54655870445345,NA,NA,NA
85546,Graham County,AZ,65.58704453441295,NA,NA,NA
85607,Cochise County,AZ,NA,30,NA,NA
85621,Santa Cruz County,AZ,NA,48.18181818181818,NA,NA
85653,Pima County,AZ,56.68016194331984,NA,NA,NA
85710,Pima County,AZ,NA,NA,NA,11.73913043478261
85718,Pima County,AZ,NA,NA,NA,26.956521739130434
85730,Pima County,AZ,NA,NA,34.89583333333333,NA
85735,Pima County,AZ,NA,NA,93.75,NA
85745,Pima County,AZ,NA,NA,NA,39.565217391304344
85746,Pima County,AZ,26.31578947368421,NA,NA,NA
85925,Apache County,AZ,78.13765182186235,NA,NA,NA
86040,Coconino County,AZ,59.10931174089069,NA,NA,NA
86324,Yavapai County,AZ,82.99595141700405,NA,NA,NA
72022,Saline County,AR,NA,NA,NA,72.17391304347827
72143,White County,AR,NA,39.696969696969695,NA,NA
72212,Pulaski County,AR,NA,NA,NA,58.69565217391305
72450,Greene County,AR,29.959514170040485,NA,NA,NA
72764,Washington County,AR,NA,41.21212121212121,NA,NA
72958,Scott County,AR,96.35627530364373,NA,NA,NA
90001,Los Angeles County,CA,48.987854251012145,NA,NA,NA
90014,Los Angeles County,CA,NA,NA,89.0625,NA
90018,Los Angeles County,CA,71.25506072874494,NA,NA,NA
90019,Los Angeles County,CA,NA,45.151515151515156,NA,NA
90023,Los Angeles County,CA,NA,40.909090909090914,NA,NA
90031,Los Angeles County,CA,NA,71.81818181818181,NA,NA
90049,Los Angeles County,CA,NA,80.9090909090909,NA,NA
90056,Los Angeles County,CA,NA,95.75757575757575,NA,NA
90063,Los Angeles County,CA,NA,NA,NA,63.47826086956522
90068,Los Angeles County,CA,NA,89.0909090909091,NA,NA
90077,Los Angeles County,CA,NA,NA,96.35416666666666,NA
90222,Los Angeles County,CA,63.56275303643725,NA,NA,NA
90245,Los Angeles County,CA,NA,87.57575757575758,NA,NA
90249,Los Angeles County,CA,NA,83.93939393939394,NA,NA
90250,Los Angeles County,CA,NA,NA,32.29166666666667,NA
90403,Los Angeles County,CA,NA,71.21212121212122,NA,NA
90660,Los Angeles County,CA,NA,87.27272727272727,NA,NA
90732,Los Angeles County,CA,NA,NA,73.4375,NA
90804,Los Angeles County,CA,NA,NA,NA,97.3913043478261
90815,Los Angeles County,CA,NA,NA,48.4375,NA
91304,Los Angeles County,CA,NA,NA,NA,21.73913043478261
91340,Los Angeles County,CA,67.20647773279353,NA,NA,NA
91350,Los Angeles County,CA,51.012145748987855,NA,NA,NA
91354,Los Angeles County,CA,NA,82.42424242424242,NA,NA
91384,Los Angeles County,CA,NA,NA,NA,90
91402,Los Angeles County,CA,NA,29.393939393939394,NA,NA
91601,Los Angeles County,CA,NA,NA,NA,76.52173913043478
91724,Los Angeles County,CA,NA,NA,79.6875,NA
91739,San Bernardino County,CA,NA,NA,70.83333333333334,NA
92011,San Diego County,CA,76.11336032388664,NA,NA,NA
92021,San Diego County,CA,28.74493927125506,NA,NA,NA
92025,San Diego County,CA,51.417004048582996,NA,NA,NA
92084,San Diego County,CA,53.036437246963565,NA,NA,NA
92101,San Diego County,CA,NA,NA,14.583333333333334,NA
92103,San Diego County,CA,NA,49.09090909090909,NA,NA
92114,San Diego County,CA,51.417004048582996,NA,NA,NA
92116,San Diego County,CA,NA,NA,NA,96.52173913043478
92119,San Diego County,CA,NA,NA,NA,82.6086956521739
92203,Riverside County,CA,NA,NA,NA,38.26086956521739
92225,Riverside County,CA,NA,NA,87.5,NA
92227,Imperial County,CA,NA,NA,NA,51.30434782608696
92249,Imperial County,CA,92.3076923076923,NA,NA,NA
92252,San Bernardino County,CA,NA,NA,NA,96.95652173913044
92307,San Bernardino County,CA,NA,NA,63.541666666666664,NA
92324,San Bernardino County,CA,35.22267206477733,NA,NA,NA
92392,San Bernardino County,CA,NA,71.51515151515152,NA,NA
92501,Riverside County,CA,NA,NA,86.97916666666666,NA
92646,Orange County,CA,NA,60.60606060606061,NA,NA
92653,Orange County,CA,NA,76.96969696969697,NA,NA
92677,Orange County,CA,NA,34.24242424242424,NA,NA
92683,Orange County,CA,NA,NA,NA,9.565217391304348
92708,Orange County,CA,55.87044534412956,NA,NA,NA
92805,Orange County,CA,NA,28.484848484848484,NA,NA
92870,Orange County,CA,NA,NA,31.25,NA
92886,Orange County,CA,NA,NA,22.916666666666664,NA
92887,Orange County,CA,NA,NA,81.77083333333334,NA
93001,Ventura County,CA,43.7246963562753,NA,NA,NA
93003,Ventura County,CA,NA,NA,NA,20.434782608695652
93012,Ventura County,CA,NA,70.60606060606061,NA,NA
93030,Ventura County,CA,19.02834008097166,19.393939393939394,NA,NA
93223,Tulare County,CA,95.1417004048583,NA,NA,NA
93274,Tulare County,CA,NA,5.757575757575758,NA,NA
93308,Kern County,CA,NA,30.909090909090907,NA,NA
93311,Kern County,CA,NA,98.7878787878788,NA,NA
93405,San Luis Obispo County,CA,NA,75.45454545454545,92.70833333333334,NA
93445,San Luis Obispo County,CA,97.97570850202429,NA,NA,NA
93454,Santa Barbara County,CA,NA,65.75757575757576,NA,NA
93726,Fresno County,CA,NA,25.151515151515152,NA,NA
94010,San Mateo County,CA,68.0161943319838,NA,NA,NA
94063,San Mateo County,CA,61.1336032388664,NA,NA,NA
94080,San Mateo County,CA,NA,NA,NA,5.217391304347826
94112,San Francisco County,CA,NA,NA,NA,6.521739130434782
94501,Alameda County,CA,NA,73.03030303030303,NA,NA
94526,Contra Costa County,CA,85.4251012145749,NA,NA,NA
94547,Contra Costa County,CA,NA,NA,80.72916666666666,NA
94550,Alameda County,CA,NA,49.696969696969695,NA,NA
94587,Alameda County,CA,NA,NA,NA,19.130434782608695
94945,Marin County,CA,NA,93.03030303030303,NA,NA
94954,Sonoma County,CA,NA,NA,44.79166666666667,NA
95020,Santa Clara County,CA,NA,NA,41.66666666666667,NA
95037,Santa Clara County,CA,NA,NA,43.22916666666667,NA
95120,Santa Clara County,CA,NA,NA,59.895833333333336,NA
95121,Santa Clara County,CA,NA,NA,65.10416666666666,NA
95125,Santa Clara County,CA,NA,NA,27.604166666666668,NA
95130,Santa Clara County,CA,NA,NA,NA,94.34782608695652
95134,Santa Clara County,CA,96.76113360323887,NA,NA,NA
95148,Santa Clara County,CA,NA,68.78787878787878,NA,NA
95240,San Joaquin County,CA,NA,17.575757575757574,NA,NA
95340,Merced County,CA,49.797570850202426,70.9090909090909,NA,NA
95472,Sonoma County,CA,NA,NA,NA,61.30434782608696
95531,Del Norte County,CA,NA,65.15151515151516,NA,NA
95677,Placer County,CA,65.58704453441295,NA,NA,NA
95695,Yolo County,CA,NA,NA,62.5,NA
95816,Sacramento County,CA,NA,56.36363636363636,78.64583333333334,NA
95828,Sacramento County,CA,NA,44.84848484848485,NA,NA
95991,Sutter County,CA,NA,31.515151515151512,NA,NA
96022,Tehama County,CA,NA,NA,NA,83.91304347826087
80012,Arapahoe County,CO,NA,12.424242424242424,NA,NA
80015,Arapahoe County,CO,11.740890688259109,NA,NA,NA
80109,Douglas County,CO,NA,72.42424242424242,NA,NA
80112,Arapahoe County,CO,NA,56.666666666666664,NA,NA
80129,Douglas County,CO,NA,NA,92.1875,NA
80232,Jefferson County,CO,NA,79.6969696969697,NA,NA
80237,Denver County,CO,NA,NA,68.75,NA
80439,Jefferson County,CO,NA,83.93939393939394,NA,NA
80503,Boulder County,CO,NA,68.48484848484848,NA,NA
80906,El Paso County,CO,NA,NA,NA,39.130434782608695
80907,El Paso County,CO,NA,NA,NA,58.26086956521739
80917,El Paso County,CO,NA,63.93939393939394,NA,NA
81001,Pueblo County,CO,NA,NA,NA,63.91304347826087
81301,La Plata County,CO,NA,NA,NA,61.30434782608696
81416,Delta County,CO,NA,NA,NA,79.56521739130434
81521,Mesa County,CO,NA,NA,NA,80
06001,Hartford County,CT,44.534412955465584,NA,NA,NA
06106,Hartford County,CT,NA,NA,18.75,NA
06112,Hartford County,CT,53.441295546558706,NA,NA,NA
06249,New London County,CT,NA,85.75757575757575,NA,NA
06451,New Haven County,CT,NA,NA,47.39583333333333,NA
06478,New Haven County,CT,NA,92.72727272727272,NA,NA
06483,New Haven County,CT,NA,67.57575757575758,NA,NA
06484,Fairfield County,CT,NA,38.18181818181819,NA,NA
06488,New Haven County,CT,NA,NA,NA,16.08695652173913
06513,New Haven County,CT,NA,3.6363636363636362,NA,NA
06608,Fairfield County,CT,NA,66.06060606060606,NA,NA
06786,Litchfield County,CT,NA,85.15151515151516,NA,NA
06812,Fairfield County,CT,76.92307692307693,NA,NA,NA
06825,Fairfield County,CT,NA,86.06060606060606,NA,NA
06897,Fairfield County,CT,61.943319838056674,NA,NA,65.65217391304347
19702,New Castle County,DE,20.647773279352226,NA,NA,NA
19802,New Castle County,DE,NA,16.969696969696972,NA,NA
19904,Kent County,DE,NA,NA,20.3125,NA
19968,Sussex County,DE,NA,NA,54.166666666666664,NA
19971,Sussex County,DE,NA,73.33333333333333,NA,NA
32024,Columbia County,FL,77.7327935222672,NA,NA,NA
32117,Volusia County,FL,NA,35.15151515151515,NA,NA
32159,Lake County,FL,80.97165991902834,NA,NA,NA
32189,Putnam County,FL,99.19028340080972,NA,NA,NA
32216,Duval County,FL,NA,NA,39.58333333333333,NA
32304,Leon County,FL,NA,NA,93.22916666666666,NA
32425,Holmes County,FL,89.87854251012146,NA,NA,NA
32446,Jackson County,FL,NA,66.66666666666666,NA,NA
32505,Escambia County,FL,NA,21.818181818181817,15.625,NA
32536,Okaloosa County,FL,NA,NA,34.375,NA
32712,Orange County,FL,42.91497975708502,NA,NA,NA
32763,Volusia County,FL,NA,NA,NA,35.65217391304348
32809,Orange County,FL,NA,50.303030303030305,NA,NA
32810,Orange County,FL,41.29554655870445,NA,NA,NA
32825,Orange County,FL,NA,NA,NA,52.17391304347826
32958,Indian River County,FL,NA,NA,NA,11.304347826086957
33064,Broward County,FL,NA,NA,23.4375,NA
33127,Miami-Dade County,FL,60.72874493927125,NA,NA,NA
33155,Miami-Dade County,FL,NA,NA,NA,16.956521739130434
33162,Miami-Dade County,FL,NA,NA,69.27083333333334,NA
33177,Miami-Dade County,FL,NA,NA,58.854166666666664,NA
33312,Broward County,FL,NA,36.96969696969697,NA,NA
33328,Broward County,FL,NA,NA,NA,47.82608695652174
33409,Palm Beach County,FL,65.18218623481782,NA,NA,87.39130434782608
33415,Palm Beach County,FL,NA,NA,75.52083333333334,NA
33437,Palm Beach County,FL,NA,NA,NA,0.43478260869565216
33483,Palm Beach County,FL,NA,NA,88.02083333333334,NA
33484,Palm Beach County,FL,NA,NA,NA,4.3478260869565215
33487,Palm Beach County,FL,NA,NA,50.520833333333336,NA
33511,Hillsborough County,FL,NA,NA,37.5,NA
33543,Pasco County,FL,NA,59.09090909090909,NA,NA
33556,Hillsborough County,FL,NA,76.66666666666667,NA,NA
33584,Hillsborough County,FL,NA,57.878787878787875,NA,NA
33707,Pinellas County,FL,NA,NA,NA,32.17391304347826
33712,Pinellas County,FL,56.2753036437247,NA,NA,NA
33781,Pinellas County,FL,NA,NA,NA,46.08695652173913
33813,Polk County,FL,45.74898785425101,NA,NA,NA
33843,Polk County,FL,84.61538461538461,NA,NA,NA
33884,Polk County,FL,63.56275303643725,NA,NA,NA
33905,Lee County,FL,NA,NA,NA,50
33913,Lee County,FL,NA,NA,NA,55.65217391304348
34119,Collier County,FL,NA,NA,NA,25.65217391304348
34228,Sarasota County,FL,NA,NA,NA,47.391304347826086
34432,Marion County,FL,NA,91.51515151515152,NA,NA
34442,Citrus County,FL,NA,NA,65.625,NA
34689,Pinellas County,FL,NA,60.303030303030305,NA,NA
34990,Martin County,FL,NA,NA,NA,6.956521739130435
34994,Martin County,FL,NA,NA,NA,81.30434782608695
30005,Fulton County,GA,NA,NA,81.25,NA
30047,Gwinnett County,GA,NA,61.81818181818181,NA,NA
30066,Cobb County,GA,NA,NA,35.41666666666667,NA
30067,Cobb County,GA,NA,86.96969696969697,NA,NA
30093,Gwinnett County,GA,NA,59.3939393939394,NA,NA
30106,Cobb County,GA,NA,NA,NA,83.47826086956522
30331,Fulton County,GA,NA,19.696969696969695,NA,NA
30461,Bulloch County,GA,NA,77.57575757575758,NA,NA
30642,Greene County,GA,70.44534412955466,NA,NA,NA
30650,Morgan County,GA,NA,NA,76.5625,NA
30655,Walton County,GA,NA,38.484848484848484,NA,NA
30741,Walker County,GA,NA,23.636363636363637,NA,NA
30747,Chattooga County,GA,80.16194331983806,NA,NA,NA
30824,McDuffie County,GA,NA,NA,57.291666666666664,NA
31014,Bleckley County,GA,85.4251012145749,NA,NA,NA
31605,Lowndes County,GA,NA,74.84848484848486,NA,NA
31903,Muscogee County,GA,NA,NA,53.125,NA
31907,Muscogee County,GA,27.530364372469634,NA,NA,NA
96707,Honolulu County,HI,29.554655870445345,NA,NA,NA
96782,Honolulu County,HI,NA,NA,NA,15.217391304347828
96786,Honolulu County,HI,NA,NA,NA,50.8695652173913
96792,Honolulu County,HI,NA,14.545454545454545,NA,NA
96817,Honolulu County,HI,NA,13.939393939393941,NA,NA
83642,Ada County,ID,NA,20,NA,NA
83669,Ada County,ID,NA,89.39393939393939,NA,NA
83686,Canyon County,ID,15.789473684210526,NA,NA,NA
83687,Canyon County,ID,NA,26.666666666666668,NA,NA
83706,Ada County,ID,NA,31.818181818181817,NA,62.60869565217392
83864,Bonner County,ID,NA,90.9090909090909,NA,NA
60005,Cook County,IL,NA,NA,NA,37.826086956521735
60026,Cook County,IL,NA,NA,NA,35.21739130434783
60048,Lake County,IL,NA,53.939393939393945,NA,NA
60062,Cook County,IL,NA,NA,NA,0.8695652173913043
60073,Lake County,IL,NA,NA,84.89583333333334,NA
60076,Cook County,IL,NA,47.57575757575758,NA,NA
60077,Cook County,IL,NA,62.121212121212125,NA,NA
60084,Lake County,IL,NA,NA,NA,93.91304347826087
60093,Cook County,IL,NA,NA,NA,32.608695652173914
60101,DuPage County,IL,NA,30.606060606060602,NA,NA
60110,Kane County,IL,NA,51.515151515151516,NA,NA
60115,DeKalb County,IL,55.06072874493927,NA,NA,NA
60126,DuPage County,IL,NA,NA,NA,9.130434782608695
60156,McHenry County,IL,NA,NA,67.70833333333334,NA
60187,DuPage County,IL,44.12955465587044,NA,NA,NA
60201,Cook County,IL,NA,NA,29.6875,NA
60302,Cook County,IL,NA,NA,19.791666666666664,NA
60423,Will County,IL,NA,NA,NA,84.78260869565217
60435,Will County,IL,NA,11.212121212121213,NA,24.347826086956523
60451,Will County,IL,NA,54.24242424242425,NA,NA
60463,Cook County,IL,NA,NA,NA,33.47826086956522
60467,Cook County,IL,NA,52.72727272727272,NA,NA
60516,DuPage County,IL,NA,48.484848484848484,NA,NA
60538,Kendall County,IL,36.84210526315789,NA,NA,NA
60565,DuPage County,IL,NA,NA,25.520833333333332,NA
60585,Will County,IL,NA,NA,67.1875,NA
60601,Cook County,IL,98.38056680161942,NA,NA,NA
60614,Cook County,IL,46.963562753036435,NA,NA,NA
60623,Cook County,IL,NA,7.2727272727272725,NA,NA
60624,Cook County,IL,NA,NA,NA,48.69565217391305
60634,Cook County,IL,NA,NA,NA,12.608695652173912
60656,Cook County,IL,NA,NA,NA,48.26086956521739
60804,Cook County,IL,37.65182186234818,NA,NA,NA
60914,Kankakee County,IL,NA,NA,26.041666666666668,NA
61072,Winnebago County,IL,NA,80.9090909090909,NA,NA
61354,LaSalle County,IL,NA,57.57575757575758,NA,NA
61523,Peoria County,IL,NA,NA,NA,74.34782608695653
61614,Peoria County,IL,NA,NA,NA,31.73913043478261
61953,Douglas County,IL,NA,94.54545454545455,NA,NA
62258,St. Clair County,IL,88.66396761133603,NA,NA,NA
46037,Hamilton County,IN,NA,NA,45.3125,NA
46203,Marion County,IN,NA,9.090909090909092,NA,NA
46221,Marion County,IN,NA,NA,51.041666666666664,NA
46311,Lake County,IN,NA,NA,22.395833333333336,NA
46321,Lake County,IN,NA,37.878787878787875,NA,NA
46350,LaPorte County,IN,NA,8.787878787878787,NA,NA
46368,Porter County,IN,4.048582995951417,NA,NA,NA
46517,Elkhart County,IN,NA,NA,77.08333333333334,NA
46545,St. Joseph County,IN,NA,50.60606060606061,NA,NA
46706,DeKalb County,IN,48.987854251012145,NA,NA,NA
46774,Allen County,IN,NA,NA,52.083333333333336,NA
46992,Wabash County,IN,89.06882591093117,NA,NA,NA
47203,Bartholomew County,IN,NA,NA,NA,17.82608695652174
47404,Monroe County,IN,NA,67.27272727272727,NA,NA
47501,Daviess County,IN,NA,NA,NA,97.82608695652173
47630,Warrick County,IN,NA,NA,NA,40.869565217391305
47885,Vigo County,IN,NA,NA,NA,88.26086956521739
50126,Hardin County,IA,NA,NA,NA,71.30434782608695
50322,Polk County,IA,NA,NA,NA,66.52173913043478
51103,Woodbury County,IA,68.42105263157895,NA,NA,NA
51106,Woodbury County,IA,NA,50.90909090909091,NA,NA
51401,Carroll County,IA,83.80566801619433,NA,NA,NA
51503,Pottawattamie County,IA,NA,55.757575757575765,NA,NA
51632,Page County,IA,NA,79.0909090909091,NA,NA
66061,Johnson County,KS,NA,NA,NA,43.04347826086957
66109,Wyandotte County,KS,NA,56.96969696969697,NA,NA
66112,Wyandotte County,KS,97.16599190283401,NA,NA,NA
66207,Johnson County,KS,NA,NA,NA,49.130434782608695
66608,Shawnee County,KS,NA,NA,NA,96.08695652173913
66801,Lyon County,KS,NA,NA,NA,72.60869565217392
67212,Sedgwick County,KS,NA,NA,NA,56.086956521739125
67401,Saline County,KS,NA,NA,NA,26.521739130434785
40004,Nelson County,KY,NA,NA,NA,46.95652173913044
40118,Jefferson County,KY,90.68825910931174,NA,NA,NA
40211,Jefferson County,KY,31.983805668016196,15.454545454545453,NA,NA
40212,Jefferson County,KY,26.31578947368421,NA,NA,NA
40258,Jefferson County,KY,42.10526315789473,NA,NA,NA
40324,Scott County,KY,NA,NA,30.208333333333332,NA
40509,Fayette County,KY,NA,NA,49.47916666666667,NA
41071,Campbell County,KY,NA,29.09090909090909,NA,NA
41139,Greenup County,KY,NA,NA,NA,77.39130434782608
41501,Pike County,KY,NA,NA,19.270833333333336,NA
41653,Floyd County,KY,84.21052631578947,NA,NA,NA
42519,Pulaski County,KY,100,NA,NA,NA
70003,Jefferson Parish,LA,NA,NA,NA,5.6521739130434785
70112,Orleans Parish,LA,NA,98.48484848484848,NA,NA
70433,St. Tammany Parish,LA,NA,NA,NA,8.26086956521739
70448,St. Tammany Parish,LA,NA,NA,72.91666666666666,NA
70583,Lafayette Parish,LA,NA,NA,79.16666666666666,NA
70601,Calcasieu Parish,LA,38.46153846153847,NA,NA,NA
70605,Calcasieu Parish,LA,41.29554655870445,NA,NA,41.30434782608695
70818,East Baton Rouge Parish,LA,NA,NA,79.6875,NA
71112,Bossier Parish,LA,12.145748987854251,NA,NA,NA
71270,Lincoln Parish,LA,NA,NA,NA,62.17391304347826
03908,York County,ME,NA,NA,66.14583333333334,NA
04073,York County,ME,NA,NA,42.1875,NA
04106,Cumberland County,ME,NA,37.27272727272727,NA,NA
20676,Calvert County,MD,NA,99.69696969696969,NA,NA
21146,Anne Arundel County,MD,NA,NA,56.770833333333336,NA
21207,Baltimore County,MD,NA,NA,NA,23.91304347826087
21218,Baltimore city,MD,NA,NA,NA,10.434782608695652
21742,Washington County,MD,NA,NA,NA,45.65217391304348
21921,Cecil County,MD,NA,NA,9.375,NA
01104,Hampden County,MA,NA,NA,2.083333333333333,NA
01201,Berkshire County,MA,NA,0,0,NA
01420,Worcester County,MA,NA,2.1212121212121215,NA,NA
01440,Worcester County,MA,NA,NA,NA,13.91304347826087
01453,Worcester County,MA,NA,NA,NA,20.869565217391305
01462,Worcester County,MA,NA,52.72727272727272,NA,NA
01540,Worcester County,MA,NA,43.333333333333336,NA,NA
01606,Worcester County,MA,NA,NA,77.60416666666666,NA
01702,Middlesex County,MA,NA,10,NA,NA
01742,Middlesex County,MA,NA,83.63636363636363,NA,NA
01752,Middlesex County,MA,NA,21.21212121212121,NA,NA
01757,Worcester County,MA,NA,NA,NA,30.869565217391305
01852,Middlesex County,MA,NA,33.03030303030303,NA,NA
01915,Essex County,MA,NA,55.15151515151515,NA,NA
01940,Essex County,MA,NA,64.24242424242425,NA,NA
01944,Essex County,MA,NA,NA,90.10416666666666,NA
01945,Essex County,MA,60.32388663967612,NA,NA,36.95652173913043
02035,Norfolk County,MA,NA,NA,31.770833333333332,NA
02052,Norfolk County,MA,62.34817813765182,NA,NA,NA
02053,Norfolk County,MA,NA,NA,72.39583333333334,NA
02118,Suffolk County,MA,NA,NA,NA,10
02120,Suffolk County,MA,NA,4.848484848484849,NA,NA
02127,Suffolk County,MA,NA,1.2121212121212122,NA,NA
02129,Suffolk County,MA,NA,NA,35.9375,NA
02130,Suffolk County,MA,22.267206477732792,NA,NA,NA
02134,Suffolk County,MA,NA,13.636363636363635,NA,NA
02136,Suffolk County,MA,NA,NA,7.291666666666667,NA
02155,Middlesex County,MA,NA,0.9090909090909091,NA,NA
02169,Norfolk County,MA,NA,NA,NA,1.3043478260869565
02301,Plymouth County,MA,NA,NA,4.6875,NA
02346,Plymouth County,MA,NA,11.515151515151516,NA,NA
02478,Middlesex County,MA,NA,NA,NA,43.47826086956522
02563,Barnstable County,MA,NA,99.0909090909091,NA,NA
02703,Bristol County,MA,3.2388663967611335,NA,NA,NA
02720,Bristol County,MA,7.28744939271255,NA,NA,NA
02745,Bristol County,MA,82.18623481781377,NA,NA,NA
02780,Bristol County,MA,NA,NA,3.125,NA
48023,St. Clair County,MI,NA,NA,NA,95.65217391304348
48044,Macomb County,MI,NA,NA,NA,29.130434782608695
48083,Oakland County,MI,52.226720647773284,NA,NA,NA
48092,Macomb County,MI,NA,32.121212121212125,NA,NA
48104,Washtenaw County,MI,87.4493927125506,NA,NA,NA
48146,Wayne County,MI,10.931174089068826,NA,NA,33.04347826086956
48152,Wayne County,MI,NA,NA,NA,13.478260869565217
48161,Monroe County,MI,NA,7.575757575757576,NA,NA
48166,Monroe County,MI,NA,NA,NA,93.47826086956522
48169,Livingston County,MI,NA,NA,NA,41.73913043478261
48170,Wayne County,MI,NA,NA,5.208333333333334,NA
48192,Wayne County,MI,NA,21.515151515151516,NA,NA
48219,Wayne County,MI,NA,4.545454545454546,NA,NA
48223,Wayne County,MI,NA,15.151515151515152,NA,NA
48227,Wayne County,MI,NA,3.0303030303030303,NA,NA
48230,Wayne County,MI,69.63562753036437,NA,NA,NA
48235,Wayne County,MI,NA,1.8181818181818181,NA,NA
48239,Wayne County,MI,NA,8.484848484848486,NA,NA
48304,Oakland County,MI,NA,NA,60.9375,NA
48315,Macomb County,MI,47.77327935222672,NA,NA,NA
48322,Oakland County,MI,NA,NA,NA,7.391304347826087
48383,Oakland County,MI,NA,NA,NA,74.78260869565217
48390,Oakland County,MI,NA,42.72727272727273,NA,NA
48393,Oakland County,MI,79.35222672064778,NA,NA,NA
48439,Genesee County,MI,23.076923076923077,NA,NA,NA
48505,Genesee County,MI,NA,20.909090909090907,NA,NA
48602,Saginaw County,MI,6.882591093117409,NA,NA,NA
48625,Clare County,MI,NA,NA,28.645833333333332,NA
48732,Bay County,MI,NA,NA,NA,87.82608695652175
48843,Livingston County,MI,NA,NA,NA,45.21739130434783
48858,Isabella County,MI,12.955465587044534,NA,NA,NA
49091,St. Joseph County,MI,NA,47.878787878787875,45.83333333333333,NA
49221,Lenawee County,MI,5.263157894736842,NA,NA,NA
49230,Jackson County,MI,NA,73.93939393939394,NA,NA
49321,Kent County,MI,NA,NA,NA,77.82608695652173
49424,Ottawa County,MI,NA,NA,53.645833333333336,NA
49707,Alpena County,MI,NA,NA,NA,19.565217391304348
49855,Marquette County,MI,66.39676113360325,NA,NA,NA
55021,Rice County,MN,NA,40.60606060606061,NA,NA
55063,Pine County,MN,61.53846153846154,NA,NA,NA
55104,Ramsey County,MN,NA,NA,48.95833333333333,NA
55106,Ramsey County,MN,NA,NA,32.8125,NA
55119,Ramsey County,MN,40.89068825910931,NA,NA,NA
55122,Dakota County,MN,39.27125506072874,NA,NA,NA
55302,Wright County,MN,NA,96.06060606060606,NA,NA
55320,Wright County,MN,NA,NA,NA,98.26086956521739
55341,Wright County,MN,NA,100,NA,NA
55387,Carver County,MN,76.51821862348179,78.78787878787878,89.58333333333334,NA
55388,Carver County,MN,NA,NA,100,NA
55403,Hennepin County,MN,NA,26.969696969696972,NA,NA
55407,Hennepin County,MN,NA,NA,8.854166666666668,NA
55411,Hennepin County,MN,NA,2.4242424242424243,NA,NA
55423,Hennepin County,MN,NA,NA,NA,42.608695652173914
55434,Anoka County,MN,NA,64.84848484848484,NA,NA
55436,Hennepin County,MN,NA,94.84848484848484,NA,NA
55448,Anoka County,MN,30.76923076923077,NA,NA,NA
55912,Mower County,MN,14.5748987854251,6.666666666666667,NA,NA
56082,Nicollet County,MN,82.99595141700405,NA,NA,NA
56187,Nobles County,MN,NA,70.3030303030303,NA,NA
56377,Stearns County,MN,NA,NA,NA,73.91304347826086
56701,Pennington County,MN,NA,23.333333333333332,NA,NA
56721,Polk County,MN,NA,NA,96.875,NA
38635,Marshall County,MS,73.68421052631578,NA,NA,NA
38663,Tippah County,MS,NA,NA,84.375,NA
38671,DeSoto County,MS,NA,34.54545454545455,NA,NA
38672,DeSoto County,MS,72.46963562753037,NA,NA,NA
38732,Bolivar County,MS,NA,41.81818181818181,NA,NA
38901,Grenada County,MS,NA,NA,NA,46.52173913043478
39042,Rankin County,MS,NA,36.36363636363637,NA,NA
39168,Smith County,MS,NA,92.42424242424242,NA,NA
39212,Hinds County,MS,NA,24.848484848484848,NA,NA
39402,Lamar County,MS,NA,66.66666666666666,NA,NA
39422,Jasper County,MS,NA,NA,94.27083333333334,NA
39426,Pearl River County,MS,57.89473684210527,NA,NA,NA
39443,Jones County,MS,NA,NA,70.3125,NA
39501,Harrison County,MS,NA,NA,NA,36.08695652173913
39503,Harrison County,MS,14.17004048582996,NA,NA,NA
39507,Harrison County,MS,NA,NA,NA,15.65217391304348
39553,Jackson County,MS,NA,NA,NA,83.04347826086956
39560,Harrison County,MS,NA,NA,14.0625,NA
63049,Jefferson County,MO,NA,77.87878787878788,NA,NA
63090,Franklin County,MO,NA,78.18181818181819,NA,NA
63109,St. Louis city,MO,NA,79.39393939393939,NA,NA
63116,St. Louis city,MO,NA,NA,63.020833333333336,59.130434782608695
63125,St. Louis County,MO,NA,NA,NA,18.695652173913043
63126,St. Louis County,MO,NA,88.7878787878788,NA,NA
63376,St. Charles County,MO,NA,10.909090909090908,NA,NA
63645,Madison County,MO,70.8502024291498,NA,NA,NA
63775,Perry County,MO,NA,NA,NA,31.30434782608696
63873,New Madrid County,MO,NA,NA,NA,92.6086956521739
64012,Cass County,MO,24.291497975708502,NA,NA,NA
64015,Jackson County,MO,36.032388663967616,NA,NA,NA
64030,Jackson County,MO,NA,20.303030303030305,NA,NA
64057,Jackson County,MO,55.465587044534416,NA,NA,NA
64075,Jackson County,MO,NA,NA,74.47916666666666,NA
64108,Jackson County,MO,NA,61.51515151515151,NA,NA
64111,Jackson County,MO,NA,NA,54.6875,NA
64130,Jackson County,MO,15.384615384615385,NA,NA,NA
64134,Jackson County,MO,8.906882591093117,NA,NA,NA
64506,Buchanan County,MO,NA,NA,NA,3.4782608695652173
64870,Jasper County,MO,52.63157894736842,NA,NA,NA
65203,Boone County,MO,40.48582995951417,NA,NA,NA
65270,Randolph County,MO,28.34008097165992,NA,NA,NA
65706,Webster County,MO,NA,NA,76.04166666666666,NA
65802,Greene County,MO,NA,NA,NA,27.82608695652174
65803,Greene County,MO,10.931174089068826,NA,NA,NA
59044,Yellowstone County,MT,89.47368421052632,NA,NA,NA
59701,Silver Bow County,MT,NA,65.45454545454545,NA,NA
68111,Douglas County,NE,NA,24.242424242424242,NA,NA
68164,Douglas County,NE,NA,76.06060606060606,NA,NA
89104,Clark County,NV,NA,42.42424242424242,NA,NA
89122,Clark County,NV,46.15384615384615,NA,NA,NA
89144,Clark County,NV,78.13765182186235,NA,NA,NA
89145,Clark County,NV,75.7085020242915,NA,NA,NA
89410,Douglas County,NV,NA,NA,NA,44.78260869565218
89434,Washoe County,NV,NA,46.36363636363636,NA,NA
89460,Douglas County,NV,NA,NA,55.208333333333336,NA
89512,Washoe County,NV,NA,18.484848484848484,NA,NA
03054,Hillsborough County,NH,NA,33.63636363636363,NA,NA
03110,Hillsborough County,NH,NA,60,NA,NA
03741,Grafton County,NH,NA,99.39393939393939,NA,NA
03801,Rockingham County,NH,NA,53.333333333333336,NA,NA
07004,Essex County,NJ,NA,NA,NA,89.13043478260869
07010,Bergen County,NJ,NA,NA,NA,53.47826086956522
07032,Hudson County,NJ,NA,NA,75,NA
07042,Essex County,NJ,NA,NA,64.58333333333334,NA
07047,Hudson County,NJ,NA,69.39393939393939,NA,NA
07060,Union County,NJ,NA,6.0606060606060606,NA,NA
07087,Hudson County,NJ,13.360323886639677,NA,NA,NA
07104,Essex County,NJ,NA,5.151515151515151,NA,NA
07109,Essex County,NJ,NA,93.63636363636364,NA,NA
07430,Bergen County,NJ,NA,NA,61.458333333333336,NA
07601,Bergen County,NJ,32.79352226720648,NA,NA,NA
07644,Bergen County,NJ,NA,NA,97.91666666666666,NA
07677,Bergen County,NJ,NA,96.96969696969697,NA,NA
07740,Monmouth County,NJ,1.6194331983805668,NA,NA,NA
07834,Morris County,NJ,NA,70,NA,NA
07856,Morris County,NJ,NA,97.87878787878788,NA,NA
07876,Morris County,NJ,95.95141700404858,NA,NA,NA
08003,Camden County,NJ,63.1578947368421,NA,NA,NA
08046,Burlington County,NJ,NA,49.3939393939394,NA,NA
08065,Burlington County,NJ,NA,95.45454545454545,NA,NA
08094,Gloucester County,NJ,19.4331983805668,NA,NA,NA
08096,Gloucester County,NJ,25.910931174089068,NA,NA,NA
08102,Camden County,NJ,NA,7.878787878787878,NA,NA
08107,Camden County,NJ,NA,NA,97.39583333333334,NA
08210,Cape May County,NJ,NA,NA,95.3125,59.56521739130435
08270,Cape May County,NJ,NA,58.78787878787879,NA,NA
08505,Burlington County,NJ,NA,62.42424242424243,NA,NA
08618,Mercer County,NJ,78.94736842105263,NA,NA,NA
08628,Mercer County,NJ,NA,NA,85.9375,NA
08701,Ocean County,NJ,NA,NA,47.91666666666667,NA
08731,Ocean County,NJ,NA,94.24242424242424,NA,NA
08826,Hunterdon County,NJ,NA,96.66666666666667,NA,NA
08879,Middlesex County,NJ,NA,68.18181818181817,NA,NA
87031,Valencia County,NM,37.65182186234818,NA,NA,NA
87104,Bernalillo County,NM,85.4251012145749,NA,NA,NA
87114,Bernalillo County,NM,17.408906882591094,NA,NA,NA
87120,Bernalillo County,NM,NA,NA,18.229166666666664,NA
87122,Bernalillo County,NM,NA,90.6060606060606,NA,NA
87144,Sandoval County,NM,42.91497975708502,NA,NA,NA
87313,McKinley County,NM,NA,81.51515151515152,NA,NA
88101,Curry County,NM,NA,NA,NA,10.869565217391305
88310,Otero County,NM,21.45748987854251,NA,NA,NA
88345,Lincoln County,NM,NA,NA,90.625,NA
10003,New York County,NY,79.75708502024291,NA,NA,NA
10023,New York County,NY,NA,NA,55.729166666666664,NA
10024,New York County,NY,NA,NA,NA,7.82608695652174
10025,New York County,NY,NA,NA,NA,3.91304347826087
10028,New York County,NY,NA,NA,NA,26.08695652173913
10033,New York County,NY,NA,NA,25,NA
10301,Richmond County,NY,NA,NA,NA,22.608695652173914
10312,Richmond County,NY,NA,NA,NA,27.391304347826086
10455,Bronx County,NY,16.599190283400812,NA,NA,NA
10456,Bronx County,NY,0,NA,NA,NA
10458,Bronx County,NY,NA,0.6060606060606061,NA,NA
10468,Bronx County,NY,6.0728744939271255,NA,NA,NA
10528,Westchester County,NY,NA,NA,NA,86.08695652173914
10550,Westchester County,NY,NA,27.575757575757574,NA,NA
10701,Westchester County,NY,NA,1.5151515151515151,6.25,NA
10703,Westchester County,NY,NA,NA,NA,63.04347826086957
10984,Rockland County,NY,NA,NA,94.79166666666666,NA
11216,Kings County,NY,NA,NA,10.416666666666668,NA
11226,Kings County,NY,10.121457489878543,NA,NA,NA
11354,Queens County,NY,NA,NA,NA,30.434782608695656
11374,Queens County,NY,NA,NA,NA,28.26086956521739
11415,Queens County,NY,NA,NA,NA,82.17391304347827
11416,Queens County,NY,72.46963562753037,NA,NA,NA
11434,Queens County,NY,NA,NA,NA,23.47826086956522
11520,Nassau County,NY,NA,NA,46.35416666666667,NA
11598,Nassau County,NY,NA,95.15151515151516,NA,NA
11730,Suffolk County,NY,NA,NA,98.95833333333334,NA
11747,Suffolk County,NY,97.57085020242914,NA,NA,NA
11950,Suffolk County,NY,NA,NA,88.54166666666666,NA
12010,Montgomery County,NY,NA,NA,7.8125,NA
12065,Saratoga County,NY,NA,NA,NA,30
12078,Fulton County,NY,27.125506072874494,NA,NA,NA
12208,Albany County,NY,NA,64.54545454545455,NA,NA
12308,Schenectady County,NY,NA,42.12121212121212,NA,NA
12528,Ulster County,NY,NA,83.03030303030303,NA,NA
12534,Columbia County,NY,NA,NA,NA,20
12538,Dutchess County,NY,NA,NA,NA,60.86956521739131
12804,Warren County,NY,NA,NA,15.104166666666666,NA
12831,Saratoga County,NY,NA,NA,58.333333333333336,NA
12958,Clinton County,NY,NA,98.18181818181819,NA,NA
13032,Madison County,NY,48.582995951417004,NA,NA,NA
13068,Tompkins County,NY,NA,80.3030303030303,NA,NA
13090,Onondaga County,NY,NA,18.484848484848484,NA,NA
13212,Onondaga County,NY,NA,NA,NA,67.3913043478261
13350,Herkimer County,NY,33.603238866396765,NA,NA,64.78260869565217
14218,Erie County,NY,NA,22.424242424242426,NA,NA
14304,Niagara County,NY,NA,4.242424242424243,NA,NA
14424,Ontario County,NY,NA,NA,1.5625,NA
14454,Livingston County,NY,NA,74.24242424242425,NA,NA
14534,Monroe County,NY,6.477732793522267,NA,NA,NA
14559,Monroe County,NY,NA,12.121212121212121,NA,NA
14564,Ontario County,NY,31.57894736842105,NA,NA,NA
14580,Monroe County,NY,NA,NA,0.5208333333333333,NA
14619,Monroe County,NY,50.607287449392715,NA,NA,NA
14624,Monroe County,NY,5.668016194331984,NA,NA,14.347826086956522
14625,Monroe County,NY,NA,NA,NA,69.56521739130434
14760,Cattaraugus County,NY,21.052631578947366,NA,17.708333333333336,NA
14879,Steuben County,NY,94.33198380566802,NA,NA,NA
27030,Surry County,NC,8.502024291497975,NA,NA,NA
27043,Stokes County,NC,NA,NA,NA,92.17391304347827
27055,Yadkin County,NC,NA,NA,NA,60.43478260869565
27260,Guilford County,NC,35.62753036437247,NA,NA,NA
27330,Lee County,NC,42.51012145748988,NA,NA,NA
27410,Guilford County,NC,23.481781376518217,NA,NA,NA
27704,Durham County,NC,NA,NA,36.97916666666667,NA
27705,Durham County,NC,25.506072874493928,NA,NA,NA
27713,Durham County,NC,NA,59.696969696969695,NA,23.043478260869566
27804,Nash County,NC,NA,35.75757575757576,NA,NA
27863,Wayne County,NC,NA,88.18181818181819,NA,NA
27944,Perquimans County,NC,NA,NA,NA,67.82608695652173
28110,Union County,NC,30.364372469635626,NA,NA,NA
28115,Iredell County,NC,NA,NA,40.10416666666667,NA
28117,Iredell County,NC,NA,32.42424242424242,NA,NA
28144,Rowan County,NC,NA,NA,NA,57.391304347826086
28166,Iredell County,NC,NA,82.12121212121211,NA,NA
28215,Mecklenburg County,NC,NA,NA,24.479166666666664,NA
28301,Cumberland County,NC,NA,40.303030303030305,NA,NA
28304,Cumberland County,NC,NA,NA,NA,54.78260869565217
28305,Cumberland County,NC,94.33198380566802,NA,NA,NA
28431,Columbus County,NC,NA,77.27272727272727,NA,NA
28461,Brunswick County,NC,91.09311740890689,NA,NA,NA
28518,Duplin County,NC,NA,NA,91.14583333333334,NA
28540,Onslow County,NC,13.765182186234817,NA,NA,40.43478260869565
28562,Craven County,NC,NA,43.63636363636363,NA,NA
28570,Carteret County,NC,84.61538461538461,NA,NA,NA
28621,Surry County,NC,NA,NA,60.416666666666664,NA
28645,Caldwell County,NC,10.526315789473683,NA,NA,NA
28675,Alleghany County,NC,NA,NA,85.41666666666666,NA
28690,Burke County,NC,93.11740890688259,NA,NA,NA
28779,Jackson County,NC,NA,84.84848484848484,NA,NA
28792,Henderson County,NC,NA,NA,NA,2.608695652173913
58103,Cass County,ND,NA,6.363636363636363,NA,NA
43062,Licking County,OH,NA,NA,40.625,NA
43081,Franklin County,OH,NA,NA,16.145833333333336,NA
43147,Fairfield County,OH,NA,NA,NA,52.60869565217391
43211,Franklin County,OH,NA,NA,42.70833333333333,NA
43213,Franklin County,OH,0.8097165991902834,NA,NA,NA
43229,Franklin County,OH,4.4534412955465585,NA,NA,NA
43230,Franklin County,OH,NA,17.272727272727273,NA,NA
43449,Ottawa County,OH,NA,72.12121212121212,NA,NA
43551,Wood County,OH,NA,NA,9.895833333333332,NA
43560,Lucas County,OH,NA,27.878787878787882,NA,NA
43609,Lucas County,OH,NA,NA,NA,84.34782608695653
43613,Lucas County,OH,NA,3.3333333333333335,NA,NA
43701,Muskingum County,OH,NA,NA,NA,3.0434782608695654
43943,Jefferson County,OH,NA,NA,98.4375,NA
44012,Lorain County,OH,73.27935222672065,NA,NA,NA
44035,Lorain County,OH,NA,0.30303030303030304,NA,NA
44052,Lorain County,OH,4.8582995951417,NA,NA,NA
44105,Cuyahoga County,OH,NA,5.454545454545454,NA,NA
44109,Cuyahoga County,OH,0.4048582995951417,NA,4.166666666666666,NA
44116,Cuyahoga County,OH,NA,86.36363636363636,NA,NA
44118,Cuyahoga County,OH,NA,13.030303030303031,NA,NA
44119,Cuyahoga County,OH,NA,23.939393939393938,NA,NA
44122,Cuyahoga County,OH,NA,NA,6.770833333333333,NA
44126,Cuyahoga County,OH,NA,NA,NA,78.26086956521739
44130,Cuyahoga County,OH,8.097165991902834,3.939393939393939,NA,NA
44134,Cuyahoga County,OH,NA,33.33333333333333,NA,NA
44142,Cuyahoga County,OH,NA,NA,NA,22.17391304347826
44231,Portage County,OH,92.71255060728745,NA,NA,NA
44236,Summit County,OH,53.84615384615385,NA,NA,NA
44256,Medina County,OH,2.42914979757085,NA,NA,NA
44408,Columbiana County,OH,NA,75.45454545454545,NA,NA
44483,Trumbull County,OH,NA,17.87878787878788,16.666666666666664,NA
44512,Mahoning County,OH,NA,NA,NA,21.304347826086957
44646,Stark County,OH,NA,9.393939393939393,NA,NA
44657,Stark County,OH,NA,NA,69.79166666666666,NA
44663,Tuscarawas County,OH,NA,NA,21.875,NA
44706,Stark County,OH,NA,NA,NA,95.21739130434783
44820,Crawford County,OH,NA,26.36363636363636,NA,NA
44839,Erie County,OH,NA,58.484848484848484,NA,NA
44870,Erie County,OH,2.834008097165992,NA,NA,NA
45011,Butler County,OH,1.214574898785425,NA,5.729166666666666,NA
45044,Butler County,OH,NA,NA,17.1875,24.782608695652176
45066,Warren County,OH,NA,63.63636363636363,NA,NA
45103,Clermont County,OH,NA,NA,30.729166666666668,NA
45220,Hamilton County,OH,NA,NA,91.66666666666666,NA
45224,Hamilton County,OH,NA,NA,61.979166666666664,NA
45230,Hamilton County,OH,NA,54.848484848484844,NA,NA
45242,Hamilton County,OH,NA,NA,71.35416666666666,NA
45331,Darke County,OH,NA,NA,NA,43.913043478260875
45356,Miami County,OH,NA,NA,NA,34.78260869565217
45385,Greene County,OH,NA,NA,NA,12.173913043478262
45415,Montgomery County,OH,58.2995951417004,NA,NA,NA
45601,Ross County,OH,NA,NA,NA,0
45669,Lawrence County,OH,37.24696356275304,NA,NA,NA
45690,Pike County,OH,40.08097165991903,NA,NA,NA
45714,Washington County,OH,NA,NA,21.354166666666664,NA
45750,Washington County,OH,NA,NA,1.0416666666666665,NA
73047,,OK,NA,NA,NA,100
73110,Oklahoma County,OK,NA,NA,NA,17.391304347826086
73112,Oklahoma County,OK,NA,38.484848484848484,NA,NA
73135,Oklahoma County,OK,NA,NA,NA,91.73913043478261
73160,Cleveland County,OK,NA,14.242424242424242,NA,NA
73179,Oklahoma County,OK,NA,96.36363636363636,NA,NA
73529,Stephens County,OK,NA,NA,NA,98.69565217391305
74012,Tulsa County,OK,NA,27.27272727272727,NA,NA
74126,Tulsa County,OK,66.80161943319838,NA,NA,NA
97060,Multnomah County,OR,NA,45.45454545454545,NA,NA
97132,Yamhill County,OR,NA,NA,38.54166666666667,NA
97209,Multnomah County,OR,59.51417004048582,NA,NA,NA
97301,Marion County,OR,NA,NA,82.29166666666666,NA
97401,Lane County,OR,NA,NA,NA,44.34782608695652
97424,Lane County,OR,57.08502024291497,NA,NA,NA
97448,Lane County,OR,NA,NA,NA,93.04347826086956
97520,Jackson County,OR,NA,NA,56.25,NA
97527,Josephine County,OR,NA,47.27272727272727,NA,NA
15065,Allegheny County,PA,NA,69.0909090909091,NA,NA
15074,Beaver County,PA,NA,66.36363636363637,NA,NA
15101,Allegheny County,PA,NA,NA,NA,18.26086956521739
15108,Allegheny County,PA,NA,44.24242424242424,NA,NA
15129,Allegheny County,PA,NA,NA,83.33333333333334,NA
15136,Allegheny County,PA,54.25101214574899,NA,NA,NA
15201,Allegheny County,PA,NA,61.212121212121204,NA,NA
15211,Allegheny County,PA,NA,NA,83.85416666666666,NA
15236,Allegheny County,PA,16.194331983805668,NA,NA,14.782608695652174
15301,Washington County,PA,NA,29.6969696969697,NA,NA
15317,Washington County,PA,7.6923076923076925,NA,NA,NA
15401,Fayette County,PA,NA,8.181818181818182,NA,NA
15478,Fayette County,PA,75.30364372469636,NA,NA,NA
15552,Somerset County,PA,NA,NA,NA,86.95652173913044
15601,Westmoreland County,PA,NA,NA,2.604166666666667,NA
15642,Westmoreland County,PA,27.93522267206478,25.757575757575758,NA,NA
15650,Westmoreland County,PA,NA,NA,20.833333333333336,NA
16117,Lawrence County,PA,NA,NA,NA,34.34782608695652
16226,Armstrong County,PA,NA,NA,NA,68.26086956521739
16335,Crawford County,PA,39.67611336032389,NA,NA,NA
16424,Crawford County,PA,NA,NA,NA,90.43478260869566
16830,Clearfield County,PA,NA,31.212121212121215,NA,NA
16866,Centre County,PA,NA,NA,78.125,NA
17044,Mifflin County,PA,NA,14.84848484848485,NA,NA
17046,Lebanon County,PA,NA,9.696969696969697,NA,NA
17350,Adams County,PA,NA,91.81818181818183,NA,NA
17403,York County,PA,NA,2.727272727272727,NA,NA
17701,Lycoming County,PA,12.550607287449392,NA,NA,NA
18031,Lehigh County,PA,NA,80,NA,NA
18034,Lehigh County,PA,NA,86.66666666666667,NA,NA
18064,Northampton County,PA,81.78137651821862,NA,NA,NA
18067,Northampton County,PA,NA,43.63636363636363,38.02083333333333,NA
18411,Lackawanna County,PA,50.20242914979757,NA,NA,NA
18706,Luzerne County,PA,NA,NA,NA,42.173913043478265
18902,Bucks County,PA,87.85425101214574,NA,NA,NA
18914,Bucks County,PA,87.85425101214574,NA,NA,NA
18960,Bucks County,PA,70.04048582995951,NA,NA,NA
18976,Bucks County,PA,87.04453441295547,NA,NA,NA
19004,Montgomery County,PA,NA,NA,NA,75.65217391304347
19013,Delaware County,PA,19.4331983805668,NA,NA,NA
19014,Delaware County,PA,NA,75.15151515151514,NA,NA
19015,Delaware County,PA,81.37651821862349,NA,NA,NA
19022,Delaware County,PA,NA,93.33333333333333,NA,NA
19054,Bucks County,PA,69.23076923076923,NA,NA,NA
19063,Delaware County,PA,NA,24.545454545454547,NA,NA
19073,Delaware County,PA,NA,NA,44.27083333333333,NA
19082,Delaware County,PA,NA,NA,33.85416666666667,NA
19083,Delaware County,PA,23.88663967611336,NA,NA,NA
19086,Delaware County,PA,NA,90.30303030303031,NA,NA
19111,Philadelphia County,PA,NA,23.03030303030303,NA,NA
19114,Philadelphia County,PA,NA,NA,26.5625,NA
19115,Philadelphia County,PA,NA,22.727272727272727,NA,NA
19125,Philadelphia County,PA,NA,89.6969696969697,NA,NA
19133,Philadelphia County,PA,17.00404858299595,NA,NA,NA
19140,Philadelphia County,PA,2.0242914979757085,NA,NA,NA
19147,Philadelphia County,PA,34.0080971659919,NA,71.35416666666666,NA
19148,Philadelphia County,PA,NA,54.54545454545454,NA,NA
19151,Philadelphia County,PA,22.672064777327936,16.060606060606062,NA,NA
19154,Philadelphia County,PA,NA,48.78787878787879,NA,37.391304347826086
19311,Chester County,PA,93.52226720647774,NA,NA,NA
19320,Chester County,PA,9.31174089068826,NA,NA,NA
19344,Chester County,PA,NA,NA,NA,80.8695652173913
19348,Chester County,PA,44.93927125506073,NA,NA,NA
19380,Chester County,PA,NA,NA,8.333333333333332,NA
19422,Montgomery County,PA,NA,NA,NA,57.826086956521735
19462,Montgomery County,PA,77.32793522267207,NA,NA,NA
19526,Berks County,PA,NA,72.72727272727273,NA,NA
19602,Berks County,PA,NA,12.727272727272727,NA,73.47826086956522
19606,Berks County,PA,NA,11.818181818181818,NA,NA
02920,Providence County,RI,45.34412955465587,NA,NA,NA
29180,Fairfield County,SC,NA,81.81818181818183,NA,NA
29303,Spartanburg County,SC,NA,46.06060606060606,NA,NA
29334,Spartanburg County,SC,93.92712550607287,NA,NA,NA
29461,Berkeley County,SC,21.86234817813765,NA,NA,NA
29520,Chesterfield County,SC,NA,NA,NA,85.21739130434783
29550,Darlington County,SC,NA,NA,28.125,NA
29566,Horry County,SC,NA,78.48484848484848,NA,NA
29591,Florence County,SC,NA,93.93939393939394,NA,NA
29650,Greenville County,SC,47.368421052631575,NA,NA,NA
29657,Pickens County,SC,32.388663967611336,NA,NA,NA
29745,York County,SC,NA,53.63636363636364,NA,NA
29803,Aiken County,SC,NA,NA,13.541666666666666,NA
57006,Brookings County,SD,NA,NA,NA,54.347826086956516
57401,Brown County,SD,NA,NA,11.458333333333332,NA
37066,Sumner County,TN,NA,NA,13.020833333333334,NA
37073,Robertson County,TN,74.89878542510121,NA,NA,NA
37167,Rutherford County,TN,18.218623481781375,28.78787878787879,NA,NA
37218,Davidson County,TN,NA,NA,NA,73.04347826086956
37355,Coffee County,TN,NA,NA,NA,66.08695652173913
37416,Hamilton County,TN,NA,NA,NA,81.73913043478261
37748,Roane County,TN,NA,69.6969696969697,NA,NA
37807,Union County,TN,NA,NA,86.45833333333334,NA
37821,Cocke County,TN,NA,NA,39.0625,NA
37874,Monroe County,TN,NA,44.54545454545455,NA,NA
38115,Shelby County,TN,NA,NA,NA,76.95652173913044
38139,Shelby County,TN,NA,NA,NA,85.65217391304348
38478,Giles County,TN,NA,NA,NA,69.1304347826087
38571,Cumberland County,TN,NA,NA,NA,66.95652173913044
75007,Denton County,TX,64.37246963562752,NA,NA,NA
75038,Dallas County,TX,NA,62.727272727272734,NA,NA
75067,Denton County,TX,NA,33.939393939393945,NA,NA
75137,Dallas County,TX,NA,NA,NA,70
75142,Kaufman County,TX,NA,NA,NA,68.69565217391305
75147,Kaufman County,TX,82.5910931174089,NA,NA,NA
75154,Ellis County,TX,NA,46.96969696969697,NA,NA
75181,Dallas County,TX,NA,NA,NA,90.8695652173913
75217,Dallas County,TX,NA,NA,11.979166666666668,NA
75220,Dallas County,TX,34.81781376518219,NA,NA,NA
75765,Wood County,TX,NA,NA,NA,60
75904,Angelina County,TX,NA,35.45454545454545,NA,NA
76011,Tarrant County,TX,NA,57.27272727272727,NA,NA
76039,Tarrant County,TX,NA,39.09090909090909,NA,NA
76049,Hood County,TX,68.82591093117408,NA,NA,NA
76053,Tarrant County,TX,NA,73.63636363636363,NA,NA
76086,Parker County,TX,NA,60.909090909090914,NA,NA
76106,Tarrant County,TX,NA,NA,NA,78.69565217391305
76117,Tarrant County,TX,18.62348178137652,NA,NA,NA
76504,Bell County,TX,NA,10.606060606060606,NA,NA
76541,Bell County,TX,NA,NA,52.604166666666664,NA
76710,McLennan County,TX,NA,NA,51.5625,NA
76712,McLennan County,TX,NA,NA,NA,40
77381,Montgomery County,TX,64.77732793522267,NA,NA,NA
77429,Harris County,TX,NA,13.333333333333334,NA,NA
77449,Harris County,TX,NA,NA,33.33333333333333,NA
77471,Fort Bend County,TX,NA,NA,NA,56.95652173913044
77505,Harris County,TX,NA,NA,NA,70.43478260869566
77568,Galveston County,TX,NA,NA,36.45833333333333,NA
77573,Galveston County,TX,NA,10.303030303030303,NA,NA
77575,Liberty County,TX,NA,NA,68.22916666666666,NA
77651,Jefferson County,TX,91.90283400809717,NA,NA,NA
78023,Bexar County,TX,NA,91.21212121212122,NA,NA
78046,Webb County,TX,3.643724696356275,NA,NA,NA
78121,Wilson County,TX,NA,NA,NA,94.78260869565217
78130,Comal County,TX,NA,NA,NA,13.043478260869565
78230,Bexar County,TX,NA,NA,66.66666666666666,NA
78240,Bexar County,TX,24.696356275303643,NA,NA,NA
78390,San Patricio County,TX,86.63967611336032,NA,NA,NA
78541,Hidalgo County,TX,30.76923076923077,NA,NA,NA
78596,Hidalgo County,TX,46.15384615384615,74.54545454545455,NA,NA
78621,Bastrop County,TX,NA,NA,NA,80.43478260869566
78741,Travis County,TX,54.655870445344135,NA,NA,NA
78750,Travis County,TX,NA,NA,82.8125,NA
79323,Yoakum County,TX,NA,80.3030303030303,NA,NA
79415,Lubbock County,TX,NA,NA,NA,91.30434782608695
79416,Lubbock County,TX,NA,NA,64.0625,NA
79707,Midland County,TX,NA,34.54545454545455,NA,NA
79912,El Paso County,TX,NA,NA,NA,29.565217391304348
84037,Davis County,UT,34.41295546558704,NA,NA,NA
84050,Morgan County,UT,NA,NA,NA,99.56521739130434
84118,Salt Lake County,UT,25.101214574898783,NA,NA,NA
84526,Carbon County,UT,NA,97.27272727272728,NA,NA
84721,Iron County,UT,NA,NA,73.95833333333334,NA
84737,Washington County,UT,NA,85.45454545454545,NA,NA
05301,Windham County,VT,NA,NA,NA,53.04347826086957
05401,Chittenden County,VT,NA,NA,NA,55.21739130434783
05446,Chittenden County,VT,74.49392712550608,NA,NA,NA
20190,Fairfax County,VA,NA,NA,95.83333333333334,NA
22044,Fairfax County,VA,72.06477732793523,NA,NA,NA
22101,Fairfax County,VA,48.178137651821864,NA,NA,NA
22193,Prince William County,VA,NA,15.757575757575756,NA,NA
22205,Arlington County,VA,NA,87.87878787878788,NA,NA
22407,Spotsylvania County,VA,NA,NA,23.958333333333336,NA
22911,Albemarle County,VA,NA,NA,NA,36.52173913043478
23005,Hanover County,VA,NA,76.36363636363637,NA,NA
23059,Henrico County,VA,NA,82.72727272727273,NA,NA
23112,Chesterfield County,VA,NA,45.75757575757576,NA,NA
23188,James City County,VA,NA,NA,NA,1.7391304347826086
23321,Chesapeake city,VA,NA,NA,NA,28.695652173913043
23502,Norfolk city,VA,NA,NA,41.14583333333333,NA
23831,Chesterfield County,VA,NA,39.39393939393939,NA,NA
23860,Hopewell city,VA,NA,32.72727272727273,NA,NA
24019,Roanoke County,VA,NA,NA,NA,49.56521739130435
24153,Salem city,VA,NA,36.06060606060606,NA,NA
24210,Washington County,VA,NA,NA,NA,50.43478260869565
24558,Halifax County,VA,89.87854251012146,NA,NA,NA
24592,Halifax County,VA,NA,NA,NA,38.69565217391304
98028,King County,WA,NA,NA,NA,71.73913043478261
98029,King County,WA,NA,NA,NA,70.86956521739131
98030,King County,WA,NA,28.18181818181818,NA,NA
98166,King County,WA,NA,NA,59.375,NA
98208,Snohomish County,WA,NA,NA,NA,51.73913043478261
98274,Skagit County,WA,NA,NA,50,NA
98333,Pierce County,WA,98.78542510121457,NA,NA,NA
98363,Clallam County,WA,NA,NA,46.875,NA
98372,Pierce County,WA,NA,NA,NA,64.34782608695652
98380,Kitsap County,WA,99.59514170040485,NA,NA,NA
98391,Pierce County,WA,NA,16.666666666666664,NA,NA
98499,Pierce County,WA,NA,46.666666666666664,NA,NA
97003,NA,NA,59.91902834008097,NA,NA,NA
98661,Clark County,WA,NA,51.21212121212121,NA,NA
99201,Spokane County,WA,NA,63.33333333333333,NA,NA
99205,Spokane County,WA,NA,NA,NA,53.91304347826087
99208,Spokane County,WA,NA,43.03030303030303,NA,NA
99336,Benton County,WA,NA,NA,3.6458333333333335,8.695652173913043
99338,Benton County,WA,NA,63.030303030303024,NA,NA
20037,District of Columbia,DC,NA,NA,NA,88.69565217391305
25177,Kanawha County,WV,62.75303643724697,NA,43.75,NA
25526,Putnam County,WV,NA,41.515151515151516,NA,NA
25674,Mingo County,WV,NA,NA,99.47916666666666,NA
25701,Cabell County,WV,NA,NA,NA,33.91304347826087
26037,Brooke County,WV,NA,NA,NA,76.08695652173914
26554,Marion County,WV,17.813765182186234,NA,NA,6.086956521739131
53209,Milwaukee County,WI,NA,18.181818181818183,NA,NA
53218,Milwaukee County,WI,NA,NA,12.5,NA
53221,Milwaukee County,WI,NA,NA,NA,16.52173913043478
53235,Milwaukee County,WI,NA,NA,NA,79.13043478260869
53511,Rock County,WI,NA,NA,NA,4.782608695652174
53589,Dane County,WI,NA,NA,NA,99.1304347826087
53711,Dane County,WI,NA,NA,57.8125,NA
54409,Langlade County,WI,NA,40,NA,NA
54501,Oneida County,WI,NA,52.121212121212125,NA,NA
54601,La Crosse County,WI,NA,6.969696969696971,NA,NA
54650,La Crosse County,WI,NA,55.757575757575765,10.9375,NA
54701,Eau Claire County,WI,NA,NA,29.166666666666668,NA
54729,Chippewa County,WI,NA,NA,27.083333333333332,NA
54868,Barron County,WI,57.48987854251012,NA,NA,NA
54902,Winnebago County,WI,NA,55.45454545454545,NA,NA
54952,Winnebago County,WI,NA,50,NA,65.21739130434783
54983,Waupaca County,WI,NA,90,NA,NA
82070,Albany County,WY,80.16194331983806,NA,NA,NA
82435,Park County,WY,NA,NA,NA,56.52173913043478
