ZipCode,county,state,Youth
35014,Talladega County,AL,83.46153846153847
35173,Jefferson County,AL,48.07692307692308
35235,Jefferson County,AL,70.38461538461539
35613,Limestone County,AL,33.46153846153846
35747,Marshall County,AL,81.53846153846153
35758,Madison County,AL,36.15384615384615
85008,Maricopa County,AZ,7.307692307692308
85050,Maricopa County,AZ,31.92307692307692
85296,Maricopa County,AZ,28.846153846153843
85340,Maricopa County,AZ,33.07692307692307
85345,Maricopa County,AZ,53.07692307692308
85746,Pima County,AZ,19.230769230769234
86004,Coconino County,AZ,1.9230769230769231
72223,Pulaski County,AR,74.61538461538461
90230,Los Angeles County,CA,72.6923076923077
90242,Los Angeles County,CA,81.53846153846153
90280,Los Angeles County,CA,23.076923076923077
91011,Los Angeles County,CA,90.76923076923077
91030,Los Angeles County,CA,76.92307692307693
91504,Los Angeles County,CA,97.3076923076923
91604,Los Angeles County,CA,59.23076923076923
91786,San Bernardino County,CA,55.769230769230774
91901,San Diego County,CA,91.15384615384615
91977,San Diego County,CA,28.46153846153846
92008,San Diego County,CA,56.92307692307692
92024,San Diego County,CA,52.69230769230769
92064,San Diego County,CA,37.30769230769231
92081,San Diego County,CA,89.61538461538461
92083,San Diego County,CA,68.07692307692308
92117,San Diego County,CA,45.76923076923077
92251,Imperial County,CA,87.6923076923077
92307,San Bernardino County,CA,31.538461538461537
92530,Riverside County,CA,39.23076923076923
92532,Riverside County,CA,63.07692307692307
92646,Orange County,CA,45
92692,Orange County,CA,66.92307692307692
92780,Orange County,CA,73.07692307692307
93021,Ventura County,CA,60
93311,Kern County,CA,60.38461538461538
93638,Madera County,CA,5
94546,Alameda County,CA,57.30769230769231
94553,Contra Costa County,CA,61.53846153846154
94904,Marin County,CA,71.15384615384616
94941,Marin County,CA,22.30769230769231
95120,Santa Clara County,CA,84.23076923076923
95219,San Joaquin County,CA,85.76923076923076
95821,Sacramento County,CA,11.923076923076923
95928,Butte County,CA,40.76923076923077
80027,Boulder County,CO,37.69230769230769
80127,Jefferson County,CO,47.69230769230769
80130,Douglas County,CO,58.07692307692308
80134,Douglas County,CO,6.923076923076923
80528,Larimer County,CO,29.230769230769234
80602,Adams County,CO,30.76923076923077
80919,El Paso County,CO,82.6923076923077
81639,Routt County,CO,97.6923076923077
19703,New Castle County,DE,53.07692307692308
32533,Escambia County,FL,44.230769230769226
32608,Alachua County,FL,58.84615384615385
32696,Levy County,FL,58.07692307692308
32937,Brevard County,FL,94.23076923076923
33024,Broward County,FL,23.46153846153846
33032,Miami-Dade County,FL,14.615384615384617
33034,Miami-Dade County,FL,68.84615384615384
33062,Broward County,FL,92.3076923076923
33178,Miami-Dade County,FL,41.53846153846154
33323,Broward County,FL,91.15384615384615
33462,Palm Beach County,FL,16.538461538461537
33872,Highlands County,FL,82.3076923076923
33898,Polk County,FL,78.46153846153847
33907,Lee County,FL,55.769230769230774
33972,Lee County,FL,79.23076923076923
34231,Sarasota County,FL,65
30041,Forsyth County,GA,17.692307692307693
30075,Fulton County,GA,22.692307692307693
30107,Cherokee County,GA,94.61538461538461
30125,Polk County,GA,42.30769230769231
30549,Jackson County,GA,55.38461538461539
31322,Chatham County,GA,79.23076923076923
83835,Kootenai County,ID,66.92307692307692
83854,Kootenai County,ID,55.769230769230774
60014,McHenry County,IL,34.23076923076923
60143,DuPage County,IL,93.07692307692308
60443,Cook County,IL,54.230769230769226
60446,Will County,IL,25.384615384615383
60561,DuPage County,IL,65.76923076923077
60631,Cook County,IL,52.307692307692314
60656,Cook County,IL,62.30769230769231
62521,Macon County,IL,9.615384615384617
46062,Hamilton County,IN,42.69230769230769
46074,Hamilton County,IN,54.61538461538461
46327,Lake County,IN,33.46153846153846
46350,LaPorte County,IN,10
46368,Porter County,IN,1.5384615384615385
47274,Jackson County,IN,23.846153846153847
47421,Lawrence County,IN,38.46153846153847
51031,Plymouth County,IA,78.07692307692308
66086,Leavenworth County,KS,86.53846153846155
66209,Johnson County,KS,84.61538461538461
66221,Johnson County,KS,46.15384615384615
66223,Johnson County,KS,74.61538461538461
40272,Jefferson County,KY,11.153846153846155
40324,Scott County,KY,29.615384615384617
70520,Lafayette Parish,LA,5
71037,Bossier Parish,LA,10.76923076923077
71106,Caddo Parish,LA,3.076923076923077
21014,Harford County,MD,63.84615384615384
21161,Harford County,MD,98.46153846153847
21212,Baltimore city,MD,48.84615384615385
21239,Baltimore city,MD,16.538461538461537
02664,Barnstable County,MA,98.07692307692307
48040,St. Clair County,MI,78.84615384615384
48051,Macomb County,MI,85.38461538461539
48195,Wayne County,MI,66.15384615384615
48847,Gratiot County,MI,87.3076923076923
48848,Shiawassee County,MI,90.38461538461539
49229,Lenawee County,MI,93.84615384615384
49307,Mecosta County,MI,50
49546,Kent County,MI,57.692307692307686
55014,Anoka County,MN,76.15384615384615
55016,Washington County,MN,9.230769230769232
55117,Ramsey County,MN,6.153846153846154
55315,Carver County,MN,99.23076923076923
55349,Wright County,MN,96.92307692307692
55391,Hennepin County,MN,69.61538461538461
55443,Hennepin County,MN,35.38461538461539
56071,Scott County,MN,64.23076923076924
39465,Forrest County,MS,65.38461538461539
64030,Jackson County,MO,8.846153846153847
64052,Jackson County,MO,16.153846153846153
64077,Ray County,MO,95
64079,Platte County,MO,62.69230769230769
64089,Clay County,MO,42.69230769230769
64152,Platte County,MO,47.30769230769231
64701,Cass County,MO,34.61538461538461
68845,Buffalo County,NE,72.3076923076923
89434,Washoe County,NV,50.76923076923077
07026,Bergen County,NJ,29.615384615384617
07111,Essex County,NJ,11.538461538461538
07506,Passaic County,NJ,73.46153846153847
07628,Bergen County,NJ,98.84615384615385
07748,Monmouth County,NJ,50.38461538461539
07836,Morris County,NJ,88.46153846153845
08053,Burlington County,NJ,92.6923076923077
08810,Middlesex County,NJ,100
87031,Valencia County,NM,28.076923076923077
13323,Oneida County,NY,73.84615384615385
14059,Erie County,NY,71.53846153846153
14111,Erie County,NY,96.53846153846153
14120,Niagara County,NY,5.769230769230769
14411,Orleans County,NY,41.92307692307693
14580,Monroe County,NY,6.538461538461539
14615,Monroe County,NY,21.53846153846154
14624,Monroe County,NY,2.307692307692308
14701,Chautauqua County,NY,4.230769230769231
14843,Steuben County,NY,19.615384615384617
27263,Randolph County,NC,70
27513,Wake County,NC,61.92307692307693
28804,Buncombe County,NC,51.53846153846153
58201,Grand Forks County,ND,26.153846153846157
58703,Ward County,ND,53.07692307692308
43055,Licking County,OH,3.4615384615384617
43125,Franklin County,OH,21.923076923076923
43302,Marion County,OH,20.384615384615383
43435,Sandusky County,OH,95.76923076923077
44004,Ashtabula County,OH,0.7692307692307693
44109,Cuyahoga County,OH,0
44254,Medina County,OH,80
44484,Trumbull County,OH,21.153846153846153
44830,Seneca County,OH,18.076923076923077
44870,Erie County,OH,1.153846153846154
45002,Hamilton County,OH,26.53846153846154
45040,Warren County,OH,31.153846153846153
45042,Butler County,OH,10.384615384615385
45050,Butler County,OH,83.46153846153847
45069,Butler County,OH,7.6923076923076925
45248,Hamilton County,OH,43.84615384615385
45764,Athens County,OH,88.84615384615384
73533,Stephens County,OK,8.461538461538462
74868,Seminole County,OK,49.23076923076923
97060,Multnomah County,OR,44.61538461538462
97128,Yamhill County,OR,64.61538461538461
97321,Linn County,OR,45.38461538461539
97386,Linn County,OR,61.15384615384616
97448,Lane County,OR,91.92307692307692
15021,Washington County,PA,89.23076923076924
15025,Allegheny County,PA,76.53846153846153
15089,Westmoreland County,PA,80
15317,Washington County,PA,18.846153846153847
15683,Westmoreland County,PA,74.23076923076923
15857,Elk County,PA,38.07692307692307
16316,Crawford County,PA,86.92307692307692
16365,Warren County,PA,13.846153846153847
16509,Erie County,PA,67.6923076923077
17019,York County,PA,40.38461538461539
17084,Mifflin County,PA,88.07692307692308
17522,Lancaster County,PA,4.615384615384616
18974,Bucks County,PA,69.23076923076923
19003,Montgomery County,PA,55.00000000000001
19026,Delaware County,PA,15
19120,Philadelphia County,PA,3.8461538461538463
02860,Providence County,RI,25
02861,Providence County,RI,40
29036,Lexington County,SC,95.38461538461539
29303,Spartanburg County,SC,59.61538461538461
29414,Charleston County,SC,30.384615384615383
29466,Charleston County,SC,13.461538461538462
37404,Hamilton County,TN,43.46153846153846
37412,Hamilton County,TN,66.53846153846153
75062,Dallas County,TX,25.769230769230766
75069,Collin County,TX,24.23076923076923
75126,Kaufman County,TX,27.692307692307693
75165,Ellis County,TX,20
75189,Rockwall County,TX,68.46153846153847
75212,Dallas County,TX,17.307692307692307
75605,Gregg County,TX,38.46153846153847
76063,Tarrant County,TX,2.6923076923076925
76088,Parker County,TX,80.76923076923077
76109,Tarrant County,TX,71.53846153846153
76120,Tarrant County,TX,63.07692307692307
76691,McLennan County,TX,86.15384615384616
77040,Harris County,TX,32.69230769230769
77041,Harris County,TX,48.07692307692308
77339,Harris County,TX,49.61538461538461
77429,Harris County,TX,8.076923076923077
77459,Fort Bend County,TX,15.769230769230768
77802,Brazos County,TX,46.15384615384615
77904,Victoria County,TX,35.76923076923077
78362,San Patricio County,TX,80.76923076923077
78574,Hidalgo County,TX,39.23076923076923
78586,Cameron County,TX,26.923076923076923
78840,Val Verde County,TX,14.23076923076923
78852,Maverick County,TX,27.307692307692307
84009,Salt Lake County,UT,46.15384615384615
84010,Davis County,UT,36.92307692307693
84032,Wasatch County,UT,60.38461538461538
84095,Salt Lake County,UT,18.461538461538463
84119,Salt Lake County,UT,13.076923076923078
05001,Windsor County,VT,77.6923076923077
20186,Fauquier County,VA,70.76923076923077
22066,Fairfax County,VA,85
22645,Frederick County,VA,99.61538461538461
22727,Madison County,VA,93.46153846153847
98052,King County,WA,75.38461538461539
98110,Kitsap County,WA,90
98273,Skagit County,WA,51.153846153846146
98360,Pierce County,WA,51.92307692307693
98382,Clallam County,WA,77.3076923076923
98387,Pierce County,WA,15.384615384615385
98405,Pierce County,WA,24.615384615384617
98801,Chelan County,WA,36.53846153846153
98802,Douglas County,WA,20.76923076923077
99208,Spokane County,WA,12.692307692307692
99338,Benton County,WA,40.76923076923077
26554,Marion County,WV,11.923076923076923
53120,Walworth County,WI,83.07692307692308
53207,Milwaukee County,WI,32.30769230769231
54021,Pierce County,WI,75.38461538461539
54874,Douglas County,WI,96.15384615384616
54880,Douglas County,WI,0.38461538461538464
82718,Campbell County,WY,34.61538461538461
