ZipCode,county,state,Youth,Adult,Retirement,Geriatric
35022,Jefferson County,AL,NA,34.16856492027335,NA,NA
35057,Cullman County,AL,NA,71.64009111617312,NA,NA
35062,Jefferson County,AL,NA,NA,77.94822627037392,NA
35064,Jefferson County,AL,NA,54.55580865603644,NA,NA
35080,Shelby County,AL,NA,NA,88.7823585810163,NA
35111,Tuscaloosa County,AL,NA,NA,26.07861936720997,NA
35128,St. Clair County,AL,NA,NA,NA,91.76029962546816
35205,Jefferson County,AL,NA,60.13667425968109,NA,NA
35208,Jefferson County,AL,NA,NA,NA,78.50187265917603
35211,Jefferson County,AL,NA,59.111617312072894,NA,NA
35217,Jefferson County,AL,NA,43.8496583143508,NA,NA
35222,Jefferson County,AL,NA,NA,95.68552253116012,NA
35223,Jefferson County,AL,NA,87.12984054669704,NA,NA
35226,Jefferson County,AL,NA,NA,17.545541706615534,NA
35234,Jefferson County,AL,NA,NA,NA,96.77902621722848
35242,Shelby County,AL,NA,NA,41.03547459252157,NA
35244,Jefferson County,AL,NA,43.16628701594533,NA,52.80898876404494
35404,Tuscaloosa County,AL,NA,NA,NA,69.88764044943821
35442,Pickens County,AL,NA,NA,98.56184084372003,NA
35462,Greene County,AL,NA,82.00455580865604,NA,NA
35601,Morgan County,AL,NA,NA,12.17641418983701,NA
35646,Colbert County,AL,NA,NA,NA,95.28089887640449
35754,Morgan County,AL,NA,NA,NA,81.64794007490637
35768,Jackson County,AL,NA,54.66970387243736,NA,NA
35802,Madison County,AL,NA,NA,58.77277085330776,NA
35803,Madison County,AL,NA,NA,NA,25.0187265917603
35901,Etowah County,AL,NA,NA,NA,59.925093632958806
35904,Etowah County,AL,NA,40.43280182232346,79.19463087248322,NA
36027,Barbour County,AL,NA,NA,54.45829338446788,NA
36201,Calhoun County,AL,NA,54.32801822323462,NA,NA
36301,Houston County,AL,NA,16.173120728929387,45.25407478427613,NA
36303,Houston County,AL,NA,NA,34.51581975071908,46.666666666666664
36305,Houston County,AL,NA,NA,NA,87.94007490636704
36330,Coffee County,AL,NA,NA,NA,44.26966292134831
36502,Escambia County,AL,NA,39.40774487471526,NA,NA
36507,Baldwin County,AL,NA,NA,NA,64.64419475655431
36532,Baldwin County,AL,NA,NA,19.654841802492808,NA
36549,Baldwin County,AL,NA,NA,NA,78.20224719101122
36608,Mobile County,AL,34.49781659388647,NA,NA,NA
36617,Mobile County,AL,NA,71.75398633257403,NA,NA
36693,Mobile County,AL,NA,NA,NA,57.90262172284643
36701,Dallas County,AL,NA,NA,NA,48.31460674157304
36703,Dallas County,AL,NA,NA,54.554170661553215,NA
36801,Lee County,AL,NA,NA,NA,66.44194756554307
36854,Chambers County,AL,NA,NA,NA,66.66666666666666
99501,Anchorage Municipality,AK,25.76419213973799,NA,NA,NA
99577,Anchorage Municipality,AK,NA,98.17767653758543,NA,NA
99801,Juneau City and Borough,AK,NA,43.62186788154897,NA,NA
85006,Maricopa County,AZ,NA,NA,70.3739213806328,NA
85019,Maricopa County,AZ,NA,NA,64.1418983700863,NA
85022,Maricopa County,AZ,NA,NA,22.722914669223393,NA
85029,Maricopa County,AZ,NA,20.159453302961275,NA,43.89513108614232
85083,Maricopa County,AZ,NA,77.10706150341686,NA,NA
85120,Pinal County,AZ,NA,NA,NA,24.419475655430713
85204,Maricopa County,AZ,NA,NA,23.20230105465005,NA
85205,Maricopa County,AZ,NA,24.4874715261959,NA,19.101123595505616
85206,Maricopa County,AZ,NA,NA,NA,8.614232209737828
85207,Maricopa County,AZ,32.314410480349345,NA,NA,76.25468164794007
85208,Maricopa County,AZ,NA,NA,33.17353787152445,NA
85209,Maricopa County,AZ,NA,56.83371298405467,NA,14.906367041198502
85210,Maricopa County,AZ,NA,NA,51.29434324065196,NA
85234,Maricopa County,AZ,32.751091703056765,NA,NA,NA
85253,Maricopa County,AZ,NA,NA,NA,70.4119850187266
85257,Maricopa County,AZ,NA,NA,60.594439117929056,NA
85268,Maricopa County,AZ,NA,NA,NA,65.3932584269663
85283,Maricopa County,AZ,NA,NA,21.09300095877277,NA
85284,Maricopa County,AZ,NA,74.37357630979498,NA,NA
85301,Maricopa County,AZ,NA,NA,NA,22.99625468164794
85302,Maricopa County,AZ,NA,NA,72.96260786193672,NA
85303,Maricopa County,AZ,NA,46.01366742596811,NA,NA
85304,Maricopa County,AZ,NA,47.380410022779046,NA,NA
85306,Maricopa County,AZ,NA,NA,NA,53.78277153558052
85310,Maricopa County,AZ,NA,NA,65.86768935762224,NA
85323,Maricopa County,AZ,NA,28.018223234624145,NA,NA
85326,Maricopa County,AZ,NA,NA,NA,57.30337078651685
85331,Maricopa County,AZ,NA,NA,47.84276126558006,NA
85338,Maricopa County,AZ,NA,29.954441913439634,NA,NA
85339,Maricopa County,AZ,NA,NA,47.07574304889741,NA
85345,Maricopa County,AZ,NA,NA,9.395973154362416,NA
85349,Yuma County,AZ,NA,NA,NA,59.325842696629216
85351,Maricopa County,AZ,NA,NA,7.574304889741132,7.790262172284644
85364,Yuma County,AZ,NA,NA,NA,41.57303370786517
85373,Maricopa County,AZ,NA,NA,NA,14.45692883895131
85374,Maricopa County,AZ,NA,42.369020501138955,NA,27.490636704119854
85375,Maricopa County,AZ,NA,NA,18.024928092042185,24.044943820224717
85381,Maricopa County,AZ,NA,NA,NA,86.29213483146067
85382,Maricopa County,AZ,NA,NA,NA,11.985018726591761
85396,Maricopa County,AZ,NA,NA,NA,95.0561797752809
85634,Pima County,AZ,NA,NA,83.31735378715244,NA
85635,Cochise County,AZ,NA,NA,NA,27.340823970037455
85650,Cochise County,AZ,NA,NA,NA,40.52434456928839
85658,Pima County,AZ,NA,96.81093394077449,NA,NA
85704,Pima County,AZ,NA,NA,NA,72.28464419475655
85705,Pima County,AZ,NA,3.189066059225513,NA,NA
85706,Pima County,AZ,NA,2.164009111617312,NA,NA
85713,Pima County,AZ,NA,NA,6.519654841802493,NA
85714,Pima County,AZ,NA,91.11617312072893,NA,NA
85735,Pima County,AZ,NA,62.87015945330297,NA,NA
85746,Pima County,AZ,NA,NA,NA,42.62172284644195
86047,Navajo County,AZ,NA,62.300683371298405,28.09204218600192,NA
86301,Yavapai County,AZ,NA,NA,NA,13.183520599250937
86314,Yavapai County,AZ,NA,NA,18.312559923298178,NA
86326,Yavapai County,AZ,NA,NA,NA,15.655430711610489
86409,Mohave County,AZ,NA,7.403189066059225,NA,53.48314606741573
86442,Mohave County,AZ,NA,NA,8.245445829338447,NA
86503,Apache County,AZ,28.82096069868996,NA,NA,NA
86505,Apache County,AZ,NA,NA,NA,92.13483146067416
71602,Jefferson County,AR,NA,56.60592255125285,NA,NA
71603,Jefferson County,AR,NA,NA,NA,20.224719101123593
71639,Desha County,AR,NA,NA,NA,97.60299625468166
71667,Lincoln County,AR,NA,NA,NA,88.83895131086142
71730,Union County,AR,NA,NA,NA,63.22097378277154
71801,Hempstead County,AR,NA,NA,NA,85.61797752808988
71822,Little River County,AR,NA,NA,NA,96.92883895131087
72046,Lonoke County,AR,NA,NA,88.39884947267498,NA
72113,Pulaski County,AR,NA,NA,72.57909875359539,NA
72114,Pulaski County,AR,45.851528384279476,NA,NA,NA
72116,Pulaski County,AR,NA,67.65375854214123,NA,NA
72117,Pulaski County,AR,NA,NA,72.48322147651007,NA
72118,Pulaski County,AR,90.39301310043668,NA,NA,NA
72401,Craighead County,AR,NA,NA,NA,66.59176029962546
72404,Craighead County,AR,NA,NA,68.45637583892618,NA
72416,Craighead County,AR,NA,NA,NA,91.91011235955057
72422,Clay County,AR,NA,NA,NA,97.45318352059925
72432,Poinsett County,AR,NA,NA,NA,76.32958801498127
72450,Greene County,AR,NA,NA,20.325982742090122,NA
72455,Randolph County,AR,NA,NA,85.71428571428571,NA
72501,Independence County,AR,NA,29.726651480637813,NA,NA
72529,Sharp County,AR,NA,NA,NA,74.15730337078652
72542,Sharp County,AR,NA,95.8997722095672,NA,NA
72560,Stone County,AR,NA,NA,NA,81.64794007490637
72653,Baxter County,AR,NA,NA,NA,7.865168539325842
72701,Washington County,AR,NA,58.76993166287016,NA,NA
72712,Benton County,AR,NA,NA,35.57046979865772,NA
72758,Benton County,AR,NA,NA,NA,44.79400749063671
72802,Pope County,AR,NA,71.86788154897495,NA,NA
72830,Johnson County,AR,NA,NA,88.20709491850431,NA
90003,Los Angeles County,CA,NA,NA,66.63470757430488,NA
90004,Los Angeles County,CA,NA,NA,32.88590604026846,NA
90005,Los Angeles County,CA,NA,NA,NA,88.61423220973784
90006,Los Angeles County,CA,NA,NA,NA,36.17977528089887
90008,Los Angeles County,CA,NA,NA,NA,21.198501872659175
90011,Los Angeles County,CA,NA,NA,NA,70.78651685393258
90012,Los Angeles County,CA,NA,NA,47.93863854266539,NA
90013,Los Angeles County,CA,NA,50.34168564920274,NA,NA
90014,Los Angeles County,CA,NA,NA,77.66059443911793,NA
90016,Los Angeles County,CA,NA,NA,NA,23.520599250936332
90018,Los Angeles County,CA,NA,NA,NA,31.086142322097377
90019,Los Angeles County,CA,NA,NA,NA,8.464419475655431
90020,Los Angeles County,CA,NA,NA,NA,88.91385767790261
90023,Los Angeles County,CA,NA,NA,NA,88.01498127340824
90024,Los Angeles County,CA,NA,76.08200455580865,NA,NA
90025,Los Angeles County,CA,NA,NA,NA,57.528089887640455
90027,Los Angeles County,CA,NA,NA,52.25311601150528,68.31460674157303
90028,Los Angeles County,CA,NA,58.88382687927107,64.71716203259828,NA
90033,Los Angeles County,CA,NA,38.724373576309794,NA,NA
90035,Los Angeles County,CA,NA,NA,NA,21.04868913857678
90036,Los Angeles County,CA,NA,NA,72.29146692233941,25.91760299625468
90039,Los Angeles County,CA,NA,NA,NA,69.9625468164794
90042,Los Angeles County,CA,NA,NA,NA,61.72284644194757
90043,Los Angeles County,CA,NA,NA,17.641418983700863,27.94007490636704
90046,Los Angeles County,CA,NA,NA,18.79194630872483,NA
90047,Los Angeles County,CA,NA,12.984054669703873,NA,20.973782771535582
90049,Los Angeles County,CA,NA,NA,41.70661553211889,NA
90062,Los Angeles County,CA,NA,NA,55.70469798657718,NA
90064,Los Angeles County,CA,NA,NA,NA,19.325842696629213
90065,Los Angeles County,CA,NA,50.68337129840547,NA,NA
90066,Los Angeles County,CA,NA,NA,26.749760306807286,NA
90069,Los Angeles County,CA,NA,NA,45.349952061361456,45.69288389513109
90077,Los Angeles County,CA,NA,NA,NA,91.68539325842696
90210,Los Angeles County,CA,NA,NA,43.144774688398854,80.52434456928839
90212,Los Angeles County,CA,NA,NA,NA,59.62546816479401
90221,Los Angeles County,CA,NA,NA,NA,46.06741573033708
90230,Los Angeles County,CA,NA,NA,NA,74.8314606741573
90241,Los Angeles County,CA,NA,97.9498861047836,NA,55.50561797752809
90242,Los Angeles County,CA,NA,70.387243735763093,NA,NA
90254,Los Angeles County,CA,NA,NA,NA,85.76779026217228
90255,Los Angeles County,CA,47.59825327510917,NA,NA,67.41573033707866
90260,Los Angeles County,CA,NA,NA,85.61840843720039,NA
90270,Los Angeles County,CA,NA,NA,NA,77.22846441947566
90274,Los Angeles County,CA,NA,NA,56.27996164908916,NA
90275,Los Angeles County,CA,NA,79.612756264236907,NA,6.96629213483146
90277,Los Angeles County,CA,NA,NA,26.845637583892618,NA
90292,Los Angeles County,CA,NA,69.81776765375855,NA,NA
90403,Los Angeles County,CA,NA,NA,NA,86.59176029962546
90405,Los Angeles County,CA,NA,NA,97.31543624161074,NA
90605,Los Angeles County,CA,NA,51.82232346241457,NA,NA
90606,Los Angeles County,CA,NA,NA,55.32118887823586,NA
90638,Los Angeles County,CA,NA,NA,NA,77.30337078651685
90640,Los Angeles County,CA,NA,NA,NA,24.119850187265918
90660,Los Angeles County,CA,NA,NA,NA,19.475655430711612
90703,Los Angeles County,CA,NA,NA,28.379674017257912,NA
90723,Los Angeles County,CA,NA,NA,NA,86.14232209737828
90740,Orange County,CA,NA,NA,38.063279002876314,NA
90745,Los Angeles County,CA,NA,NA,NA,52.05992509363296
90746,Los Angeles County,CA,NA,75.17084282460137,NA,NA
90803,Los Angeles County,CA,NA,NA,NA,46.51685393258427
90804,Los Angeles County,CA,NA,39.749430523917994,NA,NA
90805,Los Angeles County,CA,NA,NA,18.887823585810164,NA
90806,Los Angeles County,CA,NA,50.91116173120729,NA,NA
90807,Los Angeles County,CA,NA,45.899772209567196,NA,49.66292134831461
90808,Los Angeles County,CA,NA,NA,82.07094918504313,31.98501872659176
90810,Los Angeles County,CA,NA,NA,NA,36.62921348314607
90813,Los Angeles County,CA,NA,28.473804100227788,NA,NA
91001,Los Angeles County,CA,NA,NA,NA,35.430711610486895
91007,Los Angeles County,CA,NA,NA,NA,74.6067415730337
91042,Los Angeles County,CA,NA,NA,46.11697027804411,92.88389513108615
91104,Los Angeles County,CA,NA,NA,NA,70.56179775280899
91107,Los Angeles County,CA,NA,NA,43.9117929050815,NA
91206,Los Angeles County,CA,NA,NA,NA,8.164794007490636
91214,Los Angeles County,CA,NA,NA,NA,42.846441947565545
91301,Los Angeles County,CA,NA,NA,88.39884947267498,NA
91302,Los Angeles County,CA,NA,78.81548974943053,71.0450623202301,57.67790262172284
91304,Los Angeles County,CA,NA,NA,NA,12.95880149812734
91306,Los Angeles County,CA,NA,35.876993166287015,NA,NA
91307,Los Angeles County,CA,NA,NA,NA,80.82397003745318
91311,Los Angeles County,CA,NA,NA,75.55129434324066,53.333333333333336
91316,Los Angeles County,CA,NA,NA,NA,19.850187265917604
91320,Ventura County,CA,NA,NA,48.70565675934804,NA
91324,Los Angeles County,CA,NA,NA,NA,76.47940074906367
91331,Los Angeles County,CA,NA,NA,66.3470757430489,27.04119850187266
91335,Los Angeles County,CA,NA,NA,NA,8.314606741573034
91342,Los Angeles County,CA,NA,NA,NA,33.48314606741573
91343,Los Angeles County,CA,NA,NA,NA,91.16104868913858
91344,Los Angeles County,CA,NA,NA,NA,16.254681647940075
91352,Los Angeles County,CA,NA,NA,38.25503355704698,NA
91355,Los Angeles County,CA,NA,NA,NA,57.90262172284643
91362,Ventura County,CA,NA,NA,35.76222435282838,NA
91364,Los Angeles County,CA,NA,NA,87.15244487056567,NA
91367,Los Angeles County,CA,NA,NA,NA,15.056179775280897
91381,Los Angeles County,CA,NA,NA,95.20613614573347,NA
91401,Los Angeles County,CA,NA,NA,NA,55.73033707865168
91402,Los Angeles County,CA,NA,23.804100227790435,NA,NA
91403,Los Angeles County,CA,NA,NA,90.31639501438158,90.86142322097378
91405,Los Angeles County,CA,NA,NA,37.96740172579099,88.68913857677903
91406,Los Angeles County,CA,NA,NA,NA,49.21348314606742
91423,Los Angeles County,CA,NA,NA,81.11217641418985,NA
91605,Los Angeles County,CA,NA,NA,NA,91.46067415730337
91606,Los Angeles County,CA,NA,NA,49.856184084372,NA
91702,Los Angeles County,CA,NA,NA,NA,49.737827715355806
91706,Los Angeles County,CA,NA,NA,28.6673058485139,73.63295880149813
91711,Los Angeles County,CA,NA,NA,NA,15.355805243445692
91722,Los Angeles County,CA,NA,64.3507972665148,NA,NA
91731,Los Angeles County,CA,NA,NA,NA,62.546816479400746
91739,San Bernardino County,CA,NA,NA,94.0556088207095,NA
91748,Los Angeles County,CA,NA,85.6492027334852,NA,NA
91752,Riverside County,CA,NA,NA,82.5503355704698,NA
91754,Los Angeles County,CA,NA,NA,54.8418024928092,54.30711610486891
91755,Los Angeles County,CA,NA,NA,84.85139022051774,NA
91763,San Bernardino County,CA,NA,NA,NA,83.22097378277154
91764,San Bernardino County,CA,NA,31.890660592255127,NA,NA
91765,Los Angeles County,CA,NA,NA,49.664429530201346,NA
91770,Los Angeles County,CA,NA,NA,NA,83.89513108614233
91776,Los Angeles County,CA,NA,NA,NA,80
91780,Los Angeles County,CA,NA,NA,NA,74.23220973782772
91789,Los Angeles County,CA,NA,NA,NA,48.08988764044943
91791,Los Angeles County,CA,NA,NA,NA,48.08988764044943
91910,San Diego County,CA,NA,NA,NA,38.57677902621723
91941,San Diego County,CA,NA,NA,NA,72.20973782771536
91978,San Diego County,CA,NA,NA,90.89165867689357,NA
92020,San Diego County,CA,NA,19.362186788154897,NA,NA
92021,San Diego County,CA,NA,NA,42.95302013422819,NA
92026,San Diego County,CA,NA,49.88610478359909,NA,NA
92027,San Diego County,CA,NA,NA,NA,41.048689138576776
92040,San Diego County,CA,NA,NA,NA,25.243445692883892
92054,San Diego County,CA,NA,70.84282460136674,NA,71.91011235955057
92056,San Diego County,CA,NA,NA,NA,9.063670411985019
92075,San Diego County,CA,NA,NA,NA,75.2059925093633
92084,San Diego County,CA,NA,NA,NA,38.651685393258425
92101,San Diego County,CA,77.29257641921397,NA,7.478427612655801,NA
92104,San Diego County,CA,NA,NA,78.52348993288591,NA
92105,San Diego County,CA,NA,NA,NA,80.0749063670412
92109,San Diego County,CA,NA,NA,50.91083413231065,NA
92110,San Diego County,CA,NA,NA,76.70182166826463,NA
92114,San Diego County,CA,NA,59.2255125284738,NA,23.970037453183522
92123,San Diego County,CA,NA,NA,70.66155321188879,NA
92128,San Diego County,CA,NA,69.3621867881549,NA,NA
92173,San Diego County,CA,NA,NA,69.12751677852349,NA
92211,Riverside County,CA,NA,NA,6.7114093959731544,29.812734082397004
92223,Riverside County,CA,NA,NA,68.64813039309684,NA
92243,Imperial County,CA,NA,22.209567198177677,NA,NA
92253,Riverside County,CA,NA,NA,NA,35.88014981273408
92260,Riverside County,CA,NA,NA,61.936720997123686,0.9737827715355805
92262,Riverside County,CA,NA,NA,NA,38.951310861423224
92264,Riverside County,CA,NA,NA,NA,12.284644194756554
92270,Riverside County,CA,NA,NA,5.848513902205178,2.546816479400749
92311,San Bernardino County,CA,NA,NA,48.034515819750716,NA
92335,San Bernardino County,CA,NA,NA,12.751677852348994,NA
92336,San Bernardino County,CA,51.09170305676856,NA,NA,NA
92394,San Bernardino County,CA,NA,NA,57.14285714285714,NA
92501,Riverside County,CA,NA,NA,75.74304889741131,NA
92507,Riverside County,CA,NA,NA,NA,55.655430711610485
92509,Riverside County,CA,NA,NA,NA,35.95505617977528
92544,Riverside County,CA,NA,NA,NA,54.08239700374532
92555,Riverside County,CA,NA,NA,NA,76.70411985018727
92584,Riverside County,CA,NA,39.521640091116176,NA,NA
92592,Riverside County,CA,NA,55.35307517084283,NA,NA
92612,Orange County,CA,NA,NA,NA,47.340823970037455
92625,Orange County,CA,NA,NA,60.78619367209971,NA
92626,Orange County,CA,NA,NA,71.42857142857143,NA
92629,Orange County,CA,NA,NA,NA,30.112359550561795
92637,Orange County,CA,NA,98.51936218678816,NA,17.528089887640448
92662,Orange County,CA,NA,NA,NA,88.01498127340824
92683,Orange County,CA,NA,NA,50.04793863854267,4.044943820224719
92691,Orange County,CA,NA,NA,17.353787152444873,NA
92692,Orange County,CA,NA,66.74259681093395,NA,37.153558052434455
92705,Orange County,CA,NA,93.28018223234625,NA,NA
92706,Orange County,CA,NA,NA,NA,58.72659176029963
92708,Orange County,CA,NA,NA,NA,18.127340823970037
92802,Orange County,CA,NA,NA,37.58389261744966,NA
92804,Orange County,CA,NA,NA,NA,18.95131086142322
92807,Orange County,CA,NA,NA,34.70757430488975,NA
92821,Orange County,CA,NA,NA,NA,25.468164794007492
92831,Orange County,CA,NA,NA,NA,86.66666666666667
92840,Orange County,CA,NA,NA,NA,19.02621722846442
92865,Orange County,CA,NA,NA,78.71524448705657,NA
92867,Orange County,CA,NA,NA,NA,26.591760299625467
92869,Orange County,CA,NA,NA,NA,42.32209737827715
92870,Orange County,CA,NA,NA,85.81016299137104,NA
92880,Riverside County,CA,NA,NA,NA,63.74531835205992
92883,Riverside County,CA,NA,NA,58.101629913710454,NA
93021,Ventura County,CA,NA,NA,45.15819750719079,NA
93022,Ventura County,CA,NA,96.46924829157174,NA,NA
93063,Ventura County,CA,34.49781659388647,NA,NA,NA
93065,Ventura County,CA,NA,40.77448747152619,16.10738255033557,13.93258426966292
93105,Santa Barbara County,CA,NA,86.67425968109339,86.0019175455417,NA
93277,Tulare County,CA,NA,22.4373576309795,NA,NA
93304,Kern County,CA,18.777292576419214,NA,NA,NA
93312,Kern County,CA,NA,NA,38.830297219558965,NA
93401,San Luis Obispo County,CA,NA,NA,NA,46.741573033707866
93420,San Luis Obispo County,CA,NA,NA,NA,39.176029962546814
93428,San Luis Obispo County,CA,NA,NA,NA,85.69288389513109
93543,Los Angeles County,CA,NA,NA,NA,99.5505617977528
93550,Los Angeles County,CA,NA,11.389521640091116,NA,NA
93551,Los Angeles County,CA,NA,NA,NA,62.32209737827715
93561,Kern County,CA,NA,68.22323462414579,NA,NA
93614,Madera County,CA,NA,NA,NA,77.97752808988764
93635,Merced County,CA,NA,35.53530751708428,NA,NA
93638,Madera County,CA,NA,15.489749430523919,NA,NA
93654,Fresno County,CA,NA,NA,NA,61.27340823970038
93703,Fresno County,CA,NA,39.17995444191344,54.36241610738255,NA
93710,Fresno County,CA,NA,NA,NA,41.12359550561798
93711,Fresno County,CA,49.78165938864629,NA,32.31064237775647,NA
93933,Monterey County,CA,NA,NA,40.172579098753594,62.172284644194754
93940,Monterey County,CA,NA,47.03872437357631,22.914669223394053,NA
94002,San Mateo County,CA,NA,NA,NA,40.823970037453186
94019,San Mateo County,CA,NA,NA,NA,51.61048689138576
94024,Santa Clara County,CA,NA,NA,NA,85.39325842696628
94028,San Mateo County,CA,NA,NA,97.12368168744008,NA
94043,Santa Clara County,CA,NA,71.29840546697038,NA,NA
94086,Santa Clara County,CA,NA,NA,NA,51.01123595505618
94102,San Francisco County,CA,NA,6.947608200455581,NA,NA
94103,San Francisco County,CA,NA,NA,NA,43.29588014981273
94109,San Francisco County,CA,NA,NA,9.491850431447748,3.2209737827715355
94112,San Francisco County,CA,NA,21.070615034168565,NA,NA
94116,San Francisco County,CA,NA,NA,31.064237775647175,NA
94118,San Francisco County,CA,NA,NA,NA,71.08614232209737
94124,San Francisco County,CA,NA,NA,16.490891658676894,45.0936329588015
94131,San Francisco County,CA,NA,NA,94.63087248322147,NA
94132,San Francisco County,CA,NA,96.9248291571754,NA,NA
94134,San Francisco County,CA,NA,33.37129840546697,NA,NA
94306,Santa Clara County,CA,NA,NA,NA,48.91385767790262
94401,San Mateo County,CA,NA,89.749430523918,NA,NA
94501,Alameda County,CA,NA,33.14350797266515,NA,NA
94510,Solano County,CA,NA,NA,81.87919463087249,NA
94518,Contra Costa County,CA,NA,NA,71.62032598274209,NA
94523,Contra Costa County,CA,NA,NA,NA,41.87265917602996
94530,Contra Costa County,CA,NA,NA,NA,38.87640449438202
94531,Contra Costa County,CA,NA,NA,NA,37.37827715355805
94533,Solano County,CA,NA,20.159453302961275,NA,NA
94534,Solano County,CA,NA,NA,NA,34.6816479400749
94536,Alameda County,CA,NA,NA,NA,15.805243445692884
94542,Alameda County,CA,NA,NA,NA,94.68164794007491
94553,Contra Costa County,CA,NA,NA,NA,40.074906367041194
94556,Contra Costa County,CA,NA,NA,NA,73.33333333333333
94565,Contra Costa County,CA,NA,49.54441913439636,NA,NA
94568,Alameda County,CA,NA,48.63325740318907,NA,NA
94577,Alameda County,CA,NA,NA,29.242569511025884,NA
94578,Alameda County,CA,NA,45.10250569476082,94.82262703739214,NA
94579,Alameda County,CA,NA,NA,NA,42.02247191011236
94583,Contra Costa County,CA,NA,NA,NA,97.15355805243445
94587,Alameda County,CA,NA,NA,17.737296260786195,NA
94588,Alameda County,CA,NA,NA,66.44295302013423,NA
94602,Alameda County,CA,NA,NA,79.57813998082455,NA
94605,Alameda County,CA,NA,21.298405466970387,NA,NA
94610,Alameda County,CA,NA,NA,NA,34.831460674157306
94611,Alameda County,CA,NA,NA,NA,26.367041198501873
94803,Contra Costa County,CA,NA,NA,NA,52.28464419475656
94804,Contra Costa County,CA,NA,NA,NA,32.50936329588015
94901,Marin County,CA,NA,49.772209567198175,67.01821668264621,NA
94903,Marin County,CA,NA,72.20956719817767,NA,39.325842696629216
94925,Marin County,CA,NA,NA,NA,90.93632958801498
94939,Marin County,CA,NA,NA,96.16490891658677,NA
94941,Marin County,CA,NA,NA,NA,28.164794007490634
94960,Marin County,CA,NA,NA,NA,85.31835205992509
95020,Santa Clara County,CA,NA,NA,26.270373921380635,NA
95023,San Benito County,CA,NA,NA,85.52253116011505,87.64044943820225
95032,Santa Clara County,CA,NA,NA,NA,44.11985018726592
95037,Santa Clara County,CA,NA,NA,NA,25.54307116104869
95046,Santa Clara County,CA,NA,94.76082004555809,NA,NA
95051,Santa Clara County,CA,NA,NA,NA,33.10861423220974
95070,Santa Clara County,CA,NA,NA,NA,14.681647940074907
95076,Santa Cruz County,CA,NA,NA,13.998082454458293,NA
95111,Santa Clara County,CA,NA,NA,NA,34.45692883895131
95117,Santa Clara County,CA,NA,NA,87.63183125599234,NA
95125,Santa Clara County,CA,NA,NA,17.066155321188877,NA
95127,Santa Clara County,CA,NA,NA,39.11792905081496,20.89887640449438
95129,Santa Clara County,CA,NA,NA,NA,40.749063670411985
95212,San Joaquin County,CA,NA,76.42369020501138,NA,NA
95350,Stanislaus County,CA,NA,NA,NA,49.21348314606742
95355,Stanislaus County,CA,NA,7.6309794988610475,NA,NA
95358,Stanislaus County,CA,NA,NA,74.01725790987535,NA
95391,San Joaquin County,CA,NA,NA,99.13710450623202,NA
95403,Sonoma County,CA,NA,NA,33.46116970278044,NA
95404,Sonoma County,CA,NA,65.83143507972665,NA,18.426966292134832
95423,Lake County,CA,NA,NA,83.98849472674976,NA
95448,Sonoma County,CA,NA,NA,39.98082454458293,NA
95490,Mendocino County,CA,NA,NA,NA,92.65917602996254
95521,Humboldt County,CA,NA,80.75170842824602,NA,NA
95608,Sacramento County,CA,NA,35.42141230068337,15.723873441994247,NA
95616,Yolo County,CA,NA,NA,NA,37.00374531835206
95628,Sacramento County,CA,NA,56.49202733485193,NA,NA
95660,Sacramento County,CA,NA,NA,53.787152444870564,NA
95662,Sacramento County,CA,66.37554585152839,NA,NA,NA
95666,Amador County,CA,NA,NA,NA,81.49812734082397
95670,Sacramento County,CA,NA,30.068337129840543,NA,NA
95688,Solano County,CA,NA,59.79498861047836,NA,NA
95691,Yolo County,CA,NA,47.722095671981776,NA,NA
95693,Sacramento County,CA,NA,NA,83.5091083413231,NA
95742,Sacramento County,CA,NA,NA,97.02780441035475,NA
95747,Placer County,CA,NA,NA,NA,7.715355805243446
95818,Sacramento County,CA,NA,NA,67.49760306807286,NA
95821,Sacramento County,CA,NA,NA,25.599232981783317,NA
95825,Sacramento County,CA,NA,NA,NA,34.00749063670412
95828,Sacramento County,CA,NA,NA,62.12847555129435,NA
95831,Sacramento County,CA,NA,NA,NA,19.550561797752806
95832,Sacramento County,CA,NA,87.92710706150342,NA,NA
95842,Sacramento County,CA,NA,40.66059225512528,NA,NA
95864,Sacramento County,CA,NA,NA,70.85330776605944,NA
95901,Yuba County,CA,34.06113537117904,NA,NA,NA
95928,Butte County,CA,NA,61.617312072892936,NA,NA
95946,Nevada County,CA,NA,NA,NA,65.84269662921348
95973,Butte County,CA,NA,NA,NA,14.756554307116104
96001,Shasta County,CA,NA,NA,42.47363374880153,NA
96094,Siskiyou County,CA,NA,NA,62.320230105465,NA
96101,Modoc County,CA,NA,NA,82.35858101629914,NA
80004,Jefferson County,CO,NA,NA,NA,34.00749063670412
80013,Arapahoe County,CO,NA,NA,NA,72.13483146067415
80015,Arapahoe County,CO,NA,NA,52.44487056567594,53.033707865168545
80020,Broomfield County,CO,15.283842794759824,NA,NA,31.161048689138575
80021,Jefferson County,CO,37.99126637554585,93.16628701594533,51.486097794822626,NA
80023,Broomfield County,CO,NA,NA,NA,73.70786516853933
80030,Adams County,CO,NA,97.60820045558086,NA,NA
80033,Jefferson County,CO,NA,44.760820045558084,NA,NA
80108,Douglas County,CO,NA,NA,NA,92.58426966292134
80110,Arapahoe County,CO,NA,NA,NA,94.08239700374533
80123,Jefferson County,CO,NA,NA,47.171620325982744,28.83895131086142
80128,Jefferson County,CO,NA,NA,NA,68.53932584269663
80134,Douglas County,CO,NA,NA,NA,54.157303370786515
80138,Douglas County,CO,NA,47.83599088838269,NA,NA
80203,Denver County,CO,NA,86.33257403189066,NA,NA
80205,Denver County,CO,NA,37.01594533029613,NA,NA
80207,Denver County,CO,NA,38.041002277904326,NA,NA
80218,Denver County,CO,NA,NA,NA,89.13857677902621
80219,Denver County,CO,NA,20.50113895216401,NA,NA
80221,Adams County,CO,NA,59.33940774487472,NA,NA
80222,Denver County,CO,NA,NA,73.92138063279002,NA
80229,Adams County,CO,8.296943231441048,12.414578587699317,NA,NA
80231,Denver County,CO,NA,33.25740318906606,NA,NA
80303,Boulder County,CO,NA,76.76537585421413,NA,NA
80304,Boulder County,CO,NA,NA,59.63566634707574,NA
80439,Jefferson County,CO,NA,NA,NA,67.41573033707866
80517,Larimer County,CO,92.57641921397381,NA,NA,65.31835205992509
80524,Larimer County,CO,NA,NA,22.051773729626078,NA
80525,Larimer County,CO,NA,41.230068337129836,NA,NA
80538,Larimer County,CO,NA,10.70615034168565,NA,NA
80601,Adams County,CO,NA,60.933940774487475,NA,NA
80602,Adams County,CO,37.55458515283843,42.027334851936224,NA,NA
80634,Weld County,CO,4.366812227074235,2.050113895216401,NA,NA
80816,Teller County,CO,NA,NA,81.30393096836049,NA
80831,El Paso County,CO,NA,NA,NA,81.27340823970037
80863,Teller County,CO,95.63318777292577,NA,NA,NA
80909,El Paso County,CO,42.79475982532751,NA,NA,NA
80910,El Paso County,CO,NA,NA,52.15723873441994,NA
80919,El Paso County,CO,NA,97.83599088838268,NA,43.82022471910113
80920,El Paso County,CO,NA,NA,NA,79.25093632958801
81003,Pueblo County,CO,76.85589519650655,NA,NA,NA
81006,Pueblo County,CO,NA,NA,NA,71.98501872659176
81101,Alamosa County,CO,NA,NA,NA,92.20973782771536
81212,Fremont County,CO,NA,35.64920273348519,NA,NA
81252,Custer County,CO,NA,NA,NA,95.28089887640449
81413,Delta County,CO,NA,NA,73.5378715244487,NA
81623,Garfield County,CO,NA,NA,NA,92.73408239700375
81632,Eagle County,CO,NA,NA,82.83796740172579,NA
06040,Hartford County,CT,NA,NA,NA,20.299625468164795
06053,Hartford County,CT,NA,NA,56.95110258868649,NA
06057,Litchfield County,CT,NA,NA,85.23489932885906,NA
06066,Tolland County,CT,NA,NA,NA,16.10486891385768
06070,Hartford County,CT,NA,NA,76.3183125599233,NA
06082,Hartford County,CT,NA,NA,11.313518696069032,NA
06084,Tolland County,CT,NA,73.57630979498862,NA,NA
06106,Hartford County,CT,NA,4.328018223234624,NA,NA
06114,Hartford County,CT,NA,14.123006833712983,NA,NA
06281,Windham County,CT,NA,60.820045558086555,NA,98.65168539325843
06405,New Haven County,CT,74.235807860262,NA,NA,NA
06450,New Haven County,CT,NA,5.353075170842825,NA,NA
06451,New Haven County,CT,NA,NA,66.63470757430488,NA
06457,Middlesex County,CT,NA,6.719817767653759,NA,NA
06468,Fairfield County,CT,NA,NA,NA,92.43445692883896
06473,New Haven County,CT,NA,NA,26.462128475551296,NA
06475,Middlesex County,CT,NA,NA,NA,74.45692883895131
06484,Fairfield County,CT,NA,NA,24.448705656759348,NA
06488,New Haven County,CT,NA,NA,31.927133269415148,NA
06513,New Haven County,CT,NA,NA,NA,52.13483146067416
06514,New Haven County,CT,NA,NA,27.22914669223394,NA
06515,New Haven County,CT,NA,NA,NA,34.531835205992515
06704,New Haven County,CT,12.663755458515283,NA,49.760306807286675,NA
06810,Fairfield County,CT,NA,41.45785876993166,NA,NA
06811,Fairfield County,CT,NA,NA,NA,12.584269662921349
06812,Fairfield County,CT,NA,NA,NA,63.22097378277154
06831,Fairfield County,CT,NA,NA,NA,86.06741573033709
06840,Fairfield County,CT,NA,NA,71.0450623202301,NA
06902,Fairfield County,CT,NA,NA,NA,4.119850187265917
19711,New Castle County,DE,29.694323144104807,NA,NA,NA
19713,New Castle County,DE,24.45414847161572,NA,NA,NA
19801,New Castle County,DE,NA,33.59908883826879,NA,NA
19805,New Castle County,DE,NA,NA,6.615532118887824,NA
19810,New Castle County,DE,46.724890829694324,NA,NA,NA
19901,Kent County,DE,64.19213973799127,NA,NA,19.101123595505616
19947,Sussex County,DE,NA,NA,NA,47.041198501872664
19970,Sussex County,DE,NA,NA,NA,52.734082397003746
32003,Clay County,FL,NA,NA,NA,55.2059925093633
32025,Columbia County,FL,NA,NA,NA,60.82397003745318
32034,Nassau County,FL,NA,NA,NA,13.03370786516854
32038,Columbia County,FL,NA,NA,83.02972195589645,NA
32055,Columbia County,FL,NA,NA,NA,57.37827715355805
32065,Clay County,FL,NA,NA,NA,71.31086142322097
32080,St. Johns County,FL,NA,NA,NA,22.172284644194757
32082,St. Johns County,FL,NA,52.961275626423685,NA,19.775280898876403
32110,Flagler County,FL,NA,64.12300683371298,NA,NA
32114,Volusia County,FL,NA,67.88154897494306,NA,NA
32117,Volusia County,FL,NA,29.6127562642369,46.97986577181208,NA
32118,Volusia County,FL,NA,78.5876993166287,58.8686481303931,27.191011235955052
32127,Volusia County,FL,NA,55.01138952164008,NA,NA
32128,Volusia County,FL,NA,NA,56.375838926174495,NA
32131,Putnam County,FL,NA,NA,NA,96.25468164794007
32136,Flagler County,FL,NA,89.63553530751709,NA,NA
32141,Volusia County,FL,NA,66.17312072892938,NA,39.47565543071161
32174,Volusia County,FL,NA,NA,9.300095877277085,NA
32176,Volusia County,FL,NA,NA,NA,79.85018726591761
32208,Duval County,FL,NA,0.683371298405467,NA,NA
32209,Duval County,FL,NA,NA,NA,43.670411985018724
32210,Duval County,FL,NA,3.758542141230068,NA,NA
32216,Duval County,FL,29.257641921397383,NA,NA,NA
32219,Duval County,FL,NA,NA,NA,68.08988764044945
32223,Duval County,FL,NA,NA,NA,43.52059925093633
32224,Duval County,FL,NA,NA,38.15915627996165,64.56928838951312
32225,Duval County,FL,NA,NA,NA,11.760299625468166
32244,Duval County,FL,NA,5.125284738041002,NA,NA
32250,Duval County,FL,NA,NA,26.462128475551296,NA
32257,Duval County,FL,NA,NA,NA,73.93258426966293
32259,St. Johns County,FL,NA,NA,NA,45.61797752808989
32304,Leon County,FL,NA,51.70842824601367,95.30201342281879,NA
32308,Leon County,FL,NA,70.387243735763093,NA,NA
32309,Leon County,FL,NA,NA,63.758389261744966,NA
32413,Bay County,FL,NA,NA,48.41802492809204,NA
32433,Walton County,FL,NA,NA,35.09108341323107,NA
32439,Walton County,FL,NA,NA,63.374880153403645,NA
32444,Bay County,FL,NA,NA,NA,37.752808988764045
32503,Escambia County,FL,NA,NA,43.33652924256951,14.382022471910114
32504,Escambia County,FL,NA,NA,NA,17.00374531835206
32505,Escambia County,FL,NA,15.375854214123008,8.149568552253115,27.715355805243448
32514,Escambia County,FL,NA,20.72892938496583,10.834132310642378,NA
32536,Okaloosa County,FL,NA,NA,NA,41.34831460674157
32539,Okaloosa County,FL,NA,NA,NA,28.239700374531836
32541,Okaloosa County,FL,NA,NA,NA,23.370786516853933
32547,Okaloosa County,FL,NA,69.13439635535308,NA,NA
32548,Okaloosa County,FL,NA,NA,50.71907957813998,NA
32563,Santa Rosa County,FL,NA,NA,18.983700862895496,NA
32571,Santa Rosa County,FL,NA,11.958997722095672,NA,NA
32578,Okaloosa County,FL,NA,NA,NA,16.853932584269664
32609,Alachua County,FL,NA,NA,NA,69.3632958801498
32617,Marion County,FL,NA,NA,91.37104506232023,NA
32656,Clay County,FL,NA,NA,55.417066155321194,NA
32720,Volusia County,FL,NA,53.75854214123007,NA,NA
32726,Lake County,FL,NA,NA,NA,32.359550561797754
32765,Seminole County,FL,NA,NA,NA,41.34831460674157
32780,Brevard County,FL,NA,NA,NA,77.90262172284645
32824,Orange County,FL,NA,NA,62.511984659635665,NA
32828,Orange County,FL,NA,NA,NA,62.09737827715356
32837,Orange County,FL,NA,18.56492027334852,NA,NA
32907,Brevard County,FL,NA,NA,NA,15.280898876404494
32935,Brevard County,FL,NA,16.74259681093394,37.29626078619368,17.228464419475657
32953,Brevard County,FL,NA,NA,16.29913710450623,NA
32955,Brevard County,FL,NA,NA,70.56567593480345,NA
32960,Indian River County,FL,NA,NA,35.47459252157239,NA
32963,Indian River County,FL,NA,NA,NA,64.71910112359551
32967,Indian River County,FL,NA,NA,NA,39.176029962546814
32976,Brevard County,FL,NA,NA,NA,14.981273408239701
33015,Miami-Dade County,FL,NA,NA,38.6385426653883,NA
33016,Miami-Dade County,FL,NA,NA,NA,19.850187265917604
33020,Broward County,FL,NA,25.854214123006834,21.28475551294343,NA
33021,Broward County,FL,NA,NA,NA,4.194756554307117
33027,Broward County,FL,NA,NA,66.63470757430488,NA
33028,Broward County,FL,NA,NA,NA,66.29213483146067
33056,Miami-Dade County,FL,NA,NA,42.47363374880153,42.69662921348314
33060,Broward County,FL,NA,NA,NA,65.84269662921348
33062,Broward County,FL,NA,NA,NA,42.17228464419476
33064,Broward County,FL,NA,NA,14.381591562799617,NA
33066,Broward County,FL,NA,NA,51.19846596356663,NA
33068,Broward County,FL,NA,NA,47.651006711409394,NA
33125,Miami-Dade County,FL,NA,NA,NA,7.940074906367041
33127,Miami-Dade County,FL,NA,51.13895216400911,NA,NA
33129,Miami-Dade County,FL,NA,NA,NA,72.73408239700375
33133,Miami-Dade County,FL,NA,NA,NA,60.149812734082396
33135,Miami-Dade County,FL,NA,NA,NA,54.831460674157306
33136,Miami-Dade County,FL,NA,44.98861047835991,NA,NA
33140,Miami-Dade County,FL,NA,NA,NA,82.32209737827715
33143,Miami-Dade County,FL,NA,NA,NA,37.90262172284644
33144,Miami-Dade County,FL,NA,NA,NA,11.610486891385769
33145,Miami-Dade County,FL,NA,NA,NA,25.767790262172284
33146,Miami-Dade County,FL,NA,NA,83.12559923298178,75.50561797752809
33149,Miami-Dade County,FL,NA,NA,NA,60.97378277153558
33155,Miami-Dade County,FL,NA,NA,NA,40.97378277153558
33157,Miami-Dade County,FL,NA,NA,NA,17.078651685393258
33158,Miami-Dade County,FL,NA,NA,NA,99.40074906367042
33160,Miami-Dade County,FL,NA,NA,NA,78.87640449438203
33161,Miami-Dade County,FL,NA,NA,43.43240651965484,NA
33166,Miami-Dade County,FL,NA,NA,NA,44.344569288389515
33172,Miami-Dade County,FL,NA,NA,NA,84.86891385767791
33173,Miami-Dade County,FL,NA,NA,NA,49.43820224719101
33174,Miami-Dade County,FL,NA,68.56492027334852,NA,NA
33175,Miami-Dade County,FL,NA,NA,NA,13.108614232209737
33178,Miami-Dade County,FL,NA,NA,73.25023969319271,NA
33180,Miami-Dade County,FL,NA,NA,NA,11.46067415730337
33183,Miami-Dade County,FL,NA,NA,NA,33.55805243445693
33186,Miami-Dade County,FL,NA,NA,NA,21.722846441947567
33187,Miami-Dade County,FL,NA,NA,NA,69.13857677902622
33301,Broward County,FL,NA,NA,84.94726749760306,NA
33305,Broward County,FL,NA,87.8132118451025,NA,NA
33308,Broward County,FL,NA,NA,NA,56.02996254681648
33321,Broward County,FL,NA,NA,NA,45.84269662921348
33328,Broward County,FL,NA,NA,NA,37.30337078651685
33351,Broward County,FL,NA,NA,55.99232981783317,NA
33406,Palm Beach County,FL,NA,NA,76.89357622243527,NA
33408,Palm Beach County,FL,NA,NA,NA,32.88389513108614
33417,Palm Beach County,FL,NA,NA,52.828379674017256,17.303370786516854
33418,Palm Beach County,FL,NA,NA,NA,7.5655430711610485
33426,Palm Beach County,FL,NA,NA,NA,45.39325842696629
33432,Palm Beach County,FL,NA,80.18223234624145,NA,NA
33433,Palm Beach County,FL,NA,NA,NA,13.408239700374533
33435,Palm Beach County,FL,NA,42.14123006833713,NA,NA
33436,Palm Beach County,FL,NA,NA,44.39117929050815,NA
33437,Palm Beach County,FL,NA,NA,48.99328859060403,12.734082397003746
33442,Broward County,FL,NA,NA,30.584851390220518,NA
33445,Palm Beach County,FL,NA,NA,NA,22.09737827715356
33460,Palm Beach County,FL,NA,NA,NA,89.812734082397
33467,Palm Beach County,FL,NA,NA,NA,11.685393258426966
33472,Palm Beach County,FL,NA,NA,NA,17.827715355805243
33483,Palm Beach County,FL,NA,NA,NA,87.11610486891385
33498,Palm Beach County,FL,NA,NA,NA,52.50936329588015
33565,Hillsborough County,FL,NA,NA,NA,57.90262172284643
33573,Hillsborough County,FL,NA,NA,16.874400767018216,NA
33594,Hillsborough County,FL,NA,NA,NA,52.88389513108614
33606,Hillsborough County,FL,NA,NA,NA,75.65543071161048
33607,Hillsborough County,FL,NA,NA,NA,54.98127340823971
33614,Hillsborough County,FL,NA,30.865603644646928,NA,NA
33626,Hillsborough County,FL,NA,NA,NA,74.08239700374531
33634,Hillsborough County,FL,NA,NA,95.58964525407478,NA
33647,Hillsborough County,FL,NA,NA,NA,33.10861423220974
33708,Pinellas County,FL,NA,NA,NA,66.21722846441948
33712,Pinellas County,FL,NA,NA,53.691275167785236,NA
33755,Pinellas County,FL,61.572052401746724,NA,NA,NA
33756,Pinellas County,FL,NA,NA,NA,30.262172284644194
33770,Pinellas County,FL,NA,NA,NA,42.47191011235955
33809,Polk County,FL,NA,NA,74.784276126558,NA
33810,Polk County,FL,NA,23.34851936218679,NA,NA
33825,Highlands County,FL,NA,NA,NA,16.629213483146067
33852,Highlands County,FL,NA,NA,NA,28.01498127340824
33880,Polk County,FL,NA,NA,40.84372003835091,NA
33881,Polk County,FL,NA,32.57403189066059,NA,NA
33901,Lee County,FL,NA,NA,NA,59.176029962546814
33904,Lee County,FL,NA,NA,13.902205177372961,NA
33905,Lee County,FL,NA,NA,72.38734419942475,71.76029962546816
33907,Lee County,FL,NA,NA,63.279002876318316,NA
33908,Lee County,FL,NA,54.441913439635535,NA,0.599250936329588
33909,Lee County,FL,NA,37.699316628701595,NA,NA
33914,Lee County,FL,NA,35.7630979498861,NA,NA
33916,Lee County,FL,NA,NA,85.3307766059444,NA
33917,Lee County,FL,NA,NA,15.340364333652925,NA
33919,Lee County,FL,NA,53.87243735763098,NA,20.374531835205993
33950,Charlotte County,FL,NA,73.00683371298405,NA,NA
33953,Charlotte County,FL,NA,NA,NA,88.46441947565543
33957,Lee County,FL,NA,NA,67.78523489932886,NA
33967,Lee County,FL,NA,NA,NA,73.25842696629213
33981,Charlotte County,FL,NA,NA,65.38830297219559,NA
33983,Charlotte County,FL,NA,NA,NA,54.68164794007491
33993,Lee County,FL,NA,NA,NA,58.352059925093634
34103,Collier County,FL,NA,NA,NA,66.81647940074906
34108,Collier County,FL,86.02620087336244,NA,NA,NA
34110,Collier County,FL,NA,NA,45.63758389261745,NA
34112,Collier County,FL,NA,NA,NA,51.91011235955057
34114,Collier County,FL,NA,91.91343963553531,NA,NA
34120,Collier County,FL,NA,NA,NA,83.37078651685394
34145,Collier County,FL,NA,NA,NA,22.92134831460674
34203,Manatee County,FL,NA,NA,16.778523489932887,12.134831460674157
34219,Manatee County,FL,NA,NA,58.29338446788112,NA
34223,Sarasota County,FL,NA,NA,NA,26.516853932584272
34243,Manatee County,FL,NA,NA,NA,5.692883895131086
34293,Sarasota County,FL,NA,NA,NA,2.846441947565543
34428,Citrus County,FL,NA,NA,NA,84.41947565543072
34436,Citrus County,FL,NA,NA,NA,98.12734082397003
34481,Marion County,FL,NA,NA,21.476510067114095,NA
34491,Marion County,FL,NA,NA,NA,17.45318352059925
34610,Pasco County,FL,NA,NA,NA,90.93632958801498
34638,Pasco County,FL,NA,64.46469248291572,NA,NA
34652,Pasco County,FL,NA,NA,48.513902205177374,NA
34654,Pasco County,FL,NA,NA,NA,82.92134831460675
34668,Pasco County,FL,NA,NA,NA,24.64419475655431
34677,Pinellas County,FL,NA,NA,NA,52.28464419475656
34684,Pinellas County,FL,NA,NA,10.258868648130392,NA
34688,Pinellas County,FL,NA,NA,NA,79.02621722846442
34689,Pinellas County,FL,NA,NA,NA,51.760299625468164
34698,Pinellas County,FL,NA,NA,53.211888782358585,NA
34748,Lake County,FL,NA,17.76765375854214,NA,1.7977528089887642
34787,Orange County,FL,NA,NA,NA,53.10861423220974
34957,Martin County,FL,NA,NA,NA,13.183520599250937
30005,Fulton County,GA,NA,NA,NA,83.52059925093633
30019,Gwinnett County,GA,NA,34.51025056947608,NA,NA
30024,Gwinnett County,GA,NA,18.906605922551254,NA,68.91385767790263
30030,DeKalb County,GA,NA,72.32346241457859,NA,43.52059925093633
30032,DeKalb County,GA,NA,36.674259681093396,NA,NA
30038,DeKalb County,GA,NA,NA,NA,82.24719101123596
30052,Walton County,GA,NA,NA,NA,20.524344569288388
30064,Cobb County,GA,NA,NA,29.81783317353787,NA
30066,Cobb County,GA,NA,NA,NA,28.314606741573034
30088,DeKalb County,GA,NA,66.51480637813212,NA,NA
30120,Bartow County,GA,NA,NA,38.92617449664429,NA
30121,Bartow County,GA,NA,NA,49.18504314477469,NA
30132,Paulding County,GA,NA,29.157175398633257,NA,NA
30145,Bartow County,GA,NA,NA,NA,85.91760299625469
30213,Fulton County,GA,NA,NA,NA,82.09737827715355
30223,Spalding County,GA,NA,NA,65.00479386385427,NA
30224,Spalding County,GA,NA,NA,45.349952061361456,NA
30238,Clayton County,GA,NA,NA,NA,81.04868913857678
30240,Troup County,GA,NA,NA,NA,30.0374531835206
30252,Henry County,GA,64.62882096069869,NA,NA,NA
30253,Henry County,GA,NA,NA,46.88398849472675,NA
30318,Fulton County,GA,NA,NA,25.311601150527324,NA
30319,DeKalb County,GA,NA,NA,50.33557046979866,NA
30349,Fulton County,GA,NA,NA,9.204218600191755,NA
30457,Treutlen County,GA,NA,93.96355353075171,NA,NA
30506,Hall County,GA,NA,NA,15.819750719079579,NA
30518,Gwinnett County,GA,NA,32.80182232346242,NA,NA
30582,Towns County,GA,NA,NA,NA,73.03370786516854
30635,Elbert County,GA,NA,NA,56.66347075743049,NA
30643,Hart County,GA,NA,NA,46.212847555129436,NA
30741,Walker County,GA,22.270742358078603,NA,NA,45.767790262172284
30815,Richmond County,GA,NA,NA,11.217641418983701,NA
30906,Richmond County,GA,4.8034934497816595,NA,NA,NA
30907,Columbia County,GA,NA,NA,8.62895493767977,NA
31005,Houston County,GA,NA,NA,NA,80.4494382022472
31061,Baldwin County,GA,NA,25.39863325740319,NA,NA
31204,Bibb County,GA,NA,28.132118451025057,NA,NA
31206,Bibb County,GA,NA,25.968109339407746,46.308724832214764,NA
31210,Bibb County,GA,NA,55.58086560364465,NA,NA
31522,Glynn County,GA,NA,NA,69.51102588686481,NA
31548,Camden County,GA,NA,NA,68.55225311601151,NA
31707,Dougherty County,GA,NA,NA,NA,44.8689138576779
31804,Harris County,GA,NA,NA,96.35666347075743,NA
31903,Muscogee County,GA,NA,29.38496583143508,NA,NA
31904,Muscogee County,GA,NA,26.765375854214124,NA,NA
31906,Muscogee County,GA,NA,67.76765375854214,NA,NA
96740,Hawaii County,HI,NA,NA,56.471716203259824,NA
96744,Honolulu County,HI,NA,NA,NA,2.9213483146067416
96768,Maui County,HI,NA,NA,NA,95.50561797752809
96819,Honolulu County,HI,14.847161572052403,NA,NA,NA
96826,Honolulu County,HI,NA,37.58542141230068,NA,NA
83204,Bannock County,ID,89.51965065502183,48.63325740318907,NA,NA
83221,Bingham County,ID,NA,NA,NA,41.87265917602996
83316,Twin Falls County,ID,NA,NA,NA,24.19475655430712
83333,Blaine County,ID,NA,97.15261958997722,NA,NA
83501,Nez Perce County,ID,NA,NA,NA,48.98876404494382
83642,Ada County,ID,NA,NA,NA,5.7677902621722845
83646,Ada County,ID,NA,NA,NA,45.1685393258427
83651,Canyon County,ID,NA,NA,NA,11.01123595505618
83703,Ada County,ID,NA,NA,81.49568552253116,NA
83704,Ada County,ID,NA,73.91799544419135,NA,33.93258426966292
83705,Ada County,ID,NA,NA,NA,37.60299625468165
83709,Ada County,ID,NA,NA,3.3557046979865772,22.247191011235955
83815,Kootenai County,ID,NA,NA,14.956855225311601,NA
60002,Lake County,IL,NA,NA,77.56471716203261,53.18352059925093
60004,Cook County,IL,NA,53.53075170842825,NA,NA
60007,Cook County,IL,NA,NA,NA,56.853932584269664
60008,Cook County,IL,NA,NA,NA,74.30711610486891
60010,Lake County,IL,NA,34.28246013667426,NA,NA
60012,McHenry County,IL,NA,NA,NA,60.37453183520599
60013,McHenry County,IL,NA,NA,29.913710450623203,NA
60015,Lake County,IL,NA,NA,NA,79.9250936329588
60022,Cook County,IL,82.09606986899564,NA,74.88015340364333,NA
60025,Cook County,IL,NA,NA,68.36049856184084,43.445692883895134
60026,Cook County,IL,NA,NA,NA,97.37827715355806
60030,Lake County,IL,38.427947598253276,NA,NA,NA
60031,Lake County,IL,NA,NA,NA,47.265917602996254
60035,Lake County,IL,NA,NA,NA,2.1722846441947565
60045,Lake County,IL,NA,NA,NA,10.337078651685392
60046,Lake County,IL,48.90829694323144,NA,20.230105465004794,NA
60048,Lake County,IL,NA,NA,21.380632790028763,NA
60050,McHenry County,IL,NA,NA,NA,12.50936329588015
60053,Cook County,IL,NA,NA,28.28379674017258,NA
60056,Cook County,IL,NA,NA,NA,4.719101123595506
60060,Lake County,IL,NA,NA,44.103547459252155,NA
60062,Cook County,IL,NA,34.851936218678816,NA,16.55430711610487
60067,Cook County,IL,NA,94.19134396355354,15.627996164908916,NA
60068,Cook County,IL,51.52838427947598,NA,NA,15.880149812734082
60070,Cook County,IL,NA,NA,69.79865771812081,NA
60073,Lake County,IL,NA,NA,NA,42.99625468164794
60074,Cook County,IL,NA,NA,79.00287631831256,NA
60076,Cook County,IL,NA,40.20501138952164,NA,85.2434456928839
60084,Lake County,IL,65.93886462882097,NA,NA,NA
60085,Lake County,IL,NA,14.80637813211845,NA,NA
60089,Lake County,IL,NA,35.30751708428246,NA,67.34082397003746
60090,Cook County,IL,NA,NA,58.38926174496645,NA
60091,Cook County,IL,NA,NA,NA,45.91760299625468
60093,Cook County,IL,NA,NA,NA,73.85767790262172
60098,McHenry County,IL,NA,NA,43.04889741131352,NA
60099,Lake County,IL,NA,NA,35.282837967401726,NA
60102,McHenry County,IL,31.004366812227076,NA,NA,NA
60107,Cook County,IL,NA,NA,NA,53.93258426966292
60108,DuPage County,IL,NA,NA,NA,26.217228464419474
60119,Kane County,IL,NA,NA,74.88015340364333,NA
60126,DuPage County,IL,NA,NA,NA,3.8202247191011236
60134,Kane County,IL,57.64192139737992,NA,NA,NA
60142,McHenry County,IL,NA,NA,NA,13.782771535580524
60143,DuPage County,IL,81.22270742358079,NA,NA,NA
60152,McHenry County,IL,NA,NA,NA,56.10486891385767
60172,DuPage County,IL,NA,NA,35.57046979865772,NA
60175,Kane County,IL,NA,24.715261958997722,28.6673058485139,NA
60176,Cook County,IL,NA,NA,NA,84.9438202247191
60188,DuPage County,IL,NA,NA,NA,32.28464419475656
60191,DuPage County,IL,NA,NA,NA,46.06741573033708
60193,Cook County,IL,NA,NA,7.6701821668264625,NA
60304,Cook County,IL,NA,NA,NA,98.27715355805243
60401,Will County,IL,NA,NA,73.05848513902205,NA
60402,Cook County,IL,NA,NA,7.38255033557047,NA
60403,Will County,IL,NA,NA,34.419942473633746,NA
60404,Will County,IL,NA,NA,36.04985618408437,49.812734082397
60409,Cook County,IL,NA,NA,27.133269415148607,NA
60416,Grundy County,IL,NA,55.23917995444191,NA,NA
60422,Cook County,IL,NA,NA,41.418983700862896,NA
60426,Cook County,IL,NA,50.68337129840547,NA,NA
60430,Cook County,IL,NA,NA,NA,38.27715355805243
60435,Will County,IL,NA,NA,7.957813998082454,NA
60438,Cook County,IL,NA,NA,NA,26.29213483146067
60439,Cook County,IL,NA,NA,NA,20.59925093632959
60441,Will County,IL,NA,NA,NA,32.88389513108614
60445,Cook County,IL,NA,NA,NA,63.89513108614232
60453,Cook County,IL,12.22707423580786,NA,NA,NA
60455,Cook County,IL,NA,44.419134396355354,NA,NA
60458,Cook County,IL,NA,NA,NA,89.36329588014982
60462,Cook County,IL,NA,NA,4.218600191754554,NA
60463,Cook County,IL,NA,NA,NA,56.70411985018726
60465,Cook County,IL,NA,74.71526195899773,NA,NA
60466,Cook County,IL,NA,44.30523917995444,NA,NA
60467,Cook County,IL,NA,NA,57.6222435282838,NA
60491,Will County,IL,NA,NA,21.95589645254075,NA
60504,DuPage County,IL,NA,NA,NA,76.47940074906367
60505,Kane County,IL,NA,26.765375854214124,NA,NA
60515,DuPage County,IL,NA,NA,30.297219558964528,NA
60516,DuPage County,IL,43.66812227074236,NA,NA,NA
60517,DuPage County,IL,NA,34.96583143507973,NA,NA
60525,Cook County,IL,NA,NA,NA,10.561797752808989
60527,DuPage County,IL,NA,46.24145785876993,NA,NA
60542,Kane County,IL,NA,60.02277904328018,NA,NA
60558,Cook County,IL,NA,NA,58.19750719079578,NA
60563,DuPage County,IL,NA,NA,32.50239693192714,19.101123595505616
60585,Will County,IL,42.35807860262008,NA,NA,NA
60608,Cook County,IL,NA,9.339407744874716,NA,NA
60609,Cook County,IL,27.074235807860266,NA,12.943432406519657,NA
60610,Cook County,IL,77.29257641921397,NA,52.54074784276127,NA
60615,Cook County,IL,NA,22.095671981776764,13.32694151486098,NA
60616,Cook County,IL,NA,63.781321184510254,NA,NA
60617,Cook County,IL,15.283842794759824,NA,NA,NA
60618,Cook County,IL,6.11353711790393,28.929384965831435,NA,NA
60619,Cook County,IL,NA,6.150341685649203,NA,NA
60625,Cook County,IL,NA,NA,11.025886864813039,NA
60628,Cook County,IL,NA,NA,NA,17.378277153558052
60629,Cook County,IL,NA,5.922551252847381,NA,NA
60630,Cook County,IL,46.288209606986904,NA,NA,NA
60631,Cook County,IL,NA,NA,42.857142857142854,NA
60632,Cook County,IL,NA,57.061503416856496,NA,NA
60634,Cook County,IL,13.537117903930133,NA,NA,NA
60636,Cook County,IL,NA,29.84054669703872,NA,NA
60639,Cook County,IL,NA,30.637813211845106,NA,NA
60640,Cook County,IL,NA,NA,NA,6.441947565543071
60641,Cook County,IL,NA,11.617312072892938,NA,NA
60642,Cook County,IL,NA,NA,NA,82.54681647940075
60644,Cook County,IL,NA,27.676537585421414,9.971236816874402,NA
60645,Cook County,IL,NA,NA,NA,70.2621722846442
60649,Cook County,IL,NA,NA,NA,14.157303370786517
60651,Cook County,IL,NA,NA,NA,11.910112359550562
60655,Cook County,IL,NA,56.264236902050115,NA,68.38951310861422
60659,Cook County,IL,NA,NA,NA,37.90262172284644
60707,Cook County,IL,NA,NA,7.766059443911794,34.756554307116104
60714,Cook County,IL,NA,NA,67.78523489932886,NA
60901,Kankakee County,IL,NA,NA,NA,7.340823970037453
60950,Kankakee County,IL,NA,NA,NA,33.55805243445693
61021,Lee County,IL,NA,NA,NA,2.6217228464419478
61032,Stephenson County,IL,NA,NA,13.7104506232023,NA
61048,Stephenson County,IL,NA,NA,88.59060402684564,NA
61107,Winnebago County,IL,NA,NA,93.57622243528284,69.43820224719101
61108,Winnebago County,IL,NA,NA,55.896452540747845,NA
61109,Winnebago County,IL,NA,NA,42.281879194630875,NA
61114,Winnebago County,IL,NA,NA,NA,37.752808988764045
61201,Rock Island County,IL,NA,NA,61.169702780441035,NA
61240,Rock Island County,IL,NA,NA,98.1783317353787,NA
61364,LaSalle County,IL,NA,51.025056947608206,NA,NA
61443,Henry County,IL,NA,NA,46.59635666347076,NA
61523,Peoria County,IL,NA,NA,70.75743048897411,NA
61550,Tazewell County,IL,96.06986899563319,NA,NA,39.62546816479401
61571,Tazewell County,IL,NA,NA,46.692233940556086,NA
61603,Peoria County,IL,NA,NA,68.07286673058485,83.07116104868913
61604,Peoria County,IL,NA,67.19817767653758,NA,NA
61605,Peoria County,IL,NA,NA,56.56759348034516,NA
61615,Peoria County,IL,NA,NA,57.04697986577181,94.6067415730337
61701,McLean County,IL,NA,27.790432801822323,NA,NA
61727,De Witt County,IL,67.68558951965066,NA,NA,NA
61801,Champaign County,IL,NA,NA,NA,42.54681647940075
61802,Champaign County,IL,NA,NA,25.79098753595398,NA
61832,Vermilion County,IL,NA,NA,NA,53.857677902621724
61938,Coles County,IL,NA,41.11617312072893,NA,NA
61951,Moultrie County,IL,NA,88.72437357630979,NA,NA
62040,Madison County,IL,NA,18.337129840546698,NA,NA
62056,Montgomery County,IL,NA,NA,64.23777564717163,NA
62205,St. Clair County,IL,91.70305676855895,NA,NA,NA
62233,Randolph County,IL,NA,94.41913439635535,NA,NA
62234,Madison County,IL,NA,NA,NA,55.88014981273408
62401,Effingham County,IL,NA,58.08656036446469,NA,NA
62441,Clark County,IL,NA,NA,NA,87.71535580524345
62448,Jasper County,IL,91.26637554585153,NA,NA,NA
62471,Fayette County,IL,NA,NA,NA,75.80524344569288
62526,Macon County,IL,NA,9.90888382687927,NA,3.895131086142322
62711,Sangamon County,IL,NA,NA,NA,39.02621722846442
62918,Williamson County,IL,NA,NA,69.70278044103547,NA
46033,Hamilton County,IN,NA,NA,NA,37.00374531835206
46038,Hamilton County,IN,NA,NA,NA,83.67041198501872
46052,Boone County,IN,NA,NA,NA,41.19850187265918
46120,Putnam County,IN,NA,NA,NA,83.07116104868913
46131,Johnson County,IN,NA,NA,NA,8.689138576779026
46142,Johnson County,IN,NA,NA,9.87535953978907,NA
46173,Rush County,IN,NA,79.04328018223235,NA,NA
46205,Marion County,IN,NA,32.004555808656036,NA,NA
46222,Marion County,IN,NA,46.924829157175395,NA,NA
46224,Marion County,IN,22.707423580786028,NA,44.870565675934806,34.232209737827716
46237,Marion County,IN,NA,NA,NA,11.535580524344569
46256,Marion County,IN,NA,NA,36.91275167785235,NA
46304,Porter County,IN,16.157205240174672,NA,NA,NA
46307,Lake County,IN,NA,24.943052391799544,12.36816874400767,NA
46311,Lake County,IN,33.18777292576419,NA,NA,NA
46350,LaPorte County,IN,NA,NA,5.081495685522531,NA
46368,Porter County,IN,NA,13.78132118451025,1.0546500479386385,NA
46385,Porter County,IN,NA,NA,2.3010546500479387,NA
46392,Jasper County,IN,73.7991266375546,NA,NA,NA
46403,Lake County,IN,NA,NA,57.43048897411314,NA
46404,Lake County,IN,NA,NA,NA,94.00749063670412
46405,Lake County,IN,NA,NA,43.624161073825505,NA
46406,Lake County,IN,NA,NA,NA,72.35955056179775
46407,Lake County,IN,NA,NA,67.68935762224353,NA
46408,Lake County,IN,NA,NA,NA,70.93632958801498
46507,Elkhart County,IN,NA,NA,NA,99.47565543071161
46514,Elkhart County,IN,NA,NA,NA,40.67415730337079
46516,Elkhart County,IN,NA,NA,NA,70.86142322097379
46517,Elkhart County,IN,NA,NA,NA,76.02996254681648
46528,Elkhart County,IN,NA,71.86788154897495,NA,NA
46544,St. Joseph County,IN,NA,NA,NA,69.9625468164794
46552,St. Joseph County,IN,NA,NA,91.37104506232023,NA
46561,St. Joseph County,IN,NA,NA,NA,80.97378277153558
46582,Kosciusko County,IN,NA,74.94305239179954,NA,77.52808988764045
46701,Noble County,IN,NA,68.45102505694761,NA,NA
46703,Steuben County,IN,NA,NA,32.59827420901246,NA
46733,Adams County,IN,NA,NA,NA,40
46750,Huntington County,IN,NA,NA,NA,18.576779026217228
46815,Allen County,IN,NA,NA,65.58005752636625,NA
46825,Allen County,IN,NA,33.029612756264235,NA,NA
46901,Howard County,IN,NA,1.7084282460136675,NA,27.86516853932584
46902,Howard County,IN,NA,NA,19.942473633748804,28.91385767790262
46947,Cass County,IN,97.81659388646288,NA,NA,NA
46953,Grant County,IN,NA,NA,37.29626078619368,NA
46992,Wabash County,IN,53.711790393013104,NA,NA,NA
47012,Franklin County,IN,NA,NA,78.23585810162992,NA
47130,Clark County,IN,NA,8.769931662870158,NA,NA
47172,Clark County,IN,73.36244541484717,NA,NA,NA
47203,Bartholomew County,IN,NA,30.979498861047837,NA,NA
47240,Decatur County,IN,NA,29.043280182232344,NA,NA
47265,Jennings County,IN,NA,NA,29.338446788111217,NA
47330,Wayne County,IN,NA,NA,NA,97.67790262172285
47362,Henry County,IN,NA,NA,NA,7.041198501872659
47371,Jay County,IN,NA,NA,NA,44.9438202247191
47374,Wayne County,IN,NA,NA,2.7804410354745923,9.662921348314606
47421,Lawrence County,IN,NA,NA,NA,29.288389513108616
47429,Monroe County,IN,NA,NA,NA,82.09737827715355
47670,Gibson County,IN,NA,74.82915717539863,NA,NA
47802,Vigo County,IN,27.510917030567683,NA,34.99520613614573,NA
47933,Montgomery County,IN,NA,27.44874715261959,NA,NA
50036,Boone County,IA,NA,61.04783599088838,NA,NA
50125,Warren County,IA,NA,NA,79.38638542665389,NA
50131,Polk County,IA,85.1528384279476,NA,NA,NA
50138,Marion County,IA,NA,76.65148063781321,NA,NA
50158,Marshall County,IA,40.174672489082965,NA,NA,NA
50208,Jasper County,IA,NA,NA,60.49856184084372,NA
50265,Polk County,IA,NA,NA,NA,81.87265917602996
50312,Polk County,IA,NA,82.80182232346242,NA,NA
50315,Polk County,IA,NA,NA,NA,38.651685393258425
50317,Polk County,IA,NA,9.79498861047836,12.080536912751679,NA
50320,Polk County,IA,NA,NA,59.73154362416108,NA
50401,Cerro Gordo County,IA,NA,NA,NA,0.8988764044943821
50441,Franklin County,IA,NA,NA,74.30488974113135,66.96629213483146
50501,Webster County,IA,36.681222707423586,NA,NA,NA
50536,Palo Alto County,IA,NA,NA,81.5915627996165,NA
50677,Bremer County,IA,NA,76.5375854214123,NA,NA
50701,Black Hawk County,IA,NA,29.498861047835987,NA,NA
50703,Black Hawk County,IA,NA,55.80865603644647,NA,NA
51503,Pottawattamie County,IA,NA,NA,73.15436241610739,NA
51534,Mills County,IA,NA,57.1753986332574,NA,NA
51537,Shelby County,IA,NA,NA,91.75455417066155,NA
51566,Montgomery County,IA,NA,NA,NA,96.62921348314607
51632,Page County,IA,NA,73.12072892938497,NA,NA
52001,Dubuque County,IA,NA,NA,80.0575263662512,NA
52002,Dubuque County,IA,NA,NA,NA,72.50936329588015
52003,Dubuque County,IA,NA,NA,NA,70.18726591760299
52040,Dubuque County,IA,NA,100,NA,NA
52101,Winneshiek County,IA,NA,66.05922551252847,NA,NA
52233,Linn County,IA,NA,NA,98.94534995206136,99.7003745318352
52240,Johnson County,IA,24.890829694323145,19.134396355353076,68.2646212847555,NA
52241,Johnson County,IA,NA,72.66514806378133,NA,NA
52245,Johnson County,IA,NA,91.00227790432803,80.63279002876318,NA
52246,Johnson County,IA,NA,NA,58.96452540747843,26.816479400749067
52302,Linn County,IA,NA,NA,29.72195589645254,NA
52404,Linn County,IA,NA,7.744874715261959,NA,61.72284644194757
52405,Linn County,IA,79.03930131004367,NA,NA,NA
52501,Wapello County,IA,NA,NA,25.023969319271334,NA
52601,Des Moines County,IA,NA,NA,NA,10.486891385767791
52632,Lee County,IA,NA,NA,NA,87.19101123595505
52722,Scott County,IA,13.973799126637553,48.405466970387245,NA,NA
52732,Clinton County,IA,NA,66.85649202733485,NA,NA
52761,Muscatine County,IA,NA,65.94533029612755,77.85234899328859,56.62921348314607
52803,Scott County,IA,52.838427947598255,NA,NA,NA
52806,Scott County,IA,NA,19.020501138952163,NA,NA
66043,Leavenworth County,KS,NA,NA,NA,89.43820224719101
66049,Douglas County,KS,NA,NA,31.255992329817833,NA
66061,Johnson County,KS,NA,NA,44.67881112176414,NA
66067,Franklin County,KS,NA,NA,NA,36.70411985018727
66103,Wyandotte County,KS,NA,NA,NA,73.48314606741573
66112,Wyandotte County,KS,NA,83.14350797266515,NA,NA
66207,Johnson County,KS,NA,NA,NA,37.453183520599254
66209,Johnson County,KS,NA,NA,70.0862895493768,NA
66210,Johnson County,KS,NA,NA,61.45733461169702,NA
66212,Johnson County,KS,NA,NA,12.272291466922338,NA
66215,Johnson County,KS,NA,NA,36.625119846596355,34.9063670411985
66605,Shawnee County,KS,NA,44.874715261959,48.897411313518695,51.38576779026217
66606,Shawnee County,KS,NA,79.49886104783599,NA,NA
66607,Shawnee County,KS,NA,NA,87.34419942473633,NA
66614,Shawnee County,KS,NA,NA,49.37679769894535,12.359550561797752
66713,Cherokee County,KS,NA,92.9384965831435,NA,NA
67037,Sedgwick County,KS,NA,85.7630979498861,NA,NA
67357,Labette County,KS,NA,NA,55.033557046979865,NA
67401,Saline County,KS,NA,NA,NA,15.131086142322097
67901,Seward County,KS,NA,NA,NA,78.65168539325843
40004,Nelson County,KY,NA,16.059225512528474,NA,NA
40031,Oldham County,KY,NA,28.35990888382688,NA,NA
40206,Jefferson County,KY,NA,NA,72.77085330776606,NA
40207,Jefferson County,KY,NA,NA,NA,65.61797752808988
40211,Jefferson County,KY,NA,NA,NA,91.61048689138576
40214,Jefferson County,KY,NA,NA,12.464046021093,NA
40216,Jefferson County,KY,NA,NA,9.683604985618409,NA
40218,Jefferson County,KY,NA,NA,NA,53.40823970037453
40219,Jefferson County,KY,NA,11.161731207289293,NA,NA
40229,Jefferson County,KY,NA,10.250569476082005,NA,NA
40243,Jefferson County,KY,NA,NA,NA,50.262172284644194
40245,Jefferson County,KY,NA,NA,NA,83.97003745318352
40258,Jefferson County,KY,NA,19.70387243735763,NA,NA
40313,Rowan County,KY,NA,86.78815489749431,NA,NA
40324,Scott County,KY,NA,11.731207289293849,NA,NA
40351,Rowan County,KY,NA,NA,85.42665388302973,NA
40361,Bourbon County,KY,NA,31.776765375854215,NA,NA
40390,Jessamine County,KY,NA,94.53302961275627,NA,NA
40403,Madison County,KY,NA,NA,NA,21.34831460674157
40444,Garrard County,KY,NA,NA,NA,77.97752808988764
40475,Madison County,KY,61.135371179039296,NA,NA,82.02247191011236
40502,Fayette County,KY,NA,NA,NA,38.80149812734082
40508,Fayette County,KY,NA,NA,61.649089165867686,NA
41017,Kenton County,KY,NA,NA,51.86960690316395,NA
41018,Kenton County,KY,NA,NA,20.80536912751678,NA
41042,Boone County,KY,NA,NA,NA,2.9962546816479403
41048,Boone County,KY,NA,NA,NA,96.32958801498127
41071,Campbell County,KY,NA,NA,29.14669223394056,NA
41076,Campbell County,KY,87.33624454148472,NA,96.83604985618408,NA
41139,Greenup County,KY,NA,NA,NA,67.26591760299625
41164,Carter County,KY,NA,NA,NA,45.31835205992509
41701,Perry County,KY,NA,NA,56.85522531160115,NA
42001,McCracken County,KY,NA,25.512528473804103,NA,NA
42129,Metcalfe County,KY,NA,52.73348519362187,NA,NA
42164,Allen County,KY,NA,NA,52.06136145733461,NA
42206,Logan County,KY,NA,NA,95.39789069990412,NA
42240,Christian County,KY,NA,55.125284738041,NA,NA
42408,Hopkins County,KY,NA,99.20273348519362,NA,NA
42420,Henderson County,KY,NA,8.086560364464694,NA,13.558052434456929
42437,Union County,KY,NA,NA,NA,80.89887640449437
42701,Hardin County,KY,16.593886462882097,NA,NA,NA
42728,Adair County,KY,NA,48.29157175398633,NA,NA
70002,Jefferson Parish,LA,NA,NA,NA,29.138576779026216
70056,Jefferson Parish,LA,NA,3.986332574031891,NA,NA
70065,Jefferson Parish,LA,NA,34.39635535307517,2.109300095877277,NA
70116,Orleans Parish,LA,NA,NA,62.799616490891665,NA
70119,Orleans Parish,LA,5.240174672489083,4.214123006833713,NA,NA
70122,Orleans Parish,LA,NA,NA,8.724832214765101,NA
70123,Jefferson Parish,LA,NA,NA,49.18504314477469,NA
70125,Orleans Parish,LA,NA,NA,NA,80.74906367041199
70126,Orleans Parish,LA,NA,NA,16.682646212847555,NA
70346,Ascension Parish,LA,NA,NA,61.55321188878236,NA
70380,St. Mary Parish,LA,NA,NA,24.832214765100673,NA
70458,St. Tammany Parish,LA,NA,NA,39.693192713326944,NA
70471,St. Tammany Parish,LA,NA,NA,NA,47.640449438202246
70510,Vermilion Parish,LA,NA,32.11845102505695,NA,NA
70518,Lafayette Parish,LA,NA,NA,64.33365292425695,NA
70544,Iberia Parish,LA,NA,NA,NA,65.09363295880149
70548,Vermilion Parish,LA,NA,NA,NA,56.77902621722847
70554,Evangeline Parish,LA,NA,NA,75.45541706615532,NA
70592,Lafayette Parish,LA,NA,25.28473804100228,NA,NA
70615,Calcasieu Parish,LA,NA,NA,62.89549376797699,NA
70706,Livingston Parish,LA,NA,NA,NA,80.374531835206
70737,Ascension Parish,LA,NA,NA,13.422818791946309,NA
70805,East Baton Rouge Parish,LA,NA,NA,22.818791946308725,NA
70806,East Baton Rouge Parish,LA,NA,NA,NA,33.10861423220974
70808,East Baton Rouge Parish,LA,NA,NA,NA,86.89138576779027
70809,East Baton Rouge Parish,LA,NA,NA,NA,33.70786516853933
71047,Caddo Parish,LA,NA,NA,44.966442953020135,NA
71055,Webster Parish,LA,NA,14.236902050113894,NA,NA
71107,Caddo Parish,LA,NA,NA,NA,22.621722846441948
71112,Bossier Parish,LA,NA,NA,55.80057526366251,NA
71118,Caddo Parish,LA,NA,NA,20.13422818791946,NA
71201,Ouachita Parish,LA,47.161572052401745,NA,NA,NA
71203,Ouachita Parish,LA,NA,NA,55.22531160115053,NA
71232,Richland Parish,LA,NA,NA,NA,68.76404494382022
03908,York County,ME,NA,NA,NA,73.78277153558052
03909,York County,ME,NA,NA,91.56279961649089,NA
04072,York County,ME,NA,NA,15.052732502396932,NA
04083,York County,ME,NA,NA,NA,92.95880149812734
04084,Cumberland County,ME,NA,NA,NA,91.91011235955057
04090,York County,ME,NA,82.57403189066059,NA,14.307116104868914
04102,Cumberland County,ME,NA,NA,32.02301054650048,NA
04103,Cumberland County,ME,NA,NA,17.833173537871524,NA
04106,Cumberland County,ME,NA,NA,30.00958772770853,NA
04210,Androscoggin County,ME,NA,NA,6.999041227229147,NA
04240,Androscoggin County,ME,65.06550218340611,NA,NA,NA
04330,Kennebec County,ME,NA,87.58542141230068,NA,NA
04412,Penobscot County,ME,NA,NA,NA,58.127340823970044
04426,Piscataquis County,ME,NA,98.063781321184507,NA,NA
04462,Penobscot County,ME,NA,81.77676537585421,NA,NA
04530,Sagadahoc County,ME,NA,NA,40.84372003835091,NA
04572,Lincoln County,ME,NA,NA,97.98657718120806,NA
04742,Aroostook County,ME,NA,NA,84.56375838926175,NA
04841,Knox County,ME,NA,NA,97.41131351869608,49.21348314606742
04843,Knox County,ME,NA,92.8246013667426,NA,75.73033707865169
04856,Knox County,ME,NA,99.65831435079726,NA,NA
04864,Knox County,ME,NA,99.43052391799544,NA,NA
04901,Kennebec County,ME,NA,75.5125284738041,NA,NA
04915,Waldo County,ME,NA,67.42596810933941,90.0287631831256,NA
04937,Somerset County,ME,NA,NA,90.79578139980825,NA
04950,Somerset County,ME,NA,NA,NA,74.38202247191012
20657,Calvert County,MD,NA,64.2369020501139,NA,NA
20707,Prince George's County,MD,NA,NA,76.98945349952061,NA
20715,Prince George's County,MD,NA,NA,68.83988494726749,NA
20720,Prince George's County,MD,NA,95.78587699316628,NA,NA
20774,Prince George's County,MD,NA,NA,NA,39.62546816479401
20854,Montgomery County,MD,NA,NA,29.050814956855227,NA
20879,Montgomery County,MD,NA,NA,94.7267497603068,NA
20886,Montgomery County,MD,NA,NA,NA,84.34456928838952
20905,Montgomery County,MD,NA,NA,95.11025886864813,NA
20906,Montgomery County,MD,NA,NA,NA,8.913857677902621
20910,Montgomery County,MD,NA,NA,90.69990412272291,NA
21001,Harford County,MD,NA,NA,NA,60.22471910112359
21009,Harford County,MD,NA,NA,NA,60.749063670411985
21014,Harford County,MD,NA,36.21867881548975,61.26558005752637,NA
21017,Harford County,MD,NA,NA,98.08245445829338,NA
21034,Harford County,MD,NA,98.74715261958997,NA,NA
21048,Carroll County,MD,NA,NA,NA,88.31460674157303
21050,Harford County,MD,NA,NA,NA,86.89138576779027
21060,Anne Arundel County,MD,NA,56.15034168564921,NA,NA
21087,Baltimore County,MD,NA,NA,91.85043144774689,NA
21093,Baltimore County,MD,NA,NA,NA,77.82771535580524
21114,Anne Arundel County,MD,NA,NA,NA,97.30337078651685
21144,Anne Arundel County,MD,NA,NA,51.67785234899329,NA
21154,Harford County,MD,NA,91.79954441913439,NA,NA
21157,Carroll County,MD,NA,NA,40.36433365292426,NA
21201,Baltimore city,MD,NA,NA,NA,61.49812734082397
21202,Baltimore city,MD,NA,37.12984054669704,NA,NA
21204,Baltimore County,MD,NA,NA,71.81208053691275,NA
21205,Baltimore city,MD,NA,42.8246013667426,69.12751677852349,NA
21207,Baltimore County,MD,NA,NA,55.033557046979865,NA
21208,Baltimore County,MD,NA,NA,NA,62.397003745318344
21210,Baltimore city,MD,NA,NA,65.19654841802492,NA
21212,Baltimore city,MD,NA,NA,27.708533077660597,30.711610486891384
21214,Baltimore city,MD,NA,NA,NA,55.1310861423221
21216,Baltimore city,MD,NA,NA,18.21668264621285,NA
21218,Baltimore city,MD,NA,51.252847380410024,NA,NA
21222,Baltimore County,MD,NA,NA,NA,71.68539325842697
21224,Baltimore city,MD,NA,NA,NA,96.47940074906367
21231,Baltimore city,MD,NA,NA,NA,71.38576779026216
21236,Baltimore County,MD,NA,NA,NA,21.49812734082397
21403,Anne Arundel County,MD,NA,57.630979498861045,NA,NA
21502,Allegany County,MD,NA,NA,NA,64.11985018726591
21632,Caroline County,MD,NA,NA,77.46883988494727,NA
21701,Frederick County,MD,NA,NA,NA,91.38576779026218
21783,Washington County,MD,89.95633187772926,NA,NA,NA
21784,Carroll County,MD,NA,49.65831435079727,NA,NA
01013,Hampden County,MA,NA,NA,11.12176414189837,NA
01020,Hampden County,MA,NA,3.8724373576309796,NA,NA
01033,Hampshire County,MA,NA,NA,78.61936720997123,NA
01095,Hampden County,MA,NA,NA,NA,11.835205992509364
01104,Hampden County,MA,NA,0.9111617312072893,8.053691275167784,2.696629213483146
01106,Hampden County,MA,NA,NA,NA,39.7752808988764
01107,Hampden County,MA,NA,NA,2.205177372962608,NA
01108,Hampden County,MA,NA,NA,46.4046021093001,NA
01109,Hampden County,MA,NA,NA,53.8830297219559,53.93258426966292
01118,Hampden County,MA,NA,23.462414578587698,NA,NA
01151,Hampden County,MA,NA,NA,NA,83.44569288389513
01201,Berkshire County,MA,NA,NA,NA,0.7490636704119851
01226,Berkshire County,MA,NA,NA,57.813998082454454,NA
01230,Berkshire County,MA,NA,62.75626423690205,NA,NA
01301,Franklin County,MA,82.96943231441048,NA,NA,NA
01331,Worcester County,MA,NA,4.100227790432802,NA,NA
01373,Franklin County,MA,NA,NA,NA,99.32584269662922
01460,Middlesex County,MA,NA,NA,NA,62.022471910112365
01475,Worcester County,MA,NA,23.690205011389523,NA,NA
01510,Worcester County,MA,NA,17.65375854214123,NA,NA
01540,Worcester County,MA,53.275109170305676,NA,NA,NA
01543,Worcester County,MA,NA,70.84282460136674,NA,NA
01604,Worcester County,MA,NA,NA,NA,2.247191011235955
01607,Worcester County,MA,NA,NA,63.66251198465963,NA
01702,Middlesex County,MA,NA,NA,46.50047938638543,NA
01748,Middlesex County,MA,NA,39.066059225512525,NA,NA
01749,Middlesex County,MA,NA,NA,31.639501438159158,46.89138576779026
01754,Middlesex County,MA,NA,NA,NA,96.10486891385767
01757,Worcester County,MA,NA,NA,4.1227229146692235,18.352059925093634
01801,Middlesex County,MA,NA,NA,NA,40.44943820224719
01803,Middlesex County,MA,NA,NA,3.1639501438159154,NA
01824,Middlesex County,MA,NA,NA,4.985618408437201,NA
01835,Essex County,MA,28.38427947598253,NA,NA,NA
01841,Essex County,MA,3.9301310043668125,NA,NA,NA
01845,Essex County,MA,NA,NA,9.587727708533079,17.902621722846444
01851,Middlesex County,MA,NA,25.968109339407746,NA,NA
01862,Middlesex County,MA,NA,41.68564920273349,NA,NA
01904,Essex County,MA,NA,NA,NA,22.47191011235955
01905,Essex County,MA,NA,NA,5.273250239693192,NA
01913,Essex County,MA,NA,NA,7.094918504314478,NA
01915,Essex County,MA,NA,1.366742596810934,NA,38.12734082397004
01921,Essex County,MA,NA,91.68564920273349,NA,NA
01923,Essex County,MA,NA,2.847380410022779,NA,12.883895131086142
01930,Essex County,MA,NA,NA,0.28763183125599234,NA
01949,Essex County,MA,NA,NA,NA,61.12359550561798
01960,Essex County,MA,NA,NA,0.19175455417066153,25.617977528089884
01969,Essex County,MA,NA,NA,NA,89.8876404494382
01970,Essex County,MA,NA,NA,NA,4.868913857677903
02019,Norfolk County,MA,NA,NA,6.2320230105465,NA
02021,Norfolk County,MA,NA,26.42369020501139,NA,6.067415730337078
02026,Norfolk County,MA,NA,NA,NA,10.861423220973784
02035,Norfolk County,MA,NA,NA,19.175455417066157,NA
02043,Plymouth County,MA,NA,NA,NA,50.861423220973776
02048,Bristol County,MA,NA,17.425968109339408,78.8111217641419,NA
02050,Plymouth County,MA,NA,18.109339407744876,NA,NA
02056,Norfolk County,MA,NA,95.55808656036446,NA,NA
02062,Norfolk County,MA,NA,NA,8.916586768935762,NA
02090,Norfolk County,MA,NA,NA,NA,36.853932584269664
02111,Suffolk County,MA,NA,88.61047835990888,NA,NA
02115,Suffolk County,MA,NA,NA,2.684563758389262,NA
02116,Suffolk County,MA,NA,NA,NA,78.20224719101122
02124,Suffolk County,MA,NA,NA,NA,1.0486891385767791
02126,Suffolk County,MA,NA,10.136674259681094,41.32310642377757,NA
02128,Suffolk County,MA,NA,NA,0.5752636625119847,NA
02130,Suffolk County,MA,NA,75.96810933940775,NA,NA
02131,Suffolk County,MA,NA,NA,3.547459252157239,NA
02134,Suffolk County,MA,NA,NA,NA,81.42322097378278
02135,Suffolk County,MA,NA,NA,85.0431447746884,NA
02136,Suffolk County,MA,NA,NA,3.7392138063279003,NA
02138,Middlesex County,MA,NA,NA,NA,9.962546816479401
02139,Middlesex County,MA,NA,21.4123006833713,2.013422818791946,NA
02140,Middlesex County,MA,NA,NA,NA,20.674157303370784
02141,Middlesex County,MA,NA,NA,NA,86.74157303370787
02143,Middlesex County,MA,NA,4.89749430523918,35.858101629913705,NA
02144,Middlesex County,MA,53.711790393013104,17.539863325740317,76.60594439117929,NA
02148,Middlesex County,MA,NA,52.0501138952164,NA,NA
02149,Middlesex County,MA,NA,NA,53.5953978906999,1.7228464419475655
02150,Suffolk County,MA,NA,0.22779043280182232,NA,NA
02151,Suffolk County,MA,NA,23.006833712984054,0,3.9700374531835205
02152,Suffolk County,MA,NA,10.933940774487471,86.96069031639502,NA
02155,Middlesex County,MA,2.1834061135371177,NA,NA,0.5243445692883896
02169,Norfolk County,MA,NA,NA,66.15532118887823,NA
02176,Middlesex County,MA,NA,NA,4.88974113135187,10.337078651685392
02180,Middlesex County,MA,NA,NA,17.929050814956852,8.389513108614233
02338,Plymouth County,MA,NA,NA,NA,73.18352059925094
02341,Plymouth County,MA,NA,36.78815489749431,NA,NA
02347,Plymouth County,MA,NA,NA,NA,95.8052434456929
02356,Bristol County,MA,NA,NA,82.74209012464046,NA
02368,Norfolk County,MA,NA,1.5945330296127564,NA,NA
02379,Plymouth County,MA,60.698689956331876,NA,NA,NA
02420,Middlesex County,MA,NA,NA,NA,40.52434456928839
02421,Middlesex County,MA,NA,NA,NA,9.812734082397004
02446,Norfolk County,MA,83.84279475982532,NA,4.793863854266539,6.8164794007490634
02451,Middlesex County,MA,NA,22.323462414578586,14.669223394055608,NA
02452,Middlesex County,MA,NA,NA,NA,45.39325842696629
02466,Middlesex County,MA,NA,NA,87.91946308724832,NA
02467,Norfolk County,MA,NA,42.710706150341686,NA,61.573033707865164
02472,Middlesex County,MA,NA,6.605922551252847,50.81495685522531,NA
02476,Middlesex County,MA,NA,NA,57.3346116970278,NA
02478,Middlesex County,MA,NA,NA,NA,31.61048689138577
02493,Middlesex County,MA,NA,59.79498861047836,NA,NA
02494,Norfolk County,MA,NA,NA,NA,40.2996254681648
02536,Barnstable County,MA,NA,NA,10.738255033557047,10.187265917602996
02554,Nantucket County,MA,NA,NA,NA,58.20224719101124
02571,Plymouth County,MA,75.10917030567686,NA,NA,NA
02601,Barnstable County,MA,NA,NA,NA,36.02996254681648
02631,Barnstable County,MA,NA,77.90432801822324,NA,33.857677902621724
02632,Barnstable County,MA,NA,85.07972665148064,NA,NA
02645,Barnstable County,MA,NA,60.250569476082006,NA,NA
02668,Barnstable County,MA,NA,NA,NA,90.78651685393258
02720,Bristol County,MA,NA,0,NA,NA
02738,Plymouth County,MA,NA,NA,NA,82.77153558052434
02740,Bristol County,MA,0.8733624454148471,NA,NA,NA
02766,Bristol County,MA,NA,NA,55.51294343240652,NA
02767,Bristol County,MA,NA,NA,35.1869606903164,NA
02777,Bristol County,MA,NA,27.5626423690205,NA,NA
02780,Bristol County,MA,NA,0.11389521640091116,NA,8.014981273408239
48021,Macomb County,MI,NA,51.93621867881549,14.57334611697028,NA
48025,Oakland County,MI,NA,NA,NA,57.37827715355805
48030,Oakland County,MI,39.737991266375545,NA,NA,NA
48033,Oakland County,MI,NA,NA,NA,17.153558052434455
48035,Macomb County,MI,NA,NA,6.903163950143816,NA
48038,Macomb County,MI,NA,NA,23.39405560882071,NA
48044,Macomb County,MI,NA,46.12756264236902,NA,NA
48065,Macomb County,MI,NA,NA,NA,56.40449438202248
48066,Macomb County,MI,NA,2.5056947608200453,NA,5.842696629213483
48081,Macomb County,MI,NA,NA,19.463087248322147,NA
48092,Macomb County,MI,NA,NA,17.25790987535954,NA
48093,Macomb County,MI,NA,NA,NA,15.505617977528091
48111,Wayne County,MI,NA,NA,4.506232023010546,NA
48114,Livingston County,MI,NA,NA,NA,49.13857677902622
48116,Livingston County,MI,NA,24.829157175398635,NA,NA
48117,Monroe County,MI,NA,48.063781321184514,NA,NA
48118,Washtenaw County,MI,NA,NA,27.996164908916587,NA
48126,Wayne County,MI,NA,NA,NA,11.235955056179774
48135,Wayne County,MI,NA,19.81776765375854,NA,NA
48144,Monroe County,MI,NA,NA,NA,87.56554307116104
48150,Wayne County,MI,NA,24.145785876993166,NA,NA
48154,Wayne County,MI,NA,79.38496583143508,NA,NA
48164,Wayne County,MI,NA,NA,66.53883029721956,NA
48165,Oakland County,MI,NA,NA,84.18024928092042,NA
48178,Oakland County,MI,NA,NA,NA,5.393258426966292
48180,Wayne County,MI,NA,NA,NA,2.4719101123595504
48182,Monroe County,MI,93.44978165938865,NA,NA,NA
48184,Wayne County,MI,58.07860262008734,NA,19.75071907957814,NA
48186,Wayne County,MI,NA,5.5808656036446465,NA,NA
48187,Wayne County,MI,NA,NA,NA,5.917602996254682
48189,Washtenaw County,MI,NA,NA,NA,90.48689138576779
48191,Washtenaw County,MI,NA,90.43280182232346,NA,NA
48197,Washtenaw County,MI,3.056768558951965,NA,1.2464046021093003,NA
48202,Wayne County,MI,NA,NA,NA,84.9438202247191
48203,Wayne County,MI,17.03056768558952,NA,NA,NA
48204,Wayne County,MI,NA,51.36674259681093,NA,25.692883895131086
48206,Wayne County,MI,NA,NA,NA,57.752808988764045
48207,Wayne County,MI,NA,NA,NA,13.48314606741573
48219,Wayne County,MI,NA,4.441913439635535,NA,NA
48221,Wayne County,MI,27.947598253275107,4.669703872437358,NA,NA
48223,Wayne County,MI,NA,NA,NA,52.58426966292134
48235,Wayne County,MI,NA,NA,NA,59.55056179775281
48236,Wayne County,MI,39.30131004366812,26.65148063781321,NA,NA
48237,Oakland County,MI,NA,NA,14.86097794822627,NA
48239,Wayne County,MI,NA,NA,NA,35.056179775280896
48304,Oakland County,MI,NA,84.51025056947609,NA,NA
48312,Macomb County,MI,NA,79.95444191343964,NA,NA
48324,Oakland County,MI,NA,NA,NA,46.06741573033708
48327,Oakland County,MI,NA,27.904328018223236,NA,NA
48346,Oakland County,MI,59.82532751091703,NA,NA,NA
48363,Oakland County,MI,NA,81.54897494305239,NA,NA
48377,Oakland County,MI,NA,NA,NA,25.168539325842698
48412,Lapeer County,MI,NA,NA,83.70086289549377,NA
48423,Genesee County,MI,NA,27.33485193621868,NA,NA
48430,Genesee County,MI,NA,NA,NA,16.779026217228466
48433,Genesee County,MI,NA,48.063781321184514,17.449664429530202,NA
48462,Oakland County,MI,NA,74.14578587699316,NA,NA
48503,Genesee County,MI,NA,15.148063781321182,NA,NA
48504,Genesee County,MI,NA,14.92027334851936,NA,NA
48506,Genesee County,MI,NA,21.184510250569478,NA,NA
48507,Genesee County,MI,NA,NA,25.98274209012464,NA
48601,Saginaw County,MI,NA,1.4806378132118452,NA,4.344569288389513
48602,Saginaw County,MI,NA,3.0751708428246016,NA,NA
48624,Gladwin County,MI,NA,86.10478359908885,NA,NA
48631,Bay County,MI,NA,NA,NA,84.26966292134831
48632,Clare County,MI,NA,97.72209567198178,NA,NA
48640,Midland County,MI,NA,NA,11.409395973154362,3.6704119850187267
48642,Midland County,MI,30.131004366812224,NA,NA,5.393258426966292
48647,Oscoda County,MI,NA,NA,88.97411313518695,NA
48651,Roscommon County,MI,NA,NA,NA,85.1685393258427
48653,Roscommon County,MI,NA,NA,84.75551294343241,NA
48708,Bay County,MI,NA,6.83371298405467,NA,NA
48722,Saginaw County,MI,NA,NA,NA,89.06367041198502
48750,Iosco County,MI,NA,NA,NA,55.35580524344569
48843,Livingston County,MI,NA,NA,NA,6.591760299625468
48854,Ingham County,MI,NA,44.64692482915717,NA,84.5692883895131
48858,Isabella County,MI,9.606986899563319,NA,NA,34.30711610486891
48879,Clinton County,MI,NA,NA,NA,24.868913857677903
48910,Ingham County,MI,NA,NA,10.546500479386385,28.389513108614235
48917,Eaton County,MI,NA,NA,NA,8.539325842696629
49004,Kalamazoo County,MI,NA,NA,NA,50.41198501872659
49006,Kalamazoo County,MI,NA,NA,NA,82.69662921348313
49009,Kalamazoo County,MI,NA,NA,NA,9.962546816479401
49024,Kalamazoo County,MI,NA,NA,NA,75.28089887640449
49028,Branch County,MI,NA,86.56036446469248,NA,NA
49047,Cass County,MI,NA,NA,74.40076701821668,NA
49048,Kalamazoo County,MI,NA,NA,NA,44.41947565543071
49068,Calhoun County,MI,NA,NA,NA,29.51310861423221
49221,Lenawee County,MI,NA,3.644646924829157,NA,NA
49306,Kent County,MI,NA,NA,NA,94.15730337078652
49341,Kent County,MI,NA,56.03644646924829,NA,NA
49418,Kent County,MI,NA,NA,NA,20.674157303370784
49423,Ottawa County,MI,43.23144104803494,NA,5.944391179290508,NA
49428,Ottawa County,MI,NA,NA,76.0306807286673,NA
49431,Mason County,MI,NA,NA,NA,18.426966292134832
49441,Muskegon County,MI,NA,NA,NA,68.68913857677903
49442,Muskegon County,MI,NA,15.261958997722095,NA,NA
49444,Muskegon County,MI,NA,8.542141230068337,NA,NA
49445,Muskegon County,MI,NA,NA,NA,20.44943820224719
49464,Ottawa County,MI,NA,NA,30.87248322147651,NA
49503,Kent County,MI,NA,NA,31.73537871524449,NA
49504,Kent County,MI,NA,94.874715261959,NA,68.23970037453184
49505,Kent County,MI,NA,NA,20.421860019175455,NA
49508,Kent County,MI,NA,5.239179954441914,6.807286673058485,6.741573033707865
49548,Kent County,MI,5.676855895196507,NA,NA,NA
49651,Missaukee County,MI,NA,NA,NA,57.752808988764045
49657,Missaukee County,MI,NA,NA,99.52061361457335,NA
49660,Manistee County,MI,NA,NA,22.14765100671141,NA
49677,Osceola County,MI,78.16593886462883,NA,NA,NA
49684,Grand Traverse County,MI,NA,NA,92.23394055608821,NA
49686,Grand Traverse County,MI,NA,94.64692482915717,NA,NA
49696,Grand Traverse County,MI,NA,72.55125284738041,NA,NA
49707,Alpena County,MI,NA,57.97266514806378,NA,NA
49709,Montmorency County,MI,NA,NA,NA,82.84644194756554
49740,Emmet County,MI,NA,NA,NA,96.40449438202248
49878,Delta County,MI,NA,NA,79.67401725790988,NA
49913,Houghton County,MI,NA,NA,NA,36.92883895131086
49938,Gogebic County,MI,NA,65.60364464692483,NA,NA
55025,Washington County,MN,NA,51.48063781321185,NA,NA
55033,Dakota County,MN,49.34497816593886,25.740318906605925,NA,NA
55038,Washington County,MN,NA,NA,80.72866730584852,73.48314606741573
55040,Isanti County,MN,NA,NA,NA,98.05243445692884
55060,Steele County,MN,NA,92.48291571753985,NA,NA
55068,Dakota County,MN,NA,NA,NA,86.36704119850187
55076,Dakota County,MN,NA,89.40774487471526,NA,NA
55077,Dakota County,MN,NA,NA,88.87823585810163,NA
55082,Washington County,MN,NA,61.16173120728929,NA,NA
55101,Ramsey County,MN,NA,NA,NA,98.35205992509364
55102,Ramsey County,MN,NA,NA,33.557046979865774,69.5880149812734
55103,Ramsey County,MN,NA,83.25740318906605,NA,NA
55104,Ramsey County,MN,NA,40.546697038724375,NA,NA
55105,Ramsey County,MN,NA,NA,58.581016299137104,NA
55106,Ramsey County,MN,NA,65.37585421412301,NA,NA
55108,Ramsey County,MN,NA,NA,89.64525407478428,NA
55109,Ramsey County,MN,NA,NA,23.6816874400767,NA
55110,Ramsey County,MN,NA,NA,NA,81.94756554307116
55112,Ramsey County,MN,NA,36.332574031890665,91.94630872483222,NA
55113,Ramsey County,MN,NA,NA,39.98082454458293,19.625468164794007
55116,Ramsey County,MN,NA,NA,54.07478427612655,NA
55117,Ramsey County,MN,NA,NA,NA,70.93632958801498
55118,Dakota County,MN,65.50218340611353,NA,36.241610738255034,NA
55119,Ramsey County,MN,NA,69.93166287015946,NA,35.80524344569289
55122,Dakota County,MN,NA,NA,NA,54.831460674157306
55123,Dakota County,MN,NA,NA,89.4534995206136,NA
55124,Dakota County,MN,17.46724890829694,NA,33.6529242569511,NA
55125,Washington County,MN,NA,35.876993166287015,NA,NA
55126,Ramsey County,MN,NA,NA,NA,54.30711610486891
55127,Ramsey County,MN,NA,84.62414578587699,NA,67.71535580524345
55128,Washington County,MN,NA,NA,NA,93.48314606741573
55129,Washington County,MN,NA,NA,81.87919463087249,NA
55302,Wright County,MN,NA,NA,NA,90.0374531835206
55303,Anoka County,MN,NA,43.96355353075171,28.6673058485139,NA
55305,Hennepin County,MN,NA,NA,NA,65.54307116104869
55306,Dakota County,MN,NA,84.85193621867882,85.90604026845638,92.28464419475655
55316,Hennepin County,MN,31.4410480349345,NA,NA,NA
55318,Carver County,MN,NA,53.30296127562642,NA,66.66666666666666
55330,Sherburne County,MN,NA,NA,NA,77.45318352059925
55331,Hennepin County,MN,NA,NA,96.64429530201343,NA
55336,McLeod County,MN,NA,99.08883826879271,NA,88.38951310861424
55343,Hennepin County,MN,NA,NA,34.80345158197507,NA
55347,Hennepin County,MN,37.117903930131,61.27562642369021,NA,NA
55350,McLeod County,MN,NA,NA,97.2195589645254,NA
55355,Meeker County,MN,NA,NA,98.37008628954938,NA
55356,Hennepin County,MN,NA,NA,NA,97.07865168539325
55364,Hennepin County,MN,80.34934497816593,NA,NA,NA
55369,Hennepin County,MN,NA,78.01822323462414,NA,NA
55371,Mille Lacs County,MN,NA,90.8883826879271,NA,NA
55376,Wright County,MN,NA,NA,NA,76.70411985018727
55379,Scott County,MN,NA,53.98633257403189,NA,NA
55398,Sherburne County,MN,NA,72.09567198177676,NA,NA
55401,Hennepin County,MN,NA,58.65603644646925,NA,NA
55403,Hennepin County,MN,NA,78.5876993166287,NA,89.7378277153558
55404,Hennepin County,MN,NA,30.410022779043278,74.59252157238735,NA
55405,Hennepin County,MN,NA,31.548974943052393,41.80249280920422,NA
55406,Hennepin County,MN,68.99563318777294,21.526195899772212,NA,NA
55407,Hennepin County,MN,NA,24.031890660592257,4.410354745925216,NA
55408,Hennepin County,MN,NA,9.453302961275627,NA,NA
55409,Hennepin County,MN,NA,NA,77.37296260786194,NA
55411,Hennepin County,MN,NA,NA,89.26174496644296,NA
55412,Hennepin County,MN,NA,7.858769931662871,32.98178331735379,NA
55413,Hennepin County,MN,NA,37.357630979498865,72.67497603068072,NA
55416,Hennepin County,MN,NA,NA,99.90412272291466,NA
55417,Hennepin County,MN,NA,44.19134396355353,NA,NA
55418,Hennepin County,MN,44.10480349344978,NA,92.32981783317354,NA
55419,Hennepin County,MN,41.04803493449782,41.00227790432802,53.403643336529235,NA
55420,Hennepin County,MN,NA,80.41002277904327,NA,NA
55422,Hennepin County,MN,NA,57.744874715261965,NA,NA
55426,Hennepin County,MN,NA,NA,88.11121764141899,NA
55427,Hennepin County,MN,74.235807860262,NA,93.7679769894535,NA
55428,Hennepin County,MN,NA,16.970387243735765,NA,27.790262172284645
55429,Hennepin County,MN,NA,NA,34.32406519654842,NA
55430,Hennepin County,MN,NA,85.19362186788155,NA,NA
55431,Hennepin County,MN,NA,82.23234624145786,94.91850431447747,NA
55432,Anoka County,MN,NA,19.931662870159453,NA,NA
55434,Anoka County,MN,NA,NA,54.554170661553215,NA
55438,Hennepin County,MN,NA,NA,NA,51.38576779026217
55442,Hennepin County,MN,NA,75.39863325740319,NA,NA
55443,Hennepin County,MN,NA,95.10250569476082,NA,NA
55719,St. Louis County,MN,NA,NA,NA,79.40074906367042
55731,St. Louis County,MN,NA,98.29157175398633,NA,NA
55734,St. Louis County,MN,NA,NA,NA,85.0936329588015
55744,Itasca County,MN,68.5589519650655,93.73576309794989,49.95206136145733,4.269662921348314
55746,St. Louis County,MN,NA,21.981776765375855,NA,NA
55792,St. Louis County,MN,75.54585152838428,63.32574031890661,NA,18.726591760299627
55803,St. Louis County,MN,NA,NA,76.79769894534996,NA
55805,St. Louis County,MN,NA,40.091116173120724,97.89069990412273,NA
55806,St. Louis County,MN,NA,NA,89.74113135186961,NA
55807,St. Louis County,MN,NA,43.28018223234624,NA,NA
55811,St. Louis County,MN,NA,57.40318906605923,NA,1.947565543071161
55812,St. Louis County,MN,NA,75.62642369020502,NA,NA
55901,Olmsted County,MN,NA,80.6378132118451,NA,NA
55902,Olmsted County,MN,NA,77.33485193621867,80.92042186001918,NA
55904,Olmsted County,MN,NA,NA,NA,65.3932584269663
55906,Olmsted County,MN,NA,NA,59.827420901246406,85.84269662921349
55912,Mower County,MN,NA,6.264236902050115,NA,0.44943820224719105
55947,Houston County,MN,NA,NA,89.16586768935763,NA
55987,Winona County,MN,NA,7.061503416856492,75.16778523489933,NA
56001,Blue Earth County,MN,13.100436681222707,NA,29.53020134228188,NA
56007,Freeborn County,MN,NA,58.997722095671975,5.656759348034516,54.756554307116104
56011,Scott County,MN,70.74235807860262,NA,NA,NA
56031,Martin County,MN,NA,NA,NA,8.764044943820224
56073,Brown County,MN,NA,NA,39.59731543624161,2.3220973782771535
56093,Waseca County,MN,NA,NA,NA,20.823970037453183
56201,Kandiyohi County,MN,NA,NA,NA,90.11235955056179
56258,Lyon County,MN,NA,69.70387243735763,NA,NA
56265,Chippewa County,MN,NA,NA,NA,31.835205992509362
56283,Redwood County,MN,NA,87.24373576309794,NA,NA
56288,Kandiyohi County,MN,NA,NA,NA,94.83146067415731
56301,Stearns County,MN,NA,82.34624145785877,NA,NA
56304,Sherburne County,MN,85.58951965065502,NA,NA,NA
56374,Stearns County,MN,NA,NA,87.535953978907,NA
56379,Benton County,MN,58.951965065502186,NA,NA,81.27340823970037
56401,Crow Wing County,MN,NA,8.428246013667426,45.54170661553212,NA
56425,Crow Wing County,MN,NA,NA,NA,28.98876404494382
56464,Wadena County,MN,100,NA,NA,NA
56470,Hubbard County,MN,NA,NA,NA,31.310861423220977
56472,Crow Wing County,MN,NA,NA,97.5071907957814,NA
56482,Wadena County,MN,NA,NA,NA,64.8689138576779
56484,Cass County,MN,NA,NA,79.96164908916586,NA
56501,Becker County,MN,NA,65.03416856492026,57.71812080536913,49.063670411985015
56515,Otter Tail County,MN,NA,NA,NA,61.573033707865164
56537,Otter Tail County,MN,NA,15.034168564920272,NA,29.438202247191008
56557,Norman County,MN,NA,94.30523917995444,NA,NA
56560,Clay County,MN,NA,62.64236902050114,42.09012464046021,8.089887640449438
56573,Otter Tail County,MN,NA,57.1753986332574,NA,87.41573033707866
56601,Beltrami County,MN,88.20960698689956,NA,0.6711409395973155,24.56928838951311
56621,Clearwater County,MN,NA,91.45785876993166,NA,NA
56623,Lake of the Woods County,MN,94.32314410480349,NA,NA,NA
56721,Polk County,MN,NA,49.430523917995444,NA,NA
38676,Tunica County,MS,NA,92.25512528473804,NA,NA
38732,Bolivar County,MS,NA,NA,67.20997123681688,77.00374531835206
38751,Sunflower County,MS,NA,NA,NA,84.119850187265925
38762,Bolivar County,MS,NA,98.40546697038725,NA,NA
38921,Tallahatchie County,MS,NA,NA,NA,88.68913857677903
38930,Leflore County,MS,NA,34.054669703872435,NA,NA
39051,Leake County,MS,NA,NA,96.2607861936721,NA
39090,Attala County,MS,NA,63.89521640091116,NA,NA
39110,Madison County,MS,NA,NA,NA,24.719101123595504
39119,Covington County,MS,NA,NA,NA,95.13108614232209
39170,Hinds County,MS,NA,NA,83.89261744966443,NA
39180,Warren County,MS,NA,NA,42.761265580057525,NA
39194,Yazoo County,MS,NA,45.44419134396355,NA,NA
39208,Rankin County,MS,NA,NA,NA,21.423220973782772
39211,Hinds County,MS,NA,NA,NA,32.13483146067416
39305,Lauderdale County,MS,NA,NA,NA,45.99250936329588
39350,Neshoba County,MS,NA,NA,24.544582933844676,NA
39429,Marion County,MS,NA,60.59225512528473,NA,NA
39437,Jones County,MS,NA,55.922551252847384,NA,NA
39479,Covington County,MS,97.37991266375546,NA,95.0143815915628,88.16479400749063
39501,Harrison County,MS,NA,NA,14.093959731543624,21.573033707865168
39503,Harrison County,MS,NA,NA,NA,27.265917602996254
39520,Hancock County,MS,NA,NA,NA,50.936329588014985
39532,Harrison County,MS,NA,70.84282460136674,NA,NA
39540,Harrison County,MS,NA,NA,NA,80.2247191011236
39560,Harrison County,MS,NA,NA,7.28667305848514,44.11985018726592
39648,Pike County,MS,NA,17.312072892938495,NA,NA
39669,Wilkinson County,MS,NA,NA,98.84947267497604,NA
39744,Webster County,MS,NA,NA,NA,94.9812734082397
39759,Oktibbeha County,MS,NA,NA,NA,60.0749063670412
63021,St. Louis County,MO,NA,NA,NA,6.142322097378277
63026,St. Louis County,MO,NA,NA,NA,16.40449438202247
63105,St. Louis County,MO,NA,NA,NA,63.146067415730336
63108,St. Louis city,MO,59.388646288209614,45.21640091116173,NA,NA
63113,St. Louis city,MO,NA,NA,63.08724832214765,NA
63124,St. Louis County,MO,NA,NA,NA,26.666666666666668
63126,St. Louis County,MO,NA,83.94077448747153,NA,NA
63130,St. Louis County,MO,NA,NA,NA,38.12734082397004
63131,St. Louis County,MO,NA,NA,NA,52.958801498127336
63133,St. Louis County,MO,NA,78.24601366742597,NA,NA
63136,St. Louis County,MO,NA,NA,7.861936720997123,NA
63143,St. Louis County,MO,NA,NA,91.2751677852349,NA
63146,St. Louis County,MO,NA,NA,62.991371045062316,4.943820224719101
63147,St. Louis city,MO,79.91266375545851,NA,NA,NA
63301,St. Charles County,MO,NA,37.92710706150342,2.3969319271332696,NA
63366,St. Charles County,MO,NA,10.592255125284739,82.45445829338448,NA
63376,St. Charles County,MO,NA,NA,NA,3.445692883895131
63601,St. Francois County,MO,NA,NA,49.47267497603068,NA
63670,Ste. Genevieve County,MO,NA,NA,NA,57.15355805243446
63755,Cape Girardeau County,MO,NA,NA,NA,29.962546816479403
63901,Butler County,MO,NA,NA,18.50431447746884,NA
64014,Jackson County,MO,NA,65.48974943052391,26.65388302972196,NA
64015,Jackson County,MO,NA,11.275626423690206,NA,38.05243445692884
64050,Jackson County,MO,NA,NA,46.78811121764142,NA
64052,Jackson County,MO,55.021834061135365,NA,NA,NA
64062,Ray County,MO,NA,52.50569476082004,NA,NA
64063,Jackson County,MO,NA,NA,33.17353787152445,NA
64068,Clay County,MO,NA,NA,28.6673058485139,NA
64075,Jackson County,MO,NA,69.58997722095673,NA,NA
64081,Jackson County,MO,NA,NA,67.11409395973155,NA
64106,Jackson County,MO,NA,NA,89.54937679769894,NA
64111,Jackson County,MO,NA,NA,41.61073825503356,NA
64114,Jackson County,MO,NA,31.32118451025057,NA,NA
64118,Clay County,MO,NA,NA,30.68072866730585,NA
64130,Jackson County,MO,10.043668122270741,NA,NA,NA
64133,Jackson County,MO,NA,NA,NA,23.295880149812735
64137,Jackson County,MO,NA,NA,NA,56.47940074906367
64138,Jackson County,MO,NA,NA,NA,26.741573033707866
64506,Buchanan County,MO,NA,15.945330296127564,NA,NA
65020,Camden County,MO,NA,NA,NA,80.5992509363296
65065,Camden County,MO,NA,NA,NA,60.37453183520599
65078,Morgan County,MO,NA,NA,NA,93.55805243445693
65201,Boone County,MO,NA,NA,NA,47.11610486891386
65202,Boone County,MO,NA,9.111617312072893,NA,NA
65203,Boone County,MO,9.170305676855897,52.16400911161732,69.03163950143816,79.62546816479401
65233,Cooper County,MO,NA,NA,82.2627037392138,NA
65240,Boone County,MO,NA,NA,NA,92.50936329588015
65265,Audrain County,MO,NA,NA,52.92425695110259,NA
65301,Pettis County,MO,NA,NA,5.752636625119846,86.81647940074907
65355,Benton County,MO,NA,46.81093394077448,NA,NA
65401,Phelps County,MO,NA,32.46013667425968,13.518696069031638,23.745318352059925
65560,Dent County,MO,NA,NA,45.82933844678811,64.19475655430712
65605,Lawrence County,MO,NA,NA,NA,80.67415730337079
65619,Greene County,MO,NA,NA,NA,95.20599250936328
65708,Barry County,MO,NA,63.097949886104786,NA,NA
65714,Christian County,MO,NA,84.05466970387245,NA,NA
65810,Greene County,MO,NA,83.82687927107062,NA,NA
59047,Park County,MT,NA,90.09111617312074,NA,NA
59101,Yellowstone County,MT,NA,33.59908883826879,NA,10.262172284644194
59102,Yellowstone County,MT,NA,NA,NA,1.1235955056179776
59401,Cascade County,MT,NA,78.35990888382688,NA,NA
59404,Cascade County,MT,NA,NA,NA,9.438202247191011
59405,Cascade County,MT,NA,25.05694760820046,64.33365292425695,NA
59602,Lewis and Clark County,MT,68.99563318777294,53.075170842824605,NA,NA
59803,Missoula County,MT,NA,NA,70.46979865771812,NA
59804,Missoula County,MT,80.34934497816593,NA,NA,NA
59840,Ravalli County,MT,78.16593886462883,NA,NA,NA
68104,Douglas County,NE,NA,NA,29.626078619367206,NA
68107,Douglas County,NE,NA,NA,50.23969319271333,NA
68108,Douglas County,NE,NA,67.53986332574033,NA,NA
68111,Douglas County,NE,36.24454148471616,NA,NA,NA
68131,Douglas County,NE,NA,NA,86.38542665388303,NA
68137,Douglas County,NE,NA,46.583143507972665,NA,NA
68144,Douglas County,NE,72.48908296943232,NA,86.67305848513902,NA
68154,Douglas County,NE,NA,NA,43.240651965484176,NA
68164,Douglas County,NE,NA,NA,63.47075743048898,NA
68305,Nemaha County,NE,NA,NA,NA,94.90636704119851
68504,Lancaster County,NE,NA,90.66059225512528,NA,NA
68505,Lancaster County,NE,NA,92.02733485193622,NA,NA
68512,Lancaster County,NE,76.41921397379913,NA,NA,NA
68516,Lancaster County,NE,NA,NA,40.46021093000959,40.89887640449438
68901,Adams County,NE,NA,60.70615034168565,NA,NA
69162,Cheyenne County,NE,NA,75.74031890660592,NA,NA
89102,Clark County,NV,NA,45.33029612756264,NA,NA
89108,Clark County,NV,17.903930131004365,NA,NA,NA
89117,Clark County,NV,NA,NA,NA,31.910112359550563
89122,Clark County,NV,44.54148471615721,NA,NA,NA
89131,Clark County,NV,NA,NA,42.18600191754554,NA
89134,Clark County,NV,NA,NA,NA,9.887640449438202
89143,Clark County,NV,NA,NA,89.83700862895493,NA
89144,Clark County,NV,NA,NA,79.86577181208054,NA
89149,Clark County,NV,NA,NA,NA,59.62546816479401
89460,Douglas County,NV,NA,NA,41.898370086289546,NA
89502,Washoe County,NV,51.96506550218341,NA,NA,NA
89506,Washoe County,NV,35.37117903930131,NA,NA,NA
89509,Washoe County,NV,NA,NA,NA,23.670411985018728
89512,Washoe County,NV,NA,13.097949886104784,NA,NA
89706,Carson City,NV,NA,NA,63.95014381591563,NA
03038,Rockingham County,NH,NA,NA,13.039309683604985,NA
03045,Hillsborough County,NH,NA,NA,NA,58.352059925093634
03053,Rockingham County,NH,NA,23.917995444191344,NA,NA
03060,Hillsborough County,NH,NA,NA,9.012464046021092,14.00749063670412
03104,Hillsborough County,NH,NA,NA,10.642377756471715,NA
03229,Merrimack County,NH,NA,NA,93.09683604985618,NA
03244,Hillsborough County,NH,NA,NA,93.28859060402685,NA
03301,Merrimack County,NH,NA,NA,NA,22.397003745318354
03743,Sullivan County,NH,NA,NA,67.3058485139022,NA
03773,Sullivan County,NH,NA,96.01366742596811,NA,NA
03801,Rockingham County,NH,45.414847161572055,45.558086560364465,NA,NA
03841,Rockingham County,NH,NA,91.34396355353076,NA,NA
03874,Rockingham County,NH,NA,NA,50.52732502396932,NA
07009,Essex County,NJ,NA,76.76537585421413,NA,NA
07010,Bergen County,NJ,NA,NA,57.90987535953979,NA
07017,Essex County,NJ,NA,NA,NA,12.659176029962547
07036,Union County,NJ,NA,NA,NA,62.77153558052434
07044,Essex County,NJ,NA,NA,81.01629913710451,NA
07047,Hudson County,NJ,NA,NA,NA,28.01498127340824
07054,Morris County,NJ,NA,NA,NA,29.662921348314608
07068,Essex County,NJ,NA,NA,NA,75.80524344569288
07087,Hudson County,NJ,NA,NA,3.8350910834132312,NA
07107,Essex County,NJ,NA,0.7972665148063782,NA,NA
07108,Essex County,NJ,NA,NA,NA,63.97003745318352
07201,Union County,NJ,NA,NA,68.74400767018217,64.34456928838951
07202,Union County,NJ,NA,NA,NA,21.872659176029963
07203,Union County,NJ,NA,NA,NA,82.47191011235955
07436,Bergen County,NJ,NA,NA,NA,73.10861423220973
07470,Passaic County,NJ,NA,NA,NA,4.419475655430712
07605,Bergen County,NJ,NA,NA,NA,93.70786516853933
07652,Bergen County,NJ,NA,75.28473804100227,NA,NA
07676,Bergen County,NJ,NA,NA,91.08341323106424,NA
07701,Monmouth County,NJ,56.33187772925764,NA,NA,43.745318352059925
07724,Monmouth County,NJ,NA,23.57630979498861,86.19367209971237,NA
07730,Monmouth County,NJ,NA,NA,NA,62.846441947565545
07838,Warren County,NJ,NA,NA,96.06903163950143,NA
07840,Warren County,NJ,NA,61.38952164009112,NA,NA
07869,Morris County,NJ,NA,NA,41.514860977948224,NA
07932,Morris County,NJ,NA,NA,92.71332694151486,NA
07974,Union County,NJ,NA,NA,NA,91.08614232209737
08002,Camden County,NJ,NA,NA,NA,32.734082397003746
08003,Camden County,NJ,NA,NA,NA,15.430711610486892
08021,Camden County,NJ,NA,NA,5.369127516778524,NA
08046,Burlington County,NJ,NA,NA,NA,25.842696629213485
08054,Burlington County,NJ,NA,NA,NA,13.707865168539326
08080,Gloucester County,NJ,NA,NA,NA,24.719101123595504
08081,Camden County,NJ,NA,1.0250569476082005,NA,NA
08098,Salem County,NJ,NA,NA,NA,79.32584269662921
08103,Camden County,NJ,NA,NA,16.39501438159156,NA
08201,Atlantic County,NJ,NA,NA,90.41227229146692,63.59550561797753
08232,Atlantic County,NJ,52.40174672489083,NA,NA,NA
08234,Atlantic County,NJ,NA,NA,NA,53.70786516853933
08302,Cumberland County,NJ,24.017467248908297,NA,NA,NA
08401,Atlantic County,NJ,NA,NA,NA,16.704119850187265
08638,Mercer County,NJ,NA,NA,NA,65.61797752808988
08648,Mercer County,NJ,NA,NA,80.44103547459252,NA
08690,Mercer County,NJ,NA,NA,NA,45.54307116104869
08721,Ocean County,NJ,NA,NA,NA,55.35580524344569
08755,Ocean County,NJ,NA,NA,NA,7.191011235955057
08757,Ocean County,NJ,NA,NA,NA,0.299625468164794
08817,Middlesex County,NJ,NA,19.248291571753988,NA,NA
08820,Middlesex County,NJ,NA,83.37129840546697,NA,NA
08822,Hunterdon County,NJ,NA,NA,NA,42.77153558052434
08831,Middlesex County,NJ,NA,NA,NA,1.4981273408239701
08835,Somerset County,NJ,NA,NA,NA,83.74531835205993
08889,Hunterdon County,NJ,NA,NA,86.76893576222436,NA
08902,Middlesex County,NJ,NA,59.453302961275625,NA,89.66292134831461
87104,Bernalillo County,NM,NA,80.86560364464692,NA,NA
87105,Bernalillo County,NM,35.80786026200873,17.995444191343964,NA,NA
87108,Bernalillo County,NM,NA,NA,3.9309683604985617,NA
87109,Bernalillo County,NM,NA,14.464692482915718,NA,NA
87110,Bernalillo County,NM,NA,NA,56.08820709491851,NA
87111,Bernalillo County,NM,NA,3.3029612756264237,37.29626078619368,NA
87114,Bernalillo County,NM,NA,NA,11.697027804410356,22.54681647940075
87120,Bernalillo County,NM,NA,7.972665148063782,NA,NA
87123,Bernalillo County,NM,NA,NA,3.64333652924257,12.434456928838951
87124,Sandoval County,NM,NA,9.225512528473805,NA,NA
87301,McKinley County,NM,NA,NA,79.48226270373921,NA
87325,McKinley County,NM,NA,94.07744874715262,NA,NA
87401,San Juan County,NM,NA,NA,NA,66.44194756554307
87402,San Juan County,NM,NA,NA,82.07094918504313,NA
87417,San Juan County,NM,NA,NA,99.32885906040269,NA
87506,Santa Fe County,NM,NA,NA,NA,95.73033707865169
87507,Santa Fe County,NM,NA,28.5876993166287,NA,NA
87508,Santa Fe County,NM,NA,NA,NA,99.9250936329588
87701,San Miguel County,NM,NA,NA,93.38446788111217,NA
88001,Doa Ana County,NM,NA,NA,NA,44.49438202247191
88005,Doa Ana County,NM,NA,82.11845102505694,NA,NA
88021,Doa Ana County,NM,NA,NA,NA,91.23595505617978
88063,Doa Ana County,NM,NA,65.26195899772209,NA,NA
88203,Chaves County,NM,NA,16.62870159453303,NA,NA
88310,Otero County,NM,NA,20.615034168564918,NA,NA
10002,New York County,NY,NA,3.530751708428246,NA,1.2734082397003745
10003,New York County,NY,NA,NA,66.92233940556088,50.56179775280899
10010,New York County,NY,NA,93.84965831435079,NA,NA
10012,New York County,NY,NA,NA,96.74017257909875,NA
10018,New York County,NY,NA,NA,NA,89.51310861423221
10021,New York County,NY,NA,68.90660592255125,NA,NA
10022,New York County,NY,NA,NA,44.103547459252155,NA
10023,New York County,NY,NA,NA,94.24736337488015,21.647940074906366
10024,New York County,NY,NA,NA,86.28954937679771,69.06367041198503
10028,New York County,NY,NA,NA,NA,50.71161048689139
10030,New York County,NY,NA,50,NA,NA
10038,New York County,NY,NA,NA,34.899328859060404,NA
10314,Richmond County,NY,NA,36.44646924829157,NA,NA
10458,Bronx County,NY,NA,NA,0.09587727708533077,NA
10461,Bronx County,NY,NA,10.022779043280181,NA,NA
10462,Bronx County,NY,NA,NA,NA,52.20973782771535
10472,Bronx County,NY,NA,NA,NA,12.134831460674157
10473,Bronx County,NY,NA,NA,NA,6.51685393258427
10590,Westchester County,NY,NA,NA,NA,98.72659176029963
10703,Westchester County,NY,NA,NA,NA,50.0374531835206
10901,Rockland County,NY,94.32314410480349,NA,60.40268456375839,36.40449438202247
10927,Rockland County,NY,NA,84.85193621867882,NA,NA
10941,Orange County,NY,NA,71.5261958997722,NA,NA
10950,Orange County,NY,NA,NA,78.42761265580057,NA
10952,Rockland County,NY,NA,92.14123006833714,92.8092042186002,NA
10956,Rockland County,NY,87.77292576419214,NA,NA,57.078651685393254
10960,Rockland County,NY,NA,NA,94.15148609779482,NA
10970,Rockland County,NY,NA,NA,NA,99.8501872659176
10984,Rockland County,NY,NA,NA,NA,98.95131086142322
10989,Rockland County,NY,NA,NA,86.0019175455417,NA
11001,Nassau County,NY,NA,80.97949886104784,NA,NA
11207,Kings County,NY,NA,NA,NA,35.28089887640449
11209,Kings County,NY,NA,NA,NA,9.51310861423221
11213,Kings County,NY,NA,NA,25.21572387344199,NA
11218,Kings County,NY,NA,NA,NA,4.644194756554307
11220,Kings County,NY,NA,NA,2.876318312559923,NA
11223,Kings County,NY,NA,NA,NA,4.49438202247191
11225,Kings County,NY,NA,51.594533029612755,NA,NA
11226,Kings County,NY,NA,NA,1.821668264621285,NA
11230,Kings County,NY,NA,NA,7.1907957813998085,NA
11236,Kings County,NY,NA,NA,NA,5.543071161048689
11239,Kings County,NY,NA,NA,NA,28.46441947565543
11354,Queens County,NY,NA,NA,NA,18.202247191011235
11357,Queens County,NY,NA,NA,NA,28.539325842696627
11362,Queens County,NY,NA,95.44419134396355,NA,NA
11373,Queens County,NY,NA,NA,NA,16.179775280898877
11375,Queens County,NY,NA,73.57630979498862,NA,91.31086142322098
11378,Queens County,NY,63.31877729257642,NA,NA,NA
11385,Queens County,NY,NA,NA,8.533077660594438,NA
11412,Queens County,NY,NA,NA,40.55608820709492,NA
11418,Queens County,NY,NA,39.97722095671982,NA,NA
11434,Queens County,NY,NA,85.99088838268793,NA,NA
11542,Nassau County,NY,NA,NA,NA,30.861423220973784
11561,Nassau County,NY,NA,68.22323462414579,NA,71.83520599250937
11566,Nassau County,NY,NA,NA,NA,40.2247191011236
11706,Suffolk County,NY,NA,NA,28.379674017257912,NA
11727,Suffolk County,NY,NA,NA,NA,34.157303370786515
11757,Suffolk County,NY,NA,96.58314350797266,NA,NA
11779,Suffolk County,NY,NA,NA,NA,31.685393258426963
11782,Suffolk County,NY,NA,NA,NA,63.22097378277154
11787,Suffolk County,NY,NA,NA,NA,23.595505617977526
11788,Suffolk County,NY,NA,65.14806378132118,NA,NA
12010,Montgomery County,NY,11.353711790393014,NA,NA,NA
12054,Albany County,NY,NA,86.44646924829156,NA,NA
12306,Schenectady County,NY,NA,28.246013667425967,NA,NA
12533,Dutchess County,NY,NA,NA,NA,58.20224719101124
12538,Dutchess County,NY,NA,NA,53.49952061361457,NA
12561,Ulster County,NY,NA,89.06605922551253,NA,NA
12564,Dutchess County,NY,NA,NA,NA,74.6816479400749
12566,Ulster County,NY,NA,NA,NA,97.90262172284643
12603,Dutchess County,NY,NA,69.3621867881549,NA,NA
12804,Warren County,NY,NA,NA,NA,55.0561797752809
12831,Saratoga County,NY,NA,41.91343963553531,NA,NA
12834,Washington County,NY,79.47598253275109,NA,NA,NA
12871,Saratoga County,NY,NA,95.21640091116174,NA,NA
12901,Clinton County,NY,NA,30.296127562642365,NA,NA
12953,Franklin County,NY,NA,44.07744874715262,NA,NA
13021,Cayuga County,NY,NA,NA,1.1505273250239694,NA
13033,Cayuga County,NY,NA,97.38041002277905,NA,NA
13039,Onondaga County,NY,NA,NA,NA,79.5505617977528
13104,Onondaga County,NY,NA,NA,71.23681687440076,NA
13142,Oswego County,NY,NA,85.42141230068337,NA,NA
13210,Onondaga County,NY,NA,NA,64.33365292425695,NA
13214,Onondaga County,NY,NA,NA,96.45254074784276,NA
13219,Onondaga County,NY,56.76855895196506,NA,43.9117929050815,NA
13350,Herkimer County,NY,NA,30.182232346241456,NA,51.23595505617977
13407,Herkimer County,NY,NA,NA,83.41323106423778,NA
13760,Broome County,NY,NA,NA,NA,0.8239700374531835
13815,Chenango County,NY,NA,NA,10.450623202301054,NA
13820,Otsego County,NY,NA,50.11389521640092,NA,NA
13905,Broome County,NY,1.7467248908296942,NA,NA,NA
14004,Erie County,NY,NA,NA,NA,84.5692883895131
14043,Erie County,NY,NA,NA,NA,48.53932584269663
14048,Chautauqua County,NY,62.882096069869,NA,NA,NA
14052,Erie County,NY,NA,NA,NA,57.60299625468165
14057,Erie County,NY,NA,NA,NA,93.78277153558052
14072,Erie County,NY,NA,NA,30.105465004793864,NA
14086,Erie County,NY,NA,NA,15.436241610738255,NA
14213,Erie County,NY,NA,16.287015945330296,NA,78.72659176029963
14215,Erie County,NY,NA,1.2528473804100226,NA,NA
14216,Erie County,NY,NA,NA,NA,81.57303370786518
14221,Erie County,NY,NA,9.681093394077449,NA,NA
14223,Erie County,NY,NA,NA,65.67593480345158,NA
14227,Erie County,NY,NA,20.956719817767656,NA,NA
14425,Ontario County,NY,NA,NA,20.61361457334612,NA
14450,Monroe County,NY,0.43668122270742354,NA,NA,NA
14454,Livingston County,NY,NA,NA,76.12655800575263,NA
14512,Ontario County,NY,NA,NA,NA,93.03370786516854
14514,Monroe County,NY,NA,NA,NA,97.82771535580524
14607,Monroe County,NY,NA,15.603644646924831,NA,NA
14621,Monroe County,NY,NA,5.0113895216400905,NA,NA
14701,Chautauqua County,NY,NA,13.895216400911162,NA,NA
14810,Steuben County,NY,NA,NA,72.00383509108342,NA
14830,Steuben County,NY,NA,20.387243735763096,NA,NA
14843,Steuben County,NY,NA,NA,25.407478427612656,NA
14845,Chemung County,NY,20.52401746724891,NA,NA,NA
14850,Tompkins County,NY,NA,NA,25.69511025886865,23.146067415730336
27021,Stokes County,NC,NA,NA,NA,18.651685393258425
27041,Surry County,NC,NA,NA,65.00479386385427,NA
27045,Forsyth County,NC,84.71615720524017,NA,NA,NA
27103,Forsyth County,NC,NA,NA,NA,9.737827715355806
27105,Forsyth County,NC,2.6200873362445414,NA,NA,NA
27214,Guilford County,NC,71.61572052401746,NA,NA,NA
27217,Alamance County,NC,NA,68.79271070615034,NA,6.666666666666667
27244,Alamance County,NC,NA,82.6879271070615,NA,NA
27253,Alamance County,NC,NA,NA,13.231064237775648,NA
27265,Guilford County,NC,NA,NA,NA,17.97752808988764
27284,Forsyth County,NC,NA,NA,0.7670182166826461,NA
27295,Davidson County,NC,NA,NA,NA,14.232209737827715
27302,Alamance County,NC,NA,NA,9.77948226270374,NA
27344,Chatham County,NC,NA,NA,NA,74.6816479400749
27360,Davidson County,NC,NA,2.9612756264236904,3.0680728667305845,NA
27405,Guilford County,NC,NA,NA,NA,17.60299625468165
27410,Guilford County,NC,NA,NA,NA,5.168539325842696
27513,Wake County,NC,63.75545851528385,NA,NA,NA
27514,Orange County,NC,NA,NA,NA,65.0187265917603
27516,Orange County,NC,NA,NA,77.75647171620325,71.61048689138578
27517,Orange County,NC,NA,48.9749430523918,NA,NA
27518,Wake County,NC,NA,NA,87.72770853307766,NA
27524,Johnston County,NC,NA,NA,63.854266538830295,NA
27527,Johnston County,NC,NA,64.69248291571755,NA,NA
27536,Vance County,NC,NA,NA,NA,16.029962546816478
27546,Harnett County,NC,NA,81.32118451025056,NA,NA
27560,Wake County,NC,NA,NA,74.88015340364333,NA
27569,Johnston County,NC,83.4061135371179,NA,NA,NA
27583,Person County,NC,NA,84.16856492027335,NA,NA
27587,Wake County,NC,NA,66.62870159453303,NA,NA
27603,Wake County,NC,NA,NA,NA,38.27715355805243
27609,Wake County,NC,NA,NA,27.325023969319272,NA
27614,Wake County,NC,NA,62.1867881548975,30.77660594439118,NA
27703,Durham County,NC,NA,NA,8.341323106423777,NA
27704,Durham County,NC,NA,9.567198177676538,73.72962607861938,NA
27707,Durham County,NC,NA,NA,5.560882070949185,NA
27712,Durham County,NC,NA,NA,NA,31.38576779026217
27713,Durham County,NC,NA,20.842824601366743,NA,NA
27834,Pitt County,NC,NA,NA,NA,42.09737827715356
27886,Edgecombe County,NC,NA,NA,NA,72.05992509363296
27948,Dare County,NC,NA,NA,NA,86.21722846441948
28027,Cabarrus County,NC,NA,NA,NA,17.60299625468165
28031,Mecklenburg County,NC,NA,54.21412300683372,NA,NA
28036,Mecklenburg County,NC,NA,92.25512528473804,NA,NA
28040,Rutherford County,NC,86.8995633187773,NA,NA,NA
28056,Gaston County,NC,NA,NA,42.6653883029722,NA
28079,Union County,NC,NA,NA,NA,36.329588014981276
28125,Rowan County,NC,NA,NA,99.80824544582933,NA
28146,Rowan County,NC,NA,NA,NA,67.86516853932584
28150,Cleveland County,NC,NA,NA,NA,30.711610486891384
28205,Mecklenburg County,NC,NA,NA,NA,42.39700374531835
28206,Mecklenburg County,NC,NA,NA,NA,93.78277153558052
28207,Mecklenburg County,NC,NA,NA,NA,77.00374531835206
28208,Mecklenburg County,NC,NA,NA,19.55896452540748,NA
28211,Mecklenburg County,NC,NA,57.51708428246014,NA,NA
28213,Mecklenburg County,NC,NA,23.120728929384963,NA,NA
28215,Mecklenburg County,NC,10.043668122270741,NA,NA,NA
28227,Mecklenburg County,NC,NA,NA,13.135186960690318,21.79775280898876
28333,Wayne County,NC,NA,NA,NA,93.25842696629213
28337,Bladen County,NC,NA,NA,56.18408437200384,NA
28371,Robeson County,NC,NA,NA,NA,98.20224719101124
28409,New Hanover County,NC,NA,34.7380410022779,NA,NA
28412,New Hanover County,NC,NA,12.64236902050114,NA,58.80149812734082
28443,Pender County,NC,NA,78.92938496583145,NA,NA
28445,Onslow County,NC,NA,NA,NA,93.33333333333333
28463,Columbus County,NC,NA,NA,NA,85.46816479400749
28466,Duplin County,NC,NA,NA,67.5934803451582,NA
28501,Lenoir County,NC,NA,38.26879271070615,NA,NA
28504,Lenoir County,NC,NA,NA,93.48034515819751,NA
28540,Onslow County,NC,NA,22.779043280182233,NA,NA
28551,Lenoir County,NC,NA,NA,NA,77.75280898876404
28560,Craven County,NC,NA,NA,NA,76.02996254681648
28580,Greene County,NC,NA,NA,NA,68.01498127340824
28585,Jones County,NC,NA,98.9749430523918,NA,NA
28605,Watauga County,NC,NA,NA,92.61744966442953,NA
28645,Caldwell County,NC,NA,3.416856492027335,NA,1.5730337078651686
28655,Burke County,NC,NA,NA,2.588686481303931,NA
28657,Avery County,NC,NA,62.07289293849658,NA,NA
28659,Wilkes County,NC,NA,NA,NA,35.50561797752809
28673,Catawba County,NC,NA,87.01594533029613,NA,NA
28675,Alleghany County,NC,NA,NA,74.20901246404603,NA
28712,Transylvania County,NC,NA,NA,64.8130393096836,NA
28714,Yancey County,NC,NA,NA,38.350910834132314,NA
28715,Buncombe County,NC,NA,43.50797266514807,NA,NA
28716,Haywood County,NC,NA,NA,NA,38.42696629213483
28717,Jackson County,NC,NA,NA,80.15340364333653,NA
28719,Jackson County,NC,NA,40.888382687927106,NA,87.71535580524345
28721,Haywood County,NC,NA,NA,NA,96.55430711610487
28746,Rutherford County,NC,NA,NA,NA,97.97752808988764
28751,Haywood County,NC,NA,NA,NA,94.53183520599251
28754,Madison County,NC,NA,92.71070615034168,NA,93.18352059925094
28759,Henderson County,NC,NA,NA,NA,48.61423220973783
28778,Buncombe County,NC,NA,84.73804100227791,NA,NA
28782,Polk County,NC,NA,88.838268792710707,NA,NA
28787,Buncombe County,NC,NA,NA,NA,64.9438202247191
28792,Henderson County,NC,NA,26.993166287015946,NA,21.94756554307116
58072,Barnes County,ND,NA,NA,74.49664429530202,NA
58075,Richland County,ND,NA,81.6628701594533,NA,87.71535580524345
58078,Cass County,ND,NA,22.66514806378132,11.984659635666347,13.333333333333334
58103,Cass County,ND,NA,74.4874715261959,93.19271332694152,29.588014981273407
58104,Cass County,ND,NA,26.30979498861048,93.00095877277086,86.44194756554307
58201,Grand Forks County,ND,NA,NA,NA,1.8726591760299627
58401,Stutsman County,ND,NA,93.05239179954442,NA,NA
58503,Burleigh County,ND,NA,76.99316628701595,NA,53.558052434456926
58504,Burleigh County,ND,NA,NA,28.57142857142857,14.531835205992511
58554,Morton County,ND,NA,63.21184510250569,NA,NA
58601,Stark County,ND,NA,NA,NA,34.9063670411985
58701,Ward County,ND,NA,31.662870159453306,NA,NA
58703,Ward County,ND,NA,81.89066059225513,35.95397890699904,20.1498127340824
58801,Williams County,ND,NA,31.207289293849662,NA,NA
43004,Franklin County,OH,55.895196506550214,NA,NA,NA
43015,Delaware County,OH,NA,NA,NA,3.5955056179775284
43050,Knox County,OH,NA,NA,20.709491850431448,5.617977528089887
43054,Franklin County,OH,NA,NA,59.34803451581975,NA
43055,Licking County,OH,3.4934497816593884,NA,NA,41.49812734082397
43068,Franklin County,OH,NA,8.656036446469248,NA,NA
43076,Perry County,OH,NA,91.23006833712985,NA,NA
43123,Franklin County,OH,NA,NA,5.177372962607862,NA
43125,Franklin County,OH,25.327510917030565,NA,NA,NA
43130,Fairfield County,OH,NA,1.1389521640091116,1.725790987535954,NA
43138,Hocking County,OH,NA,NA,23.106423777564718,28.539325842696627
43140,Madison County,OH,NA,NA,NA,52.58426966292134
43204,Franklin County,OH,NA,NA,10.354745925215724,NA
43206,Franklin County,OH,NA,NA,NA,54.53183520599251
43213,Franklin County,OH,7.423580786026202,NA,NA,NA
43221,Franklin County,OH,NA,60.36446469248291,NA,NA
43227,Franklin County,OH,1.3100436681222707,NA,NA,NA
43228,Franklin County,OH,NA,2.733485193621868,NA,NA
43229,Franklin County,OH,0,NA,6.136145733461169,NA
43230,Franklin County,OH,6.986899563318777,NA,NA,NA
43232,Franklin County,OH,NA,NA,11.505273250239693,NA
43302,Marion County,OH,NA,1.8223234624145785,1.9175455417066156,NA
43357,Logan County,OH,99.56331877729258,NA,NA,NA
43402,Wood County,OH,NA,NA,11.792905081495686,NA
43512,Defiance County,OH,19.213973799126638,NA,3.1639501438159154,NA
43528,Lucas County,OH,NA,NA,37.679769894535,NA
43551,Wood County,OH,NA,11.503416856492027,NA,NA
43604,Lucas County,OH,NA,NA,47.74688398849472,NA
43614,Lucas County,OH,58.515283842794766,NA,NA,14.531835205992511
43623,Lucas County,OH,NA,NA,NA,63.07116104868914
43718,Belmont County,OH,NA,97.26651480637814,NA,NA
43756,Morgan County,OH,91.70305676855895,NA,NA,NA
43912,Belmont County,OH,NA,NA,44.48705656759348,NA
43938,Jefferson County,OH,NA,NA,NA,65.2434456928839
43950,Belmont County,OH,NA,NA,43.81591562799617,NA
44004,Ashtabula County,OH,NA,NA,NA,1.4232209737827715
44011,Lorain County,OH,NA,NA,80.82454458293384,NA
44023,Geauga County,OH,NA,NA,69.990412272291465,NA
44030,Ashtabula County,OH,NA,NA,11.601150527325025,NA
44035,Lorain County,OH,NA,71.18451025056947,1.342281879194631,NA
44044,Lorain County,OH,NA,43.052391799544424,NA,NA
44052,Lorain County,OH,NA,NA,NA,4.794007490636704
44060,Lake County,OH,NA,NA,NA,0.22471910112359553
44070,Cuyahoga County,OH,NA,NA,23.87344199424736,NA
44077,Lake County,OH,NA,NA,NA,19.625468164794007
44089,Erie County,OH,NA,NA,NA,7.640449438202247
44092,Lake County,OH,NA,NA,NA,7.415730337078652
44102,Cuyahoga County,OH,NA,NA,1.4381591562799616,NA
44103,Cuyahoga County,OH,NA,NA,59.34803451581975,NA
44105,Cuyahoga County,OH,NA,5.808656036446469,NA,NA
44106,Cuyahoga County,OH,NA,NA,NA,15.131086142322097
44108,Cuyahoga County,OH,NA,2.277904328018223,NA,NA
44109,Cuyahoga County,OH,NA,NA,NA,24.344569288389515
44110,Cuyahoga County,OH,NA,30.52391799544419,NA,NA
44112,Cuyahoga County,OH,10.91703056768559,NA,NA,NA
44113,Cuyahoga County,OH,NA,NA,88.01534036433365,NA
44116,Cuyahoga County,OH,NA,34.51025056947608,NA,25.39325842696629
44117,Cuyahoga County,OH,86.46288209606988,NA,NA,NA
44120,Cuyahoga County,OH,NA,NA,NA,84.19475655430712
44124,Cuyahoga County,OH,NA,NA,NA,0.37453183520599254
44126,Cuyahoga County,OH,NA,NA,NA,31.46067415730337
44128,Cuyahoga County,OH,NA,13.55353075170843,12.655800575263662,NA
44130,Cuyahoga County,OH,NA,NA,0.38350910834132307,5.2434456928838955
44131,Cuyahoga County,OH,NA,NA,14.285714285714285,NA
44133,Cuyahoga County,OH,NA,NA,NA,80.29962546816479
44135,Cuyahoga County,OH,NA,2.3917995444191344,5.465004793863854,NA
44136,Cuyahoga County,OH,NA,24.25968109339408,NA,10.936329588014981
44137,Cuyahoga County,OH,NA,NA,NA,22.02247191011236
44138,Cuyahoga County,OH,NA,76.30979498861048,NA,NA
44140,Cuyahoga County,OH,NA,NA,23.87344199424736,NA
44143,Cuyahoga County,OH,NA,NA,NA,1.647940074906367
44144,Cuyahoga County,OH,NA,NA,NA,37.22846441947566
44145,Cuyahoga County,OH,NA,NA,2.972195589645254,3.146067415730337
44146,Cuyahoga County,OH,NA,42.59681093394077,0.9587727708533078,4.569288389513108
44149,Cuyahoga County,OH,66.8122270742358,37.81321184510251,NA,41.19850187265918
44201,Portage County,OH,NA,88.49658314350796,NA,NA
44202,Portage County,OH,NA,NA,NA,6.367041198501873
44221,Summit County,OH,NA,12.300683371298406,NA,NA
44260,Portage County,OH,NA,NA,NA,79.70037453183521
44278,Summit County,OH,NA,NA,NA,39.47565543071161
44310,Summit County,OH,NA,NA,17.16203259827421,NA
44406,Mahoning County,OH,NA,NA,NA,54.45692883895131
44408,Columbiana County,OH,NA,NA,63.08724832214765,NA
44432,Columbiana County,OH,NA,NA,66.0594439117929,72.95880149812734
44460,Columbiana County,OH,NA,18.45102505694761,31.831255992329815,NA
44505,Mahoning County,OH,NA,NA,31.1601150527325,NA
44511,Mahoning County,OH,NA,20.045558086560362,NA,NA
44512,Mahoning County,OH,NA,NA,40.651965484180245,NA
44601,Stark County,OH,NA,NA,6.0402684563758395,NA
44641,Stark County,OH,NA,NA,NA,59.7752808988764
44644,Carroll County,OH,90.82969432314411,NA,NA,NA
44646,Stark County,OH,NA,8.086560364464694,NA,NA
44705,Stark County,OH,NA,21.867881548974943,NA,NA
44706,Stark County,OH,NA,NA,NA,77.97752808988764
44709,Stark County,OH,NA,35.193621867881546,NA,NA
44720,Stark County,OH,NA,NA,15.532118887823588,10.711610486891386
44805,Ashland County,OH,NA,NA,3.451581975071908,NA
44857,Huron County,OH,18.340611353711793,NA,NA,NA
44906,Richland County,OH,NA,NA,NA,75.0561797752809
45011,Butler County,OH,NA,12.756264236902052,NA,NA
45013,Butler County,OH,NA,2.619589977220957,NA,NA
45036,Warren County,OH,NA,17.88154897494305,NA,NA
45039,Warren County,OH,NA,NA,NA,92.80898876404494
45069,Butler County,OH,NA,NA,14.189837008628956,10.786516853932584
45102,Clermont County,OH,NA,NA,53.97890699904123,NA
45150,Clermont County,OH,NA,63.32574031890661,24.065196548418026,30.41198501872659
45202,Hamilton County,OH,31.877729257641924,NA,60.306807286673056,NA
45211,Hamilton County,OH,NA,61.731207289293856,NA,NA
45214,Hamilton County,OH,NA,84.39635535307517,NA,NA
45224,Hamilton County,OH,NA,18.79271070615034,NA,NA
45229,Hamilton County,OH,NA,NA,25.503355704697988,NA
45231,Hamilton County,OH,NA,27.220956719817767,NA,NA
45236,Hamilton County,OH,NA,47.26651480637813,39.02205177372963,57.22846441947566
45237,Hamilton County,OH,NA,95.33029612756265,NA,NA
45241,Hamilton County,OH,75.9825327510917,NA,NA,NA
45246,Hamilton County,OH,NA,NA,84.18024928092042,NA
45248,Hamilton County,OH,NA,77.5626423690205,NA,18.202247191011235
45320,Preble County,OH,NA,NA,NA,68.61423220973782
45356,Miami County,OH,NA,NA,37.77564717162033,NA
45371,Miami County,OH,NA,NA,15.915627996164908,NA
45387,Greene County,OH,NA,NA,64.62128475551295,NA
45405,Montgomery County,OH,NA,NA,39.11792905081496,NA
45420,Montgomery County,OH,NA,NA,NA,37.67790262172285
45432,Greene County,OH,NA,NA,NA,84.7940074906367
45458,Montgomery County,OH,NA,79.84054669703873,NA,NA
45505,Clark County,OH,NA,NA,51.3902205177373,NA
45601,Ross County,OH,NA,0.3416856492027335,NA,0
45614,Gallia County,OH,NA,NA,95.9731543624161,NA
45631,Gallia County,OH,NA,64.00911161731207,NA,48.764044943820224
45680,Lawrence County,OH,NA,NA,NA,67.19101123595506
45690,Pike County,OH,NA,14.009111617312072,NA,NA
45750,Washington County,OH,NA,NA,39.309683604985615,12.059925093632959
45764,Athens County,OH,NA,NA,87.05656759348035,NA
45833,Allen County,OH,NA,NA,59.34803451581975,NA
45840,Hancock County,OH,NA,13.325740318906606,NA,NA
73055,Stephens County,OK,NA,NA,66.15532118887823,NA
73080,McClain County,OK,NA,NA,94.34324065196549,97.75280898876404
73132,Oklahoma County,OK,NA,NA,NA,32.43445692883895
73135,Oklahoma County,OK,NA,37.47152619589977,NA,NA
73151,Oklahoma County,OK,NA,98.86104783599089,NA,NA
73160,Cleveland County,OK,NA,10.364464692482915,NA,NA
73162,Oklahoma County,OK,NA,NA,47.555129434324066,NA
73505,Comanche County,OK,NA,NA,NA,21.273408239700377
73533,Stephens County,OK,NA,NA,NA,79.1760299625468
73701,Garfield County,OK,NA,NA,27.037392138063275,NA
73703,Garfield County,OK,NA,NA,13.61457334611697,36.47940074906367
74006,Washington County,OK,NA,NA,NA,25.0936329588015
74012,Tulsa County,OK,13.973799126637553,NA,NA,NA
74014,Wagoner County,OK,NA,31.435079726651484,NA,NA
74063,Tulsa County,OK,41.48471615720524,NA,NA,NA
74066,Creek County,OK,NA,NA,30.968360498561843,NA
74106,Tulsa County,OK,NA,NA,67.40172579098753,NA
74110,Tulsa County,OK,NA,NA,72.19558964525407,NA
74133,Tulsa County,OK,NA,58.31435079726651,51.86960690316395,NA
74135,Tulsa County,OK,NA,NA,NA,30.48689138576779
74136,Tulsa County,OK,NA,NA,NA,23.071161048689138
74301,Craig County,OK,NA,81.20728929384966,NA,NA
74361,Mayes County,OK,NA,NA,90.60402684563759,NA
74401,Muskogee County,OK,41.92139737991266,NA,NA,NA
74434,Muskogee County,OK,NA,NA,NA,90.71161048689137
74447,Okmulgee County,OK,NA,NA,59.06040268456376,NA
74523,Pushmataha County,OK,NA,NA,NA,99.25093632958801
74954,Sequoyah County,OK,NA,NA,99.13710450623202,NA
97005,Washington County,OR,NA,NA,NA,71.23595505617978
97006,Washington County,OR,NA,NA,NA,32.58426966292135
97008,Washington County,OR,NA,NA,48.13039309683605,NA
97015,Clackamas County,OR,NA,47.9498861047836,NA,NA
97016,Columbia County,OR,NA,NA,NA,89.13857677902621
97038,Clackamas County,OR,NA,NA,NA,61.94756554307116
97060,Multnomah County,OR,NA,NA,39.50143815915628,NA
97068,Clackamas County,OR,NA,NA,NA,81.12359550561797
97070,Clackamas County,OR,NA,NA,NA,27.640449438202246
97086,Clackamas County,OR,NA,48.51936218678816,62.032598274209015,44.71910112359551
97103,Clatsop County,OR,NA,NA,NA,16.329588014981272
97116,Washington County,OR,NA,NA,45.06232023010546,NA
97123,Washington County,OR,NA,18.109339407744876,NA,NA
97132,Yamhill County,OR,NA,NA,NA,25.99250936329588
97202,Multnomah County,OR,96.94323144104804,89.52164009111617,NA,NA
97203,Multnomah County,OR,NA,NA,81.68744007670182,NA
97205,Multnomah County,OR,NA,NA,NA,99.625468164794
97210,Multnomah County,OR,NA,89.17995444191345,NA,97.52808988764045
97215,Multnomah County,OR,NA,NA,NA,70.33707865168539
97216,Multnomah County,OR,71.17903930131004,NA,83.60498561840843,NA
97218,Multnomah County,OR,NA,NA,NA,91.83520599250936
97220,Multnomah County,OR,NA,NA,24.64046021093001,NA
97224,Washington County,OR,NA,46.69703872437358,30.105465004793864,NA
97225,Washington County,OR,NA,NA,NA,46.59176029962547
97229,Washington County,OR,8.73362445414847,NA,NA,NA
97230,Multnomah County,OR,NA,NA,NA,11.161048689138577
97236,Multnomah County,OR,NA,16.970387243735765,NA,NA
97239,Multnomah County,OR,NA,NA,NA,95.95505617977528
97266,Multnomah County,OR,NA,NA,27.516778523489933,NA
97267,Clackamas County,OR,NA,NA,33.077660594439116,15.655430711610489
97302,Marion County,OR,NA,NA,NA,58.876404494382015
97322,Linn County,OR,NA,NA,10.162991371045061,NA
97330,Benton County,OR,NA,NA,NA,16.479400749063668
97333,Benton County,OR,NA,61.84510250569476,NA,NA
97338,Polk County,OR,40.174672489082965,NA,NA,81.12359550561797
97352,Marion County,OR,NA,NA,87.823585810163,NA
97365,Lincoln County,OR,NA,NA,NA,78.42696629213484
97420,Coos County,OR,96.50655021834062,NA,NA,NA
97471,Douglas County,OR,NA,43.394077448747154,NA,NA
97478,Lane County,OR,NA,NA,NA,43.07116104868914
97501,Jackson County,OR,NA,7.289293849658314,NA,24.269662921348313
97530,Jackson County,OR,NA,NA,99.04122722914668,NA
97603,Klamath County,OR,NA,16.856492027334852,NA,19.40074906367041
97703,Deschutes County,OR,NA,78.35990888382688,NA,NA
15003,Beaver County,PA,NA,NA,92.90508149568552,88.23970037453184
15005,Beaver County,PA,NA,81.43507972665148,NA,NA
15009,Beaver County,PA,NA,NA,NA,28.539325842696627
15012,Westmoreland County,PA,NA,NA,45.733461169702785,30.861423220973784
15022,Washington County,PA,NA,77.67653758542141,NA,NA
15037,Allegheny County,PA,NA,NA,NA,61.87265917602996
15042,Beaver County,PA,NA,80.5239179954442,NA,NA
15044,Allegheny County,PA,NA,NA,48.6097794822627,NA
15068,Westmoreland County,PA,NA,NA,NA,3.0711610486891385
15071,Allegheny County,PA,NA,NA,90.22051773729626,50.78651685393258
15074,Beaver County,PA,NA,58.428246013667426,NA,NA
15085,Westmoreland County,PA,NA,NA,NA,78.50187265917603
15090,Allegheny County,PA,NA,NA,87.24832214765101,NA
15102,Allegheny County,PA,NA,NA,22.24352828379674,NA
15122,Allegheny County,PA,NA,NA,51.006711409395976,14.831460674157304
15126,Allegheny County,PA,NA,NA,90.89165867689357,NA
15132,Allegheny County,PA,NA,NA,19.271332694151486,NA
15146,Allegheny County,PA,NA,42.25512528473804,NA,NA
15201,Allegheny County,PA,NA,NA,NA,90.187265917603
15206,Allegheny County,PA,NA,NA,16.586768935762226,66.89138576779025
15210,Allegheny County,PA,NA,NA,35.378715244487054,NA
15212,Allegheny County,PA,NA,NA,NA,30.262172284644194
15213,Allegheny County,PA,NA,NA,65.48418024928093,66.06741573033707
15215,Allegheny County,PA,NA,NA,NA,56.254681647940075
15216,Allegheny County,PA,NA,NA,NA,46.36704119850187
15221,Allegheny County,PA,NA,NA,NA,78.80149812734082
15223,Allegheny County,PA,NA,NA,77.18120805369128,NA
15224,Allegheny County,PA,NA,NA,NA,77.52808988764045
15227,Allegheny County,PA,NA,NA,52.63662511984659,NA
15229,Allegheny County,PA,NA,NA,NA,48.08988764044943
15235,Allegheny County,PA,NA,NA,NA,6.292134831460674
15239,Allegheny County,PA,NA,NA,NA,39.40074906367041
15301,Washington County,PA,NA,6.0364464692482915,NA,NA
15317,Washington County,PA,NA,NA,NA,11.385767790262172
15425,Fayette County,PA,NA,NA,18.40843720038351,81.64794007490637
15601,Westmoreland County,PA,NA,NA,26.174496644295303,NA
15642,Westmoreland County,PA,NA,NA,4.314477468839885,NA
15658,Westmoreland County,PA,NA,72.77904328018224,NA,NA
15666,Westmoreland County,PA,NA,NA,NA,9.138576779026216
15668,Westmoreland County,PA,NA,NA,54.266538830297215,NA
15701,Indiana County,PA,NA,NA,NA,10.636704119850188
15714,Cambria County,PA,NA,75.85421412300684,93.95973154362416,NA
15717,Indiana County,PA,NA,NA,36.4333652924257,NA
15801,Clearfield County,PA,NA,NA,NA,2.7715355805243447
15851,Jefferson County,PA,NA,NA,NA,22.771535580524343
15904,Cambria County,PA,NA,NA,NA,51.91011235955057
16046,Butler County,PA,NA,NA,NA,48.38951310861424
16066,Butler County,PA,NA,NA,33.36529242569511,NA
16101,Lawrence County,PA,NA,5.694760820045558,NA,NA
16105,Lawrence County,PA,NA,NA,24.256951102588687,NA
16117,Lawrence County,PA,NA,NA,NA,21.123595505617978
16125,Mercer County,PA,NA,NA,NA,7.490636704119851
16201,Armstrong County,PA,NA,NA,NA,64.41947565543072
16214,Clarion County,PA,NA,70.61503416856492,NA,NA
16301,Venango County,PA,NA,42.8246013667426,NA,NA
16314,Crawford County,PA,NA,NA,NA,94.23220973782772
16335,Crawford County,PA,NA,NA,NA,50.337078651685395
16428,Erie County,PA,NA,NA,NA,85.54307116104869
16509,Erie County,PA,NA,NA,27.4209012464046,20
16510,Erie County,PA,NA,33.82687927107062,36.720997123681684,NA
16635,Blair County,PA,NA,NA,84.37200383509108,86.89138576779027
16652,Huntingdon County,PA,NA,NA,NA,15.580524344569287
16735,McKean County,PA,NA,NA,NA,50.63670411985019
16801,Centre County,PA,NA,80.29612756264237,NA,9.213483146067416
16803,Centre County,PA,NA,NA,NA,35.056179775280896
16823,Centre County,PA,NA,NA,NA,49.58801498127341
16828,Centre County,PA,NA,85.87699316628702,NA,NA
16830,Clearfield County,PA,NA,NA,59.25215723873441,NA
16915,Potter County,PA,NA,NA,84.0843720038351,96.17977528089887
17011,Cumberland County,PA,NA,NA,15.244487056567593,NA
17033,Dauphin County,PA,26.637554585152838,NA,NA,NA
17042,Lebanon County,PA,NA,NA,47.26749760306807,NA
17050,Cumberland County,PA,NA,NA,NA,51.53558052434457
17055,Cumberland County,PA,NA,NA,NA,5.992509363295881
17057,Dauphin County,PA,NA,NA,NA,37.52808988764045
17078,Lebanon County,PA,NA,NA,NA,26.14232209737828
17222,Franklin County,PA,NA,NA,NA,30.63670411985019
17225,Franklin County,PA,NA,NA,NA,47.940074906367045
17315,York County,PA,NA,24.25968109339408,NA,NA
17331,York County,PA,NA,43.735763097949885,0.4793863854266539,NA
17350,Adams County,PA,NA,NA,NA,24.868913857677903
17361,York County,PA,99.12663755458514,NA,NA,NA
17402,York County,PA,NA,NA,NA,3.295880149812734
17404,York County,PA,NA,NA,40.74784276126558,75.58052434456928
17603,Lancaster County,PA,NA,NA,NA,30.56179775280899
17756,Lycoming County,PA,NA,NA,NA,74.00749063670412
17821,Montour County,PA,NA,53.41685649202733,NA,NA
17837,Union County,PA,NA,NA,67.97698945349953,NA
17844,Union County,PA,NA,67.3120728929385,NA,NA
17857,Northumberland County,PA,NA,NA,44.29530201342282,NA
17870,Snyder County,PA,NA,42.48291571753987,NA,NA
17972,Schuylkill County,PA,NA,56.37813211845103,NA,NA
18015,Northampton County,PA,NA,7.175398633257403,NA,NA
18031,Lehigh County,PA,NA,90.20501138952164,NA,NA
18032,Lehigh County,PA,NA,NA,NA,66.29213483146067
18036,Lehigh County,PA,NA,62.52847380410023,NA,NA
18040,Northampton County,PA,NA,NA,NA,69.812734082397
18045,Northampton County,PA,NA,NA,NA,7.116104868913857
18049,Lehigh County,PA,NA,38.15489749430524,NA,NA
18052,Lehigh County,PA,NA,16.514806378132118,NA,NA
18103,Lehigh County,PA,NA,NA,NA,7.2659176029962556
18104,Lehigh County,PA,NA,38.95216400911162,NA,NA
18202,Luzerne County,PA,NA,NA,NA,41.79775280898876
18252,Schuylkill County,PA,NA,50.56947608200456,NA,NA
18324,Pike County,PA,NA,68.67881548974944,NA,NA
18360,Monroe County,PA,NA,24.601366742596813,NA,NA
18436,Wayne County,PA,NA,NA,58.48513902205177,NA
18504,Lackawanna County,PA,NA,NA,37.10450623202301,NA
18505,Lackawanna County,PA,NA,NA,30.488974113135185,43.89513108614232
18612,Luzerne County,PA,NA,NA,NA,27.56554307116105
18643,Luzerne County,PA,NA,49.202733485193626,NA,98.57677902621724
18702,Luzerne County,PA,NA,NA,NA,4.943820224719101
18704,Luzerne County,PA,NA,NA,NA,6.217228464419476
18706,Luzerne County,PA,NA,NA,NA,65.1685393258427
18951,Bucks County,PA,NA,16.40091116173121,13.7104506232023,NA
18966,Bucks County,PA,NA,NA,8.437200383509108,NA
18974,Bucks County,PA,NA,NA,8.820709491850431,NA
18976,Bucks County,PA,NA,NA,NA,34.531835205992515
19013,Delaware County,PA,NA,NA,98.46596356663471,NA
19034,Montgomery County,PA,NA,NA,98.7535953978907,NA
19046,Montgomery County,PA,NA,NA,80.24928092042187,NA
19053,Bucks County,PA,NA,NA,62.70373921380633,39.7752808988764
19061,Delaware County,PA,NA,NA,NA,47.49063670411985
19078,Delaware County,PA,NA,NA,NA,72.88389513108613
19086,Delaware County,PA,NA,NA,NA,66.14232209737828
19094,Delaware County,PA,NA,NA,NA,94.7565543071161
19104,Philadelphia County,PA,NA,8.997722095671982,NA,NA
19107,Philadelphia County,PA,NA,39.63553530751708,42.377756471716204,NA
19115,Philadelphia County,PA,NA,15.717539863325742,NA,NA
19116,Philadelphia County,PA,NA,NA,73.44199424736337,NA
19120,Philadelphia County,PA,NA,NA,4.6021093000958775,NA
19124,Philadelphia County,PA,NA,0.5694760820045558,NA,NA
19130,Philadelphia County,PA,NA,NA,29.338446788111217,NA
19136,Philadelphia County,PA,NA,NA,21.668264621284756,NA
19140,Philadelphia County,PA,NA,NA,6.423777564717162,NA
19143,Philadelphia County,PA,NA,NA,NA,6.891385767790262
19146,Philadelphia County,PA,NA,NA,NA,45.243445692883896
19148,Philadelphia County,PA,NA,NA,NA,11.310861423220974
19150,Philadelphia County,PA,NA,NA,19.079578139980825,NA
19154,Philadelphia County,PA,NA,NA,NA,24.49438202247191
19343,Chester County,PA,NA,94.98861047835992,NA,NA
19348,Chester County,PA,NA,NA,39.88494726749761,NA
19352,Chester County,PA,NA,NA,96.93192713326941,NA
19382,Chester County,PA,NA,NA,NA,68.16479400749064
19401,Montgomery County,PA,NA,7.517084282460136,NA,NA
19422,Montgomery County,PA,NA,45.78587699316628,64.8130393096836,NA
19475,Chester County,PA,NA,NA,NA,95.65543071161049
19526,Berks County,PA,NA,64.80637813211845,NA,NA
19601,Berks County,PA,NA,NA,10.834132310642378,NA
19602,Berks County,PA,NA,NA,24.256951102588687,88.53932584269663
19605,Berks County,PA,59.82532751091703,NA,NA,NA
19608,Berks County,PA,NA,25.17084282460137,NA,NA
19611,Berks County,PA,NA,72.89293849658314,NA,99.7752808988764
02809,Bristol County,RI,NA,NA,26.94151486097795,NA
02818,Kent County,RI,NA,NA,37.00862895493768,NA
02840,Newport County,RI,NA,37.24373576309795,NA,47.340823970037455
02860,Providence County,RI,NA,6.492027334851937,NA,NA
02864,Providence County,RI,NA,NA,46.02109300095877,NA
02888,Kent County,RI,95.19650655021834,NA,NA,NA
02893,Kent County,RI,NA,NA,NA,31.760299625468164
02895,Providence County,RI,NA,NA,NA,22.322097378277153
02905,Providence County,RI,NA,NA,36.52924256951103,NA
02908,Providence County,RI,NA,NA,31.255992329817833,NA
02917,Providence County,RI,89.08296943231441,NA,NA,NA
02920,Providence County,RI,68.12227074235808,NA,NA,NA
29172,Lexington County,SC,NA,NA,NA,94.45692883895131
29205,Richland County,SC,NA,NA,74.11313518696069,NA
29210,Richland County,SC,NA,NA,47.3633748801534,NA
29223,Richland County,SC,NA,NA,NA,10.112359550561797
29302,Spartanburg County,SC,NA,NA,NA,58.651685393258425
29323,Spartanburg County,SC,NA,NA,43.528283796740176,NA
29330,Spartanburg County,SC,NA,NA,76.41418983700862,NA
29372,Spartanburg County,SC,NA,NA,NA,93.55805243445693
29403,Charleston County,SC,NA,NA,58.67689357622243,NA
29405,Charleston County,SC,NA,NA,33.84467881112177,NA
29410,Berkeley County,SC,NA,NA,65.96356663470758,NA
29412,Charleston County,SC,NA,NA,16.2032598274209,9.288389513108614
29445,Berkeley County,SC,NA,NA,20.517737296260783,35.355805243445694
29461,Berkeley County,SC,NA,NA,62.22435282837967,NA
29483,Dorchester County,SC,NA,NA,NA,47.71535580524345
29506,Florence County,SC,NA,39.749430523917994,NA,NA
29520,Chesterfield County,SC,NA,88.95216400911163,NA,NA
29579,Horry County,SC,NA,77.22095671981776,NA,NA
29582,Horry County,SC,NA,89.97722095671982,NA,NA
29601,Greenville County,SC,NA,NA,73.8255033557047,NA
29605,Greenville County,SC,NA,NA,10.06711409395973,NA
29607,Greenville County,SC,NA,NA,20.99712368168744,NA
29611,Greenville County,SC,NA,11.047835990888382,NA,NA
29621,Anderson County,SC,NA,63.667425968109335,NA,NA
29625,Anderson County,SC,NA,NA,NA,74.8314606741573
29651,Greenville County,SC,NA,18.678815489749432,NA,NA
29654,Anderson County,SC,NA,65.60364464692483,NA,NA
29676,Oconee County,SC,NA,NA,69.12751677852349,NA
29680,Greenville County,SC,NA,NA,NA,60.2996254681648
29681,Greenville County,SC,NA,NA,11.792905081495686,NA
29687,Greenville County,SC,62.44541484716157,NA,NA,NA
29690,Greenville County,SC,NA,NA,30.393096836049853,42.247191011235955
29706,Chester County,SC,NA,NA,NA,60.37453183520599
29720,Lancaster County,SC,NA,NA,22.435282837967403,NA
29801,Aiken County,SC,NA,NA,NA,40.149812734082396
29817,Barnwell County,SC,NA,NA,99.61649089165869,NA
29832,Edgefield County,SC,NA,97.03872437357631,NA,NA
57033,Minnehaha County,SD,NA,98.63325740318906,NA,NA
57103,Minnehaha County,SD,NA,NA,NA,27.415730337078653
57104,Minnehaha County,SD,NA,NA,4.697986577181208,NA
57106,Minnehaha County,SD,NA,NA,NA,3.3707865168539324
57108,Lincoln County,SD,NA,NA,NA,5.318352059925094
57110,Minnehaha County,SD,NA,NA,81.78331735378715,NA
57350,Beadle County,SD,NA,NA,NA,69.28838951310861
57401,Brown County,SD,NA,14.69248291571754,NA,1.198501872659176
57701,Pennington County,SD,NA,NA,89.35762224352828,34.38202247191011
57702,Pennington County,SD,55.45851528384279,53.64464692482915,47.45925215723874,NA
57730,Custer County,SD,NA,NA,72.77085330776606,NA
57752,Shannon County,SD,NA,NA,99.712368168744,NA
37042,Montgomery County,TN,NA,NA,NA,47.79026217228464
37043,Montgomery County,TN,NA,NA,NA,35.580524344569284
37061,Houston County,TN,NA,NA,NA,92.05992509363296
37066,Sumner County,TN,NA,8.88382687927107,NA,NA
37072,Davidson County,TN,NA,NA,21.572387344199427,NA
37075,Sumner County,TN,NA,NA,27.804410354745922,NA
37076,Davidson County,TN,NA,NA,NA,33.78277153558052
37091,Marshall County,TN,NA,33.94077448747153,NA,NA
37101,Humphreys County,TN,NA,NA,85.13902205177372,NA
37115,Davidson County,TN,NA,35.079726651480634,NA,NA
37122,Wilson County,TN,NA,NA,20.038350910834133,NA
37148,Sumner County,TN,NA,NA,NA,55.28089887640449
37172,Robertson County,TN,NA,NA,NA,49.812734082397
37174,Williamson County,TN,NA,NA,32.21476510067114,NA
37208,Davidson County,TN,NA,NA,NA,87.26591760299625
37218,Davidson County,TN,NA,NA,NA,62.546816479400746
37327,Sequatchie County,TN,NA,67.99544419134396,NA,NA
37601,Washington County,TN,NA,13.439635535307518,NA,NA
37743,Greene County,TN,NA,10.364464692482915,NA,NA
37745,Greene County,TN,NA,NA,18.120805369127517,NA
37763,Roane County,TN,NA,NA,NA,49.51310861423221
37803,Blount County,TN,NA,NA,NA,12.808988764044942
37811,Hawkins County,TN,NA,NA,NA,100
37814,Hamblen County,TN,NA,NA,21.188878235858102,26.96629213483146
37821,Cocke County,TN,NA,NA,23.48993288590604,NA
37849,Knox County,TN,NA,NA,NA,39.7752808988764
37857,Hawkins County,TN,NA,NA,33.84467881112177,32.20973782771536
37865,Sevier County,TN,NA,NA,NA,30.112359550561795
37874,Monroe County,TN,NA,NA,45.82933844678811,NA
37876,Sevier County,TN,NA,NA,NA,31.011235955056183
37909,Knox County,TN,NA,NA,NA,67.56554307116104
37919,Knox County,TN,NA,77.44874715261959,NA,NA
37920,Knox County,TN,NA,NA,NA,63.670411985018724
37923,Knox County,TN,NA,46.46924829157175,34.22818791946309,NA
37931,Knox County,TN,NA,NA,NA,51.01123595505618
38002,Shelby County,TN,NA,NA,60.97794822627037,NA
38008,Hardeman County,TN,NA,NA,NA,69.21348314606742
38104,Shelby County,TN,NA,NA,NA,70.71161048689139
38106,Shelby County,TN,NA,NA,34.61169702780441,NA
38261,Obion County,TN,NA,33.37129840546697,NA,NA
38401,Maury County,TN,NA,6.378132118451026,NA,NA
38485,Wayne County,TN,NA,96.24145785876993,NA,NA
38549,Pickett County,TN,NA,NA,97.79482262703739,NA
38556,Fentress County,TN,NA,NA,33.84467881112177,83.82022471910112
38583,White County,TN,NA,22.55125284738041,NA,NA
75020,Grayson County,TX,NA,NA,NA,36.554307116104866
75023,Collin County,TX,NA,NA,64.04602109300096,NA
75028,Denton County,TX,NA,NA,NA,68.83895131086142
75041,Dallas County,TX,NA,NA,NA,52.28464419475656
75052,Dallas County,TX,NA,14.350797266514807,NA,23.820224719101123
75071,Collin County,TX,NA,NA,60.88207094918504,NA
75075,Collin County,TX,NA,NA,27.900287631831254,41.72284644194757
75077,Denton County,TX,NA,NA,NA,70.6367041198502
75080,Dallas County,TX,NA,NA,36.81687440076702,NA
75092,Grayson County,TX,NA,NA,NA,46.29213483146067
75098,Collin County,TX,19.65065502183406,NA,NA,NA
75110,Navarro County,TX,NA,NA,NA,35.655430711610485
75119,Ellis County,TX,NA,NA,NA,60.37453183520599
75126,Kaufman County,TX,33.18777292576419,NA,NA,NA
75189,Rockwall County,TX,NA,NA,NA,76.70411985018727
75206,Dallas County,TX,NA,NA,NA,55.50561797752809
75211,Dallas County,TX,NA,15.831435079726653,NA,36.10486891385768
75214,Dallas County,TX,NA,38.83826879271071,79.76989453499522,84.49438202247191
75224,Dallas County,TX,NA,NA,NA,44.569288389513105
75225,Dallas County,TX,NA,NA,77.2770853307766,NA
75228,Dallas County,TX,NA,NA,NA,55.955056179775276
75229,Dallas County,TX,NA,NA,96.5484180249281,NA
75232,Dallas County,TX,NA,NA,36.145733461169705,NA
75237,Dallas County,TX,NA,39.29384965831435,NA,NA
75243,Dallas County,TX,NA,12.072892938496583,NA,NA
75244,Dallas County,TX,NA,85.53530751708428,NA,NA
75248,Dallas County,TX,NA,NA,90.12464046021093,NA
75402,Hunt County,TX,NA,NA,NA,70.4119850187266
75423,Hunt County,TX,NA,99.88610478359908,NA,NA
75426,Red River County,TX,NA,NA,92.5215723873442,NA
75602,Gregg County,TX,21.397379912663755,53.18906605922551,NA,NA
75645,Upshur County,TX,NA,76.19589977220956,NA,NA
75758,Henderson County,TX,NA,NA,69.60690316395014,NA
75762,Smith County,TX,NA,NA,NA,77.67790262172285
75773,Wood County,TX,NA,NA,NA,9.51310861423221
75789,Smith County,TX,NA,NA,82.64621284755513,NA
75862,Trinity County,TX,NA,NA,NA,82.99625468164794
75979,Tyler County,TX,NA,NA,NA,62.47191011235955
76006,Tarrant County,TX,NA,NA,NA,79.70037453183521
76009,Johnson County,TX,NA,56.83371298405467,NA,NA
76014,Tarrant County,TX,NA,74.03189066059225,NA,NA
76015,Tarrant County,TX,NA,NA,NA,94.30711610486891
76017,Tarrant County,TX,NA,NA,NA,29.363295880149813
76018,Tarrant County,TX,NA,52.73348519362187,NA,NA
76036,Tarrant County,TX,NA,NA,NA,49.812734082397
76040,Tarrant County,TX,NA,89.29384965831434,NA,NA
76048,Hood County,TX,NA,38.26879271070615,NA,NA
76051,Tarrant County,TX,NA,NA,NA,61.04868913857678
76082,Parker County,TX,NA,NA,NA,82.39700374531836
76085,Parker County,TX,NA,83.7129840546697,NA,NA
76087,Parker County,TX,NA,NA,NA,56.853932584269664
76103,Tarrant County,TX,NA,NA,NA,90.2621722846442
76108,Tarrant County,TX,NA,NA,19.846596356663472,NA
76112,Tarrant County,TX,NA,11.845102505694761,NA,NA
76148,Tarrant County,TX,NA,NA,NA,97.22846441947566
76308,Wichita County,TX,NA,NA,NA,90.56179775280899
76309,Wichita County,TX,NA,NA,NA,95.58052434456928
76310,Wichita County,TX,NA,NA,NA,57.00374531835206
76401,Erath County,TX,NA,NA,44.77468839884947,NA
76458,Jack County,TX,NA,NA,97.60306807286673,NA
76501,Bell County,TX,NA,71.4123006833713,NA,23.220973782771537
76502,Bell County,TX,NA,NA,NA,0.0749063670411985
76513,Bell County,TX,NA,NA,NA,64.7940074906367
76522,Coryell County,TX,11.790393013100436,NA,9.108341323106425,NA
76539,Lampasas County,TX,NA,NA,NA,93.40823970037452
76542,Bell County,TX,NA,12.186788154897494,NA,NA
76543,Bell County,TX,NA,NA,NA,27.116104868913858
76548,Bell County,TX,NA,NA,75.26366251198466,NA
76550,Lampasas County,TX,NA,NA,51.10258868648131,NA
76574,Williamson County,TX,NA,NA,NA,79.40074906367042
76642,Limestone County,TX,NA,86.21867881548975,NA,NA
76661,Falls County,TX,NA,NA,78.33173537871524,NA
76712,McLennan County,TX,NA,NA,NA,62.69662921348315
76904,Tom Green County,TX,NA,NA,NA,23.89513108614232
77005,Harris County,TX,NA,NA,50.143815915628,NA
77008,Harris County,TX,NA,NA,NA,56.32958801498127
77009,Harris County,TX,NA,NA,NA,55.73033707865168
77011,Harris County,TX,NA,NA,NA,98.87640449438202
77015,Harris County,TX,NA,NA,39.40556088207095,NA
77018,Harris County,TX,NA,NA,NA,61.348314606741575
77021,Harris County,TX,NA,NA,NA,43.37078651685393
77022,Harris County,TX,NA,NA,75.35953978907,46.96629213483146
77026,Harris County,TX,NA,49.08883826879271,NA,NA
77028,Harris County,TX,NA,NA,NA,46.441947565543074
77033,Harris County,TX,38.864628820960704,NA,NA,NA
77034,Harris County,TX,NA,79.15717539863326,NA,NA
77045,Harris County,TX,NA,52.277904328018224,NA,NA
77047,Harris County,TX,NA,NA,68.07286673058485,NA
77051,Harris County,TX,NA,NA,NA,63.22097378277154
77055,Harris County,TX,NA,NA,52.92425695110259,NA
77061,Harris County,TX,44.97816593886463,NA,NA,NA
77071,Harris County,TX,NA,NA,56.759348034515824,NA
77072,Harris County,TX,NA,48.86104783599089,NA,NA
77080,Harris County,TX,NA,64.92027334851936,NA,NA
77082,Harris County,TX,NA,NA,31.447746883988493,NA
77084,Harris County,TX,NA,NA,NA,62.172284644194754
77085,Harris County,TX,NA,NA,76.22243528283796,NA
77086,Harris County,TX,NA,NA,NA,96.85393258426967
77090,Harris County,TX,NA,74.25968109339408,NA,NA
77091,Harris County,TX,NA,NA,NA,51.61048689138576
77095,Harris County,TX,NA,61.958997722095674,NA,NA
77372,Montgomery County,TX,NA,NA,82.93384467881111,NA
77375,Harris County,TX,23.580786026200872,NA,NA,NA
77380,Montgomery County,TX,NA,NA,52.73250239693192,89.8876404494382
77382,Montgomery County,TX,NA,58.20045558086561,NA,NA
77384,Montgomery County,TX,NA,NA,NA,58.50187265917604
77433,Harris County,TX,NA,NA,14.76510067114094,NA
77449,Harris County,TX,NA,NA,NA,79.10112359550561
77450,Harris County,TX,NA,NA,NA,35.655430711610485
77471,Fort Bend County,TX,NA,32.91571753986332,NA,NA
77494,Fort Bend County,TX,NA,73.4624145785877,NA,29.662921348314608
77502,Harris County,TX,NA,NA,NA,67.11610486891387
77520,Harris County,TX,NA,38.61047835990888,NA,48.68913857677903
77531,Brazoria County,TX,NA,NA,NA,72.73408239700375
77571,Harris County,TX,NA,73.34851936218679,NA,NA
77591,Galveston County,TX,NA,50.45558086560364,38.734419942473636,NA
77640,Jefferson County,TX,NA,NA,NA,59.02621722846442
77706,Jefferson County,TX,NA,73.80410022779044,NA,NA
77808,Brazos County,TX,88.64628820960698,NA,NA,NA
77845,Brazos County,TX,NA,NA,NA,60.67415730337079
77954,DeWitt County,TX,NA,NA,NA,50.486891385767784
77957,Jackson County,TX,NA,NA,NA,60.89887640449439
78040,Webb County,TX,NA,36.56036446469248,32.694151486097795,NA
78041,Webb County,TX,NA,NA,NA,22.696629213483146
78043,Webb County,TX,NA,NA,23.585810162991372,25.318352059925093
78045,Webb County,TX,NA,NA,NA,59.8501872659176
78059,Medina County,TX,NA,NA,93.67209971236818,NA
78164,DeWitt County,TX,NA,NA,NA,77.15355805243446
78217,Bexar County,TX,NA,62.414578587699324,NA,NA
78223,Bexar County,TX,NA,NA,24.161073825503358,NA
78229,Bexar County,TX,NA,NA,79.09875359539788,NA
78230,Bexar County,TX,NA,NA,NA,47.86516853932584
78231,Bexar County,TX,NA,NA,91.65867689357621,NA
78233,Bexar County,TX,57.20524017467249,NA,NA,NA
78237,Bexar County,TX,NA,NA,18.50431447746884,NA
78250,Bexar County,TX,NA,NA,49.08916586768935,68.46441947565543
78255,Bexar County,TX,NA,NA,88.68648130393096,NA
78258,Bexar County,TX,NA,NA,62.41610738255034,NA
78264,Bexar County,TX,NA,NA,NA,75.3558052434457
78380,Nueces County,TX,NA,NA,61.3614573346117,NA
78416,Nueces County,TX,NA,NA,NA,64.19475655430712
78418,Nueces County,TX,NA,NA,NA,64.04494382022472
78526,Cameron County,TX,NA,NA,57.52636625119847,NA
78569,Willacy County,TX,NA,99.77220956719817,NA,NA
78570,Hidalgo County,TX,21.83406113537118,NA,NA,NA
78610,Hays County,TX,NA,NA,NA,75.3558052434457
78621,Bastrop County,TX,NA,NA,84.46788111217641,NA
78633,Williamson County,TX,NA,NA,24.73633748801534,NA
78645,Travis County,TX,82.09606986899564,NA,NA,62.846441947565545
78648,Caldwell County,TX,NA,NA,NA,98.50187265917603
78664,Williamson County,TX,NA,NA,NA,72.65917602996255
78669,Travis County,TX,NA,NA,68.93576222435283,NA
78681,Williamson County,TX,NA,NA,26.36625119846596,NA
78717,Williamson County,TX,NA,NA,NA,85.91760299625469
78723,Travis County,TX,NA,54.783599088838265,NA,NA
78724,Travis County,TX,NA,NA,NA,86.51685393258427
78747,Travis County,TX,NA,88.26879271070615,NA,NA
78750,Travis County,TX,NA,NA,71.81208053691275,NA
78752,Travis County,TX,NA,NA,86.48130393096835,NA
78753,Travis County,TX,NA,NA,NA,54.53183520599251
78759,Travis County,TX,NA,NA,77.94822627037392,NA
79103,Potter County,TX,NA,NA,91.17929050814956,NA
79118,Randall County,TX,NA,66.4009111617312,NA,NA
79336,Hockley County,TX,NA,NA,NA,61.348314606741575
79413,Lubbock County,TX,NA,NA,48.80153403643337,NA
79603,Taylor County,TX,NA,NA,28.187919463087248,NA
79720,Howard County,TX,NA,NA,48.22627037392138,NA
79901,El Paso County,TX,NA,87.47152619589977,NA,58.57677902621723
79902,El Paso County,TX,NA,82.80182232346242,75.93480345158198,NA
79905,El Paso County,TX,NA,72.4373576309795,NA,47.49063670411985
79907,El Paso County,TX,NA,32.23234624145786,16.01150527325024,NA
79912,El Paso County,TX,NA,NA,NA,17.752808988764045
79915,El Paso County,TX,NA,NA,NA,44.569288389513105
79924,El Paso County,TX,NA,NA,22.33940556088207,NA
79925,El Paso County,TX,NA,NA,NA,28.98876404494382
79934,El Paso County,TX,NA,77.79043280182233,NA,NA
79935,El Paso County,TX,NA,NA,70.94918504314478,NA
79936,El Paso County,TX,NA,NA,NA,32.734082397003746
79938,El Paso County,TX,NA,NA,NA,62.99625468164795
84003,Utah County,UT,NA,38.496583143507976,NA,58.876404494382015
84032,Wasatch County,UT,NA,82.46013667425967,70.27804410354746,NA
84047,Salt Lake County,UT,NA,NA,39.78906999041227,NA
84057,Utah County,UT,NA,NA,72.00383509108342,NA
84065,Salt Lake County,UT,NA,32.687927107061505,NA,NA
84084,Salt Lake County,UT,NA,NA,NA,63.82022471910113
84095,Salt Lake County,UT,NA,NA,22.435282837967403,NA
84105,Salt Lake County,UT,NA,73.12072892938497,NA,NA
84106,Salt Lake County,UT,20.087336244541483,NA,NA,NA
84108,Salt Lake County,UT,NA,93.50797266514806,NA,NA
84116,Salt Lake County,UT,NA,NA,27.612655800575265,NA
84117,Salt Lake County,UT,NA,NA,NA,26.89138576779026
84119,Salt Lake County,UT,NA,10.82004555808656,32.4065196548418,NA
84120,Salt Lake County,UT,NA,26.537585421412302,NA,NA
84124,Salt Lake County,UT,NA,NA,61.84084372003835,NA
84401,Weber County,UT,NA,NA,NA,68.98876404494382
84404,Weber County,UT,NA,NA,32.118887823585816,NA
84601,Utah County,UT,NA,66.17312072892938,NA,NA
84655,Utah County,UT,NA,89.86332574031891,NA,NA
20110,Manassas city,VA,NA,NA,52.348993288590606,NA
20120,Fairfax County,VA,NA,47.49430523917996,NA,NA
20166,Loudoun County,VA,NA,NA,95.78139980824545,NA
20176,Loudoun County,VA,NA,NA,NA,47.11610486891386
22030,Fairfax County,VA,NA,25.626423690205012,NA,36.77902621722847
22032,Fairfax County,VA,NA,58.54214123006833,69.89453499520614,NA
22033,Fairfax County,VA,NA,81.09339407744875,NA,NA
22039,Fairfax County,VA,NA,NA,71.71620325982741,NA
22152,Fairfax County,VA,NA,NA,NA,31.235955056179776
22153,Fairfax County,VA,NA,NA,50.33557046979866,NA
22180,Fairfax County,VA,81.6593886462882,NA,NA,NA
22202,Arlington County,VA,NA,NA,NA,75.95505617977528
22203,Arlington County,VA,66.8122270742358,NA,NA,66.96629213483146
22204,Arlington County,VA,NA,NA,40.26845637583892,NA
22307,Fairfax County,VA,NA,NA,NA,76.32958801498127
22401,Fredericksburg city,VA,NA,NA,NA,56.17977528089888
22406,Stafford County,VA,NA,NA,70.0862895493768,NA
22443,Westmoreland County,VA,NA,NA,80.24928092042187,NA
22508,Orange County,VA,NA,NA,71.3326941514861,NA
22602,Frederick County,VA,NA,46.35535307517084,NA,NA
22630,Warren County,VA,NA,NA,NA,31.46067415730337
22655,Frederick County,VA,NA,NA,NA,67.71535580524345
22664,Shenandoah County,VA,NA,NA,NA,32.58426966292135
22701,Culpeper County,VA,NA,NA,14.477468839884947,NA
22835,Page County,VA,NA,54.1002277904328,NA,NA
22901,Albemarle County,VA,NA,NA,NA,31.98501872659176
22902,Charlottesville city,VA,NA,NA,NA,33.10861423220974
22903,Charlottesville city,VA,NA,55.466970387243734,NA,NA
22911,Albemarle County,VA,NA,NA,NA,22.771535580524343
22973,Greene County,VA,NA,NA,NA,83.29588014981273
23024,Louisa County,VA,NA,88.15489749430525,NA,NA
23093,Louisa County,VA,NA,54.89749430523918,NA,NA
23111,Hanover County,VA,NA,NA,12.559923298178333,NA
23114,Chesterfield County,VA,NA,NA,60.21093000958773,NA
23223,Henrico County,VA,NA,NA,59.15627996164909,NA
23237,Chesterfield County,VA,NA,NA,54.170661553211886,NA
23323,Chesapeake city,VA,NA,NA,NA,38.42696629213483
23452,Virginia Beach city,VA,NA,19.47608200455581,NA,NA
23509,Norfolk city,VA,NA,36.90205011389522,NA,NA
23518,Norfolk city,VA,NA,NA,23.777564717162033,13.857677902621724
23606,Newport News city,VA,NA,NA,NA,13.632958801498127
23607,Newport News city,VA,NA,NA,37.20038350910834,NA
23669,Hampton city,VA,NA,NA,NA,33.03370786516854
23805,Petersburg city,VA,NA,47.60820045558087,NA,NA
23824,Nottoway County,VA,NA,NA,NA,74.53183520599251
23834,Colonial Heights city,VA,NA,41.7995444191344,NA,NA
23944,Lunenburg County,VA,NA,NA,NA,73.33333333333333
24016,Roanoke city,VA,NA,NA,90.50814956855226,NA
24017,Roanoke city,VA,NA,21.753986332574033,NA,NA
24018,Roanoke County,VA,NA,NA,75.83892617449665,NA
24019,Roanoke County,VA,NA,78.13211845102505,NA,NA
24055,Henry County,VA,NA,NA,NA,59.176029962546814
24112,Henry County,VA,NA,NA,NA,23.370786516853933
24121,Bedford County,VA,NA,NA,78.90699904122724,NA
24127,Craig County,VA,NA,NA,NA,99.02621722846442
24141,Radford city,VA,NA,87.6993166287016,NA,NA
24153,Salem city,VA,NA,NA,NA,48.838951310861425
24179,Roanoke County,VA,NA,NA,NA,75.1310861423221
24202,Washington County,VA,NA,60.36446469248291,NA,NA
24211,Washington County,VA,NA,NA,NA,99.17602996254682
24219,Wise County,VA,NA,NA,63.56663470757431,NA
24382,Wythe County,VA,NA,83.02961275626424,NA,NA
24441,Rockingham County,VA,NA,NA,NA,93.10861423220975
24450,Rockbridge County,VA,NA,70.72892938496584,NA,NA
24501,Lynchburg city,VA,NA,NA,32.694151486097795,NA
24522,Appomattox County,VA,NA,NA,NA,87.49063670411985
98003,King County,WA,NA,NA,84.65963566634707,NA
98004,King County,WA,NA,70.04555808656036,NA,29.8876404494382
98005,King County,WA,NA,NA,95.87727708533077,NA
98006,King County,WA,NA,52.277904328018224,NA,NA
98007,King County,WA,NA,NA,NA,46.81647940074906
98008,King County,WA,NA,NA,62.607861936721,96.70411985018727
98011,King County,WA,NA,NA,98.27420901246404,43.146067415730336
98020,Snohomish County,WA,NA,NA,NA,26.44194756554307
98021,Snohomish County,WA,NA,NA,NA,77.37827715355805
98033,King County,WA,NA,NA,59.92329817833174,NA
98043,Snohomish County,WA,NA,NA,74.68839884947268,NA
98045,King County,WA,NA,NA,NA,98.80149812734082
98052,King County,WA,NA,NA,51.486097794822626,NA
98053,King County,WA,NA,NA,NA,43.22097378277154
98055,King County,WA,NA,NA,NA,72.50936329588015
98057,King County,WA,NA,91.45785876993166,NA,NA
98101,King County,WA,NA,63.55353075170843,NA,90.4119850187266
98102,King County,WA,NA,NA,NA,98.42696629213484
98103,King County,WA,NA,83.48519362186788,NA,NA
98104,King County,WA,25.76419213973799,NA,NA,NA
98105,King County,WA,NA,NA,NA,48.46441947565543
98112,King County,WA,NA,NA,83.12559923298178,NA
98115,King County,WA,NA,NA,NA,59.47565543071162
98116,King County,WA,NA,NA,57.90987535953979,65.76779026217228
98117,King County,WA,NA,55.694760820045566,NA,NA
98122,King County,WA,30.567685589519648,52.50569476082004,NA,NA
98126,King County,WA,NA,NA,55.608820709491845,NA
98136,King County,WA,NA,NA,93.86385426653882,NA
98144,King County,WA,NA,NA,NA,51.161048689138575
98198,King County,WA,NA,NA,NA,18.876404494382022
98201,Snohomish County,WA,NA,NA,41.1313518696069,NA
98204,Snohomish County,WA,NA,NA,NA,50.112359550561806
98223,Snohomish County,WA,NA,21.64009111617312,NA,NA
98225,Whatcom County,WA,NA,NA,37.87152444870566,40.37453183520599
98229,Whatcom County,WA,NA,NA,NA,33.40823970037453
98230,Whatcom County,WA,NA,NA,NA,72.43445692883896
98236,Island County,WA,NA,NA,73.34611697027805,NA
98261,San Juan County,WA,NA,NA,87.44007670182167,NA
98277,Island County,WA,NA,NA,NA,8.98876404494382
98296,Snohomish County,WA,84.27947598253274,NA,61.74496644295302,NA
98329,Pierce County,WA,NA,NA,99.42473633748801,NA
98346,Kitsap County,WA,NA,NA,89.06999041227229,NA
98368,Jefferson County,WA,NA,NA,19.271332694151486,NA
98404,Pierce County,WA,NA,NA,36.33748801534036,NA
98528,Mason County,WA,NA,NA,NA,69.5880149812734
98532,Lewis County,WA,NA,NA,80.53691275167785,NA
98584,Mason County,WA,NA,29.271070615034166,15.148609779482264,NA
98597,Thurston County,WA,72.0524017467249,NA,NA,NA
98626,Cowlitz County,WA,72.92576419213974,NA,NA,44.9438202247191
98632,Cowlitz County,WA,NA,NA,NA,2.397003745318352
98642,Clark County,WA,NA,92.59681093394077,NA,NA
98661,Clark County,WA,NA,NA,79.29050814956855,NA
98662,Clark County,WA,NA,NA,NA,69.7378277153558
98665,Clark County,WA,NA,NA,NA,42.846441947565545
98684,Clark County,WA,NA,NA,54.93767976989453,NA
98801,Chelan County,WA,NA,88.38268792710706,NA,NA
98802,Douglas County,WA,NA,NA,23.010546500479386,NA
98908,Yakima County,WA,NA,NA,78.13998082454458,NA
99163,Whitman County,WA,69.86899563318777,NA,NA,NA
99336,Benton County,WA,NA,NA,0.862895493767977,NA
99352,Benton County,WA,NA,36.10478359908883,NA,NA
20002,District of Columbia,DC,NA,4.783599088838269,NA,NA
20003,District of Columbia,DC,NA,90.54669703872437,NA,NA
20008,District of Columbia,DC,NA,NA,65.77181208053692,NA
20011,District of Columbia,DC,NA,NA,NA,3.5205992509363293
20016,District of Columbia,DC,NA,NA,NA,60
20032,District of Columbia,DC,NA,4.555808656036446,NA,NA
24740,Mercer County,WV,NA,NA,25.79098753595398,NA
25071,Kanawha County,WV,NA,NA,NA,56.47940074906367
25312,Kanawha County,WV,NA,61.38952164009112,NA,NA
25427,Berkeley County,WV,NA,57.85876993166287,NA,NA
25506,Lincoln County,WV,NA,NA,73.63374880153404,NA
25570,Wayne County,WV,NA,NA,95.49376797698945,95.88014981273409
25705,Cabell County,WV,NA,NA,NA,84.71910112359551
25801,Raleigh County,WV,NA,NA,33.74880153403643,NA
25813,Raleigh County,WV,NA,NA,NA,94.3820224719101
25901,Fayette County,WV,NA,41.571753986332574,NA,NA
25951,Summers County,WV,NA,64.57858769931663,NA,NA
26003,Ohio County,WV,NA,NA,1.5340364333652923,15.955056179775282
26041,Marshall County,WV,NA,41.34396355353075,NA,NA
26047,Hancock County,WV,NA,NA,NA,97.00374531835206
26104,Wood County,WV,NA,NA,NA,69.51310861423221
26164,Jackson County,WV,NA,NA,NA,64.49438202247191
26170,Pleasants County,WV,NA,NA,NA,70.11235955056179
26201,Upshur County,WV,NA,19.58997722095672,NA,NA
26354,Taylor County,WV,NA,74.60136674259681,NA,NA
26416,Barbour County,WV,NA,NA,34.13231064237775,NA
26431,Harrison County,WV,NA,80.06833712984054,NA,NA
26505,Monongalia County,WV,NA,8.314350797266515,NA,NA
26508,Monongalia County,WV,NA,NA,4.026845637583892,NA
26704,Hampshire County,WV,NA,93.39407744874715,NA,NA
26836,Hardy County,WV,NA,NA,NA,78.35205992509363
53005,Waukesha County,WI,NA,NA,89.93288590604027,NA
53022,Washington County,WI,NA,NA,43.72003835091083,51.31086142322098
53037,Washington County,WI,NA,NA,92.13806327900288,NA
53042,Manitowoc County,WI,NA,NA,81.20805369127517,NA
53051,Waukesha County,WI,NA,NA,NA,8.239700374531834
53066,Waukesha County,WI,NA,NA,NA,16.928838951310862
53072,Waukesha County,WI,NA,NA,NA,36.17977528089887
53073,Sheboygan County,WI,NA,79.27107061503416,NA,NA
53081,Sheboygan County,WI,NA,13.211845102505695,NA,NA
53094,Jefferson County,WI,NA,NA,23.20230105465005,NA
53095,Washington County,WI,NA,45.67198177676538,NA,NA
53110,Milwaukee County,WI,NA,27.10706150341686,NA,NA
53120,Walworth County,WI,NA,96.35535307517085,NA,NA
53126,Racine County,WI,NA,NA,NA,92.35955056179776
53129,Milwaukee County,WI,NA,68.10933940774487,NA,NA
53130,Milwaukee County,WI,NA,NA,NA,65.99250936329588
53132,Milwaukee County,WI,NA,NA,16.970278044103548,NA
53140,Kenosha County,WI,20.96069868995633,NA,18.6960690316395,NA
53144,Kenosha County,WI,NA,13.66742596810934,NA,NA
53147,Walworth County,WI,NA,NA,31.447746883988493,NA
53154,Milwaukee County,WI,NA,NA,NA,28.539325842696627
53186,Waukesha County,WI,62.00873362445415,NA,NA,NA
53188,Waukesha County,WI,NA,50.227790432801825,NA,NA
53189,Waukesha County,WI,NA,NA,24.928092042186,NA
53190,Walworth County,WI,NA,NA,NA,54.232209737827716
53204,Milwaukee County,WI,NA,NA,94.53499520613614,NA
53205,Milwaukee County,WI,NA,1.9362186788154898,NA,NA
53207,Milwaukee County,WI,NA,NA,25.023969319271334,NA
53209,Milwaukee County,WI,NA,12.870159453302962,NA,NA
53213,Milwaukee County,WI,NA,44.533029612756266,60.01917545541706,NA
53216,Milwaukee County,WI,NA,NA,76.51006711409396,NA
53217,Milwaukee County,WI,NA,30.751708428246015,NA,NA
53218,Milwaukee County,WI,NA,NA,6.327900287631831,NA
53219,Milwaukee County,WI,NA,14.578587699316628,NA,NA
53221,Milwaukee County,WI,NA,NA,NA,8.764044943820224
53223,Milwaukee County,WI,NA,59.56719817767654,NA,NA
53226,Milwaukee County,WI,NA,NA,NA,35.2059925093633
53227,Milwaukee County,WI,NA,NA,50.52732502396932,NA
53228,Milwaukee County,WI,NA,NA,38.54266538830297,NA
53235,Milwaukee County,WI,93.01310043668121,NA,NA,NA
53402,Racine County,WI,NA,NA,1.5340364333652923,NA
53405,Racine County,WI,NA,5.466970387243736,2.4928092042186005,NA
53406,Racine County,WI,NA,NA,NA,2.0224719101123596
53511,Rock County,WI,NA,0.45558086560364464,NA,2.0973782771535583
53527,Dane County,WI,NA,NA,86.76893576222436,NA
53534,Rock County,WI,NA,NA,48.22627037392138,NA
53545,Rock County,WI,NA,30.979498861047837,NA,NA
53546,Rock County,WI,NA,NA,NA,5.093632958801498
53549,Jefferson County,WI,NA,69.24829157175398,NA,NA
53558,Dane County,WI,NA,84.28246013667426,NA,83.52059925093633
53562,Dane County,WI,NA,NA,20.80536912751678,20
53566,Green County,WI,NA,NA,88.30297219558965,NA
53578,Sauk County,WI,NA,NA,NA,95.95505617977528
53593,Dane County,WI,48.03493449781659,NA,NA,NA
53703,Dane County,WI,NA,NA,NA,89.58801498127342
53704,Dane County,WI,23.144104803493452,32.346241457858774,12.847555129434324,NA
53705,Dane County,WI,NA,NA,41.1313518696069,9.363295880149813
53711,Dane County,WI,NA,28.815489749430522,44.58293384467881,NA
53713,Dane County,WI,NA,47.15261958997722,NA,NA
53714,Dane County,WI,NA,85.30751708428245,NA,87.26591760299625
53716,Dane County,WI,NA,70.15945330296127,49.56855225311601,53.18352059925093
53717,Dane County,WI,NA,NA,NA,89.28838951310861
53718,Dane County,WI,NA,NA,NA,59.325842696629216
53719,Dane County,WI,NA,NA,81.30393096836049,NA
53807,Grant County,WI,NA,NA,97.69894534995206,NA
53813,Grant County,WI,NA,NA,NA,90.2621722846442
53818,Grant County,WI,NA,NA,NA,63.52059925093633
53901,Columbia County,WI,NA,NA,NA,41.647940074906366
53910,Adams County,WI,NA,NA,100,NA
53913,Sauk County,WI,NA,90.31890660592255,NA,11.086142322097379
53916,Dodge County,WI,NA,NA,38.446788111217636,NA
53934,Adams County,WI,NA,NA,NA,67.56554307116104
53948,Juneau County,WI,NA,NA,60.11505273250239,NA
54016,St. Croix County,WI,NA,NA,NA,71.46067415730337
54115,Brown County,WI,NA,NA,NA,18.05243445692884
54153,Oconto County,WI,NA,NA,92.04218600191754,NA
54169,Calumet County,WI,93.88646288209607,NA,NA,NA
54220,Manitowoc County,WI,6.550218340611353,83.5990888382688,NA,0.6741573033707865
54241,Manitowoc County,WI,NA,56.71981776765376,NA,NA
54302,Brown County,WI,NA,22.89293849658314,NA,NA
54303,Brown County,WI,NA,40.31890660592255,86.48130393096835,NA
54304,Brown County,WI,NA,NA,NA,53.632958801498134
54311,Brown County,WI,NA,67.08428246013668,21.764141898370088,NA
54401,Marathon County,WI,NA,NA,60.69031639501438,48.01498127340824
54403,Marathon County,WI,NA,NA,NA,61.19850187265917
54409,Langlade County,WI,NA,NA,53.11601150527325,NA
54449,Wood County,WI,NA,87.35763097949885,NA,NA
54451,Taylor County,WI,NA,NA,NA,90.63670411985018
54452,Lincoln County,WI,NA,NA,NA,18.801498127340825
54455,Marathon County,WI,NA,NA,NA,91.53558052434457
54467,Portage County,WI,54.58515283842795,NA,NA,51.83520599250936
54476,Marathon County,WI,NA,NA,61.07382550335571,88.98876404494382
54481,Portage County,WI,98.68995633187772,17.198177676537586,NA,82.62172284644194
54482,Portage County,WI,NA,NA,57.14285714285714,95.4307116104869
54487,Lincoln County,WI,NA,90.7744874715262,NA,NA
54494,Wood County,WI,NA,26.195899772209568,NA,14.082397003745317
54495,Wood County,WI,NA,NA,NA,71.53558052434457
54501,Oneida County,WI,NA,75.05694760820046,69.4151486097795,67.94007490636704
54521,Vilas County,WI,NA,96.12756264236903,NA,NA
54548,Oneida County,WI,NA,NA,NA,76.70411985018727
54552,Price County,WI,NA,NA,NA,71.16104868913857
54555,Price County,WI,NA,NA,NA,74.8314606741573
54601,La Crosse County,WI,50.65502183406113,66.97038724373576,51.77372962607863,0.149812734082397
54603,La Crosse County,WI,NA,NA,NA,76.62921348314606
54615,Jackson County,WI,NA,NA,71.42857142857143,NA
54636,La Crosse County,WI,NA,59.68109339407744,NA,NA
54646,Juneau County,WI,NA,79.72665148063781,NA,NA
54650,La Crosse County,WI,NA,NA,65.29242569511025,NA
54656,Monroe County,WI,49.78165938864629,95.67198177676538,NA,NA
54660,Monroe County,WI,NA,NA,41.99424736337488,NA
54665,Vernon County,WI,NA,NA,83.79674017257909,50.187265917603
54667,Vernon County,WI,NA,NA,NA,78.95131086142322
54701,Eau Claire County,WI,NA,69.02050113895216,53.30776605944392,29.213483146067414
54703,Eau Claire County,WI,NA,49.202733485193626,75.64717162032598,NA
54720,Eau Claire County,WI,NA,88.04100227790433,NA,93.93258426966293
54724,Chippewa County,WI,NA,NA,NA,99.10112359550561
54729,Chippewa County,WI,NA,28.701594533029613,NA,NA
54730,Dunn County,WI,NA,NA,77.08533077660594,NA
54751,Dunn County,WI,70.3056768558952,93.62186788154897,21.860019175455417,39.10112359550561
54755,Buffalo County,WI,NA,NA,94.43911792905082,76.02996254681648
54771,Clark County,WI,NA,96.69703872437357,NA,NA
54801,Washburn County,WI,NA,NA,98.65771812080537,NA
54806,Ashland County,WI,98.2532751091703,NA,NA,NA
54812,Barron County,WI,NA,86.78815489749431,NA,NA
54822,Barron County,WI,NA,NA,92.42569511025887,NA
54829,Barron County,WI,NA,NA,NA,83.97003745318352
54843,Sawyer County,WI,NA,NA,NA,59.10112359550562
54868,Barron County,WI,NA,NA,NA,26.06741573033708
54880,Douglas County,WI,NA,12.52847380410023,54.74592521572388,1.348314606741573
54891,Bayfield County,WI,NA,99.31662870159454,NA,NA
54901,Winnebago County,WI,NA,NA,22.627037392138064,NA
54904,Winnebago County,WI,NA,62.87015945330297,NA,NA
54923,Green Lake County,WI,NA,NA,NA,80.14981273408239
54935,Fond du Lac County,WI,NA,NA,NA,3.7453183520599254
54937,Fond du Lac County,WI,NA,NA,NA,43.89513108614232
54956,Winnebago County,WI,7.860262008733625,23.234624145785876,NA,NA
82001,Laramie County,WY,NA,70.15945330296127,NA,NA
82072,Albany County,WY,NA,97.49430523917995,NA,NA
82443,Hot Springs County,WY,NA,99.54441913439635,NA,NA
82901,Sweetwater County,WY,48.47161572052402,NA,NA,NA
