ZipCode,county,state,Adult,Retirement
35054,St. Clair County,AL,99.43181818181817,NA
35601,Morgan County,AL,14.772727272727273,NA
35633,Lauderdale County,AL,55.68181818181818,NA
35640,Morgan County,AL,NA,37.264150943396224
99507,Anchorage Municipality,AK,65.9090909090909,NA
99577,Anchorage Municipality,AK,73.86363636363636,NA
85007,Maricopa County,AZ,10.795454545454545,NA
85020,Maricopa County,AZ,39.20454545454545,NA
85128,Pinal County,AZ,NA,58.01886792452831
85201,Maricopa County,AZ,NA,34.43396226415094
85234,Maricopa County,AZ,65.3409090909091,NA
85353,Maricopa County,AZ,NA,79.71698113207547
85635,Cochise County,AZ,27.27272727272727,NA
85718,Pima County,AZ,85.79545454545455,NA
86403,Mohave County,AZ,48.29545454545455,NA
72143,White County,AR,NA,10.377358490566039
90266,Los Angeles County,CA,NA,50
90304,Los Angeles County,CA,92.04545454545455,NA
90716,Los Angeles County,CA,NA,96.69811320754717
91406,Los Angeles County,CA,NA,39.62264150943396
91702,Los Angeles County,CA,NA,44.339622641509436
91765,Los Angeles County,CA,NA,54.24528301886793
92211,Riverside County,CA,NA,8.962264150943396
92240,Riverside County,CA,23.863636363636363,NA
92346,San Bernardino County,CA,NA,48.58490566037736
92407,San Bernardino County,CA,NA,51.886792452830186
92503,Riverside County,CA,21.022727272727273,NA
92505,Riverside County,CA,49.43181818181818,NA
92649,Orange County,CA,NA,64.62264150943396
92656,Orange County,CA,NA,80.66037735849056
92808,Orange County,CA,77.8409090909091,NA
93245,Kings County,CA,NA,71.69811320754717
93306,Kern County,CA,22.15909090909091,NA
93638,Madera County,CA,NA,79.24528301886792
93662,Fresno County,CA,NA,91.0377358490566
93703,Fresno County,CA,NA,85.84905660377359
93704,Fresno County,CA,NA,55.660377358490564
94501,Alameda County,CA,39.77272727272727,NA
94510,Solano County,CA,85.22727272727273,NA
94513,Contra Costa County,CA,35.79545454545455,NA
94538,Alameda County,CA,50,NA
95062,Santa Cruz County,CA,NA,77.35849056603774
95824,Sacramento County,CA,NA,62.735849056603776
80004,Jefferson County,CO,56.81818181818182,NA
80205,Denver County,CO,14.204545454545455,NA
80207,Denver County,CO,NA,70.28301886792453
80525,Larimer County,CO,NA,11.320754716981133
80918,El Paso County,CO,NA,34.90566037735849
80922,El Paso County,CO,56.25,NA
81008,Pueblo County,CO,NA,90.09433962264151
06515,New Haven County,CT,NA,72.64150943396226
06704,New Haven County,CT,NA,54.71698113207547
06708,New Haven County,CT,NA,35.37735849056604
06840,Fairfield County,CT,NA,78.30188679245283
19801,New Castle County,DE,40.909090909090914,NA
32068,Clay County,FL,13.068181818181818,NA
32127,Volusia County,FL,NA,74.05660377358491
33069,Broward County,FL,67.04545454545455,NA
33304,Broward County,FL,79.54545454545455,NA
33316,Broward County,FL,NA,92.45283018867924
33440,Hendry County,FL,NA,68.86792452830188
33760,Pinellas County,FL,NA,77.83018867924528
33909,Lee County,FL,NA,45.75471698113208
33914,Lee County,FL,NA,14.150943396226415
33967,Lee County,FL,59.09090909090909,NA
33993,Lee County,FL,52.27272727272727,NA
34120,Collier County,FL,NA,43.86792452830189
34453,Citrus County,FL,NA,91.50943396226415
34491,Marion County,FL,62.5,NA
30025,Walton County,GA,76.13636363636364,NA
30052,Walton County,GA,NA,8.49056603773585
30125,Polk County,GA,38.63636363636363,NA
30217,Heard County,GA,67.61363636363636,NA
30281,Henry County,GA,NA,19.81132075471698
30401,Emanuel County,GA,NA,66.50943396226415
30563,Habersham County,GA,NA,96.22641509433963
30736,Catoosa County,GA,12.5,20.754716981132077
30809,Columbia County,GA,38.06818181818182,NA
31312,Effingham County,GA,NA,78.77358490566037
31513,Appling County,GA,72.1590909090909,NA
31791,Worth County,GA,54.54545454545454,NA
96707,Honolulu County,HI,NA,33.0188679245283
96819,Honolulu County,HI,17.045454545454543,NA
96826,Honolulu County,HI,NA,69.33962264150944
83607,Canyon County,ID,41.47727272727273,NA
83704,Ada County,ID,NA,1.4150943396226416
83858,Kootenai County,ID,81.81818181818183,NA
60068,Cook County,IL,NA,36.79245283018868
60103,DuPage County,IL,30.113636363636363,NA
60137,DuPage County,IL,NA,30.660377358490564
60162,Cook County,IL,NA,97.64150943396226
60513,Cook County,IL,43.75,NA
60624,Cook County,IL,NA,25.471698113207548
60625,Cook County,IL,NA,12.264150943396226
60638,Cook County,IL,NA,7.547169811320755
60639,Cook County,IL,NA,7.0754716981132075
60640,Cook County,IL,9.659090909090908,6.60377358490566
60644,Cook County,IL,7.386363636363637,NA
60652,Cook County,IL,30.681818181818183,NA
60660,Cook County,IL,NA,17.92452830188679
60957,Ford County,IL,NA,90.56603773584906
61310,Lee County,IL,98.86363636363636,NA
61354,LaSalle County,IL,NA,53.301886792452834
61520,Fulton County,IL,NA,83.9622641509434
62521,Macon County,IL,44.31818181818182,NA
62565,Shelby County,IL,87.5,NA
46173,Rush County,IN,57.38636363636363,NA
46236,Marion County,IN,61.36363636363637,NA
47240,Decatur County,IN,NA,22.641509433962266
47303,Delaware County,IN,36.93181818181818,NA
47320,Delaware County,IN,100,NA
47331,Fayette County,IN,15.340909090909092,NA
47441,Greene County,IN,NA,69.81132075471697
47446,Lawrence County,IN,68.75,NA
47520,Perry County,IN,NA,100
47591,Knox County,IN,NA,23.58490566037736
50595,Hamilton County,IA,NA,88.20754716981132
51503,Pottawattamie County,IA,9.090909090909092,NA
52730,Clinton County,IA,95.45454545454545,NA
52738,Louisa County,IA,NA,99.52830188679245
66002,Atchison County,KS,NA,60.37735849056604
66441,Geary County,KS,NA,65.09433962264151
40004,Nelson County,KY,NA,26.41509433962264
40014,Oldham County,KY,NA,66.0377358490566
40065,Shelby County,KY,43.18181818181818,NA
40391,Clark County,KY,8.522727272727272,NA
40504,Fayette County,KY,NA,62.264150943396224
41175,Greenup County,KY,NA,87.73584905660378
42217,Christian County,KY,96.02272727272727,NA
42220,Todd County,KY,NA,83.49056603773585
42718,Taylor County,KY,13.636363636363635,NA
70344,Terrebonne Parish,LA,NA,81.13207547169812
70665,Calcasieu Parish,LA,37.5,NA
71295,Franklin Parish,LA,18.75,NA
04090,York County,ME,NA,32.075471698113205
04282,Androscoggin County,ME,86.36363636363636,NA
04462,Penobscot County,ME,NA,83.01886792452831
20657,Calvert County,MD,NA,84.43396226415094
21213,Baltimore city,MD,19.886363636363637,NA
21239,Baltimore city,MD,34.090909090909086,NA
21771,Frederick County,MD,NA,65.56603773584906
01609,Worcester County,MA,NA,5.188679245283019
01841,Essex County,MA,0,NA
02132,Suffolk County,MA,NA,16.9811320754717
02330,Plymouth County,MA,97.72727272727273,NA
02368,Norfolk County,MA,NA,4.716981132075472
02748,Bristol County,MA,42.61363636363637,NA
48076,Oakland County,MI,NA,25
48084,Oakland County,MI,80.68181818181817,NA
48091,Macomb County,MI,NA,16.50943396226415
48146,Wayne County,MI,NA,71.22641509433963
48174,Wayne County,MI,NA,14.622641509433961
48193,Wayne County,MI,82.38636363636364,NA
48210,Wayne County,MI,28.40909090909091,NA
48223,Wayne County,MI,NA,74.52830188679245
48313,Macomb County,MI,NA,23.11320754716981
48375,Oakland County,MI,53.97727272727273,NA
48423,Genesee County,MI,NA,22.169811320754718
48428,Lapeer County,MI,NA,95.28301886792453
48462,Oakland County,MI,NA,75.47169811320755
48838,Montcalm County,MI,32.95454545454545,NA
49002,Kalamazoo County,MI,NA,31.60377358490566
49009,Kalamazoo County,MI,NA,8.018867924528301
49014,Calhoun County,MI,NA,31.132075471698112
49090,Van Buren County,MI,NA,40.56603773584906
49201,Jackson County,MI,NA,4.245283018867925
49426,Ottawa County,MI,NA,38.20754716981132
49437,Muskegon County,MI,NA,73.11320754716981
49441,Muskegon County,MI,NA,2.8301886792452833
49633,Kalkaska County,MI,92.61363636363636,NA
49684,Grand Traverse County,MI,NA,63.20754716981132
55404,Hennepin County,MN,NA,0.4716981132075472
55422,Hennepin County,MN,NA,41.9811320754717
56501,Becker County,MN,NA,25.943396226415093
38843,Itawamba County,MS,NA,73.58490566037736
39367,Wayne County,MS,NA,64.15094339622641
39730,Monroe County,MS,NA,67.9245283018868
63074,St. Louis County,MO,60.79545454545454,NA
63118,St. Louis city,MO,NA,43.39622641509434
63376,St. Charles County,MO,10.227272727272728,NA
63552,Macon County,MO,NA,84.90566037735849
64507,Buchanan County,MO,NA,38.67924528301887
65616,Taney County,MO,69.31818181818183,NA
89106,Clark County,NV,50.56818181818182,NA
89108,Clark County,NV,23.295454545454543,NA
89119,Clark County,NV,22.727272727272727,NA
89149,Clark County,NV,63.63636363636363,NA
03103,Hillsborough County,NH,3.977272727272727,NA
07017,Essex County,NJ,NA,15.09433962264151
07410,Bergen County,NJ,NA,24.528301886792452
07452,Bergen County,NJ,NA,98.58490566037736
07522,Passaic County,NJ,25,NA
07930,Morris County,NJ,NA,87.26415094339622
08215,Atlantic County,NJ,NA,57.54716981132076
08318,Salem County,NJ,84.0909090909091,NA
08609,Mercer County,NJ,11.363636363636363,NA
87105,Bernalillo County,NM,NA,1.8867924528301887
87106,Bernalillo County,NM,NA,42.45283018867924
88210,Eddy County,NM,NA,61.32075471698113
10314,Richmond County,NY,60.22727272727273,NA
10453,Bronx County,NY,5.113636363636364,NA
10463,Bronx County,NY,NA,2.358490566037736
10703,Westchester County,NY,NA,66.98113207547169
11020,Nassau County,NY,NA,93.39622641509435
11213,Kings County,NY,3.4090909090909087,NA
11219,Kings County,NY,NA,55.188679245283026
11230,Kings County,NY,NA,9.433962264150944
11590,Nassau County,NY,48.86363636363637,NA
12020,Saratoga County,NY,20.454545454545457,NA
12118,Saratoga County,NY,NA,82.0754716981132
12992,Clinton County,NY,NA,94.81132075471697
13060,Onondaga County,NY,NA,98.11320754716981
13827,Tioga County,NY,24.431818181818183,NA
13856,Delaware County,NY,78.97727272727273,NA
14028,Niagara County,NY,98.29545454545455,NA
14211,Erie County,NY,NA,16.037735849056602
14220,Erie County,NY,NA,23.58490566037736
14227,Erie County,NY,25.568181818181817,NA
14450,Monroe County,NY,1.7045454545454544,NA
14826,Steuben County,NY,NA,99.05660377358491
14882,Tompkins County,NY,NA,94.33962264150944
27028,Davie County,NC,NA,37.735849056603776
27260,Guilford County,NC,NA,52.358490566037744
27263,Randolph County,NC,46.02272727272727,NA
27536,Vance County,NC,28.97727272727273,NA
27612,Wake County,NC,NA,39.15094339622642
27613,Wake County,NC,NA,35.84905660377358
28043,Rutherford County,NC,42.04545454545455,NA
28083,Cabarrus County,NC,NA,21.69811320754717
28138,Rowan County,NC,NA,82.54716981132076
28144,Rowan County,NC,35.22727272727273,NA
28160,Rutherford County,NC,94.31818181818183,NA
28202,Mecklenburg County,NC,NA,93.39622641509435
28270,Mecklenburg County,NC,NA,95.75471698113208
28306,Bladen County,NC,33.52272727272727,NA
28405,New Hanover County,NC,66.47727272727273,NA
28705,Mitchell County,NC,86.93181818181817,NA
28752,McDowell County,NC,15.909090909090908,NA
58103,Cass County,ND,5.681818181818182,NA
43050,Knox County,OH,NA,3.30188679245283
43211,Franklin County,OH,NA,33.9622641509434
43221,Franklin County,OH,NA,41.0377358490566
43402,Wood County,OH,NA,86.79245283018868
43512,Defiance County,OH,2.272727272727273,NA
43537,Lucas County,OH,29.545454545454547,NA
43701,Muskingum County,OH,1.1363636363636365,NA
43907,Harrison County,OH,96.5909090909091,NA
43944,Jefferson County,OH,97.1590909090909,NA
43952,Jefferson County,OH,6.25,NA
44053,Lorain County,OH,6.8181818181818175,NA
44118,Cuyahoga County,OH,NA,9.90566037735849
44121,Cuyahoga County,OH,NA,11.79245283018868
44129,Cuyahoga County,OH,NA,12.735849056603774
44145,Cuyahoga County,OH,NA,3.7735849056603774
44147,Cuyahoga County,OH,NA,29.245283018867923
44301,Summit County,OH,NA,53.77358490566038
44321,Summit County,OH,NA,45.28301886792453
44667,Wayne County,OH,64.77272727272727,NA
44833,Crawford County,OH,NA,18.867924528301888
45011,Butler County,OH,NA,0.9433962264150944
45123,Highland County,OH,64.20454545454545,NA
45215,Hamilton County,OH,26.704545454545453,NA
45240,Hamilton County,OH,27.84090909090909,NA
45417,Montgomery County,OH,NA,15.566037735849056
45419,Montgomery County,OH,NA,76.41509433962264
45601,Ross County,OH,0.5681818181818182,NA
45640,Jackson County,OH,NA,6.132075471698113
45648,Scioto County,OH,26.136363636363637,NA
73013,Oklahoma County,OK,32.38636363636363,NA
73107,Oklahoma County,OK,NA,47.64150943396226
73507,Comanche County,OK,47.159090909090914,NA
74126,Tulsa County,OK,77.27272727272727,NA
74352,Mayes County,OK,NA,81.60377358490565
74868,Seminole County,OK,NA,61.79245283018868
97086,Clackamas County,OR,55.11363636363637,NA
97123,Washington County,OR,21.59090909090909,NA
97216,Multnomah County,OR,81.25,NA
97217,Multnomah County,OR,72.72727272727273,NA
97317,Marion County,OR,NA,57.07547169811321
97739,Deschutes County,OR,83.52272727272727,NA
97850,Union County,OR,NA,26.88679245283019
15613,Westmoreland County,PA,NA,50.943396226415096
15931,Cambria County,PA,68.18181818181817,NA
16052,Butler County,PA,NA,97.16981132075472
16433,Crawford County,PA,NA,89.15094339622641
16933,Tioga County,PA,NA,92.9245283018868
17104,Dauphin County,PA,18.181818181818183,NA
17268,Franklin County,PA,17.613636363636363,NA
17552,Lancaster County,PA,40.340909090909086,NA
17701,Lycoming County,PA,2.840909090909091,5.660377358490567
17972,Schuylkill County,PA,NA,56.132075471698116
18969,Montgomery County,PA,89.20454545454545,NA
19040,Montgomery County,PA,89.77272727272727,NA
19111,Philadelphia County,PA,NA,28.77358490566038
19114,Philadelphia County,PA,19.318181818181817,NA
19124,Philadelphia County,PA,NA,10.849056603773585
19130,Philadelphia County,PA,71.5909090909091,NA
19143,Philadelphia County,PA,7.954545454545454,NA
19440,Montgomery County,PA,NA,63.67924528301887
19473,Montgomery County,PA,NA,75
19608,Berks County,PA,31.25,NA
02865,Providence County,RI,70.45454545454545,NA
29036,Lexington County,SC,71.02272727272727,NA
29045,Kershaw County,SC,NA,52.83018867924528
29209,Richland County,SC,NA,49.528301886792455
29440,Georgetown County,SC,47.72727272727273,NA
29505,Florence County,SC,51.70454545454546,NA
29569,Horry County,SC,NA,58.9622641509434
29577,Horry County,SC,93.18181818181817,NA
29644,Greenville County,SC,80.11363636363636,NA
29709,Chesterfield County,SC,90.3409090909091,NA
57042,Lake County,SD,NA,48.113207547169814
57301,Davison County,SD,51.13636363636363,NA
37076,Davidson County,TN,36.36363636363637,NA
37179,Williamson County,TN,88.63636363636364,NA
37415,Hamilton County,TN,NA,56.60377358490566
37641,Greene County,TN,NA,58.490566037735846
37659,Washington County,TN,NA,27.358490566037734
37708,Grainger County,TN,NA,86.32075471698113
37760,Jefferson County,TN,59.65909090909091,NA
37841,Scott County,TN,75.56818181818183,NA
38106,Shelby County,TN,NA,40.09433962264151
38116,Shelby County,TN,NA,32.54716981132076
38485,Wayne County,TN,84.6590909090909,NA
75044,Dallas County,TX,NA,27.830188679245282
75229,Dallas County,TX,45.45454545454545,NA
75235,Dallas County,TX,NA,68.39622641509435
75237,Dallas County,TX,NA,76.41509433962264
75244,Dallas County,TX,NA,85.37735849056604
75709,Smith County,TX,94.88636363636364,NA
75765,Wood County,TX,NA,88.20754716981132
76087,Parker County,TX,NA,41.509433962264154
76133,Tarrant County,TX,NA,21.22641509433962
76567,Milam County,TX,88.06818181818183,NA
77040,Harris County,TX,NA,29.71698113207547
77357,Montgomery County,TX,63.06818181818182,NA
77360,Polk County,TX,NA,75.94339622641509
77365,Montgomery County,TX,52.84090909090909,NA
77396,Harris County,TX,NA,67.45283018867924
77479,Fort Bend County,TX,NA,20.28301886792453
77583,Brazoria County,TX,NA,70.75471698113208
77662,Orange County,TX,46.590909090909086,NA
77803,Brazos County,TX,NA,44.81132075471698
78155,Guadalupe County,TX,NA,30.18867924528302
78209,Bexar County,TX,NA,59.905660377358494
78211,Bexar County,TX,NA,59.43396226415094
78219,Bexar County,TX,76.70454545454545,NA
78261,Bexar County,TX,NA,80.18867924528303
78418,Nueces County,TX,73.29545454545455,NA
78589,Hidalgo County,TX,NA,36.32075471698113
78613,Williamson County,TX,34.659090909090914,NA
78665,Williamson County,TX,53.40909090909091,NA
78676,Hays County,TX,NA,72.16981132075472
78681,Williamson County,TX,NA,33.490566037735846
78738,Travis County,TX,82.95454545454545,NA
78744,Travis County,TX,NA,60.84905660377359
78801,Uvalde County,TX,61.93181818181818,NA
79118,Randall County,TX,90.9090909090909,NA
84078,Uintah County,UT,16.477272727272727,NA
84093,Salt Lake County,UT,NA,50.47169811320755
84117,Salt Lake County,UT,78.4090909090909,NA
84319,Cache County,UT,93.75,NA
84741,Kane County,UT,NA,89.62264150943396
20165,Loudoun County,VA,69.31818181818183,NA
22655,Frederick County,VA,57.95454545454546,NA
22963,Fluvanna County,VA,NA,51.41509433962265
23235,Chesterfield County,VA,NA,46.69811320754717
23924,Mecklenburg County,VA,91.47727272727273,NA
24015,Roanoke city,VA,75,NA
24112,Henry County,VA,NA,13.679245283018867
24153,Salem city,VA,NA,19.339622641509436
24504,Lynchburg city,VA,58.52272727272727,NA
98023,King County,WA,NA,13.20754716981132
98031,King County,WA,NA,17.452830188679243
98032,King County,WA,44.88636363636363,47.16981132075472
98404,Pierce County,WA,NA,42.924528301886795
25314,Kanawha County,WV,NA,49.056603773584904
26003,Ohio County,WV,NA,0
26201,Upshur County,WV,NA,18.39622641509434
53094,Jefferson County,WI,NA,28.30188679245283
53140,Kenosha County,WI,11.931818181818182,NA
53202,Milwaukee County,WI,NA,46.22641509433962
53405,Racine County,WI,4.545454545454546,NA
54303,Brown County,WI,NA,91.50943396226415
54494,Wood County,WI,31.818181818181817,NA
82001,Laramie County,WY,74.43181818181817,NA
