ZipCode,county,state,Adult,Retirement,Geriatric
35127,Jefferson County,AL,NA,62.693498452012385,NA
35128,St. Clair County,AL,NA,72.60061919504643,NA
35173,Jefferson County,AL,NA,44.73684210526316,NA
35226,Jefferson County,AL,NA,23.374613003095977,NA
35235,Jefferson County,AL,69.54732510288066,NA,NA
35648,Lauderdale County,AL,NA,98.60681114551083,NA
35763,Madison County,AL,84.77366255144034,NA,NA
35905,Etowah County,AL,90.12345679012346,NA,NA
36117,Montgomery County,AL,77.77777777777779,NA,NA
36303,Houston County,AL,NA,NA,61.111111111111114
36305,Houston County,AL,NA,67.02786377708978,NA
36330,Coffee County,AL,NA,38.54489164086687,NA
36571,Mobile County,AL,NA,73.68421052631578,NA
36572,Mobile County,AL,NA,NA,97.8395061728395
36582,Mobile County,AL,NA,80.34055727554178,NA
36609,Mobile County,AL,NA,89.62848297213623,NA
36695,Mobile County,AL,NA,33.28173374613003,53.70370370370371
36732,Marengo County,AL,NA,NA,88.58024691358025
99507,Anchorage Municipality,AK,NA,54.95356037151703,NA
99835,Sitka City and Borough,AK,NA,79.87616099071208,NA
85018,Maricopa County,AZ,NA,43.188854489164086,NA
85213,Maricopa County,AZ,NA,NA,74.69135802469135
85225,Maricopa County,AZ,24.279835390946502,NA,NA
85249,Maricopa County,AZ,59.25925925925925,NA,NA
85251,Maricopa County,AZ,48.559670781893004,NA,NA
85262,Maricopa County,AZ,95.88477366255144,NA,NA
85339,Maricopa County,AZ,30.45267489711934,NA,NA
85623,Pinal County,AZ,NA,NA,95.67901234567901
85634,Pima County,AZ,31.275720164609055,67.80185758513932,NA
85730,Pima County,AZ,34.5679012345679,NA,NA
85941,Apache County,AZ,25.102880658436217,NA,NA
86033,Navajo County,AZ,NA,89.1640866873065,NA
86047,Navajo County,AZ,NA,35.91331269349845,NA
86301,Yavapai County,AZ,NA,31.424148606811148,NA
86556,Apache County,AZ,94.23868312757202,NA,NA
71646,Ashley County,AR,NA,NA,95.98765432098766
71822,Little River County,AR,NA,NA,81.79012345679013
71832,Sevier County,AR,NA,78.94736842105263,NA
71909,Garland County,AR,NA,34.82972136222911,NA
72002,Saline County,AR,79.42386831275721,NA,NA
72021,Monroe County,AR,96.70781893004116,NA,NA
72034,Faulkner County,AR,NA,NA,22.530864197530864
72076,Pulaski County,AR,63.37448559670782,NA,NA
72114,Pulaski County,AR,85.18518518518519,NA,NA
72118,Pulaski County,AR,NA,63.77708978328174,NA
72120,Pulaski County,AR,NA,16.873065015479877,NA
72204,Pulaski County,AR,64.60905349794238,NA,NA
72207,Pulaski County,AR,NA,81.88854489164086,NA
72209,Pulaski County,AR,67.48971193415639,71.05263157894737,NA
72211,Pulaski County,AR,NA,NA,63.888888888888886
72212,Pulaski County,AR,NA,NA,61.72839506172839
72227,Pulaski County,AR,NA,87.46130030959752,NA
72764,Washington County,AR,NA,58.6687306501548,NA
72802,Pope County,AR,NA,NA,75.92592592592592
72947,Crawford County,AR,99.1769547325103,NA,NA
90024,Los Angeles County,CA,NA,58.35913312693498,NA
90265,Los Angeles County,CA,NA,93.65325077399382,NA
90266,Los Angeles County,CA,NA,52.94117647058824,NA
90505,Los Angeles County,CA,NA,NA,38.58024691358025
90620,Orange County,CA,NA,39.473684210526315,NA
90630,Orange County,CA,NA,22.445820433436534,NA
90720,Orange County,CA,NA,63.62229102167183,NA
90802,Los Angeles County,CA,NA,70.27863777089783,NA
90805,Los Angeles County,CA,NA,25.541795665634677,NA
91320,Ventura County,CA,NA,56.811145510835914,NA
91343,Los Angeles County,CA,NA,51.547987616099064,NA
91344,Los Angeles County,CA,NA,27.39938080495356,27.469135802469136
91352,Los Angeles County,CA,NA,47.523219814241486,NA
91505,Los Angeles County,CA,NA,NA,78.70370370370371
91711,Los Angeles County,CA,NA,33.90092879256966,26.234567901234566
92011,San Diego County,CA,NA,66.56346749226006,NA
92028,San Diego County,CA,NA,53.40557275541795,NA
92064,San Diego County,CA,NA,73.52941176470588,NA
92065,San Diego County,CA,NA,NA,71.60493827160494
92084,San Diego County,CA,NA,88.85448916408669,52.77777777777778
92101,San Diego County,CA,NA,NA,47.22222222222222
92104,San Diego County,CA,NA,NA,82.4074074074074
92106,San Diego County,CA,NA,66.25386996904025,NA
92109,San Diego County,CA,NA,NA,67.90123456790124
92128,San Diego County,CA,NA,52.32198142414861,NA
92337,San Bernardino County,CA,NA,77.08978328173374,NA
92346,San Bernardino County,CA,NA,49.22600619195047,NA
92377,San Bernardino County,CA,NA,82.50773993808049,NA
92530,Riverside County,CA,NA,59.59752321981424,NA
92551,Riverside County,CA,89.7119341563786,NA,NA
92647,Orange County,CA,NA,NA,18.209876543209877
92657,Orange County,CA,NA,93.18885448916409,NA
92780,Orange County,CA,NA,NA,46.2962962962963
92782,Orange County,CA,NA,97.67801857585138,NA
92833,Orange County,CA,NA,68.73065015479877,NA
92865,Orange County,CA,NA,85.29411764705883,NA
92883,Riverside County,CA,NA,65.47987616099071,NA
93103,Santa Barbara County,CA,88.06584362139918,96.28482972136223,NA
93111,Santa Barbara County,CA,NA,94.89164086687306,NA
93215,Kern County,CA,NA,82.35294117647058,NA
93305,Kern County,CA,51.440329218106996,NA,NA
93308,Kern County,CA,38.2716049382716,NA,NA
93427,Santa Barbara County,CA,NA,99.22600619195046,NA
93637,Madera County,CA,NA,61.76470588235294,NA
93702,Fresno County,CA,NA,NA,83.33333333333334
93727,Fresno County,CA,NA,NA,44.135802469135804
94002,San Mateo County,CA,NA,44.27244582043344,NA
94025,San Mateo County,CA,NA,NA,72.8395061728395
94044,San Mateo County,CA,NA,29.566563467492262,NA
94070,San Mateo County,CA,NA,NA,66.35802469135803
94080,San Mateo County,CA,76.13168724279835,NA,NA
94086,Santa Clara County,CA,NA,77.39938080495357,NA
94107,San Francisco County,CA,54.73251028806584,NA,NA
94110,San Francisco County,CA,NA,8.978328173374612,NA
94111,San Francisco County,CA,NA,98.76160990712074,NA
94121,San Francisco County,CA,NA,NA,15.432098765432098
94122,San Francisco County,CA,NA,23.06501547987616,NA
94124,San Francisco County,CA,NA,NA,58.64197530864198
94301,Santa Clara County,CA,NA,NA,72.22222222222221
94303,San Mateo County,CA,37.86008230452675,NA,NA
94401,San Mateo County,CA,NA,69.81424148606811,NA
94510,Solano County,CA,NA,64.86068111455108,NA
94518,Contra Costa County,CA,NA,NA,66.0493827160494
94520,Contra Costa County,CA,NA,65.01547987616098,NA
94534,Solano County,CA,NA,48.297213622291025,NA
94545,Alameda County,CA,NA,72.44582043343654,NA
94547,Contra Costa County,CA,NA,76.0061919504644,NA
94558,Napa County,CA,NA,NA,54.93827160493827
94561,Contra Costa County,CA,NA,51.08359133126935,NA
94565,Contra Costa County,CA,NA,7.739938080495357,NA
94572,Contra Costa County,CA,NA,NA,91.66666666666666
94577,Alameda County,CA,NA,36.68730650154799,NA
94580,Alameda County,CA,NA,66.87306501547987,NA
94806,Contra Costa County,CA,NA,NA,66.9753086419753
94954,Sonoma County,CA,NA,36.84210526315789,NA
95050,Santa Clara County,CA,NA,63.00309597523219,NA
95112,Santa Clara County,CA,NA,NA,85.49382716049382
95123,Santa Clara County,CA,NA,29.411764705882355,NA
95124,Santa Clara County,CA,NA,41.95046439628483,NA
95209,San Joaquin County,CA,NA,59.75232198142415,NA
95355,Stanislaus County,CA,NA,NA,32.098765432098766
95382,Stanislaus County,CA,NA,31.11455108359133,NA
95407,Sonoma County,CA,NA,58.978328173374614,NA
95482,Mendocino County,CA,NA,79.56656346749226,NA
95608,Sacramento County,CA,NA,20.588235294117645,11.11111111111111
95616,Yolo County,CA,NA,NA,81.48148148148148
95621,Sacramento County,CA,NA,85.13931888544892,NA
95695,Yolo County,CA,NA,56.965944272445824,NA
95746,Placer County,CA,NA,75.54179566563467,NA
95757,Sacramento County,CA,NA,61.30030959752322,NA
95762,El Dorado County,CA,NA,NA,48.76543209876543
95821,Sacramento County,CA,NA,33.43653250773993,NA
95822,Sacramento County,CA,NA,NA,28.08641975308642
95831,Sacramento County,CA,NA,NA,29.938271604938272
95842,Sacramento County,CA,56.79012345679012,NA,NA
95901,Yuba County,CA,NA,54.79876160990712,NA
96094,Siskiyou County,CA,NA,70.12383900928792,NA
80005,Jefferson County,CO,87.24279835390946,NA,NA
80013,Arapahoe County,CO,NA,24.30340557275542,NA
80014,Arapahoe County,CO,NA,28.482972136222912,NA
80023,Broomfield County,CO,NA,80.03095975232199,NA
80108,Douglas County,CO,NA,63.31269349845201,NA
80112,Arapahoe County,CO,NA,58.204334365325074,NA
80121,Arapahoe County,CO,NA,NA,63.27160493827161
80202,Denver County,CO,66.2551440329218,NA,NA
80204,Denver County,CO,30.45267489711934,NA,NA
80209,Denver County,CO,NA,67.18266253869969,NA
80216,Denver County,CO,NA,91.3312693498452,NA
80218,Denver County,CO,NA,81.26934984520123,NA
80219,Denver County,CO,11.11111111111111,23.8390092879257,NA
80220,Denver County,CO,NA,67.64705882352942,85.18518518518519
80224,Denver County,CO,NA,81.57894736842105,NA
80534,Weld County,CO,NA,NA,93.20987654320987
81201,Chaffee County,CO,NA,NA,89.81481481481481
81301,La Plata County,CO,NA,75.85139318885449,NA
81303,La Plata County,CO,NA,NA,99.69135802469135
06010,Hartford County,CT,NA,2.631578947368421,NA
06089,Hartford County,CT,NA,99.84520123839009,NA
06424,Middlesex County,CT,NA,81.73374613003097,NA
06473,New Haven County,CT,NA,34.36532507739938,NA
06484,Fairfield County,CT,NA,NA,21.296296296296298
06615,Fairfield County,CT,63.78600823045267,NA,NA
06830,Fairfield County,CT,74.48559670781893,NA,NA
06906,Fairfield County,CT,NA,96.90402476780186,NA
19720,New Castle County,DE,NA,NA,10.185185185185185
19802,New Castle County,DE,NA,25.386996904024766,NA
32097,Nassau County,FL,NA,38.080495356037154,NA
32159,Lake County,FL,NA,25.696594427244584,8.950617283950617
32163,Sumter County,FL,NA,71.671826625387,NA
32174,Volusia County,FL,NA,NA,12.345679012345679
32244,Duval County,FL,NA,12.074303405572756,NA
32561,Santa Rosa County,FL,NA,NA,82.4074074074074
32751,Orange County,FL,NA,56.03715170278638,NA
32784,Lake County,FL,NA,69.04024767801857,NA
32789,Orange County,FL,NA,78.0185758513932,61.419753086419746
32804,Orange County,FL,NA,73.9938080495356,NA
32806,Orange County,FL,NA,80.18575851393189,NA
32828,Orange County,FL,NA,NA,75.30864197530865
32832,Orange County,FL,NA,93.49845201238391,NA
32835,Orange County,FL,NA,NA,65.12345679012346
32967,Indian River County,FL,61.31687242798354,NA,NA
33012,Miami-Dade County,FL,NA,NA,6.481481481481481
33016,Miami-Dade County,FL,NA,59.28792569659442,NA
33019,Broward County,FL,90.53497942386831,NA,NA
33020,Broward County,FL,40.32921810699588,NA,NA
33065,Broward County,FL,NA,54.643962848297214,NA
33133,Miami-Dade County,FL,NA,44.58204334365325,NA
33134,Miami-Dade County,FL,83.53909465020575,NA,NA
33141,Miami-Dade County,FL,NA,38.23529411764706,35.18518518518518
33144,Miami-Dade County,FL,NA,69.96904024767801,NA
33147,Miami-Dade County,FL,NA,37.77089783281733,NA
33149,Miami-Dade County,FL,NA,97.52321981424149,74.69135802469135
33160,Miami-Dade County,FL,NA,38.69969040247678,NA
33175,Miami-Dade County,FL,NA,26.31578947368421,NA
33184,Miami-Dade County,FL,NA,71.8266253869969,NA
33304,Broward County,FL,NA,90.09287925696594,NA
33321,Broward County,FL,NA,NA,8.024691358024691
33326,Broward County,FL,NA,NA,57.71604938271605
33432,Palm Beach County,FL,NA,48.91640866873065,NA
33470,Palm Beach County,FL,75.7201646090535,NA,NA
33486,Palm Beach County,FL,NA,53.71517027863777,NA
33549,Hillsborough County,FL,82.3045267489712,NA,NA
33573,Hillsborough County,FL,NA,22.755417956656345,NA
33612,Hillsborough County,FL,23.045267489711936,NA,NA
33706,Pinellas County,FL,NA,71.20743034055728,NA
33714,Pinellas County,FL,NA,71.20743034055728,NA
33716,Pinellas County,FL,NA,88.39009287925697,NA
33756,Pinellas County,FL,NA,42.26006191950464,NA
33810,Polk County,FL,NA,NA,32.407407407407405
33870,Highlands County,FL,NA,30.65015479876161,NA
33931,Lee County,FL,NA,96.59442724458205,NA
33948,Charlotte County,FL,NA,43.4984520123839,NA
33981,Charlotte County,FL,NA,73.37461300309597,NA
33990,Lee County,FL,NA,74.45820433436533,NA
34108,Collier County,FL,NA,NA,37.34567901234568
34114,Collier County,FL,NA,39.1640866873065,NA
34116,Collier County,FL,NA,63.93188854489165,NA
34145,Collier County,FL,NA,47.05882352941176,NA
34203,Manatee County,FL,NA,76.16099071207431,NA
34292,Sarasota County,FL,NA,52.78637770897833,54.32098765432099
34470,Marion County,FL,NA,71.9814241486068,NA
34473,Marion County,FL,NA,64.24148606811146,NA
34476,Marion County,FL,NA,42.414860681114554,NA
34479,Marion County,FL,NA,83.74613003095975,NA
34480,Marion County,FL,NA,NA,95.37037037037037
34684,Pinellas County,FL,NA,14.241486068111456,NA
34748,Lake County,FL,NA,9.907120743034056,4.012345679012346
30021,DeKalb County,GA,NA,95.04643962848297,NA
30022,Fulton County,GA,NA,NA,60.49382716049383
30025,Walton County,GA,NA,85.44891640866872,NA
30046,Gwinnett County,GA,NA,82.97213622291022,NA
30096,Gwinnett County,GA,NA,NA,25.308641975308642
30307,DeKalb County,GA,NA,NA,95.06172839506173
30309,Fulton County,GA,NA,84.98452012383902,NA
30312,Fulton County,GA,NA,55.72755417956656,NA
30317,DeKalb County,GA,NA,79.41176470588235,NA
30318,Fulton County,GA,NA,NA,76.23456790123457
30331,Fulton County,GA,NA,8.513931888544892,NA
30339,Cobb County,GA,NA,NA,86.72839506172839
30344,Fulton County,GA,NA,75.38699690402477,NA
30354,Fulton County,GA,76.95473251028807,NA,NA
30506,Hall County,GA,NA,21.207430340557277,NA
30553,Franklin County,GA,NA,96.43962848297214,NA
31024,Putnam County,GA,NA,87.15170278637771,NA
31061,Baldwin County,GA,NA,NA,41.04938271604938
31322,Chatham County,GA,NA,74.76780185758514,NA
31411,Chatham County,GA,NA,76.78018575851394,NA
31419,Chatham County,GA,NA,35.294117647058826,55.24691358024691
31714,Turner County,GA,NA,NA,79.93827160493827
31792,Thomas County,GA,NA,35.758513931888544,NA
31794,Tift County,GA,NA,18.26625386996904,NA
39817,Decatur County,GA,NA,86.9969040247678,NA
96756,Kauai County,HI,NA,95.6656346749226,NA
96817,Honolulu County,HI,49.382716049382715,6.3467492260061915,7.716049382716049
96819,Honolulu County,HI,NA,52.012383900928796,NA
96825,Honolulu County,HI,NA,NA,7.4074074074074066
83202,Bannock County,ID,NA,69.19504643962848,NA
60035,Lake County,IL,NA,14.396284829721361,NA
60047,Lake County,IL,NA,23.684210526315788,NA
60062,Cook County,IL,47.325102880658434,NA,NA
60067,Cook County,IL,NA,20.278637770897834,NA
60074,Cook County,IL,NA,85.75851393188854,NA
60077,Cook County,IL,NA,32.04334365325077,NA
60083,Lake County,IL,NA,NA,77.1604938271605
60091,Cook County,IL,NA,23.52941176470588,NA
60103,DuPage County,IL,NA,26.625386996904027,49.691358024691354
60104,Cook County,IL,48.971193415637856,NA,NA
60120,Kane County,IL,71.60493827160494,NA,NA
60126,DuPage County,IL,21.39917695473251,NA,NA
60130,Cook County,IL,62.55144032921811,NA,NA
60148,DuPage County,IL,NA,4.798761609907121,NA
60175,Kane County,IL,NA,36.37770897832817,NA
60181,DuPage County,IL,40.74074074074074,NA,NA
60193,Cook County,IL,NA,NA,34.876543209876544
60302,Cook County,IL,43.62139917695473,NA,NA
60409,Cook County,IL,39.91769547325103,NA,NA
60423,Will County,IL,NA,24.76780185758514,NA
60435,Will County,IL,NA,10.371517027863778,NA
60440,Will County,IL,NA,15.015479876160992,NA
60443,Cook County,IL,NA,NA,54.629629629629626
60452,Cook County,IL,62.139917695473244,NA,NA
60453,Cook County,IL,NA,8.6687306501548,NA
60461,Cook County,IL,96.29629629629629,NA,NA
60523,DuPage County,IL,NA,NA,48.148148148148145
60526,Cook County,IL,NA,NA,46.913580246913575
60544,Will County,IL,NA,NA,22.530864197530864
60546,Cook County,IL,NA,45.04643962848297,NA
60555,DuPage County,IL,80.65843621399176,NA,NA
60558,Cook County,IL,NA,65.78947368421053,NA
60559,DuPage County,IL,55.55555555555556,NA,NA
60611,Cook County,IL,NA,21.671826625387,NA
60617,Cook County,IL,39.09465020576132,NA,NA
60628,Cook County,IL,16.049382716049383,NA,NA
60629,Cook County,IL,NA,4.024767801857585,NA
60630,Cook County,IL,32.510288065843625,13.777089783281735,NA
60637,Cook County,IL,NA,NA,28.39506172839506
60638,Cook County,IL,20.98765432098765,NA,NA
60640,Cook County,IL,NA,7.120743034055728,NA
60655,Cook County,IL,NA,34.05572755417957,NA
60660,Cook County,IL,NA,NA,44.44444444444444
60827,Cook County,IL,NA,57.73993808049536,NA
61016,Winnebago County,IL,NA,93.80804953560371,NA
61021,Lee County,IL,42.38683127572017,6.656346749226007,49.382716049382715
61032,Stephenson County,IL,NA,NA,17.28395061728395
61048,Stephenson County,IL,NA,93.343653250774,NA
61061,Ogle County,IL,NA,NA,57.098765432098766
61071,Whiteside County,IL,NA,17.027863777089784,NA
61107,Winnebago County,IL,55.144032921810705,NA,NA
61108,Winnebago County,IL,NA,26.93498452012384,NA
61114,Winnebago County,IL,NA,71.20743034055728,NA
61270,Whiteside County,IL,NA,NA,71.29629629629629
61820,Champaign County,IL,NA,77.70897832817337,NA
61821,Champaign County,IL,NA,NA,15.74074074074074
62234,Madison County,IL,NA,47.6780185758514,NA
62521,Macon County,IL,NA,8.823529411764707,NA
62704,Sangamon County,IL,NA,NA,17.59259259259259
62801,Marion County,IL,NA,NA,38.88888888888889
62881,Marion County,IL,NA,NA,51.23456790123457
62896,Franklin County,IL,NA,34.52012383900929,NA
46017,Madison County,IN,NA,78.94736842105263,NA
46254,Marion County,IN,NA,67.49226006191951,NA
46373,Lake County,IN,NA,73.21981424148606,NA
46404,Lake County,IN,43.20987654320987,NA,NA
46517,Elkhart County,IN,61.72839506172839,NA,NA
46545,St. Joseph County,IN,NA,70.43343653250774,NA
46628,St. Joseph County,IN,NA,NA,75.61728395061729
46702,Huntington County,IN,NA,100,NA
46706,DeKalb County,IN,NA,49.53560371517028,NA
46733,Adams County,IN,NA,50.61919504643962,NA
46750,Huntington County,IN,NA,28.173374613003094,NA
46755,Noble County,IN,NA,41.17647058823529,NA
47041,Ripley County,IN,NA,89.3188854489164,NA
47348,Blackford County,IN,NA,60.216718266253864,NA
47356,Henry County,IN,NA,92.41486068111455,NA
47630,Warrick County,IN,NA,24.922600619195045,NA
47802,Vigo County,IN,NA,75.07739938080495,NA
50315,Polk County,IA,NA,26.47058823529412,NA
50501,Webster County,IA,NA,39.318885448916404,NA
50536,Palo Alto County,IA,NA,87.77089783281734,NA
51301,Clay County,IA,NA,NA,34.5679012345679
52001,Dubuque County,IA,26.748971193415638,NA,NA
52003,Dubuque County,IA,NA,91.64086687306502,NA
52317,Johnson County,IA,65.02057613168725,NA,NA
52601,Des Moines County,IA,24.691358024691358,NA,NA
66046,Douglas County,KS,NA,83.59133126934985,89.50617283950618
66103,Wyandotte County,KS,NA,NA,83.0246913580247
66226,Johnson County,KS,NA,98.45201238390094,NA
67203,Sedgwick County,KS,81.06995884773663,NA,NA
67401,Saline County,KS,NA,60.06191950464397,NA
40207,Jefferson County,KY,NA,36.06811145510836,NA
40272,Jefferson County,KY,NA,16.563467492260063,NA
40324,Scott County,KY,NA,NA,42.901234567901234
40356,Jessamine County,KY,NA,25.696594427244584,NA
40422,Boyle County,KY,NA,51.857585139318886,NA
40509,Fayette County,KY,NA,NA,49.074074074074076
41042,Boone County,KY,13.580246913580247,NA,NA
41051,Kenton County,KY,NA,37.925696594427244,NA
41056,Mason County,KY,NA,68.26625386996903,NA
42134,Simpson County,KY,65.84362139917695,NA,NA
42240,Christian County,KY,NA,14.860681114551083,NA
42303,Daviess County,KY,NA,19.195046439628484,NA
42330,Muhlenberg County,KY,80.24691358024691,NA,NA
42539,Casey County,KY,83.1275720164609,NA,NA
70002,Jefferson Parish,LA,60.90534979423868,NA,NA
70124,Orleans Parish,LA,NA,76.31578947368422,NA
70401,Tangipahoa Parish,LA,NA,39.0092879256966,NA
70433,St. Tammany Parish,LA,NA,7.5851393188854495,NA
70438,Washington Parish,LA,NA,14.551083591331269,19.753086419753085
70471,St. Tammany Parish,LA,NA,22.291021671826623,NA
70726,Livingston Parish,LA,NA,41.640866873065015,NA
70802,East Baton Rouge Parish,LA,NA,45.6656346749226,NA
70808,East Baton Rouge Parish,LA,NA,45.356037151702786,NA
70809,East Baton Rouge Parish,LA,NA,53.09597523219814,NA
70810,East Baton Rouge Parish,LA,18.51851851851852,NA,NA
70811,East Baton Rouge Parish,LA,NA,74.14860681114551,NA
71055,Webster Parish,LA,NA,38.39009287925697,NA
71111,Bossier Parish,LA,12.345679012345679,NA,NA
71115,Caddo Parish,LA,NA,86.37770897832817,NA
71449,Sabine Parish,LA,NA,83.12693498452013,NA
04073,York County,ME,NA,34.6749226006192,NA
04426,Piscataquis County,ME,NA,84.52012383900929,NA
04736,Aroostook County,ME,NA,NA,34.25925925925926
04743,Aroostook County,ME,NA,81.11455108359134,NA
04963,Kennebec County,ME,NA,69.19504643962848,NA
20743,Prince George's County,MD,78.60082304526749,NA,NA
21042,Howard County,MD,79.83539094650206,NA,NA
21048,Carroll County,MD,NA,NA,91.35802469135803
21128,Baltimore County,MD,NA,86.8421052631579,NA
21212,Baltimore city,MD,NA,35.60371517027864,NA
21215,Baltimore city,MD,17.28395061728395,NA,NA
21217,Baltimore city,MD,NA,17.492260061919502,NA
21221,Baltimore County,MD,NA,NA,35.49382716049383
21236,Baltimore County,MD,NA,45.04643962848297,NA
01028,Hampden County,MA,55.96707818930041,NA,NA
01104,Hampden County,MA,4.526748971193416,1.238390092879257,NA
01107,Hampden County,MA,NA,45.975232198142415,NA
01108,Hampden County,MA,23.868312757201647,NA,NA
01109,Hampden County,MA,NA,8.359133126934983,NA
01151,Hampden County,MA,35.390946502057616,NA,NA
01420,Worcester County,MA,NA,16.718266253869967,NA
01605,Worcester County,MA,22.22222222222222,NA,NA
01606,Worcester County,MA,NA,NA,13.88888888888889
01609,Worcester County,MA,6.995884773662551,NA,NA
01721,Middlesex County,MA,NA,41.3312693498452,NA
01801,Middlesex County,MA,NA,NA,1.8518518518518516
01821,Middlesex County,MA,11.934156378600823,NA,NA
01852,Middlesex County,MA,NA,1.8575851393188854,NA
01886,Middlesex County,MA,32.098765432098766,NA,NA
01901,Essex County,MA,NA,90.86687306501547,NA
01906,Essex County,MA,NA,9.442724458204333,NA
01921,Essex County,MA,NA,90.40247678018576,NA
01930,Essex County,MA,NA,0.6191950464396285,NA
01940,Essex County,MA,73.25102880658436,NA,NA
01960,Essex County,MA,NA,NA,0
02050,Plymouth County,MA,29.218106995884774,26.160990712074305,NA
02054,Norfolk County,MA,NA,92.10526315789474,NA
02111,Suffolk County,MA,70.78189300411523,NA,NA
02114,Suffolk County,MA,NA,40.86687306501548,NA
02116,Suffolk County,MA,26.337448559670783,NA,NA
02118,Suffolk County,MA,0.823045267489712,NA,NA
02119,Suffolk County,MA,0,37.306501547987615,NA
02121,Suffolk County,MA,2.880658436213992,NA,NA
02122,Suffolk County,MA,NA,NA,13.271604938271606
02124,Suffolk County,MA,NA,20.123839009287924,36.7283950617284
02125,Suffolk County,MA,8.641975308641975,13.312693498452013,NA
02127,Suffolk County,MA,21.810699588477366,NA,NA
02128,Suffolk County,MA,8.23045267489712,NA,NA
02130,Suffolk County,MA,3.292181069958848,NA,31.790123456790127
02131,Suffolk County,MA,NA,4.179566563467492,NA
02135,Suffolk County,MA,NA,10.061919504643962,NA
02136,Suffolk County,MA,51.028806584362144,30.959752321981426,NA
02138,Middlesex County,MA,NA,NA,16.97530864197531
02139,Middlesex County,MA,2.05761316872428,2.786377708978328,NA
02140,Middlesex County,MA,NA,11.76470588235294,NA
02143,Middlesex County,MA,NA,88.69969040247679,24.074074074074073
02144,Middlesex County,MA,NA,10.68111455108359,NA
02145,Middlesex County,MA,50.20576131687243,NA,NA
02148,Middlesex County,MA,NA,0,NA
02149,Middlesex County,MA,1.2345679012345678,0.9287925696594427,NA
02151,Suffolk County,MA,0.411522633744856,NA,NA
02155,Middlesex County,MA,NA,NA,0.6172839506172839
02170,Norfolk County,MA,74.8971193415638,NA,NA
02301,Plymouth County,MA,NA,2.476780185758514,1.5432098765432098
02302,Plymouth County,MA,4.11522633744856,NA,NA
02452,Middlesex County,MA,NA,43.343653250774,NA
02460,Middlesex County,MA,72.8395061728395,NA,NA
02493,Middlesex County,MA,76.95473251028807,NA,NA
02745,Bristol County,MA,5.349794238683128,NA,9.5679012345679
02770,Plymouth County,MA,95.06172839506173,NA,NA
48034,Oakland County,MI,NA,82.81733746130031,NA
48059,St. Clair County,MI,NA,47.21362229102167,NA
48060,St. Clair County,MI,NA,NA,24.382716049382715
48098,Oakland County,MI,NA,38.85448916408669,NA
48103,Washtenaw County,MI,NA,1.7027863777089782,NA
48104,Washtenaw County,MI,NA,91.79566563467493,NA
48105,Washtenaw County,MI,NA,70.74303405572755,4.938271604938271
48114,Livingston County,MI,NA,NA,64.19753086419753
48116,Livingston County,MI,NA,NA,53.086419753086425
48134,Wayne County,MI,NA,47.8328173374613,NA
48138,Wayne County,MI,NA,NA,51.85185185185185
48146,Wayne County,MI,NA,NA,31.48148148148148
48150,Wayne County,MI,37.03703703703704,NA,56.17283950617284
48152,Wayne County,MI,76.5432098765432,4.953560371517028,12.037037037037036
48154,Wayne County,MI,NA,NA,63.580246913580254
48160,Washtenaw County,MI,NA,59.133126934984524,NA
48169,Livingston County,MI,NA,31.73374613003096,NA
48170,Wayne County,MI,NA,61.45510835913313,NA
48178,Oakland County,MI,NA,NA,67.5925925925926
48184,Wayne County,MI,NA,NA,80.55555555555556
48185,Wayne County,MI,NA,6.037151702786378,NA
48186,Wayne County,MI,NA,12.693498452012383,68.20987654320987
48197,Washtenaw County,MI,NA,2.1671826625387,NA
48210,Wayne County,MI,33.33333333333333,NA,NA
48224,Wayne County,MI,NA,21.826625386996902,NA
48227,Wayne County,MI,NA,7.430340557275541,NA
48236,Wayne County,MI,NA,50.30959752321982,NA
48304,Oakland County,MI,NA,55.26315789473685,NA
48314,Macomb County,MI,NA,39.93808049535604,NA
48323,Oakland County,MI,NA,46.90402476780186,NA
48324,Oakland County,MI,NA,NA,59.876543209876544
48335,Oakland County,MI,NA,55.417956656346746,39.50617283950617
48341,Oakland County,MI,39.50617283950617,NA,NA
48357,Oakland County,MI,NA,73.06501547987617,NA
48382,Oakland County,MI,NA,37.61609907120743,NA
48383,Oakland County,MI,NA,NA,77.46913580246914
48430,Genesee County,MI,NA,21.052631578947366,NA
48433,Genesee County,MI,NA,23.219814241486066,NA
48506,Genesee County,MI,NA,41.640866873065015,NA
48836,Livingston County,MI,68.3127572016461,NA,NA
48893,Isabella County,MI,NA,NA,87.65432098765432
49021,Eaton County,MI,NA,74.30340557275542,NA
49090,Van Buren County,MI,NA,44.73684210526316,NA
49093,St. Joseph County,MI,NA,NA,39.19753086419753
49286,Lenawee County,MI,NA,49.690402476780186,NA
49424,Ottawa County,MI,NA,NA,13.580246913580247
49426,Ottawa County,MI,NA,40.40247678018576,29.01234567901235
49659,Antrim County,MI,NA,95.82043343653251,NA
49682,Leelanau County,MI,NA,97.8328173374613,NA
49721,Cheboygan County,MI,62.55144032921811,NA,NA
49841,Marquette County,MI,NA,94.27244582043343,NA
49849,Marquette County,MI,NA,56.19195046439629,NA
49855,Marquette County,MI,NA,54.95356037151703,30.555555555555557
49938,Gogebic County,MI,NA,NA,86.41975308641975
55066,Goodhue County,MN,57.61316872427984,18.575851393188856,14.814814814814813
55116,Ramsey County,MN,NA,NA,58.95061728395061
55311,Hennepin County,MN,NA,68.26625386996903,NA
55344,Hennepin County,MN,NA,NA,92.28395061728395
55369,Hennepin County,MN,NA,48.45201238390093,NA
55404,Hennepin County,MN,19.753086419753085,NA,NA
55407,Hennepin County,MN,NA,5.572755417956656,65.4320987654321
55412,Hennepin County,MN,NA,NA,91.0493827160494
55413,Hennepin County,MN,52.2633744855967,NA,NA
55421,Anoka County,MN,NA,NA,50
55423,Hennepin County,MN,NA,NA,41.9753086419753
55430,Hennepin County,MN,27.983539094650205,36.53250773993808,NA
55432,Anoka County,MN,NA,47.8328173374613,NA
55446,Hennepin County,MN,NA,86.22291021671826,NA
55720,Carlton County,MN,NA,NA,47.839506172839506
55803,St. Louis County,MN,NA,NA,37.65432098765432
55805,St. Louis County,MN,NA,NA,84.25925925925925
55806,St. Louis County,MN,NA,NA,96.91358024691358
55810,St. Louis County,MN,NA,51.547987616099064,NA
55811,St. Louis County,MN,NA,32.50773993808049,24.691358024691358
55812,St. Louis County,MN,NA,90.55727554179566,NA
55901,Olmsted County,MN,NA,28.01857585139319,NA
55902,Olmsted County,MN,85.59670781893004,NA,74.07407407407408
55904,Olmsted County,MN,NA,39.78328173374613,42.28395061728395
55906,Olmsted County,MN,NA,68.57585139318886,NA
55912,Mower County,MN,NA,26.78018575851393,27.77777777777778
55921,Houston County,MN,90.94650205761316,NA,71.91358024691358
55947,Houston County,MN,NA,61.60990712074303,NA
55987,Winona County,MN,NA,23.993808049535602,19.444444444444446
56001,Blue Earth County,MN,NA,NA,56.79012345679012
56007,Freeborn County,MN,88.88888888888889,39.628482972136226,70.06172839506173
56031,Martin County,MN,NA,57.89473684210527,NA
56058,Le Sueur County,MN,98.35390946502058,NA,NA
56097,Faribault County,MN,NA,97.9876160990712,NA
56267,Stevens County,MN,NA,57.120743034055735,NA
56308,Douglas County,MN,NA,13.622291021671826,NA
56379,Benton County,MN,72.42798353909465,NA,NA
56472,Crow Wing County,MN,NA,72.75541795665634,NA
56501,Becker County,MN,NA,28.637770897832816,NA
56515,Otter Tail County,MN,NA,90.71207430340557,NA
56537,Otter Tail County,MN,NA,43.808049535603715,40.4320987654321
56544,Becker County,MN,NA,NA,100
56560,Clay County,MN,NA,27.86377708978328,1.2345679012345678
56601,Beltrami County,MN,36.62551440329218,89.47368421052632,2.1604938271604937
56621,Clearwater County,MN,NA,NA,37.96296296296296
56633,Hubbard County,MN,NA,NA,83.9506172839506
38646,Quitman County,MS,100,NA,NA
39562,Jackson County,MS,NA,49.38080495356037,NA
39648,Pike County,MS,NA,NA,77.77777777777779
63052,Jefferson County,MO,NA,61.91950464396285,NA
63105,St. Louis County,MO,NA,81.26934984520123,NA
63118,St. Louis city,MO,42.79835390946502,NA,NA
64068,Clay County,MO,NA,6.5015479876160995,NA
64075,Jackson County,MO,52.674897119341566,NA,NA
64089,Clay County,MO,NA,72.13622291021672,NA
64110,Jackson County,MO,44.8559670781893,NA,NA
64118,Clay County,MO,12.757201646090536,NA,NA
64701,Cass County,MO,81.89300411522635,NA,NA
64735,Henry County,MO,NA,45.975232198142415,45.370370370370374
65203,Boone County,MO,NA,11.145510835913312,8.641975308641975
65340,Saline County,MO,NA,NA,80.24691358024691
65355,Benton County,MO,66.2551440329218,NA,NA
65616,Taney County,MO,NA,NA,31.17283950617284
65625,Barry County,MO,NA,NA,93.82716049382715
65738,Greene County,MO,NA,95.5108359133127,NA
65802,Greene County,MO,NA,19.040247678018577,NA
59102,Yellowstone County,MT,NA,30.030959752321984,NA
59714,Gallatin County,MT,NA,62.538699690402474,NA
59840,Ravalli County,MT,NA,NA,81.17283950617285
59923,Lincoln County,MT,NA,56.656346749226,72.53086419753086
68008,Washington County,NE,NA,NA,73.14814814814815
68114,Douglas County,NE,NA,NA,56.17283950617284
68510,Lancaster County,NE,NA,77.24458204334366,NA
89123,Clark County,NV,65.4320987654321,NA,NA
89506,Washoe County,NV,NA,32.81733746130031,NA
03257,Merrimack County,NH,NA,NA,90.12345679012346
03431,Cheshire County,NH,73.66255144032921,65.63467492260062,NA
03743,Sullivan County,NH,68.72427983539094,NA,NA
03766,Grafton County,NH,NA,69.65944272445822,NA
03840,Rockingham County,NH,99.58847736625515,NA,NA
07506,Passaic County,NJ,NA,60.681114551083596,NA
07626,Bergen County,NJ,NA,98.91640866873065,NA
08225,Atlantic County,NJ,NA,77.86377708978328,NA
87013,Sandoval County,NM,94.65020576131687,NA,NA
87020,Cibola County,NM,NA,76.93498452012383,NA
87045,McKinley County,NM,97.94238683127571,NA,NA
87052,Sandoval County,NM,93.82716049382715,NA,NA
87105,Bernalillo County,NM,28.80658436213992,NA,NA
87108,Bernalillo County,NM,14.40329218106996,NA,NA
87109,Bernalillo County,NM,NA,15.634674922600619,NA
87121,Bernalillo County,NM,9.876543209876543,NA,NA
87313,McKinley County,NM,93.00411522633745,NA,NA
87327,Cibola County,NM,89.30041152263375,80.95975232198143,NA
87328,McKinley County,NM,93.4156378600823,NA,NA
87505,Santa Fe County,NM,11.522633744855968,NA,NA
88012,Doa Ana County,NM,NA,52.47678018575851,NA
10001,New York County,NY,NA,5.108359133126935,NA
10002,New York County,NY,NA,NA,3.0864197530864197
10004,New York County,NY,92.18106995884774,NA,NA
10009,New York County,NY,19.34156378600823,NA,NA
10012,New York County,NY,NA,84.82972136222911,NA
10016,New York County,NY,45.267489711934154,NA,NA
10023,New York County,NY,NA,NA,6.790123456790123
10030,New York County,NY,31.68724279835391,29.876160990712076,64.50617283950618
10031,New York County,NY,NA,15.325077399380804,NA
10032,New York County,NY,NA,NA,36.11111111111111
10036,New York County,NY,46.09053497942387,NA,NA
10038,New York County,NY,60.49382716049383,NA,NA
10075,New York County,NY,NA,NA,22.22222222222222
10303,Richmond County,NY,47.73662551440329,NA,NA
10451,Bronx County,NY,NA,5.727554179566564,NA
10452,Bronx County,NY,NA,0.7739938080495357,NA
10456,Bronx County,NY,1.646090534979424,22.60061919504644,5.246913580246913
10457,Bronx County,NY,NA,0.46439628482972134,50.92592592592593
10459,Bronx County,NY,10.699588477366255,NA,NA
10461,Bronx County,NY,48.148148148148145,NA,NA
10466,Bronx County,NY,NA,NA,14.506172839506174
10467,Bronx County,NY,NA,NA,3.3950617283950617
10469,Bronx County,NY,NA,NA,33.641975308641975
10473,Bronx County,NY,NA,NA,11.728395061728394
10506,Westchester County,NY,NA,99.69040247678018,98.4567901234568
10562,Westchester County,NY,NA,NA,47.22222222222222
10566,Westchester County,NY,NA,NA,74.38271604938271
10580,Westchester County,NY,NA,NA,41.358024691358025
10598,Westchester County,NY,NA,NA,39.81481481481482
10977,Rockland County,NY,NA,NA,60.802469135802475
10990,Orange County,NY,NA,41.95046439628483,NA
11040,Nassau County,NY,NA,91.48606811145511,NA
11203,Kings County,NY,NA,33.746130030959755,NA
11204,Kings County,NY,NA,NA,9.876543209876543
11208,Kings County,NY,3.7037037037037033,NA,62.96296296296296
11220,Kings County,NY,7.818930041152264,NA,NA
11221,Kings County,NY,6.584362139917696,NA,NA
11226,Kings County,NY,NA,44.42724458204334,NA
11234,Kings County,NY,NA,12.38390092879257,NA
11237,Kings County,NY,NA,52.63157894736842,NA
11355,Queens County,NY,NA,17.3374613003096,18.82716049382716
11356,Queens County,NY,NA,NA,92.5925925925926
11362,Queens County,NY,NA,84.6749226006192,NA
11368,Queens County,NY,NA,NA,18.51851851851852
11377,Queens County,NY,NA,15.789473684210526,NA
11385,Queens County,NY,NA,11.30030959752322,NA
11420,Queens County,NY,NA,37.461300309597526,NA
11422,Queens County,NY,NA,62.38390092879257,NA
11434,Queens County,NY,NA,NA,23.765432098765434
11520,Nassau County,NY,NA,40.24767801857585,NA
11590,Nassau County,NY,59.67078189300411,NA,NA
11703,Suffolk County,NY,NA,78.79256965944272,NA
11735,Nassau County,NY,NA,63.46749226006192,NA
11793,Nassau County,NY,NA,89.78328173374614,NA
11961,Suffolk County,NY,NA,NA,38.2716049382716
12065,Saratoga County,NY,NA,NA,29.32098765432099
12572,Dutchess County,NY,88.06584362139918,NA,NA
13057,Onondaga County,NY,NA,60.681114551083596,NA
13212,Onondaga County,NY,41.1522633744856,NA,NA
13326,Otsego County,NY,NA,60.526315789473685,NA
13340,Herkimer County,NY,69.1358024691358,NA,NA
13350,Herkimer County,NY,NA,70.89783281733746,NA
13365,Herkimer County,NY,NA,NA,84.87654320987654
13439,Otsego County,NY,NA,96.74922600619195,NA
13815,Chenango County,NY,25.925925925925924,NA,NA
13820,Otsego County,NY,20.5761316872428,NA,20.98765432098765
14043,Erie County,NY,NA,30.804953560371516,NA
14108,Niagara County,NY,NA,82.19814241486068,NA
14424,Ontario County,NY,NA,1.08359133126935,NA
14425,Ontario County,NY,NA,27.708978328173373,NA
14445,Monroe County,NY,NA,65.94427244582043,NA
14450,Monroe County,NY,NA,1.5479876160990713,NA
14510,Livingston County,NY,NA,75.23219814241486,NA
14532,Ontario County,NY,NA,76.47058823529412,NA
14564,Ontario County,NY,28.39506172839506,NA,NA
14580,Monroe County,NY,NA,0.15479876160990713,NA
14610,Monroe County,NY,NA,27.089783281733748,NA
14618,Monroe County,NY,NA,13.003095975232199,NA
14620,Monroe County,NY,13.991769547325102,16.09907120743034,NA
14837,Yates County,NY,NA,87.77089783281734,NA
27012,Forsyth County,NC,NA,3.4055727554179565,40.74074074074074
27023,Forsyth County,NC,NA,61.145510835913306,NA
27028,Davie County,NC,NA,NA,25
27030,Surry County,NC,NA,NA,52.46913580246913
27040,Forsyth County,NC,NA,30.185758513931887,NA
27041,Surry County,NC,NA,NA,87.34567901234568
27050,Forsyth County,NC,NA,99.53560371517027,NA
27051,Forsyth County,NC,NA,74.61300309597523,NA
27103,Forsyth County,NC,NA,9.287925696594428,NA
27105,Forsyth County,NC,NA,19.96904024767802,NA
27106,Forsyth County,NC,NA,3.0959752321981426,NA
27127,Forsyth County,NC,NA,3.8699690402476783,NA
27244,Alamance County,NC,NA,NA,88.27160493827161
27263,Randolph County,NC,53.497942386831276,NA,NA
27284,Forsyth County,NC,NA,2.0123839009287927,NA
27344,Chatham County,NC,NA,NA,57.407407407407405
27455,Guilford County,NC,NA,NA,57.71604938271605
27516,Orange County,NC,NA,48.45201238390093,NA
27517,Orange County,NC,NA,NA,62.65432098765432
27609,Wake County,NC,NA,35.139318885448915,NA
27712,Durham County,NC,NA,43.808049535603715,NA
27810,Beaufort County,NC,NA,98.14241486068111,NA
27817,Beaufort County,NC,NA,78.328173374613,NA
27855,Hertford County,NC,NA,NA,97.53086419753086
28001,Stanly County,NC,NA,74.92260061919505,NA
28012,Gaston County,NC,NA,NA,52.160493827160494
28027,Cabarrus County,NC,NA,6.811145510835913,NA
28031,Mecklenburg County,NC,87.65432098765432,NA,NA
28036,Mecklenburg County,NC,NA,97.36842105263158,NA
28079,Union County,NC,NA,51.39318885448917,NA
28210,Mecklenburg County,NC,NA,59.907120743034056,NA
28273,Mecklenburg County,NC,NA,NA,94.1358024691358
28306,Bladen County,NC,NA,36.84210526315789,NA
28339,Harnett County,NC,NA,92.26006191950464,NA
28358,Robeson County,NC,NA,31.269349845201237,NA
28411,New Hanover County,NC,NA,42.56965944272446,NA
28422,Brunswick County,NC,NA,NA,87.96296296296296
28425,Pender County,NC,NA,NA,94.75308641975309
28429,New Hanover County,NC,NA,NA,96.60493827160494
28443,Pender County,NC,NA,58.82352941176471,NA
28451,Brunswick County,NC,NA,26.006191950464398,NA
28457,Pender County,NC,NA,88.39009287925697,NA
28461,Brunswick County,NC,NA,6.96594427244582,NA
28462,Brunswick County,NC,NA,NA,84.5679012345679
28465,Brunswick County,NC,NA,84.21052631578947,NA
28570,Carteret County,NC,NA,78.63777089783281,NA
28610,Catawba County,NC,86.0082304526749,NA,NA
28625,Iredell County,NC,NA,18.421052631578945,NA
28677,Iredell County,NC,NA,NA,53.39506172839506
28719,Jackson County,NC,58.0246913580247,NA,NA
28722,Polk County,NC,NA,NA,90.4320987654321
28734,Macon County,NC,NA,8.04953560371517,NA
28741,Macon County,NC,NA,NA,89.19753086419753
28751,Haywood County,NC,NA,97.05882352941177,NA
28786,Haywood County,NC,NA,18.111455108359134,NA
28803,Buncombe County,NC,NA,34.21052631578947,NA
58075,Richland County,ND,NA,NA,90.74074074074075
58078,Cass County,ND,NA,15.170278637770899,NA
58103,Cass County,ND,15.22633744855967,18.885448916408667,3.7037037037037033
58201,Grand Forks County,ND,NA,NA,4.320987654320987
43019,Knox County,OH,81.48148148148148,NA,NA
43055,Licking County,OH,NA,NA,6.172839506172839
43056,Licking County,OH,NA,NA,97.22222222222221
43062,Licking County,OH,NA,67.95665634674923,NA
43123,Franklin County,OH,16.46090534979424,NA,NA
43204,Franklin County,OH,13.168724279835391,NA,NA
43207,Franklin County,OH,4.938271604938271,NA,NA
43219,Franklin County,OH,56.37860082304527,NA,NA
43229,Franklin County,OH,NA,NA,27.160493827160494
43232,Franklin County,OH,9.053497942386832,NA,NA
43460,Wood County,OH,NA,98.29721362229103,NA
43512,Defiance County,OH,NA,NA,17.901234567901234
43526,Defiance County,OH,58.8477366255144,NA,NA
43551,Wood County,OH,NA,6.037151702786378,NA
44001,Lorain County,OH,38.68312757201646,NA,40.123456790123456
44004,Ashtabula County,OH,5.761316872427984,NA,NA
44012,Lorain County,OH,NA,NA,10.493827160493826
44021,Geauga County,OH,NA,89.93808049535603,NA
44022,Cuyahoga County,OH,NA,29.256965944272444,NA
44035,Lorain County,OH,6.172839506172839,NA,NA
44054,Lorain County,OH,44.44444444444444,NA,NA
44067,Summit County,OH,44.03292181069959,17.956656346749224,NA
44070,Cuyahoga County,OH,NA,4.3343653250774,NA
44074,Lorain County,OH,NA,NA,62.03703703703704
44077,Lake County,OH,NA,NA,0.9259259259259258
44087,Summit County,OH,NA,15.325077399380804,5.864197530864197
44089,Erie County,OH,NA,44.11764705882353,14.19753086419753
44094,Lake County,OH,NA,NA,2.4691358024691357
44102,Cuyahoga County,OH,2.4691358024691357,NA,16.049382716049383
44106,Cuyahoga County,OH,NA,NA,25.925925925925924
44107,Cuyahoga County,OH,NA,2.941176470588235,NA
44108,Cuyahoga County,OH,NA,4.643962848297214,NA
44111,Cuyahoga County,OH,22.633744855967077,NA,NA
44113,Cuyahoga County,OH,NA,73.83900928792569,NA
44116,Cuyahoga County,OH,NA,NA,8.333333333333332
44118,Cuyahoga County,OH,NA,10.21671826625387,NA
44122,Cuyahoga County,OH,NA,NA,20.061728395061728
44124,Cuyahoga County,OH,NA,21.981424148606813,0.30864197530864196
44131,Cuyahoga County,OH,NA,17.647058823529413,NA
44133,Cuyahoga County,OH,NA,13.46749226006192,NA
44134,Cuyahoga County,OH,17.695473251028808,2.321981424148607,NA
44135,Cuyahoga County,OH,7.4074074074074066,NA,NA
44140,Cuyahoga County,OH,NA,NA,76.85185185185185
44141,Cuyahoga County,OH,NA,NA,44.75308641975309
44142,Cuyahoga County,OH,35.80246913580247,NA,21.91358024691358
44144,Cuyahoga County,OH,NA,7.275541795665634,50.617283950617285
44223,Summit County,OH,NA,NA,79.01234567901234
44224,Summit County,OH,NA,8.204334365325078,NA
44240,Portage County,OH,NA,NA,25.617283950617285
44256,Medina County,OH,NA,NA,2.7777777777777777
44281,Medina County,OH,NA,NA,23.456790123456788
44306,Summit County,OH,20.16460905349794,NA,NA
44307,Summit County,OH,NA,64.08668730650155,98.14814814814815
44312,Summit County,OH,NA,9.75232198142415,NA
44320,Summit County,OH,NA,NA,68.51851851851852
44333,Summit County,OH,NA,NA,45.67901234567901
44406,Mahoning County,OH,NA,29.102167182662537,NA
44432,Columbiana County,OH,NA,93.03405572755418,NA
44512,Mahoning County,OH,NA,14.086687306501547,20.679012345679013
44609,Mahoning County,OH,NA,99.07120743034056,NA
44685,Summit County,OH,NA,24.458204334365323,NA
44706,Stark County,OH,NA,46.59442724458204,NA
44805,Ashland County,OH,NA,30.495356037151705,NA
44833,Crawford County,OH,NA,17.18266253869969,NA
44839,Erie County,OH,NA,42.87925696594427,NA
45013,Butler County,OH,NA,NA,7.098765432098765
45030,Hamilton County,OH,NA,55.88235294117647,NA
45240,Hamilton County,OH,32.92181069958848,NA,NA
45304,Darke County,OH,NA,94.42724458204334,NA
45331,Darke County,OH,33.744855967078195,NA,NA
45414,Montgomery County,OH,NA,54.179566563467496,NA
45432,Greene County,OH,NA,59.44272445820433,NA
45631,Gallia County,OH,NA,10.526315789473683,NA
45640,Jackson County,OH,14.814814814814813,NA,NA
45669,Lawrence County,OH,27.572016460905353,20.588235294117645,NA
45840,Hancock County,OH,NA,21.36222910216718,NA
73064,Canadian County,OK,64.19753086419753,NA,NA
73077,Noble County,OK,NA,84.05572755417957,NA
73096,Custer County,OK,75.30864197530865,NA,NA
73439,Marshall County,OK,NA,83.43653250773994,NA
73501,Comanche County,OK,NA,52.1671826625387,NA
73507,Comanche County,OK,NA,NA,33.0246913580247
74006,Washington County,OK,NA,43.034055727554176,NA
74014,Wagoner County,OK,NA,NA,58.333333333333336
74017,Rogers County,OK,53.086419753086425,NA,NA
74053,Rogers County,OK,NA,94.58204334365325,NA
74070,Osage County,OK,NA,NA,91.9753086419753
74346,Delaware County,OK,NA,77.55417956656346,NA
74464,Cherokee County,OK,18.930041152263374,NA,NA
74523,Pushmataha County,OK,NA,86.06811145510835,NA
74743,Choctaw County,OK,NA,87.30650154798761,NA
74820,Pontotoc County,OK,18.106995884773664,NA,NA
74948,Sequoyah County,OK,NA,79.72136222910217,NA
74953,Le Flore County,OK,NA,78.94736842105263,NA
74960,Adair County,OK,34.15637860082305,NA,73.76543209876543
97045,Clackamas County,OR,NA,11.91950464396285,NA
97080,Multnomah County,OR,NA,NA,43.51851851851852
97123,Washington County,OR,NA,NA,28.703703703703702
97217,Multnomah County,OR,NA,50.77399380804953,NA
97219,Multnomah County,OR,NA,NA,64.81481481481481
97267,Clackamas County,OR,NA,42.72445820433436,NA
97471,Douglas County,OR,NA,5.263157894736842,NA
97701,Deschutes County,OR,NA,NA,42.592592592592595
97702,Deschutes County,OR,53.90946502057613,NA,NA
97850,Union County,OR,NA,29.721362229102166,NA
15061,Beaver County,PA,72.0164609053498,NA,NA
15204,Allegheny County,PA,NA,87.61609907120743,NA
15317,Washington County,PA,NA,9.597523219814242,NA
16056,Butler County,PA,NA,NA,80.8641975308642
16059,Butler County,PA,NA,92.72445820433437,NA
16505,Erie County,PA,NA,NA,69.1358024691358
17011,Cumberland County,PA,NA,19.659442724458202,NA
17022,Lancaster County,PA,NA,NA,20.37037037037037
17042,Lebanon County,PA,10.2880658436214,NA,NA
17050,Cumberland County,PA,NA,NA,26.851851851851855
17055,Cumberland County,PA,NA,15.944272445820435,10.802469135802468
17057,Dauphin County,PA,NA,NA,51.54320987654321
17062,Perry County,PA,NA,99.38080495356037,NA
17078,Lebanon County,PA,NA,11.455108359133128,9.25925925925926
17111,Dauphin County,PA,NA,5.88235294117647,NA
17331,York County,PA,15.637860082304528,NA,NA
17543,Lancaster County,PA,NA,11.609907120743033,NA
17702,Lycoming County,PA,82.71604938271605,NA,NA
17737,Lycoming County,PA,NA,91.17647058823529,NA
17751,Clinton County,PA,NA,80.6501547987616,NA
17815,Columbia County,PA,NA,46.43962848297213,NA
17820,Columbia County,PA,NA,84.36532507739938,NA
17824,Northumberland County,PA,NA,NA,70.98765432098766
17963,Schuylkill County,PA,NA,78.328173374613,NA
17972,Schuylkill County,PA,74.07407407407408,NA,NA
18222,Luzerne County,PA,NA,NA,78.39506172839506
18603,Columbia County,PA,25.514403292181072,NA,NA
18661,Luzerne County,PA,NA,NA,82.09876543209876
18702,Luzerne County,PA,16.872427983539097,NA,NA
18938,Bucks County,PA,NA,66.09907120743034,NA
19002,Montgomery County,PA,NA,NA,66.66666666666666
19047,Bucks County,PA,NA,NA,32.71604938271605
19063,Delaware County,PA,NA,12.848297213622292,15.123456790123457
19066,Montgomery County,PA,NA,NA,85.80246913580247
19072,Montgomery County,PA,NA,64.55108359133128,NA
19081,Delaware County,PA,NA,NA,94.44444444444444
19087,Chester County,PA,NA,25.077399380804955,46.60493827160494
19095,Montgomery County,PA,NA,82.04334365325077,NA
19104,Philadelphia County,PA,23.045267489711936,NA,NA
19118,Philadelphia County,PA,NA,75.69659442724458,NA
19143,Philadelphia County,PA,NA,NA,12.654320987654321
19153,Philadelphia County,PA,NA,49.07120743034056,NA
19380,Chester County,PA,NA,4.489164086687306,NA
19382,Chester County,PA,NA,9.13312693498452,NA
19401,Montgomery County,PA,NA,22.910216718266255,NA
19567,Berks County,PA,NA,85.60371517027863,NA
02865,Providence County,RI,NA,NA,67.28395061728395
02904,Providence County,RI,NA,18.730650154798763,NA
02919,Providence County,RI,NA,31.424148606811148,NA
29223,Richland County,SC,NA,28.328173374613,NA
29301,Spartanburg County,SC,NA,40.092879256965944,NA
29322,Spartanburg County,SC,NA,90.24767801857585,NA
29323,Spartanburg County,SC,NA,NA,79.32098765432099
29349,Spartanburg County,SC,NA,20.897832817337463,NA
29405,Charleston County,SC,37.4485596707819,NA,NA
29412,Charleston County,SC,NA,21.517027863777088,NA
29455,Charleston County,SC,NA,70.43343653250774,NA
29464,Charleston County,SC,NA,NA,18.82716049382716
29466,Charleston County,SC,NA,54.33436532507739,NA
29485,Dorchester County,SC,35.80246913580247,NA,NA
29527,Horry County,SC,NA,91.02167182662538,NA
29582,Horry County,SC,NA,57.585139318885446,NA
29607,Greenville County,SC,NA,NA,30.864197530864196
29708,York County,SC,NA,65.01547987616098,NA
29902,Beaufort County,SC,NA,68.11145510835914,NA
29907,Beaufort County,SC,NA,80.6501547987616,NA
29910,Beaufort County,SC,NA,41.48606811145511,NA
29924,Hampton County,SC,NA,95.3560371517028,NA
57006,Brookings County,SD,NA,46.28482972136223,NA
57103,Minnehaha County,SD,NA,3.2507739938080498,NA
57105,Minnehaha County,SD,NA,12.538699690402478,NA
57106,Minnehaha County,SD,NA,35.44891640866873,NA
57110,Minnehaha County,SD,NA,28.792569659442723,NA
57625,Dewey County,SD,97.11934156378601,NA,NA
37013,Davidson County,TN,NA,16.253869969040245,NA
37064,Williamson County,TN,NA,NA,29.629629629629626
37122,Wilson County,TN,NA,NA,36.41975308641975
37129,Rutherford County,TN,NA,32.19814241486068,NA
37130,Rutherford County,TN,NA,32.972136222910216,NA
37745,Greene County,TN,NA,24.148606811145513,NA
38464,Lawrence County,TN,41.9753086419753,NA,NA
38474,Maury County,TN,NA,91.95046439628483,NA
75074,Collin County,TX,NA,NA,69.75308641975309
75090,Grayson County,TX,NA,83.90092879256966,NA
75092,Grayson County,TX,NA,NA,60.18518518518518
75126,Kaufman County,TX,41.56378600823045,NA,NA
75214,Dallas County,TX,NA,63.1578947368421,NA
75240,Dallas County,TX,NA,78.1733746130031,NA
75254,Dallas County,TX,NA,NA,99.07407407407408
75494,Wood County,TX,NA,69.19504643962848,NA
75633,Panola County,TX,NA,56.5015479876161,NA
75703,Smith County,TX,NA,3.7151702786377707,NA
75707,Smith County,TX,NA,54.024767801857585,NA
75762,Smith County,TX,NA,55.57275541795666,59.5679012345679
75783,Wood County,TX,NA,NA,73.4567901234568
76020,Tarrant County,TX,NA,30.340557275541798,NA
76022,Tarrant County,TX,86.41975308641975,NA,NA
76240,Cooke County,TX,NA,37.15170278637771,NA
76579,Bell County,TX,92.5925925925926,NA,NA
76657,McLennan County,TX,NA,NA,96.29629629629629
76706,McLennan County,TX,NA,46.749226006191954,NA
76904,Tom Green County,TX,NA,NA,35.80246913580247
77009,Harris County,TX,58.43621399176955,NA,NA
77021,Harris County,TX,NA,72.91021671826626,NA
77047,Harris County,TX,NA,NA,88.88888888888889
77056,Harris County,TX,NA,58.04953560371517,NA
77062,Harris County,TX,NA,60.681114551083596,NA
77077,Harris County,TX,NA,33.591331269349844,NA
77084,Harris County,TX,NA,24.613003095975234,NA
77095,Harris County,TX,NA,13.93188854489164,NA
77381,Montgomery County,TX,78.18930041152264,NA,NA
77437,Wharton County,TX,NA,NA,55.55555555555556
77449,Harris County,TX,NA,NA,62.34567901234568
77539,Galveston County,TX,NA,12.229102167182662,NA
77550,Galveston County,TX,NA,14.705882352941178,NA
77571,Harris County,TX,NA,50,NA
77586,Harris County,TX,NA,66.71826625386997,NA
77591,Galveston County,TX,69.95884773662551,NA,NA
77706,Jefferson County,TX,NA,36.22291021671827,NA
77802,Brazos County,TX,NA,19.814241486068113,NA
77845,Brazos County,TX,NA,3.560371517027864,NA
78155,Guadalupe County,TX,NA,31.88854489164087,NA
78254,Bexar County,TX,57.20164609053497,NA,NA
78255,Bexar County,TX,NA,NA,99.38271604938271
78504,Hidalgo County,TX,46.502057613168724,48.142414860681114,NA
78574,Hidalgo County,TX,NA,NA,50.308641975308646
78584,Starr County,TX,NA,57.43034055727554,NA
78589,Hidalgo County,TX,46.913580246913575,NA,NA
78596,Hidalgo County,TX,NA,57.27554179566563,NA
78605,Burnet County,TX,NA,NA,98.76543209876543
78633,Williamson County,TX,NA,1.393188854489164,4.62962962962963
78745,Travis County,TX,NA,93.96284829721363,NA
78934,Colorado County,TX,NA,NA,68.82716049382715
79412,Lubbock County,TX,71.19341563786008,NA,NA
79416,Lubbock County,TX,NA,58.51393188854489,NA
79706,Midland County,TX,NA,67.3374613003096,NA
79934,El Paso County,TX,NA,95.20123839009288,NA
84009,Salt Lake County,UT,NA,62.07430340557275,83.64197530864197
84010,Davis County,UT,NA,NA,69.44444444444444
84020,Salt Lake County,UT,NA,65.3250773993808,NA
84040,Davis County,UT,84.36213991769547,NA,NA
84041,Davis County,UT,NA,86.687306501548,NA
84044,Salt Lake County,UT,NA,68.88544891640866,NA
84074,Tooele County,UT,9.465020576131687,NA,NA
84087,Davis County,UT,NA,85.91331269349845,NA
84093,Salt Lake County,UT,NA,53.25077399380805,NA
84094,Salt Lake County,UT,NA,50.15479876160991,NA
84098,Summit County,UT,NA,50.30959752321982,NA
84104,Salt Lake County,UT,NA,NA,70.67901234567901
84107,Salt Lake County,UT,NA,47.368421052631575,NA
84108,Salt Lake County,UT,NA,NA,43.20987654320987
84111,Salt Lake County,UT,NA,83.28173374613003,NA
84121,Salt Lake County,UT,NA,16.408668730650156,NA
84337,Box Elder County,UT,NA,95.97523219814241,NA
84403,Weber County,UT,NA,64.55108359133128,NA
84404,Weber County,UT,30.04115226337449,NA,NA
05001,Windsor County,VT,NA,86.53250773993808,NA
05089,Windsor County,VT,NA,94.11764705882352,NA
22309,Fairfax County,VA,34.97942386831276,NA,NA
22701,Culpeper County,VA,NA,17.80185758513932,NA
22801,Harrisonburg city,VA,51.440329218106996,NA,NA
22911,Albemarle County,VA,NA,NA,33.95061728395062
22980,Waynesboro city,VA,NA,NA,30.246913580246915
23314,Isle of Wight County,VA,NA,80.4953560371517,NA
23692,York County,VA,NA,NA,45.67901234567901
24540,Danville city,VA,NA,28.947368421052634,NA
98007,King County,WA,86.83127572016461,NA,NA
98027,King County,WA,NA,76.62538699690403,NA
98029,King County,WA,NA,88.08049535603715,NA
98087,Snohomish County,WA,60.08230452674898,53.56037151702786,NA
98101,King County,WA,NA,NA,79.32098765432099
98103,King County,WA,NA,43.653250773993804,NA
98105,King County,WA,NA,92.56965944272446,NA
98155,King County,WA,NA,NA,48.45679012345679
98198,King County,WA,49.794238683127574,NA,NA
98233,Skagit County,WA,NA,56.34674922600619,NA
98282,Island County,WA,NA,NA,54.01234567901234
98584,Mason County,WA,NA,19.5046439628483,NA
98660,Clark County,WA,NA,88.23529411764706,NA
98662,Clark County,WA,83.53909465020575,NA,NA
98801,Chelan County,WA,70.37037037037037,NA,37.03703703703704
98802,Douglas County,WA,NA,66.40866873065015,NA
98815,Chelan County,WA,NA,96.13003095975232,NA
98816,Chelan County,WA,95.47325102880659,NA,NA
98826,Chelan County,WA,NA,NA,86.11111111111111
98837,Grant County,WA,NA,NA,26.543209876543212
99354,Benton County,WA,NA,32.6625386996904,NA
99362,Walla Walla County,WA,NA,13.157894736842104,NA
20001,District of Columbia,DC,29.629629629629626,53.86996904024768,NA
20018,District of Columbia,DC,NA,27.55417956656347,NA
20020,District of Columbia,DC,NA,5.41795665634675,NA
25271,Jackson County,WV,NA,NA,70.37037037037037
25526,Putnam County,WV,NA,40.55727554179567,NA
25550,Mason County,WV,NA,NA,43.51851851851852
26452,Lewis County,WV,NA,33.126934984520126,NA
26505,Monongalia County,WV,NA,NA,23.14814814814815
26541,Monongalia County,WV,91.76954732510289,NA,NA
53005,Waukesha County,WI,NA,50.92879256965944,NA
53083,Sheboygan County,WI,NA,60.216718266253864,NA
53092,Ozaukee County,WI,NA,NA,59.25925925925925
53094,Jefferson County,WI,50.617283950617285,NA,33.33333333333333
53130,Milwaukee County,WI,NA,89.00928792569658,NA
53140,Kenosha County,WI,NA,62.07430340557275,NA
53142,Kenosha County,WI,NA,NA,41.66666666666667
53143,Kenosha County,WI,NA,NA,76.5432098765432
53150,Waukesha County,WI,NA,40.71207430340557,NA
53151,Waukesha County,WI,NA,20.43343653250774,NA
53209,Milwaukee County,WI,NA,NA,11.419753086419753
53211,Milwaukee County,WI,NA,NA,12.962962962962962
53213,Milwaukee County,WI,NA,32.35294117647059,NA
53214,Milwaukee County,WI,NA,10.990712074303406,NA
53221,Milwaukee County,WI,NA,21.981424148606813,NA
53223,Milwaukee County,WI,NA,10.8359133126935,NA
53224,Milwaukee County,WI,NA,54.4891640866873,92.90123456790124
97003,NA,NA,NA,72.29102167182663,NA
53225,Milwaukee County,WI,NA,41.021671826625386,NA
53406,Racine County,WI,54.32098765432099,NA,NA
53511,Rock County,WI,NA,0.30959752321981426,NA
53532,Dane County,WI,79.01234567901234,NA,NA
53533,Iowa County,WI,NA,94.58204334365325,NA
53545,Rock County,WI,NA,NA,21.604938271604937
53546,Rock County,WI,27.160493827160494,NA,NA
53548,Rock County,WI,NA,27.24458204334365,NA
53559,Dane County,WI,NA,97.05882352941177,NA
53566,Green County,WI,NA,19.195046439628484,NA
53581,Richland County,WI,NA,NA,78.08641975308642
53590,Dane County,WI,NA,45.51083591331269,NA
53593,Dane County,WI,NA,51.23839009287926,NA
53597,Dane County,WI,NA,NA,65.74074074074075
53703,Dane County,WI,NA,92.87925696594426,NA
53704,Dane County,WI,45.67901234567901,NA,NA
53705,Dane County,WI,NA,NA,16.666666666666664
53711,Dane County,WI,NA,NA,55.8641975308642
53713,Dane County,WI,67.07818930041152,NA,NA
53714,Dane County,WI,NA,82.50773993808049,NA
53719,Dane County,WI,NA,45.82043343653251,NA
53948,Juneau County,WI,NA,NA,93.51851851851852
53955,Columbia County,WI,98.76543209876543,NA,NA
54016,St. Croix County,WI,NA,49.690402476780186,NA
54313,Brown County,WI,NA,34.984520123839005,NA
54482,Portage County,WI,NA,64.39628482972137,NA
54534,Iron County,WI,97.53086419753086,NA,NA
54601,La Crosse County,WI,NA,48.76160990712074,16.358024691358025
54603,La Crosse County,WI,NA,62.693498452012385,NA
54615,Jackson County,WI,NA,NA,87.03703703703704
54650,La Crosse County,WI,67.90123456790124,7.894736842105263,5.555555555555555
54880,Douglas County,WI,NA,25.232198142414862,NA
54902,Winnebago County,WI,NA,NA,45.06172839506173
82801,Sheridan County,WY,91.35802469135803,NA,NA
