ZipCode,county,state,Adult
35071,Jefferson County,AL,81.00558659217877
36110,Montgomery County,AL,65.92178770949721
36111,Montgomery County,AL,75.97765363128491
99517,Anchorage Municipality,AK,75.41899441340783
85326,Maricopa County,AZ,38.547486033519554
85365,Yuma County,AZ,37.43016759776536
85706,Pima County,AZ,4.4692737430167595
71854,Miller County,AR,50.27932960893855
90242,Los Angeles County,CA,82.12290502793296
91001,Los Angeles County,CA,69.83240223463687
91607,Los Angeles County,CA,88.8268156424581
92037,San Diego County,CA,95.53072625698324
92335,San Bernardino County,CA,13.40782122905028
92708,Orange County,CA,91.06145251396647
93015,Ventura County,CA,79.88826815642457
93033,Ventura County,CA,17.318435754189945
93063,Ventura County,CA,46.927374301675975
93306,Kern County,CA,28.49162011173184
93436,Santa Barbara County,CA,23.463687150837988
94558,Napa County,CA,41.899441340782126
94588,Alameda County,CA,81.56424581005587
94945,Marin County,CA,94.41340782122904
95127,Santa Clara County,CA,51.955307262569825
95355,Stanislaus County,CA,12.290502793296088
95380,Stanislaus County,CA,36.87150837988827
80013,Arapahoe County,CO,15.083798882681565
80128,Jefferson County,CO,72.06703910614524
80223,Denver County,CO,74.86033519553072
06606,Fairfield County,CT,26.81564245810056
06614,Fairfield County,CT,70.39106145251397
06704,New Haven County,CT,31.843575418994412
32219,Duval County,FL,58.10055865921788
32305,Leon County,FL,76.53631284916202
32503,Escambia County,FL,29.608938547486037
32606,Alachua County,FL,45.81005586592179
32814,Orange County,FL,98.88268156424581
33004,Broward County,FL,84.35754189944134
33013,Miami-Dade County,FL,80.44692737430168
33068,Broward County,FL,57.54189944134078
33409,Palm Beach County,FL,77.09497206703911
33604,Hillsborough County,FL,35.19553072625698
33625,Hillsborough County,FL,72.62569832402235
33812,Polk County,FL,84.91620111731844
33916,Lee County,FL,50.83798882681564
34450,Citrus County,FL,91.62011173184358
34653,Pasco County,FL,40.78212290502793
34986,St. Lucie County,FL,61.452513966480446
30012,Rockdale County,GA,64.80446927374301
96720,Hawaii County,HI,44.134078212290504
96734,Honolulu County,HI,79.3296089385475
96744,Honolulu County,HI,63.687150837988824
96826,Honolulu County,HI,54.7486033519553
83858,Kootenai County,ID,88.26815642458101
60073,Lake County,IL,24.581005586592177
60181,DuPage County,IL,93.85474860335195
60543,Kendall County,IL,49.162011173184354
46312,Lake County,IN,25.139664804469277
46947,Cass County,IN,18.435754189944134
47112,Harrison County,IN,68.71508379888269
47906,Tippecanoe County,IN,67.0391061452514
50662,Fayette County,IA,78.2122905027933
66002,Atchison County,KS,82.68156424581005
40741,Laurel County,KY,32.402234636871505
70578,Acadia Parish,LA,30.16759776536313
70607,Calcasieu Parish,LA,20.670391061452513
04976,Somerset County,ME,23.463687150837988
21012,Anne Arundel County,MD,87.70949720670392
21216,Baltimore city,MD,47.486033519553075
01040,Hampden County,MA,0.5586592178770949
01085,Hampden County,MA,2.2346368715083798
01247,Berkshire County,MA,10.05586592178771
01301,Franklin County,MA,16.75977653631285
01854,Middlesex County,MA,3.35195530726257
02124,Suffolk County,MA,0
02359,Plymouth County,MA,86.03351955307262
02744,Bristol County,MA,15.64245810055866
48051,Macomb County,MI,69.27374301675978
48204,Wayne County,MI,48.60335195530726
48240,Wayne County,MI,29.05027932960894
48314,Macomb County,MI,53.072625698324025
48462,Oakland County,MI,85.47486033519553
49442,Muskegon County,MI,5.58659217877095
55110,Ramsey County,MN,60.893854748603346
55330,Sherburne County,MN,52.513966480446925
55408,Hennepin County,MN,16.201117318435752
55416,Hennepin County,MN,54.18994413407822
55429,Hennepin County,MN,18.994413407821227
55987,Winona County,MN,11.731843575418994
56301,Stearns County,MN,56.424581005586596
56367,Benton County,MN,96.64804469273743
39532,Harrison County,MS,55.865921787709496
63376,St. Charles County,MO,13.966480446927374
63379,Lincoln County,MO,39.10614525139665
63670,Ste. Genevieve County,MO,70.94972067039106
64730,Bates County,MO,71.50837988826815
65360,Henry County,MO,98.32402234636871
65536,Laclede County,MO,51.39664804469274
03275,Merrimack County,NH,83.24022346368714
03584,Coos County,NH,100
07030,Hudson County,NJ,10.614525139664805
07047,Hudson County,NJ,8.938547486033519
07055,Passaic County,NJ,31.28491620111732
87571,Taos County,NM,67.59776536312849
10025,New York County,NY,9.497206703910614
10040,New York County,NY,43.01675977653631
10301,Richmond County,NY,22.905027932960895
10467,Bronx County,NY,1.1173184357541899
10475,Bronx County,NY,35.754189944134076
10705,Westchester County,NY,12.849162011173185
11236,Kings County,NY,7.262569832402235
12078,Fulton County,NY,7.82122905027933
12188,Saratoga County,NY,86.59217877094973
12413,Greene County,NY,90.5027932960894
13118,Cayuga County,NY,83.79888268156425
13215,Onondaga County,NY,63.128491620111724
13820,Otsego County,NY,48.04469273743017
14590,Wayne County,NY,56.98324022346368
14619,Monroe County,NY,21.22905027932961
27804,Nash County,NC,45.2513966480447
27870,Halifax County,NC,32.960893854748605
28205,Mecklenburg County,NC,27.932960893854748
28304,Cumberland County,NC,41.340782122905026
28305,Cumberland County,NC,92.73743016759776
28425,Pender County,NC,77.6536312849162
28478,Pender County,NC,94.97206703910615
28712,Transylvania County,NC,62.56983240223464
58203,Grand Forks County,ND,64.24581005586593
43130,Fairfield County,OH,2.793296089385475
43206,Franklin County,OH,17.877094972067038
43228,Franklin County,OH,6.145251396648044
43953,Jefferson County,OH,43.01675977653631
44004,Ashtabula County,OH,21.787709497206702
44067,Summit County,OH,89.3854748603352
44102,Cuyahoga County,OH,6.70391061452514
44130,Cuyahoga County,OH,8.379888268156424
44721,Stark County,OH,89.94413407821229
44820,Crawford County,OH,30.726256983240223
45042,Butler County,OH,27.37430167597765
45406,Montgomery County,OH,22.3463687150838
45662,Scioto County,OH,5.027932960893855
73401,Carter County,OK,19.553072625698324
74601,Kay County,OK,55.3072625698324
97266,Multnomah County,OR,42.45810055865922
97322,Linn County,OR,20.11173184357542
97420,Coos County,OR,62.01117318435754
97439,Lane County,OR,73.18435754189943
97446,Linn County,OR,97.20670391061452
17078,Lebanon County,PA,25.69832402234637
18102,Lehigh County,PA,1.675977653631285
18202,Luzerne County,PA,59.77653631284916
19018,Delaware County,PA,36.312849162011176
57078,Yankton County,SD,78.77094972067039
37066,Sumner County,TN,14.52513966480447
37410,Hamilton County,TN,97.76536312849163
37716,Anderson County,TN,49.72067039106145
37912,Knox County,TN,40.22346368715084
75150,Dallas County,TX,33.5195530726257
75216,Dallas County,TX,11.1731843575419
75236,Dallas County,TX,74.30167597765363
76705,McLennan County,TX,26.256983240223462
77386,Montgomery County,TX,44.6927374301676
77586,Harris County,TX,60.33519553072626
77642,Jefferson County,TX,37.988826815642454
78201,Bexar County,TX,34.07821229050279
78213,Bexar County,TX,58.659217877094974
78245,Bexar County,TX,34.63687150837989
78382,Aransas County,TX,93.29608938547486
78405,Nueces County,TX,87.15083798882681
78753,Travis County,TX,73.74301675977654
79423,Lubbock County,TX,39.10614525139665
79927,El Paso County,TX,68.15642458100558
84401,Weber County,UT,53.63128491620112
24216,Wise County,VA,96.08938547486034
98103,King County,WA,59.217877094972074
98112,King County,WA,66.4804469273743
98251,Snohomish County,WA,99.4413407821229
98362,Clallam County,WA,46.36871508379888
98683,Clark County,WA,92.17877094972067
25302,Kanawha County,WV,65.36312849162012
53205,Milwaukee County,WI,3.910614525139665
