ZipCode,county,state,Adult,Retirement
35005,Jefferson County,AL,94.42090395480226,NA
35010,Tallapoosa County,AL,35.16949152542373,NA
35077,Cullman County,AL,59.39265536723164,NA
35079,Blount County,AL,90.60734463276836,NA
35094,Jefferson County,AL,59.463276836158194,NA
35111,Tuscaloosa County,AL,44.49152542372881,NA
35208,Jefferson County,AL,38.206214689265536,NA
35213,Jefferson County,AL,96.46892655367232,NA
35215,Jefferson County,AL,32.69774011299435,NA
35224,Jefferson County,AL,98.9406779661017,NA
35244,Jefferson County,AL,47.1045197740113,NA
35404,Tuscaloosa County,AL,15.889830508474576,NA
35405,Tuscaloosa County,AL,7.768361581920905,NA
35661,Colbert County,AL,64.90112994350282,NA
35905,Etowah County,AL,88.20621468926554,NA
36083,Macon County,AL,95.33898305084746,NA
36201,Calhoun County,AL,26.76553672316384,NA
36330,Coffee County,AL,44.70338983050847,NA
36526,Baldwin County,AL,50.56497175141242,NA
36582,Mobile County,AL,47.66949152542373,NA
36608,Mobile County,AL,43.22033898305085,NA
36619,Mobile County,AL,76.48305084745762,NA
36695,Mobile County,AL,33.19209039548023,NA
36801,Lee County,AL,83.96892655367232,NA
36804,Lee County,AL,57.98022598870056,NA
36832,Lee County,AL,NA,93.18801089918256
36854,Chambers County,AL,61.29943502824858,NA
36867,Russell County,AL,69.42090395480226,NA
99502,Anchorage Municipality,AK,51.20056497175142,NA
99503,Anchorage Municipality,AK,45.409604519774014,NA
99507,Anchorage Municipality,AK,NA,62.67029972752044
99559,Bethel Census Area,AK,NA,97.27520435967303
99623,,AK,NA,92.64305177111717
99701,Fairbanks North Star Borough,AK,NA,79.83651226158038
85007,Maricopa County,AZ,36.93502824858757,NA
85008,Maricopa County,AZ,NA,83.65122615803816
85009,Maricopa County,AZ,42.51412429378531,NA
85015,Maricopa County,AZ,18.926553672316384,NA
85043,Maricopa County,AZ,53.88418079096046,NA
85048,Maricopa County,AZ,49.36440677966102,NA
85050,Maricopa County,AZ,54.44915254237288,NA
85122,Pinal County,AZ,7.627118644067797,NA
85201,Maricopa County,AZ,14.689265536723164,NA
85225,Maricopa County,AZ,12.429378531073446,NA
85248,Maricopa County,AZ,57.20338983050848,NA
85251,Maricopa County,AZ,92.79661016949152,64.30517711171662
85258,Maricopa County,AZ,NA,65.66757493188011
85260,Maricopa County,AZ,64.75988700564972,NA
85282,Maricopa County,AZ,NA,55.858310626703
85298,Maricopa County,AZ,70.83333333333334,NA
85349,Yuma County,AZ,33.26271186440678,NA
85364,Yuma County,AZ,NA,5.722070844686648
85705,Pima County,AZ,2.5423728813559325,NA
85706,Pima County,AZ,16.52542372881356,NA
85710,Pima County,AZ,8.26271186440678,NA
85713,Pima County,AZ,6.073446327683616,NA
85730,Pima County,AZ,58.333333333333336,31.88010899182561
85755,Pima County,AZ,NA,61.03542234332425
85756,Pima County,AZ,67.30225988700565,NA
85757,Pima County,AZ,26.412429378531073,NA
85941,Apache County,AZ,13.841807909604519,NA
86401,Mohave County,AZ,NA,66.7574931880109
86409,Mohave County,AZ,NA,6.811989100817439
86503,Apache County,AZ,33.686440677966104,NA
71901,Garland County,AR,46.04519774011299,NA
72076,Pulaski County,AR,49.22316384180791,NA
72143,White County,AR,36.440677966101696,NA
72450,Greene County,AR,20.127118644067796,NA
90006,Los Angeles County,CA,87.07627118644068,NA
90020,Los Angeles County,CA,NA,65.39509536784742
90024,Los Angeles County,CA,78.31920903954803,NA
90031,Los Angeles County,CA,NA,79.01907356948229
90247,Los Angeles County,CA,NA,61.85286103542234
90270,Los Angeles County,CA,85.24011299435028,NA
90274,Los Angeles County,CA,87.64124293785311,NA
90275,Los Angeles County,CA,57.485875706214685,NA
90278,Los Angeles County,CA,60.240112994350284,NA
90503,Los Angeles County,CA,77.18926553672316,NA
90732,Los Angeles County,CA,82.55649717514125,NA
90744,Los Angeles County,CA,NA,88.8283378746594
90805,Los Angeles County,CA,NA,30.517711171662125
91011,Los Angeles County,CA,90.46610169491525,NA
91207,Los Angeles County,CA,97.81073446327684,NA
91324,Los Angeles County,CA,75.9180790960452,NA
91352,Los Angeles County,CA,25.28248587570621,NA
91362,Ventura County,CA,65.04237288135593,NA
91367,Los Angeles County,CA,55.367231638418076,60.76294277929155
91406,Los Angeles County,CA,50.9180790960452,NA
91701,San Bernardino County,CA,24.858757062146893,NA
91731,Los Angeles County,CA,36.08757062146893,NA
91761,San Bernardino County,CA,24.01129943502825,NA
91766,Los Angeles County,CA,72.2457627118644,NA
91950,San Diego County,CA,NA,44.141689373297005
92009,San Diego County,CA,65.46610169491525,NA
92064,San Diego County,CA,NA,48.228882833787466
92065,San Diego County,CA,48.58757062146893,NA
92069,San Diego County,CA,88.91242937853107,NA
92078,San Diego County,CA,52.96610169491526,NA
92108,San Diego County,CA,85.45197740112994,NA
92262,Riverside County,CA,53.53107344632768,NA
92335,San Bernardino County,CA,9.322033898305085,NA
92336,San Bernardino County,CA,9.675141242937853,NA
92345,San Bernardino County,CA,NA,20.435967302452315
92376,San Bernardino County,CA,32.909604519774014,NA
92404,San Bernardino County,CA,47.31638418079096,NA
92555,Riverside County,CA,58.19209039548022,NA
92570,Riverside County,CA,41.03107344632768,NA
92592,Riverside County,CA,28.24858757062147,NA
92649,Orange County,CA,80.57909604519774,NA
92694,Orange County,CA,56.49717514124294,NA
92865,Orange County,CA,94.13841807909604,NA
93003,Ventura County,CA,44.56214689265537,NA
93030,Ventura County,CA,66.66666666666666,NA
93041,Ventura County,CA,63.70056497175142,NA
93065,Ventura County,CA,NA,26.158038147138964
93312,Kern County,CA,38.13559322033898,NA
93422,San Luis Obispo County,CA,45.55084745762712,NA
93428,San Luis Obispo County,CA,99.01129943502825,NA
93434,Santa Barbara County,CA,98.87005649717514,NA
93436,Santa Barbara County,CA,16.242937853107346,NA
93454,Santa Barbara County,CA,30.29661016949153,NA
93514,Inyo County,CA,86.93502824858757,NA
93535,Los Angeles County,CA,NA,89.91825613079018
93543,Los Angeles County,CA,96.1864406779661,NA
93555,Kern County,CA,24.43502824858757,NA
93635,Merced County,CA,39.124293785310734,NA
93710,Fresno County,CA,61.15819209039548,NA
93905,Monterey County,CA,36.652542372881356,NA
94010,San Mateo County,CA,50.56497175141242,NA
94066,San Mateo County,CA,43.22033898305085,13.896457765667575
94080,San Mateo County,CA,NA,10.899182561307901
94086,Santa Clara County,CA,59.53389830508474,NA
94089,Santa Clara County,CA,98.44632768361582,NA
94105,San Francisco County,CA,NA,95.91280653950953
94109,San Francisco County,CA,60.381355932203384,16.348773841961854
94110,San Francisco County,CA,13.48870056497175,NA
94112,San Francisco County,CA,NA,10.08174386920981
94116,San Francisco County,CA,90.32485875706215,NA
94118,San Francisco County,CA,55.367231638418076,NA
94123,San Francisco County,CA,62.28813559322034,NA
94124,San Francisco County,CA,NA,26.975476839237057
94127,San Francisco County,CA,NA,78.7465940054496
94132,San Francisco County,CA,93.00847457627118,NA
94303,San Mateo County,CA,59.887005649717516,NA
94501,Alameda County,CA,70.40960451977402,NA
94521,Contra Costa County,CA,57.34463276836158,NA
94538,Alameda County,CA,45.83333333333333,NA
94544,Alameda County,CA,18.361581920903955,NA
94590,Solano County,CA,28.389830508474578,NA
94607,Alameda County,CA,72.31638418079096,84.46866485013625
94952,Sonoma County,CA,NA,47.956403269754766
94954,Sonoma County,CA,76.9774011299435,NA
95037,Santa Clara County,CA,81.28531073446328,42.234332425068125
95050,Santa Clara County,CA,69.49152542372882,NA
95110,Santa Clara County,CA,81.7090395480226,NA
95112,Santa Clara County,CA,70.12711864406779,NA
95116,Santa Clara County,CA,74.2231638418079,NA
95304,San Joaquin County,CA,91.454802259887,NA
95348,Merced County,CA,65.67796610169492,NA
95401,Sonoma County,CA,57.34463276836158,NA
95404,Sonoma County,CA,71.11581920903954,NA
95603,Placer County,CA,88.48870056497175,NA
95621,Sacramento County,CA,42.16101694915254,NA
95630,Sacramento County,CA,26.48305084745763,NA
95648,Placer County,CA,59.7457627118644,31.607629427792915
95661,Placer County,CA,87.00564971751412,NA
95747,Placer County,CA,39.759887005649716,NA
95814,Sacramento County,CA,97.38700564971752,NA
95827,Sacramento County,CA,67.37288135593221,NA
95828,Sacramento County,CA,83.75706214689266,40.59945504087194
95831,Sacramento County,CA,NA,85.55858310626702
95838,Sacramento County,CA,35.09887005649718,NA
95966,Butte County,CA,35.94632768361582,NA
80011,Arapahoe County,CO,6.779661016949152,NA
80012,Arapahoe County,CO,11.37005649717514,NA
80013,Arapahoe County,CO,9.533898305084746,NA
80022,Adams County,CO,17.231638418079097,NA
80027,Boulder County,CO,59.95762711864406,NA
80204,Denver County,CO,NA,91.00817438692098
80205,Denver County,CO,NA,43.869209809264305
80206,Denver County,CO,69.91525423728814,NA
80207,Denver County,CO,NA,78.2016348773842
80211,Denver County,CO,69.13841807909604,NA
80219,Denver County,CO,3.954802259887006,28.882833787465938
80220,Denver County,CO,33.05084745762712,NA
80224,Denver County,CO,62.14689265536724,NA
80230,Denver County,CO,92.37288135593221,NA
80231,Denver County,CO,70.69209039548022,NA
80236,Denver County,CO,80.7909604519774,NA
80239,Denver County,CO,23.79943502824859,NA
80525,Larimer County,CO,NA,72.20708446866485
80701,Morgan County,CO,21.53954802259887,NA
81201,Chaffee County,CO,81.00282485875707,NA
81435,San Miguel County,CO,100,NA
81635,Garfield County,CO,92.58474576271186,NA
06002,Hartford County,CT,NA,75.20435967302453
06029,Tolland County,CT,57.132768361581924,NA
06040,Hartford County,CT,10.240112994350282,NA
06066,Tolland County,CT,18.008474576271187,NA
06070,Hartford County,CT,NA,86.10354223433242
06074,Hartford County,CT,81.14406779661016,NA
06082,Hartford County,CT,68.4322033898305,NA
06084,Tolland County,CT,NA,91.82561307901908
06085,Hartford County,CT,95.48022598870057,NA
06105,Hartford County,CT,21.32768361581921,NA
06106,Hartford County,CT,NA,58.855585831062676
06112,Hartford County,CT,47.175141242937855,NA
06114,Hartford County,CT,46.89265536723164,NA
06118,Hartford County,CT,NA,47.41144414168937
06234,Windham County,CT,63.06497175141242,NA
06239,Windham County,CT,35.02824858757062,NA
06450,New Haven County,CT,4.943502824858757,NA
06461,New Haven County,CT,96.61016949152543,NA
06480,Middlesex County,CT,71.53954802259888,NA
06484,Fairfield County,CT,34.6045197740113,NA
06489,Hartford County,CT,30.08474576271186,23.160762942779293
06511,New Haven County,CT,54.7316384180791,NA
06513,New Haven County,CT,3.248587570621469,NA
06514,New Haven County,CT,67.16101694915254,NA
06516,New Haven County,CT,29.66101694915254,NA
06604,Fairfield County,CT,20.19774011299435,NA
06708,New Haven County,CT,22.175141242937855,NA
06795,Litchfield County,CT,NA,66.4850136239782
06830,Fairfield County,CT,62.6412429378531,NA
06851,Fairfield County,CT,NA,63.21525885558583
06854,Fairfield County,CT,NA,96.45776566757493
19709,New Castle County,DE,21.045197740112993,NA
19711,New Castle County,DE,NA,13.623978201634879
19720,New Castle County,DE,46.75141242937853,NA
19803,New Castle County,DE,60.94632768361582,NA
19805,New Castle County,DE,1.765536723163842,NA
19973,Sussex County,DE,16.101694915254235,NA
32046,Nassau County,FL,78.10734463276836,NA
32063,Baker County,FL,68.92655367231639,NA
32164,Flagler County,FL,NA,20.98092643051771
32205,Duval County,FL,26.69491525423729,NA
32208,Duval County,FL,21.96327683615819,NA
32218,Duval County,FL,2.6129943502824857,NA
32225,Duval County,FL,76.62429378531074,NA
32246,Duval County,FL,16.17231638418079,NA
32250,Duval County,FL,58.686440677966104,NA
32257,Duval County,FL,24.293785310734464,NA
32503,Escambia County,FL,20.97457627118644,NA
32514,Escambia County,FL,NA,18.80108991825613
32570,Santa Rosa County,FL,10.451977401129943,NA
32601,Alachua County,FL,60.240112994350284,NA
32605,Alachua County,FL,NA,39.782016348773844
32606,Alachua County,FL,66.52542372881356,34.87738419618528
32812,Orange County,FL,35.5225988700565,NA
32907,Brevard County,FL,NA,26.430517711171664
33010,Miami-Dade County,FL,65.60734463276836,NA
33056,Miami-Dade County,FL,89.83050847457628,NA
33130,Miami-Dade County,FL,NA,73.56948228882834
33142,Miami-Dade County,FL,19.06779661016949,NA
33169,Miami-Dade County,FL,41.59604519774011,NA
33180,Miami-Dade County,FL,NA,55.04087193460491
33324,Broward County,FL,NA,58.31062670299727
33431,Palm Beach County,FL,83.82768361581921,NA
33433,Palm Beach County,FL,NA,26.70299727520436
33525,Pasco County,FL,89.05367231638418,NA
33541,Pasco County,FL,NA,44.95912806539509
33773,Pinellas County,FL,67.72598870056498,NA
33811,Polk County,FL,68.71468926553672,NA
33825,Highlands County,FL,50.98870056497176,NA
33852,Highlands County,FL,NA,25.068119891008173
33909,Lee County,FL,42.3728813559322,NA
33983,Charlotte County,FL,74.15254237288136,NA
34116,Collier County,FL,NA,70.57220708446866
34135,Lee County,FL,NA,19.891008174386922
34234,Sarasota County,FL,39.40677966101695,NA
34241,Sarasota County,FL,86.5819209039548,NA
34470,Marion County,FL,49.78813559322034,NA
34606,Hernando County,FL,NA,50.13623978201635
34689,Pinellas County,FL,82.06214689265536,NA
30032,DeKalb County,GA,60.02824858757062,NA
30034,DeKalb County,GA,NA,29.972752043596728
30041,Forsyth County,GA,28.10734463276836,NA
30093,Gwinnett County,GA,56.21468926553672,NA
30241,Troup County,GA,27.966101694915253,NA
30310,Fulton County,GA,22.88135593220339,NA
30331,Fulton County,GA,17.937853107344633,NA
30504,Hall County,GA,79.87288135593221,NA
30510,Habersham County,GA,98.37570621468926,NA
30512,Union County,GA,74.50564971751412,NA
30519,Gwinnett County,GA,45.1271186440678,NA
30528,White County,GA,51.836158192090394,NA
30533,Lumpkin County,GA,65.3954802259887,NA
30534,Dawson County,GA,41.45480225988701,NA
30542,Hall County,GA,51.69491525423729,NA
30548,Jackson County,GA,83.33333333333334,NA
30558,Jackson County,GA,98.79943502824858,NA
30577,Stephens County,GA,43.99717514124294,NA
30643,Hart County,GA,NA,63.48773841961853
30740,Whitfield County,GA,84.67514124293785,NA
30813,Columbia County,GA,31.21468926553672,NA
30901,Richmond County,GA,NA,89.10081743869209
31312,Effingham County,GA,78.0367231638418,NA
31313,Liberty County,GA,64.40677966101694,NA
31533,Coffee County,GA,61.15819209039548,NA
31816,Meriwether County,GA,NA,93.73297002724796
31820,Muscogee County,GA,93.78531073446328,NA
31903,Muscogee County,GA,65.74858757062147,NA
31909,Muscogee County,GA,NA,72.47956403269755
96706,Honolulu County,HI,11.087570621468927,NA
96712,Honolulu County,HI,96.68079096045197,NA
96744,Honolulu County,HI,20.480225988700564,NA
96782,Honolulu County,HI,81.5677966101695,NA
96790,Maui County,HI,97.17514124293785,NA
96797,Honolulu County,HI,7.556497175141243,NA
96814,Honolulu County,HI,69.77401129943502,NA
96819,Honolulu County,HI,16.596045197740114,NA
83501,Nez Perce County,ID,NA,14.713896457765669
83642,Ada County,ID,48.37570621468927,NA
83704,Ada County,ID,17.51412429378531,5.449591280653951
83714,Ada County,ID,44.13841807909605,20.16348773841962
83716,Ada County,ID,50.282485875706215,NA
83815,Kootenai County,ID,NA,24.52316076294278
60004,Cook County,IL,24.505649717514125,NA
60016,Cook County,IL,NA,15.258855585831062
60020,Lake County,IL,91.24293785310734,NA
60025,Cook County,IL,42.79661016949153,NA
60035,Lake County,IL,43.50282485875706,NA
60050,McHenry County,IL,70.97457627118644,NA
60056,Cook County,IL,38.27683615819209,NA
60062,Cook County,IL,NA,8.71934604904632
60068,Cook County,IL,NA,45.776566757493185
60131,Cook County,IL,73.0225988700565,NA
60153,Cook County,IL,38.347457627118644,NA
60154,Cook County,IL,51.059322033898304,NA
60156,McHenry County,IL,34.88700564971751,NA
60188,DuPage County,IL,19.279661016949152,NA
60202,Cook County,IL,83.6864406779661,NA
60302,Cook County,IL,66.24293785310734,19.07356948228883
60402,Cook County,IL,11.864406779661017,NA
60404,Will County,IL,43.00847457627119,NA
60420,Livingston County,IL,95.12711864406779,NA
60452,Cook County,IL,77.04802259887006,NA
60453,Cook County,IL,43.14971751412429,NA
60481,Will County,IL,NA,87.46594005449592
60515,DuPage County,IL,39.40677966101695,NA
60543,Kendall County,IL,35.73446327683616,NA
60605,Cook County,IL,83.545197740113,NA
60618,Cook County,IL,7.980225988700565,NA
60619,Cook County,IL,5.437853107344632,7.629427792915531
60623,Cook County,IL,6.497175141242938,NA
60628,Cook County,IL,77.11864406779661,NA
60633,Cook County,IL,68.57344632768361,NA
60638,Cook County,IL,9.110169491525424,NA
60640,Cook County,IL,52.8954802259887,NA
60641,Cook County,IL,14.124293785310735,NA
60643,Cook County,IL,8.192090395480225,NA
60644,Cook County,IL,NA,17.166212534059948
60645,Cook County,IL,35.59322033898305,NA
60647,Cook County,IL,7.062146892655368,NA
60651,Cook County,IL,NA,11.989100817438691
60652,Cook County,IL,28.60169491525424,NA
60654,Cook County,IL,71.1864406779661,NA
60804,Cook County,IL,20.268361581920903,NA
60901,Kankakee County,IL,46.46892655367232,NA
61021,Lee County,IL,64.19491525423729,NA
61354,LaSalle County,IL,54.02542372881356,NA
61356,Bureau County,IL,75,NA
62246,Bond County,IL,NA,85.28610354223434
62521,Macon County,IL,13.418079096045199,NA
62526,Macon County,IL,12.005649717514125,NA
62650,Morgan County,IL,NA,42.77929155313351
62702,Sangamon County,IL,26.129943502824858,NA
62703,Sangamon County,IL,29.59039548022599,NA
62704,Sangamon County,IL,45.48022598870056,NA
46112,Hendricks County,IN,53.88418079096046,NA
46122,Hendricks County,IN,78.8135593220339,NA
46143,Johnson County,IN,23.516949152542374,NA
46168,Hendricks County,IN,39.05367231638418,NA
46184,Johnson County,IN,74.01129943502825,NA
46227,Marion County,IN,NA,8.991825613079019
46236,Marion County,IN,60.5225988700565,NA
46250,Marion County,IN,77.33050847457628,NA
46260,Marion County,IN,44.27966101694915,NA
46303,Lake County,IN,44.42090395480226,NA
46319,Lake County,IN,26.906779661016948,NA
46324,Lake County,IN,17.443502824858754,NA
46341,Porter County,IN,62.782485875706215,NA
46350,LaPorte County,IN,32.98022598870056,NA
46360,LaPorte County,IN,4.661016949152542,NA
46383,Porter County,IN,7.13276836158192,NA
46733,Adams County,IN,41.59604519774011,NA
47201,Bartholomew County,IN,58.89830508474576,NA
47240,Decatur County,IN,32.34463276836158,NA
47362,Henry County,IN,NA,53.67847411444142
47371,Jay County,IN,NA,39.23705722070845
47711,Vanderburgh County,IN,28.177966101694917,NA
47714,Vanderburgh County,IN,14.75988700564972,NA
47715,Vanderburgh County,IN,29.8728813559322,NA
50022,Cass County,IA,98.09322033898306,NA
50313,Polk County,IA,NA,75.47683923705722
50315,Polk County,IA,8.121468926553673,NA
50322,Polk County,IA,61.652542372881356,NA
50428,Cerro Gordo County,IA,79.80225988700565,NA
50616,Floyd County,IA,66.10169491525424,NA
50703,Black Hawk County,IA,NA,38.96457765667575
52601,Des Moines County,IA,13.064971751412429,NA
66025,Douglas County,KS,93.4322033898305,NA
66046,Douglas County,KS,94.35028248587571,NA
66202,Johnson County,KS,92.2316384180791,NA
66204,Johnson County,KS,72.81073446327684,NA
66205,Johnson County,KS,88.4180790960452,NA
66212,Johnson County,KS,55.932203389830505,NA
66216,Johnson County,KS,73.1638418079096,NA
67114,Harvey County,KS,77.68361581920904,NA
67846,Finney County,KS,54.51977401129944,NA
40214,Jefferson County,KY,6.002824858757062,21.25340599455041
40216,Jefferson County,KY,8.545197740112995,NA
40330,Mercer County,KY,52.68361581920904,NA
40380,Powell County,KY,NA,82.56130790190736
40422,Boyle County,KY,46.89265536723164,NA
40505,Fayette County,KY,56.144067796610166,NA
40509,Fayette County,KY,79.51977401129943,NA
41011,Kenton County,KY,NA,32.15258855585831
41018,Kenton County,KY,57.83898305084746,NA
41075,Campbell County,KY,71.045197740113,NA
41143,Carter County,KY,40.81920903954802,NA
41169,Greenup County,KY,67.93785310734464,NA
41171,Elliott County,KY,93.57344632768361,NA
41501,Pike County,KY,12.146892655367232,NA
41553,Pike County,KY,98.72881355932203,NA
41572,Pike County,KY,77.54237288135593,NA
42003,McCracken County,KY,15.18361581920904,NA
42053,McCracken County,KY,96.045197740113,NA
42066,Graves County,KY,55.15536723163842,NA
42141,Barren County,KY,12.641242937853105,NA
42276,Logan County,KY,54.8728813559322,NA
42301,Daviess County,KY,34.32203389830508,NA
42408,Hopkins County,KY,NA,87.73841961852861
42431,Hopkins County,KY,22.387005649717516,NA
42718,Taylor County,KY,12.994350282485875,NA
70001,Jefferson Parish,LA,21.257062146892654,NA
70003,Jefferson Parish,LA,51.34180790960452,NA
70005,Jefferson Parish,LA,33.05084745762712,NA
70043,St. Bernard Parish,LA,NA,95.64032697547684
70047,St. Charles Parish,LA,94.27966101694916,NA
70053,Jefferson Parish,LA,24.152542372881356,NA
70056,Jefferson Parish,LA,39.83050847457627,NA
70062,Jefferson Parish,LA,19.350282485875706,NA
70065,Jefferson Parish,LA,3.1779661016949152,NA
70085,St. Bernard Parish,LA,NA,100
70094,Jefferson Parish,LA,4.166666666666666,NA
70113,Orleans Parish,LA,30.93220338983051,NA
70114,Orleans Parish,LA,10.310734463276836,NA
70115,Orleans Parish,LA,NA,30.24523160762943
70117,Orleans Parish,LA,3.6016949152542375,NA
70118,Orleans Parish,LA,49.293785310734464,NA
70119,Orleans Parish,LA,40.67796610169492,NA
70125,Orleans Parish,LA,34.95762711864407,NA
70127,Orleans Parish,LA,49.57627118644068,NA
70346,Ascension Parish,LA,45.69209039548023,NA
70363,Terrebonne Parish,LA,2.9661016949152543,NA
70374,Lafourche Parish,LA,36.86440677966102,73.56948228882834
70401,Tangipahoa Parish,LA,25,NA
70503,Lafayette Parish,LA,37.005649717514125,NA
70506,Lafayette Parish,LA,5.084745762711865,NA
70592,Lafayette Parish,LA,92.44350282485875,NA
70706,Livingston Parish,LA,64.4774011299435,67.57493188010899
70710,West Baton Rouge Parish,LA,97.66949152542372,NA
70719,West Baton Rouge Parish,LA,99.0819209039548,NA
70726,Livingston Parish,LA,0.9180790960451978,NA
70734,Ascension Parish,LA,88.84180790960453,NA
70737,Ascension Parish,LA,61.08757062146892,NA
70769,Ascension Parish,LA,NA,49.31880108991826
70770,East Baton Rouge Parish,LA,NA,99.1825613079019
70777,East Feliciana Parish,LA,89.26553672316385,NA
70791,East Baton Rouge Parish,LA,61.7231638418079,36.23978201634878
70802,East Baton Rouge Parish,LA,26.836158192090398,NA
70805,East Baton Rouge Parish,LA,1.9067796610169492,NA
70806,East Baton Rouge Parish,LA,13.912429378531074,NA
70808,East Baton Rouge Parish,LA,NA,51.49863760217984
70810,East Baton Rouge Parish,LA,NA,32.9700272479564
70815,East Baton Rouge Parish,LA,15.748587570621469,NA
70816,East Baton Rouge Parish,LA,25.77683615819209,NA
70817,East Baton Rouge Parish,LA,78.88418079096046,NA
71101,Caddo Parish,LA,49.0819209039548,NA
71106,Caddo Parish,LA,69.985875706214685,NA
71108,Caddo Parish,LA,81.42655367231639,NA
71112,Bossier Parish,LA,NA,31.062670299727518
71129,Caddo Parish,LA,89.40677966101694,NA
71201,Ouachita Parish,LA,NA,58.03814713896458
71292,Ouachita Parish,LA,88.34745762711864,NA
71334,Concordia Parish,LA,69.63276836158192,NA
71423,Grant Parish,LA,99.29378531073446,NA
03903,York County,ME,NA,83.37874659400545
03909,York County,ME,53.60169491525424,NA
04038,Cumberland County,ME,53.46045197740112,NA
04096,Cumberland County,ME,96.75141242937853,NA
04106,Cumberland County,ME,33.96892655367232,NA
04240,Androscoggin County,ME,1.2005649717514124,NA
04260,Cumberland County,ME,94.63276836158192,NA
04401,Penobscot County,ME,NA,2.997275204359673
04530,Sagadahoc County,ME,NA,57.49318801089919
04769,Aroostook County,ME,60.73446327683616,NA
04917,Kennebec County,ME,97.59887005649718,NA
04957,Somerset County,ME,75.35310734463276,NA
20705,Prince George's County,MD,77.96610169491525,NA
20747,Prince George's County,MD,45.33898305084746,NA
20852,Montgomery County,MD,NA,69.75476839237056
20855,Montgomery County,MD,91.73728813559322,NA
21035,Anne Arundel County,MD,91.59604519774011,NA
21061,Anne Arundel County,MD,9.251412429378531,NA
21075,Howard County,MD,NA,91.28065395095368
21210,Baltimore city,MD,91.03107344632768,NA
21212,Baltimore city,MD,NA,41.96185286103542
21225,Baltimore city,MD,80.50847457627118,NA
21244,Baltimore County,MD,43.07909604519774,46.321525885558586
21742,Washington County,MD,64.4774011299435,NA
21901,Cecil County,MD,67.58474576271186,NA
21915,Cecil County,MD,98.51694915254238,NA
01040,Hampden County,MA,43.57344632768362,NA
01105,Hampden County,MA,2.0480225988700562,NA
01108,Hampden County,MA,0.7768361581920904,NA
01109,Hampden County,MA,0,NA
01201,Berkshire County,MA,3.1073446327683616,NA
01220,Berkshire County,MA,22.033898305084744,51.22615803814714
01230,Berkshire County,MA,67.44350282485875,NA
01247,Berkshire County,MA,5.155367231638418,NA
01267,Berkshire County,MA,79.87288135593221,NA
01440,Worcester County,MA,0.9887005649717515,NA
01460,Middlesex County,MA,39.97175141242938,NA
01501,Worcester County,MA,32.7683615819209,NA
01516,Worcester County,MA,65.88983050847457,NA
01535,Worcester County,MA,93.85593220338984,NA
01550,Worcester County,MA,7.4858757062146895,NA
01560,Worcester County,MA,98.58757062146893,NA
01568,Worcester County,MA,71.68079096045197,NA
01602,Worcester County,MA,6.426553672316385,NA
01603,Worcester County,MA,NA,80.65395095367847
01607,Worcester County,MA,13.771186440677965,NA
01701,Middlesex County,MA,NA,10.354223433242508
01720,Middlesex County,MA,66.454802259887,NA
01721,Middlesex County,MA,31.92090395480226,NA
01742,Middlesex County,MA,NA,46.86648501362398
01748,Middlesex County,MA,85.6638418079096,NA
01752,Middlesex County,MA,18.2909604519774,NA
01778,Middlesex County,MA,78.53107344632768,NA
01801,Middlesex County,MA,32.55649717514124,NA
01803,Middlesex County,MA,NA,35.42234332425068
01821,Middlesex County,MA,4.23728813559322,NA
01824,Middlesex County,MA,8.47457627118644,NA
01826,Middlesex County,MA,3.531073446327684,NA
01830,Essex County,MA,11.228813559322035,NA
01832,Essex County,MA,34.53389830508475,NA
01841,Essex County,MA,2.2598870056497176,6.539509536784741
01844,Essex County,MA,31.85028248587571,NA
01845,Essex County,MA,59.675141242937855,NA
01850,Middlesex County,MA,6.9209039548022595,NA
01851,Middlesex County,MA,1.3418079096045197,NA
01852,Middlesex County,MA,NA,2.7247956403269753
01867,Middlesex County,MA,27.401129943502823,NA
01876,Middlesex County,MA,48.09322033898305,NA
01880,Middlesex County,MA,6.214689265536723,NA
01887,Middlesex County,MA,5.720338983050848,NA
01902,Essex County,MA,0.07062146892655367,NA
01905,Essex County,MA,57.06214689265536,NA
01913,Essex County,MA,57.7683615819209,NA
01915,Essex County,MA,13.206214689265536,1.9073569482288828
01923,Essex County,MA,2.4717514124293785,NA
01930,Essex County,MA,2.330508474576271,NA
01938,Essex County,MA,45.55084745762712,NA
01940,Essex County,MA,96.82203389830508,NA
01945,Essex County,MA,72.38700564971752,NA
01950,Essex County,MA,51.55367231638418,NA
01969,Essex County,MA,89.4774011299435,NA
01982,Essex County,MA,74.36440677966102,NA
02019,Norfolk County,MA,35.240112994350284,NA
02048,Bristol County,MA,20.40960451977401,NA
02052,Norfolk County,MA,NA,68.93732970027247
02053,Norfolk County,MA,NA,74.93188010899182
02062,Norfolk County,MA,74.64689265536724,NA
02067,Norfolk County,MA,56.779661016949156,48.501362397820166
02072,Norfolk County,MA,52.18926553672316,NA
02093,Norfolk County,MA,55.932203389830505,84.74114441416893
02111,Suffolk County,MA,NA,82.01634877384197
02113,Suffolk County,MA,99.50564971751412,NA
02114,Suffolk County,MA,18.07909604519774,NA
02115,Suffolk County,MA,NA,5.994550408719346
02118,Suffolk County,MA,1.1299435028248588,NA
02119,Suffolk County,MA,NA,5.177111716621254
02120,Suffolk County,MA,NA,63.76021798365122
02121,Suffolk County,MA,29.23728813559322,1.08991825613079
02122,Suffolk County,MA,10.875706214689265,NA
02125,Suffolk County,MA,NA,2.17983651226158
02126,Suffolk County,MA,12.217514124293785,NA
02127,Suffolk County,MA,0.7062146892655368,NA
02128,Suffolk County,MA,10.734463276836157,NA
02130,Suffolk County,MA,7.344632768361582,NA
02131,Suffolk County,MA,48.940677966101696,NA
02132,Suffolk County,MA,NA,44.6866485013624
02136,Suffolk County,MA,13.559322033898304,NA
02138,Middlesex County,MA,12.711864406779661,NA
02140,Middlesex County,MA,17.16101694915254,14.441416893732969
02141,Middlesex County,MA,28.8135593220339,NA
02143,Middlesex County,MA,4.590395480225989,NA
02144,Middlesex County,MA,51.76553672316384,NA
02145,Middlesex County,MA,40.46610169491525,50.68119891008175
02148,Middlesex County,MA,0.3531073446327684,NA
02150,Suffolk County,MA,3.8135593220338984,35.967302452316076
02151,Suffolk County,MA,5.014124293785311,NA
02155,Middlesex County,MA,6.1440677966101696,NA
02169,Norfolk County,MA,11.440677966101696,NA
02171,Norfolk County,MA,61.93502824858758,NA
02176,Middlesex County,MA,6.638418079096045,NA
02180,Middlesex County,MA,13.27683615819209,29.155313351498634
02301,Plymouth County,MA,15.96045197740113,NA
02302,Plymouth County,MA,64.12429378531074,NA
02339,Plymouth County,MA,89.12429378531074,NA
02341,Plymouth County,MA,40.3954802259887,NA
02343,Norfolk County,MA,70.12711864406779,NA
02360,Plymouth County,MA,5.932203389830509,0.8174386920980926
02420,Middlesex County,MA,35.87570621468927,NA
02451,Middlesex County,MA,24.717514124293785,NA
02452,Middlesex County,MA,62.5,NA
02458,Middlesex County,MA,46.04519774011299,NA
02467,Norfolk County,MA,46.61016949152542,NA
02472,Middlesex County,MA,29.30790960451977,10.354223433242508
02474,Middlesex County,MA,41.73728813559322,NA
02481,Norfolk County,MA,56.567796610169495,94.27792915531336
02538,Plymouth County,MA,87.92372881355932,NA
02568,Dukes County,MA,71.89265536723164,NA
02632,Barnstable County,MA,48.44632768361582,NA
02648,Barnstable County,MA,NA,76.83923705722071
02702,Bristol County,MA,89.90112994350282,NA
02703,Bristol County,MA,74.85875706214689,NA
02721,Bristol County,MA,0.14124293785310735,NA
02743,Bristol County,MA,55.6497175141243,NA
02744,Bristol County,MA,36.5819209039548,NA
02745,Bristol County,MA,1.4124293785310735,NA
02748,Bristol County,MA,NA,65.12261580381471
02760,Bristol County,MA,11.299435028248588,NA
02762,Norfolk County,MA,54.94350282485876,NA
02766,Bristol County,MA,18.714689265536723,NA
02771,Bristol County,MA,83.12146892655367,NA
02777,Bristol County,MA,7.415254237288135,18.52861035422343
02780,Bristol County,MA,9.81638418079096,NA
48009,Oakland County,MI,94.77401129943502,NA
48017,Oakland County,MI,NA,81.47138964577657
48021,Macomb County,MI,35.94632768361582,NA
48030,Oakland County,MI,42.01977401129944,NA
48035,Macomb County,MI,9.463276836158192,NA
48036,Macomb County,MI,60.09887005649718,NA
48039,St. Clair County,MI,82.7683615819209,NA
48042,Macomb County,MI,21.610169491525426,33.5149863760218
48044,Macomb County,MI,63.91242937853108,NA
48045,Macomb County,MI,24.22316384180791,22.070844686648503
48047,Macomb County,MI,85.38135593220339,NA
48060,St. Clair County,MI,1.977401129943503,NA
48066,Macomb County,MI,34.39265536723164,NA
48067,Oakland County,MI,35.73446327683616,NA
48070,Oakland County,MI,93.07909604519774,NA
48071,Oakland County,MI,25.56497175141243,NA
48072,Oakland County,MI,50.494350282485875,NA
48073,Oakland County,MI,61.440677966101696,43.596730245231605
48075,Oakland County,MI,30.7909604519774,NA
48076,Oakland County,MI,31.14406779661017,NA
48080,Macomb County,MI,34.81638418079096,NA
48085,Oakland County,MI,NA,35.694822888283376
48092,Macomb County,MI,29.51977401129944,NA
48098,Oakland County,MI,58.61581920903954,45.50408719346049
48103,Washtenaw County,MI,15.324858757062145,NA
48108,Washtenaw County,MI,69.84463276836158,NA
48111,Wayne County,MI,NA,9.264305177111716
48114,Livingston County,MI,78.46045197740112,NA
48125,Wayne County,MI,22.316384180790962,NA
48126,Wayne County,MI,9.887005649717514,NA
48127,Wayne County,MI,NA,25.61307901907357
48134,Wayne County,MI,28.03672316384181,NA
48158,Washtenaw County,MI,NA,95.36784741144415
48170,Wayne County,MI,14.548022598870055,NA
48174,Wayne County,MI,6.3559322033898304,NA
48178,Oakland County,MI,31.92090395480226,NA
48182,Monroe County,MI,60.09887005649718,NA
48185,Wayne County,MI,4.731638418079096,NA
48187,Wayne County,MI,9.957627118644067,NA
48192,Wayne County,MI,18.361581920903955,NA
48195,Wayne County,MI,73.79943502824858,NA
48201,Wayne County,MI,37.71186440677966,NA
48203,Wayne County,MI,15.3954802259887,NA
48205,Wayne County,MI,21.11581920903955,19.346049046321525
48214,Wayne County,MI,NA,31.33514986376022
48219,Wayne County,MI,4.025423728813559,NA
48220,Oakland County,MI,75.56497175141243,NA
48223,Wayne County,MI,13.064971751412429,NA
48224,Wayne County,MI,30.57909604519774,NA
48226,Wayne County,MI,94.0677966101695,NA
48234,Wayne County,MI,7.203389830508475,NA
48235,Wayne County,MI,NA,28.610354223433244
48236,Wayne County,MI,30.43785310734463,NA
48237,Oakland County,MI,52.259887005649716,NA
48238,Wayne County,MI,4.0960451977401124,NA
48239,Wayne County,MI,31.779661016949152,NA
48240,Wayne County,MI,52.40112994350282,NA
48301,Oakland County,MI,86.22881355932203,80.10899182561307
48304,Oakland County,MI,87.28813559322035,NA
48306,Oakland County,MI,85.09887005649718,NA
48309,Oakland County,MI,66.17231638418079,71.38964577656675
48310,Macomb County,MI,64.75988700564972,NA
48313,Macomb County,MI,75.28248587570621,NA
48314,Macomb County,MI,41.03107344632768,NA
48315,Macomb County,MI,39.19491525423729,24.795640326975477
48316,Macomb County,MI,38.983050847457626,54.223433242506815
48317,Macomb County,MI,NA,25.885558583106267
48322,Oakland County,MI,84.88700564971752,NA
48329,Oakland County,MI,32.20338983050847,NA
48331,Oakland County,MI,36.15819209039548,NA
48335,Oakland County,MI,77.8954802259887,NA
48346,Oakland County,MI,88.98305084745762,NA
48348,Oakland County,MI,35.451977401129945,NA
48360,Oakland County,MI,NA,72.75204359673025
48362,Oakland County,MI,74.01129943502825,NA
48363,Oakland County,MI,84.39265536723164,NA
48371,Oakland County,MI,36.228813559322035,NA
48377,Oakland County,MI,86.7231638418079,NA
48382,Oakland County,MI,48.30508474576271,NA
48390,Oakland County,MI,37.570621468926554,NA
48415,Saginaw County,MI,47.81073446327684,NA
48420,Genesee County,MI,NA,53.13351498637602
48422,Sanilac County,MI,91.73728813559322,NA
48429,Shiawassee County,MI,63.347457627118644,NA
48433,Genesee County,MI,52.118644067796616,NA
48446,Lapeer County,MI,14.971751412429379,NA
48451,Genesee County,MI,75.07062146892656,NA
48458,Genesee County,MI,30.36723163841808,NA
48503,Genesee County,MI,18.64406779661017,NA
48504,Genesee County,MI,18.149717514124294,NA
48505,Genesee County,MI,NA,86.64850136239782
48507,Genesee County,MI,9.392655367231638,NA
48603,Saginaw County,MI,12.5,NA
48618,Midland County,MI,95.69209039548022,NA
48626,Saginaw County,MI,82.55649717514125,NA
48640,Midland County,MI,9.180790960451978,NA
48657,Midland County,MI,NA,77.3841961852861
48813,Eaton County,MI,37.35875706214689,NA
48823,Ingham County,MI,32.83898305084746,33.787465940054496
48837,Eaton County,MI,56.7090395480226,NA
48838,Montcalm County,MI,NA,37.32970027247956
48842,Ingham County,MI,37.217514124293785,NA
48847,Gratiot County,MI,97.74011299435028,NA
48850,Montcalm County,MI,NA,89.3732970027248
48854,Ingham County,MI,48.87005649717514,NA
48858,Isabella County,MI,5.367231638418079,NA
48864,Ingham County,MI,72.17514124293785,57.765667574931875
48879,Clinton County,MI,49.505649717514125,NA
48893,Isabella County,MI,73.30508474576271,NA
49008,Kalamazoo County,MI,63.771186440677965,NA
49009,Kalamazoo County,MI,12.782485875706215,NA
49024,Kalamazoo County,MI,26.34180790960452,NA
49032,St. Joseph County,MI,99.78813559322035,NA
49048,Kalamazoo County,MI,17.86723163841808,NA
49053,Kalamazoo County,MI,79.30790960451978,NA
49058,Barry County,MI,30.225988700564972,49.59128065395095
49073,Barry County,MI,NA,96.18528610354224
49079,Van Buren County,MI,70.2683615819209,NA
49091,St. Joseph County,MI,43.85593220338983,NA
49093,St. Joseph County,MI,29.943502824858758,NA
49099,St. Joseph County,MI,89.4774011299435,NA
49201,Jackson County,MI,74.71751412429379,NA
49221,Lenawee County,MI,2.8954802259887007,NA
49301,Kent County,MI,67.93785310734464,NA
49306,Kent County,MI,86.51129943502825,NA
49307,Mecosta County,MI,94.985875706214685,68.66485013623979
49315,Kent County,MI,44.98587570621469,NA
49316,Kent County,MI,88.70056497175142,NA
49319,Kent County,MI,61.86440677966102,NA
49327,Newaygo County,MI,76.8361581920904,NA
49332,Mecosta County,MI,NA,91.55313351498637
49337,Newaygo County,MI,67.72598870056498,NA
49341,Kent County,MI,60.663841807909606,NA
49345,Kent County,MI,94.49152542372882,66.21253405994551
49348,Allegan County,MI,NA,59.67302452316077
49401,Ottawa County,MI,57.55649717514124,NA
49412,Newaygo County,MI,64.26553672316385,NA
49417,Ottawa County,MI,66.94915254237289,40.32697547683924
49418,Kent County,MI,37.14689265536723,NA
49424,Ottawa County,MI,15.466101694915254,NA
49426,Ottawa County,MI,NA,47.13896457765668
49428,Ottawa County,MI,NA,37.87465940054496
49431,Mason County,MI,32.41525423728814,NA
49437,Muskegon County,MI,96.39830508474576,NA
49444,Muskegon County,MI,8.82768361581921,NA
49445,Muskegon County,MI,35.31073446327684,NA
49451,Muskegon County,MI,98.30508474576271,NA
49456,Ottawa County,MI,43.43220338983051,NA
49503,Kent County,MI,NA,46.59400544959128
49504,Kent County,MI,62.92372881355932,NA
49505,Kent County,MI,23.022598870056495,NA
49506,Kent County,MI,74.29378531073446,NA
49507,Kent County,MI,24.081920903954803,NA
49519,Kent County,MI,16.94915254237288,NA
49525,Kent County,MI,33.89830508474576,NA
49546,Kent County,MI,NA,39.782016348773844
49548,Kent County,MI,29.731638418079097,NA
49601,Wexford County,MI,86.86440677966102,NA
49677,Osceola County,MI,92.86723163841808,NA
49686,Grand Traverse County,MI,46.89265536723164,NA
49706,Emmet County,MI,94.70338983050848,NA
49720,Charlevoix County,MI,83.33333333333334,NA
49721,Cheboygan County,MI,48.728813559322035,NA
49740,Emmet County,MI,91.52542372881356,NA
49783,Chippewa County,MI,20.62146892655367,NA
49801,Dickinson County,MI,NA,50.95367847411444
49837,Delta County,MI,51.9774011299435,NA
49849,Marquette County,MI,76.27118644067797,NA
49855,Marquette County,MI,14.901129943502825,NA
49866,Marquette County,MI,81.99152542372882,NA
55116,Ramsey County,MN,NA,67.30245231607628
55120,Dakota County,MN,99.71751412429379,NA
55122,Dakota County,MN,65.32485875706215,NA
55403,Hennepin County,MN,55.29661016949152,NA
55404,Hennepin County,MN,21.75141242937853,NA
55407,Hennepin County,MN,27.04802259887006,NA
55408,Hennepin County,MN,11.511299435028247,NA
55411,Hennepin County,MN,1.8361581920903955,NA
55412,Hennepin County,MN,84.03954802259888,NA
55417,Hennepin County,MN,48.516949152542374,NA
55418,Hennepin County,MN,27.33050847457627,NA
55421,Anoka County,MN,20.903954802259886,NA
55443,Hennepin County,MN,30.86158192090395,NA
55448,Anoka County,MN,39.61864406779661,NA
55720,Carlton County,MN,NA,52.86103542234333
55792,St. Louis County,MN,68.2909604519774,NA
55805,St. Louis County,MN,NA,77.9291553133515
55812,St. Louis County,MN,92.72598870056498,NA
55981,Wabasha County,MN,99.57627118644068,NA
55987,Winona County,MN,7.69774011299435,NA
56073,Brown County,MN,21.822033898305087,NA
56352,Stearns County,MN,86.15819209039547,NA
56401,Crow Wing County,MN,54.66101694915254,NA
56511,Becker County,MN,NA,99.72752043596729
56636,Itasca County,MN,95.62146892655367,NA
56701,Pennington County,MN,50.7768361581921,NA
56721,Polk County,MN,53.38983050847458,NA
56751,Roseau County,MN,NA,97.54768392370572
38666,Panola County,MS,93.99717514124293,NA
38703,Washington County,MS,70.2683615819209,NA
39046,Madison County,MS,27.82485875706215,NA
39047,Rankin County,MS,52.048022598870055,NA
39056,Hinds County,MS,62.994350282485875,NA
39073,Rankin County,MS,NA,68.11989100817438
39092,Scott County,MS,98.23446327683615,NA
39211,Hinds County,MS,63.771186440677965,NA
39212,Hinds County,MS,21.1864406779661,NA
39213,Hinds County,MS,34.25141242937853,NA
39301,Lauderdale County,MS,18.997175141242938,NA
39452,George County,MS,25.70621468926554,NA
39565,Jackson County,MS,62.217514124293785,NA
39744,Webster County,MS,79.37853107344633,NA
39773,Clay County,MS,66.52542372881356,NA
63026,St. Louis County,MO,34.74576271186441,NA
63028,Jefferson County,MO,23.728813559322035,NA
63119,St. Louis County,MO,NA,82.83378746594006
63121,St. Louis County,MO,29.166666666666668,NA
63125,St. Louis County,MO,41.45480225988701,NA
63857,Dunklin County,MO,NA,62.125340599455036
64053,Jackson County,MO,79.02542372881356,NA
64057,Jackson County,MO,42.65536723163842,NA
64081,Jackson County,MO,44.632768361581924,NA
64086,Jackson County,MO,33.33333333333333,NA
64093,Johnson County,MO,34.18079096045198,NA
64127,Jackson County,MO,5.296610169491525,NA
64130,Jackson County,MO,5.649717514124294,NA
64134,Jackson County,MO,13.700564971751412,NA
64152,Platte County,MO,19.915254237288135,NA
64153,Platte County,MO,86.37005649717514,NA
64155,Clay County,MO,22.52824858757062,NA
64503,Buchanan County,MO,NA,41.41689373297003
64506,Buchanan County,MO,19.2090395480226,NA
64507,Buchanan County,MO,26.27118644067797,NA
65233,Cooper County,MO,66.03107344632768,NA
65301,Pettis County,MO,3.036723163841808,NA
65401,Phelps County,MO,36.72316384180791,NA
65613,Polk County,MO,NA,45.23160762942779
65804,Greene County,MO,61.51129943502824,NA
65807,Greene County,MO,59.32203389830508,NA
59011,Sweet Grass County,MT,NA,99.45504087193461
59270,Richland County,MT,87.35875706214689,NA
59404,Cascade County,MT,43.71468926553672,NA
59715,Gallatin County,MT,78.10734463276836,44.4141689373297
59718,Gallatin County,MT,80.64971751412429,NA
59801,Missoula County,MT,85.45197740112994,NA
59901,Flathead County,MT,NA,4.904632152588556
59923,Lincoln County,MT,60.80508474576271,NA
68104,Douglas County,NE,25.423728813559322,NA
68117,Douglas County,NE,92.30225988700565,NA
68333,Saline County,NE,NA,98.09264305177112
68801,Hall County,NE,83.61581920903954,NA
89144,Clark County,NV,93.64406779661016,NA
89423,Douglas County,NV,81.49717514124293,NA
89436,Washoe County,NV,22.66949152542373,NA
89445,Humboldt County,NV,NA,85.01362397820164
89509,Washoe County,NV,NA,53.40599455040872
03032,Rockingham County,NH,81.92090395480226,NA
03051,Hillsborough County,NH,22.387005649717516,NA
03054,Hillsborough County,NH,31.35593220338983,NA
03062,Hillsborough County,NH,18.573446327683616,NA
03063,Hillsborough County,NH,NA,52.31607629427793
03076,Hillsborough County,NH,NA,88.5558583106267
03079,Rockingham County,NH,NA,23.978201634877383
03103,Hillsborough County,NH,25.98870056497175,NA
03104,Hillsborough County,NH,14.336158192090394,NA
03220,Belknap County,NH,NA,83.10626702997274
03431,Cheshire County,NH,29.02542372881356,NA
03446,Cheshire County,NH,NA,89.64577656675749
03470,Cheshire County,NH,NA,98.63760217983652
03743,Sullivan County,NH,53.31920903954802,NA
03865,Rockingham County,NH,65.18361581920904,NA
07002,Hudson County,NJ,9.745762711864407,NA
07003,Essex County,NJ,8.615819209039548,NA
07012,Passaic County,NJ,82.41525423728814,NA
07058,Morris County,NJ,98.0225988700565,NA
07105,Essex County,NJ,12.076271186440678,NA
07109,Essex County,NJ,14.83050847457627,NA
07403,Passaic County,NJ,54.378531073446325,NA
07470,Passaic County,NJ,16.38418079096045,NA
07501,Passaic County,NJ,89.61864406779661,NA
07522,Passaic County,NJ,NA,38.41961852861036
08004,Camden County,NJ,54.94350282485876,NA
08043,Camden County,NJ,42.867231638418076,NA
08051,Gloucester County,NJ,83.05084745762711,NA
08054,Burlington County,NJ,23.587570621468927,NA
08057,Burlington County,NJ,59.6045197740113,NA
08065,Burlington County,NJ,72.03389830508475,NA
08081,Camden County,NJ,0.847457627118644,NA
08105,Camden County,NJ,0.5649717514124294,NA
08204,Cape May County,NJ,NA,28.337874659400548
08226,Cape May County,NJ,57.909604519774014,NA
08242,Cape May County,NJ,NA,79.291553133515
08835,Somerset County,NJ,76.55367231638418,NA
08854,Middlesex County,NJ,64.05367231638418,NA
08859,Middlesex County,NJ,50,NA
87002,Valencia County,NM,48.940677966101696,NA
87059,Bernalillo County,NM,90.11299435028248,NA
87102,Bernalillo County,NM,21.398305084745765,58.58310626702997
87105,Bernalillo County,NM,37.429378531073446,NA
87106,Bernalillo County,NM,79.66101694915254,NA
87107,Bernalillo County,NM,64.61864406779661,29.70027247956403
87108,Bernalillo County,NM,80.29661016949152,NA
87110,Bernalillo County,NM,58.75706214689266,NA
87111,Bernalillo County,NM,2.6836158192090394,NA
87114,Bernalillo County,NM,51.483050847457626,NA
87120,Bernalillo County,NM,66.87853107344633,NA
87121,Bernalillo County,NM,38.771186440677965,NA
87123,Bernalillo County,NM,40.25423728813559,NA
87124,Sandoval County,NM,70.40960451977402,NA
87144,Sandoval County,NM,20.33898305084746,NA
87301,McKinley County,NM,25.49435028248588,NA
87506,Santa Fe County,NM,94.2090395480226,NA
88345,Lincoln County,NM,73.65819209039547,NA
10002,New York County,NY,70.62146892655367,27.247956403269757
10009,New York County,NY,NA,7.084468664850137
10023,New York County,NY,NA,18.256130790190735
10027,New York County,NY,3.8841807909604524,NA
10029,New York County,NY,49.929378531073446,0.544959128065395
10030,New York County,NY,54.80225988700565,73.29700272479565
10032,New York County,NY,36.51129943502825,NA
10033,New York County,NY,16.666666666666664,NA
10035,New York County,NY,25.353107344632768,NA
10065,New York County,NY,NA,90.73569482288828
10305,Richmond County,NY,19.562146892655367,NA
10314,Richmond County,NY,12.85310734463277,70.02724795640327
10451,Bronx County,NY,17.019774011299436,40.87193460490463
10452,Bronx County,NY,72.95197740112994,NA
10453,Bronx County,NY,16.73728813559322,NA
10454,Bronx County,NY,NA,64.85013623978202
10456,Bronx County,NY,75.7768361581921,0
10457,Bronx County,NY,NA,1.6348773841961852
10458,Bronx County,NY,47.88135593220339,9.536784741144414
10460,Bronx County,NY,1.059322033898305,NA
10461,Bronx County,NY,58.545197740113,64.57765667574932
10462,Bronx County,NY,NA,32.42506811989101
10463,Bronx County,NY,62.85310734463276,NA
10465,Bronx County,NY,62.3587570621469,NA
10466,Bronx County,NY,63.4180790960452,3.8147138964577656
10467,Bronx County,NY,49.85875706214689,NA
10468,Bronx County,NY,NA,48.501362397820166
10469,Bronx County,NY,2.189265536723164,NA
10470,Bronx County,NY,52.33050847457628,NA
10472,Bronx County,NY,1.2711864406779663,NA
10473,Bronx County,NY,3.4604519774011298,NA
10550,Westchester County,NY,24.364406779661017,67.8474114441417
10583,Westchester County,NY,85.94632768361582,NA
10603,Westchester County,NY,74.57627118644068,NA
10704,Westchester County,NY,68.92655367231639,NA
10954,Rockland County,NY,54.30790960451978,NA
10989,Rockland County,NY,97.52824858757062,NA
11101,Queens County,NY,NA,76.29427792915531
11103,Queens County,NY,NA,71.66212534059946
11201,Kings County,NY,20.833333333333336,NA
11203,Kings County,NY,NA,38.69209809264305
11206,Kings County,NY,15.677966101694915,17.71117166212534
11207,Kings County,NY,0.2824858757062147,NA
11208,Kings County,NY,41.38418079096045,NA
11210,Kings County,NY,NA,27.79291553133515
11211,Kings County,NY,14.548022598870055,NA
11212,Kings County,NY,6.567796610169492,NA
11215,Kings County,NY,65.88983050847457,NA
11216,Kings County,NY,NA,11.444141689373296
11217,Kings County,NY,71.9632768361582,NA
11220,Kings County,NY,18.85593220338983,NA
11221,Kings County,NY,32.6271186440678,NA
11223,Kings County,NY,52.824858757062145,NA
11224,Kings County,NY,19.42090395480226,NA
11225,Kings County,NY,23.093220338983052,NA
11226,Kings County,NY,37.5,50.40871934604905
11230,Kings County,NY,NA,12.534059945504087
11233,Kings County,NY,NA,35.14986376021799
11237,Kings County,NY,56.355932203389834,60.49046321525886
11238,Kings County,NY,NA,59.40054495912806
11249,Kings County,NY,65.46610169491525,NA
11354,Queens County,NY,75.98870056497175,NA
11367,Queens County,NY,75.70621468926554,NA
11368,Queens County,NY,6.285310734463277,NA
11369,Queens County,NY,55.225988700564976,NA
11372,Queens County,NY,77.25988700564972,NA
11373,Queens County,NY,NA,22.3433242506812
11377,Queens County,NY,66.38418079096046,NA
11378,Queens County,NY,62.07627118644068,NA
11385,Queens County,NY,8.757062146892656,14.168937329700274
11416,Queens County,NY,47.24576271186441,NA
11423,Queens County,NY,50.1412429378531,NA
11432,Queens County,NY,26.20056497175141,NA
11436,Queens County,NY,NA,82.28882833787466
11550,Nassau County,NY,38.06497175141243,22.888283378746593
11757,Suffolk County,NY,73.44632768361582,NA
12010,Montgomery County,NY,NA,36.51226158038147
12019,Saratoga County,NY,75.84745762711864,NA
12033,Rensselaer County,NY,90.74858757062147,NA
12065,Saratoga County,NY,23.23446327683616,NA
12189,Albany County,NY,71.75141242937853,NA
12208,Albany County,NY,61.7231638418079,NA
12302,Schenectady County,NY,84.53389830508475,NA
12303,Schenectady County,NY,37.07627118644068,NA
12306,Schenectady County,NY,31.42655367231638,NA
12307,Schenectady County,NY,93.14971751412429,NA
12834,Washington County,NY,NA,79.56403269754769
13021,Cayuga County,NY,NA,3.5422343324250685
13041,Onondaga County,NY,69.2090395480226,NA
13045,Cortland County,NY,20.55084745762712,NA
13080,Onondaga County,NY,97.95197740112994,NA
13104,Onondaga County,NY,50.847457627118644,NA
13165,Seneca County,NY,26.624293785310734,NA
13166,Cayuga County,NY,79.16666666666666,NA
13203,Onondaga County,NY,19.63276836158192,NA
13205,Onondaga County,NY,NA,55.313351498637594
13208,Onondaga County,NY,12.570621468926554,NA
13316,Oneida County,NY,62.6412429378531,92.37057220708446
13335,Otsego County,NY,90.04237288135593,NA
13350,Herkimer County,NY,NA,43.05177111716621
13365,Herkimer County,NY,NA,41.14441416893733
13407,Herkimer County,NY,59.81638418079096,NA
13460,Chenango County,NY,92.514124293785315,NA
13601,Jefferson County,NY,53.672316384180796,NA
13624,Jefferson County,NY,96.32768361581921,NA
13625,St. Lawrence County,NY,96.89265536723164,NA
13656,Jefferson County,NY,96.11581920903954,NA
13660,St. Lawrence County,NY,97.1045197740113,NA
13668,St. Lawrence County,NY,93.14971751412429,NA
13691,Jefferson County,NY,99.2231638418079,NA
13733,Chenango County,NY,68.4322033898305,NA
13795,Broome County,NY,90.3954802259887,NA
13825,Otsego County,NY,83.26271186440678,NA
13856,Delaware County,NY,NA,45.776566757493185
13901,Broome County,NY,2.824858757062147,NA
13905,Broome County,NY,NA,7.901907356948229
14004,Erie County,NY,92.16101694915254,NA
14020,Genesee County,NY,12.288135593220339,17.983651226158038
14042,Cattaraugus County,NY,87.99435028248588,NA
14043,Erie County,NY,31.63841807909605,NA
14059,Erie County,NY,70.55084745762711,NA
14067,Niagara County,NY,79.37853107344633,NA
14068,Erie County,NY,90.81920903954803,NA
14075,Erie County,NY,7.909604519774012,NA
14094,Niagara County,NY,14.40677966101695,NA
14108,Niagara County,NY,55.7909604519774,NA
14120,Niagara County,NY,3.672316384180791,NA
14174,Niagara County,NY,93.36158192090396,NA
14201,Erie County,NY,46.04519774011299,NA
14204,Erie County,NY,73.23446327683615,65.9400544959128
14209,Erie County,NY,68.22033898305084,NA
14211,Erie County,NY,32.132768361581924,NA
14214,Erie County,NY,30.508474576271187,NA
14216,Erie County,NY,27.612994350282488,NA
14220,Erie County,NY,14.26553672316384,NA
14221,Erie County,NY,11.793785310734464,NA
14222,Erie County,NY,NA,76.02179836512262
14224,Erie County,NY,24.576271186440678,NA
14225,Erie County,NY,8.050847457627118,NA
14226,Erie County,NY,29.44915254237288,NA
14420,Monroe County,NY,44.2090395480226,NA
14424,Ontario County,NY,NA,13.35149863760218
14425,Ontario County,NY,47.31638418079096,NA
14428,Monroe County,NY,43.92655367231638,NA
14437,Livingston County,NY,NA,53.950953678474114
14445,Monroe County,NY,37.71186440677966,NA
14450,Monroe County,NY,17.09039548022599,37.60217983651226
14467,Monroe County,NY,90.96045197740112,NA
14468,Monroe County,NY,66.73728813559322,NA
14469,Ontario County,NY,40.04237288135593,NA
14472,Monroe County,NY,46.39830508474576,NA
14482,Genesee County,NY,50.282485875706215,NA
14485,Livingston County,NY,79.59039548022598,NA
14487,Livingston County,NY,NA,67.0299727520436
14502,Wayne County,NY,59.11016949152542,NA
14513,Wayne County,NY,4.307909604519774,NA
14519,Wayne County,NY,NA,71.93460490463215
14522,Wayne County,NY,NA,34.332425068119896
14526,Monroe County,NY,63.559322033898304,NA
14527,Yates County,NY,26.55367231638418,NA
14534,Monroe County,NY,80.22598870056498,NA
14551,Wayne County,NY,NA,77.11171662125341
14559,Monroe County,NY,57.55649717514124,NA
14564,Ontario County,NY,50.42372881355932,NA
14568,Wayne County,NY,64.68926553672316,NA
14580,Monroe County,NY,84.7457627118644,21.798365122615802
14586,Monroe County,NY,31.56779661016949,NA
14589,Wayne County,NY,33.61581920903955,54.495912806539515
14606,Monroe County,NY,16.87853107344633,16.076294277929154
14607,Monroe County,NY,84.18079096045197,NA
14609,Monroe County,NY,22.810734463276834,14.986376021798364
14610,Monroe County,NY,61.5819209039548,83.92370572207084
14611,Monroe County,NY,5.861581920903955,NA
14612,Monroe County,NY,54.23728813559322,NA
14613,Monroe County,NY,11.652542372881355,NA
14615,Monroe County,NY,11.581920903954803,NA
14616,Monroe County,NY,58.40395480225988,NA
14617,Monroe County,NY,59.18079096045198,NA
14618,Monroe County,NY,76.12994350282486,NA
14620,Monroe County,NY,68.14971751412429,NA
14621,Monroe County,NY,24.929378531073446,4.35967302452316
14622,Monroe County,NY,23.30508474576271,NA
14623,Monroe County,NY,82.34463276836158,NA
14624,Monroe County,NY,1.694915254237288,NA
14625,Monroe County,NY,46.25706214689266,NA
14626,Monroe County,NY,80.014124293785315,NA
14701,Chautauqua County,NY,17.372881355932204,NA
14719,Cattaraugus County,NY,NA,97.00272479564033
14727,Allegany County,NY,97.03389830508475,NA
14737,Cattaraugus County,NY,85.45197740112994,NA
14755,Cattaraugus County,NY,95.33898305084746,NA
14760,Cattaraugus County,NY,85.16949152542372,NA
14779,Cattaraugus County,NY,88.06497175141243,NA
14892,Tioga County,NY,49.64689265536723,NA
14895,Allegany County,NY,28.53107344632768,NA
27018,Yadkin County,NC,95.19774011299435,NA
27104,Forsyth County,NC,61.016949152542374,NA
27106,Forsyth County,NC,13.559322033898304,NA
27127,Forsyth County,NC,43.36158192090395,NA
27217,Alamance County,NC,40.96045197740113,NA
27244,Alamance County,NC,85.73446327683615,NA
27284,Forsyth County,NC,5.790960451977401,NA
27292,Davidson County,NC,3.389830508474576,NA
27295,Davidson County,NC,2.754237288135593,NA
27313,Guilford County,NC,88.62994350282486,NA
27320,Rockingham County,NC,11.158192090395481,12.806539509536785
27330,Lee County,NC,21.680790960451976,NA
27360,Davidson County,NC,NA,7.3569482288828345
27405,Guilford County,NC,10.805084745762713,16.893732970027248
27514,Orange County,NC,58.05084745762712,NA
27516,Orange County,NC,63.13559322033898,NA
27517,Orange County,NC,NA,34.60490463215259
27573,Person County,NC,43.64406779661017,NA
27604,Wake County,NC,31.92090395480226,NA
27617,Wake County,NC,99.36440677966102,NA
27701,Durham County,NC,45.90395480225989,NA
27704,Durham County,NC,37.994350282485875,NA
27707,Durham County,NC,72.74011299435028,NA
27713,Durham County,NC,NA,23.705722070844686
27828,Pitt County,NC,67.72598870056498,NA
27949,Dare County,NC,89.75988700564972,NA
28040,Rutherford County,NC,82.98022598870057,NA
28075,Cabarrus County,NC,NA,81.19891008174388
28107,Cabarrus County,NC,95.2683615819209,NA
28138,Rowan County,NC,60.59322033898306,NA
28139,Rutherford County,NC,68.85593220338984,NA
28173,Union County,NC,37.64124293785311,NA
28174,Union County,NC,82.90960451977402,NA
28226,Mecklenburg County,NC,78.60169491525424,NA
28270,Mecklenburg County,NC,59.03954802259888,NA
28374,Moore County,NC,NA,62.125340599455036
28401,New Hanover County,NC,10.16949152542373,NA
28403,New Hanover County,NC,38.62994350282486,NA
28405,New Hanover County,NC,33.54519774011299,NA
28409,New Hanover County,NC,38.48870056497175,NA
28412,New Hanover County,NC,15.53672316384181,71.11716621253406
28428,New Hanover County,NC,NA,93.46049046321527
28466,Duplin County,NC,NA,97.82016348773843
28469,Brunswick County,NC,NA,95.09536784741145
28540,Onslow County,NC,25.635593220338983,NA
28546,Onslow County,NC,25.21186440677966,NA
28574,Onslow County,NC,88.06497175141243,NA
28621,Surry County,NC,NA,62.94277929155313
28704,Buncombe County,NC,67.514124293785315,NA
28715,Buncombe County,NC,NA,61.58038147138964
28716,Haywood County,NC,49.0819209039548,NA
28719,Jackson County,NC,44.06779661016949,NA
28721,Haywood County,NC,74.78813559322035,NA
28753,Madison County,NC,78.954802259887,NA
28756,Polk County,NC,93.50282485875707,NA
28778,Buncombe County,NC,87.71186440677965,NA
28785,Haywood County,NC,91.10169491525424,NA
28906,Cherokee County,NC,47.951977401129945,NA
58201,Grand Forks County,ND,85.80508474576271,NA
58203,Grand Forks County,ND,52.47175141242938,NA
58301,Ramsey County,ND,68.64406779661016,NA
58701,Ward County,ND,10.028248587570623,NA
43019,Knox County,OH,NA,96.73024523160763
43055,Licking County,OH,25.847457627118644,NA
43056,Licking County,OH,69.56214689265536,NA
43062,Licking County,OH,34.11016949152542,NA
43123,Franklin County,OH,NA,11.1716621253406
43162,Madison County,OH,90.5367231638418,NA
43204,Franklin County,OH,4.519774011299435,NA
43211,Franklin County,OH,10.59322033898305,NA
43230,Franklin County,OH,16.031073446327685,NA
43232,Franklin County,OH,NA,19.618528610354225
43412,Lucas County,OH,96.53954802259888,NA
43420,Sandusky County,OH,10.098870056497175,NA
43521,Fulton County,OH,99.85875706214689,NA
43528,Lucas County,OH,71.39830508474576,NA
43537,Lucas County,OH,28.31920903954802,NA
43604,Lucas County,OH,72.88135593220339,NA
43607,Lucas County,OH,58.26271186440678,NA
43609,Lucas County,OH,55.86158192090396,NA
43610,Lucas County,OH,86.65254237288136,NA
43612,Lucas County,OH,3.3192090395480225,NA
43613,Lucas County,OH,2.401129943502825,NA
43614,Lucas County,OH,10.522598870056497,NA
43615,Lucas County,OH,19.491525423728813,59.945504087193456
43701,Muskingum County,OH,NA,1.3623978201634876
43756,Morgan County,OH,82.55649717514125,NA
43812,Coshocton County,OH,4.4491525423728815,NA
43935,Belmont County,OH,45.97457627118644,NA
44004,Ashtabula County,OH,1.5536723163841808,NA
44017,Cuyahoga County,OH,68.07909604519774,NA
44030,Ashtabula County,OH,54.590395480225986,NA
44035,Lorain County,OH,32.27401129943503,NA
44041,Ashtabula County,OH,42.58474576271186,NA
44052,Lorain County,OH,16.3135593220339,NA
44057,Lake County,OH,27.75423728813559,NA
44070,Cuyahoga County,OH,22.245762711864405,NA
44077,Lake County,OH,18.785310734463277,NA
44087,Summit County,OH,39.90112994350282,NA
44092,Lake County,OH,NA,86.92098092643052
44095,Lake County,OH,69.70338983050848,NA
44102,Cuyahoga County,OH,35.59322033898305,NA
44103,Cuyahoga County,OH,53.17796610169492,NA
44107,Cuyahoga County,OH,28.389830508474578,NA
44108,Cuyahoga County,OH,17.30225988700565,NA
44109,Cuyahoga County,OH,0.211864406779661,NA
44110,Cuyahoga County,OH,33.82768361581921,NA
44111,Cuyahoga County,OH,10.94632768361582,NA
44112,Cuyahoga County,OH,31.07344632768362,NA
44113,Cuyahoga County,OH,6.991525423728813,NA
44118,Cuyahoga County,OH,83.19209039548022,NA
44120,Cuyahoga County,OH,2.11864406779661,NA
44125,Cuyahoga County,OH,0.6355932203389831,NA
44126,Cuyahoga County,OH,77.61299435028248,NA
44128,Cuyahoga County,OH,NA,3.2697547683923704
44130,Cuyahoga County,OH,76.69491525423729,NA
44132,Cuyahoga County,OH,81.35593220338984,NA
44133,Cuyahoga County,OH,75.14124293785311,NA
44134,Cuyahoga County,OH,NA,4.087193460490464
44135,Cuyahoga County,OH,17.796610169491526,NA
44136,Cuyahoga County,OH,27.54237288135593,NA
44137,Cuyahoga County,OH,4.80225988700565,NA
44139,Cuyahoga County,OH,40.60734463276836,56.403269754768395
44142,Cuyahoga County,OH,26.9774011299435,NA
44143,Cuyahoga County,OH,87.35875706214689,NA
44145,Cuyahoga County,OH,47.740112994350284,34.05994550408719
44146,Cuyahoga County,OH,5.5790960451977405,NA
44203,Summit County,OH,5.2259887005649714,NA
44212,Medina County,OH,18.220338983050848,NA
44231,Portage County,OH,85.94632768361582,NA
44236,Summit County,OH,52.54237288135594,NA
44240,Portage County,OH,27.25988700564972,NA
44256,Medina County,OH,20.692090395480225,NA
44281,Medina County,OH,53.813559322033896,NA
44286,Summit County,OH,NA,92.91553133514986
44287,Wayne County,OH,81.85028248587571,NA
44301,Summit County,OH,29.943502824858758,NA
44306,Summit County,OH,8.968926553672317,NA
44313,Summit County,OH,28.67231638418079,NA
44403,Trumbull County,OH,84.81638418079096,NA
44425,Trumbull County,OH,30.64971751412429,NA
44432,Columbiana County,OH,85.87570621468926,NA
44446,Trumbull County,OH,14.05367231638418,NA
44512,Mahoning County,OH,9.6045197740113,NA
44514,Mahoning County,OH,NA,36.78474114441417
44646,Stark County,OH,8.686440677966102,16.62125340599455
44820,Crawford County,OH,54.09604519774012,NA
44833,Crawford County,OH,63.983050847457626,NA
44837,Huron County,OH,85.02824858757062,NA
44839,Erie County,OH,80.36723163841808,NA
44842,Ashland County,OH,90.18361581920904,NA
44870,Erie County,OH,41.87853107344633,NA
44889,Huron County,OH,NA,69.20980926430518
44903,Richland County,OH,48.65819209039548,NA
44904,Richland County,OH,92.65536723163842,NA
45011,Butler County,OH,1.6242937853107344,NA
45014,Butler County,OH,15.04237288135593,NA
45056,Butler County,OH,88.5593220338983,NA
45133,Highland County,OH,20.76271186440678,NA
45150,Clermont County,OH,68.2909604519774,NA
45154,Brown County,OH,77.33050847457628,NA
45177,Clinton County,OH,23.44632768361582,NA
45203,Hamilton County,OH,91.38418079096046,NA
45204,Hamilton County,OH,84.32203389830508,NA
45214,Hamilton County,OH,46.82203389830508,NA
45230,Hamilton County,OH,51.41242937853108,NA
45344,Clark County,OH,56.99152542372882,NA
45356,Miami County,OH,NA,15.531335149863759
45405,Montgomery County,OH,23.375706214689266,NA
45417,Montgomery County,OH,7.838983050847458,NA
45440,Montgomery County,OH,59.18079096045198,NA
45458,Montgomery County,OH,37.28813559322034,NA
45601,Ross County,OH,0.423728813559322,0.2724795640326975
45631,Gallia County,OH,10.38135593220339,NA
45638,Lawrence County,OH,3.7429378531073447,NA
45660,Adams County,OH,73.30508474576271,NA
45680,Lawrence County,OH,13.347457627118645,NA
45801,Allen County,OH,11.652542372881355,NA
45805,Allen County,OH,13.983050847457626,NA
73010,McClain County,OK,44.70338983050847,NA
73012,Oklahoma County,OK,46.68079096045198,NA
73086,Murray County,OK,NA,73.02452316076294
73401,Carter County,OK,42.3728813559322,NA
73439,Marshall County,OK,NA,98.36512261580381
73505,Comanche County,OK,22.1045197740113,NA
73521,Jackson County,OK,87.78248587570621,NA
73601,Custer County,OK,63.48870056497176,NA
74301,Craig County,OK,NA,80.92643051771117
74354,Ottawa County,OK,51.90677966101694,NA
74859,Okfuskee County,OK,NA,91.82561307901908
74948,Sequoyah County,OK,62.42937853107344,NA
97006,Washington County,OR,NA,38.14713896457766
97030,Multnomah County,OR,17.584745762711865,NA
97035,Clackamas County,OR,71.53954802259888,NA
97103,Clatsop County,OR,NA,57.22070844686649
97206,Multnomah County,OR,14.194915254237289,NA
97236,Multnomah County,OR,50.706214689265536,NA
97305,Marion County,OR,NA,61.03542234332425
97321,Linn County,OR,27.189265536723163,NA
97471,Douglas County,OR,17.65536723163842,NA
97479,Douglas County,OR,71.75141242937853,NA
97914,Malheur County,OR,22.951977401129945,NA
15009,Beaver County,PA,95.55084745762711,49.04632152588556
15010,Beaver County,PA,53.036723163841806,NA
15025,Allegheny County,PA,48.23446327683616,NA
15108,Allegheny County,PA,38.84180790960452,NA
15136,Allegheny County,PA,29.37853107344633,NA
15146,Allegheny County,PA,NA,39.509536784741144
15210,Allegheny County,PA,15.254237288135593,NA
15219,Allegheny County,PA,78.24858757062147,NA
15220,Allegheny County,PA,70.69209039548022,NA
15221,Allegheny County,PA,47.59887005649718,NA
15235,Allegheny County,PA,NA,21.525885558583106
15237,Allegheny County,PA,47.951977401129945,NA
15301,Washington County,PA,27.11864406779661,NA
15401,Fayette County,PA,7.274011299435028,NA
15501,Somerset County,PA,NA,60.217983651226156
15656,Westmoreland County,PA,90.18361581920904,NA
15683,Westmoreland County,PA,NA,69.48228882833789
15902,Cambria County,PA,42.090395480225986,NA
15904,Cambria County,PA,58.827683615819204,NA
15906,Cambria County,PA,55.367231638418076,NA
15909,Cambria County,PA,95.97457627118644,NA
15931,Cambria County,PA,NA,70.29972752043598
16023,Butler County,PA,NA,94.82288828337875
16057,Butler County,PA,65.18361581920904,NA
16117,Lawrence County,PA,51.12994350282486,NA
16125,Mercer County,PA,36.37005649717514,22.615803814713896
16159,Mercer County,PA,84.11016949152543,NA
16201,Armstrong County,PA,31.002824858757062,NA
16365,Warren County,PA,33.75706214689266,NA
16509,Erie County,PA,NA,41.689373297002724
16601,Blair County,PA,8.403954802259888,NA
16602,Blair County,PA,73.9406779661017,NA
16635,Blair County,PA,NA,76.566757493188
16673,Blair County,PA,94.985875706214685,NA
16701,McKean County,PA,47.52824858757062,NA
16801,Centre County,PA,37.71186440677966,NA
16803,Centre County,PA,83.89830508474576,NA
16823,Centre County,PA,53.24858757062147,NA
16841,Centre County,PA,89.68926553672316,NA
17003,Lebanon County,PA,91.66666666666666,NA
17019,York County,PA,63.2768361581921,NA
17028,Dauphin County,PA,98.09322033898306,NA
17042,Lebanon County,PA,40.536723163841806,NA
17044,Mifflin County,PA,40.11299435028249,NA
17051,Mifflin County,PA,89.19491525423729,NA
17066,Huntingdon County,PA,72.45762711864407,NA
17074,Perry County,PA,NA,90.46321525885558
17084,Mifflin County,PA,91.94915254237289,NA
17202,Franklin County,PA,27.612994350282488,NA
17325,Adams County,PA,56.63841807909604,NA
17339,York County,PA,91.73728813559322,NA
17345,York County,PA,69.0677966101695,NA
17362,York County,PA,67.58474576271186,NA
17401,York County,PA,91.3135593220339,NA
17403,York County,PA,NA,4.632152588555858
17408,York County,PA,NA,20.708446866485016
17545,Lancaster County,PA,42.72598870056497,NA
17552,Lancaster County,PA,70.90395480225989,NA
17601,Lancaster County,PA,33.47457627118644,NA
17740,Lycoming County,PA,50.21186440677966,NA
17745,Clinton County,PA,38.70056497175141,NA
17752,Lycoming County,PA,91.10169491525424,NA
17754,Lycoming County,PA,64.97175141242938,NA
17756,Lycoming County,PA,73.09322033898306,NA
17815,Columbia County,PA,16.807909604519775,NA
17837,Union County,PA,76.20056497175142,NA
17872,Northumberland County,PA,72.03389830508475,47.68392370572207
18049,Lehigh County,PA,NA,52.043596730245234
18052,Lehigh County,PA,68.78531073446328,NA
18102,Lehigh County,PA,0.49435028248587576,NA
18301,Monroe County,PA,67.01977401129943,NA
18328,Pike County,PA,94.56214689265536,NA
18330,Monroe County,PA,87.07627118644068,NA
18334,Monroe County,PA,98.65819209039547,NA
18428,Pike County,PA,NA,64.03269754768392
18433,Lackawanna County,PA,91.94915254237289,NA
18512,Lackawanna County,PA,60.80508474576271,NA
18603,Columbia County,PA,14.40677966101695,NA
18634,Luzerne County,PA,42.2316384180791,NA
18640,Luzerne County,PA,41.94915254237288,NA
18651,Luzerne County,PA,67.2316384180791,NA
18661,Luzerne County,PA,82.13276836158192,NA
18704,Luzerne County,PA,16.454802259887007,NA
18707,Luzerne County,PA,81.77966101694916,NA
18801,Susquehanna County,PA,76.8361581920904,NA
18944,Bucks County,PA,52.68361581920904,NA
18974,Bucks County,PA,53.74293785310734,NA
19001,Montgomery County,PA,93.92655367231639,59.12806539509536
19002,Montgomery County,PA,69.2090395480226,28.065395095367844
19006,Montgomery County,PA,87.57062146892656,NA
19007,Bucks County,PA,24.646892655367232,NA
19020,Bucks County,PA,31.28531073446328,NA
19025,Montgomery County,PA,93.2909604519774,NA
19031,Montgomery County,PA,NA,93.73297002724796
19038,Montgomery County,PA,80.72033898305084,NA
19063,Delaware County,PA,NA,15.803814713896458
19082,Delaware County,PA,36.793785310734464,70.84468664850137
19083,Delaware County,PA,27.401129943502823,17.43869209809264
19087,Chester County,PA,49.43502824858757,NA
19090,Montgomery County,PA,45.69209039548023,NA
19106,Philadelphia County,PA,97.45762711864407,NA
19115,Philadelphia County,PA,19.138418079096045,NA
19119,Philadelphia County,PA,56.92090395480226,NA
19121,Philadelphia County,PA,53.10734463276836,NA
19132,Philadelphia County,PA,26.059322033898308,NA
19143,Philadelphia County,PA,20.056497175141246,NA
19144,Philadelphia County,PA,NA,13.079019073569482
19145,Philadelphia County,PA,29.80225988700565,NA
19146,Philadelphia County,PA,45.19774011299435,NA
19148,Philadelphia County,PA,31.497175141242938,NA
19154,Philadelphia County,PA,15.819209039548024,NA
19438,Montgomery County,PA,45.2683615819209,NA
19446,Montgomery County,PA,15.112994350282486,NA
19547,Berks County,PA,92.93785310734464,NA
19604,Berks County,PA,77.82485875706215,NA
19605,Berks County,PA,30.15536723163842,NA
19606,Berks County,PA,11.016949152542372,NA
02813,Washington County,RI,94.84463276836158,NA
02817,Kent County,RI,87.78248587570621,NA
02840,Newport County,RI,73.51694915254238,NA
02861,Providence County,RI,30.720338983050848,NA
02864,Providence County,RI,25.918079096045197,NA
02871,Newport County,RI,61.37005649717514,80.38147138964578
02878,Newport County,RI,76.76553672316385,NA
02889,Kent County,RI,NA,24.250681198910083
02892,Washington County,RI,NA,98.9100817438692
02911,Providence County,RI,66.80790960451978,NA
02920,Providence County,RI,28.742937853107343,NA
29033,Lexington County,SC,NA,85.83106267029973
29040,Sumter County,SC,94.84463276836158,NA
29063,Richland County,SC,81.63841807909604,NA
29072,Lexington County,SC,58.47457627118644,33.2425068119891
29073,Lexington County,SC,54.166666666666664,NA
29108,Newberry County,SC,55.932203389830505,NA
29160,Lexington County,SC,81.00282485875707,NA
29180,Fairfield County,SC,77.33050847457628,NA
29210,Richland County,SC,40.74858757062147,NA
29212,Lexington County,SC,62.57062146892656,NA
29306,Spartanburg County,SC,36.228813559322035,NA
29349,Spartanburg County,SC,24.78813559322034,NA
29403,Charleston County,SC,NA,74.65940054495913
29418,Charleston County,SC,82.27401129943502,NA
29431,Berkeley County,SC,93.64406779661016,NA
29440,Georgetown County,SC,NA,55.5858310626703
29464,Charleston County,SC,74.36440677966102,NA
29566,Horry County,SC,76.0593220338983,NA
29609,Greenville County,SC,39.336158192090394,NA
29617,Greenville County,SC,34.675141242937855,NA
29680,Greenville County,SC,75.49435028248588,NA
29730,York County,SC,50.07062146892656,NA
29803,Aiken County,SC,NA,12.26158038147139
57106,Minnehaha County,SD,NA,9.809264305177113
57601,Walworth County,SD,97.88135593220339,NA
37010,Montgomery County,TN,99.43502824858757,NA
37013,Davidson County,TN,55.720338983050844,NA
37015,Cheatham County,TN,NA,54.76839237057221
37027,Williamson County,TN,71.1864406779661,NA
37040,Montgomery County,TN,23.870056497175142,NA
37062,Williamson County,TN,80.7909604519774,NA
37064,Williamson County,TN,75.56497175141243,NA
37076,Davidson County,TN,34.03954802259887,NA
37082,Cheatham County,TN,95.90395480225989,NA
37115,Davidson County,TN,38.91242937853107,NA
37174,Williamson County,TN,46.53954802259887,NA
37179,Williamson County,TN,86.4406779661017,NA
37208,Davidson County,TN,74.92937853107344,NA
37209,Davidson County,TN,63.62994350282486,NA
37211,Davidson County,TN,NA,25.340599455040874
37217,Davidson County,TN,40.88983050847458,NA
37323,Bradley County,TN,39.68926553672316,NA
37355,Coffee County,TN,33.33333333333333,NA
37604,Washington County,TN,19.98587570621469,NA
37643,Carter County,TN,12.923728813559322,NA
37757,Campbell County,TN,82.7683615819209,NA
37879,Claiborne County,TN,51.271186440677965,NA
37921,Knox County,TN,28.88418079096045,NA
38105,Shelby County,TN,86.79378531073446,NA
38127,Shelby County,TN,8.333333333333332,NA
38478,Giles County,TN,81.21468926553672,NA
75038,Dallas County,TX,92.09039548022598,NA
75050,Dallas County,TX,41.313559322033896,NA
75104,Dallas County,TX,55.57909604519774,NA
75110,Navarro County,TX,73.58757062146893,NA
75180,Dallas County,TX,87.07627118644068,NA
75206,Dallas County,TX,49.717514124293785,NA
75238,Dallas County,TX,65.81920903954803,NA
75287,Denton County,TX,39.19491525423729,NA
75501,Bowie County,TX,NA,29.427792915531338
75601,Gregg County,TX,NA,81.74386920980926
75672,Harrison County,TX,84.95762711864407,NA
76013,Tarrant County,TX,NA,90.19073569482289
76053,Tarrant County,TX,39.548022598870055,NA
76116,Tarrant County,TX,23.093220338983052,NA
76119,Tarrant County,TX,6.7090395480225995,NA
76244,Tarrant County,TX,25.07062146892655,NA
76513,Bell County,TX,NA,2.452316076294278
76543,Bell County,TX,27.82485875706215,NA
77005,Harris County,TX,72.59887005649718,NA
77022,Harris County,TX,89.97175141242938,NA
77032,Harris County,TX,80.08474576271186,NA
77036,Harris County,TX,51.62429378531074,NA
77045,Harris County,TX,NA,74.11444141689373
77047,Harris County,TX,54.94350282485876,NA
77060,Harris County,TX,84.4632768361582,NA
77074,Harris County,TX,76.41242937853107,NA
77083,Harris County,TX,NA,32.69754768392371
77084,Harris County,TX,12.358757062146893,NA
77304,Montgomery County,TX,60.451977401129945,NA
77441,Fort Bend County,TX,88.2768361581921,NA
77506,Harris County,TX,58.96892655367232,NA
77511,Brazoria County,TX,44.35028248587571,NA
77550,Galveston County,TX,19.703389830508474,NA
77551,Galveston County,TX,83.47457627118644,NA
77568,Galveston County,TX,87.5,NA
77573,Galveston County,TX,8.82768361581921,NA
77586,Harris County,TX,47.31638418079096,NA
77706,Jefferson County,TX,NA,87.19346049046321
77801,Brazos County,TX,79.02542372881356,NA
77845,Brazos County,TX,NA,6.267029972752043
77901,Victoria County,TX,NA,27.520435967302454
77904,Victoria County,TX,38.559322033898304,NA
78046,Webb County,TX,15.60734463276836,NA
78245,Bexar County,TX,56.28531073446328,NA
78413,Nueces County,TX,72.52824858757062,NA
78654,Burnet County,TX,97.31638418079096,NA
78664,Williamson County,TX,43.78531073446328,NA
78728,Travis County,TX,78.67231638418079,NA
78947,Lee County,TX,99.92937853107344,NA
79102,Potter County,TX,88.70056497175142,NA
79107,Potter County,TX,66.3135593220339,NA
79423,Lubbock County,TX,28.88418079096045,NA
79925,El Paso County,TX,70.05649717514125,NA
84047,Salt Lake County,UT,NA,56.13079019073569
84081,Salt Lake County,UT,77.7542372881356,NA
84093,Salt Lake County,UT,78.74293785310734,NA
84104,Salt Lake County,UT,NA,77.65667574931881
84120,Salt Lake County,UT,6.850282485875706,NA
84123,Salt Lake County,UT,NA,49.863760217983646
84401,Weber County,UT,73.87005649717514,NA
05001,Windsor County,VT,84.25141242937853,NA
05446,Chittenden County,VT,NA,52.58855585831063
22039,Fairfax County,VA,79.7316384180791,NA
22043,Fairfax County,VA,71.1864406779661,NA
22306,Fairfax County,VA,NA,56.675749318801095
22310,Fairfax County,VA,79.23728813559322,NA
22642,Warren County,VA,96.25706214689266,NA
22903,Charlottesville city,VA,76.34180790960453,NA
22980,Waynesboro city,VA,32.48587570621469,NA
23112,Chesterfield County,VA,41.73728813559322,NA
23223,Henrico County,VA,19.84463276836158,NA
24055,Henry County,VA,85.31073446327684,NA
24112,Henry County,VA,46.25706214689266,NA
24317,Carroll County,VA,97.2457627118644,NA
24609,Tazewell County,VA,58.121468926553675,NA
24630,Tazewell County,VA,75.21186440677965,NA
98023,King County,WA,25.141242937853107,NA
98027,King County,WA,62.005649717514125,NA
98028,King County,WA,NA,74.38692098092643
98032,King County,WA,42.2316384180791,NA
98033,King County,WA,NA,37.05722070844686
98040,King County,WA,NA,88.28337874659401
98053,King County,WA,75.35310734463276,NA
98087,Snohomish County,WA,44.91525423728814,NA
98092,King County,WA,23.940677966101696,23.43324250681199
98103,King County,WA,44.98587570621469,NA
98112,King County,WA,80.43785310734464,NA
98115,King County,WA,35.38135593220339,NA
98116,King County,WA,69.2090395480226,NA
98117,King County,WA,84.6045197740113,NA
98118,King County,WA,40.18361581920904,NA
98119,King County,WA,NA,84.19618528610354
98121,King County,WA,NA,75.74931880108991
98122,King County,WA,56.8502824858757,NA
98144,King County,WA,29.09604519774011,NA
98155,King County,WA,NA,51.771117166212534
98177,King County,WA,71.46892655367232,NA
98198,King County,WA,40.324858757062145,NA
98258,Snohomish County,WA,22.74011299435028,NA
98312,Kitsap County,WA,NA,68.39237057220708
98362,Clallam County,WA,NA,11.716621253405995
98368,Jefferson County,WA,NA,30.79019073569482
98374,Pierce County,WA,73.72881355932203,NA
98405,Pierce County,WA,64.26553672316385,NA
98465,Pierce County,WA,96.9632768361582,NA
98611,Cowlitz County,WA,80.9322033898305,NA
98626,Cowlitz County,WA,42.93785310734463,NA
98632,Cowlitz County,WA,NA,8.174386920980927
98685,Clark County,WA,NA,78.4741144414169
98801,Chelan County,WA,23.65819209039548,NA
98930,Yakima County,WA,86.08757062146893,NA
99016,Spokane County,WA,NA,88.0108991825613
99207,Spokane County,WA,NA,94.55040871934605
99301,Franklin County,WA,34.463276836158194,43.32425068119891
99353,Benton County,WA,67.09039548022598,NA
20002,District of Columbia,DC,4.378531073446328,NA
20009,District of Columbia,DC,63.13559322033898,NA
20020,District of Columbia,DC,1.4830508474576272,NA
25177,Kanawha County,WV,NA,42.50681198910082
25309,Kanawha County,WV,NA,86.37602179836512
25403,Berkeley County,WV,72.66949152542372,NA
25801,Raleigh County,WV,41.24293785310734,NA
25901,Fayette County,WV,44.70338983050847,NA
26047,Hancock County,WV,78.38983050847457,NA
26201,Upshur County,WV,21.89265536723164,NA
26385,Harrison County,WV,99.0819209039548,NA
26431,Harrison County,WV,82.13276836158192,NA
26508,Monongalia County,WV,56.355932203389834,8.446866485013624
26757,Hampshire County,WV,95.69209039548022,NA
26836,Hardy County,WV,95.69209039548022,NA
53066,Waukesha County,WI,38.4180790960452,NA
53092,Ozaukee County,WI,57.274011299435024,NA
53115,Walworth County,WI,48.163841807909606,NA
53132,Milwaukee County,WI,37.92372881355932,NA
53142,Kenosha County,WI,9.03954802259887,NA
53143,Kenosha County,WI,18.502824858757062,NA
53177,Racine County,WI,80.15536723163842,NA
53214,Milwaukee County,WI,11.935028248587571,NA
53221,Milwaukee County,WI,19.774011299435028,NA
53402,Racine County,WI,4.872881355932203,NA
53534,Rock County,WI,90.67796610169492,NA
53546,Rock County,WI,17.725988700564972,NA
53597,Dane County,WI,57.69774011299435,NA
53704,Dane County,WI,10.663841807909606,NA
53809,Grant County,WI,99.64689265536724,NA
53925,Columbia County,WI,90.88983050847457,NA
54220,Manitowoc County,WI,5.508474576271186,NA
54304,Brown County,WI,21.468926553672315,56.675749318801095
54601,La Crosse County,WI,48.79943502824859,NA
54603,La Crosse County,WI,52.54237288135594,NA
54636,La Crosse County,WI,65.11299435028248,NA
54650,La Crosse County,WI,89.3361581920904,NA
54669,La Crosse County,WI,86.29943502824858,NA
54701,Eau Claire County,WI,41.17231638418079,NA
54729,Chippewa County,WI,31.7090395480226,NA
54913,Outagamie County,WI,82.41525423728814,NA
54914,Outagamie County,WI,22.598870056497177,NA
