ZipCode,county,state,Youth,Pediatric,Adult
35131,St. Clair County,AL,NA,84.09893992932862,NA
35405,Tuscaloosa County,AL,NA,32.15547703180212,NA
35453,Tuscaloosa County,AL,NA,76.67844522968198,NA
35475,Tuscaloosa County,AL,NA,NA,58.80281690140845
35660,Colbert County,AL,NA,75.61837455830388,NA
35806,Madison County,AL,NA,69.96466431095406,NA
35951,Marshall County,AL,NA,57.95053003533569,72.88732394366197
36043,Montgomery County,AL,98.13084112149532,NA,NA
36207,Calhoun County,AL,NA,NA,64.7887323943662
36322,Dale County,AL,NA,88.69257950530034,NA
36420,Covington County,AL,NA,62.19081272084806,NA
36544,Mobile County,AL,NA,NA,87.5
36605,Mobile County,AL,NA,NA,48.767605633802816
36613,Mobile County,AL,62.149532710280376,NA,NA
99576,Dillingham Census Area,AK,74.76635514018692,NA,NA
99705,Fairbanks North Star Borough,AK,NA,NA,80.80985915492957
85006,Maricopa County,AZ,NA,NA,52.46478873239436
85007,Maricopa County,AZ,NA,NA,14.964788732394366
85008,Maricopa County,AZ,NA,NA,69.71830985915493
85023,Maricopa County,AZ,NA,53.71024734982333,NA
85029,Maricopa County,AZ,10.74766355140187,NA,NA
85042,Maricopa County,AZ,NA,24.381625441696116,NA
85086,Maricopa County,AZ,NA,NA,49.82394366197183
85087,Maricopa County,AZ,NA,NA,91.90140845070422
85131,Pinal County,AZ,NA,NA,84.50704225352112
85138,Pinal County,AZ,22.897196261682243,NA,NA
85140,Pinal County,AZ,49.532710280373834,NA,NA
85142,Maricopa County,AZ,8.878504672897195,NA,14.26056338028169
85204,Maricopa County,AZ,NA,26.148409893992934,NA
85210,Maricopa County,AZ,NA,NA,29.753521126760564
85213,Maricopa County,AZ,NA,NA,68.66197183098592
85282,Maricopa County,AZ,50.467289719626166,NA,NA
85283,Maricopa County,AZ,NA,NA,24.823943661971832
85297,Maricopa County,AZ,36.44859813084112,NA,NA
85301,Maricopa County,AZ,NA,NA,8.098591549295776
85304,Maricopa County,AZ,NA,73.4982332155477,NA
85335,Maricopa County,AZ,NA,NA,43.13380281690141
85552,Graham County,AZ,90.65420560747664,NA,NA
85713,Pima County,AZ,NA,8.480565371024735,NA
86303,Yavapai County,AZ,NA,NA,72.1830985915493
86442,Mohave County,AZ,45.32710280373832,NA,NA
72019,Saline County,AR,NA,NA,78.52112676056338
72422,Clay County,AR,NA,NA,93.83802816901408
72756,Benton County,AR,33.177570093457945,NA,67.78169014084507
72903,Sebastian County,AR,NA,NA,78.87323943661971
90002,Los Angeles County,CA,NA,54.06360424028268,NA
90007,Los Angeles County,CA,NA,NA,36.443661971830984
90013,Los Angeles County,CA,NA,NA,63.20422535211267
90023,Los Angeles County,CA,NA,NA,46.654929577464785
90033,Los Angeles County,CA,NA,31.448763250883395,NA
90048,Los Angeles County,CA,81.77570093457945,NA,NA
90201,Los Angeles County,CA,NA,12.014134275618375,NA
90255,Los Angeles County,CA,NA,19.78798586572438,NA
90640,Los Angeles County,CA,NA,NA,74.82394366197182
90744,Los Angeles County,CA,NA,NA,66.90140845070422
91001,Los Angeles County,CA,NA,NA,65.14084507042254
91011,Los Angeles County,CA,80.37383177570094,NA,NA
91311,Los Angeles County,CA,NA,NA,63.02816901408451
91352,Los Angeles County,CA,NA,NA,32.92253521126761
91367,Los Angeles County,CA,NA,97.1731448763251,NA
91402,Los Angeles County,CA,NA,NA,34.50704225352113
91607,Los Angeles County,CA,NA,NA,86.79577464788733
91731,Los Angeles County,CA,NA,NA,45.95070422535211
91744,Los Angeles County,CA,NA,10.247349823321555,NA
92069,San Diego County,CA,NA,31.09540636042403,NA
92114,San Diego County,CA,NA,12.36749116607774,NA
92126,San Diego County,CA,NA,NA,53.69718309859155
92227,Imperial County,CA,42.523364485981304,NA,NA
92345,San Bernardino County,CA,NA,25.4416961130742,NA
92376,San Bernardino County,CA,23.364485981308412,NA,NA
92404,San Bernardino County,CA,NA,20.49469964664311,NA
92592,Riverside County,CA,NA,NA,35.73943661971831
92604,Orange County,CA,NA,91.16607773851591,NA
92886,Orange County,CA,37.38317757009346,NA,NA
93004,Ventura County,CA,NA,NA,63.556338028169016
93012,Ventura County,CA,NA,NA,75.35211267605634
93036,Ventura County,CA,45.794392523364486,NA,NA
93203,Kern County,CA,NA,NA,89.61267605633803
93230,Kings County,CA,50.93457943925234,NA,24.295774647887324
93247,Tulare County,CA,NA,80.56537102473497,NA
93274,Tulare County,CA,2.336448598130841,15.19434628975265,9.683098591549296
93277,Tulare County,CA,NA,NA,32.3943661971831
93280,Kern County,CA,NA,60.7773851590106,NA
93291,Tulare County,CA,NA,NA,27.464788732394368
93305,Kern County,CA,NA,NA,52.112676056338024
93309,Kern County,CA,NA,NA,40.49295774647887
93314,Kern County,CA,NA,NA,85.73943661971832
93436,Santa Barbara County,CA,NA,13.780918727915195,NA
93546,Mono County,CA,NA,NA,92.78169014084507
93551,Los Angeles County,CA,NA,56.18374558303887,NA
93560,Kern County,CA,NA,NA,82.21830985915493
93616,Fresno County,CA,NA,85.15901060070671,NA
93619,Fresno County,CA,NA,NA,51.93661971830986
93630,Fresno County,CA,NA,37.102473498233216,NA
93635,Merced County,CA,NA,NA,77.64084507042254
94002,San Mateo County,CA,NA,NA,63.732394366197184
94025,San Mateo County,CA,NA,NA,57.570422535211264
94303,San Mateo County,CA,NA,NA,35.38732394366197
94513,Contra Costa County,CA,NA,NA,43.13380281690141
94533,Solano County,CA,NA,NA,30.28169014084507
94551,Alameda County,CA,NA,68.55123674911661,NA
94605,Alameda County,CA,NA,NA,31.338028169014088
94608,Alameda County,CA,NA,NA,86.09154929577466
94954,Sonoma County,CA,NA,NA,57.74647887323944
95073,Santa Cruz County,CA,NA,NA,96.30281690140845
95124,Santa Clara County,CA,87.85046728971963,NA,NA
95333,Merced County,CA,NA,NA,99.82394366197182
95365,Merced County,CA,NA,NA,98.59154929577466
95367,Stanislaus County,CA,NA,NA,61.79577464788733
95380,Stanislaus County,CA,31.775700934579437,NA,NA
95401,Sonoma County,CA,NA,NA,65.66901408450704
95403,Sonoma County,CA,NA,95.0530035335689,NA
95476,Sonoma County,CA,NA,NA,77.8169014084507
95519,Humboldt County,CA,NA,NA,79.22535211267606
95685,Amador County,CA,NA,NA,97.88732394366197
95687,Solano County,CA,NA,NA,47.359154929577464
95747,Placer County,CA,NA,NA,78.34507042253522
95758,Sacramento County,CA,NA,NA,60.91549295774647
95828,Sacramento County,CA,NA,NA,50
95843,Sacramento County,CA,84.57943925233646,NA,NA
95961,Yuba County,CA,NA,56.8904593639576,NA
96143,Placer County,CA,NA,85.15901060070671,NA
80015,Arapahoe County,CO,3.7383177570093453,NA,NA
80123,Jefferson County,CO,NA,NA,55.98591549295775
80126,Douglas County,CO,NA,NA,59.859154929577464
80127,Jefferson County,CO,49.06542056074766,NA,NA
80134,Douglas County,CO,NA,NA,33.45070422535211
80205,Denver County,CO,NA,45.936395759717314,NA
80210,Denver County,CO,NA,NA,62.676056338028175
80221,Adams County,CO,NA,18.021201413427562,NA
80226,Jefferson County,CO,NA,NA,82.3943661971831
80247,Arapahoe County,CO,NA,NA,48.59154929577465
80249,Denver County,CO,48.598130841121495,NA,NA
80401,Jefferson County,CO,NA,NA,45.774647887323944
80498,Summit County,CO,99.53271028037383,NA,NA
80601,Adams County,CO,21.02803738317757,NA,NA
80634,Weld County,CO,NA,NA,5.28169014084507
80701,Morgan County,CO,21.962616822429908,NA,NA
80808,El Paso County,CO,NA,NA,94.19014084507043
80903,El Paso County,CO,NA,NA,46.12676056338028
80909,El Paso County,CO,NA,NA,31.514084507042256
80917,El Paso County,CO,NA,NA,68.83802816901408
81147,Archuleta County,CO,96.26168224299066,NA,NA
81419,Delta County,CO,NA,NA,99.11971830985915
81501,Mesa County,CO,NA,NA,53.345070422535215
81625,Moffat County,CO,NA,NA,77.2887323943662
06105,Hartford County,CT,NA,NA,28.69718309859155
06410,New Haven County,CT,NA,NA,75.70422535211267
06492,New Haven County,CT,NA,NA,27.640845070422536
06498,Middlesex County,CT,NA,97.87985865724382,NA
06614,Fairfield County,CT,NA,NA,66.19718309859155
06705,New Haven County,CT,37.38317757009346,NA,NA
06712,New Haven County,CT,92.05607476635514,NA,NA
06770,New Haven County,CT,NA,45.22968197879859,31.161971830985912
06779,Litchfield County,CT,NA,NA,90.66901408450704
06870,Fairfield County,CT,NA,NA,92.95774647887323
19701,New Castle County,DE,NA,51.9434628975265,NA
19802,New Castle County,DE,NA,NA,20.070422535211268
19810,New Castle County,DE,44.85981308411215,NA,NA
32092,St. Johns County,FL,NA,NA,60.03521126760564
32129,Volusia County,FL,NA,63.957597173144876,NA
32174,Volusia County,FL,NA,NA,55.1056338028169
32177,Putnam County,FL,40.654205607476634,NA,NA
32209,Duval County,FL,NA,NA,7.746478873239436
32211,Duval County,FL,NA,40.63604240282685,NA
32218,Duval County,FL,NA,27.56183745583039,NA
32221,Duval County,FL,NA,66.07773851590106,38.20422535211267
32225,Duval County,FL,NA,NA,36.61971830985916
32246,Duval County,FL,NA,NA,21.47887323943662
32514,Escambia County,FL,NA,NA,64.61267605633803
32724,Volusia County,FL,NA,NA,61.97183098591549
32818,Orange County,FL,NA,NA,22.007042253521128
32825,Orange County,FL,NA,9.540636042402827,NA
33012,Miami-Dade County,FL,NA,13.427561837455832,NA
33015,Miami-Dade County,FL,NA,NA,59.683098591549296
33023,Broward County,FL,NA,NA,59.50704225352113
33028,Broward County,FL,NA,NA,86.97183098591549
33030,Miami-Dade County,FL,35.981308411214954,NA,NA
33064,Broward County,FL,NA,NA,46.83098591549296
33073,Broward County,FL,67.28971962616822,NA,NA
33135,Miami-Dade County,FL,NA,30.3886925795053,NA
33172,Miami-Dade County,FL,NA,37.102473498233216,NA
33175,Miami-Dade County,FL,NA,25.795053003533567,NA
33179,Miami-Dade County,FL,NA,NA,68.30985915492957
33193,Miami-Dade County,FL,NA,33.56890459363957,NA
33194,Miami-Dade County,FL,NA,NA,98.94366197183099
33312,Broward County,FL,27.570093457943923,NA,43.66197183098591
33328,Broward County,FL,76.16822429906543,NA,NA
33408,Palm Beach County,FL,NA,NA,79.92957746478874
33445,Palm Beach County,FL,46.26168224299065,NA,NA
33460,Palm Beach County,FL,NA,NA,54.5774647887324
33541,Pasco County,FL,NA,NA,82.9225352112676
33604,Hillsborough County,FL,NA,14.13427561837456,30.985915492957744
33611,Hillsborough County,FL,NA,NA,77.8169014084507
33615,Hillsborough County,FL,NA,33.56890459363957,NA
33619,Hillsborough County,FL,NA,42.75618374558304,44.190140845070424
33830,Polk County,FL,NA,NA,45.24647887323944
33839,Polk County,FL,NA,93.63957597173145,NA
33853,Polk County,FL,NA,NA,73.59154929577466
33914,Lee County,FL,NA,NA,49.471830985915496
33952,Charlotte County,FL,NA,NA,32.04225352112676
33972,Lee County,FL,NA,72.08480565371025,NA
33982,Charlotte County,FL,NA,NA,93.48591549295774
34102,Collier County,FL,93.92523364485982,NA,NA
34428,Citrus County,FL,NA,89.04593639575971,NA
34433,Citrus County,FL,NA,78.79858657243817,NA
34481,Marion County,FL,NA,NA,79.40140845070422
34758,Osceola County,FL,NA,18.374558303886925,NA
34769,Osceola County,FL,NA,53.35689045936396,NA
34951,St. Lucie County,FL,NA,NA,87.85211267605634
34953,St. Lucie County,FL,NA,21.554770318021202,NA
30014,Newton County,GA,NA,54.416961130742045,NA
30021,DeKalb County,GA,NA,79.15194346289752,NA
30032,DeKalb County,GA,NA,NA,17.429577464788732
30039,Gwinnett County,GA,NA,NA,48.41549295774648
30040,Forsyth County,GA,NA,NA,34.154929577464785
30062,Cobb County,GA,NA,66.43109540636041,NA
30094,Rockdale County,GA,40.654205607476634,NA,NA
30106,Cobb County,GA,NA,73.4982332155477,NA
30114,Cherokee County,GA,NA,NA,45.07042253521127
30143,Pickens County,GA,NA,72.08480565371025,NA
30179,Carroll County,GA,NA,NA,65.66901408450704
30189,Cherokee County,GA,NA,NA,60.73943661971831
30253,Henry County,GA,NA,42.75618374558304,NA
30286,Upson County,GA,NA,71.37809187279152,NA
30310,Fulton County,GA,NA,51.590106007067135,NA
30311,Fulton County,GA,NA,35.3356890459364,NA
30316,DeKalb County,GA,NA,NA,61.267605633802816
30338,DeKalb County,GA,71.49532710280374,NA,NA
30401,Emanuel County,GA,60.747663551401864,NA,NA
30606,Clarke County,GA,NA,NA,47.7112676056338
30655,Walton County,GA,NA,51.9434628975265,NA
30662,Franklin County,GA,NA,95.0530035335689,NA
30705,Murray County,GA,NA,NA,38.38028169014084
30736,Catoosa County,GA,NA,NA,15.669014084507044
30830,Burke County,GA,NA,NA,85.38732394366197
30906,Richmond County,GA,NA,NA,10.73943661971831
31204,Bibb County,GA,NA,42.04946996466431,NA
31220,Bibb County,GA,NA,86.57243816254417,NA
31312,Effingham County,GA,82.71028037383178,NA,NA
31405,Chatham County,GA,NA,NA,57.9225352112676
31533,Coffee County,GA,NA,NA,69.19014084507043
31537,Charlton County,GA,NA,NA,74.64788732394366
31539,Jeff Davis County,GA,NA,82.68551236749117,NA
31707,Dougherty County,GA,NA,66.43109540636041,NA
31750,Ben Hill County,GA,60.280373831775705,NA,NA
31773,Thomas County,GA,NA,NA,96.65492957746478
39828,Grady County,GA,NA,NA,76.40845070422534
96706,Honolulu County,HI,NA,NA,15.492957746478872
96720,Hawaii County,HI,NA,NA,42.6056338028169
96753,Maui County,HI,NA,NA,83.27464788732394
96786,Honolulu County,HI,NA,NA,42.78169014084507
96789,Honolulu County,HI,NA,NA,29.049295774647888
96792,Honolulu County,HI,17.75700934579439,NA,NA
96816,Honolulu County,HI,NA,NA,41.021126760563384
83318,Cassia County,ID,NA,NA,69.19014084507043
83338,Jerome County,ID,38.78504672897196,NA,NA
83702,Ada County,ID,NA,77.3851590106007,99.64788732394366
83709,Ada County,ID,NA,NA,20.774647887323944
83713,Ada County,ID,NA,NA,45.598591549295776
83815,Kootenai County,ID,70.56074766355141,NA,NA
60004,Cook County,IL,26.635514018691588,NA,NA
60010,Lake County,IL,34.57943925233645,NA,NA
60047,Lake County,IL,35.51401869158878,NA,NA
60061,Lake County,IL,62.616822429906534,NA,72.7112676056338
60103,DuPage County,IL,NA,NA,36.09154929577465
60106,DuPage County,IL,NA,NA,70.4225352112676
60108,DuPage County,IL,71.02803738317756,NA,NA
60126,DuPage County,IL,NA,NA,14.084507042253522
60140,Kane County,IL,51.4018691588785,NA,NA
60192,Cook County,IL,71.49532710280374,NA,NA
60410,Will County,IL,42.05607476635514,NA,NA
60435,Will County,IL,NA,NA,14.612676056338028
60438,Cook County,IL,NA,NA,53.52112676056338
60471,Cook County,IL,NA,NA,76.93661971830986
60475,Will County,IL,NA,NA,85.03521126760563
60561,DuPage County,IL,NA,NA,66.54929577464789
60613,Cook County,IL,NA,NA,35.563380281690144
60629,Cook County,IL,20.5607476635514,NA,NA
60630,Cook County,IL,NA,NA,30.633802816901408
60631,Cook County,IL,54.20560747663551,NA,NA
60634,Cook County,IL,14.018691588785046,NA,14.43661971830986
60643,Cook County,IL,NA,NA,12.323943661971832
61008,Boone County,IL,58.87850467289719,NA,NA
62221,St. Clair County,IL,NA,NA,84.85915492957746
46016,Madison County,IN,NA,NA,19.718309859154928
46077,Boone County,IN,NA,97.1731448763251,NA
46112,Hendricks County,IN,NA,87.98586572438163,NA
46140,Hancock County,IN,NA,NA,69.54225352112677
46142,Johnson County,IN,39.719626168224295,NA,NA
46208,Marion County,IN,NA,NA,43.83802816901409
46237,Marion County,IN,NA,82.3321554770318,NA
46307,Lake County,IN,0.46728971962616817,NA,NA
46311,Lake County,IN,NA,NA,41.37323943661972
46312,Lake County,IN,NA,NA,21.830985915492956
46368,Porter County,IN,1.4018691588785046,NA,NA
46375,Lake County,IN,NA,NA,41.19718309859155
46408,Lake County,IN,NA,NA,55.45774647887324
46514,Elkhart County,IN,NA,28.26855123674912,NA
46528,Elkhart County,IN,NA,69.25795053003534,NA
46530,St. Joseph County,IN,NA,NA,83.97887323943662
46755,Noble County,IN,NA,NA,34.859154929577464
46807,Allen County,IN,NA,74.91166077738515,NA
46901,Howard County,IN,7.476635514018691,NA,NA
46923,Carroll County,IN,NA,98.23321554770318,NA
46947,Cass County,IN,NA,NA,16.725352112676056
46970,Miami County,IN,NA,NA,13.908450704225354
47201,Bartholomew County,IN,2.803738317757009,NA,NA
47250,Jefferson County,IN,NA,NA,75.17605633802818
47362,Henry County,IN,NA,NA,28.345070422535212
47546,Dubois County,IN,47.66355140186916,NA,NA
47874,Parke County,IN,99.06542056074767,NA,NA
47904,Tippecanoe County,IN,NA,NA,67.25352112676056
50022,Cass County,IA,NA,92.57950530035336,NA
50138,Marion County,IA,NA,NA,60.387323943661976
50201,Story County,IA,NA,98.23321554770318,NA
51106,Woodbury County,IA,NA,74.55830388692578,NA
51351,Dickinson County,IA,NA,NA,98.23943661971832
51632,Page County,IA,NA,NA,82.04225352112677
52136,Howard County,IA,92.5233644859813,NA,NA
52338,Johnson County,IA,94.85981308411215,NA,NA
67401,Saline County,KS,NA,55.47703180212014,NA
67880,Grant County,KS,86.44859813084112,NA,NA
40004,Nelson County,KY,NA,NA,25.704225352112676
40051,Nelson County,KY,NA,NA,95.77464788732394
40210,Jefferson County,KY,NA,NA,51.76056338028169
40215,Jefferson County,KY,NA,NA,25.528169014084508
40291,Jefferson County,KY,NA,NA,23.943661971830984
40744,Laurel County,KY,NA,NA,37.67605633802817
41048,Boone County,KY,NA,NA,87.67605633802818
41102,Boyd County,KY,NA,NA,27.816901408450708
41501,Pike County,KY,10.2803738317757,NA,NA
41572,Pike County,KY,NA,NA,83.62676056338029
42003,McCracken County,KY,NA,50.8833922261484,NA
42539,Casey County,KY,NA,NA,81.16197183098592
42701,Hardin County,KY,NA,23.32155477031802,NA
42718,Taylor County,KY,NA,NA,17.253521126760564
70058,Jefferson Parish,LA,NA,NA,20.246478873239436
70062,Jefferson Parish,LA,NA,18.727915194346288,NA
70068,St. John the Baptist Parish,LA,25.70093457943925,NA,NA
70092,St. Bernard Parish,LA,NA,NA,72.53521126760563
70094,Jefferson Parish,LA,44.39252336448598,NA,NA
70119,Orleans Parish,LA,NA,5.30035335689046,NA
70122,Orleans Parish,LA,NA,7.773851590106007,NA
70126,Orleans Parish,LA,NA,NA,9.859154929577464
70394,Lafourche Parish,LA,NA,14.487632508833922,NA
70461,St. Tammany Parish,LA,NA,NA,22.535211267605636
70501,Lafayette Parish,LA,NA,NA,4.577464788732395
70517,St. Martin Parish,LA,15.887850467289718,NA,NA
70739,East Baton Rouge Parish,LA,NA,NA,81.33802816901408
70788,Iberville Parish,LA,NA,93.63957597173145,NA
70806,East Baton Rouge Parish,LA,NA,NA,79.04929577464789
70814,East Baton Rouge Parish,LA,56.074766355140184,NA,NA
71203,Ouachita Parish,LA,NA,4.593639575971731,NA
71234,Union Parish,LA,NA,NA,99.47183098591549
04032,Cumberland County,ME,NA,NA,88.90845070422534
04103,Cumberland County,ME,66.35514018691589,NA,NA
04270,Oxford County,ME,NA,64.31095406360424,NA
04280,Androscoggin County,ME,NA,81.62544169611307,NA
04401,Penobscot County,ME,NA,NA,4.225352112676056
04937,Somerset County,ME,NA,NA,65.3169014084507
04976,Somerset County,ME,31.308411214953267,NA,NA
20639,Calvert County,MD,79.43925233644859,NA,NA
21015,Harford County,MD,NA,99.64664310954063,NA
21044,Howard County,MD,NA,NA,57.3943661971831
21050,Harford County,MD,75.23364485981308,NA,NA
21157,Carroll County,MD,NA,NA,58.27464788732394
21234,Baltimore County,MD,NA,NA,21.654929577464788
21921,Cecil County,MD,21.49532710280374,NA,NA
01040,Hampden County,MA,NA,NA,0
01057,Hampden County,MA,79.90654205607477,NA,NA
01075,Hampshire County,MA,NA,NA,7.394366197183098
01104,Hampden County,MA,NA,NA,2.464788732394366
01108,Hampden County,MA,NA,NA,2.640845070422535
01420,Worcester County,MA,NA,NA,12.147887323943662
01430,Worcester County,MA,NA,NA,84.6830985915493
01570,Worcester County,MA,16.822429906542055,NA,NA
01605,Worcester County,MA,NA,NA,1.936619718309859
01607,Worcester County,MA,NA,NA,17.95774647887324
01757,Worcester County,MA,NA,NA,4.753521126760563
01832,Essex County,MA,NA,NA,6.338028169014084
01841,Essex County,MA,NA,NA,6.161971830985916
01863,Middlesex County,MA,NA,59.36395759717315,NA
01876,Middlesex County,MA,NA,45.22968197879859,NA
01904,Essex County,MA,NA,NA,64.96478873239437
01949,Essex County,MA,91.1214953271028,NA,NA
02035,Norfolk County,MA,NA,NA,42.07746478873239
02072,Norfolk County,MA,41.58878504672897,14.840989399293287,NA
02118,Suffolk County,MA,NA,NA,27.992957746478876
02122,Suffolk County,MA,NA,NA,2.112676056338028
02124,Suffolk County,MA,0,NA,NA
02126,Suffolk County,MA,NA,NA,49.647887323943664
02128,Suffolk County,MA,NA,NA,0.35211267605633806
02136,Suffolk County,MA,NA,NA,3.5211267605633805
02139,Middlesex County,MA,NA,NA,5.457746478873239
02149,Middlesex County,MA,NA,9.89399293286219,NA
02180,Middlesex County,MA,23.83177570093458,NA,NA
02333,Plymouth County,MA,NA,NA,40.316901408450704
02346,Plymouth County,MA,NA,36.042402826855124,NA
02368,Norfolk County,MA,NA,NA,3.873239436619718
02446,Norfolk County,MA,NA,NA,59.154929577464785
02461,Middlesex County,MA,NA,NA,86.26760563380282
02478,Middlesex County,MA,NA,NA,29.929577464788732
02536,Barnstable County,MA,NA,NA,29.225352112676056
02673,Barnstable County,MA,NA,NA,61.61971830985915
02760,Bristol County,MA,20.093457943925234,NA,NA
02762,Norfolk County,MA,69.62616822429906,NA,NA
02771,Bristol County,MA,NA,NA,92.6056338028169
02780,Bristol County,MA,NA,NA,0.17605633802816903
48047,Macomb County,MI,17.289719626168225,NA,NA
48079,St. Clair County,MI,85.98130841121495,NA,NA
48084,Oakland County,MI,NA,NA,94.8943661971831
48089,Macomb County,MI,NA,NA,11.443661971830986
48105,Washtenaw County,MI,29.906542056074763,NA,NA
48126,Wayne County,MI,NA,4.240282685512367,NA
48183,Wayne County,MI,NA,NA,13.028169014084506
48188,Wayne County,MI,NA,NA,17.6056338028169
48205,Wayne County,MI,NA,11.307420494699647,7.21830985915493
48227,Wayne County,MI,NA,6.713780918727916,NA
48228,Wayne County,MI,NA,NA,2.8169014084507045
48348,Oakland County,MI,NA,NA,45.42253521126761
48381,Oakland County,MI,NA,NA,73.06338028169014
48416,Sanilac County,MI,NA,92.57950530035336,NA
48423,Genesee County,MI,NA,NA,40.66901408450704
48430,Genesee County,MI,NA,NA,32.57042253521127
48602,Saginaw County,MI,NA,NA,7.042253521126761
48637,Saginaw County,MI,NA,NA,96.83098591549296
48879,Clinton County,MI,NA,NA,58.098591549295776
49009,Kalamazoo County,MI,NA,66.43109540636041,NA
49022,Berrien County,MI,NA,24.73498233215548,NA
49024,Kalamazoo County,MI,34.112149532710276,NA,NA
49073,Barry County,MI,NA,NA,85.91549295774648
49079,Van Buren County,MI,NA,64.31095406360424,NA
49091,St. Joseph County,MI,NA,NA,53.87323943661971
49203,Jackson County,MI,NA,36.74911660777385,NA
49348,Allegan County,MI,53.271028037383175,NA,NA
49417,Ottawa County,MI,NA,NA,23.767605633802816
49441,Muskegon County,MI,NA,40.63604240282685,NA
49442,Muskegon County,MI,NA,NA,5.985915492957746
49455,Oceana County,MI,NA,83.03886925795054,NA
49503,Kent County,MI,NA,NA,15.140845070422534
49504,Kent County,MI,NA,NA,19.54225352112676
49508,Kent County,MI,NA,21.908127208480565,NA
49548,Kent County,MI,5.14018691588785,NA,10.56338028169014
49660,Manistee County,MI,NA,NA,47.53521126760563
49837,Delta County,MI,NA,NA,60.56338028169014
49841,Marquette County,MI,NA,76.67844522968198,NA
55110,Ramsey County,MN,NA,NA,56.866197183098585
55303,Anoka County,MN,NA,NA,24.119718309859156
55304,Anoka County,MN,NA,NA,49.29577464788733
55329,Stearns County,MN,NA,NA,100
55350,McLeod County,MN,43.45794392523364,NA,NA
55435,Hennepin County,MN,NA,NA,88.73239436619718
55811,St. Louis County,MN,NA,NA,39.26056338028169
56007,Freeborn County,MN,NA,NA,20.950704225352112
56353,Mille Lacs County,MN,86.91588785046729,NA,NA
56359,Mille Lacs County,MN,NA,80.56537102473497,NA
56537,Otter Tail County,MN,NA,NA,24.471830985915492
56572,Otter Tail County,MN,NA,NA,95.24647887323944
38614,Coahoma County,MS,NA,56.18374558303887,NA
38655,Lafayette County,MS,36.915887850467286,NA,NA
38801,Lee County,MS,NA,40.282685512367486,NA
39120,Adams County,MS,NA,NA,50.70422535211267
39350,Neshoba County,MS,NA,8.12720848056537,NA
39426,Pearl River County,MS,55.60747663551402,68.55123674911661,NA
39648,Pike County,MS,NA,33.215547703180206,NA
63011,St. Louis County,MO,59.345794392523366,NA,NA
63017,St. Louis County,MO,NA,NA,71.83098591549296
63042,St. Louis County,MO,NA,58.657243816254415,NA
63114,St. Louis County,MO,NA,NA,32.21830985915493
63366,St. Charles County,MO,NA,NA,16.549295774647888
63368,St. Charles County,MO,NA,NA,51.58450704225353
63755,Cape Girardeau County,MO,NA,62.544169611307424,NA
63775,Perry County,MO,NA,43.81625441696113,NA
63863,Dunklin County,MO,NA,NA,90.14084507042254
63901,Butler County,MO,NA,NA,18.485915492957748
64052,Jackson County,MO,18.69158878504673,NA,NA
64056,Jackson County,MO,NA,NA,32.74647887323944
64081,Jackson County,MO,NA,NA,54.401408450704224
64118,Clay County,MO,NA,NA,9.15492957746479
64134,Jackson County,MO,3.2710280373831773,NA,NA
64501,Buchanan County,MO,NA,NA,89.08450704225352
64503,Buchanan County,MO,NA,26.855123674911663,NA
64633,Carroll County,MO,NA,NA,90.3169014084507
64720,Bates County,MO,NA,NA,98.41549295774648
64804,Jasper County,MO,NA,NA,22.887323943661972
64850,Newton County,MO,NA,29.328621908127207,NA
65625,Barry County,MO,NA,90.45936395759718,NA
59602,Lewis and Clark County,MT,72.42990654205607,NA,NA
68104,Douglas County,NE,NA,NA,33.098591549295776
68128,Sarpy County,NE,NA,NA,85.56338028169014
68601,Platte County,NE,NA,94.34628975265018,NA
68847,Buffalo County,NE,NA,NA,83.80281690140845
89109,Clark County,NV,NA,NA,96.12676056338029
89117,Clark County,NV,NA,NA,42.95774647887324
89139,Clark County,NV,NA,95.75971731448763,NA
89460,Douglas County,NV,80.8411214953271,NA,81.51408450704226
89506,Washoe County,NV,32.242990654205606,NA,25.352112676056336
89523,Washoe County,NV,NA,NA,61.09154929577465
03110,Hillsborough County,NH,68.69158878504673,NA,NA
03825,Strafford County,NH,66.82242990654206,NA,NA
07002,Hudson County,NJ,NA,NA,1.7605633802816902
07024,Bergen County,NJ,NA,36.39575971731448,NA
07026,Bergen County,NJ,NA,NA,20.598591549295776
07063,Union County,NJ,NA,15.547703180212014,NA
07090,Union County,NJ,57.476635514018696,NA,NA
07112,Essex County,NJ,NA,22.968197879858657,NA
07208,Union County,NJ,NA,4.946996466431095,NA
07305,Hudson County,NJ,NA,0.7067137809187279,8.80281690140845
07307,Hudson County,NJ,NA,3.53356890459364,NA
07407,Bergen County,NJ,NA,NA,40.140845070422536
07444,Morris County,NJ,64.95327102803739,NA,NA
07461,Sussex County,NJ,61.21495327102804,NA,NA
07712,Monmouth County,NJ,NA,NA,74.29577464788733
07719,Monmouth County,NJ,NA,NA,88.38028169014085
07748,Monmouth County,NJ,NA,NA,37.147887323943664
07840,Warren County,NJ,39.25233644859813,NA,NA
08005,Ocean County,NJ,NA,NA,97.53521126760563
08009,Camden County,NJ,NA,NA,66.72535211267606
08015,Burlington County,NJ,NA,38.16254416961131,NA
08030,Camden County,NJ,NA,50.8833922261484,28.169014084507044
08052,Burlington County,NJ,NA,NA,34.683098591549296
08053,Burlington County,NJ,NA,49.82332155477032,NA
08062,Gloucester County,NJ,24.766355140186917,NA,NA
08066,Gloucester County,NJ,NA,NA,34.859154929577464
08069,Salem County,NJ,NA,65.37102473498233,NA
08080,Gloucester County,NJ,6.5420560747663545,NA,NA
08093,Gloucester County,NJ,NA,46.64310954063604,NA
08096,Gloucester County,NJ,NA,NA,29.577464788732392
08104,Camden County,NJ,NA,0.35335689045936397,NA
08107,Camden County,NJ,NA,NA,36.79577464788733
08205,Atlantic County,NJ,NA,NA,22.183098591549296
08251,Cape May County,NJ,NA,NA,84.33098591549296
08332,Cumberland County,NJ,NA,NA,1.4084507042253522
08360,Cumberland County,NJ,NA,12.7208480565371,NA
08401,Atlantic County,NJ,NA,NA,26.408450704225352
08527,Ocean County,NJ,NA,NA,12.852112676056338
08559,Hunterdon County,NJ,NA,NA,94.36619718309859
08648,Mercer County,NJ,NA,NA,52.816901408450704
08723,Ocean County,NJ,NA,26.501766784452297,NA
08742,Ocean County,NJ,NA,NA,37.852112676056336
08755,Ocean County,NJ,NA,NA,30.457746478873236
08816,Middlesex County,NJ,NA,43.81625441696113,NA
08822,Hunterdon County,NJ,NA,96.113074204947,NA
08869,Somerset County,NJ,NA,89.75265017667844,NA
08872,Middlesex County,NJ,NA,NA,63.20422535211267
08901,Middlesex County,NJ,NA,6.007067137809187,NA
87401,San Juan County,NM,NA,NA,23.06338028169014
87505,Santa Fe County,NM,NA,NA,8.626760563380282
87506,Santa Fe County,NM,83.64485981308411,NA,NA
87532,Santa Fe County,NM,NA,16.607773851590103,NA
87571,Taos County,NM,NA,NA,62.852112676056336
88030,Luna County,NM,NA,NA,67.95774647887323
88081,Otero County,NM,67.7570093457944,NA,NA
88210,Eddy County,NM,NA,80.21201413427562,NA
88220,Eddy County,NM,26.168224299065418,NA,NA
10001,New York County,NY,NA,NA,16.901408450704224
10027,New York County,NY,NA,NA,8.274647887323944
10039,New York County,NY,NA,NA,39.7887323943662
10301,Richmond County,NY,NA,NA,21.30281690140845
10314,Richmond County,NY,NA,34.275618374558306,NA
10452,Bronx County,NY,NA,NA,1.056338028169014
10456,Bronx County,NY,NA,0,NA
10457,Bronx County,NY,NA,2.1201413427561837,0.7042253521126761
10459,Bronx County,NY,NA,2.8268551236749118,NA
10465,Bronx County,NY,61.6822429906542,NA,39.61267605633803
10469,Bronx County,NY,NA,7.420494699646643,NA
10549,Westchester County,NY,NA,91.16607773851591,NA
10550,Westchester County,NY,NA,NA,31.866197183098592
10701,Westchester County,NY,NA,1.76678445229682,NA
11103,Queens County,NY,NA,NA,77.46478873239437
11207,Kings County,NY,NA,NA,0.528169014084507
11209,Kings County,NY,NA,27.915194346289752,NA
11219,Kings County,NY,NA,1.0600706713780919,NA
11233,Kings County,NY,NA,3.8869257950530036,NA
11235,Kings County,NY,NA,NA,49.11971830985916
11358,Queens County,NY,NA,59.36395759717315,NA
11377,Queens County,NY,NA,11.66077738515901,NA
11385,Queens County,NY,7.943925233644859,NA,NA
11416,Queens County,NY,NA,NA,56.16197183098591
11435,Queens County,NY,NA,NA,47.183098591549296
11510,Nassau County,NY,NA,NA,70.77464788732394
11520,Nassau County,NY,NA,21.908127208480565,NA
11550,Nassau County,NY,NA,NA,15.845070422535212
11554,Nassau County,NY,NA,NA,62.147887323943664
11570,Nassau County,NY,NA,NA,88.20422535211267
11727,Suffolk County,NY,NA,NA,70.07042253521126
11757,Suffolk County,NY,NA,NA,52.2887323943662
12078,Fulton County,NY,NA,NA,7.570422535211267
12180,Rensselaer County,NY,NA,NA,4.401408450704225
12302,Schenectady County,NY,NA,NA,51.40845070422535
12308,Schenectady County,NY,NA,NA,47.00704225352113
12534,Columbia County,NY,NA,42.75618374558304,NA
12804,Warren County,NY,43.925233644859816,NA,NA
12831,Saratoga County,NY,52.80373831775701,NA,54.929577464788736
12839,Washington County,NY,NA,67.84452296819788,NA
12850,Saratoga County,NY,98.5981308411215,NA,NA
12944,Essex County,NY,NA,NA,80.28169014084507
12993,Essex County,NY,94.39252336448598,NA,NA
13029,Onondaga County,NY,64.01869158878505,NA,NA
13069,Oswego County,NY,NA,NA,31.690140845070424
13073,Tompkins County,NY,NA,NA,66.02112676056338
13078,Onondaga County,NY,NA,NA,64.26056338028168
13114,Oswego County,NY,54.67289719626168,NA,NA
13165,Seneca County,NY,57.009345794392516,NA,NA
13204,Onondaga County,NY,NA,21.20141342756184,NA
13316,Oneida County,NY,77.10280373831776,NA,NA
13471,Oneida County,NY,NA,91.16607773851591,NA
13662,St. Lawrence County,NY,NA,NA,11.091549295774648
13760,Broome County,NY,NA,NA,39.436619718309856
13803,Cortland County,NY,NA,NA,86.61971830985915
13808,Otsego County,NY,89.7196261682243,NA,NA
13815,Chenango County,NY,NA,NA,19.014084507042252
13905,Broome County,NY,NA,19.434628975265017,NA
14051,Erie County,NY,64.95327102803739,NA,50.52816901408451
14057,Erie County,NY,NA,NA,83.09859154929578
14058,Genesee County,NY,NA,NA,90.84507042253522
14075,Erie County,NY,30.373831775700932,NA,NA
14086,Erie County,NY,NA,NA,26.936619718309856
14092,Niagara County,NY,NA,NA,58.45070422535211
14094,Niagara County,NY,NA,NA,4.049295774647888
14098,Orleans County,NY,NA,NA,97.1830985915493
14108,Niagara County,NY,74.29906542056075,NA,NA
14215,Erie County,NY,NA,NA,3.345070422535211
14226,Erie County,NY,NA,NA,38.556338028169016
14424,Ontario County,NY,NA,NA,5.633802816901409
14450,Monroe County,NY,NA,NA,22.359154929577464
14526,Monroe County,NY,11.682242990654206,NA,NA
14534,Monroe County,NY,NA,NA,94.01408450704226
14551,Wayne County,NY,NA,NA,56.51408450704225
14559,Monroe County,NY,13.551401869158877,NA,NA
14569,Wyoming County,NY,62.616822429906534,NA,NA
14605,Monroe County,NY,NA,NA,12.676056338028168
14606,Monroe County,NY,NA,NA,5.809859154929577
14620,Monroe County,NY,NA,NA,9.330985915492958
14621,Monroe County,NY,NA,NA,0.8802816901408451
14718,Chautauqua County,NY,NA,NA,99.29577464788733
14760,Cattaraugus County,NY,15.42056074766355,NA,NA
14812,Schuyler County,NY,NA,NA,95.59859154929578
14837,Yates County,NY,NA,84.09893992932862,NA
14901,Chemung County,NY,NA,NA,38.90845070422535
27030,Surry County,NC,NA,17.314487632508836,NA
27103,Forsyth County,NC,NA,47.70318021201413,NA
27217,Alamance County,NC,NA,NA,17.781690140845072
27258,Alamance County,NC,NA,NA,95.07042253521126
27262,Guilford County,NC,NA,70.6713780918728,NA
27316,Randolph County,NC,NA,90.45936395759718,NA
27360,Davidson County,NC,NA,NA,6.866197183098592
27405,Guilford County,NC,NA,NA,14.788732394366196
27523,Wake County,NC,88.3177570093458,NA,NA
27587,Wake County,NC,18.22429906542056,NA,NA
27603,Wake County,NC,NA,NA,28.87323943661972
27604,Wake County,NC,NA,NA,41.901408450704224
27609,Wake County,NC,28.037383177570092,NA,NA
27610,Wake County,NC,NA,NA,10.387323943661972
27617,Wake County,NC,NA,NA,88.55633802816901
27708,Durham County,NC,NA,NA,98.06338028169014
27713,Durham County,NC,NA,48.0565371024735,NA
27892,Martin County,NC,NA,NA,55.633802816901415
28213,Mecklenburg County,NC,NA,NA,33.80281690140845
28216,Mecklenburg County,NC,NA,16.25441696113074,NA
28303,Cumberland County,NC,NA,32.50883392226148,NA
28320,Bladen County,NC,NA,87.27915194346289,NA
28326,Harnett County,NC,NA,85.86572438162544,NA
28401,New Hanover County,NC,NA,28.975265017667844,NA
28445,Onslow County,NC,NA,86.57243816254417,NA
28470,Brunswick County,NC,NA,81.62544169611307,NA
28560,Craven County,NC,NA,NA,36.267605633802816
28562,Craven County,NC,NA,NA,48.943661971830984
28578,Wayne County,NC,NA,89.04593639575971,NA
28584,Carteret County,NC,NA,NA,80.45774647887323
28630,Caldwell County,NC,NA,NA,41.54929577464789
28704,Buncombe County,NC,NA,79.85865724381625,NA
28752,McDowell County,NC,NA,29.681978798586574,NA
28779,Jackson County,NC,NA,NA,64.08450704225352
28806,Buncombe County,NC,NA,55.12367491166078,NA
58601,Stark County,ND,38.31775700934579,NA,NA
58801,Williams County,ND,NA,NA,44.54225352112676
43055,Licking County,OH,NA,NA,2.992957746478873
43056,Licking County,OH,NA,NA,46.478873239436616
43103,Pickaway County,OH,88.78504672897196,NA,NA
43147,Fairfield County,OH,NA,NA,30.809859154929576
43160,Fayette County,OH,NA,65.7243816254417,NA
43207,Franklin County,OH,NA,NA,3.169014084507042
43213,Franklin County,OH,NA,2.4734982332155475,NA
43311,Logan County,OH,NA,NA,38.732394366197184
43344,Union County,OH,NA,NA,95.95070422535211
43420,Sandusky County,OH,1.8691588785046727,NA,NA
43512,Defiance County,OH,NA,45.936395759717314,NA
43604,Lucas County,OH,NA,NA,50.88028169014085
43605,Lucas County,OH,12.616822429906541,NA,NA
43607,Lucas County,OH,NA,NA,9.507042253521126
43608,Lucas County,OH,NA,NA,11.795774647887324
43609,Lucas County,OH,NA,NA,8.450704225352112
43613,Lucas County,OH,NA,NA,6.690140845070422
43617,Lucas County,OH,NA,NA,91.54929577464789
43812,Coshocton County,OH,NA,17.6678445229682,NA
43912,Belmont County,OH,72.42990654205607,NA,NA
43920,Columbiana County,OH,9.813084112149532,NA,NA
43938,Jefferson County,OH,NA,73.14487632508833,NA
44004,Ashtabula County,OH,NA,8.8339222614841,4.929577464788732
44012,Lorain County,OH,NA,75.61837455830388,NA
44039,Lorain County,OH,11.214953271028037,NA,11.267605633802818
44054,Lorain County,OH,NA,NA,44.8943661971831
44111,Cuyahoga County,OH,NA,1.4134275618374559,2.2887323943661975
44118,Cuyahoga County,OH,NA,24.02826855123675,NA
44125,Cuyahoga County,OH,NA,NA,1.584507042253521
44133,Cuyahoga County,OH,NA,61.83745583038869,NA
44136,Cuyahoga County,OH,25.233644859813083,NA,NA
44212,Medina County,OH,4.205607476635514,39.2226148409894,NA
44306,Summit County,OH,NA,NA,13.556338028169016
44312,Summit County,OH,NA,NA,19.366197183098592
44425,Trumbull County,OH,NA,64.31095406360424,NA
44615,Carroll County,OH,NA,NA,80.63380281690141
44644,Carroll County,OH,NA,NA,93.66197183098592
44646,Stark County,OH,NA,NA,13.204225352112676
44833,Crawford County,OH,NA,23.674911660777383,NA
44870,Erie County,OH,NA,NA,3.697183098591549
44905,Richland County,OH,46.728971962616825,NA,NA
45005,Warren County,OH,14.485981308411214,NA,NA
45102,Clermont County,OH,30.8411214953271,NA,NA
45140,Clermont County,OH,8.411214953271028,NA,NA
45202,Hamilton County,OH,NA,NA,60.2112676056338
45238,Hamilton County,OH,NA,NA,18.661971830985916
45241,Hamilton County,OH,NA,NA,76.40845070422534
45322,Montgomery County,OH,NA,NA,48.063380281690144
45371,Miami County,OH,35.046728971962615,NA,NA
45385,Greene County,OH,NA,NA,16.19718309859155
45416,Montgomery County,OH,NA,NA,87.85211267605634
45426,Montgomery County,OH,NA,25.08833922261484,NA
45613,Pike County,OH,NA,67.49116607773851,NA
45629,Scioto County,OH,NA,NA,87.14788732394366
45638,Lawrence County,OH,NA,NA,7.922535211267606
45669,Lawrence County,OH,NA,NA,24.647887323943664
45692,Jackson County,OH,NA,NA,44.014084507042256
45742,Washington County,OH,89.25233644859813,NA,NA
45801,Allen County,OH,NA,NA,16.02112676056338
45804,Allen County,OH,NA,26.855123674911663,NA
45807,Allen County,OH,NA,83.74558303886926,NA
45891,Van Wert County,OH,NA,NA,37.5
73044,Logan County,OK,NA,55.830388692579504,NA
73065,McClain County,OK,NA,NA,91.02112676056338
73109,Oklahoma County,OK,NA,41.342756183745585,NA
73149,Oklahoma County,OK,NA,87.27915194346289,NA
73505,Comanche County,OK,NA,34.275618374558306,29.401408450704224
73533,Stephens County,OK,NA,NA,28.52112676056338
74044,Creek County,OK,NA,NA,83.45070422535211
74437,Okmulgee County,OK,NA,94.69964664310953,NA
74631,Kay County,OK,78.50467289719626,NA,NA
74948,Sequoyah County,OK,NA,NA,70.95070422535211
97007,Washington County,OR,NA,NA,42.25352112676056
97031,Hood River County,OR,NA,NA,76.05633802816901
97086,Clackamas County,OR,78.03738317757009,NA,NA
97103,Clatsop County,OR,NA,57.59717314487632,NA
97138,Clatsop County,OR,NA,NA,67.0774647887324
97206,Multnomah County,OR,NA,NA,18.30985915492958
97219,Multnomah County,OR,NA,NA,67.42957746478874
97225,Washington County,OR,NA,NA,78.16901408450704
97301,Marion County,OR,NA,NA,17.077464788732392
97386,Linn County,OR,NA,NA,56.33802816901409
97471,Douglas County,OR,NA,NA,23.239436619718308
97501,Jackson County,OR,NA,NA,11.971830985915492
97502,Jackson County,OR,NA,NA,48.23943661971831
97701,Deschutes County,OR,58.41121495327103,NA,NA
97838,Umatilla County,OR,NA,73.4982332155477,NA
15001,Beaver County,PA,NA,NA,27.11267605633803
15033,Washington County,PA,NA,77.3851590106007,NA
15104,Allegheny County,PA,NA,44.87632508833922,NA
15147,Allegheny County,PA,NA,NA,73.94366197183099
15210,Allegheny County,PA,NA,NA,19.8943661971831
15301,Washington County,PA,7.009345794392523,NA,NA
15417,Fayette County,PA,NA,NA,91.19718309859155
15701,Indiana County,PA,NA,63.25088339222616,NA
15905,Cambria County,PA,NA,NA,55.809859154929576
16001,Butler County,PA,NA,NA,6.514084507042253
16101,Lawrence County,PA,13.084112149532709,NA,NA
16146,Mercer County,PA,NA,35.68904593639576,30.1056338028169
16511,Erie County,PA,NA,NA,85.03521126760563
17042,Lebanon County,PA,NA,32.86219081272085,NA
17044,Mifflin County,PA,NA,52.65017667844523,NA
17110,Dauphin County,PA,29.439252336448597,NA,NA
17268,Franklin County,PA,NA,NA,56.690140845070424
17315,York County,PA,NA,NA,35.2112676056338
17372,Adams County,PA,95.32710280373831,NA,NA
17406,York County,PA,NA,71.37809187279152,NA
17502,Lancaster County,PA,97.19626168224299,NA,NA
17522,Lancaster County,PA,NA,NA,66.37323943661971
17601,Lancaster County,PA,NA,NA,43.13380281690141
17740,Lycoming County,PA,NA,NA,58.97887323943662
17921,Schuylkill County,PA,NA,NA,94.54225352112677
18031,Lehigh County,PA,NA,NA,82.57042253521126
18045,Northampton County,PA,NA,NA,46.30281690140845
18052,Lehigh County,PA,NA,NA,26.056338028169012
18071,Carbon County,PA,53.271028037383175,NA,NA
18102,Lehigh County,PA,NA,NA,1.232394366197183
18109,Lehigh County,PA,NA,NA,33.274647887323944
18255,Carbon County,PA,NA,NA,92.42957746478874
18431,Wayne County,PA,69.62616822429906,NA,NA
18901,Bucks County,PA,NA,NA,54.22535211267606
18951,Bucks County,PA,42.99065420560748,NA,NA
18976,Bucks County,PA,NA,NA,91.72535211267606
19003,Montgomery County,PA,82.2429906542056,NA,NA
19010,Delaware County,PA,77.57009345794393,NA,NA
19020,Bucks County,PA,NA,NA,11.619718309859154
19023,Delaware County,PA,NA,NA,37.32394366197183
19036,Delaware County,PA,NA,78.4452296819788,NA
19038,Montgomery County,PA,NA,NA,98.76760563380282
19060,Delaware County,PA,NA,NA,89.43661971830986
19074,Delaware County,PA,NA,NA,90.49295774647888
19104,Philadelphia County,PA,NA,NA,15.316901408450704
19121,Philadelphia County,PA,NA,NA,12.5
19132,Philadelphia County,PA,NA,19.081272084805654,NA
19133,Philadelphia County,PA,NA,NA,20.422535211267608
19134,Philadelphia County,PA,NA,13.074204946996467,NA
19138,Philadelphia County,PA,NA,NA,51.056338028169016
19140,Philadelphia County,PA,NA,NA,5.105633802816902
19146,Philadelphia County,PA,NA,71.02473498233216,NA
19335,Chester County,PA,NA,NA,23.591549295774648
19428,Montgomery County,PA,NA,80.56537102473497,NA
19611,Berks County,PA,NA,48.0565371024735,NA
02852,Washington County,RI,51.86915887850467,NA,NA
02861,Providence County,RI,NA,NA,39.96478873239437
02892,Washington County,RI,NA,NA,97.35915492957746
02905,Providence County,RI,NA,NA,50.352112676056336
29205,Richland County,SC,NA,NA,81.69014084507043
29466,Charleston County,SC,NA,NA,56.866197183098585
29483,Dorchester County,SC,NA,31.802120141342755,22.535211267605636
29488,Colleton County,SC,NA,30.742049469964666,NA
29536,Dillon County,SC,NA,47.349823321554766,NA
29902,Beaufort County,SC,NA,NA,81.86619718309859
29906,Beaufort County,SC,NA,63.25088339222616,NA
57006,Brookings County,SD,NA,NA,71.47887323943662
57049,Union County,SD,NA,NA,96.47887323943662
37025,Hickman County,TN,NA,91.16607773851591,NA
37055,Dickson County,TN,NA,NA,64.43661971830986
37066,Sumner County,TN,NA,22.614840989399294,NA
37115,Davidson County,TN,NA,NA,16.37323943661972
37130,Rutherford County,TN,NA,NA,27.2887323943662
37172,Robertson County,TN,NA,NA,21.12676056338028
37218,Davidson County,TN,NA,NA,59.33098591549296
37379,Hamilton County,TN,NA,NA,50.176056338028175
37388,Coffee County,TN,NA,53.003533568904594,NA
37405,Hamilton County,TN,NA,84.09893992932862,93.30985915492957
37412,Hamilton County,TN,NA,54.77031802120141,NA
37415,Hamilton County,TN,NA,NA,65.49295774647888
37650,Unicoi County,TN,NA,NA,68.13380281690141
37663,Sullivan County,TN,NA,NA,75.88028169014085
37683,Johnson County,TN,NA,NA,62.323943661971825
37849,Knox County,TN,NA,43.81625441696113,NA
37861,Grainger County,TN,73.36448598130842,NA,NA
37918,Knox County,TN,NA,NA,19.19014084507042
38011,Tipton County,TN,92.99065420560748,NA,NA
38118,Shelby County,TN,NA,NA,24.823943661971832
38122,Shelby County,TN,NA,37.80918727915194,NA
38127,Shelby County,TN,NA,9.187279151943462,NA
38401,Maury County,TN,NA,NA,10.211267605633804
38464,Lawrence County,TN,NA,NA,40.845070422535215
75021,Grayson County,TX,NA,83.03886925795054,NA
75022,Denton County,TX,NA,NA,84.15492957746478
75025,Collin County,TX,NA,NA,87.32394366197182
75042,Dallas County,TX,NA,NA,70.59859154929578
75062,Dallas County,TX,28.504672897196258,NA,NA
75114,Kaufman County,TX,97.19626168224299,NA,NA
75154,Ellis County,TX,NA,69.6113074204947,NA
75158,Kaufman County,TX,NA,NA,97.7112676056338
75181,Dallas County,TX,NA,58.303886925795055,NA
75205,Dallas County,TX,81.30841121495327,NA,NA
75206,Dallas County,TX,NA,NA,58.62676056338029
75211,Dallas County,TX,NA,5.6537102473498235,NA
75225,Dallas County,TX,76.63551401869158,NA,NA
75227,Dallas County,TX,NA,NA,25.880281690140844
75228,Dallas County,TX,NA,10.60070671378092,NA
75418,Fannin County,TX,85.51401869158879,NA,NA
75459,Grayson County,TX,100,NA,NA
75501,Bowie County,TX,27.102803738317753,NA,NA
75647,Gregg County,TX,NA,NA,69.8943661971831
75785,Cherokee County,TX,NA,NA,75.52816901408451
75791,Smith County,TX,NA,49.82332155477032,NA
76016,Tarrant County,TX,64.48598130841121,NA,NA
76018,Tarrant County,TX,65.88785046728972,NA,NA
76051,Tarrant County,TX,33.64485981308411,NA,NA
76087,Parker County,TX,NA,NA,74.47183098591549
76092,Tarrant County,TX,54.67289719626168,NA,NA
76119,Tarrant County,TX,NA,NA,10.915492957746478
76209,Denton County,TX,NA,60.7773851590106,NA
76244,Tarrant County,TX,6.074766355140187,NA,NA
76255,Montague County,TX,NA,NA,95.4225352112676
76306,Wichita County,TX,NA,NA,72.00704225352112
76446,Erath County,TX,91.58878504672897,NA,NA
76541,Bell County,TX,NA,NA,54.04929577464789
76708,McLennan County,TX,NA,NA,55.1056338028169
76710,McLennan County,TX,NA,NA,61.267605633802816
76903,Tom Green County,TX,NA,NA,51.232394366197184
76904,Tom Green County,TX,19.626168224299064,NA,NA
77004,Harris County,TX,16.355140186915886,NA,NA
77024,Harris County,TX,NA,NA,69.01408450704226
77066,Harris County,TX,52.336448598130836,NA,NA
77071,Harris County,TX,NA,NA,68.48591549295774
77072,Harris County,TX,NA,3.180212014134275,NA
77081,Harris County,TX,NA,39.57597173144876,NA
77098,Harris County,TX,NA,NA,92.0774647887324
77301,Montgomery County,TX,NA,48.76325088339223,NA
77331,San Jacinto County,TX,93.45794392523365,NA,NA
77351,Polk County,TX,48.13084112149533,NA,NA
77354,Montgomery County,TX,NA,NA,82.74647887323944
77414,Matagorda County,TX,56.54205607476636,50.53003533568905,NA
77429,Harris County,TX,9.345794392523365,NA,NA
77433,Harris County,TX,4.672897196261682,NA,NA
77447,Harris County,TX,NA,NA,76.76056338028168
77494,Fort Bend County,TX,NA,62.544169611307424,NA
77581,Brazoria County,TX,NA,NA,38.028169014084504
77619,Jefferson County,TX,NA,79.15194346289752,NA
78006,Kendall County,TX,69.1588785046729,NA,NA
78154,Guadalupe County,TX,NA,85.86572438162544,NA
78155,Guadalupe County,TX,NA,41.69611307420495,NA
78207,Bexar County,TX,NA,7.06713780918728,NA
78213,Bexar County,TX,NA,15.901060070671377,NA
78216,Bexar County,TX,NA,38.515901060070675,NA
78218,Bexar County,TX,NA,NA,57.21830985915493
78222,Bexar County,TX,NA,NA,73.59154929577466
78237,Bexar County,TX,NA,NA,70.24647887323944
78501,Hidalgo County,TX,12.149532710280374,NA,NA
78589,Hidalgo County,TX,NA,34.98233215547703,NA
78621,Bastrop County,TX,32.71028037383177,NA,NA
78629,Gonzales County,TX,73.83177570093457,NA,NA
78681,Williamson County,TX,NA,NA,62.5
78745,Travis County,TX,NA,NA,67.6056338028169
78840,Val Verde County,TX,NA,28.26855123674912,NA
79407,Lubbock County,TX,68.22429906542055,NA,NA
79412,Lubbock County,TX,NA,59.36395759717315,NA
79549,Scurry County,TX,NA,72.08480565371025,NA
79701,Midland County,TX,NA,58.657243816254415,NA
79735,Pecos County,TX,57.943925233644855,NA,NA
79765,Ector County,TX,62.616822429906534,NA,NA
79903,El Paso County,TX,NA,38.515901060070675,NA
79907,El Paso County,TX,NA,6.36042402826855,NA
79927,El Paso County,TX,NA,NA,63.732394366197184
84078,Uintah County,UT,NA,75.61837455830388,NA
84401,Weber County,UT,NA,NA,52.99295774647887
84601,Utah County,UT,NA,NA,77.11267605633803
84780,Washington County,UT,NA,NA,79.75352112676056
05201,Bennington County,VT,28.971962616822427,NA,NA
05468,Chittenden County,VT,NA,NA,75
20164,Loudoun County,VA,NA,NA,53.16901408450704
20194,Fairfax County,VA,NA,NA,92.25352112676056
22015,Fairfax County,VA,50,NA,NA
22026,Prince William County,VA,NA,NA,71.30281690140845
22030,Fairfax County,VA,NA,NA,39.08450704225352
22032,Fairfax County,VA,NA,NA,72.1830985915493
22039,Fairfax County,VA,84.11214953271028,NA,NA
22192,Prince William County,VA,NA,NA,26.23239436619718
22203,Arlington County,VA,NA,NA,79.5774647887324
22303,Fairfax County,VA,NA,NA,78.69718309859155
22308,Fairfax County,VA,78.50467289719626,NA,NA
22309,Fairfax County,VA,NA,NA,34.33098591549296
22802,Harrisonburg city,VA,22.429906542056074,NA,NA
22821,Rockingham County,VA,NA,NA,94.54225352112677
22942,Louisa County,VA,87.38317757009347,NA,NA
23072,Gloucester County,VA,NA,96.46643109540636,NA
23111,Hanover County,VA,NA,42.04946996466431,NA
23117,Louisa County,VA,NA,NA,86.44366197183099
23223,Henrico County,VA,NA,10.954063604240282,NA
23321,Chesapeake city,VA,NA,49.46996466431096,NA
23434,Suffolk city,VA,NA,57.243816254416956,NA
23462,Virginia Beach city,VA,NA,30.03533568904594,25.176056338028168
23607,Newport News city,VA,NA,NA,26.76056338028169
23608,Newport News city,VA,NA,46.996466431095406,NA
23704,Portsmouth city,VA,NA,NA,35.73943661971831
23832,Chesterfield County,VA,NA,NA,80.1056338028169
24012,Roanoke city,VA,NA,NA,36.79577464788733
24084,Pulaski County,VA,NA,88.33922261484098,NA
24088,Franklin County,VA,NA,100,NA
24151,Franklin County,VA,59.813084112149525,NA,NA
24301,Pulaski County,VA,NA,68.19787985865725,NA
24426,Alleghany County,VA,NA,NA,54.75352112676056
24502,Lynchburg city,VA,40.18691588785047,NA,NA
24557,Pittsylvania County,VA,NA,59.36395759717315,89.08450704225352
24651,Tazewell County,VA,90.18691588785047,NA,NA
98065,King County,WA,83.17757009345794,NA,NA
98074,King County,WA,NA,NA,89.96478873239437
98075,King County,WA,75.23364485981308,NA,NA
98204,Snohomish County,WA,NA,NA,33.62676056338028
98292,Snohomish County,WA,NA,77.3851590106007,NA
98371,Pierce County,WA,NA,NA,73.06338028169014
98404,Pierce County,WA,NA,NA,41.725352112676056
98584,Mason County,WA,NA,NA,42.42957746478873
98597,Thurston County,WA,NA,NA,74.11971830985915
98674,Cowlitz County,WA,NA,99.29328621908127,NA
98855,Okanogan County,WA,NA,NA,91.37323943661971
99301,Franklin County,WA,0.9345794392523363,NA,13.732394366197184
20001,District of Columbia,DC,24.299065420560748,NA,NA
20018,District of Columbia,DC,NA,NA,52.46478873239436
20019,District of Columbia,DC,NA,16.96113074204947,NA
20032,District of Columbia,DC,NA,NA,8.97887323943662
24739,Mercer County,WV,NA,NA,73.41549295774648
25043,Clay County,WV,NA,NA,97.00704225352112
25213,Putnam County,WV,NA,90.10600706713781,NA
25304,Kanawha County,WV,NA,92.57950530035336,NA
25427,Berkeley County,WV,NA,NA,71.12676056338029
25670,Mingo County,WV,NA,NA,89.7887323943662
25801,Raleigh County,WV,NA,NA,18.133802816901408
26416,Barbour County,WV,NA,NA,80.98591549295774
26452,Lewis County,WV,95.7943925233645,NA,NA
26753,Mineral County,WV,NA,98.93992932862191,NA
53022,Washington County,WI,14.953271028037381,NA,NA
53098,Dodge County,WI,NA,NA,71.65492957746478
53120,Walworth County,WI,NA,NA,93.13380281690141
53132,Milwaukee County,WI,NA,NA,47.88732394366197
53140,Kenosha County,WI,19.158878504672895,NA,NA
53142,Kenosha County,WI,5.607476635514018,NA,NA
53204,Milwaukee County,WI,NA,NA,10.035211267605634
53206,Milwaukee County,WI,NA,NA,13.380281690140844
53208,Milwaukee County,WI,NA,20.848056537102476,NA
53210,Milwaukee County,WI,NA,20.141342756183743,NA
53212,Milwaukee County,WI,NA,NA,18.838028169014084
53222,Milwaukee County,WI,NA,39.57597173144876,NA
53227,Milwaukee County,WI,NA,NA,44.71830985915493
53545,Rock County,WI,NA,NA,44.36619718309859
53546,Rock County,WI,NA,NA,23.41549295774648
53593,Dane County,WI,47.19626168224299,NA,NA
53821,Crawford County,WI,NA,74.91166077738515,NA
53916,Dodge County,WI,NA,49.11660777385159,NA
53949,Marquette County,WI,NA,96.81978798586573,NA
54166,Shawano County,WI,NA,NA,76.23239436619718
54481,Portage County,WI,NA,NA,26.58450704225352
54656,Monroe County,WI,NA,61.48409893992933,NA
54949,Waupaca County,WI,96.72897196261682,NA,NA
54956,Winnebago County,WI,NA,70.31802120141343,33.978873239436616
82435,Park County,WY,85.04672897196261,NA,NA
