ZipCode,county,state,Adult,Retirement
35077,Cullman County,AL,NA,63.934426229508205
35205,Jefferson County,AL,71.98364008179959,NA
35223,Jefferson County,AL,NA,73.11475409836066
35401,Tuscaloosa County,AL,NA,20.327868852459016
35475,Tuscaloosa County,AL,NA,46.885245901639344
35501,Walker County,AL,72.1881390593047,NA
35570,Marion County,AL,73.00613496932516,NA
35613,Limestone County,AL,45.194274028629856,NA
35646,Colbert County,AL,NA,94.42622950819673
35661,Colbert County,AL,71.37014314928425,NA
35749,Madison County,AL,53.78323108384458,NA
35761,Madison County,AL,79.55010224948876,NA
35904,Etowah County,AL,50.306748466257666,NA
36301,Houston County,AL,NA,17.04918032786885
36345,Henry County,AL,91.8200408997955,NA
36502,Escambia County,AL,49.284253578732105,NA
36541,Mobile County,AL,82.41308793456032,NA
36551,Baldwin County,AL,80.77709611451944,NA
36606,Mobile County,AL,NA,72.78688524590164
36617,Mobile County,AL,79.34560327198365,NA
36701,Dallas County,AL,31.901840490797547,NA
99508,Anchorage Municipality,AK,NA,67.8688524590164
85035,Maricopa County,AZ,18.813905930470348,NA
85037,Maricopa County,AZ,29.65235173824131,NA
85132,Pinal County,AZ,41.922290388548056,NA
85210,Maricopa County,AZ,25.766871165644172,52.78688524590164
85282,Maricopa County,AZ,44.989775051124745,NA
85298,Maricopa County,AZ,76.27811860940696,NA
85550,Graham County,AZ,78.11860940695297,97.04918032786885
85701,Pima County,AZ,87.11656441717791,NA
85713,Pima County,AZ,8.384458077709612,NA
85715,Pima County,AZ,81.18609406952966,NA
85750,Pima County,AZ,73.61963190184049,NA
86045,Coconino County,AZ,29.038854805725972,NA
86325,Yavapai County,AZ,NA,84.91803278688525
86327,Yavapai County,AZ,NA,60.65573770491803
71667,Lincoln County,AR,NA,84.91803278688525
71801,Hempstead County,AR,NA,74.75409836065575
72143,White County,AR,40.49079754601227,NA
72753,Washington County,AR,89.16155419222905,NA
72774,Washington County,AR,97.95501022494888,NA
90013,Los Angeles County,CA,62.985685071574636,NA
90029,Los Angeles County,CA,NA,67.21311475409836
90033,Los Angeles County,CA,48.057259713701434,NA
90044,Los Angeles County,CA,8.793456032719837,NA
90046,Los Angeles County,CA,57.873210633946826,NA
90048,Los Angeles County,CA,NA,59.34426229508196
90057,Los Angeles County,CA,85.07157464212679,NA
90064,Los Angeles County,CA,NA,48.19672131147541
90220,Los Angeles County,CA,NA,52.459016393442624
90301,Los Angeles County,CA,38.24130879345603,NA
90603,Los Angeles County,CA,98.15950920245399,NA
90631,Orange County,CA,NA,17.704918032786885
90650,Los Angeles County,CA,54.19222903885481,NA
90744,Los Angeles County,CA,NA,90.49180327868852
90806,Los Angeles County,CA,63.59918200408998,NA
90807,Los Angeles County,CA,57.668711656441715,NA
91301,Los Angeles County,CA,79.14110429447852,NA
91306,Los Angeles County,CA,NA,47.868852459016395
91604,Los Angeles County,CA,66.05316973415133,NA
91710,San Bernardino County,CA,40.081799591002046,NA
91770,Los Angeles County,CA,55.623721881390594,NA
91792,Los Angeles County,CA,87.93456032719837,NA
91911,San Diego County,CA,NA,18.688524590163937
91932,San Diego County,CA,80.3680981595092,NA
92019,San Diego County,CA,51.32924335378323,NA
92021,San Diego County,CA,NA,14.426229508196723
92024,San Diego County,CA,NA,72.45901639344262
92026,San Diego County,CA,62.372188139059304,NA
92057,San Diego County,CA,64.62167689161554,NA
92061,San Diego County,CA,99.79550102249489,NA
92110,San Diego County,CA,65.23517382413088,NA
92111,San Diego County,CA,83.43558282208589,NA
92117,San Diego County,CA,84.04907975460122,NA
92203,Riverside County,CA,NA,51.147540983606554
92220,Riverside County,CA,NA,60.983606557377044
92234,Riverside County,CA,15.950920245398773,NA
92335,San Bernardino County,CA,NA,16.721311475409838
92345,San Bernardino County,CA,NA,15.40983606557377
92395,San Bernardino County,CA,31.697341513292432,NA
92544,Riverside County,CA,53.16973415132924,NA
92553,Riverside County,CA,31.28834355828221,NA
92562,Riverside County,CA,30.67484662576687,NA
92563,Riverside County,CA,36.19631901840491,NA
92571,Riverside County,CA,44.580777096114524,NA
92582,Riverside County,CA,NA,92.78688524590164
92591,Riverside County,CA,NA,53.442622950819676
92630,Orange County,CA,NA,18.360655737704917
92881,Riverside County,CA,78.7321063394683,NA
93003,Ventura County,CA,17.586912065439673,21.9672131147541
93065,Ventura County,CA,NA,21.639344262295083
93241,Kern County,CA,92.84253578732107,NA
93277,Tulare County,CA,29.243353783231086,NA
93291,Tulare County,CA,NA,33.77049180327869
93458,Santa Barbara County,CA,16.359918200409,NA
93638,Madera County,CA,55.21472392638037,NA
93662,Fresno County,CA,NA,65.57377049180327
93703,Fresno County,CA,78.93660531697341,NA
93722,Fresno County,CA,10.838445807770961,NA
93924,Monterey County,CA,97.34151329243353,NA
93955,Monterey County,CA,NA,31.80327868852459
94025,San Mateo County,CA,53.987730061349694,NA
94061,San Mateo County,CA,59.918200408997954,NA
94401,San Mateo County,CA,80.16359918200409,NA
94565,Contra Costa County,CA,76.89161554192229,NA
94588,Alameda County,CA,78.32310838445807,NA
94590,Solano County,CA,NA,26.229508196721312
94597,Contra Costa County,CA,77.30061349693251,NA
94965,Marin County,CA,96.11451942740287,NA
95035,Santa Clara County,CA,54.396728016359916,NA
95117,Santa Clara County,CA,90.1840490797546,NA
95129,Santa Clara County,CA,NA,69.83606557377048
95136,Santa Clara County,CA,66.25766871165644,NA
95148,Santa Clara County,CA,NA,40.32786885245901
95240,San Joaquin County,CA,17.791411042944784,NA
95336,San Joaquin County,CA,NA,22.62295081967213
95380,Stanislaus County,CA,32.10633946830266,NA
95521,Humboldt County,CA,NA,77.04918032786885
95665,Amador County,CA,99.38650306748467,NA
95666,Amador County,CA,98.77300613496932,NA
95758,Sacramento County,CA,NA,44.26229508196721
95821,Sacramento County,CA,NA,30.16393442622951
95928,Butte County,CA,NA,64.91803278688525
95945,Nevada County,CA,65.439672801636,NA
96007,Shasta County,CA,73.21063394683026,57.377049180327866
96067,Siskiyou County,CA,95.29652351738241,NA
80010,Arapahoe County,CO,20.858895705521473,NA
80013,Arapahoe County,CO,12.474437627811861,NA
80017,Arapahoe County,CO,42.12678936605317,NA
80021,Jefferson County,CO,67.48466257668711,NA
80211,Denver County,CO,40.286298568507156,NA
80219,Denver County,CO,46.216768916155424,NA
80221,Adams County,CO,NA,49.8360655737705
80231,Denver County,CO,42.331288343558285,NA
80501,Boulder County,CO,NA,52.131147540983605
80524,Larimer County,CO,34.56032719836401,NA
80550,Weld County,CO,33.74233128834356,NA
80601,Adams County,CO,72.39263803680981,NA
80634,Weld County,CO,NA,1.3114754098360655
80759,Yuma County,CO,95.91002044989774,NA
80831,El Paso County,CO,74.84662576687117,NA
80903,El Paso County,CO,40.695296523517385,NA
80905,El Paso County,CO,72.59713701431492,NA
80909,El Paso County,CO,28.629856850715747,NA
81526,Mesa County,CO,NA,94.09836065573771
06010,Hartford County,CT,NA,20.655737704918035
06450,New Haven County,CT,NA,11.475409836065573
06705,New Haven County,CT,25.971370143149286,NA
06708,New Haven County,CT,24.74437627811861,NA
32024,Columbia County,FL,NA,70.16393442622952
32084,St. Johns County,FL,NA,27.21311475409836
32113,Marion County,FL,93.4560327198364,NA
32136,Flagler County,FL,NA,88.85245901639345
32148,Putnam County,FL,NA,87.8688524590164
32210,Duval County,FL,NA,4.918032786885246
32221,Duval County,FL,NA,32.459016393442624
32244,Duval County,FL,NA,10.819672131147541
32301,Leon County,FL,NA,68.1967213114754
32304,Leon County,FL,NA,85.90163934426229
32507,Escambia County,FL,NA,12.459016393442624
32565,Santa Rosa County,FL,NA,82.95081967213115
32566,Santa Rosa County,FL,38.65030674846626,NA
32696,Levy County,FL,NA,47.21311475409836
32720,Volusia County,FL,65.84867075664621,NA
32725,Volusia County,FL,39.46830265848671,NA
32792,Orange County,FL,NA,45.24590163934426
33126,Miami-Dade County,FL,NA,41.31147540983607
33130,Miami-Dade County,FL,84.66257668711657,NA
33136,Miami-Dade County,FL,55.419222903885476,NA
33142,Miami-Dade County,FL,NA,20.983606557377048
33196,Miami-Dade County,FL,71.57464212678937,NA
33321,Broward County,FL,NA,24.59016393442623
33410,Palm Beach County,FL,56.44171779141104,NA
33435,Palm Beach County,FL,NA,53.11475409836065
33715,Pinellas County,FL,NA,73.77049180327869
33756,Pinellas County,FL,51.124744376278116,NA
33762,Pinellas County,FL,NA,95.40983606557377
33771,Pinellas County,FL,50.10224948875256,NA
33881,Polk County,FL,41.513292433537835,NA
33917,Lee County,FL,58.895705521472394,NA
34207,Manatee County,FL,60.940695296523515,NA
34480,Marion County,FL,67.07566462167689,NA
34604,Hernando County,FL,NA,84.26229508196721
34607,Hernando County,FL,NA,71.80327868852459
34610,Pasco County,FL,NA,64.59016393442623
34653,Pasco County,FL,33.537832310838446,NA
34668,Pasco County,FL,13.701431492842536,NA
34744,Osceola County,FL,NA,36.0655737704918
34746,Osceola County,FL,NA,99.34426229508196
34785,Sumter County,FL,NA,73.44262295081967
34951,St. Lucie County,FL,85.48057259713701,NA
30032,DeKalb County,GA,14.11042944785276,NA
30038,DeKalb County,GA,47.034764826175866,NA
30103,Bartow County,GA,NA,75.73770491803279
30114,Cherokee County,GA,NA,27.86885245901639
30132,Paulding County,GA,37.01431492842536,35.08196721311476
30236,Clayton County,GA,NA,39.01639344262295
30349,Fulton County,GA,10.020449897750511,NA
30635,Elbert County,GA,NA,59.67213114754099
30725,Walker County,GA,93.66053169734151,NA
30815,Richmond County,GA,23.31288343558282,NA
30906,Richmond County,GA,9.202453987730062,NA
31015,Crisp County,GA,NA,63.60655737704918
31204,Bibb County,GA,NA,28.524590163934427
31411,Chatham County,GA,NA,95.08196721311475
31791,Worth County,GA,NA,82.62295081967214
96734,Honolulu County,HI,40.899795501022496,NA
96797,Honolulu County,HI,10.429447852760736,NA
96816,Honolulu County,HI,NA,49.18032786885246
96818,Honolulu County,HI,NA,31.147540983606557
96819,Honolulu County,HI,NA,14.754098360655737
83301,Twin Falls County,ID,NA,0.6557377049180327
83501,Nez Perce County,ID,16.155419222903884,NA
83634,Ada County,ID,NA,43.606557377049185
83858,Kootenai County,ID,82.82208588957054,NA
60005,Cook County,IL,NA,37.049180327868854
60076,Cook County,IL,NA,23.934426229508198
60085,Lake County,IL,19.631901840490798,NA
60181,DuPage County,IL,34.76482617586912,NA
60201,Cook County,IL,48.875255623721884,NA
60443,Cook County,IL,50.920245398773,NA
60466,Cook County,IL,NA,50.1639344262295
60471,Cook County,IL,NA,62.95081967213115
60546,Cook County,IL,NA,69.18032786885246
60613,Cook County,IL,32.515337423312886,NA
60630,Cook County,IL,NA,11.80327868852459
61008,Boone County,IL,37.627811860940696,NA
61115,Winnebago County,IL,NA,28.196721311475407
61542,Fulton County,IL,99.59100204498978,NA
61938,Coles County,IL,90.79754601226993,NA
62095,Madison County,IL,84.45807770961146,NA
62301,Adams County,IL,38.036809815950924,NA
62521,Macon County,IL,NA,7.213114754098362
62801,Marion County,IL,NA,29.18032786885246
62881,Marion County,IL,NA,92.45901639344262
46112,Hendricks County,IN,61.34969325153374,NA
46151,Morgan County,IN,30.061349693251532,NA
46218,Marion County,IN,11.860940695296524,NA
46224,Marion County,IN,34.96932515337423,NA
46229,Marion County,IN,27.811860940695297,NA
46254,Marion County,IN,NA,29.836065573770494
46307,Lake County,IN,2.2494887525562373,16.065573770491802
46373,Lake County,IN,34.151329243353786,NA
46408,Lake County,IN,NA,42.950819672131146
46526,Elkhart County,IN,64.21267893660531,NA
46761,LaGrange County,IN,74.02862985685071,NA
46805,Allen County,IN,36.400817995910025,NA
46902,Howard County,IN,3.885480572597137,NA
46932,Cass County,IN,94.47852760736197,NA
46975,Fulton County,IN,58.077709611451944,NA
47201,Bartholomew County,IN,13.496932515337424,NA
47203,Bartholomew County,IN,38.85480572597137,79.34426229508198
47265,Jennings County,IN,26.789366053169733,NA
47421,Lawrence County,IN,NA,19.672131147540984
47438,Greene County,IN,92.02453987730061,NA
47725,Vanderburgh County,IN,NA,65.24590163934427
50009,Polk County,IA,76.07361963190185,NA
50049,Lucas County,IA,NA,93.11475409836065
50266,Polk County,IA,NA,76.0655737704918
50801,Union County,IA,43.76278118609407,NA
51108,Woodbury County,IA,NA,94.75409836065573
52001,Dubuque County,IA,17.38241308793456,NA
52317,Johnson County,IA,58.691206543967276,NA
66062,Johnson County,KS,12.883435582822086,NA
66067,Franklin County,KS,NA,50.81967213114754
66205,Johnson County,KS,88.13905930470347,NA
66617,Shawnee County,KS,96.31901840490798,NA
67456,McPherson County,KS,NA,71.47540983606558
40206,Jefferson County,KY,74.43762781186093,NA
40216,Jefferson County,KY,11.042944785276074,NA
40330,Mercer County,KY,60.32719836400818,NA
40422,Boyle County,KY,52.556237218813905,NA
40515,Fayette County,KY,54.601226993865026,NA
40962,Clay County,KY,NA,21.311475409836063
41011,Kenton County,KY,15.746421267893659,NA
41017,Kenton County,KY,35.173824130879346,NA
41048,Boone County,KY,84.25357873210633,NA
42127,Barren County,KY,74.64212678936605,NA
42134,Simpson County,KY,59.100204498977504,NA
42141,Barren County,KY,13.905930470347649,NA
42217,Christian County,KY,93.25153374233128,NA
42420,Henderson County,KY,11.247443762781186,NA
42501,Pulaski County,KY,NA,56.393442622950815
42748,Larue County,KY,86.09406952965234,NA
70001,Jefferson Parish,LA,NA,8.852459016393443
70126,Orleans Parish,LA,6.748466257668712,NA
70401,Tangipahoa Parish,LA,29.85685071574642,NA
70422,Tangipahoa Parish,LA,NA,40
70433,St. Tammany Parish,LA,7.975460122699387,NA
70447,St. Tammany Parish,LA,84.86707566462167,NA
70454,Tangipahoa Parish,LA,NA,8.19672131147541
70633,Calcasieu Parish,LA,NA,86.55737704918033
70647,Calcasieu Parish,LA,49.897750511247445,NA
70805,East Baton Rouge Parish,LA,2.8629856850715747,NA
70817,East Baton Rouge Parish,LA,35.991820040899796,NA
71334,Concordia Parish,LA,75.66462167689161,NA
71343,Catahoula Parish,LA,NA,84.59016393442623
03901,York County,ME,94.68302658486708,NA
03908,York County,ME,92.22903885480572,NA
04073,York County,ME,27.607361963190186,NA
04240,Androscoggin County,ME,NA,1.9672131147540985
04401,Penobscot County,ME,2.4539877300613497,NA
04444,Penobscot County,ME,NA,62.295081967213115
20607,Prince George's County,MD,89.36605316973414,NA
20740,Prince George's County,MD,90.59304703476482,NA
20785,Prince George's County,MD,61.963190184049076,NA
20876,Montgomery County,MD,NA,93.77049180327869
21131,Baltimore County,MD,NA,88.19672131147541
21221,Baltimore County,MD,22.699386503067483,NA
21222,Baltimore County,MD,4.9079754601226995,NA
21701,Frederick County,MD,NA,58.36065573770492
21740,Washington County,MD,NA,60
01105,Hampden County,MA,NA,95.73770491803279
01331,Worcester County,MA,4.703476482617587,NA
01430,Worcester County,MA,NA,98.36065573770492
01501,Worcester County,MA,37.423312883435585,NA
01507,Worcester County,MA,42.944785276073624,79.01639344262294
01550,Worcester County,MA,1.4314928425357873,NA
01562,Worcester County,MA,NA,39.34426229508197
01604,Worcester County,MA,1.0224948875255624,80.98360655737706
01742,Middlesex County,MA,60.73619631901841,NA
01803,Middlesex County,MA,NA,3.606557377049181
01906,Essex County,MA,NA,7.540983606557377
02025,Norfolk County,MA,NA,76.39344262295083
02118,Suffolk County,MA,8.1799591002045,NA
02120,Suffolk County,MA,49.48875255623722,NA
02124,Suffolk County,MA,5.521472392638037,NA
02128,Suffolk County,MA,0.2044989775051125,NA
02130,Suffolk County,MA,NA,0.9836065573770493
02136,Suffolk County,MA,68.50715746421268,NA
02139,Middlesex County,MA,0,NA
02155,Middlesex County,MA,1.2269938650306749,NA
02176,Middlesex County,MA,8.997955010224949,NA
02360,Plymouth County,MA,NA,0
02379,Plymouth County,MA,NA,83.93442622950819
02633,Barnstable County,MA,NA,86.88524590163934
02724,Bristol County,MA,3.2719836400818,NA
48001,St. Clair County,MI,75.25562372188139,NA
48030,Oakland County,MI,NA,57.377049180327866
48035,Macomb County,MI,12.065439672801636,NA
48042,Macomb County,MI,24.130879345603272,NA
48044,Macomb County,MI,9.815950920245399,NA
48116,Livingston County,MI,NA,16.39344262295082
48166,Monroe County,MI,NA,34.75409836065574
48185,Wayne County,MI,5.725971370143149,NA
48186,Wayne County,MI,6.339468302658487,NA
48202,Wayne County,MI,34.355828220858896,NA
48209,Wayne County,MI,26.380368098159508,NA
48228,Wayne County,MI,1.8404907975460123,NA
48235,Wayne County,MI,2.658486707566462,NA
48239,Wayne County,MI,NA,38.68852459016394
48322,Oakland County,MI,NA,6.557377049180328
48342,Oakland County,MI,NA,33.114754098360656
48367,Oakland County,MI,96.7280163599182,NA
48457,Genesee County,MI,85.68507157464212,NA
48623,Saginaw County,MI,47.648261758691206,NA
48642,Midland County,MI,21.881390593047033,NA
48763,Iosco County,MI,89.97955010224949,NA
48883,Isabella County,MI,93.04703476482618,NA
48912,Ingham County,MI,59.100204498977504,NA
49068,Calhoun County,MI,NA,41.63934426229508
49093,St. Joseph County,MI,NA,34.0983606557377
49327,Newaygo County,MI,95.0920245398773,NA
49508,Kent County,MI,5.930470347648262,NA
49509,Kent County,MI,14.314928425357873,NA
49548,Kent County,MI,NA,13.442622950819672
49684,Grand Traverse County,MI,63.394683026584865,NA
55021,Rice County,MN,41.104294478527606,NA
55106,Ramsey County,MN,7.770961145194274,NA
55123,Dakota County,MN,83.23108384458078,NA
55343,Hennepin County,MN,48.261758691206545,NA
55364,Hennepin County,MN,NA,92.1311475409836
55404,Hennepin County,MN,NA,2.622950819672131
55410,Hennepin County,MN,NA,78.68852459016394
55419,Hennepin County,MN,50.715746421267895,NA
55449,Anoka County,MN,NA,66.22950819672131
56001,Blue Earth County,MN,NA,32.131147540983605
56353,Mille Lacs County,MN,NA,81.9672131147541
56358,Kanabec County,MN,98.56850715746421,NA
56364,Morrison County,MN,95.70552147239265,NA
56377,Stearns County,MN,91.00204498977506,NA
56537,Otter Tail County,MN,NA,8.524590163934425
56701,Pennington County,MN,22.290388548057262,NA
38606,Panola County,MS,73.41513292433538,NA
39056,Hinds County,MS,NA,65.57377049180327
39301,Lauderdale County,MS,20.654396728016362,NA
39401,Forrest County,MS,NA,78.0327868852459
39452,George County,MS,NA,54.42622950819672
39556,Hancock County,MS,69.52965235173824,NA
39601,Lincoln County,MS,87.32106339468302,NA
63106,St. Louis city,MO,NA,69.50819672131148
63118,St. Louis city,MO,35.58282208588957,NA
63123,St. Louis County,MO,39.87730061349693,NA
63301,St. Charles County,MO,14.723926380368098,NA
63368,St. Charles County,MO,45.807770961145195,NA
63376,St. Charles County,MO,12.269938650306749,NA
63601,St. Francois County,MO,NA,51.80327868852459
63640,St. Francois County,MO,44.376278118609406,NA
63701,Cape Girardeau County,MO,42.740286298568506,NA
64057,Jackson County,MO,47.239263803680984,NA
64064,Jackson County,MO,NA,42.295081967213115
64067,Lafayette County,MO,71.77914110429448,NA
64070,Jackson County,MO,NA,98.68852459016394
64117,Clay County,MO,NA,40.65573770491803
64123,Jackson County,MO,46.830265848670756,NA
64127,Jackson County,MO,NA,32.78688524590164
64133,Jackson County,MO,23.517382413087933,NA
64145,Jackson County,MO,NA,77.70491803278688
64152,Platte County,MO,22.085889570552148,NA
64155,Clay County,MO,25.562372188139058,NA
64157,Clay County,MO,37.21881390593047,NA
64503,Buchanan County,MO,30.265848670756647,NA
64506,Buchanan County,MO,21.267893660531698,NA
64701,Cass County,MO,47.443762781186095,NA
64735,Henry County,MO,NA,83.27868852459017
65203,Boone County,MO,28.22085889570552,NA
68005,Sarpy County,NE,70.14314928425358,NA
68112,Douglas County,NE,NA,91.80327868852459
89104,Clark County,NV,91.41104294478528,NA
89107,Clark County,NV,58.48670756646217,NA
89108,Clark County,NV,NA,38.36065573770492
89110,Clark County,NV,22.903885480572598,NA
89128,Clark County,NV,55.828220858895705,NA
89131,Clark County,NV,NA,43.9344262295082
03051,Hillsborough County,NH,25.357873210633947,NA
03244,Hillsborough County,NH,91.61554192229039,NA
03570,Coos County,NH,NA,77.37704918032787
07008,Middlesex County,NJ,30.470347648261757,NA
07042,Essex County,NJ,NA,99.672131147541
07106,Essex County,NJ,NA,64.26229508196721
07112,Essex County,NJ,20.040899795501023,NA
07305,Hudson County,NJ,5.316973415132924,NA
07456,Passaic County,NJ,NA,90.1639344262295
07461,Sussex County,NJ,43.967280163599185,NA
07660,Bergen County,NJ,69.32515337423312,NA
07666,Bergen County,NJ,14.92842535787321,NA
07726,Monmouth County,NJ,93.86503067484662,NA
07753,Monmouth County,NJ,NA,7.868852459016394
08021,Camden County,NJ,NA,5.245901639344262
08054,Burlington County,NJ,27.402862985685072,NA
08075,Burlington County,NJ,49.079754601226995,NA
08210,Cape May County,NJ,41.513292433537835,NA
08865,Warren County,NJ,26.1758691206544,NA
87047,Bernalillo County,NM,97.75051124744377,NA
87068,Valencia County,NM,NA,100
87105,Bernalillo County,NM,NA,3.278688524590164
87108,Bernalillo County,NM,7.361963190184049,NA
87110,Bernalillo County,NM,13.0879345603272,NA
87505,Santa Fe County,NM,5.112474437627812,NA
87508,Santa Fe County,NM,89.77505112474438,NA
88001,Doa Ana County,NM,30.879345603271986,NA
88007,Doa Ana County,NM,64.41717791411043,NA
10025,New York County,NY,6.134969325153374,NA
10029,New York County,NY,0.6134969325153374,NA
10031,New York County,NY,10.224948875255624,NA
10451,Bronx County,NY,19.018404907975462,NA
10457,Bronx County,NY,0.81799591002045,NA
10460,Bronx County,NY,NA,12.786885245901638
10516,Putnam County,NY,NA,97.70491803278688
10701,Westchester County,NY,1.6359918200409,NA
11211,Kings County,NY,47.85276073619632,NA
11212,Kings County,NY,NA,5.573770491803279
11501,Nassau County,NY,82.61758691206545,NA
11722,Suffolk County,NY,25.153374233128833,NA
11776,Suffolk County,NY,63.80368098159509,NA
11967,Suffolk County,NY,35.37832310838446,NA
12020,Saratoga County,NY,22.290388548057262,NA
12043,Schoharie County,NY,61.963190184049076,NA
12306,Schenectady County,NY,35.58282208588957,NA
12414,Greene County,NY,57.46421267893661,NA
12580,Dutchess County,NY,99.18200408997954,NA
12834,Washington County,NY,75.4601226993865,NA
12953,Franklin County,NY,NA,93.44262295081968
13210,Onondaga County,NY,39.059304703476485,NA
13365,Herkimer County,NY,NA,30.81967213114754
13601,Jefferson County,NY,4.08997955010225,NA
14120,Niagara County,NY,4.4989775051124745,NA
14132,Niagara County,NY,70.75664621676891,NA
14139,Erie County,NY,96.52351738241309,NA
14204,Erie County,NY,45.603271983640084,NA
14206,Erie County,NY,14.519427402862986,NA
14514,Monroe County,NY,NA,78.36065573770492
14522,Wayne County,NY,36.60531697341513,NA
14526,Monroe County,NY,16.768916155419223,NA
14527,Yates County,NY,NA,25.901639344262296
14534,Monroe County,NY,32.31083844580777,NA
14580,Monroe County,NY,7.566462167689162,NA
14607,Monroe County,NY,21.063394683026583,NA
14609,Monroe County,NY,0.408997955010225,NA
14613,Monroe County,NY,NA,31.475409836065577
14701,Chautauqua County,NY,NA,1.639344262295082
14772,Cattaraugus County,NY,NA,99.01639344262296
14821,Steuben County,NY,NA,97.37704918032787
14845,Chemung County,NY,51.533742331288344,NA
14867,Tompkins County,NY,68.09815950920245,NA
27030,Surry County,NC,7.157464212678937,46.22950819672131
27051,Forsyth County,NC,80.98159509202453,NA
27295,Davidson County,NC,3.476482617586912,NA
27407,Guilford County,NC,NA,98.0327868852459
27502,Wake County,NC,NA,37.704918032786885
27504,Johnston County,NC,86.50306748466258,NA
27529,Wake County,NC,28.425357873210633,NA
27544,Vance County,NC,98.97750511247445,NA
27546,Harnett County,NC,NA,74.42622950819671
27592,Wake County,NC,NA,67.54098360655738
27610,Wake County,NC,NA,4.2622950819672125
27615,Wake County,NC,NA,13.114754098360656
27870,Halifax County,NC,62.57668711656442,NA
27932,Chowan County,NC,83.640081799591,NA
28056,Gaston County,NC,NA,44.91803278688525
28117,Iredell County,NC,33.94683026584867,NA
28139,Rutherford County,NC,NA,55.40983606557377
28168,Lincoln County,NC,76.68711656441718,NA
28270,Mecklenburg County,NC,67.280163599182,NA
28312,Cumberland County,NC,NA,42.62295081967213
28364,Robeson County,NC,48.670756646216766,NA
28384,Bladen County,NC,91.20654396728017,NA
28560,Craven County,NC,NA,36.39344262295082
28590,Pitt County,NC,NA,61.31147540983607
28625,Iredell County,NC,NA,19.01639344262295
28645,Caldwell County,NC,3.6809815950920246,NA
28681,Alexander County,NC,23.108384458077712,36.721311475409834
28715,Buncombe County,NC,52.965235173824134,NA
28732,Henderson County,NC,89.57055214723927,NA
28754,Madison County,NC,97.13701431492842,NA
28782,Polk County,NC,NA,80.32786885245902
28806,Buncombe County,NC,NA,70.81967213114754
58078,Cass County,ND,NA,45.90163934426229
58701,Ward County,ND,12.678936605316974,NA
58801,Williams County,ND,39.263803680981596,NA
43055,Licking County,OH,2.044989775051125,NA
43110,Franklin County,OH,26.58486707566462,9.508196721311474
43228,Franklin County,OH,3.067484662576687,NA
43315,Morrow County,OH,NA,96.06557377049181
43512,Defiance County,OH,NA,3.606557377049181
43528,Lucas County,OH,43.149284253578735,NA
43616,Lucas County,OH,NA,10.491803278688524
43701,Muskingum County,OH,NA,0.32786885245901637
43756,Morgan County,OH,85.2760736196319,NA
44001,Lorain County,OH,NA,2.9508196721311477
44030,Ashtabula County,OH,24.539877300613497,NA
44102,Cuyahoga County,OH,21.472392638036812,NA
44109,Cuyahoga County,OH,53.37423312883436,NA
44110,Cuyahoga County,OH,38.445807770961146,NA
44113,Cuyahoga County,OH,9.406952965235174,NA
44119,Cuyahoga County,OH,59.50920245398773,NA
44124,Cuyahoga County,OH,NA,2.2950819672131146
44125,Cuyahoga County,OH,51.738241308793455,NA
44127,Cuyahoga County,OH,68.9161554192229,NA
44130,Cuyahoga County,OH,NA,9.836065573770492
44132,Cuyahoga County,OH,NA,45.57377049180328
44135,Cuyahoga County,OH,72.80163599182005,5.901639344262295
44139,Cuyahoga County,OH,NA,12.131147540983607
44143,Cuyahoga County,OH,90.38854805725971,NA
44203,Summit County,OH,66.66666666666666,NA
44404,Trumbull County,OH,94.88752556237219,NA
44445,Columbiana County,OH,92.63803680981594,NA
44509,Mahoning County,OH,78.52760736196319,NA
44514,Mahoning County,OH,52.3517382413088,NA
44601,Stark County,OH,8.588957055214724,NA
44615,Carroll County,OH,79.55010224948876,NA
44720,Stark County,OH,33.12883435582822,NA
44904,Richland County,OH,82.20858895705521,NA
45042,Butler County,OH,NA,79.67213114754098
45205,Hamilton County,OH,61.145194274028626,NA
45212,Hamilton County,OH,NA,54.75409836065573
45224,Hamilton County,OH,NA,48.85245901639344
45244,Hamilton County,OH,57.05521472392638,NA
45318,Miami County,OH,98.3640081799591,NA
45365,Shelby County,OH,13.29243353783231,NA
45417,Montgomery County,OH,NA,15.737704918032788
45648,Scioto County,OH,64.82617586912065,NA
45701,Athens County,OH,67.89366053169734,NA
45805,Allen County,OH,NA,25.573770491803277
73005,Caddo County,OK,86.29856850715747,NA
73020,Oklahoma County,OK,44.785276073619634,NA
73044,Logan County,OK,57.259713701431494,NA
73122,Oklahoma County,OK,83.02658486707567,NA
73521,Jackson County,OK,NA,54.09836065573771
73533,Stephens County,OK,23.721881390593047,NA
73701,Garfield County,OK,50.511247443762784,NA
74006,Washington County,OK,61.554192229038854,NA
74023,Payne County,OK,70.96114519427404,NA
74044,Creek County,OK,81.79959100204499,NA
74115,Tulsa County,OK,NA,66.88524590163935
74145,Tulsa County,OK,NA,61.63934426229508
97080,Multnomah County,OR,28.834355828220858,NA
97086,Clackamas County,OR,NA,63.278688524590166
97128,Yamhill County,OR,20.245398773006134,27.54098360655738
97233,Multnomah County,OR,18.200408997955012,NA
97239,Multnomah County,OR,NA,88.52459016393442
97267,Clackamas County,OR,73.8241308793456,NA
97330,Benton County,OR,NA,24.91803278688525
97386,Linn County,OR,NA,89.8360655737705
97501,Jackson County,OR,10.633946830265849,NA
97503,Jackson County,OR,70.34764826175869,NA
15025,Allegheny County,PA,53.578732106339466,NA
15116,Allegheny County,PA,NA,80
15122,Allegheny County,PA,55.828220858895705,NA
15146,Allegheny County,PA,NA,30.491803278688522
15210,Allegheny County,PA,NA,39.67213114754099
15212,Allegheny County,PA,27.811860940695297,NA
15224,Allegheny County,PA,81.59509202453987,NA
15301,Washington County,PA,31.492842535787318,NA
15714,Cambria County,PA,NA,83.60655737704919
15801,Clearfield County,PA,9.611451942740286,NA
16601,Blair County,PA,NA,6.229508196721312
17025,Cumberland County,PA,36.60531697341513,NA
17313,York County,PA,NA,90.81967213114754
17401,York County,PA,86.9120654396728,NA
17512,Lancaster County,PA,46.012269938650306,NA
17578,Lancaster County,PA,87.73006134969326,NA
17901,Schuylkill County,PA,29.447852760736197,NA
18017,Northampton County,PA,6.5439672801636,NA
18104,Lehigh County,PA,15.337423312883436,NA
18472,Wayne County,PA,NA,87.54098360655738
18508,Lackawanna County,PA,66.46216768916156,NA
18840,Bradford County,PA,NA,75.40983606557377
18944,Bucks County,PA,NA,40.98360655737705
19057,Bucks County,PA,NA,62.62295081967213
19063,Delaware County,PA,NA,11.147540983606557
19087,Chester County,PA,NA,23.60655737704918
19116,Philadelphia County,PA,32.719836400818,NA
19120,Philadelphia County,PA,19.427402862985684,NA
19133,Philadelphia County,PA,16.973415132924334,NA
19135,Philadelphia County,PA,16.56441717791411,34.42622950819672
19139,Philadelphia County,PA,42.535787321063395,NA
19146,Philadelphia County,PA,NA,23.934426229508198
19335,Chester County,PA,NA,13.77049180327869
19401,Montgomery County,PA,NA,22.295081967213115
19525,Montgomery County,PA,75.05112474437627,NA
19540,Berks County,PA,NA,53.77049180327869
19560,Berks County,PA,83.84458077709611,NA
19601,Berks County,PA,NA,14.098360655737704
29323,Spartanburg County,SC,60.53169734151329,NA
29356,Spartanburg County,SC,NA,68.52459016393443
29569,Horry County,SC,NA,56.393442622950815
29841,Aiken County,SC,59.71370143149284,NA
37055,Dickson County,TN,27.198364008179958,NA
37069,Williamson County,TN,88.34355828220859,NA
37115,Davidson County,TN,44.171779141104295,NA
37160,Bedford County,TN,56.646216768916155,NA
37187,Dickson County,TN,79.95910020449898,NA
37214,Davidson County,TN,NA,50.49180327868853
37343,Hamilton County,TN,24.948875255623722,NA
37367,Bledsoe County,TN,69.73415132924336,NA
37398,Franklin County,TN,49.693251533742334,NA
37641,Greene County,TN,NA,55.08196721311476
37857,Hawkins County,TN,NA,37.37704918032787
37876,Sevier County,TN,NA,22.950819672131146
37918,Knox County,TN,15.337423312883436,NA
38016,Shelby County,TN,88.5480572597137,NA
38111,Shelby County,TN,NA,43.278688524590166
38116,Shelby County,TN,19.836400817995912,NA
38117,Shelby County,TN,77.0961145194274,NA
38305,Madison County,TN,11.451942740286299,NA
38501,Putnam County,TN,21.676891615541923,NA
75002,Collin County,TX,23.92638036809816,26.885245901639344
75034,Denton County,TX,41.308793456032724,NA
75043,Dallas County,TX,58.077709611451944,NA
75044,Dallas County,TX,NA,28.852459016393446
75090,Grayson County,TX,51.94274028629857,NA
75143,Henderson County,TX,69.12065439672801,NA
75218,Dallas County,TX,NA,58.032786885245905
75219,Dallas County,TX,NA,59.01639344262295
75551,Cass County,TX,NA,75.08196721311475
75640,Upshur County,TX,NA,89.18032786885246
75766,Cherokee County,TX,NA,6.885245901639345
75785,Cherokee County,TX,74.23312883435584,NA
75790,Van Zandt County,TX,NA,81.63934426229508
75951,Jasper County,TX,55.010224948875255,NA
76018,Tarrant County,TX,NA,58.68852459016394
76048,Hood County,TX,NA,87.21311475409837
76117,Tarrant County,TX,37.83231083844581,NA
76249,Denton County,TX,94.27402862985686,NA
76302,Wichita County,TX,76.48261758691206,NA
76401,Erath County,TX,NA,46.557377049180324
76643,McLennan County,TX,94.06952965235173,NA
77016,Harris County,TX,77.70961145194273,NA
77023,Harris County,TX,85.88957055214725,NA
77033,Harris County,TX,NA,19.34426229508197
77062,Harris County,TX,66.87116564417178,NA
77065,Harris County,TX,67.68916155419224,NA
77087,Harris County,TX,62.985685071574636,NA
77327,Liberty County,TX,NA,70.16393442622952
77373,Harris County,TX,NA,26.557377049180324
77378,Montgomery County,TX,NA,82.29508196721311
77379,Harris County,TX,NA,9.180327868852459
77494,Fort Bend County,TX,19.222903885480573,NA
77502,Harris County,TX,NA,55.73770491803278
77523,Chambers County,TX,65.03067484662577,NA
77530,Harris County,TX,NA,81.31147540983606
77536,Harris County,TX,NA,38.0327868852459
77573,Galveston County,TX,11.65644171779141,NA
77583,Brazoria County,TX,56.850715746421265,NA
77656,Hardin County,TX,64.0081799591002,NA
77904,Victoria County,TX,43.353783231083845,NA
77905,Victoria County,TX,68.71165644171779,NA
77954,DeWitt County,TX,NA,55.73770491803278
77957,Jackson County,TX,NA,68.85245901639344
78046,Webb County,TX,NA,25.245901639344265
78227,Bexar County,TX,39.672801635991824,NA
78228,Bexar County,TX,33.33333333333333,NA
78245,Bexar County,TX,26.993865030674847,NA
78250,Bexar County,TX,NA,51.47540983606558
78382,Aransas County,TX,86.70756646216769,NA
78516,Hidalgo County,TX,NA,47.540983606557376
78578,Cameron County,TX,NA,85.57377049180329
78744,Travis County,TX,70.5521472392638,NA
78758,Travis County,TX,59.918200408997954,NA
78945,Fayette County,TX,NA,76.72131147540983
79403,Lubbock County,TX,82.0040899795501,NA
79407,Lubbock County,TX,52.14723926380368,NA
79705,Midland County,TX,31.083844580777097,NA
79735,Pecos County,TX,88.75255623721881,NA
79745,Winkler County,TX,88.75255623721881,NA
79761,Ector County,TX,56.23721881390593,NA
79762,Ector County,TX,32.92433537832311,NA
84015,Davis County,UT,NA,44.59016393442623
84070,Salt Lake County,UT,54.805725971370144,NA
84095,Salt Lake County,UT,43.558282208588956,NA
84109,Salt Lake County,UT,71.16564417177914,NA
84121,Salt Lake County,UT,NA,17.37704918032787
84401,Weber County,UT,46.421267893660534,NA
84404,Weber County,UT,NA,35.40983606557377
84601,Utah County,UT,NA,80.65573770491802
84701,Sevier County,UT,NA,96.39344262295081
05143,Windsor County,VT,NA,89.18032786885246
05408,Chittenden County,VT,NA,91.47540983606557
20120,Fairfax County,VA,NA,71.14754098360656
20164,Loudoun County,VA,NA,61.967213114754095
20186,Fauquier County,VA,96.93251533742331,NA
22030,Fairfax County,VA,NA,29.508196721311474
22041,Fairfax County,VA,75.86912065439672,NA
22153,Fairfax County,VA,65.6441717791411,NA
22560,Essex County,VA,69.73415132924336,NA
23453,Virginia Beach city,VA,52.760736196319016,NA
23464,Virginia Beach city,VA,18.609406952965234,NA
23509,Norfolk city,VA,45.39877300613497,NA
23662,Poquoson city,VA,NA,73.77049180327869
23669,Hampton city,VA,24.335378323108383,NA
23803,Petersburg city,VA,NA,15.081967213114755
24060,Montgomery County,VA,NA,72.1311475409836
24141,Radford city,VA,77.50511247443764,NA
24216,Wise County,VA,100,NA
98028,King County,WA,77.91411042944786,NA
98032,King County,WA,46.62576687116564,NA
98037,Snohomish County,WA,NA,57.049180327868854
98038,King County,WA,NA,33.442622950819676
98052,King County,WA,80.57259713701431,NA
98178,King County,WA,61.75869120654397,NA
98257,Skagit County,WA,97.34151329243353,NA
98270,Snohomish County,WA,20.449897750511248,NA
98271,Snohomish County,WA,NA,48.52459016393443
98409,Pierce County,WA,62.78118609406953,NA
98499,Pierce County,WA,NA,49.50819672131148
98584,Mason County,WA,NA,20
98855,Okanogan County,WA,NA,96.72131147540983
99301,Franklin County,WA,NA,4.590163934426229
20007,District of Columbia,DC,81.39059304703477,NA
20015,District of Columbia,DC,87.52556237218813,NA
25143,Kanawha County,WV,68.09815950920245,NA
25701,Cabell County,WV,17.995910020449898,NA
26003,Ohio County,WV,48.466257668711656,NA
26301,Harrison County,WV,NA,10.163934426229508
53105,Racine County,WI,16.973415132924334,NA
53188,Waukesha County,WI,NA,18.0327868852459
53211,Milwaukee County,WI,NA,23.278688524590162
53212,Milwaukee County,WI,15.132924335378323,NA
53215,Milwaukee County,WI,4.294478527607362,NA
53216,Milwaukee County,WI,6.952965235173824,NA
53223,Milwaukee County,WI,18.404907975460123,NA
53563,Rock County,WI,92.43353783231085,NA
53575,Dane County,WI,NA,66.22950819672131
54302,Brown County,WI,NA,41.967213114754095
54403,Marathon County,WI,95.50102249488752,NA
54656,Monroe County,WI,NA,35.73770491803279
54911,Outagamie County,WI,NA,91.14754098360656
54963,Winnebago County,WI,NA,86.22950819672131
82801,Sheridan County,WY,NA,60.32786885245902
