ZipCode,county,state,Youth,Pediatric,Adult,Retirement
35004,St. Clair County,AL,NA,NA,NA,82.22222222222221
35040,Shelby County,AL,NA,81.06508875739645,NA,NA
35128,St. Clair County,AL,NA,NA,81.91176470588235,NA
35151,Talladega County,AL,NA,NA,92.5,NA
35173,Jefferson County,AL,NA,NA,NA,51.55555555555556
35184,Bibb County,AL,NA,89.64497041420118,NA,NA
35215,Jefferson County,AL,NA,NA,11.617647058823529,NA
35221,Jefferson County,AL,NA,NA,94.55882352941177,NA
35549,Walker County,AL,NA,97.63313609467455,NA,NA
35601,Morgan County,AL,21.639344262295083,NA,18.529411764705884,NA
35620,Limestone County,AL,NA,74.55621301775149,NA,NA
35957,Marshall County,AL,NA,56.50887573964497,NA,NA
36054,Elmore County,AL,53.77049180327869,NA,NA,NA
36078,Elmore County,AL,NA,NA,NA,84
36272,Calhoun County,AL,NA,76.03550295857988,NA,NA
36312,Houston County,AL,NA,NA,95.88235294117648,NA
36330,Coffee County,AL,NA,51.77514792899408,NA,NA
36474,Covington County,AL,NA,92.60355029585799,NA,NA
36587,Mobile County,AL,71.14754098360656,NA,NA,NA
36863,Chambers County,AL,NA,71.30177514792899,NA,NA
99508,Anchorage Municipality,AK,NA,NA,24.852941176470587,NA
99645,Matanuska-Susitna Borough,AK,20,NA,NA,NA
99901,Ketchikan Gateway Borough,AK,NA,NA,51.76470588235295,NA
85015,Maricopa County,AZ,NA,NA,NA,62.66666666666667
85016,Maricopa County,AZ,NA,18.04733727810651,NA,NA
85018,Maricopa County,AZ,NA,NA,45.44117647058823,NA
85029,Maricopa County,AZ,11.80327868852459,NA,31.76470588235294,NA
85033,Maricopa County,AZ,NA,8.284023668639055,NA,NA
85041,Maricopa County,AZ,NA,23.964497041420117,NA,NA
85042,Maricopa County,AZ,NA,27.514792899408285,NA,NA
85043,Maricopa County,AZ,NA,NA,63.970588235294116,NA
85086,Maricopa County,AZ,32.131147540983605,NA,NA,NA
85119,Pinal County,AZ,NA,NA,77.79411764705883,NA
85122,Pinal County,AZ,NA,NA,NA,16
85128,Pinal County,AZ,63.60655737704918,NA,NA,NA
85204,Maricopa County,AZ,NA,NA,20,NA
85205,Maricopa County,AZ,NA,83.72781065088756,NA,NA
85210,Maricopa County,AZ,35.40983606557377,NA,NA,NA
85226,Maricopa County,AZ,57.049180327868854,NA,NA,NA
85257,Maricopa County,AZ,NA,NA,75.73529411764706,NA
85296,Maricopa County,AZ,NA,NA,44.55882352941177,NA
85323,Maricopa County,AZ,NA,57.396449704142015,NA,NA
85326,Maricopa County,AZ,NA,NA,NA,54.666666666666664
85340,Maricopa County,AZ,NA,NA,73.6764705882353,NA
85353,Maricopa County,AZ,NA,NA,43.8235294117647,NA
85364,Yuma County,AZ,NA,NA,4.852941176470589,7.111111111111111
85530,Graham County,AZ,78.68852459016394,NA,NA,NA
85550,Graham County,AZ,77.37704918032787,NA,NA,NA
85629,Pima County,AZ,NA,35.50295857988166,NA,NA
85634,Pima County,AZ,65.57377049180327,NA,NA,NA
85635,Cochise County,AZ,NA,30.17751479289941,NA,NA
85658,Pima County,AZ,NA,NA,85.1470588235294,NA
85705,Pima County,AZ,NA,NA,26.764705882352942,NA
85741,Pima County,AZ,11.80327868852459,42.89940828402367,NA,NA
85901,Navajo County,AZ,NA,87.57396449704143,NA,NA
86034,Navajo County,AZ,96.39344262295081,NA,NA,NA
86324,Yavapai County,AZ,NA,NA,97.6470588235294,NA
86505,Apache County,AZ,NA,NA,73.08823529411764,NA
71913,Garland County,AR,18.0327868852459,NA,NA,NA
72401,Craighead County,AR,NA,NA,21.764705882352942,13.777777777777779
72450,Greene County,AR,NA,NA,27.205882352941174,NA
90005,Los Angeles County,CA,NA,NA,NA,80.88888888888889
90011,Los Angeles County,CA,NA,29.289940828402365,NA,NA
90031,Los Angeles County,CA,74.75409836065575,NA,NA,77.33333333333333
90032,Los Angeles County,CA,NA,NA,57.79411764705882,NA
90044,Los Angeles County,CA,NA,6.21301775147929,NA,NA
90066,Los Angeles County,CA,NA,NA,54.55882352941176,NA
90241,Los Angeles County,CA,NA,NA,63.23529411764706,NA
90255,Los Angeles County,CA,NA,NA,NA,71.55555555555554
90620,Orange County,CA,20.327868852459016,NA,NA,NA
90670,Los Angeles County,CA,NA,NA,96.17647058823529,NA
90703,Los Angeles County,CA,NA,NA,69.55882352941177,NA
90731,Los Angeles County,CA,NA,70.41420118343196,NA,NA
90806,Los Angeles County,CA,NA,NA,65.29411764705883,NA
91024,Los Angeles County,CA,NA,NA,97.79411764705883,NA
91103,Los Angeles County,CA,NA,83.13609467455622,NA,NA
91304,Los Angeles County,CA,NA,NA,57.94117647058824,NA
91331,Los Angeles County,CA,NA,9.171597633136095,NA,NA
91351,Los Angeles County,CA,NA,81.06508875739645,NA,NA
91390,Los Angeles County,CA,NA,97.63313609467455,NA,NA
91401,Los Angeles County,CA,NA,NA,95.29411764705881,NA
91402,Los Angeles County,CA,NA,NA,36.911764705882355,NA
91702,Los Angeles County,CA,82.29508196721311,NA,42.64705882352941,NA
91706,Los Angeles County,CA,NA,NA,NA,41.77777777777778
91724,Los Angeles County,CA,NA,NA,81.17647058823529,79.11111111111111
91730,San Bernardino County,CA,NA,NA,NA,45.77777777777778
91739,San Bernardino County,CA,NA,NA,71.32352941176471,NA
91744,Los Angeles County,CA,NA,NA,NA,34.22222222222222
91746,Los Angeles County,CA,NA,NA,82.5,NA
91754,Los Angeles County,CA,NA,NA,NA,67.11111111111111
91766,Los Angeles County,CA,NA,22.189349112426036,NA,NA
91767,Los Angeles County,CA,NA,70.11834319526628,NA,NA
91770,Los Angeles County,CA,NA,NA,60,NA
91910,San Diego County,CA,35.73770491803279,NA,NA,NA
92040,San Diego County,CA,NA,NA,NA,33.77777777777778
92071,San Diego County,CA,NA,NA,34.11764705882353,NA
92103,San Diego County,CA,NA,NA,55.294117647058826,NA
92113,San Diego County,CA,NA,NA,33.088235294117645,NA
92117,San Diego County,CA,NA,50,NA,NA
92128,San Diego County,CA,55.08196721311476,NA,NA,NA
92201,Riverside County,CA,NA,NA,32.20588235294118,22.666666666666664
92250,Imperial County,CA,NA,NA,NA,92
92283,Imperial County,CA,NA,NA,99.26470588235294,NA
92301,San Bernardino County,CA,NA,36.09467455621302,NA,NA
92335,San Bernardino County,CA,15.737704918032788,NA,NA,NA
92336,San Bernardino County,CA,NA,NA,84.26470588235294,NA
92373,San Bernardino County,CA,NA,NA,NA,72.88888888888889
92376,San Bernardino County,CA,NA,NA,NA,20.88888888888889
92407,San Bernardino County,CA,37.049180327868854,33.13609467455622,NA,NA
92532,Riverside County,CA,NA,NA,78.08823529411765,NA
92553,Riverside County,CA,NA,NA,NA,53.333333333333336
92584,Riverside County,CA,NA,NA,NA,66.22222222222223
92585,Riverside County,CA,NA,NA,86.61764705882354,NA
92626,Orange County,CA,NA,92.60355029585799,NA,NA
92701,Orange County,CA,63.60655737704918,NA,NA,NA
92806,Orange County,CA,NA,NA,88.38235294117646,NA
92870,Orange County,CA,NA,56.80473372781065,NA,NA
92882,Riverside County,CA,NA,42.60355029585799,NA,NA
93003,Ventura County,CA,NA,NA,NA,26.222222222222225
93022,Ventura County,CA,NA,NA,98.97058823529412,NA
93101,Santa Barbara County,CA,NA,NA,81.61764705882352,NA
93212,Kings County,CA,NA,NA,96.61764705882354,NA
93230,Kings County,CA,NA,12.1301775147929,25.147058823529413,NA
93235,Tulare County,CA,NA,NA,NA,100
93242,Fresno County,CA,NA,NA,NA,99.55555555555556
93245,Kings County,CA,NA,NA,71.32352941176471,NA
93257,Tulare County,CA,NA,NA,NA,29.333333333333332
93291,Tulare County,CA,11.147540983606557,NA,NA,NA
93304,Kern County,CA,NA,31.06508875739645,NA,NA
93307,Kern County,CA,NA,NA,18.088235294117645,NA
93312,Kern County,CA,NA,NA,50.294117647058826,NA
93422,San Luis Obispo County,CA,NA,NA,56.61764705882353,NA
93451,San Luis Obispo County,CA,NA,NA,99.8529411764706,NA
93534,Los Angeles County,CA,NA,NA,48.088235294117645,NA
93550,Los Angeles County,CA,NA,16.272189349112427,NA,NA
93611,Fresno County,CA,NA,61.24260355029586,NA,NA
93646,Fresno County,CA,NA,44.37869822485207,NA,NA
93650,Fresno County,CA,NA,94.37869822485207,NA,NA
93656,Fresno County,CA,NA,83.13609467455622,NA,NA
93662,Fresno County,CA,NA,20.414201183431953,NA,NA
93705,Fresno County,CA,NA,NA,44.11764705882353,NA
93720,Fresno County,CA,NA,NA,NA,33.33333333333333
93933,Monterey County,CA,NA,71.59763313609467,NA,NA
94063,San Mateo County,CA,NA,NA,52.794117647058826,NA
94109,San Francisco County,CA,NA,NA,38.6764705882353,NA
94123,San Francisco County,CA,NA,NA,NA,95.55555555555556
94306,Santa Clara County,CA,NA,NA,89.8529411764706,NA
94401,San Mateo County,CA,NA,NA,84.41176470588235,NA
94544,Alameda County,CA,NA,NA,25.441176470588232,NA
94545,Alameda County,CA,NA,NA,83.82352941176471,NA
94556,Contra Costa County,CA,NA,NA,NA,93.77777777777779
94565,Contra Costa County,CA,21.311475409836063,NA,NA,10.222222222222223
94580,Alameda County,CA,NA,NA,NA,74.66666666666667
94587,Alameda County,CA,NA,NA,47.35294117647059,NA
94605,Alameda County,CA,NA,20.118343195266274,NA,NA
94703,Alameda County,CA,NA,NA,77.94117647058823,NA
95020,Santa Clara County,CA,NA,51.4792899408284,NA,NA
95116,Santa Clara County,CA,NA,42.89940828402367,NA,NA
95122,Santa Clara County,CA,NA,NA,55.58823529411765,NA
95207,San Joaquin County,CA,NA,76.92307692307693,NA,NA
95301,Merced County,CA,NA,NA,55.294117647058826,NA
95307,Stanislaus County,CA,NA,46.15384615384615,NA,NA
95320,San Joaquin County,CA,NA,NA,NA,90.66666666666666
95336,San Joaquin County,CA,NA,NA,NA,28.000000000000004
95340,Merced County,CA,NA,33.72781065088758,NA,NA
95354,Stanislaus County,CA,NA,NA,NA,88
95358,Stanislaus County,CA,43.278688524590166,NA,NA,NA
95386,Stanislaus County,CA,NA,NA,NA,93.77777777777779
95482,Mendocino County,CA,NA,NA,NA,32.88888888888889
95632,Sacramento County,CA,83.27868852459017,NA,NA,NA
95670,Sacramento County,CA,NA,NA,45.588235294117645,NA
95682,El Dorado County,CA,NA,NA,67.5,NA
95815,Sacramento County,CA,NA,NA,NA,72.44444444444444
95818,Sacramento County,CA,NA,NA,82.05882352941177,NA
95821,Sacramento County,CA,NA,NA,52.94117647058824,NA
95831,Sacramento County,CA,NA,NA,66.47058823529412,NA
95834,Sacramento County,CA,NA,78.99408284023669,NA,NA
95842,Sacramento County,CA,NA,95.85798816568047,NA,NA
95928,Butte County,CA,NA,NA,NA,40.88888888888889
95954,Butte County,CA,NA,65.68047337278107,NA,NA
95993,Sutter County,CA,NA,NA,83.52941176470588,NA
96003,Shasta County,CA,50.81967213114754,NA,NA,NA
96041,Trinity County,CA,NA,100,NA,NA
80224,Denver County,CO,NA,98.5207100591716,NA,NA
80237,Denver County,CO,NA,NA,81.17647058823529,NA
80238,Denver County,CO,45.24590163934426,NA,NA,NA
80241,Adams County,CO,NA,73.96449704142012,NA,NA
80525,Larimer County,CO,NA,NA,22.35294117647059,NA
80528,Larimer County,CO,NA,NA,61.911764705882355,NA
80904,El Paso County,CO,NA,NA,NA,72
81004,Pueblo County,CO,NA,NA,34.26470588235294,NA
81006,Pueblo County,CO,NA,NA,NA,79.55555555555556
81226,Fremont County,CO,NA,NA,92.64705882352942,NA
81647,Garfield County,CO,95.40983606557377,NA,NA,NA
06001,Hartford County,CT,NA,NA,87.3529411764706,NA
06033,Hartford County,CT,70.49180327868852,NA,NA,NA
06066,Tolland County,CT,NA,NA,24.558823529411764,NA
06105,Hartford County,CT,NA,NA,30.441176470588232,NA
06106,Hartford County,CT,10.819672131147541,NA,NA,NA
06108,Hartford County,CT,NA,21.005917159763314,NA,NA
06111,Hartford County,CT,NA,NA,NA,55.55555555555556
06112,Hartford County,CT,NA,31.360946745562128,NA,NA
06118,Hartford County,CT,NA,NA,33.82352941176471,NA
06120,Hartford County,CT,NA,NA,58.6764705882353,NA
06443,New Haven County,CT,NA,NA,77.05882352941177,NA
06451,New Haven County,CT,NA,NA,NA,48
06457,Middlesex County,CT,NA,NA,10.735294117647058,NA
06484,Fairfield County,CT,NA,NA,47.205882352941174,NA
06489,Hartford County,CT,NA,NA,NA,24
06492,New Haven County,CT,NA,NA,63.23529411764706,NA
06511,New Haven County,CT,NA,9.467455621301776,6.911764705882353,NA
06513,New Haven County,CT,NA,10.059171597633137,NA,NA
06770,New Haven County,CT,NA,NA,NA,31.555555555555554
06790,Litchfield County,CT,NA,NA,8.970588235294118,NA
06851,Fairfield County,CT,46.22950819672131,NA,NA,NA
06878,Fairfield County,CT,90.49180327868852,NA,NA,NA
06902,Fairfield County,CT,NA,NA,63.088235294117645,NA
19702,New Castle County,DE,NA,NA,22.058823529411764,NA
19801,New Castle County,DE,NA,44.37869822485207,NA,NA
19805,New Castle County,DE,NA,12.721893491124261,NA,NA
19901,Kent County,DE,NA,32.24852071005917,24.705882352941178,NA
32024,Columbia County,FL,NA,NA,71.02941176470588,NA
32054,Union County,FL,NA,78.99408284023669,NA,NA
32055,Columbia County,FL,NA,NA,51.470588235294116,NA
32064,Suwannee County,FL,NA,NA,88.8235294117647,NA
32084,St. Johns County,FL,NA,NA,40,NA
32091,Bradford County,FL,66.22950819672131,NA,NA,NA
32119,Volusia County,FL,NA,NA,81.76470588235294,63.11111111111111
32164,Flagler County,FL,NA,NA,45.88235294117647,NA
32174,Volusia County,FL,NA,NA,NA,14.666666666666666
32206,Duval County,FL,NA,47.0414201183432,NA,NA
32210,Duval County,FL,NA,NA,6.029411764705882,NA
32219,Duval County,FL,NA,NA,54.70588235294118,NA
32304,Leon County,FL,NA,NA,65.73529411764706,NA
32305,Leon County,FL,NA,NA,72.20588235294117,NA
32327,Wakulla County,FL,NA,NA,84.70588235294117,NA
32351,Gadsden County,FL,NA,55.917159763313606,NA,NA
32421,Calhoun County,FL,NA,78.99408284023669,NA,NA
32448,Jackson County,FL,85.57377049180329,NA,NA,NA
32504,Escambia County,FL,NA,46.15384615384615,NA,NA
32505,Escambia County,FL,NA,NA,26.029411764705884,NA
32506,Escambia County,FL,35.08196721311476,NA,NA,NA
32526,Escambia County,FL,NA,NA,NA,11.11111111111111
32531,Okaloosa County,FL,NA,96.44970414201184,NA,NA
32570,Santa Rosa County,FL,NA,NA,13.676470588235295,NA
32601,Alachua County,FL,NA,86.68639053254438,NA,87.55555555555556
32606,Alachua County,FL,NA,NA,45.294117647058826,NA
32640,Putnam County,FL,NA,NA,68.23529411764706,NA
32771,Seminole County,FL,NA,42.01183431952663,NA,NA
32809,Orange County,FL,NA,NA,57.647058823529406,NA
32818,Orange County,FL,NA,NA,23.38235294117647,NA
32901,Brevard County,FL,76.72131147540983,NA,NA,NA
32927,Brevard County,FL,NA,NA,62.5,NA
32960,Indian River County,FL,51.80327868852459,NA,NA,NA
33009,Broward County,FL,NA,NA,71.76470588235294,NA
33010,Miami-Dade County,FL,NA,NA,74.41176470588235,NA
33012,Miami-Dade County,FL,NA,12.42603550295858,NA,NA
33013,Miami-Dade County,FL,67.8688524590164,NA,NA,NA
33021,Broward County,FL,NA,71.59763313609467,NA,NA
33064,Broward County,FL,30.16393442622951,NA,NA,NA
33065,Broward County,FL,NA,NA,57.35294117647059,NA
33068,Broward County,FL,NA,NA,54.41176470588235,63.55555555555556
33127,Miami-Dade County,FL,NA,NA,NA,75.55555555555556
33131,Miami-Dade County,FL,96.39344262295081,NA,NA,NA
33136,Miami-Dade County,FL,NA,73.07692307692307,NA,NA
33155,Miami-Dade County,FL,68.85245901639344,NA,NA,38.666666666666664
33157,Miami-Dade County,FL,17.704918032786885,19.230769230769234,46.32352941176471,NA
33165,Miami-Dade County,FL,33.442622950819676,NA,NA,NA
33170,Miami-Dade County,FL,NA,NA,88.97058823529412,NA
33172,Miami-Dade County,FL,NA,37.8698224852071,NA,NA
33176,Miami-Dade County,FL,NA,NA,76.47058823529412,NA
33177,Miami-Dade County,FL,NA,NA,53.970588235294116,NA
33178,Miami-Dade County,FL,NA,NA,NA,84.88888888888889
33185,Miami-Dade County,FL,NA,NA,87.20588235294117,NA
33186,Miami-Dade County,FL,5.901639344262295,NA,NA,40
33187,Miami-Dade County,FL,NA,68.63905325443787,NA,NA
33331,Broward County,FL,87.21311475409837,NA,NA,NA
33334,Broward County,FL,NA,NA,61.76470588235294,NA
33404,Palm Beach County,FL,NA,NA,49.26470588235294,NA
33406,Palm Beach County,FL,89.18032786885246,NA,NA,NA
33440,Hendry County,FL,NA,NA,60.29411764705882,NA
33441,Broward County,FL,83.60655737704919,NA,NA,NA
33493,Palm Beach County,FL,98.0327868852459,NA,NA,NA
33513,Sumter County,FL,NA,NA,88.67647058823529,NA
33610,Hillsborough County,FL,NA,NA,54.11764705882353,NA
33613,Hillsborough County,FL,NA,59.76331360946746,NA,NA
33614,Hillsborough County,FL,NA,NA,46.911764705882355,NA
33615,Hillsborough County,FL,NA,62.1301775147929,NA,NA
33616,Hillsborough County,FL,NA,NA,92.20588235294119,NA
33618,Hillsborough County,FL,NA,NA,84.85294117647058,NA
33624,Hillsborough County,FL,NA,NA,62.5,NA
33629,Hillsborough County,FL,NA,NA,79.8529411764706,NA
33712,Pinellas County,FL,NA,NA,76.17647058823529,NA
33761,Pinellas County,FL,NA,NA,NA,93.33333333333333
33763,Pinellas County,FL,NA,96.15384615384616,NA,NA
33765,Pinellas County,FL,NA,53.84615384615385,NA,NA
33781,Pinellas County,FL,NA,NA,57.05882352941176,NA
33823,Polk County,FL,NA,NA,47.05882352941176,NA
33837,Polk County,FL,56.0655737704918,NA,NA,NA
33881,Polk County,FL,60.65573770491803,NA,NA,NA
33901,Lee County,FL,NA,57.692307692307686,NA,NA
33905,Lee County,FL,NA,40.23668639053255,NA,NA
33909,Lee County,FL,NA,NA,53.23529411764706,NA
33974,Lee County,FL,NA,55.325443786982255,NA,NA
33990,Lee County,FL,NA,NA,48.8235294117647,NA
34142,Collier County,FL,NA,21.893491124260358,NA,NA
34145,Collier County,FL,NA,NA,NA,56.888888888888886
34202,Manatee County,FL,NA,NA,75.58823529411765,NA
34232,Sarasota County,FL,NA,NA,56.91176470588235,NA
34239,Sarasota County,FL,NA,NA,87.6470588235294,NA
34266,DeSoto County,FL,NA,NA,47.647058823529406,NA
34287,Sarasota County,FL,NA,58.28402366863905,NA,NA
34293,Sarasota County,FL,NA,NA,NA,9.777777777777779
34432,Marion County,FL,NA,NA,92.79411764705883,NA
34446,Citrus County,FL,NA,95.26627218934911,NA,NA
34480,Marion County,FL,NA,78.99408284023669,NA,NA
34482,Marion County,FL,NA,47.633136094674555,NA,NA
34653,Pasco County,FL,NA,NA,NA,39.55555555555556
34714,Lake County,FL,NA,NA,NA,97.33333333333334
34741,Osceola County,FL,NA,23.076923076923077,NA,NA
34761,Orange County,FL,NA,NA,NA,52.44444444444445
34772,Osceola County,FL,NA,81.95266272189349,NA,NA
34951,St. Lucie County,FL,NA,NA,89.11764705882354,NA
34952,St. Lucie County,FL,NA,NA,33.6764705882353,NA
34953,St. Lucie County,FL,24.59016393442623,NA,NA,NA
34957,Martin County,FL,NA,NA,58.82352941176471,NA
34997,Martin County,FL,NA,NA,40.44117647058824,NA
30014,Newton County,GA,NA,NA,36.61764705882353,NA
30019,Gwinnett County,GA,24.262295081967213,NA,NA,NA
30043,Gwinnett County,GA,NA,NA,31.176470588235293,NA
30087,DeKalb County,GA,NA,83.72781065088756,NA,NA
30121,Bartow County,GA,NA,78.99408284023669,NA,NA
30125,Polk County,GA,NA,61.24260355029586,NA,NA
30127,Cobb County,GA,18.360655737704917,NA,NA,NA
30135,Douglas County,GA,NA,NA,19.411764705882355,NA
30165,Floyd County,GA,33.77049180327869,NA,NA,NA
30230,Troup County,GA,NA,NA,84.11764705882354,NA
30236,Clayton County,GA,NA,47.0414201183432,NA,NA
30240,Troup County,GA,16.39344262295082,NA,NA,NA
30260,Clayton County,GA,52.78688524590164,NA,NA,NA
30263,Coweta County,GA,NA,54.73372781065089,NA,NA
30265,Coweta County,GA,NA,NA,61.029411764705884,NA
30269,Fayette County,GA,62.95081967213115,NA,78.52941176470588,NA
30349,Fulton County,GA,9.180327868852459,NA,NA,NA
30501,Hall County,GA,62.295081967213115,NA,NA,NA
30507,Hall County,GA,NA,NA,NA,73.33333333333333
30521,Franklin County,GA,NA,NA,93.97058823529412,NA
30533,Lumpkin County,GA,NA,NA,74.26470588235294,NA
30601,Clarke County,GA,NA,76.62721893491124,NA,NA
30701,Gordon County,GA,23.934426229508198,NA,NA,NA
30705,Murray County,GA,31.147540983606557,52.662721893491124,NA,NA
30710,Whitfield County,GA,NA,NA,94.26470588235294,NA
30728,Walker County,GA,NA,87.27810650887574,NA,NA
30736,Catoosa County,GA,NA,NA,15.147058823529411,NA
30739,Walker County,GA,NA,93.78698224852072,NA,NA
30741,Walker County,GA,NA,77.51479289940828,NA,NA
30742,Catoosa County,GA,NA,NA,86.76470588235294,NA
30906,Richmond County,GA,NA,23.37278106508876,NA,NA
30907,Columbia County,GA,NA,NA,NA,12.88888888888889
31031,Wilkinson County,GA,NA,NA,93.23529411764706,NA
31061,Baldwin County,GA,NA,NA,70.88235294117648,NA
31093,Houston County,GA,NA,NA,74.8529411764706,NA
31220,Bibb County,GA,NA,NA,NA,89.33333333333333
31401,Chatham County,GA,NA,NA,75,NA
31555,Wayne County,GA,99.34426229508196,NA,NA,NA
31601,Lowndes County,GA,NA,39.64497041420118,NA,NA
31705,Dougherty County,GA,40,NA,NA,NA
31721,Dougherty County,GA,NA,93.78698224852072,NA,NA
31763,Lee County,GA,NA,NA,60.147058823529406,NA
31788,Colquitt County,GA,91.47540983606557,NA,NA,NA
31792,Thomas County,GA,64.26229508196721,NA,NA,NA
31794,Tift County,GA,53.11475409836065,48.81656804733728,NA,NA
39828,Grady County,GA,NA,84.31952662721893,NA,NA
96720,Hawaii County,HI,NA,NA,74.55882352941177,NA
96740,Hawaii County,HI,80.32786885245902,NA,NA,NA
96778,Hawaii County,HI,NA,71.59763313609467,NA,NA
96782,Honolulu County,HI,NA,NA,48.38235294117647,NA
96786,Honolulu County,HI,NA,NA,44.70588235294118,NA
96789,Honolulu County,HI,24.91803278688525,NA,NA,NA
96818,Honolulu County,HI,NA,NA,NA,41.333333333333336
96819,Honolulu County,HI,NA,NA,NA,16.88888888888889
96826,Honolulu County,HI,NA,NA,53.088235294117645,NA
83301,Twin Falls County,ID,NA,10.650887573964498,NA,NA
83642,Ada County,ID,NA,44.97041420118343,NA,NA
83714,Ada County,ID,85.57377049180329,NA,NA,NA
60047,Lake County,IL,NA,NA,49.11764705882353,NA
60067,Cook County,IL,NA,NA,NA,25.77777777777778
60090,Cook County,IL,NA,NA,NA,35.55555555555556
60093,Cook County,IL,59.34426229508196,NA,NA,NA
60103,DuPage County,IL,69.50819672131148,NA,NA,NA
60123,Kane County,IL,NA,NA,29.705882352941178,NA
60148,DuPage County,IL,NA,NA,21.029411764705884,NA
60188,DuPage County,IL,60,NA,NA,NA
60193,Cook County,IL,65.57377049180327,NA,NA,NA
60402,Cook County,IL,21.9672131147541,NA,NA,50.66666666666667
60410,Will County,IL,NA,NA,84.85294117647058,NA
60432,Will County,IL,NA,NA,65.88235294117646,NA
60435,Will County,IL,NA,NA,NA,12
60453,Cook County,IL,NA,NA,19.705882352941178,NA
60478,Cook County,IL,NA,NA,85.29411764705883,NA
60510,Kane County,IL,40.32786885245901,NA,NA,NA
60561,DuPage County,IL,NA,NA,NA,38.22222222222222
60612,Cook County,IL,NA,NA,26.61764705882353,NA
60615,Cook County,IL,NA,NA,NA,21.777777777777775
60623,Cook County,IL,NA,NA,NA,15.555555555555555
60660,Cook County,IL,NA,NA,NA,20.444444444444446
61008,Boone County,IL,60.32786885245902,NA,NA,NA
61081,Whiteside County,IL,15.081967213114755,NA,NA,NA
61301,LaSalle County,IL,NA,NA,NA,75.1111111111111
61354,LaSalle County,IL,75.73770491803279,NA,NA,NA
61530,Woodford County,IL,92.1311475409836,NA,NA,NA
61832,Vermilion County,IL,23.60655737704918,NA,NA,NA
62040,Madison County,IL,NA,NA,61.617647058823536,NA
62233,Randolph County,IL,92.78688524590164,NA,NA,NA
62269,St. Clair County,IL,NA,NA,75.44117647058823,NA
62522,Macon County,IL,NA,NA,65.14705882352942,NA
46131,Johnson County,IN,47.868852459016395,NA,NA,NA
46151,Morgan County,IN,NA,NA,34.55882352941176,NA
46219,Marion County,IN,NA,NA,16.323529411764707,NA
46226,Marion County,IN,NA,NA,15.88235294117647,NA
46303,Lake County,IN,46.885245901639344,NA,NA,NA
46307,Lake County,IN,NA,NA,NA,4.888888888888889
46310,Jasper County,IN,62.62295081967213,NA,NA,NA
46322,Lake County,IN,NA,NA,33.23529411764706,NA
46323,Lake County,IN,NA,NA,28.97058823529412,NA
46350,LaPorte County,IN,NA,NA,11.911764705882351,NA
46360,LaPorte County,IN,2.9508196721311477,NA,NA,NA
46368,Porter County,IN,3.606557377049181,NA,NA,NA
46375,Lake County,IN,NA,NA,43.08823529411765,NA
46383,Porter County,IN,4.2622950819672125,NA,NA,NA
46517,Elkhart County,IN,68.52459016393443,NA,NA,NA
46545,St. Joseph County,IN,72.45901639344262,NA,NA,NA
46613,St. Joseph County,IN,NA,84.91124260355029,NA,NA
46710,Noble County,IN,NA,NA,95,NA
46816,Allen County,IN,NA,NA,40.294117647058826,NA
46845,Allen County,IN,NA,NA,67.94117647058823,NA
46901,Howard County,IN,NA,NA,19.11764705882353,NA
47274,Jackson County,IN,NA,58.875739644970416,NA,NA
47348,Blackford County,IN,95.08196721311475,NA,NA,NA
47424,Greene County,IN,NA,NA,97.20588235294117,NA
47441,Greene County,IN,86.55737704918033,NA,NA,NA
47670,Gibson County,IN,NA,NA,85.58823529411764,NA
47713,Vanderburgh County,IN,NA,67.75147928994083,NA,NA
47803,Vigo County,IN,NA,NA,69.26470588235294,NA
47805,Vigo County,IN,42.950819672131146,NA,NA,NA
47906,Tippecanoe County,IN,NA,NA,64.41176470588236,NA
47959,White County,IN,NA,95.26627218934911,NA,NA
50023,Polk County,IA,69.18032786885246,NA,NA,NA
50158,Marshall County,IA,37.37704918032787,NA,NA,NA
50310,Polk County,IA,NA,NA,NA,60.44444444444444
50311,Polk County,IA,NA,NA,95,NA
50316,Polk County,IA,NA,NA,80.29411764705883,NA
50701,Black Hawk County,IA,28.852459016393446,NA,NA,NA
51601,Page County,IA,79.67213114754098,NA,76.76470588235294,NA
52001,Dubuque County,IA,NA,NA,22.058823529411764,NA
52233,Linn County,IA,NA,NA,93.08823529411765,NA
52241,Johnson County,IA,NA,NA,56.1764705882353,NA
52302,Linn County,IA,NA,NA,29.705882352941178,NA
52349,Benton County,IA,NA,73.07692307692307,NA,NA
52404,Linn County,IA,NA,49.40828402366864,NA,NA
52501,Wapello County,IA,NA,NA,19.558823529411764,NA
52544,Appanoose County,IA,NA,NA,52.352941176470594,NA
52556,Jefferson County,IA,NA,82.84023668639054,NA,NA
52577,Mahaska County,IA,NA,NA,NA,55.111111111111114
52601,Des Moines County,IA,NA,NA,51.3235294117647,NA
52632,Lee County,IA,NA,NA,NA,44.44444444444444
52641,Henry County,IA,NA,NA,NA,65.33333333333333
66713,Cherokee County,KS,NA,NA,NA,92.88888888888889
67114,Harvey County,KS,50.81967213114754,NA,NA,NA
67216,Sedgwick County,KS,45.57377049180328,NA,NA,NA
67665,Russell County,KS,NA,NA,NA,85.33333333333334
40014,Oldham County,KY,NA,78.69822485207101,NA,NA
40118,Jefferson County,KY,88.85245901639345,NA,NA,NA
40208,Jefferson County,KY,NA,NA,59.55882352941176,NA
40456,Rockcastle County,KY,79.01639344262294,NA,NA,NA
40509,Fayette County,KY,NA,47.633136094674555,NA,NA
40514,Fayette County,KY,NA,NA,94.11764705882352,NA
40744,Laurel County,KY,NA,NA,39.852941176470594,NA
40828,Harlan County,KY,NA,89.64497041420118,NA,NA
40962,Clay County,KY,NA,NA,26.176470588235297,NA
40977,Bell County,KY,NA,NA,62.05882352941177,NA
41011,Kenton County,KY,NA,NA,19.852941176470587,NA
41017,Kenton County,KY,NA,NA,42.5,NA
41311,Lee County,KY,NA,67.75147928994083,NA,NA
42003,McCracken County,KY,NA,NA,21.176470588235293,NA
42129,Metcalfe County,KY,NA,63.31360946745562,NA,NA
42141,Barren County,KY,NA,8.579881656804734,NA,NA
42347,Ohio County,KY,NA,NA,83.67647058823529,NA
42518,Pulaski County,KY,NA,NA,98.82352941176471,NA
42754,Grayson County,KY,NA,42.30769230769231,38.088235294117645,NA
70058,Jefferson Parish,LA,NA,NA,41.911764705882355,NA
70065,Jefferson Parish,LA,NA,2.6627218934911245,NA,NA
70068,St. John the Baptist Parish,LA,NA,NA,NA,23.11111111111111
70072,Jefferson Parish,LA,NA,0.2958579881656805,NA,NA
70114,Orleans Parish,LA,NA,NA,13.529411764705882,NA
70301,Lafourche Parish,LA,NA,NA,21.764705882352942,NA
70363,Terrebonne Parish,LA,NA,1.4792899408284024,NA,NA
70390,Assumption Parish,LA,NA,NA,93.67647058823529,NA
70392,St. Mary Parish,LA,NA,48.22485207100592,79.55882352941175,NA
70401,Tangipahoa Parish,LA,NA,NA,67.64705882352942,NA
70420,St. Tammany Parish,LA,85.24590163934425,NA,NA,NA
70427,Washington Parish,LA,NA,29.585798816568047,NA,NA
70441,St. Helena Parish,LA,56.393442622950815,NA,NA,NA
70447,St. Tammany Parish,LA,NA,39.053254437869825,NA,NA
70452,St. Tammany Parish,LA,NA,36.68639053254438,NA,NA
70466,Tangipahoa Parish,LA,58.36065573770492,NA,NA,NA
70501,Lafayette Parish,LA,NA,NA,20.294117647058822,NA
70503,Lafayette Parish,LA,NA,NA,NA,32
70506,Lafayette Parish,LA,NA,NA,35.44117647058824,NA
70518,Lafayette Parish,LA,59.01639344262295,NA,NA,NA
70525,Acadia Parish,LA,NA,34.319526627218934,NA,NA
70560,Iberia Parish,LA,NA,22.781065088757398,NA,NA
70586,Evangeline Parish,LA,NA,NA,22.5,NA
70605,Calcasieu Parish,LA,NA,NA,94.85294117647058,NA
70726,Livingston Parish,LA,NA,NA,2.794117647058824,NA
70774,Ascension Parish,LA,NA,45.562130177514796,NA,NA
70788,Iberville Parish,LA,NA,NA,96.91176470588235,NA
70802,East Baton Rouge Parish,LA,NA,NA,9.264705882352942,NA
70805,East Baton Rouge Parish,LA,29.836065573770494,NA,NA,NA
70810,East Baton Rouge Parish,LA,NA,NA,NA,34.66666666666667
70811,East Baton Rouge Parish,LA,NA,NA,83.23529411764706,NA
70815,East Baton Rouge Parish,LA,72.1311475409836,NA,NA,NA
70816,East Baton Rouge Parish,LA,NA,NA,8.676470588235293,NA
71106,Caddo Parish,LA,NA,NA,37.794117647058826,NA
71109,Caddo Parish,LA,NA,NA,9.558823529411764,NA
71112,Bossier Parish,LA,NA,21.301775147928996,NA,NA
71203,Ouachita Parish,LA,42.62295081967213,NA,NA,NA
71232,Richland Parish,LA,NA,NA,90.88235294117646,NA
71433,Rapides Parish,LA,NA,NA,99.70588235294117,NA
71463,Allen Parish,LA,43.278688524590166,NA,NA,NA
71486,Sabine Parish,LA,93.44262295081968,NA,NA,NA
04039,Cumberland County,ME,90.49180327868852,NA,NA,NA
04043,York County,ME,NA,NA,NA,52.888888888888886
04073,York County,ME,25.245901639344265,NA,NA,NA
04101,Cumberland County,ME,22.950819672131146,NA,NA,NA
04210,Androscoggin County,ME,NA,NA,26.47058823529412,NA
04268,Oxford County,ME,NA,NA,NA,88.44444444444444
04401,Penobscot County,ME,NA,NA,3.5294117647058822,NA
04605,Hancock County,ME,NA,NA,NA,30.666666666666664
04856,Knox County,ME,NA,NA,NA,96.44444444444444
20639,Calvert County,MD,NA,NA,87.5,NA
20710,Prince George's County,MD,NA,NA,98.6764705882353,NA
20724,Anne Arundel County,MD,87.8688524590164,NA,NA,NA
20735,Prince George's County,MD,69.83606557377048,NA,NA,NA
20886,Montgomery County,MD,NA,NA,82.79411764705881,NA
21012,Anne Arundel County,MD,NA,NA,87.05882352941177,NA
21117,Baltimore County,MD,NA,NA,41.17647058823529,NA
21144,Anne Arundel County,MD,NA,NA,66.76470588235294,NA
21221,Baltimore County,MD,NA,NA,27.500000000000004,NA
21225,Baltimore city,MD,NA,NA,76.17647058823529,NA
21550,Garrett County,MD,NA,NA,NA,56.44444444444444
21617,Queen Anne's County,MD,NA,NA,93.82352941176471,NA
01005,Worcester County,MA,NA,NA,92.3529411764706,NA
01007,Hampshire County,MA,NA,NA,58.970588235294116,NA
01030,Hampden County,MA,NA,NA,59.26470588235294,NA
01040,Hampden County,MA,NA,2.0710059171597637,0.14705882352941177,NA
01104,Hampden County,MA,NA,NA,NA,2.666666666666667
01431,Middlesex County,MA,NA,NA,99.11764705882354,NA
01450,Middlesex County,MA,NA,NA,76.91176470588236,NA
01569,Worcester County,MA,NA,NA,76.61764705882354,NA
01603,Worcester County,MA,NA,NA,16.911764705882355,NA
01605,Worcester County,MA,NA,2.366863905325444,NA,1.3333333333333335
01606,Worcester County,MA,NA,NA,NA,20
01702,Middlesex County,MA,NA,NA,2.5,NA
01757,Worcester County,MA,NA,NA,20.588235294117645,NA
01776,Middlesex County,MA,NA,NA,53.23529411764706,NA
01803,Middlesex County,MA,NA,NA,28.08823529411765,NA
01821,Middlesex County,MA,NA,NA,7.5,4.444444444444445
01830,Essex County,MA,NA,NA,14.852941176470589,NA
01832,Essex County,MA,NA,28.698224852071007,NA,NA
01835,Essex County,MA,NA,74.55621301775149,NA,NA
01841,Essex County,MA,0.6557377049180327,NA,NA,NA
01851,Middlesex County,MA,42.295081967213115,NA,NA,NA
01876,Middlesex County,MA,NA,NA,10,NA
01902,Essex County,MA,NA,NA,0.7352941176470588,NA
01913,Essex County,MA,39.67213114754099,NA,NA,NA
01940,Essex County,MA,47.21311475409836,NA,NA,NA
01945,Essex County,MA,61.967213114754095,NA,NA,NA
01952,Essex County,MA,93.77049180327869,NA,NA,NA
01970,Essex County,MA,NA,NA,1.911764705882353,NA
02038,Norfolk County,MA,41.31147540983607,NA,NA,NA
02118,Suffolk County,MA,NA,NA,0.4411764705882353,9.333333333333334
02124,Suffolk County,MA,NA,NA,NA,0
02125,Suffolk County,MA,NA,4.733727810650888,NA,NA
02128,Suffolk County,MA,NA,NA,1.0294117647058822,NA
02129,Suffolk County,MA,32.459016393442624,NA,NA,NA
02144,Middlesex County,MA,NA,NA,NA,12.444444444444445
02148,Middlesex County,MA,NA,NA,1.3235294117647058,NA
02149,Middlesex County,MA,NA,NA,0.5882352941176471,46.22222222222222
02151,Suffolk County,MA,NA,NA,0.29411764705882354,NA
02171,Norfolk County,MA,NA,NA,40.73529411764706,NA
02189,Norfolk County,MA,66.22950819672131,NA,NA,NA
02301,Plymouth County,MA,NA,NA,0,NA
02360,Plymouth County,MA,NA,NA,1.7647058823529411,NA
02370,Plymouth County,MA,NA,NA,20.441176470588236,NA
02478,Middlesex County,MA,NA,NA,65,NA
02538,Plymouth County,MA,NA,NA,58.08823529411765,NA
02720,Bristol County,MA,NA,NA,3.6764705882352944,NA
02747,Bristol County,MA,NA,NA,NA,61.77777777777778
02762,Norfolk County,MA,NA,NA,64.8529411764706,NA
02779,Bristol County,MA,NA,NA,95.44117647058825,NA
02780,Bristol County,MA,3.934426229508197,NA,0.8823529411764706,NA
02790,Bristol County,MA,NA,NA,29.411764705882355,NA
48030,Oakland County,MI,NA,NA,80.88235294117648,NA
48042,Macomb County,MI,NA,NA,NA,35.11111111111111
48044,Macomb County,MI,14.098360655737704,63.609467455621306,NA,8.444444444444445
48066,Macomb County,MI,16.721311475409838,NA,25.588235294117645,NA
48085,Oakland County,MI,44.26229508196721,NA,NA,NA
48089,Macomb County,MI,NA,50,NA,NA
48092,Macomb County,MI,NA,NA,NA,27.555555555555557
48103,Washtenaw County,MI,NA,NA,21.323529411764707,NA
48126,Wayne County,MI,NA,NA,12.941176470588237,NA
48134,Wayne County,MI,NA,NA,38.38235294117647,NA
48141,Wayne County,MI,NA,NA,NA,21.333333333333336
48154,Wayne County,MI,20.983606557377048,NA,NA,NA
48161,Monroe County,MI,NA,NA,10.441176470588236,NA
48166,Monroe County,MI,NA,NA,NA,78.22222222222223
48168,Wayne County,MI,NA,NA,NA,48.888888888888886
48169,Livingston County,MI,NA,75.44378698224851,NA,NA
48170,Wayne County,MI,NA,NA,18.970588235294116,NA
48174,Wayne County,MI,NA,NA,58.38235294117647,NA
48180,Wayne County,MI,NA,28.994082840236686,3.9705882352941173,NA
48187,Wayne County,MI,NA,NA,13.088235294117649,NA
48189,Washtenaw County,MI,81.31147540983606,NA,NA,NA
48197,Washtenaw County,MI,4.918032786885246,NA,NA,NA
48209,Wayne County,MI,NA,NA,NA,60
48218,Wayne County,MI,NA,NA,80.14705882352942,NA
48219,Wayne County,MI,2.2950819672131146,NA,NA,NA
48227,Wayne County,MI,NA,NA,24.41176470588235,NA
48228,Wayne County,MI,NA,NA,15,NA
48234,Wayne County,MI,NA,NA,11.029411764705882,NA
48329,Oakland County,MI,52.459016393442624,NA,NA,NA
48340,Oakland County,MI,NA,NA,48.23529411764706,NA
48342,Oakland County,MI,15.737704918032788,NA,NA,NA
48371,Oakland County,MI,40.98360655737705,NA,NA,NA
48375,Oakland County,MI,74.75409836065575,NA,NA,NA
48382,Oakland County,MI,NA,NA,NA,44
48429,Shiawassee County,MI,NA,NA,NA,76.44444444444444
48439,Genesee County,MI,NA,NA,NA,18.666666666666668
48453,Sanilac County,MI,NA,92.60355029585799,NA,NA
48504,Genesee County,MI,NA,14.792899408284024,25,NA
48506,Genesee County,MI,NA,NA,32.64705882352941,NA
48602,Saginaw County,MI,NA,NA,5,NA
48624,Gladwin County,MI,NA,75.14792899408283,NA,NA
48640,Midland County,MI,NA,NA,NA,16.444444444444446
48750,Iosco County,MI,NA,NA,81.47058823529412,NA
48757,Tuscola County,MI,NA,NA,98.23529411764706,NA
48836,Livingston County,MI,NA,NA,62.94117647058823,NA
48838,Montcalm County,MI,NA,NA,42.205882352941174,NA
48858,Isabella County,MI,NA,76.92307692307693,NA,NA
48879,Clinton County,MI,NA,NA,59.411764705882355,NA
48888,Montcalm County,MI,NA,NA,95.73529411764706,NA
48906,Ingham County,MI,NA,NA,17.058823529411764,60.88888888888889
48910,Ingham County,MI,NA,NA,15.441176470588236,NA
49002,Kalamazoo County,MI,NA,NA,44.41176470588235,NA
49058,Barry County,MI,NA,NA,41.47058823529412,NA
49221,Lenawee County,MI,NA,NA,28.823529411764703,NA
49224,Calhoun County,MI,NA,NA,63.52941176470588,NA
49315,Kent County,MI,43.9344262295082,NA,NA,NA
49316,Kent County,MI,NA,NA,85.88235294117646,NA
49331,Kent County,MI,NA,NA,NA,54.22222222222223
49345,Kent County,MI,NA,NA,NA,65.77777777777779
49423,Ottawa County,MI,NA,NA,15.588235294117647,NA
49442,Muskegon County,MI,NA,NA,NA,7.555555555555555
49503,Kent County,MI,NA,15.680473372781064,14.26470588235294,NA
49507,Kent County,MI,3.278688524590164,NA,NA,NA
49508,Kent County,MI,NA,25.14792899408284,NA,NA
49866,Marquette County,MI,NA,NA,66.91176470588235,NA
49945,Houghton County,MI,NA,NA,99.55882352941177,NA
55021,Rice County,MN,NA,NA,49.411764705882355,NA
55024,Dakota County,MN,NA,NA,59.705882352941174,NA
55060,Steele County,MN,NA,NA,48.529411764705884,NA
55124,Dakota County,MN,NA,NA,NA,49.333333333333336
55126,Ramsey County,MN,NA,NA,NA,76
55129,Washington County,MN,NA,NA,NA,90.22222222222223
55302,Wright County,MN,NA,NA,NA,95.11111111111111
55337,Dakota County,MN,17.37704918032787,NA,NA,NA
55350,McLeod County,MN,NA,53.55029585798816,NA,NA
55369,Hennepin County,MN,NA,41.124260355029584,NA,NA
55401,Hennepin County,MN,NA,NA,72.6470588235294,NA
55426,Hennepin County,MN,NA,NA,38.529411764705884,NA
55428,Hennepin County,MN,48.85245901639344,NA,NA,NA
55429,Hennepin County,MN,NA,NA,16.61764705882353,NA
55430,Hennepin County,MN,NA,NA,25.882352941176475,NA
55802,St. Louis County,MN,NA,NA,83.97058823529412,NA
55811,St. Louis County,MN,NA,NA,NA,36.888888888888886
55912,Mower County,MN,NA,7.6923076923076925,NA,NA
56071,Scott County,MN,NA,97.0414201183432,NA,NA
56187,Nobles County,MN,NA,NA,91.02941176470588,NA
56345,Morrison County,MN,75.40983606557377,NA,40.88235294117647,NA
56374,Stearns County,MN,88.19672131147541,NA,NA,NA
56379,Benton County,MN,25.245901639344265,NA,NA,NA
56441,Crow Wing County,MN,NA,NA,NA,99.11111111111111
56721,Polk County,MN,NA,NA,87.94117647058823,NA
38701,Washington County,MS,NA,NA,69.11764705882352,NA
39042,Rankin County,MS,27.54098360655738,NA,NA,NA
39046,Madison County,MS,NA,NA,NA,64.44444444444444
39120,Adams County,MS,NA,NA,51.17647058823529,NA
39301,Lauderdale County,MS,32.78688524590164,NA,NA,NA
39482,Lamar County,MS,NA,NA,NA,94.66666666666667
39501,Harrison County,MS,51.47540983606558,NA,NA,NA
39562,Jackson County,MS,NA,NA,NA,58.22222222222222
39564,Jackson County,MS,78.0327868852459,NA,NA,NA
39565,Jackson County,MS,NA,64.79289940828401,NA,NA
63010,Jefferson County,MO,NA,50.591715976331365,NA,NA
63028,Jefferson County,MO,36.39344262295082,NA,NA,NA
63111,St. Louis city,MO,NA,NA,NA,62.22222222222222
63114,St. Louis County,MO,NA,NA,NA,36.44444444444444
63120,St. Louis city,MO,NA,82.54437869822485,NA,NA
63122,St. Louis County,MO,44.91803278688525,89.64497041420118,NA,NA
63128,St. Louis County,MO,NA,NA,80.58823529411765,NA
63129,St. Louis County,MO,57.70491803278689,NA,NA,NA
63136,St. Louis County,MO,NA,NA,10.294117647058822,NA
63137,St. Louis County,MO,NA,NA,49.705882352941174,NA
63301,St. Charles County,MO,NA,NA,18.38235294117647,NA
63303,St. Charles County,MO,NA,NA,31.470588235294116,NA
63368,St. Charles County,MO,13.442622950819672,NA,NA,NA
63376,St. Charles County,MO,NA,26.331360946745562,NA,NA
63841,Stoddard County,MO,NA,62.42603550295858,NA,NA
64029,Jackson County,MO,NA,88.16568047337277,NA,NA
64062,Ray County,MO,73.77049180327869,NA,NA,NA
64067,Lafayette County,MO,88.19672131147541,NA,73.82352941176471,NA
64080,Cass County,MO,NA,62.42603550295858,89.55882352941177,NA
64116,Clay County,MO,NA,NA,32.5,NA
64126,Jackson County,MO,90.1639344262295,NA,NA,NA
64127,Jackson County,MO,NA,NA,36.470588235294116,NA
64128,Jackson County,MO,19.672131147540984,NA,NA,37.333333333333336
64129,Jackson County,MO,67.21311475409836,NA,NA,NA
64130,Jackson County,MO,11.475409836065573,NA,NA,NA
64132,Jackson County,MO,NA,NA,21.61764705882353,NA
64134,Jackson County,MO,NA,NA,17.205882352941178,NA
64138,Jackson County,MO,NA,26.035502958579883,NA,NA
64465,Clinton County,MO,94.09836065573771,NA,NA,NA
64503,Buchanan County,MO,NA,30.17751479289941,NA,NA
64772,Vernon County,MO,NA,NA,51.02941176470588,NA
64804,Jasper County,MO,NA,NA,23.676470588235293,NA
64850,Newton County,MO,71.47540983606558,NA,NA,NA
64870,Jasper County,MO,47.540983606557376,NA,NA,NA
65251,Callaway County,MO,NA,NA,71.61764705882354,NA
65301,Pettis County,MO,NA,NA,5.735294117647059,NA
65401,Phelps County,MO,31.475409836065577,NA,NA,NA
65656,Stone County,MO,NA,90.8284023668639,NA,NA
65706,Webster County,MO,71.80327868852459,NA,NA,NA
65775,Howell County,MO,NA,NA,42.94117647058823,NA
65802,Greene County,MO,NA,NA,14.705882352941178,NA
65803,Greene County,MO,NA,NA,13.23529411764706,NA
65807,Greene County,MO,NA,NA,37.5,NA
59803,Missoula County,MT,NA,NA,NA,83.11111111111111
59847,Missoula County,MT,NA,NA,NA,92.44444444444444
68111,Douglas County,NE,NA,43.49112426035503,NA,NA
68131,Douglas County,NE,NA,NA,90.29411764705883,NA
68661,Colfax County,NE,NA,NA,97.05882352941177,NA
89121,Clark County,NV,NA,44.97041420118343,NA,NA
89122,Clark County,NV,NA,63.609467455621306,NA,NA
89147,Clark County,NV,NA,NA,50.73529411764706,NA
89403,Lyon County,NV,44.26229508196721,NA,NA,NA
03103,Hillsborough County,NH,NA,NA,35,NA
03561,Grafton County,NH,NA,88.16568047337277,NA,NA
03570,Coos County,NH,NA,NA,78.82352941176471,NA
03755,Grafton County,NH,NA,NA,NA,86.66666666666667
03820,Strafford County,NH,NA,NA,30,NA
07004,Essex County,NJ,NA,NA,NA,96.88888888888889
07050,Essex County,NJ,NA,NA,14.558823529411766,NA
07054,Morris County,NJ,NA,NA,60.588235294117645,NA
07071,Bergen County,NJ,NA,NA,75.1470588235294,NA
07086,Hudson County,NJ,NA,NA,97.5,NA
07087,Hudson County,NJ,NA,2.9585798816568047,NA,NA
07105,Essex County,NJ,NA,5.029585798816568,NA,NA
07106,Essex County,NJ,NA,NA,7.205882352941176,NA
07108,Essex County,NJ,NA,NA,3.2352941176470593,NA
07202,Union County,NJ,NA,0.591715976331361,9.411764705882353,NA
07306,Hudson County,NJ,NA,NA,8.235294117647058,NA
07432,Bergen County,NJ,95.73770491803279,NA,NA,NA
07503,Passaic County,NJ,NA,NA,27.794117647058826,NA
07524,Passaic County,NJ,NA,NA,40.588235294117645,NA
07601,Bergen County,NJ,NA,34.9112426035503,NA,NA
07731,Monmouth County,NJ,NA,NA,NA,49.77777777777778
07753,Monmouth County,NJ,NA,17.159763313609467,NA,NA
07869,Morris County,NJ,NA,NA,62.794117647058826,NA
08010,Burlington County,NJ,91.14754098360656,NA,NA,NA
08012,Camden County,NJ,NA,NA,34.85294117647059,NA
08015,Burlington County,NJ,NA,NA,NA,59.111111111111114
08034,Camden County,NJ,86.22950819672131,NA,NA,NA
08046,Burlington County,NJ,NA,14.497041420118343,NA,NA
08080,Gloucester County,NJ,9.836065573770492,NA,NA,NA
08085,Gloucester County,NJ,NA,NA,NA,61.33333333333333
08087,Ocean County,NJ,38.36065573770492,NA,NA,NA
08105,Camden County,NJ,NA,NA,44.26470588235294,NA
08110,Camden County,NJ,NA,NA,18.235294117647058,NA
08232,Atlantic County,NJ,NA,3.8461538461538463,NA,NA
08302,Cumberland County,NJ,NA,9.763313609467456,NA,NA
08401,Atlantic County,NJ,NA,NA,5.147058823529411,NA
08609,Mercer County,NJ,NA,22.485207100591715,NA,NA
08618,Mercer County,NJ,NA,3.5502958579881656,NA,NA
08701,Ocean County,NJ,0,NA,NA,NA
08861,Middlesex County,NJ,NA,1.7751479289940828,NA,NA
08865,Warren County,NJ,NA,25.443786982248522,NA,NA
08869,Somerset County,NJ,NA,NA,80.44117647058823,NA
87104,Bernalillo County,NM,NA,NA,89.41176470588236,NA
87105,Bernalillo County,NM,NA,NA,5.4411764705882355,NA
87113,Bernalillo County,NM,NA,NA,86.02941176470588,NA
87114,Bernalillo County,NM,NA,NA,43.23529411764706,NA
87301,McKinley County,NM,28.524590163934427,NA,NA,NA
87566,Rio Arriba County,NM,94.42622950819673,NA,NA,NA
88001,Doa Ana County,NM,NA,NA,35.88235294117647,NA
88005,Doa Ana County,NM,NA,40.23668639053255,80.73529411764706,NA
88061,Grant County,NM,NA,NA,NA,76.88888888888889
88101,Curry County,NM,NA,NA,12.205882352941176,NA
88203,Chaves County,NM,NA,NA,60.73529411764705,NA
88220,Eddy County,NM,NA,37.278106508875744,NA,NA
88240,Lea County,NM,NA,30.17751479289941,NA,NA
10002,New York County,NY,NA,5.621301775147929,NA,NA
10006,New York County,NY,NA,NA,100,NA
10011,New York County,NY,70.81967213114754,NA,NA,NA
10025,New York County,NY,NA,27.218934911242602,NA,3.111111111111111
10026,New York County,NY,NA,NA,33.52941176470588,NA
10031,New York County,NY,NA,11.242603550295858,NA,NA
10032,New York County,NY,NA,7.396449704142012,13.970588235294118,NA
10033,New York County,NY,NA,13.609467455621301,NA,NA
10305,Richmond County,NY,82.95081967213115,NA,NA,NA
10310,Richmond County,NY,NA,NA,83.08823529411765,NA
10451,Bronx County,NY,NA,NA,4.411764705882353,NA
10452,Bronx County,NY,NA,NA,1.6176470588235297,NA
10453,Bronx County,NY,1.3114754098360655,NA,NA,NA
10454,Bronx County,NY,NA,NA,NA,39.111111111111114
10457,Bronx County,NY,NA,NA,1.4705882352941175,NA
10462,Bronx County,NY,NA,3.2544378698224854,NA,NA
10467,Bronx County,NY,NA,NA,7.352941176470589,NA
10468,Bronx County,NY,NA,1.183431952662722,NA,NA
10473,Bronx County,NY,NA,18.639053254437872,NA,NA
10474,Bronx County,NY,NA,NA,67.05882352941175,NA
10552,Westchester County,NY,NA,NA,98.38235294117646,NA
10705,Westchester County,NY,30.81967213114754,NA,NA,NA
10801,Westchester County,NY,NA,15.088757396449704,NA,NA
11030,Nassau County,NY,NA,98.22485207100591,NA,NA
11105,Queens County,NY,NA,NA,68.97058823529412,NA
11208,Kings County,NY,NA,NA,2.2058823529411766,NA
11211,Kings County,NY,NA,NA,NA,25.333333333333336
11220,Kings County,NY,NA,NA,4.5588235294117645,NA
11223,Kings County,NY,NA,NA,29.117647058823533,NA
11226,Kings County,NY,NA,13.313609467455622,5.588235294117648,NA
11233,Kings County,NY,6.557377049180328,NA,15.294117647058824,NA
11235,Kings County,NY,NA,18.639053254437872,NA,NA
11354,Queens County,NY,NA,NA,56.76470588235294,NA
11364,Queens County,NY,NA,NA,83.38235294117648,NA
11368,Queens County,NY,NA,7.100591715976331,NA,NA
11372,Queens County,NY,NA,NA,41.029411764705884,NA
11415,Queens County,NY,NA,NA,90.14705882352942,NA
11421,Queens County,NY,NA,13.017751479289942,NA,NA
11427,Queens County,NY,86.88524590163934,NA,NA,NA
11435,Queens County,NY,NA,10.946745562130179,NA,NA
11520,Nassau County,NY,NA,NA,NA,46.666666666666664
11550,Nassau County,NY,5.573770491803279,NA,NA,NA
11575,Nassau County,NY,NA,NA,46.1764705882353,NA
11717,Suffolk County,NY,NA,7.988165680473373,NA,NA
11772,Suffolk County,NY,NA,NA,42.35294117647059,NA
11951,Suffolk County,NY,NA,69.8224852071006,NA,NA
11963,Suffolk County,NY,NA,96.7455621301775,NA,NA
11968,Suffolk County,NY,NA,69.23076923076923,NA,NA
12019,Saratoga County,NY,80.65573770491802,NA,NA,NA
12065,Saratoga County,NY,NA,NA,32.05882352941177,22.22222222222222
12203,Albany County,NY,NA,NA,49.55882352941177,NA
12572,Dutchess County,NY,NA,99.11242603550295,NA,NA
12771,Orange County,NY,NA,NA,NA,83.55555555555556
12866,Saratoga County,NY,27.21311475409836,NA,NA,NA
12921,Clinton County,NY,NA,NA,94.26470588235294,NA
12972,Clinton County,NY,NA,NA,65.44117647058823,NA
13021,Cayuga County,NY,NA,NA,25.294117647058822,NA
13036,Oswego County,NY,83.60655737704919,NA,NA,NA
13037,Madison County,NY,79.01639344262294,NA,NA,NA
13045,Cortland County,NY,7.213114754098362,NA,NA,NA
13069,Oswego County,NY,NA,NA,NA,13.333333333333334
13073,Tompkins County,NY,NA,NA,67.20588235294119,NA
13080,Onondaga County,NY,NA,NA,97.94117647058823,NA
13088,Onondaga County,NY,NA,NA,36.76470588235294,58.666666666666664
13114,Oswego County,NY,56.72131147540984,NA,68.38235294117648,NA
13126,Oswego County,NY,NA,NA,5.294117647058823,NA
13206,Onondaga County,NY,NA,63.609467455621306,NA,NA
13208,Onondaga County,NY,26.557377049180324,NA,16.176470588235293,NA
13365,Herkimer County,NY,NA,70.41420118343196,NA,NA
13440,Oneida County,NY,NA,NA,3.3823529411764706,NA
13461,Oneida County,NY,NA,NA,NA,98.66666666666667
13476,Oneida County,NY,NA,NA,92.05882352941175,NA
13662,St. Lawrence County,NY,NA,NA,10.882352941176471,NA
13754,Broome County,NY,NA,80.76923076923077,NA,NA
13803,Cortland County,NY,NA,NA,88.08823529411765,NA
13815,Chenango County,NY,NA,NA,19.11764705882353,NA
13820,Otsego County,NY,NA,NA,NA,42.66666666666667
13850,Broome County,NY,NA,NA,22.794117647058822,NA
13856,Delaware County,NY,48.19672131147541,NA,NA,NA
13862,Broome County,NY,NA,NA,78.38235294117646,NA
13905,Broome County,NY,NA,NA,2.941176470588235,NA
14048,Chautauqua County,NY,NA,NA,77.5,NA
14062,Chautauqua County,NY,NA,NA,96.32352941176471,NA
14080,Erie County,NY,NA,NA,NA,98.22222222222223
14094,Niagara County,NY,NA,NA,NA,5.333333333333334
14098,Orleans County,NY,NA,NA,93.38235294117648,NA
14211,Erie County,NY,NA,NA,11.470588235294118,NA
14215,Erie County,NY,NA,19.526627218934912,NA,NA
14416,Genesee County,NY,NA,NA,90.44117647058823,NA
14424,Ontario County,NY,NA,NA,NA,1.7777777777777777
14502,Wayne County,NY,NA,NA,37.05882352941177,NA
14513,Wayne County,NY,NA,NA,7.647058823529412,NA
14569,Wyoming County,NY,65.24590163934427,NA,NA,NA
14586,Monroe County,NY,66.88524590163935,NA,NA,NA
14606,Monroe County,NY,NA,NA,NA,15.11111111111111
14613,Monroe County,NY,NA,37.573964497041416,NA,NA
14619,Monroe County,NY,NA,49.70414201183432,NA,NA
14620,Monroe County,NY,NA,NA,8.823529411764707,NA
14623,Monroe County,NY,NA,NA,NA,27.111111111111114
14850,Tompkins County,NY,NA,NA,NA,8
14880,Allegany County,NY,NA,NA,96.76470588235294,NA
14895,Allegany County,NY,NA,NA,38.82352941176471,NA
14904,Chemung County,NY,NA,NA,37.35294117647059,NA
27052,Stokes County,NC,NA,NA,73.52941176470588,NA
27292,Davidson County,NC,NA,19.82248520710059,6.470588235294119,NA
27299,Davidson County,NC,64.59016393442623,NA,NA,NA
27370,Randolph County,NC,NA,NA,NA,67.55555555555556
27376,Moore County,NC,NA,99.40828402366864,NA,NA
27406,Guilford County,NC,NA,27.514792899408285,NA,NA
27504,Johnston County,NC,NA,84.91124260355029,NA,NA
27524,Johnston County,NC,NA,NA,79.70588235294119,NA
27530,Wayne County,NC,NA,NA,20.147058823529413,NA
27537,Vance County,NC,NA,NA,47.35294117647059,NA
27542,Johnston County,NC,NA,88.75739644970415,NA,NA
27545,Wake County,NC,NA,NA,53.8235294117647,NA
27576,Johnston County,NC,NA,NA,66.17647058823529,NA
27603,Wake County,NC,NA,NA,30.58823529411765,NA
27610,Wake County,NC,NA,NA,40.14705882352941,NA
27707,Durham County,NC,NA,NA,16.76470588235294,NA
27804,Nash County,NC,NA,65.68047337278107,45,NA
27889,Beaufort County,NC,NA,NA,NA,30.22222222222222
27962,Washington County,NC,NA,NA,78.08823529411765,NA
28027,Cabarrus County,NC,NA,NA,26.323529411764707,NA
28034,Gaston County,NC,77.37704918032787,NA,NA,NA
28040,Rutherford County,NC,NA,NA,89.11764705882354,NA
28052,Gaston County,NC,NA,NA,35.147058823529406,NA
28056,Gaston County,NC,NA,NA,55.00000000000001,NA
28080,Lincoln County,NC,NA,90.8284023668639,NA,NA
28092,Lincoln County,NC,NA,NA,30.88235294117647,NA
28120,Gaston County,NC,NA,87.57396449704143,65.88235294117646,NA
28166,Iredell County,NC,NA,86.09467455621301,NA,NA
28205,Mecklenburg County,NC,NA,NA,27.647058823529413,NA
28212,Mecklenburg County,NC,NA,NA,33.38235294117647,NA
28269,Mecklenburg County,NC,NA,NA,17.5,NA
28314,Cumberland County,NC,NA,18.04733727810651,NA,NA
28315,Moore County,NC,NA,NA,NA,82.66666666666667
28339,Harnett County,NC,80,NA,NA,NA
28345,Richmond County,NC,NA,62.42603550295858,NA,NA
28348,Cumberland County,NC,NA,31.65680473372781,NA,NA
28349,Duplin County,NC,NA,NA,97.35294117647058,NA
28431,Columbus County,NC,NA,88.75739644970415,NA,NA
28472,Columbus County,NC,NA,NA,NA,56.00000000000001
28513,Pitt County,NC,NA,NA,85.73529411764706,NA
28560,Craven County,NC,NA,NA,38.970588235294116,NA
28642,Yadkin County,NC,NA,78.10650887573965,NA,NA
28645,Caldwell County,NC,7.540983606557377,NA,NA,0.8888888888888888
28659,Wilkes County,NC,NA,NA,29.264705882352942,NA
28673,Catawba County,NC,98.0327868852459,NA,NA,NA
28716,Haywood County,NC,NA,NA,58.970588235294116,80
28719,Jackson County,NC,46.557377049180324,NA,NA,NA
28768,Transylvania County,NC,NA,NA,NA,70.66666666666667
28792,Henderson County,NC,NA,NA,NA,51.11111111111111
58078,Cass County,ND,NA,NA,NA,17.77777777777778
58104,Cass County,ND,NA,NA,NA,14.222222222222221
43015,Delaware County,OH,NA,NA,20.73529411764706,NA
43017,Franklin County,OH,NA,29.88165680473373,NA,NA
43019,Knox County,OH,80.65573770491802,NA,NA,NA
43021,Delaware County,OH,NA,NA,91.32352941176471,NA
43023,Licking County,OH,NA,NA,91.47058823529412,85.77777777777777
43026,Franklin County,OH,NA,5.9171597633136095,NA,NA
43050,Knox County,OH,NA,NA,10.147058823529411,NA
43068,Franklin County,OH,0.32786885245901637,NA,NA,NA
43113,Pickaway County,OH,NA,NA,18.676470588235293,NA
43130,Fairfield County,OH,NA,15.976331360946746,2.6470588235294117,5.777777777777778
43201,Franklin County,OH,NA,NA,56.029411764705884,NA
43204,Franklin County,OH,1.639344262295082,6.508875739644971,NA,NA
43206,Franklin County,OH,NA,28.402366863905325,16.029411764705884,NA
43207,Franklin County,OH,NA,13.905325443786982,NA,NA
43211,Franklin County,OH,NA,NA,13.823529411764707,NA
43223,Franklin County,OH,1.9672131147540985,0.8875739644970414,35.294117647058826,NA
43228,Franklin County,OH,NA,0,NA,NA
43231,Franklin County,OH,18.688524590163937,NA,NA,NA
43232,Franklin County,OH,NA,5.325443786982249,NA,NA
43315,Morrow County,OH,NA,NA,89.70588235294117,NA
43420,Sandusky County,OH,NA,NA,13.382352941176471,NA
43449,Ottawa County,OH,NA,97.33727810650888,NA,NA
43452,Ottawa County,OH,NA,32.24852071005917,NA,NA
43512,Defiance County,OH,NA,43.786982248520715,NA,NA
43551,Wood County,OH,NA,NA,NA,8.88888888888889
43560,Lucas County,OH,NA,NA,67.3529411764706,NA
43604,Lucas County,OH,54.42622950819672,NA,NA,NA
43609,Lucas County,OH,NA,21.597633136094675,NA,NA
43610,Lucas County,OH,NA,NA,73.23529411764706,NA
43611,Lucas County,OH,34.42622950819672,NA,NA,NA
43612,Lucas County,OH,NA,NA,6.323529411764706,NA
43623,Lucas County,OH,NA,NA,35.588235294117645,NA
43701,Muskingum County,OH,0.9836065573770493,NA,NA,NA
43793,Monroe County,OH,NA,NA,91.61764705882352,NA
43812,Coshocton County,OH,NA,16.86390532544379,NA,43.55555555555555
43938,Jefferson County,OH,75.73770491803279,NA,NA,NA
43964,Jefferson County,OH,61.31147540983607,NA,33.970588235294116,NA
44003,Ashtabula County,OH,NA,NA,96.47058823529412,NA
44041,Ashtabula County,OH,NA,NA,NA,42.22222222222222
44052,Lorain County,OH,NA,NA,4.264705882352941,NA
44092,Lake County,OH,NA,89.3491124260355,NA,NA
44095,Lake County,OH,NA,NA,27.35294117647059,NA
44104,Cuyahoga County,OH,NA,NA,6.176470588235294,NA
44105,Cuyahoga County,OH,NA,NA,22.647058823529413,NA
44107,Cuyahoga County,OH,NA,28.106508875739642,3.088235294117647,NA
44109,Cuyahoga County,OH,NA,NA,1.1764705882352942,NA
44111,Cuyahoga County,OH,12.786885245901638,8.875739644970414,NA,6.222222222222222
44113,Cuyahoga County,OH,NA,NA,41.61764705882353,NA
44114,Cuyahoga County,OH,NA,NA,72.94117647058823,NA
44115,Cuyahoga County,OH,54.09836065573771,NA,NA,NA
44117,Cuyahoga County,OH,NA,NA,NA,57.77777777777777
44119,Cuyahoga County,OH,NA,NA,27.941176470588236,NA
44123,Cuyahoga County,OH,NA,NA,37.94117647058823,NA
44128,Cuyahoga County,OH,NA,NA,23.08823529411765,NA
44130,Cuyahoga County,OH,NA,NA,6.764705882352941,2.2222222222222223
44135,Cuyahoga County,OH,4.590163934426229,4.142011834319527,NA,NA
44212,Medina County,OH,8.852459016393443,NA,58.529411764705884,NA
44236,Summit County,OH,NA,NA,NA,28.444444444444443
44256,Medina County,OH,NA,NA,NA,0.4444444444444444
44260,Portage County,OH,63.278688524590166,NA,NA,NA
44306,Summit County,OH,7.868852459016394,NA,NA,NA
44312,Summit County,OH,NA,NA,NA,11.555555555555555
44314,Summit County,OH,NA,NA,35.73529411764706,NA
44319,Summit County,OH,NA,NA,NA,29.777777777777775
44438,Trumbull County,OH,NA,NA,78.67647058823529,NA
44446,Trumbull County,OH,NA,NA,17.647058823529413,NA
44460,Columbiana County,OH,NA,NA,28.38235294117647,NA
44481,Trumbull County,OH,NA,NA,36.3235294117647,NA
44512,Mahoning County,OH,NA,24.556213017751478,12.794117647058822,NA
44663,Tuscarawas County,OH,NA,NA,52.05882352941177,NA
44667,Wayne County,OH,NA,36.98224852071006,NA,NA
44706,Stark County,OH,NA,32.24852071005917,43.6764705882353,NA
44709,Stark County,OH,NA,NA,50.588235294117645,NA
44718,Stark County,OH,NA,94.67455621301775,NA,NA
44721,Stark County,OH,89.8360655737705,NA,NA,NA
44833,Crawford County,OH,NA,26.627218934911244,42.79411764705882,23.555555555555554
44883,Seneca County,OH,NA,65.68047337278107,NA,NA
44890,Huron County,OH,NA,NA,NA,68.44444444444444
45013,Butler County,OH,NA,NA,25.735294117647058,NA
45014,Butler County,OH,NA,NA,20.88235294117647,NA
45030,Hamilton County,OH,NA,41.42011834319527,NA,NA
45044,Butler County,OH,2.622950819672131,6.8047337278106506,8.088235294117647,NA
45069,Butler County,OH,10.491803278688524,NA,NA,NA
45133,Highland County,OH,NA,NA,28.676470588235293,NA
45150,Clermont County,OH,NA,NA,47.794117647058826,NA
45204,Hamilton County,OH,82.62295081967214,NA,NA,NA
45205,Hamilton County,OH,NA,NA,30.294117647058822,NA
45206,Hamilton County,OH,NA,NA,62.05882352941177,NA
45211,Hamilton County,OH,NA,NA,12.058823529411764,NA
45218,Hamilton County,OH,99.01639344262296,NA,NA,NA
45238,Hamilton County,OH,NA,11.538461538461538,NA,NA
45323,Clark County,OH,NA,NA,NA,91.55555555555556
45365,Shelby County,OH,NA,34.61538461538461,15.735294117647058,NA
45373,Miami County,OH,NA,NA,9.705882352941178,NA
45406,Montgomery County,OH,NA,16.56804733727811,NA,NA
45410,Montgomery County,OH,NA,NA,52.5,NA
45424,Montgomery County,OH,NA,NA,14.117647058823529,NA
45439,Montgomery County,OH,49.50819672131148,NA,NA,NA
45505,Clark County,OH,NA,NA,41.3235294117647,NA
45612,Ross County,OH,NA,75.7396449704142,NA,NA
45638,Lawrence County,OH,13.114754098360656,NA,NA,NA
45640,Jackson County,OH,NA,NA,9.852941176470589,NA
45652,Scioto County,OH,94.42622950819673,NA,NA,NA
45653,Scioto County,OH,92.1311475409836,NA,NA,NA
45656,Jackson County,OH,NA,NA,69.55882352941177,NA
45657,Scioto County,OH,NA,86.09467455621301,NA,NA
45662,Scioto County,OH,NA,NA,23.52941176470588,NA
45690,Pike County,OH,NA,38.46153846153847,NA,NA
45701,Athens County,OH,NA,61.834319526627226,NA,NA
45714,Washington County,OH,NA,84.61538461538461,NA,NA
45750,Washington County,OH,6.885245901639345,NA,NA,NA
45769,Meigs County,OH,NA,NA,71.17647058823529,NA
45805,Allen County,OH,NA,NA,17.352941176470587,NA
45806,Allen County,OH,74.09836065573771,NA,NA,NA
45822,Mercer County,OH,NA,26.627218934911244,NA,NA
45840,Hancock County,OH,NA,NA,22.941176470588236,NA
45850,Allen County,OH,97.37704918032787,NA,NA,NA
45879,Paulding County,OH,39.01639344262295,NA,NA,NA
45891,Van Wert County,OH,NA,NA,39.705882352941174,NA
73013,Oklahoma County,OK,NA,52.662721893491124,NA,NA
73044,Logan County,OK,NA,NA,60.44117647058823,NA
73072,Cleveland County,OK,NA,68.63905325443787,NA,NA
73109,Oklahoma County,OK,NA,NA,72.5,NA
73110,Oklahoma County,OK,25.901639344262296,NA,NA,NA
73129,Oklahoma County,OK,NA,NA,59.85294117647059,NA
73132,Oklahoma County,OK,NA,NA,63.8235294117647,NA
73401,Carter County,OK,NA,NA,17.941176470588236,NA
73601,Custer County,OK,51.80327868852459,NA,NA,NA
74012,Tulsa County,OK,NA,NA,32.94117647058823,NA
74016,Rogers County,OK,NA,90.8284023668639,NA,NA
74107,Tulsa County,OK,NA,NA,70.58823529411765,NA
74136,Tulsa County,OK,NA,NA,64.26470588235294,NA
74352,Mayes County,OK,NA,NA,90.58823529411765,NA
74745,McCurtain County,OK,NA,66.86390532544378,NA,NA
74859,Okfuskee County,OK,NA,NA,NA,91.11111111111111
74948,Sequoyah County,OK,NA,56.213017751479285,NA,NA
74960,Adair County,OK,26.557377049180324,24.85207100591716,NA,NA
97060,Multnomah County,OR,NA,54.437869822485204,NA,NA
97123,Washington County,OR,41.967213114754095,NA,28.235294117647058,NA
97213,Multnomah County,OR,NA,NA,47.94117647058824,NA
97220,Multnomah County,OR,NA,NA,46.76470588235294,NA
97229,Washington County,OR,10.163934426229508,NA,NA,NA
97367,Lincoln County,OR,NA,73.96449704142012,NA,NA
97423,Coos County,OR,NA,NA,91.76470588235294,NA
97426,Lane County,OR,NA,NA,NA,81.77777777777779
97814,Baker County,OR,NA,NA,52.20588235294118,NA
97838,Umatilla County,OR,NA,NA,24.11764705882353,NA
15009,Beaver County,PA,NA,NA,NA,47.11111111111111
15045,Allegheny County,PA,NA,NA,96.02941176470588,NA
15201,Allegheny County,PA,NA,51.77514792899408,NA,NA
15204,Allegheny County,PA,NA,NA,73.82352941176471,NA
15235,Allegheny County,PA,NA,NA,26.91176470588235,NA
15601,Westmoreland County,PA,6.229508196721312,NA,NA,NA
15714,Cambria County,PA,NA,94.97041420118343,NA,NA
15931,Cambria County,PA,NA,NA,91.17647058823529,NA
16001,Butler County,PA,NA,NA,4.705882352941177,NA
16002,Butler County,PA,NA,NA,65.58823529411765,NA
16066,Butler County,PA,NA,73.07692307692307,NA,NA
16101,Lawrence County,PA,NA,NA,9.117647058823529,NA
16502,Erie County,PA,NA,NA,53.529411764705884,NA
16508,Erie County,PA,NA,NA,86.91176470588235,NA
16602,Blair County,PA,NA,NA,17.794117647058822,NA
16686,Blair County,PA,NA,NA,NA,71.11111111111111
17046,Lebanon County,PA,NA,NA,46.61764705882353,NA
17057,Dauphin County,PA,33.114754098360656,NA,NA,NA
17222,Franklin County,PA,NA,93.49112426035504,NA,NA
17331,York County,PA,NA,46.74556213017752,NA,NA
17552,Lancaster County,PA,NA,NA,NA,44.888888888888886
17701,Lycoming County,PA,NA,NA,6.61764705882353,NA
17740,Lycoming County,PA,77.04918032786885,NA,NA,NA
17901,Schuylkill County,PA,NA,NA,NA,36
17954,Schuylkill County,PA,NA,NA,88.52941176470588,NA
18018,Lehigh County,PA,NA,NA,31.323529411764707,NA
18042,Northampton County,PA,NA,NA,8.529411764705882,NA
18102,Lehigh County,PA,NA,4.437869822485207,NA,NA
18201,Luzerne County,PA,33.77049180327869,NA,NA,NA
18235,Carbon County,PA,NA,48.5207100591716,NA,NA
18431,Wayne County,PA,NA,NA,70.58823529411765,NA
18512,Lackawanna County,PA,NA,NA,NA,81.33333333333333
18704,Luzerne County,PA,NA,NA,23.235294117647058,NA
18974,Bucks County,PA,NA,NA,30.14705882352941,NA
19047,Bucks County,PA,NA,NA,32.35294117647059,NA
19057,Bucks County,PA,NA,NA,41.76470588235294,NA
19063,Delaware County,PA,29.508196721311474,NA,NA,NA
19111,Philadelphia County,PA,NA,33.13609467455622,NA,NA
19121,Philadelphia County,PA,NA,NA,11.76470588235294,NA
19122,Philadelphia County,PA,NA,NA,54.852941176470594,NA
19124,Philadelphia County,PA,NA,NA,2.3529411764705883,NA
19141,Philadelphia County,PA,13.77049180327869,NA,NA,NA
19142,Philadelphia County,PA,NA,NA,16.470588235294116,NA
19144,Philadelphia County,PA,NA,NA,7.0588235294117645,NA
19151,Philadelphia County,PA,19.34426229508197,NA,NA,NA
19335,Chester County,PA,NA,NA,24.264705882352942,NA
19438,Montgomery County,PA,NA,NA,56.3235294117647,NA
19446,Montgomery County,PA,NA,NA,NA,19.11111111111111
19464,Montgomery County,PA,NA,NA,7.794117647058823,NA
19604,Berks County,PA,NA,NA,68.52941176470588,NA
19605,Berks County,PA,NA,NA,72.35294117647058,NA
19606,Berks County,PA,22.295081967213115,NA,NA,NA
19611,Berks County,PA,NA,77.51479289940828,NA,NA
02905,Providence County,RI,36.721311475409834,NA,NA,NA
29206,Richland County,SC,NA,NA,93.52941176470588,NA
29229,Richland County,SC,49.50819672131148,NA,NA,NA
29341,Cherokee County,SC,NA,NA,55.88235294117647,NA
29379,Union County,SC,NA,NA,43.38235294117647,NA
29403,Charleston County,SC,NA,NA,NA,74.22222222222223
29414,Charleston County,SC,NA,NA,73.38235294117646,NA
29435,Colleton County,SC,NA,78.99408284023669,NA,NA
29440,Georgetown County,SC,NA,NA,55.14705882352941,NA
29461,Berkeley County,SC,NA,NA,43.970588235294116,NA
29488,Colleton County,SC,NA,NA,46.02941176470588,NA
29536,Dillon County,SC,NA,NA,NA,86.22222222222223
29577,Horry County,SC,NA,55.325443786982255,70.44117647058825,NA
29579,Horry County,SC,NA,NA,62.35294117647059,NA
29582,Horry County,SC,89.50819672131148,NA,NA,NA
29626,Anderson County,SC,NA,64.79289940828401,NA,NA
29627,Anderson County,SC,12.459016393442624,NA,NA,NA
29666,Greenwood County,SC,NA,99.70414201183432,NA,NA
29669,Anderson County,SC,NA,92.3076923076923,NA,NA
29671,Pickens County,SC,NA,NA,NA,69.33333333333334
29715,York County,SC,NA,NA,NA,78.66666666666666
29732,York County,SC,NA,76.03550295857988,NA,NA
57005,Minnehaha County,SD,NA,NA,88.23529411764706,NA
57104,Minnehaha County,SD,NA,NA,39.411764705882355,NA
57401,Brown County,SD,NA,NA,NA,10.666666666666668
57770,Shannon County,SD,50.1639344262295,NA,NA,NA
57772,Shannon County,SD,81.31147540983606,NA,NA,NA
37066,Sumner County,TN,NA,NA,12.647058823529411,NA
37080,Davidson County,TN,NA,NA,82.94117647058825,NA
37138,Davidson County,TN,78.36065573770492,NA,NA,NA
37148,Sumner County,TN,NA,NA,50.44117647058823,NA
37166,DeKalb County,TN,NA,90.53254437869822,NA,NA
37174,Williamson County,TN,58.032786885245905,NA,NA,NA
37208,Davidson County,TN,NA,NA,NA,70.22222222222221
37303,McMinn County,TN,NA,39.94082840236686,30.73529411764706,NA
37311,Bradley County,TN,NA,NA,45.14705882352941,NA
37363,Hamilton County,TN,NA,NA,50.882352941176464,NA
37388,Coffee County,TN,59.67213114754099,52.662721893491124,NA,NA
37421,Hamilton County,TN,35.73770491803279,NA,NA,NA
37615,Washington County,TN,NA,NA,68.08823529411765,NA
37660,Sullivan County,TN,NA,NA,11.323529411764707,NA
37665,Sullivan County,TN,NA,92.01183431952663,NA,NA
37716,Anderson County,TN,NA,NA,48.970588235294116,NA
37722,Cocke County,TN,NA,NA,90.73529411764706,NA
37725,Jefferson County,TN,NA,NA,61.32352941176471,NA
37745,Greene County,TN,NA,NA,34.705882352941174,NA
37766,Campbell County,TN,53.11475409836065,NA,NA,NA
37813,Hamblen County,TN,NA,NA,38.23529411764706,NA
37821,Cocke County,TN,NA,NA,21.470588235294116,NA
37874,Monroe County,TN,NA,40.828402366863905,NA,NA
37914,Knox County,TN,38.68852459016394,NA,NA,NA
38115,Shelby County,TN,NA,NA,31.470588235294116,NA
38133,Shelby County,TN,NA,53.84615384615385,NA,NA
38351,Henderson County,TN,NA,NA,61.1764705882353,NA
38483,Lawrence County,TN,NA,NA,94.70588235294117,NA
38506,Putnam County,TN,NA,51.77514792899408,NA,NA
38555,Cumberland County,TN,NA,NA,49.85294117647059,NA
38574,Putnam County,TN,NA,NA,86.32352941176471,NA
38583,White County,TN,29.18032786885246,NA,NA,NA
75028,Denton County,TX,NA,NA,64.55882352941177,NA
75033,,TX,NA,NA,76.02941176470588,NA
75063,Dallas County,TX,NA,NA,66.61764705882352,NA
75089,Dallas County,TX,64.59016393442623,NA,NA,NA
75110,Navarro County,TX,NA,25.7396449704142,NA,NA
75126,Kaufman County,TX,NA,NA,NA,53.77777777777778
75149,Dallas County,TX,23.278688524590162,NA,NA,NA
75169,Van Zandt County,TX,NA,91.71597633136095,79.11764705882352,NA
75208,Dallas County,TX,NA,NA,69.85294117647058,NA
75215,Dallas County,TX,NA,60.05917159763313,NA,NA
75220,Dallas County,TX,NA,17.45562130177515,NA,NA
75240,Dallas County,TX,NA,NA,77.05882352941177,NA
75241,Dallas County,TX,58.68852459016394,NA,NA,NA
75402,Hunt County,TX,NA,NA,82.5,NA
75474,Hunt County,TX,NA,NA,70,NA
75501,Bowie County,TX,NA,24.2603550295858,NA,NA
75645,Upshur County,TX,NA,66.86390532544378,NA,NA
75647,Gregg County,TX,72.78688524590164,NA,NA,NA
75670,Harrison County,TX,NA,58.875739644970416,NA,NA
75684,Rusk County,TX,NA,NA,95.58823529411765,NA
75751,Henderson County,TX,NA,NA,55.73529411764706,NA
75770,Henderson County,TX,99.672131147541,NA,NA,NA
75771,Smith County,TX,30.491803278688522,NA,NA,NA
75773,Wood County,TX,NA,NA,78.97058823529412,NA
75790,Van Zandt County,TX,NA,NA,NA,89.77777777777777
75901,Angelina County,TX,NA,NA,NA,50.22222222222222
75904,Angelina County,TX,NA,NA,44.85294117647059,NA
75951,Jasper County,TX,NA,NA,NA,57.333333333333336
75961,Nacogdoches County,TX,NA,NA,75.29411764705883,NA
75972,San Augustine County,TX,NA,NA,NA,96
76001,Tarrant County,TX,NA,66.86390532544378,NA,NA
76011,Tarrant County,TX,NA,NA,63.67647058823529,NA
76012,Tarrant County,TX,26.229508196721312,NA,NA,64
76020,Tarrant County,TX,NA,NA,39.55882352941176,NA
76058,Johnson County,TX,NA,NA,64.70588235294117,NA
76078,Wise County,TX,68.1967213114754,NA,NA,NA
76120,Tarrant County,TX,70.16393442622952,NA,NA,NA
76123,Tarrant County,TX,NA,NA,56.470588235294116,NA
76134,Tarrant County,TX,NA,NA,36.17647058823529,NA
76137,Tarrant County,TX,NA,NA,28.52941176470588,26.666666666666668
76140,Tarrant County,TX,NA,50.591715976331365,NA,NA
76148,Tarrant County,TX,NA,63.609467455621306,NA,NA
76179,Tarrant County,TX,NA,NA,39.11764705882353,NA
76209,Denton County,TX,84.91803278688525,NA,NA,NA
76248,Tarrant County,TX,NA,81.65680473372781,NA,NA
76301,Wichita County,TX,NA,36.09467455621302,NA,NA
76446,Erath County,TX,NA,84.91124260355029,NA,NA
76502,Bell County,TX,NA,17.75147928994083,NA,NA
76504,Bell County,TX,9.508196721311474,NA,12.5,NA
76513,Bell County,TX,NA,NA,11.176470588235295,3.5555555555555554
76557,McLennan County,TX,84.26229508196721,NA,NA,NA
76571,Bell County,TX,NA,NA,NA,68.88888888888889
76574,Williamson County,TX,NA,NA,58.235294117647065,NA
76645,Hill County,TX,NA,NA,85.29411764705883,NA
77032,Harris County,TX,74.42622950819671,NA,NA,NA
77035,Harris County,TX,NA,65.68047337278107,NA,NA
77045,Harris County,TX,NA,NA,66.32352941176471,NA
77047,Harris County,TX,NA,60.946745562130175,NA,NA
77061,Harris County,TX,NA,NA,92.94117647058823,NA
77062,Harris County,TX,48.52459016393443,NA,NA,NA
77074,Harris County,TX,NA,NA,84.55882352941177,NA
77076,Harris County,TX,NA,50.591715976331365,NA,NA
77080,Harris County,TX,41.63934426229508,NA,NA,NA
77083,Harris County,TX,NA,38.16568047337278,NA,NA
77088,Harris County,TX,28.196721311475407,NA,NA,NA
77422,Brazoria County,TX,NA,NA,82.35294117647058,NA
77429,Harris County,TX,NA,35.20710059171598,NA,NA
77449,Harris County,TX,NA,NA,14.411764705882351,NA
77494,Fort Bend County,TX,8.524590163934425,NA,NA,NA
77511,Brazoria County,TX,NA,10.355029585798817,NA,NA
77539,Galveston County,TX,NA,15.384615384615385,NA,NA
77541,Brazoria County,TX,NA,58.57988165680473,NA,NA
77551,Galveston County,TX,NA,NA,36.029411764705884,NA
77575,Liberty County,TX,NA,NA,74.11764705882354,NA
77590,Galveston County,TX,NA,38.75739644970414,NA,NA
77627,Jefferson County,TX,NA,NA,79.41176470588235,NA
77632,Orange County,TX,NA,NA,60.882352941176464,NA
77642,Jefferson County,TX,14.754098360655737,NA,70.1470588235294,NA
77662,Orange County,TX,NA,NA,54.264705882352935,NA
77801,Brazos County,TX,NA,NA,87.79411764705883,NA
77802,Brazos County,TX,NA,NA,34.26470588235294,NA
77901,Victoria County,TX,17.04918032786885,NA,NA,NA
77984,Lavaca County,TX,97.70491803278688,NA,NA,NA
77995,Lavaca County,TX,NA,NA,86.1764705882353,NA
78041,Webb County,TX,NA,NA,48.529411764705884,NA
78045,Webb County,TX,NA,NA,31.91176470588235,40.44444444444444
78101,Bexar County,TX,NA,98.5207100591716,NA,NA
78109,Bexar County,TX,NA,NA,NA,88.44444444444444
78130,Comal County,TX,55.73770491803278,NA,31.029411764705884,NA
78203,Bexar County,TX,NA,NA,91.76470588235294,NA
78207,Bexar County,TX,NA,NA,NA,17.333333333333336
78209,Bexar County,TX,NA,NA,71.91176470588235,66.66666666666666
78217,Bexar County,TX,NA,35.798816568047336,NA,NA
78220,Bexar County,TX,NA,NA,NA,77.77777777777779
78222,Bexar County,TX,NA,56.80473372781065,NA,NA
78229,Bexar County,TX,50.49180327868853,NA,NA,NA
78230,Bexar County,TX,NA,64.79289940828401,NA,NA
78233,Bexar County,TX,NA,NA,51.617647058823536,NA
78240,Bexar County,TX,NA,NA,53.67647058823529,NA
78242,Bexar County,TX,NA,20.710059171597635,NA,NA
78249,Bexar County,TX,NA,49.112426035502956,NA,NA
78251,Bexar County,TX,49.18032786885246,NA,NA,NA
78332,Jim Wells County,TX,NA,NA,70.29411764705881,NA
78380,Nueces County,TX,NA,39.349112426035504,NA,NA
78414,Nueces County,TX,73.44262295081967,NA,NA,NA
78415,Nueces County,TX,15.40983606557377,NA,NA,NA
78503,Hidalgo County,TX,NA,NA,77.64705882352942,NA
78516,Hidalgo County,TX,22.62295081967213,NA,NA,NA
78575,Cameron County,TX,NA,NA,98.52941176470588,NA
78616,Caldwell County,TX,NA,69.23076923076923,NA,NA
78634,Williamson County,TX,NA,NA,68.82352941176471,73.33333333333333
78654,Burnet County,TX,NA,60.650887573964496,NA,48.44444444444444
78664,Williamson County,TX,NA,23.668639053254438,NA,NA
78758,Travis County,TX,NA,NA,61.47058823529412,NA
78852,Maverick County,TX,NA,31.952662721893493,NA,NA
79360,Gaines County,TX,67.54098360655738,72.7810650887574,NA,NA
79404,Lubbock County,TX,NA,70.41420118343196,82.20588235294117,NA
79701,Midland County,TX,34.75409836065574,NA,NA,NA
79720,Howard County,TX,54.75409836065573,71.59763313609467,NA,NA
79735,Pecos County,TX,NA,NA,77.3529411764706,NA
79756,Ward County,TX,73.11475409836066,NA,NA,NA
79763,Ector County,TX,NA,NA,45.73529411764706,NA
79932,El Paso County,TX,NA,54.73372781065089,NA,NA
84042,Utah County,UT,96.06557377049181,NA,NA,NA
84049,Wasatch County,UT,NA,NA,98.08823529411764,NA
84054,Davis County,UT,NA,NA,81.02941176470588,NA
84074,Tooele County,UT,NA,NA,5.88235294117647,NA
05301,Windham County,VT,NA,NA,69.41176470588235,NA
05488,Franklin County,VT,61.63934426229508,NA,NA,NA
05602,Washington County,VT,60.65573770491803,NA,NA,NA
05676,Washington County,VT,84.59016393442623,NA,NA,NA
05851,Caledonia County,VT,NA,NA,NA,97.77777777777777
20109,Prince William County,VA,8.19672131147541,NA,NA,NA
20176,Loudoun County,VA,NA,NA,NA,68
22042,Fairfax County,VA,40.65573770491803,NA,NA,NA
22079,Fairfax County,VA,38.0327868852459,NA,NA,NA
22191,Prince William County,VA,NA,NA,23.823529411764703,NA
22309,Fairfax County,VA,14.426229508196723,NA,NA,NA
22408,Spotsylvania County,VA,45.90163934426229,NA,NA,NA
22556,Stafford County,VA,NA,NA,79.26470588235294,NA
22560,Essex County,VA,NA,86.68639053254438,NA,NA
22701,Culpeper County,VA,27.86885245901639,NA,NA,NA
22835,Page County,VA,NA,NA,68.67647058823529,NA
22911,Albemarle County,VA,NA,NA,80,NA
22973,Greene County,VA,NA,NA,90,NA
23188,James City County,VA,NA,NA,NA,6.666666666666667
23222,Richmond city,VA,NA,NA,23.97058823529412,NA
23224,Richmond city,VA,NA,NA,NA,37.77777777777778
23225,Richmond city,VA,19.01639344262295,NA,NA,NA
23321,Chesapeake city,VA,NA,NA,57.205882352941174,NA
23451,Virginia Beach city,VA,NA,NA,NA,18.22222222222222
23453,Virginia Beach city,VA,NA,57.692307692307686,NA,NA
23608,Newport News city,VA,NA,NA,NA,43.111111111111114
23661,Hampton city,VA,NA,NA,NA,69.77777777777779
23692,York County,VA,NA,NA,NA,59.55555555555555
23703,Portsmouth city,VA,NA,NA,64.11764705882354,NA
23930,Nottoway County,VA,81.9672131147541,NA,NA,NA
24088,Franklin County,VA,99.672131147541,NA,NA,NA
24151,Franklin County,VA,NA,45.857988165680474,NA,NA
24210,Washington County,VA,NA,NA,75.88235294117646,NA
24477,Augusta County,VA,55.40983606557377,NA,NA,NA
98031,King County,WA,NA,67.75147928994083,NA,NA
98038,King County,WA,NA,78.10650887573965,NA,NA
98058,King County,WA,NA,81.95266272189349,NA,NA
98166,King County,WA,NA,NA,86.32352941176471,NA
98284,Skagit County,WA,NA,60.35502958579882,NA,NA
98366,Kitsap County,WA,NA,NA,32.794117647058826,NA
98591,Lewis County,WA,98.68852459016394,NA,NA,NA
98665,Clark County,WA,76.39344262295083,NA,NA,NA
98671,Clark County,WA,NA,NA,NA,84.44444444444444
98682,Clark County,WA,NA,59.46745562130178,NA,NA
99216,Spokane County,WA,NA,NA,72.79411764705883,NA
99301,Franklin County,WA,NA,NA,12.352941176470589,NA
99336,Benton County,WA,NA,14.201183431952662,NA,4
99349,Grant County,WA,NA,NA,99.41176470588235,NA
99352,Benton County,WA,NA,NA,NA,31.11111111111111
20018,District of Columbia,DC,NA,NA,NA,32.44444444444444
20032,District of Columbia,DC,NA,NA,7.794117647058823,NA
24701,Mercer County,WV,NA,NA,39.26470588235294,NA
24739,Mercer County,WV,NA,NA,74.70588235294117,NA
25309,Kanawha County,WV,37.704918032786885,NA,NA,NA
25404,Berkeley County,WV,NA,NA,50,NA
25411,Morgan County,WV,87.21311475409837,NA,NA,NA
25438,Jefferson County,WV,91.80327868852459,NA,NA,NA
25701,Cabell County,WV,NA,NA,NA,19.555555555555557
25704,Wayne County,WV,NA,NA,NA,45.33333333333333
26003,Ohio County,WV,NA,NA,8.38235294117647,NA
26301,Harrison County,WV,NA,44.08284023668639,NA,NA
26452,Lewis County,WV,NA,NA,67.79411764705883,NA
26508,Monongalia County,WV,4.918032786885246,NA,NA,NA
26537,Preston County,WV,93.11475409836065,NA,NA,NA
26726,Mineral County,WV,NA,NA,51.76470588235295,NA
53066,Waukesha County,WI,20.655737704918035,NA,NA,NA
53094,Jefferson County,WI,NA,84.91124260355029,NA,NA
53110,Milwaukee County,WI,NA,NA,42.05882352941177,NA
53140,Kenosha County,WI,NA,41.71597633136095,NA,NA
53186,Waukesha County,WI,NA,NA,37.64705882352941,NA
53204,Milwaukee County,WI,NA,11.834319526627219,NA,NA
53205,Milwaukee County,WI,NA,33.72781065088758,4.117647058823529,NA
53209,Milwaukee County,WI,NA,NA,3.823529411764706,NA
53210,Milwaukee County,WI,NA,NA,10.588235294117647,NA
53212,Milwaukee County,WI,NA,NA,18.823529411764707,NA
53216,Milwaukee County,WI,NA,NA,NA,24.88888888888889
53217,Milwaukee County,WI,NA,NA,46.470588235294116,NA
53511,Rock County,WI,NA,NA,2.0588235294117645,NA
53563,Rock County,WI,NA,NA,NA,80.44444444444444
53716,Dane County,WI,NA,NA,NA,64.88888888888889
53719,Dane County,WI,NA,NA,NA,52
53913,Sauk County,WI,NA,NA,NA,24.444444444444443
53916,Dodge County,WI,39.01639344262295,NA,NA,NA
53959,Sauk County,WI,NA,NA,52.64705882352941,NA
54139,Oconto County,WI,97.04918032786885,NA,NA,NA
54401,Marathon County,WI,NA,NA,50.14705882352941,NA
54467,Portage County,WI,NA,NA,72.05882352941177,NA
54481,Portage County,WI,NA,NA,27.058823529411764,NA
54650,La Crosse County,WI,57.377049180327866,NA,NA,NA
54656,Monroe County,WI,NA,NA,NA,47.55555555555556
54701,Eau Claire County,WI,NA,NA,NA,28.888888888888886
54703,Eau Claire County,WI,31.80327868852459,NA,29.411764705882355,NA
54729,Chippewa County,WI,NA,NA,43.529411764705884,NA
54730,Dunn County,WI,NA,NA,NA,86.66666666666667
54901,Winnebago County,WI,NA,NA,37.05882352941177,NA
54952,Winnebago County,WI,NA,NA,57.49999999999999,NA
