ZipCode,county,state,Youth,Pediatric,Adult,Retirement,Geriatric
35010,Tallapoosa County,AL,NA,NA,40.13921113689095,NA,NA
35022,Jefferson County,AL,NA,62.83783783783784,NA,NA,NA
35062,Jefferson County,AL,90.38031319910515,NA,NA,NA,NA
35072,Coosa County,AL,NA,82.77027027027027,NA,NA,NA
35094,Jefferson County,AL,NA,66.8918918918919,62.18097447795824,NA,NA
35124,Shelby County,AL,52.57270693512305,NA,NA,NA,NA
35128,St. Clair County,AL,NA,NA,75.87006960556845,NA,NA
35173,Jefferson County,AL,44.742729306487696,NA,NA,NA,NA
35184,Bibb County,AL,NA,NA,NA,85.90308370044053,NA
35215,Jefferson County,AL,NA,6.756756756756757,NA,NA,NA
35216,Jefferson County,AL,NA,49.66216216216216,NA,NA,NA
35235,Jefferson County,AL,NA,NA,57.30858468677494,NA,NA
35242,Shelby County,AL,39.59731543624161,NA,NA,NA,NA
35570,Marion County,AL,NA,54.391891891891895,NA,NA,NA
35951,Marshall County,AL,NA,NA,67.28538283062645,NA,NA
35953,St. Clair County,AL,88.81431767337807,NA,NA,NA,NA
36066,Autauga County,AL,NA,NA,55.22041763341067,NA,NA
36116,Montgomery County,AL,NA,NA,25.754060324825982,NA,NA
36207,Calhoun County,AL,NA,NA,59.39675174013921,NA,NA
36251,Clay County,AL,NA,NA,NA,NA,91.66666666666666
36303,Houston County,AL,28.41163310961969,NA,NA,NA,NA
36460,Monroe County,AL,NA,NA,NA,96.0352422907489,NA
36474,Covington County,AL,NA,87.16216216216216,NA,NA,NA
36535,Baldwin County,AL,42.281879194630875,NA,NA,NA,NA
36582,Mobile County,AL,NA,NA,NA,NA,82.22222222222221
36619,Mobile County,AL,88.36689038031321,NA,NA,NA,NA
36701,Dallas County,AL,NA,NA,62.41299303944315,NA,NA
36854,Chambers County,AL,NA,NA,65.66125290023201,NA,NA
99504,Anchorage Municipality,AK,NA,NA,NA,52.863436123348016,NA
99576,Dillingham Census Area,AK,NA,NA,NA,99.11894273127754,NA
99901,Ketchikan Gateway Borough,AK,NA,NA,44.08352668213457,NA,NA
85006,Maricopa County,AZ,NA,19.93243243243243,NA,NA,NA
85007,Maricopa County,AZ,NA,NA,15.54524361948956,NA,NA
85009,Maricopa County,AZ,NA,20.945945945945947,NA,NA,NA
85029,Maricopa County,AZ,8.94854586129754,NA,NA,NA,NA
85033,Maricopa County,AZ,NA,6.418918918918918,NA,NA,NA
85035,Maricopa County,AZ,NA,NA,21.809744779582367,NA,NA
85044,Maricopa County,AZ,NA,NA,NA,NA,66.11111111111111
85053,Maricopa County,AZ,31.767337807606268,NA,NA,NA,NA
85142,Maricopa County,AZ,NA,NA,NA,NA,62.22222222222222
85208,Maricopa County,AZ,NA,NA,46.8677494199536,NA,NA
85209,Maricopa County,AZ,NA,NA,65.89327146171694,NA,NA
85283,Maricopa County,AZ,NA,31.41891891891892,NA,NA,NA
85286,Maricopa County,AZ,23.713646532438478,NA,NA,NA,NA
85295,Maricopa County,AZ,61.74496644295302,NA,NA,NA,NA
85303,Maricopa County,AZ,NA,NA,NA,78.41409691629956,NA
85326,Maricopa County,AZ,NA,NA,NA,NA,87.77777777777777
85331,Maricopa County,AZ,NA,NA,57.076566125290014,NA,NA
85339,Maricopa County,AZ,8.053691275167784,19.256756756756758,NA,NA,NA
85351,Maricopa County,AZ,NA,NA,NA,11.013215859030836,NA
85375,Maricopa County,AZ,NA,NA,NA,28.634361233480178,NA
85501,Gila County,AZ,NA,58.108108108108105,NA,NA,NA
85614,Pima County,AZ,NA,NA,NA,NA,25.555555555555554
85643,Cochise County,AZ,NA,NA,95.59164733178655,NA,NA
85718,Pima County,AZ,NA,NA,NA,25.55066079295154,17.22222222222222
85743,Pima County,AZ,47.20357941834452,NA,NA,NA,NA
85747,Pima County,AZ,72.25950782997764,NA,NA,NA,NA
85750,Pima County,AZ,NA,NA,NA,60.352422907488986,NA
85756,Pima County,AZ,NA,NA,39.443155452436194,NA,NA
86021,Mohave County,AZ,NA,60.47297297297297,NA,NA,NA
86303,Yavapai County,AZ,71.36465324384787,NA,NA,NA,NA
86322,Yavapai County,AZ,NA,NA,53.36426914153132,NA,NA
86403,Mohave County,AZ,NA,NA,48.95591647331787,NA,NA
86429,Mohave County,AZ,NA,NA,NA,69.60352422907489,NA
86510,Navajo County,AZ,NA,NA,NA,92.95154185022027,NA
71667,Lincoln County,AR,NA,NA,86.3109048723898,NA,NA
71671,Bradley County,AR,NA,NA,91.87935034802784,NA,NA
71730,Union County,AR,NA,NA,NA,37.00440528634361,NA
71923,Clark County,AR,63.31096196868009,NA,NA,NA,NA
72058,Faulkner County,AR,79.41834451901566,NA,NA,NA,NA
72204,Pulaski County,AR,NA,NA,53.596287703016245,NA,NA
72223,Pulaski County,AR,NA,NA,NA,NA,46.666666666666664
72450,Greene County,AR,24.161073825503358,NA,NA,NA,NA
72476,Lawrence County,AR,NA,NA,93.96751740139212,NA,NA
72703,Washington County,AR,NA,NA,76.79814385150812,NA,NA
72756,Benton County,AR,NA,NA,NA,NA,61.66666666666667
90016,Los Angeles County,CA,NA,39.86486486486486,NA,NA,NA
90044,Los Angeles County,CA,NA,NA,NA,NA,33.33333333333333
90064,Los Angeles County,CA,64.65324384787472,NA,NA,NA,NA
90065,Los Angeles County,CA,NA,NA,NA,44.49339207048458,NA
90403,Los Angeles County,CA,NA,NA,88.8631090487239,NA,NA
90405,Los Angeles County,CA,NA,NA,NA,96.91629955947137,NA
90604,Los Angeles County,CA,NA,68.24324324324324,NA,NA,NA
90703,Los Angeles County,CA,62.639821029082775,NA,NA,NA,NA
90706,Los Angeles County,CA,12.527964205816556,NA,NA,NA,NA
91010,Los Angeles County,CA,NA,NA,NA,74.8898678414097,NA
91011,Los Angeles County,CA,75.39149888143176,NA,NA,NA,NA
91303,Los Angeles County,CA,NA,80.74324324324324,NA,NA,NA
91311,Los Angeles County,CA,NA,NA,57.772621809744784,NA,NA
91342,Los Angeles County,CA,NA,NA,25.290023201856147,NA,NA
91403,Los Angeles County,CA,89.03803131991052,NA,NA,NA,NA
91405,Los Angeles County,CA,NA,NA,45.93967517401392,NA,NA
91605,Los Angeles County,CA,75.83892617449665,NA,NA,NA,NA
91709,San Bernardino County,CA,NA,NA,38.51508120649652,NA,NA
91724,Los Angeles County,CA,55.033557046979865,NA,NA,NA,NA
91739,San Bernardino County,CA,NA,NA,66.12529002320186,NA,NA
91790,Los Angeles County,CA,NA,58.78378378378378,NA,NA,NA
92008,San Diego County,CA,NA,94.25675675675676,NA,NA,NA
92009,San Diego County,CA,NA,NA,NA,55.06607929515418,NA
92011,San Diego County,CA,69.79865771812081,NA,NA,NA,NA
92024,San Diego County,CA,50.78299776286354,NA,NA,NA,NA
92040,San Diego County,CA,NA,NA,49.651972157772626,33.480176211453745,29.444444444444446
92054,San Diego County,CA,46.085011185682326,NA,NA,NA,NA
92081,San Diego County,CA,94.63087248322147,NA,NA,NA,53.888888888888886
92115,San Diego County,CA,NA,28.716216216216218,NA,NA,NA
92123,San Diego County,CA,NA,NA,NA,55.947136563876654,NA
92154,San Diego County,CA,NA,30.067567567567565,NA,NA,NA
92225,Riverside County,CA,NA,NA,NA,NA,92.77777777777779
92234,Riverside County,CA,NA,NA,NA,23.788546255506606,NA
92250,Imperial County,CA,NA,NA,90.71925754060325,NA,NA
92253,Riverside County,CA,NA,NA,NA,NA,7.777777777777778
92264,Riverside County,CA,NA,NA,NA,14.096916299559473,NA
92337,San Bernardino County,CA,NA,46.95945945945946,NA,NA,NA
92386,San Bernardino County,CA,NA,NA,99.76798143851508,NA,NA
92411,San Bernardino County,CA,NA,68.58108108108108,NA,NA,NA
92505,Riverside County,CA,NA,51.689189189189186,NA,NA,NA
92563,Riverside County,CA,19.686800894854585,NA,NA,NA,NA
92606,Orange County,CA,NA,NA,81.90255220417633,NA,NA
92620,Orange County,CA,50.11185682326622,NA,NA,NA,NA
92637,Orange County,CA,NA,NA,NA,40.969162995594715,NA
92646,Orange County,CA,NA,NA,60.78886310904872,NA,NA
92648,Orange County,CA,NA,NA,32.48259860788863,NA,NA
92663,Orange County,CA,NA,NA,NA,NA,58.333333333333336
92683,Orange County,CA,NA,NA,NA,25.991189427312776,NA
92694,Orange County,CA,74.72035794183445,NA,NA,NA,NA
92804,Orange County,CA,NA,79.3918918918919,NA,NA,NA
92805,Orange County,CA,NA,17.905405405405407,NA,NA,NA
92840,Orange County,CA,37.8076062639821,NA,NA,NA,NA
92886,Orange County,CA,NA,NA,NA,NA,23.333333333333332
93004,Ventura County,CA,73.8255033557047,NA,NA,NA,NA
93033,Ventura County,CA,NA,NA,16.70533642691415,NA,NA
93035,Ventura County,CA,NA,NA,NA,NA,71.11111111111111
93230,Kings County,CA,NA,9.121621621621621,NA,NA,NA
93274,Tulare County,CA,NA,NA,NA,81.4977973568282,NA
93277,Tulare County,CA,NA,NA,NA,22.026431718061673,NA
93280,Kern County,CA,NA,NA,NA,91.62995594713657,NA
93291,Tulare County,CA,7.829977628635347,NA,NA,NA,NA
93304,Kern County,CA,16.10738255033557,NA,NA,NA,NA
93308,Kern County,CA,NA,NA,32.25058004640371,NA,NA
93309,Kern County,CA,NA,NA,36.42691415313225,NA,NA
93314,Kern County,CA,80.53691275167785,NA,NA,NA,NA
93422,San Luis Obispo County,CA,59.95525727069351,NA,NA,NA,NA
93436,Santa Barbara County,CA,NA,29.39189189189189,NA,18.502202643171806,NA
93444,San Luis Obispo County,CA,NA,36.486486486486484,NA,NA,NA
93446,San Luis Obispo County,CA,NA,8.445945945945946,NA,NA,NA
93455,Santa Barbara County,CA,NA,NA,36.89095127610209,NA,NA
93648,Fresno County,CA,NA,17.22972972972973,NA,NA,NA
93702,Fresno County,CA,9.619686800894854,NA,NA,NA,NA
93711,Fresno County,CA,NA,NA,NA,47.57709251101321,NA
94010,San Mateo County,CA,61.07382550335571,NA,NA,NA,NA
94103,San Francisco County,CA,NA,NA,NA,21.58590308370044,NA
94110,San Francisco County,CA,NA,25,NA,NA,NA
94112,San Francisco County,CA,NA,NA,NA,NA,0.5555555555555556
94117,San Francisco County,CA,NA,96.62162162162163,NA,NA,NA
94118,San Francisco County,CA,48.99328859060403,NA,NA,NA,NA
94122,San Francisco County,CA,64.87695749440716,NA,NA,NA,NA
94127,San Francisco County,CA,93.51230425055928,NA,NA,NA,NA
94401,San Mateo County,CA,NA,NA,92.34338747099768,NA,NA
94403,San Mateo County,CA,NA,NA,54.060324825986086,NA,NA
94501,Alameda County,CA,NA,NA,42.22737819025522,56.38766519823789,NA
94507,Contra Costa County,CA,87.91946308724832,NA,NA,NA,NA
94509,Contra Costa County,CA,32.88590604026846,NA,NA,NA,NA
94517,Contra Costa County,CA,85.23489932885906,NA,NA,NA,NA
94523,Contra Costa County,CA,NA,NA,69.60556844547564,NA,NA
94541,Alameda County,CA,67.11409395973155,NA,NA,NA,NA
94545,Alameda County,CA,67.56152125279642,NA,NA,NA,NA
94549,Contra Costa County,CA,54.58612975391499,NA,NA,NA,NA
94560,Alameda County,CA,NA,NA,NA,NA,40
94577,Alameda County,CA,NA,59.797297297297305,NA,NA,NA
94590,Solano County,CA,NA,NA,NA,34.801762114537446,NA
94595,Contra Costa County,CA,NA,NA,NA,NA,6.111111111111111
94609,Alameda County,CA,87.47203579418344,NA,NA,NA,NA
94610,Alameda County,CA,NA,NA,NA,NA,37.77777777777778
94619,Alameda County,CA,NA,NA,NA,70.48458149779736,NA
94621,Alameda County,CA,NA,21.283783783783782,NA,NA,NA
94903,Marin County,CA,81.20805369127517,NA,NA,NA,8.88888888888889
94930,Marin County,CA,NA,NA,97.21577726218096,NA,NA
95037,Santa Clara County,CA,NA,62.83783783783784,NA,NA,NA
95065,Santa Cruz County,CA,NA,NA,NA,97.3568281938326,NA
95132,Santa Clara County,CA,84.11633109619687,NA,NA,NA,NA
95219,San Joaquin County,CA,NA,NA,NA,NA,97.22222222222221
95240,San Joaquin County,CA,NA,13.513513513513514,NA,NA,NA
95320,San Joaquin County,CA,NA,NA,74.70997679814386,NA,NA
95326,Stanislaus County,CA,NA,93.58108108108108,NA,NA,NA
95351,Stanislaus County,CA,NA,NA,NA,49.77973568281938,NA
95370,Tuolumne County,CA,NA,NA,NA,0.881057268722467,NA
95376,San Joaquin County,CA,NA,NA,NA,44.052863436123346,NA
95403,Sonoma County,CA,67.56152125279642,NA,NA,NA,NA
95407,Sonoma County,CA,NA,NA,62.64501160092807,NA,NA
95409,Sonoma County,CA,83.66890380313198,NA,NA,NA,NA
95437,Mendocino County,CA,NA,NA,NA,NA,30.555555555555557
95650,Placer County,CA,91.94630872483222,NA,NA,NA,NA
95660,Sacramento County,CA,NA,NA,74.0139211136891,NA,NA
95661,Placer County,CA,NA,NA,NA,66.96035242290749,NA
95662,Sacramento County,CA,NA,NA,70.06960556844548,NA,NA
95746,Placer County,CA,95.9731543624161,NA,NA,NA,NA
95926,Butte County,CA,NA,NA,NA,NA,35
95946,Nevada County,CA,NA,NA,90.48723897911833,NA,NA
95949,Nevada County,CA,NA,NA,NA,NA,45.55555555555556
95954,Butte County,CA,NA,NA,85.1508120649652,NA,NA
95961,Yuba County,CA,NA,NA,47.56380510440835,NA,NA
95973,Butte County,CA,NA,NA,NA,30.837004405286343,NA
96093,Trinity County,CA,NA,NA,NA,95.15418502202643,NA
96094,Siskiyou County,CA,NA,NA,NA,77.5330396475771,NA
80011,Arapahoe County,CO,NA,NA,11.36890951276102,NA,NA
80021,Jefferson County,CO,32.662192393736014,NA,NA,NA,NA
80022,Adams County,CO,NA,NA,22.505800464037122,NA,NA
80027,Boulder County,CO,NA,NA,64.2691415313225,NA,NA
80102,Adams County,CO,NA,NA,95.35962877030161,NA,NA
80107,Elbert County,CO,NA,NA,89.32714617169374,NA,NA
80113,Arapahoe County,CO,36.91275167785235,NA,NA,NA,NA
80122,Arapahoe County,CO,NA,NA,81.4385150812065,NA,NA
80126,Douglas County,CO,NA,NA,54.292343387471,NA,NA
80203,Denver County,CO,NA,NA,72.62180974477958,NA,NA
80204,Denver County,CO,NA,NA,26.68213457076566,NA,NA
80207,Denver County,CO,NA,NA,45.243619489559165,NA,NA
80215,Jefferson County,CO,NA,70.6081081081081,NA,NA,NA
80216,Denver County,CO,NA,44.5945945945946,NA,NA,NA
80223,Denver County,CO,NA,NA,66.35730858468676,NA,NA
80226,Jefferson County,CO,24.832214765100673,NA,NA,NA,NA
80231,Denver County,CO,NA,NA,42.459396751740144,NA,56.666666666666664
80233,Adams County,CO,14.76510067114094,NA,NA,NA,NA
80239,Denver County,CO,NA,22.635135135135133,NA,NA,NA
80249,Denver County,CO,NA,40.87837837837838,NA,NA,NA
80401,Jefferson County,CO,NA,78.04054054054053,NA,NA,NA
80528,Larimer County,CO,30.87248322147651,NA,NA,NA,NA
80538,Larimer County,CO,NA,NA,17.16937354988399,NA,NA
80550,Weld County,CO,54.138702460850105,NA,NA,NA,NA
80601,Adams County,CO,19.23937360178971,NA,38.05104408352668,NA,NA
80701,Morgan County,CO,NA,NA,NA,56.82819383259912,NA
81001,Pueblo County,CO,NA,NA,26.450116009280745,NA,NA
81006,Pueblo County,CO,NA,NA,74.47795823665894,NA,NA
81147,Archuleta County,CO,95.52572706935123,NA,NA,NA,NA
81301,La Plata County,CO,NA,NA,56.8445475638051,NA,NA
81625,Moffat County,CO,NA,NA,43.1554524361949,NA,90.55555555555556
06043,Tolland County,CT,98.2102908277405,NA,NA,NA,NA
06060,Hartford County,CT,98.65771812080537,NA,NA,NA,NA
06098,Litchfield County,CT,NA,NA,NA,NA,38.88888888888889
06108,Hartford County,CT,NA,NA,34.106728538283065,NA,NA
06234,Windham County,CT,70.46979865771812,NA,NA,NA,NA
06238,Tolland County,CT,72.48322147651007,NA,NA,NA,NA
06423,Middlesex County,CT,NA,NA,NA,97.79735682819384,NA
06451,New Haven County,CT,NA,18.91891891891892,NA,NA,NA
06516,New Haven County,CT,NA,NA,NA,NA,8.333333333333332
06811,Fairfield County,CT,NA,NA,NA,NA,12.222222222222221
06830,Fairfield County,CT,47.427293064876956,NA,NA,NA,NA
06840,Fairfield County,CT,NA,NA,78.42227378190255,NA,NA
06851,Fairfield County,CT,NA,NA,NA,62.11453744493392,NA
06855,Fairfield County,CT,NA,NA,NA,NA,95
19703,New Castle County,DE,77.40492170022371,NA,NA,NA,NA
19707,New Castle County,DE,NA,NA,86.77494199535964,NA,NA
19720,New Castle County,DE,6.935123042505594,NA,3.7122969837587005,NA,NA
19904,Kent County,DE,NA,64.86486486486487,NA,NA,NA
19943,Kent County,DE,NA,NA,69.37354988399072,NA,NA
19950,Sussex County,DE,NA,NA,NA,NA,100
19958,Sussex County,DE,NA,79.72972972972973,NA,NA,NA
19963,Sussex County,DE,NA,NA,39.21113689095127,NA,NA
19968,Sussex County,DE,NA,73.3108108108108,NA,NA,NA
19977,Kent County,DE,NA,NA,28.306264501160094,NA,NA
32034,Nassau County,FL,75.39149888143176,NA,NA,NA,NA
32043,Clay County,FL,21.92393736017897,NA,NA,NA,NA
32068,Clay County,FL,NA,28.716216216216218,NA,NA,NA
32086,St. Johns County,FL,NA,NA,NA,NA,11.11111111111111
32159,Lake County,FL,NA,NA,NA,NA,2.7777777777777777
32180,Volusia County,FL,97.0917225950783,NA,NA,NA,NA
32223,Duval County,FL,NA,NA,NA,42.731277533039645,NA
32246,Duval County,FL,NA,NA,21.11368909512761,NA,NA
32259,St. Johns County,FL,NA,29.72972972972973,NA,NA,NA
32413,Bay County,FL,92.84116331096197,NA,NA,NA,NA
32431,Jackson County,FL,NA,NA,87.47099767981439,NA,86.66666666666667
32459,Walton County,FL,58.16554809843401,NA,NA,NA,NA
32507,Escambia County,FL,NA,21.95945945945946,NA,NA,NA
32526,Escambia County,FL,40.26845637583892,NA,NA,NA,NA
32583,Santa Rosa County,FL,NA,NA,NA,29.955947136563875,NA
32608,Alachua County,FL,NA,NA,10.904872389791183,NA,NA
32703,Orange County,FL,NA,24.66216216216216,NA,NA,NA
32773,Seminole County,FL,NA,NA,94.19953596287704,NA,NA
32778,Lake County,FL,NA,NA,NA,NA,28.888888888888886
32822,Orange County,FL,NA,NA,NA,32.158590308370044,NA
32909,Brevard County,FL,NA,55.4054054054054,NA,NA,NA
32926,Brevard County,FL,NA,NA,NA,NA,15.555555555555555
32935,Brevard County,FL,45.86129753914989,NA,NA,NA,NA
33012,Miami-Dade County,FL,NA,NA,NA,NA,1.1111111111111112
33014,Miami-Dade County,FL,NA,40.87837837837838,NA,NA,NA
33021,Broward County,FL,NA,63.85135135135135,NA,NA,NA
33027,Broward County,FL,NA,NA,NA,48.458149779735685,NA
33034,Miami-Dade County,FL,NA,36.14864864864865,NA,NA,NA
33065,Broward County,FL,23.2662192393736,NA,NA,NA,NA
33071,Broward County,FL,NA,NA,NA,72.24669603524228,NA
33134,Miami-Dade County,FL,NA,NA,76.5661252900232,NA,NA
33135,Miami-Dade County,FL,69.12751677852349,NA,NA,NA,NA
33139,Miami-Dade County,FL,NA,81.75675675675676,NA,NA,NA
33161,Miami-Dade County,FL,NA,60.13513513513513,NA,NA,NA
33162,Miami-Dade County,FL,NA,44.25675675675676,NA,NA,NA
33165,Miami-Dade County,FL,NA,25.33783783783784,61.48491879350348,NA,NA
33167,Miami-Dade County,FL,NA,40.87837837837838,NA,NA,NA
33190,Miami-Dade County,FL,NA,52.02702702702703,NA,NA,NA
33330,Broward County,FL,74.27293064876957,NA,NA,NA,NA
33413,Palm Beach County,FL,NA,NA,84.45475638051045,NA,NA
33463,Palm Beach County,FL,NA,NA,51.27610208816705,NA,NA
33511,Hillsborough County,FL,NA,NA,NA,NA,50
33578,Hillsborough County,FL,NA,36.486486486486484,NA,NA,NA
33592,Hillsborough County,FL,NA,67.9054054054054,NA,NA,NA
33598,Hillsborough County,FL,NA,NA,NA,NA,76.11111111111111
33610,Hillsborough County,FL,NA,14.18918918918919,NA,NA,NA
33612,Hillsborough County,FL,10.738255033557047,NA,NA,NA,NA
33618,Hillsborough County,FL,NA,60.47297297297297,NA,59.91189427312775,NA
33713,Pinellas County,FL,NA,NA,NA,93.3920704845815,NA
33767,Pinellas County,FL,NA,NA,NA,NA,75.55555555555556
33770,Pinellas County,FL,NA,NA,NA,67.84140969162996,NA
33777,Pinellas County,FL,NA,78.04054054054053,NA,NA,NA
33815,Polk County,FL,NA,NA,43.851508120649655,NA,NA
33875,Highlands County,FL,NA,NA,NA,NA,42.77777777777778
33880,Polk County,FL,NA,25.675675675675674,NA,NA,NA
33928,Lee County,FL,NA,97.2972972972973,NA,NA,NA
33954,Charlotte County,FL,79.86577181208054,NA,NA,NA,NA
33980,Charlotte County,FL,95.30201342281879,NA,NA,NA,NA
34108,Collier County,FL,NA,NA,NA,NA,30
34209,Manatee County,FL,NA,NA,NA,28.193832599118945,NA
34231,Sarasota County,FL,NA,84.7972972972973,NA,21.145374449339208,NA
34234,Sarasota County,FL,NA,40.87837837837838,NA,NA,NA
34243,Manatee County,FL,NA,NA,NA,NA,4.444444444444445
34432,Marion County,FL,NA,NA,89.79118329466357,NA,NA
34471,Marion County,FL,NA,NA,54.75638051044084,NA,NA
34473,Marion County,FL,NA,NA,NA,NA,83.88888888888889
34482,Marion County,FL,NA,45.608108108108105,NA,NA,NA
34613,Hernando County,FL,NA,73.98648648648648,NA,NA,NA
34639,Pasco County,FL,NA,NA,NA,68.28193832599119,NA
34653,Pasco County,FL,67.33780760626398,NA,NA,NA,NA
34654,Pasco County,FL,NA,66.8918918918919,NA,NA,NA
34655,Pasco County,FL,NA,NA,NA,32.59911894273127,NA
34667,Pasco County,FL,NA,NA,46.635730858468676,NA,NA
34690,Pasco County,FL,NA,NA,74.24593967517401,NA,NA
34698,Pinellas County,FL,NA,90.87837837837837,NA,NA,NA
34786,Orange County,FL,55.48098434004475,NA,NA,NA,NA
34788,Lake County,FL,NA,NA,NA,38.32599118942731,NA
34946,St. Lucie County,FL,NA,NA,80.97447795823666,NA,NA
34983,St. Lucie County,FL,NA,12.162162162162163,NA,NA,NA
34984,St. Lucie County,FL,NA,NA,NA,NA,76.66666666666667
30008,Cobb County,GA,NA,54.054054054054056,NA,NA,NA
30016,Newton County,GA,13.19910514541387,NA,NA,NA,NA
30019,Gwinnett County,GA,NA,80.06756756756756,NA,NA,NA
30021,DeKalb County,GA,78.74720357941834,NA,NA,NA,NA
30024,Gwinnett County,GA,NA,NA,NA,NA,36.666666666666664
30035,DeKalb County,GA,NA,NA,60.092807424593964,NA,NA
30043,Gwinnett County,GA,NA,51.01351351351351,NA,NA,NA
30046,Gwinnett County,GA,NA,NA,NA,NA,41.66666666666667
30066,Cobb County,GA,31.543624161073826,NA,NA,NA,NA
30087,DeKalb County,GA,55.033557046979865,NA,NA,NA,NA
30094,Rockdale County,GA,37.360178970917225,NA,NA,NA,NA
30097,Fulton County,GA,NA,NA,NA,66.51982378854625,NA
30122,Douglas County,GA,NA,NA,58.0046403712297,NA,NA
30126,Cobb County,GA,41.387024608501115,NA,NA,NA,NA
30204,Lamar County,GA,58.61297539149888,NA,NA,NA,NA
30223,Spalding County,GA,NA,NA,NA,46.25550660792951,NA
30318,Fulton County,GA,21.92393736017897,NA,NA,NA,NA
30340,DeKalb County,GA,NA,59.45945945945946,NA,NA,NA
30513,Fannin County,GA,NA,NA,NA,NA,70
30546,Towns County,GA,NA,NA,87.70301624129931,NA,NA
30606,Clarke County,GA,NA,NA,NA,36.12334801762114,NA
30662,Franklin County,GA,80.31319910514542,NA,NA,NA,NA
30736,Catoosa County,GA,15.883668903803134,NA,NA,NA,NA
30739,Walker County,GA,92.61744966442953,NA,NA,NA,NA
31024,Putnam County,GA,91.49888143176734,NA,NA,NA,NA
31088,Houston County,GA,NA,NA,NA,NA,13.88888888888889
31206,Bibb County,GA,NA,NA,NA,62.99559471365639,NA
31210,Bibb County,GA,NA,NA,64.96519721577727,NA,NA
31406,Chatham County,GA,NA,NA,54.988399071925755,NA,NA
31602,Lowndes County,GA,NA,NA,71.6937354988399,NA,NA
31792,Thomas County,GA,56.82326621923938,NA,NA,NA,NA
39837,Miller County,GA,68.68008948545862,NA,NA,NA,NA
96703,Kauai County,HI,NA,98.64864864864865,NA,NA,NA
96706,Honolulu County,HI,9.843400447427292,NA,NA,NA,NA
96752,Kauai County,HI,NA,NA,99.53596287703016,NA,NA
96782,Honolulu County,HI,53.46756152125279,NA,NA,NA,NA
96789,Honolulu County,HI,52.79642058165548,NA,26.91415313225058,NA,NA
96797,Honolulu County,HI,12.304250559284116,NA,NA,4.845814977973569,NA
96822,Honolulu County,HI,NA,NA,43.38747099767982,NA,NA
96826,Honolulu County,HI,NA,NA,NA,NA,34.44444444444444
83221,Bingham County,ID,NA,NA,NA,NA,45
83316,Twin Falls County,ID,82.99776286353467,NA,NA,NA,NA
83401,Bonneville County,ID,NA,NA,19.953596287703014,NA,NA
83605,Canyon County,ID,NA,13.85135135135135,NA,NA,NA
83617,Gem County,ID,65.32438478747203,NA,NA,NA,NA
83619,Payette County,ID,96.42058165548099,NA,NA,NA,NA
83644,Canyon County,ID,NA,89.52702702702703,NA,NA,NA
83687,Canyon County,ID,NA,NA,27.37819025522042,NA,NA
83702,Ada County,ID,NA,76.35135135135135,NA,NA,NA
83714,Ada County,ID,NA,NA,48.72389791183295,NA,NA
83861,Benewah County,ID,91.05145413870245,NA,NA,NA,NA
60010,Lake County,IL,63.982102908277405,NA,NA,15.859030837004406,NA
60015,Lake County,IL,50.11185682326622,NA,NA,NA,NA
60041,Lake County,IL,90.38031319910515,NA,NA,NA,NA
60045,Lake County,IL,60.40268456375839,NA,82.13457076566125,NA,NA
60047,Lake County,IL,34.45190156599553,NA,NA,NA,NA
60048,Lake County,IL,NA,NA,NA,33.92070484581498,NA
60076,Cook County,IL,NA,NA,47.33178654292343,NA,NA
60087,Lake County,IL,NA,NA,NA,NA,60.55555555555555
60102,McHenry County,IL,27.96420581655481,NA,NA,NA,NA
60107,Cook County,IL,36.46532438478747,NA,NA,NA,60
60143,DuPage County,IL,NA,NA,NA,81.93832599118943,NA
60148,DuPage County,IL,14.988814317673377,NA,NA,NA,NA
60169,Cook County,IL,NA,NA,NA,64.31718061674009,NA
60184,DuPage County,IL,NA,NA,98.60788863109049,NA,NA
60187,DuPage County,IL,NA,NA,41.76334106728538,NA,NA
60403,Will County,IL,NA,NA,NA,NA,48.333333333333336
60423,Will County,IL,NA,NA,NA,29.515418502202646,NA
60442,Will County,IL,68.0089485458613,NA,NA,NA,NA
60446,Will County,IL,NA,NA,48.49187935034803,NA,NA
60463,Cook County,IL,NA,NA,75.4060324825986,NA,NA
60481,Will County,IL,49.664429530201346,NA,NA,NA,NA
60491,Will County,IL,31.991051454138702,NA,NA,NA,NA
60540,DuPage County,IL,NA,NA,NA,37.88546255506608,NA
60607,Cook County,IL,NA,NA,51.508120649651964,NA,NA
60609,Cook County,IL,NA,NA,15.081206496519723,NA,NA
60611,Cook County,IL,NA,NA,58.23665893271461,NA,NA
60614,Cook County,IL,38.47874720357942,NA,NA,NA,NA
60619,Cook County,IL,NA,NA,NA,2.2026431718061676,NA
60621,Cook County,IL,26.62192393736018,NA,NA,NA,NA
60626,Cook County,IL,NA,NA,NA,6.607929515418502,NA
60628,Cook County,IL,NA,NA,10.208816705336426,NA,NA
60638,Cook County,IL,12.751677852348994,NA,NA,NA,NA
60641,Cook County,IL,NA,NA,NA,NA,21.11111111111111
60645,Cook County,IL,NA,NA,40.60324825986079,NA,NA
60652,Cook County,IL,NA,NA,NA,NA,47.77777777777778
60714,Cook County,IL,NA,NA,NA,50.66079295154186,NA
60804,Cook County,IL,29.977628635346754,NA,NA,NA,NA
60901,Kankakee County,IL,19.015659955257274,NA,NA,NA,NA
61072,Winnebago County,IL,NA,NA,77.9582366589327,NA,NA
61080,Winnebago County,IL,74.72035794183445,NA,NA,NA,NA
61525,Peoria County,IL,NA,NA,NA,95.59471365638767,NA
61571,Tazewell County,IL,NA,NA,NA,63.436123348017624,NA
61821,Champaign County,IL,NA,NA,NA,NA,9.444444444444445
61856,Piatt County,IL,NA,NA,NA,87.22466960352423,NA
61920,Coles County,IL,NA,NA,NA,NA,73.33333333333333
61938,Coles County,IL,41.163310961968676,NA,NA,NA,NA
62025,Madison County,IL,NA,NA,NA,52.863436123348016,NA
62095,Madison County,IL,NA,NA,NA,85.90308370044053,NA
62207,St. Clair County,IL,NA,NA,94.89559164733178,NA,NA
62521,Macon County,IL,8.501118568232663,NA,NA,NA,NA
62901,Jackson County,IL,NA,NA,68.21345707656613,NA,NA
62948,Williamson County,IL,NA,NA,70.30162412993039,NA,NA
46012,Madison County,IN,NA,NA,NA,26.87224669603524,NA
46033,Hamilton County,IN,NA,NA,NA,39.647577092511014,NA
46052,Boone County,IN,NA,NA,NA,NA,43.888888888888886
46226,Marion County,IN,NA,23.31081081081081,NA,NA,NA
46307,Lake County,IN,NA,NA,1.8561484918793503,NA,NA
46310,Jasper County,IN,54.80984340044742,NA,NA,NA,NA
46321,Lake County,IN,24.60850111856823,NA,NA,NA,NA
46341,Porter County,IN,NA,NA,NA,74.00881057268722,NA
46373,Lake County,IN,NA,NA,NA,46.69603524229075,NA
46383,Porter County,IN,1.5659955257270695,NA,NA,NA,NA
46534,Starke County,IN,NA,NA,NA,NA,70.55555555555556
46563,Marshall County,IN,NA,35.810810810810814,NA,NA,16.11111111111111
46619,St. Joseph County,IN,NA,NA,55.91647331786543,77.09251101321586,NA
46635,St. Joseph County,IN,93.95973154362416,NA,NA,NA,NA
46706,DeKalb County,IN,NA,NA,NA,57.268722466960355,NA
46714,Wells County,IN,NA,NA,60.32482598607889,NA,NA
46725,Whitley County,IN,NA,NA,35.03480278422274,NA,NA
46774,Allen County,IN,NA,NA,62.87703016241299,NA,NA
46807,Allen County,IN,NA,74.32432432432432,NA,NA,NA
46835,Allen County,IN,36.91275167785235,NA,NA,NA,NA
46845,Allen County,IN,NA,NA,60.556844547563806,NA,NA
46901,Howard County,IN,NA,NA,2.320185614849188,NA,NA
46923,Carroll County,IN,NA,95.27027027027027,NA,NA,NA
46970,Miami County,IN,20.13422818791946,NA,NA,NA,NA
47240,Decatur County,IN,NA,NA,NA,NA,26.666666666666668
47348,Blackford County,IN,NA,NA,NA,NA,50
47429,Monroe County,IN,NA,NA,96.51972157772622,NA,NA
47710,Vanderburgh County,IN,NA,NA,39.675174013921115,NA,NA
47713,Vanderburgh County,IN,NA,60.47297297297297,NA,NA,NA
47714,Vanderburgh County,IN,NA,NA,NA,22.90748898678414,NA
47987,Fountain County,IN,NA,NA,97.91183294663574,NA,NA
50310,Polk County,IA,NA,26.68918918918919,NA,NA,NA
50401,Cerro Gordo County,IA,NA,NA,NA,10.13215859030837,NA
50622,Bremer County,IA,99.32885906040269,NA,NA,NA,NA
50662,Fayette County,IA,65.32438478747203,NA,NA,NA,NA
50702,Black Hawk County,IA,62.639821029082775,NA,44.779582366589324,NA,NA
50703,Black Hawk County,IA,NA,NA,NA,40.52863436123348,NA
50801,Union County,IA,52.348993288590606,NA,NA,NA,NA
51301,Clay County,IA,NA,68.58108108108108,NA,NA,NA
52001,Dubuque County,IA,NA,42.9054054054054,NA,NA,NA
52240,Johnson County,IA,NA,NA,26.218097447795824,NA,NA
52577,Mahaska County,IA,NA,NA,NA,NA,19.444444444444446
52722,Scott County,IA,11.409395973154362,NA,NA,NA,22.22222222222222
52804,Scott County,IA,NA,NA,22.041763341067284,NA,NA
66012,Wyandotte County,KS,94.40715883668904,NA,NA,NA,NA
66030,Johnson County,KS,36.68903803131991,NA,NA,NA,NA
66048,Leavenworth County,KS,NA,NA,37.12296983758701,NA,NA
66062,Johnson County,KS,10.51454138702461,NA,41.29930394431555,NA,NA
66202,Johnson County,KS,80.98434004474274,NA,NA,NA,NA
66204,Johnson County,KS,NA,NA,NA,NA,62.77777777777778
66224,Johnson County,KS,81.65548098434004,NA,NA,NA,NA
66606,Shawnee County,KS,76.28635346756153,NA,NA,NA,NA
67203,Sedgwick County,KS,83.22147651006712,NA,NA,NA,NA
67301,Montgomery County,KS,NA,NA,NA,NA,71.66666666666667
67544,Barton County,KS,95.74944071588367,NA,NA,NA,NA
67550,Pawnee County,KS,73.15436241610739,NA,NA,NA,NA
67846,Finney County,KS,NA,NA,27.610208816705335,NA,NA
40059,Jefferson County,KY,92.39373601789708,NA,NA,NA,NA
40165,Bullitt County,KY,NA,NA,19.25754060324826,NA,NA
40203,Jefferson County,KY,NA,33.44594594594595,NA,NA,NA
40214,Jefferson County,KY,NA,NA,9.976798143851507,NA,NA
40222,Jefferson County,KY,NA,NA,78.19025522041764,NA,NA
40242,Jefferson County,KY,86.35346756152126,NA,NA,NA,NA
40258,Jefferson County,KY,NA,NA,NA,49.33920704845815,NA
40359,Owen County,KY,NA,NA,83.29466357308584,NA,NA
40505,Fayette County,KY,NA,NA,28.770301624129928,NA,NA
40509,Fayette County,KY,NA,NA,37.81902552204176,NA,NA
40741,Laurel County,KY,NA,NA,27.842227378190255,NA,NA
40744,Laurel County,KY,NA,23.986486486486484,NA,NA,NA
40769,Whitley County,KY,NA,NA,38.2830626450116,NA,NA
41014,Kenton County,KY,NA,NA,80.51044083526682,NA,NA
41017,Kenton County,KY,26.174496644295303,NA,NA,NA,NA
41042,Boone County,KY,NA,NA,8.120649651972158,NA,NA
41051,Kenton County,KY,NA,56.75675675675676,NA,NA,NA
41071,Campbell County,KY,NA,NA,NA,NA,57.22222222222222
41101,Boyd County,KY,3.803131991051454,NA,NA,NA,NA
41230,Lawrence County,KY,NA,86.82432432432432,NA,NA,NA
41701,Perry County,KY,79.41834451901566,NA,NA,NA,NA
41858,Letcher County,KY,NA,NA,NA,91.18942731277532,NA
42029,Marshall County,KY,NA,NA,75.63805104408353,NA,NA
42101,Warren County,KY,NA,NA,9.744779582366588,NA,NA
42330,Muhlenberg County,KY,NA,NA,72.38979118329466,NA,NA
70072,Jefferson Parish,LA,NA,NA,NA,0.4405286343612335,NA
70114,Orleans Parish,LA,NA,NA,14.617169373549885,NA,NA
70121,Jefferson Parish,LA,NA,NA,NA,90.7488986784141,NA
70123,Jefferson Parish,LA,NA,NA,24.593967517401392,NA,NA
70354,Lafourche Parish,LA,82.10290827740492,NA,NA,NA,NA
70360,Terrebonne Parish,LA,NA,NA,16.009280742459396,NA,NA
70377,Terrebonne Parish,LA,83.22147651006712,NA,NA,NA,NA
70461,St. Tammany Parish,LA,NA,NA,NA,67.40088105726872,NA
70471,St. Tammany Parish,LA,48.54586129753915,NA,NA,NA,NA
70517,St. Martin Parish,LA,NA,13.175675675675674,NA,NA,NA
70647,Calcasieu Parish,LA,NA,34.12162162162162,NA,NA,NA
70665,Calcasieu Parish,LA,NA,39.189189189189186,NA,NA,NA
70722,East Feliciana Parish,LA,NA,NA,77.49419953596288,NA,NA
70726,Livingston Parish,LA,0.44742729306487694,NA,NA,NA,NA
70769,Ascension Parish,LA,NA,NA,13.68909512761021,NA,NA
70810,East Baton Rouge Parish,LA,NA,NA,12.064965197215777,NA,NA
71103,Caddo Parish,LA,NA,71.28378378378379,NA,NA,NA
71108,Caddo Parish,LA,NA,3.040540540540541,NA,NA,NA
71111,Bossier Parish,LA,NA,3.7162162162162162,NA,NA,NA
71433,Rapides Parish,LA,68.45637583892618,NA,NA,NA,NA
03903,York County,ME,NA,NA,83.9907192575406,NA,NA
03904,York County,ME,NA,NA,77.03016241299304,NA,NA
04005,York County,ME,NA,32.432432432432435,NA,NA,NA
04062,Cumberland County,ME,NA,NA,NA,NA,72.22222222222221
04073,York County,ME,NA,NA,NA,41.409691629955944,NA
04092,Cumberland County,ME,NA,NA,73.54988399071925,NA,NA
04106,Cumberland County,ME,58.61297539149888,NA,NA,NA,NA
04281,Oxford County,ME,NA,NA,NA,75.33039647577093,NA
04901,Kennebec County,ME,NA,NA,7.192575406032482,NA,NA
04963,Kennebec County,ME,NA,NA,65.19721577726219,NA,NA
20636,St. Mary's County,MD,95.07829977628636,NA,NA,NA,NA
20772,Prince George's County,MD,NA,NA,50.580046403712295,NA,NA
20816,Montgomery County,MD,76.0626398210291,NA,NA,NA,NA
20910,Montgomery County,MD,NA,NA,NA,85.02202643171806,NA
21015,Harford County,MD,NA,98.3108108108108,NA,NA,NA
21114,Anne Arundel County,MD,69.57494407158836,NA,NA,NA,NA
21208,Baltimore County,MD,43.40044742729307,NA,64.50116009280742,NA,NA
21236,Baltimore County,MD,NA,NA,NA,51.98237885462555,NA
21239,Baltimore city,MD,18.344519015659955,NA,NA,NA,NA
01001,Hampden County,MA,NA,NA,31.554524361948953,NA,NA
01060,Hampshire County,MA,NA,NA,NA,NA,66.66666666666666
01247,Berkshire County,MA,NA,NA,NA,9.691629955947137,NA
01462,Worcester County,MA,57.04697986577181,NA,NA,NA,NA
01475,Worcester County,MA,97.53914988814317,NA,NA,NA,NA
01510,Worcester County,MA,NA,NA,25.05800464037123,NA,NA
01545,Worcester County,MA,10.738255033557047,NA,22.96983758700696,NA,NA
01564,Worcester County,MA,89.03803131991052,NA,NA,NA,NA
01603,Worcester County,MA,4.47427293064877,NA,NA,NA,NA
01778,Middlesex County,MA,39.37360178970917,NA,NA,NA,NA
01830,Essex County,MA,NA,NA,1.6241299303944314,NA,NA
01845,Essex County,MA,NA,50.67567567567568,NA,NA,NA
01879,Middlesex County,MA,NA,NA,32.71461716937355,NA,NA
01890,Middlesex County,MA,25.05592841163311,NA,46.17169373549884,NA,NA
01913,Essex County,MA,36.017897091722595,NA,NA,NA,NA
01915,Essex County,MA,NA,NA,17.633410672853827,NA,NA
01970,Essex County,MA,NA,NA,1.160092807424594,NA,NA
02072,Norfolk County,MA,NA,NA,13.225058004640372,NA,NA
02121,Suffolk County,MA,NA,4.72972972972973,NA,NA,NA
02124,Suffolk County,MA,NA,NA,0,NA,NA
02128,Suffolk County,MA,1.342281879194631,NA,NA,NA,NA
02136,Suffolk County,MA,NA,1.0135135135135136,NA,NA,NA
02169,Norfolk County,MA,NA,NA,NA,3.9647577092511015,NA
02176,Middlesex County,MA,33.1096196868009,NA,NA,NA,NA
02360,Plymouth County,MA,NA,NA,23.201856148491878,NA,NA
02370,Plymouth County,MA,NA,57.770270270270274,NA,NA,NA
02466,Middlesex County,MA,NA,NA,NA,NA,61.111111111111114
02474,Middlesex County,MA,37.8076062639821,NA,NA,NA,NA
02492,Norfolk County,MA,37.360178970917225,NA,NA,NA,NA
02721,Bristol County,MA,NA,NA,0.46403712296983757,NA,NA
02740,Bristol County,MA,NA,NA,NA,84.58149779735683,NA
02745,Bristol County,MA,NA,NA,3.0162412993039442,NA,NA
02790,Bristol County,MA,NA,NA,25.986078886310903,NA,NA
48045,Macomb County,MI,NA,NA,29.00232018561485,NA,NA
48047,Macomb County,MI,NA,62.5,18.793503480278424,NA,NA
48066,Macomb County,MI,NA,NA,NA,NA,5
48088,Macomb County,MI,NA,NA,47.09976798143852,31.277533039647576,NA
48092,Macomb County,MI,NA,40.87837837837838,NA,NA,NA
48098,Oakland County,MI,57.94183445190156,NA,NA,NA,NA
48103,Washtenaw County,MI,NA,51.35135135135135,NA,NA,NA
48111,Wayne County,MI,NA,NA,NA,4.405286343612335,NA
48126,Wayne County,MI,NA,16.554054054054053,14.385150812064964,NA,NA
48150,Wayne County,MI,NA,NA,NA,NA,47.22222222222222
48166,Monroe County,MI,69.12751677852349,NA,NA,NA,NA
48174,Wayne County,MI,NA,NA,51.74013921113689,NA,NA
48176,Washtenaw County,MI,26.62192393736018,NA,NA,NA,NA
48178,Oakland County,MI,11.185682326621924,NA,NA,NA,31.11111111111111
48185,Wayne County,MI,NA,NA,NA,5.286343612334802,NA
48202,Wayne County,MI,NA,NA,34.5707656612529,NA,NA
48205,Wayne County,MI,NA,NA,42.92343387470998,NA,NA
48209,Wayne County,MI,21.02908277404922,NA,NA,NA,NA
48210,Wayne County,MI,NA,20.60810810810811,30.39443155452436,NA,NA
48224,Wayne County,MI,NA,10.81081081081081,3.248259860788863,NA,NA
48227,Wayne County,MI,NA,NA,4.176334106728538,NA,NA
48234,Wayne County,MI,4.026845637583892,NA,NA,NA,NA
48237,Oakland County,MI,NA,NA,NA,24.229074889867842,NA
48239,Wayne County,MI,6.263982102908278,NA,NA,NA,NA
48310,Macomb County,MI,NA,NA,NA,NA,17.77777777777778
48317,Macomb County,MI,35.34675615212528,NA,NA,NA,NA
48348,Oakland County,MI,NA,NA,40.37122969837587,NA,NA
48374,Oakland County,MI,71.36465324384787,NA,NA,NA,NA
48377,Oakland County,MI,NA,87.83783783783784,NA,NA,NA
48382,Oakland County,MI,NA,NA,NA,NA,63.33333333333333
48413,Huron County,MI,NA,NA,52.204176334106734,NA,NA
48421,Lapeer County,MI,NA,NA,NA,88.98678414096916,NA
48430,Genesee County,MI,NA,77.36486486486487,NA,NA,NA
48442,Oakland County,MI,NA,NA,49.88399071925754,NA,NA
48444,Lapeer County,MI,NA,NA,NA,NA,85
48446,Lapeer County,MI,NA,NA,19.721577726218097,NA,NA
48504,Genesee County,MI,NA,11.824324324324325,NA,NA,NA
48505,Genesee County,MI,28.635346756152124,NA,NA,NA,NA
48602,Saginaw County,MI,NA,NA,5.336426914153132,NA,NA
48603,Saginaw County,MI,NA,NA,16.937354988399072,NA,NA
48604,Saginaw County,MI,72.48322147651007,NA,NA,NA,73.88888888888889
48623,Saginaw County,MI,59.95525727069351,NA,NA,NA,NA
48637,Saginaw County,MI,NA,NA,95.82366589327145,NA,NA
48638,Saginaw County,MI,NA,NA,NA,NA,84.44444444444444
48642,Midland County,MI,25.503355704697988,NA,NA,NA,NA
48650,Bay County,MI,NA,77.36486486486487,NA,NA,NA
48746,Tuscola County,MI,NA,NA,80.04640371229699,NA,NA
48809,Ionia County,MI,NA,NA,NA,NA,81.11111111111111
48813,Eaton County,MI,40.7158836689038,NA,NA,NA,NA
48854,Ingham County,MI,NA,NA,51.972157772621806,NA,NA
48858,Isabella County,MI,NA,NA,8.816705336426914,NA,NA
48883,Isabella County,MI,NA,NA,NA,75.77092511013215,NA
49009,Kalamazoo County,MI,22.818791946308725,NA,NA,NA,NA
49015,Calhoun County,MI,NA,NA,22.2737819025522,NA,NA
49022,Berrien County,MI,NA,NA,NA,NA,15
49048,Kalamazoo County,MI,NA,NA,23.897911832946637,NA,NA
49079,Van Buren County,MI,NA,NA,72.15777262180974,NA,NA
49120,Berrien County,MI,NA,28.040540540540544,NA,17.62114537444934,NA
49203,Jackson County,MI,NA,NA,11.1368909512761,NA,NA
49221,Lenawee County,MI,NA,NA,5.800464037122969,NA,NA
49224,Calhoun County,MI,51.90156599552572,NA,NA,NA,NA
49242,Hillsdale County,MI,73.8255033557047,NA,NA,NA,NA
49286,Lenawee County,MI,35.34675615212528,NA,NA,NA,NA
49404,Ottawa County,MI,74.72035794183445,NA,NA,NA,NA
49419,Allegan County,MI,NA,NA,87.70301624129931,NA,NA
49508,Kent County,MI,NA,NA,8.352668213457076,NA,NA
49548,Kent County,MI,NA,NA,10.440835266821345,NA,NA
49685,Grand Traverse County,MI,NA,NA,54.524361948955914,NA,NA
49696,Grand Traverse County,MI,NA,NA,76.33410672853829,NA,NA
49707,Alpena County,MI,NA,49.32432432432432,35.730858468677496,NA,NA
49720,Charlevoix County,MI,73.60178970917227,NA,84.22273781902551,NA,NA
49735,Otsego County,MI,49.88814317673378,NA,NA,NA,NA
49829,Delta County,MI,NA,NA,37.58700696055685,NA,NA
49837,Delta County,MI,NA,NA,NA,NA,55.55555555555556
55011,Anoka County,MN,NA,98.64864864864865,NA,NA,NA
55014,Anoka County,MN,NA,NA,NA,NA,92.22222222222223
55041,Wabasha County,MN,NA,NA,NA,76.2114537444934,NA
55045,Chisago County,MN,NA,NA,94.43155452436194,NA,NA
55060,Steele County,MN,61.521252796420576,NA,NA,NA,77.22222222222223
55102,Ramsey County,MN,NA,NA,33.64269141531322,NA,NA
55106,Ramsey County,MN,1.7897091722595078,NA,NA,NA,NA
55110,Ramsey County,MN,NA,NA,50.81206496519721,NA,NA
55119,Ramsey County,MN,NA,NA,NA,NA,38.333333333333336
55129,Washington County,MN,42.05816554809844,NA,NA,NA,NA
55130,Ramsey County,MN,NA,27.7027027027027,NA,NA,NA
55313,Wright County,MN,NA,NA,56.61252900232019,NA,NA
55337,Dakota County,MN,NA,NA,38.74709976798144,NA,NA
55372,Scott County,MN,23.48993288590604,NA,NA,NA,NA
55373,Wright County,MN,NA,NA,99.30394431554525,NA,NA
55378,Scott County,MN,NA,NA,57.540603248259856,NA,NA
55387,Carver County,MN,NA,NA,NA,NA,86.11111111111111
55406,Hennepin County,MN,NA,NA,NA,NA,65.55555555555556
55407,Hennepin County,MN,NA,2.7027027027027026,NA,NA,NA
55411,Hennepin County,MN,NA,NA,3.944315545243619,NA,NA
55418,Hennepin County,MN,NA,NA,31.786542923433874,NA,NA
55432,Anoka County,MN,38.702460850111855,NA,NA,NA,NA
55433,Anoka County,MN,NA,NA,NA,65.63876651982379,NA
55445,Hennepin County,MN,NA,NA,78.65429234338747,NA,NA
55744,Itasca County,MN,NA,NA,49.419953596287705,6.167400881057269,NA
55746,St. Louis County,MN,NA,NA,29.466357308584683,NA,NA
55804,St. Louis County,MN,NA,NA,NA,45.81497797356828,NA
55807,St. Louis County,MN,NA,NA,50.11600928074246,NA,NA
55904,Olmsted County,MN,NA,NA,NA,NA,32.22222222222222
55987,Winona County,MN,NA,NA,12.993039443155451,NA,NA
56011,Scott County,MN,NA,NA,NA,NA,81.66666666666667
56071,Scott County,MN,NA,NA,NA,NA,63.888888888888886
56088,Martin County,MN,NA,NA,100,NA,NA
56241,Yellow Medicine County,MN,NA,NA,NA,98.23788546255507,NA
56265,Chippewa County,MN,68.68008948545862,NA,NA,NA,NA
56378,Stearns County,MN,NA,NA,NA,85.46255506607929,NA
56472,Crow Wing County,MN,NA,NA,71.46171693735499,NA,NA
56474,Cass County,MN,NA,NA,89.79118329466357,NA,NA
56482,Wadena County,MN,25.503355704697988,NA,NA,NA,NA
56537,Otter Tail County,MN,64.42953020134227,NA,NA,NA,NA
56544,Becker County,MN,NA,NA,89.55916473317865,NA,NA
56573,Otter Tail County,MN,NA,NA,NA,83.25991189427313,NA
56762,Marshall County,MN,NA,NA,95.1276102088167,NA,NA
38618,Tate County,MS,NA,NA,85.61484918793504,NA,NA
38620,Panola County,MS,NA,NA,NA,99.55947136563876,NA
38652,Union County,MS,NA,71.62162162162163,NA,NA,NA
38732,Bolivar County,MS,NA,NA,41.9953596287703,NA,NA
38751,Sunflower County,MS,NA,NA,NA,82.81938325991189,NA
38851,Chickasaw County,MS,83.66890380313198,NA,NA,NA,NA
38930,Leflore County,MS,NA,30.067567567567565,NA,NA,NA
39051,Leake County,MS,NA,NA,49.187935034802784,NA,NA
39119,Covington County,MS,NA,NA,NA,NA,98.33333333333333
39208,Rankin County,MS,17.002237136465325,NA,NA,NA,NA
39272,Hinds County,MS,NA,NA,78.88631090487239,NA,NA
39466,Pearl River County,MS,NA,55.4054054054054,NA,NA,NA
39562,Jackson County,MS,45.41387024608501,NA,NA,NA,NA
39648,Pike County,MS,53.24384787472036,NA,NA,NA,NA
63010,Jefferson County,MO,31.991051454138702,NA,NA,34.36123348017621,NA
63021,St. Louis County,MO,NA,NA,NA,13.215859030837004,NA
63034,St. Louis County,MO,NA,NA,NA,NA,51.11111111111111
63050,Jefferson County,MO,66.66666666666666,NA,NA,NA,NA
63104,St. Louis city,MO,NA,NA,58.70069605568445,NA,NA
63105,St. Louis County,MO,78.74720357941834,NA,NA,NA,NA
63109,St. Louis city,MO,70.24608501118567,NA,NA,NA,NA
63119,St. Louis County,MO,NA,55.4054054054054,NA,NA,NA
63129,St. Louis County,MO,51.67785234899329,NA,NA,NA,NA
63134,St. Louis County,MO,NA,55.067567567567565,NA,NA,NA
63136,St. Louis County,MO,NA,9.45945945945946,NA,11.45374449339207,NA
63146,St. Louis County,MO,66.2192393736018,NA,NA,NA,NA
63301,St. Charles County,MO,NA,NA,18.561484918793504,NA,NA
63376,St. Charles County,MO,NA,22.2972972972973,14.153132250580047,NA,NA
63385,St. Charles County,MO,NA,NA,21.57772621809745,NA,NA
63456,Monroe County,MO,NA,NA,91.64733178654292,NA,NA
63755,Cape Girardeau County,MO,NA,62.83783783783784,NA,NA,NA
64024,Clay County,MO,NA,NA,24.129930394431554,NA,NA
64030,Jackson County,MO,7.38255033557047,NA,NA,NA,NA
64055,Jackson County,MO,10.06711409395973,NA,NA,NA,NA
64060,Clay County,MO,25.503355704697988,NA,NA,NA,NA
64080,Cass County,MO,61.96868008948546,NA,NA,NA,NA
64083,Cass County,MO,NA,83.44594594594594,NA,NA,NA
64132,Jackson County,MO,NA,23.64864864864865,NA,NA,NA
64133,Jackson County,MO,NA,NA,NA,1.762114537444934,NA
64137,Jackson County,MO,76.28635346756153,NA,NA,NA,NA
64138,Jackson County,MO,46.97986577181208,NA,NA,NA,NA
64151,Platte County,MO,NA,NA,NA,20.704845814977972,NA
64152,Platte County,MO,NA,66.21621621621621,NA,NA,NA
64424,Harrison County,MO,NA,NA,88.39907192575406,NA,NA
64503,Buchanan County,MO,24.384787472035793,NA,NA,NA,NA
64730,Bates County,MO,NA,84.7972972972973,NA,NA,NA
64834,Jasper County,MO,87.24832214765101,NA,NA,NA,NA
64836,Jasper County,MO,NA,37.5,NA,NA,NA
64850,Newton County,MO,NA,88.51351351351352,NA,NA,NA
65020,Camden County,MO,NA,NA,NA,NA,52.77777777777778
65265,Audrain County,MO,NA,NA,NA,NA,48.888888888888886
65536,Laclede County,MO,NA,18.243243243243242,NA,NA,NA
65656,Stone County,MO,NA,83.1081081081081,NA,NA,NA
65807,Greene County,MO,NA,NA,NA,18.94273127753304,NA
59937,Flathead County,MT,NA,NA,NA,78.8546255506608,NA
68025,Dodge County,NE,NA,NA,NA,NA,7.222222222222221
68046,Sarpy County,NE,NA,NA,NA,80.61674008810573,NA
68135,Douglas County,NE,NA,NA,73.31786542923435,NA,97.77777777777777
68506,Lancaster County,NE,NA,NA,NA,NA,37.22222222222222
89129,Clark County,NV,NA,NA,NA,NA,67.22222222222223
89131,Clark County,NV,NA,NA,NA,59.03083700440529,NA
89431,Washoe County,NV,NA,NA,NA,NA,24.444444444444443
89706,Carson City,NV,NA,76.35135135135135,NA,NA,NA
03033,Hillsborough County,NH,85.90604026845638,NA,NA,NA,NA
03053,Rockingham County,NH,20.581655480984338,NA,NA,NA,NA
03062,Hillsborough County,NH,NA,NA,24.361948955916475,7.488986784140969,NA
03064,Hillsborough County,NH,NA,NA,33.4106728538283,NA,NA
03079,Rockingham County,NH,30.42505592841163,NA,NA,NA,NA
03110,Hillsborough County,NH,NA,NA,59.86078886310905,NA,NA
03234,Merrimack County,NH,NA,NA,96.98375870069606,NA,NA
03281,Hillsborough County,NH,NA,NA,77.7262180974478,NA,NA
03458,Hillsborough County,NH,87.47203579418344,NA,NA,NA,NA
03561,Grafton County,NH,NA,80.74324324324324,NA,NA,NA
03743,Sullivan County,NH,NA,NA,NA,48.89867841409692,NA
03820,Strafford County,NH,28.187919463087248,NA,NA,NA,NA
07006,Essex County,NJ,NA,NA,85.38283062645012,NA,NA
07010,Bergen County,NJ,NA,NA,50.11600928074246,NA,NA
07029,Hudson County,NJ,NA,46.28378378378378,NA,90.30837004405286,NA
07040,Essex County,NJ,NA,91.8918918918919,NA,71.80616740088107,NA
07045,Morris County,NJ,96.64429530201343,NA,NA,NA,NA
07105,Essex County,NJ,NA,3.3783783783783785,NA,NA,NA
07112,Essex County,NJ,NA,NA,4.872389791183294,NA,NA
07201,Union County,NJ,43.84787472035794,NA,NA,NA,NA
07407,Bergen County,NJ,NA,NA,79.11832946635731,NA,NA
07458,Bergen County,NJ,85.4586129753915,NA,NA,NA,NA
07657,Bergen County,NJ,NA,NA,NA,NA,80
07728,Monmouth County,NJ,5.592841163310962,NA,NA,NA,NA
07757,Monmouth County,NJ,93.28859060402685,NA,NA,NA,NA
07843,Sussex County,NJ,NA,NA,NA,87.66519823788546,NA
07882,Warren County,NJ,NA,NA,79.58236658932715,NA,NA
08030,Camden County,NJ,56.152125279642064,NA,NA,NA,NA
08050,Ocean County,NJ,NA,NA,40.835266821345705,NA,NA
08052,Burlington County,NJ,22.818791946308725,NA,NA,NA,NA
08079,Salem County,NJ,64.20581655480984,NA,NA,NA,NA
08090,Gloucester County,NJ,84.56375838926175,NA,NA,NA,NA
08260,Cape May County,NJ,NA,52.702702702702695,NA,NA,NA
08360,Cumberland County,NJ,NA,NA,0.9280742459396751,NA,NA
08361,Cumberland County,NJ,NA,40.2027027027027,NA,NA,NA
08691,Mercer County,NJ,72.03579418344519,NA,NA,NA,NA
08721,Ocean County,NJ,NA,NA,29.698375870069604,NA,NA
08736,Monmouth County,NJ,NA,NA,86.5429234338747,NA,NA
08840,Middlesex County,NJ,NA,NA,NA,79.73568281938326,NA
08852,Middlesex County,NJ,97.98657718120806,NA,NA,NA,NA
08865,Warren County,NJ,NA,NA,NA,52.42290748898678,NA
87002,Valencia County,NM,NA,71.95945945945947,NA,NA,NA
87042,Valencia County,NM,NA,NA,98.83990719257541,NA,NA
87104,Bernalillo County,NM,NA,66.21621621621621,NA,NA,NA
87112,Bernalillo County,NM,15.436241610738255,NA,NA,10.572687224669604,2.2222222222222223
87121,Bernalillo County,NM,NA,9.797297297297296,NA,NA,NA
87144,Sandoval County,NM,NA,48.310810810810814,NA,NA,NA
87301,McKinley County,NM,NA,NA,30.62645011600928,NA,NA
87328,McKinley County,NM,NA,NA,NA,100,NA
87420,San Juan County,NM,NA,34.7972972972973,NA,NA,NA
87505,Santa Fe County,NM,NA,NA,6.960556844547564,NA,NA
87529,Taos County,NM,NA,95.27027027027027,NA,NA,NA
87544,Los Alamos County,NM,76.7337807606264,NA,65.4292343387471,NA,NA
87547,,NM,88.59060402684564,NA,85.84686774941996,NA,NA
10309,Richmond County,NY,NA,76.35135135135135,NA,NA,NA
10454,Bronx County,NY,NA,7.094594594594595,NA,NA,NA
10468,Bronx County,NY,NA,NA,13.921113689095128,NA,NA
10472,Bronx County,NY,NA,NA,2.784222737819025,NA,NA
10583,Westchester County,NY,NA,NA,NA,NA,27.77777777777778
10704,Westchester County,NY,NA,NA,70.76566125290023,NA,NA
10918,Orange County,NY,NA,98.64864864864865,NA,NA,NA
11208,Kings County,NY,NA,1.3513513513513513,NA,NA,NA
11212,Kings County,NY,NA,0.33783783783783783,NA,NA,NA
11220,Kings County,NY,0,NA,NA,NA,NA
11232,Kings County,NY,NA,4.054054054054054,NA,NA,NA
11237,Kings County,NY,NA,5.743243243243244,NA,NA,NA
11364,Queens County,NY,76.7337807606264,NA,NA,NA,NA
11372,Queens County,NY,NA,NA,34.33874709976798,NA,NA
11385,Queens County,NY,6.0402684563758395,NA,NA,NA,NA
11572,Nassau County,NY,NA,NA,89.0951276102088,NA,NA
11706,Suffolk County,NY,NA,15.54054054054054,NA,NA,NA
11743,Suffolk County,NY,89.03803131991052,NA,NA,NA,NA
11757,Suffolk County,NY,NA,72.63513513513513,NA,NA,NA
11772,Suffolk County,NY,NA,NA,NA,31.718061674008812,NA
11901,Suffolk County,NY,NA,NA,52.66821345707656,NA,NA
11934,Suffolk County,NY,NA,NA,NA,NA,94.44444444444444
12010,Montgomery County,NY,NA,6.081081081081082,NA,NA,NA
12110,Albany County,NY,NA,NA,NA,NA,43.333333333333336
12180,Rensselaer County,NY,NA,NA,NA,8.370044052863436,NA
12302,Schenectady County,NY,53.02013422818792,NA,NA,NA,NA
12414,Greene County,NY,78.52348993288591,NA,NA,NA,NA
12701,Sullivan County,NY,NA,NA,NA,77.97356828193833,NA
12834,Washington County,NY,57.494407158836694,NA,NA,NA,NA
13021,Cayuga County,NY,NA,NA,4.640371229698376,NA,NA
13077,Cortland County,NY,63.08724832214765,NA,NA,NA,NA
13159,Onondaga County,NY,85.4586129753915,NA,NA,NA,NA
13205,Onondaga County,NY,NA,NA,17.865429234338748,NA,NA
13350,Herkimer County,NY,NA,NA,NA,42.290748898678416,NA
13440,Oneida County,NY,6.487695749440715,34.12162162162162,NA,NA,NA
13605,Jefferson County,NY,NA,NA,94.43155452436194,NA,NA
13619,Jefferson County,NY,NA,NA,NA,NA,31.666666666666664
13676,St. Lawrence County,NY,NA,NA,79.81438515081206,NA,NA
13733,Chenango County,NY,82.5503355704698,NA,NA,NA,NA
13734,Tioga County,NY,NA,NA,93.50348027842227,NA,NA
13790,Broome County,NY,NA,NA,13.45707656612529,NA,NA
13811,Tioga County,NY,NA,NA,83.06264501160094,NA,NA
13812,Tioga County,NY,NA,NA,96.2877030162413,NA,NA
13815,Chenango County,NY,27.740492170022375,NA,NA,NA,NA
13827,Tioga County,NY,30.42505592841163,NA,56.380510440835266,NA,NA
13850,Broome County,NY,NA,NA,20.417633410672853,NA,NA
13905,Broome County,NY,2.237136465324385,NA,NA,NA,NA
14013,Genesee County,NY,99.77628635346755,NA,NA,NA,NA
14052,Erie County,NY,NA,NA,NA,88.54625550660793,NA
14086,Erie County,NY,37.8076062639821,NA,NA,NA,NA
14131,Niagara County,NY,NA,NA,93.03944315545245,NA,NA
14139,Erie County,NY,NA,NA,97.4477958236659,NA,NA
14211,Erie County,NY,3.5794183445190155,NA,NA,NA,NA
14414,Livingston County,NY,51.23042505592841,NA,NA,NA,NA
14420,Monroe County,NY,13.646532438478747,NA,NA,NA,NA
14423,Livingston County,NY,NA,NA,88.63109048723898,NA,NA
14424,Ontario County,NY,NA,NA,3.480278422273782,NA,NA
14437,Livingston County,NY,NA,NA,NA,55.50660792951542,NA
14445,Monroe County,NY,NA,NA,42.69141531322506,NA,NA
14489,Wayne County,NY,NA,68.58108108108108,NA,NA,NA
14526,Monroe County,NY,NA,NA,NA,17.180616740088105,NA
14534,Monroe County,NY,19.463087248322147,NA,NA,NA,NA
14569,Wyoming County,NY,NA,NA,67.98143851508121,NA,NA
14580,Monroe County,NY,NA,NA,NA,2.643171806167401,NA
14590,Wayne County,NY,NA,NA,NA,70.04405286343612,NA
14609,Monroe County,NY,20.13422818791946,NA,NA,NA,NA
14612,Monroe County,NY,NA,NA,2.5522041763341066,NA,NA
14755,Cattaraugus County,NY,99.10514541387025,NA,NA,NA,NA
14760,Cattaraugus County,NY,11.856823266219239,NA,NA,NA,NA
14772,Cattaraugus County,NY,NA,96.28378378378379,NA,NA,NA
14843,Steuben County,NY,21.252796420581653,NA,NA,NA,NA
14882,Tompkins County,NY,80.53691275167785,NA,NA,NA,NA
27006,Davie County,NC,NA,NA,NA,33.03964757709251,NA
27107,Forsyth County,NC,NA,20.27027027027027,NA,NA,NA
27205,Randolph County,NC,NA,59.12162162162162,NA,NA,NA
27260,Guilford County,NC,NA,NA,NA,61.67400881057269,NA
27278,Orange County,NC,53.914988814317674,NA,NA,NA,NA
27284,Forsyth County,NC,NA,NA,9.51276102088167,NA,NA
27302,Alamance County,NC,NA,NA,NA,14.977973568281937,NA
27320,Rockingham County,NC,NA,NA,15.777262180974477,NA,NA
27330,Lee County,NC,34.675615212527966,NA,NA,NA,NA
27405,Guilford County,NC,NA,NA,15.31322505800464,15.418502202643172,20
27406,Guilford County,NC,5.1454138702460845,NA,NA,NA,NA
27502,Wake County,NC,NA,NA,64.03712296983758,NA,NA
27520,Johnston County,NC,22.595078299776286,NA,NA,NA,NA
27521,Harnett County,NC,NA,84.12162162162163,NA,NA,NA
27526,Wake County,NC,27.293064876957494,NA,NA,NA,NA
27537,Vance County,NC,NA,38.513513513513516,70.53364269141531,NA,NA
27565,Granville County,NC,29.082774049217004,NA,NA,NA,NA
27572,Person County,NC,NA,NA,NA,89.86784140969164,NA
27603,Wake County,NC,NA,48.986486486486484,NA,NA,NA
27613,Wake County,NC,54.36241610738255,NA,NA,NA,NA
27703,Durham County,NC,16.778523489932887,11.14864864864865,NA,NA,NA
27704,Durham County,NC,NA,19.594594594594593,NA,NA,NA
27705,Durham County,NC,NA,NA,NA,NA,16.666666666666664
27707,Durham County,NC,NA,40.2027027027027,NA,NA,NA
27807,Nash County,NC,NA,92.56756756756756,NA,NA,NA
27871,Martin County,NC,NA,NA,92.5754060324826,NA,NA
27909,Pasquotank County,NC,15.212527964205815,16.216216216216218,NA,NA,NA
28036,Mecklenburg County,NC,NA,NA,NA,93.83259911894272,NA
28092,Lincoln County,NC,26.39821029082774,NA,NA,NA,NA
28104,Union County,NC,42.281879194630875,NA,NA,NA,NA
28115,Iredell County,NC,NA,NA,NA,38.76651982378855,NA
28173,Union County,NC,NA,NA,73.08584686774941,NA,NA
28303,Cumberland County,NC,29.53020134228188,NA,56.148491879350345,NA,NA
28306,Bladen County,NC,NA,NA,NA,43.17180616740088,NA
28314,Cumberland County,NC,3.3557046979865772,NA,NA,NA,NA
28337,Bladen County,NC,NA,NA,NA,NA,79.44444444444444
28376,Hoke County,NC,NA,27.364864864864863,NA,NA,NA
28384,Bladen County,NC,NA,NA,63.10904872389791,NA,NA
28398,Duplin County,NC,NA,70.6081081081081,NA,NA,88.88888888888889
28422,Brunswick County,NC,NA,NA,88.16705336426914,NA,NA
28590,Pitt County,NC,NA,NA,NA,74.00881057268722,NA
28630,Caldwell County,NC,NA,37.5,NA,NA,NA
28655,Burke County,NC,NA,28.37837837837838,7.888631090487238,NA,NA
28659,Wilkes County,NC,43.624161073825505,NA,NA,35.24229074889868,NA
28677,Iredell County,NC,NA,30.067567567567565,NA,NA,NA
28713,Swain County,NC,NA,NA,NA,70.92511013215858,NA
28716,Haywood County,NC,NA,NA,NA,51.10132158590308,NA
28752,McDowell County,NC,NA,26.68918918918919,NA,NA,NA
28761,McDowell County,NC,NA,68.58108108108108,NA,NA,NA
28762,McDowell County,NC,97.76286353467562,NA,NA,NA,NA
28777,Mitchell County,NC,58.16554809843401,NA,NA,NA,NA
28786,Haywood County,NC,NA,56.75675675675676,NA,NA,NA
58104,Cass County,ND,NA,NA,35.96287703016242,NA,NA
58203,Grand Forks County,ND,NA,NA,55.4524361948956,NA,NA
58601,Stark County,ND,36.241610738255034,NA,75.1740139211137,NA,NA
43017,Franklin County,OH,NA,NA,64.73317865429235,NA,NA
43026,Franklin County,OH,9.172259507829978,NA,NA,NA,NA
43040,Union County,OH,NA,21.283783783783782,NA,NA,NA
43050,Knox County,OH,NA,17.56756756756757,NA,NA,NA
43068,Franklin County,OH,2.684563758389262,NA,NA,NA,NA
43123,Franklin County,OH,0.22371364653243847,NA,NA,NA,NA
43204,Franklin County,OH,NA,4.391891891891892,NA,NA,NA
43207,Franklin County,OH,NA,0.6756756756756757,NA,NA,NA
43213,Franklin County,OH,NA,10.135135135135135,NA,NA,NA
43220,Franklin County,OH,38.92617449664429,46.95945945945946,NA,NA,NA
43227,Franklin County,OH,NA,11.486486486486488,NA,NA,NA
43230,Franklin County,OH,NA,12.837837837837837,NA,NA,NA
43231,Franklin County,OH,NA,38.17567567567568,NA,NA,NA
43232,Franklin County,OH,NA,NA,5.56844547563805,NA,NA
43311,Logan County,OH,NA,NA,NA,45.37444933920705,NA
43515,Fulton County,OH,NA,84.12162162162163,NA,NA,NA
43526,Defiance County,OH,48.54586129753915,NA,NA,NA,NA
43528,Lucas County,OH,51.45413870246085,NA,NA,NA,NA
43560,Lucas County,OH,4.250559284116331,NA,NA,NA,NA
43605,Lucas County,OH,NA,NA,NA,NA,53.333333333333336
43607,Lucas County,OH,NA,NA,8.584686774941995,NA,NA
43608,Lucas County,OH,NA,NA,12.761020881670534,NA,NA
43611,Lucas County,OH,NA,NA,NA,NA,51.66666666666667
43612,Lucas County,OH,NA,NA,6.2645011600928076,NA,NA
43613,Lucas County,OH,NA,NA,5.104408352668213,NA,NA
43783,Perry County,OH,NA,NA,96.75174013921114,NA,NA
43822,Muskingum County,OH,NA,93.91891891891892,NA,NA,NA
43952,Jefferson County,OH,NA,NA,10.672853828306264,NA,NA
44053,Lorain County,OH,NA,NA,11.600928074245939,NA,NA
44055,Lorain County,OH,NA,NA,NA,23.348017621145374,NA
44090,Lorain County,OH,NA,NA,61.02088167053365,NA,NA
44102,Cuyahoga County,OH,NA,0,0.23201856148491878,NA,NA
44105,Cuyahoga County,OH,NA,NA,0.6960556844547563,NA,NA
44107,Cuyahoga County,OH,2.460850111856823,NA,NA,NA,NA
44111,Cuyahoga County,OH,NA,7.4324324324324325,NA,NA,NA
44112,Cuyahoga County,OH,NA,NA,11.832946635730858,NA,NA
44118,Cuyahoga County,OH,NA,NA,NA,11.894273127753303,NA
44124,Cuyahoga County,OH,NA,NA,NA,NA,3.888888888888889
44125,Cuyahoga County,OH,NA,NA,1.3921113689095126,NA,NA
44130,Cuyahoga County,OH,40.49217002237137,NA,NA,NA,NA
44135,Cuyahoga County,OH,2.013422818791946,NA,NA,NA,NA
44136,Cuyahoga County,OH,NA,NA,63.341067285382834,NA,NA
44137,Cuyahoga County,OH,NA,5.405405405405405,NA,NA,NA
44142,Cuyahoga County,OH,23.937360178970916,NA,NA,NA,NA
44212,Medina County,OH,NA,NA,4.408352668213457,NA,NA
44221,Summit County,OH,34.22818791946309,NA,NA,NA,NA
44223,Summit County,OH,14.093959731543624,NA,NA,NA,33.88888888888889
44224,Summit County,OH,NA,NA,NA,7.929515418502203,NA
44256,Medina County,OH,0.6711409395973155,NA,25.52204176334107,NA,NA
44266,Portage County,OH,NA,43.91891891891892,NA,41.85022026431718,NA
44280,Medina County,OH,93.73601789709173,NA,NA,NA,NA
44413,Columbiana County,OH,NA,88.17567567567568,NA,NA,NA
44483,Trumbull County,OH,NA,22.972972972972975,NA,NA,NA
44632,Stark County,OH,90.82774049217002,NA,NA,NA,NA
44708,Stark County,OH,NA,32.432432432432435,NA,NA,NA
44710,Stark County,OH,NA,64.52702702702703,NA,NA,NA
44720,Stark County,OH,20.581655480984338,NA,NA,NA,NA
44805,Ashland County,OH,NA,NA,18.097447795823665,NA,NA
44836,Seneca County,OH,98.88143176733782,NA,NA,NA,NA
44870,Erie County,OH,0.8948545861297539,NA,2.088167053364269,NA,NA
45015,Butler County,OH,NA,30.067567567567565,NA,NA,NA
45044,Butler County,OH,1.1185682326621924,16.89189189189189,NA,NA,NA
45122,Clermont County,OH,86.12975391498881,NA,NA,NA,NA
45142,Highland County,OH,NA,NA,97.6798143851508,NA,NA
45150,Clermont County,OH,34.00447427293065,NA,NA,NA,NA
45171,Brown County,OH,NA,NA,86.07888631090486,NA,NA
45206,Hamilton County,OH,NA,52.702702702702695,NA,NA,NA
45213,Hamilton County,OH,74.49664429530202,NA,NA,NA,NA
45215,Hamilton County,OH,16.331096196868007,NA,NA,NA,NA
45216,Hamilton County,OH,NA,NA,58.93271461716937,NA,NA
45223,Hamilton County,OH,31.319910514541387,NA,NA,NA,NA
45231,Hamilton County,OH,29.753914988814316,1.6891891891891893,NA,NA,NA
45240,Hamilton County,OH,31.096196868008946,NA,NA,NA,NA
45251,Hamilton County,OH,NA,NA,53.82830626450116,NA,NA
45335,Greene County,OH,NA,65.87837837837837,NA,NA,NA
45409,Montgomery County,OH,89.03803131991052,NA,NA,NA,NA
45420,Montgomery County,OH,NA,NA,NA,50.22026431718062,NA
45432,Greene County,OH,NA,NA,71.92575406032483,NA,NA
45458,Montgomery County,OH,15.436241610738255,NA,NA,NA,NA
45502,Clark County,OH,61.07382550335571,NA,NA,NA,74.44444444444444
45601,Ross County,OH,NA,2.364864864864865,NA,NA,NA
45614,Gallia County,OH,NA,NA,NA,98.6784140969163,NA
45628,Ross County,OH,NA,NA,84.91879350348029,NA,NA
45638,Lawrence County,OH,NA,NA,6.728538283062645,NA,NA
45640,Jackson County,OH,NA,NA,NA,3.524229074889868,NA
45648,Scioto County,OH,NA,NA,NA,24.669603524229075,NA
45659,Lawrence County,OH,91.94630872483222,NA,NA,NA,NA
45680,Lawrence County,OH,NA,NA,NA,39.20704845814978,NA
45769,Meigs County,OH,NA,78.71621621621621,NA,NA,NA
45784,Washington County,OH,89.93288590604027,NA,NA,NA,NA
45840,Hancock County,OH,NA,NA,NA,NA,5.555555555555555
73013,Oklahoma County,OK,NA,NA,NA,8.81057268722467,NA
73044,Logan County,OK,NA,NA,NA,16.299559471365637,NA
73071,Cleveland County,OK,NA,46.95945945945946,NA,NA,NA
73117,Oklahoma County,OK,NA,88.85135135135135,NA,NA,NA
73118,Oklahoma County,OK,NA,NA,90.95127610208816,NA,NA
73119,Oklahoma County,OK,NA,15.878378378378377,NA,NA,NA
73139,Oklahoma County,OK,51.006711409395976,NA,NA,NA,NA
73505,Comanche County,OK,NA,NA,28.074245939675173,NA,NA
73717,Woods County,OK,NA,NA,NA,NA,77.77777777777779
73801,Woodward County,OK,68.23266219239373,NA,NA,NA,NA
74012,Tulsa County,OK,NA,NA,NA,14.537444933920703,6.666666666666667
74014,Wagoner County,OK,30.201342281879196,NA,NA,NA,NA
74017,Rogers County,OK,12.080536912751679,NA,NA,NA,NA
74020,Pawnee County,OK,NA,NA,87.23897911832947,NA,NA
74037,Tulsa County,OK,NA,88.85135135135135,NA,NA,NA
74145,Tulsa County,OK,41.61073825503356,NA,NA,NA,NA
74301,Craig County,OK,NA,48.64864864864865,NA,NA,NA
74365,Mayes County,OK,NA,90.2027027027027,NA,NA,NA
74437,Okmulgee County,OK,NA,NA,NA,NA,69.44444444444444
74447,Okmulgee County,OK,NA,NA,69.83758700696056,NA,NA
74849,Seminole County,OK,NA,93.24324324324324,NA,NA,NA
74953,Le Flore County,OK,NA,NA,82.5986078886311,NA,NA
74960,Adair County,OK,NA,NA,NA,NA,64.44444444444444
97006,Washington County,OR,NA,NA,NA,40.08810572687225,NA
97007,Washington County,OR,13.870246085011187,NA,NA,NA,NA
97008,Washington County,OR,NA,NA,NA,NA,35.55555555555556
97013,Clackamas County,OR,NA,NA,NA,NA,56.111111111111114
97055,Clackamas County,OR,78.74720357941834,NA,NA,NA,NA
97140,Washington County,OR,NA,NA,58.46867749419954,NA,NA
97213,Multnomah County,OR,80.08948545861297,NA,NA,NA,52.22222222222223
97229,Washington County,OR,5.8165548098434,NA,NA,NA,NA
97267,Clackamas County,OR,NA,NA,NA,NA,18.333333333333332
97301,Marion County,OR,NA,NA,17.40139211136891,NA,NA
97302,Marion County,OR,NA,68.58108108108108,NA,NA,NA
97306,Marion County,OR,77.62863534675614,NA,NA,NA,NA
97321,Linn County,OR,42.72930648769575,NA,NA,NA,NA
97402,Lane County,OR,25.279642058165546,NA,NA,NA,NA
97479,Douglas County,OR,NA,NA,NA,NA,44.44444444444444
97503,Jackson County,OR,NA,78.71621621621621,NA,NA,NA
97603,Klamath County,OR,NA,NA,24.825986078886313,NA,NA
97741,Jefferson County,OR,NA,67.56756756756756,NA,NA,NA
97838,Umatilla County,OR,NA,NA,NA,NA,42.22222222222222
97850,Union County,OR,NA,NA,NA,36.56387665198238,NA
15010,Beaver County,PA,NA,NA,NA,NA,11.666666666666666
15012,Westmoreland County,PA,NA,NA,63.80510440835266,NA,NA
15136,Allegheny County,PA,44.742729306487696,NA,NA,NA,NA
15204,Allegheny County,PA,27.516778523489933,NA,NA,NA,NA
15227,Allegheny County,PA,NA,NA,41.53132250580047,NA,NA
15236,Allegheny County,PA,9.395973154362416,NA,NA,NA,NA
15425,Fayette County,PA,NA,NA,35.498839907192576,NA,NA
15478,Fayette County,PA,NA,75.33783783783784,NA,NA,NA
15601,Westmoreland County,PA,NA,NA,NA,NA,0
15650,Westmoreland County,PA,NA,NA,20.185614849187935,NA,NA
15909,Cambria County,PA,NA,NA,NA,NA,95.55555555555556
15956,Cambria County,PA,94.85458612975391,NA,NA,NA,NA
16335,Crawford County,PA,NA,NA,14.849187935034802,NA,NA
16407,Erie County,PA,NA,75,NA,NA,NA
16502,Erie County,PA,NA,NA,NA,89.42731277533039,NA
16504,Erie County,PA,NA,NA,NA,NA,65
16506,Erie County,PA,NA,NA,NA,NA,39.44444444444444
16601,Blair County,PA,NA,35.13513513513514,NA,NA,NA
16630,Cambria County,PA,NA,NA,99.07192575406032,NA,NA
16823,Centre County,PA,42.72930648769575,NA,NA,NA,NA
16933,Tioga County,PA,92.84116331096197,NA,NA,NA,NA
17011,Cumberland County,PA,NA,NA,30.8584686774942,NA,NA
17018,Dauphin County,PA,86.35346756152126,NA,NA,NA,NA
17022,Lancaster County,PA,6.7114093959731544,NA,NA,NA,NA
17033,Dauphin County,PA,NA,NA,NA,27.312775330396477,21.666666666666668
17038,Lebanon County,PA,NA,NA,NA,80.1762114537445,NA
17042,Lebanon County,PA,NA,NA,NA,3.0837004405286343,NA
17057,Dauphin County,PA,NA,NA,NA,19.823788546255507,41.11111111111111
17078,Lebanon County,PA,NA,NA,22.73781902552204,13.656387665198238,3.3333333333333335
17109,Dauphin County,PA,NA,NA,30.162412993039446,NA,NA
17111,Dauphin County,PA,NA,NA,20.649651972157773,NA,NA
17201,Franklin County,PA,NA,54.729729729729726,NA,NA,NA
17319,York County,PA,NA,NA,68.90951276102089,NA,NA
17325,Adams County,PA,31.991051454138702,NA,NA,NA,NA
17327,York County,PA,NA,NA,NA,86.78414096916299,NA
17331,York County,PA,27.069351230425053,NA,NA,NA,NA
17345,York County,PA,NA,NA,70.99767981438515,NA,NA
17356,York County,PA,NA,NA,33.874709976798144,NA,NA
17402,York County,PA,46.308724832214764,NA,NA,NA,NA
17545,Lancaster County,PA,NA,NA,NA,NA,12.777777777777777
17584,Lancaster County,PA,NA,96.62162162162163,NA,NA,NA
17901,Schuylkill County,PA,NA,NA,NA,37.44493392070485,22.77777777777778
17921,Schuylkill County,PA,NA,76.01351351351352,NA,NA,NA
17963,Schuylkill County,PA,NA,NA,81.67053364269141,NA,NA
18014,Northampton County,PA,NA,NA,74.94199535962876,NA,NA
18015,Northampton County,PA,4.697986577181208,NA,NA,NA,NA
18017,Northampton County,PA,NA,NA,NA,1.3215859030837005,NA
18042,Northampton County,PA,NA,NA,7.65661252900232,NA,NA
18054,Montgomery County,PA,NA,NA,98.37587006960557,NA,NA
18064,Northampton County,PA,33.33333333333333,NA,NA,NA,NA
18067,Northampton County,PA,45.19015659955257,NA,NA,NA,NA
18080,Lehigh County,PA,60.62639821029083,NA,NA,NA,NA
18302,Monroe County,PA,17.449664429530202,NA,NA,NA,NA
18411,Lackawanna County,PA,NA,NA,NA,NA,23.88888888888889
18603,Columbia County,PA,59.73154362416108,NA,NA,NA,NA
18640,Luzerne County,PA,NA,NA,45.011600928074245,NA,NA
18705,Luzerne County,PA,NA,57.432432432432435,NA,NA,NA
18901,Bucks County,PA,62.19239373601789,NA,NA,NA,NA
18914,Bucks County,PA,62.19239373601789,NA,NA,NA,NA
18938,Bucks County,PA,84.56375838926175,NA,NA,NA,NA
18960,Bucks County,PA,63.534675615212535,NA,NA,NA,NA
18969,Montgomery County,PA,NA,84.7972972972973,NA,NA,NA
18977,Bucks County,PA,NA,NA,NA,94.27312775330397,NA
19008,Delaware County,PA,NA,NA,52.90023201856149,79.29515418502203,NA
19010,Delaware County,PA,44.07158836689038,NA,NA,NA,NA
19030,Bucks County,PA,72.93064876957494,NA,NA,NA,NA
19047,Bucks County,PA,NA,NA,NA,NA,26.111111111111114
19064,Delaware County,PA,66.44295302013423,NA,NA,NA,NA
19072,Montgomery County,PA,81.20805369127517,NA,68.67749419953596,NA,NA
19073,Delaware County,PA,77.85234899328859,NA,NA,NA,NA
19086,Delaware County,PA,NA,NA,NA,81.05726872246696,NA
19096,Montgomery County,PA,49.44071588366891,NA,NA,NA,NA
19115,Philadelphia County,PA,38.92617449664429,61.82432432432432,NA,NA,NA
19116,Philadelphia County,PA,NA,NA,NA,16.740088105726873,NA
19124,Philadelphia County,PA,NA,NA,NA,12.334801762114537,NA
19131,Philadelphia County,PA,NA,NA,NA,0,NA
19134,Philadelphia County,PA,NA,NA,NA,NA,40.55555555555556
19148,Philadelphia County,PA,NA,26.351351351351347,12.296983758700696,NA,NA
19151,Philadelphia County,PA,NA,NA,18.329466357308586,NA,NA
19312,Chester County,PA,33.557046979865774,NA,NA,NA,NA
19317,Delaware County,PA,84.11633109619687,NA,NA,NA,NA
19320,Chester County,PA,3.131991051454139,NA,NA,NA,NA
19335,Chester County,PA,NA,NA,23.665893271461716,NA,NA
19350,Chester County,PA,86.35346756152126,NA,NA,NA,NA
19390,Chester County,PA,NA,NA,92.80742459396751,NA,NA
19428,Montgomery County,PA,NA,NA,76.10208816705337,NA,NA
19454,Montgomery County,PA,NA,NA,NA,57.70925110132159,NA
19510,Berks County,PA,NA,NA,NA,NA,80.55555555555556
19525,Montgomery County,PA,89.93288590604027,NA,NA,NA,NA
19526,Berks County,PA,NA,NA,NA,69.16299559471366,NA
19555,Berks County,PA,NA,NA,NA,96.47577092511013,NA
19601,Berks County,PA,NA,7.77027027027027,NA,NA,NA
19604,Berks County,PA,8.724832214765101,NA,16.241299303944317,NA,NA
19605,Berks County,PA,NA,NA,35.266821345707655,NA,NA
19606,Berks County,PA,47.87472035794183,NA,NA,NA,NA
19608,Berks County,PA,NA,NA,NA,30.396475770925107,NA
02882,Washington County,RI,96.19686800894854,NA,NA,NA,NA
02893,Kent County,RI,NA,NA,NA,29.074889867841406,NA
29406,Charleston County,SC,NA,NA,29.23433874709977,NA,NA
29410,Berkeley County,SC,60.62639821029083,NA,NA,NA,NA
29412,Charleston County,SC,NA,NA,NA,NA,10.555555555555555
29418,Charleston County,SC,NA,NA,NA,NA,82.77777777777777
29431,Berkeley County,SC,82.5503355704698,NA,NA,NA,NA
29461,Berkeley County,SC,13.422818791946309,NA,37.35498839907193,NA,NA
29464,Charleston County,SC,19.910514541387027,NA,NA,NA,NA
29466,Charleston County,SC,11.6331096196868,NA,NA,NA,NA
29486,Berkeley County,SC,56.152125279642064,NA,NA,59.471365638766514,NA
29566,Horry County,SC,NA,NA,NA,NA,54.44444444444444
29568,Horry County,SC,NA,NA,80.2784222737819,NA,NA
29575,Horry County,SC,NA,80.74324324324324,NA,NA,NA
29611,Greenville County,SC,NA,NA,NA,NA,27.22222222222222
29621,Anderson County,SC,NA,NA,NA,22.46696035242291,NA
29627,Anderson County,SC,NA,NA,NA,NA,93.88888888888889
29671,Pickens County,SC,78.07606263982103,NA,NA,NA,NA
29672,Oconee County,SC,96.86800894854586,NA,NA,NA,NA
29680,Greenville County,SC,49.21700223713646,NA,NA,NA,NA
29684,Anderson County,SC,82.10290827740492,NA,NA,NA,NA
29692,Laurens County,SC,NA,NA,NA,NA,96.11111111111111
29803,Aiken County,SC,48.322147651006716,NA,NA,NA,NA
29928,Beaufort County,SC,NA,NA,NA,73.568281938326,NA
57042,Lake County,SD,NA,92.56756756756756,NA,NA,NA
57701,Pennington County,SD,NA,NA,53.1322505800464,20.26431718061674,NA
57783,Lawrence County,SD,NA,NA,72.62180974477958,NA,NA
37062,Williamson County,TN,NA,NA,82.830626450116,NA,NA
37074,Trousdale County,TN,NA,NA,NA,84.14096916299559,NA
37075,Sumner County,TN,NA,49.66216216216216,NA,NA,NA
37110,Warren County,TN,NA,NA,21.34570765661253,NA,NA
37179,Williamson County,TN,NA,NA,NA,NA,99.44444444444444
37185,Humphreys County,TN,NA,NA,NA,88.10572687224669,NA
37205,Davidson County,TN,NA,NA,NA,62.55506607929515,NA
37206,Davidson County,TN,NA,NA,NA,51.541850220264315,NA
37209,Davidson County,TN,NA,55.4054054054054,NA,NA,NA
37303,McMinn County,TN,NA,39.189189189189186,NA,NA,NA
37381,Rhea County,TN,NA,NA,83.75870069605568,NA,NA
37421,Hamilton County,TN,NA,NA,NA,NA,25
37716,Anderson County,TN,14.093959731543624,NA,NA,NA,NA
37760,Jefferson County,TN,NA,NA,61.25290023201856,NA,NA
37766,Campbell County,TN,NA,32.0945945945946,NA,NA,NA
37801,Blount County,TN,18.120805369127517,NA,NA,NA,NA
37849,Knox County,TN,NA,42.567567567567565,NA,NA,NA
37862,Sevier County,TN,NA,NA,41.067285382830626,NA,NA
37876,Sevier County,TN,NA,NA,68.44547563805105,NA,NA
37919,Knox County,TN,39.59731543624161,NA,NA,NA,NA
37920,Knox County,TN,NA,NA,NA,19.383259911894275,NA
37921,Knox County,TN,NA,24.324324324324326,NA,NA,NA
38053,Shelby County,TN,NA,NA,NA,63.87665198237885,NA
38063,Lauderdale County,TN,53.691275167785236,NA,NA,NA,NA
38372,Hardin County,TN,NA,NA,52.43619489559165,58.590308370044056,NA
75010,Denton County,TX,29.30648769574944,NA,NA,NA,NA
75023,Collin County,TX,NA,NA,NA,NA,55.00000000000001
75025,Collin County,TX,NA,97.97297297297297,NA,NA,NA
75041,Dallas County,TX,44.07158836689038,NA,NA,NA,NA
75042,Dallas County,TX,44.07158836689038,NA,NA,NA,NA
75061,Dallas County,TX,35.123042505592835,NA,NA,NA,NA
75069,Collin County,TX,NA,46.62162162162162,NA,NA,NA
75070,Collin County,TX,NA,NA,NA,12.77533039647577,NA
75087,Rockwall County,TX,65.1006711409396,NA,NA,NA,NA
75110,Navarro County,TX,59.50782997762863,NA,NA,NA,NA
75134,Dallas County,TX,NA,NA,66.8213457076566,NA,NA
75149,Dallas County,TX,NA,14.527027027027026,NA,NA,NA
75208,Dallas County,TX,NA,32.432432432432435,NA,NA,NA
75214,Dallas County,TX,NA,NA,45.47563805104408,NA,NA
75217,Dallas County,TX,NA,8.108108108108109,NA,NA,NA
75220,Dallas County,TX,58.61297539149888,NA,NA,NA,NA
75228,Dallas County,TX,NA,NA,NA,26.431718061674008,NA
75230,Dallas County,TX,43.17673378076063,NA,NA,NA,NA
75686,Camp County,TX,NA,NA,NA,68.72246696035242,NA
75709,Smith County,TX,NA,NA,93.7354988399072,NA,NA
75766,Cherokee County,TX,10.290827740492169,NA,NA,NA,NA
75785,Cherokee County,TX,81.65548098434004,NA,NA,NA,NA
75791,Smith County,TX,NA,NA,NA,54.62555066079295,NA
76028,Johnson County,TX,8.277404921700224,NA,NA,NA,NA
76049,Hood County,TX,NA,NA,NA,25.11013215859031,NA
76051,Tarrant County,TX,NA,62.16216216216216,NA,NA,NA
76066,Parker County,TX,98.43400447427292,NA,NA,NA,NA
76086,Parker County,TX,55.48098434004475,NA,NA,NA,NA
76114,Tarrant County,TX,NA,NA,NA,65.19823788546255,NA
76132,Tarrant County,TX,NA,65.2027027027027,NA,NA,NA
76208,Denton County,TX,NA,72.63513513513513,NA,NA,NA
76240,Cooke County,TX,NA,NA,NA,43.61233480176212,NA
76401,Erath County,TX,NA,52.02702702702703,NA,NA,NA
76528,Coryell County,TX,NA,NA,33.17865429234338,NA,NA
76541,Bell County,TX,NA,NA,48.027842227378194,NA,NA
76574,Williamson County,TX,NA,58.445945945945944,NA,NA,NA
76706,McLennan County,TX,NA,NA,38.97911832946635,NA,NA
76707,McLennan County,TX,NA,NA,NA,NA,83.33333333333334
76901,Tom Green County,TX,NA,NA,NA,NA,87.22222222222223
76904,Tom Green County,TX,NA,NA,NA,47.136563876651984,NA
77005,Harris County,TX,56.59955257270693,NA,NA,NA,NA
77018,Harris County,TX,50.11185682326622,NA,NA,NA,NA
77020,Harris County,TX,NA,NA,NA,NA,88.33333333333333
77028,Harris County,TX,NA,NA,NA,76.65198237885463,NA
77054,Harris County,TX,78.29977628635348,NA,NA,NA,NA
77060,Harris County,TX,NA,NA,NA,NA,91.11111111111111
77064,Harris County,TX,NA,15.202702702702704,NA,NA,NA
77080,Harris County,TX,NA,NA,NA,NA,57.77777777777777
77082,Harris County,TX,18.79194630872483,NA,NA,NA,NA
77083,Harris County,TX,18.568232662192393,NA,NA,NA,NA
77090,Harris County,TX,NA,NA,NA,NA,67.77777777777779
77093,Harris County,TX,NA,26.013513513513516,NA,NA,NA
77301,Montgomery County,TX,NA,45.608108108108105,NA,NA,NA
77327,Liberty County,TX,NA,38.513513513513516,NA,NA,NA
77339,Harris County,TX,46.5324384787472,NA,NA,NA,NA
77375,Harris County,TX,21.476510067114095,NA,NA,NA,NA
77378,Montgomery County,TX,35.79418344519016,NA,NA,NA,NA
77380,Montgomery County,TX,NA,NA,73.78190255220419,NA,NA
77414,Matagorda County,TX,52.12527964205817,NA,NA,NA,NA
77418,Austin County,TX,77.18120805369128,NA,NA,NA,NA
77429,Harris County,TX,7.158836689038031,NA,16.473317865429234,NA,NA
77433,Harris County,TX,28.859060402684566,NA,NA,NA,NA
77441,Fort Bend County,TX,57.71812080536913,NA,NA,NA,NA
77449,Harris County,TX,2.9082774049217,NA,NA,NA,NA
77459,Fort Bend County,TX,16.55480984340045,NA,NA,NA,NA
77471,Fort Bend County,TX,NA,NA,NA,NA,49.44444444444444
77474,Austin County,TX,NA,90.2027027027027,NA,NA,NA
77511,Brazoria County,TX,5.369127516778524,NA,NA,NA,NA
77535,Liberty County,TX,NA,NA,43.619489559164734,NA,NA
77536,Harris County,TX,40.939597315436245,NA,NA,NA,NA
77551,Galveston County,TX,NA,NA,31.322505800464036,NA,NA
77563,Galveston County,TX,NA,75.33783783783784,NA,NA,NA
77573,Galveston County,TX,NA,33.78378378378378,NA,NA,NA
77868,Grimes County,TX,45.41387024608501,NA,NA,NA,NA
78207,Bexar County,TX,NA,5.0675675675675675,NA,NA,NA
78212,Bexar County,TX,NA,NA,59.164733178654295,NA,NA
78219,Bexar County,TX,NA,50.33783783783784,NA,NA,NA
78229,Bexar County,TX,NA,NA,NA,NA,89.44444444444444
78240,Bexar County,TX,17.89709172259508,NA,NA,NA,NA
78245,Bexar County,TX,NA,14.864864864864865,NA,NA,NA
78362,San Patricio County,TX,NA,81.75675675675676,NA,NA,NA
78374,San Patricio County,TX,NA,87.16216216216216,NA,NA,NA
78413,Nueces County,TX,NA,53.37837837837838,NA,NA,NA
78416,Nueces County,TX,NA,NA,83.52668213457076,NA,NA
78550,Cameron County,TX,NA,NA,NA,NA,28.333333333333332
78570,Hidalgo County,TX,NA,2.027027027027027,NA,NA,NA
78577,Hidalgo County,TX,7.38255033557047,NA,32.01856148491879,NA,NA
78586,Cameron County,TX,NA,12.5,NA,NA,NA
78602,Bastrop County,TX,NA,NA,NA,72.68722466960352,NA
78619,Hays County,TX,99.55257270693512,NA,NA,NA,NA
78626,Williamson County,TX,NA,NA,NA,58.14977973568281,NA
78629,Gonzales County,TX,NA,65.54054054054053,NA,NA,NA
78644,Caldwell County,TX,70.46979865771812,NA,NA,NA,NA
78654,Burnet County,TX,63.758389261744966,NA,NA,NA,NA
78664,Williamson County,TX,40.044742729306485,NA,NA,NA,NA
78723,Travis County,TX,NA,NA,61.7169373549884,NA,NA
78739,Travis County,TX,88.14317673378076,NA,NA,NA,NA
78747,Travis County,TX,NA,NA,90.95127610208816,NA,NA
78753,Travis County,TX,NA,NA,63.57308584686775,NA,NA
78757,Travis County,TX,NA,94.93243243243244,NA,NA,NA
79107,Potter County,TX,NA,10.472972972972974,NA,NA,NA
79331,Dawson County,TX,NA,NA,NA,NA,58.88888888888889
79706,Midland County,TX,NA,NA,47.79582366589327,NA,NA
79735,Pecos County,TX,NA,NA,NA,NA,85
79924,El Paso County,TX,NA,NA,NA,NA,18.88888888888889
79938,El Paso County,TX,NA,NA,36.65893271461717,NA,NA
84040,Davis County,UT,NA,95.94594594594594,NA,NA,NA
84041,Davis County,UT,17.225950782997764,NA,NA,NA,NA
84043,Utah County,UT,14.541387024608502,NA,NA,NA,NA
84094,Salt Lake County,UT,NA,99.66216216216216,NA,NA,NA
84097,Utah County,UT,58.61297539149888,NA,NA,NA,NA
84098,Summit County,UT,NA,NA,67.74941995359629,NA,NA
84124,Salt Lake County,UT,NA,NA,79.35034802784223,NA,NA
84601,Utah County,UT,NA,84.7972972972973,NA,NA,NA
05602,Washington County,VT,NA,NA,NA,44.93392070484582,NA
20148,Loudoun County,VA,NA,NA,NA,NA,98.88888888888889
20152,Loudoun County,VA,NA,NA,77.26218097447796,NA,NA
20155,Prince William County,VA,41.83445190156599,NA,NA,NA,NA
20175,Loudoun County,VA,55.48098434004475,NA,NA,NA,NA
22003,Fairfax County,VA,NA,NA,34.80278422273782,NA,NA
22079,Fairfax County,VA,NA,NA,NA,NA,75
22205,Arlington County,VA,71.14093959731544,NA,NA,92.07048458149781,NA
22306,Fairfax County,VA,NA,NA,NA,NA,68.33333333333333
22485,King George County,VA,NA,NA,67.05336426914154,NA,NA
22556,Stafford County,VA,57.04697986577181,NA,NA,NA,NA
22901,Albemarle County,VA,NA,NA,NA,35.68281938325991,NA
22903,Charlottesville city,VA,NA,NA,32.71461716937355,NA,NA
22947,Albemarle County,VA,91.49888143176734,NA,NA,NA,NA
23069,Hanover County,VA,100,NA,NA,NA,NA
23225,Richmond city,VA,NA,NA,19.02552204176334,NA,NA
23226,Richmond city,VA,NA,NA,92.11136890951276,NA,NA
23231,Henrico County,VA,NA,NA,28.538283062645007,NA,NA
23430,Isle of Wight County,VA,NA,NA,69.1415313225058,NA,NA
23452,Virginia Beach city,VA,NA,NA,27.1461716937355,NA,NA
23454,Virginia Beach city,VA,NA,37.16216216216216,NA,NA,NA
23462,Virginia Beach city,VA,NA,NA,NA,NA,1.6666666666666667
23464,Virginia Beach city,VA,NA,31.756756756756754,NA,NA,NA
23503,Norfolk city,VA,NA,43.24324324324324,NA,NA,NA
23608,Newport News city,VA,12.97539149888143,44.932432432432435,NA,NA,NA
24219,Wise County,VA,NA,45.27027027027027,NA,NA,NA
24293,Wise County,VA,NA,80.06756756756756,NA,NA,NA
24501,Lynchburg city,VA,NA,63.85135135135135,NA,NA,NA
24558,Halifax County,VA,NA,NA,NA,83.70044052863436,NA
24577,Halifax County,VA,NA,NA,NA,NA,78.33333333333333
98004,King County,WA,NA,NA,NA,NA,32.77777777777778
98005,King County,WA,71.36465324384787,NA,NA,NA,NA
98027,King County,WA,NA,NA,66.35730858468676,54.18502202643172,NA
98032,King County,WA,NA,NA,NA,NA,96.66666666666667
98040,King County,WA,NA,100,NA,NA,NA
98052,King County,WA,87.02460850111858,NA,NA,NA,NA
98059,King County,WA,NA,NA,48.25986078886311,NA,NA
98092,King County,WA,NA,60.47297297297297,NA,NA,NA
98116,King County,WA,69.79865771812081,NA,NA,NA,NA
98148,King County,WA,NA,91.55405405405406,NA,NA,NA
98204,Snohomish County,WA,48.09843400447427,NA,NA,NA,NA
98208,Snohomish County,WA,17.67337807606264,NA,NA,NA,NA
98273,Skagit County,WA,47.651006711409394,NA,NA,61.23348017621145,NA
98277,Island County,WA,NA,73.3108108108108,NA,NA,NA
98284,Skagit County,WA,NA,NA,NA,NA,14.444444444444443
98290,Snohomish County,WA,NA,83.78378378378379,NA,NA,NA
98296,Snohomish County,WA,46.75615212527964,NA,NA,NA,NA
98312,Kitsap County,WA,NA,NA,NA,71.36563876651982,NA
98338,Pierce County,WA,NA,NA,NA,NA,68.88888888888889
98362,Clallam County,WA,NA,NA,NA,7.048458149779736,NA
98373,Pierce County,WA,21.476510067114095,NA,NA,NA,NA
98390,Pierce County,WA,NA,NA,NA,82.37885462555066,NA
98391,Pierce County,WA,NA,NA,19.489559164733176,NA,NA
98422,Pierce County,WA,66.66666666666666,81.75675675675676,NA,NA,NA
98445,Pierce County,WA,NA,72.2972972972973,NA,NA,NA
98466,Pierce County,WA,NA,NA,61.7169373549884,NA,NA
98499,Pierce County,WA,NA,68.58108108108108,NA,NA,NA
98506,Thurston County,WA,NA,NA,NA,NA,72.77777777777777
98579,Thurston County,WA,NA,91.8918918918919,NA,NA,NA
98903,Yakima County,WA,NA,NA,NA,66.07929515418502,NA
98926,Kittitas County,WA,NA,NA,55.68445475638051,NA,NA
98942,Yakima County,WA,NA,90.87837837837837,NA,NA,NA
99114,Stevens County,WA,NA,NA,93.27146171693735,NA,NA
99122,Lincoln County,WA,97.0917225950783,NA,NA,NA,NA
99301,Franklin County,WA,NA,NA,NA,5.726872246696035,NA
99324,Walla Walla County,WA,NA,94.25675675675676,NA,NA,NA
99337,Benton County,WA,NA,NA,31.09048723897912,NA,NA
20001,District of Columbia,DC,NA,NA,NA,18.06167400881057,NA
20002,District of Columbia,DC,NA,NA,7.424593967517401,NA,NA
20005,District of Columbia,DC,NA,NA,87.00696055684455,NA,NA
20008,District of Columbia,DC,NA,NA,82.36658932714617,NA,NA
20009,District of Columbia,DC,NA,NA,36.19489559164733,NA,NA
20011,District of Columbia,DC,NA,NA,12.296983758700696,NA,NA
20016,District of Columbia,DC,NA,NA,NA,60.792951541850215,NA
20018,District of Columbia,DC,NA,NA,44.5475638051044,NA,NA
24701,Mercer County,WV,NA,35.13513513513514,NA,NA,NA
24844,McDowell County,WV,NA,NA,98.14385150812065,NA,NA
25130,Boone County,WV,NA,74.32432432432432,NA,NA,NA
25177,Kanawha County,WV,NA,53.37837837837838,NA,NA,NA
25311,Kanawha County,WV,NA,NA,71.22969837587007,NA,NA
25506,Lincoln County,WV,NA,NA,91.415313225058,NA,NA
25560,Putnam County,WV,NA,84.7972972972973,NA,NA,NA
25701,Cabell County,WV,NA,NA,20.88167053364269,NA,NA
25704,Wayne County,WV,65.32438478747203,NA,NA,NA,46.111111111111114
25705,Cabell County,WV,NA,NA,51.04408352668214,NA,NA
25801,Raleigh County,WV,NA,43.24324324324324,NA,9.251101321585903,NA
25813,Raleigh County,WV,NA,NA,89.79118329466357,NA,NA
26104,Wood County,WV,NA,NA,39.90719257540603,NA,NA
26105,Wood County,WV,NA,NA,NA,53.74449339207048,NA
26170,Pleasants County,WV,NA,84.7972972972973,NA,NA,NA
26201,Upshur County,WV,NA,18.58108108108108,NA,NA,NA
26330,Harrison County,WV,NA,NA,46.403712296983755,NA,NA
26505,Monongalia County,WV,NA,NA,NA,NA,13.333333333333334
26554,Marion County,WV,NA,NA,6.0324825986078885,NA,NA
26651,Nicholas County,WV,NA,NA,NA,NA,78.33333333333333
26726,Mineral County,WV,NA,NA,44.08352668213457,NA,NA
53012,Ozaukee County,WI,NA,NA,81.20649651972158,NA,NA
53090,Washington County,WI,73.37807606263982,NA,NA,NA,NA
53114,Walworth County,WI,NA,NA,96.05568445475639,NA,NA
53139,Racine County,WI,91.2751677852349,NA,NA,NA,NA
53142,Kenosha County,WI,4.921700223713646,NA,NA,NA,NA
53143,Kenosha County,WI,NA,NA,84.68677494199535,NA,NA
53151,Waukesha County,WI,33.557046979865774,NA,NA,NA,NA
53158,Kenosha County,WI,NA,NA,NA,73.12775330396477,NA
53177,Racine County,WI,NA,NA,NA,NA,90
53207,Milwaukee County,WI,NA,46.95945945945946,NA,NA,NA
53215,Milwaukee County,WI,NA,NA,6.496519721577726,NA,NA
53216,Milwaukee County,WI,NA,NA,9.048723897911833,NA,NA
53217,Milwaukee County,WI,22.371364653243848,NA,NA,NA,NA
53218,Milwaukee County,WI,NA,8.783783783783784,NA,NA,NA
53520,Green County,WI,NA,NA,NA,64.75770925110133,NA
53546,Rock County,WI,NA,NA,23.4338747099768,NA,NA
53548,Rock County,WI,NA,NA,29.930394431554525,NA,NA
53563,Rock County,WI,NA,NA,80.51044083526682,NA,NA
53573,Grant County,WI,NA,97.2972972972973,NA,NA,NA
53575,Dane County,WI,NA,89.86486486486487,NA,NA,NA
53704,Dane County,WI,NA,NA,NA,NA,36.11111111111111
53811,Grant County,WI,84.56375838926175,NA,NA,NA,NA
54130,Outagamie County,WI,65.99552572706935,NA,NA,NA,NA
54220,Manitowoc County,WI,NA,NA,9.280742459396752,NA,NA
54403,Marathon County,WI,NA,NA,45.707656612529,NA,10
54481,Portage County,WI,NA,NA,NA,NA,59.44444444444444
54650,La Crosse County,WI,NA,NA,NA,NA,20.555555555555554
54656,Monroe County,WI,NA,NA,NA,48.01762114537445,NA
54661,Trempealeau County,WI,93.95973154362416,NA,NA,NA,NA
54729,Chippewa County,WI,NA,NA,NA,27.75330396475771,NA
54868,Barron County,WI,NA,NA,67.51740139211137,NA,NA
54893,Burnett County,WI,NA,NA,NA,92.51101321585902,NA
54961,Waupaca County,WI,NA,NA,59.62877030162414,NA,NA
82201,Platte County,WY,NA,NA,NA,94.7136563876652,NA
82609,Natrona County,WY,NA,NA,NA,NA,93.33333333333333
82718,Campbell County,WY,34.675615212527966,NA,NA,NA,NA
82901,Sweetwater County,WY,70.917225950783,NA,NA,NA,NA
