ZipCode,county,state,Adult,Retirement,Geriatric
35055,Cullman County,AL,60.3448275862069,NA,NA
35150,Talladega County,AL,NA,62.98507462686567,NA
35211,Jefferson County,AL,70.47413793103449,NA,NA
35212,Jefferson County,AL,NA,NA,96.3855421686747
35404,Tuscaloosa County,AL,NA,NA,74.09638554216868
35634,Lauderdale County,AL,NA,NA,97.59036144578313
35761,Madison County,AL,79.52586206896551,NA,NA
35904,Etowah County,AL,NA,86.26865671641791,NA
36066,Autauga County,AL,NA,62.68656716417911,NA
36067,Autauga County,AL,NA,NA,70.48192771084338
36551,Baldwin County,AL,81.46551724137932,NA,NA
99611,Kenai Peninsula Borough,AK,NA,NA,95.18072289156626
99709,Fairbanks North Star Borough,AK,NA,84.17910447761194,NA
85004,Maricopa County,AZ,90.51724137931035,NA,NA
85015,Maricopa County,AZ,23.275862068965516,NA,NA
85020,Maricopa County,AZ,42.456896551724135,NA,NA
85024,Maricopa County,AZ,78.01724137931035,NA,NA
85029,Maricopa County,AZ,26.50862068965517,NA,NA
85035,Maricopa County,AZ,NA,64.17910447761194,NA
85051,Maricopa County,AZ,18.96551724137931,NA,NA
85119,Pinal County,AZ,NA,47.76119402985074,NA
85132,Pinal County,AZ,NA,69.85074626865672,NA
85142,Maricopa County,AZ,12.068965517241379,NA,NA
85201,Maricopa County,AZ,NA,35.52238805970149,NA
85204,Maricopa County,AZ,18.318965517241377,NA,NA
85210,Maricopa County,AZ,NA,85.07462686567165,NA
85225,Maricopa County,AZ,14.00862068965517,NA,NA
85256,Maricopa County,AZ,89.4396551724138,NA,NA
85301,Maricopa County,AZ,4.956896551724138,NA,NA
85339,Maricopa County,AZ,NA,55.223880597014926,NA
85344,La Paz County,AZ,NA,37.014925373134325,NA
85345,Maricopa County,AZ,14.655172413793101,NA,NA
85351,Maricopa County,AZ,NA,43.28358208955223,NA
85392,Maricopa County,AZ,59.91379310344828,NA,NA
85747,Pima County,AZ,NA,82.38805970149254,NA
85756,Pima County,AZ,39.008620689655174,66.86567164179105,NA
85925,Apache County,AZ,NA,98.80597014925372,NA
85941,Apache County,AZ,77.37068965517241,NA,NA
86323,Yavapai County,AZ,56.46551724137932,NA,NA
86409,Mohave County,AZ,36.853448275862064,NA,NA
86413,Mohave County,AZ,64.4396551724138,NA,NA
71742,Dallas County,AR,96.76724137931035,NA,NA
71854,Miller County,AR,NA,29.253731343283583,NA
71913,Garland County,AR,42.241379310344826,NA,NA
72401,Craighead County,AR,20.25862068965517,NA,NA
72476,Lawrence County,AR,NA,NA,92.16867469879519
72753,Washington County,AR,90.08620689655173,NA,NA
72758,Benton County,AR,64.87068965517241,NA,NA
90001,Los Angeles County,CA,51.939655172413794,NA,NA
90019,Los Angeles County,CA,NA,28.65671641791045,NA
90025,Los Angeles County,CA,NA,NA,33.734939759036145
90031,Los Angeles County,CA,NA,73.73134328358208,NA
90032,Los Angeles County,CA,NA,61.49253731343284,NA
90057,Los Angeles County,CA,44.827586206896555,26.865671641791046,NA
90250,Los Angeles County,CA,28.23275862068966,NA,NA
90302,Los Angeles County,CA,NA,NA,93.37349397590361
90731,Los Angeles County,CA,34.69827586206897,NA,NA
91042,Los Angeles County,CA,78.23275862068965,NA,NA
91103,Los Angeles County,CA,78.87931034482759,NA,NA
91206,Los Angeles County,CA,NA,58.507462686567166,NA
91320,Ventura County,CA,NA,83.88059701492537,NA
91711,Los Angeles County,CA,NA,34.626865671641795,NA
91766,Los Angeles County,CA,NA,49.55223880597015,NA
91776,Los Angeles County,CA,NA,88.95522388059702,NA
91911,San Diego County,CA,NA,NA,4.216867469879518
91932,San Diego County,CA,NA,84.77611940298507,NA
91977,San Diego County,CA,39.439655172413794,NA,NA
92004,San Diego County,CA,100,NA,NA
92008,San Diego County,CA,NA,NA,34.33734939759036
92037,San Diego County,CA,84.26724137931035,NA,NA
92084,San Diego County,CA,63.577586206896555,NA,NA
92101,San Diego County,CA,50.646551724137936,NA,NA
92113,San Diego County,CA,62.93103448275862,NA,NA
92114,San Diego County,CA,NA,30.74626865671642,NA
92264,Riverside County,CA,NA,45.37313432835821,NA
92284,San Bernardino County,CA,30.17241379310345,NA,NA
92316,San Bernardino County,CA,56.25,NA,NA
92335,San Bernardino County,CA,11.422413793103448,NA,NA
92382,San Bernardino County,CA,NA,96.71641791044776,NA
92503,Riverside County,CA,NA,NA,31.92771084337349
92504,Riverside County,CA,NA,56.71641791044776,NA
92545,Riverside County,CA,48.275862068965516,NA,NA
92604,Orange County,CA,NA,NA,87.95180722891565
92647,Orange County,CA,NA,24.47761194029851,NA
92840,Orange County,CA,NA,40,NA
92865,Orange County,CA,NA,85.67164179104478,NA
92882,Riverside County,CA,32.758620689655174,NA,NA
93001,Ventura County,CA,NA,68.65671641791045,NA
93212,Kings County,CA,NA,96.41791044776119,NA
93274,Tulare County,CA,6.25,NA,NA
93291,Tulare County,CA,NA,38.80597014925373,NA
93306,Kern County,CA,57.11206896551724,NA,NA
93307,Kern County,CA,16.163793103448278,NA,NA
93436,Santa Barbara County,CA,70.90517241379311,NA,NA
93446,San Luis Obispo County,CA,30.603448275862068,NA,NA
93550,Los Angeles County,CA,NA,NA,46.3855421686747
93555,Kern County,CA,NA,NA,69.87951807228916
93618,Tulare County,CA,NA,76.71641791044776,NA
93722,Fresno County,CA,10.560344827586206,NA,NA
93723,Fresno County,CA,NA,NA,93.97590361445783
94024,Santa Clara County,CA,NA,73.43283582089552,NA
94066,San Mateo County,CA,NA,NA,8.433734939759036
94102,San Francisco County,CA,9.267241379310345,NA,NA
94105,San Francisco County,CA,NA,95.22388059701493,NA
94108,San Francisco County,CA,NA,93.13432835820895,NA
94114,San Francisco County,CA,NA,NA,42.77108433734939
94517,Contra Costa County,CA,98.0603448275862,NA,NA
94545,Alameda County,CA,80.81896551724138,NA,NA
94565,Contra Costa County,CA,NA,11.044776119402986,NA
94582,Contra Costa County,CA,73.92241379310344,NA,NA
94591,Solano County,CA,NA,42.08955223880597,NA
94607,Alameda County,CA,90.73275862068965,NA,NA
94611,Alameda County,CA,NA,26.268656716417908,NA
94612,Alameda County,CA,80.38793103448276,NA,NA
94706,Alameda County,CA,92.45689655172413,NA,NA
95035,Santa Clara County,CA,54.741379310344826,NA,NA
95210,San Joaquin County,CA,45.043103448275865,NA,NA
95240,San Joaquin County,CA,NA,48.95522388059702,41.566265060240966
95249,Calaveras County,CA,NA,98.50746268656717,NA
95350,Stanislaus County,CA,22.844827586206897,NA,NA
95361,Stanislaus County,CA,76.72413793103449,NA,NA
95403,Sonoma County,CA,92.67241379310344,NA,NA
95423,Lake County,CA,94.61206896551724,NA,NA
95562,Humboldt County,CA,98.27586206896551,NA,NA
95624,Sacramento County,CA,NA,65.07462686567163,NA
95660,Sacramento County,CA,NA,NA,89.7590361445783
95687,Solano County,CA,44.18103448275862,NA,NA
95758,Sacramento County,CA,NA,NA,32.53012048192771
95816,Sacramento County,CA,NA,NA,78.3132530120482
95821,Sacramento County,CA,49.353448275862064,NA,NA
95826,Sacramento County,CA,57.974137931034484,NA,NA
95827,Sacramento County,CA,NA,NA,65.06024096385542
95926,Butte County,CA,38.146551724137936,NA,NA
95945,Nevada County,CA,62.28448275862068,NA,NA
95953,Sutter County,CA,NA,NA,96.98795180722891
96001,Shasta County,CA,NA,NA,39.1566265060241
80015,Arapahoe County,CO,21.551724137931032,NA,NA
80030,Adams County,CO,NA,NA,88.55421686746988
80033,Jefferson County,CO,55.172413793103445,NA,NA
80109,Douglas County,CO,74.56896551724138,NA,NA
80120,Arapahoe County,CO,NA,52.537313432835816,NA
80209,Denver County,CO,68.10344827586206,NA,NA
80219,Denver County,CO,27.801724137931032,NA,NA
80222,Denver County,CO,48.491379310344826,NA,NA
80231,Denver County,CO,44.396551724137936,NA,NA
80401,Jefferson County,CO,41.37931034482759,NA,NA
80516,Weld County,CO,71.55172413793103,NA,NA
80621,Weld County,CO,79.09482758620689,NA,NA
80634,Weld County,CO,NA,NA,5.421686746987952
81201,Chaffee County,CO,NA,78.50746268656717,NA
81506,Mesa County,CO,91.8103448275862,NA,NA
06042,Hartford County,CT,NA,79.70149253731343,NA
06106,Hartford County,CT,NA,18.507462686567163,NA
06241,Windham County,CT,67.24137931034483,NA,NA
06401,New Haven County,CT,NA,66.26865671641791,NA
06457,Middlesex County,CT,8.405172413793103,NA,NA
06484,Fairfield County,CT,40.08620689655172,NA,NA
06770,New Haven County,CT,NA,28.35820895522388,NA
19701,New Castle County,DE,30.81896551724138,NA,NA
19808,New Castle County,DE,NA,NA,3.614457831325301
32055,Columbia County,FL,47.19827586206897,NA,NA
32064,Suwannee County,FL,85.12931034482759,NA,NA
32117,Volusia County,FL,37.28448275862069,NA,NA
32127,Volusia County,FL,65.94827586206897,NA,NA
32148,Putnam County,FL,NA,74.32835820895522,NA
32223,Duval County,FL,NA,NA,40.36144578313253
32234,Duval County,FL,84.48275862068965,NA,NA
32244,Duval County,FL,5.603448275862069,NA,NA
32277,Duval County,FL,NA,46.865671641791046,NA
32401,Bay County,FL,43.103448275862064,NA,NA
32425,Holmes County,FL,58.620689655172406,NA,NA
32547,Okaloosa County,FL,48.706896551724135,NA,NA
32566,Santa Rosa County,FL,39.224137931034484,NA,NA
32570,Santa Rosa County,FL,NA,6.865671641791045,NA
32606,Alachua County,FL,38.146551724137936,31.64179104477612,NA
32609,Alachua County,FL,NA,54.328358208955216,NA
32696,Levy County,FL,NA,53.13432835820896,NA
32701,Seminole County,FL,NA,NA,50
32746,Seminole County,FL,NA,NA,49.39759036144578
32812,Orange County,FL,40.73275862068966,NA,NA
32922,Brevard County,FL,54.310344827586206,NA,NA
32966,Indian River County,FL,80.17241379310344,NA,NA
33033,Miami-Dade County,FL,77.15517241379311,NA,NA
33063,Broward County,FL,NA,NA,6.626506024096386
33140,Miami-Dade County,FL,NA,71.64179104477611,NA
33180,Miami-Dade County,FL,NA,48.059701492537314,NA
33185,Miami-Dade County,FL,NA,74.6268656716418,NA
33189,Miami-Dade County,FL,88.36206896551724,NA,NA
33313,Broward County,FL,NA,44.17910447761194,NA
33405,Palm Beach County,FL,NA,NA,73.49397590361446
33410,Palm Beach County,FL,55.38793103448276,NA,NA
33415,Palm Beach County,FL,NA,NA,46.98795180722892
33433,Palm Beach County,FL,64.65517241379311,NA,NA
33435,Palm Beach County,FL,NA,59.40298507462687,NA
33542,Pasco County,FL,60.129310344827594,NA,NA
33604,Hillsborough County,FL,NA,42.68656716417911,NA
33615,Hillsborough County,FL,32.327586206896555,NA,NA
33629,Hillsborough County,FL,75.64655172413794,NA,NA
33712,Pinellas County,FL,NA,NA,56.024096385542165
33713,Pinellas County,FL,58.189655172413794,NA,NA
33844,Polk County,FL,43.75,NA,NA
33914,Lee County,FL,NA,19.402985074626866,NA
34108,Collier County,FL,89.65517241379311,NA,NA
34212,Manatee County,FL,82.97413793103449,NA,NA
34429,Citrus County,FL,NA,NA,65.66265060240963
34655,Pasco County,FL,37.06896551724138,NA,NA
34668,Pasco County,FL,14.224137931034484,NA,NA
34690,Pasco County,FL,NA,81.19402985074626,NA
34748,Lake County,FL,24.353448275862068,NA,NA
34947,St. Lucie County,FL,83.1896551724138,NA,NA
30047,Gwinnett County,GA,85.99137931034483,NA,NA
30052,Walton County,GA,22.198275862068968,NA,NA
30066,Cobb County,GA,53.23275862068966,29.55223880597015,NA
30067,Cobb County,GA,65.73275862068965,NA,NA
30101,Cobb County,GA,NA,29.850746268656714,NA
30103,Bartow County,GA,NA,81.7910447761194,NA
30122,Douglas County,GA,60.775862068965516,NA,NA
30144,Cobb County,GA,NA,NA,48.19277108433735
30157,Paulding County,GA,30.387931034482758,NA,NA
30310,Fulton County,GA,26.72413793103448,NA,NA
30512,Union County,GA,NA,NA,76.50602409638554
30720,Whitfield County,GA,58.83620689655172,NA,NA
30721,Whitfield County,GA,28.01724137931034,47.462686567164184,36.144578313253014
30728,Walker County,GA,41.810344827586206,NA,NA
30736,Catoosa County,GA,NA,23.582089552238806,NA
30809,Columbia County,GA,NA,68.35820895522387,NA
30814,Columbia County,GA,83.40517241379311,NA,NA
30907,Columbia County,GA,29.95689655172414,NA,NA
30909,Richmond County,GA,NA,NA,16.867469879518072
31024,Putnam County,GA,61.206896551724135,NA,NA
31405,Chatham County,GA,NA,41.492537313432834,NA
31520,Glynn County,GA,NA,NA,57.831325301204814
31714,Turner County,GA,NA,91.34328358208955,NA
31904,Muscogee County,GA,35.12931034482759,NA,NA
39819,Decatur County,GA,NA,NA,66.86746987951807
96707,Honolulu County,HI,73.27586206896551,NA,NA
96734,Honolulu County,HI,74.35344827586206,NA,NA
96741,Kauai County,HI,NA,99.1044776119403,NA
96756,Kauai County,HI,NA,94.92537313432837,NA
96762,Honolulu County,HI,99.78448275862068,NA,NA
96822,Honolulu County,HI,NA,NA,57.22891566265061
83301,Twin Falls County,ID,NA,NA,1.8072289156626504
83401,Bonneville County,ID,19.612068965517242,NA,NA
83501,Nez Perce County,ID,18.53448275862069,NA,NA
83617,Gem County,ID,75.43103448275862,NA,NA
83642,Ada County,ID,NA,10.746268656716417,NA
83835,Kootenai County,ID,NA,85.37313432835822,NA
60015,Lake County,IL,NA,65.3731343283582,NA
60022,Cook County,IL,NA,82.68656716417911,NA
60025,Cook County,IL,NA,NA,2.4096385542168677
60061,Lake County,IL,70.6896551724138,NA,NA
60073,Lake County,IL,20.905172413793103,NA,NA
60077,Cook County,IL,NA,68.05970149253731,NA
60093,Cook County,IL,81.03448275862068,NA,NA
60103,DuPage County,IL,31.896551724137932,NA,NA
60143,DuPage County,IL,NA,92.53731343283582,NA
60148,DuPage County,IL,NA,7.164179104477612,NA
60402,Cook County,IL,13.36206896551724,NA,NA
60409,Cook County,IL,34.05172413793103,NA,NA
60419,Cook County,IL,NA,38.2089552238806,NA
60425,Cook County,IL,83.62068965517241,NA,NA
60453,Cook County,IL,NA,11.940298507462686,NA
60465,Cook County,IL,81.68103448275862,NA,NA
60475,Will County,IL,82.75862068965517,NA,NA
60540,DuPage County,IL,NA,NA,27.10843373493976
60546,Cook County,IL,53.879310344827594,NA,NA
60623,Cook County,IL,33.83620689655172,NA,NA
60625,Cook County,IL,12.931034482758621,NA,NA
60626,Cook County,IL,23.92241379310345,NA,NA
60634,Cook County,IL,12.284482758620689,NA,NA
61032,Stephenson County,IL,72.62931034482759,NA,NA
61101,Winnebago County,IL,53.66379310344828,NA,NA
61265,Rock Island County,IL,NA,NA,10.240963855421686
61364,LaSalle County,IL,NA,56.71641791044776,NA
61571,Tazewell County,IL,NA,54.62686567164179,NA
61604,Peoria County,IL,46.55172413793103,NA,NA
61701,McLean County,IL,NA,32.23880597014925,NA
62002,Madison County,IL,68.75,NA,NA
62221,St. Clair County,IL,NA,NA,56.62650602409639
62230,Clinton County,IL,NA,NA,65.66265060240963
62231,Clinton County,IL,NA,NA,50.602409638554214
62305,Adams County,IL,NA,63.28358208955224,NA
62864,Jefferson County,IL,NA,NA,28.313253012048197
62948,Williamson County,IL,NA,NA,58.43373493975904
46012,Madison County,IN,42.887931034482754,NA,NA
46040,Hancock County,IN,86.85344827586206,NA,NA
46140,Hancock County,IN,32.758620689655174,NA,NA
46142,Johnson County,IN,49.56896551724138,NA,NA
46143,Johnson County,IN,NA,20.597014925373134,NA
46151,Morgan County,IN,NA,NA,23.49397590361446
46221,Marion County,IN,33.62068965517241,NA,NA
46228,Marion County,IN,NA,NA,75.90361445783132
46235,Marion County,IN,24.137931034482758,NA,NA
46323,Lake County,IN,NA,20.8955223880597,NA
46375,Lake County,IN,35.991379310344826,NA,NA
46392,Jasper County,IN,NA,86.26865671641791,NA
46406,Lake County,IN,68.96551724137932,NA,NA
46407,Lake County,IN,52.370689655172406,NA,NA
46410,Lake County,IN,NA,51.94029850746269,NA
46703,Steuben County,IN,82.54310344827587,NA,NA
46706,DeKalb County,IN,NA,NA,26.506024096385545
46733,Adams County,IN,NA,50.74626865671642,NA
46952,Grant County,IN,NA,8.059701492537313,NA
46992,Wabash County,IN,NA,44.776119402985074,NA
47119,Floyd County,IN,NA,89.25373134328358,NA
47130,Clark County,IN,11.206896551724139,NA,NA
47362,Henry County,IN,NA,15.223880597014924,55.42168674698795
47394,Randolph County,IN,NA,NA,45.78313253012048
47803,Vigo County,IN,66.16379310344827,NA,NA
47882,Sullivan County,IN,NA,78.80597014925374,NA
50023,Polk County,IA,NA,NA,78.91566265060241
50613,Black Hawk County,IA,NA,48.656716417910445,NA
50703,Black Hawk County,IA,NA,34.02985074626866,NA
51503,Pottawattamie County,IA,NA,5.3731343283582085,NA
52632,Lee County,IA,NA,NA,62.048192771084345
66053,Miami County,KS,NA,96.11940298507463,NA
66223,Johnson County,KS,NA,86.86567164179104,NA
67207,Sedgwick County,KS,NA,82.08955223880598,NA
67801,Ford County,KS,63.793103448275865,NA,NA
40006,Trimble County,KY,93.31896551724138,NA,NA
40031,Oldham County,KY,36.422413793103445,NA,NA
40118,Jefferson County,KY,59.05172413793104,NA,NA
40165,Bullitt County,KY,17.67241379310345,NA,NA
40203,Jefferson County,KY,NA,42.98507462686567,NA
40216,Jefferson County,KY,NA,16.119402985074625,NA
40218,Jefferson County,KY,16.379310344827587,NA,NA
40241,Jefferson County,KY,55.81896551724138,NA,NA
40272,Jefferson County,KY,16.594827586206897,NA,NA
40383,Woodford County,KY,NA,45.67164179104478,NA
40391,Clark County,KY,10.344827586206897,NA,NA
40511,Fayette County,KY,NA,52.23880597014925,NA
40517,Fayette County,KY,NA,NA,37.95180722891566
40729,Laurel County,KY,NA,NA,100
40769,Whitley County,KY,37.71551724137931,NA,NA
41001,Campbell County,KY,70.25862068965517,NA,NA
41018,Kenton County,KY,NA,NA,54.81927710843374
41031,Harrison County,KY,NA,41.7910447761194,NA
41035,Grant County,KY,NA,NA,72.89156626506023
41040,Pendleton County,KY,72.41379310344827,NA,NA
42066,Graves County,KY,NA,24.17910447761194,NA
42104,Warren County,KY,77.58620689655173,NA,NA
42129,Metcalfe County,KY,62.71551724137932,NA,NA
42134,Simpson County,KY,NA,71.94029850746269,NA
42303,Daviess County,KY,NA,22.08955223880597,NA
42754,Grayson County,KY,NA,92.83582089552239,NA
70001,Jefferson Parish,LA,NA,14.328358208955224,NA
70056,Jefferson Parish,LA,4.741379310344827,NA,NA
70065,Jefferson Parish,LA,NA,3.2835820895522385,NA
70072,Jefferson Parish,LA,85.77586206896551,NA,3.0120481927710845
70127,Orleans Parish,LA,7.974137931034483,NA,NA
70131,Orleans Parish,LA,NA,36.417910447761194,NA
70460,St. Tammany Parish,LA,NA,32.537313432835816,NA
70461,St. Tammany Parish,LA,NA,22.98507462686567,NA
70535,St. Landry Parish,LA,31.03448275862069,NA,NA
70802,East Baton Rouge Parish,LA,6.4655172413793105,NA,NA
71111,Bossier Parish,LA,NA,18.80597014925373,NA
71112,Bossier Parish,LA,14.870689655172415,NA,NA
71251,Jackson Parish,LA,52.58620689655172,NA,NA
71373,Concordia Parish,LA,85.5603448275862,NA,NA
03909,York County,ME,58.4051724137931,NA,NA
04005,York County,ME,NA,NA,7.83132530120482
04043,York County,ME,87.28448275862068,NA,20.481927710843372
04073,York County,ME,NA,NA,40.36144578313253
04282,Androscoggin County,ME,NA,NA,94.57831325301204
04843,Knox County,ME,94.61206896551724,NA,NA
04915,Waldo County,ME,NA,37.61194029850746,NA
21014,Harford County,MD,46.76724137931034,NA,NA
21043,Howard County,MD,74.13793103448276,NA,NA
21122,Anne Arundel County,MD,9.698275862068966,NA,NA
21236,Baltimore County,MD,NA,43.88059701492537,NA
21239,Baltimore city,MD,NA,NA,19.879518072289155
21742,Washington County,MD,NA,NA,29.518072289156628
01040,Hampden County,MA,NA,20,NA
01238,Berkshire County,MA,NA,NA,79.51807228915662
01267,Berkshire County,MA,NA,74.02985074626865,NA
01331,Worcester County,MA,26.07758620689655,NA,NA
01420,Worcester County,MA,NA,20.298507462686565,NA
01569,Worcester County,MA,97.84482758620689,NA,NA
01610,Worcester County,MA,67.67241379310344,4.477611940298507,NA
01701,Middlesex County,MA,NA,8.955223880597014,NA
01746,Middlesex County,MA,NA,39.40298507462687,NA
01749,Middlesex County,MA,NA,NA,43.373493975903614
01810,Essex County,MA,48.922413793103445,NA,NA
01826,Middlesex County,MA,4.525862068965517,NA,NA
01844,Essex County,MA,NA,3.582089552238806,NA
01852,Middlesex County,MA,0.21551724137931033,NA,NA
01863,Middlesex County,MA,NA,NA,89.1566265060241
01913,Essex County,MA,NA,13.432835820895523,NA
01915,Essex County,MA,2.3706896551724137,NA,NA
02025,Norfolk County,MA,95.04310344827587,NA,NA
02026,Norfolk County,MA,NA,19.701492537313435,NA
02035,Norfolk County,MA,36.637931034482754,NA,NA
02093,Norfolk County,MA,61.853448275862064,NA,NA
02115,Suffolk County,MA,6.896551724137931,NA,NA
02122,Suffolk County,MA,NA,1.1940298507462688,NA
02124,Suffolk County,MA,0.8620689655172413,NA,NA
02148,Middlesex County,MA,NA,0,NA
02155,Middlesex County,MA,1.5086206896551724,NA,NA
02184,Norfolk County,MA,NA,10.44776119402985,NA
02186,Norfolk County,MA,17.24137931034483,NA,NA
02188,Norfolk County,MA,NA,40.298507462686565,NA
02301,Plymouth County,MA,NA,13.134328358208954,NA
02332,Plymouth County,MA,90.94827586206897,NA,NA
02346,Plymouth County,MA,NA,46.56716417910447,NA
02382,Plymouth County,MA,NA,NA,98.79518072289156
02458,Middlesex County,MA,53.01724137931034,NA,NA
02492,Norfolk County,MA,65.51724137931035,NA,NA
02540,Barnstable County,MA,NA,39.701492537313435,NA
02632,Barnstable County,MA,54.525862068965516,NA,NA
02633,Barnstable County,MA,NA,90.74626865671642,NA
02740,Bristol County,MA,0,NA,NA
48044,Macomb County,MI,9.482758620689655,NA,NA
48073,Oakland County,MI,33.189655172413794,NA,NA
48076,Oakland County,MI,70.04310344827587,NA,NA
48103,Washtenaw County,MI,19.82758620689655,NA,NA
48146,Wayne County,MI,9.913793103448276,NA,NA
48161,Monroe County,MI,NA,22.98507462686567,NA
48170,Wayne County,MI,16.810344827586206,NA,1.2048192771084338
48180,Wayne County,MI,NA,NA,0.6024096385542169
48193,Wayne County,MI,NA,NA,30.120481927710845
48227,Wayne County,MI,21.336206896551722,NA,NA
48239,Wayne County,MI,10.129310344827585,14.029850746268657,NA
48310,Macomb County,MI,NA,16.417910447761194,NA
48323,Oakland County,MI,NA,NA,27.710843373493976
48340,Oakland County,MI,12.5,NA,NA
48371,Oakland County,MI,41.5948275862069,NA,NA
48420,Genesee County,MI,51.724137931034484,NA,NA
48423,Genesee County,MI,35.560344827586206,NA,NA
48629,Roscommon County,MI,98.49137931034483,NA,NA
48638,Saginaw County,MI,63.146551724137936,NA,NA
48642,Midland County,MI,NA,9.850746268656717,NA
48827,Eaton County,MI,48.060344827586206,NA,NA
49015,Calhoun County,MI,21.120689655172413,NA,NA
49022,Berrien County,MI,NA,16.716417910447763,NA
49048,Kalamazoo County,MI,NA,33.43283582089553,NA
49058,Barry County,MI,34.48275862068966,40.59701492537313,NA
49079,Van Buren County,MI,NA,NA,59.036144578313255
49093,St. Joseph County,MI,NA,39.1044776119403,NA
49203,Jackson County,MI,NA,9.253731343283581,NA
49286,Lenawee County,MI,NA,49.850746268656714,NA
49431,Mason County,MI,NA,27.761194029850746,NA
49509,Kent County,MI,15.301724137931034,NA,NA
49519,Kent County,MI,53.44827586206896,NA,NA
49651,Missaukee County,MI,NA,97.91044776119404,NA
49684,Grand Traverse County,MI,NA,NA,16.265060240963855
49738,Crawford County,MI,91.37931034482759,NA,NA
49946,Baraga County,MI,94.39655172413794,NA,NA
55016,Washington County,MN,46.98275862068966,NA,NA
55021,Rice County,MN,42.025862068965516,NA,NA
55045,Chisago County,MN,NA,76.4179104477612,NA
55105,Ramsey County,MN,NA,89.8507462686567,NA
55106,Ramsey County,MN,31.896551724137932,NA,NA
55301,Wright County,MN,NA,99.70149253731343,NA
55305,Hennepin County,MN,82.11206896551724,NA,NA
55313,Wright County,MN,NA,NA,61.44578313253012
55376,Wright County,MN,NA,NA,81.32530120481928
55404,Hennepin County,MN,10.991379310344827,NA,NA
55406,Hennepin County,MN,28.879310344827587,31.343283582089555,NA
55411,Hennepin County,MN,86.63793103448276,NA,NA
55419,Hennepin County,MN,NA,61.791044776119406,NA
55420,Hennepin County,MN,NA,59.70149253731343,NA
55430,Hennepin County,MN,22.629310344827587,NA,NA
56073,Brown County,MN,25.646551724137932,NA,NA
56258,Lyon County,MN,NA,58.2089552238806,NA
56301,Stearns County,MN,NA,71.04477611940298,NA
56353,Mille Lacs County,MN,NA,87.76119402985074,NA
56358,Kanabec County,MN,98.92241379310344,NA,NA
56621,Clearwater County,MN,NA,NA,25.301204819277107
38611,Marshall County,MS,NA,NA,84.93975903614458
38618,Tate County,MS,NA,NA,98.19277108433735
38651,DeSoto County,MS,93.75,NA,NA
38654,DeSoto County,MS,26.939655172413797,NA,NA
38732,Bolivar County,MS,43.31896551724138,NA,NA
38965,Yalobusha County,MS,NA,NA,63.85542168674698
39059,Copiah County,MS,NA,NA,83.73493975903614
39401,Forrest County,MS,69.61206896551724,NA,NA
39475,Lamar County,MS,92.88793103448276,NA,NA
39553,Jackson County,MS,51.077586206896555,NA,NA
63107,St. Louis city,MO,NA,77.01492537313432,NA
63113,St. Louis city,MO,69.18103448275862,NA,68.67469879518072
63117,St. Louis County,MO,NA,NA,84.33734939759037
63133,St. Louis County,MO,84.05172413793103,NA,NA
63379,Lincoln County,MO,67.02586206896551,NA,NA
63390,Warren County,MO,NA,92.23880597014926,NA
63801,Scott County,MO,NA,31.94029850746269,NA
64012,Cass County,MO,NA,28.059701492537314,NA
64024,Clay County,MO,21.982758620689655,NA,NA
64029,Jackson County,MO,45.474137931034484,NA,NA
64030,Jackson County,MO,21.767241379310345,NA,NA
64070,Jackson County,MO,NA,99.40298507462687,NA
64132,Jackson County,MO,20.04310344827586,NA,NA
64157,Clay County,MO,NA,67.16417910447761,NA
64503,Buchanan County,MO,29.74137931034483,NA,NA
64601,Livingston County,MO,NA,45.97014925373134,NA
64801,Jasper County,MO,15.086206896551724,NA,NA
65041,Gasconade County,MO,NA,NA,80.72289156626506
65202,Boone County,MO,63.36206896551724,NA,NA
65251,Callaway County,MO,33.4051724137931,NA,NA
65270,Randolph County,MO,66.59482758620689,NA,NA
65616,Taney County,MO,41.16379310344828,NA,NA
65742,Webster County,MO,NA,77.91044776119404,NA
65781,Greene County,MO,NA,94.02985074626866,NA
59011,Sweet Grass County,MT,99.56896551724138,NA,NA
59270,Richland County,MT,NA,67.76119402985074,NA
59404,Cascade County,MT,NA,14.626865671641792,NA
59801,Missoula County,MT,NA,NA,52.40963855421686
59937,Flathead County,MT,NA,91.94029850746269,NA
68008,Washington County,NE,89.00862068965517,NA,NA
68117,Douglas County,NE,92.24137931034483,NA,NA
68128,Sarpy County,NE,NA,NA,83.13253012048193
68516,Lancaster County,NE,NA,NA,38.55421686746988
68632,Butler County,NE,99.35344827586206,NA,NA
68949,Phelps County,NE,NA,NA,59.63855421686747
69001,Red Willow County,NE,NA,93.43283582089552,NA
89103,Clark County,NV,56.896551724137936,NA,NA
89117,Clark County,NV,NA,37.91044776119403,NA
89122,Clark County,NV,NA,51.64179104477612,NA
89166,Clark County,NV,67.88793103448276,NA,NA
89434,Washoe County,NV,49.78448275862069,NA,NA
03055,Hillsborough County,NH,87.5,NA,NA
03060,Hillsborough County,NH,74.78448275862068,NA,NA
03076,Hillsborough County,NH,50.86206896551724,NA,NA
03103,Hillsborough County,NH,5.818965517241379,NA,NA
03110,Hillsborough County,NH,62.5,NA,NA
03570,Coos County,NH,NA,82.98507462686567,NA
03581,Coos County,NH,95.47413793103449,NA,NA
07058,Morris County,NJ,97.41379310344827,NA,NA
07087,Hudson County,NJ,NA,6.567164179104477,NA
07109,Essex County,NJ,18.75,NA,NA
07305,Hudson County,NJ,0.646551724137931,2.3880597014925375,NA
07307,Hudson County,NJ,NA,NA,25.903614457831324
07601,Bergen County,NJ,NA,7.462686567164178,NA
07631,Bergen County,NJ,NA,NA,82.53012048192771
07660,Bergen County,NJ,68.31896551724138,NA,NA
07734,Monmouth County,NJ,24.78448275862069,NA,NA
07753,Monmouth County,NJ,NA,64.77611940298507,NA
07801,Morris County,NJ,NA,NA,31.32530120481928
08002,Camden County,NJ,25.21551724137931,NA,NA
08004,Camden County,NJ,NA,63.582089552238806,NA
08021,Camden County,NJ,NA,10.149253731343283,NA
08033,Camden County,NJ,NA,NA,59.63855421686747
08037,Atlantic County,NJ,NA,NA,15.66265060240964
08078,Camden County,NJ,NA,94.6268656716418,NA
08106,Camden County,NJ,96.33620689655173,NA,NA
08360,Cumberland County,NJ,1.293103448275862,NA,NA
08701,Ocean County,NJ,NA,12.835820895522387,NA
08755,Ocean County,NJ,NA,22.388059701492537,NA
08817,Middlesex County,NJ,NA,NA,95.78313253012048
08840,Middlesex County,NJ,NA,75.22388059701493,NA
08844,Somerset County,NJ,NA,95.82089552238806,NA
08865,Warren County,NJ,NA,NA,9.63855421686747
87004,Sandoval County,NM,NA,80,NA
87106,Bernalillo County,NM,57.543103448275865,NA,NA
87107,Bernalillo County,NM,NA,25.970149253731346,NA
87108,Bernalillo County,NM,7.327586206896551,NA,NA
87120,Bernalillo County,NM,10.775862068965516,NA,NA
87507,Santa Fe County,NM,NA,23.88059701492537,NA
88011,Doa Ana County,NM,57.327586206896555,NA,NA
88101,Curry County,NM,NA,NA,24.69879518072289
88130,Roosevelt County,NM,71.98275862068965,NA,NA
88220,Eddy County,NM,57.543103448275865,NA,NA
88260,Lea County,NM,46.12068965517241,NA,NA
10031,New York County,NY,NA,NA,75.30120481927712
10314,Richmond County,NY,NA,3.880597014925373,NA
10452,Bronx County,NY,NA,0.5970149253731344,NA
10454,Bronx County,NY,6.68103448275862,NA,NA
10458,Bronx County,NY,NA,7.761194029850746,NA
10460,Bronx County,NY,2.586206896551724,NA,NA
10566,Westchester County,NY,NA,73.13432835820896,NA
10605,Westchester County,NY,88.79310344827587,NA,NA
11004,Queens County,NY,NA,NA,62.65060240963856
11201,Kings County,NY,24.568965517241377,NA,NA
11204,Kings County,NY,31.46551724137931,NA,NA
11207,Kings County,NY,NA,0.8955223880597015,NA
11213,Kings County,NY,NA,NA,22.289156626506024
11215,Kings County,NY,NA,NA,13.253012048192772
11216,Kings County,NY,NA,60.895522388059696,NA
11226,Kings County,NY,NA,2.9850746268656714,NA
11233,Kings County,NY,NA,58.805970149253724,NA
11236,Kings County,NY,4.310344827586207,NA,NA
11357,Queens County,NY,NA,48.35820895522388,NA
11501,Nassau County,NY,NA,97.61194029850746,NA
11530,Nassau County,NY,NA,NA,42.168674698795186
11553,Nassau County,NY,NA,69.55223880597015,NA
11561,Nassau County,NY,NA,34.32835820895522,NA
11720,Suffolk County,NY,NA,76.11940298507463,NA
11731,Suffolk County,NY,NA,71.04477611940298,NA
11743,Suffolk County,NY,NA,NA,10.843373493975903
12118,Saratoga County,NY,NA,55.82089552238806,NA
12148,Saratoga County,NY,NA,NA,92.7710843373494
12871,Saratoga County,NY,96.12068965517241,NA,NA
13021,Cayuga County,NY,3.4482758620689653,2.0895522388059704,NA
13316,Oneida County,NY,68.53448275862068,NA,NA
13326,Otsego County,NY,75.21551724137932,NA,NA
13440,Oneida County,NY,NA,NA,4.819277108433735
13662,St. Lawrence County,NY,8.620689655172415,NA,NA
13815,Chenango County,NY,17.025862068965516,NA,NA
13901,Broome County,NY,NA,4.179104477611941,NA
13905,Broome County,NY,46.33620689655172,NA,NA
14108,Niagara County,NY,61.422413793103445,NA,NA
14136,Chautauqua County,NY,89.22413793103449,NA,NA
14207,Erie County,NY,NA,NA,77.10843373493977
14215,Erie County,NY,14.439655172413794,NA,NA
14224,Erie County,NY,NA,12.238805970149254,NA
14569,Wyoming County,NY,71.12068965517241,NA,NA
14586,Monroe County,NY,36.206896551724135,NA,NA
14609,Monroe County,NY,5.172413793103448,NA,NA
14620,Monroe County,NY,NA,54.02985074626866,NA
14621,Monroe County,NY,1.0775862068965518,NA,NA
14701,Chautauqua County,NY,3.2327586206896552,NA,NA
14892,Tioga County,NY,NA,59.1044776119403,NA
27263,Randolph County,NC,50.21551724137932,NA,NA
27292,Davidson County,NC,NA,1.4925373134328357,NA
27295,Davidson County,NC,3.8793103448275863,NA,NA
27312,Chatham County,NC,NA,NA,11.44578313253012
27518,Wake County,NC,88.57758620689656,NA,NA
27529,Wake County,NC,28.448275862068968,NA,NA
27546,Harnett County,NC,NA,80.59701492537313,NA
27574,Person County,NC,NA,55.52238805970149,NA
27591,Wake County,NC,62.06896551724138,NA,NA
27613,Wake County,NC,NA,37.3134328358209,NA
27615,Wake County,NC,NA,18.208955223880597,NA
28160,Rutherford County,NC,93.10344827586206,NA,NA
28269,Mecklenburg County,NC,NA,30.149253731343283,NA
28560,Craven County,NC,NA,41.19402985074627,NA
28602,Catawba County,NC,NA,43.582089552238806,NA
28605,Watauga County,NC,NA,NA,87.34939759036145
28625,Iredell County,NC,NA,21.19402985074627,NA
28659,Wilkes County,NC,NA,NA,33.13253012048193
28677,Iredell County,NC,20.474137931034484,NA,NA
28711,Buncombe County,NC,NA,77.61194029850746,NA
28715,Buncombe County,NC,81.25,52.83582089552239,NA
28729,Henderson County,NC,NA,91.64179104477613,NA
28734,Macon County,NC,NA,11.343283582089553,NA
28752,McDowell County,NC,20.689655172413794,NA,NA
28756,Polk County,NC,NA,90.14925373134328,NA
28787,Buncombe County,NC,NA,NA,68.07228915662651
28789,Jackson County,NC,87.93103448275862,NA,NA
28803,Buncombe County,NC,NA,34.92537313432836,NA
58501,Burleigh County,ND,NA,NA,30.72289156626506
43040,Union County,OH,29.52586206896552,NA,NA
43050,Knox County,OH,NA,4.776119402985075,NA
43055,Licking County,OH,2.1551724137931036,NA,NA
43078,Champaign County,OH,37.5,NA,NA
43123,Franklin County,OH,NA,NA,6.024096385542169
43160,Fayette County,OH,15.517241379310345,NA,NA
43204,Franklin County,OH,5.387931034482758,NA,NA
43228,Franklin County,OH,NA,17.01492537313433,NA
43302,Marion County,OH,NA,22.686567164179106,NA
43537,Lucas County,OH,31.46551724137931,NA,NA
43607,Lucas County,OH,6.0344827586206895,NA,NA
43725,Guernsey County,OH,NA,8.656716417910449,NA
43906,Belmont County,OH,52.80172413793104,NA,NA
43938,Jefferson County,OH,NA,72.83582089552239,NA
43950,Belmont County,OH,45.9051724137931,NA,NA
43953,Jefferson County,OH,91.16379310344827,NA,NA
44004,Ashtabula County,OH,19.181034482758623,NA,NA
44030,Ashtabula County,OH,25.862068965517242,NA,NA
44035,Lorain County,OH,0.43103448275862066,NA,NA
44039,Lorain County,OH,9.051724137931034,NA,NA
44076,Ashtabula County,OH,82.32758620689656,NA,NA
44113,Cuyahoga County,OH,8.836206896551724,NA,NA
44115,Cuyahoga County,OH,67.45689655172413,NA,NA
44121,Cuyahoga County,OH,NA,15.522388059701491,NA
44124,Cuyahoga County,OH,29.094827586206897,NA,NA
44125,Cuyahoga County,OH,1.9396551724137931,NA,NA
44137,Cuyahoga County,OH,64.00862068965517,NA,NA
44139,Cuyahoga County,OH,NA,17.313432835820898,NA
44202,Portage County,OH,NA,57.611940298507456,NA
44203,Summit County,OH,NA,11.641791044776118,NA
44224,Summit County,OH,25,NA,NA
44255,Portage County,OH,76.9396551724138,NA,NA
44256,Medina County,OH,4.094827586206897,NA,NA
44301,Summit County,OH,34.26724137931034,NA,NA
44425,Trumbull County,OH,34.91379310344828,NA,NA
44512,Mahoning County,OH,11.85344827586207,NA,NA
44515,Mahoning County,OH,NA,14.925373134328357,NA
44601,Stark County,OH,7.543103448275862,NA,NA
44685,Summit County,OH,51.293103448275865,NA,NA
44707,Stark County,OH,91.59482758620689,NA,NA
44805,Ashland County,OH,NA,5.970149253731343,77.71084337349397
44820,Crawford County,OH,NA,89.55223880597015,NA
44870,Erie County,OH,15.948275862068966,NA,NA
44883,Seneca County,OH,NA,NA,13.855421686746988
44906,Richland County,OH,NA,49.25373134328358,NA
45224,Hamilton County,OH,NA,54.92537313432836,NA
45231,Hamilton County,OH,NA,NA,9.036144578313253
45365,Shelby County,OH,13.793103448275861,NA,NA
45406,Montgomery County,OH,69.39655172413794,NA,NA
45449,Montgomery County,OH,39.6551724137931,NA,NA
45629,Scioto County,OH,83.83620689655173,NA,NA
45648,Scioto County,OH,NA,21.791044776119403,NA
45714,Washington County,OH,72.84482758620689,NA,NA
45805,Allen County,OH,15.517241379310345,NA,NA
45813,Paulding County,OH,87.06896551724138,NA,NA
73008,Oklahoma County,OK,NA,NA,34.93975903614458
73135,Oklahoma County,OK,49.137931034482754,NA,NA
73533,Stephens County,OK,25.21551724137931,NA,NA
74012,Tulsa County,OK,28.663793103448278,NA,NA
74017,Rogers County,OK,NA,NA,18.072289156626507
74437,Okmulgee County,OK,94.18103448275862,NA,NA
97004,Clackamas County,OR,97.62931034482759,NA,NA
97006,Washington County,OR,NA,33.731343283582085,NA
97023,Clackamas County,OR,89.87068965517241,NA,NA
97024,Multnomah County,OR,NA,71.94029850746269,NA
97068,Clackamas County,OR,NA,60,NA
97206,Multnomah County,OR,NA,87.46268656716418,NA
97213,Multnomah County,OR,40.94827586206897,NA,NA
97223,Washington County,OR,NA,27.46268656716418,NA
97224,Washington County,OR,NA,36.71641791044776,NA
97230,Multnomah County,OR,NA,51.04477611940299,NA
97303,Marion County,OR,75.86206896551724,NA,NA
97305,Marion County,OR,29.310344827586203,NA,NA
97322,Linn County,OR,NA,17.611940298507463,NA
97330,Benton County,OR,55.603448275862064,NA,NA
97405,Lane County,OR,76.29310344827587,NA,NA
97424,Lane County,OR,NA,38.50746268656716,NA
97524,Jackson County,OR,NA,61.19402985074627,NA
97527,Josephine County,OR,NA,21.492537313432834,NA
97801,Umatilla County,OR,38.577586206896555,NA,NA
97814,Baker County,OR,NA,46.26865671641791,NA
15063,Washington County,PA,NA,NA,53.6144578313253
15132,Allegheny County,PA,NA,27.164179104477608,NA
15217,Allegheny County,PA,NA,NA,53.01204819277109
15236,Allegheny County,PA,52.1551724137931,NA,NA
15237,Allegheny County,PA,NA,26.56716417910448,NA
15301,Washington County,PA,NA,NA,7.228915662650602
15601,Westmoreland County,PA,43.53448275862069,NA,NA
15834,Cameron County,PA,NA,70.1492537313433,NA
15946,Cambria County,PA,88.14655172413794,NA,NA
16101,Lawrence County,PA,NA,8.358208955223882,NA
16323,Venango County,PA,NA,36.11940298507463,NA
16502,Erie County,PA,86.42241379310344,NA,NA
17074,Perry County,PA,NA,88.35820895522389,NA
17110,Dauphin County,PA,NA,65.97014925373135,NA
17340,Adams County,PA,NA,NA,64.45783132530121
17403,York County,PA,NA,NA,12.048192771084338
17404,York County,PA,13.14655172413793,NA,NA
17406,York County,PA,NA,44.47761194029851,NA
17408,York County,PA,NA,88.65671641791046,NA
17566,Lancaster County,PA,95.25862068965517,NA,NA
18020,Northampton County,PA,NA,NA,17.46987951807229
18041,Montgomery County,PA,95.6896551724138,NA,NA
18042,Northampton County,PA,NA,NA,47.59036144578313
18055,Northampton County,PA,45.689655172413794,NA,NA
18104,Lehigh County,PA,NA,5.074626865671641,NA
18222,Luzerne County,PA,84.91379310344827,NA,NA
18466,Monroe County,PA,59.48275862068966,68.95522388059702,NA
18642,Luzerne County,PA,NA,NA,86.14457831325302
18643,Luzerne County,PA,NA,NA,81.92771084337349
18702,Luzerne County,PA,NA,31.044776119402982,NA
18705,Luzerne County,PA,56.68103448275862,NA,22.289156626506024
19004,Montgomery County,PA,84.69827586206897,NA,NA
19032,Delaware County,PA,93.96551724137932,NA,NA
19057,Bucks County,PA,NA,NA,35.54216867469879
19096,Montgomery County,PA,NA,88.05970149253731,NA
19111,Philadelphia County,PA,3.6637931034482754,6.26865671641791,NA
19137,Philadelphia County,PA,NA,93.73134328358209,NA
19140,Philadelphia County,PA,2.8017241379310347,NA,NA
19143,Philadelphia County,PA,1.7241379310344827,NA,NA
19382,Chester County,PA,19.396551724137932,NA,NA
19428,Montgomery County,PA,NA,NA,71.08433734939759
19460,Chester County,PA,NA,NA,15.060240963855422
19462,Montgomery County,PA,NA,NA,44.57831325301205
19520,Chester County,PA,NA,90.44776119402985,NA
19565,Berks County,PA,NA,NA,51.204819277108435
19606,Berks County,PA,12.71551724137931,NA,12.048192771084338
19608,Berks County,PA,NA,NA,37.34939759036144
02895,Providence County,RI,13.577586206896552,NA,NA
02909,Providence County,RI,23.49137931034483,NA,NA
29010,Lee County,SC,78.66379310344827,NA,NA
29118,Orangeburg County,SC,NA,NA,90.36144578313254
29150,Sumter County,SC,NA,NA,14.457831325301203
29210,Richland County,SC,47.62931034482759,NA,NA
29223,Richland County,SC,27.155172413793103,NA,NA
29307,Spartanburg County,SC,66.37931034482759,NA,NA
29418,Charleston County,SC,44.612068965517246,NA,NA
29464,Charleston County,SC,NA,25.07462686567164,NA
29527,Horry County,SC,NA,51.34328358208955,NA
29569,Horry County,SC,NA,62.089552238805965,NA
29627,Anderson County,SC,NA,60.298507462686565,NA
29678,Oconee County,SC,60.560344827586206,NA,NA
29702,Cherokee County,SC,NA,80.29850746268656,NA
29745,York County,SC,56.03448275862068,NA,NA
57104,Minnehaha County,SD,NA,57.91044776119403,NA
57110,Minnehaha County,SD,NA,30.447761194029848,NA
57701,Pennington County,SD,23.70689655172414,NA,NA
37042,Montgomery County,TN,27.370689655172413,NA,NA
37062,Williamson County,TN,NA,83.5820895522388,NA
37066,Sumner County,TN,NA,12.53731343283582,18.072289156626507
37072,Davidson County,TN,NA,28.955223880597014,NA
37166,DeKalb County,TN,NA,NA,54.21686746987952
37203,Davidson County,TN,NA,NA,90.96385542168674
37214,Davidson County,TN,NA,56.11940298507463,NA
37217,Davidson County,TN,47.8448275862069,NA,NA
37321,Rhea County,TN,32.543103448275865,NA,NA
37398,Franklin County,TN,NA,NA,36.74698795180723
37411,Hamilton County,TN,43.96551724137931,63.88059701492538,NA
37616,Greene County,TN,95.90517241379311,NA,NA
37650,Unicoi County,TN,NA,47.16417910447761,NA
37659,Washington County,TN,40.30172413793103,NA,NA
37663,Sullivan County,TN,NA,NA,71.6867469879518
37814,Hamblen County,TN,35.3448275862069,NA,NA
37938,Knox County,TN,NA,66.56716417910448,NA
38002,Shelby County,TN,NA,69.25373134328359,NA
38115,Shelby County,TN,NA,62.38805970149254,NA
38301,Madison County,TN,39.87068965517241,NA,NA
38358,Gibson County,TN,60.991379310344826,NA,NA
38372,Hardin County,TN,NA,50.14925373134328,NA
38551,Clay County,TN,NA,83.28358208955224,NA
38562,Jackson County,TN,NA,84.4776119402985,NA
75060,Dallas County,TX,NA,42.38805970149254,NA
75069,Collin County,TX,NA,35.223880597014926,NA
75071,Collin County,TX,31.25,NA,NA
75103,Van Zandt County,TX,NA,NA,39.75903614457831
75119,Ellis County,TX,NA,70.1492537313433,NA
75216,Dallas County,TX,7.112068965517242,NA,NA
75243,Dallas County,TX,17.24137931034483,NA,NA
75601,Gregg County,TX,77.80172413793103,NA,NA
75901,Angelina County,TX,40.51724137931034,NA,NA
75904,Angelina County,TX,37.93103448275862,NA,NA
76018,Tarrant County,TX,NA,64.4776119402985,NA
76111,Tarrant County,TX,78.23275862068965,71.94029850746269,NA
76134,Tarrant County,TX,NA,65.3731343283582,NA
76502,Bell County,TX,NA,15.82089552238806,NA
76513,Bell County,TX,NA,1.791044776119403,NA
76528,Coryell County,TX,NA,19.1044776119403,NA
76542,Bell County,TX,17.887931034482758,NA,NA
76571,Bell County,TX,92.02586206896551,NA,NA
77009,Harris County,TX,79.74137931034483,NA,NA
77028,Harris County,TX,81.89655172413794,NA,NA
77080,Harris County,TX,NA,NA,85.54216867469879
77096,Harris County,TX,64.22413793103449,NA,NA
77336,Harris County,TX,NA,75.82089552238806,NA
77351,Polk County,TX,NA,25.37313432835821,NA
77365,Montgomery County,TX,54.956896551724135,NA,NA
77373,Harris County,TX,NA,80.8955223880597,NA
77388,Harris County,TX,NA,NA,59.63855421686747
77429,Harris County,TX,NA,5.6716417910447765,NA
77447,Harris County,TX,75,NA,NA
77479,Fort Bend County,TX,NA,57.3134328358209,NA
77530,Harris County,TX,61.63793103448276,87.16417910447761,NA
77619,Jefferson County,TX,NA,81.19402985074626,NA
77706,Jefferson County,TX,NA,35.82089552238806,NA
77845,Brazos County,TX,11.422413793103448,NA,0
77963,Goliad County,TX,NA,NA,86.74698795180723
78026,Atascosa County,TX,NA,97.01492537313433,NA
78230,Bexar County,TX,NA,60.59701492537314,NA
78232,Bexar County,TX,NA,45.07462686567164,NA
78411,Nueces County,TX,NA,NA,67.46987951807229
78415,Nueces County,TX,51.508620689655174,NA,NA
78521,Cameron County,TX,35.775862068965516,NA,NA
78550,Cameron County,TX,NA,NA,24.096385542168676
78596,Hidalgo County,TX,76.07758620689656,NA,NA
78599,Hidalgo County,TX,85.34482758620689,NA,NA
78702,Travis County,TX,80.60344827586206,NA,NA
79424,Lubbock County,TX,NA,13.73134328358209,NA
79706,Midland County,TX,79.3103448275862,NA,NA
79772,Reeves County,TX,NA,78.2089552238806,NA
84094,Salt Lake County,UT,69.82758620689656,NA,NA
84414,Weber County,UT,76.50862068965517,NA,NA
84660,Utah County,UT,71.76724137931035,NA,NA
05201,Bennington County,VT,NA,24.776119402985074,NA
05408,Chittenden County,VT,NA,79.1044776119403,NA
05735,Rutland County,VT,99.13793103448276,NA,NA
20155,Prince William County,VA,65.30172413793103,NA,NA
22191,Prince William County,VA,NA,33.134328358208954,NA
22508,Orange County,VA,NA,79.1044776119403,NA
22812,Rockingham County,VA,NA,98.2089552238806,NA
22835,Page County,VA,NA,53.43283582089552,NA
22844,Shenandoah County,VA,86.20689655172413,NA,NA
22911,Albemarle County,VA,NA,NA,21.084337349397593
22963,Fluvanna County,VA,79.95689655172413,NA,NA
23518,Norfolk city,VA,NA,32.83582089552239,NA
23936,Buckingham County,VA,96.98275862068965,NA,NA
24073,Montgomery County,VA,47.41379310344828,NA,NA
24095,Bedford County,VA,96.55172413793103,NA,NA
24134,Giles County,VA,NA,91.04477611940298,NA
24175,Botetourt County,VA,NA,NA,91.56626506024097
24422,Alleghany County,VA,NA,NA,80.12048192771084
24477,Augusta County,VA,65.08620689655173,NA,NA
24501,Lynchburg city,VA,NA,40.8955223880597,NA
98004,King County,WA,NA,NA,28.915662650602407
98010,King County,WA,90.30172413793103,NA,NA
98021,Snohomish County,WA,59.48275862068966,NA,NA
98110,Kitsap County,WA,NA,NA,48.19277108433735
98115,King County,WA,73.49137931034483,NA,NA
98221,Skagit County,WA,NA,NA,43.97590361445783
98226,Whatcom County,WA,NA,74.92537313432835,NA
98247,Whatcom County,WA,97.19827586206897,NA,NA
98264,Whatcom County,WA,NA,NA,51.80722891566265
98270,Snohomish County,WA,23.060344827586206,NA,NA
98274,Skagit County,WA,NA,NA,63.25301204819277
98366,Kitsap County,WA,NA,NA,21.686746987951807
98371,Pierce County,WA,71.12068965517241,NA,NA
98383,Kitsap County,WA,NA,NA,68.67469879518072
98387,Pierce County,WA,NA,25.671641791044774,NA
98391,Pierce County,WA,18.103448275862068,NA,NA
98444,Pierce County,WA,NA,67.46268656716417,NA
98607,Clark County,WA,NA,85.97014925373134,NA
98631,Pacific County,WA,NA,NA,99.3975903614458
98801,Chelan County,WA,NA,9.55223880597015,NA
99203,Spokane County,WA,NA,70.1492537313433,NA
20008,District of Columbia,DC,NA,75.5223880597015,NA
25312,Kanawha County,WV,72.19827586206897,NA,NA
25425,Jefferson County,WV,93.53448275862068,NA,NA
25427,Berkeley County,WV,NA,NA,71.6867469879518
25428,Berkeley County,WV,66.8103448275862,NA,NA
25526,Putnam County,WV,42.456896551724135,NA,NA
26034,Hancock County,WV,NA,95.52238805970148,NA
26047,Hancock County,WV,NA,56.11940298507463,NA
26101,Wood County,WV,27.586206896551722,NA,NA
26105,Wood County,WV,NA,NA,19.27710843373494
26301,Harrison County,WV,7.758620689655173,NA,NA
53027,Washington County,WI,72.84482758620689,NA,NA
53029,Waukesha County,WI,NA,NA,44.57831325301205
53115,Walworth County,WI,54.0948275862069,NA,NA
53143,Kenosha County,WI,22.413793103448278,NA,NA
53147,Walworth County,WI,50.43103448275862,NA,NA
53205,Milwaukee County,WI,3.0172413793103448,NA,NA
53210,Milwaukee County,WI,8.189655172413794,NA,NA
53402,Racine County,WI,NA,2.6865671641791042,NA
53511,Rock County,WI,NA,0.2985074626865672,NA
53963,Dodge County,WI,59.26724137931034,NA,NA
53965,Sauk County,WI,NA,77.31343283582089,NA
54025,St. Croix County,WI,98.70689655172413,NA,NA
54216,Kewaunee County,WI,NA,94.32835820895522,NA
54235,Door County,WI,NA,NA,74.69879518072288
54302,Brown County,WI,NA,97.31343283582089,NA
54421,Clark County,WI,NA,100,NA
54660,Monroe County,WI,NA,50.44776119402985,NA
54911,Outagamie County,WI,45.258620689655174,NA,NA
54914,Outagamie County,WI,26.29310344827586,NA,NA
54915,Outagamie County,WI,38.793103448275865,NA,NA
54935,Fond du Lac County,WI,NA,17.91044776119403,NA
54937,Fond du Lac County,WI,50,53.73134328358209,NA
54983,Waupaca County,WI,87.71551724137932,NA,NA
82716,Campbell County,WY,73.70689655172413,NA,NA
