ZipCode,county,state,Adult
35051,Shelby County,AL,90.47619047619048
35630,Lauderdale County,AL,37.66233766233766
35769,Jackson County,AL,92.64069264069265
36037,Butler County,AL,65.36796536796537
85286,Maricopa County,AZ,41.55844155844156
85302,Maricopa County,AZ,31.601731601731604
85706,Pima County,AZ,5.194805194805195
85745,Pima County,AZ,31.16883116883117
71603,Jefferson County,AR,41.125541125541126
71854,Miller County,AR,45.887445887445885
72756,Benton County,AR,68.83116883116884
90036,Los Angeles County,CA,76.62337662337663
90211,Los Angeles County,CA,98.7012987012987
90221,Los Angeles County,CA,13.852813852813853
90621,Orange County,CA,66.23376623376623
90706,Los Angeles County,CA,29.87012987012987
90744,Los Angeles County,CA,67.96536796536796
90802,Los Angeles County,CA,59.74025974025974
91406,Los Angeles County,CA,61.038961038961034
91702,Los Angeles County,CA,40.25974025974026
91732,Los Angeles County,CA,51.082251082251084
91745,Los Angeles County,CA,77.48917748917748
92253,Riverside County,CA,56.27705627705628
92301,San Bernardino County,CA,76.19047619047619
92324,San Bernardino County,CA,22.943722943722943
92604,Orange County,CA,86.14718614718615
92880,Riverside County,CA,25.541125541125542
93702,Fresno County,CA,35.064935064935064
94530,Contra Costa County,CA,94.37229437229438
94577,Alameda County,CA,44.15584415584416
94608,Alameda County,CA,63.63636363636363
95127,Santa Clara County,CA,49.78354978354979
95206,San Joaquin County,CA,25.108225108225106
95422,Lake County,CA,69.6969696969697
95616,Yolo County,CA,93.93939393939394
95823,Sacramento County,CA,15.151515151515152
80911,El Paso County,CO,51.082251082251084
80915,El Paso County,CO,74.45887445887446
81212,Fremont County,CO,48.917748917748916
81334,Montezuma County,CO,100
06114,Hartford County,CT,19.913419913419915
06241,Windham County,CT,71.42857142857143
06418,New Haven County,CT,79.22077922077922
06451,New Haven County,CT,29.87012987012987
06704,New Haven County,CT,25.97402597402597
32404,Bay County,FL,28.57142857142857
32506,Escambia County,FL,17.74891774891775
32533,Escambia County,FL,36.36363636363637
32605,Alachua County,FL,34.63203463203463
32725,Volusia County,FL,42.42424242424242
32907,Brevard County,FL,57.14285714285714
32927,Brevard County,FL,86.58008658008657
33810,Polk County,FL,33.76623376623377
33904,Lee County,FL,46.320346320346324
34952,St. Lucie County,FL,30.735930735930733
30008,Cobb County,GA,72.2943722943723
30120,Bartow County,GA,23.376623376623375
30331,Fulton County,GA,20.77922077922078
60025,Cook County,IL,54.54545454545454
60950,Kankakee County,IL,82.25108225108225
61081,Whiteside County,IL,38.095238095238095
62203,St. Clair County,IL,91.77489177489177
62234,Madison County,IL,59.74025974025974
46135,Putnam County,IN,77.05627705627705
46151,Morgan County,IN,32.03463203463203
46227,Marion County,IN,11.255411255411255
46383,Porter County,IN,9.956709956709958
46807,Allen County,IN,60.60606060606061
47130,Clark County,IN,12.554112554112553
47446,Lawrence County,IN,78.35497835497836
50801,Union County,IA,48.05194805194805
51301,Clay County,IA,94.8051948051948
52136,Howard County,IA,88.31168831168831
52405,Linn County,IA,47.18614718614719
66044,Douglas County,KS,77.92207792207793
66053,Miami County,KS,97.83549783549783
40211,Jefferson County,KY,16.450216450216452
40258,Jefferson County,KY,26.406926406926406
41175,Greenup County,KY,73.16017316017316
42066,Graves County,KY,27.27272727272727
70065,Jefferson Parish,LA,24.242424242424242
70094,Jefferson Parish,LA,7.792207792207792
70570,St. Landry Parish,LA,83.11688311688312
70809,East Baton Rouge Parish,LA,63.20346320346321
71006,Bossier Parish,LA,62.77056277056276
71119,Caddo Parish,LA,67.09956709956711
20814,Montgomery County,MD,84.84848484848484
21009,Harford County,MD,58.00865800865801
21030,Baltimore County,MD,80.08658008658008
21093,Baltimore County,MD,53.67965367965368
21211,Baltimore city,MD,81.81818181818183
21921,Cecil County,MD,18.181818181818183
01085,Hampden County,MA,3.0303030303030303
01453,Worcester County,MA,10.822510822510822
01524,Worcester County,MA,82.68398268398268
01550,Worcester County,MA,1.7316017316017316
01569,Worcester County,MA,43.290043290043286
01610,Worcester County,MA,0.4329004329004329
01830,Essex County,MA,2.5974025974025974
01907,Essex County,MA,62.33766233766234
02121,Suffolk County,MA,22.51082251082251
02151,Suffolk County,MA,3.463203463203463
02155,Middlesex County,MA,0.8658008658008658
02744,Bristol County,MA,45.02164502164502
48071,Oakland County,MI,32.467532467532465
48640,Midland County,MI,12.121212121212121
49048,Kalamazoo County,MI,20.346320346320347
49120,Berrien County,MI,54.97835497835498
49421,Oceana County,MI,87.01298701298701
55014,Anoka County,MN,72.72727272727273
55128,Washington County,MN,58.44155844155844
55379,Scott County,MN,68.3982683982684
55407,Hennepin County,MN,9.090909090909092
55408,Hennepin County,MN,14.71861471861472
55418,Hennepin County,MN,70.12987012987013
55448,Anoka County,MN,49.35064935064935
56308,Douglas County,MN,34.1991341991342
56359,Mille Lacs County,MN,93.5064935064935
39206,Hinds County,MS,35.4978354978355
39327,Newton County,MS,98.26839826839827
39574,Harrison County,MS,61.471861471861466
39629,Lincoln County,MS,96.53679653679653
63125,St. Louis County,MO,53.246753246753244
63129,St. Louis County,MO,55.84415584415584
63136,St. Louis County,MO,9.523809523809524
63385,St. Charles County,MO,19.480519480519483
64064,Jackson County,MO,61.471861471861466
64114,Jackson County,MO,42.857142857142854
64468,Nodaway County,MO,74.89177489177489
65013,Maries County,MO,95.23809523809523
65714,Christian County,MO,57.57575757575758
65803,Greene County,MO,13.41991341991342
59019,Stillwater County,MT,99.56709956709958
68108,Douglas County,NE,81.38528138528139
68122,Douglas County,NE,92.20779220779221
68901,Adams County,NE,75.32467532467533
69001,Red Willow County,NE,96.96969696969697
03038,Rockingham County,NH,70.995670995671
03104,Hillsborough County,NH,16.883116883116884
07002,Hudson County,NJ,2.1645021645021645
07095,Middlesex County,NJ,47.61904761904761
07712,Monmouth County,NJ,5.627705627705628
07821,Sussex County,NJ,89.17748917748918
08322,Gloucester County,NJ,64.93506493506493
08609,Mercer County,NJ,45.45454545454545
08807,Somerset County,NJ,90.04329004329004
87013,Sandoval County,NM,95.67099567099568
87121,Bernalillo County,NM,6.926406926406926
11234,Kings County,NY,22.07792207792208
11434,Queens County,NY,17.316017316017316
12302,Schenectady County,NY,51.94805194805194
13207,Onondaga County,NY,37.22943722943723
13617,St. Lawrence County,NY,40.692640692640694
14094,Niagara County,NY,3.896103896103896
14210,Erie County,NY,32.900432900432904
14304,Niagara County,NY,7.35930735930736
14830,Steuben County,NY,27.705627705627705
28021,Gaston County,NC,63.63636363636363
28040,Rutherford County,NC,88.74458874458875
28212,Mecklenburg County,NC,29.43722943722944
28215,Mecklenburg County,NC,18.614718614718615
28270,Mecklenburg County,NC,69.26406926406926
28551,Lenoir County,NC,70.56277056277057
28602,Catawba County,NC,24.675324675324674
43068,Franklin County,OH,11.688311688311687
43113,Pickaway County,OH,54.112554112554115
43135,Hocking County,OH,99.13419913419914
43211,Franklin County,OH,14.285714285714285
43623,Lucas County,OH,33.33333333333333
44102,Cuyahoga County,OH,0
44106,Cuyahoga County,OH,12.987012987012985
44137,Cuyahoga County,OH,8.225108225108226
44505,Mahoning County,OH,38.961038961038966
44811,Sandusky County,OH,39.39393939393939
45069,Butler County,OH,26.83982683982684
45176,Clermont County,OH,73.59307359307358
45177,Clinton County,OH,28.13852813852814
45322,Montgomery County,OH,46.75324675324675
45680,Lawrence County,OH,16.017316017316016
45771,Meigs County,OH,85.71428571428571
73127,Oklahoma County,OK,59.307359307359306
97023,Clackamas County,OR,93.07359307359307
97303,Marion County,OR,49.78354978354979
97317,Marion County,OR,80.95238095238095
16001,Butler County,PA,6.493506493506493
17057,Dauphin County,PA,21.21212121212121
17557,Lancaster County,PA,83.98268398268398
18017,Northampton County,PA,8.658008658008658
18045,Northampton County,PA,44.58874458874459
18505,Lackawanna County,PA,52.38095238095239
19026,Delaware County,PA,58.87445887445888
19046,Montgomery County,PA,83.54978354978356
19140,Philadelphia County,PA,4.761904761904762
19601,Berks County,PA,6.0606060606060606
57501,Hughes County,SD,80.51948051948052
37209,Davidson County,TN,39.82683982683983
37620,Sullivan County,TN,15.584415584415584
37874,Monroe County,TN,48.484848484848484
75231,Dallas County,TX,55.41125541125541
75248,Dallas County,TX,66.66666666666666
75644,Upshur County,TX,78.78787878787878
75801,Anderson County,TX,71.86147186147186
76018,Tarrant County,TX,96.1038961038961
76301,Wichita County,TX,56.709956709956714
76513,Bell County,TX,10.38961038961039
77026,Harris County,TX,64.5021645021645
77064,Harris County,TX,43.722943722943725
77096,Harris County,TX,67.53246753246754
77356,Montgomery County,TX,75.75757575757575
78043,Webb County,TX,50.649350649350644
78210,Bexar County,TX,29.004329004329005
78258,Bexar County,TX,74.02597402597402
78537,Hidalgo County,TX,90.9090909090909
84129,,UT,36.36363636363637
22206,Arlington County,VA,65.80086580086581
23168,James City County,VA,91.34199134199135
23464,Virginia Beach city,VA,19.047619047619047
23860,Hopewell city,VA,38.52813852813853
24012,Roanoke city,VA,35.93073593073593
24441,Rockingham County,VA,84.4155844155844
98001,King County,WA,52.81385281385281
98002,King County,WA,41.55844155844156
98208,Snohomish County,WA,23.809523809523807
98248,Whatcom County,WA,85.28138528138528
98665,Clark County,WA,87.44588744588745
20020,District of Columbia,DC,4.329004329004329
26704,Hampshire County,WV,97.40259740259741
53143,Kenosha County,WI,21.645021645021643
53511,Rock County,WI,1.2987012987012987
53590,Dane County,WI,87.87878787878788
54981,Waupaca County,WI,89.6103896103896
82801,Sheridan County,WY,79.65367965367966
