ZipCode,county,state,Adult,Retirement,Geriatric
35005,Jefferson County,AL,NA,NA,91.11111111111111
35007,Shelby County,AL,NA,41.246290801186944,70.55555555555556
35043,Shelby County,AL,NA,91.3946587537092,NA
35044,Talladega County,AL,88.25396825396825,NA,NA
35127,Jefferson County,AL,83.17460317460318,NA,77.96296296296296
35204,Jefferson County,AL,NA,NA,66.66666666666666
35213,Jefferson County,AL,NA,NA,67.03703703703704
35226,Jefferson County,AL,45.714285714285715,NA,NA
35242,Shelby County,AL,29.20634920634921,NA,NA
35404,Tuscaloosa County,AL,NA,NA,75.55555555555556
35462,Greene County,AL,NA,96.14243323442136,NA
35466,Pickens County,AL,87.61904761904762,NA,NA
35474,Hale County,AL,NA,91.0979228486647,NA
35476,Tuscaloosa County,AL,NA,NA,65.92592592592592
35503,Walker County,AL,NA,NA,80.92592592592592
35640,Morgan County,AL,NA,NA,55.00000000000001
35756,Limestone County,AL,75.23809523809524,NA,NA
35802,Madison County,AL,NA,NA,20.185185185185187
35951,Marshall County,AL,NA,80.71216617210682,NA
35957,Marshall County,AL,NA,60.23738872403561,NA
35968,DeKalb County,AL,NA,95.84569732937686,NA
36027,Barbour County,AL,NA,NA,72.4074074074074
36360,Dale County,AL,NA,40.35608308605341,NA
36587,Mobile County,AL,75.87301587301587,NA,NA
36703,Dallas County,AL,59.36507936507937,NA,NA
99504,Anchorage Municipality,AK,NA,NA,60.55555555555555
85008,Maricopa County,AZ,NA,24.03560830860534,NA
85009,Maricopa County,AZ,13.65079365079365,NA,NA
85013,Maricopa County,AZ,46.03174603174603,NA,NA
85018,Maricopa County,AZ,NA,NA,57.407407407407405
85021,Maricopa County,AZ,11.11111111111111,NA,NA
85022,Maricopa County,AZ,NA,NA,53.70370370370371
85042,Maricopa County,AZ,NA,59.05044510385756,NA
85119,Pinal County,AZ,66.98412698412697,NA,NA
85122,Pinal County,AZ,NA,11.275964391691394,NA
85260,Maricopa County,AZ,NA,NA,22.59259259259259
85373,Maricopa County,AZ,NA,NA,16.296296296296298
85379,Maricopa County,AZ,NA,62.31454005934718,NA
85388,Maricopa County,AZ,NA,NA,90
85614,Pima County,AZ,70.7936507936508,NA,NA
85643,Cochise County,AZ,NA,NA,95.18518518518519
85705,Pima County,AZ,2.5396825396825395,NA,NA
85737,Pima County,AZ,NA,NA,78.14814814814814
85739,Pinal County,AZ,NA,NA,23.703703703703706
85750,Pima County,AZ,66.03174603174602,NA,NA
85756,Pima County,AZ,NA,NA,77.03703703703704
86053,Coconino County,AZ,96.5079365079365,NA,NA
86426,Mohave County,AZ,77.46031746031747,NA,NA
71603,Jefferson County,AR,NA,NA,25.925925925925924
72022,Saline County,AR,NA,NA,68.7037037037037
72103,Saline County,AR,NA,NA,67.5925925925926
72116,Pulaski County,AR,NA,44.80712166172107,NA
72150,Grant County,AR,NA,89.02077151335311,NA
72173,Faulkner County,AR,NA,NA,84.62962962962963
72176,Lonoke County,AR,89.84126984126985,NA,NA
72576,Fulton County,AR,NA,96.439169139465875,NA
72653,Baxter County,AR,NA,NA,8.88888888888889
72715,Benton County,AR,92.38095238095238,NA,18.88888888888889
72764,Washington County,AR,NA,57.86350148367953,NA
72947,Crawford County,AR,NA,NA,95.37037037037037
72956,Crawford County,AR,NA,NA,51.11111111111111
90022,Los Angeles County,CA,NA,48.367952522255194,NA
90025,Los Angeles County,CA,NA,NA,8.703703703703704
90029,Los Angeles County,CA,NA,93.47181008902076,NA
90032,Los Angeles County,CA,NA,NA,51.66666666666667
90033,Los Angeles County,CA,NA,53.11572700296736,47.592592592592595
90043,Los Angeles County,CA,NA,20.77151335311573,NA
90047,Los Angeles County,CA,NA,NA,27.037037037037038
90057,Los Angeles County,CA,68.25396825396825,NA,NA
90240,Los Angeles County,CA,NA,NA,83.88888888888889
90292,Los Angeles County,CA,NA,NA,45.370370370370374
90304,Los Angeles County,CA,97.46031746031746,NA,NA
90403,Los Angeles County,CA,NA,NA,31.48148148148148
90503,Los Angeles County,CA,46.98412698412698,46.58753709198813,NA
90620,Orange County,CA,NA,NA,29.259259259259256
90713,Los Angeles County,CA,65.71428571428571,NA,NA
90717,Los Angeles County,CA,NA,NA,60.370370370370374
91306,Los Angeles County,CA,NA,NA,51.85185185185185
91335,Los Angeles County,CA,NA,87.53709198813057,NA
91352,Los Angeles County,CA,25.71428571428571,NA,NA
91356,Los Angeles County,CA,NA,NA,23.88888888888889
91364,Los Angeles County,CA,81.9047619047619,NA,NA
91401,Los Angeles County,CA,86.66666666666667,NA,NA
91405,Los Angeles County,CA,NA,NA,52.96296296296297
91504,Los Angeles County,CA,NA,72.40356083086054,NA
91732,Los Angeles County,CA,NA,NA,32.22222222222222
91739,San Bernardino County,CA,NA,67.06231454005935,79.44444444444444
91766,Los Angeles County,CA,36.82539682539683,NA,NA
91910,San Diego County,CA,24.761904761904763,NA,NA
91935,San Diego County,CA,NA,NA,96.66666666666667
92019,San Diego County,CA,NA,NA,39.62962962962963
92064,San Diego County,CA,NA,NA,32.96296296296296
92069,San Diego County,CA,NA,NA,82.22222222222221
92105,San Diego County,CA,45.3968253968254,33.82789317507419,NA
92114,San Diego County,CA,NA,26.409495548961427,NA
92225,Riverside County,CA,NA,85.7566765578635,NA
92234,Riverside County,CA,13.968253968253968,NA,41.66666666666667
92260,Riverside County,CA,NA,NA,0.9259259259259258
92264,Riverside County,CA,NA,NA,13.88888888888889
92276,Riverside County,CA,NA,86.05341246290801,NA
92307,San Bernardino County,CA,NA,57.566765578635014,46.85185185185185
92335,San Bernardino County,CA,9.523809523809524,NA,NA
92336,San Bernardino County,CA,10.158730158730158,NA,NA
92404,San Bernardino County,CA,NA,NA,79.62962962962963
92507,Riverside County,CA,NA,73.88724035608308,NA
92548,Riverside County,CA,NA,97.92284866468842,97.4074074074074
92551,Riverside County,CA,NA,77.74480712166172,NA
92553,Riverside County,CA,NA,NA,47.22222222222222
92563,Riverside County,CA,NA,44.510385756676556,NA
92570,Riverside County,CA,NA,47.47774480712167,NA
92592,Riverside County,CA,NA,27.89317507418398,NA
92626,Orange County,CA,NA,NA,70
92627,Orange County,CA,21.58730158730159,NA,NA
92647,Orange County,CA,NA,NA,12.962962962962962
92648,Orange County,CA,NA,22.255192878338278,NA
92663,Orange County,CA,NA,83.97626112759644,NA
92703,Orange County,CA,NA,NA,68.14814814814815
92835,Orange County,CA,NA,NA,19.814814814814817
92845,Orange County,CA,NA,69.13946587537092,NA
92886,Orange County,CA,NA,NA,23.88888888888889
93001,Ventura County,CA,NA,32.640949554896146,NA
93030,Ventura County,CA,16.825396825396826,NA,NA
93274,Tulare County,CA,43.17460317460318,NA,NA
93307,Kern County,CA,NA,14.836795252225517,NA
93458,Santa Barbara County,CA,NA,NA,52.22222222222223
93465,San Luis Obispo County,CA,NA,92.28486646884274,NA
93536,Los Angeles County,CA,NA,NA,55.925925925925924
93619,Fresno County,CA,NA,NA,85.37037037037038
93644,Madera County,CA,NA,NA,93.88888888888889
93702,Fresno County,CA,NA,37.98219584569733,NA
93728,Fresno County,CA,NA,NA,62.96296296296296
93940,Monterey County,CA,NA,27.596439169139465,NA
94015,San Mateo County,CA,NA,NA,4.2592592592592595
94062,San Mateo County,CA,NA,NA,81.11111111111111
94070,San Mateo County,CA,NA,NA,60.18518518518518
94080,San Mateo County,CA,NA,NA,2.5925925925925926
94087,Santa Clara County,CA,NA,NA,64.25925925925927
94102,San Francisco County,CA,NA,5.934718100890208,21.296296296296298
94110,San Francisco County,CA,NA,7.418397626112759,NA
94117,San Francisco County,CA,NA,77.44807121661721,NA
94501,Alameda County,CA,NA,NA,25.185185185185183
94502,Alameda County,CA,NA,NA,75.18518518518519
94561,Contra Costa County,CA,NA,NA,58.333333333333336
94566,Alameda County,CA,NA,41.54302670623146,NA
94587,Alameda County,CA,NA,NA,12.407407407407407
94589,Solano County,CA,83.80952380952381,NA,NA
94595,Contra Costa County,CA,NA,NA,7.4074074074074066
94708,Alameda County,CA,NA,88.4272997032641,NA
94947,Marin County,CA,83.4920634920635,NA,NA
95023,San Benito County,CA,NA,NA,50.74074074074074
95125,Santa Clara County,CA,NA,NA,28.333333333333332
95127,Santa Clara County,CA,37.46031746031746,NA,NA
95129,Santa Clara County,CA,NA,NA,79.25925925925927
95240,San Joaquin County,CA,NA,48.07121661721068,NA
95340,Merced County,CA,NA,NA,44.44444444444444
95355,Stanislaus County,CA,NA,NA,28.703703703703702
95365,Merced County,CA,98.09523809523809,NA,NA
95370,Tuolumne County,CA,56.19047619047619,NA,5.9259259259259265
95403,Sonoma County,CA,47.3015873015873,NA,NA
95476,Sonoma County,CA,NA,NA,24.62962962962963
95503,Humboldt County,CA,NA,NA,58.14814814814815
95531,Del Norte County,CA,NA,NA,35.74074074074074
95608,Sacramento County,CA,NA,NA,7.037037037037037
95610,Sacramento County,CA,NA,NA,77.4074074074074
95687,Solano County,CA,NA,60.83086053412463,NA
95762,El Dorado County,CA,76.82539682539684,NA,NA
95821,Sacramento County,CA,39.04761904761905,NA,NA
95843,Sacramento County,CA,59.682539682539684,NA,NA
95966,Butte County,CA,NA,NA,28.51851851851852
95991,Sutter County,CA,60.317460317460316,NA,44.074074074074076
80007,Jefferson County,CO,90.47619047619048,NA,NA
80011,Arapahoe County,CO,NA,37.68545994065282,NA
80015,Arapahoe County,CO,17.77777777777778,NA,NA
80026,Boulder County,CO,NA,51.92878338278932,NA
80122,Arapahoe County,CO,NA,NA,55.37037037037037
80205,Denver County,CO,12.063492063492063,NA,NA
80206,Denver County,CO,67.61904761904762,NA,NA
80219,Denver County,CO,5.079365079365079,NA,NA
80227,Jefferson County,CO,54.920634920634924,NA,NA
80302,Boulder County,CO,NA,NA,72.22222222222221
80421,Park County,CO,NA,NA,99.62962962962963
80513,Larimer County,CO,NA,84.27299703264094,NA
80550,Weld County,CO,61.904761904761905,NA,NA
80602,Adams County,CO,NA,58.160237388724035,NA
80634,Weld County,CO,NA,1.1869436201780417,NA
80645,Weld County,CO,95.55555555555556,NA,NA
80751,Logan County,CO,NA,NA,96.85185185185186
80831,El Paso County,CO,NA,75.66765578635015,NA
80906,El Paso County,CO,60.952380952380956,NA,NA
80907,El Paso County,CO,NA,NA,54.629629629629626
80909,El Paso County,CO,NA,NA,33.14814814814815
80910,El Paso County,CO,24.126984126984127,NA,NA
80917,El Paso County,CO,59.682539682539684,NA,NA
81005,Pueblo County,CO,NA,NA,73.51851851851852
81144,Rio Grande County,CO,91.42857142857143,NA,NA
81501,Mesa County,CO,NA,89.91097922848664,NA
81625,Moffat County,CO,35.87301587301587,NA,NA
06074,Hartford County,CT,NA,NA,30.555555555555557
06418,New Haven County,CT,66.66666666666666,NA,NA
06460,New Haven County,CT,NA,NA,34.25925925925926
06484,Fairfield County,CT,NA,NA,14.629629629629628
06516,New Haven County,CT,NA,2.6706231454005933,NA
06519,New Haven County,CT,23.809523809523807,NA,NA
06604,Fairfield County,CT,20.634920634920633,NA,NA
06614,Fairfield County,CT,NA,36.49851632047478,NA
06702,New Haven County,CT,84.44444444444444,NA,NA
06710,New Haven County,CT,55.55555555555556,NA,NA
06807,Fairfield County,CT,96.19047619047619,NA,NA
06831,Fairfield County,CT,NA,70.02967359050444,NA
06902,Fairfield County,CT,NA,NA,4.814814814814815
06903,Fairfield County,CT,NA,63.20474777448071,NA
19703,New Castle County,DE,57.460317460317455,NA,NA
19713,New Castle County,DE,NA,31.454005934718097,NA
19720,New Castle County,DE,NA,NA,6.481481481481481
19934,Kent County,DE,NA,NA,65.74074074074075
19939,Sussex County,DE,NA,NA,85.55555555555556
32043,Clay County,FL,NA,60.534124629080125,NA
32082,St. Johns County,FL,82.53968253968253,NA,NA
32086,St. Johns County,FL,NA,15.133531157270031,11.666666666666666
32092,St. Johns County,FL,NA,NA,64.62962962962962
32127,Volusia County,FL,NA,NA,29.444444444444446
32159,Lake County,FL,NA,22.551928783382788,5.37037037037037
32177,Putnam County,FL,NA,NA,80.18518518518518
32207,Duval County,FL,NA,10.089020771513352,NA
32209,Duval County,FL,NA,51.038575667655785,NA
32211,Duval County,FL,NA,NA,74.81481481481481
32234,Duval County,FL,NA,NA,94.81481481481482
32244,Duval County,FL,NA,9.792284866468842,NA
32246,Duval County,FL,NA,NA,52.03703703703704
32401,Bay County,FL,NA,28.783382789317507,NA
32404,Bay County,FL,NA,NA,78.33333333333333
32526,Escambia County,FL,NA,NA,7.222222222222221
32536,Okaloosa County,FL,NA,25.519287833827892,NA
32550,Walton County,FL,NA,NA,88.70370370370371
32656,Clay County,FL,NA,NA,64.81481481481481
32667,Alachua County,FL,NA,98.21958456973294,NA
32757,Lake County,FL,NA,28.783382789317507,NA
32766,Seminole County,FL,NA,NA,98.51851851851852
32803,Orange County,FL,NA,73.29376854599407,NA
32907,Brevard County,FL,NA,19.287833827893174,NA
32955,Brevard County,FL,NA,NA,9.444444444444445
32958,Indian River County,FL,NA,NA,5.7407407407407405
32967,Indian River County,FL,NA,NA,47.40740740740741
33025,Broward County,FL,NA,NA,42.22222222222222
33029,Broward County,FL,NA,NA,92.5925925925926
33040,Monroe County,FL,40.95238095238095,NA,NA
33076,Broward County,FL,NA,69.73293768545994,NA
33138,Miami-Dade County,FL,68.88888888888889,NA,NA
33142,Miami-Dade County,FL,19.047619047619047,18.991097922848667,NA
33314,Broward County,FL,NA,56.97329376854599,NA
33319,Broward County,FL,NA,31.15727002967359,NA
33322,Broward County,FL,NA,NA,48.7037037037037
33328,Broward County,FL,NA,NA,46.111111111111114
33414,Palm Beach County,FL,NA,43.916913946587535,NA
33433,Palm Beach County,FL,56.507936507936506,NA,1.2962962962962963
33436,Palm Beach County,FL,NA,NA,52.77777777777778
33437,Palm Beach County,FL,NA,16.61721068249258,NA
33442,Broward County,FL,NA,NA,8.518518518518519
33461,Palm Beach County,FL,NA,NA,84.81481481481481
33470,Palm Beach County,FL,NA,NA,85.74074074074073
33476,Palm Beach County,FL,93.65079365079364,NA,NA
33486,Palm Beach County,FL,NA,NA,62.22222222222222
33558,Hillsborough County,FL,NA,81.00890207715133,NA
33565,Hillsborough County,FL,69.84126984126983,NA,NA
33598,Hillsborough County,FL,NA,72.99703264094956,NA
33611,Hillsborough County,FL,NA,NA,59.074074074074076
33618,Hillsborough County,FL,74.28571428571429,NA,NA
33773,Pinellas County,FL,NA,NA,82.77777777777777
33781,Pinellas County,FL,44.12698412698413,NA,NA
33884,Polk County,FL,NA,NA,31.11111111111111
33916,Lee County,FL,NA,NA,76.11111111111111
33955,Charlotte County,FL,NA,NA,81.66666666666667
33990,Lee County,FL,NA,42.433234421364986,NA
34104,Collier County,FL,NA,NA,48.148148148148145
34229,Sarasota County,FL,NA,NA,35.55555555555556
34234,Sarasota County,FL,NA,NA,42.407407407407405
34239,Sarasota County,FL,NA,NA,50.18518518518519
34287,Sarasota County,FL,NA,NA,14.074074074074074
34446,Citrus County,FL,NA,61.72106824925816,NA
34470,Marion County,FL,NA,NA,49.074074074074076
34482,Marion County,FL,NA,65.57863501483679,NA
34604,Hernando County,FL,73.96825396825398,NA,NA
34608,Hernando County,FL,NA,NA,49.629629629629626
34653,Pasco County,FL,61.58730158730159,NA,NA
34654,Pasco County,FL,NA,NA,63.51851851851852
34684,Pinellas County,FL,NA,NA,10.925925925925926
34715,Lake County,FL,NA,NA,96.11111111111111
34952,St. Lucie County,FL,24.444444444444443,NA,NA
34982,St. Lucie County,FL,NA,40.652818991097924,NA
34994,Martin County,FL,NA,NA,41.11111111111111
34997,Martin County,FL,NA,NA,4.62962962962963
30004,Fulton County,GA,NA,39.46587537091988,NA
30005,Fulton County,GA,NA,NA,97.77777777777777
30011,Barrow County,GA,69.52380952380952,NA,NA
30013,Rockdale County,GA,NA,65.28189910979229,NA
30025,Walton County,GA,73.65079365079366,NA,NA
30046,Gwinnett County,GA,45.07936507936508,NA,NA
30066,Cobb County,GA,NA,NA,35.18518518518518
30093,Gwinnett County,GA,53.65079365079365,NA,NA
30096,Gwinnett County,GA,NA,NA,17.037037037037038
30115,Cherokee County,GA,NA,NA,69.25925925925925
30134,Douglas County,GA,55.23809523809524,NA,NA
30161,Floyd County,GA,19.365079365079367,NA,NA
30220,Coweta County,GA,NA,NA,100
30331,Fulton County,GA,17.46031746031746,NA,NA
30439,Candler County,GA,NA,81.30563798219585,NA
30504,Hall County,GA,NA,77.1513353115727,NA
30528,White County,GA,NA,NA,68.7037037037037
30540,Gilmer County,GA,NA,44.21364985163205,NA
30542,Hall County,GA,48.888888888888886,NA,NA
30728,Walker County,GA,33.96825396825397,NA,NA
30736,Catoosa County,GA,NA,57.27002967359051,NA
30741,Walker County,GA,20,NA,NA
31008,Peach County,GA,NA,NA,79.62962962962963
31032,Jones County,GA,NA,82.7893175074184,NA
31088,Houston County,GA,NA,20.178041543026705,NA
31404,Chatham County,GA,NA,NA,50.55555555555556
31643,Brooks County,GA,NA,NA,70.92592592592592
31757,Thomas County,GA,NA,NA,83.14814814814815
31788,Colquitt County,GA,NA,NA,90.18518518518519
96704,Hawaii County,HI,NA,NA,99.81481481481481
96734,Honolulu County,HI,NA,NA,7.962962962962964
96819,Honolulu County,HI,16.19047619047619,NA,NA
60010,Lake County,IL,NA,NA,15.555555555555555
60031,Lake County,IL,NA,21.66172106824926,NA
60033,McHenry County,IL,NA,76.55786350148368,NA
60046,Lake County,IL,NA,NA,48.51851851851852
60048,Lake County,IL,NA,26.112759643916917,NA
60085,Lake County,IL,18.412698412698415,NA,NA
60123,Kane County,IL,NA,NA,16.85185185185185
60133,Cook County,IL,40.63492063492063,NA,NA
60154,Cook County,IL,NA,NA,33.88888888888889
60171,Cook County,IL,NA,72.10682492581603,NA
60191,DuPage County,IL,NA,NA,55.18518518518518
60416,Grundy County,IL,NA,75.96439169139467,74.62962962962963
60521,DuPage County,IL,NA,NA,66.66666666666666
60563,DuPage County,IL,42.857142857142854,NA,NA
60586,Will County,IL,14.285714285714285,NA,NA
60613,Cook County,IL,NA,NA,41.85185185185185
60618,Cook County,IL,NA,NA,17.40740740740741
60629,Cook County,IL,5.714285714285714,NA,NA
60632,Cook County,IL,NA,NA,30.74074074074074
60645,Cook County,IL,NA,20.474777448071215,NA
60915,Kankakee County,IL,NA,NA,53.888888888888886
61021,Lee County,IL,NA,NA,19.074074074074073
61102,Winnebago County,IL,NA,59.34718100890207,NA
61201,Rock Island County,IL,34.6031746031746,NA,NA
61265,Rock Island County,IL,43.492063492063494,NA,NA
61455,McDonough County,IL,85.07936507936508,NA,NA
61550,Tazewell County,IL,88.88888888888889,NA,NA
62650,Morgan County,IL,NA,37.0919881305638,NA
62675,Menard County,IL,97.77777777777777,NA,NA
62703,Sangamon County,IL,NA,29.376854599406528,NA
46033,Hamilton County,IN,NA,32.34421364985163,45.55555555555556
46041,Clinton County,IN,NA,94.06528189910979,NA
46112,Hendricks County,IN,NA,NA,33.33333333333333
46135,Putnam County,IN,64.76190476190476,NA,NA
46217,Marion County,IN,NA,NA,43.51851851851852
46234,Marion County,IN,NA,52.52225519287834,NA
46239,Marion County,IN,NA,NA,72.96296296296296
46307,Lake County,IN,NA,0.5934718100890208,NA
46322,Lake County,IN,NA,NA,10.74074074074074
46368,Porter County,IN,NA,NA,12.037037037037036
46373,Lake County,IN,NA,40.94955489614243,NA
46383,Porter County,IN,NA,29.673590504451035,NA
46408,Lake County,IN,NA,48.6646884272997,NA
46514,Elkhart County,IN,NA,NA,49.81481481481482
46554,St. Joseph County,IN,NA,99.40652818991099,NA
46901,Howard County,IN,NA,3.5608308605341246,NA
46902,Howard County,IN,NA,NA,6.296296296296296
46914,Miami County,IN,98.4126984126984,NA,NA
47006,Ripley County,IN,NA,66.46884272997032,NA
47130,Clark County,IN,NA,NA,34.44444444444444
47362,Henry County,IN,22.53968253968254,NA,NA
47460,Owen County,IN,NA,NA,93.7037037037037
47620,Posey County,IN,NA,66.76557863501483,NA
47715,Vanderburgh County,IN,NA,NA,12.222222222222221
47720,Vanderburgh County,IN,NA,NA,44.81481481481481
47802,Vigo County,IN,NA,43.02670623145401,NA
47842,Vermillion County,IN,NA,NA,86.11111111111111
47885,Vigo County,IN,94.28571428571428,NA,NA
50021,Polk County,IA,NA,NA,92.77777777777779
50310,Polk County,IA,50.79365079365079,NA,NA
50315,Polk County,IA,NA,23.44213649851632,NA
50316,Polk County,IA,NA,NA,73.88888888888889
50322,Polk County,IA,NA,NA,61.29629629629629
50323,Dallas County,IA,NA,NA,94.25925925925925
50401,Cerro Gordo County,IA,NA,NA,0.7407407407407408
50701,Black Hawk County,IA,NA,NA,13.148148148148147
52748,Scott County,IA,NA,94.3620178041543,NA
66007,Leavenworth County,KS,93.96825396825396,NA,NA
66061,Johnson County,KS,NA,NA,38.88888888888889
66067,Franklin County,KS,NA,NA,45.18518518518518
66085,Johnson County,KS,NA,NA,97.03703703703704
66106,Wyandotte County,KS,NA,NA,71.66666666666667
66208,Johnson County,KS,NA,NA,57.22222222222222
66614,Shawnee County,KS,31.428571428571427,NA,NA
67208,Sedgwick County,KS,76.5079365079365,NA,NA
67846,Finney County,KS,NA,NA,23.51851851851852
40078,Washington County,KY,99.68253968253968,NA,NA
40222,Jefferson County,KY,NA,NA,27.962962962962962
40242,Jefferson County,KY,NA,NA,86.66666666666667
40243,Jefferson County,KY,NA,86.64688427299704,NA
40272,Jefferson County,KY,NA,NA,80.74074074074075
40324,Scott County,KY,13.333333333333334,NA,NA
40359,Owen County,KY,NA,91.69139465875371,NA
40403,Madison County,KY,NA,NA,28.14814814814815
40508,Fayette County,KY,30.793650793650794,NA,NA
40965,Bell County,KY,26.34920634920635,34.124629080118694,NA
40977,Bell County,KY,50.476190476190474,NA,NA
41001,Campbell County,KY,NA,NA,59.25925925925925
41042,Boone County,KY,5.396825396825397,37.388724035608305,NA
41076,Campbell County,KY,NA,NA,20.74074074074074
41101,Boyd County,KY,NA,16.320474777448073,NA
41701,Perry County,KY,NA,NA,85.92592592592592
42066,Graves County,KY,NA,NA,35.92592592592593
42071,Calloway County,KY,NA,NA,43.333333333333336
42141,Barren County,KY,NA,NA,42.592592592592595
42220,Todd County,KY,85.71428571428571,NA,NA
42301,Daviess County,KY,9.206349206349207,NA,NA
42303,Daviess County,KY,9.841269841269842,NA,NA
42431,Hopkins County,KY,23.174603174603174,NA,NA
70056,Jefferson Parish,LA,4.444444444444445,NA,NA
70068,St. John the Baptist Parish,LA,NA,14.540059347181009,NA
70114,Orleans Parish,LA,NA,NA,87.4074074074074
70115,Orleans Parish,LA,NA,NA,43.7037037037037
70119,Orleans Parish,LA,4.761904761904762,NA,NA
70339,Assumption Parish,LA,NA,NA,97.03703703703704
70422,Tangipahoa Parish,LA,25.07936507936508,NA,NA
70517,St. Martin Parish,LA,12.698412698412698,NA,NA
70525,Acadia Parish,LA,NA,58.45697329376854,NA
70739,East Baton Rouge Parish,LA,NA,NA,95.37037037037037
71107,Caddo Parish,LA,2.2222222222222223,NA,NA
71112,Bossier Parish,LA,NA,23.14540059347181,NA
71202,Ouachita Parish,LA,92.06349206349206,NA,NA
71269,Richland Parish,LA,42.53968253968254,NA,NA
71292,Ouachita Parish,LA,11.746031746031745,NA,NA
71446,Vernon Parish,LA,NA,NA,90.74074074074075
71457,Natchitoches Parish,LA,6.666666666666667,NA,NA
04090,York County,ME,NA,NA,16.11111111111111
04103,Cumberland County,ME,NA,NA,13.333333333333334
04401,Penobscot County,ME,NA,NA,0.5555555555555556
04444,Penobscot County,ME,NA,NA,91.2962962962963
04911,Somerset County,ME,98.73015873015873,NA,NA
04976,Somerset County,ME,NA,12.462908011869436,NA
20743,Prince George's County,MD,NA,NA,55.55555555555556
20774,Prince George's County,MD,NA,43.62017804154303,NA
20814,Montgomery County,MD,NA,78.63501483679525,NA
20906,Montgomery County,MD,NA,NA,10.37037037037037
21035,Anne Arundel County,MD,NA,94.95548961424333,NA
21042,Howard County,MD,NA,59.64391691394659,NA
21043,Howard County,MD,NA,NA,56.2962962962963
21085,Harford County,MD,NA,NA,75.74074074074075
21090,Anne Arundel County,MD,NA,NA,81.66666666666667
21157,Carroll County,MD,NA,47.47774480712167,NA
21229,Baltimore city,MD,18.73015873015873,NA,NA
21234,Baltimore County,MD,15.873015873015872,NA,NA
21701,Frederick County,MD,NA,NA,42.03703703703704
21703,Frederick County,MD,58.41269841269842,NA,NA
01301,Franklin County,MA,NA,74.77744807121661,NA
01569,Worcester County,MA,NA,NA,61.48148148148148
01581,Worcester County,MA,NA,56.676557863501486,NA
01701,Middlesex County,MA,NA,97.3293768545994,NA
01730,Middlesex County,MA,29.841269841269842,NA,NA
01742,Middlesex County,MA,NA,NA,31.666666666666664
01749,Middlesex County,MA,NA,NA,56.111111111111114
01752,Middlesex County,MA,NA,11.572700296735905,NA
01876,Middlesex County,MA,NA,1.7804154302670623,NA
01905,Essex County,MA,0.6349206349206349,6.528189910979229,NA
01921,Essex County,MA,NA,NA,83.33333333333334
02050,Plymouth County,MA,NA,22.8486646884273,NA
02131,Suffolk County,MA,NA,4.154302670623145,NA
02149,Middlesex County,MA,NA,NA,15.37037037037037
02186,Norfolk County,MA,NA,25.222551928783382,18.51851851851852
02189,Norfolk County,MA,53.01587301587302,NA,NA
02301,Plymouth County,MA,29.523809523809526,NA,NA
02356,Bristol County,MA,73.01587301587301,NA,NA
02466,Middlesex County,MA,NA,NA,63.70370370370371
02556,Barnstable County,MA,NA,NA,95.92592592592592
02571,Plymouth County,MA,38.730158730158735,NA,NA
48071,Oakland County,MI,NA,NA,48.888888888888886
48082,Macomb County,MI,NA,NA,26.481481481481485
48088,Macomb County,MI,41.904761904761905,NA,NA
48091,Macomb County,MI,6.349206349206349,NA,NA
48104,Washtenaw County,MI,43.80952380952381,NA,NA
48111,Wayne County,MI,NA,4.451038575667656,NA
48186,Wayne County,MI,NA,NA,20.925925925925924
48198,Washtenaw County,MI,NA,NA,24.814814814814813
48214,Wayne County,MI,20.317460317460316,NA,NA
48327,Oakland County,MI,63.17460317460317,NA,NA
48334,Oakland County,MI,NA,38.27893175074184,NA
48473,Genesee County,MI,40,NA,NA
48504,Genesee County,MI,NA,NA,54.44444444444444
48532,Genesee County,MI,34.92063492063492,NA,NA
48601,Saginaw County,MI,NA,2.3738872403560833,5.185185185185185
48612,Gladwin County,MI,NA,79.22848664688428,NA
48624,Gladwin County,MI,NA,17.210682492581604,NA
48661,Ogemaw County,MI,NA,NA,33.51851851851852
48837,Eaton County,MI,NA,NA,67.96296296296296
48847,Gratiot County,MI,NA,NA,85.18518518518519
48855,Livingston County,MI,70.15873015873015,NA,NA
48867,Shiawassee County,MI,NA,NA,38.7037037037037
48917,Eaton County,MI,NA,NA,10
49042,St. Joseph County,MI,NA,98.51632047477746,NA
49127,Berrien County,MI,78.0952380952381,NA,NA
49302,Kent County,MI,NA,NA,94.62962962962963
49330,Kent County,MI,NA,99.10979228486647,NA
49348,Allegan County,MI,30.158730158730158,NA,NA
49419,Allegan County,MI,NA,87.83382789317507,NA
49421,Oceana County,MI,80,NA,NA
49506,Kent County,MI,NA,45.103857566765576,NA
49783,Chippewa County,MI,NA,NA,43.888888888888886
55021,Rice County,MN,NA,75.07418397626114,NA
55060,Steele County,MN,NA,32.93768545994065,NA
55113,Ramsey County,MN,NA,NA,87.77777777777777
55129,Washington County,MN,71.11111111111111,NA,NA
55305,Hennepin County,MN,NA,NA,37.96296296296296
55407,Hennepin County,MN,6.031746031746032,NA,NA
55412,Hennepin County,MN,NA,NA,70.37037037037037
55413,Hennepin County,MN,NA,49.554896142433236,NA
55432,Anoka County,MN,NA,47.18100890207715,NA
55437,Hennepin County,MN,NA,NA,59.44444444444444
55744,Itasca County,MN,NA,NA,5
55902,Olmsted County,MN,79.68253968253968,NA,NA
55904,Olmsted County,MN,NA,73.59050445103857,NA
55912,Mower County,MN,NA,NA,0.1851851851851852
56081,Watonwan County,MN,NA,74.4807121661721,NA
56303,Stearns County,MN,NA,48.96142433234421,NA
56347,Todd County,MN,NA,NA,78.88888888888889
56374,Stearns County,MN,96.82539682539682,NA,NA
56501,Becker County,MN,35.23809523809524,NA,NA
56701,Pennington County,MN,NA,NA,34.074074074074076
56716,Polk County,MN,28.57142857142857,NA,NA
38637,DeSoto County,MS,74.92063492063492,NA,NA
38801,Lee County,MS,NA,NA,41.2962962962963
38965,Yalobusha County,MS,NA,NA,70.55555555555556
39047,Rankin County,MS,NA,NA,40.55555555555556
39069,Jefferson County,MS,NA,NA,94.07407407407408
39073,Rankin County,MS,85.39682539682539,NA,NA
39120,Adams County,MS,NA,86.94362017804154,NA
39150,Claiborne County,MS,NA,90.80118694362018,NA
39180,Warren County,MS,40,NA,NA
39440,Jones County,MS,53.96825396825397,NA,NA
39466,Pearl River County,MS,NA,NA,18.333333333333332
39503,Harrison County,MS,10.476190476190476,NA,NA
39652,Pike County,MS,NA,82.19584569732937,NA
39744,Webster County,MS,NA,80.41543026706232,NA
63021,St. Louis County,MO,NA,9.198813056379821,NA
63025,St. Louis County,MO,NA,NA,74.07407407407408
63049,Jefferson County,MO,NA,NA,74.25925925925925
63114,St. Louis County,MO,NA,NA,40
63118,St. Louis city,MO,NA,45.6973293768546,NA
63128,St. Louis County,MO,NA,20.77151335311573,NA
63136,St. Louis County,MO,6.984126984126984,NA,NA
63143,St. Louis County,MO,87.61904761904762,NA,NA
63301,St. Charles County,MO,NA,NA,2.9629629629629632
63401,Marion County,MO,87.3015873015873,NA,NA
63501,Adair County,MO,NA,68.84272997032642,NA
63701,Cape Girardeau County,MO,NA,NA,22.037037037037038
63755,Cape Girardeau County,MO,NA,NA,38.148148148148145
64012,Cass County,MO,NA,24.33234421364985,NA
64037,Lafayette County,MO,NA,83.67952522255193,NA
64053,Jackson County,MO,78.41269841269842,NA,NA
64056,Jackson County,MO,25.396825396825395,NA,88.88888888888889
64068,Clay County,MO,NA,5.341246290801187,NA
64085,Ray County,MO,NA,NA,54.81481481481482
64110,Jackson County,MO,32.06349206349206,NA,NA
64116,Clay County,MO,NA,NA,54.25925925925926
64133,Jackson County,MO,4.1269841269841265,NA,NA
64152,Platte County,MO,NA,39.16913946587537,NA
64506,Buchanan County,MO,NA,5.637982195845697,NA
64850,Newton County,MO,NA,NA,21.85185185185185
65020,Camden County,MO,NA,71.51335311572701,NA
65270,Randolph County,MO,NA,NA,66.2962962962963
65301,Pettis County,MO,3.492063492063492,NA,NA
65616,Taney County,MO,NA,NA,26.111111111111114
65625,Barry County,MO,NA,NA,75
65706,Webster County,MO,NA,NA,63.33333333333333
65721,Christian County,MO,NA,NA,51.48148148148148
59102,Yellowstone County,MT,NA,NA,1.1111111111111112
59270,Richland County,MT,95.87301587301587,NA,NA
59715,Gallatin County,MT,NA,38.57566765578635,NA
59833,Ravalli County,MT,NA,NA,98.33333333333333
59840,Ravalli County,MT,NA,NA,43.148148148148145
59923,Lincoln County,MT,60.317460317460316,NA,NA
68116,Douglas County,NE,NA,64.09495548961425,NA
68124,Douglas County,NE,NA,NA,68.33333333333333
68128,Sarpy County,NE,NA,75.37091988130564,NA
68467,York County,NE,90.15873015873017,NA,NA
68510,Lancaster County,NE,75.23809523809524,NA,NA
68701,Madison County,NE,NA,NA,76.48148148148148
68847,Buffalo County,NE,NA,NA,58.88888888888889
89108,Clark County,NV,NA,NA,36.2962962962963
89110,Clark County,NV,NA,68.5459940652819,NA
89121,Clark County,NV,NA,31.750741839762615,NA
89156,Clark County,NV,NA,70.62314540059347,NA
89410,Douglas County,NV,NA,NA,40.55555555555556
89431,Washoe County,NV,22.22222222222222,NA,27.22222222222222
89433,Washoe County,NV,NA,89.31750741839762,NA
89503,Washoe County,NV,NA,45.99406528189911,NA
03051,Hillsborough County,NH,NA,16.023738872403563,67.4074074074074
03303,Merrimack County,NH,NA,NA,35.37037037037037
07002,Hudson County,NJ,NA,NA,9.62962962962963
07003,Essex County,NJ,NA,NA,34.629629629629626
07017,Essex County,NJ,0.9523809523809524,NA,NA
07039,Essex County,NJ,20.952380952380953,NA,NA
07050,Essex County,NJ,NA,34.42136498516321,NA
07060,Union County,NJ,NA,NA,61.66666666666667
07075,Bergen County,NJ,NA,NA,84.44444444444444
07306,Hudson County,NJ,NA,NA,15.74074074074074
07417,Bergen County,NJ,NA,NA,86.48148148148148
07432,Bergen County,NJ,NA,97.62611275964392,NA
07470,Passaic County,NJ,NA,NA,5.555555555555555
07621,Bergen County,NJ,NA,NA,48.333333333333336
07630,Bergen County,NJ,NA,NA,72.5925925925926
07701,Monmouth County,NJ,NA,NA,53.333333333333336
07748,Monmouth County,NJ,NA,62.908011869436194,NA
07801,Morris County,NJ,19.682539682539684,NA,NA
08012,Camden County,NJ,NA,12.166172106824925,NA
08015,Burlington County,NJ,14.603174603174605,NA,NA
08055,Burlington County,NJ,NA,62.01780415430267,38.51851851851852
08060,Burlington County,NJ,NA,NA,76.85185185185185
08087,Ocean County,NJ,NA,NA,12.592592592592592
08204,Cape May County,NJ,NA,NA,32.592592592592595
08244,Atlantic County,NJ,NA,66.17210682492582,NA
08401,Atlantic County,NJ,NA,NA,20
08559,Hunterdon County,NJ,NA,NA,98.70370370370371
08609,Mercer County,NJ,67.61904761904762,NA,NA
08618,Mercer County,NJ,NA,NA,37.592592592592595
08648,Mercer County,NJ,NA,NA,55.74074074074075
08723,Ocean County,NJ,NA,21.364985163204746,NA
08844,Somerset County,NJ,NA,NA,61.85185185185185
08854,Middlesex County,NJ,NA,NA,30.37037037037037
08879,Middlesex County,NJ,NA,56.083086053412465,NA
08884,Middlesex County,NJ,NA,NA,92.96296296296296
08901,Middlesex County,NJ,NA,67.95252225519289,NA
87104,Bernalillo County,NM,NA,NA,89.25925925925927
87105,Bernalillo County,NM,2.857142857142857,NA,NA
87106,Bernalillo County,NM,NA,43.32344213649852,NA
87112,Bernalillo County,NM,NA,NA,4.444444444444445
87120,Bernalillo County,NM,NA,NA,22.407407407407405
87571,Taos County,NM,NA,52.818991097922854,NA
87701,San Miguel County,NM,NA,52.22551928783383,80
88001,Doa Ana County,NM,26.031746031746035,NA,NA
88260,Lea County,NM,NA,NA,84.25925925925925
10003,New York County,NY,NA,NA,17.962962962962965
10014,New York County,NY,NA,NA,64.81481481481481
10016,New York County,NY,NA,NA,64.44444444444444
10022,New York County,NY,NA,NA,25.185185185185183
10040,New York County,NY,NA,NA,33.7037037037037
10304,Richmond County,NY,NA,NA,30
10305,Richmond County,NY,NA,13.353115727002967,NA
10451,Bronx County,NY,1.9047619047619049,NA,NA
10522,Westchester County,NY,NA,NA,80.55555555555556
10528,Westchester County,NY,93.01587301587301,NA,NA
10541,Putnam County,NY,NA,NA,60.74074074074074
10580,Westchester County,NY,NA,NA,36.48148148148148
10704,Westchester County,NY,NA,NA,50.37037037037037
10941,Orange County,NY,NA,NA,78.70370370370371
10954,Rockland County,NY,52.38095238095239,NA,NA
10956,Rockland County,NY,NA,NA,27.77777777777778
11204,Kings County,NY,NA,NA,6.111111111111111
11228,Kings County,NY,NA,NA,53.148148148148145
11229,Kings County,NY,NA,NA,2.7777777777777777
11370,Queens County,NY,88.57142857142857,NA,NA
11378,Queens County,NY,NA,NA,77.77777777777779
11428,Queens County,NY,86.03174603174604,NA,NA
11435,Queens County,NY,NA,12.759643916913946,NA
11510,Nassau County,NY,NA,NA,44.44444444444444
11756,Nassau County,NY,NA,NA,45.55555555555556
11788,Suffolk County,NY,NA,NA,70.18518518518519
11791,Nassau County,NY,NA,NA,63.70370370370371
11798,Suffolk County,NY,93.33333333333333,NA,NA
11961,Suffolk County,NY,NA,64.39169139465875,NA
12033,Rensselaer County,NY,NA,NA,79.07407407407408
12065,Saratoga County,NY,NA,NA,22.22222222222222
12078,Fulton County,NY,NA,8.30860534124629,NA
12118,Saratoga County,NY,57.14285714285714,NA,NA
12414,Greene County,NY,NA,NA,71.66666666666667
13021,Cayuga County,NY,NA,NA,15.185185185185185
13027,Onondaga County,NY,NA,NA,46.666666666666664
13104,Onondaga County,NY,48.25396825396825,NA,NA
13112,Onondaga County,NY,99.36507936507937,NA,NA
13205,Onondaga County,NY,NA,NA,46.48148148148148
13340,Herkimer County,NY,52.38095238095239,NA,NA
13357,Herkimer County,NY,31.746031746031743,NA,NA
13403,Oneida County,NY,NA,73.88724035608308,NA
13438,Oneida County,NY,NA,NA,96.29629629629629
13619,Jefferson County,NY,NA,NA,37.77777777777778
14020,Genesee County,NY,NA,NA,27.40740740740741
14094,Niagara County,NY,NA,1.483679525222552,NA
14120,Niagara County,NY,NA,5.044510385756676,NA
14204,Erie County,NY,38.095238095238095,NA,NA
14220,Erie County,NY,NA,NA,63.14814814814815
14227,Erie County,NY,NA,24.92581602373887,NA
14305,Niagara County,NY,NA,NA,57.96296296296296
14512,Ontario County,NY,92.6984126984127,NA,NA
14522,Wayne County,NY,NA,27.002967359050444,NA
14609,Monroe County,NY,0,NA,NA
14617,Monroe County,NY,NA,3.857566765578635,NA
14871,Chemung County,NY,NA,NA,93.51851851851852
27030,Surry County,NC,NA,NA,10.185185185185185
27107,Forsyth County,NC,21.904761904761905,NA,NA
27205,Randolph County,NC,37.142857142857146,NA,NA
27217,Alamance County,NC,12.380952380952381,NA,NA
27295,Davidson County,NC,NA,NA,1.6666666666666667
27310,Guilford County,NC,NA,NA,97.96296296296296
27405,Guilford County,NC,NA,NA,21.48148148148148
27501,Harnett County,NC,48.57142857142857,NA,NA
27525,Franklin County,NC,NA,64.39169139465875,NA
27529,Wake County,NC,NA,NA,57.77777777777777
27549,Franklin County,NC,NA,NA,37.03703703703704
27609,Wake County,NC,NA,NA,28.888888888888886
27703,Durham County,NC,NA,9.495548961424333,NA
27870,Halifax County,NC,NA,30.56379821958457,NA
27909,Pasquotank County,NC,NA,10.979228486646884,17.22222222222222
28092,Lincoln County,NC,NA,NA,42.77777777777778
28110,Union County,NC,52.06349206349207,NA,NA
28210,Mecklenburg County,NC,NA,NA,32.407407407407405
28269,Mecklenburg County,NC,NA,NA,73.70370370370371
28278,Mecklenburg County,NC,NA,79.52522255192879,NA
28327,Moore County,NC,NA,90.20771513353115,NA
28374,Moore County,NC,97.14285714285714,NA,NA
28412,New Hanover County,NC,NA,25.816023738872403,NA
28433,Bladen County,NC,NA,NA,88.51851851851852
28467,Brunswick County,NC,NA,NA,71.29629629629629
28470,Brunswick County,NC,NA,NA,86.85185185185185
28518,Duplin County,NC,NA,NA,90.92592592592592
28560,Craven County,NC,NA,42.13649851632047,NA
28584,Carteret County,NC,72.6984126984127,NA,NA
28625,Iredell County,NC,NA,NA,24.444444444444443
28792,Henderson County,NC,28.888888888888886,8.605341246290802,NA
28803,Buncombe County,NC,NA,NA,23.14814814814815
28804,Buncombe County,NC,NA,NA,69.81481481481482
28906,Cherokee County,NC,NA,NA,17.59259259259259
58201,Grand Forks County,ND,NA,36.20178041543027,NA
43016,Franklin County,OH,NA,NA,45
43085,Franklin County,OH,63.49206349206349,NA,NA
43103,Pickaway County,OH,71.74603174603175,NA,NA
43105,Fairfield County,OH,NA,NA,77.22222222222223
43214,Franklin County,OH,NA,NA,51.2962962962963
43221,Franklin County,OH,NA,NA,39.25925925925926
43222,Franklin County,OH,NA,95.54896142433235,NA
43224,Franklin County,OH,NA,NA,25.74074074074074
43229,Franklin County,OH,NA,7.71513353115727,NA
43232,Franklin County,OH,3.1746031746031744,NA,NA
43302,Marion County,OH,NA,NA,4.074074074074074
43410,Sandusky County,OH,46.34920634920635,NA,NA
43512,Defiance County,OH,3.8095238095238098,NA,NA
43528,Lucas County,OH,NA,NA,71.48148148148148
43606,Lucas County,OH,16.507936507936506,NA,NA
43723,Guernsey County,OH,NA,54.89614243323442,NA
43758,Morgan County,OH,100,NA,NA
43907,Harrison County,OH,72.06349206349206,NA,NA
44035,Lorain County,OH,NA,0,3.3333333333333335
44047,Ashtabula County,OH,NA,56.37982195845698,NA
44074,Lorain County,OH,NA,49.25816023738873,56.666666666666664
44110,Cuyahoga County,OH,8.88888888888889,NA,NA
44123,Cuyahoga County,OH,26.666666666666668,NA,NA
44126,Cuyahoga County,OH,NA,NA,39.07407407407407
44128,Cuyahoga County,OH,NA,0.8902077151335311,NA
44130,Cuyahoga County,OH,NA,NA,0
44134,Cuyahoga County,OH,7.936507936507936,NA,NA
44145,Cuyahoga County,OH,NA,NA,3.888888888888889
44313,Summit County,OH,NA,54.3026706231454,NA
44408,Columbiana County,OH,NA,71.81008902077151,NA
44446,Trumbull County,OH,13.015873015873018,NA,NA
44460,Columbiana County,OH,NA,7.121661721068249,NA
44662,Stark County,OH,NA,NA,71.11111111111111
44672,Mahoning County,OH,NA,NA,98.14814814814815
44685,Summit County,OH,42.22222222222222,NA,NA
44709,Stark County,OH,NA,NA,62.03703703703704
44813,Richland County,OH,NA,NA,80.37037037037037
44820,Crawford County,OH,NA,67.35905044510386,NA
44857,Huron County,OH,NA,6.231454005934718,NA
45014,Butler County,OH,NA,NA,17.59259259259259
45040,Warren County,OH,NA,NA,24.25925925925926
45152,Warren County,OH,NA,84.86646884272997,NA
45213,Hamilton County,OH,NA,NA,82.4074074074074
45219,Hamilton County,OH,NA,NA,99.44444444444444
45233,Hamilton County,OH,72.38095238095238,NA,NA
45236,Hamilton County,OH,49.523809523809526,NA,NA
45242,Hamilton County,OH,67.3015873015873,NA,NA
45245,Clermont County,OH,84.76190476190476,NA,NA
45309,Montgomery County,OH,NA,NA,47.03703703703704
45324,Greene County,OH,NA,NA,19.25925925925926
45327,Montgomery County,OH,NA,NA,88.33333333333333
45342,Montgomery County,OH,NA,NA,20.555555555555554
45345,Montgomery County,OH,NA,76.8545994065282,NA
45365,Shelby County,OH,10.793650793650794,NA,NA
45373,Miami County,OH,NA,NA,36.666666666666664
45385,Greene County,OH,NA,NA,7.592592592592593
45420,Montgomery County,OH,NA,42.72997032640949,NA
45434,Greene County,OH,NA,NA,90.37037037037037
45503,Clark County,OH,7.301587301587302,NA,NA
45612,Ross County,OH,NA,86.05341246290801,NA
45638,Lawrence County,OH,NA,2.967359050445104,25
45662,Scioto County,OH,NA,NA,3.5185185185185186
45680,Lawrence County,OH,11.428571428571429,NA,NA
45694,Scioto County,OH,NA,19.881305637982198,NA
45804,Allen County,OH,NA,NA,20.37037037037037
73008,Oklahoma County,OK,NA,59.940652818991104,NA
73020,Oklahoma County,OK,36.19047619047619,NA,NA
73036,Canadian County,OK,36.507936507936506,NA,NA
73071,Cleveland County,OK,NA,NA,68.51851851851852
73109,Oklahoma County,OK,62.857142857142854,NA,NA
73112,Oklahoma County,OK,32.698412698412696,NA,NA
73115,Oklahoma County,OK,54.6031746031746,NA,NA
73120,Oklahoma County,OK,NA,26.706231454005934,NA
73701,Garfield County,OK,NA,87.24035608308606,NA
73703,Garfield County,OK,NA,NA,44.25925925925926
74011,Tulsa County,OK,63.8095238095238,NA,NA
74014,Wagoner County,OK,33.01587301587301,NA,NA
74039,Creek County,OK,NA,100,NA
74135,Tulsa County,OK,77.14285714285715,45.40059347181009,NA
74331,Delaware County,OK,NA,78.04154302670622,NA
74429,Wagoner County,OK,74.28571428571429,NA,NA
74884,Seminole County,OK,79.36507936507937,NA,NA
74953,Le Flore County,OK,NA,NA,89.81481481481481
74965,Adair County,OK,NA,NA,98.88888888888889
97080,Multnomah County,OR,NA,17.804154302670625,NA
97138,Clatsop County,OR,56.82539682539682,NA,NA
97214,Multnomah County,OR,NA,81.89910979228486,NA
97222,Clackamas County,OR,NA,NA,46.2962962962963
97239,Multnomah County,OR,NA,NA,62.59259259259259
97305,Marion County,OR,NA,NA,62.77777777777778
97378,Yamhill County,OR,NA,NA,83.7037037037037
97487,Lane County,OR,NA,NA,96.48148148148148
97502,Jackson County,OR,NA,NA,34.81481481481482
97526,Josephine County,OR,NA,36.795252225519285,NA
97603,Klamath County,OR,NA,NA,3.148148148148148
97741,Jefferson County,OR,NA,NA,77.5925925925926
15037,Allegheny County,PA,NA,70.91988130563797,NA
15063,Washington County,PA,62.22222222222222,NA,NA
15068,Westmoreland County,PA,NA,NA,3.7037037037037033
15133,Allegheny County,PA,NA,NA,88.14814814814815
15136,Allegheny County,PA,28.253968253968253,NA,NA
15146,Allegheny County,PA,NA,NA,31.296296296296294
15221,Allegheny County,PA,NA,NA,14.814814814814813
15234,Allegheny County,PA,NA,NA,53.51851851851852
15236,Allegheny County,PA,NA,29.970326409495552,NA
15301,Washington County,PA,NA,NA,10.555555555555555
15317,Washington County,PA,27.936507936507937,8.011869436201781,NA
15425,Fayette County,PA,NA,NA,37.22222222222222
15478,Fayette County,PA,NA,63.798219584569736,NA
15501,Somerset County,PA,NA,50.74183976261127,NA
15626,Westmoreland County,PA,NA,NA,75.92592592592592
15767,Jefferson County,PA,NA,NA,23.333333333333332
16002,Butler County,PA,53.333333333333336,NA,NA
16127,Mercer County,PA,68.57142857142857,NA,NA
16507,Erie County,PA,81.26984126984127,NA,NA
16601,Blair County,PA,NA,6.824925816023739,NA
16602,Blair County,PA,61.26984126984127,NA,NA
16830,Clearfield County,PA,NA,30.267062314540063,NA
16841,Centre County,PA,90.7936507936508,NA,NA
17015,Cumberland County,PA,39.36507936507937,NA,NA
17033,Dauphin County,PA,NA,NA,22.962962962962962
17044,Mifflin County,PA,NA,NA,9.074074074074074
17053,Perry County,PA,NA,NA,91.2962962962963
17055,Cumberland County,PA,NA,NA,6.666666666666667
17057,Dauphin County,PA,18.095238095238095,13.649851632047477,NA
17111,Dauphin County,PA,NA,4.747774480712167,NA
17362,York County,PA,NA,NA,52.22222222222223
17403,York County,PA,NA,2.0771513353115725,NA
17543,Lancaster County,PA,23.49206349206349,NA,NA
17866,Northumberland County,PA,NA,62.61127596439169,NA
17976,Schuylkill County,PA,82.22222222222221,NA,NA
18018,Lehigh County,PA,NA,NA,8.333333333333332
18020,Northampton County,PA,NA,NA,26.296296296296294
18032,Lehigh County,PA,NA,NA,72.77777777777777
18064,Northampton County,PA,NA,NA,15.925925925925927
18067,Northampton County,PA,NA,28.18991097922849,NA
18072,Northampton County,PA,NA,97.03264094955489,NA
18102,Lehigh County,PA,NA,NA,19.62962962962963
18301,Monroe County,PA,NA,30.86053412462908,NA
18411,Lackawanna County,PA,NA,NA,26.851851851851855
18508,Lackawanna County,PA,NA,NA,58.51851851851851
18840,Bradford County,PA,NA,82.19584569732937,NA
18974,Bucks County,PA,NA,NA,2.037037037037037
19006,Montgomery County,PA,NA,35.01483679525222,45.925925925925924
19014,Delaware County,PA,NA,NA,49.44444444444444
19018,Delaware County,PA,57.77777777777777,NA,NA
19054,Bucks County,PA,NA,NA,84.07407407407408
19074,Delaware County,PA,86.98412698412699,NA,NA
19076,Delaware County,PA,NA,88.72403560830861,NA
19095,Montgomery County,PA,NA,NA,87.22222222222223
19116,Philadelphia County,PA,27.3015873015873,NA,NA
19124,Philadelphia County,PA,NA,NA,29.074074074074076
19126,Philadelphia County,PA,30.476190476190478,NA,NA
19129,Philadelphia County,PA,NA,NA,82.5925925925926
19141,Philadelphia County,PA,7.6190476190476195,NA,NA
19149,Philadelphia County,PA,NA,NA,32.77777777777778
19342,Delaware County,PA,NA,NA,29.629629629629626
19401,Montgomery County,PA,8.253968253968253,NA,NA
19403,Montgomery County,PA,NA,35.311572700296736,NA
02809,Bristol County,RI,NA,NA,39.44444444444444
02904,Providence County,RI,NA,NA,16.48148148148148
02914,Providence County,RI,NA,NA,25.185185185185183
29115,Orangeburg County,SC,33.65079365079365,NA,NA
29127,Newberry County,SC,81.58730158730158,NA,NA
29150,Sumter County,SC,66.34920634920634,NA,NA
29323,Spartanburg County,SC,51.11111111111111,NA,NA
29340,Cherokee County,SC,NA,NA,39.81481481481482
29369,Spartanburg County,SC,NA,67.65578635014838,NA
29410,Berkeley County,SC,NA,NA,92.4074074074074
29464,Charleston County,SC,NA,21.958456973293767,13.518518518518519
29556,Williamsburg County,SC,NA,NA,91.66666666666666
29585,Georgetown County,SC,NA,NA,38.333333333333336
29611,Greenville County,SC,58.730158730158735,NA,NA
29617,Greenville County,SC,32.38095238095238,NA,NA
29621,Anderson County,SC,NA,NA,11.851851851851853
29626,Anderson County,SC,NA,NA,60.92592592592593
29644,Greenville County,SC,NA,NA,91.85185185185185
29646,Greenwood County,SC,NA,NA,30.185185185185187
29673,Greenville County,SC,NA,NA,65.18518518518519
29909,Beaufort County,SC,NA,13.056379821958458,NA
57104,Minnehaha County,SD,NA,NA,12.777777777777777
57701,Pennington County,SD,NA,13.94658753709199,NA
37033,Hickman County,TN,NA,NA,86.29629629629629
37034,Marshall County,TN,80.95238095238095,NA,NA
37058,Stewart County,TN,NA,NA,97.5925925925926
37064,Williamson County,TN,NA,NA,22.77777777777778
37074,Trousdale County,TN,65.39682539682539,80.1186943620178,NA
37075,Sumner County,TN,15.555555555555555,NA,NA
37090,Wilson County,TN,62.53968253968254,NA,NA
37122,Wilson County,TN,NA,NA,32.03703703703704
37190,Cannon County,TN,NA,90.50445103857567,NA
37211,Davidson County,TN,NA,NA,18.14814814814815
37218,Davidson County,TN,47.61904761904761,NA,NA
37302,Hamilton County,TN,99.04761904761905,NA,NA
37336,Bradley County,TN,94.92063492063491,NA,NA
37354,Monroe County,TN,NA,46.29080118694362,54.074074074074076
37381,Rhea County,TN,NA,NA,69.07407407407408
37416,Hamilton County,TN,51.42857142857142,NA,75.37037037037037
37617,Sullivan County,TN,70.47619047619048,NA,NA
37650,Unicoi County,TN,NA,46.88427299703264,NA
37659,Washington County,TN,33.33333333333333,NA,NA
37660,Sullivan County,TN,NA,NA,9.074074074074074
37748,Roane County,TN,31.11111111111111,NA,NA
37803,Blount County,TN,NA,NA,14.444444444444443
37807,Union County,TN,NA,84.56973293768546,NA
37821,Cocke County,TN,NA,28.486646884272997,NA
37830,Anderson County,TN,NA,23.738872403560833,NA
37876,Sevier County,TN,NA,61.12759643916914,NA
37886,Blount County,TN,86.34920634920636,NA,NA
37921,Knox County,TN,NA,NA,76.11111111111111
37931,Knox County,TN,NA,NA,59.81481481481481
37932,Knox County,TN,NA,69.13946587537092,NA
37934,Knox County,TN,NA,NA,50.74074074074074
38002,Shelby County,TN,NA,NA,60
38115,Shelby County,TN,NA,NA,73.33333333333333
38119,Shelby County,TN,76.19047619047619,NA,NA
38305,Madison County,TN,NA,10.385756676557865,NA
38330,Gibson County,TN,95.23809523809523,NA,NA
38478,Giles County,TN,NA,NA,65.55555555555556
38501,Putnam County,TN,NA,NA,27.59259259259259
38506,Putnam County,TN,37.77777777777778,NA,35
75034,Denton County,TX,NA,NA,40.370370370370374
75068,Denton County,TX,NA,NA,90.55555555555556
75070,Collin County,TX,15.238095238095239,NA,NA
75071,Collin County,TX,NA,33.531157270029674,NA
75077,Denton County,TX,NA,51.632047477744806,NA
75078,Collin County,TX,NA,92.87833827893175,NA
75080,Dallas County,TX,NA,NA,15
75089,Dallas County,TX,59.04761904761905,NA,NA
75104,Dallas County,TX,NA,NA,94.44444444444444
75160,Kaufman County,TX,NA,55.19287833827893,NA
75165,Ellis County,TX,26.984126984126984,NA,64.07407407407408
75169,Van Zandt County,TX,NA,NA,69.44444444444444
75218,Dallas County,TX,NA,63.20474777448071,NA
75243,Dallas County,TX,NA,NA,41.2962962962963
75482,Hopkins County,TX,NA,NA,42.77777777777778
75633,Panola County,TX,NA,NA,82.96296296296296
75662,Gregg County,TX,79.04761904761905,NA,47.592592592592595
75754,Van Zandt County,TX,NA,NA,82.03703703703704
75771,Smith County,TX,51.746031746031754,NA,NA
75839,Anderson County,TX,NA,NA,87.96296296296296
75904,Angelina County,TX,NA,11.869436201780417,NA
75949,Angelina County,TX,NA,94.3620178041543,NA
75951,Jasper County,TX,46.666666666666664,NA,NA
76034,Tarrant County,TX,NA,64.98516320474778,NA
76067,Palo Pinto County,TX,NA,58.753709198813056,NA
76137,Tarrant County,TX,21.26984126984127,19.584569732937684,NA
76226,Denton County,TX,NA,67.95252225519289,NA
76437,Eastland County,TX,NA,93.17507418397626,NA
76448,Eastland County,TX,NA,NA,92.96296296296296
76502,Bell County,TX,NA,10.682492581602373,2.2222222222222223
76543,Bell County,TX,NA,18.100890207715135,NA
76643,McLennan County,TX,69.2063492063492,NA,NA
77061,Harris County,TX,NA,83.38278931750742,NA
77071,Harris County,TX,NA,NA,89.44444444444444
77086,Harris County,TX,64.44444444444444,NA,NA
77095,Harris County,TX,17.142857142857142,NA,NA
77336,Harris County,TX,NA,NA,95
77340,Walker County,TX,NA,88.13056379821958,NA
77351,Polk County,TX,41.58730158730159,NA,NA
77355,Montgomery County,TX,NA,50.14836795252226,NA
77372,Montgomery County,TX,89.20634920634922,NA,NA
77379,Harris County,TX,NA,NA,9.814814814814815
77449,Harris County,TX,NA,24.629080118694365,NA
77461,Fort Bend County,TX,NA,96.73590504451039,NA
77494,Fort Bend County,TX,NA,NA,36.851851851851855
77511,Brazoria County,TX,14.920634920634921,NA,14.25925925925926
77536,Harris County,TX,35.55555555555556,NA,NA
77578,Brazoria County,TX,64.12698412698413,NA,NA
77801,Brazos County,TX,78.41269841269842,NA,NA
77802,Brazos County,TX,NA,18.397626112759642,NA
77808,Brazos County,TX,58.0952380952381,NA,NA
77845,Brazos County,TX,NA,49.85163204747774,1.8518518518518516
77901,Victoria County,TX,NA,NA,29.814814814814817
78109,Bexar County,TX,44.761904761904766,NA,NA
78121,Wilson County,TX,NA,91.98813056379822,NA
78155,Guadalupe County,TX,NA,32.047477744807125,NA
78217,Bexar County,TX,65.07936507936508,NA,NA
78233,Bexar County,TX,NA,NA,56.851851851851855
78260,Bexar County,TX,80.31746031746032,NA,NA
78332,Jim Wells County,TX,NA,NA,59.62962962962963
78363,Kleberg County,TX,NA,NA,66.48148148148148
78418,Nueces County,TX,NA,NA,92.03703703703704
78501,Hidalgo County,TX,NA,NA,11.296296296296296
78521,Cameron County,TX,NA,NA,11.11111111111111
78526,Cameron County,TX,NA,NA,72.96296296296296
78613,Williamson County,TX,NA,14.243323442136498,NA
78644,Caldwell County,TX,NA,NA,69.62962962962963
78681,Williamson County,TX,NA,35.60830860534125,NA
78703,Travis County,TX,NA,92.58160237388724,NA
78728,Travis County,TX,77.77777777777779,NA,NA
78729,Williamson County,TX,NA,81.60237388724035,NA
79106,Potter County,TX,NA,41.839762611275965,NA
79109,Randall County,TX,34.285714285714285,NA,NA
79556,Nolan County,TX,NA,53.70919881305638,NA
79602,Taylor County,TX,NA,NA,72.03703703703704
79606,Taylor County,TX,NA,55.48961424332344,NA
79720,Howard County,TX,47.93650793650794,NA,NA
79835,El Paso County,TX,NA,NA,99.07407407407408
79924,El Paso County,TX,39.682539682539684,NA,19.444444444444446
79934,El Paso County,TX,NA,95.25222551928783,NA
84060,Summit County,UT,NA,NA,89.44444444444444
84066,Duchesne County,UT,NA,89.61424332344214,NA
84093,Salt Lake County,UT,NA,83.08605341246292,NA
84095,Salt Lake County,UT,NA,27.002967359050444,NA
84120,Salt Lake County,UT,NA,18.694362017804153,NA
84121,Salt Lake County,UT,NA,NA,16.666666666666664
84664,Utah County,UT,NA,NA,99.25925925925925
84741,Kane County,UT,NA,NA,95.74074074074073
84780,Washington County,UT,NA,NA,50
05201,Bennington County,VT,44.44444444444444,NA,NA
05478,Franklin County,VT,NA,NA,26.666666666666668
20176,Loudoun County,VA,NA,NA,56.481481481481474
20190,Fairfax County,VA,NA,NA,81.2962962962963
20191,Fairfax County,VA,NA,NA,81.2962962962963
22031,Fairfax County,VA,NA,79.82195845697329,NA
22102,Fairfax County,VA,NA,78.33827893175074,NA
22182,Fairfax County,VA,NA,NA,83.51851851851852
22191,Prince William County,VA,NA,33.23442136498516,NA
22204,Arlington County,VA,NA,78.93175074183976,NA
22207,Arlington County,VA,49.84126984126984,NA,NA
22306,Fairfax County,VA,NA,NA,92.22222222222223
22314,Alexandria city,VA,NA,NA,65.92592592592592
22554,Stafford County,VA,NA,NA,87.5925925925926
22556,Stafford County,VA,NA,71.2166172106825,NA
22602,Frederick County,VA,NA,NA,57.03703703703704
22664,Shenandoah County,VA,NA,61.42433234421365,NA
22801,Harrisonburg city,VA,NA,38.87240356083086,NA
22835,Page County,VA,NA,NA,89.07407407407408
22902,Charlottesville city,VA,NA,NA,40.925925925925924
22960,Orange County,VA,NA,65.8753709198813,NA
22963,Fluvanna County,VA,NA,54.00593471810089,NA
22980,Waynesboro city,VA,8.571428571428571,NA,NA
23185,James City County,VA,NA,3.2640949554896146,NA
23188,James City County,VA,NA,NA,0.3703703703703704
23229,Henrico County,VA,NA,NA,20.925925925925924
23234,Chesterfield County,VA,NA,35.90504451038576,NA
23325,Chesapeake city,VA,NA,NA,49.25925925925926
23464,Virginia Beach city,VA,NA,NA,1.4814814814814816
23518,Norfolk city,VA,38.41269841269842,NA,NA
23692,York County,VA,NA,50.445103857566764,NA
23860,Hopewell city,VA,NA,NA,67.22222222222223
24091,Floyd County,VA,NA,93.76854599406528,NA
24101,Franklin County,VA,NA,NA,93.33333333333333
24141,Radford city,VA,NA,NA,61.111111111111114
24251,Scott County,VA,82.85714285714286,NA,NA
24301,Pulaski County,VA,NA,55.78635014836796,NA
24531,Pittsylvania County,VA,NA,84.86646884272997,NA
24557,Pittsylvania County,VA,94.6031746031746,NA,NA
24590,Albemarle County,VA,91.11111111111111,NA,NA
98038,King County,WA,NA,40.0593471810089,NA
98043,Snohomish County,WA,NA,NA,65.37037037037037
98045,King County,WA,NA,85.45994065281899,NA
98074,King County,WA,NA,NA,85
98115,King County,WA,NA,NA,30.925925925925924
98223,Snohomish County,WA,NA,15.43026706231454,NA
98264,Whatcom County,WA,91.74603174603175,NA,NA
98273,Skagit County,WA,27.3015873015873,NA,NA
98374,Pierce County,WA,NA,NA,62.40740740740741
98502,Thurston County,WA,NA,NA,47.592592592592595
98584,Mason County,WA,NA,17.50741839762611,NA
98822,Chelan County,WA,NA,98.81305637982196,NA
98837,Grant County,WA,NA,NA,18.703703703703702
98942,Yakima County,WA,73.33333333333333,NA,NA
99205,Spokane County,WA,NA,51.33531157270029,NA
99352,Benton County,WA,NA,NA,21.666666666666668
99362,Walla Walla County,WA,55.87301587301587,NA,8.148148148148149
20005,District of Columbia,DC,NA,NA,76.66666666666667
20020,District of Columbia,DC,1.2698412698412698,NA,NA
24701,Mercer County,WV,NA,NA,31.851851851851855
24739,Mercer County,WV,NA,NA,78.33333333333333
24901,Greenbrier County,WV,80.63492063492063,NA,NA
25053,Boone County,WV,84.12698412698413,NA,NA
25411,Morgan County,WV,NA,54.59940652818991,NA
25504,Cabell County,WV,NA,70.32640949554896,NA
25550,Mason County,WV,NA,34.718100890207715,NA
25570,Wayne County,WV,NA,NA,87.03703703703704
26003,Ohio County,WV,NA,15.727002967359049,2.4074074074074074
26301,Harrison County,WV,NA,8.902077151335313,NA
26330,Harrison County,WV,41.269841269841265,NA,NA
53021,Ozaukee County,WI,NA,99.70326409495549,NA
53029,Waukesha County,WI,NA,53.41246290801187,NA
53072,Waukesha County,WI,54.285714285714285,NA,NA
53092,Ozaukee County,WI,NA,NA,13.703703703703704
53104,Kenosha County,WI,NA,72.70029673590504,NA
53158,Kenosha County,WI,NA,NA,67.5925925925926
53189,Waukesha County,WI,NA,NA,40.18518518518518
53209,Milwaukee County,WI,1.5873015873015872,NA,7.777777777777778
53215,Milwaukee County,WI,22.857142857142858,NA,NA
53222,Milwaukee County,WI,NA,39.762611275964396,NA
53235,Milwaukee County,WI,NA,NA,74.25925925925925
53511,Rock County,WI,0.31746031746031744,0.2967359050445104,NA
53566,Green County,WI,NA,16.913946587537094,NA
53711,Dane County,WI,NA,NA,11.481481481481481
53713,Dane County,WI,49.2063492063492,NA,NA
53913,Sauk County,WI,NA,NA,52.59259259259259
54481,Portage County,WI,NA,NA,6.851851851851852
54603,La Crosse County,WI,50.15873015873016,NA,NA
54701,Eau Claire County,WI,NA,NA,36.11111111111111
54703,Eau Claire County,WI,NA,NA,37.407407407407405
54929,Waupaca County,WI,89.52380952380953,NA,NA
82009,Laramie County,WY,NA,NA,57.592592592592595
82414,Park County,WY,71.42857142857143,NA,NA
82601,Natrona County,WY,NA,75.96439169139467,NA
82604,Natrona County,WY,NA,NA,58.7037037037037
