ZipCode,county,state,Youth,Adult
35210,Jefferson County,AL,NA,71.7948717948718
35640,Morgan County,AL,22.023809523809522,NA
35906,Etowah County,AL,NA,87.82051282051282
36251,Clay County,AL,88.69047619047619,NA
36530,Baldwin County,AL,99.10714285714286,NA
99502,Anchorage Municipality,AK,NA,80.44871794871796
99603,Kenai Peninsula Borough,AK,66.66666666666666,NA
99611,Kenai Peninsula Borough,AK,NA,72.11538461538461
85008,Maricopa County,AZ,8.035714285714286,NA
85037,Maricopa County,AZ,43.154761904761905,NA
85041,Maricopa County,AZ,NA,10.576923076923077
85043,Maricopa County,AZ,77.97619047619048,NA
85382,Maricopa County,AZ,52.083333333333336,NA
85388,Maricopa County,AZ,43.154761904761905,NA
85714,Pima County,AZ,NA,33.65384615384615
86327,Yavapai County,AZ,NA,91.02564102564102
71852,Howard County,AR,80.95238095238095,NA
72301,Crittenden County,AR,59.226190476190474,NA
90001,Los Angeles County,CA,36.607142857142854,NA
90056,Los Angeles County,CA,94.34523809523809,NA
90706,Los Angeles County,CA,38.095238095238095,NA
91326,Los Angeles County,CA,69.34523809523809,NA
91360,Ventura County,CA,NA,63.78205128205128
91711,Los Angeles County,CA,NA,82.37179487179486
91744,Los Angeles County,CA,21.13095238095238,NA
91761,San Bernardino County,CA,NA,83.33333333333334
91910,San Diego County,CA,30.654761904761905,NA
91911,San Diego County,CA,NA,24.358974358974358
91932,San Diego County,CA,58.03571428571429,NA
92056,San Diego County,CA,NA,55.12820512820513
92104,San Diego County,CA,NA,27.564102564102566
92311,San Bernardino County,CA,72.61904761904762,NA
92394,San Bernardino County,CA,75.59523809523809,NA
92509,Riverside County,CA,15.178571428571427,NA
92555,Riverside County,CA,NA,59.93589743589743
92691,Orange County,CA,NA,52.88461538461539
92883,Riverside County,CA,76.78571428571429,NA
93212,Kings County,CA,NA,87.17948717948718
93257,Tulare County,CA,NA,14.102564102564102
93277,Tulare County,CA,NA,25
93291,Tulare County,CA,33.035714285714285,22.756410256410255
93313,Kern County,CA,NA,53.205128205128204
93454,Santa Barbara County,CA,NA,31.41025641025641
93534,Los Angeles County,CA,38.98809523809524,NA
93637,Madera County,CA,52.976190476190474,NA
93647,Tulare County,CA,NA,97.75641025641025
93703,Fresno County,CA,26.488095238095237,NA
93704,Fresno County,CA,55.05952380952381,NA
93722,Fresno County,CA,2.6785714285714284,NA
93901,Monterey County,CA,NA,54.807692307692314
93933,Monterey County,CA,NA,66.34615384615384
94062,San Mateo County,CA,NA,56.41025641025641
94108,San Francisco County,CA,NA,85.8974358974359
94115,San Francisco County,CA,68.15476190476191,NA
94501,Alameda County,CA,NA,38.782051282051285
94518,Contra Costa County,CA,NA,91.98717948717949
94520,Contra Costa County,CA,42.26190476190476,NA
94536,Alameda County,CA,NA,32.69230769230769
94577,Alameda County,CA,25.595238095238095,70.83333333333334
94605,Alameda County,CA,NA,24.679487179487182
94803,Contra Costa County,CA,71.13095238095238,NA
95136,Santa Clara County,CA,53.86904761904761,NA
95407,Sonoma County,CA,34.523809523809526,NA
95422,Lake County,CA,NA,60.89743589743589
95457,Lake County,CA,88.39285714285714,NA
95603,Placer County,CA,NA,68.91025641025641
95821,Sacramento County,CA,69.64285714285714,43.58974358974359
95822,Sacramento County,CA,NA,40.06410256410257
95901,Yuba County,CA,28.273809523809522,24.03846153846154
95965,Butte County,CA,NA,20.192307692307693
96003,Shasta County,CA,NA,45.19230769230769
96021,Tehama County,CA,56.845238095238095,NA
80004,Jefferson County,CO,NA,95.51282051282051
80013,Arapahoe County,CO,NA,11.858974358974358
80015,Arapahoe County,CO,NA,19.871794871794872
80021,Jefferson County,CO,30.952380952380953,61.21794871794872
80022,Adams County,CO,NA,19.230769230769234
80027,Boulder County,CO,NA,61.53846153846154
80033,Jefferson County,CO,NA,50.641025641025635
80108,Douglas County,CO,NA,49.67948717948718
80120,Arapahoe County,CO,44.642857142857146,NA
80123,Jefferson County,CO,NA,48.3974358974359
80126,Douglas County,CO,NA,52.56410256410257
80214,Jefferson County,CO,29.761904761904763,NA
80215,Jefferson County,CO,NA,66.66666666666666
80224,Denver County,CO,NA,63.141025641025635
80226,Jefferson County,CO,NA,49.03846153846153
80231,Denver County,CO,NA,39.1025641025641
80232,Jefferson County,CO,61.30952380952381,NA
80241,Adams County,CO,40.476190476190474,NA
80465,Jefferson County,CO,78.86904761904762,NA
80501,Boulder County,CO,27.380952380952383,NA
80516,Weld County,CO,NA,86.21794871794873
80525,Larimer County,CO,15.476190476190476,NA
80526,Larimer County,CO,22.916666666666664,NA
80601,Adams County,CO,NA,34.294871794871796
80909,El Paso County,CO,33.63095238095239,NA
80911,El Paso County,CO,NA,41.66666666666667
80920,El Paso County,CO,41.66666666666667,NA
81003,Pueblo County,CO,NA,68.58974358974359
81501,Mesa County,CO,68.15476190476191,NA
81503,Mesa County,CO,50.89285714285714,NA
06412,Middlesex County,CT,99.70238095238095,NA
06418,New Haven County,CT,NA,88.46153846153845
06443,New Haven County,CT,63.095238095238095,NA
06450,New Haven County,CT,NA,7.371794871794872
06611,Fairfield County,CT,NA,78.2051282051282
32117,Volusia County,FL,NA,33.97435897435898
32131,Putnam County,FL,NA,96.15384615384616
32208,Duval County,FL,69.04761904761905,NA
32259,St. Johns County,FL,87.79761904761905,NA
32757,Lake County,FL,NA,57.692307692307686
32778,Lake County,FL,99.40476190476191,NA
32792,Orange County,FL,26.190476190476193,95.83333333333334
32796,Brevard County,FL,84.22619047619048,89.1025641025641
32807,Orange County,FL,11.011904761904761,NA
32808,Orange County,FL,4.166666666666666,NA
32818,Orange County,FL,41.36904761904761,NA
32828,Orange County,FL,46.42857142857143,NA
32922,Brevard County,FL,49.404761904761905,NA
32958,Indian River County,FL,NA,70.1923076923077
33134,Miami-Dade County,FL,85.11904761904762,NA
33435,Palm Beach County,FL,46.13095238095239,NA
33544,Pasco County,FL,79.16666666666666,NA
33609,Hillsborough County,FL,95.83333333333334,NA
33629,Hillsborough County,FL,93.75,NA
33702,Pinellas County,FL,NA,53.84615384615385
33764,Pinellas County,FL,NA,43.91025641025641
33810,Polk County,FL,NA,88.14102564102564
33844,Polk County,FL,36.01190476190476,NA
33853,Polk County,FL,46.726190476190474,NA
34114,Collier County,FL,NA,81.41025641025641
34610,Pasco County,FL,89.28571428571429,NA
34652,Pasco County,FL,52.38095238095239,NA
34986,St. Lucie County,FL,NA,49.358974358974365
30318,Fulton County,GA,58.333333333333336,NA
30565,Jackson County,GA,NA,95.1923076923077
30736,Catoosa County,GA,40.17857142857143,NA
31605,Lowndes County,GA,50,NA
31793,Tift County,GA,77.67857142857143,NA
39823,Early County,GA,NA,64.74358974358975
96720,Hawaii County,HI,70.83333333333334,NA
96727,Hawaii County,HI,69.64285714285714,NA
83236,Bingham County,ID,100,NA
83301,Twin Falls County,ID,2.083333333333333,4.166666666666666
83401,Bonneville County,ID,67.85714285714286,NA
83402,Bonneville County,ID,63.988095238095234,NA
83440,Madison County,ID,75.89285714285714,NA
83442,Jefferson County,ID,90.17857142857143,NA
83646,Ada County,ID,11.607142857142858,NA
83647,Elmore County,ID,NA,45.83333333333333
83672,Washington County,ID,NA,79.48717948717949
83704,Ada County,ID,19.047619047619047,NA
83854,Kootenai County,ID,58.63095238095239,NA
60085,Lake County,IL,27.67857142857143,NA
60420,Livingston County,IL,82.44047619047619,NA
60443,Cook County,IL,45.23809523809524,NA
60459,Cook County,IL,64.28571428571429,NA
60462,Cook County,IL,54.46428571428571,NA
60473,Cook County,IL,NA,57.37179487179487
60540,DuPage County,IL,20.238095238095237,NA
60548,DeKalb County,IL,78.27380952380952,NA
60619,Cook County,IL,55.35714285714286,NA
60633,Cook County,IL,84.22619047619048,NA
60647,Cook County,IL,38.69047619047619,NA
60651,Cook County,IL,34.82142857142857,10.256410256410255
61032,Stephenson County,IL,NA,35.256410256410255
62439,Lawrence County,IL,89.58333333333334,NA
62832,Perry County,IL,93.45238095238095,NA
46202,Marion County,IN,NA,62.17948717948718
46227,Marion County,IN,NA,11.217948717948719
46260,Marion County,IN,NA,46.15384615384615
46394,Lake County,IN,74.40476190476191,NA
46528,Elkhart County,IN,72.02380952380952,NA
46538,Kosciusko County,IN,94.64285714285714,NA
52240,Johnson County,IA,3.571428571428571,NA
52577,Mahaska County,IA,32.73809523809524,NA
66210,Johnson County,KS,86.01190476190477,NA
66219,Johnson County,KS,80.35714285714286,NA
40220,Jefferson County,KY,NA,38.46153846153847
40513,Fayette County,KY,96.72619047619048,NA
42101,Warren County,KY,14.285714285714285,NA
42122,Warren County,KY,97.32142857142857,NA
70002,Jefferson Parish,LA,50.297619047619044,NA
70037,Plaquemines Parish,LA,NA,41.98717948717949
70043,St. Bernard Parish,LA,48.51190476190476,NA
70058,Jefferson Parish,LA,NA,2.2435897435897436
70068,St. John the Baptist Parish,LA,4.464285714285714,NA
70124,Orleans Parish,LA,NA,78.52564102564102
70339,Assumption Parish,LA,NA,77.88461538461539
70775,West Feliciana Parish,LA,NA,71.47435897435898
70810,East Baton Rouge Parish,LA,8.630952380952381,NA
71107,Caddo Parish,LA,1.1904761904761905,NA
04901,Kennebec County,ME,60.11904761904761,NA
04915,Waldo County,ME,NA,74.35897435897436
20882,Montgomery County,MD,91.07142857142857,NA
21144,Anne Arundel County,MD,37.797619047619044,NA
01020,Hampden County,MA,86.60714285714286,NA
01027,Hampshire County,MA,90.77380952380952,NA
01036,Hampden County,MA,NA,90.06410256410257
01089,Hampden County,MA,NA,5.128205128205128
01119,Hampden County,MA,41.07142857142857,NA
01450,Middlesex County,MA,66.96428571428571,NA
01460,Middlesex County,MA,NA,41.34615384615385
01501,Worcester County,MA,NA,34.61538461538461
01568,Worcester County,MA,73.80952380952381,NA
01603,Worcester County,MA,6.25,1.6025641025641024
01749,Middlesex County,MA,NA,22.115384615384613
01778,Middlesex County,MA,35.41666666666667,NA
01824,Middlesex County,MA,27.083333333333332,10.897435897435898
01835,Essex County,MA,23.511904761904763,NA
01845,Essex County,MA,29.166666666666668,NA
01862,Middlesex County,MA,NA,46.47435897435898
01902,Essex County,MA,NA,3.5256410256410255
01940,Essex County,MA,NA,62.82051282051282
02053,Norfolk County,MA,62.5,NA
02122,Suffolk County,MA,21.428571428571427,NA
02126,Suffolk County,MA,NA,0.3205128205128205
02127,Suffolk County,MA,16.964285714285715,NA
02144,Middlesex County,MA,NA,53.52564102564102
02145,Middlesex County,MA,NA,5.448717948717949
02148,Middlesex County,MA,NA,0
02191,Norfolk County,MA,92.85714285714286,NA
02301,Plymouth County,MA,11.904761904761903,NA
02368,Norfolk County,MA,NA,1.9230769230769231
02459,Middlesex County,MA,41.66666666666667,45.51282051282051
02703,Bristol County,MA,NA,0.9615384615384616
02720,Bristol County,MA,19.642857142857142,NA
02723,Bristol County,MA,7.738095238095238,NA
02724,Bristol County,MA,16.36904761904762,NA
48034,Oakland County,MI,NA,69.23076923076923
48048,Macomb County,MI,NA,76.6025641025641
48066,Macomb County,MI,13.392857142857142,NA
48089,Macomb County,MI,NA,33.01282051282051
48094,Macomb County,MI,NA,51.60256410256411
48104,Washtenaw County,MI,NA,48.07692307692308
48105,Washtenaw County,MI,27.67857142857143,39.743589743589745
48108,Washtenaw County,MI,NA,38.141025641025635
48116,Livingston County,MI,NA,28.846153846153843
48146,Wayne County,MI,NA,9.935897435897436
48154,Wayne County,MI,18.154761904761905,NA
48192,Wayne County,MI,21.726190476190478,NA
48212,Wayne County,MI,NA,37.17948717948718
48223,Wayne County,MI,NA,13.782051282051283
48226,Wayne County,MI,NA,92.94871794871796
48235,Wayne County,MI,5.654761904761905,NA
48237,Oakland County,MI,19.345238095238095,NA
48238,Wayne County,MI,NA,43.269230769230774
48302,Oakland County,MI,NA,72.75641025641025
48507,Genesee County,MI,14.583333333333334,11.538461538461538
48650,Bay County,MI,46.726190476190474,NA
48655,Saginaw County,MI,NA,66.02564102564102
48706,Bay County,MI,NA,9.615384615384617
48723,Tuscola County,MI,NA,27.884615384615387
48809,Ionia County,MI,NA,66.98717948717949
48838,Montcalm County,MI,NA,32.05128205128205
48867,Shiawassee County,MI,8.333333333333332,NA
49048,Kalamazoo County,MI,NA,19.55128205128205
49071,Van Buren County,MI,NA,73.71794871794873
49345,Kent County,MI,65.47619047619048,NA
49349,Newaygo County,MI,NA,84.2948717948718
49412,Newaygo County,MI,NA,65.7051282051282
49423,Ottawa County,MI,11.30952380952381,NA
49508,Kent County,MI,19.940476190476193,7.051282051282051
49546,Kent County,MI,48.214285714285715,NA
49829,Delta County,MI,NA,33.33333333333333
49841,Marquette County,MI,NA,60.57692307692307
55106,Ramsey County,MN,16.071428571428573,29.807692307692307
55109,Ramsey County,MN,NA,85.57692307692307
55117,Ramsey County,MN,NA,18.58974358974359
55118,Dakota County,MN,NA,50.96153846153846
55124,Dakota County,MN,16.36904761904762,NA
55125,Washington County,MN,31.25,NA
55303,Anoka County,MN,10.119047619047619,NA
55330,Sherburne County,MN,14.880952380952381,NA
55407,Hennepin County,MN,37.5,NA
55414,Hennepin County,MN,NA,92.3076923076923
55423,Hennepin County,MN,NA,21.153846153846153
55427,Hennepin County,MN,NA,55.44871794871795
55429,Hennepin County,MN,NA,13.141025641025642
55431,Hennepin County,MN,NA,94.87179487179486
55432,Anoka County,MN,NA,23.397435897435898
55441,Hennepin County,MN,26.488095238095237,74.03846153846155
55448,Anoka County,MN,NA,41.02564102564102
55901,Olmsted County,MN,38.98809523809524,NA
55904,Olmsted County,MN,NA,81.73076923076923
56007,Freeborn County,MN,NA,16.98717948717949
56024,Blue Earth County,MN,98.21428571428571,NA
56501,Becker County,MN,NA,83.65384615384616
39426,Pearl River County,MS,NA,56.08974358974359
39482,Lamar County,MS,65.47619047619048,NA
39501,Harrison County,MS,NA,20.51282051282051
39576,Hancock County,MS,NA,98.71794871794873
63033,St. Louis County,MO,18.452380952380953,NA
63043,St. Louis County,MO,NA,54.48717948717948
63069,Franklin County,MO,70.23809523809523,NA
63077,Franklin County,MO,55.952380952380956,NA
63115,St. Louis city,MO,30.357142857142854,NA
63146,St. Louis County,MO,57.44047619047619,NA
63780,Scott County,MO,NA,82.6923076923077
64050,Jackson County,MO,NA,16.346153846153847
64744,Cedar County,MO,64.88095238095238,NA
65203,Boone County,MO,32.142857142857146,NA
65803,Greene County,MO,5.952380952380952,NA
65804,Greene County,MO,29.166666666666668,NA
59330,Dawson County,MT,80.95238095238095,NA
59701,Silver Bow County,MT,47.91666666666667,63.141025641025635
59715,Gallatin County,MT,NA,52.243589743589745
59801,Missoula County,MT,NA,85.25641025641025
59808,Missoula County,MT,49.107142857142854,NA
68505,Lancaster County,NE,NA,82.05128205128204
03079,Rockingham County,NH,28.57142857142857,NA
03833,Rockingham County,NH,30.059523809523807,NA
07006,Essex County,NJ,59.523809523809526,NA
07016,Union County,NJ,61.60714285714286,NA
07080,Middlesex County,NJ,43.75,NA
07087,Hudson County,NJ,74.10714285714286,NA
07202,Union County,NJ,NA,8.333333333333332
07420,Passaic County,NJ,80.05952380952381,NA
07650,Bergen County,NJ,87.20238095238095,NA
07701,Monmouth County,NJ,43.75,NA
07757,Monmouth County,NJ,86.90476190476191,NA
07825,Warren County,NJ,98.80952380952381,NA
07930,Morris County,NJ,95.23809523809523,NA
07936,Morris County,NJ,85.41666666666666,NA
08009,Camden County,NJ,NA,83.97435897435898
08062,Gloucester County,NJ,47.32142857142857,NA
08093,Gloucester County,NJ,NA,37.5
08094,Gloucester County,NJ,12.797619047619047,NA
08098,Salem County,NJ,77.08333333333334,NA
08201,Atlantic County,NJ,81.54761904761905,NA
08824,Middlesex County,NJ,NA,97.43589743589743
08873,Somerset County,NJ,39.58333333333333,76.92307692307693
87110,Bernalillo County,NM,24.702380952380953,NA
87111,Bernalillo County,NM,NA,4.487179487179487
87112,Bernalillo County,NM,16.964285714285715,NA
87120,Bernalillo County,NM,13.392857142857142,NA
87121,Bernalillo County,NM,2.380952380952381,NA
87313,McKinley County,NM,NA,79.16666666666666
87327,Cibola County,NM,NA,68.26923076923077
87420,San Juan County,NM,NA,30.76923076923077
87505,Santa Fe County,NM,NA,5.769230769230769
87532,Santa Fe County,NM,NA,39.42307692307692
88005,Doa Ana County,NM,NA,42.628205128205124
88130,Roosevelt County,NM,NA,67.3076923076923
10011,New York County,NY,NA,99.03846153846155
10022,New York County,NY,NA,82.6923076923077
10025,New York County,NY,NA,7.6923076923076925
10038,New York County,NY,NA,46.794871794871796
10301,Richmond County,NY,NA,17.94871794871795
10305,Richmond County,NY,67.55952380952381,NA
10306,Richmond County,NY,54.761904761904766,NA
10314,Richmond County,NY,33.92857142857143,NA
10457,Bronx County,NY,0.8928571428571428,NA
10468,Bronx County,NY,NA,1.282051282051282
10469,Bronx County,NY,NA,3.8461538461538463
10549,Westchester County,NY,NA,91.34615384615384
10701,Westchester County,NY,3.273809523809524,NA
10940,Orange County,NY,NA,47.756410256410255
11203,Kings County,NY,12.202380952380953,NA
11206,Kings County,NY,NA,17.307692307692307
11735,Nassau County,NY,NA,90.38461538461539
12550,Orange County,NY,35.714285714285715,32.371794871794876
12865,Washington County,NY,NA,93.91025641025641
13041,Onondaga County,NY,72.32142857142857,NA
13069,Oswego County,NY,NA,6.730769230769231
13114,Oswego County,NY,NA,59.294871794871796
13732,Tioga County,NY,56.547619047619044,NA
13849,Otsego County,NY,NA,98.07692307692307
14006,Erie County,NY,86.01190476190477,NA
14048,Chautauqua County,NY,70.53571428571429,NA
14063,Chautauqua County,NY,51.19047619047619,NA
14092,Niagara County,NY,57.14285714285714,NA
14094,Niagara County,NY,9.523809523809524,NA
14150,Erie County,NY,17.857142857142858,NA
14207,Erie County,NY,53.273809523809526,NA
14208,Erie County,NY,57.738095238095234,NA
14210,Erie County,NY,22.321428571428573,NA
14211,Erie County,NY,5.059523809523809,NA
14212,Erie County,NY,39.88095238095239,NA
14213,Erie County,NY,54.166666666666664,NA
14218,Erie County,NY,65.17857142857143,NA
14220,Erie County,NY,8.928571428571429,NA
14223,Erie County,NY,NA,28.205128205128204
14228,Erie County,NY,51.488095238095234,NA
14305,Niagara County,NY,44.94047619047619,NA
14427,Wyoming County,NY,96.13095238095238,NA
14505,Wayne County,NY,NA,62.5
14513,Wayne County,NY,NA,6.089743589743589
14534,Monroe County,NY,NA,8.653846153846153
14580,Monroe County,NY,0.2976190476190476,NA
14611,Monroe County,NY,7.440476190476191,30.128205128205128
14620,Monroe County,NY,49.702380952380956,NA
14622,Monroe County,NY,NA,23.717948717948715
14623,Monroe County,NY,NA,48.717948717948715
14701,Chautauqua County,NY,4.464285714285714,NA
14712,Chautauqua County,NY,93.15476190476191,NA
14810,Steuben County,NY,47.61904761904761,NA
27537,Vance County,NC,NA,36.53846153846153
27704,Durham County,NC,NA,12.82051282051282
28210,Mecklenburg County,NC,NA,54.166666666666664
28301,Cumberland County,NC,NA,71.15384615384616
28328,Sampson County,NC,81.54761904761905,NA
28352,Scotland County,NC,45.535714285714285,NA
28382,Sampson County,NC,NA,80.12820512820514
28786,Haywood County,NC,NA,35.8974358974359
28803,Buncombe County,NC,NA,51.28205128205128
58078,Cass County,ND,10.714285714285714,NA
58104,Cass County,ND,9.226190476190476,NA
58701,Ward County,ND,5.357142857142857,NA
43113,Pickaway County,OH,NA,14.423076923076922
43227,Franklin County,OH,1.488095238095238,NA
43410,Sandusky County,OH,NA,50
43528,Lucas County,OH,NA,40.38461538461539
43560,Lucas County,OH,83.03571428571429,NA
43701,Muskingum County,OH,NA,0.641025641025641
43725,Guernsey County,OH,NA,15.384615384615385
43764,Perry County,OH,55.654761904761905,NA
43920,Columbiana County,OH,71.72619047619048,NA
43950,Belmont County,OH,28.57142857142857,NA
44052,Lorain County,OH,NA,47.11538461538461
44055,Lorain County,OH,60.71428571428571,NA
44087,Summit County,OH,24.404761904761905,NA
44095,Lake County,OH,NA,21.794871794871796
44104,Cuyahoga County,OH,NA,4.807692307692308
44119,Cuyahoga County,OH,NA,22.435897435897438
44131,Cuyahoga County,OH,NA,42.30769230769231
44135,Cuyahoga County,OH,1.7857142857142856,3.205128205128205
44145,Cuyahoga County,OH,13.095238095238097,NA
44305,Summit County,OH,6.547619047619048,NA
44311,Summit County,OH,78.57142857142857,NA
44512,Mahoning County,OH,NA,12.179487179487179
44601,Stark County,OH,NA,8.974358974358974
44632,Stark County,OH,79.76190476190477,NA
44647,Stark County,OH,42.857142857142854,NA
44708,Stark County,OH,NA,27.24358974358974
44709,Stark County,OH,NA,40.705128205128204
44720,Stark County,OH,20.238095238095237,NA
45140,Clermont County,OH,9.821428571428571,NA
45342,Montgomery County,OH,6.845238095238096,NA
45381,Preble County,OH,NA,90.7051282051282
45406,Montgomery County,OH,NA,15.705128205128204
45640,Jackson County,OH,77.08333333333334,NA
45761,Athens County,OH,NA,96.47435897435898
73008,Oklahoma County,OK,97.61904761904762,NA
73012,Oklahoma County,OK,88.98809523809523,NA
73064,Canadian County,OK,91.96428571428571,NA
73071,Cleveland County,OK,64.28571428571429,NA
73084,Oklahoma County,OK,96.42857142857143,NA
73099,Canadian County,OK,75.29761904761905,NA
73130,Oklahoma County,OK,83.63095238095238,NA
73160,Cleveland County,OK,87.5,NA
74070,Osage County,OK,83.92857142857143,NA
74601,Kay County,OK,NA,44.871794871794876
74960,Adair County,OK,22.321428571428573,26.282051282051285
97004,Clackamas County,OR,97.91666666666666,NA
97006,Washington County,OR,NA,30.448717948717945
97013,Clackamas County,OR,NA,58.97435897435898
97030,Multnomah County,OR,25.297619047619047,NA
97045,Clackamas County,OR,15.773809523809524,NA
97078,Washington County,OR,NA,69.55128205128204
97146,Clatsop County,OR,NA,94.23076923076923
97213,Multnomah County,OR,68.15476190476191,NA
97216,Multnomah County,OR,NA,51.92307692307693
97223,Washington County,OR,36.01190476190476,NA
97229,Washington County,OR,NA,36.858974358974365
97267,Clackamas County,OR,NA,69.87179487179486
97301,Marion County,OR,NA,13.461538461538462
97304,Polk County,OR,55.952380952380956,NA
97321,Linn County,OR,NA,26.923076923076923
97322,Linn County,OR,NA,44.230769230769226
97351,Polk County,OR,71.42857142857143,NA
97361,Polk County,OR,NA,80.76923076923077
97365,Lincoln County,OR,NA,75.32051282051282
97401,Lane County,OR,NA,72.43589743589743
97402,Lane County,OR,50.595238095238095,NA
97448,Lane County,OR,NA,89.74358974358975
97463,Lane County,OR,NA,97.11538461538461
97470,Douglas County,OR,NA,31.08974358974359
97503,Jackson County,OR,NA,64.1025641025641
97838,Umatilla County,OR,20.833333333333336,NA
15012,Westmoreland County,PA,51.488095238095234,NA
15824,Jefferson County,PA,58.92857142857143,NA
16601,Blair County,PA,NA,34.93589743589743
16666,Clearfield County,PA,NA,99.35897435897436
17013,Cumberland County,PA,43.75,NA
17036,Dauphin County,PA,66.36904761904762,NA
17111,Dauphin County,PA,NA,18.269230769230766
17307,Adams County,PA,94.04761904761905,NA
17403,York County,PA,NA,2.8846153846153846
17543,Lancaster County,PA,NA,86.53846153846155
17815,Columbia County,PA,NA,18.91025641025641
17901,Schuylkill County,PA,NA,25.961538461538463
18020,Northampton County,PA,NA,42.94871794871795
18252,Schuylkill County,PA,NA,81.08974358974359
18512,Lackawanna County,PA,92.55952380952381,NA
18840,Bradford County,PA,67.26190476190477,NA
19154,Philadelphia County,PA,NA,17.628205128205128
02806,Bristol County,RI,NA,89.42307692307693
02852,Washington County,RI,63.69047619047619,NA
02905,Providence County,RI,NA,92.62820512820514
29053,Lexington County,SC,62.202380952380956,NA
29078,Kershaw County,SC,79.46428571428571,NA
29172,Lexington County,SC,NA,84.93589743589743
29621,Anderson County,SC,60.416666666666664,NA
29626,Anderson County,SC,95.53571428571429,NA
29627,Anderson County,SC,97.02380952380952,NA
29642,Pickens County,SC,82.73809523809523,NA
29710,York County,SC,NA,58.01282051282052
57029,Hutchinson County,SD,91.66666666666666,NA
57105,Minnehaha County,SD,82.14285714285714,NA
57701,Pennington County,SD,NA,70.51282051282051
37317,Polk County,TN,NA,100
37771,Loudon County,TN,98.51190476190477,NA
37801,Blount County,TN,42.55952380952381,NA
37830,Anderson County,TN,59.82142857142857,NA
37931,Knox County,TN,89.88095238095238,NA
37932,Knox County,TN,76.19047619047619,NA
37938,Knox County,TN,53.57142857142857,NA
38106,Shelby County,TN,31.845238095238095,NA
38109,Shelby County,TN,NA,12.5
38112,Shelby County,TN,25.892857142857146,NA
38116,Shelby County,TN,31.547619047619047,NA
38128,Shelby County,TN,NA,21.474358974358974
38141,Shelby County,TN,NA,47.43589743589743
38583,White County,TN,NA,58.65384615384615
75034,Denton County,TX,23.214285714285715,NA
75126,Kaufman County,TX,91.36904761904762,NA
75217,Dallas County,TX,3.869047619047619,NA
75707,Smith County,TX,92.26190476190477,NA
76078,Wise County,TX,90.47619047619048,NA
76226,Denton County,TX,40.773809523809526,NA
76384,Wilbarger County,TX,62.5,NA
76549,Bell County,TX,NA,56.730769230769226
76550,Lampasas County,TX,NA,64.42307692307693
76904,Tom Green County,TX,NA,61.858974358974365
77511,Brazoria County,TX,NA,16.666666666666664
77520,Harris County,TX,NA,44.55128205128205
77833,Washington County,TX,25,NA
78028,Kerr County,TX,NA,37.82051282051282
78155,Guadalupe County,TX,10.416666666666668,NA
78216,Bexar County,TX,NA,76.28205128205127
78229,Bexar County,TX,NA,88.78205128205127
78405,Nueces County,TX,35.11904761904761,NA
78414,Nueces County,TX,76.48809523809523,NA
78521,Cameron County,TX,12.5,NA
78541,Hidalgo County,TX,24.107142857142858,NA
78542,Hidalgo County,TX,7.142857142857142,NA
78664,Williamson County,TX,85.41666666666666,NA
79603,Taylor County,TX,13.988095238095239,NA
84015,Davis County,UT,NA,23.076923076923077
84124,Salt Lake County,UT,72.91666666666666,NA
84601,Utah County,UT,NA,73.07692307692307
05478,Franklin County,VT,NA,55.769230769230774
23223,Henrico County,VA,2.976190476190476,NA
23236,Chesterfield County,VA,NA,60.256410256410255
24151,Franklin County,VA,48.80952380952381,NA
24251,Scott County,VA,75,NA
98002,King County,WA,36.904761904761905,NA
98003,King County,WA,NA,29.166666666666668
98028,King County,WA,NA,75
98030,King County,WA,NA,25.64102564102564
98031,King County,WA,NA,74.67948717948718
98043,Snohomish County,WA,NA,75.96153846153845
98053,King County,WA,NA,77.56410256410257
98133,King County,WA,NA,29.48717948717949
98155,King County,WA,NA,77.24358974358975
98177,King County,WA,74.40476190476191,NA
98273,Skagit County,WA,NA,28.525641025641026
98368,Jefferson County,WA,66.07142857142857,NA
98466,Pierce County,WA,33.33333333333333,NA
98501,Thurston County,WA,NA,67.62820512820514
98513,Thurston County,WA,NA,75.64102564102564
98579,Thurston County,WA,73.51190476190477,NA
98626,Cowlitz County,WA,60.71428571428571,NA
98802,Douglas County,WA,NA,91.66666666666666
99022,Spokane County,WA,NA,93.26923076923077
99202,Spokane County,WA,63.39285714285714,94.55128205128204
99207,Spokane County,WA,52.38095238095239,98.3974358974359
99212,Spokane County,WA,80.35714285714286,96.47435897435898
99223,Spokane County,WA,72.91666666666666,NA
99224,Spokane County,WA,NA,99.67948717948718
99362,Walla Walla County,WA,NA,59.61538461538461
20032,District of Columbia,DC,NA,6.41025641025641
25901,Fayette County,WV,83.33333333333334,NA
53005,Waukesha County,WI,45.83333333333333,73.3974358974359
53022,Washington County,WI,NA,65.38461538461539
53045,Waukesha County,WI,34.226190476190474,NA
53094,Jefferson County,WI,37.202380952380956,84.61538461538461
53105,Racine County,WI,NA,16.025641025641026
53140,Kenosha County,WI,18.75,NA
53182,Racine County,WI,NA,65.06410256410257
53209,Milwaukee County,WI,NA,2.564102564102564
53210,Milwaukee County,WI,32.44047619047619,NA
53212,Milwaukee County,WI,NA,14.743589743589745
53213,Milwaukee County,WI,NA,50.32051282051282
53217,Milwaukee County,WI,NA,35.57692307692308
53220,Milwaukee County,WI,NA,31.73076923076923
53221,Milwaukee County,WI,NA,20.833333333333336
53222,Milwaukee County,WI,NA,57.05128205128205
53225,Milwaukee County,WI,NA,58.333333333333336
53227,Milwaukee County,WI,NA,36.217948717948715
53405,Racine County,WI,NA,8.012820512820513
53406,Racine County,WI,NA,15.064102564102564
53511,Rock County,WI,0,NA
53520,Green County,WI,NA,78.84615384615384
53525,Rock County,WI,94.64285714285714,NA
53532,Dane County,WI,88.09523809523809,87.5
53545,Rock County,WI,16.964285714285715,NA
53548,Rock County,WI,NA,25.320512820512818
53558,Dane County,WI,NA,86.85897435897436
53593,Dane County,WI,NA,93.58974358974359
53703,Dane County,WI,NA,79.8076923076923
53821,Crawford County,WI,61.60714285714286,NA
53913,Sauk County,WI,38.392857142857146,NA
54601,La Crosse County,WI,NA,9.294871794871796
54729,Chippewa County,WI,23.809523809523807,NA
54751,Dunn County,WI,NA,67.94871794871796
54840,Burnett County,WI,84.22619047619048,NA
54880,Douglas County,WI,0.5952380952380952,NA
54901,Winnebago County,WI,NA,26.602564102564102
