ZipCode,county,state,Youth,Adult,Retirement,Geriatric
35020,Jefferson County,AL,NA,NA,NA,43.884892086330936
35023,Jefferson County,AL,37.88819875776397,NA,NA,27.697841726618705
35207,Jefferson County,AL,NA,74.02985074626865,NA,NA
35217,Jefferson County,AL,NA,NA,79.32405566600397,NA
35235,Jefferson County,AL,NA,62.38805970149254,NA,NA
35550,Walker County,AL,NA,84.4776119402985,NA,NA
35570,Marion County,AL,NA,NA,57.25646123260437,NA
35650,Lawrence County,AL,NA,62.68656716417911,NA,NA
35653,Franklin County,AL,NA,81.49253731343283,NA,NA
35758,Madison County,AL,NA,NA,42.34592445328032,NA
35950,Marshall County,AL,90.37267080745342,NA,NA,NA
35967,DeKalb County,AL,58.38509316770186,NA,NA,NA
36277,Calhoun County,AL,NA,NA,NA,96.40287769784173
36301,Houston County,AL,NA,58.05970149253732,NA,NA
36502,Escambia County,AL,NA,53.73134328358209,NA,NA
36542,Baldwin County,AL,NA,82.53731343283583,NA,NA
36607,Mobile County,AL,NA,NA,NA,92.44604316546763
36869,Russell County,AL,NA,62.089552238805965,NA,NA
99501,Anchorage Municipality,AK,61.80124223602485,27.313432835820894,NA,NA
99503,Anchorage Municipality,AK,NA,55.82089552238806,NA,NA
99654,Matanuska-Susitna Borough,AK,NA,42.38805970149254,NA,NA
99701,Fairbanks North Star Borough,AK,NA,41.492537313432834,NA,NA
99712,Fairbanks North Star Borough,AK,NA,85.82089552238806,NA,NA
99835,Sitka City and Borough,AK,NA,67.16417910447761,NA,NA
85012,Maricopa County,AZ,NA,96.41791044776119,NA,NA
85031,Maricopa County,AZ,86.0248447204969,NA,NA,NA
85041,Maricopa County,AZ,NA,12.53731343283582,NA,NA
85044,Maricopa County,AZ,NA,NA,50.89463220675944,NA
85054,Maricopa County,AZ,95.34161490683229,NA,NA,NA
85119,Pinal County,AZ,NA,NA,48.508946322067594,NA
85122,Pinal County,AZ,7.453416149068323,NA,NA,NA
85131,Pinal County,AZ,NA,82.23880597014926,NA,NA
85140,Pinal County,AZ,NA,41.64179104477612,NA,NA
85202,Maricopa County,AZ,NA,NA,78.92644135188867,NA
85204,Maricopa County,AZ,NA,NA,31.809145129224653,NA
85206,Maricopa County,AZ,21.73913043478261,NA,NA,NA
85208,Maricopa County,AZ,NA,NA,NA,30.935251798561154
85225,Maricopa County,AZ,NA,48.507462686567166,NA,NA
85226,Maricopa County,AZ,59.93788819875776,NA,NA,NA
85248,Maricopa County,AZ,NA,NA,NA,7.913669064748201
85323,Maricopa County,AZ,28.26086956521739,NA,NA,NA
85338,Maricopa County,AZ,NA,40.14925373134328,NA,NA
85367,Yuma County,AZ,NA,86.71641791044776,NA,NA
85388,Maricopa County,AZ,57.7639751552795,NA,NA,NA
85607,Cochise County,AZ,NA,32.985074626865675,NA,NA
85634,Pima County,AZ,NA,NA,32.80318091451292,NA
85701,Pima County,AZ,NA,NA,NA,90.28776978417267
85706,Pima County,AZ,NA,2.5373134328358207,NA,NA
85711,Pima County,AZ,NA,12.835820895522387,NA,NA
85737,Pima County,AZ,NA,NA,NA,46.76258992805755
85743,Pima County,AZ,NA,50,NA,NA
85745,Pima County,AZ,NA,NA,21.669980119284293,NA
85901,Navajo County,AZ,NA,NA,30.81510934393638,NA
86025,Navajo County,AZ,NA,NA,98.40954274353876,NA
86040,Coconino County,AZ,NA,NA,80.11928429423459,NA
86409,Mohave County,AZ,NA,12.238805970149254,NA,NA
71832,Sevier County,AR,NA,NA,NA,89.92805755395683
71909,Garland County,AR,NA,NA,37.57455268389662,NA
72205,Pulaski County,AR,64.28571428571429,NA,NA,NA
72335,St. Francis County,AR,NA,90.8955223880597,NA,NA
72401,Craighead County,AR,NA,NA,NA,20.14388489208633
72450,Greene County,AR,NA,23.582089552238806,NA,NA
72543,Cleburne County,AR,NA,NA,88.66799204771371,NA
72701,Washington County,AR,NA,NA,72.16699801192843,NA
90004,Los Angeles County,CA,NA,NA,NA,50
90011,Los Angeles County,CA,NA,29.701492537313435,NA,NA
90033,Los Angeles County,CA,NA,NA,NA,47.84172661870504
90210,Los Angeles County,CA,NA,NA,51.29224652087475,NA
90260,Los Angeles County,CA,NA,NA,NA,64.74820143884892
90275,Los Angeles County,CA,NA,64.77611940298507,NA,NA
90278,Los Angeles County,CA,NA,68.35820895522387,NA,NA
90605,Los Angeles County,CA,NA,NA,74.35387673956262,NA
90713,Los Angeles County,CA,NA,NA,NA,73.7410071942446
90715,Los Angeles County,CA,90.06211180124224,NA,NA,NA
90745,Los Angeles County,CA,67.08074534161491,NA,NA,25.179856115107913
90804,Los Angeles County,CA,NA,NA,94.63220675944333,NA
91006,Los Angeles County,CA,86.95652173913044,88.95522388059702,NA,NA
91104,Los Angeles County,CA,NA,NA,NA,45.32374100719424
91331,Los Angeles County,CA,NA,16.417910447761194,NA,NA
91355,Los Angeles County,CA,NA,75.97014925373135,NA,NA
91367,Los Angeles County,CA,NA,85.67164179104478,NA,NA
91406,Los Angeles County,CA,NA,NA,42.54473161033797,NA
91601,Los Angeles County,CA,NA,72.53731343283583,NA,NA
91731,Los Angeles County,CA,NA,43.582089552238806,NA,NA
91732,Los Angeles County,CA,NA,NA,69.58250497017893,NA
91762,San Bernardino County,CA,NA,41.04477611940299,NA,NA
91766,Los Angeles County,CA,NA,48.656716417910445,NA,71.22302158273382
91942,San Diego County,CA,NA,70.59701492537313,NA,NA
92021,San Diego County,CA,31.67701863354037,NA,NA,NA
92025,San Diego County,CA,NA,NA,83.1013916500994,NA
92102,San Diego County,CA,NA,NA,87.07753479125249,NA
92105,San Diego County,CA,26.39751552795031,NA,34.1948310139165,NA
92114,San Diego County,CA,NA,NA,30.019880715705767,NA
92128,San Diego County,CA,NA,NA,NA,13.66906474820144
92129,San Diego County,CA,NA,NA,51.491053677932406,NA
92203,Riverside County,CA,NA,NA,NA,33.45323741007194
92236,Riverside County,CA,NA,53.13432835820896,NA,NA
92270,Riverside County,CA,NA,NA,73.35984095427436,NA
92284,San Bernardino County,CA,NA,30.895522388059703,NA,NA
92311,San Bernardino County,CA,68.32298136645963,NA,NA,NA
92336,San Bernardino County,CA,NA,NA,19.284294234592444,NA
92373,San Bernardino County,CA,NA,NA,NA,77.6978417266187
92374,San Bernardino County,CA,NA,NA,66.2027833001988,NA
92392,San Bernardino County,CA,NA,57.76119402985075,NA,NA
92508,Riverside County,CA,NA,NA,75.54671968190854,NA
92614,Orange County,CA,NA,NA,66.00397614314116,NA
92630,Orange County,CA,NA,NA,21.272365805168985,NA
92647,Orange County,CA,NA,NA,61.0337972166998,NA
92651,Orange County,CA,NA,NA,NA,36.69064748201439
92656,Orange County,CA,NA,39.701492537313435,NA,NA
92677,Orange County,CA,NA,NA,11.928429423459244,NA
92688,Orange County,CA,NA,43.88059701492537,NA,NA
92703,Orange County,CA,NA,46.71641791044776,NA,NA
92704,Orange County,CA,NA,38.656716417910445,NA,NA
92705,Orange County,CA,NA,NA,99.40357852882704,NA
92780,Orange County,CA,NA,74.32835820895522,NA,NA
92801,Orange County,CA,NA,NA,38.17097415506958,NA
92805,Orange County,CA,NA,NA,46.3220675944334,NA
92880,Riverside County,CA,NA,NA,NA,69.06474820143885
93001,Ventura County,CA,NA,31.044776119402982,NA,NA
93003,Ventura County,CA,NA,NA,23.45924453280318,NA
93021,Ventura County,CA,NA,NA,80.31809145129225,NA
93035,Ventura County,CA,NA,NA,65.8051689860835,NA
93036,Ventura County,CA,NA,36.11940298507463,NA,NA
93041,Ventura County,CA,69.25465838509317,NA,NA,NA
93110,Santa Barbara County,CA,99.68944099378882,NA,NA,NA
93230,Kings County,CA,25.77639751552795,NA,NA,NA
93306,Kern County,CA,NA,25.223880597014926,NA,NA
93309,Kern County,CA,NA,NA,33.39960238568588,NA
93401,San Luis Obispo County,CA,NA,85.97014925373134,NA,NA
93446,San Luis Obispo County,CA,51.5527950310559,NA,NA,NA
93501,Kern County,CA,NA,99.70149253731343,NA,NA
93535,Los Angeles County,CA,NA,40.8955223880597,NA,NA
93619,Fresno County,CA,NA,50.14925373134328,NA,NA
93654,Fresno County,CA,NA,NA,NA,92.08633093525181
93710,Fresno County,CA,NA,NA,NA,48.561151079136685
93711,Fresno County,CA,NA,NA,NA,39.92805755395683
93924,Monterey County,CA,NA,NA,77.53479125248509,NA
93930,Monterey County,CA,NA,78.95522388059702,NA,NA
94015,San Mateo County,CA,NA,NA,45.52683896620278,NA
94019,San Mateo County,CA,78.26086956521739,NA,NA,NA
94063,San Mateo County,CA,63.975155279503106,NA,NA,NA
94066,San Mateo County,CA,NA,NA,NA,14.748201438848922
94080,San Mateo County,CA,NA,38.059701492537314,NA,NA
94102,San Francisco County,CA,NA,11.492537313432836,NA,NA
94103,San Francisco County,CA,NA,NA,20.47713717693837,NA
94112,San Francisco County,CA,NA,29.253731343283583,7.952286282306163,3.5971223021582732
94117,San Francisco County,CA,NA,42.68656716417911,NA,NA
94121,San Francisco County,CA,NA,95.67164179104478,NA,NA
94306,Santa Clara County,CA,NA,99.40298507462687,NA,NA
94506,Contra Costa County,CA,NA,80.14925373134328,NA,NA
94533,Solano County,CA,NA,NA,NA,16.18705035971223
94536,Alameda County,CA,NA,37.014925373134325,NA,NA
94538,Alameda County,CA,NA,56.865671641791046,NA,NA
94544,Alameda County,CA,71.11801242236024,NA,13.916500994035786,NA
94566,Alameda County,CA,NA,69.25373134328359,NA,NA
94597,Contra Costa County,CA,NA,NA,NA,98.92086330935251
94601,Alameda County,CA,NA,54.02985074626866,NA,NA
94602,Alameda County,CA,NA,NA,62.22664015904572,NA
94611,Alameda County,CA,NA,NA,25.646123260437374,NA
94619,Alameda County,CA,NA,82.98507462686567,NA,NA
94709,Alameda County,CA,NA,NA,NA,86.33093525179856
94947,Marin County,CA,NA,NA,51.88866799204771,NA
95118,Santa Clara County,CA,NA,NA,NA,63.66906474820144
95128,Santa Clara County,CA,NA,43.134328358208954,NA,NA
95206,San Joaquin County,CA,NA,NA,29.4234592445328,53.23741007194245
95219,San Joaquin County,CA,NA,NA,77.9324055666004,NA
95356,Stanislaus County,CA,NA,NA,76.1431411530815,NA
95451,Lake County,CA,97.51552795031056,NA,NA,NA
95603,Placer County,CA,NA,NA,90.4572564612326,NA
95673,Sacramento County,CA,NA,NA,71.57057654075547,NA
95682,El Dorado County,CA,NA,NA,NA,29.496402877697843
95758,Sacramento County,CA,NA,NA,NA,44.96402877697842
95818,Sacramento County,CA,83.22981366459628,NA,NA,NA
95825,Sacramento County,CA,NA,57.46268656716418,NA,NA
95834,Sacramento County,CA,NA,75.67164179104478,NA,NA
95843,Sacramento County,CA,NA,NA,89.26441351888667,NA
95901,Yuba County,CA,NA,28.805970149253728,NA,NA
95953,Sutter County,CA,NA,NA,92.2465208747515,NA
95961,Yuba County,CA,NA,54.47761194029851,NA,NA
95969,Butte County,CA,NA,NA,8.151093439363818,NA
95993,Sutter County,CA,NA,56.4179104477612,NA,NA
80012,Arapahoe County,CO,NA,45.97014925373134,NA,NA
80016,Arapahoe County,CO,NA,NA,21.07355864811133,NA
80017,Arapahoe County,CO,NA,45.820895522388064,50.89463220675944,NA
80021,Jefferson County,CO,NA,NA,60.63618290258449,NA
80022,Adams County,CO,16.149068322981368,NA,NA,NA
80033,Jefferson County,CO,NA,NA,NA,69.7841726618705
80120,Arapahoe County,CO,NA,NA,52.683896620278325,NA
80205,Denver County,CO,NA,17.761194029850746,NA,NA
80211,Denver County,CO,NA,44.02985074626866,NA,NA
80216,Denver County,CO,NA,73.73134328358208,NA,NA
80232,Jefferson County,CO,NA,NA,NA,79.85611510791367
80234,Adams County,CO,NA,NA,69.98011928429423,NA
80237,Denver County,CO,NA,NA,63.618290258449306,NA
80239,Denver County,CO,NA,29.402985074626862,NA,NA
80439,Jefferson County,CO,NA,NA,NA,88.48920863309353
80504,Boulder County,CO,NA,37.46268656716418,NA,NA
80516,Weld County,CO,NA,72.08955223880596,NA,NA
80524,Larimer County,CO,33.22981366459628,NA,NA,NA
80526,Larimer County,CO,NA,NA,37.97216699801193,NA
80537,Larimer County,CO,NA,26.865671641791046,NA,NA
80538,Larimer County,CO,NA,17.16417910447761,NA,NA
80602,Adams County,CO,NA,NA,84.69184890656064,NA
80631,Weld County,CO,NA,12.388059701492537,NA,NA
80654,Morgan County,CO,NA,97.46268656716418,NA,NA
80751,Logan County,CO,NA,50.8955223880597,NA,NA
80909,El Paso County,CO,NA,NA,79.92047713717693,NA
80917,El Paso County,CO,NA,69.1044776119403,NA,NA
80920,El Paso County,CO,NA,65.5223880597015,NA,NA
81503,Mesa County,CO,NA,71.49253731343283,NA,NA
81650,Garfield County,CO,NA,NA,66.6003976143141,NA
06010,Hartford County,CT,NA,NA,NA,3.237410071942446
06051,Hartford County,CT,9.627329192546584,NA,NA,NA
06105,Hartford County,CT,55.27950310559007,NA,39.363817097415506,NA
06120,Hartford County,CT,88.50931677018633,NA,NA,NA
06277,Windham County,CT,NA,86.86567164179104,NA,NA
06418,New Haven County,CT,NA,NA,90.85487077534792,NA
06473,New Haven County,CT,NA,NA,35.387673956262425,NA
06489,Hartford County,CT,NA,NA,19.681908548707753,NA
06492,New Haven County,CT,NA,26.417910447761194,NA,NA
06512,New Haven County,CT,NA,28.059701492537314,NA,NA
06513,New Haven County,CT,24.53416149068323,NA,NA,NA
06604,Fairfield County,CT,NA,23.731343283582092,40.95427435387674,NA
06607,Fairfield County,CT,NA,85.37313432835822,NA,NA
06708,New Haven County,CT,NA,NA,NA,43.52517985611511
06779,Litchfield County,CT,NA,NA,NA,74.82014388489209
06825,Fairfield County,CT,NA,NA,NA,95.68345323741008
06902,Fairfield County,CT,NA,26.119402985074625,NA,NA
19701,New Castle County,DE,NA,NA,56.2624254473161,NA
19938,Kent County,DE,NA,72.23880597014926,NA,NA
19945,Sussex County,DE,NA,97.76119402985076,NA,NA
19956,Sussex County,DE,55.90062111801242,NA,NA,NA
19977,Kent County,DE,54.96894409937888,NA,NA,NA
32034,Nassau County,FL,NA,NA,10.536779324055665,NA
32063,Baker County,FL,NA,74.17910447761194,NA,NA
32068,Clay County,FL,31.987577639751553,NA,NA,NA
32084,St. Johns County,FL,NA,35.373134328358205,NA,NA
32148,Putnam County,FL,78.88198757763976,NA,NA,NA
32162,Sumter County,FL,NA,NA,3.7773359840954273,NA
32209,Duval County,FL,17.391304347826086,NA,NA,NA
32211,Duval County,FL,NA,26.268656716417908,NA,NA
32220,Duval County,FL,NA,72.53731343283583,NA,NA
32221,Duval County,FL,NA,NA,40.15904572564612,NA
32224,Duval County,FL,65.21739130434783,NA,NA,NA
32244,Duval County,FL,7.142857142857142,NA,12.922465208747516,NA
32250,Duval County,FL,NA,66.86567164179105,NA,NA
32312,Leon County,FL,NA,95.82089552238806,NA,NA
32433,Walton County,FL,NA,66.26865671641791,NA,NA
32501,Escambia County,FL,74.53416149068323,NA,NA,NA
32506,Escambia County,FL,NA,19.402985074626866,NA,NA
32507,Escambia County,FL,NA,45.223880597014926,15.50695825049702,NA
32570,Santa Rosa County,FL,NA,14.626865671641792,NA,NA
32579,Okaloosa County,FL,NA,NA,88.86679920477137,NA
32605,Alachua County,FL,NA,NA,35.188866799204774,NA
32609,Alachua County,FL,NA,24.925373134328357,NA,NA
32643,Alachua County,FL,NA,58.656716417910445,NA,NA
32703,Orange County,FL,NA,NA,21.868787276341948,39.20863309352518
32726,Lake County,FL,NA,NA,51.689860834990064,NA
32746,Seminole County,FL,NA,60.74626865671642,NA,NA
32757,Lake County,FL,NA,62.98507462686567,NA,NA
32771,Seminole County,FL,NA,21.044776119402986,NA,NA
32805,Orange County,FL,46.8944099378882,NA,NA,NA
32824,Orange County,FL,NA,51.19402985074627,NA,NA
32825,Orange County,FL,NA,NA,53.87673956262425,NA
32832,Orange County,FL,NA,89.25373134328358,NA,NA
32905,Brevard County,FL,NA,66.56716417910448,NA,NA
32909,Brevard County,FL,NA,47.3134328358209,NA,NA
33012,Miami-Dade County,FL,NA,53.58208955223881,NA,NA
33019,Broward County,FL,NA,NA,NA,98.56115107913669
33024,Broward County,FL,NA,35.52238805970149,NA,NA
33027,Broward County,FL,NA,NA,NA,6.83453237410072
33034,Miami-Dade County,FL,NA,64.17910447761194,NA,NA
33055,Miami-Dade County,FL,NA,NA,NA,22.66187050359712
33060,Broward County,FL,NA,NA,55.46719681908549,NA
33064,Broward County,FL,34.47204968944099,NA,NA,NA
33066,Broward County,FL,NA,NA,60.039761431411534,NA
33141,Miami-Dade County,FL,NA,NA,94.43339960238568,NA
33157,Miami-Dade County,FL,NA,41.19402985074627,NA,NA
33161,Miami-Dade County,FL,27.95031055900621,NA,NA,NA
33170,Miami-Dade County,FL,NA,NA,97.8131212723658,NA
33181,Miami-Dade County,FL,NA,86.11940298507463,NA,NA
33184,Miami-Dade County,FL,68.63354037267081,NA,NA,NA
33309,Broward County,FL,13.354037267080745,NA,NA,NA
33312,Broward County,FL,36.64596273291926,NA,NA,NA
33324,Broward County,FL,NA,73.5820895522388,NA,NA
33328,Broward County,FL,NA,NA,94.23459244532803,NA
33401,Palm Beach County,FL,NA,NA,NA,62.94964028776978
33418,Palm Beach County,FL,NA,NA,67.59443339960238,NA
33431,Palm Beach County,FL,NA,87.61194029850746,NA,NA
33433,Palm Beach County,FL,NA,NA,60.834990059642145,NA
33444,Palm Beach County,FL,NA,67.91044776119402,NA,NA
33446,Palm Beach County,FL,NA,NA,34.791252485089466,NA
33463,Palm Beach County,FL,NA,NA,41.15308151093439,NA
33467,Palm Beach County,FL,NA,NA,NA,18.705035971223023
33563,Hillsborough County,FL,NA,57.16417910447761,NA,NA
33584,Hillsborough County,FL,NA,61.940298507462686,NA,NA
33612,Hillsborough County,FL,NA,15.074626865671641,NA,NA
33615,Hillsborough County,FL,NA,98.65671641791045,NA,NA
33619,Hillsborough County,FL,NA,41.940298507462686,NA,NA
33635,Hillsborough County,FL,NA,87.16417910447761,NA,NA
33647,Hillsborough County,FL,NA,NA,48.9065606361829,NA
33703,Pinellas County,FL,NA,63.28358208955224,NA,NA
33705,Pinellas County,FL,NA,NA,NA,48.201438848920866
33756,Pinellas County,FL,NA,NA,NA,40.28776978417266
33759,Pinellas County,FL,NA,77.31343283582089,NA,NA
33765,Pinellas County,FL,80.12422360248446,NA,NA,NA
33834,Hardee County,FL,99.06832298136646,NA,NA,NA
33872,Highlands County,FL,NA,73.88059701492537,NA,NA
33875,Highlands County,FL,NA,92.98507462686567,NA,NA
33881,Polk County,FL,63.35403726708074,NA,NA,NA
33897,Polk County,FL,NA,78.95522388059702,NA,NA
33928,Lee County,FL,NA,95.3731343283582,NA,NA
34119,Collier County,FL,NA,NA,29.22465208747515,NA
34145,Collier County,FL,NA,NA,47.713717693836976,NA
34203,Manatee County,FL,NA,61.34328358208955,NA,NA
34209,Manatee County,FL,NA,NA,NA,26.618705035971225
34219,Manatee County,FL,NA,NA,NA,71.94244604316546
34234,Sarasota County,FL,NA,76.11940298507463,NA,NA
34266,DeSoto County,FL,NA,42.83582089552239,NA,NA
34420,Marion County,FL,NA,NA,65.4075546719682,NA
34465,Citrus County,FL,NA,71.19402985074626,NA,NA
34607,Hernando County,FL,NA,NA,75.94433399602386,NA
34691,Pasco County,FL,NA,54.47761194029851,NA,NA
34769,Osceola County,FL,NA,54.92537313432836,NA,NA
34785,Sumter County,FL,NA,74.6268656716418,NA,NA
30016,Newton County,GA,NA,17.91044776119403,NA,NA
30035,DeKalb County,GA,NA,64.77611940298507,NA,NA
30038,DeKalb County,GA,24.22360248447205,NA,NA,NA
30040,Forsyth County,GA,NA,NA,22.46520874751491,NA
30041,Forsyth County,GA,NA,NA,NA,23.741007194244602
30043,Gwinnett County,GA,NA,NA,16.302186878727635,NA
30046,Gwinnett County,GA,72.04968944099379,NA,NA,NA
30062,Cobb County,GA,NA,NA,17.296222664015904,NA
30067,Cobb County,GA,NA,67.76119402985074,NA,NA
30083,DeKalb County,GA,20.80745341614907,NA,NA,NA
30088,DeKalb County,GA,67.70186335403726,NA,NA,NA
30103,Bartow County,GA,NA,74.92537313432835,NA,NA
30141,Paulding County,GA,71.42857142857143,NA,NA,NA
30180,Carroll County,GA,19.565217391304348,NA,NA,NA
30185,Carroll County,GA,95.65217391304348,NA,NA,NA
30236,Clayton County,GA,NA,NA,44.135188866799204,NA
30252,Henry County,GA,NA,46.865671641791046,NA,NA
30294,DeKalb County,GA,NA,NA,NA,69.42446043165468
30308,Fulton County,GA,NA,80.59701492537313,NA,NA
30315,Fulton County,GA,NA,NA,NA,42.086330935251794
30327,Fulton County,GA,NA,NA,NA,61.15107913669065
30344,Fulton County,GA,NA,NA,44.53280318091451,NA
30349,Fulton County,GA,NA,11.940298507462686,NA,NA
30427,Tattnall County,GA,NA,88.2089552238806,NA,NA
30501,Hall County,GA,NA,NA,NA,65.10791366906474
30512,Union County,GA,NA,NA,52.286282306163024,NA
30519,Gwinnett County,GA,NA,NA,37.17693836978131,NA
30606,Clarke County,GA,NA,46.26865671641791,NA,NA
30633,Madison County,GA,NA,89.70149253731343,NA,NA
30752,Dade County,GA,NA,67.46268656716417,NA,NA
30909,Richmond County,GA,NA,NA,18.886679920477135,NA
31021,Laurens County,GA,NA,NA,61.23260437375746,NA
31055,Telfair County,GA,NA,NA,NA,94.24460431654677
31204,Bibb County,GA,NA,NA,NA,42.086330935251794
31206,Bibb County,GA,35.09316770186335,NA,NA,NA
31217,Bibb County,GA,NA,69.40298507462687,NA,NA
31220,Bibb County,GA,NA,NA,86.28230616302187,NA
31406,Chatham County,GA,NA,NA,32.20675944333996,NA
31533,Coffee County,GA,NA,NA,NA,70.14388489208633
31601,Lowndes County,GA,NA,NA,41.35188866799205,NA
31632,Lowndes County,GA,NA,NA,79.52286282306163,NA
31639,Berrien County,GA,NA,94.92537313432837,NA,NA
31750,Ben Hill County,GA,NA,65.67164179104478,NA,NA
31763,Lee County,GA,NA,57.611940298507456,NA,NA
31792,Thomas County,GA,NA,40.74626865671642,NA,NA
31808,Harris County,GA,NA,93.28358208955224,NA,NA
39819,Decatur County,GA,NA,83.13432835820895,NA,NA
39823,Early County,GA,90.99378881987577,NA,NA,NA
96707,Honolulu County,HI,NA,NA,34.59244532803181,56.11510791366906
96712,Honolulu County,HI,NA,97.31343283582089,NA,NA
96732,Maui County,HI,61.49068322981367,NA,NA,NA
96734,Honolulu County,HI,NA,44.776119402985074,NA,NA
96743,Hawaii County,HI,NA,NA,71.76938369781311,NA
96778,Hawaii County,HI,NA,NA,96.02385685884693,NA
96789,Honolulu County,HI,NA,27.611940298507463,NA,NA
96793,Maui County,HI,NA,NA,66.79920477137176,NA
96819,Honolulu County,HI,19.875776397515526,20.8955223880597,NA,NA
96822,Honolulu County,HI,58.69565217391305,NA,NA,NA
83204,Bannock County,ID,NA,60.149253731343286,NA,77.33812949640287
83301,Twin Falls County,ID,NA,NA,NA,0.3597122302158274
83333,Blaine County,ID,NA,NA,64.41351888667992,NA
83350,Minidoka County,ID,72.04968944099379,NA,NA,NA
83355,Gooding County,ID,96.8944099378882,NA,NA,NA
83607,Canyon County,ID,NA,NA,NA,75.89928057553958
83616,Ada County,ID,NA,81.19402985074626,NA,NA
83644,Canyon County,ID,NA,91.34328358208955,NA,NA
83669,Ada County,ID,NA,NA,61.63021868787276,NA
83705,Ada County,ID,NA,NA,17.892644135188867,NA
83713,Ada County,ID,NA,NA,18.48906560636183,NA
83815,Kootenai County,ID,NA,NA,58.05168986083499,NA
83835,Kootenai County,ID,NA,NA,40.75546719681908,NA
83854,Kootenai County,ID,NA,NA,91.25248508946322,21.942446043165468
60014,McHenry County,IL,NA,NA,NA,26.258992805755394
60020,Lake County,IL,NA,NA,62.82306163021869,NA
60035,Lake County,IL,NA,NA,NA,2.158273381294964
60048,Lake County,IL,NA,NA,NA,38.1294964028777
60076,Cook County,IL,NA,NA,NA,19.424460431654676
60081,McHenry County,IL,NA,95.52238805970148,NA,NA
60098,McHenry County,IL,33.54037267080746,NA,NA,NA
60101,DuPage County,IL,NA,33.582089552238806,NA,NA
60106,DuPage County,IL,NA,69.85074626865672,NA,NA
60115,DeKalb County,IL,NA,NA,NA,97.48201438848922
60119,Kane County,IL,94.09937888198758,NA,NA,NA
60123,Kane County,IL,NA,26.56716417910448,NA,NA
60126,DuPage County,IL,50,14.029850746268657,4.970178926441352,NA
60130,Cook County,IL,NA,NA,90.65606361829026,NA
60131,Cook County,IL,NA,NA,NA,97.84172661870504
60175,Kane County,IL,NA,33.88059701492537,38.56858846918489,NA
60188,DuPage County,IL,32.298136645962735,NA,NA,NA
60189,DuPage County,IL,37.267080745341616,NA,NA,NA
60410,Will County,IL,NA,NA,NA,87.76978417266187
60430,Cook County,IL,NA,NA,54.07554671968191,NA
60436,Will County,IL,NA,64.62686567164178,NA,NA
60438,Cook County,IL,NA,79.8507462686567,NA,NA
60440,Will County,IL,NA,24.62686567164179,NA,NA
60442,Will County,IL,73.91304347826086,NA,NA,NA
60451,Will County,IL,NA,24.47761194029851,NA,NA
60459,Cook County,IL,81.98757763975155,NA,NA,NA
60467,Cook County,IL,NA,NA,28.82703777335984,NA
60490,Will County,IL,NA,68.65671641791045,NA,NA
60502,DuPage County,IL,NA,59.70149253731343,NA,NA
60513,Cook County,IL,NA,96.11940298507463,NA,NA
60520,DeKalb County,IL,NA,NA,99.80119284294234,NA
60540,DuPage County,IL,NA,34.92537313432836,NA,NA
60565,DuPage County,IL,27.639751552795033,NA,NA,NA
60586,Will County,IL,NA,19.850746268656717,NA,NA
60605,Cook County,IL,76.3975155279503,NA,NA,NA
60610,Cook County,IL,NA,NA,61.63021868787276,NA
60612,Cook County,IL,34.78260869565217,NA,NA,NA
60613,Cook County,IL,NA,NA,38.9662027833002,NA
60616,Cook County,IL,NA,NA,11.72962226640159,NA
60622,Cook County,IL,NA,44.32835820895523,NA,NA
60623,Cook County,IL,NA,10.149253731343283,NA,NA
60626,Cook County,IL,NA,NA,8.548707753479125,NA
60629,Cook County,IL,NA,NA,6.36182902584493,NA
60644,Cook County,IL,NA,11.641791044776118,NA,NA
60660,Cook County,IL,NA,31.94029850746269,NA,NA
60707,Cook County,IL,NA,24.776119402985074,NA,NA
60804,Cook County,IL,NA,24.328358208955223,NA,NA
60914,Kankakee County,IL,NA,NA,60.238568588469185,NA
60954,Kankakee County,IL,NA,NA,88.07157057654076,NA
61201,Rock Island County,IL,NA,NA,NA,44.24460431654676
61354,LaSalle County,IL,NA,NA,55.666003976143145,NA
61356,Bureau County,IL,NA,NA,67.39562624254472,NA
61832,Vermilion County,IL,NA,63.13432835820896,NA,NA
61874,Champaign County,IL,91.92546583850931,NA,NA,NA
62025,Madison County,IL,NA,NA,75.7455268389662,NA
62203,St. Clair County,IL,98.75776397515527,NA,NA,NA
62205,St. Clair County,IL,NA,NA,82.30616302186878,NA
62226,St. Clair County,IL,NA,NA,29.4234592445328,NA
62233,Randolph County,IL,NA,NA,NA,74.10071942446042
62526,Macon County,IL,NA,NA,NA,5.39568345323741
62549,Macon County,IL,90.6832298136646,NA,NA,NA
62650,Morgan County,IL,NA,60.447761194029844,NA,NA
62703,Sangamon County,IL,NA,NA,NA,99.28057553956835
46013,Madison County,IN,NA,NA,22.46520874751491,NA
46016,Madison County,IN,NA,NA,33.59840954274354,NA
46055,Hancock County,IN,NA,83.88059701492537,NA,NA
46060,Hamilton County,IN,NA,36.56716417910448,NA,NA
46131,Johnson County,IN,NA,NA,NA,14.388489208633093
46176,Shelby County,IN,NA,NA,13.12127236580517,NA
46203,Marion County,IN,NA,12.985074626865673,NA,NA
46208,Marion County,IN,NA,41.19402985074627,NA,NA
46310,Jasper County,IN,NA,59.70149253731343,NA,NA
46312,Lake County,IN,NA,NA,42.94234592445328,30.215827338129497
46320,Lake County,IN,57.453416149068325,NA,NA,NA
46321,Lake County,IN,NA,91.04477611940298,NA,NA
46350,LaPorte County,IN,NA,NA,8.946322067594433,NA
46368,Porter County,IN,NA,2.8358208955223883,NA,NA
46406,Lake County,IN,NA,NA,69.58250497017893,NA
46534,Starke County,IN,NA,NA,NA,72.3021582733813
46542,Kosciusko County,IN,NA,NA,NA,93.16546762589928
46806,Allen County,IN,NA,31.64179104477612,NA,NA
46807,Allen County,IN,NA,NA,64.61232604373758,NA
46902,Howard County,IN,NA,NA,NA,8.273381294964029
46936,Howard County,IN,NA,NA,NA,85.25179856115108
46947,Cass County,IN,NA,16.865671641791042,NA,NA
47172,Clark County,IN,NA,NA,NA,67.26618705035972
47250,Jefferson County,IN,NA,NA,NA,58.27338129496403
47404,Monroe County,IN,NA,NA,75.3479125248509,NA
47882,Sullivan County,IN,NA,NA,NA,72.66187050359713
50022,Cass County,IA,NA,90.44776119402985,NA,NA
50036,Boone County,IA,NA,72.23880597014926,NA,NA
50213,Clarke County,IA,NA,81.64179104477613,NA,NA
50314,Polk County,IA,NA,80,NA,NA
50315,Polk County,IA,NA,39.25373134328358,NA,NA
50401,Cerro Gordo County,IA,NA,NA,11.530815109343937,NA
50613,Black Hawk County,IA,NA,NA,14.115308151093439,NA
50616,Floyd County,IA,53.105590062111794,NA,NA,NA
51334,Emmet County,IA,NA,NA,NA,59.352517985611506
51501,Pottawattamie County,IA,NA,4.328358208955224,NA,NA
52001,Dubuque County,IA,NA,20.298507462686565,26.44135188866799,NA
52240,Johnson County,IA,NA,NA,NA,31.654676258992804
52246,Johnson County,IA,74.84472049689441,67.31343283582089,NA,NA
52314,Linn County,IA,95.65217391304348,NA,NA,NA
52353,Washington County,IA,85.09316770186336,NA,NA,NA
52404,Linn County,IA,NA,NA,20.07952286282306,NA
52601,Des Moines County,IA,NA,NA,52.087475149105366,NA
52738,Louisa County,IA,NA,NA,99.00596421471172,NA
52806,Scott County,IA,40.37267080745342,NA,NA,NA
66062,Johnson County,KS,18.012422360248447,NA,NA,NA
66102,Wyandotte County,KS,NA,58.805970149253724,NA,NA
66221,Johnson County,KS,NA,NA,NA,95.32374100719424
66223,Johnson County,KS,NA,NA,86.48111332007953,NA
66701,Bourbon County,KS,NA,NA,68.98608349900597,NA
66739,Cherokee County,KS,NA,97.01492537313433,NA,NA
67212,Sedgwick County,KS,NA,NA,57.45526838966203,NA
67217,Sedgwick County,KS,NA,NA,76.73956262425448,NA
67230,Sedgwick County,KS,NA,NA,NA,99.64028776978418
67439,Ellsworth County,KS,NA,99.25373134328358,NA,NA
40071,Spencer County,KY,NA,NA,81.11332007952286,NA
40108,Meade County,KY,NA,NA,NA,85.61151079136691
40212,Jefferson County,KY,28.88198757763975,NA,NA,NA
40213,Jefferson County,KY,43.47826086956522,NA,NA,NA
40222,Jefferson County,KY,NA,NA,NA,31.294964028776977
40229,Jefferson County,KY,NA,16.716417910447763,NA,NA
40258,Jefferson County,KY,NA,NA,43.141153081510936,NA
40272,Jefferson County,KY,NA,18.507462686567163,NA,NA
40391,Clark County,KY,NA,NA,13.717693836978132,NA
40402,Jackson County,KY,NA,NA,99.60238568588468,NA
40444,Garrard County,KY,NA,65.97014925373135,NA,NA
40505,Fayette County,KY,NA,NA,34.990059642147116,NA
41311,Lee County,KY,NA,NA,81.70974155069582,NA
42003,McCracken County,KY,NA,19.701492537313435,NA,NA
42025,Marshall County,KY,NA,51.7910447761194,NA,NA
42211,Trigg County,KY,NA,70,NA,NA
42320,Ohio County,KY,NA,58.507462686567166,NA,NA
42330,Muhlenberg County,KY,NA,75.3731343283582,NA,NA
42420,Henderson County,KY,NA,NA,14.7117296222664,NA
42633,Wayne County,KY,NA,NA,40.357852882703774,NA
42717,Cumberland County,KY,79.5031055900621,NA,NA,NA
70001,Jefferson Parish,LA,13.043478260869565,NA,NA,NA
70058,Jefferson Parish,LA,NA,70.8955223880597,NA,NA
70072,Jefferson Parish,LA,NA,NA,NA,7.1942446043165464
70094,Jefferson Parish,LA,NA,63.731343283582085,NA,NA
70117,Orleans Parish,LA,NA,48.35820895522388,NA,NA
70118,Orleans Parish,LA,NA,NA,22.266401590457257,NA
70121,Jefferson Parish,LA,NA,NA,NA,59.71223021582733
70125,Orleans Parish,LA,NA,42.53731343283582,NA,NA
70128,Orleans Parish,LA,NA,21.343283582089555,NA,NA
70301,Lafourche Parish,LA,NA,NA,9.940357852882704,NA
70374,Lafourche Parish,LA,NA,45.52238805970149,NA,NA
70420,St. Tammany Parish,LA,NA,NA,72.36580516898609,NA
70435,St. Tammany Parish,LA,NA,NA,NA,67.98561151079137
70443,Tangipahoa Parish,LA,NA,91.19402985074628,NA,NA
70460,St. Tammany Parish,LA,NA,17.313432835820898,NA,NA
70501,Lafayette Parish,LA,NA,53.43283582089552,NA,NA
70503,Lafayette Parish,LA,NA,45.67164179104478,NA,NA
70508,Lafayette Parish,LA,NA,20.44776119402985,NA,NA
70517,St. Martin Parish,LA,NA,18.059701492537314,NA,NA
70535,St. Landry Parish,LA,NA,32.83582089552239,NA,NA
70538,St. Mary Parish,LA,NA,NA,NA,57.9136690647482
70570,St. Landry Parish,LA,NA,1.1940298507462688,NA,55.03597122302158
70605,Calcasieu Parish,LA,NA,NA,NA,37.76978417266187
70663,Calcasieu Parish,LA,NA,NA,25.24850894632207,NA
70706,Livingston Parish,LA,39.130434782608695,NA,NA,NA
70726,Livingston Parish,LA,93.47826086956522,NA,NA,NA
70737,Ascension Parish,LA,NA,9.55223880597015,NA,NA
71106,Caddo Parish,LA,NA,NA,14.910536779324055,NA
71241,Union Parish,LA,NA,64.17910447761194,NA,NA
71292,Ouachita Parish,LA,NA,17.46268656716418,NA,NA
71303,Rapides Parish,LA,NA,35.97014925373134,NA,NA
71360,Rapides Parish,LA,NA,NA,NA,33.093525179856115
71457,Natchitoches Parish,LA,NA,9.104477611940299,NA,NA
04011,Cumberland County,ME,NA,NA,78.52882703777337,NA
04021,Cumberland County,ME,NA,95.07462686567165,NA,NA
04038,Cumberland County,ME,32.608695652173914,NA,NA,NA
04042,York County,ME,NA,98.955223880597,NA,NA
04079,Cumberland County,ME,NA,98.80597014925372,NA,NA
04086,Sagadahoc County,ME,NA,NA,NA,49.280575539568346
04092,Cumberland County,ME,NA,NA,30.61630218687873,NA
04101,Cumberland County,ME,NA,73.13432835820896,27.634194831013914,NA
04102,Cumberland County,ME,30.745341614906835,NA,NA,NA
04103,Cumberland County,ME,40.683229813664596,NA,NA,NA
04240,Androscoggin County,ME,NA,NA,3.9761431411530817,NA
04401,Penobscot County,ME,NA,18.65671641791045,NA,NA
04412,Penobscot County,ME,NA,71.34328358208955,NA,NA
04742,Aroostook County,ME,NA,NA,70.37773359840955,NA
04856,Knox County,ME,NA,98.50746268656717,NA,NA
04901,Kennebec County,ME,NA,NA,26.043737574552683,NA
04953,Penobscot County,ME,NA,92.08955223880596,NA,NA
04967,Somerset County,ME,NA,NA,84.69184890656064,NA
20646,Charles County,MD,NA,79.70149253731343,NA,NA
20695,Charles County,MD,NA,NA,98.2107355864811,NA
20705,Prince George's County,MD,NA,NA,74.95029821073558,NA
20747,Prince George's County,MD,NA,NA,63.22067594433399,NA
20906,Montgomery County,MD,NA,60,NA,NA
21206,Baltimore city,MD,NA,15.970149253731345,NA,NA
21208,Baltimore County,MD,54.347826086956516,68.35820895522387,NA,NA
21215,Baltimore city,MD,NA,11.343283582089553,NA,NA
21217,Baltimore city,MD,NA,27.91044776119403,NA,NA
21221,Baltimore County,MD,NA,24.17910447761194,NA,NA
21239,Baltimore city,MD,NA,38.2089552238806,23.061630218687874,NA
21701,Frederick County,MD,NA,65.67164179104478,NA,NA
01027,Hampshire County,MA,NA,47.91044776119403,NA,NA
01040,Hampden County,MA,NA,NA,0.19880715705765406,NA
01075,Hampshire County,MA,NA,25.970149253731346,NA,NA
01082,Hampshire County,MA,NA,NA,41.5506958250497,NA
01089,Hampden County,MA,NA,6.119402985074627,NA,NA
01109,Hampden County,MA,NA,85.5223880597015,NA,NA
01240,Berkshire County,MA,NA,NA,100,NA
01301,Franklin County,MA,NA,15.671641791044777,NA,NA
01420,Worcester County,MA,31.366459627329192,NA,NA,NA
01430,Worcester County,MA,NA,82.68656716417911,NA,NA
01453,Worcester County,MA,NA,12.08955223880597,NA,NA
01462,Worcester County,MA,NA,58.2089552238806,NA,NA
01504,Worcester County,MA,NA,NA,94.83101391650099,NA
01516,Worcester County,MA,92.54658385093167,NA,NA,NA
01545,Worcester County,MA,NA,21.641791044776117,NA,NA
01590,Worcester County,MA,NA,77.01492537313432,NA,NA
01609,Worcester County,MA,NA,NA,7.3558648111332,NA
01702,Middlesex County,MA,NA,NA,NA,5.0359712230215825
01720,Middlesex County,MA,NA,NA,36.97813121272366,NA
01730,Middlesex County,MA,NA,NA,82.50497017892644,NA
01752,Middlesex County,MA,NA,4.029850746268656,NA,NA
01757,Worcester County,MA,NA,1.9402985074626864,NA,NA
01773,Middlesex County,MA,NA,NA,NA,96.0431654676259
01821,Middlesex County,MA,NA,6.865671641791045,NA,NA
01824,Middlesex County,MA,NA,NA,59.443339960238575,NA
01841,Essex County,MA,NA,0.1492537313432836,NA,NA
01843,Essex County,MA,6.211180124223603,NA,NA,NA
01845,Essex County,MA,NA,32.985074626865675,NA,NA
01850,Middlesex County,MA,NA,10.895522388059701,NA,NA
01867,Middlesex County,MA,NA,NA,43.737574552683895,NA
01876,Middlesex County,MA,NA,9.253731343283581,NA,NA
01890,Middlesex County,MA,NA,NA,36.18290258449304,NA
01906,Essex County,MA,NA,NA,10.337972166998012,NA
01921,Essex County,MA,NA,84.6268656716418,NA,NA
01938,Essex County,MA,NA,56.56716417910448,NA,NA
01940,Essex County,MA,NA,NA,NA,24.820143884892087
01944,Essex County,MA,NA,NA,NA,78.05755395683454
01945,Essex County,MA,NA,49.25373134328358,NA,NA
01960,Essex County,MA,6.832298136645963,NA,NA,12.589928057553957
01984,Essex County,MA,NA,98.2089552238806,NA,NA
02026,Norfolk County,MA,NA,NA,NA,16.906474820143885
02030,Norfolk County,MA,NA,95.22388059701493,NA,NA
02050,Plymouth County,MA,NA,NA,NA,34.172661870503596
02062,Norfolk County,MA,NA,NA,98.80715705765407,NA
02081,Norfolk County,MA,NA,NA,50.49701789264414,NA
02115,Suffolk County,MA,NA,33.43283582089553,NA,NA
02119,Suffolk County,MA,5.590062111801243,NA,NA,NA
02121,Suffolk County,MA,NA,NA,NA,4.676258992805756
02122,Suffolk County,MA,NA,NA,1.3916500994035785,12.23021582733813
02124,Suffolk County,MA,NA,1.791044776119403,NA,NA
02128,Suffolk County,MA,20.496894409937887,5.223880597014925,35.586481113320076,6.115107913669065
02129,Suffolk County,MA,NA,4.776119402985075,NA,NA
02130,Suffolk County,MA,22.36024844720497,NA,NA,3.9568345323741005
02131,Suffolk County,MA,NA,15.522388059701491,NA,NA
02134,Suffolk County,MA,NA,16.268656716417908,NA,NA
02139,Middlesex County,MA,NA,0.2985074626865672,NA,NA
02140,Middlesex County,MA,NA,NA,12.72365805168986,NA
02143,Middlesex County,MA,NA,7.611940298507462,NA,NA
02148,Middlesex County,MA,48.75776397515528,0,56.66003976143141,NA
02149,Middlesex County,MA,2.1739130434782608,NA,NA,NA
02150,Suffolk County,MA,NA,NA,1.1928429423459244,NA
02151,Suffolk County,MA,NA,NA,0,NA
02155,Middlesex County,MA,27.32919254658385,NA,NA,NA
02169,Norfolk County,MA,NA,0.44776119402985076,NA,NA
02171,Norfolk County,MA,12.732919254658384,NA,58.25049701789264,NA
02184,Norfolk County,MA,NA,NA,40.55666003976143,NA
02333,Plymouth County,MA,NA,36.86567164179104,NA,NA
02446,Norfolk County,MA,NA,NA,NA,10.431654676258994
02452,Middlesex County,MA,NA,70.1492537313433,NA,NA
02459,Middlesex County,MA,NA,53.28358208955224,NA,14.028776978417264
02466,Middlesex County,MA,NA,NA,NA,61.51079136690647
02467,Norfolk County,MA,64.59627329192547,NA,33.00198807157058,NA
02482,Norfolk County,MA,NA,78.2089552238806,NA,NA
02492,Norfolk County,MA,NA,32.23880597014925,NA,NA
02719,Bristol County,MA,NA,55.223880597014926,NA,NA
02740,Bristol County,MA,NA,NA,28.230616302186878,NA
48014,St. Clair County,MI,NA,97.01492537313433,NA,NA
48030,Oakland County,MI,43.16770186335403,NA,NA,NA
48033,Oakland County,MI,NA,NA,36.381709741550694,NA
48034,Oakland County,MI,NA,73.28358208955224,NA,NA
48043,Macomb County,MI,NA,37.3134328358209,NA,NA
48062,Macomb County,MI,89.13043478260869,NA,NA,NA
48066,Macomb County,MI,NA,4.477611940298507,NA,NA
48071,Oakland County,MI,51.86335403726709,NA,NA,NA
48073,Oakland County,MI,NA,NA,71.96819085487077,NA
48101,Wayne County,MI,NA,NA,32.60437375745527,NA
48108,Washtenaw County,MI,NA,NA,69.38369781312127,NA
48127,Wayne County,MI,22.981366459627328,NA,NA,NA
48130,Washtenaw County,MI,NA,81.34328358208955,NA,47.482014388489205
48141,Wayne County,MI,NA,38.35820895522388,NA,NA
48144,Monroe County,MI,NA,91.7910447761194,NA,NA
48150,Wayne County,MI,NA,32.38805970149254,NA,NA
48152,Wayne County,MI,NA,NA,56.85884691848907,NA
48154,Wayne County,MI,NA,NA,9.145129224652088,NA
48162,Monroe County,MI,21.11801242236025,NA,NA,NA
48167,Oakland County,MI,NA,47.61194029850746,NA,NA
48173,Wayne County,MI,NA,NA,NA,84.17266187050359
48180,Wayne County,MI,NA,20.746268656716417,3.180914512922465,NA
48182,Monroe County,MI,NA,68.2089552238806,NA,NA
48188,Wayne County,MI,NA,NA,8.747514910536779,NA
48197,Washtenaw County,MI,NA,54.179104477611936,NA,NA
48201,Wayne County,MI,NA,46.417910447761194,NA,NA
48202,Wayne County,MI,78.57142857142857,NA,NA,NA
48204,Wayne County,MI,NA,14.029850746268657,NA,NA
48205,Wayne County,MI,5.900621118012422,5.970149253731343,NA,NA
48214,Wayne County,MI,49.378881987577635,NA,NA,NA
48220,Oakland County,MI,NA,80.29850746268656,NA,NA
48221,Wayne County,MI,NA,7.313432835820896,NA,NA
48228,Wayne County,MI,NA,30.149253731343283,NA,NA
48235,Wayne County,MI,NA,2.0895522388059704,NA,NA
48310,Macomb County,MI,NA,NA,NA,23.381294964028775
48334,Oakland County,MI,NA,NA,39.960238568588466,NA
48335,Oakland County,MI,NA,NA,81.51093439363817,NA
48350,Oakland County,MI,NA,NA,95.42743538767395,NA
48420,Genesee County,MI,NA,98.05970149253731,NA,NA
48429,Shiawassee County,MI,NA,71.04477611940298,NA,NA
48507,Genesee County,MI,21.428571428571427,NA,NA,NA
48532,Genesee County,MI,NA,NA,43.141153081510936,NA
48601,Saginaw County,MI,1.2422360248447204,NA,NA,NA
48603,Saginaw County,MI,10.248447204968944,NA,NA,NA
48655,Saginaw County,MI,NA,NA,85.6858846918489,NA
48837,Eaton County,MI,NA,63.43283582089553,NA,NA
48840,Ingham County,MI,NA,NA,66.99801192842942,NA
48883,Isabella County,MI,81.67701863354037,NA,NA,NA
48911,Ingham County,MI,NA,8.955223880597014,NA,NA
48912,Ingham County,MI,NA,59.1044776119403,NA,NA
48917,Eaton County,MI,NA,40,NA,NA
49001,Kalamazoo County,MI,NA,NA,59.04572564612326,NA
49009,Kalamazoo County,MI,NA,17.01492537313433,NA,NA
49017,Calhoun County,MI,NA,NA,27.236580516898606,NA
49022,Berrien County,MI,8.385093167701864,13.432835820895523,NA,NA
49036,Branch County,MI,NA,NA,26.24254473161034,NA
49037,Calhoun County,MI,12.422360248447205,NA,NA,NA
49068,Calhoun County,MI,NA,NA,49.10536779324055,NA
49071,Van Buren County,MI,NA,NA,97.61431411530815,NA
49080,Allegan County,MI,50.931677018633536,NA,NA,NA
49120,Berrien County,MI,17.70186335403727,NA,NA,NA
49201,Jackson County,MI,NA,NA,NA,8.992805755395683
49203,Jackson County,MI,NA,10.44776119402985,NA,NA
49221,Lenawee County,MI,NA,5.6716417910447765,NA,NA
49230,Jackson County,MI,NA,76.26865671641792,NA,NA
49304,Lake County,MI,NA,NA,97.21669980119285,NA
49306,Kent County,MI,NA,89.8507462686567,NA,NA
49307,Mecosta County,MI,NA,58.95522388059702,NA,NA
49316,Kent County,MI,62.422360248447205,NA,NA,60.79136690647482
49404,Ottawa County,MI,81.05590062111801,NA,NA,NA
49420,Oceana County,MI,89.44099378881988,NA,NA,NA
49431,Mason County,MI,NA,NA,NA,28.41726618705036
49460,Ottawa County,MI,96.27329192546584,NA,NA,NA
49504,Kent County,MI,NA,19.55223880597015,NA,NA
49505,Kent County,MI,NA,28.507462686567166,NA,NA
49507,Kent County,MI,NA,7.014925373134329,NA,47.122302158273385
49508,Kent County,MI,NA,7.761194029850746,10.73558648111332,NA
49548,Kent County,MI,NA,NA,15.904572564612327,NA
49601,Wexford County,MI,NA,56.56716417910448,NA,NA
49783,Chippewa County,MI,NA,NA,23.26043737574553,NA
49849,Marquette County,MI,NA,NA,NA,73.02158273381295
49935,Iron County,MI,79.5031055900621,NA,NA,NA
49953,Ontonagon County,MI,NA,94.02985074626866,NA,NA
55066,Goodhue County,MN,NA,NA,NA,46.043165467625904
55076,Dakota County,MN,NA,NA,59.84095427435388,NA
55112,Ramsey County,MN,42.54658385093168,NA,NA,NA
55113,Ramsey County,MN,NA,NA,49.70178926441352,NA
55303,Anoka County,MN,NA,NA,38.56858846918489,NA
55407,Hennepin County,MN,NA,NA,7.5546719681908545,NA
55411,Hennepin County,MN,NA,3.2835820895522385,18.687872763419485,NA
55412,Hennepin County,MN,NA,12.686567164179104,NA,NA
55422,Hennepin County,MN,NA,NA,93.24055666003976,50.35971223021583
55423,Hennepin County,MN,NA,NA,NA,39.568345323741006
55429,Hennepin County,MN,NA,NA,43.93638170974155,NA
55430,Hennepin County,MN,NA,22.686567164179106,NA,NA
55811,St. Louis County,MN,NA,NA,7.157057654075547,NA
55902,Olmsted County,MN,84.16149068322981,NA,NA,NA
55904,Olmsted County,MN,NA,42.98507462686567,NA,NA
55963,Goodhue County,MN,NA,94.47761194029852,NA,NA
55987,Winona County,MN,NA,NA,5.168986083499006,NA
56003,Nicollet County,MN,97.82608695652173,NA,NA,NA
56031,Martin County,MN,NA,NA,75.14910536779324,NA
56164,Pipestone County,MN,86.95652173913044,NA,NA,50.719424460431654
56308,Douglas County,MN,NA,NA,13.518886679920477,NA
56334,Pope County,MN,NA,89.40298507462686,NA,65.46762589928058
56347,Todd County,MN,NA,NA,83.89662027833002,NA
56378,Stearns County,MN,NA,84.02985074626865,79.72166998011929,NA
56431,Aitkin County,MN,NA,NA,NA,31.654676258992804
56472,Crow Wing County,MN,NA,NA,72.56461232604374,57.55395683453237
56501,Becker County,MN,NA,NA,78.72763419483101,NA
56515,Otter Tail County,MN,NA,NA,NA,66.18705035971223
56537,Otter Tail County,MN,NA,NA,11.133200795228628,NA
56560,Clay County,MN,NA,1.6417910447761193,28.429423459244536,NA
56601,Beltrami County,MN,6.521739130434782,8.507462686567164,NA,NA
56633,Hubbard County,MN,NA,NA,92.84294234592446,NA
56649,Koochiching County,MN,NA,NA,61.23260437375746,NA
56716,Polk County,MN,NA,36.417910447761194,NA,NA
38614,Coahoma County,MS,NA,NA,68.389662027833,NA
38666,Panola County,MS,95.03105590062113,NA,NA,NA
38671,DeSoto County,MS,NA,39.40298507462687,NA,NA
38751,Sunflower County,MS,NA,86.26865671641791,NA,NA
38804,Lee County,MS,NA,92.53731343283582,NA,NA
38930,Leflore County,MS,NA,NA,49.10536779324055,NA
39066,Hinds County,MS,98.13664596273291,NA,NA,NA
39090,Attala County,MS,NA,NA,67.79324055666004,NA
39350,Neshoba County,MS,20.18633540372671,NA,NA,NA
39459,Jones County,MS,NA,99.85074626865672,NA,NA
39466,Pearl River County,MS,NA,66.11940298507463,NA,NA
39503,Harrison County,MS,NA,14.477611940298507,NA,NA
39532,Harrison County,MS,NA,NA,22.067594433399602,NA
39560,Harrison County,MS,NA,NA,NA,17.62589928057554
39574,Harrison County,MS,NA,NA,58.4493041749503,NA
39702,Lowndes County,MS,NA,44.47761194029851,NA,NA
39739,Noxubee County,MS,NA,99.1044776119403,NA,NA
63031,St. Louis County,MO,NA,NA,47.514910536779325,NA
63105,St. Louis County,MO,NA,NA,NA,68.34532374100719
63133,St. Louis County,MO,82.29813664596274,NA,NA,NA
63141,St. Louis County,MO,NA,NA,NA,67.62589928057554
63304,St. Charles County,MO,NA,35.67164179104478,NA,NA
63368,St. Charles County,MO,NA,NA,25.04970178926441,NA
63376,St. Charles County,MO,NA,13.880597014925373,NA,NA
63601,St. Francois County,MO,22.67080745341615,NA,NA,NA
63830,Pemiscot County,MO,NA,88.95522388059702,NA,NA
64012,Cass County,MO,NA,31.791044776119403,NA,NA
64015,Jackson County,MO,NA,NA,19.08548707753479,NA
64034,Jackson County,MO,NA,NA,94.03578528827038,NA
64050,Jackson County,MO,15.838509316770185,NA,NA,NA
64055,Jackson County,MO,NA,10.597014925373134,NA,NA
64079,Platte County,MO,NA,NA,49.50298210735586,NA
64080,Cass County,MO,68.94409937888199,NA,NA,NA
64109,Jackson County,MO,NA,34.02985074626866,NA,NA
64117,Clay County,MO,NA,NA,48.111332007952285,NA
64124,Jackson County,MO,85.71428571428571,93.13432835820895,NA,NA
64145,Jackson County,MO,NA,87.46268656716418,NA,NA
64152,Platte County,MO,NA,23.432835820895523,NA,NA
64155,Clay County,MO,NA,NA,NA,84.53237410071942
64157,Clay County,MO,NA,83.5820895522388,NA,NA
64485,Andrew County,MO,NA,70.29850746268657,64.01590457256461,NA
64701,Cass County,MO,NA,51.34328358208955,NA,NA
64772,Vernon County,MO,NA,NA,NA,71.58273381294964
64836,Jasper County,MO,13.354037267080745,NA,NA,NA
65026,Miller County,MO,62.422360248447205,NA,NA,NA
65078,Morgan County,MO,NA,NA,NA,91.36690647482014
65401,Phelps County,MO,NA,NA,55.864811133200796,NA
65559,Phelps County,MO,83.22981366459628,NA,NA,NA
65560,Dent County,MO,NA,NA,NA,37.05035971223021
65605,Lawrence County,MO,81.05590062111801,NA,NA,NA
65625,Barry County,MO,NA,89.8507462686567,NA,NA
65810,Greene County,MO,NA,NA,68.389662027833,NA
59230,Valley County,MT,NA,NA,NA,76.61870503597122
59301,Custer County,MT,NA,NA,91.65009940357854,NA
59602,Lewis and Clark County,MT,NA,NA,NA,40.647482014388494
59715,Gallatin County,MT,77.63975155279503,NA,NA,NA
59718,Gallatin County,MT,NA,85.22388059701493,NA,NA
59802,Missoula County,MT,NA,NA,85.88469184890656,NA
59808,Missoula County,MT,84.78260869565217,NA,NA,NA
59828,Ravalli County,MT,NA,NA,NA,97.12230215827337
68025,Dodge County,NE,NA,41.64179104477612,NA,NA
68046,Sarpy County,NE,NA,NA,92.44532803180915,NA
68134,Douglas County,NE,NA,63.582089552238806,NA,NA
68135,Douglas County,NE,NA,75.82089552238806,NA,NA
68506,Lancaster County,NE,NA,79.40298507462687,NA,NA
68803,Hall County,NE,NA,NA,55.864811133200796,NA
69162,Cheyenne County,NE,NA,81.94029850746269,NA,NA
89129,Clark County,NV,45.3416149068323,NA,NA,NA
89141,Clark County,NV,74.22360248447205,NA,NA,NA
89178,Clark County,NV,NA,93.43283582089552,NA,NA
89406,Churchill County,NV,77.95031055900621,NA,NA,NA
89408,Lyon County,NV,NA,44.02985074626866,NA,NA
89434,Washoe County,NV,NA,NA,39.562624254473164,NA
89523,Washoe County,NV,NA,60.447761194029844,NA,NA
89701,Carson City,NV,55.27950310559007,NA,NA,NA
03053,Rockingham County,NH,NA,NA,NA,41.36690647482014
03060,Hillsborough County,NH,NA,34.179104477611936,NA,NA
03064,Hillsborough County,NH,14.906832298136646,NA,NA,NA
03076,Hillsborough County,NH,NA,54.328358208955216,NA,NA
03087,Rockingham County,NH,33.85093167701863,NA,NA,NA
03220,Belknap County,NH,NA,NA,NA,86.6906474820144
03743,Sullivan County,NH,NA,60.895522388059696,NA,NA
03867,Strafford County,NH,NA,NA,NA,4.316546762589928
07009,Essex County,NJ,NA,NA,81.90854870775348,NA
07024,Bergen County,NJ,NA,NA,NA,75.53956834532374
07026,Bergen County,NJ,NA,20.149253731343283,NA,NA
07054,Morris County,NJ,NA,NA,38.36978131212724,NA
07060,Union County,NJ,9.316770186335404,NA,NA,NA
07065,Union County,NJ,NA,28.2089552238806,NA,NA
07103,Essex County,NJ,NA,NA,2.982107355864811,NA
07106,Essex County,NJ,NA,6.7164179104477615,NA,NA
07107,Essex County,NJ,NA,NA,97.4155069582505,NA
07203,Union County,NJ,96.58385093167702,NA,NA,NA
07304,Hudson County,NJ,NA,3.134328358208955,NA,NA
07438,Morris County,NJ,NA,NA,82.90258449304176,NA
07501,Passaic County,NJ,NA,18.208955223880597,NA,NA
07504,Passaic County,NJ,NA,88.65671641791046,NA,NA
07508,Passaic County,NJ,NA,NA,46.71968190854871,NA
07604,Bergen County,NJ,NA,NA,86.87872763419483,NA
07747,Monmouth County,NJ,NA,38.50746268656716,NA,NA
07828,Morris County,NJ,NA,63.88059701492538,NA,NA
07840,Warren County,NJ,NA,39.850746268656714,NA,NA
07920,Somerset County,NJ,NA,NA,62.82306163021869,NA
07928,Morris County,NJ,NA,NA,NA,85.97122302158273
07940,Morris County,NJ,NA,88.35820895522389,NA,NA
08005,Ocean County,NJ,NA,NA,34.39363817097416,NA
08016,Burlington County,NJ,NA,3.880597014925373,NA,NA
08053,Burlington County,NJ,NA,NA,28.031809145129227,18.345323741007196
08055,Burlington County,NJ,NA,NA,NA,41.007194244604314
08090,Gloucester County,NJ,NA,91.49253731343283,NA,NA
08103,Camden County,NJ,NA,6.4179104477611935,NA,NA
08104,Camden County,NJ,NA,1.0447761194029852,NA,NA
08106,Camden County,NJ,NA,NA,91.84890656063618,NA
08401,Atlantic County,NJ,NA,5.074626865671641,NA,NA
08402,Atlantic County,NJ,NA,92.6865671641791,NA,NA
08620,Mercer County,NJ,NA,87.01492537313433,NA,NA
08701,Ocean County,NJ,0,NA,NA,NA
08731,Ocean County,NJ,NA,45.07462686567164,NA,NA
08759,Ocean County,NJ,NA,NA,2.3856858846918487,0
08831,Middlesex County,NJ,NA,NA,10.139165009940358,NA
08854,Middlesex County,NJ,NA,11.791044776119403,NA,NA
87031,Valencia County,NM,NA,68.80597014925374,NA,NA
87109,Bernalillo County,NM,NA,NA,17.09741550695825,NA
87120,Bernalillo County,NM,NA,NA,NA,28.776978417266186
87121,Bernalillo County,NM,4.968944099378882,NA,NA,NA
87123,Bernalillo County,NM,NA,NA,NA,19.06474820143885
87124,Sandoval County,NM,NA,15.37313432835821,NA,NA
87401,San Juan County,NM,39.75155279503105,NA,NA,NA
87413,San Juan County,NM,65.83850931677019,NA,NA,NA
87507,Santa Fe County,NM,NA,NA,24.055666003976143,NA
87532,Santa Fe County,NM,NA,46.11940298507463,46.71968190854871,NA
87571,Taos County,NM,NA,NA,53.08151093439364,NA
88345,Lincoln County,NM,NA,NA,85.2882703777336,NA
10001,New York County,NY,32.91925465838509,NA,NA,NA
10002,New York County,NY,NA,5.3731343283582085,NA,1.7985611510791366
10011,New York County,NY,NA,NA,NA,15.827338129496402
10021,New York County,NY,NA,NA,NA,21.223021582733814
10029,New York County,NY,NA,0.5970149253731344,0.5964214711729622,NA
10032,New York County,NY,NA,NA,NA,5.755395683453238
10039,New York County,NY,NA,36.268656716417915,NA,NA
10452,Bronx County,NY,3.4161490683229814,NA,NA,NA
10458,Bronx County,NY,2.484472049689441,NA,NA,NA
10459,Bronx County,NY,9.006211180124224,NA,NA,NA
10460,Bronx County,NY,NA,NA,2.1868787276341948,NA
10461,Bronx County,NY,NA,66.71641791044776,NA,NA
10469,Bronx County,NY,23.60248447204969,NA,NA,NA
10474,Bronx County,NY,65.527950310559,NA,NA,NA
10598,Westchester County,NY,NA,94.32835820895522,NA,NA
10603,Westchester County,NY,NA,79.25373134328359,NA,NA
10705,Westchester County,NY,NA,13.28358208955224,NA,NA
10710,Westchester County,NY,93.16770186335404,NA,NA,NA
11003,Nassau County,NY,72.98136645962732,NA,NA,NA
11040,Nassau County,NY,NA,NA,NA,32.37410071942446
11102,Queens County,NY,NA,56.26865671641791,NA,NA
11106,Queens County,NY,NA,82.08955223880598,NA,NA
11201,Kings County,NY,NA,25.522388059701495,NA,NA
11205,Kings County,NY,57.14285714285714,NA,NA,NA
11208,Kings County,NY,NA,NA,NA,20.863309352517987
11212,Kings County,NY,NA,10.298507462686567,NA,NA
11218,Kings County,NY,NA,21.19402985074627,NA,NA
11219,Kings County,NY,9.937888198757763,18.35820895522388,NA,NA
11220,Kings County,NY,NA,4.626865671641791,NA,NA
11228,Kings County,NY,NA,68.05970149253731,NA,NA
11233,Kings County,NY,NA,1.4925373134328357,NA,11.151079136690647
11235,Kings County,NY,NA,NA,16.69980119284294,NA
11355,Queens County,NY,NA,NA,19.880715705765407,NA
11364,Queens County,NY,NA,80.74626865671641,NA,NA
11368,Queens County,NY,NA,10,NA,NA
11373,Queens County,NY,8.074534161490684,51.64179104477612,NA,NA
11385,Queens County,NY,NA,NA,12.524850894632205,NA
11416,Queens County,NY,NA,NA,89.66202783300199,NA
11420,Queens County,NY,NA,NA,NA,34.89208633093525
11432,Queens County,NY,NA,30.74626865671642,NA,NA
11501,Nassau County,NY,NA,NA,91.45129224652088,NA
11545,Nassau County,NY,NA,NA,95.62624254473161,NA
11561,Nassau County,NY,NA,NA,69.98011928429423,NA
11590,Nassau County,NY,NA,NA,33.79721669980119,NA
11746,Suffolk County,NY,NA,NA,95.2286282306163,NA
11757,Suffolk County,NY,NA,NA,48.31013916500994,NA
11782,Suffolk County,NY,NA,95.97014925373134,93.63817097415506,NA
11795,Suffolk County,NY,NA,NA,73.75745526838966,NA
11933,Suffolk County,NY,NA,NA,NA,70.50359712230215
12078,Fulton County,NY,NA,NA,NA,45.68345323741007
12182,Rensselaer County,NY,NA,NA,54.27435387673957,NA
12203,Albany County,NY,NA,NA,44.333996023856855,NA
12206,Albany County,NY,NA,23.88059701492537,NA,NA
12304,Schenectady County,NY,NA,NA,73.558648111332,NA
12401,Ulster County,NY,NA,25.671641791044774,NA,NA
12803,Saratoga County,NY,NA,NA,84.49304174950298,NA
12804,Warren County,NY,NA,NA,11.928429423459244,NA
12816,Washington County,NY,NA,NA,88.27037773359841,NA
12831,Saratoga County,NY,NA,55.52238805970149,NA,NA
12901,Clinton County,NY,NA,3.582089552238806,NA,37.410071942446045
12946,Essex County,NY,NA,42.08955223880597,NA,NA
12972,Clinton County,NY,NA,62.83582089552239,NA,NA
12986,Franklin County,NY,66.45962732919256,NA,NA,NA
13021,Cayuga County,NY,NA,4.179104477611941,NA,NA
13039,Onondaga County,NY,NA,52.83582089552239,NA,NA
13066,Onondaga County,NY,NA,NA,56.85884691848907,NA
13069,Oswego County,NY,NA,52.08955223880597,NA,NA
13077,Cortland County,NY,NA,NA,NA,82.37410071942446
13088,Onondaga County,NY,NA,31.492537313432834,NA,NA
13090,Onondaga County,NY,45.03105590062112,NA,NA,NA
13116,Onondaga County,NY,NA,94.17910447761194,NA,NA
13167,Oswego County,NY,NA,NA,99.20477137176938,NA
13327,Lewis County,NY,NA,NA,96.22266401590457,NA
13332,Madison County,NY,NA,NA,98.01192842942345,NA
13346,Madison County,NY,NA,NA,58.8469184890656,NA
13407,Herkimer County,NY,NA,NA,NA,83.81294964028777
13440,Oneida County,NY,NA,NA,6.958250497017893,NA
13830,Chenango County,NY,NA,71.94029850746269,NA,NA
13862,Broome County,NY,NA,75.07462686567165,NA,NA
14005,Genesee County,NY,NA,NA,96.42147117296223,NA
14020,Genesee County,NY,NA,16.567164179104477,NA,NA
14047,Erie County,NY,NA,NA,76.54075546719682,NA
14048,Chautauqua County,NY,NA,NA,45.72564612326044,NA
14067,Niagara County,NY,82.91925465838509,NA,NA,NA
14208,Erie County,NY,NA,34.626865671641795,NA,NA
14214,Erie County,NY,38.81987577639752,NA,46.52087475149106,NA
14216,Erie County,NY,NA,33.28358208955224,NA,NA
14221,Erie County,NY,NA,46.56716417910447,4.174950298210735,NA
14223,Erie County,NY,NA,NA,NA,65.82733812949641
14226,Erie County,NY,NA,NA,NA,64.02877697841727
14420,Monroe County,NY,NA,NA,24.45328031809145,NA
14424,Ontario County,NY,15.217391304347828,2.6865671641791042,NA,NA
14425,Ontario County,NY,NA,21.940298507462686,NA,NA
14432,Ontario County,NY,NA,NA,53.28031809145129,NA
14467,Monroe County,NY,62.11180124223602,NA,NA,NA
14489,Wayne County,NY,NA,37.61194029850746,NA,80.93525179856115
14512,Ontario County,NY,NA,NA,68.78727634194831,NA
14513,Wayne County,NY,17.080745341614907,NA,NA,NA
14514,Monroe County,NY,NA,NA,NA,87.05035971223022
14559,Monroe County,NY,NA,14.925373134328357,NA,NA
14580,Monroe County,NY,NA,0.8955223880597015,0.3976143141153081,NA
14586,Monroe County,NY,NA,37.76119402985075,NA,NA
14590,Wayne County,NY,56.52173913043478,NA,NA,NA
14610,Monroe County,NY,NA,NA,NA,35.61151079136691
14612,Monroe County,NY,35.09316770186335,NA,NA,NA
14617,Monroe County,NY,NA,NA,5.964214711729622,NA
14621,Monroe County,NY,NA,0.7462686567164178,NA,NA
14622,Monroe County,NY,41.92546583850932,NA,NA,NA
14624,Monroe County,NY,NA,NA,20.675944333996025,13.309352517985612
14625,Monroe County,NY,NA,NA,47.912524850894634,NA
14701,Chautauqua County,NY,NA,2.9850746268656714,NA,NA
14724,Chautauqua County,NY,NA,96.86567164179104,NA,NA
14782,Chautauqua County,NY,99.06832298136646,NA,NA,NA
14882,Tompkins County,NY,86.33540372670807,NA,NA,NA
14901,Chemung County,NY,NA,35.82089552238806,NA,NA
14904,Chemung County,NY,NA,32.08955223880597,NA,NA
14905,Chemung County,NY,84.472049689441,NA,NA,NA
27006,Davie County,NC,NA,NA,28.429423459244536,NA
27018,Yadkin County,NC,NA,78.80597014925374,NA,52.15827338129496
27030,Surry County,NC,NA,NA,NA,1.079136690647482
27040,Forsyth County,NC,NA,NA,89.46322067594433,NA
27045,Forsyth County,NC,NA,77.46268656716417,NA,NA
27103,Forsyth County,NC,NA,NA,9.74155069582505,1.4388489208633095
27104,Forsyth County,NC,NA,35.07462686567165,NA,NA
27127,Forsyth County,NC,NA,19.25373134328358,NA,NA
27205,Randolph County,NC,56.2111801242236,NA,NA,NA
27260,Guilford County,NC,NA,NA,NA,60.431654676258994
27284,Forsyth County,NC,NA,NA,NA,2.877697841726619
27311,Caswell County,NC,NA,NA,96.62027833001989,NA
27357,Rockingham County,NC,NA,88.50746268656717,89.06560636182903,NA
27401,Guilford County,NC,47.82608695652174,NA,NA,NA
27406,Guilford County,NC,11.490683229813664,25.82089552238806,NA,NA
27502,Wake County,NC,29.19254658385093,NA,NA,NA
27517,Orange County,NC,NA,NA,30.417495029821072,NA
27520,Johnston County,NC,NA,NA,36.58051689860835,NA
27534,Wayne County,NC,NA,NA,53.47912524850894,NA
27542,Johnston County,NC,NA,75.22388059701493,NA,NA
27560,Wake County,NC,NA,NA,81.31212723658051,NA
27577,Johnston County,NC,NA,NA,NA,29.136690647482016
27587,Wake County,NC,NA,61.19402985074627,NA,20.503597122302157
27597,Wake County,NC,53.41614906832298,NA,NA,NA
27603,Wake County,NC,NA,27.01492537313433,NA,NA
27610,Wake County,NC,NA,9.850746268656717,NA,NA
27617,Wake County,NC,NA,NA,93.04174950298211,NA
27703,Durham County,NC,NA,14.776119402985074,NA,NA
27834,Pitt County,NC,NA,35.223880597014926,NA,NA
27874,Halifax County,NC,NA,NA,95.82504970178927,NA
27889,Beaufort County,NC,NA,NA,25.844930417495032,NA
27891,Nash County,NC,NA,NA,NA,94.60431654676259
27909,Pasquotank County,NC,NA,17.611940298507463,NA,NA
28027,Cabarrus County,NC,NA,NA,NA,27.33812949640288
28081,Cabarrus County,NC,NA,27.164179104477608,NA,NA
28150,Cleveland County,NC,NA,27.46268656716418,NA,NA
28208,Mecklenburg County,NC,11.801242236024844,NA,26.838966202783297,NA
28210,Mecklenburg County,NC,NA,NA,NA,34.53237410071942
28211,Mecklenburg County,NC,NA,NA,85.48707753479125,NA
28215,Mecklenburg County,NC,NA,20,NA,NA
28216,Mecklenburg County,NC,11.801242236024844,NA,NA,30.575539568345324
28226,Mecklenburg County,NC,NA,59.253731343283576,NA,NA
28301,Cumberland County,NC,NA,44.776119402985074,NA,NA
28328,Sampson County,NC,NA,NA,NA,42.086330935251794
28401,New Hanover County,NC,NA,NA,35.984095427435385,NA
28411,New Hanover County,NC,NA,NA,42.14711729622266,NA
28560,Craven County,NC,NA,34.776119402985074,NA,NA
28601,Catawba County,NC,NA,18.80597014925373,NA,NA
28602,Catawba County,NC,NA,26.71641791044776,NA,NA
28604,Watauga County,NC,NA,NA,NA,80.2158273381295
28607,Watauga County,NC,NA,81.7910447761194,NA,NA
28612,Burke County,NC,NA,NA,59.64214711729622,NA
28613,Catawba County,NC,76.08695652173914,NA,NA,NA
28630,Caldwell County,NC,NA,NA,NA,51.438848920863315
28645,Caldwell County,NC,NA,NA,0.9940357852882704,NA
28712,Transylvania County,NC,NA,NA,NA,11.870503597122301
28721,Haywood County,NC,NA,79.55223880597015,NA,NA
28734,Macon County,NC,34.161490683229815,NA,NA,NA
28748,Buncombe County,NC,93.7888198757764,NA,NA,NA
28752,McDowell County,NC,35.714285714285715,NA,16.10337972166998,NA
28803,Buncombe County,NC,NA,57.76119402985075,NA,NA
58078,Cass County,ND,13.975155279503104,30.447761194029848,NA,NA
58103,Cass County,ND,NA,9.402985074626866,NA,NA
58316,Rolette County,ND,NA,94.47761194029852,NA,NA
58401,Stutsman County,ND,NA,92.38805970149254,NA,NA
58503,Burleigh County,ND,NA,38.80597014925373,NA,NA
58601,Stark County,ND,NA,78.65671641791045,NA,NA
43004,Franklin County,OH,27.018633540372672,NA,63.41948310139165,NA
43026,Franklin County,OH,NA,NA,23.658051689860834,NA
43056,Licking County,OH,NA,NA,NA,58.27338129496403
43078,Champaign County,OH,NA,39.55223880597015,NA,NA
43082,Delaware County,OH,NA,NA,74.75149105367794,NA
43113,Pickaway County,OH,NA,51.34328358208955,NA,9.352517985611511
43147,Fairfield County,OH,NA,29.1044776119403,NA,NA
43160,Fayette County,OH,NA,NA,24.254473161033797,NA
43202,Franklin County,OH,NA,NA,83.89662027833002,NA
43206,Franklin County,OH,NA,67.61194029850746,NA,NA
43213,Franklin County,OH,1.8633540372670807,NA,NA,NA
43219,Franklin County,OH,3.1055900621118013,NA,NA,NA
43224,Franklin County,OH,0.6211180124223602,30.29850746268657,NA,NA
43227,Franklin County,OH,NA,76.71641791044776,NA,NA
43228,Franklin County,OH,0.9316770186335404,NA,NA,NA
43229,Franklin County,OH,0.3105590062111801,8.656716417910449,41.94831013916501,NA
43231,Franklin County,OH,54.037267080745345,NA,NA,NA
43315,Morrow County,OH,60.86956521739131,NA,NA,NA
43331,Logan County,OH,NA,94.77611940298507,NA,81.65467625899281
43528,Lucas County,OH,NA,NA,47.31610337972167,NA
43604,Lucas County,OH,NA,49.55223880597015,NA,NA
43605,Lucas County,OH,NA,NA,25.44731610337972,NA
43612,Lucas County,OH,NA,6.26865671641791,NA,NA
43615,Lucas County,OH,NA,NA,NA,9.712230215827338
43623,Lucas County,OH,44.409937888198755,NA,NA,NA
43912,Belmont County,OH,NA,NA,52.88270377733598,NA
43920,Columbiana County,OH,14.596273291925465,40.44776119402985,NA,NA
43953,Jefferson County,OH,NA,37.76119402985075,NA,NA
44011,Lorain County,OH,39.44099378881988,NA,NA,NA
44023,Geauga County,OH,NA,NA,47.11729622266402,NA
44024,Geauga County,OH,NA,NA,16.50099403578529,NA
44026,Geauga County,OH,NA,NA,54.67196819085487,NA
44030,Ashtabula County,OH,NA,27.761194029850746,NA,NA
44035,Lorain County,OH,1.5527950310559007,NA,9.542743538767395,NA
44039,Lorain County,OH,NA,11.044776119402986,4.572564612326044,NA
44047,Ashtabula County,OH,69.87577639751554,NA,NA,78.41726618705036
44052,Lorain County,OH,NA,NA,3.5785288270377733,NA
44054,Lorain County,OH,NA,42.23880597014925,NA,NA
44057,Lake County,OH,47.82608695652174,NA,NA,NA
44077,Lake County,OH,NA,NA,NA,0.7194244604316548
44089,Erie County,OH,NA,NA,11.332007952286283,NA
44104,Cuyahoga County,OH,NA,5.820895522388059,NA,NA
44105,Cuyahoga County,OH,NA,8.358208955223882,NA,NA
44106,Cuyahoga County,OH,NA,14.328358208955224,NA,NA
44107,Cuyahoga County,OH,NA,NA,NA,10.071942446043165
44109,Cuyahoga County,OH,NA,NA,2.783300198807157,NA
44111,Cuyahoga County,OH,NA,1.3432835820895521,NA,NA
44112,Cuyahoga County,OH,NA,37.014925373134325,6.560636182902585,21.58273381294964
44116,Cuyahoga County,OH,NA,NA,31.01391650099404,NA
44121,Cuyahoga County,OH,NA,13.134328358208954,NA,NA
44126,Cuyahoga County,OH,72.04968944099379,NA,NA,NA
44134,Cuyahoga County,OH,4.3478260869565215,NA,NA,NA
44135,Cuyahoga County,OH,3.7267080745341614,NA,NA,NA
44139,Cuyahoga County,OH,NA,NA,15.109343936381709,NA
44147,Cuyahoga County,OH,NA,NA,67.9920477137177,NA
44221,Summit County,OH,42.857142857142854,NA,NA,NA
44223,Summit County,OH,NA,55.52238805970149,NA,NA
44236,Summit County,OH,NA,60.298507462686565,NA,NA
44256,Medina County,OH,NA,NA,0.7952286282306162,17.26618705035971
44266,Portage County,OH,NA,40.298507462686565,NA,NA
44312,Summit County,OH,NA,19.1044776119403,NA,NA
44420,Trumbull County,OH,NA,43.582089552238806,NA,NA
44432,Columbiana County,OH,NA,NA,73.95626242544732,NA
44481,Trumbull County,OH,NA,31.19402985074627,NA,NA
44502,Mahoning County,OH,NA,50.14925373134328,NA,NA
44515,Mahoning County,OH,26.70807453416149,NA,NA,NA
44601,Stark County,OH,NA,9.701492537313433,NA,NA
44621,Tuscarawas County,OH,88.19875776397515,NA,NA,NA
44680,Tuscarawas County,OH,NA,97.61194029850746,NA,NA
44708,Stark County,OH,NA,32.6865671641791,NA,NA
44830,Seneca County,OH,NA,22.08955223880597,NA,NA
44833,Crawford County,OH,NA,71.64179104477611,19.4831013916501,NA
44883,Seneca County,OH,NA,22.388059701492537,NA,NA
45067,Butler County,OH,NA,NA,76.93836978131213,NA
45069,Butler County,OH,NA,62.23880597014926,NA,NA
45102,Clermont County,OH,NA,NA,62.02783300198808,NA
45123,Highland County,OH,NA,NA,65.00994035785288,NA
45133,Highland County,OH,NA,NA,NA,22.302158273381295
45150,Clermont County,OH,NA,NA,80.9145129224652,NA
45212,Hamilton County,OH,NA,NA,NA,87.41007194244604
45214,Hamilton County,OH,NA,NA,NA,79.13669064748201
45220,Hamilton County,OH,96.8944099378882,NA,NA,NA
45245,Clermont County,OH,76.70807453416148,NA,NA,NA
45356,Miami County,OH,NA,NA,NA,63.30935251798561
45371,Miami County,OH,NA,61.04477611940299,NA,NA
45403,Montgomery County,OH,29.81366459627329,NA,NA,NA
45429,Montgomery County,OH,NA,51.04477611940299,NA,NA
45440,Montgomery County,OH,52.484472049689444,NA,NA,NA
45459,Montgomery County,OH,NA,NA,NA,19.784172661870503
45629,Scioto County,OH,88.81987577639751,NA,NA,NA
45640,Jackson County,OH,49.68944099378882,NA,NA,NA
45801,Allen County,OH,NA,NA,NA,73.38129496402878
45804,Allen County,OH,NA,47.01492537313433,NA,NA
45840,Hancock County,OH,NA,NA,4.3737574552683895,NA
45879,Paulding County,OH,NA,57.3134328358209,NA,NA
45885,Auglaize County,OH,NA,NA,NA,52.51798561151079
73020,Oklahoma County,OK,69.87577639751554,NA,NA,NA
73080,McClain County,OK,NA,NA,NA,70.86330935251799
73601,Custer County,OK,NA,NA,83.69781312127238,NA
73703,Garfield County,OK,NA,NA,NA,12.949640287769784
74019,Rogers County,OK,NA,NA,92.6441351888668,NA
74044,Creek County,OK,94.72049689440993,NA,NA,NA
74055,Tulsa County,OK,NA,NA,31.01391650099404,NA
74106,Tulsa County,OK,NA,43.43283582089552,NA,NA
74110,Tulsa County,OK,NA,NA,77.33598409542743,NA
74129,Tulsa County,OK,NA,61.49253731343284,NA,NA
74136,Tulsa County,OK,73.29192546583852,NA,NA,NA
74137,Tulsa County,OK,66.45962732919256,NA,NA,NA
74146,Tulsa County,OK,NA,NA,NA,92.80575539568345
74365,Mayes County,OK,NA,90.59701492537313,NA,NA
74432,McIntosh County,OK,NA,84.77611940298507,NA,NA
74601,Kay County,OK,57.7639751552795,NA,NA,NA
74604,Kay County,OK,NA,NA,62.42544731610338,NA
74953,Le Flore County,OK,NA,NA,77.73359840954275,NA
97006,Washington County,OR,NA,NA,33.99602385685885,NA
97031,Hood River County,OR,NA,NA,NA,82.01438848920863
97089,Clackamas County,OR,92.85714285714286,NA,NA,NA
97103,Clatsop County,OR,NA,NA,49.90059642147117,25.539568345323744
97128,Yamhill County,OR,NA,22.83582089552239,NA,NA
97141,Tillamook County,OR,NA,NA,NA,88.12949640287769
97205,Multnomah County,OR,NA,87.31343283582089,NA,NA
97217,Multnomah County,OR,NA,48.208955223880594,NA,NA
97222,Clackamas County,OR,59.93788819875776,NA,NA,NA
97230,Multnomah County,OR,36.95652173913043,NA,NA,NA
97233,Multnomah County,OR,NA,20.597014925373134,NA,NA
97321,Linn County,OR,NA,NA,26.640159045725646,NA
97322,Linn County,OR,NA,NA,15.308151093439365,NA
97338,Polk County,OR,NA,NA,44.93041749502982,NA
97402,Lane County,OR,NA,25.07462686567164,NA,NA
97415,Curry County,OR,NA,55.37313432835821,27.833001988071572,NA
97502,Jackson County,OR,NA,NA,24.652087475149106,NA
97850,Union County,OR,NA,47.16417910447761,NA,NA
15116,Allegheny County,PA,NA,90.29850746268657,NA,NA
15132,Allegheny County,PA,NA,15.82089552238806,NA,NA
15236,Allegheny County,PA,NA,55.970149253731336,NA,NA
15425,Fayette County,PA,49.06832298136646,NA,NA,NA
15522,Bedford County,PA,NA,NA,48.70775347912525,NA
15644,Westmoreland County,PA,NA,NA,37.77335984095427,NA
15690,Westmoreland County,PA,NA,NA,80.51689860834989,NA
15717,Indiana County,PA,NA,NA,NA,88.84892086330936
15767,Jefferson County,PA,NA,33.731343283582085,NA,NA
15801,Clearfield County,PA,NA,11.194029850746269,NA,NA
16001,Butler County,PA,NA,NA,3.3797216699801194,NA
16101,Lawrence County,PA,NA,8.208955223880597,NA,NA
16146,Mercer County,PA,NA,28.35820895522388,NA,NA
16226,Armstrong County,PA,NA,NA,NA,62.23021582733813
16506,Erie County,PA,73.29192546583852,NA,NA,NA
16510,Erie County,PA,NA,NA,NA,28.05755395683453
16511,Erie County,PA,NA,83.28358208955224,NA,NA
16635,Blair County,PA,NA,80.44776119402985,NA,NA
16735,McKean County,PA,NA,NA,NA,56.4748201438849
16823,Centre County,PA,52.79503105590062,NA,NA,NA
16915,Potter County,PA,NA,NA,69.18489065606362,NA
17046,Lebanon County,PA,NA,NA,NA,48.92086330935252
17050,Cumberland County,PA,NA,NA,NA,23.741007194244602
17057,Dauphin County,PA,NA,22.53731343283582,NA,NA
17078,Lebanon County,PA,NA,21.492537313432834,NA,NA
17112,Dauphin County,PA,NA,NA,33.20079522862823,NA
17113,Dauphin County,PA,45.65217391304348,NA,NA,NA
17233,Fulton County,PA,NA,84.02985074626865,NA,NA
17315,York County,PA,NA,NA,16.898608349900595,NA
17320,Adams County,PA,NA,NA,NA,66.54676258992805
17350,Adams County,PA,NA,65.3731343283582,NA,NA
17401,York County,PA,61.18012422360248,NA,NA,NA
17543,Lancaster County,PA,25.465838509316768,NA,NA,NA
17866,Northumberland County,PA,NA,88.80597014925374,NA,NA
17972,Schuylkill County,PA,NA,NA,NA,64.38848920863309
18020,Northampton County,PA,NA,50.74626865671642,NA,29.856115107913666
18042,Northampton County,PA,NA,7.462686567164178,NA,NA
18052,Lehigh County,PA,NA,23.134328358208954,NA,NA
18064,Northampton County,PA,41.92546583850932,76.86567164179104,NA,NA
18232,Carbon County,PA,NA,96.26865671641791,NA,NA
18431,Wayne County,PA,NA,NA,58.64811133200796,NA
18436,Wayne County,PA,NA,62.537313432835816,NA,NA
18603,Columbia County,PA,NA,NA,56.461232604373755,NA
18801,Susquehanna County,PA,82.6086956521739,NA,NA,NA
19006,Montgomery County,PA,NA,NA,70.57654075546719,NA
19030,Bucks County,PA,NA,NA,96.81908548707754,NA
19044,Montgomery County,PA,NA,69.70149253731344,74.55268389662028,NA
19055,Bucks County,PA,77.32919254658384,NA,NA,NA
19063,Delaware County,PA,NA,NA,13.320079522862823,NA
19106,Philadelphia County,PA,87.5776397515528,NA,NA,NA
19111,Philadelphia County,PA,15.527950310559005,4.925373134328359,NA,NA
19114,Philadelphia County,PA,35.714285714285715,NA,NA,NA
19115,Philadelphia County,PA,NA,NA,20.87475149105368,NA
19120,Philadelphia County,PA,NA,3.4328358208955225,NA,NA
19124,Philadelphia County,PA,NA,NA,45.92445328031809,NA
19131,Philadelphia County,PA,NA,NA,4.7713717693836974,NA
19139,Philadelphia County,PA,NA,5.522388059701493,NA,NA
19140,Philadelphia County,PA,NA,2.2388059701492535,NA,NA
19142,Philadelphia County,PA,NA,49.40298507462686,NA,NA
19143,Philadelphia County,PA,NA,NA,NA,10.79136690647482
19144,Philadelphia County,PA,NA,6.567164179104477,NA,NA
19147,Philadelphia County,PA,NA,NA,NA,53.597122302158276
19149,Philadelphia County,PA,NA,NA,68.19085487077535,NA
19348,Chester County,PA,44.72049689440994,NA,NA,NA
19380,Chester County,PA,NA,15.970149253731345,NA,NA
19390,Chester County,PA,NA,NA,NA,81.29496402877699
19512,Berks County,PA,NA,NA,53.677932405566594,NA
19601,Berks County,PA,NA,3.731343283582089,NA,NA
02840,Newport County,RI,NA,NA,32.007952286282304,NA
02864,Providence County,RI,NA,NA,18.290258449304176,NA
02889,Kent County,RI,NA,NA,NA,41.726618705035975
02904,Providence County,RI,NA,38.95522388059702,NA,NA
02919,Providence County,RI,70.80745341614907,47.76119402985074,NA,NA
29209,Richland County,SC,NA,53.88059701492537,NA,NA
29212,Lexington County,SC,69.56521739130434,NA,NA,NA
29306,Spartanburg County,SC,37.88819875776397,NA,NA,NA
29349,Spartanburg County,SC,51.86335403726709,NA,NA,NA
29353,Union County,SC,NA,90.14925373134328,NA,NA
29360,Laurens County,SC,NA,NA,NA,62.589928057553955
29405,Charleston County,SC,NA,32.537313432835816,NA,NA
29406,Charleston County,SC,NA,29.850746268656714,NA,NA
29410,Berkeley County,SC,67.3913043478261,NA,NA,NA
29431,Berkeley County,SC,NA,NA,NA,94.96402877697841
29445,Berkeley County,SC,46.58385093167702,29.55223880597015,NA,NA
29458,Charleston County,SC,100,NA,NA,NA
29472,Dorchester County,SC,NA,84.32835820895522,NA,NA
29486,Berkeley County,SC,NA,NA,50.695825049701796,NA
29501,Florence County,SC,NA,36.71641791044776,NA,NA
29506,Florence County,SC,46.273291925465834,NA,NA,NA
29568,Horry County,SC,NA,NA,65.20874751491054,NA
29605,Greenville County,SC,NA,NA,14.314115308151093,NA
29609,Greenville County,SC,NA,48.059701492537314,NA,NA
29621,Anderson County,SC,NA,NA,NA,15.467625899280577
29626,Anderson County,SC,NA,NA,NA,58.992805755395686
29681,Greenville County,SC,41.30434782608695,NA,NA,NA
29715,York County,SC,NA,72.83582089552239,NA,NA
29907,Beaufort County,SC,NA,NA,79.12524850894633,NA
57006,Brookings County,SD,NA,NA,NA,16.546762589928058
57103,Minnehaha County,SD,NA,NA,5.566600397614314,7.553956834532374
57104,Minnehaha County,SD,NA,NA,7.75347912524851,NA
57106,Minnehaha County,SD,NA,NA,57.85288270377733,NA
57401,Brown County,SD,7.763975155279502,NA,NA,NA
57747,Fall River County,SD,NA,NA,70.9741550695825,NA
37013,Davidson County,TN,4.037267080745342,NA,NA,NA
37055,Dickson County,TN,NA,28.955223880597014,46.12326043737575,NA
37064,Williamson County,TN,NA,NA,17.495029821073558,NA
37069,Williamson County,TN,NA,91.64179104477613,NA,NA
37087,Wilson County,TN,NA,NA,27.037773359840955,NA
37128,Rutherford County,TN,41.61490683229814,NA,NA,NA
37174,Williamson County,TN,NA,NA,41.74950298210736,NA
37188,Robertson County,TN,78.88198757763976,NA,NA,NA
37208,Davidson County,TN,59.006211180124225,NA,NA,NA
37211,Davidson County,TN,NA,NA,22.86282306163022,NA
37214,Davidson County,TN,NA,NA,57.65407554671968,NA
37354,Monroe County,TN,NA,43.28358208955223,NA,NA
37355,Coffee County,TN,64.59627329192547,NA,NA,NA
37363,Hamilton County,TN,NA,49.1044776119403,44.731610337972164,NA
37379,Hamilton County,TN,43.7888198757764,NA,NA,NA
37659,Washington County,TN,47.82608695652174,NA,NA,NA
37660,Sullivan County,TN,30.124223602484474,NA,NA,NA
37743,Greene County,TN,NA,NA,5.7654075546719685,NA
37772,Loudon County,TN,NA,NA,93.83697813121272,NA
37846,Loudon County,TN,94.09937888198758,NA,NA,NA
37860,Hamblen County,TN,NA,NA,NA,100
37871,Jefferson County,TN,NA,88.05970149253731,NA,NA
37920,Knox County,TN,36.33540372670808,NA,NA,NA
38012,Haywood County,TN,NA,81.04477611940298,NA,NA
38109,Shelby County,TN,NA,NA,18.09145129224652,NA
38116,Shelby County,TN,NA,NA,NA,55.75539568345324
38118,Shelby County,TN,10.869565217391305,NA,NA,NA
38127,Shelby County,TN,5.279503105590062,NA,NA,NA
38128,Shelby County,TN,NA,23.88059701492537,NA,NA
38134,Shelby County,TN,NA,NA,59.24453280318092,NA
38225,Weakley County,TN,91.61490683229813,NA,NA,NA
38343,Gibson County,TN,NA,NA,55.069582504970185,NA
38462,Lewis County,TN,NA,74.6268656716418,NA,NA
38501,Putnam County,TN,NA,22.98507462686567,NA,NA
38555,Cumberland County,TN,NA,75.5223880597015,NA,NA
75006,Dallas County,TX,NA,NA,30.218687872763418,NA
75023,Collin County,TX,NA,59.40298507462687,NA,NA
75057,Denton County,TX,85.09316770186336,NA,NA,NA
75063,Dallas County,TX,NA,64.17910447761194,NA,NA
75065,Denton County,TX,NA,87.76119402985074,NA,NA
75093,Collin County,TX,NA,NA,NA,36.330935251798564
75160,Kaufman County,TX,NA,70.29850746268657,NA,NA
75165,Ellis County,TX,30.434782608695656,NA,NA,NA
75216,Dallas County,TX,NA,8.805970149253731,80.71570576540755,NA
75219,Dallas County,TX,NA,58.35820895522388,NA,NA
75229,Dallas County,TX,50,52.537313432835816,NA,NA
75230,Dallas County,TX,NA,NA,50.09940357852882,NA
75234,Dallas County,TX,NA,72.98507462686568,NA,NA
75237,Dallas County,TX,NA,52.98507462686567,NA,NA
75287,Denton County,TX,29.19254658385093,NA,NA,NA
75428,Hunt County,TX,NA,NA,93.43936381709742,NA
75551,Cass County,TX,NA,84.92537313432837,NA,NA
75602,Gregg County,TX,NA,65.22388059701493,NA,NA
75633,Panola County,TX,70.4968944099379,NA,NA,NA
75703,Smith County,TX,24.84472049689441,NA,NA,NA
75704,Smith County,TX,NA,NA,76.34194831013916,NA
75707,Smith County,TX,37.577639751552795,NA,NA,NA
75754,Van Zandt County,TX,NA,NA,NA,78.77697841726618
75757,Smith County,TX,NA,NA,NA,43.16546762589928
75762,Smith County,TX,NA,NA,54.47316103379721,NA
75785,Cherokee County,TX,NA,NA,60.437375745526836,NA
76001,Tarrant County,TX,NA,92.23880597014926,NA,NA
76012,Tarrant County,TX,NA,57.01492537313433,NA,NA
76015,Tarrant County,TX,NA,NA,72.76341948310139,NA
76020,Tarrant County,TX,NA,NA,31.610337972166995,NA
76040,Tarrant County,TX,47.20496894409938,NA,NA,NA
76053,Tarrant County,TX,NA,48.80597014925373,NA,NA
76058,Johnson County,TX,53.72670807453416,NA,NA,NA
76088,Parker County,TX,NA,82.83582089552239,NA,NA
76102,Tarrant County,TX,NA,76.4179104477612,NA,NA
76105,Tarrant County,TX,NA,NA,NA,90.64748201438849
76106,Tarrant County,TX,23.91304347826087,NA,NA,NA
76107,Tarrant County,TX,62.422360248447205,NA,NA,NA
76110,Tarrant County,TX,NA,NA,52.48508946322068,NA
76115,Tarrant County,TX,NA,NA,72.96222664015905,NA
76116,Tarrant County,TX,NA,28.65671641791045,15.705765407554672,23.021582733812952
76117,Tarrant County,TX,NA,NA,NA,98.20143884892086
76126,Tarrant County,TX,56.52173913043478,NA,NA,NA
76131,Tarrant County,TX,NA,NA,65.60636182902584,NA
76133,Tarrant County,TX,26.08695652173913,NA,NA,NA
76230,Montague County,TX,NA,NA,74.15506958250498,NA
76244,Tarrant County,TX,NA,NA,NA,74.46043165467626
76248,Tarrant County,TX,NA,70.59701492537313,NA,NA
76446,Erath County,TX,NA,93.73134328358209,NA,NA
76501,Bell County,TX,NA,NA,37.37574552683897,NA
76502,Bell County,TX,NA,NA,1.5904572564612325,NA
76504,Bell County,TX,NA,13.73134328358209,NA,NA
76513,Bell County,TX,NA,NA,1.7892644135188867,NA
76520,Milam County,TX,75.77639751552795,NA,NA,NA
76522,Coryell County,TX,16.77018633540373,NA,NA,NA
76543,Bell County,TX,16.459627329192546,NA,NA,NA
76643,McLennan County,TX,NA,NA,64.21471172962227,NA
77005,Harris County,TX,NA,76.56716417910448,NA,NA
77012,Harris County,TX,NA,91.7910447761194,NA,NA
77022,Harris County,TX,NA,NA,55.26838966202783,NA
77026,Harris County,TX,22.981366459627328,NA,NA,NA
77040,Harris County,TX,NA,54.77611940298508,NA,NA
77045,Harris County,TX,NA,NA,66.99801192842942,NA
77058,Harris County,TX,NA,85.07462686567165,NA,NA
77080,Harris County,TX,NA,NA,NA,60.07194244604317
77084,Harris County,TX,NA,NA,NA,66.90647482014388
77094,Harris County,TX,NA,96.56716417910448,NA,NA
77095,Harris County,TX,NA,NA,14.314115308151093,NA
77302,Montgomery County,TX,NA,74.4776119402985,NA,83.45323741007195
77331,San Jacinto County,TX,NA,NA,90.25844930417495,NA
77407,Fort Bend County,TX,NA,NA,77.13717693836978,NA
77414,Matagorda County,TX,NA,NA,NA,54.67625899280576
77422,Brazoria County,TX,NA,93.88059701492537,NA,NA
77429,Harris County,TX,NA,NA,6.560636182902585,NA
77441,Fort Bend County,TX,NA,NA,81.90854870775348,NA
77449,Harris County,TX,NA,NA,NA,53.956834532374096
77469,Fort Bend County,TX,NA,NA,39.165009940357855,NA
77474,Austin County,TX,NA,NA,84.29423459244532,NA
77478,Fort Bend County,TX,74.84472049689441,NA,NA,NA
77479,Fort Bend County,TX,47.51552795031056,NA,NA,NA
77494,Fort Bend County,TX,NA,NA,NA,38.489208633093526
77498,Fort Bend County,TX,NA,NA,NA,82.73381294964028
77506,Harris County,TX,NA,NA,72.96222664015905,NA
77521,Harris County,TX,28.57142857142857,NA,NA,NA
77530,Harris County,TX,NA,NA,86.67992047713717,NA
77550,Galveston County,TX,NA,23.283582089552237,NA,NA
77551,Galveston County,TX,NA,NA,28.82703777335984,NA
77713,Jefferson County,TX,NA,82.23880597014926,NA,NA
77845,Brazos County,TX,NA,13.582089552238804,6.163021868787276,2.158273381294964
77904,Victoria County,TX,44.099378881987576,NA,NA,NA
78045,Webb County,TX,NA,NA,36.779324055666,NA
78108,Guadalupe County,TX,NA,77.46268656716417,NA,NA
78203,Bexar County,TX,NA,96.71641791044776,NA,NA
78207,Bexar County,TX,NA,25.37313432835821,NA,26.978417266187048
78228,Bexar County,TX,4.658385093167702,NA,NA,NA
78250,Bexar County,TX,18.633540372670808,NA,NA,NA
78261,Bexar County,TX,NA,92.6865671641791,NA,NA
78332,Jim Wells County,TX,NA,NA,NA,56.83453237410072
78363,Kleberg County,TX,63.66459627329193,NA,62.62425447316103,NA
78501,Hidalgo County,TX,NA,56.11940298507463,NA,NA
78559,Cameron County,TX,89.75155279503106,NA,85.08946322067594,NA
78612,Bastrop County,TX,86.33540372670807,NA,NA,NA
78617,Travis County,TX,80.74534161490683,NA,NA,NA
78629,Gonzales County,TX,74.84472049689441,NA,NA,NA
78633,Williamson County,TX,NA,NA,1.9880715705765408,NA
78641,Williamson County,TX,NA,NA,NA,35.97122302158273
78645,Travis County,TX,NA,NA,89.86083499005964,NA
78660,Travis County,TX,24.84472049689441,NA,NA,NA
78704,Travis County,TX,NA,NA,78.33001988071571,NA
78751,Travis County,TX,NA,97.91044776119404,NA,NA
79423,Lubbock County,TX,38.50931677018634,NA,NA,NA
79701,Midland County,TX,39.75155279503105,NA,NA,NA
79756,Ward County,TX,NA,77.16417910447761,NA,NA
79764,Ector County,TX,NA,61.791044776119406,NA,NA
79902,El Paso County,TX,NA,NA,82.7037773359841,NA
79915,El Paso County,TX,NA,59.55223880597015,NA,NA
79924,El Paso County,TX,18.32298136645963,NA,NA,NA
84044,Salt Lake County,UT,NA,93.5820895522388,NA,NA
84047,Salt Lake County,UT,NA,31.343283582089555,NA,NA
84050,Morgan County,UT,NA,NA,90.05964214711729,NA
84062,Utah County,UT,NA,NA,NA,91.00719424460432
84075,Davis County,UT,59.93788819875776,NA,NA,NA
84081,Salt Lake County,UT,22.049689440993788,NA,NA,NA
84095,Salt Lake County,UT,NA,47.462686567164184,NA,NA
84096,Salt Lake County,UT,NA,NA,87.27634194831015,NA
84102,Salt Lake County,UT,NA,83.43283582089552,NA,NA
84104,Salt Lake County,UT,NA,NA,91.05367793240556,NA
84107,Salt Lake County,UT,NA,NA,NA,33.81294964028777
84108,Salt Lake County,UT,NA,NA,83.30019880715706,NA
84109,Salt Lake County,UT,NA,NA,54.87077534791253,NA
84111,Salt Lake County,UT,NA,78.50746268656717,NA,NA
84120,Salt Lake County,UT,NA,10.746268656716417,NA,NA
84321,Cache County,UT,NA,90.74626865671642,NA,NA
84401,Weber County,UT,NA,78.35820895522389,NA,NA
84651,Utah County,UT,NA,NA,78.13121272365805,NA
84770,Washington County,UT,NA,NA,NA,8.633093525179856
05001,Windsor County,VT,NA,87.91044776119404,NA,NA
05401,Chittenden County,VT,NA,NA,NA,51.07913669064749
05495,Chittenden County,VT,NA,NA,66.40159045725646,NA
05602,Washington County,VT,NA,NA,NA,51.798561151079134
05641,Washington County,VT,NA,NA,NA,17.985611510791365
20155,Prince William County,VA,NA,67.01492537313433,NA,NA
20176,Loudoun County,VA,NA,80.8955223880597,NA,NA
22180,Fairfax County,VA,67.70186335403726,NA,NA,NA
22191,Prince William County,VA,8.385093167701864,NA,NA,NA
22193,Prince William County,VA,11.180124223602485,NA,NA,NA
22207,Arlington County,VA,51.24223602484472,NA,NA,NA
22508,Orange County,VA,NA,NA,NA,76.97841726618705
22553,Spotsylvania County,VA,87.5776397515528,NA,NA,NA
22835,Page County,VA,NA,66.4179104477612,NA,NA
22901,Albemarle County,VA,NA,NA,29.82107355864811,NA
22903,Charlottesville city,VA,NA,68.95522388059702,NA,NA
23112,Chesterfield County,VA,NA,50.59701492537313,NA,NA
23139,Powhatan County,VA,NA,NA,50.29821073558648,NA
23181,King William County,VA,NA,NA,NA,93.16546762589928
23222,Richmond city,VA,NA,21.791044776119403,NA,NA
23229,Henrico County,VA,NA,NA,45.32803180914513,NA
23234,Chesterfield County,VA,NA,NA,35.785288270377734,NA
23238,Henrico County,VA,NA,NA,63.817097415506964,NA
23322,Chesapeake city,VA,NA,83.73134328358209,NA,NA
23435,Suffolk city,VA,NA,NA,NA,52.87769784172662
23456,Virginia Beach city,VA,NA,64.02985074626866,10.934393638170974,NA
23508,Norfolk city,VA,NA,NA,NA,68.70503597122301
23518,Norfolk city,VA,NA,NA,32.40556660039761,NA
23661,Hampton city,VA,NA,NA,64.81113320079523,NA
23666,Hampton city,VA,NA,NA,12.326043737574553,NA
23703,Portsmouth city,VA,NA,NA,NA,38.84892086330935
23831,Chesterfield County,VA,NA,44.47761194029851,NA,NA
23838,Chesterfield County,VA,NA,NA,NA,96.76258992805755
24019,Roanoke County,VA,NA,NA,NA,46.402877697841724
24091,Floyd County,VA,NA,NA,92.04771371769384,NA
24153,Salem city,VA,NA,NA,21.47117296222664,NA
24228,Dickenson County,VA,NA,73.43283582089552,NA,NA
24271,Scott County,VA,NA,100,NA,NA
24401,Staunton city,VA,NA,15.223880597014924,NA,NA
24421,Augusta County,VA,NA,NA,86.08349900596421,NA
24477,Augusta County,VA,NA,NA,NA,61.87050359712231
24531,Pittsylvania County,VA,NA,NA,95.02982107355865,NA
98003,King County,WA,NA,34.32835820895522,NA,NA
98011,King County,WA,77.01863354037268,NA,NA,NA
98022,King County,WA,71.73913043478261,NA,NA,NA
98030,King County,WA,45.962732919254655,NA,NA,NA
98031,King County,WA,NA,NA,NA,76.2589928057554
98043,Snohomish County,WA,83.22981366459628,NA,NA,NA
98052,King County,WA,59.3167701863354,NA,23.856858846918488,NA
98056,King County,WA,NA,61.64179104477612,NA,NA
98058,King County,WA,NA,NA,24.85089463220676,NA
98065,King County,WA,NA,86.56716417910447,NA,NA
98074,King County,WA,NA,NA,70.77534791252485,NA
98092,King County,WA,19.25465838509317,NA,NA,NA
98103,King County,WA,NA,NA,43.538767395626245,NA
98104,King County,WA,NA,55.07462686567164,NA,NA
98115,King County,WA,NA,NA,NA,32.73381294964029
98122,King County,WA,NA,NA,NA,80.57553956834532
98178,King County,WA,NA,NA,71.37176938369781,NA
98198,King County,WA,NA,49.701492537313435,NA,NA
98204,Snohomish County,WA,NA,30.597014925373134,NA,NA
98257,Skagit County,WA,NA,NA,88.27037773359841,NA
98258,Snohomish County,WA,18.944099378881987,NA,NA,NA
98261,San Juan County,WA,NA,NA,97.01789264413519,NA
98273,Skagit County,WA,NA,NA,17.693836978131213,79.49640287769785
98282,Island County,WA,NA,NA,42.74353876739563,NA
98284,Skagit County,WA,NA,NA,27.435387673956264,NA
98290,Snohomish County,WA,NA,77.76119402985074,NA,NA
98362,Clallam County,WA,NA,NA,9.343936381709742,NA
98370,Kitsap County,WA,NA,NA,NA,55.39568345323741
98391,Pierce County,WA,NA,18.955223880597014,NA,NA
98499,Pierce County,WA,NA,52.38805970149254,NA,NA
98520,Grays Harbor County,WA,NA,NA,NA,93.88489208633094
98531,Lewis County,WA,NA,77.91044776119404,NA,NA
98604,Clark County,WA,NA,71.7910447761194,NA,NA
98626,Cowlitz County,WA,NA,52.08955223880597,NA,NA
98661,Clark County,WA,40.993788819875775,NA,NA,NA
98686,Clark County,WA,NA,NA,87.47514910536779,NA
98801,Chelan County,WA,NA,NA,8.34990059642147,6.474820143884892
98901,Yakima County,WA,NA,NA,NA,75.17985611510791
99336,Benton County,WA,NA,NA,2.584493041749503,NA
99344,Adams County,WA,91.92546583850931,NA,NA,NA
99352,Benton County,WA,NA,48.95522388059702,NA,NA
99353,Benton County,WA,50,NA,NA,NA
99362,Walla Walla County,WA,NA,NA,NA,11.510791366906476
20001,District of Columbia,DC,31.05590062111801,NA,NA,NA
20002,District of Columbia,DC,NA,30,NA,NA
20003,District of Columbia,DC,66.14906832298136,NA,NA,NA
20018,District of Columbia,DC,NA,50.44776119402985,NA,NA
20032,District of Columbia,DC,NA,7.164179104477612,NA,NA
24701,Mercer County,WV,80.43478260869566,NA,NA,NA
25405,Berkeley County,WV,91.30434782608695,NA,NA,NA
25704,Wayne County,WV,NA,34.47761194029851,NA,49.64028776978417
25813,Raleigh County,WV,NA,NA,NA,91.72661870503596
25880,Raleigh County,WV,NA,NA,83.49900596421472,NA
25918,Raleigh County,WV,98.4472049689441,NA,NA,NA
26241,Randolph County,WV,NA,NA,NA,35.25179856115108
26253,Randolph County,WV,NA,98.35820895522389,NA,NA
26301,Harrison County,WV,NA,NA,NA,25.899280575539567
26726,Mineral County,WV,NA,49.850746268656714,NA,NA
53024,Ozaukee County,WI,59.62732919254658,NA,NA,NA
53072,Waukesha County,WI,NA,NA,45.12922465208747,NA
53121,Walworth County,WI,NA,52.537313432835816,NA,NA
53143,Kenosha County,WI,NA,NA,31.411530815109344,NA
53205,Milwaukee County,WI,NA,2.3880597014925375,NA,NA
53209,Milwaukee County,WI,2.7950310559006213,NA,NA,NA
53210,Milwaukee County,WI,14.285714285714285,NA,NA,NA
53226,Milwaukee County,WI,NA,NA,NA,44.60431654676259
53235,Milwaukee County,WI,NA,NA,NA,89.20863309352518
53402,Racine County,WI,NA,7.91044776119403,NA,NA
53403,Racine County,WI,NA,39.1044776119403,NA,NA
53405,Racine County,WI,NA,8.059701492537313,NA,NA
53532,Dane County,WI,NA,NA,87.8727634194831,NA
53546,Rock County,WI,NA,22.238805970149254,NA,NA
53549,Jefferson County,WI,NA,78.05970149253731,NA,NA
53597,Dane County,WI,NA,65.07462686567163,NA,57.194244604316545
53705,Dane County,WI,NA,NA,NA,15.107913669064748
53717,Dane County,WI,NA,89.55223880597015,NA,NA
53719,Dane County,WI,NA,NA,NA,82.73381294964028
53913,Sauk County,WI,NA,45.37313432835821,20.278330019880716,NA
53959,Sauk County,WI,54.6583850931677,NA,NA,NA
54220,Manitowoc County,WI,10.559006211180124,NA,NA,NA
54235,Door County,WI,NA,NA,NA,24.46043165467626
54241,Manitowoc County,WI,NA,NA,39.562624254473164,NA
54313,Brown County,WI,NA,NA,71.17296222664015,NA
54636,La Crosse County,WI,NA,NA,NA,54.31654676258992
54660,Monroe County,WI,NA,NA,NA,84.89208633093526
54751,Dunn County,WI,NA,40.59701492537313,NA,NA
54843,Sawyer County,WI,NA,86.41791044776119,NA,NA
54880,Douglas County,WI,NA,NA,5.36779324055666,NA
54937,Fond du Lac County,WI,NA,51.7910447761194,NA,NA
54940,Waupaca County,WI,NA,NA,98.60834990059642,NA
54981,Waupaca County,WI,NA,69.55223880597015,NA,NA
54986,Winnebago County,WI,NA,NA,87.67395626242545,NA
82443,Hot Springs County,WY,NA,99.55223880597015,NA,89.568345323741
