ZipCode,county,state,Adult,Retirement,Geriatric
35020,Jefferson County,AL,NA,36.708860759493675,NA
35094,Jefferson County,AL,NA,NA,75.14124293785311
35215,Jefferson County,AL,NA,NA,37.85310734463277
35223,Jefferson County,AL,NA,NA,74.57627118644068
35473,Tuscaloosa County,AL,63.42042755344418,NA,NA
35476,Tuscaloosa County,AL,NA,86.49789029535864,NA
35633,Lauderdale County,AL,63.18289786223278,NA,NA
35661,Colbert County,AL,72.68408551068883,NA,NA
35801,Madison County,AL,NA,NA,43.50282485875706
36027,Barbour County,AL,44.89311163895487,NA,NA
36330,Coffee County,AL,52.49406175771971,NA,NA
36340,Geneva County,AL,95.96199524940617,NA,NA
36541,Mobile County,AL,83.3729216152019,NA,NA
99501,Anchorage Municipality,AK,NA,NA,84.7457627118644
85020,Maricopa County,AZ,NA,NA,49.717514124293785
85027,Maricopa County,AZ,NA,NA,71.1864406779661
85044,Maricopa County,AZ,23.75296912114014,NA,NA
85234,Maricopa County,AZ,37.29216152019003,NA,NA
85249,Maricopa County,AZ,NA,NA,85.31073446327684
85255,Maricopa County,AZ,NA,53.58649789029536,NA
85295,Maricopa County,AZ,44.180522565320665,NA,NA
85302,Maricopa County,AZ,NA,30.801687763713083,NA
85345,Maricopa County,AZ,NA,NA,37.28813559322034
85353,Maricopa County,AZ,72.92161520190024,NA,NA
85374,Maricopa County,AZ,NA,20.675105485232066,NA
85713,Pima County,AZ,9.263657957244655,NA,NA
86303,Yavapai County,AZ,NA,54.008438818565395,NA
86315,Yavapai County,AZ,NA,NA,96.045197740113
72396,Cross County,AR,89.78622327790974,NA,NA
72653,Baxter County,AR,49.16864608076009,NA,NA
90001,Los Angeles County,CA,53.44418052256532,NA,NA
90015,Los Angeles County,CA,NA,81.85654008438819,NA
90016,Los Angeles County,CA,NA,24.050632911392405,NA
90042,Los Angeles County,CA,60.33254156769596,NA,NA
90045,Los Angeles County,CA,NA,NA,45.19774011299435
90047,Los Angeles County,CA,20.665083135391924,NA,NA
90057,Los Angeles County,CA,NA,27.42616033755274,NA
90066,Los Angeles County,CA,NA,NA,30.508474576271187
90077,Los Angeles County,CA,NA,NA,75.70621468926554
90255,Los Angeles County,CA,NA,69.62025316455697,NA
90630,Orange County,CA,NA,21.940928270042196,NA
90631,Orange County,CA,39.19239904988123,NA,NA
90660,Los Angeles County,CA,33.0166270783848,NA,NA
90706,Los Angeles County,CA,30.16627078384798,NA,NA
90740,Orange County,CA,75.77197149643705,NA,23.163841807909606
91011,Los Angeles County,CA,NA,83.96624472573839,NA
91106,Los Angeles County,CA,NA,85.65400843881856,NA
91302,Los Angeles County,CA,85.98574821852732,NA,64.40677966101694
91331,Los Angeles County,CA,16.864608076009503,NA,NA
91342,Los Angeles County,CA,59.38242280285036,NA,NA
91730,San Bernardino County,CA,24.46555819477435,NA,NA
91791,Los Angeles County,CA,NA,NA,56.49717514124294
92019,San Diego County,CA,52.96912114014252,NA,NA
92104,San Diego County,CA,32.304038004750595,NA,NA
92115,San Diego County,CA,NA,NA,40.67796610169492
92117,San Diego County,CA,66.0332541567696,NA,NA
92129,San Diego County,CA,NA,NA,52.54237288135594
92201,Riverside County,CA,29.216152019002372,18.9873417721519,NA
92210,Riverside County,CA,NA,97.46835443037975,NA
92240,Riverside County,CA,27.55344418052256,NA,NA
92260,Riverside County,CA,NA,15.611814345991561,NA
92270,Riverside County,CA,NA,47.257383966244724,NA
92283,Imperial County,CA,NA,100,NA
92325,San Bernardino County,CA,NA,87.34177215189874,NA
92411,San Bernardino County,CA,NA,51.0548523206751,NA
92562,Riverside County,CA,NA,41.35021097046413,NA
92618,Orange County,CA,NA,90.71729957805907,NA
92630,Orange County,CA,NA,62.447257383966246,NA
92656,Orange County,CA,NA,58.22784810126582,NA
92703,Orange County,CA,44.418052256532064,NA,NA
92801,Orange County,CA,NA,40.50632911392405,NA
92831,Orange County,CA,59.61995249406176,NA,NA
93003,Ventura County,CA,NA,NA,15.254237288135593
93041,Ventura County,CA,71.97149643705463,NA,NA
93111,Santa Barbara County,CA,NA,NA,67.2316384180791
93274,Tulare County,CA,8.31353919239905,NA,NA
93307,Kern County,CA,18.76484560570071,NA,NA
93638,Madera County,CA,22.802850356294538,NA,NA
93654,Fresno County,CA,NA,79.32489451476793,NA
94117,San Francisco County,CA,41.09263657957244,NA,NA
94513,Contra Costa County,CA,38.71733966745843,NA,NA
94526,Contra Costa County,CA,NA,82.70042194092827,NA
94563,Contra Costa County,CA,96.91211401425178,NA,NA
94596,Contra Costa County,CA,87.88598574821853,NA,NA
94806,Contra Costa County,CA,NA,NA,20.903954802259886
94920,Marin County,CA,92.39904988123516,NA,NA
94952,Sonoma County,CA,80.04750593824228,NA,NA
95220,San Joaquin County,CA,NA,95.35864978902954,NA
95320,San Joaquin County,CA,NA,89.87341772151899,NA
95350,Stanislaus County,CA,22.565320665083135,NA,NA
95351,Stanislaus County,CA,27.078384798099762,NA,NA
95355,Stanislaus County,CA,13.064133016627078,NA,NA
95358,Stanislaus County,CA,82.6603325415677,NA,NA
95476,Sonoma County,CA,NA,NA,24.858757062146893
95603,Placer County,CA,NA,81.0126582278481,NA
95630,Sacramento County,CA,NA,NA,23.728813559322035
95816,Sacramento County,CA,60.09501187648456,NA,NA
95831,Sacramento County,CA,NA,60.75949367088608,NA
96002,Shasta County,CA,NA,NA,45.76271186440678
80016,Arapahoe County,CO,28.50356294536817,NA,NA
80122,Arapahoe County,CO,61.282660332541575,NA,NA
80124,Douglas County,CO,NA,86.07594936708861,NA
80214,Jefferson County,CO,47.74346793349169,NA,NA
80401,Jefferson County,CO,NA,60.337552742616026,NA
80504,Boulder County,CO,36.342042755344416,NA,NA
80525,Larimer County,CO,19.95249406175772,NA,NA
80526,Larimer County,CO,41.80522565320665,NA,NA
80631,Weld County,CO,12.826603325415679,NA,NA
80816,Teller County,CO,95.24940617577197,NA,NA
80863,Teller County,CO,NA,NA,94.91525423728814
80909,El Paso County,CO,29.69121140142518,NA,NA
80910,El Paso County,CO,29.928741092636578,NA,NA
81005,Pueblo County,CO,42.042755344418055,NA,NA
81212,Fremont County,CO,45.843230403800476,NA,NA
81647,Garfield County,CO,97.14964370546319,NA,NA
06010,Hartford County,CT,2.6128266033254155,NA,NA
06084,Tolland County,CT,80.76009501187649,NA,NA
06238,Tolland County,CT,76.24703087885986,NA,NA
06450,New Haven County,CT,7.1258907363420425,NA,NA
06614,Fairfield County,CT,NA,NA,27.683615819209038
06790,Litchfield County,CT,7.8384798099762465,NA,NA
06831,Fairfield County,CT,NA,72.9957805907173,NA
06840,Fairfield County,CT,93.58669833729216,NA,NA
06902,Fairfield County,CT,26.840855106888363,NA,NA
19802,New Castle County,DE,19.239904988123516,NA,NA
19904,Kent County,DE,NA,17.72151898734177,NA
19952,Kent County,DE,85.98574821852732,NA,NA
19963,Sussex County,DE,NA,44.72573839662447,NA
19973,Sussex County,DE,20.42755344418052,NA,NA
32052,Hamilton County,FL,NA,NA,89.26553672316385
32064,Suwannee County,FL,NA,NA,82.485875706214685
32068,Clay County,FL,17.102137767220903,NA,NA
32081,St. Johns County,FL,96.43705463182897,NA,NA
32084,St. Johns County,FL,34.441805225653205,NA,NA
32096,Hamilton County,FL,100,NA,NA
32210,Duval County,FL,NA,NA,42.93785310734463
32220,Duval County,FL,NA,91.9831223628692,NA
32503,Escambia County,FL,NA,NA,19.2090395480226
32565,Santa Rosa County,FL,NA,89.0295358649789,NA
32666,Putnam County,FL,NA,90.29535864978902,NA
32778,Lake County,FL,NA,32.06751054852321,NA
32779,Seminole County,FL,NA,NA,41.24293785310734
32837,Orange County,FL,25.890736342042754,NA,NA
32927,Brevard County,FL,60.80760095011877,NA,NA
32963,Indian River County,FL,NA,NA,17.51412429378531
32967,Indian River County,FL,54.156769596199524,NA,NA
33035,Miami-Dade County,FL,94.06175771971496,NA,NA
33141,Miami-Dade County,FL,67.6959619952494,NA,NA
33311,Broward County,FL,9.73871733966746,NA,NA
33321,Broward County,FL,NA,29.957805907172997,NA
33328,Broward County,FL,NA,81.43459915611815,NA
33351,Broward County,FL,NA,NA,83.05084745762711
33407,Palm Beach County,FL,NA,NA,63.84180790960452
33412,Palm Beach County,FL,NA,83.12236286919831,NA
33432,Palm Beach County,FL,NA,56.9620253164557,NA
33449,Palm Beach County,FL,NA,NA,80.7909604519774
33458,Palm Beach County,FL,NA,NA,31.07344632768362
33612,Hillsborough County,FL,NA,74.26160337552743,NA
33619,Hillsborough County,FL,39.42992874109264,NA,NA
33624,Hillsborough County,FL,NA,56.540084388185655,NA
33755,Pinellas County,FL,49.6437054631829,NA,NA
33853,Polk County,FL,NA,82.27848101265823,NA
33993,Lee County,FL,56.294536817102134,NA,NA
34110,Collier County,FL,NA,61.60337552742617,NA
34134,Lee County,FL,98.33729216152018,NA,NA
34209,Manatee County,FL,NA,NA,22.033898305084744
34231,Sarasota County,FL,NA,19.40928270042194,NA
34233,Sarasota County,FL,NA,57.383966244725734,NA
34461,Citrus County,FL,NA,NA,85.87570621468926
34744,Osceola County,FL,NA,NA,81.92090395480226
34986,St. Lucie County,FL,81.47268408551069,NA,NA
30004,Fulton County,GA,47.980997624703086,NA,NA
30012,Rockdale County,GA,61.520190023752974,NA,NA
30022,Fulton County,GA,NA,56.118143459915615,NA
30028,Forsyth County,GA,NA,NA,80.22598870056498
30044,Gwinnett County,GA,NA,NA,47.45762711864407
30083,DeKalb County,GA,NA,39.24050632911392,NA
30110,Haralson County,GA,NA,95.78059071729957,60.451977401129945
30114,Cherokee County,GA,NA,NA,38.983050847457626
30117,Carroll County,GA,NA,39.66244725738397,NA
30132,Paulding County,GA,NA,46.41350210970464,NA
30144,Cobb County,GA,40.142517814726844,NA,NA
30188,Cherokee County,GA,28.028503562945367,NA,NA
30217,Heard County,GA,NA,89.45147679324894,NA
30306,Fulton County,GA,92.16152019002375,NA,NA
30307,DeKalb County,GA,93.82422802850357,NA,NA
30529,Jackson County,GA,84.32304038004752,NA,NA
30534,Dawson County,GA,48.45605700712589,NA,65.5367231638418
30542,Hall County,GA,NA,50.210970464135016,NA
30655,Walton County,GA,40.380047505938244,NA,NA
30809,Columbia County,GA,NA,72.15189873417721,NA
30813,Columbia County,GA,NA,49.36708860759494,NA
30828,Warren County,GA,NA,94.09282700421942,NA
30909,Richmond County,GA,NA,NA,62.14689265536724
31401,Chatham County,GA,NA,94.51476793248945,NA
31415,Chatham County,GA,NA,96.62447257383965,NA
31503,Ware County,GA,NA,54.85232067510548,NA
31543,Brantley County,GA,NA,99.57805907172997,NA
39817,Decatur County,GA,71.73396674584322,NA,NA
96815,Honolulu County,HI,55.819477434679335,NA,NA
96816,Honolulu County,HI,96.19952494061758,NA,NA
96822,Honolulu County,HI,NA,NA,12.429378531073446
83333,Blaine County,ID,NA,88.60759493670885,NA
83402,Bonneville County,ID,58.90736342042755,NA,NA
83647,Elmore County,ID,NA,59.07172995780591,NA
83661,Payette County,ID,88.83610451306413,NA,NA
83815,Kootenai County,ID,40.61757719714964,NA,NA
60007,Cook County,IL,NA,NA,26.55367231638418
60010,Lake County,IL,NA,16.033755274261605,NA
60047,Lake County,IL,42.280285035629454,NA,NA
60056,Cook County,IL,NA,NA,8.47457627118644
60062,Cook County,IL,NA,NA,0.5649717514124294
60067,Cook County,IL,NA,NA,14.124293785310735
60089,Lake County,IL,45.36817102137768,NA,NA
60160,Cook County,IL,NA,NA,48.58757062146893
60410,Will County,IL,55.34441805225653,NA,NA
60462,Cook County,IL,NA,6.329113924050633,NA
60487,Cook County,IL,64.13301662707839,NA,NA
60491,Will County,IL,40.85510688836104,NA,NA
60527,DuPage County,IL,57.482185273159146,NA,NA
60544,Will County,IL,NA,28.691983122362867,NA
60565,DuPage County,IL,35.39192399049881,NA,NA
60628,Cook County,IL,NA,NA,22.598870056497177
60640,Cook County,IL,NA,NA,10.734463276836157
60641,Cook County,IL,NA,18.143459915611814,NA
60657,Cook County,IL,26.365795724465556,NA,NA
61021,Lee County,IL,36.342042755344416,NA,NA
61071,Whiteside County,IL,66.9833729216152,NA,NA
61081,Whiteside County,IL,35.15439429928741,NA,4.519774011299435
61201,Rock Island County,IL,NA,37.552742616033754,NA
61265,Rock Island County,IL,53.20665083135392,NA,NA
61341,LaSalle County,IL,87.64845605700712,NA,NA
61603,Peoria County,IL,NA,77.63713080168776,NA
61822,Champaign County,IL,NA,NA,21.468926553672315
61832,Vermilion County,IL,41.33016627078385,NA,NA
62002,Madison County,IL,NA,NA,14.689265536723164
62025,Madison County,IL,NA,52.320675105485236,NA
62249,Madison County,IL,NA,91.13924050632912,NA
62260,St. Clair County,IL,NA,NA,88.70056497175142
62521,Macon County,IL,17.577197149643705,NA,NA
62526,Macon County,IL,NA,NA,7.344632768361582
62557,Christian County,IL,88.59857482185272,NA,NA
46268,Marion County,IN,NA,NA,34.463276836158194
46304,Porter County,IN,NA,19.831223628691983,NA
46324,Lake County,IN,21.140142517814727,NA,NA
46368,Porter County,IN,3.800475059382423,NA,NA
46392,Jasper County,IN,75.05938242280284,NA,NA
46403,Lake County,IN,75.29691211401425,NA,NA
46405,Lake County,IN,46.55581947743468,NA,NA
46530,St. Joseph County,IN,83.1353919239905,NA,NA
46725,Whitley County,IN,NA,NA,35.02824858757062
46818,Allen County,IN,NA,NA,74.01129943502825
46923,Carroll County,IN,85.5106888361045,NA,NA
46953,Grant County,IN,NA,NA,16.38418079096045
47240,Decatur County,IN,38.00475059382423,NA,NA
47424,Greene County,IN,97.38717339667458,NA,NA
47454,Orange County,IN,NA,NA,83.61581920903954
47842,Vermillion County,IN,NA,73.41772151898735,NA
47882,Sullivan County,IN,NA,80.16877637130801,NA
47960,White County,IN,74.10926365795724,NA,NA
50613,Black Hawk County,IA,NA,13.080168776371309,NA
50701,Black Hawk County,IA,NA,NA,16.94915254237288
51503,Pottawattamie County,IA,NA,3.375527426160337,NA
51555,Harrison County,IA,94.29928741092637,NA,NA
52404,Linn County,IA,13.30166270783848,NA,NA
52501,Wapello County,IA,19.002375296912113,NA,NA
52544,Appanoose County,IA,48.218527315914486,NA,NA
52601,Des Moines County,IA,NA,NA,50.847457627118644
66102,Wyandotte County,KS,NA,51.89873417721519,NA
67502,Reno County,KS,NA,66.24472573839662,NA
40165,Bullitt County,KY,NA,18.565400843881857,NA
40207,Jefferson County,KY,77.19714964370546,NA,NA
40216,Jefferson County,KY,NA,12.236286919831224,NA
40220,Jefferson County,KY,43.23040380047506,NA,NA
40324,Scott County,KY,18.52731591448931,NA,NA
40391,Clark County,KY,NA,12.658227848101266,NA
40823,Harlan County,KY,NA,NA,97.17514124293785
40965,Bell County,KY,32.066508313539195,NA,NA
41301,Wolfe County,KY,NA,87.76371308016878,NA
41701,Perry County,KY,36.104513064133016,NA,NA
42134,Simpson County,KY,58.432304038004744,NA,NA
42240,Christian County,KY,9.026128266033254,NA,NA
42728,Adair County,KY,NA,78.90295358649789,NA
70001,Jefferson Parish,LA,6.175771971496437,NA,NA
70003,Jefferson Parish,LA,12.114014251781473,NA,NA
70053,Jefferson Parish,LA,NA,67.08860759493672,NA
70068,St. John the Baptist Parish,LA,14.251781472684085,NA,NA
70119,Orleans Parish,LA,NA,8.438818565400844,NA
70125,Orleans Parish,LA,NA,NA,86.4406779661017
70448,St. Tammany Parish,LA,NA,35.0210970464135,NA
70578,Acadia Parish,LA,27.315914489311165,NA,NA
70601,Calcasieu Parish,LA,2.375296912114014,NA,NA
70754,Livingston Parish,LA,65.55819477434679,NA,NA
70802,East Baton Rouge Parish,LA,NA,50.63291139240506,NA
71037,Bossier Parish,LA,21.852731591448933,NA,NA
71106,Caddo Parish,LA,NA,13.924050632911392,NA
71107,Caddo Parish,LA,4.513064133016627,NA,NA
71111,Bossier Parish,LA,6.65083135391924,NA,NA
71118,Caddo Parish,LA,NA,NA,18.64406779661017
71269,Richland Parish,LA,51.306413301662715,NA,NA
71322,Avoyelles Parish,LA,NA,94.9367088607595,NA
04005,York County,ME,NA,5.063291139240507,NA
04021,Cumberland County,ME,94.77434679334917,NA,NA
04092,Cumberland County,ME,76.95961995249407,NA,NA
04350,Kennebec County,ME,95.72446555819477,NA,NA
04401,Penobscot County,ME,NA,NA,2.2598870056497176
20852,Montgomery County,MD,NA,68.35443037974683,NA
20854,Montgomery County,MD,NA,41.77215189873418,NA
21078,Harford County,MD,NA,NA,68.36158192090396
21093,Baltimore County,MD,NA,NA,10.16949152542373
21157,Carroll County,MD,56.53206650831354,NA,NA
21204,Baltimore County,MD,NA,NA,57.6271186440678
21215,Baltimore city,MD,11.163895486935866,NA,NA
21221,Baltimore County,MD,24.228028503562946,NA,NA
21228,Baltimore County,MD,57.24465558194775,NA,NA
21236,Baltimore County,MD,87.41092636579573,NA,NA
21286,Baltimore County,MD,NA,NA,48.0225988700565
21403,Anne Arundel County,MD,70.54631828978623,NA,NA
21550,Garrett County,MD,77.67220902612827,NA,NA
01036,Hampden County,MA,NA,NA,89.83050847457628
01077,Hampden County,MA,76.00950118764845,NA,NA
01108,Hampden County,MA,2.137767220902613,NA,NA
01201,Berkshire County,MA,0.23752969121140144,NA,NA
01247,Berkshire County,MA,NA,11.39240506329114,NA
01301,Franklin County,MA,NA,NA,51.41242937853108
01432,Middlesex County,MA,NA,NA,90.3954802259887
01524,Worcester County,MA,78.14726840855107,NA,NA
01550,Worcester County,MA,NA,25.31645569620253,NA
01702,Middlesex County,MA,NA,NA,6.779661016949152
01730,Middlesex County,MA,36.81710213776722,NA,NA
01748,Middlesex County,MA,NA,NA,59.887005649717516
01760,Middlesex County,MA,14.964370546318289,NA,NA
01824,Middlesex County,MA,13.539192399049881,NA,NA
01906,Essex County,MA,4.038004750593824,NA,NA
01949,Essex County,MA,54.39429928741093,NA,NA
01960,Essex County,MA,0.9501187648456058,NA,NA
02038,Norfolk County,MA,NA,16.877637130801688,NA
02114,Suffolk County,MA,NA,NA,77.96610169491525
02130,Suffolk County,MA,1.9002375296912115,NA,NA
02136,Suffolk County,MA,NA,4.641350210970464,NA
02139,Middlesex County,MA,0.4750593824228029,NA,NA
02148,Middlesex County,MA,0,2.109704641350211,NA
02155,Middlesex County,MA,1.4251781472684086,NA,NA
02169,Norfolk County,MA,NA,0,1.694915254237288
02645,Barnstable County,MA,73.15914489311164,NA,NA
02703,Bristol County,MA,1.187648456057007,NA,NA
02724,Bristol County,MA,5.463182897862233,NA,NA
48021,Macomb County,MI,15.201900237529692,NA,NA
48044,Macomb County,MI,11.63895486935867,NA,NA
48059,St. Clair County,MI,NA,55.27426160337553,NA
48081,Macomb County,MI,NA,27.848101265822784,NA
48103,Washtenaw County,MI,19.47743467933492,NA,NA
48141,Wayne County,MI,12.589073634204276,NA,NA
48152,Wayne County,MI,37.29216152019003,NA,NA
48165,Oakland County,MI,82.42280285035629,NA,NA
48185,Wayne County,MI,6.88836104513064,NA,NA
48204,Wayne County,MI,14.489311163895488,NA,NA
48215,Wayne County,MI,NA,61.18143459915611,NA
48236,Wayne County,MI,NA,16.455696202531644,NA
48375,Oakland County,MI,NA,62.0253164556962,NA
48428,Lapeer County,MI,91.21140142517815,NA,NA
48446,Lapeer County,MI,NA,67.51054852320675,20.33898305084746
48612,Gladwin County,MI,68.88361045130641,NA,NA
48617,Clare County,MI,NA,70.88607594936708,NA
48624,Gladwin County,MI,43.705463182897866,21.09704641350211,NA
48642,Midland County,MI,NA,8.860759493670885,NA
48726,Tuscola County,MI,89.78622327790974,NA,NA
48838,Montcalm County,MI,35.86698337292161,NA,NA
48842,Ingham County,MI,42.99287410926366,NA,NA
48855,Livingston County,MI,NA,NA,68.92655367231639
48867,Shiawassee County,MI,56.057007125890735,NA,NA
48879,Clinton County,MI,NA,NA,33.33333333333333
48883,Isabella County,MI,74.58432304038006,NA,NA
48906,Ingham County,MI,47.50593824228028,NA,NA
49002,Kalamazoo County,MI,NA,37.130801687763714,NA
49007,Kalamazoo County,MI,44.418052256532064,NA,NA
49017,Calhoun County,MI,70.07125890736341,NA,NA
49022,Berrien County,MI,14.014251781472684,NA,NA
49071,Van Buren County,MI,NA,84.81012658227847,NA
49091,St. Joseph County,MI,50.83135391923991,NA,NA
49203,Jackson County,MI,10.451306413301662,NA,NA
49417,Ottawa County,MI,NA,NA,15.819209039548024
49424,Ottawa County,MI,19.71496437054632,NA,NA
49451,Muskegon County,MI,95.24940617577197,NA,NA
49456,Ottawa County,MI,NA,33.33333333333333,NA
49507,Kent County,MI,NA,25.738396624472575,NA
49635,Benzie County,MI,NA,NA,76.8361581920904
49660,Manistee County,MI,90.97387173396675,NA,NA
49770,Emmet County,MI,68.40855106888361,NA,NA
49938,Gogebic County,MI,NA,59.91561181434599,NA
55128,Washington County,MN,NA,63.29113924050633,NA
55362,Wright County,MN,74.34679334916865,NA,NA
55378,Scott County,MN,63.895486935866984,NA,NA
55420,Hennepin County,MN,NA,63.71308016877637,NA
55744,Itasca County,MN,NA,NA,7.909604519774012
55792,St. Louis County,MN,NA,35.86497890295359,NA
55912,Mower County,MN,NA,NA,1.1299435028248588
56560,Clay County,MN,NA,NA,2.824858757062147
38611,Marshall County,MS,70.30878859857482,NA,NA
38614,Coahoma County,MS,57.71971496437055,NA,NA
38663,Tippah County,MS,NA,NA,63.2768361581921
38671,DeSoto County,MS,38.242280285035626,NA,NA
38701,Washington County,MS,67.93349168646081,NA,NA
39577,Stone County,MS,NA,88.18565400843882,NA
39730,Monroe County,MS,80.76009501187649,NA,NA
63033,St. Louis County,MO,20.902612826603324,NA,NA
63366,St. Charles County,MO,17.339667458432302,NA,NA
63389,Lincoln County,MO,NA,97.8902953586498,NA
64014,Jackson County,MO,25.415676959619955,NA,NA
64024,Clay County,MO,21.61520190023753,NA,NA
64056,Jackson County,MO,31.116389548693586,NA,NA
64075,Jackson County,MO,NA,72.57383966244726,NA
64078,Cass County,MO,NA,84.38818565400844,NA
64089,Clay County,MO,59.14489311163895,NA,NA
64111,Jackson County,MO,31.828978622327792,NA,NA
64113,Jackson County,MO,74.82185273159145,NA,NA
64128,Jackson County,MO,NA,36.28691983122363,NA
64158,Clay County,MO,91.92399049881234,NA,NA
64503,Buchanan County,MO,31.59144893111639,NA,NA
64601,Livingston County,MO,NA,54.43037974683544,NA
64701,Cass County,MO,NA,NA,61.016949152542374
65737,Stone County,MO,NA,68.77637130801688,NA
65803,Greene County,MO,14.726840855106888,NA,NA
65804,Greene County,MO,34.204275534441805,42.616033755274266,NA
59715,Gallatin County,MT,57.00712589073634,NA,NA
59718,Gallatin County,MT,39.90498812351544,NA,NA
68048,Cass County,NE,NA,97.0464135021097,NA
68111,Douglas County,NE,24.70308788598575,NA,NA
68130,Douglas County,NE,NA,77.21518987341773,NA
89142,Clark County,NV,NA,NA,93.22033898305084
89441,Washoe County,NV,84.08551068883611,NA,NA
89502,Washoe County,NV,23.51543942992874,NA,NA
03062,Hillsborough County,NH,NA,10.126582278481013,NA
03110,Hillsborough County,NH,66.5083135391924,NA,NA
03842,Rockingham County,NH,NA,NA,66.66666666666666
07030,Hudson County,NJ,8.788598574821853,NA,NA
07087,Hudson County,NJ,NA,5.485232067510549,NA
07104,Essex County,NJ,NA,3.79746835443038,NA
07111,Essex County,NJ,NA,10.548523206751055,NA
07306,Hudson County,NJ,93.11163895486936,NA,NA
07405,Morris County,NJ,85.74821852731591,NA,NA
07701,Monmouth County,NJ,52.25653206650831,NA,NA
07712,Monmouth County,NJ,4.750593824228028,6.751054852320674,NA
07727,Monmouth County,NJ,82.18527315914488,NA,NA
07871,Sussex County,NJ,64.37054631828978,NA,NA
08016,Burlington County,NJ,5.225653206650831,NA,NA
08043,Camden County,NJ,NA,23.20675105485232,NA
08094,Gloucester County,NJ,NA,52.742616033755276,NA
08204,Cape May County,NJ,60.57007125890736,NA,NA
08251,Cape May County,NJ,NA,NA,81.35593220338984
08690,Mercer County,NJ,48.69358669833729,NA,NA
08854,Middlesex County,NJ,NA,NA,29.37853107344633
87108,Bernalillo County,NM,NA,5.9071729957805905,NA
87110,Bernalillo County,NM,16.6270783847981,NA,NA
87571,Taos County,NM,63.42042755344418,NA,NA
88011,Doa Ana County,NM,NA,NA,28.24858757062147
88101,Curry County,NM,NA,7.172995780590717,NA
88240,Lea County,NM,NA,NA,32.20338983050847
10016,New York County,NY,NA,59.49367088607595,NA
10025,New York County,NY,7.600950118764846,NA,NA
10039,New York County,NY,71.02137767220903,NA,NA
10312,Richmond County,NY,78.38479809976246,NA,NA
10456,Bronx County,NY,3.5629453681710213,NA,NA
10462,Bronx County,NY,NA,NA,9.03954802259887
10541,Putnam County,NY,NA,92.40506329113924,NA
10927,Rockland County,NY,90.49881235154395,NA,NA
10940,Orange County,NY,NA,NA,19.774011299435028
11207,Kings County,NY,0.7125890736342043,NA,NA
11213,Kings County,NY,6.413301662707839,NA,NA
11370,Queens County,NY,NA,71.30801687763713,NA
11510,Nassau County,NY,70.54631828978623,NA,NA
11520,Nassau County,NY,NA,NA,38.4180790960452
12047,Albany County,NY,33.2541567695962,NA,NA
12170,Saratoga County,NY,NA,96.20253164556962,NA
12180,Rensselaer County,NY,62.94536817102138,NA,NA
12522,Dutchess County,NY,NA,NA,100
12771,Orange County,NY,NA,NA,70.05649717514125
13021,Cayuga County,NY,22.090261282660332,NA,NA
13032,Madison County,NY,NA,NA,84.18079096045197
13210,Onondaga County,NY,39.66745843230404,NA,NA
13340,Herkimer County,NY,62.70783847980997,NA,NA
13346,Madison County,NY,73.63420427553444,NA,NA
13424,Oneida County,NY,98.09976247030879,NA,NA
13440,Oneida County,NY,2.8503562945368173,NA,NA
13601,Jefferson County,NY,5.938242280285035,NA,NA
13652,St. Lawrence County,NY,NA,99.15611814345992,NA
13760,Broome County,NY,1.66270783847981,NA,NA
13850,Broome County,NY,20.190023752969122,NA,NA
13865,Broome County,NY,80.52256532066508,NA,NA
14001,Erie County,NY,NA,85.23206751054853,NA
14048,Chautauqua County,NY,41.56769596199525,NA,NA
14108,Niagara County,NY,65.32066508313538,NA,NA
14456,Ontario County,NY,10.21377672209026,NA,NA
14550,Wyoming County,NY,94.53681710213777,NA,NA
14621,Monroe County,NY,NA,1.6877637130801686,NA
14701,Chautauqua County,NY,NA,1.2658227848101267,NA
14760,Cattaraugus County,NY,NA,13.502109704641349,NA
14891,Schuyler County,NY,NA,76.37130801687763,NA
27028,Davie County,NC,NA,9.70464135021097,NA
27106,Forsyth County,NC,18.052256532066508,NA,NA
27358,Guilford County,NC,NA,NA,87.57062146892656
27407,Guilford County,NC,NA,43.459915611814345,NA
27517,Orange County,NC,61.04513064133017,NA,NA
27526,Wake County,NC,NA,22.78481012658228,NA
27607,Wake County,NC,NA,NA,88.13559322033898
27610,Wake County,NC,9.97624703087886,NA,NA
27863,Wayne County,NC,NA,75.10548523206751,NA
28023,Rowan County,NC,NA,NA,72.88135593220339
28031,Mecklenburg County,NC,NA,53.16455696202531,NA
28139,Rutherford County,NC,NA,65.40084388185655,NA
28147,Rowan County,NC,NA,58.64978902953587,NA
28205,Mecklenburg County,NC,NA,31.645569620253166,NA
28210,Mecklenburg County,NC,95.01187648456056,NA,NA
28312,Cumberland County,NC,71.25890736342043,NA,NA
28376,Hoke County,NC,34.91686460807601,NA,NA
28405,New Hanover County,NC,38.95486935866984,NA,NA
28504,Lenoir County,NC,NA,NA,40.11299435028249
28574,Onslow County,NC,90.73634204275535,NA,NA
28645,Caldwell County,NC,5.7007125890736345,NA,NA
28681,Alexander County,NC,NA,NA,54.80225988700565
28711,Buncombe County,NC,NA,NA,70.62146892655367
28734,Macon County,NC,NA,NA,5.084745762711865
43040,Union County,OH,31.353919239904986,NA,NA
43054,Franklin County,OH,NA,NA,67.79661016949152
43078,Champaign County,OH,38.47980997624703,NA,NA
43220,Franklin County,OH,76.48456057007125,NA,NA
43302,Marion County,OH,3.0878859857482186,NA,NA
43537,Lucas County,OH,NA,14.345991561181433,NA
43551,Wood County,OH,18.28978622327791,7.59493670886076,NA
43608,Lucas County,OH,12.351543942992874,NA,NA
43614,Lucas County,OH,15.439429928741092,NA,NA
43616,Lucas County,OH,17.81472684085511,NA,NA
43907,Harrison County,OH,79.09738717339667,NA,NA
44039,Lorain County,OH,10.926365795724466,NA,NA
44044,Lorain County,OH,NA,48.52320675105485,59.32203389830508
44053,Lorain County,OH,10.688836104513063,NA,NA
44060,Lake County,OH,NA,NA,0
44095,Lake County,OH,23.990498812351543,NA,NA
44122,Cuyahoga County,OH,NA,4.219409282700422,NA
44136,Cuyahoga County,OH,NA,NA,13.559322033898304
44138,Cuyahoga County,OH,NA,26.582278481012654,NA
44145,Cuyahoga County,OH,55.10688836104512,NA,NA
44212,Medina County,OH,NA,0.42194092827004215,NA
44221,Summit County,OH,50.1187648456057,NA,NA
44224,Summit County,OH,NA,46.835443037974684,NA
44273,Medina County,OH,90.26128266033254,NA,NA
44319,Summit County,OH,NA,24.894514767932492,NA
44622,Tuscarawas County,OH,37.76722090261283,NA,NA
44663,Tuscarawas County,OH,47.26840855106889,NA,NA
44720,Stark County,OH,33.4916864608076,NA,NA
44833,Crawford County,OH,NA,98.73417721518987,NA
45011,Butler County,OH,NA,24.47257383966245,NA
45036,Warren County,OH,NA,30.37974683544304,NA
45066,Warren County,OH,69.59619952494062,NA,NA
45248,Hamilton County,OH,61.520190023752974,NA,NA
45342,Montgomery County,OH,15.914489311163896,NA,NA
45385,Greene County,OH,16.152019002375297,NA,NA
45424,Montgomery County,OH,15.676959619952493,NA,NA
45440,Montgomery County,OH,NA,NA,55.367231638418076
45503,Clark County,OH,NA,NA,12.994350282485875
45662,Scioto County,OH,4.275534441805226,NA,NA
45680,Lawrence County,OH,NA,NA,36.72316384180791
45801,Allen County,OH,NA,NA,39.548022598870055
45840,Hancock County,OH,86.93586698337292,NA,NA
73013,Oklahoma County,OK,NA,10.970464135021098,NA
73055,Stephens County,OK,NA,NA,76.27118644067797
73064,Canadian County,OK,56.76959619952494,NA,NA
73130,Oklahoma County,OK,68.646080760095,NA,NA
73139,Oklahoma County,OK,61.995249406175766,NA,NA
73507,Comanche County,OK,50.3562945368171,NA,NA
73533,Stephens County,OK,NA,NA,18.07909604519774
74017,Rogers County,OK,78.62232779097387,NA,NA
74055,Tulsa County,OK,NA,NA,36.15819209039548
74075,Payne County,OK,67.93349168646081,NA,NA
74361,Mayes County,OK,NA,70.46413502109705,NA
74601,Kay County,OK,NA,NA,72.88135593220339
74728,McCurtain County,OK,NA,NA,79.66101694915254
74820,Pontotoc County,OK,11.87648456057007,NA,NA
74955,Sequoyah County,OK,66.7458432304038,NA,NA
74959,Le Flore County,OK,83.8479809976247,NA,NA
97051,Columbia County,OR,NA,78.48101265822784,NA
97123,Washington County,OR,24.94061757719715,NA,NA
97124,Washington County,OR,NA,23.628691983122362,NA
97128,Yamhill County,OR,NA,NA,25.98870056497175
97233,Multnomah County,OR,NA,43.037974683544306,NA
97420,Coos County,OR,NA,51.47679324894515,NA
97423,Coos County,OR,NA,79.74683544303798,NA
97477,Lane County,OR,28.741092636579573,NA,NA
97478,Lane County,OR,NA,NA,51.9774011299435
97525,Jackson County,OR,99.5249406175772,NA,NA
97630,Lake County,OR,NA,NA,92.09039548022598
15063,Washington County,PA,NA,75.9493670886076,NA
15228,Allegheny County,PA,84.56057007125891,NA,NA
15401,Fayette County,PA,11.401425178147269,NA,NA
15650,Westmoreland County,PA,50.5938242280285,NA,NA
15851,Jefferson County,PA,77.43467933491686,NA,NA
16125,Mercer County,PA,NA,NA,11.864406779661017
16148,Mercer County,PA,53.681710213776725,NA,NA
16635,Blair County,PA,79.57244655581948,NA,NA
16803,Centre County,PA,NA,66.66666666666666,NA
17036,Dauphin County,PA,64.60807600950119,NA,NA
17055,Cumberland County,PA,NA,NA,9.6045197740113
17557,Lancaster County,PA,NA,NA,50.282485875706215
17566,Lancaster County,PA,88.12351543942994,NA,NA
17745,Clinton County,PA,45.13064133016627,NA,NA
17821,Montour County,PA,30.403800475059384,NA,NA
17847,Northumberland County,PA,71.49643705463184,NA,NA
18612,Luzerne County,PA,NA,NA,35.59322033898305
18640,Luzerne County,PA,48.69358669833729,NA,NA
18847,Susquehanna County,PA,91.68646080760095,NA,NA
18901,Bucks County,PA,NA,28.270042194092827,NA
19040,Montgomery County,PA,81.23515439429929,NA,NA
19050,Delaware County,PA,69.12114014251782,NA,NA
19067,Bucks County,PA,NA,43.88185654008439,NA
19086,Delaware County,PA,NA,76.79324894514767,NA
19103,Philadelphia County,PA,51.06888361045131,NA,NA
19114,Philadelphia County,PA,23.040380047505938,NA,NA
19120,Philadelphia County,PA,4.98812351543943,NA,NA
19132,Philadelphia County,PA,7.363420427553444,NA,NA
19135,Philadelphia County,PA,NA,45.56962025316456,NA
19140,Philadelphia County,PA,3.32541567695962,NA,NA
19142,Philadelphia County,PA,46.79334916864608,NA,NA
19147,Philadelphia County,PA,81.94774346793349,NA,NA
19320,Chester County,PA,NA,11.814345991561181,NA
19382,Chester County,PA,NA,48.10126582278481,NA
19403,Montgomery County,PA,22.327790973871732,NA,NA
19460,Chester County,PA,NA,25.738396624472575,NA
02891,Washington County,RI,65.7957244655582,NA,NA
29036,Lexington County,SC,NA,NA,92.65536723163842
29223,Richland County,SC,NA,31.223628691983123,NA
29229,Richland County,SC,42.75534441805225,NA,NA
29316,Spartanburg County,SC,NA,NA,44.632768361581924
29379,Union County,SC,NA,NA,53.672316384180796
29418,Charleston County,SC,43.942992874109265,NA,NA
29445,Berkeley County,SC,NA,NA,41.80790960451977
29574,Marion County,SC,67.45843230403801,NA,NA
29640,Pickens County,SC,27.790973871733964,NA,NA
29702,Cherokee County,SC,79.80997624703087,NA,NA
29720,Lancaster County,SC,NA,33.755274261603375,NA
29907,Beaufort County,SC,NA,NA,58.19209039548022
29936,Jasper County,SC,85.2731591448931,NA,NA
37040,Montgomery County,TN,29.453681710213775,NA,64.97175141242938
37101,Humphreys County,TN,NA,NA,93.22033898305084
37110,Warren County,TN,NA,NA,29.943502824858758
37115,Davidson County,TN,16.389548693586697,NA,NA
37130,Rutherford County,TN,25.17814726840855,NA,NA
37321,Rhea County,TN,NA,45.9915611814346,NA
37377,Hamilton County,TN,NA,21.518987341772153,NA
37379,Hamilton County,TN,46.318289786223275,NA,NA
37604,Washington County,TN,23.27790973871734,NA,NA
37664,Sullivan County,TN,26.128266033254157,NA,NA
37742,Loudon County,TN,NA,NA,96.61016949152543
37814,Hamblen County,TN,35.62945368171022,NA,NA
37865,Sevier County,TN,45.36817102137768,NA,NA
37932,Knox County,TN,97.38717339667458,NA,NA
38116,Shelby County,TN,NA,37.9746835443038,NA
38225,Weakley County,TN,NA,NA,71.75141242937853
38330,Gibson County,TN,96.67458432304038,NA,NA
38358,Gibson County,TN,64.8456057007126,NA,NA
38401,Maury County,TN,9.501187648456057,8.016877637130802,NA
38501,Putnam County,TN,NA,NA,27.11864406779661
75020,Grayson County,TX,53.919239904988125,NA,NA
75032,Rockwall County,TX,88.36104513064133,NA,NA
75040,Dallas County,TX,21.377672209026127,NA,NA
75078,Collin County,TX,NA,NA,98.87005649717514
75165,Ellis County,TX,32.779097387173394,NA,24.293785310734464
75225,Dallas County,TX,79.33491686460808,NA,NA
75241,Dallas County,TX,28.26603325415677,NA,NA
75248,Dallas County,TX,NA,32.91139240506329,NA
75252,Collin County,TX,NA,NA,54.23728813559322
75401,Hunt County,TX,NA,64.9789029535865,NA
75551,Cass County,TX,NA,NA,72.31638418079096
75605,Gregg County,TX,58.66983372921615,NA,NA
75703,Smith County,TX,NA,2.9535864978902953,NA
75765,Wood County,TX,NA,NA,55.932203389830505
76010,Tarrant County,TX,NA,62.869198312236286,NA
76014,Tarrant County,TX,54.63182897862233,NA,NA
76016,Tarrant County,TX,73.39667458432304,26.582278481012654,NA
76033,Johnson County,TX,NA,47.67932489451477,NA
76052,Tarrant County,TX,NA,NA,97.74011299435028
76063,Tarrant County,TX,49.8812351543943,NA,NA
76067,Palo Pinto County,TX,NA,63.71308016877637,57.06214689265536
76085,Parker County,TX,89.54869358669833,65.40084388185655,NA
76092,Tarrant County,TX,72.44655581947742,NA,NA
76108,Tarrant County,TX,NA,29.11392405063291,NA
76116,Tarrant County,TX,NA,14.767932489451477,NA
76117,Tarrant County,TX,NA,45.14767932489451,NA
76180,Tarrant County,TX,47.03087885985748,NA,NA
76210,Denton County,TX,91.44893111638956,NA,NA
76247,Denton County,TX,NA,NA,95.48022598870057
76711,McLennan County,TX,89.07363420427554,NA,NA
76904,Tom Green County,TX,NA,NA,32.7683615819209
77007,Harris County,TX,57.95724465558195,NA,NA
77009,Harris County,TX,51.78147268408551,NA,NA
77017,Harris County,TX,62.47030878859857,NA,NA
77070,Harris County,TX,52.01900237529691,NA,NA
77080,Harris County,TX,98.812351543943,NA,NA
77090,Harris County,TX,33.729216152019006,NA,NA
77346,Harris County,TX,26.60332541567696,42.19409282700422,NA
77354,Montgomery County,TX,55.58194774346793,NA,NA
77356,Montgomery County,TX,73.87173396674585,NA,NA
77379,Harris County,TX,30.641330166270787,NA,NA
77450,Harris County,TX,NA,NA,42.3728813559322
77459,Fort Bend County,TX,77.90973871733968,NA,NA
77471,Fort Bend County,TX,NA,NA,53.10734463276836
77504,Harris County,TX,NA,93.67088607594937,NA
77521,Harris County,TX,NA,38.81856540084388,NA
77551,Galveston County,TX,NA,NA,25.423728813559322
77573,Galveston County,TX,13.77672209026128,2.5316455696202533,NA
77590,Galveston County,TX,NA,NA,28.8135593220339
77642,Jefferson County,TX,33.966745843230406,NA,NA
77701,Jefferson County,TX,82.89786223277909,NA,NA
77802,Brazos County,TX,30.878859857482183,NA,11.299435028248588
78155,Guadalupe County,TX,28.978622327790976,NA,NA
78242,Bexar County,TX,NA,73.83966244725738,NA
78251,Bexar County,TX,62.23277909738717,NA,NA
78516,Hidalgo County,TX,NA,NA,58.75706214689266
78539,Hidalgo County,TX,67.2209026128266,NA,NA
78645,Travis County,TX,89.31116389548693,NA,NA
78666,Hays County,TX,NA,44.303797468354425,NA
78676,Hays County,TX,99.2874109263658,NA,NA
78757,Travis County,TX,92.63657957244655,NA,NA
78839,Zavala County,TX,NA,NA,94.35028248587571
78962,Colorado County,TX,97.8622327790974,NA,NA
79765,Ector County,TX,NA,NA,91.52542372881356
79928,El Paso County,TX,54.86935866983374,NA,NA
84014,Davis County,UT,98.57482185273159,NA,NA
84065,Salt Lake County,UT,NA,NA,69.49152542372882
84088,Salt Lake County,UT,NA,83.54430379746836,NA
84128,Salt Lake County,UT,NA,NA,98.30508474576271
84129,,UT,34.441805225653205,NA,NA
84404,Weber County,UT,25.653206650831358,NA,NA
84405,Weber County,UT,NA,NA,61.5819209039548
84790,Washington County,UT,NA,NA,5.649717514124294
05468,Chittenden County,VT,NA,55.69620253164557,NA
05478,Franklin County,VT,NA,40.08438818565401,NA
05602,Washington County,VT,69.83372921615202,NA,NA
05641,Washington County,VT,37.05463182897862,NA,NA
05733,Rutland County,VT,NA,75.52742616033755,NA
05819,Caledonia County,VT,80.28503562945369,NA,NA
22030,Fairfax County,VA,NA,NA,44.06779661016949
22041,Fairfax County,VA,NA,NA,66.10169491525424
22304,Alexandria city,VA,NA,40.92827004219409,NA
22401,Fredericksburg city,VA,NA,NA,62.71186440677966
22406,Stafford County,VA,86.46080760095012,NA,NA
22408,Spotsylvania County,VA,72.20902612826603,NA,NA
22508,Orange County,VA,NA,NA,77.40112994350282
22664,Shenandoah County,VA,78.85985748218528,NA,NA
22815,Rockingham County,VA,58.19477434679335,NA,NA
22851,Page County,VA,NA,69.19831223628692,NA
23117,Louisa County,VA,84.798099762470315,NA,NA
23222,Richmond city,VA,NA,34.59915611814346,NA
23238,Henrico County,VA,NA,67.9324894514768,NA
23324,Chesapeake city,VA,46.080760095011875,NA,NA
23707,Portsmouth city,VA,59.857482185273156,NA,NA
23832,Chesterfield County,VA,NA,57.80590717299579,NA
23947,Charlotte County,VA,NA,98.31223628691983,NA
24112,Henry County,VA,NA,NA,31.63841807909605
24251,Scott County,VA,86.69833729216153,NA,NA
24266,Russell County,VA,75.53444180522565,NA,NA
24343,Carroll County,VA,NA,74.68354430379746,NA
24426,Alleghany County,VA,52.73159144893111,NA,NA
24605,Tazewell County,VA,NA,78.05907172995781,NA
98031,King County,WA,NA,NA,46.32768361581921
98034,King County,WA,NA,15.18987341772152,NA
98040,King County,WA,76.72209026128266,NA,NA
98057,King County,WA,84.798099762470315,NA,NA
98122,King County,WA,66.270783847981,NA,NA
98166,King County,WA,83.6104513064133,NA,NA
98177,King County,WA,NA,64.55696202531645,NA
98250,San Juan County,WA,99.04988123515439,NA,NA
98284,Skagit County,WA,NA,29.535864978902953,NA
98312,Kitsap County,WA,43.46793349168646,NA,NA
98362,Clallam County,WA,NA,9.282700421940929,6.214689265536723
98366,Kitsap County,WA,NA,35.44303797468354,NA
98382,Clallam County,WA,NA,49.789029535864984,3.389830508474576
98445,Pierce County,WA,NA,NA,79.09604519774011
98499,Pierce County,WA,NA,NA,49.152542372881356
98502,Thurston County,WA,NA,NA,46.89265536723164
98520,Grays Harbor County,WA,69.35866983372921,NA,NA
98569,Grays Harbor County,WA,NA,80.59071729957806,NA
98607,Clark County,WA,81.71021377672209,NA,NA
98632,Cowlitz County,WA,NA,NA,3.954802259887006
98682,Clark County,WA,87.17339667458432,NA,NA
98902,Yakima County,WA,32.541567695961994,NA,NA
98942,Yakima County,WA,NA,71.72995780590718,NA
99019,Spokane County,WA,99.7624703087886,NA,NA
99109,Stevens County,WA,NA,92.82700421940928,78.53107344632768
99206,Spokane County,WA,51.543942992874115,NA,NA
99208,Spokane County,WA,NA,70.042194092827,NA
99217,Spokane County,WA,93.34916864608076,NA,NA
99218,Spokane County,WA,NA,93.24894514767934,NA
99336,Benton County,WA,NA,0.8438818565400843,NA
24701,Mercer County,WV,NA,34.177215189873415,NA
24740,Mercer County,WV,NA,38.39662447257383,NA
25428,Berkeley County,WV,NA,91.56118143459916,NA
25701,Cabell County,WV,NA,17.29957805907173,NA
25832,Raleigh County,WV,NA,NA,99.43502824858757
26537,Preston County,WV,65.08313539192399,NA,NA
53051,Waukesha County,WI,49.16864608076009,NA,NA
53095,Washington County,WI,NA,20.253164556962027,NA
53115,Walworth County,WI,NA,48.9451476793249,NA
53132,Milwaukee County,WI,NA,22.362869198312236,NA
53405,Racine County,WI,8.076009501187649,NA,NA
53589,Dane County,WI,NA,NA,33.89830508474576
53954,Columbia County,WI,NA,NA,90.3954802259887
54020,Polk County,WI,NA,NA,87.00564971751412
54220,Manitowoc County,WI,8.551068883610451,NA,NA
54311,Brown County,WI,NA,32.48945147679325,NA
54409,Langlade County,WI,42.517814726840854,NA,NA
54728,Barron County,WI,92.87410926365796,NA,NA
54822,Barron County,WI,NA,86.91983122362869,NA
