ZipCode,county,state,Adult,Retirement,Geriatric
35022,Jefferson County,AL,NA,55.40796963946869,NA
35023,Jefferson County,AL,NA,16.318785578747626,NA
35127,Jefferson County,AL,NA,62.808349146110054,NA
35209,Jefferson County,AL,NA,71.15749525616698,NA
35214,Jefferson County,AL,NA,77.41935483870968,NA
35217,Jefferson County,AL,NA,NA,92.98642533936652
35601,Morgan County,AL,NA,16.698292220113853,NA
35951,Marshall County,AL,67.15867158671587,NA,NA
35976,Marshall County,AL,NA,39.27893738140417,NA
36067,Autauga County,AL,39.11439114391143,NA,NA
36089,Bullock County,AL,NA,90.5123339658444,NA
36108,Montgomery County,AL,46.494464944649444,NA,NA
36110,Montgomery County,AL,59.40959409594095,NA,NA
36535,Baldwin County,AL,NA,NA,31.90045248868778
99501,Anchorage Municipality,AK,25.092250922509223,NA,NA
85019,Maricopa County,AZ,NA,75.33206831119544,NA
85022,Maricopa County,AZ,NA,32.82732447817837,NA
85128,Pinal County,AZ,NA,86.52751423149905,NA
85260,Maricopa County,AZ,NA,NA,21.945701357466064
85297,Maricopa County,AZ,NA,NA,95.47511312217195
85306,Maricopa County,AZ,NA,86.90702087286527,NA
85350,Yuma County,AZ,81.91881918819189,NA,NA
85374,Maricopa County,AZ,NA,20.872865275142317,NA
85614,Pima County,AZ,88.56088560885608,NA,NA
85704,Pima County,AZ,NA,34.34535104364326,NA
85706,Pima County,AZ,4.059040590405904,NA,NA
85712,Pima County,AZ,NA,47.6280834914611,NA
85730,Pima County,AZ,NA,NA,51.35746606334841
85749,Pima County,AZ,NA,40.98671726755218,NA
86323,Yavapai County,AZ,94.8339483394834,NA,NA
86326,Yavapai County,AZ,NA,25.047438330170777,NA
71653,Chicot County,AR,NA,96.7741935483871,NA
71753,Columbia County,AR,NA,90.89184060721063,NA
71901,Garland County,AR,NA,47.43833017077799,NA
72210,Pulaski County,AR,87.82287822878229,99.24098671726756,NA
72601,Boone County,AR,NA,36.43263757115749,91.4027149321267
72653,Baxter County,AR,NA,NA,9.95475113122172
72687,Marion County,AR,NA,NA,96.60633484162896
72756,Benton County,AR,NA,NA,63.80090497737556
72762,Washington County,AR,NA,63.37760910815939,NA
72823,Pope County,AR,90.7749077490775,NA,NA
72855,Logan County,AR,NA,NA,94.57013574660633
72916,Sebastian County,AR,NA,95.82542694497154,NA
90007,Los Angeles County,CA,31.365313653136536,NA,NA
90011,Los Angeles County,CA,NA,47.81783681214421,NA
90059,Los Angeles County,CA,NA,NA,68.32579185520362
90067,Los Angeles County,CA,NA,NA,76.2443438914027
90212,Los Angeles County,CA,NA,NA,67.64705882352942
90292,Los Angeles County,CA,NA,NA,42.30769230769231
90621,Orange County,CA,NA,87.85578747628084,NA
90720,Orange County,CA,NA,NA,95.24886877828054
90731,Los Angeles County,CA,NA,NA,81.44796380090497
90813,Los Angeles County,CA,82.65682656826569,NA,NA
91202,Los Angeles County,CA,NA,72.29601518026566,NA
91304,Los Angeles County,CA,NA,NA,16.063348416289593
91351,Los Angeles County,CA,NA,78.93738140417457,NA
91355,Los Angeles County,CA,NA,NA,65.83710407239819
91381,Los Angeles County,CA,75.64575645756457,NA,NA
91505,Los Angeles County,CA,NA,81.78368121442125,NA
91702,Los Angeles County,CA,NA,NA,54.52488687782805
91741,Los Angeles County,CA,NA,55.02846299810247,NA
91748,Los Angeles County,CA,NA,NA,32.80542986425339
91752,Riverside County,CA,NA,67.74193548387096,NA
91762,San Bernardino County,CA,NA,51.423149905123346,NA
91784,San Bernardino County,CA,NA,50.664136622390885,NA
91786,San Bernardino County,CA,NA,NA,41.17647058823529
92083,San Diego County,CA,NA,70.20872865275142,NA
92220,Riverside County,CA,NA,NA,24.43438914027149
92234,Riverside County,CA,NA,3.795066413662239,NA
92250,Imperial County,CA,NA,NA,86.42533936651584
92284,San Bernardino County,CA,NA,31.119544592030362,NA
92308,San Bernardino County,CA,NA,NA,42.98642533936652
92344,San Bernardino County,CA,NA,NA,93.89140271493213
92354,San Bernardino County,CA,NA,NA,59.502262443438916
92408,San Bernardino County,CA,90.03690036900369,NA,NA
92544,Riverside County,CA,NA,50.284629981024665,NA
92553,Riverside County,CA,NA,44.78178368121442,NA
92587,Riverside County,CA,NA,NA,79.18552036199095
92626,Orange County,CA,47.601476014760145,NA,NA
92660,Orange County,CA,NA,43.07400379506641,NA
92663,Orange County,CA,NA,82.92220113851992,NA
92802,Orange County,CA,NA,79.88614800759012,NA
92805,Orange County,CA,NA,45.54079696394687,NA
92821,Orange County,CA,NA,NA,29.185520361990953
92840,Orange County,CA,NA,76.280834914611,62.44343891402715
92868,Orange County,CA,66.78966789667896,NA,NA
92886,Orange County,CA,NA,NA,22.850678733031675
93004,Ventura County,CA,NA,NA,54.07239819004525
93023,Ventura County,CA,NA,NA,55.203619909502265
93036,Ventura County,CA,NA,53.510436432637576,NA
93065,Ventura County,CA,50.55350553505535,NA,17.420814479638008
93241,Kern County,CA,NA,NA,98.64253393665159
93428,San Luis Obispo County,CA,NA,NA,86.87782805429865
93436,Santa Barbara County,CA,NA,17.4573055028463,NA
93702,Fresno County,CA,NA,38.33017077798861,NA
93710,Fresno County,CA,NA,NA,46.60633484162896
93720,Fresno County,CA,NA,29.98102466793169,NA
93726,Fresno County,CA,NA,96.9639468690702,NA
94014,San Mateo County,CA,NA,NA,9.728506787330318
94015,San Mateo County,CA,49.07749077490775,NA,NA
94110,San Francisco County,CA,NA,NA,22.624434389140273
94115,San Francisco County,CA,53.13653136531366,NA,NA
94117,San Francisco County,CA,NA,46.110056925996204,NA
94122,San Francisco County,CA,NA,NA,6.108597285067873
94133,San Francisco County,CA,NA,49.146110056926,25.791855203619914
94134,San Francisco County,CA,NA,NA,91.8552036199095
94303,San Mateo County,CA,NA,NA,24.8868778280543
94513,Contra Costa County,CA,NA,27.514231499051235,NA
94603,Alameda County,CA,NA,58.44402277039848,NA
94605,Alameda County,CA,NA,25.996204933586338,NA
95119,Santa Clara County,CA,NA,96.39468690702088,NA
95228,Calaveras County,CA,NA,85.38899430740038,NA
95324,Merced County,CA,NA,89.94307400379506,NA
95337,San Joaquin County,CA,96.30996309963099,NA,NA
95503,Humboldt County,CA,NA,48.95635673624288,54.29864253393665
95519,Humboldt County,CA,NA,NA,66.7420814479638
95602,Placer County,CA,NA,NA,70.36199095022624
95667,El Dorado County,CA,NA,NA,1.3574660633484164
95693,Sacramento County,CA,NA,90.13282732447819,NA
95765,Placer County,CA,NA,NA,68.55203619909503
95834,Sacramento County,CA,74.16974169741697,NA,NA
95969,Butte County,CA,NA,8.349146110056926,NA
95993,Sutter County,CA,NA,43.26375711574953,NA
96001,Shasta County,CA,NA,51.04364326375711,NA
80010,Arapahoe County,CO,NA,46.86907020872865,NA
80021,Jefferson County,CO,NA,NA,67.42081447963801
80109,Douglas County,CO,NA,69.44971537001898,NA
80130,Douglas County,CO,NA,84.25047438330171,NA
80205,Denver County,CO,NA,37.95066413662239,NA
80207,Denver County,CO,76.38376383763837,NA,77.60180995475113
80233,Adams County,CO,29.520295202952028,NA,NA
80517,Larimer County,CO,NA,51.23339658444023,NA
80526,Larimer County,CO,NA,37.571157495256166,NA
80528,Larimer County,CO,NA,76.47058823529412,NA
80534,Weld County,CO,NA,76.66034155597723,NA
81321,Montezuma County,CO,NA,66.98292220113852,NA
06062,Hartford County,CT,61.99261992619927,NA,NA
06418,New Haven County,CT,NA,91.46110056925995,NA
06450,New Haven County,CT,9.59409594095941,13.66223908918406,NA
06460,New Haven County,CT,NA,17.836812144212523,NA
06461,New Haven County,CT,NA,NA,66.51583710407239
06706,New Haven County,CT,NA,NA,74.43438914027149
06880,Fairfield County,CT,NA,NA,61.990950226244344
19709,New Castle County,DE,NA,22.960151802656547,NA
19713,New Castle County,DE,NA,NA,33.4841628959276
19804,New Castle County,DE,NA,48.007590132827325,NA
19810,New Castle County,DE,NA,40.41745730550284,NA
19904,Kent County,DE,15.867158671586715,NA,NA
19947,Sussex County,DE,NA,43.643263757115754,NA
19958,Sussex County,DE,37.269372693726936,NA,NA
19971,Sussex County,DE,NA,NA,30.09049773755656
32114,Volusia County,FL,74.90774907749078,NA,NA
32117,Volusia County,FL,36.162361623616235,NA,NA
32189,Putnam County,FL,NA,89.18406072106262,NA
32244,Duval County,FL,9.22509225092251,NA,NA
32250,Duval County,FL,NA,NA,27.601809954751133
32424,Calhoun County,FL,71.95571955719558,NA,NA
32456,Gulf County,FL,NA,63.37760910815939,NA
32506,Escambia County,FL,NA,19.35483870967742,NA
32536,Okaloosa County,FL,NA,NA,47.28506787330316
32571,Santa Rosa County,FL,16.605166051660518,NA,NA
32607,Alachua County,FL,NA,NA,54.97737556561086
32653,Alachua County,FL,NA,NA,47.05882352941176
32763,Volusia County,FL,63.837638376383765,NA,23.755656108597282
32778,Lake County,FL,NA,NA,28.50678733031674
32926,Brevard County,FL,NA,NA,54.75113122171946
32940,Brevard County,FL,NA,NA,53.39366515837104
32963,Indian River County,FL,NA,NA,14.479638009049776
33009,Broward County,FL,NA,NA,10.407239819004525
33016,Miami-Dade County,FL,NA,60.341555977229596,NA
33076,Broward County,FL,NA,71.5370018975332,NA
33125,Miami-Dade County,FL,49.44649446494465,NA,NA
33138,Miami-Dade County,FL,NA,65.84440227703985,NA
33155,Miami-Dade County,FL,NA,85.00948766603416,NA
33174,Miami-Dade County,FL,NA,NA,15.610859728506787
33315,Broward County,FL,100,NA,NA
33319,Broward County,FL,NA,33.776091081593925,NA
33406,Palm Beach County,FL,NA,NA,72.17194570135746
33413,Palm Beach County,FL,NA,91.84060721062619,NA
33414,Palm Beach County,FL,NA,NA,69.45701357466064
33426,Palm Beach County,FL,NA,95.44592030360532,NA
33436,Palm Beach County,FL,NA,NA,49.095022624434385
33462,Palm Beach County,FL,NA,NA,43.89140271493213
33472,Palm Beach County,FL,NA,NA,21.040723981900452
33542,Pasco County,FL,NA,NA,47.511312217194565
33544,Pasco County,FL,NA,NA,93.43891402714932
33618,Hillsborough County,FL,NA,52.56166982922201,NA
33624,Hillsborough County,FL,NA,47.05882352941176,NA
33710,Pinellas County,FL,NA,80.26565464895636,NA
33711,Pinellas County,FL,NA,NA,75.1131221719457
33759,Pinellas County,FL,NA,NA,50.90497737556561
33850,Polk County,FL,NA,93.54838709677419,82.35294117647058
33928,Lee County,FL,NA,37.00189753320683,NA
33936,Lee County,FL,NA,NA,48.19004524886878
33950,Charlotte County,FL,NA,35.294117647058826,NA
34209,Manatee County,FL,NA,NA,20.81447963800905
34210,Manatee County,FL,NA,NA,76.2443438914027
34221,Manatee County,FL,NA,30.740037950664135,NA
34243,Manatee County,FL,NA,28.083491461100568,NA
34287,Sarasota County,FL,NA,NA,15.384615384615385
34429,Citrus County,FL,NA,NA,70.13574660633483
34470,Marion County,FL,NA,73.81404174573055,NA
34690,Pasco County,FL,NA,NA,80.09049773755656
34746,Osceola County,FL,NA,49.905123339658445,NA
34759,Polk County,FL,43.17343173431734,NA,NA
34785,Sumter County,FL,NA,NA,87.78280542986425
30005,Fulton County,GA,NA,79.12713472485768,NA
30033,DeKalb County,GA,NA,77.7988614800759,NA
30041,Forsyth County,GA,30.627306273062732,NA,NA
30047,Gwinnett County,GA,NA,NA,41.8552036199095
30058,DeKalb County,GA,23.247232472324722,NA,NA
30066,Cobb County,GA,NA,66.79316888045541,NA
30096,Gwinnett County,GA,NA,35.10436432637571,NA
30114,Cherokee County,GA,NA,32.06831119544592,NA
30176,Haralson County,GA,NA,90.13282732447819,NA
30268,Fulton County,GA,NA,NA,85.74660633484163
30281,Henry County,GA,NA,20.49335863377609,78.73303167420815
30311,Fulton County,GA,NA,23.719165085388994,NA
30327,Fulton County,GA,NA,NA,61.31221719457014
30328,Fulton County,GA,69.00369003690037,NA,30.995475113122172
30338,DeKalb County,GA,NA,NA,32.57918552036199
30542,Hall County,GA,NA,NA,55.88235294117647
30548,Jackson County,GA,NA,53.13092979127134,88.00904977375565
30571,White County,GA,NA,NA,98.41628959276018
30606,Clarke County,GA,NA,NA,27.828054298642535
30620,Barrow County,GA,NA,NA,93.21266968325791
30643,Hart County,GA,NA,54.83870967741935,NA
30655,Walton County,GA,NA,NA,58.371040723981906
30809,Columbia County,GA,NA,NA,29.411764705882355
30904,Richmond County,GA,NA,NA,68.09954751131222
30909,Richmond County,GA,NA,18.40607210626186,NA
31024,Putnam County,GA,NA,NA,29.638009049773757
31027,Laurens County,GA,NA,87.28652751423151,NA
31032,Jones County,GA,NA,82.5426944971537,NA
31404,Chatham County,GA,56.457564575645755,NA,NA
31405,Chatham County,GA,NA,NA,33.257918552036195
31516,Pierce County,GA,70.47970479704797,NA,NA
31719,Sumter County,GA,NA,99.62049335863378,NA
96734,Honolulu County,HI,NA,11.954459203036052,NA
96825,Honolulu County,HI,NA,7.969639468690702,NA
83202,Bannock County,ID,83.02583025830258,NA,NA
83263,Franklin County,ID,NA,NA,81.90045248868778
83338,Jerome County,ID,59.77859778597786,NA,NA
83404,Bonneville County,ID,84.13284132841329,NA,NA
83501,Nez Perce County,ID,NA,12.144212523719165,NA
83651,Canyon County,ID,NA,NA,13.122171945701359
83702,Ada County,ID,NA,NA,38.91402714932127
83704,Ada County,ID,NA,NA,2.48868778280543
83706,Ada County,ID,NA,62.04933586337761,17.647058823529413
83709,Ada County,ID,77.12177121771218,NA,26.018099547511316
83854,Kootenai County,ID,NA,24.47817836812144,NA
60007,Cook County,IL,NA,NA,65.15837104072398
60016,Cook County,IL,27.67527675276753,NA,7.013574660633484
60018,Cook County,IL,65.31365313653137,NA,NA
60045,Lake County,IL,NA,25.616698292220114,NA
60073,Lake County,IL,19.92619926199262,NA,NA
60085,Lake County,IL,NA,35.673624288425046,NA
60089,Lake County,IL,NA,11.385199240986717,NA
60108,DuPage County,IL,NA,31.87855787476281,NA
60115,DeKalb County,IL,NA,NA,27.149321266968325
60124,Kane County,IL,NA,33.206831119544596,NA
60130,Cook County,IL,54.981549815498155,NA,NA
60148,DuPage County,IL,NA,56.73624288425047,NA
60153,Cook County,IL,NA,28.6527514231499,NA
60154,Cook County,IL,NA,29.79127134724858,NA
60172,DuPage County,IL,NA,NA,59.95475113122172
60177,Kane County,IL,NA,57.3055028462998,NA
60403,Will County,IL,NA,42.8842504743833,NA
60441,Will County,IL,NA,NA,38.23529411764706
60477,Cook County,IL,NA,14.800759013282732,NA
60534,Cook County,IL,80.44280442804428,NA,NA
60552,LaSalle County,IL,98.8929889298893,NA,NA
60609,Cook County,IL,NA,NA,19.230769230769234
60618,Cook County,IL,12.915129151291513,NA,NA
60619,Cook County,IL,NA,6.83111954459203,NA
60623,Cook County,IL,NA,12.7134724857685,NA
60628,Cook County,IL,NA,6.261859582542694,NA
60639,Cook County,IL,NA,NA,41.40271493212669
60641,Cook County,IL,NA,NA,22.171945701357465
60643,Cook County,IL,NA,NA,7.46606334841629
60649,Cook County,IL,16.974169741697416,NA,NA
60804,Cook County,IL,NA,15.939278937381404,NA
61016,Winnebago County,IL,NA,NA,97.51131221719457
61061,Ogle County,IL,NA,98.67172675521822,NA
61115,Winnebago County,IL,NA,32.63757115749525,NA
61254,Henry County,IL,NA,79.31688804554081,64.25339366515837
61401,Knox County,IL,NA,34.15559772296015,NA
61550,Tazewell County,IL,NA,74.573055028463,NA
61615,Peoria County,IL,NA,NA,52.26244343891403
61701,McLean County,IL,NA,NA,52.03619909502263
61761,McLean County,IL,43.542435424354245,NA,NA
61821,Champaign County,IL,NA,51.61290322580645,NA
61846,Vermilion County,IL,NA,80.45540796963947,NA
61920,Coles County,IL,NA,55.787476280834916,NA
62002,Madison County,IL,NA,22.011385199240987,NA
62269,St. Clair County,IL,NA,42.314990512333964,NA
62286,Randolph County,IL,NA,81.21442125237192,NA
62401,Effingham County,IL,NA,58.254269449715366,NA
62454,Crawford County,IL,NA,NA,59.276018099547514
62521,Macon County,IL,NA,NA,3.8461538461538463
62526,Macon County,IL,15.129151291512915,NA,4.524886877828054
62812,Franklin County,IL,NA,61.10056925996204,NA
62863,Wabash County,IL,NA,NA,32.126696832579185
46001,Madison County,IN,NA,64.32637571157495,NA
46016,Madison County,IN,18.45018450184502,NA,NA
46052,Boone County,IN,NA,NA,46.83257918552036
46062,Hamilton County,IN,NA,18.785578747628083,NA
46142,Johnson County,IN,47.97047970479705,NA,NA
46143,Johnson County,IN,NA,NA,4.751131221719457
46157,Morgan County,IN,NA,100,NA
46168,Hendricks County,IN,NA,56.35673624288425,45.248868778280546
46205,Marion County,IN,40.59040590405904,NA,82.12669683257919
46221,Marion County,IN,33.579335793357934,NA,NA
46226,Marion County,IN,NA,NA,23.52941176470588
46234,Marion County,IN,NA,NA,36.65158371040724
46241,Marion County,IN,NA,NA,53.619909502262445
46324,Lake County,IN,NA,30.55028462998102,NA
46350,LaPorte County,IN,NA,8.72865275142315,NA
46356,Lake County,IN,NA,38.51992409867172,NA
46368,Porter County,IN,NA,2.4667931688804554,NA
46385,Porter County,IN,NA,4.554079696394687,NA
46506,Marshall County,IN,98.5239852398524,NA,NA
46526,Elkhart County,IN,NA,NA,40.04524886877828
46544,St. Joseph County,IN,NA,59.58254269449716,NA
46563,Marshall County,IN,NA,27.32447817836812,18.778280542986426
46714,Wells County,IN,NA,82.35294117647058,NA
46804,Allen County,IN,50.184501845018445,NA,NA
46807,Allen County,IN,NA,65.2751423149905,NA
46809,Allen County,IN,60.88560885608856,NA,NA
46815,Allen County,IN,NA,NA,18.32579185520362
46902,Howard County,IN,NA,5.692599620493358,NA
46996,Pulaski County,IN,NA,NA,90.72398190045249
47170,Scott County,IN,NA,NA,79.63800904977376
47201,Bartholomew County,IN,NA,14.041745730550284,NA
47274,Jackson County,IN,NA,36.81214421252372,NA
47362,Henry County,IN,NA,12.523719165085389,NA
47403,Monroe County,IN,64.94464944649447,NA,NA
47441,Greene County,IN,73.06273062730627,NA,NA
47710,Vanderburgh County,IN,NA,86.14800759013282,NA
47711,Vanderburgh County,IN,NA,NA,18.552036199095024
47712,Vanderburgh County,IN,NA,45.16129032258064,NA
47802,Vigo County,IN,NA,NA,34.38914027149321
50441,Franklin County,IA,NA,NA,72.85067873303167
50588,Buena Vista County,IA,45.75645756457565,NA,NA
50613,Black Hawk County,IA,NA,14.231499051233396,NA
50659,Chickasaw County,IA,NA,NA,73.303167420814475
50701,Black Hawk County,IA,NA,28.842504743833018,NA
51103,Woodbury County,IA,NA,68.69070208728652,NA
52057,Delaware County,IA,NA,NA,90.9502262443439
52405,Linn County,IA,NA,45.73055028462998,NA
52544,Appanoose County,IA,46.86346863468634,NA,NA
52577,Mahaska County,IA,40.959409594095945,NA,NA
66061,Johnson County,KS,NA,NA,34.841628959276015
66062,Johnson County,KS,14.391143911439114,NA,NA
66067,Franklin County,KS,NA,NA,42.081447963800905
66083,Johnson County,KS,NA,NA,77.14932126696833
66215,Johnson County,KS,NA,44.97153700189753,NA
66502,Riley County,KS,NA,73.24478178368122,NA
66604,Shawnee County,KS,NA,44.022770398481974,NA
66839,Coffey County,KS,NA,97.15370018975332,NA
67156,Cowley County,KS,NA,NA,48.64253393665158
67211,Sedgwick County,KS,NA,88.8045540796964,91.6289592760181
40203,Jefferson County,KY,NA,NA,62.217194570135746
40212,Jefferson County,KY,NA,40.22770398481973,NA
40217,Jefferson County,KY,NA,NA,83.0316742081448
40218,Jefferson County,KY,16.236162361623617,NA,NA
40219,Jefferson County,KY,NA,NA,29.86425339366516
40291,Jefferson County,KY,NA,NA,31.221719457013574
40311,Nicholas County,KY,NA,NA,83.2579185520362
40351,Rowan County,KY,NA,16.888045540796963,67.19457013574662
40353,Montgomery County,KY,24.723247232472325,NA,NA
40361,Bourbon County,KY,40.22140221402214,NA,NA
40383,Woodford County,KY,NA,79.69639468690703,NA
40744,Laurel County,KY,32.84132841328413,NA,NA
40962,Clay County,KY,NA,NA,52.94117647058824
40977,Bell County,KY,NA,NA,72.39819004524887
41011,Kenton County,KY,NA,66.60341555977229,NA
41016,Kenton County,KY,NA,84.0607210626186,NA
41091,Boone County,KY,NA,NA,60.18099547511312
41101,Boyd County,KY,20.66420664206642,NA,19.004524886877828
41102,Boyd County,KY,NA,21.631878557874764,22.39819004524887
41129,Boyd County,KY,NA,60.151802656546494,NA
41143,Carter County,KY,NA,NA,59.502262443438916
41144,Greenup County,KY,44.64944649446495,NA,NA
41164,Carter County,KY,NA,74.19354838709677,NA
41179,Lewis County,KY,NA,77.98861480075901,NA
41339,Breathitt County,KY,NA,NA,72.62443438914026
42240,Christian County,KY,11.07011070110701,NA,NA
42420,Henderson County,KY,14.022140221402212,NA,NA
42501,Pulaski County,KY,NA,61.29032258064516,NA
42539,Casey County,KY,77.49077490774908,NA,NA
70002,Jefferson Parish,LA,NA,36.62239089184061,NA
70047,St. Charles Parish,LA,NA,72.67552182163189,NA
70062,Jefferson Parish,LA,22.878228782287824,NA,NA
70126,Orleans Parish,LA,NA,NA,57.466063348416284
70466,Tangipahoa Parish,LA,NA,88.23529411764706,NA
70529,Lafayette Parish,LA,NA,85.95825426944972,NA
70548,Vermilion Parish,LA,NA,80.64516129032258,NA
70555,Vermilion Parish,LA,85.60885608856088,NA,NA
70560,Iberia Parish,LA,NA,14.990512333965844,NA
70563,Iberia Parish,LA,NA,NA,61.085972850678736
70582,St. Martin Parish,LA,NA,44.212523719165084,NA
70668,Calcasieu Parish,LA,NA,NA,87.33031674208145
70737,Ascension Parish,LA,32.10332103321033,NA,NA
70809,East Baton Rouge Parish,LA,NA,NA,39.14027149321267
71037,Bossier Parish,LA,NA,56.54648956356736,NA
71040,Claiborne Parish,LA,NA,NA,85.74660633484163
71052,De Soto Parish,LA,NA,73.05502846299811,NA
71055,Webster Parish,LA,NA,NA,52.94117647058824
71202,Ouachita Parish,LA,8.118081180811808,NA,81.67420814479638
71291,Ouachita Parish,LA,NA,NA,60.85972850678733
71360,Rapides Parish,LA,NA,30.929791271347252,NA
71429,Sabine Parish,LA,NA,99.43074003795066,NA
03904,York County,ME,NA,NA,68.77828054298642
04038,Cumberland County,ME,NA,49.52561669829222,NA
04062,Cumberland County,ME,60.147601476014756,49.71537001897533,NA
04073,York County,ME,NA,NA,13.34841628959276
04106,Cumberland County,ME,NA,74.95256166982922,NA
04401,Penobscot County,ME,NA,1.8975332068311195,NA
04412,Penobscot County,ME,NA,93.35863377609108,NA
04901,Kennebec County,ME,NA,27.13472485768501,NA
04967,Somerset County,ME,91.14391143911439,NA,NA
04976,Somerset County,ME,19.557195571955717,NA,NA
20657,Calvert County,MD,NA,96.20493358633776,NA
20710,Prince George's County,MD,97.7859778597786,NA,NA
20711,Anne Arundel County,MD,88.19188191881919,NA,NA
20832,Montgomery County,MD,NA,NA,89.36651583710407
20852,Montgomery County,MD,NA,NA,64.70588235294117
20853,Montgomery County,MD,NA,NA,58.144796380090504
21014,Harford County,MD,NA,36.05313092979127,NA
21215,Baltimore city,MD,NA,41.745730550284634,NA
21216,Baltimore city,MD,38.37638376383764,NA,NA
21218,Baltimore city,MD,NA,NA,4.97737556561086
21219,Baltimore County,MD,NA,85.57874762808349,NA
21222,Baltimore County,MD,7.7490774907749085,NA,NA
21234,Baltimore County,MD,NA,NA,4.072398190045249
21237,Baltimore County,MD,NA,NA,43.43891402714932
21286,Baltimore County,MD,NA,NA,46.15384615384615
21532,Allegany County,MD,NA,NA,73.7556561085973
21755,Frederick County,MD,NA,99.81024667931689,NA
21793,Frederick County,MD,NA,NA,92.76018099547511
01001,Hampden County,MA,30.25830258302583,NA,36.199095022624434
01069,Hampden County,MA,NA,NA,89.14027149321268
01085,Hampden County,MA,NA,2.846299810246679,NA
01452,Worcester County,MA,NA,98.10246679316889,NA
01564,Worcester County,MA,NA,83.87096774193549,NA
01605,Worcester County,MA,NA,NA,0.4524886877828055
01752,Middlesex County,MA,5.535055350553505,14.421252371916509,NA
01760,Middlesex County,MA,NA,39.46869070208729,NA
01772,Worcester County,MA,NA,NA,96.38009049773756
01801,Middlesex County,MA,NA,NA,84.61538461538461
01803,Middlesex County,MA,NA,NA,2.0361990950226243
01821,Middlesex County,MA,NA,2.0872865275142316,NA
01826,Middlesex County,MA,NA,NA,56.56108597285068
01844,Essex County,MA,NA,4.743833017077799,NA
01902,Essex County,MA,0.7380073800738007,NA,NA
01906,Essex County,MA,NA,41.17647058823529,NA
01960,Essex County,MA,NA,0.5692599620493358,NA
02026,Norfolk County,MA,NA,97.34345351043643,NA
02045,Plymouth County,MA,NA,57.3055028462998,NA
02048,Bristol County,MA,NA,15.180265654648956,NA
02119,Suffolk County,MA,NA,4.933586337760911,NA
02148,Middlesex County,MA,3.3210332103321036,NA,NA
02169,Norfolk County,MA,NA,NA,0.904977375565611
02301,Plymouth County,MA,NA,0,NA
02346,Plymouth County,MA,NA,68.88045540796965,NA
02368,Norfolk County,MA,NA,NA,20.588235294117645
02467,Norfolk County,MA,51.291512915129154,NA,NA
02723,Bristol County,MA,NA,6.641366223908918,NA
02740,Bristol County,MA,0,NA,NA
02745,Bristol County,MA,3.6900369003690034,NA,NA
48035,Macomb County,MI,NA,9.867172675521822,NA
48045,Macomb County,MI,NA,NA,73.98190045248869
48075,Oakland County,MI,34.686346863468636,NA,NA
48079,St. Clair County,MI,NA,61.859582542694504,57.692307692307686
48103,Washtenaw County,MI,NA,1.7077798861480076,NA
48105,Washtenaw County,MI,42.80442804428044,52.371916508538895,NA
48154,Wayne County,MI,NA,39.08918406072106,5.88235294117647
48160,Washtenaw County,MI,74.53874538745387,NA,NA
48167,Oakland County,MI,NA,NA,12.217194570135746
48173,Wayne County,MI,NA,NA,64.02714932126696
48195,Wayne County,MI,NA,10.62618595825427,NA
48210,Wayne County,MI,NA,59.01328273244781,NA
48214,Wayne County,MI,NA,28.46299810246679,NA
48219,Wayne County,MI,NA,4.364326375711575,NA
48221,Wayne County,MI,NA,NA,19.457013574660635
48236,Wayne County,MI,34.31734317343174,NA,NA
48239,Wayne County,MI,NA,10.815939278937382,NA
48329,Oakland County,MI,NA,23.52941176470588,NA
48341,Oakland County,MI,33.210332103321036,NA,NA
48342,Oakland County,MI,NA,75.71157495256166,NA
48360,Oakland County,MI,NA,67.36242884250474,NA
48420,Genesee County,MI,NA,45.920303605313094,NA
48428,Lapeer County,MI,NA,NA,98.86877828054298
48433,Genesee County,MI,NA,NA,37.10407239819005
48451,Genesee County,MI,NA,79.5066413662239,NA
48503,Genesee County,MI,NA,22.39089184060721,NA
48601,Saginaw County,MI,NA,5.1233396584440225,5.656108597285068
48603,Saginaw County,MI,NA,NA,9.502262443438914
48658,Arenac County,MI,NA,NA,74.8868778280543
48706,Bay County,MI,NA,NA,2.7149321266968327
48726,Tuscola County,MI,NA,NA,80.99547511312217
48750,Iosco County,MI,NA,87.28652751423151,NA
48809,Ionia County,MI,68.26568265682657,NA,NA
48843,Livingston County,MI,NA,31.499051233396585,NA
48846,Ionia County,MI,NA,NA,70.81447963800905
48858,Isabella County,MI,NA,7.7798861480075905,NA
49001,Kalamazoo County,MI,23.985239852398525,NA,NA
49006,Kalamazoo County,MI,NA,NA,61.31221719457014
49014,Calhoun County,MI,22.509225092250922,NA,NA
49037,Calhoun County,MI,18.081180811808117,NA,NA
49047,Cass County,MI,NA,69.07020872865274,NA
49082,Branch County,MI,83.39483394833948,NA,NA
49201,Jackson County,MI,13.284132841328415,NA,6.787330316742081
49228,Lenawee County,MI,98.1549815498155,NA,NA
49265,Lenawee County,MI,NA,89.56356736242884,NA
49323,Allegan County,MI,NA,92.59962049335864,NA
49336,Mecosta County,MI,93.35793357933579,NA,NA
49417,Ottawa County,MI,21.033210332103323,NA,NA
49418,Kent County,MI,41.69741697416974,NA,NA
49444,Muskegon County,MI,87.4538745387454,NA,NA
49504,Kent County,MI,NA,15.370018975332068,NA
49735,Otsego County,MI,NA,21.062618595825427,NA
49756,Montmorency County,MI,95.5719557195572,NA,NA
49783,Chippewa County,MI,NA,NA,40.95022624434389
49801,Dickinson County,MI,NA,NA,79.63800904977376
49802,Dickinson County,MI,NA,NA,70.58823529411765
49837,Delta County,MI,NA,NA,56.78733031674208
49855,Marquette County,MI,NA,NA,23.076923076923077
49930,Houghton County,MI,NA,92.97912713472486,NA
49931,Houghton County,MI,NA,NA,71.94570135746606
49938,Gogebic County,MI,NA,NA,58.59728506787331
55009,Goodhue County,MN,NA,NA,63.12217194570135
55063,Pine County,MN,NA,NA,64.47963800904978
55082,Washington County,MN,36.90036900369004,NA,NA
55128,Washington County,MN,NA,NA,50.2262443438914
55345,Hennepin County,MN,NA,NA,76.696832579185525
55346,Hennepin County,MN,NA,NA,77.82805429864254
55347,Hennepin County,MN,68.63468634686348,NA,NA
55350,McLeod County,MN,NA,35.483870967741936,NA
55356,Hennepin County,MN,NA,NA,96.83257918552036
55403,Hennepin County,MN,94.4649446494465,NA,NA
55405,Hennepin County,MN,71.21771217712177,NA,NA
55406,Hennepin County,MN,NA,NA,69.00452488687783
55428,Hennepin County,MN,NA,NA,31.674208144796378
55429,Hennepin County,MN,NA,42.69449715370019,NA
55434,Anoka County,MN,NA,NA,78.50678733031674
55437,Hennepin County,MN,NA,NA,55.65610859728507
55811,St. Louis County,MN,NA,34.72485768500949,NA
55912,Mower County,MN,32.47232472324723,NA,0.6787330316742082
56073,Brown County,MN,NA,NA,2.262443438914027
56082,Nicollet County,MN,NA,NA,80.76923076923077
56265,Chippewa County,MN,NA,NA,36.425339366515836
56301,Stearns County,MN,48.708487084870846,NA,NA
56308,Douglas County,MN,NA,12.903225806451612,NA
56401,Crow Wing County,MN,NA,53.889943074003796,NA
56470,Hubbard County,MN,NA,NA,35.52036199095023
56601,Beltrami County,MN,NA,NA,11.76470588235294
38637,DeSoto County,MS,NA,84.62998102466793,NA
38654,DeSoto County,MS,NA,NA,69.23076923076923
38804,Lee County,MS,NA,82.16318785578748,NA
38821,Monroe County,MS,NA,72.10626185958255,NA
38930,Leflore County,MS,42.435424354243544,NA,NA
39056,Hinds County,MS,NA,75.14231499051233,NA
39069,Jefferson County,MS,84.50184501845018,NA,NA
39090,Attala County,MS,NA,68.50094876660341,NA
39110,Madison County,MS,NA,63.946869070208734,NA
39120,Adams County,MS,45.38745387453875,NA,NA
39145,Rankin County,MS,NA,NA,90.49773755656109
39180,Warren County,MS,NA,NA,35.294117647058826
39209,Hinds County,MS,26.199261992619927,NA,NA
39301,Lauderdale County,MS,NA,NA,67.87330316742081
39341,Noxubee County,MS,NA,NA,84.16289592760181
39401,Forrest County,MS,NA,57.685009487666036,NA
39501,Harrison County,MS,NA,75.90132827324479,NA
39560,Harrison County,MS,NA,NA,13.574660633484163
39563,Jackson County,MS,54.61254612546126,NA,NA
39601,Lincoln County,MS,NA,NA,39.59276018099548
39648,Pike County,MS,NA,53.510436432637576,NA
63020,Jefferson County,MO,NA,NA,51.80995475113123
63021,St. Louis County,MO,76.01476014760148,NA,7.918552036199094
63026,St. Louis County,MO,NA,13.472485768500949,NA
63033,St. Louis County,MO,NA,NA,6.334841628959276
63111,St. Louis city,MO,36.53136531365313,NA,NA
63115,St. Louis city,MO,NA,NA,60.40723981900452
63116,St. Louis city,MO,37.63837638376384,NA,NA
63124,St. Louis County,MO,NA,NA,30.542986425339368
63125,St. Louis County,MO,NA,NA,12.895927601809957
63127,St. Louis County,MO,NA,NA,63.348416289592755
63357,Warren County,MO,NA,NA,99.3212669683258
63456,Monroe County,MO,89.2988929889299,NA,NA
63552,Macon County,MO,NA,NA,61.76470588235294
63628,St. Francois County,MO,66.05166051660517,NA,NA
63857,Dunklin County,MO,NA,54.079696394686906,NA
64012,Cass County,MO,NA,NA,37.782805429864254
64014,Jackson County,MO,NA,NA,83.93665158371041
64016,Jackson County,MO,86.71586715867159,NA,NA
64030,Jackson County,MO,NA,19.54459203036053,NA
64055,Jackson County,MO,NA,8.918406072106261,NA
64057,Jackson County,MO,NA,52.56166982922201,NA
64076,Lafayette County,MO,70.11070110701108,NA,NA
64089,Clay County,MO,NA,74.00379506641366,NA
64836,Jasper County,MO,22.14022140221402,NA,NA
65203,Boone County,MO,NA,NA,5.429864253393665
65251,Callaway County,MO,NA,58.06451612903226,NA
65265,Audrain County,MO,NA,NA,49.547511312217196
65483,Texas County,MO,NA,89.37381404174573,NA
65648,Greene County,MO,NA,NA,92.3076923076923
65711,Wright County,MO,NA,NA,79.41176470588235
65714,Christian County,MO,NA,48.19734345351044,NA
59068,Carbon County,MT,NA,NA,95.02262443438913
59270,Richland County,MT,94.0959409594096,NA,84.38914027149322
59330,Dawson County,MT,NA,NA,96.15384615384616
59401,Cascade County,MT,NA,NA,86.19909502262443
59718,Gallatin County,MT,NA,77.03984819734345,NA
59859,Sanders County,MT,99.63099630996311,NA,NA
59901,Flathead County,MT,35.05535055350554,NA,NA
59912,Flathead County,MT,NA,59.772296015180274,NA
68046,Sarpy County,NE,67.52767527675276,NA,NA
68131,Douglas County,NE,NA,99.05123339658444,88.23529411764706
68310,Gage County,NE,NA,55.97722960151803,NA
68506,Lancaster County,NE,NA,NA,39.81900452488688
89128,Clark County,NV,NA,73.62428842504744,NA
89129,Clark County,NV,52.02952029520295,NA,NA
89433,Washoe County,NV,NA,61.66982922201139,NA
89703,Carson City,NV,NA,74.573055028463,NA
07002,Hudson County,NJ,NA,20.113851992409867,NA
07003,Essex County,NJ,NA,NA,31.447963800904976
07032,Hudson County,NJ,NA,NA,66.9683257918552
07090,Union County,NJ,NA,NA,43.665158371040725
07110,Essex County,NJ,NA,NA,57.23981900452488
07202,Union County,NJ,NA,NA,25.339366515837103
07208,Union County,NJ,NA,24.667931688804554,NA
07501,Passaic County,NJ,NA,93.92789373814043,NA
07646,Bergen County,NJ,NA,71.91650853889942,NA
07731,Monmouth County,NJ,NA,41.935483870967744,NA
08009,Camden County,NJ,NA,NA,87.10407239819004
08028,Gloucester County,NJ,21.40221402214022,NA,NA
08053,Burlington County,NJ,NA,29.22201138519924,14.027149321266968
08068,Burlington County,NJ,NA,NA,99.09502262443439
08104,Camden County,NJ,2.214022140221402,NA,NA
08203,Atlantic County,NJ,NA,NA,50.2262443438914
08302,Cumberland County,NJ,NA,NA,24.660633484162897
08527,Ocean County,NJ,13.653136531365314,NA,NA
08759,Ocean County,NJ,NA,NA,0
08807,Somerset County,NJ,NA,NA,37.10407239819005
08861,Middlesex County,NJ,2.952029520295203,NA,NA
87109,Bernalillo County,NM,20.29520295202952,NA,10.180995475113122
87110,Bernalillo County,NM,NA,10.246679316888045,NA
87114,Bernalillo County,NM,NA,16.129032258064516,NA
87120,Bernalillo County,NM,NA,15.559772296015181,NA
87313,McKinley County,NM,NA,NA,100
88063,Doa Ana County,NM,73.80073800738008,NA,NA
88240,Lea County,NM,10.33210332103321,NA,NA
10009,New York County,NY,NA,NA,3.619909502262444
10030,New York County,NY,25.830258302583026,NA,NA
10075,New York County,NY,NA,NA,16.7420814479638
10301,Richmond County,NY,NA,12.333965844402277,NA
10452,Bronx County,NY,NA,NA,44.79638009049774
10456,Bronx County,NY,0.36900369003690037,0.18975332068311196,NA
10457,Bronx County,NY,1.107011070110701,NA,NA
10468,Bronx County,NY,2.5830258302583027,NA,NA
10509,Putnam County,NY,NA,60.53130929791271,NA
10924,Orange County,NY,NA,93.7381404174573,NA
10950,Orange County,NY,69.37269372693727,NA,NA
10960,Rockland County,NY,NA,NA,75.56561085972851
11207,Kings County,NY,NA,1.1385199240986716,NA
11221,Kings County,NY,4.428044280442804,NA,NA
11358,Queens County,NY,NA,60.72106261859582,NA
11368,Queens County,NY,NA,NA,14.25339366515837
11372,Queens County,NY,NA,24.28842504743833,NA
11435,Queens County,NY,NA,17.267552182163186,NA
11542,Nassau County,NY,64.20664206642066,NA,NA
11580,Nassau County,NY,61.99261992619927,NA,NA
11746,Suffolk County,NY,NA,NA,8.597285067873303
11901,Suffolk County,NY,55.35055350553506,NA,NA
12065,Saratoga County,NY,NA,NA,21.49321266968326
12078,Fulton County,NY,78.22878228782287,9.487666034155598,NA
12180,Rensselaer County,NY,NA,NA,8.144796380090497
12182,Rensselaer County,NY,54.24354243542435,NA,NA
12189,Albany County,NY,NA,68.1214421252372,NA
12303,Schenectady County,NY,NA,44.59203036053131,NA
12804,Warren County,NY,NA,11.195445920303605,NA
12866,Saratoga County,NY,NA,10.436432637571158,NA
12901,Clinton County,NY,NA,7.020872865275142,NA
12918,Clinton County,NY,NA,98.86148007590133,NA
12946,Essex County,NY,38.74538745387454,NA,NA
12953,Franklin County,NY,NA,21.25237191650854,NA
12974,Essex County,NY,92.25092250922509,NA,NA
13078,Onondaga County,NY,NA,NA,88.46153846153845
13090,Onondaga County,NY,NA,32.25806451612903,NA
13165,Seneca County,NY,29.88929889298893,NA,NA
13205,Onondaga County,NY,NA,NA,76.92307692307693
13617,St. Lawrence County,NY,NA,38.1404174573055,NA
13662,St. Lawrence County,NY,12.177121771217712,53.32068311195446,NA
13760,Broome County,NY,NA,0.3795066413662239,NA
13801,Chenango County,NY,NA,98.4819734345351,NA
13838,Delaware County,NY,NA,82.73244781783681,NA
13856,Delaware County,NY,NA,NA,65.38461538461539
13901,Broome County,NY,6.273062730627306,NA,NA
14051,Erie County,NY,45.018450184501845,50.094876660341555,NA
14075,Erie County,NY,NA,NA,10.633484162895927
14092,Niagara County,NY,NA,NA,48.19004524886878
14094,Niagara County,NY,NA,3.0360531309297913,NA
14136,Chautauqua County,NY,NA,97.91271347248576,NA
14201,Erie County,NY,NA,75.52182163187857,NA
14227,Erie County,NY,27.30627306273063,NA,NA
14424,Ontario County,NY,NA,0.9487666034155597,NA
14450,Monroe County,NY,NA,NA,5.203619909502263
14468,Monroe County,NY,NA,22.58064516129032,NA
14522,Wayne County,NY,NA,NA,92.0814479638009
14564,Ontario County,NY,NA,NA,37.55656108597285
14572,Steuben County,NY,NA,77.22960151802657,NA
14747,Chautauqua County,NY,96.6789667896679,NA,NA
14901,Chemung County,NY,33.94833948339483,NA,NA
14905,Chemung County,NY,NA,71.34724857685009,NA
27030,Surry County,NC,NA,2.2770398481973433,NA
27214,Guilford County,NC,NA,NA,77.82805429864254
27278,Orange County,NC,58.30258302583026,NA,NA
27295,Davidson County,NC,NA,NA,1.583710407239819
27302,Alamance County,NC,NA,13.282732447817835,NA
27370,Randolph County,NC,NA,63.18785578747628,NA
27522,Granville County,NC,NA,76.85009487666035,NA
27529,Wake County,NC,NA,17.647058823529413,NA
27542,Johnston County,NC,73.43173431734317,NA,NA
27592,Wake County,NC,NA,76.0910815939279,NA
27615,Wake County,NC,43.91143911439114,NA,NA
27703,Durham County,NC,14.760147601476014,NA,NA
27803,Nash County,NC,NA,NA,80.31674208144797
27886,Edgecombe County,NC,NA,46.48956356736243,NA
27889,Beaufort County,NC,NA,26.37571157495256,NA
27893,Wilson County,NC,NA,26.755218216318788,NA
28012,Gaston County,NC,NA,55.21821631878557,NA
28078,Mecklenburg County,NC,NA,NA,28.95927601809955
28112,Union County,NC,NA,NA,33.93665158371041
28115,Iredell County,NC,NA,70.01897533206831,NA
28124,Cabarrus County,NC,NA,NA,94.79638009049773
28160,Rutherford County,NC,NA,NA,97.05882352941177
28211,Mecklenburg County,NC,65.68265682656826,NA,NA
28227,Mecklenburg County,NC,NA,NA,25.1131221719457
28304,Cumberland County,NC,NA,NA,48.86877828054298
28311,Cumberland County,NC,61.62361623616236,NA,NA
28334,Sampson County,NC,NA,33.017077798861486,NA
28364,Robeson County,NC,NA,60.91081593927894,NA
28374,Moore County,NC,NA,NA,12.44343891402715
28376,Hoke County,NC,NA,NA,44.11764705882353
28379,Richmond County,NC,NA,30.36053130929791,NA
28390,Harnett County,NC,NA,NA,69.90950226244344
28398,Duplin County,NC,NA,92.40986717267552,NA
28409,New Hanover County,NC,NA,18.216318785578746,NA
28504,Lenoir County,NC,NA,64.51612903225806,NA
28540,Onslow County,NC,NA,29.601518026565465,NA
28557,Carteret County,NC,NA,NA,51.58371040723983
28602,Catawba County,NC,24.354243542435423,43.643263757115754,NA
28630,Caldwell County,NC,35.79335793357934,NA,NA
28721,Haywood County,NC,NA,78.17836812144212,NA
58075,Richland County,ND,NA,95.06641366223909,NA
58501,Burleigh County,ND,NA,NA,8.3710407239819
43017,Franklin County,OH,NA,NA,32.35294117647059
43040,Union County,OH,28.782287822878228,NA,NA
43110,Franklin County,OH,NA,NA,69.45701357466064
43119,Franklin County,OH,NA,52.18216318785579,NA
43207,Franklin County,OH,NA,NA,17.873303167420815
43209,Franklin County,OH,52.398523985239855,NA,NA
43212,Franklin County,OH,NA,92.78937381404174,NA
43224,Franklin County,OH,49.815498154981555,NA,NA
43230,Franklin County,OH,18.81918819188192,NA,NA
43302,Marion County,OH,NA,4.174573055028463,NA
43526,Defiance County,OH,50.92250922509225,NA,NA
43551,Wood County,OH,NA,NA,11.990950226244344
43560,Lucas County,OH,NA,51.802656546489565,NA
43567,Fulton County,OH,NA,40.60721062618596,NA
43607,Lucas County,OH,9.96309963099631,NA,NA
43616,Lucas County,OH,NA,11.76470588235294,NA
43713,Belmont County,OH,63.09963099630996,NA,NA
43844,Coshocton County,OH,92.619926199262,NA,NA
43920,Columbiana County,OH,NA,NA,12.669683257918551
44001,Lorain County,OH,NA,5.313092979127135,NA
44003,Ashtabula County,OH,NA,78.55787476280834,NA
44011,Lorain County,OH,NA,29.03225806451613,NA
44053,Lorain County,OH,NA,NA,28.28054298642534
44067,Summit County,OH,NA,19.924098671726757,NA
44076,Ashtabula County,OH,80.07380073800738,NA,NA
44077,Lake County,OH,5.904059040590406,43.45351043643264,NA
44105,Cuyahoga County,OH,1.8450184501845017,NA,NA
44108,Cuyahoga County,OH,4.797047970479705,NA,16.968325791855204
44109,Cuyahoga County,OH,7.380073800738007,NA,NA
44111,Cuyahoga County,OH,NA,3.984819734345351,NA
44138,Cuyahoga County,OH,NA,62.61859582542695,NA
44203,Summit County,OH,NA,9.108159392789373,NA
44221,Summit County,OH,17.343173431734318,NA,NA
44286,Summit County,OH,NA,NA,85.52036199095022
44310,Summit County,OH,61.254612546125465,24.09867172675522,NA
44312,Summit County,OH,NA,41.555977229601524,NA
44320,Summit County,OH,NA,19.165085388994306,NA
44410,Trumbull County,OH,NA,NA,49.547511312217196
44420,Trumbull County,OH,NA,54.459203036053125,NA
44601,Stark County,OH,11.439114391143912,NA,NA
44685,Summit County,OH,NA,25.047438330170777,23.981900452488688
44691,Wayne County,OH,NA,7.2106261859582546,NA
44709,Stark County,OH,NA,48.38709677419355,NA
45039,Warren County,OH,NA,67.55218216318785,NA
45121,Brown County,OH,NA,83.11195445920305,NA
45133,Highland County,OH,NA,NA,18.099547511312217
45150,Clermont County,OH,70.84870848708486,NA,NA
45157,Clermont County,OH,NA,NA,95.92760180995475
45177,Clinton County,OH,NA,37.381404174573056,NA
45229,Hamilton County,OH,NA,35.86337760910816,NA
45231,Hamilton County,OH,12.546125461254611,NA,NA
45255,Hamilton County,OH,NA,47.24857685009488,NA
45322,Montgomery County,OH,NA,50.853889943074,NA
45365,Shelby County,OH,NA,15.749525616698293,NA
45373,Miami County,OH,NA,NA,33.710407239819006
45405,Montgomery County,OH,26.937269372693727,89.75332068311197,NA
45601,Ross County,OH,1.4760147601476015,NA,NA
45638,Lawrence County,OH,NA,NA,23.30316742081448
45662,Scioto County,OH,NA,3.225806451612903,NA
45663,Scioto County,OH,NA,64.89563567362428,NA
45750,Washington County,OH,NA,0.7590132827324478,NA
45810,Hardin County,OH,NA,83.68121442125236,NA
45822,Mercer County,OH,NA,36.24288425047438,NA
45832,Van Wert County,OH,91.5129151291513,NA,NA
45891,Van Wert County,OH,NA,27.893738140417458,NA
73008,Oklahoma County,OK,NA,NA,43.21266968325792
73012,Oklahoma County,OK,51.66051660516605,NA,NA
73020,Oklahoma County,OK,NA,66.03415559772297,NA
73099,Canadian County,OK,NA,7.590132827324478,NA
73127,Oklahoma County,OK,55.71955719557196,NA,NA
73505,Comanche County,OK,NA,NA,3.3936651583710407
73601,Custer County,OK,66.42066420664207,NA,NA
73703,Garfield County,OK,NA,18.975332068311197,NA
74012,Tulsa County,OK,NA,NA,9.049773755656108
74020,Pawnee County,OK,86.34686346863468,NA,NA
74037,Tulsa County,OK,81.18081180811808,NA,NA
74055,Tulsa County,OK,NA,32.25806451612903,NA
74114,Tulsa County,OK,NA,67.93168880455408,NA
74137,Tulsa County,OK,78.96678966789668,NA,NA
74631,Kay County,OK,NA,90.70208728652752,NA
74868,Seminole County,OK,NA,65.46489563567363,NA
97045,Clackamas County,OR,17.712177121771216,NA,NA
97048,Columbia County,OR,NA,92.97912713472486,NA
97058,Wasco County,OR,NA,NA,38.009049773755656
97070,Clackamas County,OR,NA,62.428842504743834,NA
97078,Washington County,OR,NA,NA,83.710407239819
97103,Clatsop County,OR,57.93357933579336,NA,20.361990950226243
97206,Multnomah County,OR,NA,26.944971537001898,NA
97209,Multnomah County,OR,41.32841328413284,NA,NA
97321,Linn County,OR,NA,27.703984819734345,NA
97424,Lane County,OR,NA,NA,34.61538461538461
97462,Douglas County,OR,NA,NA,99.5475113122172
97477,Lane County,OR,NA,34.53510436432637,NA
97479,Douglas County,OR,NA,NA,47.737556561085974
97526,Josephine County,OR,NA,72.86527514231499,NA
97537,Jackson County,OR,NA,NA,86.65158371040724
97624,Klamath County,OR,NA,NA,94.11764705882352
15066,Beaver County,PA,NA,NA,65.83710407239819
15108,Allegheny County,PA,NA,NA,9.276018099547512
15208,Allegheny County,PA,56.82656826568265,NA,NA
15209,Allegheny County,PA,NA,73.43453510436433,NA
15221,Allegheny County,PA,NA,NA,16.289592760180994
15238,Allegheny County,PA,NA,NA,35.97285067873303
15601,Westmoreland County,PA,NA,1.5180265654648957,NA
15683,Westmoreland County,PA,NA,63.75711574952562,NA
15857,Elk County,PA,NA,10.056925996204933,NA
15963,Somerset County,PA,NA,59.39278937381404,NA
16001,Butler County,PA,NA,NA,21.71945701357466
16056,Butler County,PA,NA,92.0303605313093,NA
16148,Mercer County,PA,NA,78.74762808349146,6.561085972850679
16301,Venango County,PA,NA,44.4022770398482,NA
16652,Huntingdon County,PA,NA,NA,19.457013574660635
16841,Centre County,PA,NA,NA,78.28054298642535
17011,Cumberland County,PA,29.15129151291513,NA,NA
17059,Juniata County,PA,NA,NA,50.678733031674206
17067,Lebanon County,PA,NA,NA,99.77375565610859
17222,Franklin County,PA,79.70479704797047,NA,NA
17331,York County,PA,NA,1.3282732447817838,NA
17350,Adams County,PA,NA,NA,28.50678733031674
17408,York County,PA,NA,NA,51.13122171945701
17756,Lycoming County,PA,NA,NA,78.95927601809954
17821,Montour County,PA,NA,16.318785578747626,NA
18036,Lehigh County,PA,NA,37.76091081593928,NA
18360,Monroe County,PA,NA,13.851992409867172,NA
18518,Lackawanna County,PA,NA,NA,88.91402714932126
18643,Luzerne County,PA,57.564575645756456,NA,NA
18702,Luzerne County,PA,NA,31.309297912713475,NA
18706,Luzerne County,PA,NA,38.70967741935484,NA
19064,Delaware County,PA,NA,NA,40.27149321266968
19067,Bucks County,PA,NA,NA,11.538461538461538
19070,Delaware County,PA,NA,94.68690702087287,NA
19133,Philadelphia County,PA,NA,NA,97.96380090497738
19135,Philadelphia County,PA,NA,NA,64.93212669683258
19139,Philadelphia County,PA,6.642066420664207,NA,NA
19150,Philadelphia County,PA,NA,NA,36.87782805429865
19152,Philadelphia County,PA,NA,22.770398481973434,NA
19380,Chester County,PA,NA,NA,3.167420814479638
19403,Montgomery County,PA,21.771217712177123,NA,NA
19460,Chester County,PA,NA,26.185958254269448,NA
19464,Montgomery County,PA,8.856088560885608,8.159392789373813,NA
19465,Chester County,PA,NA,95.63567362428842,88.68778280542986
19468,Montgomery County,PA,NA,NA,45.92760180995475
19510,Berks County,PA,92.98892988929889,NA,NA
19518,Berks County,PA,52.767527675276746,85.19924098671727,NA
19525,Montgomery County,PA,71.58671586715867,94.30740037950665,74.6606334841629
19540,Berks County,PA,NA,NA,75.7918552036199
19601,Berks County,PA,5.166051660516605,NA,NA
02809,Bristol County,RI,NA,37.19165085388994,NA
02830,Providence County,RI,NA,NA,89.59276018099548
02878,Newport County,RI,NA,56.166982922201136,NA
02882,Washington County,RI,NA,NA,71.49321266968326
02886,Kent County,RI,NA,NA,7.6923076923076925
02907,Providence County,RI,NA,55.40796963946869,NA
29180,Fairfield County,SC,80.81180811808119,NA,82.57918552036199
29210,Richland County,SC,46.125461254612546,NA,NA
29223,Richland County,SC,26.56826568265683,NA,NA
29407,Charleston County,SC,NA,NA,15.158371040723981
29410,Berkeley County,SC,NA,NA,70.81447963800905
29412,Charleston County,SC,NA,23.33965844402277,NA
29445,Berkeley County,SC,28.044280442804425,64.89563567362428,NA
29466,Charleston County,SC,53.874538745387454,NA,NA
29483,Dorchester County,SC,NA,22.2011385199241,NA
29512,Marlboro County,SC,59.040590405904055,NA,NA
29541,Florence County,SC,81.54981549815497,NA,NA
29550,Darlington County,SC,NA,23.908918406072104,38.68778280542987
29572,Horry County,SC,NA,NA,93.66515837104072
29575,Horry County,SC,NA,62.239089184060724,NA
29588,Horry County,SC,39.85239852398524,NA,NA
29605,Greenville County,SC,NA,NA,26.47058823529412
29611,Greenville County,SC,NA,NA,26.923076923076923
29621,Anderson County,SC,NA,56.92599620493358,NA
29625,Anderson County,SC,NA,31.499051233396585,NA
29697,Anderson County,SC,NA,70.96774193548387,NA
29803,Aiken County,SC,NA,NA,74.2081447963801
29909,Beaufort County,SC,NA,18.026565464895636,NA
57252,Grant County,SD,NA,91.27134724857684,NA
57401,Brown County,SD,NA,9.297912713472485,1.1312217194570136
37013,Davidson County,TN,NA,NA,73.52941176470588
37033,Hickman County,TN,NA,NA,84.84162895927602
37040,Montgomery County,TN,NA,NA,66.289592760181
37058,Stewart County,TN,NA,86.33776091081594,NA
37086,Rutherford County,TN,NA,NA,83.48416289592761
37110,Warren County,TN,NA,NA,26.244343891402718
37127,Rutherford County,TN,NA,80.83491461100569,NA
37167,Rutherford County,TN,NA,64.13662239089184,NA
37190,Cannon County,TN,NA,88.04554079696395,NA
37334,Lincoln County,TN,NA,NA,44.57013574660634
37363,Hamilton County,TN,NA,NA,56.10859728506787
37381,Rhea County,TN,NA,70.39848197343453,NA
37411,Hamilton County,TN,42.066420664206646,NA,NA
37419,Hamilton County,TN,NA,94.11764705882352,NA
37620,Sullivan County,TN,NA,54.64895635673624,15.610859728506787
37643,Carter County,TN,NA,40.03795066413662,NA
37660,Sullivan County,TN,NA,NA,42.76018099547511
37665,Sullivan County,TN,NA,NA,85.29411764705883
37743,Greene County,TN,NA,29.411764705882355,NA
37748,Roane County,TN,NA,33.586337760910816,NA
37763,Roane County,TN,NA,NA,53.619909502262445
37764,Sevier County,TN,NA,81.97343453510436,NA
37772,Loudon County,TN,78.22878228782287,NA,NA
37804,Blount County,TN,NA,20.683111954459203,NA
37807,Union County,TN,NA,83.49146110056927,NA
37821,Cocke County,TN,NA,33.396584440227706,NA
37857,Hawkins County,TN,NA,42.125237191650854,NA
37876,Sevier County,TN,NA,NA,35.06787330316742
37890,Jefferson County,TN,NA,84.25047438330171,NA
37912,Knox County,TN,NA,NA,57.9185520361991
37917,Knox County,TN,NA,NA,25.565610859728505
37921,Knox County,TN,31.73431734317343,NA,NA
37932,Knox County,TN,NA,NA,91.17647058823529
38111,Shelby County,TN,NA,49.146110056926,NA
38134,Shelby County,TN,NA,58.63377609108159,NA
38225,Weakley County,TN,NA,91.65085388994308,NA
38305,Madison County,TN,NA,NA,14.705882352941178
38401,Maury County,TN,NA,NA,20.13574660633484
38485,Wayne County,TN,NA,92.22011385199241,NA
38583,White County,TN,28.413284132841326,NA,NA
75006,Dallas County,TX,NA,NA,27.37556561085973
75042,Dallas County,TX,NA,68.3111954459203,NA
75044,Dallas County,TX,83.76383763837639,NA,NA
75098,Collin County,TX,NA,39.84819734345351,NA
75248,Dallas County,TX,NA,NA,34.16289592760181
75402,Hunt County,TX,77.85977859778598,NA,NA
75494,Wood County,TX,NA,71.72675521821633,NA
75604,Gregg County,TX,NA,61.48007590132827,NA
75644,Upshur County,TX,NA,NA,75.1131221719457
75706,Smith County,TX,63.46863468634686,NA,NA
75758,Henderson County,TX,NA,NA,59.04977375565611
75785,Cherokee County,TX,NA,59.96204933586338,NA
75790,Van Zandt County,TX,91.88191881918819,NA,NA
75803,Anderson County,TX,NA,51.992409867172675,NA
75862,Trinity County,TX,87.08487084870849,NA,NA
76063,Tarrant County,TX,NA,14.61100569259962,NA
76078,Wise County,TX,NA,96.58444022770398,NA
76086,Parker County,TX,62.73062730627307,NA,NA
76105,Tarrant County,TX,NA,NA,77.37556561085974
76107,Tarrant County,TX,NA,NA,63.57466063348416
76137,Tarrant County,TX,57.19557195571956,NA,NA
76230,Montague County,TX,NA,NA,80.54298642533936
76548,Bell County,TX,NA,18.59582542694497,NA
77004,Harris County,TX,NA,46.29981024667932,NA
77011,Harris County,TX,NA,77.60910815939279,NA
77044,Harris County,TX,NA,64.70588235294117,NA
77062,Harris County,TX,85.23985239852398,NA,NA
77084,Harris County,TX,NA,25.806451612903224,NA
77351,Polk County,TX,NA,24.667931688804554,NA
77375,Harris County,TX,NA,NA,45.70135746606335
77379,Harris County,TX,NA,NA,10.85972850678733
77396,Harris County,TX,NA,70.77798861480076,NA
77450,Harris County,TX,NA,NA,40.723981900452486
77510,Galveston County,TX,NA,NA,56.10859728506787
77530,Harris County,TX,NA,NA,87.55656108597285
77541,Brazoria County,TX,NA,58.82352941176471,NA
77586,Harris County,TX,53.13653136531366,NA,NA
77651,Jefferson County,TX,NA,NA,76.01809954751131
77845,Brazos County,TX,NA,6.451612903225806,NA
77905,Victoria County,TX,64.57564575645756,NA,NA
78022,Live Oak County,TX,NA,NA,97.73755656108597
78028,Kerr County,TX,NA,17.077798861480076,NA
78041,Webb County,TX,NA,NA,26.69683257918552
78109,Bexar County,TX,NA,NA,84.84162895927602
78155,Guadalupe County,TX,NA,33.96584440227704,33.03167420814479
78164,DeWitt County,TX,NA,NA,94.34389140271493
78201,Bexar County,TX,NA,NA,41.6289592760181
78213,Bexar County,TX,NA,67.17267552182163,NA
78240,Bexar County,TX,NA,62.99810246679317,NA
78526,Cameron County,TX,NA,66.22390891840607,NA
78539,Hidalgo County,TX,NA,70.58823529411765,NA
78641,Williamson County,TX,NA,19.734345351043643,NA
78723,Travis County,TX,NA,NA,82.80542986425338
79118,Randall County,TX,NA,NA,97.28506787330316
79403,Lubbock County,TX,NA,52.94117647058824,NA
79601,Taylor County,TX,NA,98.292220113852,NA
79714,Andrews County,TX,60.147601476014756,NA,NA
79756,Ward County,TX,NA,86.71726755218216,NA
79845,Presidio County,TX,99.2619926199262,NA,NA
79915,El Paso County,TX,NA,NA,13.800904977375566
79936,El Paso County,TX,15.498154981549817,NA,NA
79938,El Paso County,TX,NA,88.9943074003795,NA
84020,Salt Lake County,UT,47.97047970479705,88.61480075901328,NA
84045,Utah County,UT,NA,NA,95.70135746606336
84070,Salt Lake County,UT,NA,NA,38.46153846153847
84084,Salt Lake County,UT,NA,87.66603415559773,NA
84109,Salt Lake County,UT,NA,NA,30.09049773755656
84335,Cache County,UT,NA,NA,90.27149321266968
84651,Utah County,UT,NA,81.59392789373814,NA
84780,Washington County,UT,NA,50.47438330170778,NA
05478,Franklin County,VT,58.671586715867164,NA,NA
20147,Loudoun County,VA,NA,59.01328273244781,NA
20190,Fairfax County,VA,NA,94.49715370018976,NA
20191,Fairfax County,VA,75.27675276752768,NA,NA
22203,Arlington County,VA,NA,NA,72.85067873303167
22406,Stafford County,VA,NA,80.07590132827325,NA
22701,Culpeper County,VA,NA,NA,28.054298642533936
22801,Harrisonburg city,VA,46.86346863468634,NA,NA
22812,Rockingham County,VA,NA,NA,62.89592760180995
22815,Rockingham County,VA,56.08856088560885,NA,NA
22835,Page County,VA,NA,NA,42.53393665158371
22980,Waynesboro city,VA,NA,5.88235294117647,NA
23139,Powhatan County,VA,72.69372693726937,NA,NA
23168,James City County,VA,NA,97.72296015180265,NA
23223,Henrico County,VA,NA,13.092979127134724,NA
23236,Chesterfield County,VA,NA,NA,58.82352941176471
23325,Chesapeake city,VA,NA,66.22390891840607,NA
23421,Accomack County,VA,97.04797047970479,NA,NA
23430,Isle of Wight County,VA,69.74169741697416,NA,NA
23434,Suffolk city,VA,19.18819188191882,11.005692599620494,NA
23453,Virginia Beach city,VA,NA,NA,60.633484162895925
23456,Virginia Beach city,VA,NA,9.67741935483871,NA
23606,Newport News city,VA,NA,30.170777988614798,NA
23661,Hampton city,VA,NA,65.46489563567363,NA
23662,Poquoson city,VA,NA,NA,55.42986425339367
23666,Hampton city,VA,NA,NA,7.239819004524888
23669,Hampton city,VA,25.461254612546124,NA,NA
23707,Portsmouth city,VA,NA,41.36622390891841,NA
23936,Buckingham County,VA,NA,NA,90.04524886877829
24012,Roanoke city,VA,NA,NA,30.542986425339368
24078,Henry County,VA,NA,87.09677419354838,NA
24141,Radford city,VA,NA,81.02466793168881,NA
24153,Salem city,VA,NA,NA,17.194570135746606
24201,Bristol city,VA,NA,45.35104364326376,45.47511312217195
24219,Wise County,VA,NA,74.38330170777988,NA
24293,Wise County,VA,NA,94.87666034155598,NA
24354,Smyth County,VA,44.28044280442804,NA,45.022624434389144
24382,Wythe County,VA,NA,NA,71.71945701357465
24422,Alleghany County,VA,84.87084870848709,NA,NA
24440,Augusta County,VA,95.9409594095941,NA,NA
24501,Lynchburg city,VA,30.996309963099634,NA,NA
24523,Bedford County,VA,35.42435424354243,NA,NA
24572,Amherst County,VA,NA,84.81973434535104,NA
24588,Campbell County,VA,82.28782287822878,NA,NA
98011,King County,WA,NA,NA,49.095022624434385
98022,King County,WA,NA,25.047438330170777,NA
98031,King County,WA,NA,NA,44.34389140271493
98053,King County,WA,NA,NA,50
98055,King County,WA,NA,72.48576850094877,NA
98056,King County,WA,NA,NA,62.66968325791855
98102,King County,WA,NA,NA,98.19004524886877
98110,Kitsap County,WA,NA,39.658444022770404,NA
98249,Island County,WA,97.41697416974169,NA,NA
98258,Snohomish County,WA,NA,81.40417457305503,NA
98277,Island County,WA,NA,28.27324478178368,NA
98310,Kitsap County,WA,NA,69.63946869070209,NA
98363,Clallam County,WA,NA,40.79696394686907,NA
98371,Pierce County,WA,NA,57.874762808349146,NA
98407,Pierce County,WA,NA,48.76660341555977,NA
98499,Pierce County,WA,NA,NA,46.380090497737555
98520,Grays Harbor County,WA,NA,48.57685009487666,NA
98584,Mason County,WA,NA,21.44212523719165,NA
98591,Lewis County,WA,NA,97.53320683111954,NA
98606,Clark County,WA,93.72693726937268,NA,NA
98620,Klickitat County,WA,79.33579335793358,90.89184060721063,NA
98626,Cowlitz County,WA,NA,34.9146110056926,NA
98801,Chelan County,WA,NA,8.538899430740038,NA
99208,Spokane County,WA,NA,NA,11.085972850678733
99352,Benton County,WA,NA,NA,21.266968325791854
99362,Walla Walla County,WA,NA,NA,8.823529411764707
20007,District of Columbia,DC,NA,69.25996204933587,NA
20019,District of Columbia,DC,7.011070110701106,NA,NA
20032,District of Columbia,DC,NA,85.7685009487666,NA
24739,Mercer County,WV,67.89667896678966,NA,NA
25387,Kanawha County,WV,NA,NA,92.3076923076923
25443,Jefferson County,WV,89.66789667896678,NA,NA
25526,Putnam County,WV,NA,NA,35.74660633484163
25705,Cabell County,WV,NA,22.960151802656547,NA
26003,Ohio County,WV,NA,3.415559772296015,NA
26037,Brooke County,WV,NA,69.8292220113852,NA
26047,Hancock County,WV,NA,57.1157495256167,NA
26150,Wood County,WV,76.75276752767527,NA,NA
26201,Upshur County,WV,NA,NA,14.93212669683258
26416,Barbour County,WV,NA,42.314990512333964,NA
26508,Monongalia County,WV,8.487084870848708,7.400379506641366,16.515837104072396
26554,Marion County,WV,NA,NA,2.941176470588235
53051,Waukesha County,WI,NA,NA,11.312217194570136
53080,Ozaukee County,WI,95.20295202952029,NA,NA
53095,Washington County,WI,NA,NA,24.20814479638009
53140,Kenosha County,WI,NA,26.56546489563567,NA
53158,Kenosha County,WI,23.616236162361623,NA,NA
53186,Waukesha County,WI,NA,38.89943074003795,NA
53202,Milwaukee County,WI,NA,46.67931688804554,NA
53216,Milwaukee County,WI,10.70110701107011,20.30360531309298,NA
53223,Milwaukee County,WI,NA,11.385199240986717,NA
53224,Milwaukee County,WI,39.48339483394834,NA,NA
53402,Racine County,WI,NA,3.415559772296015,NA
53405,Racine County,WI,NA,5.502846299810247,NA
53406,Racine County,WI,NA,2.6565464895635675,1.809954751131222
53511,Rock County,WI,11.808118081180812,NA,0.22624434389140274
53523,Dane County,WI,NA,83.11195445920305,NA
53545,Rock County,WI,NA,21.821631878557877,NA
53546,Rock County,WI,NA,6.072106261859583,NA
53563,Rock County,WI,NA,NA,65.61085972850678
53581,Richland County,WI,NA,NA,71.26696832579185
53703,Dane County,WI,NA,NA,89.81900452488688
53713,Dane County,WI,NA,NA,39.366515837104075
53965,Sauk County,WI,NA,78.36812144212524,NA
54001,Polk County,WI,NA,NA,52.71493212669684
54162,Brown County,WI,NA,95.2561669829222,NA
54166,Shawano County,WI,72.32472324723247,NA,47.963800904977376
54235,Door County,WI,NA,NA,19.90950226244344
54451,Taylor County,WI,85.97785977859779,NA,52.488687782805435
54487,Lincoln County,WI,90.40590405904058,NA,NA
54548,Oneida County,WI,NA,NA,80.99547511312217
54650,La Crosse County,WI,NA,96.01518026565465,NA
54728,Barron County,WI,NA,88.42504743833017,NA
54915,Outagamie County,WI,38.00738007380074,NA,57.01357466063348
54935,Fond du Lac County,WI,NA,NA,4.298642533936651
54937,Fond du Lac County,WI,NA,54.26944971537002,NA
54982,Waushara County,WI,88.92988929889299,NA,NA
82414,Park County,WY,NA,NA,40.497737556561084
