ZipCode,county,state,Adult,Retirement,Geriatric
35228,Jefferson County,AL,67.22222222222223,NA,NA
35674,Colbert County,AL,NA,56.97674418604651,NA
35750,Madison County,AL,NA,64.34108527131784,NA
35811,Madison County,AL,NA,NA,42.78606965174129
35954,Etowah County,AL,NA,NA,85.07462686567165
36067,Autauga County,AL,NA,NA,76.11940298507463
36604,Mobile County,AL,NA,91.08527131782945,NA
99576,Dillingham Census Area,AK,95,NA,NA
99835,Sitka City and Borough,AK,NA,94.57364341085271,NA
85008,Maricopa County,AZ,NA,81.3953488372093,NA
85225,Maricopa County,AZ,51.66666666666667,NA,NA
85249,Maricopa County,AZ,NA,42.248062015503876,NA
85255,Maricopa County,AZ,NA,50,NA
85383,Maricopa County,AZ,NA,NA,82.58706467661692
85634,Pima County,AZ,NA,NA,88.05970149253731
85746,Pima County,AZ,18.333333333333332,NA,NA
86503,Apache County,AZ,NA,85.27131782945736,NA
71635,Ashley County,AR,84.44444444444444,NA,NA
72114,Pulaski County,AR,NA,69.76744186046511,NA
90047,Los Angeles County,CA,NA,NA,32.33830845771145
90066,Los Angeles County,CA,NA,36.434108527131784,NA
90680,Orange County,CA,NA,78.29457364341084,NA
91205,Los Angeles County,CA,NA,58.91472868217055,NA
91208,Los Angeles County,CA,NA,NA,78.1094527363184
91214,Los Angeles County,CA,NA,80.23255813953489,NA
91306,Los Angeles County,CA,NA,58.139534883720934,NA
91506,Los Angeles County,CA,NA,NA,83.5820895522388
91739,San Bernardino County,CA,NA,68.6046511627907,NA
91761,San Bernardino County,CA,NA,38.372093023255815,NA
92026,San Diego County,CA,NA,NA,72.636815920398
92028,San Diego County,CA,NA,57.36434108527132,NA
92065,San Diego County,CA,NA,NA,64.6766169154229
92081,San Diego County,CA,91.66666666666666,NA,NA
92082,San Diego County,CA,92.22222222222223,NA,NA
92101,San Diego County,CA,NA,NA,44.776119402985074
92102,San Diego County,CA,NA,67.05426356589147,NA
92120,San Diego County,CA,NA,NA,50.24875621890548
92376,San Bernardino County,CA,11.11111111111111,NA,NA
92407,San Bernardino County,CA,NA,NA,72.13930348258707
92648,Orange County,CA,39.44444444444444,NA,NA
92649,Orange County,CA,NA,31.3953488372093,73.6318407960199
92660,Orange County,CA,NA,92.24806201550388,17.91044776119403
92679,Orange County,CA,67.77777777777779,NA,NA
92708,Orange County,CA,NA,15.891472868217054,NA
92804,Orange County,CA,NA,19.379844961240313,NA
92821,Orange County,CA,69.44444444444444,NA,NA
92831,Orange County,CA,98.33333333333333,NA,NA
92865,Orange County,CA,NA,NA,98.50746268656717
92870,Orange County,CA,NA,NA,20.398009950248756
92883,Riverside County,CA,72.22222222222221,NA,NA
93230,Kings County,CA,NA,16.666666666666664,NA
93535,Los Angeles County,CA,11.666666666666666,NA,NA
93727,Fresno County,CA,NA,27.131782945736433,NA
94010,San Mateo County,CA,NA,NA,13.930348258706468
94063,San Mateo County,CA,NA,47.674418604651166,NA
94116,San Francisco County,CA,NA,41.47286821705426,NA
94121,San Francisco County,CA,NA,NA,15.92039800995025
94124,San Francisco County,CA,NA,20.930232558139537,NA
94133,San Francisco County,CA,NA,NA,67.66169154228857
94303,San Mateo County,CA,NA,NA,34.32835820895522
94306,Santa Clara County,CA,87.77777777777777,NA,NA
94534,Solano County,CA,NA,NA,46.26865671641791
94536,Alameda County,CA,42.77777777777778,NA,27.860696517412936
94591,Solano County,CA,NA,NA,27.363184079601986
94903,Marin County,CA,NA,NA,16.417910447761194
94941,Marin County,CA,NA,48.837209302325576,NA
94965,Marin County,CA,NA,98.44961240310077,NA
95008,Santa Clara County,CA,NA,NA,33.83084577114428
95054,Santa Clara County,CA,85.55555555555556,NA,NA
95122,Santa Clara County,CA,57.77777777777777,NA,NA
95128,Santa Clara County,CA,NA,NA,49.25373134328358
95223,Calaveras County,CA,NA,90.31007751937985,NA
95358,Stanislaus County,CA,NA,57.751937984496124,NA
95409,Sonoma County,CA,NA,NA,18.90547263681592
95476,Sonoma County,CA,NA,39.922480620155035,NA
95616,Yolo County,CA,NA,73.64341085271317,NA
95667,El Dorado County,CA,NA,NA,4.477611940298507
95693,Sacramento County,CA,NA,89.14728682170544,NA
95709,El Dorado County,CA,NA,NA,90.04975124378109
95747,Placer County,CA,NA,NA,12.935323383084576
95815,Sacramento County,CA,NA,69.37984496124031,NA
95816,Sacramento County,CA,60.55555555555555,NA,NA
95817,Sacramento County,CA,NA,74.4186046511628,NA
95819,Sacramento County,CA,NA,NA,99.00497512437812
95831,Sacramento County,CA,NA,NA,30.845771144278604
95832,Sacramento County,CA,NA,91.47286821705426,NA
95834,Sacramento County,CA,NA,94.96124031007753,NA
80005,Jefferson County,CO,66.11111111111111,NA,NA
80010,Arapahoe County,CO,NA,51.93798449612403,66.16915422885572
80121,Arapahoe County,CO,NA,NA,54.22885572139303
80206,Denver County,CO,NA,71.31782945736434,NA
80209,Denver County,CO,70.55555555555556,NA,NA
80212,Denver County,CO,NA,NA,87.56218905472637
80247,Arapahoe County,CO,NA,NA,41.7910447761194
80920,El Paso County,CO,65.55555555555556,NA,NA
81212,Fremont County,CO,51.11111111111111,NA,NA
06051,Hartford County,CT,NA,18.217054263565892,NA
06451,New Haven County,CT,33.88888888888889,NA,NA
06840,Fairfield County,CT,NA,80.62015503875969,NA
19720,New Castle County,DE,5,NA,NA
32117,Volusia County,FL,NA,NA,41.29353233830846
32210,Duval County,FL,30,NA,NA
32222,Duval County,FL,NA,84.49612403100775,NA
32310,Leon County,FL,73.33333333333333,NA,NA
32413,Bay County,FL,78.88888888888889,NA,NA
33012,Miami-Dade County,FL,NA,24.418604651162788,32.83582089552239
33026,Broward County,FL,86.11111111111111,NA,NA
33028,Broward County,FL,NA,NA,75.12437810945273
33036,Monroe County,FL,NA,NA,99.50248756218906
33054,Miami-Dade County,FL,83.33333333333334,NA,NA
33055,Miami-Dade County,FL,NA,66.27906976744185,NA
33062,Broward County,FL,NA,30.23255813953488,NA
33065,Broward County,FL,NA,59.30232558139535,NA
33125,Miami-Dade County,FL,NA,NA,67.16417910447761
33137,Miami-Dade County,FL,NA,NA,63.681592039801
33140,Miami-Dade County,FL,NA,NA,29.35323383084577
33150,Miami-Dade County,FL,89.44444444444444,NA,NA
33160,Miami-Dade County,FL,NA,NA,23.383084577114428
33174,Miami-Dade County,FL,NA,74.8062015503876,22.388059701492537
33186,Miami-Dade County,FL,59.44444444444444,NA,NA
33418,Palm Beach County,FL,61.111111111111114,NA,NA
33428,Palm Beach County,FL,NA,NA,23.88059701492537
33432,Palm Beach County,FL,NA,53.100775193798455,NA
33487,Palm Beach County,FL,90,NA,NA
33496,Palm Beach County,FL,77.77777777777779,NA,NA
33756,Pinellas County,FL,NA,44.18604651162791,NA
33810,Polk County,FL,37.22222222222222,NA,NA
33844,Polk County,FL,NA,40.310077519379846,NA
33881,Polk County,FL,NA,37.5968992248062,NA
34105,Collier County,FL,NA,NA,47.2636815920398
34109,Collier County,FL,NA,NA,34.82587064676617
34286,Sarasota County,FL,64.44444444444444,NA,NA
34602,Hernando County,FL,NA,97.28682170542635,NA
34691,Pasco County,FL,NA,95.73643410852713,NA
30014,Newton County,GA,NA,34.883720930232556,NA
30028,Forsyth County,GA,NA,62.4031007751938,NA
30035,DeKalb County,GA,NA,52.32558139534884,NA
30040,Forsyth County,GA,NA,18.6046511627907,NA
30068,Cobb County,GA,NA,NA,73.13432835820896
30127,Cobb County,GA,NA,35.27131782945737,NA
30504,Hall County,GA,NA,92.63565891472868,NA
31210,Bibb County,GA,68.33333333333333,NA,NA
31602,Lowndes County,GA,NA,NA,40.79601990049751
39828,Grady County,GA,NA,NA,87.06467661691542
96701,Honolulu County,HI,NA,17.441860465116278,NA
96819,Honolulu County,HI,NA,83.33333333333334,NA
60025,Cook County,IL,NA,6.2015503875969,NA
60047,Lake County,IL,NA,22.868217054263564,NA
60062,Cook County,IL,50,NA,NA
60089,Lake County,IL,NA,12.790697674418606,NA
60115,DeKalb County,IL,52.22222222222223,NA,NA
60302,Cook County,IL,NA,NA,21.890547263681594
60417,Will County,IL,70,NA,NA
60426,Cook County,IL,62.22222222222222,NA,NA
60458,Cook County,IL,NA,73.25581395348837,NA
60462,Cook County,IL,NA,33.33333333333333,NA
60615,Cook County,IL,34.44444444444444,NA,NA
60617,Cook County,IL,NA,2.7131782945736433,NA
60619,Cook County,IL,NA,NA,3.482587064676617
60620,Cook County,IL,8.88888888888889,NA,NA
60640,Cook County,IL,NA,NA,43.78109452736319
60654,Cook County,IL,NA,86.82170542635659,NA
60656,Cook County,IL,82.77777777777777,NA,NA
60714,Cook County,IL,NA,NA,14.925373134328357
60957,Ford County,IL,NA,NA,89.05472636815921
61073,Winnebago County,IL,NA,46.51162790697674,NA
61265,Rock Island County,IL,NA,33.72093023255814,NA
61571,Tazewell County,IL,79.44444444444444,NA,NA
62305,Adams County,IL,NA,66.27906976744185,NA
62526,Macon County,IL,NA,NA,8.955223880597014
46001,Madison County,IN,NA,NA,85.57213930348259
46201,Marion County,IN,26.666666666666668,NA,NA
46342,Lake County,IN,NA,13.953488372093023,NA
46406,Lake County,IN,NA,NA,78.60696517412936
46534,Starke County,IN,61.66666666666667,NA,NA
46901,Howard County,IN,NA,NA,9.950248756218906
47546,Dubois County,IN,NA,43.02325581395349,NA
50595,Hamilton County,IA,NA,NA,74.6268656716418
50662,Fayette County,IA,NA,87.98449612403101,NA
51442,Crawford County,IA,94.44444444444444,NA,NA
52101,Winneshiek County,IA,NA,72.09302325581395,NA
52246,Johnson County,IA,NA,NA,39.30348258706468
52761,Muscatine County,IA,15.555555555555555,NA,NA
66204,Johnson County,KS,NA,NA,65.17412935323384
67212,Sedgwick County,KS,71.11111111111111,NA,NA
67218,Sedgwick County,KS,NA,87.59689922480621,NA
67401,Saline County,KS,NA,21.705426356589147,NA
67846,Finney County,KS,NA,24.031007751937985,NA
40014,Oldham County,KY,76.11111111111111,NA,NA
40212,Jefferson County,KY,35.55555555555556,NA,NA
40291,Jefferson County,KY,NA,17.829457364341085,NA
40502,Fayette County,KY,68.88888888888889,NA,NA
40962,Clay County,KY,27.77777777777778,NA,NA
41004,Bracken County,KY,99.44444444444444,NA,NA
41031,Harrison County,KY,NA,NA,60.19900497512438
42501,Pulaski County,KY,NA,65.11627906976744,NA
42754,Grayson County,KY,NA,45.73643410852713,NA
70122,Orleans Parish,LA,NA,NA,75.62189054726367
70124,Orleans Parish,LA,NA,NA,86.06965174129353
70401,Tangipahoa Parish,LA,NA,NA,58.70646766169154
70445,St. Tammany Parish,LA,63.888888888888886,NA,NA
70501,Lafayette Parish,LA,NA,26.744186046511626,NA
70669,Calcasieu Parish,LA,NA,70.54263565891473,NA
04021,Cumberland County,ME,NA,99.2248062015504,NA
04090,York County,ME,97.22222222222221,NA,NA
04280,Androscoggin County,ME,NA,NA,64.17910447761194
04401,Penobscot County,ME,NA,NA,2.4875621890547266
04605,Hancock County,ME,NA,25.1937984496124,NA
04730,Aroostook County,ME,NA,89.92248062015504,NA
20706,Prince George's County,MD,NA,62.7906976744186,NA
20901,Montgomery County,MD,81.11111111111111,NA,NA
21117,Baltimore County,MD,40.55555555555556,NA,NA
21201,Baltimore city,MD,57.22222222222222,NA,NA
21219,Baltimore County,MD,NA,87.20930232558139,NA
21221,Baltimore County,MD,NA,22.48062015503876,NA
21224,Baltimore city,MD,24.444444444444443,NA,NA
21286,Baltimore County,MD,NA,NA,79.1044776119403
21666,Queen Anne's County,MD,NA,93.4108527131783,NA
01201,Berkshire County,MA,NA,0,NA
01230,Berkshire County,MA,73.88888888888889,NA,NA
01520,Worcester County,MA,54.44444444444444,NA,NA
01566,Worcester County,MA,NA,93.02325581395348,NA
01603,Worcester County,MA,3.888888888888889,NA,NA
01741,Middlesex County,MA,98.88888888888889,NA,NA
01776,Middlesex County,MA,NA,78.68217054263566,NA
01801,Middlesex County,MA,2.7777777777777777,NA,NA
01841,Essex County,MA,27.22222222222222,NA,NA
01945,Essex County,MA,NA,NA,36.318407960199
01960,Essex County,MA,NA,NA,0.9950248756218906
02114,Suffolk County,MA,NA,43.798449612403104,NA
02116,Suffolk County,MA,22.22222222222222,NA,NA
02118,Suffolk County,MA,NA,NA,9.45273631840796
02128,Suffolk County,MA,6.111111111111111,NA,NA
02129,Suffolk County,MA,5.555555555555555,NA,NA
02138,Middlesex County,MA,16.666666666666664,NA,NA
02143,Middlesex County,MA,NA,12.4031007751938,NA
02149,Middlesex County,MA,0,9.689922480620156,NA
02170,Norfolk County,MA,NA,11.24031007751938,31.8407960199005
02180,Middlesex County,MA,NA,23.25581395348837,NA
02351,Plymouth County,MA,NA,25.581395348837212,NA
02360,Plymouth County,MA,NA,0.3875968992248062,2.9850746268656714
02445,Norfolk County,MA,NA,38.759689922480625,NA
02478,Middlesex County,MA,63.33333333333333,NA,NA
02559,Barnstable County,MA,NA,NA,100
02660,Barnstable County,MA,NA,NA,69.65174129353234
02760,Bristol County,MA,NA,NA,51.243781094527364
48021,Macomb County,MI,13.333333333333334,NA,NA
48026,Macomb County,MI,NA,48.44961240310077,NA
48038,Macomb County,MI,NA,NA,47.76119402985074
48042,Macomb County,MI,NA,29.844961240310074,NA
48076,Oakland County,MI,NA,27.906976744186046,NA
48103,Washtenaw County,MI,NA,1.1627906976744187,NA
48114,Livingston County,MI,NA,NA,55.72139303482587
48127,Wayne County,MI,17.77777777777778,NA,NA
48135,Wayne County,MI,NA,25.968992248062015,NA
48152,Wayne County,MI,NA,62.01550387596899,NA
48168,Wayne County,MI,NA,45.348837209302324,NA
48170,Wayne County,MI,NA,3.488372093023256,5.970149253731343
48174,Wayne County,MI,NA,15.503875968992247,NA
48187,Wayne County,MI,48.333333333333336,3.10077519379845,NA
48188,Wayne County,MI,NA,39.53488372093023,NA
48197,Washtenaw County,MI,NA,1.550387596899225,NA
48198,Washtenaw County,MI,22.77777777777778,14.34108527131783,NA
48213,Wayne County,MI,49.44444444444444,NA,NA
48225,Wayne County,MI,NA,72.48062015503875,NA
48230,Wayne County,MI,NA,41.08527131782946,NA
48234,Wayne County,MI,NA,NA,31.343283582089555
48322,Oakland County,MI,NA,NA,7.462686567164178
48336,Oakland County,MI,NA,NA,35.82089552238806
48357,Oakland County,MI,NA,76.74418604651163,NA
48420,Genesee County,MI,80,NA,NA
48430,Genesee County,MI,NA,19.767441860465116,NA
48509,Genesee County,MI,NA,82.55813953488372,NA
48532,Genesee County,MI,85,NA,NA
48609,Saginaw County,MI,78.33333333333333,NA,NA
48642,Midland County,MI,NA,8.527131782945736,NA
48827,Eaton County,MI,52.77777777777778,NA,NA
48840,Ingham County,MI,NA,69.76744186046511,NA
48842,Ingham County,MI,NA,42.63565891472868,NA
49014,Calhoun County,MI,28.333333333333332,NA,NA
49221,Lenawee County,MI,NA,5.813953488372093,NA
49230,Jackson County,MI,NA,56.201550387596896,NA
49321,Kent County,MI,NA,64.72868217054264,NA
49503,Kent County,MI,48.888888888888886,NA,NA
49505,Kent County,MI,32.22222222222222,NA,NA
49509,Kent County,MI,18.88888888888889,NA,NA
55008,Isanti County,MN,76.66666666666667,NA,NA
55009,Goodhue County,MN,NA,NA,61.69154228855721
55104,Ramsey County,MN,21.666666666666668,NA,NA
55347,Hennepin County,MN,72.77777777777777,NA,NA
55407,Hennepin County,MN,NA,NA,57.2139303482587
55410,Hennepin County,MN,NA,NA,79.60199004975125
55413,Hennepin County,MN,NA,94.18604651162791,NA
55415,Hennepin County,MN,NA,98.06201550387597,NA
55418,Hennepin County,MN,38.88888888888889,NA,NA
55429,Hennepin County,MN,17.22222222222222,NA,NA
55803,St. Louis County,MN,NA,36.82170542635659,NA
55901,Olmsted County,MN,NA,NA,16.91542288557214
55902,Olmsted County,MN,NA,67.44186046511628,NA
55921,Houston County,MN,NA,86.43410852713178,NA
56007,Freeborn County,MN,23.333333333333332,9.30232558139535,NA
56073,Brown County,MN,NA,NA,26.368159203980102
56164,Pipestone County,MN,NA,86.04651162790698,NA
56258,Lyon County,MN,NA,NA,46.766169154228855
56537,Otter Tail County,MN,NA,12.015503875968992,NA
39401,Forrest County,MS,43.333333333333336,NA,NA
63021,St. Louis County,MO,NA,NA,12.437810945273633
63113,St. Louis city,MO,NA,90.69767441860465,NA
63118,St. Louis city,MO,NA,NA,84.5771144278607
63119,St. Louis County,MO,96.11111111111111,NA,NA
63379,Lincoln County,MO,NA,32.17054263565892,NA
63385,St. Charles County,MO,NA,NA,53.73134328358209
64060,Clay County,MO,NA,NA,70.1492537313433
64850,Newton County,MO,NA,22.093023255813954,NA
65201,Boone County,MO,56.666666666666664,NA,NA
65712,Lawrence County,MO,NA,NA,93.53233830845771
65714,Christian County,MO,NA,53.48837209302325,NA
65803,Greene County,MO,NA,13.178294573643413,NA
59601,Lewis and Clark County,MT,NA,NA,28.855721393034827
59602,Lewis and Clark County,MT,65,NA,NA
68025,Dodge County,NE,NA,26.356589147286826,NA
68137,Douglas County,NE,NA,55.03875968992248,NA
68144,Douglas County,NE,NA,60.07751937984496,NA
68512,Lancaster County,NE,NA,93.7984496124031,NA
69337,Dawes County,NE,97.77777777777777,NA,NA
89512,Washoe County,NV,NA,NA,95.52238805970148
03063,Hillsborough County,NH,NA,49.224806201550386,NA
03301,Merrimack County,NH,25,NA,NA
07012,Passaic County,NJ,NA,88.37209302325581,NA
07106,Essex County,NJ,7.222222222222221,NA,NA
07109,Essex County,NJ,21.11111111111111,NA,NA
07734,Monmouth County,NJ,30.555555555555557,NA,NA
07920,Somerset County,NJ,NA,NA,68.65671641791045
08077,Burlington County,NJ,45,NA,NA
08525,Mercer County,NJ,NA,100,NA
08758,Ocean County,NJ,NA,NA,70.64676616915423
08822,Hunterdon County,NJ,62.77777777777778,NA,NA
08831,Middlesex County,NJ,NA,10.852713178294573,NA
08861,Middlesex County,NJ,3.3333333333333335,NA,NA
87108,Bernalillo County,NM,NA,6.5891472868217065,NA
87109,Bernalillo County,NM,NA,NA,13.432835820895523
87301,McKinley County,NM,36.11111111111111,NA,NA
87328,McKinley County,NM,95.55555555555556,NA,NA
87506,Santa Fe County,NM,NA,55.42635658914728,NA
88005,Doa Ana County,NM,53.333333333333336,NA,NA
88203,Chaves County,NM,60,NA,NA
10002,New York County,NY,NA,NA,3.9800995024875623
10014,New York County,NY,NA,91.86046511627907,NA
10026,New York County,NY,33.33333333333333,NA,NA
10029,New York County,NY,NA,NA,1.4925373134328357
10032,New York County,NY,NA,8.13953488372093,NA
10040,New York County,NY,44.44444444444444,NA,38.308457711442784
10301,Richmond County,NY,23.88888888888889,NA,NA
10303,Richmond County,NY,50.55555555555556,NA,NA
10456,Bronx County,NY,0.5555555555555556,NA,NA
10457,Bronx County,NY,NA,NA,13.930348258706468
10459,Bronx County,NY,NA,11.627906976744185,NA
10461,Bronx County,NY,16.11111111111111,NA,NA
10472,Bronx County,NY,NA,NA,97.01492537313433
10583,Westchester County,NY,88.88888888888889,NA,NA
10804,Westchester County,NY,NA,NA,84.07960199004975
11220,Kings County,NY,NA,29.069767441860467,NA
11225,Kings County,NY,NA,83.72093023255815,NA
11231,Kings County,NY,NA,50.3875968992248,NA
11238,Kings County,NY,NA,55.81395348837209,NA
11373,Queens County,NY,NA,NA,28.35820895522388
11375,Queens County,NY,NA,NA,10.44776119402985
11433,Queens County,NY,NA,NA,35.32338308457712
11944,Suffolk County,NY,NA,96.89922480620154,NA
12020,Saratoga County,NY,NA,28.294573643410853,NA
12061,Rensselaer County,NY,NA,NA,81.59203980099502
12203,Albany County,NY,NA,47.286821705426355,NA
12534,Columbia County,NY,NA,18.992248062015506,NA
12701,Sullivan County,NY,88.33333333333333,NA,NA
13021,Cayuga County,NY,NA,NA,24.875621890547265
13027,Onondaga County,NY,NA,60.46511627906976,NA
13148,Seneca County,NY,NA,32.55813953488372,NA
13815,Chenango County,NY,20,NA,NA
14031,Erie County,NY,NA,77.90697674418605,NA
14051,Erie County,NY,NA,54.263565891472865,NA
14075,Erie County,NY,10,NA,NA
14094,Niagara County,NY,NA,2.3255813953488373,NA
14211,Erie County,NY,NA,16.27906976744186,NA
14217,Erie County,NY,35,NA,NA
14218,Erie County,NY,NA,48.06201550387597,NA
14219,Erie County,NY,58.88888888888889,NA,NA
14224,Erie County,NY,NA,10.077519379844961,NA
14414,Livingston County,NY,87.22222222222223,NA,NA
14433,Wayne County,NY,NA,NA,89.55223880597015
14454,Livingston County,NY,NA,NA,76.61691542288557
14527,Yates County,NY,NA,28.68217054263566,NA
14561,Ontario County,NY,83.88888888888889,NA,NA
14580,Monroe County,NY,2.2222222222222223,NA,NA
14605,Monroe County,NY,10.555555555555555,NA,NA
14609,Monroe County,NY,1.1111111111111112,NA,NA
14611,Monroe County,NY,NA,NA,52.23880597014925
14612,Monroe County,NY,4.444444444444445,NA,37.3134328358209
14619,Monroe County,NY,NA,46.89922480620155,NA
14787,Chautauqua County,NY,93.33333333333333,NA,NA
27006,Davie County,NC,NA,NA,25.37313432835821
27012,Forsyth County,NC,NA,NA,11.442786069651742
27028,Davie County,NC,NA,8.914728682170542,NA
27104,Forsyth County,NC,NA,NA,6.467661691542288
27127,Forsyth County,NC,NA,5.426356589147287,NA
27313,Guilford County,NC,NA,NA,95.02487562189054
27401,Guilford County,NC,NA,NA,58.2089552238806
27405,Guilford County,NC,NA,13.565891472868216,NA
27530,Wayne County,NC,NA,20.930232558139537,NA
27534,Wayne County,NC,47.22222222222222,NA,NA
27817,Beaufort County,NC,NA,81.0077519379845,NA
27834,Pitt County,NC,8.333333333333332,NA,NA
28025,Cabarrus County,NC,14.444444444444443,NA,NA
28138,Rowan County,NC,NA,NA,92.03980099502488
28144,Rowan County,NC,NA,NA,49.75124378109453
28146,Rowan County,NC,45.55555555555556,NA,NA
28303,Cumberland County,NC,NA,NA,80.09950248756219
28374,Moore County,NC,NA,84.10852713178295,NA
28422,Brunswick County,NC,NA,75.96899224806202,NA
28584,Carteret County,NC,NA,67.82945736434108,NA
28601,Catawba County,NC,20.555555555555554,NA,NA
28621,Surry County,NC,NA,59.68992248062015,NA
28655,Burke County,NC,NA,4.651162790697675,NA
28657,Avery County,NC,NA,70.93023255813954,NA
28719,Jackson County,NC,NA,NA,91.54228855721394
58078,Cass County,ND,NA,NA,24.378109452736318
43214,Franklin County,OH,81.66666666666667,NA,NA
43224,Franklin County,OH,NA,15.11627906976744,NA
43431,Sandusky County,OH,91.11111111111111,NA,NA
43537,Lucas County,OH,NA,NA,33.33333333333333
43545,Henry County,OH,NA,49.6124031007752,NA
43612,Lucas County,OH,NA,61.240310077519375,NA
44012,Lorain County,OH,NA,7.751937984496124,11.940298507462686
44017,Cuyahoga County,OH,NA,41.86046511627907,NA
44024,Geauga County,OH,NA,14.728682170542637,NA
44035,Lorain County,OH,NA,1.937984496124031,NA
44053,Lorain County,OH,NA,6.976744186046512,53.233830845771145
44074,Lorain County,OH,NA,NA,52.736318407960205
44087,Summit County,OH,NA,NA,6.965174129353234
44104,Cuyahoga County,OH,6.666666666666667,NA,NA
44105,Cuyahoga County,OH,1.6666666666666667,NA,NA
44113,Cuyahoga County,OH,NA,44.57364341085272,NA
44118,Cuyahoga County,OH,NA,NA,7.960199004975125
44124,Cuyahoga County,OH,NA,NA,1.9900497512437811
44131,Cuyahoga County,OH,NA,61.627906976744185,NA
44139,Cuyahoga County,OH,NA,NA,48.756218905472636
44224,Summit County,OH,31.11111111111111,NA,NA
44240,Portage County,OH,38.333333333333336,NA,NA
44286,Summit County,OH,NA,NA,86.56716417910447
44320,Summit County,OH,NA,17.05426356589147,NA
44333,Summit County,OH,NA,NA,43.28358208955223
44406,Mahoning County,OH,NA,68.9922480620155,NA
44429,Mahoning County,OH,NA,99.6124031007752,NA
44905,Richland County,OH,71.66666666666667,NA,NA
45203,Hamilton County,OH,93.88888888888889,NA,NA
45215,Hamilton County,OH,NA,NA,38.80597014925373
45229,Hamilton County,OH,NA,33.72093023255814,NA
45601,Ross County,OH,NA,NA,0
45638,Lawrence County,OH,NA,4.263565891472868,NA
45660,Adams County,OH,NA,NA,69.15422885572139
45805,Allen County,OH,19.444444444444446,NA,NA
45895,Auglaize County,OH,NA,NA,44.27860696517413
73075,Garvin County,OK,NA,81.78294573643412,NA
73086,Murray County,OK,90.55555555555556,NA,NA
73099,Canadian County,OK,NA,7.3643410852713185,NA
73127,Oklahoma County,OK,NA,NA,71.64179104477611
73448,Love County,OK,NA,95.34883720930233,NA
74037,Tulsa County,OK,NA,NA,77.11442786069652
74105,Tulsa County,OK,NA,53.875968992248055,NA
97009,Clackamas County,OR,NA,84.49612403100775,NA
97045,Clackamas County,OR,NA,NA,19.900497512437813
97206,Multnomah County,OR,NA,NA,42.28855721393035
97219,Multnomah County,OR,NA,NA,56.21890547263681
97221,Multnomah County,OR,NA,NA,91.04477611940298
97222,Clackamas County,OR,NA,35.65891472868217,NA
97229,Washington County,OR,NA,40.69767441860465,NA
97338,Polk County,OR,58.333333333333336,NA,NA
97424,Lane County,OR,55.55555555555556,NA,NA
97467,Douglas County,OR,NA,NA,66.66666666666666
15219,Allegheny County,PA,43.888888888888886,NA,NA
16335,Crawford County,PA,13.88888888888889,NA,NA
16510,Erie County,PA,NA,79.45736434108527,NA
17022,Lancaster County,PA,NA,NA,21.393034825870647
17033,Dauphin County,PA,NA,NA,30.34825870646766
17050,Cumberland County,PA,31.666666666666664,NA,NA
17109,Dauphin County,PA,NA,NA,36.81592039800995
17402,York County,PA,28.888888888888886,NA,NA
17404,York County,PA,NA,NA,18.407960199004975
17603,Lancaster County,PA,NA,10.465116279069768,NA
17737,Lycoming County,PA,NA,NA,80.59701492537313
17777,Northumberland County,PA,NA,82.94573643410853,NA
17801,Northumberland County,PA,NA,20.54263565891473,NA
17824,Northumberland County,PA,NA,79.06976744186046,NA
17866,Northumberland County,PA,NA,65.89147286821705,NA
18337,Pike County,PA,NA,NA,62.68656716417911
18976,Bucks County,PA,NA,79.84496124031007,NA
19018,Delaware County,PA,37.77777777777778,NA,NA
19067,Bucks County,PA,26.111111111111114,NA,NA
19103,Philadelphia County,PA,NA,24.8062015503876,NA
19133,Philadelphia County,PA,NA,37.98449612403101,NA
19312,Chester County,PA,NA,82.17054263565892,NA
19428,Montgomery County,PA,NA,77.13178294573643,NA
19608,Berks County,PA,40,NA,NA
02816,Kent County,RI,NA,NA,88.55721393034825
02822,Washington County,RI,NA,NA,98.00995024875621
02865,Providence County,RI,NA,63.95348837209303,NA
02889,Kent County,RI,32.77777777777778,NA,NA
02919,Providence County,RI,NA,32.945736434108525,NA
29464,Charleston County,SC,55.00000000000001,NA,NA
29501,Florence County,SC,41.66666666666667,NA,NA
29566,Horry County,SC,NA,58.52713178294574,NA
29607,Greenville County,SC,NA,NA,61.19402985074627
29615,Greenville County,SC,NA,NA,26.865671641791046
57108,Lincoln County,SD,NA,NA,10.945273631840797
57350,Beadle County,SD,NA,NA,45.77114427860697
37034,Marshall County,TN,NA,NA,92.03980099502488
37215,Davidson County,TN,NA,NA,77.61194029850746
37411,Hamilton County,TN,NA,NA,62.189054726368155
75061,Dallas County,TX,NA,27.51937984496124,NA
75149,Dallas County,TX,NA,31.3953488372093,NA
75212,Dallas County,TX,56.111111111111114,NA,NA
75225,Dallas County,TX,NA,62.7906976744186,NA
75238,Dallas County,TX,NA,72.86821705426357,NA
75604,Gregg County,TX,NA,65.50387596899225,NA
75670,Harrison County,TX,NA,75.5813953488372,NA
76033,Johnson County,TX,NA,NA,54.72636815920397
76034,Tarrant County,TX,NA,NA,71.14427860696517
76050,Johnson County,TX,86.66666666666667,NA,NA
76258,Denton County,TX,NA,NA,96.01990049751244
76501,Bell County,TX,NA,37.2093023255814,NA
76513,Bell County,TX,9.444444444444445,NA,NA
76712,McLennan County,TX,NA,46.12403100775194,NA
76801,Brown County,TX,NA,NA,57.711442786069654
77023,Harris County,TX,66.66666666666666,NA,NA
77044,Harris County,TX,47.77777777777778,NA,NA
77095,Harris County,TX,25.555555555555554,NA,NA
77354,Montgomery County,TX,NA,50.775193798449614,NA
77356,Montgomery County,TX,NA,43.41085271317829,NA
77477,Fort Bend County,TX,NA,88.75968992248062,NA
77498,Fort Bend County,TX,NA,60.85271317829457,NA
77539,Galveston County,TX,29.444444444444446,NA,NA
77546,Galveston County,TX,NA,68.21705426356588,NA
77563,Galveston County,TX,NA,NA,51.741293532338304
77573,Galveston County,TX,12.777777777777777,5.038759689922481,NA
77590,Galveston County,TX,NA,NA,65.67164179104478
77705,Jefferson County,TX,53.888888888888886,NA,NA
77803,Brazos County,TX,NA,NA,37.81094527363184
78076,Zapata County,TX,NA,NA,90.54726368159204
78258,Bexar County,TX,NA,74.03100775193798,NA
78259,Bexar County,TX,80.55555555555556,NA,NA
78411,Nueces County,TX,NA,NA,93.03482587064677
78504,Hidalgo County,TX,NA,51.55038759689923,NA
78526,Cameron County,TX,75.55555555555556,NA,NA
78628,Williamson County,TX,NA,NA,4.975124378109453
78634,Williamson County,TX,NA,71.70542635658916,NA
78738,Travis County,TX,NA,85.65891472868216,NA
78852,Maverick County,TX,NA,NA,25.870646766169152
79416,Lubbock County,TX,NA,63.565891472868216,NA
84010,Davis County,UT,NA,NA,29.850746268656714
84047,Salt Lake County,UT,36.666666666666664,NA,NA
84065,Salt Lake County,UT,NA,52.32558139534884,NA
84081,Salt Lake County,UT,41.11111111111111,NA,NA
84093,Salt Lake County,UT,NA,NA,68.1592039800995
84102,Salt Lake County,UT,NA,NA,94.02985074626866
05201,Bennington County,VT,NA,23.643410852713178,NA
05404,Chittenden County,VT,NA,96.51162790697676,NA
05408,Chittenden County,VT,NA,NA,82.08955223880598
05468,Chittenden County,VT,NA,NA,60.69651741293532
05495,Chittenden County,VT,NA,96.12403100775194,NA
05602,Washington County,VT,NA,NA,48.258706467661696
05753,Addison County,VT,NA,NA,59.20398009950249
22801,Harrisonburg city,VA,NA,75.1937984496124,NA
22901,Albemarle County,VA,46.111111111111114,29.457364341085274,NA
22903,Charlottesville city,VA,NA,77.51937984496125,NA
22911,Albemarle County,VA,92.77777777777779,NA,NA
23168,James City County,VA,NA,89.53488372093024,NA
23692,York County,VA,NA,54.65116279069767,NA
23831,Chesterfield County,VA,NA,34.49612403100775,NA
24141,Radford city,VA,77.22222222222223,NA,NA
98052,King County,WA,NA,20.155038759689923,NA
98058,King County,WA,42.22222222222222,NA,NA
98070,King County,WA,96.66666666666667,NA,NA
98101,King County,WA,75,NA,NA
98112,King County,WA,NA,NA,63.18407960199005
98119,King County,WA,NA,NA,97.51243781094527
98122,King County,WA,NA,NA,50.74626865671642
98133,King County,WA,NA,NA,15.422885572139302
98188,King County,WA,74.44444444444444,NA,NA
98204,Snohomish County,WA,NA,NA,56.71641791044776
98335,Pierce County,WA,NA,39.14728682170542,NA
98584,Mason County,WA,46.666666666666664,NA,NA
98661,Clark County,WA,NA,NA,45.27363184079602
99336,Benton County,WA,NA,NA,8.45771144278607
25414,Jefferson County,WV,NA,NA,59.70149253731343
25840,Fayette County,WV,82.22222222222221,NA,NA
26155,Wetzel County,WV,NA,NA,74.12935323383084
26201,Upshur County,WV,NA,NA,20.8955223880597
26330,Harrison County,WV,NA,31.007751937984494,NA
26505,Monongalia County,WV,12.222222222222221,NA,NA
26508,Monongalia County,WV,NA,NA,22.885572139303484
53037,Washington County,WI,100,NA,NA
53094,Jefferson County,WI,NA,30.620155038759687,NA
53098,Dodge County,WI,NA,NA,83.08457711442786
53110,Milwaukee County,WI,NA,36.04651162790697,NA
53115,Walworth County,WI,NA,44.96124031007752,NA
53144,Kenosha County,WI,NA,NA,54.72636815920397
53154,Milwaukee County,WI,NA,NA,40.298507462686565
53181,Kenosha County,WI,NA,97.67441860465115,NA
53208,Milwaukee County,WI,15,NA,NA
53218,Milwaukee County,WI,7.777777777777778,NA,NA
53228,Milwaukee County,WI,NA,51.162790697674424,NA
53406,Racine County,WI,NA,NA,5.472636815920398
53511,Rock County,WI,NA,NA,0.4975124378109453
53546,Rock County,WI,NA,NA,39.800995024875625
53551,Jefferson County,WI,NA,NA,81.09452736318407
53594,Jefferson County,WI,NA,NA,94.5273631840796
53705,Dane County,WI,NA,NA,17.412935323383085
54136,Outagamie County,WI,NA,98.83720930232558,NA
54601,La Crosse County,WI,NA,0.7751937984496124,NA
54603,La Crosse County,WI,NA,NA,19.402985074626866
54669,La Crosse County,WI,NA,56.58914728682171,NA
54880,Douglas County,WI,NA,3.875968992248062,NA
54904,Winnebago County,WI,NA,76.35658914728683,NA
82718,Campbell County,WY,NA,NA,96.51741293532339
