ZipCode,county,state,Youth,Adult,Retirement
35005,Jefferson County,AL,NA,82.08,NA
35043,Shelby County,AL,72.6775956284153,NA,NA
35466,Pickens County,AL,85.79234972677595,NA,NA
35474,Hale County,AL,NA,63.36000000000001,NA
35601,Morgan County,AL,NA,13.76,NA
35633,Lauderdale County,AL,72.6775956284153,NA,NA
35673,Morgan County,AL,NA,67.84,NA
35956,Etowah County,AL,NA,75.03999999999999,NA
36117,Montgomery County,AL,NA,64.16,NA
36303,Houston County,AL,NA,24.959999999999997,NA
36701,Dallas County,AL,NA,28.799999999999997,NA
85008,Maricopa County,AZ,NA,13.600000000000001,NA
85051,Maricopa County,AZ,NA,15.36,NA
85122,Pinal County,AZ,NA,7.199999999999999,NA
85140,Pinal County,AZ,67.21311475409836,NA,NA
85209,Maricopa County,AZ,NA,60.160000000000004,NA
85254,Maricopa County,AZ,34.97267759562842,NA,NA
85344,La Paz County,AZ,NA,NA,36.71497584541063
85374,Maricopa County,AZ,NA,47.36,NA
85381,Maricopa County,AZ,NA,84.8,NA
85382,Maricopa County,AZ,NA,48.16,NA
85635,Cochise County,AZ,NA,26.72,NA
85749,Pima County,AZ,NA,75.52,NA
86044,San Juan County,AZ,NA,71.52,NA
71667,Lincoln County,AR,NA,84,NA
72007,Lonoke County,AR,NA,99.68,NA
72103,Saline County,AR,NA,95.04,NA
72120,Pulaski County,AR,NA,97.76,NA
72150,Grant County,AR,NA,78.56,NA
72212,Pulaski County,AR,NA,94.08,NA
72223,Pulaski County,AR,NA,80.96,NA
72301,Crittenden County,AR,NA,NA,83.57487922705315
72335,St. Francis County,AR,87.43169398907104,NA,NA
72687,Marion County,AR,NA,88.8,NA
72958,Scott County,AR,NA,69.76,NA
90029,Los Angeles County,CA,NA,NA,72.46376811594203
90048,Los Angeles County,CA,NA,75.36,NA
90065,Los Angeles County,CA,68.30601092896174,NA,NA
90275,Los Angeles County,CA,NA,NA,74.8792270531401
90291,Los Angeles County,CA,NA,NA,58.454106280193244
90403,Los Angeles County,CA,NA,66.88,NA
90605,Los Angeles County,CA,NA,80,NA
90703,Los Angeles County,CA,NA,NA,36.231884057971016
90740,Orange County,CA,81.9672131147541,NA,NA
90804,Los Angeles County,CA,NA,44.96,NA
90808,Los Angeles County,CA,14.754098360655737,NA,NA
91006,Los Angeles County,CA,NA,84.16,NA
91042,Los Angeles County,CA,NA,70.72,NA
91203,Los Angeles County,CA,NA,98.4,NA
91320,Ventura County,CA,NA,62.56,NA
91335,Los Angeles County,CA,NA,61.28,NA
91390,Los Angeles County,CA,NA,82.56,NA
91709,San Bernardino County,CA,NA,NA,62.80193236714976
91748,Los Angeles County,CA,NA,NA,93.71980676328504
92057,San Diego County,CA,69.94535519125684,NA,NA
92126,San Diego County,CA,NA,NA,35.748792270531396
92250,Imperial County,CA,NA,88.96,NA
92262,Riverside County,CA,NA,23.36,NA
92324,San Bernardino County,CA,NA,21.44,NA
92392,San Bernardino County,CA,NA,NA,33.81642512077295
92411,San Bernardino County,CA,NA,72,NA
92504,Riverside County,CA,NA,70.39999999999999,NA
92532,Riverside County,CA,NA,87.2,NA
92544,Riverside County,CA,NA,85.6,NA
92548,Riverside County,CA,97.26775956284153,NA,NA
92555,Riverside County,CA,NA,NA,66.18357487922705
92595,Riverside County,CA,NA,82.72,NA
92627,Orange County,CA,NA,NA,67.6328502415459
92656,Orange County,CA,NA,NA,81.64251207729468
92679,Orange County,CA,97.81420765027322,NA,NA
92683,Orange County,CA,37.704918032786885,NA,NA
92688,Orange County,CA,NA,36.8,NA
92703,Orange County,CA,NA,39.2,NA
92780,Orange County,CA,NA,87.03999999999999,NA
92801,Orange County,CA,NA,77.28,NA
92835,Orange County,CA,NA,91.2,NA
92843,Orange County,CA,NA,NA,53.14009661835749
92867,Orange County,CA,NA,NA,86.47342995169082
92879,Riverside County,CA,NA,50.72,NA
92882,Riverside County,CA,NA,60,NA
92886,Orange County,CA,NA,31.680000000000003,NA
93003,Ventura County,CA,NA,NA,22.22222222222222
93402,San Luis Obispo County,CA,69.39890710382514,NA,NA
93420,San Luis Obispo County,CA,NA,66.4,NA
93436,Santa Barbara County,CA,NA,73.11999999999999,NA
93555,Kern County,CA,NA,27.04,NA
93609,Fresno County,CA,NA,93.92,NA
94040,Santa Clara County,CA,NA,NA,79.71014492753623
94061,San Mateo County,CA,56.830601092896174,87.52,NA
94103,San Francisco County,CA,NA,12.8,NA
94116,San Francisco County,CA,NA,79.84,NA
94118,San Francisco County,CA,NA,NA,37.19806763285024
94122,San Francisco County,CA,NA,NA,24.154589371980677
94542,Alameda County,CA,NA,94.88,NA
94549,Contra Costa County,CA,NA,78.88,NA
94588,Alameda County,CA,NA,NA,74.39613526570048
94589,Solano County,CA,NA,NA,50.72463768115942
94605,Alameda County,CA,50.81967213114754,NA,NA
94611,Alameda County,CA,NA,59.84,NA
95032,Santa Clara County,CA,NA,74.08,NA
95054,Santa Clara County,CA,NA,99.83999999999999,NA
95112,Santa Clara County,CA,NA,37.92,NA
95118,Santa Clara County,CA,71.58469945355192,NA,NA
95123,Santa Clara County,CA,60.65573770491803,NA,NA
95125,Santa Clara County,CA,NA,73.92,NA
95301,Merced County,CA,NA,46.56,NA
95422,Lake County,CA,79.78142076502732,NA,NA
95628,Sacramento County,CA,NA,59.68,NA
95658,Placer County,CA,95.62841530054644,NA,NA
95822,Sacramento County,CA,NA,39.68,NA
95864,Sacramento County,CA,57.377049180327866,NA,NA
95932,Colusa County,CA,NA,NA,87.92270531400966
95954,Butte County,CA,27.86885245901639,NA,NA
95961,Yuba County,CA,NA,45.28,NA
95965,Butte County,CA,NA,NA,32.367149758454104
95973,Butte County,CA,NA,24.48,NA
80013,Arapahoe County,CO,NA,9.44,NA
80018,Arapahoe County,CO,NA,72.96000000000001,NA
80021,Jefferson County,CO,NA,NA,57.00483091787439
80026,Boulder County,CO,NA,83.04,NA
80031,Adams County,CO,NA,90.56,NA
80108,Douglas County,CO,31.693989071038253,NA,NA
80122,Arapahoe County,CO,NA,54.24,NA
80134,Douglas County,CO,NA,71.67999999999999,NA
80203,Denver County,CO,NA,68.96,NA
80226,Jefferson County,CO,26.229508196721312,NA,NA
80233,Adams County,CO,16.39344262295082,28.16,NA
80424,Summit County,CO,93.44262295081968,NA,NA
80501,Boulder County,CO,NA,22.24,NA
80504,Boulder County,CO,NA,32.800000000000004,NA
80517,Larimer County,CO,NA,NA,47.82608695652174
80525,Larimer County,CO,NA,62.4,NA
80831,El Paso County,CO,NA,86.72,NA
80915,El Paso County,CO,27.322404371584703,NA,NA
80916,El Paso County,CO,NA,67.52,NA
80917,El Paso County,CO,NA,NA,55.072463768115945
81401,Montrose County,CO,NA,47.839999999999996,NA
81611,Pitkin County,CO,NA,96.96000000000001,NA
06051,Hartford County,CT,NA,21.759999999999998,NA
06088,Hartford County,CT,91.80327868852459,NA,NA
06095,Hartford County,CT,NA,NA,30.917874396135264
06418,New Haven County,CT,NA,68.16,NA
06511,New Haven County,CT,NA,NA,12.077294685990339
06516,New Haven County,CT,NA,NA,2.4154589371980677
06519,New Haven County,CT,NA,NA,44.927536231884055
06604,Fairfield County,CT,NA,20.48,NA
06608,Fairfield County,CT,NA,61.44,NA
06611,Fairfield County,CT,NA,73.6,NA
06870,Fairfield County,CT,74.86338797814209,NA,NA
19702,New Castle County,DE,NA,NA,54.106280193236714
19720,New Castle County,DE,9.836065573770492,NA,NA
19734,New Castle County,DE,61.74863387978142,NA,NA
19801,New Castle County,DE,NA,38.72,NA
19901,Kent County,DE,NA,18.56,NA
19904,Kent County,DE,39.89071038251366,NA,NA
19958,Sussex County,DE,NA,34.56,NA
19963,Sussex County,DE,NA,NA,39.130434782608695
19973,Sussex County,DE,NA,16.32,NA
32162,Sumter County,FL,NA,NA,18.357487922705314
32210,Duval County,FL,NA,NA,8.212560386473431
32446,Jackson County,FL,NA,NA,63.76811594202898
32526,Escambia County,FL,NA,14.719999999999999,NA
32606,Alachua County,FL,NA,35.04,NA
32607,Alachua County,FL,NA,20.32,NA
32609,Alachua County,FL,NA,21.6,NA
32643,Alachua County,FL,NA,51.839999999999996,NA
32669,Alachua County,FL,NA,65.44,NA
32693,Gilchrist County,FL,NA,67.04,NA
32808,Orange County,FL,3.825136612021858,NA,NA
32940,Brevard County,FL,36.0655737704918,NA,NA
33015,Miami-Dade County,FL,NA,NA,45.893719806763286
33023,Broward County,FL,NA,20.16,NA
33024,Broward County,FL,NA,60.31999999999999,NA
33029,Broward County,FL,NA,58.56,NA
33054,Miami-Dade County,FL,NA,76,NA
33062,Broward County,FL,NA,NA,28.019323671497588
33139,Miami-Dade County,FL,74.86338797814209,NA,NA
33141,Miami-Dade County,FL,NA,NA,37.68115942028986
33142,Miami-Dade County,FL,NA,NA,21.73913043478261
33143,Miami-Dade County,FL,NA,NA,69.08212560386472
33145,Miami-Dade County,FL,NA,NA,78.74396135265701
33150,Miami-Dade County,FL,80.87431693989072,76.8,NA
33169,Miami-Dade County,FL,NA,42.88,NA
33175,Miami-Dade County,FL,NA,55.84,NA
33183,Miami-Dade County,FL,NA,NA,91.30434782608695
33324,Broward County,FL,NA,67.2,NA
33325,Broward County,FL,NA,NA,68.59903381642512
33434,Palm Beach County,FL,NA,83.52000000000001,NA
33458,Palm Beach County,FL,NA,25.6,NA
33511,Hillsborough County,FL,NA,68.64,NA
33709,Pinellas County,FL,NA,50.4,NA
33710,Pinellas County,FL,NA,50.080000000000005,NA
33759,Pinellas County,FL,NA,NA,77.29468599033817
33770,Pinellas County,FL,NA,81.28,NA
33952,Charlotte County,FL,NA,NA,34.78260869565217
34448,Citrus County,FL,NA,77.44,NA
34476,Marion County,FL,NA,58.24,NA
34482,Marion County,FL,NA,62.239999999999995,NA
34668,Pasco County,FL,NA,12.479999999999999,NA
34785,Sumter County,FL,NA,68.32000000000001,NA
34986,St. Lucie County,FL,NA,48.96,NA
34990,Martin County,FL,55.73770491803278,NA,NA
30004,Fulton County,GA,NA,42.4,NA
30034,DeKalb County,GA,NA,NA,25.60386473429952
30038,DeKalb County,GA,NA,44,NA
30064,Cobb County,GA,NA,90.24,NA
30066,Cobb County,GA,NA,NA,62.31884057971014
30068,Cobb County,GA,NA,NA,88.40579710144928
30116,Carroll County,GA,NA,48,NA
30126,Cobb County,GA,NA,NA,64.25120772946859
30161,Floyd County,GA,NA,19.84,NA
30277,Coweta County,GA,NA,71.04,NA
30297,Clayton County,GA,NA,NA,80.19323671497585
30318,Fulton County,GA,NA,29.439999999999998,NA
30331,Fulton County,GA,NA,18.4,NA
30349,Fulton County,GA,6.557377049180328,NA,NA
30439,Candler County,GA,64.48087431693989,NA,NA
30520,Franklin County,GA,NA,91.67999999999999,NA
30554,Hall County,GA,NA,95.84,NA
30720,Whitfield County,GA,NA,NA,61.35265700483091
30907,Columbia County,GA,NA,NA,12.560386473429952
31089,Washington County,GA,NA,96.64,NA
31204,Bibb County,GA,NA,NA,28.502415458937197
31326,Effingham County,GA,NA,60.64000000000001,NA
31560,Wayne County,GA,NA,97.28,NA
31601,Lowndes County,GA,28.415300546448087,27.52,NA
31620,Cook County,GA,72.1311475409836,NA,NA
31632,Lowndes County,GA,NA,79.03999999999999,NA
31705,Dougherty County,GA,NA,31.2,NA
31907,Muscogee County,GA,NA,63.04,NA
96706,Honolulu County,HI,NA,11.360000000000001,NA
96744,Honolulu County,HI,10.92896174863388,NA,NA
83401,Bonneville County,ID,NA,45.12,NA
83605,Canyon County,ID,NA,58.720000000000006,NA
83646,Ada County,ID,NA,89.75999999999999,NA
83713,Ada County,ID,NA,36.64,NA
60012,McHenry County,IL,NA,81.92,NA
60053,Cook County,IL,75.95628415300546,NA,NA
60067,Cook County,IL,36.6120218579235,NA,NA
60074,Cook County,IL,NA,42.4,NA
60101,DuPage County,IL,NA,NA,25.120772946859905
60107,Cook County,IL,NA,50.56,NA
60126,DuPage County,IL,NA,9.76,44.44444444444444
60154,Cook County,IL,NA,52,NA
60155,Cook County,IL,87.97814207650273,NA,NA
60440,Will County,IL,NA,20.8,NA
60441,Will County,IL,NA,79.2,NA
60443,Cook County,IL,NA,46.400000000000006,NA
60453,Cook County,IL,NA,15.040000000000001,NA
60467,Cook County,IL,NA,76.48,NA
60540,DuPage County,IL,20.76502732240437,NA,NA
60565,DuPage County,IL,NA,32,NA
60610,Cook County,IL,NA,44.16,NA
60615,Cook County,IL,88.52459016393442,NA,NA
60617,Cook County,IL,NA,6.08,NA
60620,Cook County,IL,NA,6.239999999999999,NA
60631,Cook County,IL,NA,NA,47.82608695652174
60636,Cook County,IL,95.08196721311475,NA,NA
60637,Cook County,IL,NA,15.840000000000002,NA
60656,Cook County,IL,NA,74.72,NA
61301,LaSalle County,IL,NA,NA,65.70048309178745
61350,LaSalle County,IL,NA,48.480000000000004,NA
61448,Knox County,IL,89.07103825136612,NA,NA
61603,Peoria County,IL,NA,64.8,NA
61604,Peoria County,IL,NA,NA,41.54589371980676
61820,Champaign County,IL,46.994535519125684,NA,NA
62301,Adams County,IL,NA,NA,39.61352657004831
62424,Effingham County,IL,NA,100,NA
62711,Sangamon County,IL,NA,88.48,NA
46113,Marion County,IN,NA,85.76,NA
46201,Marion County,IN,NA,19.040000000000003,NA
46203,Marion County,IN,NA,35.199999999999996,NA
46218,Marion County,IN,NA,36.16,NA
46222,Marion County,IN,NA,20.8,NA
46229,Marion County,IN,NA,25.44,NA
46311,Lake County,IN,NA,63.2,NA
46619,St. Joseph County,IN,NA,55.2,NA
46703,Steuben County,IN,NA,NA,41.06280193236715
46755,Noble County,IN,NA,NA,40.57971014492754
46902,Howard County,IN,NA,21.12,NA
46952,Grant County,IN,NA,19.040000000000003,NA
47129,Clark County,IN,NA,53.12,NA
47172,Clark County,IN,NA,85.92,NA
47201,Bartholomew County,IN,NA,40,NA
47203,Bartholomew County,IN,45.3551912568306,NA,NA
47424,Greene County,IN,NA,87.83999999999999,NA
47834,Clay County,IN,NA,NA,84.05797101449275
50111,Polk County,IA,NA,NA,98.06763285024155
50112,Poweshiek County,IA,NA,87.36,NA
50158,Marshall County,IA,NA,27.68,NA
50309,Polk County,IA,NA,NA,66.66666666666666
50310,Polk County,IA,NA,22.88,NA
50316,Polk County,IA,NA,41.120000000000005,NA
50701,Black Hawk County,IA,26.775956284153008,NA,NA
51031,Plymouth County,IA,NA,80.32000000000001,NA
51106,Woodbury County,IA,99.4535519125683,NA,NA
52241,Johnson County,IA,NA,73.28,NA
52353,Washington County,IA,77.59562841530054,NA,NA
52404,Linn County,IA,NA,34.4,NA
52501,Wapello County,IA,NA,14.879999999999999,NA
52732,Clinton County,IA,NA,NA,27.536231884057973
52761,Muscatine County,IA,NA,11.84,NA
52803,Scott County,IA,NA,86.08,NA
66062,Johnson County,KS,NA,37.28,NA
67846,Finney County,KS,43.71584699453552,NA,NA
40165,Bullitt County,KY,NA,14.56,NA
40203,Jefferson County,KY,NA,23.84,NA
40272,Jefferson County,KY,NA,13.919999999999998,NA
40353,Montgomery County,KY,41.53005464480874,NA,NA
40391,Clark County,KY,NA,7.5200000000000005,NA
40503,Fayette County,KY,NA,NA,64.73429951690821
40514,Fayette County,KY,NA,96,NA
40515,Fayette County,KY,NA,49.44,NA
41017,Kenton County,KY,NA,61.919999999999995,57.48792270531401
41018,Kenton County,KY,NA,NA,61.83574879227053
41311,Lee County,KY,NA,88.64,NA
42122,Warren County,KY,93.98907103825137,NA,NA
42303,Daviess County,KY,21.85792349726776,NA,NA
42431,Hopkins County,KY,NA,24.32,81.15942028985508
42749,Hart County,KY,NA,76.64,NA
70058,Jefferson Parish,LA,17.48633879781421,NA,NA
70068,St. John the Baptist Parish,LA,NA,91.84,NA
70123,Jefferson Parish,LA,NA,NA,85.99033816425121
70344,Terrebonne Parish,LA,NA,NA,83.09178743961353
70395,Terrebonne Parish,LA,NA,91.52,NA
70560,Iberia Parish,LA,1.639344262295082,NA,NA
70570,St. Landry Parish,LA,0.546448087431694,NA,13.526570048309178
70586,Evangeline Parish,LA,NA,46.239999999999995,NA
70607,Calcasieu Parish,LA,NA,14.24,NA
70611,Calcasieu Parish,LA,NA,30.080000000000002,NA
70722,East Feliciana Parish,LA,NA,96.32,NA
70802,East Baton Rouge Parish,LA,16.939890710382514,NA,NA
70811,East Baton Rouge Parish,LA,NA,98.56,NA
70815,East Baton Rouge Parish,LA,NA,15.840000000000002,NA
70817,East Baton Rouge Parish,LA,NA,33.92,NA
71037,Bossier Parish,LA,62.295081967213115,NA,NA
71055,Webster Parish,LA,NA,NA,71.49758454106279
71109,Caddo Parish,LA,NA,59.199999999999996,NA
71115,Caddo Parish,LA,NA,90.72,NA
71263,West Carroll Parish,LA,58.46994535519126,NA,NA
71291,Ouachita Parish,LA,NA,9.92,32.850241545893724
71373,Concordia Parish,LA,NA,92.47999999999999,NA
04037,Oxford County,ME,NA,97.44,NA
04345,Kennebec County,ME,NA,NA,52.65700483091788
20855,Montgomery County,MD,96.72131147540983,NA,NA
21014,Harford County,MD,NA,69.6,NA
21043,Howard County,MD,NA,68,NA
21061,Anne Arundel County,MD,NA,8.959999999999999,NA
21093,Baltimore County,MD,NA,43.84,NA
21117,Baltimore County,MD,NA,NA,27.053140096618357
21215,Baltimore city,MD,NA,6.4,NA
21218,Baltimore city,MD,NA,9.6,NA
21221,Baltimore County,MD,NA,20.64,NA
21223,Baltimore city,MD,NA,NA,46.85990338164252
21227,Baltimore County,MD,58.46994535519126,NA,NA
21228,Baltimore County,MD,NA,51.68000000000001,NA
21231,Baltimore city,MD,24.043715846994534,NA,NA
21234,Baltimore County,MD,NA,63.519999999999996,NA
21403,Anne Arundel County,MD,NA,60.8,NA
21617,Queen Anne's County,MD,NA,89.60000000000001,NA
21742,Washington County,MD,NA,62.72,NA
21784,Carroll County,MD,NA,77.75999999999999,NA
21793,Frederick County,MD,NA,86.88,NA
21842,Worcester County,MD,92.89617486338798,NA,NA
01002,Hampshire County,MA,NA,NA,84.54106280193237
01104,Hampden County,MA,NA,0.8,NA
01129,Hampden County,MA,NA,68.8,NA
01220,Berkshire County,MA,NA,69.92,NA
01230,Berkshire County,MA,NA,NA,51.20772946859904
01505,Worcester County,MA,NA,92.64,NA
01603,Worcester County,MA,48.08743169398907,NA,NA
01609,Worcester County,MA,NA,NA,6.280193236714976
01610,Worcester County,MA,NA,NA,26.570048309178745
01730,Middlesex County,MA,52.459016393442624,NA,NA
01746,Middlesex County,MA,NA,NA,72.94685990338165
01757,Worcester County,MA,NA,NA,5.797101449275362
01887,Middlesex County,MA,22.950819672131146,NA,NA
01902,Essex County,MA,NA,0.16,23.18840579710145
01904,Essex County,MA,NA,10.56,NA
01905,Essex County,MA,13.661202185792352,NA,NA
01940,Essex County,MA,NA,NA,80.67632850241546
02026,Norfolk County,MA,32.240437158469945,NA,NA
02120,Suffolk County,MA,NA,NA,17.391304347826086
02122,Suffolk County,MA,NA,10.879999999999999,NA
02124,Suffolk County,MA,NA,4.4799999999999995,NA
02135,Suffolk County,MA,NA,22.56,NA
02139,Middlesex County,MA,NA,0,NA
02140,Middlesex County,MA,NA,NA,13.043478260869565
02145,Middlesex County,MA,NA,4,NA
02148,Middlesex County,MA,NA,8.32,NA
02152,Suffolk County,MA,NA,13.120000000000001,38.164251207729464
02188,Norfolk County,MA,61.20218579234973,NA,NA
02301,Plymouth County,MA,NA,NA,0.4830917874396135
02324,Plymouth County,MA,NA,11.52,NA
02382,Plymouth County,MA,38.25136612021858,NA,NA
02482,Norfolk County,MA,NA,93.28,NA
02771,Bristol County,MA,NA,39.04,NA
48021,Macomb County,MI,NA,56.48,NA
48035,Macomb County,MI,NA,9.120000000000001,NA
48038,Macomb County,MI,NA,NA,30.434782608695656
48045,Macomb County,MI,NA,26.08,NA
48081,Macomb County,MI,NA,38.4,NA
48091,Macomb County,MI,10.382513661202186,NA,NA
48134,Wayne County,MI,NA,29.12,NA
48141,Wayne County,MI,NA,7.84,NA
48146,Wayne County,MI,NA,6.72,NA
48150,Wayne County,MI,NA,73.44000000000001,NA
48162,Monroe County,MI,NA,12.959999999999999,NA
48173,Wayne County,MI,NA,57.599999999999994,NA
48182,Monroe County,MI,NA,NA,43.47826086956522
48188,Wayne County,MI,NA,41.92,NA
48192,Wayne County,MI,NA,18.72,NA
48197,Washtenaw County,MI,2.185792349726776,NA,NA
48205,Wayne County,MI,3.278688524590164,NA,NA
48208,Wayne County,MI,NA,56.16,NA
48221,Wayne County,MI,NA,4.64,NA
48228,Wayne County,MI,NA,1.1199999999999999,NA
48235,Wayne County,MI,NA,32.16,NA
48237,Oakland County,MI,NA,NA,19.32367149758454
48238,Wayne County,MI,NA,64.64,NA
48239,Wayne County,MI,NA,NA,11.594202898550725
48302,Oakland County,MI,94.53551912568307,NA,NA
48312,Macomb County,MI,NA,26.88,51.690821256038646
48429,Shiawassee County,MI,NA,61.6,NA
48430,Genesee County,MI,NA,NA,21.256038647342994
48458,Genesee County,MI,NA,NA,54.589371980676326
48603,Saginaw County,MI,NA,NA,60.38647342995169
48640,Midland County,MI,NA,NA,15.942028985507244
48750,Iosco County,MI,NA,70.88,NA
48823,Ingham County,MI,NA,94.39999999999999,NA
49048,Kalamazoo County,MI,32.78688524590164,NA,NA
49071,Van Buren County,MI,NA,NA,85.5072463768116
49091,St. Joseph County,MI,NA,45.440000000000005,NA
49127,Berrien County,MI,NA,97.6,NA
49242,Hillsdale County,MI,67.75956284153006,NA,NA
49286,Lenawee County,MI,NA,NA,88.88888888888889
49307,Mecosta County,MI,NA,52.32,NA
49341,Kent County,MI,NA,NA,26.08695652173913
49348,Allegan County,MI,NA,33.44,NA
49421,Oceana County,MI,NA,77.60000000000001,NA
49441,Muskegon County,MI,NA,12.64,NA
49444,Muskegon County,MI,NA,8.799999999999999,NA
49503,Kent County,MI,NA,37.6,NA
49507,Kent County,MI,66.12021857923497,NA,NA
49829,Delta County,MI,NA,64,NA
55013,Chisago County,MN,86.33879781420765,NA,NA
55037,Pine County,MN,NA,92.80000000000001,NA
55066,Goodhue County,MN,NA,NA,18.84057971014493
55115,Washington County,MN,NA,NA,97.58454106280193
55117,Ramsey County,MN,NA,16.96,NA
55119,Ramsey County,MN,NA,NA,34.29951690821256
55317,Carver County,MN,90.1639344262295,NA,NA
55330,Sherburne County,MN,14.207650273224044,NA,NA
55347,Hennepin County,MN,NA,64.48,NA
55413,Hennepin County,MN,NA,43.04,NA
55421,Anoka County,MN,NA,22.720000000000002,NA
55744,Itasca County,MN,NA,16.16,NA
55746,St. Louis County,MN,NA,89.44,NA
55806,St. Louis County,MN,NA,NA,59.90338164251207
55947,Houston County,MN,NA,78.24,NA
55963,Goodhue County,MN,92.34972677595628,NA,NA
56001,Blue Earth County,MN,12.568306010928962,NA,NA
56073,Brown County,MN,55.19125683060109,NA,NA
56308,Douglas County,MN,NA,72.8,NA
56358,Kanabec County,MN,78.14207650273224,NA,NA
56387,Stearns County,MN,NA,85.28,NA
56537,Otter Tail County,MN,NA,65.75999999999999,NA
56601,Beltrami County,MN,NA,5.6000000000000005,NA
56621,Clearwater County,MN,NA,77.75999999999999,NA
56701,Pennington County,MN,30.05464480874317,NA,NA
38756,Washington County,MS,NA,93.76,NA
38769,Bolivar County,MS,NA,98.72,NA
39157,Madison County,MS,NA,65.28,NA
39272,Hinds County,MS,NA,76.32,NA
39426,Pearl River County,MS,NA,NA,42.028985507246375
39562,Jackson County,MS,68.30601092896174,NA,NA
39601,Lincoln County,MS,49.18032786885246,NA,NA
63031,St. Louis County,MO,NA,48.8,NA
63084,Franklin County,MO,NA,53.92,NA
63118,St. Louis city,MO,NA,32.96,NA
63401,Marion County,MO,NA,47.52,NA
64014,Jackson County,MO,15.300546448087433,NA,NA
64068,Clay County,MO,NA,8,NA
64079,Platte County,MO,NA,80.47999999999999,NA
64089,Clay County,MO,NA,52.800000000000004,NA
64118,Clay County,MO,NA,26.56,NA
64133,Jackson County,MO,NA,3.36,NA
64137,Jackson County,MO,NA,NA,76.32850241545893
64152,Platte County,MO,15.846994535519126,NA,NA
65559,Phelps County,MO,NA,79.36,NA
65672,Taney County,MO,NA,NA,78.26086956521739
59405,Cascade County,MT,57.92349726775956,NA,NA
59864,Lake County,MT,91.2568306010929,NA,NA
68025,Dodge County,NE,NA,36,NA
68134,Douglas County,NE,NA,56.96,NA
68135,Douglas County,NE,NA,NA,70.53140096618358
68137,Douglas County,NE,NA,52.16,NA
68601,Platte County,NE,NA,97.92,NA
89109,Clark County,NV,NA,NA,96.61835748792271
89115,Clark County,NV,NA,22.400000000000002,NA
89183,Clark County,NV,NA,84.64,NA
89410,Douglas County,NV,NA,NA,68.11594202898551
89436,Washoe County,NV,NA,NA,14.492753623188406
89519,Washoe County,NV,NA,NA,96.1352657004831
03053,Rockingham County,NH,20.76502732240437,NA,NA
03079,Rockingham County,NH,NA,15.68,NA
03301,Merrimack County,NH,NA,17.44,NA
07026,Bergen County,NJ,NA,72.48,NA
07065,Union County,NJ,NA,NA,86.95652173913044
07083,Union County,NJ,NA,16.64,NA
07087,Hudson County,NJ,NA,NA,4.830917874396135
07481,Bergen County,NJ,NA,70.08,NA
07712,Monmouth County,NJ,23.497267759562842,35.52,NA
07728,Monmouth County,NJ,NA,NA,49.275362318840585
07762,Monmouth County,NJ,NA,93.60000000000001,NA
08033,Camden County,NJ,NA,64.32,NA
08037,Atlantic County,NJ,NA,16.8,NA
08050,Ocean County,NJ,76.50273224043715,NA,NA
08081,Camden County,NJ,NA,NA,8.695652173913043
08242,Cape May County,NJ,NA,NA,71.01449275362319
08502,Somerset County,NJ,NA,95.67999999999999,NA
08527,Ocean County,NJ,NA,8.16,NA
08533,Ocean County,NJ,NA,NA,95.65217391304348
08701,Ocean County,NJ,0,NA,NA
08753,Ocean County,NJ,NA,2.08,NA
08759,Ocean County,NJ,NA,10.08,NA
08824,Middlesex County,NJ,NA,89.28,NA
08854,Middlesex County,NJ,NA,NA,14.975845410628018
87002,Valencia County,NM,NA,49.6,NA
87045,McKinley County,NM,NA,96.96000000000001,NA
87102,Bernalillo County,NM,NA,55.04,NA
87105,Bernalillo County,NM,NA,22.08,NA
87110,Bernalillo County,NM,NA,12.16,NA
87112,Bernalillo County,NM,NA,14.399999999999999,NA
87113,Bernalillo County,NM,NA,96.48,NA
87114,Bernalillo County,NM,NA,6.88,NA
87121,Bernalillo County,NM,NA,3.52,NA
87123,Bernalillo County,NM,NA,NA,29.951690821256037
87124,Sandoval County,NM,NA,38.24,10.144927536231885
87144,Sandoval County,NM,NA,52.480000000000004,NA
87401,San Juan County,NM,NA,17.76,NA
87420,San Juan County,NM,NA,31.04,NA
87507,Santa Fe County,NM,NA,33.6,NA
88231,Lea County,NM,NA,88,NA
10009,New York County,NY,NA,34.72,NA
10027,New York County,NY,NA,42.24,NA
10032,New York County,NY,NA,10.4,NA
10033,New York County,NY,NA,NA,20.28985507246377
10314,Richmond County,NY,NA,NA,2.898550724637681
10453,Bronx County,NY,NA,5.92,NA
10456,Bronx County,NY,NA,7.04,NA
10457,Bronx County,NY,NA,NA,0.966183574879227
10459,Bronx County,NY,NA,4.32,NA
10462,Bronx County,NY,NA,46.72,NA
10468,Bronx County,NY,NA,9.120000000000001,NA
10469,Bronx County,NY,NA,2.88,NA
10474,Bronx County,NY,53.551912568306015,NA,NA
10475,Bronx County,NY,NA,26.08,NA
10553,Westchester County,NY,98.90710382513662,NA,NA
10601,Westchester County,NY,NA,84.48,NA
10701,Westchester County,NY,NA,0.96,NA
11206,Kings County,NY,NA,2.4,NA
11207,Kings County,NY,NA,4.16,NA
11208,Kings County,NY,NA,0.48,NA
11213,Kings County,NY,NA,56.8,NA
11237,Kings County,NY,NA,25.119999999999997,NA
11354,Queens County,NY,NA,47.199999999999996,NA
11355,Queens County,NY,NA,28.48,NA
11520,Nassau County,NY,NA,32.64,NA
11735,Nassau County,NY,NA,80.47999999999999,NA
11757,Suffolk County,NY,NA,42.72,NA
11790,Suffolk County,NY,NA,NA,89.85507246376811
11937,Suffolk County,NY,NA,94.56,NA
12019,Saratoga County,NY,NA,73.6,NA
12118,Saratoga County,NY,NA,82.39999999999999,NA
12143,Albany County,NY,NA,88,NA
12180,Rensselaer County,NY,48.63387978142077,NA,NA
12203,Albany County,NY,NA,37.76,NA
12303,Schenectady County,NY,NA,81.44,NA
12508,Dutchess County,NY,72.6775956284153,NA,NA
12828,Washington County,NY,NA,42.08,NA
12953,Franklin County,NY,42.07650273224044,NA,NA
12986,Franklin County,NY,NA,90.88000000000001,NA
13021,Cayuga County,NY,NA,3.2,NA
13045,Cortland County,NY,NA,21.92,NA
13104,Onondaga County,NY,NA,51.35999999999999,NA
13126,Oswego County,NY,NA,NA,7.246376811594203
13140,Cayuga County,NY,NA,80.80000000000001,NA
13204,Onondaga County,NY,NA,39.519999999999996,NA
13207,Onondaga County,NY,NA,31.840000000000003,NA
13363,Oneida County,NY,NA,95.36,NA
13365,Herkimer County,NY,NA,34.88,NA
13440,Oneida County,NY,NA,1.44,NA
13492,Oneida County,NY,NA,NA,49.75845410628019
13733,Chenango County,NY,NA,67.36,NA
13790,Broome County,NY,NA,35.36,NA
13820,Otsego County,NY,NA,36.32,NA
13827,Tioga County,NY,33.33333333333333,NA,NA
13838,Delaware County,NY,NA,86.08,NA
13856,Delaware County,NY,NA,NA,38.64734299516908
14075,Erie County,NY,NA,7.68,NA
14094,Niagara County,NY,NA,NA,53.62318840579711
14206,Erie County,NY,NA,43.36,NA
14213,Erie County,NY,NA,NA,43.96135265700483
14304,Niagara County,NY,NA,40.96,NA
14425,Ontario County,NY,NA,18.08,NA
14445,Monroe County,NY,NA,38.879999999999995,NA
14502,Wayne County,NY,NA,NA,50.24154589371981
14512,Ontario County,NY,NA,NA,94.68599033816425
14526,Monroe County,NY,NA,NA,16.425120772946862
14534,Monroe County,NY,49.72677595628415,NA,1.4492753623188406
14564,Ontario County,NY,NA,50.88,NA
14580,Monroe County,NY,1.092896174863388,NA,NA
14607,Monroe County,NY,NA,19.36,NA
14609,Monroe County,NY,NA,0.32,NA
14610,Monroe County,NY,NA,30.56,NA
14617,Monroe County,NY,NA,5.76,NA
14619,Monroe County,NY,NA,NA,42.51207729468599
14620,Monroe County,NY,NA,5.28,NA
14701,Chautauqua County,NY,25.136612021857925,NA,NA
14838,Chemung County,NY,NA,91.03999999999999,NA
27055,Yadkin County,NC,NA,NA,94.20289855072464
27105,Forsyth County,NC,NA,1.76,NA
27215,Alamance County,NC,NA,NA,4.3478260869565215
27262,Guilford County,NC,82.5136612021858,NA,NA
27302,Alamance County,NC,NA,30.880000000000003,NA
27360,Davidson County,NC,NA,19.68,NA
27408,Guilford County,NC,100,NA,NA
27581,Granville County,NC,NA,98.24000000000001,NA
27705,Durham County,NC,NA,23.68,NA
27707,Durham County,NC,NA,NA,9.178743961352657
27828,Pitt County,NC,NA,66.72,NA
27932,Chowan County,NC,NA,54.879999999999995,NA
28112,Union County,NC,NA,46.08,NA
28152,Cleveland County,NC,NA,36.96,NA
28215,Mecklenburg County,NC,11.475409836065573,NA,NA
28269,Mecklenburg County,NC,NA,13.28,NA
28270,Mecklenburg County,NC,38.79781420765027,NA,NA
28277,Mecklenburg County,NC,NA,40.8,NA
28351,Scotland County,NC,NA,70.56,NA
28352,Scotland County,NC,NA,27.200000000000003,NA
28379,Richmond County,NC,NA,17.119999999999997,NA
28546,Onslow County,NC,NA,27.36,NA
28560,Craven County,NC,NA,29.599999999999998,NA
28625,Iredell County,NC,NA,17.599999999999998,NA
28677,Iredell County,NC,NA,NA,56.52173913043478
28681,Alexander County,NC,NA,21.279999999999998,NA
28697,Wilkes County,NC,NA,NA,92.27053140096618
28714,Yancey County,NC,NA,NA,45.410628019323674
28716,Haywood County,NC,NA,75.84,NA
28754,Madison County,NC,98.36065573770492,NA,NA
58103,Cass County,ND,NA,30.240000000000002,NA
58503,Burleigh County,ND,NA,63.68000000000001,NA
43004,Franklin County,OH,NA,40.48,NA
43056,Licking County,OH,NA,37.44,NA
43062,Licking County,OH,NA,65.92,NA
43068,Franklin County,OH,NA,86.4,NA
43110,Franklin County,OH,NA,NA,85.02415458937197
43113,Pickaway County,OH,NA,14.08,NA
43119,Franklin County,OH,NA,25.28,NA
43138,Hocking County,OH,NA,NA,29.468599033816425
43201,Franklin County,OH,NA,46.72,NA
43206,Franklin County,OH,NA,40.160000000000004,NA
43215,Franklin County,OH,NA,38.56,NA
43224,Franklin County,OH,NA,4.96,NA
43231,Franklin County,OH,NA,72.16,NA
43420,Sandusky County,OH,19.672131147540984,NA,NA
43607,Lucas County,OH,NA,5.4399999999999995,NA
43608,Lucas County,OH,NA,7.359999999999999,NA
43793,Monroe County,OH,NA,NA,77.77777777777779
43812,Coshocton County,OH,NA,4.8,NA
43950,Belmont County,OH,NA,NA,16.908212560386474
44004,Ashtabula County,OH,NA,1.6,NA
44011,Lorain County,OH,NA,31.52,NA
44030,Ashtabula County,OH,NA,24.16,NA
44035,Lorain County,OH,NA,2.7199999999999998,0
44052,Lorain County,OH,NA,2.56,NA
44054,Lorain County,OH,NA,NA,40.09661835748793
44076,Ashtabula County,OH,NA,75.68,NA
44089,Erie County,OH,NA,67.67999999999999,NA
44094,Lake County,OH,NA,49.919999999999995,NA
44095,Lake County,OH,6.0109289617486334,NA,11.11111111111111
44102,Cuyahoga County,OH,NA,19.52,NA
44105,Cuyahoga County,OH,NA,58.08,NA
44109,Cuyahoga County,OH,NA,3.84,NA
44111,Cuyahoga County,OH,NA,25.919999999999998,NA
44112,Cuyahoga County,OH,NA,NA,3.3816425120772946
44116,Cuyahoga County,OH,NA,39.839999999999996,NA
44119,Cuyahoga County,OH,NA,52.64,NA
44121,Cuyahoga County,OH,NA,35.839999999999996,NA
44212,Medina County,OH,29.508196721311474,3.04,NA
44224,Summit County,OH,NA,NA,82.6086956521739
44275,Medina County,OH,83.60655737704919,NA,NA
44302,Summit County,OH,NA,92.16,NA
44305,Summit County,OH,NA,78.4,NA
44313,Summit County,OH,NA,29.92,NA
44320,Summit County,OH,NA,17.28,NA
44446,Trumbull County,OH,NA,13.44,NA
44514,Mahoning County,OH,NA,NA,31.40096618357488
44646,Stark County,OH,NA,8.64,NA
44720,Stark County,OH,NA,59.36,NA
44830,Seneca County,OH,NA,18.240000000000002,NA
44870,Erie County,OH,NA,1.28,1.932367149758454
45011,Butler County,OH,NA,2.2399999999999998,NA
45013,Butler County,OH,18.579234972677597,NA,NA
45014,Butler County,OH,40.43715846994536,NA,NA
45044,Butler County,OH,NA,26.400000000000002,NA
45230,Hamilton County,OH,NA,76.96,NA
45245,Clermont County,OH,45.90163934426229,NA,NA
45247,Hamilton County,OH,78.14207650273224,NA,NA
45255,Hamilton County,OH,NA,NA,46.3768115942029
45304,Darke County,OH,NA,94.24,NA
45356,Miami County,OH,2.73224043715847,NA,NA
45383,Miami County,OH,NA,87.68,NA
45415,Montgomery County,OH,NA,NA,58.93719806763285
45429,Montgomery County,OH,54.09836065573771,NA,NA
45434,Greene County,OH,NA,90.08,NA
45701,Athens County,OH,NA,59.040000000000006,NA
45760,Meigs County,OH,NA,NA,99.03381642512076
45784,Washington County,OH,NA,69.28,NA
45822,Mercer County,OH,NA,37.12,NA
45840,Hancock County,OH,NA,34.239999999999995,NA
73005,Caddo County,OK,NA,83.84,NA
73013,Oklahoma County,OK,80.32786885245902,NA,NA
73018,Grady County,OK,NA,45.92,NA
73065,McClain County,OK,NA,NA,76.81159420289855
73071,Cleveland County,OK,NA,56.32,NA
73108,Oklahoma County,OK,NA,62.88,NA
73135,Oklahoma County,OK,62.841530054644814,43.2,NA
73644,Beckham County,OK,NA,NA,60.86956521739131
73750,Kingfisher County,OK,NA,85.11999999999999,NA
73942,Texas County,OK,NA,74.08,NA
74017,Rogers County,OK,NA,44.48,NA
74126,Tulsa County,OK,55.73770491803278,NA,NA
74137,Tulsa County,OK,54.644808743169406,NA,NA
74344,Delaware County,OK,70.49180327868852,NA,NA
74447,Okmulgee County,OK,NA,66.08000000000001,NA
74525,Atoka County,OK,NA,82.88,NA
74538,Coal County,OK,NA,99.52,NA
74820,Pontotoc County,OK,NA,6.5600000000000005,3.864734299516908
74953,Le Flore County,OK,NA,78.72,NA
97062,Washington County,OR,37.15846994535519,NA,NA
97086,Clackamas County,OR,NA,NA,90.33816425120773
97116,Washington County,OR,NA,48.480000000000004,NA
97229,Washington County,OR,9.289617486338798,89.92,NA
97338,Polk County,OR,NA,NA,42.99516908212561
97386,Linn County,OR,NA,74.56,NA
97401,Lane County,OR,NA,NA,70.04830917874396
97502,Jackson County,OR,31.147540983606557,69.12,NA
97524,Jackson County,OR,NA,72.32,NA
97527,Josephine County,OR,NA,NA,19.806763285024154
97707,Deschutes County,OR,66.66666666666666,NA,NA
15090,Allegheny County,PA,47.540983606557376,NA,NA
15106,Allegheny County,PA,NA,56.64,NA
15202,Allegheny County,PA,NA,51.04,NA
15205,Allegheny County,PA,63.387978142076506,NA,NA
15210,Allegheny County,PA,NA,15.52,NA
15227,Allegheny County,PA,NA,NA,23.67149758454106
15236,Allegheny County,PA,NA,47.04,NA
15701,Indiana County,PA,NA,22.88,NA
15801,Clearfield County,PA,28.96174863387978,NA,NA
15963,Somerset County,PA,NA,63.839999999999996,NA
16316,Crawford County,PA,NA,81.12,NA
16335,Crawford County,PA,NA,10.24,NA
16433,Crawford County,PA,NA,76.16000000000001,NA
16841,Centre County,PA,89.61748633879782,NA,NA
17015,Cumberland County,PA,NA,43.68,NA
17018,Dauphin County,PA,85.24590163934425,NA,NA
17033,Dauphin County,PA,4.371584699453552,NA,22.705314009661837
17036,Dauphin County,PA,NA,24.8,NA
17038,Lebanon County,PA,83.06010928961749,NA,73.91304347826086
17055,Cumberland County,PA,NA,29.759999999999998,NA
17225,Franklin County,PA,NA,57.120000000000005,NA
17319,York County,PA,NA,64.96,NA
17356,York County,PA,NA,30.72,NA
17603,Lancaster County,PA,NA,8.48,NA
17745,Clinton County,PA,NA,82.24000000000001,NA
17814,Columbia County,PA,NA,NA,89.3719806763285
17866,Northumberland County,PA,NA,NA,59.42028985507246
17872,Northumberland County,PA,NA,NA,73.42995169082126
18034,Lehigh County,PA,NA,NA,87.43961352657004
18058,Monroe County,PA,NA,71.84,NA
18102,Lehigh County,PA,NA,NA,7.729468599033816
18103,Lehigh County,PA,NA,44.64,NA
18222,Luzerne County,PA,NA,NA,97.10144927536231
18635,Luzerne County,PA,NA,NA,100
18640,Luzerne County,PA,NA,43.519999999999996,NA
18643,Luzerne County,PA,NA,54.400000000000006,NA
18840,Bradford County,PA,NA,NA,82.1256038647343
18847,Susquehanna County,PA,NA,95.19999999999999,NA
19013,Delaware County,PA,NA,NA,15.458937198067632
19030,Bucks County,PA,NA,74.4,NA
19050,Delaware County,PA,NA,29.28,NA
19055,Bucks County,PA,NA,NA,75.84541062801932
19057,Bucks County,PA,NA,32.32,NA
19087,Chester County,PA,NA,90.4,NA
19094,Delaware County,PA,NA,96.16,NA
19107,Philadelphia County,PA,NA,NA,47.34299516908212
19115,Philadelphia County,PA,NA,NA,17.874396135265698
19129,Philadelphia County,PA,NA,60.96,NA
19132,Philadelphia County,PA,NA,5.12,NA
19135,Philadelphia County,PA,NA,45.6,NA
19140,Philadelphia County,PA,NA,1.92,NA
19142,Philadelphia County,PA,NA,40.32,NA
19143,Philadelphia County,PA,NA,0.64,NA
19145,Philadelphia County,PA,NA,31.36,NA
19147,Philadelphia County,PA,NA,18.88,63.28502415458937
19148,Philadelphia County,PA,NA,33.12,NA
19382,Chester County,PA,NA,NA,9.66183574879227
19446,Montgomery County,PA,8.743169398907105,NA,NA
19464,Montgomery County,PA,NA,25.759999999999998,NA
19606,Berks County,PA,NA,11.04,NA
02816,Kent County,RI,NA,28.64,NA
02895,Providence County,RI,7.103825136612022,NA,NA
02910,Providence County,RI,NA,50.239999999999995,NA
29067,Lancaster County,SC,NA,93.44,NA
29138,Saluda County,SC,NA,NA,91.78743961352657
29203,Richland County,SC,NA,10.72,NA
29379,Union County,SC,NA,33.6,NA
29403,Charleston County,SC,NA,71.2,NA
29445,Berkeley County,SC,NA,71.36,NA
29455,Charleston County,SC,NA,NA,34.78260869565217
29466,Charleston County,SC,13.114754098360656,NA,NA
29472,Dorchester County,SC,NA,77.75999999999999,NA
29488,Colleton County,SC,NA,NA,90.82125603864735
29512,Marlboro County,SC,NA,55.36,NA
29607,Greenville County,SC,20.21857923497268,NA,NA
29625,Anderson County,SC,NA,33.28,NA
29715,York County,SC,NA,65.60000000000001,NA
29732,York County,SC,NA,62.08,NA
29829,Aiken County,SC,NA,94.72,NA
29841,Aiken County,SC,NA,52.800000000000004,NA
57401,Brown County,SD,5.46448087431694,NA,NA
57625,Dewey County,SD,NA,99.2,NA
37025,Hickman County,TN,NA,83.36,NA
37036,Dickson County,TN,96.17486338797814,NA,NA
37064,Williamson County,TN,19.12568306010929,NA,NA
37115,Davidson County,TN,NA,12,NA
37174,Williamson County,TN,NA,47.68,NA
37207,Davidson County,TN,NA,69.28,NA
37211,Davidson County,TN,NA,51.2,NA
37217,Davidson County,TN,NA,41.760000000000005,NA
37327,Sequatchie County,TN,NA,41.28,NA
37354,Monroe County,TN,44.80874316939891,NA,NA
37601,Washington County,TN,86.88524590163934,NA,NA
37604,Washington County,TN,NA,51.35999999999999,NA
37687,Carter County,TN,NA,92,NA
38111,Shelby County,TN,NA,23.52,NA
38122,Shelby County,TN,65.02732240437157,NA,NA
38125,Shelby County,TN,NA,53.92,NA
38139,Shelby County,TN,NA,93.12,NA
38340,Chester County,TN,NA,61.760000000000005,NA
75044,Dallas County,TX,33.33333333333333,NA,NA
75088,Dallas County,TX,NA,86.56,NA
75134,Dallas County,TX,42.62295081967213,NA,NA
75204,Dallas County,TX,NA,58.4,NA
75224,Dallas County,TX,NA,72.64,NA
75253,Dallas County,TX,59.56284153005464,NA,NA
75602,Gregg County,TX,NA,57.76,NA
75758,Henderson County,TX,NA,NA,93.23671497584542
75783,Wood County,TX,NA,NA,67.14975845410628
76020,Tarrant County,TX,NA,30.4,NA
76021,Tarrant County,TX,NA,65.12,NA
76108,Tarrant County,TX,NA,38.080000000000005,NA
76116,Tarrant County,TX,12.021857923497267,NA,NA
76240,Cooke County,TX,NA,39.36,NA
76501,Bell County,TX,NA,79.52,NA
76528,Coryell County,TX,NA,NA,48.792270531400966
76541,Bell County,TX,NA,45.76,NA
76543,Bell County,TX,NA,28.96,NA
76705,McLennan County,TX,NA,17.919999999999998,NA
76712,McLennan County,TX,NA,41.6,NA
76901,Tom Green County,TX,NA,NA,32.850241545893724
77025,Harris County,TX,74.31693989071039,NA,NA
77072,Harris County,TX,NA,53.6,NA
77087,Harris County,TX,NA,56.00000000000001,55.55555555555556
77090,Harris County,TX,NA,NA,56.038647342995176
77328,San Jacinto County,TX,78.14207650273224,NA,NA
77339,Harris County,TX,81.4207650273224,NA,NA
77365,Montgomery County,TX,63.934426229508205,NA,NA
77375,Harris County,TX,22.404371584699454,NA,NA
77406,Fort Bend County,TX,40.98360655737705,NA,NA
77449,Harris County,TX,NA,11.200000000000001,NA
77498,Fort Bend County,TX,NA,54.559999999999995,NA
77503,Harris County,TX,53.00546448087432,NA,NA
77520,Harris County,TX,30.05464480874317,44.32,NA
77523,Chambers County,TX,NA,57.28,NA
77539,Galveston County,TX,4.918032786885246,NA,NA
77587,Harris County,TX,65.57377049180327,NA,NA
77845,Brazos County,TX,7.650273224043716,NA,NA
78040,Webb County,TX,NA,40.64,NA
78209,Bexar County,TX,NA,61.12,NA
78218,Bexar County,TX,51.91256830601093,NA,NA
78516,Hidalgo County,TX,NA,58.879999999999995,NA
78645,Travis County,TX,NA,84.96000000000001,NA
78717,Williamson County,TX,NA,NA,92.7536231884058
79701,Midland County,TX,NA,NA,65.21739130434783
79707,Midland County,TX,46.44808743169399,NA,NA
79912,El Paso County,TX,50.27322404371585,NA,NA
79925,El Paso County,TX,44.26229508196721,NA,NA
84003,Utah County,UT,35.51912568306011,NA,NA
84041,Davis County,UT,NA,36.480000000000004,NA
84044,Salt Lake County,UT,43.169398907103826,NA,NA
84049,Wasatch County,UT,NA,NA,99.51690821256038
84103,Salt Lake County,UT,NA,NA,71.98067632850241
84108,Salt Lake County,UT,NA,92.96,NA
84115,Salt Lake County,UT,NA,68.47999999999999,NA
84118,Salt Lake County,UT,NA,NA,52.17391304347826
05143,Windsor County,VT,NA,99.36,NA
05461,Chittenden County,VT,NA,98.08,NA
20187,Fauquier County,VA,NA,NA,75.36231884057972
22180,Fairfax County,VA,NA,77.12,NA
22201,Arlington County,VA,NA,NA,69.56521739130434
22408,Spotsylvania County,VA,NA,NA,57.971014492753625
22901,Albemarle County,VA,NA,34.08,NA
22902,Charlottesville city,VA,NA,57.440000000000005,NA
22903,Charlottesville city,VA,NA,NA,20.77294685990338
23060,Henrico County,VA,NA,59.519999999999996,NA
23111,Hanover County,VA,NA,49.120000000000005,NA
23228,Henrico County,VA,NA,49.28,NA
23234,Chesterfield County,VA,NA,20,NA
23434,Suffolk city,VA,NA,16.48,NA
23452,Virginia Beach city,VA,NA,24,NA
23455,Virginia Beach city,VA,NA,NA,10.628019323671497
23504,Norfolk city,VA,NA,28.000000000000004,NA
23803,Petersburg city,VA,NA,11.68,NA
23805,Petersburg city,VA,NA,53.44,NA
23851,Franklin city,VA,NA,81.6,NA
24014,Roanoke city,VA,NA,66.56,NA
24136,Giles County,VA,NA,95.52000000000001,NA
24179,Roanoke County,VA,NA,NA,79.22705314009661
24523,Bedford County,VA,60.10928961748634,NA,NA
24540,Danville city,VA,25.683060109289617,NA,NA
98012,Snohomish County,WA,NA,88.32,NA
98058,King County,WA,NA,32.48,NA
98072,King County,WA,NA,83.67999999999999,NA
98121,King County,WA,NA,53.76,NA
98198,King County,WA,NA,70.24000000000001,NA
98294,Snohomish County,WA,NA,89.12,NA
98310,Kitsap County,WA,NA,85.44,NA
98362,Clallam County,WA,NA,35.68,NA
98406,Pierce County,WA,NA,84.32,NA
98607,Clark County,WA,NA,75.2,NA
98642,Clark County,WA,NA,92.32000000000001,NA
98802,Douglas County,WA,NA,NA,28.985507246376812
99111,Whitman County,WA,90.7103825136612,NA,NA
99218,Spokane County,WA,71.03825136612022,NA,NA
99336,Benton County,WA,NA,12.32,NA
99362,Walla Walla County,WA,NA,27.839999999999996,NA
20010,District of Columbia,DC,NA,53.28000000000001,NA
20020,District of Columbia,DC,NA,NA,6.763285024154589
24870,Wyoming County,WV,NA,NA,98.55072463768117
25302,Kanawha County,WV,NA,54.72,NA
25387,Kanawha County,WV,83.60655737704919,NA,NA
25550,Mason County,WV,NA,49.76,NA
26105,Wood County,WV,NA,48.32,NA
26201,Upshur County,WV,NA,55.52,NA
26426,Harrison County,WV,NA,98.88,NA
26431,Harrison County,WV,NA,81.76,NA
26444,Preston County,WV,NA,96.8,NA
26505,Monongalia County,WV,NA,55.67999999999999,NA
26508,Monongalia County,WV,NA,NA,5.314009661835748
26554,Marion County,WV,NA,23.200000000000003,NA
26726,Mineral County,WV,NA,83.2,NA
53033,Washington County,WI,NA,99.03999999999999,NA
53072,Waukesha County,WI,38.79781420765027,NA,NA
53094,Jefferson County,WI,NA,41.44,NA
53098,Dodge County,WI,83.60655737704919,NA,NA
53172,Milwaukee County,WI,77.04918032786885,NA,NA
53213,Milwaukee County,WI,NA,NA,31.88405797101449
53215,Milwaukee County,WI,NA,3.6799999999999997,NA
53219,Milwaukee County,WI,NA,NA,14.009661835748794
53222,Milwaukee County,WI,NA,79.67999999999999,NA
53406,Racine County,WI,NA,15.2,NA
53511,Rock County,WI,NA,60.480000000000004,NA
53520,Green County,WI,NA,74.88,NA
53545,Rock County,WI,17.48633879781421,NA,NA
53714,Dane County,WI,51.36612021857923,NA,NA
53718,Dane County,WI,NA,NA,95.16908212560386
54016,St. Croix County,WI,34.42622950819672,NA,NA
54130,Outagamie County,WI,NA,57.92,NA
54409,Langlade County,WI,NA,NA,24.637681159420293
54476,Marathon County,WI,24.043715846994534,NA,NA
54840,Burnett County,WI,NA,91.36,NA
54880,Douglas County,WI,NA,44.800000000000004,NA
54901,Winnebago County,WI,NA,28.32,NA
54904,Winnebago County,WI,NA,66.24,NA
54914,Outagamie County,WI,NA,24.64,NA
54956,Winnebago County,WI,8.19672131147541,NA,NA
82718,Campbell County,WY,NA,80.16,NA
