ZipCode,county,state,Youth,Adult,Retirement,Geriatric
35010,Tallapoosa County,AL,NA,NA,NA,29.949238578680205
35023,Jefferson County,AL,NA,32.589285714285715,NA,NA
35080,Shelby County,AL,NA,NA,NA,90.86294416243655
35124,Shelby County,AL,NA,NA,NA,75.1269035532995
35128,St. Clair County,AL,NA,78.57142857142857,NA,NA
35213,Jefferson County,AL,75.66666666666667,NA,NA,NA
35216,Jefferson County,AL,34,NA,NA,NA
35222,Jefferson County,AL,NA,NA,88.88888888888889,NA
35226,Jefferson County,AL,NA,50.89285714285714,NA,NA
35504,Walker County,AL,NA,72.32142857142857,NA,NA
35620,Limestone County,AL,60.66666666666667,NA,NA,NA
35907,Etowah County,AL,91.66666666666666,NA,NA,NA
35967,DeKalb County,AL,48.66666666666667,NA,NA,NA
36274,Randolph County,AL,NA,NA,NA,94.41624365482234
36330,Coffee County,AL,NA,NA,42.22222222222222,NA
36608,Mobile County,AL,NA,46.42857142857143,NA,NA
36619,Mobile County,AL,NA,NA,72.22222222222221,NA
99501,Anchorage Municipality,AK,NA,23.660714285714285,NA,NA
99577,Anchorage Municipality,AK,NA,NA,NA,93.4010152284264
85016,Maricopa County,AZ,NA,NA,NA,69.54314720812182
85018,Maricopa County,AZ,68.33333333333333,NA,NA,NA
85021,Maricopa County,AZ,NA,NA,70,NA
85024,Maricopa County,AZ,NA,77.23214285714286,NA,NA
85027,Maricopa County,AZ,54.666666666666664,NA,NA,NA
85042,Maricopa County,AZ,NA,63.39285714285714,NA,NA
85048,Maricopa County,AZ,NA,53.125,NA,NA
85051,Maricopa County,AZ,NA,NA,NA,76.14213197969542
85132,Pinal County,AZ,NA,71.875,NA,NA
85142,Maricopa County,AZ,7.666666666666666,NA,NA,NA
85208,Maricopa County,AZ,74,NA,NA,NA
85225,Maricopa County,AZ,NA,12.946428571428573,NA,NA
85249,Maricopa County,AZ,25,NA,NA,NA
85251,Maricopa County,AZ,NA,74.55357142857143,NA,NA
85351,Maricopa County,AZ,NA,NA,NA,0
85354,Maricopa County,AZ,99.33333333333333,NA,NA,NA
85364,Yuma County,AZ,17.333333333333336,NA,NA,NA
85392,Maricopa County,AZ,10.666666666666668,NA,NA,NA
85541,Gila County,AZ,NA,NA,NA,27.918781725888326
85712,Pima County,AZ,68,NA,NA,NA
85756,Pima County,AZ,NA,NA,66.66666666666666,NA
86001,Coconino County,AZ,NA,20.535714285714285,92.22222222222223,NA
86021,Mohave County,AZ,NA,98.21428571428571,NA,NA
86045,Coconino County,AZ,NA,26.785714285714285,NA,NA
86324,Yavapai County,AZ,NA,98.66071428571429,NA,NA
86404,Mohave County,AZ,NA,75.44642857142857,NA,NA
86406,Mohave County,AZ,NA,NA,27.22222222222222,NA
86429,Mohave County,AZ,NA,86.60714285714286,NA,NA
71854,Miller County,AR,27,NA,NA,NA
72023,Lonoke County,AR,NA,NA,29.444444444444446,NA
72088,Van Buren County,AR,NA,NA,94.44444444444444,NA
72104,Hot Spring County,AR,NA,NA,NA,57.360406091370564
72634,Marion County,AR,87,NA,NA,NA
72762,Washington County,AR,NA,NA,NA,53.299492385786806
72764,Washington County,AR,NA,NA,61.111111111111114,NA
90016,Los Angeles County,CA,NA,45.535714285714285,NA,NA
90036,Los Angeles County,CA,NA,NA,NA,32.99492385786802
90059,Los Angeles County,CA,NA,37.94642857142857,NA,NA
90201,Los Angeles County,CA,NA,NA,NA,54.314720812182735
90220,Los Angeles County,CA,NA,NA,NA,42.13197969543147
90291,Los Angeles County,CA,94,NA,NA,NA
90504,Los Angeles County,CA,65.66666666666666,NA,NA,NA
90606,Los Angeles County,CA,NA,NA,64.44444444444444,NA
90706,Los Angeles County,CA,NA,26.339285714285715,NA,NA
91306,Los Angeles County,CA,NA,42.857142857142854,NA,NA
91331,Los Angeles County,CA,NA,NA,NA,35.53299492385787
91390,Los Angeles County,CA,NA,82.14285714285714,NA,NA
91605,Los Angeles County,CA,NA,NA,55.55555555555556,NA
91710,San Bernardino County,CA,NA,NA,NA,49.23857868020304
91722,Los Angeles County,CA,NA,71.42857142857143,NA,NA
91740,Los Angeles County,CA,NA,NA,NA,64.9746192893401
91744,Los Angeles County,CA,NA,17.857142857142858,NA,NA
91764,San Bernardino County,CA,NA,70.53571428571429,NA,NA
92021,San Diego County,CA,NA,48.214285714285715,NA,NA
92028,San Diego County,CA,68.66666666666667,NA,NA,NA
92102,San Diego County,CA,37,NA,NA,NA
92113,San Diego County,CA,NA,25.44642857142857,NA,NA
92223,Riverside County,CA,NA,NA,75.55555555555556,47.20812182741117
92234,Riverside County,CA,NA,66.96428571428571,NA,NA
92260,Riverside County,CA,95,NA,NA,NA
92336,San Bernardino County,CA,15,NA,NA,NA
92373,San Bernardino County,CA,NA,70.98214285714286,NA,NA
92399,San Bernardino County,CA,NA,33.482142857142854,NA,NA
92555,Riverside County,CA,NA,NA,68.33333333333333,NA
92585,Riverside County,CA,NA,NA,NA,100
92620,Orange County,CA,NA,78.125,NA,NA
92626,Orange County,CA,NA,NA,50.55555555555556,NA
92701,Orange County,CA,56.00000000000001,NA,NA,NA
92704,Orange County,CA,NA,NA,NA,44.16243654822335
92844,Orange County,CA,NA,NA,NA,96.95431472081218
92870,Orange County,CA,NA,NA,23.333333333333332,NA
93001,Ventura County,CA,NA,NA,NA,86.80203045685279
93219,Tulare County,CA,94.66666666666667,NA,NA,NA
93230,Kings County,CA,NA,NA,17.22222222222222,NA
93247,Tulare County,CA,NA,NA,NA,98.47715736040608
93277,Tulare County,CA,28.333333333333332,NA,NA,NA
93436,Santa Barbara County,CA,NA,NA,NA,11.6751269035533
93446,San Luis Obispo County,CA,42.66666666666667,29.017857142857146,NA,NA
93638,Madera County,CA,5.333333333333334,NA,NA,NA
93727,Fresno County,CA,NA,NA,26.111111111111114,NA
94010,San Mateo County,CA,NA,NA,NA,9.137055837563452
94044,San Mateo County,CA,67,NA,NA,NA
94110,San Francisco County,CA,NA,NA,NA,23.3502538071066
94111,San Francisco County,CA,NA,NA,97.22222222222221,NA
94117,San Francisco County,CA,NA,NA,NA,75.63451776649747
94118,San Francisco County,CA,NA,NA,40.55555555555556,NA
94132,San Francisco County,CA,86,NA,NA,NA
94501,Alameda County,CA,45,NA,NA,NA
94502,Alameda County,CA,NA,95.08928571428571,NA,NA
94521,Contra Costa County,CA,37.666666666666664,NA,NA,NA
94560,Alameda County,CA,NA,57.14285714285714,NA,45.17766497461929
94612,Alameda County,CA,NA,NA,NA,80.20304568527918
94705,Alameda County,CA,NA,99.10714285714286,NA,NA
94920,Marin County,CA,NA,NA,84.44444444444444,NA
94960,Marin County,CA,88.33333333333333,NA,NA,NA
95111,Santa Clara County,CA,NA,39.732142857142854,NA,NA
95116,Santa Clara County,CA,NA,NA,NA,58.37563451776649
95122,Santa Clara County,CA,NA,49.107142857142854,NA,82.23350253807106
95129,Santa Clara County,CA,86.33333333333333,NA,NA,NA
95204,San Joaquin County,CA,NA,60.26785714285714,NA,NA
95252,Calaveras County,CA,78.66666666666666,NA,NA,83.24873096446701
95307,Stanislaus County,CA,NA,35.714285714285715,NA,NA
95341,Merced County,CA,66.33333333333333,NA,NA,NA
95355,Stanislaus County,CA,34.333333333333336,NA,NA,NA
95407,Sonoma County,CA,NA,64.28571428571429,NA,NA
95457,Lake County,CA,NA,95.53571428571429,NA,NA
95503,Humboldt County,CA,NA,51.78571428571429,NA,NA
95519,Humboldt County,CA,NA,NA,57.22222222222222,NA
95667,El Dorado County,CA,45.666666666666664,NA,NA,NA
95828,Sacramento County,CA,NA,NA,NA,37.055837563451774
95901,Yuba County,CA,27.333333333333332,NA,NA,NA
96001,Shasta County,CA,NA,21.875,55.00000000000001,NA
96093,Trinity County,CA,NA,NA,91.66666666666666,NA
96101,Modoc County,CA,NA,NA,87.22222222222223,NA
96122,Plumas County,CA,NA,NA,85,NA
80012,Arapahoe County,CO,NA,12.053571428571429,NA,NA
80014,Arapahoe County,CO,NA,34.82142857142857,NA,NA
80016,Arapahoe County,CO,4,NA,NA,NA
80138,Douglas County,CO,30.333333333333336,NA,NA,NA
80204,Denver County,CO,NA,23.214285714285715,NA,NA
80220,Denver County,CO,NA,37.5,NA,NA
80232,Jefferson County,CO,70,NA,NA,NA
80247,Arapahoe County,CO,NA,NA,NA,38.07106598984771
80301,Boulder County,CO,49,NA,NA,NA
80304,Boulder County,CO,50.66666666666667,NA,NA,NA
80487,Routt County,CO,88.33333333333333,NA,NA,NA
80528,Larimer County,CO,58.666666666666664,NA,NA,NA
80631,Weld County,CO,10,NA,NA,NA
80634,Weld County,CO,5,NA,NA,NA
80915,El Paso County,CO,NA,NA,NA,67.51269035532995
81201,Chaffee County,CO,84,NA,NA,NA
81501,Mesa County,CO,64,NA,NA,78.1725888324873
81506,Mesa County,CO,NA,NA,NA,63.45177664974619
81601,Garfield County,CO,NA,80.80357142857143,NA,NA
06010,Hartford County,CT,4.666666666666667,NA,NA,NA
06032,Hartford County,CT,NA,NA,NA,50.25380710659898
06042,Hartford County,CT,73.66666666666667,NA,NA,NA
06457,Middlesex County,CT,NA,NA,7.777777777777778,NA
06460,New Haven County,CT,NA,30.357142857142854,NA,NA
06482,Fairfield County,CT,NA,NA,90,NA
06484,Fairfield County,CT,NA,NA,31.666666666666664,NA
06511,New Haven County,CT,NA,NA,10,NA
06776,Litchfield County,CT,NA,NA,36.666666666666664,NA
06840,Fairfield County,CT,64,NA,NA,NA
06854,Fairfield County,CT,NA,NA,74.44444444444444,NA
06897,Fairfield County,CT,54.333333333333336,NA,NA,NA
06902,Fairfield County,CT,NA,NA,11.11111111111111,NA
19805,New Castle County,DE,NA,4.017857142857143,NA,NA
19904,Kent County,DE,NA,NA,NA,24.36548223350254
19943,Kent County,DE,NA,NA,71.66666666666667,NA
19945,Sussex County,DE,NA,NA,NA,71.06598984771574
19958,Sussex County,DE,NA,NA,3.888888888888889,10.152284263959391
19963,Sussex County,DE,41,NA,NA,NA
32084,St. Johns County,FL,49.333333333333336,NA,NA,NA
32091,Bradford County,FL,NA,44.642857142857146,NA,NA
32169,Volusia County,FL,NA,NA,NA,59.390862944162436
32234,Duval County,FL,NA,NA,NA,95.43147208121827
32259,St. Johns County,FL,28.999999999999996,NA,NA,NA
32308,Leon County,FL,NA,NA,67.22222222222223,NA
32401,Bay County,FL,50.66666666666667,NA,NA,NA
32456,Gulf County,FL,52.666666666666664,NA,NA,NA
32503,Escambia County,FL,NA,20.982142857142858,NA,NA
32504,Escambia County,FL,NA,54.01785714285714,NA,NA
32505,Escambia County,FL,NA,18.75,NA,NA
32605,Alachua County,FL,NA,NA,NA,21.82741116751269
32617,Marion County,FL,100,NA,NA,NA
32765,Seminole County,FL,NA,61.16071428571429,NA,NA
32963,Indian River County,FL,NA,NA,58.333333333333336,NA
32966,Indian River County,FL,NA,NA,NA,14.213197969543149
32968,Indian River County,FL,NA,NA,NA,82.74111675126903
33033,Miami-Dade County,FL,12.666666666666668,NA,NA,NA
33054,Miami-Dade County,FL,57.99999999999999,NA,NA,NA
33069,Broward County,FL,60.66666666666667,NA,NA,NA
33071,Broward County,FL,39,NA,NA,NA
33141,Miami-Dade County,FL,NA,NA,NA,85.27918781725889
33142,Miami-Dade County,FL,15.666666666666668,19.196428571428573,NA,NA
33145,Miami-Dade County,FL,NA,NA,NA,32.48730964467005
33173,Miami-Dade County,FL,NA,NA,NA,15.228426395939088
33410,Palm Beach County,FL,NA,NA,37.77777777777778,NA
33434,Palm Beach County,FL,NA,83.03571428571429,NA,NA
33458,Palm Beach County,FL,NA,NA,24.444444444444443,NA
33473,Palm Beach County,FL,95.66666666666667,NA,NA,NA
33483,Palm Beach County,FL,NA,NA,82.77777777777777,NA
33511,Hillsborough County,FL,NA,NA,NA,51.26903553299492
33578,Hillsborough County,FL,NA,NA,NA,68.02030456852792
33776,Pinellas County,FL,NA,94.19642857142857,NA,NA
33781,Pinellas County,FL,NA,NA,42.77777777777778,NA
33813,Polk County,FL,NA,NA,NA,72.08121827411168
33830,Polk County,FL,24,38.839285714285715,NA,NA
33852,Highlands County,FL,NA,NA,21.11111111111111,NA
33908,Lee County,FL,NA,NA,5,NA
33912,Lee County,FL,88,NA,NA,NA
34110,Collier County,FL,90.66666666666666,NA,NA,NA
34120,Collier County,FL,NA,NA,NA,88.83248730964468
34202,Manatee County,FL,NA,NA,NA,41.11675126903553
34203,Manatee County,FL,NA,81.69642857142857,22.22222222222222,NA
34229,Sarasota County,FL,NA,95.98214285714286,NA,NA
34471,Marion County,FL,NA,NA,NA,48.73096446700508
34474,Marion County,FL,60,NA,NA,NA
34488,Marion County,FL,NA,75.89285714285714,NA,NA
34761,Orange County,FL,NA,NA,NA,34.51776649746193
30004,Fulton County,GA,NA,NA,41.66666666666667,NA
30008,Cobb County,GA,NA,NA,NA,83.75634517766497
30052,Walton County,GA,NA,NA,NA,24.873096446700508
30240,Troup County,GA,NA,NA,NA,39.08629441624365
30331,Fulton County,GA,NA,NA,7.222222222222221,NA
30506,Hall County,GA,NA,66.51785714285714,NA,NA
30563,Habersham County,GA,NA,NA,95,NA
30736,Catoosa County,GA,NA,NA,NA,48.223350253807105
30752,Dade County,GA,NA,NA,NA,96.44670050761421
30907,Columbia County,GA,NA,NA,10.555555555555555,NA
31024,Putnam County,GA,74.33333333333333,NA,NA,NA
31794,Tift County,GA,NA,29.464285714285715,NA,NA
31833,Troup County,GA,NA,79.91071428571429,NA,NA
96748,Maui County,HI,NA,NA,93.88888888888889,NA
83607,Canyon County,ID,NA,NA,NA,45.68527918781726
83687,Canyon County,ID,NA,58.03571428571429,NA,NA
83814,Kootenai County,ID,NA,37.05357142857143,NA,NA
60014,McHenry County,IL,NA,NA,14.444444444444443,NA
60044,Lake County,IL,85,NA,NA,NA
60089,Lake County,IL,NA,NA,8.88888888888889,NA
60107,Cook County,IL,33.666666666666664,NA,NA,NA
60123,Kane County,IL,NA,22.767857142857142,NA,NA
60406,Cook County,IL,NA,NA,NA,53.80710659898477
60417,Will County,IL,NA,NA,43.333333333333336,NA
60527,DuPage County,IL,35,NA,NA,NA
60544,Will County,IL,NA,39.285714285714285,NA,NA
60585,Will County,IL,33,NA,NA,NA
60609,Cook County,IL,NA,NA,NA,18.781725888324875
60617,Cook County,IL,NA,NA,2.7777777777777777,NA
60628,Cook County,IL,NA,NA,NA,2.030456852791878
60632,Cook County,IL,NA,NA,NA,27.411167512690355
60634,Cook County,IL,11.666666666666666,NA,NA,NA
60714,Cook County,IL,82,NA,NA,NA
61548,Woodford County,IL,91,NA,NA,NA
62002,Madison County,IL,NA,NA,NA,12.690355329949238
62049,Montgomery County,IL,NA,NA,NA,74.11167512690355
62226,St. Clair County,IL,NA,45.982142857142854,NA,NA
46038,Hamilton County,IN,55.333333333333336,NA,NA,NA
46072,Tipton County,IN,86.33333333333333,NA,NA,NA
46123,Hendricks County,IN,NA,NA,48.888888888888886,NA
46226,Marion County,IN,NA,12.5,NA,NA
46227,Marion County,IN,16,NA,NA,NA
46234,Marion County,IN,NA,65.17857142857143,NA,NA
46256,Marion County,IN,82,NA,NA,NA
46260,Marion County,IN,NA,47.767857142857146,NA,NA
46304,Porter County,IN,NA,13.839285714285715,NA,NA
46342,Lake County,IN,12.333333333333334,7.5892857142857135,NA,NA
46350,LaPorte County,IN,NA,10.714285714285714,NA,NA
46356,Lake County,IN,31.666666666666664,NA,NA,NA
46368,Porter County,IN,NA,3.125,NA,NA
46701,Noble County,IN,NA,76.78571428571429,NA,NA
46901,Howard County,IN,NA,1.7857142857142856,NA,NA
46902,Howard County,IN,3.3333333333333335,NA,NA,NA
46979,Howard County,IN,85.66666666666667,NA,NA,NA
47201,Bartholomew County,IN,3,NA,NA,NA
47304,Delaware County,IN,NA,54.91071428571429,NA,NA
47441,Greene County,IN,NA,NA,NA,56.852791878172596
47805,Vigo County,IN,39.666666666666664,NA,NA,NA
47807,Vigo County,IN,NA,NA,NA,99.49238578680203
47901,Tippecanoe County,IN,NA,97.76785714285714,NA,NA
50501,Webster County,IA,29.333333333333332,NA,NA,26.903553299492383
51442,Crawford County,IA,NA,89.28571428571429,NA,NA
51560,Pottawattamie County,IA,88.33333333333333,NA,NA,NA
52001,Dubuque County,IA,NA,NA,65.55555555555556,NA
52002,Dubuque County,IA,NA,NA,86.11111111111111,NA
52302,Linn County,IA,46.33333333333333,NA,NA,NA
52349,Benton County,IA,NA,NA,85.55555555555556,NA
66002,Atchison County,KS,NA,NA,65,NA
66215,Johnson County,KS,87.66666666666667,NA,NA,NA
66605,Shawnee County,KS,NA,53.57142857142857,NA,NA
66609,Shawnee County,KS,NA,NA,NA,92.89340101522842
67735,Sherman County,KS,NA,NA,83.33333333333334,NA
67801,Ford County,KS,53.666666666666664,NA,NA,NA
67846,Finney County,KS,NA,NA,NA,22.33502538071066
67855,Stanton County,KS,97,NA,NA,NA
40203,Jefferson County,KY,17.333333333333336,NA,NA,NA
40214,Jefferson County,KY,NA,9.821428571428571,NA,NA
40222,Jefferson County,KY,NA,NA,NA,25.380710659898476
40299,Jefferson County,KY,NA,NA,NA,15.736040609137056
40342,Anderson County,KY,NA,NA,NA,79.69543147208121
40403,Madison County,KY,52,NA,NA,NA
40505,Fayette County,KY,NA,NA,34.44444444444444,NA
40517,Fayette County,KY,NA,22.321428571428573,NA,NA
41005,Boone County,KY,NA,NA,NA,62.43654822335025
41018,Kenton County,KY,NA,27.232142857142854,NA,NA
41164,Carter County,KY,NA,NA,38.88888888888889,NA
42003,McCracken County,KY,NA,NA,17.77777777777778,NA
42217,Christian County,KY,96.66666666666667,NA,NA,NA
42633,Wayne County,KY,NA,55.35714285714286,NA,NA
42743,Green County,KY,NA,NA,NA,49.746192893401016
70056,Jefferson Parish,LA,NA,24.107142857142858,NA,NA
70345,Lafourche Parish,LA,98,NA,NA,NA
70422,Tangipahoa Parish,LA,47,NA,NA,NA
70433,St. Tammany Parish,LA,23,NA,NA,NA
70449,Livingston Parish,LA,NA,NA,97.77777777777777,NA
70508,Lafayette Parish,LA,NA,NA,NA,31.472081218274113
70520,Lafayette Parish,LA,NA,24.553571428571427,NA,NA
70570,St. Landry Parish,LA,0,NA,NA,NA
70605,Calcasieu Parish,LA,31,NA,NA,NA
70769,Ascension Parish,LA,7.333333333333333,NA,NA,NA
70785,Livingston Parish,LA,NA,NA,45,NA
70817,East Baton Rouge Parish,LA,NA,NA,81.66666666666667,NA
71075,Webster Parish,LA,NA,69.64285714285714,NA,NA
71483,Winn Parish,LA,NA,41.07142857142857,NA,NA
04401,Penobscot County,ME,NA,NA,NA,0.5076142131979695
04976,Somerset County,ME,NA,68.30357142857143,NA,NA
20895,Montgomery County,MD,71,NA,NA,NA
21060,Anne Arundel County,MD,73,NA,NA,NA
21208,Baltimore County,MD,NA,64.73214285714286,NA,NA
21220,Baltimore County,MD,NA,NA,33.33333333333333,NA
21224,Baltimore city,MD,NA,NA,41.11111111111111,NA
21601,Talbot County,MD,NA,86.16071428571429,NA,NA
21777,Frederick County,MD,97.33333333333334,NA,NA,NA
21797,Howard County,MD,NA,94.64285714285714,NA,NA
21921,Cecil County,MD,19.666666666666664,NA,NA,NA
01007,Hampshire County,MA,76.66666666666667,NA,NA,NA
01040,Hampden County,MA,NA,NA,0,NA
01057,Hampden County,MA,NA,NA,52.22222222222223,NA
01060,Hampshire County,MA,NA,45.089285714285715,NA,NA
01201,Berkshire County,MA,1.3333333333333335,NA,NA,NA
01453,Worcester County,MA,11,NA,NA,NA
01752,Middlesex County,MA,NA,4.464285714285714,NA,NA
01803,Middlesex County,MA,NA,20.089285714285715,NA,NA
01830,Essex County,MA,72.66666666666667,NA,NA,NA
01852,Middlesex County,MA,NA,NA,NA,16.751269035532996
01867,Middlesex County,MA,71.66666666666667,NA,NA,NA
01886,Middlesex County,MA,NA,NA,35.55555555555556,NA
01960,Essex County,MA,NA,NA,NA,1.5228426395939088
02035,Norfolk County,MA,NA,NA,23.88888888888889,NA
02130,Suffolk County,MA,NA,NA,NA,2.5380710659898478
02149,Middlesex County,MA,NA,73.21428571428571,NA,NA
02150,Suffolk County,MA,NA,NA,NA,4.060913705583756
02170,Norfolk County,MA,NA,NA,8.333333333333332,NA
02186,Norfolk County,MA,NA,NA,NA,18.274111675126903
02359,Plymouth County,MA,69,NA,NA,NA
02420,Middlesex County,MA,NA,NA,62.77777777777778,NA
02492,Norfolk County,MA,35.333333333333336,NA,NA,NA
02633,Barnstable County,MA,NA,NA,NA,65.98984771573603
02720,Bristol County,MA,NA,2.232142857142857,NA,NA
02746,Bristol County,MA,NA,14.732142857142858,NA,NA
48030,Oakland County,MI,NA,NA,NA,89.34010152284264
48042,Macomb County,MI,20.333333333333332,NA,NA,NA
48044,Macomb County,MI,11.333333333333332,NA,NA,NA
48080,Macomb County,MI,53.333333333333336,NA,NA,NA
48082,Macomb County,MI,NA,49.55357142857143,NA,NA
48093,Macomb County,MI,NA,19.642857142857142,NA,NA
48103,Washtenaw County,MI,NA,NA,1.1111111111111112,NA
48166,Monroe County,MI,NA,NA,44.44444444444444,NA
48178,Oakland County,MI,NA,91.07142857142857,NA,NA
48180,Wayne County,MI,1,NA,NA,NA
48183,Wayne County,MI,16.666666666666664,NA,NA,9.644670050761421
48185,Wayne County,MI,NA,NA,5.555555555555555,NA
48304,Oakland County,MI,NA,69.19642857142857,NA,NA
48306,Oakland County,MI,32.666666666666664,NA,NA,NA
48322,Oakland County,MI,NA,NA,NA,3.0456852791878175
48327,Oakland County,MI,51.33333333333333,NA,NA,NA
48335,Oakland County,MI,NA,NA,91.11111111111111,NA
48346,Oakland County,MI,52.666666666666664,NA,NA,NA
48382,Oakland County,MI,NA,NA,39.44444444444444,NA
48458,Genesee County,MI,NA,33.92857142857143,NA,NA
48507,Genesee County,MI,NA,NA,NA,40.609137055837564
48603,Saginaw County,MI,6.666666666666667,NA,NA,NA
48768,Tuscola County,MI,77,NA,NA,NA
48858,Isabella County,MI,8.666666666666668,NA,NA,NA
48880,Gratiot County,MI,61.66666666666667,NA,NA,NA
48917,Eaton County,MI,NA,NA,45.55555555555556,NA
49017,Calhoun County,MI,NA,NA,25,NA
49120,Berrien County,MI,NA,15.178571428571427,NA,NA
49203,Jackson County,MI,NA,NA,NA,6.091370558375635
49424,Ottawa County,MI,NA,NA,NA,7.614213197969544
49684,Grand Traverse County,MI,NA,58.92857142857143,NA,NA
49686,Grand Traverse County,MI,NA,50,NA,NA
49712,Charlevoix County,MI,NA,NA,77.77777777777779,NA
49715,Chippewa County,MI,NA,92.41071428571429,NA,NA
49770,Emmet County,MI,NA,NA,NA,30.96446700507614
49829,Delta County,MI,NA,NA,NA,28.426395939086298
55009,Goodhue County,MN,93.66666666666667,NA,NA,NA
55068,Dakota County,MN,NA,67.85714285714286,NA,NA
55121,Dakota County,MN,92.33333333333333,82.58928571428571,NA,NA
55320,Wright County,MN,92.33333333333333,NA,NA,NA
55330,Sherburne County,MN,NA,44.19642857142857,NA,NA
55331,Hennepin County,MN,NA,85.71428571428571,NA,NA
55433,Anoka County,MN,36,NA,60,NA
55744,Itasca County,MN,NA,48.660714285714285,NA,NA
55792,St. Louis County,MN,NA,NA,32.22222222222222,NA
56241,Yellow Medicine County,MN,NA,92.85714285714286,NA,NA
56258,Lyon County,MN,NA,NA,NA,46.192893401015226
56345,Morrison County,MN,40.666666666666664,NA,NA,NA
56633,Hubbard County,MN,NA,NA,73.88888888888889,NA
56721,Polk County,MN,NA,81.25,NA,NA
38824,Prentiss County,MS,NA,NA,NA,79.18781725888326
38852,Tishomingo County,MS,NA,59.375,NA,NA
39059,Copiah County,MS,NA,NA,NA,86.29441624365482
39120,Adams County,MS,NA,NA,59.44444444444444,NA
39209,Hinds County,MS,NA,NA,NA,65.48223350253807
39452,George County,MS,9,NA,NA,NA
39466,Pearl River County,MS,NA,NA,NA,17.766497461928935
39470,Pearl River County,MS,NA,NA,NA,66.49746192893402
39532,Harrison County,MS,NA,NA,NA,76.6497461928934
63034,St. Louis County,MO,NA,NA,NA,52.79187817258884
63129,St. Louis County,MO,NA,46.875,NA,NA
63130,St. Louis County,MO,56.666666666666664,NA,NA,NA
63146,St. Louis County,MO,NA,NA,37.22222222222222,NA
63304,St. Charles County,MO,44.333333333333336,NA,NA,NA
63401,Marion County,MO,39,NA,NA,NA
64040,Johnson County,MO,82.66666666666667,NA,NA,NA
64056,Jackson County,MO,NA,28.125,NA,NA
64118,Clay County,MO,NA,NA,6.111111111111111,NA
64126,Jackson County,MO,56.333333333333336,NA,NA,NA
64133,Jackson County,MO,NA,NA,3.3333333333333335,NA
64439,Platte County,MO,92,NA,NA,NA
64468,Nodaway County,MO,NA,NA,NA,57.868020304568525
65203,Boone County,MO,8.333333333333332,NA,NA,NA
65301,Pettis County,MO,NA,4.910714285714286,NA,NA
65401,Phelps County,MO,NA,NA,18.88888888888889,NA
65810,Greene County,MO,87.33333333333333,NA,NA,NA
68130,Douglas County,NE,38.666666666666664,NA,NA,NA
68516,Lancaster County,NE,22.666666666666664,NA,NA,NA
89122,Clark County,NV,NA,27.67857142857143,NA,NA
89508,Washoe County,NV,NA,86.60714285714286,NA,NA
89701,Carson City,NV,NA,40.17857142857143,NA,NA
89801,Elko County,NV,63.33333333333333,NA,NA,NA
03045,Hillsborough County,NH,NA,NA,96.11111111111111,NA
03301,Merrimack County,NH,NA,NA,12.222222222222221,NA
03458,Hillsborough County,NH,NA,NA,80.55555555555556,NA
03773,Sullivan County,NH,NA,NA,89.44444444444444,NA
03801,Rockingham County,NH,NA,NA,NA,52.28426395939086
03842,Rockingham County,NH,NA,NA,NA,68.52791878172589
07010,Bergen County,NJ,NA,50.44642857142857,NA,NA
07078,Essex County,NJ,91.33333333333333,NA,NA,NA
07107,Essex County,NJ,NA,NA,4.444444444444445,NA
07110,Essex County,NJ,70,NA,NA,NA
07304,Hudson County,NJ,NA,3.571428571428571,NA,NA
07306,Hudson County,NJ,NA,6.696428571428571,NA,NA
07424,Passaic County,NJ,NA,40.625,NA,NA
07430,Bergen County,NJ,NA,NA,57.77777777777777,NA
07461,Sussex County,NJ,55.333333333333336,NA,NA,NA
07501,Passaic County,NJ,NA,NA,NA,50.76142131979695
07512,Passaic County,NJ,NA,NA,NA,87.30964467005076
07652,Bergen County,NJ,74.66666666666667,NA,NA,NA
07675,Bergen County,NJ,84.33333333333334,NA,NA,NA
07734,Monmouth County,NJ,NA,NA,NA,70.55837563451777
07740,Monmouth County,NJ,NA,9.375,NA,NA
07760,Monmouth County,NJ,NA,89.73214285714286,NA,NA
07840,Warren County,NJ,34.333333333333336,NA,NA,NA
07860,Sussex County,NJ,NA,28.57142857142857,NA,NA
07871,Sussex County,NJ,70.66666666666667,NA,NA,NA
07928,Morris County,NJ,81.66666666666667,NA,NA,NA
08005,Ocean County,NJ,NA,18.303571428571427,NA,NA
08033,Camden County,NJ,85.33333333333334,NA,NA,NA
08053,Burlington County,NJ,NA,25.892857142857146,NA,NA
08093,Gloucester County,NJ,NA,NA,76.11111111111111,NA
08108,Camden County,NJ,NA,65.625,NA,NA
08318,Salem County,NJ,NA,59.82142857142857,NA,NA
08618,Mercer County,NJ,24.666666666666668,NA,NA,NA
08628,Mercer County,NJ,NA,NA,NA,89.84771573604061
08820,Middlesex County,NJ,NA,NA,NA,17.258883248730964
87004,Sandoval County,NM,NA,NA,79.44444444444444,NA
87102,Bernalillo County,NM,NA,NA,NA,61.42131979695431
87107,Bernalillo County,NM,NA,36.160714285714285,NA,NA
87124,Sandoval County,NM,NA,NA,NA,81.7258883248731
87301,McKinley County,NM,NA,62.94642857142857,NA,NA
87328,McKinley County,NM,NA,90.625,NA,NA
87505,Santa Fe County,NM,NA,5.803571428571429,NA,NA
88220,Eddy County,NM,22.333333333333332,NA,NA,NA
88240,Lea County,NM,NA,8.482142857142858,NA,NA
10009,New York County,NY,NA,NA,NA,77.66497461928934
10023,New York County,NY,NA,51.33928571428571,NA,NA
10024,New York County,NY,NA,NA,NA,3.5532994923857872
10031,New York County,NY,NA,NA,NA,19.796954314720814
10033,New York County,NY,NA,NA,NA,12.18274111675127
10038,New York County,NY,NA,NA,NA,56.34517766497462
10040,New York County,NY,NA,NA,NA,35.025380710659896
10301,Richmond County,NY,NA,NA,49.44444444444444,NA
10453,Bronx County,NY,26.333333333333332,NA,NA,NA
10455,Bronx County,NY,NA,NA,NA,13.705583756345177
10461,Bronx County,NY,20,NA,NA,NA
10462,Bronx County,NY,NA,NA,NA,5.583756345177665
10472,Bronx County,NY,NA,NA,2.2222222222222223,NA
10589,Westchester County,NY,NA,99.55357142857143,NA,NA
10990,Orange County,NY,NA,87.5,NA,NA
11004,Queens County,NY,NA,NA,NA,72.58883248730965
11030,Nassau County,NY,NA,NA,88.33333333333333,NA
11101,Queens County,NY,NA,NA,NA,97.96954314720813
11210,Kings County,NY,NA,NA,NA,33.50253807106599
11220,Kings County,NY,3.6666666666666665,NA,NA,NA
11230,Kings County,NY,NA,NA,NA,5.0761421319796955
11354,Queens County,NY,NA,NA,NA,20.304568527918782
11355,Queens County,NY,NA,NA,NA,13.19796954314721
11368,Queens County,NY,0.6666666666666667,NA,NA,NA
11570,Nassau County,NY,NA,NA,62.22222222222222,NA
11717,Suffolk County,NY,17,NA,NA,NA
11772,Suffolk County,NY,NA,NA,25.555555555555554,NA
11961,Suffolk County,NY,NA,NA,NA,36.54822335025381
11967,Suffolk County,NY,NA,35.267857142857146,NA,NA
11971,Suffolk County,NY,NA,NA,93.33333333333333,NA
12043,Schoharie County,NY,NA,NA,NA,71.57360406091371
12804,Warren County,NY,NA,NA,NA,22.84263959390863
12834,Washington County,NY,56.99999999999999,NA,NA,NA
13068,Tompkins County,NY,78,NA,NA,NA
13069,Oswego County,NY,2.3333333333333335,6.25,NA,NA
13332,Madison County,NY,NA,84.82142857142857,NA,NA
13346,Madison County,NY,NA,NA,60.55555555555555,NA
13440,Oneida County,NY,NA,1.3392857142857142,NA,7.1065989847715745
13601,Jefferson County,NY,NA,5.357142857142857,NA,NA
13790,Broome County,NY,NA,11.160714285714286,NA,NA
14001,Erie County,NY,NA,72.76785714285714,NA,NA
14043,Erie County,NY,61.33333333333333,NA,NA,NA
14080,Erie County,NY,NA,91.96428571428571,NA,NA
14120,Niagara County,NY,NA,NA,NA,21.31979695431472
14206,Erie County,NY,NA,NA,27.77777777777778,NA
14208,Erie County,NY,83.66666666666667,NA,NA,NA
14217,Erie County,NY,NA,NA,20.555555555555554,NA
14218,Erie County,NY,49.666666666666664,NA,NA,NA
14225,Erie County,NY,NA,NA,18.333333333333332,NA
14420,Monroe County,NY,15.333333333333332,NA,21.666666666666668,NA
14437,Livingston County,NY,41.333333333333336,NA,NA,NA
14580,Monroe County,NY,NA,0.4464285714285714,NA,NA
14612,Monroe County,NY,NA,NA,NA,73.09644670050761
14615,Monroe County,NY,21.333333333333336,NA,36.11111111111111,NA
14623,Monroe County,NY,NA,17.410714285714285,NA,NA
14625,Monroe County,NY,NA,NA,87.77777777777777,NA
14706,Cattaraugus County,NY,NA,62.05357142857143,NA,NA
14770,Cattaraugus County,NY,93.33333333333333,NA,NA,NA
14823,Steuben County,NY,NA,NA,NA,97.46192893401016
14886,Tompkins County,NY,59,NA,67.77777777777779,NA
27051,Forsyth County,NC,NA,NA,NA,84.26395939086294
27105,Forsyth County,NC,2,15.625,NA,NA
27215,Alamance County,NC,14.333333333333334,NA,NA,NA
27217,Alamance County,NC,36.333333333333336,NA,NA,NA
27263,Randolph County,NC,NA,NA,NA,74.61928934010153
27330,Lee County,NC,32,NA,NA,NA
27408,Guilford County,NC,NA,83.48214285714286,NA,NA
27510,Orange County,NC,NA,NA,80,NA
27806,Beaufort County,NC,NA,100,NA,NA
27891,Nash County,NC,75.33333333333333,NA,NA,NA
28016,Gaston County,NC,NA,47.32142857142857,NA,NA
28054,Gaston County,NC,NA,NA,NA,34.01015228426396
28078,Mecklenburg County,NC,44,NA,NA,NA
28173,Union County,NC,30,NA,NA,NA
28269,Mecklenburg County,NC,NA,14.285714285714285,NA,NA
28277,Mecklenburg County,NC,NA,NA,NA,29.441624365482234
28337,Bladen County,NC,82.66666666666667,NA,NA,NA
28403,New Hanover County,NC,NA,NA,NA,36.04060913705584
28409,New Hanover County,NC,NA,41.517857142857146,NA,NA
28480,New Hanover County,NC,NA,96.875,NA,NA
28607,Watauga County,NC,NA,NA,43.333333333333336,NA
28613,Catawba County,NC,67.66666666666666,NA,NA,NA
28635,Wilkes County,NC,NA,91.51785714285714,NA,NA
28734,Macon County,NC,NA,16.964285714285715,NA,NA
28803,Buncombe County,NC,NA,NA,35,NA
28806,Buncombe County,NC,51.33333333333333,NA,NA,NA
58078,Cass County,ND,NA,NA,15.555555555555555,NA
43054,Franklin County,OH,52.33333333333333,NA,NA,NA
43203,Franklin County,OH,NA,NA,NA,94.9238578680203
43204,Franklin County,OH,NA,NA,12.777777777777777,NA
43213,Franklin County,OH,0.33333333333333337,NA,NA,NA
43214,Franklin County,OH,28.000000000000004,NA,NA,NA
43452,Ottawa County,OH,32,NA,NA,NA
43537,Lucas County,OH,20.666666666666668,NA,13.333333333333334,NA
43551,Wood County,OH,NA,NA,69.44444444444444,NA
43560,Lucas County,OH,NA,NA,15,NA
43566,Lucas County,OH,80.66666666666666,NA,NA,NA
44011,Lorain County,OH,NA,NA,NA,8.121827411167512
44060,Lake County,OH,NA,8.928571428571429,NA,NA
44090,Lorain County,OH,NA,NA,NA,87.81725888324873
44094,Lake County,OH,NA,NA,NA,1.015228426395939
44109,Cuyahoga County,OH,NA,0,NA,NA
44111,Cuyahoga County,OH,NA,NA,NA,11.16751269035533
44117,Cuyahoga County,OH,67,NA,NA,NA
44128,Cuyahoga County,OH,NA,2.6785714285714284,NA,NA
44131,Cuyahoga County,OH,NA,NA,58.88888888888889,NA
44144,Cuyahoga County,OH,NA,75,NA,NA
44147,Cuyahoga County,OH,43,NA,NA,NA
44319,Summit County,OH,NA,NA,NA,19.289340101522843
44432,Columbiana County,OH,83.33333333333334,NA,NA,NA
44512,Mahoning County,OH,NA,11.607142857142858,NA,NA
44515,Mahoning County,OH,47.66666666666667,NA,NA,NA
44654,Holmes County,OH,NA,NA,NA,61.92893401015228
44833,Crawford County,OH,NA,NA,19.444444444444446,NA
44839,Erie County,OH,NA,NA,96.66666666666667,NA
45040,Warren County,OH,NA,NA,71.11111111111111,NA
45066,Warren County,OH,29.666666666666668,NA,NA,NA
45140,Clermont County,OH,NA,25,NA,NA
45309,Montgomery County,OH,NA,NA,63.888888888888886,NA
45414,Montgomery County,OH,NA,31.25,NA,NA
45458,Montgomery County,OH,16.333333333333332,NA,NA,NA
45503,Clark County,OH,NA,NA,50,NA
45680,Lawrence County,OH,NA,NA,NA,39.59390862944163
45744,Washington County,OH,98.33333333333333,NA,NA,NA
45750,Washington County,OH,4.333333333333334,NA,NA,NA
45840,Hancock County,OH,13.666666666666666,NA,NA,NA
73006,Caddo County,OK,NA,NA,98.88888888888889,NA
73018,Grady County,OK,NA,79.01785714285714,NA,NA
73020,Oklahoma County,OK,59.66666666666667,NA,NA,NA
73078,Canadian County,OK,NA,97.32142857142857,NA,NA
73160,Cleveland County,OK,18.333333333333332,NA,NA,NA
73170,Cleveland County,OK,NA,NA,NA,6.598984771573605
73717,Woods County,OK,NA,NA,NA,84.77157360406092
73942,Texas County,OK,73,NA,NA,NA
74008,Tulsa County,OK,NA,NA,NA,51.776649746192895
74136,Tulsa County,OK,65.33333333333333,NA,NA,NA
74301,Craig County,OK,90,NA,NA,NA
74426,McIntosh County,OK,89.66666666666666,NA,NA,NA
74432,McIntosh County,OK,NA,NA,56.111111111111114,NA
97015,Clackamas County,OR,NA,56.25,NA,NA
97026,Marion County,OR,98.33333333333333,NA,NA,NA
97211,Multnomah County,OR,45.33333333333333,NA,NA,NA
97217,Multnomah County,OR,NA,42.410714285714285,53.888888888888886,NA
97229,Washington County,OR,NA,70.08928571428571,NA,NA
97233,Multnomah County,OR,8,NA,NA,NA
97239,Multnomah County,OR,NA,83.92857142857143,NA,NA
97267,Clackamas County,OR,66.66666666666666,NA,NA,NA
97301,Marion County,OR,NA,13.392857142857142,NA,NA
97386,Linn County,OR,NA,NA,47.22222222222222,NA
97404,Lane County,OR,NA,NA,NA,55.32994923857868
97470,Douglas County,OR,NA,NA,NA,43.65482233502538
97502,Jackson County,OR,57.333333333333336,NA,NA,NA
97520,Jackson County,OR,NA,NA,54.44444444444444,NA
15129,Allegheny County,PA,NA,NA,77.22222222222223,NA
15146,Allegheny County,PA,NA,NA,NA,28.934010152284262
15222,Allegheny County,PA,93,NA,NA,NA
15226,Allegheny County,PA,69.66666666666667,NA,NA,NA
15425,Fayette County,PA,NA,NA,NA,37.56345177664975
15626,Westmoreland County,PA,NA,NA,NA,80.71065989847716
16148,Mercer County,PA,40,NA,NA,NA
16201,Armstrong County,PA,NA,34.375,NA,NA
16442,Erie County,PA,NA,NA,100,NA
17078,Lebanon County,PA,7.000000000000001,NA,NA,NA
17315,York County,PA,NA,NA,16.11111111111111,NA
17331,York County,PA,NA,10.267857142857142,NA,NA
17364,York County,PA,99,NA,NA,NA
17408,York County,PA,NA,NA,70.55555555555556,NA
17701,Lycoming County,PA,NA,41.964285714285715,NA,NA
17756,Lycoming County,PA,76.33333333333333,NA,NA,NA
18018,Lehigh County,PA,23.333333333333332,NA,NA,NA
18040,Northampton County,PA,64,NA,NA,NA
18080,Lehigh County,PA,NA,NA,NA,85.78680203045685
18201,Luzerne County,PA,27.666666666666668,NA,NA,NA
18202,Luzerne County,PA,NA,NA,NA,91.87817258883248
18706,Luzerne County,PA,NA,NA,NA,38.578680203045685
18966,Bucks County,PA,26,NA,NA,NA
19020,Bucks County,PA,18,NA,NA,NA
19082,Delaware County,PA,NA,NA,26.666666666666668,NA
19083,Delaware County,PA,NA,NA,NA,23.85786802030457
19104,Philadelphia County,PA,NA,NA,20,NA
19132,Philadelphia County,PA,25.666666666666664,8.035714285714286,NA,NA
19143,Philadelphia County,PA,NA,NA,0.5555555555555556,NA
19146,Philadelphia County,PA,NA,16.517857142857142,NA,NA
19342,Delaware County,PA,NA,NA,NA,26.39593908629442
19350,Chester County,PA,96.33333333333334,NA,NA,NA
19406,Montgomery County,PA,90.33333333333333,NA,NA,NA
19468,Montgomery County,PA,77.66666666666666,NA,NA,NA
19604,Berks County,PA,9.666666666666666,NA,NA,NA
02806,Bristol County,RI,NA,NA,NA,54.82233502538071
02816,Kent County,RI,NA,NA,NA,25.888324873096447
29020,Kershaw County,SC,NA,NA,38.333333333333336,NA
29063,Richland County,SC,NA,61.60714285714286,NA,NA
29127,Newberry County,SC,NA,NA,90.55555555555556,NA
29169,Lexington County,SC,79.33333333333333,NA,NA,NA
29414,Charleston County,SC,NA,NA,NA,31.979695431472084
29466,Charleston County,SC,NA,NA,NA,41.62436548223351
29485,Dorchester County,SC,6.333333333333334,NA,32.77777777777778,NA
29569,Horry County,SC,50.33333333333333,NA,63.33333333333333,NA
29582,Horry County,SC,NA,NA,NA,59.390862944162436
29646,Greenwood County,SC,NA,NA,52.77777777777778,NA
29649,Greenwood County,SC,NA,67.41071428571429,NA,NA
29680,Greenville County,SC,NA,NA,NA,69.03553299492386
29687,Greenville County,SC,NA,NA,NA,14.720812182741117
29730,York County,SC,NA,NA,40,NA
29832,Edgefield County,SC,NA,96.42857142857143,NA,NA
57064,Lincoln County,SD,88.33333333333333,NA,NA,NA
57105,Minnehaha County,SD,25,NA,NA,NA
37013,Davidson County,TN,1.6666666666666667,NA,NA,NA
37066,Sumner County,TN,NA,60.71428571428571,NA,NA
37091,Marshall County,TN,NA,NA,56.666666666666664,NA
37130,Rutherford County,TN,NA,NA,NA,40.10152284263959
37321,Rhea County,TN,24.333333333333336,NA,NA,NA
37334,Lincoln County,TN,NA,NA,31.11111111111111,NA
37336,Bradley County,TN,NA,NA,92.77777777777779,NA
37409,Hamilton County,TN,NA,NA,99.44444444444444,NA
37645,Hawkins County,TN,NA,87.94642857142857,NA,NA
37659,Washington County,TN,38,NA,NA,NA
37711,Hawkins County,TN,NA,93.30357142857143,NA,NA
37743,Greene County,TN,NA,NA,NA,8.629441624365482
37748,Roane County,TN,NA,NA,NA,42.63959390862944
37804,Blount County,TN,NA,NA,NA,30.456852791878177
37825,Claiborne County,TN,NA,NA,83.88888888888889,NA
37874,Monroe County,TN,NA,74.10714285714286,NA,NA
38016,Shelby County,TN,80,54.46428571428571,NA,NA
38017,Shelby County,TN,NA,NA,NA,47.71573604060914
38059,Dyer County,TN,78,NA,NA,NA
38105,Shelby County,TN,NA,84.375,NA,NA
38107,Shelby County,TN,NA,NA,66.11111111111111,NA
38138,Shelby County,TN,NA,NA,NA,46.7005076142132
38382,Gibson County,TN,NA,NA,NA,88.3248730964467
38574,Putnam County,TN,NA,NA,68.88888888888889,NA
75068,Denton County,TX,30.666666666666664,NA,NA,NA
75090,Grayson County,TX,NA,NA,NA,55.83756345177665
75110,Navarro County,TX,79.66666666666666,NA,NA,43.14720812182741
75224,Dallas County,TX,NA,NA,46.666666666666664,NA
75254,Dallas County,TX,46.33333333333333,NA,NA,NA
75501,Bowie County,TX,NA,NA,NA,95.93908629441624
75605,Gregg County,TX,NA,55.80357142857143,NA,NA
75652,Rusk County,TX,NA,NA,NA,78.68020304568529
75693,Gregg County,TX,95.33333333333334,NA,NA,NA
75701,Smith County,TX,22,NA,NA,NA
75702,Smith County,TX,NA,NA,47.77777777777778,NA
75951,Jasper County,TX,47.66666666666667,NA,NA,NA
76028,Johnson County,TX,NA,NA,NA,10.65989847715736
76036,Tarrant County,TX,NA,62.5,NA,NA
76054,Tarrant County,TX,NA,NA,76.66666666666667,NA
76107,Tarrant County,TX,NA,NA,61.111111111111114,NA
76110,Tarrant County,TX,NA,77.67857142857143,NA,NA
76119,Tarrant County,TX,NA,NA,6.666666666666667,NA
76123,Tarrant County,TX,19.333333333333332,NA,NA,NA
76210,Denton County,TX,NA,NA,NA,70.05076142131979
76310,Wichita County,TX,63,NA,NA,NA
76448,Eastland County,TX,NA,NA,NA,93.90862944162437
76520,Milam County,TX,NA,NA,51.66666666666667,NA
76528,Coryell County,TX,31,NA,NA,NA
76548,Bell County,TX,NA,NA,72.77777777777777,NA
76667,Limestone County,TX,42,NA,NA,NA
76705,McLennan County,TX,19,NA,NA,NA
76707,McLennan County,TX,9,NA,NA,NA
77003,Harris County,TX,NA,NA,98.33333333333333,NA
77064,Harris County,TX,NA,38.392857142857146,NA,NA
77067,Harris County,TX,35.333333333333336,NA,NA,NA
77351,Polk County,TX,43.666666666666664,NA,NA,NA
77379,Harris County,TX,10.333333333333334,NA,NA,NA
77385,Montgomery County,TX,NA,NA,NA,91.37055837563452
77406,Fort Bend County,TX,37.333333333333336,NA,NA,NA
77429,Harris County,TX,NA,NA,NA,20.812182741116754
77449,Harris County,TX,2.666666666666667,NA,NA,NA
77504,Harris County,TX,NA,68.75,NA,NA
77506,Harris County,TX,NA,63.83928571428571,NA,NA
77532,Harris County,TX,48.333333333333336,NA,NA,NA
77535,Liberty County,TX,44.666666666666664,NA,NA,NA
77539,Galveston County,TX,NA,NA,11.666666666666666,NA
77571,Harris County,TX,14.666666666666666,NA,NA,NA
77591,Galveston County,TX,21.666666666666668,NA,NA,NA
77625,Hardin County,TX,NA,NA,NA,98.98477157360406
77836,Burleson County,TX,54,NA,NA,NA
78028,Kerr County,TX,NA,NA,16.666666666666664,NA
78043,Webb County,TX,5.666666666666666,NA,NA,NA
78112,Bexar County,TX,79,NA,NA,NA
78210,Bexar County,TX,59.333333333333336,NA,NA,NA
78237,Bexar County,TX,NA,31.69642857142857,NA,NA
78239,Bexar County,TX,NA,66.07142857142857,NA,NA
78254,Bexar County,TX,NA,NA,75,NA
78259,Bexar County,TX,NA,NA,86.66666666666667,NA
78377,Refugio County,TX,96,NA,NA,NA
78411,Nueces County,TX,NA,58.48214285714286,NA,NA
78521,Cameron County,TX,12,NA,NA,NA
78541,Hidalgo County,TX,NA,52.23214285714286,NA,NA
78550,Cameron County,TX,13.333333333333334,NA,NA,NA
78557,Hidalgo County,TX,NA,93.75,NA,NA
78611,Burnet County,TX,69.33333333333334,NA,NA,NA
78619,Hays County,TX,97.33333333333334,NA,NA,NA
78621,Bastrop County,TX,28.666666666666668,NA,NA,NA
78634,Williamson County,TX,38,NA,NA,NA
78724,Travis County,TX,NA,76.33928571428571,NA,NA
78741,Travis County,TX,71.66666666666667,NA,NA,NA
78746,Travis County,TX,NA,NA,NA,90.35532994923858
79707,Midland County,TX,13,NA,NA,NA
79714,Andrews County,TX,40.33333333333333,NA,NA,NA
79756,Ward County,TX,NA,NA,NA,73.60406091370558
79762,Ector County,TX,14.000000000000002,NA,NA,62.43654822335025
79764,Ector County,TX,23.666666666666668,NA,NA,NA
79924,El Paso County,TX,NA,NA,28.888888888888886,NA
79927,El Paso County,TX,47.333333333333336,NA,NA,NA
79930,El Paso County,TX,45.666666666666664,NA,NA,NA
84010,Davis County,UT,36.666666666666664,NA,NA,NA
84045,Utah County,UT,NA,79.46428571428571,NA,NA
84108,Salt Lake County,UT,NA,NA,NA,77.15736040609137
84121,Salt Lake County,UT,NA,43.30357142857143,NA,NA
84123,Salt Lake County,UT,26.666666666666668,NA,NA,NA
84790,Washington County,UT,NA,NA,53.333333333333336,NA
05452,Chittenden County,VT,NA,88.39285714285714,NA,NA
05495,Chittenden County,VT,71.66666666666667,NA,NA,NA
20105,Loudoun County,VA,60,NA,NA,NA
20151,Fairfax County,VA,55.00000000000001,NA,NA,NA
20170,Fairfax County,VA,NA,NA,NA,92.38578680203045
20175,Loudoun County,VA,NA,73.66071428571429,NA,NA
22030,Fairfax County,VA,33.33333333333333,NA,NA,NA
22031,Fairfax County,VA,62.66666666666667,NA,NA,NA
22043,Fairfax County,VA,65,NA,NA,NA
22180,Fairfax County,VA,58.333333333333336,NA,NA,NA
22191,Prince William County,VA,6,NA,NA,NA
22207,Arlington County,VA,41.333333333333336,NA,NA,NA
22401,Fredericksburg city,VA,NA,NA,73.33333333333333,NA
23069,Hanover County,VA,99.33333333333333,NA,NA,NA
23139,Powhatan County,VA,77.33333333333333,NA,NA,NA
23453,Virginia Beach city,VA,NA,NA,NA,60.913705583756354
23602,Newport News city,VA,NA,29.910714285714285,NA,NA
23834,Colonial Heights city,VA,NA,NA,NA,58.88324873096447
23851,Franklin city,VA,57.666666666666664,NA,NA,NA
23930,Nottoway County,VA,76,NA,NA,NA
24179,Roanoke County,VA,NA,52.23214285714286,NA,NA
24370,Smyth County,VA,NA,80.35714285714286,NA,NA
24426,Alleghany County,VA,NA,NA,NA,63.45177664974619
24502,Lynchburg city,VA,NA,NA,51.11111111111111,NA
24551,Bedford County,VA,65.66666666666666,NA,NA,NA
98001,King County,WA,NA,NA,NA,67.00507614213198
98012,Snohomish County,WA,NA,32.142857142857146,28.333333333333332,NA
98026,Snohomish County,WA,NA,NA,33.88888888888889,NA
98030,King County,WA,63.66666666666667,NA,NA,NA
98037,Snohomish County,WA,NA,NA,NA,60.40609137055838
98045,King County,WA,74.66666666666667,NA,NA,NA
98057,King County,WA,62,NA,NA,NA
98119,King County,WA,NA,NA,78.33333333333333,NA
98125,King County,WA,43.333333333333336,NA,NA,NA
98144,King County,WA,NA,30.80357142857143,NA,NA
98188,King County,WA,81.33333333333333,NA,NA,NA
98208,Snohomish County,WA,NA,21.428571428571427,NA,NA
98273,Skagit County,WA,18.666666666666668,NA,NA,NA
98292,Snohomish County,WA,NA,NA,46.111111111111114,NA
98310,Kitsap County,WA,NA,NA,NA,44.67005076142132
98579,Thurston County,WA,80.66666666666666,NA,NA,NA
98584,Mason County,WA,NA,36.607142857142854,NA,NA
98801,Chelan County,WA,NA,NA,NA,4.568527918781726
98802,Douglas County,WA,NA,NA,NA,16.243654822335024
99019,Spokane County,WA,84.66666666666667,NA,NA,NA
99344,Adams County,WA,NA,88.83928571428571,NA,NA
20019,District of Columbia,DC,NA,NA,30.555555555555557,NA
24701,Mercer County,WV,NA,NA,30,NA
24740,Mercer County,WV,NA,32.589285714285715,NA,NA
25419,Berkeley County,WV,NA,NA,78.88888888888889,NA
26003,Ohio County,WV,NA,7.142857142857142,NA,NA
26554,Marion County,WV,NA,NA,1.6666666666666667,NA
53012,Ozaukee County,WI,NA,NA,81.11111111111111,NA
53094,Jefferson County,WI,42.333333333333336,NA,NA,NA
53146,Waukesha County,WI,71.33333333333334,NA,NA,NA
53211,Milwaukee County,WI,80.33333333333333,NA,22.77777777777778,NA
53212,Milwaukee County,WI,NA,NA,13.88888888888889,NA
53217,Milwaukee County,WI,21,NA,NA,NA
53223,Milwaukee County,WI,NA,NA,8.88888888888889,NA
53233,Milwaukee County,WI,NA,85.26785714285714,NA,NA
53511,Rock County,WI,NA,0.8928571428571428,NA,NA
53527,Dane County,WI,NA,NA,95.55555555555556,NA
53714,Dane County,WI,NA,NA,82.22222222222221,NA
53719,Dane County,WI,NA,NA,48.333333333333336,NA
53916,Dodge County,WI,NA,43.75,NA,NA
53954,Columbia County,WI,NA,90.17857142857143,NA,NA
53963,Dodge County,WI,NA,57.58928571428571,NA,NA
54011,Pierce County,WI,94.33333333333334,NA,NA,NA
54016,St. Croix County,WI,NA,NA,NA,81.21827411167513
54022,Pierce County,WI,NA,56.69642857142857,NA,NA
54154,Oconto County,WI,62,NA,NA,NA
54409,Langlade County,WI,NA,NA,NA,64.46700507614213
54650,La Crosse County,WI,50,NA,NA,NA
54935,Fond du Lac County,WI,NA,16.071428571428573,NA,NA
