ZipCode,county,state,Youth,Pediatric,Adult,Retirement
35007,Shelby County,AL,NA,NA,NA,40.72164948453608
35072,Coosa County,AL,NA,NA,NA,86.5979381443299
35077,Cullman County,AL,NA,NA,NA,92.26804123711341
35179,Cullman County,AL,NA,86.16071428571429,NA,NA
35216,Jefferson County,AL,NA,NA,NA,55.154639175257735
35242,Shelby County,AL,37.61755485893417,NA,NA,NA
35633,Lauderdale County,AL,NA,NA,62.19512195121951,NA
35640,Morgan County,AL,19.435736677115987,NA,NA,NA
35747,Marshall County,AL,84.01253918495298,NA,NA,NA
35769,Jackson County,AL,89.34169278996865,NA,NA,NA
36571,Mobile County,AL,NA,83.92857142857143,NA,NA
36874,Lee County,AL,NA,88.83928571428571,NA,NA
99835,Sitka City and Borough,AK,28.526645768025077,NA,NA,NA
85012,Maricopa County,AZ,90.59561128526646,NA,NA,NA
85016,Maricopa County,AZ,6.269592476489027,NA,NA,NA
85022,Maricopa County,AZ,28.213166144200624,NA,NA,29.896907216494846
85031,Maricopa County,AZ,NA,NA,56.70731707317073,NA
85040,Maricopa County,AZ,NA,8.482142857142858,NA,NA
85086,Maricopa County,AZ,26.01880877742947,NA,NA,NA
85142,Maricopa County,AZ,6.583072100313479,NA,NA,NA
85143,Pinal County,AZ,NA,NA,40.243902439024396,NA
85203,Maricopa County,AZ,NA,NA,42.073170731707314,NA
85234,Maricopa County,AZ,27.27272727272727,NA,NA,NA
85251,Maricopa County,AZ,66.14420062695925,NA,NA,NA
85295,Maricopa County,AZ,28.84012539184953,NA,NA,NA
85344,La Paz County,AZ,NA,NA,NA,37.628865979381445
85345,Maricopa County,AZ,NA,34.82142857142857,NA,NA
85364,Yuma County,AZ,NA,NA,NA,2.5773195876288657
85365,Yuma County,AZ,NA,NA,NA,61.34020618556701
85383,Maricopa County,AZ,20.689655172413794,NA,NA,NA
85634,Pima County,AZ,NA,NA,27.439024390243905,NA
85719,Pima County,AZ,NA,NA,38.41463414634146,NA
85941,Apache County,AZ,NA,NA,68.90243902439023,NA
86033,Navajo County,AZ,NA,50.44642857142857,NA,NA
86043,Navajo County,AZ,NA,95.08928571428571,NA,NA
86045,Coconino County,AZ,NA,NA,65.85365853658537,NA
86324,Yavapai County,AZ,NA,NA,95.73170731707317,NA
72117,Pulaski County,AR,NA,NA,59.14634146341463,NA
72450,Greene County,AR,NA,NA,NA,25.773195876288657
72758,Benton County,AR,62.695924764890286,NA,NA,NA
72762,Washington County,AR,NA,NA,NA,67.5257731958763
90044,Los Angeles County,CA,NA,29.910714285714285,NA,NA
90061,Los Angeles County,CA,NA,43.30357142857143,NA,NA
90064,Los Angeles County,CA,65.51724137931035,NA,NA,NA
90242,Los Angeles County,CA,NA,88.83928571428571,NA,NA
90650,Los Angeles County,CA,18.808777429467085,17.857142857142858,NA,NA
91205,Los Angeles County,CA,NA,NA,NA,56.70103092783505
91324,Los Angeles County,CA,NA,NA,80.48780487804879,NA
91354,Los Angeles County,CA,58.620689655172406,NA,NA,NA
91402,Los Angeles County,CA,NA,25,NA,NA
91710,San Bernardino County,CA,NA,NA,41.46341463414634,NA
91762,San Bernardino County,CA,25.391849529780565,NA,NA,NA
91780,Los Angeles County,CA,94.67084639498434,NA,NA,NA
92008,San Diego County,CA,NA,NA,NA,69.0721649484536
92011,San Diego County,CA,69.27899686520375,NA,NA,NA
92025,San Diego County,CA,NA,NA,81.70731707317073,NA
92040,San Diego County,CA,NA,NA,NA,27.31958762886598
92054,San Diego County,CA,48.589341692789965,NA,NA,NA
92056,San Diego County,CA,NA,78.57142857142857,NA,NA
92058,San Diego County,CA,NA,64.73214285714286,NA,NA
92078,San Diego County,CA,NA,NA,NA,52.57731958762887
92113,San Diego County,CA,NA,12.053571428571429,NA,NA
92201,Riverside County,CA,52.35109717868338,NA,NA,NA
92251,Imperial County,CA,45.76802507836991,NA,NA,NA
92252,San Bernardino County,CA,NA,NA,NA,88.14432989690721
92262,Riverside County,CA,NA,NA,NA,46.90721649484536
92301,San Bernardino County,CA,50.78369905956113,NA,NA,NA
92376,San Bernardino County,CA,NA,8.035714285714286,NA,13.917525773195877
92557,Riverside County,CA,NA,69.19642857142857,NA,NA
92583,Riverside County,CA,36.36363636363637,NA,NA,NA
92587,Riverside County,CA,88.71473354231975,NA,NA,NA
92620,Orange County,CA,79.3103448275862,NA,NA,NA
92630,Orange County,CA,NA,NA,72.5609756097561,NA
92692,Orange County,CA,67.39811912225704,NA,NA,NA
92708,Orange County,CA,NA,NA,NA,11.855670103092782
92833,Orange County,CA,79.3103448275862,NA,NA,NA
92840,Orange County,CA,NA,39.732142857142854,NA,NA
92882,Riverside County,CA,NA,NA,33.53658536585366,NA
93001,Ventura County,CA,33.85579937304075,NA,NA,NA
93065,Ventura County,CA,NA,NA,NA,18.556701030927837
93215,Kern County,CA,43.8871473354232,NA,NA,NA
93221,Tulare County,CA,NA,NA,NA,96.90721649484536
93225,Kern County,CA,NA,100,NA,NA
93307,Kern County,CA,NA,NA,17.682926829268293,NA
93311,Kern County,CA,59.56112852664577,NA,NA,NA
93428,San Luis Obispo County,CA,NA,87.5,NA,NA
93444,San Luis Obispo County,CA,89.96865203761756,NA,NA,NA
93458,Santa Barbara County,CA,NA,5.357142857142857,NA,NA
93561,Kern County,CA,85.57993730407524,NA,NA,NA
93611,Fresno County,CA,NA,NA,NA,38.144329896907216
93619,Fresno County,CA,NA,NA,46.95121951219512,NA
93620,Merced County,CA,NA,73.66071428571429,NA,NA
93630,Fresno County,CA,NA,73.66071428571429,NA,NA
93637,Madera County,CA,NA,11.607142857142858,NA,NA
93654,Fresno County,CA,NA,25,NA,NA
93656,Fresno County,CA,94.04388714733543,NA,NA,NA
93662,Fresno County,CA,67.0846394984326,NA,NA,NA
93701,Fresno County,CA,NA,NA,NA,95.36082474226805
93704,Fresno County,CA,NA,NA,NA,62.88659793814433
93705,Fresno County,CA,NA,23.214285714285715,NA,NA
93726,Fresno County,CA,NA,61.16071428571429,NA,NA
93930,Monterey County,CA,NA,79.01785714285714,NA,NA
94040,Santa Clara County,CA,NA,NA,NA,83.50515463917526
94107,San Francisco County,CA,NA,NA,NA,97.9381443298969
94117,San Francisco County,CA,NA,NA,39.63414634146341,NA
94131,San Francisco County,CA,NA,NA,70.73170731707317,NA
94526,Contra Costa County,CA,NA,NA,NA,53.608247422680414
94565,Contra Costa County,CA,NA,NA,NA,5.670103092783505
94583,Contra Costa County,CA,NA,NA,57.92682926829268,NA
94595,Contra Costa County,CA,93.41692789968651,NA,NA,NA
94602,Alameda County,CA,NA,NA,NA,65.97938144329896
94611,Alameda County,CA,82.75862068965517,NA,NA,NA
94949,Marin County,CA,NA,NA,NA,78.35051546391753
94960,Marin County,CA,NA,NA,NA,87.11340206185567
95023,San Benito County,CA,NA,NA,81.09756097560977,NA
95123,Santa Clara County,CA,64.57680250783699,NA,NA,NA
95129,Santa Clara County,CA,NA,NA,88.41463414634147,NA
95202,San Joaquin County,CA,NA,NA,69.51219512195121,NA
95205,San Joaquin County,CA,NA,NA,82.3170731707317,NA
95206,San Joaquin County,CA,NA,46.42857142857143,NA,NA
95210,San Joaquin County,CA,NA,66.51785714285714,NA,NA
95301,Merced County,CA,NA,NA,NA,70.61855670103093
95324,Merced County,CA,NA,NA,NA,91.75257731958763
95358,Stanislaus County,CA,NA,NA,34.756097560975604,NA
95367,Stanislaus County,CA,NA,NA,NA,82.9896907216495
95391,San Joaquin County,CA,90.28213166144201,NA,NA,NA
95472,Sonoma County,CA,NA,NA,85.36585365853658,NA
95603,Placer County,CA,NA,NA,NA,51.03092783505154
95624,Sacramento County,CA,NA,NA,53.04878048780488,NA
95742,Sacramento County,CA,NA,NA,92.07317073170732,NA
95818,Sacramento County,CA,NA,NA,NA,78.8659793814433
95822,Sacramento County,CA,NA,NA,43.292682926829265,NA
95833,Sacramento County,CA,NA,NA,45.1219512195122,NA
95928,Butte County,CA,82.44514106583071,NA,NA,NA
95973,Butte County,CA,41.37931034482759,NA,NA,67.0103092783505
95993,Sutter County,CA,NA,57.58928571428571,NA,NA
96001,Shasta County,CA,NA,NA,25.609756097560975,NA
80003,Jefferson County,CO,24.137931034482758,NA,51.21951219512195,NA
80011,Arapahoe County,CO,NA,NA,6.707317073170732,NA
80012,Arapahoe County,CO,NA,NA,89.63414634146342,NA
80026,Boulder County,CO,NA,64.28571428571429,NA,NA
80123,Jefferson County,CO,37.30407523510972,NA,NA,NA
80126,Douglas County,CO,NA,NA,90.2439024390244,NA
80129,Douglas County,CO,36.05015673981191,NA,NA,NA
80202,Denver County,CO,NA,NA,58.536585365853654,NA
80205,Denver County,CO,NA,NA,15.853658536585366,NA
80226,Jefferson County,CO,NA,NA,53.65853658536586,NA
80241,Adams County,CO,50.15673981191222,NA,NA,NA
80260,Adams County,CO,NA,16.071428571428573,NA,NA
80401,Jefferson County,CO,NA,NA,NA,54.63917525773196
80516,Weld County,CO,41.06583072100313,NA,NA,NA
80634,Weld County,CO,NA,58.48214285714286,NA,NA
80863,Teller County,CO,NA,NA,NA,89.69072164948454
81125,Saguache County,CO,NA,NA,NA,100
81211,Chaffee County,CO,NA,97.76785714285714,NA,NA
81212,Fremont County,CO,NA,49.107142857142854,NA,NA
81301,La Plata County,CO,87.14733542319749,NA,NA,NA
81601,Garfield County,CO,91.84952978056427,NA,NA,NA
06010,Hartford County,CT,NA,NA,3.048780487804878,NA
06026,Hartford County,CT,81.50470219435736,NA,NA,NA
06082,Hartford County,CT,NA,NA,21.951219512195124,NA
06085,Hartford County,CT,80.25078369905955,NA,NA,NA
06108,Hartford County,CT,NA,NA,34.146341463414636,NA
06492,New Haven County,CT,NA,NA,60.36585365853659,NA
06513,New Haven County,CT,NA,NA,NA,6.701030927835052
19709,New Castle County,DE,65.8307210031348,NA,NA,NA
19808,New Castle County,DE,27.586206896551722,NA,NA,NA
19966,Sussex County,DE,NA,39.285714285714285,NA,NA
32024,Columbia County,FL,NA,NA,NA,46.391752577319586
32052,Hamilton County,FL,NA,NA,NA,89.17525773195877
32073,Clay County,FL,32.60188087774294,NA,NA,NA
32080,St. Johns County,FL,NA,NA,NA,21.649484536082475
32082,St. Johns County,FL,NA,NA,NA,32.98969072164948
32095,St. Johns County,FL,72.41379310344827,NA,NA,NA
32159,Lake County,FL,NA,NA,NA,22.164948453608247
32218,Duval County,FL,NA,21.428571428571427,NA,NA
32333,Gadsden County,FL,NA,85.26785714285714,NA,NA
32439,Walton County,FL,NA,NA,79.8780487804878,NA
32640,Putnam County,FL,NA,60.26785714285714,NA,NA
32708,Seminole County,FL,NA,NA,NA,41.23711340206185
32837,Orange County,FL,NA,37.5,NA,NA
32903,Brevard County,FL,97.80564263322884,NA,NA,NA
33015,Miami-Dade County,FL,NA,10.714285714285714,57.3170731707317,50
33016,Miami-Dade County,FL,NA,NA,NA,63.4020618556701
33020,Broward County,FL,54.2319749216301,NA,NA,NA
33024,Broward County,FL,22.570532915360502,NA,NA,NA
33034,Miami-Dade County,FL,NA,35.267857142857146,NA,NA
33143,Miami-Dade County,FL,NA,NA,83.53658536585365,NA
33147,Miami-Dade County,FL,NA,28.57142857142857,NA,NA
33158,Miami-Dade County,FL,93.10344827586206,NA,NA,NA
33161,Miami-Dade County,FL,16.614420062695924,NA,NA,NA
33169,Miami-Dade County,FL,NA,32.589285714285715,NA,NA
33177,Miami-Dade County,FL,NA,13.839285714285715,NA,NA
33186,Miami-Dade County,FL,NA,NA,NA,34.02061855670103
33312,Broward County,FL,25.07836990595611,NA,NA,NA
33317,Broward County,FL,NA,47.32142857142857,NA,NA
33458,Palm Beach County,FL,NA,NA,NA,22.68041237113402
33463,Palm Beach County,FL,NA,15.625,NA,NA
33473,Palm Beach County,FL,NA,NA,NA,92.26804123711341
33713,Pinellas County,FL,NA,NA,NA,74.22680412371135
33813,Polk County,FL,36.677115987460816,NA,NA,NA
33815,Polk County,FL,NA,18.303571428571427,NA,NA
33839,Polk County,FL,97.4921630094044,NA,NA,NA
33860,Polk County,FL,NA,NA,NA,71.64948453608247
33917,Lee County,FL,NA,63.83928571428571,NA,NA
34221,Manatee County,FL,NA,NA,NA,28.350515463917525
34275,Sarasota County,FL,NA,82.14285714285714,NA,NA
34472,Marion County,FL,NA,NA,73.78048780487805,NA
34481,Marion County,FL,NA,NA,NA,86.08247422680412
34698,Pinellas County,FL,NA,NA,60.97560975609756,NA
34731,Lake County,FL,NA,88.83928571428571,NA,NA
34744,Osceola County,FL,NA,12.946428571428573,NA,NA
34746,Osceola County,FL,NA,20.982142857142858,NA,NA
34748,Lake County,FL,NA,NA,23.78048780487805,NA
34758,Osceola County,FL,NA,NA,61.58536585365854,NA
34957,Martin County,FL,NA,64.73214285714286,NA,NA
34987,St. Lucie County,FL,94.04388714733543,NA,NA,NA
30011,Barrow County,GA,NA,82.58928571428571,NA,NA
30016,Newton County,GA,NA,30.357142857142854,NA,NA
30040,Forsyth County,GA,7.210031347962382,NA,NA,NA
30041,Forsyth County,GA,NA,NA,31.70731707317073,NA
30052,Walton County,GA,31.661442006269592,NA,NA,NA
30060,Cobb County,GA,NA,37.94642857142857,NA,NA
30083,DeKalb County,GA,NA,25,NA,NA
30102,Cherokee County,GA,NA,62.05357142857143,NA,NA
30120,Bartow County,GA,45.45454545454545,NA,NA,NA
30180,Carroll County,GA,NA,50.89285714285714,NA,NA
30269,Fayette County,GA,57.68025078369906,94.19642857142857,NA,57.21649484536082
30328,Fulton County,GA,70.84639498432603,NA,NA,NA
30331,Fulton County,GA,33.85579937304075,NA,NA,NA
30338,DeKalb County,GA,NA,NA,NA,76.28865979381443
30607,Clarke County,GA,79.3103448275862,NA,NA,NA
30629,Madison County,GA,99.37304075235109,NA,NA,NA
30747,Chattooga County,GA,NA,NA,NA,73.19587628865979
30809,Columbia County,GA,23.510971786833856,NA,NA,NA
30815,Richmond County,GA,NA,NA,NA,10.824742268041238
31015,Crisp County,GA,NA,68.30357142857143,NA,NA
31516,Pierce County,GA,NA,NA,73.17073170731707,NA
31645,Berrien County,GA,NA,93.30357142857143,NA,NA
39845,Seminole County,GA,NA,92.85714285714286,NA,NA
96701,Honolulu County,HI,NA,NA,39.02439024390244,NA
96741,Kauai County,HI,94.67084639498434,NA,NA,NA
96744,Honolulu County,HI,35.73667711598746,NA,NA,NA
96752,Kauai County,HI,NA,NA,98.17073170731707,NA
83402,Bonneville County,ID,NA,29.464285714285715,NA,NA
83646,Ada County,ID,NA,47.32142857142857,NA,NA
83647,Elmore County,ID,NA,48.214285714285715,NA,NA
83686,Canyon County,ID,NA,19.642857142857142,NA,NA
60004,Cook County,IL,NA,NA,NA,8.24742268041237
60013,McHenry County,IL,57.68025078369906,NA,NA,NA
60020,Lake County,IL,71.78683385579937,NA,NA,NA
60081,McHenry County,IL,76.8025078369906,NA,NA,NA
60085,Lake County,IL,NA,NA,NA,32.47422680412371
60091,Cook County,IL,52.66457680250783,NA,NA,NA
60126,DuPage County,IL,9.717868338557993,NA,NA,NA
60201,Cook County,IL,30.407523510971785,NA,NA,NA
60302,Cook County,IL,NA,NA,NA,11.34020618556701
60402,Cook County,IL,15.360501567398119,NA,NA,NA
60404,Will County,IL,50.15673981191222,NA,NA,NA
60448,Will County,IL,41.692789968652036,NA,NA,NA
60462,Cook County,IL,12.225705329153605,NA,NA,NA
60491,Will County,IL,78.99686520376176,NA,NA,NA
60541,Kendall County,IL,NA,NA,97.5609756097561,NA
60542,Kane County,IL,51.09717868338558,NA,NA,NA
60543,Kendall County,IL,19.74921630094044,NA,NA,NA
60585,Will County,IL,35.10971786833856,NA,NA,NA
60586,Will County,IL,12.539184952978054,NA,NA,NA
60615,Cook County,IL,38.87147335423197,NA,NA,NA
60625,Cook County,IL,83.38557993730407,NA,NA,NA
60628,Cook County,IL,NA,NA,NA,3.0927835051546393
60640,Cook County,IL,NA,NA,NA,4.639175257731959
60641,Cook County,IL,NA,NA,17.073170731707318,NA
60647,Cook County,IL,NA,NA,NA,62.371134020618555
60656,Cook County,IL,63.322884012539184,NA,54.268292682926834,NA
60657,Cook County,IL,NA,NA,25,NA
60901,Kankakee County,IL,NA,NA,NA,10.309278350515463
60914,Kankakee County,IL,33.22884012539185,NA,NA,NA
60950,Kankakee County,IL,73.66771159874608,NA,NA,NA
62258,St. Clair County,IL,85.26645768025078,NA,NA,NA
62286,Randolph County,IL,6.896551724137931,NA,NA,NA
62561,Sangamon County,IL,NA,NA,NA,97.42268041237114
46013,Madison County,IN,37.93103448275862,NA,NA,NA
46142,Johnson County,IN,NA,NA,48.170731707317074,NA
46158,Morgan County,IN,52.03761755485894,NA,NA,NA
46201,Marion County,IN,NA,41.07142857142857,NA,NA
46304,Porter County,IN,10.344827586206897,NA,16.463414634146343,NA
46321,Lake County,IN,21.003134796238246,NA,NA,NA
46385,Porter County,IN,5.956112852664576,NA,NA,NA
46561,St. Joseph County,IN,85.8934169278997,NA,NA,NA
47130,Clark County,IN,10.658307210031348,NA,NA,NA
47201,Bartholomew County,IN,NA,50.89285714285714,NA,NA
47302,Delaware County,IN,51.410658307210035,NA,NA,NA
50138,Marion County,IA,90.9090909090909,NA,NA,NA
50322,Polk County,IA,63.94984326018809,NA,NA,NA
50401,Cerro Gordo County,IA,1.5673981191222568,NA,NA,NA
50514,Emmet County,IA,NA,NA,100,NA
50583,Sac County,IA,97.17868338557993,NA,NA,NA
51503,Pottawattamie County,IA,NA,NA,NA,3.608247422680412
52233,Linn County,IA,NA,NA,NA,91.23711340206185
52302,Linn County,IA,47.64890282131661,NA,NA,NA
52577,Mahaska County,IA,NA,55.80357142857143,NA,NA
52601,Des Moines County,IA,NA,NA,15.24390243902439,NA
52807,Scott County,IA,55.79937304075236,NA,NA,NA
66212,Johnson County,KS,NA,NA,64.63414634146342,NA
66441,Geary County,KS,NA,NA,NA,72.16494845360825
67846,Finney County,KS,NA,NA,28.04878048780488,NA
40206,Jefferson County,KY,NA,NA,NA,85.05154639175258
40245,Jefferson County,KY,NA,NA,NA,44.329896907216494
40484,Lincoln County,KY,NA,NA,NA,64.94845360824742
40759,Whitley County,KY,NA,88.39285714285714,NA,NA
40977,Bell County,KY,NA,NA,NA,76.80412371134021
41005,Boone County,KY,NA,NA,68.29268292682927,NA
41030,Grant County,KY,86.20689655172413,NA,NA,NA
42141,Barren County,KY,NA,6.25,NA,NA
42301,Daviess County,KY,NA,NA,NA,45.36082474226804
42501,Pulaski County,KY,34.48275862068966,NA,NA,NA
42717,Cumberland County,KY,NA,57.14285714285714,NA,NA
70002,Jefferson Parish,LA,21.9435736677116,NA,NA,NA
70043,St. Bernard Parish,LA,56.112852664576806,38.392857142857146,NA,NA
70062,Jefferson Parish,LA,NA,14.732142857142858,NA,NA
70119,Orleans Parish,LA,NA,4.464285714285714,NA,NA
70123,Jefferson Parish,LA,45.141065830721004,NA,NA,NA
70360,Terrebonne Parish,LA,NA,NA,11.585365853658537,NA
70364,Terrebonne Parish,LA,2.507836990595611,NA,NA,NA
70427,Washington Parish,LA,NA,72.76785714285714,NA,NA
70461,St. Tammany Parish,LA,29.153605015673982,NA,NA,NA
70520,Lafayette Parish,LA,3.1347962382445136,NA,NA,NA
70560,Iberia Parish,LA,NA,NA,94.51219512195121,NA
70706,Livingston Parish,LA,NA,NA,37.19512195121951,NA
70775,West Feliciana Parish,LA,NA,96.875,NA,NA
71055,Webster Parish,LA,NA,6.696428571428571,NA,NA
71104,Caddo Parish,LA,NA,NA,NA,74.74226804123711
71254,East Carroll Parish,LA,NA,NA,NA,90.72164948453609
71405,Rapides Parish,LA,NA,42.857142857142854,NA,NA
04074,Cumberland County,ME,74.29467084639498,NA,NA,NA
04915,Waldo County,ME,NA,NA,NA,98.4536082474227
20715,Prince George's County,MD,58.93416927899686,NA,NA,NA
20815,Montgomery County,MD,69.90595611285266,NA,NA,NA
20833,Montgomery County,MD,NA,NA,95.1219512195122,NA
21014,Harford County,MD,64.89028213166145,NA,NA,NA
21060,Anne Arundel County,MD,73.66771159874608,NA,NA,NA
21078,Harford County,MD,NA,NA,NA,58.24742268041238
21117,Baltimore County,MD,33.22884012539185,NA,NA,NA
21211,Baltimore city,MD,NA,NA,77.4390243902439,NA
21221,Baltimore County,MD,NA,NA,NA,20.103092783505154
21222,Baltimore County,MD,8.463949843260188,NA,NA,NA
21620,Kent County,MD,NA,NA,89.02439024390245,NA
21784,Carroll County,MD,30.721003134796238,NA,NA,NA
01027,Hampshire County,MA,NA,NA,NA,44.84536082474227
01226,Berkshire County,MA,NA,NA,NA,70.10309278350515
01460,Middlesex County,MA,93.73040752351098,NA,NA,NA
01510,Worcester County,MA,NA,NA,NA,9.278350515463918
01516,Worcester County,MA,NA,NA,37.80487804878049,NA
01524,Worcester County,MA,NA,NA,NA,69.58762886597938
01545,Worcester County,MA,82.13166144200626,NA,NA,NA
01606,Worcester County,MA,44.20062695924764,NA,NA,13.402061855670103
01741,Middlesex County,MA,92.47648902821317,NA,NA,NA
01752,Middlesex County,MA,4.075235109717868,NA,NA,NA
01760,Middlesex County,MA,10.9717868338558,NA,NA,NA
01801,Middlesex County,MA,10.031347962382444,NA,NA,NA
01826,Middlesex County,MA,NA,NA,NA,2.0618556701030926
01841,Essex County,MA,NA,0.4464285714285714,NA,NA
01845,Essex County,MA,29.46708463949843,NA,NA,NA
01864,Middlesex County,MA,56.42633228840125,NA,NA,NA
01890,Middlesex County,MA,NA,NA,50,NA
01907,Essex County,MA,60.18808777429467,NA,NA,NA
01921,Essex County,MA,96.86520376175548,NA,NA,NA
02025,Norfolk County,MA,86.20689655172413,NA,NA,NA
02043,Plymouth County,MA,NA,NA,NA,56.18556701030928
02135,Suffolk County,MA,NA,NA,NA,7.216494845360824
02150,Suffolk County,MA,NA,44.19642857142857,NA,NA
02151,Suffolk County,MA,NA,NA,NA,0
02324,Plymouth County,MA,NA,NA,12.195121951219512,NA
02330,Plymouth County,MA,NA,87.05357142857143,NA,NA
02446,Norfolk County,MA,13.166144200626958,NA,NA,NA
02720,Bristol County,MA,17.24137931034483,NA,NA,NA
02740,Bristol County,MA,NA,NA,0,77.83505154639175
02746,Bristol County,MA,NA,NA,NA,39.175257731958766
02771,Bristol County,MA,43.260188087774296,NA,NA,NA
48021,Macomb County,MI,11.285266457680251,NA,NA,NA
48043,Macomb County,MI,30.094043887147336,NA,NA,NA
48044,Macomb County,MI,NA,NA,7.317073170731707,NA
48067,Oakland County,MI,NA,NA,NA,47.93814432989691
48114,Livingston County,MI,45.76802507836991,NA,NA,NA
48116,Livingston County,MI,NA,NA,NA,12.886597938144329
48161,Monroe County,MI,51.724137931034484,NA,NA,NA
48183,Wayne County,MI,NA,NA,9.75609756097561,NA
48197,Washtenaw County,MI,NA,13.839285714285715,NA,NA
48198,Washtenaw County,MI,NA,NA,NA,9.793814432989691
48206,Wayne County,MI,NA,NA,NA,30.412371134020617
48317,Macomb County,MI,NA,NA,NA,17.010309278350515
48328,Oakland County,MI,NA,70.53571428571429,NA,NA
48336,Oakland County,MI,32.60188087774294,NA,NA,NA
48439,Genesee County,MI,NA,76.33928571428571,NA,NA
48504,Genesee County,MI,NA,10.267857142857142,NA,NA
48506,Genesee County,MI,NA,50,NA,NA
48529,Genesee County,MI,NA,NA,NA,99.48453608247422
48612,Gladwin County,MI,74.29467084639498,NA,NA,NA
48647,Oscoda County,MI,98.43260188087774,NA,NA,NA
48846,Ionia County,MI,NA,NA,NA,53.09278350515464
48858,Isabella County,MI,NA,45.089285714285715,NA,NA
49010,Allegan County,MI,44.827586206896555,NA,NA,NA
49017,Calhoun County,MI,NA,NA,NA,24.742268041237114
49057,Van Buren County,MI,60.81504702194357,NA,NA,NA
49079,Van Buren County,MI,NA,NA,74.39024390243902,NA
49230,Jackson County,MI,NA,NA,75.60975609756098,NA
49236,Lenawee County,MI,94.67084639498434,NA,NA,NA
49304,Lake County,MI,NA,82.58928571428571,NA,NA
49319,Kent County,MI,47.64890282131661,NA,NA,NA
49431,Mason County,MI,NA,NA,NA,24.22680412371134
49444,Muskegon County,MI,NA,NA,10.365853658536585,NA
49456,Ottawa County,MI,NA,NA,NA,29.381443298969074
49505,Kent County,MI,25.705329153605017,NA,NA,NA
49807,Delta County,MI,95.92476489028213,NA,NA,NA
55021,Rice County,MN,NA,NA,NA,43.29896907216495
55075,Dakota County,MN,68.3385579937304,NA,NA,NA
55104,Ramsey County,MN,68.3385579937304,NA,NA,NA
55117,Ramsey County,MN,4.38871473354232,NA,NA,NA
55123,Dakota County,MN,NA,NA,NA,82.4742268041237
55303,Anoka County,MN,53.91849529780565,NA,NA,NA
55304,Anoka County,MN,NA,NA,NA,81.44329896907216
55311,Hennepin County,MN,NA,NA,NA,72.68041237113401
55313,Wright County,MN,NA,60.26785714285714,NA,NA
55364,Hennepin County,MN,83.07210031347962,NA,NA,NA
55374,Hennepin County,MN,NA,94.19642857142857,NA,NA
56011,Scott County,MN,NA,68.30357142857143,NA,NA
56093,Waseca County,MN,NA,91.07142857142857,NA,NA
56201,Kandiyohi County,MN,NA,NA,NA,90.20618556701031
56537,Otter Tail County,MN,14.420062695924765,NA,NA,NA
38680,DeSoto County,MS,96.23824451410658,NA,NA,NA
38769,Bolivar County,MS,NA,99.55357142857143,NA,NA
38967,Montgomery County,MS,80.56426332288402,NA,NA,NA
39095,Holmes County,MS,NA,95.98214285714286,NA,NA
39301,Lauderdale County,MS,26.332288401253916,NA,NA,NA
39503,Harrison County,MS,NA,7.142857142857142,NA,NA
39669,Wilkinson County,MS,NA,NA,96.34146341463415,NA
39702,Lowndes County,MS,NA,NA,NA,54.123711340206185
63021,St. Louis County,MO,NA,73.66071428571429,NA,NA
63074,St. Louis County,MO,75.54858934169279,NA,NA,NA
63106,St. Louis city,MO,61.12852664576802,NA,NA,NA
63146,St. Louis County,MO,NA,NA,NA,35.051546391752574
63366,St. Charles County,MO,8.150470219435736,NA,NA,NA
63670,Ste. Genevieve County,MO,49.843260188087775,NA,NA,NA
63780,Scott County,MO,NA,NA,85.97560975609755,NA
63857,Dunklin County,MO,NA,33.92857142857143,NA,NA
64029,Jackson County,MO,NA,NA,42.68292682926829,NA
64055,Jackson County,MO,NA,23.660714285714285,6.097560975609756,NA
64056,Jackson County,MO,21.316614420062695,NA,NA,NA
64058,Jackson County,MO,83.69905956112854,NA,NA,NA
64068,Clay County,MO,0.3134796238244514,NA,NA,NA
64116,Clay County,MO,NA,NA,NA,45.876288659793815
64118,Clay County,MO,NA,NA,NA,5.154639175257731
64133,Jackson County,MO,0.6269592476489028,NA,NA,NA
64151,Platte County,MO,18.495297805642632,NA,NA,NA
64152,Platte County,MO,11.598746081504702,NA,NA,NA
64506,Buchanan County,MO,NA,NA,NA,4.123711340206185
64772,Vernon County,MO,NA,NA,NA,58.76288659793815
64804,Jasper County,MO,NA,21.428571428571427,NA,NA
64870,Jasper County,MO,NA,NA,NA,66.49484536082474
65301,Pettis County,MO,NA,NA,4.878048780487805,NA
65355,Benton County,MO,NA,NA,NA,61.855670103092784
65583,Pulaski County,MO,NA,69.19642857142857,NA,NA
65608,Douglas County,MO,NA,97.32142857142857,NA,NA
59847,Missoula County,MT,NA,NA,96.95121951219512,NA
68022,Douglas County,NE,57.05329153605015,NA,NA,NA
68107,Douglas County,NE,NA,NA,NA,60.824742268041234
68128,Sarpy County,NE,57.05329153605015,NA,NA,NA
68130,Douglas County,NE,38.24451410658307,NA,NA,NA
68516,Lancaster County,NE,NA,NA,71.34146341463415,NA
69101,Lincoln County,NE,NA,81.69642857142857,NA,NA
89104,Clark County,NV,NA,NA,NA,59.27835051546392
89120,Clark County,NV,89.65517241379311,NA,NA,NA
89431,Washoe County,NV,32.288401253918494,NA,NA,NA
89509,Washoe County,NV,NA,85.26785714285714,NA,NA
03038,Rockingham County,NH,15.673981191222571,NA,NA,NA
03054,Hillsborough County,NH,NA,NA,35.97560975609756,NA
03244,Hillsborough County,NH,80.56426332288402,NA,NA,NA
03820,Strafford County,NH,NA,NA,NA,42.2680412371134
03867,Strafford County,NH,21.9435736677116,NA,NA,NA
07030,Hudson County,NJ,46.39498432601881,NA,NA,NA
07033,Union County,NJ,NA,NA,99.39024390243902,NA
07055,Passaic County,NJ,NA,0,NA,NA
07087,Hudson County,NJ,NA,33.482142857142854,NA,NA
07090,Union County,NJ,54.858934169278996,NA,NA,NA
07093,Hudson County,NJ,NA,NA,NA,48.45360824742268
07206,Union County,NJ,NA,1.3392857142857142,NA,NA
07506,Passaic County,NJ,NA,NA,NA,64.43298969072166
07666,Bergen County,NJ,71.15987460815047,NA,NA,NA
07701,Monmouth County,NJ,NA,62.5,NA,NA
07724,Monmouth County,NJ,NA,NA,NA,37.11340206185567
07726,Monmouth County,NJ,39.49843260188088,NA,NA,NA
07728,Monmouth County,NJ,5.6426332288401255,NA,NA,NA
07753,Monmouth County,NJ,NA,NA,49.390243902439025,NA
07921,Somerset County,NJ,NA,NA,NA,98.96907216494846
07945,Morris County,NJ,NA,NA,91.46341463414635,NA
08037,Atlantic County,NJ,NA,53.57142857142857,NA,19.587628865979383
08049,Camden County,NJ,NA,62.94642857142857,NA,NA
08053,Burlington County,NJ,76.17554858934169,NA,30.48780487804878,NA
08054,Burlington County,NJ,31.661442006269592,NA,NA,NA
08079,Salem County,NJ,65.20376175548589,NA,NA,NA
08081,Camden County,NJ,44.5141065830721,NA,NA,NA
08096,Gloucester County,NJ,16.927899686520377,NA,NA,NA
08401,Atlantic County,NJ,NA,NA,0.6097560975609756,NA
08527,Ocean County,NJ,NA,NA,8.536585365853659,NA
08611,Mercer County,NJ,NA,NA,NA,33.50515463917525
08701,Ocean County,NJ,NA,NA,3.6585365853658534,NA
08755,Ocean County,NJ,61.75548589341693,NA,NA,NA
08820,Middlesex County,NJ,NA,NA,NA,26.288659793814436
87024,Sandoval County,NM,NA,56.25,NA,NA
87112,Bernalillo County,NM,NA,42.410714285714285,NA,NA
87121,Bernalillo County,NM,NA,NA,26.82926829268293,NA
87124,Sandoval County,NM,20.06269592476489,NA,12.804878048780488,NA
87327,Cibola County,NM,NA,22.767857142857142,NA,NA
87401,San Juan County,NM,NA,9.821428571428571,19.51219512195122,NA
87506,Santa Fe County,NM,NA,NA,NA,51.546391752577314
87532,Santa Fe County,NM,NA,11.160714285714286,NA,NA
88203,Chaves County,NM,NA,NA,23.170731707317074,NA
88220,Eddy County,NM,NA,NA,NA,20.618556701030926
10029,New York County,NY,NA,3.125,NA,NA
10031,New York County,NY,NA,NA,7.926829268292683,NA
10473,Bronx County,NY,NA,3.571428571428571,NA,NA
10580,Westchester County,NY,91.53605015673982,NA,NA,NA
11101,Queens County,NY,NA,NA,64.02439024390245,NA
11208,Kings County,NY,NA,2.232142857142857,NA,NA
11211,Kings County,NY,NA,16.517857142857142,NA,NA
11218,Kings County,NY,NA,45.982142857142854,NA,NA
11229,Kings County,NY,48.589341692789965,NA,NA,NA
11369,Queens County,NY,NA,NA,63.41463414634146,NA
11590,Nassau County,NY,NA,31.69642857142857,NA,NA
11691,Queens County,NY,NA,4.017857142857143,NA,NA
11706,Suffolk County,NY,NA,NA,NA,35.051546391752574
11720,Suffolk County,NY,NA,65.625,NA,NA
11722,Suffolk County,NY,26.332288401253916,NA,NA,NA
11747,Suffolk County,NY,NA,NA,NA,75.25773195876289
11757,Suffolk County,NY,NA,NA,47.5609756097561,NA
11764,Suffolk County,NY,NA,99.10714285714286,NA,NA
11787,Suffolk County,NY,NA,NA,87.8048780487805,NA
12061,Rensselaer County,NY,88.08777429467085,NA,NA,NA
12804,Warren County,NY,NA,NA,NA,8.762886597938143
12901,Clinton County,NY,NA,35.267857142857146,NA,NA
13092,Cayuga County,NY,88.71473354231975,NA,NA,NA
13118,Cayuga County,NY,NA,86.16071428571429,NA,NA
13146,Wayne County,NY,98.43260188087774,NA,NA,NA
13212,Onondaga County,NY,NA,77.23214285714286,NA,NA
13316,Oneida County,NY,NA,95.53571428571429,NA,NA
13760,Broome County,NY,NA,NA,1.8292682926829267,NA
13901,Broome County,NY,NA,NA,4.2682926829268295,NA
14047,Erie County,NY,NA,NA,NA,81.95876288659794
14048,Chautauqua County,NY,NA,NA,40.853658536585364,NA
14072,Erie County,NY,48.589341692789965,NA,NA,NA
14174,Niagara County,NY,77.74294670846395,NA,NA,NA
14215,Erie County,NY,5.329153605015674,NA,NA,NA
14221,Erie County,NY,13.479623824451412,NA,NA,NA
14224,Erie County,NY,NA,NA,NA,65.4639175257732
14304,Niagara County,NY,NA,49.55357142857143,NA,NA
14424,Ontario County,NY,7.523510971786834,NA,NA,NA
14425,Ontario County,NY,11.912225705329153,NA,NA,NA
14433,Wayne County,NY,NA,NA,66.46341463414635,NA
14469,Ontario County,NY,64.26332288401254,NA,NA,NA
14519,Wayne County,NY,30.721003134796238,NA,NA,NA
14534,Monroe County,NY,NA,NA,NA,1.0309278350515463
14548,Ontario County,NY,NA,NA,NA,80.9278350515464
14564,Ontario County,NY,NA,NA,22.5609756097561,NA
14612,Monroe County,NY,46.70846394984326,NA,NA,NA
14701,Chautauqua County,NY,2.19435736677116,NA,NA,NA
14706,Cattaraugus County,NY,70.53291536050156,NA,NA,NA
14715,Allegany County,NY,NA,NA,86.58536585365853,NA
27006,Davie County,NC,NA,NA,NA,84.5360824742268
27028,Davie County,NC,NA,80.80357142857143,NA,NA
27103,Forsyth County,NC,36.990595611285265,45.535714285714285,NA,NA
27107,Forsyth County,NC,NA,5.803571428571429,NA,NA
27265,Guilford County,NC,47.02194357366771,NA,NA,NA
27410,Guilford County,NC,14.733542319749215,NA,NA,NA
27455,Guilford County,NC,58.307210031347964,NA,NA,NA
27511,Wake County,NC,52.97805642633229,NA,NA,NA
27519,Wake County,NC,39.811912225705335,NA,NA,NA
27520,Johnston County,NC,NA,NA,NA,34.5360824742268
27529,Wake County,NC,NA,32.589285714285715,NA,NA
27565,Granville County,NC,NA,NA,NA,16.49484536082474
27615,Wake County,NC,NA,83.92857142857143,NA,NA
27801,Edgecombe County,NC,NA,53.57142857142857,NA,NA
27804,Nash County,NC,NA,NA,NA,39.69072164948454
28043,Rutherford County,NC,NA,NA,NA,43.81443298969072
28079,Union County,NC,NA,NA,NA,52.0618556701031
28083,Cabarrus County,NC,NA,54.46428571428571,NA,NA
28086,Cleveland County,NC,NA,36.607142857142854,NA,NA
28104,Union County,NC,NA,NA,71.95121951219512,NA
28211,Mecklenburg County,NC,NA,51.78571428571429,NA,NA
28227,Mecklenburg County,NC,NA,16.964285714285715,NA,NA
28277,Mecklenburg County,NC,NA,NA,76.21951219512195,NA
28409,New Hanover County,NC,NA,77.23214285714286,NA,NA
28412,New Hanover County,NC,NA,NA,NA,27.835051546391753
28560,Craven County,NC,NA,46.42857142857143,NA,NA
28675,Alleghany County,NC,NA,NA,NA,55.670103092783506
28734,Macon County,NC,NA,40.625,NA,NA
28792,Henderson County,NC,NA,NA,35.36585365853659,NA
58103,Cass County,ND,1.2539184952978055,NA,NA,NA
58341,Wells County,ND,100,NA,NA,NA
58601,Stark County,ND,35.42319749216301,NA,NA,NA
43004,Franklin County,OH,NA,23.660714285714285,NA,NA
43040,Union County,OH,NA,17.410714285714285,NA,NA
43140,Madison County,OH,NA,26.339285714285715,NA,NA
43204,Franklin County,OH,NA,0.8928571428571428,NA,NA
43206,Franklin County,OH,NA,NA,14.634146341463413,NA
43229,Franklin County,OH,0,NA,NA,NA
43232,Franklin County,OH,NA,NA,24.390243902439025,NA
43449,Ottawa County,OH,NA,93.75,NA,NA
43506,Williams County,OH,63.00940438871473,NA,NA,NA
43607,Lucas County,OH,NA,NA,50.609756097560975,NA
43612,Lucas County,OH,NA,53.125,NA,NA
43623,Lucas County,OH,NA,NA,NA,25.257731958762886
43725,Guernsey County,OH,NA,28.125,NA,NA
43793,Monroe County,OH,NA,97.76785714285714,NA,NA
43953,Jefferson County,OH,17.55485893416928,NA,NA,NA
44017,Cuyahoga County,OH,NA,37.05357142857143,NA,NA
44109,Cuyahoga County,OH,NA,1.7857142857142856,1.2195121951219512,NA
44111,Cuyahoga County,OH,NA,NA,2.4390243902439024,NA
44120,Cuyahoga County,OH,NA,8.928571428571429,NA,NA
44130,Cuyahoga County,OH,1.8808777429467085,NA,NA,0.5154639175257731
44135,Cuyahoga County,OH,13.479623824451412,NA,NA,NA
44216,Summit County,OH,98.11912225705329,NA,NA,NA
44221,Summit County,OH,NA,NA,NA,14.432989690721648
44240,Portage County,OH,NA,NA,NA,18.04123711340206
44312,Summit County,OH,NA,NA,18.29268292682927,NA
44320,Summit County,OH,NA,NA,NA,14.948453608247423
44406,Mahoning County,OH,NA,NA,NA,28.865979381443296
44444,Trumbull County,OH,NA,67.41071428571429,NA,NA
44484,Trumbull County,OH,54.54545454545454,NA,NA,NA
44615,Carroll County,OH,63.322884012539184,NA,NA,NA
44805,Ashland County,OH,9.404388714733543,NA,NA,NA
44839,Erie County,OH,NA,NA,NA,42.78350515463917
45039,Warren County,OH,78.36990595611285,NA,NA,NA
45056,Butler County,OH,77.11598746081505,NA,NA,NA
45069,Butler County,OH,31.347962382445143,NA,NA,NA
45213,Hamilton County,OH,75.54858934169279,NA,NA,NA
45231,Hamilton County,OH,NA,2.6785714285714284,NA,NA
45320,Preble County,OH,NA,NA,44.51219512195122,NA
45365,Shelby County,OH,NA,27.67857142857143,NA,NA
45419,Montgomery County,OH,NA,NA,NA,95.87628865979381
45638,Lawrence County,OH,8.77742946708464,NA,NA,NA
45662,Scioto County,OH,NA,4.910714285714286,NA,NA
45686,Gallia County,OH,NA,NA,93.90243902439023,NA
45784,Washington County,OH,71.47335423197492,NA,NA,NA
45840,Hancock County,OH,42.94670846394985,NA,NA,NA
73018,Grady County,OK,43.260188087774296,NA,NA,NA
73080,McClain County,OK,NA,78.125,NA,NA
73130,Oklahoma County,OK,NA,NA,67.6829268292683,NA
73160,Cleveland County,OK,15.047021943573668,NA,NA,NA
73170,Cleveland County,OK,29.780564263322884,NA,NA,NA
73505,Comanche County,OK,NA,NA,28.65853658536585,NA
73801,Woodward County,OK,87.46081504702194,NA,NA,NA
74037,Tulsa County,OK,87.46081504702194,NA,NA,NA
74135,Tulsa County,OK,NA,NA,82.92682926829268,NA
74604,Kay County,OK,NA,NA,84.7560975609756,NA
74955,Sequoyah County,OK,NA,NA,NA,60.30927835051546
97071,Marion County,OR,NA,34.375,NA,NA
97214,Multnomah County,OR,NA,NA,76.82926829268293,NA
97303,Marion County,OR,NA,54.91071428571429,NA,NA
97321,Linn County,OR,NA,NA,NA,23.195876288659793
97322,Linn County,OR,NA,40.17857142857143,NA,NA
97365,Lincoln County,OR,NA,NA,78.65853658536585,NA
97457,Douglas County,OR,NA,NA,NA,79.38144329896907
15010,Beaver County,PA,NA,NA,26.21951219512195,NA
15204,Allegheny County,PA,23.824451410658305,NA,NA,NA
15401,Fayette County,PA,9.090909090909092,NA,NA,NA
15656,Westmoreland County,PA,NA,79.46428571428571,NA,NA
15801,Clearfield County,PA,NA,30.80357142857143,NA,NA
15853,Elk County,PA,NA,NA,NA,63.91752577319587
16001,Butler County,PA,12.852664576802509,NA,NA,NA
16148,Mercer County,PA,NA,58.92857142857143,NA,NA
16749,McKean County,PA,86.20689655172413,NA,NA,NA
17315,York County,PA,NA,NA,31.097560975609756,NA
17331,York County,PA,2.8213166144200628,NA,NA,NA
17340,Adams County,PA,NA,NA,75,NA
17402,York County,PA,NA,73.21428571428571,NA,7.731958762886598
17404,York County,PA,NA,NA,13.414634146341465,NA
17406,York County,PA,70.21943573667711,NA,NA,NA
17603,Lancaster County,PA,NA,7.5892857142857135,NA,NA
17851,Northumberland County,PA,NA,75.89285714285714,NA,NA
18509,Lackawanna County,PA,NA,NA,NA,73.71134020618557
18642,Luzerne County,PA,NA,NA,92.6829268292683,NA
19038,Montgomery County,PA,NA,NA,NA,23.711340206185564
19096,Montgomery County,PA,78.68338557993731,NA,NA,NA
19121,Philadelphia County,PA,NA,19.196428571428573,NA,NA
19131,Philadelphia County,PA,NA,NA,5.487804878048781,1.5463917525773196
19134,Philadelphia County,PA,NA,NA,20.121951219512198,NA
19135,Philadelphia County,PA,NA,12.5,NA,40.20618556701031
19140,Philadelphia County,PA,0.9404388714733543,NA,NA,41.75257731958763
19152,Philadelphia County,PA,NA,NA,21.341463414634145,NA
19350,Chester County,PA,99.05956112852664,NA,NA,NA
19426,Montgomery County,PA,24.45141065830721,NA,NA,NA
19462,Montgomery County,PA,NA,NA,NA,94.3298969072165
19464,Montgomery County,PA,NA,NA,29.878048780487802,NA
19602,Berks County,PA,40.12539184952978,NA,NA,NA
29033,Lexington County,SC,NA,NA,NA,88.65979381443299
29180,Fairfield County,SC,NA,NA,NA,80.41237113402062
29212,Lexington County,SC,NA,NA,70.1219512195122,NA
29325,Laurens County,SC,NA,NA,59.756097560975604,NA
29349,Spartanburg County,SC,NA,NA,NA,17.525773195876287
29385,Spartanburg County,SC,NA,NA,NA,96.3917525773196
29449,Charleston County,SC,NA,73.66071428571429,NA,NA
29466,Charleston County,SC,41.692789968652036,NA,NA,NA
29527,Horry County,SC,NA,NA,54.87804878048781,NA
29801,Aiken County,SC,NA,69.19642857142857,NA,NA
29906,Beaufort County,SC,NA,80.80357142857143,NA,NA
57701,Pennington County,SD,NA,24.553571428571427,NA,NA
57703,Pennington County,SD,74.92163009404389,NA,NA,NA
37064,Williamson County,TN,14.106583072100312,NA,NA,NA
37101,Humphreys County,TN,NA,NA,79.26829268292683,NA
37129,Rutherford County,TN,15.987460815047022,NA,NA,NA
37130,Rutherford County,TN,NA,NA,NA,31.958762886597935
37167,Rutherford County,TN,NA,35.267857142857146,NA,NA
37206,Davidson County,TN,NA,41.517857142857146,NA,NA
37311,Bradley County,TN,NA,NA,NA,36.08247422680412
37343,Hamilton County,TN,NA,NA,29.268292682926827,NA
37357,Warren County,TN,NA,97.76785714285714,NA,NA
37379,Hamilton County,TN,NA,NA,45.73170731707317,31.443298969072163
37405,Hamilton County,TN,NA,82.58928571428571,NA,NA
37643,Carter County,TN,17.86833855799373,NA,NA,NA
37701,Blount County,TN,NA,NA,NA,75.77319587628865
37760,Jefferson County,TN,71.78683385579937,NA,NA,NA
37814,Hamblen County,TN,NA,29.017857142857146,NA,NA
37821,Cocke County,TN,NA,NA,NA,30.927835051546392
37876,Sevier County,TN,47.33542319749217,NA,NA,NA
37917,Knox County,TN,NA,44.642857142857146,NA,NA
37934,Knox County,TN,NA,NA,NA,47.42268041237113
38063,Lauderdale County,TN,56.42633228840125,NA,NA,NA
38115,Shelby County,TN,NA,13.392857142857142,NA,NA
38301,Madison County,TN,NA,20.089285714285715,NA,NA
38305,Madison County,TN,NA,62.94642857142857,NA,NA
38363,Decatur County,TN,59.87460815047022,NA,NA,NA
38372,Hardin County,TN,NA,NA,55.487804878048784,NA
38451,Maury County,TN,NA,NA,93.29268292682927,NA
38544,Putnam County,TN,NA,91.51785714285714,NA,NA
38551,Clay County,TN,NA,90.625,NA,NA
75033,,TX,22.884012539184955,NA,NA,NA
75043,Dallas County,TX,NA,55.35714285714286,NA,NA
75069,Collin County,TX,22.884012539184955,NA,NA,NA
75074,Collin County,TX,16.30094043887147,NA,NA,NA
75082,Collin County,TX,72.72727272727273,NA,NA,NA
75087,Rockwall County,TX,34.48275862068966,NA,NA,NA
75093,Collin County,TX,21.630094043887148,NA,NA,NA
75115,Dallas County,TX,NA,26.785714285714285,NA,NA
75154,Ellis County,TX,NA,67.85714285714286,NA,NA
75160,Kaufman County,TX,NA,72.32142857142857,NA,NA
75189,Rockwall County,TX,41.692789968652036,NA,NA,NA
75206,Dallas County,TX,53.29153605015674,NA,NA,NA
75217,Dallas County,TX,NA,NA,9.146341463414634,NA
75228,Dallas County,TX,NA,22.321428571428573,NA,NA
75236,Dallas County,TX,NA,NA,NA,94.84536082474226
75238,Dallas County,TX,38.557993730407524,NA,NA,NA
75241,Dallas County,TX,55.172413793103445,NA,NA,NA
75254,Dallas County,TX,NA,NA,NA,79.89690721649485
75964,Nacogdoches County,TX,NA,52.67857142857143,NA,NA
76065,Ellis County,TX,68.02507836990596,NA,NA,NA
76109,Tarrant County,TX,73.04075235109718,NA,NA,NA
76137,Tarrant County,TX,NA,NA,NA,19.072164948453608
76240,Cooke County,TX,NA,NA,NA,36.597938144329895
76244,Tarrant County,TX,4.702194357366771,NA,NA,NA
76308,Wichita County,TX,76.48902821316614,NA,NA,NA
76309,Wichita County,TX,81.81818181818183,NA,NA,NA
76903,Tom Green County,TX,NA,NA,NA,57.73195876288659
77016,Harris County,TX,NA,51.78571428571429,NA,NA
77036,Harris County,TX,NA,18.303571428571427,NA,NA
77065,Harris County,TX,NA,56.69642857142857,NA,NA
77072,Harris County,TX,20.37617554858934,NA,NA,NA
77074,Harris County,TX,NA,59.82142857142857,NA,NA
77083,Harris County,TX,NA,61.60714285714286,NA,NA
77090,Harris County,TX,NA,30.80357142857143,NA,NA
77303,Montgomery County,TX,40.12539184952978,NA,NA,NA
77377,Harris County,TX,62.38244514106584,NA,48.78048780487805,NA
77407,Fort Bend County,TX,61.12852664576802,NA,NA,NA
77461,Fort Bend County,TX,NA,96.42857142857143,NA,NA
77478,Fort Bend County,TX,69.27899686520375,NA,NA,NA
77506,Harris County,TX,40.12539184952978,NA,NA,NA
77546,Galveston County,TX,17.86833855799373,NA,NA,NA
77571,Harris County,TX,NA,NA,31.70731707317073,NA
77657,Hardin County,TX,NA,NA,NA,68.55670103092784
77803,Brazos County,TX,NA,NA,NA,49.48453608247423
77845,Brazos County,TX,5.015673981191222,NA,NA,26.804123711340207
78043,Webb County,TX,3.4482758620689653,NA,NA,NA
78046,Webb County,TX,NA,NA,18.902439024390244,NA
78148,Bexar County,TX,90.9090909090909,NA,NA,NA
78213,Bexar County,TX,NA,NA,51.829268292682926,NA
78242,Bexar County,TX,NA,15.178571428571427,NA,NA
78251,Bexar County,TX,NA,38.839285714285715,NA,NA
78410,Nueces County,TX,NA,41.964285714285715,NA,NA
78411,Nueces County,TX,NA,NA,62.80487804878049,NA
78521,Cameron County,TX,NA,NA,NA,15.463917525773196
78541,Hidalgo County,TX,NA,20.535714285714285,NA,NA
78566,Cameron County,TX,NA,NA,90.85365853658537,NA
78589,Hidalgo County,TX,68.96551724137932,58.92857142857143,NA,NA
78640,Hays County,TX,3.761755485893417,NA,46.34146341463415,NA
78725,Travis County,TX,NA,70.53571428571429,NA,NA
78750,Travis County,TX,NA,87.5,NA,NA
78753,Travis County,TX,NA,NA,67.07317073170732,NA
78852,Maverick County,TX,26.959247648902824,NA,NA,NA
78945,Fayette County,TX,NA,91.51785714285714,NA,NA
79423,Lubbock County,TX,27.89968652037618,NA,NA,NA
79512,Mitchell County,TX,NA,91.51785714285714,NA,NA
79556,Nolan County,TX,NA,90.17857142857143,NA,NA
79705,Midland County,TX,NA,83.92857142857143,NA,NA
79762,Ector County,TX,NA,57.58928571428571,NA,NA
79849,El Paso County,TX,NA,48.660714285714285,NA,NA
84015,Davis County,UT,48.275862068965516,NA,NA,NA
84066,Duchesne County,UT,39.18495297805642,NA,NA,NA
84078,Uintah County,UT,19.122257053291534,NA,NA,NA
84088,Salt Lake County,UT,49.52978056426332,NA,NA,NA
84414,Weber County,UT,NA,NA,78.04878048780488,NA
84647,Sanpete County,UT,NA,NA,98.78048780487805,NA
84780,Washington County,UT,NA,NA,NA,85.56701030927834
05602,Washington County,VT,NA,NA,NA,38.659793814432994
20148,Loudoun County,VA,24.76489028213166,NA,NA,NA
20155,Prince William County,VA,NA,NA,87.1951219512195,NA
22039,Fairfax County,VA,NA,NA,84.14634146341463,NA
22124,Fairfax County,VA,84.32601880877742,NA,NA,NA
22153,Fairfax County,VA,NA,NA,65.2439024390244,NA
22312,Fairfax County,VA,78.0564263322884,NA,NA,NA
22407,Spotsylvania County,VA,NA,NA,20.73170731707317,NA
22554,Stafford County,VA,NA,NA,NA,48.96907216494845
22801,Harrisonburg city,VA,42.63322884012539,NA,NA,NA
22902,Charlottesville city,VA,77.11598746081505,NA,NA,NA
23322,Chesapeake city,VA,NA,NA,NA,21.1340206185567
23452,Virginia Beach city,VA,NA,NA,NA,6.185567010309279
23803,Petersburg city,VA,NA,NA,14.02439024390244,NA
23924,Mecklenburg County,VA,NA,76.33928571428571,NA,NA
24301,Pulaski County,VA,NA,66.96428571428571,NA,NA
24401,Staunton city,VA,NA,26.785714285714285,NA,NA
24426,Alleghany County,VA,NA,NA,52.4390243902439,NA
24605,Tazewell County,VA,66.4576802507837,NA,NA,NA
98007,King County,WA,NA,80.35714285714286,NA,NA
98026,Snohomish County,WA,55.4858934169279,NA,NA,NA
98052,King County,WA,53.60501567398119,NA,NA,NA
98108,King County,WA,NA,NA,NA,71.1340206185567
98109,King County,WA,92.16300940438872,NA,NA,NA
98112,King County,WA,74.92163009404389,NA,NA,NA
98125,King County,WA,NA,NA,43.90243902439025,NA
98133,King County,WA,NA,NA,32.926829268292686,NA
98201,Snohomish County,WA,73.35423197492163,NA,NA,NA
98223,Snohomish County,WA,NA,66.07142857142857,NA,NA
98272,Snohomish County,WA,60.18808777429467,NA,NA,NA
98273,Skagit County,WA,NA,NA,NA,11.855670103092782
97003,NA,NA,NA,NA,NA,77.31958762886599
98284,Skagit County,WA,NA,NA,NA,68.04123711340206
98338,Pierce County,WA,66.4576802507837,NA,NA,NA
98418,Pierce County,WA,81.19122257053291,NA,NA,NA
98512,Thurston County,WA,NA,71.42857142857143,NA,NA
98665,Clark County,WA,NA,71.42857142857143,NA,NA
98802,Douglas County,WA,NA,NA,56.09756097560976,NA
98816,Chelan County,WA,NA,NA,NA,84.02061855670104
98944,Yakima County,WA,58.93416927899686,NA,NA,NA
99114,Stevens County,WA,NA,NA,NA,93.81443298969072
99336,Benton County,WA,NA,9.375,NA,NA
20011,District of Columbia,DC,NA,NA,36.58536585365854,NA
26164,Jackson County,WV,62.06896551724138,NA,NA,NA
26452,Lewis County,WV,NA,NA,NA,87.62886597938144
53074,Ozaukee County,WI,84.95297805642633,NA,NA,NA
53095,Washington County,WI,67.39811912225704,NA,NA,NA
53110,Milwaukee County,WI,NA,73.66071428571429,NA,NA
53206,Milwaukee County,WI,7.836990595611286,NA,NA,NA
53211,Milwaukee County,WI,NA,79.91071428571429,NA,NA
53216,Milwaukee County,WI,NA,NA,NA,15.979381443298967
53225,Milwaukee County,WI,NA,32.142857142857146,10.975609756097562,NA
53525,Rock County,WI,96.23824451410658,NA,NA,NA
53566,Green County,WI,NA,NA,NA,59.79381443298969
54121,Florence County,WI,94.67084639498434,NA,NA,NA
54126,Brown County,WI,99.68652037617555,NA,NA,NA
54130,Outagamie County,WI,NA,43.75,NA,NA
54629,Buffalo County,WI,92.47648902821317,NA,NA,NA
54848,Rusk County,WI,84.63949843260188,NA,NA,NA
54913,Outagamie County,WI,88.08777429467085,NA,NA,NA
54961,Waupaca County,WI,NA,NA,NA,50.51546391752577
82201,Platte County,WY,NA,NA,NA,93.29896907216495
