ZipCode,county,state,Adult,Retirement,Geriatric
35040,Shelby County,AL,NA,NA,84.96042216358839
35208,Jefferson County,AL,49.34210526315789,NA,NA
36703,Dallas County,AL,70.06578947368422,NA,NA
36862,Chambers County,AL,NA,91.98113207547169,NA
85022,Maricopa County,AZ,NA,34.43396226415094,NA
85365,Yuma County,AZ,42.10526315789473,NA,NA
85383,Maricopa County,AZ,NA,46.22641509433962,NA
85634,Pima County,AZ,NA,NA,91.02902374670184
85730,Pima County,AZ,39.473684210526315,NA,NA
85746,Pima County,AZ,NA,NA,50.3957783641161
86047,Navajo County,AZ,47.03947368421053,NA,NA
86303,Yavapai County,AZ,NA,NA,54.88126649076517
72120,Pulaski County,AR,NA,23.11320754716981,NA
72204,Pulaski County,AR,NA,37.5,NA
72211,Pulaski County,AR,NA,97.40566037735849,NA
72212,Pulaski County,AR,NA,70.51886792452831,NA
72227,Pulaski County,AR,NA,85.84905660377359,NA
90047,Los Angeles County,CA,25.986842105263158,NA,NA
90240,Los Angeles County,CA,NA,NA,84.69656992084433
90803,Los Angeles County,CA,NA,NA,54.35356200527705
91106,Los Angeles County,CA,NA,NA,81.26649076517151
91201,Los Angeles County,CA,98.35526315789474,NA,NA
91941,San Diego County,CA,NA,NA,46.965699208443276
92130,San Diego County,CA,73.02631578947368,NA,NA
92211,Riverside County,CA,NA,NA,0
92336,San Bernardino County,CA,19.736842105263158,NA,NA
92603,Orange County,CA,96.05263157894737,NA,NA
92604,Orange County,CA,NA,87.02830188679245,NA
92612,Orange County,CA,NA,NA,55.4089709762533
92637,Orange County,CA,NA,NA,25.857519788918204
92660,Orange County,CA,NA,NA,15.8311345646438
92677,Orange County,CA,NA,NA,25.32981530343008
92683,Orange County,CA,NA,62.97169811320755,NA
92701,Orange County,CA,NA,96.69811320754717,NA
92703,Orange County,CA,NA,92.9245283018868,NA
92707,Orange County,CA,NA,58.9622641509434,NA
92804,Orange County,CA,23.355263157894736,NA,NA
92840,Orange County,CA,NA,NA,26.385224274406333
92866,Orange County,CA,NA,84.66981132075472,74.40633245382587
92886,Orange County,CA,NA,NA,27.176781002638524
93012,Ventura County,CA,NA,NA,32.189973614775724
93274,Tulare County,CA,13.486842105263158,NA,NA
93307,Kern County,CA,22.697368421052634,NA,NA
93449,San Luis Obispo County,CA,NA,94.5754716981132,NA
93703,Fresno County,CA,57.23684210526315,NA,NA
94002,San Mateo County,CA,NA,76.65094339622641,NA
94041,Santa Clara County,CA,NA,89.62264150943396,NA
94080,San Mateo County,CA,45.723684210526315,10.377358490566039,NA
94086,Santa Clara County,CA,69.07894736842105,NA,NA
94102,San Francisco County,CA,16.447368421052634,NA,NA
94103,San Francisco County,CA,NA,23.58490566037736,NA
94108,San Francisco County,CA,99.01315789473685,93.63207547169812,NA
94111,San Francisco County,CA,99.67105263157895,NA,NA
94112,San Francisco County,CA,79.93421052631578,NA,NA
94121,San Francisco County,CA,NA,48.34905660377358,13.192612137203167
94122,San Francisco County,CA,NA,NA,6.860158311345646
94123,San Francisco County,CA,NA,NA,62.00527704485488
94131,San Francisco County,CA,NA,NA,88.91820580474933
94133,San Francisco County,CA,NA,NA,66.2269129287599
94158,San Francisco County,CA,95.39473684210526,NA,NA
94306,Santa Clara County,CA,NA,72.87735849056604,NA
94533,Solano County,CA,NA,31.132075471698112,NA
94547,Contra Costa County,CA,90.78947368421053,NA,NA
94560,Alameda County,CA,NA,NA,44.854881266490764
94588,Alameda County,CA,NA,75.94339622641509,NA
94605,Alameda County,CA,NA,NA,87.0712401055409
95019,Santa Cruz County,CA,NA,NA,93.40369393139841
95020,Santa Clara County,CA,73.68421052631578,NA,NA
95033,Santa Cruz County,CA,99.3421052631579,NA,NA
95035,Santa Clara County,CA,NA,NA,24.80211081794195
95054,Santa Clara County,CA,NA,99.29245283018868,NA
95120,Santa Clara County,CA,NA,80.89622641509435,NA
95121,Santa Clara County,CA,NA,64.15094339622641,NA
95128,Santa Clara County,CA,NA,NA,51.71503957783641
95133,Santa Clara County,CA,NA,91.50943396226415,NA
95204,San Joaquin County,CA,NA,73.11320754716981,NA
95351,Stanislaus County,CA,33.881578947368425,NA,NA
95820,Sacramento County,CA,NA,48.34905660377358,NA
95864,Sacramento County,CA,NA,79.24528301886792,NA
95965,Butte County,CA,NA,36.79245283018868,NA
96001,Shasta County,CA,33.223684210526315,NA,NA
96019,Shasta County,CA,NA,90.80188679245283,NA
80002,Jefferson County,CO,NA,NA,81.26649076517151
80012,Arapahoe County,CO,NA,36.08490566037736,NA
80013,Arapahoe County,CO,NA,27.830188679245282,NA
80014,Arapahoe County,CO,NA,68.86792452830188,NA
80017,Arapahoe County,CO,48.68421052631579,54.95283018867924,NA
80023,Broomfield County,CO,NA,NA,96.83377308707124
80121,Arapahoe County,CO,NA,NA,57.78364116094987
80127,Jefferson County,CO,NA,56.60377358490566,NA
80129,Douglas County,CO,NA,NA,74.14248021108179
80204,Denver County,CO,34.53947368421053,NA,NA
80206,Denver County,CO,NA,87.73584905660378,NA
80212,Denver County,CO,NA,74.05660377358491,NA
80214,Jefferson County,CO,53.61842105263158,NA,NA
80216,Denver County,CO,75.32894736842105,NA,NA
80219,Denver County,CO,11.18421052631579,27.122641509433965,NA
80223,Denver County,CO,NA,62.264150943396224,NA
80224,Denver County,CO,94.07894736842105,NA,NA
80231,Denver County,CO,NA,67.45283018867924,NA
80238,Denver County,CO,NA,NA,98.41688654353563
80239,Denver County,CO,NA,58.72641509433962,NA
80247,Arapahoe County,CO,NA,55.89622641509434,NA
80301,Boulder County,CO,68.42105263157895,NA,NA
80439,Jefferson County,CO,NA,58.25471698113207,NA
80503,Boulder County,CO,NA,NA,49.07651715039577
80620,Weld County,CO,57.89473684210527,NA,NA
81005,Pueblo County,CO,75.6578947368421,NA,NA
06001,Hartford County,CT,NA,90.09433962264151,NA
06106,Hartford County,CT,10.855263157894738,NA,NA
06118,Hartford County,CT,66.77631578947368,NA,NA
06410,New Haven County,CT,75,NA,NA
06468,Fairfield County,CT,NA,79.71698113207547,NA
06492,New Haven County,CT,NA,98.34905660377359,NA
19971,Sussex County,DE,77.30263157894737,NA,NA
32063,Baker County,FL,NA,80.66037735849056,NA
32162,Sumter County,FL,NA,NA,3.430079155672823
32174,Volusia County,FL,NA,16.745283018867923,NA
32189,Putnam County,FL,93.75,NA,NA
32277,Duval County,FL,NA,51.41509433962265,NA
32615,Alachua County,FL,73.35526315789474,NA,NA
32750,Seminole County,FL,74.3421052631579,NA,NA
32757,Lake County,FL,NA,NA,38.78627968337731
32809,Orange County,FL,60.526315789473685,NA,NA
32835,Orange County,FL,NA,NA,58.839050131926115
32966,Indian River County,FL,NA,37.971698113207545,NA
33009,Broward County,FL,NA,88.20754716981132,NA
33016,Miami-Dade County,FL,NA,NA,64.37994722955145
33018,Miami-Dade County,FL,80.92105263157895,63.20754716981132,NA
33021,Broward County,FL,NA,NA,6.33245382585752
33023,Broward County,FL,NA,51.65094339622641,NA
33026,Broward County,FL,NA,65.80188679245283,NA
33033,Miami-Dade County,FL,54.276315789473685,NA,NA
33062,Broward County,FL,NA,34.19811320754717,NA
33064,Broward County,FL,NA,60.141509433962256,NA
33066,Broward County,FL,NA,NA,59.63060686015831
33067,Broward County,FL,83.22368421052632,NA,NA
33076,Broward County,FL,NA,71.4622641509434,NA
33125,Miami-Dade County,FL,NA,74.76415094339622,NA
33134,Miami-Dade County,FL,NA,60.613207547169814,NA
33135,Miami-Dade County,FL,NA,NA,26.649076517150394
33136,Miami-Dade County,FL,61.18421052631579,NA,NA
33138,Miami-Dade County,FL,NA,NA,77.57255936675462
33139,Miami-Dade County,FL,NA,NA,46.437994722955146
33140,Miami-Dade County,FL,85.19736842105263,73.58490566037736,NA
33141,Miami-Dade County,FL,NA,44.339622641509436,NA
33142,Miami-Dade County,FL,NA,63.443396226415096,NA
33145,Miami-Dade County,FL,89.14473684210526,NA,NA
33155,Miami-Dade County,FL,NA,82.31132075471697,NA
33158,Miami-Dade County,FL,NA,97.87735849056604,NA
33162,Miami-Dade County,FL,NA,68.39622641509435,NA
33166,Miami-Dade County,FL,82.23684210526315,NA,NA
33169,Miami-Dade County,FL,54.93421052631579,NA,NA
33180,Miami-Dade County,FL,NA,79.48113207547169,17.41424802110818
33186,Miami-Dade County,FL,NA,NA,30.343007915567284
33189,Miami-Dade County,FL,NA,NA,98.94459102902374
33193,Miami-Dade County,FL,NA,62.02830188679245,NA
33308,Broward County,FL,NA,20.99056603773585,NA
33317,Broward County,FL,82.56578947368422,NA,NA
33321,Broward County,FL,NA,NA,52.770448548812666
33322,Broward County,FL,NA,NA,67.54617414248021
33327,Broward County,FL,NA,94.10377358490565,NA
33418,Palm Beach County,FL,NA,NA,43.79947229551451
33445,Palm Beach County,FL,NA,NA,31.13456464379947
33477,Palm Beach County,FL,NA,78.77358490566037,NA
33525,Pasco County,FL,75.98684210526315,NA,NA
33592,Hillsborough County,FL,NA,91.27358490566037,NA
33755,Pinellas County,FL,NA,NA,81.00263852242745
33771,Pinellas County,FL,NA,41.27358490566038,NA
33803,Polk County,FL,69.4078947368421,NA,NA
34113,Collier County,FL,NA,64.85849056603774,NA
34114,Collier County,FL,NA,45.5188679245283,NA
34209,Manatee County,FL,NA,26.650943396226417,NA
34223,Sarasota County,FL,NA,NA,33.50923482849604
34233,Sarasota County,FL,84.21052631578947,NA,NA
34285,Sarasota County,FL,NA,NA,13.456464379947231
34291,Sarasota County,FL,NA,87.26415094339622,NA
34488,Marion County,FL,78.61842105263158,NA,NA
34698,Pinellas County,FL,NA,NA,19.525065963060687
34787,Orange County,FL,38.48684210526316,NA,NA
34946,St. Lucie County,FL,86.51315789473685,NA,NA
30030,DeKalb County,GA,59.210526315789465,NA,NA
30032,DeKalb County,GA,NA,17.21698113207547,NA
30033,DeKalb County,GA,NA,94.33962264150944,NA
30035,DeKalb County,GA,66.44736842105263,NA,NA
30038,DeKalb County,GA,55.26315789473685,NA,NA
30058,DeKalb County,GA,NA,70.28301886792453,NA
30083,DeKalb County,GA,NA,39.85849056603774,NA
30141,Paulding County,GA,74.67105263157895,NA,NA
30281,Henry County,GA,39.14473684210527,NA,NA
30306,Fulton County,GA,93.0921052631579,NA,NA
30310,Fulton County,GA,64.47368421052632,NA,51.187335092348285
30314,Fulton County,GA,57.56578947368421,53.301886792452834,94.9868073878628
30315,Fulton County,GA,NA,NA,40.633245382585756
30317,DeKalb County,GA,NA,80.18867924528303,NA
30318,Fulton County,GA,42.10526315789473,NA,NA
30331,Fulton County,GA,28.618421052631575,NA,21.63588390501319
30338,DeKalb County,GA,NA,NA,35.62005277044855
30344,Fulton County,GA,NA,77.12264150943396,NA
96795,Honolulu County,HI,81.9078947368421,NA,NA
96813,Honolulu County,HI,46.381578947368425,NA,NA
96819,Honolulu County,HI,NA,NA,25.065963060686013
96821,Honolulu County,HI,NA,76.41509433962264,NA
60014,McHenry County,IL,NA,19.57547169811321,NA
60016,Cook County,IL,NA,69.5754716981132,NA
60018,Cook County,IL,NA,47.16981132075472,NA
60025,Cook County,IL,NA,7.311320754716981,50.92348284960422
60026,Cook County,IL,NA,54.24528301886793,NA
60044,Lake County,IL,NA,86.55660377358491,NA
60047,Lake County,IL,48.35526315789473,NA,59.10290237467019
60056,Cook County,IL,NA,20.754716981132077,NA
60077,Cook County,IL,NA,NA,10.026385224274406
60090,Cook County,IL,NA,NA,20.052770448548813
60101,DuPage County,IL,NA,65.09433962264151,21.108179419525065
60106,DuPage County,IL,NA,NA,35.09234828496042
60108,DuPage County,IL,67.76315789473685,NA,NA
60126,DuPage County,IL,19.407894736842106,NA,NA
60130,Cook County,IL,91.11842105263158,NA,NA
60155,Cook County,IL,87.5,NA,NA
60164,Cook County,IL,50.32894736842105,NA,NA
60177,Kane County,IL,67.10526315789474,NA,NA
60181,DuPage County,IL,NA,37.028301886792455,44.854881266490764
60189,DuPage County,IL,NA,28.537735849056606,NA
60201,Cook County,IL,NA,65.33018867924528,7.387862796833773
60302,Cook County,IL,NA,NA,55.145118733509236
60423,Will County,IL,88.81578947368422,NA,NA
60453,Cook County,IL,NA,11.79245283018868,NA
60462,Cook County,IL,88.1578947368421,8.726415094339622,NA
60468,Will County,IL,96.38157894736842,NA,NA
60503,Will County,IL,87.17105263157895,NA,NA
60516,DuPage County,IL,NA,36.32075471698113,NA
60517,DuPage County,IL,NA,41.0377358490566,NA
60544,Will County,IL,NA,30.424528301886795,NA
60546,Cook County,IL,NA,NA,45.91029023746702
60561,DuPage County,IL,NA,71.69811320754717,NA
60586,Will County,IL,24.342105263157894,NA,NA
60605,Cook County,IL,68.75,NA,NA
60610,Cook County,IL,55.5921052631579,NA,NA
60625,Cook County,IL,20.394736842105264,NA,NA
60632,Cook County,IL,23.026315789473685,NA,NA
60634,Cook County,IL,20.065789473684212,NA,NA
60643,Cook County,IL,NA,52.358490566037744,NA
60647,Cook County,IL,15.131578947368421,NA,NA
60651,Cook County,IL,17.105263157894736,NA,NA
60652,Cook County,IL,NA,29.71698113207547,NA
60654,Cook County,IL,76.64473684210526,NA,NA
60804,Cook County,IL,NA,19.10377358490566,NA
60957,Ford County,IL,NA,NA,91.2928759894459
61019,Stephenson County,IL,NA,NA,69.39313984168865
61081,Whiteside County,IL,NA,NA,26.912928759894463
61107,Winnebago County,IL,NA,NA,24.010554089709764
61604,Peoria County,IL,NA,76.17924528301887,NA
61802,Champaign County,IL,NA,NA,50.65963060686016
61820,Champaign County,IL,NA,NA,96.30606860158312
61821,Champaign County,IL,NA,55.188679245283026,NA
61822,Champaign County,IL,NA,57.07547169811321,62.532981530343015
61853,Champaign County,IL,NA,NA,83.90501319261213
61866,Champaign County,IL,NA,74.05660377358491,NA
61874,Champaign County,IL,NA,69.81132075471697,NA
62010,Madison County,IL,83.22368421052632,NA,NA
62236,Monroe County,IL,98.02631578947368,NA,NA
62263,Washington County,IL,94.4078947368421,NA,NA
62557,Christian County,IL,89.47368421052632,NA,NA
46201,Marion County,IN,NA,NA,79.94722955145119
46203,Marion County,IN,18.092105263157894,NA,66.75461741424802
46204,Marion County,IN,53.61842105263158,NA,NA
46219,Marion County,IN,NA,61.08490566037735,NA
46222,Marion County,IN,NA,NA,89.44591029023746
46227,Marion County,IN,NA,9.19811320754717,5.277044854881266
46229,Marion County,IN,NA,NA,41.16094986807388
46241,Marion County,IN,32.89473684210527,NA,NA
46256,Marion County,IN,NA,NA,63.3245382585752
46307,Lake County,IN,NA,3.0660377358490565,NA
46391,LaPorte County,IN,NA,98.58490566037736,NA
46406,Lake County,IN,72.69736842105263,NA,NA
46408,Lake County,IN,NA,NA,74.67018469656992
46615,St. Joseph County,IN,NA,77.83018867924528,NA
50313,Polk County,IA,NA,70.99056603773585,NA
50315,Polk County,IA,17.434210526315788,NA,NA
50662,Fayette County,IA,NA,86.79245283018868,NA
52240,Johnson County,IA,NA,24.29245283018868,30.343007915567284
52241,Johnson County,IA,NA,NA,88.39050131926122
52246,Johnson County,IA,NA,NA,69.92084432717678
52317,Johnson County,IA,NA,76.65094339622641,NA
52544,Appanoose County,IA,54.60526315789473,NA,NA
52601,Des Moines County,IA,NA,20.5188679245283,NA
52641,Henry County,IA,NA,NA,58.31134564643799
52748,Scott County,IA,NA,93.63207547169812,NA
66103,Wyandotte County,KS,81.57894736842105,NA,NA
66215,Johnson County,KS,NA,50.235849056603776,NA
40118,Jefferson County,KY,63.48684210526315,NA,NA
40324,Scott County,KY,NA,28.066037735849058,NA
41056,Mason County,KY,55.92105263157895,NA,NA
70002,Jefferson Parish,LA,NA,NA,35.88390501319261
70003,Jefferson Parish,LA,NA,NA,44.327176781002635
70062,Jefferson Parish,LA,30.592105263157894,NA,NA
70125,Orleans Parish,LA,NA,NA,87.59894459102902
70126,Orleans Parish,LA,NA,25.707547169811324,NA
70301,Lafourche Parish,LA,NA,NA,53.03430079155673
70458,St. Tammany Parish,LA,NA,NA,11.609498680738787
70520,Lafayette Parish,LA,NA,NA,85.75197889182058
70706,Livingston Parish,LA,NA,NA,86.80738786279683
70748,East Feliciana Parish,LA,NA,NA,98.15303430079155
70808,East Baton Rouge Parish,LA,NA,NA,48.812664907651715
71040,Claiborne Parish,LA,NA,NA,89.70976253298153
71104,Caddo Parish,LA,NA,71.93396226415094,NA
71107,Caddo Parish,LA,NA,NA,66.49076517150397
71108,Caddo Parish,LA,NA,49.764150943396224,NA
71115,Caddo Parish,LA,NA,NA,72.82321899736148
71119,Caddo Parish,LA,NA,87.97169811320755,NA
71129,Caddo Parish,LA,NA,NA,60.68601583113457
71291,Ouachita Parish,LA,91.44736842105263,NA,NA
71457,Natchitoches Parish,LA,NA,30.18867924528302,NA
04074,Cumberland County,ME,NA,NA,41.952506596306065
04090,York County,ME,89.80263157894737,NA,NA
04401,Penobscot County,ME,6.25,2.5943396226415096,93.66754617414247
04412,Penobscot County,ME,NA,NA,65.69920844327177
04416,Hancock County,ME,NA,96.4622641509434,NA
04444,Penobscot County,ME,NA,95.51886792452831,94.45910290237467
04457,Penobscot County,ME,NA,92.21698113207547,NA
04609,Hancock County,ME,NA,NA,86.54353562005277
04841,Knox County,ME,NA,NA,58.575197889182064
04849,Waldo County,ME,NA,NA,95.77836411609498
04915,Waldo County,ME,NA,NA,80.47493403693932
20706,Prince George's County,MD,65.78947368421053,NA,NA
20817,Montgomery County,MD,NA,99.05660377358491,NA
21040,Harford County,MD,68.0921052631579,NA,NA
21093,Baltimore County,MD,NA,32.54716981132076,NA
21133,Baltimore County,MD,NA,NA,42.480211081794195
21136,Baltimore County,MD,NA,56.839622641509436,NA
21163,Howard County,MD,NA,98.11320754716981,NA
21210,Baltimore city,MD,NA,NA,82.32189973614776
21212,Baltimore city,MD,NA,NA,37.994722955145114
21217,Baltimore city,MD,35.85526315789473,NA,NA
21222,Baltimore County,MD,NA,NA,6.596306068601583
21223,Baltimore city,MD,NA,79.95283018867924,NA
21224,Baltimore city,MD,NA,44.10377358490566,NA
21234,Baltimore County,MD,27.302631578947366,NA,NA
21237,Baltimore County,MD,NA,59.66981132075472,NA
21244,Baltimore County,MD,56.9078947368421,NA,NA
21403,Anne Arundel County,MD,72.03947368421053,NA,NA
21784,Carroll County,MD,NA,84.43396226415094,NA
01040,Hampden County,MA,0.9868421052631579,NA,NA
01108,Hampden County,MA,5.263157894736842,NA,NA
01201,Berkshire County,MA,NA,NA,1.3192612137203166
01220,Berkshire County,MA,35.526315789473685,NA,NA
01536,Worcester County,MA,NA,81.13207547169812,NA
01604,Worcester County,MA,NA,75,NA
01701,Middlesex County,MA,NA,NA,8.443271767810026
01742,Middlesex County,MA,NA,46.69811320754717,NA
01801,Middlesex County,MA,NA,15.330188679245282,NA
01803,Middlesex County,MA,NA,6.8396226415094334,22.95514511873351
01821,Middlesex County,MA,NA,2.8301886792452833,8.970976253298153
01832,Essex County,MA,29.93421052631579,14.622641509433961,NA
01844,Essex County,MA,4.605263157894736,NA,NA
01864,Middlesex County,MA,NA,NA,90.23746701846966
01867,Middlesex County,MA,NA,13.915094339622641,NA
01880,Middlesex County,MA,NA,NA,13.720316622691293
01886,Middlesex County,MA,NA,82.54716981132076,NA
01902,Essex County,MA,NA,NA,3.16622691292876
01906,Essex County,MA,NA,12.735849056603774,7.12401055408971
01907,Essex County,MA,NA,NA,20.58047493403694
01913,Essex County,MA,38.15789473684211,NA,NA
01921,Essex County,MA,NA,88.67924528301887,NA
01923,Essex County,MA,NA,8.962264150943396,19.261213720316622
01938,Essex County,MA,NA,21.22641509433962,NA
01940,Essex County,MA,NA,54.009433962264154,NA
01952,Essex County,MA,NA,65.56603773584906,NA
01960,Essex County,MA,2.9605263157894735,NA,NA
01985,Essex County,MA,94.73684210526315,NA,NA
02026,Norfolk County,MA,NA,NA,16.358839050131927
02035,Norfolk County,MA,NA,29.4811320754717,NA
02038,Norfolk County,MA,22.36842105263158,NA,NA
02043,Plymouth County,MA,NA,97.64150943396226,NA
02045,Plymouth County,MA,NA,93.16037735849056,NA
02072,Norfolk County,MA,NA,NA,12.401055408970976
02111,Suffolk County,MA,NA,NA,67.81002638522428
02114,Suffolk County,MA,NA,84.90566037735849,NA
02115,Suffolk County,MA,NA,NA,49.6042216358839
02116,Suffolk County,MA,25,NA,54.089709762532976
02118,Suffolk County,MA,NA,41.74528301886792,32.98153034300791
02120,Suffolk County,MA,67.43421052631578,NA,NA
02124,Suffolk County,MA,0.3289473684210526,0,NA
02125,Suffolk County,MA,9.539473684210527,17.68867924528302,9.762532981530343
02127,Suffolk County,MA,4.934210526315789,11.084905660377359,NA
02128,Suffolk County,MA,NA,1.8867924528301887,NA
02129,Suffolk County,MA,61.51315789473685,NA,47.4934036939314
02130,Suffolk County,MA,4.276315789473684,NA,5.013192612137203
02131,Suffolk County,MA,NA,7.0754716981132075,NA
02135,Suffolk County,MA,NA,48.82075471698113,92.87598944591029
02136,Suffolk County,MA,NA,35.613207547169814,NA
02138,Middlesex County,MA,21.38157894736842,NA,NA
02139,Middlesex County,MA,1.3157894736842104,NA,NA
02143,Middlesex County,MA,NA,NA,21.899736147757256
02144,Middlesex County,MA,NA,14.858490566037736,NA
02148,Middlesex County,MA,0,5.188679245283019,NA
02149,Middlesex County,MA,NA,NA,2.9023746701846966
02150,Suffolk County,MA,2.302631578947368,NA,NA
02151,Suffolk County,MA,30.263157894736842,NA,5.804749340369393
02155,Middlesex County,MA,NA,1.4150943396226416,NA
02169,Norfolk County,MA,NA,0.9433962264150944,1.0554089709762533
02170,Norfolk County,MA,NA,12.5,27.96833773087071
02176,Middlesex County,MA,NA,NA,15.567282321899736
02180,Middlesex County,MA,NA,27.358490566037734,NA
02186,Norfolk County,MA,NA,31.60377358490566,NA
02189,Norfolk County,MA,36.51315789473684,NA,NA
02332,Plymouth County,MA,NA,NA,82.84960422163589
02359,Plymouth County,MA,NA,NA,82.58575197889182
02360,Plymouth County,MA,NA,0.7075471698113208,1.58311345646438
02364,Plymouth County,MA,NA,69.33962264150944,NA
02368,Norfolk County,MA,NA,8.49056603773585,NA
02421,Middlesex County,MA,NA,75.23584905660378,68.60158311345647
02446,Norfolk County,MA,31.57894736842105,9.433962264150944,10.817941952506596
02451,Middlesex County,MA,NA,NA,62.796833773087066
02467,Norfolk County,MA,90.13157894736842,NA,NA
02474,Middlesex County,MA,NA,NA,47.75725593667546
02478,Middlesex County,MA,NA,NA,39.577836411609496
02649,Barnstable County,MA,NA,33.0188679245283,NA
02724,Bristol County,MA,NA,78.06603773584906,NA
02740,Bristol County,MA,0.6578947368421052,0.4716981132075472,NA
02767,Bristol County,MA,37.82894736842105,NA,NA
02769,Bristol County,MA,NA,66.27358490566037,NA
02780,Bristol County,MA,NA,2.358490566037736,NA
48009,Oakland County,MI,62.17105263157895,68.63207547169812,57.25593667546174
48033,Oakland County,MI,NA,40.09433962264151,NA
48034,Oakland County,MI,NA,81.83962264150944,43.53562005277045
48035,Macomb County,MI,NA,13.679245283018867,10.554089709762533
48036,Macomb County,MI,NA,33.72641509433962,NA
48040,St. Clair County,MI,78.28947368421053,NA,NA
48042,Macomb County,MI,77.96052631578947,NA,NA
48043,Macomb County,MI,44.40789473684211,NA,NA
48045,Macomb County,MI,NA,21.462264150943398,NA
48060,St. Clair County,MI,NA,NA,57.519788918205805
48067,Oakland County,MI,NA,50.47169811320755,NA
48076,Oakland County,MI,NA,32.31132075471698,NA
48080,Macomb County,MI,47.69736842105263,NA,29.287598944591032
48083,Oakland County,MI,NA,69.10377358490565,NA
48103,Washtenaw County,MI,24.671052631578945,2.1226415094339623,36.41160949868074
48104,Washtenaw County,MI,NA,NA,86.2796833773087
48105,Washtenaw County,MI,NA,56.132075471698116,3.6939313984168867
48108,Washtenaw County,MI,NA,38.20754716981132,64.64379947229551
48111,Wayne County,MI,NA,40.33018867924528,NA
48114,Livingston County,MI,NA,33.490566037735846,NA
48116,Livingston County,MI,NA,57.54716981132076,47.229551451187334
48118,Washtenaw County,MI,NA,83.25471698113208,NA
48124,Wayne County,MI,NA,66.98113207547169,38.258575197889186
48127,Wayne County,MI,NA,NA,36.147757255936675
48128,Wayne County,MI,86.18421052631578,NA,NA
48130,Washtenaw County,MI,NA,NA,48.02110817941953
48135,Wayne County,MI,NA,NA,22.691292875989447
48146,Wayne County,MI,16.776315789473685,NA,NA
48150,Wayne County,MI,NA,NA,50.131926121372025
48152,Wayne County,MI,NA,79.00943396226415,11.081794195250659
48154,Wayne County,MI,37.5,10.61320754716981,NA
48158,Washtenaw County,MI,NA,NA,83.11345646437994
48160,Washtenaw County,MI,NA,NA,64.1160949868074
48165,Oakland County,MI,NA,NA,76.78100263852242
48167,Oakland County,MI,NA,NA,14.511873350923482
48180,Wayne County,MI,NA,NA,3.95778364116095
48187,Wayne County,MI,NA,4.009433962264151,NA
48189,Washtenaw County,MI,NA,59.43396226415094,NA
48197,Washtenaw County,MI,6.907894736842106,3.30188679245283,NA
48198,Washtenaw County,MI,NA,NA,27.70448548812665
48203,Wayne County,MI,NA,26.41509433962264,NA
48205,Wayne County,MI,NA,19.57547169811321,NA
48206,Wayne County,MI,40.78947368421053,35.14150943396226,91.55672823218998
48207,Wayne County,MI,NA,43.160377358490564,56.99208443271768
48212,Wayne County,MI,NA,18.632075471698112,NA
48214,Wayne County,MI,NA,NA,73.35092348284961
48215,Wayne County,MI,NA,NA,74.67018469656992
48219,Wayne County,MI,NA,25,NA
48221,Wayne County,MI,NA,38.443396226415096,NA
48223,Wayne County,MI,NA,47.64150943396226,NA
48224,Wayne County,MI,NA,NA,95.51451187335093
48226,Wayne County,MI,NA,98.82075471698113,NA
48230,Wayne County,MI,NA,45.990566037735846,87.33509234828496
48234,Wayne County,MI,15.789473684210526,NA,NA
48236,Wayne County,MI,NA,53.77358490566038,45.91029023746702
48238,Wayne County,MI,NA,NA,34.300791556728235
48301,Oakland County,MI,NA,NA,49.340369393139845
48302,Oakland County,MI,NA,52.594339622641506,NA
48312,Macomb County,MI,NA,NA,9.234828496042216
48314,Macomb County,MI,NA,NA,28.232189973614773
48323,Oakland County,MI,NA,50.70754716981132,NA
48324,Oakland County,MI,NA,63.91509433962265,53.562005277044854
48328,Oakland County,MI,NA,NA,36.675461741424805
48331,Oakland County,MI,48.026315789473685,25.471698113207548,32.45382585751979
48334,Oakland County,MI,NA,NA,41.68865435356201
48335,Oakland County,MI,NA,NA,35.35620052770449
48348,Oakland County,MI,NA,NA,63.58839050131926
48377,Oakland County,MI,NA,77.12264150943396,NA
48380,Oakland County,MI,NA,97.16981132075472,NA
48381,Oakland County,MI,NA,NA,52.5065963060686
48382,Oakland County,MI,NA,NA,65.4353562005277
48390,Oakland County,MI,NA,44.575471698113205,39.31398416886543
48393,Oakland County,MI,NA,NA,78.62796833773086
48442,Oakland County,MI,60.19736842105263,55.660377358490564,NA
48450,Sanilac County,MI,NA,NA,84.96042216358839
48603,Saginaw County,MI,NA,13.443396226415095,NA
48638,Saginaw County,MI,NA,50.943396226415096,NA
48843,Livingston County,MI,NA,6.367924528301887,9.498680738786279
48846,Ionia County,MI,NA,NA,70.71240105540898
48867,Shiawassee County,MI,NA,9.669811320754718,NA
49015,Calhoun County,MI,27.960526315789476,NA,NA
49017,Calhoun County,MI,NA,NA,29.551451187335093
49201,Jackson County,MI,17.763157894736842,NA,NA
49203,Jackson County,MI,14.802631578947366,NA,NA
49233,Hillsdale County,MI,NA,100,NA
49242,Hillsdale County,MI,NA,NA,51.45118733509235
49319,Kent County,MI,71.38157894736842,NA,NA
49442,Muskegon County,MI,8.881578947368421,NA,NA
49849,Marquette County,MI,NA,NA,72.55936675461741
55042,Washington County,MN,NA,NA,100
55075,Dakota County,MN,52.30263157894737,NA,NA
55125,Washington County,MN,50.6578947368421,NA,NA
55405,Hennepin County,MN,NA,NA,84.96042216358839
55421,Anoka County,MN,NA,NA,42.74406332453825
55746,St. Louis County,MN,NA,39.62264150943396,NA
55792,St. Louis County,MN,NA,36.556603773584904,NA
55804,St. Louis County,MN,76.31578947368422,84.19811320754717,NA
55805,St. Louis County,MN,58.223684210526315,NA,NA
55806,St. Louis County,MN,40.46052631578947,67.9245283018868,NA
55808,St. Louis County,MN,NA,NA,94.1952506596306
55810,St. Louis County,MN,NA,55.42452830188679,NA
55811,St. Louis County,MN,NA,8.254716981132075,40.369393139841684
55812,St. Louis County,MN,84.86842105263158,NA,NA
55906,Olmsted County,MN,NA,NA,65.96306068601582
55987,Winona County,MN,NA,NA,18.46965699208443
56058,Le Sueur County,MN,92.76315789473685,NA,NA
56073,Brown County,MN,NA,18.160377358490564,59.36675461741425
56258,Lyon County,MN,NA,NA,75.19788918205805
56283,Redwood County,MN,NA,NA,88.12664907651715
56308,Douglas County,MN,40.131578947368425,NA,6.068601583113456
56464,Wadena County,MN,NA,92.45283018867924,NA
56470,Hubbard County,MN,74.01315789473685,46.4622641509434,38.522427440633244
56484,Cass County,MN,NA,85.37735849056604,NA
56501,Becker County,MN,NA,86.32075471698113,NA
56537,Otter Tail County,MN,NA,NA,17.941952506596305
56560,Clay County,MN,22.039473684210524,31.839622641509436,59.894459102902374
56573,Otter Tail County,MN,71.05263157894737,NA,NA
56601,Beltrami County,MN,NA,54.71698113207547,76.51715039577837
56633,Hubbard County,MN,NA,NA,78.89182058047494
56649,Koochiching County,MN,NA,NA,97.8891820580475
63033,St. Louis County,MO,NA,18.867924528301888,NA
63134,St. Louis County,MO,52.960526315789465,NA,NA
63303,St. Charles County,MO,NA,15.80188679245283,NA
64050,Jackson County,MO,25.32894736842105,NA,NA
64123,Jackson County,MO,NA,NA,82.05804749340369
64130,Jackson County,MO,NA,NA,36.93931398416886
64735,Henry County,MO,NA,NA,40.105540897097626
64850,Newton County,MO,26.31578947368421,NA,NA
65201,Boone County,MO,58.55263157894737,NA,NA
65202,Boone County,MO,NA,95.04716981132076,53.29815303430079
65203,Boone County,MO,NA,15.09433962264151,NA
65233,Cooper County,MO,NA,87.5,NA
65340,Saline County,MO,NA,67.68867924528303,NA
65622,Dallas County,MO,80.26315789473685,NA,61.477572559366756
59101,Yellowstone County,MT,NA,66.74528301886792,15.303430079155673
59102,Yellowstone County,MT,NA,6.60377358490566,1.8469656992084433
68505,Lancaster County,NE,NA,89.85849056603774,NA
89102,Clark County,NV,83.88157894736842,NA,NA
89108,Clark County,NV,34.21052631578947,NA,NA
89166,Clark County,NV,71.71052631578947,NA,NA
03049,Hillsborough County,NH,NA,NA,81.26649076517151
03051,Hillsborough County,NH,NA,60.84905660377359,NA
03060,Hillsborough County,NH,14.473684210526317,NA,NA
03079,Rockingham County,NH,58.88157894736842,NA,NA
03103,Hillsborough County,NH,12.5,NA,NA
03446,Cheshire County,NH,NA,85.14150943396226,NA
03753,Sullivan County,NH,100,NA,NA
03766,Grafton County,NH,NA,NA,80.21108179419525
03842,Rockingham County,NH,NA,35.84905660377358,66.75461741424802
07008,Middlesex County,NJ,NA,78.5377358490566,NA
07035,Morris County,NJ,NA,NA,83.11345646437994
07076,Union County,NJ,88.48684210526315,NA,NA
07093,Hudson County,NJ,NA,16.27358490566038,NA
07103,Essex County,NJ,3.9473684210526314,NA,NA
07109,Essex County,NJ,23.684210526315788,NA,NA
07644,Bergen County,NJ,NA,39.15094339622642,NA
08096,Gloucester County,NJ,10.526315789473683,NA,NA
08108,Camden County,NJ,NA,62.735849056603776,NA
08109,Camden County,NJ,NA,46.93396226415094,NA
08205,Atlantic County,NJ,NA,26.179245283018872,NA
08260,Cape May County,NJ,43.75,NA,NA
08330,Atlantic County,NJ,69.73684210526315,NA,NA
08723,Ocean County,NJ,25.657894736842106,NA,NA
08852,Middlesex County,NJ,63.1578947368421,NA,NA
08857,Middlesex County,NJ,85.52631578947368,NA,NA
87047,Bernalillo County,NM,NA,95.75471698113208,NA
87102,Bernalillo County,NM,34.868421052631575,NA,NA
87106,Bernalillo County,NM,NA,49.528301886792455,NA
87108,Bernalillo County,NM,NA,7.783018867924528,NA
87505,Santa Fe County,NM,11.513157894736842,NA,NA
10001,New York County,NY,21.710526315789476,NA,NA
10002,New York County,NY,NA,NA,16.62269129287599
10009,New York County,NY,NA,NA,29.815303430079155
10025,New York County,NY,12.828947368421053,NA,NA
10026,New York County,NY,NA,24.056603773584907,NA
10027,New York County,NY,NA,18.39622641509434,NA
10034,New York County,NY,46.05263157894737,21.933962264150946,NA
10040,New York County,NY,45.39473684210527,NA,NA
10065,New York County,NY,NA,68.16037735849056,NA
10306,Richmond County,NY,31.25,NA,NA
10308,Richmond County,NY,NA,NA,72.0316622691293
10314,Richmond County,NY,NA,5.4245283018867925,NA
10452,Bronx County,NY,3.289473684210526,26.88679245283019,NA
10453,Bronx County,NY,3.618421052631579,NA,NA
10454,Bronx County,NY,41.776315789473685,NA,NA
10456,Bronx County,NY,NA,0.2358490566037736,NA
10458,Bronx County,NY,1.9736842105263157,1.179245283018868,NA
10460,Bronx County,NY,5.921052631578947,NA,NA
10461,Bronx County,NY,20.723684210526315,NA,NA
10462,Bronx County,NY,NA,6.132075471698113,8.179419525065963
10465,Bronx County,NY,NA,NA,61.74142480211082
10466,Bronx County,NY,NA,NA,11.87335092348285
10467,Bronx County,NY,2.631578947368421,NA,NA
10468,Bronx County,NY,19.078947368421055,3.7735849056603774,NA
10469,Bronx County,NY,NA,9.90566037735849,NA
10470,Bronx County,NY,62.82894736842105,NA,NA
10473,Bronx County,NY,77.63157894736842,NA,NA
10475,Bronx County,NY,NA,NA,34.56464379947229
10606,Westchester County,NY,NA,NA,93.93139841688655
10701,Westchester County,NY,NA,5.660377358490567,NA
11102,Queens County,NY,NA,NA,44.59102902374671
11206,Kings County,NY,NA,37.264150943396224,NA
11208,Kings County,NY,NA,NA,21.108179419525065
11211,Kings County,NY,NA,61.08490566037735,NA
11216,Kings County,NY,NA,10.849056603773585,NA
11221,Kings County,NY,8.223684210526317,NA,NA
11226,Kings County,NY,9.868421052631579,NA,NA
11354,Queens County,NY,NA,NA,63.06068601583114
11420,Queens County,NY,NA,43.63207547169811,NA
11554,Nassau County,NY,NA,53.06603773584906,NA
11561,Nassau County,NY,78.94736842105263,NA,NA
11691,Queens County,NY,NA,10.141509433962264,NA
11743,Suffolk County,NY,NA,NA,16.886543535620053
12095,Fulton County,NY,NA,39.386792452830186,NA
12155,Otsego County,NY,98.68421052631578,NA,NA
12901,Clinton County,NY,8.552631578947368,NA,NA
13032,Madison County,NY,44.73684210526316,NA,NA
13203,Onondaga County,NY,30.92105263157895,NA,NA
13205,Onondaga County,NY,NA,51.886792452830186,NA
13206,Onondaga County,NY,37.17105263157895,NA,NA
13617,St. Lawrence County,NY,NA,42.45283018867924,96.56992084432717
13642,St. Lawrence County,NY,NA,83.9622641509434,NA
13662,St. Lawrence County,NY,NA,NA,39.050131926121374
13676,St. Lawrence County,NY,NA,NA,67.28232189973615
13820,Otsego County,NY,18.75,NA,NA
13843,Chenango County,NY,NA,96.93396226415094,NA
13901,Broome County,NY,32.56578947368421,NA,NA
14207,Erie County,NY,16.11842105263158,NA,NA
14823,Steuben County,NY,86.8421052631579,NA,NA
14850,Tompkins County,NY,11.842105263157894,NA,NA
27006,Davie County,NC,NA,31.839622641509436,22.163588390501317
27012,Forsyth County,NC,NA,30.89622641509434,77.30870712401055
27030,Surry County,NC,NA,NA,12.66490765171504
27040,Forsyth County,NC,NA,70.04716981132076,NA
27048,Rockingham County,NC,NA,NA,79.68337730870712
27055,Yadkin County,NC,NA,NA,56.72823218997362
27103,Forsyth County,NC,NA,NA,2.1108179419525066
27104,Forsyth County,NC,NA,40.56603773584906,27.440633245382585
27105,Forsyth County,NC,NA,4.245283018867925,NA
27106,Forsyth County,NC,NA,4.716981132075472,48.54881266490765
27107,Forsyth County,NC,NA,29.952830188679247,2.638522427440633
27127,Forsyth County,NC,NA,5.89622641509434,NA
27235,Guilford County,NC,NA,99.76415094339622,NA
27278,Orange County,NC,NA,NA,20.844327176781004
27284,Forsyth County,NC,NA,NA,4.485488126649076
27288,Rockingham County,NC,NA,28.30188679245283,NA
27295,Davidson County,NC,NA,4.952830188679245,NA
27317,Randolph County,NC,NA,NA,73.08707124010554
27455,Guilford County,NC,NA,58.490566037735846,NA
27565,Granville County,NC,35.19736842105263,NA,NA
27573,Person County,NC,NA,61.79245283018868,NA
27705,Durham County,NC,NA,NA,23.7467018469657
27707,Durham County,NC,NA,11.320754716981133,23.482849604221638
27713,Durham County,NC,36.84210526315789,NA,NA
28144,Rowan County,NC,NA,NA,52.242744063324544
28398,Duplin County,NC,NA,NA,92.34828496042216
28645,Caldwell County,NC,NA,NA,18.997361477572557
28704,Buncombe County,NC,NA,NA,58.04749340369393
28717,Jackson County,NC,NA,NA,99.73614775725594
28723,Jackson County,NC,93.42105263157895,NA,NA
28787,Buncombe County,NC,NA,NA,71.2401055408971
58078,Cass County,ND,38.81578947368421,20.28301886792453,56.464379947229546
58103,Cass County,ND,NA,23.82075471698113,NA
58104,Cass County,ND,NA,16.037735849056602,26.121372031662272
58401,Stutsman County,ND,NA,NA,45.382585751978894
58701,Ward County,ND,NA,NA,2.3746701846965697
58703,Ward County,ND,NA,NA,28.759894459102902
43026,Franklin County,OH,NA,25.235849056603776,NA
43055,Licking County,OH,5.592105263157895,NA,NA
43206,Franklin County,OH,51.31578947368421,NA,NA
43219,Franklin County,OH,NA,42.68867924528302,NA
43221,Franklin County,OH,NA,49.29245283018868,NA
43229,Franklin County,OH,13.815789473684212,NA,NA
43302,Marion County,OH,6.578947368421052,NA,NA
43449,Ottawa County,OH,92.43421052631578,NA,NA
43551,Wood County,OH,NA,NA,14.24802110817942
43612,Lucas County,OH,10.197368421052632,NA,NA
43613,Lucas County,OH,9.210526315789473,NA,NA
43723,Guernsey County,OH,NA,NA,96.04221635883906
44001,Lorain County,OH,42.76315789473684,82.0754716981132,NA
44004,Ashtabula County,OH,NA,4.481132075471698,NA
44011,Lorain County,OH,NA,31.367924528301888,65.17150395778364
44012,Lorain County,OH,NA,NA,78.10026385224275
44021,Geauga County,OH,NA,88.44339622641509,NA
44023,Geauga County,OH,NA,NA,14.775725593667547
44026,Geauga County,OH,95.06578947368422,NA,NA
44030,Ashtabula County,OH,NA,20.047169811320757,NA
44035,Lorain County,OH,7.565789473684211,11.556603773584905,37.203166226912934
44039,Lorain County,OH,15.131578947368421,64.38679245283019,30.87071240105541
44041,Ashtabula County,OH,NA,NA,94.72295514511873
44052,Lorain County,OH,27.302631578947366,3.5377358490566038,87.86279683377309
44053,Lorain County,OH,NA,38.67924528301887,55.93667546174142
44054,Lorain County,OH,NA,NA,49.86807387862797
44055,Lorain County,OH,NA,NA,69.12928759894459
44057,Lake County,OH,NA,23.349056603773587,NA
44060,Lake County,OH,NA,44.81132075471698,0.79155672823219
44070,Cuyahoga County,OH,NA,NA,31.398416886543533
44074,Lorain County,OH,NA,53.5377358490566,83.64116094986808
44077,Lake County,OH,29.605263157894733,NA,NA
44081,Lake County,OH,NA,NA,75.98944591029023
44087,Summit County,OH,51.64473684210527,NA,28.49604221635884
44089,Erie County,OH,NA,NA,86.01583113456465
44090,Lorain County,OH,NA,NA,62.26912928759894
44095,Lake County,OH,NA,14.150943396226415,NA
44102,Cuyahoga County,OH,1.644736842105263,NA,NA
44107,Cuyahoga County,OH,42.76315789473684,25.943396226415093,NA
44108,Cuyahoga County,OH,NA,NA,84.1688654353562
44112,Cuyahoga County,OH,NA,NA,22.427440633245382
44113,Cuyahoga County,OH,NA,92.68867924528303,NA
44116,Cuyahoga County,OH,49.67105263157895,NA,90.50131926121372
44117,Cuyahoga County,OH,NA,52.594339622641506,NA
44118,Cuyahoga County,OH,NA,14.38679245283019,31.926121372031663
44121,Cuyahoga County,OH,NA,17.452830188679243,24.538258575197887
44122,Cuyahoga County,OH,NA,NA,0.5277044854881267
44123,Cuyahoga County,OH,41.44736842105263,NA,NA
44124,Cuyahoga County,OH,NA,NA,7.651715039577836
44131,Cuyahoga County,OH,NA,NA,5.540897097625329
44133,Cuyahoga County,OH,NA,70.75471698113208,NA
44138,Cuyahoga County,OH,45.06578947368421,29.009433962264154,NA
44139,Cuyahoga County,OH,53.289473684210535,NA,NA
44141,Cuyahoga County,OH,87.82894736842105,NA,39.84168865435356
44144,Cuyahoga County,OH,21.052631578947366,NA,NA
44145,Cuyahoga County,OH,NA,NA,4.749340369393139
44202,Portage County,OH,NA,61.556603773584904,NA
44203,Summit County,OH,13.157894736842104,NA,NA
44212,Medina County,OH,NA,12.028301886792454,NA
44233,Medina County,OH,NA,63.67924528301887,NA
44240,Portage County,OH,41.118421052631575,NA,NA
44303,Summit County,OH,NA,90.56603773584906,NA
44306,Summit County,OH,18.421052631578945,NA,NA
44310,Summit County,OH,NA,NA,84.1688654353562
44313,Summit County,OH,70.06578947368422,22.87735849056604,70.97625329815304
44314,Summit County,OH,NA,NA,70.44854881266491
44320,Summit County,OH,NA,NA,25.593667546174142
44333,Summit County,OH,NA,NA,40.633245382585756
44511,Mahoning County,OH,36.18421052631579,NA,NA
44615,Carroll County,OH,80.5921052631579,NA,NA
44691,Wayne County,OH,NA,7.547169811320755,NA
44839,Erie County,OH,NA,47.40566037735849,32.71767810026385
44857,Huron County,OH,NA,43.39622641509434,NA
44890,Huron County,OH,50,NA,NA
45014,Butler County,OH,24.013157894736842,NA,NA
45224,Hamilton County,OH,33.55263157894737,NA,NA
45640,Jackson County,OH,NA,NA,48.284960422163586
45662,Scioto County,OH,7.894736842105263,NA,NA
45690,Pike County,OH,28.289473684210524,NA,NA
45692,Jackson County,OH,NA,41.509433962264154,NA
45693,Adams County,OH,60.85526315789473,NA,NA
74037,Tulsa County,OK,82.89473684210526,NA,NA
97132,Yamhill County,OR,49.01315789473684,NA,NA
97133,Washington County,OR,NA,99.52830188679245,NA
97211,Multnomah County,OR,56.25,NA,NA
97213,Multnomah County,OR,NA,94.81132075471697,NA
97222,Clackamas County,OR,NA,NA,91.82058047493403
97224,Washington County,OR,62.5,NA,NA
97229,Washington County,OR,NA,45.5188679245283,NA
97303,Marion County,OR,51.973684210526315,NA,NA
97322,Linn County,OR,NA,NA,10.29023746701847
15001,Beaver County,PA,NA,22.40566037735849,NA
15301,Washington County,PA,14.144736842105262,NA,NA
16803,Centre County,PA,NA,66.50943396226415,NA
17022,Lancaster County,PA,NA,NA,18.733509234828496
17036,Dauphin County,PA,NA,16.50943396226415,NA
17046,Lebanon County,PA,NA,29.245283018867923,NA
17057,Dauphin County,PA,28.947368421052634,NA,NA
17078,Lebanon County,PA,NA,15.566037735849056,33.24538258575198
17110,Dauphin County,PA,NA,NA,45.64643799472295
17112,Dauphin County,PA,NA,8.018867924528301,NA
17331,York County,PA,43.42105263157895,NA,NA
17517,Lancaster County,PA,NA,NA,69.65699208443272
17601,Lancaster County,PA,46.71052631578947,NA,NA
17872,Northumberland County,PA,NA,75.70754716981132,NA
18222,Luzerne County,PA,NA,NA,71.50395778364116
18235,Carbon County,PA,44.07894736842105,NA,NA
18324,Pike County,PA,79.27631578947368,NA,NA
18436,Wayne County,PA,63.81578947368421,NA,NA
18503,Lackawanna County,PA,95.72368421052632,NA,NA
18707,Luzerne County,PA,65.46052631578947,NA,NA
18708,Luzerne County,PA,NA,NA,60.4221635883905
18940,Bucks County,PA,NA,49.056603773584904,NA
19010,Delaware County,PA,65.13157894736842,86.08490566037736,NA
19026,Delaware County,PA,NA,NA,63.852242744063325
19073,Delaware County,PA,NA,41.9811320754717,NA
19081,Delaware County,PA,NA,89.38679245283019,NA
19087,Chester County,PA,NA,28.77358490566038,NA
19090,Montgomery County,PA,NA,NA,51.97889182058047
19118,Philadelphia County,PA,NA,77.59433962264151,NA
19143,Philadelphia County,PA,NA,1.650943396226415,NA
19146,Philadelphia County,PA,26.644736842105267,NA,NA
19382,Chester County,PA,NA,12.264150943396226,NA
19422,Montgomery County,PA,NA,45.28301886792453,NA
19428,Montgomery County,PA,59.539473684210535,NA,NA
19473,Montgomery County,PA,NA,93.39622641509435,NA
19601,Berks County,PA,29.276315789473685,NA,NA
02864,Providence County,RI,NA,21.69811320754717,NA
02911,Providence County,RI,NA,64.62264150943396,NA
29407,Charleston County,SC,NA,NA,18.20580474934037
29464,Charleston County,SC,NA,27.594339622641513,NA
29488,Colleton County,SC,47.368421052631575,NA,NA
29565,Dillon County,SC,NA,91.0377358490566,NA
29672,Oconee County,SC,NA,72.64150943396226,NA
29841,Aiken County,SC,NA,NA,56.200527704485495
29847,Edgefield County,SC,NA,NA,99.2084432717678
57006,Brookings County,SD,NA,NA,16.094986807387862
57108,Lincoln County,SD,NA,24.528301886792452,7.9155672823219
57110,Minnehaha County,SD,NA,33.25471698113208,NA
57301,Davison County,SD,NA,NA,76.2532981530343
37076,Davidson County,TN,NA,37.735849056603776,NA
37821,Cocke County,TN,NA,35.37735849056604,NA
38358,Gibson County,TN,64.80263157894737,NA,NA
38551,Clay County,TN,NA,81.60377358490565,NA
75020,Grayson County,TX,NA,NA,43.007915567282325
75150,Dallas County,TX,NA,NA,42.21635883905013
75216,Dallas County,TX,NA,13.20754716981132,NA
75228,Dallas County,TX,NA,24.764150943396228,NA
75791,Smith County,TX,NA,78.30188679245283,NA
76011,Tarrant County,TX,NA,66.0377358490566,NA
76502,Bell County,TX,NA,NA,4.221635883905013
76655,McLennan County,TX,NA,NA,97.62532981530343
76712,McLennan County,TX,NA,48.113207547169814,NA
77055,Harris County,TX,NA,NA,79.41952506596306
77086,Harris County,TX,NA,71.22641509433963,NA
77089,Harris County,TX,NA,40.80188679245283,NA
77382,Montgomery County,TX,72.36842105263158,NA,NA
77396,Harris County,TX,NA,NA,79.15567282321899
77459,Fort Bend County,TX,NA,16.9811320754717,NA
77494,Fort Bend County,TX,NA,57.78301886792453,NA
77539,Galveston County,TX,32.23684210526316,NA,97.36147757255937
77546,Galveston County,TX,NA,50,NA
77550,Galveston County,TX,31.907894736842106,19.339622641509436,34.82849604221636
77551,Galveston County,TX,NA,32.78301886792453,29.023746701846964
77563,Galveston County,TX,NA,56.367924528301884,54.61741424802111
77568,Galveston County,TX,NA,33.9622641509434,NA
77630,Orange County,TX,50.98684210526315,NA,NA
77802,Brazos County,TX,NA,NA,64.90765171503958
78043,Webb County,TX,52.63157894736842,NA,NA
78641,Williamson County,TX,NA,NA,33.773087071240106
84015,Davis County,UT,NA,54.24528301886793,93.13984168865436
84057,Utah County,UT,NA,NA,92.61213720316623
84067,Weber County,UT,NA,NA,95.25065963060686
84088,Salt Lake County,UT,NA,59.198113207547166,NA
84095,Salt Lake County,UT,NA,NA,44.06332453825858
84096,Salt Lake County,UT,NA,67.21698113207547,NA
84103,Salt Lake County,UT,NA,74.52830188679245,NA
84116,Salt Lake County,UT,NA,82.78301886792453,NA
84117,Salt Lake County,UT,NA,NA,34.03693931398417
84119,Salt Lake County,UT,NA,NA,37.73087071240106
84128,Salt Lake County,UT,NA,72.40566037735849,NA
05401,Chittenden County,VT,NA,80.4245283018868,NA
05446,Chittenden County,VT,NA,NA,68.07387862796834
05452,Chittenden County,VT,NA,NA,75.72559366754618
05491,Addison County,VT,NA,NA,89.9736147757256
05602,Washington County,VT,NA,43.86792452830189,NA
05701,Rutland County,VT,NA,NA,15.03957783641161
22309,Fairfax County,VA,39.80263157894737,NA,NA
22901,Albemarle County,VA,NA,NA,72.29551451187335
22902,Charlottesville city,VA,NA,NA,41.42480211081794
22903,Charlottesville city,VA,NA,83.49056603773585,NA
22932,Albemarle County,VA,NA,88.91509433962264,NA
22947,Albemarle County,VA,NA,NA,98.68073878627969
22963,Fluvanna County,VA,NA,57.311320754716974,77.04485488126649
23024,Louisa County,VA,NA,NA,99.47229551451187
23455,Virginia Beach city,VA,NA,12.971698113207546,NA
23513,Norfolk city,VA,NA,38.91509433962264,NA
23601,Newport News city,VA,66.11842105263158,NA,NA
24065,Franklin County,VA,NA,96.22641509433963,NA
24078,Henry County,VA,97.69736842105263,NA,NA
24343,Carroll County,VA,NA,NA,89.18205804749341
24348,Grayson County,VA,NA,NA,97.0976253298153
24382,Wythe County,VA,NA,NA,71.50395778364116
24450,Rockbridge County,VA,NA,59.905660377358494,NA
24502,Lynchburg city,VA,NA,52.12264150943396,NA
24572,Amherst County,VA,70.72368421052632,NA,NA
24590,Albemarle County,VA,NA,83.72641509433963,NA
98026,Snohomish County,WA,NA,NA,53.825857519788926
98036,Snohomish County,WA,NA,47.87735849056604,NA
98045,King County,WA,NA,81.36792452830188,NA
98055,King County,WA,NA,95.99056603773585,NA
98059,King County,WA,NA,34.66981132075472,NA
98075,King County,WA,NA,NA,90.76517150395779
98101,King County,WA,NA,NA,37.46701846965699
98106,King County,WA,NA,71.93396226415094,NA
98107,King County,WA,NA,NA,88.65435356200527
98110,Kitsap County,WA,NA,45.04716981132076,NA
98115,King County,WA,NA,NA,31.6622691292876
98117,King County,WA,NA,60.37735849056604,NA
98118,King County,WA,NA,42.21698113207547,NA
98119,King County,WA,NA,NA,70.18469656992085
98133,King County,WA,NA,NA,12.137203166226913
98284,Skagit County,WA,61.8421052631579,30.660377358490564,NA
98365,Jefferson County,WA,NA,85.61320754716981,NA
98374,Pierce County,WA,79.60526315789474,NA,NA
98801,Chelan County,WA,NA,42.924528301886795,68.86543535620054
98802,Douglas County,WA,NA,NA,60.15831134564644
20010,District of Columbia,DC,NA,89.15094339622641,NA
20012,District of Columbia,DC,NA,NA,75.46174142480211
20032,District of Columbia,DC,12.171052631578947,NA,NA
26170,Pleasants County,WV,96.71052631578947,NA,NA
26206,Webster County,WV,97.36842105263158,NA,NA
26416,Barbour County,WV,81.25,NA,NA
26431,Harrison County,WV,NA,73.82075471698113,NA
26505,Monongalia County,WV,NA,NA,20.316622691292878
26508,Monongalia County,WV,NA,NA,19.788918205804748
26582,Marion County,WV,91.77631578947368,NA,NA
53094,Jefferson County,WI,NA,34.90566037735849,92.0844327176781
53098,Dodge County,WI,NA,83.01886792452831,80.73878627968337
53118,Waukesha County,WI,NA,90.33018867924528,78.3641160949868
53122,Waukesha County,WI,NA,NA,73.61477572559367
53147,Walworth County,WI,56.57894736842105,NA,NA
53202,Milwaukee County,WI,59.86842105263158,NA,NA
53206,Milwaukee County,WI,NA,NA,46.701846965699204
53209,Milwaukee County,WI,7.236842105263158,NA,NA
53211,Milwaukee County,WI,NA,NA,11.345646437994723
53216,Milwaukee County,WI,NA,NA,43.007915567282325
53219,Milwaukee County,WI,NA,NA,13.984168865435356
53222,Milwaukee County,WI,NA,NA,60.68601583113457
53223,Milwaukee County,WI,26.973684210526315,NA,NA
53224,Milwaukee County,WI,NA,58.01886792452831,NA
53228,Milwaukee County,WI,76.97368421052632,NA,NA
53511,Rock County,WI,NA,NA,23.218997361477573
53520,Green County,WI,NA,NA,68.33773087071239
53527,Dane County,WI,NA,91.74528301886792,NA
53545,Rock County,WI,NA,NA,55.67282321899736
53546,Rock County,WI,NA,NA,61.21372031662269
53548,Rock County,WI,NA,NA,30.07915567282322
53551,Jefferson County,WI,NA,NA,77.83641160949868
53555,Columbia County,WI,97.03947368421053,NA,NA
53558,Dane County,WI,90.46052631578947,NA,NA
53566,Green County,WI,NA,NA,12.928759894459102
53594,Jefferson County,WI,92.10526315789474,NA,NA
53703,Dane County,WI,84.53947368421053,NA,NA
53704,Dane County,WI,NA,22.169811320754718,NA
53705,Dane County,WI,85.85526315789474,NA,NA
53716,Dane County,WI,NA,62.5,NA
53718,Dane County,WI,NA,73.34905660377359,NA
54455,Marathon County,WI,NA,NA,73.87862796833772
54467,Portage County,WI,NA,75.47169811320755,NA
54481,Portage County,WI,NA,22.40566037735849,8.70712401055409
54601,La Crosse County,WI,NA,17.92452830188679,0.2638522427440633
54603,La Crosse County,WI,NA,NA,17.678100263852244
54656,Monroe County,WI,NA,NA,24.274406332453825
54667,Vernon County,WI,NA,95.28301886792453,NA
54880,Douglas County,WI,NA,51.17924528301887,17.150395778364118
82901,Sweetwater County,WY,64.14473684210526,NA,NA
