ZipCode,county,state,Youth,Adult,Retirement,Geriatric
35005,Jefferson County,AL,NA,NA,86.41975308641975,NA
35016,Marshall County,AL,NA,NA,38.425925925925924,NA
35022,Jefferson County,AL,NA,NA,NA,17.05128205128205
35045,Chilton County,AL,NA,NA,NA,79.48717948717949
35051,Shelby County,AL,NA,NA,83.64197530864197,NA
35068,Jefferson County,AL,NA,89.58333333333334,NA,NA
35173,Jefferson County,AL,NA,NA,NA,45.76923076923077
35180,Jefferson County,AL,NA,65.47619047619048,NA,NA
35211,Jefferson County,AL,NA,NA,22.839506172839506,NA
35401,Tuscaloosa County,AL,NA,23.214285714285715,18.209876543209877,NA
35563,Marion County,AL,NA,NA,85.3395061728395,NA
35565,Winston County,AL,NA,NA,NA,60
35630,Lauderdale County,AL,NA,NA,NA,44.230769230769226
35661,Colbert County,AL,NA,NA,NA,58.58974358974359
35674,Colbert County,AL,NA,NA,NA,66.41025641025641
35749,Madison County,AL,NA,NA,NA,70.76923076923077
35754,Morgan County,AL,NA,86.90476190476191,NA,NA
35951,Marshall County,AL,NA,NA,NA,97.17948717948718
35954,Etowah County,AL,NA,56.25,NA,NA
35967,DeKalb County,AL,NA,NA,67.90123456790124,NA
36066,Autauga County,AL,NA,50.595238095238095,NA,NA
36091,Chilton County,AL,NA,NA,95.83333333333334,NA
36272,Calhoun County,AL,NA,46.13095238095239,NA,NA
36360,Dale County,AL,NA,NA,35.95679012345679,54.35897435897436
36507,Baldwin County,AL,NA,NA,87.96296296296296,NA
36532,Baldwin County,AL,NA,NA,23.765432098765434,NA
36575,Mobile County,AL,NA,NA,91.9753086419753,NA
36608,Mobile County,AL,NA,NA,NA,58.20512820512821
36609,Mobile County,AL,NA,NA,62.03703703703704,NA
36618,Mobile County,AL,NA,67.85714285714286,NA,NA
36863,Chambers County,AL,NA,NA,NA,79.23076923076923
99507,Anchorage Municipality,AK,NA,NA,NA,62.82051282051282
99603,Kenai Peninsula Borough,AK,NA,NA,NA,71.15384615384616
85009,Maricopa County,AZ,NA,NA,25.617283950617285,87.3076923076923
85014,Maricopa County,AZ,NA,NA,56.17283950617284,NA
85020,Maricopa County,AZ,NA,NA,NA,43.205128205128204
85023,Maricopa County,AZ,NA,23.809523809523807,NA,NA
85027,Maricopa County,AZ,NA,NA,NA,68.2051282051282
85029,Maricopa County,AZ,NA,NA,40.4320987654321,95.38461538461539
85033,Maricopa County,AZ,NA,NA,39.04320987654321,NA
85044,Maricopa County,AZ,NA,NA,77.77777777777779,NA
85086,Maricopa County,AZ,NA,NA,72.37654320987654,NA
85142,Maricopa County,AZ,NA,NA,25.925925925925924,NA
85202,Maricopa County,AZ,NA,NA,NA,81.28205128205128
85204,Maricopa County,AZ,NA,NA,NA,41.410256410256416
85205,Maricopa County,AZ,67.45562130177515,NA,NA,NA
85254,Maricopa County,AZ,33.72781065088758,NA,NA,NA
85256,Maricopa County,AZ,NA,84.82142857142857,NA,NA
85260,Maricopa County,AZ,NA,NA,NA,18.58974358974359
85262,Maricopa County,AZ,NA,NA,NA,84.87179487179488
85263,Maricopa County,AZ,NA,NA,97.22222222222221,NA
85266,Maricopa County,AZ,NA,NA,92.5925925925926,NA
85297,Maricopa County,AZ,NA,NA,NA,83.84615384615385
85298,Maricopa County,AZ,NA,NA,58.95061728395061,NA
85303,Maricopa County,AZ,NA,NA,NA,91.66666666666666
85324,Yavapai County,AZ,NA,NA,91.51234567901234,NA
85331,Maricopa County,AZ,78.10650887573965,NA,NA,NA
85345,Maricopa County,AZ,NA,NA,10.493827160493826,69.74358974358974
85364,Yuma County,AZ,NA,NA,NA,20.64102564102564
85375,Maricopa County,AZ,NA,NA,20.679012345679013,NA
85379,Maricopa County,AZ,NA,NA,57.25308641975309,NA
85382,Maricopa County,AZ,NA,46.726190476190474,NA,11.666666666666666
85395,Maricopa County,AZ,76.33136094674556,69.94047619047619,42.901234567901234,NA
85552,Graham County,AZ,NA,NA,NA,95.12820512820512
85602,Cochise County,AZ,NA,79.16666666666666,NA,NA
85719,Pima County,AZ,NA,NA,70.37037037037037,NA
85749,Pima County,AZ,NA,72.32142857142857,NA,NA
85756,Pima County,AZ,NA,NA,NA,76.28205128205127
85929,Navajo County,AZ,NA,NA,86.41975308641975,NA
86005,Coconino County,AZ,40.23668639053255,NA,NA,NA
86047,Navajo County,AZ,NA,NA,32.098765432098766,NA
86326,Yavapai County,AZ,NA,NA,NA,54.61538461538461
86442,Mohave County,AZ,NA,NA,NA,16.666666666666664
86503,Apache County,AZ,27.810650887573964,NA,NA,NA
71603,Jefferson County,AR,NA,63.39285714285714,NA,NA
71730,Union County,AR,NA,45.23809523809524,NA,NA
71822,Little River County,AR,NA,NA,71.75925925925925,NA
71832,Sevier County,AR,NA,NA,NA,93.33333333333333
72223,Pulaski County,AR,NA,NA,NA,44.61538461538462
72335,St. Francis County,AR,NA,NA,75.15432098765432,NA
72432,Poinsett County,AR,NA,NA,NA,80.76923076923077
72450,Greene County,AR,NA,NA,NA,24.358974358974358
72454,Clay County,AR,NA,NA,NA,94.35897435897435
72501,Independence County,AR,NA,29.464285714285715,NA,NA
72712,Benton County,AR,NA,NA,NA,38.58974358974359
72744,Washington County,AR,NA,NA,97.99382716049382,NA
72756,Benton County,AR,NA,NA,96.29629629629629,NA
72801,Pope County,AR,NA,77.38095238095238,87.03703703703704,NA
72823,Pope County,AR,NA,NA,89.35185185185185,NA
72927,Logan County,AR,NA,NA,80.55555555555556,NA
90004,Los Angeles County,CA,NA,NA,NA,44.35897435897436
90008,Los Angeles County,CA,81.06508875739645,NA,NA,NA
90013,Los Angeles County,CA,NA,53.86904761904761,NA,NA
90018,Los Angeles County,CA,NA,NA,NA,32.30769230769231
90024,Los Angeles County,CA,NA,NA,54.629629629629626,NA
90028,Los Angeles County,CA,NA,NA,68.20987654320987,NA
90032,Los Angeles County,CA,NA,NA,56.6358024691358,79.48717948717949
90043,Los Angeles County,CA,NA,NA,20.061728395061728,NA
90046,Los Angeles County,CA,NA,49.107142857142854,22.067901234567902,NA
90057,Los Angeles County,CA,NA,36.904761904761905,NA,NA
90068,Los Angeles County,CA,NA,82.14285714285714,NA,NA
90221,Los Angeles County,CA,NA,34.82142857142857,NA,NA
90242,Los Angeles County,CA,NA,NA,55.401234567901234,NA
90250,Los Angeles County,CA,NA,NA,NA,28.46153846153846
90272,Los Angeles County,CA,82.84023668639054,NA,NA,NA
90275,Los Angeles County,CA,NA,NA,NA,6.794871794871795
90291,Los Angeles County,CA,NA,NA,NA,69.48717948717949
90501,Los Angeles County,CA,NA,NA,56.018518518518526,NA
90503,Los Angeles County,CA,57.396449704142015,NA,41.358024691358025,NA
90720,Orange County,CA,NA,69.04761904761905,NA,NA
90723,Los Angeles County,CA,NA,NA,NA,88.97435897435896
90745,Los Angeles County,CA,NA,NA,NA,16.41025641025641
91006,Los Angeles County,CA,NA,NA,NA,63.717948717948715
91104,Los Angeles County,CA,NA,NA,NA,37.17948717948718
91302,Los Angeles County,CA,NA,NA,75.30864197530865,NA
91306,Los Angeles County,CA,NA,39.58333333333333,NA,NA
91324,Los Angeles County,CA,NA,NA,NA,80.8974358974359
91342,Los Angeles County,CA,NA,NA,46.75925925925926,NA
91351,Los Angeles County,CA,NA,NA,NA,85.12820512820512
91402,Los Angeles County,CA,NA,NA,33.48765432098765,NA
91405,Los Angeles County,CA,NA,NA,41.51234567901235,NA
91505,Los Angeles County,CA,NA,NA,92.74691358024691,NA
91607,Los Angeles County,CA,NA,NA,NA,30.384615384615383
91739,San Bernardino County,CA,NA,NA,NA,78.2051282051282
91754,Los Angeles County,CA,NA,NA,NA,18.974358974358974
91764,San Bernardino County,CA,NA,34.523809523809526,NA,67.94871794871796
91768,Los Angeles County,CA,NA,43.75,NA,NA
91786,San Bernardino County,CA,NA,NA,66.35802469135803,36.92307692307693
91901,San Diego County,CA,NA,NA,76.38888888888889,NA
91910,San Diego County,CA,NA,77.97619047619048,NA,NA
92003,San Diego County,CA,NA,NA,NA,98.58974358974359
92020,San Diego County,CA,NA,NA,6.172839506172839,NA
92024,San Diego County,CA,NA,NA,NA,25.8974358974359
92025,San Diego County,CA,NA,NA,51.080246913580254,NA
92026,San Diego County,CA,NA,52.976190476190474,NA,NA
92029,San Diego County,CA,NA,NA,NA,65.64102564102564
92056,San Diego County,CA,NA,NA,NA,9.102564102564102
92101,San Diego County,CA,NA,NA,8.641975308641975,NA
92103,San Diego County,CA,NA,NA,NA,89.1025641025641
92114,San Diego County,CA,NA,NA,27.160493827160494,NA
92117,San Diego County,CA,45.562130177514796,NA,NA,NA
92123,San Diego County,CA,NA,NA,NA,60.38461538461538
92128,San Diego County,CA,NA,NA,NA,8.076923076923077
92129,San Diego County,CA,NA,NA,NA,46.666666666666664
92130,San Diego County,CA,76.92307692307693,NA,NA,NA
92154,San Diego County,CA,NA,NA,72.8395061728395,NA
92203,Riverside County,CA,NA,NA,17.12962962962963,NA
92236,Riverside County,CA,NA,NA,NA,93.46153846153847
92243,Imperial County,CA,NA,22.61904761904762,NA,NA
92307,San Bernardino County,CA,NA,24.702380952380953,NA,NA
92336,San Bernardino County,CA,NA,9.523809523809524,NA,NA
92392,San Bernardino County,CA,NA,16.071428571428573,NA,NA
92395,San Bernardino County,CA,NA,NA,NA,34.61538461538461
92503,Riverside County,CA,NA,17.261904761904763,NA,NA
92504,Riverside County,CA,NA,NA,52.31481481481482,NA
92505,Riverside County,CA,NA,NA,49.074074074074076,NA
92509,Riverside County,CA,NA,20.833333333333336,NA,NA
92563,Riverside County,CA,NA,NA,NA,38.84615384615385
92592,Riverside County,CA,NA,NA,NA,55.64102564102564
92606,Orange County,CA,91.71597633136095,NA,NA,NA
92624,Orange County,CA,NA,NA,96.75925925925925,NA
92647,Orange County,CA,NA,NA,18.98148148148148,NA
92651,Orange County,CA,NA,NA,44.29012345679013,NA
92655,Orange County,CA,NA,NA,99.22839506172839,NA
92663,Orange County,CA,NA,73.80952380952381,NA,NA
92673,Orange County,CA,NA,NA,62.34567901234568,NA
92683,Orange County,CA,NA,NA,54.01234567901234,NA
92692,Orange County,CA,NA,NA,NA,62.30769230769231
92801,Orange County,CA,NA,NA,66.20370370370371,NA
92804,Orange County,CA,NA,NA,NA,18.846153846153847
92806,Orange County,CA,NA,NA,84.5679012345679,NA
92821,Orange County,CA,53.84615384615385,NA,NA,NA
92835,Orange County,CA,NA,NA,NA,16.923076923076923
92860,Riverside County,CA,NA,NA,NA,94.74358974358974
92879,Riverside County,CA,NA,NA,NA,87.17948717948718
92882,Riverside County,CA,NA,NA,NA,61.53846153846154
93003,Ventura County,CA,NA,NA,NA,47.05128205128205
93010,Ventura County,CA,NA,NA,NA,7.564102564102564
93033,Ventura County,CA,NA,NA,80.0925925925926,NA
93063,Ventura County,CA,NA,NA,NA,40.12820512820513
93065,Ventura County,CA,NA,NA,NA,13.974358974358974
93219,Tulare County,CA,86.3905325443787,NA,NA,NA
93221,Tulare County,CA,NA,NA,76.85185185185185,NA
93230,Kings County,CA,NA,NA,14.351851851851851,NA
93245,Kings County,CA,NA,NA,NA,78.46153846153847
93247,Tulare County,CA,NA,NA,NA,82.3076923076923
93292,Tulare County,CA,NA,NA,31.944444444444443,NA
93304,Kern County,CA,NA,22.321428571428573,NA,NA
93309,Kern County,CA,NA,27.976190476190478,29.475308641975307,NA
93313,Kern County,CA,71.00591715976331,NA,NA,NA
93534,Los Angeles County,CA,NA,NA,37.03703703703704,NA
93536,Los Angeles County,CA,NA,NA,NA,49.743589743589745
93550,Los Angeles County,CA,NA,NA,NA,52.94871794871795
93561,Kern County,CA,69.23076923076923,NA,NA,NA
93614,Madera County,CA,NA,NA,NA,82.05128205128204
93635,Merced County,CA,NA,NA,43.364197530864196,NA
93637,Madera County,CA,NA,NA,56.79012345679012,NA
93638,Madera County,CA,NA,NA,NA,51.28205128205128
93706,Fresno County,CA,NA,NA,71.91358024691358,NA
93722,Fresno County,CA,NA,9.226190476190476,NA,NA
93726,Fresno County,CA,NA,NA,NA,54.74358974358975
93905,Monterey County,CA,58.57988165680473,NA,NA,NA
94015,San Mateo County,CA,NA,NA,9.104938271604938,NA
94028,San Mateo County,CA,NA,NA,99.69135802469135,NA
94040,Santa Clara County,CA,NA,NA,NA,67.82051282051282
94066,San Mateo County,CA,NA,NA,9.876543209876543,NA
94086,Santa Clara County,CA,NA,NA,74.84567901234568,54.1025641025641
94107,San Francisco County,CA,NA,NA,NA,47.94871794871795
94110,San Francisco County,CA,40.828402366863905,11.011904761904761,NA,NA
94122,San Francisco County,CA,72.7810650887574,NA,NA,NA
94502,Alameda County,CA,NA,NA,NA,74.1025641025641
94526,Contra Costa County,CA,NA,NA,48.45679012345679,NA
94552,Alameda County,CA,NA,NA,NA,99.74358974358975
94561,Contra Costa County,CA,NA,NA,46.60493827160494,NA
94565,Contra Costa County,CA,NA,NA,35.648148148148145,NA
94574,Napa County,CA,NA,NA,83.33333333333334,NA
94583,Contra Costa County,CA,NA,NA,NA,64.35897435897436
94610,Alameda County,CA,NA,NA,66.66666666666666,NA
94611,Alameda County,CA,NA,NA,21.450617283950617,26.666666666666668
94801,Contra Costa County,CA,NA,85.41666666666666,NA,NA
94920,Marin County,CA,NA,88.09523809523809,NA,NA
94928,Sonoma County,CA,NA,NA,NA,40.8974358974359
94945,Marin County,CA,NA,NA,NA,61.410256410256416
95014,Santa Clara County,CA,NA,NA,60.03086419753087,NA
95018,Santa Cruz County,CA,NA,96.72619047619048,NA,NA
95050,Santa Clara County,CA,NA,NA,NA,50.76923076923077
95118,Santa Clara County,CA,NA,NA,54.93827160493827,NA
95123,Santa Clara County,CA,NA,NA,NA,26.53846153846154
95124,Santa Clara County,CA,NA,NA,NA,37.30769230769231
95128,Santa Clara County,CA,NA,77.08333333333334,NA,NA
95228,Calaveras County,CA,NA,NA,NA,93.58974358974359
95350,Stanislaus County,CA,21.893491124260358,NA,NA,NA
95355,Stanislaus County,CA,NA,NA,NA,61.282051282051285
95360,Stanislaus County,CA,NA,77.67857142857143,81.6358024691358,NA
95376,San Joaquin County,CA,NA,NA,NA,42.69230769230769
95382,Stanislaus County,CA,NA,NA,28.549382716049383,NA
95388,Merced County,CA,NA,NA,93.05555555555556,NA
95404,Sonoma County,CA,NA,NA,28.08641975308642,NA
95422,Lake County,CA,NA,NA,50.46296296296296,NA
95501,Humboldt County,CA,NA,74.40476190476191,NA,NA
95540,Humboldt County,CA,NA,55.952380952380956,NA,NA
95608,Sacramento County,CA,NA,NA,NA,6.153846153846154
95621,Sacramento County,CA,NA,42.26190476190476,NA,NA
95624,Sacramento County,CA,NA,NA,NA,35.8974358974359
95631,Placer County,CA,NA,NA,NA,99.23076923076923
95660,Sacramento County,CA,NA,NA,56.79012345679012,NA
95662,Sacramento County,CA,NA,NA,NA,34.48717948717949
95688,Solano County,CA,86.98224852071006,NA,NA,NA
95726,El Dorado County,CA,NA,NA,NA,83.97435897435898
95815,Sacramento County,CA,NA,62.202380952380956,NA,NA
95821,Sacramento County,CA,NA,NA,NA,73.33333333333333
95828,Sacramento County,CA,NA,NA,NA,84.61538461538461
95833,Sacramento County,CA,NA,39.285714285714285,NA,NA
95945,Nevada County,CA,NA,NA,NA,21.153846153846153
95963,Glenn County,CA,NA,NA,94.59876543209876,NA
96021,Tehama County,CA,NA,70.83333333333334,NA,NA
96022,Tehama County,CA,NA,NA,NA,76.41025641025641
96097,Siskiyou County,CA,NA,NA,NA,72.05128205128204
80015,Arapahoe County,CO,NA,NA,19.290123456790123,NA
80017,Arapahoe County,CO,NA,NA,46.913580246913575,NA
80033,Jefferson County,CO,NA,NA,NA,66.92307692307692
80111,Arapahoe County,CO,NA,NA,NA,68.58974358974359
80112,Arapahoe County,CO,NA,NA,54.4753086419753,NA
80120,Arapahoe County,CO,NA,NA,NA,79.74358974358975
80126,Douglas County,CO,NA,49.404761904761905,NA,NA
80128,Jefferson County,CO,NA,NA,NA,71.41025641025641
80203,Denver County,CO,65.68047337278107,NA,NA,NA
80228,Jefferson County,CO,NA,NA,NA,74.48717948717949
80229,Adams County,CO,6.508875739644971,13.095238095238097,NA,NA
80260,Adams County,CO,NA,NA,NA,65
80530,Weld County,CO,98.81656804733728,NA,NA,NA
80601,Adams County,CO,20.118343195266274,NA,NA,NA
80602,Adams County,CO,NA,NA,82.25308641975309,NA
80634,Weld County,CO,NA,NA,0.7716049382716049,NA
80906,El Paso County,CO,NA,NA,39.50617283950617,NA
80907,El Paso County,CO,NA,NA,NA,48.333333333333336
80915,El Paso County,CO,NA,61.904761904761905,NA,NA
80925,El Paso County,CO,NA,97.32142857142857,NA,NA
81005,Pueblo County,CO,NA,NA,NA,31.794871794871792
81006,Pueblo County,CO,NA,NA,70.98765432098766,NA
81050,Otero County,CO,NA,69.34523809523809,NA,NA
81211,Chaffee County,CO,NA,NA,88.11728395061729,NA
81505,Mesa County,CO,NA,NA,79.32098765432099,NA
81621,Eagle County,CO,NA,NA,NA,94.1025641025641
81637,Eagle County,CO,95.85798816568047,NA,NA,NA
06029,Tolland County,CT,NA,NA,NA,52.43589743589744
06032,Hartford County,CT,NA,NA,70.83333333333334,NA
06033,Hartford County,CT,NA,NA,NA,47.179487179487175
06051,Hartford County,CT,NA,NA,17.28395061728395,NA
06074,Hartford County,CT,NA,NA,NA,22.30769230769231
06095,Hartford County,CT,NA,NA,NA,42.94871794871795
06110,Hartford County,CT,NA,NA,88.88888888888889,NA
06239,Windham County,CT,NA,33.63095238095239,NA,NA
06443,New Haven County,CT,NA,NA,30.864197530864196,NA
06450,New Haven County,CT,NA,NA,NA,79.1025641025641
06471,New Haven County,CT,NA,NA,79.4753086419753,NA
06475,Middlesex County,CT,NA,NA,NA,45.38461538461539
06480,Middlesex County,CT,NA,66.66666666666666,NA,NA
06519,New Haven County,CT,NA,21.428571428571427,NA,NA
06604,Fairfield County,CT,NA,17.559523809523807,NA,NA
06607,Fairfield County,CT,NA,NA,NA,99.87179487179488
06716,New Haven County,CT,NA,NA,NA,49.743589743589745
06880,Fairfield County,CT,NA,NA,59.413580246913575,NA
06902,Fairfield County,CT,NA,19.047619047619047,NA,NA
19711,New Castle County,DE,NA,27.380952380952383,NA,NA
19720,New Castle County,DE,NA,NA,2.7777777777777777,NA
19804,New Castle County,DE,NA,NA,NA,58.07692307692308
19808,New Castle County,DE,NA,NA,82.87037037037037,NA
19904,Kent County,DE,NA,11.30952380952381,NA,20.51282051282051
19933,Sussex County,DE,NA,NA,65.89506172839506,NA
19943,Kent County,DE,NA,NA,67.74691358024691,NA
19958,Sussex County,DE,NA,NA,3.3950617283950617,NA
19966,Sussex County,DE,NA,NA,NA,10.384615384615385
19968,Sussex County,DE,NA,NA,43.51851851851852,NA
32034,Nassau County,FL,NA,NA,NA,12.179487179487179
32084,St. Johns County,FL,NA,NA,27.314814814814813,NA
32086,St. Johns County,FL,NA,NA,NA,9.871794871794872
32114,Volusia County,FL,NA,NA,NA,53.07692307692308
32162,Sumter County,FL,NA,NA,1.3888888888888888,NA
32163,Sumter County,FL,NA,NA,32.56172839506173,NA
32164,Flagler County,FL,NA,30.952380952380953,NA,NA
32168,Volusia County,FL,NA,NA,NA,24.23076923076923
32179,Marion County,FL,NA,70.53571428571429,NA,NA
32189,Putnam County,FL,NA,NA,NA,71.66666666666667
32204,Duval County,FL,NA,NA,NA,78.33333333333333
32254,Duval County,FL,NA,NA,68.05555555555556,NA
32257,Duval County,FL,NA,NA,NA,43.205128205128204
32405,Bay County,FL,NA,NA,29.01234567901235,NA
32407,Bay County,FL,NA,79.76190476190477,NA,NA
32444,Bay County,FL,NA,NA,58.79629629629629,NA
32466,Bay County,FL,97.0414201183432,NA,NA,NA
32526,Escambia County,FL,NA,12.5,NA,NA
32533,Escambia County,FL,NA,26.488095238095237,NA,NA
32566,Santa Rosa County,FL,NA,63.988095238095234,NA,NA
32607,Alachua County,FL,NA,NA,42.592592592592595,NA
32707,Seminole County,FL,NA,NA,NA,38.46153846153847
32708,Seminole County,FL,NA,NA,36.7283950617284,NA
32714,Seminole County,FL,NA,NA,NA,39.871794871794876
32720,Volusia County,FL,NA,NA,37.34567901234568,NA
32776,Lake County,FL,NA,NA,79.78395061728395,NA
32778,Lake County,FL,NA,NA,NA,25.128205128205128
32780,Brevard County,FL,NA,NA,NA,23.974358974358974
32792,Orange County,FL,NA,NA,47.22222222222222,NA
32822,Orange County,FL,NA,NA,24.845679012345677,NA
32824,Orange County,FL,NA,43.154761904761905,NA,NA
32908,Brevard County,FL,86.98224852071006,NA,NA,NA
32909,Brevard County,FL,NA,NA,30.555555555555557,38.205128205128204
32934,Brevard County,FL,NA,NA,55.70987654320988,NA
32937,Brevard County,FL,NA,NA,NA,63.97435897435897
32940,Brevard County,FL,NA,63.69047619047619,NA,NA
32976,Brevard County,FL,NA,NA,NA,15.256410256410257
33026,Broward County,FL,NA,NA,NA,45.12820512820513
33030,Miami-Dade County,FL,NA,NA,NA,88.07692307692308
33040,Monroe County,FL,NA,NA,NA,61.02564102564103
33063,Broward County,FL,NA,41.07142857142857,NA,8.974358974358974
33064,Broward County,FL,NA,NA,93.51851851851852,NA
33125,Miami-Dade County,FL,NA,NA,NA,39.1025641025641
33130,Miami-Dade County,FL,NA,NA,60.95679012345679,NA
33140,Miami-Dade County,FL,NA,NA,NA,17.692307692307693
33147,Miami-Dade County,FL,NA,NA,NA,35.51282051282051
33156,Miami-Dade County,FL,NA,NA,NA,44.61538461538462
33157,Miami-Dade County,FL,NA,NA,19.444444444444446,NA
33165,Miami-Dade County,FL,NA,NA,NA,2.6923076923076925
33170,Miami-Dade County,FL,NA,NA,91.20370370370371,NA
33174,Miami-Dade County,FL,NA,NA,NA,12.051282051282051
33182,Miami-Dade County,FL,NA,NA,NA,81.02564102564102
33305,Broward County,FL,NA,NA,75.77160493827161,NA
33308,Broward County,FL,NA,NA,14.19753086419753,2.8205128205128207
33317,Broward County,FL,NA,NA,76.08024691358025,41.92307692307693
33322,Broward County,FL,NA,66.07142857142857,NA,NA
33325,Broward County,FL,NA,NA,88.58024691358025,NA
33327,Broward County,FL,NA,NA,91.20370370370371,NA
33414,Palm Beach County,FL,NA,NA,40.27777777777778,NA
33417,Palm Beach County,FL,NA,NA,NA,17.82051282051282
33436,Palm Beach County,FL,NA,NA,NA,46.02564102564102
33437,Palm Beach County,FL,NA,NA,NA,3.717948717948718
33440,Hendry County,FL,NA,NA,96.91358024691358,NA
33467,Palm Beach County,FL,NA,55.05952380952381,24.228395061728396,47.69230769230769
33469,Palm Beach County,FL,NA,NA,55.24691358024691,NA
33470,Palm Beach County,FL,NA,NA,NA,85
33483,Palm Beach County,FL,NA,81.84523809523809,NA,NA
33484,Palm Beach County,FL,NA,NA,29.78395061728395,NA
33486,Palm Beach County,FL,NA,NA,NA,57.43589743589743
33496,Palm Beach County,FL,NA,NA,NA,5
33523,Pasco County,FL,NA,NA,55.8641975308642,NA
33527,Hillsborough County,FL,48.5207100591716,NA,NA,NA
33573,Hillsborough County,FL,NA,NA,NA,1.7948717948717947
33579,Hillsborough County,FL,NA,NA,77.1604938271605,NA
33598,Hillsborough County,FL,NA,NA,NA,80
33604,Hillsborough County,FL,NA,22.023809523809522,NA,NA
33611,Hillsborough County,FL,NA,67.26190476190477,NA,NA
33614,Hillsborough County,FL,NA,32.44047619047619,NA,32.43589743589744
33703,Pinellas County,FL,NA,NA,NA,53.84615384615385
33707,Pinellas County,FL,NA,NA,NA,19.615384615384617
33759,Pinellas County,FL,NA,NA,73.4567901234568,NA
33781,Pinellas County,FL,NA,NA,34.876543209876544,NA
33782,Pinellas County,FL,NA,NA,NA,48.46153846153846
33844,Polk County,FL,NA,NA,34.413580246913575,NA
33875,Highlands County,FL,NA,NA,NA,41.410256410256416
33880,Polk County,FL,NA,NA,NA,23.46153846153846
33914,Lee County,FL,NA,NA,13.734567901234568,NA
33917,Lee County,FL,NA,NA,17.438271604938272,NA
33919,Lee County,FL,NA,NA,13.117283950617283,NA
33935,Hendry County,FL,NA,NA,NA,80.38461538461539
33950,Charlotte County,FL,NA,NA,NA,86.92307692307692
33981,Charlotte County,FL,NA,NA,69.59876543209876,NA
34113,Collier County,FL,NA,75.29761904761905,NA,NA
34114,Collier County,FL,NA,75.89285714285714,35.18518518518518,NA
34119,Collier County,FL,NA,NA,NA,15.256410256410257
34134,Lee County,FL,NA,NA,59.25925925925925,NA
34145,Collier County,FL,NA,NA,41.82098765432099,NA
34203,Manatee County,FL,NA,NA,19.1358024691358,NA
34205,Manatee County,FL,NA,NA,NA,36.92307692307693
34207,Manatee County,FL,NA,NA,NA,49.61538461538461
34221,Manatee County,FL,NA,36.607142857142854,26.851851851851855,NA
34231,Sarasota County,FL,NA,NA,NA,3.5897435897435894
34233,Sarasota County,FL,NA,73.21428571428571,46.2962962962963,NA
34236,Sarasota County,FL,NA,NA,64.6604938271605,NA
34243,Manatee County,FL,NA,NA,NA,5.641025641025641
34269,DeSoto County,FL,NA,NA,NA,96.28205128205128
34285,Sarasota County,FL,NA,NA,52.160493827160494,NA
34428,Citrus County,FL,NA,80.35714285714286,NA,NA
34433,Citrus County,FL,NA,NA,87.5,NA
34446,Citrus County,FL,NA,NA,NA,29.871794871794872
34471,Marion County,FL,NA,NA,NA,45
34472,Marion County,FL,NA,NA,NA,76.7948717948718
34474,Marion County,FL,69.23076923076923,59.523809523809526,NA,NA
34638,Pasco County,FL,NA,NA,NA,93.84615384615384
34667,Pasco County,FL,NA,NA,NA,16.794871794871792
34684,Pinellas County,FL,NA,NA,NA,42.05128205128205
34685,Pinellas County,FL,NA,NA,73.61111111111111,NA
34698,Pinellas County,FL,NA,NA,20.37037037037037,NA
34746,Osceola County,FL,NA,NA,NA,66.15384615384615
34788,Lake County,FL,NA,NA,NA,26.410256410256412
34951,St. Lucie County,FL,NA,NA,68.51851851851852,NA
34952,St. Lucie County,FL,NA,NA,NA,31.92307692307692
34990,Martin County,FL,NA,58.63095238095239,NA,NA
34994,Martin County,FL,NA,72.02380952380952,NA,NA
34996,Martin County,FL,NA,84.52380952380952,NA,NA
30004,Fulton County,GA,33.13609467455622,41.36904761904761,NA,NA
30012,Rockdale County,GA,NA,51.488095238095234,NA,NA
30022,Fulton County,GA,46.15384615384615,NA,NA,NA
30040,Forsyth County,GA,NA,NA,NA,43.58974358974359
30046,Gwinnett County,GA,NA,NA,51.388888888888886,NA
30066,Cobb County,GA,NA,NA,NA,28.717948717948715
30080,Cobb County,GA,NA,NA,58.0246913580247,NA
30097,Fulton County,GA,NA,NA,53.24074074074075,NA
30114,Cherokee County,GA,NA,NA,27.77777777777778,NA
30115,Cherokee County,GA,NA,NA,37.5,NA
30121,Bartow County,GA,NA,NA,53.54938271604939,NA
30143,Pickens County,GA,NA,NA,NA,33.33333333333333
30144,Cobb County,GA,NA,33.33333333333333,NA,NA
30152,Cobb County,GA,NA,NA,NA,75.51282051282051
30217,Heard County,GA,NA,NA,85.64814814814815,NA
30233,Butts County,GA,NA,NA,NA,84.23076923076923
30281,Henry County,GA,NA,NA,NA,41.794871794871796
30307,DeKalb County,GA,NA,NA,77.9320987654321,NA
30328,Fulton County,GA,NA,NA,67.5925925925926,NA
30331,Fulton County,GA,NA,NA,6.944444444444445,NA
30349,Fulton County,GA,NA,7.142857142857142,NA,NA
30360,DeKalb County,GA,NA,NA,93.20987654320987,NA
30519,Gwinnett County,GA,NA,NA,NA,71.7948717948718
30542,Hall County,GA,NA,NA,NA,53.717948717948715
30546,Towns County,GA,NA,NA,67.12962962962963,NA
30554,Hall County,GA,NA,NA,NA,99.1025641025641
30607,Clarke County,GA,NA,76.78571428571429,NA,NA
30673,Wilkes County,GA,NA,89.88095238095238,NA,NA
30701,Gordon County,GA,NA,27.67857142857143,NA,NA
30705,Murray County,GA,NA,NA,39.351851851851855,NA
30720,Whitfield County,GA,64.49704142011834,NA,NA,NA
30728,Walker County,GA,NA,NA,NA,67.435897435897445
30817,Lincoln County,GA,NA,NA,86.88271604938271,NA
30907,Columbia County,GA,NA,NA,10.185185185185185,NA
30909,Richmond County,GA,NA,NA,15.432098765432098,20.256410256410255
31014,Bleckley County,GA,NA,NA,71.60493827160494,NA
31024,Putnam County,GA,75.7396449704142,NA,NA,NA
31032,Jones County,GA,NA,NA,NA,95.8974358974359
31404,Chatham County,GA,NA,50,NA,NA
31405,Chatham County,GA,NA,NA,NA,29.48717948717949
31406,Chatham County,GA,NA,NA,NA,24.743589743589745
31419,Chatham County,GA,NA,NA,31.48148148148148,NA
31510,Bacon County,GA,NA,71.42857142857143,NA,NA
31525,Glynn County,GA,NA,NA,NA,70.8974358974359
31546,Wayne County,GA,NA,NA,NA,98.46153846153847
31707,Dougherty County,GA,NA,NA,NA,47.43589743589743
31773,Thomas County,GA,NA,94.64285714285714,NA,NA
31774,Irwin County,GA,NA,NA,89.6604938271605,NA
31788,Colquitt County,GA,NA,NA,76.38888888888889,NA
31794,Tift County,GA,NA,24.107142857142858,NA,35
31833,Troup County,GA,NA,NA,77.1604938271605,NA
31909,Muscogee County,GA,NA,38.095238095238095,NA,NA
39842,Terrell County,GA,NA,NA,64.81481481481481,NA
96746,Kauai County,HI,NA,NA,NA,90.38461538461539
96789,Honolulu County,HI,NA,NA,6.327160493827161,NA
96816,Honolulu County,HI,NA,NA,NA,26.02564102564103
83221,Bingham County,ID,NA,NA,NA,44.1025641025641
83440,Madison County,ID,NA,NA,NA,88.71794871794872
83501,Nez Perce County,ID,NA,12.797619047619047,NA,NA
83616,Ada County,ID,83.4319526627219,NA,NA,NA
83638,Valley County,ID,NA,NA,98.14814814814815,NA
83703,Ada County,ID,NA,NA,25.154320987654323,NA
83714,Ada County,ID,NA,NA,NA,9.487179487179487
83835,Kootenai County,ID,73.37278106508876,NA,NA,NA
83854,Kootenai County,ID,NA,NA,20.52469135802469,NA
83858,Kootenai County,ID,NA,NA,88.42592592592592,NA
60004,Cook County,IL,NA,22.61904761904762,NA,NA
60005,Cook County,IL,NA,NA,37.96296296296296,NA
60008,Cook County,IL,NA,NA,57.098765432098766,NA
60010,Lake County,IL,NA,NA,NA,13.205128205128206
60015,Lake County,IL,NA,NA,NA,13.846153846153847
60018,Cook County,IL,NA,NA,NA,39.61538461538461
60020,Lake County,IL,NA,NA,NA,73.97435897435898
60041,Lake County,IL,NA,74.70238095238095,73.30246913580247,NA
60061,Lake County,IL,NA,NA,NA,34.23076923076923
60062,Cook County,IL,NA,NA,NA,5.256410256410256
60085,Lake County,IL,NA,NA,NA,22.05128205128205
60098,McHenry County,IL,NA,NA,NA,10
60102,McHenry County,IL,NA,NA,73.14814814814815,NA
60103,DuPage County,IL,NA,NA,NA,37.43589743589744
60119,Kane County,IL,90.53254437869822,NA,NA,NA
60134,Kane County,IL,NA,NA,NA,22.435897435897438
60172,DuPage County,IL,NA,NA,NA,56.794871794871796
60302,Cook County,IL,NA,NA,13.425925925925927,NA
60402,Cook County,IL,NA,10.416666666666668,NA,NA
60403,Will County,IL,NA,NA,NA,45.64102564102564
60411,Cook County,IL,NA,NA,NA,14.743589743589745
60423,Will County,IL,NA,NA,NA,77.435897435897445
60425,Cook County,IL,NA,NA,70.21604938271605,NA
60441,Will County,IL,35.50295857988166,NA,NA,NA
60450,Grundy County,IL,NA,NA,NA,16.025641025641026
60467,Cook County,IL,NA,NA,26.234567901234566,NA
60502,DuPage County,IL,NA,NA,69.44444444444444,NA
60510,Kane County,IL,NA,NA,47.839506172839506,NA
60516,DuPage County,IL,NA,NA,28.858024691358025,NA
60525,Cook County,IL,NA,NA,12.5,NA
60543,Kendall County,IL,NA,NA,NA,71.15384615384616
60560,Kendall County,IL,NA,NA,NA,90.76923076923077
60607,Cook County,IL,NA,NA,NA,75.12820512820512
60608,Cook County,IL,NA,NA,12.808641975308642,5.897435897435897
60613,Cook County,IL,NA,NA,NA,34.743589743589745
60614,Cook County,IL,NA,NA,15.277777777777779,NA
60617,Cook County,IL,NA,NA,2.006172839506173,1.282051282051282
60621,Cook County,IL,NA,NA,NA,35.51282051282051
60625,Cook County,IL,42.60355029585799,NA,NA,NA
60628,Cook County,IL,NA,NA,NA,2.564102564102564
60629,Cook County,IL,NA,5.654761904761905,NA,NA
60631,Cook County,IL,NA,NA,NA,19.102564102564102
60641,Cook County,IL,NA,NA,14.506172839506174,NA
60643,Cook County,IL,NA,8.630952380952381,NA,NA
60644,Cook County,IL,NA,NA,11.11111111111111,NA
60655,Cook County,IL,21.301775147928996,NA,NA,NA
60657,Cook County,IL,NA,NA,12.037037037037036,NA
60659,Cook County,IL,72.18934911242604,NA,NA,NA
60707,Cook County,IL,NA,NA,NA,6.923076923076923
60714,Cook County,IL,NA,NA,NA,7.6923076923076925
60942,Vermilion County,IL,94.67455621301775,NA,NA,NA
61107,Winnebago County,IL,NA,NA,64.96913580246914,15.897435897435896
61265,Rock Island County,IL,NA,NA,30.09259259259259,NA
61342,LaSalle County,IL,NA,NA,45.21604938271605,NA
61401,Knox County,IL,NA,NA,NA,15.512820512820513
61455,McDonough County,IL,NA,80.05952380952381,NA,NA
61701,McLean County,IL,NA,NA,NA,50.8974358974359
61801,Champaign County,IL,NA,NA,94.9074074074074,45.12820512820513
61802,Champaign County,IL,NA,NA,30.401234567901238,NA
61846,Vermilion County,IL,NA,NA,74.53703703703704,NA
61874,Champaign County,IL,NA,NA,61.111111111111114,NA
62002,Madison County,IL,NA,26.785714285714285,17.59259259259259,NA
62025,Madison County,IL,NA,NA,NA,21.794871794871796
62035,Madison County,IL,NA,NA,NA,35.256410256410255
62231,Clinton County,IL,NA,88.09523809523809,NA,NA
62249,Madison County,IL,NA,NA,NA,27.564102564102566
62298,Monroe County,IL,NA,NA,NA,66.7948717948718
62439,Lawrence County,IL,NA,NA,69.9074074074074,NA
62565,Shelby County,IL,NA,NA,71.14197530864197,NA
62681,Schuyler County,IL,NA,NA,NA,75.38461538461539
62703,Sangamon County,IL,NA,NA,NA,41.28205128205128
62837,Wayne County,IL,NA,NA,68.67283950617285,NA
62901,Jackson County,IL,NA,NA,NA,59.61538461538461
62959,Williamson County,IL,NA,NA,16.820987654320987,14.23076923076923
46052,Boone County,IN,NA,41.66666666666667,NA,NA
46060,Hamilton County,IN,NA,NA,NA,30.512820512820515
46062,Hamilton County,IN,NA,NA,15.74074074074074,NA
46064,Madison County,IN,43.786982248520715,NA,NA,NA
46072,Tipton County,IN,NA,NA,72.0679012345679,NA
46168,Hendricks County,IN,NA,38.69047619047619,NA,NA
46201,Marion County,IN,NA,48.214285714285715,NA,NA
46218,Marion County,IN,NA,NA,54.32098765432099,NA
46228,Marion County,IN,NA,NA,NA,76.7948717948718
46236,Marion County,IN,NA,NA,48.148148148148145,NA
46259,Marion County,IN,NA,NA,NA,70.38461538461539
46268,Marion County,IN,NA,NA,43.05555555555556,NA
46303,Lake County,IN,NA,NA,NA,48.84615384615385
46307,Lake County,IN,NA,NA,0.4629629629629629,NA
46319,Lake County,IN,60.946745562130175,NA,NA,NA
46320,Lake County,IN,NA,NA,49.382716049382715,NA
46324,Lake County,IN,NA,NA,26.38888888888889,NA
46368,Porter County,IN,NA,3.571428571428571,NA,NA
46373,Lake County,IN,NA,NA,NA,76.66666666666667
46375,Lake County,IN,NA,NA,50,NA
46383,Porter County,IN,NA,NA,4.4753086419753085,NA
46405,Lake County,IN,NA,NA,47.99382716049383,NA
46406,Lake County,IN,NA,NA,64.19753086419753,NA
46507,Elkhart County,IN,NA,NA,NA,98.07692307692307
46582,Kosciusko County,IN,NA,NA,72.99382716049382,NA
46714,Wells County,IN,NA,NA,78.5493827160494,NA
46737,Steuben County,IN,NA,NA,95.98765432098766,NA
46804,Allen County,IN,NA,NA,NA,33.46153846153846
46815,Allen County,IN,NA,NA,36.574074074074076,NA
46901,Howard County,IN,NA,2.6785714285714284,3.2407407407407405,NA
46992,Wabash County,IN,NA,63.095238095238095,NA,NA
47060,Dearborn County,IN,NA,NA,95.67901234567901,97.6923076923077
47138,Scott County,IN,89.94082840236686,NA,NA,NA
47331,Fayette County,IN,NA,NA,63.888888888888886,NA
47348,Blackford County,IN,NA,NA,NA,48.205128205128204
47362,Henry County,IN,NA,NA,10.339506172839506,NA
47394,Randolph County,IN,NA,NA,85.18518518518519,NA
47501,Daviess County,IN,NA,35.11904761904761,NA,NA
47586,Perry County,IN,NA,NA,NA,65.76923076923077
47715,Vanderburgh County,IN,NA,NA,38.73456790123457,NA
47720,Vanderburgh County,IN,NA,NA,57.71604938271605,37.43589743589744
47804,Vigo County,IN,NA,94.04761904761905,NA,NA
47805,Vigo County,IN,73.96449704142012,NA,NA,NA
50125,Warren County,IA,NA,NA,94.75308641975309,NA
50310,Polk County,IA,NA,18.75,47.68518518518518,NA
50313,Polk County,IA,49.112426035502956,NA,NA,NA
50315,Polk County,IA,NA,8.333333333333332,NA,NA
50317,Polk County,IA,NA,NA,13.88888888888889,NA
50662,Fayette County,IA,NA,NA,85.80246913580247,NA
50801,Union County,IA,NA,38.392857142857146,NA,NA
51104,Woodbury County,IA,NA,NA,50.617283950617285,NA
51442,Crawford County,IA,NA,88.98809523809523,NA,NA
51501,Pottawattamie County,IA,NA,NA,9.722222222222223,NA
51632,Page County,IA,68.04733727810651,NA,NA,NA
52001,Dubuque County,IA,14.201183431952662,NA,22.993827160493826,NA
52040,Dubuque County,IA,NA,NA,99.53703703703704,NA
52057,Delaware County,IA,NA,NA,79.01234567901234,NA
52233,Linn County,IA,NA,NA,96.4506172839506,NA
52732,Clinton County,IA,NA,NA,NA,38.84615384615385
52748,Scott County,IA,NA,NA,91.0493827160494,NA
66106,Wyandotte County,KS,NA,NA,NA,68.07692307692308
66212,Johnson County,KS,NA,NA,14.04320987654321,NA
66215,Johnson County,KS,NA,NA,NA,36.02564102564102
66436,Jackson County,KS,NA,NA,NA,72.05128205128204
66503,Riley County,KS,NA,NA,87.03703703703704,NA
67002,Butler County,KS,NA,NA,89.96913580246914,NA
67502,Reno County,KS,NA,NA,NA,51.66666666666667
67530,Barton County,KS,NA,NA,NA,62.56410256410256
67550,Pawnee County,KS,NA,87.20238095238095,NA,NA
67601,Ellis County,KS,NA,NA,51.85185185185185,NA
67701,Thomas County,KS,NA,NA,NA,84.48717948717949
67846,Finney County,KS,NA,NA,NA,19.230769230769234
40033,Marion County,KY,NA,NA,65.4320987654321,NA
40065,Shelby County,KY,NA,40.773809523809526,63.42592592592593,NA
40203,Jefferson County,KY,NA,NA,39.19753086419753,58.46153846153847
40207,Jefferson County,KY,NA,NA,32.407407407407405,NA
40216,Jefferson County,KY,NA,NA,10.648148148148149,NA
40219,Jefferson County,KY,NA,NA,21.604938271604937,NA
40222,Jefferson County,KY,NA,NA,NA,21.666666666666668
40336,Estill County,KY,NA,NA,49.53703703703704,NA
40356,Jessamine County,KY,NA,NA,57.870370370370374,NA
40359,Owen County,KY,NA,NA,88.27160493827161,NA
40383,Woodford County,KY,NA,68.75,NA,NA
40509,Fayette County,KY,32.544378698224854,NA,NA,NA
40962,Clay County,KY,NA,48.51190476190476,NA,NA
41005,Boone County,KY,NA,NA,52.31481481481482,NA
41018,Kenton County,KY,NA,78.27380952380952,NA,NA
41030,Grant County,KY,NA,70.23809523809523,NA,NA
41031,Harrison County,KY,NA,NA,37.65432098765432,NA
41071,Campbell County,KY,NA,NA,NA,55.00000000000001
41076,Campbell County,KY,NA,67.55952380952381,NA,NA
41179,Lewis County,KY,NA,57.44047619047619,NA,NA
41501,Pike County,KY,NA,38.98809523809524,NA,NA
41649,Floyd County,KY,NA,91.96428571428571,NA,NA
42066,Graves County,KY,NA,NA,18.67283950617284,NA
42071,Calloway County,KY,NA,NA,NA,74.87179487179488
42101,Warren County,KY,NA,6.25,NA,NA
42141,Barren County,KY,20.710059171597635,NA,NA,NA
42256,Logan County,KY,NA,NA,92.12962962962963,NA
42301,Daviess County,KY,NA,NA,9.25925925925926,NA
42303,Daviess County,KY,NA,NA,NA,16.28205128205128
42376,Daviess County,KY,NA,NA,90.74074074074075,NA
42437,Union County,KY,NA,NA,89.50617283950618,NA
42501,Pulaski County,KY,NA,NA,NA,32.56410256410256
42717,Cumberland County,KY,NA,NA,NA,70.12820512820512
42743,Green County,KY,NA,NA,NA,46.282051282051285
70056,Jefferson Parish,LA,NA,NA,66.9753086419753,NA
70070,St. Charles Parish,LA,NA,NA,NA,91.15384615384615
70119,Orleans Parish,LA,NA,5.059523809523809,NA,NA
70344,Terrebonne Parish,LA,NA,NA,NA,95.64102564102565
70438,Washington Parish,LA,4.733727810650888,NA,NA,NA
70448,St. Tammany Parish,LA,NA,NA,28.39506172839506,NA
70460,St. Tammany Parish,LA,NA,NA,NA,43.97435897435897
70510,Vermilion Parish,LA,NA,NA,83.79629629629629,NA
70578,Acadia Parish,LA,NA,NA,40.74074074074074,NA
70601,Calcasieu Parish,LA,NA,10.714285714285714,NA,NA
70714,East Baton Rouge Parish,LA,NA,NA,49.2283950617284,NA
70785,Livingston Parish,LA,NA,NA,69.1358024691358,NA
70809,East Baton Rouge Parish,LA,NA,NA,NA,34.35897435897436
70818,East Baton Rouge Parish,LA,NA,NA,90.58641975308642,NA
71006,Bossier Parish,LA,NA,NA,NA,91.41025641025641
71049,De Soto Parish,LA,NA,96.13095238095238,NA,NA
71055,Webster Parish,LA,34.9112426035503,NA,NA,NA
71107,Caddo Parish,LA,NA,NA,18.055555555555554,NA
71115,Caddo Parish,LA,NA,NA,84.10493827160494,NA
71291,Ouachita Parish,LA,NA,NA,29.938271604938272,NA
71292,Ouachita Parish,LA,NA,NA,NA,63.46153846153846
71295,Franklin Parish,LA,NA,NA,NA,39.23076923076923
04005,York County,ME,NA,NA,4.012345679012346,90.25641025641026
04038,Cumberland County,ME,NA,NA,44.598765432098766,NA
04039,Cumberland County,ME,NA,NA,76.23456790123457,NA
04074,Cumberland County,ME,NA,NA,97.0679012345679,NA
04102,Cumberland County,ME,NA,NA,NA,59.61538461538461
04105,Cumberland County,ME,NA,NA,99.07407407407408,NA
04106,Cumberland County,ME,NA,NA,33.95061728395062,NA
04736,Aroostook County,ME,NA,NA,NA,23.589743589743588
04743,Aroostook County,ME,NA,NA,79.16666666666666,NA
04976,Somerset County,ME,NA,NA,NA,12.94871794871795
20653,St. Mary's County,MD,NA,NA,76.69753086419753,NA
20783,Prince George's County,MD,NA,NA,81.17283950617285,NA
20785,Prince George's County,MD,NA,NA,NA,66.92307692307692
20841,Montgomery County,MD,NA,95.53571428571429,NA,NA
20851,Montgomery County,MD,NA,NA,NA,92.05128205128204
20852,Montgomery County,MD,84.02366863905326,NA,NA,NA
20853,Montgomery County,MD,NA,NA,NA,55.38461538461539
20906,Montgomery County,MD,NA,NA,NA,8.717948717948717
21014,Harford County,MD,NA,NA,NA,33.46153846153846
21045,Howard County,MD,NA,NA,NA,59.23076923076923
21078,Harford County,MD,NA,NA,50.15432098765432,NA
21087,Baltimore County,MD,NA,NA,NA,96.02564102564102
21093,Baltimore County,MD,NA,42.55952380952381,NA,NA
21122,Anne Arundel County,MD,NA,NA,12.191358024691358,NA
21204,Baltimore County,MD,NA,NA,NA,51.92307692307693
21215,Baltimore city,MD,NA,NA,8.179012345679013,NA
21220,Baltimore County,MD,NA,NA,30.246913580246915,NA
21230,Baltimore city,MD,NA,NA,50.15432098765432,NA
21502,Allegany County,MD,NA,21.13095238095238,NA,4.230769230769231
21550,Garrett County,MD,NA,NA,NA,12.307692307692308
21601,Talbot County,MD,NA,64.88095238095238,NA,NA
21701,Frederick County,MD,NA,NA,NA,36.15384615384615
21702,Frederick County,MD,NA,64.58333333333334,NA,43.205128205128204
21757,Frederick County,MD,NA,99.40476190476191,NA,NA
21771,Frederick County,MD,NA,NA,NA,75
21784,Carroll County,MD,NA,NA,56.32716049382716,NA
01002,Hampshire County,MA,NA,NA,NA,85.25641025641025
01033,Hampshire County,MA,NA,NA,82.56172839506173,NA
01036,Hampden County,MA,NA,NA,NA,99.48717948717949
01040,Hampden County,MA,NA,NA,NA,8.205128205128204
01062,Hampshire County,MA,NA,NA,NA,84.1025641025641
01085,Hampden County,MA,NA,NA,16.666666666666664,NA
01201,Berkshire County,MA,NA,8.928571428571429,NA,NA
01230,Berkshire County,MA,NA,NA,95.5246913580247,NA
01331,Worcester County,MA,NA,NA,NA,32.56410256410256
01440,Worcester County,MA,NA,NA,NA,7.435897435897436
01527,Worcester County,MA,NA,NA,NA,66.28205128205128
01590,Worcester County,MA,NA,68.45238095238095,NA,NA
01602,Worcester County,MA,NA,NA,NA,18.076923076923077
01603,Worcester County,MA,NA,NA,1.8518518518518516,NA
01605,Worcester County,MA,NA,2.083333333333333,NA,0.1282051282051282
01606,Worcester County,MA,NA,NA,NA,37.82051282051282
01607,Worcester County,MA,NA,NA,33.641975308641975,NA
01746,Middlesex County,MA,NA,18.154761904761905,NA,NA
01752,Middlesex County,MA,NA,NA,11.265432098765432,23.589743589743588
01775,Middlesex County,MA,NA,NA,84.41358024691358,NA
01821,Middlesex County,MA,NA,NA,NA,6.282051282051282
01844,Essex County,MA,NA,1.7857142857142856,NA,NA
01850,Middlesex County,MA,78.69822485207101,NA,NA,NA
01854,Middlesex County,MA,NA,2.380952380952381,NA,NA
01902,Essex County,MA,NA,NA,5.709876543209877,1.4102564102564104
01915,Essex County,MA,NA,NA,88.73456790123457,0.38461538461538464
01923,Essex County,MA,NA,NA,NA,1.153846153846154
01950,Essex County,MA,NA,NA,23.30246913580247,NA
01960,Essex County,MA,NA,0.8928571428571428,NA,0
01970,Essex County,MA,NA,1.488095238095238,NA,NA
02043,Plymouth County,MA,NA,NA,NA,15.64102564102564
02050,Plymouth County,MA,NA,NA,58.0246913580247,NA
02093,Norfolk County,MA,NA,54.46428571428571,NA,NA
02118,Suffolk County,MA,NA,NA,97.68518518518519,NA
02127,Suffolk County,MA,NA,NA,NA,8.846153846153847
02131,Suffolk County,MA,24.2603550295858,NA,48.61111111111111,NA
02132,Suffolk County,MA,NA,NA,0.6172839506172839,NA
02135,Suffolk County,MA,NA,NA,NA,24.615384615384617
02136,Suffolk County,MA,NA,NA,3.8580246913580245,NA
02140,Middlesex County,MA,34.319526627218934,NA,NA,NA
02151,Suffolk County,MA,7.6923076923076925,NA,NA,NA
02176,Middlesex County,MA,NA,NA,NA,9.615384615384617
02190,Norfolk County,MA,NA,24.404761904761905,NA,NA
02338,Plymouth County,MA,NA,NA,95.37037037037037,NA
02343,Norfolk County,MA,NA,NA,NA,64.23076923076924
02346,Plymouth County,MA,NA,NA,NA,26.282051282051285
02351,Plymouth County,MA,NA,14.583333333333334,NA,NA
02359,Plymouth County,MA,75.14792899408283,NA,NA,NA
02360,Plymouth County,MA,NA,NA,0,NA
02446,Norfolk County,MA,NA,16.666666666666664,NA,NA
02452,Middlesex County,MA,NA,NA,NA,48.07692307692308
02472,Middlesex County,MA,NA,NA,NA,44.35897435897436
02532,Barnstable County,MA,NA,NA,50.92592592592593,48.717948717948715
02568,Dukes County,MA,NA,66.96428571428571,NA,NA
02649,Barnstable County,MA,79.28994082840237,NA,NA,NA
02673,Barnstable County,MA,NA,51.488095238095234,NA,NA
02721,Bristol County,MA,NA,NA,3.5493827160493825,NA
02739,Plymouth County,MA,NA,98.51190476190477,NA,NA
02780,Bristol County,MA,NA,NA,32.25308641975309,NA
48035,Macomb County,MI,NA,NA,8.024691358024691,NA
48036,Macomb County,MI,NA,NA,60.18518518518518,NA
48059,St. Clair County,MI,NA,NA,NA,20.384615384615383
48065,Macomb County,MI,NA,88.69047619047619,NA,NA
48066,Macomb County,MI,NA,NA,6.481481481481481,NA
48073,Oakland County,MI,NA,26.190476190476193,NA,23.205128205128204
48083,Oakland County,MI,NA,NA,NA,29.871794871794872
48097,St. Clair County,MI,93.49112426035504,NA,NA,NA
48116,Livingston County,MI,23.668639053254438,NA,NA,NA
48127,Wayne County,MI,NA,NA,NA,4.871794871794872
48144,Monroe County,MI,NA,NA,NA,90.64102564102564
48146,Wayne County,MI,NA,7.440476190476191,NA,NA
48150,Wayne County,MI,62.1301775147929,NA,NA,NA
48162,Monroe County,MI,NA,NA,41.66666666666667,NA
48170,Wayne County,MI,NA,NA,NA,17.307692307692307
48173,Wayne County,MI,NA,NA,NA,59.48717948717949
48178,Oakland County,MI,NA,NA,NA,5.128205128205128
48180,Wayne County,MI,NA,NA,0.9259259259259258,1.9230769230769231
48183,Wayne County,MI,NA,NA,NA,8.333333333333332
48185,Wayne County,MI,NA,5.357142857142857,NA,NA
48193,Wayne County,MI,NA,NA,NA,87.05128205128206
48197,Washtenaw County,MI,4.142011834319527,NA,1.0802469135802468,NA
48213,Wayne County,MI,NA,9.821428571428571,NA,NA
48238,Wayne County,MI,NA,NA,15.123456790123457,NA
48302,Oakland County,MI,NA,NA,43.67283950617284,NA
48304,Oakland County,MI,NA,NA,49.691358024691354,NA
48307,Oakland County,MI,NA,NA,NA,10.897435897435898
48312,Macomb County,MI,NA,NA,NA,6.538461538461539
48317,Macomb County,MI,NA,NA,NA,86.7948717948718
48322,Oakland County,MI,NA,NA,NA,2.9487179487179485
48326,Oakland County,MI,NA,NA,53.24074074074075,NA
48331,Oakland County,MI,NA,NA,NA,23.589743589743588
48334,Oakland County,MI,NA,NA,NA,92.94871794871796
48390,Oakland County,MI,NA,NA,34.72222222222222,NA
48433,Genesee County,MI,NA,NA,19.753086419753085,NA
48506,Genesee County,MI,NA,NA,36.882716049382715,NA
48626,Saginaw County,MI,NA,NA,NA,95.51282051282051
48629,Roscommon County,MI,NA,NA,NA,86.41025641025641
48642,Midland County,MI,NA,NA,5.864197530864197,NA
48647,Oscoda County,MI,NA,NA,NA,98.84615384615385
48706,Bay County,MI,NA,NA,NA,2.435897435897436
48708,Bay County,MI,NA,NA,35.339506172839506,NA
48827,Eaton County,MI,31.360946745562128,NA,NA,NA
48842,Ingham County,MI,NA,NA,NA,54.74358974358975
48843,Livingston County,MI,NA,40.476190476190474,NA,NA
48917,Eaton County,MI,NA,NA,6.635802469135803,8.461538461538462
49009,Kalamazoo County,MI,NA,NA,6.790123456790123,NA
49024,Kalamazoo County,MI,NA,NA,20.21604938271605,NA
49038,Berrien County,MI,NA,NA,60.64814814814815,NA
49046,Barry County,MI,NA,NA,NA,83.71794871794872
49047,Cass County,MI,NA,NA,NA,90.51282051282051
49071,Van Buren County,MI,NA,NA,NA,92.6923076923077
49112,Cass County,MI,NA,NA,NA,96.41025641025641
49203,Jackson County,MI,27.218934911242602,NA,NA,NA
49230,Jackson County,MI,NA,NA,77.46913580246914,NA
49331,Kent County,MI,NA,NA,NA,73.46153846153847
49415,Muskegon County,MI,NA,80.95238095238095,NA,NA
49423,Ottawa County,MI,8.284023668639055,NA,NA,NA
49431,Mason County,MI,NA,29.166666666666668,NA,NA
49457,Muskegon County,MI,NA,NA,70.5246913580247,NA
49507,Kent County,MI,NA,NA,NA,40.64102564102564
49508,Kent County,MI,NA,NA,NA,82.6923076923077
49519,Kent County,MI,NA,NA,NA,29.102564102564106
49651,Missaukee County,MI,NA,NA,89.81481481481481,NA
49735,Otsego County,MI,NA,NA,NA,21.025641025641026
49855,Marquette County,MI,NA,NA,14.814814814814813,NA
49868,Luce County,MI,NA,96.42857142857143,NA,NA
55021,Rice County,MN,NA,NA,38.117283950617285,NA
55051,Kanabec County,MN,NA,NA,NA,42.82051282051282
55057,Rice County,MN,NA,NA,59.72222222222222,NA
55104,Ramsey County,MN,NA,13.392857142857142,NA,NA
55106,Ramsey County,MN,15.976331360946746,NA,NA,NA
55129,Washington County,MN,NA,NA,NA,85.8974358974359
55311,Hennepin County,MN,NA,NA,62.808641975308646,NA
55317,Carver County,MN,NA,NA,NA,92.435897435897445
55369,Hennepin County,MN,NA,NA,NA,60.641025641025635
55371,Mille Lacs County,MN,NA,NA,98.61111111111111,NA
55406,Hennepin County,MN,56.80473372781065,NA,NA,NA
55411,Hennepin County,MN,NA,15.476190476190476,NA,NA
55421,Anoka County,MN,NA,NA,43.82716049382716,NA
55438,Hennepin County,MN,NA,87.79761904761905,NA,NA
55441,Hennepin County,MN,NA,NA,NA,92.56410256410257
55446,Hennepin County,MN,NA,NA,NA,78.71794871794872
55803,St. Louis County,MN,NA,NA,31.32716049382716,NA
55804,St. Louis County,MN,NA,NA,35.03086419753087,NA
55904,Olmsted County,MN,NA,NA,35.80246913580247,NA
55981,Wabasha County,MN,NA,NA,NA,50.256410256410255
55987,Winona County,MN,NA,NA,NA,1.0256410256410255
56007,Freeborn County,MN,NA,NA,NA,0.7692307692307693
56073,Brown County,MN,NA,19.940476190476193,NA,NA
56101,Cottonwood County,MN,NA,NA,71.4506172839506,NA
56258,Lyon County,MN,NA,69.64285714285714,NA,NA
56267,Stevens County,MN,NA,NA,NA,38.333333333333336
56301,Stearns County,MN,NA,NA,66.66666666666666,NA
56352,Stearns County,MN,NA,80.65476190476191,NA,NA
56401,Crow Wing County,MN,59.171597633136095,NA,NA,NA
56444,Crow Wing County,MN,NA,NA,NA,49.23076923076923
56470,Hubbard County,MN,NA,NA,NA,69.74358974358974
38851,Chickasaw County,MS,NA,NA,NA,93.07692307692308
38852,Tishomingo County,MS,NA,54.166666666666664,62.191358024691354,NA
38863,Pontotoc County,MS,NA,NA,NA,42.17948717948718
39042,Rankin County,MS,NA,NA,NA,11.153846153846155
39047,Rankin County,MS,NA,NA,NA,72.564102564102555
39150,Claiborne County,MS,NA,NA,85.49382716049382,NA
39208,Rankin County,MS,NA,37.797619047619044,NA,NA
39209,Hinds County,MS,NA,20.535714285714285,NA,NA
39272,Hinds County,MS,NA,NA,NA,81.02564102564102
39437,Jones County,MS,NA,NA,NA,65.38461538461539
39443,Jones County,MS,NA,91.07142857142857,NA,NA
39470,Pearl River County,MS,NA,NA,NA,62.43589743589744
39520,Hancock County,MS,NA,NA,NA,53.84615384615385
39564,Jackson County,MS,NA,28.57142857142857,NA,NA
39667,Walthall County,MS,NA,NA,60.339506172839506,NA
63033,St. Louis County,MO,NA,NA,83.48765432098766,NA
63034,St. Louis County,MO,NA,NA,50.77160493827161,NA
63043,St. Louis County,MO,NA,NA,NA,23.076923076923077
63044,St. Louis County,MO,NA,NA,65.27777777777779,NA
63074,St. Louis County,MO,NA,NA,NA,75.51282051282051
63116,St. Louis city,MO,NA,31.25,NA,NA
63121,St. Louis County,MO,NA,NA,NA,45.8974358974359
63122,St. Louis County,MO,NA,NA,NA,7.179487179487179
63146,St. Louis County,MO,NA,NA,NA,4.487179487179487
63303,St. Charles County,MO,NA,NA,NA,5.384615384615385
63348,St. Charles County,MO,92.3076923076923,NA,NA,NA
63456,Monroe County,MO,NA,NA,NA,99.35897435897436
63552,Macon County,MO,NA,NA,82.4074074074074,NA
63628,St. Francois County,MO,NA,60.11904761904761,NA,NA
63670,Ste. Genevieve County,MO,NA,NA,NA,60.89743589743589
63775,Perry County,MO,NA,76.48809523809523,NA,NA
63801,Scott County,MO,NA,NA,NA,13.717948717948719
63851,Pemiscot County,MO,NA,NA,96.14197530864197,NA
63901,Butler County,MO,NA,43.452380952380956,NA,NA
64040,Johnson County,MO,NA,76.19047619047619,NA,NA
64055,Jackson County,MO,NA,NA,NA,10.76923076923077
64062,Ray County,MO,NA,NA,77.00617283950618,NA
64068,Clay County,MO,NA,NA,5.401234567901234,69.35897435897435
64075,Jackson County,MO,82.24852071005917,NA,NA,NA
64081,Jackson County,MO,NA,NA,NA,36.28205128205128
64106,Jackson County,MO,NA,25.297619047619047,NA,NA
64109,Jackson County,MO,NA,25,NA,NA
64133,Jackson County,MO,NA,NA,NA,23.974358974358974
64152,Platte County,MO,NA,NA,34.10493827160494,NA
64155,Clay County,MO,NA,NA,20.833333333333336,87.94871794871794
64485,Andrew County,MO,NA,92.85714285714286,NA,NA
64506,Buchanan County,MO,NA,NA,NA,11.282051282051283
64507,Buchanan County,MO,NA,NA,36.41975308641975,NA
64804,Jasper County,MO,NA,NA,7.253086419753087,NA
65049,Camden County,MO,NA,NA,NA,77.05128205128206
65202,Boone County,MO,2.9585798816568047,NA,NA,NA
65560,Dent County,MO,NA,NA,NA,28.333333333333332
65807,Greene County,MO,NA,NA,14.660493827160495,4.615384615384616
59047,Park County,MT,NA,NA,63.73456790123457,NA
59601,Lewis and Clark County,MT,NA,NA,NA,56.41025641025641
59602,Lewis and Clark County,MT,NA,NA,NA,30.897435897435898
59701,Silver Bow County,MT,NA,59.82142857142857,NA,NA
59714,Gallatin County,MT,NA,NA,57.56172839506173,NA
59840,Ravalli County,MT,NA,NA,NA,74.61538461538461
68022,Douglas County,NE,80.4733727810651,NA,NA,NA
68106,Douglas County,NE,NA,NA,NA,51.153846153846146
68133,Sarpy County,NE,NA,NA,99.84567901234568,NA
68137,Douglas County,NE,NA,NA,45.67901234567901,NA
68154,Douglas County,NE,NA,NA,NA,54.48717948717948
68516,Lancaster County,NE,NA,NA,NA,42.43589743589744
68847,Buffalo County,NE,NA,73.51190476190477,NA,NA
69101,Lincoln County,NE,NA,NA,22.530864197530864,NA
69361,Scotts Bluff County,NE,NA,NA,NA,60.256410256410255
89110,Clark County,NV,NA,NA,NA,62.05128205128205
89113,Clark County,NV,NA,NA,NA,86.28205128205128
89115,Clark County,NV,NA,NA,NA,82.6923076923077
89128,Clark County,NV,NA,NA,NA,49.358974358974365
89130,Clark County,NV,NA,NA,NA,43.84615384615385
89135,Clark County,NV,NA,NA,60.49382716049383,NA
89156,Clark County,NV,NA,NA,65.58641975308642,NA
89445,Humboldt County,NV,NA,NA,78.70370370370371,NA
03051,Hillsborough County,NH,NA,NA,16.97530864197531,NA
03054,Hillsborough County,NH,NA,NA,NA,40.8974358974359
03060,Hillsborough County,NH,12.42603550295858,25.595238095238095,NA,NA
03063,Hillsborough County,NH,NA,NA,NA,85.38461538461539
03104,Hillsborough County,NH,NA,NA,NA,22.564102564102566
03229,Merrimack County,NH,95.85798816568047,NA,NA,NA
03249,Belknap County,NH,NA,NA,NA,70.64102564102565
03254,Carroll County,NH,NA,NA,84.10493827160494,NA
03301,Merrimack County,NH,NA,NA,NA,22.82051282051282
03835,Strafford County,NH,NA,79.46428571428571,NA,NA
03842,Rockingham County,NH,NA,NA,28.703703703703702,NA
03874,Rockingham County,NH,NA,45.23809523809524,NA,NA
07002,Hudson County,NJ,NA,NA,NA,76.53846153846153
07016,Union County,NJ,NA,NA,NA,70.25641025641025
07032,Hudson County,NJ,NA,18.154761904761905,NA,NA
07052,Essex County,NJ,NA,NA,NA,13.461538461538462
07054,Morris County,NJ,NA,90.47619047619048,NA,NA
07069,Somerset County,NJ,NA,NA,97.53086419753086,NA
07087,Hudson County,NJ,NA,NA,NA,3.8461538461538463
07407,Bergen County,NJ,NA,NA,NA,61.92307692307693
07410,Bergen County,NJ,85.79881656804734,NA,NA,NA
07444,Morris County,NJ,NA,NA,NA,34.1025641025641
07607,Bergen County,NJ,94.0828402366864,NA,NA,NA
07628,Bergen County,NJ,NA,40.17857142857143,NA,42.56410256410256
07630,Bergen County,NJ,NA,NA,NA,68.97435897435898
07663,Bergen County,NJ,NA,NA,NA,82.43589743589743
07712,Monmouth County,NJ,NA,92.26190476190477,NA,NA
07730,Monmouth County,NJ,NA,NA,NA,66.02564102564102
07731,Monmouth County,NJ,NA,NA,NA,67.17948717948717
07757,Monmouth County,NJ,NA,NA,93.3641975308642,NA
07866,Morris County,NJ,NA,61.30952380952381,NA,NA
07874,Sussex County,NJ,NA,NA,NA,96.92307692307692
07922,Union County,NJ,NA,NA,NA,88.33333333333333
07932,Morris County,NJ,NA,NA,NA,75.8974358974359
07960,Morris County,NJ,NA,16.36904761904762,NA,NA
08016,Burlington County,NJ,NA,NA,23.919753086419753,NA
08021,Camden County,NJ,NA,0.2976190476190476,NA,27.82051282051282
08069,Salem County,NJ,NA,NA,NA,57.179487179487175
08080,Gloucester County,NJ,NA,10.119047619047619,NA,NA
08089,Camden County,NJ,NA,100,NA,NA
08096,Gloucester County,NJ,NA,NA,NA,12.435897435897436
08110,Camden County,NJ,NA,11.904761904761903,NA,NA
08204,Cape May County,NJ,NA,NA,NA,25.51282051282051
08205,Atlantic County,NJ,NA,NA,19.444444444444446,NA
08215,Atlantic County,NJ,NA,33.035714285714285,NA,NA
08251,Cape May County,NJ,NA,NA,NA,80.25641025641026
08318,Salem County,NJ,74.55621301775149,NA,NA,89.87179487179488
08322,Gloucester County,NJ,NA,NA,77.62345679012346,NA
08360,Cumberland County,NJ,28.994082840236686,NA,NA,NA
08520,Mercer County,NJ,NA,NA,NA,56.02564102564103
08533,Ocean County,NJ,NA,NA,NA,96.92307692307692
08535,Monmouth County,NJ,NA,NA,NA,97.94871794871794
08536,Middlesex County,NJ,88.16568047337277,NA,NA,NA
08610,Mercer County,NJ,NA,NA,45.83333333333333,NA
08620,Mercer County,NJ,NA,78.57142857142857,NA,NA
08759,Ocean County,NJ,NA,NA,0.30864197530864196,NA
08807,Somerset County,NJ,NA,NA,NA,33.71794871794872
08820,Middlesex County,NJ,NA,NA,NA,15.769230769230768
08830,Middlesex County,NJ,NA,NA,62.96296296296296,46.92307692307692
08831,Middlesex County,NJ,NA,NA,7.4074074074074066,0.8974358974358974
08835,Somerset County,NJ,NA,NA,NA,87.43589743589743
08844,Somerset County,NJ,NA,NA,NA,57.05128205128205
08872,Middlesex County,NJ,NA,NA,NA,77.3076923076923
08889,Hunterdon County,NJ,NA,NA,NA,87.43589743589743
87048,Sandoval County,NM,NA,97.02380952380952,NA,NA
87102,Bernalillo County,NM,NA,NA,44.75308641975309,98.33333333333333
87105,Bernalillo County,NM,NA,NA,NA,11.794871794871794
87106,Bernalillo County,NM,NA,NA,72.22222222222221,NA
87108,Bernalillo County,NM,NA,NA,29.01234567901235,NA
87110,Bernalillo County,NM,NA,NA,NA,7.307692307692308
87111,Bernalillo County,NM,11.834319526627219,NA,NA,NA
87114,Bernalillo County,NM,NA,7.738095238095238,NA,NA
87120,Bernalillo County,NM,NA,30.654761904761905,NA,86.15384615384616
87124,Sandoval County,NM,26.035502958579883,NA,NA,NA
88005,Doa Ana County,NM,NA,NA,38.58024691358025,NA
88007,Doa Ana County,NM,NA,NA,52.9320987654321,NA
88310,Otero County,NM,NA,NA,25.462962962962965,NA
10003,New York County,NY,NA,50.297619047619044,NA,NA
10009,New York County,NY,NA,NA,NA,3.076923076923077
10014,New York County,NY,NA,NA,53.85802469135802,NA
10021,New York County,NY,NA,87.5,25,NA
10022,New York County,NY,NA,NA,NA,20.128205128205128
10023,New York County,NY,NA,NA,NA,3.205128205128205
10025,New York County,NY,NA,NA,NA,13.58974358974359
10029,New York County,NY,NA,0.5952380952380952,NA,NA
10031,New York County,NY,NA,NA,NA,17.564102564102562
10036,New York County,NY,NA,95.83333333333334,NA,NA
10065,New York County,NY,NA,NA,NA,39.61538461538461
10306,Richmond County,NY,NA,NA,NA,10.128205128205128
10475,Bronx County,NY,NA,NA,NA,4.102564102564102
10562,Westchester County,NY,NA,NA,86.72839506172839,NA
10924,Orange County,NY,NA,NA,91.66666666666666,NA
11101,Queens County,NY,NA,NA,NA,97.3076923076923
11206,Kings County,NY,7.100591715976331,NA,NA,NA
11214,Kings County,NY,NA,NA,NA,5.512820512820513
11215,Kings County,NY,NA,NA,30.709876543209873,NA
11219,Kings County,NY,NA,NA,18.3641975308642,NA
11222,Kings County,NY,NA,NA,61.26543209876543,NA
11223,Kings County,NY,NA,NA,10.95679012345679,NA
11229,Kings County,NY,NA,NA,NA,2.307692307692308
11238,Kings County,NY,NA,NA,NA,72.3076923076923
11368,Queens County,NY,NA,6.845238095238096,NA,NA
11554,Nassau County,NY,NA,NA,NA,19.48717948717949
11570,Nassau County,NY,NA,NA,NA,39.35897435897436
11576,Nassau County,NY,NA,NA,NA,62.56410256410256
11581,Nassau County,NY,NA,NA,86.11111111111111,NA
11704,Suffolk County,NY,NA,NA,NA,22.692307692307693
11717,Suffolk County,NY,NA,NA,45.5246913580247,NA
11721,Suffolk County,NY,NA,NA,NA,98.71794871794873
11727,Suffolk County,NY,NA,NA,NA,34.87179487179487
11743,Suffolk County,NY,NA,NA,NA,46.53846153846154
11766,Suffolk County,NY,NA,NA,NA,78.84615384615384
11768,Suffolk County,NY,NA,NA,84.87654320987654,NA
11783,Nassau County,NY,NA,NA,NA,63.205128205128204
12009,Albany County,NY,NA,NA,NA,85.51282051282051
12037,Columbia County,NY,NA,NA,87.34567901234568,NA
12065,Saratoga County,NY,41.42011834319527,NA,NA,18.333333333333332
12090,Rensselaer County,NY,NA,61.60714285714286,NA,NA
12309,Schenectady County,NY,NA,NA,NA,36.41025641025641
12401,Ulster County,NY,NA,NA,NA,27.17948717948718
12413,Greene County,NY,NA,91.66666666666666,NA,NA
12508,Dutchess County,NY,NA,NA,NA,69.61538461538461
12589,Ulster County,NY,NA,NA,NA,96.15384615384616
12590,Dutchess County,NY,NA,NA,NA,45.38461538461539
12603,Dutchess County,NY,NA,NA,NA,30.76923076923077
12804,Warren County,NY,42.01183431952663,NA,NA,NA
12901,Clinton County,NY,NA,NA,61.72839506172839,NA
13021,Cayuga County,NY,NA,NA,NA,12.94871794871795
13039,Onondaga County,NY,NA,44.642857142857146,NA,NA
13045,Cortland County,NY,NA,NA,8.333333333333332,NA
13053,Tompkins County,NY,NA,NA,83.0246913580247,NA
13205,Onondaga County,NY,NA,NA,NA,39.48717948717949
13212,Onondaga County,NY,NA,NA,55.55555555555556,NA
13350,Herkimer County,NY,NA,NA,81.48148148148148,NA
13365,Herkimer County,NY,NA,NA,31.17283950617284,NA
13413,Oneida County,NY,NA,NA,NA,20.76923076923077
13421,Madison County,NY,NA,21.726190476190478,NA,NA
13440,Oneida County,NY,NA,11.607142857142858,4.320987654320987,NA
13601,Jefferson County,NY,NA,NA,16.358024691358025,NA
13743,Tioga County,NY,NA,NA,97.8395061728395,NA
13760,Broome County,NY,NA,NA,NA,0.2564102564102564
13820,Otsego County,NY,NA,NA,5.555555555555555,NA
13827,Tioga County,NY,NA,NA,32.71604938271605,NA
14001,Erie County,NY,NA,NA,81.01851851851852,NA
14052,Erie County,NY,NA,NA,52.00617283950617,NA
14057,Erie County,NY,NA,NA,81.79012345679013,NA
14065,Cattaraugus County,NY,100,NA,NA,NA
14086,Erie County,NY,NA,NA,17.59259259259259,NA
14094,Niagara County,NY,NA,NA,1.5432098765432098,NA
14210,Erie County,NY,NA,NA,NA,78.07692307692308
14211,Erie County,NY,NA,NA,NA,86.53846153846155
14215,Erie County,NY,NA,23.511904761904763,NA,NA
14225,Erie County,NY,NA,NA,NA,38.71794871794872
14416,Genesee County,NY,NA,82.44047619047619,NA,NA
14450,Monroe County,NY,25.443786982248522,NA,11.419753086419753,NA
14464,Monroe County,NY,63.905325443786985,NA,NA,NA
14469,Ontario County,NY,NA,NA,NA,85.51282051282051
14472,Monroe County,NY,57.98816568047337,NA,NA,NA
14482,Genesee County,NY,66.86390532544378,NA,NA,NA
14514,Monroe County,NY,NA,NA,81.32716049382715,NA
14606,Monroe County,NY,NA,3.273809523809524,NA,NA
14607,Monroe County,NY,55.02958579881657,NA,NA,NA
14618,Monroe County,NY,NA,14.880952380952381,NA,NA
14619,Monroe County,NY,NA,NA,NA,98.97435897435898
14624,Monroe County,NY,NA,2.976190476190476,NA,NA
14625,Monroe County,NY,44.97041420118343,NA,NA,NA
14626,Monroe County,NY,NA,NA,2.9320987654320985,NA
14701,Chautauqua County,NY,5.325443786982249,NA,1.2345679012345678,NA
14813,Allegany County,NY,NA,85.71428571428571,NA,NA
14843,Steuben County,NY,22.485207100591715,NA,NA,NA
14845,Chemung County,NY,NA,13.690476190476192,NA,NA
14895,Allegany County,NY,29.585798816568047,NA,NA,NA
27030,Surry County,NC,NA,5.952380952380952,NA,NA
27053,Stokes County,NC,NA,NA,93.98148148148148,NA
27106,Forsyth County,NC,NA,NA,NA,0.5128205128205128
27215,Alamance County,NC,NA,NA,4.166666666666666,NA
27253,Alamance County,NC,NA,NA,15.58641975308642,NA
27295,Davidson County,NC,NA,17.857142857142858,NA,1.6666666666666667
27320,Rockingham County,NC,NA,NA,NA,42.30769230769231
27358,Guilford County,NC,85.20710059171599,NA,NA,NA
27407,Guilford County,NC,NA,NA,33.641975308641975,NA
27410,Guilford County,NC,NA,NA,NA,4.743589743589744
27501,Harnett County,NC,NA,NA,42.74691358024691,NA
27504,Johnston County,NC,NA,NA,NA,67.3076923076923
27517,Orange County,NC,NA,NA,86.11111111111111,NA
27525,Franklin County,NC,NA,54.761904761904766,NA,NA
27526,Wake County,NC,NA,NA,NA,15
27534,Wayne County,NC,NA,31.25,NA,NA
27537,Vance County,NC,NA,NA,NA,41.66666666666667
27546,Harnett County,NC,NA,NA,NA,95.76923076923077
27576,Johnston County,NC,53.84615384615385,NA,NA,NA
27587,Wake County,NC,NA,NA,NA,12.692307692307692
27597,Wake County,NC,NA,72.61904761904762,NA,NA
27610,Wake County,NC,NA,6.547619047619048,NA,NA
27615,Wake County,NC,NA,NA,12.191358024691358,NA
27870,Halifax County,NC,NA,53.57142857142857,NA,NA
27889,Beaufort County,NC,11.242603550295858,NA,NA,NA
27983,Bertie County,NC,NA,NA,83.9506172839506,NA
28012,Gaston County,NC,NA,NA,NA,40.51282051282051
28021,Gaston County,NC,NA,50.89285714285714,NA,NA
28075,Cabarrus County,NC,NA,NA,NA,74.74358974358975
28078,Mecklenburg County,NC,NA,NA,31.01851851851852,NA
28079,Union County,NC,NA,NA,47.0679012345679,NA
28081,Cabarrus County,NC,NA,NA,89.0432098765432,NA
28103,Union County,NC,NA,NA,73.61111111111111,NA
28115,Iredell County,NC,28.402366863905325,NA,NA,27.307692307692307
28147,Rowan County,NC,NA,NA,NA,61.15384615384616
28277,Mecklenburg County,NC,37.8698224852071,NA,NA,NA
28311,Cumberland County,NC,NA,NA,NA,73.2051282051282
28314,Cumberland County,NC,NA,27.083333333333332,NA,NA
28315,Moore County,NC,NA,NA,74.53703703703704,NA
28320,Bladen County,NC,NA,NA,74.07407407407408,NA
28387,Moore County,NC,NA,NA,NA,43.07692307692308
28403,New Hanover County,NC,NA,NA,NA,66.53846153846153
28412,New Hanover County,NC,NA,NA,25.308641975308642,NA
28451,Brunswick County,NC,NA,NA,22.685185185185187,NA
28461,Brunswick County,NC,NA,NA,NA,50.128205128205124
28532,Craven County,NC,NA,NA,95.21604938271605,NA
28540,Onslow County,NC,NA,NA,NA,26.923076923076923
28551,Lenoir County,NC,NA,NA,80.24691358024691,NA
28557,Carteret County,NC,NA,NA,40.123456790123456,NA
28560,Craven County,NC,NA,NA,90.4320987654321,NA
28580,Greene County,NC,NA,NA,NA,70.8974358974359
28584,Carteret County,NC,NA,NA,NA,90
28601,Catawba County,NC,NA,NA,NA,14.487179487179489
28655,Burke County,NC,NA,NA,24.074074074074073,NA
28697,Wilkes County,NC,NA,NA,55.092592592592595,NA
28715,Buncombe County,NC,NA,47.32142857142857,NA,NA
28716,Haywood County,NC,NA,NA,NA,40.38461538461539
28761,McDowell County,NC,NA,72.91666666666666,NA,NA
28779,Jackson County,NC,NA,NA,NA,84.74358974358974
28786,Haywood County,NC,NA,31.845238095238095,51.23456790123457,NA
28803,Buncombe County,NC,52.662721893491124,NA,NA,NA
43004,Franklin County,OH,NA,NA,58.48765432098766,NA
43028,Knox County,OH,NA,NA,NA,33.97435897435898
43055,Licking County,OH,NA,NA,0.15432098765432098,NA
43068,Franklin County,OH,NA,NA,8.950617283950617,NA
43082,Delaware County,OH,NA,56.845238095238095,NA,NA
43138,Hocking County,OH,NA,59.226190476190474,NA,28.846153846153843
43201,Franklin County,OH,NA,NA,93.67283950617285,NA
43204,Franklin County,OH,NA,NA,11.882716049382717,NA
43213,Franklin County,OH,NA,NA,16.203703703703702,NA
43302,Marion County,OH,23.076923076923077,NA,NA,NA
43420,Sandusky County,OH,NA,NA,NA,17.17948717948718
43528,Lucas County,OH,NA,NA,74.07407407407408,NA
43558,Fulton County,OH,NA,86.60714285714286,NA,NA
43560,Lucas County,OH,NA,NA,13.580246913580247,NA
43605,Lucas County,OH,8.875739644970414,NA,NA,NA
43611,Lucas County,OH,NA,44.047619047619044,NA,NA
43614,Lucas County,OH,NA,35.714285714285715,9.5679012345679,NA
43615,Lucas County,OH,NA,NA,NA,57.179487179487175
43725,Guernsey County,OH,NA,NA,33.17901234567901,NA
43821,Muskingum County,OH,71.59763313609467,NA,NA,NA
43953,Jefferson County,OH,NA,NA,24.537037037037038,NA
44004,Ashtabula County,OH,NA,NA,2.1604938271604937,NA
44024,Geauga County,OH,NA,NA,NA,10.512820512820513
44028,Lorain County,OH,NA,NA,NA,50.38461538461539
44035,Lorain County,OH,0,0,NA,NA
44039,Lorain County,OH,NA,NA,2.314814814814815,NA
44041,Ashtabula County,OH,NA,42.857142857142854,NA,NA
44047,Ashtabula County,OH,NA,NA,NA,44.871794871794876
44052,Lorain County,OH,3.5502958579881656,NA,NA,NA
44054,Lorain County,OH,NA,NA,NA,78.97435897435898
44055,Lorain County,OH,NA,8.035714285714286,NA,NA
44057,Lake County,OH,NA,NA,15.895061728395063,NA
44081,Lake County,OH,NA,NA,80.40123456790124,NA
44094,Lake County,OH,NA,NA,NA,9.7435897435897445
44095,Lake County,OH,NA,NA,8.487654320987655,NA
44105,Cuyahoga County,OH,NA,1.1904761904761905,NA,NA
44110,Cuyahoga County,OH,NA,NA,6.018518518518518,NA
44111,Cuyahoga County,OH,0.591715976331361,NA,1.6975308641975309,NA
44120,Cuyahoga County,OH,NA,NA,2.6234567901234565,NA
44123,Cuyahoga County,OH,NA,NA,22.22222222222222,NA
44124,Cuyahoga County,OH,NA,NA,NA,4.358974358974359
44132,Cuyahoga County,OH,NA,NA,47.376543209876544,NA
44134,Cuyahoga County,OH,NA,NA,NA,3.3333333333333335
44144,Cuyahoga County,OH,NA,NA,NA,88.58974358974359
44145,Cuyahoga County,OH,NA,NA,NA,20.897435897435898
44203,Summit County,OH,NA,NA,NA,27.435897435897438
44212,Medina County,OH,NA,NA,NA,2.051282051282051
44221,Summit County,OH,36.09467455621302,NA,NA,NA
44266,Portage County,OH,NA,NA,NA,65.25641025641026
44278,Summit County,OH,NA,NA,NA,77.82051282051282
44281,Medina County,OH,NA,NA,NA,91.53846153846153
44286,Summit County,OH,NA,NA,NA,86.02564102564104
44307,Summit County,OH,NA,NA,85.03086419753086,NA
44313,Summit County,OH,NA,NA,NA,11.41025641025641
44320,Summit County,OH,NA,NA,16.049382716049383,NA
44333,Summit County,OH,NA,NA,NA,33.71794871794872
44412,Portage County,OH,NA,98.80952380952381,NA,NA
44460,Columbiana County,OH,NA,NA,36.11111111111111,17.94871794871795
44485,Trumbull County,OH,NA,NA,NA,32.17948717948718
44505,Mahoning County,OH,NA,NA,NA,91.28205128205128
44509,Mahoning County,OH,NA,NA,71.29629629629629,NA
44614,Stark County,OH,97.63313609467455,NA,NA,NA
44646,Stark County,OH,9.467455621301776,NA,NA,NA
44710,Stark County,OH,NA,NA,NA,64.61538461538461
44720,Stark County,OH,NA,NA,17.901234567901234,NA
44830,Seneca County,OH,NA,NA,29.32098765432099,NA
44875,Richland County,OH,30.76923076923077,NA,NA,NA
45013,Butler County,OH,NA,NA,NA,3.4615384615384617
45014,Butler County,OH,NA,NA,NA,15.128205128205128
45036,Warren County,OH,NA,NA,NA,73.71794871794873
45040,Warren County,OH,NA,NA,NA,19.743589743589745
45065,Warren County,OH,NA,92.55952380952381,NA,NA
45069,Butler County,OH,NA,NA,NA,10.256410256410255
45103,Clermont County,OH,NA,NA,21.91358024691358,NA
45106,Clermont County,OH,NA,NA,61.57407407407407,91.02564102564102
45176,Clermont County,OH,NA,NA,NA,89.48717948717949
45231,Hamilton County,OH,NA,NA,NA,9.230769230769232
45243,Hamilton County,OH,NA,NA,78.85802469135803,NA
45309,Montgomery County,OH,NA,NA,NA,40.76923076923077
45324,Greene County,OH,NA,NA,NA,16.538461538461537
45342,Montgomery County,OH,NA,NA,7.87037037037037,NA
45373,Miami County,OH,NA,NA,NA,29.615384615384617
45387,Greene County,OH,NA,93.45238095238095,NA,NA
45458,Montgomery County,OH,17.159763313609467,NA,NA,NA
45459,Montgomery County,OH,NA,NA,NA,11.923076923076923
45662,Scioto County,OH,NA,3.869047619047619,NA,NA
45686,Gallia County,OH,NA,78.86904761904762,NA,NA
45701,Athens County,OH,NA,57.14285714285714,NA,31.41025641025641
45761,Athens County,OH,88.16568047337277,NA,NA,NA
45804,Allen County,OH,NA,NA,23.61111111111111,NA
45806,Allen County,OH,NA,58.92857142857143,NA,NA
45807,Allen County,OH,NA,NA,NA,47.56410256410256
45833,Allen County,OH,NA,57.738095238095234,NA,NA
45887,Allen County,OH,NA,NA,NA,91.92307692307692
73013,Oklahoma County,OK,NA,NA,NA,7.82051282051282
73034,Oklahoma County,OK,NA,NA,NA,26.153846153846157
73052,Garvin County,OK,NA,NA,NA,96.7948717948718
73069,Cleveland County,OK,NA,81.54761904761905,NA,NA
73071,Cleveland County,OK,NA,NA,13.271604938271606,NA
73072,Cleveland County,OK,NA,NA,NA,31.153846153846153
73080,McClain County,OK,NA,74.10714285714286,NA,NA
73089,Grady County,OK,NA,NA,NA,77.56410256410257
73098,Garvin County,OK,NA,NA,97.37654320987654,NA
73130,Oklahoma County,OK,NA,NA,NA,96.66666666666667
73132,Oklahoma County,OK,NA,NA,41.9753086419753,NA
73170,Cleveland County,OK,NA,NA,NA,6.282051282051282
73505,Comanche County,OK,NA,NA,NA,21.53846153846154
73533,Stephens County,OK,NA,19.642857142857142,NA,NA
73717,Woods County,OK,NA,NA,NA,81.66666666666667
73942,Texas County,OK,NA,NA,NA,94.61538461538461
74008,Tulsa County,OK,NA,62.797619047619044,NA,NA
74012,Tulsa County,OK,NA,NA,NA,59.35897435897436
74014,Wagoner County,OK,NA,NA,NA,47.30769230769231
74019,Rogers County,OK,NA,NA,53.086419753086425,NA
74021,Tulsa County,OK,NA,NA,61.882716049382715,81.53846153846153
74053,Rogers County,OK,NA,NA,NA,93.97435897435898
74074,Payne County,OK,NA,NA,NA,31.025641025641026
74127,Tulsa County,OK,NA,NA,NA,65.8974358974359
74133,Tulsa County,OK,NA,NA,NA,7.82051282051282
74137,Tulsa County,OK,63.31360946745562,NA,NA,NA
74955,Sequoyah County,OK,NA,NA,53.70370370370371,NA
97007,Washington County,OR,NA,28.57142857142857,NA,NA
97013,Clackamas County,OR,NA,NA,68.3641975308642,NA
97034,Clackamas County,OR,NA,NA,57.407407407407405,NA
97038,Clackamas County,OR,NA,NA,NA,64.48717948717949
97058,Wasco County,OR,NA,NA,29.629629629629626,NA
97206,Multnomah County,OR,NA,NA,NA,31.538461538461537
97266,Multnomah County,OR,NA,28.273809523809522,NA,NA
97330,Benton County,OR,NA,48.80952380952381,NA,NA
97355,Linn County,OR,NA,NA,4.62962962962963,NA
97365,Lincoln County,OR,NA,NA,NA,82.564102564102555
97444,Curry County,OR,NA,NA,NA,68.58974358974359
97448,Lane County,OR,NA,86.30952380952381,NA,NA
97459,Coos County,OR,NA,NA,70.67901234567901,NA
97477,Lane County,OR,NA,NA,87.65432098765432,NA
97502,Jackson County,OR,NA,NA,NA,28.076923076923077
97520,Jackson County,OR,NA,NA,45.98765432098765,NA
97524,Jackson County,OR,NA,NA,82.71604938271605,NA
97720,Harney County,OR,NA,NA,NA,94.74358974358974
97754,Crook County,OR,NA,NA,NA,28.205128205128204
97850,Union County,OR,38.46153846153847,NA,NA,43.717948717948715
15010,Beaver County,PA,NA,NA,25.771604938271604,NA
15062,Westmoreland County,PA,NA,NA,59.876543209876544,NA
15074,Beaver County,PA,NA,NA,NA,83.07692307692308
15106,Allegheny County,PA,NA,NA,NA,60.38461538461538
15120,Allegheny County,PA,NA,NA,NA,68.46153846153847
15202,Allegheny County,PA,NA,NA,NA,48.58974358974359
15214,Allegheny County,PA,NA,NA,NA,63.07692307692307
15226,Allegheny County,PA,NA,64.88095238095238,NA,NA
15235,Allegheny County,PA,NA,NA,NA,6.0256410256410255
15238,Allegheny County,PA,NA,81.25,NA,32.82051282051282
15317,Washington County,PA,NA,NA,7.716049382716049,NA
15522,Bedford County,PA,NA,NA,42.43827160493827,52.17948717948718
15601,Westmoreland County,PA,NA,NA,44.907407407407405,NA
15905,Cambria County,PA,NA,NA,34.5679012345679,NA
15909,Cambria County,PA,NA,NA,NA,94.48717948717949
16002,Butler County,PA,NA,NA,NA,64.87179487179488
16046,Butler County,PA,NA,NA,NA,51.53846153846153
16137,Mercer County,PA,NA,NA,65.12345679012346,NA
16365,Warren County,PA,13.017751479289942,NA,NA,NA
16407,Erie County,PA,NA,NA,96.60493827160494,NA
16428,Erie County,PA,NA,NA,NA,88.46153846153845
16433,Crawford County,PA,NA,NA,NA,97.564102564102555
16505,Erie County,PA,NA,NA,NA,57.692307692307686
16602,Blair County,PA,NA,NA,10.802469135802468,56.41025641025641
16635,Blair County,PA,NA,NA,63.888888888888886,NA
16652,Huntingdon County,PA,NA,NA,51.697530864197525,NA
16701,McKean County,PA,NA,NA,95.06172839506173,NA
17013,Cumberland County,PA,NA,NA,NA,14.102564102564102
17015,Cumberland County,PA,NA,NA,NA,28.589743589743588
17033,Dauphin County,PA,NA,NA,NA,18.71794871794872
17042,Lebanon County,PA,NA,NA,4.938271604938271,NA
17055,Cumberland County,PA,NA,NA,NA,31.92307692307692
17059,Juniata County,PA,NA,75.59523809523809,NA,NA
17202,Franklin County,PA,53.25443786982249,NA,NA,NA
17225,Franklin County,PA,NA,NA,90.27777777777779,NA
17241,Cumberland County,PA,NA,NA,NA,73.58974358974359
17257,Cumberland County,PA,NA,NA,NA,30.512820512820515
17315,York County,PA,NA,89.28571428571429,NA,NA
17404,York County,PA,NA,NA,11.728395061728394,NA
17406,York County,PA,NA,32.142857142857146,NA,NA
17701,Lycoming County,PA,NA,4.761904761904762,NA,NA
17745,Clinton County,PA,NA,NA,NA,77.94871794871796
17801,Northumberland County,PA,NA,NA,18.67283950617284,NA
18018,Lehigh County,PA,NA,NA,7.098765432098765,NA
18052,Lehigh County,PA,NA,NA,NA,56.282051282051285
18069,Lehigh County,PA,NA,NA,NA,92.82051282051282
18088,Northampton County,PA,NA,NA,58.333333333333336,NA
18091,Northampton County,PA,NA,NA,NA,63.33333333333333
18103,Lehigh County,PA,NA,NA,5.092592592592593,NA
18411,Lackawanna County,PA,NA,NA,NA,21.153846153846153
18434,Lackawanna County,PA,NA,NA,98.30246913580247,NA
18472,Wayne County,PA,NA,NA,89.19753086419753,NA
18505,Lackawanna County,PA,NA,NA,NA,46.794871794871796
18512,Lackawanna County,PA,NA,NA,NA,58.97435897435898
18640,Luzerne County,PA,NA,NA,NA,17.435897435897434
18902,Bucks County,PA,NA,NA,NA,72.82051282051282
18938,Bucks County,PA,84.61538461538461,NA,NA,NA
18940,Bucks County,PA,NA,NA,39.660493827160494,47.820512820512825
18976,Bucks County,PA,NA,NA,NA,35.76923076923077
19006,Montgomery County,PA,NA,NA,NA,38.07692307692307
19014,Delaware County,PA,NA,NA,39.96913580246913,NA
19026,Delaware County,PA,47.337278106508876,NA,NA,NA
19032,Delaware County,PA,NA,NA,NA,100
19046,Montgomery County,PA,NA,NA,NA,31.666666666666664
19061,Delaware County,PA,NA,NA,NA,50.51282051282051
19072,Montgomery County,PA,NA,NA,NA,61.794871794871796
19081,Delaware County,PA,NA,NA,NA,93.71794871794872
19083,Delaware County,PA,NA,NA,NA,20
19104,Philadelphia County,PA,NA,NA,16.358024691358025,NA
19115,Philadelphia County,PA,NA,NA,NA,8.58974358974359
19120,Philadelphia County,PA,NA,4.166666666666666,NA,NA
19124,Philadelphia County,PA,NA,NA,9.41358024691358,NA
19128,Philadelphia County,PA,NA,NA,27.00617283950617,NA
19131,Philadelphia County,PA,NA,NA,2.4691358024691357,NA
19133,Philadelphia County,PA,NA,NA,66.0493827160494,NA
19139,Philadelphia County,PA,NA,NA,NA,14.871794871794872
19147,Philadelphia County,PA,62.721893491124256,NA,NA,NA
19148,Philadelphia County,PA,NA,NA,NA,11.025641025641026
19317,Delaware County,PA,NA,NA,NA,72.43589743589743
19320,Chester County,PA,NA,NA,NA,14.615384615384617
19335,Chester County,PA,NA,NA,45.370370370370374,NA
19344,Chester County,PA,NA,NA,NA,73.07692307692307
19380,Chester County,PA,31.360946745562128,NA,4.78395061728395,NA
19390,Chester County,PA,NA,NA,NA,52.05128205128206
19426,Montgomery County,PA,NA,NA,63.580246913580254,NA
19454,Montgomery County,PA,NA,NA,NA,40.256410256410255
19460,Chester County,PA,19.526627218934912,NA,NA,NA
19468,Montgomery County,PA,NA,NA,32.870370370370374,NA
19475,Chester County,PA,NA,NA,NA,69.23076923076923
19522,Berks County,PA,65.08875739644971,NA,NA,NA
19533,Berks County,PA,NA,NA,80.70987654320987,NA
19601,Berks County,PA,NA,NA,12.654320987654321,NA
19606,Berks County,PA,NA,36.30952380952381,NA,NA
02809,Bristol County,RI,NA,NA,NA,33.07692307692307
02816,Kent County,RI,49.112426035502956,NA,NA,NA
02852,Washington County,RI,NA,NA,NA,29.230769230769234
02860,Providence County,RI,61.53846153846154,NA,NA,NA
02863,Providence County,RI,NA,NA,NA,59.1025641025641
02886,Kent County,RI,NA,NA,NA,5.769230769230769
02904,Providence County,RI,NA,NA,NA,14.358974358974358
02915,Providence County,RI,NA,NA,NA,66.66666666666666
29048,Orangeburg County,SC,NA,NA,NA,99.61538461538461
29118,Orangeburg County,SC,NA,NA,98.76543209876543,NA
29170,Lexington County,SC,NA,NA,75.92592592592592,NA
29212,Lexington County,SC,NA,NA,41.04938271604938,NA
29229,Richland County,SC,NA,NA,52.77777777777778,NA
29349,Spartanburg County,SC,NA,NA,NA,19.35897435897436
29388,Spartanburg County,SC,NA,NA,NA,68.84615384615384
29412,Charleston County,SC,NA,NA,NA,9.35897435897436
29414,Charleston County,SC,NA,NA,NA,25.769230769230766
29445,Berkeley County,SC,NA,NA,24.691358024691358,NA
29464,Charleston County,SC,NA,NA,NA,11.538461538461538
29466,Charleston County,SC,NA,NA,48.91975308641975,NA
29488,Colleton County,SC,NA,NA,NA,82.94871794871796
29505,Florence County,SC,NA,NA,NA,40
29566,Horry County,SC,NA,NA,48.76543209876543,NA
29569,Horry County,SC,NA,NA,NA,69.1025641025641
29577,Horry County,SC,NA,58.03571428571429,NA,NA
29585,Georgetown County,SC,NA,NA,NA,31.28205128205128
29588,Horry County,SC,NA,33.92857142857143,NA,NA
29620,Abbeville County,SC,NA,NA,63.117283950617285,NA
29630,Pickens County,SC,NA,NA,NA,89.23076923076924
29651,Greenville County,SC,NA,NA,46.141975308641975,NA
29669,Anderson County,SC,NA,58.333333333333336,NA,NA
29702,Cherokee County,SC,NA,NA,NA,84.35897435897436
29720,Lancaster County,SC,NA,NA,27.469135802469136,NA
29851,Aiken County,SC,79.88165680473372,NA,NA,NA
57042,Lake County,SD,NA,NA,NA,36.53846153846153
57201,Codington County,SD,NA,NA,60.64814814814815,NA
57350,Beadle County,SD,NA,NA,NA,35.256410256410255
57555,Todd County,SD,NA,94.94047619047619,NA,NA
57702,Pennington County,SD,NA,NA,NA,35
57703,Pennington County,SD,NA,64.28571428571429,NA,NA
37055,Dickson County,TN,NA,NA,40.586419753086425,NA
37066,Sumner County,TN,NA,NA,7.561728395061729,NA
37072,Davidson County,TN,NA,NA,NA,87.6923076923077
37075,Sumner County,TN,NA,13.988095238095239,5.246913580246913,NA
37083,Macon County,TN,NA,NA,31.790123456790127,NA
37086,Rutherford County,TN,26.627218934911244,NA,NA,NA
37087,Wilson County,TN,NA,NA,NA,24.487179487179485
37090,Wilson County,TN,NA,NA,NA,80
37091,Marshall County,TN,NA,37.5,NA,NA
37130,Rutherford County,TN,NA,NA,NA,32.82051282051282
37138,Davidson County,TN,NA,NA,NA,63.84615384615384
37146,Cheatham County,TN,NA,90.77380952380952,NA,NA
37148,Sumner County,TN,NA,NA,42.28395061728395,NA
37172,Robertson County,TN,NA,NA,NA,52.69230769230769
37185,Humphreys County,TN,NA,NA,80.8641975308642,NA
37186,Sumner County,TN,NA,NA,78.39506172839506,NA
37187,Dickson County,TN,NA,70.83333333333334,NA,NA
37203,Davidson County,TN,NA,NA,65.74074074074075,NA
37205,Davidson County,TN,89.3491124260355,NA,NA,NA
37322,Meigs County,TN,NA,NA,NA,92.3076923076923
37343,Hamilton County,TN,NA,NA,19.753086419753085,NA
37354,Monroe County,TN,NA,34.226190476190474,NA,NA
37363,Hamilton County,TN,NA,39.88095238095239,NA,NA
37615,Washington County,TN,NA,NA,NA,58.84615384615385
37640,Johnson County,TN,NA,99.10714285714286,NA,NA
37664,Sullivan County,TN,NA,NA,44.44444444444444,22.94871794871795
37683,Johnson County,TN,NA,NA,58.95061728395061,NA
37721,Knox County,TN,NA,NA,NA,79.35897435897435
37748,Roane County,TN,NA,NA,NA,74.35897435897436
37774,Loudon County,TN,NA,NA,NA,25.384615384615383
37804,Blount County,TN,NA,NA,NA,25
37862,Sevier County,TN,NA,35.41666666666667,NA,NA
37871,Jefferson County,TN,NA,NA,70.06172839506173,NA
37874,Monroe County,TN,NA,NA,NA,55.25641025641026
37877,Hamblen County,TN,NA,NA,85.80246913580247,NA
37921,Knox County,TN,NA,NA,NA,76.02564102564102
37931,Knox County,TN,NA,NA,NA,54.1025641025641
38016,Shelby County,TN,43.19526627218935,NA,NA,NA
38111,Shelby County,TN,NA,19.345238095238095,NA,NA
38201,Carroll County,TN,NA,NA,NA,94.74358974358974
38301,Madison County,TN,1.183431952662722,NA,NA,NA
38330,Gibson County,TN,NA,93.15476190476191,NA,NA
38401,Maury County,TN,NA,NA,NA,16.153846153846153
38474,Maury County,TN,NA,NA,NA,91.66666666666666
38563,Smith County,TN,NA,NA,100,NA
38571,Cumberland County,TN,NA,52.083333333333336,41.2037037037037,NA
38572,Cumberland County,TN,95.26627218934911,NA,NA,NA
38583,White County,TN,NA,NA,27.9320987654321,NA
75024,Collin County,TX,NA,NA,75.46296296296296,NA
75034,Denton County,TX,NA,NA,27.469135802469136,NA
75044,Dallas County,TX,NA,NA,28.240740740740737,NA
75060,Dallas County,TX,NA,NA,38.117283950617285,NA
75061,Dallas County,TX,NA,NA,90.12345679012346,NA
75069,Collin County,TX,NA,47.023809523809526,NA,NA
75077,Denton County,TX,NA,NA,47.53086419753087,NA
75098,Collin County,TX,NA,NA,35.49382716049383,NA
75110,Navarro County,TX,NA,NA,NA,36.666666666666664
75146,Dallas County,TX,30.17751479289941,NA,NA,NA
75152,Ellis County,TX,NA,98.21428571428571,NA,NA
75154,Ellis County,TX,18.34319526627219,NA,NA,NA
75217,Dallas County,TX,NA,NA,NA,36.794871794871796
75227,Dallas County,TX,NA,NA,33.33333333333333,NA
75230,Dallas County,TX,NA,NA,43.98148148148148,NA
75232,Dallas County,TX,36.68639053254438,NA,NA,NA
75241,Dallas County,TX,NA,20.238095238095237,NA,NA
75252,Collin County,TX,NA,NA,94.1358024691358,49.1025641025641
75407,Collin County,TX,NA,NA,66.35802469135803,NA
75570,Bowie County,TX,NA,NA,NA,89.35897435897436
75652,Rusk County,TX,NA,NA,NA,73.71794871794873
75703,Smith County,TX,NA,NA,NA,1.5384615384615385
75754,Van Zandt County,TX,NA,NA,NA,80.38461538461539
75762,Smith County,TX,NA,NA,49.84567901234568,NA
75766,Cherokee County,TX,10.059171597633137,NA,NA,NA
75901,Angelina County,TX,51.4792899408284,NA,NA,NA
75951,Jasper County,TX,NA,47.91666666666667,NA,NA
75965,Nacogdoches County,TX,NA,NA,NA,57.820512820512825
76028,Johnson County,TX,NA,NA,3.0864197530864197,NA
76044,Johnson County,TX,NA,97.61904761904762,NA,NA
76048,Hood County,TX,NA,NA,NA,75.25641025641025
76054,Tarrant County,TX,NA,NA,73.91975308641975,NA
76058,Johnson County,TX,NA,NA,91.66666666666666,NA
76082,Parker County,TX,NA,NA,NA,85.76923076923076
76109,Tarrant County,TX,NA,55.35714285714286,NA,NA
76120,Tarrant County,TX,69.23076923076923,NA,NA,NA
76133,Tarrant County,TX,NA,NA,NA,18.461538461538463
76179,Tarrant County,TX,NA,NA,NA,56.666666666666664
76182,Tarrant County,TX,NA,NA,33.0246913580247,52.820512820512825
76227,Denton County,TX,NA,NA,74.38271604938271,NA
76305,Wichita County,TX,92.89940828402366,NA,NA,NA
76401,Erath County,TX,NA,NA,NA,46.15384615384615
76424,Stephens County,TX,NA,66.36904761904762,NA,NA
76426,Wise County,TX,NA,83.63095238095238,NA,57.56410256410256
76504,Bell County,TX,5.9171597633136095,NA,NA,NA
76513,Bell County,TX,NA,NA,NA,37.94871794871795
76531,Hamilton County,TX,NA,NA,94.29012345679013,NA
76542,Bell County,TX,NA,NA,21.75925925925926,NA
76550,Lampasas County,TX,NA,60.416666666666664,NA,NA
76655,McLennan County,TX,NA,NA,78.08641975308642,NA
76904,Tom Green County,TX,NA,NA,36.26543209876543,NA
77007,Harris County,TX,NA,49.702380952380956,NA,NA
77023,Harris County,TX,NA,56.547619047619044,NA,NA
77025,Harris County,TX,56.213017751479285,NA,NA,NA
77027,Harris County,TX,NA,NA,90.89506172839506,NA
77028,Harris County,TX,NA,47.61904761904761,NA,NA
77033,Harris County,TX,NA,NA,52.623456790123456,NA
77036,Harris County,TX,NA,NA,NA,50.51282051282051
77049,Harris County,TX,44.37869822485207,NA,NA,NA
77061,Harris County,TX,39.053254437869825,NA,NA,NA
77082,Harris County,TX,NA,NA,NA,57.820512820512825
77084,Harris County,TX,NA,NA,20.98765432098765,65.12820512820512
77304,Montgomery County,TX,NA,NA,51.54320987654321,NA
77339,Harris County,TX,NA,NA,NA,30.256410256410255
77355,Montgomery County,TX,NA,NA,NA,76.02564102564102
77365,Montgomery County,TX,24.85207100591716,NA,NA,NA
77373,Harris County,TX,NA,NA,26.543209876543212,70
77382,Montgomery County,TX,NA,60.71428571428571,NA,NA
77385,Montgomery County,TX,37.278106508875744,NA,NA,NA
77489,Fort Bend County,TX,52.071005917159766,NA,NA,NA
77511,Brazoria County,TX,NA,NA,NA,50
77539,Galveston County,TX,NA,NA,NA,27.05128205128205
77541,Brazoria County,TX,NA,NA,NA,87.82051282051282
77546,Galveston County,TX,NA,NA,10.030864197530864,27.94871794871795
77573,Galveston County,TX,2.366863905325444,NA,NA,NA
77583,Brazoria County,TX,NA,NA,67.12962962962963,NA
77584,Brazoria County,TX,NA,NA,18.51851851851852,NA
77586,Harris County,TX,NA,82.73809523809523,NA,NA
77611,Orange County,TX,NA,NA,81.94444444444444,NA
77657,Hardin County,TX,NA,NA,84.72222222222221,NA
77705,Jefferson County,TX,NA,41.964285714285715,NA,NA
77836,Burleson County,TX,59.76331360946746,NA,NA,NA
77901,Victoria County,TX,NA,NA,NA,22.17948717948718
77954,DeWitt County,TX,NA,NA,NA,53.333333333333336
77979,Calhoun County,TX,NA,NA,NA,55.8974358974359
78028,Kerr County,TX,NA,65.77380952380952,NA,NA
78041,Webb County,TX,NA,NA,NA,23.333333333333332
78046,Webb County,TX,1.7751479289940828,NA,NA,NA
78063,Bandera County,TX,NA,86.01190476190477,NA,NA
78114,Wilson County,TX,NA,52.38095238095239,NA,71.53846153846153
78148,Bexar County,TX,NA,NA,92.12962962962963,NA
78203,Bexar County,TX,NA,NA,NA,94.23076923076923
78209,Bexar County,TX,NA,NA,NA,37.69230769230769
78216,Bexar County,TX,NA,NA,58.64197530864198,NA
78217,Bexar County,TX,NA,NA,62.65432098765432,NA
78221,Bexar County,TX,NA,NA,NA,81.41025641025641
78225,Bexar County,TX,NA,83.92857142857143,NA,NA
78228,Bexar County,TX,NA,25.892857142857146,NA,NA
78242,Bexar County,TX,NA,46.42857142857143,NA,NA
78254,Bexar County,TX,NA,NA,NA,71.7948717948718
78416,Nueces County,TX,NA,NA,NA,67.56410256410257
78537,Hidalgo County,TX,NA,NA,37.191358024691354,NA
78539,Hidalgo County,TX,NA,NA,63.27160493827161,NA
78560,Hidalgo County,TX,NA,94.34523809523809,NA,NA
78570,Hidalgo County,TX,NA,NA,NA,93.2051282051282
78578,Cameron County,TX,NA,NA,87.80864197530865,NA
78586,Cameron County,TX,NA,NA,43.05555555555556,NA
78596,Hidalgo County,TX,NA,NA,NA,27.692307692307693
78611,Burnet County,TX,NA,NA,NA,49.48717948717949
78621,Bastrop County,TX,NA,NA,NA,72.564102564102555
78643,Llano County,TX,NA,NA,NA,53.46153846153846
78666,Hays County,TX,NA,NA,NA,90.8974358974359
78676,Hays County,TX,99.40828402366864,NA,NA,NA
78724,Travis County,TX,NA,NA,NA,89.74358974358975
78727,Travis County,TX,81.65680473372781,NA,NA,NA
78732,Travis County,TX,NA,93.75,NA,NA
78735,Travis County,TX,NA,NA,NA,77.6923076923077
78744,Travis County,TX,NA,61.011904761904766,NA,NA
78852,Maverick County,TX,NA,NA,NA,52.56410256410257
78957,Bastrop County,TX,NA,83.33333333333334,NA,NA
79119,Randall County,TX,NA,NA,NA,88.84615384615384
79416,Lubbock County,TX,NA,NA,54.78395061728395,NA
79423,Lubbock County,TX,66.27218934911244,NA,NA,NA
79707,Midland County,TX,NA,NA,NA,74.23076923076923
79924,El Paso County,TX,10.650887573964498,NA,NA,NA
79925,El Paso County,TX,NA,NA,NA,29.35897435897436
79932,El Paso County,TX,NA,NA,72.53086419753086,NA
79934,El Paso County,TX,NA,NA,NA,97.43589743589743
84009,Salt Lake County,UT,NA,NA,NA,78.46153846153847
84010,Davis County,UT,39.64497041420118,NA,NA,NA
84029,Tooele County,UT,NA,55.654761904761905,NA,NA
84040,Davis County,UT,NA,NA,83.17901234567901,NA
84043,Utah County,UT,16.56804733727811,NA,NA,NA
84074,Tooele County,UT,NA,37.202380952380956,NA,NA
84093,Salt Lake County,UT,NA,NA,48.30246913580247,NA
84105,Salt Lake County,UT,77.51479289940828,NA,NA,NA
84111,Salt Lake County,UT,NA,NA,NA,90
84321,Cache County,UT,13.609467455621301,NA,NA,NA
84403,Weber County,UT,NA,NA,59.5679012345679,NA
84405,Weber County,UT,NA,NA,NA,58.71794871794872
84765,Washington County,UT,98.22485207100591,NA,NA,NA
84770,Washington County,UT,NA,NA,NA,29.743589743589745
05143,Windsor County,VT,NA,NA,99.38271604938271,NA
05482,Chittenden County,VT,NA,NA,NA,58.333333333333336
05819,Caledonia County,VT,NA,NA,NA,64.61538461538461
20120,Fairfax County,VA,60.35502958579882,NA,NA,NA
20191,Fairfax County,VA,NA,NA,NA,79.87179487179488
22015,Fairfax County,VA,47.928994082840234,NA,NA,NA
22025,Prince William County,VA,NA,83.03571428571429,NA,NA
22191,Prince William County,VA,NA,15.178571428571427,NA,NA
22306,Fairfax County,VA,NA,NA,NA,67.56410256410257
22508,Orange County,VA,NA,NA,75.61728395061729,NA
22602,Frederick County,VA,NA,NA,NA,51.41025641025641
22656,Frederick County,VA,NA,97.91666666666666,NA,NA
22701,Culpeper County,VA,NA,NA,NA,24.871794871794872
22901,Albemarle County,VA,NA,NA,26.69753086419753,NA
22902,Charlottesville city,VA,NA,NA,NA,72.82051282051282
22911,Albemarle County,VA,NA,68.15476190476191,NA,NA
23113,Chesterfield County,VA,NA,NA,NA,46.282051282051285
23150,Henrico County,VA,NA,NA,98.91975308641975,65.51282051282051
23225,Richmond city,VA,NA,12.202380952380953,NA,25.256410256410255
23234,Chesterfield County,VA,NA,16.964285714285715,NA,NA
23322,Chesapeake city,VA,NA,NA,21.296296296296298,NA
23434,Suffolk city,VA,NA,NA,8.796296296296296,NA
23456,Virginia Beach city,VA,NA,NA,NA,10.64102564102564
23464,Virginia Beach city,VA,NA,14.285714285714285,NA,NA
23503,Norfolk city,VA,NA,NA,NA,62.05128205128205
23518,Norfolk city,VA,NA,NA,NA,13.333333333333334
23606,Newport News city,VA,NA,NA,26.080246913580247,NA
23669,Hampton city,VA,NA,NA,NA,6.666666666666667
23803,Petersburg city,VA,18.93491124260355,NA,NA,NA
23805,Petersburg city,VA,NA,NA,NA,89.61538461538461
23842,Prince George County,VA,NA,NA,NA,98.2051282051282
24012,Roanoke city,VA,NA,NA,NA,26.794871794871796
24084,Pulaski County,VA,NA,NA,NA,81.92307692307692
24134,Giles County,VA,NA,NA,NA,92.17948717948717
24148,Henry County,VA,NA,NA,79.93827160493827,NA
24153,Salem city,VA,NA,29.761904761904763,NA,NA
24201,Bristol city,VA,NA,44.345238095238095,NA,NA
24202,Washington County,VA,NA,62.5,NA,NA
24251,Scott County,VA,NA,NA,NA,88.2051282051282
24343,Carroll County,VA,NA,NA,68.82716049382715,NA
24382,Wythe County,VA,NA,NA,NA,68.33333333333333
24401,Staunton city,VA,NA,NA,NA,3.974358974358974
24426,Alleghany County,VA,NA,NA,44.135802469135804,NA
24504,Lynchburg city,VA,NA,NA,69.75308641975309,NA
24551,Bedford County,VA,91.12426035502959,NA,NA,51.66666666666667
98007,King County,WA,NA,NA,75,NA
98026,Snohomish County,WA,NA,30.059523809523807,NA,82.17948717948718
98027,King County,WA,NA,NA,40.89506172839506,52.307692307692314
98034,King County,WA,46.74556213017752,NA,NA,NA
98036,Snohomish County,WA,50.887573964497044,NA,37.808641975308646,NA
98042,King County,WA,15.384615384615385,NA,NA,NA
98052,King County,WA,55.62130177514793,NA,NA,NA
98056,King County,WA,NA,NA,82.09876543209876,NA
98072,King County,WA,NA,NA,NA,55.12820512820513
98104,King County,WA,NA,NA,NA,56.15384615384615
98105,King County,WA,NA,75,NA,NA
98106,King County,WA,NA,NA,64.35185185185185,NA
98108,King County,WA,NA,NA,61.26543209876543,NA
98112,King County,WA,NA,NA,NA,59.87179487179487
98115,King County,WA,NA,84.22619047619048,NA,NA
98122,King County,WA,NA,NA,72.68518518518519,NA
98166,King County,WA,NA,NA,79.62962962962963,NA
98178,King County,WA,NA,NA,NA,80.64102564102565
98232,Skagit County,WA,NA,99.70238095238095,NA,NA
98296,Snohomish County,WA,NA,NA,64.35185185185185,NA
98310,Kitsap County,WA,NA,NA,62.34567901234568,NA
98338,Pierce County,WA,NA,NA,31.635802469135804,NA
98362,Clallam County,WA,NA,30.357142857142854,NA,NA
98372,Pierce County,WA,NA,NA,56.481481481481474,NA
98382,Clallam County,WA,NA,NA,38.88888888888889,0.641025641025641
98387,Pierce County,WA,17.75147928994083,NA,21.141975308641975,NA
98404,Pierce County,WA,NA,NA,NA,75.51282051282051
98444,Pierce County,WA,NA,NA,NA,63.46153846153846
98498,Pierce County,WA,NA,53.273809523809526,NA,NA
98502,Thurston County,WA,NA,NA,NA,41.15384615384615
98516,Thurston County,WA,NA,NA,68.82716049382715,NA
98577,Pacific County,WA,NA,NA,78.24074074074075,NA
98612,Wahkiakum County,WA,NA,NA,92.90123456790124,NA
98661,Clark County,WA,NA,NA,69.29012345679013,NA
98841,Okanogan County,WA,NA,NA,67.43827160493827,NA
99141,Stevens County,WA,NA,95.23809523809523,NA,NA
99202,Spokane County,WA,49.112426035502956,NA,NA,NA
99354,Benton County,WA,NA,NA,NA,55.51282051282052
20019,District of Columbia,DC,NA,4.464285714285714,3.7037037037037033,NA
25053,Boone County,WV,NA,NA,NA,96.53846153846153
25071,Kanawha County,WV,NA,52.67857142857143,NA,NA
25302,Kanawha County,WV,NA,NA,NA,51.02564102564102
25387,Kanawha County,WV,NA,71.72619047619048,NA,NA
25443,Jefferson County,WV,NA,NA,NA,77.17948717948718
25510,Cabell County,WV,NA,NA,94.44444444444444,NA
25705,Cabell County,WV,NA,15.773809523809524,NA,60.128205128205124
26003,Ohio County,WV,NA,NA,NA,2.1794871794871793
26452,Lewis County,WV,NA,NA,NA,60.641025641025635
26508,Monongalia County,WV,NA,NA,NA,12.564102564102564
53005,Waukesha County,WI,NA,NA,46.2962962962963,NA
53051,Waukesha County,WI,NA,NA,23.14814814814815,NA
53095,Washington County,WI,NA,NA,NA,21.923076923076923
53140,Kenosha County,WI,NA,NA,NA,21.41025641025641
53144,Kenosha County,WI,NA,45.83333333333333,NA,NA
53151,Waukesha County,WI,NA,NA,NA,48.84615384615385
53154,Milwaukee County,WI,NA,NA,NA,28.846153846153843
53168,Kenosha County,WI,68.63905325443787,NA,NA,NA
53202,Milwaukee County,WI,NA,NA,42.129629629629626,NA
53212,Milwaukee County,WI,NA,NA,12.962962962962962,NA
53214,Milwaukee County,WI,NA,NA,NA,19.871794871794872
53220,Milwaukee County,WI,NA,NA,23.456790123456788,NA
53225,Milwaukee County,WI,NA,NA,NA,61.53846153846154
53406,Racine County,WI,NA,NA,NA,86.66666666666667
53520,Green County,WI,NA,NA,NA,25.64102564102564
53528,Dane County,WI,NA,NA,NA,97.82051282051282
53545,Rock County,WI,NA,32.73809523809524,NA,NA
53548,Rock County,WI,NA,NA,24.382716049382715,NA
53551,Jefferson County,WI,NA,NA,NA,95.25641025641025
53589,Dane County,WI,NA,NA,34.10493827160494,83.33333333333334
53704,Dane County,WI,NA,NA,14.969135802469136,NA
53711,Dane County,WI,14.201183431952662,NA,NA,NA
53719,Dane County,WI,NA,NA,NA,56.92307692307692
53913,Sauk County,WI,NA,36.01190476190476,NA,NA
53954,Columbia County,WI,NA,90.17857142857143,NA,NA
53959,Sauk County,WI,NA,NA,NA,53.58974358974359
54016,St. Croix County,WI,NA,44.94047619047619,NA,NA
54022,Pierce County,WI,NA,51.19047619047619,NA,NA
54115,Brown County,WI,NA,NA,NA,18.205128205128204
54153,Oconto County,WI,NA,NA,93.82716049382715,NA
54217,Kewaunee County,WI,NA,NA,NA,83.2051282051282
54220,Manitowoc County,WI,NA,NA,NA,7.051282051282051
54301,Brown County,WI,NA,NA,98.4567901234568,NA
54401,Marathon County,WI,NA,NA,NA,12.82051282051282
54451,Taylor County,WI,NA,NA,NA,83.46153846153847
54481,Portage County,WI,NA,NA,NA,70.51282051282051
54482,Portage County,WI,NA,NA,NA,55.769230769230774
54603,La Crosse County,WI,NA,NA,22.376543209876544,NA
54660,Monroe County,WI,NA,NA,45.06172839506173,NA
54703,Eau Claire County,WI,NA,NA,NA,30.128205128205128
54724,Chippewa County,WI,NA,85.11904761904762,NA,NA
54868,Barron County,WI,NA,NA,NA,83.58974358974359
54902,Winnebago County,WI,NA,NA,NA,33.205128205128204
54911,Outagamie County,WI,NA,NA,NA,64.1025641025641
54935,Fond du Lac County,WI,NA,NA,11.574074074074074,NA
54942,Outagamie County,WI,NA,91.36904761904762,NA,NA
54961,Waupaca County,WI,NA,NA,NA,81.7948717948718
82009,Laramie County,WY,NA,NA,54.166666666666664,NA
82414,Park County,WY,NA,NA,39.81481481481482,NA
82601,Natrona County,WY,NA,NA,NA,62.94871794871795
82604,Natrona County,WY,NA,NA,NA,53.205128205128204
82609,Natrona County,WY,NA,NA,92.43827160493827,NA
