ZipCode,county,state,Adult,Retirement,Geriatric
35064,Jefferson County,AL,59.08045977011495,NA,NA
35118,Jefferson County,AL,91.0344827586207,NA,NA
35126,Jefferson County,AL,NA,54.51713395638629,NA
35207,Jefferson County,AL,68.50574712643677,NA,NA
35208,Jefferson County,AL,86.4367816091954,NA,NA
35214,Jefferson County,AL,37.24137931034483,NA,NA
35217,Jefferson County,AL,51.03448275862069,NA,NA
35235,Jefferson County,AL,87.1264367816092,NA,NA
35603,Morgan County,AL,20,NA,NA
35613,Limestone County,AL,45.28735632183908,NA,NA
35633,Lauderdale County,AL,78.62068965517241,NA,NA
35650,Lawrence County,AL,NA,NA,43.41463414634146
35670,Morgan County,AL,77.01149425287356,NA,NA
35749,Madison County,AL,NA,84.42367601246106,NA
36037,Butler County,AL,NA,NA,81.46341463414633
36301,Houston County,AL,22.988505747126435,NA,NA
36853,Tallapoosa County,AL,NA,83.8006230529595,77.5609756097561
99504,Anchorage Municipality,AK,71.03448275862068,NA,NA
99701,Fairbanks North Star Borough,AK,NA,75.0778816199377,NA
85207,Maricopa County,AZ,30.344827586206897,NA,NA
85225,Maricopa County,AZ,14.482758620689657,NA,NA
85302,Maricopa County,AZ,80.22988505747126,65.42056074766354,NA
85331,Maricopa County,AZ,NA,84.11214953271028,NA
85364,Yuma County,AZ,NA,3.4267912772585665,NA
85382,Maricopa County,AZ,NA,NA,19.024390243902438
85383,Maricopa County,AZ,31.95402298850575,NA,NA
85614,Pima County,AZ,NA,21.806853582554517,NA
85615,Cochise County,AZ,89.65517241379311,NA,NA
85706,Pima County,AZ,2.528735632183908,NA,NA
85716,Pima County,AZ,66.66666666666666,NA,NA
85730,Pima County,AZ,30.574712643678158,NA,NA
85746,Pima County,AZ,15.172413793103448,NA,NA
72019,Saline County,AR,87.356321839080465,NA,38.048780487804876
72401,Craighead County,AR,NA,NA,20.48780487804878
72753,Washington County,AR,NA,95.32710280373831,NA
90005,Los Angeles County,CA,NA,NA,67.31707317073172
90006,Los Angeles County,CA,NA,NA,82.92682926829268
90007,Los Angeles County,CA,60.689655172413794,NA,NA
90008,Los Angeles County,CA,NA,NA,32.19512195121951
90018,Los Angeles County,CA,40.229885057471265,NA,NA
90023,Los Angeles County,CA,80,NA,NA
90035,Los Angeles County,CA,NA,39.56386292834891,NA
90043,Los Angeles County,CA,48.04597701149425,NA,NA
90047,Los Angeles County,CA,19.770114942528735,NA,NA
90094,Los Angeles County,CA,97.93103448275862,NA,NA
90201,Los Angeles County,CA,NA,38.940809968847354,NA
90270,Los Angeles County,CA,82.29885057471265,NA,NA
90292,Los Angeles County,CA,NA,59.50155763239875,NA
90301,Los Angeles County,CA,38.85057471264368,NA,NA
90503,Los Angeles County,CA,51.49425287356322,NA,NA
90602,Los Angeles County,CA,62.98850574712643,NA,NA
90660,Los Angeles County,CA,32.87356321839081,NA,NA
90815,Los Angeles County,CA,51.724137931034484,NA,NA
91304,Los Angeles County,CA,NA,56.074766355140184,NA
91352,Los Angeles County,CA,NA,47.35202492211838,NA
91364,Los Angeles County,CA,NA,NA,44.87804878048781
91390,Los Angeles County,CA,NA,97.19626168224299,NA
91401,Los Angeles County,CA,NA,35.202492211838006,NA
91605,Los Angeles County,CA,49.88505747126437,NA,NA
91706,Los Angeles County,CA,74.02298850574712,NA,NA
91737,San Bernardino County,CA,NA,NA,78.53658536585367
91750,Los Angeles County,CA,NA,43.925233644859816,NA
91763,San Bernardino County,CA,64.59770114942529,NA,NA
91792,Los Angeles County,CA,NA,NA,68.78048780487805
91911,San Diego County,CA,28.965517241379313,20.5607476635514,NA
92008,San Diego County,CA,NA,65.73208722741433,NA
92021,San Diego County,CA,NA,16.510903426791277,NA
92058,San Diego County,CA,84.59770114942529,NA,NA
92124,San Diego County,CA,NA,78.50467289719626,NA
92253,Riverside County,CA,NA,NA,14.146341463414632
92260,Riverside County,CA,NA,51.09034267912772,NA
92270,Riverside County,CA,NA,NA,2.9268292682926833
92277,San Bernardino County,CA,71.49425287356321,NA,NA
92301,San Bernardino County,CA,NA,50.155763239875384,NA
92313,San Bernardino County,CA,NA,NA,92.6829268292683
92324,San Bernardino County,CA,54.02298850574713,77.57009345794393,NA
92337,San Bernardino County,CA,57.701149425287355,NA,NA
92346,San Bernardino County,CA,NA,48.90965732087228,NA
92373,San Bernardino County,CA,68.50574712643677,NA,NA
92411,San Bernardino County,CA,NA,43.613707165109034,NA
92555,Riverside County,CA,57.931034482758626,NA,76.09756097560975
92557,Riverside County,CA,NA,NA,64.8780487804878
92630,Orange County,CA,NA,20.24922118380062,NA
92656,Orange County,CA,NA,81.61993769470405,NA
92705,Orange County,CA,NA,57.009345794392516,NA
92801,Orange County,CA,66.20689655172414,NA,NA
92802,Orange County,CA,NA,45.794392523364486,NA
93313,Kern County,CA,53.103448275862064,NA,NA
93436,Santa Barbara County,CA,NA,18.38006230529595,NA
93455,Santa Barbara County,CA,37.01149425287356,NA,NA
93535,Los Angeles County,CA,10.344827586206897,NA,NA
93550,Los Angeles County,CA,60.91954022988506,NA,NA
93555,Kern County,CA,NA,22.118380062305295,NA
93640,Fresno County,CA,NA,96.57320872274143,NA
93703,Fresno County,CA,NA,63.55140186915887,NA
93711,Fresno County,CA,67.1264367816092,NA,NA
93726,Fresno County,CA,26.89655172413793,NA,NA
93737,Fresno County,CA,97.01149425287356,NA,NA
93907,Monterey County,CA,NA,NA,70.73170731707317
93923,Monterey County,CA,91.26436781609195,NA,NA
93950,Monterey County,CA,NA,NA,58.536585365853654
94015,San Mateo County,CA,NA,43.30218068535825,NA
94040,Santa Clara County,CA,NA,80.68535825545172,NA
94044,San Mateo County,CA,NA,81.93146417445483,NA
94063,San Mateo County,CA,92.18390804597702,NA,NA
94087,Santa Clara County,CA,NA,54.51713395638629,NA
94123,San Francisco County,CA,98.85057471264368,NA,NA
94134,San Francisco County,CA,86.20689655172413,NA,NA
94158,San Francisco County,CA,90.3448275862069,NA,NA
94301,Santa Clara County,CA,NA,NA,60.48780487804878
94501,Alameda County,CA,NA,48.28660436137071,NA
94513,Contra Costa County,CA,38.62068965517241,NA,NA
94541,Alameda County,CA,NA,NA,98.53658536585365
94542,Alameda County,CA,NA,NA,93.65853658536587
94546,Alameda County,CA,NA,87.85046728971963,NA
94565,Contra Costa County,CA,NA,38.31775700934579,NA
94591,Solano County,CA,NA,NA,24.878048780487806
94601,Alameda County,CA,46.89655172413793,NA,NA
94603,Alameda County,CA,49.42528735632184,NA,NA
94611,Alameda County,CA,61.37931034482759,NA,NA
94928,Sonoma County,CA,NA,46.728971962616825,NA
95008,Santa Clara County,CA,NA,52.336448598130836,NA
95121,Santa Clara County,CA,NA,61.059190031152646,NA
95129,Santa Clara County,CA,81.60919540229885,NA,NA
95209,San Joaquin County,CA,NA,NA,61.951219512195124
95210,San Joaquin County,CA,41.60919540229885,NA,NA
95404,Sonoma County,CA,70.57471264367817,NA,NA
95648,Placer County,CA,NA,28.037383177570092,NA
95821,Sacramento County,CA,46.206896551724135,NA,NA
95901,Yuba County,CA,28.735632183908045,NA,NA
80012,Arapahoe County,CO,NA,NA,22.926829268292686
80022,Adams County,CO,NA,41.74454828660436,NA
80027,Boulder County,CO,NA,57.63239875389408,NA
80203,Denver County,CO,70.34482758620689,NA,NA
80210,Denver County,CO,78.39080459770115,59.813084112149525,NA
80214,Jefferson County,CO,NA,NA,74.14634146341463
80229,Adams County,CO,17.24137931034483,NA,NA
80233,Adams County,CO,31.264367816091955,NA,NA
80302,Boulder County,CO,NA,72.89719626168224,NA
80504,Boulder County,CO,NA,26.479750778816197,NA
80634,Weld County,CO,NA,79.75077881619937,NA
81623,Garfield County,CO,86.66666666666667,NA,NA
06002,Hartford County,CT,NA,32.087227414330215,NA
06029,Tolland County,CT,NA,68.84735202492212,NA
06066,Tolland County,CT,21.839080459770116,NA,NA
06105,Hartford County,CT,NA,NA,53.170731707317074
06108,Hartford County,CT,34.71264367816092,NA,NA
06112,Hartford County,CT,20.689655172413794,NA,NA
06118,Hartford County,CT,29.42528735632184,NA,NA
06260,Windham County,CT,63.9080459770115,NA,NA
06457,Middlesex County,CT,NA,9.345794392523365,NA
06460,New Haven County,CT,61.149425287356316,NA,NA
06473,New Haven County,CT,69.42528735632185,NA,NA
06513,New Haven County,CT,NA,10.2803738317757,NA
06810,Fairfield County,CT,NA,22.741433021806852,NA
19804,New Castle County,DE,NA,NA,59.02439024390244
19805,New Castle County,DE,2.9885057471264367,9.657320872274143,NA
19808,New Castle County,DE,NA,23.67601246105919,NA
19938,Kent County,DE,65.74712643678161,NA,NA
32025,Columbia County,FL,40.91954022988506,NA,NA
32054,Union County,FL,76.55172413793103,NA,NA
32174,Volusia County,FL,NA,NA,12.682926829268293
32210,Duval County,FL,4.597701149425287,NA,NA
32433,Walton County,FL,57.931034482758626,NA,NA
32526,Escambia County,FL,NA,NA,11.707317073170733
32550,Walton County,FL,NA,58.56697819314641,NA
32566,Santa Rosa County,FL,NA,24.610591900311526,NA
32578,Okaloosa County,FL,NA,76.63551401869158,NA
32583,Santa Rosa County,FL,30.804597701149426,NA,NA
32606,Alachua County,FL,38.39080459770115,NA,NA
32703,Orange County,FL,28.50574712643678,NA,NA
32724,Volusia County,FL,NA,63.862928348909655,NA
32725,Volusia County,FL,NA,41.1214953271028,NA
32738,Volusia County,FL,NA,NA,51.21951219512195
32780,Brevard County,FL,43.44827586206896,NA,NA
32808,Orange County,FL,19.310344827586206,NA,NA
32935,Brevard County,FL,NA,45.482866043613704,NA
32953,Brevard County,FL,NA,22.429906542056074,NA
33018,Miami-Dade County,FL,NA,60.12461059190031,47.3170731707317
33025,Broward County,FL,62.29885057471264,NA,NA
33066,Broward County,FL,NA,NA,23.414634146341466
33129,Miami-Dade County,FL,94.02298850574712,NA,NA
33132,Miami-Dade County,FL,95.63218390804597,NA,NA
33175,Miami-Dade County,FL,NA,25.85669781931464,NA
33430,Palm Beach County,FL,52.41379310344828,NA,NA
33433,Palm Beach County,FL,58.39080459770115,NA,80
33445,Palm Beach County,FL,71.72413793103448,NA,NA
33446,Palm Beach County,FL,NA,33.95638629283489,NA
33617,Hillsborough County,FL,37.93103448275862,NA,NA
33618,Hillsborough County,FL,NA,82.2429906542056,NA
33767,Pinellas County,FL,91.49425287356323,NA,NA
33860,Polk County,FL,NA,66.97819314641744,NA
33919,Lee County,FL,NA,NA,4.878048780487805
34113,Collier County,FL,77.70114942528735,NA,NA
34234,Sarasota County,FL,NA,45.17133956386293,38.53658536585366
34608,Hernando County,FL,41.839080459770116,NA,NA
34655,Pasco County,FL,NA,28.66043613707165,NA
34787,Orange County,FL,NA,NA,56.58536585365853
34952,St. Lucie County,FL,NA,NA,11.219512195121952
34953,St. Lucie County,FL,5.747126436781609,NA,55.1219512195122
34972,Okeechobee County,FL,NA,80.06230529595015,NA
34984,St. Lucie County,FL,NA,99.37694704049844,NA
34997,Martin County,FL,34.02298850574713,NA,NA
30009,Fulton County,GA,NA,77.88161993769471,NA
30011,Barrow County,GA,70.80459770114943,NA,NA
30040,Forsyth County,GA,NA,21.49532710280374,NA
30044,Gwinnett County,GA,24.597701149425287,NA,NA
30058,DeKalb County,GA,25.287356321839084,NA,NA
30076,Fulton County,GA,61.839080459770116,NA,NA
30117,Carroll County,GA,37.701149425287355,NA,NA
30161,Floyd County,GA,NA,23.05295950155763,NA
30228,Henry County,GA,63.44827586206897,NA,NA
30240,Troup County,GA,NA,27.725856697819314,NA
30248,Henry County,GA,NA,NA,69.7560975609756
30274,Clayton County,GA,43.2183908045977,NA,NA
30339,Cobb County,GA,NA,83.17757009345794,NA
30554,Hall County,GA,88.73563218390804,NA,NA
30650,Morgan County,GA,NA,71.65109034267913,NA
30680,Barrow County,GA,25.517241379310345,NA,NA
30725,Walker County,GA,NA,99.06542056074767,NA
31024,Putnam County,GA,NA,NA,66.82926829268293
31088,Houston County,GA,NA,23.364485981308412,NA
31093,Houston County,GA,NA,35.51401869158878,NA
31217,Bibb County,GA,62.06896551724138,NA,NA
31410,Chatham County,GA,81.83908045977012,NA,NA
31560,Wayne County,GA,95.17241379310344,NA,NA
31626,Thomas County,GA,94.71264367816093,NA,NA
96707,Honolulu County,HI,39.310344827586206,NA,NA
96744,Honolulu County,HI,NA,2.803738317757009,30.73170731707317
96813,Honolulu County,HI,NA,NA,42.4390243902439
96816,Honolulu County,HI,NA,NA,7.317073170731707
96819,Honolulu County,HI,NA,NA,28.292682926829265
83204,Bannock County,ID,NA,NA,75.1219512195122
83333,Blaine County,ID,NA,NA,72.6829268292683
83646,Ada County,ID,NA,7.165109034267912,NA
83651,Canyon County,ID,NA,14.018691588785046,NA
83706,Ada County,ID,33.10344827586207,NA,NA
83709,Ada County,ID,18.620689655172416,5.607476635514018,NA
60014,McHenry County,IL,NA,NA,27.31707317073171
60031,Lake County,IL,NA,NA,52.19512195121951
60041,Lake County,IL,77.47126436781609,79.12772585669782,NA
60050,McHenry County,IL,NA,NA,20
60076,Cook County,IL,NA,24.922118380062305,NA
60081,McHenry County,IL,85.97701149425288,NA,NA
60098,McHenry County,IL,NA,16.822429906542055,NA
60099,Lake County,IL,NA,42.99065420560748,NA
60110,Kane County,IL,NA,NA,96.09756097560975
60155,Cook County,IL,NA,NA,88.78048780487805
60174,Kane County,IL,NA,40.809968847352025,NA
60177,Kane County,IL,NA,58.25545171339564,NA
60187,DuPage County,IL,NA,NA,36.09756097560975
60402,Cook County,IL,NA,11.214953271028037,NA
60423,Will County,IL,44.59770114942529,NA,NA
60439,Cook County,IL,NA,19.937694704049843,NA
60440,Will County,IL,24.82758620689655,NA,NA
60441,Will County,IL,NA,66.66666666666666,NA
60443,Cook County,IL,NA,NA,48.78048780487805
60453,Cook County,IL,NA,8.411214953271028,NA
60456,Cook County,IL,NA,NA,86.82926829268293
60586,Will County,IL,NA,96.88473520249221,NA
60616,Cook County,IL,79.3103448275862,NA,NA
60619,Cook County,IL,7.126436781609195,NA,NA
60620,Cook County,IL,NA,NA,5.853658536585367
60632,Cook County,IL,16.7816091954023,NA,NA
60639,Cook County,IL,NA,8.09968847352025,NA
60642,Cook County,IL,NA,90.65420560747664,NA
60657,Cook County,IL,NA,14.953271028037381,NA
61102,Winnebago County,IL,57.24137931034483,NA,NA
61109,Winnebago County,IL,47.81609195402299,NA,NA
61362,Bureau County,IL,87.58620689655172,NA,NA
61605,Peoria County,IL,NA,NA,97.5609756097561
61832,Vermilion County,IL,12.413793103448276,NA,NA
61866,Champaign County,IL,NA,72.89719626168224,NA
61920,Coles County,IL,55.86206896551724,NA,NA
62231,Clinton County,IL,NA,NA,54.63414634146342
62278,Randolph County,IL,NA,89.09657320872275,NA
62471,Fayette County,IL,NA,NA,50.73170731707317
62521,Macon County,IL,NA,8.722741433021806,NA
62702,Sangamon County,IL,NA,38.62928348909657,NA
62703,Sangamon County,IL,34.94252873563218,NA,NA
62863,Wabash County,IL,NA,78.81619937694704,NA
46142,Johnson County,IN,NA,14.330218068535824,NA
46158,Morgan County,IN,NA,30.8411214953271,NA
46164,Johnson County,IN,96.55172413793103,NA,NA
46203,Marion County,IN,NA,15.887850467289718,NA
46220,Marion County,IN,74.71264367816092,NA,NA
46319,Lake County,IN,NA,NA,58.048780487804876
46324,Lake County,IN,NA,29.906542056074763,NA
46375,Lake County,IN,NA,55.7632398753894,NA
46406,Lake County,IN,63.678160919540225,NA,NA
46410,Lake County,IN,NA,51.71339563862928,NA
46514,Elkhart County,IN,NA,24.299065420560748,NA
46544,St. Joseph County,IN,NA,NA,39.02439024390244
46815,Allen County,IN,37.47126436781609,NA,NA
46825,Allen County,IN,NA,93.45794392523365,NA
47037,Ripley County,IN,NA,99.68847352024922,NA
47150,Floyd County,IN,NA,73.83177570093457,NA
47167,Washington County,IN,52.18390804597701,NA,NA
47371,Jay County,IN,55.172413793103445,NA,NA
47601,Warrick County,IN,NA,44.23676012461059,NA
50111,Polk County,IA,85.0574712643678,NA,NA
50219,Marion County,IA,NA,56.69781931464174,NA
50310,Polk County,IA,NA,NA,84.8780487804878
50616,Floyd County,IA,NA,NA,41.951219512195124
51503,Pottawattamie County,IA,NA,4.672897196261682,NA
52403,Linn County,IA,NA,42.36760124610592,NA
52501,Wapello County,IA,NA,33.021806853582554,NA
52544,Appanoose County,IA,72.8735632183908,NA,NA
52804,Scott County,IA,49.6551724137931,NA,NA
66044,Douglas County,KS,NA,65.10903426791276,NA
66047,Douglas County,KS,NA,NA,56.09756097560976
66071,Miami County,KS,96.0919540229885,NA,NA
66210,Johnson County,KS,NA,70.7165109034268,NA
66605,Shawnee County,KS,NA,NA,54.146341463414636
67226,Sedgwick County,KS,82.5287356321839,NA,NA
67735,Sherman County,KS,99.54022988505747,NA,NA
40118,Jefferson County,KY,54.94252873563218,NA,NA
40160,Hardin County,KY,83.67816091954023,NA,NA
40359,Owen County,KY,78.85057471264368,NA,NA
40447,Jackson County,KY,91.72413793103448,NA,NA
40502,Fayette County,KY,NA,NA,45.85365853658537
40769,Whitley County,KY,NA,60.43613707165109,NA
41015,Kenton County,KY,31.03448275862069,NA,36.58536585365854
41017,Kenton County,KY,90.80459770114942,NA,25.365853658536587
41031,Harrison County,KY,NA,NA,60
41041,Fleming County,KY,NA,72.58566978193146,NA
41042,Boone County,KY,29.88505747126437,NA,NA
42164,Allen County,KY,NA,61.37071651090342,NA
42718,Taylor County,KY,14.71264367816092,NA,NA
70068,St. John the Baptist Parish,LA,NA,NA,65.3658536585366
70117,Orleans Parish,LA,4.827586206896552,NA,NA
70128,Orleans Parish,LA,NA,NA,67.8048780487805
70301,Lafourche Parish,LA,NA,9.034267912772584,NA
70345,Lafourche Parish,LA,50.114942528735625,NA,NA
70420,St. Tammany Parish,LA,NA,73.5202492211838,NA
70458,St. Tammany Parish,LA,5.287356321839081,NA,NA
70460,St. Tammany Parish,LA,NA,31.464174454828658,NA
70461,St. Tammany Parish,LA,20.229885057471265,NA,NA
70647,Calcasieu Parish,LA,47.12643678160919,NA,NA
70726,Livingston Parish,LA,87.816091954023,NA,NA
70785,Livingston Parish,LA,21.60919540229885,39.875389408099686,NA
70806,East Baton Rouge Parish,LA,NA,75.38940809968847,NA
71103,Caddo Parish,LA,54.48275862068965,NA,NA
71109,Caddo Parish,LA,7.586206896551724,NA,NA
71111,Bossier Parish,LA,NA,NA,33.65853658536586
71342,La Salle Parish,LA,59.77011494252874,NA,NA
04106,Cumberland County,ME,NA,NA,96.58536585365853
04281,Oxford County,ME,NA,66.97819314641744,NA
20613,Prince George's County,MD,80.91954022988506,NA,NA
20636,St. Mary's County,MD,82.98850574712644,NA,NA
20657,Calvert County,MD,69.19540229885057,NA,NA
20770,Prince George's County,MD,75.63218390804597,NA,NA
20783,Prince George's County,MD,NA,85.04672897196261,NA
20816,Montgomery County,MD,NA,NA,73.65853658536585
21014,Harford County,MD,44.13793103448276,NA,NA
21043,Howard County,MD,NA,47.0404984423676,NA
21050,Harford County,MD,71.95402298850576,NA,NA
21093,Baltimore County,MD,NA,NA,72.1951219512195
21113,Anne Arundel County,MD,NA,NA,53.65853658536586
21213,Baltimore city,MD,23.908045977011493,16.1993769470405,NA
21215,Baltimore city,MD,8.735632183908045,NA,NA
21218,Baltimore city,MD,68.04597701149426,NA,NA
21223,Baltimore city,MD,NA,50.77881619937694,NA
21401,Anne Arundel County,MD,NA,34.26791277258567,NA
21617,Queen Anne's County,MD,NA,90.34267912772586,NA
21851,Worcester County,MD,NA,NA,86.34146341463415
21901,Cecil County,MD,NA,74.76635514018692,NA
01036,Hampden County,MA,NA,NA,87.8048780487805
01104,Hampden County,MA,1.1494252873563218,NA,NA
01118,Hampden County,MA,31.494252873563216,NA,NA
01129,Hampden County,MA,70.11494252873564,NA,NA
01201,Berkshire County,MA,0.45977011494252873,3.7383177570093453,NA
01220,Berkshire County,MA,27.816091954022987,NA,NA
01331,Worcester County,MA,85.28735632183908,NA,NA
01432,Middlesex County,MA,92.87356321839081,NA,88.29268292682927
01543,Worcester County,MA,73.33333333333333,NA,NA
01570,Worcester County,MA,27.126436781609197,NA,NA
01571,Worcester County,MA,NA,64.17445482866043,NA
01701,Middlesex County,MA,12.873563218390805,NA,NA
01702,Middlesex County,MA,0.6896551724137931,NA,NA
01746,Middlesex County,MA,25.74712643678161,NA,NA
01752,Middlesex County,MA,51.26436781609195,NA,NA
01810,Essex County,MA,89.88505747126436,NA,NA
01826,Middlesex County,MA,27.586206896551722,NA,NA
01832,Essex County,MA,3.67816091954023,NA,NA
01886,Middlesex County,MA,28.27586206896552,NA,NA
01944,Essex County,MA,98.62068965517241,NA,NA
01949,Essex County,MA,NA,70.09345794392523,NA
01960,Essex County,MA,6.896551724137931,NA,0
01966,Essex County,MA,98.16091954022988,NA,NA
02090,Norfolk County,MA,NA,NA,40.97560975609756
02119,Suffolk County,MA,NA,3.115264797507788,NA
02128,Suffolk County,MA,NA,NA,6.829268292682928
02130,Suffolk County,MA,NA,NA,5.365853658536586
02139,Middlesex County,MA,2.0689655172413794,NA,NA
02149,Middlesex County,MA,42.298850574712645,NA,NA
02176,Middlesex County,MA,35.86206896551724,NA,NA
02180,Middlesex County,MA,NA,23.98753894080997,NA
02330,Plymouth County,MA,NA,33.64485981308411,NA
02364,Plymouth County,MA,76.55172413793103,NA,NA
02368,Norfolk County,MA,1.6091954022988506,NA,NA
02421,Middlesex County,MA,NA,40.18691588785047,NA
02453,Middlesex County,MA,10.114942528735632,NA,NA
02492,Norfolk County,MA,59.310344827586206,NA,NA
02703,Bristol County,MA,8.275862068965518,NA,NA
02760,Bristol County,MA,NA,13.084112149532709,NA
02766,Bristol County,MA,22.06896551724138,NA,NA
02790,Bristol County,MA,NA,64.48598130841121,NA
48021,Macomb County,MI,NA,NA,33.170731707317074
48033,Oakland County,MI,NA,34.890965732087224,NA
48047,Macomb County,MI,NA,NA,35.12195121951219
48059,St. Clair County,MI,NA,46.41744548286604,NA
48060,St. Clair County,MI,3.218390804597701,NA,NA
48066,Macomb County,MI,NA,NA,10.731707317073171
48082,Macomb County,MI,NA,NA,31.21951219512195
48089,Macomb County,MI,85.74712643678161,NA,NA
48093,Macomb County,MI,NA,87.22741433021807,NA
48135,Wayne County,MI,NA,26.168224299065418,NA
48141,Wayne County,MI,9.425287356321839,NA,NA
48152,Wayne County,MI,NA,71.33956386292834,NA
48176,Washtenaw County,MI,NA,27.41433021806853,NA
48184,Wayne County,MI,19.54022988505747,NA,NA
48187,Wayne County,MI,11.954022988505747,NA,NA
48188,Wayne County,MI,15.862068965517242,NA,NA
48189,Washtenaw County,MI,81.37931034482759,NA,NA
48207,Wayne County,MI,NA,NA,21.463414634146343
48212,Wayne County,MI,11.494252873563218,NA,NA
48213,Wayne County,MI,13.563218390804598,NA,NA
48312,Macomb County,MI,NA,18.69158878504673,NA
48313,Macomb County,MI,NA,NA,25.365853658536587
48315,Macomb County,MI,NA,20.87227414330218,NA
48316,Macomb County,MI,42.758620689655174,NA,NA
48328,Oakland County,MI,40.45977011494253,69.1588785046729,NA
48340,Oakland County,MI,12.183908045977011,NA,NA
48360,Oakland County,MI,NA,66.35514018691589,NA
48415,Saginaw County,MI,NA,66.04361370716511,NA
48439,Genesee County,MI,15.632183908045977,NA,NA
48441,Huron County,MI,96.32183908045977,85.66978193146417,NA
48504,Genesee County,MI,NA,46.10591900311526,NA
48603,Saginaw County,MI,NA,10.59190031152648,NA
48616,Saginaw County,MI,NA,NA,63.90243902439025
48708,Bay County,MI,NA,7.78816199376947,NA
48809,Ionia County,MI,NA,NA,94.14634146341463
48838,Montcalm County,MI,NA,88.78504672897196,NA
48843,Livingston County,MI,NA,30.529595015576323,NA
49014,Calhoun County,MI,22.298850574712645,NA,NA
49036,Branch County,MI,NA,25.233644859813083,32.6829268292683
49037,Calhoun County,MI,17.70114942528736,NA,NA
49080,Allegan County,MI,45.97701149425287,NA,55.60975609756098
49093,St. Joseph County,MI,35.63218390804598,NA,NA
49099,St. Joseph County,MI,NA,91.27725856697819,NA
49201,Jackson County,MI,9.885057471264368,NA,NA
49341,Kent County,MI,89.42528735632183,NA,NA
49424,Ottawa County,MI,NA,48.598130841121495,NA
49441,Muskegon County,MI,NA,4.361370716510903,NA
49506,Kent County,MI,NA,NA,24.390243902439025
49534,Kent County,MI,56.7816091954023,NA,NA
49548,Kent County,MI,8.505747126436782,NA,NA
49651,Missaukee County,MI,95.40229885057471,NA,NA
49663,Wexford County,MI,NA,NA,95.60975609756098
49677,Osceola County,MI,100,NA,NA
49684,Grand Traverse County,MI,NA,NA,29.268292682926827
49721,Cheboygan County,MI,99.08045977011494,NA,NA
49746,Montmorency County,MI,NA,NA,91.70731707317074
49765,Presque Isle County,MI,82.75862068965517,NA,NA
49783,Chippewa County,MI,NA,NA,39.51219512195122
49837,Delta County,MI,NA,NA,99.02439024390245
55014,Anoka County,MN,NA,95.6386292834891,NA
55016,Washington County,MN,44.36781609195402,NA,NA
55025,Washington County,MN,56.55172413793104,NA,NA
55051,Kanabec County,MN,91.95402298850574,NA,NA
55057,Rice County,MN,69.88505747126436,NA,NA
55068,Dakota County,MN,65.05747126436782,NA,NA
55075,Dakota County,MN,44.827586206896555,NA,NA
55113,Ramsey County,MN,48.735632183908045,NA,NA
55117,Ramsey County,MN,NA,76.01246105919003,NA
55130,Ramsey County,MN,50.57471264367817,NA,NA
55316,Hennepin County,MN,NA,NA,85.36585365853658
55411,Hennepin County,MN,NA,19.314641744548286,NA
55443,Hennepin County,MN,36.55172413793103,NA,NA
55447,Hennepin County,MN,NA,NA,79.51219512195122
55811,St. Louis County,MN,76.0919540229885,NA,1.4634146341463417
55901,Olmsted County,MN,NA,NA,15.121951219512194
56073,Brown County,MN,NA,86.91588785046729,NA
56101,Cottonwood County,MN,NA,NA,71.70731707317073
56501,Becker County,MN,41.14942528735632,NA,NA
56701,Pennington County,MN,24.367816091954023,NA,NA
39180,Warren County,MS,46.43678160919541,NA,NA
39465,Forrest County,MS,69.6551724137931,NA,NA
39475,Lamar County,MS,NA,94.0809968847352,NA
39503,Harrison County,MS,12.643678160919542,NA,NA
39562,Jackson County,MS,56.32183908045977,49.22118380062305,NA
39667,Walthall County,MS,NA,NA,49.75609756097561
63010,Jefferson County,MO,NA,29.595015576323984,NA
63017,St. Louis County,MO,NA,NA,2.4390243902439024
63111,St. Louis city,MO,65.51724137931035,NA,NA
63367,St. Charles County,MO,NA,35.82554517133956,NA
63376,St. Charles County,MO,NA,1.8691588785046727,NA
63385,St. Charles County,MO,NA,NA,21.951219512195124
63628,St. Francois County,MO,NA,68.22429906542055,NA
63740,Scott County,MO,NA,90.96573208722741,NA
64118,Clay County,MO,5.057471264367816,NA,NA
64119,Clay County,MO,13.10344827586207,NA,NA
64134,Jackson County,MO,16.091954022988507,NA,NA
64601,Livingston County,MO,96.7816091954023,NA,NA
64865,Newton County,MO,NA,98.75389408099689,NA
65401,Phelps County,MO,79.54022988505747,NA,63.41463414634146
65616,Taney County,MO,NA,36.13707165109034,NA
65746,Webster County,MO,99.77011494252874,NA,NA
59044,Yellowstone County,MT,NA,93.14641744548287,NA
59102,Yellowstone County,MT,NA,NA,15.609756097560975
59801,Missoula County,MT,NA,69.47040498442367,NA
59833,Ravalli County,MT,NA,85.98130841121495,NA
68111,Douglas County,NE,NA,36.7601246105919,NA
68134,Douglas County,NE,NA,61.99376947040498,NA
68701,Madison County,NE,NA,NA,41.46341463414634
69301,Box Butte County,NE,68.50574712643677,NA,NA
89110,Clark County,NV,NA,NA,60.97560975609756
89145,Clark County,NV,NA,NA,85.85365853658537
89183,Clark County,NV,62.98850574712643,NA,NA
89508,Washoe County,NV,NA,NA,98.04878048780488
89815,Elko County,NV,NA,NA,99.51219512195122
03801,Rockingham County,NH,NA,88.1619937694704,NA
03867,Strafford County,NH,55.632183908045974,NA,NA
07024,Bergen County,NJ,NA,NA,62.4390243902439
07036,Union County,NJ,NA,NA,34.146341463414636
07043,Essex County,NJ,NA,74.14330218068535,NA
07052,Essex County,NJ,18.160919540229887,NA,NA
07083,Union County,NJ,NA,NA,62.926829268292686
07205,Union County,NJ,77.93103448275862,NA,NA
07424,Passaic County,NJ,41.37931034482759,NA,NA
07501,Passaic County,NJ,NA,17.75700934579439,NA
07649,Bergen County,NJ,NA,96.26168224299066,NA
07746,Monmouth County,NJ,NA,94.70404984423676,NA
07748,Monmouth County,NJ,33.10344827586207,NA,NA
08031,Camden County,NJ,NA,79.43925233644859,NA
08085,Gloucester County,NJ,NA,53.271028037383175,NA
08244,Atlantic County,NJ,85.51724137931035,NA,NA
08302,Cumberland County,NJ,NA,11.838006230529595,NA
08540,Mercer County,NJ,NA,37.07165109034268,NA
08721,Ocean County,NJ,29.195402298850574,NA,NA
08742,Ocean County,NJ,NA,NA,67.8048780487805
08753,Ocean County,NJ,NA,4.984423676012461,NA
08820,Middlesex County,NJ,48.275862068965516,NA,NA
08861,Middlesex County,NJ,NA,5.919003115264798,NA
08873,Somerset County,NJ,17.47126436781609,NA,NA
87068,Valencia County,NM,93.33333333333333,NA,NA
87111,Bernalillo County,NM,NA,13.395638629283487,6.341463414634147
87112,Bernalillo County,NM,NA,10.903426791277258,NA
87505,Santa Fe County,NM,NA,NA,43.90243902439025
87529,Taos County,NM,97.47126436781609,NA,NA
88021,Doa Ana County,NM,NA,93.76947040498442,NA
88030,Luna County,NM,88.96551724137932,NA,NA
88101,Curry County,NM,67.35632183908045,59.19003115264797,NA
88240,Lea County,NM,6.666666666666667,NA,NA
10019,New York County,NY,62.758620689655174,NA,NA
10025,New York County,NY,6.206896551724138,NA,NA
10029,New York County,NY,NA,NA,0.4878048780487805
10038,New York County,NY,NA,42.679127725856695,NA
10302,Richmond County,NY,74.25287356321839,NA,NA
10314,Richmond County,NY,NA,NA,8.292682926829269
10452,Bronx County,NY,54.71264367816092,NA,NA
10453,Bronx County,NY,NA,0.3115264797507788,NA
10460,Bronx County,NY,1.3793103448275863,NA,NA
10467,Bronx County,NY,NA,NA,0.975609756097561
10473,Bronx County,NY,NA,6.5420560747663545,NA
10475,Bronx County,NY,NA,12.461059190031152,NA
10541,Putnam County,NY,84.13793103448276,NA,NA
10552,Westchester County,NY,61.37931034482759,NA,NA
10583,Westchester County,NY,NA,80.37383177570094,NA
10701,Westchester County,NY,NA,4.049844236760125,26.82926829268293
11096,Nassau County,NY,NA,NA,89.75609756097562
11223,Kings County,NY,NA,NA,9.75609756097561
11224,Kings County,NY,23.448275862068964,NA,NA
11233,Kings County,NY,NA,0.6230529595015576,NA
11572,Nassau County,NY,NA,66.97819314641744,NA
11598,Nassau County,NY,NA,89.7196261682243,NA
11784,Suffolk County,NY,NA,NA,78.53658536585367
12078,Fulton County,NY,42.98850574712644,NA,NA
12095,Fulton County,NY,NA,34.57943925233645,NA
12144,Rensselaer County,NY,NA,44.54828660436137,NA
12157,Schoharie County,NY,94.94252873563218,NA,NA
12303,Schenectady County,NY,NA,NA,35.609756097560975
12401,Ulster County,NY,NA,NA,34.63414634146341
12804,Warren County,NY,8.96551724137931,NA,NA
12983,Franklin County,NY,NA,NA,95.1219512195122
13021,Cayuga County,NY,3.4482758620689653,NA,NA
13057,Onondaga County,NY,NA,62.30529595015576,NA
13069,Oswego County,NY,NA,12.77258566978193,NA
13669,St. Lawrence County,NY,27.126436781609197,NA,51.707317073170735
13901,Broome County,NY,4.3678160919540225,NA,NA
14005,Genesee County,NY,NA,98.4423676012461,NA
14150,Erie County,NY,5.977011494252873,NA,NA
14220,Erie County,NY,NA,NA,59.512195121951216
14420,Monroe County,NY,18.850574712643677,NA,NA
14428,Monroe County,NY,47.58620689655172,NA,NA
14456,Ontario County,NY,34.48275862068966,NA,NA
14469,Ontario County,NY,45.05747126436781,NA,NA
14580,Monroe County,NY,NA,63.2398753894081,NA
14606,Monroe County,NY,2.7586206896551726,NA,NA
14608,Monroe County,NY,15.402298850574713,NA,NA
14611,Monroe County,NY,8.045977011494253,NA,NA
14619,Monroe County,NY,NA,NA,81.95121951219512
14621,Monroe County,NY,5.517241379310345,NA,NA
27012,Forsyth County,NC,NA,NA,10.24390243902439
27106,Forsyth County,NC,NA,2.4922118380062304,NA
27313,Guilford County,NC,94.25287356321839,NA,NA
27407,Guilford County,NC,22.528735632183906,NA,NA
27502,Wake County,NC,NA,76.32398753894081,NA
27537,Vance County,NC,39.08045977011494,NA,NA
27587,Wake County,NC,26.666666666666668,NA,NA
27613,Wake County,NC,NA,37.38317757009346,NA
27713,Durham County,NC,NA,NA,20.975609756097562
27803,Nash County,NC,48.96551724137931,NA,NA
27817,Beaufort County,NC,NA,92.5233644859813,NA
27886,Edgecombe County,NC,67.81609195402298,NA,NA
28207,Mecklenburg County,NC,NA,NA,76.58536585365854
28211,Mecklenburg County,NC,NA,NA,37.073170731707314
28216,Mecklenburg County,NC,10.574712643678161,NA,NA
28387,Moore County,NC,88.50574712643679,NA,NA
28472,Columbus County,NC,NA,NA,47.80487804878049
28625,Iredell County,NC,20.45977011494253,NA,30.24390243902439
28655,Burke County,NC,NA,NA,12.195121951219512
28739,Henderson County,NC,NA,NA,13.170731707317074
58078,Cass County,ND,NA,NA,52.6829268292683
58201,Grand Forks County,ND,36.0919540229885,NA,NA
58554,Morton County,ND,NA,30.218068535825545,NA
43026,Franklin County,OH,25.057471264367813,NA,NA
43050,Knox County,OH,NA,28.971962616822427,NA
43065,Delaware County,OH,NA,97.81931464174455,NA
43082,Delaware County,OH,60,NA,NA
43140,Madison County,OH,39.770114942528735,NA,NA
43147,Fairfield County,OH,NA,29.283489096573206,NA
43205,Franklin County,OH,NA,NA,75.60975609756098
43219,Franklin County,OH,18.160919540229887,NA,NA
43402,Wood County,OH,NA,17.445482866043612,NA
43410,Sandusky County,OH,NA,53.58255451713395,NA
43512,Defiance County,OH,NA,NA,17.560975609756095
43608,Lucas County,OH,53.79310344827586,NA,NA
43947,Belmont County,OH,NA,83.48909657320873,NA
44035,Lorain County,OH,NA,0,NA
44039,Lorain County,OH,NA,NA,93.17073170731707
44047,Ashtabula County,OH,NA,NA,49.26829268292683
44074,Lorain County,OH,NA,50.467289719626166,NA
44102,Cuyahoga County,OH,NA,2.1806853582554515,14.634146341463413
44105,Cuyahoga County,OH,0,NA,NA
44109,Cuyahoga County,OH,NA,1.557632398753894,NA
44111,Cuyahoga County,OH,0.9195402298850575,NA,NA
44112,Cuyahoga County,OH,36.7816091954023,NA,NA
44117,Cuyahoga County,OH,72.41379310344827,NA,NA
44118,Cuyahoga County,OH,NA,NA,77.07317073170732
44122,Cuyahoga County,OH,NA,5.29595015576324,NA
44136,Cuyahoga County,OH,NA,39.25233644859813,NA
44141,Cuyahoga County,OH,80.6896551724138,NA,NA
44143,Cuyahoga County,OH,NA,15.57632398753894,NA
44145,Cuyahoga County,OH,21.149425287356323,NA,NA
44149,Cuyahoga County,OH,NA,NA,16.097560975609756
44256,Medina County,OH,NA,NA,17.073170731707318
44266,Portage County,OH,NA,NA,7.804878048780488
44442,Mahoning County,OH,NA,NA,82.4390243902439
44515,Mahoning County,OH,11.724137931034482,NA,NA
44685,Summit County,OH,47.356321839080465,NA,NA
44708,Stark County,OH,90.11494252873563,NA,NA
44721,Stark County,OH,NA,78.19314641744548,NA
44805,Ashland County,OH,16.32183908045977,NA,NA
44811,Sandusky County,OH,NA,58.87850467289719,NA
45042,Butler County,OH,NA,37.69470404984423,NA
45236,Hamilton County,OH,53.5632183908046,NA,NA
45420,Montgomery County,OH,NA,NA,44.390243902439025
45503,Clark County,OH,35.40229885057472,NA,NA
45601,Ross County,OH,64.36781609195403,NA,NA
45640,Jackson County,OH,7.816091954022989,NA,NA
45801,Allen County,OH,14.25287356321839,NA,NA
45804,Allen County,OH,NA,NA,27.31707317073171
45831,Putnam County,OH,NA,97.50778816199377,NA
45840,Hancock County,OH,2.2988505747126435,NA,NA
73077,Noble County,OK,NA,86.6043613707165,NA
73107,Oklahoma County,OK,52.87356321839081,NA,NA
73122,Oklahoma County,OK,77.24137931034483,NA,NA
73129,Oklahoma County,OK,93.10344827586206,NA,NA
74055,Tulsa County,OK,93.5632183908046,NA,NA
74073,Tulsa County,OK,90.57471264367815,NA,NA
74074,Payne County,OK,NA,42.05607476635514,NA
74136,Tulsa County,OK,NA,47.66355140186916,NA
74352,Mayes County,OK,NA,82.86604361370716,NA
74354,Ottawa County,OK,NA,49.532710280373834,NA
74437,Okmulgee County,OK,NA,91.90031152647975,NA
97002,Marion County,OR,95.86206896551724,NA,NA
97005,Washington County,OR,NA,74.45482866043614,NA
97203,Multnomah County,OR,NA,NA,80.97560975609757
97217,Multnomah County,OR,43.67816091954023,NA,NA
97467,Douglas County,OR,83.9080459770115,NA,NA
97501,Jackson County,OR,9.655172413793103,NA,NA
97503,Jackson County,OR,83.2183908045977,NA,NA
97504,Jackson County,OR,NA,14.641744548286603,NA
97756,Deschutes County,OR,40,NA,NA
15009,Beaver County,PA,74.48275862068967,NA,NA
15108,Allegheny County,PA,NA,19.626168224299064,NA
15203,Allegheny County,PA,81.14942528735632,NA,NA
15205,Allegheny County,PA,75.40229885057471,NA,NA
15221,Allegheny County,PA,20.919540229885058,NA,NA
15241,Allegheny County,PA,73.5632183908046,NA,NA
15317,Washington County,PA,NA,9.968847352024921,NA
15701,Indiana County,PA,NA,NA,16.585365853658537
15931,Cambria County,PA,67.58620689655173,NA,NA
16001,Butler County,PA,NA,40.49844236760124,46.34146341463415
16101,Lawrence County,PA,NA,6.853582554517133,NA
16125,Mercer County,PA,NA,19.003115264797508,NA
16229,Armstrong County,PA,89.19540229885058,NA,NA
16505,Erie County,PA,NA,61.6822429906542,NA
16915,Potter County,PA,79.77011494252874,NA,NA
17044,Mifflin County,PA,14.942528735632186,NA,NA
17110,Dauphin County,PA,79.08045977011494,NA,NA
17113,Dauphin County,PA,NA,57.009345794392516,NA
17241,Cumberland County,PA,NA,NA,73.17073170731707
17307,Adams County,PA,83.44827586206897,NA,NA
17701,Lycoming County,PA,NA,57.943925233644855,9.268292682926829
17815,Columbia County,PA,NA,NA,18.048780487804876
18017,Northampton County,PA,NA,NA,4.390243902439024
18032,Lehigh County,PA,NA,NA,100
18067,Northampton County,PA,42.5287356321839,NA,NA
18104,Lehigh County,PA,62.52873563218391,NA,NA
18255,Carbon County,PA,NA,75.70093457943925,NA
18517,Lackawanna County,PA,NA,90.03115264797508,NA
18603,Columbia County,PA,17.011494252873565,NA,NA
18974,Bucks County,PA,NA,44.85981308411215,NA
19006,Montgomery County,PA,50.3448275862069,NA,NA
19013,Delaware County,PA,3.9080459770114944,NA,NA
19054,Bucks County,PA,NA,85.35825545171339,NA
19063,Delaware County,PA,26.20689655172414,NA,NA
19067,Bucks County,PA,NA,7.476635514018691,NA
19104,Philadelphia County,PA,13.793103448275861,NA,NA
19114,Philadelphia County,PA,NA,60.747663551401864,26.34146341463415
19120,Philadelphia County,PA,NA,6.230529595015576,NA
19124,Philadelphia County,PA,NA,12.149532710280374,NA
19131,Philadelphia County,PA,6.436781609195402,NA,NA
19140,Philadelphia County,PA,1.839080459770115,NA,NA
19143,Philadelphia County,PA,45.74712643678161,NA,37.5609756097561
19148,Philadelphia County,PA,NA,15.264797507788161,NA
19149,Philadelphia County,PA,88.27586206896552,NA,NA
19152,Philadelphia County,PA,22.758620689655174,86.29283489096574,NA
19382,Chester County,PA,NA,NA,22.439024390243905
19403,Montgomery County,PA,NA,NA,8.780487804878048
19426,Montgomery County,PA,NA,33.33333333333333,NA
19607,Berks County,PA,32.18390804597701,NA,NA
02835,Newport County,RI,NA,NA,78.04878048780488
02864,Providence County,RI,30.114942528735632,NA,NA
02908,Providence County,RI,43.9080459770115,NA,NA
29108,Newberry County,SC,NA,52.64797507788161,NA
29325,Laurens County,SC,NA,NA,70.24390243902438
29501,Florence County,SC,NA,18.06853582554517,NA
29510,Georgetown County,SC,64.82758620689654,NA,NA
29532,Darlington County,SC,60.45977011494252,NA,NA
29574,Marion County,SC,NA,67.91277258566979,NA
29630,Pickens County,SC,93.79310344827586,NA,NA
29707,Lancaster County,SC,NA,51.4018691588785,NA
29710,York County,SC,NA,52.024922118380054,NA
29720,Lancaster County,SC,17.93103448275862,NA,NA
29801,Aiken County,SC,80.45977011494253,NA,NA
29906,Beaufort County,SC,NA,62.928348909657316,NA
37072,Davidson County,TN,36.321839080459775,NA,NA
37128,Rutherford County,TN,NA,53.89408099688473,NA
37167,Rutherford County,TN,NA,27.102803738317753,NA
37186,Sumner County,TN,65.28735632183908,NA,NA
37302,Hamilton County,TN,97.24137931034483,NA,NA
37380,Marion County,TN,NA,NA,87.3170731707317
37660,Sullivan County,TN,9.195402298850574,NA,NA
37830,Anderson County,TN,NA,26.791277258566975,NA
37920,Knox County,TN,14.022988505747128,NA,NA
38344,Carroll County,TN,71.26436781609196,NA,NA
38464,Lawrence County,TN,NA,NA,40
38583,White County,TN,NA,NA,29.756097560975608
75007,Denton County,TX,49.195402298850574,NA,NA
75035,Collin County,TX,40.45977011494253,NA,NA
75093,Collin County,TX,NA,84.73520249221184,NA
75126,Kaufman County,TX,76.32183908045977,NA,NA
75143,Henderson County,TX,NA,NA,60.97560975609756
75149,Dallas County,TX,NA,31.775700934579437,NA
75227,Dallas County,TX,NA,NA,65.85365853658537
75241,Dallas County,TX,28.045977011494255,NA,NA
75633,Panola County,TX,NA,NA,92.19512195121952
75765,Wood County,TX,97.70114942528735,NA,NA
76017,Tarrant County,TX,NA,32.71028037383177,NA
76053,Tarrant County,TX,NA,72.27414330218068,NA
76105,Tarrant County,TX,24.137931034482758,NA,NA
76117,Tarrant County,TX,38.160919540229884,NA,NA
76210,Denton County,TX,NA,NA,64.39024390243902
76502,Bell County,TX,NA,NA,3.414634146341464
76513,Bell County,TX,NA,0.9345794392523363,NA
76548,Bell County,TX,NA,NA,13.658536585365855
76643,McLennan County,TX,NA,64.797507788162,NA
77004,Harris County,TX,32.41379310344827,NA,NA
77016,Harris County,TX,NA,NA,45.36585365853659
77018,Harris County,TX,46.666666666666664,NA,NA
77034,Harris County,TX,NA,68.53582554517133,NA
77060,Harris County,TX,NA,91.58878504672897,NA
77095,Harris County,TX,21.379310344827587,NA,NA
77422,Brazoria County,TX,74.94252873563218,NA,NA
77449,Harris County,TX,NA,28.34890965732087,NA
77459,Fort Bend County,TX,NA,13.707165109034266,NA
77833,Washington County,TX,NA,NA,18.536585365853657
77845,Brazos County,TX,11.264367816091953,NA,NA
77957,Jackson County,TX,NA,76.94704049844236,NA
78046,Webb County,TX,19.080459770114942,NA,NA
78063,Bandera County,TX,NA,92.21183800623052,NA
78155,Guadalupe County,TX,NA,32.398753894081,NA
78201,Bexar County,TX,NA,NA,40.487804878048784
78207,Bexar County,TX,NA,17.133956386292834,NA
78218,Bexar County,TX,NA,56.38629283489096,NA
78222,Bexar County,TX,65.97701149425286,NA,NA
78237,Bexar County,TX,34.25287356321839,NA,NA
78412,Nueces County,TX,53.103448275862064,NA,NA
78415,Nueces County,TX,NA,NA,57.073170731707314
78628,Williamson County,TX,NA,NA,1.951219512195122
78681,Williamson County,TX,55.40229885057472,NA,NA
78723,Travis County,TX,59.54022988505747,NA,NA
78744,Travis County,TX,64.13793103448275,NA,NA
79104,Potter County,TX,99.3103448275862,NA,NA
79423,Lubbock County,TX,33.5632183908046,NA,NA
79603,Taylor County,TX,NA,NA,42.926829268292686
79606,Taylor County,TX,60.229885057471265,NA,NA
79714,Andrews County,TX,56.09195402298851,NA,NA
79901,El Paso County,TX,86.89655172413792,NA,NA
79928,El Paso County,TX,75.86206896551724,NA,NA
84003,Utah County,UT,73.10344827586206,NA,NA
84036,Summit County,UT,92.41379310344827,NA,NA
84078,Uintah County,UT,NA,38.006230529595015,NA
84088,Salt Lake County,UT,39.54022988505747,NA,NA
84105,Salt Lake County,UT,NA,88.47352024922118,NA
84128,Salt Lake County,UT,NA,71.65109034267913,NA
84129,,UT,33.793103448275865,NA,NA
05488,Franklin County,VT,78.16091954022988,NA,NA
20136,Prince William County,VA,68.27586206896552,NA,NA
20194,Fairfax County,VA,NA,NA,90.73170731707317
22193,Prince William County,VA,16.551724137931036,21.18380062305296,NA
22310,Fairfax County,VA,54.252873563218394,69.78193146417445,NA
22408,Spotsylvania County,VA,NA,62.616822429906534,NA
22473,Northumberland County,VA,NA,NA,89.26829268292683
22727,Madison County,VA,NA,NA,80.48780487804879
22801,Harrisonburg city,VA,NA,NA,28.780487804878046
23111,Hanover County,VA,NA,NA,23.902439024390244
23117,Louisa County,VA,NA,NA,69.26829268292683
23181,King William County,VA,NA,NA,94.6341463414634
23223,Henrico County,VA,4.137931034482759,NA,NA
23322,Chesapeake city,VA,NA,NA,19.51219512195122
23323,Chesapeake city,VA,66.4367816091954,NA,NA
23462,Virginia Beach city,VA,NA,11.526479750778815,NA
23502,Norfolk city,VA,66.89655172413794,NA,NA
23608,Newport News city,VA,23.218390804597703,NA,NA
23666,Hampton city,VA,57.01149425287356,NA,NA
24054,Henry County,VA,NA,NA,90.2439024390244
24073,Montgomery County,VA,45.51724137931035,NA,NA
24360,Wythe County,VA,NA,95.01557632398755,NA
24426,Alleghany County,VA,48.50574712643678,NA,NA
24477,Augusta County,VA,58.85057471264368,NA,NA
98012,Snohomish County,WA,34.94252873563218,NA,NA
98059,King County,WA,NA,31.15264797507788,NA
98102,King County,WA,NA,NA,91.21951219512195
98121,King County,WA,NA,94.39252336448598,NA
98126,King County,WA,58.39080459770115,NA,NA
98136,King County,WA,84.82758620689656,NA,NA
98201,Snohomish County,WA,NA,49.84423676012461,84.39024390243902
98208,Snohomish County,WA,NA,NA,74.63414634146342
98221,Skagit County,WA,NA,89.40809968847351,83.90243902439025
98223,Snohomish County,WA,NA,NA,97.07317073170731
98233,Skagit County,WA,NA,95.95015576323988,NA
98236,Island County,WA,NA,81.30841121495327,NA
98272,Snohomish County,WA,NA,NA,83.41463414634146
98273,Skagit County,WA,32.64367816091954,NA,71.21951219512195
98274,Skagit County,WA,NA,NA,66.34146341463415
98277,Island County,WA,92.643678160919535,92.83489096573209,48.292682926829265
98282,Island County,WA,NA,87.53894080996885,NA
98284,Skagit County,WA,51.95402298850574,NA,NA
98367,Kitsap County,WA,84.36781609195401,NA,NA
98368,Jefferson County,WA,NA,25.54517133956386,NA
98371,Pierce County,WA,NA,NA,46.82926829268293
98390,Pierce County,WA,73.79310344827587,NA,NA
98506,Thurston County,WA,75.17241379310344,NA,NA
98520,Grays Harbor County,WA,NA,80.99688473520249,NA
98550,Grays Harbor County,WA,NA,77.25856697819314,NA
98632,Cowlitz County,WA,23.678160919540232,NA,NA
98664,Clark County,WA,NA,NA,50.24390243902439
98922,Kittitas County,WA,NA,82.55451713395638,NA
99169,Adams County,WA,NA,100,NA
99336,Benton County,WA,NA,1.2461059190031152,NA
99362,Walla Walla County,WA,57.47126436781609,NA,NA
20016,District of Columbia,DC,72.64367816091955,NA,NA
25312,Kanawha County,WV,NA,55.140186915887845,NA
25404,Berkeley County,WV,NA,NA,57.56097560975609
25550,Mason County,WV,NA,71.02803738317756,NA
26206,Webster County,WV,NA,98.13084112149532,NA
26354,Taylor County,WV,50.804597701149426,NA,NA
26416,Barbour County,WV,NA,41.43302180685358,NA
26554,Marion County,WV,26.436781609195403,NA,3.902439024390244
53130,Milwaukee County,WI,98.39080459770115,NA,NA
53142,Kenosha County,WI,11.03448275862069,NA,NA
53202,Milwaukee County,WI,NA,47.97507788161994,NA
53204,Milwaukee County,WI,7.35632183908046,NA,NA
53206,Milwaukee County,WI,10.804597701149426,NA,NA
53216,Milwaukee County,WI,31.724137931034484,NA,NA
53511,Rock County,WI,0.22988505747126436,NA,NA
53548,Rock County,WI,29.655172413793103,NA,NA
53704,Dane County,WI,13.333333333333334,55.45171339563863,NA
53705,Dane County,WI,52.643678160919535,NA,NA
53711,Dane County,WI,NA,52.95950155763239,NA
54220,Manitowoc County,WI,NA,NA,31.21951219512195
54449,Wood County,WI,72.183908045977,NA,NA
54451,Taylor County,WI,82.06896551724138,NA,NA
54476,Marathon County,WI,NA,70.40498442367601,NA
54494,Wood County,WI,NA,36.44859813084112,NA
54703,Eau Claire County,WI,25.97701149425287,NA,NA
54736,Pepin County,WI,94.25287356321839,NA,NA
54911,Outagamie County,WI,42.06896551724138,NA,NA
54971,Fond du Lac County,WI,NA,54.20560747663551,NA
82001,Laramie County,WY,88.04597701149424,NA,NA
