ZipCode,county,state,Adult,Retirement,Geriatric
35055,Cullman County,AL,58.94736842105262,NA,NA
35125,St. Clair County,AL,NA,NA,63.961038961038966
35160,Talladega County,AL,NA,49.23076923076923,NA
35243,Jefferson County,AL,NA,60.76923076923077,NA
35244,Jefferson County,AL,NA,NA,58.76623376623377
35476,Tuscaloosa County,AL,NA,84.23076923076923,NA
35555,Fayette County,AL,67.01754385964912,NA,NA
35613,Limestone County,AL,44.21052631578947,NA,NA
35640,Morgan County,AL,NA,NA,50.97402597402597
35758,Madison County,AL,40.35087719298245,NA,NA
35801,Madison County,AL,NA,NA,43.18181818181818
36033,Butler County,AL,99.29824561403508,NA,NA
36037,Butler County,AL,61.40350877192983,NA,NA
36089,Bullock County,AL,80.35087719298247,NA,NA
36272,Calhoun County,AL,NA,NA,87.01298701298701
36532,Baldwin County,AL,NA,NA,24.025974025974026
36603,Mobile County,AL,NA,95.76923076923077,NA
36695,Mobile County,AL,NA,NA,46.103896103896105
99501,Anchorage Municipality,AK,NA,NA,84.74025974025975
99504,Anchorage Municipality,AK,NA,45,NA
99508,Anchorage Municipality,AK,18.24561403508772,NA,NA
99615,Kodiak Island Borough,AK,85.26315789473684,NA,NA
85016,Maricopa County,AZ,46.666666666666664,NA,NA
85022,Maricopa County,AZ,55.08771929824562,NA,NA
85035,Maricopa County,AZ,15.789473684210526,NA,NA
85037,Maricopa County,AZ,NA,NA,75.64935064935064
85042,Maricopa County,AZ,28.07017543859649,NA,66.55844155844156
85053,Maricopa County,AZ,NA,NA,92.20779220779221
85120,Pinal County,AZ,NA,73.84615384615385,NA
85123,Pinal County,AZ,75.08771929824562,NA,NA
85204,Maricopa County,AZ,12.280701754385964,NA,NA
85206,Maricopa County,AZ,NA,31.153846153846153,NA
85248,Maricopa County,AZ,62.10526315789474,NA,NA
85253,Maricopa County,AZ,89.82456140350877,NA,NA
85296,Maricopa County,AZ,34.73684210526316,NA,NA
85302,Maricopa County,AZ,NA,26.923076923076923,NA
85345,Maricopa County,AZ,10.526315789473683,NA,NA
85375,Maricopa County,AZ,NA,NA,1.2987012987012987
85392,Maricopa County,AZ,NA,NA,77.92207792207793
85541,Gila County,AZ,51.578947368421055,NA,NA
85622,Pima County,AZ,NA,NA,55.1948051948052
85749,Pima County,AZ,NA,39.23076923076923,NA
86314,Yavapai County,AZ,16.140350877192983,NA,NA
86401,Mohave County,AZ,NA,60,NA
86404,Mohave County,AZ,74.3859649122807,NA,NA
86406,Mohave County,AZ,NA,NA,31.16883116883117
71603,Jefferson County,AR,NA,21.153846153846153,NA
71653,Chicot County,AR,NA,96.15384615384616,NA
71801,Hempstead County,AR,NA,NA,63.31168831168831
71854,Miller County,AR,39.29824561403509,NA,NA
71913,Garland County,AR,NA,26.53846153846154,NA
72206,Pulaski County,AR,57.54385964912281,NA,NA
72223,Pulaski County,AR,NA,NA,48.05194805194805
72335,St. Francis County,AR,NA,78.84615384615384,NA
72744,Washington County,AR,NA,97.6923076923077,NA
72764,Washington County,AR,NA,58.84615384615385,NA
72936,Sebastian County,AR,78.59649122807018,NA,NA
72949,Franklin County,AR,NA,NA,74.35064935064936
90013,Los Angeles County,CA,NA,70,NA
90057,Los Angeles County,CA,40.70175438596491,NA,NA
90066,Los Angeles County,CA,NA,NA,28.246753246753247
90067,Los Angeles County,CA,NA,NA,74.67532467532467
90068,Los Angeles County,CA,91.22807017543859,NA,NA
90201,Los Angeles County,CA,31.2280701754386,NA,NA
90221,Los Angeles County,CA,NA,36.92307692307693,NA
90505,Los Angeles County,CA,NA,NA,35.064935064935064
90604,Los Angeles County,CA,NA,NA,32.7922077922078
90731,Los Angeles County,CA,31.57894736842105,NA,NA
91202,Los Angeles County,CA,NA,NA,27.27272727272727
91304,Los Angeles County,CA,NA,NA,16.233766233766232
91311,Los Angeles County,CA,NA,55.00000000000001,NA
91342,Los Angeles County,CA,55.78947368421052,NA,NA
91423,Los Angeles County,CA,72.98245614035088,NA,NA
91601,Los Angeles County,CA,70.17543859649122,NA,NA
91776,Los Angeles County,CA,NA,64.61538461538461,NA
92019,San Diego County,CA,NA,50.76923076923077,NA
92114,San Diego County,CA,NA,NA,30.519480519480517
92128,San Diego County,CA,NA,NA,11.363636363636363
92220,Riverside County,CA,NA,66.15384615384615,NA
92284,San Bernardino County,CA,27.719298245614034,NA,NA
92336,San Bernardino County,CA,7.719298245614035,15.769230769230768,NA
92354,San Bernardino County,CA,NA,74.23076923076923,NA
92371,San Bernardino County,CA,NA,NA,92.85714285714286
92373,San Bernardino County,CA,NA,69.61538461538461,NA
92544,Riverside County,CA,NA,80.76923076923077,NA
92586,Riverside County,CA,NA,50.38461538461539,NA
92604,Orange County,CA,NA,66.15384615384615,NA
92651,Orange County,CA,NA,80,NA
92663,Orange County,CA,NA,81.53846153846153,NA
92677,Orange County,CA,34.03508771929825,NA,NA
92833,Orange County,CA,NA,30.76923076923077,NA
92835,Orange County,CA,NA,NA,21.1038961038961
92860,Riverside County,CA,75.78947368421053,NA,NA
92880,Riverside County,CA,22.807017543859647,NA,NA
93010,Ventura County,CA,69.82456140350877,NA,NA
93030,Ventura County,CA,17.543859649122805,NA,NA
93035,Ventura County,CA,NA,NA,70.12987012987013
93221,Tulare County,CA,NA,NA,88.31168831168831
93257,Tulare County,CA,NA,NA,22.727272727272727
93274,Tulare County,CA,28.771929824561404,NA,NA
93306,Kern County,CA,NA,NA,41.883116883116884
93311,Kern County,CA,NA,NA,71.42857142857143
93610,Madera County,CA,NA,NA,93.83116883116884
93637,Madera County,CA,32.631578947368425,NA,NA
94002,San Mateo County,CA,NA,42.30769230769231,NA
94103,San Francisco County,CA,9.824561403508772,NA,NA
94112,San Francisco County,CA,NA,NA,3.571428571428571
94117,San Francisco County,CA,38.24561403508772,NA,NA
94533,Solano County,CA,25.263157894736842,NA,13.96103896103896
94563,Contra Costa County,CA,90.17543859649123,NA,NA
94591,Solano County,CA,NA,40.76923076923077,NA
94603,Alameda County,CA,78.94736842105263,NA,NA
94806,Contra Costa County,CA,NA,NA,20.454545454545457
94928,Sonoma County,CA,NA,NA,45.45454545454545
95035,Santa Clara County,CA,NA,NA,21.753246753246753
95051,Santa Clara County,CA,NA,NA,40.909090909090914
95127,Santa Clara County,CA,NA,NA,25.649350649350648
95212,San Joaquin County,CA,82.80701754385966,NA,NA
95307,Stanislaus County,CA,82.45614035087719,NA,NA
95327,Tuolumne County,CA,NA,60.38461538461538,NA
95338,Mariposa County,CA,88.42105263157895,NA,NA
95340,Merced County,CA,37.89473684210527,NA,NA
95355,Stanislaus County,CA,NA,NA,26.948051948051948
95610,Sacramento County,CA,NA,NA,43.506493506493506
95662,Sacramento County,CA,NA,NA,41.23376623376623
95820,Sacramento County,CA,NA,NA,53.57142857142857
95825,Sacramento County,CA,NA,88.46153846153845,NA
95826,Sacramento County,CA,NA,NA,54.22077922077923
95966,Butte County,CA,NA,6.923076923076923,NA
96161,Nevada County,CA,NA,76.53846153846153,NA
80020,Broomfield County,CO,NA,33.46153846153846,NA
80022,Adams County,CO,17.192982456140353,NA,NA
80023,Broomfield County,CO,NA,NA,79.54545454545455
80027,Boulder County,CO,NA,NA,77.59740259740259
80112,Arapahoe County,CO,NA,58.46153846153847,NA
80138,Douglas County,CO,NA,70.76923076923077,NA
80203,Denver County,CO,71.9298245614035,NA,NA
80204,Denver County,CO,22.105263157894736,NA,NA
80224,Denver County,CO,NA,82.3076923076923,NA
80304,Boulder County,CO,NA,NA,71.75324675324676
80905,El Paso County,CO,69.12280701754386,NA,NA
80906,El Paso County,CO,NA,43.07692307692308,NA
80910,El Paso County,CO,26.666666666666668,NA,NA
80915,El Paso County,CO,NA,NA,63.63636363636363
80917,El Paso County,CO,NA,NA,56.81818181818182
81007,Pueblo County,CO,48.421052631578945,NA,NA
81501,Mesa County,CO,NA,62.30769230769231,NA
06051,Hartford County,CT,NA,55.38461538461539,NA
06105,Hartford County,CT,NA,NA,56.16883116883117
06234,Windham County,CT,NA,75,84.0909090909091
06405,New Haven County,CT,NA,NA,10.714285714285714
06468,Fairfield County,CT,NA,NA,77.27272727272727
06604,Fairfield County,CT,NA,37.30769230769231,NA
06710,New Haven County,CT,63.1578947368421,NA,NA
06824,Fairfield County,CT,NA,NA,57.14285714285714
19947,Sussex County,DE,NA,NA,52.922077922077925
19973,Sussex County,DE,NA,NA,50.649350649350644
19977,Kent County,DE,NA,47.69230769230769,NA
32025,Columbia County,FL,40,NA,NA
32129,Volusia County,FL,77.54385964912281,NA,NA
32148,Putnam County,FL,NA,NA,68.18181818181817
32163,Sumter County,FL,NA,34.61538461538461,NA
32164,Flagler County,FL,NA,13.846153846153847,NA
32207,Duval County,FL,NA,10.384615384615385,NA
32303,Leon County,FL,47.01754385964912,NA,NA
32347,Taylor County,FL,89.47368421052632,NA,NA
32456,Gulf County,FL,91.57894736842105,NA,NA
32507,Escambia County,FL,NA,11.153846153846155,NA
32577,Escambia County,FL,91.9298245614035,NA,NA
32726,Lake County,FL,NA,52.69230769230769,NA
32738,Volusia County,FL,NA,NA,49.67532467532468
32922,Brevard County,FL,NA,NA,58.44155844155844
32927,Brevard County,FL,NA,51.92307692307693,NA
32958,Indian River County,FL,NA,NA,7.142857142857142
32962,Indian River County,FL,51.2280701754386,NA,NA
33012,Miami-Dade County,FL,NA,22.692307692307693,NA
33021,Broward County,FL,NA,NA,5.51948051948052
33036,Monroe County,FL,NA,NA,99.67532467532467
33157,Miami-Dade County,FL,NA,NA,22.07792207792208
33176,Miami-Dade County,FL,NA,NA,27.5974025974026
33315,Broward County,FL,NA,NA,90.9090909090909
33477,Palm Beach County,FL,NA,NA,42.2077922077922
33584,Hillsborough County,FL,NA,NA,94.15584415584416
33592,Hillsborough County,FL,NA,NA,95.45454545454545
33611,Hillsborough County,FL,NA,61.15384615384616,NA
33704,Pinellas County,FL,87.01754385964912,NA,NA
33764,Pinellas County,FL,NA,NA,61.36363636363637
33770,Pinellas County,FL,62.807017543859644,NA,NA
33825,Highlands County,FL,54.385964912280706,NA,NA
33841,Polk County,FL,NA,NA,96.75324675324676
33868,Polk County,FL,93.33333333333333,NA,NA
33901,Lee County,FL,NA,46.92307692307692,NA
33953,Charlotte County,FL,NA,91.53846153846153,NA
34203,Manatee County,FL,58.59649122807018,NA,NA
34209,Manatee County,FL,67.71929824561404,NA,NA
34231,Sarasota County,FL,57.19298245614035,NA,NA
34234,Sarasota County,FL,43.15789473684211,NA,NA
34243,Manatee County,FL,NA,NA,7.792207792207792
34601,Hernando County,FL,52.28070175438596,NA,NA
34638,Pasco County,FL,NA,NA,94.8051948051948
34683,Pinellas County,FL,NA,NA,47.72727272727273
34691,Pasco County,FL,47.719298245614034,NA,NA
34714,Lake County,FL,78.24561403508771,NA,NA
34759,Polk County,FL,41.40350877192983,NA,NA
34761,Orange County,FL,NA,44.61538461538462,NA
34769,Osceola County,FL,48.771929824561404,NA,NA
34772,Osceola County,FL,NA,72.6923076923077,NA
34787,Orange County,FL,NA,20.384615384615383,NA
34788,Lake County,FL,NA,NA,32.142857142857146
34949,St. Lucie County,FL,NA,NA,69.48051948051948
34950,St. Lucie County,FL,NA,NA,89.93506493506493
34951,St. Lucie County,FL,NA,NA,57.467532467532465
30043,Gwinnett County,GA,23.859649122807017,NA,NA
30060,Cobb County,GA,NA,NA,62.66233766233766
30066,Cobb County,GA,NA,NA,35.38961038961039
30083,DeKalb County,GA,29.122807017543863,NA,NA
30096,Gwinnett County,GA,NA,NA,18.506493506493506
30135,Douglas County,GA,NA,12.307692307692308,NA
30215,Fayette County,GA,NA,73.46153846153847,NA
30252,Henry County,GA,42.45614035087719,NA,NA
30305,Fulton County,GA,NA,NA,40.58441558441558
30453,Tattnall County,GA,NA,NA,99.35064935064936
30512,Union County,GA,NA,53.07692307692308,NA
30528,White County,GA,NA,NA,64.93506493506493
30557,Stephens County,GA,99.64912280701755,NA,NA
30560,Fannin County,GA,NA,94.23076923076923,NA
30655,Walton County,GA,NA,29.615384615384617,NA
30705,Murray County,GA,NA,NA,89.6103896103896
30736,Catoosa County,GA,NA,19.230769230769234,NA
31079,Wilcox County,GA,NA,NA,100
31404,Chatham County,GA,NA,43.84615384615385,47.07792207792208
31794,Tift County,GA,30.175438596491226,NA,NA
31909,Muscogee County,GA,NA,28.46153846153846,NA
39823,Early County,GA,66.66666666666666,NA,NA
96817,Honolulu County,HI,NA,NA,4.220779220779221
83501,Nez Perce County,ID,NA,9.615384615384617,6.8181818181818175
83815,Kootenai County,ID,NA,56.15384615384615,NA
60010,Lake County,IL,NA,NA,17.532467532467532
60046,Lake County,IL,NA,25,NA
60061,Lake County,IL,90.87719298245615,NA,NA
60074,Cook County,IL,NA,37.69230769230769,NA
60102,McHenry County,IL,NA,NA,91.55844155844156
60134,Kane County,IL,NA,NA,27.92207792207792
60409,Cook County,IL,NA,NA,36.688311688311686
60440,Will County,IL,NA,12.692307692307692,NA
60477,Cook County,IL,28.421052631578945,NA,NA
60481,Will County,IL,NA,57.692307692307686,NA
60559,DuPage County,IL,NA,51.153846153846146,NA
60561,DuPage County,IL,NA,NA,31.818181818181817
60611,Cook County,IL,NA,20,11.688311688311687
60638,Cook County,IL,NA,NA,4.870129870129871
60655,Cook County,IL,30.87719298245614,NA,NA
61265,Rock Island County,IL,NA,NA,14.285714285714285
61342,LaSalle County,IL,NA,51.53846153846153,NA
61364,LaSalle County,IL,60,NA,NA
61401,Knox County,IL,NA,NA,19.480519480519483
61738,Woodford County,IL,NA,99.61538461538461,NA
61761,McLean County,IL,NA,NA,35.714285714285715
61802,Champaign County,IL,NA,31.538461538461537,NA
62203,St. Clair County,IL,NA,83.84615384615385,NA
62263,Washington County,IL,95.43859649122807,NA,NA
46012,Madison County,IN,39.64912280701755,NA,NA
46135,Putnam County,IN,NA,NA,39.285714285714285
46176,Shelby County,IN,NA,NA,7.467532467532467
46203,Marion County,IN,NA,NA,28.57142857142857
46227,Marion County,IN,37.54385964912281,NA,NA
46256,Marion County,IN,NA,NA,60.064935064935064
46304,Porter County,IN,NA,17.307692307692307,NA
46368,Porter County,IN,NA,1.153846153846154,NA
46410,Lake County,IN,5.263157894736842,NA,NA
46835,Allen County,IN,NA,9.230769230769232,NA
46901,Howard County,IN,NA,2.6923076923076925,NA
46952,Grant County,IN,52.63157894736842,NA,NA
46970,Miami County,IN,NA,21.923076923076923,NA
47122,Floyd County,IN,NA,92.3076923076923,NA
47374,Wayne County,IN,NA,NA,1.6233766233766231
47394,Randolph County,IN,76.84210526315789,NA,NA
47433,Owen County,IN,98.59649122807016,NA,NA
47620,Posey County,IN,72.63157894736842,NA,NA
50208,Jasper County,IA,61.05263157894737,NA,NA
50316,Polk County,IA,NA,NA,70.77922077922078
50317,Polk County,IA,NA,13.461538461538462,NA
51002,Buena Vista County,IA,98.94736842105263,NA,NA
51031,Plymouth County,IA,NA,54.61538461538461,NA
51501,Pottawattamie County,IA,2.1052631578947367,NA,NA
52172,Allamakee County,IA,85.6140350877193,NA,NA
52601,Des Moines County,IA,10.175438596491228,NA,NA
52722,Scott County,IA,21.052631578947366,NA,NA
52726,Scott County,IA,NA,98.84615384615385,NA
52742,Clinton County,IA,NA,NA,88.96103896103897
66062,Johnson County,KS,NA,NA,17.857142857142858
67037,Sedgwick County,KS,92.28070175438596,NA,NA
67152,Sumner County,KS,NA,86.53846153846155,NA
40206,Jefferson County,KY,NA,80.38461538461539,NA
40211,Jefferson County,KY,11.228070175438596,NA,NA
40213,Jefferson County,KY,36.84210526315789,NA,NA
40216,Jefferson County,KY,6.666666666666667,NA,NA
40383,Woodford County,KY,77.19298245614034,NA,NA
40391,Clark County,KY,NA,NA,25
40422,Boyle County,KY,NA,NA,57.7922077922078
40447,Jackson County,KY,NA,NA,95.12987012987013
40508,Fayette County,KY,NA,NA,73.37662337662337
40514,Fayette County,KY,NA,NA,78.8961038961039
40515,Fayette County,KY,NA,NA,81.16883116883116
40701,Whitley County,KY,8.421052631578947,NA,NA
40741,Laurel County,KY,NA,NA,80.51948051948052
40962,Clay County,KY,19.298245614035086,NA,NA
40965,Bell County,KY,NA,NA,41.55844155844156
41144,Greenup County,KY,43.859649122807014,NA,NA
41311,Lee County,KY,NA,NA,90.25974025974025
41339,Breathitt County,KY,NA,76.15384615384615,NA
41465,Magoffin County,KY,NA,NA,86.03896103896103
42164,Allen County,KY,41.05263157894737,NA,NA
42240,Christian County,KY,4.912280701754386,NA,NA
42743,Green County,KY,NA,69.23076923076923,NA
42754,Grayson County,KY,NA,41.15384615384615,NA
70002,Jefferson Parish,LA,NA,NA,36.36363636363637
70441,St. Helena Parish,LA,95.78947368421052,NA,NA
70454,Tangipahoa Parish,LA,NA,7.6923076923076925,NA
70458,St. Tammany Parish,LA,NA,NA,10.064935064935066
70520,Lafayette Parish,LA,24.912280701754387,NA,NA
70767,West Baton Rouge Parish,LA,49.473684210526315,NA,NA
70815,East Baton Rouge Parish,LA,14.385964912280702,NA,NA
71078,De Soto Parish,LA,NA,78.46153846153847,NA
71109,Caddo Parish,LA,NA,NA,39.285714285714285
04730,Aroostook County,ME,62.4561403508772,NA,NA
04937,Somerset County,ME,NA,67.6923076923077,NA
20601,Charles County,MD,NA,84.61538461538461,NA
20657,Calvert County,MD,NA,NA,92.53246753246754
20678,Calvert County,MD,NA,94.61538461538461,NA
20814,Montgomery County,MD,NA,79.61538461538461,NA
21013,Baltimore County,MD,NA,NA,87.66233766233766
21029,Howard County,MD,NA,98.07692307692307,NA
21113,Anne Arundel County,MD,60.70175438596491,NA,NA
21157,Carroll County,MD,NA,49.61538461538461,NA
21218,Baltimore city,MD,7.368421052631578,NA,NA
21229,Baltimore city,MD,18.596491228070175,NA,NA
21811,Worcester County,MD,NA,NA,18.83116883116883
01240,Berkshire County,MA,NA,NA,51.94805194805194
01301,Franklin County,MA,NA,39.23076923076923,NA
01462,Worcester County,MA,53.333333333333336,NA,NA
01604,Worcester County,MA,NA,NA,2.922077922077922
01609,Worcester County,MA,80.7017543859649,NA,NA
01741,Middlesex County,MA,NA,96.92307692307692,NA
01775,Middlesex County,MA,NA,86.92307692307692,NA
01824,Middlesex County,MA,NA,35,NA
02134,Suffolk County,MA,9.473684210526317,NA,NA
02149,Middlesex County,MA,NA,6.153846153846154,2.272727272727273
02152,Suffolk County,MA,NA,5.769230769230769,NA
02301,Plymouth County,MA,0,NA,NA
02302,Plymouth County,MA,1.0526315789473684,NA,NA
02338,Plymouth County,MA,NA,NA,78.57142857142857
02382,Plymouth County,MA,NA,NA,87.33766233766234
02446,Norfolk County,MA,20,NA,NA
02536,Barnstable County,MA,NA,NA,12.987012987012985
02556,Barnstable County,MA,NA,NA,95.45454545454545
02639,Barnstable County,MA,NA,NA,71.1038961038961
02739,Plymouth County,MA,NA,NA,79.87012987012987
48030,Oakland County,MI,45.614035087719294,NA,NA
48062,Macomb County,MI,NA,NA,87.66233766233766
48076,Oakland County,MI,NA,25.769230769230766,NA
48081,Macomb County,MI,NA,NA,51.62337662337663
48219,Wayne County,MI,3.1578947368421053,NA,NA
48221,Wayne County,MI,3.508771929824561,NA,NA
48306,Oakland County,MI,46.31578947368421,NA,NA
48309,Oakland County,MI,NA,27.692307692307693,NA
48323,Oakland County,MI,NA,46.15384615384615,NA
48326,Oakland County,MI,NA,56.53846153846154,NA
48335,Oakland County,MI,NA,54.230769230769226,NA
48353,Livingston County,MI,NA,NA,90.25974025974025
48375,Oakland County,MI,NA,NA,53.246753246753244
48439,Genesee County,MI,10.87719298245614,NA,NA
48506,Genesee County,MI,26.31578947368421,38.46153846153847,NA
48625,Clare County,MI,30.526315789473685,NA,NA
48661,Ogemaw County,MI,NA,NA,33.116883116883116
48723,Tuscola County,MI,NA,23.846153846153847,NA
48744,Tuscola County,MI,NA,NA,91.23376623376623
48813,Eaton County,MI,NA,NA,34.74025974025974
48823,Ingham County,MI,NA,NA,38.961038961038966
48838,Montcalm County,MI,NA,71.92307692307692,NA
49007,Kalamazoo County,MI,41.40350877192983,NA,NA
49013,Van Buren County,MI,NA,96.53846153846153,NA
49058,Barry County,MI,NA,38.84615384615385,NA
49065,Van Buren County,MI,NA,NA,86.68831168831169
49424,Ottawa County,MI,NA,48.84615384615385,NA
49507,Kent County,MI,NA,NA,44.48051948051948
49635,Benzie County,MI,NA,87.6923076923077,NA
49735,Otsego County,MI,33.33333333333333,NA,NA
55024,Dakota County,MN,NA,NA,85.71428571428571
55075,Dakota County,MN,NA,NA,72.72727272727273
55104,Ramsey County,MN,13.684210526315791,NA,NA
55344,Hennepin County,MN,94.03508771929825,NA,NA
55423,Hennepin County,MN,NA,NA,37.01298701298701
55792,St. Louis County,MN,38.94736842105263,NA,NA
55976,Olmsted County,MN,NA,NA,79.22077922077922
56601,Beltrami County,MN,NA,NA,59.09090909090909
38619,Panola County,MS,96.84210526315789,NA,NA
38663,Tippah County,MS,NA,NA,62.01298701298701
38701,Washington County,MS,NA,NA,83.11688311688312
38826,Lee County,MS,NA,NA,82.46753246753246
38901,Grenada County,MS,NA,88.07692307692308,NA
39209,Hinds County,MS,24.561403508771928,NA,NA
39581,Jackson County,MS,NA,NA,97.40259740259741
63021,St. Louis County,MO,45.96491228070175,NA,8.441558441558442
63111,St. Louis city,MO,NA,NA,68.5064935064935
63129,St. Louis County,MO,NA,4.615384615384616,NA
63130,St. Louis County,MO,NA,58.84615384615385,NA
63146,St. Louis County,MO,NA,33.84615384615385,NA
63385,St. Charles County,MO,NA,10.76923076923077,NA
63401,Marion County,MO,50.526315789473685,NA,NA
63901,Butler County,MO,11.578947368421053,NA,NA
64029,Jackson County,MO,42.10526315789473,NA,NA
64055,Jackson County,MO,NA,NA,14.61038961038961
64067,Lafayette County,MO,68.77192982456141,NA,NA
64070,Jackson County,MO,NA,99.23076923076923,NA
64086,Jackson County,MO,35.43859649122807,NA,NA
64089,Clay County,MO,55.43859649122807,NA,NA
64093,Johnson County,MO,NA,NA,44.8051948051948
64098,Platte County,MO,98.24561403508771,NA,NA
64118,Clay County,MO,NA,NA,29.22077922077922
64130,Jackson County,MO,NA,18.846153846153847,NA
64131,Jackson County,MO,12.631578947368421,NA,NA
64492,Clinton County,MO,NA,100,NA
64506,Buchanan County,MO,NA,4.230769230769231,NA
65704,Wright County,MO,NA,98.46153846153847,NA
65807,Greene County,MO,NA,15,NA
59101,Yellowstone County,MT,NA,NA,13.311688311688311
59457,Fergus County,MT,NA,NA,32.467532467532465
59715,Gallatin County,MT,NA,36.15384615384615,NA
59870,Ravalli County,MT,94.38596491228071,NA,NA
89103,Clark County,NV,83.15789473684211,NA,NA
89108,Clark County,NV,NA,42.69230769230769,NA
89109,Clark County,NV,97.54385964912281,NA,NA
89121,Clark County,NV,29.82456140350877,71.15384615384616,NA
89434,Washoe County,NV,NA,35.76923076923077,NA
89506,Washoe County,NV,18.947368421052634,NA,NA
03063,Hillsborough County,NH,NA,NA,69.15584415584416
03561,Grafton County,NH,NA,NA,76.2987012987013
07030,Hudson County,NJ,4.56140350877193,NA,NA
07090,Union County,NJ,NA,NA,43.83116883116883
07202,Union County,NJ,4.2105263157894735,NA,NA
07470,Passaic County,NJ,NA,NA,6.493506493506493
07631,Bergen County,NJ,NA,NA,52.5974025974026
07738,Monmouth County,NJ,NA,NA,94.48051948051948
07747,Monmouth County,NJ,NA,NA,58.11688311688312
07762,Monmouth County,NJ,NA,NA,77.92207792207793
08030,Camden County,NJ,NA,61.92307692307693,NA
08054,Burlington County,NJ,NA,NA,53.896103896103895
08071,Gloucester County,NJ,NA,88.46153846153845,NA
08085,Gloucester County,NJ,25.6140350877193,NA,NA
08234,Atlantic County,NJ,NA,11.923076923076923,NA
08302,Cumberland County,NJ,NA,8.846153846153847,NA
08318,Salem County,NJ,NA,NA,64.28571428571429
08401,Atlantic County,NJ,NA,NA,21.428571428571427
08618,Mercer County,NJ,0.7017543859649122,NA,NA
08759,Ocean County,NJ,NA,0.38461538461538464,NA
87113,Bernalillo County,NM,81.75438596491227,NA,NA
87121,Bernalillo County,NM,NA,NA,26.2987012987013
87301,McKinley County,NM,NA,61.53846153846154,75
87507,Santa Fe County,NM,NA,NA,20.77922077922078
88210,Eddy County,NM,NA,62.69230769230769,NA
10013,New York County,NY,NA,NA,54.54545454545454
10014,New York County,NY,87.71929824561403,NA,NA
10025,New York County,NY,NA,NA,2.5974025974025974
10034,New York County,NY,34.385964912280706,NA,NA
10075,New York County,NY,NA,NA,16.883116883116884
10309,Richmond County,NY,NA,NA,46.75324675324675
10456,Bronx County,NY,NA,NA,3.2467532467532463
10550,Westchester County,NY,NA,23.076923076923077,NA
10956,Rockland County,NY,NA,NA,26.623376623376622
11228,Kings County,NY,NA,NA,48.37662337662338
11233,Kings County,NY,9.12280701754386,NA,NA
11372,Queens County,NY,NA,20.76923076923077,NA
11563,Nassau County,NY,NA,NA,55.1948051948052
11692,Queens County,NY,51.92982456140351,NA,NA
11701,Suffolk County,NY,NA,NA,38.63636363636363
11720,Suffolk County,NY,NA,NA,29.87012987012987
11725,Suffolk County,NY,NA,72.3076923076923,NA
11738,Suffolk County,NY,88.0701754385965,NA,NA
11784,Suffolk County,NY,NA,NA,52.27272727272727
11937,Suffolk County,NY,NA,NA,66.23376623376623
12020,Saratoga County,NY,20.350877192982455,NA,NA
12118,Saratoga County,NY,63.50877192982456,NA,NA
12189,Albany County,NY,NA,68.07692307692308,NA
12477,Ulster County,NY,NA,NA,72.07792207792207
12801,Warren County,NY,20.701754385964914,NA,NA
12953,Franklin County,NY,NA,NA,23.7012987012987
13039,Onondaga County,NY,NA,66.92307692307692,NA
13045,Cortland County,NY,NA,8.076923076923077,NA
13367,Lewis County,NY,NA,65.38461538461539,NA
13617,St. Lawrence County,NY,NA,NA,45.77922077922078
13736,Tioga County,NY,NA,97.3076923076923,NA
13833,Broome County,NY,77.89473684210526,NA,NA
14136,Chautauqua County,NY,NA,NA,97.72727272727273
14214,Erie County,NY,31.57894736842105,NA,NA
14221,Erie County,NY,8.771929824561402,1.9230769230769231,13.636363636363635
14522,Wayne County,NY,NA,28.846153846153843,NA
14612,Monroe County,NY,NA,0.7692307692307693,NA
14621,Monroe County,NY,0.3508771929824561,NA,NA
14807,Steuben County,NY,94.73684210526315,NA,NA
27030,Surry County,NC,NA,NA,12.012987012987013
27253,Alamance County,NC,NA,NA,30.844155844155846
27262,Guilford County,NC,42.80701754385965,NA,NA
27332,Lee County,NC,NA,NA,50
27406,Guilford County,NC,NA,0,NA
27509,Granville County,NC,NA,NA,85.06493506493507
27529,Wake County,NC,NA,NA,18.181818181818183
28027,Cabarrus County,NC,NA,3.4615384615384617,NA
28110,Union County,NC,NA,14.615384615384617,NA
28146,Rowan County,NC,33.68421052631579,NA,NA
28208,Mecklenburg County,NC,7.017543859649122,NA,NA
28209,Mecklenburg County,NC,NA,90,NA
28348,Cumberland County,NC,NA,40.38461538461539,NA
28401,New Hanover County,NC,NA,NA,56.493506493506494
28405,New Hanover County,NC,36.140350877192986,NA,NA
28412,New Hanover County,NC,NA,27.307692307692307,NA
28601,Catawba County,NC,NA,7.307692307692308,NA
28602,Catawba County,NC,NA,43.46153846153846,NA
28659,Wilkes County,NC,NA,65,NA
28675,Alleghany County,NC,NA,NA,75.32467532467533
28712,Transylvania County,NC,NA,NA,9.415584415584416
28792,Henderson County,NC,NA,8.461538461538462,NA
58554,Morton County,ND,NA,NA,10.38961038961039
58701,Ward County,ND,8.070175438596491,NA,NA
43062,Licking County,OH,NA,30,NA
43222,Franklin County,OH,59.29824561403508,NA,NA
43232,Franklin County,OH,56.84210526315789,NA,NA
43543,Williams County,OH,NA,NA,76.2987012987013
43566,Lucas County,OH,NA,NA,80.84415584415584
43605,Lucas County,OH,1.7543859649122806,NA,NA
43620,Lucas County,OH,75.43859649122807,NA,NA
43623,Lucas County,OH,27.368421052631582,NA,33.76623376623377
43812,Coshocton County,OH,NA,5,NA
44004,Ashtabula County,OH,NA,NA,1.948051948051948
44030,Ashtabula County,OH,23.157894736842106,NA,NA
44122,Cuyahoga County,OH,NA,NA,0.3246753246753247
44124,Cuyahoga County,OH,NA,2.307692307692308,NA
44224,Summit County,OH,NA,6.538461538461539,NA
44230,Wayne County,OH,NA,83.07692307692308,NA
44301,Summit County,OH,NA,NA,68.83116883116884
44313,Summit County,OH,NA,NA,14.935064935064934
44403,Trumbull County,OH,NA,77.6923076923077,NA
44473,Trumbull County,OH,NA,NA,99.02597402597402
44657,Stark County,OH,85.96491228070175,NA,NA
44720,Stark County,OH,NA,56.92307692307692,NA
45067,Butler County,OH,NA,79.23076923076923,NA
45069,Butler County,OH,23.157894736842106,16.923076923076923,NA
45102,Clermont County,OH,NA,NA,74.02597402597402
45123,Highland County,OH,66.3157894736842,NA,NA
45211,Hamilton County,OH,NA,NA,38.311688311688314
45215,Hamilton County,OH,NA,74.61538461538461,33.44155844155844
45224,Hamilton County,OH,21.75438596491228,NA,NA
45231,Hamilton County,OH,5.614035087719298,NA,NA
45248,Hamilton County,OH,NA,85.38461538461539,NA
45322,Montgomery County,OH,NA,NA,36.038961038961034
45381,Preble County,OH,NA,NA,83.76623376623377
45406,Montgomery County,OH,12.982456140350877,NA,NA
45601,Ross County,OH,NA,NA,0
45631,Gallia County,OH,NA,NA,5.844155844155844
45638,Lawrence County,OH,NA,NA,24.350649350649352
45690,Pike County,OH,NA,NA,25.324675324675322
73010,McClain County,OK,NA,63.84615384615384,NA
73026,Cleveland County,OK,NA,NA,81.4935064935065
73086,Murray County,OK,NA,NA,75.97402597402598
73108,Oklahoma County,OK,68.0701754385965,NA,NA
73127,Oklahoma County,OK,NA,NA,65.9090909090909
73129,Oklahoma County,OK,52.98245614035088,NA,NA
73159,Oklahoma County,OK,NA,NA,45.12987012987013
73162,Oklahoma County,OK,NA,16.538461538461537,NA
73507,Comanche County,OK,47.368421052631575,NA,NA
73521,Jackson County,OK,NA,85,NA
74044,Creek County,OK,81.40350877192982,NA,NA
74074,Payne County,OK,48.07017543859649,NA,NA
74352,Mayes County,OK,NA,NA,93.18181818181817
74601,Kay County,OK,NA,NA,72.07792207792207
74804,Pottawatomie County,OK,NA,47.30769230769231,NA
74820,Pontotoc County,OK,6.315789473684211,NA,NA
97030,Multnomah County,OR,17.894736842105264,NA,NA
97080,Multnomah County,OR,NA,18.461538461538463,NA
97128,Yamhill County,OR,NA,NA,24.675324675324674
97141,Tillamook County,OR,NA,NA,70.45454545454545
97302,Marion County,OR,NA,NA,96.1038961038961
97333,Benton County,OR,NA,NA,55.84415584415584
97338,Polk County,OR,NA,44.230769230769226,NA
97367,Lincoln County,OR,NA,32.30769230769231,NA
97405,Lane County,OR,NA,63.07692307692307,NA
97477,Lane County,OR,25.964912280701753,30.384615384615383,NA
15065,Allegheny County,PA,69.12280701754386,NA,NA
15066,Beaver County,PA,NA,NA,62.66233766233766
15090,Allegheny County,PA,NA,75,NA
15108,Allegheny County,PA,NA,NA,9.740259740259742
15147,Allegheny County,PA,NA,NA,19.155844155844157
15220,Allegheny County,PA,71.57894736842105,NA,NA
15235,Allegheny County,PA,NA,14.23076923076923,NA
15243,Allegheny County,PA,NA,78.07692307692308,NA
15301,Washington County,PA,NA,NA,12.337662337662337
15401,Fayette County,PA,5.964912280701754,NA,NA
15522,Bedford County,PA,NA,47.69230769230769,NA
15613,Westmoreland County,PA,NA,53.46153846153846,NA
16117,Lawrence County,PA,54.736842105263165,NA,NA
16365,Warren County,PA,36.49122807017544,NA,NA
16403,Crawford County,PA,92.98245614035088,NA,NA
16947,Bradford County,PA,NA,92.6923076923077,NA
17022,Lancaster County,PA,16.49122807017544,NA,NA
17044,Mifflin County,PA,NA,5.384615384615385,11.03896103896104
17046,Lebanon County,PA,37.19298245614035,NA,NA
17055,Cumberland County,PA,NA,NA,8.116883116883116
17057,Dauphin County,PA,NA,NA,44.15584415584416
17078,Lebanon County,PA,NA,NA,6.1688311688311686
17111,Dauphin County,PA,14.736842105263156,NA,NA
17241,Cumberland County,PA,NA,NA,73.7012987012987
17551,Lancaster County,PA,NA,NA,85.3896103896104
17578,Lancaster County,PA,97.89473684210527,NA,NA
17601,Lancaster County,PA,NA,81.15384615384616,NA
17756,Lycoming County,PA,NA,NA,80.1948051948052
17837,Union County,PA,NA,NA,23.051948051948052
17901,Schuylkill County,PA,27.017543859649123,NA,NA
18015,Northampton County,PA,NA,24.615384615384617,NA
18017,Northampton County,PA,29.47368421052631,NA,NA
18049,Lehigh County,PA,NA,NA,66.55844155844156
18201,Luzerne County,PA,19.649122807017545,NA,NA
18472,Wayne County,PA,NA,89.23076923076924,NA
18503,Lackawanna County,PA,96.49122807017544,NA,NA
18810,Bradford County,PA,86.66666666666667,NA,NA
18974,Bucks County,PA,NA,10,NA
19013,Delaware County,PA,2.456140350877193,NA,NA
19038,Montgomery County,PA,NA,24.23076923076923,NA
19083,Delaware County,PA,NA,11.153846153846155,NA
19086,Delaware County,PA,NA,75.76923076923077,NA
19104,Philadelphia County,PA,71.2280701754386,NA,NA
19124,Philadelphia County,PA,1.4035087719298245,NA,NA
19135,Philadelphia County,PA,12.982456140350877,NA,NA
19422,Montgomery County,PA,82.10526315789474,NA,NA
19426,Montgomery County,PA,35.78947368421053,NA,NA
19510,Berks County,PA,NA,NA,84.4155844155844
19567,Berks County,PA,NA,NA,88.63636363636364
02893,Kent County,RI,NA,22.30769230769231,NA
02906,Providence County,RI,NA,NA,48.701298701298704
29006,Lexington County,SC,84.56140350877193,NA,NA
29229,Richland County,SC,NA,55.38461538461539,NA
29303,Spartanburg County,SC,NA,59.61538461538461,NA
29356,Spartanburg County,SC,NA,NA,89.28571428571429
29412,Charleston County,SC,NA,NA,12.662337662337661
29440,Georgetown County,SC,NA,NA,29.545454545454547
29455,Charleston County,SC,NA,32.69230769230769,NA
29483,Dorchester County,SC,16.842105263157894,57.30769230769231,NA
29671,Pickens County,SC,NA,63.46153846153846,37.33766233766234
29681,Greenville County,SC,NA,13.076923076923078,NA
29687,Greenville County,SC,NA,NA,17.20779220779221
29691,Oconee County,SC,NA,NA,82.14285714285714
29708,York County,SC,NA,NA,73.05194805194806
29732,York County,SC,32.280701754385966,23.46153846153846,NA
29801,Aiken County,SC,NA,NA,46.42857142857143
29805,Aiken County,SC,NA,NA,98.7012987012987
29824,Edgefield County,SC,NA,91.92307692307692,NA
57201,Codington County,SD,NA,67.3076923076923,NA
37022,Sumner County,TN,NA,NA,98.37662337662337
37075,Sumner County,TN,NA,3.076923076923077,NA
37101,Humphreys County,TN,NA,89.61538461538461,NA
37138,Davidson County,TN,NA,NA,65.25974025974025
37211,Davidson County,TN,NA,NA,19.805194805194805
37221,Davidson County,TN,NA,25.769230769230766,NA
37311,Bradley County,TN,35.08771929824561,NA,NA
37312,Bradley County,TN,NA,NA,34.41558441558442
37367,Bledsoe County,TN,NA,NA,66.55844155844156
37377,Hamilton County,TN,NA,19.615384615384617,NA
37388,Coffee County,TN,NA,NA,50.97402597402597
37412,Hamilton County,TN,53.68421052631579,NA,NA
37416,Hamilton County,TN,58.245614035087726,NA,NA
37421,Hamilton County,TN,NA,NA,25.97402597402597
37601,Washington County,TN,15.43859649122807,NA,NA
37771,Loudon County,TN,57.89473684210527,NA,NA
37777,Blount County,TN,63.859649122807014,NA,NA
37857,Hawkins County,TN,NA,41.92307692307693,NA
37865,Sevier County,TN,NA,NA,37.66233766233766
37873,Hawkins County,TN,NA,NA,98.05194805194806
37876,Sevier County,TN,NA,NA,37.98701298701299
37882,Blount County,TN,NA,91.15384615384615,NA
37914,Knox County,TN,NA,NA,59.41558441558441
37917,Knox County,TN,NA,21.53846153846154,NA
37931,Knox County,TN,44.91228070175438,NA,NA
37932,Knox County,TN,NA,71.53846153846153,NA
37934,Knox County,TN,NA,NA,47.4025974025974
38117,Shelby County,TN,NA,73.07692307692307,NA
38201,Carroll County,TN,81.05263157894737,NA,NA
38372,Hardin County,TN,NA,NA,39.285714285714285
38401,Maury County,TN,NA,NA,20.12987012987013
38506,Putnam County,TN,76.49122807017544,NA,NA
38555,Cumberland County,TN,NA,41.53846153846154,NA
75006,Dallas County,TX,NA,NA,28.8961038961039
75024,Collin County,TX,100,NA,NA
75061,Dallas County,TX,NA,25.384615384615383,NA
75075,Collin County,TX,89.12280701754386,NA,NA
75080,Dallas County,TX,NA,NA,16.558441558441558
75093,Collin County,TX,NA,NA,34.090909090909086
75137,Dallas County,TX,NA,NA,61.68831168831169
75401,Hunt County,TX,59.64912280701754,NA,NA
75662,Gregg County,TX,56.49122807017544,NA,NA
75766,Cherokee County,TX,NA,NA,5.194805194805195
75839,Anderson County,TX,96.14035087719299,NA,NA
75904,Angelina County,TX,NA,NA,40.25974025974026
76048,Hood County,TX,NA,31.92307692307692,NA
76092,Tarrant County,TX,67.36842105263158,NA,NA
76132,Tarrant County,TX,NA,NA,49.35064935064935
76140,Tarrant County,TX,NA,46.53846153846154,NA
76210,Denton County,TX,60.35087719298245,NA,NA
76272,Cooke County,TX,NA,93.84615384615384,NA
76302,Wichita County,TX,73.33333333333333,77.3076923076923,NA
76401,Erath County,TX,65.26315789473685,NA,NA
76502,Bell County,TX,14.035087719298245,NA,NA
76579,Bell County,TX,93.6842105263158,NA,NA
76706,McLennan County,TX,NA,45.76923076923077,NA
76904,Tom Green County,TX,NA,NA,30.1948051948052
77011,Harris County,TX,NA,76.92307692307693,NA
77014,Harris County,TX,NA,64.23076923076924,NA
77072,Harris County,TX,NA,82.6923076923077,NA
77089,Harris County,TX,NA,NA,67.53246753246754
77095,Harris County,TX,50.877192982456144,NA,NA
77303,Montgomery County,TX,83.50877192982456,NA,NA
77355,Montgomery County,TX,NA,51.92307692307693,NA
77384,Montgomery County,TX,79.64912280701755,NA,NA
77478,Fort Bend County,TX,NA,NA,50.324675324675326
77611,Orange County,TX,79.2982456140351,NA,NA
77630,Orange County,TX,43.50877192982456,NA,NA
77802,Brazos County,TX,NA,NA,9.090909090909092
78063,Bandera County,TX,NA,93.46153846153847,NA
78064,Atascosa County,TX,80,NA,NA
78109,Bexar County,TX,NA,NA,86.36363636363636
78204,Bexar County,TX,87.36842105263159,NA,NA
78207,Bexar County,TX,NA,NA,22.4025974025974
78213,Bexar County,TX,49.122807017543856,NA,NA
78239,Bexar County,TX,NA,NA,69.8051948051948
78244,Bexar County,TX,64.21052631578948,NA,NA
78250,Bexar County,TX,44.91228070175438,NA,93.5064935064935
78332,Jim Wells County,TX,NA,68.07692307692308,NA
78504,Hidalgo County,TX,NA,NA,60.3896103896104
78557,Hidalgo County,TX,NA,NA,97.07792207792207
78572,Hidalgo County,TX,NA,17.692307692307693,NA
78574,Hidalgo County,TX,NA,NA,42.857142857142854
78596,Hidalgo County,TX,76.14035087719299,NA,NA
78602,Bastrop County,TX,NA,NA,59.74025974025974
78606,Blanco County,TX,NA,95,NA
78629,Gonzales County,TX,NA,NA,61.038961038961034
78666,Hays County,TX,NA,36.53846153846153,NA
78681,Williamson County,TX,NA,NA,62.33766233766234
78749,Travis County,TX,92.63157894736842,NA,NA
78801,Uvalde County,TX,NA,NA,67.85714285714286
79606,Taylor County,TX,64.56140350877193,NA,31.493506493506494
79764,Ector County,TX,84.91228070175438,NA,NA
79912,El Paso County,TX,NA,35.38461538461539,NA
79925,El Paso County,TX,NA,81.92307692307692,NA
84020,Salt Lake County,UT,NA,65.76923076923077,NA
84601,Utah County,UT,73.68421052631578,NA,NA
84651,Utah County,UT,74.03508771929825,NA,NA
05641,Washington County,VT,32.98245614035088,NA,NA
20164,Loudoun County,VA,NA,68.84615384615384,NA
22031,Fairfax County,VA,90.52631578947368,NA,NA
22032,Fairfax County,VA,NA,93.07692307692308,NA
22039,Fairfax County,VA,83.85964912280703,NA,NA
22182,Fairfax County,VA,NA,83.46153846153847,NA
22207,Arlington County,VA,56.14035087719298,NA,NA
22508,Orange County,VA,86.31578947368422,NA,NA
22630,Warren County,VA,NA,33.84615384615385,NA
22802,Harrisonburg city,VA,NA,53.84615384615385,NA
23002,Amelia County,VA,NA,87.3076923076923,NA
23188,James City County,VA,NA,1.5384615384615385,0.6493506493506493
23454,Virginia Beach city,VA,NA,NA,3.896103896103896
24065,Franklin County,VA,NA,95.38461538461539,NA
24104,Bedford County,VA,NA,NA,96.42857142857143
24256,Dickenson County,VA,NA,NA,81.81818181818183
24333,Galax city,VA,49.824561403508774,NA,NA
24477,Augusta County,VA,NA,NA,60.71428571428571
24531,Pittsylvania County,VA,97.19298245614036,NA,NA
24540,Danville city,VA,NA,28.076923076923077,NA
98001,King County,WA,NA,40,NA
98027,King County,WA,NA,NA,54.87012987012987
98052,King County,WA,NA,NA,15.909090909090908
98092,King County,WA,NA,16.153846153846153,NA
98117,King County,WA,NA,NA,82.79220779220779
98122,King County,WA,61.75438596491228,NA,NA
98208,Snohomish County,WA,21.403508771929825,NA,NA
98225,Whatcom County,WA,84.21052631578947,NA,NA
98226,Whatcom County,WA,70.52631578947368,NA,NA
98275,Snohomish County,WA,74.3859649122807,NA,NA
98290,Snohomish County,WA,44.56140350877193,NA,NA
98292,Snohomish County,WA,NA,38.07692307692307,NA
98338,Pierce County,WA,50.175438596491226,NA,NA
98422,Pierce County,WA,65.96491228070175,NA,NA
98465,Pierce County,WA,NA,NA,83.44155844155844
98520,Grays Harbor County,WA,NA,50,NA
98541,Grays Harbor County,WA,NA,85.76923076923076,NA
98584,Mason County,WA,NA,18.076923076923077,NA
98930,Yakima County,WA,88.7719298245614,NA,NA
99208,Spokane County,WA,NA,29.230769230769234,NA
99338,Benton County,WA,64.91228070175438,NA,NA
99362,Walla Walla County,WA,NA,NA,8.766233766233766
20002,District of Columbia,DC,3.8596491228070176,NA,NA
20012,District of Columbia,DC,NA,NA,76.94805194805194
20019,District of Columbia,DC,2.807017543859649,NA,NA
25177,Kanawha County,WV,NA,33.07692307692307,NA
25313,Kanawha County,WV,NA,NA,64.6103896103896
25414,Jefferson County,WV,65.6140350877193,NA,NA
25428,Berkeley County,WV,NA,NA,91.88311688311688
25430,Jefferson County,WV,70.87719298245614,NA,NA
26037,Brooke County,WV,NA,70.38461538461539,NA
26201,Upshur County,WV,NA,NA,15.584415584415584
26354,Taylor County,WV,NA,48.46153846153846,49.02597402597403
26753,Mineral County,WV,NA,86.15384615384616,NA
53072,Waukesha County,WI,NA,NA,42.532467532467535
53081,Sheboygan County,WI,NA,NA,23.376623376623375
53095,Washington County,WI,54.03508771929825,NA,NA
53172,Milwaukee County,WI,38.59649122807017,NA,NA
53212,Milwaukee County,WI,11.929824561403509,NA,NA
53220,Milwaukee County,WI,NA,NA,15.259740259740258
53223,Milwaukee County,WI,15.087719298245613,NA,NA
53527,Dane County,WI,NA,90.76923076923077,NA
53563,Rock County,WI,NA,45.38461538461539,NA
53704,Dane County,WI,NA,15.384615384615385,NA
54220,Manitowoc County,WI,NA,NA,0.974025974025974
54303,Brown County,WI,NA,90.38461538461539,NA
54304,Brown County,WI,22.45614035087719,NA,NA
54455,Marathon County,WI,72.28070175438597,NA,NA
54494,Wood County,WI,NA,3.8461538461538463,NA
54868,Barron County,WI,68.42105263157895,NA,NA
54911,Outagamie County,WI,NA,NA,65.5844155844156
54914,Outagamie County,WI,24.210526315789473,NA,NA
54935,Fond du Lac County,WI,NA,NA,4.545454545454546
54944,Outagamie County,WI,95.08771929824562,NA,NA
82009,Laramie County,WY,NA,58.07692307692308,NA
