ZipCode,county,state,Adult
35079,Blount County,AL,90.18181818181819
36303,Houston County,AL,33.45454545454545
36701,Dallas County,AL,37.81818181818182
99669,Kenai Peninsula Borough,AK,77.0909090909091
85128,Pinal County,AZ,48.36363636363637
85258,Maricopa County,AZ,97.45454545454545
85282,Maricopa County,AZ,49.45454545454545
85705,Pima County,AZ,29.818181818181817
85711,Pima County,AZ,14.909090909090908
85741,Pima County,AZ,69.45454545454545
86004,Coconino County,AZ,10.545454545454545
86503,Apache County,AZ,44.36363636363637
90022,Los Angeles County,CA,72.72727272727273
90023,Los Angeles County,CA,46.18181818181818
90043,Los Angeles County,CA,53.81818181818182
90064,Los Angeles County,CA,38.54545454545455
90220,Los Angeles County,CA,43.27272727272727
90303,Los Angeles County,CA,89.81818181818181
91303,Los Angeles County,CA,85.0909090909091
91320,Ventura County,CA,69.0909090909091
91342,Los Angeles County,CA,60.36363636363637
91352,Los Angeles County,CA,35.63636363636364
92024,San Diego County,CA,49.09090909090909
92054,San Diego County,CA,52
92105,San Diego County,CA,27.27272727272727
92262,Riverside County,CA,32.36363636363636
92394,San Bernardino County,CA,56.72727272727273
92545,Riverside County,CA,50.18181818181818
92553,Riverside County,CA,36.72727272727273
93304,Kern County,CA,33.81818181818182
93311,Kern County,CA,66.54545454545455
93433,San Luis Obispo County,CA,81.45454545454545
93535,Los Angeles County,CA,15.636363636363637
94132,San Francisco County,CA,84
94588,Alameda County,CA,77.81818181818181
94601,Alameda County,CA,52.72727272727272
95301,Merced County,CA,80
95358,Stanislaus County,CA,41.090909090909086
95422,Lake County,CA,64.36363636363637
95667,El Dorado County,CA,42.54545454545455
95765,Placer County,CA,76.36363636363637
95832,Sacramento County,CA,89.45454545454545
80014,Arapahoe County,CO,42.18181818181818
80302,Boulder County,CO,94.18181818181817
06042,Hartford County,CT,74.90909090909092
06513,New Haven County,CT,7.2727272727272725
19720,New Castle County,DE,4
19958,Sussex County,DE,44
32204,Duval County,FL,92
32404,Bay County,FL,34.18181818181818
32409,Bay County,FL,79.27272727272727
32541,Okaloosa County,FL,71.63636363636363
32708,Seminole County,FL,87.63636363636364
32963,Indian River County,FL,93.45454545454545
33409,Palm Beach County,FL,70.18181818181817
33440,Hendry County,FL,88.72727272727273
33511,Hillsborough County,FL,46.54545454545455
33612,Hillsborough County,FL,19.272727272727273
34736,Lake County,FL,78.18181818181819
30025,Walton County,GA,80.72727272727272
30040,Forsyth County,GA,36
30044,Gwinnett County,GA,31.272727272727273
30113,Haralson County,GA,83.27272727272728
30214,Fayette County,GA,61.09090909090909
30265,Coweta County,GA,58.909090909090914
30268,Fulton County,GA,83.63636363636363
30269,Fayette County,GA,74.54545454545455
30316,DeKalb County,GA,60.72727272727273
30442,Jenkins County,GA,82.18181818181817
30577,Stephens County,GA,99.27272727272727
31211,Bibb County,GA,76
96706,Honolulu County,HI,20
96789,Honolulu County,HI,32.72727272727273
96816,Honolulu County,HI,68.72727272727272
96817,Honolulu County,HI,21.818181818181817
60608,Cook County,IL,20.363636363636363
60628,Cook County,IL,12
60638,Cook County,IL,17.81818181818182
61354,LaSalle County,IL,61.45454545454545
61832,Vermilion County,IL,18.545454545454547
62204,St. Clair County,IL,84.72727272727273
46202,Marion County,IN,66.18181818181819
46341,Porter County,IN,67.27272727272727
46368,Porter County,IN,3.272727272727273
46406,Lake County,IN,68
46545,St. Joseph County,IN,55.27272727272727
46628,St. Joseph County,IN,57.45454545454546
47712,Vanderburgh County,IN,59.27272727272728
50036,Boone County,IA,70.9090909090909
51334,Emmet County,IA,70.54545454545455
51503,Pottawattamie County,IA,14.545454545454545
66202,Johnson County,KS,81.0909090909091
66901,Cloud County,KS,98.9090909090909
67217,Sedgwick County,KS,60
40207,Jefferson County,KY,75.27272727272727
40216,Jefferson County,KY,15.272727272727273
40243,Jefferson County,KY,87.27272727272727
40245,Jefferson County,KY,56.00000000000001
42104,Warren County,KY,50.54545454545455
42420,Henderson County,KY,16.363636363636363
70001,Jefferson Parish,LA,7.636363636363637
70123,Jefferson Parish,LA,27.636363636363637
70506,Lafayette Parish,LA,9.090909090909092
70601,Calcasieu Parish,LA,93.0909090909091
71106,Caddo Parish,LA,80.36363636363636
71109,Caddo Parish,LA,10.909090909090908
71457,Natchitoches Parish,LA,11.272727272727273
21060,Anne Arundel County,MD,40
21215,Baltimore city,MD,13.090909090909092
21218,Baltimore city,MD,18.181818181818183
01020,Hampden County,MA,6.909090909090909
01036,Hampden County,MA,100
01864,Middlesex County,MA,55.63636363636364
02072,Norfolk County,MA,14.181818181818182
02121,Suffolk County,MA,0.36363636363636365
02370,Plymouth County,MA,24.363636363636363
02780,Bristol County,MA,5.090909090909091
48091,Macomb County,MI,10.181818181818182
48127,Wayne County,MI,22.545454545454547
48229,Wayne County,MI,63.272727272727266
48422,Sanilac County,MI,91.27272727272727
48506,Genesee County,MI,62.54545454545455
48602,Saginaw County,MI,5.454545454545454
49093,St. Joseph County,MI,40.72727272727273
49329,Montcalm County,MI,62.909090909090914
49444,Muskegon County,MI,17.454545454545457
55051,Kanabec County,MN,85.81818181818181
55122,Dakota County,MN,69.81818181818183
55408,Hennepin County,MN,20.727272727272727
55411,Hennepin County,MN,26.90909090909091
55418,Hennepin County,MN,38.18181818181819
55432,Anoka County,MN,99.63636363636364
38654,DeSoto County,MS,33.09090909090909
38751,Sunflower County,MS,98.18181818181819
39180,Warren County,MS,50.90909090909091
39339,Winston County,MS,76.72727272727272
39479,Covington County,MS,95.63636363636364
63106,St. Louis city,MO,79.63636363636364
63114,St. Louis County,MO,95.27272727272728
64063,Jackson County,MO,47.63636363636364
64628,Linn County,MO,98.54545454545455
64850,Newton County,MO,25.09090909090909
65043,Callaway County,MO,84.36363636363636
65202,Boone County,MO,19.636363636363637
65648,Greene County,MO,97.0909090909091
89701,Carson City,NV,47.27272727272727
03281,Hillsborough County,NH,81.81818181818183
07825,Warren County,NJ,88.36363636363636
08081,Camden County,NJ,1.8181818181818181
08105,Camden County,NJ,1.4545454545454546
08332,Cumberland County,NJ,16.727272727272727
08401,Atlantic County,NJ,0
08816,Middlesex County,NJ,44.72727272727273
08854,Middlesex County,NJ,13.454545454545455
87529,Taos County,NM,97.81818181818181
10014,New York County,NY,86.9090909090909
10306,Richmond County,NY,29.454545454545457
10454,Bronx County,NY,9.454545454545455
11212,Kings County,NY,1.090909090909091
11233,Kings County,NY,2.181818181818182
11237,Kings County,NY,94.9090909090909
12804,Warren County,NY,13.818181818181818
13090,Onondaga County,NY,25.454545454545453
13905,Broome County,NY,2.5454545454545454
14005,Genesee County,NY,96.36363636363636
14048,Chautauqua County,NY,45.81818181818182
14201,Erie County,NY,54.90909090909091
14606,Monroe County,NY,2.909090909090909
14616,Monroe County,NY,4.363636363636364
14623,Monroe County,NY,25.818181818181817
14779,Cattaraugus County,NY,72
27262,Guilford County,NC,48.72727272727273
27530,Wayne County,NC,90.9090909090909
27703,Durham County,NC,18.90909090909091
28052,Gaston County,NC,63.63636363636363
28349,Duplin County,NC,96.72727272727273
28501,Lenoir County,NC,51.63636363636363
28551,Lenoir County,NC,65.45454545454545
43223,Franklin County,OH,8.727272727272728
43229,Franklin County,OH,37.45454545454546
43232,Franklin County,OH,5.818181818181818
43616,Lucas County,OH,49.81818181818182
44011,Lorain County,OH,41.45454545454545
44105,Cuyahoga County,OH,0.7272727272727273
44108,Cuyahoga County,OH,3.6363636363636362
44146,Cuyahoga County,OH,9.818181818181818
44221,Summit County,OH,24
44223,Summit County,OH,54.54545454545454
44305,Summit County,OH,23.272727272727273
44667,Wayne County,OH,67.63636363636364
44691,Wayne County,OH,12.727272727272727
44907,Richland County,OH,48
45013,Butler County,OH,4.7272727272727275
45215,Hamilton County,OH,34.54545454545455
45324,Greene County,OH,17.09090909090909
45385,Greene County,OH,21.09090909090909
45406,Montgomery County,OH,24.727272727272727
45503,Clark County,OH,12.363636363636363
45638,Lawrence County,OH,8
45663,Scioto County,OH,57.09090909090909
73049,Oklahoma County,OK,92.36363636363636
73129,Oklahoma County,OK,58.18181818181818
97227,Multnomah County,OR,93.81818181818183
97236,Multnomah County,OR,30.545454545454547
97355,Linn County,OR,82.54545454545455
97501,Jackson County,OR,43.63636363636363
97504,Jackson County,OR,31.636363636363633
97739,Deschutes County,OR,92.72727272727272
15065,Allegheny County,PA,71.27272727272728
15235,Allegheny County,PA,30.545454545454547
17066,Huntingdon County,PA,89.0909090909091
17603,Lancaster County,PA,16
18360,Monroe County,PA,39.27272727272727
18640,Luzerne County,PA,77.45454545454545
19018,Delaware County,PA,37.09090909090909
19114,Philadelphia County,PA,28.000000000000004
19116,Philadelphia County,PA,39.63636363636363
19139,Philadelphia County,PA,6.181818181818182
19150,Philadelphia County,PA,96
19151,Philadelphia County,PA,22.90909090909091
19440,Montgomery County,PA,65.0909090909091
19454,Montgomery County,PA,51.272727272727266
19464,Montgomery County,PA,8.363636363636363
29464,Charleston County,SC,52.36363636363637
29466,Charleston County,SC,56.00000000000001
29483,Dorchester County,SC,26.181818181818183
29512,Marlboro County,SC,62.18181818181818
29625,Anderson County,SC,42.90909090909091
29644,Greenville County,SC,58.54545454545455
29730,York County,SC,28.72727272727273
29841,Aiken County,SC,59.63636363636363
37087,Wilson County,TN,26.545454545454543
37115,Davidson County,TN,21.454545454545453
37411,Hamilton County,TN,46.909090909090914
37743,Greene County,TN,22.181818181818183
37813,Hamblen County,TN,38.90909090909091
37918,Knox County,TN,23.636363636363637
38002,Shelby County,TN,72.36363636363636
38134,Shelby County,TN,45.45454545454545
38583,White County,TN,34.909090909090914
75024,Collin County,TX,86.18181818181819
75189,Rockwall County,TX,52.72727272727272
75474,Hunt County,TX,65.81818181818181
75670,Harrison County,TX,75.63636363636364
75754,Van Zandt County,TX,94.54545454545455
76040,Tarrant County,TX,54.18181818181819
76133,Tarrant County,TX,28.363636363636363
76209,Denton County,TX,82.9090909090909
77006,Harris County,TX,78.9090909090909
77064,Harris County,TX,45.09090909090909
77082,Harris County,TX,57.81818181818181
77302,Montgomery County,TX,73.81818181818181
77346,Harris County,TX,32
77546,Galveston County,TX,35.27272727272727
77578,Brazoria County,TX,88
78220,Bexar County,TX,64.72727272727272
78552,Cameron County,TX,73.0909090909091
78660,Travis County,TX,36.36363636363637
79904,El Paso County,TX,68.36363636363636
79912,El Paso County,TX,64
84074,Tooele County,UT,6.545454545454546
84120,Salt Lake County,UT,41.81818181818181
05446,Chittenden County,VT,66.9090909090909
05478,Franklin County,VT,61.81818181818181
20190,Fairfax County,VA,85.45454545454545
22046,Falls Church city,VA,86.54545454545455
22192,Prince William County,VA,30.181818181818183
24134,Giles County,VA,90.54545454545455
24151,Franklin County,VA,53.45454545454545
24577,Halifax County,VA,91.63636363636364
98012,Snohomish County,WA,40.36363636363636
98030,King County,WA,78.54545454545455
98116,King County,WA,73.45454545454545
98632,Cowlitz County,WA,29.09090909090909
25526,Putnam County,WV,74.18181818181819
26301,Harrison County,WV,11.636363636363637
