ZipCode,county,state,Adult
35040,Shelby County,AL,47.57281553398058
35124,Shelby County,AL,64.83279395900755
35133,Blount County,AL,95.90075512405609
35173,Jefferson County,AL,48.11218985976268
35207,Jefferson County,AL,67.85329018338727
35210,Jefferson County,AL,68.50053937432578
35214,Jefferson County,AL,30.74433656957929
35215,Jefferson County,AL,51.7799352750809
35226,Jefferson County,AL,46.709816612729234
35473,Tuscaloosa County,AL,54.476806903991374
35601,Morgan County,AL,12.513484358144552
35645,Lauderdale County,AL,71.41316073354909
35653,Franklin County,AL,77.34627831715211
35660,Colbert County,AL,68.50053937432578
35803,Madison County,AL,65.0485436893204
35811,Madison County,AL,39.374325782092775
35901,Etowah County,AL,33.33333333333333
35904,Etowah County,AL,43.47357065803668
36091,Chilton County,AL,97.41100323624595
36305,Houston County,AL,57.82092772384034
36451,Clarke County,AL,86.73139158576052
36502,Escambia County,AL,42.93419633225459
36605,Mobile County,AL,38.295577130528585
36877,Lee County,AL,92.4487594390507
99504,Anchorage Municipality,AK,20.28047464940669
99516,Anchorage Municipality,AK,77.34627831715211
99603,Kenai Peninsula Borough,AK,76.69902912621359
99611,Kenai Peninsula Borough,AK,69.36353829557713
99645,Matanuska-Susitna Borough,AK,53.61380798274003
99654,Matanuska-Susitna Borough,AK,67.4217907227616
99712,Fairbanks North Star Borough,AK,81.44552319309601
85085,Maricopa County,AZ,66.55879180151025
85225,Maricopa County,AZ,10.787486515641856
85249,Maricopa County,AZ,74.86515641855448
85283,Maricopa County,AZ,16.2891046386192
85306,Maricopa County,AZ,53.29018338727076
85349,Yuma County,AZ,80.2588996763754
85353,Maricopa County,AZ,31.607335490830636
85367,Yuma County,AZ,82.41639697950379
85546,Graham County,AZ,77.66990291262135
85552,Graham County,AZ,93.74325782092772
85607,Cochise County,AZ,75.72815533980582
85705,Pima County,AZ,3.8834951456310676
85710,Pima County,AZ,33.11758360302049
85742,Pima County,AZ,77.8856526429342
85743,Pima County,AZ,40.23732470334412
85925,Apache County,AZ,92.66450916936354
86001,Coconino County,AZ,51.24056094929881
86004,Coconino County,AZ,25.997842502696873
71601,Jefferson County,AR,64.5091693635383
71602,Jefferson County,AR,62.02804746494067
71913,Garland County,AR,36.13807982740022
72076,Pulaski County,AR,47.896440129449836
72401,Craighead County,AR,43.581445523193096
72601,Boone County,AR,53.182308522114354
72956,Crawford County,AR,87.37864077669903
90031,Los Angeles County,CA,68.06903991370011
90806,Los Angeles County,CA,55.231930960086295
91030,Los Angeles County,CA,86.40776699029125
91325,Los Angeles County,CA,76.05177993527508
91606,Los Angeles County,CA,59.54692556634305
91711,Los Angeles County,CA,81.9848975188781
92119,San Diego County,CA,85.86839266450917
92234,Riverside County,CA,81.12189859762675
92307,San Bernardino County,CA,25.88996763754045
92395,San Bernardino County,CA,24.919093851132686
92399,San Bernardino County,CA,29.341963322545844
92592,Riverside County,CA,60.94929881337649
92646,Orange County,CA,22.97734627831715
92660,Orange County,CA,59.76267529665588
92705,Orange County,CA,71.95253505933118
92807,Orange County,CA,56.63430420711975
92869,Orange County,CA,59.8705501618123
92870,Orange County,CA,35.706580366774546
92882,Riverside County,CA,27.831715210355988
93111,Santa Barbara County,CA,93.41963322545847
93311,Kern County,CA,61.81229773462783
93422,San Luis Obispo County,CA,45.415318230852215
93446,San Luis Obispo County,CA,24.163969795037758
93631,Fresno County,CA,73.35490830636462
93637,Madera County,CA,30.528586839266453
93725,Fresno County,CA,65.48004314994607
93901,Monterey County,CA,51.56418554476807
93955,Monterey County,CA,37.648327939590075
94110,San Francisco County,CA,11.542610571736784
94123,San Francisco County,CA,63.21467098166127
94134,San Francisco County,CA,69.68716289104638
94531,Contra Costa County,CA,33.00970873786408
94577,Alameda County,CA,35.05933117583603
94606,Alameda County,CA,53.5059331175836
95111,Santa Clara County,CA,36.67745415318231
95358,Stanislaus County,CA,63.43042071197411
95361,Stanislaus County,CA,40.34519956850054
95382,Stanislaus County,CA,22.006472491909385
95503,Humboldt County,CA,47.03344120819849
95608,Sacramento County,CA,38.727076591154265
95648,Placer County,CA,60.40992448759439
95709,El Dorado County,CA,99.78425026968716
95843,Sacramento County,CA,61.596548004315
96002,Shasta County,CA,55.77130528586839
80138,Douglas County,CO,50.80906148867314
80212,Denver County,CO,98.16612729234089
80218,Denver County,CO,60.08629989212514
80219,Denver County,CO,4.638619201725998
80249,Denver County,CO,34.95145631067961
80401,Jefferson County,CO,35.382955771305284
80403,Jefferson County,CO,87.16289104638619
80538,Larimer County,CO,11.11111111111111
80550,Weld County,CO,28.58683926645092
80634,Weld County,CO,2.0496224379719528
80701,Morgan County,CO,20.496224379719525
80863,Teller County,CO,90.29126213592234
80906,El Paso County,CO,61.81229773462783
80916,El Paso County,CO,35.16720604099245
81144,Rio Grande County,CO,89.32038834951457
81504,Mesa County,CO,29.557713052858688
81625,Moffat County,CO,38.403451995685
06062,Hartford County,CT,58.036677454153185
06114,Hartford County,CT,15.210355987055015
06239,Windham County,CT,34.19633225458468
06260,Windham County,CT,64.29341963322545
06410,New Haven County,CT,87.59439050701187
06517,New Haven County,CT,91.9093851132686
06606,Fairfield County,CT,15.857605177993527
06610,Fairfield County,CT,25.458468176914778
06704,New Haven County,CT,20.711974110032365
06770,New Haven County,CT,21.790722761596548
19801,New Castle County,DE,37.2168284789644
19804,New Castle County,DE,26.7529665587918
19805,New Castle County,DE,2.696871628910464
19960,Sussex County,DE,75.40453074433657
32003,Clay County,FL,58.46817691477886
32011,Nassau County,FL,59.115426105717376
32148,Putnam County,FL,76.91477885652644
32168,Volusia County,FL,61.48867313915858
32207,Duval County,FL,16.073354908306364
32217,Duval County,FL,70.55016181229773
32257,Duval County,FL,22.22222222222222
32311,Leon County,FL,90.39913700107874
32348,Taylor County,FL,76.69902912621359
32405,Bay County,FL,24.271844660194176
32428,Washington County,FL,51.45631067961165
32439,Walton County,FL,72.92340884573895
32566,Santa Rosa County,FL,33.65695792880259
32608,Alachua County,FL,6.796116504854369
32653,Alachua County,FL,64.61704422869471
32680,Dixie County,FL,77.13052858683926
32738,Volusia County,FL,35.275080906148865
32763,Volusia County,FL,59.8705501618123
32828,Orange County,FL,36.03020496224379
32935,Brevard County,FL,17.367853290183387
33012,Miami-Dade County,FL,42.71844660194174
33016,Miami-Dade County,FL,53.398058252427184
33021,Broward County,FL,45.9546925566343
33142,Miami-Dade County,FL,48.651564185544764
33144,Miami-Dade County,FL,83.06364617044228
33156,Miami-Dade County,FL,79.50377562028046
33160,Miami-Dade County,FL,65.80366774541531
33311,Broward County,FL,6.148867313915858
33417,Palm Beach County,FL,57.60517799352751
33436,Palm Beach County,FL,55.663430420711975
33462,Palm Beach County,FL,68.17691477885653
33511,Hillsborough County,FL,36.56957928802589
33610,Hillsborough County,FL,13.052858683926646
33617,Hillsborough County,FL,32.68608414239482
33707,Pinellas County,FL,60.40992448759439
33777,Pinellas County,FL,77.99352750809061
33825,Highlands County,FL,49.622437971952536
33860,Polk County,FL,60.30204962243797
33870,Highlands County,FL,27.508090614886733
33905,Lee County,FL,35.49083063646171
33908,Lee County,FL,59.331175836030205
33967,Lee County,FL,58.036677454153185
34109,Collier County,FL,75.18878101402373
34208,Manatee County,FL,23.624595469255663
34219,Manatee County,FL,55.44768069039914
34474,Marion County,FL,96.97950377562027
34609,Hernando County,FL,30.636461704422867
34953,St. Lucie County,FL,4.962243797195254
30014,Newton County,GA,23.948220064724918
30016,Newton County,GA,11.650485436893204
30024,Gwinnett County,GA,19.525350593311757
30102,Cherokee County,GA,45.523193096008626
30104,Polk County,GA,84.89751887810141
30116,Carroll County,GA,46.062567421790725
30121,Bartow County,GA,52.85868392664509
30127,Cobb County,GA,48.004314994606254
30187,Douglas County,GA,76.37540453074433
30241,Troup County,GA,25.782092772384036
30268,Fulton County,GA,78.74865156418555
30297,Clayton County,GA,56.52642934196332
30315,Fulton County,GA,62.891046386192016
30607,Clarke County,GA,81.55339805825243
30705,Murray County,GA,28.478964401294498
30710,Whitfield County,GA,91.04638619201725
30830,Burke County,GA,79.07227615965479
30906,Richmond County,GA,6.903991370010787
30909,Richmond County,GA,23.516720604099245
31047,Houston County,GA,94.71413160733549
31206,Bibb County,GA,29.126213592233007
31326,Effingham County,GA,63.10679611650486
31533,Coffee County,GA,62.02804746494067
31535,Coffee County,GA,96.11650485436894
31721,Dougherty County,GA,74.64940668824164
31750,Ben Hill County,GA,58.252427184466015
31904,Muscogee County,GA,64.40129449838187
39819,Decatur County,GA,78.85652642934197
39854,Quitman County,GA,98.59762675296656
96707,Honolulu County,HI,34.19633225458468
96744,Honolulu County,HI,18.446601941747574
96748,Maui County,HI,91.58576051779936
83634,Ada County,ID,38.83495145631068
83686,Canyon County,ID,7.5512405609492985
83869,Kootenai County,ID,99.24487594390507
60018,Cook County,IL,85.00539374325781
60035,Lake County,IL,73.89428263214671
60046,Lake County,IL,69.03991370010787
60123,Kane County,IL,19.956850053937433
60134,Kane County,IL,42.82632146709817
60153,Cook County,IL,38.07982740021575
60160,Cook County,IL,49.94606256742179
60169,Cook County,IL,45.73894282632146
60181,DuPage County,IL,29.018338727076593
60402,Cook County,IL,10.248112189859762
60423,Will County,IL,39.69795037756203
60440,Will County,IL,18.12297734627832
60441,Will County,IL,54.15318230852212
60445,Cook County,IL,81.22977346278317
60451,Will County,IL,18.015102481121897
60452,Cook County,IL,47.46494066882416
60453,Cook County,IL,42.28694714131607
60467,Cook County,IL,49.083063646170444
60502,DuPage County,IL,79.18015102481122
60504,DuPage County,IL,34.41208198489752
60605,Cook County,IL,83.49514563106796
60607,Cook County,IL,47.357065803667744
60622,Cook County,IL,35.81445523193096
60629,Cook County,IL,5.393743257820928
60646,Cook County,IL,47.57281553398058
60654,Cook County,IL,70.22653721682848
60655,Cook County,IL,27.72384034519957
60659,Cook County,IL,45.73894282632146
61008,Boone County,IL,32.901833872707655
61111,Winnebago County,IL,48.75943905070119
61614,Peoria County,IL,73.57065803667744
61705,McLean County,IL,79.18015102481122
62305,Adams County,IL,95.361380798274
62702,Sangamon County,IL,23.408845738942826
46112,Hendricks County,IN,88.78101402373247
46173,Rush County,IN,56.74217907227616
46217,Marion County,IN,50.26968716289104
46221,Marion County,IN,28.802588996763756
46241,Marion County,IN,18.66235167206041
46307,Lake County,IN,41.10032362459547
46310,Jasper County,IN,51.024811218985974
46321,Lake County,IN,33.76483279395901
46342,Lake County,IN,22.43797195253506
46356,Lake County,IN,29.88133764832794
46368,Porter County,IN,2.373247033441208
46392,Jasper County,IN,67.20604099244876
46404,Lake County,IN,32.362459546925564
46534,Starke County,IN,53.72168284789643
46540,Elkhart County,IN,88.3495145631068
46545,St. Joseph County,IN,46.81769147788565
46701,Noble County,IN,72.59978425026968
46703,Steuben County,IN,49.29881337648328
46806,Allen County,IN,24.487594390507013
46901,Howard County,IN,12.729234088457389
46928,Grant County,IN,99.56850053937433
46953,Grant County,IN,58.89967637540453
47150,Floyd County,IN,9.492988133764833
47172,Clark County,IN,67.09816612729233
47220,Jackson County,IN,89.96763754045307
47304,Delaware County,IN,49.4066882416397
47421,Lawrence County,IN,33.22545846817692
47579,Spencer County,IN,99.35275080906149
47711,Vanderburgh County,IN,26.10571736785329
47933,Montgomery County,IN,30.42071197411003
50021,Polk County,IA,73.7864077669903
50036,Boone County,IA,65.69579288025889
50501,Webster County,IA,22.114347357065803
50701,Black Hawk County,IA,32.25458468176915
50702,Black Hawk County,IA,41.208198489751894
51501,Pottawattamie County,IA,3.128371089536138
51566,Montgomery County,IA,75.83603020496224
51601,Page County,IA,87.48651564185545
52353,Washington County,IA,78.4250269687163
52501,Wapello County,IA,12.944983818770226
52732,Clinton County,IA,88.88888888888889
52806,Scott County,IA,19.741100323624593
66062,Johnson County,KS,35.92233009708738
66067,Franklin County,KS,57.38942826321467
66618,Shawnee County,KS,89.64401294498381
67211,Sedgwick County,KS,52.21143473570658
67544,Barton County,KS,100
40031,Oldham County,KY,31.175836030204962
40160,Hardin County,KY,31.283710895361384
40165,Bullitt County,KY,12.837108953613807
40211,Jefferson County,KY,12.189859762675297
40741,Laurel County,KY,20.819848975188783
40965,Bell County,KY,23.948220064724918
41056,Mason County,KY,73.46278317152104
42066,Graves County,KY,21.035598705501616
42104,Warren County,KY,40.88457389428263
42303,Daviess County,KY,8.95361380798274
42420,Henderson County,KY,8.198489751887811
70037,Plaquemines Parish,LA,98.48975188781014
70053,Jefferson Parish,LA,57.06580366774542
70094,Jefferson Parish,LA,21.898597626752967
70113,Orleans Parish,LA,29.989212513484357
70115,Orleans Parish,LA,16.61272923408846
70118,Orleans Parish,LA,16.181229773462782
70119,Orleans Parish,LA,65.37216828478964
70123,Jefferson Parish,LA,48.327939590075516
70364,Terrebonne Parish,LA,98.27400215749729
70380,St. Mary Parish,LA,20.604099244875947
70403,Tangipahoa Parish,LA,26.968716289104638
70422,Tangipahoa Parish,LA,98.92125134843582
70501,Lafayette Parish,LA,1.8338727076591153
70503,Lafayette Parish,LA,97.84250269687162
70570,St. Landry Parish,LA,1.2944983818770228
70584,St. Landry Parish,LA,66.45091693635383
70592,Lafayette Parish,LA,28.155339805825243
70611,Calcasieu Parish,LA,27.40021574973031
70648,Allen Parish,LA,99.89212513484358
70663,Calcasieu Parish,LA,7.659115426105717
70730,East Feliciana Parish,LA,95.57713052858684
70775,West Feliciana Parish,LA,68.28478964401295
70802,East Baton Rouge Parish,LA,5.501618122977346
70806,East Baton Rouge Parish,LA,93.52750809061489
70812,East Baton Rouge Parish,LA,26.21359223300971
70816,East Baton Rouge Parish,LA,5.070118662351672
71006,Bossier Parish,LA,50.48543689320388
71047,Caddo Parish,LA,50.05393743257821
71104,Caddo Parish,LA,85.22114347357066
71107,Caddo Parish,LA,2.8047464940668827
71108,Caddo Parish,LA,34.84358144552319
71111,Bossier Parish,LA,89.75188781014025
71115,Caddo Parish,LA,78.10140237324703
71129,Caddo Parish,LA,37.97195253505933
71202,Ouachita Parish,LA,94.92988133764833
71220,Morehouse Parish,LA,15.965480043149945
71269,Richland Parish,LA,74.21790722761597
71291,Ouachita Parish,LA,35.59870550161812
71334,Concordia Parish,LA,96.76375404530745
71342,La Salle Parish,LA,60.08629989212514
04005,York County,ME,14.13160733549083
04062,Cumberland County,ME,93.09600862998921
04103,Cumberland County,ME,52.75080906148867
04106,Cumberland County,ME,33.549083063646165
04364,Kennebec County,ME,56.09492988133765
04401,Penobscot County,ME,1.7259978425026967
04605,Hancock County,ME,42.394822006472495
04927,Kennebec County,ME,94.1747572815534
04976,Somerset County,ME,44.7680690399137
20721,Prince George's County,MD,74.21790722761597
20774,Prince George's County,MD,41.855447680690396
21030,Baltimore County,MD,88.24163969795038
21050,Harford County,MD,71.62891046386191
21218,Baltimore city,MD,9.169363538295578
21784,Carroll County,MD,52.96655879180151
21804,Wicomico County,MD,75.94390507011866
21921,Cecil County,MD,85.54476806903992
01027,Hampshire County,MA,10.571736785329017
01077,Hampden County,MA,95.2535059331176
01085,Hampden County,MA,1.5102481121898599
01104,Hampden County,MA,22.330097087378643
01545,Worcester County,MA,15.318230852211434
01775,Middlesex County,MA,89.10463861920172
01801,Middlesex County,MA,1.0787486515641855
01803,Middlesex County,MA,18.77022653721683
01830,Essex County,MA,1.4023732470334414
01841,Essex County,MA,0
01845,Essex County,MA,25.350593311758363
01915,Essex County,MA,25.674217907227614
01945,Essex County,MA,39.15857605177994
01950,Essex County,MA,18.12297734627832
01960,Essex County,MA,44.12081984897519
02093,Norfolk County,MA,55.87918015102481
02119,Suffolk County,MA,1.6181229773462782
02125,Suffolk County,MA,3.9913700107874863
02130,Suffolk County,MA,0.9708737864077669
02144,Middlesex County,MA,18.338727076591155
02151,Suffolk County,MA,9.924487594390508
02152,Suffolk County,MA,39.91370010787487
02155,Middlesex County,MA,0.8629989212513484
02189,Norfolk County,MA,21.467098166127293
02360,Plymouth County,MA,5.93311758360302
02368,Norfolk County,MA,12.297734627831716
02421,Middlesex County,MA,17.25997842502697
02554,Nantucket County,MA,32.14670981661273
02743,Bristol County,MA,97.6267529665588
02780,Bristol County,MA,0.10787486515641855
48038,Macomb County,MI,11.974110032362459
48048,Macomb County,MI,73.67853290183388
48065,Macomb County,MI,75.18878101402373
48066,Macomb County,MI,3.2362459546925564
48084,Oakland County,MI,78.20927723840344
48089,Macomb County,MI,7.119741100323624
48101,Wayne County,MI,55.124056094929884
48111,Wayne County,MI,5.825242718446602
48114,Livingston County,MI,49.83818770226537
48152,Wayne County,MI,31.3915857605178
48162,Monroe County,MI,11.326860841423949
48184,Wayne County,MI,44.55231930960086
48185,Wayne County,MI,43.042071197411005
48195,Wayne County,MI,21.68284789644013
48234,Wayne County,MI,7.011866235167206
48238,Wayne County,MI,4.746494066882416
48239,Wayne County,MI,31.49946062567422
48302,Oakland County,MI,69.90291262135922
48310,Macomb County,MI,14.239482200647249
48336,Oakland County,MI,31.06796116504854
48341,Oakland County,MI,28.694714131607334
48383,Oakland County,MI,68.39266450916936
48430,Genesee County,MI,22.653721682847898
48602,Saginaw County,MI,3.7756202804746493
48618,Midland County,MI,85.97626752966559
48625,Clare County,MI,27.292340884573896
48640,Midland County,MI,54.58468176914779
48820,Clinton County,MI,67.96116504854369
48843,Livingston County,MI,11.21898597626753
48867,Shiawassee County,MI,6.0409924487594395
48895,Ingham County,MI,80.90614886731392
48917,Eaton County,MI,7.874865156418555
49002,Kalamazoo County,MI,90.18338727076592
49004,Kalamazoo County,MI,41.63969795037757
49055,Van Buren County,MI,97.0873786407767
49065,Van Buren County,MI,96.5480043149946
49079,Van Buren County,MI,68.82416396979504
49093,St. Joseph County,MI,63.32254584681769
49203,Jackson County,MI,29.23408845738943
49221,Lenawee County,MI,19.093851132686083
49301,Kent County,MI,67.52966558791802
49343,Kent County,MI,88.45738942826321
49404,Ottawa County,MI,87.27076591154261
49420,Oceana County,MI,70.98166127292342
49423,Ottawa County,MI,59.22330097087378
49444,Muskegon County,MI,8.414239482200648
49548,Kent County,MI,6.472491909385113
49601,Wexford County,MI,86.29989212513485
49684,Grand Traverse County,MI,54.80043149946062
49727,Charlevoix County,MI,85.76051779935275
49841,Marquette County,MI,59.43905070118662
49935,Iron County,MI,71.19741100323624
49938,Gogebic County,MI,95.46925566343042
49946,Baraga County,MI,93.6353829557713
55016,Washington County,MN,83.92664509169363
55076,Dakota County,MN,59.65480043149945
55104,Ramsey County,MN,13.592233009708737
55340,Hennepin County,MN,96.00862998921251
55404,Hennepin County,MN,1.186623516720604
55807,St. Louis County,MN,46.601941747572816
56007,Freeborn County,MN,13.915857605177994
56085,Brown County,MN,90.93851132686083
56353,Mille Lacs County,MN,93.95900755124056
56482,Wadena County,MN,47.249190938511326
56601,Beltrami County,MN,5.609492988133765
56621,Clearwater County,MN,80.47464940668824
56701,Pennington County,MN,17.583603020496223
56721,Polk County,MN,52.319309600862994
56762,Marshall County,MN,94.28263214670982
38606,Panola County,MS,66.66666666666666
38637,DeSoto County,MS,47.03344120819849
38866,Lee County,MS,94.60625674217907
38930,Leflore County,MS,37.43257820927724
39426,Pearl River County,MS,53.937432578209275
39437,Jones County,MS,84.35814455231932
39525,Hancock County,MS,94.49838187702265
39744,Webster County,MS,79.71952535059332
63033,St. Louis County,MO,14.347357065803667
63080,Franklin County,MO,43.25782092772384
63136,St. Louis County,MO,6.3646170442286945
63385,St. Charles County,MO,44.983818770226534
63628,St. Francois County,MO,63.86192017259978
63857,Dunklin County,MO,41.855447680690396
63901,Butler County,MO,41.42394822006473
64012,Cass County,MO,24.59546925566343
64029,Jackson County,MO,37.648327939590075
64050,Jackson County,MO,43.90507011866235
64081,Jackson County,MO,44.228694714131606
64083,Cass County,MO,34.735706580366774
64152,Platte County,MO,49.19093851132686
64429,Clinton County,MO,48.22006472491909
64468,Nodaway County,MO,65.26429341963322
64633,Carroll County,MO,86.19201725997843
64683,Grundy County,MO,58.36030204962243
65270,Randolph County,MO,61.272923408845735
65301,Pettis County,MO,4.207119741100324
59102,Yellowstone County,MT,42.07119741100323
59230,Valley County,MT,96.33225458468176
59330,Dawson County,MT,86.08414239482201
59901,Flathead County,MT,30.204962243797194
68108,Douglas County,NE,71.84466019417476
68117,Douglas County,NE,91.2621359223301
68372,Lancaster County,NE,99.46062567421791
68505,Lancaster County,NE,81.76914778856526
68510,Lancaster County,NE,77.02265372168284
68521,Lancaster County,NE,84.46601941747572
89123,Clark County,NV,78.64077669902912
89141,Clark County,NV,76.1596548004315
89431,Washoe County,NV,20.06472491909385
89436,Washoe County,NV,21.143473570658035
89511,Washoe County,NV,63.53829557713053
89512,Washoe County,NV,14.455231930960085
89523,Washoe County,NV,51.34843581445523
03102,Hillsborough County,NH,19.093851132686083
03264,Grafton County,NH,93.20388349514563
03743,Sullivan County,NH,80.15102481121899
03857,Rockingham County,NH,93.85113268608414
03874,Rockingham County,NH,44.983818770226534
07111,Essex County,NJ,30.097087378640776
07446,Bergen County,NJ,88.9967637540453
07502,Passaic County,NJ,34.627831715210355
07751,Monmouth County,NJ,66.12729234088457
08079,Salem County,NJ,73.2470334412082
08401,Atlantic County,NJ,0.3236245954692557
08611,Mercer County,NJ,4.854368932038835
08701,Ocean County,NJ,32.793959007551244
08751,Ocean County,NJ,92.01725997842503
08861,Middlesex County,NJ,9.60086299892125
87015,Santa Fe County,NM,92.23300970873787
87031,Valencia County,NM,26.537216828478964
87106,Bernalillo County,NM,51.88781014023732
87109,Bernalillo County,NM,15.641855447680692
87120,Bernalillo County,NM,7.982740021574973
87532,Santa Fe County,NM,37.001078748651565
87544,Los Alamos County,NM,84.57389428263214
88230,Chaves County,NM,97.95037756202805
10031,New York County,NY,7.443365695792881
10039,New York County,NY,85.32901833872708
10451,Bronx County,NY,2.481121898597627
10455,Bronx County,NY,19.848975188781015
10461,Bronx County,NY,10.355987055016183
10468,Bronx County,NY,21.35922330097087
10538,Westchester County,NY,99.02912621359224
10573,Westchester County,NY,66.88241639697951
11207,Kings County,NY,0.5393743257820928
11220,Kings County,NY,3.559870550161812
11232,Kings County,NY,61.165048543689316
11237,Kings County,NY,21.57497303128371
11355,Queens County,NY,24.811218985976268
11553,Nassau County,NY,53.07443365695793
12054,Albany County,NY,88.13376483279396
12061,Rensselaer County,NY,86.94714131607336
12110,Albany County,NY,90.50701186623516
12206,Albany County,NY,17.691477885652642
12944,Essex County,NY,74.00215749730313
12981,Clinton County,NY,94.8220064724919
13032,Madison County,NY,30.852211434735704
13152,Onondaga County,NY,40.021574973031285
13204,Onondaga County,NY,9.816612729234087
13207,Onondaga County,NY,29.449838187702266
13403,Oneida County,NY,87.05501618122977
13613,St. Lawrence County,NY,79.39590075512406
13667,St. Lawrence County,NY,83.27939590075513
13833,Broome County,NY,89.85976267529665
13856,Delaware County,NY,77.23840345199568
14001,Erie County,NY,70.01078748651565
14125,Genesee County,NY,84.78964401294499
14127,Erie County,NY,13.700107874865155
14141,Erie County,NY,82.63214670981661
14213,Erie County,NY,17.15210355987055
14214,Erie County,NY,29.773462783171524
14218,Erie County,NY,16.828478964401295
14228,Erie County,NY,75.08090614886731
14304,Niagara County,NY,4.4228694714131604
14424,Ontario County,NY,2.157497303128371
14522,Wayne County,NY,31.715210355987054
14525,Genesee County,NY,95.79288025889967
14580,Monroe County,NY,0.7551240560949299
14607,Monroe County,NY,16.936353829557714
14610,Monroe County,NY,62.45954692556634
14620,Monroe County,NY,5.285868392664509
14738,Chautauqua County,NY,92.55663430420712
14770,Cattaraugus County,NY,95.14563106796116
14810,Steuben County,NY,30.312837108953616
14812,Schuyler County,NY,94.06688241639698
14892,Tioga County,NY,48.43581445523193
27028,Davie County,NC,13.484358144552319
27030,Surry County,NC,60.73354908306364
27215,Alamance County,NC,9.06148867313916
27217,Alamance County,NC,40.56094929881338
27295,Davidson County,NC,36.24595469255664
27536,Vance County,NC,26.7529665587918
27542,Johnston County,NC,69.14778856526429
27546,Harnett County,NC,84.14239482200647
27577,Johnston County,NC,42.502696871628906
27587,Wake County,NC,20.17259978425027
27615,Wake County,NC,38.61920172599784
27803,Nash County,NC,75.6202804746494
28027,Cabarrus County,NC,16.720604099244877
28031,Mecklenburg County,NC,58.791801510248106
28056,Gaston County,NC,43.581445523193096
28163,Stanly County,NC,98.05825242718447
28205,Mecklenburg County,NC,17.90722761596548
28206,Mecklenburg County,NC,38.83495145631068
28303,Cumberland County,NC,80.69039913700108
28546,Onslow County,NC,22.86947141316073
28601,Catawba County,NC,42.17907227615966
28741,Macon County,NC,92.9881337648328
28804,Buncombe County,NC,82.30852211434735
58504,Burleigh County,ND,51.1326860841424
58601,Stark County,ND,41.53182308522114
58701,Ward County,ND,9.277238403451996
43004,Franklin County,OH,72.168284789644
43031,Licking County,OH,79.82740021574973
43056,Licking County,OH,82.20064724919094
43062,Licking County,OH,33.87270765911543
43065,Delaware County,OH,44.44444444444444
43068,Franklin County,OH,8.629989212513484
43076,Perry County,OH,79.93527508090615
43078,Champaign County,OH,32.47033441208199
43110,Franklin County,OH,55.55555555555556
43212,Franklin County,OH,74.4336569579288
43215,Franklin County,OH,36.89320388349515
43228,Franklin County,OH,3.4519956850053934
43545,Henry County,OH,64.94066882416398
43605,Lucas County,OH,13.807982740021574
43613,Lucas County,OH,3.6677454153182305
43616,Lucas County,OH,11.758360302049622
43725,Guernsey County,OH,13.3764832793959
43953,Jefferson County,OH,30.960086299892126
44004,Ashtabula County,OH,1.9417475728155338
44035,Lorain County,OH,2.26537216828479
44044,Lorain County,OH,86.6235167206041
44052,Lorain County,OH,14.886731391585762
44055,Lorain County,OH,31.93096008629989
44094,Lake County,OH,16.396979503775622
44102,Cuyahoga County,OH,0.2157497303128371
44105,Cuyahoga County,OH,0.6472491909385114
44108,Cuyahoga County,OH,15.102481121898597
44109,Cuyahoga County,OH,0.4314994606256742
44118,Cuyahoga County,OH,9.70873786407767
44120,Cuyahoga County,OH,3.0204962243797198
44127,Cuyahoga County,OH,84.68176914778857
44129,Cuyahoga County,OH,13.160733549083064
44135,Cuyahoga County,OH,2.912621359223301
44224,Summit County,OH,52.319309600862994
44241,Portage County,OH,29.665587918015103
44266,Portage County,OH,66.23516720604098
44333,Summit County,OH,68.93203883495146
44471,Mahoning County,OH,52.53505933117584
44481,Trumbull County,OH,59.00755124056095
44644,Carroll County,OH,90.72276159654801
44805,Ashland County,OH,11.86623516720604
44837,Huron County,OH,96.87162891046385
44883,Seneca County,OH,15.74973031283711
45013,Butler County,OH,3.344120819848975
45133,Highland County,OH,18.985976267529665
45206,Hamilton County,OH,51.67206040992449
45229,Hamilton County,OH,28.26321467098166
45247,Hamilton County,OH,58.68392664509169
45302,Shelby County,OH,96.44012944983818
45305,Greene County,OH,89.42826321467098
45324,Greene County,OH,8.30636461704423
45424,Montgomery County,OH,9.385113268608414
45429,Montgomery County,OH,41.316073354908305
45503,Clark County,OH,6.580366774541532
45619,Lawrence County,OH,25.24271844660194
45638,Lawrence County,OH,4.314994606256742
45640,Jackson County,OH,27.07659115426106
45645,Lawrence County,OH,97.19525350593312
45662,Scioto County,OH,2.5889967637540456
45750,Washington County,OH,24.379719525350595
45784,Washington County,OH,71.52103559870551
45786,Washington County,OH,99.13700107874865
73044,Logan County,OK,87.70226537216828
73072,Cleveland County,OK,60.40992448759439
73086,Murray County,OK,68.71628910463862
73107,Oklahoma County,OK,50.26968716289104
73115,Oklahoma County,OK,57.28155339805825
74019,Rogers County,OK,44.87594390507012
74063,Tulsa County,OK,56.310679611650485
74074,Payne County,OK,43.36569579288026
74873,Pottawatomie County,OK,57.497303128371094
74902,Le Flore County,OK,90.614886731391593
97007,Washington County,OR,31.823085221143472
97008,Washington County,OR,82.09277238403452
97070,Clackamas County,OR,61.596548004315
97113,Washington County,OR,69.36353829557713
97203,Multnomah County,OR,70.76591154261057
97206,Multnomah County,OR,12.405609492988134
97210,Multnomah County,OR,74.54153182308522
97219,Multnomah County,OR,83.60302049622437
97223,Washington County,OR,88.02588996763754
97224,Washington County,OR,50.05393743257821
97321,Linn County,OR,24.70334412081985
97338,Polk County,OR,44.66019417475729
97367,Lincoln County,OR,71.30528586839266
97402,Lane County,OR,18.554476806903992
97457,Douglas County,OR,67.74541531823085
97471,Douglas County,OR,15.426105717367852
97479,Douglas County,OR,70.98166127292342
97504,Jackson County,OR,18.878101402373247
97603,Klamath County,OR,17.475728155339805
97739,Deschutes County,OR,80.36677454153183
97882,Umatilla County,OR,80.58252427184466
15132,Allegheny County,PA,10.140237324703344
15207,Allegheny County,PA,57.92880258899677
15501,Somerset County,PA,54.26105717367853
15701,Indiana County,PA,19.41747572815534
15853,Elk County,PA,60.84142394822006
16059,Butler County,PA,98.70550161812298
16423,Erie County,PA,97.51887810140238
16652,Huntingdon County,PA,37.86407766990291
16662,Blair County,PA,90.83063646170443
16823,Centre County,PA,19.633225458468175
16915,Potter County,PA,82.41639697950379
17044,Mifflin County,PA,11.434735706580366
17110,Dauphin County,PA,14.023732470334412
17113,Dauphin County,PA,42.61057173678533
17202,Franklin County,PA,25.5663430420712
17313,York County,PA,65.58791801510249
17319,York County,PA,66.34304207119742
17327,York County,PA,95.03775620280474
17512,Lancaster County,PA,40.45307443365696
17603,Lancaster County,PA,8.090614886731391
18109,Lehigh County,PA,23.085221143473568
18202,Luzerne County,PA,45.19956850053937
18255,Carbon County,PA,87.91801510248112
18431,Wayne County,PA,62.351672060409925
18603,Columbia County,PA,12.62135922330097
18612,Luzerne County,PA,55.33980582524271
18657,Wyoming County,PA,63.75404530744336
18702,Luzerne County,PA,6.68824163969795
18966,Bucks County,PA,14.994606256742179
19001,Montgomery County,PA,54.36893203883495
19020,Bucks County,PA,7.227615965480043
19064,Delaware County,PA,69.7950377562028
19072,Montgomery County,PA,65.91154261057174
19103,Philadelphia County,PA,74.11003236245955
19106,Philadelphia County,PA,83.81877022653723
19125,Philadelphia County,PA,46.27831715210356
19132,Philadelphia County,PA,5.177993527508091
19136,Philadelphia County,PA,37.108953613807984
19139,Philadelphia County,PA,4.0992448759439055
19148,Philadelphia County,PA,7.335490830636461
19348,Chester County,PA,81.66127292340884
19401,Montgomery County,PA,7.766990291262135
19465,Chester County,PA,78.31715210355988
19607,Berks County,PA,84.03451995685005
02878,Newport County,RI,76.48327939590077
02910,Providence County,RI,48.43581445523193
02921,Providence County,RI,92.77238403451996
29020,Kershaw County,SC,65.1564185544768
29072,Lexington County,SC,23.73247033441208
29405,Charleston County,SC,25.13484358144552
29406,Charleston County,SC,82.74002157497303
29418,Charleston County,SC,36.78532901833872
29605,Greenville County,SC,56.09492988133765
29650,Greenville County,SC,36.353829557713055
29671,Pickens County,SC,46.92556634304207
29702,Cherokee County,SC,75.51240560949299
29812,Barnwell County,SC,83.06364617044228
57108,Lincoln County,SD,63.96979503775621
37073,Robertson County,TN,85.11326860841424
37091,Marshall County,TN,37.32470334412082
37160,Bedford County,TN,48.86731391585761
37312,Bradley County,TN,40.88457389428263
37323,Bradley County,TN,39.374325782092775
37324,Franklin County,TN,72.06040992448759
37379,Hamilton County,TN,39.05070118662351
37381,Rhea County,TN,82.95577130528586
37416,Hamilton County,TN,52.642934196332256
37643,Carter County,TN,11.003236245954692
37659,Washington County,TN,34.41208198489752
37743,Greene County,TN,10.895361380798274
37825,Claiborne County,TN,85.65264293419634
37826,McMinn County,TN,77.56202804746493
37874,Monroe County,TN,38.51132686084142
37919,Knox County,TN,80.04314994606257
38016,Shelby County,TN,48.975188781014026
38018,Shelby County,TN,66.99029126213593
38040,Lauderdale County,TN,95.68500539374327
38128,Shelby County,TN,17.691477885652642
38242,Henry County,TN,45.63106796116505
38301,Madison County,TN,8.737864077669903
38305,Madison County,TN,33.441208198489754
38449,Giles County,TN,97.73462783171522
38506,Putnam County,TN,40.1294498381877
75006,Dallas County,TX,74.75728155339806
75023,Collin County,TX,50.5933117583603
75054,Tarrant County,TX,97.30312837108953
75062,Dallas County,TX,43.79719525350593
75089,Dallas County,TX,61.057173678532905
75149,Dallas County,TX,16.50485436893204
75150,Dallas County,TX,55.016181229773466
75216,Dallas County,TX,5.717367853290183
75220,Dallas County,TX,46.170442286947136
75240,Dallas County,TX,67.63754045307444
75440,Rains County,TX,88.56526429341963
75601,Gregg County,TX,72.70765911542611
75645,Upshur County,TX,92.34088457389427
75803,Anderson County,TX,64.72491909385113
75935,Shelby County,TX,74.9730312837109
76020,Tarrant County,TX,27.939590075512406
76052,Tarrant County,TX,81.22977346278317
76067,Palo Pinto County,TX,79.6116504854369
76088,Parker County,TX,78.5329018338727
76126,Tarrant County,TX,94.39050701186623
76133,Tarrant County,TX,17.044228694714132
76205,Denton County,TX,84.2502696871629
76244,Tarrant County,TX,22.761596548004313
77009,Harris County,TX,44.01294498381877
77079,Harris County,TX,90.07551240560949
77082,Harris County,TX,47.78856526429342
77084,Harris County,TX,10.679611650485436
77091,Harris County,TX,51.995685005393746
77095,Harris County,TX,15.53398058252427
77099,Harris County,TX,51.995685005393746
77301,Montgomery County,TX,53.72168284789643
77339,Harris County,TX,55.98705501618123
77365,Montgomery County,TX,86.83926645091694
77382,Montgomery County,TX,64.07766990291263
77386,Montgomery County,TX,32.5782092772384
77388,Harris County,TX,43.042071197411005
77401,Harris County,TX,87.8101402373247
77429,Harris County,TX,10.463861920172599
77433,Harris County,TX,39.26645091693635
77469,Fort Bend County,TX,27.184466019417474
77502,Harris County,TX,50.701186623516726
77510,Galveston County,TX,63.646170442286945
77532,Harris County,TX,39.59007551240561
77581,Brazoria County,TX,28.37108953613808
77590,Galveston County,TX,12.081984897518879
77591,Galveston County,TX,54.69255663430421
77598,Harris County,TX,57.71305285868392
77703,Jefferson County,TX,70.65803667745415
77706,Jefferson County,TX,46.27831715210356
78040,Webb County,TX,39.80582524271845
78108,Guadalupe County,TX,72.49190938511327
78132,Comal County,TX,69.25566343042071
78213,Bexar County,TX,44.336569579288025
78214,Bexar County,TX,64.18554476806904
79119,Randall County,TX,82.84789644012946
79201,Childress County,TX,98.38187702265373
79360,Gaines County,TX,49.730312837108954
79413,Lubbock County,TX,66.77454153182309
79549,Scurry County,TX,71.73678532901833
79701,Midland County,TX,40.77669902912621
79714,Andrews County,TX,89.21251348435814
79762,Ector County,TX,26.321467098166128
79912,El Paso County,TX,23.8403451995685
79932,El Paso County,TX,81.76914778856526
84037,Davis County,UT,93.31175836030205
84074,Tooele County,UT,19.30960086299892
84078,Uintah County,UT,14.778856526429344
84106,Salt Lake County,UT,33.980582524271846
84116,Salt Lake County,UT,26.429341963322546
84123,Salt Lake County,UT,96.22437971952536
84501,Carbon County,UT,62.67529665587917
84606,Utah County,UT,99.67637540453075
84701,Sevier County,UT,96.65587918015103
05446,Chittenden County,VT,62.891046386192016
05641,Washington County,VT,78.85652642934197
20148,Loudoun County,VA,56.85005393743258
22043,Fairfax County,VA,70.22653721682848
22301,Alexandria city,VA,72.92340884573895
22701,Culpeper County,VA,23.300970873786408
22968,Greene County,VA,62.56742179072277
23320,Chesapeake city,VA,25.026968716289105
23464,Virginia Beach city,VA,14.670981661272922
23803,Petersburg city,VA,10.032362459546926
23847,Greensville County,VA,70.44228694714133
23924,Mecklenburg County,VA,89.42826321467098
24055,Henry County,VA,62.67529665587917
98003,King County,WA,26.64509169363538
98006,King County,WA,56.310679611650485
98011,King County,WA,83.38727076591155
98012,Snohomish County,WA,28.91046386192017
98030,King County,WA,22.54584681769148
98038,King County,WA,32.038834951456316
98125,King County,WA,38.18770226537217
98133,King County,WA,76.26752966558792
98144,King County,WA,28.047464940668824
98223,Snohomish County,WA,57.17367853290184
98230,Whatcom County,WA,91.3700107874865
98258,Snohomish County,WA,21.251348435814453
98277,Island County,WA,45.19956850053937
98321,Pierce County,WA,62.24379719525351
98366,Kitsap County,WA,56.85005393743258
98373,Pierce County,WA,67.31391585760518
98375,Pierce County,WA,49.51456310679612
98422,Pierce County,WA,91.47788565264293
98424,Pierce County,WA,91.15426105717368
98498,Pierce County,WA,81.01402373247033
98626,Cowlitz County,WA,41.74757281553398
98686,Clark County,WA,88.56526429341963
98930,Yakima County,WA,85.43689320388349
99114,Stevens County,WA,92.12513484358145
99217,Spokane County,WA,76.48327939590077
99301,Franklin County,WA,8.845738942826321
99350,Benton County,WA,98.8133764832794
99354,Benton County,WA,72.38403451995686
99362,Walla Walla County,WA,58.57605177993528
20008,District of Columbia,DC,80.7982740021575
24701,Mercer County,WV,27.615965480043148
24739,Mercer County,WV,86.40776699029125
25312,Kanawha County,WV,65.91154261057174
25428,Berkeley County,WV,61.38079827400216
25526,Putnam County,WV,36.353829557713055
26508,Monongalia County,WV,4.53074433656958
53014,Calumet County,WI,72.27615965480044
53081,Sheboygan County,WI,14.563106796116504
53142,Kenosha County,WI,8.522114347357066
53149,Waukesha County,WI,69.57928802588997
53151,Waukesha County,WI,70.11866235167206
53177,Racine County,WI,92.88025889967638
53188,Waukesha County,WI,20.927723840345198
53189,Waukesha County,WI,54.0453074433657
53511,Rock County,WI,6.256742179072276
53545,Rock County,WI,34.088457389428264
53716,Dane County,WI,72.92340884573895
54302,Brown County,WI,23.19309600862999
54304,Brown County,WI,20.388349514563107
54487,Lincoln County,WI,77.77777777777779
54701,Eau Claire County,WI,40.668824163969795
54755,Buffalo County,WI,91.8015102481122
54880,Douglas County,WI,13.160733549083064
54902,Winnebago County,WI,50.80906148867314
54911,Outagamie County,WI,37.54045307443366
54944,Outagamie County,WI,91.69363538295578
54952,Winnebago County,WI,46.27831715210356
82009,Laramie County,WY,70.87378640776699
82070,Albany County,WY,83.71089536138079
82414,Park County,WY,72.81553398058253
82901,Sweetwater County,WY,54.80043149946062
