ZipCode,county,state,Youth,Pediatric,Adult,Retirement
35004,St. Clair County,AL,NA,64.98422712933754,NA,NA
35005,Jefferson County,AL,85.94202898550725,NA,85.55399719495091,NA
35077,Cullman County,AL,NA,67.19242902208202,NA,NA
35094,Jefferson County,AL,72.02898550724638,NA,NA,NA
35121,Blount County,AL,59.42028985507246,NA,NA,NA
35125,St. Clair County,AL,75.36231884057972,NA,NA,NA
35126,Jefferson County,AL,61.73913043478261,NA,NA,NA
35209,Jefferson County,AL,NA,73.50157728706624,NA,NA
35215,Jefferson County,AL,NA,60.56782334384858,NA,NA
35216,Jefferson County,AL,39.710144927536234,NA,NA,NA
35226,Jefferson County,AL,81.59420289855073,NA,NA,NA
35244,Jefferson County,AL,59.85507246376811,83.2807570977918,NA,NA
35490,Tuscaloosa County,AL,95.21739130434783,NA,NA,NA
35603,Morgan County,AL,NA,NA,20.61711079943899,NA
35633,Lauderdale County,AL,55.79710144927537,NA,NA,NA
35650,Lawrence County,AL,57.2463768115942,NA,NA,NA
35749,Madison County,AL,55.21739130434783,NA,NA,NA
35950,Marshall County,AL,NA,NA,46.28330995792426,NA
36016,Barbour County,AL,NA,93.37539432176656,NA,NA
36066,Autauga County,AL,75.65217391304347,NA,NA,NA
36109,Montgomery County,AL,87.53623188405797,NA,NA,NA
36116,Montgomery County,AL,22.753623188405797,NA,NA,NA
36272,Calhoun County,AL,NA,70.03154574132492,NA,NA
36303,Houston County,AL,30.289855072463766,NA,NA,NA
36305,Houston County,AL,NA,NA,61.430575035063114,NA
36340,Geneva County,AL,NA,94.95268138801262,NA,NA
36421,Covington County,AL,82.89855072463767,NA,NA,NA
36467,Covington County,AL,NA,81.38801261829653,NA,NA
36532,Baldwin County,AL,NA,74.76340694006309,NA,NA
36571,Mobile County,AL,84.34782608695653,NA,NA,NA
36703,Dallas County,AL,73.18840579710145,NA,NA,NA
36830,Lee County,AL,58.69565217391305,NA,NA,NA
99503,Anchorage Municipality,AK,NA,NA,50.771388499298745,NA
99507,Anchorage Municipality,AK,NA,NA,82.88920056100982,NA
99508,Anchorage Municipality,AK,18.84057971014493,NA,NA,41.69381107491857
99559,Bethel Census Area,AK,60,78.54889589905363,NA,NA
99604,Wade Hampton Census Area,AK,NA,NA,98.73772791023842,NA
99712,Fairbanks North Star Borough,AK,78.84057971014494,NA,NA,NA
99835,Sitka City and Borough,AK,NA,NA,NA,79.47882736156352
99901,Ketchikan Gateway Borough,AK,NA,NA,46.70406732117812,NA
85008,Maricopa County,AZ,9.27536231884058,NA,17.53155680224404,NA
85009,Maricopa County,AZ,NA,26.18296529968454,47.40532959326788,NA
85015,Maricopa County,AZ,NA,NA,22.159887798036465,90.55374592833876
85021,Maricopa County,AZ,NA,NA,15.147265077138849,NA
85023,Maricopa County,AZ,NA,NA,32.398316970546986,NA
85028,Maricopa County,AZ,NA,NA,81.20617110799438,NA
85035,Maricopa County,AZ,15.072463768115943,NA,NA,NA
85041,Maricopa County,AZ,NA,NA,10.518934081346423,NA
85042,Maricopa County,AZ,NA,NA,30.995792426367462,NA
85051,Maricopa County,AZ,23.333333333333332,NA,NA,NA
85053,Maricopa County,AZ,34.78260869565217,NA,NA,NA
85122,Pinal County,AZ,5.507246376811594,NA,NA,NA
85131,Pinal County,AZ,NA,NA,81.90743338008414,NA
85142,Maricopa County,AZ,NA,NA,40.95371669004207,NA
85208,Maricopa County,AZ,NA,NA,48.5273492286115,NA
85225,Maricopa County,AZ,NA,17.350157728706623,NA,NA
85226,Maricopa County,AZ,NA,NA,57.643758765778394,NA
85233,Maricopa County,AZ,51.59420289855072,NA,NA,NA
85286,Maricopa County,AZ,NA,NA,39.55119214586255,NA
85301,Maricopa County,AZ,NA,NA,NA,25.732899022801302
85308,Maricopa County,AZ,54.492753623188406,NA,NA,NA
85364,Yuma County,AZ,19.855072463768117,NA,NA,NA
85367,Yuma County,AZ,NA,NA,84.29172510518934,NA
85530,Graham County,AZ,NA,NA,87.79803646563815,99.3485342019544
85550,Graham County,AZ,NA,NA,74.89481065918653,NA
85614,Pima County,AZ,NA,NA,NA,60.26058631921825
85710,Pima County,AZ,NA,NA,38.849929873772794,NA
85711,Pima County,AZ,NA,NA,38.008415147265076,NA
85713,Pima County,AZ,NA,NA,8.274894810659186,NA
85716,Pima County,AZ,NA,NA,21.458625525946704,NA
85757,Pima County,AZ,NA,NA,76.99859747545582,NA
85929,Navajo County,AZ,83.18840579710145,NA,NA,NA
85937,Navajo County,AZ,79.85507246376812,NA,84.85273492286115,NA
85941,Apache County,AZ,61.44927536231884,NA,NA,NA
86004,Coconino County,AZ,NA,51.419558359621455,NA,NA
86021,Mohave County,AZ,98.69565217391305,NA,NA,NA
86033,Navajo County,AZ,NA,NA,65.77840112201963,NA
86044,San Juan County,AZ,NA,NA,95.09116409537167,NA
86045,Coconino County,AZ,NA,NA,29.312762973352037,NA
86047,Navajo County,AZ,NA,NA,39.410939691444604,84.36482084690554
86314,Yavapai County,AZ,36.666666666666664,NA,NA,NA
86351,Yavapai County,AZ,NA,NA,NA,78.50162866449512
86401,Mohave County,AZ,NA,NA,39.97194950911641,NA
86503,Apache County,AZ,NA,10.410094637223976,83.45021037868162,81.75895765472313
86511,Apache County,AZ,NA,NA,96.21318373071529,NA
71730,Union County,AR,NA,NA,51.05189340813464,NA
72143,White County,AR,NA,NA,NA,14.65798045602606
72404,Craighead County,AR,62.89855072463768,NA,NA,NA
72416,Craighead County,AR,NA,NA,NA,90.87947882736157
72501,Independence County,AR,NA,NA,38.14866760168303,NA
72543,Cleburne County,AR,NA,NA,NA,92.83387622149837
72744,Washington County,AR,NA,NA,NA,97.06840390879479
72756,Benton County,AR,NA,NA,NA,38.762214983713356
72830,Johnson County,AR,NA,NA,83.16970546984572,NA
90002,Los Angeles County,CA,NA,32.17665615141956,NA,NA
90003,Los Angeles County,CA,NA,43.84858044164038,NA,NA
90008,Los Angeles County,CA,NA,84.85804416403786,NA,NA
90021,Los Angeles County,CA,100,NA,NA,NA
90029,Los Angeles County,CA,NA,NA,65.07713884992987,NA
90043,Los Angeles County,CA,NA,NA,49.50911640953717,NA
90056,Los Angeles County,CA,NA,NA,94.95091164095372,NA
90057,Los Angeles County,CA,NA,NA,43.61851332398317,NA
90077,Los Angeles County,CA,NA,NA,NA,93.48534201954396
90247,Los Angeles County,CA,48.55072463768116,NA,NA,NA
90250,Los Angeles County,CA,NA,NA,NA,29.64169381107492
90254,Los Angeles County,CA,NA,NA,85.97475455820476,NA
90260,Los Angeles County,CA,NA,NA,77.13884992987377,NA
90291,Los Angeles County,CA,NA,NA,NA,63.51791530944625
90301,Los Angeles County,CA,NA,63.40694006309149,NA,NA
90403,Los Angeles County,CA,NA,NA,NA,73.9413680781759
90604,Los Angeles County,CA,NA,74.76340694006309,NA,NA
90723,Los Angeles County,CA,49.85507246376812,NA,NA,NA
90740,Orange County,CA,NA,NA,71.10799438990182,NA
90815,Los Angeles County,CA,NA,NA,NA,42.34527687296417
91201,Los Angeles County,CA,80.8695652173913,NA,NA,NA
91202,Los Angeles County,CA,NA,NA,NA,71.33550488599349
91331,Los Angeles County,CA,34.63768115942029,NA,15.007012622720897,NA
91356,Los Angeles County,CA,NA,NA,NA,53.74592833876222
91361,Ventura County,CA,NA,NA,90.6030855539972,NA
91605,Los Angeles County,CA,NA,55.20504731861199,NA,52.44299674267101
91706,Los Angeles County,CA,NA,64.35331230283911,NA,NA
91754,Los Angeles County,CA,NA,NA,NA,64.49511400651465
91761,San Bernardino County,CA,NA,NA,28.611500701262273,NA
91762,San Bernardino County,CA,30,NA,NA,NA
91767,Los Angeles County,CA,NA,NA,45.3015427769986,NA
91770,Los Angeles County,CA,NA,NA,53.99719495091164,NA
91790,Los Angeles County,CA,NA,NA,NA,56.67752442996743
91950,San Diego County,CA,NA,NA,NA,37.785016286644954
92021,San Diego County,CA,26.811594202898554,NA,NA,NA
92037,San Diego County,CA,74.63768115942028,NA,NA,NA
92065,San Diego County,CA,NA,NA,53.43618513323983,NA
92119,San Diego County,CA,NA,96.21451104100946,NA,NA
92124,San Diego County,CA,NA,NA,NA,75.8957654723127
92128,San Diego County,CA,NA,NA,75.17531556802244,NA
92203,Riverside County,CA,62.17391304347826,NA,NA,NA
92223,Riverside County,CA,43.6231884057971,NA,NA,NA
92227,Imperial County,CA,41.88405797101449,NA,NA,NA
92249,Imperial County,CA,NA,NA,93.26788218793828,NA
92274,Riverside County,CA,84.05797101449275,NA,NA,NA
92307,San Bernardino County,CA,NA,NA,32.678821879382895,NA
92308,San Bernardino County,CA,NA,NA,NA,31.596091205211724
92311,San Bernardino County,CA,NA,NA,41.23422159887798,NA
92316,San Bernardino County,CA,NA,NA,82.328190743338,NA
92337,San Bernardino County,CA,NA,NA,NA,76.8729641693811
92392,San Bernardino County,CA,NA,28.706624605678233,NA,NA
92395,San Bernardino County,CA,NA,39.74763406940063,NA,NA
92404,San Bernardino County,CA,NA,21.451104100946374,NA,NA
92407,San Bernardino County,CA,NA,NA,69.84572230014025,NA
92411,San Bernardino County,CA,NA,NA,NA,44.951140065146575
92532,Riverside County,CA,NA,NA,72.37026647966339,NA
92555,Riverside County,CA,NA,NA,62.69284712482468,NA
92562,Riverside County,CA,NA,NA,30.434782608695656,NA
92563,Riverside County,CA,23.47826086956522,NA,NA,NA
92571,Riverside County,CA,58.84057971014492,NA,NA,NA
92610,Orange County,CA,94.34782608695652,NA,NA,NA
92624,Orange County,CA,NA,NA,96.4936886395512,NA
92626,Orange County,CA,67.97101449275362,NA,NA,NA
92692,Orange County,CA,NA,NA,NA,66.44951140065146
92707,Orange County,CA,NA,30.28391167192429,NA,NA
92821,Orange County,CA,55.21739130434783,NA,NA,NA
92844,Orange County,CA,95.5072463768116,NA,NA,NA
92867,Orange County,CA,NA,96.84542586750788,NA,NA
93030,Ventura County,CA,NA,NA,69.28471248246845,NA
93033,Ventura County,CA,NA,NA,14.726507713884992,NA
93063,Ventura County,CA,NA,NA,NA,67.42671009771986
93101,Santa Barbara County,CA,NA,48.26498422712934,NA,NA
93210,Fresno County,CA,NA,NA,NA,97.06840390879479
93234,Fresno County,CA,NA,NA,98.87798036465638,NA
93245,Kings County,CA,65.5072463768116,NA,NA,NA
93307,Kern County,CA,26.231884057971016,NA,NA,NA
93308,Kern County,CA,16.08695652173913,NA,NA,NA
93309,Kern County,CA,40.869565217391305,NA,NA,NA
93312,Kern County,CA,54.05797101449276,NA,NA,NA
93436,Santa Barbara County,CA,NA,13.249211356466878,NA,NA
93454,Santa Barbara County,CA,NA,NA,35.06311360448808,NA
93458,Santa Barbara County,CA,NA,8.201892744479496,NA,NA
93535,Los Angeles County,CA,NA,NA,39.130434782608695,NA
93551,Los Angeles County,CA,66.81159420289855,NA,NA,NA
93552,Los Angeles County,CA,NA,NA,NA,77.52442996742671
93611,Fresno County,CA,44.927536231884055,NA,NA,NA
93612,Fresno County,CA,NA,NA,48.38709677419355,NA
93630,Fresno County,CA,NA,NA,NA,88.27361563517914
93637,Madera County,CA,29.71014492753623,NA,NA,NA
93638,Madera County,CA,NA,9.46372239747634,NA,NA
93654,Fresno County,CA,NA,34.70031545741325,57.082748948106584,NA
93703,Fresno County,CA,31.73913043478261,NA,NA,NA
93704,Fresno County,CA,NA,NA,NA,60.91205211726385
93705,Fresno County,CA,NA,NA,37.447405329593266,NA
93720,Fresno County,CA,NA,NA,37.727910238429175,NA
93725,Fresno County,CA,46.81159420289855,NA,NA,NA
93905,Monterey County,CA,NA,NA,41.935483870967744,NA
94014,San Mateo County,CA,NA,NA,NA,32.57328990228013
94110,San Francisco County,CA,41.594202898550726,NA,NA,12.37785016286645
94115,San Francisco County,CA,80.8695652173913,NA,NA,NA
94124,San Francisco County,CA,37.68115942028986,NA,NA,NA
94303,San Mateo County,CA,NA,NA,32.53856942496493,NA
94523,Contra Costa County,CA,NA,NA,70.12622720897616,62.21498371335505
94546,Alameda County,CA,NA,NA,NA,68.07817589576547
94549,Contra Costa County,CA,59.710144927536234,NA,NA,NA
94555,Alameda County,CA,NA,NA,69.9859747545582,NA
94558,Napa County,CA,NA,NA,NA,11.074918566775244
94561,Contra Costa County,CA,NA,NA,NA,51.79153094462541
94579,Alameda County,CA,NA,NA,87.51753155680224,NA
94601,Alameda County,CA,22.463768115942027,NA,NA,NA
94931,Sonoma County,CA,NA,NA,96.91444600280505,NA
95014,Santa Clara County,CA,NA,NA,NA,68.40390879478826
95037,Santa Clara County,CA,NA,95.89905362776025,NA,NA
95050,Santa Clara County,CA,NA,NA,NA,64.82084690553745
95076,Santa Cruz County,CA,NA,NA,23.00140252454418,NA
95122,Santa Clara County,CA,NA,NA,50.49088359046283,NA
95123,Santa Clara County,CA,NA,NA,42.07573632538569,NA
95129,Santa Clara County,CA,NA,NA,86.53576437587658,NA
95136,Santa Clara County,CA,NA,NA,NA,68.72964169381108
95203,San Joaquin County,CA,NA,NA,NA,85.66775244299674
95206,San Joaquin County,CA,NA,71.92429022082018,NA,NA
95207,San Joaquin County,CA,NA,NA,73.63253856942497,NA
95209,San Joaquin County,CA,NA,NA,NA,85.34201954397395
95219,San Joaquin County,CA,71.59420289855073,NA,NA,NA
95304,San Joaquin County,CA,91.15942028985508,NA,NA,NA
95341,Merced County,CA,24.347826086956523,NA,NA,NA
95351,Stanislaus County,CA,NA,NA,57.503506311360454,NA
95357,Stanislaus County,CA,NA,NA,NA,78.17589576547232
95370,Tuolumne County,CA,NA,NA,NA,6.514657980456026
95386,Stanislaus County,CA,NA,NA,NA,99.0228013029316
95407,Sonoma County,CA,NA,NA,NA,60.91205211726385
95409,Sonoma County,CA,85.21739130434783,NA,NA,NA
95482,Mendocino County,CA,NA,56.782334384858046,NA,NA
95501,Humboldt County,CA,79.27536231884058,NA,NA,NA
95660,Sacramento County,CA,NA,NA,NA,63.84364820846905
95747,Placer County,CA,NA,NA,NA,43.32247557003257
95758,Sacramento County,CA,NA,NA,56.52173913043478,NA
95765,Placer County,CA,80.14492753623188,NA,NA,NA
95823,Sacramento County,CA,NA,NA,NA,23.778501628664493
95971,Plumas County,CA,NA,NA,99.15848527349227,NA
95991,Sutter County,CA,NA,NA,NA,41.042345276872965
95993,Sutter County,CA,NA,NA,51.05189340813464,NA
96002,Shasta County,CA,NA,NA,59.18653576437588,NA
96080,Tehama County,CA,74.63768115942028,NA,NA,NA
80010,Arapahoe County,CO,25.79710144927536,22.397476340694006,NA,NA
80011,Arapahoe County,CO,NA,NA,35.203366058906035,NA
80013,Arapahoe County,CO,9.27536231884058,NA,NA,NA
80014,Arapahoe County,CO,NA,53.31230283911672,67.46143057503507,NA
80015,Arapahoe County,CO,NA,73.50157728706624,21.598877980364655,NA
80022,Adams County,CO,NA,44.164037854889585,NA,NA
80109,Douglas County,CO,NA,NA,72.08976157082749,NA
80111,Arapahoe County,CO,NA,NA,72.9312762973352,NA
80120,Arapahoe County,CO,NA,NA,NA,55.048859934853425
80134,Douglas County,CO,9.130434782608695,NA,30.15427769985975,NA
80138,Douglas County,CO,66.08695652173913,NA,NA,NA
80214,Jefferson County,CO,NA,NA,74.61430575035062,NA
80216,Denver County,CO,NA,70.97791798107255,NA,NA
80218,Denver County,CO,84.34782608695653,NA,NA,NA
80227,Jefferson County,CO,63.33333333333333,NA,61.00981767180925,NA
80231,Denver County,CO,64.92753623188405,NA,NA,NA
80233,Adams County,CO,18.55072463768116,NA,NA,NA
80238,Denver County,CO,NA,NA,79.38288920056101,93.15960912052117
80239,Denver County,CO,NA,NA,NA,57.32899022801303
80249,Denver County,CO,NA,NA,70.96774193548387,NA
80260,Adams County,CO,NA,24.605678233438486,NA,NA
80503,Boulder County,CO,90.28985507246377,NA,NA,NA
80524,Larimer County,CO,NA,NA,NA,32.24755700325733
80549,Larimer County,CO,NA,NA,88.49929873772791,NA
80631,Weld County,CO,NA,23.974763406940063,NA,NA
80863,Teller County,CO,NA,NA,NA,87.29641693811075
80907,El Paso County,CO,54.78260869565217,NA,NA,NA
80909,El Paso County,CO,NA,41.6403785488959,NA,NA
80910,El Paso County,CO,NA,26.813880126182966,28.892005610098177,NA
80915,El Paso County,CO,28.840579710144926,NA,NA,NA
80917,El Paso County,CO,NA,59.93690851735016,NA,NA
80918,El Paso County,CO,NA,NA,50.210378681626935,NA
81005,Pueblo County,CO,55.94202898550724,NA,NA,NA
81401,Montrose County,CO,NA,NA,79.52314165497896,NA
81416,Delta County,CO,NA,71.29337539432177,NA,NA
81625,Moffat County,CO,53.768115942028984,NA,NA,NA
06010,Hartford County,CT,NA,NA,2.664796633941094,NA
06040,Hartford County,CT,27.97101449275362,NA,NA,NA
06042,Hartford County,CT,NA,NA,43.338008415147264,NA
06053,Hartford County,CT,NA,NA,43.05750350631136,NA
06112,Hartford County,CT,49.130434782608695,NA,NA,NA
06238,Tolland County,CT,73.76811594202898,NA,NA,NA
06401,New Haven County,CT,66.95652173913044,NA,NA,NA
06418,New Haven County,CT,NA,80.4416403785489,NA,NA
06451,New Haven County,CT,27.391304347826086,NA,NA,NA
06468,Fairfield County,CT,NA,NA,83.02945301542776,NA
06513,New Haven County,CT,NA,29.652996845425868,NA,NA
06519,New Haven County,CT,NA,NA,27.629733520336607,NA
06606,Fairfield County,CT,NA,19.873817034700316,NA,NA
06607,Fairfield County,CT,NA,NA,83.73071528751753,NA
06610,Fairfield County,CT,48.26086956521739,NA,NA,NA
06614,Fairfield County,CT,NA,NA,61.150070126227206,NA
06790,Litchfield County,CT,NA,NA,NA,4.88599348534202
06798,Litchfield County,CT,NA,NA,NA,86.97068403908796
06801,Fairfield County,CT,42.028985507246375,NA,NA,NA
06825,Fairfield County,CT,75.65217391304347,NA,NA,NA
06851,Fairfield County,CT,46.52173913043478,NA,NA,NA
06897,Fairfield County,CT,NA,NA,79.1023842917251,NA
19804,New Castle County,DE,64.20289855072464,NA,NA,NA
19808,New Castle County,DE,63.6231884057971,NA,NA,NA
19810,New Castle County,DE,NA,NA,58.76577840112201,NA
19962,Kent County,DE,66.95652173913044,NA,NA,NA
19973,Sussex County,DE,67.68115942028986,NA,NA,NA
32034,Nassau County,FL,NA,NA,NA,13.355048859934854
32040,Baker County,FL,NA,NA,90.46283309957924,NA
32065,Clay County,FL,45.36231884057971,NA,NA,NA
32068,Clay County,FL,NA,36.59305993690852,NA,NA
32082,St. Johns County,FL,NA,NA,NA,35.17915309446254
32119,Volusia County,FL,NA,NA,76.43758765778401,NA
32159,Lake County,FL,90.57971014492753,NA,NA,NA
32176,Volusia County,FL,NA,NA,NA,74.5928338762215
32206,Duval County,FL,NA,50.473186119873816,NA,NA
32210,Duval County,FL,NA,17.981072555205046,NA,NA
32224,Duval County,FL,NA,NA,61.991584852734924,NA
32225,Duval County,FL,23.768115942028984,NA,NA,NA
32244,Duval County,FL,5.36231884057971,15.772870662460567,NA,NA
32246,Duval County,FL,NA,44.79495268138801,NA,NA
32250,Duval County,FL,81.15942028985508,NA,NA,NA
32303,Leon County,FL,NA,29.96845425867508,NA,NA
32401,Bay County,FL,NA,NA,42.6367461430575,NA
32405,Bay County,FL,NA,NA,86.11500701262273,NA
32413,Bay County,FL,NA,NA,NA,84.03908794788273
32433,Walton County,FL,75.36231884057972,NA,NA,NA
32440,Jackson County,FL,NA,NA,92.28611500701263,NA
32514,Escambia County,FL,NA,NA,27.910238429172512,NA
32533,Escambia County,FL,45.36231884057971,NA,NA,NA
32570,Santa Rosa County,FL,NA,NA,12.903225806451612,NA
32578,Okaloosa County,FL,NA,NA,NA,59.934853420195445
32607,Alachua County,FL,26.521739130434785,NA,NA,NA
32626,Levy County,FL,83.76811594202898,NA,NA,NA
32653,Alachua County,FL,10.434782608695652,NA,67.18092566619916,NA
32656,Clay County,FL,NA,NA,NA,65.14657980456026
32754,Brevard County,FL,NA,NA,NA,76.54723127035831
32808,Orange County,FL,NA,13.249211356466878,NA,NA
32809,Orange County,FL,NA,NA,NA,67.10097719869707
32825,Orange County,FL,NA,NA,36.325385694249654,NA
32826,Orange County,FL,NA,NA,NA,94.78827361563518
32832,Orange County,FL,72.46376811594203,NA,NA,NA
32903,Brevard County,FL,96.23188405797102,NA,NA,NA
32962,Indian River County,FL,NA,68.76971608832808,NA,NA
33009,Broward County,FL,NA,NA,66.05890603085554,NA
33020,Broward County,FL,NA,NA,34.78260869565217,NA
33030,Miami-Dade County,FL,NA,32.49211356466877,NA,NA
33125,Miami-Dade County,FL,NA,NA,76.29733520336606,NA
33139,Miami-Dade County,FL,NA,NA,NA,57.00325732899023
33142,Miami-Dade County,FL,19.130434782608695,NA,NA,NA
33149,Miami-Dade County,FL,91.01449275362319,NA,NA,NA
33150,Miami-Dade County,FL,NA,NA,54.83870967741935,NA
33157,Miami-Dade County,FL,NA,20.189274447949526,NA,NA
33160,Miami-Dade County,FL,NA,NA,NA,39.73941368078176
33172,Miami-Dade County,FL,47.391304347826086,NA,NA,NA
33177,Miami-Dade County,FL,NA,NA,48.10659186535764,NA
33309,Broward County,FL,NA,48.89589905362776,NA,NA
33311,Broward County,FL,NA,6.624605678233439,34.36185133239832,NA
33331,Broward County,FL,NA,81.70347003154575,NA,NA
33404,Palm Beach County,FL,NA,NA,41.51472650771388,NA
33463,Palm Beach County,FL,NA,NA,53.29593267882188,NA
33565,Hillsborough County,FL,NA,NA,NA,75.2442996742671
33613,Hillsborough County,FL,NA,60.88328075709779,NA,NA
33760,Pinellas County,FL,68.98550724637681,NA,NA,NA
33801,Polk County,FL,NA,31.230283911671926,NA,NA
33843,Polk County,FL,NA,NA,93.40813464235625,NA
33880,Polk County,FL,NA,32.80757097791798,NA,NA
33916,Lee County,FL,NA,NA,43.19775596072931,NA
33936,Lee County,FL,NA,52.36593059936908,NA,NA
33950,Charlotte County,FL,NA,NA,78.82187938288921,NA
33953,Charlotte County,FL,NA,NA,95.51192145862552,NA
33972,Lee County,FL,NA,76.97160883280758,NA,NA
33993,Lee County,FL,40.72463768115942,NA,NA,NA
34113,Collier County,FL,NA,NA,NA,62.866449511400646
34205,Manatee County,FL,NA,NA,38.42917251051893,NA
34234,Sarasota County,FL,46.3768115942029,NA,45.44179523141655,NA
34238,Sarasota County,FL,84.34782608695653,NA,NA,NA
34450,Citrus County,FL,NA,66.5615141955836,NA,NA
34476,Marion County,FL,NA,83.2807570977918,NA,NA
34488,Marion County,FL,NA,62.46056782334385,NA,NA
34602,Hernando County,FL,93.91304347826087,NA,NA,NA
34608,Hernando County,FL,NA,NA,85.13323983169705,NA
34614,Hernando County,FL,NA,NA,94.3899018232819,NA
34743,Osceola County,FL,NA,42.586750788643535,NA,NA
34746,Osceola County,FL,NA,NA,NA,50.4885993485342
34947,St. Lucie County,FL,NA,NA,57.3632538569425,NA
34953,St. Lucie County,FL,NA,NA,6.5918653576437585,NA
34982,St. Lucie County,FL,39.130434782608695,NA,NA,NA
34990,Martin County,FL,NA,NA,NA,29.31596091205212
30008,Cobb County,GA,NA,NA,66.61991584852734,NA
30024,Gwinnett County,GA,NA,NA,25.245441795231415,NA
30032,DeKalb County,GA,NA,NA,16.269284712482467,NA
30038,DeKalb County,GA,NA,NA,NA,53.74592833876222
30040,Forsyth County,GA,11.304347826086957,NA,NA,NA
30041,Forsyth County,GA,22.89855072463768,NA,NA,NA
30044,Gwinnett County,GA,NA,NA,23.842917251051894,NA
30047,Gwinnett County,GA,NA,60.88328075709779,NA,NA
30058,DeKalb County,GA,37.68115942028986,NA,NA,NA
30062,Cobb County,GA,NA,NA,NA,19.86970684039088
30064,Cobb County,GA,NA,NA,65.49789621318372,NA
30066,Cobb County,GA,NA,NA,51.61290322580645,NA
30067,Cobb County,GA,NA,99.6845425867508,NA,NA
30071,Gwinnett County,GA,NA,NA,NA,88.92508143322475
30080,Cobb County,GA,NA,NA,55.820476858345025,NA
30093,Gwinnett County,GA,NA,NA,59.60729312762973,NA
30102,Cherokee County,GA,63.33333333333333,NA,NA,NA
30103,Bartow County,GA,NA,NA,NA,80.78175895765473
30116,Carroll County,GA,NA,NA,52.31416549789621,NA
30117,Carroll County,GA,NA,NA,37.58765778401122,NA
30165,Floyd County,GA,NA,NA,61.711079943899016,NA
30168,Cobb County,GA,NA,NA,62.97335203366059,NA
30180,Carroll County,GA,NA,76.97160883280758,NA,NA
30223,Spalding County,GA,NA,NA,41.51472650771388,NA
30228,Henry County,GA,NA,NA,35.34361851332398,NA
30236,Clayton County,GA,NA,NA,35.62412342215989,NA
30297,Clayton County,GA,NA,59.93690851735016,NA,NA
30312,Fulton County,GA,NA,66.5615141955836,NA,NA
30314,Fulton County,GA,NA,NA,76.01683029453015,NA
30316,DeKalb County,GA,46.81159420289855,NA,NA,NA
30338,DeKalb County,GA,69.71014492753623,NA,NA,NA
30339,Cobb County,GA,NA,NA,NA,82.08469055374593
30417,Evans County,GA,79.27536231884058,NA,NA,NA
30453,Tattnall County,GA,90,NA,NA,NA
30467,Screven County,GA,66.66666666666666,NA,NA,NA
30517,Jackson County,GA,NA,NA,85.41374474053296,NA
30518,Gwinnett County,GA,36.811594202898554,NA,NA,NA
30527,Hall County,GA,92.6086956521739,NA,NA,NA
30531,Habersham County,GA,NA,84.54258675078864,NA,NA
30540,Gilmer County,GA,NA,90.53627760252367,NA,NA
30669,Greene County,GA,NA,NA,99.85974754558204,NA
30680,Barrow County,GA,NA,NA,24.96493688639551,27.36156351791531
30736,Catoosa County,GA,NA,NA,NA,25.0814332247557
30809,Columbia County,GA,NA,94.3217665615142,NA,NA
30814,Columbia County,GA,64.4927536231884,NA,NA,NA
30904,Richmond County,GA,NA,NA,38.99018232819074,NA
30907,Columbia County,GA,35.07246376811594,NA,NA,NA
30909,Richmond County,GA,68.40579710144927,NA,NA,NA
31088,Houston County,GA,NA,48.580441640378545,NA,NA
31312,Effingham County,GA,NA,88.64353312302839,82.0476858345021,NA
31410,Chatham County,GA,NA,NA,NA,46.90553745928339
31503,Ware County,GA,NA,NA,NA,47.88273615635179
31513,Appling County,GA,79.85507246376812,NA,NA,NA
31533,Coffee County,GA,NA,NA,65.35764375876579,NA
31647,Cook County,GA,NA,95.26813880126183,NA,NA
31705,Dougherty County,GA,NA,62.46056782334385,NA,NA
31730,Mitchell County,GA,NA,NA,82.6086956521739,NA
31907,Muscogee County,GA,NA,NA,NA,28.013029315960914
96701,Honolulu County,HI,41.30434782608695,NA,38.569424964936886,NA
96712,Honolulu County,HI,NA,NA,98.45722300140253,NA
96734,Honolulu County,HI,47.971014492753625,NA,NA,NA
96795,Honolulu County,HI,NA,NA,77.84011220196354,NA
96797,Honolulu County,HI,NA,NA,NA,36.48208469055375
96814,Honolulu County,HI,NA,NA,72.08976157082749,NA
96817,Honolulu County,HI,NA,NA,15.287517531556801,NA
96826,Honolulu County,HI,NA,NA,75.31556802244039,NA
83202,Bannock County,ID,NA,NA,56.24123422159888,NA
83301,Twin Falls County,ID,NA,NA,NA,1.3029315960912053
83401,Bonneville County,ID,27.10144927536232,NA,NA,43.97394136807817
83406,Bonneville County,ID,NA,59.305993690851736,NA,NA
83642,Ada County,ID,NA,NA,21.73913043478261,NA
60010,Lake County,IL,36.811594202898554,NA,NA,NA
60020,Lake County,IL,89.85507246376811,NA,NA,NA
60021,McHenry County,IL,89.27536231884058,NA,NA,NA
60035,Lake County,IL,53.62318840579711,NA,NA,NA
60048,Lake County,IL,72.31884057971014,NA,NA,NA
60115,DeKalb County,IL,52.17391304347826,NA,NA,NA
60148,DuPage County,IL,NA,NA,49.08835904628331,35.83061889250814
60172,DuPage County,IL,NA,NA,66.05890603085554,NA
60175,Kane County,IL,60.72463768115942,NA,NA,NA
60181,DuPage County,IL,55.94202898550724,NA,NA,NA
60188,DuPage County,IL,26.956521739130434,NA,NA,NA
60192,Cook County,IL,69.71014492753623,NA,NA,NA
60193,Cook County,IL,NA,NA,73.21178120617111,14.006514657980457
60402,Cook County,IL,20.579710144927535,NA,NA,NA
60410,Will County,IL,NA,NA,52.87517531556802,NA
60435,Will County,IL,NA,NA,12.76297335203366,NA
60440,Will County,IL,NA,NA,NA,19.54397394136808
60450,Grundy County,IL,NA,NA,NA,57.65472312703584
60451,Will County,IL,NA,NA,23.983169705469845,NA
60458,Cook County,IL,NA,NA,NA,70.03257328990227
60465,Cook County,IL,NA,NA,NA,57.98045602605863
60477,Cook County,IL,NA,NA,NA,18.241042345276874
60516,DuPage County,IL,NA,NA,49.92987377279102,NA
60543,Kendall County,IL,25.94202898550725,NA,NA,NA
60560,Kendall County,IL,50.14492753623189,NA,NA,NA
60561,DuPage County,IL,NA,NA,NA,35.50488599348534
60608,Cook County,IL,NA,NA,NA,19.218241042345277
60609,Cook County,IL,NA,NA,13.043478260869565,NA
60611,Cook County,IL,NA,NA,NA,25.407166123778502
60622,Cook County,IL,37.971014492753625,NA,NA,48.534201954397396
60632,Cook County,IL,NA,NA,17.812061711079945,NA
60639,Cook County,IL,6.231884057971015,NA,NA,NA
60657,Cook County,IL,NA,NA,56.942496493688644,NA
60901,Kankakee County,IL,54.637681159420296,NA,NA,NA
61016,Winnebago County,IL,96.81159420289856,NA,NA,NA
61065,Boone County,IL,90.14492753623189,NA,NA,NA
61081,Whiteside County,IL,NA,NA,NA,20.195439739413683
61108,Winnebago County,IL,51.01449275362319,NA,NA,NA
61115,Winnebago County,IL,70.14492753623188,NA,NA,NA
61201,Rock Island County,IL,71.01449275362319,NA,NA,NA
61265,Rock Island County,IL,57.391304347826086,NA,NA,NA
61455,McDonough County,IL,NA,NA,87.37727910238429,NA
61801,Champaign County,IL,NA,NA,NA,79.80456026058633
61822,Champaign County,IL,NA,NA,NA,55.700325732899024
61832,Vermilion County,IL,24.347826086956523,NA,NA,NA
62040,Madison County,IL,NA,NA,NA,14.332247557003258
62269,St. Clair County,IL,82.17391304347827,NA,NA,NA
62298,Monroe County,IL,92.31884057971016,NA,NA,NA
62301,Adams County,IL,NA,NA,NA,40.390879478827365
62401,Effingham County,IL,NA,98.73817034700315,NA,NA
62522,Macon County,IL,64.20289855072464,NA,NA,NA
62966,Jackson County,IL,NA,NA,67.88218793828892,NA
46016,Madison County,IN,NA,NA,19.074333800841515,NA
46041,Clinton County,IN,53.04347826086957,NA,NA,NA
46062,Hamilton County,IN,NA,NA,62.833099579242635,NA
46107,Marion County,IN,NA,NA,63.25385694249649,NA
46112,Hendricks County,IN,53.333333333333336,NA,NA,NA
46135,Putnam County,IN,NA,NA,69.7054698457223,NA
46140,Hancock County,IN,NA,NA,34.22159887798036,NA
46142,Johnson County,IN,NA,NA,NA,17.263843648208468
46203,Marion County,IN,NA,52.99684542586751,NA,NA
46208,Marion County,IN,NA,NA,NA,72.31270358306189
46214,Marion County,IN,NA,NA,60.44880785413744,NA
46234,Marion County,IN,NA,NA,NA,55.37459283387622
46235,Marion County,IN,NA,35.646687697160885,23.70266479663394,NA
46280,Hamilton County,IN,91.15942028985508,NA,NA,NA
46303,Lake County,IN,NA,NA,NA,44.299674267100976
46304,Porter County,IN,72.89855072463767,NA,NA,NA
46322,Lake County,IN,NA,NA,28.751753155680227,NA
46350,LaPorte County,IN,NA,43.217665615141954,10.799438990182328,NA
46383,Porter County,IN,NA,NA,NA,8.469055374592834
46410,Lake County,IN,NA,NA,8.695652173913043,NA
46545,St. Joseph County,IN,NA,NA,79.80364656381487,NA
46616,St. Joseph County,IN,97.53623188405797,NA,NA,NA
46725,Whitley County,IN,NA,NA,34.922861150070126,NA
46755,Noble County,IN,NA,NA,NA,41.36807817589577
46777,Wells County,IN,NA,NA,NA,89.90228013029315
46806,Allen County,IN,NA,NA,31.55680224403927,NA
46809,Allen County,IN,NA,NA,59.46704067321178,NA
46818,Allen County,IN,NA,64.66876971608832,NA,NA
46901,Howard County,IN,10,NA,2.9453015427769986,NA
46902,Howard County,IN,4.202898550724638,NA,NA,NA
47150,Floyd County,IN,NA,NA,13.183730715287517,NA
47203,Bartholomew County,IN,45.21739130434783,NA,NA,NA
47240,Decatur County,IN,34.92753623188406,NA,NA,NA
47265,Jennings County,IN,NA,NA,NA,37.45928338762215
47274,Jackson County,IN,28.115942028985508,NA,NA,NA
47303,Delaware County,IN,73.18840579710145,NA,NA,NA
47348,Blackford County,IN,93.6231884057971,NA,NA,NA
47362,Henry County,IN,NA,NA,25.666199158485277,16.286644951140065
47403,Monroe County,IN,NA,NA,65.07713884992987,NA
47601,Warrick County,IN,NA,NA,64.09537166900421,NA
47638,Posey County,IN,98.69565217391305,NA,NA,NA
47710,Vanderburgh County,IN,62.89855072463768,NA,NA,NA
47905,Tippecanoe County,IN,NA,NA,46.00280504908836,NA
47909,Tippecanoe County,IN,NA,NA,44.60028050490884,NA
47932,Fountain County,IN,NA,NA,92.42636746143057,NA
50021,Polk County,IA,NA,86.75078864353313,NA,NA
50023,Polk County,IA,65.5072463768116,NA,NA,NA
50109,Dallas County,IA,99.27536231884058,NA,NA,NA
50125,Warren County,IA,NA,NA,NA,86.31921824104235
50208,Jasper County,IA,NA,76.65615141955836,NA,NA
50266,Polk County,IA,NA,NA,80.08415147265076,NA
50309,Polk County,IA,NA,NA,92.56661991584852,NA
50310,Polk County,IA,NA,NA,91.164095371669,NA
50314,Polk County,IA,NA,NA,88.77980364656382,NA
50315,Polk County,IA,21.884057971014492,NA,NA,NA
50436,Winnebago County,IA,86.95652173913044,NA,NA,NA
50588,Buena Vista County,IA,NA,NA,46.423562412342214,NA
51106,Woodbury County,IA,NA,79.17981072555204,NA,NA
51351,Dickinson County,IA,94.6376811594203,NA,NA,NA
52001,Dubuque County,IA,NA,46.05678233438486,NA,NA
52211,Poweshiek County,IA,97.97101449275362,NA,NA,NA
52228,Linn County,IA,96.81159420289856,NA,NA,NA
52240,Johnson County,IA,NA,NA,25.385694249649372,NA
52245,Johnson County,IA,NA,NA,93.54838709677419,NA
52339,Tama County,IA,NA,NA,98.59747545582047,NA
52402,Linn County,IA,NA,NA,NA,91.20521172638436
52404,Linn County,IA,3.91304347826087,NA,NA,NA
52544,Appanoose County,IA,NA,90.22082018927445,NA,NA
52722,Scott County,IA,13.768115942028986,NA,NA,NA
52732,Clinton County,IA,NA,46.68769716088328,NA,NA
66538,Nemaha County,KS,NA,NA,94.81065918653576,NA
66614,Shawnee County,KS,NA,NA,NA,24.429967426710096
66749,Allen County,KS,NA,NA,78.82187938288921,NA
67124,Pratt County,KS,86.95652173913044,NA,NA,NA
67205,Sedgwick County,KS,NA,NA,92.14586255259466,NA
67219,Sedgwick County,KS,NA,NA,NA,98.0456026058632
67601,Ellis County,KS,12.753623188405797,NA,NA,NA
67846,Finney County,KS,NA,NA,26.788218793828893,NA
67901,Seward County,KS,NA,NA,77.55960729312763,NA
40004,Nelson County,KY,31.30434782608696,NA,NA,NA
40008,Nelson County,KY,97.97101449275362,NA,NA,NA
40019,Henry County,KY,NA,NA,94.3899018232819,NA
40059,Jefferson County,KY,80.57971014492755,NA,NA,NA
40160,Hardin County,KY,NA,57.72870662460568,NA,NA
40212,Jefferson County,KY,NA,NA,29.73352033660589,NA
40215,Jefferson County,KY,4.492753623188406,NA,NA,NA
40216,Jefferson County,KY,NA,NA,11.220196353436185,NA
40219,Jefferson County,KY,NA,40.37854889589905,NA,NA
40243,Jefferson County,KY,70.14492753623188,NA,NA,NA
40291,Jefferson County,KY,41.594202898550726,NA,NA,NA
40351,Rowan County,KY,NA,24.290220820189273,NA,NA
40356,Jessamine County,KY,NA,NA,18.2328190743338,NA
40383,Woodford County,KY,73.18840579710145,NA,NA,NA
40391,Clark County,KY,NA,31.861198738170348,NA,NA
40505,Fayette County,KY,25.65217391304348,NA,NA,NA
40701,Whitley County,KY,NA,27.760252365930597,NA,NA
40744,Laurel County,KY,NA,30.914826498422716,NA,NA
41001,Campbell County,KY,38.69565217391304,NA,NA,NA
41005,Boone County,KY,NA,NA,64.3758765778401,NA
41017,Kenton County,KY,NA,NA,35.764375876577844,NA
41035,Grant County,KY,70.43478260869566,NA,NA,NA
41042,Boone County,KY,NA,NA,30.014025245441793,NA
41091,Boone County,KY,71.59420289855073,NA,NA,NA
41097,Grant County,KY,NA,NA,NA,94.13680781758957
41101,Boyd County,KY,5.217391304347826,NA,NA,NA
41139,Greenup County,KY,NA,NA,NA,63.19218241042345
41230,Lawrence County,KY,NA,60.88328075709779,NA,NA
42041,Fulton County,KY,NA,NA,89.20056100981768,NA
42048,Marshall County,KY,NA,95.26813880126183,NA,NA
42134,Simpson County,KY,NA,NA,55.539971949509116,NA
42141,Barren County,KY,NA,9.779179810725552,NA,NA
42164,Allen County,KY,NA,NA,43.75876577840112,NA
42301,Daviess County,KY,NA,NA,11.50070126227209,NA
42320,Ohio County,KY,48.40579710144928,NA,NA,NA
42330,Muhlenberg County,KY,NA,NA,72.65077138849931,NA
42376,Daviess County,KY,NA,NA,84.01122019635343,NA
42420,Henderson County,KY,NA,NA,57.784011220196355,NA
42503,Pulaski County,KY,NA,NA,47.54558204768583,NA
42519,Pulaski County,KY,NA,NA,97.75596072931276,NA
42701,Hardin County,KY,16.3768115942029,NA,14.446002805049089,NA
42721,Grayson County,KY,95.94202898550725,NA,NA,NA
42754,Grayson County,KY,NA,NA,32.25806451612903,NA
70001,Jefferson Parish,LA,11.159420289855072,NA,NA,NA
70037,Plaquemines Parish,LA,NA,NA,74.89481065918653,NA
70056,Jefferson Parish,LA,NA,22.082018927444793,NA,NA
70117,Orleans Parish,LA,2.1739130434782608,NA,NA,NA
70119,Orleans Parish,LA,7.82608695652174,6.940063091482649,NA,NA
70128,Orleans Parish,LA,NA,NA,20.75736325385694,NA
70301,Lafourche Parish,LA,NA,NA,3.506311360448808,NA
70360,Terrebonne Parish,LA,30.869565217391305,NA,13.604488078541374,NA
70380,St. Mary Parish,LA,NA,5.3627760252365935,NA,NA
70392,St. Mary Parish,LA,46.81159420289855,NA,NA,NA
70401,Tangipahoa Parish,LA,NA,89.27444794952682,NA,NA
70426,Washington Parish,LA,NA,18.92744479495268,NA,NA
70433,St. Tammany Parish,LA,NA,NA,7.994389901823282,NA
70438,Washington Parish,LA,NA,NA,17.11079943899018,NA
70444,Tangipahoa Parish,LA,NA,NA,52.033660589060304,NA
70448,St. Tammany Parish,LA,43.6231884057971,NA,NA,NA
70452,St. Tammany Parish,LA,NA,8.517350157728707,56.80224403927069,NA
70454,Tangipahoa Parish,LA,NA,17.034700315457414,NA,NA
70501,Lafayette Parish,LA,NA,NA,NA,30.293159609120522
70506,Lafayette Parish,LA,NA,NA,NA,22.80130293159609
70515,Evangeline Parish,LA,NA,82.96529968454259,NA,NA
70517,St. Martin Parish,LA,NA,78.23343848580441,NA,24.104234527687296
70526,Acadia Parish,LA,NA,19.558359621451103,NA,NA
70533,Vermilion Parish,LA,NA,30.28391167192429,NA,NA
70538,St. Mary Parish,LA,86.66666666666667,NA,NA,NA
70560,Iberia Parish,LA,NA,NA,3.6465638148667603,NA
70578,Acadia Parish,LA,24.92753623188406,NA,NA,NA
70592,Lafayette Parish,LA,15.217391304347828,NA,NA,NA
70726,Livingston Parish,LA,NA,3.7854889589905363,NA,NA
70754,Livingston Parish,LA,NA,97.16088328075709,NA,NA
70764,Iberville Parish,LA,39.85507246376812,NA,NA,NA
70767,West Baton Rouge Parish,LA,34.20289855072463,NA,95.37166900420758,NA
70775,West Feliciana Parish,LA,NA,NA,71.66900420757362,NA
70785,Livingston Parish,LA,37.971014492753625,NA,NA,NA
70802,East Baton Rouge Parish,LA,2.4637681159420293,NA,NA,NA
70805,East Baton Rouge Parish,LA,NA,NA,4.207573632538569,NA
70808,East Baton Rouge Parish,LA,NA,NA,48.2468443197756,NA
70818,East Baton Rouge Parish,LA,NA,96.52996845425868,NA,NA
71055,Webster Parish,LA,NA,NA,21.037868162692845,NA
71108,Caddo Parish,LA,NA,NA,12.482468443197755,NA
71111,Bossier Parish,LA,NA,NA,28.471248246844322,NA
71282,Madison Parish,LA,NA,NA,54.137447405329596,NA
71292,Ouachita Parish,LA,NA,NA,16.690042075736326,NA
71295,Franklin Parish,LA,NA,NA,53.71669004207573,NA
71346,Rapides Parish,LA,NA,69.08517350157729,NA,NA
71360,Rapides Parish,LA,NA,52.05047318611987,NA,NA
71405,Rapides Parish,LA,NA,NA,89.76157082748948,NA
04002,York County,ME,NA,NA,77.98036465638148,NA
04043,York County,ME,NA,NA,NA,44.299674267100976
04064,York County,ME,NA,NA,NA,87.94788273615634
04074,Cumberland County,ME,NA,NA,69.56521739130434,NA
04079,Cumberland County,ME,NA,NA,NA,89.25081433224756
04092,Cumberland County,ME,NA,42.27129337539432,91.58485273492286,NA
04101,Cumberland County,ME,NA,NA,NA,29.967426710097723
04103,Cumberland County,ME,34.492753623188406,NA,NA,NA
04107,Cumberland County,ME,NA,NA,NA,98.69706840390879
04240,Androscoggin County,ME,NA,NA,18.092566619915846,5.211726384364821
04330,Kennebec County,ME,NA,26.813880126182966,NA,NA
04345,Kennebec County,ME,NA,NA,88.35904628330997,NA
04364,Kennebec County,ME,NA,NA,60.16830294530154,NA
04416,Hancock County,ME,NA,NA,89.06030855539971,NA
04530,Sagadahoc County,ME,NA,NA,NA,92.50814332247556
04572,Lincoln County,ME,78.40579710144927,NA,NA,NA
04743,Aroostook County,ME,NA,NA,NA,81.10749185667753
04915,Waldo County,ME,NA,NA,74.05329593267882,NA
04930,Penobscot County,ME,NA,NA,NA,94.46254071661238
04937,Somerset County,ME,NA,NA,84.43197755960729,NA
04957,Somerset County,ME,NA,NA,77.69985974754559,NA
20601,Charles County,MD,NA,NA,70.68723702664796,NA
20653,St. Mary's County,MD,NA,NA,67.74193548387096,NA
20735,Prince George's County,MD,65.94202898550725,NA,NA,NA
20744,Prince George's County,MD,66.08695652173913,NA,NA,NA
20783,Prince George's County,MD,NA,NA,93.68863955119214,NA
20816,Montgomery County,MD,77.97101449275362,NA,NA,NA
20817,Montgomery County,MD,74.34782608695653,NA,NA,NA
20901,Montgomery County,MD,82.31884057971014,NA,NA,NA
20904,Montgomery County,MD,45.79710144927536,NA,NA,NA
21001,Harford County,MD,NA,NA,NA,69.05537459283387
21014,Harford County,MD,66.52173913043478,NA,NA,NA
21061,Anne Arundel County,MD,NA,NA,40.53295932678822,NA
21114,Anne Arundel County,MD,NA,NA,67.60168302945301,NA
21120,Baltimore County,MD,NA,NA,98.17671809256662,NA
21218,Baltimore city,MD,NA,NA,40.813464235624124,NA
21601,Talbot County,MD,NA,NA,NA,45.60260586319218
21740,Washington County,MD,NA,NA,22.44039270687237,NA
21830,Wicomico County,MD,91.44927536231884,NA,NA,NA
21911,Cecil County,MD,86.23188405797102,NA,NA,NA
21921,Cecil County,MD,23.18840579710145,NA,NA,NA
01002,Hampshire County,MA,77.39130434782608,NA,NA,NA
01040,Hampden County,MA,NA,NA,0,NA
01095,Hampden County,MA,68.26086956521739,NA,NA,NA
01104,Hampden County,MA,NA,NA,2.3842917251051894,NA
01201,Berkshire County,MA,NA,50.1577287066246,1.9635343618513323,NA
01247,Berkshire County,MA,43.188405797101446,45.74132492113564,NA,NA
01301,Franklin County,MA,NA,NA,14.305750350631136,NA
01420,Worcester County,MA,NA,NA,0.2805049088359046,NA
01588,Worcester County,MA,58.98550724637681,NA,NA,NA
01604,Worcester County,MA,NA,NA,1.1220196353436185,NA
01701,Middlesex County,MA,56.376811594202906,NA,60.3085553997195,NA
01748,Middlesex County,MA,NA,NA,47.96633941093969,NA
01752,Middlesex County,MA,NA,NA,4.768583450210379,NA
01757,Worcester County,MA,NA,NA,3.3660589060308554,NA
01778,Middlesex County,MA,69.56521739130434,NA,NA,NA
01810,Essex County,MA,NA,NA,16.830294530154276,NA
01854,Middlesex County,MA,NA,NA,2.524544179523142,NA
01867,Middlesex County,MA,NA,NA,31.977559607293127,NA
01886,Middlesex County,MA,27.246376811594203,NA,74.47405329593268,NA
01902,Essex County,MA,NA,1.5772870662460567,0.42075736325385693,NA
01905,Essex County,MA,NA,NA,71.80925666199158,NA
01906,Essex County,MA,51.8840579710145,NA,NA,NA
01907,Essex County,MA,NA,93.05993690851734,NA,NA
01913,Essex County,MA,NA,NA,61.29032258064516,NA
01940,Essex County,MA,NA,NA,NA,51.465798045602604
01960,Essex County,MA,NA,NA,0.7012622720897616,0.32573289902280134
02038,Norfolk County,MA,40.14492753623188,NA,NA,NA
02050,Plymouth County,MA,86.81159420289855,NA,24.403927068723704,NA
02061,Plymouth County,MA,68.40579710144927,NA,NA,NA
02062,Norfolk County,MA,NA,NA,NA,15.63517915309446
02081,Norfolk County,MA,NA,NA,83.59046283309958,NA
02119,Suffolk County,MA,NA,NA,NA,0
02122,Suffolk County,MA,NA,NA,NA,33.876221498371336
02124,Suffolk County,MA,NA,0.31545741324921134,NA,NA
02125,Suffolk County,MA,29.565217391304348,NA,NA,NA
02127,Suffolk County,MA,NA,NA,2.244039270687237,NA
02128,Suffolk County,MA,1.884057971014493,5.678233438485805,NA,NA
02132,Suffolk County,MA,NA,NA,NA,3.5830618892508146
02134,Suffolk County,MA,NA,NA,14.866760168302944,NA
02135,Suffolk County,MA,NA,NA,5.46984572230014,NA
02139,Middlesex County,MA,NA,NA,NA,70.35830618892508
02141,Middlesex County,MA,NA,NA,64.93688639551192,NA
02150,Suffolk County,MA,0,NA,NA,NA
02155,Middlesex County,MA,NA,NA,8.835904628330995,NA
02171,Norfolk County,MA,NA,NA,80.92566619915848,NA
02180,Middlesex County,MA,NA,NA,46.56381486676017,NA
02184,Norfolk County,MA,NA,17.981072555205046,NA,NA
02189,Norfolk County,MA,NA,NA,27.489481065918653,NA
02191,Norfolk County,MA,NA,NA,87.9382889200561,NA
02301,Plymouth County,MA,3.0434782608695654,NA,NA,51.14006514657981
02332,Plymouth County,MA,73.76811594202898,NA,NA,NA
02347,Plymouth County,MA,79.71014492753623,NA,NA,NA
02360,Plymouth County,MA,NA,NA,1.262272089761571,NA
02364,Plymouth County,MA,NA,NA,54.97896213183731,NA
02451,Middlesex County,MA,NA,NA,29.453015427769984,NA
02452,Middlesex County,MA,NA,NA,NA,42.671009771986974
02474,Middlesex County,MA,40.43478260869565,NA,NA,NA
02492,Norfolk County,MA,NA,NA,31.697054698457222,NA
02664,Barnstable County,MA,NA,NA,57.92426367461431,NA
02703,Bristol County,MA,1.7391304347826086,NA,NA,0.9771986970684038
02720,Bristol County,MA,3.4782608695652173,NA,NA,NA
02743,Bristol County,MA,85.07246376811595,NA,NA,NA
02745,Bristol County,MA,NA,NA,NA,11.400651465798045
02746,Bristol County,MA,29.855072463768117,NA,NA,NA
02769,Bristol County,MA,65.07246376811594,NA,NA,NA
02777,Bristol County,MA,NA,NA,54.698457223001405,NA
48030,Oakland County,MI,NA,NA,47.12482468443198,NA
48045,Macomb County,MI,NA,69.08517350157729,NA,NA
48060,St. Clair County,MI,10.869565217391305,NA,NA,9.446254071661238
48066,Macomb County,MI,NA,47.634069400630914,NA,NA
48082,Macomb County,MI,NA,NA,NA,40.06514657980456
48092,Macomb County,MI,NA,NA,NA,61.88925081433225
48098,Oakland County,MI,61.59420289855072,NA,NA,NA
48103,Washtenaw County,MI,22.028985507246375,NA,NA,NA
48120,Wayne County,MI,NA,69.08517350157729,NA,NA
48127,Wayne County,MI,NA,NA,15.988779803646564,NA
48146,Wayne County,MI,NA,NA,36.605890603085555,NA
48152,Wayne County,MI,NA,NA,68.30294530154278,NA
48154,Wayne County,MI,19.855072463768117,NA,NA,NA
48161,Monroe County,MI,8.695652173913043,NA,NA,NA
48162,Monroe County,MI,NA,NA,15.708274894810659,NA
48167,Oakland County,MI,51.59420289855072,NA,NA,NA
48180,Wayne County,MI,NA,NA,3.7868162692847123,NA
48183,Wayne County,MI,NA,NA,11.079943899018232,NA
48185,Wayne County,MI,7.536231884057972,NA,NA,NA
48186,Wayne County,MI,18.695652173913043,NA,NA,NA
48192,Wayne County,MI,57.391304347826086,NA,22.019635343618514,NA
48203,Wayne County,MI,NA,NA,NA,62.54071661237784
48211,Wayne County,MI,NA,89.58990536277602,NA,NA
48212,Wayne County,MI,NA,NA,11.781206171107995,NA
48229,Wayne County,MI,NA,NA,84.43197755960729,NA
48235,Wayne County,MI,NA,NA,NA,26.710097719869708
48239,Wayne County,MI,NA,NA,10.098176718092567,NA
48240,Wayne County,MI,NA,NA,24.684431977559605,NA
48302,Oakland County,MI,54.78260869565217,NA,73.07152875175316,NA
48306,Oakland County,MI,38.405797101449274,NA,NA,NA
48310,Macomb County,MI,NA,NA,NA,16.938110749185668
48312,Macomb County,MI,NA,NA,29.172510518934082,NA
48314,Macomb County,MI,NA,NA,NA,96.41693811074919
48317,Macomb County,MI,NA,NA,58.06451612903226,NA
48331,Oakland County,MI,NA,NA,NA,26.058631921824105
48335,Oakland County,MI,NA,NA,54.4179523141655,NA
48342,Oakland County,MI,NA,NA,18.93408134642356,NA
48357,Oakland County,MI,NA,97.47634069400631,NA,NA
48381,Oakland County,MI,NA,87.38170347003155,68.44319775596072,NA
48453,Sanilac County,MI,NA,NA,82.46844319775596,NA
48504,Genesee County,MI,NA,NA,NA,47.23127035830619
48506,Genesee County,MI,NA,NA,28.330995792426368,NA
48602,Saginaw County,MI,3.3333333333333335,NA,NA,NA
48604,Saginaw County,MI,NA,NA,58.90603085553997,NA
48609,Saginaw County,MI,77.53623188405797,NA,NA,NA
48611,Bay County,MI,77.82608695652173,NA,NA,NA
48809,Ionia County,MI,NA,NA,69.14446002805049,NA
48813,Eaton County,MI,44.34782608695652,NA,NA,NA
48836,Livingston County,MI,54.78260869565217,NA,NA,NA
48837,Eaton County,MI,NA,87.38170347003155,NA,NA
48838,Montcalm County,MI,NA,NA,NA,96.09120521172639
48842,Ingham County,MI,NA,NA,42.91725105189341,NA
48849,Ionia County,MI,88.40579710144928,NA,NA,NA
48855,Livingston County,MI,93.04347826086956,NA,NA,NA
48864,Ingham County,MI,NA,NA,NA,49.8371335504886
48867,Shiawassee County,MI,NA,NA,NA,10.749185667752444
48872,Shiawassee County,MI,NA,NA,88.218793828892,NA
48910,Ingham County,MI,NA,NA,NA,18.566775244299674
48911,Ingham County,MI,NA,NA,7.854137447405329,NA
49007,Kalamazoo County,MI,NA,NA,44.17952314165498,NA
49013,Van Buren County,MI,78.84057971014494,NA,NA,NA
49014,Calhoun County,MI,30.579710144927535,NA,NA,NA
49024,Kalamazoo County,MI,NA,NA,NA,26.384364820846905
49058,Barry County,MI,50.43478260869565,NA,NA,NA
49120,Berrien County,MI,13.043478260869565,NA,NA,NA
49283,Jackson County,MI,99.85507246376811,NA,NA,NA
49307,Mecosta County,MI,NA,NA,NA,66.12377850162866
49330,Kent County,MI,99.71014492753623,NA,NA,NA
49345,Kent County,MI,NA,NA,94.67040673211781,NA
49418,Kent County,MI,NA,NA,42.6367461430575,NA
49420,Oceana County,MI,86.52173913043478,NA,NA,NA
49424,Ottawa County,MI,NA,NA,NA,17.91530944625407
49431,Mason County,MI,21.44927536231884,NA,NA,NA
49442,Muskegon County,MI,2.608695652173913,NA,NA,7.166123778501629
49444,Muskegon County,MI,NA,NA,40.11220196353436,NA
49455,Oceana County,MI,68.11594202898551,NA,NA,NA
49464,Ottawa County,MI,38.98550724637681,NA,NA,NA
49503,Kent County,MI,11.884057971014492,NA,NA,NA
49508,Kent County,MI,NA,NA,6.732117812061711,NA
49519,Kent County,MI,NA,27.760252365930597,NA,NA
49548,Kent County,MI,7.971014492753622,NA,NA,NA
49665,Osceola County,MI,NA,97.47634069400631,NA,NA
49720,Charlevoix County,MI,75.65217391304347,NA,NA,NA
55057,Rice County,MN,56.811594202898554,NA,NA,NA
55104,Ramsey County,MN,NA,23.34384858044164,NA,NA
55106,Ramsey County,MN,NA,NA,NA,30.618892508143325
55117,Ramsey County,MN,31.594202898550726,NA,50.911640953716685,NA
55118,Dakota County,MN,35.21739130434783,NA,NA,NA
55125,Washington County,MN,35.79710144927537,NA,NA,NA
55304,Anoka County,MN,NA,NA,45.16129032258064,NA
55350,McLeod County,MN,NA,NA,NA,34.85342019543974
55356,Hennepin County,MN,NA,NA,99.01823281907434,NA
55404,Hennepin County,MN,NA,NA,NA,5.863192182410423
55407,Hennepin County,MN,NA,NA,7.5736325385694245,NA
55408,Hennepin County,MN,NA,NA,14.025245441795231,NA
55411,Hennepin County,MN,1.3043478260869565,NA,NA,NA
55412,Hennepin County,MN,NA,9.14826498422713,NA,NA
55426,Hennepin County,MN,NA,NA,33.09957924263674,NA
55428,Hennepin County,MN,NA,NA,71.38849929873773,NA
55432,Anoka County,MN,69.27536231884058,NA,27.349228611500703,NA
55433,Anoka County,MN,40.43478260869565,58.0441640378549,40.252454417952315,NA
55448,Anoka County,MN,NA,NA,45.72230014025245,NA
55744,Itasca County,MN,40.14492753623188,NA,NA,NA
55746,St. Louis County,MN,33.33333333333333,NA,NA,NA
55807,St. Louis County,MN,NA,NA,NA,59.28338762214984
55810,St. Louis County,MN,NA,NA,NA,52.76872964169381
55904,Olmsted County,MN,35.507246376811594,NA,NA,NA
55917,Steele County,MN,97.10144927536231,NA,NA,NA
55981,Wabasha County,MN,94.34782608695652,NA,NA,NA
56003,Nicollet County,MN,94.78260869565217,NA,NA,NA
56031,Martin County,MN,NA,NA,NA,59.60912052117264
56093,Waseca County,MN,47.53623188405797,NA,NA,NA
56164,Pipestone County,MN,NA,NA,73.91304347826086,NA
56401,Crow Wing County,MN,NA,NA,58.62552594670407,NA
56501,Becker County,MN,NA,80.12618296529969,NA,NA
56537,Otter Tail County,MN,NA,37.22397476340694,NA,NA
56601,Beltrami County,MN,NA,NA,7.433380084151472,2.6058631921824107
56716,Polk County,MN,NA,70.66246056782335,NA,NA
56721,Polk County,MN,43.04347826086957,NA,NA,NA
38650,Union County,MS,NA,NA,99.57924263674614,NA
38652,Union County,MS,NA,NA,76.57784011220197,NA
38868,Lee County,MS,97.82608695652173,NA,NA,NA
39042,Rankin County,MS,27.82608695652174,NA,NA,NA
39056,Hinds County,MS,NA,54.57413249211357,NA,NA
39073,Rankin County,MS,56.52173913043478,NA,NA,NA
39083,Copiah County,MS,NA,NA,80.64516129032258,NA
39168,Smith County,MS,NA,94.6372239747634,NA,NA
39204,Hinds County,MS,NA,NA,27.068723702664798,NA
39209,Hinds County,MS,NA,NA,NA,50.814332247557005
39213,Hinds County,MS,NA,46.05678233438486,NA,NA
39301,Lauderdale County,MS,NA,NA,22.30014025245442,NA
39345,Newton County,MS,NA,84.85804416403786,NA,NA
39350,Neshoba County,MS,14.492753623188406,NA,NA,NA
39365,Neshoba County,MS,59.27536231884057,NA,NA,NA
39402,Lamar County,MS,NA,44.164037854889585,NA,NA
39429,Marion County,MS,NA,NA,68.86395511921458,NA
39482,Lamar County,MS,79.13043478260869,NA,NA,NA
39648,Pike County,MS,NA,38.801261829652994,NA,NA
63016,Jefferson County,MO,NA,86.1198738170347,NA,NA
63017,St. Louis County,MO,NA,NA,66.61991584852734,NA
63025,St. Louis County,MO,NA,NA,86.95652173913044,NA
63069,Franklin County,MO,83.18840579710145,NA,NA,NA
63111,St. Louis city,MO,NA,36.59305993690852,NA,NA
63116,St. Louis city,MO,NA,NA,NA,58.95765472312704
63122,St. Louis County,MO,NA,86.1198738170347,NA,NA
63123,St. Louis County,MO,21.15942028985507,NA,NA,NA
63132,St. Louis County,MO,NA,NA,93.68863955119214,NA
63136,St. Louis County,MO,NA,12.302839116719243,NA,NA
63343,Lincoln County,MO,NA,NA,97.054698457223,NA
63348,St. Charles County,MO,NA,NA,94.24964936886396,NA
63362,Lincoln County,MO,96.08695652173913,NA,NA,NA
63366,St. Charles County,MO,12.173913043478262,NA,15.568022440392706,NA
63385,St. Charles County,MO,15.942028985507244,NA,NA,NA
63401,Marion County,MO,NA,NA,51.61290322580645,NA
63601,St. Francois County,MO,17.681159420289855,NA,NA,NA
63670,Ste. Genevieve County,MO,52.028985507246375,NA,NA,NA
63834,Mississippi County,MO,83.47826086956522,NA,NA,NA
64012,Cass County,MO,20.28985507246377,NA,NA,NA
64014,Jackson County,MO,NA,NA,24.82468443197756,NA
64019,Johnson County,MO,NA,NA,97.19495091164096,NA
64024,Clay County,MO,28.985507246376812,NA,NA,NA
64040,Johnson County,MO,87.2463768115942,NA,NA,NA
64060,Clay County,MO,NA,NA,49.64936886395512,NA
64064,Jackson County,MO,NA,NA,55.11921458625526,NA
64068,Clay County,MO,0.8695652173913043,NA,10.238429172510518,NA
64086,Jackson County,MO,52.60869565217391,NA,NA,NA
64093,Johnson County,MO,37.391304347826086,NA,NA,NA
64116,Clay County,MO,50.43478260869565,NA,NA,NA
64117,Clay County,MO,33.768115942028984,NA,NA,NA
64119,Clay County,MO,NA,NA,41.79523141654979,NA
64123,Jackson County,MO,NA,50.78864353312302,NA,NA
64128,Jackson County,MO,18.405797101449277,28.391167192429023,24.26367461430575,NA
64134,Jackson County,MO,NA,29.33753943217666,NA,NA
64138,Jackson County,MO,20.144927536231886,NA,NA,NA
64152,Platte County,MO,NA,NA,23.14165497896213,NA
64155,Clay County,MO,16.81159420289855,NA,NA,NA
64157,Clay County,MO,16.956521739130434,NA,NA,NA
64158,Clay County,MO,88.1159420289855,NA,NA,NA
64501,Buchanan County,MO,60.43478260869565,NA,NA,NA
64503,Buchanan County,MO,NA,NA,NA,36.156351791530945
64507,Buchanan County,MO,NA,31.230283911671926,30.575035063113603,NA
64870,Jasper County,MO,NA,42.90220820189275,NA,NA
65018,Moniteau County,MO,NA,84.85804416403786,NA,NA
65026,Miller County,MO,NA,33.4384858044164,NA,NA
65202,Boone County,MO,NA,25.86750788643533,NA,NA
65270,Randolph County,MO,NA,58.359621451104104,NA,NA
65301,Pettis County,MO,NA,NA,NA,12.052117263843648
65349,Saline County,MO,99.56521739130434,NA,NA,NA
65560,Dent County,MO,NA,NA,60.02805049088359,NA
65608,Douglas County,MO,NA,NA,NA,81.43322475570032
65613,Polk County,MO,NA,NA,59.88779803646563,NA
65625,Barry County,MO,NA,NA,88.92005610098177,NA
65802,Greene County,MO,NA,NA,13.464235624123422,NA
59101,Yellowstone County,MT,NA,NA,91.02384291725105,NA
59102,Yellowstone County,MT,52.17391304347826,NA,NA,NA
59718,Gallatin County,MT,NA,NA,NA,42.99674267100978
59801,Missoula County,MT,53.47826086956522,NA,NA,NA
59803,Missoula County,MT,90.8695652173913,NA,NA,NA
59808,Missoula County,MT,58.98550724637681,NA,NA,NA
68007,Douglas County,NE,NA,NA,NA,95.76547231270358
68110,Douglas County,NE,NA,NA,78.68162692847125,NA
68112,Douglas County,NE,NA,80.4416403785489,NA,NA
68123,Sarpy County,NE,71.30434782608695,NA,NA,NA
68130,Douglas County,NE,NA,NA,NA,74.9185667752443
68132,Douglas County,NE,62.60869565217392,NA,NA,NA
68164,Douglas County,NE,66.95652173913044,NA,NA,NA
68502,Lancaster County,NE,NA,NA,71.52875175315569,NA
69153,Keith County,NE,98.40579710144928,NA,NA,NA
69162,Cheyenne County,NE,62.46376811594203,NA,NA,NA
89107,Clark County,NV,74.63768115942028,NA,NA,NA
89115,Clark County,NV,NA,39.11671924290221,NA,NA
89142,Clark County,NV,NA,NA,68.72370266479663,NA
89156,Clark County,NV,NA,64.98422712933754,NA,NA
89169,Clark County,NV,NA,NA,NA,95.43973941368078
89460,Douglas County,NV,77.97101449275362,NA,NA,NA
89521,Washoe County,NV,NA,NA,90.32258064516128,NA
03038,Rockingham County,NH,NA,NA,NA,22.149837133550488
03051,Hillsborough County,NH,34.05797101449276,NA,NA,58.63192182410424
03064,Hillsborough County,NH,11.44927536231884,NA,NA,NA
03076,Hillsborough County,NH,NA,NA,NA,60.586319218241044
03079,Rockingham County,NH,NA,NA,76.71809256661992,NA
03103,Hillsborough County,NH,NA,61.82965299684543,NA,NA
03303,Merrimack County,NH,31.88405797101449,NA,NA,85.99348534201955
03584,Coos County,NH,NA,NA,99.29873772791024,NA
03743,Sullivan County,NH,71.30434782608695,NA,NA,NA
03820,Strafford County,NH,NA,68.13880126182966,NA,NA
03825,Strafford County,NH,65.79710144927536,NA,NA,NA
03833,Rockingham County,NH,NA,NA,NA,39.08794788273616
03867,Strafford County,NH,NA,NA,58.48527349228612,NA
03873,Rockingham County,NH,NA,NA,90.8835904628331,NA
07002,Hudson County,NJ,NA,NA,12.342215988779802,NA
07035,Morris County,NJ,82.6086956521739,NA,NA,NA
07087,Hudson County,NJ,NA,3.1545741324921135,NA,NA
07095,Middlesex County,NJ,NA,43.217665615141954,NA,NA
07107,Essex County,NJ,28.695652173913043,NA,NA,NA
07203,Union County,NJ,NA,NA,61.85133239831697,NA
07305,Hudson County,NJ,NA,NA,86.25525946704067,NA
07424,Passaic County,NJ,61.30434782608696,NA,NA,NA
07470,Passaic County,NJ,NA,NA,20.336605890603085,NA
07501,Passaic County,NJ,NA,1.2618296529968454,NA,NA
07503,Passaic County,NJ,NA,NA,55.68022440392707,NA
07603,Bergen County,NJ,NA,NA,91.4446002805049,NA
07724,Monmouth County,NJ,NA,NA,31.416549789621318,38.43648208469055
07740,Monmouth County,NJ,NA,7.255520504731862,NA,NA
07755,Monmouth County,NJ,NA,NA,NA,94.78827361563518
07828,Morris County,NJ,NA,62.46056782334385,NA,NA
07922,Union County,NJ,93.91304347826087,NA,NA,NA
08008,Ocean County,NJ,99.42028985507247,NA,NA,NA
08012,Camden County,NJ,15.36231884057971,NA,NA,NA
08021,Camden County,NJ,4.63768115942029,NA,NA,NA
08094,Gloucester County,NJ,NA,NA,31.837307152875177,NA
08302,Cumberland County,NJ,NA,NA,NA,14.983713355048861
08332,Cumberland County,NJ,NA,NA,26.227208976157083,NA
08344,Gloucester County,NJ,89.13043478260869,NA,NA,NA
08360,Cumberland County,NJ,6.3768115942028984,25.236593059936908,NA,NA
08527,Ocean County,NJ,NA,NA,NA,10.097719869706841
08638,Mercer County,NJ,NA,14.511041009463725,NA,NA
08805,Somerset County,NJ,NA,21.451104100946374,NA,NA
08816,Middlesex County,NJ,NA,45.42586750788644,NA,NA
08902,Middlesex County,NJ,73.76811594202898,NA,NA,NA
87015,Santa Fe County,NM,NA,NA,NA,79.15309446254072
87106,Bernalillo County,NM,NA,NA,25.105189340813467,NA
87108,Bernalillo County,NM,42.7536231884058,NA,NA,34.20195439739413
87109,Bernalillo County,NM,NA,NA,52.73492286115007,NA
87121,Bernalillo County,NM,NA,3.4700315457413247,NA,NA
87123,Bernalillo County,NM,NA,NA,16.54978962131837,NA
87301,McKinley County,NM,NA,15.141955835962145,NA,64.16938110749186
87317,McKinley County,NM,92.89855072463769,NA,NA,NA
87401,San Juan County,NM,33.768115942028984,NA,NA,NA
87413,San Juan County,NM,NA,53.31230283911672,54.55820476858345,NA
87417,San Juan County,NM,NA,NA,NA,99.6742671009772
87420,San Juan County,NM,NA,NA,81.06591865357645,NA
87528,Rio Arriba County,NM,NA,65.93059936908517,NA,NA
87571,Taos County,NM,95.79710144927536,NA,NA,NA
88011,Doa Ana County,NM,NA,75.39432176656152,NA,NA
88101,Curry County,NM,NA,15.772870662460567,NA,NA
88240,Lea County,NM,12.318840579710146,NA,NA,NA
88242,Lea County,NM,NA,72.55520504731862,NA,98.37133550488599
88310,Otero County,NM,NA,NA,27.769985974754558,NA
10002,New York County,NY,8.115942028985506,NA,43.47826086956522,NA
10025,New York County,NY,NA,NA,7.012622720897616,NA
10031,New York County,NY,NA,NA,NA,54.39739413680782
10032,New York County,NY,NA,24.605678233438486,NA,NA
10034,New York County,NY,NA,NA,82.74894810659187,21.49837133550489
10035,New York County,NY,17.971014492753625,NA,NA,NA
10453,Bronx County,NY,0.5797101449275363,NA,0.8415147265077139,NA
10454,Bronx County,NY,NA,NA,NA,70.68403908794788
10455,Bronx County,NY,NA,NA,NA,13.680781758957655
10456,Bronx County,NY,NA,0,0.1402524544179523,NA
10457,Bronx County,NY,NA,0.9463722397476341,NA,NA
10459,Bronx County,NY,NA,4.73186119873817,NA,NA
10460,Bronx County,NY,NA,NA,NA,1.9543973941368076
10461,Bronx County,NY,NA,NA,NA,23.452768729641694
10462,Bronx County,NY,NA,NA,78.26086956521739,NA
10467,Bronx County,NY,0.7246376811594203,0.6309148264984227,6.171107994389901,NA
10468,Bronx County,NY,NA,NA,2.1037868162692845,NA
10470,Bronx County,NY,NA,NA,NA,65.47231270358306
10472,Bronx County,NY,NA,10.725552050473187,3.225806451612903,NA
10522,Westchester County,NY,NA,NA,96.35343618513323,NA
10705,Westchester County,NY,29.275362318840582,NA,NA,NA
11050,Nassau County,NY,NA,NA,89.48106591865358,NA
11208,Kings County,NY,NA,2.8391167192429023,1.402524544179523,NA
11211,Kings County,NY,NA,7.886435331230284,NA,NA
11226,Kings County,NY,46.231884057971016,4.100946372239748,NA,NA
11237,Kings County,NY,12.753623188405797,NA,NA,NA
11238,Kings County,NY,NA,NA,24.544179523141654,NA
11368,Queens County,NY,NA,2.2082018927444795,9.256661991584853,NA
11373,Queens County,NY,NA,5.993690851735016,NA,NA
11375,Queens County,NY,NA,70.03154574132492,NA,NA
11377,Queens County,NY,NA,11.987381703470032,52.594670406732114,NA
11421,Queens County,NY,NA,14.195583596214512,NA,NA
11427,Queens County,NY,NA,NA,NA,72.63843648208469
11434,Queens County,NY,NA,NA,18.513323983169705,NA
11550,Nassau County,NY,NA,NA,44.03927068723703,NA
11691,Queens County,NY,NA,NA,37.166900420757365,NA
11701,Suffolk County,NY,NA,NA,71.24824684431978,NA
11705,Suffolk County,NY,NA,NA,95.79242636746143,NA
11720,Suffolk County,NY,NA,67.50788643533123,NA,NA
11763,Suffolk County,NY,NA,NA,49.08835904628331,NA
11798,Suffolk County,NY,NA,51.73501577287066,NA,NA
11901,Suffolk County,NY,NA,NA,53.85694249649369,NA
12010,Montgomery County,NY,NA,NA,6.311360448807854,NA
12025,Fulton County,NY,NA,NA,70.82748948106592,NA
12065,Saratoga County,NY,42.31884057971014,NA,NA,23.12703583061889
12182,Rensselaer County,NY,32.89855072463768,NA,53.15568022440392,NA
12206,Albany County,NY,NA,NA,23.56241234221599,NA
12302,Schenectady County,NY,NA,65.61514195583597,NA,NA
12303,Schenectady County,NY,NA,NA,42.49649368863955,NA
12883,Essex County,NY,85.5072463768116,NA,NA,NA
12887,Washington County,NY,NA,NA,NA,86.64495114006515
12953,Franklin County,NY,NA,NA,21.87938288920056,NA
13021,Cayuga County,NY,NA,NA,4.908835904628331,NA
13031,Onondaga County,NY,NA,NA,47.82608695652174,NA
13032,Madison County,NY,NA,NA,36.4656381486676,NA
13039,Onondaga County,NY,56.811594202898554,NA,NA,NA
13045,Cortland County,NY,NA,NA,5.329593267882188,NA
13057,Onondaga County,NY,NA,NA,NA,96.74267100977198
13090,Onondaga County,NY,39.27536231884058,NA,NA,NA
13104,Onondaga County,NY,87.82608695652175,NA,NA,NA
13158,Cortland County,NY,94.78260869565217,NA,NA,NA
13165,Seneca County,NY,57.68115942028985,NA,31.136044880785413,NA
13202,Onondaga County,NY,NA,NA,62.552594670406734,NA
13206,Onondaga County,NY,68.69565217391305,NA,28.190743338008417,NA
13208,Onondaga County,NY,NA,32.80757097791798,NA,NA
13211,Onondaga County,NY,NA,82.01892744479495,NA,NA
13309,Oneida County,NY,NA,NA,70.26647966339411,NA
13320,Otsego County,NY,NA,NA,98.31697054698458,NA
13339,Montgomery County,NY,NA,NA,NA,83.71335504885994
13350,Herkimer County,NY,NA,NA,39.27068723702665,NA
13367,Lewis County,NY,80.43478260869566,NA,NA,NA
13402,Madison County,NY,95.65217391304348,NA,NA,NA
13440,Oneida County,NY,NA,40.694006309148264,2.805049088359046,NA
13477,Oneida County,NY,NA,NA,NA,100
13642,St. Lawrence County,NY,75.21739130434783,NA,NA,NA
13662,St. Lawrence County,NY,26.231884057971016,NA,NA,NA
13669,St. Lawrence County,NY,NA,NA,25.94670406732118,NA
13676,St. Lawrence County,NY,NA,NA,36.18513323983169,NA
13746,Broome County,NY,NA,NA,91.86535764375876,NA
13790,Broome County,NY,20.434782608695652,NA,NA,NA
13820,Otsego County,NY,17.246376811594203,NA,40.39270687237027,NA
13850,Broome County,NY,72.46376811594203,NA,NA,NA
13856,Delaware County,NY,48.11594202898551,NA,81.20617110799438,NA
14001,Erie County,NY,NA,NA,73.35203366058906,NA
14020,Genesee County,NY,14.782608695652174,NA,NA,NA
14051,Erie County,NY,62.89855072463768,NA,NA,NA
14075,Erie County,NY,63.91304347826087,NA,NA,NA
14085,Erie County,NY,NA,NA,84.7124824684432,NA
14094,Niagara County,NY,10.144927536231885,NA,NA,NA
14125,Genesee County,NY,NA,NA,87.23702664796635,NA
14150,Erie County,NY,19.710144927536234,NA,6.872370266479663,NA
14170,Erie County,NY,NA,NA,97.89621318373072,NA
14201,Erie County,NY,NA,NA,51.472650771388494,NA
14206,Erie County,NY,NA,NA,NA,31.27035830618892
14213,Erie County,NY,NA,NA,22.720897615708274,NA
14217,Erie County,NY,NA,NA,29.59326788218794,NA
14220,Erie County,NY,9.855072463768117,NA,17.67180925666199,NA
14222,Erie County,NY,NA,NA,58.2047685834502,NA
14226,Erie County,NY,53.188405797101446,NA,NA,NA
14304,Niagara County,NY,NA,NA,NA,27.68729641693811
14424,Ontario County,NY,11.73913043478261,NA,NA,0.6514657980456027
14468,Monroe County,NY,21.594202898550723,NA,NA,NA
14472,Monroe County,NY,58.550724637681164,NA,NA,NA
14476,Orleans County,NY,86.23188405797102,NA,NA,NA
14487,Livingston County,NY,NA,NA,79.1023842917251,NA
14516,Wayne County,NY,NA,NA,NA,92.18241042345277
14532,Ontario County,NY,NA,NA,NA,76.2214983713355
14534,Monroe County,NY,2.898550724637681,NA,7.713884992987377,NA
14568,Wayne County,NY,69.71014492753623,NA,NA,NA
14569,Wyoming County,NY,NA,NA,68.44319775596072,NA
14580,Monroe County,NY,0.43478260869565216,54.889589905362776,0.9817671809256662,NA
14605,Monroe County,NY,NA,NA,10.659186535764375,NA
14606,Monroe County,NY,8.840579710144928,NA,NA,NA
14612,Monroe County,NY,29.130434782608695,NA,3.0855539971949506,NA
14616,Monroe County,NY,NA,NA,4.488078541374474,NA
14619,Monroe County,NY,46.08695652173913,NA,NA,NA
14621,Monroe County,NY,NA,8.832807570977918,0.5610098176718092,4.5602605863192185
14701,Chautauqua County,NY,4.9275362318840585,66.24605678233438,NA,NA
14741,Cattaraugus County,NY,93.6231884057971,NA,NA,NA
14760,Cattaraugus County,NY,14.927536231884059,NA,NA,NA
14830,Steuben County,NY,24.347826086956523,NA,NA,NA
14901,Chemung County,NY,NA,NA,34.642356241234225,NA
14904,Chemung County,NY,32.31884057971015,NA,NA,NA
27006,Davie County,NC,NA,NA,64.51612903225806,NA
27011,Yadkin County,NC,NA,88.64353312302839,NA,NA
27030,Surry County,NC,4.3478260869565215,NA,NA,NA
27040,Forsyth County,NC,88.40579710144928,NA,NA,NA
27051,Forsyth County,NC,NA,NA,NA,75.57003257328991
27052,Stokes County,NC,87.2463768115942,NA,NA,NA
27106,Forsyth County,NC,13.18840579710145,NA,NA,NA
27107,Forsyth County,NC,36.3768115942029,NA,NA,NA
27205,Randolph County,NC,NA,NA,45.86255259467041,NA
27244,Alamance County,NC,84.78260869565217,NA,NA,NA
27295,Davidson County,NC,30.434782608695656,23.65930599369085,24.1234221598878,NA
27360,Davidson County,NC,NA,NA,5.049088359046284,7.491856677524431
27513,Wake County,NC,63.76811594202898,NA,NA,NA
27514,Orange County,NC,57.68115942028985,NA,NA,33.55048859934853
27522,Granville County,NC,NA,NA,79.66339410939692,NA
27526,Wake County,NC,60.72463768115942,NA,NA,NA
27536,Vance County,NC,NA,NA,33.2398316970547,NA
27545,Wake County,NC,51.449275362318836,NA,NA,NA
27546,Harnett County,NC,NA,NA,NA,80.13029315960912
27565,Granville County,NC,31.44927536231884,NA,NA,NA
27576,Johnston County,NC,55.21739130434783,NA,NA,NA
27604,Wake County,NC,NA,NA,37.30715287517531,NA
27610,Wake County,NC,NA,NA,9.1164095371669,NA
27817,Beaufort County,NC,NA,NA,81.4866760168303,NA
27828,Pitt County,NC,78.26086956521739,NA,70.54698457223,NA
27834,Pitt County,NC,NA,NA,8.415147265077138,NA
27856,Nash County,NC,NA,78.86435331230284,NA,NA
27932,Chowan County,NC,NA,NA,83.16970546984572,NA
28025,Cabarrus County,NC,NA,NA,NA,18.892508143322477
28036,Mecklenburg County,NC,86.08695652173914,NA,NA,NA
28056,Gaston County,NC,44.05797101449275,NA,NA,NA
28104,Union County,NC,47.53623188405797,NA,69.00420757363254,NA
28110,Union County,NC,NA,NA,NA,20.846905537459286
28112,Union County,NC,NA,NA,49.78962131837307,NA
28146,Rowan County,NC,NA,NA,37.02664796633941,NA
28166,Iredell County,NC,NA,NA,81.7671809256662,NA
28205,Mecklenburg County,NC,NA,25.55205047318612,NA,NA
28208,Mecklenburg County,NC,NA,16.7192429022082,NA,NA
28213,Mecklenburg County,NC,22.608695652173914,NA,NA,NA
28215,Mecklenburg County,NC,NA,NA,19.35483870967742,88.59934853420195
28216,Mecklenburg County,NC,NA,17.981072555205046,NA,NA
28227,Mecklenburg County,NC,NA,NA,NA,22.475570032573287
28312,Cumberland County,NC,44.78260869565218,NA,NA,NA
28451,Brunswick County,NC,NA,NA,33.80084151472651,NA
28504,Lenoir County,NC,NA,NA,48.80785413744741,NA
28513,Pitt County,NC,NA,NA,NA,77.19869706840392
28532,Craven County,NC,NA,NA,72.51051893408135,NA
28560,Craven County,NC,NA,NA,33.38008415147265,42.01954397394137
28601,Catawba County,NC,NA,NA,18.37307152875175,NA
28621,Surry County,NC,NA,NA,75.8765778401122,NA
28645,Caldwell County,NC,NA,5.047318611987381,NA,NA
28673,Catawba County,NC,96.66666666666667,NA,91.86535764375876,NA
28704,Buncombe County,NC,NA,NA,70.40673211781207,NA
28715,Buncombe County,NC,NA,NA,79.94389901823283,NA
28721,Haywood County,NC,43.913043478260875,NA,NA,NA
58078,Cass County,ND,NA,NA,29.873772791023846,NA
58103,Cass County,ND,NA,14.826498422712934,NA,NA
58104,Cass County,ND,NA,NA,NA,46.579804560260584
58201,Grand Forks County,ND,31.15942028985507,NA,NA,NA
58237,Walsh County,ND,88.40579710144928,NA,NA,NA
58501,Burleigh County,ND,NA,NA,NA,33.22475570032573
58701,Ward County,ND,NA,NA,NA,12.703583061889251
43015,Delaware County,OH,NA,NA,18.653576437587656,NA
43026,Franklin County,OH,12.318840579710146,20.82018927444795,NA,NA
43035,Delaware County,OH,7.246376811594203,NA,NA,NA
43055,Licking County,OH,NA,23.02839116719243,NA,NA
43078,Champaign County,OH,NA,56.15141955835961,NA,NA
43081,Franklin County,OH,60.14492753623188,NA,NA,NA
43082,Delaware County,OH,72.17391304347827,NA,NA,NA
43102,Fairfield County,OH,88.84057971014492,NA,NA,NA
43113,Pickaway County,OH,NA,NA,NA,69.38110749185668
43140,Madison County,OH,NA,35.01577287066246,NA,NA
43202,Franklin County,OH,93.33333333333333,NA,NA,NA
43206,Franklin County,OH,NA,NA,15.287517531556801,NA
43209,Franklin County,OH,NA,NA,52.45441795231417,38.11074918566775
43211,Franklin County,OH,NA,12.933753943217665,NA,NA
43221,Franklin County,OH,NA,79.17981072555204,NA,NA
43222,Franklin County,OH,77.10144927536233,NA,NA,NA
43223,Franklin County,OH,1.1594202898550725,NA,NA,NA
43224,Franklin County,OH,0.14492753623188406,2.5236593059936907,NA,NA
43227,Franklin County,OH,2.0289855072463765,NA,NA,NA
43228,Franklin County,OH,0.2898550724637681,NA,NA,NA
43229,Franklin County,OH,NA,1.8927444794952681,NA,NA
43230,Franklin County,OH,NA,NA,19.775596072931275,NA
43232,Franklin County,OH,5.072463768115942,NA,NA,NA
43302,Marion County,OH,3.768115942028986,NA,NA,NA
43351,Wyandot County,OH,NA,NA,74.05329593267882,NA
43402,Wood County,OH,NA,NA,NA,53.420195439739416
43420,Sandusky County,OH,NA,NA,12.622720897615707,NA
43460,Wood County,OH,58.115942028985515,NA,NA,NA
43512,Defiance County,OH,NA,47.003154574132495,NA,7.81758957654723
43537,Lucas County,OH,57.10144927536231,NA,NA,NA
43608,Lucas County,OH,NA,NA,9.957924263674615,46.25407166123778
43612,Lucas County,OH,2.753623188405797,NA,5.750350631136045,NA
43613,Lucas County,OH,1.4492753623188406,NA,NA,NA
43725,Guernsey County,OH,NA,36.27760252365931,NA,NA
43793,Monroe County,OH,NA,94.00630914826499,NA,NA
43812,Coshocton County,OH,44.20289855072464,NA,NA,NA
43906,Belmont County,OH,NA,NA,NA,50.1628664495114
43950,Belmont County,OH,NA,NA,44.88078541374474,NA
44004,Ashtabula County,OH,NA,NA,18.79382889200561,5.537459283387622
44011,Lorain County,OH,NA,49.21135646687697,NA,NA
44012,Lorain County,OH,NA,NA,NA,77.85016286644951
44035,Lorain County,OH,NA,15.457413249211358,NA,NA
44053,Lorain County,OH,25.217391304347824,NA,9.67741935483871,NA
44055,Lorain County,OH,2.318840579710145,NA,NA,NA
44070,Cuyahoga County,OH,NA,NA,NA,9.120521172638437
44074,Lorain County,OH,NA,NA,80.22440392706872,NA
44105,Cuyahoga County,OH,4.057971014492753,NA,7.152875175315568,NA
44107,Cuyahoga County,OH,NA,29.02208201892745,NA,NA
44108,Cuyahoga County,OH,NA,NA,NA,82.73615635179154
44109,Cuyahoga County,OH,NA,NA,NA,2.9315960912052117
44111,Cuyahoga County,OH,NA,NA,29.03225806451613,NA
44122,Cuyahoga County,OH,NA,NA,NA,32.89902280130293
44123,Cuyahoga County,OH,NA,NA,63.955119214586254,NA
44124,Cuyahoga County,OH,NA,NA,75.73632538569424,NA
44125,Cuyahoga County,OH,NA,NA,11.921458625525947,NA
44134,Cuyahoga County,OH,21.304347826086957,NA,NA,NA
44135,Cuyahoga County,OH,NA,40.063091482649845,NA,NA
44146,Cuyahoga County,OH,NA,NA,NA,3.257328990228013
44203,Summit County,OH,5.6521739130434785,NA,NA,NA
44266,Portage County,OH,NA,11.35646687697161,NA,NA
44270,Wayne County,OH,83.04347826086956,NA,NA,NA
44278,Summit County,OH,NA,NA,62.272089761570825,NA
44281,Medina County,OH,NA,NA,25.806451612903224,NA
44306,Summit County,OH,6.086956521739131,11.041009463722396,NA,NA
44313,Summit County,OH,NA,74.44794952681389,NA,NA
44413,Columbiana County,OH,65.07246376811594,NA,NA,NA
44425,Trumbull County,OH,22.17391304347826,NA,NA,NA
44442,Mahoning County,OH,93.91304347826087,NA,NA,NA
44514,Mahoning County,OH,19.420289855072465,NA,NA,NA
44515,Mahoning County,OH,NA,NA,12.0617110799439,NA
44601,Stark County,OH,29.42028985507246,NA,NA,NA
44643,Stark County,OH,98.26086956521739,NA,NA,NA
44646,Stark County,OH,NA,12.618296529968454,NA,NA
44691,Wayne County,OH,NA,NA,9.537166900420758,8.469055374592834
44720,Stark County,OH,24.057971014492754,NA,NA,NA
44820,Crawford County,OH,NA,NA,26.367461430575034,NA
44830,Seneca County,OH,NA,37.53943217665615,21.1781206171108,NA
44857,Huron County,OH,19.275362318840582,NA,NA,NA
44882,Wyandot County,OH,96.52173913043478,NA,NA,NA
44890,Huron County,OH,NA,56.782334384858046,NA,NA
44903,Richland County,OH,25.507246376811594,NA,NA,NA
44906,Richland County,OH,NA,NA,NA,49.185667752442995
45015,Butler County,OH,45.94202898550724,37.85488958990536,NA,NA
45036,Warren County,OH,NA,21.13564668769716,NA,NA
45040,Warren County,OH,NA,NA,67.3211781206171,NA
45068,Warren County,OH,NA,NA,NA,74.2671009771987
45102,Clermont County,OH,64.05797101449275,NA,NA,NA
45106,Clermont County,OH,NA,59.305993690851736,NA,NA
45133,Highland County,OH,14.202898550724639,NA,NA,NA
45140,Clermont County,OH,10.289855072463768,NA,NA,NA
45176,Clermont County,OH,NA,41.32492113564668,NA,NA
45230,Hamilton County,OH,47.53623188405797,NA,NA,NA
45231,Hamilton County,OH,NA,NA,9.817671809256662,NA
45241,Hamilton County,OH,NA,NA,71.94950911640954,NA
45244,Hamilton County,OH,NA,NA,NA,48.85993485342019
45322,Montgomery County,OH,28.405797101449277,NA,NA,NA
45344,Clark County,OH,39.85507246376812,NA,60.72931276297335,NA
45356,Miami County,OH,3.1884057971014492,NA,NA,NA
45373,Miami County,OH,NA,NA,NA,48.20846905537459
45403,Montgomery County,OH,NA,NA,41.09396914446003,NA
45405,Montgomery County,OH,19.565217391304348,NA,NA,NA
45406,Montgomery County,OH,NA,NA,19.214586255259466,NA
45432,Greene County,OH,NA,NA,NA,85.01628664495115
45459,Montgomery County,OH,NA,63.40694006309149,NA,NA
45601,Ross County,OH,1.0144927536231882,NA,NA,NA
45612,Ross County,OH,NA,NA,83.87096774193549,83.06188925081433
45613,Pike County,OH,77.53623188405797,NA,NA,NA
45631,Gallia County,OH,NA,20.50473186119874,NA,NA
45638,Lawrence County,OH,NA,27.444794952681388,NA,NA
45640,Jackson County,OH,NA,NA,8.134642356241233,NA
45661,Pike County,OH,NA,NA,78.40112201963534,NA
45662,Scioto County,OH,NA,NA,4.067321178120617,4.234527687296417
45663,Scioto County,OH,NA,NA,NA,87.62214983713355
45764,Athens County,OH,76.23188405797102,NA,NA,NA
45804,Allen County,OH,22.89855072463768,NA,14.586255259467041,NA
45805,Allen County,OH,NA,37.85488958990536,16.97054698457223,NA
45840,Hancock County,OH,NA,NA,3.9270687237026647,NA
45845,Shelby County,OH,95.3623188405797,NA,NA,NA
45880,Paulding County,OH,98.40579710144928,NA,95.51192145862552,NA
45885,Auglaize County,OH,34.20289855072463,NA,NA,NA
73003,Oklahoma County,OK,62.02898550724638,NA,NA,NA
73034,Oklahoma County,OK,30.72463768115942,NA,NA,NA
73044,Logan County,OK,NA,58.99053627760252,NA,NA
73064,Canadian County,OK,61.73913043478261,NA,NA,NA
73072,Cleveland County,OK,39.565217391304344,NA,NA,NA
73075,Garvin County,OK,NA,NA,NA,78.82736156351791
73096,Custer County,OK,55.94202898550724,NA,NA,NA
73099,Canadian County,OK,NA,NA,17.391304347826086,NA
73108,Oklahoma County,OK,41.15942028985507,NA,NA,NA
73110,Oklahoma County,OK,25.94202898550725,NA,NA,NA
73160,Cleveland County,OK,NA,NA,NA,8.143322475570033
73538,Comanche County,OK,95.07246376811594,NA,NA,NA
73651,Kiowa County,OK,NA,98.73817034700315,NA,NA
73701,Garfield County,OK,54.05797101449276,NA,NA,NA
74006,Washington County,OK,39.42028985507247,NA,NA,NA
74017,Rogers County,OK,NA,71.29337539432177,NA,NA
74023,Payne County,OK,81.30434782608695,89.58990536277602,NA,NA
74063,Tulsa County,OK,67.53623188405797,NA,NA,NA
74126,Tulsa County,OK,62.31884057971014,NA,NA,NA
74133,Tulsa County,OK,35.94202898550725,NA,NA,NA
74146,Tulsa County,OK,61.15942028985507,NA,NA,NA
74432,McIntosh County,OK,92.6086956521739,NA,NA,NA
74601,Kay County,OK,53.768115942028984,NA,NA,NA
74701,Bryan County,OK,33.04347826086956,NA,NA,NA
74801,Pottawatomie County,OK,NA,NA,41.374474053295934,NA
74941,Haskell County,OK,NA,87.38170347003155,NA,NA
74948,Sequoyah County,OK,NA,NA,65.91865357643759,NA
74955,Sequoyah County,OK,NA,NA,61.57082748948106,NA
97007,Washington County,OR,17.681159420289855,NA,NA,NA
97008,Washington County,OR,74.4927536231884,NA,NA,NA
97019,Multnomah County,OR,97.10144927536231,NA,NA,NA
97086,Clackamas County,OR,NA,NA,55.96072931276297,NA
97116,Washington County,OR,NA,NA,53.015427769985976,NA
97140,Washington County,OR,NA,NA,59.04628330995793,NA
97202,Multnomah County,OR,NA,NA,32.117812061711085,NA
97206,Multnomah County,OR,NA,NA,47.26507713884993,NA
97233,Multnomah County,OR,NA,NA,20.05610098176718,NA
97236,Multnomah County,OR,NA,35.33123028391167,23.14165497896213,NA
97266,Multnomah County,OR,NA,NA,35.90462833099579,NA
97420,Coos County,OR,NA,NA,53.576437587657786,NA
97535,Jackson County,OR,NA,NA,NA,73.61563517915309
97624,Klamath County,OR,NA,NA,97.47545582047685,NA
97850,Union County,OR,NA,26.498422712933756,NA,NA
15062,Westmoreland County,PA,NA,NA,85.69424964936886,NA
15136,Allegheny County,PA,50.72463768115942,NA,NA,NA
15148,Allegheny County,PA,NA,NA,99.4389901823282,NA
15227,Allegheny County,PA,NA,NA,NA,61.563517915309454
15241,Allegheny County,PA,NA,NA,NA,67.75244299674267
15317,Washington County,PA,NA,49.8422712933754,NA,NA
15401,Fayette County,PA,41.449275362318836,NA,NA,NA
15461,Fayette County,PA,NA,72.55520504731862,NA,NA
15658,Westmoreland County,PA,NA,100,NA,NA
15834,Cameron County,PA,60.28985507246377,NA,NA,NA
15902,Cambria County,PA,NA,NA,87.09677419354838,NA
16146,Mercer County,PA,56.52173913043478,NA,NA,NA
16148,Mercer County,PA,NA,NA,51.332398316970554,NA
16505,Erie County,PA,NA,98.10725552050474,NA,NA
16508,Erie County,PA,42.7536231884058,NA,NA,NA
16509,Erie County,PA,70.72463768115942,NA,NA,NA
16651,Clearfield County,PA,NA,NA,93.12762973352034,NA
16735,McKean County,PA,76.66666666666667,NA,NA,NA
16823,Centre County,PA,NA,NA,NA,21.172638436482085
16830,Clearfield County,PA,42.028985507246375,NA,NA,NA
16833,Clearfield County,PA,NA,NA,73.77279102384293,NA
17022,Lancaster County,PA,35.94202898550725,NA,NA,NA
17042,Lebanon County,PA,NA,NA,6.03085553997195,NA
17046,Lebanon County,PA,NA,NA,58.345021037868165,NA
17050,Cumberland County,PA,30.144927536231886,NA,NA,NA
17331,York County,PA,5.6521739130434785,NA,NA,2.2801302931596092
17501,Lancaster County,PA,NA,NA,94.109396914446,NA
17522,Lancaster County,PA,6.666666666666667,NA,NA,NA
17543,Lancaster County,PA,NA,55.20504731861199,NA,15.309446254071663
17603,Lancaster County,PA,NA,11.67192429022082,NA,NA
17701,Lycoming County,PA,NA,NA,5.890603085553997,NA
17870,Snyder County,PA,NA,NA,51.89340813464236,NA
17954,Schuylkill County,PA,92.46376811594203,NA,NA,NA
17970,Schuylkill County,PA,NA,NA,96.63394109396914,NA
17976,Schuylkill County,PA,NA,NA,84.15147265077138,NA
18017,Northampton County,PA,NA,NA,7.293127629733521,NA
18018,Lehigh County,PA,NA,NA,27.20897615708275,NA
18064,Northampton County,PA,NA,NA,46.14305750350631,NA
18088,Northampton County,PA,NA,NA,89.90182328190744,NA
18102,Lehigh County,PA,NA,NA,1.6830294530154277,NA
18103,Lehigh County,PA,NA,NA,6.451612903225806,NA
18902,Bucks County,PA,85.21739130434783,NA,NA,NA
18942,Bucks County,PA,NA,NA,100,NA
18951,Bucks County,PA,NA,NA,22.861150070126225,NA
19012,Montgomery County,PA,NA,NA,96.07293127629734,NA
19013,Delaware County,PA,13.768115942028986,NA,NA,NA
19027,Montgomery County,PA,65.07246376811594,NA,NA,NA
19044,Montgomery County,PA,NA,NA,65.63814866760168,NA
19055,Bucks County,PA,73.04347826086956,NA,NA,NA
19064,Delaware County,PA,NA,NA,72.79102384291724,NA
19067,Bucks County,PA,NA,NA,NA,39.413680781758956
19073,Delaware County,PA,NA,NA,90.74333800841514,NA
19082,Delaware County,PA,NA,NA,NA,30.944625407166125
19111,Philadelphia County,PA,NA,NA,5.189340813464235,NA
19120,Philadelphia County,PA,4.782608695652174,NA,4.3478260869565215,NA
19124,Philadelphia County,PA,NA,6.309148264984227,1.8232819074333801,NA
19136,Philadelphia County,PA,59.42028985507246,NA,NA,NA
19143,Philadelphia County,PA,NA,NA,1.5427769985974753,NA
19146,Philadelphia County,PA,NA,NA,20.196353436185134,28.338762214983714
19149,Philadelphia County,PA,NA,22.397476340694006,9.396914446002805,NA
19446,Montgomery County,PA,9.710144927536232,NA,NA,NA
19454,Montgomery County,PA,NA,NA,75.5960729312763,NA
19551,Berks County,PA,88.84057971014492,NA,NA,NA
19601,Berks County,PA,NA,10.094637223974763,4.628330995792426,NA
19604,Berks County,PA,12.028985507246377,NA,NA,NA
02860,Providence County,RI,NA,NA,8.976157082748948,NA
02871,Newport County,RI,82.02898550724638,NA,NA,NA
02886,Kent County,RI,NA,NA,36.044880785413746,NA
29073,Lexington County,SC,NA,NA,26.507713884992988,NA
29307,Spartanburg County,SC,NA,NA,64.23562412342217,NA
29360,Laurens County,SC,16.231884057971012,NA,NA,NA
29379,Union County,SC,NA,NA,36.886395511921464,NA
29410,Berkeley County,SC,NA,72.55520504731862,NA,NA
29414,Charleston County,SC,NA,NA,36.7461430575035,NA
29440,Georgetown County,SC,NA,58.67507886435332,NA,NA
29445,Berkeley County,SC,12.608695652173912,NA,NA,NA
29466,Charleston County,SC,14.637681159420291,NA,NA,NA
29483,Dorchester County,SC,6.521739130434782,NA,NA,NA
29506,Florence County,SC,NA,NA,48.66760168302945,NA
29588,Horry County,SC,NA,35.96214511041009,NA,NA
29645,Laurens County,SC,NA,NA,90.18232819074333,NA
29681,Greenville County,SC,35.65217391304348,NA,NA,NA
29690,Greenville County,SC,NA,85.8044164037855,NA,NA
29693,Oconee County,SC,52.89855072463768,NA,NA,NA
29706,Chester County,SC,NA,NA,37.86816269284712,NA
29732,York County,SC,NA,NA,NA,28.664495114006517
29801,Aiken County,SC,NA,73.50157728706624,NA,NA
57005,Minnehaha County,SD,64.4927536231884,NA,NA,NA
57006,Brookings County,SD,NA,NA,66.4796633941094,NA
57032,Lincoln County,SD,NA,NA,96.63394109396914,NA
57049,Union County,SD,NA,NA,95.93267882187938,NA
57103,Minnehaha County,SD,NA,NA,NA,28.990228013029316
37015,Cheatham County,TN,NA,NA,63.394109396914445,NA
37025,Hickman County,TN,NA,NA,86.81626928471248,NA
37027,Williamson County,TN,NA,NA,NA,27.035830618892508
37029,Dickson County,TN,98.69565217391305,NA,NA,NA
37034,Marshall County,TN,NA,91.7981072555205,NA,NA
37040,Montgomery County,TN,32.608695652173914,NA,NA,NA
37043,Montgomery County,TN,45.072463768115945,75.70977917981072,NA,NA
37066,Sumner County,TN,NA,NA,12.0617110799439,NA
37073,Robertson County,TN,NA,NA,88.07854137447406,NA
37075,Sumner County,TN,NA,52.6813880126183,NA,NA
37086,Rutherford County,TN,NA,41.00946372239748,NA,NA
37098,Hickman County,TN,NA,NA,81.62692847124825,NA
37115,Davidson County,TN,NA,34.06940063091483,NA,NA
37167,Rutherford County,TN,NA,NA,31.276297335203367,NA
37172,Robertson County,TN,NA,NA,19.635343618513325,NA
37174,Williamson County,TN,NA,NA,52.17391304347826,NA
37209,Davidson County,TN,42.608695652173914,NA,NA,NA
37215,Davidson County,TN,89.56521739130436,NA,NA,NA
37218,Davidson County,TN,11.594202898550725,NA,NA,NA
37303,McMinn County,TN,68.98550724637681,NA,26.64796633941094,NA
37327,Sequatchie County,TN,NA,NA,46.84431977559607,NA
37341,Hamilton County,TN,NA,91.16719242902208,82.0476858345021,NA
37343,Hamilton County,TN,NA,NA,26.928471248246844,NA
37357,Warren County,TN,NA,NA,91.30434782608695,NA
37377,Hamilton County,TN,67.82608695652173,NA,NA,NA
37379,Hamilton County,TN,37.10144927536232,NA,NA,NA
37381,Rhea County,TN,NA,NA,NA,69.70684039087948
37387,Grundy County,TN,88.26086956521739,NA,NA,NA
37410,Hamilton County,TN,93.18840579710145,NA,NA,NA
37411,Hamilton County,TN,NA,NA,NA,65.79804560260585
37615,Washington County,TN,NA,NA,62.13183730715287,NA
37617,Sullivan County,TN,NA,NA,74.75455820476859,NA
37620,Sullivan County,TN,28.115942028985508,NA,16.129032258064516,NA
37643,Carter County,TN,23.6231884057971,NA,NA,NA
37650,Unicoi County,TN,NA,NA,63.8148667601683,NA
37660,Sullivan County,TN,NA,NA,NA,13.029315960912053
37755,Scott County,TN,NA,98.73817034700315,NA,NA
37769,Anderson County,TN,NA,83.91167192429022,NA,NA
37849,Knox County,TN,NA,NA,44.460028050490884,NA
37874,Monroe County,TN,NA,NA,44.74053295932679,NA
37879,Claiborne County,TN,NA,NA,55.39971949509116,NA
37920,Knox County,TN,NA,NA,14.165497896213184,NA
37921,Knox County,TN,15.65217391304348,NA,NA,NA
37934,Knox County,TN,NA,NA,NA,45.27687296416938
38002,Shelby County,TN,48.84057971014493,NA,NA,NA
38024,Dyer County,TN,10.72463768115942,NA,28.050490883590463,NA
38106,Shelby County,TN,NA,NA,20.476858345021036,NA
38107,Shelby County,TN,NA,NA,46.984572230014024,NA
38127,Shelby County,TN,NA,NA,10.93969144460028,NA
38128,Shelby County,TN,NA,NA,55.259467040673215,NA
38133,Shelby County,TN,NA,56.46687697160884,NA,NA
38141,Shelby County,TN,45.36231884057971,NA,NA,NA
38201,Carroll County,TN,NA,NA,80.36465638148668,NA
38301,Madison County,TN,1.5942028985507246,NA,NA,NA
38401,Maury County,TN,NA,NA,8.55539971949509,NA
38571,Cumberland County,TN,64.4927536231884,NA,NA,NA
38572,Cumberland County,TN,NA,92.74447949526814,NA,NA
38583,White County,TN,28.550724637681157,NA,NA,NA
75002,Collin County,TX,NA,NA,25.94670406732118,NA
75006,Dallas County,TX,NA,NA,50.07012622720898,NA
75013,Collin County,TX,26.666666666666668,NA,NA,NA
75019,Dallas County,TX,52.46376811594203,NA,NA,NA
75020,Grayson County,TX,55.65217391304348,NA,NA,NA
75048,Dallas County,TX,38.69565217391304,NA,NA,NA
75068,Denton County,TX,36.52173913043478,NA,NA,NA
75070,Collin County,TX,10.579710144927535,NA,NA,NA
75110,Navarro County,TX,31.01449275362319,NA,NA,NA
75119,Ellis County,TX,NA,NA,57.082748948106584,NA
75126,Kaufman County,TX,NA,NA,35.483870967741936,NA
75149,Dallas County,TX,3.6231884057971016,NA,NA,NA
75181,Dallas County,TX,NA,NA,56.661991584852736,NA
75205,Dallas County,TX,NA,NA,68.02244039270687,NA
75209,Dallas County,TX,NA,NA,NA,71.00977198697068
75211,Dallas County,TX,NA,NA,22.58064516129032,NA
75215,Dallas County,TX,21.73913043478261,NA,NA,NA
75216,Dallas County,TX,NA,13.880126182965299,NA,NA
75224,Dallas County,TX,35.21739130434783,NA,78.12061711079944,NA
75228,Dallas County,TX,7.246376811594203,NA,NA,NA
75230,Dallas County,TX,48.84057971014493,NA,NA,NA
75231,Dallas County,TX,13.623188405797102,NA,NA,NA
75252,Collin County,TX,78.69565217391305,NA,NA,NA
75287,Denton County,TX,NA,NA,NA,54.72312703583062
75440,Rains County,TX,NA,NA,91.72510518934082,NA
75474,Hunt County,TX,NA,NA,64.79663394109397,NA
75495,Grayson County,TX,NA,NA,92.98737727910238,NA
75605,Gregg County,TX,70.57971014492753,NA,NA,NA
75650,Harrison County,TX,76.95652173913044,NA,NA,NA
75657,Marion County,TX,87.97101449275362,NA,NA,NA
75670,Harrison County,TX,NA,NA,NA,90.22801302931596
75684,Rusk County,TX,NA,77.60252365930599,NA,NA
75703,Smith County,TX,NA,82.01892744479495,NA,NA
75706,Smith County,TX,NA,NA,NA,71.9869706840391
75707,Smith County,TX,NA,NA,NA,56.35179153094463
75762,Smith County,TX,NA,NA,77.41935483870968,NA
75765,Wood County,TX,NA,NA,99.57924263674614,NA
75766,Cherokee County,TX,NA,NA,NA,11.726384364820847
76014,Tarrant County,TX,24.057971014492754,NA,NA,NA
76018,Tarrant County,TX,NA,NA,NA,66.77524429967427
76028,Johnson County,TX,NA,NA,13.744740532959327,NA
76053,Tarrant County,TX,NA,NA,45.5820476858345,NA
76088,Parker County,TX,83.6231884057971,NA,NA,NA
76104,Tarrant County,TX,NA,NA,25.52594670406732,NA
76106,Tarrant County,TX,NA,45.110410094637224,NA,NA
76182,Tarrant County,TX,NA,NA,NA,36.807817589576544
76210,Denton County,TX,43.333333333333336,NA,NA,NA
76227,Denton County,TX,49.275362318840585,NA,NA,NA
76244,Tarrant County,TX,8.26086956521739,NA,NA,NA
76262,Denton County,TX,73.62318840579711,NA,NA,NA
76306,Wichita County,TX,NA,NA,66.90042075736325,NA
76308,Wichita County,TX,77.2463768115942,NA,NA,NA
76501,Bell County,TX,NA,47.3186119873817,NA,9.77198697068404
76513,Bell County,TX,5.942028985507246,NA,NA,NA
76541,Bell County,TX,NA,NA,NA,47.55700325732899
76543,Bell County,TX,NA,91.48264984227129,NA,NA
77005,Harris County,TX,60.43478260869565,NA,NA,NA
77009,Harris County,TX,NA,NA,NA,40.71661237785016
77015,Harris County,TX,NA,NA,85.273492286115,NA
77023,Harris County,TX,NA,83.91167192429022,NA,NA
77026,Harris County,TX,18.26086956521739,NA,NA,NA
77033,Harris County,TX,NA,41.95583596214511,NA,NA
77034,Harris County,TX,NA,NA,60.72931276297335,NA
77037,Harris County,TX,NA,67.82334384858044,NA,NA
77055,Harris County,TX,52.7536231884058,NA,NA,NA
77060,Harris County,TX,NA,39.43217665615142,NA,NA
77064,Harris County,TX,NA,NA,40.67321178120617,NA
77077,Harris County,TX,44.34782608695652,NA,NA,NA
77086,Harris County,TX,23.768115942028984,NA,NA,NA
77373,Harris County,TX,NA,NA,33.520336605890606,NA
77414,Matagorda County,TX,NA,NA,48.94810659186536,NA
77488,Wharton County,TX,NA,NA,69.4249649368864,NA
77493,Harris County,TX,NA,62.14511041009464,NA,NA
77494,Fort Bend County,TX,6.956521739130435,NA,NA,NA
77504,Harris County,TX,NA,NA,89.34081346423562,NA
77511,Brazoria County,TX,NA,NA,19.49509116409537,NA
77517,Galveston County,TX,NA,NA,88.49929873772791,NA
77530,Harris County,TX,NA,34.38485804416404,59.32678821879382,NA
77550,Galveston County,TX,NA,17.665615141955836,NA,NA
77571,Harris County,TX,NA,49.52681388012618,NA,NA
77578,Brazoria County,TX,76.66666666666667,NA,NA,NA
77581,Brazoria County,TX,32.17391304347826,NA,34.50210378681627,NA
77584,Brazoria County,TX,16.666666666666664,NA,NA,NA
77598,Harris County,TX,48.55072463768116,NA,NA,NA
77642,Jefferson County,TX,13.333333333333334,NA,NA,NA
77651,Jefferson County,TX,89.27536231884058,NA,NA,NA
77656,Hardin County,TX,76.08695652173914,NA,NA,NA
77803,Brazos County,TX,NA,NA,30.855539971949508,NA
77845,Brazos County,TX,8.985507246376812,NA,NA,NA
77868,Grimes County,TX,51.30434782608696,NA,NA,NA
77904,Victoria County,TX,38.26086956521739,NA,NA,NA
78006,Kendall County,TX,NA,NA,84.9929873772791,NA
78028,Kerr County,TX,50.72463768115942,NA,NA,NA
78043,Webb County,TX,7.101449275362319,NA,NA,NA
78045,Webb County,TX,9.565217391304348,NA,NA,NA
78065,Atascosa County,TX,82.31884057971014,NA,NA,NA
78109,Bexar County,TX,27.536231884057973,NA,NA,NA
78155,Guadalupe County,TX,10.869565217391305,NA,NA,NA
78160,Wilson County,TX,93.47826086956522,NA,NA,NA
78207,Bexar County,TX,NA,7.570977917981073,NA,NA
78209,Bexar County,TX,NA,NA,66.33941093969145,NA
78212,Bexar County,TX,NA,NA,59.74754558204769,NA
78216,Bexar County,TX,NA,NA,47.68583450210379,NA
78218,Bexar County,TX,NA,NA,NA,97.71986970684038
78230,Bexar County,TX,72.7536231884058,NA,NA,NA
78238,Bexar County,TX,43.47826086956522,NA,NA,NA
78240,Bexar County,TX,20.869565217391305,NA,NA,NA
78252,Bexar County,TX,91.73913043478261,NA,NA,NA
78254,Bexar County,TX,NA,NA,49.36886395511921,NA
78408,Nueces County,TX,NA,NA,86.67601683029453,NA
78410,Nueces County,TX,NA,47.94952681388013,NA,NA
78414,Nueces County,TX,NA,NA,63.67461430575035,NA
78416,Nueces County,TX,NA,53.94321766561514,NA,NA
78503,Hidalgo County,TX,NA,NA,NA,83.38762214983714
78526,Cameron County,TX,NA,4.416403785488959,NA,NA
78550,Cameron County,TX,NA,16.40378548895899,NA,NA
78589,Hidalgo County,TX,NA,NA,44.31977559607293,NA
78616,Caldwell County,TX,87.68115942028986,NA,NA,NA
78628,Williamson County,TX,51.01449275362319,NA,NA,NA
78633,Williamson County,TX,NA,NA,89.48106591865358,1.6286644951140066
78641,Williamson County,TX,33.6231884057971,NA,NA,NA
78664,Williamson County,TX,70.72463768115942,NA,NA,NA
78702,Travis County,TX,NA,NA,78.5413744740533,NA
78723,Travis County,TX,42.31884057971014,NA,NA,NA
78731,Travis County,TX,NA,NA,92.70687237026648,NA
78744,Travis County,TX,NA,37.85488958990536,NA,NA
78753,Travis County,TX,25.072463768115945,NA,NA,NA
78754,Travis County,TX,84.92753623188406,NA,NA,NA
78840,Val Verde County,TX,NA,NA,33.66058906030855,NA
78947,Lee County,TX,96.37681159420289,NA,NA,NA
79107,Potter County,TX,14.347826086956522,NA,38.14866760168303,NA
79118,Randall County,TX,58.115942028985515,NA,NA,NA
79316,Terry County,TX,71.59420289855073,NA,NA,NA
79415,Lubbock County,TX,NA,NA,NA,71.66123778501628
79423,Lubbock County,TX,NA,NA,34.081346423562415,NA
79512,Mitchell County,TX,NA,NA,85.83450210378682,NA
79705,Midland County,TX,20.724637681159418,87.06624605678233,NA,NA
79706,Midland County,TX,24.782608695652176,NA,NA,NA
79720,Howard County,TX,54.05797101449276,NA,NA,NA
79745,Winkler County,TX,85.5072463768116,NA,NA,NA
79756,Ward County,TX,69.27536231884058,NA,NA,NA
79761,Ector County,TX,31.88405797101449,NA,NA,NA
79762,Ector County,TX,15.797101449275363,NA,32.959326788218796,NA
84009,Salt Lake County,UT,49.56521739130435,NA,NA,NA
84015,Davis County,UT,18.985507246376812,NA,NA,NA
84020,Salt Lake County,UT,33.04347826086956,NA,NA,NA
84066,Duchesne County,UT,71.15942028985506,NA,NA,NA
84074,Tooele County,UT,NA,NA,5.46984572230014,NA
84084,Salt Lake County,UT,NA,NA,76.71809256661992,NA
84096,Salt Lake County,UT,8.550724637681158,NA,NA,NA
84115,Salt Lake County,UT,NA,NA,42.215988779803645,NA
84118,Salt Lake County,UT,22.318840579710145,NA,NA,NA
84119,Salt Lake County,UT,NA,NA,15.848527349228611,NA
84321,Cache County,UT,17.391304347826086,NA,NA,NA
84401,Weber County,UT,NA,NA,NA,56.02605863192183
84414,Weber County,UT,66.95652173913044,NA,NA,NA
84720,Iron County,UT,NA,NA,NA,91.53094462540716
05403,Chittenden County,VT,NA,NA,NA,52.11726384364821
05495,Chittenden County,VT,76.37681159420289,NA,NA,NA
05701,Rutland County,VT,NA,NA,42.215988779803645,NA
20109,Prince William County,VA,6.811594202898551,NA,NA,NA
20120,Fairfax County,VA,NA,NA,98.03646563814866,NA
20141,Loudoun County,VA,90.43478260869566,NA,NA,NA
20164,Loudoun County,VA,36.231884057971016,NA,NA,NA
22015,Fairfax County,VA,NA,NA,NA,49.5114006514658
22025,Prince William County,VA,NA,NA,90.04207573632539,NA
22124,Fairfax County,VA,84.05797101449275,NA,NA,NA
22150,Fairfax County,VA,13.768115942028986,NA,55.96072931276297,NA
22193,Prince William County,VA,NA,NA,17.251051893408135,NA
22206,Arlington County,VA,NA,NA,60.589060308555396,NA
22207,Arlington County,VA,NA,NA,NA,45.928338762214985
22308,Fairfax County,VA,NA,NA,NA,82.41042345276874
22603,Frederick County,VA,NA,NA,NA,72.9641693811075
22620,Clarke County,VA,98.69565217391305,NA,NA,NA
22630,Warren County,VA,NA,98.42271293375394,NA,NA
22701,Culpeper County,VA,NA,NA,30.15427769985975,NA
22712,Fauquier County,VA,81.73913043478261,NA,NA,NA
22835,Page County,VA,73.76811594202898,NA,NA,NA
22942,Louisa County,VA,NA,80.4416403785489,NA,NA
22960,Orange County,VA,NA,NA,68.16269284712483,NA
22980,Waynesboro city,VA,7.681159420289855,NA,10.37868162692847,NA
23060,Henrico County,VA,46.52173913043478,NA,NA,NA
23112,Chesterfield County,VA,NA,53.94321766561514,NA,NA
23116,Hanover County,VA,NA,NA,NA,58.306188925081436
23188,James City County,VA,NA,NA,NA,24.7557003257329
23192,Hanover County,VA,82.6086956521739,NA,NA,NA
23224,Richmond city,VA,NA,NA,13.32398316970547,NA
23225,Richmond city,VA,NA,NA,17.952314165497896,NA
23226,Richmond city,VA,NA,NA,92.84712482468443,NA
23228,Henrico County,VA,NA,NA,NA,84.69055374592834
23236,Chesterfield County,VA,NA,NA,63.11360448807854,NA
23454,Virginia Beach city,VA,NA,NA,33.94109396914446,15.960912052117262
23462,Virginia Beach city,VA,16.52173913043478,NA,NA,NA
23606,Newport News city,VA,NA,NA,80.50490883590463,NA
23669,Hampton city,VA,NA,NA,74.33380084151473,NA
23805,Petersburg city,VA,62.7536231884058,NA,NA,NA
23832,Chesterfield County,VA,NA,NA,NA,52.76872964169381
23847,Greensville County,VA,NA,NA,73.492286115007,NA
23927,Mecklenburg County,VA,92.17391304347827,NA,NA,NA
24054,Henry County,VA,90.57971014492753,NA,NA,NA
24101,Franklin County,VA,89.56521739130436,NA,NA,NA
24148,Henry County,VA,NA,NA,86.39551192145862,NA
24171,Patrick County,VA,NA,NA,76.1570827489481,NA
24219,Wise County,VA,NA,NA,45.02103786816269,NA
24401,Staunton city,VA,37.10144927536232,NA,NA,NA
24426,Alleghany County,VA,NA,NA,50.63113604488079,NA
24502,Lynchburg city,VA,68.69565217391305,NA,NA,NA
24540,Danville city,VA,NA,NA,NA,31.596091205211724
24630,Tazewell County,VA,NA,NA,77.27910238429172,NA
98020,Snohomish County,WA,78.55072463768116,NA,NA,NA
98026,Snohomish County,WA,NA,NA,38.70967741935484,NA
98033,King County,WA,NA,NA,NA,34.527687296416936
98042,King County,WA,NA,NA,20.897615708274895,NA
98043,Snohomish County,WA,NA,NA,75.45582047685835,NA
98053,King County,WA,80.57971014492755,NA,NA,NA
98108,King County,WA,NA,75.70977917981072,NA,NA
98136,King County,WA,97.3913043478261,NA,NA,NA
98168,King County,WA,NA,NA,NA,91.85667752442997
98188,King County,WA,85.5072463768116,NA,NA,NA
98204,Snohomish County,WA,21.014492753623188,NA,NA,NA
98223,Snohomish County,WA,17.391304347826086,NA,NA,NA
98226,Whatcom County,WA,80.28985507246377,NA,NA,NA
98273,Skagit County,WA,NA,NA,32.81907433380084,NA
98290,Snohomish County,WA,NA,87.38170347003155,NA,NA
98335,Pierce County,WA,NA,NA,NA,37.13355048859935
98383,Kitsap County,WA,81.30434782608695,NA,NA,NA
98391,Pierce County,WA,NA,NA,NA,17.58957654723127
98466,Pierce County,WA,NA,NA,63.5343618513324,NA
98528,Mason County,WA,NA,NA,93.96914446002805,NA
98563,Grays Harbor County,WA,NA,NA,NA,93.81107491856677
98577,Pacific County,WA,NA,NA,NA,80.45602605863192
98948,Yakima County,WA,83.91304347826087,NA,NA,NA
98953,Yakima County,WA,NA,NA,97.61570827489481,NA
99205,Spokane County,WA,NA,79.81072555205047,NA,NA
99216,Spokane County,WA,NA,NA,67.04067321178121,NA
99301,Franklin County,WA,NA,NA,NA,10.423452768729643
99320,Benton County,WA,NA,71.92429022082018,NA,NA
99337,Benton County,WA,NA,33.753943217665615,NA,NA
99362,Walla Walla County,WA,NA,NA,62.41234221598878,NA
20001,District of Columbia,DC,NA,NA,NA,20.521172638436482
20007,District of Columbia,DC,NA,NA,80.64516129032258,NA
20011,District of Columbia,DC,18.115942028985508,NA,NA,NA
24901,Greenbrier County,WV,NA,90.53627760252367,NA,NA
25045,Kanawha County,WV,NA,91.7981072555205,NA,NA
25143,Kanawha County,WV,66.08695652173913,NA,NA,NA
25177,Kanawha County,WV,NA,NA,16.40953716690042,NA
25312,Kanawha County,WV,NA,75.70977917981072,NA,NA
25404,Berkeley County,WV,NA,NA,43.899018232819074,NA
25414,Jefferson County,WV,NA,NA,64.65638148667601,NA
97003,NA,NA,NA,63.40694006309149,NA,NA
25701,Cabell County,WV,61.01449275362319,NA,19.91584852734923,NA
25705,Cabell County,WV,NA,92.42902208201893,NA,NA
26003,Ohio County,WV,15.36231884057971,NA,NA,NA
26241,Randolph County,WV,37.53623188405797,NA,NA,NA
26416,Barbour County,WV,NA,NA,95.23141654978961,NA
26505,Monongalia County,WV,NA,NA,11.360448807854137,NA
26537,Preston County,WV,NA,82.01892744479495,NA,NA
53005,Waukesha County,WI,57.971014492753625,NA,NA,NA
53024,Ozaukee County,WI,NA,NA,87.6577840112202,NA
53073,Sheboygan County,WI,79.27536231884058,NA,NA,NA
53080,Ozaukee County,WI,97.53623188405797,NA,NA,NA
53105,Racine County,WI,41.01449275362319,NA,NA,NA
53121,Walworth County,WI,NA,68.13880126182966,NA,NA
53142,Kenosha County,WI,32.463768115942024,57.413249211356465,11.640953716690042,NA
53149,Waukesha County,WI,58.405797101449274,NA,NA,NA
53181,Kenosha County,WI,76.52173913043478,NA,NA,NA
53185,Racine County,WI,49.56521739130435,NA,NA,NA
53190,Walworth County,WI,91.88405797101449,NA,NA,NA
53204,Milwaukee County,WI,38.550724637681164,NA,NA,NA
53207,Milwaukee County,WI,NA,NA,30.715287517531557,NA
53208,Milwaukee County,WI,NA,NA,13.744740532959327,NA
53209,Milwaukee County,WI,13.478260869565217,NA,NA,NA
53212,Milwaukee County,WI,50,NA,NA,NA
53213,Milwaukee County,WI,92.02898550724638,NA,NA,NA
53214,Milwaukee County,WI,NA,50.78864353312302,NA,NA
53215,Milwaukee County,WI,NA,19.242902208201894,NA,NA
53217,Milwaukee County,WI,25.217391304347824,NA,39.691444600280505,NA
53220,Milwaukee County,WI,NA,77.60252365930599,NA,NA
53224,Milwaukee County,WI,17.101449275362317,NA,NA,NA
53225,Milwaukee County,WI,8.405797101449275,NA,NA,NA
53545,Rock County,WI,NA,NA,39.83169705469846,NA
53546,Rock County,WI,NA,NA,21.31837307152875,6.840390879478828
53566,Green County,WI,NA,NA,54.27769985974754,NA
53593,Dane County,WI,44.63768115942029,NA,NA,NA
53704,Dane County,WI,NA,NA,NA,21.824104234527688
53711,Dane County,WI,NA,NA,NA,73.28990228013029
53718,Dane County,WI,NA,NA,NA,89.57654723127035
53719,Dane County,WI,NA,NA,NA,43.648208469055376
53913,Sauk County,WI,49.275362318840585,NA,NA,NA
53959,Sauk County,WI,50.14492753623189,NA,NA,NA
53963,Dodge County,WI,74.63768115942028,NA,NA,NA
54016,St. Croix County,WI,33.47826086956522,NA,NA,NA
54020,Polk County,WI,NA,93.37539432176656,NA,NA
54115,Brown County,WI,NA,NA,50.210378681626935,NA
54220,Manitowoc County,WI,NA,NA,NA,3.908794788273615
54481,Portage County,WI,32.7536231884058,NA,23.422159887798035,NA
54601,La Crosse County,WI,47.2463768115942,NA,NA,16.612377850162865
54650,La Crosse County,WI,NA,NA,56.24123422159888,NA
54724,Chippewa County,WI,81.73913043478261,NA,NA,NA
54729,Chippewa County,WI,27.536231884057973,NA,NA,NA
54880,Douglas County,WI,NA,55.20504731861199,NA,6.188925081433225
54891,Bayfield County,WI,NA,NA,97.3352033660589,NA
54963,Winnebago County,WI,91.59420289855072,NA,NA,NA
