ZipCode,county,state,Youth,Pediatric,Adult
35004,St. Clair County,AL,NA,NA,85.88235294117646
35010,Tallapoosa County,AL,54.23497267759563,NA,NA
35020,Jefferson County,AL,12.841530054644808,NA,NA
35023,Jefferson County,AL,31.010928961748636,NA,NA
35045,Chilton County,AL,63.934426229508205,NA,NA
35057,Cullman County,AL,NA,NA,81.17647058823529
35064,Jefferson County,AL,69.94535519125684,NA,NA
35072,Coosa County,AL,NA,82.67148014440433,NA
35085,Chilton County,AL,84.2896174863388,NA,NA
35173,Jefferson County,AL,52.732240437158474,NA,NA
35453,Tuscaloosa County,AL,17.759562841530055,NA,NA
35630,Lauderdale County,AL,NA,48.73646209386281,NA
35634,Lauderdale County,AL,90.1639344262295,NA,NA
35901,Etowah County,AL,NA,NA,73.41176470588235
35954,Etowah County,AL,85.65573770491804,NA,NA
36054,Elmore County,AL,NA,77.25631768953069,NA
36066,Autauga County,AL,NA,NA,84.70588235294117
36108,Montgomery County,AL,57.513661202185794,NA,49.1764705882353
36340,Geneva County,AL,91.93989071038251,NA,NA
36445,Monroe County,AL,NA,98.19494584837545,NA
36526,Baldwin County,AL,37.56830601092896,NA,NA
36607,Mobile County,AL,NA,89.16967509025271,NA
36701,Dallas County,AL,NA,60.64981949458483,NA
36866,Macon County,AL,NA,94.94584837545126,NA
36869,Russell County,AL,NA,67.14801444043322,NA
99504,Anchorage Municipality,AK,NA,27.79783393501805,NA
99901,Ketchikan Gateway Borough,AK,65.1639344262295,NA,NA
85007,Maricopa County,AZ,NA,NA,16.235294117647058
85008,Maricopa County,AZ,NA,8.303249097472925,NA
85009,Maricopa County,AZ,NA,NA,19.058823529411764
85022,Maricopa County,AZ,NA,43.682310469314075,NA
85027,Maricopa County,AZ,25.81967213114754,NA,NA
85028,Maricopa County,AZ,82.78688524590164,NA,NA
85032,Maricopa County,AZ,58.879781420765035,NA,NA
85037,Maricopa County,AZ,7.650273224043716,NA,NA
85048,Maricopa County,AZ,28.825136612021858,NA,NA
85086,Maricopa County,AZ,NA,NA,48
85122,Pinal County,AZ,25.40983606557377,NA,NA
85128,Pinal County,AZ,64.75409836065575,NA,NA
85132,Pinal County,AZ,NA,NA,45.88235294117647
85140,Pinal County,AZ,78.00546448087432,NA,NA
85201,Maricopa County,AZ,NA,27.79783393501805,NA
85205,Maricopa County,AZ,32.37704918032787,NA,NA
85208,Maricopa County,AZ,NA,NA,52.23529411764706
85213,Maricopa County,AZ,72.1311475409836,NA,NA
85224,Maricopa County,AZ,68.44262295081968,NA,NA
85225,Maricopa County,AZ,NA,13.718411552346572,NA
85249,Maricopa County,AZ,27.595628415300546,NA,NA
85260,Maricopa County,AZ,73.77049180327869,NA,NA
85302,Maricopa County,AZ,40.43715846994536,NA,NA
85305,Maricopa County,AZ,88.52459016393442,NA,NA
85310,Maricopa County,AZ,NA,NA,82.35294117647058
85335,Maricopa County,AZ,80.60109289617486,NA,NA
85338,Maricopa County,AZ,71.31147540983606,NA,NA
85381,Maricopa County,AZ,74.04371584699454,NA,NA
85382,Maricopa County,AZ,85.10928961748634,NA,NA
85383,Maricopa County,AZ,23.770491803278688,NA,NA
85387,Maricopa County,AZ,93.16939890710383,NA,NA
85388,Maricopa County,AZ,NA,67.87003610108303,NA
85546,Graham County,AZ,86.6120218579235,NA,NA
85711,Pima County,AZ,NA,29.96389891696751,NA
85712,Pima County,AZ,46.85792349726776,NA,NA
85715,Pima County,AZ,74.4535519125683,NA,NA
85718,Pima County,AZ,NA,NA,86.3529411764706
85719,Pima County,AZ,73.224043715847,NA,NA
85730,Pima County,AZ,NA,53.42960288808665,NA
85746,Pima County,AZ,19.94535519125683,NA,NA
85750,Pima County,AZ,86.74863387978142,NA,NA
85757,Pima County,AZ,NA,24.548736462093864,NA
85937,Navajo County,AZ,83.87978142076503,NA,NA
86005,Coconino County,AZ,42.89617486338798,NA,NA
86324,Yavapai County,AZ,NA,NA,95.29411764705881
72401,Craighead County,AR,19.808743169398905,NA,NA
72712,Benton County,AR,44.26229508196721,NA,NA
90002,Los Angeles County,CA,NA,29.24187725631769,NA
90003,Los Angeles County,CA,40.43715846994536,NA,NA
90015,Los Angeles County,CA,NA,83.75451263537906,86.11764705882354
90019,Los Angeles County,CA,NA,NA,48.470588235294116
90020,Los Angeles County,CA,75.13661202185791,NA,NA
90026,Los Angeles County,CA,87.8415300546448,NA,NA
90028,Los Angeles County,CA,NA,NA,70.11764705882354
90032,Los Angeles County,CA,NA,NA,55.529411764705884
90034,Los Angeles County,CA,NA,69.67509025270758,NA
90046,Los Angeles County,CA,NA,NA,58.35294117647059
90057,Los Angeles County,CA,NA,48.73646209386281,NA
90066,Los Angeles County,CA,59.15300546448088,NA,NA
90068,Los Angeles County,CA,NA,96.75090252707581,NA
90220,Los Angeles County,CA,NA,NA,40.23529411764706
90221,Los Angeles County,CA,NA,24.548736462093864,NA
90222,Los Angeles County,CA,66.2568306010929,NA,NA
90245,Los Angeles County,CA,78.55191256830601,NA,NA
90250,Los Angeles County,CA,18.169398907103826,NA,NA
90262,Los Angeles County,CA,59.83606557377049,NA,NA
90266,Los Angeles County,CA,NA,NA,88
90270,Los Angeles County,CA,NA,NA,88.70588235294117
90278,Los Angeles County,CA,68.5792349726776,NA,NA
90280,Los Angeles County,CA,NA,24.187725631768952,NA
90293,Los Angeles County,CA,96.03825136612022,NA,NA
90604,Los Angeles County,CA,73.63387978142076,NA,NA
90703,Los Angeles County,CA,NA,NA,68
90712,Los Angeles County,CA,NA,NA,66.82352941176471
90805,Los Angeles County,CA,NA,10.469314079422382,NA
90813,Los Angeles County,CA,NA,37.90613718411552,NA
91010,Los Angeles County,CA,89.34426229508196,NA,NA
91016,Los Angeles County,CA,NA,41.87725631768953,NA
91104,Los Angeles County,CA,84.15300546448088,NA,51.52941176470588
91355,Los Angeles County,CA,69.12568306010928,NA,NA
91390,Los Angeles County,CA,75.95628415300546,NA,NA
91505,Los Angeles County,CA,83.60655737704919,NA,NA
91706,Los Angeles County,CA,NA,20.577617328519857,NA
91710,San Bernardino County,CA,NA,NA,44.70588235294118
91722,Los Angeles County,CA,NA,85.92057761732852,NA
91724,Los Angeles County,CA,64.34426229508196,NA,NA
91739,San Bernardino County,CA,72.40437158469946,NA,68.70588235294117
91762,San Bernardino County,CA,NA,37.545126353790614,NA
91764,San Bernardino County,CA,77.45901639344262,32.49097472924188,NA
91766,Los Angeles County,CA,NA,NA,48.23529411764706
91767,Los Angeles County,CA,NA,38.26714801444043,NA
91768,Los Angeles County,CA,NA,NA,50.8235294117647
92028,San Diego County,CA,NA,57.03971119133574,NA
92029,San Diego County,CA,NA,96.75090252707581,NA
92040,San Diego County,CA,50.68306010928961,NA,NA
92054,San Diego County,CA,53.00546448087432,NA,NA
92056,San Diego County,CA,46.44808743169399,NA,NA
92057,San Diego County,CA,56.01092896174863,41.51624548736462,NA
92082,San Diego County,CA,76.22950819672131,NA,92.94117647058823
92101,San Diego County,CA,NA,NA,20.235294117647058
92108,San Diego County,CA,95.21857923497268,NA,NA
92131,San Diego County,CA,42.349726775956285,NA,NA
92173,San Diego County,CA,NA,52.707581227436826,NA
92201,Riverside County,CA,NA,NA,30.823529411764707
92227,Imperial County,CA,43.71584699453552,NA,NA
92234,Riverside County,CA,77.3224043715847,NA,NA
92277,San Bernardino County,CA,NA,93.14079422382672,NA
92308,San Bernardino County,CA,21.174863387978142,NA,NA
92316,San Bernardino County,CA,NA,46.57039711191336,NA
92324,San Bernardino County,CA,NA,NA,26.35294117647059
92336,San Bernardino County,CA,NA,36.101083032490976,NA
92374,San Bernardino County,CA,NA,60.64981949458483,NA
92376,San Bernardino County,CA,60.245901639344254,NA,NA
92395,San Bernardino County,CA,54.644808743169406,36.462093862815884,NA
92504,Riverside County,CA,NA,59.205776173285194,NA
92553,Riverside County,CA,48.08743169398907,NA,NA
92562,Riverside County,CA,28.96174863387978,NA,NA
92591,Riverside County,CA,78.82513661202186,NA,NA
92592,Riverside County,CA,NA,NA,36
92602,Orange County,CA,74.4535519125683,NA,NA
92646,Orange County,CA,49.45355191256831,NA,NA
92673,Orange County,CA,48.224043715846996,NA,NA
92688,Orange County,CA,NA,NA,76.23529411764706
92692,Orange County,CA,74.72677595628416,NA,NA
92703,Orange County,CA,NA,22.743682310469314,NA
92704,Orange County,CA,NA,17.328519855595665,NA
92804,Orange County,CA,NA,NA,19.52941176470588
92840,Orange County,CA,41.39344262295082,NA,NA
92870,Orange County,CA,55.60109289617486,NA,NA
92880,Riverside County,CA,69.94535519125684,NA,NA
92886,Orange County,CA,38.114754098360656,NA,NA
93001,Ventura County,CA,38.9344262295082,NA,NA
93003,Ventura County,CA,37.295081967213115,NA,21.176470588235293
93004,Ventura County,CA,NA,NA,62.35294117647059
93013,Santa Barbara County,CA,92.21311475409836,NA,NA
93015,Ventura County,CA,25.956284153005466,NA,NA
93033,Ventura County,CA,NA,NA,47.76470588235294
93274,Tulare County,CA,20.76502732240437,NA,11.76470588235294
93292,Tulare County,CA,50.54644808743169,NA,NA
93304,Kern County,CA,16.80327868852459,NA,NA
93436,Santa Barbara County,CA,NA,NA,53.17647058823529
93550,Los Angeles County,CA,47.950819672131146,15.884476534296029,NA
93551,Los Angeles County,CA,72.26775956284153,NA,NA
93552,Los Angeles County,CA,NA,NA,65.41176470588236
93611,Fresno County,CA,46.994535519125684,NA,NA
93619,Fresno County,CA,60.65573770491803,NA,NA
93635,Merced County,CA,78.68852459016394,NA,NA
93648,Fresno County,CA,61.338797814207645,NA,NA
93703,Fresno County,CA,29.508196721311474,NA,NA
93723,Fresno County,CA,79.50819672131148,NA,NA
93901,Monterey County,CA,89.89071038251366,NA,NA
94111,San Francisco County,CA,NA,NA,95.05882352941177
94118,San Francisco County,CA,NA,NA,62.588235294117645
94123,San Francisco County,CA,NA,NA,69.17647058823529
94131,San Francisco County,CA,77.04918032786885,NA,NA
94303,San Mateo County,CA,40.02732240437158,NA,NA
94509,Contra Costa County,CA,71.17486338797814,NA,NA
94533,Solano County,CA,NA,NA,29.88235294117647
94544,Alameda County,CA,37.02185792349727,NA,NA
94565,Contra Costa County,CA,NA,45.84837545126354,NA
94566,Alameda County,CA,NA,NA,88.47058823529412
94603,Alameda County,CA,31.284153005464482,NA,NA
94903,Marin County,CA,86.47540983606558,NA,NA
95006,Santa Cruz County,CA,98.77049180327869,NA,NA
95076,Santa Cruz County,CA,NA,55.95667870036101,NA
95206,San Joaquin County,CA,NA,45.12635379061371,NA
95212,San Joaquin County,CA,NA,NA,84.23529411764706
95304,San Joaquin County,CA,92.62295081967213,NA,NA
95337,San Joaquin County,CA,54.23497267759563,NA,NA
95401,Sonoma County,CA,31.284153005464482,NA,NA
95451,Lake County,CA,NA,NA,83.52941176470588
95624,Sacramento County,CA,67.21311475409836,NA,NA
95687,Solano County,CA,NA,NA,77.88235294117646
95762,El Dorado County,CA,54.09836065573771,NA,NA
95824,Sacramento County,CA,NA,57.761732851985556,NA
95826,Sacramento County,CA,NA,NA,61.1764705882353
96097,Siskiyou County,CA,NA,NA,85.41176470588235
80011,Arapahoe County,CO,NA,7.2202166064981945,NA
80012,Arapahoe County,CO,32.650273224043715,NA,16.705882352941178
80104,Douglas County,CO,31.284153005464482,NA,NA
80112,Arapahoe County,CO,NA,NA,60.94117647058823
80120,Arapahoe County,CO,58.46994535519126,NA,NA
80124,Douglas County,CO,69.53551912568307,NA,NA
80128,Jefferson County,CO,41.53005464480874,NA,NA
80204,Denver County,CO,NA,52.34657039711191,NA
80216,Denver County,CO,NA,NA,75.52941176470588
80221,Adams County,CO,19.12568306010929,NA,NA
80226,Jefferson County,CO,NA,NA,55.05882352941176
80233,Adams County,CO,NA,NA,33.64705882352941
80234,Adams County,CO,48.63387978142077,NA,NA
80237,Denver County,CO,NA,NA,80.47058823529412
80247,Arapahoe County,CO,NA,54.51263537906137,NA
80260,Adams County,CO,4.2349726775956285,NA,NA
80401,Jefferson County,CO,NA,NA,44.23529411764706
80403,Jefferson County,CO,82.5136612021858,NA,NA
80516,Weld County,CO,46.03825136612022,NA,NA
80534,Weld County,CO,NA,92.4187725631769,NA
80615,Weld County,CO,NA,NA,86.82352941176471
80634,Weld County,CO,NA,NA,21.88235294117647
80651,Weld County,CO,97.54098360655738,NA,NA
80831,El Paso County,CO,NA,73.28519855595668,NA
80905,El Paso County,CO,82.65027322404372,NA,NA
80920,El Paso County,CO,55.19125683060109,NA,NA
81001,Pueblo County,CO,35.51912568306011,40.794223826714806,NA
81132,Rio Grande County,CO,NA,92.05776173285199,NA
81144,Rio Grande County,CO,NA,NA,93.41176470588235
81401,Montrose County,CO,NA,50.90252707581227,NA
06010,Hartford County,CT,3.9617486338797816,NA,NA
06042,Hartford County,CT,79.09836065573771,NA,NA
06095,Hartford County,CT,20.21857923497268,NA,NA
06105,Hartford County,CT,NA,NA,28.47058823529412
06106,Hartford County,CT,NA,11.913357400722022,NA
06118,Hartford County,CT,34.42622950819672,NA,NA
06249,New London County,CT,NA,NA,85.6470588235294
06415,New London County,CT,42.62295081967213,NA,NA
06514,New Haven County,CT,37.02185792349727,NA,NA
06516,New Haven County,CT,16.256830601092894,NA,NA
06608,Fairfield County,CT,68.0327868852459,NA,NA
06704,New Haven County,CT,NA,32.49097472924188,NA
06801,Fairfield County,CT,NA,NA,78.11764705882352
06804,Fairfield County,CT,85.65573770491804,NA,NA
06831,Fairfield County,CT,NA,77.25631768953069,NA
06840,Fairfield County,CT,NA,NA,83.29411764705881
06883,Fairfield County,CT,NA,NA,96.70588235294117
19707,New Castle County,DE,83.19672131147541,NA,NA
19711,New Castle County,DE,NA,60.64981949458483,NA
19802,New Castle County,DE,60.10928961748634,NA,20.47058823529412
19803,New Castle County,DE,NA,85.1985559566787,NA
19805,New Castle County,DE,5.191256830601093,NA,NA
19934,Kent County,DE,NA,75.09025270758123,NA
32066,Lafayette County,FL,NA,90.61371841155234,NA
32068,Clay County,FL,NA,NA,17.88235294117647
32091,Bradford County,FL,66.80327868852459,NA,NA
32095,St. Johns County,FL,NA,NA,92.23529411764706
32211,Duval County,FL,41.12021857923497,NA,NA
32220,Duval County,FL,75.95628415300546,NA,NA
32221,Duval County,FL,NA,NA,37.1764705882353
32254,Duval County,FL,NA,NA,54.352941176470594
32256,Duval County,FL,NA,NA,71.05882352941177
32310,Leon County,FL,NA,19.494584837545126,NA
32340,Madison County,FL,NA,90.25270758122743,NA
32446,Jackson County,FL,NA,NA,69.88235294117648
32504,Escambia County,FL,NA,NA,56.94117647058824
32506,Escambia County,FL,33.60655737704918,NA,NA
32536,Okaloosa County,FL,67.62295081967213,NA,NA
32539,Okaloosa County,FL,60.5191256830601,NA,NA
32561,Santa Rosa County,FL,81.69398907103826,NA,NA
32703,Orange County,FL,NA,28.51985559566787,NA
32724,Volusia County,FL,28.415300546448087,NA,NA
32792,Orange County,FL,29.23497267759563,NA,NA
32817,Orange County,FL,NA,NA,72.47058823529412
32818,Orange County,FL,17.48633879781421,NA,NA
32937,Brevard County,FL,94.94535519125684,NA,NA
33015,Miami-Dade County,FL,NA,14.079422382671481,NA
33024,Broward County,FL,25.683060109289617,15.884476534296029,NA
33030,Miami-Dade County,FL,37.43169398907104,NA,NA
33032,Miami-Dade County,FL,NA,14.801444043321299,NA
33033,Miami-Dade County,FL,12.978142076502733,NA,NA
33054,Miami-Dade County,FL,NA,NA,56.470588235294116
33056,Miami-Dade County,FL,20.62841530054645,NA,NA
33060,Broward County,FL,42.62295081967213,NA,NA
33177,Miami-Dade County,FL,17.21311475409836,NA,NA
33185,Miami-Dade County,FL,59.97267759562842,NA,NA
33193,Miami-Dade County,FL,NA,34.65703971119133,NA
33194,Miami-Dade County,FL,93.85245901639344,NA,NA
33326,Broward County,FL,74.72677595628416,NA,NA
33410,Palm Beach County,FL,NA,65.34296028880865,NA
33415,Palm Beach County,FL,NA,19.855595667870034,NA
33428,Palm Beach County,FL,67.4863387978142,NA,74.11764705882354
33432,Palm Beach County,FL,NA,95.66787003610109,NA
33446,Palm Beach County,FL,61.20218579234973,NA,NA
33511,Hillsborough County,FL,NA,48.014440433213,NA
33513,Sumter County,FL,89.34426229508196,NA,NA
33559,Hillsborough County,FL,NA,NA,87.52941176470588
33569,Hillsborough County,FL,37.704918032786885,NA,NA
33594,Hillsborough County,FL,71.44808743169399,NA,NA
33604,Hillsborough County,FL,44.94535519125683,NA,NA
33607,Hillsborough County,FL,NA,79.42238267148014,NA
33610,Hillsborough County,FL,8.060109289617486,NA,NA
33617,Hillsborough County,FL,12.021857923497267,NA,NA
33635,Hillsborough County,FL,75.27322404371584,NA,NA
33701,Pinellas County,FL,NA,NA,53.41176470588235
33880,Polk County,FL,36.74863387978142,NA,NA
33993,Lee County,FL,41.939890710382514,NA,NA
34120,Collier County,FL,29.6448087431694,NA,43.529411764705884
34429,Citrus County,FL,NA,100,NA
34433,Citrus County,FL,NA,78.70036101083032,NA
34470,Marion County,FL,54.50819672131148,NA,NA
34479,Marion County,FL,79.6448087431694,NA,NA
34481,Marion County,FL,NA,81.2274368231047,NA
34482,Marion County,FL,NA,44.765342960288805,NA
34667,Pasco County,FL,NA,37.18411552346571,NA
34685,Pinellas County,FL,NA,NA,93.17647058823529
34711,Lake County,FL,38.66120218579235,NA,NA
34715,Lake County,FL,73.77049180327869,NA,NA
34974,Okeechobee County,FL,NA,NA,61.411764705882355
34990,Martin County,FL,67.62295081967213,NA,NA
30014,Newton County,GA,21.174863387978142,NA,NA
30016,Newton County,GA,50.13661202185792,NA,18.352941176470587
30021,DeKalb County,GA,NA,79.06137184115524,NA
30034,DeKalb County,GA,13.524590163934427,49.81949458483754,NA
30039,Gwinnett County,GA,44.53551912568306,NA,NA
30046,Gwinnett County,GA,NA,39.71119133574007,NA
30064,Cobb County,GA,55.19125683060109,NA,NA
30076,Fulton County,GA,53.41530054644809,77.9783393501805,NA
30083,DeKalb County,GA,13.387978142076504,NA,NA
30084,DeKalb County,GA,74.18032786885246,NA,NA
30093,Gwinnett County,GA,NA,NA,63.76470588235294
30101,Cobb County,GA,26.639344262295083,NA,NA
30110,Haralson County,GA,63.25136612021858,NA,NA
30120,Bartow County,GA,NA,54.51263537906137,NA
30127,Cobb County,GA,69.39890710382514,NA,22.823529411764707
30132,Paulding County,GA,33.060109289617486,NA,NA
30143,Pickens County,GA,54.644808743169406,NA,NA
30152,Cobb County,GA,43.0327868852459,NA,NA
30213,Fulton County,GA,50,NA,NA
30228,Henry County,GA,NA,NA,39.52941176470588
30236,Clayton County,GA,52.04918032786885,NA,NA
30253,Henry County,GA,24.043715846994534,NA,33.411764705882355
30315,Fulton County,GA,NA,NA,37.88235294117647
30339,Cobb County,GA,87.1584699453552,NA,NA
30506,Hall County,GA,NA,NA,38.35294117647059
30606,Clarke County,GA,49.86338797814208,NA,NA
30620,Barrow County,GA,94.12568306010928,NA,NA
30701,Gordon County,GA,NA,46.57039711191336,NA
30705,Murray County,GA,27.459016393442624,NA,NA
30728,Walker County,GA,NA,NA,45.64705882352941
31021,Laurens County,GA,NA,NA,47.05882352941176
31052,Bibb County,GA,86.33879781420765,NA,NA
31069,Houston County,GA,86.0655737704918,NA,NA
31707,Dougherty County,GA,55.60109289617486,NA,57.647058823529406
31907,Muscogee County,GA,NA,31.046931407942242,NA
39823,Early County,GA,88.9344262295082,NA,NA
39828,Grady County,GA,65.57377049180327,NA,NA
96744,Honolulu County,HI,9.426229508196721,NA,25.882352941176475
96766,Kauai County,HI,NA,94.22382671480143,NA
96786,Honolulu County,HI,NA,64.98194945848375,NA
96795,Honolulu County,HI,NA,87.72563176895306,NA
96813,Honolulu County,HI,35.51912568306011,NA,NA
96814,Honolulu County,HI,NA,NA,76.47058823529412
96816,Honolulu County,HI,42.349726775956285,NA,NA
83301,Twin Falls County,ID,NA,28.51985559566787,NA
83404,Bonneville County,ID,NA,40.794223826714806,NA
83634,Ada County,ID,65.98360655737704,NA,NA
83687,Canyon County,ID,NA,NA,29.176470588235293
83705,Ada County,ID,31.830601092896178,NA,NA
83713,Ada County,ID,38.9344262295082,NA,NA
83864,Bonner County,ID,93.71584699453553,NA,NA
60002,Lake County,IL,43.30601092896175,NA,NA
60004,Cook County,IL,26.912568306010932,NA,NA
60012,McHenry County,IL,81.69398907103826,NA,NA
60022,Cook County,IL,NA,NA,91.29411764705883
60030,Lake County,IL,35.92896174863388,NA,50.35294117647059
60047,Lake County,IL,NA,NA,45.41176470588235
60062,Cook County,IL,29.098360655737704,NA,NA
60070,Cook County,IL,NA,NA,92
60073,Lake County,IL,39.61748633879781,NA,NA
60074,Cook County,IL,NA,NA,49.1764705882353
60087,Lake County,IL,NA,NA,75.29411764705883
60140,Kane County,IL,79.23497267759562,NA,NA
60172,DuPage County,IL,67.21311475409836,NA,NA
60175,Kane County,IL,64.89071038251366,NA,NA
60181,DuPage County,IL,59.01639344262295,NA,NA
60190,DuPage County,IL,NA,NA,82.58823529411765
60193,Cook County,IL,NA,NA,46.588235294117645
60423,Will County,IL,31.010928961748636,NA,NA
60450,Grundy County,IL,15.027322404371585,NA,NA
60456,Cook County,IL,95.21857923497268,NA,NA
60468,Will County,IL,87.02185792349727,NA,NA
60502,DuPage County,IL,85.65573770491804,NA,NA
60506,Kane County,IL,21.584699453551913,NA,NA
60513,Cook County,IL,70.90163934426229,NA,NA
60543,Kendall County,IL,22.540983606557376,NA,NA
60558,Cook County,IL,59.56284153005464,NA,NA
60610,Cook County,IL,NA,NA,50.588235294117645
60611,Cook County,IL,NA,NA,62.588235294117645
60615,Cook County,IL,NA,NA,31.529411764705884
60636,Cook County,IL,NA,NA,41.88235294117647
60641,Cook County,IL,40.84699453551913,NA,NA
60652,Cook County,IL,58.333333333333336,NA,NA
60654,Cook County,IL,92.62295081967213,NA,NA
60655,Cook County,IL,20.3551912568306,NA,NA
60657,Cook County,IL,45.90163934426229,NA,NA
60707,Cook County,IL,NA,NA,25.647058823529413
60914,Kankakee County,IL,NA,NA,41.411764705882355
61016,Winnebago County,IL,99.59016393442623,NA,NA
61085,Jo Daviess County,IL,96.17486338797814,NA,NA
61108,Winnebago County,IL,NA,NA,63.294117647058826
61550,Tazewell County,IL,NA,NA,90.58823529411765
61614,Peoria County,IL,68.71584699453553,NA,NA
61701,McLean County,IL,48.63387978142077,NA,NA
61705,McLean County,IL,68.85245901639344,NA,NA
62025,Madison County,IL,NA,NA,73.1764705882353
62220,St. Clair County,IL,NA,NA,70.58823529411765
62274,Perry County,IL,90.84699453551912,NA,NA
62501,Macon County,IL,NA,NA,99.76470588235294
62618,Cass County,IL,91.53005464480874,NA,NA
62959,Williamson County,IL,92.21311475409836,NA,NA
46060,Hamilton County,IN,41.939890710382514,NA,NA
46062,Hamilton County,IN,46.17486338797814,NA,NA
46064,Madison County,IN,NA,NA,74.82352941176471
46075,Boone County,IN,99.72677595628416,NA,NA
46113,Marion County,IN,NA,NA,73.6470588235294
46131,Johnson County,IN,49.72677595628415,NA,NA
46184,Johnson County,IN,85.10928961748634,NA,NA
46219,Marion County,IN,36.885245901639344,NA,18.11764705882353
46254,Marion County,IN,12.568306010928962,NA,NA
46303,Lake County,IN,49.18032786885246,NA,NA
46311,Lake County,IN,30.46448087431694,NA,NA
46321,Lake County,IN,NA,NA,43.05882352941177
46341,Porter County,IN,NA,NA,69.6470588235294
46375,Lake County,IN,10.51912568306011,NA,NA
46383,Porter County,IN,2.0491803278688523,NA,NA
46392,Jasper County,IN,79.23497267759562,NA,NA
46406,Lake County,IN,58.060109289617486,NA,NA
46514,Elkhart County,IN,63.25136612021858,30.324909747292416,NA
46804,Allen County,IN,NA,NA,52.70588235294118
46806,Allen County,IN,21.85792349726776,NA,NA
46807,Allen County,IN,48.63387978142077,NA,NA
46825,Allen County,IN,7.240437158469945,NA,NA
46902,Howard County,IN,NA,NA,6.8235294117647065
46933,Grant County,IN,NA,73.28519855595668,NA
47374,Wayne County,IN,4.918032786885246,NA,8.941176470588236
47394,Randolph County,IN,NA,NA,79.52941176470588
47501,Daviess County,IN,NA,55.95667870036101,NA
47512,Knox County,IN,NA,93.14079422382672,NA
47610,Warrick County,IN,NA,92.4187725631769,NA
47715,Vanderburgh County,IN,46.58469945355191,NA,NA
47987,Fountain County,IN,93.85245901639344,NA,NA
50003,Dallas County,IA,NA,NA,97.6470588235294
50023,Polk County,IA,NA,NA,72.70588235294117
50036,Boone County,IA,NA,NA,72.23529411764706
50212,Boone County,IA,NA,NA,100
50219,Marion County,IA,NA,NA,90.3529411764706
50701,Black Hawk County,IA,26.09289617486339,NA,NA
51106,Woodbury County,IA,50.68306010928961,NA,NA
51201,O'Brien County,IA,86.0655737704918,NA,NA
51503,Pottawattamie County,IA,3.6885245901639343,NA,NA
52302,Linn County,IA,NA,44.4043321299639,NA
52405,Linn County,IA,NA,88.8086642599278,NA
52501,Wapello County,IA,69.53551912568307,NA,NA
52632,Lee County,IA,36.6120218579235,NA,NA
52722,Scott County,IA,12.158469945355192,NA,NA
52803,Scott County,IA,52.322404371584696,NA,NA
52806,Scott County,IA,33.46994535519126,NA,NA
66062,Johnson County,KS,10.92896174863388,NA,NA
66203,Johnson County,KS,96.17486338797814,NA,NA
66209,Johnson County,KS,88.79781420765028,NA,NA
67147,Sedgwick County,KS,94.94535519125684,NA,NA
67203,Sedgwick County,KS,NA,NA,78.3529411764706
40203,Jefferson County,KY,NA,NA,28.941176470588236
40210,Jefferson County,KY,51.502732240437155,NA,NA
40211,Jefferson County,KY,25.546448087431695,NA,NA
40214,Jefferson County,KY,17.349726775956285,NA,NA
40215,Jefferson County,KY,NA,33.57400722021661,NA
40216,Jefferson County,KY,NA,NA,14.588235294117647
40218,Jefferson County,KY,21.584699453551913,31.768953068592058,NA
40324,Scott County,KY,33.87978142076503,NA,NA
40447,Jackson County,KY,NA,NA,89.88235294117646
40517,Fayette County,KY,43.71584699453552,NA,NA
40965,Bell County,KY,NA,NA,33.88235294117647
41091,Boone County,KY,75.40983606557377,NA,79.29411764705883
42220,Todd County,KY,NA,NA,89.17647058823529
42301,Daviess County,KY,10.792349726775956,NA,NA
42351,Hancock County,KY,NA,NA,93.64705882352942
70001,Jefferson Parish,LA,36.47540983606557,NA,8.235294117647058
70003,Jefferson Parish,LA,NA,NA,13.647058823529413
70115,Orleans Parish,LA,24.043715846994534,NA,NA
70117,Orleans Parish,LA,NA,NA,70.35294117647058
70119,Orleans Parish,LA,6.0109289617486334,NA,NA
70363,Terrebonne Parish,LA,2.459016393442623,NA,NA
70364,Terrebonne Parish,LA,4.371584699453552,3.9711191335740073,NA
70394,Lafourche Parish,LA,NA,12.274368231046932,NA
70446,Tangipahoa Parish,LA,72.81420765027322,NA,NA
70458,St. Tammany Parish,LA,NA,4.332129963898916,NA
70555,Vermilion Parish,LA,62.295081967213115,NA,NA
70563,Iberia Parish,LA,45.62841530054645,NA,NA
70592,Lafayette Parish,LA,13.114754098360656,55.5956678700361,NA
70615,Calcasieu Parish,LA,NA,47.292418772563174,NA
70665,Calcasieu Parish,LA,NA,NA,43.29411764705882
70719,West Baton Rouge Parish,LA,NA,59.92779783393502,NA
70739,East Baton Rouge Parish,LA,NA,NA,82.11764705882352
70769,Ascension Parish,LA,NA,6.137184115523466,NA
70774,Ascension Parish,LA,NA,NA,64.47058823529412
70778,Ascension Parish,LA,NA,NA,99.05882352941177
71360,Rapides Parish,LA,13.797814207650273,NA,NA
71411,Natchitoches Parish,LA,NA,50.54151624548736,NA
71467,Grant Parish,LA,NA,NA,87.76470588235294
04005,York County,ME,16.939890710382514,NA,NA
04092,Cumberland County,ME,68.16939890710383,NA,NA
04210,Androscoggin County,ME,NA,NA,23.294117647058822
04330,Kennebec County,ME,3.0054644808743167,NA,NA
04654,Washington County,ME,NA,75.81227436823104,NA
04769,Aroostook County,ME,NA,43.32129963898917,NA
04937,Somerset County,ME,NA,NA,65.17647058823529
20637,Charles County,MD,NA,NA,97.88235294117648
20653,St. Mary's County,MD,90.43715846994536,NA,NA
20711,Anne Arundel County,MD,98.49726775956285,NA,NA
20715,Prince George's County,MD,65.57377049180327,NA,NA
20874,Montgomery County,MD,55.19125683060109,NA,NA
20895,Montgomery County,MD,NA,NA,92.47058823529412
21703,Frederick County,MD,NA,NA,67.76470588235294
21740,Washington County,MD,NA,99.63898916967509,23.058823529411764
21793,Frederick County,MD,NA,NA,91.52941176470588
01013,Hampden County,MA,NA,25.63176895306859,NA
01104,Hampden County,MA,NA,NA,2.588235294117647
01201,Berkshire County,MA,2.185792349726776,NA,0
01247,Berkshire County,MA,NA,NA,11.058823529411764
01420,Worcester County,MA,3.278688524590164,NA,NA
01462,Worcester County,MA,NA,NA,57.1764705882353
01475,Worcester County,MA,NA,NA,34.35294117647059
01571,Worcester County,MA,NA,NA,37.411764705882355
01603,Worcester County,MA,4.781420765027322,NA,NA
01752,Middlesex County,MA,NA,NA,5.176470588235294
01821,Middlesex County,MA,28.415300546448087,NA,NA
01826,Middlesex County,MA,NA,NA,8.470588235294118
01841,Essex County,MA,NA,0.36101083032490977,NA
01845,Essex County,MA,NA,NA,67.52941176470588
01887,Middlesex County,MA,22.131147540983605,NA,NA
01902,Essex County,MA,NA,NA,0.2352941176470588
01907,Essex County,MA,66.2568306010929,NA,NA
01913,Essex County,MA,NA,NA,32
01930,Essex County,MA,NA,NA,6.352941176470588
01950,Essex County,MA,NA,NA,25.41176470588235
01960,Essex County,MA,NA,12.996389891696749,NA
02062,Norfolk County,MA,47.404371584699454,NA,NA
02111,Suffolk County,MA,66.80327868852459,NA,NA
02115,Suffolk County,MA,NA,NA,35.294117647058826
02128,Suffolk County,MA,NA,NA,0.7058823529411765
02145,Middlesex County,MA,NA,3.6101083032490973,9.411764705882353
02155,Middlesex County,MA,NA,NA,1.8823529411764703
02180,Middlesex County,MA,21.85792349726776,NA,NA
02184,Norfolk County,MA,42.21311475409836,NA,NA
02347,Plymouth County,MA,83.60655737704919,NA,NA
02360,Plymouth County,MA,5.05464480874317,NA,NA
02368,Norfolk County,MA,NA,NA,3.058823529411765
02370,Plymouth County,MA,32.240437158469945,NA,NA
02451,Middlesex County,MA,NA,NA,32.23529411764706
02472,Middlesex County,MA,28.142076502732237,NA,NA
02532,Barnstable County,MA,NA,NA,61.882352941176464
02721,Bristol County,MA,16.666666666666664,NA,NA
02740,Bristol County,MA,NA,NA,31.058823529411768
02745,Bristol County,MA,NA,NA,3.7647058823529407
02746,Bristol County,MA,27.18579234972678,NA,NA
48044,Macomb County,MI,NA,62.454873646209386,NA
48045,Macomb County,MI,32.650273224043715,NA,NA
48072,Oakland County,MI,59.56284153005464,NA,NA
48104,Washtenaw County,MI,NA,90.61371841155234,NA
48126,Wayne County,MI,NA,NA,16
48134,Wayne County,MI,NA,NA,35.76470588235294
48141,Wayne County,MI,NA,11.552346570397113,NA
48178,Oakland County,MI,11.202185792349727,NA,NA
48180,Wayne County,MI,1.912568306010929,NA,NA
48187,Wayne County,MI,10.382513661202186,NA,NA
48195,Wayne County,MI,39.48087431693989,NA,NA
48205,Wayne County,MI,NA,9.386281588447654,NA
48228,Wayne County,MI,1.639344262295082,15.523465703971121,2.823529411764706
48346,Oakland County,MI,63.52459016393443,NA,NA
48348,Oakland County,MI,34.42622950819672,NA,74.58823529411764
48423,Genesee County,MI,56.284153005464475,NA,NA
48611,Bay County,MI,NA,NA,92.70588235294117
48746,Tuscola County,MI,NA,81.94945848375451,NA
48823,Ingham County,MI,NA,NA,41.647058823529406
48836,Livingston County,MI,57.650273224043715,NA,NA
48837,Eaton County,MI,NA,NA,64.47058823529412
49009,Kalamazoo County,MI,22.26775956284153,NA,NA
49015,Calhoun County,MI,17.759562841530055,NA,NA
49082,Branch County,MI,80.05464480874316,NA,NA
49120,Berrien County,MI,NA,NA,20
49201,Jackson County,MI,NA,39.35018050541516,NA
49203,Jackson County,MI,24.453551912568305,NA,NA
49404,Ottawa County,MI,NA,86.28158844765343,NA
49417,Ottawa County,MI,NA,NA,22.35294117647059
49426,Ottawa County,MI,21.03825136612022,NA,NA
49444,Muskegon County,MI,51.502732240437155,NA,NA
49464,Ottawa County,MI,40.02732240437158,NA,NA
49509,Kent County,MI,62.704918032786885,NA,NA
49712,Charlevoix County,MI,90.84699453551912,NA,NA
55008,Isanti County,MN,NA,62.093862815884485,NA
55024,Dakota County,MN,69.80874316939891,NA,NA
55033,Dakota County,MN,47.6775956284153,NA,NA
55040,Isanti County,MN,84.69945355191257,NA,NA
55041,Wabasha County,MN,NA,NA,89.64705882352942
55122,Dakota County,MN,NA,NA,71.76470588235294
55130,Ramsey County,MN,26.50273224043716,NA,NA
55308,Sherburne County,MN,79.6448087431694,NA,NA
55347,Hennepin County,MN,34.15300546448087,NA,NA
55362,Wright County,MN,NA,NA,72.94117647058823
55363,Wright County,MN,NA,98.19494584837545,NA
55403,Hennepin County,MN,14.071038251366119,NA,NA
55404,Hennepin County,MN,4.508196721311475,NA,NA
55419,Hennepin County,MN,8.879781420765028,NA,NA
55443,Hennepin County,MN,37.704918032786885,NA,NA
55447,Hennepin County,MN,NA,NA,80.70588235294117
55803,St. Louis County,MN,83.06010928961749,NA,NA
55975,Fillmore County,MN,NA,NA,97.1764705882353
55987,Winona County,MN,NA,NA,13.882352941176471
56001,Blue Earth County,MN,NA,NA,40
56011,Scott County,MN,NA,72.56317689530685,NA
56431,Aitkin County,MN,51.502732240437155,NA,NA
56560,Clay County,MN,1.7759562841530054,NA,NA
38632,DeSoto County,MS,67.62295081967213,NA,NA
38637,DeSoto County,MS,NA,48.375451263537904,NA
38654,DeSoto County,MS,22.814207650273225,NA,NA
38663,Tippah County,MS,NA,NA,77.41176470588236
38671,DeSoto County,MS,24.453551912568305,NA,NA
39047,Rankin County,MS,NA,NA,60
39056,Hinds County,MS,72.95081967213115,NA,NA
39071,Madison County,MS,NA,81.94945848375451,NA
39073,Rankin County,MS,82.78688524590164,NA,NA
39204,Hinds County,MS,5.327868852459016,NA,NA
39206,Hinds County,MS,14.344262295081966,NA,NA
39465,Forrest County,MS,73.36065573770492,NA,NA
39562,Jackson County,MS,NA,75.09025270758123,NA
39571,Harrison County,MS,NA,NA,76.47058823529412
39759,Oktibbeha County,MS,44.26229508196721,NA,NA
39773,Clay County,MS,NA,66.06498194945848,NA
63026,St. Louis County,MO,35.24590163934426,NA,NA
63114,St. Louis County,MO,28.415300546448087,NA,NA
63645,Madison County,MO,NA,51.624548736462096,NA
63740,Scott County,MO,NA,87.72563176895306,NA
63801,Scott County,MO,38.3879781420765,NA,NA
63830,Pemiscot County,MO,NA,80.14440433212997,NA
64014,Jackson County,MO,14.207650273224044,NA,NA
64063,Jackson County,MO,62.841530054644814,NA,NA
64075,Jackson County,MO,66.66666666666666,NA,NA
64078,Cass County,MO,81.69398907103826,NA,NA
64081,Jackson County,MO,41.53005464480874,NA,NA
64083,Cass County,MO,30.601092896174865,NA,NA
64117,Clay County,MO,32.650273224043715,NA,NA
64127,Jackson County,MO,NA,NA,11.294117647058824
64129,Jackson County,MO,NA,65.70397111913357,NA
64155,Clay County,MO,14.344262295081966,NA,NA
64424,Harrison County,MO,62.431693989071036,NA,NA
65483,Texas County,MO,96.58469945355192,NA,NA
65536,Laclede County,MO,NA,NA,47.529411764705884
65560,Dent County,MO,61.338797814207645,NA,64.23529411764706
65721,Christian County,MO,39.61748633879781,NA,NA
59801,Missoula County,MT,NA,NA,68.94117647058823
68105,Douglas County,NE,58.7431693989071,NA,NA
68405,Seward County,NE,98.63387978142076,NA,NA
68516,Lancaster County,NE,24.316939890710383,NA,NA
89102,Clark County,NV,NA,NA,56.705882352941174
89108,Clark County,NV,NA,NA,28.000000000000004
89119,Clark County,NV,NA,68.59205776173285,NA
89121,Clark County,NV,NA,NA,34.8235294117647
89131,Clark County,NV,77.04918032786885,NA,NA
89139,Clark County,NV,NA,93.86281588447653,NA
89169,Clark County,NV,NA,NA,60.705882352941174
89408,Lyon County,NV,56.830601092896174,NA,NA
89441,Washoe County,NV,NA,NA,84.47058823529412
89445,Humboldt County,NV,66.12021857923497,NA,NA
89503,Washoe County,NV,NA,83.75451263537906,NA
89508,Washoe County,NV,NA,NA,76
03052,Hillsborough County,NH,NA,NA,79.76470588235294
03060,Hillsborough County,NH,NA,NA,12.470588235294118
03062,Hillsborough County,NH,22.950819672131146,NA,NA
03064,Hillsborough County,NH,9.153005464480875,NA,NA
03104,Hillsborough County,NH,15.710382513661203,NA,NA
03253,Belknap County,NH,83.19672131147541,NA,NA
03275,Merrimack County,NH,NA,83.75451263537906,NA
03431,Cheshire County,NH,NA,NA,36.94117647058823
03582,Coos County,NH,NA,NA,98.11764705882354
07003,Essex County,NJ,NA,NA,15.058823529411763
07016,Union County,NJ,78.00546448087432,NA,NA
07024,Bergen County,NJ,NA,96.38989169675091,NA
07030,Hudson County,NJ,50.68306010928961,NA,NA
07065,Union County,NJ,NA,18.772563176895307,NA
07086,Hudson County,NJ,NA,89.53068592057761,NA
07093,Hudson County,NJ,NA,1.444043321299639,NA
07106,Essex County,NJ,NA,NA,9.647058823529411
07107,Essex County,NJ,NA,NA,15.764705882352942
07108,Essex County,NJ,14.754098360655737,NA,NA
07109,Essex County,NJ,NA,9.025270758122744,NA
07112,Essex County,NJ,NA,6.4981949458483745,NA
07206,Union County,NJ,NA,2.166064981949458,NA
07304,Hudson County,NJ,NA,7.581227436823104,NA
07305,Hudson County,NJ,NA,0.7220216606498195,10.117647058823529
07436,Bergen County,NJ,NA,NA,94.35294117647058
07461,Sussex County,NJ,NA,NA,47.294117647058826
07480,Passaic County,NJ,75.40983606557377,NA,NA
07508,Passaic County,NJ,63.79781420765027,NA,NA
07657,Bergen County,NJ,NA,99.27797833935018,NA
07740,Monmouth County,NJ,1.092896174863388,NA,NA
07853,Morris County,NJ,NA,NA,96.23529411764706
07860,Sussex County,NJ,NA,NA,32.94117647058823
07876,Morris County,NJ,NA,NA,94.11764705882352
07901,Union County,NJ,NA,NA,81.41176470588235
08002,Camden County,NJ,NA,NA,27.764705882352942
08016,Burlington County,NJ,53.825136612021865,NA,NA
08021,Camden County,NJ,NA,NA,5.411764705882352
08046,Burlington County,NJ,NA,NA,34.588235294117645
08052,Burlington County,NJ,22.26775956284153,NA,NA
08056,Gloucester County,NJ,89.07103825136612,NA,NA
08062,Gloucester County,NJ,61.612021857923494,NA,NA
08071,Gloucester County,NJ,95.90163934426229,NA,NA
08075,Burlington County,NJ,30.191256830601095,NA,NA
08080,Gloucester County,NJ,6.830601092896176,NA,46.11764705882353
08083,Camden County,NJ,89.34426229508196,NA,NA
08090,Gloucester County,NJ,NA,NA,90.8235294117647
08103,Camden County,NJ,NA,NA,48.705882352941174
08105,Camden County,NJ,3.551912568306011,NA,NA
08109,Camden County,NJ,25.136612021857925,NA,24.235294117647058
08110,Camden County,NJ,NA,13.357400722021662,NA
08232,Atlantic County,NJ,51.502732240437155,NA,NA
08332,Cumberland County,NJ,NA,NA,2.1176470588235294
08401,Atlantic County,NJ,NA,68.95306859205776,0.4705882352941176
08558,Somerset County,NJ,94.39890710382514,NA,NA
08629,Mercer County,NJ,NA,NA,98.58823529411764
08701,Ocean County,NJ,NA,NA,4.235294117647059
08755,Ocean County,NJ,NA,NA,30.117647058823525
08831,Middlesex County,NJ,79.91803278688525,NA,NA
08879,Middlesex County,NJ,NA,NA,41.17647058823529
87031,Valencia County,NM,31.284153005464482,NA,NA
87102,Bernalillo County,NM,NA,NA,28.705882352941174
87105,Bernalillo County,NM,7.786885245901639,NA,NA
87121,Bernalillo County,NM,NA,3.2490974729241873,8
87123,Bernalillo County,NM,NA,16.967509025270758,NA
87301,McKinley County,NM,NA,12.63537906137184,32.470588235294116
87416,San Juan County,NM,NA,58.12274368231047,NA
87508,Santa Fe County,NM,89.89071038251366,NA,NA
87532,Santa Fe County,NM,48.224043715846996,NA,NA
88230,Chaves County,NM,NA,82.67148014440433,NA
88240,Lea County,NM,NA,NA,10.823529411764705
88352,Otero County,NM,NA,NA,87.05882352941177
10003,New York County,NY,NA,NA,59.05882352941176
10016,New York County,NY,57.92349726775956,NA,NA
10024,New York County,NY,64.61748633879782,NA,NA
10028,New York County,NY,NA,75.81227436823104,NA
10029,New York County,NY,NA,0,NA
10040,New York County,NY,NA,10.830324909747292,NA
10310,Richmond County,NY,43.30601092896175,NA,NA
10456,Bronx County,NY,0.1366120218579235,NA,NA
10461,Bronx County,NY,NA,NA,17.176470588235293
10466,Bronx County,NY,NA,2.888086642599278,NA
10467,Bronx County,NY,NA,NA,1.411764705882353
10470,Bronx County,NY,NA,40.43321299638989,NA
10598,Westchester County,NY,89.07103825136612,NA,NA
10801,Westchester County,NY,NA,14.440433212996389,NA
10977,Rockland County,NY,27.732240437158467,NA,NA
11206,Kings County,NY,NA,2.527075812274368,NA
11209,Kings County,NY,NA,NA,40.23529411764706
11214,Kings County,NY,NA,NA,21.64705882352941
11219,Kings County,NY,6.420765027322404,NA,NA
11220,Kings County,NY,0.273224043715847,NA,6.11764705882353
11233,Kings County,NY,NA,5.415162454873646,NA
11355,Queens County,NY,40.98360655737705,4.693140794223827,NA
11372,Queens County,NY,NA,NA,38.11764705882353
11520,Nassau County,NY,80.60109289617486,NA,NA
11572,Nassau County,NY,NA,NA,91.76470588235294
11691,Queens County,NY,NA,NA,14.352941176470587
11722,Suffolk County,NY,29.918032786885245,NA,NA
11746,Suffolk County,NY,NA,NA,56.23529411764706
12033,Rensselaer County,NY,NA,NA,97.41176470588235
12043,Schoharie County,NY,90.1639344262295,NA,NA
12054,Albany County,NY,87.56830601092896,NA,NA
12065,Saratoga County,NY,NA,NA,30.58823529411765
12078,Fulton County,NY,NA,26.353790613718413,NA
12084,Albany County,NY,100,NA,NA
12180,Rensselaer County,NY,NA,NA,3.5294117647058822
12302,Schenectady County,NY,NA,63.1768953068592,NA
12542,Ulster County,NY,97.81420765027322,NA,NA
12601,Dutchess County,NY,NA,7.9422382671480145,NA
12754,Sullivan County,NY,NA,NA,84
12828,Washington County,NY,80.60109289617486,NA,NA
12885,Warren County,NY,98.224043715847,NA,NA
13140,Cayuga County,NY,NA,91.69675090252709,NA
13166,Cayuga County,NY,81.14754098360656,NA,NA
13207,Onondaga County,NY,NA,62.454873646209386,NA
13208,Onondaga County,NY,23.633879781420767,NA,NA
13212,Onondaga County,NY,34.01639344262295,NA,NA
13340,Herkimer County,NY,NA,NA,61.882352941176464
13350,Herkimer County,NY,27.18579234972678,NA,42.11764705882353
13365,Herkimer County,NY,38.52459016393443,NA,NA
13743,Tioga County,NY,93.30601092896174,NA,NA
13815,Chenango County,NY,NA,55.95667870036101,19.294117647058822
13825,Otsego County,NY,90.7103825136612,NA,NA
13827,Tioga County,NY,32.10382513661202,NA,NA
13850,Broome County,NY,NA,NA,21.41176470588235
14020,Genesee County,NY,NA,45.84837545126354,NA
14047,Erie County,NY,85.10928961748634,NA,NA
14094,Niagara County,NY,7.923497267759563,NA,NA
14098,Orleans County,NY,97.26775956284153,NA,NA
14131,Niagara County,NY,86.88524590163934,NA,NA
14132,Niagara County,NY,94.26229508196722,NA,NA
14204,Erie County,NY,60.65573770491803,NA,NA
14207,Erie County,NY,28.278688524590162,NA,NA
14208,Erie County,NY,NA,76.53429602888086,NA
14209,Erie County,NY,97.81420765027322,NA,74.3529411764706
14221,Erie County,NY,NA,83.75451263537906,NA
14225,Erie County,NY,34.69945355191257,NA,NA
14420,Monroe County,NY,15.163934426229508,NA,NA
14424,Ontario County,NY,9.289617486338798,NA,NA
14425,Ontario County,NY,15.573770491803279,NA,NA
14433,Wayne County,NY,NA,NA,66.58823529411765
14456,Ontario County,NY,NA,NA,13.176470588235295
14468,Monroe County,NY,18.71584699453552,NA,NA
14470,Orleans County,NY,24.863387978142075,NA,NA
14548,Ontario County,NY,82.37704918032787,NA,NA
14551,Wayne County,NY,69.94535519125684,NA,NA
14580,Monroe County,NY,6.557377049180328,NA,NA
14589,Wayne County,NY,NA,NA,42.35294117647059
14609,Monroe County,NY,20.081967213114755,18.4115523465704,1.1764705882352942
14610,Monroe County,NY,52.86885245901639,NA,NA
14612,Monroe County,NY,NA,NA,3.294117647058824
14616,Monroe County,NY,3.825136612021858,NA,NA
14617,Monroe County,NY,NA,NA,12.23529411764706
14619,Monroe County,NY,NA,NA,19.76470588235294
14623,Monroe County,NY,9.972677595628415,NA,NA
14701,Chautauqua County,NY,23.90710382513661,NA,NA
14712,Chautauqua County,NY,98.36065573770492,NA,NA
14747,Chautauqua County,NY,99.31693989071039,NA,NA
14760,Cattaraugus County,NY,NA,NA,15.529411764705884
14810,Steuben County,NY,23.36065573770492,NA,NA
14830,Steuben County,NY,20.76502732240437,NA,30.352941176470587
14858,Steuben County,NY,NA,NA,96.94117647058823
14865,Schuyler County,NY,91.66666666666666,NA,NA
14870,Steuben County,NY,76.50273224043715,NA,NA
27012,Forsyth County,NC,NA,NA,38.588235294117645
27025,Rockingham County,NC,70.90163934426229,NA,NA
27265,Guilford County,NC,51.36612021857923,NA,24.705882352941178
27358,Guilford County,NC,94.80874316939891,NA,NA
27360,Davidson County,NC,NA,NA,23.764705882352942
27406,Guilford County,NC,NA,NA,7.764705882352942
27705,Durham County,NC,NA,NA,28.235294117647058
27713,Durham County,NC,17.62295081967213,NA,NA
27801,Edgecombe County,NC,72.54098360655738,NA,NA
27834,Pitt County,NC,NA,10.108303249097473,12.705882352941176
28056,Gaston County,NC,46.31147540983606,NA,NA
28079,Union County,NC,52.04918032786885,NA,NA
28081,Cabarrus County,NC,44.12568306010929,53.42960288808665,NA
28104,Union County,NC,49.18032786885246,NA,NA
28115,Iredell County,NC,27.049180327868854,NA,NA
28117,Iredell County,NC,NA,NA,83.05882352941177
28147,Rowan County,NC,NA,58.844765342960294,NA
28152,Cleveland County,NC,NA,NA,44.94117647058823
28164,Gaston County,NC,NA,73.28519855595668,NA
28210,Mecklenburg County,NC,NA,NA,59.29411764705882
28277,Mecklenburg County,NC,39.20765027322404,NA,NA
28306,Bladen County,NC,NA,22.382671480144403,NA
28348,Cumberland County,NC,22.950819672131146,NA,NA
28371,Robeson County,NC,NA,NA,93.88235294117648
28376,Hoke County,NC,22.6775956284153,NA,NA
28382,Sampson County,NC,91.2568306010929,NA,NA
28401,New Hanover County,NC,NA,31.40794223826715,NA
28451,Brunswick County,NC,29.37158469945355,NA,NA
28472,Columbus County,NC,62.97814207650273,NA,NA
28518,Duplin County,NC,87.1584699453552,NA,NA
28560,Craven County,NC,NA,NA,36.705882352941174
28570,Carteret County,NC,84.69945355191257,NA,NA
28613,Catawba County,NC,NA,66.06498194945848,NA
28677,Iredell County,NC,NA,NA,20.941176470588236
28681,Alexander County,NC,NA,NA,26.11764705882353
28754,Madison County,NC,NA,97.83393501805054,NA
28803,Buncombe County,NC,57.650273224043715,NA,NA
28906,Cherokee County,NC,NA,59.92779783393502,NA
58078,Cass County,ND,8.469945355191257,NA,NA
58104,Cass County,ND,NA,30.685920577617328,39.294117647058826
58203,Grand Forks County,ND,NA,NA,60.47058823529412
58501,Burleigh County,ND,41.12021857923497,NA,NA
43015,Delaware County,OH,7.5136612021857925,NA,NA
43021,Delaware County,OH,88.11475409836066,NA,NA
43035,Delaware County,OH,5.601092896174864,NA,NA
43055,Licking County,OH,3.1420765027322406,NA,NA
43078,Champaign County,OH,54.91803278688525,NA,NA
43110,Franklin County,OH,0.9562841530054645,8.664259927797833,NA
43140,Madison County,OH,NA,NA,43.76470588235294
43201,Franklin County,OH,67.07650273224044,NA,NA
43207,Franklin County,OH,0.819672131147541,NA,NA
43221,Franklin County,OH,NA,NA,72
43229,Franklin County,OH,0,NA,12
43232,Franklin County,OH,0.4098360655737705,NA,NA
43302,Marion County,OH,NA,NA,38.82352941176471
43450,Wood County,OH,95.21857923497268,NA,NA
43560,Lucas County,OH,NA,NA,31.294117647058822
43607,Lucas County,OH,NA,35.018050541516246,NA
43615,Lucas County,OH,4.098360655737705,NA,NA
43910,Jefferson County,OH,96.17486338797814,NA,NA
43952,Jefferson County,OH,NA,39.71119133574007,NA
44004,Ashtabula County,OH,NA,NA,4
44012,Lorain County,OH,NA,57.03971119133574,NA
44030,Ashtabula County,OH,NA,NA,29.411764705882355
44041,Ashtabula County,OH,NA,32.12996389891697,NA
44050,Lorain County,OH,NA,NA,78.82352941176471
44060,Lake County,OH,NA,NA,36.470588235294116
44077,Lake County,OH,NA,19.133574007220215,5.88235294117647
44089,Erie County,OH,NA,NA,44
44095,Lake County,OH,6.147540983606557,NA,25.176470588235293
44102,Cuyahoga County,OH,NA,1.083032490974729,NA
44105,Cuyahoga County,OH,NA,NA,11.529411764705882
44109,Cuyahoga County,OH,NA,NA,0.9411764705882352
44110,Cuyahoga County,OH,NA,20.938628158844764,NA
44112,Cuyahoga County,OH,NA,NA,58.11764705882353
44115,Cuyahoga County,OH,NA,29.602888086642597,NA
44121,Cuyahoga County,OH,13.25136612021858,NA,NA
44122,Cuyahoga County,OH,63.934426229508205,NA,NA
44124,Cuyahoga County,OH,15.437158469945356,NA,NA
44125,Cuyahoga County,OH,NA,NA,2.3529411764705883
44135,Cuyahoga County,OH,NA,NA,4.705882352941177
44145,Cuyahoga County,OH,12.704918032786885,NA,NA
44202,Portage County,OH,44.53551912568306,NA,NA
44231,Portage County,OH,91.66666666666666,NA,NA
44241,Portage County,OH,61.885245901639344,NA,NA
44256,Medina County,OH,NA,NA,7.0588235294117645
44307,Summit County,OH,NA,NA,52.94117647058824
44310,Summit County,OH,19.262295081967213,NA,NA
44312,Summit County,OH,33.33333333333333,NA,NA
44420,Trumbull County,OH,NA,NA,44.470588235294116
44444,Trumbull County,OH,NA,71.84115523465704,NA
44481,Trumbull County,OH,NA,NA,67.05882352941175
44512,Mahoning County,OH,9.01639344262295,45.48736462093863,NA
44514,Mahoning County,OH,NA,NA,53.88235294117647
44601,Stark County,OH,4.508196721311475,NA,NA
44704,Stark County,OH,93.0327868852459,NA,NA
44706,Stark County,OH,71.85792349726776,NA,NA
44709,Stark County,OH,15.983606557377051,NA,NA
44805,Ashland County,OH,NA,22.021660649819495,NA
44842,Ashland County,OH,94.53551912568307,NA,NA
44857,Huron County,OH,16.530054644808743,NA,NA
45011,Butler County,OH,0.6830601092896175,NA,NA
72405,NA,NA,98.90710382513662,NA,NA
45013,Butler County,OH,NA,NA,5.647058823529412
45044,Butler County,OH,1.5027322404371584,NA,NA
45066,Warren County,OH,70.76502732240438,NA,NA
45123,Highland County,OH,56.830601092896174,NA,NA
45133,Highland County,OH,NA,NA,26.588235294117645
45154,Brown County,OH,NA,41.87725631768953,NA
45215,Hamilton County,OH,53.551912568306015,NA,NA
45216,Hamilton County,OH,47.540983606557376,NA,NA
45224,Hamilton County,OH,35.10928961748634,NA,NA
45231,Hamilton County,OH,NA,NA,13.411764705882353
45244,Hamilton County,OH,52.322404371584696,NA,NA
45248,Hamilton County,OH,47.13114754098361,NA,NA
45342,Montgomery County,OH,6.147540983606557,NA,NA
45356,Miami County,OH,2.5956284153005464,NA,NA
45373,Miami County,OH,5.46448087431694,NA,NA
45385,Greene County,OH,NA,21.299638989169676,NA
45402,Montgomery County,OH,NA,NA,61.64705882352941
45406,Montgomery County,OH,NA,16.60649819494585,NA
45420,Montgomery County,OH,NA,26.353790613718413,NA
45429,Montgomery County,OH,66.53005464480874,NA,NA
45601,Ross County,OH,NA,NA,1.647058823529412
45623,Gallia County,OH,NA,38.98916967509025,NA
45656,Jackson County,OH,NA,52.707581227436826,NA
45662,Scioto County,OH,NA,5.776173285198556,NA
45669,Lawrence County,OH,30.87431693989071,NA,NA
45742,Washington County,OH,95.21857923497268,NA,NA
45764,Athens County,OH,78.27868852459017,NA,NA
45805,Allen County,OH,NA,33.57400722021661,NA
75072,NA,NA,NA,NA,85.1764705882353
45822,Mercer County,OH,NA,25.63176895306859,NA
45895,Auglaize County,OH,70.3551912568306,NA,NA
73008,Oklahoma County,OK,11.885245901639344,NA,NA
73099,Canadian County,OK,NA,NA,18.823529411764707
73401,Carter County,OK,25,NA,NA
73533,Stephens County,OK,NA,42.96028880866426,NA
73717,Woods County,OK,NA,96.028880866426,NA
73942,Texas County,OK,78.82513661202186,NA,NA
74010,Creek County,OK,NA,NA,91.05882352941177
74012,Tulsa County,OK,12.158469945355192,NA,NA
74030,Creek County,OK,99.04371584699454,NA,NA
74047,Tulsa County,OK,97.26775956284153,NA,NA
74106,Tulsa County,OK,NA,61.73285198555957,NA
74145,Tulsa County,OK,47.6775956284153,NA,NA
74146,Tulsa County,OK,NA,NA,70.82352941176471
74429,Wagoner County,OK,NA,86.28158844765343,NA
74571,Le Flore County,OK,NA,81.2274368231047,NA
74601,Kay County,OK,56.4207650273224,NA,NA
74801,Pottawatomie County,OK,34.83606557377049,55.23465703971119,NA
74868,Seminole County,OK,NA,69.31407942238266,NA
74884,Seminole County,OK,77.45901639344262,NA,NA
74948,Sequoyah County,OK,NA,NA,88.94117647058823
97006,Washington County,OR,NA,80.86642599277978,NA
97056,Columbia County,OR,89.34426229508196,NA,NA
97060,Multnomah County,OR,76.63934426229508,NA,NA
97062,Washington County,OR,NA,NA,66.3529411764706
97080,Multnomah County,OR,38.25136612021858,NA,NA
97115,Yamhill County,OR,98.08743169398907,NA,NA
97123,Washington County,OR,NA,36.8231046931408,NA
97128,Yamhill County,OR,72.54098360655738,NA,NA
97202,Multnomah County,OR,NA,NA,35.05882352941177
97233,Multnomah County,OR,8.333333333333332,NA,NA
97266,Multnomah County,OR,NA,47.292418772563174,NA
97415,Curry County,OR,95.21857923497268,NA,NA
97502,Jackson County,OR,NA,63.898916967509024,NA
97756,Deschutes County,OR,NA,54.151624548736464,NA
97838,Umatilla County,OR,59.42622950819673,NA,NA
97862,Umatilla County,OR,NA,NA,68.23529411764706
15010,Beaver County,PA,35.24590163934426,NA,NA
15066,Beaver County,PA,NA,69.67509025270758,NA
15102,Allegheny County,PA,NA,NA,69.41176470588235
15120,Allegheny County,PA,NA,NA,51.76470588235295
15136,Allegheny County,PA,NA,NA,37.64705882352941
15209,Allegheny County,PA,75.68306010928961,NA,NA
15236,Allegheny County,PA,9.836065573770492,NA,NA
15301,Washington County,PA,NA,21.299638989169676,NA
15401,Fayette County,PA,NA,27.436823104693143,NA
15537,Bedford County,PA,NA,79.78339350180505,NA
15644,Westmoreland County,PA,56.4207650273224,NA,67.29411764705883
15670,Westmoreland County,PA,NA,NA,98.82352941176471
15701,Indiana County,PA,58.606557377049185,NA,NA
15853,Elk County,PA,NA,76.89530685920577,NA
15901,Cambria County,PA,NA,NA,86.58823529411764
15906,Cambria County,PA,NA,NA,62.588235294117645
16002,Butler County,PA,71.99453551912568,NA,NA
16057,Butler County,PA,NA,94.22382671480143,71.52941176470588
16117,Lawrence County,PA,62.97814207650273,NA,NA
16201,Armstrong County,PA,68.98907103825137,NA,NA
16301,Venango County,PA,NA,NA,53.64705882352941
16508,Erie County,PA,NA,NA,58.58823529411765
16602,Blair County,PA,34.15300546448087,NA,NA
16830,Clearfield County,PA,NA,NA,36.23529411764706
17013,Cumberland County,PA,57.240437158469945,NA,NA
17044,Mifflin County,PA,NA,51.26353790613718,NA
17315,York County,PA,53.14207650273224,NA,NA
17325,Adams County,PA,34.97267759562842,NA,NA
17512,Lancaster County,PA,28.005464480874316,NA,NA
17603,Lancaster County,PA,14.754098360655737,NA,14.823529411764705
17701,Lycoming County,PA,NA,NA,8.705882352941176
17702,Lycoming County,PA,NA,NA,81.64705882352942
17844,Union County,PA,91.2568306010929,NA,NA
18015,Northampton County,PA,NA,NA,14.117647058823529
18017,Northampton County,PA,NA,26.353790613718413,NA
18018,Lehigh County,PA,NA,NA,29.64705882352941
18080,Lehigh County,PA,NA,NA,52.470588235294116
18201,Luzerne County,PA,NA,NA,24
18252,Schuylkill County,PA,73.36065573770492,NA,NA
18337,Pike County,PA,94.53551912568307,NA,NA
18428,Pike County,PA,NA,NA,80.94117647058823
18634,Luzerne County,PA,NA,NA,49.88235294117647
18704,Luzerne County,PA,NA,NA,22.11764705882353
18848,Bradford County,PA,80.05464480874316,NA,NA
18940,Bucks County,PA,64.20765027322405,NA,NA
18966,Bucks County,PA,NA,NA,54.11764705882353
18974,Bucks County,PA,NA,NA,27.52941176470588
19013,Delaware County,PA,12.158469945355192,NA,6.588235294117648
19047,Bucks County,PA,NA,NA,64.94117647058823
19053,Bucks County,PA,75.68306010928961,NA,NA
19055,Bucks County,PA,76.775956284153,NA,NA
19056,Bucks County,PA,70.49180327868852,NA,NA
19061,Delaware County,PA,NA,51.985559566786996,NA
19064,Delaware County,PA,9.699453551912567,NA,NA
19081,Delaware County,PA,84.97267759562843,NA,NA
19082,Delaware County,PA,13.797814207650273,NA,NA
19103,Philadelphia County,PA,93.5792349726776,NA,NA
19114,Philadelphia County,PA,65.57377049180327,NA,NA
19118,Philadelphia County,PA,92.89617486338798,NA,NA
19124,Philadelphia County,PA,NA,5.054151624548736,NA
19130,Philadelphia County,PA,NA,NA,77.17647058823529
19133,Philadelphia County,PA,NA,NA,20.705882352941178
19134,Philadelphia County,PA,NA,NA,4.470588235294118
19135,Philadelphia County,PA,15.163934426229508,18.050541516245488,NA
19139,Philadelphia County,PA,NA,NA,7.294117647058823
19140,Philadelphia County,PA,1.2295081967213115,6.859205776173286,NA
19144,Philadelphia County,PA,NA,NA,9.176470588235293
19147,Philadelphia County,PA,78.27868852459017,NA,NA
19335,Chester County,PA,17.076502732240435,NA,NA
19355,Chester County,PA,61.885245901639344,NA,NA
19363,Chester County,PA,NA,NA,64
19380,Chester County,PA,NA,NA,17.41176470588235
19401,Montgomery County,PA,NA,33.2129963898917,NA
19438,Montgomery County,PA,84.42622950819673,NA,NA
19601,Berks County,PA,NA,NA,4.941176470588235
19604,Berks County,PA,62.568306010928964,NA,NA
19607,Berks County,PA,NA,70.3971119133574,NA
02895,Providence County,RI,NA,NA,17.647058823529413
29061,Richland County,SC,NA,71.48014440433214,NA
29063,Richland County,SC,70.49180327868852,NA,NA
29205,Richland County,SC,77.73224043715847,NA,NA
29365,Spartanburg County,SC,58.060109289617486,NA,NA
29505,Florence County,SC,NA,86.28158844765343,NA
29536,Dillon County,SC,NA,44.04332129963899,NA
29581,Horry County,SC,NA,85.5595667870036,NA
29644,Greenville County,SC,NA,NA,57.41176470588235
29661,Greenville County,SC,NA,NA,89.88235294117646
29682,Pickens County,SC,NA,NA,99.29411764705883
29730,York County,SC,NA,NA,23.52941176470588
29745,York County,SC,NA,NA,57.88235294117647
57103,Minnehaha County,SD,NA,49.81949458483754,NA
57106,Minnehaha County,SD,25.273224043715846,NA,NA
57201,Codington County,SD,76.36612021857924,NA,NA
37036,Dickson County,TN,96.72131147540983,NA,NA
37042,Montgomery County,TN,NA,34.29602888086642,NA
37075,Sumner County,TN,38.66120218579235,NA,NA
37076,Davidson County,TN,NA,NA,42.8235294117647
37091,Marshall County,TN,57.240437158469945,NA,NA
37128,Rutherford County,TN,NA,NA,35.294117647058826
37166,DeKalb County,TN,NA,NA,65.64705882352942
37167,Rutherford County,TN,NA,NA,34.11764705882353
37172,Robertson County,TN,45.21857923497268,NA,NA
37205,Davidson County,TN,91.12021857923497,NA,NA
37363,Hamilton County,TN,44.94535519125683,NA,NA
37388,Coffee County,TN,NA,NA,40.705882352941174
37398,Franklin County,TN,81.69398907103826,NA,NA
37407,Hamilton County,TN,NA,59.205776173285194,NA
37415,Hamilton County,TN,60.38251366120219,NA,NA
37641,Greene County,TN,84.56284153005464,NA,NA
37659,Washington County,TN,43.71584699453552,NA,NA
37664,Sullivan County,TN,39.20765027322404,NA,NA
37840,Roane County,TN,NA,NA,80
37918,Knox County,TN,10.245901639344263,NA,NA
38002,Shelby County,TN,NA,72.20216606498195,NA
38024,Dyer County,TN,36.20218579234973,NA,NA
38039,Hardeman County,TN,NA,82.67148014440433,NA
38107,Shelby County,TN,NA,NA,48.94117647058824
38115,Shelby County,TN,NA,38.628158844765345,NA
38126,Shelby County,TN,90.43715846994536,NA,NA
38343,Gibson County,TN,69.12568306010928,NA,NA
38351,Henderson County,TN,13.661202185792352,NA,NA
38501,Putnam County,TN,26.229508196721312,NA,NA
75019,Dallas County,TX,53.96174863387978,NA,NA
75033,,TX,NA,NA,73.88235294117646
75035,Collin County,TX,29.6448087431694,NA,NA
75038,Dallas County,TX,60.92896174863388,NA,NA
75043,Dallas County,TX,NA,NA,24.47058823529412
75051,Dallas County,TX,44.53551912568306,NA,NA
75070,Collin County,TX,8.19672131147541,NA,NA
75074,Collin County,TX,18.0327868852459,NA,60.23529411764705
75075,Collin County,TX,40.43715846994536,NA,NA
75077,Denton County,TX,NA,70.3971119133574,NA
75126,Kaufman County,TX,NA,NA,39.76470588235294
75149,Dallas County,TX,2.8688524590163933,NA,NA
75150,Dallas County,TX,18.852459016393443,NA,NA
75173,Collin County,TX,99.4535519125683,NA,NA
75180,Dallas County,TX,52.322404371584696,NA,NA
75209,Dallas County,TX,NA,87.36462093862815,NA
75401,Hunt County,TX,NA,58.12274368231047,NA
75455,Titus County,TX,NA,35.37906137184115,NA
75474,Hunt County,TX,NA,48.73646209386281,NA
75482,Hopkins County,TX,43.169398907103826,NA,NA
75551,Cass County,TX,81.14754098360656,NA,NA
75602,Gregg County,TX,18.579234972677597,NA,NA
75604,Gregg County,TX,56.14754098360656,NA,NA
75638,Morris County,TX,80.60109289617486,NA,NA
75702,Smith County,TX,NA,NA,45.1764705882353
75707,Smith County,TX,30.327868852459016,NA,NA
75951,Jasper County,TX,NA,NA,56.00000000000001
76008,Parker County,TX,NA,NA,82.82352941176471
76012,Tarrant County,TX,23.497267759562842,NA,NA
76014,Tarrant County,TX,NA,NA,54.58823529411765
76028,Johnson County,TX,NA,NA,46.35294117647059
76063,Tarrant County,TX,2.73224043715847,NA,NA
76116,Tarrant County,TX,NA,23.465703971119133,NA
76119,Tarrant County,TX,2.3224043715846996,NA,NA
76126,Tarrant County,TX,NA,87.72563176895306,NA
76131,Tarrant County,TX,15.983606557377051,NA,NA
76205,Denton County,TX,80.05464480874316,NA,NA
76209,Denton County,TX,NA,NA,83.76470588235294
76244,Tarrant County,TX,6.693989071038252,NA,NA
76262,Denton County,TX,49.45355191256831,NA,NA
76448,Eastland County,TX,99.86338797814209,NA,NA
76711,McLennan County,TX,NA,NA,89.41176470588236
76950,Sutton County,TX,NA,NA,98.3529411764706
77039,Harris County,TX,47.13114754098361,NA,NA
77042,Harris County,TX,NA,66.06498194945848,78.58823529411765
77061,Harris County,TX,41.53005464480874,NA,NA
77075,Harris County,TX,59.15300546448088,NA,NA
77077,Harris County,TX,NA,NA,52
77084,Harris County,TX,11.475409836065573,NA,NA
77089,Harris County,TX,NA,NA,51.294117647058826
77093,Harris County,TX,35.92896174863388,NA,NA
77357,Montgomery County,TX,53.14207650273224,NA,NA
77433,Harris County,TX,5.8743169398907105,NA,NA
77503,Harris County,TX,65.1639344262295,NA,NA
77536,Harris County,TX,46.58469945355191,NA,NA
77587,Harris County,TX,76.91256830601093,NA,NA
77598,Harris County,TX,50.13661202185792,NA,NA
77642,Jefferson County,TX,11.065573770491802,NA,NA
77662,Orange County,TX,36.33879781420765,NA,NA
77803,Brazos County,TX,19.672131147540984,NA,NA
77859,Robertson County,TX,77.73224043715847,NA,NA
78015,Bexar County,TX,NA,NA,94.82352941176471
78041,Webb County,TX,65.02732240437157,NA,NA
78073,Bexar County,TX,81.14754098360656,NA,NA
78109,Bexar County,TX,24.726775956284154,NA,NA
78130,Comal County,TX,19.53551912568306,NA,NA
78223,Bexar County,TX,NA,17.328519855595665,NA
78233,Bexar County,TX,18.989071038251364,NA,NA
78237,Bexar County,TX,16.256830601092894,NA,NA
78240,Bexar County,TX,55.87431693989071,NA,NA
78253,Bexar County,TX,19.398907103825135,NA,NA
78380,Nueces County,TX,NA,64.62093862815884,NA
78382,Aransas County,TX,87.56830601092896,NA,NA
78416,Nueces County,TX,80.46448087431693,NA,NA
78503,Hidalgo County,TX,83.19672131147541,NA,NA
78504,Hidalgo County,TX,39.61748633879781,NA,NA
78516,Hidalgo County,TX,18.169398907103826,NA,NA
78542,Hidalgo County,TX,NA,1.8050541516245486,NA
78572,Hidalgo County,TX,18.169398907103826,NA,NA
78574,Hidalgo County,TX,10.655737704918032,NA,NA
78577,Hidalgo County,TX,8.743169398907105,NA,NA
78602,Bastrop County,TX,NA,NA,68.47058823529412
78641,Williamson County,TX,32.51366120218579,NA,NA
78648,Caldwell County,TX,NA,80.14440433212997,NA
78729,Williamson County,TX,71.58469945355192,NA,NA
79331,Dawson County,TX,NA,NA,77.64705882352942
79403,Lubbock County,TX,45.62841530054645,NA,NA
79412,Lubbock County,TX,84.01639344262296,NA,NA
79605,Taylor County,TX,9.562841530054644,NA,NA
79720,Howard County,TX,56.830601092896174,NA,NA
79735,Pecos County,TX,NA,NA,75.76470588235294
79904,El Paso County,TX,45.21857923497268,NA,NA
79905,El Paso County,TX,82.24043715846994,NA,NA
79925,El Paso County,TX,45.49180327868852,NA,NA
84009,Salt Lake County,UT,50.68306010928961,NA,NA
84020,Salt Lake County,UT,31.967213114754102,NA,NA
84043,Utah County,UT,15.846994535519126,NA,NA
84057,Utah County,UT,60.92896174863388,NA,NA
84074,Tooele County,UT,1.366120218579235,NA,7.529411764705881
84081,Salt Lake County,UT,14.344262295081966,NA,NA
84094,Salt Lake County,UT,26.639344262295083,NA,NA
84119,Salt Lake County,UT,11.748633879781421,NA,NA
84120,Salt Lake County,UT,8.60655737704918,NA,NA
84128,Salt Lake County,UT,29.918032786885245,NA,NA
84401,Weber County,UT,NA,NA,49.64705882352941
84404,Weber County,UT,NA,NA,27.058823529411764
84770,Washington County,UT,43.5792349726776,NA,NA
05446,Chittenden County,VT,74.31693989071039,NA,NA
20105,Loudoun County,VA,71.58469945355192,NA,NA
20120,Fairfax County,VA,64.48087431693989,NA,59.529411764705884
20124,Fairfax County,VA,NA,NA,95.76470588235294
20164,Loudoun County,VA,NA,NA,51.05882352941177
20165,Loudoun County,VA,88.11475409836066,NA,NA
20166,Loudoun County,VA,NA,NA,95.52941176470588
22041,Fairfax County,VA,NA,NA,76.94117647058823
22152,Fairfax County,VA,NA,96.75090252707581,NA
22153,Fairfax County,VA,NA,NA,66.11764705882352
22182,Fairfax County,VA,NA,NA,71.29411764705881
22191,Prince William County,VA,5.737704918032787,11.191335740072201,NA
22193,Prince William County,VA,NA,NA,18.58823529411765
22205,Arlington County,VA,NA,NA,96.47058823529412
22207,Arlington County,VA,NA,NA,59.76470588235294
22312,Fairfax County,VA,33.60655737704918,NA,NA
22314,Alexandria city,VA,NA,NA,39.05882352941176
22551,Spotsylvania County,VA,NA,NA,87.29411764705883
22630,Warren County,VA,NA,NA,31.529411764705884
22642,Warren County,VA,96.99453551912568,NA,NA
22655,Frederick County,VA,72.95081967213115,NA,NA
22701,Culpeper County,VA,NA,NA,32.70588235294118
22827,Rockingham County,VA,NA,NA,80.23529411764706
23024,Louisa County,VA,63.52459016393443,NA,NA
23228,Henrico County,VA,48.63387978142077,NA,NA
23229,Henrico County,VA,NA,63.1768953068592,NA
23231,Henrico County,VA,NA,22.743682310469314,NA
23452,Virginia Beach city,VA,NA,25.27075812274368,NA
23453,Virginia Beach city,VA,50.68306010928961,NA,NA
23502,Norfolk city,VA,NA,NA,42.58823529411765
23513,Norfolk city,VA,75,35.74007220216607,NA
23607,Newport News city,VA,NA,NA,24.941176470588236
23666,Hampton city,VA,35.79234972677596,NA,NA
23707,Portsmouth city,VA,NA,41.87725631768953,NA
23875,Prince George County,VA,NA,67.50902527075813,NA
24104,Bedford County,VA,97.54098360655738,NA,NA
24136,Giles County,VA,96.99453551912568,NA,NA
24153,Salem city,VA,33.19672131147541,NA,NA
24354,Smyth County,VA,65.1639344262295,NA,NA
24368,Wythe County,VA,88.52459016393442,NA,NA
24523,Bedford County,VA,NA,70.3971119133574,NA
24630,Tazewell County,VA,85.10928961748634,NA,NA
98008,King County,WA,48.49726775956284,NA,NA
98024,King County,WA,99.18032786885246,NA,NA
98028,King County,WA,55.05464480874317,NA,NA
98032,King County,WA,NA,NA,49.88235294117647
98092,King County,WA,11.475409836065573,NA,NA
98107,King County,WA,NA,NA,74.82352941176471
98203,Snohomish County,WA,NA,77.9783393501805,NA
98258,Snohomish County,WA,11.33879781420765,NA,NA
98273,Skagit County,WA,NA,23.826714801444044,NA
98367,Kitsap County,WA,NA,NA,55.294117647058826
98374,Pierce County,WA,27.732240437158467,NA,NA
98404,Pierce County,WA,NA,NA,40.94117647058824
98665,Clark County,WA,NA,NA,84.94117647058823
98683,Clark County,WA,87.97814207650273,NA,NA
98684,Clark County,WA,NA,74.36823104693141,NA
98908,Yakima County,WA,NA,64.25992779783394,NA
99016,Spokane County,WA,NA,98.19494584837545,NA
99326,Franklin County,WA,96.72131147540983,NA,NA
99337,Benton County,WA,20.3551912568306,NA,NA
99354,Benton County,WA,23.224043715846996,NA,NA
20001,District of Columbia,DC,NA,NA,26.823529411764707
20002,District of Columbia,DC,NA,NA,10.352941176470589
20018,District of Columbia,DC,88.3879781420765,NA,NA
20019,District of Columbia,DC,NA,15.162454873646208,NA
20020,District of Columbia,DC,NA,9.747292418772563,NA
24901,Greenbrier County,WV,93.44262295081968,NA,NA
25177,Kanawha County,WV,26.366120218579237,NA,NA
25312,Kanawha County,WV,NA,74.72924187725631,NA
25401,Berkeley County,WV,61.74863387978142,NA,NA
25443,Jefferson County,WV,NA,NA,94.58823529411765
25504,Cabell County,WV,NA,NA,63.52941176470588
25570,Wayne County,WV,NA,NA,79.05882352941175
26003,Ohio County,WV,NA,NA,10.588235294117647
26041,Marshall County,WV,56.4207650273224,NA,NA
26062,Hancock County,WV,NA,NA,16.470588235294116
26101,Wood County,WV,NA,NA,9.88235294117647
26105,Wood County,WV,92.21311475409836,NA,NA
26150,Wood County,WV,NA,95.30685920577618,NA
26164,Jackson County,WV,68.30601092896174,NA,NA
26301,Harrison County,WV,NA,NA,12.941176470588237
26354,Taylor County,WV,NA,NA,55.76470588235294
26416,Barbour County,WV,NA,NA,81.88235294117648
26501,Monongalia County,WV,NA,NA,22.58823529411765
26505,Monongalia County,WV,NA,72.92418772563177,NA
53040,Washington County,WI,NA,NA,96
53066,Waukesha County,WI,53.551912568306015,NA,46.82352941176471
53072,Waukesha County,WI,40.30054644808743,NA,NA
53089,Waukesha County,WI,50.13661202185792,NA,NA
53110,Milwaukee County,WI,37.704918032786885,NA,NA
53142,Kenosha County,WI,NA,NA,15.294117647058824
53144,Kenosha County,WI,10.10928961748634,NA,NA
53185,Racine County,WI,NA,NA,65.88235294117646
53207,Milwaukee County,WI,NA,NA,33.1764705882353
53208,Milwaukee County,WI,NA,20.216606498194945,NA
53214,Milwaukee County,WI,NA,NA,16.941176470588236
53218,Milwaukee County,WI,3.415300546448088,NA,NA
53225,Milwaukee County,WI,7.103825136612022,NA,NA
53403,Racine County,WI,81.14754098360656,NA,NA
53406,Racine County,WI,7.377049180327869,NA,NA
53704,Dane County,WI,21.44808743169399,NA,NA
53705,Dane County,WI,NA,NA,58.82352941176471
54017,St. Croix County,WI,30.601092896174865,NA,NA
54143,Marinette County,WI,NA,NA,54.8235294117647
54165,Outagamie County,WI,87.43169398907104,NA,NA
54171,Oconto County,WI,NA,NA,99.52941176470588
54220,Manitowoc County,WI,6.967213114754098,68.23104693140795,NA
54703,Eau Claire County,WI,NA,NA,27.294117647058826
54720,Eau Claire County,WI,92.07650273224044,NA,NA
54812,Barron County,WI,NA,90.61371841155234,NA
54880,Douglas County,WI,0.546448087431694,NA,NA
54901,Winnebago County,WI,NA,89.53068592057761,NA
54911,Outagamie County,WI,61.885245901639344,NA,NA
82435,Park County,WY,NA,NA,88.23529411764706
