ZipCode,county,state,Adult,Retirement
35117,Jefferson County,AL,90.21739130434783,NA
35126,Jefferson County,AL,57.608695652173914,NA
35211,Jefferson County,AL,19.565217391304348,NA
35603,Morgan County,AL,20.92391304347826,NA
35614,Limestone County,AL,NA,81.45161290322581
36532,Baldwin County,AL,64.40217391304348,NA
36606,Mobile County,AL,NA,78.2258064516129
85003,Maricopa County,AZ,NA,91.93548387096774
85008,Maricopa County,AZ,17.119565217391305,NA
85017,Maricopa County,AZ,35.869565217391305,NA
85019,Maricopa County,AZ,NA,70.16129032258065
85020,Maricopa County,AZ,42.119565217391305,NA
85029,Maricopa County,AZ,26.08695652173913,NA
85032,Maricopa County,AZ,NA,27.419354838709676
85043,Maricopa County,AZ,59.5108695652174,NA
85086,Maricopa County,AZ,NA,44.75806451612903
85138,Pinal County,AZ,NA,66.93548387096774
85206,Maricopa County,AZ,48.369565217391305,NA
85213,Maricopa County,AZ,67.11956521739131,NA
85301,Maricopa County,AZ,6.25,NA
85367,Yuma County,AZ,84.51086956521739,NA
85541,Gila County,AZ,52.17391304347826,NA
85648,Santa Cruz County,AZ,57.33695652173913,NA
85710,Pima County,AZ,13.586956521739129,NA
85736,Pima County,AZ,NA,97.17741935483872
72019,Saline County,AR,NA,49.596774193548384
72476,Lawrence County,AR,NA,93.54838709677419
90013,Los Angeles County,CA,NA,64.51612903225806
90020,Los Angeles County,CA,81.79347826086956,NA
90025,Los Angeles County,CA,NA,84.2741935483871
90057,Los Angeles County,CA,43.20652173913043,NA
90066,Los Angeles County,CA,NA,36.693548387096776
90094,Los Angeles County,CA,95.38043478260869,NA
90211,Los Angeles County,CA,NA,96.37096774193549
90255,Los Angeles County,CA,33.15217391304348,NA
90291,Los Angeles County,CA,NA,59.2741935483871
90601,Los Angeles County,CA,60.05434782608695,NA
90744,Los Angeles County,CA,NA,59.67741935483871
91201,Los Angeles County,CA,NA,68.14516129032258
91352,Los Angeles County,CA,27.98913043478261,NA
91355,Los Angeles County,CA,76.3586956521739,NA
91722,Los Angeles County,CA,74.72826086956522,NA
92019,San Diego County,CA,48.91304347826087,NA
92025,San Diego County,CA,50,NA
92139,San Diego County,CA,90.48913043478261,NA
92240,Riverside County,CA,NA,41.12903225806452
92346,San Bernardino County,CA,30.706521739130434,NA
92627,Orange County,CA,58.96739130434783,NA
92651,Orange County,CA,NA,51.61290322580645
92703,Orange County,CA,NA,57.66129032258065
92807,Orange County,CA,62.77173913043478,NA
92870,Orange County,CA,40.48913043478261,NA
93257,Tulare County,CA,16.847826086956523,NA
93312,Kern County,CA,43.75,NA
93405,San Luis Obispo County,CA,NA,89.11290322580645
93451,San Luis Obispo County,CA,98.36956521739131,NA
93455,Santa Barbara County,CA,NA,32.25806451612903
93535,Los Angeles County,CA,13.858695652173914,NA
93550,Los Angeles County,CA,NA,50
94015,San Mateo County,CA,NA,14.516129032258066
94518,Contra Costa County,CA,80.43478260869566,NA
94538,Alameda County,CA,NA,48.38709677419355
94585,Solano County,CA,82.88043478260869,NA
94597,Contra Costa County,CA,76.90217391304348,NA
94705,Alameda County,CA,NA,89.91935483870968
95338,Mariposa County,CA,NA,68.95161290322581
95340,Merced County,CA,38.858695652173914,NA
95354,Stanislaus County,CA,NA,58.46774193548387
95355,Stanislaus County,CA,12.228260869565217,NA
95376,San Joaquin County,CA,NA,39.516129032258064
95608,Sacramento County,CA,NA,22.58064516129032
95819,Sacramento County,CA,94.56521739130434,NA
95926,Butte County,CA,37.5,NA
80007,Jefferson County,CO,89.94565217391305,NA
80020,Broomfield County,CO,NA,37.5
80223,Denver County,CO,68.47826086956522,NA
80234,Adams County,CO,67.93478260869566,NA
80621,Weld County,CO,77.98913043478261,NA
80634,Weld County,CO,NA,0.8064516129032258
80905,El Paso County,CO,NA,78.62903225806451
80910,El Paso County,CO,27.173913043478258,NA
81212,Fremont County,CO,44.83695652173913,NA
06052,Hartford County,CT,NA,88.30645161290323
06106,Hartford County,CT,6.521739130434782,NA
06112,Hartford County,CT,21.467391304347828,NA
06114,Hartford County,CT,NA,52.016129032258064
32034,Nassau County,FL,92.93478260869566,NA
32073,Clay County,FL,88.58695652173914,NA
32110,Flagler County,FL,74.45652173913044,NA
32136,Flagler County,FL,NA,72.98387096774194
32137,Flagler County,FL,NA,10.483870967741936
32333,Gadsden County,FL,NA,80.24193548387096
32428,Washington County,FL,59.2391304347826,NA
32438,Bay County,FL,95.65217391304348,NA
32605,Alachua County,FL,92.3913043478261,NA
32668,Levy County,FL,NA,81.04838709677419
32724,Volusia County,FL,59.78260869565217,NA
32901,Brevard County,FL,60.597826086956516,NA
32955,Brevard County,FL,52.71739130434783,NA
33040,Monroe County,FL,NA,45.96774193548387
33065,Broward County,FL,NA,53.62903225806451
33161,Miami-Dade County,FL,38.04347826086957,NA
33312,Broward County,FL,NA,22.177419354838708
33321,Broward County,FL,60.86956521739131,NA
33323,Broward County,FL,82.06521739130434,NA
33510,Hillsborough County,FL,60.86956521739131,NA
33525,Pasco County,FL,75.27173913043478,NA
33594,Hillsborough County,FL,NA,56.85483870967742
33705,Pinellas County,FL,31.793478260869566,NA
33710,Pinellas County,FL,52.9891304347826,NA
34287,Sarasota County,FL,NA,31.451612903225808
34471,Marion County,FL,57.065217391304344,NA
34610,Pasco County,FL,72.28260869565217,NA
34786,Orange County,FL,62.22826086956522,NA
30013,Rockdale County,GA,48.641304347826086,86.29032258064517
30038,DeKalb County,GA,47.28260869565217,NA
30052,Walton County,GA,23.097826086956523,NA
30067,Cobb County,GA,NA,67.74193548387096
30087,DeKalb County,GA,66.84782608695652,NA
30132,Paulding County,GA,37.22826086956522,NA
30161,Floyd County,GA,23.641304347826086,NA
30180,Carroll County,GA,25.815217391304344,NA
30188,Cherokee County,GA,NA,20.967741935483872
30238,Clayton County,GA,58.152173913043484,NA
30319,DeKalb County,GA,75.54347826086956,NA
30349,Fulton County,GA,11.141304347826086,NA
30512,Union County,GA,NA,53.2258064516129
30518,Gwinnett County,GA,NA,38.70967741935484
30529,Jackson County,GA,NA,85.88709677419355
30549,Jackson County,GA,78.53260869565217,NA
31015,Crisp County,GA,50.54347826086957,NA
31061,Baldwin County,GA,NA,29.435483870967744
31091,Dooly County,GA,99.45652173913044,NA
31204,Bibb County,GA,NA,30.241935483870968
31321,Bryan County,GA,NA,95.56451612903226
31326,Effingham County,GA,68.75,NA
31558,Camden County,GA,NA,65.7258064516129
31601,Lowndes County,GA,28.804347826086957,NA
96797,Honolulu County,HI,NA,8.870967741935484
83301,Twin Falls County,ID,4.891304347826087,NA
83338,Jerome County,ID,NA,61.693548387096776
83404,Bonneville County,ID,NA,79.83870967741935
60010,Lake County,IL,75.81521739130434,NA
60142,McHenry County,IL,46.73913043478261,NA
60152,McHenry County,IL,NA,56.451612903225815
60202,Cook County,IL,65.21739130434783,NA
60409,Cook County,IL,33.69565217391305,NA
60411,Cook County,IL,16.57608695652174,NA
60607,Cook County,IL,51.902173913043484,NA
60626,Cook County,IL,NA,10.080645161290322
60634,Cook County,IL,NA,12.903225806451612
60640,Cook County,IL,12.771739130434783,NA
60915,Kankakee County,IL,86.1413043478261,NA
61610,Tazewell County,IL,96.73913043478261,NA
61745,McLean County,IL,95.92391304347827,NA
62010,Madison County,IL,80.16304347826086,NA
62035,Madison County,IL,NA,83.87096774193549
62702,Sangamon County,IL,29.347826086956523,NA
46072,Tipton County,IN,79.61956521739131,NA
46151,Morgan County,IN,89.13043478260869,NA
46201,Marion County,IN,NA,38.306451612903224
46323,Lake County,IN,NA,21.370967741935484
46327,Lake County,IN,NA,58.87096774193549
46350,LaPorte County,IN,13.31521739130435,NA
46530,St. Joseph County,IN,80.70652173913044,NA
46703,Steuben County,IN,55.70652173913043,NA
46809,Allen County,IN,NA,71.7741935483871
46819,Allen County,IN,NA,72.17741935483872
47042,Ripley County,IN,98.6413043478261,NA
47421,Lawrence County,IN,37.77173913043478,NA
47803,Vigo County,IN,NA,100
50309,Polk County,IA,64.94565217391305,NA
50315,Polk County,IA,12.5,NA
51031,Plymouth County,IA,83.69565217391305,NA
51334,Emmet County,IA,71.46739130434783,NA
51501,Pottawattamie County,IA,3.804347826086957,16.129032258064516
52632,Lee County,IA,44.565217391304344,NA
66212,Johnson County,KS,61.95652173913043,NA
66214,Johnson County,KS,NA,82.66129032258065
67212,Sedgwick County,KS,69.02173913043478,NA
67526,Barton County,KS,NA,99.59677419354838
40204,Jefferson County,KY,79.8913043478261,NA
40215,Jefferson County,KY,NA,47.17741935483871
40223,Jefferson County,KY,NA,48.79032258064516
40228,Jefferson County,KY,71.19565217391305,NA
40324,Scott County,KY,67.3913043478261,NA
40353,Montgomery County,KY,24.728260869565215,NA
40475,Madison County,KY,11.41304347826087,NA
40503,Fayette County,KY,73.09782608695652,NA
41314,Owsley County,KY,92.11956521739131,NA
41858,Letcher County,KY,63.58695652173913,NA
42101,Warren County,KY,NA,20.161290322580644
42171,Warren County,KY,83.15217391304348,NA
42240,Christian County,KY,8.152173913043478,NA
70003,Jefferson Parish,LA,81.52173913043478,NA
70072,Jefferson Parish,LA,NA,4.435483870967742
70345,Lafourche Parish,LA,49.45652173913043,NA
70448,St. Tammany Parish,LA,43.47826086956522,NA
70506,Lafayette Parish,LA,29.6195652173913,NA
70583,Lafayette Parish,LA,51.08695652173913,NA
70601,Calcasieu Parish,LA,NA,12.5
70611,Calcasieu Parish,LA,32.065217391304344,NA
70737,Ascension Parish,LA,8.967391304347826,NA
71115,Caddo Parish,LA,80.97826086956522,NA
71235,Lincoln Parish,LA,NA,97.98387096774194
71351,Avoyelles Parish,LA,35.05434782608695,NA
71446,Vernon Parish,LA,NA,42.33870967741936
04210,Androscoggin County,ME,NA,14.112903225806454
04240,Androscoggin County,ME,2.1739130434782608,NA
04468,Penobscot County,ME,73.6413043478261,NA
04938,Franklin County,ME,54.347826086956516,NA
04950,Somerset County,ME,77.44565217391305,NA
04957,Somerset County,ME,78.26086956521739,NA
20685,Calvert County,MD,95.1086956521739,NA
20705,Prince George's County,MD,81.25,NA
20770,Prince George's County,MD,78.80434782608695,NA
21028,Harford County,MD,98.91304347826086,NA
21208,Baltimore County,MD,NA,37.096774193548384
21220,Baltimore County,MD,23.369565217391305,NA
21742,Washington County,MD,NA,69.75806451612904
01035,Hampshire County,MA,NA,93.14516129032258
01082,Hampshire County,MA,NA,41.935483870967744
01085,Hampden County,MA,NA,2.4193548387096775
01109,Hampden County,MA,0.2717391304347826,NA
01235,Berkshire County,MA,99.72826086956522,NA
01420,Worcester County,MA,0.5434782608695652,NA
01757,Worcester County,MA,2.4456521739130435,NA
01803,Middlesex County,MA,NA,6.854838709677419
01826,Middlesex County,MA,NA,4.032258064516129
01844,Essex County,MA,NA,5.241935483870968
01969,Essex County,MA,NA,80.64516129032258
02072,Norfolk County,MA,NA,12.096774193548388
02115,Suffolk County,MA,7.880434782608696,NA
02119,Suffolk County,MA,NA,0
02124,Suffolk County,MA,0,NA
02127,Suffolk County,MA,NA,40.32258064516129
02472,Middlesex County,MA,NA,9.67741935483871
02632,Barnstable County,MA,NA,52.82258064516129
02744,Bristol County,MA,14.673913043478262,NA
02779,Bristol County,MA,NA,69.35483870967742
48025,Oakland County,MI,NA,61.29032258064516
48081,Macomb County,MI,NA,26.209677419354836
48088,Macomb County,MI,NA,26.61290322580645
48111,Wayne County,MI,NA,8.46774193548387
48124,Wayne County,MI,NA,25.806451612903224
48138,Wayne County,MI,NA,60.483870967741936
48161,Monroe County,MI,10.054347826086957,NA
48188,Wayne County,MI,NA,10.887096774193548
48197,Washtenaw County,MI,2.717391304347826,NA
48223,Wayne County,MI,16.304347826086957,NA
48307,Oakland County,MI,NA,24.193548387096776
48383,Oakland County,MI,96.46739130434783,NA
48418,Shiawassee County,MI,NA,99.19354838709677
48506,Genesee County,MI,26.358695652173914,NA
48603,Saginaw County,MI,16.032608695652172,13.709677419354838
48622,Clare County,MI,94.83695652173914,NA
48739,Iosco County,MI,86.68478260869566,NA
48746,Tuscola County,MI,NA,75
48911,Ingham County,MI,8.423913043478262,NA
49036,Branch County,MI,31.521739130434785,NA
49203,Jackson County,MI,10.326086956521738,NA
49286,Lenawee County,MI,NA,50.403225806451616
49343,Kent County,MI,98.09782608695652,81.85483870967742
49348,Allegan County,MI,36.141304347826086,NA
49442,Muskegon County,MI,4.076086956521739,NA
49456,Ottawa County,MI,NA,28.62903225806452
49464,Ottawa County,MI,55.434782608695656,NA
49548,Kent County,MI,NA,18.548387096774192
49677,Osceola County,MI,70.38043478260869,NA
49707,Alpena County,MI,34.51086956521739,NA
49783,Chippewa County,MI,23.91304347826087,NA
49829,Delta County,MI,36.95652173913043,NA
49849,Marquette County,MI,49.72826086956522,NA
55347,Hennepin County,MN,NA,62.903225806451616
55387,Carver County,MN,NA,94.75806451612904
55427,Hennepin County,MN,NA,62.5
55435,Hennepin County,MN,85.32608695652173,NA
55792,St. Louis County,MN,39.67391304347826,NA
55807,St. Louis County,MN,50.27173913043478,NA
56187,Nobles County,MN,NA,43.54838709677419
56470,Hubbard County,MN,72.82608695652173,NA
38701,Washington County,MS,NA,64.11290322580645
39503,Harrison County,MS,14.402173913043478,NA
63112,St. Louis city,MO,NA,66.53225806451613
64014,Jackson County,MO,NA,35.483870967741936
64030,Jackson County,MO,22.554347826086957,NA
64055,Jackson County,MO,NA,11.29032258064516
64111,Jackson County,MO,NA,50.403225806451616
64424,Harrison County,MO,NA,83.06451612903226
65301,Pettis County,MO,5.163043478260869,NA
59044,Yellowstone County,MT,NA,93.95161290322581
59301,Custer County,MT,NA,70.56451612903226
68059,Sarpy County,NE,100,NA
68130,Douglas County,NE,NA,74.59677419354838
68949,Phelps County,NE,NA,91.93548387096774
89121,Clark County,NV,31.25,NA
89123,Clark County,NV,56.25,NA
89406,Churchill County,NV,45.92391304347826,NA
89410,Douglas County,NV,86.95652173913044,NA
89429,Lyon County,NV,NA,85.08064516129032
89506,Washoe County,NV,NA,33.064516129032256
89511,Washoe County,NV,NA,28.225806451612907
03079,Rockingham County,NH,18.75,NA
07003,Essex County,NJ,NA,98.79032258064517
07071,Bergen County,NJ,71.73913043478261,NA
07110,Essex County,NJ,NA,58.06451612903226
07470,Passaic County,NJ,20.380434782608695,6.451612903225806
07728,Monmouth County,NJ,18.206521739130434,NA
08050,Ocean County,NJ,NA,35.88709677419355
08054,Burlington County,NJ,NA,18.951612903225808
08059,Camden County,NJ,94.02173913043478,NA
08105,Camden County,NJ,85.05434782608695,NA
08527,Ocean County,NJ,13.043478260869565,9.274193548387096
08755,Ocean County,NJ,61.41304347826087,NA
08879,Middlesex County,NJ,NA,57.25806451612904
87105,Bernalillo County,NM,NA,6.048387096774194
87547,,NM,NA,79.03225806451613
88210,Eddy County,NM,46.73913043478261,NA
88260,Lea County,NM,44.83695652173913,NA
10309,Richmond County,NY,64.67391304347827,NA
10469,Bronx County,NY,3.532608695652174,NA
10474,Bronx County,NY,NA,90.32258064516128
10927,Rockland County,NY,88.8586956521739,NA
11106,Queens County,NY,54.61956521739131,NA
11211,Kings County,NY,17.391304347826086,NA
11788,Suffolk County,NY,NA,77.41935483870968
12189,Albany County,NY,44.02173913043478,NA
12202,Albany County,NY,NA,62.096774193548384
12206,Albany County,NY,55.97826086956522,NA
12401,Ulster County,NY,24.184782608695652,NA
12414,Greene County,NY,NA,41.53225806451613
12953,Franklin County,NY,22.82608695652174,NA
13021,Cayuga County,NY,NA,1.6129032258064515
13077,Cortland County,NY,65.48913043478261,NA
13471,Oneida County,NY,NA,95.96774193548387
13601,Jefferson County,NY,5.706521739130435,NA
13790,Broome County,NY,NA,11.693548387096774
13803,Cortland County,NY,82.06521739130434,NA
14094,Niagara County,NY,NA,2.82258064516129
14125,Genesee County,NY,NA,95.16129032258065
14207,Erie County,NY,55.16304347826087,NA
14215,Erie County,NY,1.9021739130434785,NA
14218,Erie County,NY,53.53260869565217,NA
14225,Erie County,NY,11.956521739130435,NA
14450,Monroe County,NY,64.13043478260869,NA
14502,Wayne County,NY,30.978260869565215,NA
14624,Monroe County,NY,NA,2.0161290322580645
14706,Cattaraugus County,NY,NA,63.306451612903224
14845,Chemung County,NY,NA,29.03225806451613
27320,Rockingham County,NC,15.217391304347828,NA
27406,Guilford County,NC,5.434782608695652,NA
27455,Guilford County,NC,79.34782608695652,NA
27517,Orange County,NC,NA,87.09677419354838
27520,Johnston County,NC,35.32608695652174,NA
27565,Granville County,NC,25.543478260869566,NA
27589,Warren County,NC,NA,89.51612903225806
27603,Wake County,NC,25,NA
27606,Wake County,NC,NA,50.403225806451616
27889,Beaufort County,NC,34.78260869565217,NA
28034,Gaston County,NC,47.55434782608695,NA
28147,Rowan County,NC,35.59782608695652,NA
28365,Wayne County,NC,85.86956521739131,NA
28540,Onslow County,NC,28.532608695652172,NA
28604,Watauga County,NC,NA,68.54838709677419
28610,Catawba County,NC,82.6086956521739,NA
28655,Burke County,NC,6.7934782608695645,NA
28716,Haywood County,NC,NA,44.354838709677416
28752,McDowell County,NC,19.293478260869566,NA
28779,Jackson County,NC,90.76086956521739,NA
28804,Buncombe County,NC,84.23913043478261,NA
28906,Cherokee County,NC,51.63043478260869,29.435483870967744
43050,Knox County,OH,9.239130434782608,NA
43055,Licking County,OH,1.6304347826086956,NA
43078,Champaign County,OH,NA,73.38709677419355
43080,Licking County,OH,NA,91.12903225806451
43140,Madison County,OH,40.21739130434783,NA
43229,Franklin County,OH,7.336956521739131,42.74193548387097
43311,Logan County,OH,33.42391304347826,NA
43560,Lucas County,OH,27.445652173913043,NA
43606,Lucas County,OH,NA,33.87096774193548
43613,Lucas County,OH,4.619565217391304,NA
43614,Lucas County,OH,41.03260869565217,NA
43623,Lucas County,OH,29.891304347826086,NA
43701,Muskingum County,OH,1.358695652173913,NA
43725,Guernsey County,OH,17.66304347826087,NA
43952,Jefferson County,OH,9.782608695652174,NA
44050,Lorain County,OH,76.63043478260869,NA
44077,Lake County,OH,4.3478260869565215,NA
44109,Cuyahoga County,OH,0.8152173913043478,NA
44133,Cuyahoga County,OH,30.16304347826087,NA
44139,Cuyahoga County,OH,77.17391304347827,NA
44217,Wayne County,OH,99.18478260869566,NA
44321,Summit County,OH,NA,47.17741935483871
44420,Trumbull County,OH,NA,55.24193548387096
44646,Stark County,OH,NA,17.338709677419356
44683,Tuscarawas County,OH,28.26086956521739,NA
44691,Wayne County,OH,33.96739130434783,NA
44857,Huron County,OH,60.32608695652174,NA
45005,Warren County,OH,NA,55.64516129032258
45011,Butler County,OH,2.989130434782609,NA
45013,Butler County,OH,NA,4.838709677419355
45140,Clermont County,OH,NA,19.35483870967742
45150,Clermont County,OH,39.67391304347826,NA
45227,Hamilton County,OH,NA,49.193548387096776
45239,Hamilton County,OH,20.652173913043477,NA
45322,Montgomery County,OH,NA,52.41935483870967
45331,Darke County,OH,29.076086956521742,NA
45335,Greene County,OH,NA,91.53225806451613
45365,Shelby County,OH,45.380434782608695,18.14516129032258
45371,Miami County,OH,NA,23.387096774193548
45403,Montgomery County,OH,NA,77.82258064516128
45417,Montgomery County,OH,11.684782608695652,NA
45439,Montgomery County,OH,NA,76.20967741935483
45440,Montgomery County,OH,NA,90.7258064516129
45601,Ross County,OH,1.0869565217391304,NA
45631,Gallia County,OH,NA,14.919354838709678
45801,Allen County,OH,NA,25
45840,Hancock County,OH,NA,3.6290322580645165
45875,Putnam County,OH,73.91304347826086,NA
45895,Auglaize County,OH,NA,35.08064516129033
73013,Oklahoma County,OK,NA,13.306451612903224
73105,Oklahoma County,OK,93.47826086956522,NA
73107,Oklahoma County,OK,56.52173913043478,NA
73160,Cleveland County,OK,NA,7.258064516129033
73162,Oklahoma County,OK,52.44565217391305,NA
73750,Kingfisher County,OK,88.31521739130434,NA
74006,Washington County,OK,NA,73.79032258064517
74429,Wagoner County,OK,NA,74.19354838709677
97030,Multnomah County,OR,21.73913043478261,NA
97038,Clackamas County,OR,NA,83.46774193548387
97141,Tillamook County,OR,69.02173913043478,NA
97209,Multnomah County,OR,41.84782608695652,NA
97213,Multnomah County,OR,NA,92.74193548387096
97220,Multnomah County,OR,NA,31.85483870967742
97233,Multnomah County,OR,19.83695652173913,NA
97239,Multnomah County,OR,NA,72.58064516129032
97330,Benton County,OR,54.07608695652174,NA
97365,Lincoln County,OR,NA,85.48387096774194
97386,Linn County,OR,50.815217391304344,NA
97471,Douglas County,OR,NA,8.064516129032258
97913,Malheur County,OR,93.20652173913044,NA
15010,Beaver County,PA,NA,27.82258064516129
15012,Westmoreland County,PA,NA,54.43548387096774
15132,Allegheny County,PA,15.760869565217392,NA
15208,Allegheny County,PA,58.69565217391305,NA
15210,Allegheny County,PA,17.934782608695652,NA
15239,Allegheny County,PA,84.51086956521739,NA
15370,Greene County,PA,53.2608695652174,NA
15644,Westmoreland County,PA,65.76086956521739,NA
15946,Cambria County,PA,NA,86.69354838709677
16066,Butler County,PA,NA,43.95161290322581
16510,Erie County,PA,NA,46.37096774193548
17042,Lebanon County,PA,NA,7.661290322580645
17109,Dauphin County,PA,NA,53.62903225806451
17112,Dauphin County,PA,21.195652173913043,NA
17340,Adams County,PA,75.81521739130434,NA
17403,York County,PA,NA,67.33870967741935
18702,Luzerne County,PA,9.510869565217392,NA
19020,Bucks County,PA,10.869565217391305,NA
19026,Delaware County,PA,22.01086956521739,NA
19041,Delaware County,PA,NA,98.38709677419355
19063,Delaware County,PA,NA,16.93548387096774
19082,Delaware County,PA,14.945652173913043,NA
19124,Philadelphia County,PA,NA,15.32258064516129
19141,Philadelphia County,PA,10.597826086956522,20.56451612903226
19444,Montgomery County,PA,87.5,NA
19460,Chester County,PA,92.66304347826086,25.403225806451612
02816,Kent County,RI,66.03260869565217,NA
02831,Providence County,RI,97.82608695652173,NA
02852,Washington County,RI,47.55434782608695,NA
02904,Providence County,RI,36.684782608695656,NA
02919,Providence County,RI,44.29347826086957,NA
29102,Clarendon County,SC,83.15217391304348,NA
29210,Richland County,SC,46.46739130434783,NA
29445,Berkeley County,SC,26.902173913043477,NA
29456,Dorchester County,SC,38.58695652173913,NA
29464,Charleston County,SC,NA,24.596774193548388
29571,Marion County,SC,73.36956521739131,NA
29692,Laurens County,SC,91.57608695652173,NA
29730,York County,SC,NA,39.91935483870967
29842,Aiken County,SC,89.40217391304348,NA
37040,Montgomery County,TN,26.6304347826087,NA
37061,Houston County,TN,NA,94.35483870967742
37075,Sumner County,TN,20.108695652173914,NA
37076,Davidson County,TN,38.315217391304344,NA
37138,Davidson County,TN,53.80434782608695,NA
37207,Davidson County,TN,NA,30.64516129032258
37218,Davidson County,TN,54.61956521739131,NA
37303,McMinn County,TN,25.271739130434785,NA
37331,McMinn County,TN,NA,76.61290322580645
37334,Lincoln County,TN,39.40217391304348,NA
37367,Bledsoe County,TN,69.56521739130434,63.70967741935484
37716,Anderson County,TN,41.57608695652174,NA
37801,Blount County,TN,18.478260869565215,NA
37804,Blount County,TN,NA,21.774193548387096
37825,Claiborne County,TN,87.77173913043478,NA
37830,Anderson County,TN,NA,27.016129032258064
37841,Scott County,TN,77.71739130434783,NA
37879,Claiborne County,TN,56.52173913043478,NA
37885,Monroe County,TN,97.55434782608695,NA
37932,Knox County,TN,NA,64.91935483870968
37934,Knox County,TN,NA,45.564516129032256
38023,Tipton County,TN,97.01086956521739,NA
38116,Shelby County,TN,NA,33.46774193548387
75020,Grayson County,TX,49.184782608695656,NA
75035,Collin County,TX,42.391304347826086,NA
75042,Dallas County,TX,68.20652173913044,NA
75075,Collin County,TX,69.83695652173914,NA
75189,Rockwall County,TX,48.09782608695652,NA
75474,Hunt County,TX,NA,60.08064516129033
75803,Anderson County,TX,70.1086956521739,NA
76020,Tarrant County,TX,32.608695652173914,NA
76022,Tarrant County,TX,NA,97.58064516129032
76031,Johnson County,TX,NA,54.83870967741935
76053,Tarrant County,TX,45.65217391304348,NA
76060,Tarrant County,TX,91.84782608695652,NA
76106,Tarrant County,TX,NA,23.790322580645164
76134,Tarrant County,TX,30.434782608695656,NA
76227,Denton County,TX,70.65217391304348,NA
76567,Milam County,TX,85.59782608695652,NA
76667,Limestone County,TX,63.04347826086957,NA
77003,Harris County,TX,83.96739130434783,NA
77029,Harris County,TX,73.91304347826086,NA
77040,Harris County,TX,NA,31.048387096774192
77094,Harris County,TX,NA,96.7741935483871
77381,Montgomery County,TX,72.55434782608695,NA
77384,Montgomery County,TX,NA,88.70967741935483
77414,Matagorda County,TX,NA,75.40322580645162
77469,Fort Bend County,TX,NA,37.903225806451616
77471,Fort Bend County,TX,42.66304347826087,NA
77479,Fort Bend County,TX,86.41304347826086,NA
77502,Harris County,TX,57.608695652173914,NA
77536,Harris County,TX,42.934782608695656,NA
77539,Galveston County,TX,NA,46.774193548387096
77651,Jefferson County,TX,NA,70.56451612903226
78041,Webb County,TX,40.76086956521739,NA
78045,Webb County,TX,NA,36.29032258064516
78227,Bexar County,TX,NA,56.048387096774185
78405,Nueces County,TX,NA,84.67741935483872
78574,Hidalgo County,TX,39.130434782608695,NA
78613,Williamson County,TX,36.41304347826087,NA
78703,Travis County,TX,86.95652173913044,NA
79109,Randall County,TX,NA,47.983870967741936
79605,Taylor County,TX,NA,43.145161290322584
79928,El Paso County,TX,51.358695652173914,NA
84015,Davis County,UT,24.456521739130434,NA
84118,Salt Lake County,UT,22.282608695652172,NA
84129,,UT,32.880434782608695,NA
84302,Box Elder County,UT,79.07608695652173,NA
05301,Windham County,VT,66.30434782608695,NA
05443,Addison County,VT,94.29347826086956,NA
20147,Loudoun County,VA,41.03260869565217,NA
20171,Fairfax County,VA,NA,71.37096774193549
22182,Fairfax County,VA,70.92391304347827,NA
22203,Arlington County,VA,NA,77.01612903225806
22206,Arlington County,VA,63.04347826086957,NA
22405,Stafford County,VA,62.22826086956522,NA
22601,Winchester city,VA,NA,39.11290322580645
23114,Chesterfield County,VA,NA,66.12903225806451
23226,Richmond city,VA,NA,60.88709677419355
23294,Henrico County,VA,NA,87.90322580645162
23666,Hampton city,VA,NA,15.725806451612904
23692,York County,VA,97.28260869565217,NA
24055,Henry County,VA,67.66304347826086,NA
24073,Montgomery County,VA,46.19565217391305,NA
98008,King County,WA,88.04347826086956,NA
98023,King County,WA,27.717391304347828,NA
98042,King County,WA,NA,16.532258064516128
98146,King County,WA,NA,34.274193548387096
98221,Skagit County,WA,NA,22.983870967741936
98274,Skagit County,WA,NA,45.16129032258064
98391,Pierce County,WA,NA,17.741935483870968
98446,Pierce County,WA,89.67391304347827,NA
98501,Thurston County,WA,NA,40.725806451612904
98642,Clark County,WA,93.75,NA
98826,Chelan County,WA,NA,75.80645161290323
98903,Yakima County,WA,75,NA
98930,Yakima County,WA,NA,79.43548387096774
99202,Spokane County,WA,66.30434782608695,NA
99344,Adams County,WA,91.03260869565217,NA
99354,Benton County,WA,NA,32.66129032258064
24701,Mercer County,WV,32.33695652173913,NA
25312,Kanawha County,WV,72.01086956521739,NA
26003,Ohio County,WV,NA,3.225806451612903
26062,Hancock County,WV,15.489130434782608,NA
26505,Monongalia County,WV,14.130434782608695,NA
53130,Milwaukee County,WI,NA,87.5
53189,Waukesha County,WI,NA,65.32258064516128
53204,Milwaukee County,WI,8.695652173913043,NA
53205,Milwaukee County,WI,3.260869565217391,NA
53209,Milwaukee County,WI,NA,1.2096774193548387
53215,Milwaukee County,WI,5.978260869565218,5.64516129032258
53216,Milwaukee County,WI,7.608695652173914,NA
53222,Milwaukee County,WI,61.684782608695656,NA
53402,Racine County,WI,7.065217391304348,NA
53511,Rock County,WI,NA,0.4032258064516129
53711,Dane County,WI,NA,19.758064516129032
53805,Grant County,WI,96.19565217391305,NA
54115,Brown County,WI,NA,34.67741935483871
54130,Outagamie County,WI,63.858695652173914,NA
54494,Wood County,WI,34.23913043478261,NA
54728,Barron County,WI,91.30434782608695,NA
54840,Burnett County,WI,NA,82.25806451612904
54902,Winnebago County,WI,58.42391304347826,NA
54935,Fond du Lac County,WI,19.021739130434785,NA
