ZipCode,county,state,Adult,Retirement,Geriatric
35080,Shelby County,AL,61.82669789227167,NA,NA
35151,Talladega County,AL,NA,85.07462686567165,NA
35405,Tuscaloosa County,AL,8.430913348946136,NA,NA
35406,Tuscaloosa County,AL,NA,NA,99.079754601227
35475,Tuscaloosa County,AL,51.52224824355972,NA,NA
35563,Marion County,AL,91.10070257611241,NA,NA
35601,Morgan County,AL,NA,12.769485903814262,31.595092024539877
35630,Lauderdale County,AL,NA,33.001658374792704,NA
35653,Franklin County,AL,79.85948477751757,NA,NA
36105,Montgomery County,AL,NA,84.07960199004975,NA
36116,Montgomery County,AL,56.440281030444964,NA,NA
36117,Montgomery County,AL,NA,34.82587064676617,NA
36207,Calhoun County,AL,NA,60.3648424543947,NA
36305,Houston County,AL,60.421545667447305,NA,NA
36535,Baldwin County,AL,NA,20.563847429519072,NA
36605,Mobile County,AL,74.47306791569088,50.74626865671642,NA
36608,Mobile County,AL,77.75175644028103,48.92205638474295,NA
36703,Dallas County,AL,64.63700234192038,NA,NA
36801,Lee County,AL,63.46604215456675,NA,NA
36867,Russell County,AL,NA,NA,64.7239263803681
99603,Kenai Peninsula Borough,AK,79.62529274004683,NA,NA
85013,Maricopa County,AZ,NA,66.00331674958541,NA
85017,Maricopa County,AZ,NA,71.64179104477611,NA
85018,Maricopa County,AZ,NA,36.48424543946932,54.29447852760736
85019,Maricopa County,AZ,39.34426229508197,NA,NA
85031,Maricopa County,AZ,NA,66.33499170812604,NA
85032,Maricopa County,AZ,46.13583138173302,NA,NA
85035,Maricopa County,AZ,NA,NA,84.3558282208589
85083,Maricopa County,AZ,81.73302107728337,NA,NA
85087,Maricopa County,AZ,NA,NA,98.77300613496932
85123,Pinal County,AZ,NA,NA,87.11656441717791
85193,Pinal County,AZ,NA,NA,100
85205,Maricopa County,AZ,NA,NA,23.92638036809816
85209,Maricopa County,AZ,NA,23.88059701492537,NA
85260,Maricopa County,AZ,NA,NA,75.4601226993865
85282,Maricopa County,AZ,NA,44.44444444444444,NA
85303,Maricopa County,AZ,53.62997658079626,NA,NA
85355,Maricopa County,AZ,85.48009367681499,NA,NA
85375,Maricopa County,AZ,86.65105386416862,NA,NA
85381,Maricopa County,AZ,NA,NA,45.0920245398773
85396,Maricopa County,AZ,NA,NA,96.31901840490798
85629,Pima County,AZ,74.23887587822014,NA,NA
85641,Pima County,AZ,60.88992974238876,NA,NA
85704,Pima County,AZ,NA,NA,22.699386503067483
85713,Pima County,AZ,NA,6.965174129353234,NA
85719,Pima County,AZ,NA,35.82089552238806,NA
85901,Navajo County,AZ,54.332552693208434,NA,NA
86314,Yavapai County,AZ,NA,NA,12.576687116564417
86326,Yavapai County,AZ,NA,NA,19.32515337423313
86333,Yavapai County,AZ,NA,91.04477611940298,NA
72010,White County,AR,93.91100702576112,NA,NA
72404,Craighead County,AR,NA,94.5273631840796,NA
72501,Independence County,AR,33.957845433255265,NA,NA
72560,Stone County,AR,NA,59.70149253731343,NA
72730,Washington County,AR,NA,NA,97.23926380368098
72756,Benton County,AR,NA,NA,62.26993865030674
90011,Los Angeles County,CA,NA,45.107794361525706,NA
90017,Los Angeles County,CA,NA,79.27031509121062,NA
90019,Los Angeles County,CA,NA,25.207296849087896,NA
90025,Los Angeles County,CA,NA,NA,42.63803680981595
90043,Los Angeles County,CA,NA,20.8955223880597,NA
90211,Los Angeles County,CA,NA,NA,78.52760736196319
90222,Los Angeles County,CA,NA,NA,87.42331288343557
90240,Los Angeles County,CA,NA,67.66169154228857,NA
90247,Los Angeles County,CA,NA,91.54228855721394,NA
90248,Los Angeles County,CA,NA,NA,93.86503067484662
90280,Los Angeles County,CA,NA,33.83084577114428,NA
90503,Los Angeles County,CA,NA,41.459369817578775,NA
90601,Los Angeles County,CA,NA,65.00829187396351,NA
90602,Los Angeles County,CA,NA,57.711442786069654,NA
90605,Los Angeles County,CA,NA,NA,61.963190184049076
90713,Los Angeles County,CA,NA,NA,70.5521472392638
90717,Los Angeles County,CA,NA,NA,57.668711656441715
90740,Orange County,CA,NA,42.12271973466004,NA
90808,Los Angeles County,CA,NA,40.298507462686565,NA
91107,Los Angeles County,CA,NA,NA,39.263803680981596
91316,Los Angeles County,CA,NA,79.43615257048093,NA
91331,Los Angeles County,CA,41.68618266978923,NA,NA
91351,Los Angeles County,CA,69.08665105386417,NA,NA
91356,Los Angeles County,CA,NA,NA,24.539877300613497
91367,Los Angeles County,CA,NA,NA,18.404907975460123
91710,San Bernardino County,CA,NA,17.081260364842453,NA
91741,Los Angeles County,CA,NA,NA,77.30061349693251
91745,Los Angeles County,CA,NA,NA,28.52760736196319
91765,Los Angeles County,CA,NA,NA,56.13496932515337
91773,Los Angeles County,CA,NA,NA,48.466257668711656
91784,San Bernardino County,CA,NA,48.09286898839137,NA
91941,San Diego County,CA,NA,45.77114427860697,NA
92007,San Diego County,CA,NA,NA,95.39877300613497
92057,San Diego County,CA,NA,58.2089552238806,NA
92064,San Diego County,CA,NA,34.660033167495854,NA
92067,San Diego County,CA,NA,89.55223880597015,NA
92101,San Diego County,CA,16.861826697892273,NA,NA
92102,San Diego County,CA,NA,59.20398009950249,NA
92128,San Diego County,CA,NA,NA,44.171779141104295
92243,Imperial County,CA,NA,29.021558872305143,NA
92262,Riverside County,CA,22.716627634660423,NA,NA
92276,Riverside County,CA,NA,92.03980099502488,NA
92354,San Bernardino County,CA,NA,NA,83.12883435582822
92376,San Bernardino County,CA,NA,14.593698175787729,NA
92501,Riverside County,CA,80.09367681498829,NA,NA
92586,Riverside County,CA,NA,46.26865671641791,NA
92626,Orange County,CA,NA,44.11276948590381,NA
92637,Orange County,CA,NA,29.850746268656714,NA
92656,Orange County,CA,34.19203747072599,77.9436152570481,NA
92673,Orange County,CA,NA,64.01326699834162,NA
92675,Orange County,CA,NA,76.28524046434494,40.1840490797546
92683,Orange County,CA,NA,18.24212271973466,NA
92802,Orange County,CA,57.377049180327866,NA,NA
92807,Orange County,CA,92.03747072599532,NA,NA
92835,Orange County,CA,NA,62.02321724709784,NA
92883,Riverside County,CA,NA,62.68656716417911,NA
93021,Ventura County,CA,NA,NA,79.14110429447852
93022,Ventura County,CA,NA,89.38640132669984,NA
93041,Ventura County,CA,93.6768149882904,NA,NA
93274,Tulare County,CA,6.557377049180328,NA,NA
93307,Kern County,CA,NA,15.422885572139302,NA
93561,Kern County,CA,NA,54.72636815920397,NA
93654,Fresno County,CA,NA,73.46600331674958,NA
93722,Fresno County,CA,8.899297423887589,13.266998341625207,NA
94002,San Mateo County,CA,58.78220140515222,37.47927031509121,NA
94014,San Mateo County,CA,NA,NA,11.65644171779141
94061,San Mateo County,CA,54.80093676814989,NA,NA
94062,San Mateo County,CA,NA,50.91210613598673,NA
94063,San Mateo County,CA,44.02810304449648,NA,NA
94080,San Mateo County,CA,70.02341920374707,NA,NA
94121,San Francisco County,CA,NA,NA,13.190184049079754
94303,San Mateo County,CA,63.934426229508205,NA,NA
94404,San Mateo County,CA,75.17564402810304,NA,NA
94506,Contra Costa County,CA,NA,73.6318407960199,NA
94520,Contra Costa County,CA,71.42857142857143,62.189054726368155,NA
94541,Alameda County,CA,91.80327868852459,17.5787728026534,NA
94561,Contra Costa County,CA,NA,48.59038142620232,NA
94590,Solano County,CA,NA,25.37313432835821,NA
94598,Contra Costa County,CA,81.0304449648712,NA,NA
94605,Alameda County,CA,NA,87.39635157545605,NA
94610,Alameda County,CA,NA,NA,39.87730061349693
94611,Alameda County,CA,NA,21.558872305140962,NA
94703,Alameda County,CA,NA,76.11940298507463,NA
94931,Sonoma County,CA,NA,NA,99.69325153374233
94941,Marin County,CA,NA,39.800995024875625,NA
95010,Santa Cruz County,CA,NA,87.06467661691542,NA
95037,Santa Clara County,CA,NA,31.17744610281924,NA
95117,Santa Clara County,CA,92.27166276346604,NA,NA
95120,Santa Clara County,CA,NA,NA,35.2760736196319
95121,Santa Clara County,CA,95.08196721311475,82.4212271973466,NA
95122,Santa Clara County,CA,NA,NA,74.23312883435584
95124,Santa Clara County,CA,60.65573770491803,NA,NA
95252,Calaveras County,CA,NA,NA,76.68711656441718
95336,San Joaquin County,CA,NA,NA,25.4601226993865
95338,Mariposa County,CA,NA,NA,72.39263803680981
95340,Merced County,CA,NA,NA,42.02453987730061
95350,Stanislaus County,CA,NA,66.83250414593698,NA
95351,Stanislaus County,CA,NA,36.981757877280266,NA
95355,Stanislaus County,CA,8.665105386416862,NA,26.380368098159508
95356,Stanislaus County,CA,42.15456674473068,NA,NA
95382,Stanislaus County,CA,27.166276346604217,NA,NA
95492,Sonoma County,CA,NA,57.87728026533997,NA
95540,Humboldt County,CA,NA,NA,57.36196319018405
95562,Humboldt County,CA,NA,98.67330016583747,NA
95603,Placer County,CA,NA,46.60033167495854,NA
95650,Placer County,CA,98.82903981264637,NA,NA
95658,Placer County,CA,NA,90.87893864013267,NA
95746,Placer County,CA,NA,72.80265339966833,NA
95762,El Dorado County,CA,51.75644028103045,NA,NA
95776,Yolo County,CA,87.35362997658079,NA,NA
95829,Sacramento County,CA,NA,NA,47.85276073619632
95901,Yuba County,CA,25.995316159250585,NA,NA
95948,Butte County,CA,NA,82.25538971807629,NA
95966,Butte County,CA,10.772833723653395,NA,NA
96080,Tehama County,CA,NA,NA,42.944785276073624
80005,Jefferson County,CO,62.06088992974239,NA,NA
80015,Arapahoe County,CO,20.374707259953162,NA,83.43558282208589
80120,Arapahoe County,CO,67.44730679156909,NA,NA
80211,Denver County,CO,NA,77.11442786069652,NA
80221,Adams County,CO,NA,53.39966832504146,NA
80222,Denver County,CO,NA,NA,82.20858895705521
80401,Jefferson County,CO,37.23653395784544,NA,NA
80504,Boulder County,CO,NA,23.383084577114428,NA
80602,Adams County,CO,NA,NA,97.85276073619632
80634,Weld County,CO,17.798594847775178,1.3266998341625207,NA
80644,Weld County,CO,99.76580796252928,NA,NA
81003,Pueblo County,CO,35.831381733021075,NA,NA
81005,Pueblo County,CO,NA,22.22222222222222,NA
81007,Pueblo County,CO,NA,39.30348258706468,NA
81401,Montrose County,CO,48.00936768149883,38.308457711442784,NA
81623,Garfield County,CO,90.39812646370024,NA,NA
06010,Hartford County,CT,NA,2.321724709784411,NA
06062,Hartford County,CT,61.124121779859486,NA,NA
06074,Hartford County,CT,NA,NA,27.914110429447852
06111,Hartford County,CT,38.40749414519906,NA,NA
06112,Hartford County,CT,NA,NA,62.57668711656442
06480,Middlesex County,CT,NA,93.36650082918739,NA
06511,New Haven County,CT,NA,NA,47.239263803680984
06514,New Haven County,CT,NA,30.34825870646766,NA
06515,New Haven County,CT,NA,NA,85.88957055214725
06516,New Haven County,CT,NA,3.150912106135987,NA
06850,Fairfield County,CT,NA,33.83084577114428,NA
06902,Fairfield County,CT,22.482435597189696,NA,NA
19701,New Castle County,DE,NA,15.091210613598674,NA
19720,New Castle County,DE,NA,2.8192371475953566,NA
19805,New Castle County,DE,3.747072599531616,NA,32.515337423312886
19810,New Castle County,DE,NA,NA,33.12883435582822
19958,Sussex County,DE,NA,3.482587064676617,NA
19963,Sussex County,DE,35.36299765807963,NA,NA
32025,Columbia County,FL,38.875878220140514,NA,NA
32034,Nassau County,FL,NA,7.131011608623548,NA
32054,Union County,FL,NA,NA,91.1042944785276
32086,St. Johns County,FL,NA,16.58374792703151,NA
32095,St. Johns County,FL,NA,NA,89.87730061349694
32137,Flagler County,FL,NA,NA,7.668711656441718
32162,Sumter County,FL,NA,1.658374792703151,NA
32216,Duval County,FL,NA,27.69485903814262,NA
32217,Duval County,FL,NA,45.605306799336645,NA
32233,Duval County,FL,40.749414519906324,NA,NA
32246,Duval County,FL,NA,21.724709784411278,NA
32254,Duval County,FL,48.24355971896955,NA,NA
32256,Duval County,FL,NA,35.32338308457712,NA
32303,Leon County,FL,NA,NA,56.74846625766872
32304,Leon County,FL,NA,86.06965174129353,NA
32506,Escambia County,FL,16.39344262295082,NA,14.723926380368098
32514,Escambia County,FL,59.95316159250586,NA,NA
32696,Levy County,FL,65.807962529274,NA,NA
32720,Volusia County,FL,NA,35.98673300165838,NA
32725,Volusia County,FL,36.0655737704918,NA,NA
32757,Lake County,FL,59.71896955503513,NA,NA
32771,Seminole County,FL,18.501170960187356,NA,NA
32811,Orange County,FL,NA,NA,56.44171779141104
32817,Orange County,FL,88.05620608899297,NA,75.76687116564416
32825,Orange County,FL,32.78688524590164,NA,NA
32835,Orange County,FL,NA,54.063018242122716,NA
32962,Indian River County,FL,NA,NA,25.766871165644172
33012,Miami-Dade County,FL,NA,NA,5.521472392638037
33015,Miami-Dade County,FL,NA,42.78606965174129,NA
33024,Broward County,FL,NA,NA,20.245398773006134
33034,Miami-Dade County,FL,84.30913348946136,NA,NA
33062,Broward County,FL,NA,62.852404643449425,NA
33131,Miami-Dade County,FL,NA,NA,94.78527607361963
33136,Miami-Dade County,FL,50.81967213114754,NA,NA
33147,Miami-Dade County,FL,NA,32.50414593698176,NA
33155,Miami-Dade County,FL,NA,29.35323383084577,NA
33156,Miami-Dade County,FL,NA,56.550580431177444,NA
33160,Miami-Dade County,FL,88.05620608899297,NA,NA
33167,Miami-Dade County,FL,67.68149882903981,NA,NA
33173,Miami-Dade County,FL,83.60655737704919,NA,NA
33186,Miami-Dade County,FL,52.92740046838408,NA,NA
33314,Broward County,FL,89.69555035128806,NA,NA
33316,Broward County,FL,96.72131147540983,NA,NA
33321,Broward County,FL,NA,NA,5.828220858895705
33322,Broward County,FL,NA,NA,13.496932515337424
33334,Broward County,FL,NA,52.23880597014925,NA
33406,Palm Beach County,FL,NA,80.43117744610282,NA
33411,Palm Beach County,FL,NA,19.900497512437813,NA
33437,Palm Beach County,FL,81.9672131147541,NA,NA
33460,Palm Beach County,FL,47.07259953161593,NA,NA
33472,Palm Beach County,FL,NA,NA,22.085889570552148
33543,Pasco County,FL,NA,NA,76.38036809815951
33573,Hillsborough County,FL,NA,NA,3.6809815950920246
33605,Hillsborough County,FL,NA,78.60696517412936,NA
33611,Hillsborough County,FL,NA,58.2089552238806,NA
33618,Hillsborough County,FL,NA,78.27529021558873,NA
33626,Hillsborough County,FL,NA,NA,77.60736196319019
33756,Pinellas County,FL,NA,35.65505804311774,NA
33759,Pinellas County,FL,NA,73.96351575456053,NA
33843,Polk County,FL,NA,NA,66.87116564417178
33852,Highlands County,FL,62.76346604215457,NA,NA
33884,Polk County,FL,NA,43.28358208955223,NA
33901,Lee County,FL,NA,42.45439469320066,NA
33904,Lee County,FL,NA,15.257048092868988,NA
34113,Collier County,FL,NA,83.08457711442786,NA
34119,Collier County,FL,44.26229508196721,NA,NA
34135,Lee County,FL,89.22716627634661,NA,NA
34208,Manatee County,FL,28.57142857142857,NA,NA
34210,Manatee County,FL,NA,NA,73.61963190184049
34236,Sarasota County,FL,NA,NA,16.56441717791411
34474,Marion County,FL,NA,84.24543946932008,NA
34481,Marion County,FL,95.5503512880562,NA,NA
34482,Marion County,FL,NA,61.69154228855721,NA
34606,Hernando County,FL,44.96487119437939,NA,NA
34638,Pasco County,FL,NA,88.72305140961856,NA
34691,Pasco County,FL,NA,78.93864013266997,NA
34711,Lake County,FL,23.185011709601874,NA,NA
34731,Lake County,FL,85.94847775175644,NA,NA
34972,Okeechobee County,FL,NA,74.95854063018243,NA
34986,St. Lucie County,FL,49.88290398126464,NA,NA
30004,Fulton County,GA,NA,33.16749585406302,NA
30017,Gwinnett County,GA,NA,NA,77.91411042944786
30032,DeKalb County,GA,14.285714285714285,NA,NA
30047,Gwinnett County,GA,NA,61.52570480928689,NA
30052,Walton County,GA,NA,6.799336650082918,NA
30080,Cobb County,GA,54.56674473067916,NA,NA
30087,DeKalb County,GA,NA,19.734660033167494,NA
30097,Fulton County,GA,NA,55.55555555555556,NA
30113,Haralson County,GA,NA,79.76782752902156,NA
30135,Douglas County,GA,NA,NA,43.558282208588956
30215,Fayette County,GA,93.20843091334895,NA,NA
30236,Clayton County,GA,NA,38.14262023217247,NA
30306,Fulton County,GA,NA,72.96849087893864,NA
30349,Fulton County,GA,8.19672131147541,NA,NA
30401,Emanuel County,GA,NA,64.34494195688225,NA
30527,Hall County,GA,NA,NA,95.70552147239265
30533,Lumpkin County,GA,NA,45.43946932006634,NA
30606,Clarke County,GA,NA,NA,30.67484662576687
30655,Walton County,GA,NA,NA,58.895705521472394
30906,Richmond County,GA,7.259953161592506,4.809286898839138,NA
30907,Columbia County,GA,NA,8.12603648424544,NA
31087,Hancock County,GA,84.5433255269321,NA,NA
31204,Bibb County,GA,NA,26.865671641791046,NA
31206,Bibb County,GA,31.61592505854801,NA,NA
31404,Chatham County,GA,81.26463700234193,38.47429519071311,NA
31419,Chatham County,GA,NA,30.514096185737976,NA
31503,Ware County,GA,NA,75.12437810945273,NA
31523,Glynn County,GA,NA,71.4759535655058,NA
31548,Camden County,GA,NA,93.53233830845771,NA
31709,Sumter County,GA,NA,NA,88.95705521472392
31909,Muscogee County,GA,NA,25.870646766169152,NA
96743,Hawaii County,HI,82.90398126463701,NA,NA
96789,Honolulu County,HI,NA,NA,12.883435582822086
96818,Honolulu County,HI,NA,31.8407960199005,NA
83404,Bonneville County,ID,NA,49.585406301824214,NA
83467,Lemhi County,ID,NA,67.99336650082918,NA
83605,Canyon County,ID,NA,96.18573797678275,NA
83616,Ada County,ID,50.35128805620609,NA,NA
83617,Gem County,ID,74.7072599531616,NA,NA
83647,Elmore County,ID,NA,50.08291873963516,NA
83669,Ada County,ID,87.82201405152225,NA,NA
83702,Ada County,ID,31.381733021077284,NA,NA
60010,Lake County,IL,NA,11.442786069651742,NA
60014,McHenry County,IL,26.93208430913349,NA,NA
60056,Cook County,IL,NA,NA,34.66257668711656
60062,Cook County,IL,NA,52.072968490878935,NA
60081,McHenry County,IL,74.00468384074942,NA,NA
60089,Lake County,IL,NA,39.63515754560531,NA
60091,Cook County,IL,NA,21.06135986733002,NA
60107,Cook County,IL,52.2248243559719,NA,NA
60142,McHenry County,IL,NA,NA,3.067484662576687
60152,McHenry County,IL,NA,53.233830845771145,NA
60185,DuPage County,IL,37.704918032786885,NA,NA
60401,Will County,IL,NA,76.94859038142621,NA
60404,Will County,IL,NA,40.13266998341625,NA
60409,Cook County,IL,NA,30.18242122719735,NA
60417,Will County,IL,NA,69.48590381426202,80.3680981595092
60419,Cook County,IL,78.68852459016394,NA,NA
60430,Cook County,IL,87.11943793911007,51.40961857379768,NA
60432,Will County,IL,NA,70.97844112769486,NA
60433,Will County,IL,64.87119437939111,NA,NA
60439,Cook County,IL,45.66744730679157,16.25207296849088,NA
60440,Will County,IL,NA,NA,34.96932515337423
60451,Will County,IL,NA,78.77280265339967,NA
60478,Cook County,IL,NA,NA,49.079754601226995
60527,DuPage County,IL,NA,7.79436152570481,NA
60546,Cook County,IL,48.94613583138173,NA,NA
60608,Cook County,IL,NA,11.940298507462686,NA
60615,Cook County,IL,NA,14.925373134328357,NA
60629,Cook County,IL,NA,3.6484245439469323,NA
60633,Cook County,IL,NA,NA,60.73619631901841
60634,Cook County,IL,NA,6.467661691542288,NA
60636,Cook County,IL,NA,26.036484245439468,NA
60638,Cook County,IL,9.601873536299765,NA,NA
60640,Cook County,IL,33.723653395784545,NA,NA
60641,Cook County,IL,14.988290398126464,NA,NA
60645,Cook County,IL,NA,NA,19.938650306748464
60651,Cook County,IL,NA,NA,15.337423312883436
60652,Cook County,IL,64.40281030444966,NA,NA
60653,Cook County,IL,NA,65.50580431177447,28.834355828220858
60654,Cook County,IL,NA,80.59701492537313,NA
60657,Cook County,IL,NA,90.71310116086235,NA
60659,Cook County,IL,NA,NA,44.47852760736196
60804,Cook County,IL,NA,11.11111111111111,NA
60827,Cook County,IL,NA,56.053067993366504,NA
61030,Ogle County,IL,NA,99.33665008291874,NA
61073,Winnebago County,IL,NA,37.64510779436153,NA
61277,Whiteside County,IL,NA,98.8391376451078,NA
61354,LaSalle County,IL,NA,NA,30.981595092024538
61523,Peoria County,IL,88.52459016393442,NA,NA
61610,Tazewell County,IL,NA,99.50248756218906,NA
61801,Champaign County,IL,NA,48.424543946932005,NA
61832,Vermilion County,IL,11.00702576112412,NA,NA
62002,Madison County,IL,68.38407494145198,NA,NA
62024,Madison County,IL,94.84777517564403,NA,NA
62220,St. Clair County,IL,NA,88.39137645107795,NA
62234,Madison County,IL,51.99063231850117,NA,NA
62471,Fayette County,IL,NA,56.21890547263681,NA
62521,Macon County,IL,14.519906323185012,NA,NA
62704,Sangamon County,IL,NA,NA,14.417177914110429
46074,Hamilton County,IN,NA,60.86235489220564,NA
46124,Johnson County,IN,NA,69.15422885572139,NA
46142,Johnson County,IN,NA,9.45273631840796,NA
46143,Johnson County,IN,NA,NA,31.901840490797547
46202,Marion County,IN,NA,NA,97.54601226993866
46234,Marion County,IN,NA,50.24875621890548,NA
46256,Marion County,IN,NA,41.127694859038144,NA
46268,Marion County,IN,NA,NA,32.20858895705521
46278,Marion County,IN,NA,NA,98.46625766871165
46319,Lake County,IN,29.039812646370024,NA,NA
46327,Lake County,IN,66.97892271662764,NA,NA
46360,LaPorte County,IN,NA,4.1459369817578775,NA
46526,Elkhart County,IN,NA,57.37976782752903,NA
46574,St. Joseph County,IN,NA,NA,68.09815950920245
46902,Howard County,IN,NA,NA,7.361963190184049
46933,Grant County,IN,92.50585480093677,NA,NA
46962,Wabash County,IN,95.78454332552693,NA,NA
47130,Clark County,IN,9.836065573770492,NA,NA
47150,Floyd County,IN,11.241217798594848,NA,NA
47201,Bartholomew County,IN,NA,NA,84.96932515337423
47383,Delaware County,IN,NA,100,NA
47620,Posey County,IN,NA,62.35489220563848,NA
47711,Vanderburgh County,IN,29.7423887587822,NA,NA
47712,Vanderburgh County,IN,NA,40.79601990049751,NA
50125,Warren County,IA,73.77049180327869,NA,NA
50129,Greene County,IA,NA,84.5771144278607,NA
50263,Dallas County,IA,NA,77.44610281923715,NA
50315,Polk County,IA,33.48946135831382,NA,NA
51106,Woodbury County,IA,49.414519906323186,NA,NA
52001,Dubuque County,IA,NA,59.369817578772796,NA
52002,Dubuque County,IA,NA,97.6782752902156,NA
52240,Johnson County,IA,NA,NA,27.607361963190186
52402,Linn County,IA,73.30210772833723,NA,NA
52403,Linn County,IA,NA,37.97678275290215,35.88957055214724
52627,Lee County,IA,NA,NA,52.45398773006135
52632,Lee County,IA,NA,32.83582089552239,NA
52641,Henry County,IA,NA,94.69320066334991,NA
52807,Scott County,IA,NA,79.76782752902156,NA
66002,Atchison County,KS,78.4543325526932,NA,NA
66007,Leavenworth County,KS,NA,83.74792703150912,NA
66090,Doniphan County,KS,NA,98.00995024875621,NA
66204,Johnson County,KS,75.40983606557377,NA,NA
66614,Shawnee County,KS,NA,17.744610281923716,NA
66701,Bourbon County,KS,87.58782201405153,NA,NA
67203,Sedgwick County,KS,90.1639344262295,NA,NA
67207,Sedgwick County,KS,NA,NA,78.22085889570552
67208,Sedgwick County,KS,80.32786885245902,NA,NA
67216,Sedgwick County,KS,NA,86.89883913764511,NA
67420,Mitchell County,KS,NA,NA,96.62576687116564
67502,Reno County,KS,NA,58.70646766169154,NA
67530,Barton County,KS,NA,56.882255389718075,NA
40160,Hardin County,KY,NA,54.22885572139303,NA
40211,Jefferson County,KY,NA,34.49419568822554,NA
40214,Jefferson County,KY,NA,NA,45.70552147239264
40215,Jefferson County,KY,NA,41.7910447761194,NA
40216,Jefferson County,KY,NA,9.286898839137644,NA
40223,Jefferson County,KY,70.49180327868852,NA,NA
40242,Jefferson County,KY,NA,70.64676616915423,NA
40312,Powell County,KY,NA,92.37147595356551,NA
40330,Mercer County,KY,NA,52.90215588723052,NA
40403,Madison County,KY,NA,38.80597014925373,NA
40701,Whitley County,KY,11.7096018735363,NA,NA
40741,Laurel County,KY,58.07962529274005,NA,NA
41006,Pendleton County,KY,92.7400468384075,NA,NA
41042,Boone County,KY,NA,5.638474295190713,NA
41101,Boyd County,KY,NA,NA,19.018404907975462
42003,McCracken County,KY,45.90163934426229,NA,NA
42539,Casey County,KY,NA,70.81260364842454,NA
42726,Grayson County,KY,97.18969555035129,NA,NA
70005,Jefferson Parish,LA,34.894613583138174,NA,NA
70117,Orleans Parish,LA,NA,15.422885572139302,NA
70119,Orleans Parish,LA,NA,NA,33.74233128834356
70125,Orleans Parish,LA,NA,69.32006633499171,NA
70130,Orleans Parish,LA,NA,95.52238805970148,NA
70359,Terrebonne Parish,LA,NA,71.80762852404644,NA
70363,Terrebonne Parish,LA,4.449648711943794,NA,NA
70435,St. Tammany Parish,LA,92.7400468384075,NA,NA
70438,Washington Parish,LA,NA,12.106135986733001,NA
70444,Tangipahoa Parish,LA,NA,99.00497512437812,NA
70471,St. Tammany Parish,LA,42.38875878220141,NA,NA
70507,Lafayette Parish,LA,45.19906323185012,NA,NA
70508,Lafayette Parish,LA,17.56440281030445,18.407960199004975,NA
70570,St. Landry Parish,LA,NA,8.623548922056385,NA
70791,East Baton Rouge Parish,LA,NA,27.52902155887231,NA
70809,East Baton Rouge Parish,LA,NA,NA,38.65030674846626
70810,East Baton Rouge Parish,LA,NA,77.61194029850746,NA
71037,Bossier Parish,LA,20.843091334894616,53.73134328358209,NA
71108,Caddo Parish,LA,NA,NA,74.5398773006135
71111,Bossier Parish,LA,NA,47.76119402985074,NA
71449,Sabine Parish,LA,NA,NA,85.2760736196319
04072,York County,ME,NA,NA,34.355828220858896
04074,Cumberland County,ME,NA,NA,41.41104294478527
04240,Androscoggin County,ME,2.810304449648712,NA,NA
04730,Aroostook County,ME,NA,NA,67.48466257668711
04915,Waldo County,ME,NA,33.499170812603644,NA
20737,Prince George's County,MD,NA,92.70315091210614,NA
20772,Prince George's County,MD,NA,52.40464344941957,NA
20781,Prince George's County,MD,NA,96.01990049751244,NA
20816,Montgomery County,MD,NA,NA,74.84662576687117
21133,Baltimore County,MD,NA,51.243781094527364,NA
21202,Baltimore city,MD,76.34660421545667,NA,NA
21209,Baltimore County,MD,67.21311475409836,NA,NA
21214,Baltimore city,MD,NA,NA,61.65644171779141
21215,Baltimore city,MD,7.962529274004685,NA,NA
21217,Baltimore city,MD,NA,15.92039800995025,NA
21239,Baltimore city,MD,33.021077283372364,NA,NA
21701,Frederick County,MD,61.35831381733021,NA,NA
21742,Washington County,MD,NA,NA,37.73006134969325
21788,Frederick County,MD,NA,88.55721393034825,NA
01013,Hampden County,MA,NA,11.774461028192372,NA
01020,Hampden County,MA,NA,NA,14.11042944785276
01062,Hampshire County,MA,77.28337236533957,NA,NA
01069,Hampden County,MA,NA,40.298507462686565,NA
01118,Hampden County,MA,NA,57.54560530679934,NA
01220,Berkshire County,MA,NA,72.4709784411277,NA
01453,Worcester County,MA,NA,0.33167495854063017,NA
01475,Worcester County,MA,NA,50.58043117744611,NA
01720,Middlesex County,MA,34.42622950819672,86.7330016583748,NA
01746,Middlesex County,MA,96.01873536299766,NA,NA
01752,Middlesex County,MA,NA,10.281923714759536,NA
01757,Worcester County,MA,NA,93.03482587064677,NA
01778,Middlesex County,MA,NA,48.756218905472636,NA
01801,Middlesex County,MA,NA,0.6633499170812603,0.9202453987730062
01810,Essex County,MA,14.754098360655737,NA,53.68098159509203
01821,Middlesex County,MA,NA,49.917081260364846,10.429447852760736
01843,Essex County,MA,3.9812646370023423,NA,NA
01845,Essex County,MA,NA,42.62023217247098,NA
01854,Middlesex County,MA,NA,NA,95.0920245398773
01876,Middlesex County,MA,NA,2.4875621890547266,NA
01880,Middlesex County,MA,NA,5.140961857379768,46.62576687116564
01906,Essex County,MA,NA,59.369817578772796,NA
02019,Norfolk County,MA,NA,6.633499170812604,NA
02038,Norfolk County,MA,NA,NA,27.300613496932513
02062,Norfolk County,MA,NA,8.45771144278607,NA
02066,Plymouth County,MA,NA,43.78109452736319,NA
02081,Norfolk County,MA,NA,46.93200663349917,NA
02121,Suffolk County,MA,0.468384074941452,NA,NA
02124,Suffolk County,MA,0,NA,NA
02131,Suffolk County,MA,2.3419203747072603,NA,NA
02132,Suffolk County,MA,NA,NA,6.441717791411043
02149,Middlesex County,MA,NA,92.53731343283582,2.7607361963190185
02150,Suffolk County,MA,0.936768149882904,NA,NA
02151,Suffolk County,MA,0.234192037470726,NA,NA
02360,Plymouth County,MA,1.1709601873536302,0.16583747927031509,NA
02420,Middlesex County,MA,NA,NA,46.62576687116564
02451,Middlesex County,MA,NA,NA,59.50920245398773
02532,Barnstable County,MA,NA,NA,50.61349693251533
02536,Barnstable County,MA,NA,11.276948590381426,NA
02563,Barnstable County,MA,NA,NA,60.42944785276073
02664,Barnstable County,MA,57.84543325526932,NA,NA
02703,Bristol County,MA,30.44496487119438,NA,NA
02721,Bristol County,MA,NA,3.9800995024875623,NA
02726,Bristol County,MA,NA,27.860696517412936,NA
02744,Bristol County,MA,NA,29.850746268656714,NA
02771,Bristol County,MA,NA,45.936981757877284,NA
48038,Macomb County,MI,NA,NA,5.214723926380368
48039,St. Clair County,MI,84.77751756440281,NA,NA
48047,Macomb County,MI,NA,NA,32.82208588957055
48060,St. Clair County,MI,NA,4.477611940298507,NA
48081,Macomb County,MI,NA,22.71973466003317,NA
48111,Wayne County,MI,48.711943793911004,NA,NA
48118,Washtenaw County,MI,NA,NA,30.061349693251532
48124,Wayne County,MI,NA,22.388059701492537,NA
48154,Wayne County,MI,26.46370023419204,NA,NA
48182,Monroe County,MI,86.18266978922716,39.46932006633499,NA
48184,Wayne County,MI,NA,23.217247097844112,NA
48186,Wayne County,MI,6.0889929742388755,NA,NA
48203,Wayne County,MI,NA,NA,38.036809815950924
48205,Wayne County,MI,NA,12.603648424543948,NA
48206,Wayne County,MI,NA,27.197346600331674,NA
48207,Wayne County,MI,NA,81.92371475953566,53.37423312883436
48213,Wayne County,MI,12.177985948477751,NA,NA
48214,Wayne County,MI,NA,23.71475953565506,NA
48220,Oakland County,MI,NA,41.956882255389715,NA
48221,Wayne County,MI,NA,28.524046434494192,3.9877300613496933
48225,Wayne County,MI,NA,85.57213930348259,NA
48229,Wayne County,MI,NA,69.65174129353234,NA
48235,Wayne County,MI,32.31850117096019,NA,NA
48314,Macomb County,MI,43.09133489461358,NA,NA
48326,Oakland County,MI,53.161592505854806,NA,NA
48331,Oakland County,MI,NA,20.066334991708125,NA
48334,Oakland County,MI,56.674473067915685,NA,39.57055214723926
48340,Oakland County,MI,NA,NA,91.71779141104295
48341,Oakland County,MI,66.7447306791569,40.96185737976783,NA
48350,Oakland County,MI,94.37939110070258,NA,NA
48356,Oakland County,MI,NA,82.08955223880598,NA
48442,Oakland County,MI,48.47775175644028,NA,NA
48503,Genesee County,MI,NA,18.076285240464347,NA
48504,Genesee County,MI,NA,41.625207296849084,NA
48616,Saginaw County,MI,NA,NA,65.33742331288343
48661,Ogemaw County,MI,90.63231850117096,54.39469320066335,NA
48706,Bay County,MI,NA,NA,4.294478527607362
48708,Bay County,MI,NA,33.66500829187397,NA
48734,Saginaw County,MI,NA,75.787728026534,NA
48813,Eaton County,MI,38.64168618266979,NA,NA
48838,Montcalm County,MI,NA,NA,70.5521472392638
48911,Ingham County,MI,6.791569086651054,NA,NA
49013,Van Buren County,MI,NA,NA,84.3558282208589
49015,Calhoun County,MI,NA,27.363184079601986,NA
49242,Hillsdale County,MI,NA,76.78275290215588,NA
49421,Oceana County,MI,82.43559718969556,NA,NA
49424,Ottawa County,MI,NA,10.11608623548922,NA
49437,Muskegon County,MI,NA,70.3150912106136,NA
49442,Muskegon County,MI,36.29976580796253,NA,NA
49456,Ottawa County,MI,NA,26.202321724709783,NA
49503,Kent County,MI,11.943793911007026,NA,NA
49508,Kent County,MI,NA,NA,11.042944785276074
49660,Manistee County,MI,NA,62.520729684908794,NA
49781,Mackinac County,MI,99.53161592505855,NA,NA
49913,Houghton County,MI,NA,NA,43.25153374233129
55051,Kanabec County,MN,NA,36.152570480928695,NA
55060,Steele County,MN,NA,28.026533996683252,NA
55066,Goodhue County,MN,NA,16.749585406301822,NA
55107,Ramsey County,MN,NA,67.66169154228857,NA
55303,Anoka County,MN,20.60889929742389,NA,NA
55304,Anoka County,MN,41.21779859484778,NA,NA
55305,Hennepin County,MN,NA,75.62189054726367,NA
55313,Wright County,MN,NA,NA,65.95092024539878
55341,Wright County,MN,NA,99.83416252072969,NA
55410,Hennepin County,MN,95.31615925058547,NA,76.07361963190185
55413,Hennepin County,MN,43.32552693208431,NA,NA
55424,Hennepin County,MN,99.29742388758783,NA,NA
55431,Hennepin County,MN,65.57377049180327,NA,NA
55441,Hennepin County,MN,NA,NA,92.33128834355828
55744,Itasca County,MN,NA,5.804311774461028,NA
55901,Olmsted County,MN,NA,NA,13.803680981595093
55981,Wabasha County,MN,97.89227166276346,NA,NA
56308,Douglas County,MN,NA,43.117744610281925,NA
56312,Stearns County,MN,NA,99.17081260364843,NA
56345,Morrison County,MN,31.147540983606557,NA,NA
56560,Clay County,MN,NA,24.70978441127695,0.6134969325153374
56701,Pennington County,MN,54.09836065573771,NA,NA
38637,DeSoto County,MS,49.414519906323186,NA,NA
38651,DeSoto County,MS,NA,92.2056384742952,NA
38671,DeSoto County,MS,NA,54.39469320066335,NA
38751,Sunflower County,MS,NA,72.636815920398,NA
38843,Itawamba County,MS,78.22014051522248,NA,NA
38851,Chickasaw County,MS,NA,90.21558872305141,NA
38967,Montgomery County,MS,NA,NA,90.1840490797546
39056,Hinds County,MS,NA,88.05970149253731,NA
39074,Scott County,MS,NA,63.018242122719734,NA
39194,Yazoo County,MS,NA,93.20066334991708,NA
39204,Hinds County,MS,75.64402810304449,NA,NA
39629,Lincoln County,MS,NA,74.29519071310115,NA
39773,Clay County,MS,NA,NA,73.92638036809815
63080,Franklin County,MO,NA,NA,50
63105,St. Louis County,MO,NA,91.708126036484245,NA
63108,St. Louis city,MO,51.05386416861827,NA,NA
63121,St. Louis County,MO,NA,49.75124378109453,NA
63122,St. Louis County,MO,NA,22.553897180762853,NA
63132,St. Louis County,MO,NA,81.09452736318407,NA
63136,St. Louis County,MO,NA,7.628524046434494,NA
63138,St. Louis County,MO,53.39578454332553,49.08789386401327,NA
63301,St. Charles County,MO,15.456674473067917,3.316749585406302,NA
63303,St. Charles County,MO,24.355971896955502,NA,NA
63304,St. Charles County,MO,NA,12.437810945273633,NA
63390,Warren County,MO,NA,NA,67.17791411042946
63501,Adair County,MO,NA,NA,90.79754601226993
63863,Dunklin County,MO,NA,NA,89.2638036809816
64011,Lafayette County,MO,NA,97.34660033167496,NA
64060,Clay County,MO,NA,64.17910447761194,NA
64080,Cass County,MO,66.51053864168618,NA,NA
64108,Jackson County,MO,NA,NA,80.67484662576688
64123,Jackson County,MO,44.730679156908664,NA,NA
64130,Jackson County,MO,NA,56.38474295190713,NA
64485,Andrew County,MO,NA,60.69651741293532,NA
64503,Buchanan County,MO,NA,NA,45.70552147239264
64506,Buchanan County,MO,NA,NA,1.5337423312883436
64507,Buchanan County,MO,28.337236533957842,NA,NA
64804,Jasper County,MO,18.969555035128806,NA,NA
64836,Jasper County,MO,72.59953161592506,NA,NA
65018,Moniteau County,MO,NA,94.85903814262024,NA
65026,Miller County,MO,NA,71.97346600331676,NA
65201,Boone County,MO,NA,NA,51.84049079754601
65202,Boone County,MO,12.646370023419204,NA,NA
65351,Saline County,MO,NA,99.66832504145937,NA
65616,Taney County,MO,NA,NA,25.153374233128833
65653,Taney County,MO,93.44262295081968,NA,NA
65706,Webster County,MO,83.8407494145199,86.40132669983416,NA
65804,Greene County,MO,NA,32.172470978441126,NA
59047,Park County,MT,79.39110070257611,NA,NA
59701,Silver Bow County,MT,68.14988290398126,NA,NA
59801,Missoula County,MT,NA,NA,59.20245398773007
68105,Douglas County,NE,NA,94.19568822553897,NA
68355,Richardson County,NE,89.92974238875878,NA,NA
69130,Dawson County,NE,NA,96.35157545605307,NA
89115,Clark County,NV,55.503512880562056,NA,NA
89122,Clark County,NV,NA,77.77777777777779,NA
89147,Clark County,NV,41.92037470725995,NA,NA
89801,Elko County,NV,NA,66.00331674958541,NA
03281,Hillsborough County,NH,NA,NA,86.80981595092024
03874,Rockingham County,NH,47.540983606557376,NA,NA
07002,Hudson County,NJ,NA,1.4925373134328357,NA
07017,Essex County,NJ,NA,67.33001658374793,NA
07071,Bergen County,NJ,NA,NA,68.40490797546013
07090,Union County,NJ,NA,64.8424543946932,NA
07092,Union County,NJ,NA,89.05472636815921,NA
07109,Essex County,NJ,NA,NA,29.754601226993866
07305,Hudson County,NJ,NA,NA,29.141104294478527
07424,Passaic County,NJ,39.578454332552695,NA,NA
07601,Bergen County,NJ,NA,4.975124378109453,NA
07730,Monmouth County,NJ,NA,44.27860696517413,NA
07734,Monmouth County,NJ,NA,69.98341625207297,NA
08054,Burlington County,NJ,NA,NA,17.177914110429448
08104,Camden County,NJ,NA,1.9900497512437811,NA
08105,Camden County,NJ,2.107728337236534,NA,NA
08226,Cape May County,NJ,NA,54.8922056384743,NA
08232,Atlantic County,NJ,5.386416861826698,NA,NA
08302,Cumberland County,NJ,NA,39.13764510779436,NA
08318,Salem County,NJ,NA,63.51575456053068,NA
08401,Atlantic County,NJ,NA,20.23217247097844,NA
08502,Somerset County,NJ,NA,95.6882255389718,NA
08618,Mercer County,NJ,1.405152224824356,NA,NA
08619,Mercer County,NJ,NA,NA,52.14723926380368
08628,Mercer County,NJ,72.36533957845434,NA,NA
08736,Monmouth County,NJ,86.88524590163934,NA,NA
08758,Ocean County,NJ,85.24590163934425,68.65671641791045,NA
08759,Ocean County,NJ,NA,1.1608623548922055,NA
87105,Bernalillo County,NM,NA,NA,15.644171779141105
87110,Bernalillo County,NM,NA,NA,11.96319018404908
87120,Bernalillo County,NM,NA,46.766169154228855,NA
87123,Bernalillo County,NM,NA,NA,15.950920245398773
87301,McKinley County,NM,NA,58.540630182421225,NA
87401,San Juan County,NM,19.20374707259953,NA,NA
88007,Doa Ana County,NM,NA,55.38971807628524,NA
88201,Chaves County,NM,NA,34.16252072968491,NA
10019,New York County,NY,NA,NA,23.31288343558282
10023,New York County,NY,NA,NA,26.68711656441718
10024,New York County,NY,55.503512880562056,NA,NA
10025,New York County,NY,NA,0.9950248756218906,3.374233128834356
10027,New York County,NY,NA,NA,92.02453987730061
10031,New York County,NY,NA,12.935323383084576,NA
10034,New York County,NY,NA,14.427860696517413,NA
10310,Richmond County,NY,NA,NA,55.52147239263804
10451,Bronx County,NY,NA,NA,7.05521472392638
10458,Bronx County,NY,0.702576112412178,NA,NA
10461,Bronx County,NY,13.348946135831383,NA,NA
10463,Bronx County,NY,7.494145199063232,NA,NA
10465,Bronx County,NY,NA,NA,20.552147239263803
10473,Bronx County,NY,NA,30.845771144278604,NA
10538,Westchester County,NY,NA,NA,69.32515337423312
10598,Westchester County,NY,98.12646370023418,NA,NA
10705,Westchester County,NY,NA,25.538971807628524,NA
10924,Orange County,NY,97.65807962529274,NA,NA
10940,Orange County,NY,47.7751756440281,NA,NA
11203,Kings County,NY,9.133489461358314,4.643449419568822,10.122699386503067
11212,Kings County,NY,NA,20.729684908789388,NA
11217,Kings County,NY,40.98360655737705,NA,NA
11221,Kings County,NY,18.735362997658083,NA,NA
11229,Kings County,NY,62.997658079625296,NA,NA
11233,Kings County,NY,2.576112412177986,NA,NA
11237,Kings County,NY,76.81498829039812,NA,NA
11238,Kings County,NY,NA,11.608623548922056,NA
11358,Queens County,NY,NA,NA,51.22699386503068
11362,Queens County,NY,NA,NA,38.34355828220859
11365,Queens County,NY,NA,74.6268656716418,NA
11373,Queens County,NY,NA,14.262023217247096,NA
11429,Queens County,NY,NA,28.689883913764515,NA
11432,Queens County,NY,NA,5.970149253731343,NA
11433,Queens County,NY,62.295081967213115,NA,NA
11434,Queens County,NY,NA,13.598673300165837,NA
11435,Queens County,NY,38.17330210772833,13.930348258706468,NA
11501,Nassau County,NY,NA,NA,92.63803680981594
11520,Nassau County,NY,NA,34.32835820895522,NA
11542,Nassau County,NY,NA,NA,36.50306748466258
11561,Nassau County,NY,NA,28.855721393034827,NA
11590,Nassau County,NY,NA,NA,23.619631901840492
11694,Queens County,NY,NA,80.76285240464345,NA
11722,Suffolk County,NY,NA,63.847429519071305,NA
11746,Suffolk County,NY,NA,38.97180762852405,NA
11772,Suffolk County,NY,NA,NA,40.49079754601227
11787,Suffolk County,NY,NA,32.66998341625207,NA
11790,Suffolk County,NY,NA,86.23548922056385,NA
11797,Nassau County,NY,NA,94.3615257048093,NA
11937,Suffolk County,NY,NA,86.56716417910447,NA
12078,Fulton County,NY,NA,60.19900497512438,NA
12204,Albany County,NY,NA,NA,73.31288343558282
12205,Albany County,NY,NA,NA,73.00613496932516
12304,Schenectady County,NY,30.913348946135834,NA,NA
12307,Schenectady County,NY,NA,95.02487562189054,NA
12533,Dutchess County,NY,NA,NA,63.49693251533742
12580,Dutchess County,NY,NA,95.35655058043118,NA
12701,Sullivan County,NY,NA,67.16417910447761,NA
13039,Onondaga County,NY,NA,63.18407960199005,NA
13073,Tompkins County,NY,NA,65.83747927031509,NA
13165,Seneca County,NY,NA,19.237147595356554,NA
13208,Onondaga County,NY,14.05152224824356,NA,NA
13210,Onondaga County,NY,NA,68.32504145936981,NA
13350,Herkimer County,NY,35.1288056206089,NA,NA
13357,Herkimer County,NY,NA,55.05804311774462,NA
13601,Jefferson County,NY,4.683840749414521,NA,NA
13697,St. Lawrence County,NY,NA,96.51741293532339,NA
14043,Erie County,NY,NA,27.031509121061358,NA
14063,Chautauqua County,NY,NA,NA,63.80368098159509
14092,Niagara County,NY,NA,46.1028192371476,NA
14145,Wyoming County,NY,NA,98.34162520729684,NA
14206,Erie County,NY,NA,25.04145936981758,NA
14210,Erie County,NY,27.634660421545664,NA,NA
14211,Erie County,NY,NA,13.764510779436154,NA
14216,Erie County,NY,NA,36.650082918739635,NA
14219,Erie County,NY,52.69320843091335,NA,NA
14221,Erie County,NY,NA,2.155887230514096,NA
14513,Wayne County,NY,4.918032786885246,NA,NA
14569,Wyoming County,NY,70.2576112412178,NA,NA
14580,Monroe County,NY,NA,0,NA
14606,Monroe County,NY,NA,8.955223880597014,NA
14609,Monroe County,NY,NA,0.8291873963515755,NA
14706,Cattaraugus County,NY,NA,84.90878938640132,NA
14755,Cattaraugus County,NY,NA,95.85406301824212,NA
14760,Cattaraugus County,NY,NA,10.44776119402985,NA
14904,Chemung County,NY,63.23185011709602,NA,NA
27021,Stokes County,NC,NA,NA,23.006134969325153
27025,Rockingham County,NC,96.4871194379391,NA,NA
27028,Davie County,NC,NA,NA,17.484662576687114
27105,Forsyth County,NC,3.0444964871194378,NA,8.282208588957054
27107,Forsyth County,NC,22.01405152224824,NA,NA
27205,Randolph County,NC,NA,NA,40.79754601226993
27262,Guilford County,NC,41.451990632318505,NA,NA
27282,Guilford County,NC,NA,73.79767827529021,NA
27298,Randolph County,NC,NA,66.99834162520729,NA
27312,Chatham County,NC,97.42388758782201,NA,NA
27317,Randolph County,NC,NA,NA,71.47239263803681
27330,Lee County,NC,NA,NA,31.28834355828221
27344,Chatham County,NC,NA,84.74295190713102,NA
27357,Rockingham County,NC,NA,NA,94.47852760736197
27370,Randolph County,NC,74.94145199063233,NA,NA
27405,Guilford County,NC,NA,9.78441127694859,NA
27513,Wake County,NC,63.70023419203748,NA,NA
27516,Orange County,NC,NA,NA,21.779141104294478
27540,Wake County,NC,NA,NA,83.43558282208589
27597,Wake County,NC,NA,83.25041459369817,NA
27804,Nash County,NC,72.1311475409836,NA,NA
27886,Edgecombe County,NC,NA,75.29021558872306,NA
27893,Wilson County,NC,NA,22.056384742951906,NA
27932,Chowan County,NC,NA,85.40630182421228,NA
27944,Perquimans County,NC,NA,50.91210613598673,NA
28012,Gaston County,NC,NA,52.57048092868989,NA
28110,Union County,NC,NA,14.096185737976782,NA
28208,Mecklenburg County,NC,NA,60.033167495854066,NA
28209,Mecklenburg County,NC,NA,87.23051409618574,NA
28216,Mecklenburg County,NC,NA,13.101160862354892,NA
28340,Robeson County,NC,59.01639344262295,NA,NA
28411,New Hanover County,NC,36.768149882903984,NA,NA
28457,Pender County,NC,75.87822014051523,NA,NA
28462,Brunswick County,NC,NA,NA,78.83435582822086
28468,Brunswick County,NC,NA,NA,92.94478527607362
28539,Onslow County,NC,76.11241217798595,NA,NA
28555,Onslow County,NC,NA,95.19071310116087,NA
28590,Pitt County,NC,NA,NA,64.11042944785275
28645,Caldwell County,NC,21.311475409836063,NA,NA
28655,Burke County,NC,NA,NA,10.736196319018406
28658,Catawba County,NC,43.79391100702576,NA,NA
28690,Burke County,NC,56.20608899297424,NA,NA
28719,Jackson County,NC,NA,61.857379767827524,NA
58103,Cass County,ND,NA,NA,2.147239263803681
58104,Cass County,ND,NA,8.7893864013267,22.392638036809817
43054,Franklin County,OH,NA,NA,88.34355828220859
43082,Delaware County,OH,NA,NA,70.24539877300614
43113,Pickaway County,OH,NA,NA,9.202453987730062
43119,Franklin County,OH,NA,49.25373134328358,NA
43130,Fairfield County,OH,NA,NA,4.601226993865031
43204,Franklin County,OH,5.152224824355972,NA,NA
43209,Franklin County,OH,NA,87.72802653399668,NA
43224,Franklin County,OH,5.620608899297424,NA,NA
43229,Franklin County,OH,NA,34.991708126036485,NA
43302,Marion County,OH,NA,1.8242122719734661,26.993865030674847
43430,Ottawa County,OH,NA,97.18076285240464,NA
43506,Williams County,OH,NA,24.046434494195687,NA
43515,Fulton County,OH,NA,NA,81.90184049079755
43543,Williams County,OH,NA,NA,75.15337423312883
43545,Henry County,OH,69.3208430913349,NA,NA
43616,Lucas County,OH,NA,NA,19.631901840490798
43617,Lucas County,OH,89.46135831381733,NA,NA
43623,Lucas County,OH,NA,24.212271973466002,NA
43756,Morgan County,OH,NA,81.2603648424544,NA
44001,Lorain County,OH,NA,2.9850746268656714,NA
44017,Cuyahoga County,OH,NA,NA,29.447852760736197
44023,Geauga County,OH,NA,NA,47.54601226993865
44030,Ashtabula County,OH,23.653395784543328,NA,NA
44052,Lorain County,OH,18.0327868852459,NA,NA
44055,Lorain County,OH,NA,16.749585406301822,NA
44094,Lake County,OH,NA,24.543946932006634,NA
44102,Cuyahoga County,OH,10.53864168618267,NA,NA
44105,Cuyahoga County,OH,6.323185011709602,NA,NA
44108,Cuyahoga County,OH,3.51288056206089,NA,NA
44109,Cuyahoga County,OH,23.4192037470726,NA,NA
44112,Cuyahoga County,OH,NA,3.814262023217247,NA
44116,Cuyahoga County,OH,40.28103044496487,NA,NA
44122,Cuyahoga County,OH,NA,NA,0.3067484662576687
44125,Cuyahoga County,OH,NA,7.2968490878938645,9.815950920245399
44128,Cuyahoga County,OH,NA,NA,2.4539877300613497
44131,Cuyahoga County,OH,NA,16.086235489220563,NA
44132,Cuyahoga County,OH,25.526932084309134,NA,NA
44133,Cuyahoga County,OH,NA,NA,12.269938650306749
44135,Cuyahoga County,OH,20.140515222482435,NA,NA
44143,Cuyahoga County,OH,NA,47.42951907131012,NA
44146,Cuyahoga County,OH,NA,13.432835820895523,NA
44147,Cuyahoga County,OH,NA,NA,30.368098159509206
44202,Portage County,OH,69.78922716627635,17.24709784411277,NA
44241,Portage County,OH,NA,NA,63.190184049079754
44303,Summit County,OH,NA,67.49585406301824,NA
44314,Summit County,OH,NA,56.71641791044776,NA
44425,Trumbull County,OH,NA,24.378109452736318,46.31901840490797
44502,Mahoning County,OH,42.857142857142854,NA,NA
44615,Carroll County,OH,NA,52.736318407960205,NA
44663,Tuscarawas County,OH,42.62295081967213,NA,NA
44683,Tuscarawas County,OH,NA,NA,69.93865030674846
44805,Ashland County,OH,NA,NA,4.9079754601226995
44811,Sandusky County,OH,NA,55.72139303482587,NA
45014,Butler County,OH,NA,17.91044776119403,18.098159509202453
45067,Butler County,OH,NA,NA,90.49079754601227
45103,Clermont County,OH,28.805620608899297,NA,NA
45133,Highland County,OH,21.779859484777518,NA,NA
45140,Clermont County,OH,24.824355971896956,NA,NA
45177,Clinton County,OH,25.76112412177986,NA,NA
45217,Hamilton County,OH,NA,78.44112769485903,NA
45231,Hamilton County,OH,NA,16.417910447761194,NA
45251,Hamilton County,OH,NA,59.86733001658375,NA
45320,Preble County,OH,NA,68.98839137645108,NA
45324,Greene County,OH,9.367681498829041,NA,NA
45342,Montgomery County,OH,NA,7.462686567164178,NA
45365,Shelby County,OH,NA,10.945273631840797,NA
45385,Greene County,OH,12.88056206088993,NA,NA
45403,Montgomery County,OH,37.00234192037471,NA,NA
45429,Montgomery County,OH,NA,29.519071310116086,NA
45430,Greene County,OH,99.06323185011709,NA,NA
45458,Montgomery County,OH,NA,9.12106135986733,NA
45503,Clark County,OH,7.02576112412178,NA,NA
45601,Ross County,OH,61.59250585480094,NA,1.2269938650306749
45613,Pike County,OH,96.95550351288055,NA,NA
45640,Jackson County,OH,NA,66.66666666666666,NA
45663,Scioto County,OH,NA,61.02819237147595,NA
45669,Lawrence County,OH,21.07728337236534,NA,NA
45710,Athens County,OH,NA,79.1044776119403,NA
45750,Washington County,OH,NA,0.4975124378109453,NA
45801,Allen County,OH,NA,58.043117744610285,NA
45840,Hancock County,OH,18.26697892271663,38.640132669983416,NA
45872,Wood County,OH,NA,93.69817578772802,NA
45891,Van Wert County,OH,NA,23.0514096185738,NA
73049,Oklahoma County,OK,94.14519906323186,NA,NA
73112,Oklahoma County,OK,NA,49.4195688225539,NA
73116,Oklahoma County,OK,NA,NA,69.01840490797547
73170,Cleveland County,OK,NA,NA,37.11656441717792
73401,Carter County,OK,15.22248243559719,NA,NA
73533,Stephens County,OK,NA,NA,16.87116564417178
74008,Tulsa County,OK,71.42857142857143,NA,NA
74011,Tulsa County,OK,NA,43.946932006633496,NA
74055,Tulsa County,OK,55.26932084309133,26.533996683250415,NA
74070,Osage County,OK,81.49882903981265,NA,NA
74354,Ottawa County,OK,NA,NA,62.88343558282209
74523,Pushmataha County,OK,NA,83.5820895522388,NA
97051,Columbia County,OR,64.16861826697892,NA,NA
97078,Washington County,OR,NA,57.048092868988384,NA
97119,Washington County,OR,NA,98.50746268656717,NA
97209,Multnomah County,OR,37.93911007025761,NA,NA
97217,Multnomah County,OR,NA,47.92703150912106,NA
97239,Multnomah County,OR,NA,NA,61.04294478527608
97330,Benton County,OR,NA,NA,72.69938650306749
97378,Yamhill County,OR,NA,NA,80.06134969325154
97478,Lane County,OR,NA,76.61691542288557,NA
97501,Jackson County,OR,NA,7.960199004975125,NA
97801,Umatilla County,OR,35.597189695550355,NA,NA
97838,Umatilla County,OR,19.672131147540984,NA,NA
97850,Union County,OR,40.28103044496487,NA,NA
97862,Umatilla County,OR,NA,NA,68.71165644171779
15012,Westmoreland County,PA,NA,51.741293532338304,NA
15065,Allegheny County,PA,71.89695550351288,NA,NA
15122,Allegheny County,PA,51.288056206088996,NA,NA
15136,Allegheny County,PA,NA,88.22553897180762,NA
15221,Allegheny County,PA,19.906323185011708,NA,NA
15235,Allegheny County,PA,53.86416861826698,NA,9.509202453987731
15237,Allegheny County,PA,49.18032786885246,NA,NA
15851,Jefferson County,PA,NA,82.75290215588723,NA
15857,Elk County,PA,NA,NA,37.423312883435585
15909,Cambria County,PA,NA,82.91873963515755,NA
15946,Cambria County,PA,88.99297423887587,NA,NA
16503,Erie County,PA,NA,NA,96.0122699386503
16504,Erie County,PA,NA,70.48092868988391,NA
16601,Blair County,PA,NA,6.135986733001658,NA
16648,Blair County,PA,NA,32.33830845771145,NA
16735,McKean County,PA,NA,64.6766169154229,NA
16801,Centre County,PA,39.812646370023415,NA,NA
16901,Tioga County,PA,NA,71.14427860696517,NA
17104,Dauphin County,PA,91.33489461358315,NA,NA
17331,York County,PA,50.11709601873536,NA,NA
17543,Lancaster County,PA,25.292740046838407,NA,NA
17857,Northumberland County,PA,70.96018735362998,NA,NA
18013,Northampton County,PA,73.53629976580797,NA,NA
18032,Lehigh County,PA,NA,90.04975124378109,NA
18040,Northampton County,PA,NA,41.127694859038144,NA
18102,Lehigh County,PA,NA,NA,21.165644171779142
18202,Luzerne County,PA,NA,40.6301824212272,NA
18210,Carbon County,PA,NA,72.30514096185739,NA
18255,Carbon County,PA,NA,70.1492537313433,NA
18330,Monroe County,PA,NA,81.59203980099502,NA
18360,Monroe County,PA,NA,9.950248756218906,NA
18436,Wayne County,PA,58.31381733021077,NA,NA
18517,Lackawanna County,PA,NA,NA,86.1963190184049
18603,Columbia County,PA,15.92505854800937,NA,NA
18951,Bucks County,PA,NA,53.06799336650083,NA
19007,Bucks County,PA,NA,63.18407960199005,NA
19018,Delaware County,PA,29.508196721311474,NA,NA
19031,Montgomery County,PA,NA,97.51243781094527,NA
19036,Delaware County,PA,NA,72.96849087893864,NA
19041,Delaware County,PA,NA,NA,72.08588957055214
19116,Philadelphia County,PA,NA,12.271973466003317,NA
19121,Philadelphia County,PA,NA,21.393034825870647,NA
19124,Philadelphia County,PA,1.873536299765808,NA,NA
19133,Philadelphia County,PA,17.096018735362996,NA,NA
19140,Philadelphia County,PA,3.278688524590164,NA,NA
19143,Philadelphia County,PA,1.639344262295082,NA,NA
19146,Philadelphia County,PA,NA,NA,50
19148,Philadelphia County,PA,NA,10.779436152570481,NA
19153,Philadelphia County,PA,NA,44.94195688225539,NA
19348,Chester County,PA,NA,76.45107794361525,NA
19401,Montgomery County,PA,33.25526932084309,NA,NA
19525,Montgomery County,PA,NA,NA,71.16564417177914
02806,Bristol County,RI,NA,NA,57.05521472392638
02809,Bristol County,RI,60.187353629976585,NA,NA
02828,Providence County,RI,NA,87.56218905472637,NA
02852,Washington County,RI,NA,NA,35.58282208588957
02864,Providence County,RI,28.10304449648712,NA,NA
02871,Newport County,RI,NA,35.48922056384743,NA
02905,Providence County,RI,90.86651053864169,73.30016583747927,NA
02910,Providence County,RI,NA,64.51077943615256,NA
02911,Providence County,RI,NA,94.02985074626866,NA
02915,Providence County,RI,79.15690866510539,NA,NA
02917,Providence County,RI,NA,75.29021558872306,NA
29070,Lexington County,SC,77.98594847775175,NA,NA
29102,Clarendon County,SC,83.37236533957847,NA,NA
29153,Sumter County,SC,NA,61.02819237147595,NA
29212,Lexington County,SC,NA,NA,50.920245398773
29301,Spartanburg County,SC,NA,NA,59.50920245398773
29341,Cherokee County,SC,NA,55.223880597014926,NA
29349,Spartanburg County,SC,NA,18.573797678275287,NA
29405,Charleston County,SC,NA,37.147595356550575,NA
29455,Charleston County,SC,80.79625292740047,31.01160862354892,NA
29461,Berkeley County,SC,NA,NA,45.39877300613497
29464,Charleston County,SC,NA,21.22719734660033,NA
29483,Dorchester County,SC,NA,NA,52.760736196319016
29485,Dorchester County,SC,29.274004683840747,NA,NA
29486,Berkeley County,SC,NA,92.86898839137645,NA
29510,Georgetown County,SC,NA,80.92868988391376,NA
29512,Marlboro County,SC,NA,NA,76.99386503067484
29526,Horry County,SC,37.470725995316165,NA,NA
29532,Darlington County,SC,NA,51.90713101160862,NA
29569,Horry County,SC,47.306791569086656,NA,NA
29649,Greenwood County,SC,NA,NA,15.030674846625766
29669,Anderson County,SC,66.04215456674473,NA,NA
29851,Aiken County,SC,98.36065573770492,NA,NA
29909,Beaufort County,SC,NA,NA,16.257668711656443
29910,Beaufort County,SC,NA,35.1575456053068,71.77914110429448
57104,Minnehaha County,SD,NA,5.306799336650083,NA
57105,Minnehaha County,SD,46.8384074941452,NA,NA
57106,Minnehaha County,SD,58.548009367681495,NA,NA
37013,Davidson County,TN,10.304449648711945,NA,NA
37042,Montgomery County,TN,NA,NA,53.06748466257669
37075,Sumner County,TN,NA,5.472636815920398,NA
37076,Davidson County,TN,NA,NA,38.95705521472393
37115,Davidson County,TN,13.114754098360656,NA,NA
37207,Davidson County,TN,13.817330210772832,NA,NA
37216,Davidson County,TN,NA,NA,79.75460122699386
37218,Davidson County,TN,NA,NA,67.79141104294479
37228,Davidson County,TN,NA,93.86401326699834,NA
37323,Bradley County,TN,NA,51.575456053067995,NA
37331,McMinn County,TN,NA,89.88391376451078,NA
37411,Hamilton County,TN,39.11007025761124,NA,NA
37416,Hamilton County,TN,56.674473067915685,NA,NA
37421,Hamilton County,TN,NA,NA,26.07361963190184
37604,Washington County,TN,NA,18.739635157545607,NA
37618,Sullivan County,TN,NA,74.7927031509121,NA
37664,Sullivan County,TN,NA,47.2636815920398,NA
37766,Campbell County,TN,NA,23.548922056384743,NA
37801,Blount County,TN,17.330210772833723,NA,NA
37876,Sevier County,TN,NA,NA,36.809815950920246
37912,Knox County,TN,NA,NA,57.97546012269939
37924,Knox County,TN,NA,85.90381426202322,NA
38002,Shelby County,TN,NA,65.50580431177447,NA
38060,Fayette County,TN,NA,NA,86.50306748466258
38106,Shelby County,TN,NA,NA,54.90797546012271
38111,Shelby County,TN,NA,46.93200663349917,NA
38112,Shelby County,TN,67.91569086651053,NA,NA
38118,Shelby County,TN,NA,NA,81.59509202453987
38301,Madison County,TN,NA,14.759535655058043,NA
38320,Benton County,TN,NA,72.13930348258707,NA
75020,Grayson County,TX,NA,NA,42.331288343558285
75041,Dallas County,TX,NA,87.72802653399668,NA
75043,Dallas County,TX,NA,15.422885572139302,NA
75060,Dallas County,TX,NA,36.81592039800995,NA
75075,Collin County,TX,NA,31.343283582089555,NA
75088,Dallas County,TX,NA,44.776119402985074,NA
75098,Collin County,TX,NA,NA,60.122699386503065
75103,Van Zandt County,TX,80.56206088992974,NA,NA
75116,Dallas County,TX,NA,83.41625207296849,NA
75119,Ellis County,TX,NA,NA,65.03067484662577
75126,Kaufman County,TX,32.08430913348946,NA,NA
75165,Ellis County,TX,NA,NA,24.846625766871167
75173,Collin County,TX,NA,97.8441127694859,NA
75209,Dallas County,TX,NA,NA,48.15950920245399
75214,Dallas County,TX,NA,59.03814262023217,NA
75216,Dallas County,TX,NA,NA,8.895705521472392
75217,Dallas County,TX,NA,NA,41.717791411042946
75225,Dallas County,TX,NA,NA,33.43558282208589
75227,Dallas County,TX,NA,32.00663349917081,NA
75231,Dallas County,TX,NA,85.24046434494196,NA
75241,Dallas County,TX,NA,NA,20.858895705521473
75248,Dallas County,TX,NA,25.70480928689884,NA
75409,Collin County,TX,NA,NA,98.15950920245399
75455,Titus County,TX,NA,NA,49.693251533742334
75462,Lamar County,TX,88.75878220140515,NA,NA
75474,Hunt County,TX,NA,NA,79.4478527607362
75647,Gregg County,TX,66.27634660421545,NA,NA
75662,Gregg County,TX,55.0351288056206,NA,NA
75672,Harrison County,TX,NA,61.359867330016584,NA
75686,Camp County,TX,NA,57.2139303482587,NA
75703,Smith County,TX,32.55269320843091,NA,NA
75707,Smith County,TX,NA,NA,34.04907975460122
75709,Smith County,TX,NA,79.43615257048093,NA
75758,Henderson County,TX,NA,NA,82.51533742331289
75785,Cherokee County,TX,NA,89.22056384742952,NA
75791,Smith County,TX,NA,74.12935323383084,NA
76052,Tarrant County,TX,84.07494145199064,NA,NA
76067,Palo Pinto County,TX,NA,NA,53.987730061349694
76082,Parker County,TX,NA,48.09286898839137,NA
76112,Tarrant County,TX,15.690866510538642,NA,NA
76116,Tarrant County,TX,25.05854800936768,NA,NA
76117,Tarrant County,TX,34.42622950819672,NA,NA
76119,Tarrant County,TX,NA,6.301824212271974,NA
76123,Tarrant County,TX,NA,NA,80.98159509202453
76131,Tarrant County,TX,50.585480093676814,NA,NA
76135,Tarrant County,TX,NA,63.681592039801,NA
76201,Denton County,TX,82.66978922716628,NA,NA
77004,Harris County,TX,NA,42.28855721393035,NA
77020,Harris County,TX,NA,53.8971807628524,NA
77021,Harris County,TX,NA,91.21061359867329,48.77300613496933
77031,Harris County,TX,NA,NA,89.2638036809816
77064,Harris County,TX,72.8337236533958,NA,NA
77065,Harris County,TX,NA,39.96683250414594,NA
77068,Harris County,TX,NA,88.88888888888889,NA
77071,Harris County,TX,86.41686182669788,NA,NA
77081,Harris County,TX,NA,NA,93.25153374233128
77082,Harris County,TX,NA,NA,61.34969325153374
77345,Harris County,TX,NA,66.50082918739635,NA
77382,Montgomery County,TX,68.85245901639344,NA,NA
77429,Harris County,TX,13.583138173302109,NA,NA
77449,Harris County,TX,12.177985948477751,NA,NA
77450,Harris County,TX,NA,17.412935323383085,NA
77494,Fort Bend County,TX,NA,NA,36.19631901840491
77539,Galveston County,TX,21.54566744730679,NA,NA
77563,Galveston County,TX,NA,NA,51.533742331288344
77578,Brazoria County,TX,71.19437939110071,NA,NA
77630,Orange County,TX,NA,31.509121061359867,NA
77662,Orange County,TX,NA,NA,55.828220858895705
77979,Calhoun County,TX,NA,NA,58.58895705521472
78025,Kerr County,TX,NA,91.37645107794361,NA
78040,Webb County,TX,NA,NA,54.601226993865026
78114,Wilson County,TX,57.14285714285714,NA,NA
78207,Bexar County,TX,NA,NA,21.472392638036812
78238,Bexar County,TX,NA,NA,84.04907975460122
78251,Bexar County,TX,57.61124121779859,NA,NA
78373,Nueces County,TX,NA,97.01492537313433,NA
78414,Nueces County,TX,NA,NA,82.82208588957054
78504,Hidalgo County,TX,NA,42.78606965174129,NA
78537,Hidalgo County,TX,NA,NA,58.282208588957054
78574,Hidalgo County,TX,94.61358313817331,NA,NA
78586,Cameron County,TX,NA,85.7379767827529,NA
78626,Williamson County,TX,NA,NA,28.22085889570552
78702,Travis County,TX,78.92271662763466,NA,NA
78724,Travis County,TX,NA,NA,87.73006134969326
78801,Uvalde County,TX,NA,60.53067993366501,NA
79124,Potter County,TX,NA,96.6832504145937,NA
79403,Lubbock County,TX,52.459016393442624,NA,NA
79424,Lubbock County,TX,27.86885245901639,NA,NA
79703,Midland County,TX,62.52927400468384,NA,91.41104294478528
79838,El Paso County,TX,NA,NA,96.62576687116564
84020,Salt Lake County,UT,77.51756440281031,NA,NA
84084,Salt Lake County,UT,NA,37.81094527363184,NA
84111,Salt Lake County,UT,77.04918032786885,NA,NA
84120,Salt Lake County,UT,7.728337236533958,NA,NA
84128,Salt Lake County,UT,40.04683840749414,NA,NA
84532,Grand County,UT,NA,84.41127694859038,NA
84660,Utah County,UT,NA,83.91376451077943,NA
84720,Iron County,UT,NA,71.31011608623548,NA
20155,Prince William County,VA,NA,75.9535655058043,NA
20164,Loudoun County,VA,NA,NA,66.56441717791411
22003,Fairfax County,VA,NA,24.875621890547265,NA
22031,Fairfax County,VA,69.55503512880561,NA,NA
22101,Fairfax County,VA,NA,47.59535655058043,NA
22182,Fairfax County,VA,70.72599531615926,79.76782752902156,NA
22304,Alexandria city,VA,16.159250585480095,NA,43.558282208588956
22315,Fairfax County,VA,59.250585480093676,NA,NA
22546,Caroline County,VA,NA,NA,85.58282208588957
22802,Harrisonburg city,VA,26.229508196721312,NA,NA
22942,Louisa County,VA,NA,68.82255389718075,NA
23111,Hanover County,VA,NA,NA,17.791411042944784
23112,Chesterfield County,VA,43.559718969555036,NA,NA
23141,New Kent County,VA,NA,NA,88.65030674846625
23185,James City County,VA,NA,NA,7.975460122699387
23222,Richmond city,VA,19.437939110070257,NA,NA
23223,Henrico County,VA,4.215456674473068,NA,NA
23225,Richmond city,VA,NA,19.402985074626866,NA
23231,Henrico County,VA,24.59016393442623,NA,NA
23233,Henrico County,VA,83.13817330210773,NA,NA
23234,Chesterfield County,VA,NA,29.684908789386398,NA
23235,Chesterfield County,VA,NA,43.61525704809287,NA
23236,Chesterfield County,VA,85.71428571428571,NA,NA
23321,Chesapeake city,VA,NA,28.35820895522388,NA
23453,Virginia Beach city,VA,NA,68.1592039800995,NA
23455,Virginia Beach city,VA,44.26229508196721,NA,1.8404907975460123
23462,Virginia Beach city,VA,NA,NA,6.134969325153374
23464,Virginia Beach city,VA,NA,2.6533996683250414,NA
23602,Newport News city,VA,NA,26.368159203980102,NA
23663,Hampton city,VA,NA,NA,65.6441717791411
23666,Hampton city,VA,NA,NA,8.588957055214724
23693,York County,VA,NA,NA,66.25766871165644
23842,Prince George County,VA,96.25292740046838,NA,NA
23860,Hopewell city,VA,31.85011709601874,NA,NA
24012,Roanoke city,VA,30.210772833723652,NA,NA
24017,Roanoke city,VA,27.400468384074944,NA,NA
24018,Roanoke County,VA,NA,65.17412935323384,NA
24087,Montgomery County,VA,NA,NA,99.38650306748467
24141,Radford city,VA,NA,90.54726368159204,NA
24201,Bristol city,VA,45.433255269320846,NA,NA
24210,Washington County,VA,NA,43.28358208955223,NA
24211,Washington County,VA,82.20140515222482,NA,NA
24301,Pulaski County,VA,NA,53.39966832504146,NA
24319,Smyth County,VA,NA,82.58706467661692,NA
24502,Lynchburg city,VA,91.56908665105387,NA,NA
24503,Lynchburg city,VA,NA,NA,41.104294478527606
24523,Bedford County,VA,NA,37.3134328358209,NA
24541,Danville city,VA,NA,29.187396351575458,NA
24572,Amherst County,VA,65.10538641686182,NA,NA
24592,Halifax County,VA,NA,31.674958540630183,NA
24641,Tazewell County,VA,NA,68.49087893864014,NA
98001,King County,WA,NA,36.318407960199,NA
98003,King County,WA,NA,19.56882255389718,NA
98019,King County,WA,NA,91.87396351575457,NA
98032,King County,WA,NA,44.44444444444444,NA
98042,King County,WA,NA,NA,24.233128834355828
98077,King County,WA,NA,NA,88.03680981595092
98109,King County,WA,85.01170960187353,NA,NA
98115,King County,WA,36.53395784543326,NA,NA
98133,King County,WA,29.97658079625293,NA,NA
98208,Snohomish County,WA,22.24824355971897,NA,NA
98223,Snohomish County,WA,26.697892271662766,NA,NA
98391,Pierce County,WA,NA,9.618573797678277,NA
98502,Thurston County,WA,65.33957845433255,NA,NA
98516,Thurston County,WA,NA,69.81757877280266,NA
98532,Lewis County,WA,73.06791569086651,NA,NA
98569,Grays Harbor County,WA,NA,NA,93.55828220858896
98620,Klickitat County,WA,NA,NA,64.11042944785275
98801,Chelan County,WA,NA,NA,6.748466257668712
98837,Grant County,WA,68.61826697892272,NA,NA
98926,Kittitas County,WA,55.503512880562056,NA,NA
98930,Yakima County,WA,NA,78.1094527363184,NA
99206,Spokane County,WA,46.604215456674474,NA,NA
99301,Franklin County,WA,9.836065573770492,NA,11.349693251533742
20016,District of Columbia,DC,NA,50.41459369817579,NA
20019,District of Columbia,DC,NA,4.311774461028192,NA
20020,District of Columbia,DC,16.627634660421545,NA,NA
20032,District of Columbia,DC,NA,19.071310116086234,NA
24701,Mercer County,WV,NA,26.69983416252073,NA
24901,Greenbrier County,WV,NA,65.33996683250415,NA
25311,Kanawha County,WV,NA,90.38142620232172,NA
25413,Berkeley County,WV,NA,80.2653399668325,NA
25419,Berkeley County,WV,NA,NA,94.1717791411043
25504,Cabell County,WV,59.4847775175644,NA,NA
25705,Cabell County,WV,NA,18.90547263681592,NA
26037,Brooke County,WV,NA,NA,69.6319018404908
26104,Wood County,WV,NA,NA,18.711656441717793
26301,Harrison County,WV,30.679156908665107,NA,NA
53051,Waukesha County,WI,NA,22.885572139303484,NA
53081,Sheboygan County,WI,NA,21.890547263681594,NA
53105,Racine County,WI,NA,8.291873963515755,NA
53132,Milwaukee County,WI,NA,20.398009950248756,NA
53144,Kenosha County,WI,NA,NA,54.90797546012271
53181,Kenosha County,WI,NA,81.75787728026535,NA
53182,Racine County,WI,NA,58.872305140961856,NA
53188,Waukesha County,WI,23.88758782201405,NA,NA
53204,Milwaukee County,WI,NA,33.33333333333333,NA
53206,Milwaukee County,WI,NA,NA,44.785276073619634
53217,Milwaukee County,WI,NA,77.28026533996683,NA
53226,Milwaukee County,WI,NA,30.514096185737976,NA
53227,Milwaukee County,WI,NA,81.4262023217247,NA
53405,Racine County,WI,5.85480093676815,NA,NA
53549,Jefferson County,WI,76.5807962529274,NA,NA
53586,Lafayette County,WI,100,NA,NA
53704,Dane County,WI,11.475409836065573,NA,NA
53713,Dane County,WI,NA,89.71807628524047,NA
53946,Green Lake County,WI,98.59484777517564,NA,NA
54016,St. Croix County,WI,NA,46.434494195688224,NA
54143,Marinette County,WI,NA,55.88723051409619,NA
54230,Manitowoc County,WI,NA,98.17578772802653,NA
54303,Brown County,WI,46.37002341920375,NA,NA
54304,Brown County,WI,22.950819672131146,45.27363184079602,NA
54401,Marathon County,WI,NA,28.192371475953564,NA
54426,Marathon County,WI,NA,96.84908789386401,NA
54451,Taylor County,WI,NA,NA,81.28834355828221
54601,La Crosse County,WI,NA,NA,0
54603,La Crosse County,WI,NA,NA,49.38650306748466
54755,Buffalo County,WI,NA,74.46102819237149,NA
54914,Outagamie County,WI,24.121779859484775,NA,NA
54935,Fond du Lac County,WI,NA,10.613598673300165,NA
