ZipCode,county,state,Youth,Pediatric,Adult,Retirement
35150,Talladega County,AL,NA,59.48275862068966,NA,NA
35180,Jefferson County,AL,NA,NA,75.80893682588598,NA
35242,Shelby County,AL,31.93916349809886,NA,NA,NA
35611,Limestone County,AL,14.82889733840304,NA,NA,NA
35816,Madison County,AL,NA,NA,76.88751926040062,NA
35901,Etowah County,AL,NA,NA,41.44838212634823,NA
35906,Etowah County,AL,NA,NA,92.29583975346686,NA
36093,Elmore County,AL,NA,95.97701149425288,NA,NA
36201,Calhoun County,AL,NA,59.48275862068966,NA,NA
36203,Calhoun County,AL,46.38783269961977,NA,NA,NA
36272,Calhoun County,AL,NA,NA,52.54237288135594,NA
36312,Houston County,AL,NA,NA,87.51926040061633,NA
36322,Dale County,AL,NA,90.51724137931035,NA,NA
36420,Covington County,AL,NA,66.95402298850574,NA,NA
36695,Mobile County,AL,NA,NA,40.98613251155624,NA
36701,Dallas County,AL,NA,NA,33.281972265023114,NA
36804,Lee County,AL,NA,76.72413793103449,NA,NA
36830,Lee County,AL,NA,NA,73.18952234206472,NA
36853,Tallapoosa County,AL,NA,NA,87.211093990755,NA
99508,Anchorage Municipality,AK,NA,NA,21.571648690292758,NA
99577,Anchorage Municipality,AK,NA,NA,78.89060092449924,NA
99645,Matanuska-Susitna Borough,AK,NA,NA,60.55469953775039,NA
99654,Matanuska-Susitna Borough,AK,NA,45.97701149425287,NA,NA
99801,Juneau City and Borough,AK,NA,NA,53.929121725731896,NA
99901,Ketchikan Gateway Borough,AK,NA,NA,46.22496147919877,NA
85007,Maricopa County,AZ,NA,NA,NA,74.70588235294117
85040,Maricopa County,AZ,NA,12.068965517241379,NA,NA
85051,Maricopa County,AZ,NA,NA,17.719568567026194,NA
85053,Maricopa County,AZ,NA,NA,50.847457627118644,NA
85142,Maricopa County,AZ,NA,NA,12.63482280431433,NA
85207,Maricopa County,AZ,NA,NA,32.20338983050847,NA
85209,Maricopa County,AZ,NA,NA,NA,28.823529411764703
85212,Maricopa County,AZ,47.90874524714829,NA,63.48228043143297,NA
85248,Maricopa County,AZ,42.585551330798474,NA,NA,NA
85249,Maricopa County,AZ,NA,83.04597701149426,NA,NA
85298,Maricopa County,AZ,NA,NA,77.04160246533128,NA
85323,Maricopa County,AZ,NA,32.4712643678161,NA,NA
85346,La Paz County,AZ,NA,NA,99.69183359013869,NA
85351,Maricopa County,AZ,NA,NA,NA,11.76470588235294
85354,Maricopa County,AZ,NA,NA,95.83975346687211,NA
85382,Maricopa County,AZ,55.893536121673,NA,NA,NA
85383,Maricopa County,AZ,19.011406844106464,NA,NA,NA
85388,Maricopa County,AZ,NA,NA,74.26810477657936,NA
85501,Gila County,AZ,NA,NA,NA,71.76470588235294
85603,Cochise County,AZ,NA,91.0919540229885,NA,NA
85621,Santa Cruz County,AZ,NA,13.218390804597702,NA,NA
85706,Pima County,AZ,0.38022813688212925,NA,NA,NA
85718,Pima County,AZ,NA,NA,NA,23.52941176470588
85719,Pima County,AZ,NA,NA,40.21571648690293,NA
85746,Pima County,AZ,NA,NA,15.870570107858242,NA
85748,Pima County,AZ,88.97338403041825,NA,86.59476117103236,NA
85941,Apache County,AZ,NA,NA,16.486902927580893,NA
86001,Coconino County,AZ,1.9011406844106464,NA,NA,NA
86004,Coconino County,AZ,NA,NA,34.05238828967643,NA
86303,Yavapai County,AZ,NA,NA,NA,50.588235294117645
86401,Mohave County,AZ,NA,NA,11.710323574730355,NA
86403,Mohave County,AZ,NA,NA,51.00154083204931,NA
72022,Saline County,AR,NA,NA,NA,70
72031,Van Buren County,AR,NA,NA,NA,95.29411764705881
72032,Faulkner County,AR,NA,NA,44.684129429892145,NA
72335,St. Francis County,AR,NA,NA,91.37134052388289,NA
72501,Independence County,AR,NA,NA,40.52388289676425,NA
72956,Crawford County,AR,NA,NA,54.699537750385204,NA
90007,Los Angeles County,CA,76.04562737642586,NA,34.514637904468415,NA
90011,Los Angeles County,CA,NA,NA,64.09861325115563,NA
90023,Los Angeles County,CA,NA,33.33333333333333,NA,NA
90042,Los Angeles County,CA,NA,NA,58.705701078582436,NA
90044,Los Angeles County,CA,5.323193916349809,NA,NA,NA
90063,Los Angeles County,CA,NA,NA,56.08628659476117,NA
90255,Los Angeles County,CA,NA,21.551724137931032,NA,NA
90260,Los Angeles County,CA,NA,55.74712643678161,NA,NA
90266,Los Angeles County,CA,NA,100,NA,NA
90278,Los Angeles County,CA,NA,NA,68.41294298921417,NA
90291,Los Angeles County,CA,91.25475285171103,NA,NA,NA
90301,Los Angeles County,CA,NA,NA,41.44838212634823,NA
90631,Orange County,CA,NA,70.6896551724138,NA,NA
90640,Los Angeles County,CA,NA,41.66666666666667,NA,NA
90650,Los Angeles County,CA,NA,NA,21.417565485362093,NA
90706,Los Angeles County,CA,NA,28.735632183908045,NA,42.35294117647059
90745,Los Angeles County,CA,NA,44.827586206896555,NA,NA
91101,Los Angeles County,CA,NA,NA,96.91833590138675,NA
91205,Los Angeles County,CA,NA,NA,76.11710323574731,NA
91214,Los Angeles County,CA,NA,NA,NA,80.58823529411765
91342,Los Angeles County,CA,17.870722433460077,NA,NA,NA
91352,Los Angeles County,CA,76.80608365019012,NA,NA,NA
91390,Los Angeles County,CA,NA,NA,89.06009244992296,NA
91403,Los Angeles County,CA,NA,NA,NA,69.41176470588235
91605,Los Angeles County,CA,NA,NA,52.2342064714946,NA
91702,Los Angeles County,CA,NA,NA,37.750385208012325,NA
91731,Los Angeles County,CA,NA,NA,42.68104776579353,NA
91733,Los Angeles County,CA,NA,NA,73.34360554699538,NA
91763,San Bernardino County,CA,NA,NA,70.41602465331279,NA
91942,San Diego County,CA,NA,NA,70.10785824345146,NA
92010,San Diego County,CA,NA,98.27586206896551,NA,NA
92025,San Diego County,CA,NA,16.954022988505745,NA,NA
92114,San Diego County,CA,NA,11.206896551724139,NA,NA
92129,San Diego County,CA,NA,NA,NA,55.88235294117647
92252,San Bernardino County,CA,NA,NA,80.2773497688752,NA
92284,San Bernardino County,CA,NA,NA,NA,31.76470588235294
92301,San Bernardino County,CA,44.866920152091254,NA,40.06163328197226,NA
92344,San Bernardino County,CA,67.68060836501901,NA,NA,NA
92395,San Bernardino County,CA,NA,NA,33.12788906009245,NA
92562,Riverside County,CA,NA,NA,32.04930662557781,NA
92584,Riverside County,CA,NA,NA,48.99845916795069,NA
92590,Riverside County,CA,NA,NA,99.38366718027734,NA
92630,Orange County,CA,NA,NA,40.36979969183359,NA
92677,Orange County,CA,NA,NA,72.41910631741139,NA
92805,Orange County,CA,50.57034220532319,NA,NA,NA
92879,Riverside County,CA,NA,NA,NA,64.70588235294117
92883,Riverside County,CA,NA,NA,90.9090909090909,NA
92886,Orange County,CA,NA,NA,NA,57.647058823529406
93001,Ventura County,CA,NA,NA,32.5115562403698,NA
93021,Ventura County,CA,NA,NA,66.2557781201849,NA
93030,Ventura County,CA,NA,NA,NA,67.05882352941175
93202,Kings County,CA,NA,80.17241379310344,NA,NA
93210,Fresno County,CA,NA,NA,94.45300462249615,NA
93215,Kern County,CA,39.163498098859314,NA,NA,NA
93221,Tulare County,CA,NA,68.67816091954023,NA,NA
93230,Kings County,CA,NA,10.919540229885058,NA,NA
93257,Tulare County,CA,NA,17.24137931034483,NA,NA
93274,Tulare County,CA,NA,14.942528735632186,32.66563944530046,NA
93280,Kern County,CA,NA,65.22988505747126,NA,NA
93308,Kern County,CA,NA,NA,34.20647149460709,NA
93402,San Luis Obispo County,CA,NA,NA,NA,81.17647058823529
93436,Santa Barbara County,CA,NA,11.781609195402298,NA,NA
93454,Santa Barbara County,CA,NA,NA,NA,54.70588235294118
93535,Los Angeles County,CA,NA,8.908045977011495,10.939907550077042,NA
93543,Los Angeles County,CA,NA,77.87356321839081,NA,NA
93550,Los Angeles County,CA,NA,NA,16.640986132511557,NA
93638,Madera County,CA,4.182509505703422,27.298850574712645,NA,NA
93648,Fresno County,CA,NA,22.126436781609197,NA,NA
93657,Fresno County,CA,NA,7.183908045977011,NA,NA
93722,Fresno County,CA,NA,23.563218390804597,NA,NA
94010,San Mateo County,CA,NA,NA,56.548536209553156,NA
94024,Santa Clara County,CA,82.88973384030417,NA,NA,NA
94080,San Mateo County,CA,43.346007604562736,NA,NA,NA
94087,Santa Clara County,CA,NA,NA,84.59167950693374,NA
94111,San Francisco County,CA,NA,NA,94.14483821263482,NA
94132,San Francisco County,CA,70.72243346007605,NA,NA,NA
94134,San Francisco County,CA,NA,NA,NA,31.176470588235293
94501,Alameda County,CA,NA,NA,43.759630200308166,NA
94509,Contra Costa County,CA,NA,NA,26.502311248073962,NA
94523,Contra Costa County,CA,NA,NA,74.11402157164869,NA
94526,Contra Costa County,CA,54.372623574144484,NA,NA,NA
94544,Alameda County,CA,NA,20.977011494252874,NA,NA
94550,Alameda County,CA,30.418250950570343,NA,NA,NA
94568,Alameda County,CA,NA,NA,58.39753466872111,NA
94578,Alameda County,CA,NA,NA,54.853620955315876,NA
94582,Contra Costa County,CA,56.27376425855514,NA,NA,NA
94607,Alameda County,CA,NA,36.49425287356322,78.12018489984591,NA
94621,Alameda County,CA,NA,26.72413793103448,NA,NA
94901,Marin County,CA,NA,NA,60.40061633281972,NA
94903,Marin County,CA,58.935361216730044,NA,NA,NA
94920,Marin County,CA,NA,NA,93.37442218798151,NA
95112,Santa Clara County,CA,NA,NA,43.143297380585516,NA
95148,Santa Clara County,CA,NA,NA,NA,50
95354,Stanislaus County,CA,15.209125475285171,NA,NA,NA
95361,Stanislaus County,CA,NA,NA,NA,35.88235294117647
95376,San Joaquin County,CA,NA,67.52873563218391,NA,NA
95472,Sonoma County,CA,NA,NA,87.05701078582435,NA
95492,Sonoma County,CA,NA,97.70114942528735,NA,NA
95683,Sacramento County,CA,97.71863117870723,NA,NA,NA
95747,Placer County,CA,60.836501901140686,NA,NA,46.470588235294116
95758,Sacramento County,CA,NA,NA,58.24345146379045,NA
95831,Sacramento County,CA,NA,NA,63.63636363636363,NA
95926,Butte County,CA,15.5893536121673,NA,NA,NA
95954,Butte County,CA,21.292775665399237,NA,NA,NA
95963,Glenn County,CA,NA,NA,78.42835130970724,NA
95965,Butte County,CA,NA,NA,21.725731895223422,NA
96003,Shasta County,CA,NA,NA,48.38212634822804,NA
80012,Arapahoe County,CO,NA,25.862068965517242,NA,NA
80013,Arapahoe County,CO,NA,NA,12.01848998459168,NA
80015,Arapahoe County,CO,NA,NA,21.263482280431433,NA
80018,Arapahoe County,CO,71.48288973384031,NA,NA,NA
80027,Boulder County,CO,NA,NA,68.25885978428352,NA
80109,Douglas County,CO,NA,NA,NA,70.58823529411765
80121,Arapahoe County,CO,76.42585551330798,NA,NA,NA
80127,Jefferson County,CO,NA,NA,82.28043143297381,NA
80138,Douglas County,CO,26.996197718631176,NA,NA,NA
80209,Denver County,CO,NA,NA,69.33744221879815,NA
80210,Denver County,CO,NA,NA,NA,61.1764705882353
80219,Denver County,CO,NA,3.7356321839080464,NA,NA
80229,Adams County,CO,6.4638783269961975,NA,NA,NA
80231,Denver County,CO,NA,63.50574712643679,NA,NA
80238,Denver County,CO,NA,NA,82.7426810477658,NA
80302,Boulder County,CO,NA,NA,NA,76.47058823529412
80401,Jefferson County,CO,NA,79.88505747126436,NA,NA
80514,Weld County,CO,NA,NA,97.07241910631741,NA
80525,Larimer County,CO,NA,NA,18.952234206471495,NA
80537,Larimer County,CO,NA,NA,25.885978428351308,NA
80602,Adams County,CO,NA,NA,51.61787365177196,NA
80631,Weld County,CO,NA,23.850574712643677,NA,NA
80634,Weld County,CO,NA,NA,3.389830508474576,NA
80723,Morgan County,CO,NA,NA,81.35593220338984,NA
80904,El Paso County,CO,NA,84.77011494252874,NA,NA
80909,El Paso County,CO,NA,NA,29.121725731895225,NA
80916,El Paso County,CO,NA,NA,NA,72.35294117647058
80918,El Paso County,CO,NA,NA,NA,41.17647058823529
81003,Pueblo County,CO,NA,59.48275862068966,NA,NA
81144,Rio Grande County,CO,NA,95.97701149425288,NA,NA
81521,Mesa County,CO,NA,NA,75.50077041602465,NA
81650,Garfield County,CO,NA,79.3103448275862,NA,NA
06033,Hartford County,CT,28.517110266159694,NA,NA,NA
06040,Hartford County,CT,NA,24.71264367816092,NA,NA
06051,Hartford County,CT,NA,NA,5.084745762711865,NA
06067,Hartford County,CT,NA,NA,74.884437596302,NA
06076,Tolland County,CT,NA,NA,79.66101694915254,NA
06095,Hartford County,CT,NA,NA,77.65793528505392,NA
06118,Hartford County,CT,NA,NA,30.0462249614792,NA
06226,Windham County,CT,NA,NA,NA,52.94117647058824
06239,Windham County,CT,NA,NA,74.73035439137135,NA
06450,New Haven County,CT,NA,35.63218390804598,NA,NA
06451,New Haven County,CT,NA,NA,29.892141756548536,NA
06457,Middlesex County,CT,NA,NA,9.399075500770417,NA
06511,New Haven County,CT,NA,NA,6.163328197226503,NA
06513,New Haven County,CT,NA,NA,24.961479198767332,NA
06516,New Haven County,CT,13.307984790874524,NA,NA,NA
06770,New Haven County,CT,NA,NA,28.35130970724191,NA
06790,Litchfield County,CT,NA,NA,NA,2.3529411764705883
06810,Fairfield County,CT,NA,NA,19.106317411402156,NA
06902,Fairfield County,CT,NA,18.39080459770115,NA,NA
19702,New Castle County,DE,NA,15.229885057471265,NA,NA
19720,New Castle County,DE,NA,NA,3.697996918335902,NA
19734,New Castle County,DE,NA,NA,NA,83.52941176470588
19803,New Castle County,DE,35.361216730038024,NA,NA,NA
19809,New Castle County,DE,NA,89.36781609195403,NA,NA
19904,Kent County,DE,NA,44.252873563218394,NA,NA
19933,Sussex County,DE,NA,NA,76.5793528505393,NA
19934,Kent County,DE,50.950570342205324,NA,NA,77.64705882352942
19946,Kent County,DE,NA,NA,96.45608628659477,NA
19958,Sussex County,DE,NA,NA,40.67796610169492,NA
19966,Sussex County,DE,30.038022813688215,NA,NA,NA
19975,Sussex County,DE,93.5361216730038,NA,NA,NA
32084,St. Johns County,FL,NA,67.24137931034483,NA,NA
32091,Bradford County,FL,NA,NA,NA,47.647058823529406
32117,Volusia County,FL,NA,38.2183908045977,NA,NA
32137,Flagler County,FL,NA,69.82758620689656,NA,NA
32159,Lake County,FL,NA,NA,72.88135593220339,NA
32207,Duval County,FL,NA,NA,54.08320493066255,NA
32216,Duval County,FL,NA,NA,22.496147919876734,NA
32218,Duval County,FL,9.885931558935361,NA,NA,NA
32219,Duval County,FL,NA,NA,50.38520801232666,NA
32221,Duval County,FL,NA,NA,35.43913713405239,NA
32226,Duval County,FL,NA,NA,NA,64.11764705882354
32256,Duval County,FL,53.99239543726235,NA,NA,NA
32258,Duval County,FL,NA,NA,61.17103235747303,NA
32303,Leon County,FL,NA,NA,NA,53.529411764705884
32304,Leon County,FL,NA,NA,NA,90.58823529411765
32305,Leon County,FL,NA,69.82758620689656,NA,NA
32309,Leon County,FL,NA,NA,NA,75.88235294117646
32344,Jefferson County,FL,NA,NA,93.0662557781202,NA
32526,Escambia County,FL,NA,34.770114942528735,NA,NA
32571,Santa Rosa County,FL,NA,NA,17.41140215716487,18.823529411764707
32605,Alachua County,FL,NA,91.95402298850574,NA,NA
32608,Alachua County,FL,NA,NA,9.090909090909092,NA
32693,Gilchrist County,FL,NA,NA,75.03852080123266,NA
32701,Seminole County,FL,NA,74.71264367816092,NA,NA
32796,Brevard County,FL,NA,63.793103448275865,NA,NA
32960,Indian River County,FL,46.00760456273764,NA,NA,NA
32962,Indian River County,FL,NA,NA,53.15870570107858,NA
33004,Broward County,FL,NA,78.44827586206897,NA,NA
33018,Miami-Dade County,FL,NA,NA,81.51001540832048,NA
33020,Broward County,FL,NA,NA,36.209553158705695,NA
33032,Miami-Dade County,FL,12.547528517110266,16.666666666666664,NA,NA
33063,Broward County,FL,46.38783269961977,NA,NA,34.11764705882353
33127,Miami-Dade County,FL,53.2319391634981,NA,NA,NA
33139,Miami-Dade County,FL,NA,NA,66.56394453004623,NA
33143,Miami-Dade County,FL,NA,NA,85.05392912172573,NA
33157,Miami-Dade County,FL,NA,19.82758620689655,NA,NA
33162,Miami-Dade County,FL,NA,47.98850574712644,NA,NA
33177,Miami-Dade County,FL,14.44866920152091,NA,NA,NA
33181,Miami-Dade County,FL,NA,73.27586206896551,NA,NA
33190,Miami-Dade County,FL,84.03041825095056,NA,NA,NA
33311,Broward County,FL,NA,NA,8.628659476117104,NA
33313,Broward County,FL,NA,17.81609195402299,25.115562403698,NA
33324,Broward County,FL,55.51330798479087,NA,NA,NA
33325,Broward County,FL,NA,NA,78.73651771956857,NA
33327,Broward County,FL,NA,93.10344827586206,NA,NA
33351,Broward County,FL,NA,NA,77.96610169491525,NA
33404,Palm Beach County,FL,NA,NA,NA,54.11764705882353
33407,Palm Beach County,FL,NA,NA,35.130970724191066,NA
33411,Palm Beach County,FL,NA,61.7816091954023,NA,NA
33431,Palm Beach County,FL,NA,NA,NA,61.1764705882353
33460,Palm Beach County,FL,NA,34.48275862068966,NA,NA
33463,Palm Beach County,FL,NA,NA,83.82126348228043,NA
33527,Hillsborough County,FL,NA,NA,89.21417565485362,NA
33534,Hillsborough County,FL,NA,NA,78.27426810477658,NA
33540,Pasco County,FL,NA,NA,NA,78.23529411764706
33543,Pasco County,FL,NA,NA,86.28659476117103,NA
33598,Hillsborough County,FL,79.46768060836501,NA,NA,NA
33604,Hillsborough County,FL,NA,12.35632183908046,NA,NA
33607,Hillsborough County,FL,NA,NA,56.240369799691834,NA
33614,Hillsborough County,FL,NA,25.287356321839084,NA,NA
33763,Pinellas County,FL,NA,96.83908045977012,NA,NA
33771,Pinellas County,FL,NA,NA,49.922958397534664,NA
33809,Polk County,FL,NA,NA,83.5130970724191,NA
33810,Polk County,FL,NA,20.114942528735632,NA,NA
33837,Polk County,FL,NA,43.96551724137931,NA,NA
33880,Polk County,FL,NA,NA,28.043143297380585,NA
33881,Polk County,FL,NA,NA,42.83513097072419,NA
33898,Polk County,FL,NA,74.71264367816092,NA,NA
33916,Lee County,FL,NA,NA,43.759630200308166,NA
34113,Collier County,FL,NA,63.2183908045977,NA,NA
34119,Collier County,FL,NA,NA,47.14946070878274,NA
34234,Sarasota County,FL,NA,NA,77.8120184899846,NA
34240,Sarasota County,FL,NA,NA,92.44992295839754,NA
34251,Manatee County,FL,NA,97.98850574712644,NA,NA
34442,Citrus County,FL,NA,NA,85.51617873651772,NA
34482,Marion County,FL,64.25855513307985,NA,NA,NA
34491,Marion County,FL,NA,46.55172413793103,NA,NA
34653,Pasco County,FL,NA,NA,NA,37.05882352941177
34669,Pasco County,FL,NA,66.0919540229885,NA,NA
34689,Pinellas County,FL,NA,NA,64.40677966101694,NA
34787,Orange County,FL,NA,NA,30.508474576271187,NA
34994,Martin County,FL,NA,NA,NA,56.470588235294116
30005,Fulton County,GA,NA,NA,75.96302003081664,NA
30017,Gwinnett County,GA,27.756653992395435,NA,NA,NA
30028,Forsyth County,GA,72.24334600760456,NA,NA,NA
30034,DeKalb County,GA,NA,NA,35.74730354391371,NA
30127,Cobb County,GA,12.167300380228136,NA,NA,NA
30135,Douglas County,GA,29.277566539923956,NA,NA,NA
30165,Floyd County,GA,NA,NA,65.17719568567027,NA
30168,Cobb County,GA,NA,NA,NA,87.6470588235294
30179,Carroll County,GA,NA,NA,64.25269645608628,NA
30188,Cherokee County,GA,NA,NA,NA,20
30222,Meriwether County,GA,NA,NA,93.8366718027735,NA
30294,DeKalb County,GA,NA,NA,46.379044684129425,NA
30311,Fulton County,GA,NA,37.06896551724138,NA,NA
30360,DeKalb County,GA,NA,73.85057471264368,NA,NA
30436,Toombs County,GA,NA,83.04597701149426,NA,NA
30471,Emanuel County,GA,98.47908745247148,NA,NA,NA
30512,Union County,GA,NA,NA,79.96918335901387,NA
30518,Gwinnett County,GA,27.376425855513308,58.04597701149425,NA,NA
30529,Jackson County,GA,NA,NA,85.51617873651772,NA
30549,Jackson County,GA,NA,NA,NA,58.82352941176471
30606,Clarke County,GA,NA,NA,44.06779661016949,NA
30642,Greene County,GA,NA,85.0574712643678,NA,NA
30906,Richmond County,GA,NA,NA,9.244992295839753,NA
30907,Columbia County,GA,NA,NA,31.2788906009245,NA
31027,Laurens County,GA,NA,NA,91.52542372881356,NA
31316,Long County,GA,91.25475285171103,96.55172413793103,NA,NA
31501,Ware County,GA,NA,NA,72.72727272727273,NA
31537,Charlton County,GA,79.84790874524715,NA,NA,NA
31601,Lowndes County,GA,NA,NA,NA,42.94117647058823
31643,Brooks County,GA,NA,NA,75.03852080123266,NA
31757,Thomas County,GA,NA,98.27586206896551,NA,NA
31793,Tift County,GA,NA,88.50574712643679,NA,NA
31907,Muscogee County,GA,NA,32.4712643678161,NA,NA
39819,Decatur County,GA,NA,NA,85.20801232665639,NA
96706,Honolulu County,HI,NA,53.735632183908045,NA,NA
96717,Honolulu County,HI,96.57794676806084,NA,NA,NA
96768,Maui County,HI,NA,NA,96.3020030816641,NA
96786,Honolulu County,HI,33.460076045627375,NA,NA,NA
96793,Maui County,HI,NA,NA,82.43451463790447,NA
96816,Honolulu County,HI,NA,NA,38.058551617873654,NA
83401,Bonneville County,ID,NA,6.896551724137931,NA,NA
83616,Ada County,ID,NA,NA,NA,12.941176470588237
83672,Washington County,ID,NA,NA,NA,82.35294117647058
60010,Lake County,IL,NA,NA,44.37596302003082,NA
60030,Lake County,IL,NA,NA,47.45762711864407,NA
60031,Lake County,IL,38.40304182509506,NA,NA,NA
60035,Lake County,IL,NA,NA,48.99845916795069,NA
60048,Lake County,IL,37.26235741444867,NA,NA,NA
60053,Cook County,IL,NA,NA,NA,37.64705882352941
60060,Lake County,IL,NA,NA,52.85053929121726,NA
60068,Cook County,IL,NA,NA,45.300462249614796,NA
60073,Lake County,IL,NA,NA,19.72265023112481,NA
60074,Cook County,IL,NA,NA,46.687211093990754,NA
60103,DuPage County,IL,NA,NA,NA,27.058823529411764
60135,DeKalb County,IL,87.83269961977186,NA,NA,NA
60143,DuPage County,IL,79.84790874524715,NA,NA,NA
60188,DuPage County,IL,NA,NA,55.62403697996918,NA
60192,Cook County,IL,NA,NA,90.60092449922959,NA
60193,Cook County,IL,NA,NA,NA,12.352941176470589
60419,Cook County,IL,NA,NA,50.693374422187986,NA
60435,Will County,IL,NA,NA,13.097072419106318,NA
60461,Cook County,IL,NA,NA,96.76425269645608,NA
60468,Will County,IL,80.6083650190114,NA,NA,NA
60478,Cook County,IL,NA,NA,83.9753466872111,NA
60506,Kane County,IL,17.110266159695815,NA,NA,NA
60510,Kane County,IL,31.1787072243346,NA,NA,NA
60516,DuPage County,IL,NA,NA,50.53929121725732,NA
60544,Will County,IL,50.19011406844106,NA,NA,NA
60611,Cook County,IL,85.55133079847909,NA,NA,NA
60616,Cook County,IL,20.53231939163498,NA,NA,NA
60617,Cook County,IL,NA,NA,NA,3.5294117647058822
60639,Cook County,IL,3.041825095057034,NA,NA,NA
60640,Cook County,IL,NA,NA,10.477657935285054,NA
60660,Cook County,IL,NA,NA,32.973805855161785,NA
61548,Woodford County,IL,NA,NA,93.99075500770417,NA
61920,Coles County,IL,NA,NA,NA,57.05882352941176
62062,Madison County,IL,87.83269961977186,NA,NA,NA
62234,Madison County,IL,NA,NA,55.1617873651772,NA
62439,Lawrence County,IL,94.67680608365019,NA,NA,NA
46016,Madison County,IN,NA,NA,17.873651771956855,NA
46038,Hamilton County,IN,NA,NA,65.63944530046226,NA
46040,Hancock County,IN,NA,NA,89.98459167950693,NA
46131,Johnson County,IN,NA,72.41379310344827,NA,NA
46151,Morgan County,IN,NA,NA,30.81664098613251,NA
46176,Shelby County,IN,NA,NA,19.568567026194145,NA
46203,Marion County,IN,NA,NA,NA,18.235294117647058
46221,Marion County,IN,NA,52.58620689655172,NA,NA
46235,Marion County,IN,NA,NA,23.728813559322035,NA
46260,Marion County,IN,44.106463878327,NA,NA,NA
46341,Porter County,IN,NA,NA,69.79969183359015,NA
46366,Starke County,IN,NA,91.95402298850574,NA,NA
46383,Porter County,IN,NA,NA,9.70724191063174,NA
46526,Elkhart County,IN,NA,61.49425287356321,NA,NA
46613,St. Joseph County,IN,NA,NA,95.99383667180277,NA
46619,St. Joseph County,IN,NA,75.57471264367817,NA,NA
46803,Allen County,IN,NA,NA,89.52234206471495,NA
46947,Cass County,IN,NA,NA,15.408320493066254,NA
46970,Miami County,IN,NA,42.81609195402299,NA,NA
47167,Washington County,IN,77.18631178707224,NA,NA,NA
47201,Bartholomew County,IN,NA,54.310344827586206,NA,NA
47394,Randolph County,IN,NA,85.91954022988506,NA,NA
47396,Delaware County,IN,NA,NA,NA,94.70588235294117
47591,Knox County,IN,25.09505703422053,NA,NA,NA
47868,Owen County,IN,NA,NA,98.92141756548536,NA
47905,Tippecanoe County,IN,53.2319391634981,NA,NA,NA
50138,Marion County,IA,NA,NA,57.473035439137135,NA
50208,Jasper County,IA,NA,NA,62.71186440677966,NA
50210,Warren County,IA,100,NA,NA,NA
50310,Polk County,IA,NA,NA,59.16795069337443,NA
50315,Polk County,IA,NA,NA,10.323574730354391,NA
50320,Polk County,IA,NA,NA,83.66718027734977,NA
50401,Cerro Gordo County,IA,0.7604562737642585,NA,NA,NA
50501,Webster County,IA,NA,55.74712643678161,29.583975346687215,NA
51023,Sioux County,IA,92.77566539923954,NA,NA,NA
51031,Plymouth County,IA,NA,NA,86.90292758089369,NA
51106,Woodbury County,IA,NA,NA,53.46687211093991,NA
51503,Pottawattamie County,IA,NA,NA,10.16949152542373,NA
51632,Page County,IA,NA,NA,82.89676425269646,NA
52057,Delaware County,IA,NA,NA,90.29275808936826,NA
52241,Johnson County,IA,NA,NA,51.463790446841294,NA
52402,Linn County,IA,NA,NA,23.26656394453005,NA
52403,Linn County,IA,NA,NA,47.61171032357473,NA
52601,Des Moines County,IA,NA,NA,15.716486902927581,NA
52627,Lee County,IA,NA,NA,49.30662557781202,NA
52722,Scott County,IA,10.26615969581749,NA,NA,NA
52803,Scott County,IA,NA,NA,41.910631741140215,NA
52804,Scott County,IA,NA,NA,20.33898305084746,NA
66049,Douglas County,KS,NA,NA,63.17411402157165,NA
66801,Lyon County,KS,NA,NA,55.1617873651772,NA
67002,Butler County,KS,NA,NA,96.61016949152543,NA
67212,Sedgwick County,KS,62.737642585551335,NA,NA,NA
67846,Finney County,KS,NA,NA,26.964560862865948,NA
40033,Marion County,KY,NA,NA,65.94761171032357,NA
40118,Jefferson County,KY,NA,NA,59.93836671802774,NA
40160,Hardin County,KY,NA,NA,38.674884437596305,NA
40207,Jefferson County,KY,NA,NA,NA,38.23529411764706
40214,Jefferson County,KY,NA,NA,8.47457627118644,NA
40218,Jefferson County,KY,NA,NA,47.919876733436055,NA
40223,Jefferson County,KY,NA,NA,NA,52.352941176470594
40229,Jefferson County,KY,NA,NA,15.10015408320493,NA
40272,Jefferson County,KY,NA,NA,17.257318952234208,NA
40475,Madison County,KY,20.53231939163498,NA,NA,13.529411764705882
40484,Lincoln County,KY,NA,NA,76.27118644067797,NA
40977,Bell County,KY,NA,NA,58.85978428351309,NA
41030,Grant County,KY,NA,NA,80.12326656394453,NA
41071,Campbell County,KY,NA,NA,NA,38.82352941176471
41522,Pike County,KY,NA,NA,NA,88.23529411764706
42001,McCracken County,KY,NA,NA,35.43913713405239,NA
42029,Marshall County,KY,NA,NA,81.20184899845917,NA
42045,Livingston County,KY,NA,NA,100,NA
42050,Fulton County,KY,NA,NA,98.30508474576271,NA
42101,Warren County,KY,11.406844106463879,NA,NA,NA
42103,Warren County,KY,NA,NA,69.64560862865947,NA
42129,Metcalfe County,KY,NA,65.51724137931035,NA,NA
42167,Monroe County,KY,NA,NA,70.57010785824345,NA
42220,Todd County,KY,NA,NA,NA,86.47058823529412
42240,Christian County,KY,68.06083650190115,NA,NA,NA
42261,Butler County,KY,NA,NA,68.56702619414484,NA
42642,Russell County,KY,NA,NA,73.49768875192603,NA
42701,Hardin County,KY,NA,26.436781609195403,NA,NA
70001,Jefferson Parish,LA,NA,NA,26.194144838212637,NA
70002,Jefferson Parish,LA,20.15209125475285,NA,NA,NA
70058,Jefferson Parish,LA,NA,NA,NA,15.88235294117647
70068,St. John the Baptist Parish,LA,NA,NA,12.172573189522343,NA
70094,Jefferson Parish,LA,NA,NA,28.50539291217257,19.411764705882355
70118,Orleans Parish,LA,NA,37.64367816091954,NA,NA
70126,Orleans Parish,LA,NA,NA,66.87211093990754,NA
70301,Lafourche Parish,LA,NA,20.689655172413794,NA,NA
70345,Lafourche Parish,LA,NA,49.42528735632184,NA,NA
70346,Ascension Parish,LA,NA,NA,82.12634822804314,NA
70359,Terrebonne Parish,LA,NA,18.67816091954023,NA,NA
70363,Terrebonne Parish,LA,NA,14.080459770114942,5.3929121725731894,NA
70364,Terrebonne Parish,LA,NA,NA,9.553158705701078,NA
70374,Lafourche Parish,LA,NA,NA,42.98921417565486,NA
70394,Lafourche Parish,LA,NA,12.643678160919542,NA,NA
70435,St. Tammany Parish,LA,NA,50.287356321839084,NA,NA
70443,Tangipahoa Parish,LA,NA,18.96551724137931,NA,NA
70458,St. Tammany Parish,LA,NA,NA,80.43143297380585,NA
70520,Lafayette Parish,LA,NA,8.045977011494253,NA,NA
70535,St. Landry Parish,LA,NA,NA,33.43605546995377,NA
70582,St. Martin Parish,LA,NA,NA,36.05546995377504,NA
70601,Calcasieu Parish,LA,NA,NA,67.64252696456087,NA
70633,Calcasieu Parish,LA,NA,49.137931034482754,NA,NA
70647,Calcasieu Parish,LA,NA,NA,49.76887519260401,NA
70726,Livingston Parish,LA,NA,NA,1.848998459167951,NA
70744,Livingston Parish,LA,NA,NA,NA,99.41176470588235
70754,Livingston Parish,LA,NA,60.91954022988506,NA,NA
70764,Iberville Parish,LA,NA,13.793103448275861,NA,NA
70807,East Baton Rouge Parish,LA,NA,NA,16.024653312788907,NA
71047,Caddo Parish,LA,NA,NA,57.16486902927581,NA
71106,Caddo Parish,LA,NA,NA,7.858243451463791,NA
71241,Union Parish,LA,NA,51.14942528735632,NA,NA
71270,Lincoln Parish,LA,NA,20.402298850574713,NA,NA
71301,Rapides Parish,LA,NA,NA,8.936825885978427,NA
71302,Rapides Parish,LA,NA,NA,31.587057010785824,NA
71328,Rapides Parish,LA,NA,35.05747126436782,NA,NA
04101,Cumberland County,ME,NA,NA,41.75654853620955,NA
04240,Androscoggin County,ME,NA,7.471264367816093,NA,2.941176470588235
04281,Oxford County,ME,NA,NA,83.35901386748844,NA
04294,Franklin County,ME,NA,93.10344827586206,NA,NA
04572,Lincoln County,ME,NA,NA,74.57627118644068,NA
04742,Aroostook County,ME,NA,NA,84.28351309707242,NA
04957,Somerset County,ME,NA,NA,81.66409861325116,NA
20602,Charles County,MD,75.66539923954373,NA,NA,NA
20640,Charles County,MD,NA,NA,91.52542372881356,NA
20653,St. Mary's County,MD,85.55133079847909,NA,NA,NA
20705,Prince George's County,MD,NA,NA,84.89984591679507,NA
20769,Prince George's County,MD,97.71863117870723,NA,NA,NA
20854,Montgomery County,MD,NA,NA,69.9537750385208,NA
21048,Carroll County,MD,NA,NA,NA,89.41176470588236
21061,Anne Arundel County,MD,NA,NA,11.864406779661017,NA
21206,Baltimore city,MD,NA,NA,14.946070878274268,NA
21239,Baltimore city,MD,NA,NA,38.983050847457626,NA
21701,Frederick County,MD,NA,NA,65.33127889060091,NA
21811,Worcester County,MD,NA,NA,NA,30
01013,Hampden County,MA,NA,28.160919540229884,NA,NA
01089,Hampden County,MA,NA,40.804597701149426,NA,NA
01119,Hampden County,MA,45.247148288973385,NA,NA,NA
01247,Berkshire County,MA,NA,NA,7.550077041602465,NA
01364,Franklin County,MA,56.27376425855514,NA,NA,NA
01453,Worcester County,MA,NA,NA,24.19106317411402,NA
01464,Middlesex County,MA,NA,NA,NA,98.23529411764706
01535,Worcester County,MA,NA,NA,NA,100
01550,Worcester County,MA,NA,2.8735632183908044,1.2326656394453006,NA
01570,Worcester County,MA,NA,9.770114942528735,NA,NA
01581,Worcester County,MA,NA,NA,39.59938366718028,NA
01588,Worcester County,MA,NA,NA,56.70261941448382,NA
01606,Worcester County,MA,NA,NA,53.62095531587057,NA
01607,Worcester County,MA,NA,NA,16.33281972265023,NA
01702,Middlesex County,MA,NA,4.310344827586207,NA,NA
01741,Middlesex County,MA,NA,NA,97.38058551617874,NA
01746,Middlesex County,MA,73.76425855513308,NA,NA,NA
01760,Middlesex County,MA,NA,NA,12.942989214175654,NA
01821,Middlesex County,MA,NA,NA,6.6255778120184905,NA
01826,Middlesex County,MA,NA,NA,26.348228043143294,NA
01832,Essex County,MA,NA,NA,67.79661016949152,NA
01841,Essex County,MA,NA,0,NA,NA
01843,Essex County,MA,2.2813688212927756,NA,NA,NA
01851,Middlesex County,MA,NA,NA,2.773497688751926,NA
01852,Middlesex County,MA,NA,28.448275862068968,NA,NA
01854,Middlesex County,MA,NA,NA,2.157164869029276,NA
01886,Middlesex County,MA,NA,NA,86.13251155624036,NA
01970,Essex County,MA,NA,NA,NA,0
02050,Plymouth County,MA,NA,89.08045977011494,NA,NA
02054,Norfolk County,MA,NA,NA,NA,93.52941176470588
02072,Norfolk County,MA,NA,14.655172413793101,NA,NA
02081,Norfolk County,MA,NA,NA,NA,91.17647058823529
02093,Norfolk County,MA,NA,NA,62.557781201849,NA
02119,Suffolk County,MA,NA,1.7241379310344827,NA,NA
02126,Suffolk County,MA,NA,NA,0.6163328197226503,NA
02128,Suffolk County,MA,NA,NA,0.46224961479198773,NA
02129,Suffolk County,MA,22.813688212927758,NA,NA,NA
02135,Suffolk County,MA,NA,NA,5.855161787365177,NA
02136,Suffolk County,MA,NA,NA,2.311248073959938,NA
02138,Middlesex County,MA,NA,NA,45.91679506933744,NA
02149,Middlesex County,MA,NA,NA,3.2357473035439135,NA
02151,Suffolk County,MA,NA,4.022988505747127,0.15408320493066258,NA
02155,Middlesex County,MA,1.1406844106463878,NA,NA,NA
02341,Plymouth County,MA,89.35361216730038,NA,NA,NA
02421,Middlesex County,MA,NA,NA,22.650231124807398,NA
02452,Middlesex County,MA,59.6958174904943,NA,NA,NA
02460,Middlesex County,MA,NA,NA,68.87519260400616,NA
02568,Dukes County,MA,NA,NA,NA,49.411764705882355
02664,Barnstable County,MA,NA,26.72413793103448,NA,NA
02703,Bristol County,MA,NA,5.172413793103448,NA,NA
02720,Bristol County,MA,NA,NA,0.30816640986132515,NA
02740,Bristol County,MA,NA,NA,0,NA
02780,Bristol County,MA,NA,46.55172413793103,NA,NA
48001,St. Clair County,MI,NA,NA,75.50077041602465,77.05882352941177
48051,Macomb County,MI,NA,NA,NA,43.529411764705884
48081,Macomb County,MI,NA,81.32183908045977,NA,NA
48092,Macomb County,MI,NA,NA,NA,24.705882352941178
48101,Wayne County,MI,NA,NA,NA,34.705882352941174
48114,Livingston County,MI,40.68441064638783,NA,NA,NA
48120,Wayne County,MI,77.9467680608365,NA,NA,NA
48124,Wayne County,MI,NA,NA,24.03697996918336,NA
48125,Wayne County,MI,NA,NA,27.27272727272727,NA
48185,Wayne County,MI,4.942965779467681,NA,NA,NA
48189,Washtenaw County,MI,NA,NA,67.4884437596302,NA
48207,Wayne County,MI,NA,NA,22.95839753466872,NA
48212,Wayne County,MI,NA,NA,NA,16.470588235294116
48213,Wayne County,MI,NA,NA,13.559322033898304,NA
48215,Wayne County,MI,NA,NA,42.526964560862865,NA
48218,Wayne County,MI,80.98859315589354,NA,NA,NA
48228,Wayne County,MI,NA,17.52873563218391,1.694915254237288,NA
48304,Oakland County,MI,69.20152091254754,NA,NA,NA
48329,Oakland County,MI,NA,NA,39.13713405238829,NA
48342,Oakland County,MI,NA,25.57471264367816,NA,NA
48383,Oakland County,MI,NA,81.32183908045977,NA,NA
48390,Oakland County,MI,NA,NA,43.6055469953775,NA
48462,Oakland County,MI,77.56653992395437,NA,NA,NA
48505,Genesee County,MI,NA,42.81609195402299,NA,NA
48610,Arenac County,MI,NA,95.6896551724138,NA,NA
48849,Ionia County,MI,NA,76.14942528735632,NA,NA
48917,Eaton County,MI,NA,NA,10.631741140215716,NA
49017,Calhoun County,MI,NA,NA,NA,28.235294117647058
49047,Cass County,MI,NA,64.9425287356322,NA,NA
49048,Kalamazoo County,MI,NA,59.48275862068966,NA,NA
49056,Van Buren County,MI,NA,91.0919540229885,NA,NA
49085,Berrien County,MI,NA,86.49425287356321,61.016949152542374,NA
49242,Hillsdale County,MI,71.48288973384031,NA,52.08012326656395,NA
49269,Jackson County,MI,87.07224334600761,NA,NA,NA
49307,Mecosta County,MI,NA,NA,57.01078582434514,NA
49341,Kent County,MI,15.96958174904943,NA,NA,NA
49417,Ottawa County,MI,NA,51.43678160919541,NA,NA
49423,Ottawa County,MI,NA,NA,NA,10.588235294117647
49442,Muskegon County,MI,NA,NA,NA,5.88235294117647
49456,Ottawa County,MI,NA,NA,NA,32.35294117647059
49677,Osceola County,MI,NA,NA,70.87827426810478,79.41176470588235
49707,Alpena County,MI,NA,NA,NA,24.11764705882353
49829,Delta County,MI,NA,NA,39.29121725731895,NA
55009,Goodhue County,MN,NA,NA,77.19568567026194,NA
55013,Chisago County,MN,NA,96.83908045977012,NA,NA
55016,Washington County,MN,7.224334600760455,NA,NA,NA
55101,Ramsey County,MN,NA,NA,39.59938366718028,NA
55102,Ramsey County,MN,NA,NA,34.66872110939907,NA
55376,Wright County,MN,40.3041825095057,NA,89.6764252696456,NA
55379,Scott County,MN,NA,30.747126436781606,32.357473035439135,NA
55397,Carver County,MN,99.23954372623575,NA,NA,NA
55404,Hennepin County,MN,NA,NA,1.5408320493066257,NA
55420,Hennepin County,MN,NA,56.896551724137936,NA,NA
55444,Hennepin County,MN,39.163498098859314,NA,NA,NA
55449,Anoka County,MN,NA,NA,55.1617873651772,NA
56081,Watonwan County,MN,77.9467680608365,NA,NA,NA
56277,Renville County,MN,NA,NA,99.22958397534669,NA
56477,Wadena County,MN,NA,NA,NA,98.82352941176471
56560,Clay County,MN,NA,NA,2.0030816640986133,NA
56601,Beltrami County,MN,NA,NA,7.704160246533127,NA
38751,Sunflower County,MS,NA,NA,87.36517719568567,NA
39047,Rankin County,MS,NA,NA,NA,47.05882352941176
39056,Hinds County,MS,64.63878326996198,NA,NA,NA
39110,Madison County,MS,17.490494296577946,NA,NA,NA
39180,Warren County,MS,NA,NA,47.61171032357473,55.294117647058826
39194,Yazoo County,MS,NA,NA,55.932203389830505,NA
39212,Hinds County,MS,NA,NA,25.577812018489986,NA
39426,Pearl River County,MS,NA,NA,60.86286594761171,NA
39443,Jones County,MS,NA,NA,71.1864406779661,NA
39452,George County,MS,NA,NA,31.432973805855163,NA
39483,Marion County,MS,NA,NA,89.36825885978429,NA
63020,Jefferson County,MO,NA,53.44827586206896,NA,NA
63028,Jefferson County,MO,NA,NA,28.96764252696456,NA
63052,Jefferson County,MO,15.96958174904943,NA,NA,NA
63074,St. Louis County,MO,NA,50,NA,NA
63114,St. Louis County,MO,NA,NA,30.354391371340522,NA
63120,St. Louis city,MO,57.414448669201526,NA,NA,NA
63121,St. Louis County,MO,44.106463878327,NA,34.82280431432974,NA
63122,St. Louis County,MO,NA,NA,64.71494607087827,NA
63129,St. Louis County,MO,NA,NA,NA,9.411764705882353
63366,St. Charles County,MO,7.984790874524715,NA,15.254237288135593,NA
63376,St. Charles County,MO,33.07984790874524,NA,NA,NA
63435,Lewis County,MO,NA,NA,99.07550077041603,NA
63660,Washington County,MO,NA,94.25287356321839,NA,NA
63740,Scott County,MO,NA,89.36781609195403,NA,NA
63901,Butler County,MO,NA,31.60919540229885,NA,NA
64016,Jackson County,MO,95.43726235741445,NA,NA,NA
64050,Jackson County,MO,NA,NA,18.335901386748844,NA
64055,Jackson County,MO,NA,31.896551724137932,NA,NA
64056,Jackson County,MO,NA,NA,30.970724191063177,NA
64063,Jackson County,MO,NA,NA,NA,45.88235294117647
64083,Cass County,MO,NA,NA,42.21879815100154,NA
64108,Jackson County,MO,NA,52.29885057471264,NA,NA
64109,Jackson County,MO,NA,63.793103448275865,NA,NA
64118,Clay County,MO,NA,10.344827586206897,NA,NA
64133,Jackson County,MO,NA,NA,6.00924499229584,NA
64152,Platte County,MO,NA,NA,NA,41.76470588235294
64701,Cass County,MO,NA,NA,48.07395993836672,NA
64744,Cedar County,MO,NA,NA,81.97226502311248,NA
64836,Jasper County,MO,NA,NA,21.879815100154083,NA
65020,Camden County,MO,NA,NA,80.58551617873651,NA
65203,Boone County,MO,NA,68.10344827586206,NA,NA
65301,Pettis County,MO,NA,NA,5.701078582434515,NA
65565,Crawford County,MO,NA,93.10344827586206,NA,NA
65619,Greene County,MO,NA,87.643678160919535,NA,NA
65672,Taney County,MO,NA,NA,94.60708782742681,NA
65738,Greene County,MO,NA,NA,NA,82.94117647058825
65781,Greene County,MO,NA,NA,96.14791987673344,NA
59864,Lake County,MT,NA,NA,NA,92.94117647058823
68022,Douglas County,NE,NA,NA,NA,85.88235294117646
68025,Dodge County,NE,NA,71.83908045977012,NA,NA
68104,Douglas County,NE,22.433460076045627,NA,NA,NA
68117,Douglas County,NE,NA,85.63218390804597,NA,NA
68352,Jefferson County,NE,NA,NA,NA,96.47058823529412
68701,Madison County,NE,NA,NA,54.54545454545454,NA
68787,Wayne County,NE,NA,NA,99.53775038520801,NA
68801,Hall County,NE,NA,NA,88.59784283513096,NA
68850,Dawson County,NE,NA,NA,86.4406779661017,NA
69101,Lincoln County,NE,NA,NA,27.889060092449924,NA
89102,Clark County,NV,NA,70.6896551724138,NA,NA
89121,Clark County,NV,NA,47.12643678160919,NA,NA
89144,Clark County,NV,NA,NA,94.91525423728814,NA
89183,Clark County,NV,NA,86.7816091954023,NA,NA
89408,Lyon County,NV,47.90874524714829,NA,NA,NA
89431,Washoe County,NV,NA,NA,25.423728813559322,NA
89445,Humboldt County,NV,NA,NA,84.28351309707242,NA
89460,Douglas County,NV,75.2851711026616,NA,NA,NA
89509,Washoe County,NV,NA,NA,54.23728813559322,NA
03045,Hillsborough County,NH,NA,87.643678160919535,NA,NA
03103,Hillsborough County,NH,NA,NA,7.395993836671804,NA
03104,Hillsborough County,NH,NA,NA,17.103235747303543,NA
03743,Sullivan County,NH,NA,45.11494252873563,NA,NA
07010,Bergen County,NJ,NA,NA,90.9090909090909,NA
07026,Bergen County,NJ,NA,24.42528735632184,NA,NA
07030,Hudson County,NJ,41.06463878326996,62.93103448275862,NA,32.94117647058823
07042,Essex County,NJ,NA,NA,28.65947611710323,NA
07045,Morris County,NJ,96.1977186311787,NA,NA,NA
07050,Essex County,NJ,51.71102661596958,NA,NA,NA
07055,Passaic County,NJ,NA,2.2988505747126435,11.248073959938367,NA
07059,Somerset County,NJ,NA,NA,88.9060092449923,NA
07062,Union County,NJ,NA,NA,97.5346687211094,NA
07078,Essex County,NJ,NA,NA,92.91217257318952,NA
07105,Essex County,NJ,NA,19.25287356321839,14.791987673343607,NA
07108,Essex County,NJ,NA,NA,34.36055469953775,NA
07109,Essex County,NJ,NA,8.620689655172415,NA,NA
07203,Union County,NJ,NA,NA,65.33127889060091,NA
07305,Hudson County,NJ,NA,NA,0.7704160246533128,NA
07306,Hudson County,NJ,NA,6.609195402298851,NA,NA
07307,Hudson County,NJ,NA,NA,13.86748844375963,NA
07463,Bergen County,NJ,86.31178707224335,NA,NA,NA
07502,Passaic County,NJ,NA,NA,42.06471494607088,NA
07522,Passaic County,NJ,NA,15.517241379310345,NA,NA
07647,Bergen County,NJ,NA,NA,99.84591679506933,NA
07652,Bergen County,NJ,NA,84.48275862068965,NA,NA
07712,Monmouth County,NJ,NA,NA,41.14021571648691,NA
07731,Monmouth County,NJ,NA,NA,36.517719568567024,NA
07733,Monmouth County,NJ,NA,99.71264367816092,NA,78.82352941176471
07734,Monmouth County,NJ,NA,51.43678160919541,24.499229583975346,NA
07828,Morris County,NJ,59.31558935361216,NA,NA,NA
07840,Warren County,NJ,66.15969581749049,NA,NA,NA
07866,Morris County,NJ,NA,78.44827586206897,NA,NA
07876,Morris County,NJ,NA,NA,93.37442218798151,NA
08021,Camden County,NJ,NA,NA,4.468412942989214,NA
08070,Salem County,NJ,52.09125475285171,NA,NA,NA
08094,Gloucester County,NJ,10.26615969581749,48.85057471264368,NA,14.117647058823529
08096,Gloucester County,NJ,NA,NA,6.317411402157165,NA
08103,Camden County,NJ,NA,3.4482758620689653,NA,NA
08104,Camden County,NJ,NA,0.28735632183908044,21.10939907550077,NA
08105,Camden County,NJ,NA,0.8620689655172413,NA,NA
08110,Camden County,NJ,NA,14.367816091954023,NA,NA
08215,Atlantic County,NJ,NA,NA,NA,65.88235294117646
08234,Atlantic County,NJ,NA,NA,5.546995377503852,NA
08344,Gloucester County,NJ,NA,95.11494252873564,NA,NA
08401,Atlantic County,NJ,NA,NA,13.405238828967642,4.705882352941177
08628,Mercer County,NJ,82.88973384030417,NA,NA,NA
08629,Mercer County,NJ,NA,66.66666666666666,NA,NA
08736,Monmouth County,NJ,82.50950570342205,NA,NA,NA
08755,Ocean County,NJ,NA,41.37931034482759,NA,NA
08757,Ocean County,NJ,NA,NA,45.60862865947612,NA
08820,Middlesex County,NJ,NA,NA,81.81818181818183,NA
08822,Hunterdon County,NJ,NA,NA,27.426810477657938,NA
08859,Middlesex County,NJ,NA,77.87356321839081,NA,NA
08861,Middlesex County,NJ,NA,NA,14.175654853620955,NA
08879,Middlesex County,NJ,NA,NA,39.44530046224962,NA
87031,Valencia County,NM,NA,33.04597701149425,NA,NA
87109,Bernalillo County,NM,NA,29.597701149425287,NA,NA
87111,Bernalillo County,NM,NA,47.41379310344828,NA,NA
87505,Santa Fe County,NM,NA,NA,NA,8.235294117647058
87532,Santa Fe County,NM,38.78326996197718,NA,NA,NA
88007,Doa Ana County,NM,NA,45.11494252873563,NA,NA
88012,Doa Ana County,NM,32.31939163498099,NA,NA,NA
88081,Otero County,NM,NA,NA,84.12942989214176,NA
10453,Bronx County,NY,NA,1.1494252873563218,NA,NA
10454,Bronx County,NY,NA,NA,NA,7.647058823529412
10469,Bronx County,NY,NA,5.459770114942529,NA,NA
10550,Westchester County,NY,NA,40.51724137931034,NA,NA
10553,Westchester County,NY,NA,72.41379310344827,NA,NA
10701,Westchester County,NY,NA,2.0114942528735633,NA,NA
10801,Westchester County,NY,NA,NA,38.058551617873654,NA
10941,Orange County,NY,NA,NA,80.73959938366718,NA
11106,Queens County,NY,NA,58.04597701149425,NA,NA
11206,Kings County,NY,NA,1.4367816091954022,NA,NA
11208,Kings County,NY,NA,NA,NA,36.470588235294116
11214,Kings County,NY,NA,NA,19.41448382126348,NA
11221,Kings County,NY,2.6615969581749046,NA,NA,NA
11360,Queens County,NY,NA,NA,97.99691833590138,NA
11432,Queens County,NY,NA,6.0344827586206895,NA,NA
11435,Queens County,NY,NA,NA,13.713405238828969,NA
11561,Nassau County,NY,NA,68.39080459770115,NA,NA
11570,Nassau County,NY,NA,NA,88.13559322033898,NA
11751,Suffolk County,NY,NA,NA,92.14175654853621,NA
11779,Suffolk County,NY,NA,54.88505747126437,44.8382126348228,NA
11788,Suffolk County,NY,NA,NA,NA,80
12010,Montgomery County,NY,NA,NA,6.933744221879815,NA
12020,Saratoga County,NY,61.97718631178707,NA,NA,NA
12117,Fulton County,NY,95.05703422053232,NA,NA,97.05882352941177
12148,Saratoga County,NY,98.85931558935361,NA,NA,NA
12180,Rensselaer County,NY,NA,NA,2.6194144838212634,NA
12210,Albany County,NY,NA,NA,66.10169491525424,NA
12308,Schenectady County,NY,NA,50.86206896551724,NA,NA
12828,Washington County,NY,NA,NA,46.5331278890601,NA
12883,Essex County,NY,81.36882129277566,NA,NA,NA
12901,Clinton County,NY,NA,39.6551724137931,4.314329738058552,NA
12946,Essex County,NY,79.08745247148289,NA,NA,NA
12962,Clinton County,NY,84.79087452471484,NA,NA,NA
12986,Franklin County,NY,NA,76.14942528735632,NA,NA
13108,Onondaga County,NY,NA,NA,89.83050847457628,NA
13135,Oswego County,NY,NA,NA,69.02927580893683,NA
13209,Onondaga County,NY,NA,NA,51.15562403697997,NA
13329,Herkimer County,NY,NA,76.72413793103449,NA,NA
13343,Lewis County,NY,94.29657794676805,NA,NA,NA
13365,Herkimer County,NY,65.0190114068441,NA,NA,NA
13407,Herkimer County,NY,NA,NA,68.10477657935286,NA
13478,Oneida County,NY,93.5361216730038,NA,NA,NA
13655,St. Lawrence County,NY,NA,NA,88.13559322033898,NA
13669,St. Lawrence County,NY,NA,36.49425287356322,NA,NA
13730,Chenango County,NY,NA,NA,93.68258859784284,NA
13733,Chenango County,NY,NA,NA,75.346687211094,NA
13753,Delaware County,NY,NA,85.0574712643678,NA,NA
13815,Chenango County,NY,NA,58.04597701149425,NA,NA
13825,Otsego County,NY,NA,NA,87.98151001540832,NA
13827,Tioga County,NY,NA,NA,26.810477657935284,NA
13905,Broome County,NY,NA,21.26436781609195,NA,NA
14063,Chautauqua County,NY,55.13307984790875,NA,NA,NA
14075,Erie County,NY,NA,NA,10.015408320493066,NA
14085,Erie County,NY,85.17110266159695,NA,NA,NA
14086,Erie County,NY,NA,NA,23.728813559322035,NA
14111,Erie County,NY,96.95817490494296,NA,NA,NA
14132,Niagara County,NY,NA,NA,70.26194144838213,NA
14202,Erie County,NY,NA,99.13793103448276,NA,NA
14211,Erie County,NY,19.39163498098859,NA,NA,NA
14218,Erie County,NY,NA,NA,22.18798151001541,NA
14220,Erie County,NY,NA,NA,16.94915254237288,NA
14223,Erie County,NY,38.02281368821293,NA,NA,NA
14420,Monroe County,NY,NA,NA,18.489984591679505,NA
14424,Ontario County,NY,7.604562737642586,NA,3.5439137134052388,NA
14425,Ontario County,NY,12.927756653992395,NA,20.801232665639446,NA
14428,Monroe County,NY,32.69961977186312,NA,49.922958397534664,NA
14437,Livingston County,NY,NA,NA,48.228043143297384,NA
14456,Ontario County,NY,NA,NA,8.782742681047766,NA
14513,Wayne County,NY,NA,NA,6.779661016949152,NA
14527,Yates County,NY,57.79467680608364,NA,NA,NA
14534,Monroe County,NY,NA,NA,8.012326656394453,NA
14559,Monroe County,NY,9.505703422053232,NA,NA,NA
14564,Ontario County,NY,NA,NA,23.112480739599384,NA
14568,Wayne County,NY,NA,NA,71.49460708782742,NA
14572,Steuben County,NY,NA,86.7816091954023,NA,NA
14586,Monroe County,NY,NA,NA,38.366718027734976,NA
14606,Monroe County,NY,6.083650190114068,NA,NA,NA
14609,Monroe County,NY,NA,NA,NA,1.1764705882352942
14611,Monroe County,NY,NA,NA,8.320493066255779,NA
14615,Monroe County,NY,NA,43.39080459770115,NA,NA
14616,Monroe County,NY,NA,NA,4.160246533127889,NA
14617,Monroe County,NY,NA,NA,67.18027734976889,NA
14757,Chautauqua County,NY,NA,NA,95.53158705701078,NA
14760,Cattaraugus County,NY,11.02661596958175,NA,NA,NA
14810,Steuben County,NY,NA,69.54022988505747,NA,NA
14830,Steuben County,NY,NA,NA,27.73497688751926,NA
14843,Steuben County,NY,NA,NA,24.80739599383667,NA
27025,Rockingham County,NC,NA,NA,83.20493066255779,NA
27030,Surry County,NC,NA,18.103448275862068,33.89830508474576,NA
27105,Forsyth County,NC,NA,8.908045977011495,NA,NA
27127,Forsyth County,NC,NA,27.586206896551722,NA,6.470588235294119
27217,Alamance County,NC,NA,31.03448275862069,NA,NA
27278,Orange County,NC,NA,NA,26.656394453004623,NA
27295,Davidson County,NC,3.4220532319391634,NA,NA,NA
27320,Rockingham County,NC,13.688212927756654,NA,NA,NA
27511,Wake County,NC,NA,NA,70.72419106317412,NA
27523,Wake County,NC,83.65019011406845,NA,NA,NA
27616,Wake County,NC,NA,35.05747126436782,NA,NA
27705,Durham County,NC,NA,NA,26.040061633281976,NA
27801,Edgecombe County,NC,NA,56.896551724137936,NA,NA
28027,Cabarrus County,NC,NA,NA,54.39137134052389,NA
28043,Rutherford County,NC,49.80988593155893,NA,44.22187981510015,NA
28054,Gaston County,NC,NA,52.58620689655172,NA,NA
28078,Mecklenburg County,NC,NA,NA,37.13405238828968,NA
28117,Iredell County,NC,41.825095057034225,NA,NA,NA
28164,Gaston County,NC,NA,NA,84.7457627118644,NA
28170,Anson County,NC,71.10266159695817,NA,61.17103235747303,NA
28211,Mecklenburg County,NC,NA,55.45977011494253,NA,NA
28214,Mecklenburg County,NC,NA,NA,68.7211093990755,NA
28215,Mecklenburg County,NC,NA,NA,18.181818181818183,NA
28277,Mecklenburg County,NC,NA,NA,46.070878274268104,NA
28304,Cumberland County,NC,NA,NA,36.82588597842835,51.76470588235295
28379,Richmond County,NC,21.673003802281368,NA,NA,NA
28472,Columbus County,NC,NA,47.98850574712644,NA,NA
28539,Onslow County,NC,NA,NA,78.42835130970724,NA
28610,Catawba County,NC,NA,82.75862068965517,NA,NA
28645,Caldwell County,NC,NA,NA,4.930662557781202,NA
28787,Buncombe County,NC,NA,NA,72.57318952234206,NA
43055,Licking County,OH,NA,4.597701149425287,31.741140215716484,NA
43076,Perry County,OH,84.4106463878327,NA,NA,NA
43135,Hocking County,OH,NA,73.5632183908046,NA,NA
43204,Franklin County,OH,NA,0.5747126436781609,NA,NA
43211,Franklin County,OH,NA,NA,13.251155624036981,NA
43214,Franklin County,OH,NA,NA,52.85053929121726,NA
43219,Franklin County,OH,NA,NA,18.02773497688752,NA
43222,Franklin County,OH,NA,59.48275862068966,NA,NA
43228,Franklin County,OH,NA,NA,4.776579352850539,NA
43334,Morrow County,OH,NA,NA,NA,68.23529411764706
43420,Sandusky County,OH,NA,NA,12.788906009244993,NA
43506,Williams County,OH,61.59695817490495,NA,NA,29.411764705882355
43515,Fulton County,OH,NA,NA,NA,88.23529411764706
43543,Williams County,OH,NA,NA,NA,63.52941176470588
43609,Lucas County,OH,NA,NA,62.40369799691834,NA
43701,Muskingum County,OH,0,3.1609195402298855,0.9244992295839755,NA
43725,Guernsey County,OH,NA,NA,NA,8.823529411764707
43832,Tuscarawas County,OH,NA,NA,66.40986132511556,NA
43953,Jefferson County,OH,NA,NA,38.366718027734976,NA
44004,Ashtabula County,OH,NA,5.747126436781609,NA,NA
44054,Lorain County,OH,NA,NA,NA,44.70588235294118
44060,Lake County,OH,NA,NA,8.166409861325114,NA
44077,Lake County,OH,NA,NA,4.622496147919876,NA
44089,Erie County,OH,36.88212927756654,NA,NA,NA
44092,Lake County,OH,NA,NA,47.303543913713405,NA
44109,Cuyahoga County,OH,NA,NA,NA,1.7647058823529411
44113,Cuyahoga County,OH,24.714828897338403,NA,NA,NA
44114,Cuyahoga County,OH,NA,NA,37.442218798151,NA
44116,Cuyahoga County,OH,43.346007604562736,NA,NA,NA
44118,Cuyahoga County,OH,NA,NA,14.329738058551616,NA
44123,Cuyahoga County,OH,NA,NA,33.43605546995377,NA
44126,Cuyahoga County,OH,NA,NA,NA,48.23529411764706
44128,Cuyahoga County,OH,NA,24.71264367816092,NA,NA
44130,Cuyahoga County,OH,NA,NA,NA,0.5882352941176471
44135,Cuyahoga County,OH,NA,NA,4.006163328197227,NA
44145,Cuyahoga County,OH,NA,54.310344827586206,NA,NA
44224,Summit County,OH,NA,NA,25.26964560862866,NA
44256,Medina County,OH,NA,NA,5.238828967642527,NA
44260,Portage County,OH,NA,NA,NA,66.47058823529412
44312,Summit County,OH,NA,16.091954022988507,17.565485362095533,11.176470588235295
44320,Summit County,OH,NA,NA,52.38828967642527,NA
44401,Mahoning County,OH,92.77566539923954,NA,NA,NA
44460,Columbiana County,OH,NA,NA,24.345146379044685,NA
44471,Mahoning County,OH,NA,NA,59.630200308166415,NA
44483,Trumbull County,OH,NA,NA,19.26040061633282,NA
44507,Mahoning County,OH,NA,NA,56.39445300462249,NA
44511,Mahoning County,OH,NA,47.41379310344828,NA,NA
44512,Mahoning County,OH,NA,NA,12.326656394453005,NA
44514,Mahoning County,OH,NA,NA,NA,35.294117647058826
44601,Stark County,OH,NA,6.0344827586206895,NA,NA
44622,Tuscarawas County,OH,NA,30.45977011494253,NA,NA
44657,Stark County,OH,NA,66.0919540229885,NA,NA
44663,Tuscarawas County,OH,NA,9.770114942528735,NA,NA
44706,Stark County,OH,NA,NA,NA,48.8235294117647
44805,Ashland County,OH,NA,NA,16.178736517719567,NA
44814,Erie County,OH,81.74904942965779,NA,NA,NA
44870,Erie County,OH,NA,NA,2.465331278890601,NA
44907,Richland County,OH,NA,NA,44.99229583975347,NA
45011,Butler County,OH,NA,2.586206896551724,37.59630200308167,NA
45030,Hamilton County,OH,NA,NA,60.708782742681045,NA
45042,Butler County,OH,8.365019011406844,38.50574712643678,23.57473035439137,NA
45069,Butler County,OH,NA,29.88505747126437,NA,NA
45107,Clinton County,OH,NA,83.62068965517241,NA,NA
45206,Hamilton County,OH,NA,NA,58.85978428351309,NA
45224,Hamilton County,OH,NA,NA,NA,84.70588235294117
45324,Greene County,OH,NA,NA,NA,21.176470588235293
45344,Clark County,OH,NA,NA,63.944530046224955,NA
45356,Miami County,OH,NA,NA,NA,15.294117647058824
45373,Miami County,OH,4.562737642585551,NA,NA,NA
45405,Montgomery County,OH,NA,NA,28.197226502311246,NA
45417,Montgomery County,OH,NA,NA,9.861325115562405,NA
45431,Montgomery County,OH,NA,NA,NA,60.588235294117645
45505,Clark County,OH,NA,22.413793103448278,NA,NA
45638,Lawrence County,OH,NA,28.735632183908045,NA,NA
45662,Scioto County,OH,NA,24.137931034482758,NA,NA
45760,Meigs County,OH,78.70722433460075,NA,NA,NA
45801,Allen County,OH,NA,58.90804597701149,NA,NA
45805,Allen County,OH,NA,NA,NA,30
45879,Paulding County,OH,29.277566539923956,61.206896551724135,NA,NA
73008,Oklahoma County,OK,NA,NA,90.44684129429892,NA
73018,Grady County,OK,NA,62.643678160919535,NA,NA
73064,Canadian County,OK,NA,NA,55.007704160246526,NA
73072,Cleveland County,OK,30.798479087452474,NA,NA,NA
73099,Canadian County,OK,NA,74.42528735632183,NA,NA
73106,Oklahoma County,OK,68.44106463878326,NA,NA,NA
73527,Comanche County,OK,96.95817490494296,NA,NA,NA
73533,Stephens County,OK,NA,NA,25.731895223420647,NA
73644,Beckham County,OK,NA,NA,62.249614791987675,NA
74019,Rogers County,OK,NA,NA,51.30970724191063,NA
74033,Tulsa County,OK,57.79467680608364,NA,NA,NA
74112,Tulsa County,OK,NA,NA,59.32203389830508,NA
74352,Mayes County,OK,NA,NA,91.21725731895224,NA
74401,Muskogee County,OK,NA,NA,NA,64.70588235294117
74447,Okmulgee County,OK,63.49809885931559,NA,NA,NA
74571,Le Flore County,OK,NA,83.62068965517241,NA,NA
74820,Pontotoc County,OK,24.334600760456272,NA,NA,NA
74955,Sequoyah County,OK,NA,49.712643678160916,NA,NA
74960,Adair County,OK,NA,NA,31.895223420647152,NA
97068,Clackamas County,OR,NA,NA,71.9568567026194,NA
97086,Clackamas County,OR,NA,NA,58.089368258859785,NA
97103,Clatsop County,OR,NA,NA,59.78428351309707,NA
97128,Yamhill County,OR,NA,NA,22.033898305084744,NA
97213,Multnomah County,OR,NA,NA,42.3728813559322,NA
97301,Marion County,OR,NA,27.873563218390807,NA,NA
97304,Polk County,OR,NA,NA,63.02003081664098,NA
97322,Linn County,OR,45.247148288973385,NA,16.79506933744222,NA
97391,Lincoln County,OR,NA,87.643678160919535,NA,NA
97527,Josephine County,OR,NA,NA,80.89368258859785,NA
97741,Jefferson County,OR,NA,NA,79.66101694915254,NA
97914,Malheur County,OR,NA,NA,86.74884437596302,NA
15001,Beaver County,PA,NA,NA,57.6271186440678,NA
15010,Beaver County,PA,NA,NA,24.65331278890601,NA
15044,Allegheny County,PA,74.90494296577947,NA,NA,NA
15045,Allegheny County,PA,NA,NA,95.68567026194145,NA
15062,Westmoreland County,PA,NA,NA,88.59784283513096,NA
15108,Allegheny County,PA,NA,NA,NA,20.588235294117645
15120,Allegheny County,PA,NA,79.3103448275862,NA,NA
15208,Allegheny County,PA,NA,NA,57.93528505392912,NA
15216,Allegheny County,PA,NA,NA,61.17103235747303,NA
15221,Allegheny County,PA,NA,NA,NA,27.647058823529413
15235,Allegheny County,PA,NA,NA,23.42064714946071,NA
15237,Allegheny County,PA,NA,NA,53.312788906009246,NA
15425,Fayette County,PA,NA,NA,36.36363636363637,NA
15701,Indiana County,PA,49.049429657794676,NA,NA,NA
15906,Cambria County,PA,NA,NA,61.94144838212635,NA
16066,Butler County,PA,34.22053231939163,NA,NA,NA
16323,Venango County,PA,NA,NA,NA,40
16354,Crawford County,PA,NA,NA,94.76117103235747,NA
16424,Crawford County,PA,NA,92.52873563218391,NA,NA
16502,Erie County,PA,NA,NA,79.19876733436055,NA
16508,Erie County,PA,NA,70.6896551724138,NA,NA
16686,Blair County,PA,NA,64.65517241379311,NA,NA
16693,Blair County,PA,NA,98.85057471264368,NA,NA
17038,Lebanon County,PA,NA,NA,79.04468412942988,NA
17046,Lebanon County,PA,NA,22.988505747126435,11.556240369799692,26.47058823529412
17110,Dauphin County,PA,NA,NA,18.798151001540834,NA
17241,Cumberland County,PA,NA,NA,NA,84.11764705882354
17325,Adams County,PA,NA,NA,NA,7.0588235294117645
17339,York County,PA,NA,NA,NA,91.76470588235294
17340,Adams County,PA,NA,89.36781609195403,NA,NA
17403,York County,PA,NA,40.804597701149426,NA,4.117647058823529
17522,Lancaster County,PA,NA,NA,NA,14.705882352941178
17554,Lancaster County,PA,NA,92.52873563218391,NA,NA
17603,Lancaster County,PA,NA,NA,11.093990755007704,NA
17870,Snyder County,PA,52.09125475285171,NA,NA,NA
17872,Northumberland County,PA,NA,NA,NA,44.11764705882353
18020,Northampton County,PA,NA,NA,46.99537750385208,NA
18080,Lehigh County,PA,60.07604562737643,NA,NA,NA
18102,Lehigh County,PA,NA,15.517241379310345,1.386748844375963,NA
18103,Lehigh County,PA,NA,13.505747126436782,NA,NA
18232,Carbon County,PA,NA,94.25287356321839,NA,NA
18330,Monroe County,PA,NA,NA,90.75500770416025,NA
18411,Lackawanna County,PA,NA,NA,83.05084745762711,NA
18426,Pike County,PA,NA,94.25287356321839,NA,NA
18651,Luzerne County,PA,NA,NA,73.49768875192603,NA
18657,Wyoming County,PA,NA,89.36781609195403,NA,NA
18702,Luzerne County,PA,NA,21.551724137931032,NA,NA
18901,Bucks County,PA,61.97718631178707,NA,NA,NA
19006,Montgomery County,PA,72.6235741444867,NA,NA,NA
19007,Bucks County,PA,NA,74.13793103448276,30.20030816640986,NA
19056,Bucks County,PA,NA,81.32183908045977,NA,NA
19061,Delaware County,PA,NA,NA,NA,45.294117647058826
19096,Montgomery County,PA,NA,NA,55.77812018489985,NA
19129,Philadelphia County,PA,NA,NA,69.49152542372882,NA
19134,Philadelphia County,PA,NA,11.494252873563218,3.8520801232665636,NA
19135,Philadelphia County,PA,NA,19.54022988505747,NA,NA
19140,Philadelphia County,PA,NA,NA,3.0816640986132513,NA
19143,Philadelphia County,PA,NA,NA,1.078582434514638,NA
19154,Philadelphia County,PA,NA,70.6896551724138,NA,NA
19330,Chester County,PA,NA,NA,98.15100154083206,NA
19343,Chester County,PA,90.11406844106465,NA,NA,NA
19365,Chester County,PA,NA,NA,87.67334360554699,NA
19380,Chester County,PA,NA,NA,45.14637904468413,NA
19446,Montgomery County,PA,6.844106463878327,NA,NA,NA
19460,Chester County,PA,47.14828897338403,NA,NA,NA
19565,Berks County,PA,88.59315589353612,NA,NA,NA
02840,Newport County,RI,NA,NA,NA,33.52941176470588
02885,Bristol County,RI,NA,NA,85.36209553158706,NA
02886,Kent County,RI,NA,NA,37.90446841294299,NA
29020,Kershaw County,SC,NA,NA,71.80277349768875,NA
29445,Berkeley County,SC,NA,NA,29.275808936825886,NA
29483,Dorchester County,SC,NA,35.91954022988506,NA,NA
29536,Dillon County,SC,NA,48.56321839080459,NA,NA
29571,Marion County,SC,NA,NA,73.49768875192603,NA
29577,Horry County,SC,61.21673003802282,NA,NA,NA
29627,Anderson County,SC,9.125475285171103,NA,NA,NA
29644,Greenville County,SC,70.34220532319392,NA,NA,NA
29920,Beaufort County,SC,NA,81.32183908045977,NA,NA
57401,Brown County,SD,NA,NA,20.955315870570107,NA
57702,Pennington County,SD,NA,NA,64.71494607087827,NA
57719,Pennington County,SD,NA,67.81609195402298,NA,NA
57783,Lawrence County,SD,68.8212927756654,NA,NA,NA
37013,Davidson County,TN,NA,NA,12.480739599383666,NA
37048,Sumner County,TN,NA,NA,97.84283513097073,NA
37076,Davidson County,TN,NA,NA,73.95993836671802,NA
37086,Rutherford County,TN,NA,38.50574712643678,51.61787365177196,NA
37091,Marshall County,TN,48.669201520912544,NA,NA,NA
37098,Hickman County,TN,NA,NA,NA,97.6470588235294
37110,Warren County,TN,NA,NA,19.876733436055467,NA
37115,Davidson County,TN,NA,NA,NA,25.294117647058822
37138,Davidson County,TN,73.38403041825094,NA,NA,NA
37148,Sumner County,TN,NA,NA,44.53004622496148,NA
37203,Davidson County,TN,67.30038022813687,NA,NA,73.52941176470588
37207,Davidson County,TN,NA,22.413793103448278,NA,NA
37210,Davidson County,TN,NA,NA,64.56086286594761,NA
37211,Davidson County,TN,NA,7.758620689655173,NA,22.35294117647059
37217,Davidson County,TN,NA,35.91954022988506,NA,NA
37311,Bradley County,TN,NA,NA,40.83204930662558,NA
37323,Bradley County,TN,NA,54.88505747126437,NA,NA
37343,Hamilton County,TN,NA,NA,27.11864406779661,NA
37381,Rhea County,TN,81.74904942965779,NA,NA,NA
37406,Hamilton County,TN,NA,57.47126436781609,NA,NA
37412,Hamilton County,TN,66.15969581749049,55.74712643678161,NA,NA
37601,Washington County,TN,NA,NA,20.03081664098613,NA
37604,Washington County,TN,26.23574144486692,NA,NA,NA
37643,Carter County,TN,NA,NA,15.562403697996919,NA
37721,Knox County,TN,NA,NA,74.42218798151,NA
37769,Anderson County,TN,NA,81.32183908045977,NA,NA
37771,Loudon County,TN,58.55513307984791,NA,NA,NA
37813,Hamblen County,TN,NA,43.67816091954023,NA,NA
37879,Claiborne County,TN,NA,NA,57.31895223420646,NA
37918,Knox County,TN,NA,39.94252873563218,NA,NA
37923,Knox County,TN,NA,72.12643678160919,NA,NA
37934,Knox County,TN,33.840304182509506,NA,NA,NA
38063,Lauderdale County,TN,52.851711026615966,NA,NA,NA
38106,Shelby County,TN,NA,NA,20.184899845916796,NA
38109,Shelby County,TN,1.520912547528517,NA,NA,NA
38127,Shelby County,TN,NA,NA,10.785824345146379,NA
38128,Shelby County,TN,NA,9.482758620689655,NA,NA
38305,Madison County,TN,NA,NA,11.40215716486903,NA
38320,Benton County,TN,NA,NA,79.35285053929123,NA
38351,Henderson County,TN,NA,NA,56.85670261941448,NA
38372,Hardin County,TN,69.96197718631178,NA,NA,NA
75001,Dallas County,TX,NA,NA,NA,94.11764705882352
75013,Collin County,TX,18.631178707224336,NA,NA,NA
75023,Collin County,TX,34.22053231939163,NA,NA,NA
75025,Collin County,TX,42.585551330798474,NA,NA,NA
75032,Rockwall County,TX,NA,NA,67.18027734976889,NA
75034,Denton County,TX,NA,77.58620689655173,NA,NA
75039,Dallas County,TX,92.39543726235742,NA,NA,NA
75043,Dallas County,TX,NA,10.632183908045976,NA,NA
75052,Dallas County,TX,NA,12.643678160919542,NA,NA
75056,Denton County,TX,NA,NA,36.97996918335901,NA
75067,Denton County,TX,NA,NA,71.34052388289676,NA
75068,Denton County,TX,NA,NA,NA,62.35294117647059
75098,Collin County,TX,NA,54.02298850574713,NA,NA
75104,Dallas County,TX,NA,NA,27.5808936825886,NA
75115,Dallas County,TX,NA,33.90804597701149,NA,NA
75146,Dallas County,TX,NA,62.06896551724138,NA,NA
75169,Van Zandt County,TX,NA,NA,77.34976887519261,NA
75204,Dallas County,TX,41.06463878326996,NA,NA,NA
75211,Dallas County,TX,NA,4.885057471264368,NA,NA
75217,Dallas County,TX,NA,8.333333333333332,NA,NA
75227,Dallas County,TX,NA,NA,22.342064714946073,NA
75240,Dallas County,TX,NA,55.74712643678161,NA,NA
75241,Dallas County,TX,NA,26.14942528735632,NA,NA
75474,Hunt County,TX,NA,52.58620689655172,NA,NA
75601,Gregg County,TX,54.372623574144484,NA,NA,NA
75972,San Augustine County,TX,86.69201520912547,NA,NA,NA
76002,Tarrant County,TX,NA,NA,62.71186440677966,NA
76010,Tarrant County,TX,NA,NA,NA,60
76015,Tarrant County,TX,NA,88.50574712643679,NA,NA
76031,Johnson County,TX,NA,NA,71.03235747303543,NA
76033,Johnson County,TX,28.89733840304182,NA,NA,NA
76051,Tarrant County,TX,NA,NA,NA,40.588235294117645
76053,Tarrant County,TX,NA,NA,NA,72.94117647058823
76082,Parker County,TX,NA,NA,61.78736517719569,NA
76179,Tarrant County,TX,11.787072243346007,NA,NA,NA
76201,Denton County,TX,NA,96.83908045977012,NA,NA
76210,Denton County,TX,35.741444866920155,95.40229885057471,62.09553158705701,NA
76227,Denton County,TX,NA,NA,72.26502311248075,NA
76244,Tarrant County,TX,5.7034220532319395,NA,NA,NA
76305,Wichita County,TX,NA,NA,98.7673343605547,NA
76309,Wichita County,TX,NA,NA,82.43451463790447,NA
76384,Wilbarger County,TX,73.00380228136882,NA,NA,NA
76502,Bell County,TX,NA,NA,18.64406779661017,NA
76548,Bell County,TX,NA,37.93103448275862,NA,NA
77002,Harris County,TX,95.81749049429658,NA,NA,NA
77004,Harris County,TX,NA,NA,33.7442218798151,NA
77005,Harris County,TX,NA,NA,NA,62.94117647058823
77018,Harris County,TX,NA,65.51724137931035,NA,NA
77020,Harris County,TX,NA,NA,65.0231124807396,NA
77049,Harris County,TX,NA,NA,71.64869029275809,NA
77076,Harris County,TX,NA,NA,NA,71.17647058823529
77091,Harris County,TX,36.50190114068441,NA,NA,NA
77098,Harris County,TX,NA,NA,NA,92.3529411764706
77336,Harris County,TX,NA,NA,92.75808936825885,NA
77351,Polk County,TX,NA,NA,49.46070878274268,NA
77357,Montgomery County,TX,NA,NA,69.18335901386749,NA
77365,Montgomery County,TX,18.250950570342205,29.310344827586203,NA,NA
77375,Harris County,TX,NA,50.57471264367817,NA,NA
77381,Montgomery County,TX,NA,NA,73.03543913713405,NA
77382,Montgomery County,TX,NA,NA,NA,68.82352941176471
77388,Harris County,TX,NA,NA,49.61479198767334,NA
77401,Harris County,TX,NA,NA,NA,81.76470588235294
77489,Fort Bend County,TX,NA,NA,35.901386748844374,NA
77494,Fort Bend County,TX,NA,NA,20.49306625577812,NA
77523,Chambers County,TX,NA,NA,63.32819722650231,NA
77532,Harris County,TX,47.52851711026616,NA,45.76271186440678,NA
77546,Galveston County,TX,NA,NA,31.124807395993837,NA
77573,Galveston County,TX,NA,NA,NA,5.294117647058823
77581,Brazoria County,TX,23.193916349809886,NA,NA,NA
77590,Galveston County,TX,NA,NA,NA,17.647058823529413
77630,Orange County,TX,NA,NA,45.45454545454545,NA
77802,Brazos County,TX,NA,NA,30.508474576271187,22.941176470588236
77840,Brazos County,TX,NA,NA,NA,75.29411764705883
77868,Grimes County,TX,42.20532319391635,NA,NA,NA
77871,Leon County,TX,90.49429657794677,NA,NA,NA
77954,DeWitt County,TX,NA,NA,76.42526964560862,NA
77964,Lavaca County,TX,NA,NA,90.13867488443759,NA
78041,Webb County,TX,57.03422053231939,NA,NA,NA
78108,Guadalupe County,TX,NA,80.17241379310344,NA,NA
78130,Comal County,TX,NA,42.241379310344826,NA,NA
78133,Comal County,TX,NA,NA,67.02619414483821,NA
78155,Guadalupe County,TX,NA,41.95402298850575,NA,NA
78163,Comal County,TX,NA,NA,94.29892141756548,NA
78209,Bexar County,TX,50.950570342205324,63.793103448275865,NA,NA
78237,Bexar County,TX,NA,NA,35.28505392912172,NA
78247,Bexar County,TX,NA,NA,NA,67.64705882352942
78251,Bexar County,TX,NA,NA,60.0924499229584,NA
78264,Bexar County,TX,NA,44.252873563218394,NA,NA
78380,Nueces County,TX,NA,40.229885057471265,NA,NA
78411,Nueces County,TX,34.22053231939163,NA,NA,NA
78501,Hidalgo County,TX,8.745247148288973,NA,NA,NA
78521,Cameron County,TX,NA,NA,NA,21.764705882352942
78586,Cameron County,TX,NA,16.379310344827587,NA,NA
78612,Bastrop County,TX,NA,NA,93.22033898305084,NA
78621,Bastrop County,TX,25.85551330798479,NA,NA,NA
78639,Llano County,TX,NA,NA,NA,51.17647058823529
78704,Travis County,TX,NA,74.71264367816092,NA,NA
78745,Travis County,TX,NA,NA,66.71802773497689,NA
78801,Uvalde County,TX,NA,52.01149425287356,NA,NA
78852,Maverick County,TX,23.954372623574145,31.896551724137932,NA,NA
78945,Fayette County,TX,NA,93.10344827586206,NA,NA
79110,Randall County,TX,NA,83.62068965517241,NA,NA
79706,Midland County,TX,16.730038022813687,NA,50.231124807396,NA
79707,Midland County,TX,NA,NA,39.907550077041606,NA
79714,Andrews County,TX,NA,NA,61.63328197226502,NA
79756,Ward County,TX,66.92015209125475,NA,NA,NA
79925,El Paso County,TX,NA,NA,76.73343605546995,NA
79938,El Paso County,TX,14.068441064638785,NA,NA,NA
84025,Davis County,UT,NA,NA,81.0477657935285,NA
84065,Salt Lake County,UT,NA,NA,NA,90
84078,Uintah County,UT,NA,NA,51.92604006163328,NA
84097,Utah County,UT,NA,NA,88.4437596302003,NA
84129,,UT,NA,NA,34.9768875192604,NA
84770,Washington County,UT,NA,NA,43.451463790446844,NA
84790,Washington County,UT,NA,NA,48.536209553158706,17.058823529411764
05478,Franklin County,VT,NA,NA,60.24653312788906,NA
20110,Manassas city,VA,NA,42.5287356321839,NA,NA
20170,Fairfax County,VA,36.12167300380228,NA,NA,NA
22042,Fairfax County,VA,NA,72.98850574712644,NA,NA
22043,Fairfax County,VA,NA,NA,92.6040061633282,NA
22079,Fairfax County,VA,28.13688212927757,NA,NA,NA
22204,Arlington County,VA,NA,31.321839080459768,NA,NA
22304,Alexandria city,VA,23.193916349809886,NA,NA,NA
22308,Fairfax County,VA,73.76425855513308,NA,NA,NA
22310,Fairfax County,VA,NA,NA,58.39753466872111,NA
22312,Fairfax County,VA,NA,NA,48.844375963020035,NA
22401,Fredericksburg city,VA,NA,NA,52.69645608628659,NA
22485,King George County,VA,NA,39.36781609195402,NA,NA
22554,Stafford County,VA,NA,NA,36.517719568567024,NA
22560,Essex County,VA,NA,80.74712643678161,NA,NA
22602,Frederick County,VA,NA,NA,NA,58.235294117647065
22851,Page County,VA,NA,80.74712643678161,NA,NA
22902,Charlottesville city,VA,NA,NA,28.8135593220339,NA
22968,Greene County,VA,NA,57.47126436781609,NA,NA
23009,King William County,VA,92.01520912547528,NA,NA,NA
23222,Richmond city,VA,NA,NA,20.647149460708782,NA
23227,Henrico County,VA,NA,37.35632183908046,NA,NA
23233,Henrico County,VA,NA,NA,85.97842835130972,NA
23504,Norfolk city,VA,NA,NA,NA,59.411764705882355
23509,Norfolk city,VA,NA,NA,NA,85.29411764705883
23523,Norfolk city,VA,NA,NA,91.83359013867488,NA
23608,Newport News city,VA,NA,33.62068965517241,NA,NA
23701,Portsmouth city,VA,19.771863117870723,NA,NA,NA
23803,Petersburg city,VA,NA,NA,14.48382126348228,NA
23805,Petersburg city,VA,NA,NA,57.781201848998464,NA
23851,Franklin city,VA,NA,68.67816091954023,NA,NA
23875,Prince George County,VA,NA,NA,95.0693374422188,NA
23927,Mecklenburg County,VA,NA,NA,98.61325115562404,NA
24017,Roanoke city,VA,NA,NA,29.738058551617875,NA
24210,Washington County,VA,74.52471482889734,NA,NA,NA
24216,Wise County,VA,NA,62.06896551724138,NA,NA
24401,Staunton city,VA,NA,NA,14.021571648690292,NA
24605,Tazewell County,VA,NA,91.66666666666666,NA,NA
98002,King County,WA,NA,NA,41.294298921417564,NA
98008,King County,WA,39.163498098859314,NA,NA,74.11764705882354
98023,King County,WA,NA,68.67816091954023,NA,NA
98055,King County,WA,NA,NA,79.50693374422187,NA
98058,King County,WA,NA,NA,37.28813559322034,NA
98087,Snohomish County,WA,NA,78.44827586206897,NA,NA
98109,King County,WA,NA,NA,65.79352850539291,NA
98112,King County,WA,NA,99.42528735632183,NA,NA
98119,King County,WA,NA,NA,77.50385208012327,NA
98122,King County,WA,NA,NA,63.63636363636363,NA
98125,King County,WA,NA,NA,NA,39.411764705882355
98178,King County,WA,63.49809885931559,NA,NA,NA
98208,Snohomish County,WA,NA,45.11494252873563,NA,NA
98223,Snohomish County,WA,NA,NA,29.275808936825886,NA
98230,Whatcom County,WA,NA,NA,97.68875192604007,NA
98275,Snohomish County,WA,69.58174904942965,NA,NA,NA
98292,Snohomish County,WA,NA,NA,67.95069337442219,NA
98312,Kitsap County,WA,NA,NA,43.29738058551618,NA
98331,Clallam County,WA,NA,NA,NA,95.88235294117648
98371,Pierce County,WA,NA,NA,72.11093990755008,NA
98387,Pierce County,WA,NA,NA,NA,25.882352941176475
98391,Pierce County,WA,25.475285171102662,NA,NA,NA
98541,Grays Harbor County,WA,NA,90.51724137931035,NA,NA
98632,Cowlitz County,WA,49.42965779467681,NA,22.80431432973806,NA
98642,Clark County,WA,NA,NA,95.22342064714945,NA
98660,Clark County,WA,89.35361216730038,NA,NA,NA
98661,Clark County,WA,NA,NA,53.77503852080123,NA
98671,Clark County,WA,NA,NA,87.82742681047766,NA
98801,Chelan County,WA,NA,NA,NA,10
99354,Benton County,WA,NA,39.08045977011494,NA,NA
20008,District of Columbia,DC,NA,NA,85.824345146379045,NA
20020,District of Columbia,DC,3.4220532319391634,NA,2.9275808936825887,NA
20032,District of Columbia,DC,NA,NA,7.0878274268104775,NA
25043,Clay County,WV,NA,NA,97.22650231124807,NA
25213,Putnam County,WV,NA,NA,95.37750385208012,NA
25425,Jefferson County,WV,87.45247148288973,NA,NA,NA
25801,Raleigh County,WV,NA,46.264367816091955,NA,NA
26003,Ohio County,WV,NA,NA,7.24191063174114,NA
26034,Hancock County,WV,NA,NA,NA,87.05882352941177
26101,Wood County,WV,26.61596958174905,NA,NA,NA
26170,Pleasants County,WV,NA,87.356321839080465,NA,NA
26330,Harrison County,WV,NA,NA,48.69029275808937,NA
26508,Monongalia County,WV,NA,NA,6.471494607087827,NA
26554,Marion County,WV,NA,34.195402298850574,NA,NA
53045,Waukesha County,WI,65.77946768060836,NA,NA,NA
53066,Waukesha County,WI,NA,69.82758620689656,NA,NA
53105,Racine County,WI,31.55893536121673,NA,NA,NA
53144,Kenosha County,WI,NA,59.195402298850574,NA,NA
53208,Milwaukee County,WI,NA,23.275862068965516,NA,NA
53214,Milwaukee County,WI,NA,NA,14.637904468412943,NA
53219,Milwaukee County,WI,NA,30.17241379310345,NA,NA
53226,Milwaukee County,WI,65.39923954372624,NA,NA,NA
53813,Grant County,WI,NA,75.57471264367817,NA,NA
54017,St. Croix County,WI,NA,76.72413793103449,NA,NA
54022,Pierce County,WI,NA,NA,59.32203389830508,NA
54481,Portage County,WI,60.45627376425855,NA,NA,NA
54534,Iron County,WI,NA,85.91954022988506,NA,NA
54622,Buffalo County,WI,90.8745247148289,NA,NA,NA
54666,Monroe County,WI,99.61977186311786,NA,NA,NA
54701,Eau Claire County,WI,NA,NA,46.687211093990754,NA
54703,Eau Claire County,WI,22.0532319391635,NA,NA,NA
54729,Chippewa County,WI,NA,NA,38.82896764252696,NA
54891,Bayfield County,WI,NA,NA,98.45916795069337,NA
54901,Winnebago County,WI,NA,NA,32.81972265023113,NA
54929,Waupaca County,WI,NA,NA,91.98767334360555,NA
82633,Converse County,WY,63.11787072243346,NA,NA,NA
82901,Sweetwater County,WY,37.26235741444867,NA,NA,NA
