ZipCode,county,state,Adult,Retirement,Geriatric
35116,Jefferson County,AL,94.57364341085271,NA,NA
35120,St. Clair County,AL,64.72868217054264,NA,NA
36117,Montgomery County,AL,68.9922480620155,NA,NA
36301,Houston County,AL,NA,20.055710306406684,NA
36467,Covington County,AL,NA,69.35933147632312,NA
36605,Mobile County,AL,NA,52.089136490250695,NA
36609,Mobile County,AL,63.565891472868216,NA,NA
99501,Anchorage Municipality,AK,NA,67.68802228412257,NA
99502,Anchorage Municipality,AK,NA,75.4874651810585,NA
99504,Anchorage Municipality,AK,NA,NA,62.33333333333333
99515,Anchorage Municipality,AK,NA,74.65181058495823,84.66666666666667
99577,Anchorage Municipality,AK,74.4186046511628,NA,NA
99701,Fairbanks North Star Borough,AK,NA,68.80222841225627,NA
85003,Maricopa County,AZ,NA,NA,96.66666666666667
85021,Maricopa County,AZ,16.666666666666664,NA,NA
85033,Maricopa County,AZ,NA,72.14484679665738,NA
85249,Maricopa County,AZ,50.775193798449614,NA,NA
85383,Maricopa County,AZ,NA,40.389972144846794,NA
85550,Graham County,AZ,NA,96.10027855153204,NA
85712,Pima County,AZ,NA,NA,50.33333333333333
86034,Navajo County,AZ,93.7984496124031,NA,NA
86045,Coconino County,AZ,NA,44.56824512534819,NA
86326,Yavapai County,AZ,NA,27.57660167130919,NA
86503,Apache County,AZ,NA,53.2033426183844,NA
86507,Apache County,AZ,96.89922480620154,NA,99
86511,Apache County,AZ,NA,NA,98
71913,Garland County,AR,41.86046511627907,31.197771587743734,NA
72015,Saline County,AR,56.58914728682171,NA,NA
72206,Pulaski County,AR,NA,78.8300835654596,NA
72209,Pulaski County,AR,NA,66.01671309192201,NA
72212,Pulaski County,AR,95.34883720930233,NA,NA
72227,Pulaski County,AR,NA,NA,63.66666666666667
90006,Los Angeles County,CA,NA,93.59331476323119,NA
90020,Los Angeles County,CA,NA,55.98885793871866,NA
90035,Los Angeles County,CA,NA,67.96657381615599,NA
90042,Los Angeles County,CA,NA,88.3008356545961,NA
90068,Los Angeles County,CA,NA,NA,92
90220,Los Angeles County,CA,NA,NA,43.666666666666664
90631,Orange County,CA,NA,53.48189415041783,NA
90650,Los Angeles County,CA,NA,NA,29.333333333333332
90660,Los Angeles County,CA,NA,39.83286908077994,NA
90701,Los Angeles County,CA,NA,86.62952646239555,NA
90740,Orange County,CA,NA,NA,28.999999999999996
91001,Los Angeles County,CA,61.627906976744185,NA,NA
91006,Los Angeles County,CA,NA,NA,71
91202,Los Angeles County,CA,NA,NA,32
91206,Los Angeles County,CA,NA,56.26740947075209,NA
91208,Los Angeles County,CA,92.63565891472868,NA,NA
91344,Los Angeles County,CA,NA,NA,27.666666666666668
91390,Los Angeles County,CA,NA,74.09470752089136,NA
91754,Los Angeles County,CA,87.59689922480621,NA,NA
91910,San Diego County,CA,NA,35.097493036211695,NA
91913,San Diego County,CA,NA,92.75766016713092,NA
92026,San Diego County,CA,58.91472868217055,NA,NA
92029,San Diego County,CA,NA,NA,73
92057,San Diego County,CA,NA,NA,40.666666666666664
92084,San Diego County,CA,NA,NA,48.66666666666667
92114,San Diego County,CA,34.883720930232556,NA,NA
92123,San Diego County,CA,NA,NA,68.33333333333333
92126,San Diego County,CA,NA,37.04735376044568,NA
92201,Riverside County,CA,NA,22.00557103064067,NA
92316,San Bernardino County,CA,NA,77.99442896935933,NA
92336,San Bernardino County,CA,14.728682170542637,54.038997214484674,NA
92377,San Bernardino County,CA,NA,98.60724233983287,NA
92407,San Bernardino County,CA,NA,88.57938718662952,NA
92551,Riverside County,CA,NA,74.3732590529248,NA
92563,Riverside County,CA,37.5968992248062,NA,NA
92584,Riverside County,CA,NA,59.610027855153206,NA
92585,Riverside County,CA,NA,84.12256267409471,NA
92614,Orange County,CA,64.34108527131784,NA,NA
92627,Orange County,CA,55.81395348837209,NA,NA
92637,Orange County,CA,NA,NA,48
92651,Orange County,CA,NA,48.467966573816156,NA
92677,Orange County,CA,37.98449612403101,NA,NA
92683,Orange County,CA,68.9922480620155,NA,NA
92692,Orange County,CA,45.73643410852713,NA,NA
92703,Orange County,CA,44.57364341085272,NA,NA
92704,Orange County,CA,NA,NA,47
92780,Orange County,CA,70.93023255813954,NA,NA
92840,Orange County,CA,NA,41.78272980501393,NA
92882,Riverside County,CA,NA,NA,88
92886,Orange County,CA,NA,86.0724233983287,29.666666666666668
93010,Ventura County,CA,NA,NA,13.666666666666666
93257,Tulare County,CA,NA,NA,28.333333333333332
93446,San Luis Obispo County,CA,63.95348837209303,NA,NA
93536,Los Angeles County,CA,47.674418604651166,NA,NA
93635,Merced County,CA,NA,NA,91.66666666666666
93705,Fresno County,CA,NA,46.796657381615596,NA
93955,Monterey County,CA,NA,NA,73
94010,San Mateo County,CA,NA,NA,14.000000000000002
94015,San Mateo County,CA,NA,NA,33
94019,San Mateo County,CA,NA,NA,61.33333333333333
94025,San Mateo County,CA,NA,NA,69.66666666666667
94080,San Mateo County,CA,36.04651162790697,9.749303621169917,NA
94103,San Francisco County,CA,46.89922480620155,NA,NA
94111,San Francisco County,CA,NA,NA,90
94112,San Francisco County,CA,NA,8.913649025069638,NA
94118,San Francisco County,CA,NA,39.55431754874652,NA
94124,San Francisco County,CA,NA,25.62674094707521,NA
94134,San Francisco County,CA,NA,NA,33.666666666666664
94306,Santa Clara County,CA,NA,87.46518105849582,NA
94403,San Mateo County,CA,NA,80.22284122562674,NA
94534,Solano County,CA,NA,NA,45.33333333333333
94552,Alameda County,CA,NA,87.74373259052925,NA
94553,Contra Costa County,CA,NA,32.590529247910865,NA
94559,Napa County,CA,NA,84.958217270195,NA
94565,Contra Costa County,CA,NA,10.86350974930362,NA
94577,Alameda County,CA,NA,38.440111420612816,NA
94580,Alameda County,CA,NA,NA,65.66666666666666
94590,Solano County,CA,32.17054263565892,NA,NA
94607,Alameda County,CA,NA,NA,75.66666666666667
94801,Contra Costa County,CA,89.53488372093024,NA,NA
94804,Contra Costa County,CA,NA,NA,43
94901,Marin County,CA,NA,43.73259052924791,NA
95020,Santa Clara County,CA,NA,NA,55.666666666666664
95023,San Benito County,CA,NA,NA,52
95030,Santa Clara County,CA,NA,91.64345403899722,NA
95037,Santa Clara County,CA,NA,NA,72.33333333333334
95070,Santa Clara County,CA,98.83720930232558,71.03064066852369,NA
95112,Santa Clara County,CA,43.02325581395349,NA,NA
95123,Santa Clara County,CA,NA,NA,36
95209,San Joaquin County,CA,NA,58.495821727019504,NA
95330,San Joaquin County,CA,NA,79.66573816155989,NA
95355,Stanislaus County,CA,NA,11.699164345403899,NA
95376,San Joaquin County,CA,31.007751937984494,NA,NA
95377,San Joaquin County,CA,NA,69.08077994428969,NA
95391,San Joaquin County,CA,82.55813953488372,NA,NA
95401,Sonoma County,CA,NA,51.532033426183844,NA
95407,Sonoma County,CA,NA,NA,88.33333333333333
95608,Sacramento County,CA,NA,24.512534818941504,NA
95610,Sacramento County,CA,NA,NA,47.333333333333336
95624,Sacramento County,CA,NA,NA,45.33333333333333
95631,Placer County,CA,NA,86.35097493036211,NA
95688,Solano County,CA,NA,NA,51.66666666666667
95695,Yolo County,CA,NA,55.15320334261838,NA
95776,Yolo County,CA,87.98449612403101,NA,NA
95823,Sacramento County,CA,17.441860465116278,NA,NA
95835,Sacramento County,CA,70.15503875968993,NA,54
95961,Yuba County,CA,NA,64.62395543175488,NA
96003,Shasta County,CA,NA,NA,32.33333333333333
80002,Jefferson County,CO,NA,74.93036211699165,NA
80003,Jefferson County,CO,50.3875968992248,NA,NA
80011,Arapahoe County,CO,NA,81.05849582172702,NA
80012,Arapahoe County,CO,15.891472868217054,NA,85
80013,Arapahoe County,CO,40.69767441860465,NA,49
80014,Arapahoe County,CO,86.82170542635659,NA,43.333333333333336
80015,Arapahoe County,CO,NA,NA,98.66666666666667
80016,Arapahoe County,CO,NA,NA,63
80017,Arapahoe County,CO,NA,49.58217270194986,NA
80021,Jefferson County,CO,NA,57.938718662952645,NA
80207,Denver County,CO,NA,66.29526462395543,NA
80209,Denver County,CO,NA,94.70752089136491,NA
80223,Denver County,CO,96.51162790697676,NA,NA
80228,Jefferson County,CO,58.52713178294574,NA,NA
80234,Adams County,CO,66.27906976744185,NA,NA
80239,Denver County,CO,60.85271317829457,NA,NA
80246,Denver County,CO,NA,94.15041782729804,NA
80621,Weld County,CO,NA,76.88022284122563,NA
80640,Adams County,CO,77.13178294573643,NA,NA
80642,Weld County,CO,NA,97.7715877437326,NA
80922,El Paso County,CO,NA,NA,93
81504,Mesa County,CO,33.72093023255814,NA,NA
81625,Moffat County,CO,45.348837209302324,NA,NA
06010,Hartford County,CT,NA,3.8997214484679668,NA
06033,Hartford County,CT,60.07751937984496,NA,NA
06606,Fairfield County,CT,NA,NA,41.66666666666667
19711,New Castle County,DE,NA,NA,26
32118,Volusia County,FL,NA,63.788300835654596,NA
32218,Duval County,FL,6.2015503875969,NA,NA
32219,Duval County,FL,50,NA,NA
32311,Leon County,FL,NA,92.20055710306406,NA
32526,Escambia County,FL,66.66666666666666,NA,NA
32773,Seminole County,FL,NA,76.32311977715878,NA
33012,Miami-Dade County,FL,NA,83.008356545961007,NA
33013,Miami-Dade County,FL,NA,NA,66.66666666666666
33016,Miami-Dade County,FL,NA,81.89415041782729,NA
33024,Broward County,FL,32.945736434108525,NA,NA
33034,Miami-Dade County,FL,61.240310077519375,NA,NA
33064,Broward County,FL,42.63565891472868,NA,NA
33069,Broward County,FL,NA,NA,18.333333333333332
33070,Monroe County,FL,NA,98.32869080779945,NA
33125,Miami-Dade County,FL,NA,NA,15
33126,Miami-Dade County,FL,NA,47.63231197771588,NA
33128,Miami-Dade County,FL,NA,89.13649025069638,NA
33129,Miami-Dade County,FL,NA,NA,93.66666666666667
33131,Miami-Dade County,FL,NA,NA,99.66666666666667
33133,Miami-Dade County,FL,76.74418604651163,44.84679665738162,NA
33140,Miami-Dade County,FL,NA,NA,64.66666666666666
33141,Miami-Dade County,FL,NA,40.11142061281337,NA
33149,Miami-Dade County,FL,NA,95.26462395543176,NA
33150,Miami-Dade County,FL,89.14728682170544,NA,NA
33155,Miami-Dade County,FL,NA,35.93314763231198,NA
33157,Miami-Dade County,FL,69.76744186046511,58.77437325905292,NA
33160,Miami-Dade County,FL,NA,NA,23.666666666666668
33161,Miami-Dade County,FL,NA,77.43732590529248,NA
33165,Miami-Dade County,FL,NA,NA,6
33168,Miami-Dade County,FL,71.70542635658916,NA,NA
33172,Miami-Dade County,FL,NA,83.56545961002786,NA
33175,Miami-Dade County,FL,NA,83.84401114206128,NA
33176,Miami-Dade County,FL,NA,NA,32.666666666666664
33177,Miami-Dade County,FL,NA,51.81058495821726,NA
33180,Miami-Dade County,FL,81.78294573643412,NA,NA
33181,Miami-Dade County,FL,NA,NA,77.66666666666666
33184,Miami-Dade County,FL,NA,66.57381615598887,NA
33185,Miami-Dade County,FL,81.3953488372093,NA,NA
33316,Broward County,FL,NA,NA,82
33325,Broward County,FL,NA,NA,80.33333333333333
33330,Broward County,FL,NA,85.51532033426183,NA
33511,Hillsborough County,FL,43.02325581395349,NA,56.666666666666664
33615,Hillsborough County,FL,NA,36.211699164345404,NA
33868,Polk County,FL,NA,78.27298050139275,NA
34108,Collier County,FL,NA,NA,84
34223,Sarasota County,FL,NA,81.33704735376045,NA
34285,Sarasota County,FL,NA,70.75208913649024,NA
34293,Sarasota County,FL,NA,NA,5.666666666666666
34470,Marion County,FL,55.03875968992248,NA,NA
34698,Pinellas County,FL,NA,NA,57.99999999999999
34758,Osceola County,FL,NA,51.25348189415042,NA
34952,St. Lucie County,FL,NA,NA,11
34974,Okeechobee County,FL,91.08527131782945,NA,NA
30032,DeKalb County,GA,19.379844961240313,NA,NA
30316,DeKalb County,GA,NA,50.974930362116986,NA
30344,Fulton County,GA,48.06201550387597,NA,NA
30434,Jefferson County,GA,93.4108527131783,NA,NA
30680,Barrow County,GA,NA,27.85515320334262,NA
30809,Columbia County,GA,NA,NA,97
30814,Columbia County,GA,NA,79.94428969359332,NA
31721,Dougherty County,GA,NA,62.67409470752089,NA
31750,Ben Hill County,GA,NA,64.06685236768801,NA
31792,Thomas County,GA,38.759689922480625,NA,NA
96706,Honolulu County,HI,NA,NA,22.333333333333332
96707,Honolulu County,HI,NA,35.37604456824512,NA
96782,Honolulu County,HI,NA,29.526462395543174,NA
96815,Honolulu County,HI,NA,NA,63.33333333333333
83619,Payette County,ID,NA,NA,76
83864,Bonner County,ID,NA,NA,57.666666666666664
60013,McHenry County,IL,60.46511627906976,NA,NA
60060,Lake County,IL,NA,17.548746518105848,NA
60074,Cook County,IL,NA,40.947075208913645,NA
60077,Cook County,IL,NA,33.98328690807799,NA
60085,Lake County,IL,NA,NA,69
60087,Lake County,IL,88.75968992248062,NA,NA
60099,Lake County,IL,72.86821705426357,NA,NA
60126,DuPage County,IL,NA,26.18384401114206,NA
60130,Cook County,IL,54.65116279069767,NA,NA
60152,McHenry County,IL,78.29457364341084,NA,NA
60153,Cook County,IL,44.96124031007752,NA,NA
60162,Cook County,IL,82.17054263565892,NA,NA
60164,Cook County,IL,NA,45.682451253481894,NA
60201,Cook County,IL,NA,27.019498607242337,NA
60409,Cook County,IL,33.33333333333333,NA,NA
60435,Will County,IL,NA,13.649025069637883,NA
60451,Will County,IL,NA,18.384401114206128,NA
60482,Cook County,IL,NA,91.36490250696379,NA
60491,Will County,IL,40.310077519379846,NA,NA
60540,DuPage County,IL,65.89147286821705,NA,NA
60586,Will County,IL,21.705426356589147,NA,NA
60612,Cook County,IL,24.031007751937985,NA,NA
60617,Cook County,IL,NA,NA,3.6666666666666665
60619,Cook County,IL,NA,NA,19.666666666666664
60620,Cook County,IL,72.48062015503875,NA,NA
60626,Cook County,IL,24.418604651162788,NA,NA
60629,Cook County,IL,9.689922480620156,6.128133704735376,NA
60630,Cook County,IL,27.131782945736433,NA,NA
60641,Cook County,IL,20.54263565891473,NA,NA
60643,Cook County,IL,75.96899224806202,NA,10.666666666666668
60646,Cook County,IL,NA,NA,31.333333333333336
60649,Cook County,IL,NA,NA,26.333333333333332
60652,Cook County,IL,NA,NA,53.666666666666664
60659,Cook County,IL,NA,NA,48.333333333333336
60804,Cook County,IL,25.1937984496124,NA,NA
60805,Cook County,IL,73.25581395348837,NA,NA
61008,Boone County,IL,NA,23.955431754874652,NA
61021,Lee County,IL,NA,NA,5.333333333333334
61048,Stephenson County,IL,NA,NA,76
61074,Carroll County,IL,NA,99.16434540389972,NA
61081,Whiteside County,IL,NA,18.94150417827298,NA
61101,Winnebago County,IL,77.90697674418605,NA,NA
61201,Rock Island County,IL,NA,NA,44.333333333333336
61254,Henry County,IL,NA,73.81615598885793,NA
61265,Rock Island County,IL,77.13178294573643,NA,NA
61802,Champaign County,IL,NA,35.37604456824512,NA
61821,Champaign County,IL,74.03100775193798,NA,17
61866,Champaign County,IL,85.65891472868216,NA,NA
61873,Champaign County,IL,NA,84.67966573816156,NA
62521,Macon County,IL,NA,NA,7.000000000000001
62526,Macon County,IL,NA,NA,7.666666666666666
46322,Lake County,IN,28.68217054263566,NA,NA
46375,Lake County,IN,NA,21.448467966573816,NA
47711,Vanderburgh County,IN,NA,NA,59.66666666666667
50309,Polk County,IA,NA,92.47910863509749,NA
50310,Polk County,IA,NA,50.13927576601671,79.66666666666666
50313,Polk County,IA,NA,87.1866295264624,NA
50314,Polk County,IA,NA,NA,87
51401,Carroll County,IA,NA,NA,86
51501,Pottawattamie County,IA,NA,13.92757660167131,NA
52001,Dubuque County,IA,22.48062015503876,NA,NA
52240,Johnson County,IA,NA,72.42339832869081,NA
52245,Johnson County,IA,NA,NA,58.333333333333336
52246,Johnson County,IA,NA,NA,73.66666666666667
52404,Linn County,IA,NA,NA,71.66666666666667
52601,Des Moines County,IA,NA,17.270194986072422,53.333333333333336
52732,Clinton County,IA,NA,NA,47.66666666666667
52748,Scott County,IA,NA,89.69359331476323,NA
66502,Riley County,KS,NA,65.45961002785515,NA
66605,Shawnee County,KS,NA,NA,61
66617,Shawnee County,KS,NA,NA,99.33333333333333
40299,Jefferson County,KY,NA,NA,27
41042,Boone County,KY,NA,9.192200557103064,NA
41501,Pike County,KY,NA,48.74651810584958,NA
70043,St. Bernard Parish,LA,NA,64.34540389972145,NA
70113,Orleans Parish,LA,NA,65.18105849582173,NA
70124,Orleans Parish,LA,NA,73.25905292479109,NA
70373,Lafourche Parish,LA,56.97674418604651,NA,NA
70444,Tangipahoa Parish,LA,53.48837209302325,NA,NA
70445,St. Tammany Parish,LA,NA,65.45961002785515,NA
70601,Calcasieu Parish,LA,4.263565891472868,11.142061281337048,NA
71457,Natchitoches Parish,LA,10.852713178294573,NA,NA
04072,York County,ME,NA,23.676880222841227,NA
04103,Cumberland County,ME,NA,26.740947075208915,NA
04730,Aroostook County,ME,NA,NA,95.33333333333334
04736,Aroostook County,ME,NA,46.51810584958218,83.33333333333334
04742,Aroostook County,ME,80.62015503875969,NA,NA
04743,Aroostook County,ME,NA,NA,80.66666666666666
04769,Aroostook County,ME,65.50387596899225,47.353760445682454,23.333333333333332
20770,Prince George's County,MD,79.06976744186046,NA,NA
21057,Baltimore County,MD,NA,99.72144846796658,NA
21076,Anne Arundel County,MD,84.88372093023256,NA,NA
21113,Anne Arundel County,MD,NA,NA,60.66666666666667
21208,Baltimore County,MD,NA,37.04735376044568,NA
21217,Baltimore city,MD,NA,NA,55.333333333333336
21222,Baltimore County,MD,NA,3.3426183844011144,NA
21502,Allegany County,MD,NA,23.398328690807798,NA
21701,Frederick County,MD,NA,NA,46
01105,Hampden County,MA,5.813953488372093,NA,NA
01452,Worcester County,MA,NA,96.65738161559888,NA
01520,Worcester County,MA,NA,52.64623955431755,NA
01604,Worcester County,MA,NA,NA,4.666666666666667
01760,Middlesex County,MA,NA,NA,12
01801,Middlesex County,MA,NA,NA,1.6666666666666667
01803,Middlesex County,MA,NA,NA,26.666666666666668
01810,Essex County,MA,NA,20.61281337047354,NA
01852,Middlesex County,MA,NA,NA,27.333333333333332
01886,Middlesex County,MA,26.744186046511626,NA,NA
01905,Essex County,MA,15.503875968992247,NA,NA
01906,Essex County,MA,NA,12.256267409470752,NA
01923,Essex County,MA,NA,NA,23
02026,Norfolk County,MA,8.13953488372093,NA,NA
02035,Norfolk County,MA,37.2093023255814,NA,NA
02038,Norfolk County,MA,NA,NA,31.666666666666664
02043,Plymouth County,MA,NA,52.36768802228412,NA
02115,Suffolk County,MA,NA,61.28133704735376,30.666666666666664
02116,Suffolk County,MA,NA,4.178272980501393,NA
02118,Suffolk County,MA,0.3875968992248062,NA,NA
02119,Suffolk County,MA,NA,0,NA
02122,Suffolk County,MA,NA,14.763231197771587,NA
02125,Suffolk County,MA,0.7751937984496124,1.1142061281337048,11.666666666666666
02127,Suffolk County,MA,3.10077519379845,NA,NA
02128,Suffolk County,MA,6.5891472868217065,NA,NA
02130,Suffolk County,MA,12.790697674418606,NA,NA
02131,Suffolk County,MA,NA,6.963788300835655,NA
02132,Suffolk County,MA,NA,NA,8.666666666666668
02135,Suffolk County,MA,7.3643410852713185,NA,92.33333333333333
02136,Suffolk County,MA,NA,33.42618384401114,9.333333333333334
02140,Middlesex County,MA,23.643410852713178,NA,NA
02143,Middlesex County,MA,NA,14.206128133704734,NA
02145,Middlesex County,MA,8.527131782945736,13.370473537604457,NA
02148,Middlesex County,MA,1.1627906976744187,16.15598885793872,NA
02149,Middlesex County,MA,NA,NA,4
02151,Suffolk County,MA,0,2.2284122562674096,NA
02152,Suffolk County,MA,18.6046511627907,NA,NA
02169,Norfolk County,MA,NA,NA,1
02190,Norfolk County,MA,NA,66.85236768802228,NA
02324,Plymouth County,MA,NA,28.690807799442897,NA
02360,Plymouth County,MA,NA,0.2785515320334262,NA
02446,Norfolk County,MA,NA,NA,12.333333333333334
02453,Middlesex County,MA,NA,50.69637883008357,NA
02458,Middlesex County,MA,NA,NA,50
02459,Middlesex County,MA,NA,NA,16
02466,Middlesex County,MA,NA,NA,66.33333333333333
02467,Norfolk County,MA,NA,79.10863509749304,NA
02476,Middlesex County,MA,NA,31.47632311977716,NA
02703,Bristol County,MA,1.937984496124031,NA,NA
48089,Macomb County,MI,NA,NA,55.00000000000001
48103,Washtenaw County,MI,NA,60.16713091922006,NA
48116,Livingston County,MI,NA,NA,16.333333333333332
48126,Wayne County,MI,NA,45.40389972144847,NA
48127,Wayne County,MI,NA,NA,37.333333333333336
48130,Washtenaw County,MI,NA,NA,49.666666666666664
48135,Wayne County,MI,NA,NA,25.666666666666664
48146,Wayne County,MI,13.178294573643413,NA,NA
48150,Wayne County,MI,NA,NA,53
48152,Wayne County,MI,NA,54.317548746518106,NA
48161,Monroe County,MI,12.4031007751938,NA,NA
48168,Wayne County,MI,NA,NA,35.66666666666667
48169,Livingston County,MI,78.68217054263566,NA,NA
48170,Wayne County,MI,20.930232558139537,NA,NA
48173,Wayne County,MI,NA,93.31476323119777,NA
48174,Wayne County,MI,72.09302325581395,NA,NA
48176,Washtenaw County,MI,NA,29.805013927576603,NA
48180,Wayne County,MI,NA,2.785515320334262,NA
48188,Wayne County,MI,NA,NA,40
48189,Washtenaw County,MI,NA,NA,75
48197,Washtenaw County,MI,NA,NA,21.666666666666668
48201,Wayne County,MI,89.92248062015504,NA,NA
48215,Wayne County,MI,NA,NA,78.33333333333333
48223,Wayne County,MI,18.992248062015506,NA,NA
48235,Wayne County,MI,5.038759689922481,NA,15.666666666666668
48236,Wayne County,MI,NA,NA,15.333333333333332
48314,Macomb County,MI,NA,NA,30.333333333333336
48315,Macomb County,MI,NA,NA,33.33333333333333
48322,Oakland County,MI,NA,10.584958217270195,NA
48327,Oakland County,MI,34.883720930232556,NA,NA
48342,Oakland County,MI,21.31782945736434,NA,NA
48356,Oakland County,MI,NA,81.61559888579387,NA
48357,Oakland County,MI,NA,67.96657381615599,NA
48374,Oakland County,MI,NA,NA,82.66666666666667
48380,Oakland County,MI,NA,75.76601671309191,NA
48381,Oakland County,MI,NA,NA,56.99999999999999
48383,Oakland County,MI,NA,NA,74.33333333333333
48458,Genesee County,MI,NA,54.59610027855153,NA
48532,Genesee County,MI,43.798449612403104,NA,NA
48730,Iosco County,MI,94.96124031007753,NA,NA
49242,Hillsdale County,MI,52.71317829457365,NA,NA
49270,Monroe County,MI,NA,98.05013927576601,NA
49326,Kent County,MI,98.06201550387597,NA,NA
55011,Anoka County,MN,NA,88.85793871866295,NA
55024,Dakota County,MN,NA,NA,85.66666666666667
55041,Wabasha County,MN,NA,NA,59
55071,Washington County,MN,93.02325581395348,NA,NA
55117,Ramsey County,MN,NA,69.63788300835655,78.33333333333333
55126,Ramsey County,MN,NA,NA,66
55306,Dakota County,MN,NA,NA,93.33333333333333
55318,Carver County,MN,NA,63.231197771587745,NA
55350,McLeod County,MN,32.55813953488372,NA,NA
55406,Hennepin County,MN,28.294573643410853,NA,NA
55413,Hennepin County,MN,47.286821705426355,NA,NA
55415,Hennepin County,MN,NA,100,NA
55421,Anoka County,MN,NA,NA,46.666666666666664
55423,Hennepin County,MN,NA,NA,39.33333333333333
55429,Hennepin County,MN,17.829457364341085,NA,NA
55445,Hennepin County,MN,NA,84.12256267409471,NA
55446,Hennepin County,MN,82.94573643410853,NA,81.33333333333333
55720,Carlton County,MN,NA,46.239554317548745,NA
55744,Itasca County,MN,NA,9.47075208913649,NA
55810,St. Louis County,MN,NA,NA,71.33333333333334
55811,St. Louis County,MN,NA,34.540389972144844,NA
55901,Olmsted County,MN,NA,NA,17.333333333333336
55902,Olmsted County,MN,NA,NA,88.66666666666667
55947,Houston County,MN,NA,90.5292479108635,NA
55964,Wabasha County,MN,NA,NA,100
56007,Freeborn County,MN,22.868217054263564,NA,20
56031,Martin County,MN,NA,NA,16.666666666666664
56073,Brown County,MN,NA,16.434540389972145,5
56258,Lyon County,MN,NA,89.41504178272982,NA
56345,Morrison County,MN,NA,42.33983286908078,NA
56470,Hubbard County,MN,NA,NA,41
56482,Wadena County,MN,NA,57.381615598885794,NA
56537,Otter Tail County,MN,NA,NA,2.666666666666667
56560,Clay County,MN,NA,5.571030640668524,NA
56633,Hubbard County,MN,NA,71.03064066852369,NA
38916,Calhoun County,MS,NA,95.54317548746518,NA
39301,Lauderdale County,MS,NA,NA,70.66666666666667
63501,Adair County,MO,NA,95.82172701949861,NA
63775,Perry County,MO,NA,38.71866295264624,NA
64055,Jackson County,MO,NA,10.027855153203342,NA
64123,Jackson County,MO,NA,NA,94.66666666666667
64124,Jackson County,MO,NA,NA,86.66666666666667
64128,Jackson County,MO,NA,NA,81
64130,Jackson County,MO,31.3953488372093,NA,NA
64133,Jackson County,MO,NA,5.8495821727019495,NA
64145,Jackson County,MO,NA,NA,89.66666666666666
64151,Platte County,MO,NA,53.760445682451255,NA
65049,Camden County,MO,NA,80.50139275766016,NA
65065,Camden County,MO,NA,68.52367688022284,NA
65202,Boone County,MO,NA,93.03621169916435,21.333333333333336
65781,Greene County,MO,NA,91.08635097493037,NA
65807,Greene County,MO,NA,20.334261838440113,NA
59102,Yellowstone County,MT,NA,NA,2
59701,Silver Bow County,MT,NA,NA,54.666666666666664
68108,Douglas County,NE,NA,NA,97.33333333333334
68506,Lancaster County,NE,75.5813953488372,NA,NA
68949,Phelps County,NE,NA,NA,70
89130,Clark County,NV,57.751937984496124,NA,NA
89815,Elko County,NV,NA,96.93593314763231,NA
03431,Cheshire County,NH,NA,32.03342618384401,74
03766,Grafton County,NH,NA,NA,56.00000000000001
03894,Carroll County,NH,NA,NA,51.33333333333333
07002,Hudson County,NJ,2.7131782945736433,NA,NA
07017,Essex County,NJ,NA,19.498607242339833,NA
07018,Essex County,NJ,91.86046511627907,NA,NA
07030,Hudson County,NJ,10.077519379844961,NA,NA
07052,Essex County,NJ,NA,16.991643454038996,NA
07073,Bergen County,NJ,67.44186046511628,NA,NA
07093,Hudson County,NJ,NA,90.25069637883009,NA
07094,Hudson County,NJ,NA,NA,66.66666666666666
07106,Essex County,NJ,NA,NA,44.666666666666664
07430,Bergen County,NJ,NA,NA,52.666666666666664
07640,Bergen County,NJ,NA,NA,97.66666666666667
07960,Morris County,NJ,NA,NA,28.000000000000004
08861,Middlesex County,NJ,3.488372093023256,NA,NA
87059,Bernalillo County,NM,NA,80.50139275766016,NA
87105,Bernalillo County,NM,NA,60.724233983286915,NA
87110,Bernalillo County,NM,46.12403100775194,NA,NA
87111,Bernalillo County,NM,6.976744186046512,NA,NA
87120,Bernalillo County,NM,13.953488372093023,NA,NA
87121,Bernalillo County,NM,NA,8.07799442896936,NA
87313,McKinley County,NM,80.23255813953489,NA,NA
87402,San Juan County,NM,NA,85.23676880222841,NA
87547,,NM,86.04651162790698,NA,NA
88001,Doa Ana County,NM,30.23255813953488,NA,NA
10009,New York County,NY,57.36434108527132,NA,NA
10021,New York County,NY,NA,NA,25.333333333333336
10025,New York County,NY,29.844961240310074,NA,NA
10029,New York County,NY,NA,NA,0.33333333333333337
10031,New York County,NY,NA,17.548746518105848,NA
10032,New York County,NY,NA,NA,8.333333333333332
10033,New York County,NY,NA,23.119777158774372,NA
10035,New York County,NY,NA,NA,50.66666666666667
10039,New York County,NY,NA,44.01114206128134,79
10040,New York County,NY,35.65891472868217,NA,NA
10309,Richmond County,NY,NA,47.910863509749305,NA
10314,Richmond County,NY,NA,4.735376044568245,NA
10452,Bronx County,NY,1.550387596899225,NA,NA
10456,Bronx County,NY,5.426356589147287,NA,NA
10457,Bronx County,NY,NA,0.5571030640668524,NA
10458,Bronx County,NY,NA,8.356545961002785,36.666666666666664
10459,Bronx County,NY,NA,12.534818941504177,NA
10460,Bronx County,NY,NA,NA,14.666666666666666
10461,Bronx County,NY,16.27906976744186,NA,NA
10465,Bronx County,NY,NA,69.91643454038997,NA
10467,Bronx County,NY,27.51937984496124,NA,20.666666666666668
10468,Bronx County,NY,NA,NA,10
10469,Bronx County,NY,NA,NA,7.333333333333333
10550,Westchester County,NY,NA,NA,65.33333333333333
11201,Kings County,NY,NA,25.069637883008355,NA
11203,Kings County,NY,NA,NA,11.333333333333332
11205,Kings County,NY,NA,24.233983286908078,91
11207,Kings County,NY,NA,NA,12.666666666666668
11208,Kings County,NY,2.3255813953488373,1.9498607242339834,NA
11209,Kings County,NY,NA,56.54596100278552,NA
11211,Kings County,NY,NA,55.71030640668524,NA
11213,Kings County,NY,NA,7.520891364902507,NA
11219,Kings County,NY,NA,NA,51
11220,Kings County,NY,NA,31.75487465181058,NA
11225,Kings County,NY,NA,19.77715877437326,NA
11226,Kings County,NY,NA,NA,14.333333333333334
11233,Kings County,NY,NA,NA,45
11236,Kings County,NY,25.581395348837212,59.33147632311978,NA
11354,Queens County,NY,NA,NA,28.666666666666668
11355,Queens County,NY,NA,22.284122562674096,NA
11385,Queens County,NY,14.34108527131783,NA,39.666666666666664
11435,Queens County,NY,NA,NA,70.33333333333334
12186,Albany County,NY,NA,NA,90.33333333333333
12701,Sullivan County,NY,48.837209302325576,NA,NA
12834,Washington County,NY,NA,67.40947075208913,NA
13452,Montgomery County,NY,84.10852713178295,NA,NA
14103,Orleans County,NY,48.06201550387597,NA,NA
14605,Monroe County,NY,NA,55.43175487465181,NA
14609,Monroe County,NY,NA,0.8356545961002786,NA
14626,Monroe County,NY,NA,4.456824512534819,NA
14712,Chautauqua County,NY,96.12403100775194,NA,NA
14787,Chautauqua County,NY,NA,88.02228412256268,NA
27006,Davie County,NC,NA,NA,24.666666666666668
27012,Forsyth County,NC,NA,30.362116991643457,37.666666666666664
27051,Forsyth County,NC,NA,71.86629526462396,NA
27104,Forsyth County,NC,NA,NA,6.666666666666667
27105,Forsyth County,NC,NA,NA,10.333333333333334
27106,Forsyth County,NC,NA,NA,1.3333333333333335
27107,Forsyth County,NC,NA,NA,3.3333333333333335
27203,Randolph County,NC,NA,NA,64.33333333333333
27282,Guilford County,NC,NA,73.53760445682451,NA
27284,Forsyth County,NC,11.24031007751938,NA,NA
27288,Rockingham County,NC,NA,28.133704735376046,NA
27407,Guilford County,NC,NA,39.27576601671309,NA
27514,Orange County,NC,NA,NA,38.333333333333336
27607,Wake County,NC,NA,NA,95.66666666666667
27707,Durham County,NC,18.217054263565892,NA,NA
28262,Mecklenburg County,NC,39.53488372093023,NA,NA
28607,Watauga County,NC,NA,40.66852367688023,NA
28625,Iredell County,NC,NA,NA,30
28645,Caldwell County,NC,NA,NA,3
28779,Jackson County,NC,NA,NA,61.66666666666667
58078,Cass County,ND,29.069767441860467,NA,NA
58201,Grand Forks County,ND,NA,NA,24.333333333333336
43016,Franklin County,OH,NA,NA,78
43026,Franklin County,OH,NA,25.348189415041784,81.66666666666667
43062,Licking County,OH,39.14728682170542,NA,NA
43078,Champaign County,OH,NA,43.17548746518106,NA
43081,Franklin County,OH,NA,62.39554317548747,NA
43085,Franklin County,OH,NA,62.116991643454035,NA
43103,Pickaway County,OH,75.1937984496124,NA,NA
43130,Fairfield County,OH,3.875968992248062,NA,NA
43140,Madison County,OH,41.08527131782946,NA,NA
43160,Fayette County,OH,20.155038759689923,NA,NA
43205,Franklin County,OH,49.6124031007752,82.17270194986072,NA
43206,Franklin County,OH,46.51162790697674,NA,NA
43209,Franklin County,OH,NA,38.99721448467967,NA
43211,Franklin County,OH,41.47286821705426,36.49025069637883,NA
43213,Franklin County,OH,NA,22.56267409470752,NA
43214,Franklin County,OH,98.44961240310077,NA,NA
43219,Franklin County,OH,NA,NA,44
43224,Franklin County,OH,8.914728682170542,NA,NA
43227,Franklin County,OH,NA,70.19498607242339,NA
43229,Franklin County,OH,NA,NA,77
43230,Franklin County,OH,NA,16.71309192200557,NA
43512,Defiance County,OH,NA,6.685236768802229,NA
43556,Defiance County,OH,NA,99.44289693593315,NA
44001,Lorain County,OH,NA,NA,9.666666666666666
44004,Ashtabula County,OH,NA,NA,2.3333333333333335
44011,Lorain County,OH,NA,75.76601671309191,NA
44012,Lorain County,OH,38.372093023255815,NA,NA
44021,Geauga County,OH,NA,86.90807799442896,NA
44024,Geauga County,OH,NA,NA,54.333333333333336
44039,Lorain County,OH,NA,91.92200557103064,NA
44050,Lorain County,OH,NA,NA,57.333333333333336
44052,Lorain County,OH,51.93798449612403,NA,NA
44055,Lorain County,OH,NA,54.874651810584965,18.666666666666668
44089,Erie County,OH,NA,12.813370473537605,13.333333333333334
44094,Lake County,OH,NA,5.2924791086350975,NA
44105,Cuyahoga County,OH,NA,8.635097493036211,NA
44107,Cuyahoga County,OH,4.651162790697675,NA,NA
44112,Cuyahoga County,OH,NA,6.406685236768802,NA
44116,Cuyahoga County,OH,NA,62.95264623955432,NA
44117,Cuyahoga County,OH,91.47286821705426,NA,NA
44124,Cuyahoga County,OH,NA,NA,0.6666666666666667
44127,Cuyahoga County,OH,NA,96.37883008356546,NA
44128,Cuyahoga County,OH,NA,NA,38.666666666666664
44131,Cuyahoga County,OH,NA,NA,8
44134,Cuyahoga County,OH,NA,3.064066852367688,NA
44135,Cuyahoga County,OH,NA,10.30640668523677,NA
44136,Cuyahoga County,OH,NA,40.947075208913645,NA
44137,Cuyahoga County,OH,9.30232558139535,NA,NA
44145,Cuyahoga County,OH,84.10852713178295,NA,NA
44146,Cuyahoga County,OH,10.465116279069768,NA,NA
44147,Cuyahoga County,OH,NA,NA,34.66666666666667
44149,Cuyahoga County,OH,NA,21.72701949860724,NA
44203,Summit County,OH,NA,NA,9
44212,Medina County,OH,NA,11.420612813370473,NA
44221,Summit County,OH,NA,NA,19
44224,Summit County,OH,NA,41.504178272980504,NA
44230,Wayne County,OH,NA,79.38718662952647,NA
44231,Portage County,OH,NA,85.79387186629526,NA
44236,Summit County,OH,NA,NA,42
44240,Portage County,OH,NA,57.10306406685237,NA
44288,Portage County,OH,NA,97.49303621169916,NA
44301,Summit County,OH,NA,NA,96
44306,Summit County,OH,70.54263565891473,NA,NA
44320,Summit County,OH,NA,NA,65
44333,Summit County,OH,NA,NA,42.66666666666667
44446,Trumbull County,OH,NA,20.891364902506965,NA
44483,Trumbull County,OH,51.55038759689923,NA,NA
44512,Mahoning County,OH,NA,NA,22.666666666666664
44632,Stark County,OH,NA,90.80779944289694,NA
44839,Erie County,OH,NA,43.45403899721448,NA
44846,Erie County,OH,99.6124031007752,NA,NA
44870,Erie County,OH,NA,3.6211699164345403,NA
45177,Clinton County,OH,NA,36.768802228412255,NA
45373,Miami County,OH,NA,15.32033426183844,NA
45406,Montgomery County,OH,22.093023255813954,NA,NA
45432,Greene County,OH,71.31782945736434,NA,NA
45503,Clark County,OH,NA,15.598885793871867,NA
45764,Athens County,OH,NA,67.1309192200557,NA
45804,Allen County,OH,NA,29.247910863509752,NA
45895,Auglaize County,OH,NA,NA,75.33333333333333
73025,Oklahoma County,OK,NA,82.72980501392759,NA
73446,Marshall County,OK,86.43410852713178,NA,NA
74501,Pittsburg County,OK,NA,NA,37
74523,Pushmataha County,OK,NA,NA,98.33333333333333
74953,Le Flore County,OK,NA,76.6016713091922,NA
97006,Washington County,OR,NA,34.81894150417828,NA
97071,Marion County,OR,NA,59.888579387186624,84.33333333333334
97124,Washington County,OR,NA,27.298050139275766,NA
97206,Multnomah County,OR,NA,28.412256267409468,NA
97213,Multnomah County,OR,NA,89.97214484679665,NA
97229,Washington County,OR,NA,82.45125348189416,NA
97233,Multnomah County,OR,23.25581395348837,NA,NA
97236,Multnomah County,OR,NA,NA,64
97301,Marion County,OR,NA,28.969359331476323,NA
97386,Linn County,OR,NA,45.12534818941504,NA
97527,Josephine County,OR,NA,22.841225626740947,NA
97703,Deschutes County,OR,NA,NA,94.33333333333334
97914,Malheur County,OR,59.68992248062015,NA,NA
15206,Allegheny County,PA,NA,25.90529247910863,NA
16335,Crawford County,PA,NA,13.09192200557103,NA
17003,Lebanon County,PA,NA,49.86072423398329,NA
17022,Lancaster County,PA,NA,18.662952646239557,NA
17033,Dauphin County,PA,NA,58.21727019498607,NA
17042,Lebanon County,PA,NA,7.7994428969359335,76.66666666666667
17078,Lebanon County,PA,NA,14.484679665738161,NA
17362,York County,PA,NA,50.41782729805014,NA
17603,Lancaster County,PA,NA,11.977715877437326,NA
17815,Columbia County,PA,NA,45.96100278551532,NA
17853,Snyder County,PA,99.2248062015504,NA,NA
17870,Snyder County,PA,NA,33.70473537604457,NA
18017,Northampton County,PA,NA,5.013927576601671,NA
18508,Lackawanna County,PA,NA,NA,85.33333333333334
19033,Delaware County,PA,NA,NA,91.33333333333333
19085,Delaware County,PA,NA,NA,95
19106,Philadelphia County,PA,NA,63.50974930362116,NA
19111,Philadelphia County,PA,NA,NA,17.666666666666668
19141,Philadelphia County,PA,NA,NA,36.333333333333336
19146,Philadelphia County,PA,NA,NA,56.00000000000001
19312,Chester County,PA,NA,NA,59
02907,Providence County,RI,NA,NA,52.33333333333333
29003,Bamberg County,SC,97.67441860465115,NA,NA
29061,Richland County,SC,81.0077519379845,NA,NA
29161,Florence County,SC,NA,75.20891364902506,NA
29209,Richland County,SC,49.224806201550386,NA,NA
29407,Charleston County,SC,NA,NA,22
29412,Charleston County,SC,NA,NA,18
29420,Dorchester County,SC,NA,NA,87.66666666666667
29440,Georgetown County,SC,NA,NA,34.333333333333336
29501,Florence County,SC,67.82945736434108,NA,NA
29576,Horry County,SC,NA,15.041782729805014,NA
29841,Aiken County,SC,55.42635658914728,NA,NA
37013,Davidson County,TN,15.11627906976744,NA,NA
37043,Montgomery County,TN,39.922480620155035,NA,NA
37064,Williamson County,TN,51.162790697674424,19.220055710306408,NA
37115,Davidson County,TN,NA,NA,39
37122,Wilson County,TN,NA,NA,35
37160,Bedford County,TN,NA,37.60445682451253,NA
37208,Davidson County,TN,29.457364341085274,NA,NA
37211,Davidson County,TN,24.418604651162788,NA,NA
37388,Coffee County,TN,36.82170542635659,NA,NA
37421,Hamilton County,TN,NA,32.86908077994429,NA
37755,Scott County,TN,NA,98.88579387186628,NA
38053,Shelby County,TN,NA,NA,35.333333333333336
38111,Shelby County,TN,26.356589147286826,NA,NA
75035,Collin County,TX,NA,NA,74.66666666666667
75080,Dallas County,TX,83.33333333333334,NA,NA
75217,Dallas County,TX,13.565891472868216,NA,NA
75773,Wood County,TX,NA,32.31197771587744,NA
76008,Parker County,TX,79.84496124031007,NA,NA
76039,Tarrant County,TX,NA,60.44568245125348,NA
76502,Bell County,TX,NA,15.87743732590529,NA
76513,Bell County,TX,NA,1.392757660167131,NA
76520,Milam County,TX,NA,NA,72.66666666666667
76528,Coryell County,TX,NA,NA,67.33333333333333
76541,Bell County,TX,NA,NA,58.666666666666664
76542,Bell County,TX,NA,NA,83.66666666666667
76571,Bell County,TX,NA,NA,87.33333333333333
76574,Williamson County,TX,NA,NA,13
76705,McLennan County,TX,NA,97.21448467966573,NA
76710,McLennan County,TX,90.31007751937985,NA,82.33333333333334
76711,McLennan County,TX,NA,NA,89.33333333333333
77004,Harris County,TX,NA,47.07520891364902,NA
77078,Harris County,TX,76.35658914728683,61.55988857938719,NA
77375,Harris County,TX,58.139534883720934,NA,NA
77433,Harris County,TX,17.05426356589147,NA,NA
77551,Galveston County,TX,30.620155038759687,NA,67.33333333333333
77575,Liberty County,TX,68.6046511627907,NA,NA
77584,Brazoria County,TX,NA,24.79108635097493,NA
77590,Galveston County,TX,19.767441860465116,NA,NA
77651,Jefferson County,TX,NA,NA,79.33333333333333
77706,Jefferson County,TX,NA,38.16155988857939,NA
78043,Webb County,TX,NA,78.55153203342618,NA
78109,Bexar County,TX,53.875968992248055,NA,NA
78520,Cameron County,TX,59.30232558139535,NA,NA
78537,Hidalgo County,TX,NA,93.87186629526462,NA
78542,Hidalgo County,TX,73.64341085271317,NA,NA
78582,Starr County,TX,NA,72.98050139275766,NA
78628,Williamson County,TX,NA,NA,42.333333333333336
79109,Randall County,TX,42.248062015503876,NA,NA
79904,El Paso County,TX,68.21705426356588,NA,NA
79928,El Paso County,TX,54.263565891472865,NA,NA
79938,El Paso County,TX,34.49612403100775,NA,NA
84081,Salt Lake County,UT,NA,59.05292479108635,NA
84102,Salt Lake County,UT,95.73643410852713,NA,NA
84105,Salt Lake County,UT,NA,NA,77.33333333333333
84108,Salt Lake County,UT,NA,NA,40.33333333333333
84119,Salt Lake County,UT,NA,42.618384401114206,NA
84121,Salt Lake County,UT,NA,21.16991643454039,NA
84123,Salt Lake County,UT,NA,70.19498607242339,NA
84128,Salt Lake County,UT,44.18604651162791,NA,NA
84404,Weber County,UT,NA,42.061281337047355,NA
84601,Utah County,UT,NA,NA,90.66666666666666
84738,Washington County,UT,NA,77.71587743732591,NA
05001,Windsor County,VT,NA,NA,86.33333333333333
05301,Windham County,VT,85.27131782945736,NA,NA
05401,Chittenden County,VT,NA,49.02506963788301,NA
05403,Chittenden County,VT,NA,49.30362116991643,NA
05452,Chittenden County,VT,NA,NA,49.333333333333336
05491,Addison County,VT,NA,77.15877437325905,NA
22802,Harrisonburg city,VA,27.906976744186046,NA,NA
22903,Charlottesville city,VA,31.782945736434108,NA,37.666666666666664
22980,Waynesboro city,VA,NA,NA,6.333333333333334
23237,Chesterfield County,VA,NA,83.008356545961007,NA
23430,Isle of Wight County,VA,NA,NA,41.333333333333336
23504,Norfolk city,VA,63.17829457364341,NA,NA
23606,Newport News city,VA,NA,NA,24
23803,Petersburg city,VA,NA,18.105849582172702,NA
24201,Bristol city,VA,74.8062015503876,NA,NA
24211,Washington County,VA,NA,57.381615598885794,NA
24551,Bedford County,VA,83.72093023255815,NA,NA
24656,Buchanan County,VA,92.24806201550388,NA,NA
98023,King County,WA,62.4031007751938,NA,NA
98029,King County,WA,NA,94.42896935933148,NA
98031,King County,WA,NA,NA,80
98103,King County,WA,NA,44.28969359331476,NA
98104,King County,WA,NA,42.89693593314763,NA
98108,King County,WA,NA,NA,60
98109,King County,WA,NA,NA,61.66666666666667
98117,King County,WA,65.11627906976744,NA,NA
98121,King County,WA,56.201550387596896,NA,NA
98125,King County,WA,90.69767441860465,NA,NA
98133,King County,WA,79.45736434108527,NA,NA
98208,Snohomish County,WA,25.968992248062015,NA,NA
98277,Island County,WA,NA,30.08356545961003,NA
98338,Pierce County,WA,52.32558139534884,37.88300835654596,NA
98391,Pierce County,WA,NA,NA,69.33333333333334
98660,Clark County,WA,87.20930232558139,NA,NA
98672,Klickitat County,WA,NA,NA,92.66666666666666
98686,Clark County,WA,NA,NA,96.33333333333334
25427,Berkeley County,WV,NA,64.9025069637883,NA
25560,Putnam County,WV,88.37209302325581,NA,NA
26041,Marshall County,WV,NA,72.70194986072424,NA
26059,Ohio County,WV,100,NA,NA
26105,Wood County,WV,NA,NA,31
26301,Harrison County,WV,11.627906976744185,NA,NA
26537,Preston County,WV,NA,61.00278551532033,NA
53029,Waukesha County,WI,67.05426356589147,94.98607242339833,NA
53094,Jefferson County,WI,NA,33.147632311977716,NA
53098,Dodge County,WI,NA,NA,83
53151,Waukesha County,WI,NA,56.824512534818936,21
53172,Milwaukee County,WI,NA,71.58774373259052,NA
53185,Racine County,WI,62.01550387596899,NA,NA
53188,Waukesha County,WI,NA,NA,34
53207,Milwaukee County,WI,62.7906976744186,NA,NA
53208,Milwaukee County,WI,NA,NA,62.66666666666667
53209,Milwaukee County,WI,NA,2.5069637883008355,NA
53210,Milwaukee County,WI,34.10852713178294,NA,NA
53213,Milwaukee County,WI,NA,34.26183844011142,89
53215,Milwaukee County,WI,7.751937984496124,NA,NA
53217,Milwaukee County,WI,NA,NA,19.333333333333332
53222,Milwaukee County,WI,NA,NA,60.333333333333336
53225,Milwaukee County,WI,NA,NA,68.66666666666667
53226,Milwaukee County,WI,NA,NA,46.33333333333333
53227,Milwaukee County,WI,NA,NA,25
53511,Rock County,WI,NA,7.242339832869081,4.333333333333334
53527,Dane County,WI,94.18604651162791,NA,NA
53548,Rock County,WI,NA,30.64066852367688,NA
53562,Dane County,WI,NA,30.919220055710305,NA
53575,Dane County,WI,NA,NA,94
53590,Dane County,WI,NA,NA,68
53704,Dane County,WI,NA,52.92479108635098,NA
53705,Dane County,WI,NA,48.18941504178273,NA
53711,Dane County,WI,36.434108527131784,NA,NA
53714,Dane County,WI,NA,NA,72
54409,Langlade County,WI,NA,26.46239554317549,NA
54482,Portage County,WI,NA,61.83844011142061,NA
54534,Iron County,WI,97.28682170542635,NA,NA
54601,La Crosse County,WI,12.015503875968992,1.6713091922005572,0
54656,Monroe County,WI,53.100775193798455,NA,NA
54880,Douglas County,WI,NA,NA,20.333333333333332
