ZipCode,county,state,Adult
35007,Shelby County,AL,45.30800230282095
35022,Jefferson County,AL,32.29706390328152
35046,Chilton County,AL,87.1042026482441
35055,Cullman County,AL,49.22279792746114
35094,Jefferson County,AL,54.40414507772021
35126,Jefferson County,AL,46.57455382843984
35160,Talladega County,AL,40.9902130109384
35215,Jefferson County,AL,26.827864133563615
35216,Jefferson County,AL,48.30166954519286
35242,Shelby County,AL,25.38860103626943
35244,Jefferson County,AL,41.85377086931491
35401,Tuscaloosa County,AL,19.80426021876799
35473,Tuscaloosa County,AL,49.337938975244676
35475,Tuscaloosa County,AL,72.94185377086932
35565,Winston County,AL,63.960852043753604
35901,Etowah County,AL,28.0944156591825
35904,Etowah County,AL,69.2573402417962
36109,Montgomery County,AL,42.717328727691424
36201,Calhoun County,AL,53.8860103626943
36265,Calhoun County,AL,46.68969487622338
36301,Houston County,AL,14.277489925158319
36330,Coffee County,AL,70.00575705238917
36350,Dale County,AL,94.99136442141624
36352,Houston County,AL,83.70754173862981
36460,Monroe County,AL,77.89291882556131
36507,Baldwin County,AL,32.872769142199196
36532,Baldwin County,AL,52.67702936096719
36561,Baldwin County,AL,97.0063327576281
36617,Mobile County,AL,68.9119170984456
36701,Dallas County,AL,21.128382268278642
36801,Lee County,AL,54.63442717328728
99503,Anchorage Municipality,AK,40.29936672423719
99504,Anchorage Municipality,AK,48.64709268854347
99654,Matanuska-Susitna Borough,AK,29.360967184801385
99705,Fairbanks North Star Borough,AK,69.48762233736328
85008,Maricopa County,AZ,9.959700633275762
85017,Maricopa County,AZ,58.72193436960277
85035,Maricopa County,AZ,41.393206678180775
85119,Pinal County,AZ,63.32757628094415
85132,Pinal County,AZ,31.088082901554404
85203,Maricopa County,AZ,30.339666090961426
85212,Maricopa County,AZ,51.237766263673
85254,Maricopa County,AZ,47.32297063903281
85256,Maricopa County,AZ,84.28324697754749
85259,Maricopa County,AZ,76.39608520437537
85281,Maricopa County,AZ,28.727691421991942
85282,Maricopa County,AZ,34.887737478411054
85301,Maricopa County,AZ,17.78929188255613
85306,Maricopa County,AZ,48.877374784110536
85326,Maricopa County,AZ,22.22222222222222
85338,Maricopa County,AZ,27.11571675302245
85340,Maricopa County,AZ,59.58549222797927
85344,La Paz County,AZ,84.51352907311457
85353,Maricopa County,AZ,26.194588370754175
85546,Graham County,AZ,44.21416234887737
85648,Santa Cruz County,AZ,74.09326424870466
85706,Pima County,AZ,41.22049510650547
85710,Pima County,AZ,6.217616580310881
85714,Pima County,AZ,74.49625791594704
85743,Pima County,AZ,35.40587219343696
85746,Pima County,AZ,8.981001727115718
85755,Pima County,AZ,99.42429476108232
86004,Coconino County,AZ,4.375359815774323
86323,Yavapai County,AZ,46.286701208981
86326,Yavapai County,AZ,18.537708693149106
86404,Mohave County,AZ,85.20437535981577
86538,Apache County,AZ,97.81232009211284
71857,Nevada County,AR,94.3580886586068
72002,Saline County,AR,94.01266551525619
72015,Saline County,AR,74.78411053540587
72104,Hot Spring County,AR,51.122625215889464
72210,Pulaski County,AR,84.4559585492228
72315,Mississippi County,AR,46.68969487622338
72404,Craighead County,AR,43.86873920552677
72416,Craighead County,AR,80.36845135290731
72521,Sharp County,AR,93.37938975244676
72762,Washington County,AR,41.508347725964306
72802,Pope County,AR,69.02705814622912
90018,Los Angeles County,CA,63.730569948186535
90022,Los Angeles County,CA,62.29130685089235
90043,Los Angeles County,CA,39.37823834196891
90044,Los Angeles County,CA,22.567645365572826
90059,Los Angeles County,CA,96.20034542314335
90063,Los Angeles County,CA,45.36557282671272
90064,Los Angeles County,CA,21.185952792170408
90220,Los Angeles County,CA,25.964306275187106
90250,Los Angeles County,CA,18.94070236039148
90404,Los Angeles County,CA,28.670120898100173
90638,Los Angeles County,CA,76.10823258491652
90640,Los Angeles County,CA,27.979274611398964
90660,Los Angeles County,CA,55.78583765112263
90706,Los Angeles County,CA,19.45883707541739
90715,Los Angeles County,CA,81.11686816350029
90731,Los Angeles County,CA,24.122049510650548
90744,Los Angeles County,CA,53.13759355210132
90808,Los Angeles County,CA,51.75590097869891
91201,Los Angeles County,CA,80.02302820955671
91205,Los Angeles County,CA,63.212435233160626
91303,Los Angeles County,CA,78.06563039723662
91335,Los Angeles County,CA,23.77662636729994
91405,Los Angeles County,CA,68.04835924006909
91406,Los Angeles County,CA,45.71099597006333
91505,Los Angeles County,CA,91.82498560736903
91762,San Bernardino County,CA,75.59009786989061
91766,Los Angeles County,CA,79.3321819228555
91767,Los Angeles County,CA,79.15947035118019
91768,Los Angeles County,CA,80.71387449625792
91786,San Bernardino County,CA,25.561312607944732
91911,San Diego County,CA,67.1272308578008
91977,San Diego County,CA,61.71560161197467
92021,San Diego County,CA,11.514104778353483
92054,San Diego County,CA,36.787564766839374
92057,San Diego County,CA,51.0650546919977
92058,San Diego County,CA,83.1894070236039
92064,San Diego County,CA,72.36614853195165
92065,San Diego County,CA,43.17789291882556
92078,San Diego County,CA,74.61139896373057
92082,San Diego County,CA,85.54979850316637
92102,San Diego County,CA,31.20322394933794
92105,San Diego County,CA,41.968911917098445
92115,San Diego County,CA,73.63270005757052
92126,San Diego County,CA,81.51986183074266
92131,San Diego County,CA,64.70926885434658
92201,Riverside County,CA,96.08520437535981
92227,Imperial County,CA,66.2636729994243
92234,Riverside County,CA,10.535405872193436
92236,Riverside County,CA,37.88140472078296
92240,Riverside County,CA,16.810592976396084
92284,San Bernardino County,CA,20.26482440990213
92311,San Bernardino County,CA,62.69430051813472
92324,San Bernardino County,CA,93.32181922855499
92337,San Bernardino County,CA,78.9867587795049
92342,San Bernardino County,CA,97.6971790443293
92405,San Bernardino County,CA,39.20552677029361
92408,San Bernardino County,CA,99.13644214162349
92411,San Bernardino County,CA,69.31491076568797
92508,Riverside County,CA,76.16580310880829
92509,Riverside County,CA,17.904432930339667
92544,Riverside County,CA,71.7328727691422
92545,Riverside County,CA,35.80886586067933
92551,Riverside County,CA,61.19746689694876
92570,Riverside County,CA,35.751295336787564
92571,Riverside County,CA,33.44847438111687
92591,Riverside County,CA,82.72884283246978
92596,Riverside County,CA,86.18307426597582
92614,Orange County,CA,54.74956822107081
92647,Orange County,CA,65.28497409326425
92672,Orange County,CA,61.13989637305699
92688,Orange County,CA,62.80944156591824
92701,Orange County,CA,70.35118019573979
92703,Orange County,CA,91.13413932066781
92804,Orange County,CA,10.305123776626367
92805,Orange County,CA,69.08462867012089
92806,Orange County,CA,94.70351180195739
92840,Orange County,CA,91.76741508347726
92843,Orange County,CA,63.500287852619465
92881,Riverside County,CA,67.93321819228555
92883,Riverside County,CA,96.02763385146805
93013,Santa Barbara County,CA,95.85492227979275
93021,Ventura County,CA,53.48301669545192
93065,Ventura County,CA,11.283822682786413
93215,Kern County,CA,53.42544617156017
93219,Tulare County,CA,99.88485895221646
93241,Kern County,CA,89.98272884283247
93274,Tulare County,CA,62.86701208981002
93277,Tulare County,CA,52.561888313183644
93280,Kern County,CA,70.63903281519862
93292,Tulare County,CA,34.772596430627516
93306,Kern County,CA,74.43868739205527
93402,San Luis Obispo County,CA,93.89752446747266
93405,San Luis Obispo County,CA,66.83937823834198
93422,San Luis Obispo County,CA,40.8175014392631
93436,Santa Barbara County,CA,70.29360967184802
93445,San Luis Obispo County,CA,89.9251583189407
93446,San Luis Obispo County,CA,20.782959124928038
93455,Santa Barbara County,CA,25.215889464594127
93550,Los Angeles County,CA,9.671848013816927
93620,Merced County,CA,96.77605066206102
93630,Fresno County,CA,75.93552101324123
93635,Merced County,CA,33.160621761658035
93638,Madera County,CA,14.04720782959125
93640,Fresno County,CA,89.7524467472654
93662,Fresno County,CA,50.028785261945885
93703,Fresno County,CA,37.42084052964882
93711,Fresno County,CA,61.42774899251583
93726,Fresno County,CA,85.03166378814048
93727,Fresno County,CA,84.68624064478986
93901,Monterey County,CA,47.49568221070812
93905,Monterey County,CA,30.915371329879104
93930,Monterey County,CA,95.048934945308
93940,Monterey County,CA,46.34427173287277
94043,Santa Clara County,CA,68.04835924006909
94110,San Francisco County,CA,35.57858376511226
94122,San Francisco County,CA,40.8175014392631
94124,San Francisco County,CA,19.40126655152562
94134,San Francisco County,CA,31.77892918825561
94303,San Mateo County,CA,55.26770293609672
94533,Solano County,CA,76.97179044329303
94538,Alameda County,CA,41.10535405872193
94578,Alameda County,CA,83.64997121473804
94587,Alameda County,CA,29.18825561312608
94601,Alameda County,CA,81.40472078295913
94605,Alameda County,CA,51.583189407023596
94920,Marin County,CA,86.9314910765688
94931,Sonoma County,CA,95.33678756476684
94941,Marin County,CA,67.18480138169257
95012,Monterey County,CA,92.34312032239494
95037,Santa Clara County,CA,50.086355785837654
95050,Santa Clara County,CA,90.78871617731721
95051,Santa Clara County,CA,38.860103626943
95117,Santa Clara County,CA,68.62406447898675
95205,San Joaquin County,CA,72.53886010362694
95206,San Joaquin County,CA,84.97409326424871
95209,San Joaquin County,CA,40.75993091537133
95307,Stanislaus County,CA,25.676453655728267
95367,Stanislaus County,CA,48.474381116868166
95376,San Joaquin County,CA,21.646516983304547
95380,Stanislaus County,CA,54.69199769717904
95391,San Joaquin County,CA,98.56073690270581
95403,Sonoma County,CA,43.86873920552677
95409,Sonoma County,CA,79.38975244674727
95476,Sonoma County,CA,65.16983304548071
95482,Mendocino County,CA,77.66263672999423
95603,Placer County,CA,61.83074265975821
95608,Sacramento County,CA,89.23431203223949
95621,Sacramento County,CA,36.327000575705235
95640,Amador County,CA,97.46689694876224
95670,Sacramento County,CA,83.01669545192861
95688,Solano County,CA,59.87334484743811
95765,Placer County,CA,85.37708693149108
95823,Sacramento County,CA,66.03339090385722
95824,Sacramento County,CA,50.719631548647094
95825,Sacramento County,CA,72.4237190558434
95826,Sacramento County,CA,92.51583189407023
95832,Sacramento County,CA,94.41565918249856
95926,Butte County,CA,60.96718480138169
95928,Butte County,CA,27.288428324697755
95949,Nevada County,CA,98.67587795048935
95973,Butte County,CA,66.14853195164075
95988,Glenn County,CA,96.71848013816926
96035,Tehama County,CA,96.60333909038572
96041,Trinity County,CA,98.96373056994818
80004,Jefferson County,CO,50.259067357512954
80010,Arapahoe County,CO,14.104778353483017
80012,Arapahoe County,CO,31.606217616580313
80018,Arapahoe County,CO,70.17846862406448
80026,Boulder County,CO,55.03742084052965
80030,Adams County,CO,69.94818652849742
80110,Arapahoe County,CO,82.84398388025332
80122,Arapahoe County,CO,47.72596430627519
80127,Jefferson County,CO,41.10535405872193
80219,Denver County,CO,3.2239493379389748
80228,Jefferson County,CO,90.32815198618307
80229,Adams County,CO,10.592976396085204
80231,Denver County,CO,31.54864709268854
80241,Adams County,CO,76.16580310880829
80247,Arapahoe County,CO,32.930339666090966
80524,Larimer County,CO,23.37363270005757
80526,Larimer County,CO,62.982153137593556
80528,Larimer County,CO,47.55325273459988
80534,Weld County,CO,84.39838802533103
80538,Larimer County,CO,54.80713874496258
80620,Weld County,CO,37.93897524467473
80631,Weld County,CO,5.929763960852044
80634,Weld County,CO,1.266551525618883
80701,Morgan County,CO,16.753022452504318
80723,Morgan County,CO,69.08462867012089
80817,El Paso County,CO,46.86240644789868
80863,Teller County,CO,86.7587795048935
80911,El Paso County,CO,35.290731145653425
80916,El Paso County,CO,30.109383995394357
80921,El Paso County,CO,79.8503166378814
80922,El Paso County,CO,76.74150834772597
81625,Moffat County,CO,89.11917098445595
81631,Eagle County,CO,95.97006332757628
06010,Hartford County,CT,0.6332757628094415
06040,Hartford County,CT,7.253886010362693
06051,Hartford County,CT,2.3028209556706964
06066,Tolland County,CT,13.18364997121474
06082,Hartford County,CT,44.73229706390328
06106,Hartford County,CT,18.134715025906736
06118,Hartford County,CT,78.58376511226253
06226,Windham County,CT,41.278065630397236
06250,Tolland County,CT,98.21531375935521
06260,Windham County,CT,24.352331606217618
06489,Hartford County,CT,23.60391479562464
06492,New Haven County,CT,64.76683937823834
06511,New Haven County,CT,59.067357512953365
06514,New Haven County,CT,28.267127230857803
06516,New Haven County,CT,4.893494530800231
06605,Fairfield County,CT,27.11571675302245
06610,Fairfield County,CT,54.92227979274611
06705,New Haven County,CT,49.568221070811745
06776,Litchfield County,CT,21.81922855497985
06810,Fairfield County,CT,58.606793321819225
06830,Fairfield County,CT,57.340241796200345
06877,Fairfield County,CT,72.65400115141047
19709,New Castle County,DE,15.77432354634427
19711,New Castle County,DE,23.77662636729994
19713,New Castle County,DE,24.006908462867013
19802,New Castle County,DE,10.880829015544041
19904,Kent County,DE,9.844559585492227
19950,Sussex County,DE,79.73517559009787
19968,Sussex County,DE,68.56649395509498
19973,Sussex County,DE,11.686816350028785
19977,Kent County,DE,49.625791594703514
32025,Columbia County,FL,31.318364997121474
32034,Nassau County,FL,44.84743811168681
32038,Columbia County,FL,72.65400115141047
32063,Baker County,FL,62.92458261370179
32068,Clay County,FL,8.578008059873344
32082,St. Johns County,FL,51.75590097869891
32145,St. Johns County,FL,93.89752446747266
32174,Volusia County,FL,70.52389176741508
32177,Putnam County,FL,39.03281519861831
32179,Marion County,FL,68.68163500287852
32205,Duval County,FL,20.840529648819807
32209,Duval County,FL,2.7058146229130684
32210,Duval County,FL,31.951640759930918
32219,Duval County,FL,39.14795624640185
32221,Duval County,FL,22.855497985031665
32224,Duval County,FL,78.69890616004605
32225,Duval County,FL,71.61773172135867
32244,Duval County,FL,38.68739205526771
32250,Duval County,FL,53.77086931491076
32256,Duval County,FL,26.07944732297064
32257,Duval County,FL,19.228554979850315
32277,Duval County,FL,17.559009786989062
32303,Leon County,FL,37.65112262521589
32327,Wakulla County,FL,71.50259067357513
32404,Bay County,FL,51.64075993091537
32409,Bay County,FL,87.16177317213587
32413,Bay County,FL,68.22107081174438
32444,Bay County,FL,63.09729418537708
32534,Escambia County,FL,38.11168681635003
32578,Okaloosa County,FL,47.66839378238342
32608,Alachua County,FL,5.181347150259067
32618,Alachua County,FL,72.19343696027633
32693,Gilchrist County,FL,62.23373632700058
32724,Volusia County,FL,48.704663212435236
32726,Lake County,FL,46.40184225676454
32765,Seminole County,FL,51.00748416810593
32779,Seminole County,FL,70.40875071963156
32805,Orange County,FL,26.252158894645945
32808,Orange County,FL,11.629245826137018
32837,Orange County,FL,15.659182498560737
32955,Brevard County,FL,83.41968911917098
32960,Indian River County,FL,71.44502014968336
32962,Indian River County,FL,42.544617156016116
32967,Indian River County,FL,82.38341968911918
33010,Miami-Dade County,FL,60.21876799078871
33012,Miami-Dade County,FL,37.99654576856649
33015,Miami-Dade County,FL,45.71099597006333
33018,Miami-Dade County,FL,69.31491076568797
33025,Broward County,FL,23.258491652274035
33034,Miami-Dade County,FL,86.24064478986759
33035,Miami-Dade County,FL,89.17674150834772
33066,Broward County,FL,87.67990788716176
33142,Miami-Dade County,FL,72.99942429476108
33155,Miami-Dade County,FL,68.50892343120323
33157,Miami-Dade County,FL,61.54289004029937
33161,Miami-Dade County,FL,28.382268278641337
33167,Miami-Dade County,FL,57.225100748416814
33169,Miami-Dade County,FL,66.89694876223373
33174,Miami-Dade County,FL,66.55152561888313
33178,Miami-Dade County,FL,65.91824985607369
33184,Miami-Dade County,FL,70.81174438687393
33186,Miami-Dade County,FL,44.78986758779505
33187,Miami-Dade County,FL,98.38802533103052
33309,Broward County,FL,52.274035693724805
33404,Palm Beach County,FL,30.7426597582038
33415,Palm Beach County,FL,36.2118595279217
33445,Palm Beach County,FL,65.57282671272309
33463,Palm Beach County,FL,42.94761082325849
33470,Palm Beach County,FL,59.240069084628665
33578,Hillsborough County,FL,28.267127230857803
33594,Hillsborough County,FL,55.21013241220495
33596,Hillsborough County,FL,82.4985607369027
33612,Hillsborough County,FL,7.656879677605066
33614,Hillsborough County,FL,76.05066206102475
33619,Hillsborough County,FL,87.50719631548647
33635,Hillsborough County,FL,78.87161773172136
33710,Pinellas County,FL,44.099021301093835
33755,Pinellas County,FL,37.30569948186528
33764,Pinellas County,FL,36.49971214738054
33834,Hardee County,FL,98.44559585492227
33837,Polk County,FL,43.523316062176164
33873,Hardee County,FL,67.58779504893494
33901,Lee County,FL,47.43811168681635
33952,Charlotte County,FL,52.50431778929189
33972,Lee County,FL,91.99769717904432
33974,Lee County,FL,74.15083477259643
34114,Collier County,FL,76.62636729994243
34116,Collier County,FL,71.15716753022453
34120,Collier County,FL,29.47610823258492
34208,Manatee County,FL,20.437535981577433
34234,Sarasota County,FL,33.506044905008636
34266,DeSoto County,FL,94.58837075417387
34446,Citrus County,FL,75.93552101324123
34473,Marion County,FL,42.371905584340816
34476,Marion County,FL,54.11629245826137
34481,Marion County,FL,96.14277489925158
34606,Hernando County,FL,67.47265400115141
34652,Pasco County,FL,34.254461715601614
34653,Pasco County,FL,22.74035693724813
34668,Pasco County,FL,54.34657455382844
34690,Pasco County,FL,65.57282671272309
34691,Pasco County,FL,38.80253310305124
34698,Pinellas County,FL,48.474381116868166
34947,St. Lucie County,FL,47.84110535405872
34952,St. Lucie County,FL,19.573978123200924
34953,St. Lucie County,FL,19.919401266551525
34974,Okeechobee County,FL,48.4168105929764
30035,DeKalb County,GA,52.15889464594128
30038,DeKalb County,GA,36.557282671272304
30039,Gwinnett County,GA,78.92918825561313
30058,DeKalb County,GA,15.428900402993667
30060,Cobb County,GA,31.951640759930918
30080,Cobb County,GA,74.26597582037996
30087,DeKalb County,GA,55.613126079447326
30093,Gwinnett County,GA,50.604490500863555
30114,Cherokee County,GA,29.073114565342546
30120,Bartow County,GA,15.256188831318365
30126,Cobb County,GA,37.13298791018998
30127,Cobb County,GA,13.58664363845711
30153,Polk County,GA,35.290731145653425
30157,Paulding County,GA,20.552677029360964
30180,Carroll County,GA,17.8468624064479
30188,Cherokee County,GA,16.983304548071388
30189,Cherokee County,GA,46.86240644789868
30215,Fayette County,GA,56.476683937823836
30223,Spalding County,GA,77.83534830166955
30228,Henry County,GA,23.949337938975248
30253,Henry County,GA,53.59815774323546
30273,Clayton County,GA,55.32527345998849
30296,Clayton County,GA,55.95854922279793
30328,Fulton County,GA,82.78641335636155
30331,Fulton County,GA,13.068508923431201
30349,Fulton County,GA,5.58434081750144
30434,Jefferson County,GA,91.01899827288429
30458,Bulloch County,GA,27.000575705238916
30467,Screven County,GA,53.08002302820955
30601,Clarke County,GA,62.40644789867588
30622,Oconee County,GA,84.80138169257341
30633,Madison County,GA,81.57743235463442
30701,Gordon County,GA,24.29476108232585
30728,Walker County,GA,30.68508923431203
30736,Catoosa County,GA,7.772020725388601
30741,Walker County,GA,14.680483592400693
30813,Columbia County,GA,25.215889464594127
30824,McDuffie County,GA,71.79044329303397
31005,Houston County,GA,78.2959124928037
31024,Putnam County,GA,77.2020725388601
31030,Peach County,GA,69.66033390903857
31036,Pulaski County,GA,65.51525618883132
31047,Houston County,GA,81.9804260218768
31061,Baldwin County,GA,56.879677605066206
31069,Houston County,GA,34.08175014392631
31093,Houston County,GA,60.33390903857225
31210,Bibb County,GA,55.843408175014396
31401,Chatham County,GA,60.50662061024755
31501,Ware County,GA,60.56419113413932
31513,Appling County,GA,84.74381116868163
31537,Charlton County,GA,61.19746689694876
31539,Jeff Davis County,GA,83.7651122625216
31560,Wayne County,GA,96.37305699481865
31645,Berrien County,GA,98.27288428324698
31750,Ben Hill County,GA,52.73459988485896
31793,Tift County,GA,60.62176165803109
31804,Harris County,GA,97.12147380541163
31807,Harris County,GA,99.59700633275763
31906,Muscogee County,GA,34.369602763385146
31907,Muscogee County,GA,25.84916522740357
31909,Muscogee County,GA,32.98791018998273
96706,Honolulu County,HI,7.714450201496834
96720,Hawaii County,HI,26.59758203799655
96753,Maui County,HI,72.59643062751871
96766,Kauai County,HI,63.672999424294765
96793,Maui County,HI,70.69660333909039
96795,Honolulu County,HI,69.89061600460565
96817,Honolulu County,HI,33.79389752446747
96819,Honolulu County,HI,60.04605641911341
96825,Honolulu County,HI,47.32297063903281
83221,Bingham County,ID,21.358664363845712
83301,Twin Falls County,ID,30.28209556706966
83341,Twin Falls County,ID,89.98272884283247
83401,Bonneville County,ID,10.823258491652274
83646,Ada County,ID,33.62118595279217
83687,Canyon County,ID,17.098445595854923
83835,Kootenai County,ID,77.25964306275188
60014,McHenry County,IL,51.98618307426598
60073,Lake County,IL,11.80195739781232
60076,Cook County,IL,38.74496257915947
60083,Lake County,IL,93.66724237190557
60085,Lake County,IL,13.241220495106507
60108,DuPage County,IL,53.31030512377662
60133,Cook County,IL,37.65112262521589
60148,DuPage County,IL,38.5146804835924
60178,DeKalb County,IL,85.43465745538285
60187,DuPage County,IL,30.97294185377087
60189,DuPage County,IL,28.785261945883704
60408,Will County,IL,86.29821531375936
60417,Will County,IL,57.109959700633276
60423,Will County,IL,34.31203223949338
60441,Will County,IL,17.386298215313758
60443,Cook County,IL,39.83880253310305
60477,Cook County,IL,20.552677029360964
60481,Will County,IL,62.06102475532528
60503,Will County,IL,77.48992515831894
60513,Cook County,IL,34.94530800230282
60515,DuPage County,IL,33.506044905008636
60520,DeKalb County,IL,98.61830742659758
60543,Kendall County,IL,29.879101899827287
60544,Will County,IL,31.26079447322971
60560,Kendall County,IL,80.88658606793322
60614,Cook County,IL,17.040875071963153
60618,Cook County,IL,5.872193436960276
60622,Cook County,IL,30.51237766263673
60624,Cook County,IL,11.57167530224525
60626,Cook County,IL,45.48071387449626
60639,Cook County,IL,6.563039723661486
60643,Cook County,IL,74.5538284398388
60644,Cook County,IL,25.15831894070236
60657,Cook County,IL,15.889464594127805
61341,LaSalle County,IL,96.8336211859528
61350,LaSalle County,IL,71.79044329303397
61401,Knox County,IL,55.72826712723086
61571,Tazewell County,IL,68.85434657455383
61764,Livingston County,IL,64.3062751871042
61951,Moultrie County,IL,86.70120898100173
62207,St. Clair County,IL,91.94012665515257
62230,Clinton County,IL,87.33448474381117
62521,Macon County,IL,9.153713298791018
62702,Sangamon County,IL,20.09211283822683
62812,Franklin County,IL,73.92055267702936
62959,Williamson County,IL,35.8664363845711
46001,Madison County,IN,61.60046056419114
46013,Madison County,IN,74.95682210708118
46062,Hamilton County,IN,87.21934369602764
46074,Hamilton County,IN,59.18249856073691
46143,Johnson County,IN,50.662061024755324
46201,Marion County,IN,13.644214162348877
46220,Marion County,IN,69.43005181347151
46222,Marion County,IN,14.795624640184228
46227,Marion County,IN,6.850892343120322
46228,Marion County,IN,73.22970639032815
46235,Marion County,IN,14.73805411629246
46241,Marion County,IN,14.91076568796776
46268,Marion County,IN,38.62982153137594
46304,Porter County,IN,9.32642487046632
46312,Lake County,IN,12.204951065054692
46342,Lake County,IN,3.5118019573978123
46350,LaPorte County,IN,6.160046056419113
46368,Porter County,IN,1.381692573402418
46383,Porter County,IN,5.469199769717904
46403,Lake County,IN,83.59240069084629
46410,Lake County,IN,22.452504317789295
46514,Elkhart County,IN,22.9706390328152
46552,St. Joseph County,IN,91.65227403569372
46561,St. Joseph County,IN,82.03799654576856
46706,DeKalb County,IN,39.60852043753598
46795,LaGrange County,IN,88.31318364997122
46815,Allen County,IN,26.252158894645945
46902,Howard County,IN,14.853195164075995
46919,Miami County,IN,96.54576856649395
46947,Cass County,IN,8.635578583765112
46952,Grant County,IN,13.644214162348877
47025,Dearborn County,IN,34.196891191709845
47130,Clark County,IN,7.023603914795625
47150,Floyd County,IN,7.36902705814623
47167,Washington County,IN,44.67472654001152
47201,Bartholomew County,IN,8.232584916522741
47240,Decatur County,IN,82.26827864133564
47348,Blackford County,IN,59.58549222797927
47356,Henry County,IN,94.07023603914796
47374,Wayne County,IN,2.8785261945883707
47421,Lawrence County,IN,27.86413356361543
47586,Perry County,IN,62.57915947035117
47601,Warrick County,IN,91.59470351180195
47620,Posey County,IN,64.6516983304548
47804,Vigo County,IN,54.97985031663788
50201,Story County,IA,79.5048934945308
50311,Polk County,IA,45.07772020725388
50315,Polk County,IA,26.59758203799655
50703,Black Hawk County,IA,21.761658031088082
51501,Pottawattamie County,IA,13.298791018998275
51503,Pottawattamie County,IA,26.42487046632124
51632,Page County,IA,70.92688543465746
52240,Johnson County,IA,81.46229130685089
52404,Linn County,IA,6.102475532527346
52722,Scott County,IA,15.14104778353483
52732,Clinton County,IA,16.580310880829018
52804,Scott County,IA,12.492803684513529
66044,Douglas County,KS,61.77317213586644
66086,Leavenworth County,KS,86.12550374208405
66102,Wyandotte County,KS,45.9412780656304
66106,Wyandotte County,KS,41.04778353483017
66434,Brown County,KS,86.64363845710996
67218,Sedgwick County,KS,69.19976971790443
67220,Sedgwick County,KS,90.21301093839953
67357,Labette County,KS,43.005181347150256
40004,Nelson County,KY,44.559585492227974
40019,Henry County,KY,91.24928036845135
40033,Marion County,KY,86.98906160046056
40065,Shelby County,KY,34.599884858952215
40108,Meade County,KY,63.03972366148531
40150,Bullitt County,KY,88.37075417386299
40165,Bullitt County,KY,37.36327000575705
40203,Jefferson County,KY,16.637881404720783
40205,Jefferson County,KY,75.59009786989061
40216,Jefferson County,KY,6.390328151986183
40223,Jefferson County,KY,59.700633275762804
40356,Jessamine County,KY,10.2475532527346
40380,Powell County,KY,65.68796776050661
40391,Clark County,KY,5.757052389176741
40503,Fayette County,KY,61.37017846862406
40505,Fayette County,KY,50.54691997697179
40511,Fayette County,KY,78.8140472078296
40515,Fayette County,KY,43.523316062176164
40517,Fayette County,KY,84.91652274035694
40701,Whitley County,KY,7.4265975820379975
40741,Laurel County,KY,17.15601611974669
40828,Harlan County,KY,91.19170984455958
41015,Kenton County,KY,53.71329879101899
41016,Kenton County,KY,90.21301093839953
41017,Kenton County,KY,24.640184225676453
41018,Kenton County,KY,90.96142774899252
41031,Harrison County,KY,49.453080023028214
41071,Campbell County,KY,20.95567069660334
41102,Boyd County,KY,16.177317213586644
41501,Pike County,KY,8.117443868739207
42001,McCracken County,KY,72.0782959124928
42041,Fulton County,KY,92.97639608520437
42071,Calloway County,KY,34.542314335060446
42134,Simpson County,KY,73.8629821531376
42164,Allen County,KY,84.85895221646517
42240,Christian County,KY,21.416234887737478
42276,Logan County,KY,49.395509499136445
42301,Daviess County,KY,6.7357512953367875
42330,Muhlenberg County,KY,64.19113413932067
42420,Henderson County,KY,48.81980426021877
42718,Taylor County,KY,8.750719631548646
70030,St. Charles Parish,LA,96.43062751871042
70058,Jefferson Parish,LA,24.467472654001153
70072,Jefferson Parish,LA,79.96545768566494
70113,Orleans Parish,LA,73.34484743811169
70122,Orleans Parish,LA,19.11341393206678
70123,Jefferson Parish,LA,13.81692573402418
70131,Orleans Parish,LA,10.420264824409903
70301,Lafourche Parish,LA,39.37823834196891
70360,Terrebonne Parish,LA,78.46862406447899
70403,Tangipahoa Parish,LA,71.32987910189983
70433,St. Tammany Parish,LA,42.026482440990215
70438,Washington Parish,LA,94.30051813471503
70447,St. Tammany Parish,LA,91.07656879677604
70461,St. Tammany Parish,LA,41.681059297639614
70501,Lafayette Parish,LA,82.90155440414507
70507,Lafayette Parish,LA,36.787564766839374
70526,Acadia Parish,LA,52.043753598157735
70535,St. Landry Parish,LA,94.76108232584917
70560,Iberia Parish,LA,1.2089810017271159
70570,St. Landry Parish,LA,57.28267127230858
70605,Calcasieu Parish,LA,43.811168681635
70634,Beauregard Parish,LA,95.16407599309153
70663,Calcasieu Parish,LA,89.46459412780656
70665,Calcasieu Parish,LA,97.98503166378813
70668,Calcasieu Parish,LA,60.79447322970639
70739,East Baton Rouge Parish,LA,92.80368451352908
70788,Iberville Parish,LA,83.24697754749567
70802,East Baton Rouge Parish,LA,20.898100172711572
71006,Bossier Parish,LA,89.34945308002304
71052,De Soto Parish,LA,84.57109959700632
71105,Caddo Parish,LA,32.18192285549799
71106,Caddo Parish,LA,86.01036269430051
71107,Caddo Parish,LA,60.90961427748992
71108,Caddo Parish,LA,29.82153137593552
71109,Caddo Parish,LA,82.61370178468624
71201,Ouachita Parish,LA,98.33045480713875
71202,Ouachita Parish,LA,97.06390328151986
71220,Morehouse Parish,LA,99.02130109383995
71334,Concordia Parish,LA,99.19401266551525
71342,La Salle Parish,LA,99.36672423719057
71360,Rapides Parish,LA,52.96488198042603
71483,Winn Parish,LA,32.700057570523896
04073,York County,ME,18.767990788716176
04076,York County,ME,98.50316637881404
04086,Sagadahoc County,ME,88.48589522164652
04090,York County,ME,88.71617731721358
04210,Androscoggin County,ME,14.219919401266552
04240,Androscoggin County,ME,57.167530224525045
04330,Kennebec County,ME,3.7996545768566494
04937,Somerset County,ME,51.92861255037421
04957,Somerset County,ME,69.77547495682211
20634,St. Mary's County,MD,99.48186528497409
20708,Prince George's County,MD,74.32354634427173
20754,Calvert County,MD,99.71214738054115
20772,Prince George's County,MD,71.3874496257916
20879,Montgomery County,MD,79.10189982728842
21061,Anne Arundel County,MD,29.13068508923431
21076,Anne Arundel County,MD,79.62003454231433
21078,Harford County,MD,43.9838802533103
21093,Baltimore County,MD,67.41508347725964
21117,Baltimore County,MD,23.316062176165804
21144,Anne Arundel County,MD,97.23661485319516
21206,Baltimore city,MD,33.2181922855498
21643,Dorchester County,MD,92.34312032239494
21776,Carroll County,MD,94.8762233736327
01028,Hampden County,MA,38.28439838802533
01060,Hampshire County,MA,80.25331030512378
01075,Hampshire County,MA,15.947035118019572
01201,Berkshire County,MA,21.243523316062177
01440,Worcester County,MA,20.6678180771445
01453,Worcester County,MA,5.6419113413932065
01516,Worcester County,MA,26.712723085780084
01550,Worcester County,MA,58.89464594127807
01609,Worcester County,MA,12.723085780080599
01757,Worcester County,MA,10.708117443868739
01760,Middlesex County,MA,30.05181347150259
01776,Middlesex County,MA,36.38457109959701
01821,Middlesex County,MA,3.281519861830743
01832,Essex County,MA,1.8422567645365575
01833,Essex County,MA,75.24467472654001
01844,Essex County,MA,0.28785261945883706
01876,Middlesex County,MA,22.279792746113987
01880,Middlesex County,MA,4.778353483016695
01887,Middlesex County,MA,4.605641911341393
01907,Essex County,MA,92.11283822682786
01938,Essex County,MA,40.8175014392631
02066,Plymouth County,MA,62.75187104202649
02072,Norfolk County,MA,86.47092688543466
02090,Norfolk County,MA,60.04605641911341
02125,Suffolk County,MA,0
02128,Suffolk County,MA,2.072538860103627
02129,Suffolk County,MA,1.8998272884283247
02131,Suffolk County,MA,0.4605641911341394
02145,Middlesex County,MA,2.993667242371906
02149,Middlesex County,MA,1.1514104778353482
02150,Suffolk County,MA,35.118019573978124
02151,Suffolk County,MA,20.03454231433506
02184,Norfolk County,MA,19.86183074265976
02191,Norfolk County,MA,80.94415659182499
02301,Plymouth County,MA,16.119746689694875
02302,Plymouth County,MA,76.51122625215889
02359,Plymouth County,MA,22.33736327000576
02451,Middlesex County,MA,19.63154864709269
02453,Middlesex County,MA,27.34599884858952
02461,Middlesex County,MA,98.84858952216466
02721,Bristol County,MA,0.05757052389176742
02745,Bristol County,MA,0.7484168105929765
02770,Plymouth County,MA,91.30685089234312
02771,Bristol County,MA,32.06678180771445
48030,Oakland County,MI,36.15428900402994
48035,Macomb County,MI,7.1387449625791595
48042,Macomb County,MI,16.92573402417962
48065,Macomb County,MI,70.17846862406448
48081,Macomb County,MI,31.663788140472075
48085,Oakland County,MI,23.719055843408174
48127,Wayne County,MI,55.03742084052965
48135,Wayne County,MI,17.559009786989062
48141,Wayne County,MI,5.814622913068509
48154,Wayne County,MI,18.998272884283246
48160,Washtenaw County,MI,65.74553828439839
48161,Monroe County,MI,5.1237766263673
48162,Monroe County,MI,34.369602763385146
48174,Wayne County,MI,56.937248128957975
48183,Wayne County,MI,27.461139896373055
48184,Wayne County,MI,11.744386873920552
48185,Wayne County,MI,3.742084052964882
48197,Washtenaw County,MI,10.765687967760506
48198,Washtenaw County,MI,1.0938399539435808
48203,Wayne County,MI,10.938399539435808
48205,Wayne County,MI,32.469775474956826
48211,Wayne County,MI,82.32584916522741
48213,Wayne County,MI,7.599309153713299
48214,Wayne County,MI,73.80541162924582
48219,Wayne County,MI,50.94991364421416
48220,Oakland County,MI,39.95394358088659
48223,Wayne County,MI,8.808290155440414
48224,Wayne County,MI,38.57225100748417
48227,Wayne County,MI,27.748992515831894
48229,Wayne County,MI,86.35578583765113
48235,Wayne County,MI,49.798503166378815
48239,Wayne County,MI,5.699481865284974
48312,Macomb County,MI,68.27864133563615
48326,Oakland County,MI,44.84743811168681
48335,Oakland County,MI,44.61715601611974
48423,Genesee County,MI,24.812895797351757
48439,Genesee County,MI,9.268854346574553
48442,Oakland County,MI,41.796200345423145
48446,Lapeer County,MI,10.650546919976971
48458,Genesee County,MI,95.45192861255038
48503,Genesee County,MI,13.529073114565342
48506,Genesee County,MI,51.29533678756477
48507,Genesee County,MI,7.081174438687392
48532,Genesee County,MI,78.52619458837076
48603,Saginaw County,MI,8.290155440414509
48609,Saginaw County,MI,35.521013241220494
48642,Midland County,MI,14.45020149683362
48801,Gratiot County,MI,82.44099021301093
48840,Ingham County,MI,74.2084052964882
48843,Livingston County,MI,8.693149107656879
48854,Ingham County,MI,43.753598157743234
48858,Isabella County,MI,4.029936672423719
48867,Shiawassee County,MI,42.832469775474955
48875,Ionia County,MI,73.40241796200345
48880,Gratiot County,MI,81.34715025906736
48895,Ingham County,MI,75.82037996545769
48906,Ingham County,MI,9.153713298791018
49038,Berrien County,MI,66.72423719055843
49091,St. Joseph County,MI,38.91767415083478
49202,Jackson County,MI,26.137017846862403
49221,Lenawee County,MI,2.4755325273459987
49247,Lenawee County,MI,66.55152561888313
49329,Montcalm County,MI,51.87104202648244
49330,Kent County,MI,89.4070236039148
49408,Allegan County,MI,72.65400115141047
49424,Ottawa County,MI,11.226252158894647
49442,Muskegon County,MI,28.842832469775477
49503,Kent County,MI,31.145653425446174
49504,Kent County,MI,57.628094415659184
49509,Kent County,MI,9.614277489925158
49525,Kent County,MI,28.151986183074268
49548,Kent County,MI,4.951065054691997
49684,Grand Traverse County,MI,85.72251007484168
49707,Alpena County,MI,57.74323546344272
49735,Otsego County,MI,25.906735751295333
49866,Marquette County,MI,52.101324122049505
55016,Washington County,MN,65.97582037996546
55021,Rice County,MN,30.80023028209557
55038,Washington County,MN,75.30224525043178
55051,Kanabec County,MN,54.46171560161197
55060,Steele County,MN,77.60506620610248
55103,Ramsey County,MN,39.66609096142775
55104,Ramsey County,MN,11.11111111111111
55106,Ramsey County,MN,56.073690270581466
55119,Ramsey County,MN,9.902130109383995
55122,Dakota County,MN,60.16119746689695
55331,Hennepin County,MN,83.53483016695452
55376,Wright County,MN,80.02302820955671
55404,Hennepin County,MN,0.3454231433506045
55406,Hennepin County,MN,19.055843408175015
55407,Hennepin County,MN,4.202648244099021
55416,Hennepin County,MN,67.24237190558433
55417,Hennepin County,MN,43.062751871042025
55419,Hennepin County,MN,39.49337938975245
55435,Hennepin County,MN,98.90616004605643
55734,St. Louis County,MN,70.12089810017271
55810,St. Louis County,MN,85.146804835924
56001,Blue Earth County,MN,25.043177892918827
56175,Lyon County,MN,90.44329303396661
56187,Nobles County,MN,61.3126079447323
56374,Stearns County,MN,88.83131836499713
56401,Crow Wing County,MN,6.678180771445021
56537,Otter Tail County,MN,72.13586643638456
38606,Panola County,MS,83.13183649971215
38655,Lafayette County,MS,63.903281519861835
38771,Sunflower County,MS,98.73344847438112
38829,Prentiss County,MS,87.56476683937824
38863,Pontotoc County,MS,58.779504893494526
38930,Leflore County,MS,32.18192285549799
39040,Yazoo County,MS,100
39046,Madison County,MS,21.416234887737478
39059,Copiah County,MS,73.17213586643638
39083,Copiah County,MS,88.54346574553828
39117,Scott County,MS,46.1139896373057
39120,Adams County,MS,34.715025906735754
39146,Holmes County,MS,97.524467472654
39206,Hinds County,MS,56.649395509499136
39208,Rankin County,MS,64.4789867587795
39211,Hinds County,MS,92.74611398963731
39325,Lauderdale County,MS,94.64594127806562
39328,Kemper County,MS,92.05526770293609
39330,Clarke County,MS,99.07887161773172
39503,Harrison County,MS,7.311456534254463
39525,Hancock County,MS,92.63097294185377
39562,Jackson County,MS,49.971214738054115
39581,Jackson County,MS,73.05699481865285
39666,Pike County,MS,67.87564766839378
39667,Walthall County,MS,66.78180771445021
39702,Lowndes County,MS,63.15486470926886
63034,St. Louis County,MO,80.65630397236615
63118,St. Louis city,MO,25.791594703511798
63120,St. Louis city,MO,57.858376511226254
63136,St. Louis County,MO,23.20092112838227
63301,St. Charles County,MO,10.074841681059297
63304,St. Charles County,MO,23.085780080598735
63368,St. Charles County,MO,66.4363845710996
63376,St. Charles County,MO,29.533678756476682
63385,St. Charles County,MO,12.089810017271157
63501,Adair County,MO,63.84571099597006
63901,Butler County,MO,10.132412204951065
64015,Jackson County,MO,35.8664363845711
64016,Jackson County,MO,82.03799654576856
64020,Lafayette County,MO,99.53943580886586
64055,Jackson County,MO,66.090961427749
64063,Jackson County,MO,78.75647668393782
64064,Jackson County,MO,46.05641911341393
64080,Cass County,MO,80.59873344847438
64116,Clay County,MO,18.825561312607945
64130,Jackson County,MO,4.4329303396660915
64134,Jackson County,MO,9.499136442141623
64138,Jackson County,MO,7.9447322970639025
64151,Platte County,MO,58.14622913068509
64152,Platte County,MO,45.48071387449626
64155,Clay County,MO,17.674150834772597
64157,Clay County,MO,26.540011514104776
64465,Clinton County,MO,85.83765112262522
64505,Buchanan County,MO,24.755325273459988
65270,Randolph County,MO,21.876799078871617
65301,Pettis County,MO,47.26540011514105
65340,Saline County,MO,28.151986183074268
65616,Taney County,MO,29.99424294761082
65704,Wright County,MO,88.65860679332181
65775,Howell County,MO,25.331030512377662
59803,Missoula County,MT,92.68854346574554
68144,Douglas County,NE,61.88831318364997
68502,Lancaster County,NE,63.270005757052395
68850,Dawson County,NE,94.41565918249856
89107,Clark County,NV,45.59585492227979
89115,Clark County,NV,15.313759355210133
89122,Clark County,NV,19.746689694876224
89141,Clark County,NV,87.9677605066206
89143,Clark County,NV,92.28554979850317
89434,Washoe County,NV,36.67242371905584
89506,Washoe County,NV,13.81692573402418
03038,Rockingham County,NH,9.383995394358088
03051,Hillsborough County,NH,17.501439263097293
03053,Rockingham County,NH,54.00115141047783
03063,Hillsborough County,NH,67.99078871617732
03064,Hillsborough County,NH,71.96315486470927
03811,Rockingham County,NH,76.56879677605066
03848,Rockingham County,NH,66.49395509499136
03858,Rockingham County,NH,80.42602187679908
07060,Union County,NJ,88.08290155440415
07065,Union County,NJ,17.731721358664366
07208,Union County,NJ,36.61485319516407
07422,Sussex County,NJ,92.573402417962
07601,Bergen County,NJ,4.087507196315487
07740,Monmouth County,NJ,4.66321243523316
07753,Monmouth County,NJ,3.3390903857225105
07950,Morris County,NJ,56.764536557282675
08028,Gloucester County,NJ,43.69602763385147
08034,Camden County,NJ,27.40356937248129
08054,Burlington County,NJ,95.62464018422567
08083,Camden County,NJ,36.096718480138165
08226,Cape May County,NJ,52.61945883707541
08230,Cape May County,NJ,88.77374784110536
08270,Cape May County,NJ,49.05008635578584
08318,Salem County,NJ,90.55843408175014
08360,Cumberland County,NJ,0.17271157167530224
08540,Mercer County,NJ,30.627518710420265
08609,Mercer County,NJ,7.484168105929764
08691,Mercer County,NJ,83.93782383419689
08701,Ocean County,NJ,82.671272308578
08753,Ocean County,NJ,0.9211283822682788
08816,Middlesex County,NJ,27.979274611398964
08831,Middlesex County,NJ,23.37363270005757
08854,Middlesex County,NJ,5.526770293609672
08873,Somerset County,NJ,90.50086355785838
08879,Middlesex County,NJ,96.48819804260219
08901,Middlesex County,NJ,80.195739781232
87020,Cibola County,NM,72.02072538860104
87106,Bernalillo County,NM,16.00460564191134
87111,Bernalillo County,NM,2.130109383995394
87121,Bernalillo County,NM,16.29245826137018
87123,Bernalillo County,NM,8.92343120322395
87401,San Juan County,NM,71.27230857800807
88011,Doa Ana County,NM,46.97754749568221
88012,Doa Ana County,NM,27.11571675302245
88030,Luna County,NM,53.943580886586076
88220,Eddy County,NM,16.00460564191134
88240,Lea County,NM,3.857225100748417
10018,New York County,NY,84.28324697754749
10033,New York County,NY,12.320092112838227
10454,Bronx County,NY,4.317789291882556
10458,Bronx County,NY,2.936096718480138
10460,Bronx County,NY,0.5757052389176741
10462,Bronx County,NY,4.145077720207254
10463,Bronx County,NY,23.661485319516405
10467,Bronx County,NY,3.1088082901554404
10468,Bronx County,NY,17.962003454231436
10469,Bronx County,NY,1.7271157167530224
10472,Bronx County,NY,0.690846286701209
10473,Bronx County,NY,81.69257340241796
10977,Rockland County,NY,24.812895797351757
11003,Nassau County,NY,51.18019573978123
11101,Queens County,NY,77.0293609671848
11206,Kings County,NY,50.892343120322394
11208,Kings County,NY,0.2302820955670697
11212,Kings County,NY,5.008635578583765
11221,Kings County,NY,1.496833621185953
11226,Kings County,NY,2.360391479562464
11233,Kings County,NY,45.19286125503742
11236,Kings County,NY,15.544041450777202
11237,Kings County,NY,50.719631548647094
11358,Queens County,NY,80.48359240069085
11366,Queens County,NY,95.3943580886586
11368,Queens County,NY,43.23546344271733
11370,Queens County,NY,42.199194012665515
11385,Queens County,NY,6.4478986758779495
11418,Queens County,NY,86.87392055267703
11429,Queens County,NY,64.53655728267127
11432,Queens County,NY,20.207253886010363
11434,Queens County,NY,10.362694300518134
11801,Nassau County,NY,78.18077144502014
12078,Fulton County,NY,2.648244099021301
12116,Otsego County,NY,92.86125503742085
12196,Rensselaer County,NY,99.94242947610823
12534,Columbia County,NY,39.03281519861831
12553,Orange County,NY,68.96948762233737
12601,Dutchess County,NY,71.5601611974669
12603,Dutchess County,NY,66.89694876223373
12822,Saratoga County,NY,68.04835924006909
12866,Saratoga County,NY,36.96027633851468
12901,Clinton County,NY,1.5544041450777202
12941,Essex County,NY,91.47956246401843
13027,Onondaga County,NY,10.01727115716753
13039,Onondaga County,NY,37.53598157743235
13045,Cortland County,NY,31.491076568796778
13073,Tompkins County,NY,78.23834196891191
13078,Onondaga County,NY,50.431778929188255
13084,Onondaga County,NY,91.8825561312608
13104,Onondaga County,NY,45.65342544617156
13126,Oswego County,NY,2.0149683362118593
13205,Onondaga County,NY,35.63615428900403
13208,Onondaga County,NY,8.46286701208981
13209,Onondaga County,NY,39.78123200921128
13210,Onondaga County,NY,83.36211859527923
13214,Onondaga County,NY,77.08693149107657
13350,Herkimer County,NY,27.63385146804836
13662,St. Lawrence County,NY,5.296488198042602
13760,Broome County,NY,5.066206102475532
14132,Niagara County,NY,58.03108808290155
14208,Erie County,NY,21.876799078871617
14211,Erie County,NY,5.929763960852044
14215,Erie County,NY,8.520437535981577
14223,Erie County,NY,21.531375935521012
14224,Erie County,NY,3.6269430051813467
14227,Erie County,NY,18.65284974093264
14228,Erie County,NY,70.06332757628094
14305,Niagara County,NY,19.516407599309154
14424,Ontario County,NY,12.26252158894646
14450,Monroe County,NY,1.4392630972941853
14456,Ontario County,NY,4.8359240069084635
14489,Wayne County,NY,25.6188831318365
14502,Wayne County,NY,21.070811744386873
14519,Wayne County,NY,17.213586643638457
14526,Monroe County,NY,11.11111111111111
14527,Yates County,NY,84.11053540587218
14532,Ontario County,NY,47.78353483016696
14561,Ontario County,NY,75.53252734599884
14564,Ontario County,NY,14.45020149683362
14580,Monroe County,NY,4.490500863557859
14609,Monroe County,NY,26.36729994242948
14611,Monroe County,NY,42.199194012665515
14613,Monroe County,NY,8.00230282095567
14615,Monroe County,NY,7.887161773172135
14618,Monroe County,NY,12.435233160621761
14624,Monroe County,NY,26.021876799078868
14801,Steuben County,NY,69.66033390903857
14810,Steuben County,NY,25.100748416810593
14845,Chemung County,NY,59.297639608520434
14870,Steuben County,NY,79.21704087507196
14873,Steuben County,NY,94.8762233736327
27017,Surry County,NC,69.77547495682211
27106,Forsyth County,NC,35.6937248128958
27203,Randolph County,NC,20.4951065054692
27217,Alamance County,NC,9.383995394358088
27253,Alamance County,NC,40.472078295912496
27262,Guilford County,NC,33.390903857225105
27265,Guilford County,NC,45.82613701784686
27292,Davidson County,NC,2.763385146804836
27295,Davidson County,NC,2.1876799078871616
27330,Lee County,NC,65.22740356937248
27406,Guilford County,NC,64.59412780656304
27410,Guilford County,NC,24.582613701784688
27516,Orange County,NC,24.06447898675878
27517,Orange County,NC,96.89119170984456
27520,Johnston County,NC,25.446171560161197
27537,Vance County,NC,29.18825561312608
27540,Wake County,NC,39.32066781807714
27573,Person County,NC,38.34196891191709
27583,Person County,NC,82.55613126079447
27587,Wake County,NC,16.407599309153714
27592,Wake County,NC,64.07599309153713
27596,Franklin County,NC,58.318940702360386
27609,Wake County,NC,28.95797351755901
27610,Wake County,NC,43.120322394933794
27612,Wake County,NC,78.35348301669545
27615,Wake County,NC,91.36442141623489
27616,Wake County,NC,15.716753022452504
27703,Durham County,NC,51.35290731145653
27804,Nash County,NC,60.62176165803109
27834,Pitt County,NC,4.720782959124928
27856,Nash County,NC,70.58146229130685
27909,Pasquotank County,NC,55.49798503166379
27983,Bertie County,NC,74.32354634427173
28012,Gaston County,NC,80.13816925734024
28086,Cleveland County,NC,19.343696027633854
28092,Lincoln County,NC,49.165227403569375
28110,Union County,NC,16.810592976396084
28112,Union County,NC,39.55094991364421
28206,Mecklenburg County,NC,33.67875647668394
28262,Mecklenburg County,NC,76.3385146804836
28269,Mecklenburg County,NC,9.671848013816927
28303,Cumberland County,NC,48.762233736327
28306,Bladen County,NC,24.812895797351757
28326,Harnett County,NC,74.95682210708118
28328,Sampson County,NC,28.497409326424872
28358,Robeson County,NC,11.974668969487624
28366,Sampson County,NC,86.81635002878527
28377,Robeson County,NC,74.0356937248129
28390,Harnett County,NC,73.22970639032815
28398,Duplin County,NC,77.43235463442717
28403,New Hanover County,NC,32.98791018998273
28405,New Hanover County,NC,27.63385146804836
28443,Pender County,NC,50.719631548647094
28451,Brunswick County,NC,22.164651698330452
28532,Craven County,NC,64.07599309153713
28546,Onslow County,NC,52.792170408750714
28560,Craven County,NC,21.99194012665515
28562,Craven County,NC,33.10305123776626
28570,Carteret County,NC,46.51698330454807
28574,Onslow County,NC,61.4853195164076
28580,Greene County,NC,71.67530224525042
28638,Caldwell County,NC,47.09268854346574
28655,Burke County,NC,3.684513529073115
28657,Avery County,NC,61.08232584916523
28677,Iredell County,NC,77.54749568221071
28739,Henderson County,NC,72.48128957973518
28756,Polk County,NC,89.81001727115718
28792,Henderson County,NC,58.08865860679332
58104,Cass County,ND,23.89176741508348
58316,Rolette County,ND,88.42832469775475
58501,Burleigh County,ND,73.69027058146229
58601,Stark County,ND,67.47265400115141
58701,Ward County,ND,29.879101899827287
43004,Franklin County,OH,34.599884858952215
43056,Licking County,OH,63.442717328727696
43068,Franklin County,OH,6.966033390903857
43076,Perry County,OH,74.66896948762233
43078,Champaign County,OH,26.770293609671846
43081,Franklin County,OH,65.45768566493955
43110,Franklin County,OH,18.192285549798505
43138,Hocking County,OH,23.028209556706965
43147,Fairfield County,OH,18.595279217040876
43206,Franklin County,OH,8.347725964306276
43207,Franklin County,OH,0.5181347150259068
43213,Franklin County,OH,28.439838802533103
43214,Franklin County,OH,42.08405296488198
43228,Franklin County,OH,13.759355210132412
43235,Franklin County,OH,38.39953943580887
43302,Marion County,OH,63.61542890040299
43410,Sandusky County,OH,93.55210132412205
43460,Wood County,OH,93.37938975244676
43502,Fulton County,OH,77.31721358664365
43512,Defiance County,OH,15.60161197466897
43515,Fulton County,OH,60.73690270581462
43528,Lucas County,OH,32.81519861830743
43545,Henry County,OH,58.37651122625216
43567,Fulton County,OH,42.371905584340816
43605,Lucas County,OH,0.9786989061600461
43606,Lucas County,OH,41.45077720207254
43609,Lucas County,OH,60.27633851468048
43612,Lucas County,OH,2.5906735751295336
43613,Lucas County,OH,14.392630972941852
43616,Lucas County,OH,56.13126079447323
43701,Muskingum County,OH,12.147380541162924
43844,Coshocton County,OH,91.42199194012666
43943,Jefferson County,OH,82.95912492803684
44011,Lorain County,OH,57.455382843983884
44053,Lorain County,OH,5.354058721934369
44060,Lake County,OH,4.548071387449626
44062,Geauga County,OH,95.2216465169833
44102,Cuyahoga County,OH,1.9573978123200921
44108,Cuyahoga County,OH,74.7265400115141
44109,Cuyahoga County,OH,0.11514104778353484
44111,Cuyahoga County,OH,0.40299366724237184
44120,Cuyahoga County,OH,1.6119746689694874
44126,Cuyahoga County,OH,72.88428324697755
44128,Cuyahoga County,OH,1.3241220495106505
44129,Cuyahoga County,OH,38.05411629245826
44132,Cuyahoga County,OH,50.31663788140472
44136,Cuyahoga County,OH,21.301093839953943
44137,Cuyahoga County,OH,19.976971790443294
44138,Cuyahoga County,OH,25.676453655728267
44256,Medina County,OH,15.083477259643063
44281,Medina County,OH,16.465169833045483
44305,Summit County,OH,10.189982728842832
44306,Summit County,OH,6.90846286701209
44314,Summit County,OH,20.26482440990213
44406,Mahoning County,OH,75.87795048934946
44432,Columbiana County,OH,57.68566493955095
44446,Trumbull County,OH,9.786989061600462
44455,Columbiana County,OH,99.59700633275763
44512,Mahoning County,OH,29.648819804260217
44514,Mahoning County,OH,71.04202648244099
44615,Carroll County,OH,96.31548647092688
44663,Tuscarawas County,OH,9.096142774899253
44683,Tuscarawas County,OH,53.02245250431778
44691,Wayne County,OH,23.488773747841105
44705,Stark County,OH,19.286125503742085
44710,Stark County,OH,56.41911341393207
44805,Ashland County,OH,9.55670696603339
44857,Huron County,OH,48.934945308002305
44905,Richland County,OH,60.44905008635578
45011,Butler County,OH,0.9786989061600461
45013,Butler County,OH,1.7846862406447899
45044,Butler County,OH,80.94415659182499
45056,Butler County,OH,62.00345423143351
45069,Butler County,OH,17.271157167530223
45177,Clinton County,OH,67.06966033390904
45205,Hamilton County,OH,16.465169833045483
45211,Hamilton County,OH,6.217616580310881
45215,Hamilton County,OH,19.170984455958546
45229,Hamilton County,OH,22.74035693724813
45237,Hamilton County,OH,56.303972366148535
45244,Hamilton County,OH,45.25043177892919
45248,Hamilton County,OH,47.95624640184226
45305,Greene County,OH,85.78008059873345
45335,Greene County,OH,87.91018998272885
45344,Clark County,OH,51.46804835924007
45356,Miami County,OH,37.47841105354059
45365,Shelby County,OH,8.175014392630974
45383,Miami County,OH,94.24294761082325
45385,Greene County,OH,53.25273459988485
45403,Montgomery County,OH,62.57915947035117
45406,Montgomery County,OH,11.053540587219343
45414,Montgomery County,OH,22.51007484168106
45619,Lawrence County,OH,54.57685664939551
45638,Lawrence County,OH,59.067357512953365
45645,Lawrence County,OH,99.25158318940703
45690,Pike County,OH,12.665515256188831
45694,Scioto County,OH,55.55555555555556
45831,Putnam County,OH,90.84628670120898
45875,Putnam County,OH,83.99539435808866
45895,Auglaize County,OH,23.54634427173287
73010,McClain County,OK,39.89637305699482
73034,Oklahoma County,OK,21.58894645941278
73064,Canadian County,OK,44.329303396660904
73069,Cleveland County,OK,59.009786989061595
73071,Cleveland County,OK,18.0195739781232
75072,NA,NA,76.62636729994243
73086,Murray County,OK,90.90385722510075
73089,Grady County,OK,90.097869890616
73096,Custer County,OK,58.606793321819225
73105,Oklahoma County,OK,89.29188255613127
73108,Oklahoma County,OK,81.86528497409327
73110,Oklahoma County,OK,13.413932066781808
73112,Oklahoma County,OK,62.17616580310881
73114,Oklahoma County,OK,48.30166954519286
73119,Oklahoma County,OK,17.328727691421992
73127,Oklahoma County,OK,44.44444444444444
73129,Oklahoma County,OK,44.21416234887737
73132,Oklahoma County,OK,48.5895221646517
73162,Oklahoma County,OK,72.2510074841681
73538,Comanche County,OK,99.76971790443294
73644,Beckham County,OK,85.83765112262522
73651,Kiowa County,OK,93.14910765687968
73703,Garfield County,OK,45.9412780656304
73717,Woods County,OK,85.66493955094991
74014,Wagoner County,OK,29.418537708693147
74019,Rogers County,OK,40.12665515256189
74075,Payne County,OK,55.03742084052965
74106,Tulsa County,OK,30.166954519286126
74146,Tulsa County,OK,58.779504893494526
74301,Craig County,OK,54.17386298215314
74401,Muskogee County,OK,67.29994242947612
74437,Okmulgee County,OK,77.720207253886
74631,Kay County,OK,77.89291882556131
74701,Bryan County,OK,54.86470926885435
74728,McCurtain County,OK,95.73978123200921
97056,Columbia County,OR,94.12780656303973
97071,Marion County,OR,77.08693149107657
97103,Clatsop County,OR,48.244099021301096
97113,Washington County,OR,64.24870466321244
97123,Washington County,OR,15.025906735751295
97128,Yamhill County,OR,13.932066781807714
97224,Washington County,OR,46.17156016119747
97266,Multnomah County,OR,58.4916522740357
97302,Marion County,OR,36.2118595279217
97338,Polk County,OR,95.50949913644214
97401,Lane County,OR,32.29706390328152
97402,Lane County,OR,64.01842256764536
97424,Lane County,OR,37.24812895797352
97471,Douglas County,OR,12.838226827864133
97479,Douglas County,OR,64.99712147380541
97739,Deschutes County,OR,75.47495682210709
97754,Crook County,OR,40.241796200345426
97838,Umatilla County,OR,42.31433506044905
97844,Morrow County,OR,97.86989061600461
15001,Beaver County,PA,14.968336211859528
15120,Allegheny County,PA,37.76626367299942
15136,Allegheny County,PA,22.91306850892343
15204,Allegheny County,PA,59.758203799654574
15206,Allegheny County,PA,42.602187679907885
15216,Allegheny County,PA,85.49222797927462
15221,Allegheny County,PA,12.838226827864133
15601,Westmoreland County,PA,2.2452504317789295
15767,Jefferson County,PA,70.8693149107657
15801,Clearfield County,PA,5.411629245826137
15825,Jefferson County,PA,38.1692573402418
15846,Elk County,PA,89.63730569948186
16057,Butler County,PA,59.87334484743811
16066,Butler County,PA,58.95221646516984
16101,Lawrence County,PA,3.9723661485319512
16105,Lawrence County,PA,52.15889464594128
16125,Mercer County,PA,30.397236614853195
16201,Armstrong County,PA,24.52504317789292
16365,Warren County,PA,27.921704087507198
16625,Blair County,PA,95.68221070811744
16686,Blair County,PA,52.274035693724805
16803,Centre County,PA,54.28900402993667
17036,Dauphin County,PA,18.0195739781232
17042,Lebanon County,PA,49.625791594703514
17065,Cumberland County,PA,95.27921704087507
17070,Cumberland County,PA,37.82383419689119
17109,Dauphin County,PA,19.689119170984455
17257,Cumberland County,PA,50.201496833621185
17356,York County,PA,22.68278641335636
17404,York County,PA,32.52734599884859
17701,Lycoming County,PA,2.8209556706966032
17754,Lycoming County,PA,59.3552101324122
17981,Schuylkill County,PA,95.79735175590099
18017,Northampton County,PA,20.95567069660334
18034,Lehigh County,PA,79.27461139896373
18042,Northampton County,PA,3.5693724812895797
18103,Lehigh County,PA,3.3966609096142775
18201,Luzerne County,PA,14.565342544617154
18407,Lackawanna County,PA,40.29936672423719
18436,Wayne County,PA,49.280368451352906
18603,Columbia County,PA,90.15544041450777
18612,Luzerne County,PA,49.91364421416235
18651,Luzerne County,PA,93.49453080023028
18657,Wyoming County,PA,57.57052389176741
18848,Bradford County,PA,73.74784110535406
18951,Bucks County,PA,45.13529073114565
18966,Bucks County,PA,60.39147956246402
19003,Montgomery County,PA,83.01669545192861
19010,Delaware County,PA,50.31663788140472
19012,Montgomery County,PA,84.16810592976395
19013,Delaware County,PA,14.335060449050086
19020,Bucks County,PA,25.503742084052966
19026,Delaware County,PA,13.010938399539434
19038,Montgomery County,PA,92.2279792746114
19053,Bucks County,PA,57.80080598733448
19064,Delaware County,PA,78.64133563615428
19067,Bucks County,PA,13.356361542890042
19115,Philadelphia County,PA,14.162348877374784
19121,Philadelphia County,PA,26.94300518134715
19126,Philadelphia County,PA,26.482440990213014
19138,Philadelphia County,PA,9.038572251007485
19139,Philadelphia County,PA,2.4179620034542317
19140,Philadelphia County,PA,0.8635578583765112
19141,Philadelphia County,PA,83.82268278641337
19341,Chester County,PA,66.89694876223373
19344,Chester County,PA,95.91249280368451
19401,Montgomery County,PA,6.0449050086355784
19406,Montgomery County,PA,87.2769142199194
19428,Montgomery County,PA,87.39205526770294
19460,Chester County,PA,18.42256764536557
19504,Berks County,PA,97.23661485319516
19601,Berks County,PA,1.6695451928612552
19602,Berks County,PA,7.8295912492803685
19606,Berks County,PA,7.541738629821531
02806,Bristol County,RI,65.11226252158895
02907,Providence County,RI,32.75762809441566
02908,Providence County,RI,33.90903857225101
02919,Providence County,RI,65.05469199769718
29020,Kershaw County,SC,59.3552101324122
29150,Sumter County,SC,28.90040299366724
29180,Fairfield County,SC,88.60103626943005
29204,Richland County,SC,84.22567645365572
29206,Richland County,SC,86.4133563615429
29223,Richland County,SC,18.24985607369027
29229,Richland County,SC,31.03051237766264
29341,Cherokee County,SC,40.12665515256189
29360,Laurens County,SC,33.27576280944157
29403,Charleston County,SC,36.67242371905584
29406,Charleston County,SC,67.81807714450203
29429,Charleston County,SC,96.25791594703512
29440,Georgetown County,SC,69.6027633851468
29456,Dorchester County,SC,28.612550374208407
29466,Charleston County,SC,42.487046632124354
29479,Berkeley County,SC,86.52849740932642
29488,Colleton County,SC,27.806563039723663
29536,Dillon County,SC,48.18652849740933
29574,Marion County,SC,79.04432930339667
29609,Greenville County,SC,33.33333333333333
29644,Greenville County,SC,45.02014968336212
29649,Greenwood County,SC,81.75014392630973
29654,Anderson County,SC,64.42141623488774
29687,Greenville County,SC,24.122049510650548
29693,Oconee County,SC,59.527921704087504
29847,Edgefield County,SC,83.88025331030512
29907,Beaufort County,SC,88.19804260218767
29910,Beaufort County,SC,84.57109959700632
29936,Jasper County,SC,90.38572251007484
57301,Davison County,SD,41.565918249856075
37030,Smith County,TN,68.68163500287852
37034,Marshall County,TN,76.28094415659183
37040,Montgomery County,TN,18.88313183649971
37055,Dickson County,TN,18.48013816925734
37062,Williamson County,TN,76.45365572826712
37064,Williamson County,TN,39.95394358088659
37066,Sumner County,TN,7.196315486470926
37074,Trousdale County,TN,61.60046056419114
37086,Rutherford County,TN,40.41450777202073
37087,Wilson County,TN,12.780656303972366
37091,Marshall County,TN,64.36384571099597
37110,Warren County,TN,12.03223949337939
37122,Wilson County,TN,71.21473805411628
37129,Rutherford County,TN,12.550374208405296
37138,Davidson County,TN,44.38687392055268
37172,Robertson County,TN,11.456534254461715
37186,Sumner County,TN,59.470351180195735
37190,Cannon County,TN,71.9055843408175
37206,Davidson County,TN,26.88543465745538
37207,Davidson County,TN,33.85146804835924
37209,Davidson County,TN,73.51755900978699
37217,Davidson County,TN,66.55152561888313
37312,Bradley County,TN,35.981577432354634
37334,Lincoln County,TN,29.591249280368455
37363,Hamilton County,TN,33.90903857225101
37398,Franklin County,TN,38.45710995970063
37618,Sullivan County,TN,66.32124352331607
37643,Carter County,TN,34.139320667818076
37683,Johnson County,TN,75.76280944156592
37716,Anderson County,TN,30.569948186528496
37721,Knox County,TN,61.88831318364997
37760,Jefferson County,TN,53.65572826712723
37821,Cocke County,TN,10.995970063327576
37857,Hawkins County,TN,27.058146229130685
38024,Dyer County,TN,18.65284974093264
38106,Shelby County,TN,12.377662636729994
38109,Shelby County,TN,31.721358664363848
38111,Shelby County,TN,16.350028785261948
38116,Shelby County,TN,43.6384571099597
38118,Shelby County,TN,13.471502590673575
38125,Shelby County,TN,47.61082325849165
38127,Shelby County,TN,6.332757628094416
38261,Obion County,TN,31.77892918825561
38305,Madison County,TN,6.505469199769717
38401,Maury County,TN,22.394933793897525
38462,Lewis County,TN,63.32757628094415
38464,Lawrence County,TN,58.43408175014393
38478,Giles County,TN,49.85607369027058
75006,Dallas County,TX,69.54519286125503
75020,Grayson County,TX,82.21070811744386
75021,Grayson County,TX,93.14910765687968
75041,Dallas County,TX,37.13298791018998
75042,Dallas County,TX,57.052389176741514
75044,Dallas County,TX,48.07138744962579
75048,Dallas County,TX,65.34254461715602
75069,Collin County,TX,41.91134139320668
75080,Dallas County,TX,77.89291882556131
75092,Grayson County,TX,70.46632124352331
75098,Collin County,TX,16.695451928612552
75134,Dallas County,TX,57.51295336787565
75140,Van Zandt County,TX,93.78238341968913
75142,Kaufman County,TX,88.25561312607945
75154,Ellis County,TX,67.70293609671847
75159,Dallas County,TX,62.46401842256765
75181,Dallas County,TX,47.03511801957398
75204,Dallas County,TX,54.17386298215314
75210,Dallas County,TX,93.60967184801382
75211,Dallas County,TX,44.44444444444444
75212,Dallas County,TX,87.04663212435233
75224,Dallas County,TX,39.95394358088659
75237,Dallas County,TX,68.39378238341969
75241,Dallas County,TX,17.443868739205527
75243,Dallas County,TX,37.01784686240645
75249,Dallas County,TX,63.78814047207829
75252,Collin County,TX,59.98848589522164
75287,Denton County,TX,85.08923431203223
75460,Lamar County,TX,51.46804835924007
75482,Hopkins County,TX,52.792170408750714
75501,Bowie County,TX,24.409902130109383
75662,Gregg County,TX,46.80483592400691
75672,Harrison County,TX,79.90788716177317
75701,Smith County,TX,28.554979850316638
75702,Smith County,TX,30.45480713874496
75703,Smith County,TX,24.985607369027058
75904,Angelina County,TX,74.95682210708118
75966,Newton County,TX,93.26424870466322
75972,San Augustine County,TX,63.55785837651122
76001,Tarrant County,TX,48.12895797351756
76010,Tarrant County,TX,61.02475532527346
76013,Tarrant County,TX,56.994818652849744
76017,Tarrant County,TX,24.237190558434083
76018,Tarrant County,TX,51.69833045480714
76022,Tarrant County,TX,97.63960852043753
76033,Johnson County,TX,29.70639032815199
76034,Tarrant County,TX,71.04202648244099
76063,Tarrant County,TX,10.420264824409903
76082,Parker County,TX,49.740932642487046
76104,Tarrant County,TX,16.234887737478413
76106,Tarrant County,TX,41.278065630397236
76114,Tarrant County,TX,36.44214162348877
76115,Tarrant County,TX,83.47725964306275
76116,Tarrant County,TX,18.24985607369027
76119,Tarrant County,TX,5.238917674150835
76123,Tarrant County,TX,40.58721934369603
76131,Tarrant County,TX,44.04145077720207
76134,Tarrant County,TX,84.05296488198043
76148,Tarrant County,TX,34.024179620034545
76180,Tarrant County,TX,35.002878526194586
76201,Denton County,TX,75.41738629821532
76309,Wichita County,TX,70.69660333909039
76401,Erath County,TX,56.0161197466897
76426,Wise County,TX,83.30454807138746
76444,Comanche County,TX,99.3091537132988
76502,Bell County,TX,11.398963730569948
76528,Coryell County,TX,56.59182498560737
76543,Bell County,TX,79.6776050662061
76571,Bell County,TX,87.62233736327
76574,Williamson County,TX,42.890040299366724
76579,Bell County,TX,85.95279217040876
76704,McLennan County,TX,91.65227403569372
76706,McLennan County,TX,27.57628094415659
76708,McLennan County,TX,40.58721934369603
76903,Tom Green County,TX,35.233160621761655
77005,Harris County,TX,65.86067933218193
77008,Harris County,TX,55.67069660333909
77014,Harris County,TX,53.54058721934369
77015,Harris County,TX,32.64248704663213
77028,Harris County,TX,43.40817501439263
77032,Harris County,TX,75.70523891767415
77037,Harris County,TX,96.94876223373633
77040,Harris County,TX,39.26309729418538
77047,Harris County,TX,92.91882556131262
77049,Harris County,TX,81.92285549798504
77055,Harris County,TX,52.38917674150835
77061,Harris County,TX,66.20610247553252
77070,Harris County,TX,39.72366148531952
77077,Harris County,TX,68.45135290731146
77082,Harris County,TX,43.350604490500864
77088,Harris County,TX,80.82901554404145
77089,Harris County,TX,37.01784686240645
77093,Harris County,TX,36.0391479562464
77095,Harris County,TX,12.953367875647666
77301,Montgomery County,TX,48.99251583189407
77304,Montgomery County,TX,55.843408175014396
77336,Harris County,TX,85.26194588370754
77365,Montgomery County,TX,43.40817501439263
77373,Harris County,TX,22.049510650546917
77379,Harris County,TX,68.33621185952792
77381,Montgomery County,TX,60.85204375359816
77386,Montgomery County,TX,74.84168105929764
77407,Fort Bend County,TX,46.22913068508924
77433,Harris County,TX,8.405296488198042
77449,Harris County,TX,81.8077144502015
77469,Fort Bend County,TX,56.246401842256766
77471,Fort Bend County,TX,31.318364997121474
77493,Harris County,TX,55.44041450777202
77494,Fort Bend County,TX,12.607944732297064
77498,Fort Bend County,TX,47.84110535405872
77502,Harris County,TX,46.57455382843984
77506,Harris County,TX,54.0587219343696
77573,Galveston County,TX,6.793321819228555
77584,Brazoria County,TX,70.98445595854922
77586,Harris County,TX,42.141623488773746
77619,Jefferson County,TX,65.40011514104779
77627,Jefferson County,TX,64.88198042602188
77656,Hardin County,TX,50.489349453080024
78028,Kerr County,TX,77.77777777777779
78041,Webb County,TX,30.22452504317789
78046,Webb County,TX,11.34139320667818
78070,Comal County,TX,88.83131836499713
78101,Bexar County,TX,93.8399539435809
78109,Bexar County,TX,41.62348877374784
78148,Bexar County,TX,80.25331030512378
78201,Bexar County,TX,18.364997121473806
78211,Bexar County,TX,46.45941278065631
78218,Bexar County,TX,42.659758203799655
78223,Bexar County,TX,44.84743811168681
78228,Bexar County,TX,56.188831318365
78242,Bexar County,TX,41.738629821531376
78374,San Patricio County,TX,93.09153713298791
78382,Aransas County,TX,92.17040875071963
78417,Nueces County,TX,99.8272884283247
78501,Hidalgo County,TX,40.472078295912496
78504,Hidalgo County,TX,31.894070236039145
78516,Hidalgo County,TX,87.85261945883708
78521,Cameron County,TX,86.06793321819228
78537,Hidalgo County,TX,58.26137017846862
78572,Hidalgo County,TX,79.56246401842256
78574,Hidalgo County,TX,29.18825561312608
78586,Cameron County,TX,67.76050662061024
78610,Hays County,TX,94.5308002302821
78612,Bastrop County,TX,86.58606793321819
78617,Travis County,TX,67.6453655728267
78727,Travis County,TX,82.1531375935521
78741,Travis County,TX,85.26194588370754
78744,Travis County,TX,57.91594703511802
78750,Travis County,TX,81.6350028785262
78840,Val Verde County,TX,22.107081174438687
78861,Medina County,TX,72.30857800805988
78934,Colorado County,TX,93.03396660909614
78942,Lee County,TX,89.81001727115718
78945,Fayette County,TX,98.10017271157167
79107,Potter County,TX,75.18710420264824
79556,Nolan County,TX,50.086355785837654
79606,Taylor County,TX,55.38284398388025
79763,Ector County,TX,27.518710420264824
79912,El Paso County,TX,20.72538860103627
79932,El Paso County,TX,90.67357512953367
79936,El Paso County,TX,34.369602763385146
84015,Davis County,UT,48.01381692573403
84041,Davis County,UT,29.763960852043752
84062,Utah County,UT,77.37478411053542
84074,Tooele County,UT,15.486470926885435
84078,Uintah County,UT,11.917098445595855
84095,Salt Lake County,UT,89.0616004605642
84107,Salt Lake County,UT,33.67875647668394
84118,Salt Lake County,UT,13.126079447322972
84128,Salt Lake County,UT,32.12435233160622
84129,,UT,22.625215889464595
84624,Millard County,UT,97.3517559009787
84655,Utah County,UT,88.14047207829591
84765,Washington County,UT,97.75474956822107
84770,Washington County,UT,31.318364997121474
20109,Prince William County,VA,58.549222797927456
20170,Fairfax County,VA,57.97351755900979
22044,Fairfax County,VA,97.524467472654
22101,Fairfax County,VA,45.88370754173863
22102,Fairfax County,VA,68.68163500287852
22151,Fairfax County,VA,76.8566493955095
22556,Stafford County,VA,64.82440990213011
22657,Shenandoah County,VA,45.42314335060449
22821,Rockingham County,VA,89.00402993667242
22973,Greene County,VA,81.11686816350029
23140,New Kent County,VA,97.1790443293034
23185,James City County,VA,62.52158894645942
23322,Chesapeake city,VA,74.89925158318941
23421,Accomack County,VA,96.60333909038572
23456,Virginia Beach city,VA,51.4104778353483
23661,Hampton city,VA,92.45826137017848
23803,Petersburg city,VA,8.059873344847437
23832,Chesterfield County,VA,38.22682786413356
24012,Roanoke city,VA,56.706966033390906
24019,Roanoke County,VA,49.05008635578584
24054,Henry County,VA,81.11686816350029
24060,Montgomery County,VA,80.48359240069085
24084,Pulaski County,VA,73.97812320092113
24148,Henry County,VA,79.44732297063904
24151,Franklin County,VA,38.97524467472654
24416,Buena Vista city,VA,59.81577432354634
24522,Appomattox County,VA,76.8566493955095
24614,Buchanan County,VA,53.82843983880253
98003,King County,WA,21.704087507196316
98005,King County,WA,78.41105354058722
98012,Snohomish County,WA,23.1433506044905
98026,Snohomish County,WA,75.30224525043178
98031,King County,WA,34.772596430627516
98058,King County,WA,24.640184225676453
98106,King County,WA,87.79504893494531
98198,King County,WA,35.060449050086355
98203,Snohomish County,WA,40.702360391479566
98204,Snohomish County,WA,53.1951640759931
98208,Snohomish County,WA,15.831894070236038
98221,Skagit County,WA,56.82210708117444
98258,Snohomish County,WA,66.37881404720784
98270,Snohomish County,WA,13.989637305699482
98292,Snohomish County,WA,54.51928612550374
98373,Pierce County,WA,62.11859527921704
98391,Pierce County,WA,37.59355210132412
98422,Pierce County,WA,56.476683937823836
98446,Pierce County,WA,94.18537708693148
98467,Pierce County,WA,76.79907887161774
98541,Grays Harbor County,WA,88.02533103051238
98626,Cowlitz County,WA,36.787564766839374
98674,Cowlitz County,WA,98.79101899827289
98802,Douglas County,WA,72.82671272308579
98837,Grant County,WA,88.94645941278065
98926,Kittitas County,WA,47.09268854346574
99016,Spokane County,WA,80.71387449625792
99114,Stevens County,WA,73.57512953367875
99207,Spokane County,WA,44.15659182498561
99216,Spokane County,WA,58.14622913068509
99301,Franklin County,WA,29.015544041450774
99320,Benton County,WA,81.05929763960852
99337,Benton County,WA,20.379965457685664
99344,Adams County,WA,95.56706966033391
99354,Benton County,WA,35.40587219343696
99362,Walla Walla County,WA,20.09211283822683
20001,District of Columbia,DC,15.3713298791019
20019,District of Columbia,DC,15.198618307426598
20020,District of Columbia,DC,0.8059873344847437
25159,Putnam County,WV,89.5797351755901
25177,Kanawha County,WV,8.865860679332183
25414,Jefferson County,WV,56.3615428900403
25425,Jefferson County,WV,89.52216465169833
25523,Lincoln County,WV,97.92746113989638
25530,Wayne County,WV,65.80310880829016
26003,Ohio County,WV,3.454231433506045
26101,Wood County,WV,3.051237766263673
26301,Harrison County,WV,43.293033966609094
26330,Harrison County,WV,81.2895797351756
26452,Lewis County,WV,52.792170408750714
26505,Monongalia County,WV,6.620610247553254
26508,Monongalia County,WV,3.166378814047208
26554,Marion County,WV,2.533103051237766
26726,Mineral County,WV,35.17559009786989
53050,Dodge County,WI,98.0426021876799
53066,Waukesha County,WI,32.58491652274036
53128,Walworth County,WI,62.34887737478411
53210,Milwaukee County,WI,78.12320092112837
53221,Milwaukee County,WI,14.622913068508925
53223,Milwaukee County,WI,11.859527921704087
53224,Milwaukee County,WI,90.6160046056419
53225,Milwaukee County,WI,89.69487622337363
53405,Racine County,WI,3.9147956246401843
53551,Jefferson County,WI,73.45998848589522
53703,Dane County,WI,73.11456534254461
53704,Dane County,WI,30.857800805987335
54011,Pierce County,WI,91.53713298791018
54020,Polk County,WI,97.40932642487047
54022,Pierce County,WI,75.12953367875647
54023,St. Croix County,WI,98.15774323546344
54025,St. Croix County,WI,87.39205526770294
54130,Outagamie County,WI,52.38917674150835
54140,Outagamie County,WI,85.54979850316637
54166,Shawano County,WI,90.73114565342544
54220,Manitowoc County,WI,4.260218767990788
54467,Portage County,WI,57.340241796200345
54603,La Crosse County,WI,47.09268854346574
54646,Juneau County,WI,95.10650546919976
54660,Monroe County,WI,42.774899251583186
54727,Chippewa County,WI,93.66724237190557
54911,Outagamie County,WI,32.41220495106506
54971,Fond du Lac County,WI,79.79274611398964
82001,Laramie County,WY,67.35751295336787
82009,Laramie County,WY,64.93955094991365
82601,Natrona County,WY,87.73747841105354
82633,Converse County,WY,53.31030512377662
82718,Campbell County,WY,94.81865284974094
82901,Sweetwater County,WY,49.510650546919976
