ZipCode,county,state,Adult,Retirement,Geriatric
35054,St. Clair County,AL,NA,88.47457627118645,NA
35226,Jefferson County,AL,NA,NA,32.1608040201005
35475,Tuscaloosa County,AL,51.724137931034484,NA,NA
35640,Morgan County,AL,NA,NA,54.2713567839196
35650,Lawrence County,AL,56.42633228840125,NA,NA
35740,Jackson County,AL,99.37304075235109,NA,NA
35763,Madison County,AL,NA,60.33898305084746,NA
35803,Madison County,AL,NA,35.932203389830505,NA
36105,Montgomery County,AL,66.77115987460816,NA,NA
36108,Montgomery County,AL,45.45454545454545,NA,NA
36116,Montgomery County,AL,NA,52.54237288135594,NA
36117,Montgomery County,AL,NA,39.66101694915255,NA
36330,Coffee County,AL,NA,36.271186440677965,NA
36507,Baldwin County,AL,42.00626959247649,NA,NA
36575,Mobile County,AL,NA,78.98305084745762,NA
36604,Mobile County,AL,NA,91.18644067796609,NA
99501,Anchorage Municipality,AK,23.824451410658305,NA,NA
85018,Maricopa County,AZ,36.677115987460816,NA,NA
85202,Maricopa County,AZ,54.54545454545454,NA,NA
85250,Maricopa County,AZ,88.40125391849529,NA,NA
85295,Maricopa County,AZ,41.692789968652036,NA,NA
85323,Maricopa County,AZ,34.48275862068966,NA,NA
85346,La Paz County,AZ,NA,NA,76.88442211055276
85546,Graham County,AZ,51.410658307210035,NA,NA
85713,Pima County,AZ,NA,8.135593220338983,NA
85715,Pima County,AZ,79.9373040752351,NA,NA
85929,Navajo County,AZ,NA,NA,83.91959798994975
86004,Coconino County,AZ,NA,13.559322033898304,NA
86301,Yavapai County,AZ,NA,29.830508474576273,NA
86323,Yavapai County,AZ,53.60501567398119,NA,NA
86326,Yavapai County,AZ,26.332288401253916,NA,NA
86401,Mohave County,AZ,NA,7.118644067796611,NA
86409,Mohave County,AZ,7.836990595611286,NA,NA
86442,Mohave County,AZ,30.407523510971785,NA,NA
71913,Garland County,AR,NA,25.76271186440678,NA
72034,Faulkner County,AR,52.97805642633229,NA,NA
72112,Jackson County,AR,75.54858934169279,NA,NA
72653,Baxter County,AR,46.70846394984326,NA,NA
90003,Los Angeles County,CA,38.24451410658307,NA,NA
90028,Los Angeles County,CA,NA,74.23728813559322,NA
90044,Los Angeles County,CA,NA,17.966101694915253,NA
90045,Los Angeles County,CA,NA,59.66101694915255,NA
90046,Los Angeles County,CA,NA,22.033898305084744,NA
90047,Los Angeles County,CA,NA,12.203389830508476,NA
90212,Los Angeles County,CA,NA,89.15254237288136,NA
90221,Los Angeles County,CA,9.404388714733543,NA,NA
90222,Los Angeles County,CA,NA,NA,90.95477386934674
90650,Los Angeles County,CA,NA,NA,27.63819095477387
90717,Los Angeles County,CA,NA,69.49152542372882,NA
90808,Los Angeles County,CA,NA,44.06779661016949,NA
90815,Los Angeles County,CA,51.09717868338558,NA,NA
91105,Los Angeles County,CA,NA,NA,79.39698492462311
91107,Los Angeles County,CA,NA,NA,47.73869346733669
91306,Los Angeles County,CA,NA,83.05084745762711,NA
91335,Los Angeles County,CA,32.288401253918494,NA,NA
91761,San Bernardino County,CA,NA,NA,82.41206030150754
91950,San Diego County,CA,71.78683385579937,NA,NA
92009,San Diego County,CA,NA,45.08474576271186,NA
92071,San Diego County,CA,NA,NA,31.65829145728643
92084,San Diego County,CA,59.24764890282132,67.45762711864407,NA
92101,San Diego County,CA,NA,NA,45.22613065326633
92114,San Diego County,CA,34.1692789968652,NA,NA
92130,San Diego County,CA,NA,NA,78.39195979899498
92154,San Diego County,CA,72.41379310344827,NA,NA
92252,San Bernardino County,CA,NA,NA,98.99497487437185
92395,San Bernardino County,CA,61.75548589341693,NA,NA
92548,Riverside County,CA,NA,94.57627118644068,NA
92563,Riverside County,CA,35.73667711598746,NA,NA
92570,Riverside County,CA,45.141065830721004,NA,NA
92571,Riverside County,CA,43.8871473354232,NA,NA
92591,Riverside County,CA,49.52978056426332,NA,NA
92625,Orange County,CA,NA,71.86440677966101,NA
92646,Orange County,CA,27.586206896551722,NA,43.21608040201005
92706,Orange County,CA,92.47648902821317,NA,NA
92831,Orange County,CA,54.2319749216301,NA,NA
92832,Orange County,CA,57.05329153605015,NA,NA
93035,Ventura County,CA,88.71473354231975,NA,NA
93257,Tulare County,CA,NA,NA,27.1356783919598
93292,Tulare County,CA,NA,33.559322033898304,NA
93455,Santa Barbara County,CA,NA,NA,15.07537688442211
93640,Fresno County,CA,98.11912225705329,NA,NA
93657,Fresno County,CA,57.68025078369906,NA,NA
93706,Fresno County,CA,NA,42.03389830508474,NA
93710,Fresno County,CA,63.63636363636363,NA,NA
93722,Fresno County,CA,NA,NA,41.70854271356784
94110,San Francisco County,CA,44.827586206896555,NA,NA
94121,San Francisco County,CA,NA,NA,11.557788944723619
94502,Alameda County,CA,NA,NA,74.87437185929649
94526,Contra Costa County,CA,67.7115987460815,NA,NA
94571,Solano County,CA,95.29780564263322,NA,NA
95037,Santa Clara County,CA,57.36677115987461,NA,NA
95111,Santa Clara County,CA,41.06583072100313,NA,NA
95119,Santa Clara County,CA,NA,95.25423728813558,NA
95124,Santa Clara County,CA,NA,NA,48.24120603015075
95126,Santa Clara County,CA,NA,NA,91.4572864321608
95129,Santa Clara County,CA,84.95297805642633,NA,NA
95132,Santa Clara County,CA,NA,72.20338983050848,NA
95138,Santa Clara County,CA,89.65517241379311,NA,NA
95338,Mariposa County,CA,86.20689655172413,NA,NA
95341,Merced County,CA,58.93416927899686,NA,NA
95350,Stanislaus County,CA,NA,51.186440677966104,22.110552763819097
95521,Humboldt County,CA,NA,84.06779661016948,NA
95631,Placer County,CA,NA,98.64406779661017,NA
95683,Sacramento County,CA,NA,NA,97.98994974874373
95828,Sacramento County,CA,44.20062695924764,NA,NA
95901,Yuba County,CA,NA,53.898305084745765,NA
95926,Butte County,CA,36.36363636363637,NA,NA
95949,Nevada County,CA,89.34169278996865,NA,NA
80012,Arapahoe County,CO,11.285266457680251,NA,NA
80104,Douglas County,CO,NA,70.16949152542374,NA
80221,Adams County,CO,34.79623824451411,NA,NA
80231,Denver County,CO,41.37931034482759,NA,55.778894472361806
80233,Adams County,CO,28.84012539184953,NA,NA
80521,Larimer County,CO,70.84639498432603,NA,NA
80526,Larimer County,CO,NA,33.559322033898304,NA
80550,Weld County,CO,31.347962382445143,NA,NA
80831,El Paso County,CO,71.47335423197492,NA,NA
80863,Teller County,CO,94.67084639498434,NA,NA
81004,Pueblo County,CO,26.959247648902824,NA,NA
81212,Fremont County,CO,43.573667711598745,NA,44.221105527638194
06040,Hartford County,CT,NA,NA,31.155778894472363
06248,Tolland County,CT,95.61128526645768,NA,NA
06255,Windham County,CT,NA,91.86440677966101,NA
06280,Windham County,CT,97.4921630094044,NA,NA
06401,New Haven County,CT,31.974921630094045,NA,NA
06418,New Haven County,CT,72.10031347962382,NA,NA
06472,New Haven County,CT,NA,94.23728813559322,NA
06475,Middlesex County,CT,NA,62.03389830508475,NA
06492,New Haven County,CT,NA,NA,6.030150753768844
06514,New Haven County,CT,NA,NA,40.20100502512563
06516,New Haven County,CT,NA,NA,11.055276381909549
06604,Fairfield County,CT,21.9435736677116,NA,NA
06605,Fairfield County,CT,68.02507836990596,NA,NA
19701,New Castle County,DE,NA,17.28813559322034,NA
19707,New Castle County,DE,NA,NA,78.89447236180904
19963,Sussex County,DE,NA,37.6271186440678,NA
32025,Columbia County,FL,40.75235109717868,NA,NA
32034,Nassau County,FL,NA,8.813559322033898,NA
32129,Volusia County,FL,NA,NA,46.733668341708544
32132,Volusia County,FL,NA,NA,88.44221105527639
32174,Volusia County,FL,87.46081504702194,NA,NA
32244,Duval County,FL,5.329153605015674,NA,NA
32425,Holmes County,FL,81.50470219435736,NA,NA
32504,Escambia County,FL,52.03761755485894,NA,NA
32507,Escambia County,FL,NA,NA,19.597989949748744
32514,Escambia County,FL,NA,NA,45.7286432160804
32561,Santa Rosa County,FL,NA,82.37288135593221,NA
32621,Levy County,FL,NA,87.45762711864407,NA
32656,Clay County,FL,NA,NA,60.80402010050251
32754,Brevard County,FL,76.8025078369906,NA,NA
32798,Orange County,FL,NA,NA,87.43718592964824
32808,Orange County,FL,NA,24.40677966101695,NA
32958,Indian River County,FL,NA,10.508474576271185,NA
32962,Indian River County,FL,79.3103448275862,NA,NA
33020,Broward County,FL,NA,NA,66.33165829145729
33029,Broward County,FL,NA,NA,54.773869346733676
33128,Miami-Dade County,FL,93.73040752351098,NA,NA
33173,Miami-Dade County,FL,NA,56.271186440677965,NA
33174,Miami-Dade County,FL,NA,NA,20.100502512562816
33317,Broward County,FL,78.99686520376176,NA,NA
33321,Broward County,FL,NA,NA,5.527638190954774
33404,Palm Beach County,FL,40.12539184952978,NA,NA
33411,Palm Beach County,FL,NA,20,NA
33415,Palm Beach County,FL,46.08150470219436,NA,NA
33417,Palm Beach County,FL,NA,NA,26.633165829145728
33440,Hendry County,FL,52.35109717868338,NA,NA
33463,Palm Beach County,FL,NA,37.96610169491525,NA
33556,Hillsborough County,FL,75.54858934169279,NA,NA
33614,Hillsborough County,FL,NA,49.152542372881356,NA
33710,Pinellas County,FL,NA,NA,48.743718592964825
33760,Pinellas County,FL,78.68338557993731,NA,NA
33777,Pinellas County,FL,NA,NA,68.34170854271356
33823,Polk County,FL,37.93103448275862,NA,NA
33830,Polk County,FL,NA,47.79661016949153,NA
33843,Polk County,FL,91.53605015673982,NA,NA
33873,Hardee County,FL,NA,73.89830508474576,NA
33908,Lee County,FL,NA,NA,1.507537688442211
33917,Lee County,FL,NA,NA,16.582914572864322
34114,Collier County,FL,NA,37.28813559322034,NA
34436,Citrus County,FL,NA,NA,93.96984924623115
34446,Citrus County,FL,NA,NA,39.19597989949749
34450,Citrus County,FL,83.07210031347962,NA,NA
34452,Citrus County,FL,NA,NA,75.87939698492463
34609,Hernando County,FL,33.85579937304075,NA,NA
34691,Pasco County,FL,47.64890282131661,NA,NA
34744,Osceola County,FL,NA,40.33898305084746,NA
34788,Lake County,FL,NA,NA,35.678391959798994
34990,Martin County,FL,NA,24.06779661016949,NA
30040,Forsyth County,GA,28.213166144200624,58.30508474576271,NA
30047,Gwinnett County,GA,NA,25.423728813559322,NA
30052,Walton County,GA,20.06269592476489,NA,NA
30066,Cobb County,GA,48.90282131661442,NA,NA
30067,Cobb County,GA,NA,73.22033898305085,NA
30076,Fulton County,GA,NA,80,NA
30120,Bartow County,GA,NA,47.11864406779661,NA
30165,Floyd County,GA,NA,29.491525423728817,NA
30310,Fulton County,GA,NA,15.932203389830507,NA
30319,DeKalb County,GA,73.98119122257053,NA,NA
30331,Fulton County,GA,19.122257053291534,NA,NA
30344,Fulton County,GA,NA,42.3728813559322,NA
30458,Bulloch County,GA,NA,35.59322033898305,NA
30512,Union County,GA,NA,52.20338983050847,NA
30523,Habersham County,GA,NA,NA,59.2964824120603
30629,Madison County,GA,NA,NA,94.9748743718593
30669,Greene County,GA,99.05956112852664,NA,NA
30736,Catoosa County,GA,NA,19.661016949152543,NA
30809,Columbia County,GA,38.557993730407524,NA,NA
30814,Columbia County,GA,81.19122257053291,NA,NA
30907,Columbia County,GA,27.27272727272727,NA,NA
31093,Houston County,GA,36.05015673981191,NA,NA
31204,Bibb County,GA,NA,28.135593220338983,NA
31406,Chatham County,GA,53.91849529780565,NA,NA
31516,Pierce County,GA,NA,NA,86.4321608040201
96701,Honolulu County,HI,NA,17.627118644067796,NA
83318,Cassia County,ID,63.63636363636363,NA,NA
83642,Ada County,ID,19.435736677115987,NA,NA
60014,McHenry County,IL,NA,14.576271186440678,NA
60020,Lake County,IL,90.28213166144201,NA,NA
60025,Cook County,IL,NA,4.406779661016949,NA
60073,Lake County,IL,17.24137931034483,NA,NA
60074,Cook County,IL,NA,37.96610169491525,NA
60076,Cook County,IL,NA,22.372881355932204,NA
60087,Lake County,IL,NA,75.2542372881356,58.291457286432156
60115,DeKalb County,IL,NA,NA,33.66834170854271
60155,Cook County,IL,82.75862068965517,NA,NA
60429,Cook County,IL,NA,NA,62.8140703517588
60439,Cook County,IL,NA,97.28813559322033,NA
60446,Will County,IL,15.673981191222571,NA,NA
60453,Cook County,IL,NA,39.32203389830509,NA
60457,Cook County,IL,74.92163009404389,NA,NA
60458,Cook County,IL,NA,71.1864406779661,NA
60467,Cook County,IL,NA,NA,18.090452261306535
60478,Cook County,IL,NA,79.3220338983051,NA
60481,Will County,IL,70.21943573667711,NA,NA
60490,Will County,IL,NA,90.5084745762712,NA
60514,DuPage County,IL,90.59561128526646,NA,NA
60525,Cook County,IL,NA,NA,15.577889447236181
60586,Will County,IL,NA,31.864406779661014,NA
60611,Cook County,IL,56.739811912225704,NA,NA
60613,Cook County,IL,NA,NA,46.231155778894475
60619,Cook County,IL,62.06896551724138,NA,NA
60629,Cook County,IL,NA,NA,9.045226130653267
60634,Cook County,IL,NA,7.457627118644068,NA
60645,Cook County,IL,39.18495297805642,NA,NA
60660,Cook County,IL,NA,NA,43.71859296482412
60901,Kankakee County,IL,NA,12.88135593220339,NA
60970,Iroquois County,IL,NA,81.35593220338984,NA
61111,Winnebago County,IL,80.56426332288402,NA,NA
61240,Rock Island County,IL,NA,91.52542372881356,NA
61802,Champaign County,IL,64.89028213166145,NA,NA
61920,Coles County,IL,NA,55.59322033898305,NA
62223,St. Clair County,IL,74.60815047021944,NA,NA
62702,Sangamon County,IL,27.89968652037618,NA,NA
62863,Wabash County,IL,NA,92.88135593220339,NA
62901,Jackson County,IL,67.39811912225704,NA,NA
62946,Saline County,IL,NA,78.64406779661017,NA
62960,Massac County,IL,NA,NA,53.266331658291456
46013,Madison County,IN,NA,18.305084745762713,NA
46060,Hamilton County,IN,NA,27.11864406779661,NA
46143,Johnson County,IN,NA,16.610169491525422,NA
46218,Marion County,IN,8.77742946708464,NA,NA
46221,Marion County,IN,NA,NA,69.84924623115577
46228,Marion County,IN,NA,NA,98.49246231155779
46259,Marion County,IN,NA,92.54237288135593,NA
46368,Porter County,IN,NA,1.694915254237288,NA
46385,Porter County,IN,6.269592476489027,NA,NA
46408,Lake County,IN,NA,50.16949152542372,NA
46706,DeKalb County,IN,NA,NA,37.68844221105528
46792,Huntington County,IN,98.43260188087774,NA,NA
46809,Allen County,IN,57.993730407523515,NA,NA
46901,Howard County,IN,2.507836990595611,NA,NA
47112,Harrison County,IN,NA,NA,65.32663316582915
47129,Clark County,IN,NA,NA,61.30653266331658
47240,Decatur County,IN,NA,NA,33.165829145728644
47374,Wayne County,IN,24.76489028213166,NA,NA
47905,Tippecanoe County,IN,NA,54.91525423728814,NA
50111,Polk County,IA,NA,96.27118644067797,NA
50310,Polk County,IA,NA,NA,49.74874371859296
51105,Woodbury County,IA,NA,67.11864406779661,NA
52601,Des Moines County,IA,NA,15.254237288135593,NA
52722,Scott County,IA,NA,28.8135593220339,NA
52761,Muscatine County,IA,NA,11.186440677966102,NA
66018,Johnson County,KS,NA,97.96610169491525,NA
66048,Leavenworth County,KS,NA,NA,38.19095477386934
67205,Sedgwick County,KS,NA,NA,92.46231155778895
67502,Reno County,KS,72.72727272727273,NA,NA
40175,Hardin County,KY,59.56112852664577,NA,NA
40203,Jefferson County,KY,24.137931034482758,NA,NA
40211,Jefferson County,KY,45.76802507836991,NA,NA
40272,Jefferson County,KY,NA,NA,32.663316582914575
40371,Bath County,KY,94.35736677115987,NA,NA
40391,Clark County,KY,NA,11.864406779661017,NA
40517,Fayette County,KY,NA,43.050847457627114,NA
41035,Grant County,KY,NA,97.6271186440678,NA
41040,Pendleton County,KY,68.3385579937304,NA,NA
41101,Boyd County,KY,18.808777429467085,NA,NA
41230,Lawrence County,KY,NA,NA,67.33668341708542
42240,Christian County,KY,30.094043887147336,NA,NA
42276,Logan County,KY,NA,62.37288135593221,NA
70001,Jefferson Parish,LA,NA,9.491525423728813,NA
70113,Orleans Parish,LA,32.60188087774294,NA,NA
70124,Orleans Parish,LA,NA,NA,56.78391959798995
70448,St. Tammany Parish,LA,NA,28.8135593220339,NA
70458,St. Tammany Parish,LA,NA,NA,10.050251256281408
70520,Lafayette Parish,LA,25.705329153605017,NA,NA
70555,Vermilion Parish,LA,84.63949843260188,NA,NA
70560,Iberia Parish,LA,NA,48.8135593220339,NA
70578,Acadia Parish,LA,23.510971786833856,NA,NA
70817,East Baton Rouge Parish,LA,67.0846394984326,NA,NA
71112,Bossier Parish,LA,NA,23.389830508474578,NA
71203,Ouachita Parish,LA,NA,22.71186440677966,NA
71235,Lincoln Parish,LA,NA,98.98305084745763,NA
71403,Vernon Parish,LA,NA,100,NA
71449,Sabine Parish,LA,73.98119122257053,NA,NA
04976,Somerset County,ME,16.614420062695924,NA,NA
20715,Prince George's County,MD,68.65203761755487,NA,NA
20746,Prince George's County,MD,65.51724137931035,NA,NA
20759,Howard County,MD,97.80564263322884,NA,NA
20901,Montgomery County,MD,NA,84.7457627118644,NA
20910,Montgomery County,MD,60.18808777429467,NA,NA
21215,Baltimore city,MD,6.896551724137931,NA,NA
21217,Baltimore city,MD,25.07836990595611,NA,NA
21237,Baltimore County,MD,NA,56.61016949152542,NA
01104,Hampden County,MA,1.2539184952978055,NA,NA
01364,Franklin County,MA,NA,21.35593220338983,NA
01370,Franklin County,MA,NA,NA,90.45226130653266
01562,Worcester County,MA,NA,41.69491525423729,NA
01605,Worcester County,MA,NA,NA,0
01701,Middlesex County,MA,9.717868338557993,NA,NA
01810,Essex County,MA,13.479623824451412,NA,NA
01830,Essex County,MA,89.96865203761756,NA,NA
01844,Essex County,MA,NA,NA,5.025125628140704
01906,Essex County,MA,NA,NA,6.532663316582915
01970,Essex County,MA,0.9404388714733543,NA,NA
02043,Plymouth County,MA,NA,NA,24.120603015075375
02052,Norfolk County,MA,NA,NA,86.93467336683418
02124,Suffolk County,MA,NA,NA,2.512562814070352
02148,Middlesex County,MA,NA,NA,7.537688442211055
02169,Norfolk County,MA,NA,0,NA
02301,Plymouth County,MA,3.1347962382445136,NA,NA
02356,Bristol County,MA,NA,NA,71.85929648241206
02472,Middlesex County,MA,5.6426332288401255,NA,NA
02492,Norfolk County,MA,NA,27.45762711864407,NA
02556,Barnstable County,MA,NA,93.22033898305084,NA
02639,Barnstable County,MA,NA,84.40677966101696,NA
48045,Macomb County,MI,NA,15.593220338983052,NA
48098,Oakland County,MI,NA,36.610169491525426,53.768844221105525
48104,Washtenaw County,MI,NA,35.25423728813559,NA
48127,Wayne County,MI,NA,58.644067796610166,NA
48166,Monroe County,MI,NA,38.64406779661017,NA
48167,Oakland County,MI,NA,NA,12.562814070351758
48169,Livingston County,MI,49.21630094043887,NA,NA
48180,Wayne County,MI,NA,NA,24.623115577889447
48197,Washtenaw County,MI,NA,NA,19.09547738693467
48209,Wayne County,MI,NA,51.52542372881356,NA
48212,Wayne County,MI,NA,49.49152542372882,NA
48228,Wayne County,MI,1.5673981191222568,NA,NA
48309,Oakland County,MI,NA,NA,27.63819095477387
48423,Genesee County,MI,NA,NA,47.23618090452261
48706,Bay County,MI,NA,NA,3.5175879396984926
48750,Iosco County,MI,NA,64.7457627118644,NA
48867,Shiawassee County,MI,NA,6.440677966101695,NA
49053,Kalamazoo County,MI,NA,85.76271186440678,NA
49082,Branch County,MI,NA,90.16949152542372,NA
49091,St. Joseph County,MI,47.96238244514107,NA,NA
49224,Calhoun County,MI,NA,61.35593220338983,NA
49341,Kent County,MI,NA,NA,28.643216080402013
49509,Kent County,MI,NA,55.254237288135585,NA
49738,Crawford County,MI,75.23510971786834,NA,NA
49829,Delta County,MI,NA,28.474576271186443,NA
49855,Marquette County,MI,15.360501567398119,NA,NA
55009,Goodhue County,MN,NA,NA,60.30150753768844
55102,Ramsey County,MN,NA,41.01694915254237,NA
55119,Ramsey County,MN,46.39498432601881,NA,NA
55120,Dakota County,MN,99.68652037617555,NA,NA
55369,Hennepin County,MN,37.30407523510972,NA,NA
55376,Wright County,MN,NA,NA,79.89949748743719
55405,Hennepin County,MN,NA,NA,83.41708542713567
55428,Hennepin County,MN,21.630094043887148,NA,NA
55429,Hennepin County,MN,12.852664576802509,NA,NA
56241,Yellow Medicine County,MN,NA,96.94915254237289,NA
56258,Lyon County,MN,NA,57.28813559322033,NA
56601,Beltrami County,MN,NA,NA,2.0100502512562812
39090,Attala County,MS,NA,NA,95.47738693467338
39114,Simpson County,MS,79.62382445141067,NA,NA
39211,Hinds County,MS,NA,NA,44.72361809045226
39212,Hinds County,MS,23.197492163009404,NA,NA
39301,Lauderdale County,MS,20.689655172413794,NA,NA
39341,Noxubee County,MS,NA,NA,85.42713567839196
39705,Lowndes County,MS,69.59247648902821,NA,NA
63016,Jefferson County,MO,90.9090909090909,NA,NA
63026,St. Louis County,MO,NA,10.847457627118644,NA
63106,St. Louis city,MO,NA,77.62711864406779,NA
63121,St. Louis County,MO,NA,NA,51.256281407035175
63131,St. Louis County,MO,NA,76.61016949152543,NA
63136,St. Louis County,MO,NA,NA,36.68341708542713
63137,St. Louis County,MO,40.43887147335423,NA,NA
63366,St. Charles County,MO,NA,NA,9.547738693467336
63640,St. Francois County,MO,NA,NA,41.20603015075377
63830,Pemiscot County,MO,85.57993730407524,NA,NA
64082,Jackson County,MO,73.04075235109718,NA,NA
64105,Jackson County,MO,93.10344827586206,NA,NA
64113,Jackson County,MO,68.96551724137932,NA,NA
64119,Clay County,MO,10.344827586206897,NA,NA
64151,Platte County,MO,32.9153605015674,NA,NA
64503,Buchanan County,MO,60.81504702194357,NA,NA
64507,Buchanan County,MO,28.213166144200624,NA,NA
65041,Gasconade County,MO,NA,88.13559322033898,NA
65583,Pulaski County,MO,NA,NA,95.97989949748744
65802,Greene County,MO,NA,NA,56.28140703517588
65803,Greene County,MO,NA,NA,25.125628140703515
59901,Flathead County,MT,33.22884012539185,NA,NA
68128,Sarpy County,NE,NA,NA,82.91457286432161
68901,Adams County,NE,NA,46.101694915254235,NA
69001,Red Willow County,NE,NA,NA,52.26130653266332
89107,Clark County,NV,NA,68.13559322033899,NA
89115,Clark County,NV,NA,NA,81.90954773869346
89134,Clark County,NV,NA,51.864406779661024,14.572864321608039
89179,Clark County,NV,96.23824451410658,NA,NA
89406,Churchill County,NV,44.5141065830721,NA,NA
03110,Hillsborough County,NH,NA,NA,16.08040201005025
03303,Merrimack County,NH,73.66771159874608,NA,NA
07208,Union County,NJ,NA,21.35593220338983,NA
07450,Bergen County,NJ,NA,94.91525423728814,NA
07461,Sussex County,NJ,42.31974921630094,NA,NA
07677,Bergen County,NJ,NA,NA,80.40201005025126
07727,Monmouth County,NJ,NA,NA,93.46733668341709
07734,Monmouth County,NJ,NA,NA,65.32663316582915
07823,Warren County,NJ,NA,NA,66.83417085427136
07922,Union County,NJ,NA,87.79661016949153,NA
08005,Ocean County,NJ,20.37617554858934,NA,NA
08060,Burlington County,NJ,NA,34.57627118644068,NA
08085,Gloucester County,NJ,NA,53.22033898305085,NA
08401,Atlantic County,NJ,0.6269592476489028,NA,NA
08618,Mercer County,NJ,NA,NA,39.698492462311556
08757,Ocean County,NJ,NA,NA,0.5025125628140703
08831,Middlesex County,NJ,NA,7.796610169491526,NA
87004,Sandoval County,NM,NA,NA,73.86934673366834
87112,Bernalillo County,NM,15.047021943573668,NA,NA
87144,Sandoval County,NM,NA,76.94915254237287,NA
87301,McKinley County,NM,60.50156739811913,NA,NA
87507,Santa Fe County,NM,35.42319749216301,NA,NA
87532,Santa Fe County,NM,NA,45.42372881355932,NA
88011,Doa Ana County,NM,54.858934169278996,NA,NA
88201,Chaves County,NM,36.990595611285265,38.983050847457626,NA
10023,New York County,NY,50.470219435736674,NA,NA
10032,New York County,NY,NA,6.779661016949152,NA
10034,New York County,NY,NA,93.55932203389831,NA
10065,New York County,NY,NA,86.77966101694915,NA
10456,Bronx County,NY,0,3.050847457627119,NA
10458,Bronx County,NY,NA,0.3389830508474576,NA
10460,Bronx County,NY,2.19435736677116,1.0169491525423728,NA
10465,Bronx County,NY,NA,40.67796610169492,NA
10468,Bronx County,NY,NA,NA,7.035175879396985
10701,Westchester County,NY,10.9717868338558,NA,NA
10703,Westchester County,NY,39.49843260188088,NA,NA
10705,Westchester County,NY,8.463949843260188,NA,NA
10924,Orange County,NY,NA,NA,64.82412060301507
11050,Nassau County,NY,NA,57.96610169491525,NA
11104,Queens County,NY,NA,95.59322033898306,NA
11218,Kings County,NY,18.181818181818183,NA,NA
11230,Kings County,NY,17.86833855799373,NA,NA
11374,Queens County,NY,NA,24.40677966101695,25.628140703517587
11580,Nassau County,NY,NA,NA,34.17085427135678
11758,Nassau County,NY,NA,NA,23.115577889447238
11946,Suffolk County,NY,NA,NA,58.79396984924623
12804,Warren County,NY,NA,NA,29.145728643216078
13036,Oswego County,NY,NA,83.72881355932203,NA
13088,Onondaga County,NY,29.153605015673982,NA,NA
13316,Oneida County,NY,65.20376175548589,NA,NA
13734,Tioga County,NY,92.16300940438872,NA,NA
13815,Chenango County,NY,14.733542319749215,NA,NA
13850,Broome County,NY,NA,NA,4.522613065326634
14075,Erie County,NY,NA,NA,10.552763819095476
14092,Niagara County,NY,NA,49.83050847457628,NA
14170,Erie County,NY,96.55172413793103,NA,NA
14215,Erie County,NY,1.8808777429467085,NA,NA
14305,Niagara County,NY,5.015673981191222,NA,NA
14420,Monroe County,NY,NA,20.33898305084746,NA
14456,Ontario County,NY,85.8934169278997,NA,NA
14468,Monroe County,NY,18.495297805642632,NA,NA
14487,Livingston County,NY,NA,62.71186440677966,NA
14510,Livingston County,NY,NA,NA,96.98492462311557
14618,Monroe County,NY,NA,NA,17.08542713567839
14624,Monroe County,NY,NA,2.0338983050847457,NA
14706,Cattaraugus County,NY,NA,68.8135593220339,NA
14787,Chautauqua County,NY,NA,90.84745762711864,NA
14801,Steuben County,NY,77.11598746081505,NA,NA
14830,Steuben County,NY,NA,30.847457627118647,NA
14847,Seneca County,NY,NA,98.30508474576271,NA
14886,Tompkins County,NY,NA,NA,97.48743718592965
14895,Allegany County,NY,NA,77.28813559322035,NA
27103,Forsyth County,NC,NA,NA,3.015075376884422
27288,Rockingham County,NC,13.793103448275861,NA,NA
27316,Randolph County,NC,NA,92.20338983050847,NA
27403,Guilford County,NC,NA,NA,77.88944723618091
27406,Guilford County,NC,4.702194357366771,NA,NA
27809,Nash County,NC,NA,95.9322033898305,NA
28012,Gaston County,NC,63.322884012539184,NA,NA
28278,Mecklenburg County,NC,NA,81.69491525423729,NA
28358,Robeson County,NC,NA,NA,22.613065326633166
28360,Robeson County,NC,80.25078369905955,NA,NA
28366,Sampson County,NC,96.86520376175548,NA,NA
28403,New Hanover County,NC,NA,NA,69.34673366834171
28501,Lenoir County,NC,NA,46.440677966101696,NA
28557,Carteret County,NC,NA,42.71186440677966,NA
28574,Onslow County,NC,69.27899686520375,NA,NA
28621,Surry County,NC,NA,54.57627118644067,NA
28658,Catawba County,NC,NA,NA,50.753768844221106
58703,Ward County,ND,NA,43.389830508474574,NA
43068,Franklin County,OH,9.090909090909092,NA,NA
43203,Franklin County,OH,NA,NA,99.49748743718592
43211,Franklin County,OH,9.717868338557993,NA,NA
43338,Morrow County,OH,59.87460815047022,NA,NA
43402,Wood County,OH,NA,NA,21.608040201005025
43615,Lucas County,OH,3.761755485893417,NA,NA
43623,Lucas County,OH,NA,25.08474576271186,NA
43906,Belmont County,OH,48.589341692789965,NA,NA
43938,Jefferson County,OH,NA,NA,71.35678391959799
44012,Lorain County,OH,NA,6.101694915254238,NA
44052,Lorain County,OH,NA,2.3728813559322033,NA
44056,Summit County,OH,NA,59.32203389830508,NA
44077,Lake County,OH,NA,NA,1.0050251256281406
44090,Lorain County,OH,61.442006269592476,NA,NA
44102,Cuyahoga County,OH,0.3134796238244514,NA,NA
44121,Cuyahoga County,OH,8.150470219435736,NA,NA
44146,Cuyahoga County,OH,NA,1.3559322033898304,NA
44212,Medina County,OH,3.4482758620689653,NA,NA
44216,Summit County,OH,NA,64.0677966101695,NA
44256,Medina County,OH,4.38871473354232,NA,NA
44305,Summit County,OH,14.420062695924765,NA,NA
44310,Summit County,OH,NA,21.01694915254237,NA
44410,Trumbull County,OH,NA,65.08474576271186,NA
44452,Mahoning County,OH,NA,99.32203389830508,NA
44646,Stark County,OH,NA,10.16949152542373,NA
44685,Summit County,OH,NA,79.66101694915254,NA
44691,Wayne County,OH,6.583072100313479,NA,12.562814070351758
44720,Stark County,OH,NA,18.983050847457626,NA
44870,Erie County,OH,30.721003134796238,NA,NA
45036,Warren County,OH,22.25705329153605,26.101694915254235,NA
45042,Butler County,OH,NA,36.94915254237288,NA
45231,Hamilton County,OH,NA,NA,12.060301507537687
45243,Hamilton County,OH,87.7742946708464,NA,NA
45365,Shelby County,OH,12.539184952978054,NA,NA
45410,Montgomery County,OH,NA,67.45762711864407,NA
45414,Montgomery County,OH,64.26332288401254,NA,NA
45619,Lawrence County,OH,NA,58.98305084745763,NA
45769,Meigs County,OH,64.57680250783699,NA,NA
45810,Hardin County,OH,NA,NA,88.94472361809045
45831,Putnam County,OH,NA,99.66101694915255,NA
73030,Murray County,OK,NA,86.10169491525423,NA
73034,Oklahoma County,OK,NA,NA,35.175879396984925
73080,McClain County,OK,80.87774294670847,NA,NA
73130,Oklahoma County,OK,NA,47.45762711864407,NA
73170,Cleveland County,OK,33.5423197492163,NA,NA
73533,Stephens County,OK,NA,11.525423728813559,NA
74020,Pawnee County,OK,NA,83.38983050847457,NA
74104,Tulsa County,OK,92.78996865203762,NA,NA
74107,Tulsa County,OK,NA,NA,77.38693467336684
74134,Tulsa County,OK,NA,88.8135593220339,NA
74820,Pontotoc County,OK,7.210031347962382,NA,NA
74960,Adair County,OK,61.12852664576802,NA,NA
97023,Clackamas County,OR,NA,96.61016949152543,NA
97035,Clackamas County,OR,NA,NA,67.8391959798995
97078,Washington County,OR,NA,85.42372881355932,NA
97086,Clackamas County,OR,NA,72.54237288135593,NA
97132,Yamhill County,OR,73.35423197492163,NA,NA
97217,Multnomah County,OR,NA,50.50847457627119,NA
97223,Washington County,OR,NA,23.728813559322035,NA
97233,Multnomah County,OR,16.927899686520377,NA,NA
97365,Lincoln County,OR,NA,41.35593220338983,NA
97374,Linn County,OR,NA,85.08474576271186,NA
97404,Lane County,OR,94.98432601880877,NA,NA
97420,Coos County,OR,50.78369905956113,NA,NA
97501,Jackson County,OR,7.523510971786834,NA,NA
97503,Jackson County,OR,65.8307210031348,NA,NA
97520,Jackson County,OR,82.13166144200626,NA,NA
97603,Klamath County,OR,NA,4.745762711864407,NA
97701,Deschutes County,OR,NA,NA,42.71356783919598
97741,Jefferson County,OR,NA,74.91525423728814,NA
97801,Umatilla County,OR,81.81818181818183,NA,NA
15005,Beaver County,PA,NA,81.01694915254237,NA
15084,Allegheny County,PA,NA,89.83050847457628,NA
15101,Allegheny County,PA,NA,54.23728813559322,NA
15137,Allegheny County,PA,62.695924764890286,NA,NA
15210,Allegheny County,PA,NA,77.96610169491525,NA
15216,Allegheny County,PA,56.112852664576806,NA,NA
15320,Greene County,PA,NA,86.4406779661017,NA
15601,Westmoreland County,PA,4.075235109717868,NA,NA
15666,Westmoreland County,PA,NA,32.88135593220339,NA
16335,Crawford County,PA,NA,9.152542372881356,NA
16502,Erie County,PA,NA,NA,91.95979899497488
16503,Erie County,PA,37.61755485893417,NA,NA
16504,Erie County,PA,NA,75.59322033898304,NA
16509,Erie County,PA,NA,33.220338983050844,30.15075376884422
16510,Erie County,PA,NA,44.74576271186441,NA
16648,Blair County,PA,83.69905956112854,NA,NA
17022,Lancaster County,PA,NA,52.88135593220339,NA
17051,Mifflin County,PA,NA,82.03389830508473,NA
17202,Franklin County,PA,NA,74.57627118644068,NA
17316,Adams County,PA,NA,82.71186440677965,NA
17363,York County,PA,NA,70.84745762711864,NA
17512,Lancaster County,PA,NA,NA,72.8643216080402
18036,Lehigh County,PA,69.59247648902821,NA,NA
18040,Northampton County,PA,NA,45.76271186440678,NA
18235,Carbon County,PA,66.14420062695925,NA,NA
18707,Luzerne County,PA,NA,NA,49.246231155778894
18902,Bucks County,PA,NA,76.27118644067797,NA
18944,Bucks County,PA,NA,46.779661016949156,NA
19006,Montgomery County,PA,49.843260188087775,NA,NA
19013,Delaware County,PA,NA,12.54237288135593,NA
19047,Bucks County,PA,58.307210031347964,NA,NA
19082,Delaware County,PA,10.658307210031348,NA,NA
19083,Delaware County,PA,29.780564263322884,NA,NA
19114,Philadelphia County,PA,21.003134796238246,NA,NA
19128,Philadelphia County,PA,NA,NA,37.185929648241206
19131,Philadelphia County,PA,NA,NA,8.040201005025125
19134,Philadelphia County,PA,NA,NA,89.44723618090453
19139,Philadelphia County,PA,NA,NA,23.618090452261306
19140,Philadelphia County,PA,2.8213166144200628,NA,NA
19141,Philadelphia County,PA,NA,NA,36.18090452261307
19143,Philadelphia County,PA,NA,0.6779661016949152,NA
19151,Philadelphia County,PA,14.106583072100312,NA,NA
19462,Montgomery County,PA,77.74294670846395,NA,NA
19464,Montgomery County,PA,NA,5.762711864406779,NA
19518,Berks County,PA,NA,NA,73.36683417085426
19547,Berks County,PA,95.92476489028213,NA,NA
19601,Berks County,PA,19.74921630094044,NA,NA
19606,Berks County,PA,NA,4.067796610169491,NA
02891,Washington County,RI,NA,NA,26.13065326633166
02895,Providence County,RI,12.225705329153605,NA,NA
29067,Lancaster County,SC,86.20689655172413,NA,NA
29206,Richland County,SC,NA,80.33898305084746,NA
29302,Spartanburg County,SC,78.36990595611285,NA,NA
29349,Spartanburg County,SC,NA,19.322033898305087,NA
29445,Berkeley County,SC,NA,65.42372881355932,NA
29464,Charleston County,SC,NA,NA,17.587939698492463
29485,Dorchester County,SC,29.46708463949843,NA,NA
29576,Horry County,SC,NA,NA,18.592964824120603
29582,Horry County,SC,NA,NA,57.286432160804026
29687,Greenville County,SC,NA,NA,55.27638190954774
29730,York County,SC,21.316614420062695,NA,NA
29909,Beaufort County,SC,NA,16.271186440677965,NA
29910,Beaufort County,SC,NA,40,NA
57104,Minnehaha County,SD,NA,5.084745762711865,52.76381909547738
57301,Davison County,SD,NA,NA,29.64824120603015
37062,Williamson County,TN,82.44514106583071,NA,NA
37066,Sumner County,TN,NA,8.47457627118644,NA
37075,Sumner County,TN,NA,5.423728813559322,NA
37110,Warren County,TN,17.55485893416928,64.40677966101694,NA
37128,Rutherford County,TN,NA,NA,63.81909547738693
37203,Davidson County,TN,NA,NA,89.44723618090453
37212,Davidson County,TN,91.22257053291536,NA,NA
37216,Davidson County,TN,NA,NA,81.4070351758794
37367,Bledsoe County,TN,NA,NA,68.84422110552764
37379,Hamilton County,TN,NA,30.16949152542373,NA
37601,Washington County,TN,NA,9.830508474576272,NA
37664,Sullivan County,TN,22.884012539184955,NA,NA
37803,Blount County,TN,NA,13.220338983050848,NA
37849,Knox County,TN,NA,53.559322033898304,NA
37865,Sevier County,TN,NA,NA,40.7035175879397
37918,Knox County,TN,47.02194357366771,NA,NA
38109,Shelby County,TN,11.598746081504702,NA,NA
38122,Shelby County,TN,NA,NA,70.85427135678391
38221,Benton County,TN,94.04388714733543,NA,NA
38237,Weakley County,TN,77.4294670846395,68.13559322033899,NA
38464,Lawrence County,TN,NA,30.847457627118647,NA
38572,Cumberland County,TN,NA,60.67796610169491,NA
75002,Collin County,TX,NA,26.779661016949152,NA
75024,Collin County,TX,98.7460815047022,NA,NA
75035,Collin County,TX,NA,NA,70.35175879396985
75067,Denton County,TX,35.10971786833856,NA,NA
75069,Collin County,TX,NA,NA,30.65326633165829
75070,Collin County,TX,16.30094043887147,NA,NA
75075,Collin County,TX,86.83385579937304,NA,NA
75173,Collin County,TX,93.41692789968651,NA,NA
75189,Rockwall County,TX,47.33542319749217,NA,NA
75218,Dallas County,TX,76.17554858934169,NA,NA
75232,Dallas County,TX,NA,43.728813559322035,NA
75248,Dallas County,TX,NA,NA,42.211055276381906
75503,Bowie County,TX,52.66457680250783,NA,NA
75766,Cherokee County,TX,NA,61.694915254237294,NA
75904,Angelina County,TX,NA,13.898305084745763,NA
76011,Tarrant County,TX,NA,63.05084745762712,NA
76014,Tarrant County,TX,49.843260188087775,NA,NA
76028,Johnson County,TX,11.912225705329153,3.389830508474576,NA
76039,Tarrant County,TX,39.811912225705335,NA,NA
76049,Hood County,TX,NA,18.305084745762713,61.80904522613066
76067,Palo Pinto County,TX,NA,60,NA
76109,Tarrant County,TX,58.620689655172406,NA,NA
76112,Tarrant County,TX,NA,14.237288135593221,NA
76131,Tarrant County,TX,NA,66.10169491525424,NA
76133,Tarrant County,TX,NA,20.677966101694913,NA
76208,Denton County,TX,NA,50.847457627118644,NA
76226,Denton County,TX,NA,NA,85.92964824120602
76384,Wilbarger County,TX,NA,NA,80.90452261306532
76513,Bell County,TX,66.4576802507837,NA,NA
76549,Bell County,TX,NA,31.52542372881356,NA
76667,Limestone County,TX,NA,NA,51.75879396984925
77026,Harris County,TX,55.172413793103445,NA,NA
77027,Harris County,TX,83.38557993730407,NA,NA
77048,Harris County,TX,NA,NA,84.42211055276381
77058,Harris County,TX,NA,NA,87.93969849246231
77070,Harris County,TX,NA,NA,38.69346733668342
77340,Walker County,TX,NA,NA,64.321608040201
77511,Brazoria County,TX,15.987460815047022,NA,NA
77535,Liberty County,TX,NA,48.47457627118644,NA
77554,Galveston County,TX,NA,48.13559322033898,NA
77573,Galveston County,TX,NA,3.728813559322034,NA
77657,Hardin County,TX,NA,87.11864406779661,NA
77665,Chambers County,TX,88.08777429467085,NA,NA
77807,Brazos County,TX,NA,73.5593220338983,NA
77833,Washington County,TX,NA,26.440677966101696,NA
78114,Wilson County,TX,NA,NA,100
78130,Comal County,TX,25.07836990595611,NA,NA
78207,Bexar County,TX,22.570532915360502,NA,NA
78223,Bexar County,TX,NA,30.508474576271187,NA
78227,Bexar County,TX,38.87147335423197,NA,NA
78228,Bexar County,TX,NA,32.54237288135593,NA
78237,Bexar County,TX,31.03448275862069,NA,NA
78418,Nueces County,TX,NA,80.67796610169492,NA
78501,Hidalgo County,TX,NA,NA,13.5678391959799
78566,Cameron County,TX,89.0282131661442,NA,NA
78583,Cameron County,TX,NA,93.89830508474576,NA
78586,Cameron County,TX,NA,NA,34.67336683417086
78602,Bastrop County,TX,NA,NA,57.78894472361809
78665,Williamson County,TX,NA,NA,72.36180904522614
78737,Hays County,TX,NA,89.49152542372882,NA
79602,Taylor County,TX,NA,55.932203389830505,NA
79705,Midland County,TX,NA,34.23728813559322,NA
79706,Midland County,TX,NA,70.50847457627118,NA
79904,El Paso County,TX,NA,61.016949152542374,NA
79928,El Paso County,TX,NA,66.44067796610169,NA
84025,Davis County,UT,76.48902821316614,NA,NA
84119,Salt Lake County,UT,13.166144200626958,NA,NA
84332,Cache County,UT,97.17868338557993,NA,NA
84528,Emery County,UT,100,NA,NA
84601,Utah County,UT,NA,NA,92.96482412060301
05201,Bennington County,VT,78.0564263322884,NA,NA
05468,Chittenden County,VT,NA,NA,59.798994974874375
20105,Loudoun County,VA,84.32601880877742,NA,NA
22015,Fairfax County,VA,53.29153605015674,NA,NA
22041,Fairfax County,VA,NA,NA,63.31658291457286
22152,Fairfax County,VA,NA,72.88135593220339,NA
22602,Frederick County,VA,NA,56.949152542372886,NA
22980,Waynesboro city,VA,NA,NA,4.0201005025125625
23220,Richmond city,VA,63.00940438871473,NA,NA
23231,Henrico County,VA,NA,16.94915254237288,NA
23237,Chesterfield County,VA,NA,63.389830508474574,NA
23518,Norfolk city,VA,NA,NA,20.603015075376884
23606,Newport News city,VA,NA,65.76271186440678,NA
24015,Roanoke city,VA,NA,78.30508474576271,NA
24017,Roanoke city,VA,NA,44.40677966101695,NA
24078,Henry County,VA,84.01253918495298,NA,NA
24153,Salem city,VA,NA,NA,21.105527638190953
24219,Wise County,VA,42.94670846394985,NA,NA
98001,King County,WA,NA,NA,62.311557788944725
98008,King County,WA,87.14733542319749,NA,NA
98012,Snohomish County,WA,31.661442006269592,NA,NA
98026,Snohomish County,WA,NA,32.20338983050847,NA
98056,King County,WA,55.79937304075236,NA,NA
98092,King County,WA,26.64576802507837,NA,NA
98225,Whatcom County,WA,55.4858934169279,NA,NA
98332,Pierce County,WA,NA,NA,84.92462311557789
98335,Pierce County,WA,NA,34.91525423728813,NA
98368,Jefferson County,WA,NA,23.050847457627118,NA
98387,Pierce County,WA,26.01880877742947,NA,NA
98407,Pierce County,WA,70.84639498432603,NA,NA
98444,Pierce County,WA,NA,69.15254237288136,NA
98502,Thurston County,WA,85.26645768025078,NA,NA
98908,Yakima County,WA,NA,NA,13.5678391959799
99205,Spokane County,WA,43.260188087774296,NA,NA
99207,Spokane County,WA,NA,63.389830508474574,NA
99208,Spokane County,WA,NA,27.796610169491526,NA
99218,Spokane County,WA,NA,NA,75.37688442211056
99362,Walla Walla County,WA,NA,NA,8.542713567839195
20007,District of Columbia,DC,NA,69.83050847457626,NA
24901,Greenbrier County,WV,NA,71.1864406779661,NA
25560,Putnam County,WV,NA,NA,74.37185929648241
26003,Ohio County,WV,NA,2.711864406779661,NA
26164,Jackson County,WV,62.38244514106584,NA,NA
26287,Tucker County,WV,NA,NA,94.47236180904522
26301,Harrison County,WV,5.956112852664576,NA,NA
26554,Marion County,WV,NA,14.915254237288137,NA
53005,Waukesha County,WI,42.63322884012539,NA,NA
53089,Waukesha County,WI,NA,75.9322033898305,NA
53154,Milwaukee County,WI,24.45141065830721,NA,NA
53566,Green County,WI,NA,57.6271186440678,NA
53901,Columbia County,WI,70.53291536050156,NA,50.25125628140703
54110,Calumet County,WI,91.84952978056427,NA,NA
54115,Brown County,WI,48.275862068965516,NA,NA
54552,Price County,WI,NA,NA,76.38190954773869
54555,Price County,WI,NA,NA,96.4824120603015
82801,Sheridan County,WY,NA,66.77966101694915,NA
