ZipCode,county,state,Youth,Pediatric,Adult
35208,Jefferson County,AL,NA,75.65217391304347,NA
35222,Jefferson County,AL,NA,NA,93.04123711340206
35228,Jefferson County,AL,NA,74.34782608695653,NA
35234,Jefferson County,AL,61.258278145695364,NA,NA
35611,Limestone County,AL,18.211920529801322,NA,NA
35633,Lauderdale County,AL,53.31125827814569,NA,NA
35653,Franklin County,AL,NA,66.95652173913044,NA
35749,Madison County,AL,NA,NA,56.70103092783505
35950,Marshall County,AL,63.576158940397356,NA,NA
36201,Calhoun County,AL,NA,NA,33.76288659793815
36272,Calhoun County,AL,NA,68.69565217391305,NA
36460,Monroe County,AL,NA,95.65217391304348,NA
36551,Baldwin County,AL,93.70860927152319,NA,NA
36617,Mobile County,AL,NA,77.39130434782608,NA
36618,Mobile County,AL,NA,66.08695652173913,NA
36853,Tallapoosa County,AL,NA,94.78260869565217,NA
99507,Anchorage Municipality,AK,NA,NA,40.72164948453608
99508,Anchorage Municipality,AK,NA,23.91304347826087,NA
85048,Maricopa County,AZ,29.47019867549669,NA,NA
85050,Maricopa County,AZ,35.099337748344375,NA,85.05154639175258
85138,Pinal County,AZ,22.185430463576157,NA,NA
85204,Maricopa County,AZ,NA,NA,17.525773195876287
85212,Maricopa County,AZ,NA,NA,65.4639175257732
85248,Maricopa County,AZ,NA,NA,65.72164948453609
85255,Maricopa County,AZ,47.35099337748344,NA,NA
85295,Maricopa County,AZ,32.11920529801324,NA,NA
85355,Maricopa County,AZ,82.45033112582782,NA,NA
85365,Yuma County,AZ,NA,48.69565217391305,NA
85530,Graham County,AZ,NA,47.82608695652174,NA
85602,Cochise County,AZ,NA,NA,97.9381443298969
85653,Pima County,AZ,NA,NA,44.329896907216494
85737,Pima County,AZ,NA,NA,70.87628865979381
85748,Pima County,AZ,NA,NA,85.56701030927834
85901,Navajo County,AZ,NA,NA,59.5360824742268
86401,Mohave County,AZ,NA,60.43478260869565,NA
72042,Arkansas County,AR,NA,NA,98.19587628865979
72223,Pulaski County,AR,52.980132450331126,NA,85.82474226804123
72703,Washington County,AR,59.93377483443708,NA,NA
90001,Los Angeles County,CA,NA,NA,54.89690721649485
90274,Los Angeles County,CA,NA,NA,89.94845360824742
90504,Los Angeles County,CA,66.88741721854305,NA,NA
90650,Los Angeles County,CA,NA,26.08695652173913,NA
91106,Los Angeles County,CA,NA,NA,94.3298969072165
91344,Los Angeles County,CA,NA,NA,51.546391752577314
91730,San Bernardino County,CA,NA,NA,26.288659793814436
91745,Los Angeles County,CA,NA,NA,73.19587628865979
91786,San Bernardino County,CA,NA,40,NA
91792,Los Angeles County,CA,NA,NA,73.71134020618557
92118,San Diego County,CA,NA,NA,93.55670103092784
92119,San Diego County,CA,84.43708609271523,NA,NA
92122,San Diego County,CA,81.12582781456953,NA,NA
92203,Riverside County,CA,NA,91.30434782608695,NA
92243,Imperial County,CA,NA,25.217391304347824,NA
92325,San Bernardino County,CA,NA,NA,87.88659793814433
92802,Orange County,CA,NA,38.69565217391304,NA
92805,Orange County,CA,NA,NA,31.958762886597935
92835,Orange County,CA,NA,NA,83.76288659793815
93033,Ventura County,CA,NA,6.956521739130435,NA
93230,Kings County,CA,NA,NA,24.742268041237114
93274,Tulare County,CA,4.966887417218543,NA,NA
93291,Tulare County,CA,NA,NA,27.31958762886598
93308,Kern County,CA,NA,53.91304347826087,NA
93312,Kern County,CA,NA,75.65217391304347,NA
93436,Santa Barbara County,CA,NA,NA,54.63917525773196
93446,San Luis Obispo County,CA,NA,14.347826086956522,NA
93455,Santa Barbara County,CA,NA,46.52173913043478,NA
93611,Fresno County,CA,NA,NA,44.58762886597938
93615,Tulare County,CA,NA,89.56521739130436,NA
93630,Fresno County,CA,NA,NA,95.61855670103093
93643,Madera County,CA,NA,99.1304347826087,NA
93657,Fresno County,CA,NA,NA,64.43298969072166
94066,San Mateo County,CA,63.90728476821192,NA,NA
94080,San Mateo County,CA,83.11258278145695,NA,NA
94303,San Mateo County,CA,NA,NA,34.5360824742268
94505,Contra Costa County,CA,85.09933774834437,NA,NA
94507,Contra Costa County,CA,86.09271523178808,NA,NA
94513,Contra Costa County,CA,23.841059602649008,NA,NA
94517,Contra Costa County,CA,NA,NA,97.16494845360825
94519,Contra Costa County,CA,91.3907284768212,NA,NA
94530,Contra Costa County,CA,75.82781456953643,NA,NA
94539,Alameda County,CA,NA,NA,86.08247422680412
94541,Alameda County,CA,NA,33.91304347826087,NA
94561,Contra Costa County,CA,33.443708609271525,NA,NA
94582,Contra Costa County,CA,58.609271523178805,NA,NA
94589,Solano County,CA,NA,NA,66.23711340206185
94611,Alameda County,CA,59.60264900662252,NA,NA
94621,Alameda County,CA,NA,NA,37.88659793814433
94901,Marin County,CA,NA,NA,62.628865979381445
95023,San Benito County,CA,NA,29.130434782608695,NA
95118,Santa Clara County,CA,NA,NA,69.0721649484536
95124,Santa Clara County,CA,83.44370860927152,NA,NA
95127,Santa Clara County,CA,NA,48.26086956521739,NA
95136,Santa Clara County,CA,NA,92.6086956521739,NA
95320,San Joaquin County,CA,NA,NA,78.6082474226804
95340,Merced County,CA,43.377483443708606,NA,NA
95358,Stanislaus County,CA,NA,NA,36.340206185567006
95467,Lake County,CA,92.71523178807946,NA,NA
95687,Solano County,CA,NA,NA,45.618556701030926
95691,Yolo County,CA,NA,80.43478260869566,NA
95713,Placer County,CA,96.35761589403974,NA,NA
95965,Butte County,CA,NA,NA,25.51546391752577
96093,Trinity County,CA,NA,NA,98.71134020618557
80016,Arapahoe County,CO,NA,NA,63.65979381443299
80020,Broomfield County,CO,NA,NA,50.77319587628865
80022,Adams County,CO,NA,NA,21.90721649484536
80023,Broomfield County,CO,44.03973509933775,NA,NA
80109,Douglas County,CO,41.72185430463576,NA,75.25773195876289
80132,El Paso County,CO,67.88079470198676,NA,NA
80205,Denver County,CO,NA,45.21739130434783,NA
80216,Denver County,CO,NA,46.52173913043478,NA
80241,Adams County,CO,73.84105960264901,NA,NA
80305,Boulder County,CO,NA,NA,96.64948453608247
80403,Jefferson County,CO,53.64238410596026,NA,NA
80503,Boulder County,CO,49.00662251655629,NA,NA
80513,Larimer County,CO,NA,93.47826086956522,NA
80525,Larimer County,CO,NA,41.30434782608695,20.618556701030926
80601,Adams County,CO,19.5364238410596,NA,NA
80701,Morgan County,CO,NA,NA,28.865979381443296
80734,Phillips County,CO,90.06622516556291,NA,NA
80831,El Paso County,CO,NA,73.04347826086956,NA
81008,Pueblo County,CO,NA,NA,87.62886597938144
81416,Delta County,CO,NA,70,NA
81625,Moffat County,CO,NA,NA,47.42268041237113
06037,Hartford County,CT,NA,NA,78.8659793814433
06095,Hartford County,CT,NA,60.86956521739131,NA
06451,New Haven County,CT,NA,NA,31.443298969072163
06606,Fairfield County,CT,17.880794701986755,NA,NA
06704,New Haven County,CT,NA,35.21739130434783,NA
06790,Litchfield County,CT,NA,31.73913043478261,NA
06878,Fairfield County,CT,88.0794701986755,NA,NA
06902,Fairfield County,CT,NA,19.565217391304348,NA
19958,Sussex County,DE,NA,NA,40.97938144329897
19963,Sussex County,DE,NA,56.52173913043478,NA
19966,Sussex County,DE,NA,43.47826086956522,NA
19973,Sussex County,DE,NA,29.565217391304348,NA
19977,Kent County,DE,NA,NA,30.412371134020617
32159,Lake County,FL,NA,83.91304347826087,NA
32211,Duval County,FL,NA,43.04347826086957,NA
32257,Duval County,FL,40.397350993377486,NA,NA
32535,Escambia County,FL,80.4635761589404,NA,NA
32583,Santa Rosa County,FL,NA,NA,33.24742268041237
32619,Gilchrist County,FL,NA,63.04347826086957,NA
32808,Orange County,FL,NA,16.52173913043478,NA
32818,Orange County,FL,NA,52.60869565217391,NA
32907,Brevard County,FL,NA,NA,55.670103092783506
33013,Miami-Dade County,FL,NA,NA,76.80412371134021
33134,Miami-Dade County,FL,NA,NA,81.70103092783505
33165,Miami-Dade County,FL,31.125827814569533,NA,NA
33196,Miami-Dade County,FL,NA,36.08695652173913,NA
33321,Broward County,FL,54.3046357615894,NA,NA
33458,Palm Beach County,FL,NA,65.65217391304347,NA
33542,Pasco County,FL,NA,NA,63.144329896907216
33773,Pinellas County,FL,NA,NA,74.22680412371135
33993,Lee County,FL,NA,NA,57.47422680412371
34465,Citrus County,FL,NA,83.91304347826087,NA
34787,Orange County,FL,60.59602649006622,NA,NA
30008,Cobb County,GA,NA,NA,70.36082474226805
30011,Barrow County,GA,NA,NA,76.28865979381443
30062,Cobb County,GA,24.17218543046358,NA,NA
30096,Gwinnett County,GA,NA,36.95652173913043,NA
30132,Paulding County,GA,32.450331125827816,NA,NA
30141,Paulding County,GA,NA,81.30434782608695,NA
30265,Coweta County,GA,NA,NA,58.76288659793815
30281,Henry County,GA,NA,NA,32.7319587628866
30629,Madison County,GA,NA,97.3913043478261,NA
30635,Elbert County,GA,NA,85.65217391304348,NA
31036,Pulaski County,GA,NA,NA,77.31958762886599
31537,Charlton County,GA,82.11920529801324,NA,NA
31639,Berrien County,GA,NA,NA,83.50515463917526
96786,Honolulu County,HI,NA,NA,40.20618556701031
96817,Honolulu County,HI,NA,22.17391304347826,NA
83301,Twin Falls County,ID,NA,30,NA
83501,Nez Perce County,ID,NA,43.913043478260875,NA
83634,Ada County,ID,NA,68.26086956521739,NA
83646,Ada County,ID,38.741721854304636,NA,NA
83647,Elmore County,ID,NA,50,NA
83686,Canyon County,ID,NA,NA,10.824742268041238
83714,Ada County,ID,NA,56.086956521739125,NA
83858,Kootenai County,ID,NA,NA,94.84536082474226
60008,Cook County,IL,87.41721854304636,NA,NA
60013,McHenry County,IL,NA,NA,64.94845360824742
60062,Cook County,IL,29.80132450331126,NA,NA
60089,Lake County,IL,NA,NA,47.680412371134025
60108,DuPage County,IL,66.55629139072848,NA,NA
60110,Kane County,IL,NA,NA,56.95876288659794
60190,DuPage County,IL,NA,NA,82.4742268041237
60462,Cook County,IL,NA,NA,66.75257731958763
60463,Cook County,IL,NA,NA,80.41237113402062
60487,Cook County,IL,51.65562913907284,NA,NA
60521,DuPage County,IL,46.35761589403973,NA,NA
60538,Kendall County,IL,30.4635761589404,NA,NA
60540,DuPage County,IL,21.52317880794702,NA,NA
60586,Will County,IL,NA,NA,19.072164948453608
60618,Cook County,IL,8.609271523178808,NA,NA
60623,Cook County,IL,NA,NA,9.536082474226804
60637,Cook County,IL,NA,NA,20.618556701030926
60644,Cook County,IL,26.82119205298013,NA,NA
60645,Cook County,IL,NA,NA,43.55670103092783
60657,Cook County,IL,41.72185430463576,NA,NA
60707,Cook County,IL,36.092715231788084,NA,NA
61032,Stephenson County,IL,NA,NA,42.01030927835052
61065,Boone County,IL,NA,NA,76.03092783505154
61101,Winnebago County,IL,NA,NA,82.21649484536083
61103,Winnebago County,IL,NA,NA,61.34020618556701
61360,LaSalle County,IL,NA,NA,97.42268041237114
61362,Bureau County,IL,94.70198675496688,NA,NA
61547,Peoria County,IL,99.33774834437085,NA,NA
61704,McLean County,IL,51.65562913907284,NA,46.134020618556704
61866,Champaign County,IL,NA,NA,77.57731958762886
62040,Madison County,IL,NA,NA,26.804123711340207
62226,St. Clair County,IL,57.94701986754966,NA,NA
62401,Effingham County,IL,NA,NA,70.61855670103093
62454,Crawford County,IL,NA,NA,92.5257731958763
62521,Macon County,IL,12.251655629139073,NA,NA
62896,Franklin County,IL,70.52980132450331,NA,NA
62946,Saline County,IL,NA,NA,84.5360824742268
46012,Madison County,IN,NA,NA,45.103092783505154
46013,Madison County,IN,NA,66.52173913043478,NA
46112,Hendricks County,IN,NA,NA,61.855670103092784
46151,Morgan County,IN,60.264900662251655,NA,NA
46227,Marion County,IN,NA,NA,12.11340206185567
46241,Marion County,IN,NA,NA,26.54639175257732
46307,Lake County,IN,1.6556291390728477,NA,NA
46311,Lake County,IN,NA,NA,39.175257731958766
46312,Lake County,IN,NA,37.391304347826086,NA
46322,Lake County,IN,53.973509933774835,NA,NA
46342,Lake County,IN,NA,NA,7.731958762886598
46360,LaPorte County,IN,3.3112582781456954,NA,NA
46385,Porter County,IN,NA,NA,9.793814432989691
46514,Elkhart County,IN,56.622516556291394,NA,NA
46563,Marshall County,IN,NA,NA,47.93814432989691
46615,St. Joseph County,IN,NA,NA,79.89690721649485
46804,Allen County,IN,54.966887417218544,NA,NA
46814,Allen County,IN,76.15894039735099,NA,NA
46901,Howard County,IN,9.933774834437086,NA,NA
47220,Jackson County,IN,NA,NA,92.78350515463917
47240,Decatur County,IN,NA,73.04347826086956,NA
47710,Vanderburgh County,IN,NA,NA,42.78350515463917
47904,Tippecanoe County,IN,NA,NA,66.49484536082474
50036,Boone County,IA,NA,68.69565217391305,NA
50213,Clarke County,IA,NA,91.30434782608695,NA
50314,Polk County,IA,NA,NA,52.31958762886598
50317,Polk County,IA,NA,30.869565217391305,NA
51040,Monona County,IA,NA,85.65217391304348,NA
51632,Page County,IA,NA,82.17391304347827,NA
52302,Linn County,IA,48.675496688741724,NA,NA
52402,Linn County,IA,NA,NA,25.773195876288657
52501,Wapello County,IA,NA,50.8695652173913,NA
52748,Scott County,IA,NA,NA,88.14432989690721
66102,Wyandotte County,KS,NA,NA,59.79381443298969
66214,Johnson County,KS,NA,NA,91.49484536082474
66216,Johnson County,KS,39.0728476821192,NA,NA
66605,Shawnee County,KS,80.13245033112582,NA,NA
67114,Harvey County,KS,NA,NA,82.9896907216495
67208,Sedgwick County,KS,NA,NA,82.9896907216495
67217,Sedgwick County,KS,30.132450331125828,NA,NA
67432,Clay County,KS,NA,NA,95.87628865979381
40165,Bullitt County,KY,NA,NA,17.010309278350515
40214,Jefferson County,KY,NA,30.434782608695656,9.278350515463918
40245,Jefferson County,KY,NA,NA,56.18556701030928
40390,Jessamine County,KY,91.3907284768212,NA,NA
40475,Madison County,KY,27.483443708609272,NA,NA
40504,Fayette County,KY,NA,41.30434782608695,NA
40906,Knox County,KY,NA,NA,71.64948453608247
41139,Greenup County,KY,64.90066225165563,NA,NA
41164,Carter County,KY,NA,NA,39.948453608247426
41171,Elliott County,KY,NA,80.43478260869566,NA
41522,Pike County,KY,NA,NA,80.15463917525774
42003,McCracken County,KY,NA,NA,18.814432989690722
42101,Warren County,KY,14.90066225165563,NA,NA
42164,Allen County,KY,NA,NA,46.90721649484536
42501,Pulaski County,KY,38.079470198675494,NA,NA
42718,Taylor County,KY,NA,NA,15.463917525773196
70001,Jefferson Parish,LA,10.927152317880795,NA,NA
70043,St. Bernard Parish,LA,NA,NA,20.103092783505154
70373,Lafourche Parish,LA,67.54966887417218,NA,NA
70394,Lafourche Parish,LA,28.14569536423841,NA,NA
70438,Washington Parish,LA,NA,NA,16.237113402061855
70461,St. Tammany Parish,LA,NA,22.608695652173914,NA
70563,Iberia Parish,LA,41.390728476821195,NA,NA
70802,East Baton Rouge Parish,LA,3.9735099337748347,NA,NA
71101,Caddo Parish,LA,85.76158940397352,NA,NA
71106,Caddo Parish,LA,4.635761589403973,8.26086956521739,NA
71109,Caddo Parish,LA,NA,5.6521739130434785,NA
71119,Caddo Parish,LA,NA,35.65217391304348,NA
71301,Rapides Parish,LA,NA,31.73913043478261,NA
71449,Sabine Parish,LA,67.21854304635761,NA,NA
03904,York County,ME,NA,NA,81.95876288659794
04005,York County,ME,NA,37.391304347826086,NA
04039,Cumberland County,ME,71.8543046357616,NA,NA
04901,Kennebec County,ME,NA,NA,7.216494845360824
20678,Calvert County,MD,72.84768211920529,NA,NA
21117,Baltimore County,MD,NA,NA,36.08247422680412
21201,Baltimore city,MD,NA,NA,53.09278350515464
21221,Baltimore County,MD,45.033112582781456,98.69565217391305,NA
21801,Wicomico County,MD,NA,NA,69.84536082474226
01002,Hampshire County,MA,NA,NA,46.391752577319586
01062,Hampshire County,MA,NA,NA,79.38144329896907
01085,Hampden County,MA,NA,64.34782608695652,NA
01151,Hampden County,MA,NA,NA,34.02061855670103
01201,Berkshire County,MA,NA,NA,0
01238,Berkshire County,MA,NA,NA,60.567010309278345
01301,Franklin County,MA,NA,4.782608695652174,NA
01570,Worcester County,MA,15.562913907284766,15.217391304347828,NA
01605,Worcester County,MA,NA,3.91304347826087,NA
01841,Essex County,MA,0.6622516556291391,0.8695652173913043,NA
01844,Essex County,MA,3.642384105960265,NA,NA
01851,Middlesex County,MA,NA,NA,18.298969072164947
01852,Middlesex County,MA,NA,NA,0.25773195876288657
01886,Middlesex County,MA,25.496688741721858,NA,NA
02019,Norfolk County,MA,65.23178807947019,NA,NA
02128,Suffolk County,MA,2.980132450331126,NA,NA
02139,Middlesex County,MA,NA,NA,1.0309278350515463
02149,Middlesex County,MA,NA,1.3043478260869565,0.5154639175257731
02150,Suffolk County,MA,0,NA,NA
02302,Plymouth County,MA,NA,NA,2.5773195876288657
02341,Plymouth County,MA,NA,NA,48.1958762886598
02360,Plymouth County,MA,7.28476821192053,NA,NA
02382,Plymouth County,MA,37.74834437086093,NA,NA
02421,Middlesex County,MA,NA,100,NA
02459,Middlesex County,MA,50.66225165562914,NA,NA
02474,Middlesex County,MA,39.40397350993378,NA,NA
02492,Norfolk County,MA,65.89403973509934,NA,NA
02645,Barnstable County,MA,NA,NA,89.69072164948454
02664,Barnstable County,MA,NA,NA,62.88659793814433
02780,Bristol County,MA,NA,NA,1.2886597938144329
48003,Lapeer County,MI,NA,92.17391304347827,NA
48025,Oakland County,MI,NA,NA,84.27835051546391
48038,Macomb County,MI,15.894039735099339,NA,NA
48067,Oakland County,MI,71.19205298013244,NA,NA
48073,Oakland County,MI,NA,NA,35.051546391752574
48111,Wayne County,MI,9.602649006622517,NA,NA
48116,Livingston County,MI,23.509933774834437,NA,NA
48124,Wayne County,MI,NA,55.65217391304348,NA
48130,Washtenaw County,MI,57.284768211920536,NA,NA
48170,Wayne County,MI,NA,85.65217391304348,NA
48180,Wayne County,MI,NA,27.391304347826086,NA
48182,Monroe County,MI,45.033112582781456,NA,NA
48184,Wayne County,MI,22.516556291390728,NA,NA
48192,Wayne County,MI,NA,NA,25.257731958762886
48205,Wayne County,MI,NA,NA,5.927835051546391
48213,Wayne County,MI,NA,NA,13.65979381443299
48307,Oakland County,MI,NA,NA,25
48314,Macomb County,MI,NA,NA,48.71134020618557
48371,Oakland County,MI,NA,NA,44.072164948453604
48438,Genesee County,MI,83.44370860927152,NA,NA
48444,Lapeer County,MI,62.251655629139066,NA,NA
48626,Saginaw County,MI,NA,NA,86.5979381443299
48653,Roscommon County,MI,NA,NA,81.44329896907216
48708,Bay County,MI,NA,NA,10.309278350515463
48723,Tuscola County,MI,NA,NA,34.27835051546392
48763,Iosco County,MI,94.70198675496688,NA,NA
48875,Ionia County,MI,93.04635761589404,NA,NA
48895,Ingham County,MI,NA,NA,95.36082474226805
48911,Ingham County,MI,NA,NA,9.02061855670103
48917,Eaton County,MI,14.23841059602649,NA,NA
49004,Kalamazoo County,MI,75.16556291390728,NA,NA
49009,Kalamazoo County,MI,NA,NA,14.948453608247423
49022,Berrien County,MI,NA,NA,12.371134020618557
49047,Cass County,MI,NA,80,NA
49068,Calhoun County,MI,84.10596026490066,NA,NA
49120,Berrien County,MI,NA,NA,18.04123711340206
49203,Jackson County,MI,NA,NA,36.597938144329895
49221,Lenawee County,MI,NA,NA,5.670103092783505
49328,Allegan County,MI,NA,NA,99.22680412371135
49417,Ottawa County,MI,35.76158940397351,NA,NA
49424,Ottawa County,MI,13.57615894039735,NA,NA
49431,Mason County,MI,18.874172185430464,NA,NA
49441,Muskegon County,MI,NA,NA,15.206185567010309
49735,Otsego County,MI,NA,NA,39.43298969072165
49841,Marquette County,MI,69.20529801324503,NA,NA
49849,Marquette County,MI,NA,54.78260869565217,NA
55057,Rice County,MN,NA,NA,96.3917525773196
55102,Ramsey County,MN,NA,NA,35.30927835051546
55104,Ramsey County,MN,NA,NA,52.0618556701031
55113,Ramsey County,MN,NA,NA,55.412371134020624
55118,Dakota County,MN,34.105960264900666,NA,NA
55125,Washington County,MN,35.099337748344375,NA,NA
55127,Ramsey County,MN,NA,NA,72.16494845360825
55303,Anoka County,MN,NA,NA,24.22680412371134
55349,Wright County,MN,98.01324503311258,NA,NA
55363,Wright County,MN,NA,99.1304347826087,NA
55372,Scott County,MN,NA,NA,67.26804123711341
55404,Hennepin County,MN,6.95364238410596,NA,NA
55408,Hennepin County,MN,NA,52.17391304347826,NA
55411,Hennepin County,MN,NA,6.086956521739131,NA
55412,Hennepin County,MN,NA,NA,40.4639175257732
55428,Hennepin County,MN,NA,33.47826086956522,NA
55804,St. Louis County,MN,NA,NA,75.77319587628865
55901,Olmsted County,MN,NA,NA,31.70103092783505
55964,Wabasha County,MN,NA,78.26086956521739,NA
56026,Steele County,MN,99.66887417218543,NA,NA
56093,Waseca County,MN,NA,NA,75.51546391752578
56156,Rock County,MN,70.19867549668875,NA,NA
56187,Nobles County,MN,NA,NA,90.4639175257732
56479,Todd County,MN,NA,81.73913043478261,NA
56560,Clay County,MN,NA,5.217391304347826,NA
38824,Prentiss County,MS,NA,NA,92.26804123711341
39095,Holmes County,MS,NA,65.21739130434783,NA
39503,Harrison County,MS,NA,14.782608695652174,NA
39532,Harrison County,MS,NA,NA,49.48453608247423
39563,Jackson County,MS,71.8543046357616,NA,NA
63016,Jefferson County,MO,NA,83.04347826086956,NA
63017,St. Louis County,MO,49.337748344370866,NA,NA
63020,Jefferson County,MO,NA,NA,68.29896907216495
63021,St. Louis County,MO,28.47682119205298,NA,NA
63026,St. Louis County,MO,34.437086092715234,NA,NA
63105,St. Louis County,MO,79.13907284768213,NA,NA
63114,St. Louis County,MO,NA,26.521739130434785,NA
63129,St. Louis County,MO,NA,NA,51.80412371134021
63135,St. Louis County,MO,NA,25.65217391304348,NA
63301,St. Charles County,MO,NA,NA,16.752577319587626
63901,Butler County,MO,2.6490066225165565,NA,NA
64029,Jackson County,MO,30.4635761589404,NA,NA
64030,Jackson County,MO,NA,NA,23.969072164948454
64063,Jackson County,MO,NA,53.91304347826087,NA
64081,Jackson County,MO,NA,93.47826086956522,NA
64114,Jackson County,MO,54.966887417218544,NA,NA
64127,Jackson County,MO,37.41721854304636,NA,NA
64131,Jackson County,MO,NA,NA,17.783505154639176
64772,Vernon County,MO,51.324503311258276,NA,NA
65301,Pettis County,MO,11.589403973509933,NA,NA
59270,Richland County,MT,90.39735099337747,NA,NA
59715,Gallatin County,MT,NA,NA,59.02061855670103
59752,Gallatin County,MT,98.67549668874173,NA,NA
68023,Washington County,NE,89.73509933774835,NA,NA
68046,Sarpy County,NE,NA,96.08695652173913,NA
89115,Clark County,NV,NA,38.26086956521739,NA
89142,Clark County,NV,NA,NA,71.90721649484536
89149,Clark County,NV,65.23178807947019,NA,NA
89431,Washoe County,NV,NA,NA,27.835051546391753
03054,Hillsborough County,NH,47.019867549668874,NA,38.402061855670105
03076,Hillsborough County,NH,NA,NA,51.28865979381443
03079,Rockingham County,NH,NA,90,NA
03104,Hillsborough County,NH,NA,50.8695652173913,NA
03276,Merrimack County,NH,NA,85.21739130434783,NA
03570,Coos County,NH,NA,NA,90.97938144329896
03766,Grafton County,NH,94.37086092715232,NA,NA
03820,Strafford County,NH,28.807947019867548,NA,NA
07002,Hudson County,NJ,NA,12.173913043478262,NA
07011,Passaic County,NJ,NA,11.73913043478261,NA
07035,Morris County,NJ,NA,NA,68.29896907216495
07055,Passaic County,NJ,27.1523178807947,NA,NA
07424,Passaic County,NJ,NA,NA,46.649484536082475
07452,Bergen County,NJ,92.3841059602649,NA,NA
07522,Passaic County,NJ,NA,17.82608695652174,NA
07871,Sussex County,NJ,88.41059602649007,NA,NA
08004,Camden County,NJ,NA,86.95652173913044,NA
08015,Burlington County,NJ,NA,NA,52.57731958762887
08030,Camden County,NJ,80.4635761589404,NA,NA
08036,Burlington County,NJ,NA,70.43478260869566,NA
08046,Burlington County,NJ,NA,NA,8.762886597938143
08070,Salem County,NJ,NA,84.78260869565217,NA
08302,Cumberland County,NJ,NA,NA,2.8350515463917527
08318,Salem County,NJ,NA,NA,63.91752577319587
08536,Middlesex County,NJ,NA,NA,98.96907216494846
08610,Mercer County,NJ,NA,NA,10.051546391752577
08723,Ocean County,NJ,NA,55.21739130434783,21.1340206185567
08879,Middlesex County,NJ,74.83443708609272,NA,NA
08886,Warren County,NJ,91.05960264900662,NA,NA
87105,Bernalillo County,NM,NA,8.695652173913043,NA
87106,Bernalillo County,NM,21.85430463576159,NA,NA
87109,Bernalillo County,NM,NA,NA,23.711340206185564
87110,Bernalillo County,NM,NA,NA,14.175257731958762
87114,Bernalillo County,NM,14.56953642384106,NA,NA
87121,Bernalillo County,NM,4.304635761589404,NA,NA
87144,Sandoval County,NM,37.086092715231786,NA,NA
87532,Santa Fe County,NM,NA,18.26086956521739,NA
87544,Los Alamos County,NM,76.82119205298014,NA,68.04123711340206
88001,Doa Ana County,NM,NA,23.47826086956522,NA
88345,Lincoln County,NM,NA,NA,79.12371134020619
10029,New York County,NY,NA,0,NA
10032,New York County,NY,NA,9.130434782608695,NA
10037,New York County,NY,NA,NA,45.876288659793815
10314,Richmond County,NY,12.582781456953644,NA,NA
10456,Bronx County,NY,NA,0.43478260869565216,0.7731958762886598
10460,Bronx County,NY,NA,3.4782608695652173,NA
10598,Westchester County,NY,NA,NA,93.29896907216495
10703,Westchester County,NY,NA,21.73913043478261,NA
11218,Kings County,NY,NA,15.65217391304348,NA
11542,Nassau County,NY,NA,73.91304347826086,NA
11553,Nassau County,NY,NA,NA,62.11340206185567
11575,Nassau County,NY,NA,NA,42.2680412371134
11706,Suffolk County,NY,NA,NA,29.381443298969074
12010,Montgomery County,NY,NA,10.869565217391305,7.474226804123711
12057,Washington County,NY,99.66887417218543,NA,NA
12202,Albany County,NY,69.20529801324503,NA,NA
12204,Albany County,NY,94.03973509933775,NA,NA
12209,Albany County,NY,NA,NA,89.43298969072166
12309,Schenectady County,NY,NA,NA,77.0618556701031
12553,Orange County,NY,NA,NA,80.6701030927835
12809,Washington County,NY,NA,NA,95.10309278350515
12831,Saratoga County,NY,52.317880794701985,NA,NA
13021,Cayuga County,NY,6.291390728476822,NA,NA
13036,Oswego County,NY,NA,NA,65.97938144329896
13045,Cortland County,NY,NA,NA,5.412371134020619
13326,Otsego County,NY,71.52317880794702,NA,NA
13329,Herkimer County,NY,77.15231788079471,NA,NA
13350,Herkimer County,NY,NA,63.04347826086957,NA
13365,Herkimer County,NY,NA,NA,41.49484536082475
13407,Herkimer County,NY,NA,82.17391304347827,NA
13440,Oneida County,NY,NA,39.130434782608695,NA
13676,St. Lawrence County,NY,72.51655629139073,NA,NA
13760,Broome County,NY,1.9867549668874174,NA,NA
13790,Broome County,NY,NA,NA,11.855670103092782
13827,Tioga County,NY,61.58940397350994,NA,NA
13905,Broome County,NY,NA,NA,3.0927835051546393
14092,Niagara County,NY,NA,NA,57.98969072164949
14098,Orleans County,NY,95.36423841059603,NA,NA
14120,Niagara County,NY,NA,NA,6.443298969072164
14127,Erie County,NY,50.331125827814574,NA,NA
14222,Erie County,NY,41.05960264900662,NA,NA
14224,Erie County,NY,NA,NA,8.505154639175258
14226,Erie County,NY,NA,NA,35.56701030927835
14468,Monroe County,NY,NA,NA,23.45360824742268
14472,Monroe County,NY,56.29139072847682,NA,NA
14551,Wayne County,NY,NA,96.52173913043478,NA
14590,Wayne County,NY,NA,NA,51.03092783505154
14616,Monroe County,NY,NA,NA,4.381443298969072
14619,Monroe County,NY,NA,NA,17.2680412371134
14624,Monroe County,NY,NA,NA,3.608247422680412
14701,Chautauqua County,NY,5.629139072847682,NA,NA
14807,Steuben County,NY,86.42384105960265,NA,NA
14901,Chemung County,NY,NA,31.30434782608696,NA
14905,Chemung County,NY,97.68211920529801,NA,NA
27023,Forsyth County,NC,41.72185430463576,NA,NA
27253,Alamance County,NC,36.423841059602644,NA,NA
27292,Davidson County,NC,11.258278145695364,NA,NA
27295,Davidson County,NC,7.6158940397351,NA,NA
27302,Alamance County,NC,NA,NA,69.3298969072165
27320,Rockingham County,NC,16.55629139072848,NA,NA
27403,Guilford County,NC,NA,NA,73.4536082474227
27405,Guilford County,NC,NA,NA,13.144329896907218
27455,Guilford County,NC,NA,NA,57.21649484536082
27513,Wake County,NC,NA,NA,67.5257731958763
27519,Wake County,NC,68.87417218543047,NA,NA
27527,Johnston County,NC,NA,93.47826086956522,NA
27530,Wayne County,NC,NA,NA,18.556701030927837
27537,Vance County,NC,NA,NA,42.52577319587629
27545,Wake County,NC,NA,NA,50.25773195876289
27549,Franklin County,NC,58.94039735099338,NA,NA
27604,Wake County,NC,NA,33.91304347826087,NA
27609,Wake County,NC,NA,72.60869565217392,NA
27893,Wilson County,NC,NA,NA,19.329896907216497
27909,Pasquotank County,NC,NA,21.304347826086957,15.721649484536082
28147,Rowan County,NC,60.59602649006622,NA,NA
28306,Bladen County,NC,NA,NA,37.371134020618555
28312,Cumberland County,NC,NA,NA,70.10309278350515
28358,Robeson County,NC,NA,NA,21.649484536082475
28376,Hoke County,NC,NA,57.826086956521735,NA
28539,Onslow County,NC,NA,NA,78.35051546391753
28642,Yadkin County,NC,NA,71.30434782608695,NA
28655,Burke County,NC,45.6953642384106,NA,NA
28657,Avery County,NC,NA,88.26086956521739,NA
28713,Swain County,NC,NA,61.73913043478261,NA
28719,Jackson County,NC,NA,NA,88.4020618556701
28721,Haywood County,NC,NA,74.34782608695653,NA
28752,McDowell County,NC,NA,33.04347826086956,NA
58203,Grand Forks County,ND,NA,NA,60.30927835051546
58316,Rolette County,ND,NA,NA,98.4536082474227
43017,Franklin County,OH,NA,13.478260869565217,NA
43026,Franklin County,OH,13.245033112582782,NA,NA
43068,Franklin County,OH,0.33112582781456956,4.3478260869565215,NA
43110,Franklin County,OH,NA,NA,30.927835051546392
43130,Fairfield County,OH,NA,7.391304347826087,NA
43204,Franklin County,OH,NA,NA,8.24742268041237
43207,Franklin County,OH,NA,2.608695652173913,NA
43223,Franklin County,OH,NA,1.7391304347826086,NA
43224,Franklin County,OH,NA,2.608695652173913,NA
43344,Union County,OH,NA,78.69565217391305,NA
43430,Ottawa County,OH,NA,NA,94.0721649484536
43515,Fulton County,OH,77.15231788079471,NA,NA
43560,Lucas County,OH,NA,63.91304347826087,NA
43608,Lucas County,OH,NA,49.130434782608695,NA
43611,Lucas County,OH,NA,NA,50
43612,Lucas County,OH,NA,NA,27.577319587628867
43613,Lucas County,OH,NA,NA,5.154639175257731
43701,Muskingum County,OH,NA,NA,2.3195876288659796
44004,Ashtabula County,OH,0.9933774834437087,11.304347826086957,NA
44023,Geauga County,OH,67.88079470198676,NA,NA
44024,Geauga County,OH,NA,NA,53.350515463917525
44052,Lorain County,OH,NA,NA,3.865979381443299
44053,Lorain County,OH,54.63576158940398,NA,NA
44056,Summit County,OH,73.50993377483444,NA,NA
44070,Cuyahoga County,OH,NA,NA,29.896907216494846
44074,Lorain County,OH,NA,NA,82.73195876288659
44077,Lake County,OH,46.688741721854306,NA,4.639175257731959
44087,Summit County,OH,26.490066225165563,NA,NA
44103,Cuyahoga County,OH,NA,NA,11.34020618556701
44105,Cuyahoga County,OH,NA,17.391304347826086,2.0618556701030926
44109,Cuyahoga County,OH,NA,NA,1.5463917525773196
44112,Cuyahoga County,OH,NA,19.130434782608695,NA
44124,Cuyahoga County,OH,NA,64.78260869565217,NA
44134,Cuyahoga County,OH,NA,23.043478260869566,10.56701030927835
44140,Cuyahoga County,OH,NA,NA,72.42268041237114
44142,Cuyahoga County,OH,25.165562913907287,46.08695652173913,NA
44145,Cuyahoga County,OH,NA,NA,23.195876288659793
44202,Portage County,OH,NA,NA,38.659793814432994
44255,Portage County,OH,NA,NA,78.09278350515464
44256,Medina County,OH,1.3245033112582782,NA,NA
44266,Portage County,OH,NA,NA,11.597938144329897
44306,Summit County,OH,6.622516556291391,NA,NA
44314,Summit County,OH,NA,NA,32.7319587628866
44444,Trumbull County,OH,64.23841059602648,NA,NA
44445,Columbiana County,OH,88.41059602649007,NA,NA
44451,Mahoning County,OH,96.02649006622516,NA,NA
44483,Trumbull County,OH,NA,26.956521739130434,NA
44485,Trumbull County,OH,NA,NA,22.164948453608247
44512,Mahoning County,OH,11.920529801324504,NA,NA
44515,Mahoning County,OH,NA,NA,12.628865979381443
44842,Ashland County,OH,NA,NA,92.0103092783505
45014,Butler County,OH,13.90728476821192,NA,NA
45069,Butler County,OH,10.596026490066226,NA,29.63917525773196
45102,Clermont County,OH,31.788079470198678,NA,NA
45152,Warren County,OH,NA,44.34782608695652,NA
45224,Hamilton County,OH,NA,27.82608695652174,NA
45240,Hamilton County,OH,NA,16.956521739130434,NA
45242,Hamilton County,OH,NA,61.73913043478261,NA
45244,Hamilton County,OH,NA,NA,58.24742268041238
45249,Hamilton County,OH,NA,77.82608695652173,NA
45305,Greene County,OH,NA,88.26086956521739,NA
45324,Greene County,OH,NA,20.869565217391305,NA
45406,Montgomery County,OH,34.7682119205298,NA,19.587628865979383
45420,Montgomery County,OH,23.178807947019866,NA,NA
45429,Montgomery County,OH,NA,NA,49.22680412371135
45459,Montgomery County,OH,43.04635761589404,NA,NA
45601,Ross County,OH,NA,NA,1.804123711340206
45623,Gallia County,OH,NA,NA,88.4020618556701
45638,Lawrence County,OH,NA,NA,6.701030927835052
45692,Jackson County,OH,38.41059602649007,NA,NA
45750,Washington County,OH,NA,NA,3.350515463917526
45764,Athens County,OH,NA,58.69565217391305,NA
45769,Meigs County,OH,NA,NA,69.58762886597938
45780,Athens County,OH,NA,NA,94.58762886597938
45804,Allen County,OH,NA,NA,13.917525773195877
73030,Murray County,OK,NA,NA,87.37113402061856
73044,Logan County,OK,24.834437086092713,NA,NA
73099,Canadian County,OK,15.2317880794702,NA,NA
73132,Oklahoma County,OK,NA,58.26086956521739,NA
73521,Jackson County,OK,NA,NA,72.42268041237114
74044,Creek County,OK,NA,96.52173913043478,NA
74872,Garvin County,OK,93.37748344370861,NA,NA
74960,Adair County,OK,NA,23.91304347826087,NA
97009,Clackamas County,OR,84.43708609271523,NA,NA
97030,Multnomah County,OR,NA,51.73913043478261,NA
97115,Yamhill County,OR,99.00662251655629,NA,NA
97123,Washington County,OR,NA,39.565217391304344,NA
97128,Yamhill County,OR,NA,42.608695652173914,NA
97132,Yamhill County,OR,58.94039735099338,NA,NA
97141,Tillamook County,OR,NA,44.78260869565218,NA
97206,Multnomah County,OR,NA,NA,16.49484536082474
97211,Multnomah County,OR,47.35099337748344,NA,NA
97227,Multnomah County,OR,NA,NA,96.90721649484536
97229,Washington County,OR,33.77483443708609,NA,NA
97230,Multnomah County,OR,NA,NA,30.15463917525773
97266,Multnomah County,OR,NA,NA,37.628865979381445
97424,Lane County,OR,52.317880794701985,NA,NA
97457,Douglas County,OR,NA,NA,74.48453608247422
97471,Douglas County,OR,NA,NA,22.938144329896907
97623,Klamath County,OR,NA,NA,100
97862,Umatilla County,OR,NA,NA,67.78350515463917
15010,Beaver County,PA,NA,57.391304347826086,NA
15025,Allegheny County,PA,78.80794701986756,NA,NA
15147,Allegheny County,PA,NA,52.60869565217391,NA
15212,Allegheny County,PA,NA,32.608695652173914,NA
15226,Allegheny County,PA,NA,58.69565217391305,NA
15236,Allegheny County,PA,NA,NA,55.154639175257735
15401,Fayette County,PA,NA,28.695652173913043,NA
15501,Somerset County,PA,NA,NA,63.4020618556701
15642,Westmoreland County,PA,NA,NA,28.60824742268041
15909,Cambria County,PA,NA,NA,89.17525773195877
16001,Butler County,PA,16.887417218543046,NA,4.896907216494846
16335,Crawford County,PA,NA,NA,12.886597938144329
16373,Venango County,PA,NA,NA,99.74226804123711
16503,Erie County,PA,NA,52.60869565217391,NA
16735,McKean County,PA,74.17218543046357,NA,NA
17036,Dauphin County,PA,24.503311258278146,NA,NA
17042,Lebanon County,PA,NA,NA,6.958762886597938
17057,Dauphin County,PA,NA,NA,24.484536082474225
17067,Lebanon County,PA,NA,75.21739130434783,NA
17074,Perry County,PA,89.40397350993378,NA,NA
17268,Franklin County,PA,NA,NA,22.68041237113402
17701,Lycoming County,PA,8.940397350993377,NA,NA
17754,Lycoming County,PA,78.47682119205298,NA,NA
18013,Northampton County,PA,NA,NA,43.81443298969072
18042,Northampton County,PA,NA,NA,7.989690721649484
18210,Carbon County,PA,81.45695364238411,NA,NA
18229,Carbon County,PA,NA,NA,76.5463917525773
18240,Carbon County,PA,98.34437086092716,NA,NA
18640,Luzerne County,PA,NA,NA,48.96907216494845
18847,Susquehanna County,PA,95.69536423841059,NA,NA
18901,Bucks County,PA,NA,NA,52.83505154639175
18938,Bucks County,PA,82.78145695364239,NA,NA
18974,Bucks County,PA,46.026490066225165,NA,61.5979381443299
19004,Montgomery County,PA,NA,NA,96.1340206185567
19014,Delaware County,PA,NA,NA,48.45360824742268
19020,Bucks County,PA,NA,NA,38.144329896907216
19050,Delaware County,PA,NA,NA,34.79381443298969
19053,Bucks County,PA,42.71523178807947,NA,NA
19060,Delaware County,PA,87.74834437086093,NA,NA
19082,Delaware County,PA,NA,NA,13.402061855670103
19121,Philadelphia County,PA,NA,NA,11.082474226804123
19131,Philadelphia County,PA,NA,33.91304347826087,NA
19133,Philadelphia County,PA,NA,NA,20.36082474226804
19134,Philadelphia County,PA,NA,NA,4.123711340206185
19135,Philadelphia County,PA,NA,NA,19.587628865979383
19136,Philadelphia County,PA,56.95364238410596,NA,NA
19137,Philadelphia County,PA,NA,NA,71.1340206185567
19140,Philadelphia County,PA,12.91390728476821,10.434782608695652,NA
19145,Philadelphia County,PA,NA,NA,35.824742268041234
19317,Delaware County,PA,92.05298013245033,NA,NA
19342,Delaware County,PA,76.15894039735099,NA,NA
19380,Chester County,PA,8.27814569536424,NA,14.432989690721648
19403,Montgomery County,PA,25.496688741721858,NA,NA
19512,Berks County,PA,NA,NA,67.0103092783505
19565,Berks County,PA,90.72847682119205,NA,NA
29435,Colleton County,SC,97.01986754966887,NA,NA
29455,Charleston County,SC,NA,NA,59.27835051546392
29625,Anderson County,SC,36.75496688741722,NA,NA
29626,Anderson County,SC,NA,62.60869565217392,NA
29841,Aiken County,SC,NA,NA,60.051546391752574
57770,Shannon County,SD,NA,18.695652173913043,NA
57772,Shannon County,SD,78.1456953642384,NA,NA
37013,Davidson County,TN,NA,16.08695652173913,NA
37062,Williamson County,TN,NA,NA,85.30927835051546
37087,Wilson County,TN,19.205298013245034,NA,NA
37207,Davidson County,TN,NA,NA,14.690721649484537
37211,Davidson County,TN,NA,13.043478260869565,NA
37311,Bradley County,TN,NA,NA,41.75257731958763
37322,Meigs County,TN,NA,NA,68.29896907216495
37354,Monroe County,TN,NA,NA,43.29896907216495
37643,Carter County,TN,NA,45.65217391304348,NA
37664,Sullivan County,TN,NA,NA,27.061855670103093
37701,Blount County,TN,75.49668874172185,NA,NA
37766,Campbell County,TN,NA,36.52173913043478,NA
37861,Grainger County,TN,68.54304635761589,NA,NA
37919,Knox County,TN,NA,NA,60.824742268041234
38122,Shelby County,TN,NA,40.43478260869565,NA
38301,Madison County,TN,2.3178807947019866,NA,NA
38320,Benton County,TN,NA,NA,79.63917525773195
38478,Giles County,TN,NA,NA,64.17525773195877
38571,Cumberland County,TN,61.920529801324506,NA,NA
38583,White County,TN,27.81456953642384,NA,NA
75025,Collin County,TX,73.17880794701986,NA,NA
75028,Denton County,TX,57.284768211920536,NA,NA
75033,,TX,58.27814569536424,NA,NA
75070,Collin County,TX,NA,79.56521739130434,NA
75074,Collin County,TX,NA,70.43478260869566,NA
75142,Kaufman County,TX,NA,89.13043478260869,NA
75149,Dallas County,TX,NA,20,NA
75211,Dallas County,TX,NA,9.565217391304348,NA
75212,Dallas County,TX,NA,24.782608695652176,NA
75229,Dallas County,TX,NA,NA,49.74226804123711
75232,Dallas County,TX,62.913907284768214,NA,NA
75442,Collin County,TX,79.80132450331125,NA,NA
75647,Gregg County,TX,66.22516556291392,NA,NA
75751,Henderson County,TX,NA,NA,53.865979381443296
75790,Van Zandt County,TX,96.68874172185431,NA,NA
76010,Tarrant County,TX,NA,NA,22.422680412371136
76011,Tarrant County,TX,17.218543046357617,NA,NA
76040,Tarrant County,TX,40.06622516556291,NA,NA
76053,Tarrant County,TX,NA,28.26086956521739,NA
76104,Tarrant County,TX,NA,40.43478260869565,NA
76106,Tarrant County,TX,NA,12.608695652173912,NA
76308,Wichita County,TX,NA,86.95652173913044,NA
76643,McLennan County,TX,NA,NA,90.97938144329896
77026,Harris County,TX,NA,NA,61.08247422680413
77034,Harris County,TX,19.867549668874172,NA,NA
77056,Harris County,TX,70.52980132450331,NA,NA
77084,Harris County,TX,NA,58.69565217391305,NA
77336,Harris County,TX,NA,87.82608695652175,NA
77357,Montgomery County,TX,NA,47.391304347826086,NA
77375,Harris County,TX,NA,NA,28.350515463917525
77388,Harris County,TX,55.62913907284768,NA,NA
77450,Harris County,TX,NA,71.30434782608695,NA
77459,Fort Bend County,TX,17.549668874172188,NA,NA
77494,Fort Bend County,TX,7.9470198675496695,NA,NA
77511,Brazoria County,TX,9.271523178807946,NA,NA
77539,Galveston County,TX,5.629139072847682,NA,NA
77546,Galveston County,TX,NA,60,NA
77550,Galveston County,TX,NA,NA,26.03092783505155
77551,Galveston County,TX,NA,NA,33.50515463917525
77590,Galveston County,TX,NA,NA,15.979381443298967
77657,Hardin County,TX,48.34437086092716,NA,NA
77708,Jefferson County,TX,81.45695364238411,NA,NA
78216,Bexar County,TX,NA,41.30434782608695,NA
78227,Bexar County,TX,NA,13.91304347826087,NA
78228,Bexar County,TX,NA,10,NA
78245,Bexar County,TX,NA,20.434782608695652,NA
78415,Nueces County,TX,NA,NA,53.608247422680414
78542,Hidalgo County,TX,NA,2.1739130434782608,NA
78570,Hidalgo County,TX,NA,6.521739130434782,NA
78572,Hidalgo County,TX,NA,7.82608695652174,NA
78589,Hidalgo County,TX,NA,NA,47.16494845360825
78626,Williamson County,TX,49.668874172185426,NA,NA
78629,Gonzales County,TX,NA,66.95652173913044,NA
78641,Williamson County,TX,NA,NA,27.835051546391753
78752,Travis County,TX,NA,76.95652173913044,NA
78840,Val Verde County,TX,NA,56.95652173913044,NA
79118,Randall County,TX,NA,61.30434782608696,NA
79763,Ector County,TX,NA,NA,84.79381443298969
79912,El Paso County,TX,20.198675496688743,NA,NA
84003,Utah County,UT,32.450331125827816,NA,NA
84009,Salt Lake County,UT,47.35099337748344,NA,NA
84020,Salt Lake County,UT,31.456953642384107,NA,NA
84062,Utah County,UT,NA,NA,64.69072164948454
84065,Salt Lake County,UT,NA,NA,44.84536082474227
84070,Salt Lake County,UT,44.370860927152314,NA,NA
84078,Uintah County,UT,40.728476821192054,NA,NA
84780,Washington County,UT,69.20529801324503,NA,NA
05478,Franklin County,VT,43.70860927152318,NA,NA
05491,Addison County,VT,NA,NA,93.81443298969072
20147,Loudoun County,VA,21.192052980132452,NA,NA
22655,Frederick County,VA,63.24503311258278,NA,NA
22657,Shenandoah County,VA,NA,NA,58.50515463917526
22712,Fauquier County,VA,NA,90,NA
22801,Harrisonburg city,VA,44.70198675496689,NA,NA
22815,Rockingham County,VA,NA,98.26086956521739,NA
22844,Shenandoah County,VA,NA,NA,87.11340206185567
22902,Charlottesville city,VA,NA,NA,31.185567010309278
22903,Charlottesville city,VA,20.52980132450331,NA,NA
22960,Orange County,VA,NA,NA,88.91752577319588
22963,Fluvanna County,VA,NA,NA,81.18556701030928
23236,Chesterfield County,VA,NA,NA,86.85567010309279
23452,Virginia Beach city,VA,NA,NA,29.12371134020619
23605,Newport News city,VA,NA,NA,57.73195876288659
23607,Newport News city,VA,NA,NA,75
23666,Hampton city,VA,NA,NA,45.36082474226804
24060,Montgomery County,VA,NA,66.95652173913044,NA
24134,Giles County,VA,NA,94.78260869565217,NA
24153,Salem city,VA,NA,NA,41.23711340206185
24211,Washington County,VA,87.08609271523179,NA,NA
24319,Smyth County,VA,NA,NA,73.96907216494846
24343,Carroll County,VA,64.23841059602648,NA,NA
24426,Alleghany County,VA,NA,NA,54.38144329896907
24450,Rockbridge County,VA,NA,92.6086956521739,NA
24592,Halifax County,VA,62.58278145695364,50.43478260869565,NA
24605,Tazewell County,VA,NA,NA,38.91752577319588
98002,King County,WA,NA,NA,72.9381443298969
98012,Snohomish County,WA,10.264900662251655,NA,NA
98030,King County,WA,NA,49.130434782608695,NA
98038,King County,WA,NA,NA,39.69072164948454
98042,King County,WA,16.225165562913908,NA,NA
98053,King County,WA,79.47019867549669,NA,NA
98058,King County,WA,NA,NA,37.11340206185567
98103,King County,WA,NA,NA,54.123711340206185
98198,King County,WA,NA,68.69565217391305,NA
98201,Snohomish County,WA,NA,78.69565217391305,NA
98208,Snohomish County,WA,18.543046357615893,NA,NA
98225,Whatcom County,WA,NA,90.8695652173913,NA
98258,Snohomish County,WA,NA,NA,30.670103092783506
98290,Snohomish County,WA,NA,NA,77.83505154639175
98349,Pierce County,WA,NA,NA,97.68041237113401
98373,Pierce County,WA,22.516556291390728,NA,NA
98382,Clallam County,WA,55.62913907284768,NA,NA
98391,Pierce County,WA,33.11258278145696,NA,NA
98445,Pierce County,WA,NA,NA,55.927835051546396
98823,Grant County,WA,88.41059602649007,NA,NA
98903,Yakima County,WA,NA,71.30434782608695,NA
99141,Stevens County,WA,NA,NA,91.75257731958763
20015,District of Columbia,DC,39.735099337748345,NA,NA
24701,Mercer County,WV,74.50331125827815,NA,NA
25514,Wayne County,WV,NA,97.82608695652173,NA
25702,Cabell County,WV,NA,NA,90.20618556701031
25951,Summers County,WV,NA,83.04347826086956,NA
26105,Wood County,WV,77.15231788079471,NA,NA
26142,Wood County,WV,NA,NA,99.48453608247422
26501,Monongalia County,WV,NA,NA,56.44329896907217
26554,Marion County,WV,NA,NA,6.185567010309279
26651,Nicholas County,WV,NA,NA,83.76288659793815
53045,Waukesha County,WI,NA,NA,86.34020618556701
53095,Washington County,WI,20.86092715231788,NA,NA
53104,Kenosha County,WI,85.43046357615894,NA,NA
53125,Walworth County,WI,97.01986754966887,NA,NA
53140,Kenosha County,WI,50.66225165562914,NA,NA
53142,Kenosha County,WI,50,NA,NA
53172,Milwaukee County,WI,NA,NA,43.04123711340206
53205,Milwaukee County,WI,NA,NA,21.391752577319586
53207,Milwaukee County,WI,NA,NA,32.47422680412371
53211,Milwaukee County,WI,NA,NA,71.3917525773196
53218,Milwaukee County,WI,5.298013245033113,NA,NA
53575,Dane County,WI,NA,NA,90.72164948453609
53589,Dane County,WI,NA,NA,80.9278350515464
53963,Dodge County,WI,NA,NA,62.371134020618555
54166,Shawano County,WI,NA,NA,74.74226804123711
54494,Wood County,WI,NA,NA,36.855670103092784
54703,Eau Claire County,WI,29.13907284768212,NA,NA
54729,Chippewa County,WI,NA,76.52173913043478,NA
54880,Douglas County,WI,NA,NA,50.51546391752577
54901,Winnebago County,WI,26.158940397350992,NA,NA
54944,Outagamie County,WI,86.75496688741721,NA,NA
54956,Winnebago County,WI,NA,NA,32.21649484536083
54961,Waupaca County,WI,NA,NA,65.20618556701031
