ZipCode,county,state,Adult
35211,Jefferson County,AL,55.74548907882241
35212,Jefferson County,AL,84.33048433048434
35243,Jefferson County,AL,87.36942070275404
35244,Jefferson County,AL,57.54985754985755
35404,Tuscaloosa County,AL,19.37321937321937
35601,Morgan County,AL,16.904083570750235
36089,Bullock County,AL,84.14055080721748
36108,Montgomery County,AL,51.661918328585
36535,Baldwin County,AL,52.89648622981956
36801,Lee County,AL,70.37037037037037
99508,Anchorage Municipality,AK,22.602089268755936
99559,Bethel Census Area,AK,93.25735992402659
99576,Dillingham Census Area,AK,95.06172839506173
99901,Ketchikan Gateway Borough,AK,50.237416904083574
85014,Maricopa County,AZ,54.510921177587846
85031,Maricopa County,AZ,59.54415954415955
85035,Maricopa County,AZ,83.28584995251663
85042,Maricopa County,AZ,82.52611585944919
85138,Pinal County,AZ,79.58214624881292
85202,Maricopa County,AZ,25.546058879392213
85208,Maricopa County,AZ,53.941120607787276
85251,Maricopa County,AZ,49.002849002849004
85283,Maricopa County,AZ,23.171889838556506
85295,Maricopa County,AZ,47.768281101614434
85344,La Paz County,AZ,45.67901234567901
85607,Cochise County,AZ,33.14339981006648
85706,Pima County,AZ,3.798670465337132
85712,Pima County,AZ,79.67711301044635
85741,Pima County,AZ,39.6011396011396
85746,Pima County,AZ,16.144349477682812
85757,Pima County,AZ,68.66096866096866
86033,Navajo County,AZ,91.35802469135803
86401,Mohave County,AZ,11.965811965811966
86409,Mohave County,AZ,10.446343779677113
86442,Mohave County,AZ,33.998100664767335
71603,Jefferson County,AR,41.9753086419753
71753,Columbia County,AR,75.11870845204179
72034,Faulkner County,AR,60.01899335232669
72209,Pulaski County,AR,61.72839506172839
72401,Craighead County,AR,18.99335232668566
72416,Craighead County,AR,91.16809116809117
90003,Los Angeles County,CA,43.58974358974359
90007,Los Angeles County,CA,35.42260208926876
90037,Los Angeles County,CA,45.489078822412154
90038,Los Angeles County,CA,84.42545109211775
90047,Los Angeles County,CA,56.31528964862298
90064,Los Angeles County,CA,32.85849952516619
90501,Los Angeles County,CA,57.92972459639126
90740,Orange County,CA,78.25261158594492
91204,Los Angeles County,CA,89.17378917378917
91311,Los Angeles County,CA,64.48243114909782
91504,Los Angeles County,CA,80.43684710351377
91604,Los Angeles County,CA,67.99620132953467
91739,San Bernardino County,CA,71.88983855650523
91768,Los Angeles County,CA,52.70655270655271
92009,San Diego County,CA,75.21367521367522
92203,Riverside County,CA,81.57644824311491
92252,San Bernardino County,CA,82.05128205128204
92335,San Bernardino County,CA,12.82051282051282
92345,San Bernardino County,CA,13.200379867046532
92399,San Bernardino County,CA,91.73789173789174
92543,Riverside County,CA,48.812915479582145
93036,Ventura County,CA,37.51187084520418
93274,Tulare County,CA,7.597340930674264
93305,Kern County,CA,51.85185185185185
93306,Kern County,CA,25.64102564102564
93309,Kern County,CA,38.74643874643874
93420,San Luis Obispo County,CA,77.20797720797721
93446,San Luis Obispo County,CA,32.193732193732195
93505,Kern County,CA,98.00569800569801
93534,Los Angeles County,CA,44.44444444444444
93722,Fresno County,CA,41.88034188034188
94014,San Mateo County,CA,55.08072174738842
94080,San Mateo County,CA,74.73884140550807
94107,San Francisco County,CA,53.75118708452041
94109,San Francisco County,CA,34.28300094966762
94124,San Francisco County,CA,29.81956315289649
94131,San Francisco County,CA,91.92782526115859
94544,Alameda County,CA,22.88698955365622
94545,Alameda County,CA,83.1908831908832
94564,Contra Costa County,CA,90.21842355175689
94596,Contra Costa County,CA,90.02849002849003
94601,Alameda County,CA,54.036087369420706
94609,Alameda County,CA,91.35802469135803
94619,Alameda County,CA,85.94491927825261
95008,Santa Clara County,CA,73.69420702754036
95062,Santa Cruz County,CA,81.38651471984805
95110,Santa Clara County,CA,88.50902184235517
95205,San Joaquin County,CA,59.25925925925925
95380,Stanislaus County,CA,33.04843304843305
95389,Mariposa County,CA,98.95536562203229
95407,Sonoma County,CA,70.27540360873694
95827,Sacramento County,CA,76.92307692307693
95835,Sacramento County,CA,77.20797720797721
95841,Sacramento County,CA,89.83855650522318
95946,Nevada County,CA,93.92212725546058
95954,Butte County,CA,50.047483380816715
96022,Tehama County,CA,86.70465337132003
80012,Arapahoe County,CO,14.245014245014245
80016,Arapahoe County,CO,27.92022792022792
80138,Douglas County,CO,61.44349477682811
80214,Jefferson County,CO,50.617283950617285
80249,Denver County,CO,44.254510921177584
80521,Larimer County,CO,77.77777777777779
80701,Morgan County,CO,26.970560303893638
81004,Pueblo County,CO,30.484330484330485
81201,Chaffee County,CO,88.12915479582146
81501,Mesa County,CO,53.561253561253565
81504,Mesa County,CO,37.60683760683761
06042,Hartford County,CT,46.628679962013294
06051,Hartford County,CT,5.223171889838556
06053,Hartford County,CT,14.055080721747387
06067,Hartford County,CT,77.68281101614434
06074,Hartford County,CT,64.86229819563152
06109,Hartford County,CT,72.93447293447294
06112,Hartford County,CT,21.27255460588794
06120,Hartford County,CT,95.34662867996201
06241,Windham County,CT,71.22507122507122
06415,New London County,CT,62.7730294396961
06418,New Haven County,CT,78.5375118708452
06475,Middlesex County,CT,88.31908831908832
06483,New Haven County,CT,74.1690408357075
06511,New Haven County,CT,6.077872744539412
06513,New Haven County,CT,5.887939221272555
06606,Fairfield County,CT,22.31718898385565
06614,Fairfield County,CT,67.04653371320039
06706,New Haven County,CT,69.32573599240266
06811,Fairfield County,CT,82.81101614434948
06880,Fairfield County,CT,58.4045584045584
06902,Fairfield County,CT,26.400759734093064
19713,New Castle County,DE,37.89173789173789
19720,New Castle County,DE,3.89363722697056
19734,New Castle County,DE,84.52041785375118
19802,New Castle County,DE,18.61348528015195
19804,New Castle County,DE,34.5679012345679
19805,New Castle County,DE,41.5954415954416
19950,Sussex County,DE,90.50332383665717
19966,Sussex County,DE,29.059829059829063
19973,Sussex County,DE,74.64387464387464
32024,Columbia County,FL,71.69990503323837
32025,Columbia County,FL,46.533713200379864
32117,Volusia County,FL,75.78347578347578
32209,Duval County,FL,73.97910731244065
32218,Duval County,FL,5.0332383665717
32221,Duval County,FL,71.7948717948718
32223,Duval County,FL,80.05698005698005
32244,Duval County,FL,7.027540360873694
32256,Duval County,FL,40.17094017094017
32257,Duval County,FL,29.72459639126306
32305,Leon County,FL,72.74453941120608
32310,Leon County,FL,76.35327635327636
32424,Calhoun County,FL,78.44254510921178
32526,Escambia County,FL,17.85375118708452
32608,Alachua County,FL,9.211775878442545
32724,Volusia County,FL,63.0579297245964
32763,Volusia County,FL,70.18043684710351
32811,Orange County,FL,27.825261158594493
32822,Orange County,FL,24.501424501424502
32825,Orange County,FL,39.31623931623932
32909,Brevard County,FL,48.52801519468186
33016,Miami-Dade County,FL,63.43779677113011
33020,Broward County,FL,37.03703703703704
33023,Broward County,FL,24.596391263057928
33026,Broward County,FL,90.12345679012346
33054,Miami-Dade County,FL,97.15099715099716
33055,Miami-Dade County,FL,60.49382716049383
33063,Broward County,FL,50.80721747388414
33068,Broward County,FL,54.131054131054135
33141,Miami-Dade County,FL,68.85090218423552
33147,Miami-Dade County,FL,39.79107312440646
33157,Miami-Dade County,FL,42.73504273504273
33161,Miami-Dade County,FL,76.82811016144349
33162,Miami-Dade County,FL,67.90123456790124
33173,Miami-Dade County,FL,87.65432098765432
33309,Broward County,FL,67.1415004748338
33311,Broward County,FL,8.547008547008547
33578,Hillsborough County,FL,42.64007597340931
33604,Hillsborough County,FL,28.96486229819563
33610,Hillsborough County,FL,18.138651471984804
33612,Hillsborough County,FL,46.24881291547958
33613,Hillsborough County,FL,50.427350427350426
33617,Hillsborough County,FL,41.40550807217474
33619,Hillsborough County,FL,43.01994301994302
33707,Pinellas County,FL,70.56030389363723
33712,Pinellas County,FL,43.3048433048433
34212,Manatee County,FL,95.6315289648623
34473,Marion County,FL,57.83475783475783
34654,Pasco County,FL,83.5707502374169
34787,Orange County,FL,67.52136752136752
34788,Lake County,FL,76.1633428300095
34983,St. Lucie County,FL,27.160493827160494
30008,Cobb County,GA,73.12440645773978
30024,Gwinnett County,GA,26.305792972459642
30060,Cobb County,GA,79.29724596391263
30067,Cobb County,GA,69.89553656220323
30125,Polk County,GA,44.91927825261159
30127,Cobb County,GA,23.266856600189932
30161,Floyd County,GA,24.121557454890787
30165,Floyd County,GA,30.389363722697055
30168,Cobb County,GA,69.23076923076923
30187,Douglas County,GA,84.23551756885091
30223,Spalding County,GA,45.20417853751187
30228,Henry County,GA,37.79677113010446
30238,Clayton County,GA,61.34852801519468
30281,Henry County,GA,31.718898385565055
30291,Fulton County,GA,89.45868945868945
30294,DeKalb County,GA,50.427350427350426
30297,Clayton County,GA,66.19183285849952
30310,Fulton County,GA,28.39506172839506
30318,Fulton County,GA,34.75783475783476
30324,Fulton County,GA,88.2241215574549
30331,Fulton County,GA,76.44824311490979
30344,Fulton County,GA,53.466286799620136
30345,DeKalb County,GA,88.41405508072174
30507,Hall County,GA,53.27635327635327
30809,Columbia County,GA,44.06457739791073
30813,Columbia County,GA,39.12630579297246
30824,McDuffie County,GA,84.61538461538461
30904,Richmond County,GA,42.16524216524217
30907,Columbia County,GA,30.959164292497626
30909,Richmond County,GA,68.4710351377018
31204,Bibb County,GA,39.41120607787275
31206,Bibb County,GA,37.41690408357075
31217,Bibb County,GA,98.76543209876543
31602,Lowndes County,GA,45.2991452991453
31721,Dougherty County,GA,94.58689458689459
31903,Muscogee County,GA,40.83570750237417
96712,Honolulu County,HI,98.670465337132
96734,Honolulu County,HI,44.91927825261159
96778,Hawaii County,HI,79.10731244064577
83221,Bingham County,ID,33.523266856600195
83333,Blaine County,ID,86.8945868945869
60015,Lake County,IL,68.85090218423552
60104,Cook County,IL,49.382716049382715
60107,Cook County,IL,59.82905982905983
60115,DeKalb County,IL,80.24691358024691
60152,McHenry County,IL,83.76068376068376
60157,DuPage County,IL,99.90503323836657
60302,Cook County,IL,41.40550807217474
60411,Cook County,IL,16.619183285849953
60417,Will County,IL,71.98480531813865
60617,Cook County,IL,36.46723646723647
60619,Cook County,IL,8.072174738841406
60623,Cook County,IL,9.021842355175687
60624,Cook County,IL,19.65811965811966
60628,Cook County,IL,8.92687559354226
60638,Cook County,IL,12.440645773979107
60639,Cook County,IL,11.870845204178536
60641,Cook County,IL,52.23171889838556
60643,Cook County,IL,10.921177587844255
60652,Cook County,IL,35.32763532763533
61270,Whiteside County,IL,97.53086419753086
62521,Macon County,IL,16.23931623931624
62522,Macon County,IL,64.86229819563152
62702,Sangamon County,IL,31.433998100664766
62703,Sangamon County,IL,36.94207027540361
46036,Madison County,IN,70.94017094017094
46151,Morgan County,IN,67.61633428300094
46163,Hancock County,IN,92.40265906932574
46176,Shelby County,IN,20.03798670465337
46205,Marion County,IN,44.53941120607787
46208,Marion County,IN,42.73504273504273
46219,Marion County,IN,49.952516619183285
46222,Marion County,IN,61.25356125356125
46224,Marion County,IN,38.2716049382716
46231,Marion County,IN,92.02279202279202
46240,Marion County,IN,93.6372269705603
46307,Lake County,IN,2.564102564102564
46310,Jasper County,IN,61.53846153846154
46312,Lake County,IN,74.92877492877493
46360,LaPorte County,IN,6.837606837606838
46391,LaPorte County,IN,85.5650522317189
46545,St. Joseph County,IN,57.644824311490986
46803,Allen County,IN,90.97815764482431
46806,Allen County,IN,69.8005698005698
46815,Allen County,IN,75.02374169040836
46818,Allen County,IN,49.382716049382715
46835,Allen County,IN,40.55080721747388
46933,Grant County,IN,94.30199430199431
46947,Cass County,IN,15.384615384615385
46953,Grant County,IN,15.004748338081672
47274,Jackson County,IN,33.903133903133906
47353,Union County,IN,97.43589743589743
47713,Vanderburgh County,IN,73.02943969610635
47803,Vigo County,IN,70.84520417853751
47904,Tippecanoe County,IN,69.1358024691358
50310,Polk County,IA,26.020892687559353
50311,Polk County,IA,60.01899335232669
50317,Polk County,IA,14.909781576448244
50320,Polk County,IA,58.119658119658126
50701,Black Hawk County,IA,75.68850902184235
51105,Woodbury County,IA,77.49287749287748
51501,Pottawattamie County,IA,4.273504273504273
52240,Johnson County,IA,62.48812915479582
52241,Johnson County,IA,94.96676163342829
52317,Johnson County,IA,60.68376068376068
52544,Appanoose County,IA,51.85185185185185
52601,Des Moines County,IA,15.954415954415953
52732,Clinton County,IA,26.685660018993353
66021,Johnson County,KS,99.81006647673314
40165,Bullitt County,KY,17.758784425451093
40203,Jefferson County,KY,26.780626780626783
40212,Jefferson County,KY,30.76923076923077
40214,Jefferson County,KY,35.61253561253561
40216,Jefferson County,KY,42.35517568850902
40218,Jefferson County,KY,16.999050332383668
40258,Jefferson County,KY,27.44539411206078
40311,Nicholas County,KY,81.48148148148148
40391,Clark County,KY,39.88603988603989
40504,Fayette County,KY,52.42165242165242
40744,Laurel County,KY,36.27730294396961
41001,Campbell County,KY,74.54890788224121
42066,Graves County,KY,28.110161443494775
70002,Jefferson Parish,LA,96.48622981956315
70003,Jefferson Parish,LA,93.54226020892688
70037,Plaquemines Parish,LA,51.75688509021842
70053,Jefferson Parish,LA,88.6039886039886
70122,Orleans Parish,LA,53.086419753086425
70131,Orleans Parish,LA,81.95631528964861
70363,Terrebonne Parish,LA,5.5080721747388415
70403,Tangipahoa Parish,LA,90.88319088319088
70454,Tangipahoa Parish,LA,11.016144349477683
70501,Lafayette Parish,LA,3.133903133903134
70570,St. Landry Parish,LA,72.55460588793922
70586,Evangeline Parish,LA,19.278252611585945
70805,East Baton Rouge Parish,LA,87.08452041785375
70808,East Baton Rouge Parish,LA,97.72079772079772
70812,East Baton Rouge Parish,LA,71.03513770180437
70815,East Baton Rouge Parish,LA,19.183285849952515
70816,East Baton Rouge Parish,LA,31.14909781576448
71001,Bienville Parish,LA,98.86039886039886
71106,Caddo Parish,LA,56.79012345679012
71107,Caddo Parish,LA,4.083570750237417
71115,Caddo Parish,LA,85.37511870845205
71327,Avoyelles Parish,LA,97.340930674264
71411,Natchitoches Parish,LA,99.71509971509973
03903,York County,ME,89.17378917378917
04274,Androscoggin County,ME,95.15669515669516
04330,Kennebec County,ME,55.175688509021846
04474,Penobscot County,ME,99.6201329534663
04937,Somerset County,ME,66.85660018993353
20639,Calvert County,MD,86.13485280151947
20744,Prince George's County,MD,55.65052231718899
20770,Prince George's County,MD,83.9506172839506
20878,Montgomery County,MD,56.0303893637227
21117,Baltimore County,MD,72.36467236467237
21202,Baltimore city,MD,51.28205128205128
21213,Baltimore city,MD,24.216524216524217
21214,Baltimore city,MD,69.51566951566952
21216,Baltimore city,MD,43.39981006647673
21217,Baltimore city,MD,27.730294396961064
21221,Baltimore County,MD,25.166191832858498
21229,Baltimore city,MD,22.79202279202279
21230,Baltimore city,MD,77.39791073124407
01002,Hampshire County,MA,46.72364672364672
01118,Hampden County,MA,83.00094966761633
01201,Berkshire County,MA,0.0949667616334283
01420,Worcester County,MA,49.762583095916426
01473,Worcester County,MA,78.63247863247864
01545,Worcester County,MA,21.367521367521366
01570,Worcester County,MA,5.982905982905983
01605,Worcester County,MA,1.9943019943019942
01701,Middlesex County,MA,66.19183285849952
01754,Middlesex County,MA,76.06837606837607
01801,Middlesex County,MA,53.656220322886995
01852,Middlesex County,MA,0.1899335232668566
01867,Middlesex County,MA,70.4653371320038
01902,Essex County,MA,58.49952516619184
02021,Norfolk County,MA,91.83285849952516
02038,Norfolk County,MA,16.714150047483383
02043,Plymouth County,MA,45.58404558404558
02072,Norfolk County,MA,10.63627730294397
02081,Norfolk County,MA,26.875593542260205
02118,Suffolk County,MA,43.87464387464387
02122,Suffolk County,MA,95.91642924976259
02125,Suffolk County,MA,0.6647673314339981
02130,Suffolk County,MA,24.691358024691358
02139,Middlesex County,MA,0.4748338081671415
02149,Middlesex County,MA,0.2849002849002849
02151,Suffolk County,MA,14.62488129154796
02155,Middlesex County,MA,84.80531813865147
02176,Middlesex County,MA,37.32193732193732
02301,Plymouth County,MA,0
02343,Norfolk County,MA,46.15384615384615
02368,Norfolk County,MA,2.849002849002849
02375,Bristol County,MA,63.627730294396954
02472,Middlesex County,MA,8.736942070275404
02532,Barnstable County,MA,63.91263057929725
02568,Dukes County,MA,79.96201329534662
02703,Bristol County,MA,1.3295346628679963
02719,Bristol County,MA,94.87179487179486
02723,Bristol County,MA,19.753086419753085
02740,Bristol County,MA,1.519468186134853
02780,Bristol County,MA,0.5698005698005698
48036,Macomb County,MI,33.80816714150047
48043,Macomb County,MI,39.03133903133903
48044,Macomb County,MI,9.686609686609685
48066,Macomb County,MI,4.368471035137702
48071,Oakland County,MI,30.864197530864196
48073,Oakland County,MI,36.182336182336186
48084,Oakland County,MI,85.47008547008546
48108,Washtenaw County,MI,78.8224121557455
48122,Wayne County,MI,62.96296296296296
48127,Wayne County,MI,86.41975308641975
48141,Wayne County,MI,10.351377018043685
48154,Wayne County,MI,29.24976258309592
48167,Oakland County,MI,79.86704653371321
48201,Wayne County,MI,47.198480531813864
48204,Wayne County,MI,13.105413105413104
48205,Wayne County,MI,5.698005698005698
48206,Wayne County,MI,32.47863247863248
48207,Wayne County,MI,23.931623931623932
48209,Wayne County,MI,28.49002849002849
48213,Wayne County,MI,45.963912630579294
48219,Wayne County,MI,75.97340930674264
48220,Oakland County,MI,55.93542260208927
48221,Wayne County,MI,29.439696106362774
48224,Wayne County,MI,3.323836657169991
48225,Wayne County,MI,47.673314339981005
48227,Wayne County,MI,22.127255460588792
48228,Wayne County,MI,67.33143399810066
48229,Wayne County,MI,66.85660018993353
48234,Wayne County,MI,38.55650522317189
48235,Wayne County,MI,64.7673314339981
48238,Wayne County,MI,65.90693257359924
48239,Wayne County,MI,10.256410256410255
48310,Macomb County,MI,56.41025641025641
48312,Macomb County,MI,30.009496676163344
48316,Macomb County,MI,48.717948717948715
48375,Oakland County,MI,85.28015194681862
48383,Oakland County,MI,93.44729344729345
48439,Genesee County,MI,16.429249762583094
48451,Genesee County,MI,82.62108262108262
48503,Genesee County,MI,59.06932573599241
48505,Genesee County,MI,22.697056030389366
48601,Saginaw County,MI,2.6590693257359925
48602,Saginaw County,MI,4.843304843304843
48603,Saginaw County,MI,15.194681861348528
48609,Saginaw County,MI,50.902184235517566
48640,Midland County,MI,12.630579297245964
48642,Midland County,MI,24.02659069325736
48801,Gratiot County,MI,57.07502374169041
48840,Ingham County,MI,86.32478632478633
48848,Shiawassee County,MI,91.2630579297246
48906,Ingham County,MI,16.23931623931624
48912,Ingham County,MI,86.03988603988604
49002,Kalamazoo County,MI,40.74074074074074
49007,Kalamazoo County,MI,47.863247863247864
49008,Kalamazoo County,MI,74.26400759734094
49015,Calhoun County,MI,20.70275403608737
49022,Berrien County,MI,77.58784425451091
49079,Van Buren County,MI,78.91737891737893
49201,Jackson County,MI,41.02564102564102
49202,Jackson County,MI,40.36087369420703
49424,Ottawa County,MI,18.89838556505223
49442,Muskegon County,MI,4.46343779677113
49444,Muskegon County,MI,12.060778727445394
49512,Kent County,MI,93.82716049382715
49720,Charlevoix County,MI,89.64862298195632
49849,Marquette County,MI,57.35992402659069
49870,Dickinson County,MI,99.52516619183285
55101,Ramsey County,MN,95.82146248812916
55103,Ramsey County,MN,94.77682811016145
55303,Anoka County,MN,22.31718898385565
55401,Hennepin County,MN,73.88414055080722
55407,Hennepin County,MN,7.977207977207977
55408,Hennepin County,MN,67.80626780626781
55411,Hennepin County,MN,3.9886039886039883
55423,Hennepin County,MN,24.881291547958213
55427,Hennepin County,MN,87.17948717948718
55429,Hennepin County,MN,15.669515669515668
55443,Hennepin County,MN,73.69420702754036
55901,Olmsted County,MN,31.339031339031337
55943,Houston County,MN,99.335232668566
56472,Crow Wing County,MN,93.25735992402659
56560,Clay County,MN,2.4691358024691357
56601,Beltrami County,MN,7.78727445394112
56751,Roseau County,MN,92.78252611585945
38606,Panola County,MS,76.5432098765432
38701,Washington County,MS,70.65527065527066
39069,Jefferson County,MS,87.74928774928775
39094,Leake County,MS,98.29059829059828
39110,Madison County,MS,48.243114909781575
39180,Warren County,MS,52.516619183285854
39208,Rankin County,MS,47.57834757834758
39339,Winston County,MS,80.91168091168092
39401,Forrest County,MS,38.93637226970561
39402,Lamar County,MS,73.50427350427351
39501,Harrison County,MS,60.3988603988604
39629,Lincoln County,MS,96.58119658119658
39759,Oktibbeha County,MS,75.59354226020892
63031,St. Louis County,MO,21.937321937321936
63102,St. Louis city,MO,100
63104,St. Louis city,MO,65.24216524216524
63107,St. Louis city,MO,75.21367521367522
63121,St. Louis County,MO,71.50997150997152
63125,St. Louis County,MO,52.04178537511871
63129,St. Louis County,MO,54.89078822412156
63130,St. Louis County,MO,61.0636277302944
63136,St. Louis County,MO,9.116809116809117
63137,St. Louis County,MO,46.058879392212724
63147,St. Louis city,MO,67.23646723646723
63304,St. Charles County,MO,36.84710351377018
63367,St. Charles County,MO,65.4320987654321
63801,Scott County,MO,27.255460588793923
64029,Jackson County,MO,47.95821462488129
64030,Jackson County,MO,22.22222222222222
64086,Jackson County,MO,42.45014245014245
64093,Johnson County,MO,42.92497625830959
64127,Jackson County,MO,69.04083570750238
64130,Jackson County,MO,34.472934472934476
64131,Jackson County,MO,18.043684710351375
64132,Jackson County,MO,18.803418803418804
64133,Jackson County,MO,5.7929724596391265
64134,Jackson County,MO,51.47198480531814
64633,Carroll County,MO,92.21272554605888
64870,Jasper County,MO,54.41595441595442
65202,Boone County,MO,13.865147198480532
65355,Benton County,MO,61.15859449192782
65802,Greene County,MO,46.34377967711301
59102,Yellowstone County,MT,53.371320037986706
59718,Gallatin County,MT,43.49477682811016
68111,Douglas County,NE,25.356125356125357
68701,Madison County,NE,59.44919278252612
69361,Scotts Bluff County,NE,84.71035137701804
89101,Clark County,NV,83.66571699905033
89109,Clark County,NV,98.10066476733144
89115,Clark County,NV,61.91832858499525
89141,Clark County,NV,83.85565052231719
89142,Clark County,NV,75.40360873694208
89165,Clark County,NV,98.48053181386514
89429,Lyon County,NV,87.84425451092119
03038,Rockingham County,NH,16.524216524216524
03055,Hillsborough County,NH,56.60018993352327
03101,Hillsborough County,NH,96.86609686609687
03106,Merrimack County,NH,86.79962013295346
07017,Essex County,NJ,53.84615384615385
07071,Bergen County,NJ,75.87844254510921
07103,Essex County,NJ,88.88888888888889
07104,Essex County,NJ,43.68471035137702
07106,Essex County,NJ,6.172839506172839
07111,Essex County,NJ,60.20892687559354
07203,Union County,NJ,95.53656220322887
07206,Union County,NJ,10.0664767331434
07456,Passaic County,NJ,93.16239316239316
07470,Passaic County,NJ,20.417853751187085
07508,Passaic County,NJ,96.20132953466288
07522,Passaic County,NJ,93.73219373219374
07712,Monmouth County,NJ,68.37606837606837
07726,Monmouth County,NJ,36.75213675213676
08012,Camden County,NJ,31.054131054131055
08021,Camden County,NJ,43.20987654320987
08046,Burlington County,NJ,7.88224121557455
08103,Camden County,NJ,64.19753086419753
08108,Camden County,NJ,71.13010446343779
08109,Camden County,NJ,24.406457739791072
08234,Atlantic County,NJ,86.6096866096866
08332,Cumberland County,NJ,92.5925925925926
08361,Cumberland County,NJ,77.87274453941122
08609,Mercer County,NJ,95.2516619183286
08618,Mercer County,NJ,86.51471984805318
08846,Middlesex County,NJ,99.24026590693258
08872,Middlesex County,NJ,98.19563152896487
87106,Bernalillo County,NM,26.11585944919278
87108,Bernalillo County,NM,8.262108262108262
87109,Bernalillo County,NM,21.74738841405508
87505,Santa Fe County,NM,6.457739791073125
87507,Santa Fe County,NM,39.69610636277303
87701,San Miguel County,NM,58.68945868945868
88201,Chaves County,NM,42.16524216524217
10009,New York County,NY,97.24596391263059
10011,New York County,NY,46.913580246913575
10029,New York County,NY,41.31054131054131
10301,Richmond County,NY,19.468186134852804
10304,Richmond County,NY,53.181386514719854
10451,Bronx County,NY,40.9306742640076
10452,Bronx County,NY,7.502374169040836
10453,Bronx County,NY,1.2345679012345678
10454,Bronx County,NY,8.167141500474834
10456,Bronx County,NY,0.3798670465337132
10457,Bronx County,NY,0.8547008547008548
10458,Bronx County,NY,39.50617283950617
10460,Bronx County,NY,16.049382716049383
10461,Bronx County,NY,15.0997150997151
10467,Bronx County,NY,6.362773029439696
10468,Bronx County,NY,1.899335232668566
10472,Bronx County,NY,2.9439696106362776
10475,Bronx County,NY,29.629629629629626
10701,Westchester County,NY,2.184235517568851
11201,Kings County,NY,25.8309591642925
11203,Kings County,NY,42.54510921177588
11204,Kings County,NY,34.66286799620133
11205,Kings County,NY,15.479582146248813
11207,Kings County,NY,28.584995251661923
11211,Kings County,NY,17.28395061728395
11212,Kings County,NY,1.6144349477682813
11213,Kings County,NY,28.774928774928775
11218,Kings County,NY,20.98765432098765
11220,Kings County,NY,4.653371320037987
11221,Kings County,NY,41.12060778727445
11225,Kings County,NY,65.33713200379867
11226,Kings County,NY,5.318138651471985
11229,Kings County,NY,32.38366571699905
11233,Kings County,NY,2.2792022792022792
11370,Queens County,NY,57.7397910731244
11377,Queens County,NY,21.462488129154796
11385,Queens County,NY,11.585944919278253
11432,Queens County,NY,31.5289648622982
11435,Queens County,NY,46.34377967711301
11553,Nassau County,NY,63.152896486229814
11691,Queens County,NY,40.07597340930674
11717,Suffolk County,NY,23.456790123456788
12206,Albany County,NY,24.976258309591643
12304,Schenectady County,NY,36.56220322886989
12832,Washington County,NY,82.71604938271605
12866,Saratoga County,NY,17.37891737891738
13104,Onondaga County,NY,60.68376068376068
13203,Onondaga County,NY,23.741690408357073
13204,Onondaga County,NY,14.529914529914532
13205,Onondaga County,NY,51.28205128205128
13208,Onondaga County,NY,15.289648622981955
13212,Onondaga County,NY,37.98670465337132
13219,Onondaga County,NY,65.05223171889838
13224,Onondaga County,NY,56.88509021842355
13460,Chenango County,NY,84.99525166191833
13492,Oneida County,NY,72.8395061728395
13732,Tioga County,NY,55.46058879392213
13760,Broome County,NY,49.85754985754986
13811,Tioga County,NY,87.9392212725546
13825,Otsego County,NY,96.77113010446344
13833,Broome County,NY,81.8613485280152
13838,Delaware County,NY,77.11301044634378
13856,Delaware County,NY,58.97435897435898
13901,Broome County,NY,5.128205128205128
13905,Broome County,NY,2.3741690408357075
14006,Erie County,NY,92.49762583095917
14141,Erie County,NY,88.69895536562204
14207,Erie County,NY,9.591642924976258
14208,Erie County,NY,35.13770180436847
14211,Erie County,NY,10.541310541310542
14212,Erie County,NY,49.572649572649574
14214,Erie County,NY,38.08167141500475
14215,Erie County,NY,80.81671415004749
14216,Erie County,NY,33.428300094966765
14225,Erie County,NY,40.64577397910731
14305,Niagara County,NY,30.009496676163344
14445,Monroe County,NY,79.2022792022792
14456,Ontario County,NY,36.65716999050333
14605,Monroe County,NY,11.11111111111111
14609,Monroe County,NY,0.7597340930674265
14612,Monroe County,NY,17.663817663817664
14613,Monroe County,NY,14.4349477682811
14615,Monroe County,NY,14.339981006647673
14619,Monroe County,NY,17.94871794871795
14621,Monroe County,NY,0.949667616334283
14623,Monroe County,NY,21.17758784425451
14850,Tompkins County,NY,6.552706552706552
14883,Tioga County,NY,89.74358974358975
27105,Forsyth County,NC,3.418803418803419
27127,Forsyth County,NC,18.233618233618234
27253,Alamance County,NC,20.1329534662868
27260,Guilford County,NC,64.00759734093067
27292,Davidson County,NC,49.097815764482434
27320,Rockingham County,NC,13.96011396011396
27405,Guilford County,NC,13.580246913580247
27406,Guilford County,NC,5.60303893637227
27407,Guilford County,NC,23.55175688509022
27511,Wake County,NC,74.07407407407408
27587,Wake County,NC,26.590693257359927
27610,Wake County,NC,8.641975308641975
27615,Wake County,NC,48.812915479582145
27616,Wake County,NC,25.925925925925924
27703,Durham County,NC,45.10921177587844
27707,Durham County,NC,15.859449192782527
27713,Durham County,NC,28.8698955365622
28043,Rutherford County,NC,47.293447293447294
28112,Union County,NC,55.55555555555556
28150,Cleveland County,NC,27.065527065527068
28208,Mecklenburg County,NC,11.396011396011396
28213,Mecklenburg County,NC,31.62393162393162
28214,Mecklenburg County,NC,35.51756885090219
28311,Cumberland County,NC,29.534662867996204
28337,Bladen County,NC,76.63817663817663
28348,Cumberland County,NC,43.11490978157645
28358,Robeson County,NC,20.322886989553655
28379,Richmond County,NC,20.60778727445394
28513,Pitt County,NC,85.09021842355176
28562,Craven County,NC,79.77207977207978
28574,Onslow County,NC,76.73314339981006
28584,Carteret County,NC,82.43114909781576
28690,Burke County,NC,62.10826210826211
28715,Buncombe County,NC,58.0246913580247
28722,Polk County,NC,97.05603038936373
58237,Walsh County,ND,95.44159544159544
43004,Franklin County,OH,50.142450142450144
43015,Delaware County,OH,18.42355175688509
43016,Franklin County,OH,70.75023741690408
43026,Franklin County,OH,25.261158594491928
43035,Delaware County,OH,80.43684710351377
43068,Franklin County,OH,12.535612535612536
43125,Franklin County,OH,80.15194681861348
43205,Franklin County,OH,54.605887939221276
43206,Franklin County,OH,80.34188034188034
43211,Franklin County,OH,13.485280151946819
43213,Franklin County,OH,11.77587844254511
43219,Franklin County,OH,18.708452041785375
43221,Franklin County,OH,75.49857549857549
43222,Franklin County,OH,64.29249762583096
43224,Franklin County,OH,6.932573599240266
43227,Franklin County,OH,27.54036087369421
43228,Franklin County,OH,4.5584045584045585
43230,Franklin County,OH,19.56315289648623
43232,Franklin County,OH,5.413105413105413
43302,Marion County,OH,3.038936372269706
43402,Wood County,OH,26.21082621082621
43420,Sandusky County,OH,13.390313390313391
43560,Lucas County,OH,29.914529914529915
43604,Lucas County,OH,90.50332383665717
43605,Lucas County,OH,19.08831908831909
43607,Lucas County,OH,31.813865147198477
43608,Lucas County,OH,10.161443494776828
43609,Lucas County,OH,51.566951566951566
43611,Lucas County,OH,17.568850902184234
43612,Lucas County,OH,48.62298195631529
43613,Lucas County,OH,23.646723646723647
43614,Lucas County,OH,66.00189933523268
43701,Muskingum County,OH,1.1396011396011396
43725,Guernsey County,OH,18.51851851851852
43821,Muskingum County,OH,96.10636277302945
43830,Muskingum County,OH,82.90598290598291
44011,Lorain County,OH,37.2269705603039
44052,Lorain County,OH,20.22792022792023
44055,Lorain County,OH,10.826210826210826
44057,Lake County,OH,33.61823361823362
44060,Lake County,OH,35.13770180436847
44089,Erie County,OH,78.06267806267806
44102,Cuyahoga County,OH,13.295346628679964
44104,Cuyahoga County,OH,47.38841405508072
44105,Cuyahoga County,OH,62.29819563152896
44106,Cuyahoga County,OH,44.15954415954416
44107,Cuyahoga County,OH,34.94776828110162
44108,Cuyahoga County,OH,57.45489078822412
44109,Cuyahoga County,OH,58.21462488129154
44110,Cuyahoga County,OH,11.68091168091168
44111,Cuyahoga County,OH,2.089268755935423
44112,Cuyahoga County,OH,60.58879392212726
44114,Cuyahoga County,OH,38.65147198480532
44115,Cuyahoga County,OH,71.41500474833808
44118,Cuyahoga County,OH,47.483380816714146
44120,Cuyahoga County,OH,68.755935422602093
44121,Cuyahoga County,OH,63.34283000949667
44123,Cuyahoga County,OH,32.763532763532766
44125,Cuyahoga County,OH,1.8043684710351375
44126,Cuyahoga County,OH,59.63912630579298
44128,Cuyahoga County,OH,40.45584045584046
44129,Cuyahoga County,OH,18.328584995251664
44132,Cuyahoga County,OH,65.52706552706553
44135,Cuyahoga County,OH,21.65242165242165
44136,Cuyahoga County,OH,33.238366571699906
44137,Cuyahoga County,OH,7.122507122507122
44305,Summit County,OH,17.188983855650523
44306,Summit County,OH,12.250712250712251
44308,Summit County,OH,99.43019943019942
44320,Summit County,OH,20.892687559354226
44460,Columbiana County,OH,25.451092117758783
44483,Trumbull County,OH,56.22032288698955
44502,Mahoning County,OH,51.092117758784426
44505,Mahoning County,OH,38.17663817663818
44511,Mahoning County,OH,28.205128205128204
44646,Stark County,OH,11.490978157644824
44707,Stark County,OH,68.09116809116809
44870,Erie County,OH,2.7540360873694207
45011,Butler County,OH,3.608736942070275
45013,Butler County,OH,23.076923076923077
45069,Butler County,OH,64.1025641025641
45103,Clermont County,OH,32.098765432098766
45177,Clinton County,OH,28.679962013295345
45202,Hamilton County,OH,78.72744539411207
45203,Hamilton County,OH,94.39696106362773
45205,Hamilton County,OH,62.86799620132953
45206,Hamilton County,OH,62.20322886989553
45207,Hamilton County,OH,87.55935422602089
45208,Hamilton County,OH,89.07882241215574
45211,Hamilton County,OH,11.20607787274454
45214,Hamilton County,OH,84.04558404558404
45223,Hamilton County,OH,91.07312440645774
45229,Hamilton County,OH,36.37226970560304
45236,Hamilton County,OH,86.2298195631529
45238,Hamilton County,OH,17.094017094017094
45239,Hamilton County,OH,20.51282051282051
45240,Hamilton County,OH,30.29439696106363
45246,Hamilton County,OH,82.14624881291547
45320,Preble County,OH,49.192782526115856
45405,Montgomery County,OH,65.8119658119658
45406,Montgomery County,OH,54.700854700854705
45417,Montgomery County,OH,74.8338081671415
45426,Montgomery County,OH,85.84995251661918
45440,Montgomery County,OH,90.31339031339031
45601,Ross County,OH,1.0446343779677114
45657,Scioto County,OH,99.14529914529915
45662,Scioto County,OH,21.082621082621085
45760,Meigs County,OH,96.29629629629629
45801,Allen County,OH,79.39221272554606
45840,Hancock County,OH,3.7037037037037033
73111,Oklahoma County,OK,73.50427350427351
73120,Oklahoma County,OK,50.997150997150996
73127,Oklahoma County,OK,59.7340930674264
74066,Creek County,OK,38.46153846153847
74106,Tulsa County,OK,78.15764482431149
74820,Pontotoc County,OK,9.781576448243115
74902,Le Flore County,OK,94.49192782526116
97005,Washington County,OR,57.169990503323845
97027,Clackamas County,OR,85.18518518518519
97202,Multnomah County,OR,32.85849952516619
97206,Multnomah County,OR,16.80911680911681
97217,Multnomah County,OR,49.667616334283
97233,Multnomah County,OR,19.943019943019944
97305,Marion County,OR,30.57929724596391
97520,Jackson County,OR,87.46438746438746
15042,Beaver County,PA,89.55365622032289
15062,Westmoreland County,PA,96.9610636277303
15132,Allegheny County,PA,14.814814814814813
15146,Allegheny County,PA,56.69515669515669
15147,Allegheny County,PA,76.25830959164293
15206,Allegheny County,PA,21.84235517568851
15210,Allegheny County,PA,54.32098765432099
15214,Allegheny County,PA,62.01329534662868
15226,Allegheny County,PA,77.96771130104464
15236,Allegheny County,PA,56.50522317188984
15901,Cambria County,PA,89.17378917378917
15906,Cambria County,PA,65.14719848053181
16502,Erie County,PA,81.57644824311491
16507,Erie County,PA,96.01139601139602
16652,Huntingdon County,PA,48.148148148148145
16823,Centre County,PA,62.39316239316239
16830,Clearfield County,PA,34.28300094966762
17022,Lancaster County,PA,57.26495726495726
17050,Cumberland County,PA,27.635327635327634
17103,Dauphin County,PA,79.01234567901234
17111,Dauphin County,PA,19.848053181386515
17315,York County,PA,33.238366571699906
17404,York County,PA,48.05318138651472
17870,Snyder County,PA,83.47578347578347
18017,Northampton County,PA,7.6923076923076925
18102,Lehigh County,PA,1.7094017094017095
18252,Schuylkill County,PA,64.67236467236467
18701,Luzerne County,PA,98.95536562203229
18702,Luzerne County,PA,37.13200379867047
19002,Montgomery County,PA,44.729344729344724
19013,Delaware County,PA,4.748338081671415
19023,Delaware County,PA,35.99240265906933
19027,Montgomery County,PA,52.80151946818613
19050,Delaware County,PA,34.09306742640076
19063,Delaware County,PA,62.58309591642926
19087,Chester County,PA,98.38556505223171
19104,Philadelphia County,PA,13.770180436847104
19107,Philadelphia County,PA,94.20702754036088
19111,Philadelphia County,PA,4.938271604938271
19119,Philadelphia County,PA,81.76638176638177
19120,Philadelphia County,PA,81.19658119658119
19121,Philadelphia County,PA,41.21557454890788
19123,Philadelphia County,PA,63.24786324786324
19124,Philadelphia County,PA,69.61063627730294
19128,Philadelphia County,PA,59.35422602089269
19129,Philadelphia County,PA,72.4596391263058
19130,Philadelphia County,PA,45.86894586894587
19131,Philadelphia County,PA,7.31244064577398
19132,Philadelphia County,PA,7.21747388414055
19133,Philadelphia County,PA,55.27065527065527
19134,Philadelphia County,PA,42.07027540360874
19135,Philadelphia County,PA,54.700854700854705
19138,Philadelphia County,PA,81.10161443494776
19139,Philadelphia County,PA,72.26970560303894
19140,Philadelphia County,PA,3.513770180436847
19141,Philadelphia County,PA,59.82905982905983
19142,Philadelphia County,PA,15.479582146248813
19143,Philadelphia County,PA,24.786324786324787
19144,Philadelphia County,PA,28.01519468186135
19147,Philadelphia County,PA,22.981956315289647
19148,Philadelphia County,PA,9.876543209876543
19150,Philadelphia County,PA,39.22127255460589
19151,Philadelphia County,PA,71.32003798670465
19342,Delaware County,PA,83.38081671415006
19401,Montgomery County,PA,10.731244064577398
19428,Montgomery County,PA,55.84045584045584
19464,Montgomery County,PA,6.647673314339982
19601,Berks County,PA,4.178537511870846
19602,Berks County,PA,46.81861348528015
02809,Bristol County,RI,66.66666666666666
02852,Washington County,RI,52.991452991452995
02864,Providence County,RI,68.28110161443495
29108,Newberry County,SC,65.71699905033238
29349,Spartanburg County,SC,30.1994301994302
29385,Spartanburg County,SC,91.64292497625831
29405,Charleston County,SC,32.57359924026591
29407,Charleston County,SC,47.008547008547005
29621,Anderson County,SC,44.34947768281102
29624,Anderson County,SC,78.34757834757835
29649,Greenwood County,SC,74.35897435897436
29678,Oconee County,SC,64.38746438746439
29803,Aiken County,SC,52.32668566001899
57104,Minnehaha County,SD,35.8974358974359
37027,Williamson County,TN,48.338081671415004
37066,Sumner County,TN,13.010446343779677
37218,Davidson County,TN,60.30389363722697
37745,Greene County,TN,30.67426400759734
37849,Knox County,TN,48.433048433048434
37917,Knox County,TN,20.7977207977208
37923,Knox County,TN,60.96866096866097
38016,Shelby County,TN,92.87749287749287
38068,Fayette County,TN,96.39126305792972
38106,Shelby County,TN,88.98385565052232
38112,Shelby County,TN,72.1747388414055
38114,Shelby County,TN,27.350427350427353
38116,Shelby County,TN,58.78442545109211
38127,Shelby County,TN,11.301044634377968
38128,Shelby County,TN,24.976258309591643
38301,Madison County,TN,12.725546058879392
75007,Denton County,TX,56.98005698005698
75051,Dallas County,TX,51.092117758784426
75062,Dallas County,TX,55.3656220322887
75063,Dallas County,TX,66.57169990503324
75075,Collin County,TX,73.40930674264008
75165,Ellis County,TX,33.71320037986705
75181,Dallas County,TX,61.82336182336182
75203,Dallas County,TX,82.2412155745489
75204,Dallas County,TX,70.08547008547008
75217,Dallas County,TX,41.78537511870845
75219,Dallas County,TX,85.66001899335232
75243,Dallas County,TX,17.47388414055081
75501,Bowie County,TX,38.36657169990503
75604,Gregg County,TX,49.287749287749286
75647,Gregg County,TX,71.60493827160494
75709,Smith County,TX,95.6315289648623
76010,Tarrant County,TX,21.557454890788225
76020,Tarrant County,TX,36.08736942070275
76102,Tarrant County,TX,80.72174738841406
76105,Tarrant County,TX,24.311490978157646
76112,Tarrant County,TX,52.611585944919284
76119,Tarrant County,TX,9.306742640075974
76140,Tarrant County,TX,45.67901234567901
76273,Grayson County,TX,93.06742640075973
76504,Bell County,TX,12.91547958214625
76541,Bell County,TX,54.98575498575499
76711,McLennan County,TX,97.91073124406458
77014,Harris County,TX,68.56600189933523
77022,Harris County,TX,63.53276353276354
77030,Harris County,TX,94.01709401709401
77033,Harris County,TX,62.67806267806267
77034,Harris County,TX,66.47673314339981
77064,Harris County,TX,43.77967711301044
77066,Harris County,TX,76.92307692307693
77073,Harris County,TX,61.63342830009497
77082,Harris County,TX,58.59449192782527
77084,Harris County,TX,69.70560303893637
77085,Harris County,TX,91.54795821462488
77338,Harris County,TX,82.33618233618233
77372,Montgomery County,TX,92.68755935422602
77414,Matagorda County,TX,54.22602089268756
77447,Harris County,TX,79.48717948717949
77521,Harris County,TX,35.04273504273504
77530,Harris County,TX,65.52706552706553
77573,Galveston County,TX,12.060778727445394
77591,Galveston County,TX,64.57739791073125
78028,Kerr County,TX,44.82431149097816
78041,Webb County,TX,44.53941120607787
78214,Bexar County,TX,73.21937321937322
78223,Bexar County,TX,23.836657169990502
78226,Bexar County,TX,94.68186134852802
78232,Bexar County,TX,81.29154795821462
78572,Hidalgo County,TX,23.36182336182336
78613,Williamson County,TX,39.98100664767331
78744,Travis County,TX,73.31433998100665
78745,Travis County,TX,69.32573599240266
78754,Travis County,TX,86.8945868945869
79107,Potter County,TX,41.69040835707503
79423,Lubbock County,TX,35.61253561253561
79424,Lubbock County,TX,31.24406457739791
79606,Taylor County,TX,90.69325735992403
79705,Midland County,TX,32.288698955365625
79720,Howard County,TX,85.75498575498575
79764,Ector County,TX,63.817663817663814
79938,El Paso County,TX,38.84140550807217
84015,Davis County,UT,26.495726495726498
84029,Tooele County,UT,67.4264007597341
84047,Salt Lake County,UT,32.003798670465336
84081,Salt Lake County,UT,37.70180436847104
84109,Salt Lake County,UT,74.4539411206078
84118,Salt Lake County,UT,22.032288698955366
84119,Salt Lake County,UT,15.7644824311491
84120,Salt Lake County,UT,9.49667616334283
05404,Chittenden County,VT,90.40835707502374
22026,Prince William County,VA,72.55460588793922
22124,Fairfax County,VA,92.11775878442545
22306,Fairfax County,VA,35.80246913580247
22405,Stafford County,VA,66.00189933523268
22407,Spotsylvania County,VA,22.507122507122507
22802,Harrisonburg city,VA,29.154795821462486
23231,Henrico County,VA,28.300094966761634
23462,Virginia Beach city,VA,59.16429249762582
23504,Norfolk city,VA,31.908831908831907
23509,Norfolk city,VA,81.00664767331433
23661,Hampton city,VA,71.98480531813865
23703,Portsmouth city,VA,63.627730294396954
23704,Portsmouth city,VA,34.18803418803419
23803,Petersburg city,VA,14.719848053181387
24073,Montgomery County,VA,50.712250712250714
24502,Lynchburg city,VA,52.13675213675214
24531,Pittsylvania County,VA,97.62583095916429
24557,Pittsylvania County,VA,90.78822412155746
98002,King County,WA,87.27445394112061
98102,King County,WA,80.62678062678063
98375,Pierce County,WA,60.87369420702754
98404,Pierce County,WA,40.2659069325736
98467,Pierce County,WA,88.03418803418803
98682,Clark County,WA,67.61633428300094
99350,Benton County,WA,97.81576448243115
20001,District of Columbia,DC,25.73599240265907
20002,District of Columbia,DC,6.7426400759734095
20011,District of Columbia,DC,9.876543209876543
20015,District of Columbia,DC,92.3076923076923
20019,District of Columbia,DC,47.008547008547005
20020,District of Columbia,DC,3.2288698955365627
20024,District of Columbia,DC,66.76163342830009
20032,District of Columbia,DC,29.34472934472934
25213,Putnam County,WV,96.67616334283001
25301,Kanawha County,WV,94.11206077872745
25387,Kanawha County,WV,84.9002849002849
25560,Putnam County,WV,92.9724596391263
25701,Cabell County,WV,56.12535612535613
25704,Wayne County,WV,34.75783475783476
26101,Wood County,WV,6.267806267806268
26726,Mineral County,WV,50.237416904083574
53140,Kenosha County,WI,14.150047483380817
53142,Kenosha County,WI,12.345679012345679
53170,Kenosha County,WI,98.57549857549857
53186,Waukesha County,WI,32.668566001899336
53204,Milwaukee County,WI,8.357075023741691
53205,Milwaukee County,WI,66.38176638176638
53206,Milwaukee County,WI,83.09591642924975
53210,Milwaukee County,WI,9.401709401709402
53216,Milwaukee County,WI,69.89553656220323
53218,Milwaukee County,WI,8.452041785375117
53224,Milwaukee County,WI,43.9696106362773
53225,Milwaukee County,WI,13.675213675213676
53402,Racine County,WI,68.18613485280152
53405,Racine County,WI,7.4074074074074066
53511,Rock County,WI,1.4245014245014245
53538,Jefferson County,WI,58.87939221272555
53913,Sauk County,WI,45.39411206077873
53948,Juneau County,WI,88.69895536562204
54601,La Crosse County,WI,8.831908831908832
54660,Monroe County,WI,58.30959164292497
82070,Albany County,WY,89.9335232668566
