ZipCode,county,state,Adult
35045,Chilton County,AL,60.89686098654708
35064,Jefferson County,AL,59.10313901345291
35173,Jefferson County,AL,49.417040358744394
35501,Walker County,AL,84.66367713004485
35601,Morgan County,AL,13.542600896860987
35654,Franklin County,AL,84.2152466367713
35803,Madison County,AL,63.76681614349776
35901,Etowah County,AL,33.7219730941704
35952,Etowah County,AL,83.67713004484305
35957,Marshall County,AL,45.02242152466368
36272,Calhoun County,AL,46.90582959641256
36277,Calhoun County,AL,84.48430493273543
36305,Houston County,AL,56.771300448430495
36502,Escambia County,AL,43.49775784753363
36611,Mobile County,AL,96.14349775784753
36877,Lee County,AL,77.48878923766817
99709,Fairbanks North Star Borough,AK,63.139013452914796
99901,Ketchikan Gateway Borough,AK,40.08968609865471
85006,Maricopa County,AZ,40.98654708520179
85008,Maricopa County,AZ,13.273542600896862
85020,Maricopa County,AZ,36.502242152466366
85023,Maricopa County,AZ,26.188340807174885
85028,Maricopa County,AZ,76.05381165919283
85031,Maricopa County,AZ,49.955156950672645
85033,Maricopa County,AZ,16.233183856502244
85201,Maricopa County,AZ,13.991031390134529
85203,Maricopa County,AZ,35.60538116591928
85207,Maricopa County,AZ,24.484304932735427
85225,Maricopa County,AZ,11.569506726457398
85234,Maricopa County,AZ,31.47982062780269
85344,La Paz County,AZ,36.32286995515695
85353,Maricopa County,AZ,31.838565022421523
85546,Graham County,AZ,49.775784753363226
85712,Pima County,AZ,20.53811659192825
85715,Pima County,AZ,75.8744394618834
85730,Pima County,AZ,24.573991031390136
85747,Pima County,AZ,95.60538116591928
85901,Navajo County,AZ,51.39013452914798
85941,Apache County,AZ,12.73542600896861
86005,Coconino County,AZ,50.04484304932736
86303,Yavapai County,AZ,83.31838565022422
86314,Yavapai County,AZ,16.771300448430495
72734,Benton County,AR,90.49327354260089
72761,Benton County,AR,73.6322869955157
72801,Pope County,AR,80
90003,Los Angeles County,CA,67.17488789237667
90004,Los Angeles County,CA,88.34080717488789
90016,Los Angeles County,CA,72.37668161434978
90032,Los Angeles County,CA,89.68609865470853
90033,Los Angeles County,CA,42.42152466367713
90037,Los Angeles County,CA,68.60986547085201
90063,Los Angeles County,CA,76.68161434977578
90065,Los Angeles County,CA,79.46188340807176
90094,Los Angeles County,CA,93.90134529147983
90220,Los Angeles County,CA,95.51569506726457
90221,Los Angeles County,CA,55.51569506726457
90222,Los Angeles County,CA,66.90582959641256
90247,Los Angeles County,CA,77.21973094170403
90301,Los Angeles County,CA,33.7219730941704
90650,Los Angeles County,CA,66.45739910313901
90660,Los Angeles County,CA,26.726457399103136
90744,Los Angeles County,CA,80.89686098654708
91030,Los Angeles County,CA,84.66367713004485
91201,Los Angeles County,CA,93.45291479820628
91340,Los Angeles County,CA,62.869955156950674
91342,Los Angeles County,CA,52.37668161434977
91343,Los Angeles County,CA,93.63228699551568
91352,Los Angeles County,CA,23.856502242152466
91354,Los Angeles County,CA,76.50224215246637
91402,Los Angeles County,CA,25.56053811659193
91403,Los Angeles County,CA,77.48878923766817
91423,Los Angeles County,CA,92.10762331838565
91605,Los Angeles County,CA,46.54708520179372
91702,Los Angeles County,CA,63.408071748878925
91732,Los Angeles County,CA,71.39013452914799
91762,San Bernardino County,CA,33.27354260089686
91768,Los Angeles County,CA,41.88340807174888
91786,San Bernardino County,CA,30.493273542600896
91911,San Diego County,CA,55.426008968609864
91950,San Diego County,CA,35.24663677130045
91977,San Diego County,CA,85.65022421524664
92007,San Diego County,CA,96.50224215246637
92014,San Diego County,CA,93.00448430493273
92024,San Diego County,CA,39.01345291479821
92026,San Diego County,CA,54.17040358744395
92058,San Diego County,CA,94.7085201793722
92065,San Diego County,CA,85.56053811659193
92084,San Diego County,CA,56.502242152466366
92103,San Diego County,CA,44.843049327354265
92105,San Diego County,CA,17.219730941704036
92126,San Diego County,CA,43.946188340807176
92127,San Diego County,CA,66.2780269058296
92128,San Diego County,CA,71.6591928251121
92201,Riverside County,CA,22.869955156950674
92231,Imperial County,CA,31.748878923766817
92234,Riverside County,CA,14.439461883408072
92236,Riverside County,CA,43.04932735426009
92243,Imperial County,CA,23.318385650224215
92311,San Bernardino County,CA,35.336322869955154
92313,San Bernardino County,CA,94.34977578475336
92324,San Bernardino County,CA,52.19730941704036
92336,San Bernardino County,CA,9.147982062780269
92346,San Bernardino County,CA,25.381165919282513
92371,San Bernardino County,CA,93.27354260089686
92395,San Bernardino County,CA,25.829596412556054
92405,San Bernardino County,CA,44.125560538116595
92407,San Bernardino County,CA,17.757847533632287
92410,San Bernardino County,CA,31.928251121076233
92508,Riverside County,CA,79.10313901345292
92509,Riverside County,CA,22.242152466367713
92544,Riverside County,CA,47.89237668161435
92545,Riverside County,CA,40.89686098654708
92603,Orange County,CA,82.0627802690583
92673,Orange County,CA,65.65022421524664
92703,Orange County,CA,69.32735426008969
92782,Orange County,CA,95.42600896860986
92841,Orange County,CA,73.18385650224215
92880,Riverside County,CA,21.434977578475337
93003,Ventura County,CA,15.964125560538116
93063,Ventura County,CA,33.54260089686099
93274,Tulare County,CA,58.9237668161435
93307,Kern County,CA,13.452914798206278
93314,Kern County,CA,78.11659192825113
93433,San Luis Obispo County,CA,75.33632286995515
93436,Santa Barbara County,CA,84.12556053811659
93446,San Luis Obispo County,CA,25.112107623318387
93458,Santa Barbara County,CA,14.887892376681613
93505,Kern County,CA,98.65470852017937
93620,Merced County,CA,91.74887892376682
93625,Fresno County,CA,93.54260089686099
93654,Fresno County,CA,86.99551569506725
93706,Fresno County,CA,54.529147982062774
93722,Fresno County,CA,8.340807174887892
93726,Fresno County,CA,20.807174887892376
93905,Monterey County,CA,68.43049327354261
94014,San Mateo County,CA,44.304932735426014
94019,San Mateo County,CA,91.12107623318386
94118,San Francisco County,CA,87.62331838565022
94121,San Francisco County,CA,70.13452914798206
94123,San Francisco County,CA,99.19282511210761
94158,San Francisco County,CA,91.4798206278027
94401,San Mateo County,CA,89.23766816143498
94509,Contra Costa County,CA,21.16591928251121
94513,Contra Costa County,CA,33.18385650224215
94555,Alameda County,CA,85.47085201793722
94568,Alameda County,CA,52.64573991031391
94607,Alameda County,CA,92.82511210762333
94608,Alameda County,CA,53.09417040358745
94621,Alameda County,CA,83.76681614349776
94804,Contra Costa County,CA,61.34529147982063
95023,San Benito County,CA,26.45739910313901
95076,Santa Cruz County,CA,51.12107623318386
95112,Santa Clara County,CA,80.26905829596413
95204,San Joaquin County,CA,54.88789237668161
95240,San Joaquin County,CA,44.93273542600897
95328,Stanislaus County,CA,92.28699551569507
95351,Stanislaus County,CA,20.35874439461883
95354,Stanislaus County,CA,32.19730941704036
95358,Stanislaus County,CA,28.430493273542602
95367,Stanislaus County,CA,78.38565022421524
95368,Stanislaus County,CA,78.29596412556053
95377,San Joaquin County,CA,94.97757847533632
95382,Stanislaus County,CA,23.139013452914796
95409,Sonoma County,CA,92.73542600896862
95482,Mendocino County,CA,35.69506726457399
95632,Sacramento County,CA,59.91031390134529
95823,Sacramento County,CA,11.928251121076233
95826,Sacramento County,CA,87.08520179372198
95828,Sacramento County,CA,70.4035874439462
95842,Sacramento County,CA,44.304932735426014
95928,Butte County,CA,32.64573991031391
95932,Colusa County,CA,91.83856502242152
95948,Butte County,CA,76.32286995515695
95965,Butte County,CA,66.99551569506727
95988,Glenn County,CA,91.65919282511211
80011,Arapahoe County,CO,28.789237668161434
80204,Denver County,CO,20.986547085201792
80219,Denver County,CO,4.932735426008969
80260,Adams County,CO,45.65022421524664
80301,Boulder County,CO,58.11659192825112
80504,Boulder County,CO,30.313901345291477
80524,Larimer County,CO,61.52466367713004
80538,Larimer County,CO,12.01793721973094
80549,Larimer County,CO,83.40807174887892
80602,Adams County,CO,45.73991031390135
80631,Weld County,CO,8.071748878923767
80759,Yuma County,CO,99.46188340807176
81321,Montezuma County,CO,65.91928251121077
81637,Eagle County,CO,97.9372197309417
06040,Hartford County,CT,9.417040358744394
06051,Hartford County,CT,3.766816143497758
06052,Hartford County,CT,76.68161434977578
06067,Hartford County,CT,67.35426008968611
06082,Hartford County,CT,18.475336322869957
06095,Hartford County,CT,70.04484304932735
06112,Hartford County,CT,65.29147982062781
06117,Hartford County,CT,70.5829596412556
06460,New Haven County,CT,60.71748878923767
06608,Fairfield County,CT,62.69058295964126
06610,Fairfield County,CT,26.09865470852018
06704,New Haven County,CT,95.24663677130046
06851,Fairfield County,CT,57.13004484304933
06897,Fairfield County,CT,74.52914798206278
06902,Fairfield County,CT,19.91031390134529
19713,New Castle County,DE,28.878923766816143
19720,New Castle County,DE,2.9596412556053813
19904,Kent County,DE,13.183856502242152
19938,Kent County,DE,65.11210762331838
19945,Sussex County,DE,87.53363228699551
32209,Duval County,FL,4.394618834080718
32211,Duval County,FL,20.089686098654706
32303,Leon County,FL,42.869955156950674
32311,Leon County,FL,88.4304932735426
32567,Okaloosa County,FL,99.37219730941705
32714,Seminole County,FL,65.02242152466367
32810,Orange County,FL,37.847533632286996
32818,Orange County,FL,16.681614349775785
32948,Indian River County,FL,92.46636771300449
33014,Miami-Dade County,FL,65.47085201793722
33023,Broward County,FL,51.300448430493276
33024,Broward County,FL,27.89237668161435
33030,Miami-Dade County,FL,43.228699551569505
33040,Monroe County,FL,42.959641255605376
33068,Broward County,FL,43.766816143497756
33073,Broward County,FL,86.72645739910314
33125,Miami-Dade County,FL,43.587443946188344
33127,Miami-Dade County,FL,54.97757847533632
33131,Miami-Dade County,FL,89.59641255605382
33144,Miami-Dade County,FL,80.53811659192826
33157,Miami-Dade County,FL,33.90134529147982
33169,Miami-Dade County,FL,41.16591928251121
33185,Miami-Dade County,FL,90.31390134529148
33312,Broward County,FL,33.6322869955157
33404,Palm Beach County,FL,68.3408071748879
33413,Palm Beach County,FL,81.25560538116592
33458,Palm Beach County,FL,23.04932735426009
33460,Palm Beach County,FL,91.39013452914799
33463,Palm Beach County,FL,48.25112107623318
33540,Pasco County,FL,86.54708520179372
33566,Hillsborough County,FL,57.399103139013455
33611,Hillsborough County,FL,70.13452914798206
33612,Hillsborough County,FL,10.134529147982063
33647,Hillsborough County,FL,77.04035874439462
33771,Pinellas County,FL,44.035874439461885
33913,Lee County,FL,79.73094170403587
33967,Lee County,FL,57.13004484304933
33976,Lee County,FL,69.95515695067265
34210,Manatee County,FL,83.2286995515695
34232,Sarasota County,FL,46.27802690582959
34475,Marion County,FL,62.600896860986545
34479,Marion County,FL,64.03587443946188
34488,Marion County,FL,71.21076233183857
34601,Hernando County,FL,48.87892376681614
34608,Hernando County,FL,69.23766816143497
34609,Hernando County,FL,30.22421524663677
34613,Hernando County,FL,73.09417040358744
34684,Pinellas County,FL,69.5964125560538
34741,Osceola County,FL,22.690582959641254
34748,Lake County,FL,19.282511210762333
34953,St. Lucie County,FL,5.9192825112107625
30044,Gwinnett County,GA,18.923766816143498
30145,Bartow County,GA,85.73991031390135
30152,Cobb County,GA,54.43946188340807
30241,Troup County,GA,26.2780269058296
30248,Henry County,GA,56.95067264573991
30308,Fulton County,GA,73.99103139013454
30331,Fulton County,GA,17.668161434977577
30558,Jackson County,GA,99.64125560538116
30655,Walton County,GA,34.7085201793722
30720,Whitfield County,GA,53.81165919282511
31005,Houston County,GA,80.35874439461882
31023,Dodge County,GA,88.69955156950672
31204,Bibb County,GA,30.582959641255602
31537,Charlton County,GA,85.2914798206278
39819,Decatur County,GA,77.66816143497758
96707,Honolulu County,HI,85.91928251121075
96720,Hawaii County,HI,32.28699551569507
96793,Maui County,HI,74.43946188340807
96819,Honolulu County,HI,16.591928251121075
83201,Bannock County,ID,54.529147982062774
83301,Twin Falls County,ID,18.654708520179373
83333,Blaine County,ID,90.5829596412556
83401,Bonneville County,ID,15.426008968609867
83440,Madison County,ID,92.01793721973094
83455,Teton County,ID,94.17040358744396
83501,Nez Perce County,ID,14.52914798206278
83642,Ada County,ID,66.18834080717488
83647,Elmore County,ID,82.60089686098655
83703,Ada County,ID,59.46188340807175
83709,Ada County,ID,63.318385650224215
60005,Cook County,IL,54.7085201793722
60050,McHenry County,IL,37.488789237668165
60074,Cook County,IL,40.80717488789238
60076,Cook County,IL,88.5201793721973
60108,DuPage County,IL,57.937219730941706
60126,DuPage County,IL,34.97757847533632
60181,DuPage County,IL,61.79372197309417
60201,Cook County,IL,43.04932735426009
60411,Cook County,IL,12.73542600896861
60455,Cook County,IL,75.7847533632287
60471,Cook County,IL,69.68609865470852
60510,Kane County,IL,34.52914798206278
60513,Cook County,IL,39.91031390134529
60542,Kane County,IL,64.48430493273543
60544,Will County,IL,36.681614349775785
60561,DuPage County,IL,56.860986547085204
60619,Cook County,IL,6.726457399103139
60622,Cook County,IL,86.27802690582959
60630,Cook County,IL,22.51121076233184
60641,Cook County,IL,13.094170403587443
60707,Cook County,IL,19.192825112107624
62052,Jersey County,IL,68.87892376681614
62301,Adams County,IL,32.82511210762332
62864,Jefferson County,IL,47.08520179372198
46036,Madison County,IN,60.17937219730942
46131,Johnson County,IN,28.699551569506728
46142,Johnson County,IN,41.88340807174888
46214,Marion County,IN,56.05381165919282
46217,Marion County,IN,51.92825112107623
46226,Marion County,IN,11.47982062780269
46307,Lake County,IN,12.914798206278027
46312,Lake County,IN,16.322869955156953
46319,Lake County,IN,59.0134529147982
46341,Porter County,IN,61.88340807174888
46360,LaPorte County,IN,5.829596412556054
46375,Lake County,IN,30.852017937219735
46383,Porter County,IN,7.982062780269058
46528,Elkhart County,IN,88.60986547085203
46737,Steuben County,IN,77.21973094170403
46902,Howard County,IN,3.6771300448430493
46952,Grant County,IN,49.327354260089685
47150,Floyd County,IN,9.77578475336323
47172,Clark County,IN,66.63677130044843
47302,Delaware County,IN,49.59641255605381
47401,Monroe County,IN,64.39461883408072
47404,Monroe County,IN,63.049327354260086
47424,Greene County,IN,96.05381165919282
47711,Vanderburgh County,IN,26.547085201793724
47882,Sullivan County,IN,74.61883408071749
47904,Tippecanoe County,IN,58.56502242152466
47905,Tippecanoe County,IN,39.55156950672646
47906,Tippecanoe County,IN,54.34977578475336
47932,Fountain County,IN,87.98206278026906
50158,Marshall County,IA,24.2152466367713
50219,Marion County,IA,84.93273542600896
50315,Polk County,IA,8.161434977578477
50317,Polk County,IA,11.210762331838566
50321,Polk County,IA,96.23318385650225
50325,Polk County,IA,87.4439461883408
50441,Franklin County,IA,89.77578475336323
50588,Buena Vista County,IA,39.82062780269058
50702,Black Hawk County,IA,41.16591928251121
51106,Woodbury County,IA,75.60538116591928
51501,Pottawattamie County,IA,3.3183856502242155
52001,Dubuque County,IA,63.497757847533634
52241,Johnson County,IA,45.56053811659193
52402,Linn County,IA,86.1883408071749
52632,Lee County,IA,38.38565022421525
52753,Scott County,IA,94.79820627802691
52806,Scott County,IA,20
66207,Johnson County,KS,80.08968609865471
66441,Geary County,KS,92.37668161434978
67203,Sedgwick County,KS,69.86547085201794
67601,Ellis County,KS,39.91031390134529
40330,Mercer County,KY,86.81614349775785
40517,Fayette County,KY,20.35874439461883
41001,Campbell County,KY,63.856502242152466
41011,Kenton County,KY,14.349775784753364
42066,Graves County,KY,21.883408071748878
42240,Christian County,KY,46.45739910313901
42348,Hancock County,KY,90.85201793721973
42501,Pulaski County,KY,76.14349775784753
42629,Russell County,KY,89.32735426008969
42653,McCreary County,KY,90.13452914798206
42701,Hardin County,KY,10.852017937219731
42718,Taylor County,KY,12.197309417040358
42748,Larue County,KY,81.61434977578476
70001,Jefferson Parish,LA,21.076233183856502
70002,Jefferson Parish,LA,84.30493273542601
70056,Jefferson Parish,LA,4.573991031390134
70068,St. John the Baptist Parish,LA,9.058295964125561
70114,Orleans Parish,LA,9.506726457399104
70119,Orleans Parish,LA,22.331838565022423
70126,Orleans Parish,LA,6.367713004484305
70131,Orleans Parish,LA,98.83408071748879
70301,Lafourche Parish,LA,29.417040358744394
70360,Terrebonne Parish,LA,10.22421524663677
70363,Terrebonne Parish,LA,69.14798206278027
70438,Washington Parish,LA,71.83856502242153
70471,St. Tammany Parish,LA,93.18385650224215
70570,St. Landry Parish,LA,61.52466367713004
70601,Calcasieu Parish,LA,65.82959641255606
70607,Calcasieu Parish,LA,78.9237668161435
70726,Livingston Parish,LA,79.28251121076232
70767,West Baton Rouge Parish,LA,45.38116591928251
70769,Ascension Parish,LA,34.88789237668161
70777,East Feliciana Parish,LA,98.9237668161435
70811,East Baton Rouge Parish,LA,25.739910313901344
70814,East Baton Rouge Parish,LA,97.39910313901345
70817,East Baton Rouge Parish,LA,31.659192825112108
70820,East Baton Rouge Parish,LA,99.73094170403587
71037,Bossier Parish,LA,91.03139013452915
71118,Caddo Parish,LA,52.91479820627802
71202,Ouachita Parish,LA,76.23318385650224
71220,Morehouse Parish,LA,92.6457399103139
71301,Rapides Parish,LA,7.802690582959642
71302,Rapides Parish,LA,24.03587443946188
04401,Penobscot County,ME,14.080717488789238
20637,Charles County,MD,97.57847533632287
20746,Prince George's County,MD,62.24215246636772
21060,Anne Arundel County,MD,95.87443946188341
21061,Anne Arundel County,MD,34.618834080717484
21075,Howard County,MD,65.56053811659193
21087,Baltimore County,MD,97.48878923766816
21093,Baltimore County,MD,41.70403587443946
21117,Baltimore County,MD,28.161434977578477
21131,Baltimore County,MD,92.91479820627802
21157,Carroll County,MD,49.68609865470852
21207,Baltimore County,MD,21.614349775784753
21212,Baltimore city,MD,40.17937219730941
21222,Baltimore County,MD,4.753363228699552
21234,Baltimore County,MD,16.143497757847534
21740,Washington County,MD,18.116591928251122
21784,Carroll County,MD,53.90134529147982
01007,Hampshire County,MA,49.14798206278027
01040,Hampden County,MA,31.390134529147986
01085,Hampden County,MA,10.672645739910314
01104,Hampden County,MA,63.67713004484305
01109,Hampden County,MA,0
01432,Middlesex County,MA,46.99551569506726
01469,Middlesex County,MA,73.99103139013454
01560,Worcester County,MA,98.29596412556054
01562,Worcester County,MA,74.7982062780269
01603,Worcester County,MA,12.286995515695068
01604,Worcester County,MA,0.6278026905829596
01702,Middlesex County,MA,34.26008968609865
01741,Middlesex County,MA,96.59192825112108
01821,Middlesex County,MA,5.201793721973094
01824,Middlesex County,MA,33.00448430493274
01826,Middlesex County,MA,92.55605381165918
01843,Essex County,MA,71.12107623318386
01851,Middlesex County,MA,2.1524663677130045
01862,Middlesex County,MA,45.2914798206278
01864,Middlesex County,MA,47.62331838565023
01876,Middlesex County,MA,7.26457399103139
01880,Middlesex County,MA,7.4439461883408065
01887,Middlesex County,MA,6.995515695067264
01902,Essex County,MA,33.99103139013453
01945,Essex County,MA,90.22421524663677
01960,Essex County,MA,6.188340807174888
02054,Norfolk County,MA,71.30044843049326
02119,Suffolk County,MA,1.6143497757847534
02125,Suffolk County,MA,0.26905829596412556
02148,Middlesex County,MA,27.3542600896861
02149,Middlesex County,MA,2.600896860986547
02151,Suffolk County,MA,69.4170403587444
02155,Middlesex County,MA,0.7174887892376681
02169,Norfolk County,MA,45.2017937219731
02301,Plymouth County,MA,25.291479820627806
02302,Plymouth County,MA,0.9865470852017937
02346,Plymouth County,MA,9.686098654708521
02452,Middlesex County,MA,61.34529147982063
02453,Middlesex County,MA,32.73542600896861
02554,Nantucket County,MA,32.37668161434978
02649,Barnstable County,MA,35.874439461883405
02660,Barnstable County,MA,87.17488789237669
02720,Bristol County,MA,0.08968609865470852
02738,Plymouth County,MA,93.81165919282512
02744,Bristol County,MA,9.865470852017937
48003,Lapeer County,MI,99.55156950672645
48025,Oakland County,MI,90.5829596412556
48035,Macomb County,MI,8.878923766816143
48045,Macomb County,MI,72.46636771300449
48047,Macomb County,MI,13.811659192825113
48051,Macomb County,MI,56.233183856502244
48065,Macomb County,MI,73.8116591928251
48066,Macomb County,MI,3.4080717488789234
48067,Oakland County,MI,67.53363228699551
48094,Macomb County,MI,50.31390134529148
48126,Wayne County,MI,9.237668161434978
48150,Wayne County,MI,59.28251121076234
48189,Washtenaw County,MI,59.37219730941704
48197,Washtenaw County,MI,2.3318385650224216
48210,Wayne County,MI,23.58744394618834
48219,Wayne County,MI,5.0224215246636765
48224,Wayne County,MI,15.246636771300448
48226,Wayne County,MI,91.21076233183857
48228,Wayne County,MI,1.5246636771300448
48302,Oakland County,MI,86.90582959641256
48307,Oakland County,MI,66.72645739910314
48310,Macomb County,MI,84.03587443946189
48312,Macomb County,MI,56.59192825112107
48313,Macomb County,MI,25.02242152466368
48314,Macomb County,MI,40.71748878923766
48316,Macomb County,MI,38.206278026905835
48317,Macomb County,MI,70.76233183856502
48326,Oakland County,MI,50.762331838565025
48336,Oakland County,MI,31.210762331838566
48360,Oakland County,MI,70.4932735426009
48383,Oakland County,MI,86.45739910313901
48423,Genesee County,MI,29.86547085201794
48438,Genesee County,MI,98.02690582959642
48471,Sanilac County,MI,73.36322869955157
48503,Genesee County,MI,17.937219730941703
48617,Clare County,MI,69.77578475336323
48625,Clare County,MI,60.44843049327354
48842,Ingham County,MI,68.87892376681614
49004,Kalamazoo County,MI,42.152466367713004
49037,Calhoun County,MI,15.156950672645738
49046,Barry County,MI,83.0493273542601
49080,Allegan County,MI,41.61434977578475
49093,St. Joseph County,MI,28.340807174887892
49111,Berrien County,MI,97.66816143497758
49120,Berrien County,MI,14.618834080717487
49307,Mecosta County,MI,51.65919282511211
49423,Ottawa County,MI,38.47533632286996
49426,Ottawa County,MI,38.56502242152467
49442,Muskegon County,MI,18.026905829596412
49464,Ottawa County,MI,51.210762331838566
49504,Kent County,MI,14.977578475336323
49519,Kent County,MI,46.63677130044843
49646,Kalkaska County,MI,52.28699551569507
49707,Alpena County,MI,62.33183856502242
49916,Houghton County,MI,99.82062780269058
55014,Anoka County,MN,62.42152466367713
55060,Steele County,MN,35.42600896860987
55102,Ramsey County,MN,27.623318385650226
55126,Ramsey County,MN,60
55130,Ramsey County,MN,47.98206278026906
55306,Dakota County,MN,85.38116591928251
55318,Carver County,MN,88.16143497757848
55379,Scott County,MN,24.663677130044842
55404,Hennepin County,MN,1.1659192825112108
55407,Hennepin County,MN,6.457399103139013
55417,Hennepin County,MN,48.4304932735426
55420,Hennepin County,MN,37.488789237668165
55421,Anoka County,MN,52.82511210762332
55431,Hennepin County,MN,81.97309417040358
55437,Hennepin County,MN,81.61434977578476
55438,Hennepin County,MN,88.07174887892377
55444,Hennepin County,MN,55.7847533632287
55912,Mower County,MN,27.443946188340806
56031,Martin County,MN,44.663677130044846
56303,Stearns County,MN,83.1390134529148
56308,Douglas County,MN,25.47085201793722
56560,Clay County,MN,12.466367713004484
56721,Polk County,MN,53.27354260089686
38676,Tunica County,MS,91.30044843049328
38680,DeSoto County,MS,97.21973094170404
38732,Bolivar County,MS,69.05829596412556
38834,Alcorn County,MS,18.744394618834082
39074,Scott County,MS,68.78923766816143
39090,Attala County,MS,67.98206278026906
39111,Simpson County,MS,73.54260089686099
39180,Warren County,MS,41.79372197309417
39194,Yazoo County,MS,50.672645739910315
39206,Hinds County,MS,27.085201793721975
39401,Forrest County,MS,30.04484304932735
39452,George County,MS,23.946188340807176
39560,Harrison County,MS,56.412556053811656
39730,Monroe County,MS,74.97757847533633
63074,St. Louis County,MO,89.14798206278027
63106,St. Louis city,MO,73.7219730941704
63118,St. Louis city,MO,30.852017937219735
63121,St. Louis County,MO,60.98654708520179
63132,St. Louis County,MO,78.65470852017937
63135,St. Louis County,MO,62.062780269058294
63136,St. Louis County,MO,27.982062780269057
63376,St. Charles County,MO,8.968609865470851
63379,Lincoln County,MO,27.17488789237668
63701,Cape Girardeau County,MO,37.309417040358746
63841,Stoddard County,MO,50.134529147982065
64083,Cass County,MO,35.06726457399103
64132,Jackson County,MO,15.605381165919283
64133,Jackson County,MO,20.089686098654706
64138,Jackson County,MO,37.39910313901345
64683,Grundy County,MO,57.668161434977584
64772,Vernon County,MO,39.19282511210762
65018,Moniteau County,MO,78.02690582959642
65043,Callaway County,MO,77.9372197309417
65201,Boone County,MO,44.125560538116595
65233,Cooper County,MO,64.84304932735427
65301,Pettis County,MO,3.9461883408071747
65337,Pettis County,MO,97.75784753363229
59401,Cascade County,MT,79.46188340807176
59425,Pondera County,MT,100
59501,Hill County,MT,90.04484304932735
68046,Sarpy County,NE,64.48430493273543
68516,Lancaster County,NE,64.75336322869956
89104,Clark County,NV,36.8609865470852
89110,Clark County,NV,19.103139013452918
89115,Clark County,NV,19.46188340807175
89122,Clark County,NV,23.40807174887892
89131,Clark County,NV,46.00896860986547
89183,Clark County,NV,61.973094170403584
89406,Churchill County,NV,39.10313901345292
89408,Lyon County,NV,35.7847533632287
89431,Washoe County,NV,20.717488789237667
89436,Washoe County,NV,21.973094170403588
89441,Washoe County,NV,77.75784753363229
89502,Washoe County,NV,86.3677130044843
03031,Hillsborough County,NH,75.69506726457399
03055,Hillsborough County,NH,45.82959641255606
03076,Hillsborough County,NH,43.856502242152466
03103,Hillsborough County,NH,6.00896860986547
03110,Hillsborough County,NH,56.14349775784754
07006,Essex County,NJ,59.73094170403588
07010,Bergen County,NJ,91.92825112107623
07017,Essex County,NJ,72.91479820627804
07024,Bergen County,NJ,64.93273542600897
07026,Bergen County,NJ,44.573991031390136
07030,Hudson County,NJ,84.57399103139014
07052,Essex County,NJ,15.515695067264573
07055,Passaic County,NJ,80.71748878923766
07087,Hudson County,NJ,82.51121076233184
07093,Hudson County,NJ,59.64125560538116
07103,Essex County,NJ,87.2645739910314
07105,Essex County,NJ,76.59192825112108
07107,Essex County,NJ,1.345291479820628
07111,Essex County,NJ,0.8071748878923767
07206,Union County,NJ,52.107623318385656
07305,Hudson County,NJ,61.0762331838565
07452,Bergen County,NJ,98.47533632286995
07502,Passaic County,NJ,86.00896860986546
07506,Passaic County,NJ,66.3677130044843
07514,Passaic County,NJ,28.52017937219731
07522,Passaic County,NJ,65.20179372197309
07701,Monmouth County,NJ,98.11659192825111
08021,Camden County,NJ,3.2286995515695067
08037,Atlantic County,NJ,45.47085201793722
08043,Camden County,NJ,42.33183856502242
08046,Burlington County,NJ,25.650224215246638
08070,Salem County,NJ,47.44394618834081
08093,Gloucester County,NJ,67.80269058295964
08201,Atlantic County,NJ,78.83408071748879
08203,Atlantic County,NJ,94.26008968609865
08215,Atlantic County,NJ,94.88789237668162
08223,Cape May County,NJ,99.01345291479821
08232,Atlantic County,NJ,82.86995515695067
08234,Atlantic County,NJ,52.73542600896861
08244,Atlantic County,NJ,68.07174887892377
08302,Cumberland County,NJ,46.72645739910314
08332,Cumberland County,NJ,66.00896860986548
08502,Somerset County,NJ,97.21973094170404
08609,Mercer County,NJ,83.58744394618834
08629,Mercer County,NJ,63.22869955156951
08758,Ocean County,NJ,97.04035874439462
08807,Somerset County,NJ,27.713004484304932
08817,Middlesex County,NJ,20.269058295964125
08857,Middlesex County,NJ,29.775784753363226
08861,Middlesex County,NJ,72.82511210762331
08873,Somerset County,NJ,62.511210762331835
08876,Somerset County,NJ,50.31390134529148
08901,Middlesex County,NJ,5.112107623318385
87002,Valencia County,NM,48.87892376681614
87015,Santa Fe County,NM,77.04035874439462
87105,Bernalillo County,NM,36.950672645739914
87107,Bernalillo County,NM,64.12556053811659
87109,Bernalillo County,NM,17.57847533632287
87114,Bernalillo County,NM,31.300448430493272
87120,Bernalillo County,NM,8.4304932735426
87124,Sandoval County,NM,10.403587443946188
87327,Cibola County,NM,85.20179372197309
87402,San Juan County,NM,81.79372197309416
87508,Santa Fe County,NM,96.41255605381166
87544,Los Alamos County,NM,60.53811659192825
88001,Doa Ana County,NM,24.753363228699552
88005,Doa Ana County,NM,41.43497757847533
88061,Grant County,NM,70.13452914798206
10002,New York County,NY,3.856502242152467
10023,New York County,NY,47.53363228699551
10024,New York County,NY,77.847533632287
10027,New York County,NY,4.843049327354261
10039,New York County,NY,82.69058295964126
10314,Richmond County,NY,11.838565022421525
10451,Bronx County,NY,16.8609865470852
10452,Bronx County,NY,6.278026905829597
10454,Bronx County,NY,6.816143497757847
10455,Bronx County,NY,4.2152466367713
10457,Bronx County,NY,5.650224215246637
10458,Bronx County,NY,0.35874439461883406
10460,Bronx County,NY,1.9730941704035874
10461,Bronx County,NY,38.206278026905835
10466,Bronx County,NY,20.896860986547086
10512,Putnam County,NY,75.51569506726457
10923,Rockland County,NY,95.15695067264573
11096,Nassau County,NY,96.8609865470852
11105,Queens County,NY,58.744394618834086
11201,Kings County,NY,19.55156950672646
11207,Kings County,NY,0.4484304932735426
11211,Kings County,NY,13.901345291479823
11212,Kings County,NY,7.713004484304934
11356,Queens County,NY,74.97757847533633
11368,Queens County,NY,7.533632286995516
11375,Queens County,NY,74.97757847533633
11421,Queens County,NY,32.107623318385656
11432,Queens County,NY,58.02690582959641
11563,Nassau County,NY,81.0762331838565
11581,Nassau County,NY,82.33183856502242
11692,Queens County,NY,48.789237668161434
11693,Queens County,NY,83.49775784753362
11704,Suffolk County,NY,87.80269058295964
11789,Suffolk County,NY,98.56502242152466
12095,Fulton County,NY,42.780269058295964
12308,Schenectady County,NY,36.681614349775785
12401,Ulster County,NY,19.641255605381165
12966,Franklin County,NY,81.52466367713005
13069,Oswego County,NY,5.4708520179372195
13078,Onondaga County,NY,55.336322869955154
13165,Seneca County,NY,25.112107623318387
13204,Onondaga County,NY,11.031390134529149
13205,Onondaga County,NY,40.62780269058296
13208,Onondaga County,NY,38.9237668161435
13211,Onondaga County,NY,77.21973094170403
13367,Lewis County,NY,37.219730941704036
13438,Oneida County,NY,94.08071748878923
13440,Oneida County,NY,2.062780269058296
13601,Jefferson County,NY,4.304932735426009
13691,Jefferson County,NY,98.7443946188341
13830,Chenango County,NY,64.21524663677131
14051,Erie County,NY,39.19282511210762
14062,Chautauqua County,NY,94.34977578475336
14065,Cattaraugus County,NY,98.29596412556054
14215,Erie County,NY,1.883408071748879
14221,Erie County,NY,10.852017937219731
14227,Erie County,NY,22.780269058295964
14450,Monroe County,NY,16.95067264573991
14482,Genesee County,NY,50.94170403587444
14489,Wayne County,NY,30.582959641255602
14513,Wayne County,NY,5.291479820627803
14526,Monroe County,NY,15.605381165919283
14534,Monroe County,NY,6.9058295964125564
14580,Monroe County,NY,47.17488789237668
14586,Monroe County,NY,31.12107623318386
14606,Monroe County,NY,2.8699551569506725
14608,Monroe County,NY,12.556053811659194
14611,Monroe County,NY,7.174887892376682
14612,Monroe County,NY,14.170403587443946
14617,Monroe County,NY,6.547085201793721
14621,Monroe County,NY,0.5381165919282511
14622,Monroe County,NY,22.51121076233184
14624,Monroe County,NY,16.053811659192828
14701,Chautauqua County,NY,57.04035874439462
14787,Chautauqua County,NY,87.3542600896861
14847,Seneca County,NY,88.78923766816143
14873,Steuben County,NY,96.7713004484305
27018,Yadkin County,NC,72.19730941704036
27107,Forsyth County,NC,4.0358744394618835
27127,Forsyth County,NC,14.798206278026907
27260,Guilford County,NC,21.704035874439462
27278,Orange County,NC,21.255605381165918
27284,Forsyth County,NC,7.085201793721973
27406,Guilford County,NC,4.125560538116592
27513,Wake County,NC,59.73094170403588
27517,Orange County,NC,53.00448430493273
27576,Johnston County,NC,55.69506726457399
27613,Wake County,NC,48.34080717488789
27614,Wake County,NC,65.73991031390135
27801,Edgecombe County,NC,37.66816143497758
27834,Pitt County,NC,27.443946188340806
27858,Pitt County,NC,23.58744394618834
27910,Hertford County,NC,38.11659192825112
28079,Union County,NC,46.36771300448431
28103,Union County,NC,75.96412556053812
28147,Rowan County,NC,30.40358744394619
28150,Cleveland County,NC,21.255605381165918
28205,Mecklenburg County,NC,19.013452914798208
28270,Mecklenburg County,NC,59.19282511210763
28312,Cumberland County,NC,62.062780269058294
28318,Sampson County,NC,88.25112107623319
28348,Cumberland County,NC,34.17040358744395
28352,Scotland County,NC,23.49775784753363
28358,Robeson County,NC,45.91928251121076
28382,Sampson County,NC,76.86098654708519
28391,Cumberland County,NC,96.68161434977578
28405,New Hanover County,NC,33.45291479820628
28412,New Hanover County,NC,73.45291479820628
28453,Duplin County,NC,97.13004484304932
28457,Pender County,NC,71.4798206278027
28601,Catawba County,NC,14.260089686098654
28612,Burke County,NC,82.78026905829596
28779,Jackson County,NC,79.91031390134529
28786,Haywood County,NC,34.08071748878923
28806,Buncombe County,NC,37.9372197309417
58103,Cass County,ND,7.354260089686099
58701,Ward County,ND,9.327354260089686
58801,Williams County,ND,34.34977578475336
43015,Delaware County,OH,15.067264573991032
43035,Delaware County,OH,70.85201793721974
43055,Licking County,OH,1.7040358744394617
43123,Franklin County,OH,7.623318385650224
43223,Franklin County,OH,6.098654708520179
43506,Williams County,OH,72.01793721973094
43543,Williams County,OH,67.08520179372198
43605,Lucas County,OH,2.4215246636771304
43612,Lucas County,OH,20.53811659192825
43614,Lucas County,OH,35.96412556053812
43616,Lucas County,OH,60.35874439461884
43623,Lucas County,OH,24.394618834080717
43920,Columbiana County,OH,32.82511210762332
43968,Columbiana County,OH,48.52017937219731
44035,Lorain County,OH,0.17937219730941703
44070,Cuyahoga County,OH,21.793721973094172
44103,Cuyahoga County,OH,32.55605381165919
44109,Cuyahoga County,OH,4.484304932735426
44111,Cuyahoga County,OH,1.4349775784753362
44113,Cuyahoga County,OH,7.8923766816143495
44114,Cuyahoga County,OH,29.417040358744394
44118,Cuyahoga County,OH,10.762331838565023
44121,Cuyahoga County,OH,8.520179372197308
44123,Cuyahoga County,OH,59.55156950672645
44125,Cuyahoga County,OH,1.2556053811659191
44128,Cuyahoga County,OH,2.780269058295964
44129,Cuyahoga County,OH,43.318385650224215
44135,Cuyahoga County,OH,3.0493273542600896
44138,Cuyahoga County,OH,30.76233183856502
44139,Cuyahoga County,OH,40.26905829596413
44144,Cuyahoga County,OH,11.390134529147982
44145,Cuyahoga County,OH,17.48878923766816
44212,Medina County,OH,3.1390134529147984
44231,Portage County,OH,82.95964125560538
44256,Medina County,OH,19.372197309417043
44278,Summit County,OH,57.847533632286996
44319,Summit County,OH,49.237668161434975
44484,Trumbull County,OH,26.63677130044843
44813,Richland County,OH,74.7085201793722
45011,Butler County,OH,2.4215246636771304
45044,Butler County,OH,5.560538116591928
45142,Highland County,OH,98.20627802690582
45231,Hamilton County,OH,29.596412556053814
45239,Hamilton County,OH,16.50224215246637
45403,Montgomery County,OH,35.15695067264574
45410,Montgomery County,OH,40.98654708520179
45415,Montgomery County,OH,74.26008968609865
45419,Montgomery County,OH,80.98654708520179
45420,Montgomery County,OH,24.30493273542601
45431,Montgomery County,OH,44.48430493273543
45619,Lawrence County,OH,25.91928251121076
45750,Washington County,OH,1.7937219730941705
45805,Allen County,OH,13.004484304932735
73049,Oklahoma County,OK,90.76233183856502
73068,Cleveland County,OK,86.54708520179372
73115,Oklahoma County,OK,56.32286995515695
73119,Oklahoma County,OK,54.26008968609865
73120,Oklahoma County,OK,40.35874439461883
73129,Oklahoma County,OK,49.775784753363226
74006,Washington County,OK,53.99103139013452
74115,Tulsa County,OK,37.75784753363229
74337,Mayes County,OK,96.8609865470852
74447,Okmulgee County,OK,66.81614349775785
74525,Atoka County,OK,81.43497757847533
74764,McCurtain County,OK,99.91031390134529
97138,Clatsop County,OR,58.29596412556054
97140,Washington County,OR,54.97757847533632
97203,Multnomah County,OR,81.16591928251121
97219,Multnomah County,OR,58.83408071748879
97301,Marion County,OR,12.10762331838565
97386,Linn County,OR,47.26457399103139
97487,Lane County,OR,93.72197309417041
97838,Umatilla County,OR,17.309417040358742
97882,Umatilla County,OR,78.74439461883408
97914,Malheur County,OR,22.421524663677133
15071,Allegheny County,PA,79.73094170403587
15110,Allegheny County,PA,79.01345291479821
15210,Allegheny County,PA,15.336322869955158
15217,Allegheny County,PA,57.75784753363229
15219,Allegheny County,PA,30.134529147982065
15238,Allegheny County,PA,83.94618834080717
15401,Fayette County,PA,29.955156950672645
15522,Bedford County,PA,61.70403587443947
15946,Cambria County,PA,94.61883408071749
16101,Lawrence County,PA,67.89237668161435
16117,Lawrence County,PA,51.47982062780269
16201,Armstrong County,PA,29.327354260089688
16335,Crawford County,PA,9.596412556053812
16505,Erie County,PA,68.69955156950672
16601,Blair County,PA,53.72197309417041
16858,Clearfield County,PA,94.52914798206278
17055,Cumberland County,PA,26.99551569506726
17057,Dauphin County,PA,17.847533632286996
17103,Dauphin County,PA,37.04035874439462
17225,Franklin County,PA,55.7847533632287
17313,York County,PA,84.66367713004485
17331,York County,PA,48.16143497757848
17520,Lancaster County,PA,97.75784753363229
17584,Lancaster County,PA,80.44843049327353
17740,Lycoming County,PA,50.58295964125561
17837,Union County,PA,89.05829596412556
18034,Lehigh County,PA,81.34529147982063
18042,Northampton County,PA,5.739910313901345
18072,Northampton County,PA,84.93273542600896
18073,Montgomery County,PA,89.95515695067265
18235,Carbon County,PA,29.14798206278027
18302,Monroe County,PA,51.74887892376682
18505,Lackawanna County,PA,40.44843049327354
18509,Lackawanna County,PA,54.97757847533632
18651,Luzerne County,PA,66.54708520179372
18702,Luzerne County,PA,28.251121076233183
18704,Luzerne County,PA,46.18834080717489
18960,Bucks County,PA,95.33632286995515
18974,Bucks County,PA,53.6322869955157
19001,Montgomery County,PA,79.19282511210763
19006,Montgomery County,PA,47.3542600896861
19008,Delaware County,PA,76.41255605381167
19013,Delaware County,PA,50.224215246636774
19014,Delaware County,PA,71.5695067264574
19038,Montgomery County,PA,34.43946188340807
19053,Bucks County,PA,29.05829596412556
19061,Delaware County,PA,26.81614349775785
19081,Delaware County,PA,95.7847533632287
19082,Delaware County,PA,36.233183856502244
19083,Delaware County,PA,26.00896860986547
19087,Chester County,PA,49.417040358744394
19111,Philadelphia County,PA,3.587443946188341
19121,Philadelphia County,PA,32.46636771300449
19124,Philadelphia County,PA,1.0762331838565022
19130,Philadelphia County,PA,36.591928251121075
19133,Philadelphia County,PA,15.784753363228699
19138,Philadelphia County,PA,12.556053811659194
19142,Philadelphia County,PA,39.46188340807175
19143,Philadelphia County,PA,0.8968609865470852
19144,Philadelphia County,PA,4.663677130044843
19151,Philadelphia County,PA,13.363228699551568
19335,Chester County,PA,47.80269058295964
19341,Chester County,PA,87.89237668161435
19350,Chester County,PA,88.96860986547085
19355,Chester County,PA,70.67264573991031
19365,Chester County,PA,80.62780269058297
19422,Montgomery County,PA,51.031390134529154
19426,Montgomery County,PA,33.27354260089686
19446,Montgomery County,PA,43.67713004484305
19508,Berks County,PA,76.95067264573991
19602,Berks County,PA,10.582959641255606
19604,Berks County,PA,11.121076233183857
19605,Berks County,PA,28.609865470852018
02915,Providence County,RI,74.34977578475336
29229,Richland County,SC,36.143497757847534
29301,Spartanburg County,SC,29.237668161434975
29323,Spartanburg County,SC,78.20627802690584
29403,Charleston County,SC,42.24215246636771
29483,Dorchester County,SC,17.130044843049326
29609,Greenville County,SC,38.65470852017937
29621,Anderson County,SC,67.71300448430493
29626,Anderson County,SC,71.74887892376681
29651,Greenville County,SC,19.82062780269058
29702,Cherokee County,SC,73.99103139013454
29803,Aiken County,SC,41.52466367713005
57103,Minnehaha County,SD,22.152466367713007
57719,Pennington County,SD,86.09865470852019
37022,Sumner County,TN,82.152466367713
37101,Humphreys County,TN,71.92825112107624
37129,Rutherford County,TN,46.81614349775784
37160,Bedford County,TN,18.385650224215247
37209,Davidson County,TN,29.596412556053814
37212,Davidson County,TN,89.86547085201794
37355,Coffee County,TN,33.09417040358744
37601,Washington County,TN,16.41255605381166
37743,Greene County,TN,11.748878923766815
37766,Campbell County,TN,79.37219730941703
37825,Claiborne County,TN,83.85650224215246
37909,Knox County,TN,80.80717488789237
37919,Knox County,TN,53.09417040358745
38305,Madison County,TN,8.609865470852018
38501,Putnam County,TN,18.565022421524663
38571,Cumberland County,TN,78.47533632286996
38583,White County,TN,57.48878923766816
75006,Dallas County,TX,44.75336322869955
75013,Collin County,TX,47.71300448430493
75051,Dallas County,TX,40.53811659192825
75074,Collin County,TX,52.5560538116592
75150,Dallas County,TX,22.062780269058297
75156,Henderson County,TX,75.33632286995515
75203,Dallas County,TX,73.00448430493273
75211,Dallas County,TX,18.206278026905828
75214,Dallas County,TX,72.46636771300449
75217,Dallas County,TX,8.251121076233185
75227,Dallas County,TX,18.295964125560538
75253,Dallas County,TX,63.946188340807176
75751,Henderson County,TX,45.02242152466368
76002,Tarrant County,TX,55.60538116591929
76017,Tarrant County,TX,62.78026905829597
76048,Hood County,TX,72.19730941704036
76049,Hood County,TX,36.412556053811656
76104,Tarrant County,TX,53.54260089686098
76112,Tarrant County,TX,13.632286995515694
76901,Tom Green County,TX,48.07174887892376
77004,Harris County,TX,26.2780269058296
77006,Harris County,TX,93.99103139013452
77007,Harris County,TX,51.569506726457405
77022,Harris County,TX,54.08071748878924
77023,Harris County,TX,58.206278026905835
77028,Harris County,TX,48.60986547085202
77029,Harris County,TX,67.62331838565022
77035,Harris County,TX,39.19282511210762
77044,Harris County,TX,67.4439461883408
77057,Harris County,TX,67.2645739910314
77063,Harris County,TX,64.66367713004485
77084,Harris County,TX,38.744394618834086
77089,Harris County,TX,42.600896860986545
77092,Harris County,TX,54.7982062780269
77306,Montgomery County,TX,88.78923766816143
77388,Harris County,TX,73.18385650224215
77406,Fort Bend County,TX,43.408071748878925
77429,Harris County,TX,11.300448430493274
77433,Harris County,TX,11.659192825112108
77447,Harris County,TX,69.50672645739911
77479,Fort Bend County,TX,27.802690582959645
77494,Fort Bend County,TX,17.040358744394617
77502,Harris County,TX,52.46636771300448
77511,Brazoria County,TX,63.58744394618834
77518,Galveston County,TX,96.32286995515696
77562,Harris County,TX,75.24663677130044
77640,Jefferson County,TX,58.38565022421525
77642,Jefferson County,TX,81.88340807174887
77802,Brazos County,TX,57.309417040358746
78041,Webb County,TX,35.42600896860987
78043,Webb County,TX,39.73094170403588
78045,Webb County,TX,55.24663677130045
78204,Bexar County,TX,93.36322869955157
78223,Bexar County,TX,50.762331838565025
78228,Bexar County,TX,26.905829596412556
78237,Bexar County,TX,61.165919282511204
78249,Bexar County,TX,57.57847533632287
78332,Jim Wells County,TX,60.62780269058295
78541,Hidalgo County,TX,48.87892376681614
78570,Hidalgo County,TX,68.5201793721973
78582,Starr County,TX,66.09865470852017
78634,Williamson County,TX,58.47533632286995
78641,Williamson County,TX,53.45291479820627
78746,Travis County,TX,73.8116591928251
79107,Potter County,TX,65.38116591928251
79347,Bailey County,TX,82.152466367713
79403,Lubbock County,TX,50.49327354260089
79423,Lubbock County,TX,27.17488789237668
79424,Lubbock County,TX,24.12556053811659
79912,El Paso County,TX,24.84304932735426
79930,El Paso County,TX,74.88789237668162
79934,El Paso County,TX,78.56502242152466
84015,Davis County,UT,53.36322869955157
84020,Salt Lake County,UT,41.88340807174888
84067,Weber County,UT,34.7982062780269
84095,Salt Lake County,UT,38.026905829596416
84404,Weber County,UT,19.730941704035875
20112,Prince William County,VA,72.6457399103139
20151,Fairfax County,VA,85.82959641255606
20166,Loudoun County,VA,89.32735426008969
20170,Fairfax County,VA,62.95964125560538
22015,Fairfax County,VA,51.74887892376682
22030,Fairfax County,VA,28.07174887892377
22043,Fairfax County,VA,95.96412556053812
22151,Fairfax County,VA,79.64125560538116
22204,Arlington County,VA,60.0896860986547
22303,Fairfax County,VA,87.71300448430493
22304,Alexandria city,VA,14.618834080717487
22305,Alexandria city,VA,72.6457399103139
22306,Fairfax County,VA,60.71748878923767
22309,Fairfax County,VA,24.84304932735426
22546,Caroline County,VA,71.03139013452915
22556,Stafford County,VA,92.19730941704036
22901,Albemarle County,VA,90.4035874439462
22902,Charlottesville city,VA,22.95964125560538
23139,Powhatan County,VA,68.25112107623318
23223,Henrico County,VA,3.497757847533632
23452,Virginia Beach city,VA,21.524663677130047
23601,Newport News city,VA,91.56950672645739
23607,Newport News city,VA,18.83408071748879
23608,Newport News city,VA,99.10313901345292
24078,Henry County,VA,99.28251121076234
24256,Dickenson County,VA,95.69506726457399
24401,Staunton city,VA,10.31390134529148
24477,Augusta County,VA,58.56502242152466
24502,Lynchburg city,VA,41.34529147982063
98023,King County,WA,23.58744394618834
98116,King County,WA,68.16143497757847
98118,King County,WA,39.64125560538116
98271,Snohomish County,WA,42.690582959641254
98272,Snohomish County,WA,55.964125560538115
98274,Skagit County,WA,61.25560538116592
98277,Island County,WA,46.00896860986547
98346,Kitsap County,WA,93.09417040358744
98363,Clallam County,WA,95.06726457399103
98405,Pierce County,WA,30.852017937219735
98520,Grays Harbor County,WA,60.26905829596413
98684,Clark County,WA,90.94170403587444
98908,Yakima County,WA,36.053811659192824
99163,Whitman County,WA,72.10762331838565
99301,Franklin County,WA,8.789237668161435
99352,Benton County,WA,38.83408071748879
20009,District of Columbia,DC,28.968609865470853
20011,District of Columbia,DC,52.01793721973094
20019,District of Columbia,DC,37.130044843049326
20020,District of Columbia,DC,2.242152466367713
20032,District of Columbia,DC,5.381165919282512
25045,Kanawha County,WV,84.39461883408072
25177,Kanawha County,WV,12.376681614349776
25313,Kanawha County,WV,85.1121076233184
25320,Kanawha County,WV,80.17937219730942
25414,Jefferson County,WV,89.5067264573991
26003,Ohio County,WV,23.228699551569505
26505,Monongalia County,WV,8.699551569506726
53121,Walworth County,WI,42.511210762331835
53143,Kenosha County,WI,48.699551569506724
53208,Milwaukee County,WI,10.493273542600896
53209,Milwaukee County,WI,2.690582959641256
53212,Milwaukee County,WI,13.721973094170403
53216,Milwaukee County,WI,6.547085201793721
53225,Milwaukee County,WI,10.044843049327353
53403,Racine County,WI,32.01793721973094
53546,Rock County,WI,17.39910313901345
53704,Dane County,WI,9.955156950672645
53711,Dane County,WI,64.30493273542601
54130,Outagamie County,WI,56.681614349775785
54403,Marathon County,WI,82.42152466367713
54449,Wood County,WI,70.85201793721974
54729,Chippewa County,WI,31.569506726457398
54935,Fond du Lac County,WI,15.874439461883409
