ZipCode,county,state,Youth,Retirement,Geriatric
35085,Chilton County,AL,81.64794007490637,NA,NA
35215,Jefferson County,AL,5.617977528089887,NA,NA
36064,Montgomery County,AL,NA,90.17341040462428,NA
36091,Chilton County,AL,NA,94.79768786127167,NA
36303,Houston County,AL,23.595505617977526,NA,NA
36875,Russell County,AL,NA,NA,100
85139,Pinal County,AZ,NA,73.41040462427746,NA
85206,Maricopa County,AZ,NA,32.947976878612714,NA
85248,Maricopa County,AZ,NA,NA,9.35672514619883
85283,Maricopa County,AZ,NA,27.167630057803464,NA
85365,Yuma County,AZ,NA,NA,14.035087719298245
85373,Maricopa County,AZ,NA,80.05780346820809,NA
85737,Pima County,AZ,75.65543071161048,NA,NA
86322,Yavapai County,AZ,NA,66.1849710982659,NA
86442,Mohave County,AZ,NA,NA,84.21052631578947
71953,Polk County,AR,91.01123595505618,NA,NA
72117,Pulaski County,AR,80.14981273408239,NA,NA
72143,White County,AR,55.80524344569289,NA,NA
72335,St. Francis County,AR,NA,76.58959537572254,NA
90025,Los Angeles County,CA,NA,NA,12.865497076023392
90034,Los Angeles County,CA,78.27715355805243,NA,34.50292397660819
90221,Los Angeles County,CA,30.337078651685395,NA,NA
90241,Los Angeles County,CA,NA,89.30635838150289,67.83625730994152
90280,Los Angeles County,CA,NA,40.46242774566474,NA
90604,Los Angeles County,CA,NA,59.82658959537572,NA
90631,Orange County,CA,41.947565543071164,NA,NA
90660,Los Angeles County,CA,38.20224719101123,NA,NA
90703,Los Angeles County,CA,61.04868913857678,NA,NA
90808,Los Angeles County,CA,NA,46.53179190751445,NA
91350,Los Angeles County,CA,39.325842696629216,NA,NA
91356,Los Angeles County,CA,NA,NA,24.561403508771928
91381,Los Angeles County,CA,73.78277153558052,NA,NA
91405,Los Angeles County,CA,NA,NA,54.97076023391813
91406,Los Angeles County,CA,35.580524344569284,NA,NA
91604,Los Angeles County,CA,92.13483146067416,NA,NA
91706,Los Angeles County,CA,NA,35.54913294797688,NA
91709,San Bernardino County,CA,37.07865168539326,NA,NA
91744,Los Angeles County,CA,NA,26.878612716763005,NA
91762,San Bernardino County,CA,22.846441947565545,NA,NA
91789,Los Angeles County,CA,NA,NA,61.98830409356725
92019,San Diego County,CA,NA,78.32369942196532,NA
92021,San Diego County,CA,18.726591760299627,NA,NA
92111,San Diego County,CA,70.0374531835206,NA,NA
92122,San Diego County,CA,NA,68.78612716763006,NA
92131,San Diego County,CA,NA,NA,97.07602339181285
92284,San Bernardino County,CA,NA,28.32369942196532,NA
92376,San Bernardino County,CA,NA,16.473988439306357,NA
92411,San Bernardino County,CA,NA,45.664739884393065,NA
92509,Riverside County,CA,11.235955056179774,NA,NA
92591,Riverside County,CA,45.69288389513109,NA,NA
92808,Orange County,CA,NA,82.65895953757226,NA
92831,Orange County,CA,NA,75.14450867052022,NA
93012,Ventura County,CA,NA,NA,25.730994152046783
93103,Santa Barbara County,CA,NA,93.9306358381503,NA
93268,Kern County,CA,NA,86.70520231213872,NA
93277,Tulare County,CA,28.08988764044944,18.20809248554913,NA
93306,Kern County,CA,NA,41.90751445086705,NA
93307,Kern County,CA,NA,56.358381502890175,NA
93311,Kern County,CA,55.80524344569289,NA,NA
93312,Kern County,CA,NA,NA,65.49707602339181
93313,Kern County,CA,61.79775280898876,NA,NA
93436,Santa Barbara County,CA,33.33333333333333,NA,NA
93551,Los Angeles County,CA,NA,58.95953757225434,NA
93614,Madera County,CA,NA,82.08092485549133,NA
93619,Fresno County,CA,18.352059925093634,NA,NA
93644,Madera County,CA,99.625468164794,NA,NA
93705,Fresno County,CA,14.606741573033707,NA,NA
93720,Fresno County,CA,19.475655430711612,NA,NA
93722,Fresno County,CA,2.247191011235955,NA,NA
93905,Monterey County,CA,52.80898876404494,NA,NA
94010,San Mateo County,CA,58.80149812734082,35.83815028901734,NA
94065,San Mateo County,CA,NA,90.7514450867052,NA
94107,San Francisco County,CA,NA,NA,57.30994152046783
94503,Napa County,CA,NA,NA,72.51461988304094
94506,Contra Costa County,CA,32.58426966292135,NA,NA
94598,Contra Costa County,CA,60.67415730337079,NA,NA
94611,Alameda County,CA,NA,22.832369942196532,NA
94945,Marin County,CA,NA,NA,69.5906432748538
94947,Marin County,CA,NA,NA,28.654970760233915
95003,Santa Cruz County,CA,NA,73.98843930635837,NA
95006,Santa Cruz County,CA,NA,91.61849710982659,NA
95207,San Joaquin County,CA,NA,NA,46.198830409356724
95340,Merced County,CA,37.07865168539326,NA,NA
95350,Stanislaus County,CA,17.228464419475657,NA,NA
95370,Tuolumne County,CA,NA,3.1791907514450863,9.941520467836257
95382,Stanislaus County,CA,47.19101123595505,NA,NA
95401,Sonoma County,CA,NA,80.63583815028902,NA
95476,Sonoma County,CA,NA,38.15028901734104,NA
95492,Sonoma County,CA,NA,NA,45.02923976608187
95628,Sacramento County,CA,NA,44.21965317919075,NA
95648,Placer County,CA,NA,NA,35.67251461988304
95687,Solano County,CA,NA,20.809248554913296,23.976608187134502
95688,Solano County,CA,NA,65.3179190751445,NA
95693,Sacramento County,CA,99.25093632958801,NA,92.98245614035088
95828,Sacramento County,CA,36.329588014981276,NA,NA
95835,Sacramento County,CA,NA,NA,53.80116959064327
95838,Sacramento County,CA,NA,88.4393063583815,NA
95864,Sacramento County,CA,NA,NA,43.27485380116959
80015,Arapahoe County,CO,23.970037453183522,NA,NA
80022,Adams County,CO,NA,NA,78.3625730994152
80128,Jefferson County,CO,33.70786516853933,NA,NA
80210,Denver County,CO,NA,58.38150289017341,NA
80239,Denver County,CO,NA,54.6242774566474,NA
80524,Larimer County,CO,NA,27.74566473988439,NA
80915,El Paso County,CO,NA,78.03468208092485,NA
06001,Hartford County,CT,NA,70.23121387283237,NA
06032,Hartford County,CT,77.52808988764045,NA,NA
06512,New Haven County,CT,NA,NA,15.204678362573098
06513,New Haven County,CT,13.48314606741573,NA,NA
19953,Kent County,DE,97.75280898876404,NA,NA
32137,Flagler County,FL,NA,7.225433526011561,NA
32207,Duval County,FL,31.086142322097377,NA,NA
32217,Duval County,FL,NA,52.02312138728323,NA
32401,Bay County,FL,NA,30.63583815028902,NA
32514,Escambia County,FL,NA,13.872832369942195,NA
32571,Santa Rosa County,FL,NA,NA,26.31578947368421
32696,Levy County,FL,NA,53.75722543352601,NA
32765,Seminole County,FL,85.0187265917603,NA,NA
32935,Brevard County,FL,NA,47.398843930635834,NA
32937,Brevard County,FL,NA,62.71676300578035,NA
33032,Miami-Dade County,FL,NA,69.07514450867052,NA
33143,Miami-Dade County,FL,NA,NA,42.10526315789473
33165,Miami-Dade County,FL,26.217228464419474,NA,NA
33176,Miami-Dade County,FL,26.96629213483146,NA,NA
33178,Miami-Dade County,FL,35.95505617977528,NA,NA
33184,Miami-Dade County,FL,NA,70.8092485549133,NA
33186,Miami-Dade County,FL,NA,33.52601156069364,NA
33316,Broward County,FL,NA,73.121387283237,NA
33330,Broward County,FL,NA,NA,95.90643274853801
33467,Palm Beach County,FL,79.40074906367042,NA,NA
33469,Palm Beach County,FL,NA,60.982658959537574,26.900584795321635
33487,Palm Beach County,FL,88.01498127340824,NA,NA
33611,Hillsborough County,FL,83.89513108614233,NA,NA
33612,Hillsborough County,FL,8.239700374531834,NA,NA
33635,Hillsborough County,FL,NA,NA,89.47368421052632
33809,Polk County,FL,NA,54.33526011560693,NA
33881,Polk County,FL,52.80898876404494,34.971098265895954,NA
33912,Lee County,FL,NA,49.71098265895954,NA
34108,Collier County,FL,NA,NA,30.994152046783626
34110,Collier County,FL,NA,92.77456647398844,NA
34112,Collier County,FL,63.670411985018724,40.17341040462428,NA
34229,Sarasota County,FL,NA,69.65317919075144,NA
34453,Citrus County,FL,89.8876404494382,NA,NA
34472,Marion County,FL,21.34831460674157,NA,NA
34491,Marion County,FL,NA,69.36416184971098,NA
34685,Pinellas County,FL,87.64044943820225,NA,NA
34952,St. Lucie County,FL,NA,8.959537572254336,NA
30009,Fulton County,GA,74.15730337078652,NA,NA
30132,Paulding County,GA,28.83895131086142,NA,NA
30153,Polk County,GA,46.441947565543074,54.04624277456648,NA
30815,Richmond County,GA,16.479400749063668,NA,NA
30901,Richmond County,GA,NA,84.6820809248555,NA
30909,Richmond County,GA,65.1685393258427,NA,NA
31321,Bryan County,GA,NA,NA,98.83040935672514
31410,Chatham County,GA,NA,48.26589595375722,NA
31415,Chatham County,GA,NA,86.9942196531792,NA
31419,Chatham County,GA,NA,34.39306358381503,NA
31522,Glynn County,GA,NA,74.56647398843931,NA
31569,Camden County,GA,96.25468164794007,NA,NA
31904,Muscogee County,GA,49.063670411985015,NA,NA
96720,Hawaii County,HI,NA,NA,32.16374269005848
96816,Honolulu County,HI,NA,NA,7.602339181286549
96825,Honolulu County,HI,51.68539325842697,NA,NA
83204,Bannock County,ID,NA,64.45086705202311,NA
83211,Power County,ID,NA,NA,94.73684210526315
83330,Gooding County,ID,NA,96.53179190751445,NA
83350,Minidoka County,ID,NA,68.20809248554913,NA
83440,Madison County,ID,NA,72.25433526011561,NA
83651,Canyon County,ID,NA,11.849710982658959,NA
83843,Latah County,ID,20.224719101123593,NA,NA
60025,Cook County,IL,NA,NA,5.847953216374268
60030,Lake County,IL,NA,23.410404624277454,NA
60062,Cook County,IL,NA,4.046242774566474,NA
60085,Lake County,IL,26.591760299625467,NA,NA
60115,DeKalb County,IL,NA,32.369942196531795,NA
60123,Kane County,IL,NA,71.38728323699422,NA
60124,Kane County,IL,NA,NA,38.59649122807017
60172,DuPage County,IL,NA,NA,92.39766081871345
60442,Will County,IL,67.41573033707866,NA,NA
60451,Will County,IL,9.737827715355806,NA,NA
60457,Cook County,IL,92.50936329588015,NA,NA
60459,Cook County,IL,NA,83.52601156069365,NA
60561,DuPage County,IL,62.92134831460674,NA,NA
60586,Will County,IL,11.985018726591761,NA,NA
60601,Cook County,IL,NA,NA,88.30409356725146
60619,Cook County,IL,12.359550561797752,NA,NA
60628,Cook County,IL,13.108614232209737,NA,NA
60632,Cook County,IL,20.59925093632959,NA,NA
60639,Cook County,IL,NA,7.514450867052023,NA
60643,Cook County,IL,NA,3.4682080924855487,NA
60649,Cook County,IL,NA,8.38150289017341,NA
60660,Cook County,IL,NA,15.895953757225435,NA
60901,Kankakee County,IL,NA,NA,12.280701754385964
61021,Lee County,IL,NA,NA,2.3391812865497075
61081,Whiteside County,IL,NA,NA,4.093567251461988
61201,Rock Island County,IL,NA,NA,37.42690058479532
61301,LaSalle County,IL,NA,67.34104046242774,NA
61761,McLean County,IL,36.329588014981276,NA,NA
61801,Champaign County,IL,NA,NA,90.64327485380117
61853,Champaign County,IL,NA,71.09826589595376,NA
61920,Coles County,IL,55.430711610486895,NA,40.35087719298245
61953,Douglas County,IL,NA,NA,80.11695906432749
62035,Madison County,IL,NA,60.40462427745664,NA
62052,Jersey County,IL,NA,NA,47.953216374269005
62056,Montgomery County,IL,NA,71.67630057803468,NA
62305,Adams County,IL,82.77153558052434,NA,NA
62864,Jefferson County,IL,NA,42.77456647398844,NA
62951,Williamson County,IL,NA,NA,90.05847953216374
46052,Boone County,IN,NA,NA,49.122807017543856
46112,Hendricks County,IN,46.81647940074906,NA,NA
46151,Morgan County,IN,NA,19.653179190751445,NA
46168,Hendricks County,IN,50.56179775280899,NA,NA
46220,Marion County,IN,NA,NA,57.89473684210527
46268,Marion County,IN,NA,50.86705202312138,NA
46310,Jasper County,IN,53.93258426966292,NA,NA
46360,LaPorte County,IN,NA,NA,19.883040935672515
46410,Lake County,IN,73.40823970037454,NA,NA
46514,Elkhart County,IN,NA,21.67630057803468,NA
46737,Steuben County,IN,NA,NA,69.00584795321637
47102,Scott County,IN,NA,80.34682080924856,NA
47546,Dubois County,IN,NA,41.040462427745666,NA
47803,Vigo County,IN,NA,89.88439306358381,NA
47842,Vermillion County,IN,51.31086142322098,NA,NA
50036,Boone County,IA,NA,56.64739884393064,NA
50548,Humboldt County,IA,NA,NA,80.7017543859649
50613,Black Hawk County,IA,NA,12.716763005780345,NA
50703,Black Hawk County,IA,35.2059925093633,33.23699421965318,NA
51201,O'Brien County,IA,NA,NA,68.42105263157895
51503,Pottawattamie County,IA,2.9962546816479403,NA,NA
52738,Louisa County,IA,NA,98.26589595375722,NA
52761,Muscatine County,IA,NA,NA,25.146198830409354
52772,Cedar County,IA,NA,96.82080924855492,NA
52806,Scott County,IA,NA,39.884393063583815,NA
66053,Miami County,KS,NA,94.50867052023122,NA
66104,Wyandotte County,KS,24.344569288389515,NA,NA
66203,Johnson County,KS,NA,69.94219653179191,NA
66206,Johnson County,KS,90.2621722846442,NA,NA
66605,Shawnee County,KS,NA,NA,64.32748538011695
66617,Shawnee County,KS,94.00749063670412,NA,NA
66701,Bourbon County,KS,82.39700374531836,NA,NA
66757,Wilson County,KS,97.37827715355806,NA,NA
67432,Clay County,KS,NA,NA,82.45614035087719
67460,McPherson County,KS,NA,63.8728323699422,NA
67701,Thomas County,KS,94.7565543071161,NA,NA
40031,Oldham County,KY,85.39325842696628,NA,NA
40205,Jefferson County,KY,NA,92.1965317919075,NA
40243,Jefferson County,KY,68.53932584269663,NA,NA
40299,Jefferson County,KY,NA,21.965317919075144,NA
40447,Jackson County,KY,66.29213483146067,NA,NA
41017,Kenton County,KY,21.722846441947567,NA,NA
41056,Mason County,KY,58.80149812734082,NA,NA
70056,Jefferson Parish,LA,41.57303370786517,NA,NA
70119,Orleans Parish,LA,NA,36.70520231213873,NA
70121,Jefferson Parish,LA,NA,63.29479768786127,NA
70535,St. Landry Parish,LA,NA,NA,29.82456140350877
70657,Beauregard Parish,LA,74.90636704119851,NA,NA
70706,Livingston Parish,LA,59.55056179775281,NA,NA
70722,East Feliciana Parish,LA,NA,91.04046242774567,NA
70748,East Feliciana Parish,LA,NA,95.37572254335261,NA
70818,East Baton Rouge Parish,LA,NA,72.83236994219652,NA
71055,Webster Parish,LA,NA,38.4393063583815,NA
71064,Bossier Parish,LA,NA,93.35260115606935,NA
71103,Caddo Parish,LA,NA,77.74566473988439,NA
71118,Caddo Parish,LA,NA,NA,18.128654970760234
71129,Caddo Parish,LA,NA,68.4971098265896,NA
71220,Morehouse Parish,LA,NA,47.398843930635834,NA
71360,Rapides Parish,LA,10.486891385767791,NA,NA
71417,Grant Parish,LA,NA,NA,96.49122807017544
71446,Vernon Parish,LA,NA,NA,70.76023391812866
71449,Sabine Parish,LA,NA,82.94797687861272,NA
04107,Cumberland County,ME,NA,97.97687861271676,NA
04281,Oxford County,ME,NA,NA,74.26900584795322
04294,Franklin County,ME,95.50561797752809,NA,NA
04605,Hancock County,ME,NA,23.121387283236995,21.052631578947366
20785,Prince George's County,MD,NA,NA,73.68421052631578
20886,Montgomery County,MD,NA,NA,87.71929824561403
20904,Montgomery County,MD,71.16104868913857,NA,NA
21030,Baltimore County,MD,NA,82.08092485549133,NA
21040,Harford County,MD,43.07116104868914,NA,NA
21044,Howard County,MD,NA,NA,73.09941520467837
21045,Howard County,MD,NA,70.52023121387283,NA
21047,Harford County,MD,NA,83.23699421965318,NA
21117,Baltimore County,MD,NA,25.722543352601157,NA
21207,Baltimore County,MD,NA,NA,16.374269005847953
21215,Baltimore city,MD,NA,65.02890173410405,NA
21236,Baltimore County,MD,NA,44.50867052023121,NA
21613,Dorchester County,MD,NA,59.53757225433526,NA
01056,Hampden County,MA,55.80524344569289,NA,NA
01057,Hampden County,MA,79.40074906367042,NA,NA
01108,Hampden County,MA,NA,4.335260115606936,NA
01331,Worcester County,MA,38.20224719101123,NA,NA
01453,Worcester County,MA,NA,0.8670520231213872,NA
01571,Worcester County,MA,66.66666666666666,NA,NA
01604,Worcester County,MA,NA,2.8901734104046244,NA
01741,Middlesex County,MA,92.88389513108615,NA,NA
01754,Middlesex County,MA,83.14606741573034,NA,NA
01778,Middlesex County,MA,NA,52.601156069364166,NA
01902,Essex County,MA,NA,1.4450867052023122,NA
01930,Essex County,MA,NA,1.7341040462427744,NA
02050,Plymouth County,MA,NA,24.277456647398843,NA
02129,Suffolk County,MA,NA,28.034682080924856,NA
02130,Suffolk County,MA,10.861423220973784,NA,NA
02136,Suffolk County,MA,77.90262172284645,NA,NA
02169,Norfolk County,MA,NA,5.491329479768786,NA
02170,Norfolk County,MA,NA,8.670520231213873,NA
02176,Middlesex County,MA,31.46067415730337,NA,NA
02190,Norfolk County,MA,NA,37.283236994219656,NA
02301,Plymouth County,MA,0,NA,NA
02421,Middlesex County,MA,NA,40.7514450867052,NA
02445,Norfolk County,MA,49.812734082397,NA,NA
02446,Norfolk County,MA,12.734082397003746,NA,NA
02675,Barnstable County,MA,NA,NA,47.368421052631575
02720,Bristol County,MA,NA,NA,1.1695906432748537
02723,Bristol County,MA,28.46441947565543,NA,NA
48036,Macomb County,MI,NA,28.61271676300578,NA
48066,Macomb County,MI,NA,7.803468208092486,NA
48094,Macomb County,MI,NA,53.46820809248555,NA
48108,Washtenaw County,MI,NA,32.65895953757225,NA
48114,Livingston County,MI,NA,NA,62.57309941520468
48116,Livingston County,MI,17.97752808988764,NA,NA
48124,Wayne County,MI,38.951310861423224,NA,NA
48126,Wayne County,MI,NA,43.93063583815029,NA
48158,Washtenaw County,MI,NA,79.76878612716763,NA
48183,Wayne County,MI,NA,NA,13.450292397660817
48224,Wayne County,MI,NA,19.36416184971098,NA
48230,Wayne County,MI,NA,39.59537572254335,NA
48436,Genesee County,MI,95.88014981273409,NA,NA
48463,Genesee County,MI,NA,NA,99.41520467836257
48503,Genesee County,MI,32.58426966292135,NA,NA
48507,Genesee County,MI,NA,NA,35.08771929824561
48864,Ingham County,MI,74.15730337078652,NA,NA
49009,Kalamazoo County,MI,NA,NA,50.877192982456144
49048,Kalamazoo County,MI,79.02621722846442,NA,NA
49079,Van Buren County,MI,42.32209737827715,NA,NA
49120,Berrien County,MI,NA,NA,15.789473684210526
49201,Jackson County,MI,NA,67.05202312138728,NA
49221,Lenawee County,MI,NA,30.057803468208093,NA
49240,Jackson County,MI,NA,84.10404624277457,NA
49265,Lenawee County,MI,NA,97.39884393063583,NA
49307,Mecosta County,MI,NA,NA,44.44444444444444
49316,Kent County,MI,NA,NA,67.2514619883041
49404,Ottawa County,MI,89.51310861423221,NA,NA
49415,Muskegon County,MI,NA,76.878612716763,NA
49420,Oceana County,MI,NA,83.8150289017341,NA
55116,Ramsey County,MN,61.42322097378277,NA,NA
55379,Scott County,MN,19.850187265917604,NA,NA
55434,Anoka County,MN,52.43445692883895,NA,NA
55746,St. Louis County,MN,26.96629213483146,NA,NA
55803,St. Louis County,MN,NA,34.104046242774565,NA
55912,Mower County,MN,NA,NA,0.5847953216374269
55987,Winona County,MN,11.610486891385769,62.138728323699425,NA
56001,Blue Earth County,MN,NA,NA,52.63157894736842
56278,Big Stone County,MN,97.00374531835206,NA,NA
56510,Norman County,MN,NA,100,NA
56549,Clay County,MN,70.78651685393258,NA,NA
56601,Beltrami County,MN,NA,2.601156069364162,NA
39301,Lauderdale County,MS,25.0936329588015,91.32947976878613,NA
63010,Jefferson County,MO,29.962546816479403,NA,NA
63026,St. Louis County,MO,30.337078651685395,NA,22.22222222222222
63107,St. Louis city,MO,NA,98.55491329479769,NA
63111,St. Louis city,MO,58.42696629213483,NA,NA
63122,St. Louis County,MO,NA,23.98843930635838,NA
63303,St. Charles County,MO,NA,10.69364161849711,NA
63304,St. Charles County,MO,40.44943820224719,NA,NA
63851,Pemiscot County,MO,62.172284644194754,NA,NA
64050,Jackson County,MO,NA,17.052023121387283,NA
64053,Jackson County,MO,NA,92.1965317919075,NA
64058,Jackson County,MO,93.25842696629213,NA,NA
64068,Clay County,MO,NA,6.358381502890173,NA
64079,Platte County,MO,NA,50.57803468208093,NA
64114,Jackson County,MO,NA,NA,32.748538011695906
64116,Clay County,MO,NA,45.95375722543353,NA
64124,Jackson County,MO,55.0561797752809,NA,NA
64127,Jackson County,MO,NA,39.017341040462426,NA
64134,Jackson County,MO,NA,NA,88.88888888888889
64155,Clay County,MO,NA,22.254335260115607,NA
64628,Linn County,MO,76.02996254681648,NA,NA
65201,Boone County,MO,70.4119850187266,NA,NA
65203,Boone County,MO,NA,NA,8.187134502923977
65706,Webster County,MO,65.1685393258427,NA,NA
65793,Howell County,MO,NA,94.21965317919076,NA
65804,Greene County,MO,NA,36.41618497109826,NA
59718,Gallatin County,MT,NA,42.48554913294797,NA
59860,Lake County,MT,NA,49.421965317919074,NA
68025,Dodge County,NE,NA,64.16184971098265,NA
68117,Douglas County,NE,NA,87.28323699421965,NA
68128,Sarpy County,NE,54.68164794007491,NA,NA
68462,Lancaster County,NE,98.12734082397003,NA,NA
68516,Lancaster County,NE,52.80898876404494,NA,NA
68847,Buffalo County,NE,NA,78.61271676300578,NA
69301,Box Butte County,NE,39.70037453183521,NA,NA
89104,Clark County,NV,23.220973782771537,NA,NA
89506,Washoe County,NV,29.213483146067414,NA,NA
03054,Hillsborough County,NH,43.445692883895134,NA,NA
03103,Hillsborough County,NH,1.8726591760299627,NA,NA
03235,Merrimack County,NH,69.28838951310861,NA,NA
03743,Sullivan County,NH,NA,NA,33.33333333333333
03870,Rockingham County,NH,NA,NA,83.62573099415205
07024,Bergen County,NJ,NA,45.3757225433526,NA
07036,Union County,NJ,NA,NA,31.57894736842105
07039,Essex County,NJ,93.63295880149812,NA,NA
07470,Passaic County,NJ,NA,NA,8.771929824561402
07604,Bergen County,NJ,NA,84.97109826589595,NA
07649,Bergen County,NJ,86.14232209737828,NA,NA
07666,Bergen County,NJ,NA,45.08670520231214,NA
07701,Monmouth County,NJ,NA,37.57225433526011,NA
08053,Burlington County,NJ,14.232209737827715,NA,NA
08210,Cape May County,NJ,NA,49.13294797687861,NA
08533,Ocean County,NJ,NA,NA,97.6608187134503
08753,Ocean County,NJ,NA,3.7572254335260116,NA
08857,Middlesex County,NJ,NA,NA,22.807017543859647
08886,Warren County,NJ,NA,95.95375722543352,NA
87031,Valencia County,NM,NA,31.213872832369944,NA
87109,Bernalillo County,NM,NA,14.739884393063585,NA
87110,Bernalillo County,NM,NA,9.248554913294797,NA
87112,Bernalillo County,NM,NA,9.53757225433526,7.017543859649122
87120,Bernalillo County,NM,10.112359550561797,NA,NA
88001,Doa Ana County,NM,NA,29.47976878612717,NA
88240,Lea County,NM,NA,NA,27.485380116959064
10023,New York County,NY,80.52434456928839,NA,54.385964912280706
10304,Richmond County,NY,NA,19.942196531791907,NA
10305,Richmond County,NY,NA,NA,30.409356725146196
10312,Richmond County,NY,NA,NA,20.46783625730994
10453,Bronx County,NY,0.37453183520599254,2.023121387283237,NA
10454,Bronx County,NY,4.49438202247191,NA,NA
10457,Bronx County,NY,1.1235955056179776,NA,NA
10458,Bronx County,NY,NA,0.5780346820809248,NA
10459,Bronx County,NY,57.30337078651685,NA,NA
10468,Bronx County,NY,49.43820224719101,NA,NA
10552,Westchester County,NY,NA,NA,74.85380116959064
10598,Westchester County,NY,NA,75.43352601156069,NA
11001,Nassau County,NY,NA,81.79190751445087,NA
11023,Nassau County,NY,NA,NA,87.13450292397661
11102,Queens County,NY,47.940074906367045,NA,NA
11219,Kings County,NY,24.719101123595504,NA,NA
11229,Kings County,NY,NA,18.786127167630056,2.923976608187134
11357,Queens County,NY,NA,77.45664739884393,NA
11372,Queens County,NY,NA,NA,11.695906432748536
11418,Queens County,NY,NA,NA,43.859649122807014
11501,Nassau County,NY,NA,88.72832369942196,NA
11542,Nassau County,NY,NA,54.91329479768786,NA
11710,Nassau County,NY,NA,62.42774566473989,NA
11768,Suffolk County,NY,NA,NA,60.23391812865497
13069,Oswego County,NY,NA,NA,48.53801169590643
13090,Onondaga County,NY,NA,NA,81.28654970760235
13165,Seneca County,NY,51.68539325842697,NA,NA
13309,Oneida County,NY,95.13108614232209,NA,NA
13402,Madison County,NY,NA,98.84393063583815,NA
13421,Madison County,NY,NA,55.49132947976878,NA
13803,Cortland County,NY,NA,95.66473988439307,NA
13815,Chenango County,NY,NA,NA,29.239766081871345
13850,Broome County,NY,NA,NA,4.678362573099415
14047,Erie County,NY,NA,75.72254335260115,NA
14224,Erie County,NY,69.66292134831461,NA,NA
14424,Ontario County,NY,NA,2.312138728323699,NA
14468,Monroe County,NY,16.10486891385768,NA,NA
14472,Monroe County,NY,NA,NA,85.38011695906432
14502,Wayne County,NY,NA,52.89017341040463,NA
14544,Yates County,NY,NA,95.08670520231213,NA
14701,Chautauqua County,NY,NA,NA,46.783625730994146
14727,Allegany County,NY,NA,79.1907514450867,NA
14850,Tompkins County,NY,NA,4.624277456647398,NA
27258,Alamance County,NC,91.38576779026218,NA,NA
27265,Guilford County,NC,NA,14.450867052023122,NA
27516,Orange County,NC,NA,NA,23.391812865497073
27526,Wake County,NC,NA,20.520231213872833,NA
27539,Wake County,NC,NA,66.47398843930635,NA
27604,Wake County,NC,NA,43.0635838150289,NA
27871,Martin County,NC,NA,93.0635838150289,NA
27932,Chowan County,NC,NA,NA,36.25730994152047
28036,Mecklenburg County,NC,NA,97.6878612716763,NA
28086,Cleveland County,NC,NA,NA,49.122807017543856
28301,Cumberland County,NC,NA,NA,60.81871345029239
28451,Brunswick County,NC,NA,23.410404624277454,NA
28560,Craven County,NC,NA,NA,81.87134502923976
28715,Buncombe County,NC,NA,NA,56.14035087719298
28716,Haywood County,NC,NA,43.35260115606936,NA
28739,Henderson County,NC,NA,13.005780346820808,NA
28792,Henderson County,NC,NA,43.641618497109825,NA
58012,Cass County,ND,100,NA,NA
58103,Cass County,ND,NA,18.497109826589593,58.47953216374269
58401,Stutsman County,ND,71.91011235955057,NA,NA
58501,Burleigh County,ND,NA,66.76300578034682,NA
43015,Delaware County,OH,NA,5.780346820809249,6.432748538011696
43147,Fairfield County,OH,NA,26.589595375722542,NA
43212,Franklin County,OH,NA,89.30635838150289,NA
43213,Franklin County,OH,NA,17.63005780346821,NA
43302,Marion County,OH,NA,NA,5.263157894736842
43402,Wood County,OH,NA,NA,18.71345029239766
43506,Williams County,OH,NA,25.14450867052023,NA
43542,Lucas County,OH,94.3820224719101,NA,NA
43567,Fulton County,OH,NA,41.61849710982659,NA
43920,Columbiana County,OH,NA,10.115606936416185,NA
44035,Lorain County,OH,NA,0,0
44053,Lorain County,OH,NA,NA,94.15204678362574
44125,Cuyahoga County,OH,NA,NA,11.11111111111111
44134,Cuyahoga County,OH,15.730337078651685,NA,NA
44139,Cuyahoga County,OH,NA,51.445086705202314,NA
44203,Summit County,OH,NA,8.092485549132949,NA
44212,Medina County,OH,NA,NA,1.7543859649122806
44233,Medina County,OH,NA,59.2485549132948,NA
44236,Summit County,OH,NA,21.09826589595376,NA
44256,Medina County,OH,NA,1.1560693641618496,NA
44266,Portage County,OH,7.865168539325842,NA,NA
44310,Summit County,OH,NA,NA,61.40350877192983
44319,Summit County,OH,NA,22.54335260115607,NA
44417,Trumbull County,OH,96.62921348314607,NA,NA
44425,Trumbull County,OH,NA,26.011560693641616,NA
44440,Trumbull County,OH,NA,84.39306358381504,NA
44451,Mahoning County,OH,NA,97.10982658959537,NA
44460,Columbiana County,OH,5.992509363295881,NA,NA
44483,Trumbull County,OH,NA,12.138728323699421,19.298245614035086
44484,Trumbull County,OH,NA,NA,16.95906432748538
44512,Mahoning County,OH,NA,13.294797687861271,NA
44601,Stark County,OH,3.3707865168539324,NA,NA
44710,Stark County,OH,NA,NA,71.34502923976608
44839,Erie County,OH,NA,42.19653179190752,NA
44903,Richland County,OH,87.26591760299625,NA,NA
45011,Butler County,OH,0.7490636704119851,NA,NA
45014,Butler County,OH,68.16479400749064,NA,NA
45042,Butler County,OH,88.38951310861424,NA,NA
45211,Hamilton County,OH,7.490636704119851,NA,NA
45217,Hamilton County,OH,80.89887640449437,NA,NA
45248,Hamilton County,OH,NA,61.849710982658955,NA
45309,Montgomery County,OH,86.89138576779027,NA,NA
45356,Miami County,OH,NA,11.271676300578035,NA
73034,Oklahoma County,OK,NA,14.16184971098266,NA
73072,Cleveland County,OK,NA,27.45664739884393,NA
73089,Grady County,OK,NA,67.34104046242774,NA
73130,Oklahoma County,OK,64.41947565543072,NA,NA
73139,Oklahoma County,OK,NA,NA,66.08187134502924
73162,Oklahoma County,OK,NA,17.341040462427745,NA
73507,Comanche County,OK,NA,31.79190751445087,NA
73533,Stephens County,OK,NA,67.91907514450867,NA
73701,Garfield County,OK,47.940074906367045,NA,NA
74010,Creek County,OK,NA,NA,91.81286549707602
74019,Rogers County,OK,NA,57.80346820809249,NA
74037,Tulsa County,OK,NA,85.54913294797689,NA
74135,Tulsa County,OK,NA,46.82080924855491,NA
74137,Tulsa County,OK,NA,NA,38.01169590643275
74403,Muskogee County,OK,NA,NA,28.07017543859649
74426,McIntosh County,OK,NA,87.57225433526011,NA
74953,Le Flore County,OK,NA,78.61271676300578,NA
97006,Washington County,OR,NA,NA,36.25730994152047
97071,Marion County,OR,60.2996254681648,NA,NA
97103,Clatsop County,OR,86.51685393258427,NA,NA
97132,Yamhill County,OR,NA,30.346820809248555,NA
97205,Multnomah County,OR,NA,91.90751445086705,NA
97321,Linn County,OR,39.70037453183521,NA,NA
97355,Linn County,OR,13.857677902621724,NA,NA
97478,Lane County,OR,NA,NA,53.216374269005854
97496,Douglas County,OR,NA,NA,85.96491228070175
97502,Jackson County,OR,57.67790262172284,NA,NA
97702,Deschutes County,OR,62.172284644194754,NA,NA
97814,Baker County,OR,NA,48.554913294797686,NA
97850,Union County,OR,NA,NA,50.29239766081871
15057,Washington County,PA,NA,73.69942196531792,NA
15102,Allegheny County,PA,58.052434456928836,28.901734104046245,NA
15136,Allegheny County,PA,NA,38.72832369942196,NA
15143,Allegheny County,PA,NA,NA,40.93567251461988
15204,Allegheny County,PA,NA,86.1271676300578,NA
15236,Allegheny County,PA,NA,31.502890173410403,NA
15370,Greene County,PA,NA,60.115606936416185,NA
15401,Fayette County,PA,6.741573033707865,NA,NA
15857,Elk County,PA,34.45692883895131,NA,NA
16101,Lawrence County,PA,6.367041198501873,NA,NA
16823,Centre County,PA,NA,16.184971098265898,NA
17011,Cumberland County,PA,22.47191011235955,NA,NA
17078,Lebanon County,PA,NA,10.404624277456648,NA
17340,Adams County,PA,NA,NA,71.9298245614035
17356,York County,PA,NA,44.797687861271676,NA
17402,York County,PA,77.15355805243446,NA,NA
17522,Lancaster County,PA,NA,10.982658959537572,NA
17701,Lycoming County,PA,NA,5.202312138728324,NA
18017,Northampton County,PA,NA,NA,41.52046783625731
18032,Lehigh County,PA,76.02996254681648,NA,NA
18360,Monroe County,PA,NA,12.427745664739884,NA
18431,Wayne County,PA,NA,58.092485549132945,NA
18603,Columbia County,PA,NA,NA,42.69005847953216
19015,Delaware County,PA,50.187265917603,NA,NA
19082,Delaware County,PA,NA,26.300578034682083,NA
19126,Philadelphia County,PA,NA,77.16763005780348,NA
19141,Philadelphia County,PA,NA,15.606936416184972,NA
19301,Chester County,PA,68.91385767790263,NA,NA
19355,Chester County,PA,NA,NA,56.72514619883041
19446,Montgomery County,PA,4.119850187265917,15.028901734104046,NA
19460,Chester County,PA,NA,63.005780346820806,NA
29010,Lee County,SC,NA,79.47976878612717,NA
29073,Lexington County,SC,66.66666666666666,NA,NA
29078,Kershaw County,SC,NA,71.96531791907515,NA
29412,Charleston County,SC,NA,19.07514450867052,NA
29414,Charleston County,SC,NA,24.85549132947977,NA
29526,Horry County,SC,64.7940074906367,NA,NA
29640,Pickens County,SC,NA,21.38728323699422,NA
29644,Greenville County,SC,75.28089887640449,NA,NA
29732,York County,SC,NA,NA,21.637426900584796
29926,Beaufort County,SC,NA,65.60693641618496,NA
57042,Lake County,SD,NA,51.15606936416185,NA
37086,Rutherford County,TN,NA,64.73988439306359,NA
37129,Rutherford County,TN,NA,32.080924855491325,NA
37167,Rutherford County,TN,8.614232209737828,NA,NA
37207,Davidson County,TN,7.116104868913857,NA,NA
37353,Bradley County,TN,84.6441947565543,NA,NA
37377,Hamilton County,TN,62.92134831460674,NA,59.06432748538012
37771,Loudon County,TN,56.92883895131086,NA,NA
37857,Hawkins County,TN,46.06741573033708,NA,NA
38053,Shelby County,TN,NA,56.06936416184971,NA
38237,Weakley County,TN,NA,NA,83.04093567251462
38257,Obion County,TN,83.52059925093633,NA,NA
75034,Denton County,TX,NA,29.190751445086704,NA
75035,Collin County,TX,NA,NA,76.0233918128655
75038,Dallas County,TX,NA,87.861271676300575,NA
75061,Dallas County,TX,4.868913857677903,NA,NA
75149,Dallas County,TX,NA,30.924855491329478,NA
75167,Ellis County,TX,90.2621722846442,NA,NA
75209,Dallas County,TX,NA,NA,51.461988304093566
75216,Dallas County,TX,NA,NA,10.526315789473683
75482,Hopkins County,TX,NA,58.67052023121387,39.76608187134503
75662,Gregg County,TX,NA,NA,79.53216374269006
76033,Johnson County,TX,NA,41.32947976878613,NA
76104,Tarrant County,TX,25.842696629213485,NA,NA
76118,Tarrant County,TX,82.02247191011236,NA,NA
76126,Tarrant County,TX,NA,NA,76.0233918128655
76133,Tarrant County,TX,NA,20.23121387283237,NA
76140,Tarrant County,TX,17.60299625468165,NA,NA
76179,Tarrant County,TX,NA,35.26011560693642,NA
76548,Bell County,TX,20.973782771535582,NA,NA
76643,McLennan County,TX,NA,NA,63.74269005847953
77302,Montgomery County,TX,81.27340823970037,NA,NA
77304,Montgomery County,TX,34.831460674157306,NA,NA
77339,Harris County,TX,45.31835205992509,NA,NA
77346,Harris County,TX,NA,36.127167630057805,NA
77380,Montgomery County,TX,NA,61.27167630057804,NA
77384,Montgomery County,TX,44.19475655430712,NA,NA
77433,Harris County,TX,3.7453183520599254,NA,NA
77449,Harris County,TX,2.6217228464419478,NA,NA
77450,Harris County,TX,27.715355805243448,NA,NA
77459,Fort Bend County,TX,NA,11.560693641618498,NA
77477,Fort Bend County,TX,NA,46.24277456647399,NA
77546,Galveston County,TX,NA,NA,33.91812865497076
77619,Jefferson County,TX,NA,NA,59.64912280701754
77642,Jefferson County,TX,NA,33.81502890173411,NA
77840,Brazos County,TX,34.08239700374532,NA,NA
77962,Jackson County,TX,NA,99.71098265895954,NA
77979,Calhoun County,TX,NA,NA,64.91228070175438
78216,Bexar County,TX,NA,63.58381502890174,NA
78230,Bexar County,TX,37.82771535580524,NA,NA
78232,Bexar County,TX,NA,47.10982658959538,NA
78247,Bexar County,TX,29.588014981273407,NA,NA
78250,Bexar County,TX,8.98876404494382,NA,NA
78254,Bexar County,TX,15.355805243445692,NA,NA
78503,Hidalgo County,TX,NA,NA,77.77777777777779
78611,Burnet County,TX,NA,NA,77.19298245614034
78628,Williamson County,TX,NA,25.43352601156069,NA
78641,Williamson County,TX,59.925093632958806,NA,NA
78654,Burnet County,TX,NA,NA,14.619883040935672
79109,Randall County,TX,32.20973782771536,48.84393063583815,NA
79364,Lubbock County,TX,NA,NA,98.24561403508771
79403,Lubbock County,TX,NA,53.179190751445084,NA
79407,Lubbock County,TX,NA,86.41618497109826,NA
79413,Lubbock County,TX,NA,57.22543352601156,NA
79424,Lubbock County,TX,NA,9.53757225433526,17.543859649122805
79605,Taylor County,TX,91.76029962546816,72.54335260115607,NA
79703,Midland County,TX,NA,NA,91.22807017543859
79707,Midland County,TX,NA,47.97687861271676,NA
79756,Ward County,TX,67.41573033707866,NA,NA
84004,Utah County,UT,85.76779026217228,96.24277456647398,NA
84005,Utah County,UT,NA,99.42196531791907,NA
84009,Salt Lake County,UT,43.82022471910113,NA,NA
84014,Davis County,UT,NA,80.92485549132948,NA
84043,Utah County,UT,NA,88.15028901734104,NA
84058,Utah County,UT,65.1685393258427,NA,NA
84081,Salt Lake County,UT,41.19850187265918,90.46242774566474,NA
84094,Salt Lake County,UT,22.09737827715356,52.312138728323696,NA
84098,Summit County,UT,NA,NA,95.32163742690058
84109,Salt Lake County,UT,NA,55.202312138728324,NA
84115,Salt Lake County,UT,NA,NA,66.08187134502924
84116,Salt Lake County,UT,NA,34.68208092485549,NA
84120,Salt Lake County,UT,NA,NA,55.55555555555556
84121,Salt Lake County,UT,NA,16.76300578034682,NA
84123,Salt Lake County,UT,25.468164794007492,NA,NA
84501,Carbon County,UT,44.9438202247191,NA,NA
84532,Grand County,UT,NA,NA,84.7953216374269
84737,Washington County,UT,78.65168539325843,NA,NA
05443,Addison County,VT,NA,74.27745664739885,NA
05495,Chittenden County,VT,76.77902621722846,NA,NA
05641,Washington County,VT,NA,29.76878612716763,NA
22193,Prince William County,VA,NA,NA,39.1812865497076
22625,Frederick County,VA,98.50187265917603,NA,NA
22802,Harrisonburg city,VA,NA,80.92485549132948,NA
23061,Gloucester County,VA,NA,85.26011560693641,NA
23072,Gloucester County,VA,NA,NA,86.54970760233918
23117,Louisa County,VA,NA,NA,75.43859649122807
23139,Powhatan County,VA,NA,NA,52.046783625730995
23228,Henrico County,VA,73.03370786516854,NA,NA
23320,Chesapeake city,VA,18.726591760299627,NA,NA
23350,Northampton County,VA,98.87640449438202,NA,NA
23451,Virginia Beach city,VA,NA,NA,3.508771929824561
23608,Newport News city,VA,NA,36.99421965317919,NA
23831,Chesterfield County,VA,47.565543071161045,NA,NA
24017,Roanoke city,VA,NA,NA,70.17543859649122
24060,Montgomery County,VA,NA,76.01156069364163,NA
24065,Franklin County,VA,NA,93.64161849710982,NA
24073,Montgomery County,VA,NA,NA,45.614035087719294
24121,Bedford County,VA,NA,61.5606936416185,NA
24151,Franklin County,VA,NA,81.5028901734104,NA
98011,King County,WA,71.53558052434457,NA,NA
98022,King County,WA,64.04494382022472,NA,NA
98075,King County,WA,72.28464419475655,NA,NA
98208,Snohomish County,WA,14.981273408239701,NA,NA
98225,Whatcom County,WA,NA,74.85549132947978,NA
98245,San Juan County,WA,NA,99.13294797687861,NA
98292,Snohomish County,WA,53.93258426966292,NA,NA
98372,Pierce County,WA,47.940074906367045,NA,NA
98405,Pierce County,WA,NA,65.89595375722543,NA
98801,Chelan County,WA,NA,6.9364161849710975,NA
98903,Yakima County,WA,NA,57.51445086705203,NA
99223,Spokane County,WA,42.32209737827715,55.78034682080924,NA
99301,Franklin County,WA,NA,6.069364161849711,NA
20011,District of Columbia,DC,NA,13.583815028901732,NA
25309,Kanawha County,WV,NA,56.936416184971094,NA
26101,Wood County,WV,NA,4.913294797687861,NA
26354,Taylor County,WV,NA,50,NA
26505,Monongalia County,WV,NA,6.6473988439306355,NA
53005,Waukesha County,WI,5.2434456928838955,NA,NA
53022,Washington County,WI,9.363295880149813,NA,NA
53086,Washington County,WI,84.26966292134831,NA,NA
53126,Racine County,WI,89.13857677902621,NA,NA
53143,Kenosha County,WI,16.853932584269664,NA,NA
53151,Waukesha County,WI,31.835205992509362,NA,NA
53215,Milwaukee County,WI,1.4981273408239701,NA,NA
53216,Milwaukee County,WI,NA,17.91907514450867,NA
53220,Milwaukee County,WI,NA,24.566473988439306,NA
53511,Rock County,WI,NA,0.2890173410404624,NA
53536,Rock County,WI,NA,NA,93.56725146198829
53538,Jefferson County,WI,NA,39.30635838150289,NA
53562,Dane County,WI,40.44943820224719,NA,NA
53589,Dane County,WI,NA,37.861271676300575,NA
53597,Dane County,WI,44.569288389513105,NA,NA
53711,Dane County,WI,NA,15.31791907514451,NA
53963,Dodge County,WI,NA,76.30057803468208,NA
54646,Juneau County,WI,NA,89.01734104046243,NA
54650,La Crosse County,WI,50.936329588014985,NA,NA
54665,Vernon County,WI,NA,NA,63.1578947368421
54868,Barron County,WI,NA,50.28901734104046,NA
54937,Fond du Lac County,WI,72.28464419475655,NA,NA
54981,Waupaca County,WI,NA,51.73410404624278,NA
82604,Natrona County,WY,88.76404494382022,NA,NA
82609,Natrona County,WY,NA,NA,78.94736842105263
82633,Converse County,WY,NA,60.69364161849711,NA
82930,Uinta County,WY,NA,85.83815028901735,NA
