ZipCode,county,state,Adult,Retirement,Geriatric
35010,Tallapoosa County,AL,35.13513513513514,NA,NA
35124,Shelby County,AL,NA,35.374149659863946,NA
35125,St. Clair County,AL,NA,60.204081632653065,NA
35750,Madison County,AL,NA,NA,66.2420382165605
35758,Madison County,AL,NA,NA,33.75796178343949
35960,Cherokee County,AL,NA,NA,91.71974522292994
36033,Butler County,AL,NA,98.9795918367347,NA
36108,Montgomery County,AL,NA,92.85714285714286,NA
36116,Montgomery County,AL,NA,NA,83.12101910828027
36830,Lee County,AL,NA,49.65986394557823,NA
36877,Lee County,AL,NA,88.09523809523809,NA
99504,Anchorage Municipality,AK,21.08108108108108,NA,NA
85015,Maricopa County,AZ,16.216216216216218,NA,NA
85020,Maricopa County,AZ,NA,NA,45.22292993630573
85023,Maricopa County,AZ,NA,49.31972789115646,NA
85050,Maricopa County,AZ,NA,NA,80.2547770700637
85051,Maricopa County,AZ,48.10810810810811,NA,NA
85207,Maricopa County,AZ,NA,28.57142857142857,NA
85254,Maricopa County,AZ,NA,32.6530612244898,NA
85263,Maricopa County,AZ,NA,NA,84.07643312101911
85349,Yuma County,AZ,NA,53.40136054421769,NA
85351,Maricopa County,AZ,NA,NA,0
85364,Yuma County,AZ,NA,5.782312925170068,NA
85367,Yuma County,AZ,NA,NA,11.464968152866243
85650,Cochise County,AZ,NA,73.80952380952381,NA
85705,Pima County,AZ,NA,NA,37.898089171974526
85712,Pima County,AZ,NA,NA,80.57324840764332
85741,Pima County,AZ,NA,NA,79.93630573248409
85747,Pima County,AZ,NA,NA,88.85350318471338
85901,Navajo County,AZ,NA,52.721088435374156,NA
86314,Yavapai County,AZ,76.75675675675676,NA,NA
86429,Mohave County,AZ,NA,NA,59.554140127388536
72501,Independence County,AR,NA,NA,32.48407643312102
72703,Washington County,AR,NA,NA,54.45859872611465
72712,Benton County,AR,NA,65.3061224489796,NA
72758,Benton County,AR,77.29729729729729,NA,NA
72802,Pope County,AR,NA,NA,92.99363057324841
72941,Sebastian County,AR,96.75675675675676,NA,NA
90014,Los Angeles County,CA,NA,72.44897959183673,NA
90043,Los Angeles County,CA,50.27027027027027,NA,NA
90221,Los Angeles County,CA,NA,34.35374149659864,NA
90275,Los Angeles County,CA,NA,NA,10.191082802547772
90660,Los Angeles County,CA,NA,32.99319727891156,NA
90732,Los Angeles County,CA,NA,NA,53.18471337579618
91325,Los Angeles County,CA,NA,NA,75.47770700636943
91343,Los Angeles County,CA,NA,40.476190476190474,NA
91505,Los Angeles County,CA,NA,NA,99.04458598726114
91601,Los Angeles County,CA,NA,91.49659863945578,NA
91606,Los Angeles County,CA,NA,NA,43.63057324840764
91709,San Bernardino County,CA,NA,27.89115646258503,NA
91710,San Bernardino County,CA,NA,85.37414965986395,NA
91765,Los Angeles County,CA,NA,NA,52.547770700636946
91950,San Diego County,CA,NA,NA,16.560509554140125
92026,San Diego County,CA,NA,NA,90.44585987261146
92083,San Diego County,CA,NA,86.39455782312925,NA
92126,San Diego County,CA,NA,31.97278911564626,NA
92129,San Diego County,CA,88.10810810810811,NA,NA
92234,Riverside County,CA,NA,4.761904761904762,NA
92241,Riverside County,CA,NA,71.42857142857143,NA
92376,San Bernardino County,CA,10.81081081081081,NA,NA
92562,Riverside County,CA,25.405405405405407,NA,NA
92592,Riverside County,CA,NA,29.591836734693878,NA
92627,Orange County,CA,NA,NA,51.27388535031847
92683,Orange County,CA,NA,NA,7.32484076433121
92707,Orange County,CA,NA,NA,58.59872611464968
92708,Orange County,CA,36.21621621621622,20.068027210884352,NA
92870,Orange County,CA,37.2972972972973,NA,NA
93012,Ventura County,CA,NA,NA,28.980891719745223
93105,Santa Barbara County,CA,NA,NA,56.68789808917197
93108,Santa Barbara County,CA,NA,NA,96.4968152866242
93111,Santa Barbara County,CA,NA,NA,88.21656050955414
93401,San Luis Obispo County,CA,NA,NA,49.044585987261144
93420,San Luis Obispo County,CA,NA,84.01360544217688,NA
93427,Santa Barbara County,CA,NA,94.5578231292517,NA
93618,Tulare County,CA,91.8918918918919,NA,NA
93705,Fresno County,CA,32.432432432432435,NA,NA
93722,Fresno County,CA,NA,NA,37.261146496815286
94015,San Mateo County,CA,NA,NA,6.369426751592357
94061,San Mateo County,CA,NA,NA,83.7579617834395
94087,Santa Clara County,CA,NA,41.83673469387755,NA
94103,San Francisco County,CA,61.08108108108108,NA,NA
94110,San Francisco County,CA,NA,10.884353741496598,NA
94112,San Francisco County,CA,NA,9.863945578231291,NA
94115,San Francisco County,CA,NA,35.034013605442176,13.694267515923567
94526,Contra Costa County,CA,NA,NA,68.15286624203821
94538,Alameda County,CA,NA,NA,21.337579617834397
94553,Contra Costa County,CA,NA,81.29251700680273,NA
94596,Contra Costa County,CA,NA,NA,57.64331210191082
94598,Contra Costa County,CA,NA,81.63265306122449,NA
94920,Marin County,CA,NA,NA,45.54140127388535
94965,Marin County,CA,NA,NA,67.83439490445859
95131,Santa Clara County,CA,73.51351351351352,NA,NA
95258,San Joaquin County,CA,NA,85.03401360544217,NA
95307,Stanislaus County,CA,NA,39.1156462585034,NA
95621,Sacramento County,CA,NA,NA,24.840764331210192
95747,Placer County,CA,NA,NA,42.038216560509554
95758,Sacramento County,CA,NA,NA,65.28662420382165
95842,Sacramento County,CA,49.18918918918919,NA,NA
95946,Nevada County,CA,NA,58.50340136054422,NA
95973,Butte County,CA,22.162162162162165,NA,NA
96007,Shasta County,CA,NA,97.95918367346938,NA
80011,Arapahoe County,CO,NA,NA,44.904458598726116
80110,Arapahoe County,CO,NA,96.25850340136054,NA
80122,Arapahoe County,CO,54.054054054054056,NA,NA
80207,Denver County,CO,NA,NA,67.51592356687898
80601,Adams County,CO,NA,NA,64.96815286624204
80634,Weld County,CO,NA,4.081632653061225,NA
80910,El Paso County,CO,NA,NA,95.54140127388536
80921,El Paso County,CO,NA,70.06802721088435,NA
06010,Hartford County,CT,NA,NA,4.777070063694268
06461,New Haven County,CT,82.70270270270271,NA,NA
06473,New Haven County,CT,NA,57.48299319727891,NA
06477,New Haven County,CT,NA,66.3265306122449,NA
06877,Fairfield County,CT,NA,50.68027210884354,NA
06880,Fairfield County,CT,NA,51.70068027210885,NA
06902,Fairfield County,CT,NA,NA,50.318471337579616
19701,New Castle County,DE,NA,NA,81.21019108280255
19904,Kent County,DE,NA,41.49659863945578,NA
19973,Sussex County,DE,NA,NA,78.6624203821656
32038,Columbia County,FL,85.4054054054054,NA,NA
32179,Marion County,FL,69.72972972972973,NA,NA
32208,Duval County,FL,NA,43.53741496598639,NA
32216,Duval County,FL,17.83783783783784,NA,NA
32221,Duval County,FL,29.18918918918919,NA,NA
32225,Duval County,FL,NA,76.19047619047619,NA
32256,Duval County,FL,NA,NA,32.802547770700635
32424,Calhoun County,FL,67.56756756756756,NA,NA
32503,Escambia County,FL,NA,NA,52.86624203821656
32703,Orange County,FL,NA,22.448979591836736,NA
32809,Orange County,FL,NA,NA,48.089171974522294
32931,Brevard County,FL,NA,54.761904761904766,NA
32951,Brevard County,FL,NA,NA,91.40127388535032
33021,Broward County,FL,NA,25.170068027210885,NA
33055,Miami-Dade County,FL,NA,NA,19.745222929936308
33127,Miami-Dade County,FL,57.2972972972973,NA,NA
33144,Miami-Dade County,FL,NA,NA,15.92356687898089
33161,Miami-Dade County,FL,34.054054054054056,NA,NA
33311,Broward County,FL,NA,NA,28.662420382165603
33351,Broward County,FL,NA,74.48979591836735,NA
33407,Palm Beach County,FL,NA,43.87755102040816,NA
33411,Palm Beach County,FL,NA,NA,88.53503184713377
33462,Palm Beach County,FL,NA,NA,42.675159235668794
33614,Hillsborough County,FL,NA,69.04761904761905,NA
33701,Pinellas County,FL,NA,54.08163265306123,NA
33702,Pinellas County,FL,52.972972972972975,NA,NA
33710,Pinellas County,FL,NA,NA,41.71974522292994
33712,Pinellas County,FL,34.5945945945946,NA,NA
33756,Pinellas County,FL,NA,NA,61.78343949044586
33774,Pinellas County,FL,NA,59.523809523809526,NA
33776,Pinellas County,FL,NA,NA,67.19745222929936
33805,Polk County,FL,40.54054054054054,NA,NA
33852,Highlands County,FL,NA,NA,35.98726114649681
33870,Highlands County,FL,27.027027027027028,NA,NA
33872,Highlands County,FL,NA,63.60544217687075,NA
33904,Lee County,FL,NA,NA,8.280254777070063
33907,Lee County,FL,NA,78.57142857142857,NA
33909,Lee County,FL,44.86486486486487,NA,NA
34207,Manatee County,FL,55.13513513513514,NA,NA
34275,Sarasota County,FL,NA,53.74149659863946,NA
34448,Citrus County,FL,NA,NA,72.92993630573248
34452,Citrus County,FL,NA,60.544217687074834,NA
34471,Marion County,FL,88.64864864864866,NA,NA
34484,Sumter County,FL,NA,NA,83.43949044585987
34606,Hernando County,FL,NA,NA,35.6687898089172
34698,Pinellas County,FL,NA,24.489795918367346,NA
34743,Osceola County,FL,NA,NA,77.70700636942675
34953,St. Lucie County,FL,24.864864864864867,NA,NA
30038,DeKalb County,GA,45.40540540540541,NA,NA
30052,Walton County,GA,NA,NA,26.11464968152866
30062,Cobb County,GA,NA,19.727891156462583,NA
30068,Cobb County,GA,68.10810810810811,NA,NA
30240,Troup County,GA,NA,26.190476190476193,NA
30263,Coweta County,GA,NA,16.3265306122449,NA
30305,Fulton County,GA,NA,64.62585034013605,NA
30331,Fulton County,GA,NA,48.63945578231292,NA
30467,Screven County,GA,60,NA,NA
30906,Richmond County,GA,NA,9.183673469387756,NA
31406,Chatham County,GA,NA,NA,30.89171974522293
31601,Lowndes County,GA,24.324324324324326,NA,46.17834394904459
31768,Colquitt County,GA,NA,96.93877551020408,NA
31903,Muscogee County,GA,32.972972972972975,NA,NA
39817,Decatur County,GA,NA,74.82993197278913,NA
39819,Decatur County,GA,74.05405405405405,NA,NA
83318,Cassia County,ID,NA,NA,41.082802547770704
83686,Canyon County,ID,NA,40.136054421768705,NA
60070,Cook County,IL,NA,NA,86.30573248407643
60074,Cook County,IL,NA,35.714285714285715,NA
60081,McHenry County,IL,NA,82.6530612244898,NA
60099,Lake County,IL,NA,NA,59.87261146496815
60118,Kane County,IL,NA,55.78231292517006,NA
60137,DuPage County,IL,NA,NA,14.64968152866242
60188,DuPage County,IL,17.2972972972973,NA,NA
60402,Cook County,IL,NA,63.94557823129252,NA
60439,Cook County,IL,NA,21.768707482993197,NA
60453,Cook County,IL,13.513513513513514,NA,NA
60605,Cook County,IL,NA,NA,93.94904458598727
60608,Cook County,IL,87.02702702702703,NA,NA
60614,Cook County,IL,NA,NA,13.05732484076433
60617,Cook County,IL,NA,NA,2.229299363057325
60619,Cook County,IL,NA,NA,0.9554140127388535
60621,Cook County,IL,NA,NA,40.445859872611464
60628,Cook County,IL,NA,7.482993197278912,NA
60629,Cook County,IL,NA,7.8231292517006805,NA
60644,Cook County,IL,NA,15.98639455782313,17.51592356687898
60660,Cook County,IL,26.486486486486488,NA,NA
60707,Cook County,IL,NA,NA,10.509554140127388
60804,Cook County,IL,NA,NA,99.68152866242038
60950,Kankakee County,IL,NA,56.4625850340136,NA
61061,Ogle County,IL,NA,NA,81.84713375796179
61071,Whiteside County,IL,NA,70.74829931972789,NA
61401,Knox County,IL,NA,30.952380952380953,NA
61520,Fulton County,IL,NA,NA,33.43949044585987
61554,Tazewell County,IL,NA,15.306122448979592,NA
61604,Peoria County,IL,NA,NA,17.197452229299362
61605,Peoria County,IL,NA,NA,82.16560509554141
61607,Peoria County,IL,NA,NA,62.738853503184714
61761,McLean County,IL,NA,NA,60.19108280254777
62012,Macoupin County,IL,82.16216216216216,NA,NA
62234,Madison County,IL,NA,NA,25.477707006369428
62269,St. Clair County,IL,NA,62.925170068027214,NA
46142,Johnson County,IN,46.48648648648649,NA,NA
46203,Marion County,IN,NA,NA,29.29936305732484
46204,Marion County,IN,43.78378378378379,NA,NA
46214,Marion County,IN,NA,67.3469387755102,NA
46222,Marion County,IN,19.45945945945946,NA,NA
46237,Marion County,IN,18.91891891891892,NA,NA
46268,Marion County,IN,NA,NA,95.22292993630573
46312,Lake County,IN,NA,37.07482993197279,NA
46327,Lake County,IN,65.4054054054054,NA,NA
46356,Lake County,IN,30.810810810810814,NA,NA
46368,Porter County,IN,NA,3.741496598639456,NA
46406,Lake County,IN,NA,57.14285714285714,NA
46703,Steuben County,IN,NA,NA,38.21656050955414
47130,Clark County,IN,NA,NA,35.35031847133758
47136,Harrison County,IN,NA,99.65986394557824,NA
47150,Floyd County,IN,38.91891891891892,NA,NA
47167,Washington County,IN,94.5945945945946,NA,NA
47170,Scott County,IN,NA,80.61224489795919,NA
47265,Jennings County,IN,NA,NA,45.85987261146497
47362,Henry County,IN,NA,NA,10.509554140127388
50436,Winnebago County,IA,NA,77.21088435374149,NA
50613,Black Hawk County,IA,81.62162162162161,NA,NA
52245,Johnson County,IA,NA,NA,50.63694267515923
52577,Mahaska County,IA,37.83783783783784,NA,NA
66109,Wyandotte County,KS,54.59459459459459,NA,NA
66207,Johnson County,KS,NA,83.33333333333334,NA
67401,Saline County,KS,20,NA,NA
67502,Reno County,KS,NA,NA,51.910828025477706
67601,Ellis County,KS,NA,NA,9.235668789808917
67901,Seward County,KS,NA,93.5374149659864,NA
40210,Jefferson County,KY,NA,46.93877551020408,NA
40324,Scott County,KY,NA,48.29931972789115,NA
41042,Boone County,KY,NA,NA,5.095541401273886
41051,Kenton County,KY,NA,NA,71.97452229299363
41175,Greenup County,KY,NA,75.85034013605441,NA
42141,Barren County,KY,NA,62.585034013605444,NA
42330,Muhlenberg County,KY,NA,NA,71.3375796178344
42642,Russell County,KY,NA,NA,87.89808917197452
70113,Orleans Parish,LA,NA,58.16326530612245,NA
70363,Terrebonne Parish,LA,NA,82.99319727891157,NA
70444,Tangipahoa Parish,LA,50.810810810810814,NA,NA
70461,St. Tammany Parish,LA,NA,NA,89.80891719745223
70503,Lafayette Parish,LA,NA,NA,39.80891719745223
70526,Acadia Parish,LA,NA,NA,56.05095541401274
71201,Ouachita Parish,LA,33.513513513513516,NA,NA
71241,Union Parish,LA,NA,NA,76.11464968152866
04011,Cumberland County,ME,NA,NA,18.152866242038215
04064,York County,ME,NA,65.98639455782312,NA
04101,Cumberland County,ME,NA,NA,48.72611464968153
04330,Kennebec County,ME,49.72972972972973,NA,NA
04473,Penobscot County,ME,NA,NA,70.70063694267516
04605,Hancock County,ME,47.56756756756757,NA,NA
04730,Aroostook County,ME,58.37837837837838,NA,NA
04917,Kennebec County,ME,NA,NA,95.85987261146497
20721,Prince George's County,MD,NA,NA,54.14012738853503
21013,Baltimore County,MD,NA,96.5986394557823,NA
21061,Anne Arundel County,MD,NA,NA,23.56687898089172
21122,Anne Arundel County,MD,10.27027027027027,NA,NA
21144,Anne Arundel County,MD,76.21621621621621,NA,NA
21215,Baltimore city,MD,NA,12.585034013605442,NA
21224,Baltimore city,MD,NA,32.99319727891156,NA
21234,Baltimore County,MD,NA,NA,7.006369426751593
21239,Baltimore city,MD,NA,NA,27.070063694267514
21403,Anne Arundel County,MD,NA,68.70748299319727,NA
21713,Washington County,MD,NA,NA,84.71337579617835
21742,Washington County,MD,NA,NA,77.38853503184714
01040,Hampden County,MA,NA,4.421768707482993,NA
01119,Hampden County,MA,NA,NA,52.22929936305732
01420,Worcester County,MA,3.783783783783784,NA,NA
01475,Worcester County,MA,NA,NA,76.75159235668791
01590,Worcester County,MA,NA,98.63945578231292,NA
01610,Worcester County,MA,NA,84.35374149659864,NA
01845,Essex County,MA,NA,92.51700680272108,NA
01906,Essex County,MA,51.891891891891895,NA,NA
01930,Essex County,MA,NA,NA,7.961783439490445
01944,Essex County,MA,NA,NA,97.13375796178345
02038,Norfolk County,MA,NA,NA,70.06369426751591
02118,Suffolk County,MA,NA,1.7006802721088436,NA
02119,Suffolk County,MA,NA,5.442176870748299,4.45859872611465
02125,Suffolk County,MA,NA,NA,9.872611464968154
02128,Suffolk County,MA,64.32432432432432,NA,31.84713375796178
02130,Suffolk County,MA,NA,3.4013605442176873,NA
02135,Suffolk County,MA,NA,51.36054421768708,NA
02139,Middlesex County,MA,0,NA,NA
02140,Middlesex County,MA,14.594594594594595,NA,NA
02149,Middlesex County,MA,NA,NA,2.547770700636943
02151,Suffolk County,MA,1.6216216216216217,0,NA
02155,Middlesex County,MA,1.0810810810810811,NA,NA
02169,Norfolk County,MA,NA,1.0204081632653061,NA
02184,Norfolk County,MA,NA,94.21768707482994,NA
02190,Norfolk County,MA,NA,NA,90.12738853503186
02780,Bristol County,MA,NA,NA,12.420382165605096
48017,Oakland County,MI,NA,NA,99.36305732484077
48033,Oakland County,MI,NA,NA,23.248407643312103
48038,Macomb County,MI,NA,NA,5.7324840764331215
48059,St. Clair County,MI,NA,NA,78.02547770700637
48067,Oakland County,MI,NA,NA,97.77070063694268
48075,Oakland County,MI,31.351351351351354,NA,NA
48089,Macomb County,MI,97.83783783783784,NA,NA
48105,Washtenaw County,MI,NA,NA,3.5031847133757963
48108,Washtenaw County,MI,NA,NA,25.796178343949045
48125,Wayne County,MI,NA,NA,69.42675159235668
48162,Monroe County,MI,NA,5.1020408163265305,71.01910828025477
48203,Wayne County,MI,NA,99.31972789115646,NA
48205,Wayne County,MI,NA,19.047619047619047,NA
48212,Wayne County,MI,NA,17.346938775510203,NA
48213,Wayne County,MI,NA,95.23809523809523,NA
48227,Wayne County,MI,NA,10.204081632653061,NA
48236,Wayne County,MI,NA,17.687074829931973,NA
48239,Wayne County,MI,NA,13.26530612244898,NA
48336,Oakland County,MI,NA,NA,29.936305732484076
48377,Oakland County,MI,NA,NA,85.6687898089172
48458,Genesee County,MI,NA,NA,53.82165605095541
48505,Genesee County,MI,15.675675675675677,NA,NA
48708,Bay County,MI,NA,NA,77.07006369426752
48843,Livingston County,MI,12.972972972972974,NA,NA
49022,Berrien County,MI,NA,NA,19.426751592356688
49037,Calhoun County,MI,75.67567567567568,NA,NA
49093,St. Joseph County,MI,89.72972972972974,NA,NA
49120,Berrien County,MI,NA,NA,16.878980891719745
49127,Berrien County,MI,NA,60.8843537414966,NA
49221,Lenawee County,MI,NA,8.503401360544217,NA
49301,Kent County,MI,NA,NA,91.0828025477707
49504,Kent County,MI,NA,73.46938775510205,NA
49505,Kent County,MI,NA,NA,18.471337579617835
49507,Kent County,MI,NA,24.829931972789115,NA
49837,Delta County,MI,NA,NA,75.79617834394905
49953,Ontonagon County,MI,NA,75.51020408163265,NA
55057,Rice County,MN,NA,52.04081632653062,NA
55103,Ramsey County,MN,NA,61.224489795918366,NA
55106,Ramsey County,MN,NA,51.02040816326531,NA
55109,Ramsey County,MN,NA,29.931972789115648,NA
55116,Ramsey County,MN,NA,NA,47.77070063694268
55121,Dakota County,MN,78.37837837837837,NA,NA
55124,Dakota County,MN,40,NA,NA
55303,Anoka County,MN,NA,NA,89.171974522293
55311,Hennepin County,MN,61.62162162162163,NA,NA
55344,Hennepin County,MN,NA,NA,94.5859872611465
55362,Wright County,MN,NA,NA,97.45222929936305
55406,Hennepin County,MN,NA,28.91156462585034,NA
55412,Hennepin County,MN,NA,36.054421768707485,NA
55422,Hennepin County,MN,30.270270270270274,NA,NA
55423,Hennepin County,MN,NA,37.41496598639456,NA
55947,Houston County,MN,NA,NA,74.52229299363057
56007,Freeborn County,MN,NA,79.59183673469387,NA
56101,Cottonwood County,MN,NA,63.26530612244898,NA
56215,Swift County,MN,NA,89.45578231292517,NA
56265,Chippewa County,MN,NA,NA,98.40764331210191
56273,Kandiyohi County,MN,NA,89.1156462585034,NA
56387,Stearns County,MN,NA,NA,92.67515923566879
56482,Wadena County,MN,99.45945945945947,NA,NA
56560,Clay County,MN,NA,NA,0.3184713375796179
56573,Otter Tail County,MN,64.86486486486487,NA,NA
38865,Alcorn County,MS,NA,NA,94.90445859872611
39213,Hinds County,MS,66.48648648648648,NA,NA
39429,Marion County,MS,65.94594594594595,NA,NA
39532,Harrison County,MS,47.02702702702703,NA,NA
39540,Harrison County,MS,NA,NA,74.84076433121018
39648,Pike County,MS,NA,41.83673469387755,NA
63050,Jefferson County,MO,NA,78.91156462585033,NA
63114,St. Louis County,MO,NA,30.612244897959183,NA
63116,St. Louis city,MO,NA,44.21768707482993,NA
63123,St. Louis County,MO,36.75675675675676,NA,NA
63129,St. Louis County,MO,NA,NA,40.12738853503185
63130,St. Louis County,MO,NA,NA,43.31210191082803
63139,St. Louis city,MO,NA,NA,68.15286624203821
63301,St. Charles County,MO,NA,6.122448979591836,NA
63367,St. Charles County,MO,57.83783783783784,NA,NA
64012,Cass County,MO,NA,26.87074829931973,NA
64052,Jackson County,MO,NA,34.01360544217687,NA
64154,Platte County,MO,NA,NA,75.15923566878982
64429,Clinton County,MO,NA,71.08843537414967,NA
64468,Nodaway County,MO,NA,47.61904761904761,NA
64507,Buchanan County,MO,NA,62.244897959183675,NA
64772,Vernon County,MO,NA,NA,82.80254777070064
65251,Callaway County,MO,29.72972972972973,NA,NA
65270,Randolph County,MO,62.70270270270271,NA,NA
65606,Oregon County,MO,NA,87.75510204081633,NA
65804,Greene County,MO,28.10810810810811,NA,NA
59047,Park County,MT,72.97297297297297,NA,NA
59102,Yellowstone County,MT,NA,NA,0.6369426751592357
59601,Lewis and Clark County,MT,NA,22.108843537414966,NA
59937,Flathead County,MT,NA,61.564625850340136,NA
68025,Dodge County,NE,NA,68.02721088435374,40.76433121019109
68114,Douglas County,NE,NA,NA,87.57961783439491
68122,Douglas County,NE,NA,93.19727891156462,NA
68136,Sarpy County,NE,NA,NA,93.63057324840764
68801,Hall County,NE,77.83783783783784,NA,NA
68901,Adams County,NE,NA,38.435374149659864,NA
89103,Clark County,NV,NA,NA,57.324840764331206
89502,Washoe County,NV,83.24324324324324,NA,NA
89509,Washoe County,NV,52.43243243243243,NA,NA
03038,Rockingham County,NH,NA,NA,25.159235668789808
03071,Hillsborough County,NH,87.56756756756758,NA,NA
03104,Hillsborough County,NH,45.94594594594595,NA,NA
03303,Merrimack County,NH,NA,93.87755102040816,NA
03431,Cheshire County,NH,NA,NA,7.643312101910828
03581,Coos County,NH,NA,NA,80.89171974522293
07006,Essex County,NJ,NA,NA,47.13375796178344
07032,Hudson County,NJ,NA,31.292517006802722,NA
07055,Passaic County,NJ,NA,47.95918367346938,NA
07103,Essex County,NJ,9.72972972972973,NA,NA
07111,Essex County,NJ,NA,11.904761904761903,NA
07112,Essex County,NJ,75.13513513513513,NA,NA
07657,Bergen County,NJ,NA,NA,73.88535031847134
07871,Sussex County,NJ,56.75675675675676,NA,NA
08016,Burlington County,NJ,NA,NA,76.43312101910828
08065,Burlington County,NJ,NA,78.2312925170068,NA
08098,Salem County,NJ,98.37837837837839,NA,NA
08360,Cumberland County,NJ,NA,11.564625850340136,NA
08610,Mercer County,NJ,9.18918918918919,NA,NA
08701,Ocean County,NJ,NA,NA,2.8662420382165608
08742,Ocean County,NJ,NA,NA,34.71337579617834
08753,Ocean County,NJ,NA,NA,11.78343949044586
08759,Ocean County,NJ,NA,2.7210884353741496,NA
08831,Middlesex County,NJ,NA,NA,1.910828025477707
87004,Sandoval County,NM,NA,NA,64.01273885350318
87105,Bernalillo County,NM,NA,25.850340136054424,NA
87106,Bernalillo County,NM,74.5945945945946,NA,NA
88310,Otero County,NM,23.243243243243246,NA,NA
10003,New York County,NY,NA,NA,21.019108280254777
10029,New York County,NY,NA,0.6802721088435374,NA
10302,Richmond County,NY,NA,77.89115646258503,NA
10304,Richmond County,NY,NA,NA,26.751592356687897
10452,Bronx County,NY,NA,10.54421768707483,12.738853503184714
10453,Bronx County,NY,NA,2.0408163265306123,NA
10456,Bronx County,NY,NA,0.3401360544217687,NA
10458,Bronx County,NY,NA,1.3605442176870748,NA
10463,Bronx County,NY,NA,6.802721088435375,NA
10467,Bronx County,NY,6.486486486486487,NA,1.5923566878980893
10509,Putnam County,NY,78.91891891891892,NA,NA
10701,Westchester County,NY,NA,NA,22.611464968152866
10940,Orange County,NY,NA,81.97278911564626,NA
11104,Queens County,NY,NA,NA,72.29299363057325
11214,Kings County,NY,NA,NA,62.101910828025474
11217,Kings County,NY,41.62162162162162,NA,NA
11230,Kings County,NY,NA,NA,33.12101910828025
11235,Kings County,NY,NA,40.816326530612244,NA
11377,Queens County,NY,NA,NA,21.656050955414013
11416,Queens County,NY,72.43243243243244,NA,NA
11420,Queens County,NY,NA,88.43537414965986,NA
11520,Nassau County,NY,NA,NA,38.53503184713376
11550,Nassau County,NY,NA,21.428571428571427,NA
11740,Suffolk County,NY,92.97297297297298,NA,NA
11767,Suffolk County,NY,NA,NA,79.61783439490446
11801,Nassau County,NY,95.13513513513514,NA,NA
11949,Suffolk County,NY,NA,88.77551020408163,NA
12047,Albany County,NY,62.16216216216216,NA,NA
12144,Rensselaer County,NY,NA,NA,51.59235668789809
12534,Columbia County,NY,NA,23.12925170068027,NA
12553,Orange County,NY,NA,87.41496598639455,NA
12944,Essex County,NY,NA,72.78911564625851,NA
13057,Onondaga County,NY,NA,NA,61.146496815286625
13323,Oneida County,NY,93.51351351351352,NA,NA
13340,Herkimer County,NY,56.21621621621622,NA,NA
13365,Herkimer County,NY,NA,57.82312925170068,NA
13601,Jefferson County,NY,NA,43.197278911564624,NA
13634,Jefferson County,NY,90.27027027027027,NA,NA
13662,St. Lawrence County,NY,NA,20.408163265306122,NA
13669,St. Lawrence County,NY,20.54054054054054,NA,NA
13830,Chenango County,NY,NA,NA,60.828025477707
13905,Broome County,NY,NA,NA,4.140127388535031
14210,Erie County,NY,NA,NA,69.10828025477707
14224,Erie County,NY,7.027027027027027,NA,NA
14416,Genesee County,NY,NA,NA,89.49044585987261
14424,Ontario County,NY,3.2432432432432434,NA,NA
14445,Monroe County,NY,NA,53.06122448979592,NA
14487,Livingston County,NY,71.89189189189189,NA,NA
14505,Wayne County,NY,63.78378378378379,NA,NA
14548,Ontario County,NY,NA,64.96598639455783,NA
14609,Monroe County,NY,NA,NA,20.70063694267516
14616,Monroe County,NY,NA,NA,28.02547770700637
14618,Monroe County,NY,NA,NA,15.605095541401273
14701,Chautauqua County,NY,15.135135135135137,NA,NA
14787,Chautauqua County,NY,NA,NA,93.31210191082803
27023,Forsyth County,NC,NA,NA,37.57961783439491
27045,Forsyth County,NC,NA,NA,98.72611464968153
27103,Forsyth County,NC,NA,NA,14.331210191082802
27107,Forsyth County,NC,NA,NA,84.39490445859873
27127,Forsyth County,NC,NA,NA,34.07643312101911
27284,Forsyth County,NC,86.48648648648648,NA,NA
27292,Davidson County,NC,41.08108108108108,NA,NA
27320,Rockingham County,NC,11.351351351351353,NA,NA
27410,Guilford County,NC,NA,18.367346938775512,NA
27610,Wake County,NC,NA,NA,58.28025477707006
27613,Wake County,NC,NA,NA,53.503184713375795
27713,Durham County,NC,NA,NA,50.955414012738856
27870,Halifax County,NC,NA,NA,42.35668789808918
28016,Gaston County,NC,NA,NA,60.509554140127385
28040,Rutherford County,NC,NA,NA,82.48407643312102
28270,Mecklenburg County,NC,NA,NA,47.452229299363054
28465,Brunswick County,NC,NA,46.25850340136054,NA
28601,Catawba County,NC,NA,NA,19.10828025477707
28604,Watauga County,NC,NA,58.843537414965986,NA
28607,Watauga County,NC,NA,NA,44.26751592356688
28613,Catawba County,NC,NA,36.734693877551024,NA
28645,Caldwell County,NC,5.405405405405405,NA,NA
28694,Ashe County,NC,83.78378378378379,NA,NA
28715,Buncombe County,NC,NA,41.156462585034014,NA
43055,Licking County,OH,NA,16.666666666666664,NA
43213,Franklin County,OH,NA,NA,41.40127388535032
43219,Franklin County,OH,48.64864864864865,NA,NA
43302,Marion County,OH,2.1621621621621623,NA,NA
43545,Henry County,OH,NA,NA,55.095541401273884
43612,Lucas County,OH,5.9459459459459465,NA,NA
43613,Lucas County,OH,4.864864864864865,NA,68.78980891719745
43623,Lucas County,OH,NA,NA,34.394904458598724
43701,Muskingum County,OH,NA,9.523809523809524,NA
43822,Muskingum County,OH,80.54054054054053,NA,NA
43830,Muskingum County,OH,NA,NA,92.03821656050955
44023,Geauga County,OH,NA,NA,14.012738853503185
44024,Geauga County,OH,NA,18.70748299319728,46.81528662420382
44026,Geauga County,OH,NA,NA,30.254777070063692
44053,Lorain County,OH,NA,NA,32.1656050955414
44094,Lake County,OH,NA,7.142857142857142,NA
44095,Lake County,OH,NA,12.925170068027212,NA
44105,Cuyahoga County,OH,0.5405405405405406,NA,NA
44116,Cuyahoga County,OH,NA,29.25170068027211,NA
44128,Cuyahoga County,OH,2.7027027027027026,NA,NA
44134,Cuyahoga County,OH,NA,NA,6.050955414012739
44138,Cuyahoga County,OH,NA,NA,24.203821656050955
44212,Medina County,OH,NA,2.380952380952381,NA
44233,Medina County,OH,NA,45.91836734693878,NA
44256,Medina County,OH,39.45945945945946,NA,NA
44312,Summit County,OH,NA,NA,23.88535031847134
44410,Trumbull County,OH,38.37837837837838,NA,NA
44413,Columbiana County,OH,NA,NA,69.7452229299363
44446,Trumbull County,OH,NA,20.74829931972789,NA
44512,Mahoning County,OH,NA,NA,73.56687898089172
44515,Mahoning County,OH,35.67567567567568,NA,NA
44805,Ashland County,OH,NA,NA,5.095541401273886
44820,Crawford County,OH,NA,14.965986394557824,NA
44907,Richland County,OH,NA,NA,39.490445859872615
45068,Warren County,OH,NA,61.904761904761905,NA
45214,Hamilton County,OH,NA,NA,71.656050955414
45229,Hamilton County,OH,NA,NA,63.69426751592356
45245,Clermont County,OH,63.24324324324324,NA,NA
45331,Darke County,OH,NA,25.510204081632654,NA
45365,Shelby County,OH,42.16216216216216,NA,NA
45424,Montgomery County,OH,NA,13.60544217687075,NA
45432,Greene County,OH,NA,NA,78.98089171974523
45434,Greene County,OH,NA,59.183673469387756,NA
45503,Clark County,OH,NA,83.6734693877551,NA
45640,Jackson County,OH,8.64864864864865,NA,NA
45651,Vinton County,OH,NA,46.59863945578231,NA
45750,Washington County,OH,12.432432432432433,NA,NA
45806,Allen County,OH,NA,52.38095238095239,NA
73008,Oklahoma County,OK,NA,NA,94.26751592356688
73013,Oklahoma County,OK,NA,NA,12.101910828025478
73044,Logan County,OK,NA,17.687074829931973,44.5859872611465
73115,Oklahoma County,OK,NA,82.31292517006803,NA
73132,Oklahoma County,OK,NA,NA,38.853503184713375
73159,Oklahoma County,OK,NA,27.55102040816326,NA
73401,Carter County,OK,NA,13.945578231292515,NA
74136,Tulsa County,OK,NA,NA,29.617834394904456
74501,Pittsburg County,OK,NA,84.6938775510204,NA
74868,Seminole County,OK,NA,NA,90.76433121019109
97210,Multnomah County,OR,96.21621621621622,NA,NA
97213,Multnomah County,OR,67.02702702702703,NA,NA
97222,Clackamas County,OR,28.64864864864865,NA,NA
97224,Washington County,OR,NA,NA,27.388535031847134
97330,Benton County,OR,NA,97.27891156462584,NA
97501,Jackson County,OR,NA,14.625850340136054,85.03184713375796
97504,Jackson County,OR,NA,67.68707482993197,NA
97524,Jackson County,OR,NA,NA,100
97526,Josephine County,OR,23.783783783783786,NA,NA
97537,Jackson County,OR,NA,NA,78.343949044586
97814,Baker County,OR,44.32432432432433,NA,NA
15236,Allegheny County,PA,NA,NA,11.146496815286625
15238,Allegheny County,PA,91.35135135135135,NA,NA
15243,Allegheny County,PA,94.05405405405406,NA,NA
15317,Washington County,PA,27.56756756756757,NA,NA
15632,Westmoreland County,PA,NA,77.55102040816327,NA
15767,Jefferson County,PA,NA,56.80272108843537,NA
15905,Cambria County,PA,NA,33.6734693877551,22.29299363057325
16866,Centre County,PA,NA,NA,49.044585987261144
17050,Cumberland County,PA,NA,64.28571428571429,NA
17063,Mifflin County,PA,100,NA,NA
17110,Dauphin County,PA,NA,27.2108843537415,NA
17112,Dauphin County,PA,89.1891891891892,42.517006802721085,13.375796178343949
17202,Franklin County,PA,NA,42.857142857142854,NA
17225,Franklin County,PA,NA,80.27210884353741,NA
17257,Cumberland County,PA,NA,26.53061224489796,NA
17315,York County,PA,NA,19.387755102040817,NA
17331,York County,PA,NA,NA,1.2738853503184715
17560,Lancaster County,PA,NA,87.07482993197279,NA
17815,Columbia County,PA,14.054054054054054,NA,NA
17842,Snyder County,PA,NA,NA,65.60509554140127
18017,Northampton County,PA,NA,6.462585034013606,NA
18049,Lehigh County,PA,NA,38.095238095238095,NA
18201,Luzerne County,PA,NA,NA,31.210191082802545
18324,Pike County,PA,NA,95.91836734693877,NA
18411,Lackawanna County,PA,NA,NA,57.00636942675159
18704,Luzerne County,PA,NA,39.455782312925166,NA
18944,Bucks County,PA,53.51351351351351,NA,NA
19021,Bucks County,PA,NA,69.38775510204081,NA
19057,Bucks County,PA,85.94594594594595,NA,NA
19082,Delaware County,PA,NA,79.93197278911565,NA
19131,Philadelphia County,PA,7.567567567567568,NA,NA
19134,Philadelphia County,PA,4.324324324324325,NA,NA
19153,Philadelphia County,PA,NA,38.775510204081634,NA
19355,Chester County,PA,42.7027027027027,NA,NA
19380,Chester County,PA,NA,8.843537414965986,NA
19382,Chester County,PA,NA,11.224489795918368,NA
19422,Montgomery County,PA,NA,NA,48.089171974522294
19606,Berks County,PA,NA,8.16326530612245,NA
02886,Kent County,RI,NA,NA,8.9171974522293
29153,Sumter County,SC,NA,75.17006802721087,NA
29229,Richland County,SC,NA,44.5578231292517,NA
29349,Spartanburg County,SC,NA,45.57823129251701,NA
29360,Laurens County,SC,NA,NA,87.26114649681529
29405,Charleston County,SC,60.54054054054055,NA,NA
29414,Charleston County,SC,31.891891891891895,NA,NA
29477,Dorchester County,SC,NA,79.25170068027211,NA
29527,Horry County,SC,NA,39.795918367346935,NA
29605,Greenville County,SC,NA,NA,27.70700636942675
29630,Pickens County,SC,81.08108108108108,NA,NA
29649,Greenwood County,SC,NA,44.5578231292517,NA
29671,Pickens County,SC,NA,NA,61.46496815286624
29681,Greenville County,SC,NA,NA,36.624203821656046
57006,Brookings County,SD,NA,NA,46.496815286624205
57042,Lake County,SD,NA,68.36734693877551,NA
57106,Minnehaha County,SD,21.62162162162162,31.63265306122449,NA
57110,Minnehaha County,SD,NA,NA,35.03184713375796
57301,Davison County,SD,NA,32.31292517006803,NA
37066,Sumner County,TN,NA,36.394557823129254,NA
37069,Williamson County,TN,NA,67.00680272108843,NA
37076,Davidson County,TN,NA,NA,39.171974522293
37080,Davidson County,TN,90.81081081081082,NA,NA
37122,Wilson County,TN,NA,NA,31.528662420382165
37220,Davidson County,TN,NA,86.73469387755102,NA
37363,Hamilton County,TN,NA,37.755102040816325,NA
37618,Sullivan County,TN,NA,66.3265306122449,NA
37771,Loudon County,TN,NA,NA,66.56050955414013
75002,Collin County,TX,NA,28.2312925170068,NA
75010,Denton County,TX,NA,95.578231292517,NA
75043,Dallas County,TX,NA,71.7687074829932,NA
75070,Collin County,TX,NA,NA,16.24203821656051
75135,Hunt County,TX,NA,91.49659863945578,NA
75216,Dallas County,TX,NA,12.244897959183673,NA
75218,Dallas County,TX,69.1891891891892,NA,NA
75223,Dallas County,TX,NA,69.72789115646259,NA
75227,Dallas County,TX,16.756756756756758,NA,NA
75241,Dallas County,TX,NA,NA,21.97452229299363
75409,Collin County,TX,71.35135135135135,NA,NA
75497,Wood County,TX,NA,NA,85.98726114649682
75647,Gregg County,TX,97.2972972972973,NA,NA
75703,Smith County,TX,NA,NA,18.789808917197455
75961,Nacogdoches County,TX,NA,NA,95.85987261146497
76039,Tarrant County,TX,NA,NA,56.36942675159236
76133,Tarrant County,TX,NA,24.149659863945576,24.522292993630572
76205,Denton County,TX,NA,98.29931972789116,NA
76502,Bell County,TX,NA,NA,3.821656050955414
76707,McLennan County,TX,NA,97.61904761904762,NA
77006,Harris County,TX,70.8108108108108,NA,NA
77022,Harris County,TX,NA,NA,49.681528662420384
77033,Harris County,TX,NA,80.95238095238095,NA
77085,Harris County,TX,NA,90.47619047619048,NA
77365,Montgomery County,TX,NA,50,NA
77465,Matagorda County,TX,NA,NA,92.35668789808918
77504,Harris County,TX,NA,NA,66.56050955414013
77511,Brazoria County,TX,NA,15.646258503401361,NA
77566,Brazoria County,TX,NA,NA,43.94904458598726
77581,Brazoria County,TX,NA,23.46938775510204,NA
77590,Galveston County,TX,NA,90.81632653061224,NA
77611,Orange County,TX,NA,NA,81.52866242038218
77630,Orange County,TX,NA,72.10884353741497,NA
77656,Hardin County,TX,NA,50.34013605442177,NA
77665,Chambers County,TX,NA,NA,96.81528662420382
77701,Jefferson County,TX,NA,56.12244897959183,NA
77901,Victoria County,TX,NA,23.809523809523807,NA
78109,Bexar County,TX,51.35135135135135,NA,NA
78233,Bexar County,TX,NA,45.23809523809524,NA
78249,Bexar County,TX,NA,76.87074829931973,NA
78263,Bexar County,TX,NA,100,NA
78550,Cameron County,TX,NA,NA,30.573248407643312
78589,Hidalgo County,TX,NA,NA,79.29936305732484
78610,Hays County,TX,NA,90.1360544217687,NA
78643,Llano County,TX,NA,47.27891156462585,NA
78681,Williamson County,TX,NA,NA,26.43312101910828
79905,El Paso County,TX,NA,73.12925170068027,NA
79936,El Paso County,TX,43.24324324324324,NA,NA
84010,Davis County,UT,NA,NA,54.77707006369427
84014,Davis County,UT,NA,70.40816326530613,NA
84078,Uintah County,UT,NA,34.69387755102041,NA
05482,Chittenden County,VT,NA,NA,55.73248407643312
22041,Fairfax County,VA,NA,NA,58.917197452229296
22303,Fairfax County,VA,84.32432432432432,NA,NA
22443,Westmoreland County,VA,79.45945945945945,NA,NA
22572,Richmond County,VA,NA,76.53061224489795,NA
22601,Winchester city,VA,NA,85.71428571428571,NA
22603,Frederick County,VA,NA,59.863945578231295,55.4140127388535
22903,Charlottesville city,VA,NA,22.789115646258505,NA
23116,Hanover County,VA,NA,NA,50
23221,Richmond city,VA,NA,NA,98.08917197452229
23229,Henrico County,VA,NA,NA,22.929936305732486
23464,Virginia Beach city,VA,NA,NA,3.1847133757961785
23505,Norfolk city,VA,NA,NA,36.30573248407643
23518,Norfolk city,VA,NA,NA,17.8343949044586
23608,Newport News city,VA,18.37837837837838,NA,NA
23666,Hampton city,VA,NA,NA,8.598726114649681
23836,Chesterfield County,VA,NA,NA,85.35031847133759
24019,Roanoke County,VA,NA,NA,42.99363057324841
24202,Washington County,VA,NA,NA,62.42038216560509
98036,Snohomish County,WA,NA,NA,36.94267515923567
98038,King County,WA,NA,86.05442176870748,NA
98055,King County,WA,68.64864864864865,NA,NA
98115,King County,WA,NA,NA,28.343949044585987
98121,King County,WA,NA,55.10204081632652,NA
98166,King County,WA,NA,NA,70.38216560509554
98168,King County,WA,NA,30.272108843537417,NA
98204,Snohomish County,WA,25.405405405405407,NA,NA
98250,San Juan County,WA,NA,NA,72.92993630573248
98329,Pierce County,WA,84.86486486486487,NA,NA
98362,Clallam County,WA,NA,NA,6.687898089171974
98367,Kitsap County,WA,NA,NA,72.29299363057325
98387,Pierce County,WA,22.702702702702705,NA,NA
98390,Pierce County,WA,70.27027027027027,NA,NA
98402,Pierce County,WA,NA,91.15646258503402,NA
98499,Pierce County,WA,NA,NA,86.94267515923568
98513,Thurston County,WA,NA,NA,63.37579617834395
98632,Cowlitz County,WA,NA,NA,20.382165605095544
98671,Clark County,WA,NA,NA,63.05732484076433
98802,Douglas County,WA,NA,NA,20.063694267515924
98901,Yakima County,WA,55.67567567567567,NA,NA
99336,Benton County,WA,NA,3.061224489795918,NA
25419,Berkeley County,WV,NA,NA,86.62420382165605
25438,Jefferson County,WV,NA,89.79591836734694,NA
25443,Jefferson County,WV,95.67567567567568,NA,NA
25560,Putnam County,WV,NA,NA,64.3312101910828
25951,Summers County,WV,NA,74.14965986394559,NA
26062,Hancock County,WV,11.891891891891893,NA,NA
53045,Waukesha County,WI,NA,NA,65.92356687898089
53073,Sheboygan County,WI,NA,65.64625850340136,NA
53089,Waukesha County,WI,80,NA,NA
53121,Walworth County,WI,NA,54.421768707483,NA
53168,Kenosha County,WI,58.91891891891892,NA,NA
53185,Racine County,WI,59.45945945945946,NA,NA
53204,Milwaukee County,WI,8.108108108108109,NA,NA
53207,Milwaukee County,WI,NA,55.44217687074829,NA
53223,Milwaukee County,WI,NA,14.285714285714285,14.968152866242038
53704,Dane County,WI,NA,21.08843537414966,NA
53717,Dane County,WI,NA,48.97959183673469,NA
53913,Sauk County,WI,NA,NA,15.286624203821656
54161,Marinette County,WI,NA,94.89795918367348,NA
54301,Brown County,WI,NA,92.17687074829932,NA
54451,Taylor County,WI,NA,NA,74.20382165605095
54475,Wood County,WI,98.91891891891892,NA,NA
54481,Portage County,WI,NA,NA,9.554140127388536
54568,Vilas County,WI,NA,NA,57.961783439490446
54660,Monroe County,WI,92.43243243243244,NA,NA
54801,Washburn County,WI,NA,NA,64.3312101910828
54843,Sawyer County,WI,NA,NA,59.23566878980891
54935,Fond du Lac County,WI,NA,17.006802721088434,NA
