ZipCode,county,state,Adult,Retirement,Geriatric
35007,Shelby County,AL,NA,NA,63.969171483622354
35010,Tallapoosa County,AL,35.029940119760475,NA,32.5626204238921
35096,Talladega County,AL,NA,75.45662100456622,94.79768786127167
35115,Shelby County,AL,NA,NA,89.59537572254335
35120,St. Clair County,AL,57.63473053892215,NA,NA
35150,Talladega County,AL,NA,NA,47.591522157996145
35218,Jefferson County,AL,60.47904191616767,NA,NA
35223,Jefferson County,AL,NA,NA,69.94219653179191
35235,Jefferson County,AL,NA,80.02283105022832,NA
35462,Greene County,AL,NA,NA,88.0539499036609
35501,Walker County,AL,NA,NA,91.71483622350675
35503,Walker County,AL,NA,NA,77.26396917148362
35579,Walker County,AL,NA,93.4931506849315,NA
35616,Colbert County,AL,99.8502994011976,NA,NA
35650,Lawrence County,AL,NA,44.86301369863014,NA
35652,Lauderdale County,AL,NA,86.0730593607306,NA
35654,Franklin County,AL,NA,94.86301369863014,NA
35761,Madison County,AL,NA,NA,82.27360308285164
35769,Jackson County,AL,NA,NA,67.2447013487476
35773,Madison County,AL,63.17365269461078,NA,NA
35801,Madison County,AL,66.1676646706587,NA,NA
35960,Cherokee County,AL,85.32934131736528,NA,NA
35967,DeKalb County,AL,60.778443113772454,NA,NA
36064,Montgomery County,AL,89.22155688622755,NA,NA
36081,Pike County,AL,NA,65.98173515981736,NA
36105,Montgomery County,AL,61.52694610778443,NA,NA
36117,Montgomery County,AL,62.125748502994014,NA,NA
36265,Calhoun County,AL,51.047904191616766,NA,NA
36301,Houston County,AL,NA,17.579908675799086,NA
36535,Baldwin County,AL,NA,NA,34.48940269749518
36544,Mobile County,AL,77.69461077844312,NA,NA
36867,Russell County,AL,NA,NA,93.44894026974951
99507,Anchorage Municipality,AK,NA,51.25570776255708,NA
99701,Fairbanks North Star Borough,AK,63.92215568862275,NA,NA
99801,Juneau City and Borough,AK,NA,NA,83.04431599229287
85020,Maricopa County,AZ,NA,35.95890410958904,NA
85041,Maricopa County,AZ,NA,NA,86.1271676300578
85044,Maricopa County,AZ,21.407185628742514,NA,NA
85204,Maricopa County,AZ,14.97005988023952,NA,NA
85213,Maricopa County,AZ,NA,NA,62.23506743737958
85225,Maricopa County,AZ,NA,29.794520547945208,NA
85260,Maricopa County,AZ,61.227544910179645,NA,NA
85282,Maricopa County,AZ,NA,46.57534246575342,NA
85301,Maricopa County,AZ,NA,56.9634703196347,NA
85308,Maricopa County,AZ,NA,18.835616438356166,NA
85364,Yuma County,AZ,NA,NA,89.78805394990366
85365,Yuma County,AZ,NA,21.80365296803653,NA
85382,Maricopa County,AZ,NA,45.662100456621005,NA
85614,Pima County,AZ,NA,21.689497716894977,NA
85621,Santa Cruz County,AZ,44.16167664670659,NA,NA
85622,Pima County,AZ,NA,NA,51.252408477842
85635,Cochise County,AZ,NA,NA,82.85163776493256
85653,Pima County,AZ,NA,38.6986301369863,NA
85658,Pima County,AZ,NA,92.00913242009132,NA
85710,Pima County,AZ,NA,NA,11.753371868978805
85711,Pima County,AZ,32.33532934131736,NA,NA
85712,Pima County,AZ,NA,NA,43.15992292870906
85713,Pima County,AZ,NA,11.187214611872145,NA
85714,Pima County,AZ,32.035928143712574,NA,NA
85718,Pima County,AZ,78.74251497005989,NA,NA
85737,Pima County,AZ,NA,49.65753424657534,NA
85739,Pinal County,AZ,NA,NA,92.29287090558766
85743,Pima County,AZ,NA,29.337899543379,NA
85749,Pima County,AZ,NA,NA,96.53179190751445
85756,Pima County,AZ,87.12574850299401,NA,NA
85757,Pima County,AZ,27.395209580838326,NA,NA
86004,Coconino County,AZ,NA,15.068493150684931,NA
86301,Yavapai County,AZ,NA,NA,80.53949903660886
86336,Yavapai County,AZ,NA,NA,63.77649325626204
86401,Mohave County,AZ,NA,38.4703196347032,NA
86409,Mohave County,AZ,NA,NA,25.048169556840076
71603,Jefferson County,AR,NA,NA,26.589595375722542
72015,Saline County,AR,NA,35.15981735159817,NA
72019,Saline County,AR,67.66467065868264,NA,NA
72020,White County,AR,NA,91.43835616438356,NA
72021,Monroe County,AR,NA,90.41095890410958,NA
72401,Craighead County,AR,NA,NA,18.497109826589593
72450,Greene County,AR,NA,26.94063926940639,NA
72543,Cleburne County,AR,61.67664670658682,NA,NA
72653,Baxter County,AR,NA,NA,14.64354527938343
72751,Benton County,AR,NA,93.72146118721462,NA
72758,Benton County,AR,93.26347305389223,NA,NA
72855,Logan County,AR,NA,NA,94.02697495183044
90003,Los Angeles County,CA,33.83233532934132,NA,NA
90019,Los Angeles County,CA,38.772455089820355,NA,NA
90022,Los Angeles County,CA,35.32934131736527,NA,NA
90027,Los Angeles County,CA,NA,82.87671232876713,NA
90034,Los Angeles County,CA,42.51497005988024,NA,NA
90038,Los Angeles County,CA,NA,72.6027397260274,NA
90043,Los Angeles County,CA,43.862275449101794,23.63013698630137,NA
90046,Los Angeles County,CA,NA,59.1324200913242,NA
90057,Los Angeles County,CA,NA,25.684931506849317,NA
90210,Los Angeles County,CA,NA,49.54337899543379,NA
90232,Los Angeles County,CA,NA,NA,60.69364161849711
90260,Los Angeles County,CA,71.25748502994011,NA,NA
90277,Los Angeles County,CA,NA,34.1324200913242,NA
90601,Los Angeles County,CA,NA,NA,39.691714836223504
90602,Los Angeles County,CA,NA,NA,86.51252408477842
90620,Orange County,CA,NA,NA,95.18304431599229
90623,Orange County,CA,NA,81.05022831050228,NA
90638,Los Angeles County,CA,NA,40.182648401826484,NA
90650,Los Angeles County,CA,19.46107784431138,NA,NA
90701,Los Angeles County,CA,86.07784431137725,NA,NA
90710,Los Angeles County,CA,NA,62.89954337899544,NA
90723,Los Angeles County,CA,49.8502994011976,69.74885844748859,NA
91030,Los Angeles County,CA,NA,76.71232876712328,NA
91107,Los Angeles County,CA,NA,49.77168949771689,NA
91302,Los Angeles County,CA,76.79640718562875,NA,NA
91316,Los Angeles County,CA,NA,53.42465753424658,NA
91325,Los Angeles County,CA,NA,66.32420091324201,83.42967244701349
91331,Los Angeles County,CA,NA,20.662100456621005,NA
91343,Los Angeles County,CA,49.700598802395206,NA,NA
91403,Los Angeles County,CA,NA,NA,36.60886319845857
91505,Los Angeles County,CA,NA,NA,95.56840077071291
91706,Los Angeles County,CA,26.497005988023954,35.84474885844749,NA
91709,San Bernardino County,CA,NA,28.424657534246577,NA
91711,Los Angeles County,CA,NA,NA,23.314065510597302
91723,Los Angeles County,CA,NA,NA,70.90558766859345
91739,San Bernardino County,CA,NA,62.671232876712324,NA
91744,Los Angeles County,CA,20.359281437125748,NA,NA
91754,Los Angeles County,CA,82.18562874251496,59.1324200913242,NA
91764,San Bernardino County,CA,NA,60.84474885844748,NA
91765,Los Angeles County,CA,62.5748502994012,NA,50.481695568400774
91780,Los Angeles County,CA,NA,61.87214611872146,NA
91792,Los Angeles County,CA,NA,81.5068493150685,NA
91901,San Diego County,CA,81.2874251497006,NA,NA
92021,San Diego County,CA,16.46706586826347,NA,NA
92024,San Diego County,CA,NA,75,NA
92056,San Diego County,CA,NA,67.35159817351598,NA
92057,San Diego County,CA,54.34131736526946,NA,NA
92065,San Diego County,CA,NA,64.84018264840182,58.1888246628131
92071,San Diego County,CA,NA,41.55251141552511,NA
92118,San Diego County,CA,NA,NA,68.59344894026975
92126,San Diego County,CA,NA,34.93150684931507,NA
92223,Riverside County,CA,NA,42.922374429223744,NA
92253,Riverside County,CA,43.712574850299404,NA,NA
92335,San Bernardino County,CA,NA,68.72146118721462,NA
92337,San Bernardino County,CA,NA,74.31506849315068,NA
92346,San Bernardino County,CA,NA,47.26027397260274,NA
92376,San Bernardino County,CA,NA,18.2648401826484,NA
92392,San Bernardino County,CA,NA,32.76255707762557,NA
92397,San Bernardino County,CA,NA,85.61643835616438,NA
92399,San Bernardino County,CA,NA,22.26027397260274,NA
92404,San Bernardino County,CA,47.1556886227545,NA,NA
92407,San Bernardino County,CA,63.622754491017965,NA,NA
92505,Riverside County,CA,45.209580838323355,NA,67.05202312138728
92553,Riverside County,CA,NA,NA,42.19653179190752
92562,Riverside County,CA,27.095808383233532,NA,NA
92571,Riverside County,CA,79.49101796407186,NA,NA
92592,Riverside County,CA,NA,NA,53.75722543352601
92627,Orange County,CA,NA,NA,81.5028901734104
92646,Orange County,CA,NA,10.730593607305936,NA
92648,Orange County,CA,NA,NA,23.699421965317917
92660,Orange County,CA,NA,42.35159817351598,NA
92706,Orange County,CA,NA,88.01369863013699,NA
92708,Orange County,CA,35.47904191616767,NA,NA
92802,Orange County,CA,52.544910179640716,NA,NA
92860,Riverside County,CA,NA,65.29680365296804,NA
92870,Orange County,CA,NA,59.70319634703196,NA
93023,Ventura County,CA,NA,NA,51.83044315992292
93063,Ventura County,CA,NA,NA,41.42581888246628
93065,Ventura County,CA,16.317365269461078,21.91780821917808,NA
93230,Kings County,CA,19.91017964071856,NA,NA
93245,Kings County,CA,NA,69.06392694063926,NA
93257,Tulare County,CA,39.82035928143712,NA,NA
93555,Kern County,CA,25.898203592814372,NA,NA
93631,Fresno County,CA,69.46107784431138,86.64383561643835,NA
93638,Madera County,CA,NA,48.28767123287671,NA
93727,Fresno County,CA,15.419161676646706,NA,NA
93905,Monterey County,CA,NA,53.65296803652968,NA
94002,San Mateo County,CA,53.293413173652695,NA,NA
94010,San Mateo County,CA,NA,36.07305936073059,NA
94015,San Mateo County,CA,NA,NA,30.63583815028902
94041,Santa Clara County,CA,NA,87.10045662100457,NA
94061,San Mateo County,CA,NA,NA,20.03853564547206
94062,San Mateo County,CA,53.443113772455085,NA,NA
94102,San Francisco County,CA,NA,NA,24.470134874759154
94109,San Francisco County,CA,NA,NA,6.9364161849710975
94112,San Francisco County,CA,NA,NA,5.5876685934489405
94122,San Francisco County,CA,NA,NA,9.826589595375722
94124,San Francisco County,CA,NA,56.278538812785385,NA
94301,Santa Clara County,CA,NA,NA,58.76685934489403
94303,San Mateo County,CA,NA,NA,29.672447013487474
94403,San Mateo County,CA,49.550898203592816,NA,NA
94505,Contra Costa County,CA,NA,NA,87.28323699421965
94506,Contra Costa County,CA,NA,NA,78.42003853564547
94509,Contra Costa County,CA,23.053892215568865,NA,NA
94536,Alameda County,CA,NA,NA,52.98651252408478
94547,Contra Costa County,CA,NA,NA,70.52023121387283
94560,Alameda County,CA,NA,NA,40.07707129094412
94563,Contra Costa County,CA,NA,NA,98.65125240847784
94568,Alameda County,CA,NA,63.35616438356164,NA
94596,Contra Costa County,CA,NA,NA,58.38150289017341
94598,Contra Costa County,CA,NA,81.39269406392694,NA
94928,Sonoma County,CA,NA,45.31963470319635,NA
94945,Marin County,CA,NA,68.94977168949772,NA
94954,Sonoma County,CA,NA,68.2648401826484,NA
95032,Santa Clara County,CA,72.90419161676647,NA,NA
95066,Santa Cruz County,CA,NA,90.6392694063927,NA
95111,Santa Clara County,CA,NA,NA,37.37957610789981
95122,Santa Clara County,CA,44.61077844311377,NA,NA
95128,Santa Clara County,CA,35.47904191616767,NA,NA
95204,San Joaquin County,CA,NA,86.98630136986301,NA
95220,San Joaquin County,CA,NA,NA,94.60500963391137
95355,Stanislaus County,CA,NA,NA,29.28709055876686
95361,Stanislaus County,CA,68.26347305389223,NA,NA
95367,Stanislaus County,CA,76.19760479041916,75.11415525114155,NA
95386,Stanislaus County,CA,NA,89.95433789954338,NA
95407,Sonoma County,CA,57.48502994011976,NA,NA
95476,Sonoma County,CA,NA,NA,26.204238921001927
95490,Mendocino County,CA,71.55688622754491,NA,NA
95616,Yolo County,CA,NA,NA,39.884393063583815
95621,Sacramento County,CA,40.26946107784431,NA,NA
95667,El Dorado County,CA,NA,NA,1.9267822736030826
95670,Sacramento County,CA,NA,34.47488584474886,NA
95691,Yolo County,CA,51.047904191616766,NA,NA
95695,Yolo County,CA,62.874251497005986,NA,NA
95820,Sacramento County,CA,NA,71.80365296803653,48.747591522158
95821,Sacramento County,CA,40.41916167664671,NA,NA
95825,Sacramento County,CA,NA,86.3013698630137,NA
95831,Sacramento County,CA,55.53892215568862,87.89954337899543,NA
95833,Sacramento County,CA,38.47305389221557,NA,NA
95912,Colusa County,CA,NA,99.08675799086758,NA
95946,Nevada County,CA,NA,NA,67.4373795761079
95959,Nevada County,CA,NA,50.2283105022831,NA
80011,Arapahoe County,CO,NA,NA,43.73795761078998
80012,Arapahoe County,CO,NA,30.82191780821918,NA
80015,Arapahoe County,CO,NA,22.945205479452056,NA
80022,Adams County,CO,46.40718562874252,NA,NA
80023,Broomfield County,CO,NA,76.82648401826484,NA
80134,Douglas County,CO,26.94610778443114,NA,NA
80202,Denver County,CO,NA,89.26940639269407,NA
80209,Denver County,CO,NA,64.49771689497716,NA
80211,Denver County,CO,NA,48.74429223744292,88.6319845857418
80219,Denver County,CO,5.688622754491018,NA,NA
80230,Denver County,CO,88.02395209580838,NA,NA
80232,Jefferson County,CO,NA,NA,47.20616570327553
80239,Denver County,CO,NA,51.71232876712328,NA
80915,El Paso County,CO,NA,NA,60.5009633911368
80917,El Paso County,CO,58.23353293413174,NA,NA
06032,Hartford County,CT,95.65868263473054,NA,NA
06106,Hartford County,CT,24.550898203592812,NA,NA
06109,Hartford County,CT,NA,54.45205479452054,NA
06239,Windham County,CT,34.281437125748504,NA,NA
06241,Windham County,CT,58.532934131736525,NA,NA
06489,Hartford County,CT,NA,19.292237442922374,NA
06511,New Haven County,CT,38.92215568862276,NA,NA
06516,New Haven County,CT,NA,46.23287671232877,NA
06519,New Haven County,CT,NA,NA,87.66859344894027
06704,New Haven County,CT,76.34730538922156,NA,NA
06716,New Haven County,CT,NA,62.89954337899544,NA
06810,Fairfield County,CT,44.461077844311376,NA,NA
19805,New Castle County,DE,18.562874251497004,NA,NA
19808,New Castle County,DE,23.652694610778443,NA,NA
19966,Sussex County,DE,25.449101796407188,NA,16.570327552986512
19970,Sussex County,DE,NA,59.47488584474886,NA
19973,Sussex County,DE,17.065868263473057,NA,17.726396917148364
32003,Clay County,FL,56.137724550898206,NA,NA
32043,Clay County,FL,NA,23.515981735159816,NA
32081,St. Johns County,FL,NA,NA,73.21772639691714
32162,Sumter County,FL,NA,NA,3.6608863198458574
32177,Putnam County,FL,43.56287425149701,NA,NA
32205,Duval County,FL,27.54491017964072,NA,NA
32258,Duval County,FL,NA,36.986301369863014,NA
32405,Bay County,FL,56.886227544910184,31.506849315068493,NA
32408,Bay County,FL,69.61077844311377,NA,NA
32459,Walton County,FL,NA,NA,61.849710982658955
32503,Escambia County,FL,NA,NA,21.38728323699422
32561,Santa Rosa County,FL,NA,NA,75.72254335260115
32605,Alachua County,FL,NA,32.87671232876712,NA
32608,Alachua County,FL,8.532934131736528,NA,NA
32766,Seminole County,FL,91.76646706586826,NA,NA
32804,Orange County,FL,NA,71.34703196347031,NA
32807,Orange County,FL,NA,61.073059360730596,NA
32832,Orange County,FL,NA,89.72602739726028,NA
32909,Brevard County,FL,NA,33.10502283105023,NA
32952,Brevard County,FL,NA,NA,22.736030828516377
32966,Indian River County,FL,71.8562874251497,NA,NA
33012,Miami-Dade County,FL,NA,24.885844748858446,NA
33133,Miami-Dade County,FL,72.0059880239521,NA,NA
33136,Miami-Dade County,FL,48.952095808383234,NA,NA
33161,Miami-Dade County,FL,NA,NA,36.80154142581888
33179,Miami-Dade County,FL,NA,NA,38.34296724470135
33187,Miami-Dade County,FL,NA,NA,70.32755298651252
33324,Broward County,FL,NA,NA,47.97687861271676
33401,Palm Beach County,FL,NA,NA,85.54913294797689
33408,Palm Beach County,FL,NA,67.12328767123287,NA
33431,Palm Beach County,FL,NA,54.68036529680366,NA
33455,Martin County,FL,NA,25.11415525114155,NA
33469,Palm Beach County,FL,88.17365269461078,NA,NA
33480,Palm Beach County,FL,NA,NA,36.41618497109826
33541,Pasco County,FL,NA,NA,91.52215799614643
33559,Hillsborough County,FL,NA,NA,98.26589595375722
33603,Hillsborough County,FL,NA,89.61187214611871,NA
33617,Hillsborough County,FL,NA,36.5296803652968,NA
33701,Pinellas County,FL,NA,64.15525114155251,NA
33704,Pinellas County,FL,NA,79.22374429223744,NA
33716,Pinellas County,FL,NA,NA,83.8150289017341
33759,Pinellas County,FL,NA,73.85844748858447,NA
33763,Pinellas County,FL,NA,83.21917808219177,72.44701348747591
33844,Polk County,FL,NA,37.44292237442922,NA
33852,Highlands County,FL,NA,NA,10.982658959537572
33868,Polk County,FL,NA,78.31050228310502,NA
33884,Polk County,FL,NA,74.88584474885845,NA
33907,Lee County,FL,46.25748502994012,NA,NA
33908,Lee County,FL,NA,NA,0.9633911368015413
34112,Collier County,FL,NA,NA,53.371868978805395
34113,Collier County,FL,NA,83.44748858447488,NA
34231,Sarasota County,FL,NA,19.406392694063925,7.7071290944123305
34232,Sarasota County,FL,NA,34.817351598173516,NA
34275,Sarasota County,FL,NA,30.02283105022831,NA
34491,Marion County,FL,NA,NA,24.85549132947977
34601,Hernando County,FL,NA,62.21461187214612,NA
34653,Pasco County,FL,NA,NA,16.76300578034682
34688,Pinellas County,FL,NA,NA,94.21965317919076
34698,Pinellas County,FL,NA,NA,18.304431599229286
34947,St. Lucie County,FL,51.796407185628745,NA,NA
34952,St. Lucie County,FL,NA,41.32420091324201,NA
34953,St. Lucie County,FL,26.646706586826348,NA,NA
34997,Martin County,FL,NA,NA,8.477842003853564
30005,Fulton County,GA,NA,NA,85.16377649325626
30028,Forsyth County,GA,NA,53.99543378995434,NA
30043,Gwinnett County,GA,NA,15.52511415525114,NA
30045,Gwinnett County,GA,NA,71.57534246575342,NA
30058,DeKalb County,GA,66.31736526946108,NA,NA
30062,Cobb County,GA,40.718562874251496,16.552511415525114,NA
30067,Cobb County,GA,NA,NA,72.0616570327553
30078,Gwinnett County,GA,NA,NA,92.8709055876686
30157,Paulding County,GA,NA,27.51141552511416,NA
30180,Carroll County,GA,NA,38.58447488584475,NA
30230,Troup County,GA,NA,76.25570776255708,NA
30263,Coweta County,GA,11.526946107784433,NA,NA
30309,Fulton County,GA,NA,57.64840182648402,NA
30311,Fulton County,GA,NA,22.945205479452056,NA
30344,Fulton County,GA,NA,NA,73.41040462427746
30349,Fulton County,GA,NA,13.470319634703195,NA
30501,Hall County,GA,61.82634730538922,67.00913242009132,NA
30504,Hall County,GA,NA,NA,80.34682080924856
30513,Fannin County,GA,NA,70.31963470319634,NA
30517,Jackson County,GA,NA,80.93607305936074,NA
30519,Gwinnett County,GA,44.76047904191617,34.24657534246575,NA
30528,White County,GA,49.8502994011976,NA,NA
30553,Franklin County,GA,NA,93.94977168949772,NA
30809,Columbia County,GA,65.11976047904191,NA,NA
30813,Columbia County,GA,31.137724550898206,NA,NA
30814,Columbia County,GA,NA,NA,72.83236994219652
30906,Richmond County,GA,NA,NA,49.32562620423892
30909,Richmond County,GA,NA,18.378995433789953,NA
31015,Crisp County,GA,NA,33.789954337899545,NA
31406,Chatham County,GA,NA,NA,32.369942196531795
31535,Coffee County,GA,77.9940119760479,NA,NA
31539,Jeff Davis County,GA,64.67065868263472,NA,NA
31558,Camden County,GA,NA,65.41095890410958,NA
31636,Lowndes County,GA,NA,61.64383561643836,NA
31714,Turner County,GA,NA,NA,68.01541425818883
31792,Thomas County,GA,NA,35.04566210045662,NA
31833,Troup County,GA,NA,96.57534246575342,NA
31903,Muscogee County,GA,NA,45.77625570776256,NA
31907,Muscogee County,GA,NA,NA,5.202312138728324
39842,Terrell County,GA,NA,66.66666666666666,NA
96720,Hawaii County,HI,NA,27.054794520547947,NA
96749,Hawaii County,HI,NA,72.03196347031964,NA
96756,Kauai County,HI,NA,92.46575342465754,NA
96825,Honolulu County,HI,NA,94.40639269406392,7.321772639691715
96826,Honolulu County,HI,NA,33.67579908675799,NA
83202,Bannock County,ID,51.49700598802395,NA,NA
83204,Bannock County,ID,75.44910179640718,NA,NA
83221,Bingham County,ID,NA,NA,44.3159922928709
83301,Twin Falls County,ID,NA,NA,0.1926782273603083
83338,Jerome County,ID,NA,NA,37.57225433526011
83445,Fremont County,ID,91.1676646706587,NA,NA
83605,Canyon County,ID,57.784431137724546,NA,NA
83642,Ada County,ID,NA,38.242009132420094,NA
83669,Ada County,ID,NA,NA,58.57418111753372
83703,Ada County,ID,NA,27.85388127853881,NA
83713,Ada County,ID,77.39520958083833,NA,NA
83714,Ada County,ID,NA,16.210045662100455,NA
83815,Kootenai County,ID,34.58083832335329,NA,NA
83843,Latah County,ID,58.68263473053892,NA,NA
83854,Kootenai County,ID,NA,24.200913242009133,NA
60007,Cook County,IL,51.94610778443114,70.2054794520548,NA
60015,Lake County,IL,NA,NA,20.616570327552985
60025,Cook County,IL,NA,50.68493150684932,NA
60053,Cook County,IL,NA,67.8082191780822,NA
60060,Lake County,IL,NA,16.32420091324201,NA
60071,McHenry County,IL,NA,99.77168949771689,NA
60073,Lake County,IL,17.81437125748503,NA,NA
60074,Cook County,IL,NA,NA,74.56647398843931
60085,Lake County,IL,NA,80.25114155251141,NA
60089,Lake County,IL,NA,NA,19.26782273603083
60090,Cook County,IL,52.99401197604791,NA,NA
60091,Cook County,IL,NA,23.858447488584474,NA
60093,Cook County,IL,NA,50.456621004566216,NA
60101,DuPage County,IL,28.29341317365269,NA,NA
60107,Cook County,IL,NA,70.662100456621,NA
60126,DuPage County,IL,NA,23.28767123287671,NA
60137,DuPage County,IL,NA,31.84931506849315,NA
60140,Kane County,IL,NA,67.69406392694064,NA
60142,McHenry County,IL,NA,12.67123287671233,NA
60148,DuPage County,IL,NA,8.447488584474886,NA
60154,Cook County,IL,NA,27.397260273972602,NA
60156,McHenry County,IL,34.13173652694611,NA,NA
60162,Cook County,IL,NA,84.47488584474885,NA
60163,Cook County,IL,94.16167664670658,NA,NA
60402,Cook County,IL,NA,42.00913242009132,NA
60409,Cook County,IL,NA,34.58904109589041,NA
60411,Cook County,IL,NA,43.15068493150685,NA
60426,Cook County,IL,NA,26.25570776255708,NA
60429,Cook County,IL,NA,85.27397260273972,NA
60430,Cook County,IL,NA,50.91324200913242,73.79576107899807
60436,Will County,IL,NA,56.050228310502284,NA
60443,Cook County,IL,NA,NA,43.54527938342967
60446,Will County,IL,16.017964071856287,NA,NA
60451,Will County,IL,21.856287425149702,NA,NA
60459,Cook County,IL,32.48502994011976,NA,NA
60465,Cook County,IL,NA,53.082191780821915,NA
60468,Will County,IL,NA,88.58447488584474,NA
60481,Will County,IL,NA,55.13698630136986,NA
60505,Kane County,IL,30.688622754491018,NA,NA
60506,Kane County,IL,26.79640718562874,27.51141552511416,NA
60513,Cook County,IL,39.221556886227546,NA,NA
60521,DuPage County,IL,NA,60.95890410958904,NA
60543,Kendall County,IL,NA,NA,69.17148362235068
60585,Will County,IL,NA,NA,89.40269749518305
60607,Cook County,IL,NA,48.401826484018265,NA
60608,Cook County,IL,12.125748502994012,NA,NA
60610,Cook County,IL,41.01796407185629,NA,NA
60615,Cook County,IL,NA,NA,22.54335260115607
60618,Cook County,IL,9.281437125748502,21.118721461187214,NA
60620,Cook County,IL,NA,NA,6.74373795761079
60623,Cook County,IL,NA,45.54794520547945,NA
60624,Cook County,IL,16.91616766467066,NA,NA
60626,Cook County,IL,NA,9.817351598173515,91.32947976878613
60629,Cook County,IL,NA,28.31050228310502,NA
60630,Cook County,IL,NA,14.383561643835616,NA
60633,Cook County,IL,83.8323353293413,NA,NA
60638,Cook County,IL,10.62874251497006,NA,8.285163776493256
60639,Cook County,IL,NA,NA,98.07321772639692
60644,Cook County,IL,8.982035928143713,NA,NA
60652,Cook County,IL,29.041916167664674,26.027397260273972,NA
60655,Cook County,IL,NA,NA,68.78612716763006
60659,Cook County,IL,NA,28.538812785388128,NA
60714,Cook County,IL,70.05988023952095,NA,14.836223506743737
60914,Kankakee County,IL,NA,22.146118721461185,NA
61021,Lee County,IL,NA,NA,4.8169556840077075
61115,Winnebago County,IL,NA,29.5662100456621,NA
61240,Rock Island County,IL,NA,88.35616438356165,NA
61342,LaSalle County,IL,NA,NA,61.46435452793835
61350,LaSalle County,IL,NA,33.9041095890411,NA
61356,Bureau County,IL,NA,63.35616438356164,NA
61550,Tazewell County,IL,NA,NA,42.58188824662813
61604,Peoria County,IL,NA,NA,17.91907514450867
61764,Livingston County,IL,NA,NA,98.45857418111753
61801,Champaign County,IL,NA,48.63013698630137,NA
61832,Vermilion County,IL,NA,NA,12.909441233140656
61853,Champaign County,IL,NA,87.55707762557078,NA
61866,Champaign County,IL,NA,NA,87.09055876685935
62095,Madison County,IL,NA,78.42465753424658,NA
62221,St. Clair County,IL,74.55089820359282,NA,NA
62226,St. Clair County,IL,41.467065868263475,NA,NA
62232,St. Clair County,IL,NA,95.31963470319634,NA
62236,Monroe County,IL,NA,91.66666666666666,NA
62249,Madison County,IL,95.20958083832335,NA,NA
62301,Adams County,IL,NA,NA,73.02504816955684
62521,Macon County,IL,NA,10.844748858447488,7.321772639691715
62549,Macon County,IL,NA,81.7351598173516,NA
62896,Franklin County,IL,86.37724550898204,33.33333333333333,NA
62946,Saline County,IL,75.89820359281437,NA,NA
46032,Hamilton County,IN,NA,58.56164383561644,NA
46038,Hamilton County,IN,NA,52.853881278538815,NA
46041,Clinton County,IN,NA,NA,43.35260115606936
46077,Boone County,IN,NA,65.98173515981736,NA
46122,Hendricks County,IN,NA,NA,84.77842003853564
46131,Johnson County,IN,30.08982035928144,28.881278538812786,74.95183044315993
46142,Johnson County,IN,NA,46.118721461187214,NA
46160,Brown County,IN,NA,NA,99.42196531791907
46181,Johnson County,IN,NA,NA,92.67822736030828
46184,Johnson County,IN,69.16167664670658,NA,NA
46227,Marion County,IN,10.32934131736527,NA,NA
46229,Marion County,IN,54.64071856287425,NA,NA
46239,Marion County,IN,97.15568862275448,NA,NA
46240,Marion County,IN,84.73053892215569,NA,NA
46254,Marion County,IN,NA,31.164383561643838,78.42003853564547
46303,Lake County,IN,NA,NA,47.784200385356456
46304,Porter County,IN,NA,20.205479452054796,NA
46307,Lake County,IN,2.3952095808383236,17.123287671232877,NA
46356,Lake County,IN,30.389221556886227,NA,NA
46366,Starke County,IN,NA,NA,86.89788053949904
46368,Porter County,IN,NA,17.23744292237443,NA
46383,Porter County,IN,NA,7.76255707762557,NA
46385,Porter County,IN,7.934131736526946,NA,NA
46406,Lake County,IN,81.73652694610777,NA,NA
46561,St. Joseph County,IN,NA,87.44292237442922,NA
46635,St. Joseph County,IN,97.75449101796407,NA,NA
46804,Allen County,IN,43.26347305389221,76.02739726027397,NA
46815,Allen County,IN,31.886227544910177,NA,NA
46845,Allen County,IN,NA,47.03196347031963,NA
46970,Miami County,IN,34.880239520958085,NA,NA
47025,Dearborn County,IN,NA,NA,53.5645472061657
47122,Floyd County,IN,86.37724550898204,NA,NA
47129,Clark County,IN,NA,NA,57.80346820809249
47130,Clark County,IN,10.778443113772456,NA,NA
47201,Bartholomew County,IN,13.023952095808383,NA,NA
47265,Jennings County,IN,NA,68.2648401826484,NA
47331,Fayette County,IN,15.868263473053892,NA,NA
47441,Greene County,IN,NA,NA,53.94990366088632
47460,Owen County,IN,72.45508982035929,NA,NA
47720,Vanderburgh County,IN,NA,59.817351598173516,NA
47885,Vigo County,IN,79.19161676646706,NA,NA
50035,Polk County,IA,NA,98.0593607305936,NA
50124,Story County,IA,NA,99.88584474885845,NA
50138,Marion County,IA,NA,NA,75.52986512524085
50263,Dallas County,IA,93.8622754491018,NA,NA
50310,Polk County,IA,22.75449101796407,NA,NA
50313,Polk County,IA,NA,64.72602739726028,NA
50316,Polk County,IA,85.62874251497006,NA,NA
50317,Polk County,IA,38.17365269461078,NA,91.13680154142581
50401,Cerro Gordo County,IA,13.17365269461078,NA,NA
50595,Hamilton County,IA,73.65269461077844,NA,NA
50677,Bremer County,IA,93.41317365269461,NA,NA
50701,Black Hawk County,IA,75.74850299401199,NA,NA
50702,Black Hawk County,IA,39.970059880239525,NA,NA
51031,Plymouth County,IA,NA,NA,46.4354527938343
51250,Sioux County,IA,NA,NA,44.89402697495183
51334,Emmet County,IA,62.27544910179641,NA,NA
51351,Dickinson County,IA,98.95209580838323,NA,NA
51401,Carroll County,IA,79.34131736526946,NA,NA
51503,Pottawattamie County,IA,NA,6.506849315068493,NA
51560,Pottawattamie County,IA,98.35329341317365,NA,NA
52240,Johnson County,IA,NA,21.461187214611872,NA
52241,Johnson County,IA,45.05988023952096,NA,NA
52245,Johnson County,IA,NA,NA,80.73217726396918
52501,Wapello County,IA,14.820359281437126,NA,NA
52632,Lee County,IA,67.21556886227546,NA,NA
52761,Muscatine County,IA,12.574850299401197,NA,28.13102119460501
52807,Scott County,IA,NA,92.8082191780822,NA
66002,Atchison County,KS,71.10778443113772,NA,NA
66025,Douglas County,KS,NA,96.68949771689498,NA
66047,Douglas County,KS,NA,80.13698630136986,NA
66048,Leavenworth County,KS,NA,47.6027397260274,NA
66061,Johnson County,KS,NA,7.30593607305936,NA
66112,Wyandotte County,KS,NA,73.0593607305936,NA
66208,Johnson County,KS,78.89221556886228,87.32876712328768,NA
66614,Shawnee County,KS,32.93413173652694,NA,NA
66617,Shawnee County,KS,NA,82.76255707762557,NA
66618,Shawnee County,KS,NA,92.8082191780822,NA
67124,Pratt County,KS,84.73053892215569,NA,NA
67550,Pawnee County,KS,NA,84.70319634703196,NA
67735,Sherman County,KS,NA,80.59360730593608,NA
40013,Nelson County,KY,NA,89.49771689497716,NA
40031,Oldham County,KY,31.736526946107784,NA,NA
40211,Jefferson County,KY,14.071856287425149,NA,NA
40272,Jefferson County,KY,14.221556886227546,NA,NA
40444,Garrard County,KY,NA,52.3972602739726,NA
40475,Madison County,KY,NA,12.442922374429223,NA
40505,Fayette County,KY,25,NA,NA
41017,Kenton County,KY,NA,NA,52.98651252408478
41042,Boone County,KY,NA,NA,5.780346820809249
41074,Campbell County,KY,87.42514970059881,NA,NA
41075,Campbell County,KY,90.5688622754491,NA,NA
41224,Martin County,KY,74.40119760479041,NA,NA
41501,Pike County,KY,NA,NA,32.947976878612714
41572,Pike County,KY,NA,NA,93.25626204238921
41701,Perry County,KY,NA,61.986301369863014,NA
42029,Marshall County,KY,70.80838323353294,NA,NA
42044,Marshall County,KY,NA,91.78082191780823,NA
42141,Barren County,KY,NA,59.018264840182646,NA
42164,Allen County,KY,37.27544910179641,NA,NA
42376,Daviess County,KY,77.84431137724552,NA,NA
42420,Henderson County,KY,9.73053892215569,NA,NA
42518,Pulaski County,KY,NA,100,NA
42633,Wayne County,KY,NA,NA,54.91329479768786
42701,Hardin County,KY,NA,12.214611872146119,NA
42718,Taylor County,KY,NA,41.89497716894977,NA
70043,St. Bernard Parish,LA,NA,65.8675799086758,NA
70056,Jefferson Parish,LA,NA,NA,26.78227360308285
70125,Orleans Parish,LA,64.52095808383234,NA,NA
70426,Washington Parish,LA,NA,NA,97.495183044316
70427,Washington Parish,LA,NA,24.771689497716896,NA
70433,St. Tammany Parish,LA,NA,38.12785388127854,NA
70435,St. Tammany Parish,LA,22.15568862275449,NA,NA
70461,St. Tammany Parish,LA,62.4251497005988,NA,NA
70471,St. Tammany Parish,LA,NA,NA,18.88246628131021
70503,Lafayette Parish,LA,NA,61.5296803652968,NA
70506,Lafayette Parish,LA,6.437125748502994,NA,NA
70510,Vermilion Parish,LA,NA,40.63926940639269,NA
70525,Acadia Parish,LA,48.50299401197605,NA,NA
70548,Vermilion Parish,LA,NA,75.22831050228311,NA
70578,Acadia Parish,LA,NA,NA,64.73988439306359
70586,Evangeline Parish,LA,NA,40.41095890410959,NA
70785,Livingston Parish,LA,NA,83.78995433789954,NA
71104,Caddo Parish,LA,42.06586826347306,NA,NA
71105,Caddo Parish,LA,NA,47.26027397260274,NA
71112,Bossier Parish,LA,13.77245508982036,NA,NA
71201,Ouachita Parish,LA,NA,NA,56.64739884393064
71202,Ouachita Parish,LA,NA,77.85388127853882,NA
71203,Ouachita Parish,LA,NA,NA,34.68208092485549
71292,Ouachita Parish,LA,NA,93.37899543378995,NA
71360,Rapides Parish,LA,NA,28.767123287671232,NA
71446,Vernon Parish,LA,NA,NA,62.6204238921002
03908,York County,ME,74.8502994011976,NA,NA
04002,York County,ME,87.27544910179641,NA,NA
04005,York County,ME,NA,83.67579908675799,NA
04011,Cumberland County,ME,NA,62.328767123287676,NA
04074,Cumberland County,ME,NA,NA,37.76493256262042
04083,York County,ME,89.67065868263472,NA,NA
04103,Cumberland County,ME,22.904191616766468,NA,NA
04210,Androscoggin County,ME,NA,11.529680365296803,NA
04276,Oxford County,ME,NA,96.80365296803653,71.67630057803468
04401,Penobscot County,ME,NA,2.968036529680365,NA
04457,Penobscot County,ME,66.01796407185628,NA,NA
04473,Penobscot County,ME,NA,91.32420091324201,NA
04578,Lincoln County,ME,NA,90.8675799086758,NA
04742,Aroostook County,ME,NA,86.41552511415526,NA
04841,Knox County,ME,NA,49.20091324200913,NA
04901,Kennebec County,ME,5.838323353293413,NA,60.886319845857415
04915,Waldo County,ME,67.51497005988024,NA,NA
04976,Somerset County,ME,17.365269461077844,NA,NA
20637,Charles County,MD,NA,93.72146118721462,NA
20723,Howard County,MD,76.64670658682635,NA,NA
20854,Montgomery County,MD,NA,NA,35.067437379576106
21061,Anne Arundel County,MD,NA,NA,25.43352601156069
21087,Baltimore County,MD,98.65269461077844,NA,NA
21122,Anne Arundel County,MD,NA,14.840182648401825,NA
21157,Carroll County,MD,NA,NA,24.277456647398843
21201,Baltimore city,MD,NA,77.96803652968036,NA
21202,Baltimore city,MD,NA,56.7351598173516,NA
21204,Baltimore County,MD,NA,75.34246575342466,NA
21215,Baltimore city,MD,81.88622754491018,NA,NA
21222,Baltimore County,MD,5.538922155688622,NA,NA
21236,Baltimore County,MD,37.87425149700599,NA,NA
21239,Baltimore city,MD,NA,NA,30.2504816955684
21286,Baltimore County,MD,NA,68.60730593607306,NA
21403,Anne Arundel County,MD,NA,75.79908675799086,NA
21601,Talbot County,MD,NA,44.52054794520548,NA
21620,Kent County,MD,NA,60.61643835616438,45.664739884393065
21842,Worcester County,MD,NA,NA,76.6859344894027
01028,Hampden County,MA,NA,26.82648401826484,NA
01069,Hampden County,MA,NA,NA,63.19845857418112
01089,Hampden County,MA,NA,30.47945205479452,NA
01109,Hampden County,MA,NA,10.616438356164384,NA
01118,Hampden County,MA,NA,96.11872146118722,NA
01201,Berkshire County,MA,NA,NA,29.865125240847785
01225,Berkshire County,MA,NA,99.54337899543378,NA
01520,Worcester County,MA,NA,NA,58.95953757225434
01524,Worcester County,MA,NA,62.55707762557078,NA
01532,Worcester County,MA,46.706586826347305,NA,NA
01550,Worcester County,MA,1.9461077844311379,NA,4.238921001926782
01590,Worcester County,MA,NA,91.89497716894978,NA
01602,Worcester County,MA,NA,NA,25.240847784200387
01603,Worcester County,MA,NA,NA,19.653179190751445
01605,Worcester County,MA,11.077844311377245,1.4840182648401825,NA
01609,Worcester County,MA,NA,8.333333333333332,NA
01610,Worcester County,MA,0.8982035928143712,5.707762557077626,NA
01730,Middlesex County,MA,31.58682634730539,NA,NA
01749,Middlesex County,MA,NA,69.97716894977168,NA
01773,Middlesex County,MA,NA,86.0730593607306,NA
01776,Middlesex County,MA,69.16167664670658,NA,NA
01801,Middlesex County,MA,NA,2.054794520547945,NA
01803,Middlesex County,MA,NA,7.191780821917808,NA
01810,Essex County,MA,NA,51.141552511415526,NA
01821,Middlesex County,MA,NA,3.1963470319634704,NA
01826,Middlesex County,MA,4.940119760479042,NA,NA
01832,Essex County,MA,4.191616766467066,NA,NA
01833,Essex County,MA,NA,NA,96.72447013487476
01841,Essex County,MA,1.7964071856287425,NA,NA
01843,Essex County,MA,NA,19.17808219178082,NA
01887,Middlesex County,MA,NA,4.337899543378995,NA
01902,Essex County,MA,NA,NA,3.275529865125241
01907,Essex County,MA,NA,NA,81.11753371868978
01915,Essex County,MA,NA,2.1689497716894977,NA
01923,Essex County,MA,NA,8.67579908675799,NA
01949,Essex County,MA,NA,65.18264840182648,NA
01960,Essex County,MA,NA,0.684931506849315,0
01985,Essex County,MA,NA,85.15981735159818,NA
02030,Norfolk County,MA,89.52095808383234,96.34703196347031,NA
02038,Norfolk County,MA,NA,16.894977168949772,NA
02043,Plymouth County,MA,NA,NA,70.52023121387283
02045,Plymouth County,MA,61.97604790419161,NA,NA
02050,Plymouth County,MA,50.74850299401198,NA,NA
02056,Norfolk County,MA,NA,NA,90.94412331406551
02067,Norfolk County,MA,54.49101796407185,NA,NA
02072,Norfolk County,MA,9.431137724550897,NA,NA
02093,Norfolk County,MA,NA,77.1689497716895,NA
02111,Suffolk County,MA,NA,94.52054794520548,NA
02115,Suffolk County,MA,NA,NA,5.973025048169557
02118,Suffolk County,MA,NA,9.1324200913242,NA
02119,Suffolk County,MA,43.11377245508982,NA,NA
02121,Suffolk County,MA,0.4491017964071856,NA,NA
02122,Suffolk County,MA,NA,30.251141552511417,37.957610789980734
02124,Suffolk County,MA,NA,32.077625570776256,NA
02125,Suffolk County,MA,4.341317365269461,2.28310502283105,NA
02126,Suffolk County,MA,NA,5.821917808219178,NA
02127,Suffolk County,MA,2.245508982035928,NA,NA
02128,Suffolk County,MA,0.29940119760479045,NA,NA
02130,Suffolk County,MA,8.832335329341317,3.3105022831050226,6.551059730250482
02131,Suffolk County,MA,NA,7.648401826484018,NA
02135,Suffolk County,MA,NA,61.18721461187214,NA
02136,Suffolk County,MA,NA,NA,10.404624277456648
02140,Middlesex County,MA,NA,44.40639269406393,27.9383429672447
02148,Middlesex County,MA,9.580838323353294,0.228310502283105,NA
02149,Middlesex County,MA,NA,1.7123287671232876,3.0828516377649327
02150,Suffolk County,MA,NA,13.356164383561644,NA
02151,Suffolk County,MA,NA,3.0821917808219177,0.3853564547206166
02152,Suffolk County,MA,NA,NA,13.48747591522158
02155,Middlesex County,MA,NA,0.91324200913242,NA
02176,Middlesex County,MA,8.383233532934131,NA,NA
02184,Norfolk County,MA,6.287425149700598,NA,NA
02190,Norfolk County,MA,NA,36.87214611872146,NA
02191,Norfolk County,MA,NA,NA,70.13487475915221
02301,Plymouth County,MA,NA,0.1141552511415525,NA
02302,Plymouth County,MA,NA,NA,7.89980732177264
02333,Plymouth County,MA,30.988023952095805,98.51598173515981,NA
02351,Plymouth County,MA,NA,NA,79.96146435452793
02359,Plymouth County,MA,73.35329341317365,NA,NA
02360,Plymouth County,MA,1.4970059880239521,0.45662100456621,NA
02364,Plymouth County,MA,88.32335329341318,NA,NA
02368,Norfolk County,MA,NA,8.105022831050228,NA
02421,Middlesex County,MA,NA,39.61187214611872,NA
02445,Norfolk County,MA,NA,NA,32.177263969171484
02446,Norfolk County,MA,20.808383233532936,9.018264840182647,NA
02458,Middlesex County,MA,45.65868263473054,NA,NA
02459,Middlesex County,MA,NA,24.315068493150687,NA
02467,Norfolk County,MA,94.01197604790418,NA,NA
02472,Middlesex County,MA,NA,68.0365296803653,NA
02492,Norfolk County,MA,27.994011976047904,29.10958904109589,NA
02493,Middlesex County,MA,NA,NA,51.83044315992292
02635,Barnstable County,MA,NA,NA,57.03275529865125
02638,Barnstable County,MA,NA,86.7579908675799,NA
02649,Barnstable County,MA,NA,NA,21.965317919075144
02673,Barnstable County,MA,NA,58.10502283105022,NA
02723,Bristol County,MA,NA,6.278538812785388,NA
02777,Bristol County,MA,NA,15.41095890410959,NA
02780,Bristol County,MA,0.14970059880239522,NA,NA
48003,Lapeer County,MI,92.81437125748504,NA,NA
48034,Oakland County,MI,NA,52.62557077625571,NA
48035,Macomb County,MI,64.82035928143712,NA,NA
48044,Macomb County,MI,68.7125748502994,85.04566210045662,NA
48047,Macomb County,MI,14.67065868263473,NA,NA
48074,St. Clair County,MI,83.98203592814372,NA,NA
48082,Macomb County,MI,45.808383233532936,NA,NA
48083,Oakland County,MI,NA,NA,66.85934489402698
48088,Macomb County,MI,42.81437125748503,NA,NA
48092,Macomb County,MI,NA,57.76255707762557,NA
48094,Macomb County,MI,49.25149700598803,NA,NA
48095,Macomb County,MI,NA,NA,90.5587668593449
48101,Wayne County,MI,NA,31.05022831050228,NA
48105,Washtenaw County,MI,NA,NA,4.431599229287091
48108,Washtenaw County,MI,NA,NA,26.97495183044316
48116,Livingston County,MI,NA,17.35159817351598,NA
48118,Washtenaw County,MI,73.50299401197606,NA,61.27167630057804
48124,Wayne County,MI,21.55688622754491,59.93150684931506,NA
48134,Wayne County,MI,NA,45.89041095890411,NA
48135,Wayne County,MI,23.802395209580837,NA,NA
48152,Wayne County,MI,NA,NA,13.294797687861271
48161,Monroe County,MI,NA,21.34703196347032,NA
48162,Monroe County,MI,NA,4.908675799086757,16.955684007707127
48169,Livingston County,MI,45.958083832335326,NA,NA
48170,Wayne County,MI,59.281437125748504,NA,NA
48174,Wayne County,MI,NA,NA,37.1868978805395
48178,Oakland County,MI,75,14.726027397260275,NA
48180,Wayne County,MI,3.293413173652695,NA,NA
48182,Monroe County,MI,NA,43.49315068493151,NA
48184,Wayne County,MI,17.21556886227545,NA,NA
48187,Wayne County,MI,35.778443113772454,NA,12.524084778420038
48189,Washtenaw County,MI,96.10778443113772,NA,68.20809248554913
48195,Wayne County,MI,NA,NA,21.57996146435453
48209,Wayne County,MI,NA,49.20091324200913,NA
48219,Wayne County,MI,NA,NA,45.472061657032754
48224,Wayne County,MI,NA,NA,51.05973025048169
48228,Wayne County,MI,48.35329341317365,9.931506849315069,NA
48235,Wayne County,MI,NA,24.08675799086758,NA
48239,Wayne County,MI,NA,11.986301369863012,NA
48314,Macomb County,MI,39.67065868263473,NA,NA
48326,Oakland County,MI,NA,54.45205479452054,NA
48331,Oakland County,MI,NA,73.51598173515981,NA
48348,Oakland County,MI,83.68263473053892,46.00456621004566,NA
48350,Oakland County,MI,NA,81.84931506849315,NA
48380,Oakland County,MI,NA,76.02739726027397,NA
48382,Oakland County,MI,NA,82.53424657534246,NA
48390,Oakland County,MI,NA,37.67123287671233,NA
48415,Saginaw County,MI,47.604790419161674,NA,NA
48429,Shiawassee County,MI,NA,NA,71.48362235067437
48430,Genesee County,MI,26.19760479041916,NA,NA
48433,Genesee County,MI,NA,23.401826484018265,NA
48441,Huron County,MI,NA,81.05022831050228,NA
48506,Genesee County,MI,NA,NA,80.15414258188824
48601,Saginaw County,MI,2.5449101796407185,5.0228310502283104,NA
48604,Saginaw County,MI,NA,52.28310502283106,NA
48622,Clare County,MI,68.562874251497007,NA,NA
48706,Bay County,MI,7.784431137724551,2.853881278538813,NA
48708,Bay County,MI,NA,10.159817351598173,NA
48732,Bay County,MI,NA,48.858447488584474,NA
48827,Eaton County,MI,NA,34.70319634703196,NA
48840,Ingham County,MI,93.562874251497007,NA,NA
48883,Isabella County,MI,NA,64.61187214611871,NA
48911,Ingham County,MI,7.335329341317365,NA,NA
49010,Allegan County,MI,41.31736526946108,74.54337899543378,NA
49036,Branch County,MI,NA,25.91324200913242,NA
49046,Barry County,MI,NA,57.99086757990868,NA
49055,Van Buren County,MI,NA,72.26027397260275,97.88053949903662
49065,Van Buren County,MI,NA,NA,95.76107899807322
49078,Allegan County,MI,73.20359281437125,NA,NA
49085,Berrien County,MI,NA,73.97260273972603,NA
49090,Van Buren County,MI,NA,42.465753424657535,NA
49099,St. Joseph County,MI,NA,NA,77.45664739884393
49106,Berrien County,MI,89.37125748502994,NA,NA
49201,Jackson County,MI,NA,7.534246575342466,NA
49221,Lenawee County,MI,NA,NA,11.368015414258188
49240,Jackson County,MI,80.23952095808383,57.42009132420092,NA
49286,Lenawee County,MI,NA,47.8310502283105,NA
49331,Kent County,MI,48.80239520958084,NA,NA
49333,Barry County,MI,NA,88.12785388127854,NA
49418,Kent County,MI,NA,77.05479452054794,NA
49424,Ottawa County,MI,NA,14.49771689497717,NA
49426,Ottawa County,MI,NA,39.726027397260275,NA
49441,Muskegon County,MI,NA,NA,3.8535645472061653
49503,Kent County,MI,55.83832335329342,NA,NA
49504,Kent County,MI,60.17964071856288,NA,NA
49507,Kent County,MI,NA,24.885844748858446,NA
49509,Kent County,MI,NA,18.72146118721461,NA
49519,Kent County,MI,87.57485029940119,NA,NA
49548,Kent County,MI,7.634730538922156,NA,NA
49684,Grand Traverse County,MI,NA,28.65296803652968,NA
49720,Charlevoix County,MI,90.86826347305389,NA,NA
49735,Otsego County,MI,NA,NA,27.74566473988439
49738,Crawford County,MI,NA,68.15068493150685,NA
49749,Cheboygan County,MI,NA,NA,79.1907514450867
49837,Delta County,MI,NA,NA,99.8073217726397
55009,Goodhue County,MN,NA,58.333333333333336,NA
55063,Pine County,MN,71.55688622754491,NA,NA
55068,Dakota County,MN,NA,78.19634703196347,NA
55071,Washington County,MN,96.25748502994011,NA,NA
55076,Dakota County,MN,79.64071856287424,NA,NA
55110,Ramsey County,MN,NA,39.84018264840183,NA
55112,Ramsey County,MN,NA,NA,50.67437379576107
55113,Ramsey County,MN,45.359281437125745,NA,56.45472061657033
55118,Dakota County,MN,NA,44.178082191780824,NA
55119,Ramsey County,MN,NA,33.21917808219178,38.53564547206166
55125,Washington County,MN,38.622754491017965,NA,NA
55128,Washington County,MN,47.30538922155689,54.90867579908676,NA
55307,Sibley County,MN,97.45508982035929,NA,NA
55316,Hennepin County,MN,NA,82.30593607305936,NA
55318,Carver County,MN,78.44311377245509,NA,NA
55320,Wright County,MN,99.7005988023952,NA,NA
55330,Sherburne County,MN,NA,42.23744292237443,NA
55336,McLeod County,MN,NA,89.15525114155251,NA
55343,Hennepin County,MN,NA,NA,40.46242774566474
55350,McLeod County,MN,NA,32.30593607305936,NA
55364,Hennepin County,MN,NA,NA,75.72254335260115
55372,Scott County,MN,91.46706586826348,NA,NA
55374,Hennepin County,MN,84.4311377245509,NA,NA
55391,Hennepin County,MN,95.95808383233533,NA,NA
55403,Hennepin County,MN,23.952095808383234,NA,NA
55404,Hennepin County,MN,2.095808383233533,NA,NA
55407,Hennepin County,MN,NA,53.31050228310502,NA
55411,Hennepin County,MN,3.8922155688622757,NA,NA
55420,Hennepin County,MN,NA,56.5068493150685,NA
55421,Anoka County,MN,NA,47.48858447488584,NA
55427,Hennepin County,MN,NA,62.10045662100456,NA
55432,Anoka County,MN,24.10179640718563,NA,NA
55435,Hennepin County,MN,NA,85.84474885844749,56.06936416184971
55442,Hennepin County,MN,NA,82.42009132420091,NA
55744,Itasca County,MN,60.928143712574844,NA,NA
55792,St. Louis County,MN,83.53293413173652,NA,NA
55806,St. Louis County,MN,57.18562874251497,NA,NA
55811,St. Louis County,MN,NA,65.06849315068493,20.809248554913296
55902,Olmsted County,MN,NA,91.55251141552512,NA
55912,Mower County,MN,NA,26.36986301369863,0.7707129094412332
55976,Olmsted County,MN,NA,88.6986301369863,NA
56001,Blue Earth County,MN,NA,36.757990867579906,NA
56013,Faribault County,MN,NA,97.71689497716895,NA
56031,Martin County,MN,NA,21.00456621004566,NA
56073,Brown County,MN,NA,NA,4.046242774566474
56156,Rock County,MN,NA,NA,89.21001926782274
56201,Kandiyohi County,MN,42.66467065868264,NA,NA
56267,Stevens County,MN,NA,NA,40.847784200385355
56273,Kandiyohi County,MN,NA,NA,84.20038535645472
56308,Douglas County,MN,NA,14.15525114155251,NA
56364,Morrison County,MN,NA,NA,72.25433526011561
56379,Benton County,MN,NA,78.42465753424658,NA
56401,Crow Wing County,MN,33.38323353293413,NA,6.358381502890173
56438,Todd County,MN,94.91017964071857,NA,NA
56464,Wadena County,MN,NA,89.38356164383562,NA
56537,Otter Tail County,MN,NA,11.643835616438356,NA
56547,Clay County,MN,99.40119760479041,NA,NA
56560,Clay County,MN,50.898203592814376,NA,1.348747591522158
56572,Otter Tail County,MN,90.26946107784431,65.98173515981736,NA
56601,Beltrami County,MN,6.88622754491018,NA,15.606936416184972
56623,Lake of the Woods County,MN,99.10179640718563,NA,NA
56701,Pennington County,MN,NA,NA,33.911368015414254
56750,Red Lake County,MN,92.21556886227546,NA,NA
38632,DeSoto County,MS,NA,NA,57.03275529865125
38671,DeSoto County,MS,NA,53.19634703196348,NA
38773,Bolivar County,MS,NA,99.20091324200914,NA
38922,Yalobusha County,MS,NA,92.69406392694064,NA
39110,Madison County,MS,NA,60.50228310502283,32.75529865125241
39209,Hinds County,MS,24.10179640718563,NA,NA
39212,Hinds County,MS,NA,NA,74.18111753371869
39305,Lauderdale County,MS,52.09580838323353,53.88127853881278,NA
39325,Lauderdale County,MS,94.46107784431138,NA,NA
39339,Winston County,MS,NA,63.12785388127854,NA
39365,Neshoba County,MS,NA,NA,84.39306358381504
39402,Lamar County,MS,NA,81.62100456621005,NA
39525,Hancock County,MS,NA,52.51141552511416,NA
39666,Pike County,MS,70.20958083832335,NA,NA
39759,Oktibbeha County,MS,NA,55.25114155251142,NA
63026,St. Louis County,MO,NA,14.269406392694064,NA
63028,Jefferson County,MO,NA,NA,42.77456647398844
63034,St. Louis County,MO,58.83233532934131,NA,NA
63044,St. Louis County,MO,NA,NA,49.13294797687861
63049,Jefferson County,MO,72.30538922155688,NA,NA
63119,St. Louis County,MO,NA,45.09132420091324,55.68400770712909
63122,St. Louis County,MO,NA,NA,14.065510597302506
63123,St. Louis County,MO,NA,15.753424657534246,NA
63128,St. Louis County,MO,NA,23.63013698630137,NA
63303,St. Charles County,MO,NA,NA,11.946050096339114
63304,St. Charles County,MO,NA,NA,81.69556840077071
63366,St. Charles County,MO,NA,29.45205479452055,NA
63385,St. Charles County,MO,17.964071856287426,NA,NA
63703,Cape Girardeau County,MO,NA,71.80365296803653,NA
63755,Cape Girardeau County,MO,60.02994011976048,88.2420091324201,NA
63801,Scott County,MO,23.353293413173652,NA,NA
64058,Jackson County,MO,69.76047904191617,NA,NA
64075,Jackson County,MO,NA,65.6392694063927,NA
64082,Jackson County,MO,NA,NA,78.9980732177264
64093,Johnson County,MO,NA,37.55707762557078,NA
64114,Jackson County,MO,33.68263473053892,NA,NA
64138,Jackson County,MO,12.275449101796406,17.80821917808219,82.46628131021194
64505,Buchanan County,MO,60.32934131736527,NA,NA
64506,Buchanan County,MO,20.65868263473054,NA,NA
64804,Jasper County,MO,NA,41.0958904109589,NA
64850,Newton County,MO,17.514970059880238,NA,NA
64854,McDonald County,MO,85.92814371257485,NA,NA
65202,Boone County,MO,11.826347305389222,NA,NA
65251,Callaway County,MO,NA,NA,47.20616570327553
65270,Randolph County,MO,97.60479041916167,NA,NA
65340,Saline County,MO,33.08383233532935,NA,NA
65606,Oregon County,MO,NA,93.0365296803653,NA
65613,Polk County,MO,NA,69.17808219178082,18.11175337186898
65622,Dallas County,MO,NA,NA,84.00770712909441
65721,Christian County,MO,NA,NA,77.07129094412332
65803,Greene County,MO,11.22754491017964,13.812785388127855,NA
59101,Yellowstone County,MT,NA,25.799086757990867,NA
59102,Yellowstone County,MT,NA,7.077625570776255,1.7341040462427744
59714,Gallatin County,MT,88.77245508982035,NA,NA
59801,Missoula County,MT,NA,NA,54.33526011560693
59802,Missoula County,MT,80.08982035928143,NA,NA
59808,Missoula County,MT,81.1377245508982,NA,NA
59901,Flathead County,MT,NA,4.5662100456621,41.040462427745666
68137,Douglas County,NE,NA,48.51598173515982,NA
68157,Sarpy County,NE,99.55089820359282,NA,NA
68503,Lancaster County,NE,68.8622754491018,NA,NA
68507,Lancaster County,NE,NA,92.46575342465754,NA
68803,Hall County,NE,NA,52.054794520547944,NA
68847,Buffalo County,NE,NA,NA,51.637764932562625
68850,Dawson County,NE,89.82035928143712,NA,NA
68901,Adams County,NE,NA,74.20091324200914,NA
69153,Keith County,NE,NA,NA,73.41040462427746
89165,Clark County,NV,NA,97.48858447488584,NA
89183,Clark County,NV,59.88023952095808,NA,NA
89403,Lyon County,NV,36.52694610778443,NA,NA
89501,Washoe County,NV,95.05988023952095,NA,NA
89502,Washoe County,NV,21.107784431137723,NA,NA
89512,Washoe County,NV,NA,47.94520547945205,NA
89521,Washoe County,NV,NA,33.9041095890411,NA
03049,Hillsborough County,NH,NA,69.97716894977168,NA
03051,Hillsborough County,NH,NA,NA,59.73025048169557
03052,Hillsborough County,NH,NA,74.77168949771689,NA
03054,Hillsborough County,NH,NA,19.748858447488583,NA
03102,Hillsborough County,NH,NA,16.666666666666664,NA
03103,Hillsborough County,NH,43.41317365269461,NA,NA
03104,Hillsborough County,NH,NA,NA,30.443159922928707
03106,Merrimack County,NH,NA,NA,45.27938342967245
03235,Merrimack County,NH,64.37125748502994,NA,NA
03246,Belknap County,NH,NA,NA,52.408477842003855
03257,Merrimack County,NH,NA,NA,61.849710982658955
03303,Merrimack County,NH,NA,57.077625570776256,NA
03431,Cheshire County,NH,NA,NA,10.789980732177264
03458,Hillsborough County,NH,NA,NA,39.113680154142585
03833,Rockingham County,NH,NA,37.32876712328767,NA
03842,Rockingham County,NH,NA,30.59360730593607,NA
03870,Rockingham County,NH,97.90419161676647,NA,NA
07029,Hudson County,NJ,NA,83.9041095890411,NA
07044,Essex County,NJ,NA,NA,77.64932562620423
07054,Morris County,NJ,NA,35.38812785388128,35.64547206165704
07055,Passaic County,NJ,NA,NA,31.406551059730248
07081,Union County,NJ,82.33532934131736,NA,NA
07087,Hudson County,NJ,NA,30.93607305936073,NA
07208,Union County,NJ,NA,NA,41.811175337186896
07305,Hudson County,NJ,NA,3.9954337899543377,NA
07444,Morris County,NJ,NA,86.5296803652968,NA
07470,Passaic County,NJ,18.113772455089823,75.57077625570776,NA
07480,Passaic County,NJ,78.1437125748503,NA,NA
07503,Passaic County,NJ,22.005988023952096,NA,NA
07734,Monmouth County,NJ,22.604790419161677,NA,NA
07753,Monmouth County,NJ,63.772455089820355,NA,NA
07827,Sussex County,NJ,97.0059880239521,NA,NA
07945,Morris County,NJ,87.72455089820359,NA,NA
08016,Burlington County,NJ,20.059880239520957,26.48401826484018,NA
08050,Ocean County,NJ,NA,NA,27.360308285163775
08094,Gloucester County,NJ,NA,12.899543378995434,NA
08105,Camden County,NJ,NA,NA,76.10789980732177
08106,Camden County,NJ,84.13173652694611,NA,NA
08203,Atlantic County,NJ,NA,65.41095890410958,NA
08205,Atlantic County,NJ,18.263473053892216,NA,NA
08251,Cape May County,NJ,NA,94.97716894977168,NA
08512,Mercer County,NJ,NA,93.2648401826484,NA
08610,Mercer County,NJ,8.233532934131736,NA,NA
08619,Mercer County,NJ,46.706586826347305,NA,NA
08753,Ocean County,NJ,NA,6.8493150684931505,NA
08759,Ocean County,NJ,NA,33.44748858447489,2.312138728323699
87002,Valencia County,NM,48.65269461077844,NA,NA
87104,Bernalillo County,NM,NA,72.8310502283105,NA
87108,Bernalillo County,NM,NA,7.876712328767123,NA
87109,Bernalillo County,NM,NA,16.43835616438356,NA
87110,Bernalillo County,NM,NA,11.757990867579908,NA
87111,Bernalillo County,NM,NA,NA,8.092485549132949
87327,Cibola County,NM,NA,77.6255707762557,NA
88001,Doa Ana County,NM,NA,29.5662100456621,NA
88007,Doa Ana County,NM,54.041916167664674,NA,NA
88012,Doa Ana County,NM,32.634730538922156,77.73972602739725,NA
88021,Doa Ana County,NM,NA,79.1095890410959,NA
88061,Grant County,NM,NA,NA,78.42003853564547
88101,Curry County,NM,NA,8.904109589041095,NA
88201,Chaves County,NM,NA,39.26940639269406,NA
88242,Lea County,NM,72.75449101796407,NA,NA
88310,Otero County,NM,NA,6.392694063926941,NA
10002,New York County,NY,36.97604790419162,NA,34.104046242774565
10003,New York County,NY,NA,NA,23.121387283236995
10011,New York County,NY,37.12574850299401,NA,NA
10013,New York County,NY,79.04191616766467,NA,NA
10018,New York County,NY,84.28143712574851,NA,NA
10023,New York County,NY,NA,15.296803652968036,NA
10025,New York County,NY,NA,2.3972602739726026,3.4682080924855487
10029,New York County,NY,NA,0.3424657534246575,NA
10031,New York County,NY,50.29940119760479,NA,NA
10032,New York County,NY,55.08982035928144,9.246575342465754,NA
10033,New York County,NY,NA,20.89041095890411,NA
10035,New York County,NY,NA,39.04109589041096,NA
10036,New York County,NY,NA,NA,83.23699421965318
10037,New York County,NY,NA,55.36529680365297,NA
10039,New York County,NY,NA,NA,39.4990366088632
10040,New York County,NY,NA,53.76712328767124,33.71868978805395
10304,Richmond County,NY,NA,22.831050228310502,NA
10310,Richmond County,NY,NA,43.0365296803653,NA
10314,Richmond County,NY,NA,5.365296803652968,NA
10451,Bronx County,NY,18.41317365269461,NA,64.16184971098265
10452,Bronx County,NY,NA,1.5981735159817352,NA
10453,Bronx County,NY,NA,10.388127853881278,17.533718689788053
10454,Bronx County,NY,7.0359281437125745,52.96803652968036,NA
10455,Bronx County,NY,4.640718562874251,NA,NA
10456,Bronx County,NY,NA,4.4520547945205475,23.50674373795761
10457,Bronx County,NY,1.0479041916167664,1.2557077625570776,NA
10458,Bronx County,NY,0.5988023952095809,0.5707762557077625,10.404624277456648
10459,Bronx County,NY,25.149700598802394,71.11872146118722,NA
10462,Bronx County,NY,NA,6.621004566210045,NA
10463,Bronx County,NY,NA,5.93607305936073,NA
10466,Bronx County,NY,NA,3.767123287671233,NA
10467,Bronx County,NY,13.922155688622754,NA,2.119460500963391
10468,Bronx County,NY,NA,NA,54.14258188824663
10469,Bronx County,NY,76.49700598802394,9.474885844748858,NA
10472,Bronx County,NY,NA,3.5388127853881275,NA
10473,Bronx County,NY,38.32335329341318,NA,NA
10475,Bronx County,NY,NA,97.14611872146118,75.33718689788054
10605,Westchester County,NY,NA,NA,66.47398843930635
10701,Westchester County,NY,NA,5.5936073059360725,NA
10703,Westchester County,NY,36.07784431137724,NA,NA
10954,Rockland County,NY,NA,NA,46.05009633911368
10960,Rockland County,NY,NA,94.74885844748859,NA
10965,Rockland County,NY,93.11377245508982,NA,NA
11003,Nassau County,NY,55.23952095808383,NA,NA
11101,Queens County,NY,53.59281437125748,NA,NA
11106,Queens County,NY,NA,NA,84.97109826589595
11204,Kings County,NY,NA,NA,11.560693641618498
11206,Kings County,NY,NA,NA,8.863198458574182
11207,Kings County,NY,0.7485029940119761,1.9406392694063925,13.872832369942195
11208,Kings County,NY,NA,2.73972602739726,NA
11209,Kings County,NY,NA,54.794520547945204,15.992292870905588
11210,Kings County,NY,NA,NA,33.52601156069364
11212,Kings County,NY,1.6467065868263475,NA,NA
11213,Kings County,NY,NA,31.963470319634702,NA
11214,Kings County,NY,NA,12.785388127853881,NA
11215,Kings County,NY,32.18562874251497,NA,NA
11221,Kings County,NY,NA,45.4337899543379,NA
11224,Kings County,NY,NA,NA,2.697495183044316
11225,Kings County,NY,NA,17.009132420091326,NA
11226,Kings County,NY,NA,NA,82.65895953757226
11229,Kings County,NY,72.15568862275448,NA,NA
11231,Kings County,NY,NA,45.20547945205479,NA
11234,Kings County,NY,NA,13.12785388127854,NA
11237,Kings County,NY,25.299401197604794,NA,NA
11249,Kings County,NY,NA,NA,65.70327552986512
11355,Queens County,NY,28.143712574850298,NA,NA
11356,Queens County,NY,NA,NA,67.63005780346822
11358,Queens County,NY,NA,57.1917808219178,NA
11370,Queens County,NY,NA,85.73059360730593,NA
11373,Queens County,NY,14.520958083832337,17.69406392694064,NA
11374,Queens County,NY,64.97005988023952,NA,NA
11377,Queens County,NY,47.00598802395209,NA,NA
11418,Queens County,NY,NA,48.97260273972603,NA
11422,Queens County,NY,NA,59.3607305936073,NA
11433,Queens County,NY,NA,78.88127853881278,NA
11553,Nassau County,NY,52.39520958083832,NA,NA
11691,Queens County,NY,NA,55.93607305936074,NA
11706,Suffolk County,NY,NA,35.273972602739725,NA
11735,Nassau County,NY,NA,NA,98.84393063583815
11741,Suffolk County,NY,NA,NA,77.84200385356455
11747,Suffolk County,NY,NA,96.23287671232876,NA
11751,Suffolk County,NY,NA,NA,79.76878612716763
11766,Suffolk County,NY,NA,72.3744292237443,NA
11768,Suffolk County,NY,NA,NA,48.554913294797686
11780,Suffolk County,NY,NA,NA,92.48554913294798
11801,Nassau County,NY,55.98802395209581,NA,NA
12167,Delaware County,NY,96.7065868263473,NA,NA
12182,Rensselaer County,NY,NA,NA,66.47398843930635
12203,Albany County,NY,36.67664670658682,NA,NA
12204,Albany County,NY,NA,NA,100
12306,Schenectady County,NY,74.7005988023952,NA,NA
12413,Greene County,NY,NA,91.21004566210046,NA
12524,Dutchess County,NY,NA,89.84018264840182,NA
12528,Ulster County,NY,NA,99.65753424657534,NA
12563,Putnam County,NY,NA,NA,92.10019267822736
12754,Sullivan County,NY,NA,97.94520547945206,NA
12870,Essex County,NY,98.20359281437125,NA,NA
12946,Essex County,NY,64.22155688622755,NA,NA
12992,Clinton County,NY,54.191616766467064,NA,NA
13035,Madison County,NY,91.01796407185628,NA,NA
13041,Onondaga County,NY,65.26946107784431,NA,NA
13057,Onondaga County,NY,NA,57.534246575342465,NA
13066,Onondaga County,NY,63.92215568862275,NA,NA
13077,Cortland County,NY,NA,66.78082191780823,NA
13078,Onondaga County,NY,77.24550898203593,NA,NA
13090,Onondaga County,NY,17.664670658682635,NA,NA
13205,Onondaga County,NY,NA,90.98173515981736,NA
13206,Onondaga County,NY,25.59880239520958,NA,NA
13219,Onondaga County,NY,NA,NA,65.1252408477842
13320,Otsego County,NY,99.25149700598801,NA,NA
13323,Oneida County,NY,NA,50,NA
13354,Oneida County,NY,NA,97.26027397260275,NA
13365,Herkimer County,NY,NA,80.82191780821918,NA
13407,Herkimer County,NY,57.93413173652695,NA,NA
13421,Madison County,NY,NA,52.1689497716895,NA
13440,Oneida County,NY,2.844311377245509,NA,NA
13460,Chenango County,NY,47.90419161676647,NA,NA
13464,Chenango County,NY,95.50898203592814,NA,NA
13601,Jefferson County,NY,NA,NA,18.689788053949904
13617,St. Lawrence County,NY,NA,36.07305936073059,NA
13662,St. Lawrence County,NY,8.682634730538922,17.35159817351598,NA
13748,Broome County,NY,66.76646706586826,NA,NA
13754,Broome County,NY,NA,98.63013698630137,NA
13760,Broome County,NY,NA,8.561643835616438,NA
13778,Chenango County,NY,59.73053892215569,NA,NA
13815,Chenango County,NY,59.4311377245509,NA,NA
13820,Otsego County,NY,10.479041916167663,9.360730593607306,NA
13827,Tioga County,NY,NA,91.0958904109589,NA
13850,Broome County,NY,16.766467065868262,26.71232876712329,NA
13862,Broome County,NY,65.86826347305389,NA,NA
13901,Broome County,NY,4.491017964071856,NA,NA
14020,Genesee County,NY,12.874251497005988,NA,NA
14043,Erie County,NY,NA,NA,49.90366088631985
14048,Chautauqua County,NY,NA,NA,76.30057803468208
14052,Erie County,NY,NA,NA,59.15221579961464
14054,Genesee County,NY,96.55688622754491,NA,NA
14063,Chautauqua County,NY,NA,NA,59.92292870905588
14086,Erie County,NY,21.25748502994012,NA,NA
14094,Niagara County,NY,2.9940119760479043,NA,NA
14127,Erie County,NY,NA,NA,22.350674373795762
14131,Niagara County,NY,NA,NA,93.64161849710982
14150,Erie County,NY,NA,8.21917808219178,NA
14201,Erie County,NY,NA,69.29223744292237,88.82466281310212
14209,Erie County,NY,NA,70.8904109589041,NA
14221,Erie County,NY,NA,NA,16.377649325626205
14224,Erie County,NY,NA,10.95890410958904,NA
14424,Ontario County,NY,3.74251497005988,27.168949771689498,NA
14445,Monroe County,NY,NA,63.242009132420094,NA
14470,Orleans County,NY,NA,55.47945205479452,NA
14512,Ontario County,NY,92.06586826347305,NA,NA
14527,Yates County,NY,NA,28.08219178082192,NA
14548,Ontario County,NY,NA,73.28767123287672,NA
14550,Wyoming County,NY,88.62275449101796,NA,NA
14605,Monroe County,NY,NA,NA,65.3179190751445
14610,Monroe County,NY,NA,26.59817351598174,NA
14612,Monroe County,NY,NA,16.095890410958905,33.33333333333333
14613,Monroe County,NY,12.425149700598801,NA,NA
14620,Monroe County,NY,NA,NA,68.97880539499036
14621,Monroe County,NY,1.1976047904191618,NA,NA
14624,Monroe County,NY,NA,3.881278538812785,NA
14727,Allegany County,NY,NA,76.36986301369863,NA
14760,Cattaraugus County,NY,NA,14.61187214611872,NA
14821,Steuben County,NY,86.22754491017965,NA,NA
14870,Steuben County,NY,57.035928143712574,NA,NA
14886,Tompkins County,NY,59.58083832335329,NA,NA
27006,Davie County,NC,NA,NA,50.28901734104046
27012,Forsyth County,NC,NA,5.47945205479452,NA
27040,Forsyth County,NC,NA,63.58447488584474,NA
27052,Stokes County,NC,NA,84.01826484018264,NA
27101,Forsyth County,NC,77.54491017964071,NA,96.33911368015414
27127,Forsyth County,NC,15.269461077844312,NA,NA
27217,Alamance County,NC,NA,12.32876712328767,NA
27295,Davidson County,NC,NA,74.42922374429224,NA
27312,Chatham County,NC,58.982035928143716,NA,NA
27406,Guilford County,NC,NA,2.5114155251141552,NA
27407,Guilford County,NC,NA,NA,67.82273603082851
27410,Guilford County,NC,NA,NA,35.45279383429673
27501,Harnett County,NC,NA,46.57534246575342,NA
27502,Wake County,NC,NA,41.66666666666667,NA
27505,Harnett County,NC,92.66467065868264,NA,NA
27526,Wake County,NC,27.694610778443113,NA,22.928709055876688
27536,Vance County,NC,28.74251497005988,NA,NA
27537,Vance County,NC,NA,95.2054794520548,NA
27613,Wake County,NC,NA,NA,52.215799614643544
27616,Wake County,NC,NA,38.013698630136986,NA
27703,Durham County,NC,55.38922155688623,NA,NA
28012,Gaston County,NC,NA,79.5662100456621,NA
28078,Mecklenburg County,NC,30.83832335329341,NA,NA
28083,Cabarrus County,NC,NA,23.17351598173516,NA
28205,Mecklenburg County,NC,NA,27.96803652968037,NA
28212,Mecklenburg County,NC,NA,NA,61.657032755298644
28372,Robeson County,NC,NA,NA,91.90751445086705
28401,New Hanover County,NC,NA,33.56164383561644,NA
28422,Brunswick County,NC,82.48502994011976,NA,NA
28612,Burke County,NC,81.58682634730539,NA,NA
28625,Iredell County,NC,NA,20.54794520547945,NA
28678,Alexander County,NC,NA,88.9269406392694,NA
28694,Ashe County,NC,85.17964071856288,NA,NA
28712,Transylvania County,NC,NA,37.78538812785388,NA
28714,Yancey County,NC,NA,NA,56.84007707129094
28715,Buncombe County,NC,NA,50.114155251141554,NA
28716,Haywood County,NC,NA,NA,73.98843930635837
28721,Haywood County,NC,70.65868263473054,NA,NA
28723,Jackson County,NC,NA,94.63470319634703,NA
28729,Henderson County,NC,NA,88.35616438356165,NA
28752,McDowell County,NC,16.61676646706587,15.182648401826485,NA
28777,Mitchell County,NC,NA,67.92237442922374,NA
28779,Jackson County,NC,77.09580838323353,NA,NA
28785,Haywood County,NC,NA,92.35159817351598,NA
28787,Buncombe County,NC,NA,90.29680365296804,NA
28806,Buncombe County,NC,66.61676646706587,NA,34.8747591522158
58103,Cass County,ND,NA,4.223744292237443,2.5048169556840074
58104,Cass County,ND,30.239520958083833,13.24200913242009,5.394990366088632
58401,Stutsman County,ND,NA,95.4337899543379,NA
58501,Burleigh County,ND,NA,63.58447488584474,NA
58504,Burleigh County,ND,NA,35.50228310502283,21.772639691714836
58701,Ward County,ND,NA,40.8675799086758,NA
58703,Ward County,ND,NA,43.60730593607306,NA
43021,Delaware County,OH,NA,80.70776255707763,NA
43023,Licking County,OH,NA,78.99543378995433,NA
43025,Licking County,OH,NA,83.33333333333334,NA
43055,Licking County,OH,NA,2.6255707762557075,NA
43105,Fairfield County,OH,98.05389221556887,NA,NA
43125,Franklin County,OH,NA,60.73059360730594,NA
43130,Fairfield County,OH,NA,4.10958904109589,55.49132947976878
43138,Hocking County,OH,NA,64.04109589041096,35.26011560693642
43204,Franklin County,OH,6.137724550898203,NA,NA
43205,Franklin County,OH,NA,NA,99.61464354527938
43209,Franklin County,OH,NA,NA,72.63969171483622
43214,Franklin County,OH,NA,NA,44.3159922928709
43219,Franklin County,OH,NA,NA,36.99421965317919
43227,Franklin County,OH,23.502994011976046,NA,NA
43338,Morrow County,OH,NA,84.1324200913242,NA
43410,Sandusky County,OH,47.75449101796407,NA,95.37572254335261
43420,Sandusky County,OH,NA,87.78538812785388,NA
43430,Ottawa County,OH,NA,98.28767123287672,NA
43447,Wood County,OH,NA,96.91780821917808,NA
43449,Ottawa County,OH,NA,NA,90.17341040462428
43526,Defiance County,OH,NA,68.83561643835617,NA
43612,Lucas County,OH,NA,18.949771689497716,NA
43615,Lucas County,OH,NA,6.735159817351597,NA
43701,Muskingum County,OH,1.347305389221557,0.7990867579908676,NA
43812,Coshocton County,OH,42.365269461077844,NA,NA
44001,Lorain County,OH,NA,5.136986301369863,NA
44004,Ashtabula County,OH,3.143712574850299,NA,NA
44012,Lorain County,OH,32.78443113772455,NA,12.138728323699421
44017,Cuyahoga County,OH,76.94610778443113,NA,NA
44035,Lorain County,OH,0,0,NA
44041,Ashtabula County,OH,40.5688622754491,NA,NA
44052,Lorain County,OH,3.44311377245509,NA,NA
44053,Lorain County,OH,NA,NA,9.05587668593449
44056,Summit County,OH,NA,55.593607305936075,NA
44060,Lake County,OH,NA,1.36986301369863,NA
44067,Summit County,OH,NA,NA,15.79961464354528
44074,Lorain County,OH,NA,48.17351598173516,NA
44077,Lake County,OH,NA,21.575342465753426,NA
44087,Summit County,OH,85.47904191616766,78.08219178082192,NA
44094,Lake County,OH,NA,6.050228310502283,NA
44095,Lake County,OH,21.706586826347305,NA,31.59922928709056
44103,Cuyahoga County,OH,NA,NA,34.296724470134876
44105,Cuyahoga County,OH,NA,NA,5.009633911368015
44107,Cuyahoga County,OH,NA,43.83561643835616,NA
44109,Cuyahoga County,OH,5.239520958083832,NA,NA
44110,Cuyahoga County,OH,NA,10.045662100456621,NA
44118,Cuyahoga County,OH,37.72455089820359,NA,30.828516377649322
44121,Cuyahoga County,OH,NA,13.926940639269406,NA
44122,Cuyahoga County,OH,NA,6.963470319634703,NA
44124,Cuyahoga County,OH,25.748502994011975,NA,0.5780346820809248
44125,Cuyahoga County,OH,NA,11.301369863013697,12.716763005780345
44126,Cuyahoga County,OH,NA,NA,36.22350674373796
44128,Cuyahoga County,OH,3.592814371257485,3.4246575342465753,NA
44129,Cuyahoga County,OH,NA,15.639269406392694,NA
44131,Cuyahoga County,OH,NA,19.97716894977169,8.670520231213873
44135,Cuyahoga County,OH,4.04191616766467,NA,NA
44136,Cuyahoga County,OH,NA,10.273972602739725,NA
44137,Cuyahoga County,OH,NA,11.87214611872146,NA
44139,Cuyahoga County,OH,NA,NA,17.148362235067438
44143,Cuyahoga County,OH,NA,14.954337899543379,2.8901734104046244
44145,Cuyahoga County,OH,NA,82.64840182648402,NA
44147,Cuyahoga County,OH,NA,64.26940639269407,NA
44202,Portage County,OH,31.2874251497006,20.776255707762555,NA
44212,Medina County,OH,20.209580838323355,1.82648401826484,4.624277456647398
44231,Portage County,OH,NA,85.50228310502284,NA
44241,Portage County,OH,NA,22.488584474885844,NA
44256,Medina County,OH,NA,0.91324200913242,NA
44280,Medina County,OH,NA,NA,74.56647398843931
44410,Trumbull County,OH,NA,75.91324200913242,NA
44432,Columbiana County,OH,NA,70.77625570776256,NA
44437,Trumbull County,OH,90.71856287425149,NA,NA
44442,Mahoning County,OH,NA,NA,85.9344894026975
44460,Columbiana County,OH,NA,39.04109589041096,NA
44471,Mahoning County,OH,NA,72.71689497716895,NA
44509,Mahoning County,OH,41.16766467065868,NA,NA
44641,Stark County,OH,NA,46.80365296803653,NA
44646,Stark County,OH,9.73053892215569,NA,NA
44663,Tuscarawas County,OH,NA,51.9406392694064,NA
44706,Stark County,OH,NA,44.06392694063927,NA
44805,Ashland County,OH,87.87425149700599,NA,NA
44833,Crawford County,OH,60.62874251497006,NA,NA
44857,Huron County,OH,23.20359281437126,NA,48.94026974951831
44870,Erie County,OH,2.694610778443114,NA,NA
44905,Richland County,OH,NA,NA,99.22928709055877
45011,Butler County,OH,NA,4.794520547945205,NA
45211,Hamilton County,OH,NA,31.621004566210047,NA
45216,Hamilton County,OH,NA,64.38356164383562,NA
45229,Hamilton County,OH,NA,NA,68.40077071290945
45231,Hamilton County,OH,NA,20.319634703196346,NA
45236,Hamilton County,OH,50.44910179640718,NA,NA
45246,Hamilton County,OH,NA,NA,61.078998073217726
45247,Hamilton County,OH,NA,NA,30.057803468208093
45255,Hamilton County,OH,NA,46.34703196347032,NA
45324,Greene County,OH,NA,NA,23.892100192678228
45356,Miami County,OH,NA,NA,28.709055876685934
45424,Montgomery County,OH,11.377245508982035,12.100456621004566,NA
45426,Montgomery County,OH,NA,69.63470319634703,NA
45430,Greene County,OH,NA,93.15068493150685,NA
45432,Greene County,OH,NA,56.7351598173516,NA
45440,Montgomery County,OH,57.33532934131736,NA,NA
45503,Clark County,OH,8.08383233532934,14.04109589041096,NA
45601,Ross County,OH,34.4311377245509,4.680365296803653,NA
45628,Ross County,OH,91.31736526946108,NA,NA
45631,Gallia County,OH,NA,NA,87.861271676300575
45690,Pike County,OH,NA,18.15068493150685,NA
45693,Adams County,OH,NA,44.29223744292237,NA
45694,Scioto County,OH,NA,NA,88.4393063583815
45710,Athens County,OH,NA,78.65296803652969,NA
45714,Washington County,OH,19.311377245508982,69.52054794520548,NA
45750,Washington County,OH,NA,1.141552511415525,NA
45801,Allen County,OH,NA,24.54337899543379,NA
45822,Mercer County,OH,NA,80.47945205479452,NA
73008,Oklahoma County,OK,NA,57.30593607305936,NA
73012,Oklahoma County,OK,NA,49.42922374429224,NA
73013,Oklahoma County,OK,NA,41.43835616438356,15.028901734104046
73025,Oklahoma County,OK,65.41916167664671,58.21917808219178,NA
73069,Cleveland County,OK,NA,NA,42.96724470134875
73075,Garvin County,OK,NA,NA,84.58574181117534
73089,Grady County,OK,NA,85.95890410958904,NA
73099,Canadian County,OK,NA,34.24657534246575,NA
73105,Oklahoma County,OK,88.47305389221557,NA,NA
73111,Oklahoma County,OK,NA,NA,57.61078998073218
73112,Oklahoma County,OK,33.98203592814371,NA,80.92485549132948
73114,Oklahoma County,OK,76.04790419161677,74.08675799086758,NA
73116,Oklahoma County,OK,NA,81.05022831050228,NA
73119,Oklahoma County,OK,NA,NA,64.73988439306359
73120,Oklahoma County,OK,NA,NA,65.70327552986512
73134,Oklahoma County,OK,91.61676646706587,NA,NA
73142,Oklahoma County,OK,NA,76.48401826484019,NA
73160,Cleveland County,OK,NA,7.4200913242009126,NA
73162,Oklahoma County,OK,48.05389221556886,19.63470319634703,NA
73505,Comanche County,OK,52.69461077844312,NA,NA
73701,Garfield County,OK,44.01197604790419,NA,NA
74020,Pawnee County,OK,81.437125748502993,NA,NA
74074,Payne County,OK,96.8562874251497,NA,NA
74108,Tulsa County,OK,NA,95.54794520547945,NA
74135,Tulsa County,OK,73.95209580838323,NA,NA
74604,Kay County,OK,NA,59.589041095890416,NA
74728,McCurtain County,OK,97.30538922155688,NA,NA
97015,Clackamas County,OR,51.34730538922155,NA,NA
97030,Multnomah County,OR,18.862275449101794,NA,NA
97078,Washington County,OR,NA,90.75342465753424,NA
97146,Clatsop County,OR,NA,71.11872146118722,NA
97211,Multnomah County,OR,41.91616766467065,NA,NA
97215,Multnomah County,OR,NA,70.4337899543379,NA
97217,Multnomah County,OR,NA,76.48401826484019,NA
97219,Multnomah County,OR,56.73652694610778,NA,NA
97223,Washington County,OR,58.08383233532935,NA,NA
97236,Multnomah County,OR,NA,28.08219178082192,NA
97301,Marion County,OR,NA,60.15981735159818,NA
97333,Benton County,OR,82.93413173652695,NA,NA
97355,Linn County,OR,NA,79.7945205479452,12.33140655105973
97367,Lincoln County,OR,NA,86.87214611872146,NA
97374,Linn County,OR,NA,82.07762557077626,NA
97402,Lane County,OR,NA,30.70776255707763,NA
97439,Lane County,OR,NA,NA,19.460500963391137
97526,Josephine County,OR,26.047904191616766,NA,NA
97601,Klamath County,OR,NA,NA,38.72832369942196
97818,Morrow County,OR,83.08383233532935,NA,NA
15001,Beaver County,PA,NA,18.60730593607306,NA
15044,Allegheny County,PA,NA,NA,54.72061657032755
15068,Westmoreland County,PA,NA,NA,6.165703275529865
15074,Beaver County,PA,NA,56.050228310502284,NA
15108,Allegheny County,PA,NA,19.06392694063927,NA
15143,Allegheny County,PA,NA,NA,39.30635838150289
15201,Allegheny County,PA,56.137724550898206,NA,NA
15207,Allegheny County,PA,NA,72.94520547945206,NA
15215,Allegheny County,PA,NA,85.38812785388129,NA
15217,Allegheny County,PA,NA,22.71689497716895,NA
15218,Allegheny County,PA,74.10179640718563,NA,NA
15219,Allegheny County,PA,NA,NA,38.72832369942196
15236,Allegheny County,PA,NA,31.39269406392694,NA
15239,Allegheny County,PA,NA,65.75342465753424,NA
15301,Washington County,PA,65.5688622754491,NA,NA
15320,Greene County,PA,NA,84.3607305936073,NA
15367,Washington County,PA,NA,90.41095890410958,NA
15370,Greene County,PA,NA,56.39269406392694,NA
15401,Fayette County,PA,NA,31.27853881278539,NA
15601,Westmoreland County,PA,NA,NA,14.258188824662813
15632,Westmoreland County,PA,NA,NA,56.26204238921002
15644,Westmoreland County,PA,NA,67.57990867579909,NA
15650,Westmoreland County,PA,15.718562874251496,NA,NA
15701,Indiana County,PA,66.46706586826348,NA,NA
15767,Jefferson County,PA,28.443113772455092,NA,NA
15825,Jefferson County,PA,NA,NA,31.021194605009633
15904,Cambria County,PA,NA,37.10045662100457,NA
15906,Cambria County,PA,NA,66.43835616438356,NA
16001,Butler County,PA,NA,39.84018264840183,NA
16025,Butler County,PA,NA,87.21461187214612,NA
16056,Butler County,PA,98.80239520958084,NA,NA
16059,Butler County,PA,NA,88.81278538812786,NA
16105,Lawrence County,PA,78.2934131736527,31.7351598173516,NA
16159,Mercer County,PA,79.94011976047905,NA,NA
16323,Venango County,PA,NA,NA,40.26974951830443
16503,Erie County,PA,NA,73.0593607305936,NA
16508,Erie County,PA,NA,61.64383561643836,NA
16510,Erie County,PA,37.5748502994012,44.63470319634703,NA
17003,Lebanon County,PA,44.91017964071856,NA,83.62235067437379
17011,Cumberland County,PA,NA,72.14611872146118,NA
17013,Cumberland County,PA,75.2994011976048,50.799086757990864,NA
17015,Cumberland County,PA,NA,79.45205479452055,65.51059730250482
17020,Perry County,PA,75.1497005988024,NA,NA
17032,Dauphin County,PA,80.688622754491007,NA,NA
17042,Lebanon County,PA,5.389221556886228,32.534246575342465,NA
17044,Mifflin County,PA,67.81437125748504,NA,NA
17050,Cumberland County,PA,52.84431137724551,NA,NA
17055,Cumberland County,PA,29.041916167664674,NA,NA
17057,Dauphin County,PA,19.610778443113773,18.493150684931507,NA
17078,Lebanon County,PA,18.7125748502994,NA,NA
17109,Dauphin County,PA,NA,79.337899543379,NA
17110,Dauphin County,PA,NA,27.73972602739726,NA
17111,Dauphin County,PA,NA,54.337899543378995,NA
17112,Dauphin County,PA,46.55688622754491,NA,NA
17201,Franklin County,PA,NA,NA,86.70520231213872
17236,Franklin County,PA,82.78443113772454,NA,NA
17257,Cumberland County,PA,24.850299401197603,NA,NA
17319,York County,PA,62.72455089820359,NA,NA
17347,York County,PA,84.58083832335329,NA,NA
17408,York County,PA,67.96407185628742,NA,NA
17501,Lancaster County,PA,89.97005988023952,NA,NA
17516,Lancaster County,PA,NA,90.18264840182648,NA
17552,Lancaster County,PA,37.27544910179641,NA,NA
17701,Lycoming County,PA,NA,NA,10.01926782273603
17754,Lycoming County,PA,92.36526946107784,NA,NA
17801,Northumberland County,PA,49.8502994011976,NA,NA
17837,Union County,PA,NA,42.12328767123288,NA
17851,Northumberland County,PA,NA,78.76712328767124,NA
17857,Northumberland County,PA,NA,49.885844748858446,NA
18011,Lehigh County,PA,85.02994011976048,NA,NA
18017,Northampton County,PA,6.736526946107785,NA,NA
18018,Lehigh County,PA,NA,11.073059360730593,NA
18020,Northampton County,PA,NA,NA,26.97495183044316
18036,Lehigh County,PA,NA,35.73059360730594,NA
18049,Lehigh County,PA,NA,NA,64.35452793834297
18064,Northampton County,PA,NA,NA,21.001926782273603
18069,Lehigh County,PA,80.83832335329342,NA,NA
18202,Luzerne County,PA,45.50898203592814,NA,NA
18229,Carbon County,PA,67.06586826347305,NA,NA
18411,Lackawanna County,PA,46.10778443113773,NA,NA
18428,Pike County,PA,70.50898203592814,NA,NA
18505,Lackawanna County,PA,NA,NA,45.857418111753375
18509,Lackawanna County,PA,53.74251497005989,NA,NA
18640,Luzerne County,PA,40.119760479041915,NA,NA
18641,Luzerne County,PA,NA,NA,69.7495183044316
18644,Luzerne County,PA,NA,64.95433789954338,NA
18655,Luzerne County,PA,NA,84.58904109589042,NA
18702,Luzerne County,PA,NA,NA,11.175337186897881
18705,Luzerne County,PA,NA,NA,31.79190751445087
18706,Luzerne County,PA,NA,36.64383561643836,NA
18901,Bucks County,PA,NA,NA,15.221579961464354
18944,Bucks County,PA,NA,74.65753424657534,NA
18947,Bucks County,PA,NA,98.97260273972603,NA
19020,Bucks County,PA,9.131736526946108,NA,NA
19027,Montgomery County,PA,NA,NA,25.818882466281313
19038,Montgomery County,PA,NA,26.14155251141553,NA
19047,Bucks County,PA,NA,17.922374429223744,NA
19055,Bucks County,PA,NA,94.17808219178082,NA
19064,Delaware County,PA,NA,NA,85.35645472061657
19076,Delaware County,PA,NA,93.60730593607306,NA
19090,Montgomery County,PA,NA,NA,47.01348747591522
19096,Montgomery County,PA,NA,71.00456621004567,NA
19103,Philadelphia County,PA,70.95808383233533,25.228310502283108,NA
19120,Philadelphia County,PA,NA,8.789954337899543,NA
19121,Philadelphia County,PA,NA,58.44748858447488,NA
19122,Philadelphia County,PA,NA,NA,78.03468208092485
19131,Philadelphia County,PA,6.58682634730539,NA,79.57610789980733
19133,Philadelphia County,PA,16.16766467065868,NA,NA
19134,Philadelphia County,PA,NA,49.08675799086758,NA
19135,Philadelphia County,PA,NA,38.92694063926941,NA
19138,Philadelphia County,PA,NA,23.972602739726025,NA
19148,Philadelphia County,PA,61.07784431137725,NA,NA
19149,Philadelphia County,PA,NA,NA,33.140655105973025
19153,Philadelphia County,PA,94.311377245509,75.68493150684932,NA
19320,Chester County,PA,NA,NA,22.15799614643545
19355,Chester County,PA,NA,NA,46.82080924855491
19403,Montgomery County,PA,NA,NA,9.633911368015415
19422,Montgomery County,PA,NA,37.78538812785388,NA
19444,Montgomery County,PA,82.03592814371258,NA,NA
19454,Montgomery County,PA,40.718562874251496,NA,NA
19512,Berks County,PA,NA,NA,51.252408477842
19551,Berks County,PA,88.92215568862275,NA,NA
19601,Berks County,PA,19.760479041916167,NA,NA
19606,Berks County,PA,11.676646706586826,NA,NA
19608,Berks County,PA,29.34131736526946,NA,NA
02860,Providence County,RI,NA,13.584474885844749,NA
02861,Providence County,RI,30.538922155688624,NA,NA
02891,Washington County,RI,NA,27.28310502283105,NA
02915,Providence County,RI,NA,54.22374429223744,NA
02916,Providence County,RI,90.26946107784431,NA,NA
29033,Lexington County,SC,NA,80.36529680365297,NA
29055,Chester County,SC,NA,90.06849315068493,NA
29063,Richland County,SC,NA,NA,50.67437379576107
29108,Newberry County,SC,NA,NA,55.8766859344894
29118,Orangeburg County,SC,NA,88.9269406392694,NA
29135,Calhoun County,SC,NA,95.09132420091323,NA
29301,Spartanburg County,SC,NA,39.26940639269406,NA
29306,Spartanburg County,SC,36.227544910179645,NA,NA
29307,Spartanburg County,SC,NA,NA,45.08670520231214
29316,Spartanburg County,SC,36.82634730538922,32.99086757990868,NA
29412,Charleston County,SC,NA,22.031963470319635,NA
29575,Horry County,SC,NA,58.9041095890411,NA
29611,Greenville County,SC,13.622754491017963,NA,NA
29615,Greenville County,SC,NA,39.84018264840183,NA
29626,Anderson County,SC,NA,72.3744292237443,NA
29644,Greenville County,SC,74.25149700598801,NA,NA
29678,Oconee County,SC,NA,NA,41.23314065510597
29681,Greenville County,SC,27.245508982035926,15.981735159817351,NA
29687,Greenville County,SC,NA,NA,19.07514450867052
29690,Greenville County,SC,NA,37.10045662100457,NA
29707,Lancaster County,SC,NA,NA,25.626204238921
29803,Aiken County,SC,NA,71.46118721461188,NA
29812,Barnwell County,SC,NA,NA,89.98073217726397
29909,Beaufort County,SC,NA,18.036529680365295,NA
57006,Brookings County,SD,NA,43.2648401826484,NA
57033,Minnehaha County,SD,NA,99.31506849315068,NA
57105,Minnehaha County,SD,44.31137724550898,44.97716894977169,10.211946050096339
57106,Minnehaha County,SD,NA,67.46575342465754,NA
57401,Brown County,SD,NA,NA,44.1233140655106
57501,Hughes County,SD,NA,NA,31.984585741811177
57702,Pennington County,SD,NA,19.52054794520548,NA
37027,Williamson County,TN,NA,24.315068493150687,NA
37055,Dickson County,TN,NA,73.74429223744292,NA
37064,Williamson County,TN,NA,16.78082191780822,NA
37083,Macon County,TN,49.101796407185624,NA,NA
37130,Rutherford County,TN,NA,32.30593607305936,NA
37138,Davidson County,TN,NA,NA,62.42774566473989
37167,Rutherford County,TN,27.844311377245507,NA,NA
37174,Williamson County,TN,NA,40.52511415525114,NA
37217,Davidson County,TN,NA,55.02283105022832,NA
37330,Franklin County,TN,65.71856287425149,NA,NA
37387,Grundy County,TN,NA,NA,97.30250481695568
37604,Washington County,TN,20.958083832335326,NA,NA
37745,Greene County,TN,26.34730538922156,NA,NA
37818,Greene County,TN,89.07185628742515,NA,NA
37862,Sevier County,TN,NA,NA,38.15028901734104
37870,Claiborne County,TN,91.91616766467065,NA,NA
38017,Shelby County,TN,NA,51.598173515981735,NA
38111,Shelby County,TN,NA,48.05936073059361,42.00385356454721
38119,Shelby County,TN,NA,83.56164383561644,NA
38201,Carroll County,TN,NA,NA,76.878612716763
38462,Lewis County,TN,NA,77.28310502283105,NA
38551,Clay County,TN,80.98802395209582,NA,NA
38558,Cumberland County,TN,NA,50.57077625570776,NA
75025,Collin County,TX,NA,NA,57.41811175337187
75034,Denton County,TX,NA,28.99543378995434,NA
75042,Dallas County,TX,NA,NA,59.15221579961464
75057,Denton County,TX,NA,83.10502283105022,NA
75062,Dallas County,TX,NA,NA,40.655105973025044
75077,Denton County,TX,NA,NA,71.86897880539499
75088,Dallas County,TX,NA,46.917808219178085,NA
75209,Dallas County,TX,63.47305389221557,NA,NA
75212,Dallas County,TX,NA,NA,46.628131021194605
75216,Dallas County,TX,7.18562874251497,NA,NA
75231,Dallas County,TX,NA,63.81278538812786,NA
75235,Dallas County,TX,NA,NA,82.08092485549133
75253,Dallas County,TX,NA,98.85844748858447,NA
75503,Bowie County,TX,NA,NA,28.901734104046245
75670,Harrison County,TX,NA,NA,79.38342967244701
75701,Smith County,TX,NA,NA,9.248554913294797
75702,Smith County,TX,36.377245508982035,42.57990867579909,NA
75703,Smith County,TX,NA,NA,21.19460500963391
75709,Smith County,TX,NA,95.662100456621,NA
75766,Cherokee County,TX,NA,10.50228310502283,NA
75771,Smith County,TX,NA,NA,17.341040462427745
75785,Cherokee County,TX,NA,55.821917808219176,NA
75901,Angelina County,TX,35.17964071856288,NA,NA
76063,Tarrant County,TX,14.97005988023952,NA,NA
76067,Palo Pinto County,TX,NA,56.5068493150685,NA
76106,Tarrant County,TX,NA,82.1917808219178,NA
76107,Tarrant County,TX,39.37125748502994,NA,NA
76115,Tarrant County,TX,NA,69.86301369863014,NA
76116,Tarrant County,TX,24.70059880239521,NA,NA
76244,Tarrant County,TX,NA,NA,71.09826589595376
76310,Wichita County,TX,NA,NA,96.14643545279384
76448,Eastland County,TX,NA,94.29223744292237,NA
76501,Bell County,TX,15.568862275449103,NA,NA
76513,Bell County,TX,31.437125748502993,NA,1.1560693641618496
76528,Coryell County,TX,NA,15.8675799086758,NA
76531,Hamilton County,TX,NA,NA,75.14450867052022
76574,Williamson County,TX,NA,NA,14.450867052023122
76643,McLennan County,TX,NA,NA,90.7514450867052
76712,McLennan County,TX,39.52095808383233,NA,9.441233140655106
76801,Brown County,TX,75.59880239520959,NA,NA
76834,Coleman County,TX,NA,84.93150684931507,NA
77004,Harris County,TX,NA,NA,63.19845857418112
77013,Harris County,TX,NA,NA,87.47591522157995
77027,Harris County,TX,NA,71.68949771689498,NA
77039,Harris County,TX,NA,55.70776255707762,NA
77047,Harris County,TX,53.1437125748503,NA,NA
77065,Harris County,TX,NA,43.949771689497716,NA
77071,Harris County,TX,NA,NA,60.115606936416185
77072,Harris County,TX,NA,51.369863013698634,NA
77075,Harris County,TX,48.20359281437126,NA,NA
77078,Harris County,TX,NA,61.41552511415526,NA
77082,Harris County,TX,NA,38.81278538812785,NA
77084,Harris County,TX,NA,24.65753424657534,NA
77086,Harris County,TX,82.63473053892216,NA,NA
77088,Harris County,TX,29.640718562874252,NA,NA
77095,Harris County,TX,47.455089820359284,NA,NA
77098,Harris County,TX,98.50299401197606,NA,NA
77327,Liberty County,TX,NA,73.40182648401826,NA
77356,Montgomery County,TX,NA,40.29680365296804,NA
77377,Harris County,TX,41.61676646706587,NA,NA
77406,Fort Bend County,TX,NA,30.136986301369863,NA
77414,Matagorda County,TX,NA,NA,50.09633911368015
77445,Waller County,TX,NA,77.51141552511416,NA
77459,Fort Bend County,TX,NA,13.698630136986301,NA
77471,Fort Bend County,TX,NA,58.675799086758,46.24277456647399
77503,Harris County,TX,73.05389221556887,NA,85.54913294797689
77539,Galveston County,TX,NA,13.013698630136986,NA
77568,Galveston County,TX,NA,NA,54.52793834296724
77573,Galveston County,TX,NA,6.164383561643835,NA
77584,Brazoria County,TX,NA,21.232876712328768,NA
77632,Orange County,TX,NA,68.4931506849315,NA
77642,Jefferson County,TX,80.38922155688623,NA,NA
77808,Brazos County,TX,NA,60.38812785388128,NA
77845,Brazos County,TX,10.928143712574851,NA,NA
78041,Webb County,TX,NA,NA,31.021194605009633
78061,Frio County,TX,NA,NA,97.10982658959537
78211,Bexar County,TX,50.59880239520959,NA,NA
78212,Bexar County,TX,NA,43.2648401826484,NA
78218,Bexar County,TX,NA,NA,74.18111753371869
78220,Bexar County,TX,79.79041916167665,NA,NA
78227,Bexar County,TX,NA,51.82648401826484,NA
78232,Bexar County,TX,NA,98.74429223744292,NA
78242,Bexar County,TX,NA,NA,88.2466281310212
78260,Bexar County,TX,NA,NA,99.03660886319847
78415,Nueces County,TX,NA,87.55707762557078,NA
78520,Cameron County,TX,NA,NA,24.66281310211946
78521,Cameron County,TX,NA,19.863013698630137,NA
78572,Hidalgo County,TX,20.508982035928145,NA,NA
78573,Hidalgo County,TX,52.24550898203593,NA,NA
78574,Hidalgo County,TX,NA,NA,86.31984585741812
78577,Hidalgo County,TX,72.60479041916167,NA,NA
78633,Williamson County,TX,NA,NA,13.102119460500964
78644,Caldwell County,TX,96.40718562874252,NA,NA
78681,Williamson County,TX,NA,NA,28.516377649325626
78840,Val Verde County,TX,NA,19.97716894977169,NA
78962,Colorado County,TX,NA,NA,93.0635838150289
79413,Lubbock County,TX,NA,54.109589041095894,NA
79423,Lubbock County,TX,29.491017964071858,NA,NA
79762,Ector County,TX,28.592814371257486,NA,NA
79763,Ector County,TX,NA,43.60730593607306,NA
79912,El Paso County,TX,NA,36.3013698630137,NA
79927,El Paso County,TX,NA,NA,59.53757225433526
79936,El Paso County,TX,13.47305389221557,20.4337899543379,NA
84058,Utah County,UT,NA,82.99086757990868,NA
84075,Davis County,UT,66.76646706586826,NA,NA
84088,Salt Lake County,UT,35.92814371257485,NA,71.29094412331408
84096,Salt Lake County,UT,NA,60.04566210045662,NA
84106,Salt Lake County,UT,33.23353293413174,NA,NA
84404,Weber County,UT,22.305389221556887,NA,NA
84526,Carbon County,UT,94.61077844311377,NA,NA
84737,Washington County,UT,NA,63.926940639269404,NA
05301,Windham County,VT,NA,NA,43.93063583815029
05445,Chittenden County,VT,NA,98.28767123287672,NA
05446,Chittenden County,VT,59.13173652694611,NA,NA
05478,Franklin County,VT,NA,NA,27.552986512524086
05641,Washington County,VT,NA,29.908675799086758,NA
05701,Rutland County,VT,NA,61.3013698630137,16.184971098265898
20187,Fauquier County,VA,NA,NA,89.01734104046243
22041,Fairfax County,VA,NA,NA,60.308285163776496
22042,Fairfax County,VA,49.40119760479042,NA,NA
22043,Fairfax County,VA,NA,77.3972602739726,NA
22201,Arlington County,VA,56.58682634730538,NA,NA
22207,Arlington County,VA,NA,44.74885844748858,NA
22303,Fairfax County,VA,68.41317365269461,NA,NA
22308,Fairfax County,VA,NA,79.68036529680366,52.601156069364166
22520,Westmoreland County,VA,NA,92.12328767123287,NA
22551,Spotsylvania County,VA,NA,98.17351598173516,NA
22572,Richmond County,VA,NA,97.3744292237443,NA
22602,Frederick County,VA,NA,NA,49.51830443159923
22802,Harrisonburg city,VA,69.01197604790418,NA,NA
22851,Page County,VA,NA,62.44292237442922,NA
22853,Rockingham County,VA,NA,NA,94.41233140655106
22947,Albemarle County,VA,NA,95.77625570776256,NA
22963,Fluvanna County,VA,71.40718562874252,NA,NA
22980,Waynesboro city,VA,94.76047904191617,NA,NA
23089,New Kent County,VA,NA,NA,94.99036608863199
23181,King William County,VA,NA,84.81735159817352,NA
23185,James City County,VA,NA,5.251141552511415,NA
23188,James City County,VA,NA,41.78082191780822,NA
23233,Henrico County,VA,NA,70.54794520547945,63.005780346820806
23235,Chesterfield County,VA,NA,NA,24.084778420038536
23238,Henrico County,VA,NA,60.273972602739725,NA
23323,Chesapeake city,VA,NA,35.61643835616438,NA
23435,Suffolk city,VA,NA,36.41552511415525,NA
23452,Virginia Beach city,VA,NA,40.75342465753425,NA
23454,Virginia Beach city,VA,NA,NA,7.129094412331407
23455,Virginia Beach city,VA,NA,41.210045662100455,NA
23456,Virginia Beach city,VA,NA,11.415525114155251,NA
23508,Norfolk city,VA,NA,NA,64.54720616570327
23513,Norfolk city,VA,NA,32.64840182648402,NA
23518,Norfolk city,VA,NA,NA,19.845857418111752
23602,Newport News city,VA,NA,29.22374429223744,NA
23701,Portsmouth city,VA,NA,25.570776255707763,NA
24134,Giles County,VA,NA,NA,69.36416184971098
24148,Henry County,VA,NA,79.90867579908677,NA
24151,Franklin County,VA,86.97604790419162,NA,NA
24171,Patrick County,VA,NA,62.78538812785388,NA
24202,Washington County,VA,NA,96.46118721461188,96.91714836223507
24450,Rockbridge County,VA,NA,52.73972602739726,NA
24577,Halifax County,VA,95.80838323353294,NA,NA
24592,Halifax County,VA,NA,NA,62.813102119460495
98023,King County,WA,NA,NA,26.39691714836224
98036,Snohomish County,WA,NA,NA,36.03082851637765
98042,King County,WA,NA,NA,26.011560693641616
98052,King County,WA,NA,NA,48.36223506743738
98092,King County,WA,55.688622754491014,NA,NA
98121,King County,WA,NA,NA,93.83429672447014
98125,King County,WA,NA,NA,66.28131021194605
98155,King County,WA,42.964071856287426,NA,NA
98166,King County,WA,NA,NA,78.22736030828517
98204,Snohomish County,WA,56.43712574850299,NA,NA
98208,Snohomish County,WA,22.45508982035928,NA,NA
98221,Skagit County,WA,58.38323353293413,NA,NA
98226,Whatcom County,WA,63.32335329341318,NA,NA
98239,Island County,WA,NA,NA,55.10597302504817
98248,Whatcom County,WA,73.80239520958084,NA,NA
98258,Snohomish County,WA,24.40119760479042,NA,NA
98270,Snohomish County,WA,NA,32.19178082191781,NA
98271,Snohomish County,WA,42.06586826347306,NA,NA
98284,Skagit County,WA,NA,NA,20.423892100192678
98331,Clallam County,WA,93.7125748502994,NA,NA
98362,Clallam County,WA,NA,69.40639269406392,NA
98365,Jefferson County,WA,NA,NA,81.31021194605009
98374,Pierce County,WA,NA,42.69406392694064,NA
98382,Clallam County,WA,NA,NA,1.5414258188824663
98402,Pierce County,WA,NA,97.6027397260274,NA
98407,Pierce County,WA,NA,47.71689497716895,NA
98499,Pierce County,WA,NA,NA,95.95375722543352
98661,Clark County,WA,NA,39.49771689497717,NA
98801,Chelan County,WA,54.94011976047904,9.703196347031962,NA
99022,Spokane County,WA,NA,94.06392694063926,NA
99336,Benton County,WA,13.323353293413174,NA,NA
99337,Benton County,WA,NA,9.58904109589041,55.29865125240848
99352,Benton County,WA,NA,NA,41.61849710982659
20019,District of Columbia,DC,NA,NA,13.680154142581888
20032,District of Columbia,DC,5.9880239520958085,NA,NA
24740,Mercer County,WV,29.790419161676645,NA,NA
25064,Kanawha County,WV,NA,NA,47.97687861271676
25213,Putnam County,WV,90.11976047904191,NA,NA
25271,Jackson County,WV,63.02395209580839,NA,NA
25443,Jefferson County,WV,86.82634730538922,NA,NA
25550,Mason County,WV,NA,66.55251141552512,NA
25701,Cabell County,WV,NA,50.34246575342466,NA
25704,Wayne County,WV,28.892215568862273,NA,44.701348747591524
26104,Wood County,WV,34.58083832335329,NA,NA
26105,Wood County,WV,NA,73.63013698630137,29.09441233140655
26330,Harrison County,WV,86.67664670658682,NA,NA
26501,Monongalia County,WV,19.16167664670659,NA,NA
26505,Monongalia County,WV,10.029940119760479,NA,NA
26508,Monongalia County,WV,NA,7.9908675799086755,NA
26554,Marion County,WV,4.790419161676647,NA,NA
53005,Waukesha County,WI,NA,NA,76.49325626204238
53014,Calumet County,WI,68.11377245508982,NA,NA
53051,Waukesha County,WI,41.76646706586826,NA,NA
53081,Sheboygan County,WI,61.377245508982035,25.34246575342466,NA
53086,Washington County,WI,NA,96.00456621004567,NA
53090,Washington County,WI,NA,51.02739726027398,NA
53110,Milwaukee County,WI,NA,66.89497716894978,NA
53121,Walworth County,WI,NA,30.36529680365297,NA
53140,Kenosha County,WI,11.976047904191617,25.45662100456621,28.32369942196532
53149,Waukesha County,WI,NA,40.98173515981735,NA
53154,Milwaukee County,WI,NA,NA,66.08863198458575
53172,Milwaukee County,WI,NA,NA,63.58381502890174
53189,Waukesha County,WI,NA,NA,90.36608863198458
53190,Walworth County,WI,92.51497005988024,NA,NA
53206,Milwaukee County,WI,10.179640718562874,NA,NA
53212,Milwaukee County,WI,14.37125748502994,NA,42.38921001926782
53214,Milwaukee County,WI,12.724550898203594,NA,NA
53215,Milwaukee County,WI,5.089820359281437,NA,NA
53221,Milwaukee County,WI,NA,22.37442922374429,NA
53222,Milwaukee County,WI,53.89221556886228,NA,NA
53223,Milwaukee County,WI,NA,12.557077625570775,NA
53226,Milwaukee County,WI,NA,67.23744292237443,NA
53227,Milwaukee County,WI,33.532934131736525,NA,20.03853564547206
53406,Racine County,WI,NA,3.65296803652968,NA
53520,Green County,WI,NA,53.538812785388124,NA
53546,Rock County,WI,19.01197604790419,NA,NA
53548,Rock County,WI,NA,NA,29.47976878612717
53565,Iowa County,WI,100,NA,NA
53590,Dane County,WI,NA,42.80821917808219,NA
53594,Jefferson County,WI,NA,NA,97.6878612716763
53704,Dane County,WI,NA,51.48401826484018,NA
53714,Dane County,WI,83.23353293413174,NA,NA
53717,Dane County,WI,NA,58.789954337899545,NA
53916,Dodge County,WI,39.07185628742515,NA,NA
54005,Polk County,WI,NA,99.42922374429224,NA
54017,St. Croix County,WI,NA,38.35616438356164,NA
54130,Outagamie County,WI,NA,84.1324200913242,NA
54153,Oconto County,WI,69.91017964071857,81.9634703196347,NA
54161,Marinette County,WI,NA,97.8310502283105,NA
54220,Manitowoc County,WI,NA,NA,57.996146435452786
54311,Brown County,WI,67.36526946107784,76.9406392694064,NA
54401,Marathon County,WI,NA,92.23744292237443,49.71098265895954
54409,Langlade County,WI,NA,57.87671232876712,NA
54451,Taylor County,WI,80.53892215568862,NA,NA
54494,Wood County,WI,29.94011976047904,NA,NA
54601,La Crosse County,WI,7.48502994011976,NA,NA
54629,Buffalo County,WI,NA,97.03196347031964,NA
54630,Trempealeau County,WI,83.38323353293413,NA,NA
54636,La Crosse County,WI,NA,NA,81.88824662813103
54650,La Crosse County,WI,51.49700598802395,NA,NA
54720,Eau Claire County,WI,85.77844311377245,NA,NA
54729,Chippewa County,WI,NA,22.602739726027394,NA
54751,Dunn County,WI,NA,NA,15.414258188824661
54768,Chippewa County,WI,95.35928143712576,NA,NA
54801,Washburn County,WI,NA,NA,69.55684007707129
54868,Barron County,WI,NA,46.34703196347032,NA
54911,Outagamie County,WI,37.87425149700599,NA,NA
54913,Outagamie County,WI,78.59281437125748,NA,NA
54915,Outagamie County,WI,NA,NA,52.79383429672448
54944,Outagamie County,WI,NA,95.8904109589041,NA
54956,Winnebago County,WI,NA,NA,35.83815028901734
54961,Waupaca County,WI,54.79041916167665,47.146118721461185,NA
54982,Waushara County,WI,70.20958083832335,NA,NA
54983,Waupaca County,WI,92.96407185628742,NA,NA
