ZipCode,county,state,Adult,Retirement,Geriatric
35126,Jefferson County,AL,NA,NA,61.53846153846154
35160,Talladega County,AL,20.54054054054054,NA,NA
35214,Jefferson County,AL,NA,75.17006802721087,NA
35243,Jefferson County,AL,72.97297297297297,NA,NA
35550,Walker County,AL,NA,86.05442176870748,NA
35740,Jackson County,AL,NA,98.9795918367347,NA
35803,Madison County,AL,NA,NA,79.37062937062937
35806,Madison County,AL,NA,NA,52.09790209790209
36033,Butler County,AL,NA,99.65986394557824,NA
36117,Montgomery County,AL,NA,NA,20.27972027972028
36265,Calhoun County,AL,NA,54.08163265306123,NA
36301,Houston County,AL,NA,49.65986394557823,NA
36693,Mobile County,AL,NA,NA,54.1958041958042
36701,Dallas County,AL,NA,87.07482993197279,NA
99504,Anchorage Municipality,AK,86.48648648648648,NA,NA
99576,Dillingham Census Area,AK,NA,97.95918367346938,NA
99645,Matanuska-Susitna Borough,AK,51.35135135135135,NA,NA
85015,Maricopa County,AZ,NA,50.34013605442177,52.7972027972028
85018,Maricopa County,AZ,NA,NA,48.6013986013986
85201,Maricopa County,AZ,NA,31.97278911564626,NA
85202,Maricopa County,AZ,48.64864864864865,NA,NA
85208,Maricopa County,AZ,NA,NA,77.97202797202797
85251,Maricopa County,AZ,38.91891891891892,NA,NA
85254,Maricopa County,AZ,NA,33.33333333333333,NA
85301,Maricopa County,AZ,NA,73.46938775510205,NA
85306,Maricopa County,AZ,NA,55.78231292517006,NA
85340,Maricopa County,AZ,NA,70.06802721088435,NA
85351,Maricopa County,AZ,NA,NA,39.51048951048951
85364,Yuma County,AZ,NA,NA,4.195804195804196
85710,Pima County,AZ,NA,NA,7.6923076923076925
85737,Pima County,AZ,NA,NA,42.30769230769231
85739,Pinal County,AZ,NA,NA,22.727272727272727
86004,Coconino County,AZ,NA,14.965986394557824,NA
86021,Mohave County,AZ,NA,99.31972789115646,NA
86409,Mohave County,AZ,NA,25.850340136054424,NA
72901,Sebastian County,AR,NA,62.925170068027214,NA
72936,Sebastian County,AR,83.78378378378379,NA,NA
90040,Los Angeles County,CA,85.4054054054054,NA,NA
90049,Los Angeles County,CA,NA,68.36734693877551,NA
90064,Los Angeles County,CA,NA,48.97959183673469,NA
90503,Los Angeles County,CA,NA,NA,32.51748251748251
90602,Los Angeles County,CA,NA,73.80952380952381,93.7062937062937
90650,Los Angeles County,CA,NA,16.3265306122449,NA
90660,Los Angeles County,CA,NA,34.69387755102041,NA
90720,Orange County,CA,NA,NA,79.72027972027972
91010,Los Angeles County,CA,75.13513513513513,NA,NA
91316,Los Angeles County,CA,NA,NA,24.475524475524477
91331,Los Angeles County,CA,NA,87.41496598639455,NA
91405,Los Angeles County,CA,NA,41.83673469387755,NA
91505,Los Angeles County,CA,NA,NA,82.51748251748252
91706,Los Angeles County,CA,NA,33.6734693877551,NA
91730,San Bernardino County,CA,NA,NA,32.86713286713287
91786,San Bernardino County,CA,NA,32.99319727891156,NA
91906,San Diego County,CA,NA,100,NA
92008,San Diego County,CA,NA,NA,40.55944055944056
92024,San Diego County,CA,NA,43.53741496598639,NA
92037,San Diego County,CA,73.51351351351352,NA,NA
92057,San Diego County,CA,NA,NA,34.61538461538461
92101,San Diego County,CA,NA,57.14285714285714,NA
92113,San Diego County,CA,NA,34.35374149659864,NA
92122,San Diego County,CA,NA,60.8843537414966,NA
92211,Riverside County,CA,NA,NA,0
92257,Imperial County,CA,99.45945945945947,NA,NA
92260,Riverside County,CA,NA,NA,1.3986013986013985
92335,San Bernardino County,CA,NA,49.31972789115646,NA
92346,San Bernardino County,CA,NA,44.89795918367347,NA
92503,Riverside County,CA,47.02702702702703,NA,NA
92509,Riverside County,CA,NA,37.07482993197279,NA
92536,Riverside County,CA,NA,96.25850340136054,NA
92562,Riverside County,CA,NA,NA,37.41258741258741
92563,Riverside County,CA,NA,NA,41.25874125874126
92802,Orange County,CA,NA,NA,37.76223776223776
92804,Orange County,CA,NA,20.068027210884352,NA
92840,Orange County,CA,NA,37.41496598639456,NA
93021,Ventura County,CA,NA,NA,71.32867132867133
93257,Tulare County,CA,17.2972972972973,NA,NA
93309,Kern County,CA,NA,27.55102040816326,NA
93420,San Luis Obispo County,CA,NA,68.02721088435374,NA
93455,Santa Barbara County,CA,NA,NA,13.986013986013987
93560,Kern County,CA,NA,94.5578231292517,NA
93612,Fresno County,CA,NA,NA,39.16083916083916
93926,Monterey County,CA,96.75675675675676,NA,NA
94015,San Mateo County,CA,NA,11.904761904761903,NA
94061,San Mateo County,CA,NA,NA,83.56643356643356
94062,San Mateo County,CA,52.972972972972975,NA,NA
94110,San Francisco County,CA,NA,8.843537414965986,NA
94112,San Francisco County,CA,NA,32.31292517006803,NA
94133,San Francisco County,CA,NA,45.57823129251701,NA
94401,San Mateo County,CA,NA,85.71428571428571,NA
94539,Alameda County,CA,NA,NA,36.71328671328671
94553,Contra Costa County,CA,NA,58.50340136054422,NA
94560,Alameda County,CA,NA,NA,39.86013986013986
94583,Contra Costa County,CA,NA,NA,56.29370629370629
94601,Alameda County,CA,NA,37.41496598639456,NA
94608,Alameda County,CA,49.18918918918919,NA,NA
94806,Contra Costa County,CA,NA,NA,19.93006993006993
94901,Marin County,CA,NA,NA,76.22377622377621
94949,Marin County,CA,88.64864864864866,NA,NA
95242,San Joaquin County,CA,NA,81.97278911564626,NA
95382,Stanislaus County,CA,NA,NA,67.13286713286713
95602,Placer County,CA,NA,NA,30.76923076923077
95621,Sacramento County,CA,75.67567567567568,NA,NA
95742,Sacramento County,CA,NA,93.87755102040816,NA
95758,Sacramento County,CA,NA,NA,37.76223776223776
95819,Sacramento County,CA,91.35135135135135,NA,NA
95842,Sacramento County,CA,69.1891891891892,NA,NA
80012,Arapahoe County,CO,NA,NA,18.53146853146853
80107,Elbert County,CO,81.62162162162161,NA,NA
80118,Douglas County,CO,NA,NA,80.06993006993007
80207,Denver County,CO,NA,NA,95.8041958041958
80210,Denver County,CO,NA,NA,60.13986013986013
80524,Larimer County,CO,NA,26.53061224489796,NA
80534,Weld County,CO,NA,98.29931972789116,NA
81506,Mesa County,CO,NA,77.55102040816327,NA
06106,Hartford County,CT,7.567567567567568,NA,NA
06119,Hartford County,CT,NA,NA,63.286713286713294
06451,New Haven County,CT,95.67567567567568,NA,73.77622377622379
06461,New Haven County,CT,98.37837837837839,NA,NA
06511,New Haven County,CT,7.027027027027027,NA,NA
19709,New Castle County,DE,NA,20.74829931972789,NA
19977,Kent County,DE,27.027027027027028,NA,NA
32091,Bradford County,FL,NA,40.816326530612244,NA
32159,Lake County,FL,NA,NA,5.594405594405594
32225,Duval County,FL,NA,50,NA
32256,Duval County,FL,NA,NA,29.02097902097902
32503,Escambia County,FL,NA,NA,49.3006993006993
32566,Santa Rosa County,FL,NA,21.768707482993197,NA
32578,Okaloosa County,FL,NA,NA,20.62937062937063
32621,Levy County,FL,NA,88.09523809523809,NA
32707,Seminole County,FL,NA,74.14965986394559,NA
32926,Brevard County,FL,NA,43.197278911564624,NA
33024,Broward County,FL,57.83783783783784,NA,NA
33309,Broward County,FL,NA,77.89115646258503,NA
33410,Palm Beach County,FL,46.48648648648649,NA,NA
33701,Pinellas County,FL,NA,89.45578231292517,NA
33872,Highlands County,FL,NA,NA,66.08391608391608
33952,Charlotte County,FL,55.67567567567567,NA,NA
34203,Manatee County,FL,NA,NA,14.685314685314685
34221,Manatee County,FL,NA,26.190476190476193,NA
34236,Sarasota County,FL,NA,NA,16.433566433566433
34237,Sarasota County,FL,NA,NA,60.48951048951049
34491,Marion County,FL,NA,NA,90.55944055944056
34639,Pasco County,FL,NA,95.578231292517,NA
34655,Pasco County,FL,NA,NA,49.65034965034965
34689,Pinellas County,FL,NA,94.21768707482994,19.230769230769234
34997,Martin County,FL,NA,NA,47.2027972027972
30043,Gwinnett County,GA,NA,NA,44.75524475524475
30183,Cherokee County,GA,NA,NA,94.4055944055944
30189,Cherokee County,GA,NA,78.91156462585033,NA
30296,Clayton County,GA,NA,64.62585034013605,NA
30504,Hall County,GA,NA,NA,72.37762237762237
30518,Gwinnett County,GA,36.21621621621622,NA,NA
30643,Hart County,GA,NA,NA,53.4965034965035
30738,Dade County,GA,87.56756756756758,NA,NA
30906,Richmond County,GA,NA,NA,47.9020979020979
31419,Chatham County,GA,97.2972972972973,NA,NA
31906,Muscogee County,GA,39.45945945945946,NA,NA
31907,Muscogee County,GA,NA,42.517006802721085,NA
96741,Kauai County,HI,84.32432432432432,NA,NA
96813,Honolulu County,HI,NA,62.244897959183675,NA
96815,Honolulu County,HI,NA,24.489795918367346,NA
96825,Honolulu County,HI,NA,88.43537414965986,NA
96826,Honolulu County,HI,NA,30.612244897959183,NA
83221,Bingham County,ID,NA,NA,45.10489510489511
83333,Blaine County,ID,NA,NA,65.03496503496503
83686,Canyon County,ID,13.513513513513514,NA,NA
60053,Cook County,IL,NA,32.6530612244898,NA
60056,Cook County,IL,NA,61.904761904761905,NA
60060,Lake County,IL,NA,15.98639455782313,NA
60073,Lake County,IL,NA,26.87074829931973,NA
60077,Cook County,IL,NA,NA,10.13986013986014
60084,Lake County,IL,67.56756756756756,NA,NA
60085,Lake County,IL,NA,NA,54.54545454545454
60090,Cook County,IL,NA,NA,15.734265734265735
60101,DuPage County,IL,NA,NA,16.783216783216783
60126,DuPage County,IL,NA,NA,82.16783216783216
60154,Cook County,IL,NA,NA,30.419580419580424
60194,Cook County,IL,NA,53.74149659863946,NA
60304,Cook County,IL,NA,NA,90.9090909090909
60402,Cook County,IL,NA,10.884353741496598,NA
60403,Will County,IL,NA,NA,46.50349650349651
60441,Will County,IL,NA,NA,36.36363636363637
60443,Cook County,IL,NA,NA,43.70629370629371
60451,Will County,IL,NA,NA,43.00699300699301
60453,Cook County,IL,42.7027027027027,NA,NA
60546,Cook County,IL,NA,NA,89.86013986013987
60614,Cook County,IL,NA,NA,12.587412587412588
60617,Cook County,IL,77.29729729729729,NA,NA
60628,Cook County,IL,10.81081081081081,NA,NA
60632,Cook County,IL,40.54054054054054,NA,NA
60639,Cook County,IL,14.054054054054054,NA,NA
60643,Cook County,IL,NA,56.4625850340136,8.041958041958042
60644,Cook County,IL,NA,NA,61.18881118881119
60651,Cook County,IL,48.10810810810811,NA,NA
60954,Kankakee County,IL,85.94594594594595,NA,NA
61008,Boone County,IL,31.891891891891895,NA,NA
61071,Whiteside County,IL,NA,18.027210884353742,NA
61081,Whiteside County,IL,58.91891891891892,NA,NA
61107,Winnebago County,IL,NA,30.272108843537417,NA
61520,Fulton County,IL,NA,NA,30.069930069930066
61554,Tazewell County,IL,NA,59.523809523809526,NA
61607,Peoria County,IL,NA,NA,60.83916083916085
61614,Peoria County,IL,NA,NA,23.076923076923077
61727,De Witt County,IL,NA,NA,68.88111888111888
61764,Livingston County,IL,NA,NA,100
61832,Vermilion County,IL,NA,NA,9.44055944055944
62269,St. Clair County,IL,NA,40.476190476190474,NA
62274,Perry County,IL,NA,NA,74.82517482517483
62439,Lawrence County,IL,NA,64.62585034013605,NA
62896,Franklin County,IL,83.24324324324324,NA,NA
62946,Saline County,IL,72.43243243243244,NA,NA
62960,Massac County,IL,NA,68.70748299319727,NA
46055,Hancock County,IN,NA,NA,96.15384615384616
46131,Johnson County,IN,NA,NA,42.65734265734265
46204,Marion County,IN,40,NA,NA
46219,Marion County,IN,NA,19.047619047619047,NA
46227,Marion County,IN,NA,NA,4.545454545454546
46278,Marion County,IN,NA,97.27891156462584,NA
46304,Porter County,IN,NA,NA,25.874125874125873
46319,Lake County,IN,27.56756756756757,NA,NA
46320,Lake County,IN,32.432432432432435,NA,NA
46324,Lake County,IN,NA,24.829931972789115,NA
46795,LaGrange County,IN,NA,NA,69.23076923076923
46809,Allen County,IN,53.51351351351351,NA,NA
46947,Cass County,IN,NA,41.49659863945578,NA
47018,Dearborn County,IN,NA,NA,88.11188811188812
47130,Clark County,IN,NA,NA,58.74125874125874
47170,Scott County,IN,NA,NA,70.62937062937063
47203,Bartholomew County,IN,NA,NA,13.286713286713287
47274,Jackson County,IN,70.27027027027027,29.931972789115648,NA
47374,Wayne County,IN,6.486486486486487,NA,NA
47542,Dubois County,IN,NA,NA,66.43356643356644
50014,Story County,IA,NA,NA,90.20979020979021
50021,Polk County,IA,NA,76.53061224489795,NA
50112,Poweshiek County,IA,82.16216216216216,NA,NA
50317,Polk County,IA,NA,15.306122448979592,65.38461538461539
50401,Cerro Gordo County,IA,NA,NA,0.34965034965034963
50428,Cerro Gordo County,IA,71.89189189189189,NA,NA
50616,Floyd County,IA,NA,95.23809523809523,NA
51501,Pottawattamie County,IA,NA,12.925170068027212,NA
52240,Johnson County,IA,NA,20.408163265306122,NA
52601,Des Moines County,IA,NA,NA,45.8041958041958
52732,Clinton County,IA,NA,NA,84.96503496503497
66203,Johnson County,KS,NA,90.47619047619048,NA
66503,Riley County,KS,NA,NA,86.01398601398601
66607,Shawnee County,KS,NA,80.61224489795919,NA
66713,Cherokee County,KS,NA,NA,98.25174825174825
67010,Butler County,KS,NA,75.85034013605441,NA
67124,Pratt County,KS,82.70270270270271,NA,NA
67301,Montgomery County,KS,NA,88.77551020408163,NA
67357,Labette County,KS,NA,NA,50.6993006993007
67502,Reno County,KS,NA,NA,48.25174825174825
67901,Seward County,KS,NA,NA,93.35664335664336
40212,Jefferson County,KY,NA,NA,58.39160839160839
40243,Jefferson County,KY,NA,NA,74.12587412587412
40324,Scott County,KY,94.05405405405406,NA,NA
40351,Rowan County,KY,NA,NA,26.573426573426573
42104,Warren County,KY,NA,44.5578231292517,NA
42301,Daviess County,KY,14.594594594594595,NA,NA
42642,Russell County,KY,NA,NA,78.67132867132867
42701,Hardin County,KY,NA,NA,6.643356643356643
42718,Taylor County,KY,NA,10.54421768707483,NA
70118,Orleans Parish,LA,NA,72.10884353741497,NA
70125,Orleans Parish,LA,34.5945945945946,63.26530612244898,NA
70363,Terrebonne Parish,LA,NA,28.57142857142857,NA
70433,St. Tammany Parish,LA,NA,7.8231292517006805,NA
70461,St. Tammany Parish,LA,21.08108108108108,NA,NA
70805,East Baton Rouge Parish,LA,4.324324324324325,NA,NA
70817,East Baton Rouge Parish,LA,NA,17.346938775510203,NA
71104,Caddo Parish,LA,42.16216216216216,NA,NA
71201,Ouachita Parish,LA,32.972972972972975,NA,NA
71202,Ouachita Parish,LA,NA,NA,46.85314685314685
71203,Ouachita Parish,LA,NA,NA,86.36363636363636
04011,Cumberland County,ME,NA,NA,83.91608391608392
04043,York County,ME,NA,NA,55.24475524475524
04084,Cumberland County,ME,64.32432432432432,NA,NA
04239,Franklin County,ME,NA,71.42857142857143,NA
04240,Androscoggin County,ME,NA,NA,2.4475524475524475
04270,Oxford County,ME,NA,NA,65.73426573426573
04330,Kennebec County,ME,9.18918918918919,NA,NA
04401,Penobscot County,ME,2.1621621621621623,NA,NA
04901,Kennebec County,ME,8.64864864864865,NA,NA
04950,Somerset County,ME,NA,NA,46.15384615384615
20745,Prince George's County,MD,NA,NA,91.25874125874127
21037,Anne Arundel County,MD,NA,NA,64.33566433566433
21122,Anne Arundel County,MD,11.891891891891893,NA,NA
21207,Baltimore County,MD,NA,NA,17.832167832167833
21222,Baltimore County,MD,8.108108108108109,NA,NA
21223,Baltimore city,MD,31.351351351351354,NA,NA
21550,Garrett County,MD,NA,41.83673469387755,NA
21727,Frederick County,MD,NA,NA,82.86713286713287
21742,Washington County,MD,NA,NA,64.33566433566433
21784,Carroll County,MD,NA,53.40136054421769,NA
01002,Hampshire County,MA,NA,NA,52.44755244755245
01030,Hampden County,MA,NA,NA,69.58041958041959
01062,Hampshire County,MA,NA,78.2312925170068,NA
01119,Hampden County,MA,NA,45.91836734693878,NA
01151,Hampden County,MA,81.08108108108108,NA,NA
01464,Middlesex County,MA,NA,NA,99.65034965034964
01604,Worcester County,MA,NA,2.7210884353741496,NA
01610,Worcester County,MA,NA,3.741496598639456,NA
01746,Middlesex County,MA,NA,36.394557823129254,NA
01754,Middlesex County,MA,NA,52.38095238095239,NA
01801,Middlesex County,MA,NA,NA,0.6993006993006993
01810,Essex County,MA,NA,NA,17.482517482517483
01841,Essex County,MA,0,NA,NA
01906,Essex County,MA,NA,9.523809523809524,NA
01960,Essex County,MA,NA,NA,19.58041958041958
02050,Plymouth County,MA,NA,NA,92.3076923076923
02118,Suffolk County,MA,NA,72.44897959183673,NA
02126,Suffolk County,MA,5.405405405405405,NA,NA
02128,Suffolk County,MA,NA,2.380952380952381,5.244755244755245
02138,Middlesex County,MA,NA,NA,13.636363636363635
02145,Middlesex County,MA,NA,NA,38.46153846153847
02151,Suffolk County,MA,0.5405405405405406,NA,NA
02169,Norfolk County,MA,NA,0.3401360544217687,NA
02180,Middlesex County,MA,NA,NA,11.888111888111888
02186,Norfolk County,MA,18.91891891891892,NA,NA
02346,Plymouth County,MA,NA,NA,29.72027972027972
02420,Middlesex County,MA,NA,NA,43.35664335664335
02421,Middlesex County,MA,NA,36.734693877551024,NA
02451,Middlesex County,MA,NA,18.70748299319728,NA
02474,Middlesex County,MA,NA,23.12925170068027,NA
02744,Bristol County,MA,15.135135135135137,NA,NA
02780,Bristol County,MA,NA,NA,41.60839160839161
48001,St. Clair County,MI,90.27027027027027,NA,NA
48003,Lapeer County,MI,77.83783783783784,NA,NA
48026,Macomb County,MI,NA,NA,72.72727272727273
48066,Macomb County,MI,22.702702702702705,NA,NA
48088,Macomb County,MI,43.24324324324324,NA,NA
48111,Wayne County,MI,10.27027027027027,NA,NA
48127,Wayne County,MI,NA,NA,7.3426573426573425
48160,Washtenaw County,MI,NA,NA,76.92307692307693
48162,Monroe County,MI,NA,22.448979591836736,NA
48178,Oakland County,MI,NA,84.35374149659864,NA
48189,Washtenaw County,MI,NA,NA,61.88811188811189
48191,Washtenaw County,MI,NA,81.63265306122449,NA
48195,Wayne County,MI,NA,11.564625850340136,NA
48202,Wayne County,MI,92.97297297297298,NA,NA
48224,Wayne County,MI,NA,82.99319727891157,NA
48239,Wayne County,MI,12.972972972972974,NA,NA
48312,Macomb County,MI,NA,NA,9.79020979020979
48371,Oakland County,MI,35.13513513513514,NA,NA
48374,Oakland County,MI,NA,NA,70.97902097902097
48377,Oakland County,MI,NA,NA,55.94405594405595
48381,Oakland County,MI,NA,52.04081632653062,NA
48532,Genesee County,MI,36.75675675675676,NA,NA
49098,Berrien County,MI,NA,97.61904761904762,NA
49428,Ottawa County,MI,NA,28.2312925170068,NA
49505,Kent County,MI,NA,56.80272108843537,NA
49507,Kent County,MI,NA,54.421768707483,NA
49721,Cheboygan County,MI,NA,63.60544217687075,NA
55057,Rice County,MN,NA,76.19047619047619,NA
55102,Ramsey County,MN,76.21621621621621,NA,NA
55103,Ramsey County,MN,43.78378378378379,80.27210884353741,NA
55109,Ramsey County,MN,NA,NA,28.671328671328673
55117,Ramsey County,MN,NA,39.1156462585034,NA
55129,Washington County,MN,NA,NA,75.87412587412588
55330,Sherburne County,MN,65.94594594594595,NA,NA
55343,Hennepin County,MN,41.62162162162162,NA,NA
55404,Hennepin County,MN,NA,NA,63.63636363636363
55427,Hennepin County,MN,NA,57.82312925170068,NA
55449,Anoka County,MN,NA,NA,96.5034965034965
55804,St. Louis County,MN,NA,NA,21.328671328671327
55806,St. Louis County,MN,28.10810810810811,NA,NA
55947,Houston County,MN,NA,NA,48.95104895104895
56007,Freeborn County,MN,NA,NA,1.7482517482517483
56013,Faribault County,MN,NA,92.85714285714286,NA
56073,Brown County,MN,NA,43.87755102040816,18.88111888111888
56304,Sherburne County,MN,56.75675675675676,NA,NA
56401,Crow Wing County,MN,NA,4.761904761904762,NA
56468,Crow Wing County,MN,NA,NA,81.11888111888112
56472,Crow Wing County,MN,NA,NA,51.048951048951054
56482,Wadena County,MN,78.37837837837837,NA,NA
56547,Clay County,MN,97.83783783783784,NA,NA
56601,Beltrami County,MN,NA,NA,1.048951048951049
56701,Pennington County,MN,61.62162162162163,NA,NA
38804,Lee County,MS,NA,95.91836734693877,NA
39092,Scott County,MS,89.1891891891892,NA,NA
39120,Adams County,MS,88.10810810810811,NA,NA
39307,Lauderdale County,MS,NA,NA,58.74125874125874
39507,Harrison County,MS,78.91891891891892,NA,12.237762237762238
39648,Pike County,MS,25.405405405405407,NA,NA
63050,Jefferson County,MO,NA,62.585034013605444,NA
63123,St. Louis County,MO,NA,46.93877551020408,NA
63128,St. Louis County,MO,67.02702702702703,NA,6.993006993006993
63144,St. Louis County,MO,NA,NA,98.6013986013986
63301,St. Charles County,MO,NA,NA,3.4965034965034967
63650,Iron County,MO,NA,84.6938775510204,NA
63841,Stoddard County,MO,45.94594594594595,NA,NA
63901,Butler County,MO,NA,NA,33.56643356643357
64050,Jackson County,MO,NA,50.68027210884354,NA
64055,Jackson County,MO,NA,7.482993197278912,NA
64093,Johnson County,MO,NA,35.034013605442176,NA
64108,Jackson County,MO,NA,57.48299319727891,NA
64128,Jackson County,MO,NA,NA,67.83216783216784
64506,Buchanan County,MO,NA,7.142857142857142,NA
64628,Linn County,MO,NA,79.25170068027211,NA
64772,Vernon County,MO,NA,NA,59.790209790209794
65613,Polk County,MO,NA,35.374149659863946,NA
65802,Greene County,MO,NA,71.7687074829932,NA
59047,Park County,MT,98.91891891891892,NA,NA
68154,Douglas County,NE,NA,NA,92.65734265734265
68512,Lancaster County,NE,NA,84.01360544217688,NA
68516,Lancaster County,NE,60,NA,NA
68801,Hall County,NE,NA,61.224489795918366,NA
68845,Buffalo County,NE,NA,60.204081632653065,NA
89165,Clark County,NV,NA,93.5374149659864,NA
89431,Washoe County,NV,NA,NA,25.174825174825177
89441,Washoe County,NV,NA,NA,73.42657342657343
89509,Washoe County,NV,NA,NA,27.972027972027973
03032,Rockingham County,NH,NA,NA,87.41258741258741
03102,Hillsborough County,NH,NA,16.666666666666664,NA
03246,Belknap County,NH,NA,87.75510204081633,NA
03249,Belknap County,NH,NA,NA,62.58741258741259
03303,Merrimack County,NH,NA,93.19727891156462,NA
07011,Passaic County,NJ,22.162162162162165,NA,NA
07109,Essex County,NJ,NA,17.687074829931973,NA
07701,Monmouth County,NJ,96.21621621621622,NA,NA
07753,Monmouth County,NJ,NA,10.204081632653061,NA
07960,Morris County,NJ,NA,NA,93.00699300699301
08234,Atlantic County,NJ,4.864864864864865,NA,NA
08723,Ocean County,NJ,19.45945945945946,NA,NA
08831,Middlesex County,NJ,NA,NA,14.335664335664337
08854,Middlesex County,NJ,12.432432432432433,NA,NA
87106,Bernalillo County,NM,71.35135135135135,NA,NA
87410,San Juan County,NM,59.45945945945946,NA,NA
88101,Curry County,NM,NA,6.122448979591836,NA
10009,New York County,NY,NA,4.081632653061225,NA
10027,New York County,NY,NA,NA,25.524475524475527
10035,New York County,NY,NA,8.503401360544217,NA
10306,Richmond County,NY,NA,86.39455782312925,NA
10453,Bronx County,NY,NA,8.16326530612245,NA
10458,Bronx County,NY,NA,5.442176870748299,NA
10460,Bronx County,NY,NA,1.7006802721088436,11.538461538461538
10461,Bronx County,NY,38.37837837837838,NA,NA
10462,Bronx County,NY,NA,NA,51.74825174825175
10467,Bronx County,NY,NA,0.6802721088435374,NA
10473,Bronx County,NY,NA,5.782312925170068,NA
10475,Bronx County,NY,NA,NA,6.293706293706294
10520,Westchester County,NY,NA,NA,53.14685314685315
11102,Queens County,NY,NA,46.59863945578231,NA
11201,Kings County,NY,NA,NA,24.125874125874127
11206,Kings County,NY,NA,14.285714285714285,NA
11208,Kings County,NY,NA,2.0408163265306123,16.783216783216783
11209,Kings County,NY,NA,19.727891156462583,NA
11211,Kings County,NY,NA,65.3061224489796,NA
11219,Kings County,NY,17.83783783783784,NA,NA
11221,Kings County,NY,NA,74.48979591836735,NA
11230,Kings County,NY,NA,NA,56.993006993006986
11237,Kings County,NY,NA,47.61904761904761,NA
11379,Queens County,NY,NA,54.421768707483,NA
11433,Queens County,NY,NA,NA,27.27272727272727
11561,Nassau County,NY,NA,NA,22.377622377622377
11570,Nassau County,NY,NA,NA,41.60839160839161
11581,Nassau County,NY,NA,NA,96.85314685314685
11717,Suffolk County,NY,NA,46.25850340136054,NA
11735,Nassau County,NY,NA,83.6734693877551,NA
11780,Suffolk County,NY,NA,NA,91.95804195804196
11787,Suffolk County,NY,NA,92.51700680272108,NA
11788,Suffolk County,NY,63.24324324324324,NA,NA
11795,Suffolk County,NY,NA,NA,54.89510489510489
12019,Saratoga County,NY,NA,NA,56.64335664335665
12206,Albany County,NY,NA,48.29931972789115,NA
12304,Schenectady County,NY,NA,NA,85.3146853146853
13027,Onondaga County,NY,18.37837837837838,NA,NA
13036,Oswego County,NY,56.21621621621622,NA,NA
13165,Seneca County,NY,NA,NA,63.98601398601399
13365,Herkimer County,NY,NA,NA,72.02797202797203
13601,Jefferson County,NY,NA,64.28571428571429,NA
13634,Jefferson County,NY,93.51351351351352,NA,NA
13748,Broome County,NY,64.86486486486487,NA,NA
13820,Otsego County,NY,52.43243243243243,NA,NA
13830,Chenango County,NY,NA,NA,59.44055944055944
14213,Erie County,NY,NA,NA,73.07692307692307
14223,Erie County,NY,NA,38.435374149659864,NA
14414,Livingston County,NY,NA,96.5986394557823,NA
14502,Wayne County,NY,NA,47.95918367346938,NA
14580,Monroe County,NY,NA,NA,2.797202797202797
14626,Monroe County,NY,NA,3.061224489795918,NA
27006,Davie County,NC,NA,NA,18.181818181818183
27012,Forsyth County,NC,NA,3.4013605442176873,NA
27105,Forsyth County,NC,3.2432432432432434,NA,NA
27107,Forsyth County,NC,NA,NA,15.034965034965033
27205,Randolph County,NC,NA,23.46938775510204,NA
27265,Guilford County,NC,95.13513513513514,NA,NA
27278,Orange County,NC,NA,NA,16.083916083916083
27284,Forsyth County,NC,89.72972972972974,NA,58.04195804195804
27405,Guilford County,NC,NA,NA,21.678321678321677
27455,Guilford County,NC,45.40540540540541,NA,NA
27565,Granville County,NC,NA,NA,26.223776223776223
27587,Wake County,NC,NA,9.183673469387756,NA
27597,Wake County,NC,NA,NA,57.34265734265735
27612,Wake County,NC,NA,38.775510204081634,NA
27615,Wake County,NC,NA,14.625850340136054,NA
27705,Durham County,NC,50.27027027027027,NA,NA
27892,Martin County,NC,NA,28.91156462585034,NA
28054,Gaston County,NC,23.783783783783786,NA,NA
28173,Union County,NC,NA,69.38775510204081,NA
28212,Mecklenburg County,NC,NA,NA,55.59440559440559
28262,Mecklenburg County,NC,33.513513513513516,NA,NA
28328,Sampson County,NC,NA,21.428571428571427,NA
28376,Hoke County,NC,NA,92.17687074829932,NA
28465,Brunswick County,NC,NA,72.78911564625851,NA
28602,Catawba County,NC,25.945945945945947,NA,NA
28613,Catawba County,NC,NA,39.795918367346935,NA
28638,Caldwell County,NC,NA,60.544217687074834,NA
28645,Caldwell County,NC,35.67567567567568,1.0204081632653061,NA
28712,Transylvania County,NC,NA,NA,10.48951048951049
58072,Barnes County,ND,NA,NA,80.76923076923077
58103,Cass County,ND,NA,19.387755102040817,2.097902097902098
43081,Franklin County,OH,51.891891891891895,NA,NA
43205,Franklin County,OH,NA,NA,68.18181818181817
43209,Franklin County,OH,NA,NA,89.16083916083916
43213,Franklin County,OH,NA,NA,38.81118881118881
43315,Morrow County,OH,91.8918918918919,NA,NA
43551,Wood County,OH,NA,6.462585034013606,NA
43608,Lucas County,OH,NA,83.33333333333334,NA
43613,Lucas County,OH,NA,NA,67.48251748251748
43616,Lucas County,OH,16.756756756756758,NA,NA
43623,Lucas County,OH,NA,23.809523809523807,NA
43725,Guernsey County,OH,NA,6.802721088435375,NA
43812,Coshocton County,OH,55.13513513513514,NA,NA
43950,Belmont County,OH,NA,15.646258503401361,NA
44004,Ashtabula County,OH,2.7027027027027026,NA,NA
44035,Lorain County,OH,NA,0,NA
44052,Lorain County,OH,3.783783783783784,NA,NA
44060,Lake County,OH,NA,35.714285714285715,NA
44090,Lorain County,OH,NA,41.156462585034014,NA
44095,Lake County,OH,NA,11.224489795918368,NA
44102,Cuyahoga County,OH,1.0810810810810811,NA,NA
44103,Cuyahoga County,OH,NA,NA,31.11888111888112
44125,Cuyahoga County,OH,1.6216216216216217,NA,9.090909090909092
44137,Cuyahoga County,OH,NA,91.15646258503402,NA
44146,Cuyahoga County,OH,62.16216216216216,NA,NA
44147,Cuyahoga County,OH,NA,27.2108843537415,NA
44301,Summit County,OH,30.270270270270274,NA,NA
44320,Summit County,OH,NA,NA,20.97902097902098
44333,Summit County,OH,NA,NA,87.06293706293707
44425,Trumbull County,OH,NA,NA,85.66433566433567
44440,Trumbull County,OH,NA,86.73469387755102,NA
44504,Mahoning County,OH,NA,98.63945578231292,NA
44511,Mahoning County,OH,NA,29.591836734693878,NA
44691,Wayne County,OH,30.810810810810814,NA,NA
44705,Stark County,OH,54.59459459459459,NA,NA
44718,Stark County,OH,NA,NA,47.55244755244755
44820,Crawford County,OH,26.486486486486488,13.26530612244898,NA
44870,Erie County,OH,29.18918918918919,NA,NA
44889,Huron County,OH,74.05405405405405,NA,NA
44903,Richland County,OH,NA,18.367346938775512,NA
45042,Butler County,OH,24.864864864864867,NA,NA
45229,Hamilton County,OH,NA,NA,62.93706293706294
45239,Hamilton County,OH,NA,61.564625850340136,NA
45371,Miami County,OH,NA,NA,31.46853146853147
45385,Greene County,OH,37.2972972972973,NA,NA
45426,Montgomery County,OH,47.02702702702703,NA,NA
45503,Clark County,OH,NA,13.945578231292515,NA
45505,Clark County,OH,NA,NA,94.05594405594405
45631,Gallia County,OH,NA,12.244897959183673,NA
45640,Jackson County,OH,9.72972972972973,NA,NA
45801,Allen County,OH,NA,NA,35.66433566433567
73030,Murray County,OK,NA,74.82993197278913,NA
73049,Oklahoma County,OK,NA,73.12925170068027,NA
73105,Oklahoma County,OK,NA,NA,84.26573426573427
73107,Oklahoma County,OK,NA,44.21768707482993,NA
74401,Muskogee County,OK,NA,52.721088435374156,NA
97267,Clackamas County,OR,34.054054054054056,NA,NA
97321,Linn County,OR,NA,79.93197278911565,NA
97330,Benton County,OR,NA,69.04761904761905,NA
97333,Benton County,OR,60.54054054054055,NA,NA
97355,Linn County,OR,NA,5.1020408163265305,8.391608391608392
97361,Polk County,OR,NA,89.1156462585034,NA
15012,Westmoreland County,PA,NA,NA,34.26573426573427
15037,Allegheny County,PA,NA,78.57142857142857,NA
15206,Allegheny County,PA,21.62162162162162,NA,NA
15401,Fayette County,PA,74.5945945945946,NA,NA
15767,Jefferson County,PA,NA,29.25170068027211,NA
16146,Mercer County,PA,NA,NA,26.923076923076923
16201,Armstrong County,PA,NA,12.585034013605442,NA
16415,Erie County,PA,NA,82.6530612244898,NA
16510,Erie County,PA,NA,NA,22.02797202797203
17051,Mifflin County,PA,94.5945945945946,NA,NA
17067,Lebanon County,PA,NA,NA,50.349650349650354
17201,Franklin County,PA,NA,65.98639455782312,15.384615384615385
17202,Franklin County,PA,NA,NA,80.41958041958041
17257,Cumberland County,PA,NA,NA,33.21678321678322
17522,Lancaster County,PA,NA,59.183673469387756,NA
17584,Lancaster County,PA,NA,NA,40.20979020979021
17901,Schuylkill County,PA,NA,NA,23.426573426573427
18017,Northampton County,PA,NA,NA,3.8461538461538463
18052,Lehigh County,PA,24.324324324324326,NA,NA
18055,Northampton County,PA,NA,51.02040816326531,NA
18103,Lehigh County,PA,NA,NA,10.839160839160838
18428,Pike County,PA,NA,51.36054421768708,NA
18702,Luzerne County,PA,NA,NA,31.818181818181817
18705,Luzerne County,PA,NA,NA,27.62237762237762
19038,Montgomery County,PA,84.86486486486487,NA,NA
19055,Bucks County,PA,NA,65.64625850340136,NA
19115,Philadelphia County,PA,NA,76.87074829931973,NA
19134,Philadelphia County,PA,NA,NA,40.909090909090914
19149,Philadelphia County,PA,NA,NA,29.37062937062937
19152,Philadelphia County,PA,23.243243243243246,NA,NA
19153,Philadelphia County,PA,87.02702702702703,NA,NA
19454,Montgomery County,PA,NA,45.23809523809524,NA
19460,Chester County,PA,NA,66.3265306122449,NA
19605,Berks County,PA,NA,38.095238095238095,NA
19606,Berks County,PA,NA,4.421768707482993,NA
02863,Providence County,RI,57.2972972972973,NA,NA
02920,Providence County,RI,NA,NA,11.188811188811188
29229,Richland County,SC,NA,NA,44.40559440559441
29403,Charleston County,SC,NA,NA,66.78321678321679
29405,Charleston County,SC,28.64864864864865,NA,NA
29449,Charleston County,SC,NA,NA,81.46853146853147
29477,Dorchester County,SC,NA,80.61224489795919,NA
29556,Williamsburg County,SC,NA,NA,89.5104895104895
29601,Greenville County,SC,NA,NA,88.46153846153845
29609,Greenville County,SC,NA,66.66666666666666,NA
29621,Anderson County,SC,NA,NA,70.27972027972028
29678,Oconee County,SC,NA,30.952380952380953,NA
29690,Greenville County,SC,37.83783783783784,NA,NA
29691,Oconee County,SC,92.43243243243244,NA,NA
57103,Minnehaha County,SD,NA,NA,5.944055944055944
57104,Minnehaha County,SD,NA,31.63265306122449,NA
57105,Minnehaha County,SD,NA,13.60544217687075,NA
57110,Minnehaha County,SD,NA,NA,88.81118881118881
37075,Sumner County,TN,20,NA,NA
37115,Davidson County,TN,NA,21.768707482993197,NA
37122,Wilson County,TN,NA,67.68707482993197,NA
37207,Davidson County,TN,NA,NA,75.17482517482517
37354,Monroe County,TN,61.08108108108108,NA,NA
37411,Hamilton County,TN,NA,NA,95.45454545454545
37641,Greene County,TN,63.78378378378379,NA,NA
37643,Carter County,TN,16.216216216216218,NA,NA
37683,Johnson County,TN,NA,NA,79.02097902097903
37821,Cocke County,TN,NA,NA,34.96503496503497
38053,Shelby County,TN,44.32432432432433,NA,NA
38401,Maury County,TN,NA,NA,51.39860139860139
75060,Dallas County,TX,NA,40.136054421768705,NA
75189,Rockwall County,TX,NA,89.79591836734694,NA
75214,Dallas County,TX,NA,55.10204081632652,NA
75216,Dallas County,TX,NA,9.863945578231291,NA
75217,Dallas County,TX,49.72972972972973,NA,NA
75227,Dallas County,TX,90.81081081081082,NA,NA
75248,Dallas County,TX,NA,25.510204081632654,NA
75253,Dallas County,TX,NA,96.93877551020408,NA
75462,Lamar County,TX,NA,94.89795918367348,NA
75563,Cass County,TX,NA,85.03401360544217,NA
75605,Gregg County,TX,NA,NA,28.321678321678323
75652,Rusk County,TX,62.70270270270271,NA,NA
75766,Cherokee County,TX,NA,NA,4.895104895104895
75935,Shelby County,TX,69.72972972972973,NA,NA
76018,Tarrant County,TX,NA,56.12244897959183,NA
76021,Tarrant County,TX,NA,NA,87.76223776223776
76502,Bell County,TX,NA,42.857142857142854,NA
76643,McLennan County,TX,NA,NA,97.9020979020979
77033,Harris County,TX,NA,82.31292517006803,NA
77320,Walker County,TX,NA,NA,57.692307692307686
77429,Harris County,TX,15.675675675675677,NA,NA
77477,Fort Bend County,TX,50.810810810810814,NA,NA
77612,Jasper County,TX,NA,67.3469387755102,NA
77632,Orange County,TX,80.54054054054053,NA,NA
77706,Jefferson County,TX,70.8108108108108,NA,NA
78133,Comal County,TX,NA,NA,69.93006993006993
78232,Bexar County,TX,66.48648648648648,NA,NA
78574,Hidalgo County,TX,NA,35.714285714285715,NA
78666,Hays County,TX,NA,NA,95.1048951048951
79934,El Paso County,TX,NA,91.49659863945578,NA
84081,Salt Lake County,UT,NA,53.06122448979592,NA
84128,Salt Lake County,UT,NA,90.1360544217687,NA
84404,Weber County,UT,NA,NA,44.05594405594406
84501,Carbon County,UT,NA,70.74829931972789,NA
05446,Chittenden County,VT,58.37837837837838,NA,NA
22191,Prince William County,VA,NA,27.89115646258503,NA
22308,Fairfax County,VA,NA,NA,74.47552447552448
22572,Richmond County,VA,NA,75.51020408163265,NA
22603,Frederick County,VA,NA,79.25170068027211,NA
22902,Charlottesville city,VA,NA,31.292517006802722,NA
22903,Charlottesville city,VA,NA,NA,86.7132867132867
22980,Waynesboro city,VA,NA,NA,23.776223776223777
23221,Richmond city,VA,NA,NA,94.75524475524476
23225,Richmond city,VA,41.08108108108108,NA,NA
23505,Norfolk city,VA,NA,NA,32.16783216783217
23666,Hampton city,VA,NA,NA,33.91608391608392
23701,Portsmouth city,VA,NA,22.789115646258505,NA
23803,Petersburg city,VA,NA,NA,78.32167832167832
23836,Chesterfield County,VA,NA,NA,84.61538461538461
24101,Franklin County,VA,NA,NA,99.3006993006993
24228,Dickenson County,VA,79.45945945945945,NA,NA
24572,Amherst County,VA,NA,71.08843537414967,NA
98012,Snohomish County,WA,NA,69.72789115646259,NA
98052,King County,WA,NA,21.08843537414966,NA
98144,King County,WA,29.72972972972973,NA,NA
98198,King County,WA,NA,58.16326530612245,NA
98257,Skagit County,WA,NA,NA,75.52447552447552
98282,Island County,WA,NA,39.455782312925166,NA
98312,Kitsap County,WA,NA,55.44217687074829,NA
98329,Pierce County,WA,68.10810810810811,NA,NA
98367,Kitsap County,WA,NA,NA,71.32867132867133
98390,Pierce County,WA,68.64864864864865,NA,NA
98406,Pierce County,WA,76.75675675675676,NA,NA
98499,Pierce County,WA,NA,NA,68.18181818181817
98501,Thurston County,WA,NA,81.29251700680273,NA
98632,Cowlitz County,WA,NA,NA,3.146853146853147
98661,Clark County,WA,NA,NA,37.06293706293706
98663,Clark County,WA,NA,91.83673469387756,NA
98664,Clark County,WA,NA,NA,91.6083916083916
98802,Douglas County,WA,NA,NA,50
98922,Kittitas County,WA,NA,NA,77.27272727272727
98951,Yakima County,WA,NA,NA,81.81818181818183
99205,Spokane County,WA,NA,47.27891156462585,NA
99337,Benton County,WA,NA,NA,8.741258741258742
20001,District of Columbia,DC,NA,17.006802721088434,NA
20016,District of Columbia,DC,65.4054054054054,NA,NA
20018,District of Columbia,DC,NA,24.149659863945576,NA
25309,Kanawha County,WV,NA,51.70068027210885,NA
25438,Jefferson County,WV,NA,90.81632653061224,NA
25701,Cabell County,WV,NA,48.63945578231292,NA
26426,Harrison County,WV,NA,NA,83.21678321678321
26505,Monongalia County,WV,NA,34.01360544217687,NA
53121,Walworth County,WI,NA,59.863945578231295,NA
53128,Walworth County,WI,NA,77.21088435374149,NA
53210,Milwaukee County,WI,11.351351351351353,NA,NA
53215,Milwaukee County,WI,5.9459459459459465,NA,NA
53218,Milwaukee County,WI,NA,NA,35.31468531468531
53406,Racine County,WI,NA,NA,36.01398601398601
53534,Rock County,WI,54.054054054054056,NA,NA
53548,Rock County,WI,NA,NA,53.84615384615385
53566,Green County,WI,80,NA,NA
53821,Crawford County,WI,NA,85.37414965986395,NA
54024,Polk County,WI,NA,NA,98.95104895104895
54143,Marinette County,WI,NA,NA,77.62237762237763
54166,Shawano County,WI,NA,NA,45.45454545454545
54170,Outagamie County,WI,100,NA,NA
54311,Brown County,WI,NA,25.170068027210885,NA
54401,Marathon County,WI,NA,70.40816326530613,NA
54403,Marathon County,WI,NA,NA,12.937062937062937
54455,Marathon County,WI,NA,58.843537414965986,NA
54481,Portage County,WI,NA,NA,62.23776223776224
54601,La Crosse County,WI,NA,1.3605442176870748,24.825174825174827
54615,Jackson County,WI,NA,67.00680272108843,NA
54650,La Crosse County,WI,NA,63.94557823129252,NA
54660,Monroe County,WI,44.86486486486487,NA,NA
54728,Barron County,WI,NA,NA,97.2027972027972
54837,Polk County,WI,NA,NA,76.57342657342657
54843,Sawyer County,WI,NA,NA,97.55244755244755
