ZipCode,county,state,Adult,Retirement
35211,Jefferson County,AL,NA,25
35405,Tuscaloosa County,AL,8.31758034026465,NA
35603,Morgan County,AL,17.391304347826086,NA
35611,Limestone County,AL,NA,27.232142857142854
35630,Lauderdale County,AL,31.190926275992435,NA
35634,Lauderdale County,AL,87.71266540642722,NA
35956,Etowah County,AL,80.52930056710775,NA
36271,Calhoun County,AL,89.98109640831758,NA
36352,Houston County,AL,NA,98.21428571428571
36477,Geneva County,AL,96.59735349716446,NA
36502,Escambia County,AL,46.880907372400756,NA
36801,Lee County,AL,NA,70.53571428571429
99507,Anchorage Municipality,AK,33.2703213610586,NA
85007,Maricopa County,AZ,NA,39.285714285714285
85022,Maricopa County,AZ,21.73913043478261,70.98214285714286
85023,Maricopa County,AZ,28.166351606805296,NA
85040,Maricopa County,AZ,20.982986767485823,NA
85053,Maricopa County,AZ,48.77126654064272,NA
85131,Pinal County,AZ,93.19470699432893,NA
85251,Maricopa County,AZ,NA,59.82142857142857
85260,Maricopa County,AZ,67.48582230623819,NA
85621,Santa Cruz County,AZ,48.01512287334593,NA
85712,Pima County,AZ,NA,51.78571428571429
85713,Pima County,AZ,NA,6.696428571428571
85714,Pima County,AZ,82.41965973534971,NA
85746,Pima County,AZ,43.85633270321361,NA
86426,Mohave County,AZ,81.66351606805293,NA
71753,Columbia County,AR,68.24196597353497,NA
72007,Lonoke County,AR,92.06049149338375,NA
72010,White County,AR,NA,85.71428571428571
72143,White County,AR,38.752362948960304,NA
72437,Craighead County,AR,100,NA
72450,Greene County,AR,21.361058601134218,NA
72501,Independence County,AR,33.64839319470699,NA
72704,Washington County,AR,81.28544423440454,NA
72712,Benton County,AR,51.417769376181475,NA
72958,Scott County,AR,75.23629489603024,NA
90007,Los Angeles County,CA,28.92249527410208,NA
90017,Los Angeles County,CA,95.65217391304348,NA
90019,Los Angeles County,CA,NA,29.017857142857146
90034,Los Angeles County,CA,46.502835538752365,NA
90222,Los Angeles County,CA,69.94328922495274,NA
90260,Los Angeles County,CA,78.26086956521739,NA
90277,Los Angeles County,CA,82.79773156899812,NA
90404,Los Angeles County,CA,NA,64.28571428571429
90501,Los Angeles County,CA,51.98487712665406,NA
91016,Los Angeles County,CA,93.95085066162571,NA
91307,Los Angeles County,CA,89.60302457466919,NA
91316,Los Angeles County,CA,NA,60.26785714285714
91331,Los Angeles County,CA,12.665406427221171,NA
91355,Los Angeles County,CA,72.77882797731569,NA
91367,Los Angeles County,CA,NA,83.03571428571429
91748,Los Angeles County,CA,70.51039697542532,NA
91762,San Bernardino County,CA,34.97164461247637,NA
91765,Los Angeles County,CA,NA,84.82142857142857
91768,Los Angeles County,CA,45.746691871455575,76.33928571428571
91950,San Diego County,CA,37.80718336483932,NA
92024,San Diego County,CA,NA,50.44642857142857
92111,San Diego County,CA,56.52173913043478,NA
92277,San Bernardino County,CA,74.48015122873346,NA
92395,San Bernardino County,CA,78.63894139886578,NA
92508,Riverside County,CA,NA,80.80357142857143
92557,Riverside County,CA,38.18525519848771,NA
92586,Riverside County,CA,81.47448015122873,NA
92612,Orange County,CA,74.85822306238185,NA
92691,Orange County,CA,55.009451795841215,NA
92704,Orange County,CA,32.70321361058601,NA
93036,Ventura County,CA,NA,57.58928571428571
93277,Tulare County,CA,25.708884688090738,NA
93312,Kern County,CA,40.831758034026464,NA
93454,Santa Barbara County,CA,30.812854442344044,NA
93611,Fresno County,CA,38.9413988657845,NA
93955,Monterey County,CA,41.02079395085066,NA
94043,Santa Clara County,CA,76.74858223062382,NA
94102,San Francisco County,CA,8.128544423440454,NA
94110,San Francisco County,CA,NA,65.625
94111,San Francisco County,CA,98.48771266540642,NA
94114,San Francisco County,CA,51.03969754253308,NA
94124,San Francisco County,CA,25.14177693761815,NA
94533,Solano County,CA,23.629489603024574,NA
94544,Alameda County,CA,19.47069943289225,NA
94561,Contra Costa County,CA,85.63327032136105,NA
94587,Alameda County,CA,NA,21.428571428571427
94609,Alameda County,CA,87.33459357277883,NA
94621,Alameda County,CA,31.947069943289225,NA
95356,Stanislaus County,CA,43.47826086956522,NA
95360,Stanislaus County,CA,84.12098298676749,NA
95961,Yuba County,CA,47.44801512287334,91.07142857142857
95966,Butte County,CA,59.35727788279773,NA
80003,Jefferson County,CO,47.82608695652174,NA
80010,Arapahoe County,CO,20.226843100189036,NA
80112,Arapahoe County,CO,56.14366729678639,NA
80220,Denver County,CO,34.215500945179585,NA
80233,Adams County,CO,NA,95.98214285714286
80504,Boulder County,CO,32.136105860113425,NA
80524,Larimer County,CO,NA,30.80357142857143
80917,El Paso County,CO,NA,61.60714285714286
81120,Conejos County,CO,99.24385633270322,NA
81625,Moffat County,CO,41.965973534971646,NA
06040,Hartford County,CT,10.58601134215501,NA
06234,Windham County,CT,65.59546313799622,NA
06450,New Haven County,CT,NA,10.714285714285714
06514,New Haven County,CT,36.10586011342155,NA
06516,New Haven County,CT,NA,24.553571428571427
06518,New Haven County,CT,85.25519848771268,NA
06606,Fairfield County,CT,19.092627599243855,NA
06786,Litchfield County,CT,NA,95.08928571428571
06825,Fairfield County,CT,85.44423440453687,NA
06851,Fairfield County,CT,60.86956521739131,NA
19701,New Castle County,DE,NA,16.071428571428573
19720,New Castle County,DE,1.890359168241966,NA
19805,New Castle County,DE,18.147448015122876,NA
19901,Kent County,DE,18.90359168241966,NA
19963,Sussex County,DE,35.53875236294896,NA
32112,Putnam County,FL,NA,87.94642857142857
32206,Duval County,FL,73.15689981096408,NA
32208,Duval County,FL,1.1342155009451798,NA
32217,Duval County,FL,NA,52.67857142857143
32244,Duval County,FL,5.103969754253308,NA
32256,Duval County,FL,32.514177693761816,NA
32405,Bay County,FL,NA,34.82142857142857
32455,Walton County,FL,86.20037807183365,NA
32459,Walton County,FL,67.10775047258979,NA
32526,Escambia County,FL,14.933837429111533,NA
32535,Escambia County,FL,80.15122873345936,NA
32570,Santa Rosa County,FL,NA,3.125
32763,Volusia County,FL,86.38941398865785,NA
32837,Orange County,FL,21.928166351606805,NA
32967,Indian River County,FL,50.85066162570888,NA
33012,Miami-Dade County,FL,46.69187145557656,NA
33027,Broward County,FL,42.15500945179584,NA
33125,Miami-Dade County,FL,47.25897920604915,NA
33126,Miami-Dade County,FL,89.22495274102079,NA
33144,Miami-Dade County,FL,85.06616257088847,NA
33161,Miami-Dade County,FL,NA,54.91071428571429
33184,Miami-Dade County,FL,79.20604914933837,NA
33309,Broward County,FL,60.113421550094515,NA
33418,Palm Beach County,FL,56.52173913043478,71.875
33428,Palm Beach County,FL,37.24007561436673,NA
33567,Hillsborough County,FL,77.31568998109641,NA
33584,Hillsborough County,FL,NA,75.44642857142857
33615,Hillsborough County,FL,NA,37.94642857142857
33619,Hillsborough County,FL,36.672967863894144,NA
33707,Pinellas County,FL,NA,36.607142857142854
33884,Polk County,FL,61.62570888468809,NA
33931,Lee County,FL,NA,72.32142857142857
34202,Manatee County,FL,69.56521739130434,NA
34242,Sarasota County,FL,98.29867674858222,NA
34243,Manatee County,FL,NA,26.339285714285715
34481,Marion County,FL,75.99243856332704,NA
34695,Pinellas County,FL,75.61436672967864,NA
34736,Lake County,FL,76.18147448015122,NA
30025,Walton County,GA,79.01701323251417,NA
30028,Forsyth County,GA,61.247637051039696,60.71428571428571
30087,DeKalb County,GA,86.76748582230623,NA
30132,Paulding County,GA,NA,43.75
30157,Paulding County,GA,26.84310018903592,NA
30188,Cherokee County,GA,NA,13.839285714285715
30248,Henry County,GA,60.49149338374291,NA
30260,Clayton County,GA,73.53497164461248,NA
30281,Henry County,GA,26.46502835538752,NA
30293,Meriwether County,GA,98.86578449905483,NA
30311,Fulton County,GA,16.446124763705104,NA
30337,Fulton County,GA,NA,88.83928571428571
30401,Emanuel County,GA,NA,72.76785714285714
31014,Bleckley County,GA,NA,79.91071428571429
31082,Washington County,GA,88.09073724007561,NA
31088,Houston County,GA,16.6351606805293,NA
31211,Bibb County,GA,74.66918714555766,NA
31411,Chatham County,GA,NA,93.75
31601,Lowndes County,GA,NA,42.857142857142854
31904,Muscogee County,GA,31.568998109640834,NA
39842,Terrell County,GA,67.67485822306239,NA
96701,Honolulu County,HI,NA,16.964285714285715
96813,Honolulu County,HI,33.83742911153119,NA
96819,Honolulu County,HI,16.824196597353495,NA
83204,Bannock County,ID,NA,67.41071428571429
83501,Nez Perce County,ID,NA,9.375
83661,Payette County,ID,NA,75
83714,Ada County,ID,NA,55.80357142857143
60062,Cook County,IL,NA,58.48214285714286
60067,Cook County,IL,46.12476370510397,NA
60089,Lake County,IL,42.15500945179584,NA
60107,Cook County,IL,53.875236294896034,45.089285714285715
60153,Cook County,IL,72.4007561436673,NA
60174,Kane County,IL,NA,44.19642857142857
60187,DuPage County,IL,39.130434782608695,NA
60438,Cook County,IL,NA,44.642857142857146
60440,Will County,IL,21.550094517958414,NA
60450,Grundy County,IL,NA,16.517857142857142
60484,Will County,IL,97.54253308128544,NA
60502,DuPage County,IL,NA,78.125
60538,Kendall County,IL,NA,56.25
60608,Cook County,IL,40.07561436672968,NA
60615,Cook County,IL,NA,15.625
60618,Cook County,IL,8.88468809073724,NA
60631,Cook County,IL,NA,54.46428571428571
60632,Cook County,IL,NA,33.92857142857143
60634,Cook County,IL,10.396975425330812,NA
60638,Cook County,IL,9.45179584120983,NA
60651,Cook County,IL,NA,6.25
61068,Ogle County,IL,NA,83.92857142857143
61102,Winnebago County,IL,60.49149338374291,NA
61109,Winnebago County,IL,77.882797731569,NA
61873,Champaign County,IL,99.62192816635161,NA
62010,Madison County,IL,NA,91.51785714285714
62341,Hancock County,IL,99.05482041587902,NA
62526,Macon County,IL,12.476370510396976,NA
62859,Hamilton County,IL,91.11531190926276,NA
46012,Madison County,IN,NA,20.535714285714285
46016,Madison County,IN,65.78449905482042,NA
46163,Hancock County,IN,88.468809073724,NA
46226,Marion County,IN,12.854442344045369,NA
46303,Lake County,IN,48.39319470699433,NA
46319,Lake County,IN,27.599243856332706,NA
46341,Porter County,IN,65.02835538752363,NA
46342,Lake County,IN,25.51984877126654,NA
46356,Lake County,IN,31.379962192816635,NA
46783,Huntington County,IN,86.95652173913044,NA
46806,Allen County,IN,27.788279773156898,NA
46932,Cass County,IN,95.08506616257088,NA
47586,Perry County,IN,70.13232514177695,NA
50401,Cerro Gordo County,IA,NA,8.035714285714286
50644,Buchanan County,IA,NA,82.14285714285714
52404,Linn County,IA,9.073724007561438,NA
52405,Linn County,IA,NA,48.214285714285715
67107,McPherson County,KS,NA,100
67530,Barton County,KS,71.07750472589792,NA
40213,Jefferson County,KY,36.29489603024575,NA
40214,Jefferson County,KY,6.994328922495274,NA
40361,Bourbon County,KY,37.42911153119093,NA
40403,Madison County,KY,58.034026465028354,NA
40444,Garrard County,KY,61.43667296786389,NA
40515,Fayette County,KY,52.74102079395085,NA
40701,Whitley County,KY,11.342155009451796,NA
41015,Kenton County,KY,27.22117202268431,NA
41048,Boone County,KY,84.49905482041588,NA
41562,Pike County,KY,96.40831758034027,NA
42001,McCracken County,KY,30.056710775047257,NA
42071,Calloway County,KY,43.667296786389414,NA
42141,Barren County,KY,43.28922495274102,NA
42206,Logan County,KY,94.1398865784499,NA
42347,Ohio County,KY,78.82797731568998,NA
70062,Jefferson Parish,LA,20.604914933837428,NA
70127,Orleans Parish,LA,NA,74.10714285714286
70128,Orleans Parish,LA,94.3289224952741,NA
70359,Terrebonne Parish,LA,NA,79.46428571428571
70438,Washington Parish,LA,13.799621928166353,NA
70443,Tangipahoa Parish,LA,25.330812854442343,NA
70517,St. Martin Parish,LA,82.98676748582231,NA
70601,Calcasieu Parish,LA,13.42155009451796,NA
70605,Calcasieu Parish,LA,19.659735349716446,NA
70663,Calcasieu Parish,LA,8.5066162570888455,NA
70764,Iberville Parish,LA,34.215500945179585,NA
70802,East Baton Rouge Parish,LA,5.671077504725898,NA
70814,East Baton Rouge Parish,LA,35.916824196597354,NA
71037,Bossier Parish,LA,19.281663516068054,NA
71109,Caddo Parish,LA,6.238185255198488,NA
71118,Caddo Parish,LA,22.117202268431,NA
71201,Ouachita Parish,LA,NA,53.57142857142857
71328,Rapides Parish,LA,63.51606805293005,NA
71334,Concordia Parish,LA,71.07750472589792,NA
71343,Catahoula Parish,LA,90.54820415879017,NA
04103,Cumberland County,ME,22.495274102079396,NA
04915,Waldo County,ME,75.04725897920605,NA
20603,Charles County,MD,68.80907372400756,NA
20685,Calvert County,MD,95.27410207939508,NA
20695,Charles County,MD,95.46313799621929,NA
20744,Prince George's County,MD,48.77126654064272,NA
20855,Montgomery County,MD,97.35349716446125,NA
21014,Harford County,MD,42.911153119092624,NA
21042,Howard County,MD,70.69943289224952,NA
21146,Anne Arundel County,MD,70.32136105860114,NA
21215,Baltimore city,MD,7.9395085066162565,NA
21217,Baltimore city,MD,NA,17.410714285714285
21218,Baltimore city,MD,10.01890359168242,NA
21771,Frederick County,MD,65.97353497164461,NA
01040,Hampden County,MA,4.914933837429111,NA
01226,Berkshire County,MA,79.39508506616258,NA
01603,Worcester County,MA,NA,18.75
01742,Middlesex County,MA,56.33270321361059,NA
01860,Essex County,MA,84.31001890359168,NA
01902,Essex County,MA,0.3780718336483932,NA
01930,Essex County,MA,NA,0.4464285714285714
01982,Essex County,MA,76.37051039697542,NA
02026,Norfolk County,MA,3.9697542533081283,NA
02109,Suffolk County,MA,97.16446124763705,NA
02115,Suffolk County,MA,NA,98.66071428571429
02118,Suffolk County,MA,13.988657844990549,NA
02119,Suffolk County,MA,0.1890359168241966,NA
02124,Suffolk County,MA,0,NA
02127,Suffolk County,MA,NA,4.464285714285714
02131,Suffolk County,MA,11.531190926275993,NA
02333,Plymouth County,MA,31.758034026465026,NA
02347,Plymouth County,MA,NA,89.73214285714286
02474,Middlesex County,MA,92.62759924385632,NA
02718,Bristol County,MA,NA,99.55357142857143
02721,Bristol County,MA,0.5671077504725899,NA
02762,Norfolk County,MA,58.41209829867675,NA
48009,Oakland County,MI,54.63137996219282,NA
48062,Macomb County,MI,85.82230623818525,NA
48103,Washtenaw County,MI,NA,0.8928571428571428
48122,Wayne County,MI,83.1758034026465,NA
48134,Wayne County,MI,NA,49.55357142857143
48135,Wayne County,MI,23.062381852551987,NA
48146,Wayne County,MI,NA,12.946428571428573
48186,Wayne County,MI,5.482041587901701,NA
48201,Wayne County,MI,40.45368620037807,NA
48238,Wayne County,MI,NA,14.285714285714285
48302,Oakland County,MI,72.2117202268431,NA
48304,Oakland County,MI,88.65784499054821,NA
48306,Oakland County,MI,NA,21.875
48314,Macomb County,MI,44.801512287334596,43.30357142857143
48336,Oakland County,MI,32.32514177693761,NA
48382,Oakland County,MI,NA,41.517857142857146
48503,Genesee County,MI,19.848771266540645,NA
48604,Saginaw County,MI,58.79017013232514,NA
48801,Gratiot County,MI,NA,58.03571428571429
48867,Shiawassee County,MI,7.372400756143667,NA
49001,Kalamazoo County,MI,22.306238185255197,NA
49006,Kalamazoo County,MI,53.119092627599244,NA
49015,Calhoun County,MI,17.20226843100189,34.375
49022,Berrien County,MI,NA,10.267857142857142
49037,Calhoun County,MI,15.500945179584122,NA
49042,St. Joseph County,MI,99.4328922495274,NA
49047,Cass County,MI,54.82041587901701,NA
49112,Cass County,MI,90.35916824196597,NA
49417,Ottawa County,MI,NA,37.5
49418,Kent County,MI,NA,30.357142857142854
49442,Muskegon County,MI,2.6465028355387523,NA
49456,Ottawa County,MI,77.12665406427222,NA
49457,Muskegon County,MI,73.91304347826086,NA
49546,Kent County,MI,39.31947069943289,NA
49685,Grand Traverse County,MI,55.3875236294896,NA
55014,Anoka County,MN,65.40642722117202,NA
55076,Dakota County,MN,NA,62.05357142857143
55118,Dakota County,MN,53.30812854442344,NA
55128,Washington County,MN,NA,61.16071428571429
55311,Hennepin County,MN,NA,73.21428571428571
55406,Hennepin County,MN,24.763705103969755,NA
55409,Hennepin County,MN,75.80340264650283,NA
55431,Hennepin County,MN,63.89413988657845,NA
55447,Hennepin County,MN,NA,65.17857142857143
55448,Anoka County,MN,43.10018903591683,NA
55744,Itasca County,MN,49.14933837429111,NA
55807,St. Louis County,MN,79.77315689981096,NA
55906,Olmsted County,MN,NA,73.66071428571429
55963,Goodhue County,MN,93.00567107750473,NA
56156,Rock County,MN,91.87145557655954,NA
56301,Stearns County,MN,46.12476370510397,NA
56345,Morrison County,MN,64.461247637051045,NA
56601,Beltrami County,MN,NA,1.3392857142857142
38671,DeSoto County,MS,32.89224952741021,NA
39194,Yazoo County,MS,54.06427221172023,NA
39206,Hinds County,MS,NA,53.125
39428,Covington County,MS,NA,90.17857142857143
39702,Lowndes County,MS,38.56332703213611,NA
39730,Monroe County,MS,79.58412098298678,NA
63089,Franklin County,MO,91.49338374291115,NA
63116,St. Louis city,MO,35.34971644612476,NA
63122,St. Louis County,MO,60.30245746691871,NA
63125,St. Louis County,MO,44.99054820415879,NA
63303,St. Charles County,MO,NA,9.821428571428571
63841,Stoddard County,MO,53.497164461247635,NA
63901,Butler County,MO,14.177693761814744,NA
64133,Jackson County,MO,3.402646502835539,NA
64151,Platte County,MO,66.1625708884688,NA
64850,Newton County,MO,49.33837429111531,NA
65066,Gasconade County,MO,NA,96.42857142857143
65084,Morgan County,MO,87.90170132325142,NA
65355,Benton County,MO,81.85255198487712,NA
65803,Greene County,MO,10.207939508506616,NA
59405,Cascade County,MT,29.489603024574667,NA
59602,Lewis and Clark County,MT,84.87712665406427,NA
59802,Missoula County,MT,86.57844990548205,NA
68152,Douglas County,NE,NA,90.625
68507,Lancaster County,NE,91.30434782608695,NA
68801,Hall County,NE,86.01134215500946,NA
03220,Belknap County,NH,89.98109640831758,NA
03773,Sullivan County,NH,96.78638941398866,NA
07031,Bergen County,NJ,93.57277882797732,NA
07040,Essex County,NJ,NA,68.75
07060,Union County,NJ,NA,22.321428571428573
07106,Essex County,NJ,4.158790170132325,NA
07203,Union County,NJ,NA,62.5
07208,Union County,NJ,14.555765595463138,NA
07656,Bergen County,NJ,92.43856332703214,NA
07663,Bergen County,NJ,62.003780718336486,NA
07733,Monmouth County,NJ,NA,79.01785714285714
08021,Camden County,NJ,57.84499054820416,NA
08053,Burlington County,NJ,NA,28.57142857142857
08103,Camden County,NJ,3.780718336483932,NA
08609,Mercer County,NJ,89.79206049149339,NA
08830,Middlesex County,NJ,97.92060491493385,NA
87120,Bernalillo County,NM,34.78260869565217,NA
87505,Santa Fe County,NM,4.536862003780719,NA
87544,Los Alamos County,NM,63.70510396975425,NA
88130,Roosevelt County,NM,68.62003780718337,NA
88260,Lea County,NM,74.10207939508507,NA
88345,Lincoln County,NM,NA,87.05357142857143
10025,New York County,NY,26.08695652173913,NA
10029,New York County,NY,4.3478260869565215,NA
10037,New York County,NY,39.88657844990548,NA
10038,New York County,NY,NA,46.875
10462,Bronx County,NY,5.8601134215500945,29.910714285714285
10468,Bronx County,NY,NA,1.7857142857142856
10543,Westchester County,NY,70.69943289224952,NA
10705,Westchester County,NY,9.262759924385634,NA
11204,Kings County,NY,NA,38.392857142857146
11212,Kings County,NY,0.945179584120983,NA
11221,Kings County,NY,17.580340264650285,NA
11365,Queens County,NY,NA,22.321428571428573
11378,Queens County,NY,64.83931947069944,NA
11417,Queens County,NY,52.17391304347826,NA
11590,Nassau County,NY,88.27977315689981,NA
12095,Fulton County,NY,76.93761814744802,37.05357142857143
12205,Albany County,NY,55.576559546313796,NA
12302,Schenectady County,NY,NA,24.107142857142858
12303,Schenectady County,NY,39.50850661625709,NA
12307,Schenectady County,NY,93.38374291115312,NA
12953,Franklin County,NY,69.37618147448015,NA
13021,Cayuga County,NY,2.4574669187145557,14.732142857142858
13208,Onondaga County,NY,13.23251417769376,NA
13209,Onondaga County,NY,NA,77.23214285714286
13219,Onondaga County,NY,58.97920604914933,NA
13438,Oneida County,NY,NA,94.64285714285714
13732,Tioga County,NY,48.20415879017013,NA
13753,Delaware County,NY,67.10775047258979,NA
13905,Broome County,NY,27.410207939508506,NA
14211,Erie County,NY,NA,12.5
14213,Erie County,NY,53.68620037807184,NA
14222,Erie County,NY,57.655954631379956,NA
14424,Ontario County,NY,17.01323251417769,NA
14450,Monroe County,NY,1.7013232514177694,NA
14468,Monroe County,NY,NA,19.196428571428573
14485,Livingston County,NY,82.6086956521739,NA
14522,Wayne County,NY,NA,31.69642857142857
14613,Monroe County,NY,12.098298676748582,NA
14845,Chemung County,NY,NA,32.142857142857146
14850,Tompkins County,NY,4.725897920604915,NA
27012,Forsyth County,NC,30.623818525519848,NA
27127,Forsyth County,NC,NA,29.464285714285715
27284,Forsyth County,NC,6.61625708884688,NA
27405,Guilford County,NC,10.964083175803403,NA
27410,Guilford County,NC,NA,11.160714285714286
27542,Johnston County,NC,72.0226843100189,NA
27560,Wake County,NC,92.24952741020795,NA
27565,Granville County,NC,22.68431001890359,NA
27587,Wake County,NC,56.89981096408317,NA
27703,Durham County,NC,NA,8.928571428571429
27707,Durham County,NC,NA,4.910714285714286
27834,Pitt County,NC,7.183364839319471,NA
27870,Halifax County,NC,22.873345935727787,NA
28079,Union County,NC,50.472589792060496,NA
28083,Cabarrus County,NC,29.678638941398866,NA
28110,Union County,NC,NA,13.392857142857142
28147,Rowan County,NC,NA,55.35714285714286
28164,Gaston County,NC,NA,80.35714285714286
28210,Mecklenburg County,NC,NA,63.39285714285714
28214,Mecklenburg County,NC,29.300567107750474,NA
28215,Mecklenburg County,NC,66.351606805293,NA
28405,New Hanover County,NC,35.16068052930057,NA
28425,Pender County,NC,NA,66.51785714285714
28712,Transylvania County,NC,52.55198487712666,NA
28786,Haywood County,NC,36.48393194706994,NA
28906,Cherokee County,NC,NA,32.589285714285715
58201,Grand Forks County,ND,30.812854442344044,NA
58601,Stark County,ND,45.55765595463138,NA
43015,Delaware County,OH,15.122873345935728,NA
43130,Fairfield County,OH,26.08695652173913,NA
43140,Madison County,OH,37.99621928166352,NA
43201,Franklin County,OH,49.7164461247637,NA
43206,Franklin County,OH,13.043478260869565,NA
43229,Franklin County,OH,5.8601134215500945,NA
43302,Marion County,OH,1.3232514177693762,NA
43506,Williams County,OH,24.38563327032136,NA
43512,Defiance County,OH,NA,2.6785714285714284
43528,Lucas County,OH,41.77693761814745,NA
43605,Lucas County,OH,16.257088846880908,NA
43612,Lucas County,OH,3.5916824196597354,NA
43793,Monroe County,OH,96.21928166351607,NA
43844,Coshocton County,OH,94.7069943289225,NA
43920,Columbiana County,OH,34.593572778827976,NA
43935,Belmont County,OH,NA,88.39285714285714
44001,Lorain County,OH,62.75992438563327,NA
44035,Lorain County,OH,NA,0
44041,Ashtabula County,OH,45.36862003780718,NA
44057,Lake County,OH,NA,59.375
44108,Cuyahoga County,OH,17.76937618147448,NA
44109,Cuyahoga County,OH,0.7561436672967864,NA
44113,Cuyahoga County,OH,7.750472589792061,NA
44122,Cuyahoga County,OH,NA,2.232142857142857
44125,Cuyahoga County,OH,NA,7.5892857142857135
44135,Cuyahoga County,OH,2.0793950850661624,NA
44145,Cuyahoga County,OH,NA,31.25
44202,Portage County,OH,66.72967863894141,NA
44230,Wayne County,OH,NA,83.48214285714286
44241,Portage County,OH,NA,62.94642857142857
44266,Portage County,OH,NA,3.571428571428571
44460,Columbiana County,OH,NA,5.803571428571429
44515,Mahoning County,OH,9.829867674858223,NA
44641,Stark County,OH,67.86389413988658,NA
44820,Crawford County,OH,57.27788279773157,NA
44904,Richland County,OH,80.90737240075615,NA
44907,Richland County,OH,NA,35.714285714285715
45014,Butler County,OH,15.311909262759924,NA
45140,Clermont County,OH,NA,12.053571428571429
45237,Hamilton County,OH,62.948960302457465,NA
45238,Hamilton County,OH,14.366729678638942,NA
45239,Hamilton County,OH,68.05293005671076,NA
45244,Hamilton County,OH,NA,51.33928571428571
45245,Clermont County,OH,63.13799621928167,NA
45251,Hamilton County,OH,54.25330812854442,NA
45308,Darke County,OH,97.73156899810964,NA
45365,Shelby County,OH,NA,54.01785714285714
45373,Miami County,OH,6.427221172022684,NA
45406,Montgomery County,OH,15.879017013232513,NA
45417,Montgomery County,OH,8.695652173913043,NA
45648,Scioto County,OH,24.574669187145556,NA
45661,Pike County,OH,49.9054820415879,NA
45690,Pike County,OH,17.958412098298677,NA
45694,Scioto County,OH,28.733459357277884,NA
45807,Allen County,OH,NA,69.19642857142857
45822,Mercer County,OH,38.37429111531191,NA
45891,Van Wert County,OH,NA,25.892857142857146
73068,Cleveland County,OK,71.45557655954632,NA
73075,Garvin County,OK,87.52362948960302,NA
73078,Canadian County,OK,92.81663516068053,NA
73111,Oklahoma County,OK,NA,69.64285714285714
74010,Creek County,OK,89.03591682419659,NA
74044,Creek County,OK,80.71833648393195,NA
74055,Tulsa County,OK,NA,33.035714285714285
74873,Pottawatomie County,OK,59.92438563327032,NA
97051,Columbia County,OR,62.57088846880907,NA
97056,Columbia County,OR,NA,86.60714285714286
97058,Wasco County,OR,42.53308128544423,NA
97132,Yamhill County,OR,40.26465028355388,NA
97233,Multnomah County,OR,NA,40.625
97267,Clackamas County,OR,36.86200378071834,NA
97301,Marion County,OR,NA,25.44642857142857
97305,Marion County,OR,NA,56.69642857142857
97321,Linn County,OR,62.19281663516069,NA
97415,Curry County,OR,49.33837429111531,NA
97470,Douglas County,OR,NA,27.67857142857143
97526,Josephine County,OR,NA,76.78571428571429
97603,Klamath County,OR,20.982986767485823,NA
97801,Umatilla County,OR,35.72778827977316,NA
97838,Umatilla County,OR,18.525519848771268,NA
97850,Union County,OR,41.58790170132325,NA
15021,Washington County,PA,NA,94.19642857142857
15068,Westmoreland County,PA,20.415879017013232,NA
15136,Allegheny County,PA,30.245746691871457,NA
15212,Allegheny County,PA,24.196597353497165,NA
15220,Allegheny County,PA,NA,78.57142857142857
15222,Allegheny County,PA,NA,93.30357142857143
15317,Washington County,PA,NA,7.142857142857142
15320,Greene County,PA,75.42533081285444,NA
15601,Westmoreland County,PA,3.213610586011342,NA
15650,Westmoreland County,PA,15.689981096408317,15.178571428571427
15825,Jefferson County,PA,47.06994328922495,NA
15963,Somerset County,PA,68.43100189035917,NA
16001,Butler County,PA,2.835538752362949,NA
16146,Mercer County,PA,23.440453686200378,NA
16335,Crawford County,PA,10.775047258979207,NA
16502,Erie County,PA,45.17958412098299,NA
17038,Lebanon County,PA,NA,92.41071428571429
17050,Cumberland County,PA,NA,8.482142857142858
17268,Franklin County,PA,18.714555765595463,NA
17543,Lancaster County,PA,23.81852551984877,NA
17752,Lycoming County,PA,NA,97.76785714285714
18104,Lehigh County,PA,14.744801512287333,NA
18202,Luzerne County,PA,50.0945179584121,NA
18505,Lackawanna County,PA,44.61247637051039,NA
18801,Susquehanna County,PA,80.34026465028356,NA
19014,Delaware County,PA,NA,47.32142857142857
19082,Delaware County,PA,11.153119092627598,NA
19087,Chester County,PA,NA,66.07142857142857
19103,Philadelphia County,PA,NA,23.660714285714285
19106,Philadelphia County,PA,NA,95.53571428571429
19111,Philadelphia County,PA,3.0245746691871456,NA
19116,Philadelphia County,PA,28.544423440453688,NA
19120,Philadelphia County,PA,2.2684310018903595,NA
19135,Philadelphia County,PA,15.879017013232513,NA
19140,Philadelphia County,PA,1.5122873345935728,NA
19149,Philadelphia County,PA,7.561436672967864,NA
19343,Chester County,PA,95.84120982986768,NA
19518,Berks County,PA,79.96219281663515,NA
19543,Berks County,PA,NA,97.32142857142857
19602,Berks County,PA,11.909262759924385,NA
02891,Washington County,RI,59.168241965973536,NA
29102,Clarendon County,SC,58.22306238185255,NA
29201,Richland County,SC,98.10964083175804,NA
29445,Berkeley County,SC,24.95274102079395,28.125
29464,Charleston County,SC,45.93572778827977,NA
29512,Marlboro County,SC,57.46691871455577,NA
29520,Chesterfield County,SC,78.0718336483932,NA
29615,Greenville County,SC,61.05860113421549,NA
29657,Pickens County,SC,51.22873345935728,NA
29673,Greenville County,SC,39.69754253308129,NA
29706,Chester County,SC,33.0812854442344,NA
29812,Barnwell County,SC,NA,85.26785714285714
37043,Montgomery County,TN,NA,20.982142857142858
37058,Stewart County,TN,90.92627599243856,NA
37148,Sumner County,TN,NA,50
37150,Macon County,TN,96.97542533081285,NA
37166,DeKalb County,TN,59.73534971644613,NA
37167,Rutherford County,TN,NA,26.339285714285715
37321,Rhea County,TN,29.111531190926275,NA
37322,Meigs County,TN,64.08317580340265,NA
37813,Hamblen County,TN,28.166351606805296,NA
37857,Hawkins County,TN,NA,46.42857142857143
38115,Shelby County,TN,23.251417769376182,NA
38128,Shelby County,TN,NA,40.625
38375,McNairy County,TN,83.7429111531191,NA
38464,Lawrence County,TN,NA,35.267857142857146
75007,Denton County,TX,50.2835538752363,NA
75022,Denton County,TX,81.09640831758034,NA
75056,Denton County,TX,NA,38.839285714285715
75087,Rockwall County,TX,98.67674858223062,NA
75137,Dallas County,TX,64.27221172022685,81.69642857142857
75148,Henderson County,TX,NA,89.28571428571429
75149,Dallas County,TX,20.03780718336484,NA
75169,Van Zandt County,TX,72.5897920604915,NA
75227,Dallas County,TX,NA,40.17857142857143
75232,Dallas County,TX,77.50472589792061,NA
75252,Collin County,TX,NA,63.83928571428571
75253,Dallas County,TX,66.91871455576559,NA
75287,Denton County,TX,42.722117202268436,NA
75501,Bowie County,TX,NA,23.214285714285715
75601,Gregg County,TX,94.89603024574669,NA
75602,Gregg County,TX,NA,75.89285714285714
75652,Rusk County,TX,71.83364839319471,NA
75765,Wood County,TX,NA,49.107142857142854
75904,Angelina County,TX,33.459357277882795,NA
75935,Shelby County,TX,78.44990548204159,NA
76028,Johnson County,TX,11.720226843100189,NA
76067,Palo Pinto County,TX,82.23062381852552,NA
76105,Tarrant County,TX,20.793950850661624,NA
76119,Tarrant County,TX,NA,5.357142857142857
76131,Tarrant County,TX,NA,69.64285714285714
76134,Tarrant County,TX,27.032136105860115,NA
76135,Tarrant County,TX,91.68241965973534,NA
76240,Cooke County,TX,41.209829867674856,NA
76266,Denton County,TX,NA,81.25
76306,Wichita County,TX,65.21739130434783,NA
76354,Wichita County,TX,82.04158790170132,NA
76541,Bell County,TX,47.63705103969754,48.660714285714285
76705,McLennan County,TX,18.336483931947072,NA
76712,McLennan County,TX,44.423440453686204,NA
76903,Tom Green County,TX,44.045368620037806,NA
77007,Harris County,TX,55.009451795841215,NA
77025,Harris County,TX,69.75425330812854,NA
77059,Harris County,TX,NA,68.30357142857143
77070,Harris County,TX,48.582230623818525,NA
77076,Harris County,TX,NA,74.55357142857143
77082,Harris County,TX,52.36294896030246,NA
77372,Montgomery County,TX,88.84688090737241,NA
77380,Montgomery County,TX,73.53497164461248,NA
77381,Montgomery County,TX,NA,41.517857142857146
77385,Montgomery County,TX,62.38185255198487,NA
77450,Harris County,TX,NA,18.303571428571427
77489,Fort Bend County,TX,30.434782608695656,NA
77523,Chambers County,TX,59.54631379962193,NA
77546,Galveston County,TX,25.89792060491493,NA
77551,Galveston County,TX,26.65406427221172,NA
77581,Brazoria County,TX,29.867674858223065,NA
77584,Brazoria County,TX,NA,19.642857142857142
77627,Jefferson County,TX,72.96786389413988,66.96428571428571
77640,Jefferson County,TX,61.81474480151229,NA
77703,Jefferson County,TX,73.34593572778829,NA
77706,Jefferson County,TX,NA,39.732142857142854
77845,Brazos County,TX,9.640831758034027,NA
78148,Bexar County,TX,87.14555765595463,NA
78155,Guadalupe County,TX,24.007561436672965,NA
78211,Bexar County,TX,NA,64.73214285714286
78220,Bexar County,TX,NA,77.67857142857143
78415,Nueces County,TX,NA,57.14285714285714
78574,Hidalgo County,TX,36.86200378071834,NA
78582,Starr County,TX,68.99810964083176,NA
78586,Cameron County,TX,NA,50.89285714285714
78676,Hays County,TX,NA,91.96428571428571
79720,Howard County,TX,54.25330812854442,NA
79904,El Paso County,TX,66.5406427221172,NA
79922,El Paso County,TX,89.413988657845,NA
79936,El Paso County,TX,NA,17.857142857142858
84025,Davis County,UT,NA,92.85714285714286
84111,Salt Lake County,UT,NA,84.375
84601,Utah County,UT,NA,87.5
05468,Chittenden County,VT,69.18714555765595,NA
20132,Loudoun County,VA,NA,96.875
22015,Fairfax County,VA,NA,52.23214285714286
22151,Fairfax County,VA,83.93194706994329,NA
22406,Stafford County,VA,84.68809073724007,NA
23072,Gloucester County,VA,77.6937618147448,NA
23113,Chesterfield County,VA,94.5179584120983,NA
23185,James City County,VA,37.42911153119093,NA
23222,Richmond city,VA,NA,33.482142857142854
23224,Richmond city,VA,NA,36.160714285714285
23451,Virginia Beach city,VA,NA,11.607142857142858
23453,Virginia Beach city,VA,NA,42.410714285714285
23456,Virginia Beach city,VA,NA,45.982142857142854
23503,Norfolk city,VA,50.472589792060496,NA
23704,Portsmouth city,VA,NA,58.92857142857143
24016,Roanoke city,VA,55.954631379962194,NA
24273,Norton city,VA,71.64461247637051,NA
24279,Wise County,VA,83.5538752362949,NA
98026,Snohomish County,WA,34.02646502835538,NA
98027,King County,WA,64.65028355387523,NA
98121,King County,WA,55.576559546313796,NA
98178,King County,WA,57.088846880907376,NA
98275,Snohomish County,WA,74.29111531190927,NA
98282,Island County,WA,NA,45.535714285714285
98422,Pierce County,WA,63.32703213610586,71.42857142857143
98445,Pierce County,WA,51.60680529300568,NA
98841,Okanogan County,WA,93.76181474480151,NA
99016,Spokane County,WA,NA,86.16071428571429
99208,Spokane County,WA,40.64272211720227,NA
99301,Franklin County,WA,58.60113421550095,4.017857142857143
99354,Benton County,WA,44.234404536862,NA
25705,Cabell County,WV,NA,20.089285714285715
25801,Raleigh County,WV,13.610586011342155,NA
25840,Fayette County,WV,NA,82.58928571428571
26155,Wetzel County,WV,NA,67.85714285714286
26170,Pleasants County,WV,90.73724007561437,NA
26205,Nicholas County,WV,NA,99.10714285714286
53066,Waukesha County,WI,41.39886578449906,NA
53072,Waukesha County,WI,NA,47.767857142857146
53186,Waukesha County,WI,27.977315689981097,NA
53214,Milwaukee County,WI,12.287334593572778,NA
53218,Milwaukee County,WI,6.805293005671078,NA
53402,Racine County,WI,5.293005671077505,NA
53719,Dane County,WI,83.36483931947069,NA
53910,Adams County,WI,95.84120982986768,NA
54143,Marinette County,WI,51.60680529300568,NA
54171,Oconto County,WI,99.8109640831758,NA
54501,Oneida County,WI,52.93005671077504,NA
54982,Waushara County,WI,76.55954631379961,NA
