ZipCode,county,state,Adult,Retirement,Geriatric
35244,Jefferson County,AL,NA,NA,55.45454545454545
35601,Morgan County,AL,19.795221843003414,21.935483870967744,NA
35603,Morgan County,AL,NA,41.612903225806456,NA
35763,Madison County,AL,NA,NA,70.45454545454545
35953,St. Clair County,AL,97.95221843003414,NA,NA
36092,Elmore County,AL,54.94880546075085,NA,NA
36116,Montgomery County,AL,NA,54.19354838709678,NA
36477,Geneva County,AL,NA,90.96774193548387,NA
36869,Russell County,AL,NA,64.51612903225806,NA
99501,Anchorage Municipality,AK,29.692832764505116,NA,NA
99508,Anchorage Municipality,AK,NA,NA,59.54545454545455
85006,Maricopa County,AZ,NA,78.38709677419354,NA
85027,Maricopa County,AZ,51.19453924914675,NA,NA
85029,Maricopa County,AZ,31.399317406143346,NA,NA
85041,Maricopa County,AZ,12.627986348122866,62.903225806451616,NA
85131,Pinal County,AZ,NA,75.48387096774194,NA
85281,Maricopa County,AZ,44.7098976109215,NA,NA
85296,Maricopa County,AZ,NA,83.22580645161291,NA
85301,Maricopa County,AZ,5.460750853242321,NA,NA
85338,Maricopa County,AZ,NA,49.354838709677416,NA
85339,Maricopa County,AZ,29.351535836177472,NA,NA
85345,Maricopa County,AZ,18.43003412969283,NA,NA
85350,Yuma County,AZ,NA,NA,74.54545454545455
85364,Yuma County,AZ,NA,4.193548387096775,NA
85616,Cochise County,AZ,NA,91.61290322580645,NA
85623,Pinal County,AZ,98.97610921501706,NA,NA
85706,Pima County,AZ,NA,11.612903225806452,NA
85711,Pima County,AZ,NA,NA,71.81818181818181
85713,Pima County,AZ,NA,12.258064516129032,NA
85719,Pima County,AZ,43.344709897610926,NA,NA
85739,Pinal County,AZ,NA,38.064516129032256,NA
85742,Pima County,AZ,NA,55.16129032258065,NA
85746,Pima County,AZ,NA,NA,49.09090909090909
85929,Navajo County,AZ,NA,NA,99.0909090909091
85935,Navajo County,AZ,NA,91.93548387096774,NA
86001,Coconino County,AZ,28.668941979522184,NA,NA
86025,Navajo County,AZ,94.53924914675767,NA,NA
86045,Coconino County,AZ,65.8703071672355,NA,NA
86047,Navajo County,AZ,44.36860068259386,NA,NA
86403,Mohave County,AZ,55.972696245733786,NA,NA
71603,Jefferson County,AR,75.42662116040955,NA,NA
72207,Pulaski County,AR,NA,NA,80.9090909090909
72210,Pulaski County,AR,NA,96.12903225806451,NA
72560,Stone County,AR,NA,NA,84.0909090909091
72703,Washington County,AR,83.61774744027304,NA,NA
72761,Benton County,AR,82.5938566552901,NA,NA
90008,Los Angeles County,CA,NA,77.09677419354838,NA
90027,Los Angeles County,CA,66.55290102389078,NA,NA
90242,Los Angeles County,CA,81.22866894197952,NA,NA
90712,Los Angeles County,CA,NA,54.83870967741935,NA
91406,Los Angeles County,CA,60.75085324232082,NA,NA
91763,San Bernardino County,CA,70.98976109215018,NA,NA
91902,San Diego County,CA,NA,NA,67.72727272727272
92020,San Diego County,CA,30.034129692832767,NA,NA
92101,San Diego County,CA,NA,NA,86.36363636363636
92103,San Diego County,CA,NA,52.25806451612903,NA
92105,San Diego County,CA,84.30034129692832,NA,NA
92201,Riverside County,CA,NA,72.90322580645162,NA
92211,Riverside County,CA,NA,86.12903225806451,NA
92260,Riverside County,CA,NA,18.70967741935484,NA
92345,San Bernardino County,CA,NA,22.258064516129032,NA
92557,Riverside County,CA,NA,53.5483870967742,NA
92595,Riverside County,CA,NA,66.12903225806451,NA
92663,Orange County,CA,NA,81.61290322580645,NA
92683,Orange County,CA,NA,NA,7.727272727272727
92692,Orange County,CA,NA,33.87096774193548,NA
93033,Ventura County,CA,49.14675767918089,NA,NA
93274,Tulare County,CA,NA,NA,31.818181818181817
93514,Inyo County,CA,NA,NA,58.18181818181818
93637,Madera County,CA,86.00682593856655,NA,NA
93722,Fresno County,CA,NA,NA,40
93726,Fresno County,CA,NA,NA,83.18181818181817
94066,San Mateo County,CA,NA,NA,15.909090909090908
94107,San Francisco County,CA,81.56996587030717,NA,NA
94109,San Francisco County,CA,96.9283276450512,NA,NA
94122,San Francisco County,CA,NA,NA,8.636363636363637
94519,Contra Costa County,CA,NA,83.87096774193549,NA
94558,Napa County,CA,NA,10,5
94563,Contra Costa County,CA,NA,80.96774193548387,NA
94606,Alameda County,CA,NA,85.80645161290322,NA
95008,Santa Clara County,CA,70.98976109215018,NA,NA
95112,Santa Clara County,CA,NA,47.41935483870968,NA
95240,San Joaquin County,CA,NA,NA,79.0909090909091
95383,Tuolumne County,CA,NA,85.16129032258064,NA
95403,Sonoma County,CA,NA,NA,21.818181818181817
95409,Sonoma County,CA,NA,52.58064516129032,NA
95476,Sonoma County,CA,NA,44.83870967741935,NA
95670,Sacramento County,CA,44.027303754266214,NA,NA
95682,El Dorado County,CA,NA,NA,29.545454545454547
95688,Solano County,CA,73.37883959044369,NA,NA
95823,Sacramento County,CA,NA,28.70967741935484,NA
95833,Sacramento County,CA,NA,NA,69.0909090909091
95948,Butte County,CA,NA,NA,61.36363636363637
95954,Butte County,CA,NA,43.87096774193549,NA
95969,Butte County,CA,NA,NA,5.454545454545454
80013,Arapahoe County,CO,13.993174061433447,NA,NA
80014,Arapahoe County,CO,NA,35.80645161290323,NA
80015,Arapahoe County,CO,NA,NA,55.90909090909091
80030,Adams County,CO,NA,80,NA
80111,Arapahoe County,CO,78.49829351535837,NA,NA
80124,Douglas County,CO,NA,84.19354838709677,NA
80220,Denver County,CO,43.68600682593857,NA,NA
80401,Jefferson County,CO,NA,NA,48.63636363636364
80504,Boulder County,CO,NA,34.193548387096776,NA
80909,El Paso County,CO,65.52901023890784,NA,NA
81003,Pueblo County,CO,NA,NA,80.45454545454545
81082,Las Animas County,CO,NA,76.12903225806451,NA
06239,Windham County,CT,45.39249146757679,NA,NA
06248,Tolland County,CT,NA,98.70967741935483,NA
06451,New Haven County,CT,33.105802047781566,NA,NA
06517,New Haven County,CT,59.044368600682596,NA,NA
06604,Fairfield County,CT,27.64505119453925,NA,NA
06804,Fairfield County,CT,97.26962457337885,NA,NA
19703,New Castle County,DE,NA,71.93548387096774,NA
19804,New Castle County,DE,NA,NA,57.72727272727273
19973,Sussex County,DE,NA,30,NA
32064,Suwannee County,FL,NA,NA,92.27272727272727
32080,St. Johns County,FL,NA,32.903225806451616,NA
32162,Sumter County,FL,NA,2.5806451612903225,NA
32164,Flagler County,FL,NA,22.58064516129032,NA
32169,Volusia County,FL,NA,64.83870967741936,NA
32224,Duval County,FL,NA,48.70967741935484,NA
32405,Bay County,FL,66.89419795221842,NA,NA
32435,Walton County,FL,NA,NA,65
32503,Escambia County,FL,29.01023890784983,NA,NA
32526,Escambia County,FL,NA,12.580645161290322,NA
32541,Okaloosa County,FL,NA,NA,63.63636363636363
32566,Santa Rosa County,FL,NA,NA,35
32571,Santa Rosa County,FL,NA,NA,34.54545454545455
32605,Alachua County,FL,NA,NA,88.63636363636364
32824,Orange County,FL,52.901023890784984,NA,NA
32909,Brevard County,FL,NA,NA,75
32963,Indian River County,FL,NA,59.03225806451613,NA
33069,Broward County,FL,NA,NA,16.818181818181817
33180,Miami-Dade County,FL,NA,NA,20.454545454545457
33301,Broward County,FL,NA,88.38709677419355,NA
33440,Hendry County,FL,NA,69.6774193548387,NA
33477,Palm Beach County,FL,NA,78.06451612903226,NA
33610,Hillsborough County,FL,NA,NA,50.90909090909091
33773,Pinellas County,FL,NA,99.35483870967742,NA
33868,Polk County,FL,92.83276450511946,NA,NA
34108,Collier County,FL,NA,NA,37.27272727272727
34653,Pasco County,FL,38.56655290102389,NA,NA
34996,Martin County,FL,NA,91.29032258064517,NA
30022,Fulton County,GA,NA,50,NA
30040,Forsyth County,GA,NA,NA,17.272727272727273
30046,Gwinnett County,GA,57.67918088737202,NA,NA
30062,Cobb County,GA,NA,53.87096774193548,NA
30067,Cobb County,GA,67.91808873720136,NA,NA
30103,Bartow County,GA,NA,NA,93.63636363636364
30217,Heard County,GA,NA,NA,86.81818181818181
30319,DeKalb County,GA,NA,NA,62.272727272727266
30331,Fulton County,GA,NA,NA,25.454545454545453
30354,Fulton County,GA,73.37883959044369,NA,NA
30517,Jackson County,GA,88.73720136518772,NA,NA
31088,Houston County,GA,NA,NA,24.545454545454547
31216,Bibb County,GA,NA,NA,75.45454545454545
31525,Glynn County,GA,NA,68.06451612903226,NA
31548,Camden County,GA,NA,NA,81.36363636363636
31707,Dougherty County,GA,NA,47.096774193548384,NA
31808,Harris County,GA,NA,86.7741935483871,NA
31904,Muscogee County,GA,NA,28.064516129032256,NA
96701,Honolulu County,HI,NA,27.419354838709676,NA
83338,Jerome County,ID,NA,63.2258064516129,NA
83442,Jefferson County,ID,52.218430034129696,NA,NA
83686,Canyon County,ID,NA,37.096774193548384,4.545454545454546
83702,Ada County,ID,40.61433447098976,NA,NA
60069,Lake County,IL,NA,81.93548387096774,NA
60098,McHenry County,IL,42.66211604095563,NA,NA
60101,DuPage County,IL,NA,NA,25
60126,DuPage County,IL,14.334470989761092,NA,NA
60142,McHenry County,IL,NA,14.516129032258066,NA
60148,DuPage County,IL,NA,7.096774193548387,NA
60185,DuPage County,IL,NA,67.0967741935484,NA
60190,DuPage County,IL,NA,75.80645161290323,NA
60435,Will County,IL,NA,13.870967741935484,NA
60438,Cook County,IL,54.26621160409556,NA,NA
60462,Cook County,IL,NA,6.451612903225806,NA
60467,Cook County,IL,NA,36.45161290322581,NA
60505,Kane County,IL,41.63822525597269,NA,NA
60510,Kane County,IL,45.051194539249146,NA,NA
60585,Will County,IL,63.82252559726962,NA,NA
60608,Cook County,IL,NA,19.032258064516128,10.909090909090908
60617,Cook County,IL,10.580204778156997,NA,NA
60628,Cook County,IL,NA,NA,3.6363636363636362
60629,Cook County,IL,9.556313993174061,NA,13.636363636363635
60634,Cook County,IL,15.017064846416384,NA,NA
60641,Cook County,IL,NA,NA,28.636363636363637
60644,Cook County,IL,11.945392491467576,NA,NA
60653,Cook County,IL,38.907849829351534,NA,NA
61061,Ogle County,IL,NA,NA,49.54545454545455
61068,Ogle County,IL,NA,NA,38.18181818181819
61102,Winnebago County,IL,NA,NA,89.0909090909091
61115,Winnebago County,IL,61.092150170648466,NA,NA
61614,Peoria County,IL,NA,45.16129032258064,NA
61832,Vermilion County,IL,15.358361774744028,NA,NA
62278,Randolph County,IL,NA,87.74193548387098,NA
62521,Macon County,IL,NA,NA,6.363636363636363
62526,Macon County,IL,17.4061433447099,NA,NA
46158,Morgan County,IN,62.79863481228669,NA,NA
46234,Marion County,IN,68.60068259385666,NA,NA
46312,Lake County,IN,22.866894197952217,NA,NA
46350,LaPorte County,IN,12.969283276450511,NA,NA
46574,St. Joseph County,IN,NA,NA,68.18181818181817
46580,Kosciusko County,IN,NA,59.67741935483871,NA
46818,Allen County,IN,NA,NA,71.36363636363636
47331,Fayette County,IN,NA,69.03225806451613,NA
47353,Union County,IN,NA,NA,98.63636363636363
50219,Marion County,IA,90.44368600682594,NA,NA
50317,Polk County,IA,48.122866894197955,NA,NA
50536,Palo Alto County,IA,NA,NA,75.9090909090909
50616,Floyd County,IA,74.40273037542661,NA,NA
50801,Union County,IA,NA,82.9032258064516,NA
51104,Woodbury County,IA,54.94880546075085,NA,NA
51632,Page County,IA,NA,NA,94.54545454545455
52240,Johnson County,IA,NA,29.354838709677416,NA
52577,Mahaska County,IA,NA,NA,27.727272727272727
66210,Johnson County,KS,83.61774744027304,NA,NA
66223,Johnson County,KS,NA,93.2258064516129,NA
67901,Seward County,KS,82.93515358361775,NA,NA
40059,Jefferson County,KY,NA,NA,70
40146,Breckinridge County,KY,96.24573378839591,NA,NA
40150,Bullitt County,KY,95.90443686006826,NA,NA
40206,Jefferson County,KY,91.80887372013652,NA,NA
40222,Jefferson County,KY,NA,66.77419354838709,32.72727272727273
40447,Jackson County,KY,89.76109215017065,NA,NA
40505,Fayette County,KY,NA,NA,57.27272727272727
40517,Fayette County,KY,NA,NA,46.36363636363636
40962,Clay County,KY,NA,NA,53.18181818181819
40965,Bell County,KY,NA,NA,73.63636363636363
41101,Boyd County,KY,NA,29.03225806451613,NA
41501,Pike County,KY,NA,NA,66.36363636363637
41522,Pike County,KY,94.19795221843003,NA,NA
42347,Ohio County,KY,NA,70.3225806451613,NA
42642,Russell County,KY,76.45051194539249,NA,NA
70065,Jefferson Parish,LA,NA,3.225806451612903,NA
70070,St. Charles Parish,LA,68.25938566552901,NA,NA
70115,Orleans Parish,LA,26.27986348122867,32.58064516129032,NA
70126,Orleans Parish,LA,NA,31.290322580645164,NA
70301,Lafourche Parish,LA,2.7303754266211606,NA,NA
70364,Terrebonne Parish,LA,NA,34.516129032258064,NA
70380,St. Mary Parish,LA,NA,40,NA
70403,Tangipahoa Parish,LA,10.238907849829351,NA,NA
70438,Washington Parish,LA,NA,NA,22.272727272727273
70458,St. Tammany Parish,LA,7.849829351535837,NA,NA
70501,Lafayette Parish,LA,NA,34.83870967741935,NA
70503,Lafayette Parish,LA,NA,35.483870967741936,NA
70538,St. Mary Parish,LA,80.88737201365188,NA,NA
70605,Calcasieu Parish,LA,NA,38.70967741935484,NA
70791,East Baton Rouge Parish,LA,NA,NA,68.63636363636364
70810,East Baton Rouge Parish,LA,NA,36.774193548387096,NA
71104,Caddo Parish,LA,NA,69.35483870967742,NA
71111,Bossier Parish,LA,6.484641638225256,NA,NA
71201,Ouachita Parish,LA,NA,50.967741935483865,NA
71417,Grant Parish,LA,NA,NA,94.0909090909091
04009,Cumberland County,ME,80.2047781569966,NA,NA
04086,Sagadahoc County,ME,NA,58.70967741935483,NA
04412,Penobscot County,ME,72.01365187713311,NA,NA
04429,Penobscot County,ME,NA,83.54838709677419,NA
04473,Penobscot County,ME,94.88054607508532,NA,NA
04950,Somerset County,ME,NA,NA,87.27272727272727
20676,Calvert County,MD,NA,97.74193548387096,NA
20721,Prince George's County,MD,NA,72.58064516129032,NA
20815,Montgomery County,MD,NA,90.32258064516128,NA
20855,Montgomery County,MD,NA,95.80645161290322,NA
21050,Harford County,MD,NA,74.51612903225806,NA
21202,Baltimore city,MD,NA,NA,77.72727272727272
21214,Baltimore city,MD,67.23549488054607,NA,NA
21221,Baltimore County,MD,NA,31.61290322580645,NA
21228,Baltimore County,MD,NA,NA,15
01069,Hampden County,MA,36.86006825938566,NA,NA
01075,Hampshire County,MA,NA,57.74193548387097,NA
01085,Hampden County,MA,NA,2.258064516129032,NA
01201,Berkshire County,MA,NA,NA,0.9090909090909091
01420,Worcester County,MA,3.754266211604096,1.6129032258064515,NA
01605,Worcester County,MA,64.84641638225256,45.806451612903224,NA
01803,Middlesex County,MA,NA,NA,2.272727272727273
01810,Essex County,MA,NA,24.516129032258064,NA
01821,Middlesex County,MA,5.802047781569966,NA,NA
01960,Essex County,MA,9.215017064846416,NA,NA
01970,Essex County,MA,38.225255972696246,NA,NA
02052,Norfolk County,MA,69.96587030716724,NA,NA
02062,Norfolk County,MA,86.68941979522185,NA,NA
02114,Suffolk County,MA,24.914675767918087,NA,46.81818181818182
02124,Suffolk County,MA,NA,2.903225806451613,NA
02125,Suffolk County,MA,0.3412969283276451,NA,NA
02126,Suffolk County,MA,NA,4.838709677419355,NA
02128,Suffolk County,MA,NA,NA,8.181818181818182
02149,Middlesex County,MA,0,11.29032258064516,NA
02150,Suffolk County,MA,NA,NA,34.090909090909086
02170,Norfolk County,MA,NA,11.935483870967742,NA
02180,Middlesex County,MA,17.747440273037544,NA,NA
02302,Plymouth County,MA,NA,1.935483870967742,NA
02421,Middlesex County,MA,26.621160409556317,NA,NA
02446,Norfolk County,MA,27.303754266211605,NA,NA
02451,Middlesex County,MA,NA,28.387096774193548,NA
02453,Middlesex County,MA,NA,21.29032258064516,NA
02458,Middlesex County,MA,NA,88.06451612903226,NA
02472,Middlesex County,MA,NA,10.32258064516129,NA
02762,Norfolk County,MA,NA,79.35483870967742,NA
48035,Macomb County,MI,NA,NA,12.272727272727273
48039,St. Clair County,MI,87.37201365187714,NA,NA
48051,Macomb County,MI,NA,NA,92.72727272727272
48065,Macomb County,MI,NA,NA,60.909090909090914
48092,Macomb County,MI,NA,NA,67.27272727272727
48101,Wayne County,MI,NA,NA,56.81818181818182
48103,Washtenaw County,MI,NA,NA,1.8181818181818181
48105,Washtenaw County,MI,NA,NA,2.727272727272727
48111,Wayne County,MI,NA,8.064516129032258,NA
48125,Wayne County,MI,NA,NA,50.45454545454545
48130,Washtenaw County,MI,NA,46.12903225806452,NA
48168,Wayne County,MI,62.116040955631405,NA,NA
48170,Wayne County,MI,NA,88.70967741935483,NA
48183,Wayne County,MI,NA,8.38709677419355,NA
48185,Wayne County,MI,NA,60,NA
48187,Wayne County,MI,14.675767918088736,NA,NA
48197,Washtenaw County,MI,NA,25.483870967741932,NA
48205,Wayne County,MI,NA,20,NA
48206,Wayne County,MI,NA,67.41935483870968,NA
48207,Wayne County,MI,26.96245733788396,44.193548387096776,NA
48213,Wayne County,MI,16.38225255972696,NA,NA
48221,Wayne County,MI,6.825938566552901,NA,NA
48234,Wayne County,MI,NA,NA,59.54545454545455
48301,Oakland County,MI,NA,NA,48.18181818181818
48312,Macomb County,MI,NA,NA,11.363636363636363
48315,Macomb County,MI,49.48805460750853,NA,NA
48381,Oakland County,MI,73.03754266211604,NA,NA
48386,Oakland County,MI,NA,48.38709677419355,NA
48446,Lapeer County,MI,NA,33.5483870967742,NA
48706,Bay County,MI,NA,NA,3.1818181818181817
48708,Bay County,MI,NA,10.64516129032258,NA
48867,Shiawassee County,MI,NA,9.67741935483871,NA
48911,Ingham County,MI,NA,21.612903225806452,NA
49002,Kalamazoo County,MI,NA,40.32258064516129,NA
49012,Kalamazoo County,MI,NA,98.38709677419355,NA
49037,Calhoun County,MI,21.843003412969285,NA,NA
49055,Van Buren County,MI,NA,74.83870967741936,NA
49058,Barry County,MI,NA,NA,47.27272727272727
49097,Kalamazoo County,MI,NA,93.54838709677419,NA
49417,Ottawa County,MI,NA,NA,20.909090909090907
49442,Muskegon County,MI,NA,NA,9.545454545454547
49445,Muskegon County,MI,NA,NA,77.27272727272727
49456,Ottawa County,MI,NA,95.48387096774194,NA
49460,Ottawa County,MI,NA,81.29032258064515,NA
49509,Kent County,MI,19.112627986348123,NA,NA
49548,Kent County,MI,40.27303754266212,18.387096774193548,NA
49707,Alpena County,MI,NA,NA,20
55014,Anoka County,MN,NA,70.96774193548387,NA
55419,Hennepin County,MN,55.631399317406135,NA,NA
55439,Hennepin County,MN,NA,89.6774193548387,NA
55445,Hennepin County,MN,84.98293515358361,NA,NA
55746,St. Louis County,MN,32.42320819112628,NA,NA
55976,Olmsted County,MN,NA,89.03225806451613,NA
56007,Freeborn County,MN,NA,10.967741935483872,NA
56345,Morrison County,MN,39.59044368600683,NA,NA
56378,Stearns County,MN,86.3481228668942,NA,NA
56573,Otter Tail County,MN,NA,76.45161290322581,NA
56601,Beltrami County,MN,NA,1.2903225806451613,1.3636363636363635
38860,Chickasaw County,MS,NA,90,NA
39095,Holmes County,MS,89.07849829351537,NA,NA
39194,Yazoo County,MS,60.068259385665534,NA,NA
39208,Rankin County,MS,47.44027303754266,NA,NA
39426,Pearl River County,MS,NA,NA,63.18181818181819
39466,Pearl River County,MS,34.8122866894198,NA,NA
39503,Harrison County,MS,15.699658703071673,NA,NA
39507,Harrison County,MS,NA,42.58064516129032,NA
39532,Harrison County,MS,NA,NA,23.18181818181818
39560,Harrison County,MS,NA,12.903225806451612,NA
39573,Stone County,MS,NA,NA,88.18181818181819
39735,Choctaw County,MS,NA,NA,91.36363636363637
63017,St. Louis County,MO,70.64846416382252,NA,NA
63031,St. Louis County,MO,NA,16.129032258064516,NA
63121,St. Louis County,MO,NA,52.903225806451616,NA
63122,St. Louis County,MO,NA,NA,12.727272727272727
63135,St. Louis County,MO,40.955631399317404,NA,NA
63304,St. Charles County,MO,39.59044368600683,NA,NA
63385,St. Charles County,MO,NA,50.32258064516129,NA
64056,Jackson County,MO,34.470989761092156,NA,NA
64093,Johnson County,MO,NA,NA,45
64109,Jackson County,MO,NA,44.193548387096776,NA
64601,Livingston County,MO,NA,77.74193548387098,NA
64801,Jasper County,MO,NA,NA,21.363636363636363
65251,Callaway County,MO,39.249146757679185,NA,NA
65747,Barry County,MO,NA,NA,95
59917,Lincoln County,MT,NA,NA,78.18181818181819
68025,Dodge County,NE,NA,NA,41.81818181818181
68701,Madison County,NE,NA,76.77419354838709,NA
69301,Box Butte County,NE,77.81569965870307,NA,NA
89108,Clark County,NV,NA,NA,39.09090909090909
89122,Clark County,NV,NA,NA,50
89128,Clark County,NV,NA,71.61290322580646,NA
89503,Washoe County,NV,88.39590443686008,NA,NA
89509,Washoe County,NV,NA,NA,35.90909090909091
89815,Elko County,NV,87.37201365187714,NA,NA
03062,Hillsborough County,NH,25.25597269624573,NA,NA
03064,Hillsborough County,NH,37.883959044368595,NA,NA
03254,Carroll County,NH,NA,85.48387096774194,NA
03570,Coos County,NH,78.839590443686,NA,NA
07072,Bergen County,NJ,NA,99.67741935483872,NA
07203,Union County,NJ,34.129692832764505,NA,NA
07480,Passaic County,NJ,NA,NA,100
07628,Bergen County,NJ,50.51194539249146,NA,NA
07747,Monmouth County,NJ,NA,NA,54.54545454545454
08002,Camden County,NJ,NA,NA,40.909090909090914
08033,Camden County,NJ,NA,65.48387096774194,NA
08057,Burlington County,NJ,NA,NA,56.36363636363636
08075,Burlington County,NJ,21.160409556313994,NA,NA
08205,Atlantic County,NJ,23.208191126279864,NA,NA
08620,Mercer County,NJ,NA,NA,76.81818181818181
08844,Somerset County,NJ,NA,61.61290322580645,NA
87002,Valencia County,NM,NA,NA,66.81818181818183
87111,Bernalillo County,NM,NA,15.806451612903224,NA
87112,Bernalillo County,NM,20.13651877133106,NA,NA
87114,Bernalillo County,NM,NA,20.64516129032258,NA
87321,McKinley County,NM,NA,100,NA
87420,San Juan County,NM,NA,NA,79.54545454545455
87528,Rio Arriba County,NM,90.78498293515358,NA,NA
87547,,NM,NA,79.6774193548387,NA
87740,Colfax County,NM,NA,84.83870967741936,NA
88008,Doa Ana County,NM,NA,98.06451612903226,NA
88011,Doa Ana County,NM,61.43344709897611,NA,NA
88210,Eddy County,NM,51.877133105802045,NA,NA
10003,New York County,NY,NA,46.45161290322581,NA
10022,New York County,NY,NA,53.2258064516129,NA
10030,New York County,NY,64.16382252559727,NA,NA
10305,Richmond County,NY,NA,25.161290322580644,NA
10308,Richmond County,NY,NA,NA,70.9090909090909
10451,Bronx County,NY,23.549488054607508,NA,NA
10453,Bronx County,NY,1.3651877133105803,0.3225806451612903,NA
10455,Bronx County,NY,62.45733788395904,NA,NA
10456,Bronx County,NY,3.0716723549488054,NA,NA
10457,Bronx County,NY,7.167235494880546,NA,NA
10458,Bronx County,NY,50.170648464163826,NA,NA
10462,Bronx County,NY,9.897610921501707,NA,NA
10466,Bronx County,NY,91.12627986348123,NA,NA
10467,Bronx County,NY,NA,8.709677419354838,NA
10473,Bronx County,NY,5.1194539249146755,NA,NA
10701,Westchester County,NY,2.04778156996587,NA,NA
11216,Kings County,NY,NA,NA,26.81818181818182
11368,Queens County,NY,NA,26.451612903225808,NA
11369,Queens County,NY,NA,64.19354838709678,NA
11377,Queens County,NY,23.890784982935152,NA,NA
11412,Queens County,NY,NA,50.645161290322584,NA
11419,Queens County,NY,47.781569965870304,NA,NA
11433,Queens County,NY,NA,38.387096774193544,NA
12065,Saratoga County,NY,31.74061433447099,NA,NA
12090,Rensselaer County,NY,NA,NA,98.18181818181819
12203,Albany County,NY,46.41638225255973,NA,NA
12550,Orange County,NY,42.32081911262799,NA,NA
12601,Dutchess County,NY,37.20136518771331,NA,NA
12804,Warren County,NY,NA,NA,58.63636363636363
12866,Saratoga County,NY,NA,13.225806451612904,NA
13032,Madison County,NY,NA,49.03225806451613,NA
13036,Oswego County,NY,66.21160409556313,NA,NA
13316,Oneida County,NY,89.419795221843,NA,NA
13365,Herkimer County,NY,NA,41.29032258064516,NA
13403,Oneida County,NY,NA,73.54838709677419,NA
13440,Oneida County,NY,2.3890784982935154,NA,NA
13634,Jefferson County,NY,97.61092150170649,NA,NA
13642,St. Lawrence County,NY,72.6962457337884,NA,NA
13732,Tioga County,NY,NA,48.064516129032256,NA
13760,Broome County,NY,NA,7.419354838709677,NA
13815,Chenango County,NY,NA,51.29032258064517,NA
13827,Tioga County,NY,NA,42.90322580645161,NA
14006,Erie County,NY,NA,65.16129032258064,NA
14220,Erie County,NY,19.453924914675767,NA,NA
14224,Erie County,NY,7.508532423208192,NA,NA
14304,Niagara County,NY,50.85324232081911,NA,NA
14437,Livingston County,NY,53.242320819112635,NA,NA
14467,Monroe County,NY,98.63481228668942,NA,NA
14513,Wayne County,NY,6.143344709897611,NA,36.36363636363637
14521,Seneca County,NY,92.4914675767918,NA,NA
14589,Wayne County,NY,NA,NA,82.27272727272728
14606,Monroe County,NY,NA,16.451612903225808,NA
14609,Monroe County,NY,1.023890784982935,NA,NA
14620,Monroe County,NY,8.532423208191126,24.516129032258064,NA
14626,Monroe County,NY,4.436860068259386,NA,NA
14891,Schuyler County,NY,NA,73.87096774193549,NA
27028,Davie County,NC,22.18430034129693,NA,NA
27030,Surry County,NC,NA,23.225806451612904,NA
27040,Forsyth County,NC,NA,37.41935483870968,NA
27104,Forsyth County,NC,NA,NA,4.090909090909091
27106,Forsyth County,NC,NA,NA,15.454545454545453
27107,Forsyth County,NC,NA,62.58064516129033,NA
27278,Orange County,NC,NA,17.741935483870968,24.09090909090909
27292,Davidson County,NC,NA,NA,35.45454545454545
27360,Davidson County,NC,4.778156996587031,NA,NA
27537,Vance County,NC,NA,36.12903225806451,NA
27614,Wake County,NC,75.76791808873719,NA,NA
27704,Durham County,NC,17.064846416382252,NA,NA
27803,Nash County,NC,56.31399317406144,NA,NA
28170,Anson County,NC,63.48122866894198,NA,NA
28211,Mecklenburg County,NC,NA,NA,72.27272727272728
28216,Mecklenburg County,NC,NA,NA,31.363636363636367
28278,Mecklenburg County,NC,NA,90.64516129032259,NA
28341,Duplin County,NC,100,NA,NA
28374,Moore County,NC,NA,55.80645161290323,NA
28376,Hoke County,NC,NA,NA,44.09090909090909
28655,Burke County,NC,NA,4.516129032258064,NA
28712,Transylvania County,NC,NA,45.483870967741936,NA
28804,Buncombe County,NC,NA,75.16129032258064,NA
58078,Cass County,ND,NA,20.967741935483872,NA
58501,Burleigh County,ND,NA,NA,41.36363636363637
43081,Franklin County,OH,NA,14.193548387096774,NA
43232,Franklin County,OH,NA,20.32258064516129,NA
43449,Ottawa County,OH,NA,80.64516129032258,NA
43558,Fulton County,OH,63.13993174061433,NA,NA
43560,Lucas County,OH,32.76450511945392,NA,NA
43615,Lucas County,OH,NA,NA,10.454545454545453
43935,Belmont County,OH,56.655290102389074,65.80645161290323,NA
43952,Jefferson County,OH,10.921501706484642,NA,NA
44012,Lorain County,OH,NA,9.35483870967742,NA
44035,Lorain County,OH,4.09556313993174,NA,NA
44039,Lorain County,OH,NA,NA,5.909090909090909
44041,Ashtabula County,OH,NA,71.29032258064515,NA
44053,Lorain County,OH,11.604095563139932,NA,NA
44060,Lake County,OH,NA,0,NA
44081,Lake County,OH,92.15017064846417,NA,NA
44087,Summit County,OH,NA,NA,30.909090909090907
44109,Cuyahoga County,OH,0.6825938566552902,NA,NA
44111,Cuyahoga County,OH,1.7064846416382253,NA,NA
44118,Cuyahoga County,OH,NA,13.548387096774196,NA
44122,Cuyahoga County,OH,NA,NA,7.2727272727272725
44124,Cuyahoga County,OH,NA,NA,0.45454545454545453
44125,Cuyahoga County,OH,45.73378839590443,NA,NA
44129,Cuyahoga County,OH,21.501706484641637,NA,NA
44133,Cuyahoga County,OH,35.49488054607509,NA,NA
44221,Summit County,OH,NA,NA,18.181818181818183
44236,Summit County,OH,61.774744027303754,NA,NA
44306,Summit County,OH,99.65870307167235,NA,NA
44314,Summit County,OH,NA,30.967741935483872,NA
44319,Summit County,OH,84.64163822525597,NA,NA
44405,Mahoning County,OH,NA,NA,64.0909090909091
44408,Columbiana County,OH,NA,NA,51.36363636363637
44460,Columbiana County,OH,27.986348122866893,NA,NA
44515,Mahoning County,OH,13.651877133105803,NA,NA
44646,Stark County,OH,NA,16.7741935483871,NA
44654,Holmes County,OH,NA,NA,85.9090909090909
44805,Ashland County,OH,NA,5.806451612903226,NA
44811,Sandusky County,OH,41.979522184300336,NA,NA
45039,Warren County,OH,58.02047781569966,NA,NA
45069,Butler County,OH,30.37542662116041,NA,NA
45140,Clermont County,OH,NA,22.903225806451612,NA
45208,Hamilton County,OH,NA,82.58064516129032,NA
45224,Hamilton County,OH,NA,58.387096774193544,NA
45230,Hamilton County,OH,NA,51.935483870967744,NA
45237,Hamilton County,OH,NA,31.93548387096774,NA
45342,Montgomery County,OH,16.723549488054605,NA,NA
45416,Montgomery County,OH,88.05460750853243,NA,NA
45601,Ross County,OH,8.19112627986348,NA,NA
45661,Pike County,OH,NA,NA,96.36363636363636
45663,Scioto County,OH,58.703071672354945,NA,NA
45693,Adams County,OH,58.36177474402731,87.09677419354838,NA
45750,Washington County,OH,NA,9.032258064516128,NA
45840,Hancock County,OH,3.4129692832764507,NA,NA
45885,Auglaize County,OH,79.86348122866895,NA,NA
73110,Oklahoma County,OK,25.597269624573375,NA,NA
73120,Oklahoma County,OK,51.5358361774744,NA,NA
73135,Oklahoma County,OK,NA,60.967741935483865,NA
73142,Oklahoma County,OK,NA,NA,85
74008,Tulsa County,OK,74.40273037542661,NA,NA
74012,Tulsa County,OK,32.081911262798634,NA,NA
74053,Rogers County,OK,93.51535836177474,NA,NA
74129,Tulsa County,OK,NA,NA,90
74437,Okmulgee County,OK,NA,NA,69.54545454545455
74464,Cherokee County,OK,NA,27.741935483870968,NA
74467,Wagoner County,OK,NA,61.29032258064516,90.9090909090909
74571,Le Flore County,OK,NA,97.41935483870968,NA
74864,Lincoln County,OK,NA,92.25806451612904,NA
97055,Clackamas County,OR,NA,56.774193548387096,NA
97058,Wasco County,OR,48.80546075085324,NA,NA
97128,Yamhill County,OR,25.938566552901023,NA,NA
97224,Washington County,OR,NA,NA,33.63636363636363
97321,Linn County,OR,NA,NA,32.27272727272727
97322,Linn County,OR,NA,NA,11.818181818181818
97365,Lincoln County,OR,NA,74.19354838709677,NA
97411,Coos County,OR,NA,NA,83.63636363636363
97415,Curry County,OR,NA,63.87096774193548,NA
97504,Jackson County,OR,28.327645051194537,NA,NA
97801,Umatilla County,OR,NA,NA,25.90909090909091
15108,Allegheny County,PA,NA,26.7741935483871,NA
15221,Allegheny County,PA,NA,NA,23.636363636363637
15401,Fayette County,PA,NA,6.129032258064516,NA
15501,Somerset County,PA,NA,NA,47.72727272727273
15531,Somerset County,PA,NA,99.03225806451613,NA
15601,Westmoreland County,PA,NA,0.967741935483871,NA
15905,Cambria County,PA,57.33788395904437,NA,NA
16101,Lawrence County,PA,8.873720136518772,NA,NA
16146,Mercer County,PA,NA,47.74193548387097,NA
16159,Mercer County,PA,NA,NA,93.18181818181817
16323,Venango County,PA,60.40955631399317,NA,NA
16506,Erie County,PA,NA,NA,43.63636363636363
16662,Blair County,PA,95.22184300341297,NA,NA
16701,McKean County,PA,24.2320819112628,NA,NA
17019,York County,PA,NA,NA,62.727272727272734
17022,Lancaster County,PA,95.56313993174061,NA,NA
17043,Cumberland County,PA,NA,92.58064516129032,NA
17046,Lebanon County,PA,NA,78.70967741935485,NA
17055,Cumberland County,PA,NA,24.193548387096776,NA
17110,Dauphin County,PA,22.525597269624573,NA,NA
17340,Adams County,PA,NA,51.61290322580645,NA
17403,York County,PA,NA,3.5483870967741935,NA
17543,Lancaster County,PA,NA,15.161290322580644,NA
17603,Lancaster County,PA,13.310580204778159,NA,NA
17740,Lycoming County,PA,NA,57.41935483870968,NA
17837,Union County,PA,NA,46.774193548387096,NA
17844,Union County,PA,79.5221843003413,NA,NA
17921,Schuylkill County,PA,85.32423208191126,NA,NA
18013,Northampton County,PA,NA,NA,52.27272727272727
18031,Lehigh County,PA,NA,77.41935483870968,NA
18045,Northampton County,PA,NA,23.870967741935484,NA
18052,Lehigh County,PA,NA,NA,27.727272727272727
18073,Montgomery County,PA,NA,NA,85.45454545454545
18224,Luzerne County,PA,82.25255972696246,NA,NA
18337,Pike County,PA,93.51535836177474,NA,NA
18969,Montgomery County,PA,72.35494880546075,NA,NA
19026,Delaware County,PA,NA,70,NA
19067,Bucks County,PA,NA,72.25806451612902,NA
19082,Delaware County,PA,NA,NA,65
19115,Philadelphia County,PA,NA,NA,14.545454545454545
19138,Philadelphia County,PA,18.088737201365188,NA,NA
19148,Philadelphia County,PA,NA,NA,19.090909090909093
02861,Providence County,RI,41.29692832764505,NA,NA
29203,Richland County,SC,NA,30.64516129032258,NA
29340,Cherokee County,SC,48.4641638225256,NA,NA
29356,Spartanburg County,SC,90.10238907849829,NA,NA
29407,Charleston County,SC,47.098976109215016,NA,NA
29526,Horry County,SC,NA,14.516129032258066,NA
29540,Darlington County,SC,NA,94.51612903225806,NA
29611,Greenville County,SC,18.771331058020476,40.96774193548387,NA
29642,Pickens County,SC,NA,25.806451612903224,NA
29669,Anderson County,SC,NA,NA,82.72727272727273
57005,Minnehaha County,SD,87.03071672354949,NA,NA
57106,Minnehaha County,SD,NA,NA,33.18181818181819
57108,Lincoln County,SD,NA,NA,10
37160,Bedford County,TN,59.38566552901023,70.3225806451613,NA
37220,Davidson County,TN,98.29351535836177,NA,NA
37321,Rhea County,TN,NA,NA,65.9090909090909
37641,Greene County,TN,NA,61.935483870967744,NA
37701,Blount County,TN,78.15699658703072,NA,NA
37716,Anderson County,TN,NA,39.03225806451613,NA
37803,Blount County,TN,43.003412969283275,NA,22.727272727272727
37847,Scott County,TN,99.31740614334471,NA,NA
37870,Claiborne County,TN,NA,NA,95.45454545454545
37912,Knox County,TN,NA,60.322580645161295,NA
37931,Knox County,TN,NA,NA,53.63636363636364
38115,Shelby County,TN,30.716723549488055,NA,NA
38118,Shelby County,TN,NA,NA,81.81818181818183
75044,Dallas County,TX,NA,37.74193548387097,NA
75052,Dallas County,TX,24.573378839590443,NA,NA
75150,Dallas County,TX,NA,NA,74.0909090909091
75159,Dallas County,TX,NA,79.03225806451613,NA
75161,Kaufman County,TX,NA,96.7741935483871,NA
75205,Dallas County,TX,NA,NA,75.9090909090909
75227,Dallas County,TX,NA,43.225806451612904,NA
75235,Dallas County,TX,76.79180887372013,NA,NA
75237,Dallas County,TX,53.92491467576792,NA,NA
75401,Hunt County,TX,64.50511945392492,NA,NA
75402,Hunt County,TX,NA,57.096774193548384,NA
75662,Gregg County,TX,NA,NA,45.45454545454545
75701,Smith County,TX,NA,18.064516129032256,52.72727272727272
75708,Smith County,TX,NA,NA,90.45454545454545
76006,Tarrant County,TX,77.13310580204778,NA,NA
76009,Johnson County,TX,NA,NA,78.63636363636364
76016,Tarrant County,TX,NA,NA,38.63636363636363
76063,Tarrant County,TX,NA,17.419354838709676,NA
76106,Tarrant County,TX,56.655290102389074,NA,NA
76107,Tarrant County,TX,NA,60.64516129032258,NA
76112,Tarrant County,TX,NA,19.35483870967742,NA
76119,Tarrant County,TX,11.262798634812286,NA,NA
76148,Tarrant County,TX,49.829351535836174,NA,NA
76210,Denton County,TX,NA,NA,64.54545454545455
76367,Wichita County,TX,93.1740614334471,NA,NA
76501,Bell County,TX,NA,NA,6.8181818181818175
76502,Bell County,TX,NA,39.35483870967742,13.18181818181818
76513,Bell County,TX,12.286689419795222,NA,NA
76522,Coryell County,TX,NA,NA,45.909090909090914
76528,Coryell County,TX,69.28327645051195,NA,60.45454545454545
76541,Bell County,TX,54.60750853242321,NA,NA
76542,Bell County,TX,20.477815699658702,NA,NA
76549,Bell County,TX,31.058020477815703,40.64516129032258,NA
76571,Bell County,TX,NA,86.45161290322581,NA
76574,Williamson County,TX,NA,NA,42.72727272727273
76706,McLennan County,TX,76.10921501706484,NA,NA
77038,Harris County,TX,85.6655290102389,NA,NA
77066,Harris County,TX,NA,NA,95.9090909090909
77071,Harris County,TX,NA,NA,61.81818181818181
77086,Harris County,TX,75.0853242320819,NA,NA
77089,Harris County,TX,NA,NA,87.72727272727273
77345,Harris County,TX,NA,95.16129032258065,NA
77351,Polk County,TX,NA,NA,36.81818181818181
77523,Chambers County,TX,65.18771331058021,NA,NA
77535,Liberty County,TX,79.18088737201366,NA,NA
77539,Galveston County,TX,NA,15.483870967741936,NA
77550,Galveston County,TX,NA,19.67741935483871,9.090909090909092
77563,Galveston County,TX,NA,NA,80
77566,Brazoria County,TX,NA,NA,44.54545454545455
77802,Brazos County,TX,33.78839590443686,NA,NA
77833,Washington County,TX,NA,NA,19.545454545454547
77845,Brazos County,TX,NA,5.483870967741936,NA
77957,Jackson County,TX,NA,89.35483870967742,NA
77963,Goliad County,TX,NA,NA,99.54545454545455
78114,Wilson County,TX,NA,NA,72.72727272727273
78133,Comal County,TX,67.57679180887372,NA,NA
78201,Bexar County,TX,NA,29.677419354838708,NA
78217,Bexar County,TX,NA,68.38709677419355,NA
78223,Bexar County,TX,NA,39.67741935483871,NA
78227,Bexar County,TX,NA,NA,39.54545454545455
78228,Bexar County,TX,NA,NA,29.545454545454547
78230,Bexar County,TX,NA,NA,97.27272727272728
78240,Bexar County,TX,52.55972696245734,NA,NA
78584,Starr County,TX,74.06143344709898,NA,NA
78596,Hidalgo County,TX,NA,NA,37.72727272727273
78621,Bastrop County,TX,NA,NA,73.18181818181819
78624,Gillespie County,TX,83.27645051194538,NA,NA
78628,Williamson County,TX,NA,35.16129032258065,26.36363636363636
78633,Williamson County,TX,NA,0.6451612903225806,NA
78636,Blanco County,TX,NA,96.45161290322581,NA
78642,Williamson County,TX,91.46757679180887,84.51612903225806,NA
78657,Llano County,TX,NA,NA,54.54545454545454
78660,Travis County,TX,35.83617747440273,NA,NA
78681,Williamson County,TX,NA,94.19354838709677,NA
79107,Potter County,TX,NA,59.354838709677416,NA
79403,Lubbock County,TX,59.72696245733788,NA,NA
79835,El Paso County,TX,NA,NA,97.72727272727273
79927,El Paso County,TX,NA,63.54838709677419,NA
84020,Salt Lake County,UT,NA,66.45161290322581,NA
84025,Davis County,UT,81.91126279863481,NA,NA
84047,Salt Lake County,UT,36.177474402730375,NA,NA
84096,Salt Lake County,UT,36.51877133105802,62.25806451612903,NA
84104,Salt Lake County,UT,NA,NA,59.09090909090909
84414,Weber County,UT,80.54607508532423,NA,NA
05201,Bennington County,VT,NA,NA,96.81818181818181
05701,Rutland County,VT,NA,NA,17.727272727272727
20111,Prince William County,VA,NA,73.22580645161291,NA
22310,Fairfax County,VA,NA,68.70967741935485,NA
22630,Warren County,VA,33.44709897610921,NA,NA
22902,Charlottesville city,VA,NA,41.935483870967744,NA
23224,Richmond city,VA,46.075085324232084,NA,NA
23225,Richmond city,VA,NA,30.32258064516129,NA
23231,Henrico County,VA,NA,26.129032258064516,NA
23235,Chesterfield County,VA,NA,NA,27.27272727272727
23236,Chesterfield County,VA,NA,NA,84.54545454545455
23464,Virginia Beach city,VA,NA,3.870967741935484,NA
23505,Norfolk city,VA,46.75767918088737,NA,NA
23602,Newport News city,VA,NA,NA,14.09090909090909
23661,Hampton city,VA,70.30716723549489,NA,NA
23692,York County,VA,NA,NA,40.45454545454545
23701,Portsmouth city,VA,NA,32.25806451612903,NA
24210,Washington County,VA,NA,49.67741935483871,NA
24228,Dickenson County,VA,NA,56.451612903225815,NA
24540,Danville city,VA,NA,NA,42.27272727272727
98029,King County,WA,68.94197952218431,NA,NA
98031,King County,WA,NA,55.483870967741936,NA
98036,Snohomish County,WA,96.58703071672356,NA,NA
98037,Snohomish County,WA,69.28327645051195,NA,NA
98125,King County,WA,NA,43.54838709677419,NA
98368,Jefferson County,WA,77.47440273037543,NA,NA
98391,Pierce County,WA,53.58361774744027,NA,NA
98902,Yakima County,WA,NA,NA,18.636363636363637
99216,Spokane County,WA,71.67235494880546,NA,NA
99320,Benton County,WA,NA,58.06451612903226,NA
99337,Benton County,WA,35.153583617747444,NA,NA
20020,District of Columbia,DC,NA,7.741935483870968,NA
20037,District of Columbia,DC,NA,97.09677419354838,NA
25401,Berkeley County,WV,NA,42.25806451612903,NA
25701,Cabell County,WV,NA,23.548387096774192,NA
26101,Wood County,WV,NA,6.774193548387098,NA
53014,Calumet County,WI,NA,NA,42.72727272727273
53080,Ozaukee County,WI,NA,87.41935483870968,NA
53126,Racine County,WI,NA,94.83870967741936,NA
53188,Waukesha County,WI,NA,27.09677419354839,NA
53214,Milwaukee County,WI,NA,NA,30.454545454545457
53218,Milwaukee County,WI,37.54266211604095,NA,NA
53402,Racine County,WI,NA,67.74193548387096,NA
53406,Racine County,WI,20.819112627986346,NA,NA
53546,Rock County,WI,NA,5.161290322580645,NA
53562,Dane County,WI,NA,80.3225806451613,NA
53594,Jefferson County,WI,NA,NA,89.54545454545455
53704,Dane County,WI,16.040955631399317,NA,NA
53705,Dane County,WI,NA,NA,16.363636363636363
53711,Dane County,WI,NA,54.516129032258064,NA
53717,Dane County,WI,NA,NA,51.81818181818182
54452,Lincoln County,WI,NA,93.87096774193549,29.09090909090909
54467,Portage County,WI,NA,NA,54.090909090909086
54601,La Crosse County,WI,NA,17.096774193548388,0
54603,La Crosse County,WI,NA,33.225806451612904,NA
54929,Waupaca County,WI,NA,82.25806451612904,NA
54937,Fond du Lac County,WI,NA,56.12903225806451,NA
82443,Hot Springs County,WY,NA,92.90322580645162,NA
82834,Johnson County,WY,NA,NA,91.81818181818183
