ZipCode,county,state,Youth,Pediatric,Adult,Retirement
35023,Jefferson County,AL,74.80136208853575,NA,NA,NA
35085,Chilton County,AL,NA,NA,81.68449197860963,NA
35150,Talladega County,AL,NA,NA,38.63636363636363,NA
35184,Bibb County,AL,NA,NA,72.72727272727273,NA
35226,Jefferson County,AL,45.00567536889898,NA,NA,NA
35242,Shelby County,AL,28.093076049943242,NA,NA,NA
35603,Morgan County,AL,NA,NA,16.844919786096256,NA
35613,Limestone County,AL,NA,NA,39.839572192513366,NA
35750,Madison County,AL,NA,NA,NA,55.925925925925924
35810,Madison County,AL,NA,NA,28.07486631016043,NA
35903,Etowah County,AL,54.65380249716232,NA,NA,NA
35952,Etowah County,AL,NA,69.09722222222221,NA,NA
36025,Elmore County,AL,93.58683314415437,NA,NA,NA
36054,Elmore County,AL,NA,NA,64.03743315508021,NA
36207,Calhoun County,AL,75.42565266742338,NA,NA,NA
36301,Houston County,AL,72.24744608399546,NA,NA,NA
36535,Baldwin County,AL,32.633371169125994,NA,NA,NA
36605,Mobile County,AL,61.69125993189557,NA,NA,NA
36695,Mobile County,AL,68.33144154370035,NA,64.43850267379679,NA
36854,Chambers County,AL,80.4199772985244,NA,NA,NA
36877,Lee County,AL,61.01021566401816,NA,NA,NA
99504,Anchorage Municipality,AK,30.930760499432463,NA,NA,NA
99577,Anchorage Municipality,AK,78.77412031782066,NA,NA,NA
85004,Maricopa County,AZ,94.04086265607265,NA,NA,NA
85007,Maricopa County,AZ,NA,42.70833333333333,NA,NA
85008,Maricopa County,AZ,51.0783200908059,NA,NA,NA
85009,Maricopa County,AZ,NA,NA,13.23529411764706,27.77777777777778
85015,Maricopa County,AZ,11.180476730987515,NA,NA,NA
85019,Maricopa County,AZ,NA,26.041666666666668,NA,NA
85021,Maricopa County,AZ,47.389330306469915,36.80555555555556,NA,NA
85022,Maricopa County,AZ,NA,NA,81.28342245989305,NA
85024,Maricopa County,AZ,NA,NA,NA,75.92592592592592
85033,Maricopa County,AZ,8.967082860385926,NA,NA,NA
85035,Maricopa County,AZ,8.569807037457435,NA,78.7433155080214,NA
85037,Maricopa County,AZ,NA,19.444444444444446,NA,NA
85041,Maricopa County,AZ,71.22587968217934,NA,NA,NA
85042,Maricopa County,AZ,NA,45.13888888888889,NA,NA
85043,Maricopa County,AZ,31.384790011350738,NA,NA,NA
85044,Maricopa County,AZ,76.22020431328036,NA,NA,NA
85048,Maricopa County,AZ,48.01362088535755,NA,NA,NA
85050,Maricopa County,AZ,23.496027241770715,NA,NA,NA
85085,Maricopa County,AZ,60.38592508513053,NA,NA,NA
85120,Pinal County,AZ,34.165720771850175,NA,NA,NA
85122,Pinal County,AZ,45.11918274687854,NA,NA,NA
85143,Pinal County,AZ,NA,NA,34.22459893048128,NA
85201,Maricopa County,AZ,31.782065834279226,NA,NA,NA
85203,Maricopa County,AZ,15.607264472190693,NA,NA,NA
85209,Maricopa County,AZ,45.85698070374574,NA,NA,NA
85210,Maricopa County,AZ,67.82065834279229,NA,NA,NA
85212,Maricopa County,AZ,38.98978433598184,NA,NA,NA
85213,Maricopa County,AZ,77.75255391600454,NA,NA,NA
85226,Maricopa County,AZ,80.30646992054483,NA,NA,NA
85234,Maricopa County,AZ,NA,NA,83.42245989304813,53.333333333333336
85248,Maricopa County,AZ,36.26560726447219,NA,NA,NA
85254,Maricopa County,AZ,50.90805902383655,NA,51.20320855614974,NA
85255,Maricopa County,AZ,34.165720771850175,NA,NA,43.333333333333336
85260,Maricopa County,AZ,NA,NA,83.15508021390374,NA
85281,Maricopa County,AZ,31.04426787741203,NA,NA,NA
85283,Maricopa County,AZ,NA,74.30555555555556,NA,NA
85284,Maricopa County,AZ,76.16345062429058,NA,NA,NA
85296,Maricopa County,AZ,NA,NA,30.614973262032088,NA
85298,Maricopa County,AZ,15.209988649262202,NA,NA,NA
85301,Maricopa County,AZ,2.837684449489217,NA,NA,NA
85302,Maricopa County,AZ,NA,NA,24.197860962566846,NA
85306,Maricopa County,AZ,96.99205448354144,NA,NA,NA
85308,Maricopa County,AZ,12.372304199772985,NA,NA,NA
85335,Maricopa County,AZ,NA,24.65277777777778,NA,NA
85339,Maricopa County,AZ,5.7888762769580024,NA,86.49732620320856,NA
85349,Yuma County,AZ,NA,65.97222222222221,NA,NA
85351,Maricopa County,AZ,NA,NA,92.37967914438502,NA
85361,Maricopa County,AZ,89.61407491486946,NA,NA,NA
85364,Yuma County,AZ,65.26674233825199,NA,NA,NA
85365,Yuma County,AZ,17.196367763904654,NA,NA,NA
85373,Maricopa County,AZ,97.21906923950057,NA,NA,NA
85374,Maricopa County,AZ,26.106696935300793,NA,NA,NA
85383,Maricopa County,AZ,85.24404086265606,NA,NA,NA
85392,Maricopa County,AZ,7.321225879682179,NA,NA,NA
85395,Maricopa County,AZ,NA,NA,NA,75.18518518518519
85550,Graham County,AZ,NA,NA,NA,96.29629629629629
85621,Santa Cruz County,AZ,37.684449489216796,NA,NA,NA
85635,Cochise County,AZ,NA,NA,70.58823529411765,NA
85641,Pima County,AZ,34.61975028376845,NA,NA,NA
85648,Santa Cruz County,AZ,61.01021566401816,NA,NA,NA
85653,Pima County,AZ,67.4233825198638,NA,66.44385026737967,NA
85712,Pima County,AZ,NA,NA,69.25133689839572,NA
85713,Pima County,AZ,2.9511918274687856,NA,NA,NA
85718,Pima County,AZ,NA,NA,NA,18.88888888888889
85719,Pima County,AZ,NA,NA,31.016042780748666,NA
85743,Pima County,AZ,66.45856980703746,51.388888888888886,NA,NA
85901,Navajo County,AZ,77.63904653802497,59.375,49.59893048128342,NA
86001,Coconino County,AZ,2.4404086265607265,NA,NA,NA
86303,Yavapai County,AZ,NA,NA,NA,43.7037037037037
86314,Yavapai County,AZ,90.9761634506243,NA,16.577540106951872,NA
86401,Mohave County,AZ,NA,NA,9.224598930481283,NA
86409,Mohave County,AZ,NA,NA,7.887700534759358,NA
86413,Mohave County,AZ,NA,NA,57.35294117647059,NA
86441,Mohave County,AZ,99.94324631101021,NA,NA,NA
72015,Saline County,AR,15.720771850170262,NA,NA,NA
72023,Lonoke County,AR,NA,NA,NA,61.48148148148148
72113,Pulaski County,AR,35.92508513053348,NA,NA,NA
72114,Pulaski County,AR,NA,NA,74.06417112299465,NA
72209,Pulaski County,AR,NA,NA,NA,92.5925925925926
72210,Pulaski County,AR,NA,NA,85.42780748663101,NA
72455,Randolph County,AR,75.7094211123723,NA,NA,NA
72701,Washington County,AR,NA,NA,61.63101604278075,NA
72736,Benton County,AR,NA,NA,86.89839572192514,NA
72753,Washington County,AR,NA,NA,86.09625668449198,NA
90001,Los Angeles County,CA,60.726447219069236,22.22222222222222,NA,NA
90003,Los Angeles County,CA,NA,NA,33.55614973262032,NA
90004,Los Angeles County,CA,NA,NA,43.04812834224599,NA
90005,Los Angeles County,CA,68.5017026106697,NA,NA,NA
90011,Los Angeles County,CA,NA,21.180555555555554,55.213903743315505,NA
90016,Los Angeles County,CA,NA,NA,NA,22.59259259259259
90019,Los Angeles County,CA,71.96367763904654,NA,38.903743315508024,NA
90022,Los Angeles County,CA,67.366628830874,NA,NA,NA
90023,Los Angeles County,CA,NA,NA,78.47593582887701,NA
90027,Los Angeles County,CA,89.33030646992054,NA,57.085561497326196,NA
90031,Los Angeles County,CA,59.93189557321226,NA,NA,NA
90034,Los Angeles County,CA,NA,NA,NA,85.55555555555556
90043,Los Angeles County,CA,26.390465380249715,NA,NA,NA
90044,Los Angeles County,CA,4.029511918274688,NA,NA,NA
90046,Los Angeles County,CA,85.92508513053349,NA,NA,NA
90047,Los Angeles County,CA,NA,NA,NA,13.333333333333334
90057,Los Angeles County,CA,40.06810442678774,NA,NA,NA
90061,Los Angeles County,CA,NA,NA,68.85026737967914,NA
90062,Los Angeles County,CA,53.51872871736663,NA,NA,NA
90066,Los Angeles County,CA,68.5017026106697,NA,NA,NA
90221,Los Angeles County,CA,22.92849035187287,NA,NA,NA
90241,Los Angeles County,CA,NA,NA,52.00534759358288,NA
90247,Los Angeles County,CA,33.54143019296254,NA,NA,NA
90250,Los Angeles County,CA,12.088535754824063,NA,NA,NA
90260,Los Angeles County,CA,NA,49.30555555555556,NA,NA
90275,Los Angeles County,CA,79.56867196367764,NA,NA,NA
90277,Los Angeles County,CA,77.01475595913735,NA,NA,NA
90278,Los Angeles County,CA,74.85811577752554,NA,NA,NA
90280,Los Angeles County,CA,16.23155505107832,NA,NA,NA
90302,Los Angeles County,CA,53.51872871736663,NA,NA,NA
90404,Los Angeles County,CA,NA,NA,65.10695187165776,NA
90503,Los Angeles County,CA,43.35981838819523,NA,NA,NA
90604,Los Angeles County,CA,54.99432463110102,NA,NA,NA
90606,Los Angeles County,CA,75.42565266742338,NA,NA,NA
90650,Los Angeles County,CA,41.600454029511916,NA,18.048128342245988,NA
90703,Los Angeles County,CA,76.22020431328036,NA,NA,NA
90706,Los Angeles County,CA,NA,60.06944444444444,NA,NA
90710,Los Angeles County,CA,53.85925085130534,NA,NA,NA
90713,Los Angeles County,CA,97.33257661748014,NA,NA,NA
90723,Los Angeles County,CA,NA,NA,76.06951871657755,NA
90731,Los Angeles County,CA,NA,NA,NA,28.14814814814815
90732,Los Angeles County,CA,57.77525539160045,NA,NA,NA
90744,Los Angeles County,CA,64.75595913734394,NA,NA,NA
90746,Los Angeles County,CA,NA,NA,74.46524064171123,NA
90805,Los Angeles County,CA,10.896708286038592,92.01388888888889,NA,NA
90806,Los Angeles County,CA,95.51645856980704,NA,NA,NA
90808,Los Angeles County,CA,NA,NA,54.94652406417112,NA
90815,Los Angeles County,CA,NA,NA,47.860962566844925,NA
91016,Los Angeles County,CA,43.75709421112372,NA,NA,NA
91304,Los Angeles County,CA,59.93189557321226,NA,NA,NA
91331,Los Angeles County,CA,NA,4.861111111111112,NA,NA
91335,Los Angeles County,CA,NA,NA,NA,35.18518518518518
91340,Los Angeles County,CA,48.86492622020431,NA,NA,NA
91343,Los Angeles County,CA,NA,NA,50.668449197860966,NA
91350,Los Angeles County,CA,74.74460839954598,NA,NA,NA
91387,Los Angeles County,CA,76.04994324631102,NA,43.31550802139038,NA
91390,Los Angeles County,CA,NA,NA,NA,99.25925925925925
91406,Los Angeles County,CA,92.4517593643587,NA,NA,NA
91423,Los Angeles County,CA,NA,NA,91.71122994652407,NA
91606,Los Angeles County,CA,NA,NA,80.21390374331551,NA
91702,Los Angeles County,CA,NA,NA,28.74331550802139,NA
91733,Los Angeles County,CA,NA,73.61111111111111,NA,NA
91744,Los Angeles County,CA,NA,NA,18.181818181818183,NA
91752,Riverside County,CA,NA,NA,49.86631016042781,NA
91763,San Bernardino County,CA,67.87741203178207,NA,NA,NA
91765,Los Angeles County,CA,88.7627695800227,NA,NA,NA
91766,Los Angeles County,CA,55.39160045402951,NA,NA,NA
91770,Los Angeles County,CA,50.851305334846764,NA,NA,NA
91790,Los Angeles County,CA,37.17366628830874,NA,NA,NA
91911,San Diego County,CA,73.66628830874006,NA,NA,NA
91915,San Diego County,CA,76.04994324631102,NA,NA,NA
91941,San Diego County,CA,NA,NA,56.55080213903744,NA
91950,San Diego County,CA,NA,NA,77.80748663101605,35.92592592592593
92008,San Diego County,CA,87.11691259931895,NA,NA,NA
92009,San Diego County,CA,37.684449489216796,NA,NA,NA
92027,San Diego County,CA,NA,NA,45.05347593582888,NA
92029,San Diego County,CA,NA,NA,NA,72.22222222222221
92037,San Diego County,CA,83.25766174801362,NA,NA,NA
92040,San Diego County,CA,NA,83.33333333333334,NA,NA
92056,San Diego County,CA,NA,55.208333333333336,NA,NA
92061,San Diego County,CA,96.3677639046538,NA,NA,NA
92064,San Diego County,CA,NA,NA,47.593582887700535,NA
92065,San Diego County,CA,83.37116912599319,NA,47.19251336898396,NA
92069,San Diego County,CA,61.861520998864926,NA,NA,NA
92078,San Diego County,CA,33.88195232690125,NA,NA,48.51851851851852
92082,San Diego County,CA,61.237230419977294,NA,NA,NA
92083,San Diego County,CA,88.0249716231555,NA,NA,NA
92084,San Diego County,CA,33.37116912599319,NA,NA,NA
92102,San Diego County,CA,27.695800227014754,NA,36.229946524064175,NA
92105,San Diego County,CA,66.11804767309876,46.875,NA,NA
92109,San Diego County,CA,63.11010215664018,NA,NA,NA
92111,San Diego County,CA,60.55618615209989,NA,NA,NA
92113,San Diego County,CA,NA,NA,23.128342245989305,NA
92115,San Diego County,CA,92.3950056753689,NA,NA,NA
92117,San Diego County,CA,33.88195232690125,NA,NA,NA
92119,San Diego County,CA,79.39841089670828,NA,NA,NA
92120,San Diego County,CA,77.07150964812712,NA,NA,NA
92127,San Diego County,CA,60.329171396140744,NA,NA,NA
92130,San Diego County,CA,79.00113507377979,NA,NA,NA
92131,San Diego County,CA,27.75255391600454,NA,NA,NA
92154,San Diego County,CA,68.95573212258796,NA,NA,NA
92173,San Diego County,CA,87.45743473325767,NA,NA,NA
92201,Riverside County,CA,12.656072644721908,NA,NA,NA
92227,Imperial County,CA,28.717366628830877,NA,NA,NA
92236,Riverside County,CA,39.78433598183882,29.166666666666668,NA,NA
92243,Imperial County,CA,80.47673098751419,NA,NA,NA
92251,Imperial County,CA,33.88195232690125,NA,NA,NA
92253,Riverside County,CA,46.31101021566402,NA,NA,NA
92316,San Bernardino County,CA,59.93189557321226,NA,NA,NA
92336,San Bernardino County,CA,9.307604994324631,NA,NA,NA
92337,San Bernardino County,CA,79.85244040862656,NA,NA,NA
92346,San Bernardino County,CA,NA,NA,25,NA
92373,San Bernardino County,CA,77.75255391600454,NA,NA,NA
92376,San Bernardino County,CA,41.43019296254257,NA,NA,NA
92399,San Bernardino County,CA,39.78433598183882,NA,NA,NA
92404,San Bernardino County,CA,NA,54.861111111111114,NA,NA
92405,San Bernardino County,CA,NA,NA,87.83422459893048,NA
92410,San Bernardino County,CA,66.79909194097617,NA,NA,NA
92504,Riverside County,CA,36.9466515323496,NA,NA,NA
92544,Riverside County,CA,58.51305334846765,NA,NA,NA
92551,Riverside County,CA,NA,NA,64.70588235294117,NA
92557,Riverside County,CA,88.19523269012485,NA,NA,NA
92563,Riverside County,CA,57.37797956867197,NA,NA,NA
92571,Riverside County,CA,NA,41.66666666666667,NA,NA
92583,Riverside County,CA,70.88535754824063,NA,NA,NA
92584,Riverside County,CA,38.08172531214529,NA,NA,NA
92595,Riverside County,CA,86.88989784335982,NA,NA,NA
92629,Orange County,CA,95.91373439273553,NA,NA,NA
92630,Orange County,CA,NA,NA,31.149732620320858,NA
92637,Orange County,CA,NA,NA,98.1283422459893,NA
92646,Orange County,CA,NA,NA,24.46524064171123,NA
92649,Orange County,CA,48.240635641316686,NA,NA,NA
92656,Orange County,CA,20.771850170261068,NA,76.8716577540107,NA
92683,Orange County,CA,24.51759364358683,NA,NA,NA
92703,Orange County,CA,63.11010215664018,16.319444444444446,NA,NA
92704,Orange County,CA,17.877412031782068,NA,NA,NA
92780,Orange County,CA,36.88989784335982,NA,NA,NA
92802,Orange County,CA,NA,31.59722222222222,NA,NA
92805,Orange County,CA,58.85357548240636,NA,NA,NA
92831,Orange County,CA,83.03064699205449,NA,NA,NA
92840,Orange County,CA,27.24177071509648,NA,NA,NA
92843,Orange County,CA,66.6855845629966,NA,NA,NA
92844,Orange County,CA,NA,NA,92.11229946524064,NA
92865,Orange County,CA,75.19863791146425,NA,NA,NA
92867,Orange County,CA,56.980703745743476,NA,NA,NA
92870,Orange County,CA,NA,NA,77.94117647058823,NA
92880,Riverside County,CA,22.36095346197503,NA,NA,NA
92886,Orange County,CA,25.312145289443816,NA,NA,NA
92887,Orange County,CA,84.50624290578888,NA,NA,NA
93012,Ventura County,CA,78.43359818388194,NA,NA,NA
93033,Ventura County,CA,71.56640181611806,NA,NA,NA
93063,Ventura County,CA,NA,NA,NA,26.666666666666668
93065,Ventura County,CA,76.44721906923951,NA,NA,NA
93202,Kings County,CA,90.86265607264473,NA,NA,NA
93204,Kings County,CA,NA,82.29166666666666,NA,NA
93215,Kern County,CA,32.29284903518729,24.305555555555554,NA,NA
93230,Kings County,CA,NA,25.34722222222222,47.32620320855615,NA
93234,Fresno County,CA,NA,57.986111111111114,NA,NA
93247,Tulare County,CA,NA,77.43055555555556,NA,NA
93256,Tulare County,CA,95.74347332576617,NA,NA,NA
93257,Tulare County,CA,50.11350737797957,NA,NA,NA
93267,Tulare County,CA,NA,NA,97.72727272727273,NA
93274,Tulare County,CA,13.450624290578888,NA,5.614973262032086,NA
93277,Tulare County,CA,NA,67.70833333333334,24.06417112299465,NA
93304,Kern County,CA,NA,23.958333333333336,NA,NA
93307,Kern County,CA,NA,11.458333333333332,NA,NA
93308,Kern County,CA,NA,NA,NA,32.592592592592595
93309,Kern County,CA,71.85017026106696,NA,NA,NA
93313,Kern County,CA,53.23496027241771,NA,NA,NA
93405,San Luis Obispo County,CA,87.62769580022702,NA,NA,NA
93420,San Luis Obispo County,CA,96.31101021566401,NA,NA,NA
93422,San Luis Obispo County,CA,48.694665153234965,NA,NA,NA
93436,Santa Barbara County,CA,6.015891032917139,NA,NA,NA
93446,San Luis Obispo County,CA,91.6572077185017,NA,NA,NA
93458,Santa Barbara County,CA,NA,NA,14.705882352941178,NA
93463,Santa Barbara County,CA,94.04086265607265,NA,NA,NA
93536,Los Angeles County,CA,NA,NA,41.97860962566845,NA
93550,Los Angeles County,CA,NA,NA,76.6042780748663,NA
93551,Los Angeles County,CA,77.9228149829739,NA,NA,NA
93612,Fresno County,CA,NA,68.40277777777779,NA,NA
93614,Madera County,CA,NA,80.55555555555556,NA,NA
93618,Tulare County,CA,NA,20.833333333333336,NA,NA
93619,Fresno County,CA,14.415437003405222,NA,NA,NA
93630,Fresno County,CA,69.75028376844496,NA,NA,NA
93635,Merced County,CA,36.26560726447219,NA,NA,NA
93637,Madera County,CA,NA,NA,61.898395721925134,NA
93638,Madera County,CA,3.4619750283768442,NA,NA,NA
93640,Fresno County,CA,65.89103291713961,NA,NA,NA
93654,Fresno County,CA,52.894438138479,NA,NA,NA
93656,Fresno County,CA,NA,NA,97.45989304812835,NA
93657,Fresno County,CA,46.935300794551644,NA,NA,NA
93702,Fresno County,CA,27.525539160045405,6.597222222222222,NA,NA
93703,Fresno County,CA,NA,NA,81.95187165775401,NA
93704,Fresno County,CA,52.44040862656073,73.95833333333334,NA,NA
93705,Fresno County,CA,11.748013620885358,49.65277777777778,NA,NA
93711,Fresno County,CA,74.63110102156641,NA,NA,NA
93722,Fresno County,CA,NA,38.88888888888889,NA,NA
93725,Fresno County,CA,NA,NA,63.101604278074866,NA
93727,Fresno County,CA,26.560726447219068,NA,NA,NA
93728,Fresno County,CA,NA,NA,93.18181818181817,NA
93730,Fresno County,CA,89.5005675368899,NA,NA,NA
93905,Monterey County,CA,96.3677639046538,47.56944444444444,78.34224598930481,NA
93930,Monterey County,CA,NA,NA,94.6524064171123,NA
93940,Monterey County,CA,64.52894438138479,NA,75.93582887700535,NA
94015,San Mateo County,CA,48.86492622020431,NA,NA,NA
94041,Santa Clara County,CA,96.25425652667423,NA,NA,NA
94066,San Mateo County,CA,NA,NA,42.914438502673796,NA
94108,San Francisco County,CA,NA,NA,83.82352941176471,NA
94110,San Francisco County,CA,NA,NA,40.37433155080214,NA
94111,San Francisco County,CA,96.99205448354144,NA,NA,NA
94112,San Francisco County,CA,21.05561861520999,NA,NA,NA
94124,San Francisco County,CA,NA,74.65277777777779,NA,NA
94127,San Francisco County,CA,88.64926220204313,NA,NA,NA
94303,San Mateo County,CA,26.106696935300793,NA,NA,NA
94509,Contra Costa County,CA,23.212258796821793,NA,NA,NA
94513,Contra Costa County,CA,41.88422247446084,NA,NA,NA
94518,Contra Costa County,CA,NA,97.56944444444444,NA,NA
94520,Contra Costa County,CA,66.51532349602725,NA,NA,NA
94531,Contra Costa County,CA,52.72417707150965,NA,NA,NA
94533,Solano County,CA,31.441543700340524,NA,NA,NA
94536,Alameda County,CA,NA,NA,NA,21.85185185185185
94546,Alameda County,CA,43.75709421112372,NA,95.32085561497327,NA
94549,Contra Costa County,CA,82.633371169126,NA,NA,NA
94555,Alameda County,CA,82.80363223609535,NA,NA,NA
94563,Contra Costa County,CA,98.86492622020431,NA,NA,NA
94565,Contra Costa County,CA,NA,NA,21.65775401069519,NA
94566,Alameda County,CA,NA,NA,NA,40
94577,Alameda County,CA,47.389330306469915,NA,NA,NA
94578,Alameda County,CA,48.86492622020431,NA,NA,NA
94583,Contra Costa County,CA,46.59477866061294,NA,NA,NA
94585,Solano County,CA,64.81271282633371,NA,NA,NA
94602,Alameda County,CA,78.2633371169126,NA,NA,NA
94606,Alameda County,CA,75.42565266742338,NA,NA,NA
94607,Alameda County,CA,NA,55.55555555555556,NA,NA
94618,Alameda County,CA,NA,NA,81.55080213903744,NA
94621,Alameda County,CA,69.35300794551645,NA,NA,NA
94804,Contra Costa County,CA,87.57094211123723,NA,NA,NA
94806,Contra Costa County,CA,70.94211123723042,NA,NA,NA
94903,Marin County,CA,NA,86.80555555555556,71.92513368983957,NA
94941,Marin County,CA,15.43700340522134,NA,NA,NA
94952,Sonoma County,CA,88.7627695800227,NA,NA,NA
94965,Marin County,CA,96.65153234960272,NA,NA,NA
95014,Santa Clara County,CA,88.25198637911464,NA,NA,NA
95019,Santa Cruz County,CA,95.17593643586834,NA,NA,NA
95070,Santa Clara County,CA,81.8955732122588,NA,NA,NA
95121,Santa Clara County,CA,84.50624290578888,NA,NA,NA
95122,Santa Clara County,CA,NA,40.625,44.518716577540104,NA
95123,Santa Clara County,CA,NA,NA,NA,29.259259259259256
95126,Santa Clara County,CA,86.9466515323496,NA,NA,NA
95135,Santa Clara County,CA,NA,NA,NA,74.07407407407408
95212,San Joaquin County,CA,NA,79.51388888888889,NA,NA
95301,Merced County,CA,NA,NA,44.38502673796791,NA
95307,Stanislaus County,CA,21.396140749148696,NA,NA,NA
95340,Merced County,CA,NA,NA,65.50802139037432,NA
95341,Merced County,CA,13.450624290578888,NA,NA,NA
95348,Merced County,CA,66.23155505107832,NA,NA,NA
95356,Stanislaus County,CA,30.590238365493754,NA,NA,NA
95357,Stanislaus County,CA,NA,75.69444444444444,NA,NA
95358,Stanislaus County,CA,81.66855845629965,NA,NA,NA
95391,San Joaquin County,CA,83.82519863791147,NA,NA,NA
95531,Del Norte County,CA,NA,50.34722222222222,NA,NA
95603,Placer County,CA,69.86379114642452,NA,NA,NA
95610,Sacramento County,CA,69.86379114642452,NA,NA,NA
95620,Solano County,CA,99.31895573212259,NA,NA,NA
95624,Sacramento County,CA,48.12712826333711,NA,NA,NA
95628,Sacramento County,CA,68.27468785471056,NA,NA,NA
95632,Sacramento County,CA,NA,37.84722222222222,NA,NA
95648,Placer County,CA,NA,86.80555555555556,NA,NA
95650,Placer County,CA,86.2656072644722,NA,NA,NA
95660,Sacramento County,CA,92.50851305334847,NA,NA,NA
95694,Yolo County,CA,NA,NA,NA,97.03703703703704
95815,Sacramento County,CA,47.27582292849035,NA,NA,NA
95823,Sacramento County,CA,24.006810442678773,NA,NA,NA
95901,Yuba County,CA,21.282633371169126,NA,NA,NA
95946,Nevada County,CA,NA,NA,NA,65.92592592592592
95961,Yuba County,CA,47.72985244040863,NA,NA,NA
95966,Butte County,CA,62.99659477866061,NA,NA,NA
96001,Shasta County,CA,63.11010215664018,NA,NA,NA
96002,Shasta County,CA,53.85925085130534,NA,NA,NA
96003,Shasta County,CA,NA,NA,81.81818181818183,NA
96055,Tehama County,CA,NA,NA,NA,90.74074074074075
96080,Tehama County,CA,NA,62.5,NA,NA
80003,Jefferson County,CO,46.31101021566402,NA,NA,NA
80004,Jefferson County,CO,25.53916004540295,NA,NA,NA
80012,Arapahoe County,CO,NA,16.666666666666664,NA,63.70370370370371
80013,Arapahoe County,CO,NA,17.36111111111111,NA,NA
80014,Arapahoe County,CO,NA,NA,NA,27.40740740740741
80017,Arapahoe County,CO,NA,34.375,NA,NA
80020,Broomfield County,CO,8.626560726447218,NA,NA,NA
80110,Arapahoe County,CO,90.12485811577753,NA,NA,NA
80111,Arapahoe County,CO,42.22474460839955,NA,NA,NA
80112,Arapahoe County,CO,74.85811577752554,NA,NA,NA
80118,Douglas County,CO,NA,NA,96.2566844919786,NA
80122,Arapahoe County,CO,NA,69.44444444444444,NA,NA
80124,Douglas County,CO,NA,NA,62.43315508021391,NA
80127,Jefferson County,CO,NA,NA,NA,49.25925925925926
80204,Denver County,CO,NA,NA,21.524064171122994,NA
80205,Denver County,CO,35.130533484676505,NA,NA,NA
80207,Denver County,CO,46.481271282633365,NA,NA,NA
80219,Denver County,CO,NA,NA,NA,22.22222222222222
80221,Adams County,CO,12.712826333711691,NA,NA,NA
80222,Denver County,CO,63.847900113507386,NA,NA,NA
80226,Jefferson County,CO,16.74233825198638,NA,NA,NA
80229,Adams County,CO,NA,NA,14.171122994652407,NA
80231,Denver County,CO,NA,NA,79.01069518716578,NA
80233,Adams County,CO,9.875141884222474,NA,NA,NA
80234,Adams County,CO,32.51986379114643,NA,NA,NA
80239,Denver County,CO,NA,NA,NA,51.11111111111111
80247,Arapahoe County,CO,NA,47.56944444444444,NA,NA
80421,Park County,CO,NA,95.48611111111111,NA,NA
80439,Jefferson County,CO,60.38592508513053,NA,NA,NA
80516,Weld County,CO,NA,NA,NA,60
80526,Larimer County,CO,15.83427922814983,NA,NA,NA
80528,Larimer County,CO,NA,NA,51.470588235294116,NA
80538,Larimer County,CO,12.599318955732123,NA,NA,NA
80620,Weld County,CO,83.65493757094211,NA,NA,NA
80631,Weld County,CO,6.696935300794552,NA,NA,NA
80759,Yuma County,CO,85.18728717366629,NA,NA,NA
80817,El Paso County,CO,74.51759364358684,NA,NA,NA
80831,El Paso County,CO,46.935300794551644,NA,NA,NA
80910,El Paso County,CO,NA,NA,NA,54.81481481481482
80917,El Paso County,CO,52.667423382519864,NA,NA,NA
80922,El Paso County,CO,66.51532349602725,NA,NA,NA
81003,Pueblo County,CO,NA,NA,32.887700534759354,NA
81211,Chaffee County,CO,NA,NA,NA,81.85185185185185
81230,Gunnison County,CO,89.27355278093077,NA,NA,NA
81301,La Plata County,CO,NA,NA,NA,42.592592592592595
81401,Montrose County,CO,NA,NA,91.57754010695187,NA
06010,Hartford County,CT,2.8944381384790012,NA,NA,NA
06019,Hartford County,CT,NA,NA,89.57219251336899,NA
06051,Hartford County,CT,3.859250851305335,NA,4.0106951871657754,NA
06053,Hartford County,CT,NA,9.027777777777777,NA,NA
06067,Hartford County,CT,NA,NA,66.17647058823529,63.33333333333333
06096,Hartford County,CT,85.92508513053349,NA,NA,NA
06098,Litchfield County,CT,NA,NA,73.2620320855615,NA
06106,Hartford County,CT,NA,NA,22.727272727272727,NA
06111,Hartford County,CT,NA,NA,67.9144385026738,NA
06112,Hartford County,CT,62.939841089670836,NA,NA,NA
06114,Hartford County,CT,6.242905788876277,NA,NA,NA
06226,Windham County,CT,42.22474460839955,NA,NA,NA
06239,Windham County,CT,40.69239500567537,NA,NA,NA
06260,Windham County,CT,NA,NA,61.49732620320856,NA
06277,Windham County,CT,60.55618615209989,NA,NA,NA
06279,Tolland County,CT,94.77866061293983,NA,NA,NA
06410,New Haven County,CT,44.38138479001135,64.93055555555556,NA,NA
06415,New London County,CT,28.036322360953463,NA,NA,NA
06450,New Haven County,CT,NA,NA,5.080213903743315,NA
06451,New Haven County,CT,16.23155505107832,14.930555555555555,NA,NA
06457,Middlesex County,CT,NA,NA,NA,8.88888888888889
06468,Fairfield County,CT,NA,98.26388888888889,NA,NA
06469,Middlesex County,CT,NA,NA,99.8663101604278,NA
06473,New Haven County,CT,91.14642451759364,NA,NA,NA
06511,New Haven County,CT,5.959137343927355,NA,NA,NA
06512,New Haven County,CT,50.567536889897845,NA,NA,NA
06513,New Haven County,CT,81.61180476730988,NA,NA,NA
06514,New Haven County,CT,NA,NA,32.62032085561498,NA
06516,New Haven County,CT,52.44040862656073,NA,NA,NA
06519,New Haven County,CT,62.42905788876277,NA,NA,NA
06604,Fairfield County,CT,28.66061293984109,23.26388888888889,NA,NA
06605,Fairfield County,CT,84.7900113507378,NA,NA,NA
06606,Fairfield County,CT,11.12372304199773,NA,NA,NA
06614,Fairfield County,CT,NA,NA,NA,66.2962962962963
06615,Fairfield County,CT,70.09080590238366,NA,NA,NA
06705,New Haven County,CT,69.80703745743473,NA,NA,NA
06708,New Haven County,CT,53.34846765039728,NA,NA,NA
06770,New Haven County,CT,NA,NA,22.994652406417114,NA
06779,Litchfield County,CT,NA,61.80555555555556,NA,NA
06791,Litchfield County,CT,98.9216799091941,NA,NA,NA
06810,Fairfield County,CT,NA,NA,16.042780748663102,NA
06811,Fairfield County,CT,NA,NA,91.31016042780749,NA
06880,Fairfield County,CT,91.71396140749148,NA,NA,NA
06896,Fairfield County,CT,94.77866061293983,NA,NA,NA
06905,Fairfield County,CT,82.46311010215665,NA,NA,NA
19702,New Castle County,DE,81.95232690124858,NA,NA,NA
19709,New Castle County,DE,NA,34.02777777777778,NA,NA
19720,New Castle County,DE,23.83654937570942,NA,2.807486631016043,NA
19804,New Castle County,DE,50.96481271282634,NA,25.668449197860966,NA
19808,New Castle County,DE,49.716231555051074,NA,NA,NA
19943,Kent County,DE,NA,NA,84.75935828877004,NA
19946,Kent County,DE,NA,98.95833333333334,NA,NA
32011,Nassau County,FL,75.7094211123723,NA,NA,NA
32025,Columbia County,FL,19.693530079455165,NA,NA,NA
32034,Nassau County,FL,NA,NA,NA,10.74074074074074
32055,Columbia County,FL,33.82519863791146,NA,NA,NA
32060,Suwannee County,FL,NA,54.513888888888886,NA,NA
32063,Baker County,FL,90.35187287173666,NA,NA,NA
32068,Clay County,FL,NA,27.430555555555557,NA,NA
32080,St. Johns County,FL,NA,NA,91.97860962566845,NA
32082,St. Johns County,FL,NA,NA,54.94652406417112,NA
32086,St. Johns County,FL,89.8410896708286,NA,NA,NA
32113,Marion County,FL,75.19863791146425,NA,NA,NA
32114,Volusia County,FL,NA,NA,22.32620320855615,NA
32132,Volusia County,FL,98.24063564131669,NA,NA,NA
32162,Sumter County,FL,NA,NA,NA,2.9629629629629632
32163,Sumter County,FL,NA,NA,NA,34.81481481481482
32164,Flagler County,FL,24.51759364358683,NA,NA,NA
32177,Putnam County,FL,71.28263337116913,NA,NA,NA
32207,Duval County,FL,NA,30.90277777777778,NA,42.96296296296296
32210,Duval County,FL,52.894438138479,NA,4.27807486631016,NA
32211,Duval County,FL,NA,NA,20.855614973262032,NA
32218,Duval County,FL,60.726447219069236,NA,3.8770053475935833,NA
32221,Duval County,FL,NA,NA,27.27272727272727,NA
32225,Duval County,FL,40.69239500567537,NA,NA,NA
32244,Duval County,FL,54.59704880817253,NA,NA,NA
32246,Duval County,FL,56.29965947786606,NA,16.31016042780749,NA
32250,Duval County,FL,71.28263337116913,NA,57.62032085561497,NA
32257,Duval County,FL,85.75482406356413,NA,NA,NA
32259,St. Johns County,FL,22.190692395005676,NA,70.72192513368985,39.25925925925926
32277,Duval County,FL,51.64585698070374,NA,52.67379679144385,NA
32304,Leon County,FL,51.13507377979569,NA,NA,NA
32344,Jefferson County,FL,NA,NA,NA,95.18518518518519
32404,Bay County,FL,54.25652667423383,NA,NA,NA
32503,Escambia County,FL,NA,NA,20.32085561497326,NA
32506,Escambia County,FL,NA,NA,14.705882352941178,NA
32533,Escambia County,FL,NA,NA,NA,19.62962962962963
32536,Okaloosa County,FL,NA,NA,58.02139037433155,NA
32607,Alachua County,FL,15.209988649262202,NA,NA,NA
32608,Alachua County,FL,2.7809307604994324,86.45833333333334,NA,NA
32615,Alachua County,FL,40.29511918274688,NA,NA,NA
32619,Gilchrist County,FL,89.61407491486946,NA,NA,NA
32641,Alachua County,FL,NA,28.125,NA,NA
32653,Alachua County,FL,5.051078320090806,NA,NA,NA
32656,Clay County,FL,NA,57.986111111111114,NA,NA
32669,Alachua County,FL,67.19636776390465,NA,NA,NA
32693,Gilchrist County,FL,100,NA,NA,NA
32708,Seminole County,FL,NA,NA,NA,70
32712,Orange County,FL,24.971623155505107,NA,NA,NA
32720,Volusia County,FL,59.47786606129398,NA,NA,NA
32725,Volusia County,FL,NA,NA,33.288770053475936,NA
32738,Volusia County,FL,25.028376844494893,NA,NA,NA
32765,Seminole County,FL,67.19636776390465,NA,78.07486631016043,NA
32803,Orange County,FL,91.99772985244041,NA,70.05347593582889,68.88888888888889
32828,Orange County,FL,NA,38.54166666666667,NA,NA
32829,Orange County,FL,95.34619750283768,NA,NA,NA
32835,Orange County,FL,80.53348467650397,NA,NA,NA
32836,Orange County,FL,79.05788876276958,NA,NA,NA
32837,Orange County,FL,38.19523269012486,NA,NA,NA
32839,Orange County,FL,59.47786606129398,NA,NA,NA
32905,Brevard County,FL,40.46538024971623,NA,NA,NA
32940,Brevard County,FL,22.077185017026107,NA,NA,NA
32953,Brevard County,FL,NA,NA,56.81818181818182,NA
32955,Brevard County,FL,NA,51.041666666666664,NA,NA
33026,Broward County,FL,50.17026106696936,NA,NA,NA
33037,Monroe County,FL,NA,NA,86.09625668449198,NA
33040,Monroe County,FL,69.35300794551645,NA,NA,NA
33055,Miami-Dade County,FL,NA,NA,75.66844919786097,NA
33056,Miami-Dade County,FL,13.22360953461975,NA,NA,NA
33064,Broward County,FL,NA,NA,67.11229946524064,NA
33071,Broward County,FL,NA,52.43055555555556,NA,NA
33126,Miami-Dade County,FL,38.42224744608399,NA,NA,NA
33127,Miami-Dade County,FL,NA,27.77777777777778,NA,NA
33128,Miami-Dade County,FL,87.17366628830874,NA,NA,NA
33130,Miami-Dade County,FL,84.33598183881952,NA,NA,61.85185185185185
33144,Miami-Dade County,FL,NA,NA,NA,91.85185185185185
33155,Miami-Dade County,FL,NA,51.736111111111114,NA,NA
33162,Miami-Dade County,FL,NA,38.88888888888889,56.68449197860963,NA
33168,Miami-Dade County,FL,NA,NA,67.51336898395722,NA
33172,Miami-Dade County,FL,32.51986379114643,NA,NA,NA
33177,Miami-Dade County,FL,10.556186152099887,NA,NA,NA
33184,Miami-Dade County,FL,NA,NA,72.86096256684492,NA
33185,Miami-Dade County,FL,NA,NA,NA,69.62962962962963
33186,Miami-Dade County,FL,2.09988649262202,NA,NA,NA
33196,Miami-Dade County,FL,57.888762769580026,NA,NA,NA
33322,Broward County,FL,54.65380249716232,NA,NA,NA
33401,Palm Beach County,FL,58.22928490351873,NA,NA,NA
33403,Palm Beach County,FL,94.43813847900114,NA,NA,NA
33410,Palm Beach County,FL,NA,79.51388888888889,NA,NA
33411,Palm Beach County,FL,44.26787741203178,NA,NA,NA
33428,Palm Beach County,FL,48.240635641316686,NA,65.77540106951871,NA
33430,Palm Beach County,FL,38.30874006810443,NA,NA,NA
33434,Palm Beach County,FL,89.78433598183881,NA,NA,NA
33440,Hendry County,FL,NA,NA,48.663101604278076,NA
33513,Sumter County,FL,99.09194097616346,NA,NA,NA
33547,Hillsborough County,FL,33.14415437003405,NA,NA,NA
33558,Hillsborough County,FL,72.70147559591373,NA,NA,NA
33563,Hillsborough County,FL,24.74460839954597,NA,NA,NA
33569,Hillsborough County,FL,NA,61.111111111111114,NA,NA
33570,Hillsborough County,FL,52.894438138479,NA,NA,NA
33578,Hillsborough County,FL,31.214528944381385,NA,NA,NA
33604,Hillsborough County,FL,7.661748013620885,NA,NA,NA
33610,Hillsborough County,FL,NA,NA,14.304812834224597,NA
33613,Hillsborough County,FL,NA,NA,40.106951871657756,NA
33614,Hillsborough County,FL,NA,NA,NA,45.55555555555556
33617,Hillsborough County,FL,8.11577752553916,NA,31.149732620320858,NA
33619,Hillsborough County,FL,22.13393870601589,NA,NA,NA
33629,Hillsborough County,FL,NA,NA,NA,76.66666666666667
33647,Hillsborough County,FL,82.34960272417707,NA,NA,NA
33703,Pinellas County,FL,75.7094211123723,NA,NA,NA
33707,Pinellas County,FL,NA,NA,97.86096256684492,NA
33713,Pinellas County,FL,NA,75.69444444444444,NA,NA
33770,Pinellas County,FL,NA,NA,78.6096256684492,NA
33777,Pinellas County,FL,NA,74.65277777777779,NA,NA
33778,Pinellas County,FL,51.248581157775256,92.36111111111111,NA,NA
33810,Polk County,FL,22.92849035187287,NA,NA,NA
33825,Highlands County,FL,NA,77.43055555555556,NA,NA
33880,Polk County,FL,24.233825198637913,NA,NA,NA
33907,Lee County,FL,42.508513053348466,NA,NA,NA
33908,Lee County,FL,55.22133938706016,NA,NA,NA
33935,Hendry County,FL,62.769580022701476,NA,NA,NA
33966,Lee County,FL,NA,96.18055555555556,NA,NA
33967,Lee County,FL,49.31895573212259,NA,56.28342245989305,NA
33973,Lee County,FL,54.99432463110102,NA,NA,NA
33983,Charlotte County,FL,42.508513053348466,NA,NA,NA
33991,Lee County,FL,72.92849035187288,NA,90.77540106951871,40.74074074074074
34109,Collier County,FL,NA,NA,72.32620320855615,54.44444444444444
34112,Collier County,FL,NA,NA,NA,38.51851851851852
34135,Lee County,FL,NA,NA,NA,48.888888888888886
34203,Manatee County,FL,32.29284903518729,NA,NA,NA
34207,Manatee County,FL,88.53575482406356,NA,NA,NA
34211,Manatee County,FL,96.48127128263337,NA,96.3903743315508,NA
34221,Manatee County,FL,32.9738933030647,NA,NA,NA
34222,Manatee County,FL,83.82519863791147,NA,NA,NA
34232,Sarasota County,FL,71.7366628830874,NA,NA,NA
34239,Sarasota County,FL,70.94211123723042,NA,NA,NA
34266,DeSoto County,FL,42.11123723041998,NA,NA,NA
34275,Sarasota County,FL,NA,NA,NA,31.11111111111111
34420,Marion County,FL,28.603859250851304,NA,NA,NA
34428,Citrus County,FL,NA,85.76388888888889,NA,NA
34442,Citrus County,FL,83.65493757094211,NA,NA,NA
34470,Marion County,FL,65.66401816118048,59.375,NA,NA
34471,Marion County,FL,73.72304199772985,NA,50.534759358288774,NA
34472,Marion County,FL,89.89784335981838,NA,NA,NA
34473,Marion County,FL,20.03405221339387,NA,NA,NA
34474,Marion County,FL,NA,90.97222222222221,NA,NA
34480,Marion County,FL,98.01362088535754,NA,80.08021390374331,NA
34488,Marion County,FL,68.95573212258796,NA,NA,NA
34491,Marion County,FL,38.36549375709421,NA,NA,NA
34606,Hernando County,FL,49.94324631101021,NA,NA,NA
34609,Hernando County,FL,29.625425652667424,NA,NA,NA
34669,Pasco County,FL,NA,57.638888888888886,NA,NA
34685,Pinellas County,FL,81.78206583427922,NA,NA,NA
34690,Pasco County,FL,NA,90.27777777777779,NA,NA
34691,Pasco County,FL,62.145289443813844,NA,43.18181818181818,NA
34698,Pinellas County,FL,72.92849035187288,NA,NA,NA
34711,Lake County,FL,25.53916004540295,NA,NA,NA
34952,St. Lucie County,FL,NA,NA,23.663101604278076,NA
34974,Okeechobee County,FL,78.54710556186151,NA,NA,NA
34982,St. Lucie County,FL,NA,NA,NA,38.88888888888889
30013,Rockdale County,GA,NA,NA,44.25133689839572,NA
30032,DeKalb County,GA,17.65039727582293,NA,NA,NA
30046,Gwinnett County,GA,55.67536889897844,NA,NA,NA
30060,Cobb County,GA,55.95913734392736,NA,NA,NA
30062,Cobb County,GA,14.415437003405222,NA,41.57754010695187,NA
30064,Cobb County,GA,38.08172531214529,NA,NA,NA
30067,Cobb County,GA,44.49489216799092,NA,NA,NA
30075,Fulton County,GA,16.174801362088537,NA,NA,NA
30093,Gwinnett County,GA,NA,NA,53.6096256684492,NA
30094,Rockdale County,GA,27.07150964812713,NA,NA,NA
30101,Cobb County,GA,63.45062429057889,NA,72.19251336898395,NA
30116,Carroll County,GA,63.73439273552781,NA,NA,50.37037037037037
30117,Carroll County,GA,26.617480136208854,NA,NA,NA
30122,Douglas County,GA,NA,NA,52.80748663101604,NA
30126,Cobb County,GA,NA,NA,NA,90
30152,Cobb County,GA,28.206583427922816,NA,NA,NA
30165,Floyd County,GA,21.33938706015891,NA,NA,NA
30180,Carroll County,GA,30.192962542565265,NA,NA,NA
30223,Spalding County,GA,24.46083995459705,NA,35.962566844919785,NA
30248,Henry County,GA,94.32463110102157,NA,NA,NA
30252,Henry County,GA,NA,NA,68.98395721925134,NA
30260,Clayton County,GA,66.11804767309876,NA,NA,NA
30265,Coweta County,GA,NA,NA,48.93048128342246,NA
30291,Fulton County,GA,NA,NA,36.898395721925134,NA
30296,Clayton County,GA,NA,NA,59.759358288770045,NA
30297,Clayton County,GA,NA,NA,NA,97.77777777777777
30309,Fulton County,GA,NA,NA,NA,55.55555555555556
30317,DeKalb County,GA,72.30419977298524,NA,NA,NA
30319,DeKalb County,GA,59.080590238365495,NA,NA,NA
30331,Fulton County,GA,5.845629965947786,NA,NA,NA
30349,Fulton County,GA,20.6583427922815,NA,NA,NA
30354,Fulton County,GA,NA,NA,62.834224598930476,NA
30471,Emanuel County,GA,97.72985244040862,NA,NA,NA
30506,Hall County,GA,NA,NA,NA,20
30507,Hall County,GA,NA,NA,42.37967914438502,NA
30519,Gwinnett County,GA,66.6855845629966,NA,NA,NA
30523,Habersham County,GA,84.50624290578888,NA,NA,NA
30566,Hall County,GA,81.27128263337117,NA,NA,NA
30620,Barrow County,GA,72.92849035187288,NA,NA,NA
30622,Oconee County,GA,56.8671963677639,NA,NA,NA
30680,Barrow County,GA,23.893303064699207,NA,NA,NA
30701,Gordon County,GA,41.146424517593644,NA,NA,NA
30720,Whitfield County,GA,48.240635641316686,NA,NA,NA
30736,Catoosa County,GA,64.41543700340522,NA,NA,NA
30752,Dade County,GA,NA,NA,NA,87.77777777777777
30755,Whitfield County,GA,NA,NA,NA,82.5925925925926
30802,Columbia County,GA,91.60045402951191,NA,NA,NA
30906,Richmond County,GA,46.14074914869467,NA,NA,NA
30907,Columbia County,GA,22.531214528944382,NA,NA,NA
31014,Bleckley County,GA,72.0771850170261,NA,NA,NA
31024,Putnam County,GA,85.30079455164585,NA,NA,NA
31088,Houston County,GA,41.03291713961407,NA,NA,NA
31096,Johnson County,GA,89.89784335981838,NA,NA,NA
31312,Effingham County,GA,NA,93.05555555555556,NA,NA
31313,Liberty County,GA,60.83995459704881,NA,NA,NA
31406,Chatham County,GA,30.249716231555052,NA,NA,NA
31415,Chatham County,GA,NA,NA,70.32085561497327,NA
31419,Chatham County,GA,14.245175936435869,NA,NA,NA
31503,Ware County,GA,NA,NA,50.40106951871658,NA
31525,Glynn County,GA,NA,87.5,NA,NA
31602,Lowndes County,GA,NA,NA,36.096256684491976,NA
31605,Lowndes County,GA,71.79341657207718,NA,NA,NA
31634,Clinch County,GA,90.86265607264473,NA,NA,NA
31714,Turner County,GA,NA,NA,NA,84.07407407407408
31719,Sumter County,GA,NA,NA,NA,75.55555555555556
31750,Ben Hill County,GA,NA,NA,NA,31.851851851851855
31768,Colquitt County,GA,18.104426787741204,NA,NA,NA
31792,Thomas County,GA,46.31101021566402,62.15277777777778,NA,NA
31903,Muscogee County,GA,43.75709421112372,NA,NA,NA
39817,Decatur County,GA,NA,72.22222222222221,NA,NA
39828,Grady County,GA,46.59477866061294,NA,NA,NA
96701,Honolulu County,HI,28.206583427922816,NA,31.684491978609625,NA
96707,Honolulu County,HI,NA,NA,66.0427807486631,NA
96732,Maui County,HI,42.508513053348466,NA,NA,NA
96761,Maui County,HI,83.42792281498296,NA,NA,NA
96766,Kauai County,HI,NA,NA,66.71122994652407,NA
96789,Honolulu County,HI,NA,NA,21.92513368983957,NA
96795,Honolulu County,HI,NA,85.06944444444444,NA,NA
96797,Honolulu County,HI,8.796821793416571,NA,NA,NA
96814,Honolulu County,HI,NA,NA,66.71122994652407,NA
96815,Honolulu County,HI,NA,NA,NA,59.25925925925925
96816,Honolulu County,HI,27.75255391600454,NA,NA,NA
96817,Honolulu County,HI,NA,14.23611111111111,NA,NA
83442,Jefferson County,ID,9.534619750283769,NA,NA,NA
83501,Nez Perce County,ID,NA,NA,42.780748663101605,NA
83530,Idaho County,ID,NA,NA,NA,77.77777777777779
83607,Canyon County,ID,69.5800227014756,NA,NA,NA
83616,Ada County,ID,NA,NA,NA,12.222222222222221
83646,Ada County,ID,26.73098751418842,77.08333333333334,NA,NA
83686,Canyon County,ID,NA,19.444444444444446,NA,NA
83687,Canyon County,ID,36.095346197502835,NA,NA,NA
83704,Ada County,ID,11.91827468785471,NA,NA,NA
83709,Ada County,ID,9.080590238365494,NA,44.11764705882353,NA
83714,Ada County,ID,NA,NA,NA,15.185185185185185
83814,Kootenai County,ID,NA,NA,31.417112299465238,NA
83815,Kootenai County,ID,27.355278093076052,NA,NA,NA
83854,Kootenai County,ID,42.508513053348466,NA,30.080213903743314,NA
60004,Cook County,IL,18.388195232690123,NA,NA,NA
60010,Lake County,IL,53.291713961407496,NA,NA,NA
60013,McHenry County,IL,NA,NA,54.278074866310156,NA
60047,Lake County,IL,NA,NA,35.6951871657754,NA
60050,McHenry County,IL,95.23269012485811,NA,NA,NA
60056,Cook County,IL,17.196367763904654,NA,NA,NA
60067,Cook County,IL,NA,NA,NA,19.25925925925926
60068,Cook County,IL,33.88195232690125,NA,NA,NA
60076,Cook County,IL,NA,NA,71.2566844919786,NA
60077,Cook County,IL,34.506242905788874,NA,NA,NA
60098,McHenry County,IL,NA,NA,82.62032085561498,NA
60099,Lake County,IL,37.17366628830874,NA,NA,NA
60102,McHenry County,IL,19.012485811577754,NA,NA,NA
60115,DeKalb County,IL,65.15323496027243,NA,NA,NA
60120,Kane County,IL,54.65380249716232,NA,NA,NA
60123,Kane County,IL,84.10896708286039,NA,21.256684491978607,NA
60124,Kane County,IL,49.205448354143016,NA,NA,NA
60126,DuPage County,IL,8.059023836549375,NA,9.62566844919786,NA
60136,Kane County,IL,84.90351872871736,NA,NA,NA
60137,DuPage County,IL,44.09761634506243,NA,NA,NA
60139,DuPage County,IL,47.50283768444949,NA,NA,NA
60153,Cook County,IL,NA,NA,37.4331550802139,NA
60162,Cook County,IL,NA,NA,94.38502673796792,NA
60169,Cook County,IL,19.23950056753689,NA,NA,NA
60174,Kane County,IL,23.72304199772985,NA,NA,39.62962962962963
60175,Kane County,IL,NA,NA,NA,35.55555555555556
60185,DuPage County,IL,8.39954597048808,NA,NA,NA
60188,DuPage County,IL,NA,NA,19.25133689839572,NA
60193,Cook County,IL,19.012485811577754,NA,NA,NA
60411,Cook County,IL,38.819523269012485,NA,NA,NA
60423,Will County,IL,20.94211123723042,NA,NA,NA
60426,Cook County,IL,59.080590238365495,NA,NA,NA
60430,Cook County,IL,89.89784335981838,NA,62.56684491978609,NA
60448,Will County,IL,NA,NA,NA,47.03703703703704
60451,Will County,IL,NA,99.65277777777779,NA,NA
60452,Cook County,IL,29.05788876276958,NA,NA,NA
60453,Cook County,IL,45.40295119182747,NA,NA,NA
60457,Cook County,IL,NA,98.61111111111111,NA,NA
60471,Cook County,IL,93.35981838819524,NA,NA,NA
60505,Kane County,IL,14.415437003405222,NA,NA,NA
60517,DuPage County,IL,NA,NA,NA,66.66666666666666
60538,Kendall County,IL,65.77752553916004,NA,NA,NA
60540,DuPage County,IL,13.33711691259932,NA,NA,NA
60545,Kendall County,IL,NA,NA,NA,77.03703703703704
60548,DeKalb County,IL,82.00908059023837,NA,NA,NA
60554,Kane County,IL,NA,NA,93.44919786096256,NA
60555,DuPage County,IL,60.83995459704881,NA,NA,NA
60564,Will County,IL,16.572077185017026,NA,NA,26.296296296296294
60585,Will County,IL,NA,NA,52.54010695187166,NA
60586,Will County,IL,35.187287173666284,NA,NA,NA
60605,Cook County,IL,60.83995459704881,NA,NA,NA
60607,Cook County,IL,45.970488081725314,NA,NA,NA
60613,Cook County,IL,42.22474460839955,NA,NA,NA
60614,Cook County,IL,57.264472190692395,NA,NA,NA
60615,Cook County,IL,NA,NA,55.74866310160428,NA
60616,Cook County,IL,17.53688989784336,NA,NA,NA
60625,Cook County,IL,30.590238365493754,NA,NA,NA
60628,Cook County,IL,53.121452894438136,NA,NA,NA
60629,Cook County,IL,74.12031782065834,NA,24.86631016042781,NA
60630,Cook County,IL,58.51305334846765,NA,NA,NA
60632,Cook County,IL,16.458569807037456,NA,NA,NA
60634,Cook County,IL,7.71850170261067,NA,NA,NA
60639,Cook County,IL,18.44494892167991,NA,NA,NA
60646,Cook County,IL,44.09761634506243,NA,NA,NA
60647,Cook County,IL,NA,75.69444444444444,NA,NA
60651,Cook County,IL,NA,NA,7.754010695187167,NA
60653,Cook County,IL,NA,93.05555555555556,NA,NA
60656,Cook County,IL,51.475595913734395,NA,NA,NA
60657,Cook County,IL,29.96594778660613,NA,20.588235294117645,NA
60659,Cook County,IL,54.14301929625426,NA,NA,NA
60804,Cook County,IL,NA,NA,19.6524064171123,NA
60805,Cook County,IL,85.69807037457434,NA,NA,NA
61032,Stephenson County,IL,NA,NA,32.219251336898395,NA
61109,Winnebago County,IL,43.927355278093074,NA,NA,NA
61115,Winnebago County,IL,58.172531214528945,NA,NA,NA
61254,Henry County,IL,81.27128263337117,NA,NA,NA
61455,McDonough County,IL,NA,NA,NA,64.07407407407408
61603,Peoria County,IL,NA,NA,84.35828877005348,NA
61701,McLean County,IL,NA,NA,29.010695187165776,NA
61704,McLean County,IL,38.819523269012485,NA,85.6951871657754,NA
61832,Vermilion County,IL,NA,NA,9.893048128342247,42.22222222222222
61938,Coles County,IL,31.04426787741203,NA,NA,NA
61951,Moultrie County,IL,97.95686719636775,NA,NA,NA
62052,Jersey County,IL,NA,NA,NA,77.4074074074074
62234,Madison County,IL,NA,NA,NA,44.44444444444444
62254,St. Clair County,IL,NA,NA,98.52941176470588,NA
62301,Adams County,IL,46.59477866061294,NA,NA,NA
62401,Effingham County,IL,63.507377979568666,NA,NA,NA
62703,Sangamon County,IL,78.77412031782066,NA,NA,NA
62704,Sangamon County,IL,62.031782065834285,NA,NA,NA
62966,Jackson County,IL,50.567536889897845,NA,NA,NA
46074,Hamilton County,IN,80.64699205448355,NA,NA,NA
46124,Johnson County,IN,68.95573212258796,NA,NA,NA
46131,Johnson County,IN,32.9738933030647,NA,NA,NA
46140,Hancock County,IN,25.879682179341657,NA,NA,NA
46158,Morgan County,IN,NA,NA,NA,30
46201,Marion County,IN,NA,37.84722222222222,18.315508021390375,NA
46202,Marion County,IN,45.34619750283768,NA,NA,NA
46218,Marion County,IN,NA,15.625,NA,NA
46219,Marion County,IN,24.290578887627696,NA,NA,NA
46220,Marion County,IN,90.35187287173666,NA,71.92513368983957,NA
46222,Marion County,IN,52.72417707150965,NA,NA,NA
46227,Marion County,IN,10.21566401816118,NA,NA,NA
46229,Marion County,IN,NA,31.944444444444443,NA,NA
46241,Marion County,IN,14.812712826333712,NA,NA,NA
46254,Marion County,IN,NA,NA,22.192513368983956,NA
46260,Marion County,IN,64.81271282633371,NA,NA,NA
46278,Marion County,IN,98.07037457434733,NA,NA,NA
46307,Lake County,IN,6.8671963677639045,NA,NA,NA
46311,Lake County,IN,NA,NA,29.67914438502674,NA
46319,Lake County,IN,NA,NA,NA,27.037037037037038
46342,Lake County,IN,7.945516458569807,NA,NA,NA
46360,LaPorte County,IN,NA,NA,NA,5.185185185185185
46368,Porter County,IN,1.2485811577752552,NA,2.5401069518716577,NA
46373,Lake County,IN,35.01702610669694,NA,NA,NA
46383,Porter County,IN,1.362088535754824,NA,NA,NA
46385,Porter County,IN,4.767309875141884,NA,NA,NA
46562,Kosciusko County,IN,NA,NA,94.5187165775401,NA
46580,Kosciusko County,IN,NA,NA,44.518716577540104,NA
46619,St. Joseph County,IN,NA,68.75,NA,NA
46706,DeKalb County,IN,30.533484676503974,NA,NA,NA
46723,Whitley County,IN,NA,NA,NA,71.48148148148148
46725,Whitley County,IN,37.684449489216796,NA,NA,NA
46805,Allen County,IN,38.25198637911464,NA,NA,NA
46816,Allen County,IN,27.525539160045405,NA,NA,NA
46818,Allen County,IN,46.76503972758229,NA,NA,NA
46845,Allen County,IN,30.249716231555052,NA,NA,NA
46992,Wabash County,IN,37.17366628830874,NA,NA,NA
47129,Clark County,IN,NA,NA,NA,49.629629629629626
47130,Clark County,IN,32.633371169125994,NA,NA,6.296296296296296
47150,Floyd County,IN,9.761634506242906,NA,NA,NA
47201,Bartholomew County,IN,NA,NA,11.898395721925134,NA
47203,Bartholomew County,IN,31.441543700340524,NA,NA,NA
47274,Jackson County,IN,17.53688989784336,NA,NA,NA
47401,Monroe County,IN,93.87060158910329,NA,NA,NA
47421,Lawrence County,IN,58.342792281498305,NA,NA,NA
47610,Warrick County,IN,86.54937570942111,NA,NA,NA
47710,Vanderburgh County,IN,85.07377979568672,NA,NA,NA
47715,Vanderburgh County,IN,NA,NA,74.33155080213903,NA
47720,Vanderburgh County,IN,77.63904653802497,NA,NA,NA
47805,Vigo County,IN,59.87514188422247,NA,NA,NA
47933,Montgomery County,IN,NA,NA,NA,45.18518518518518
47960,White County,IN,NA,NA,NA,88.88888888888889
47978,Jasper County,IN,NA,NA,65.64171122994652,NA
50208,Jasper County,IA,NA,NA,NA,64.81481481481481
50265,Polk County,IA,86.2656072644722,NA,NA,NA
50314,Polk County,IA,NA,NA,43.98395721925134,NA
50315,Polk County,IA,NA,NA,8.55614973262032,NA
50317,Polk County,IA,NA,NA,85.96256684491979,NA
50320,Polk County,IA,NA,44.79166666666667,NA,NA
50401,Cerro Gordo County,IA,NA,13.88888888888889,NA,NA
50501,Webster County,IA,NA,NA,23.39572192513369,NA
50648,Buchanan County,IA,93.58683314415437,NA,NA,NA
50702,Black Hawk County,IA,51.64585698070374,NA,NA,NA
51104,Woodbury County,IA,50.17026106696936,NA,NA,NA
51106,Woodbury County,IA,34.165720771850175,NA,NA,NA
51501,Pottawattamie County,IA,NA,NA,3.074866310160428,NA
51503,Pottawattamie County,IA,91.08967082860386,NA,8.0213903743315509,NA
51537,Shelby County,IA,NA,NA,85.02673796791443,NA
51555,Harrison County,IA,90.35187287173666,NA,NA,NA
52302,Linn County,IA,35.47105561861521,NA,NA,NA
52403,Linn County,IA,NA,NA,41.31016042780749,NA
52544,Appanoose County,IA,NA,NA,40.909090909090914,NA
52577,Mahaska County,IA,NA,NA,35.42780748663101,NA
52601,Des Moines County,IA,19.920544835414304,NA,NA,NA
52632,Lee County,IA,24.006810442678773,NA,NA,NA
52738,Louisa County,IA,82.40635641316686,NA,NA,NA
52803,Scott County,IA,76.84449489216799,52.43055555555556,NA,NA
52804,Scott County,IA,25.198637911464246,NA,NA,NA
52807,Scott County,IA,82.00908059023837,NA,NA,NA
66046,Douglas County,KS,NA,NA,79.67914438502673,NA
66049,Douglas County,KS,63.847900113507386,NA,NA,NA
66062,Johnson County,KS,29.171396140749152,NA,10.16042780748663,NA
66064,Miami County,KS,92.96254256526673,NA,NA,NA
66104,Wyandotte County,KS,NA,NA,59.491978609625676,NA
66109,Wyandotte County,KS,72.41770715096482,NA,NA,NA
66202,Johnson County,KS,NA,NA,72.99465240641712,NA
66203,Johnson County,KS,NA,NA,76.7379679144385,NA
66204,Johnson County,KS,77.29852440408627,NA,NA,NA
66206,Johnson County,KS,NA,NA,89.03743315508021,NA
66213,Johnson County,KS,58.85357548240636,NA,NA,NA
66215,Johnson County,KS,NA,NA,NA,72.96296296296296
66223,Johnson County,KS,67.87741203178207,NA,NA,NA
66226,Johnson County,KS,59.080590238365495,NA,NA,NA
66436,Jackson County,KS,89.10329171396141,NA,NA,NA
66534,Nemaha County,KS,99.77298524404085,NA,NA,NA
66547,Pottawatomie County,KS,91.94097616345063,NA,NA,NA
66607,Shawnee County,KS,95.9704880817253,NA,NA,NA
66614,Shawnee County,KS,64.81271282633371,NA,32.486631016042786,NA
66720,Neosho County,KS,NA,NA,75,NA
66749,Allen County,KS,54.65380249716232,NA,NA,NA
66762,Crawford County,KS,NA,NA,84.49197860962568,NA
66801,Lyon County,KS,NA,NA,74.8663101604278,NA
67002,Butler County,KS,85.92508513053349,NA,NA,NA
67147,Sedgwick County,KS,96.59477866061293,NA,NA,NA
67235,Sedgwick County,KS,98.41089670828603,NA,NA,NA
67301,Montgomery County,KS,80.98751418842225,NA,NA,NA
67546,McPherson County,KS,92.67877412031783,NA,NA,NA
67735,Sherman County,KS,NA,NA,94.78609625668449,NA
67835,Gray County,KS,99.6594778660613,NA,NA,NA
40014,Oldham County,KY,36.9466515323496,NA,NA,NA
40031,Oldham County,KY,39.38706015891033,NA,NA,NA
40046,Spencer County,KY,NA,NA,99.06417112299465,NA
40059,Jefferson County,KY,94.38138479001135,NA,NA,NA
40069,Washington County,KY,84.50624290578888,NA,NA,NA
40071,Spencer County,KY,61.01021566401816,NA,NA,NA
40143,Breckinridge County,KY,83.82519863791147,NA,NA,NA
40165,Bullitt County,KY,32.29284903518729,NA,NA,NA
40206,Jefferson County,KY,78.20658342792282,NA,NA,NA
40210,Jefferson County,KY,34.846765039727586,NA,NA,NA
40211,Jefferson County,KY,78.43359818388194,NA,NA,NA
40214,Jefferson County,KY,11.464245175936435,NA,NA,NA
40215,Jefferson County,KY,29.96594778660613,NA,18.983957219251337,NA
40216,Jefferson County,KY,NA,NA,8.689839572192513,NA
40219,Jefferson County,KY,13.166855845629966,NA,NA,NA
40220,Jefferson County,KY,56.75368898978434,NA,NA,NA
40222,Jefferson County,KY,50.17026106696936,NA,NA,NA
40272,Jefferson County,KY,7.094211123723042,NA,NA,NA
40291,Jefferson County,KY,85.30079455164585,NA,NA,NA
40299,Jefferson County,KY,80.24971623155504,NA,NA,NA
40324,Scott County,KY,NA,NA,NA,23.333333333333332
40356,Jessamine County,KY,14.074914869466514,NA,NA,NA
40361,Bourbon County,KY,44.49489216799092,NA,NA,NA
40444,Garrard County,KY,NA,NA,57.21925133689839,NA
40475,Madison County,KY,62.48581157775256,NA,29.545454545454547,NA
40503,Fayette County,KY,44.324631101021566,NA,NA,NA
40505,Fayette County,KY,69.52326901248581,NA,NA,NA
40511,Fayette County,KY,20.317820658342793,NA,NA,NA
40517,Fayette County,KY,NA,17.01388888888889,NA,NA
40701,Whitley County,KY,68.95573212258796,NA,NA,NA
40741,Laurel County,KY,NA,63.541666666666664,NA,NA
40769,Whitley County,KY,49.94324631101021,NA,NA,NA
41001,Campbell County,KY,NA,NA,62.03208556149733,NA
41011,Kenton County,KY,NA,40.625,NA,NA
41017,Kenton County,KY,NA,NA,82.48663101604278,NA
41018,Kenton County,KY,21.7366628830874,NA,NA,NA
41051,Kenton County,KY,61.74801362088536,NA,NA,NA
41071,Campbell County,KY,NA,26.73611111111111,NA,NA
41076,Campbell County,KY,NA,NA,69.6524064171123,NA
41102,Boyd County,KY,NA,NA,20.989304812834224,NA
41139,Greenup County,KY,56.29965947786606,NA,NA,NA
41143,Carter County,KY,16.23155505107832,NA,NA,NA
41465,Magoffin County,KY,68.89897843359817,NA,NA,65.55555555555556
41514,Pike County,KY,NA,NA,88.63636363636364,NA
42003,McCracken County,KY,NA,NA,NA,67.77777777777779
42101,Warren County,KY,32.179341657207715,NA,NA,NA
42104,Warren County,KY,29.455164585698068,NA,NA,NA
42164,Allen County,KY,NA,NA,68.31550802139037,NA
42211,Trigg County,KY,NA,NA,60.56149732620321,NA
42301,Daviess County,KY,7.4347332576617475,NA,NA,NA
42459,Union County,KY,94.5516458569807,NA,NA,NA
42503,Pulaski County,KY,83.25766174801362,NA,NA,NA
42748,Larue County,KY,NA,88.19444444444444,NA,NA
70003,Jefferson Parish,LA,1.872871736662883,NA,NA,NA
70030,St. Charles Parish,LA,99.54597048808172,NA,NA,NA
70058,Jefferson Parish,LA,NA,NA,53.07486631016043,NA
70065,Jefferson Parish,LA,0.7377979568671964,NA,NA,NA
70068,St. John the Baptist Parish,LA,NA,NA,77.54010695187165,17.037037037037038
70094,Jefferson Parish,LA,14.131668558456301,NA,NA,NA
70115,Orleans Parish,LA,16.061293984108968,NA,NA,NA
70121,Jefferson Parish,LA,NA,NA,NA,57.407407407407405
70122,Orleans Parish,LA,52.61066969353008,NA,NA,NA
70124,Orleans Parish,LA,66.79909194097617,NA,NA,NA
70127,Orleans Parish,LA,NA,48.95833333333333,NA,NA
70345,Lafourche Parish,LA,NA,NA,45.72192513368984,NA
70359,Terrebonne Parish,LA,32.29284903518729,NA,NA,NA
70363,Terrebonne Parish,LA,1.9296254256526675,NA,NA,NA
70392,St. Mary Parish,LA,86.83314415437003,NA,NA,NA
70433,St. Tammany Parish,LA,NA,NA,6.417112299465241,NA
70438,Washington Parish,LA,NA,NA,NA,47.40740740740741
70448,St. Tammany Parish,LA,59.93189557321226,NA,NA,NA
70458,St. Tammany Parish,LA,68.04767309875142,NA,NA,NA
70460,St. Tammany Parish,LA,NA,NA,12.165775401069519,NA
70503,Lafayette Parish,LA,NA,3.4722222222222223,NA,NA
70508,Lafayette Parish,LA,27.24177071509648,NA,NA,NA
70526,Acadia Parish,LA,45.23269012485812,NA,NA,NA
70560,Iberia Parish,LA,53.17820658342792,NA,NA,NA
70570,St. Landry Parish,LA,0.11350737797956867,NA,NA,NA
70586,Evangeline Parish,LA,NA,NA,97.32620320855615,NA
70633,Calcasieu Parish,LA,NA,89.93055555555556,NA,NA
70656,Vernon Parish,LA,NA,NA,99.46524064171123,NA
70726,Livingston Parish,LA,0.5675368898978433,NA,NA,NA
70737,Ascension Parish,LA,NA,NA,6.8181818181818175,NA
70769,Ascension Parish,LA,4.483541430192963,NA,NA,NA
70774,Ascension Parish,LA,NA,NA,54.01069518716578,NA
71037,Bossier Parish,LA,6.9239500567536885,NA,NA,NA
71106,Caddo Parish,LA,40.238365493757094,NA,NA,NA
71108,Caddo Parish,LA,82.5766174801362,NA,NA,NA
71111,Bossier Parish,LA,3.5187287173666286,NA,NA,NA
71112,Bossier Parish,LA,47.559591373439275,NA,NA,NA
71118,Caddo Parish,LA,NA,NA,20.72192513368984,NA
71129,Caddo Parish,LA,99.2622020431328,NA,NA,NA
71201,Ouachita Parish,LA,29.852440408626563,NA,NA,NA
71203,Ouachita Parish,LA,14.585698070374576,NA,NA,NA
71225,Ouachita Parish,LA,55.95913734392736,NA,NA,NA
71291,Ouachita Parish,LA,4.824063564131668,NA,NA,NA
71301,Rapides Parish,LA,7.4347332576617475,NA,NA,NA
04002,York County,ME,40.69239500567537,NA,NA,NA
04037,Oxford County,ME,95.74347332576617,NA,NA,NA
04072,York County,ME,72.0771850170261,NA,NA,NA
04090,York County,ME,88.42224744608399,NA,NA,NA
04092,Cumberland County,ME,NA,NA,37.83422459893048,NA
04210,Androscoggin County,ME,62.542565266742336,NA,NA,NA
04260,Cumberland County,ME,89.33030646992054,NA,NA,NA
04280,Androscoggin County,ME,NA,NA,73.52941176470588,NA
04345,Kennebec County,ME,NA,NA,43.716577540106954,NA
04429,Penobscot County,ME,NA,NA,98.66310160427807,NA
04530,Sagadahoc County,ME,NA,NA,NA,45.925925925925924
04605,Hancock County,ME,NA,52.083333333333336,NA,NA
04901,Kennebec County,ME,NA,12.152777777777777,NA,NA
04915,Waldo County,ME,88.87627695800226,NA,NA,NA
04930,Penobscot County,ME,82.46311010215665,NA,NA,NA
04950,Somerset County,ME,50.567536889897845,NA,NA,NA
04957,Somerset County,ME,NA,84.02777777777779,NA,NA
20705,Prince George's County,MD,NA,NA,75.26737967914438,NA
20733,Anne Arundel County,MD,99.82973893303064,NA,NA,NA
20745,Prince George's County,MD,NA,NA,69.78609625668449,NA
20852,Montgomery County,MD,76.50397275822928,NA,NA,NA
20895,Montgomery County,MD,83.65493757094211,NA,NA,NA
20904,Montgomery County,MD,61.46424517593644,NA,NA,NA
20906,Montgomery County,MD,NA,NA,50.80213903743316,NA
20910,Montgomery County,MD,NA,NA,79.41176470588235,NA
21014,Harford County,MD,NA,NA,39.037433155080215,NA
21045,Howard County,MD,NA,NA,46.79144385026738,NA
21054,Anne Arundel County,MD,86.20885357548241,NA,NA,NA
21060,Anne Arundel County,MD,NA,NA,26.069518716577537,NA
21075,Howard County,MD,44.66515323496027,NA,NA,NA
21114,Anne Arundel County,MD,87.85471055618615,NA,NA,NA
21222,Baltimore County,MD,28.14982973893303,NA,NA,NA
21234,Baltimore County,MD,16.91259931895573,NA,16.443850267379677,NA
21236,Baltimore County,MD,NA,NA,37.032085561497325,NA
21237,Baltimore County,MD,39.21679909194097,NA,NA,NA
21401,Anne Arundel County,MD,NA,NA,NA,65.18518518518519
21502,Allegany County,MD,56.58342792281499,NA,NA,NA
21617,Queen Anne's County,MD,87.28717366628831,NA,NA,NA
21703,Frederick County,MD,86.71963677639046,NA,NA,NA
21797,Howard County,MD,88.30874006810443,NA,NA,NA
21911,Cecil County,MD,93.98410896708286,NA,NA,NA
01027,Hampshire County,MA,NA,NA,11.76470588235294,NA
01036,Hampden County,MA,85.92508513053349,NA,NA,NA
01056,Hampden County,MA,NA,96.875,NA,NA
01062,Hampshire County,MA,70.43132803632236,NA,NA,NA
01085,Hampden County,MA,19.807037457434735,NA,NA,NA
01108,Hampden County,MA,32.06583427922815,NA,NA,NA
01118,Hampden County,MA,NA,NA,25.13368983957219,NA
01201,Berkshire County,MA,NA,NA,NA,0
01267,Berkshire County,MA,55.67536889897844,NA,NA,NA
01301,Franklin County,MA,NA,NA,36.63101604278075,NA
01331,Worcester County,MA,31.782065834279226,NA,NA,NA
01420,Worcester County,MA,65.38024971623156,NA,NA,NA
01440,Worcester County,MA,NA,7.986111111111111,1.8716577540106951,NA
01453,Worcester County,MA,72.58796821793416,NA,NA,NA
01463,Middlesex County,MA,NA,NA,NA,50.74074074074074
01469,Middlesex County,MA,NA,NA,NA,85.18518518518519
01570,Worcester County,MA,NA,NA,4.679144385026738,NA
01581,Worcester County,MA,NA,NA,30.481283422459892,NA
01603,Worcester County,MA,NA,NA,39.705882352941174,NA
01604,Worcester County,MA,NA,NA,1.2032085561497325,NA
01610,Worcester County,MA,91.54370034052214,NA,0.8021390374331552,NA
01701,Middlesex County,MA,13.450624290578888,NA,NA,NA
01720,Middlesex County,MA,NA,NA,NA,34.074074074074076
01752,Middlesex County,MA,NA,NA,NA,91.48148148148148
01760,Middlesex County,MA,9.250851305334846,NA,NA,NA
01801,Middlesex County,MA,31.32803632236095,NA,1.6042780748663104,NA
01810,Essex County,MA,18.501702610669692,NA,NA,NA
01826,Middlesex County,MA,12.145289443813848,NA,NA,NA
01830,Essex County,MA,6.129398410896708,NA,NA,NA
01841,Essex County,MA,NA,NA,0.1336898395721925,NA
01844,Essex County,MA,NA,NA,1.4705882352941175,NA
01854,Middlesex County,MA,2.1566401816118046,NA,NA,NA
01864,Middlesex County,MA,NA,NA,NA,94.81481481481482
01867,Middlesex County,MA,19.409761634506243,NA,NA,NA
01876,Middlesex County,MA,NA,NA,6.684491978609626,NA
01890,Middlesex County,MA,16.91259931895573,NA,NA,NA
01902,Essex County,MA,18.217934165720774,NA,NA,NA
01905,Essex County,MA,NA,6.25,NA,NA
01906,Essex County,MA,NA,NA,56.01604278074866,NA
01913,Essex County,MA,55.50510783200908,NA,87.29946524064172,NA
01921,Essex County,MA,64.52894438138479,NA,NA,NA
01923,Essex County,MA,NA,NA,3.7433155080213902,NA
01960,Essex County,MA,NA,NA,15.775401069518717,NA
01966,Essex County,MA,NA,NA,NA,60.370370370370374
02026,Norfolk County,MA,21.22587968217934,NA,NA,NA
02038,Norfolk County,MA,27.07150964812713,NA,NA,NA
02062,Norfolk County,MA,31.611804767309877,NA,NA,NA
02066,Plymouth County,MA,52.1566401816118,NA,NA,NA
02067,Norfolk County,MA,62.769580022701476,NA,54.14438502673797,NA
02072,Norfolk County,MA,27.355278093076052,NA,NA,NA
02118,Suffolk County,MA,NA,NA,NA,1.1111111111111112
02119,Suffolk County,MA,2.213393870601589,NA,NA,NA
02121,Suffolk County,MA,NA,1.0416666666666665,NA,NA
02122,Suffolk County,MA,13.847900113507377,NA,NA,NA
02124,Suffolk County,MA,32.74687854710556,NA,0,NA
02125,Suffolk County,MA,18.501702610669692,NA,0.53475935828877,NA
02126,Suffolk County,MA,3.0079455164585696,NA,NA,NA
02127,Suffolk County,MA,NA,NA,45.855614973262036,93.7037037037037
02128,Suffolk County,MA,1.0215664018161181,3.125,NA,1.8518518518518516
02129,Suffolk County,MA,NA,NA,3.342245989304813,NA
02130,Suffolk County,MA,9.364358683314416,NA,NA,NA
02131,Suffolk County,MA,14.982973893303065,29.166666666666668,NA,NA
02136,Suffolk County,MA,NA,NA,NA,5.9259259259259265
02138,Middlesex County,MA,19.523269012485812,NA,NA,NA
02143,Middlesex County,MA,51.41884222474461,NA,NA,NA
02148,Middlesex County,MA,17.82065834279228,NA,NA,NA
02149,Middlesex County,MA,0.340522133938706,0.3472222222222222,0.267379679144385,NA
02150,Suffolk County,MA,17.7639046538025,NA,NA,NA
02151,Suffolk County,MA,43.70034052213394,NA,NA,NA
02155,Middlesex County,MA,NA,86.11111111111111,NA,NA
02176,Middlesex County,MA,23.382519863791146,NA,NA,NA
02186,Norfolk County,MA,19.523269012485812,NA,NA,NA
02188,Norfolk County,MA,53.51872871736663,NA,NA,NA
02301,Plymouth County,MA,NA,1.7361111111111112,NA,NA
02324,Plymouth County,MA,31.441543700340524,NA,NA,24.814814814814813
02341,Plymouth County,MA,NA,NA,39.97326203208556,NA
02343,Norfolk County,MA,45.970488081725314,NA,NA,NA
02347,Plymouth County,MA,NA,93.75,NA,NA
02360,Plymouth County,MA,NA,NA,6.550802139037433,0.7407407407407408
02364,Plymouth County,MA,56.980703745743476,NA,NA,NA
02368,Norfolk County,MA,NA,NA,2.13903743315508,NA
02370,Plymouth County,MA,21.56640181611805,NA,NA,NA
02420,Middlesex County,MA,NA,NA,34.893048128342244,NA
02446,Norfolk County,MA,10.21566401816118,NA,NA,NA
02451,Middlesex County,MA,NA,NA,23.930481283422463,NA
02452,Middlesex County,MA,NA,NA,60.82887700534759,NA
02458,Middlesex County,MA,17.480136208853576,NA,NA,NA
02460,Middlesex County,MA,95.11918274687855,NA,NA,NA
02467,Norfolk County,MA,NA,NA,NA,32.22222222222222
02472,Middlesex County,MA,64.18842224744608,NA,6.951871657754011,NA
02474,Middlesex County,MA,56.980703745743476,NA,NA,NA
02476,Middlesex County,MA,36.20885357548241,NA,NA,NA
02492,Norfolk County,MA,27.07150964812713,NA,NA,NA
02493,Middlesex County,MA,78.03632236095346,NA,NA,NA
02657,Barnstable County,MA,NA,97.22222222222221,NA,NA
02703,Bristol County,MA,73.26901248581159,NA,NA,NA
02720,Bristol County,MA,NA,NA,NA,1.4814814814814816
02721,Bristol County,MA,64.24517593643587,NA,NA,NA
02723,Bristol County,MA,21.85017026106697,NA,NA,NA
02738,Plymouth County,MA,NA,NA,NA,83.33333333333334
02740,Bristol County,MA,NA,NA,76.47058823529412,NA
02745,Bristol County,MA,53.40522133938707,NA,NA,NA
02747,Bristol County,MA,37.17366628830874,30.90277777777778,NA,NA
02760,Bristol County,MA,NA,NA,11.096256684491978,NA
02766,Bristol County,MA,15.43700340522134,NA,48.1283422459893,NA
02767,Bristol County,MA,NA,NA,23.52941176470588,NA
02779,Bristol County,MA,93.92735527809307,NA,NA,NA
02780,Bristol County,MA,1.3053348467650396,NA,3.4759358288770055,NA
48023,St. Clair County,MI,NA,NA,89.83957219251337,NA
48025,Oakland County,MI,63.56413166855845,NA,NA,NA
48030,Oakland County,MI,NA,NA,41.0427807486631,NA
48038,Macomb County,MI,NA,NA,NA,5.555555555555555
48039,St. Clair County,MI,96.53802497162316,NA,NA,NA
48042,Macomb County,MI,40.69239500567537,NA,NA,NA
48043,Macomb County,MI,NA,NA,28.87700534759358,NA
48044,Macomb County,MI,29.171396140749152,NA,NA,NA
48075,Oakland County,MI,NA,NA,28.208556149732622,NA
48088,Macomb County,MI,NA,NA,NA,25.185185185185183
48091,Macomb County,MI,54.37003405221339,NA,NA,NA
48103,Washtenaw County,MI,12.485811577752553,NA,NA,NA
48111,Wayne County,MI,NA,NA,26.203208556149733,NA
48126,Wayne County,MI,4.6538024971623155,NA,NA,NA
48131,Monroe County,MI,89.61407491486946,NA,NA,NA
48135,Wayne County,MI,20.885357548240634,NA,NA,NA
48146,Wayne County,MI,NA,NA,7.620320855614973,NA
48154,Wayne County,MI,10.72644721906924,NA,NA,NA
48160,Washtenaw County,MI,NA,NA,69.5187165775401,NA
48162,Monroe County,MI,8.853575482406356,NA,NA,NA
48168,Wayne County,MI,NA,NA,51.7379679144385,NA
48176,Washtenaw County,MI,NA,NA,38.770053475935825,NA
48178,Oakland County,MI,NA,NA,30.213903743315505,13.703703703703704
48185,Wayne County,MI,36.26560726447219,NA,NA,NA
48188,Wayne County,MI,3.1782065834279227,NA,NA,NA
48192,Wayne County,MI,14.301929625425652,NA,NA,NA
48193,Wayne County,MI,NA,72.91666666666666,NA,NA
48197,Washtenaw County,MI,NA,NA,2.406417112299465,NA
48198,Washtenaw County,MI,NA,10.416666666666668,NA,NA
48202,Wayne County,MI,NA,NA,NA,41.85185185185185
48205,Wayne County,MI,NA,NA,4.545454545454546,NA
48212,Wayne County,MI,NA,NA,33.9572192513369,NA
48219,Wayne County,MI,7.037457434733257,NA,NA,NA
48221,Wayne County,MI,16.515323496027243,NA,NA,NA
48224,Wayne County,MI,15.096481271282633,NA,NA,NA
48225,Wayne County,MI,24.006810442678773,NA,NA,NA
48226,Wayne County,MI,80.70374574347332,NA,NA,NA
48227,Wayne County,MI,NA,NA,17.780748663101605,NA
48228,Wayne County,MI,7.207718501702611,NA,NA,NA
48306,Oakland County,MI,NA,NA,NA,79.25925925925927
48307,Oakland County,MI,56.8671963677639,NA,NA,NA
48309,Oakland County,MI,NA,NA,NA,28.888888888888886
48312,Macomb County,MI,64.81271282633371,NA,NA,NA
48316,Macomb County,MI,39.21679909194097,NA,NA,NA
48322,Oakland County,MI,NA,NA,40.77540106951872,NA
48327,Oakland County,MI,42.962542565266745,NA,NA,NA
48331,Oakland County,MI,55.67536889897844,NA,NA,NA
48340,Oakland County,MI,9.137343927355278,NA,NA,NA
48342,Oakland County,MI,NA,NA,NA,37.77777777777778
48346,Oakland County,MI,NA,NA,35.6951871657754,NA
48367,Oakland County,MI,NA,NA,NA,100
48380,Oakland County,MI,85.30079455164585,NA,NA,NA
48382,Oakland County,MI,51.8161180476731,NA,NA,NA
48386,Oakland County,MI,NA,NA,59.759358288770045,NA
48420,Genesee County,MI,59.080590238365495,NA,NA,NA
48430,Genesee County,MI,24.6311010215664,NA,NA,NA
48433,Genesee County,MI,54.937570942111236,NA,NA,NA
48438,Genesee County,MI,98.63791146424518,NA,NA,NA
48473,Genesee County,MI,NA,NA,NA,41.11111111111111
48503,Genesee County,MI,25.312145289443816,NA,NA,NA
48603,Saginaw County,MI,NA,NA,12.032085561497325,NA
48612,Gladwin County,MI,NA,NA,59.35828877005348,NA
48625,Clare County,MI,34.165720771850175,NA,NA,NA
48640,Midland County,MI,NA,NA,9.358288770053475,NA
48642,Midland County,MI,NA,NA,NA,7.777777777777778
48650,Bay County,MI,81.72531214528944,NA,NA,NA
48706,Bay County,MI,4.313280363223609,75.34722222222221,NA,NA
48750,Iosco County,MI,62.542565266742336,NA,NA,NA
48809,Ionia County,MI,NA,76.73611111111111,NA,NA
48827,Eaton County,MI,NA,NA,40.64171122994652,NA
48843,Livingston County,MI,1.532349602724177,NA,NA,NA
48855,Livingston County,MI,54.42678774120318,NA,NA,NA
48858,Isabella County,MI,NA,NA,5.748663101604278,NA
48867,Shiawassee County,MI,4.597048808172531,NA,NA,NA
48880,Gratiot County,MI,NA,NA,82.2192513368984,NA
49006,Kalamazoo County,MI,NA,72.22222222222221,NA,NA
49013,Van Buren County,MI,68.78547105561861,NA,NA,NA
49015,Calhoun County,MI,66.62883087400681,NA,NA,NA
49037,Calhoun County,MI,23.325766174801362,NA,NA,NA
49048,Kalamazoo County,MI,NA,NA,17.647058823529413,NA
49080,Allegan County,MI,60.55618615209989,NA,NA,NA
49117,Berrien County,MI,NA,NA,95.72192513368985,NA
49120,Berrien County,MI,67.30987514188422,26.38888888888889,NA,NA
49221,Lenawee County,MI,12.031782065834278,NA,NA,NA
49229,Lenawee County,MI,NA,NA,94.78609625668449,NA
49286,Lenawee County,MI,NA,NA,52.94117647058824,NA
49315,Kent County,MI,73.83654937570942,NA,NA,NA
49316,Kent County,MI,NA,NA,48.529411764705884,NA
49319,Kent County,MI,35.47105561861521,NA,NA,NA
49336,Mecosta County,MI,93.58683314415437,NA,NA,NA
49345,Kent County,MI,68.95573212258796,NA,NA,NA
49346,Mecosta County,MI,NA,NA,NA,67.03703703703704
49412,Newaygo County,MI,48.240635641316686,NA,NA,NA
49424,Ottawa County,MI,6.753688989784336,NA,90.10695187165776,NA
49426,Ottawa County,MI,NA,NA,38.50267379679144,NA
49441,Muskegon County,MI,14.699205448354144,NA,NA,NA
49444,Muskegon County,MI,34.846765039727586,NA,NA,NA
49454,Mason County,MI,80.98751418842225,NA,NA,NA
49464,Ottawa County,MI,26.106696935300793,NA,NA,NA
49503,Kent County,MI,6.072644721906924,NA,NA,NA
49534,Kent County,MI,NA,NA,53.7433155080214,NA
49546,Kent County,MI,43.927355278093074,NA,NA,NA
49615,Antrim County,MI,NA,NA,NA,88.14814814814815
49657,Missaukee County,MI,87.62769580022702,NA,NA,NA
49707,Alpena County,MI,40.97616345062429,NA,NA,NA
49779,Presque Isle County,MI,98.9216799091941,NA,NA,NA
49854,Schoolcraft County,MI,94.49489216799091,NA,NA,NA
49855,Marquette County,MI,20.14755959137344,NA,NA,NA
49866,Marquette County,MI,53.51872871736663,NA,NA,NA
49870,Dickinson County,MI,87.91146424517594,NA,NA,NA
49878,Delta County,MI,96.0272417707151,NA,NA,NA
49931,Houghton County,MI,NA,80.55555555555556,NA,NA
55005,Anoka County,MN,98.46765039727582,NA,NA,NA
55025,Washington County,MN,24.6311010215664,NA,NA,NA
55076,Dakota County,MN,NA,NA,NA,87.4074074074074
55104,Ramsey County,MN,58.85357548240636,NA,NA,NA
55105,Ramsey County,MN,42.962542565266745,NA,NA,NA
55108,Ramsey County,MN,66.96935300794551,NA,NA,NA
55118,Dakota County,MN,22.8149829738933,NA,85.16042780748663,NA
55128,Washington County,MN,39.55732122587968,NA,NA,NA
55321,Wright County,MN,80.53348467650397,NA,NA,NA
55328,Wright County,MN,NA,NA,NA,91.11111111111111
55330,Sherburne County,MN,50.17026106696936,NA,NA,NA
55337,Dakota County,MN,8.740068104426788,NA,31.417112299465238,24.444444444444443
55371,Mille Lacs County,MN,94.26787741203178,NA,NA,NA
55372,Scott County,MN,77.24177071509648,NA,NA,NA
55379,Scott County,MN,NA,NA,24.598930481283425,NA
55404,Hennepin County,MN,34.73325766174801,NA,NA,NA
55410,Hennepin County,MN,98.58115777525539,NA,NA,NA
55413,Hennepin County,MN,59.93189557321226,NA,NA,NA
55417,Hennepin County,MN,NA,NA,NA,50
55423,Hennepin County,MN,NA,NA,19.518716577540108,NA
55446,Hennepin County,MN,79.51191827468786,NA,NA,NA
55987,Winona County,MN,NA,NA,29.812834224598934,NA
56011,Scott County,MN,81.27128263337117,NA,NA,NA
56101,Cottonwood County,MN,NA,NA,68.71657754010695,NA
56164,Pipestone County,MN,72.92849035187288,NA,NA,NA
56258,Lyon County,MN,NA,65.27777777777779,NA,NA
56303,Stearns County,MN,NA,NA,NA,46.2962962962963
56307,Stearns County,MN,94.77866061293983,NA,NA,NA
56377,Stearns County,MN,NA,NA,88.23529411764706,NA
56537,Otter Tail County,MN,10.953461975028377,NA,NA,NA
56601,Beltrami County,MN,14.755959137343927,NA,5.88235294117647,NA
56701,Pennington County,MN,64.472190692395,NA,19.385026737967912,NA
56716,Polk County,MN,NA,NA,NA,86.29629629629629
56721,Polk County,MN,29.3416572077185,NA,NA,NA
56763,Roseau County,MN,75.7094211123723,NA,NA,NA
38620,Panola County,MS,96.0272417707151,NA,NA,NA
38637,DeSoto County,MS,96.87854710556186,NA,NA,NA
38655,Lafayette County,MS,NA,NA,67.7807486631016,NA
38671,DeSoto County,MS,NA,NA,63.36898395721925,NA
38701,Washington County,MS,90.18161180476731,NA,NA,NA
38732,Bolivar County,MS,19.920544835414304,NA,NA,NA
38751,Sunflower County,MS,99.14869466515324,NA,NA,NA
38769,Bolivar County,MS,99.71623155505108,NA,NA,NA
38804,Lee County,MS,80.93076049943247,NA,NA,NA
38821,Monroe County,MS,97.55959137343928,NA,NA,NA
38834,Alcorn County,MS,51.58910329171397,NA,NA,NA
38852,Tishomingo County,MS,NA,69.44444444444444,NA,NA
38901,Grenada County,MS,40.011350737797954,NA,NA,NA
38965,Yalobusha County,MS,98.29738933030647,NA,79.81283422459893,NA
39046,Madison County,MS,13.734392735527809,NA,NA,NA
39056,Hinds County,MS,54.42678774120318,22.569444444444446,NA,NA
39069,Jefferson County,MS,54.65380249716232,NA,NA,NA
39074,Scott County,MS,11.350737797956867,NA,NA,NA
39092,Scott County,MS,94.77866061293983,NA,NA,NA
39110,Madison County,MS,13.847900113507377,NA,NA,NA
39117,Scott County,MS,81.83881952326901,NA,49.86631016042781,NA
39154,Hinds County,MS,NA,90.625,NA,82.96296296296296
39180,Warren County,MS,39.500567536889896,NA,NA,NA
39203,Hinds County,MS,88.08172531214528,NA,NA,NA
39204,Hinds County,MS,47.21906923950057,NA,NA,NA
39209,Hinds County,MS,95.40295119182747,NA,NA,NA
39212,Hinds County,MS,4.426787741203178,NA,NA,NA
39350,Neshoba County,MS,NA,32.98611111111111,71.79144385026738,NA
39367,Wayne County,MS,53.51872871736663,NA,NA,NA
39401,Forrest County,MS,74.17707150964813,NA,NA,NA
39402,Lamar County,MS,74.57434733257662,NA,NA,NA
39440,Jones County,MS,1.0215664018161181,NA,NA,NA
39443,Jones County,MS,86.49262202043133,NA,NA,NA
39455,Lamar County,MS,92.90578887627696,NA,NA,NA
39465,Forrest County,MS,NA,NA,67.64705882352942,NA
39482,Lamar County,MS,97.8433598183882,NA,NA,NA
39501,Harrison County,MS,11.237230419977298,NA,75.53475935828877,NA
39560,Harrison County,MS,NA,NA,NA,58.51851851851851
39564,Jackson County,MS,35.58456299659478,NA,NA,NA
39750,Webster County,MS,92.67877412031783,NA,NA,NA
63010,Jefferson County,MO,NA,NA,NA,28.51851851851852
63012,Jefferson County,MO,NA,NA,NA,80
63021,St. Louis County,MO,18.274687854710557,NA,NA,NA
63025,St. Louis County,MO,86.43586833144154,NA,80.88235294117648,NA
63028,Jefferson County,MO,NA,NA,NA,24.074074074074073
63033,St. Louis County,MO,36.83314415437003,NA,NA,NA
63040,St. Louis County,MO,NA,NA,94.25133689839572,NA
63049,Jefferson County,MO,NA,NA,NA,62.22222222222222
63069,Franklin County,MO,NA,NA,93.31550802139037,NA
63077,Franklin County,MO,NA,NA,69.11764705882352,NA
63101,St. Louis city,MO,99.37570942111236,NA,NA,NA
63116,St. Louis city,MO,28.37684449489217,NA,NA,NA
63117,St. Louis County,MO,94.04086265607265,NA,NA,NA
63122,St. Louis County,MO,NA,NA,NA,57.77777777777777
63123,St. Louis County,MO,38.7627695800227,NA,NA,NA
63125,St. Louis County,MO,70.20431328036322,NA,NA,NA
63138,St. Louis County,MO,15.9477866061294,NA,NA,NA
63139,St. Louis city,MO,68.16118047673099,NA,NA,NA
63144,St. Louis County,MO,92.22474460839955,NA,NA,NA
63301,St. Charles County,MO,7.888762769580023,NA,NA,NA
63303,St. Charles County,MO,41.48694665153235,NA,NA,NA
63304,St. Charles County,MO,NA,NA,74.19786096256684,NA
63368,St. Charles County,MO,29.001135073779793,NA,40.24064171122995,NA
63376,St. Charles County,MO,NA,43.75,NA,NA
63379,Lincoln County,MO,18.67196367763905,NA,NA,NA
63640,St. Francois County,MO,NA,NA,38.23529411764706,NA
63650,Iron County,MO,88.08172531214528,NA,NA,NA
63801,Scott County,MO,NA,NA,NA,29.629629629629626
64014,Jackson County,MO,79.45516458569807,NA,NA,NA
64029,Jackson County,MO,65.77752553916004,NA,37.16577540106952,NA
64030,Jackson County,MO,NA,47.56944444444444,17.914438502673796,NA
64034,Jackson County,MO,NA,NA,83.02139037433155,NA
64037,Lafayette County,MO,NA,93.75,NA,NA
64050,Jackson County,MO,26.276958002270145,NA,NA,NA
64068,Clay County,MO,0.39727582292849034,NA,NA,NA
64080,Cass County,MO,NA,NA,89.70588235294117,NA
64081,Jackson County,MO,71.45289443813849,NA,NA,NA
64082,Jackson County,MO,58.85357548240636,NA,NA,NA
64083,Cass County,MO,NA,NA,34.35828877005348,NA
64085,Ray County,MO,NA,NA,47.99465240641711,NA
64086,Jackson County,MO,78.09307604994325,NA,NA,NA
64108,Jackson County,MO,NA,NA,57.75401069518716,NA
64110,Jackson County,MO,31.04426787741203,NA,NA,NA
64111,Jackson County,MO,NA,NA,56.81818181818182,NA
64114,Jackson County,MO,41.94097616345062,NA,NA,NA
64116,Clay County,MO,NA,NA,54.67914438502673,NA
64117,Clay County,MO,21.7366628830874,NA,NA,NA
64119,Clay County,MO,25.652667423382518,NA,NA,NA
64124,Jackson County,MO,45.743473325766175,NA,NA,NA
64131,Jackson County,MO,41.146424517593644,NA,NA,NA
64132,Jackson County,MO,NA,21.52777777777778,NA,NA
64133,Jackson County,MO,6.413166855845629,NA,NA,NA
64137,Jackson County,MO,NA,NA,87.43315508021391,NA
64138,Jackson County,MO,NA,18.40277777777778,NA,NA
64151,Platte County,MO,75.59591373439274,NA,NA,NA
64152,Platte County,MO,NA,NA,49.06417112299465,NA
64490,DeKalb County,MO,99.88649262202043,NA,NA,NA
64507,Buchanan County,MO,29.455164585698068,NA,79.54545454545455,NA
64633,Carroll County,MO,81.27128263337117,NA,NA,NA
64683,Grundy County,MO,27.63904653802497,NA,NA,NA
64730,Bates County,MO,80.19296254256527,NA,NA,NA
64801,Jasper County,MO,29.171396140749152,NA,NA,NA
64804,Jasper County,MO,31.725312145289443,NA,NA,NA
65202,Boone County,MO,1.4755959137343928,NA,NA,22.962962962962962
65203,Boone County,MO,5.164585698070375,NA,NA,12.592592592592592
65233,Cooper County,MO,NA,NA,NA,61.111111111111114
65251,Callaway County,MO,NA,NA,27.406417112299465,NA
65301,Pettis County,MO,5.50510783200908,56.25,NA,NA
65360,Henry County,MO,NA,NA,83.68983957219251,NA
65616,Taney County,MO,NA,NA,34.893048128342244,NA
65633,Stone County,MO,98.07037457434733,NA,NA,NA
65714,Christian County,MO,16.91259931895573,NA,NA,NA
65721,Christian County,MO,NA,42.70833333333333,NA,NA
65775,Howell County,MO,23.382519863791146,NA,NA,NA
65804,Greene County,MO,NA,NA,NA,67.4074074074074
65807,Greene County,MO,NA,NA,NA,15.925925925925927
59718,Gallatin County,MT,64.24517593643587,NA,33.42245989304813,NA
68025,Dodge County,NE,7.094211123723042,NA,NA,NA
68104,Douglas County,NE,19.182746878547103,NA,NA,NA
68105,Douglas County,NE,40.46538024971623,NA,NA,NA
68107,Douglas County,NE,26.333711691259932,NA,NA,NA
68118,Douglas County,NE,NA,NA,93.85026737967914,NA
68130,Douglas County,NE,58.399545970488084,NA,NA,NA
68134,Douglas County,NE,30.249716231555052,NA,NA,NA
68410,Otoe County,NE,NA,NA,92.24598930481284,NA
68502,Lancaster County,NE,NA,NA,66.57754010695187,NA
68516,Lancaster County,NE,NA,NA,63.63636363636363,NA
68601,Platte County,NE,NA,NA,NA,43.7037037037037
89110,Clark County,NV,32.9738933030647,NA,NA,NA
89148,Clark County,NV,42.11123723041998,NA,NA,NA
89156,Clark County,NV,26.50397275822928,NA,NA,NA
89502,Washoe County,NV,51.87287173666289,NA,NA,NA
89523,Washoe County,NV,NA,NA,50.93582887700535,NA
89815,Elko County,NV,83.54143019296254,NA,NA,NA
03038,Rockingham County,NH,NA,NA,12.566844919786096,NA
03051,Hillsborough County,NH,21.906923950056754,NA,NA,NA
03055,Hillsborough County,NH,36.6061293984109,NA,NA,NA
03079,Rockingham County,NH,NA,NA,15.508021390374333,NA
03103,Hillsborough County,NH,NA,NA,5.213903743315508,NA
03104,Hillsborough County,NH,NA,NA,13.502673796791445,NA
03106,Merrimack County,NH,68.1044267877412,NA,NA,NA
03235,Merrimack County,NH,59.080590238365495,NA,NA,NA
03253,Belknap County,NH,NA,NA,NA,85.92592592592592
03281,Hillsborough County,NH,NA,NA,NA,78.14814814814814
03743,Sullivan County,NH,59.080590238365495,NA,NA,NA
03801,Rockingham County,NH,91.03291713961409,NA,NA,NA
03844,Rockingham County,NH,92.67877412031783,NA,NA,NA
03867,Strafford County,NH,45.00567536889898,NA,NA,NA
03872,Carroll County,NH,NA,NA,97.99465240641712,NA
07005,Morris County,NJ,91.77071509648127,NA,NA,NA
07032,Hudson County,NJ,48.58115777525539,NA,NA,NA
07047,Hudson County,NJ,NA,NA,4.81283422459893,NA
07060,Union County,NJ,3.8024971623155506,41.66666666666667,NA,NA
07063,Union County,NJ,97.90011350737798,NA,NA,NA
07076,Union County,NJ,NA,94.44444444444444,80.3475935828877,NA
07078,Essex County,NJ,86.9466515323496,NA,NA,NA
07080,Middlesex County,NJ,NA,NA,53.475935828877006,NA
07082,Morris County,NJ,93.58683314415437,NA,NA,NA
07083,Union County,NJ,9.023836549375709,NA,NA,NA
07093,Hudson County,NJ,36.03859250851305,NA,NA,NA
07103,Essex County,NJ,NA,44.09722222222222,NA,NA
07104,Essex County,NJ,NA,2.7777777777777777,NA,NA
07108,Essex County,NJ,42.962542565266745,NA,NA,NA
07111,Essex County,NJ,NA,10.76388888888889,NA,NA
07201,Union County,NJ,NA,NA,86.63101604278076,NA
07202,Union County,NJ,NA,NA,6.149732620320856,NA
07206,Union County,NJ,4.540295119182747,NA,NA,NA
07305,Hudson County,NJ,68.72871736662883,NA,NA,NA
07420,Passaic County,NJ,92.56526674233825,NA,NA,NA
07444,Morris County,NJ,NA,NA,90.50802139037432,NA
07463,Bergen County,NJ,83.03064699205449,NA,NA,NA
07501,Passaic County,NJ,NA,NA,2.0053475935828877,NA
07512,Passaic County,NJ,NA,NA,NA,89.62962962962962
07601,Bergen County,NJ,NA,NA,NA,33.7037037037037
07657,Bergen County,NJ,NA,NA,NA,76.29629629629629
07740,Monmouth County,NJ,41.543700340522136,NA,NA,NA
07828,Morris County,NJ,48.86492622020431,NA,NA,NA
07830,Hunterdon County,NJ,NA,NA,93.98395721925134,NA
07834,Morris County,NJ,NA,NA,NA,70.74074074074073
07866,Morris County,NJ,52.1566401816118,NA,NA,NA
07882,Warren County,NJ,NA,NA,49.331550802139034,NA
07901,Union County,NJ,NA,NA,70.98930481283422,NA
07928,Morris County,NJ,76.84449489216799,NA,NA,NA
07932,Morris County,NJ,78.88762769580022,NA,NA,NA
07960,Morris County,NJ,33.37116912599319,NA,NA,NA
07974,Union County,NJ,56.980703745743476,NA,NA,NA
07981,Morris County,NJ,NA,NA,92.9144385026738,NA
08002,Camden County,NJ,65.15323496027243,NA,NA,NA
08003,Camden County,NJ,46.481271282633365,NA,NA,NA
08004,Camden County,NJ,79.90919409761634,NA,NA,NA
08016,Burlington County,NJ,77.9228149829739,NA,NA,NA
08033,Camden County,NJ,62.37230419977299,NA,63.63636363636363,80.74074074074075
08034,Camden County,NJ,NA,NA,77.13903743315508,NA
08037,Atlantic County,NJ,NA,84.72222222222221,90.37433155080214,NA
08043,Camden County,NJ,NA,NA,42.24598930481284,NA
08061,Gloucester County,NJ,94.77866061293983,NA,NA,NA
08069,Salem County,NJ,33.14415437003405,NA,NA,NA
08075,Burlington County,NJ,49.09194097616345,NA,NA,NA
08087,Ocean County,NJ,25.312145289443816,NA,65.24064171122996,NA
08094,Gloucester County,NJ,NA,NA,58.42245989304813,NA
08098,Salem County,NJ,NA,NA,41.57754010695187,NA
08102,Camden County,NJ,NA,10.069444444444445,NA,NA
08104,Camden County,NJ,NA,NA,1.3368983957219251,NA
08105,Camden County,NJ,2.553916004540295,NA,NA,NA
08108,Camden County,NJ,87.91146424517594,NA,NA,NA
08201,Atlantic County,NJ,86.2656072644722,NA,NA,NA
08251,Cape May County,NJ,58.51305334846765,NA,NA,NA
08330,Atlantic County,NJ,NA,NA,25.534759358288774,NA
08344,Gloucester County,NJ,NA,NA,NA,89.25925925925927
08360,Cumberland County,NJ,3.348467650397276,NA,NA,NA
08401,Atlantic County,NJ,NA,1.3888888888888888,NA,3.7037037037037033
08505,Burlington County,NJ,NA,NA,58.155080213903744,NA
08540,Mercer County,NJ,NA,NA,NA,37.03703703703704
08560,Mercer County,NJ,NA,NA,98.93048128342245,NA
08609,Mercer County,NJ,NA,NA,73.93048128342245,NA
08701,Ocean County,NJ,54.31328036322361,NA,NA,NA
08755,Ocean County,NJ,NA,NA,53.20855614973262,NA
08816,Middlesex County,NJ,NA,NA,32.35294117647059,NA
08820,Middlesex County,NJ,92.16799091940976,NA,NA,NA
08844,Somerset County,NJ,18.047673098751417,NA,NA,56.2962962962963
08857,Middlesex County,NJ,NA,NA,7.4866310160427805,NA
08873,Somerset County,NJ,NA,97.91666666666666,NA,NA
08876,Somerset County,NJ,63.847900113507386,NA,NA,NA
87002,Valencia County,NM,51.475595913734395,NA,NA,NA
87013,Sandoval County,NM,68.78547105561861,NA,NA,NA
87024,Sandoval County,NM,96.65153234960272,NA,NA,NA
87031,Valencia County,NM,49.716231555051074,NA,NA,NA
87048,Sandoval County,NM,92.67877412031783,NA,NA,NA
87102,Bernalillo County,NM,NA,NA,NA,46.666666666666664
87105,Bernalillo County,NM,39.16004540295119,NA,NA,NA
87120,Bernalillo County,NM,NA,NA,8.823529411764707,NA
87121,Bernalillo County,NM,NA,47.22222222222222,NA,NA
87123,Bernalillo County,NM,NA,12.5,NA,NA
87301,McKinley County,NM,45.51645856980704,NA,NA,NA
87323,McKinley County,NM,95.57321225879683,NA,NA,NA
87410,San Juan County,NM,51.64585698070374,NA,NA,NA
87505,Santa Fe County,NM,10.32917139614075,NA,NA,NA
88101,Curry County,NM,17.707150964812712,NA,NA,NA
88203,Chaves County,NM,10.953461975028377,NA,NA,NA
88240,Lea County,NM,6.583427922814983,NA,5.347593582887701,NA
10002,New York County,NY,20.771850170261068,NA,NA,NA
10014,New York County,NY,78.54710556186151,NA,96.65775401069519,NA
10026,New York County,NY,NA,NA,55.3475935828877,NA
10030,New York County,NY,56.29965947786606,NA,NA,NA
10035,New York County,NY,9.591373439273552,NA,NA,NA
10036,New York County,NY,79.3416572077185,NA,NA,NA
10040,New York County,NY,31.8955732122588,NA,NA,NA
10453,Bronx County,NY,3.9727582292849033,NA,NA,NA
10454,Bronx County,NY,4.937570942111237,NA,NA,NA
10456,Bronx County,NY,NA,0,NA,NA
10457,Bronx County,NY,0.851305334846765,NA,32.75401069518716,NA
10458,Bronx County,NY,0.4540295119182747,7.638888888888889,0.6684491978609626,NA
10459,Bronx County,NY,3.745743473325766,NA,NA,NA
10460,Bronx County,NY,0.5107832009080591,NA,NA,NA
10461,Bronx County,NY,40.29511918274688,29.166666666666668,NA,NA
10462,Bronx County,NY,2.3269012485811578,NA,NA,NA
10463,Bronx County,NY,45.85698070374574,NA,NA,NA
10468,Bronx County,NY,67.7639046538025,NA,NA,NA
10472,Bronx County,NY,73.32576617480136,NA,13.903743315508022,NA
10475,Bronx County,NY,43.35981838819523,NA,NA,NA
10512,Putnam County,NY,NA,NA,89.171122994652407,NA
10567,Westchester County,NY,NA,87.84722222222221,NA,NA
10710,Westchester County,NY,NA,NA,NA,56.666666666666664
10918,Orange County,NY,NA,NA,NA,98.51851851851852
10930,Orange County,NY,91.20317820658343,NA,NA,NA
10960,Rockland County,NY,NA,NA,80.74866310160428,NA
11050,Nassau County,NY,78.2633371169126,NA,NA,NA
11203,Kings County,NY,79.79568671963678,NA,NA,NA
11204,Kings County,NY,11.804767309875142,NA,NA,NA
11206,Kings County,NY,NA,NA,29.144385026737968,NA
11207,Kings County,NY,NA,2.430555555555556,NA,NA
11210,Kings County,NY,37.684449489216796,NA,NA,NA
11212,Kings County,NY,0.9648127128263337,NA,NA,NA
11215,Kings County,NY,70.82860385925085,NA,NA,NA
11219,Kings County,NY,20.26106696935301,NA,NA,NA
11220,Kings County,NY,15.15323496027242,NA,NA,NA
11223,Kings County,NY,16.061293984108968,NA,NA,NA
11224,Kings County,NY,44.66515323496027,NA,NA,NA
11228,Kings County,NY,50.567536889897845,NA,NA,NA
11229,Kings County,NY,64.24517593643587,NA,NA,NA
11232,Kings County,NY,63.847900113507386,NA,NA,NA
11235,Kings County,NY,40.12485811577752,36.45833333333333,38.36898395721925,NA
11236,Kings County,NY,4.1430192962542565,NA,NA,NA
11237,Kings County,NY,NA,NA,NA,14.814814814814813
11367,Queens County,NY,85.1305334846765,NA,NA,NA
11368,Queens County,NY,0.6242905788876276,NA,NA,NA
11374,Queens County,NY,NA,81.94444444444444,NA,NA
11377,Queens County,NY,10.61293984108967,NA,46.524064171122994,NA
11385,Queens County,NY,4.880817253121453,NA,NA,NA
11416,Queens County,NY,55.22133938706016,NA,NA,NA
11418,Queens County,NY,25.652667423382518,NA,NA,NA
11420,Queens County,NY,NA,NA,45.18716577540107,NA
11432,Queens County,NY,29.852440408626563,NA,NA,NA
11434,Queens County,NY,13.053348467650396,NA,NA,NA
11435,Queens County,NY,NA,23.61111111111111,NA,NA
11520,Nassau County,NY,93.30306469920545,NA,NA,NA
11552,Nassau County,NY,NA,NA,77.67379679144385,NA
11570,Nassau County,NY,NA,NA,NA,79.62962962962963
11580,Nassau County,NY,95.45970488081726,NA,NA,NA
11722,Suffolk County,NY,88.47900113507377,NA,NA,NA
11725,Suffolk County,NY,NA,NA,60.42780748663101,NA
11727,Suffolk County,NY,NA,NA,NA,32.592592592592595
11784,Suffolk County,NY,65.89103291713961,NA,NA,NA
11789,Suffolk County,NY,97.72985244040862,NA,NA,NA
11798,Suffolk County,NY,80.98751418842225,NA,NA,NA
11801,Nassau County,NY,74.85811577752554,NA,NA,NA
11946,Suffolk County,NY,80.70374574347332,NA,NA,NA
11949,Suffolk County,NY,82.00908059023837,NA,NA,NA
12065,Saratoga County,NY,NA,NA,53.342245989304814,NA
12180,Rensselaer County,NY,20.488081725312146,NA,NA,NA
12524,Dutchess County,NY,98.63791146424518,NA,NA,NA
12771,Orange County,NY,NA,NA,NA,74.81481481481481
12804,Warren County,NY,NA,NA,NA,11.481481481481481
12946,Essex County,NY,73.43927355278093,NA,NA,NA
13045,Cortland County,NY,NA,49.65277777777778,20.053475935828878,NA
13069,Oswego County,NY,NA,NA,NA,12.962962962962962
13131,Oswego County,NY,87.79795686719638,NA,NA,NA
13309,Oneida County,NY,NA,NA,64.97326203208557,NA
13350,Herkimer County,NY,18.898978433598185,NA,NA,NA
13811,Tioga County,NY,NA,NA,77.40641711229947,NA
13815,Chenango County,NY,18.67196367763905,NA,NA,NA
13905,Broome County,NY,10.499432463110102,NA,NA,4.814814814814815
14006,Erie County,NY,NA,NA,64.3048128342246,59.62962962962963
14020,Genesee County,NY,8.51305334846765,NA,NA,NA
14051,Erie County,NY,49.48921679909194,NA,NA,NA
14058,Genesee County,NY,91.99772985244041,NA,NA,NA
14063,Chautauqua County,NY,45.51645856980704,NA,39.17112299465241,NA
14086,Erie County,NY,NA,NA,NA,18.14814814814815
14094,Niagara County,NY,NA,NA,NA,3.3333333333333335
14127,Erie County,NY,NA,NA,15.106951871657753,NA
14172,Niagara County,NY,NA,NA,NA,96.29629629629629
14202,Erie County,NY,98.75141884222475,NA,NA,NA
14206,Erie County,NY,30.590238365493754,NA,NA,NA
14207,Erie County,NY,47.67309875141884,NA,7.219251336898395,NA
14210,Erie County,NY,NA,NA,NA,73.33333333333333
14211,Erie County,NY,2.724177071509648,NA,NA,NA
14213,Erie County,NY,9.421112372304199,NA,19.11764705882353,NA
14220,Erie County,NY,22.304199772985246,NA,NA,NA
14221,Erie County,NY,10.385925085130534,NA,11.497326203208557,NA
14225,Erie County,NY,NA,NA,8.155080213903744,NA
14424,Ontario County,NY,NA,NA,45.32085561497326,NA
14437,Livingston County,NY,61.01021566401816,NA,NA,NA
14450,Monroe County,NY,NA,NA,2.6737967914438503,NA
14467,Monroe County,NY,43.35981838819523,NA,NA,NA
14472,Monroe County,NY,70.20431328036322,NA,NA,NA
14476,Orleans County,NY,77.29852440408627,NA,NA,NA
14489,Wayne County,NY,93.24631101021566,NA,NA,NA
14514,Monroe County,NY,61.80476730987514,NA,NA,NA
14519,Wayne County,NY,22.92849035187287,NA,NA,NA
14559,Monroe County,NY,NA,66.31944444444444,NA,NA
14580,Monroe County,NY,0.22701475595913734,NA,1.06951871657754,0.3703703703703704
14586,Monroe County,NY,20.601589103291715,NA,NA,NA
14589,Wayne County,NY,36.9466515323496,NA,NA,NA
14606,Monroe County,NY,21.509648127128266,NA,NA,NA
14607,Monroe County,NY,NA,NA,18.850267379679146,NA
14608,Monroe County,NY,54.08626560726447,NA,NA,NA
14610,Monroe County,NY,35.58456299659478,NA,NA,NA
14611,Monroe County,NY,4.0862656072644725,NA,NA,NA
14616,Monroe County,NY,53.802497162315554,NA,NA,NA
14617,Monroe County,NY,NA,NA,6.016042780748663,NA
14621,Monroe County,NY,25.198637911464246,NA,NA,NA
14622,Monroe County,NY,68.38819523269012,NA,NA,NA
14623,Monroe County,NY,NA,NA,46.12299465240642,NA
14625,Monroe County,NY,NA,NA,45.45454545454545,NA
14626,Monroe County,NY,47.559591373439275,NA,NA,NA
14733,Chautauqua County,NY,90.6356413166856,NA,NA,NA
14738,Chautauqua County,NY,85.92508513053349,NA,NA,NA
14757,Chautauqua County,NY,92.22474460839955,NA,NA,NA
14760,Cattaraugus County,NY,NA,NA,9.491978609625669,NA
14779,Cattaraugus County,NY,NA,NA,NA,78.88888888888889
14787,Chautauqua County,NY,NA,88.88888888888889,NA,NA
14850,Tompkins County,NY,6.242905788876277,NA,NA,NA
14882,Tompkins County,NY,NA,NA,NA,90.37037037037037
27011,Yadkin County,NC,74.34733257661748,NA,NA,NA
27020,Yadkin County,NC,80.70374574347332,NA,NA,NA
27028,Davie County,NC,45.17593643586833,NA,NA,8.518518518518519
27048,Rockingham County,NC,NA,NA,NA,60.74074074074074
27053,Stokes County,NC,NA,NA,NA,78.51851851851852
27106,Forsyth County,NC,NA,NA,12.70053475935829,NA
27107,Forsyth County,NC,23.779795686719638,NA,4.411764705882353,NA
27244,Alamance County,NC,74.85811577752554,NA,NA,NA
27249,Guilford County,NC,8.286038592508513,NA,NA,NA
27253,Alamance County,NC,53.40522133938707,NA,NA,NA
27263,Randolph County,NC,NA,78.47222222222221,NA,52.59259259259259
27282,Guilford County,NC,NA,NA,87.56684491978609,NA
27302,Alamance County,NC,NA,NA,NA,44.81481481481481
27350,Randolph County,NC,84.50624290578888,NA,NA,NA
27410,Guilford County,NC,11.464245175936435,NA,NA,NA
27502,Wake County,NC,NA,NA,58.82352941176471,NA
27513,Wake County,NC,49.88649262202043,NA,NA,NA
27526,Wake County,NC,90.23836549375709,NA,NA,NA
27529,Wake County,NC,13.62088535754824,NA,NA,NA
27530,Wayne County,NC,NA,37.15277777777778,NA,NA
27534,Wayne County,NC,36.6061293984109,NA,NA,NA
27539,Wake County,NC,43.24631101021566,NA,NA,NA
27560,Wake County,NC,NA,NA,71.3903743315508,NA
27583,Person County,NC,84.4494892167991,NA,NA,NA
27587,Wake County,NC,NA,NA,21.390374331550802,9.62962962962963
27591,Wake County,NC,NA,77.43055555555556,NA,NA
27606,Wake County,NC,21.396140749148696,NA,NA,NA
27607,Wake County,NC,63.56413166855845,NA,NA,NA
27610,Wake County,NC,1.7593643586833143,NA,NA,NA
27616,Wake County,NC,5.902383654937571,NA,NA,38.148148148148145
27704,Durham County,NC,3.2917139614074915,NA,NA,NA
27707,Durham County,NC,59.818388195232686,84.375,58.68983957219251,NA
27712,Durham County,NC,NA,NA,NA,41.48148148148148
27804,Nash County,NC,NA,NA,NA,68.51851851851852
27858,Pitt County,NC,57.548240635641314,NA,NA,NA
27909,Pasquotank County,NC,35.8683314415437,NA,NA,NA
27954,Dare County,NC,NA,67.70833333333334,NA,NA
27958,Currituck County,NC,74.34733257661748,NA,NA,NA
28027,Cabarrus County,NC,NA,NA,18.71657754010695,7.4074074074074066
28078,Mecklenburg County,NC,NA,NA,28.342245989304814,NA
28083,Cabarrus County,NC,NA,NA,60.16042780748663,NA
28110,Union County,NC,16.572077185017026,NA,NA,NA
28144,Rowan County,NC,NA,NA,31.818181818181817,NA
28146,Rowan County,NC,NA,NA,29.946524064171122,NA
28205,Mecklenburg County,NC,NA,15.972222222222221,NA,NA
28208,Mecklenburg County,NC,NA,9.375,NA,NA
28211,Mecklenburg County,NC,NA,NA,27.67379679144385,NA
28214,Mecklenburg County,NC,10.783200908059024,NA,NA,NA
28215,Mecklenburg County,NC,6.186152099886493,NA,NA,NA
28217,Mecklenburg County,NC,19.63677639046538,NA,NA,NA
28227,Mecklenburg County,NC,14.869466515323495,NA,NA,NA
28262,Mecklenburg County,NC,21.05561861520999,NA,NA,NA
28269,Mecklenburg County,NC,79.05788876276958,NA,NA,NA
28306,Bladen County,NC,NA,NA,28.609625668449194,NA
28314,Cumberland County,NC,NA,NA,27.807486631016044,NA
28327,Moore County,NC,96.65153234960272,NA,NA,NA
28374,Moore County,NC,79.56867196367764,NA,NA,NA
28376,Hoke County,NC,14.926220204313282,NA,NA,NA
28401,New Hanover County,NC,9.988649262202042,NA,NA,NA
28428,New Hanover County,NC,69.86379114642452,NA,NA,NA
28441,Sampson County,NC,NA,NA,99.73262032085562,NA
28472,Columbus County,NC,44.09761634506243,NA,NA,NA
28551,Lenoir County,NC,NA,NA,59.09090909090909,NA
28601,Catawba County,NC,15.32349602724177,NA,NA,NA
28625,Iredell County,NC,NA,43.40277777777778,16.97860962566845,NA
28711,Buncombe County,NC,57.264472190692395,NA,NA,NA
28715,Buncombe County,NC,38.42224744608399,NA,NA,NA
28716,Haywood County,NC,62.315550510783204,NA,NA,NA
28719,Jackson County,NC,32.2360953461975,NA,NA,NA
28734,Macon County,NC,NA,37.5,NA,NA
28752,McDowell County,NC,NA,NA,NA,14.444444444444443
28777,Mitchell County,NC,84.16572077185018,NA,NA,NA
28786,Haywood County,NC,NA,52.43055555555556,64.83957219251337,NA
28792,Henderson County,NC,10.442678774120317,NA,NA,NA
28804,Buncombe County,NC,66.91259931895573,NA,78.20855614973262,NA
28806,Buncombe County,NC,NA,NA,37.70053475935829,NA
58103,Cass County,ND,41.827468785471055,NA,NA,NA
58201,Grand Forks County,ND,57.83200908059024,NA,27.941176470588236,NA
58401,Stutsman County,ND,NA,70.13888888888889,NA,NA
58501,Burleigh County,ND,26.958002270147556,NA,NA,NA
58503,Burleigh County,ND,62.71282633371169,NA,NA,NA
58601,Stark County,ND,NA,NA,41.844919786096256,NA
58701,Ward County,ND,32.00908059023836,NA,9.759358288770054,NA
43026,Franklin County,OH,6.583427922814983,NA,NA,21.11111111111111
43035,Delaware County,OH,3.5187287173666286,NA,NA,NA
43050,Knox County,OH,NA,NA,NA,4.444444444444445
43055,Licking County,OH,NA,NA,1.7379679144385027,NA
43065,Delaware County,OH,22.75822928490352,NA,44.919786096256686,NA
43068,Franklin County,OH,0.056753688989784334,NA,NA,NA
43078,Champaign County,OH,NA,NA,30.74866310160428,NA
43110,Franklin County,OH,5.391600454029512,NA,NA,NA
43113,Pickaway County,OH,NA,NA,13.636363636363635,NA
43119,Franklin County,OH,90.80590238365494,NA,NA,NA
43125,Franklin County,OH,42.3950056753689,NA,NA,NA
43160,Fayette County,OH,NA,NA,12.967914438502673,NA
43206,Franklin County,OH,10.158910329171396,NA,NA,NA
43213,Franklin County,OH,21.679909194097615,NA,NA,NA
43219,Franklin County,OH,8.229284903518728,NA,NA,NA
43224,Franklin County,OH,1.8161180476730987,NA,4.946524064171124,NA
43228,Franklin County,OH,2.0431328036322363,NA,NA,NA
43231,Franklin County,OH,34.10896708286039,34.72222222222222,NA,NA
43235,Franklin County,OH,20.317820658342793,NA,NA,NA
43302,Marion County,OH,2.2701475595913734,NA,NA,NA
43334,Morrow County,OH,89.10329171396141,NA,87.96791443850267,NA
43338,Morrow County,OH,NA,NA,56.417112299465245,NA
43420,Sandusky County,OH,1.70261066969353,NA,NA,NA
43465,Wood County,OH,NA,NA,75.40106951871658,NA
43515,Fulton County,OH,NA,NA,64.171122994652407,NA
43537,Lucas County,OH,41.37343927355278,NA,NA,NA
43551,Wood County,OH,29.795686719636777,NA,13.101604278074866,NA
43604,Lucas County,OH,38.592508513053346,NA,NA,NA
43609,Lucas County,OH,22.64472190692395,NA,NA,NA
43612,Lucas County,OH,37.96821793416572,NA,NA,NA
43613,Lucas County,OH,NA,14.583333333333334,3.6096256684491976,NA
43701,Muskingum County,OH,0.170261066969353,11.805555555555555,NA,NA
43812,Coshocton County,OH,8.11577752553916,NA,NA,NA
43822,Muskingum County,OH,95.2894438138479,NA,NA,NA
43920,Columbiana County,OH,5.618615209988649,NA,NA,NA
44001,Lorain County,OH,NA,NA,NA,4.074074074074074
44004,Ashtabula County,OH,NA,NA,2.272727272727273,NA
44011,Lorain County,OH,38.70601589103292,NA,NA,NA
44022,Cuyahoga County,OH,NA,NA,91.44385026737967,NA
44030,Ashtabula County,OH,28.887627695800226,NA,NA,NA
44035,Lorain County,OH,0.28376844494892167,NA,NA,NA
44052,Lorain County,OH,NA,4.513888888888888,NA,NA
44055,Lorain County,OH,1.4188422247446084,NA,NA,NA
44060,Lake County,OH,2.4971623155505105,NA,NA,NA
44087,Summit County,OH,16.91259931895573,NA,NA,NA
44089,Erie County,OH,NA,71.875,NA,NA
44090,Lorain County,OH,19.23950056753689,NA,91.84491978609626,NA
44094,Lake County,OH,18.501702610669692,NA,NA,NA
44102,Cuyahoga County,OH,0,NA,0.4010695187165776,NA
44104,Cuyahoga County,OH,NA,NA,NA,17.77777777777778
44105,Cuyahoga County,OH,NA,20.13888888888889,NA,NA
44107,Cuyahoga County,OH,NA,NA,12.433155080213904,NA
44108,Cuyahoga County,OH,21.62315550510783,NA,NA,NA
44117,Cuyahoga County,OH,81.27128263337117,NA,NA,NA
44118,Cuyahoga County,OH,NA,NA,11.363636363636363,NA
44120,Cuyahoga County,OH,63.7911464245176,NA,NA,NA
44128,Cuyahoga County,OH,6.81044267877412,NA,NA,2.2222222222222223
44134,Cuyahoga County,OH,12.258796821793416,NA,NA,NA
44135,Cuyahoga County,OH,1.6458569807037458,NA,NA,NA
44139,Cuyahoga County,OH,19.409761634506243,NA,NA,NA
44146,Cuyahoga County,OH,18.898978433598185,NA,NA,NA
44201,Portage County,OH,72.41770715096482,NA,NA,NA
44203,Summit County,OH,3.064699205448354,NA,NA,NA
44224,Summit County,OH,NA,NA,21.12299465240642,NA
44236,Summit County,OH,35.01702610669694,NA,NA,NA
44256,Medina County,OH,6.526674233825198,NA,NA,NA
44260,Portage County,OH,45.51645856980704,NA,NA,NA
44266,Portage County,OH,7.264472190692395,NA,NA,NA
44306,Summit County,OH,3.1214528944381383,5.555555555555555,NA,NA
44312,Summit County,OH,NA,NA,NA,11.11111111111111
44410,Trumbull County,OH,NA,NA,35.56149732620321,NA
44413,Columbiana County,OH,51.87287173666289,NA,NA,NA
44431,Columbiana County,OH,84.39273552780931,NA,NA,NA
44432,Columbiana County,OH,NA,NA,61.229946524064175,NA
44471,Mahoning County,OH,NA,NA,52.139037433155075,NA
44483,Trumbull County,OH,88.59250851305335,NA,NA,NA
44484,Trumbull County,OH,69.29625425652668,NA,NA,NA
44485,Trumbull County,OH,5.334846765039727,NA,NA,NA
44504,Mahoning County,OH,NA,NA,NA,81.11111111111111
44507,Mahoning County,OH,93.13280363223609,80.55555555555556,NA,NA
44511,Mahoning County,OH,58.796821793416576,NA,NA,NA
44601,Stark County,OH,3.234960272417707,NA,NA,NA
44622,Tuscarawas County,OH,25.028376844494893,NA,NA,NA
44646,Stark County,OH,45.2894438138479,NA,9.090909090909092,NA
44666,Stark County,OH,96.99205448354144,NA,NA,NA
44672,Mahoning County,OH,NA,64.58333333333334,83.55614973262033,NA
44691,Wayne County,OH,11.91827468785471,NA,NA,NA
44705,Stark County,OH,25.993189557321227,NA,NA,NA
44706,Stark County,OH,NA,25,NA,NA
44805,Ashland County,OH,NA,NA,12.834224598930483,NA
44820,Crawford County,OH,NA,27.083333333333332,NA,NA
44830,Seneca County,OH,12.826333711691259,NA,NA,NA
44875,Richland County,OH,65.43700340522133,NA,NA,NA
44890,Huron County,OH,NA,47.56944444444444,NA,NA
45002,Hamilton County,OH,19.807037457434735,NA,NA,NA
45005,Warren County,OH,NA,NA,8.422459893048128,NA
45011,Butler County,OH,12.939841089670828,NA,15.641711229946523,NA
45013,Butler County,OH,1.5891032917139614,NA,3.2085561497326207,NA
45036,Warren County,OH,5.2213393870601585,53.81944444444444,NA,NA
45039,Warren County,OH,NA,NA,46.3903743315508,NA
45044,Butler County,OH,0.7945516458569807,NA,NA,NA
45066,Warren County,OH,22.8149829738933,NA,NA,NA
45102,Clermont County,OH,NA,NA,34.090909090909086,NA
45103,Clermont County,OH,NA,NA,24.732620320855613,NA
45133,Highland County,OH,8.342792281498298,NA,NA,NA
45150,Clermont County,OH,77.58229284903518,NA,NA,NA
45154,Brown County,OH,51.87287173666289,NA,NA,NA
45157,Clermont County,OH,NA,NA,90.24064171122996,NA
45176,Clermont County,OH,NA,NA,96.12299465240642,NA
45206,Hamilton County,OH,15.83427922814983,NA,NA,NA
45229,Hamilton County,OH,NA,NA,27.00534759358289,NA
45231,Hamilton County,OH,NA,NA,7.352941176470589,NA
45233,Hamilton County,OH,78.94438138479,NA,NA,NA
45237,Hamilton County,OH,NA,NA,25.802139037433154,NA
45245,Clermont County,OH,61.46424517593644,56.25,NA,NA
45251,Hamilton County,OH,NA,NA,NA,58.14814814814815
45255,Hamilton County,OH,NA,NA,63.101604278074866,NA
45309,Montgomery County,OH,89.04653802497162,NA,NA,NA
45324,Greene County,OH,4.1430192962542565,NA,NA,NA
45331,Darke County,OH,54.42678774120318,NA,NA,NA
45342,Montgomery County,OH,NA,NA,10.962566844919785,NA
45344,Clark County,OH,26.84449489216799,NA,NA,NA
45365,Shelby County,OH,25.993189557321227,NA,NA,14.074074074074074
45373,Miami County,OH,NA,52.43055555555556,NA,NA
45385,Greene County,OH,4.256526674233825,NA,NA,NA
45404,Montgomery County,OH,NA,NA,90.64171122994652,NA
45406,Montgomery County,OH,NA,NA,43.58288770053476,NA
45414,Montgomery County,OH,NA,NA,60.29411764705882,NA
45424,Montgomery County,OH,30.476730987514188,NA,10.294117647058822,NA
45502,Clark County,OH,74.85811577752554,NA,NA,NA
45503,Clark County,OH,NA,NA,7.0855614973262036,NA
45601,Ross County,OH,NA,NA,0.9358288770053476,NA
45612,Ross County,OH,NA,82.29166666666666,NA,NA
45638,Lawrence County,OH,28.32009080590238,NA,NA,NA
45640,Jackson County,OH,7.71850170261067,11.11111111111111,NA,NA
45669,Lawrence County,OH,49.659477866061295,NA,NA,NA
45804,Allen County,OH,NA,NA,NA,25.925925925925924
45807,Allen County,OH,63.847900113507386,NA,NA,NA
45844,Putnam County,OH,85.30079455164585,NA,NA,NA
45865,Auglaize County,OH,98.35414301929626,NA,NA,NA
73003,Oklahoma County,OK,47.72985244040863,NA,NA,NA
73010,McClain County,OK,82.633371169126,NA,NA,NA
73013,Oklahoma County,OK,NA,NA,NA,10
73015,Caddo County,OK,97.61634506242906,NA,NA,NA
73020,Oklahoma County,OK,NA,NA,69.38502673796792,NA
73026,Cleveland County,OK,91.99772985244041,NA,NA,NA
73036,Canadian County,OK,36.9466515323496,NA,NA,NA
73071,Cleveland County,OK,22.02043132803632,NA,NA,NA
73072,Cleveland County,OK,56.12939841089671,NA,NA,NA
73109,Oklahoma County,OK,34.73325766174801,NA,NA,NA
73111,Oklahoma County,OK,NA,55.90277777777778,NA,NA
73112,Oklahoma County,OK,69.5800227014756,NA,NA,NA
73118,Oklahoma County,OK,79.90919409761634,NA,NA,NA
73127,Oklahoma County,OK,NA,45.48611111111111,NA,NA
73135,Oklahoma County,OK,57.548240635641314,NA,NA,NA
73162,Oklahoma County,OK,45.743473325766175,NA,NA,NA
73179,Oklahoma County,OK,NA,NA,NA,98.14814814814815
73401,Carter County,OK,16.85584562996595,NA,NA,NA
73448,Love County,OK,83.03064699205449,NA,NA,NA
73529,Stephens County,OK,67.87741203178207,NA,NA,NA
73533,Stephens County,OK,5.561861520998865,NA,NA,NA
74012,Tulsa County,OK,47.95686719636777,NA,NA,NA
74017,Rogers County,OK,8.683314415437003,NA,NA,NA
74047,Tulsa County,OK,92.96254256526673,NA,NA,NA
74063,Tulsa County,OK,24.858115777525537,NA,NA,NA
74066,Creek County,OK,NA,NA,NA,37.407407407407405
74073,Tulsa County,OK,NA,NA,NA,84.81481481481481
74074,Payne County,OK,NA,NA,NA,95.92592592592592
74106,Tulsa County,OK,NA,NA,35.160427807486634,NA
74127,Tulsa County,OK,85.64131668558457,NA,NA,NA
74137,Tulsa County,OK,84.16572077185018,NA,NA,NA
74401,Muskogee County,OK,25.312145289443816,NA,NA,NA
74437,Okmulgee County,OK,72.64472190692395,NA,NA,NA
74701,Bryan County,OK,50.17026106696936,NA,58.55614973262032,NA
74801,Pottawatomie County,OK,NA,81.59722222222221,NA,NA
74851,Pottawatomie County,OK,91.37343927355278,NA,73.79679144385027,NA
74955,Sequoyah County,OK,79.90919409761634,NA,NA,NA
74959,Le Flore County,OK,89.55732122587968,NA,NA,NA
74965,Adair County,OK,NA,NA,84.89304812834224,NA
97005,Washington County,OR,NA,NA,45.98930481283423,NA
97006,Washington County,OR,NA,79.16666666666666,27.540106951871657,NA
97027,Clackamas County,OR,83.82519863791147,NA,NA,NA
97031,Hood River County,OR,38.592508513053346,NA,NA,NA
97045,Clackamas County,OR,9.591373439273552,NA,14.572192513368984,NA
97058,Wasco County,OR,76.50397275822928,NA,NA,NA
97060,Multnomah County,OR,32.122587968217935,NA,NA,NA
97071,Marion County,OR,85.527809307605,NA,NA,NA
97123,Washington County,OR,87.40068104426788,NA,NA,NA
97124,Washington County,OR,13.22360953461975,NA,NA,NA
97128,Yamhill County,OR,24.74460839954597,NA,NA,NA
97211,Multnomah County,OR,NA,NA,42.513368983957214,NA
97229,Washington County,OR,NA,NA,33.82352941176471,NA
97233,Multnomah County,OR,5.10783200908059,NA,NA,NA
97301,Marion County,OR,40.919409761634505,17.708333333333336,NA,NA
97302,Marion County,OR,25.652667423382518,NA,NA,NA
97303,Marion County,OR,NA,NA,39.3048128342246,NA
97305,Marion County,OR,58.399545970488084,NA,NA,NA
97317,Marion County,OR,93.81384790011352,NA,NA,NA
97322,Linn County,OR,37.17366628830874,NA,NA,NA
97355,Linn County,OR,10.783200908059024,NA,11.631016042780749,NA
97374,Linn County,OR,98.9216799091941,NA,NA,NA
97402,Lane County,OR,17.196367763904654,NA,19.919786096256683,NA
97404,Lane County,OR,NA,NA,NA,47.77777777777778
97470,Douglas County,OR,NA,NA,60.6951871657754,NA
97496,Douglas County,OR,67.65039727582293,NA,NA,NA
97502,Jackson County,OR,NA,NA,37.29946524064171,NA
97524,Jackson County,OR,61.237230419977294,NA,NA,NA
97526,Josephine County,OR,NA,NA,55.88235294117647,NA
97603,Klamath County,OR,11.577752553916005,NA,NA,NA
97741,Jefferson County,OR,70.43132803632236,NA,NA,NA
15001,Beaver County,PA,49.48921679909194,NA,NA,NA
15010,Beaver County,PA,22.92849035187287,NA,NA,NA
15042,Beaver County,PA,98.07037457434733,NA,NA,NA
15044,Allegheny County,PA,NA,NA,60.026737967914436,NA
15057,Washington County,PA,NA,NA,89.3048128342246,NA
15063,Washington County,PA,98.75141884222475,NA,NA,NA
15065,Allegheny County,PA,NA,NA,NA,62.96296296296296
15089,Westmoreland County,PA,72.70147559591373,NA,NA,NA
15090,Allegheny County,PA,62.542565266742336,NA,88.36898395721924,NA
15102,Allegheny County,PA,NA,61.458333333333336,NA,NA
15106,Allegheny County,PA,64.52894438138479,NA,NA,NA
15120,Allegheny County,PA,32.803632236095346,NA,NA,NA
15126,Allegheny County,PA,79.56867196367764,NA,NA,NA
15131,Allegheny County,PA,91.20317820658343,NA,NA,NA
15143,Allegheny County,PA,71.90692395005675,NA,NA,NA
15207,Allegheny County,PA,NA,NA,79.27807486631015,NA
15219,Allegheny County,PA,61.91827468785471,NA,NA,NA
15220,Allegheny County,PA,NA,NA,NA,86.66666666666667
15221,Allegheny County,PA,NA,NA,17.379679144385026,NA
15226,Allegheny County,PA,62.769580022701476,NA,NA,NA
15237,Allegheny County,PA,NA,33.68055555555556,NA,23.703703703703706
15370,Greene County,PA,NA,NA,74.59893048128342,NA
15401,Fayette County,PA,NA,21.52777777777778,NA,NA
15473,Fayette County,PA,96.99205448354144,NA,NA,NA
15557,Somerset County,PA,94.04086265607265,NA,NA,NA
15601,Westmoreland County,PA,2.383654937570942,NA,NA,NA
15642,Westmoreland County,PA,13.847900113507377,NA,NA,NA
15650,Westmoreland County,PA,15.9477866061294,NA,14.973262032085561,NA
15666,Westmoreland County,PA,42.508513053348466,NA,NA,NA
15681,Indiana County,PA,NA,NA,91.0427807486631,NA
15801,Clearfield County,PA,46.878547105561864,NA,NA,NA
15931,Cambria County,PA,87.23041997729852,NA,NA,NA
16057,Butler County,PA,NA,90.97222222222221,NA,NA
16059,Butler County,PA,NA,89.23611111111111,NA,NA
16101,Lawrence County,PA,NA,NA,NA,7.037037037037037
16105,Lawrence County,PA,93.18955732122588,NA,NA,NA
16121,Mercer County,PA,NA,NA,68.04812834224599,81.48148148148148
16127,Mercer County,PA,80.98751418842225,NA,NA,NA
16214,Clarion County,PA,NA,NA,70.45454545454545,NA
16438,Erie County,PA,NA,NA,99.59893048128342,NA
16503,Erie County,PA,NA,NA,33.02139037433155,NA
16505,Erie County,PA,NA,NA,66.71122994652407,NA
16509,Erie County,PA,NA,71.52777777777779,NA,NA
16510,Erie County,PA,NA,NA,68.44919786096256,NA
16601,Blair County,PA,NA,31.944444444444443,NA,NA
16602,Blair County,PA,NA,67.01388888888889,NA,NA
16652,Huntingdon County,PA,27.75255391600454,NA,NA,NA
16701,McKean County,PA,45.459704880817256,NA,NA,NA
17003,Lebanon County,PA,82.29284903518729,NA,NA,NA
17011,Cumberland County,PA,NA,NA,NA,17.40740740740741
17013,Cumberland County,PA,39.21679909194097,NA,NA,NA
17015,Cumberland County,PA,84.27922814982975,NA,41.17647058823529,NA
17032,Dauphin County,PA,77.29852440408627,NA,NA,NA
17033,Dauphin County,PA,2.6106696935300793,NA,NA,NA
17042,Lebanon County,PA,NA,NA,22.459893048128343,NA
17044,Mifflin County,PA,13.791146424517594,NA,NA,NA
17046,Lebanon County,PA,5.448354143019296,NA,NA,NA
17051,Mifflin County,PA,98.5244040862656,NA,NA,NA
17055,Cumberland County,PA,44.94892167990919,NA,25.935828877005346,NA
17057,Dauphin County,PA,49.432463110102155,NA,NA,NA
17062,Perry County,PA,90.6356413166856,NA,NA,NA
17073,Lebanon County,PA,NA,NA,87.03208556149733,NA
17078,Lebanon County,PA,NA,NA,17.245989304812834,NA
17109,Dauphin County,PA,NA,NA,56.14973262032086,NA
17112,Dauphin County,PA,NA,NA,17.11229946524064,NA
17201,Franklin County,PA,NA,NA,10.026737967914439,NA
17202,Franklin County,PA,39.55732122587968,NA,NA,NA
17225,Franklin County,PA,97.67309875141883,NA,NA,NA
17257,Cumberland County,PA,70.77185017026106,NA,NA,NA
17314,York County,PA,99.48921679909193,NA,NA,NA
17325,Adams County,PA,NA,96.52777777777779,NA,6.296296296296296
17327,York County,PA,63.56413166855845,NA,NA,NA
17340,Adams County,PA,NA,85.06944444444444,NA,NA
17347,York County,PA,NA,NA,85.42780748663101,NA
17362,York County,PA,68.5017026106697,NA,NA,NA
17368,York County,PA,80.98751418842225,NA,NA,NA
17370,York County,PA,NA,NA,NA,97.4074074074074
17403,York County,PA,6.469920544835414,NA,NA,NA
17404,York County,PA,11.350737797956867,NA,NA,NA
17408,York County,PA,48.63791146424518,NA,NA,NA
17512,Lancaster County,PA,NA,NA,40.50802139037433,NA
17517,Lancaster County,PA,NA,92.36111111111111,NA,NA
17543,Lancaster County,PA,10.61293984108967,NA,NA,NA
17545,Lancaster County,PA,18.274687854710557,NA,42.112299465240646,NA
17552,Lancaster County,PA,NA,NA,NA,93.33333333333333
17566,Lancaster County,PA,97.27582292849036,NA,NA,NA
17601,Lancaster County,PA,25.028376844494893,NA,NA,NA
17603,Lancaster County,PA,9.194097616345061,50.34722222222222,32.085561497326204,NA
17728,Lycoming County,PA,NA,NA,83.28877005347593,NA
17745,Clinton County,PA,NA,NA,37.967914438502675,NA
17777,Northumberland County,PA,83.03064699205449,NA,NA,NA
17801,Northumberland County,PA,16.685584562996596,NA,19.786096256684495,NA
17814,Columbia County,PA,76.50397275822928,NA,NA,NA
17846,Columbia County,PA,92.56526674233825,NA,NA,NA
17866,Northumberland County,PA,72.41770715096482,NA,89.43850267379679,NA
17870,Snyder County,PA,70.6583427922815,NA,NA,NA
17963,Schuylkill County,PA,NA,NA,NA,98.88888888888889
18014,Northampton County,PA,NA,NA,81.14973262032086,NA
18032,Lehigh County,PA,83.82519863791147,NA,NA,NA
18041,Montgomery County,PA,86.54937570942111,NA,NA,NA
18045,Northampton County,PA,NA,NA,NA,68.14814814814815
18049,Lehigh County,PA,44.892167990919404,NA,NA,NA
18067,Northampton County,PA,35.58456299659478,NA,NA,NA
18080,Lehigh County,PA,NA,NA,43.31550802139038,NA
18102,Lehigh County,PA,5.278093076049943,NA,NA,NA
18103,Lehigh County,PA,NA,NA,55.481283422459896,NA
18109,Lehigh County,PA,46.935300794551644,NA,NA,NA
18210,Carbon County,PA,NA,NA,87.16577540106952,NA
18252,Schuylkill County,PA,NA,65.625,NA,NA
18444,Lackawanna County,PA,94.66515323496027,NA,NA,NA
18505,Lackawanna County,PA,NA,59.02777777777778,NA,NA
18508,Lackawanna County,PA,52.32690124858116,NA,NA,NA
18509,Lackawanna County,PA,NA,NA,NA,82.22222222222221
18618,Luzerne County,PA,NA,NA,99.19786096256684,NA
18630,Wyoming County,PA,NA,NA,NA,99.62962962962963
18640,Luzerne County,PA,25.652667423382518,NA,NA,NA
18661,Luzerne County,PA,NA,NA,NA,72.5925925925926
18706,Luzerne County,PA,NA,NA,68.18181818181817,NA
18801,Susquehanna County,PA,85.8683314415437,NA,NA,NA
18925,Bucks County,PA,99.20544835414302,NA,NA,NA
18938,Bucks County,PA,NA,NA,95.45454545454545,NA
18940,Bucks County,PA,71.96367763904654,NA,NA,NA
19001,Montgomery County,PA,41.25993189557321,NA,NA,NA
19020,Bucks County,PA,37.51418842224744,NA,29.27807486631016,NA
19021,Bucks County,PA,NA,94.79166666666666,NA,NA
19027,Montgomery County,PA,51.87287173666289,NA,NA,NA
19030,Bucks County,PA,82.80363223609535,NA,NA,NA
19033,Delaware County,PA,59.47786606129398,NA,NA,NA
19044,Montgomery County,PA,74.85811577752554,NA,NA,NA
19053,Bucks County,PA,30.419977298524405,NA,NA,NA
19054,Bucks County,PA,76.22020431328036,NA,NA,NA
19057,Bucks County,PA,53.85925085130534,NA,NA,NA
19066,Montgomery County,PA,NA,NA,80.4812834224599,NA
19073,Delaware County,PA,NA,NA,75.80213903743316,NA
19081,Delaware County,PA,NA,NA,85.828877005347593,NA
19082,Delaware County,PA,NA,NA,10.56149732620321,NA
19085,Delaware County,PA,58.28603859250852,NA,NA,NA
19087,Chester County,PA,20.03405221339387,NA,NA,NA
19096,Montgomery County,PA,90.52213393870602,NA,NA,NA
19104,Philadelphia County,PA,NA,NA,10.828877005347595,NA
19115,Philadelphia County,PA,57.548240635641314,NA,NA,NA
19120,Philadelphia County,PA,NA,NA,31.951871657754012,NA
19128,Philadelphia County,PA,NA,NA,48.39572192513369,NA
19130,Philadelphia County,PA,NA,NA,36.229946524064175,83.7037037037037
19133,Philadelphia County,PA,7.377979568671964,NA,NA,NA
19134,Philadelphia County,PA,27.014755959137343,NA,2.941176470588235,NA
19135,Philadelphia County,PA,70.37457434733257,NA,NA,NA
19137,Philadelphia County,PA,NA,NA,62.299465240641716,NA
19138,Philadelphia County,PA,NA,31.944444444444443,NA,NA
19139,Philadelphia County,PA,40.635641316685586,NA,NA,NA
19140,Philadelphia County,PA,0.681044267877412,NA,NA,NA
19142,Philadelphia County,PA,58.11577752553916,NA,NA,NA
19147,Philadelphia County,PA,19.12599318955732,NA,NA,NA
19148,Philadelphia County,PA,7.832009080590238,NA,NA,NA
19149,Philadelphia County,PA,20.715096481271285,NA,NA,31.48148148148148
19154,Philadelphia County,PA,8.39954597048808,NA,NA,NA
19312,Chester County,PA,NA,NA,62.03208556149733,NA
19320,Chester County,PA,NA,NA,8.957219251336898,NA
19341,Chester County,PA,54.14301929625426,NA,NA,NA
19344,Chester County,PA,NA,NA,97.19251336898395,NA
19406,Montgomery County,PA,82.00908059023837,NA,NA,94.07407407407408
19422,Montgomery County,PA,NA,99.30555555555556,NA,NA
19444,Montgomery County,PA,NA,NA,82.75401069518716,NA
19462,Montgomery County,PA,61.91827468785471,NA,NA,NA
19468,Montgomery County,PA,71.16912599318955,NA,NA,NA
19475,Chester County,PA,77.75255391600454,NA,NA,NA
19508,Berks County,PA,70.43132803632236,NA,NA,NA
19560,Berks County,PA,79.05788876276958,NA,NA,NA
19602,Berks County,PA,29.96594778660613,NA,11.229946524064172,NA
19605,Berks County,PA,NA,NA,61.096256684491976,NA
19606,Berks County,PA,55.33484676503973,NA,NA,NA
02806,Bristol County,RI,45.51645856980704,NA,NA,NA
02816,Kent County,RI,NA,NA,25.267379679144387,NA
02822,Washington County,RI,91.82746878547105,NA,NA,NA
02827,Kent County,RI,99.60272417707151,NA,NA,NA
02828,Providence County,RI,77.29852440408627,NA,NA,NA
02852,Washington County,RI,65.89103291713961,NA,NA,NA
02857,Providence County,RI,NA,NA,93.04812834224599,NA
02860,Providence County,RI,NA,NA,26.737967914438503,NA
02893,Kent County,RI,NA,NA,NA,73.70370370370371
02917,Providence County,RI,84.90351872871736,NA,NA,NA
02920,Providence County,RI,56.75368898978434,NA,NA,NA
02921,Providence County,RI,50.567536889897845,NA,NA,NA
29036,Lexington County,SC,70.09080590238366,NA,NA,NA
29045,Kershaw County,SC,NA,NA,NA,51.48148148148148
29073,Lexington County,SC,79.56867196367764,NA,NA,NA
29102,Clarendon County,SC,78.54710556186151,NA,NA,NA
29135,Calhoun County,SC,87.62769580022702,NA,NA,NA
29153,Sumter County,SC,10.102156640181612,NA,NA,NA
29203,Richland County,SC,41.6572077185017,NA,10.427807486631016,NA
29307,Spartanburg County,SC,NA,NA,59.224598930481285,NA
29407,Charleston County,SC,69.5800227014756,NA,NA,NA
29414,Charleston County,SC,22.36095346197503,NA,NA,NA
29448,Dorchester County,SC,91.37343927355278,NA,NA,NA
29455,Charleston County,SC,NA,NA,NA,34.44444444444444
29456,Dorchester County,SC,65.32349602724177,35.06944444444444,NA,NA
29461,Berkeley County,SC,NA,NA,30.3475935828877,NA
29464,Charleston County,SC,13.110102156640183,NA,NA,NA
29466,Charleston County,SC,48.524404086265605,NA,46.79144385026738,NA
29483,Dorchester County,SC,3.40522133938706,NA,NA,NA
29492,Berkeley County,SC,NA,NA,93.71657754010695,NA
29501,Florence County,SC,12.826333711691259,NA,NA,NA
29554,Williamsburg County,SC,77.07150964812712,NA,NA,NA
29569,Horry County,SC,NA,NA,NA,57.03703703703704
29607,Greenville County,SC,NA,60.06944444444444,NA,NA
29611,Greenville County,SC,NA,NA,12.299465240641712,NA
29615,Greenville County,SC,55.67536889897844,NA,NA,NA
29627,Anderson County,SC,57.434733257661755,NA,NA,NA
29650,Greenville County,SC,NA,NA,67.37967914438502,NA
29651,Greenville County,SC,30.930760499432463,NA,NA,NA
29673,Greenville County,SC,NA,NA,36.49732620320856,NA
29680,Greenville County,SC,39.55732122587968,NA,NA,NA
29684,Anderson County,SC,74.17707150964813,NA,NA,NA
29687,Greenville County,SC,NA,NA,NA,21.48148148148148
29706,Chester County,SC,26.67423382519864,NA,30.88235294117647,NA
29732,York County,SC,NA,NA,28.475935828877002,NA
29803,Aiken County,SC,NA,NA,NA,10.37037037037037
29841,Aiken County,SC,3.859250851305335,NA,NA,NA
29842,Aiken County,SC,NA,70.83333333333334,NA,NA
57022,Minnehaha County,SD,88.64926220204313,NA,NA,NA
57106,Minnehaha County,SD,62.20204313280363,NA,NA,NA
57703,Pennington County,SD,NA,NA,65.9090909090909,NA
57719,Pennington County,SD,NA,62.5,NA,NA
57783,Lawrence County,SD,96.93530079455165,NA,NA,NA
37013,Davidson County,TN,11.634506242905788,NA,NA,NA
37027,Williamson County,TN,55.56186152099887,NA,NA,NA
37030,Smith County,TN,86.9466515323496,NA,NA,NA
37032,Robertson County,TN,NA,NA,96.52406417112299,NA
37040,Montgomery County,TN,49.716231555051074,NA,NA,NA
37043,Montgomery County,TN,NA,NA,33.68983957219251,NA
37055,Dickson County,TN,NA,NA,22.86096256684492,NA
37076,Davidson County,TN,NA,NA,NA,33.33333333333333
37083,Macon County,TN,54.99432463110102,NA,NA,NA
37086,Rutherford County,TN,44.43813847900113,58.68055555555556,NA,NA
37087,Wilson County,TN,12.54256526674234,NA,NA,NA
37115,Davidson County,TN,9.421112372304199,NA,NA,NA
37174,Williamson County,TN,41.6572077185017,NA,NA,NA
37186,Sumner County,TN,76.7877412031782,NA,NA,NA
37207,Davidson County,TN,86.77639046538025,NA,NA,NA
37211,Davidson County,TN,28.37684449489217,22.916666666666664,NA,NA
37214,Davidson County,TN,NA,NA,57.48663101604278,NA
37217,Davidson County,TN,67.13961407491486,NA,NA,NA
37334,Lincoln County,TN,38.819523269012485,NA,NA,NA
37641,Greene County,TN,NA,NA,68.58288770053476,NA
37643,Carter County,TN,NA,NA,NA,8.148148148148149
37645,Hawkins County,TN,73.43927355278093,NA,NA,NA
37660,Sullivan County,TN,41.08967082860386,NA,NA,NA
37681,Washington County,TN,93.4733257661748,NA,NA,NA
37686,Sullivan County,TN,NA,NA,NA,80.37037037037037
37708,Grainger County,TN,51.248581157775256,63.888888888888886,NA,NA
37714,Campbell County,TN,94.77866061293983,NA,NA,NA
37760,Jefferson County,TN,92.33825198637912,NA,NA,NA
37764,Sevier County,TN,60.38592508513053,NA,70.18716577540107,NA
37766,Campbell County,TN,NA,28.47222222222222,NA,NA
37801,Blount County,TN,NA,33.33333333333333,15.37433155080214,NA
37804,Blount County,TN,40.29511918274688,NA,NA,NA
37807,Union County,TN,NA,NA,67.24598930481284,NA
37820,Jefferson County,TN,NA,NA,79.14438502673798,NA
37849,Knox County,TN,35.58456299659478,NA,NA,NA
37854,Roane County,TN,46.76503972758229,NA,NA,NA
37865,Sevier County,TN,63.11010215664018,NA,NA,NA
37874,Monroe County,TN,33.37116912599319,NA,NA,NA
37887,Morgan County,TN,70.94211123723042,NA,NA,NA
37912,Knox County,TN,NA,35.41666666666667,NA,NA
37914,Knox County,TN,NA,35.76388888888889,34.49197860962567,NA
37917,Knox County,TN,NA,NA,16.711229946524064,NA
37918,Knox County,TN,6.980703745743473,NA,NA,NA
37919,Knox County,TN,NA,62.5,76.33689839572193,NA
37920,Knox County,TN,NA,NA,NA,16.296296296296298
37931,Knox County,TN,44.66515323496027,NA,NA,NA
38002,Shelby County,TN,33.65493757094211,NA,NA,NA
38017,Shelby County,TN,29.625425652667424,NA,NA,NA
38018,Shelby County,TN,NA,46.18055555555556,NA,NA
38024,Dyer County,TN,23.609534619750285,NA,NA,NA
38057,Fayette County,TN,NA,NA,98.79679144385027,NA
38058,Tipton County,TN,95.68671963677639,NA,NA,NA
38063,Lauderdale County,TN,NA,78.81944444444444,NA,NA
38075,Hardeman County,TN,95.74347332576617,NA,NA,NA
38106,Shelby County,TN,23.893303064699207,NA,NA,NA
38108,Shelby County,TN,25.936435868331444,NA,NA,NA
38109,Shelby County,TN,13.62088535754824,NA,NA,NA
38112,Shelby County,TN,48.01362088535755,NA,NA,NA
38114,Shelby County,TN,11.237230419977298,NA,NA,NA
38125,Shelby County,TN,NA,NA,51.60427807486631,NA
38134,Shelby County,TN,24.347332576617482,NA,NA,NA
38237,Weakley County,TN,58.51305334846765,NA,NA,NA
38305,Madison County,TN,35.58456299659478,NA,NA,NA
38343,Gibson County,TN,NA,67.36111111111111,NA,NA
38401,Maury County,TN,27.75255391600454,NA,NA,NA
38451,Maury County,TN,89.10329171396141,NA,NA,NA
38462,Lewis County,TN,62.08853575482406,NA,NA,NA
38464,Lawrence County,TN,33.65493757094211,NA,NA,NA
75002,Collin County,TX,NA,NA,21.79144385026738,NA
75006,Dallas County,TX,22.190692395005676,NA,NA,NA
75007,Denton County,TX,73.60953461975028,NA,NA,NA
75013,Collin County,TX,NA,NA,46.657754010695186,NA
75024,Collin County,TX,34.165720771850175,NA,NA,NA
75025,Collin County,TX,36.26560726447219,NA,NA,52.96296296296297
75035,Collin County,TX,20.14755959137344,NA,NA,NA
75041,Dallas County,TX,35.187287173666284,NA,NA,NA
75042,Dallas County,TX,NA,NA,NA,62.59259259259259
75043,Dallas County,TX,NA,NA,49.19786096256685,NA
75051,Dallas County,TX,7.604994324631101,NA,NA,NA
75060,Dallas County,TX,NA,NA,39.43850267379679,NA
75065,Denton County,TX,NA,NA,80.61497326203208,NA
75067,Denton County,TX,NA,NA,29.411764705882355,NA
75070,Collin County,TX,NA,NA,15.909090909090908,NA
75082,Collin County,TX,94.5516458569807,NA,NA,NA
75115,Dallas County,TX,NA,25.34722222222222,NA,NA
75146,Dallas County,TX,NA,NA,59.62566844919787,NA
75149,Dallas County,TX,90.29511918274687,NA,NA,NA
75150,Dallas County,TX,56.24290578887627,NA,NA,NA
75160,Kaufman County,TX,46.25425652667423,NA,NA,NA
75165,Ellis County,TX,NA,NA,58.9572192513369,NA
75209,Dallas County,TX,65.49375709421112,NA,NA,NA
75211,Dallas County,TX,4.7105561861520995,15.277777777777779,NA,NA
75212,Dallas County,TX,38.98978433598184,NA,NA,NA
75216,Dallas County,TX,57.718501702610666,NA,NA,NA
75217,Dallas County,TX,NA,5.902777777777778,NA,NA
75224,Dallas County,TX,NA,30.208333333333332,NA,NA
75227,Dallas County,TX,NA,8.333333333333332,NA,NA
75228,Dallas County,TX,3.5187287173666286,NA,NA,NA
75243,Dallas County,TX,0.9080590238365494,NA,13.770053475935828,NA
75249,Dallas County,TX,NA,NA,94.11764705882352,NA
75253,Dallas County,TX,22.36095346197503,NA,NA,NA
75254,Dallas County,TX,96.82179341657208,NA,NA,87.03703703703704
75407,Collin County,TX,44.66515323496027,NA,NA,NA
75409,Collin County,TX,NA,NA,88.77005347593582,NA
75644,Upshur County,TX,NA,NA,NA,58.88888888888889
75751,Henderson County,TX,80.87400681044268,NA,NA,NA
75766,Cherokee County,TX,NA,9.722222222222223,64.57219251336899,NA
75771,Smith County,TX,NA,NA,86.36363636363636,NA
75860,Freestone County,TX,77.29852440408627,NA,NA,NA
75904,Angelina County,TX,37.17366628830874,NA,NA,NA
75964,Nacogdoches County,TX,NA,70.48611111111111,NA,NA
76001,Tarrant County,TX,73.95005675368898,NA,NA,NA
76002,Tarrant County,TX,NA,NA,53.87700534759359,NA
76010,Tarrant County,TX,80.13620885357548,NA,NA,NA
76014,Tarrant County,TX,13.33711691259932,NA,NA,NA
76017,Tarrant County,TX,NA,NA,61.36363636363637,NA
76021,Tarrant County,TX,83.48467650397275,NA,NA,NA
76052,Tarrant County,TX,43.35981838819523,NA,NA,NA
76054,Tarrant County,TX,NA,NA,88.90374331550802,NA
76063,Tarrant County,TX,49.48921679909194,NA,14.037433155080215,NA
76067,Palo Pinto County,TX,NA,NA,50.93582887700535,NA
76085,Parker County,TX,82.80363223609535,NA,NA,NA
76087,Parker County,TX,34.506242905788874,NA,NA,NA
76105,Tarrant County,TX,NA,13.194444444444445,NA,NA
76108,Tarrant County,TX,17.877412031782068,NA,NA,NA
76110,Tarrant County,TX,74.06356413166856,NA,NA,NA
76111,Tarrant County,TX,NA,40.625,NA,NA
76112,Tarrant County,TX,39.55732122587968,NA,13.368983957219251,NA
76115,Tarrant County,TX,83.54143019296254,NA,NA,NA
76116,Tarrant County,TX,26.73098751418842,NA,NA,NA
76117,Tarrant County,TX,7.945516458569807,NA,NA,NA
76118,Tarrant County,TX,NA,NA,78.87700534759358,NA
76133,Tarrant County,TX,NA,8.680555555555555,NA,NA
76137,Tarrant County,TX,NA,NA,20.18716577540107,NA
76140,Tarrant County,TX,69.2395005675369,NA,NA,NA
76164,Tarrant County,TX,41.99772985244041,NA,NA,NA
76180,Tarrant County,TX,24.006810442678773,NA,NA,NA
76182,Tarrant County,TX,70.94211123723042,NA,NA,NA
76210,Denton County,TX,NA,NA,91.17647058823529,NA
76234,Wise County,TX,85.81157775255392,NA,NA,NA
76249,Denton County,TX,90.6356413166856,NA,NA,NA
76308,Wichita County,TX,65.89103291713961,NA,NA,NA
76401,Erath County,TX,42.508513053348466,NA,NA,NA
76424,Stephens County,TX,95.62996594778662,NA,NA,NA
76450,Young County,TX,61.237230419977294,NA,NA,NA
76501,Bell County,TX,NA,13.541666666666666,NA,NA
76513,Bell County,TX,46.14074914869467,NA,NA,NA
76642,Limestone County,TX,79.05788876276958,NA,NA,NA
76705,McLennan County,TX,67.65039727582293,NA,NA,NA
76706,McLennan County,TX,42.90578887627696,NA,NA,NA
76707,McLennan County,TX,43.18955732122588,NA,NA,NA
76708,McLennan County,TX,15.380249716231557,NA,NA,NA
76904,Tom Green County,TX,11.861520998864926,NA,NA,NA
77005,Harris County,TX,45.970488081725314,NA,NA,53.333333333333336
77007,Harris County,TX,NA,NA,49.73262032085562,NA
77015,Harris County,TX,37.51418842224744,NA,NA,NA
77020,Harris County,TX,43.35981838819523,NA,NA,NA
77026,Harris County,TX,NA,NA,51.87165775401069,NA
77038,Harris County,TX,96.19750283768444,38.88888888888889,NA,NA
77045,Harris County,TX,NA,20.48611111111111,54.41176470588235,NA
77047,Harris County,TX,88.30874006810443,NA,NA,NA
77048,Harris County,TX,62.20204313280363,NA,NA,NA
77056,Harris County,TX,NA,NA,NA,54.074074074074076
77057,Harris County,TX,38.98978433598184,NA,NA,NA
77061,Harris County,TX,71.45289443813849,NA,NA,NA
77062,Harris County,TX,33.65493757094211,NA,NA,NA
77063,Harris County,TX,NA,NA,63.50267379679144,NA
77069,Harris County,TX,NA,NA,92.51336898395722,NA
77071,Harris County,TX,23.212258796821793,NA,NA,NA
77072,Harris County,TX,15.664018161180476,NA,NA,NA
77074,Harris County,TX,NA,56.94444444444444,NA,NA
77076,Harris County,TX,NA,44.44444444444444,NA,NA
77078,Harris County,TX,NA,40.27777777777778,NA,NA
77081,Harris County,TX,30.590238365493754,NA,62.96791443850267,NA
77082,Harris County,TX,12.372304199772985,NA,NA,NA
77083,Harris County,TX,12.202043132803633,NA,NA,NA
77085,Harris County,TX,NA,88.19444444444444,NA,NA
77089,Harris County,TX,42.3950056753689,NA,NA,NA
77093,Harris County,TX,23.496027241770715,NA,NA,NA
77094,Harris County,TX,NA,NA,92.64705882352942,NA
77096,Harris County,TX,82.9738933030647,NA,NA,NA
77099,Harris County,TX,51.87287173666289,NA,NA,NA
77301,Montgomery County,TX,52.32690124858116,NA,NA,NA
77316,Montgomery County,TX,39.38706015891033,NA,NA,NA
77338,Harris County,TX,NA,NA,87.70053475935828,NA
77346,Harris County,TX,15.720771850170262,NA,NA,NA
77351,Polk County,TX,NA,54.166666666666664,NA,NA
77357,Montgomery County,TX,36.26560726447219,NA,NA,NA
77362,Montgomery County,TX,97.4460839954597,NA,NA,NA
77365,Montgomery County,TX,NA,19.09722222222222,NA,NA
77373,Harris County,TX,68.21793416572078,NA,NA,NA
77379,Harris County,TX,NA,NA,23.796791443850267,NA
77385,Montgomery County,TX,NA,NA,NA,71.85185185185186
77386,Montgomery County,TX,NA,NA,84.22459893048129,NA
77388,Harris County,TX,42.962542565266745,NA,NA,NA
77389,Harris County,TX,64.81271282633371,NA,NA,NA
77396,Harris County,TX,NA,NA,35.294117647058826,NA
77406,Fort Bend County,TX,57.94551645856981,NA,70.85561497326202,NA
77407,Fort Bend County,TX,NA,NA,50.13368983957219,NA
77433,Harris County,TX,64.69920544835415,NA,NA,NA
77449,Harris County,TX,NA,2.083333333333333,10.695187165775401,NA
77461,Fort Bend County,TX,NA,90.97222222222221,NA,NA
77471,Fort Bend County,TX,43.927355278093074,NA,NA,NA
77477,Fort Bend County,TX,NA,17.708333333333336,NA,NA
77479,Fort Bend County,TX,72.0771850170261,NA,27.139037433155078,NA
77480,Brazoria County,TX,75.19863791146425,NA,NA,NA
77493,Harris County,TX,40.12485811577752,NA,NA,NA
77494,Fort Bend County,TX,NA,NA,46.12299465240642,NA
77502,Harris County,TX,66.40181611804768,NA,NA,NA
77506,Harris County,TX,73.38251986379115,12.847222222222221,NA,NA
77511,Brazoria County,TX,NA,5.208333333333334,NA,NA
77515,Brazoria County,TX,NA,64.23611111111111,NA,NA
77521,Harris County,TX,74.6878547105562,NA,NA,NA
77535,Liberty County,TX,33.314415437003404,NA,NA,NA
77536,Harris County,TX,73.83654937570942,NA,NA,NA
77539,Galveston County,TX,2.6674233825198637,NA,NA,NA
77546,Galveston County,TX,57.491486946651534,NA,NA,NA
77568,Galveston County,TX,30.590238365493754,NA,NA,NA
77571,Harris County,TX,NA,39.93055555555556,NA,NA
77573,Galveston County,TX,1.1350737797956867,NA,NA,NA
77581,Brazoria County,TX,20.488081725312146,NA,NA,NA
77583,Brazoria County,TX,70.03405221339388,NA,NA,NA
77584,Brazoria County,TX,NA,NA,34.75935828877005,NA
77590,Galveston County,TX,6.3564131668558455,NA,NA,NA
77642,Jefferson County,TX,59.421112372304194,NA,NA,NA
77657,Hardin County,TX,63.39387060158911,NA,NA,NA
77659,Hardin County,TX,NA,NA,95.58823529411765,NA
77662,Orange County,TX,23.666288308740068,NA,NA,NA
77703,Jefferson County,TX,NA,41.66666666666667,NA,NA
77707,Jefferson County,TX,59.47786606129398,NA,NA,NA
77801,Brazos County,TX,71.62315550510783,NA,NA,NA
77802,Brazos County,TX,NA,NA,NA,18.51851851851852
77808,Brazos County,TX,47.16231555051078,NA,NA,NA
77833,Washington County,TX,NA,NA,43.85026737967914,NA
77840,Brazos County,TX,27.75255391600454,NA,NA,NA
77845,Brazos County,TX,4.370034052213394,NA,NA,NA
77962,Jackson County,TX,NA,NA,98.3957219251337,NA
77968,Victoria County,TX,97.50283768444949,NA,NA,NA
78064,Atascosa County,TX,NA,72.91666666666666,NA,NA
78130,Comal County,TX,NA,NA,NA,20.74074074074074
78201,Bexar County,TX,10.953461975028377,NA,NA,NA
78203,Bexar County,TX,NA,NA,NA,94.44444444444444
78207,Bexar County,TX,NA,3.8194444444444446,NA,NA
78213,Bexar County,TX,5.675368898978434,NA,NA,NA
78240,Bexar County,TX,NA,NA,41.31016042780749,NA
78247,Bexar County,TX,51.19182746878547,NA,NA,NA
78251,Bexar County,TX,35.92508513053348,NA,77.27272727272727,NA
78254,Bexar County,TX,72.8717366628831,NA,NA,NA
78255,Bexar County,TX,77.07150964812712,NA,NA,NA
78258,Bexar County,TX,12.3155505107832,NA,62.700534759358284,NA
78259,Bexar County,TX,52.72417707150965,NA,NA,NA
78332,Jim Wells County,TX,11.691259931895573,NA,NA,NA
78362,San Patricio County,TX,73.72304199772985,NA,NA,NA
78410,Nueces County,TX,NA,NA,NA,74.44444444444444
78412,Nueces County,TX,18.104426787741204,NA,NA,NA
78413,Nueces County,TX,NA,NA,86.76470588235294,NA
78414,Nueces County,TX,28.944381384790013,NA,NA,NA
78416,Nueces County,TX,NA,45.83333333333333,NA,NA
78520,Cameron County,TX,14.585698070374576,NA,NA,NA
78521,Cameron County,TX,NA,0.6944444444444444,NA,NA
78538,Hidalgo County,TX,NA,NA,95.18716577540107,NA
78541,Hidalgo County,TX,16.74233825198638,NA,NA,NA
78550,Cameron County,TX,84.7900113507378,NA,NA,NA
78572,Hidalgo County,TX,38.42224744608399,NA,18.449197860962567,NA
78573,Hidalgo County,TX,12.769580022701476,NA,NA,NA
78574,Hidalgo County,TX,67.4233825198638,NA,NA,NA
78577,Hidalgo County,TX,41.6572077185017,4.166666666666666,NA,NA
78580,Willacy County,TX,27.355278093076052,NA,NA,NA
78584,Starr County,TX,NA,NA,84.0909090909091,NA
78589,Hidalgo County,TX,NA,28.819444444444443,NA,NA
78612,Bastrop County,TX,72.70147559591373,NA,NA,NA
78624,Gillespie County,TX,NA,NA,NA,48.148148148148145
78626,Williamson County,TX,65.66401816118048,NA,NA,NA
78634,Williamson County,TX,28.717366628830877,NA,NA,NA
78645,Travis County,TX,NA,NA,NA,64.44444444444444
78654,Burnet County,TX,NA,NA,71.52406417112299,NA
78665,Williamson County,TX,NA,NA,47.72727272727273,NA
78681,Williamson County,TX,NA,NA,52.27272727272727,NA
78737,Hays County,TX,87.28717366628831,NA,NA,NA
78738,Travis County,TX,NA,NA,77.00534759358288,NA
78739,Travis County,TX,97.38933030646993,NA,NA,NA
78744,Travis County,TX,56.29965947786606,NA,NA,NA
78746,Travis County,TX,NA,NA,72.32620320855615,NA
78753,Travis County,TX,NA,NA,NA,84.44444444444444
79106,Potter County,TX,32.803632236095346,NA,NA,NA
79316,Terry County,TX,59.47786606129398,NA,NA,NA
79331,Dawson County,TX,54.99432463110102,NA,NA,NA
79407,Lubbock County,TX,NA,NA,73.1283422459893,NA
79415,Lubbock County,TX,56.58342792281499,NA,NA,NA
79416,Lubbock County,TX,28.717366628830877,NA,NA,NA
79424,Lubbock County,TX,12.996594778660613,NA,NA,NA
79562,Taylor County,TX,NA,NA,97.59358288770053,NA
79602,Taylor County,TX,29.3416572077185,NA,NA,51.85185185185185
79720,Howard County,TX,67.4233825198638,NA,NA,NA
79764,Ector County,TX,17.196367763904654,NA,NA,NA
79836,El Paso County,TX,NA,NA,95.72192513368985,NA
79838,El Paso County,TX,88.87627695800226,NA,NA,NA
79845,Presidio County,TX,NA,100,NA,NA
79907,El Paso County,TX,NA,NA,NA,20.37037037037037
79924,El Paso County,TX,29.455164585698068,NA,NA,NA
84003,Utah County,UT,50.96481271282634,NA,NA,NA
84005,Utah County,UT,57.94551645856981,NA,NA,NA
84015,Davis County,UT,10.045402951191827,NA,NA,NA
84037,Davis County,UT,19.23950056753689,NA,NA,NA
84043,Utah County,UT,9.81838819523269,NA,NA,91.85185185185185
84044,Salt Lake County,UT,29.114642451759366,NA,NA,NA
84045,Utah County,UT,NA,NA,92.7807486631016,95.55555555555556
84057,Utah County,UT,41.99772985244041,NA,NA,NA
84067,Weber County,UT,73.43927355278093,NA,NA,NA
84075,Davis County,UT,80.30646992054483,NA,NA,NA
84078,Uintah County,UT,14.358683314415439,NA,NA,NA
84081,Salt Lake County,UT,33.257661748013625,NA,NA,NA
84096,Salt Lake County,UT,21.169125993189557,NA,NA,NA
84106,Salt Lake County,UT,37.62769580022701,NA,NA,NA
84107,Salt Lake County,UT,36.095346197502835,NA,NA,NA
84109,Salt Lake County,UT,58.51305334846765,NA,NA,NA
84115,Salt Lake County,UT,30.590238365493754,NA,NA,NA
84118,Salt Lake County,UT,NA,NA,47.05882352941176,NA
84119,Salt Lake County,UT,NA,NA,NA,70.37037037037037
84121,Salt Lake County,UT,NA,NA,NA,16.666666666666664
84124,Salt Lake County,UT,NA,NA,75.1336898395722,NA
84128,Salt Lake County,UT,20.43132803632236,NA,NA,NA
84129,,UT,NA,NA,26.8716577540107,NA
84302,Box Elder County,UT,49.94324631101021,NA,NA,NA
84315,Weber County,UT,NA,NA,94.78609625668449,NA
84319,Cache County,UT,NA,NA,96.92513368983957,NA
84337,Box Elder County,UT,NA,NA,NA,92.96296296296296
84401,Weber County,UT,50.17026106696936,NA,NA,NA
84501,Carbon County,UT,63.847900113507386,NA,NA,NA
84604,Utah County,UT,65.49375709421112,NA,NA,NA
84606,Utah County,UT,78.54710556186151,NA,NA,NA
84655,Utah County,UT,82.633371169126,NA,NA,NA
84780,Washington County,UT,59.93189557321226,NA,NA,NA
05452,Chittenden County,VT,72.92849035187288,NA,NA,NA
05488,Franklin County,VT,44.49489216799092,NA,NA,NA
05602,Washington County,VT,NA,NA,NA,36.666666666666664
20136,Prince William County,VA,NA,NA,66.31016042780749,NA
20148,Loudoun County,VA,18.67196367763905,NA,NA,NA
20152,Loudoun County,VA,NA,NA,73.3957219251337,NA
20169,Prince William County,VA,61.46424517593644,NA,NA,NA
20171,Fairfax County,VA,39.78433598183882,NA,NA,NA
20191,Fairfax County,VA,47.72985244040863,NA,NA,NA
22015,Fairfax County,VA,NA,NA,50.13368983957219,NA
22030,Fairfax County,VA,56.12939841089671,NA,NA,NA
22039,Fairfax County,VA,71.62315550510783,NA,NA,NA
22042,Fairfax County,VA,NA,NA,48.79679144385027,NA
22151,Fairfax County,VA,NA,NA,90.9090909090909,NA
22153,Fairfax County,VA,NA,NA,55.61497326203209,NA
22182,Fairfax County,VA,64.81271282633371,NA,NA,NA
22191,Prince William County,VA,3.688989784335982,NA,NA,NA
22192,Prince William County,VA,47.105561861521004,NA,NA,NA
22206,Arlington County,VA,52.44040862656073,NA,NA,NA
22207,Arlington County,VA,31.214528944381385,NA,NA,NA
22302,Alexandria city,VA,NA,NA,83.9572192513369,NA
22304,Alexandria city,VA,NA,NA,14.43850267379679,NA
22306,Fairfax County,VA,57.20771850170261,NA,NA,NA
22309,Fairfax County,VA,29.625425652667424,NA,NA,NA
22401,Fredericksburg city,VA,47.27582292849035,NA,NA,NA
22405,Stafford County,VA,NA,NA,54.54545454545454,NA
22551,Spotsylvania County,VA,NA,NA,57.887700534759354,NA
22601,Winchester city,VA,NA,NA,NA,36.2962962962963
22801,Harrisonburg city,VA,31.8955732122588,NA,NA,NA
22824,Shenandoah County,VA,NA,89.23611111111111,NA,NA
22849,Page County,VA,63.11010215664018,NA,NA,NA
22901,Albemarle County,VA,NA,NA,76.20320855614973,NA
22960,Orange County,VA,76.39046538024972,NA,NA,NA
22963,Fluvanna County,VA,49.31895573212259,NA,NA,NA
22973,Greene County,VA,74.34733257661748,NA,NA,NA
22980,Waynesboro city,VA,19.750283768444948,NA,8.288770053475936,NA
23002,Amelia County,VA,90.52213393870602,NA,NA,NA
23061,Gloucester County,VA,53.85925085130534,NA,NA,NA
23072,Gloucester County,VA,NA,NA,71.12299465240642,NA
23093,Louisa County,VA,NA,NA,NA,88.51851851851852
23103,Goochland County,VA,76.50397275822928,NA,NA,NA
23120,Chesterfield County,VA,85.527809307605,NA,NA,NA
23150,Henrico County,VA,NA,95.13888888888889,NA,NA
23185,James City County,VA,NA,NA,34.62566844919786,NA
23188,James City County,VA,24.858115777525537,NA,NA,NA
23223,Henrico County,VA,1.9863791146424516,NA,NA,NA
23229,Henrico County,VA,55.448354143019294,NA,NA,NA
23231,Henrico County,VA,NA,NA,22.593582887700535,NA
23235,Chesterfield County,VA,47.72985244040863,NA,NA,NA
23320,Chesapeake city,VA,15.43700340522134,NA,NA,NA
23434,Suffolk city,VA,NA,NA,16.176470588235293,NA
23452,Virginia Beach city,VA,74.2905788876277,NA,NA,NA
23454,Virginia Beach city,VA,35.414301929625424,NA,26.60427807486631,NA
23504,Norfolk city,VA,61.46424517593644,NA,NA,NA
23523,Norfolk city,VA,70.20431328036322,NA,NA,NA
23601,Newport News city,VA,55.67536889897844,NA,NA,NA
23608,Newport News city,VA,75.65266742338252,7.291666666666667,NA,NA
23666,Hampton city,VA,NA,30.555555555555557,NA,NA
23970,Mecklenburg County,VA,NA,46.52777777777778,NA,NA
24012,Roanoke city,VA,22.531214528944382,NA,NA,NA
24013,Roanoke city,VA,52.894438138479,NA,NA,NA
24019,Roanoke County,VA,61.237230419977294,NA,NA,NA
24219,Wise County,VA,NA,NA,38.101604278074866,NA
24224,Russell County,VA,NA,NA,73.66310160427807,NA
24251,Scott County,VA,79.05788876276958,NA,NA,NA
24266,Russell County,VA,55.56186152099887,NA,NA,NA
24333,Galax city,VA,17.877412031782068,NA,NA,NA
24401,Staunton city,VA,24.347332576617482,NA,NA,NA
24477,Augusta County,VA,NA,NA,88.10160427807486,NA
24540,Danville city,VA,16.23155505107832,NA,NA,NA
24550,Campbell County,VA,93.4733257661748,NA,NA,NA
24592,Halifax County,VA,NA,NA,26.336898395721924,NA
98001,King County,WA,NA,NA,69.91978609625669,NA
98012,Snohomish County,WA,4.994324631101021,NA,NA,NA
98023,King County,WA,NA,NA,24.331550802139038,NA
98031,King County,WA,NA,NA,NA,15.555555555555555
98042,King County,WA,9.591373439273552,NA,NA,NA
98057,King County,WA,78.2633371169126,NA,NA,NA
98058,King County,WA,37.684449489216796,NA,61.76470588235294,NA
98059,King County,WA,NA,NA,71.65775401069519,30.37037037037037
98070,King County,WA,NA,NA,NA,69.25925925925925
98074,King County,WA,42.508513053348466,NA,NA,NA
98087,Snohomish County,WA,NA,NA,44.518716577540104,NA
98112,King County,WA,NA,NA,52.406417112299465,NA
98115,King County,WA,NA,NA,NA,25.555555555555554
98117,King County,WA,NA,NA,NA,52.22222222222223
98118,King County,WA,NA,NA,39.57219251336899,NA
98121,King County,WA,NA,NA,51.33689839572193,NA
98126,King County,WA,76.84449489216799,NA,NA,NA
98155,King County,WA,NA,NA,82.35294117647058,NA
98178,King County,WA,52.1566401816118,NA,NA,NA
98201,Snohomish County,WA,36.26560726447219,NA,NA,NA
98203,Snohomish County,WA,49.205448354143016,NA,NA,NA
98208,Snohomish County,WA,NA,NA,20.454545454545457,NA
98223,Snohomish County,WA,75.93643586833144,NA,23.262032085561497,NA
98225,Whatcom County,WA,66.23155505107832,NA,NA,NA
98270,Snohomish County,WA,NA,NA,18.58288770053476,NA
98290,Snohomish County,WA,32.803632236095346,NA,NA,NA
98294,Snohomish County,WA,89.33030646992054,NA,NA,NA
98312,Kitsap County,WA,48.12712826333711,NA,NA,NA
98327,Pierce County,WA,NA,NA,97.05882352941177,NA
98338,Pierce County,WA,56.58342792281499,NA,NA,NA
98373,Pierce County,WA,13.847900113507377,NA,NA,NA
98374,Pierce County,WA,NA,NA,81.01604278074866,NA
98375,Pierce County,WA,75.93643586833144,NA,49.465240641711226,NA
98390,Pierce County,WA,82.00908059023837,NA,NA,NA
98391,Pierce County,WA,21.906923950056754,NA,NA,NA
98404,Pierce County,WA,18.67196367763905,NA,NA,NA
98408,Pierce County,WA,NA,NA,NA,55.18518518518518
98466,Pierce County,WA,NA,NA,58.288770053475936,NA
98499,Pierce County,WA,26.4472190692395,NA,NA,NA
98501,Thurston County,WA,94.72190692395006,NA,NA,NA
98626,Cowlitz County,WA,34.61975028376845,NA,NA,NA
98671,Clark County,WA,75.19863791146425,NA,NA,NA
98684,Clark County,WA,NA,66.66666666666666,NA,NA
98801,Chelan County,WA,56.29965947786606,NA,NA,NA
98831,Chelan County,WA,NA,NA,99.33155080213903,NA
98837,Grant County,WA,NA,NA,74.73262032085562,NA
99037,Spokane County,WA,69.35300794551645,NA,NA,NA
99141,Stevens County,WA,88.98978433598184,NA,NA,NA
99202,Spokane County,WA,78.09307604994325,NA,NA,NA
99206,Spokane County,WA,NA,60.06944444444444,NA,NA
99207,Spokane County,WA,NA,79.51388888888889,NA,NA
99208,Spokane County,WA,29.96594778660613,NA,NA,NA
99212,Spokane County,WA,48.694665153234965,NA,NA,NA
99218,Spokane County,WA,67.4233825198638,NA,NA,NA
99301,Franklin County,WA,1.191827468785471,NA,NA,NA
99352,Benton County,WA,17.423382519863793,NA,NA,NA
99353,Benton County,WA,81.27128263337117,NA,NA,NA
20011,District of Columbia,DC,34.846765039727586,NA,NA,NA
20017,District of Columbia,DC,76.50397275822928,NA,NA,NA
20019,District of Columbia,DC,NA,NA,4.144385026737968,NA
20032,District of Columbia,DC,23.15550510783201,NA,NA,NA
24740,Mercer County,WV,36.6061293984109,NA,NA,NA
25045,Kanawha County,WV,NA,95.83333333333334,NA,NA
25302,Kanawha County,WV,NA,70.83333333333334,NA,NA
25401,Berkeley County,WV,43.24631101021566,NA,NA,NA
25405,Berkeley County,WV,NA,NA,NA,71.11111111111111
25419,Berkeley County,WV,31.611804767309877,NA,NA,NA
25420,Berkeley County,WV,91.20317820658343,NA,NA,NA
25427,Berkeley County,WV,NA,NA,60.82887700534759,NA
25438,Jefferson County,WV,84.90351872871736,NA,NA,NA
25510,Cabell County,WV,72.92849035187288,NA,NA,NA
25541,Cabell County,WV,NA,NA,63.903743315508024,NA
26003,Ohio County,WV,NA,18.75,NA,NA
26070,Brooke County,WV,65.49375709421112,NA,NA,NA
26101,Wood County,WV,22.64472190692395,NA,NA,NA
26104,Wood County,WV,70.43132803632236,NA,NA,NA
26155,Wetzel County,WV,87.51418842224744,NA,NA,NA
26301,Harrison County,WV,40.46538024971623,NA,NA,NA
26330,Harrison County,WV,66.23155505107832,NA,NA,NA
26452,Lewis County,WV,68.5017026106697,NA,NA,NA
26508,Monongalia County,WV,26.901248581157777,NA,NA,NA
26554,Marion County,WV,7.548240635641316,NA,NA,NA
26570,Monongalia County,WV,NA,NA,96.79144385026738,NA
26582,Marion County,WV,66.96935300794551,NA,NA,NA
53005,Waukesha County,WI,5.732122587968218,NA,NA,NA
53014,Calumet County,WI,NA,83.68055555555556,NA,NA
53017,Washington County,WI,96.0272417707151,NA,NA,NA
53027,Washington County,WI,NA,NA,84.62566844919786,NA
53029,Waukesha County,WI,34.165720771850175,NA,NA,NA
53039,Dodge County,WI,NA,NA,93.58288770053476,NA
53040,Washington County,WI,93.35981838819524,NA,NA,NA
53051,Waukesha County,WI,9.875141884222474,NA,95.98930481283422,NA
53073,Sheboygan County,WI,86.54937570942111,NA,NA,NA
53092,Ozaukee County,WI,48.240635641316686,NA,NA,NA
53095,Washington County,WI,79.90919409761634,NA,NA,NA
53105,Racine County,WI,NA,NA,15.240641711229946,NA
53132,Milwaukee County,WI,NA,NA,36.76470588235294,NA
53142,Kenosha County,WI,NA,NA,33.155080213903744,NA
53143,Kenosha County,WI,39.95459704880817,57.291666666666664,NA,NA
53149,Waukesha County,WI,43.35981838819523,NA,NA,40.370370370370374
53150,Waukesha County,WI,68.38819523269012,NA,NA,NA
53151,Waukesha County,WI,NA,NA,37.5668449197861,NA
53154,Milwaukee County,WI,NA,NA,22.058823529411764,NA
53179,Kenosha County,WI,71.28263337116913,NA,NA,NA
53181,Kenosha County,WI,36.6061293984109,NA,NA,NA
53188,Waukesha County,WI,NA,82.98611111111111,NA,NA
53190,Walworth County,WI,35.187287173666284,NA,NA,NA
53202,Milwaukee County,WI,NA,NA,45.588235294117645,NA
53204,Milwaukee County,WI,NA,NA,25.40106951871658,NA
53206,Milwaukee County,WI,NA,NA,NA,11.851851851851853
53208,Milwaukee County,WI,NA,NA,NA,30.74074074074074
53213,Milwaukee County,WI,90.06810442678774,NA,47.45989304812834,NA
53214,Milwaukee County,WI,38.02497162315551,NA,NA,NA
53216,Milwaukee County,WI,14.131668558456301,NA,NA,NA
53218,Milwaukee County,WI,NA,6.944444444444445,26.47058823529412,8.88888888888889
53219,Milwaukee County,WI,48.80817253121453,NA,17.51336898395722,NA
53223,Milwaukee County,WI,17.13961407491487,NA,NA,NA
53224,Milwaukee County,WI,33.54143019296254,NA,NA,NA
53226,Milwaukee County,WI,55.95913734392736,NA,NA,NA
53227,Milwaukee County,WI,50.17026106696936,NA,NA,NA
53405,Racine County,WI,NA,NA,5.481283422459892,NA
53511,Rock County,WI,28.547105561861517,NA,NA,NA
53532,Dane County,WI,NA,NA,65.37433155080214,NA
53534,Rock County,WI,91.48694665153235,NA,54.81283422459893,NA
53575,Dane County,WI,74.00681044267877,NA,NA,NA
53950,Juneau County,WI,NA,NA,82.0855614973262,NA
53959,Sauk County,WI,35.187287173666284,NA,NA,NA
54022,Pierce County,WI,51.248581157775256,NA,NA,NA
54025,St. Croix County,WI,NA,NA,88.50267379679144,NA
54115,Brown County,WI,70.71509648127127,NA,NA,NA
54154,Oconto County,WI,NA,NA,82.75401069518716,NA
54180,Brown County,WI,NA,NA,98.1283422459893,NA
54208,Brown County,WI,92.96254256526673,NA,NA,NA
54220,Manitowoc County,WI,20.998864926220204,NA,6.283422459893048,2.5925925925925926
54303,Brown County,WI,57.94551645856981,35.76388888888889,NA,NA
54304,Brown County,WI,63.053348467650395,NA,NA,NA
54403,Marathon County,WI,NA,NA,42.64705882352941,NA
54476,Marathon County,WI,14.982973893303065,NA,72.59358288770053,NA
54501,Oneida County,WI,NA,NA,48.1283422459893,NA
54636,La Crosse County,WI,59.93189557321226,NA,NA,NA
54650,La Crosse County,WI,41.25993189557321,NA,NA,NA
54724,Chippewa County,WI,NA,NA,85.29411764705883,NA
54738,Eau Claire County,WI,NA,NA,100,NA
54848,Rusk County,WI,NA,NA,81.41711229946524,NA
54911,Outagamie County,WI,NA,NA,89.97326203208557,NA
54913,Outagamie County,WI,59.47786606129398,NA,NA,NA
54914,Outagamie County,WI,49.09194097616345,NA,NA,NA
54915,Outagamie County,WI,8.91032917139614,NA,NA,NA
54929,Waupaca County,WI,72.30419977298524,NA,NA,NA
54952,Winnebago County,WI,28.490351872871738,NA,NA,NA
54956,Winnebago County,WI,66.96935300794551,NA,NA,NA
54983,Waupaca County,WI,99.43246311010215,NA,NA,NA
82070,Albany County,WY,NA,NA,79.94652406417111,NA
82930,Uinta County,WY,91.82746878547105,NA,NA,NA
