ZipCode,county,state,Adult,Retirement,Geriatric
35044,Talladega County,AL,84.14634146341463,NA,NA
35160,Talladega County,AL,NA,NA,36.19791666666667
35672,Lawrence County,AL,NA,84.63476070528966,NA
35758,Madison County,AL,NA,NA,34.89583333333333
35904,Etowah County,AL,NA,86.14609571788414,NA
36027,Barbour County,AL,NA,87.40554156171285,NA
36079,Pike County,AL,76.01626016260163,NA,NA
36104,Montgomery County,AL,56.09756097560976,NA,NA
36116,Montgomery County,AL,NA,56.17128463476071,NA
36323,Coffee County,AL,68.29268292682927,NA,NA
36587,Mobile County,AL,NA,91.68765743073047,NA
36801,Lee County,AL,NA,NA,74.21875
36863,Chambers County,AL,NA,67.2544080604534,NA
99701,Fairbanks North Star Borough,AK,33.739837398373986,74.3073047858942,NA
85009,Maricopa County,AZ,NA,28.71536523929471,NA
85016,Maricopa County,AZ,NA,37.531486146095716,NA
85033,Maricopa County,AZ,NA,41.05793450881612,NA
85142,Maricopa County,AZ,NA,NA,66.40625
85202,Maricopa County,AZ,21.544715447154474,NA,NA
85203,Maricopa County,AZ,NA,NA,71.09375
85205,Maricopa County,AZ,NA,27.455919395465994,NA
85206,Maricopa County,AZ,45.52845528455284,NA,NA
85224,Maricopa County,AZ,NA,47.858942065491185,NA
85248,Maricopa County,AZ,NA,NA,7.291666666666667
85260,Maricopa County,AZ,NA,40.80604534005038,NA
85282,Maricopa County,AZ,NA,48.614609571788414,NA
85296,Maricopa County,AZ,NA,NA,95.05208333333334
85335,Maricopa County,AZ,NA,60.20151133501259,NA
85351,Maricopa County,AZ,NA,NA,1.3020833333333335
85364,Yuma County,AZ,3.2520325203252036,NA,NA
85373,Maricopa County,AZ,NA,NA,19.53125
85701,Pima County,AZ,NA,NA,94.79166666666666
85712,Pima County,AZ,NA,NA,80.20833333333334
85713,Pima County,AZ,NA,10.327455919395465,NA
85747,Pima County,AZ,66.26016260162602,NA,NA
85756,Pima County,AZ,NA,NA,77.60416666666666
86043,Navajo County,AZ,NA,NA,100
86323,Yavapai County,AZ,NA,63.72795969773299,NA
86406,Mohave County,AZ,49.59349593495935,NA,NA
71913,Garland County,AR,36.17886178861789,NA,NA
72032,Faulkner County,AR,NA,NA,70.83333333333334
72143,White County,AR,NA,11.335012594458437,7.8125
72442,Mississippi County,AR,95.1219512195122,NA,NA
72701,Washington County,AR,63.00813008130082,NA,NA
72927,Logan County,AR,NA,84.1309823677582,NA
90002,Los Angeles County,CA,NA,NA,93.48958333333334
90003,Los Angeles County,CA,NA,NA,59.895833333333336
90018,Los Angeles County,CA,NA,67.50629722921914,NA
90031,Los Angeles County,CA,NA,NA,78.64583333333334
90041,Los Angeles County,CA,NA,NA,67.1875
90042,Los Angeles County,CA,NA,57.43073047858942,71.35416666666666
90631,Orange County,CA,NA,NA,23.697916666666664
90638,Los Angeles County,CA,NA,NA,29.427083333333332
90732,Los Angeles County,CA,NA,NA,57.03125
90746,Los Angeles County,CA,NA,59.69773299748111,NA
90807,Los Angeles County,CA,NA,NA,56.25
91007,Los Angeles County,CA,89.83739837398373,NA,NA
91011,Los Angeles County,CA,NA,NA,71.61458333333334
91206,Los Angeles County,CA,NA,59.949622166246854,NA
91302,Los Angeles County,CA,NA,NA,67.96875
91311,Los Angeles County,CA,55.28455284552846,NA,NA
91331,Los Angeles County,CA,NA,NA,35.67708333333333
91352,Los Angeles County,CA,NA,NA,65.10416666666666
91356,Los Angeles County,CA,NA,NA,24.479166666666664
91733,Los Angeles County,CA,65.04065040650406,NA,NA
91764,San Bernardino County,CA,34.959349593495936,NA,NA
92111,San Diego County,CA,NA,NA,28.385416666666668
92119,San Diego County,CA,NA,78.84130982367759,NA
92126,San Diego County,CA,82.52032520325203,NA,NA
92241,Riverside County,CA,NA,NA,74.73958333333334
92243,Imperial County,CA,NA,84.1309823677582,NA
92284,San Bernardino County,CA,NA,NA,61.71875
92345,San Bernardino County,CA,NA,NA,26.5625
92376,San Bernardino County,CA,NA,NA,55.208333333333336
92591,Riverside County,CA,48.78048780487805,NA,NA
92592,Riverside County,CA,NA,65.99496221662469,NA
92604,Orange County,CA,NA,NA,63.28125
92630,Orange County,CA,NA,NA,70.05208333333334
92637,Orange County,CA,NA,32.99748110831234,NA
92683,Orange County,CA,NA,NA,6.25
92804,Orange County,CA,14.634146341463413,NA,NA
92821,Orange County,CA,NA,55.66750629722922,NA
93004,Ventura County,CA,76.42276422764228,NA,NA
93010,Ventura County,CA,NA,NA,12.760416666666666
93033,Ventura County,CA,NA,NA,23.4375
93060,Ventura County,CA,34.959349593495936,NA,73.17708333333334
93063,Ventura County,CA,NA,63.97984886649874,46.61458333333333
93223,Tulare County,CA,NA,NA,97.39583333333334
93265,Tulare County,CA,100,NA,NA
93307,Kern County,CA,NA,NA,53.645833333333336
93312,Kern County,CA,37.80487804878049,NA,NA
93635,Merced County,CA,39.43089430894309,NA,NA
94019,San Mateo County,CA,95.52845528455285,NA,NA
94040,Santa Clara County,CA,NA,93.70277078085643,NA
94044,San Mateo County,CA,NA,NA,45.83333333333333
94066,San Mateo County,CA,NA,NA,14.322916666666666
94109,San Francisco County,CA,NA,66.75062972292191,NA
94306,Santa Clara County,CA,NA,69.77329974811083,NA
94510,Solano County,CA,NA,65.4911838790932,NA
94517,Contra Costa County,CA,NA,90.93198992443325,NA
94536,Alameda County,CA,NA,NA,59.114583333333336
94538,Alameda County,CA,NA,NA,22.135416666666664
94552,Alameda County,CA,NA,90.42821158690177,NA
94561,Contra Costa County,CA,NA,52.141057934508815,NA
94588,Alameda County,CA,NA,75.56675062972292,NA
94589,Solano County,CA,79.26829268292683,NA,NA
95060,Santa Cruz County,CA,87.8048780487805,NA,NA
95130,Santa Clara County,CA,97.96747967479675,NA,NA
95207,San Joaquin County,CA,NA,83.12342569269522,NA
95212,San Joaquin County,CA,73.98373983739837,NA,NA
95219,San Joaquin County,CA,NA,81.61209068010076,NA
95350,Stanislaus County,CA,NA,NA,18.75
95354,Stanislaus County,CA,NA,61.20906801007556,NA
95377,San Joaquin County,CA,65.4471544715447,NA,NA
95451,Lake County,CA,71.54471544715447,NA,NA
95476,Sonoma County,CA,NA,73.29974811083123,NA
95482,Mendocino County,CA,NA,28.463476070528966,NA
95666,Amador County,CA,NA,87.90931989924434,NA
95673,Sacramento County,CA,NA,71.28463476070529,NA
95822,Sacramento County,CA,38.21138211382114,NA,NA
95829,Sacramento County,CA,69.51219512195121,NA,NA
95926,Butte County,CA,32.926829268292686,NA,NA
80022,Adams County,CO,NA,NA,76.5625
80110,Arapahoe County,CO,NA,86.39798488664987,NA
80120,Arapahoe County,CO,61.382113821138205,56.17128463476071,NA
80127,Jefferson County,CO,47.5609756097561,NA,NA
80212,Denver County,CO,NA,73.55163727959699,NA
80403,Jefferson County,CO,NA,85.13853904282117,NA
80513,Larimer County,CO,NA,95.96977329974811,NA
80521,Larimer County,CO,65.85365853658537,NA,NA
80537,Larimer County,CO,NA,55.91939546599496,NA
80906,El Paso County,CO,NA,41.30982367758186,NA
80909,El Paso County,CO,22.76422764227642,NA,NA
06082,Hartford County,CT,20.73170731707317,NA,NA
06098,Litchfield County,CT,NA,49.1183879093199,NA
06106,Hartford County,CT,NA,NA,69.79166666666666
06107,Hartford County,CT,NA,72.544080604534,NA
06109,Hartford County,CT,NA,NA,34.375
06111,Hartford County,CT,NA,NA,38.80208333333333
06234,Windham County,CT,62.601626016260155,NA,NA
06415,New London County,CT,NA,74.05541561712846,NA
06513,New Haven County,CT,4.878048780487805,NA,NA
06516,New Haven County,CT,NA,NA,13.541666666666666
06611,Fairfield County,CT,NA,NA,35.41666666666667
06870,Fairfield County,CT,NA,94.96221662468514,NA
19963,Sussex County,DE,NA,37.78337531486146,NA
19968,Sussex County,DE,NA,49.87405541561713,NA
32114,Volusia County,FL,NA,45.34005037783375,NA
32117,Volusia County,FL,NA,NA,38.54166666666667
32128,Volusia County,FL,83.33333333333334,NA,NA
32137,Flagler County,FL,NA,37.27959697732997,38.02083333333333
32163,Sumter County,FL,NA,36.02015113350126,NA
32179,Marion County,FL,NA,88.9168765743073,NA
32246,Duval County,FL,NA,NA,50.520833333333336
32256,Duval County,FL,NA,NA,32.29166666666667
32258,Duval County,FL,NA,NA,64.58333333333334
32333,Gadsden County,FL,NA,NA,95.3125
32459,Walton County,FL,NA,31.738035264483628,NA
32607,Alachua County,FL,NA,NA,56.770833333333336
32746,Seminole County,FL,NA,NA,58.59375
32750,Seminole County,FL,NA,NA,76.04166666666666
32765,Seminole County,FL,NA,78.33753148614609,NA
32807,Orange County,FL,NA,63.476070528967256,NA
32905,Brevard County,FL,NA,49.622166246851386,NA
32926,Brevard County,FL,NA,48.36272040302267,20.3125
32953,Brevard County,FL,NA,NA,17.708333333333336
32968,Indian River County,FL,NA,96.4735516372796,NA
33010,Miami-Dade County,FL,NA,42.56926952141058,NA
33012,Miami-Dade County,FL,NA,23.929471032745592,NA
33062,Broward County,FL,NA,NA,4.6875
33144,Miami-Dade County,FL,NA,68.76574307304786,NA
33169,Miami-Dade County,FL,NA,NA,63.020833333333336
33170,Miami-Dade County,FL,78.45528455284553,NA,NA
33411,Palm Beach County,FL,NA,NA,23.177083333333336
33418,Palm Beach County,FL,NA,NA,11.979166666666668
33426,Palm Beach County,FL,NA,NA,83.33333333333334
33437,Palm Beach County,FL,NA,NA,0.26041666666666663
33449,Palm Beach County,FL,NA,NA,82.8125
33458,Palm Beach County,FL,NA,25.188916876574307,NA
33573,Hillsborough County,FL,NA,NA,2.864583333333333
33604,Hillsborough County,FL,NA,40.55415617128463,NA
33613,Hillsborough County,FL,NA,57.17884130982368,NA
33702,Pinellas County,FL,NA,64.98740554156171,NA
33764,Pinellas County,FL,NA,52.896725440806044,NA
33774,Pinellas County,FL,NA,71.03274559193954,NA
33801,Polk County,FL,55.6910569105691,NA,NA
33803,Polk County,FL,NA,NA,39.58333333333333
33810,Polk County,FL,26.422764227642276,NA,NA
33815,Polk County,FL,NA,71.28463476070529,NA
33859,Polk County,FL,NA,NA,79.42708333333334
33903,Lee County,FL,NA,NA,27.864583333333332
33905,Lee County,FL,NA,26.952141057934508,NA
33908,Lee County,FL,NA,NA,1.0416666666666665
33971,Lee County,FL,56.91056910569105,NA,NA
34112,Collier County,FL,NA,38.539042821158695,NA
34211,Manatee County,FL,NA,NA,84.375
34221,Manatee County,FL,37.39837398373984,NA,NA
34229,Sarasota County,FL,NA,NA,36.45833333333333
34241,Sarasota County,FL,NA,66.24685138539043,NA
34287,Sarasota County,FL,53.65853658536586,NA,NA
34475,Marion County,FL,90.65040650406505,NA,NA
34476,Marion County,FL,NA,NA,28.90625
34613,Hernando County,FL,NA,36.272040302267,NA
34638,Pasco County,FL,NA,92.69521410579345,NA
34668,Pasco County,FL,NA,NA,31.770833333333332
34684,Pinellas County,FL,NA,NA,14.583333333333334
34741,Osceola County,FL,NA,35.26448362720403,NA
34761,Orange County,FL,NA,NA,34.11458333333333
34772,Osceola County,FL,NA,67.75818639798489,NA
34974,Okeechobee County,FL,NA,NA,41.92708333333333
30022,Fulton County,GA,39.83739837398374,NA,NA
30034,DeKalb County,GA,NA,61.96473551637279,NA
30062,Cobb County,GA,NA,14.609571788413097,NA
30084,DeKalb County,GA,61.78861788617886,NA,NA
30087,DeKalb County,GA,NA,21.41057934508816,NA
30096,Gwinnett County,GA,NA,31.48614609571788,NA
30101,Cobb County,GA,26.01626016260163,NA,NA
30106,Cobb County,GA,NA,77.58186397984886,NA
30117,Carroll County,GA,NA,NA,32.55208333333333
30144,Cobb County,GA,34.146341463414636,NA,NA
30145,Bartow County,GA,84.95934959349594,NA,NA
30161,Floyd County,GA,NA,21.662468513853906,NA
30310,Fulton County,GA,NA,16.624685138539043,51.041666666666664
30457,Treutlen County,GA,NA,NA,98.69791666666666
30458,Bulloch County,GA,88.6178861788618,NA,NA
30501,Hall County,GA,NA,NA,70.57291666666666
30519,Gwinnett County,GA,NA,34.005037783375315,NA
30540,Gilmer County,GA,NA,43.57682619647355,NA
30546,Towns County,GA,NA,72.29219143576826,NA
30554,Hall County,GA,NA,NA,98.4375
30750,Walker County,GA,NA,99.49622166246851,NA
30901,Richmond County,GA,NA,86.90176322418137,NA
31210,Bibb County,GA,58.94308943089431,NA,NA
31305,McIntosh County,GA,NA,NA,99.73958333333334
31324,Bryan County,GA,NA,NA,92.96875
31410,Chatham County,GA,NA,NA,69.27083333333334
31501,Ware County,GA,NA,NA,56.510416666666664
31620,Cook County,GA,NA,NA,87.76041666666666
31639,Berrien County,GA,72.76422764227642,NA,NA
31792,Thomas County,GA,NA,35.012594458438286,NA
31906,Muscogee County,GA,79.67479674796748,NA,NA
31907,Muscogee County,GA,NA,24.43324937027708,3.6458333333333335
96740,Hawaii County,HI,90.2439024390244,NA,NA
83607,Canyon County,ID,NA,31.98992443324937,NA
83672,Washington County,ID,71.95121951219512,NA,NA
83835,Kootenai County,ID,NA,NA,46.09375
60013,McHenry County,IL,NA,72.79596977329975,NA
60035,Lake County,IL,NA,NA,2.34375
60056,Cook County,IL,NA,NA,58.854166666666664
60069,Lake County,IL,NA,NA,36.71875
60089,Lake County,IL,NA,11.586901763224182,NA
60108,DuPage County,IL,NA,NA,33.85416666666667
60115,DeKalb County,IL,40.243902439024396,NA,NA
60152,McHenry County,IL,70.32520325203252,NA,65.36458333333334
60410,Will County,IL,NA,NA,74.47916666666666
60430,Cook County,IL,NA,82.87153652392946,NA
60453,Cook County,IL,15.040650406504067,NA,NA
60477,Cook County,IL,25.609756097560975,NA,NA
60510,Kane County,IL,NA,54.65994962216625,NA
60546,Cook County,IL,NA,41.81360201511335,NA
60563,DuPage County,IL,NA,NA,79.94791666666666
60565,DuPage County,IL,NA,20.906801007556673,NA
60610,Cook County,IL,42.27642276422765,NA,NA
60613,Cook County,IL,28.455284552845526,NA,NA
60614,Cook County,IL,NA,17.12846347607053,NA
60621,Cook County,IL,NA,33.249370277078086,NA
60637,Cook County,IL,NA,12.846347607052897,NA
60643,Cook County,IL,NA,3.7783375314861463,NA
60655,Cook County,IL,NA,31.98992443324937,NA
60901,Kankakee County,IL,18.69918699186992,NA,NA
60950,Kankakee County,IL,NA,NA,42.44791666666667
61065,Boone County,IL,67.07317073170732,NA,NA
61350,LaSalle County,IL,NA,33.249370277078086,NA
61356,Bureau County,IL,NA,NA,45.3125
61604,Peoria County,IL,NA,40.050377833753146,NA
61611,Tazewell County,IL,NA,NA,48.95833333333333
61764,Livingston County,IL,NA,NA,73.4375
62034,Madison County,IL,NA,NA,60.677083333333336
62226,St. Clair County,IL,NA,29.47103274559194,NA
62274,Perry County,IL,NA,NA,86.45833333333334
62363,Pike County,IL,NA,98.2367758186398,NA
62618,Cass County,IL,NA,NA,89.84375
62703,Sangamon County,IL,NA,66.49874055415617,NA
62832,Perry County,IL,NA,NA,51.302083333333336
46013,Madison County,IN,NA,19.899244332493705,NA
46016,Madison County,IN,82.11382113821138,NA,NA
46041,Clinton County,IN,NA,NA,47.91666666666667
46062,Hamilton County,IN,NA,NA,47.39583333333333
46140,Hancock County,IN,NA,NA,18.75
46176,Shelby County,IN,17.88617886178862,NA,NA
46217,Marion County,IN,NA,NA,45.05208333333333
46236,Marion County,IN,NA,55.41561712846348,NA
46250,Marion County,IN,NA,NA,88.54166666666666
46312,Lake County,IN,NA,NA,65.625
46375,Lake County,IN,NA,17.632241813602015,NA
46410,Lake County,IN,NA,NA,26.302083333333332
46501,Marshall County,IN,NA,99.24433249370277,NA
46526,Elkhart County,IN,NA,61.46095717884131,43.75
46554,St. Joseph County,IN,97.5609756097561,NA,NA
46619,St. Joseph County,IN,NA,68.26196473551637,NA
46755,Noble County,IN,28.04878048780488,NA,NA
46809,Allen County,IN,NA,74.55919395465995,NA
46825,Allen County,IN,NA,NA,35.15625
46947,Cass County,IN,NA,45.08816120906801,NA
46996,Pulaski County,IN,NA,86.90176322418137,NA
47025,Dearborn County,IN,NA,58.69017632241813,NA
47265,Jennings County,IN,NA,NA,49.73958333333333
47567,Pike County,IN,91.46341463414635,NA,NA
50138,Marion County,IA,74.39024390243902,NA,NA
50313,Polk County,IA,38.61788617886179,NA,NA
50501,Webster County,IA,23.170731707317074,NA,NA
50701,Black Hawk County,IA,NA,26.700251889168765,NA
52001,Dubuque County,IA,NA,62.97229219143576,82.03125
52240,Johnson County,IA,NA,NA,28.125
52601,Des Moines County,IA,12.601626016260163,NA,NA
52627,Lee County,IA,44.3089430894309,NA,NA
66106,Wyandotte County,KS,47.15447154471545,NA,NA
66215,Johnson County,KS,NA,79.09319899244332,NA
66607,Shawnee County,KS,NA,92.19143576826197,NA
66610,Shawnee County,KS,93.08943089430895,NA,NA
66614,Shawnee County,KS,NA,19.64735516372796,NA
67203,Sedgwick County,KS,NA,89.92443324937027,NA
67207,Sedgwick County,KS,NA,NA,81.77083333333334
67301,Montgomery County,KS,77.64227642276423,NA,NA
67801,Ford County,KS,57.3170731707317,NA,NA
40214,Jefferson County,KY,7.723577235772358,NA,NA
40216,Jefferson County,KY,10.16260162601626,NA,NA
40299,Jefferson County,KY,NA,NA,20.833333333333336
40324,Scott County,KY,14.227642276422763,NA,NA
40342,Anderson County,KY,NA,60.45340050377834,NA
40356,Jessamine County,KY,NA,24.68513853904282,NA
41001,Campbell County,KY,NA,NA,57.03125
41008,Carroll County,KY,NA,95.46599496221663,NA
41042,Boone County,KY,NA,35.768261964735515,NA
41164,Carter County,KY,NA,NA,52.604166666666664
42029,Marshall County,KY,NA,NA,93.22916666666666
42071,Calloway County,KY,NA,NA,44.53125
42101,Warren County,KY,59.756097560975604,NA,NA
42171,Warren County,KY,NA,96.72544080604534,NA
42503,Pulaski County,KY,NA,NA,71.875
70062,Jefferson Parish,LA,85.77235772357723,NA,NA
70090,St. James Parish,LA,NA,NA,88.02083333333334
70471,St. Tammany Parish,LA,NA,NA,54.166666666666664
70601,Calcasieu Parish,LA,NA,9.82367758186398,NA
70669,Calcasieu Parish,LA,NA,65.74307304785894,NA
70714,East Baton Rouge Parish,LA,56.50406504065041,NA,NA
70785,Livingston Parish,LA,NA,NA,59.635416666666664
70808,East Baton Rouge Parish,LA,NA,NA,47.65625
70814,East Baton Rouge Parish,LA,NA,84.88664987405542,NA
71006,Bossier Parish,LA,74.79674796747967,NA,NA
71078,De Soto Parish,LA,NA,NA,98.17708333333334
71112,Bossier Parish,LA,NA,25.440806045340054,NA
71220,Morehouse Parish,LA,NA,NA,83.59375
71270,Lincoln Parish,LA,NA,63.22418136020151,NA
71302,Rapides Parish,LA,NA,NA,52.864583333333336
71405,Rapides Parish,LA,NA,90.6801007556675,NA
71449,Sabine Parish,LA,67.07317073170732,NA,NA
71457,Natchitoches Parish,LA,6.910569105691057,NA,NA
03901,York County,ME,NA,NA,99.47916666666666
04005,York County,ME,NA,NA,14.0625
04240,Androscoggin County,ME,NA,NA,17.96875
04345,Kennebec County,ME,NA,NA,72.13541666666666
04401,Penobscot County,ME,NA,1.0075566750629723,NA
04572,Lincoln County,ME,NA,NA,82.29166666666666
20781,Prince George's County,MD,97.15447154471545,NA,NA
21043,Howard County,MD,NA,46.85138539042821,NA
21093,Baltimore County,MD,NA,NA,10.15625
21215,Baltimore city,MD,NA,10.831234256926953,NA
21227,Baltimore County,MD,NA,53.65239294710328,NA
21601,Talbot County,MD,NA,44.83627204030227,NA
21701,Frederick County,MD,NA,62.72040302267003,NA
01082,Hampshire County,MA,NA,86.64987405541562,NA
01201,Berkshire County,MA,0,NA,NA
01440,Worcester County,MA,NA,NA,45.57291666666667
01604,Worcester County,MA,NA,1.5113350125944585,NA
01609,Worcester County,MA,NA,NA,6.770833333333333
01701,Middlesex County,MA,NA,NA,9.375
01702,Middlesex County,MA,NA,NA,5.729166666666666
01720,Middlesex County,MA,32.52032520325203,NA,NA
01748,Middlesex County,MA,NA,NA,60.9375
01845,Essex County,MA,27.64227642276423,NA,NA
01852,Middlesex County,MA,0.40650406504065045,NA,NA
01876,Middlesex County,MA,NA,2.0151133501259446,NA
01879,Middlesex County,MA,NA,NA,67.44791666666666
01960,Essex County,MA,NA,NA,0
02072,Norfolk County,MA,NA,NA,13.28125
02115,Suffolk County,MA,NA,NA,4.427083333333334
02119,Suffolk County,MA,NA,NA,3.90625
02152,Suffolk County,MA,41.46341463414634,NA,NA
02302,Plymouth County,MA,NA,NA,5.46875
02360,Plymouth County,MA,NA,NA,2.083333333333333
02632,Barnstable County,MA,NA,53.40050377833753,NA
02635,Barnstable County,MA,NA,NA,64.32291666666666
02720,Bristol County,MA,NA,0.5037783375314862,2.604166666666667
02726,Bristol County,MA,NA,30.982367758186395,NA
02739,Plymouth County,MA,NA,NA,81.51041666666666
02760,Bristol County,MA,NA,45.843828715365234,NA
02762,Norfolk County,MA,NA,81.36020151133502,NA
48036,Macomb County,MI,58.536585365853654,NA,NA
48066,Macomb County,MI,NA,9.06801007556675,NA
48075,Oakland County,MI,30.48780487804878,NA,NA
48126,Wayne County,MI,10.569105691056912,NA,NA
48146,Wayne County,MI,NA,NA,27.34375
48154,Wayne County,MI,NA,NA,7.03125
48161,Monroe County,MI,8.130081300813007,NA,NA
48174,Wayne County,MI,NA,71.78841309823679,NA
48180,Wayne County,MI,2.4390243902439024,NA,NA
48184,Wayne County,MI,NA,NA,42.1875
48186,Wayne County,MI,NA,NA,61.197916666666664
48198,Washtenaw County,MI,NA,NA,25.260416666666668
48219,Wayne County,MI,NA,2.518891687657431,NA
48221,Wayne County,MI,NA,NA,21.875
48223,Wayne County,MI,NA,39.79848866498741,NA
48228,Wayne County,MI,NA,NA,96.09375
48230,Wayne County,MI,NA,NA,58.333333333333336
48309,Oakland County,MI,NA,28.967254408060455,NA
48312,Macomb County,MI,23.577235772357724,NA,NA
48314,Macomb County,MI,NA,NA,25.78125
48336,Oakland County,MI,NA,42.31738035264483,NA
48342,Oakland County,MI,44.71544715447154,NA,NA
48367,Oakland County,MI,98.3739837398374,NA,NA
48430,Genesee County,MI,24.390243902439025,NA,NA
48624,Gladwin County,MI,NA,NA,61.458333333333336
48625,Clare County,MI,NA,NA,79.6875
48629,Roscommon County,MI,NA,69.0176322418136,NA
48634,Bay County,MI,94.71544715447155,NA,NA
48708,Bay County,MI,8.94308943089431,NA,NA
48823,Ingham County,MI,32.113821138211385,NA,NA
48858,Isabella County,MI,NA,6.045340050377834,NA
49024,Kalamazoo County,MI,NA,22.418136020151135,NA
49090,Van Buren County,MI,NA,41.56171284634761,NA
49120,Berrien County,MI,NA,14.357682619647354,NA
49203,Jackson County,MI,NA,7.304785894206549,NA
49307,Mecosta County,MI,NA,88.16120906801007,NA
49315,Kent County,MI,NA,38.287153652392945,43.48958333333333
49316,Kent County,MI,52.03252032520326,NA,NA
49408,Allegan County,MI,NA,88.66498740554157,NA
49426,Ottawa County,MI,NA,NA,24.21875
49428,Ottawa County,MI,73.57723577235772,NA,NA
49441,Muskegon County,MI,NA,4.030226700251889,NA
49442,Muskegon County,MI,NA,NA,7.552083333333333
49504,Kent County,MI,15.447154471544716,NA,NA
49548,Kent County,MI,NA,NA,72.65625
49686,Grand Traverse County,MI,NA,64.48362720403023,NA
49765,Presque Isle County,MI,NA,94.20654911838791,NA
49946,Baraga County,MI,98.78048780487805,NA,NA
55075,Dakota County,MN,NA,NA,75
55076,Dakota County,MN,NA,93.19899244332494,NA
55104,Ramsey County,MN,16.666666666666664,NA,NA
55331,Hennepin County,MN,NA,NA,82.29166666666666
55404,Hennepin County,MN,NA,NA,75.26041666666666
55407,Hennepin County,MN,NA,5.793450881612091,NA
55432,Anoka County,MN,NA,NA,66.92708333333334
55744,Itasca County,MN,NA,6.54911838790932,NA
56031,Martin County,MN,NA,20.151133501259448,NA
56303,Stearns County,MN,30.89430894308943,NA,NA
56472,Crow Wing County,MN,NA,NA,59.375
38663,Tippah County,MS,NA,81.10831234256926,NA
38732,Bolivar County,MS,NA,40.302267002518896,NA
39047,Rankin County,MS,NA,43.07304785894207,41.66666666666667
39083,Copiah County,MS,71.13821138211382,NA,NA
39095,Holmes County,MS,81.30081300813008,NA,NA
39204,Hinds County,MS,NA,88.41309823677582,NA
39452,George County,MS,NA,22.16624685138539,NA
39648,Pike County,MS,NA,57.68261964735516,NA
39773,Clay County,MS,NA,68.01007556675063,NA
63020,Jefferson County,MO,NA,76.57430730478589,NA
63025,St. Louis County,MO,NA,75.81863979848866,NA
63026,St. Louis County,MO,NA,NA,22.395833333333336
63103,St. Louis city,MO,NA,93.70277078085643,NA
63109,St. Louis city,MO,NA,43.32493702770781,NA
63119,St. Louis County,MO,NA,46.095717884130984,NA
63121,St. Louis County,MO,28.86178861788618,55.16372795969773,NA
63138,St. Louis County,MO,NA,54.15617128463476,NA
63379,Lincoln County,MO,NA,30.730478589420656,NA
63841,Stoddard County,MO,52.4390243902439,NA,NA
63851,Pemiscot County,MO,NA,96.97732997481108,NA
63857,Dunklin County,MO,NA,NA,77.08333333333334
63901,Butler County,MO,NA,93.45088161209067,NA
64012,Cass County,MO,NA,27.204030226700255,NA
64133,Jackson County,MO,NA,NA,30.46875
64138,Jackson County,MO,78.86178861788618,NA,NA
64151,Platte County,MO,NA,17.884130982367758,NA
65079,Camden County,MO,NA,91.93954659949623,88.80208333333334
65336,Johnson County,MO,NA,100,NA
65340,Saline County,MO,NA,NA,75.78125
65706,Webster County,MO,76.82926829268293,NA,NA
59901,Flathead County,MT,NA,NA,1.5625
68106,Douglas County,NE,NA,80.10075566750629,NA
68122,Douglas County,NE,86.58536585365853,NA,NA
68133,Sarpy County,NE,NA,NA,92.70833333333334
68510,Lancaster County,NE,NA,97.22921914357683,NA
89109,Clark County,NV,NA,NA,97.65625
89119,Clark County,NV,NA,NA,65.88541666666666
89434,Washoe County,NV,NA,36.775818639798494,NA
89460,Douglas County,NV,NA,51.13350125944584,NA
89509,Washoe County,NV,50.40650406504065,NA,NA
03060,Hillsborough County,NH,NA,NA,18.75
03102,Hillsborough County,NH,54.0650406504065,NA,NA
03110,Hillsborough County,NH,NA,NA,16.666666666666664
03220,Belknap County,NH,NA,NA,91.92708333333334
03458,Hillsborough County,NH,91.05691056910568,NA,NA
03860,Carroll County,NH,NA,92.9471032745592,NA
07002,Hudson County,NJ,NA,95.71788413098237,NA
07005,Morris County,NJ,NA,NA,84.63541666666666
07055,Passaic County,NJ,NA,NA,29.6875
07305,Hudson County,NJ,NA,NA,29.166666666666668
07419,Sussex County,NJ,NA,89.4206549118388,NA
07444,Morris County,NJ,NA,NA,41.14583333333333
07446,Bergen County,NJ,NA,NA,94.53125
07501,Passaic County,NJ,NA,NA,51.5625
07502,Passaic County,NJ,34.552845528455286,NA,NA
07675,Bergen County,NJ,91.869918699187,NA,NA
07716,Monmouth County,NJ,NA,NA,95.57291666666666
07747,Monmouth County,NJ,NA,NA,94.27083333333334
07876,Morris County,NJ,NA,NA,95.83333333333334
07936,Morris County,NJ,NA,NA,85.67708333333334
08012,Camden County,NJ,NA,14.86146095717884,NA
08043,Camden County,NJ,43.08943089430895,NA,NA
08080,Gloucester County,NJ,11.38211382113821,NA,NA
08232,Atlantic County,NJ,6.097560975609756,NA,NA
08550,Mercer County,NJ,NA,NA,92.44791666666666
08618,Mercer County,NJ,1.2195121951219512,NA,NA
08723,Ocean County,NJ,17.073170731707318,22.921914357682617,NA
08731,Ocean County,NJ,NA,52.64483627204031,NA
08801,Hunterdon County,NJ,NA,NA,80.98958333333334
08873,Somerset County,NJ,NA,23.425692695214106,NA
87035,Torrance County,NM,NA,98.99244332493703,NA
87123,Bernalillo County,NM,13.414634146341465,NA,NA
87124,Sandoval County,NM,10.975609756097562,NA,NA
87505,Santa Fe County,NM,NA,34.5088161209068,NA
87557,Taos County,NM,NA,NA,86.97916666666666
88012,Doa Ana County,NM,NA,54.65994962216625,NA
88130,Roosevelt County,NM,NA,NA,67.70833333333334
88240,Lea County,NM,6.504065040650407,NA,NA
10016,New York County,NY,NA,NA,25.520833333333332
10023,New York County,NY,NA,NA,4.947916666666666
10031,New York County,NY,NA,14.105793450881613,NA
10032,New York County,NY,NA,6.801007556675064,NA
10312,Richmond County,NY,NA,25.94458438287154,NA
10457,Bronx County,NY,NA,21.158690176322416,NA
10460,Bronx County,NY,13.008130081300814,NA,NA
10471,Bronx County,NY,NA,NA,42.96875
10598,Westchester County,NY,NA,NA,37.5
10923,Rockland County,NY,NA,NA,86.71875
10980,Rockland County,NY,NA,91.183879093199,NA
11030,Nassau County,NY,NA,89.67254408060454,NA
11203,Kings County,NY,NA,NA,9.895833333333332
11207,Kings County,NY,NA,NA,11.197916666666668
11221,Kings County,NY,NA,NA,31.25
11230,Kings County,NY,46.7479674796748,NA,NA
11249,Kings County,NY,NA,NA,72.91666666666666
11361,Queens County,NY,NA,NA,72.39583333333334
11374,Queens County,NY,85.36585365853658,NA,NA
11377,Queens County,NY,NA,15.869017632241814,NA
11542,Nassau County,NY,NA,NA,39.84375
11550,Nassau County,NY,NA,NA,37.23958333333333
11553,Nassau County,NY,NA,NA,63.28125
11566,Nassau County,NY,86.99186991869918,NA,NA
11691,Queens County,NY,NA,NA,21.354166666666664
11746,Suffolk County,NY,NA,NA,10.677083333333332
11747,Suffolk County,NY,NA,69.26952141057934,NA
11756,Nassau County,NY,NA,73.04785894206549,NA
11766,Suffolk County,NY,NA,76.32241813602015,NA
11787,Suffolk County,NY,NA,NA,30.989583333333332
11801,Nassau County,NY,NA,NA,49.73958333333333
11901,Suffolk County,NY,51.21951219512195,NA,NA
12065,Saratoga County,NY,22.35772357723577,NA,NA
12564,Dutchess County,NY,NA,NA,96.61458333333334
12803,Saratoga County,NY,NA,85.3904282115869,NA
12901,Clinton County,NY,NA,NA,8.072916666666668
12986,Franklin County,NY,NA,80.60453400503779,84.89583333333334
13088,Onondaga County,NY,NA,50.62972292191436,NA
13118,Cayuga County,NY,NA,NA,96.35416666666666
13204,Onondaga County,NY,NA,59.19395465994962,NA
13324,Herkimer County,NY,99.59349593495935,NA,NA
13365,Herkimer County,NY,NA,33.75314861460957,NA
13760,Broome County,NY,NA,0,1.8229166666666667
13790,Broome County,NY,NA,8.312342569269521,NA
13803,Cortland County,NY,75.60975609756098,NA,NA
13820,Otsego County,NY,NA,7.052896725440807,NA
14005,Genesee County,NY,NA,97.73299748110831,NA
14043,Erie County,NY,31.300813008130078,NA,NA
14075,Erie County,NY,NA,5.541561712846348,13.020833333333334
14094,Niagara County,NY,2.0325203252032518,NA,NA
14150,Erie County,NY,NA,NA,18.489583333333336
14207,Erie County,NY,52.84552845528455,NA,NA
14210,Erie County,NY,24.796747967479675,NA,NA
14211,Erie County,NY,NA,15.617128463476071,NA
14217,Erie County,NY,NA,19.395465994962215,NA
14221,Erie County,NY,NA,1.7632241813602016,15.885416666666666
14304,Niagara County,NY,5.284552845528456,47.607052896725435,NA
14468,Monroe County,NY,NA,20.65491183879093,NA
14487,Livingston County,NY,69.91869918699187,NA,NA
14502,Wayne County,NY,27.235772357723576,NA,NA
14580,Monroe County,NY,0.8130081300813009,NA,NA
14618,Monroe County,NY,NA,46.34760705289673,16.927083333333336
14701,Chautauqua County,NY,NA,1.2594458438287155,14.84375
14760,Cattaraugus County,NY,NA,13.09823677581864,NA
14810,Steuben County,NY,NA,NA,78.90625
14886,Tompkins County,NY,62.19512195121951,NA,NA
14892,Tioga County,NY,51.6260162601626,NA,NA
27105,Forsyth County,NC,NA,20.40302267002519,NA
27107,Forsyth County,NC,4.471544715447155,NA,NA
27215,Alamance County,NC,NA,5.037783375314862,NA
27301,Guilford County,NC,NA,NA,91.40625
27317,Randolph County,NC,NA,73.80352644836272,NA
27406,Guilford County,NC,NA,12.34256926952141,NA
27410,Guilford County,NC,NA,NA,8.333333333333332
27501,Harnett County,NC,NA,48.614609571788414,NA
27502,Wake County,NC,80.08130081300813,NA,NA
27509,Granville County,NC,NA,NA,86.19791666666666
27516,Orange County,NC,81.70731707317073,NA,NA
27542,Johnston County,NC,NA,NA,90.88541666666666
27577,Johnston County,NC,NA,NA,25
27610,Wake County,NC,NA,5.289672544080604,NA
27705,Durham County,NC,NA,NA,21.614583333333336
27886,Edgecombe County,NC,NA,NA,79.16666666666666
27944,Perquimans County,NC,64.22764227642277,NA,NA
28012,Gaston County,NC,NA,58.18639798488665,NA
28078,Mecklenburg County,NC,NA,32.7455919395466,32.03125
28081,Cabarrus County,NC,75.20325203252033,NA,NA
28120,Gaston County,NC,NA,NA,68.22916666666666
28150,Cleveland County,NC,21.951219512195124,NA,NA
28164,Gaston County,NC,NA,NA,55.989583333333336
28208,Mecklenburg County,NC,33.33333333333333,NA,NA
28214,Mecklenburg County,NC,NA,NA,39.0625
28269,Mecklenburg County,NC,NA,29.219143576826195,NA
28303,Cumberland County,NC,NA,NA,49.47916666666667
28306,Bladen County,NC,NA,94.45843828715365,NA
28334,Sampson County,NC,NA,NA,43.22916666666667
28412,New Hanover County,NC,NA,NA,28.645833333333332
28540,Onslow County,NC,NA,27.95969773299748,NA
28580,Greene County,NC,NA,82.36775818639799,NA
28625,Iredell County,NC,NA,19.143576826196472,NA
28645,Caldwell County,NC,NA,0.2518891687657431,NA
28658,Catawba County,NC,NA,41.81360201511335,NA
58078,Cass County,ND,NA,NA,18.229166666666664
58104,Cass County,ND,30.081300813008134,NA,NA
43004,Franklin County,OH,NA,NA,84.89583333333334
43015,Delaware County,OH,15.853658536585366,NA,NA
43050,Knox County,OH,NA,4.282115869017632,NA
43055,Licking County,OH,NA,NA,49.21875
43072,Champaign County,OH,NA,98.48866498740554,NA
43080,Licking County,OH,NA,NA,99.21875
43085,Franklin County,OH,NA,65.23929471032746,NA
43113,Pickaway County,OH,NA,NA,9.114583333333332
43147,Fairfield County,OH,NA,64.73551637279597,NA
43201,Franklin County,OH,45.9349593495935,NA,NA
43204,Franklin County,OH,NA,13.350125944584383,44.27083333333333
43207,Franklin County,OH,NA,6.297229219143577,NA
43211,Franklin County,OH,NA,34.76070528967254,NA
43232,Franklin County,OH,NA,NA,53.90625
43302,Marion County,OH,NA,NA,5.208333333333334
43560,Lucas County,OH,NA,NA,62.760416666666664
43567,Fulton County,OH,NA,NA,68.48958333333334
43605,Lucas County,OH,NA,NA,58.072916666666664
43606,Lucas County,OH,18.29268292682927,NA,NA
43613,Lucas County,OH,NA,NA,81.25
43614,Lucas County,OH,NA,NA,19.791666666666664
43920,Columbiana County,OH,NA,NA,16.145833333333336
44001,Lorain County,OH,NA,NA,38.28125
44004,Ashtabula County,OH,NA,2.2670025188916876,NA
44035,Lorain County,OH,NA,9.571788413098236,NA
44039,Lorain County,OH,9.34959349593496,NA,NA
44072,Geauga County,OH,NA,NA,83.07291666666666
44095,Lake County,OH,NA,NA,29.947916666666668
44107,Cuyahoga County,OH,1.6260162601626018,2.770780856423174,NA
44124,Cuyahoga County,OH,NA,NA,0.5208333333333333
44129,Cuyahoga County,OH,NA,NA,20.572916666666664
44130,Cuyahoga County,OH,NA,NA,0.78125
44131,Cuyahoga County,OH,NA,18.387909319899247,NA
44134,Cuyahoga County,OH,9.75609756097561,NA,NA
44135,Cuyahoga County,OH,NA,7.8085642317380355,NA
44137,Cuyahoga County,OH,NA,11.083123425692696,NA
44145,Cuyahoga County,OH,19.10569105691057,NA,NA
44149,Cuyahoga County,OH,NA,18.1360201511335,NA
44203,Summit County,OH,NA,NA,35.9375
44212,Medina County,OH,2.8455284552845526,NA,NA
44223,Summit County,OH,NA,82.61964735516372,NA
44260,Portage County,OH,NA,NA,55.46875
44278,Summit County,OH,NA,NA,46.875
44306,Summit County,OH,NA,NA,80.72916666666666
44614,Stark County,OH,68.69918699186992,NA,NA
44691,Wayne County,OH,29.268292682926827,NA,NA
44703,Stark County,OH,50.81300813008131,NA,NA
44870,Erie County,OH,NA,NA,5.989583333333334
45040,Warren County,OH,NA,NA,24.739583333333336
45044,Butler County,OH,5.691056910569105,NA,NA
45205,Hamilton County,OH,NA,59.44584382871536,NA
45305,Greene County,OH,NA,83.87909319899244,NA
45342,Montgomery County,OH,NA,NA,22.916666666666664
45373,Miami County,OH,7.317073170731707,NA,NA
45417,Montgomery County,OH,NA,15.113350125944585,NA
45419,Montgomery County,OH,NA,NA,69.53125
45424,Montgomery County,OH,NA,NA,8.59375
45426,Montgomery County,OH,53.2520325203252,NA,NA
45638,Lawrence County,OH,NA,3.27455919395466,NA
45804,Allen County,OH,NA,25.692695214105793,NA
73012,Oklahoma County,OK,83.73983739837398,NA,60.15625
73115,Oklahoma County,OK,NA,44.33249370277078,NA
73135,Oklahoma County,OK,41.86991869918699,NA,NA
73448,Love County,OK,NA,95.21410579345087,NA
73501,Comanche County,OK,NA,NA,70.3125
73801,Woodward County,OK,NA,NA,77.86458333333334
74012,Tulsa County,OK,NA,NA,10.9375
74063,Tulsa County,OK,NA,39.29471032745592,NA
74114,Tulsa County,OK,82.92682926829268,NA,NA
74135,Tulsa County,OK,72.35772357723577,NA,NA
74136,Tulsa County,OK,54.87804878048781,NA,NA
74403,Muskogee County,OK,NA,NA,30.729166666666668
74467,Wagoner County,OK,NA,NA,66.66666666666666
74501,Pittsburg County,OK,NA,50.377833753148614,NA
97045,Clackamas County,OR,NA,NA,51.822916666666664
97203,Multnomah County,OR,39.02439024390244,NA,NA
97222,Clackamas County,OR,70.73170731707317,NA,NA
97402,Lane County,OR,21.138211382113823,NA,NA
97420,Coos County,OR,NA,NA,47.13541666666667
97448,Lane County,OR,NA,NA,92.1875
97741,Jefferson County,OR,NA,NA,78.125
97754,Crook County,OR,NA,21.91435768261965,NA
97814,Baker County,OR,NA,46.59949622166247,NA
97838,Umatilla County,OR,NA,16.876574307304786,NA
15044,Allegheny County,PA,59.34959349593496,NA,NA
15063,Washington County,PA,NA,75.31486146095719,NA
15066,Beaver County,PA,88.21138211382113,NA,NA
15101,Allegheny County,PA,NA,NA,15.104166666666666
15146,Allegheny County,PA,NA,NA,30.208333333333332
15205,Allegheny County,PA,46.34146341463415,NA,NA
15208,Allegheny County,PA,NA,NA,64.0625
15209,Allegheny County,PA,77.23577235772358,NA,NA
15210,Allegheny County,PA,16.260162601626014,NA,NA
15221,Allegheny County,PA,NA,26.448362720403022,NA
15317,Washington County,PA,NA,10.579345088161208,NA
15425,Fayette County,PA,NA,23.67758186397985,NA
15644,Westmoreland County,PA,NA,35.26448362720403,NA
15946,Cambria County,PA,84.5528455284553,NA,NA
16001,Butler County,PA,NA,NA,4.166666666666666
16046,Butler County,PA,NA,77.83375314861462,NA
16063,Butler County,PA,94.3089430894309,NA,NA
16066,Butler County,PA,NA,NA,44.01041666666667
16101,Lawrence County,PA,NA,NA,3.125
16125,Mercer County,PA,35.77235772357724,NA,NA
16148,Mercer County,PA,NA,NA,8.854166666666668
16316,Crawford County,PA,NA,72.04030226700252,NA
16503,Erie County,PA,NA,77.32997481108312,NA
16601,Blair County,PA,NA,8.060453400503778,NA
16635,Blair County,PA,89.43089430894308,NA,NA
16701,McKean County,PA,NA,79.84886649874056,NA
17044,Mifflin County,PA,12.195121951219512,NA,NA
17222,Franklin County,PA,NA,NA,87.23958333333334
17360,York County,PA,92.6829268292683,NA,NA
17754,Lycoming County,PA,63.82113821138211,NA,NA
17844,Union County,PA,NA,82.11586901763224,NA
18015,Northampton County,PA,NA,26.19647355163728,NA
18036,Lehigh County,PA,NA,NA,42.70833333333333
18042,Northampton County,PA,NA,4.534005037783375,NA
18052,Lehigh County,PA,NA,NA,22.65625
18088,Northampton County,PA,NA,NA,57.03125
18103,Lehigh County,PA,NA,NA,11.458333333333332
18202,Luzerne County,PA,NA,78.58942065491183,NA
18235,Carbon County,PA,NA,30.478589420654913,NA
18421,Susquehanna County,PA,NA,94.7103274559194,NA
18512,Lackawanna County,PA,NA,NA,63.802083333333336
18940,Bucks County,PA,NA,NA,52.083333333333336
18966,Bucks County,PA,NA,NA,46.35416666666667
19008,Delaware County,PA,NA,38.0352644836272,NA
19055,Bucks County,PA,NA,76.82619647355163,NA
19056,Bucks County,PA,49.1869918699187,NA,NA
19067,Bucks County,PA,NA,7.5566750629722925,13.802083333333334
19111,Philadelphia County,PA,3.6585365853658534,NA,NA
19123,Philadelphia County,PA,NA,76.0705289672544,NA
19126,Philadelphia County,PA,NA,NA,60.416666666666664
19130,Philadelphia County,PA,NA,36.523929471032744,NA
19135,Philadelphia County,PA,NA,38.79093198992443,NA
19140,Philadelphia County,PA,NA,10.075566750629724,NA
19143,Philadelphia County,PA,NA,0.7556675062972292,NA
19147,Philadelphia County,PA,NA,NA,54.427083333333336
19320,Chester County,PA,NA,NA,20.052083333333336
19342,Delaware County,PA,48.3739837398374,NA,NA
19355,Chester County,PA,NA,43.8287153652393,52.083333333333336
19465,Chester County,PA,NA,67.00251889168766,NA
19606,Berks County,PA,NA,4.785894206549118,NA
02818,Kent County,RI,NA,79.59697732997482,NA
02852,Washington County,RI,NA,NA,37.5
02891,Washington County,RI,NA,28.211586901763226,NA
02909,Providence County,RI,NA,37.02770780856423,NA
02920,Providence County,RI,NA,16.3727959697733,NA
29006,Lexington County,SC,NA,NA,97.91666666666666
29073,Lexington County,SC,NA,NA,48.69791666666667
29108,Newberry County,SC,NA,56.92695214105793,NA
29204,Richland County,SC,NA,68.51385390428212,NA
29306,Spartanburg County,SC,NA,NA,76.5625
29349,Spartanburg County,SC,23.983739837398375,NA,NA
29379,Union County,SC,NA,44.08060453400503,NA
29388,Spartanburg County,SC,NA,NA,73.69791666666666
29401,Charleston County,SC,NA,NA,73.95833333333334
29440,Georgetown County,SC,NA,NA,90.10416666666666
29445,Berkeley County,SC,NA,27.70780856423174,NA
29461,Berkeley County,SC,31.70731707317073,NA,NA
29492,Berkeley County,SC,NA,NA,98.95833333333334
29510,Georgetown County,SC,NA,96.22166246851386,NA
29556,Williamsburg County,SC,80.89430894308943,NA,NA
29577,Horry County,SC,NA,NA,53.385416666666664
29611,Greenville County,SC,13.821138211382115,NA,NA
29615,Greenville County,SC,NA,39.042821158690174,NA
29651,Greenville County,SC,NA,13.602015113350127,NA
29669,Anderson County,SC,60.56910569105691,NA,NA
29678,Oconee County,SC,NA,34.25692695214106,NA
29681,Greenville County,SC,NA,13.85390428211587,NA
29708,York County,SC,NA,NA,76.30208333333334
29720,Lancaster County,SC,NA,29.974811083123427,NA
57401,Brown County,SD,NA,9.319899244332493,NA
57701,Pennington County,SD,NA,17.38035264483627,NA
57730,Custer County,SD,85.77235772357723,NA,NA
57747,Fall River County,SD,95.9349593495935,NA,NA
37066,Sumner County,TN,NA,NA,27.083333333333332
37167,Rutherford County,TN,26.82926829268293,NA,NA
37303,McMinn County,TN,NA,45.34005037783375,NA
37311,Bradley County,TN,NA,NA,64.84375
37379,Hamilton County,TN,40.243902439024396,NA,NA
37388,Coffee County,TN,NA,44.584382871536526,NA
37421,Hamilton County,TN,NA,NA,27.604166666666668
37643,Carter County,TN,NA,8.564231738035264,NA
37659,Washington County,TN,NA,NA,26.822916666666668
37821,Cocke County,TN,NA,NA,40.10416666666667
37869,Hancock County,TN,NA,81.86397984886649,NA
38080,Lake County,TN,NA,99.74811083123426,NA
38108,Shelby County,TN,NA,60.70528967254408,NA
38109,Shelby County,TN,NA,NA,31.510416666666668
38114,Shelby County,TN,NA,NA,57.03125
38242,Henry County,TN,NA,NA,50.260416666666664
38305,Madison County,TN,NA,NA,17.1875
38358,Gibson County,TN,NA,NA,61.979166666666664
75006,Dallas County,TX,NA,29.72292191435768,NA
75034,Denton County,TX,NA,NA,41.40625
75040,Dallas County,TX,19.51219512195122,NA,NA
75052,Dallas County,TX,NA,11.838790931989925,NA
75071,Collin County,TX,NA,NA,91.66666666666666
75076,Grayson County,TX,NA,NA,90.625
75103,Van Zandt County,TX,NA,56.17128463476071,NA
75148,Henderson County,TX,NA,98.74055415617129,NA
75154,Ellis County,TX,43.49593495934959,NA,NA
75204,Dallas County,TX,NA,69.52141057934509,NA
75205,Dallas County,TX,63.41463414634146,NA,NA
75401,Hunt County,TX,NA,61.46095717884131,NA
75692,Harrison County,TX,93.4959349593496,NA,NA
75791,Smith County,TX,NA,NA,34.375
75803,Anderson County,TX,NA,54.40806045340051,NA
76028,Johnson County,TX,NA,3.5264483627204033,NA
76043,Somervell County,TX,NA,NA,88.28125
76088,Parker County,TX,NA,NA,89.0625
76148,Tarrant County,TX,NA,58.94206549118388,NA
76502,Bell County,TX,NA,NA,3.3854166666666665
76520,Milam County,TX,NA,49.37027707808564,33.59375
76574,Williamson County,TX,NA,NA,11.71875
77024,Harris County,TX,NA,NA,40.625
77038,Harris County,TX,73.17073170731707,NA,NA
77051,Harris County,TX,NA,60.957178841309826,NA
77060,Harris County,TX,NA,NA,94.01041666666666
77063,Harris County,TX,NA,92.44332493702771,NA
77070,Harris County,TX,NA,24.68513853904282,NA
77074,Harris County,TX,NA,NA,80.46875
77078,Harris County,TX,NA,64.23173803526448,NA
77096,Harris County,TX,NA,47.103274559193956,NA
77301,Montgomery County,TX,NA,83.6272040302267,NA
77331,San Jacinto County,TX,96.7479674796748,NA,NA
77356,Montgomery County,TX,NA,NA,53.125
77358,Walker County,TX,93.90243902439023,NA,NA
77494,Fort Bend County,TX,NA,16.120906801007557,NA
77515,Brazoria County,TX,NA,32.49370277078086,NA
77591,Galveston County,TX,NA,NA,54.947916666666664
78028,Kerr County,TX,NA,15.365239294710328,NA
78040,Webb County,TX,41.05691056910569,NA,NA
78041,Webb County,TX,NA,79.34508816120906,NA
78216,Bexar County,TX,42.68292682926829,NA,NA
78221,Bexar County,TX,NA,57.93450881612091,NA
78504,Hidalgo County,TX,NA,48.11083123425693,NA
78539,Hidalgo County,TX,58.13008130081301,NA,NA
78572,Hidalgo County,TX,19.91869918699187,NA,6.510416666666667
78573,Hidalgo County,TX,NA,50.88161209068011,NA
78580,Willacy County,TX,87.39837398373984,NA,NA
78610,Hays County,TX,NA,74.81108312342569,NA
78634,Williamson County,TX,89.02439024390245,NA,NA
78653,Travis County,TX,NA,NA,91.14583333333334
78669,Travis County,TX,NA,78.08564231738035,NA
78962,Colorado County,TX,NA,NA,96.875
79119,Randall County,TX,78.04878048780488,NA,NA
79556,Nolan County,TX,NA,NA,54.6875
79606,Taylor County,TX,NA,58.43828715365239,NA
79714,Andrews County,TX,NA,70.52896725440806,NA
79935,El Paso County,TX,NA,80.10075566750629,NA
84081,Salt Lake County,UT,29.67479674796748,NA,NA
84098,Summit County,UT,NA,51.385390428211586,NA
84119,Salt Lake County,UT,NA,39.54659949622166,NA
84123,Salt Lake County,UT,54.47154471544715,NA,NA
84404,Weber County,UT,NA,NA,48.4375
84532,Grand County,UT,NA,NA,87.5
84663,Utah County,UT,NA,89.16876574307305,NA
84770,Washington County,UT,NA,30.22670025188917,NA
05060,Orange County,VT,NA,80.85642317380352,NA
05201,Bennington County,VT,47.96747967479675,NA,NA
05401,Chittenden County,VT,NA,51.63727959697732,NA
05468,Chittenden County,VT,NA,47.103274559193956,NA
05482,Chittenden County,VT,NA,85.8942065491184,NA
20111,Prince William County,VA,NA,NA,78.38541666666666
22015,Fairfax County,VA,NA,50.12594458438288,NA
22303,Fairfax County,VA,NA,90.17632241813602,NA
22304,Alexandria city,VA,NA,70.27707808564232,NA
22560,Essex County,VA,NA,NA,83.85416666666666
22664,Shenandoah County,VA,NA,NA,40.88541666666667
22901,Albemarle County,VA,NA,NA,9.635416666666668
23059,Henrico County,VA,NA,NA,62.5
23075,Henrico County,VA,60.97560975609756,NA,NA
23324,Chesapeake city,VA,NA,NA,40.36458333333333
23464,Virginia Beach city,VA,NA,3.022670025188917,NA
23505,Norfolk city,VA,NA,NA,36.97916666666667
23602,Newport News city,VA,NA,NA,12.239583333333332
23608,Newport News city,VA,20.32520325203252,NA,NA
23669,Hampton city,VA,NA,NA,10.416666666666668
23701,Portsmouth city,VA,NA,24.181360201511335,NA
23832,Chesterfield County,VA,NA,53.14861460957179,69.01041666666666
23847,Greensville County,VA,67.88617886178862,NA,NA
23930,Nottoway County,VA,NA,97.48110831234257,NA
24134,Giles County,VA,NA,NA,75.52083333333334
24151,Franklin County,VA,45.1219512195122,NA,NA
24153,Salem city,VA,NA,18.639798488664987,NA
24184,Franklin County,VA,NA,NA,93.48958333333334
24502,Lynchburg city,VA,NA,NA,15.364583333333334
24531,Pittsylvania County,VA,NA,NA,77.34375
98001,King County,WA,NA,NA,68.75
98004,King County,WA,NA,NA,39.32291666666667
98020,Snohomish County,WA,NA,NA,85.41666666666666
98023,King County,WA,NA,NA,26.041666666666668
98027,King County,WA,NA,NA,55.729166666666664
98029,King County,WA,NA,NA,89.58333333333334
98040,King County,WA,NA,NA,44.53125
98043,Snohomish County,WA,NA,83.12342569269522,NA
98053,King County,WA,NA,87.6574307304786,NA
98118,King County,WA,NA,NA,32.8125
98119,King County,WA,99.1869918699187,NA,NA
98178,King County,WA,NA,70.52896725440806,NA
98208,Snohomish County,WA,NA,NA,48.17708333333333
98223,Snohomish County,WA,NA,18.89168765743073,NA
98367,Kitsap County,WA,50,NA,NA
98390,Pierce County,WA,NA,77.07808564231739,NA
98403,Pierce County,WA,92.27642276422763,NA,NA
98502,Thurston County,WA,60.16260162601627,NA,NA
98506,Thurston County,WA,69.10569105691057,NA,NA
98642,Clark County,WA,NA,85.64231738035264,NA
98908,Yakima County,WA,NA,12.594458438287154,NA
98926,Kittitas County,WA,NA,NA,23.958333333333336
99203,Spokane County,WA,NA,70.02518891687657,NA
99205,Spokane County,WA,NA,53.904282115869016,NA
99207,Spokane County,WA,NA,NA,65.88541666666666
99301,Franklin County,WA,NA,NA,89.32291666666666
99336,Benton County,WA,11.788617886178862,NA,NA
99362,Walla Walla County,WA,NA,12.090680100755668,NA
20002,District of Columbia,DC,NA,8.816120906801007,NA
20019,District of Columbia,DC,4.0650406504065035,NA,NA
25271,Jackson County,WV,64.63414634146342,NA,NA
25438,Jefferson County,WV,NA,97.98488664987406,NA
25670,Mingo County,WV,80.48780487804879,NA,NA
25701,Cabell County,WV,17.479674796747968,NA,NA
26062,Hancock County,WV,NA,NA,12.5
26250,Barbour County,WV,NA,NA,85.67708333333334
26452,Lewis County,WV,57.3170731707317,NA,NA
53005,Waukesha County,WI,NA,51.88916876574308,NA
53066,Waukesha County,WI,NA,NA,97.13541666666666
53072,Waukesha County,WI,NA,42.82115869017632,NA
53080,Ozaukee County,WI,NA,NA,83.85416666666666
53081,Sheboygan County,WI,NA,62.21662468513854,NA
53090,Washington County,WI,NA,NA,62.239583333333336
53120,Walworth County,WI,96.34146341463415,NA,NA
53147,Walworth County,WI,43.90243902439025,NA,NA
53151,Waukesha County,WI,NA,NA,17.447916666666664
53158,Kenosha County,WI,66.66666666666666,NA,NA
53182,Racine County,WI,NA,62.468513853904284,NA
53186,Waukesha County,WI,NA,NA,33.33333333333333
53207,Milwaukee County,WI,25.203252032520325,31.234256926952142,NA
53210,Milwaukee County,WI,8.536585365853659,75.06297229219143,NA
53405,Racine County,WI,NA,NA,16.40625
53590,Dane County,WI,36.99186991869919,NA,NA
53593,Dane County,WI,NA,52.39294710327456,NA
53711,Dane County,WI,NA,NA,15.625
53913,Sauk County,WI,36.17886178861789,NA,NA
53959,Sauk County,WI,NA,NA,21.09375
54409,Langlade County,WI,NA,22.670025188916874,NA
54521,Vilas County,WI,NA,NA,50.78125
54555,Price County,WI,NA,91.43576826196474,NA
54701,Eau Claire County,WI,NA,23.173803526448363,NA
82520,Fremont County,WY,NA,NA,90.36458333333334
82801,Sheridan County,WY,NA,NA,33.07291666666667
