ZipCode,county,state,Youth,Adult,Retirement,Geriatric
35010,Tallapoosa County,AL,NA,42.36760124610592,NA,NA
35040,Shelby County,AL,45.96182085168869,NA,NA,NA
35111,Tuscaloosa County,AL,57.856093979442,NA,NA,NA
35406,Tuscaloosa County,AL,87.81204111600587,NA,NA,NA
35475,Tuscaloosa County,AL,66.07929515418502,NA,NA,NA
35555,Fayette County,AL,NA,NA,62.751677852349,NA
35613,Limestone County,AL,NA,NA,54.0268456375839,NA
35648,Lauderdale County,AL,NA,99.68847352024922,NA,NA
35749,Madison County,AL,NA,53.271028037383175,NA,NA
35763,Madison County,AL,67.1071953010279,NA,NA,NA
35768,Jackson County,AL,NA,NA,NA,77.52442996742671
35962,DeKalb County,AL,64.75770925110133,NA,NA,NA
36401,Conecuh County,AL,NA,NA,86.24161073825503,NA
36527,Baldwin County,AL,89.5741556534508,NA,NA,NA
36535,Baldwin County,AL,45.521292217327456,NA,NA,NA
36549,Baldwin County,AL,NA,NA,NA,86.97068403908796
36605,Mobile County,AL,25.11013215859031,NA,NA,NA
36606,Mobile County,AL,NA,90.34267912772586,NA,NA
36613,Mobile County,AL,59.76505139500734,NA,NA,NA
36703,Dallas County,AL,NA,67.601246105919,64.42953020134227,NA
36877,Lee County,AL,72.68722466960352,NA,NA,NA
99504,Anchorage Municipality,AK,10.719530102790015,NA,NA,NA
99508,Anchorage Municipality,AK,NA,NA,40.26845637583892,NA
99515,Anchorage Municipality,AK,NA,74.14330218068535,NA,90.55374592833876
99517,Anchorage Municipality,AK,74.59618208516888,NA,NA,NA
99623,,AK,NA,NA,NA,97.71986970684038
99654,Matanuska-Susitna Borough,AK,32.158590308370044,NA,NA,NA
99709,Fairbanks North Star Borough,AK,NA,NA,NA,89.90228013029315
85006,Maricopa County,AZ,NA,NA,47.651006711409394,NA
85007,Maricopa County,AZ,NA,12.149532710280374,NA,NA
85008,Maricopa County,AZ,4.845814977973569,NA,NA,NA
85009,Maricopa County,AZ,5.726872246696035,NA,NA,NA
85013,Maricopa County,AZ,NA,53.58255451713395,NA,NA
85016,Maricopa County,AZ,6.020558002936858,NA,NA,71.66123778501628
85017,Maricopa County,AZ,14.537444933920703,38.31775700934579,NA,NA
85031,Maricopa County,AZ,NA,NA,71.81208053691275,NA
85035,Maricopa County,AZ,NA,20.5607476635514,NA,NA
85040,Maricopa County,AZ,24.229074889867842,NA,NA,NA
85041,Maricopa County,AZ,3.3773861967694567,NA,NA,NA
85201,Maricopa County,AZ,NA,NA,35.57046979865772,NA
85202,Maricopa County,AZ,NA,25.85669781931464,NA,NA
85208,Maricopa County,AZ,NA,NA,40.939597315436245,NA
85209,Maricopa County,AZ,NA,NA,25.838926174496645,NA
85210,Maricopa County,AZ,NA,29.283489096573206,NA,NA
85225,Maricopa County,AZ,NA,NA,29.194630872483224,NA
85251,Maricopa County,AZ,68.57562408223201,NA,NA,NA
85253,Maricopa County,AZ,NA,NA,NA,81.75895765472313
85259,Maricopa County,AZ,NA,NA,NA,60.586319218241044
85283,Maricopa County,AZ,80.76358296622614,NA,NA,NA
85303,Maricopa County,AZ,NA,NA,73.48993288590604,NA
85308,Maricopa County,AZ,18.06167400881057,NA,NA,NA
85335,Maricopa County,AZ,NA,40.49844236760124,NA,NA
85338,Maricopa County,AZ,NA,NA,NA,81.75895765472313
85350,Yuma County,AZ,NA,55.140186915887845,NA,NA
85365,Yuma County,AZ,74.30249632892804,NA,NA,NA
85374,Maricopa County,AZ,NA,NA,NA,6.514657980456026
85375,Maricopa County,AZ,NA,NA,NA,0.6514657980456027
85381,Maricopa County,AZ,67.54772393538914,NA,NA,NA
85541,Gila County,AZ,82.23201174743025,NA,NA,NA
85550,Graham County,AZ,74.44933920704845,NA,NA,NA
85614,Pima County,AZ,NA,NA,NA,3.5830618892508146
85643,Cochise County,AZ,NA,NA,88.25503355704699,NA
85710,Pima County,AZ,36.71071953010279,NA,NA,NA
85711,Pima County,AZ,24.52276064610866,NA,NA,NA
85755,Pima County,AZ,86.04992657856094,NA,NA,NA
85901,Navajo County,AZ,NA,NA,28.859060402684566,NA
85924,Apache County,AZ,98.09104258443465,NA,NA,NA
85925,Apache County,AZ,75.18355359765052,NA,NA,NA
86004,Coconino County,AZ,NA,NA,14.76510067114094,NA
86033,Navajo County,AZ,50.51395007342144,NA,NA,NA
86047,Navajo County,AZ,NA,40.809968847352025,NA,NA
86303,Yavapai County,AZ,NA,NA,NA,57.00325732899023
86314,Yavapai County,AZ,34.2143906020558,NA,NA,NA
86401,Mohave County,AZ,18.208516886930983,NA,NA,NA
86403,Mohave County,AZ,76.5051395007342,NA,NA,NA
86409,Mohave County,AZ,NA,NA,6.7114093959731544,NA
86556,Apache County,AZ,87.95888399412628,NA,NA,NA
71801,Hempstead County,AR,NA,NA,NA,68.72964169381108
72206,Pulaski County,AR,NA,NA,68.45637583892618,NA
72416,Craighead County,AR,NA,NA,91.94630872483222,NA
72450,Greene County,AR,NA,24.922118380062305,NA,NA
72455,Randolph County,AR,85.31571218795888,NA,NA,NA
72653,Baxter County,AR,69.60352422907489,NA,NA,NA
72734,Benton County,AR,95.30102790014683,NA,NA,NA
72774,Washington County,AR,NA,NA,94.96644295302013,NA
90004,Los Angeles County,CA,NA,NA,NA,51.79153094462541
90005,Los Angeles County,CA,NA,NA,78.52348993288591,NA
90011,Los Angeles County,CA,13.215859030837004,NA,NA,NA
90016,Los Angeles County,CA,61.23348017621145,NA,NA,NA
90029,Los Angeles County,CA,NA,NA,NA,37.45928338762215
90034,Los Angeles County,CA,NA,NA,NA,36.807817589576544
90037,Los Angeles County,CA,73.12775330396477,NA,NA,NA
90041,Los Angeles County,CA,NA,79.43925233644859,NA,NA
90044,Los Angeles County,CA,NA,6.5420560747663545,NA,NA
90045,Los Angeles County,CA,NA,NA,NA,44.62540716612378
90046,Los Angeles County,CA,NA,NA,NA,7.81758957654723
90049,Los Angeles County,CA,NA,NA,NA,62.866449511400646
90061,Los Angeles County,CA,NA,76.01246105919003,NA,NA
90062,Los Angeles County,CA,NA,57.63239875389408,NA,NA
90201,Los Angeles County,CA,34.50807635829663,NA,NA,NA
90220,Los Angeles County,CA,NA,NA,NA,81.10749185667753
90240,Los Angeles County,CA,71.95301027900148,NA,NA,NA
90242,Los Angeles County,CA,NA,78.50467289719626,NA,NA
90292,Los Angeles County,CA,NA,NA,59.73154362416108,NA
90503,Los Angeles County,CA,NA,54.20560747663551,NA,NA
90621,Orange County,CA,NA,NA,NA,76.2214983713355
90630,Orange County,CA,NA,52.64797507788161,NA,NA
90638,Los Angeles County,CA,NA,NA,87.58389261744966,NA
90713,Los Angeles County,CA,NA,NA,60.06711409395973,NA
90723,Los Angeles County,CA,NA,58.25545171339564,NA,NA
90744,Los Angeles County,CA,49.19236417033774,NA,NA,NA
90745,Los Angeles County,CA,NA,NA,NA,22.475570032573287
90806,Los Angeles County,CA,NA,NA,NA,87.94788273615634
91011,Los Angeles County,CA,NA,NA,83.89261744966443,NA
91342,Los Angeles County,CA,NA,25.233644859813083,NA,NA
91344,Los Angeles County,CA,71.36563876651982,NA,NA,NA
91352,Los Angeles County,CA,81.79148311306902,NA,NA,NA
91355,Los Angeles County,CA,63.436123348017624,NA,NA,NA
91387,Los Angeles County,CA,64.17033773861968,NA,NA,NA
91401,Los Angeles County,CA,71.21879588839941,NA,NA,NA
91402,Los Angeles County,CA,NA,NA,NA,29.967426710097723
91706,Los Angeles County,CA,38.91336270190896,NA,NA,25.732899022801302
91722,Los Angeles County,CA,NA,NA,NA,75.2442996742671
91744,Los Angeles County,CA,NA,NA,65.77181208053692,NA
91750,Los Angeles County,CA,NA,NA,44.29530201342282,NA
91901,San Diego County,CA,79.00146842878121,NA,NA,NA
91910,San Diego County,CA,NA,NA,33.557046979865774,NA
91942,San Diego County,CA,65.34508076358296,NA,NA,26.710097719869708
92011,San Diego County,CA,NA,NA,67.78523489932886,NA
92065,San Diego County,CA,59.1776798825257,NA,NA,NA
92084,San Diego County,CA,NA,NA,NA,46.25407166123778
92104,San Diego County,CA,55.21292217327459,NA,NA,NA
92225,Riverside County,CA,85.46255506607929,NA,NA,NA
92234,Riverside County,CA,NA,NA,NA,39.413680781758956
92236,Riverside County,CA,52.71659324522761,NA,NA,NA
92274,Riverside County,CA,96.62261380323054,NA,NA,NA
92301,San Bernardino County,CA,NA,39.56386292834891,NA,NA
92314,San Bernardino County,CA,97.50367107195301,NA,NA,NA
92335,San Bernardino County,CA,NA,NA,NA,84.03908794788273
92336,San Bernardino County,CA,13.509544787077827,NA,NA,NA
92376,San Bernardino County,CA,21.292217327459618,NA,NA,NA
92544,Riverside County,CA,41.116005873715125,NA,NA,NA
92555,Riverside County,CA,61.96769456681351,NA,NA,NA
92570,Riverside County,CA,51.395007342143906,NA,NA,NA
92612,Orange County,CA,94.27312775330397,NA,NA,NA
92620,Orange County,CA,NA,NA,NA,53.09446254071661
92679,Orange County,CA,NA,67.28971962616822,NA,NA
92683,Orange County,CA,NA,NA,NA,29.31596091205212
92691,Orange County,CA,NA,NA,NA,49.185667752442995
92694,Orange County,CA,50.073421439060205,NA,NA,NA
92703,Orange County,CA,47.72393538913363,NA,NA,NA
92706,Orange County,CA,NA,85.04672897196261,NA,NA
92804,Orange County,CA,NA,17.133956386292834,NA,NA
92806,Orange County,CA,NA,NA,NA,45.60260586319218
92841,Orange County,CA,NA,NA,68.12080536912751,NA
92865,Orange County,CA,NA,86.91588785046729,NA,NA
92880,Riverside County,CA,NA,NA,61.07382550335571,NA
93010,Ventura County,CA,NA,NA,NA,11.726384364820847
93111,Santa Barbara County,CA,NA,NA,NA,70.68403908794788
93117,Santa Barbara County,CA,77.38619676945669,NA,NA,NA
93230,Kings County,CA,16.005873715124817,NA,NA,24.104234527687296
93234,Fresno County,CA,88.2525697503671,NA,NA,NA
93257,Tulare County,CA,12.77533039647577,NA,NA,NA
93277,Tulare County,CA,NA,31.775700934579437,NA,NA
93313,Kern County,CA,65.7856093979442,NA,NA,NA
93436,Santa Barbara County,CA,37.73861967694567,NA,NA,NA
93454,Santa Barbara County,CA,NA,NA,NA,42.671009771986974
93514,Inyo County,CA,NA,91.58878504672897,NA,NA
93535,Los Angeles County,CA,19.823788546255507,NA,NA,NA
93619,Fresno County,CA,22.90748898678414,NA,NA,NA
93705,Fresno County,CA,50.51395007342144,NA,NA,NA
93722,Fresno County,CA,NA,40.18691588785047,NA,NA
93727,Fresno County,CA,NA,NA,26.845637583892618,NA
94010,San Mateo County,CA,NA,NA,37.24832214765101,NA
94066,San Mateo County,CA,NA,49.532710280373834,NA,NA
94086,Santa Clara County,CA,83.55359765051395,NA,NA,NA
94103,San Francisco County,CA,83.25991189427313,NA,NA,15.960912052117262
94118,San Francisco County,CA,52.27606461086637,NA,NA,NA
94122,San Francisco County,CA,NA,NA,NA,5.537459283387622
94132,San Francisco County,CA,NA,NA,NA,40.06514657980456
94404,San Mateo County,CA,NA,NA,NA,41.36807817589577
94536,Alameda County,CA,NA,NA,NA,21.49837133550489
94559,Napa County,CA,NA,NA,NA,54.39739413680782
94587,Alameda County,CA,NA,NA,23.825503355704697,NA
94599,Napa County,CA,NA,NA,NA,72.31270358306189
94601,Alameda County,CA,18.79588839941263,NA,NA,NA
94610,Alameda County,CA,NA,69.47040498442367,NA,NA
94804,Contra Costa County,CA,70.33773861967695,NA,NA,NA
95070,Santa Clara County,CA,NA,NA,NA,19.86970684039088
95116,Santa Clara County,CA,66.51982378854625,NA,NA,NA
95131,Santa Clara County,CA,82.23201174743025,NA,NA,NA
95207,San Joaquin County,CA,NA,NA,31.20805369127517,NA
95337,San Joaquin County,CA,49.77973568281938,NA,NA,NA
95358,Stanislaus County,CA,72.3935389133627,NA,NA,NA
95361,Stanislaus County,CA,38.76651982378855,NA,NA,NA
95501,Humboldt County,CA,NA,NA,NA,83.06188925081433
95521,Humboldt County,CA,NA,88.1619937694704,NA,NA
95531,Del Norte County,CA,80.46989720998532,NA,NA,NA
95667,El Dorado County,CA,NA,38.006230529595015,NA,NA
95691,Yolo County,CA,NA,NA,58.7248322147651,NA
95816,Sacramento County,CA,NA,59.19003115264797,NA,NA
95827,Sacramento County,CA,NA,NA,NA,76.54723127035831
95833,Sacramento County,CA,87.51835535976505,NA,NA,NA
95945,Nevada County,CA,NA,62.928348909657316,NA,NA
95961,Yuba County,CA,NA,NA,NA,95.76547231270358
95963,Glenn County,CA,92.65785609397945,NA,NA,NA
95966,Butte County,CA,27.45961820851689,NA,NA,NA
95969,Butte County,CA,59.1776798825257,NA,NA,NA
96130,Lassen County,CA,99.11894273127754,NA,NA,NA
80002,Jefferson County,CO,NA,NA,NA,86.31921824104235
80003,Jefferson County,CO,28.193832599118945,NA,NA,NA
80004,Jefferson County,CO,NA,NA,NA,39.73941368078176
80011,Arapahoe County,CO,43.61233480176212,NA,NA,48.20846905537459
80012,Arapahoe County,CO,NA,NA,NA,20.195439739413683
80013,Arapahoe County,CO,NA,NA,NA,46.579804560260584
80014,Arapahoe County,CO,23.788546255506606,NA,NA,NA
80016,Arapahoe County,CO,2.936857562408223,NA,NA,NA
80017,Arapahoe County,CO,NA,75.70093457943925,53.355704697986575,NA
80022,Adams County,CO,NA,21.18380062305296,42.61744966442953,NA
80023,Broomfield County,CO,73.27459618208518,NA,NA,NA
80026,Boulder County,CO,NA,NA,NA,75.8957654723127
80027,Boulder County,CO,40.23494860499266,NA,NA,NA
80031,Adams County,CO,49.77973568281938,NA,NA,NA
80118,Douglas County,CO,NA,NA,95.63758389261746,NA
80124,Douglas County,CO,63.87665198237885,NA,NA,NA
80202,Denver County,CO,NA,NA,92.9530201342282,NA
80205,Denver County,CO,13.950073421439061,15.887850467289718,NA,NA
80211,Denver County,CO,NA,NA,NA,77.85016286644951
80214,Jefferson County,CO,NA,NA,NA,84.69055374592834
80215,Jefferson County,CO,76.06461086637299,NA,NA,NA
80221,Adams County,CO,19.08957415565345,NA,NA,NA
80223,Denver County,CO,57.856093979442,NA,NA,NA
80229,Adams County,CO,NA,49.84423676012461,NA,79.80456026058633
80230,Denver County,CO,94.86049926578562,NA,NA,NA
80233,Adams County,CO,14.096916299559473,NA,NA,NA
80234,Adams County,CO,NA,NA,71.47651006711409,NA
80236,Denver County,CO,87.07782672540382,NA,NA,NA
80238,Denver County,CO,72.83406754772393,NA,NA,NA
80239,Denver County,CO,51.248164464023496,NA,NA,NA
80260,Adams County,CO,45.96182085168869,NA,NA,NA
80433,Jefferson County,CO,NA,NA,93.28859060402685,NA
80503,Boulder County,CO,48.458149779735685,NA,NA,NA
80504,Boulder County,CO,37.88546255506608,NA,NA,NA
80516,Weld County,CO,42.731277533039645,NA,NA,NA
80524,Larimer County,CO,56.38766519823789,NA,NA,NA
80526,Larimer County,CO,NA,NA,34.899328859060404,NA
80540,Boulder County,CO,99.85315712187959,NA,NA,NA
80601,Adams County,CO,18.355359765051396,NA,NA,NA
80602,Adams County,CO,32.45227606461087,NA,NA,NA
80620,Weld County,CO,48.01762114537445,NA,NA,NA
80634,Weld County,CO,3.81791483113069,NA,NA,NA
80643,Weld County,CO,NA,NA,99.32885906040269,NA
80751,Logan County,CO,NA,47.66355140186916,NA,NA
80903,El Paso County,CO,68.57562408223201,NA,NA,NA
80904,El Paso County,CO,NA,NA,66.10738255033557,NA
80906,El Paso County,CO,83.55359765051395,NA,NA,NA
81004,Pueblo County,CO,36.71071953010279,NA,NA,NA
81067,Otero County,CO,NA,NA,97.31543624161074,NA
81101,Alamosa County,CO,NA,49.22118380062305,NA,NA
81212,Fremont County,CO,NA,45.482866043613704,NA,NA
81413,Delta County,CO,NA,NA,82.5503355704698,NA
06001,Hartford County,CT,37.59177679882526,NA,NA,NA
06010,Hartford County,CT,NA,NA,NA,2.2801302931596092
06053,Hartford County,CT,17.76798825256975,NA,NA,NA
06095,Hartford County,CT,NA,NA,31.20805369127517,NA
06110,Hartford County,CT,NA,NA,NA,85.34201954397395
06118,Hartford County,CT,32.305433186490454,NA,NA,NA
06234,Windham County,CT,NA,NA,75.16778523489933,NA
06401,New Haven County,CT,NA,36.7601246105919,NA,NA
06450,New Haven County,CT,18.79588839941263,NA,NA,NA
06492,New Haven County,CT,NA,27.41433021806853,12.751677852348994,5.211726384364821
06511,New Haven County,CT,7.195301027900147,NA,NA,NA
06512,New Haven County,CT,NA,28.971962616822427,NA,NA
06513,New Haven County,CT,NA,NA,9.731543624161073,NA
06610,Fairfield County,CT,46.54919236417034,NA,NA,NA
06611,Fairfield County,CT,75.91776798825258,NA,NA,NA
06705,New Haven County,CT,NA,29.595015576323984,NA,NA
06708,New Haven County,CT,NA,28.34890965732087,NA,NA
06770,New Haven County,CT,NA,30.529595015576323,NA,NA
06790,Litchfield County,CT,NA,NA,3.691275167785235,NA
06897,Fairfield County,CT,NA,NA,NA,62.21498371335505
06902,Fairfield County,CT,NA,NA,NA,4.5602605863192185
19709,New Castle County,DE,16.886930983847286,NA,NA,NA
19901,Kent County,DE,NA,22.741433021806852,NA,NA
19904,Kent County,DE,NA,NA,17.449664429530202,NA
19977,Kent County,DE,48.604992657856094,NA,NA,NA
32082,St. Johns County,FL,54.77239353891336,NA,NA,NA
32084,St. Johns County,FL,NA,NA,28.187919463087248,NA
32114,Volusia County,FL,38.47283406754772,NA,NA,NA
32117,Volusia County,FL,NA,NA,NA,34.527687296416936
32137,Flagler County,FL,44.34654919236417,NA,NA,NA
32169,Volusia County,FL,99.70631424375918,NA,NA,NA
32207,Duval County,FL,32.8928046989721,NA,NA,NA
32216,Duval County,FL,NA,23.98753894080997,NA,NA
32221,Duval County,FL,57.415565345080765,NA,NA,NA
32224,Duval County,FL,NA,65.10903426791276,NA,NA
32244,Duval County,FL,26.431718061674008,NA,NA,NA
32312,Leon County,FL,NA,NA,61.74496644295302,NA
32433,Walton County,FL,75.18355359765052,NA,NA,NA
32439,Walton County,FL,79.88252569750367,NA,NA,NA
32459,Walton County,FL,60.4992657856094,NA,NA,NA
32501,Escambia County,FL,NA,86.29283489096574,NA,NA
32506,Escambia County,FL,NA,NA,18.79194630872483,NA
32526,Escambia County,FL,NA,NA,NA,10.097719869706841
32547,Okaloosa County,FL,61.23348017621145,NA,NA,NA
32548,Okaloosa County,FL,NA,69.78193146417445,NA,NA
32570,Santa Rosa County,FL,NA,11.838006230529595,NA,NA
32571,Santa Rosa County,FL,NA,16.822429906542055,NA,NA
32666,Putnam County,FL,95.30102790014683,NA,NA,NA
32763,Volusia County,FL,85.46255506607929,NA,NA,NA
32771,Seminole County,FL,40.67547723935389,NA,NA,NA
32773,Seminole County,FL,74.15565345080763,52.95950155763239,NA,NA
32806,Orange County,FL,NA,NA,NA,32.57328990228013
32811,Orange County,FL,NA,28.66043613707165,NA,60.91205211726385
32812,Orange County,FL,NA,NA,81.54362416107382,NA
32824,Orange County,FL,53.15712187958884,NA,NA,NA
32829,Orange County,FL,NA,NA,91.2751677852349,NA
32901,Brevard County,FL,73.7151248164464,NA,NA,NA
32904,Brevard County,FL,83.25991189427313,NA,NA,NA
32922,Brevard County,FL,56.53450807635829,NA,NA,NA
32926,Brevard County,FL,NA,78.19314641744548,NA,NA
32927,Brevard County,FL,66.96035242290749,NA,NA,NA
32935,Brevard County,FL,48.164464023494865,NA,NA,NA
32960,Indian River County,FL,NA,NA,NA,51.14006514657981
32968,Indian River County,FL,NA,85.98130841121495,NA,NA
33009,Broward County,FL,NA,NA,NA,12.052117263843648
33014,Miami-Dade County,FL,44.93392070484582,NA,NA,NA
33015,Miami-Dade County,FL,26.87224669603524,NA,NA,NA
33021,Broward County,FL,NA,NA,NA,4.88599348534202
33023,Broward County,FL,NA,24.610591900311526,NA,NA
33024,Broward County,FL,NA,35.82554517133956,NA,NA
33025,Broward County,FL,19.530102790014684,NA,NA,NA
33027,Broward County,FL,NA,NA,NA,31.921824104234524
33033,Miami-Dade County,FL,11.16005873715125,NA,NA,NA
33034,Miami-Dade County,FL,NA,NA,88.9261744966443,NA
33055,Miami-Dade County,FL,NA,56.69781931464174,NA,NA
33127,Miami-Dade County,FL,56.97503671071953,NA,NA,NA
33144,Miami-Dade County,FL,84.43465491923642,NA,NA,NA
33161,Miami-Dade County,FL,17.62114537444934,NA,NA,NA
33165,Miami-Dade County,FL,NA,NA,NA,2.6058631921824107
33177,Miami-Dade County,FL,49.48604992657856,NA,NA,NA
33311,Broward County,FL,NA,NA,21.812080536912752,NA
33314,Broward County,FL,69.16299559471366,NA,NA,NA
33412,Palm Beach County,FL,NA,NA,83.22147651006712,NA
33445,Palm Beach County,FL,NA,77.25856697819314,NA,NA
33467,Palm Beach County,FL,NA,NA,26.174496644295303,NA
33511,Hillsborough County,FL,6.167400881057269,NA,NA,NA
33566,Hillsborough County,FL,NA,64.797507788162,NA,NA
33569,Hillsborough County,FL,35.97650513950074,NA,NA,NA
33612,Hillsborough County,FL,9.251101321585903,NA,NA,NA
33617,Hillsborough County,FL,10.13215859030837,NA,NA,NA
33619,Hillsborough County,FL,31.864904552129218,NA,NA,NA
33647,Hillsborough County,FL,NA,57.3208722741433,49.664429530201346,NA
33703,Pinellas County,FL,NA,NA,78.85906040268456,NA
33710,Pinellas County,FL,67.54772393538914,NA,NA,43.32247557003257
33712,Pinellas County,FL,NA,74.76635514018692,NA,NA
33764,Pinellas County,FL,93.09838472834068,NA,NA,NA
33774,Pinellas County,FL,88.69309838472834,NA,NA,NA
33782,Pinellas County,FL,NA,74.45482866043614,NA,NA
33837,Polk County,FL,NA,NA,55.369127516778526,NA
33884,Polk County,FL,NA,NA,49.328859060402685,NA
33905,Lee County,FL,NA,42.99065420560748,NA,NA
33936,Lee County,FL,NA,NA,NA,85.66775244299674
33973,Lee County,FL,67.1071953010279,NA,NA,NA
33990,Lee County,FL,NA,NA,NA,66.12377850162866
34108,Collier County,FL,NA,92.21183800623052,NA,NA
34112,Collier County,FL,NA,NA,NA,21.824104234527688
34134,Lee County,FL,NA,NA,NA,38.43648208469055
34207,Manatee County,FL,44.199706314243755,NA,NA,NA
34235,Sarasota County,FL,NA,NA,NA,34.85342019543974
34471,Marion County,FL,NA,NA,NA,52.76872964169381
34606,Hernando County,FL,62.84875183553598,NA,NA,NA
34609,Hernando County,FL,41.99706314243759,NA,NA,NA
34691,Pasco County,FL,45.66813509544787,NA,NA,NA
34711,Lake County,FL,NA,NA,NA,3.908794788273615
34741,Osceola County,FL,29.515418502202646,NA,NA,NA
34747,Osceola County,FL,NA,87.85046728971963,NA,NA
34761,Orange County,FL,NA,45.17133956386293,NA,NA
34786,Orange County,FL,58.590308370044056,NA,NA,NA
34788,Lake County,FL,NA,NA,NA,31.596091205211724
34983,St. Lucie County,FL,NA,28.037383177570092,NA,NA
34990,Martin County,FL,NA,NA,25.503355704697988,NA
30016,Newton County,GA,13.362701908957417,NA,21.140939597315437,NA
30032,DeKalb County,GA,27.165932452276063,NA,NA,23.778501628664493
30052,Walton County,GA,33.186490455212926,NA,NA,NA
30055,Jasper County,GA,97.3568281938326,NA,NA,NA
30064,Cobb County,GA,50.51395007342144,NA,NA,NA
30075,Fulton County,GA,NA,NA,NA,46.90553745928339
30080,Cobb County,GA,NA,58.56697819314641,NA,NA
30083,DeKalb County,GA,NA,NA,NA,55.048859934853425
30087,DeKalb County,GA,57.856093979442,NA,NA,NA
30096,Gwinnett County,GA,NA,33.95638629283489,NA,NA
30122,Douglas County,GA,26.431718061674008,NA,NA,NA
30134,Douglas County,GA,28.487518355359764,NA,NA,NA
30144,Cobb County,GA,NA,41.74454828660436,NA,NA
30153,Polk County,GA,NA,NA,56.375838926174495,NA
30224,Spalding County,GA,72.83406754772393,NA,NA,NA
30253,Henry County,GA,24.816446402349488,33.021806853582554,NA,NA
30265,Coweta County,GA,33.33333333333333,NA,NA,NA
30294,DeKalb County,GA,42.437591776798826,NA,NA,NA
30297,Clayton County,GA,35.389133627019085,NA,NA,NA
30318,Fulton County,GA,21.879588839941263,NA,NA,NA
30331,Fulton County,GA,NA,NA,NA,17.58957654723127
30434,Jefferson County,GA,91.18942731277532,NA,NA,NA
30461,Bulloch County,GA,NA,80.37383177570094,NA,NA
30512,Union County,GA,71.51248164464023,NA,NA,NA
30518,Gwinnett County,GA,NA,NA,38.25503355704698,NA
30673,Wilkes County,GA,NA,NA,75.50335570469798,NA
30705,Murray County,GA,NA,NA,42.95302013422819,NA
30813,Columbia County,GA,NA,NA,NA,67.42671009771986
30901,Richmond County,GA,92.36417033773861,NA,NA,NA
31064,Jasper County,GA,88.98678414096916,NA,NA,NA
31088,Houston County,GA,53.89133627019089,NA,NA,NA
31523,Glynn County,GA,84.72834067547724,NA,NA,NA
31539,Jeff Davis County,GA,NA,NA,72.48322147651007,NA
31558,Camden County,GA,67.98825256975036,NA,NA,NA
31639,Berrien County,GA,NA,NA,NA,71.00977198697068
31833,Troup County,GA,NA,NA,NA,100
31907,Muscogee County,GA,21.292217327459618,NA,NA,NA
39817,Decatur County,GA,83.84728340675477,NA,NA,NA
39842,Terrell County,GA,91.77679882525698,NA,NA,NA
96706,Honolulu County,HI,8.370044052863436,NA,NA,NA
96720,Hawaii County,HI,NA,NA,NA,75.57003257328991
96734,Honolulu County,HI,45.66813509544787,NA,NA,NA
96740,Hawaii County,HI,78.56093979441997,NA,NA,NA
96743,Hawaii County,HI,88.39941262848751,NA,NA,NA
96749,Hawaii County,HI,NA,NA,76.84563758389261,NA
96792,Honolulu County,HI,14.977973568281937,14.641744548286603,NA,NA
96818,Honolulu County,HI,NA,NA,36.577181208053695,NA
83202,Bannock County,ID,NA,NA,70.80536912751678,NA
83211,Power County,ID,NA,NA,NA,98.0456026058632
83316,Twin Falls County,ID,NA,NA,NA,28.338762214983714
83605,Canyon County,ID,NA,NA,NA,38.11074918566775
83687,Canyon County,ID,NA,NA,19.463087248322147,NA
83704,Ada County,ID,NA,NA,5.704697986577181,NA
83835,Kootenai County,ID,NA,NA,NA,44.299674267100976
60005,Cook County,IL,63.289280469897214,NA,NA,NA
60007,Cook County,IL,68.28193832599119,NA,NA,NA
60008,Cook County,IL,NA,NA,NA,52.11726384364821
60010,Lake County,IL,NA,NA,15.436241610738255,NA
60016,Cook County,IL,NA,NA,NA,9.120521172638437
60025,Cook County,IL,NA,48.598130841121495,NA,NA
60045,Lake County,IL,NA,NA,NA,14.332247557003258
60046,Lake County,IL,43.75917767988253,NA,NA,NA
60051,McHenry County,IL,51.83553597650514,NA,NA,NA
60060,Lake County,IL,NA,NA,17.114093959731544,NA
60087,Lake County,IL,NA,NA,NA,64.82084690553745
60093,Cook County,IL,NA,NA,NA,26.384364820846905
60102,McHenry County,IL,NA,NA,45.302013422818796,NA
60107,Cook County,IL,NA,NA,40.26845637583892,NA
60108,DuPage County,IL,NA,NA,NA,74.2671009771987
60126,DuPage County,IL,NA,NA,5.033557046979865,NA
60130,Cook County,IL,NA,NA,70.80536912751678,NA
60169,Cook County,IL,NA,NA,NA,54.72312703583062
60172,DuPage County,IL,61.52716593245228,NA,NA,NA
60189,DuPage County,IL,NA,NA,NA,32.24755700325733
60193,Cook County,IL,NA,NA,11.073825503355705,NA
60422,Cook County,IL,NA,NA,52.013422818791945,NA
60447,Grundy County,IL,35.095447870778266,NA,NA,NA
60462,Cook County,IL,13.803230543318648,NA,NA,NA
60506,Kane County,IL,NA,32.398753894081,NA,NA
60525,Cook County,IL,NA,NA,15.771812080536913,NA
60540,DuPage County,IL,NA,NA,NA,34.20195439739413
60544,Will County,IL,53.89133627019089,NA,NA,NA
60555,DuPage County,IL,NA,NA,NA,92.18241042345277
60563,DuPage County,IL,41.116005873715125,NA,NA,NA
60564,Will County,IL,NA,NA,NA,96.74267100977198
60601,Cook County,IL,NA,NA,NA,92.83387622149837
60608,Cook County,IL,NA,NA,16.44295302013423,9.77198697068404
60623,Cook County,IL,23.494860499265783,NA,NA,NA
60625,Cook County,IL,NA,12.461059190031152,NA,20.521172638436482
60628,Cook County,IL,NA,7.165109034267912,NA,NA
60631,Cook County,IL,NA,NA,NA,24.429967426710096
60637,Cook County,IL,NA,NA,13.758389261744966,NA
60644,Cook County,IL,NA,NA,13.422818791946309,NA
60654,Cook County,IL,NA,76.63551401869158,NA,NA
60714,Cook County,IL,NA,80.06230529595015,NA,NA
60827,Cook County,IL,NA,NA,NA,68.07817589576547
61032,Stephenson County,IL,55.50660792951542,NA,NA,NA
61065,Boone County,IL,NA,76.01246105919003,NA,NA
61109,Winnebago County,IL,55.800293685756245,NA,NA,NA
61111,Winnebago County,IL,41.409691629955944,NA,NA,NA
61254,Henry County,IL,88.98678414096916,NA,NA,NA
61265,Rock Island County,IL,NA,NA,NA,15.63517915309446
61614,Peoria County,IL,NA,NA,NA,24.7557003257329
61701,McLean County,IL,NA,37.69470404984423,NA,NA
61802,Champaign County,IL,NA,68.22429906542055,NA,NA
61866,Champaign County,IL,NA,46.728971962616825,NA,NA
61951,Moultrie County,IL,NA,NA,96.30872483221476,NA
62040,Madison County,IL,NA,25.54517133956386,NA,NA
62269,St. Clair County,IL,NA,NA,NA,37.13355048859935
62565,Shelby County,IL,NA,88.1619937694704,NA,NA
62966,Jackson County,IL,NA,70.09345794392523,NA,36.48208469055375
46012,Madison County,IN,NA,NA,NA,33.22475570032573
46016,Madison County,IN,46.98972099853157,18.38006230529595,NA,NA
46107,Marion County,IN,NA,66.66666666666666,NA,NA
46176,Shelby County,IN,42.290748898678416,NA,NA,NA
46214,Marion County,IN,NA,62.616822429906534,NA,NA
46221,Marion County,IN,NA,NA,45.63758389261745,NA
46224,Marion County,IN,NA,NA,NA,40.390879478827365
46307,Lake County,IN,0.881057268722467,NA,NA,NA
46312,Lake County,IN,10.866372980910425,NA,NA,NA
46383,Porter County,IN,NA,NA,NA,13.680781758957655
46385,Porter County,IN,NA,7.78816199376947,NA,NA
46390,LaPorte County,IN,NA,95.95015576323988,NA,NA
46517,Elkhart County,IN,64.17033773861968,NA,NA,NA
46526,Elkhart County,IN,NA,NA,62.08053691275168,40.71661237785016
46538,Kosciusko County,IN,NA,98.4423676012461,NA,NA
46706,DeKalb County,IN,43.31864904552129,NA,NA,NA
46806,Allen County,IN,21.879588839941263,NA,NA,NA
46808,Allen County,IN,NA,NA,NA,73.28990228013029
46816,Allen County,IN,39.647577092511014,NA,NA,NA
46901,Howard County,IN,5.286343612334802,NA,6.0402684563758395,NA
46953,Grant County,IN,46.98972099853157,NA,NA,NA
46970,Miami County,IN,20.11747430249633,NA,NA,NA
46975,Fulton County,IN,46.84287812041116,NA,NA,NA
47172,Clark County,IN,75.18355359765052,NA,NA,NA
47201,Bartholomew County,IN,2.643171806167401,NA,NA,NA
47274,Jackson County,IN,26.87224669603524,NA,NA,NA
47305,Delaware County,IN,NA,NA,98.99328859060402,NA
47404,Monroe County,IN,NA,NA,77.85234899328859,NA
47807,Vigo County,IN,62.261380323054325,NA,NA,NA
47842,Vermillion County,IN,54.33186490455213,NA,NA,NA
47932,Fountain County,IN,NA,NA,75.83892617449665,NA
50010,Story County,IA,NA,63.55140186915887,NA,NA
50023,Polk County,IA,65.05139500734214,NA,NA,NA
50138,Marion County,IA,77.67988252569751,NA,NA,NA
50158,Marshall County,IA,34.948604992657856,NA,NA,NA
50266,Polk County,IA,62.261380323054325,NA,82.88590604026845,NA
50315,Polk County,IA,NA,NA,25.16778523489933,NA
50317,Polk County,IA,26.138032305433185,NA,16.778523489932887,NA
50401,Cerro Gordo County,IA,NA,NA,NA,0.9771986970684038
50644,Buchanan County,IA,88.98678414096916,NA,NA,NA
51012,Cherokee County,IA,NA,NA,95.30201342281879,NA
51106,Woodbury County,IA,NA,82.2429906542056,NA,NA
51301,Clay County,IA,NA,57.943925233644855,NA,NA
51334,Emmet County,IA,NA,NA,57.38255033557047,NA
51360,Dickinson County,IA,NA,NA,NA,57.65472312703584
51503,Pottawattamie County,IA,NA,NA,6.375838926174497,NA
51537,Shelby County,IA,76.06461086637299,NA,NA,NA
51601,Page County,IA,NA,NA,NA,62.54071661237784
52002,Dubuque County,IA,NA,NA,NA,83.38762214983714
52031,Jackson County,IA,96.1820851688693,NA,NA,NA
52240,Johnson County,IA,2.7900146842878124,NA,NA,NA
52404,Linn County,IA,21.58590308370044,NA,NA,NA
52601,Des Moines County,IA,29.955947136563875,NA,NA,NA
52722,Scott County,IA,10.425844346549193,NA,NA,NA
52738,Louisa County,IA,73.42143906020559,NA,NA,NA
52803,Scott County,IA,NA,NA,58.053691275167786,NA
66012,Wyandotte County,KS,NA,NA,NA,85.99348534201955
66062,Johnson County,KS,NA,NA,NA,19.218241042345277
66106,Wyandotte County,KS,NA,52.024922118380054,NA,NA
66215,Johnson County,KS,30.396475770925107,NA,NA,NA
66219,Johnson County,KS,NA,91.27725856697819,NA,NA
66223,Johnson County,KS,NA,89.7196261682243,NA,NA
66614,Shawnee County,KS,NA,NA,NA,17.263843648208468
67124,Pratt County,KS,86.34361233480176,NA,NA,NA
67204,Sedgwick County,KS,NA,NA,NA,84.36482084690554
67205,Sedgwick County,KS,NA,92.5233644859813,NA,NA
67212,Sedgwick County,KS,NA,NA,NA,53.420195439739416
67217,Sedgwick County,KS,30.983847283406757,NA,NA,NA
67218,Sedgwick County,KS,NA,NA,89.26174496644296,NA
67220,Sedgwick County,KS,NA,NA,NA,98.69706840390879
67401,Saline County,KS,NA,26.791277258566975,NA,NA
67801,Ford County,KS,57.562408223201174,NA,NA,NA
40033,Marion County,KY,NA,65.73208722741433,NA,NA
40047,Bullitt County,KY,NA,35.51401869158878,59.395973154362416,NA
40118,Jefferson County,KY,NA,NA,66.77852348993288,NA
40165,Bullitt County,KY,45.22760646108664,NA,NA,NA
40207,Jefferson County,KY,NA,NA,35.90604026845637,35.50488599348534
40214,Jefferson County,KY,16.44640234948605,NA,NA,NA
40215,Jefferson County,KY,NA,23.67601246105919,NA,NA
40216,Jefferson County,KY,12.041116005873716,NA,NA,NA
40218,Jefferson County,KY,NA,NA,42.281879194630875,NA
40222,Jefferson County,KY,NA,NA,NA,27.035830618892508
40351,Rowan County,KY,46.69603524229075,NA,NA,NA
40360,Bath County,KY,NA,NA,NA,91.85667752442997
40508,Fayette County,KY,NA,39.875389408099686,NA,NA
40701,Whitley County,KY,34.801762114537446,NA,NA,NA
40741,Laurel County,KY,NA,60.12461059190031,NA,NA
40769,Whitley County,KY,62.84875183553598,NA,NA,NA
40965,Bell County,KY,38.91336270190896,NA,NA,NA
41311,Lee County,KY,93.09838472834068,NA,NA,NA
41522,Pike County,KY,NA,NA,NA,97.39413680781759
42001,McCracken County,KY,NA,NA,22.14765100671141,NA
42071,Calloway County,KY,NA,NA,NA,42.01954397394137
42127,Barren County,KY,86.78414096916299,NA,NA,NA
42141,Barren County,KY,19.383259911894275,NA,NA,NA
42211,Trigg County,KY,NA,NA,NA,60.26058631921825
42701,Hardin County,KY,NA,NA,11.409395973154362,NA
42728,Adair County,KY,60.05873715124817,NA,NA,NA
42754,Grayson County,KY,41.409691629955944,NA,NA,NA
70070,St. Charles Parish,LA,90.60205580029368,NA,NA,NA
70072,Jefferson Parish,LA,75.77092511013215,NA,NA,NA
70124,Orleans Parish,LA,NA,NA,NA,63.51791530944625
70126,Orleans Parish,LA,27.165932452276063,NA,NA,NA
70127,Orleans Parish,LA,1.6152716593245229,NA,NA,NA
70363,Terrebonne Parish,LA,52.71659324522761,NA,NA,NA
70374,Lafourche Parish,LA,NA,43.30218068535825,NA,NA
70403,Tangipahoa Parish,LA,35.389133627019085,NA,NA,NA
70433,St. Tammany Parish,LA,3.524229074889868,NA,NA,NA
70460,St. Tammany Parish,LA,NA,NA,30.201342281879196,NA
70466,Tangipahoa Parish,LA,6.7547723935389135,NA,NA,NA
70508,Lafayette Parish,LA,7.342143906020558,NA,NA,NA
70578,Acadia Parish,LA,NA,NA,46.308724832214764,NA
70607,Calcasieu Parish,LA,96.47577092511013,NA,NA,NA
70611,Calcasieu Parish,LA,NA,35.202492211838006,NA,NA
70734,Ascension Parish,LA,79.88252569750367,NA,NA,NA
70791,East Baton Rouge Parish,LA,84.87518355359765,NA,NA,NA
71037,Bossier Parish,LA,40.08810572687225,NA,NA,NA
71052,De Soto Parish,LA,44.49339207048458,NA,NA,NA
71301,Rapides Parish,LA,8.663729809104257,NA,NA,NA
71342,La Salle Parish,LA,53.01027900146843,NA,NA,NA
71446,Vernon Parish,LA,NA,NA,39.261744966442954,NA
04049,York County,ME,NA,NA,100,NA
04240,Androscoggin County,ME,NA,NA,4.3624161073825505,NA
04967,Somerset County,ME,NA,94.70404984423676,NA,NA
20603,Charles County,MD,NA,73.5202492211838,NA,NA
20664,Charles County,MD,100,NA,NA,NA
20735,Prince George's County,MD,NA,NA,72.81879194630872,NA
20746,Prince George's County,MD,NA,68.84735202492212,NA,NA
20785,Prince George's County,MD,NA,NA,80.20134228187919,NA
20878,Montgomery County,MD,NA,51.4018691588785,NA,NA
21087,Baltimore County,MD,98.09104258443465,NA,NA,NA
21133,Baltimore County,MD,NA,65.42056074766354,NA,NA
21213,Baltimore city,MD,NA,56.38629283489096,NA,NA
21220,Baltimore County,MD,21.145374449339208,NA,NA,NA
21223,Baltimore city,MD,NA,39.25233644859813,NA,NA
21236,Baltimore County,MD,38.1791483113069,NA,NA,NA
21620,Kent County,MD,NA,NA,NA,54.071661237785015
21771,Frederick County,MD,NA,NA,NA,81.75895765472313
21851,Worcester County,MD,NA,NA,93.95973154362416,NA
01013,Hampden County,MA,NA,NA,16.10738255033557,NA
01089,Hampden County,MA,NA,NA,30.536912751677853,NA
01095,Hampden County,MA,NA,NA,NA,55.700325732899024
01364,Franklin County,MA,NA,NA,24.496644295302016,NA
01440,Worcester County,MA,93.3920704845815,NA,NA,NA
01520,Worcester County,MA,69.16299559471366,NA,NA,NA
01606,Worcester County,MA,NA,NA,18.120805369127517,NA
01748,Middlesex County,MA,80.91042584434655,NA,NA,NA
01776,Middlesex County,MA,41.70337738619677,NA,NA,NA
01810,Essex County,MA,28.487518355359764,NA,NA,NA
02019,Norfolk County,MA,NA,NA,39.93288590604027,NA
02043,Plymouth County,MA,NA,99.06542056074767,NA,NA
02130,Suffolk County,MA,NA,NA,NA,3.257328990228013
02132,Suffolk County,MA,57.856093979442,NA,NA,NA
02136,Suffolk County,MA,NA,NA,7.718120805369128,7.166123778501629
02138,Middlesex County,MA,NA,NA,8.724832214765101,NA
02143,Middlesex County,MA,NA,NA,11.74496644295302,NA
02149,Middlesex County,MA,NA,0,NA,NA
02155,Middlesex County,MA,NA,53.89408099688473,NA,NA
02301,Plymouth County,MA,NA,NA,0,NA
02478,Middlesex County,MA,52.42290748898678,NA,NA,NA
02631,Barnstable County,MA,NA,NA,NA,39.08794788273616
02632,Barnstable County,MA,NA,NA,54.69798657718121,NA
02744,Bristol County,MA,45.96182085168869,NA,NA,NA
02777,Bristol County,MA,NA,9.034267912772584,NA,NA
02780,Bristol County,MA,NA,NA,1.6778523489932886,NA
48030,Oakland County,MI,NA,47.35202492211838,NA,NA
48060,St. Clair County,MI,NA,NA,8.389261744966444,NA
48071,Oakland County,MI,NA,NA,NA,47.55700325732899
48082,Macomb County,MI,NA,52.336448598130836,NA,NA
48085,Oakland County,MI,NA,NA,NA,50.4885993485342
48101,Wayne County,MI,NA,30.218068535825545,NA,NA
48104,Washtenaw County,MI,NA,NA,NA,19.54397394136808
48126,Wayne County,MI,5.139500734214391,NA,NA,NA
48180,Wayne County,MI,1.1747430249632893,NA,NA,NA
48184,Wayne County,MI,21.73274596182085,NA,NA,NA
48195,Wayne County,MI,NA,NA,10.738255033557047,NA
48212,Wayne County,MI,NA,NA,14.429530201342283,NA
48221,Wayne County,MI,25.40381791483113,NA,NA,NA
48223,Wayne County,MI,NA,NA,41.2751677852349,NA
48224,Wayne County,MI,0.5873715124816447,NA,NA,NA
48302,Oakland County,MI,NA,NA,50.671140939597315,NA
48312,Macomb County,MI,15.27165932452276,NA,NA,NA
48331,Oakland County,MI,NA,NA,22.483221476510067,NA
48335,Oakland County,MI,NA,NA,NA,33.876221498371336
48357,Oakland County,MI,NA,89.09657320872275,NA,NA
48362,Oakland County,MI,NA,NA,84.22818791946308,NA
48371,Oakland County,MI,NA,NA,52.348993288590606,NA
48415,Saginaw County,MI,64.61086637298091,NA,NA,NA
48433,Genesee County,MI,36.41703377386197,NA,NA,NA
48442,Oakland County,MI,66.81350954478708,NA,NA,NA
48453,Sanilac County,MI,NA,84.73520249221184,NA,NA
48507,Genesee County,MI,12.62848751835536,NA,NA,NA
48604,Saginaw County,MI,NA,61.059190031152646,NA,NA
48625,Clare County,MI,47.43024963289281,NA,NA,NA
48708,Bay County,MI,NA,8.411214953271028,NA,NA
48732,Bay County,MI,52.42290748898678,NA,NA,NA
48756,Ogemaw County,MI,86.19676945668135,NA,NA,NA
48838,Montcalm County,MI,NA,37.38317757009346,NA,NA
48848,Shiawassee County,MI,NA,NA,79.19463087248322,NA
48858,Isabella County,MI,NA,5.919003115264798,NA,NA
49002,Kalamazoo County,MI,NA,85.35825545171339,NA,NA
49009,Kalamazoo County,MI,23.05433186490455,NA,NA,NA
49010,Allegan County,MI,NA,48.90965732087228,NA,NA
49014,Calhoun County,MI,29.662261380323052,NA,NA,NA
49085,Berrien County,MI,NA,NA,NA,32.89902280130293
49120,Berrien County,MI,NA,17.445482866043612,NA,NA
49201,Jackson County,MI,NA,NA,7.38255033557047,NA
49221,Lenawee County,MI,1.908957415565345,NA,NA,NA
49423,Ottawa County,MI,NA,14.018691588785046,NA,NA
49424,Ottawa County,MI,7.342143906020558,NA,NA,NA
49503,Kent County,MI,NA,NA,NA,47.88273615635179
49663,Wexford County,MI,NA,NA,NA,98.37133550488599
49686,Grand Traverse County,MI,NA,NA,NA,18.241042345276874
49765,Presque Isle County,MI,88.98678414096916,NA,NA,NA
49855,Marquette County,MI,NA,NA,NA,25.0814332247557
55105,Ramsey County,MN,55.65345080763583,NA,NA,NA
55112,Ramsey County,MN,NA,NA,27.181208053691275,NA
55306,Dakota County,MN,49.19236417033774,NA,NA,NA
55309,Sherburne County,MN,NA,NA,NA,95.43973941368078
55337,Dakota County,MN,NA,NA,NA,29.64169381107492
55372,Scott County,MN,23.93538913362702,NA,64.76510067114094,NA
55408,Hennepin County,MN,NA,12.77258566978193,NA,NA
55432,Anoka County,MN,NA,60.747663551401864,NA,NA
55447,Hennepin County,MN,NA,79.75077881619937,NA,NA
55449,Anoka County,MN,NA,NA,74.16107382550335,NA
55744,Itasca County,MN,NA,19.937694704049843,NA,NA
55802,St. Louis County,MN,NA,93.76947040498442,NA,NA
55805,St. Louis County,MN,53.45080763582967,NA,NA,NA
55810,St. Louis County,MN,NA,NA,54.36241610738255,NA
55981,Wabasha County,MN,NA,NA,82.21476510067114,NA
56258,Lyon County,MN,NA,NA,NA,45.928338762214985
56267,Stevens County,MN,65.49192364170338,NA,NA,NA
56301,Stearns County,MN,24.816446402349488,NA,NA,NA
56474,Cass County,MN,81.79148311306902,NA,NA,NA
56501,Becker County,MN,NA,NA,NA,18.566775244299674
56560,Clay County,MN,1.0279001468428781,NA,NA,NA
56601,Beltrami County,MN,23.201174743024964,NA,NA,NA
38683,Tippah County,MS,64.90455212922174,NA,NA,NA
38849,Lee County,MS,94.27312775330397,NA,NA,NA
39073,Rankin County,MS,54.18502202643172,NA,NA,NA
39117,Scott County,MS,92.95154185022027,NA,NA,NA
39301,Lauderdale County,MS,30.396475770925107,NA,NA,NA
39339,Winston County,MS,56.97503671071953,NA,NA,NA
39574,Harrison County,MS,68.28193832599119,NA,NA,NA
39648,Pike County,MS,55.947136563876654,NA,NA,NA
63010,Jefferson County,MO,NA,43.925233644859816,NA,NA
63011,St. Louis County,MO,NA,NA,19.12751677852349,4.234527687296417
63020,Jefferson County,MO,60.05873715124817,NA,NA,NA
63031,St. Louis County,MO,20.704845814977972,NA,NA,NA
63042,St. Louis County,MO,NA,51.71339563862928,41.946308724832214,NA
63044,St. Louis County,MO,NA,NA,NA,59.60912052117264
63052,Jefferson County,MO,NA,NA,63.08724832214765,NA
63090,Franklin County,MO,NA,NA,NA,47.23127035830619
63104,St. Louis city,MO,NA,61.37071651090342,NA,NA
63109,St. Louis city,MO,71.51248164464023,NA,43.95973154362416,NA
63110,St. Louis city,MO,NA,84.11214953271028,NA,NA
63111,St. Louis city,MO,NA,NA,NA,78.17589576547232
63116,St. Louis city,MO,NA,NA,NA,58.95765472312704
63120,St. Louis city,MO,NA,NA,83.55704697986577,NA
63136,St. Louis County,MO,NA,7.476635514018691,NA,NA
63137,St. Louis County,MO,NA,NA,46.644295302013425,NA
63138,St. Louis County,MO,NA,NA,NA,74.9185667752443
63146,St. Louis County,MO,NA,NA,36.241610738255034,NA
63366,St. Charles County,MO,NA,NA,NA,11.074918566775244
63367,St. Charles County,MO,NA,86.6043613707165,NA,NA
63368,St. Charles County,MO,NA,NA,23.154362416107382,NA
63376,St. Charles County,MO,NA,11.526479750778815,NA,NA
63379,Lincoln County,MO,28.781204111600587,NA,NA,NA
63385,St. Charles County,MO,12.041116005873716,NA,NA,NA
63601,St. Francois County,MO,NA,48.28660436137071,NA,NA
63825,Stoddard County,MO,NA,NA,94.29530201342283,NA
64012,Cass County,MO,NA,34.26791277258567,NA,NA
64060,Clay County,MO,26.725403817914835,NA,NA,NA
64067,Lafayette County,MO,NA,NA,NA,94.46254071661238
64081,Jackson County,MO,NA,NA,41.61073825503356,NA
64093,Johnson County,MO,66.51982378854625,NA,NA,NA
64131,Jackson County,MO,20.998531571218795,NA,NA,NA
64157,Clay County,MO,NA,38.940809968847354,NA,NA
64601,Livingston County,MO,NA,82.86604361370716,NA,NA
64701,Cass County,MO,35.389133627019085,NA,NA,NA
64836,Jasper County,MO,NA,23.05295950155763,NA,NA
65714,Christian County,MO,NA,NA,51.34228187919463,NA
65721,Christian County,MO,67.54772393538914,NA,NA,NA
59602,Lewis and Clark County,MT,NA,NA,NA,36.156351791530945
59715,Gallatin County,MT,NA,NA,NA,22.80130293159609
59725,Beaverhead County,MT,NA,98.13084112149532,NA,NA
59801,Missoula County,MT,NA,NA,68.79194630872483,NA
59803,Missoula County,MT,NA,90.65420560747664,NA,NA
59808,Missoula County,MT,NA,NA,NA,66.77524429967427
59833,Ravalli County,MT,NA,NA,84.8993288590604,NA
59840,Ravalli County,MT,82.23201174743025,NA,NA,NA
59860,Lake County,MT,NA,NA,NA,71.9869706840391
59901,Flathead County,MT,NA,NA,22.818791946308725,NA
68005,Sarpy County,NE,NA,NA,70.13422818791946,NA
68104,Douglas County,NE,NA,NA,NA,48.85993485342019
68124,Douglas County,NE,NA,NA,85.90604026845638,NA
68127,Douglas County,NE,NA,NA,78.18791946308725,NA
68128,Sarpy County,NE,NA,NA,77.18120805369128,NA
68131,Douglas County,NE,NA,NA,NA,94.13680781758957
68136,Sarpy County,NE,38.1791483113069,NA,NA,NA
68137,Douglas County,NE,42.437591776798826,NA,NA,NA
68164,Douglas County,NE,NA,NA,73.8255033557047,NA
68310,Gage County,NE,90.8957415565345,NA,NA,NA
68358,Lancaster County,NE,98.82525697503671,NA,NA,NA
68506,Lancaster County,NE,66.22613803230544,NA,NA,NA
68901,Adams County,NE,NA,71.96261682242991,NA,NA
69153,Keith County,NE,NA,95.01557632398755,NA,NA
69341,Scotts Bluff County,NE,NA,NA,NA,93.48534201954396
89103,Clark County,NV,NA,58.87850467289719,NA,NA
89108,Clark County,NV,NA,27.725856697819314,NA,NA
89122,Clark County,NV,39.500734214390604,NA,NA,NA
89141,Clark County,NV,NA,NA,81.20805369127517,NA
89147,Clark County,NV,80.91042584434655,NA,NA,NA
89149,Clark County,NV,69.16299559471366,NA,NA,NA
89431,Washoe County,NV,34.65491923641703,NA,NA,NA
89447,Lyon County,NV,NA,NA,NA,90.87947882736157
03801,Rockingham County,NH,NA,56.074766355140184,NA,NA
03848,Rockingham County,NH,NA,NA,NA,99.6742671009772
07030,Hudson County,NJ,47.43024963289281,NA,28.187919463087248,NA
07033,Union County,NJ,NA,NA,97.6510067114094,NA
07042,Essex County,NJ,NA,30.8411214953271,NA,NA
07043,Essex County,NJ,85.46255506607929,NA,NA,NA
07046,Morris County,NJ,NA,98.75389408099689,NA,NA
07052,Essex County,NJ,48.604992657856094,NA,NA,NA
07055,Passaic County,NJ,NA,1.557632398753894,NA,NA
07062,Union County,NJ,66.37298091042585,NA,NA,NA
07092,Union County,NJ,NA,83.48909657320873,NA,NA
07103,Essex County,NJ,NA,0.9345794392523363,NA,NA
07104,Essex County,NJ,NA,0.6230529595015576,NA,NA
07403,Passaic County,NJ,NA,NA,NA,86.31921824104235
07407,Bergen County,NJ,NA,NA,NA,68.40390879478826
07480,Passaic County,NJ,NA,NA,NA,78.50162866449512
07524,Passaic County,NJ,56.97503671071953,NA,NA,NA
07607,Bergen County,NJ,NA,NA,NA,88.92508143322475
07657,Bergen County,NJ,NA,NA,NA,88.27361563517914
07663,Bergen County,NJ,NA,NA,NA,87.29641693811075
07712,Monmouth County,NJ,NA,3.7383177570093453,NA,NA
07722,Monmouth County,NJ,79.73568281938326,NA,NA,NA
07764,Monmouth County,NJ,NA,92.83489096573209,NA,NA
07834,Morris County,NJ,NA,NA,NA,41.36807817589577
07882,Warren County,NJ,NA,NA,NA,78.82736156351791
08002,Camden County,NJ,NA,NA,46.97986577181208,NA
08005,Ocean County,NJ,64.4640234948605,NA,NA,NA
08021,Camden County,NJ,3.2305433186490458,NA,NA,NA
08086,Gloucester County,NJ,97.20998531571219,NA,NA,NA
08102,Camden County,NJ,78.41409691629956,NA,NA,NA
08107,Camden County,NJ,NA,NA,63.42281879194631,NA
08226,Cape May County,NJ,NA,NA,59.06040268456376,NA
08230,Cape May County,NJ,NA,NA,NA,94.78827361563518
08260,Cape May County,NJ,65.7856093979442,NA,27.516778523489933,NA
08322,Gloucester County,NJ,NA,59.50155763239875,NA,NA
08505,Burlington County,NJ,NA,88.78504672897196,NA,NA
08611,Mercer County,NJ,78.56093979441997,NA,NA,NA
08648,Mercer County,NJ,NA,NA,NA,56.67752442996743
08722,Ocean County,NJ,NA,55.45171339563863,NA,NA
08723,Ocean County,NJ,NA,19.626168224299064,NA,NA
08759,Ocean County,NJ,NA,NA,1.342281879194631,0
08831,Middlesex County,NJ,NA,NA,NA,1.3029315960912053
08850,Middlesex County,NJ,NA,97.50778816199377,NA,NA
08854,Middlesex County,NJ,NA,NA,NA,27.68729641693811
08859,Middlesex County,NJ,NA,54.82866043613706,NA,NA
08861,Middlesex County,NJ,2.4963289280469896,NA,NA,NA
08865,Warren County,NJ,NA,NA,NA,14.006514657980457
87105,Bernalillo County,NM,4.992657856093979,NA,NA,NA
87108,Bernalillo County,NM,NA,NA,NA,27.36156351791531
87109,Bernalillo County,NM,24.082232011747433,NA,NA,NA
87120,Bernalillo County,NM,11.45374449339207,NA,NA,NA
87121,Bernalillo County,NM,19.08957415565345,NA,NA,NA
87124,Sandoval County,NM,NA,NA,NA,12.37785016286645
87325,McKinley County,NM,89.86784140969164,NA,NA,NA
87401,San Juan County,NM,31.5712187958884,NA,NA,NA
87402,San Juan County,NM,73.7151248164464,NA,NA,NA
87410,San Juan County,NM,NA,70.40498442367601,NA,NA
87420,San Juan County,NM,31.42437591776799,NA,NA,NA
87532,Santa Fe County,NM,NA,NA,NA,59.28338762214984
88030,Luna County,NM,NA,NA,80.87248322147651,NA
88047,Doa Ana County,NM,97.94419970631424,NA,NA,NA
88203,Chaves County,NM,16.152716593245227,NA,NA,NA
10021,New York County,NY,NA,93.14641744548287,NA,NA
10029,New York County,NY,NA,NA,8.053691275167784,0.32573289902280134
10030,New York County,NY,38.47283406754772,NA,NA,NA
10044,New York County,NY,91.77679882525698,NA,NA,NA
10065,New York County,NY,NA,NA,NA,45.27687296416938
10302,Richmond County,NY,90.8957415565345,NA,NA,NA
10304,Richmond County,NY,40.52863436123348,NA,NA,NA
10305,Richmond County,NY,81.4977973568282,NA,NA,NA
10306,Richmond County,NY,NA,NA,17.78523489932886,NA
10310,Richmond County,NY,40.67547723935389,NA,NA,NA
10312,Richmond County,NY,NA,NA,NA,22.149837133550488
10453,Bronx County,NY,0.14684287812041116,NA,NA,NA
10454,Bronx County,NY,5.580029368575625,NA,NA,NA
10455,Bronx County,NY,NA,NA,10.40268456375839,NA
10457,Bronx County,NY,NA,NA,1.006711409395973,NA
10458,Bronx County,NY,NA,NA,NA,7.166123778501629
10459,Bronx County,NY,29.809104258443465,NA,NA,NA
10467,Bronx County,NY,NA,NA,0.33557046979865773,NA
10468,Bronx County,NY,NA,NA,3.0201342281879198,NA
10475,Bronx County,NY,NA,NA,NA,6.840390879478828
10705,Westchester County,NY,59.61820851688693,NA,NA,NA
10950,Orange County,NY,59.76505139500734,NA,NA,NA
11004,Queens County,NY,NA,NA,NA,72.9641693811075
11050,Nassau County,NY,NA,NA,84.56375838926175,NA
11206,Kings County,NY,33.03964757709251,NA,NA,NA
11209,Kings County,NY,NA,NA,20.13422818791946,NA
11212,Kings County,NY,NA,NA,9.060402684563758,NA
11218,Kings County,NY,4.405286343612335,NA,NA,NA
11221,Kings County,NY,28.34067547723935,NA,NA,NA
11223,Kings County,NY,NA,NA,NA,5.863192182410423
11225,Kings County,NY,61.820851688693104,NA,NA,NA
11229,Kings County,NY,NA,NA,20.469798657718123,NA
11357,Queens County,NY,NA,NA,NA,33.55048859934853
11366,Queens County,NY,NA,NA,NA,74.5928338762215
11368,Queens County,NY,NA,6.853582554517133,NA,NA
11375,Queens County,NY,90.45521292217327,NA,NA,NA
11385,Queens County,NY,32.59911894273127,NA,NA,NA
11412,Queens County,NY,NA,NA,51.006711409395976,NA
11421,Queens County,NY,NA,71.65109034267913,NA,NA
11426,Queens County,NY,NA,NA,81.87919463087249,NA
11428,Queens County,NY,NA,90.03115264797508,NA,NA
11510,Nassau County,NY,69.89720998531571,NA,NA,NA
11550,Nassau County,NY,2.3494860499265786,NA,NA,NA
11570,Nassau County,NY,NA,NA,NA,44.951140065146575
11575,Nassau County,NY,84.14096916299559,NA,NA,NA
11580,Nassau County,NY,NA,NA,58.38926174496645,NA
11706,Suffolk County,NY,NA,NA,NA,18.892508143322477
11714,Nassau County,NY,78.12041116005874,NA,NA,NA
11717,Suffolk County,NY,15.27165932452276,NA,NA,NA
11722,Suffolk County,NY,NA,60.43613707165109,NA,NA
11747,Suffolk County,NY,NA,93.45794392523365,NA,NA
11758,Nassau County,NY,88.10572687224669,NA,NA,NA
11767,Suffolk County,NY,NA,NA,93.6241610738255,NA
11769,Suffolk County,NY,NA,NA,NA,93.81107491856677
11793,Nassau County,NY,NA,NA,90.93959731543623,NA
11801,Nassau County,NY,NA,NA,NA,52.11726384364821
11971,Suffolk County,NY,NA,NA,NA,96.41693811074919
12009,Albany County,NY,NA,NA,96.64429530201343,NA
12203,Albany County,NY,NA,NA,43.288590604026844,NA
12401,Ulster County,NY,33.77386196769457,NA,NA,NA
12524,Dutchess County,NY,99.55947136563876,NA,NA,NA
12563,Putnam County,NY,95.59471365638767,NA,NA,NA
13029,Onondaga County,NY,60.4992657856094,NA,NA,NA
13118,Cayuga County,NY,86.78414096916299,NA,NA,NA
13166,Cayuga County,NY,NA,NA,90.26845637583892,NA
13207,Onondaga County,NY,NA,36.44859813084112,NA,NA
13208,Onondaga County,NY,NA,NA,38.92617449664429,NA
13215,Onondaga County,NY,NA,55.7632398753894,NA,NA
13316,Oneida County,NY,NA,68.53582554517133,69.46308724832215,NA
13365,Herkimer County,NY,36.41703377386197,85.66978193146417,NA,NA
13438,Oneida County,NY,NA,95.6386292834891,NA,NA
13760,Broome County,NY,NA,8.09968847352025,NA,NA
13787,Broome County,NY,98.6784140969163,NA,NA,NA
13790,Broome County,NY,NA,9.968847352024921,NA,NA
13856,Delaware County,NY,NA,NA,74.49664429530202,NA
13865,Broome County,NY,74.00881057268722,NA,NA,NA
14048,Chautauqua County,NY,29.368575624082233,NA,NA,NA
14059,Erie County,NY,76.5051395007342,NA,NA,NA
14070,Erie County,NY,NA,81.93146417445483,NA,95.11400651465797
14150,Erie County,NY,14.977973568281937,NA,NA,NA
14206,Erie County,NY,NA,16.510903426791277,NA,NA
14217,Erie County,NY,54.77239353891336,NA,NA,NA
14218,Erie County,NY,NA,23.364485981308412,NA,NA
14221,Erie County,NY,NA,13.084112149532709,NA,NA
14224,Erie County,NY,NA,31.464174454828658,NA,NA
14225,Erie County,NY,NA,9.657320872274143,NA,NA
14304,Niagara County,NY,17.033773861967695,NA,5.369127516778524,NA
14305,Niagara County,NY,NA,5.29595015576324,NA,NA
14437,Livingston County,NY,43.75917767988253,NA,47.31543624161073,NA
14454,Livingston County,NY,NA,NA,NA,79.80456026058633
14468,Monroe County,NY,NA,21.806853582554517,NA,NA
14522,Wayne County,NY,NA,38.62928348909657,NA,NA
14527,Yates County,NY,NA,33.33333333333333,NA,NA
14605,Monroe County,NY,74.74302496328929,NA,NA,NA
14606,Monroe County,NY,NA,20.87227414330218,NA,NA
14608,Monroe County,NY,35.24229074889868,NA,NA,NA
14609,Monroe County,NY,NA,NA,NA,21.172638436482085
14613,Monroe County,NY,NA,NA,36.91275167785235,NA
14617,Monroe County,NY,NA,6.230529595015576,NA,NA
14619,Monroe County,NY,NA,NA,NA,91.20521172638436
14620,Monroe County,NY,NA,NA,NA,37.785016286644954
14624,Monroe County,NY,NA,3.115264797507788,NA,NA
14737,Cattaraugus County,NY,83.84728340675477,NA,NA,NA
14760,Cattaraugus County,NY,NA,11.214953271028037,NA,NA
14772,Cattaraugus County,NY,91.33627019089575,NA,NA,NA
14830,Steuben County,NY,NA,61.99376947040498,NA,NA
14845,Chemung County,NY,16.593245227606463,NA,NA,NA
27028,Davie County,NC,NA,18.69158878504673,NA,NA
27030,Surry County,NC,NA,NA,2.013422818791946,NA
27103,Forsyth County,NC,NA,18.06853582554517,NA,NA
27105,Forsyth County,NC,2.0558002936857562,2.1806853582554515,NA,NA
27260,Guilford County,NC,NA,NA,56.711409395973156,NA
27295,Davidson County,NC,4.1116005873715125,NA,NA,NA
27502,Wake County,NC,20.26431718061674,NA,NA,NA
27530,Wayne County,NC,56.82819383259912,NA,NA,NA
27573,Person County,NC,NA,50.467289719626166,NA,NA
27587,Wake County,NC,15.27165932452276,NA,NA,NA
27596,Franklin County,NC,53.59765051395007,NA,NA,NA
27703,Durham County,NC,16.299559471365637,NA,NA,NA
27707,Durham County,NC,NA,15.264797507788161,NA,NA
27830,Wayne County,NC,NA,97.81931464174455,NA,NA
27858,Pitt County,NC,NA,NA,NA,56.02605863192183
27893,Wilson County,NC,20.411160058737153,NA,24.832214765100673,NA
27932,Chowan County,NC,70.63142437591777,NA,NA,NA
27958,Currituck County,NC,93.97944199706313,NA,NA,NA
28027,Cabarrus County,NC,7.782672540381791,NA,NA,NA
28043,Rutherford County,NC,NA,NA,NA,50.4885993485342
28110,Union County,NC,56.53450807635829,NA,NA,NA
28206,Mecklenburg County,NC,NA,45.794392523364486,NA,NA
28208,Mecklenburg County,NC,NA,10.2803738317757,NA,NA
28212,Mecklenburg County,NC,13.656387665198238,NA,NA,NA
28301,Cumberland County,NC,37.15124816446402,NA,NA,NA
28303,Cumberland County,NC,NA,NA,NA,50.1628664495114
28315,Moore County,NC,NA,80.68535825545172,NA,NA
28358,Robeson County,NC,NA,NA,30.87248322147651,NA
28376,Hoke County,NC,NA,36.13707165109034,NA,NA
28401,New Hanover County,NC,14.243759177679882,NA,NA,NA
28411,New Hanover County,NC,43.02496328928047,NA,NA,NA
28412,New Hanover County,NC,NA,19.003115264797508,NA,NA
28425,Pender County,NC,76.94566813509545,NA,NA,NA
28546,Onslow County,NC,NA,32.087227414330215,NA,NA
28572,Duplin County,NC,NA,95.32710280373831,NA,NA
28625,Iredell County,NC,NA,NA,19.798657718120804,NA
28630,Caldwell County,NC,NA,NA,NA,53.420195439739416
28713,Swain County,NC,NA,NA,NA,73.9413680781759
28752,McDowell County,NC,NA,NA,15.100671140939598,NA
28777,Mitchell County,NC,60.4992657856094,NA,NA,NA
28791,Henderson County,NC,67.1071953010279,NA,NA,NA
58104,Cass County,ND,5.4331864904552125,NA,NA,NA
58504,Burleigh County,ND,51.98237885462555,NA,NA,NA
58538,Sioux County,ND,95.88839941262849,NA,NA,NA
58701,Ward County,ND,25.25697503671072,NA,NA,1.6286644951140066
58703,Ward County,ND,79.58883994126285,NA,NA,NA
58854,McKenzie County,ND,95.59471365638767,NA,NA,NA
43017,Franklin County,OH,31.277533039647576,NA,NA,NA
43138,Hocking County,OH,17.327459618208515,NA,NA,NA
43160,Fayette County,OH,NA,16.1993769470405,NA,NA
43204,Franklin County,OH,NA,5.607476635514018,NA,NA
43205,Franklin County,OH,NA,50.77881619937694,NA,NA
43447,Wood County,OH,NA,NA,98.3221476510067,NA
43515,Fulton County,OH,79.00146842878121,NA,NA,NA
43518,Williams County,OH,NA,NA,94.63087248322147,NA
43556,Defiance County,OH,96.32892804698973,NA,NA,NA
43606,Lucas County,OH,8.516886930983848,NA,NA,NA
43608,Lucas County,OH,3.0837004405286343,9.345794392523365,NA,NA
43617,Lucas County,OH,78.8546255506608,NA,NA,NA
43701,Muskingum County,OH,0,NA,NA,NA
43812,Coshocton County,OH,10.13215859030837,NA,NA,NA
43906,Belmont County,OH,50.95447870778267,NA,NA,NA
43920,Columbiana County,OH,NA,NA,NA,14.65798045602606
44035,Lorain County,OH,0.2936857562408223,0.3115264797507788,NA,NA
44055,Lorain County,OH,1.4684287812041115,NA,NA,NA
44094,Lake County,OH,NA,54.51713395638629,NA,NA
44104,Cuyahoga County,OH,43.4654919236417,NA,NA,NA
44111,Cuyahoga County,OH,NA,NA,NA,49.8371335504886
44122,Cuyahoga County,OH,NA,29.906542056074763,NA,NA
44128,Cuyahoga County,OH,NA,3.4267912772585665,NA,NA
44135,Cuyahoga County,OH,1.762114537444934,NA,NA,NA
44136,Cuyahoga County,OH,NA,NA,NA,15.309446254071663
44144,Cuyahoga County,OH,NA,13.707165109034266,NA,NA
44145,Cuyahoga County,OH,NA,NA,7.046979865771812,NA
44221,Summit County,OH,34.2143906020558,NA,NA,NA
44256,Medina County,OH,NA,NA,0.6711409395973155,NA
44312,Summit County,OH,NA,NA,NA,23.452768729641694
44429,Mahoning County,OH,NA,NA,99.66442953020133,NA
44432,Columbiana County,OH,NA,NA,76.1744966442953,NA
44446,Trumbull County,OH,NA,NA,NA,16.938110749185668
44484,Trumbull County,OH,22.61380323054332,NA,NA,NA
44485,Trumbull County,OH,6.4610866372980915,NA,NA,NA
44505,Mahoning County,OH,NA,NA,NA,34.85342019543974
44507,Mahoning County,OH,12.334801762114537,NA,NA,NA
44512,Mahoning County,OH,6.901615271659324,NA,NA,NA
44515,Mahoning County,OH,NA,42.679127725856695,NA,59.934853420195445
44646,Stark County,OH,8.076358296622614,NA,NA,NA
44647,Stark County,OH,51.395007342143906,NA,NA,NA
44707,Stark County,OH,NA,66.04361370716511,NA,NA
44708,Stark County,OH,65.63876651982379,NA,NA,NA
44811,Sandusky County,OH,51.98237885462555,NA,NA,NA
45002,Hamilton County,OH,NA,84.42367601246106,NA,NA
45014,Butler County,OH,NA,17.75700934579439,NA,NA
45103,Clermont County,OH,24.669603524229075,NA,NA,NA
45159,Clinton County,OH,95.15418502202643,NA,NA,NA
45224,Hamilton County,OH,NA,27.102803738317753,NA,NA
45231,Hamilton County,OH,NA,NA,NA,13.355048859934854
45242,Hamilton County,OH,NA,NA,NA,41.042345276872965
45244,Hamilton County,OH,NA,NA,50.33557046979866,NA
45255,Hamilton County,OH,NA,NA,50,NA
45311,Preble County,OH,NA,NA,92.61744966442953,NA
45324,Greene County,OH,NA,10.59190031152648,NA,NA
45356,Miami County,OH,NA,NA,12.416107382550337,NA
45405,Montgomery County,OH,14.537444933920703,NA,NA,NA
45410,Montgomery County,OH,NA,NA,90.60402684563759,NA
45414,Montgomery County,OH,69.01615271659325,NA,NA,NA
45426,Montgomery County,OH,NA,NA,NA,57.98045602605863
45662,Scioto County,OH,NA,NA,3.3557046979865772,NA
45680,Lawrence County,OH,NA,15.57632398753894,NA,NA
45694,Scioto County,OH,NA,34.890965732087224,NA,NA
45804,Allen County,OH,19.530102790014684,NA,NA,NA
45805,Allen County,OH,NA,NA,NA,28.013029315960914
45810,Hardin County,OH,71.95301027900148,NA,NA,NA
45885,Auglaize County,OH,63.729809104258436,NA,NA,NA
73051,Cleveland County,OK,NA,NA,89.93288590604027,NA
73055,Stephens County,OK,NA,77.88161993769471,NA,NA
73077,Noble County,OK,NA,NA,85.57046979865773,NA
73114,Oklahoma County,OK,63.87665198237885,NA,NA,NA
73130,Oklahoma County,OK,67.98825256975036,NA,NA,NA
73150,Oklahoma County,OK,99.26578560939795,NA,NA,NA
73439,Marshall County,OK,85.90308370044053,NA,NA,NA
73501,Comanche County,OK,68.57562408223201,NA,NA,NA
73521,Jackson County,OK,45.37444933920705,NA,NA,NA
73533,Stephens County,OK,NA,NA,13.087248322147651,NA
74011,Tulsa County,OK,NA,70.7165109034268,NA,57.32899022801303
74012,Tulsa County,OK,10.425844346549193,NA,NA,NA
74014,Wagoner County,OK,NA,42.05607476635514,NA,NA
74036,Rogers County,OK,NA,NA,97.98657718120806,NA
74112,Tulsa County,OK,NA,NA,NA,72.63843648208469
74114,Tulsa County,OK,82.08516886930984,NA,NA,NA
74126,Tulsa County,OK,NA,81.61993769470405,NA,NA
74352,Mayes County,OK,NA,91.90031152647975,NA,NA
74361,Mayes County,OK,NA,NA,66.44295302013423,NA
74365,Mayes County,OK,NA,NA,NA,97.06840390879479
74432,McIntosh County,OK,NA,NA,55.033557046979865,NA
74868,Seminole County,OK,48.604992657856094,NA,NA,NA
74948,Sequoyah County,OK,71.95301027900148,NA,NA,NA
97031,Hood River County,OR,77.82672540381792,NA,NA,NA
97055,Clackamas County,OR,81.35095447870778,NA,NA,56.35179153094463
97078,Washington County,OR,54.478707782672544,NA,NA,NA
97080,Multnomah County,OR,36.27019089574156,NA,NA,NA
97086,Clackamas County,OR,NA,NA,72.14765100671141,NA
97123,Washington County,OR,40.23494860499266,NA,NA,NA
97211,Multnomah County,OR,NA,NA,NA,69.70684039087948
97216,Multnomah County,OR,NA,NA,69.12751677852349,NA
97218,Multnomah County,OR,NA,77.57009345794393,NA,NA
97220,Multnomah County,OR,NA,NA,32.5503355704698,NA
97229,Washington County,OR,NA,NA,74.83221476510067,NA
97233,Multnomah County,OR,NA,20.24922118380062,NA,NA
97236,Multnomah County,OR,NA,NA,NA,63.84364820846905
97301,Marion County,OR,NA,14.953271028037381,NA,NA
97302,Marion County,OR,NA,47.66355140186916,NA,NA
97355,Linn County,OR,15.859030837004406,NA,NA,NA
97467,Douglas County,OR,NA,NA,73.15436241610739,NA
97470,Douglas County,OR,35.97650513950074,NA,NA,NA
97471,Douglas County,OR,NA,21.49532710280374,NA,NA
97479,Douglas County,OR,NA,NA,NA,49.5114006514658
97501,Jackson County,OR,22.173274596182086,NA,NA,NA
97502,Jackson County,OR,NA,44.54828660436137,NA,NA
97603,Klamath County,OR,NA,NA,NA,2.9315960912052117
97630,Lake County,OR,NA,NA,NA,99.3485342019544
97701,Deschutes County,OR,NA,66.97819314641744,NA,NA
97756,Deschutes County,OR,NA,NA,20.80536912751678,NA
97801,Umatilla County,OR,NA,41.1214953271028,NA,NA
97844,Morrow County,OR,NA,94.0809968847352,NA,NA
15022,Washington County,PA,89.5741556534508,NA,NA,NA
15033,Washington County,PA,NA,NA,98.65771812080537,NA
15136,Allegheny County,PA,NA,NA,38.59060402684564,NA
15401,Fayette County,PA,NA,8.722741433021806,NA,NA
15478,Fayette County,PA,NA,NA,65.1006711409396,NA
15714,Cambria County,PA,93.97944199706313,NA,NA,NA
15853,Elk County,PA,84.28781204111601,NA,NA,NA
16001,Butler County,PA,NA,NA,2.684563758389262,1.9543973941368076
16150,Mercer County,PA,NA,NA,NA,87.29641693811075
16157,Lawrence County,PA,98.38472834067548,NA,NA,NA
16749,McKean County,PA,87.51835535976505,NA,NA,NA
17046,Lebanon County,PA,6.607929515418502,NA,NA,NA
17051,Mifflin County,PA,96.91629955947137,NA,NA,NA
17070,Cumberland County,PA,NA,NA,44.966442953020135,NA
17074,Perry County,PA,NA,75.0778816199377,NA,NA
17268,Franklin County,PA,NA,NA,23.48993288590604,NA
17403,York County,PA,NA,NA,4.697986577181208,NA
17603,Lancaster County,PA,13.069016152716593,NA,NA,NA
17756,Lycoming County,PA,55.06607929515418,NA,NA,NA
17820,Columbia County,PA,NA,87.22741433021807,NA,NA
17821,Montour County,PA,NA,31.15264797507788,NA,NA
17857,Northumberland County,PA,NA,71.02803738317756,NA,NA
18067,Northampton County,PA,NA,NA,29.53020134228188,NA
18080,Lehigh County,PA,NA,NA,80.53691275167785,NA
18102,Lehigh County,PA,0.4405286343612335,NA,NA,23.12703583061889
18360,Monroe County,PA,NA,34.57943925233645,NA,NA
18444,Lackawanna County,PA,82.23201174743025,NA,NA,NA
18447,Lackawanna County,PA,NA,NA,NA,65.79804560260585
18966,Bucks County,PA,30.102790014684288,NA,NA,NA
18976,Bucks County,PA,NA,NA,48.322147651006716,NA
19004,Montgomery County,PA,NA,NA,NA,96.09120521172639
19010,Delaware County,PA,NA,NA,43.624161073825505,NA
19015,Delaware County,PA,NA,NA,47.98657718120805,NA
19018,Delaware County,PA,NA,NA,NA,64.16938110749186
19022,Delaware County,PA,NA,100,NA,NA
19027,Montgomery County,PA,NA,79.12772585669782,NA,NA
19034,Montgomery County,PA,NA,96.26168224299066,NA,NA
19040,Montgomery County,PA,NA,NA,48.99328859060403,30.618892508143325
19044,Montgomery County,PA,62.70190895741556,NA,NA,NA
19050,Delaware County,PA,25.844346549192366,NA,NA,NA
19067,Bucks County,PA,33.92070484581498,NA,NA,NA
19082,Delaware County,PA,12.334801762114537,NA,NA,NA
19083,Delaware County,PA,NA,NA,NA,25.407166123778502
19085,Delaware County,PA,NA,NA,95.9731543624161,NA
19115,Philadelphia County,PA,NA,NA,NA,13.029315960912053
19120,Philadelphia County,PA,NA,22.429906542056074,NA,NA
19124,Philadelphia County,PA,NA,1.2461059190031152,NA,NA
19131,Philadelphia County,PA,7.929515418502203,NA,NA,NA
19133,Philadelphia County,PA,NA,NA,34.899328859060404,NA
19134,Philadelphia County,PA,NA,4.049844236760125,NA,NA
19139,Philadelphia County,PA,5.873715124816446,4.361370716510903,NA,NA
19140,Philadelphia County,PA,0.7342143906020557,2.4922118380062304,NA,NA
19145,Philadelphia County,PA,7.048458149779736,NA,NA,NA
19146,Philadelphia County,PA,22.61380323054332,NA,NA,NA
19148,Philadelphia County,PA,71.51248164464023,NA,NA,NA
19149,Philadelphia County,PA,4.552129221732746,NA,NA,NA
19153,Philadelphia County,PA,NA,NA,NA,71.33550488599349
19335,Chester County,PA,NA,22.118380062305295,NA,NA
19341,Chester County,PA,NA,NA,NA,58.63192182410424
19342,Delaware County,PA,NA,NA,51.67785234899329,NA
19352,Chester County,PA,82.23201174743025,NA,NA,NA
19403,Montgomery County,PA,NA,NA,33.89261744966443,NA
19446,Montgomery County,PA,NA,NA,NA,8.469055374592834
19464,Montgomery County,PA,11.013215859030836,NA,NA,NA
19508,Berks County,PA,NA,57.009345794392516,NA,NA
19510,Berks County,PA,17.76798825256975,NA,NA,NA
19606,Berks County,PA,NA,NA,NA,17.91530944625407
02840,Newport County,RI,NA,NA,NA,58.306188925081436
02863,Providence County,RI,NA,67.91277258566979,NA,NA
02886,Kent County,RI,32.011747430249635,NA,NA,9.446254071661238
02906,Providence County,RI,NA,59.813084112149525,NA,NA
02907,Providence County,RI,NA,NA,NA,51.465798045602604
02909,Providence County,RI,NA,NA,37.58389261744966,NA
02919,Providence County,RI,NA,NA,NA,20.521172638436482
02920,Providence County,RI,39.20704845814978,NA,NA,NA
29108,Newberry County,SC,49.632892804698976,NA,NA,NA
29203,Richland County,SC,22.46696035242291,NA,NA,NA
29340,Cherokee County,SC,NA,NA,NA,80.78175895765473
29349,Spartanburg County,SC,NA,NA,60.738255033557046,NA
29379,Union County,SC,72.54038179148311,NA,NA,NA
29464,Charleston County,SC,NA,NA,NA,16.612377850162865
29470,Charleston County,SC,NA,97.19626168224299,NA,NA
29486,Berkeley County,SC,NA,64.17445482866043,NA,NA
29566,Horry County,SC,94.27312775330397,NA,NA,NA
29588,Horry County,SC,70.33773861967695,NA,NA,NA
29640,Pickens County,SC,NA,NA,24.161073825503358,NA
29687,Greenville County,SC,29.22173274596182,NA,NA,NA
29690,Greenville County,SC,NA,44.85981308411215,NA,NA
29697,Anderson County,SC,70.92511013215858,NA,NA,NA
29803,Aiken County,SC,NA,NA,10.06711409395973,NA
57005,Minnehaha County,SD,NA,NA,NA,91.53094462540716
57069,Clay County,SD,59.1776798825257,90.96573208722741,NA,NA
57105,Minnehaha County,SD,NA,NA,12.080536912751679,NA
57108,Lincoln County,SD,NA,NA,NA,8.143322475570033
57501,Hughes County,SD,NA,NA,NA,28.990228013029316
57701,Pennington County,SD,NA,NA,18.456375838926174,NA
57772,Shannon County,SD,80.32305433186491,NA,NA,NA
57785,Meade County,SD,86.34361233480176,NA,NA,NA
37042,Montgomery County,TN,NA,NA,39.59731543624161,NA
37055,Dickson County,TN,50.95447870778267,NA,NA,NA
37075,Sumner County,TN,NA,NA,NA,10.749185667752444
37086,Rutherford County,TN,25.40381791483113,NA,NA,NA
37087,Wilson County,TN,NA,NA,NA,28.338762214983714
37110,Warren County,TN,NA,NA,26.51006711409396,NA
37115,Davidson County,TN,NA,13.395638629283487,NA,NA
37122,Wilson County,TN,9.544787077826726,NA,NA,NA
37148,Sumner County,TN,49.04552129221732,NA,NA,NA
37211,Davidson County,TN,8.223201174743025,NA,NA,NA
37312,Bradley County,TN,NA,47.0404984423676,NA,NA
37331,McMinn County,TN,92.07048458149781,NA,NA,NA
37334,Lincoln County,TN,NA,NA,31.879194630872483,NA
37663,Sullivan County,TN,51.395007342143906,NA,NA,NA
37686,Sullivan County,TN,NA,87.53894080996885,NA,NA
37743,Greene County,TN,NA,14.330218068535824,NA,NA
37745,Greene County,TN,18.502202643171806,NA,NA,NA
38012,Haywood County,TN,NA,81.30841121495327,NA,NA
38080,Lake County,TN,97.79735682819384,NA,NA,NA
38116,Shelby County,TN,6.31424375917768,NA,NA,NA
38141,Shelby County,TN,44.052863436123346,NA,NA,NA
38301,Madison County,TN,NA,10.903426791277258,NA,NA
38320,Benton County,TN,59.03083700440529,NA,NA,NA
38343,Gibson County,TN,NA,NA,NA,79.15309446254072
38351,Henderson County,TN,11.894273127753303,NA,NA,NA
38463,Wayne County,TN,NA,99.37694704049844,NA,NA
38501,Putnam County,TN,27.45961820851689,NA,NA,NA
75010,Denton County,TX,30.102790014684288,NA,NA,NA
75013,Collin County,TX,NA,NA,70.46979865771812,NA
75050,Dallas County,TX,NA,NA,55.70469798657718,NA
75051,Dallas County,TX,9.104258443465492,NA,53.02013422818792,NA
75057,Denton County,TX,82.23201174743025,NA,NA,NA
75060,Dallas County,TX,33.33333333333333,NA,NA,NA
75063,Dallas County,TX,NA,63.2398753894081,NA,NA
75067,Denton County,TX,9.838472834067549,NA,NA,NA
75068,Denton County,TX,NA,NA,60.40268456375839,NA
75087,Rockwall County,TX,37.44493392070485,NA,NA,NA
75090,Grayson County,TX,28.781204111600587,NA,NA,NA
75092,Grayson County,TX,60.4992657856094,NA,NA,NA
75116,Dallas County,TX,NA,NA,87.24832214765101,NA
75154,Ellis County,TX,15.712187958883995,NA,NA,NA
75228,Dallas County,TX,4.258443465491924,NA,NA,26.058631921824105
75231,Dallas County,TX,9.985315712187958,NA,NA,NA
75401,Hunt County,TX,NA,NA,62.08053691275168,NA
75442,Collin County,TX,NA,83.8006230529595,NA,NA
75633,Panola County,TX,65.05139500734214,NA,NA,NA
75638,Morris County,TX,77.97356828193833,NA,NA,NA
75662,Gregg County,TX,25.697503671071953,NA,NA,NA
76033,Johnson County,TX,NA,NA,NA,89.57654723127035
76105,Tarrant County,TX,NA,24.299065420560748,NA,NA
76108,Tarrant County,TX,27.45961820851689,NA,NA,NA
76123,Tarrant County,TX,NA,NA,NA,88.27361563517914
76134,Tarrant County,TX,NA,NA,65.43624161073825,NA
76205,Denton County,TX,77.38619676945669,NA,NA,NA
76210,Denton County,TX,NA,61.6822429906542,NA,NA
76240,Cooke County,TX,NA,NA,37.919463087248324,NA
76273,Grayson County,TX,96.0352422907489,NA,NA,NA
76424,Stephens County,TX,56.24082232011748,NA,NA,NA
76528,Coryell County,TX,NA,NA,NA,92.50814332247556
76542,Bell County,TX,NA,NA,63.758389261744966,NA
76543,Bell County,TX,39.647577092511014,NA,NA,NA
76549,Bell County,TX,NA,NA,33.22147651006711,NA
76550,Lampasas County,TX,NA,69.1588785046729,61.40939597315436,NA
76574,Williamson County,TX,NA,NA,NA,42.34527687296417
76643,McLennan County,TX,79.88252569750367,NA,NA,NA
76692,Hill County,TX,81.20411160058737,NA,NA,NA
76950,Sutton County,TX,96.76945668135095,NA,NA,NA
77005,Harris County,TX,NA,NA,NA,65.14657980456026
77020,Harris County,TX,NA,64.48598130841121,NA,NA
77031,Harris County,TX,NA,NA,86.57718120805369,NA
77033,Harris County,TX,33.92070484581498,NA,NA,NA
77035,Harris County,TX,32.74596182085169,46.10591900311526,NA,NA
77044,Harris County,TX,22.173274596182086,NA,NA,NA
77053,Fort Bend County,TX,62.55506607929515,NA,NA,NA
77060,Harris County,TX,NA,NA,79.53020134228188,NA
77067,Harris County,TX,NA,78.50467289719626,NA,NA
77072,Harris County,TX,24.375917767988252,NA,NA,NA
77073,Harris County,TX,45.08076358296623,NA,NA,NA
77086,Harris County,TX,20.411160058737153,NA,NA,NA
77089,Harris County,TX,23.348017621145374,NA,NA,NA
77095,Harris County,TX,NA,NA,14.093959731543624,NA
77098,Harris County,TX,92.80469897209986,NA,NA,NA
77304,Montgomery County,TX,40.969162995594715,NA,NA,NA
77351,Polk County,TX,44.7870778267254,NA,NA,31.27035830618892
77354,Montgomery County,TX,25.844346549192366,NA,NA,NA
77373,Harris County,TX,19.970631424375917,NA,NA,NA
77381,Montgomery County,TX,60.4992657856094,73.20872274143302,NA,NA
77418,Austin County,TX,79.44199706314244,NA,NA,NA
77511,Brazoria County,TX,NA,19.314641744548286,NA,NA
77515,Brazoria County,TX,56.093979441997064,NA,NA,NA
77530,Harris County,TX,NA,NA,87.91946308724832,NA
77536,Harris County,TX,NA,43.613707165109034,NA,NA
77551,Galveston County,TX,38.032305433186494,NA,NA,NA
77575,Liberty County,TX,NA,71.33956386292834,NA,NA
77581,Brazoria County,TX,30.837004405286343,NA,NA,NA
77583,Brazoria County,TX,37.15124816446402,NA,NA,NA
77584,Brazoria County,TX,12.922173274596183,NA,NA,NA
77591,Galveston County,TX,23.494860499265783,NA,NA,NA
77642,Jefferson County,TX,42.143906020558006,NA,34.22818791946309,NA
77701,Jefferson County,TX,NA,NA,69.79865771812081,NA
77871,Leon County,TX,94.27312775330397,NA,NA,NA
77979,Calhoun County,TX,76.5051395007342,NA,NA,NA
78026,Atascosa County,TX,NA,NA,NA,93.15960912052117
78040,Webb County,TX,NA,46.41744548286604,NA,NA
78041,Webb County,TX,28.046989720998532,NA,NA,NA
78046,Webb County,TX,1.3215859030837005,NA,NA,NA
78061,Frio County,TX,88.69309838472834,NA,NA,NA
78076,Zapata County,TX,NA,NA,91.2751677852349,NA
78101,Bexar County,TX,NA,96.88473520249221,NA,NA
78114,Wilson County,TX,53.59765051395007,NA,NA,NA
78155,Guadalupe County,TX,NA,NA,32.21476510067114,NA
78207,Bexar County,TX,NA,26.168224299065418,NA,NA
78218,Bexar County,TX,3.671071953010279,NA,57.71812080536913,NA
78219,Bexar County,TX,NA,NA,67.11409395973155,NA
78222,Bexar County,TX,NA,72.58566978193146,NA,NA
78224,Bexar County,TX,42.731277533039645,NA,NA,NA
78240,Bexar County,TX,NA,NA,NA,38.762214983713356
78245,Bexar County,TX,14.831130690161526,NA,NA,NA
78332,Jim Wells County,TX,50.22026431718062,NA,NA,NA
78411,Nueces County,TX,41.70337738619677,NA,NA,NA
78412,Nueces County,TX,27.900146842878122,NA,NA,NA
78503,Hidalgo County,TX,NA,NA,NA,81.43322475570032
78516,Hidalgo County,TX,17.474302496328928,NA,56.04026845637584,NA
78538,Hidalgo County,TX,70.92511013215858,NA,NA,NA
78542,Hidalgo County,TX,NA,NA,NA,55.37459283387622
78559,Cameron County,TX,86.34361233480176,NA,NA,NA
78570,Hidalgo County,TX,NA,NA,NA,61.23778501628665
78583,Cameron County,TX,90.7488986784141,NA,NA,NA
78642,Williamson County,TX,84.43465491923642,NA,NA,NA
78653,Travis County,TX,57.856093979442,NA,NA,NA
78660,Travis County,TX,NA,NA,34.56375838926174,NA
78735,Travis County,TX,NA,NA,NA,83.71335504885994
78852,Maverick County,TX,30.983847283406757,NA,NA,NA
78861,Medina County,TX,92.51101321585902,83.17757009345794,NA,NA
79603,Taylor County,TX,NA,NA,NA,43.648208469055376
79705,Midland County,TX,17.033773861967695,NA,NA,NA
79706,Midland County,TX,20.851688693098385,NA,NA,NA
79761,Ector County,TX,30.396475770925107,NA,NA,NA
79912,El Paso County,TX,NA,33.64485981308411,NA,NA
79928,El Paso County,TX,18.502202643171806,NA,NA,NA
79936,El Paso County,TX,8.81057268722467,NA,NA,NA
79938,El Paso County,TX,14.390602055800294,NA,NA,NA
84003,Utah County,UT,NA,NA,NA,69.38110749185668
84005,Utah County,UT,70.63142437591777,NA,NA,NA
84009,Salt Lake County,UT,NA,NA,64.09395973154362,85.01628664495115
84015,Davis County,UT,NA,NA,52.68456375838926,NA
84025,Davis County,UT,69.7503671071953,NA,NA,NA
84041,Davis County,UT,16.593245227606463,NA,NA,NA
84043,Utah County,UT,NA,50.155763239875384,NA,NA
84054,Davis County,UT,69.89720998531571,NA,NA,NA
84057,Utah County,UT,NA,72.27414330218068,NA,NA
84066,Duchesne County,UT,NA,66.35514018691589,NA,NA
84067,Weber County,UT,60.352422907488986,NA,NA,NA
84081,Salt Lake County,UT,46.40234948604993,NA,NA,NA
84084,Salt Lake County,UT,73.42143906020559,NA,NA,NA
84102,Salt Lake County,UT,NA,NA,89.59731543624162,NA
84105,Salt Lake County,UT,NA,80.99688473520249,NA,NA
84117,Salt Lake County,UT,58.590308370044056,NA,NA,NA
84120,Salt Lake County,UT,54.62555066079295,NA,NA,NA
84121,Salt Lake County,UT,58.883994126284875,NA,NA,NA
84128,Salt Lake County,UT,NA,43.925233644859816,NA,NA
84606,Utah County,UT,87.07782672540382,NA,NA,NA
84651,Utah County,UT,33.627019089574155,NA,NA,NA
84701,Sevier County,UT,NA,NA,96.97986577181209,NA
84720,Iron County,UT,NA,NA,76.51006711409396,NA
84770,Washington County,UT,NA,NA,NA,8.469055374592834
84780,Washington County,UT,NA,NA,NA,48.534201954397396
05482,Chittenden County,VT,NA,NA,NA,65.47231270358306
05819,Caledonia County,VT,NA,NA,NA,73.28990228013029
20148,Loudoun County,VA,28.781204111600587,NA,NA,NA
20166,Loudoun County,VA,95.00734214390602,NA,NA,NA
22015,Fairfax County,VA,48.164464023494865,NA,NA,NA
22026,Prince William County,VA,77.09251101321586,NA,NA,NA
22042,Fairfax County,VA,39.20704845814978,NA,NA,NA
22151,Fairfax County,VA,99.41262848751835,NA,NA,NA
22193,Prince William County,VA,4.698972099853157,NA,NA,NA
22302,Alexandria city,VA,87.07782672540382,NA,NA,NA
22309,Fairfax County,VA,9.397944199706314,NA,NA,NA
22443,Westmoreland County,VA,93.53891336270192,NA,NA,NA
22701,Culpeper County,VA,NA,NA,NA,30.293159609120522
22712,Fauquier County,VA,82.23201174743025,NA,NA,NA
22815,Rockingham County,VA,NA,NA,NA,61.88925081433225
23188,James City County,VA,35.389133627019085,NA,NA,NA
23224,Richmond city,VA,97.06314243759178,NA,NA,NA
23225,Richmond city,VA,NA,NA,NA,30.944625407166125
23234,Chesterfield County,VA,2.2026431718061676,NA,NA,NA
23430,Isle of Wight County,VA,62.11453744493392,73.83177570093457,NA,NA
23456,Virginia Beach city,VA,NA,NA,NA,16.286644951140065
23505,Norfolk city,VA,62.84875183553598,NA,NA,NA
23608,Newport News city,VA,85.16886930983847,NA,NA,NA
23703,Portsmouth city,VA,75.18355359765052,NA,NA,NA
24054,Henry County,VA,91.48311306901616,NA,NA,NA
24084,Pulaski County,VA,90.30837004405286,NA,NA,NA
24228,Dickenson County,VA,81.4977973568282,NA,NA,NA
24230,Wise County,VA,69.89720998531571,NA,NA,NA
24401,Staunton city,VA,NA,NA,NA,6.188925081433225
24531,Pittsylvania County,VA,90.16152716593245,NA,NA,NA
98021,Snohomish County,WA,79.29515418502203,NA,NA,NA
98028,King County,WA,50.22026431718062,NA,NA,NA
98042,King County,WA,47.87077826725404,NA,NA,NA
98052,King County,WA,NA,NA,21.476510067114095,NA
98058,King County,WA,NA,NA,NA,35.83061889250814
98072,King County,WA,NA,NA,NA,61.23778501628665
98104,King County,WA,NA,NA,NA,62.866449511400646
98108,King County,WA,76.06461086637299,NA,67.11409395973155,NA
98118,King County,WA,43.17180616740088,NA,NA,NA
98119,King County,WA,NA,NA,NA,76.8729641693811
98125,King County,WA,44.49339207048458,NA,NA,NA
98208,Snohomish County,WA,NA,NA,27.85234899328859,NA
98272,Snohomish County,WA,NA,62.30529595015576,45.97315436241611,NA
98273,Skagit County,WA,NA,NA,NA,10.423452768729643
98310,Kitsap County,WA,NA,NA,NA,43.648208469055376
98312,Kitsap County,WA,61.52716593245228,NA,NA,NA
98366,Kitsap County,WA,63.436123348017624,NA,NA,NA
98370,Kitsap County,WA,NA,NA,44.63087248322148,NA
98404,Pierce County,WA,NA,NA,NA,82.73615635179154
98409,Pierce County,WA,31.718061674008812,NA,NA,NA
98520,Grays Harbor County,WA,77.23935389133626,NA,NA,NA
98531,Lewis County,WA,NA,NA,53.691275167785236,NA
98563,Grays Harbor County,WA,NA,NA,86.91275167785236,NA
98589,Thurston County,WA,90.01468428781205,NA,NA,NA
98611,Cowlitz County,WA,NA,NA,77.51677852348993,NA
98632,Cowlitz County,WA,53.15712187958884,NA,NA,NA
98682,Clark County,WA,NA,NA,48.65771812080537,NA
98684,Clark County,WA,91.48311306901616,NA,NA,NA
99005,Spokane County,WA,NA,NA,NA,99.0228013029316
99021,Spokane County,WA,93.53891336270192,NA,NA,NA
99022,Spokane County,WA,NA,NA,88.59060402684564,NA
99203,Spokane County,WA,NA,NA,NA,70.35830618892508
99205,Spokane County,WA,NA,76.94704049844236,NA,NA
99208,Spokane County,WA,9.691629955947137,NA,NA,12.703583061889251
99217,Spokane County,WA,74.74302496328929,82.55451713395638,NA,NA
99301,Franklin County,WA,NA,NA,NA,11.400651465798045
99337,Benton County,WA,NA,32.71028037383177,NA,NA
20001,District of Columbia,DC,NA,26.479750778816197,NA,NA
20015,District of Columbia,DC,39.647577092511014,NA,NA,NA
20019,District of Columbia,DC,3.9647577092511015,4.672897196261682,NA,NA
20020,District of Columbia,DC,NA,1.8691588785046727,NA,NA
20024,District of Columbia,DC,NA,NA,NA,89.25081433224756
25071,Kanawha County,WV,NA,NA,NA,67.75244299674267
25304,Kanawha County,WV,NA,NA,NA,79.47882736156352
25306,Kanawha County,WV,NA,75.38940809968847,NA,NA
25312,Kanawha County,WV,NA,72.89719626168224,57.04697986577181,NA
25387,Kanawha County,WV,NA,NA,79.86577181208054,NA
25550,Mason County,WV,55.21292217327459,NA,NA,NA
25801,Raleigh County,WV,11.45374449339207,NA,NA,NA
26003,Ohio County,WV,11.747430249632892,NA,4.026845637583892,NA
26101,Wood County,WV,NA,4.984423676012461,NA,NA
26170,Pleasants County,WV,93.83259911894272,NA,NA,NA
26201,Upshur County,WV,57.70925110132159,NA,NA,NA
26554,Marion County,WV,8.81057268722467,NA,NA,NA
26601,Braxton County,WV,NA,NA,NA,90.22801302931596
26726,Mineral County,WV,NA,NA,NA,66.44951140065146
53050,Dodge County,WI,80.46989720998532,94.39252336448598,NA,NA
53110,Milwaukee County,WI,NA,37.07165109034268,NA,NA
53130,Milwaukee County,WI,NA,89.40809968847351,NA,NA
53143,Kenosha County,WI,NA,NA,NA,77.19869706840392
53144,Kenosha County,WI,7.63582966226138,NA,NA,NA
53149,Waukesha County,WI,NA,NA,NA,67.10097719869707
53185,Racine County,WI,NA,63.862928348909655,NA,NA
53208,Milwaukee County,WI,NA,NA,29.86577181208054,NA
53209,Milwaukee County,WI,NA,2.803738317757009,2.348993288590604,NA
53213,Milwaukee County,WI,NA,NA,32.88590604026846,NA
53216,Milwaukee County,WI,NA,NA,NA,42.99674267100978
53217,Milwaukee County,WI,NA,41.43302180685358,NA,14.983713355048861
53218,Milwaukee County,WI,NA,NA,9.395973154362416,NA
53219,Milwaukee County,WI,11.30690161527166,NA,NA,NA
53235,Milwaukee County,WI,NA,NA,NA,80.45602605863192
53403,Racine County,WI,78.26725403817915,NA,NA,NA
53805,Grant County,WI,92.07048458149781,NA,NA,NA
53916,Dodge County,WI,36.71071953010279,NA,NA,NA
53963,Dodge County,WI,74.74302496328929,NA,NA,NA
54130,Outagamie County,WI,NA,96.57320872274143,NA,NA
54135,Menominee County,WI,97.50367107195301,NA,NA,NA
54303,Brown County,WI,NA,51.09034267912772,NA,NA
54304,Brown County,WI,46.98972099853157,NA,NA,64.49511400651465
54449,Wood County,WI,NA,NA,NA,69.70684039087948
54474,Marathon County,WI,98.97209985315712,NA,NA,NA
54646,Juneau County,WI,NA,NA,92.28187919463086,NA
54667,Vernon County,WI,88.39941262848751,NA,NA,NA
54729,Chippewa County,WI,26.138032305433185,NA,NA,NA
54829,Barron County,WI,NA,NA,85.23489932885906,NA
54848,Rusk County,WI,85.02202643171806,NA,NA,NA
54963,Winnebago County,WI,98.53157121879589,NA,NA,NA
82601,Natrona County,WY,NA,NA,NA,69.05537459283387
