ZipCode,county,state,Adult
35022,Jefferson County,AL,44.06779661016949
35212,Jefferson County,AL,80
36541,Mobile County,AL,82.37288135593221
99504,Anchorage Municipality,AK,29.491525423728817
99654,Matanuska-Susitna Borough,AK,41.01694915254237
99835,Sitka City and Borough,AK,85.08474576271186
85032,Maricopa County,AZ,49.152542372881356
85705,Pima County,AZ,6.440677966101695
85746,Pima County,AZ,19.322033898305087
86442,Mohave County,AZ,68.13559322033899
72927,Logan County,AR,87.45762711864407
90018,Los Angeles County,CA,73.89830508474576
90025,Los Angeles County,CA,64.0677966101695
91773,Los Angeles County,CA,77.62711864406779
91913,San Diego County,CA,76.61016949152543
92040,San Diego County,CA,51.864406779661024
92315,San Bernardino County,CA,95.25423728813558
93277,Tulare County,CA,31.52542372881356
94108,San Francisco County,CA,87.79661016949153
94112,San Francisco County,CA,30.847457627118647
94132,San Francisco County,CA,83.38983050847457
94133,San Francisco County,CA,78.30508474576271
95035,Santa Clara County,CA,53.898305084745765
95367,Stanislaus County,CA,61.016949152542374
95422,Lake County,CA,66.77966101694915
95540,Humboldt County,CA,84.7457627118644
95695,Yolo County,CA,72.54237288135593
80202,Denver County,CO,57.96610169491525
06880,Fairfield County,CT,53.22033898305085
06902,Fairfield County,CT,28.8135593220339
19720,New Castle County,DE,4.745762711864407
19805,New Castle County,DE,5.423728813559322
32141,Volusia County,FL,74.57627118644068
32148,Putnam County,FL,81.69491525423729
32164,Flagler County,FL,40
32168,Volusia County,FL,69.49152542372882
32208,Duval County,FL,2.3728813559322033
32217,Duval County,FL,74.23728813559322
32244,Duval County,FL,8.813559322033898
32505,Escambia County,FL,25.08474576271186
32796,Brevard County,FL,57.28813559322033
33165,Miami-Dade County,FL,85.42372881355932
33324,Broward County,FL,73.5593220338983
33616,Hillsborough County,FL,89.15254237288136
33837,Polk County,FL,54.23728813559322
33967,Lee County,FL,65.08474576271186
34655,Pasco County,FL,38.30508474576271
34787,Orange County,FL,31.864406779661014
34788,Lake County,FL,72.20338983050848
30062,Cobb County,GA,77.28813559322035
30094,Rockdale County,GA,50.847457627118644
30161,Floyd County,GA,26.440677966101696
30189,Cherokee County,GA,59.32203389830508
30417,Evans County,GA,83.72881355932203
31210,Bibb County,GA,68.47457627118644
31211,Bibb County,GA,94.91525423728814
31407,Chatham County,GA,88.13559322033898
31903,Muscogee County,GA,39.32203389830509
96817,Honolulu County,HI,45.76271186440678
60201,Cook County,IL,90.5084745762712
60559,DuPage County,IL,48.47457627118644
60607,Cook County,IL,53.559322033898304
62707,Sangamon County,IL,100
46962,Wabash County,IN,96.61016949152543
47304,Delaware County,IN,92.88135593220339
47374,Wayne County,IN,7.118644067796611
47711,Vanderburgh County,IN,67.79661016949152
50317,Polk County,IA,17.627118644067796
52402,Linn County,IA,26.779661016949152
52556,Jefferson County,IA,80.67796610169492
66102,Wyandotte County,KS,56.61016949152542
67206,Sedgwick County,KS,94.23728813559322
40067,Shelby County,KY,95.9322033898305
40203,Jefferson County,KY,29.830508474576273
40223,Jefferson County,KY,87.11864406779661
40380,Powell County,KY,75.59322033898304
40403,Madison County,KY,63.05084745762712
40475,Madison County,KY,57.6271186440678
40504,Fayette County,KY,47.45762711864407
40823,Harlan County,KY,82.03389830508473
40965,Bell County,KY,33.559322033898304
41006,Pendleton County,KY,91.86440677966101
41011,Kenton County,KY,70.16949152542374
41017,Kenton County,KY,37.6271186440678
41102,Boyd County,KY,29.152542372881356
41562,Pike County,KY,97.6271186440678
42301,Daviess County,KY,16.271186440677965
42408,Hopkins County,KY,83.05084745762711
42701,Hardin County,KY,17.28813559322034
70001,Jefferson Parish,LA,6.779661016949152
70043,St. Bernard Parish,LA,49.49152542372882
70127,Orleans Parish,LA,12.54237288135593
70364,Terrebonne Parish,LA,13.559322033898304
70460,St. Tammany Parish,LA,18.983050847457626
70525,Acadia Parish,LA,99.32203389830508
70726,Livingston Parish,LA,3.389830508474576
70785,Livingston Parish,LA,98.98305084745763
70805,East Baton Rouge Parish,LA,91.52542372881356
04072,York County,ME,44.74576271186441
04210,Androscoggin County,ME,25.76271186440678
21136,Baltimore County,MD,64.40677966101694
21239,Baltimore city,MD,37.96610169491525
01109,Hampden County,MA,13.898305084745763
01376,Franklin County,MA,97.96610169491525
01604,Worcester County,MA,80.33898305084746
01803,Middlesex County,MA,28.135593220338983
01841,Essex County,MA,6.101694915254238
01851,Middlesex County,MA,89.83050847457628
01854,Middlesex County,MA,4.067796610169491
01902,Essex County,MA,62.03389830508475
02053,Norfolk County,MA,79.66101694915254
02072,Norfolk County,MA,58.98305084745763
02119,Suffolk County,MA,0.3389830508474576
02122,Suffolk County,MA,2.711864406779661
02124,Suffolk County,MA,0
02128,Suffolk County,MA,43.050847457627114
02152,Suffolk County,MA,18.64406779661017
48038,Macomb County,MI,20
48071,Oakland County,MI,32.54237288135593
48091,Macomb County,MI,10.847457627118644
48098,Oakland County,MI,66.10169491525424
48161,Monroe County,MI,12.88135593220339
48162,Monroe County,MI,18.305084745762713
48184,Wayne County,MI,22.033898305084744
48203,Wayne County,MI,48.8135593220339
48651,Roscommon County,MI,92.20338983050847
48838,Montcalm County,MI,37.28813559322034
48911,Ingham County,MI,11.186440677966102
49331,Kent County,MI,92.54237288135593
49829,Delta County,MI,38.64406779661017
49841,Marquette County,MI,66.44067796610169
55106,Ramsey County,MN,11.525423728813559
55112,Ramsey County,MN,75.9322033898305
55346,Hennepin County,MN,86.77966101694915
55411,Hennepin County,MN,24.06779661016949
55430,Hennepin County,MN,24.74576271186441
55435,Hennepin County,MN,85.76271186440678
56301,Stearns County,MN,47.79661016949153
56601,Beltrami County,MN,10.16949152542373
39202,Hinds County,MS,98.30508474576271
39503,Harrison County,MS,42.3728813559322
63107,St. Louis city,MO,71.52542372881356
63108,St. Louis city,MO,55.254237288135585
63136,St. Louis County,MO,12.203389830508476
63640,St. Francois County,MO,45.42372881355932
64124,Jackson County,MO,76.27118644067797
64129,Jackson County,MO,94.57627118644068
64157,Clay County,MO,38.983050847457626
65714,Christian County,MO,51.52542372881356
03079,Rockingham County,NH,21.35593220338983
03301,Merrimack County,NH,23.050847457627118
07513,Passaic County,NJ,65.76271186440678
07524,Passaic County,NJ,35.59322033898305
08527,Ocean County,NJ,15.593220338983052
08701,Ocean County,NJ,5.084745762711865
87109,Bernalillo County,NM,24.40677966101695
10025,New York County,NY,9.152542372881356
10038,New York County,NY,78.98305084745762
10451,Bronx County,NY,22.71186440677966
10452,Bronx County,NY,9.830508474576272
10453,Bronx County,NY,1.0169491525423728
10458,Bronx County,NY,7.457627118644068
10562,Westchester County,NY,90.16949152542372
11212,Kings County,NY,46.101694915254235
11219,Kings County,NY,47.11864406779661
11693,Queens County,NY,96.94915254237289
11779,Suffolk County,NY,74.91525423728814
12206,Albany County,NY,27.796610169491526
12771,Orange County,NY,73.22033898305085
13126,Oswego County,NY,27.45762711864407
13905,Broome County,NY,33.89830508474576
14138,Cattaraugus County,NY,98.64406779661017
14215,Erie County,NY,3.728813559322034
14224,Erie County,NY,8.47457627118644
14701,Chautauqua County,NY,23.389830508474578
14850,Tompkins County,NY,7.796610169491526
14895,Allegany County,NY,69.15254237288136
27051,Forsyth County,NC,81.35593220338984
27217,Alamance County,NC,19.661016949152543
27265,Guilford County,NC,27.11864406779661
27576,Johnston County,NC,63.389830508474574
27705,Durham County,NC,75.2542372881356
28412,New Hanover County,NC,21.35593220338983
28638,Caldwell County,NC,59.66101694915255
28734,Macon County,NC,71.86440677966101
58104,Cass County,ND,36.610169491525426
43011,Knox County,OH,86.4406779661017
43015,Delaware County,OH,77.96610169491525
43207,Franklin County,OH,3.050847457627119
43209,Franklin County,OH,52.88135593220339
43614,Lucas County,OH,42.71186440677966
43701,Muskingum County,OH,0.6779661016949152
44134,Cuyahoga County,OH,14.237288135593221
44212,Medina County,OH,5.762711864406779
44319,Summit County,OH,54.57627118644067
44446,Trumbull County,OH,20.33898305084746
44646,Stark County,OH,15.932203389830507
45036,Warren County,OH,28.474576271186443
45211,Hamilton County,OH,39.66101694915255
45212,Hamilton County,OH,34.91525423728813
45331,Darke County,OH,32.88135593220339
45662,Scioto County,OH,4.406779661016949
45690,Pike County,OH,23.728813559322035
74106,Tulsa County,OK,42.03389830508474
74128,Tulsa County,OK,79.3220338983051
15116,Allegheny County,PA,97.28813559322033
15129,Allegheny County,PA,82.71186440677965
15133,Allegheny County,PA,89.49152542372882
15229,Allegheny County,PA,95.9322033898305
15301,Washington County,PA,10.508474576271185
16101,Lawrence County,PA,9.491525423728813
16301,Venango County,PA,52.54237288135594
16323,Venango County,PA,56.271186440677965
16423,Erie County,PA,99.66101694915255
17331,York County,PA,11.864406779661017
17408,York County,PA,46.440677966101696
17866,Northumberland County,PA,69.83050847457626
18235,Carbon County,PA,36.94915254237288
18302,Monroe County,PA,56.949152542372886
18411,Lackawanna County,PA,52.20338983050847
19007,Bucks County,PA,31.186440677966104
19013,Delaware County,PA,26.101694915254235
19057,Bucks County,PA,70.50847457627118
19121,Philadelphia County,PA,15.254237288135593
19124,Philadelphia County,PA,2.0338983050847457
19142,Philadelphia County,PA,17.966101694915253
19143,Philadelphia County,PA,1.694915254237288
19148,Philadelphia County,PA,14.576271186440678
19151,Philadelphia County,PA,20.677966101694913
19152,Philadelphia County,PA,25.423728813559322
19406,Montgomery County,PA,50.16949152542372
19464,Montgomery County,PA,8.135593220338983
02910,Providence County,RI,54.91525423728814
29365,Spartanburg County,SC,67.11864406779661
29690,Greenville County,SC,44.40677966101695
37129,Rutherford County,TN,22.372881355932204
37186,Sumner County,TN,71.1864406779661
37683,Johnson County,TN,61.35593220338983
37725,Jefferson County,TN,58.644067796610166
37764,Sevier County,TN,76.94915254237287
37766,Campbell County,TN,40.33898305084746
37771,Loudon County,TN,60.33898305084746
37801,Blount County,TN,21.01694915254237
37871,Jefferson County,TN,86.10169491525423
37874,Monroe County,TN,45.08474576271186
37920,Knox County,TN,16.94915254237288
38474,Maury County,TN,81.01694915254237
38583,White County,TN,32.20338983050847
75057,Denton County,TX,84.40677966101696
75217,Dallas County,TX,60.67796610169491
75234,Dallas County,TX,72.88135593220339
75482,Hopkins County,TX,65.42372881355932
76006,Tarrant County,TX,88.8135593220339
76123,Tarrant County,TX,50.50847457627119
76543,Bell County,TX,67.45762711864407
77020,Harris County,TX,90.84745762711864
77036,Harris County,TX,58.30508474576271
77045,Harris County,TX,63.72881355932203
77063,Harris County,TX,93.22033898305084
77372,Montgomery County,TX,88.47457627118645
77459,Fort Bend County,TX,30.16949152542373
77486,Brazoria County,TX,95.59322033898306
77845,Brazos County,TX,40.67796610169492
78221,Bexar County,TX,49.83050847457628
78526,Cameron County,TX,93.89830508474576
20171,Fairfax County,VA,55.59322033898305
22079,Fairfax County,VA,46.779661016949156
22102,Fairfax County,VA,91.18644067796609
22152,Fairfax County,VA,61.694915254237294
22309,Fairfax County,VA,33.220338983050844
22903,Charlottesville city,VA,34.57627118644068
23185,James City County,VA,41.69491525423729
23669,Hampton city,VA,84.06779661016948
24016,Roanoke city,VA,60
24019,Roanoke County,VA,62.71186440677966
24368,Wythe County,VA,93.55932203389831
24504,Lynchburg city,VA,64.7457627118644
98003,King County,WA,34.23728813559322
98029,King County,WA,68.8135593220339
98036,Snohomish County,WA,51.186440677966104
98115,King County,WA,41.35593220338983
98312,Kitsap County,WA,43.389830508474574
98387,Pierce County,WA,30.508474576271187
20011,District of Columbia,DC,14.576271186440678
24740,Mercer County,WV,35.932203389830505
25064,Kanawha County,WV,55.932203389830505
25411,Morgan County,WV,78.64406779661017
25701,Cabell County,WV,70.84745762711864
26062,Hancock County,WV,16.610169491525422
26301,Harrison County,WV,35.25423728813559
53121,Walworth County,WI,47.79661016949153
53210,Milwaukee County,WI,13.220338983050848
53220,Milwaukee County,WI,36.271186440677965
53511,Rock County,WI,1.3559322033898304
53719,Dane County,WI,62.37288135593221
54401,Marathon County,WI,43.728813559322035
