ZipCode,county,state,Youth,Adult,Retirement,Geriatric
35007,Shelby County,AL,NA,57.07547169811321,NA,NA
35010,Tallapoosa County,AL,NA,NA,NA,26.811594202898554
35020,Jefferson County,AL,NA,NA,85.08371385083714,NA
35085,Chilton County,AL,NA,87.14622641509435,NA,NA
35094,Jefferson County,AL,NA,66.74528301886792,NA,NA
35117,Jefferson County,AL,NA,91.50943396226415,NA,NA
35150,Talladega County,AL,NA,45.28301886792453,NA,NA
35180,Jefferson County,AL,NA,72.75943396226415,NA,NA
35217,Jefferson County,AL,NA,NA,82.80060882800609,NA
35462,Greene County,AL,NA,NA,NA,90.37267080745342
35503,Walker County,AL,NA,NA,86.45357686453576,NA
35546,Fayette County,AL,NA,NA,NA,96.99792960662525
35601,Morgan County,AL,NA,NA,13.24200913242009,NA
35660,Colbert County,AL,NA,73.70283018867924,NA,NA
35758,Madison County,AL,NA,42.806603773584904,77.01674277016743,NA
35760,Madison County,AL,NA,NA,99.84779299847793,NA
35801,Madison County,AL,NA,74.05660377358491,NA,NA
35811,Madison County,AL,NA,45.636792452830186,NA,NA
35951,Marshall County,AL,NA,NA,NA,77.95031055900621
35967,DeKalb County,AL,NA,NA,74.1248097412481,NA
36092,Elmore County,AL,NA,NA,NA,87.68115942028986
36104,Montgomery County,AL,NA,84.31603773584906,NA,NA
36109,Montgomery County,AL,NA,54.71698113207547,68.94977168949772,NA
36116,Montgomery County,AL,NA,NA,NA,91.92546583850931
36117,Montgomery County,AL,38.16793893129771,NA,NA,NA
36201,Calhoun County,AL,NA,NA,NA,98.03312629399586
36206,Calhoun County,AL,NA,NA,NA,82.40165631469979
36330,Coffee County,AL,NA,NA,NA,46.99792960662526
36421,Covington County,AL,NA,NA,NA,68.21946169772258
36426,Escambia County,AL,NA,NA,NA,68.84057971014492
36532,Baldwin County,AL,NA,65.09433962264151,NA,59.10973084886129
36542,Baldwin County,AL,NA,NA,NA,62.732919254658384
36608,Mobile County,AL,NA,49.056603773584904,52.51141552511416,NA
36732,Marengo County,AL,NA,78.5377358490566,NA,NA
36744,Hale County,AL,NA,77.94811320754717,NA,NA
36832,Lee County,AL,NA,80.54245283018868,100,NA
36853,Tallapoosa County,AL,NA,NA,85.54033485540334,NA
36854,Chambers County,AL,NA,NA,NA,71.42857142857143
99501,Anchorage Municipality,AK,NA,61.32075471698113,NA,NA
99504,Anchorage Municipality,AK,NA,61.20283018867924,NA,NA
99507,Anchorage Municipality,AK,NA,37.971698113207545,NA,NA
99508,Anchorage Municipality,AK,NA,18.985849056603772,41.0958904109589,NA
99515,Anchorage Municipality,AK,NA,NA,NA,84.26501035196688
99611,Kenai Peninsula Borough,AK,NA,NA,NA,74.22360248447205
99654,Matanuska-Susitna Borough,AK,NA,39.97641509433962,NA,NA
85013,Maricopa County,AZ,NA,NA,NA,96.68737060041408
85014,Maricopa County,AZ,NA,50.35377358490566,NA,NA
85015,Maricopa County,AZ,NA,NA,55.55555555555556,NA
85018,Maricopa County,AZ,NA,38.79716981132076,NA,NA
85021,Maricopa County,AZ,NA,NA,34.855403348554034,NA
85023,Maricopa County,AZ,NA,NA,NA,64.59627329192547
85029,Maricopa County,AZ,14.885496183206106,NA,NA,NA
85032,Maricopa County,AZ,NA,15.683962264150944,NA,NA
85033,Maricopa County,AZ,NA,NA,42.922374429223744,NA
85044,Maricopa County,AZ,NA,21.69811320754717,NA,NA
85085,Maricopa County,AZ,NA,NA,88.12785388127854,NA
85122,Pinal County,AZ,NA,8.962264150943396,NA,NA
85194,Pinal County,AZ,NA,NA,NA,96.8944099378882
85201,Maricopa County,AZ,NA,14.033018867924529,NA,NA
85203,Maricopa County,AZ,NA,NA,84.01826484018264,NA
85204,Maricopa County,AZ,NA,NA,NA,42.54658385093168
85206,Maricopa County,AZ,NA,NA,NA,9.627329192546584
85209,Maricopa County,AZ,NA,NA,NA,16.252587991718425
85225,Maricopa County,AZ,NA,12.735849056603774,NA,53.519668737060044
85233,Maricopa County,AZ,NA,NA,NA,96.06625258799171
85249,Maricopa County,AZ,NA,NA,75.19025875190259,NA
85251,Maricopa County,AZ,NA,44.221698113207545,NA,NA
85257,Maricopa County,AZ,NA,NA,NA,39.648033126293996
85268,Maricopa County,AZ,NA,84.90566037735849,NA,NA
85298,Maricopa County,AZ,NA,74.41037735849056,NA,NA
85301,Maricopa County,AZ,NA,4.245283018867925,NA,NA
85310,Maricopa County,AZ,NA,NA,NA,98.65424430641822
85323,Maricopa County,AZ,NA,NA,58.75190258751902,NA
85326,Maricopa County,AZ,NA,NA,NA,61.49068322981367
85338,Maricopa County,AZ,NA,NA,NA,75.87991718426501
85344,La Paz County,AZ,NA,42.21698113207547,NA,NA
85349,Yuma County,AZ,NA,NA,NA,63.14699792960663
85353,Maricopa County,AZ,NA,36.43867924528302,NA,NA
85373,Maricopa County,AZ,96.94656488549617,NA,NA,NA
85374,Maricopa County,AZ,NA,NA,NA,5.072463768115942
85375,Maricopa County,AZ,NA,86.43867924528303,21.765601217656013,0.5175983436853002
85629,Pima County,AZ,NA,NA,NA,85.19668737060042
85711,Pima County,AZ,NA,9.669811320754718,NA,NA
85712,Pima County,AZ,NA,NA,49.61948249619482,NA
85714,Pima County,AZ,NA,36.910377358490564,NA,NA
85719,Pima County,AZ,43.89312977099237,NA,NA,NA
85730,Pima County,AZ,NA,NA,NA,47.9296066252588
85742,Pima County,AZ,NA,NA,54.946727549467276,NA
85746,Pima County,AZ,NA,NA,NA,45.445134575569355
85747,Pima County,AZ,NA,NA,NA,65.32091097308489
85901,Navajo County,AZ,NA,57.90094339622641,NA,NA
86004,Coconino County,AZ,NA,6.367924528301887,NA,NA
86046,Coconino County,AZ,NA,NA,92.23744292237443,NA
86301,Yavapai County,AZ,NA,71.34433962264151,29.832572298325722,NA
86305,Yavapai County,AZ,NA,69.81132075471697,NA,NA
86314,Yavapai County,AZ,NA,53.41981132075472,NA,41.09730848861284
86323,Yavapai County,AZ,NA,58.25471698113207,NA,NA
86336,Yavapai County,AZ,NA,NA,68.0365296803653,NA
86401,Mohave County,AZ,NA,NA,NA,42.028985507246375
86404,Mohave County,AZ,NA,91.27358490566037,NA,NA
86409,Mohave County,AZ,NA,36.556603773584904,26.78843226788432,NA
86503,Apache County,AZ,NA,39.2688679245283,NA,NA
71857,Nevada County,AR,NA,97.2877358490566,NA,NA
71901,Garland County,AR,NA,53.18396226415094,NA,NA
72023,Lonoke County,AR,NA,NA,28.00608828006088,NA
72031,Van Buren County,AR,NA,94.81132075471697,NA,NA
72034,Faulkner County,AR,NA,NA,53.57686453576864,NA
72104,Hot Spring County,AR,83.96946564885496,NA,NA,NA
72106,Faulkner County,AR,NA,NA,NA,95.34161490683229
72143,White County,AR,NA,73.58490566037736,NA,NA
72205,Pulaski County,AR,NA,82.42924528301887,NA,NA
72206,Pulaski County,AR,70.99236641221374,NA,NA,NA
72227,Pulaski County,AR,NA,76.53301886792453,NA,NA
72401,Craighead County,AR,NA,NA,NA,50.5175983436853
72501,Independence County,AR,NA,NA,NA,27.22567287784679
72601,Boone County,AR,NA,94.69339622641509,NA,NA
72653,Baxter County,AR,NA,NA,62.25266362252664,8.592132505175984
72714,Benton County,AR,NA,93.51415094339622,NA,NA
72753,Washington County,AR,NA,91.0377358490566,NA,NA
72761,Benton County,AR,NA,NA,71.84170471841705,NA
90003,Los Angeles County,CA,NA,NA,41.24809741248097,NA
90012,Los Angeles County,CA,NA,69.45754716981132,NA,NA
90013,Los Angeles County,CA,NA,62.382075471698116,NA,NA
90018,Los Angeles County,CA,NA,41.9811320754717,NA,NA
90022,Los Angeles County,CA,NA,40.33018867924528,NA,NA
90033,Los Angeles County,CA,NA,NA,54.03348554033486,NA
90035,Los Angeles County,CA,NA,NA,NA,22.67080745341615
90044,Los Angeles County,CA,NA,7.783018867924528,NA,NA
90057,Los Angeles County,CA,NA,NA,22.98325722983257,NA
90061,Los Angeles County,CA,NA,74.64622641509435,NA,NA
90067,Los Angeles County,CA,NA,NA,NA,76.81159420289855
90069,Los Angeles County,CA,NA,NA,NA,47.72256728778468
90077,Los Angeles County,CA,NA,NA,NA,76.08695652173914
90210,Los Angeles County,CA,NA,NA,NA,52.89855072463768
90221,Los Angeles County,CA,NA,NA,NA,48.9648033126294
90255,Los Angeles County,CA,NA,NA,90.71537290715372,NA
90292,Los Angeles County,CA,NA,NA,NA,39.85507246376812
90304,Los Angeles County,CA,NA,91.86320754716981,NA,NA
90403,Los Angeles County,CA,NA,72.2877358490566,NA,NA
90504,Los Angeles County,CA,NA,73.23113207547169,NA,NA
90602,Los Angeles County,CA,NA,NA,64.9923896499239,NA
90603,Los Angeles County,CA,NA,NA,NA,42.96066252587992
90605,Los Angeles County,CA,NA,63.443396226415096,NA,NA
90630,Orange County,CA,NA,NA,20.091324200913242,NA
90640,Los Angeles County,CA,NA,NA,NA,26.501035196687372
90703,Los Angeles County,CA,NA,NA,35.15981735159817,NA
90710,Los Angeles County,CA,NA,NA,69.10197869101978,NA
90740,Orange County,CA,NA,NA,47.336377473363775,NA
90745,Los Angeles County,CA,NA,43.63207547169811,NA,NA
90806,Los Angeles County,CA,NA,84.08018867924528,NA,NA
90813,Los Angeles County,CA,NA,35.96698113207547,NA,NA
91016,Los Angeles County,CA,NA,NA,NA,44.51345755693582
91040,Los Angeles County,CA,NA,NA,NA,71.94616977225672
91106,Los Angeles County,CA,NA,NA,86.3013698630137,NA
91214,Los Angeles County,CA,NA,NA,79.75646879756468,NA
91304,Los Angeles County,CA,NA,NA,56.77321156773212,NA
91311,Los Angeles County,CA,NA,NA,84.93150684931507,NA
91343,Los Angeles County,CA,56.48854961832062,NA,52.8158295281583,NA
91344,Los Angeles County,CA,NA,NA,NA,17.805383022774325
91352,Los Angeles County,CA,NA,NA,47.94520547945205,NA
91355,Los Angeles County,CA,NA,NA,NA,61.904761904761905
91356,Los Angeles County,CA,NA,NA,82.95281582952816,NA
91362,Ventura County,CA,NA,NA,NA,54.96894409937888
91502,Los Angeles County,CA,NA,98.70283018867924,NA,NA
91739,San Bernardino County,CA,NA,NA,68.4931506849315,NA
91748,Los Angeles County,CA,NA,73.23113207547169,NA,NA
91752,Riverside County,CA,NA,58.136792452830186,NA,NA
91762,San Bernardino County,CA,NA,88.79716981132076,NA,NA
91764,San Bernardino County,CA,NA,40.91981132075472,NA,NA
91770,Los Angeles County,CA,NA,56.132075471698116,NA,NA
91786,San Bernardino County,CA,NA,NA,35.0076103500761,NA
91911,San Diego County,CA,NA,63.67924528301887,NA,NA
91941,San Diego County,CA,NA,NA,NA,41.61490683229814
92020,San Diego County,CA,NA,NA,7.76255707762557,NA
92069,San Diego County,CA,NA,NA,60.57838660578386,NA
92071,San Diego County,CA,NA,NA,NA,60.041407867494826
92082,San Diego County,CA,NA,NA,NA,72.77432712215321
92084,San Diego County,CA,NA,64.74056603773585,NA,NA
92101,San Diego County,CA,NA,NA,NA,36.43892339544513
92114,San Diego County,CA,NA,35.37735849056604,NA,NA
92120,San Diego County,CA,NA,82.66509433962264,NA,NA
92201,Riverside County,CA,NA,NA,57.077625570776256,NA
92211,Riverside County,CA,NA,89.85849056603774,NA,NA
92260,Riverside County,CA,NA,NA,51.90258751902588,NA
92264,Riverside County,CA,NA,79.71698113207547,NA,NA
92324,San Bernardino County,CA,NA,NA,43.68340943683409,NA
92345,San Bernardino County,CA,NA,NA,13.54642313546423,NA
92363,San Bernardino County,CA,NA,NA,95.73820395738204,NA
92373,San Bernardino County,CA,NA,72.99528301886792,NA,NA
92504,Riverside County,CA,NA,NA,NA,33.43685300207039
92509,Riverside County,CA,21.755725190839694,NA,39.42161339421613,NA
92553,Riverside County,CA,NA,NA,NA,41.92546583850932
92562,Riverside County,CA,NA,NA,NA,37.37060041407867
92563,Riverside County,CA,NA,NA,44.90106544901065,NA
92571,Riverside County,CA,NA,44.92924528301887,NA,NA
92583,Riverside County,CA,NA,NA,NA,96.58385093167702
92591,Riverside County,CA,NA,54.24528301886793,NA,NA
92648,Orange County,CA,NA,NA,NA,16.873706004140786
92662,Orange County,CA,NA,NA,NA,90.26915113871635
92675,Orange County,CA,NA,70.40094339622641,NA,NA
92679,Orange County,CA,NA,67.09905660377359,NA,NA
92691,Orange County,CA,NA,58.01886792452831,NA,NA
92704,Orange County,CA,NA,NA,NA,40.06211180124223
92705,Orange County,CA,NA,NA,NA,18.115942028985508
92706,Orange County,CA,NA,NA,NA,89.33747412008282
92708,Orange County,CA,NA,NA,14.61187214611872,NA
92802,Orange County,CA,NA,NA,NA,74.53416149068323
92804,Orange County,CA,21.374045801526716,14.504716981132077,18.41704718417047,NA
92805,Orange County,CA,NA,NA,46.27092846270928,NA
92832,Orange County,CA,NA,62.85377358490566,NA,NA
92833,Orange County,CA,NA,NA,31.05022831050228,NA
92840,Orange County,CA,NA,NA,76.40791476407914,NA
92867,Orange County,CA,NA,NA,NA,28.88198757763975
92870,Orange County,CA,NA,97.87735849056604,NA,NA
93001,Ventura County,CA,NA,28.655660377358487,30.28919330289193,NA
93004,Ventura County,CA,NA,NA,54.64231354642314,NA
93030,Ventura County,CA,NA,NA,21.00456621004566,26.60455486542443
93036,Ventura County,CA,NA,NA,NA,82.50517598343686
93063,Ventura County,CA,NA,NA,NA,40.89026915113871
93065,Ventura County,CA,NA,NA,19.63470319634703,NA
93117,Santa Barbara County,CA,NA,NA,78.38660578386606,NA
93204,Kings County,CA,NA,94.5754716981132,NA,NA
93277,Tulare County,CA,NA,27.712264150943394,NA,NA
93291,Tulare County,CA,NA,NA,NA,24.22360248447205
93292,Tulare County,CA,NA,NA,NA,53.41614906832298
93307,Kern County,CA,NA,NA,NA,49.79296066252588
93422,San Luis Obispo County,CA,NA,NA,NA,68.94409937888199
93433,San Luis Obispo County,CA,91.6030534351145,NA,NA,NA
93436,Santa Barbara County,CA,NA,NA,15.220700152207002,NA
93455,Santa Barbara County,CA,NA,35.14150943396226,NA,11.180124223602485
93534,Los Angeles County,CA,NA,NA,NA,61.07660455486542
93536,Los Angeles County,CA,81.29770992366412,NA,NA,NA
93561,Kern County,CA,NA,NA,59.208523592085236,NA
93611,Fresno County,CA,NA,NA,NA,57.039337474120074
93654,Fresno County,CA,NA,59.905660377358494,NA,65.42443064182196
93657,Fresno County,CA,NA,NA,48.09741248097412,NA
93662,Fresno County,CA,NA,NA,NA,62.52587991718427
93702,Fresno County,CA,NA,NA,NA,78.88198757763976
93705,Fresno County,CA,NA,36.79245283018868,NA,NA
93722,Fresno County,CA,NA,NA,NA,33.33333333333333
93727,Fresno County,CA,NA,49.764150943396224,NA,34.05797101449276
93906,Monterey County,CA,NA,NA,NA,42.2360248447205
93907,Monterey County,CA,NA,81.72169811320755,NA,71.73913043478261
93923,Monterey County,CA,NA,NA,NA,9.006211180124224
93927,Monterey County,CA,NA,NA,89.3455098934551,NA
93930,Monterey County,CA,NA,NA,91.93302891933028,97.4120082815735
94024,Santa Clara County,CA,NA,NA,NA,61.80124223602485
94025,San Mateo County,CA,62.59541984732825,NA,NA,NA
94089,Santa Clara County,CA,NA,NA,NA,70.91097308488614
94102,San Francisco County,CA,NA,8.608490566037736,NA,NA
94107,San Francisco County,CA,NA,NA,70.47184170471841,NA
94110,San Francisco County,CA,NA,13.325471698113208,NA,NA
94122,San Francisco County,CA,NA,52.7122641509434,NA,NA
94123,San Francisco County,CA,NA,NA,NA,56.31469979296067
94507,Contra Costa County,CA,NA,92.68867924528303,NA,NA
94513,Contra Costa County,CA,NA,NA,23.74429223744292,NA
94515,Napa County,CA,NA,NA,NA,89.54451345755695
94520,Contra Costa County,CA,NA,NA,68.34094368340944,70.4968944099379
94534,Solano County,CA,NA,NA,48.401826484018265,NA
94541,Alameda County,CA,NA,26.650943396226417,NA,NA
94546,Alameda County,CA,65.64885496183206,NA,NA,NA
94549,Contra Costa County,CA,NA,NA,NA,30.020703933747413
94558,Napa County,CA,NA,34.43396226415094,NA,NA
94568,Alameda County,CA,NA,59.198113207547166,NA,NA
94577,Alameda County,CA,NA,89.62264150943396,NA,NA
94598,Contra Costa County,CA,NA,NA,61.18721461187214,NA
94601,Alameda County,CA,NA,50,NA,NA
94605,Alameda County,CA,NA,NA,22.22222222222222,30.641821946169774
94611,Alameda County,CA,NA,NA,22.37442922374429,NA
94612,Alameda County,CA,93.51145038167938,NA,NA,NA
94708,Alameda County,CA,NA,NA,NA,75.15527950310559
94803,Contra Costa County,CA,NA,NA,NA,55.6935817805383
94952,Sonoma County,CA,NA,NA,NA,47.30848861283644
94954,Sonoma County,CA,NA,55.306603773584904,NA,NA
95006,Santa Cruz County,CA,NA,NA,96.19482496194824,NA
95032,Santa Clara County,CA,NA,80.07075471698113,NA,NA
95035,Santa Clara County,CA,NA,NA,NA,18.426501035196686
95051,Santa Clara County,CA,NA,NA,NA,35.81780538302277
95060,Santa Cruz County,CA,NA,NA,NA,71.11801242236024
95076,Santa Cruz County,CA,NA,NA,57.68645357686454,NA
95123,Santa Clara County,CA,NA,NA,NA,27.95031055900621
95124,Santa Clara County,CA,NA,64.97641509433963,NA,NA
95202,San Joaquin County,CA,NA,31.839622641509436,NA,NA
95204,San Joaquin County,CA,NA,NA,NA,68.63354037267081
95207,San Joaquin County,CA,NA,23.46698113207547,NA,NA
95236,San Joaquin County,CA,NA,NA,NA,97.82608695652173
95242,San Joaquin County,CA,NA,NA,NA,80.74534161490683
95355,Stanislaus County,CA,NA,NA,NA,23.29192546583851
95360,Stanislaus County,CA,NA,NA,NA,95.03105590062113
95376,San Joaquin County,CA,NA,NA,NA,43.7888198757764
95446,Sonoma County,CA,NA,94.92924528301887,NA,NA
95451,Lake County,CA,NA,NA,54.946727549467276,NA
95453,Lake County,CA,NA,76.06132075471697,NA,NA
95503,Humboldt County,CA,NA,NA,51.141552511415526,NA
95531,Del Norte County,CA,NA,NA,NA,32.19461697722567
95603,Placer County,CA,63.358778625954194,NA,NA,NA
95610,Sacramento County,CA,63.358778625954194,NA,NA,NA
95624,Sacramento County,CA,NA,53.301886792452834,NA,NA
95628,Sacramento County,CA,NA,NA,NA,22.36024844720497
95642,Amador County,CA,NA,93.98584905660378,NA,NA
95660,Sacramento County,CA,NA,44.339622641509436,NA,NA
95665,Amador County,CA,99.23664122137404,NA,NA,NA
95667,El Dorado County,CA,NA,NA,4.5662100456621,NA
95677,Placer County,CA,NA,NA,NA,84.472049689441
95682,El Dorado County,CA,NA,NA,NA,21.22153209109731
95683,Sacramento County,CA,NA,NA,NA,86.85300207039337
95816,Sacramento County,CA,NA,NA,NA,94.72049689440993
95818,Sacramento County,CA,NA,NA,77.47336377473364,NA
95821,Sacramento County,CA,48.091603053435115,47.759433962264154,NA,NA
95825,Sacramento County,CA,NA,NA,70.62404870624049,NA
95826,Sacramento County,CA,NA,NA,NA,51.75983436853002
95828,Sacramento County,CA,NA,45.04716981132076,NA,NA
95833,Sacramento County,CA,NA,NA,NA,96.27329192546584
95901,Yuba County,CA,NA,63.561320754716974,NA,NA
95928,Butte County,CA,NA,38.443396226415096,NA,NA
95965,Butte County,CA,NA,19.57547169811321,NA,NA
95966,Butte County,CA,NA,98.11320754716981,NA,NA
95973,Butte County,CA,NA,25,NA,NA
95991,Sutter County,CA,NA,30.778301886792452,NA,38.923395445134574
96019,Shasta County,CA,NA,NA,92.08523592085236,NA
96080,Tehama County,CA,NA,NA,NA,76.50103519668737
96094,Siskiyou County,CA,NA,NA,NA,88.92339544513457
80014,Arapahoe County,CO,NA,NA,NA,35.507246376811594
80015,Arapahoe County,CO,8.396946564885496,NA,NA,NA
80016,Arapahoe County,CO,NA,NA,NA,55.38302277432712
80017,Arapahoe County,CO,NA,NA,NA,59.8343685300207
80022,Adams County,CO,NA,NA,42.6179604261796,NA
80128,Jefferson County,CO,46.18320610687023,NA,NA,NA
80203,Denver County,CO,NA,NA,97.10806697108066,NA
80221,Adams County,CO,NA,35.49528301886792,NA,NA
80226,Jefferson County,CO,NA,54.48113207547169,NA,88.09523809523809
80239,Denver County,CO,24.427480916030532,26.88679245283019,56.468797564687975,51.96687370600414
80304,Boulder County,CO,NA,NA,NA,72.15320910973085
80503,Boulder County,CO,NA,70.63679245283019,NA,NA
80601,Adams County,CO,NA,37.61792452830189,NA,NA
80620,Weld County,CO,NA,49.528301886792455,NA,NA
80701,Morgan County,CO,NA,NA,49.01065449010654,48.4472049689441
80808,El Paso County,CO,NA,NA,96.65144596651446,NA
80904,El Paso County,CO,86.25954198473282,NA,NA,NA
80905,El Paso County,CO,NA,71.10849056603774,NA,NA
80916,El Paso County,CO,NA,40.80188679245283,NA,NA
80917,El Paso County,CO,NA,68.16037735849056,NA,53.93374741200828
80922,El Paso County,CO,NA,NA,NA,77.7432712215321
81101,Alamosa County,CO,NA,NA,60.273972602739725,NA
81240,Fremont County,CO,NA,NA,NA,89.85507246376811
81301,La Plata County,CO,NA,NA,44.596651445966515,NA
81403,Montrose County,CO,NA,82.31132075471697,NA,NA
81428,Delta County,CO,NA,98.46698113207547,NA,NA
81507,Mesa County,CO,NA,91.0377358490566,NA,NA
06040,Hartford County,CT,35.49618320610687,10.731132075471699,NA,NA
06076,Tolland County,CT,NA,77.59433962264151,NA,NA
06095,Hartford County,CT,27.86259541984733,NA,NA,NA
06114,Hartford County,CT,NA,53.891509433962256,NA,NA
06118,Hartford County,CT,NA,27.47641509433962,NA,71.94616977225672
06226,Windham County,CT,31.297709923664126,NA,NA,NA
06239,Windham County,CT,NA,NA,66.66666666666666,NA
06255,Windham County,CT,73.2824427480916,NA,NA,NA
06413,Middlesex County,CT,NA,NA,NA,44.824016563147
06460,New Haven County,CT,NA,31.25,NA,NA
06473,New Haven County,CT,NA,NA,NA,18.944099378881987
06475,Middlesex County,CT,NA,84.43396226415094,NA,NA
06479,Hartford County,CT,NA,NA,NA,74.63768115942028
06489,Hartford County,CT,71.7557251908397,NA,NA,NA
06511,New Haven County,CT,13.740458015267176,NA,NA,NA
06516,New Haven County,CT,NA,32.66509433962264,NA,NA
06519,New Haven County,CT,35.87786259541985,NA,NA,NA
06525,New Haven County,CT,NA,NA,NA,70.4968944099379
06615,Fairfield County,CT,NA,NA,NA,79.08902691511386
06770,New Haven County,CT,NA,26.41509433962264,NA,NA
06810,Fairfield County,CT,NA,NA,NA,23.809523809523807
19701,New Castle County,DE,NA,29.4811320754717,16.590563165905632,42.7536231884058
19709,New Castle County,DE,NA,NA,19.330289193302892,NA
19713,New Castle County,DE,NA,34.19811320754717,NA,NA
19801,New Castle County,DE,NA,43.160377358490564,NA,NA
19802,New Castle County,DE,NA,15.566037735849056,NA,NA
19804,New Castle County,DE,NA,NA,50.38051750380518,NA
19809,New Castle County,DE,NA,NA,NA,91.30434782608695
19810,New Castle County,DE,49.61832061068702,NA,NA,NA
19934,Kent County,DE,NA,NA,NA,60.45548654244306
19958,Sussex County,DE,NA,38.325471698113205,4.87062404870624,NA
19966,Sussex County,DE,NA,NA,NA,45.962732919254655
19970,Sussex County,DE,NA,NA,NA,56.10766045548654
19971,Sussex County,DE,NA,NA,NA,29.296066252587995
32003,Clay County,FL,NA,NA,84.17047184170472,NA
32008,Suwannee County,FL,NA,89.15094339622641,NA,NA
32024,Columbia County,FL,NA,NA,NA,78.98550724637681
32034,Nassau County,FL,NA,NA,NA,14.492753623188406
32043,Clay County,FL,NA,NA,NA,49.275362318840585
32082,St. Johns County,FL,NA,NA,NA,21.428571428571427
32086,St. Johns County,FL,NA,NA,17.50380517503805,NA
32091,Bradford County,FL,NA,NA,NA,63.56107660455487
32117,Volusia County,FL,NA,NA,56.77321156773212,NA
32137,Flagler County,FL,NA,NA,NA,5.486542443064183
32141,Volusia County,FL,NA,74.76415094339622,NA,NA
32162,Sumter County,FL,NA,NA,NA,1.2422360248447204
32164,Flagler County,FL,NA,NA,NA,10.455486542443063
32205,Duval County,FL,46.18320610687023,NA,NA,NA
32209,Duval County,FL,NA,3.7735849056603774,NA,NA
32210,Duval County,FL,NA,NA,NA,7.971014492753622
32221,Duval County,FL,67.55725190839695,NA,NA,NA
32224,Duval County,FL,68.32061068702289,NA,NA,NA
32226,Duval County,FL,NA,NA,62.70928462709284,NA
32234,Duval County,FL,NA,NA,NA,93.47826086956522
32244,Duval County,FL,NA,5.5424528301886795,NA,33.02277432712215
32257,Duval County,FL,NA,27.122641509433965,NA,NA
32308,Leon County,FL,NA,NA,69.558599695586,NA
32401,Bay County,FL,NA,NA,29.37595129375951,NA
32424,Calhoun County,FL,NA,NA,NA,92.44306418219462
32455,Walton County,FL,NA,85.96698113207547,NA,NA
32456,Gulf County,FL,NA,NA,NA,73.91304347826086
32526,Escambia County,FL,NA,NA,NA,6.832298136645963
32539,Okaloosa County,FL,NA,44.81132075471698,NA,NA
32547,Okaloosa County,FL,NA,47.52358490566038,NA,NA
32653,Alachua County,FL,NA,NA,NA,44.099378881987576
32693,Gilchrist County,FL,79.77099236641222,NA,NA,NA
32750,Seminole County,FL,NA,71.58018867924528,NA,NA
32751,Orange County,FL,NA,NA,57.534246575342465,NA
32754,Brevard County,FL,NA,NA,78.84322678843226,NA
32757,Lake County,FL,82.06106870229007,NA,NA,NA
32778,Lake County,FL,NA,NA,NA,27.018633540372672
32780,Brevard County,FL,NA,44.693396226415096,NA,3.6231884057971016
32784,Lake County,FL,NA,83.25471698113208,NA,NA
32805,Orange County,FL,NA,NA,NA,64.59627329192547
32806,Orange County,FL,NA,NA,NA,29.606625258799173
32807,Orange County,FL,NA,NA,NA,34.886128364389236
32808,Orange County,FL,NA,16.745283018867923,NA,NA
32811,Orange County,FL,47.32824427480916,NA,NA,NA
32901,Brevard County,FL,NA,NA,NA,56.83229813664597
32908,Brevard County,FL,NA,NA,NA,88.09523809523809
32909,Brevard County,FL,NA,NA,32.724505327245055,NA
32922,Brevard County,FL,NA,NA,NA,55.38302277432712
32953,Brevard County,FL,NA,NA,NA,14.285714285714285
33015,Miami-Dade County,FL,NA,NA,NA,40.57971014492754
33018,Miami-Dade County,FL,NA,NA,62.10045662100456,NA
33021,Broward County,FL,NA,NA,23.896499238964992,4.037267080745342
33024,Broward County,FL,NA,NA,NA,17.391304347826086
33034,Miami-Dade County,FL,NA,64.26886792452831,NA,NA
33062,Broward County,FL,NA,NA,NA,2.691511387163561
33063,Broward County,FL,NA,NA,NA,9.937888198757763
33066,Broward County,FL,NA,97.75943396226415,NA,NA
33133,Miami-Dade County,FL,NA,NA,NA,26.08695652173913
33137,Miami-Dade County,FL,NA,83.49056603773585,NA,NA
33144,Miami-Dade County,FL,NA,NA,NA,12.629399585921325
33156,Miami-Dade County,FL,NA,NA,63.16590563165906,NA
33161,Miami-Dade County,FL,25.572519083969464,NA,NA,NA
33169,Miami-Dade County,FL,NA,NA,53.42465753424658,NA
33177,Miami-Dade County,FL,NA,NA,83.56164383561644,NA
33180,Miami-Dade County,FL,NA,NA,48.7062404870624,NA
33312,Broward County,FL,NA,NA,NA,61.28364389233955
33314,Broward County,FL,NA,NA,60.73059360730594,NA
33322,Broward County,FL,NA,NA,NA,10.041407867494824
33325,Broward County,FL,NA,76.88679245283019,NA,NA
33327,Broward County,FL,NA,86.91037735849056,93.75951293759512,NA
33334,Broward County,FL,NA,NA,NA,70.1863354037267
33435,Palm Beach County,FL,NA,NA,NA,53.20910973084886
33445,Palm Beach County,FL,NA,NA,NA,24.016563146997928
33446,Palm Beach County,FL,NA,NA,NA,2.587991718426501
33455,Martin County,FL,NA,NA,NA,10.248447204968944
33458,Palm Beach County,FL,NA,NA,NA,24.948240165631468
33460,Palm Beach County,FL,NA,51.65094339622641,NA,NA
33462,Palm Beach County,FL,24.80916030534351,NA,NA,NA
33483,Palm Beach County,FL,NA,NA,NA,43.37474120082816
33527,Hillsborough County,FL,NA,86.08490566037736,NA,NA
33558,Hillsborough County,FL,NA,NA,NA,83.22981366459628
33565,Hillsborough County,FL,NA,NA,NA,61.904761904761905
33572,Hillsborough County,FL,NA,NA,NA,87.5776397515528
33602,Hillsborough County,FL,NA,NA,83.40943683409436,NA
33605,Hillsborough County,FL,NA,62.14622641509434,NA,NA
33607,Hillsborough County,FL,NA,57.311320754716974,NA,NA
33610,Hillsborough County,FL,NA,NA,40.33485540334855,NA
33615,Hillsborough County,FL,NA,30.542452830188676,NA,NA
33617,Hillsborough County,FL,NA,NA,NA,51.24223602484472
33619,Hillsborough County,FL,NA,NA,40.94368340943683,NA
33635,Hillsborough County,FL,NA,NA,71.5372907153729,NA
33706,Pinellas County,FL,NA,NA,72.75494672754947,NA
33711,Pinellas County,FL,NA,62.02830188679245,NA,NA
33760,Pinellas County,FL,NA,NA,78.99543378995433,NA
33805,Polk County,FL,NA,43.985849056603776,35.76864535768645,NA
33810,Polk County,FL,NA,NA,35.61643835616438,23.395445134575567
33872,Highlands County,FL,NA,72.75943396226415,NA,NA
33901,Lee County,FL,NA,NA,NA,63.04347826086957
33909,Lee County,FL,NA,92.09905660377359,NA,NA
33914,Lee County,FL,NA,NA,NA,55.38302277432712
33919,Lee County,FL,NA,NA,12.480974124809741,NA
33954,Charlotte County,FL,NA,93.16037735849056,NA,NA
33980,Charlotte County,FL,NA,NA,94.97716894977168,NA
33981,Charlotte County,FL,NA,NA,76.10350076103501,NA
33983,Charlotte County,FL,NA,NA,77.77777777777779,NA
34103,Collier County,FL,NA,NA,NA,33.85093167701863
34207,Manatee County,FL,NA,NA,63.4703196347032,NA
34222,Manatee County,FL,NA,NA,NA,80.64182194616977
34233,Sarasota County,FL,NA,NA,NA,22.463768115942027
34234,Sarasota County,FL,NA,NA,NA,38.095238095238095
34243,Manatee County,FL,NA,NA,NA,6.004140786749482
34275,Sarasota County,FL,NA,NA,NA,48.75776397515528
34286,Sarasota County,FL,NA,NA,64.68797564687976,NA
34287,Sarasota County,FL,62.213740458015266,NA,NA,NA
34288,Sarasota County,FL,NA,NA,NA,83.33333333333334
34293,Sarasota County,FL,NA,NA,7.00152207001522,NA
34428,Citrus County,FL,NA,NA,NA,87.99171842650104
34476,Marion County,FL,NA,NA,NA,24.637681159420293
34604,Hernando County,FL,NA,80.07075471698113,NA,NA
34609,Hernando County,FL,NA,35.259433962264154,NA,NA
34654,Pasco County,FL,NA,NA,59.817351598173516,NA
34655,Pasco County,FL,NA,NA,NA,16.045548654244307
34677,Pinellas County,FL,NA,79.95283018867924,82.34398782343987,NA
34689,Pinellas County,FL,NA,64.62264150943396,NA,NA
34788,Lake County,FL,92.36641221374046,NA,NA,NA
34953,St. Lucie County,FL,NA,NA,NA,16.977225672877847
34972,Okeechobee County,FL,NA,NA,95.12937595129375,NA
34996,Martin County,FL,NA,90.09433962264151,NA,NA
30005,Fulton County,GA,NA,73.11320754716981,NA,NA
30019,Gwinnett County,GA,NA,43.63207547169811,NA,NA
30022,Fulton County,GA,NA,NA,NA,49.4824016563147
30024,Gwinnett County,GA,NA,NA,24.50532724505327,NA
30028,Forsyth County,GA,NA,65.56603773584906,NA,NA
30035,DeKalb County,GA,NA,NA,48.858447488584474,NA
30039,Gwinnett County,GA,NA,NA,NA,42.13250517598344
30043,Gwinnett County,GA,NA,62.264150943396224,NA,NA
30052,Walton County,GA,NA,NA,8.67579908675799,22.049689440993788
30064,Cobb County,GA,NA,NA,36.22526636225266,NA
30068,Cobb County,GA,65.64885496183206,NA,NA,NA
30071,Gwinnett County,GA,NA,86.79245283018868,NA,NA
30094,Rockdale County,GA,NA,52.47641509433962,NA,NA
30107,Cherokee County,GA,NA,NA,87.8234398782344,NA
30113,Haralson County,GA,NA,NA,NA,95.23809523809523
30114,Cherokee County,GA,NA,NA,NA,35.09316770186335
30121,Bartow County,GA,NA,60.96698113207547,60.882800608828006,NA
30125,Polk County,GA,NA,NA,NA,35.714285714285715
30127,Cobb County,GA,NA,NA,32.57229832572298,NA
30134,Douglas County,GA,NA,27.358490566037734,NA,NA
30152,Cobb County,GA,NA,NA,NA,76.3975155279503
30223,Spalding County,GA,NA,41.62735849056604,38.50837138508371,NA
30238,Clayton County,GA,NA,58.844339622641506,NA,NA
30241,Troup County,GA,NA,NA,56.01217656012176,NA
30252,Henry County,GA,NA,NA,NA,68.11594202898551
30269,Fayette County,GA,NA,74.1745283018868,NA,NA
30281,Henry County,GA,NA,NA,17.35159817351598,42.857142857142854
30305,Fulton County,GA,NA,NA,NA,87.37060041407867
30316,DeKalb County,GA,NA,NA,NA,81.26293995859213
30327,Fulton County,GA,NA,NA,74.73363774733637,NA
30338,DeKalb County,GA,NA,NA,NA,32.19461697722567
30340,DeKalb County,GA,NA,NA,NA,64.59627329192547
30401,Emanuel County,GA,NA,NA,70.16742770167428,NA
30436,Toombs County,GA,NA,85.14150943396226,NA,NA
30504,Hall County,GA,NA,83.84433962264151,NA,NA
30507,Hall County,GA,NA,48.70283018867924,NA,NA
30523,Habersham County,GA,NA,94.33962264150944,NA,NA
30536,Gilmer County,GA,NA,NA,NA,82.29813664596274
30542,Hall County,GA,64.50381679389314,NA,NA,NA
30577,Stephens County,GA,NA,NA,72.14611872146118,NA
30601,Clarke County,GA,NA,NA,73.51598173515981,NA
30606,Clarke County,GA,NA,NA,27.09284627092846,NA
30628,Madison County,GA,NA,NA,NA,92.96066252587993
30635,Elbert County,GA,NA,NA,NA,51.13871635610766
30642,Greene County,GA,NA,83.01886792452831,NA,NA
30655,Walton County,GA,NA,39.740566037735846,NA,NA
30680,Barrow County,GA,NA,22.75943396226415,NA,NA
30721,Whitfield County,GA,NA,26.53301886792453,48.24961948249619,NA
30735,Gordon County,GA,NA,83.13679245283019,NA,NA
30741,Walker County,GA,NA,NA,18.56925418569254,NA
30813,Columbia County,GA,NA,69.92924528301887,NA,NA
30817,Lincoln County,GA,NA,95.16509433962264,NA,NA
30901,Richmond County,GA,NA,89.97641509433963,NA,NA
30904,Richmond County,GA,NA,NA,NA,64.38923395445134
30906,Richmond County,GA,NA,8.254716981132075,NA,NA
30907,Columbia County,GA,NA,NA,9.89345509893455,27.536231884057973
31024,Putnam County,GA,NA,62.97169811320755,NA,NA
31036,Pulaski County,GA,NA,NA,NA,70.08281573498965
31087,Hancock County,GA,NA,NA,94.82496194824962,NA
31211,Bibb County,GA,NA,75.47169811320755,NA,NA
31320,Liberty County,GA,NA,NA,NA,98.13664596273291
31410,Chatham County,GA,NA,NA,NA,63.457556935817806
31513,Appling County,GA,NA,NA,75.19025875190259,NA
31520,Glynn County,GA,NA,57.42924528301887,NA,NA
31545,Wayne County,GA,50.38167938931297,NA,NA,NA
31558,Camden County,GA,NA,72.16981132075472,NA,NA
31601,Lowndes County,GA,NA,NA,39.117199391171994,NA
31707,Dougherty County,GA,NA,NA,43.37899543378995,NA
31757,Thomas County,GA,NA,NA,NA,95.65217391304348
31792,Thomas County,GA,NA,38.91509433962264,NA,NA
31907,Muscogee County,GA,NA,NA,3.65296803652968,NA
39828,Grady County,GA,NA,NA,75.79908675799086,NA
96701,Honolulu County,HI,NA,NA,NA,8.281573498964804
96706,Honolulu County,HI,NA,11.556603773584905,NA,NA
96707,Honolulu County,HI,32.44274809160305,NA,NA,NA
96720,Hawaii County,HI,NA,37.028301886792455,NA,NA
96744,Honolulu County,HI,NA,22.05188679245283,NA,NA
96760,Hawaii County,HI,NA,99.52830188679245,NA,NA
96766,Kauai County,HI,81.29770992366412,NA,NA,NA
96789,Honolulu County,HI,NA,24.17452830188679,NA,NA
96797,Honolulu County,HI,NA,NA,NA,9.523809523809524
96816,Honolulu County,HI,NA,NA,NA,4.3478260869565215
96819,Honolulu County,HI,19.46564885496183,NA,NA,NA
83201,Bannock County,ID,NA,NA,NA,31.67701863354037
83221,Bingham County,ID,NA,NA,59.3607305936073,NA
83301,Twin Falls County,ID,NA,NA,NA,10.869565217391305
83501,Nez Perce County,ID,NA,14.976415094339623,NA,NA
83530,Idaho County,ID,NA,NA,NA,98.9648033126294
83544,Clearwater County,ID,NA,NA,NA,65.83850931677019
83605,Canyon County,ID,11.068702290076336,NA,NA,NA
83617,Gem County,ID,NA,NA,NA,67.90890269151139
83634,Ada County,ID,NA,NA,NA,88.40579710144928
83646,Ada County,ID,NA,NA,NA,3.002070393374741
83647,Elmore County,ID,NA,49.64622641509434,NA,NA
83686,Canyon County,ID,NA,9.19811320754717,NA,NA
83702,Ada County,ID,NA,33.0188679245283,NA,NA
83709,Ada County,ID,NA,NA,NA,24.53416149068323
83713,Ada County,ID,NA,NA,NA,47.51552795031056
83716,Ada County,ID,NA,NA,90.10654490106545,NA
83814,Kootenai County,ID,89.69465648854961,NA,NA,28.05383022774327
83864,Bonner County,ID,NA,74.1745283018868,NA,NA
60005,Cook County,IL,NA,62.617924528301884,NA,NA
60008,Cook County,IL,NA,NA,NA,45.23809523809524
60015,Lake County,IL,NA,66.39150943396226,NA,NA
60025,Cook County,IL,NA,NA,5.47945205479452,NA
60026,Cook County,IL,NA,NA,NA,23.08488612836439
60031,Lake County,IL,NA,NA,NA,50.414078674948236
60033,McHenry County,IL,NA,NA,NA,74.94824016563147
60035,Lake County,IL,NA,NA,NA,36.12836438923395
60050,McHenry County,IL,NA,43.39622641509434,NA,14.182194616977226
60060,Lake County,IL,NA,NA,13.39421613394216,NA
60067,Cook County,IL,NA,NA,18.87366818873668,NA
60068,Cook County,IL,NA,NA,NA,17.080745341614907
60074,Cook County,IL,NA,NA,38.96499238964992,NA
60102,McHenry County,IL,NA,NA,NA,46.58385093167702
60107,Cook County,IL,NA,NA,NA,58.488612836438925
60115,DeKalb County,IL,NA,NA,NA,25.36231884057971
60133,Cook County,IL,NA,49.056603773584904,NA,NA
60134,Kane County,IL,NA,NA,NA,24.32712215320911
60154,Cook County,IL,NA,NA,NA,30.22774327122153
60164,Cook County,IL,NA,44.45754716981132,NA,NA
60169,Cook County,IL,NA,NA,NA,81.46997929606626
60188,DuPage County,IL,NA,20.63679245283019,NA,NA
60191,DuPage County,IL,NA,NA,84.62709284627093,NA
60409,Cook County,IL,NA,33.136792452830186,NA,NA
60419,Cook County,IL,NA,NA,38.35616438356164,NA
60438,Cook County,IL,72.13740458015268,NA,NA,NA
60443,Cook County,IL,NA,NA,40.63926940639269,43.064182194616976
60453,Cook County,IL,NA,NA,NA,28.57142857142857
60455,Cook County,IL,NA,NA,53.88127853881278,NA
60472,Cook County,IL,NA,NA,NA,86.12836438923395
60505,Kane County,IL,NA,34.55188679245283,NA,47.72256728778468
60517,DuPage County,IL,NA,NA,72.29832572298326,NA
60532,DuPage County,IL,47.70992366412214,NA,NA,41.61490683229814
60540,DuPage County,IL,28.62595419847328,NA,NA,NA
60544,Will County,IL,NA,NA,NA,14.803312629399587
60545,Kendall County,IL,NA,NA,83.86605783866058,NA
60610,Cook County,IL,NA,NA,NA,54.6583850931677
60612,Cook County,IL,NA,56.25,NA,NA
60614,Cook County,IL,NA,24.410377358490564,NA,NA
60616,Cook County,IL,NA,40.91981132075472,NA,NA
60617,Cook County,IL,NA,NA,NA,1.1387163561076603
60618,Cook County,IL,9.923664122137405,NA,NA,NA
60619,Cook County,IL,NA,6.132075471698113,NA,NA
60623,Cook County,IL,NA,32.54716981132076,NA,NA
60624,Cook County,IL,NA,NA,NA,40.476190476190474
60642,Cook County,IL,NA,NA,NA,86.85300207039337
60643,Cook County,IL,28.62595419847328,NA,NA,NA
60647,Cook County,IL,NA,NA,NA,32.40165631469979
60649,Cook County,IL,41.98473282442748,77.47641509433963,NA,NA
60654,Cook County,IL,NA,NA,NA,98.24016563146998
60659,Cook County,IL,NA,NA,NA,40.78674948240166
60707,Cook County,IL,NA,NA,43.531202435312025,7.6604554865424435
60827,Cook County,IL,NA,NA,NA,88.30227743271222
60942,Vermilion County,IL,NA,NA,66.5144596651446,NA
61008,Boone County,IL,NA,NA,NA,28.36438923395445
61061,Ogle County,IL,NA,NA,NA,45.54865424430642
61073,Winnebago County,IL,NA,NA,NA,47.9296066252588
61081,Whiteside County,IL,19.083969465648856,NA,NA,NA
61101,Winnebago County,IL,NA,NA,NA,41.09730848861284
61108,Winnebago County,IL,NA,63.089622641509436,NA,NA
61109,Winnebago County,IL,NA,NA,81.88736681887366,NA
61201,Rock Island County,IL,NA,NA,31.963470319634702,36.231884057971016
61231,Mercer County,IL,NA,NA,NA,83.54037267080744
61252,Whiteside County,IL,NA,95.99056603773585,NA,NA
61301,LaSalle County,IL,89.31297709923665,NA,NA,NA
61342,LaSalle County,IL,NA,NA,51.7503805175038,NA
61401,Knox County,IL,NA,67.45283018867924,30.136986301369863,NA
61462,Warren County,IL,NA,NA,NA,80.43478260869566
61554,Tazewell County,IL,NA,31.721698113207548,NA,NA
61603,Peoria County,IL,NA,NA,NA,87.26708074534162
61821,Champaign County,IL,NA,NA,NA,65.11387163561076
61822,Champaign County,IL,NA,NA,NA,76.60455486542443
61938,Coles County,IL,51.14503816793893,NA,NA,NA
62002,Madison County,IL,87.78625954198473,NA,NA,NA
62040,Madison County,IL,NA,22.287735849056602,NA,NA
62206,St. Clair County,IL,NA,72.64150943396226,NA,NA
62223,St. Clair County,IL,NA,NA,NA,47.20496894409938
62230,Clinton County,IL,NA,NA,94.21613394216133,NA
62301,Adams County,IL,NA,NA,88.58447488584474,NA
62363,Pike County,IL,NA,NA,NA,69.25465838509317
62702,Sangamon County,IL,NA,28.419811320754718,NA,NA
62703,Sangamon County,IL,NA,NA,NA,42.339544513457554
62901,Jackson County,IL,NA,NA,NA,60.24844720496895
62906,Union County,IL,NA,NA,97.4124809741248,NA
62946,Saline County,IL,NA,NA,NA,50.72463768115942
46001,Madison County,IN,NA,NA,NA,85.09316770186336
46012,Madison County,IN,NA,NA,19.7869101978691,NA
46038,Hamilton County,IN,NA,NA,58.599695585996955,NA
46123,Hendricks County,IN,NA,NA,NA,29.296066252587995
46140,Hancock County,IN,NA,31.60377358490566,NA,NA
46158,Morgan County,IN,NA,NA,NA,19.047619047619047
46176,Shelby County,IN,NA,NA,10.045662100456621,5.900621118012422
46204,Marion County,IN,NA,46.93396226415094,NA,NA
46208,Marion County,IN,66.41221374045801,NA,NA,NA
46219,Marion County,IN,NA,NA,NA,11.490683229813664
46221,Marion County,IN,NA,NA,NA,90.78674948240165
46224,Marion County,IN,NA,NA,NA,36.64596273291926
46227,Marion County,IN,NA,NA,6.54490106544901,NA
46229,Marion County,IN,NA,26.179245283018872,NA,NA
46254,Marion County,IN,NA,24.764150943396228,NA,NA
46327,Lake County,IN,42.36641221374045,NA,NA,NA
46383,Porter County,IN,NA,8.49056603773585,NA,NA
46394,Lake County,IN,NA,61.910377358490564,NA,NA
46410,Lake County,IN,NA,NA,5.175038051750381,NA
46514,Elkhart County,IN,NA,NA,NA,43.16770186335403
46544,St. Joseph County,IN,NA,NA,62.404870624048705,NA
46580,Kosciusko County,IN,75.57251908396947,NA,NA,NA
46614,St. Joseph County,IN,NA,NA,NA,36.64596273291926
46635,St. Joseph County,IN,NA,99.05660377358491,NA,NA
46747,Steuben County,IN,98.47328244274809,NA,NA,NA
46804,Allen County,IN,NA,50.589622641509436,NA,NA
46806,Allen County,IN,NA,NA,NA,72.77432712215321
46814,Allen County,IN,NA,NA,NA,78.364389233954455
46815,Allen County,IN,NA,NA,39.726027397260275,NA
46835,Allen County,IN,NA,NA,NA,25.051759834368532
46952,Grant County,IN,NA,NA,NA,16.666666666666664
46975,Fulton County,IN,53.81679389312977,NA,NA,NA
47025,Dearborn County,IN,NA,45.75471698113208,NA,NA
47129,Clark County,IN,NA,NA,53.57686453576864,NA
47167,Washington County,IN,NA,NA,NA,62.11180124223602
47201,Bartholomew County,IN,5.343511450381679,NA,NA,NA
47240,Decatur County,IN,NA,36.674528301886795,NA,NA
47265,Jennings County,IN,NA,25.589622641509436,NA,NA
47274,Jackson County,IN,NA,29.599056603773583,NA,NA
47303,Delaware County,IN,NA,NA,NA,64.90683229813664
47305,Delaware County,IN,NA,NA,99.08675799086758,NA
47331,Fayette County,IN,NA,NA,NA,6.625258799171843
47336,Jay County,IN,NA,NA,NA,99.89648033126294
47362,Henry County,IN,NA,NA,10.197869101978691,37.577639751552795
47374,Wayne County,IN,NA,NA,4.41400304414003,NA
47403,Monroe County,IN,NA,NA,61.796042617960424,NA
47446,Lawrence County,IN,NA,NA,74.42922374429224,NA
47660,Gibson County,IN,NA,NA,97.86910197869102,NA
47670,Gibson County,IN,NA,NA,NA,90.6832298136646
47713,Vanderburgh County,IN,NA,68.98584905660378,NA,NA
47715,Vanderburgh County,IN,NA,NA,NA,46.06625258799172
47906,Tippecanoe County,IN,NA,NA,NA,30.848861283643892
47909,Tippecanoe County,IN,NA,NA,49.77168949771689,NA
47960,White County,IN,NA,NA,NA,35.30020703933747
47978,Jasper County,IN,NA,NA,NA,82.81573498964804
50009,Polk County,IA,NA,73.82075471698113,98.4779299847793,NA
50014,Story County,IA,NA,88.91509433962264,NA,NA
50022,Cass County,IA,NA,88.3254716981132,NA,NA
50036,Boone County,IA,NA,70.99056603773585,NA,NA
50201,Story County,IA,NA,86.32075471698113,NA,NA
50219,Marion County,IA,NA,NA,NA,68.42650103519668
50247,Marshall County,IA,100,NA,NA,NA
50273,Madison County,IA,NA,91.86320754716981,NA,NA
50310,Polk County,IA,NA,22.995283018867923,NA,40.37267080745342
50314,Polk County,IA,NA,NA,67.73211567732116,NA
50315,Polk County,IA,NA,9.55188679245283,NA,NA
50316,Polk County,IA,NA,46.4622641509434,NA,NA
50320,Polk County,IA,NA,80.77830188679245,NA,NA
50441,Franklin County,IA,NA,NA,NA,71.5320910973085
50501,Webster County,IA,NA,27.004716981132077,NA,NA
50613,Black Hawk County,IA,50.76335877862596,NA,NA,22.56728778467909
50616,Floyd County,IA,NA,NA,NA,39.958592132505174
50702,Black Hawk County,IA,NA,NA,81.58295281582953,NA
50703,Black Hawk County,IA,NA,67.68867924528303,NA,NA
51104,Woodbury County,IA,NA,50.943396226415096,NA,NA
51537,Shelby County,IA,NA,NA,NA,45.03105590062112
52001,Dubuque County,IA,NA,16.391509433962266,24.04870624048706,NA
52057,Delaware County,IA,NA,NA,83.25722983257229,NA
52240,Johnson County,IA,30.916030534351147,NA,NA,NA
52246,Johnson County,IA,NA,NA,NA,29.71014492753623
52310,Jones County,IA,NA,NA,NA,89.75155279503106
52501,Wapello County,IA,40.0763358778626,NA,NA,NA
52531,Monroe County,IA,NA,95.28301886792453,NA,NA
52556,Jefferson County,IA,NA,NA,67.42770167427702,NA
52601,Des Moines County,IA,NA,NA,NA,11.594202898550725
52732,Clinton County,IA,NA,23.82075471698113,NA,NA
52761,Muscatine County,IA,NA,12.264150943396226,NA,NA
52806,Scott County,IA,NA,NA,74.73363774733637,NA
52807,Scott County,IA,NA,83.60849056603774,NA,NA
66006,Douglas County,KS,NA,NA,93.45509893455099,NA
66007,Leavenworth County,KS,NA,NA,NA,79.60662525879917
66062,Johnson County,KS,NA,41.39150943396226,NA,NA
66083,Johnson County,KS,NA,NA,NA,77.32919254658384
66085,Johnson County,KS,NA,96.10849056603774,NA,NA
66112,Wyandotte County,KS,NA,NA,NA,77.84679089026915
66205,Johnson County,KS,NA,NA,NA,69.35817805383023
66212,Johnson County,KS,23.282442748091604,NA,NA,NA
66605,Shawnee County,KS,NA,55.77830188679245,NA,NA
66607,Shawnee County,KS,NA,NA,92.99847792998477,NA
66610,Shawnee County,KS,NA,NA,90.8675799086758,NA
66612,Shawnee County,KS,NA,NA,99.69558599695586,NA
66701,Bourbon County,KS,NA,NA,NA,76.29399585921325
66801,Lyon County,KS,40.458015267175576,NA,NA,NA
67002,Butler County,KS,NA,NA,92.99847792998477,NA
67005,Cowley County,KS,NA,NA,93.9117199391172,NA
67037,Sedgwick County,KS,NA,NA,88.43226788432268,NA
67156,Cowley County,KS,NA,NA,NA,80.33126293995859
67212,Sedgwick County,KS,40.839694656488554,NA,NA,NA
67226,Sedgwick County,KS,NA,87.38207547169812,NA,NA
67301,Montgomery County,KS,NA,NA,NA,72.67080745341616
67357,Labette County,KS,NA,NA,89.19330289193303,NA
67401,Saline County,KS,NA,22.87735849056604,NA,NA
67601,Ellis County,KS,NA,46.4622641509434,NA,NA
67735,Sherman County,KS,NA,NA,NA,66.97722567287785
40004,Nelson County,KY,NA,20.400943396226413,NA,NA
40078,Washington County,KY,NA,NA,NA,99.79296066252587
40165,Bullitt County,KY,NA,NA,16.28614916286149,NA
40202,Jefferson County,KY,NA,95.28301886792453,NA,NA
40207,Jefferson County,KY,NA,75,NA,NA
40211,Jefferson County,KY,34.73282442748092,13.561320754716983,NA,NA
40212,Jefferson County,KY,NA,28.066037735849058,NA,67.59834368530021
40219,Jefferson County,KY,NA,NA,22.526636225266362,NA
40241,Jefferson County,KY,NA,NA,NA,25.98343685300207
40291,Jefferson County,KY,NA,NA,NA,30.434782608695656
40353,Montgomery County,KY,NA,NA,31.202435312024352,NA
40361,Bourbon County,KY,NA,NA,NA,60.35196687370601
40383,Woodford County,KY,NA,NA,NA,59.42028985507246
40419,Lincoln County,KY,NA,NA,NA,97.72256728778468
40475,Madison County,KY,NA,NA,NA,56.62525879917184
40517,Fayette County,KY,NA,60.141509433962256,NA,NA
40962,Clay County,KY,NA,NA,NA,92.65010351966873
40977,Bell County,KY,NA,NA,NA,96.48033126293996
41011,Kenton County,KY,NA,77.7122641509434,NA,NA
41014,Kenton County,KY,NA,58.72641509433962,NA,NA
41041,Fleming County,KY,NA,NA,73.97260273972603,NA
41042,Boone County,KY,NA,5.4245283018867925,NA,2.2774327122153206
41051,Kenton County,KY,NA,NA,36.68188736681887,NA
41301,Wolfe County,KY,NA,NA,89.64992389649925,NA
41522,Pike County,KY,NA,NA,NA,93.89233954451346
41537,Letcher County,KY,NA,NA,NA,94.824016563147
42101,Warren County,KY,NA,7.429245283018868,NA,NA
42104,Warren County,KY,48.854961832061065,NA,49.923896499238964,NA
42134,Simpson County,KY,NA,NA,73.21156773211568,NA
42141,Barren County,KY,NA,NA,8.06697108066971,7.867494824016563
42240,Christian County,KY,NA,NA,12.633181126331811,59.523809523809526
42301,Daviess County,KY,NA,NA,NA,13.975155279503104
42303,Daviess County,KY,NA,10.495283018867925,NA,NA
42602,Clinton County,KY,NA,NA,NA,80.95238095238095
42721,Grayson County,KY,NA,NA,NA,95.8592132505176
42743,Green County,KY,NA,NA,NA,46.48033126293996
42748,Larue County,KY,NA,NA,NA,76.19047619047619
70003,Jefferson Parish,LA,NA,8.84433962264151,NA,1.5527950310559007
70006,Jefferson Parish,LA,NA,NA,NA,26.08695652173913
70062,Jefferson Parish,LA,NA,NA,NA,84.78260869565217
70065,Jefferson Parish,LA,NA,NA,2.89193302891933,21.014492753623188
70072,Jefferson Parish,LA,0.38167938931297707,NA,NA,NA
70114,Orleans Parish,LA,9.16030534351145,NA,NA,NA
70118,Orleans Parish,LA,NA,19.693396226415093,NA,NA
70121,Jefferson Parish,LA,NA,NA,NA,57.66045548654244
70364,Terrebonne Parish,LA,6.870229007633588,NA,NA,NA
70394,Lafourche Parish,LA,NA,NA,32.724505327245055,NA
70401,Tangipahoa Parish,LA,NA,98.23113207547169,38.051750380517504,NA
70403,Tangipahoa Parish,LA,NA,6.8396226415094334,NA,NA
70420,St. Tammany Parish,LA,NA,NA,NA,74.63768115942028
70431,St. Tammany Parish,LA,NA,NA,75.03805175038052,NA
70433,St. Tammany Parish,LA,NA,NA,NA,3.1055900621118013
70438,Washington Parish,LA,NA,NA,52.663622526636225,NA
70441,St. Helena Parish,LA,61.45038167938931,NA,NA,NA
70444,Tangipahoa Parish,LA,NA,NA,NA,81.36645962732919
70454,Tangipahoa Parish,LA,NA,37.5,NA,28.26086956521739
70458,St. Tammany Parish,LA,NA,5.188679245283019,NA,NA
70461,St. Tammany Parish,LA,NA,NA,19.025875190258752,NA
70510,Vermilion Parish,LA,NA,10.966981132075473,NA,NA
70517,St. Martin Parish,LA,NA,68.04245283018868,NA,NA
70529,Lafayette Parish,LA,NA,NA,NA,90.99378881987577
70560,Iberia Parish,LA,NA,NA,NA,27.84679089026915
70570,St. Landry Parish,LA,NA,1.650943396226415,NA,NA
70583,Lafayette Parish,LA,NA,NA,NA,77.12215320910974
70586,Evangeline Parish,LA,NA,96.34433962264151,NA,NA
70601,Calcasieu Parish,LA,NA,2.0047169811320753,NA,NA
70711,Livingston Parish,LA,NA,NA,NA,87.16356107660455
70714,East Baton Rouge Parish,LA,NA,25.707547169811324,NA,NA
70737,Ascension Parish,LA,66.79389312977099,NA,NA,31.469979296066253
70739,East Baton Rouge Parish,LA,NA,NA,NA,94.30641821946169
70767,West Baton Rouge Parish,LA,39.69465648854962,NA,NA,NA
70806,East Baton Rouge Parish,LA,NA,NA,NA,35.81780538302277
70814,East Baton Rouge Parish,LA,NA,71.4622641509434,NA,NA
70815,East Baton Rouge Parish,LA,NA,NA,NA,34.57556935817806
70816,East Baton Rouge Parish,LA,NA,NA,34.55098934550989,NA
70817,East Baton Rouge Parish,LA,NA,NA,14.916286149162861,NA
71055,Webster Parish,LA,NA,NA,74.27701674277016,NA
71106,Caddo Parish,LA,NA,6.25,NA,NA
71107,Caddo Parish,LA,1.9083969465648856,NA,NA,NA
71118,Caddo Parish,LA,NA,NA,NA,15.424430641821946
71203,Ouachita Parish,LA,NA,9.316037735849056,23.28767123287671,NA
71291,Ouachita Parish,LA,NA,NA,NA,19.875776397515526
03909,York County,ME,NA,83.72641509433963,NA,NA
04011,Cumberland County,ME,NA,NA,26.331811263318112,NA
04064,York County,ME,NA,NA,NA,31.05590062111801
04072,York County,ME,NA,NA,93.60730593607306,NA
04074,Cumberland County,ME,NA,NA,NA,37.88819875776397
04086,Sagadahoc County,ME,NA,NA,57.22983257229832,NA
04102,Cumberland County,ME,NA,39.386792452830186,NA,NA
04276,Oxford County,ME,NA,68.63207547169812,NA,NA
04330,Kennebec County,ME,4.961832061068702,NA,NA,9.316770186335404
04345,Kennebec County,ME,NA,NA,NA,67.49482401656314
04401,Penobscot County,ME,NA,14.150943396226415,NA,NA
04578,Lincoln County,ME,NA,NA,NA,91.7184265010352
04605,Hancock County,ME,NA,NA,NA,17.598343685300208
04730,Aroostook County,ME,NA,NA,NA,28.467908902691512
04736,Aroostook County,ME,NA,58.37264150943396,NA,NA
04849,Waldo County,ME,NA,NA,NA,75.15527950310559
20659,St. Mary's County,MD,NA,NA,64.84018264840182,NA
20707,Prince George's County,MD,NA,NA,NA,82.91925465838509
20708,Prince George's County,MD,NA,83.37264150943396,NA,NA
20711,Anne Arundel County,MD,NA,98.46698113207547,NA,NA
20723,Howard County,MD,76.33587786259542,NA,NA,NA
20740,Prince George's County,MD,NA,NA,NA,80.74534161490683
20743,Prince George's County,MD,59.92366412213741,NA,NA,NA
20747,Prince George's County,MD,NA,NA,65.90563165905633,NA
20748,Prince George's County,MD,NA,49.29245283018868,NA,NA
20774,Prince George's County,MD,NA,NA,44.596651445966515,NA
20781,Prince George's County,MD,NA,NA,98.93455098934551,NA
20814,Montgomery County,MD,NA,81.25,80.97412480974124,NA
20815,Montgomery County,MD,NA,NA,79.60426179604262,NA
20852,Montgomery County,MD,NA,NA,NA,22.25672877846791
20853,Montgomery County,MD,NA,NA,NA,55.072463768115945
20874,Montgomery County,MD,NA,51.53301886792453,NA,NA
20876,Montgomery County,MD,NA,NA,NA,91.7184265010352
20878,Montgomery County,MD,NA,NA,NA,69.66873706004141
20895,Montgomery County,MD,NA,90.80188679245283,NA,NA
21012,Anne Arundel County,MD,NA,NA,NA,73.6024844720497
21014,Harford County,MD,NA,NA,32.115677321156774,35.196687370600415
21042,Howard County,MD,NA,73.46698113207547,63.926940639269404,NA
21050,Harford County,MD,NA,NA,NA,65.21739130434783
21054,Anne Arundel County,MD,NA,NA,NA,93.2712215320911
21060,Anne Arundel County,MD,NA,NA,NA,39.02691511387164
21093,Baltimore County,MD,NA,47.87735849056604,NA,NA
21108,Anne Arundel County,MD,79.00763358778626,NA,NA,NA
21113,Anne Arundel County,MD,NA,NA,NA,54.14078674948241
21114,Anne Arundel County,MD,NA,NA,90.56316590563166,NA
21136,Baltimore County,MD,NA,NA,NA,72.2567287784679
21146,Anne Arundel County,MD,NA,NA,NA,88.81987577639751
21201,Baltimore city,MD,NA,NA,NA,65.63146997929607
21202,Baltimore city,MD,61.45038167938931,NA,NA,NA
21206,Baltimore city,MD,NA,12.617924528301888,NA,NA
21207,Baltimore County,MD,NA,24.528301886792452,NA,NA
21209,Baltimore County,MD,NA,NA,66.9710806697108,NA
21213,Baltimore city,MD,NA,NA,12.1765601217656,NA
21218,Baltimore city,MD,NA,NA,10.350076103500761,NA
21220,Baltimore County,MD,NA,NA,NA,28.674948240165634
21221,Baltimore County,MD,NA,NA,NA,26.293995859213247
21222,Baltimore County,MD,16.793893129770993,NA,2.28310502283105,NA
21223,Baltimore city,MD,45.80152671755725,NA,NA,NA
21403,Anne Arundel County,MD,76.7175572519084,NA,NA,NA
21550,Garrett County,MD,NA,NA,NA,14.699792960662524
21713,Washington County,MD,NA,NA,94.06392694063926,NA
21740,Washington County,MD,NA,NA,26.48401826484018,NA
21788,Frederick County,MD,NA,NA,NA,95.54865424430642
21901,Cecil County,MD,NA,NA,NA,81.88405797101449
01002,Hampshire County,MA,NA,NA,85.2359208523592,56.7287784679089
01013,Hampden County,MA,NA,NA,71.38508371385083,NA
01028,Hampden County,MA,NA,NA,NA,46.68737060041408
01085,Hampden County,MA,NA,11.910377358490566,40.03044140030441,5.797101449275362
01095,Hampden County,MA,78.2442748091603,NA,NA,NA
01104,Hampden County,MA,NA,NA,NA,94.61697722567288
01107,Hampden County,MA,NA,NA,3.0441400304414,NA
01108,Hampden County,MA,1.5267175572519083,1.7688679245283019,NA,NA
01201,Berkshire County,MA,NA,0.1179245283018868,3.95738203957382,NA
01220,Berkshire County,MA,NA,NA,NA,71.84265010351967
01267,Berkshire County,MA,NA,NA,NA,56.935817805383024
01460,Middlesex County,MA,NA,NA,NA,66.25258799171843
01516,Worcester County,MA,NA,37.38207547169811,NA,NA
01536,Worcester County,MA,NA,NA,84.47488584474885,NA
01540,Worcester County,MA,NA,NA,NA,61.387163561076605
01568,Worcester County,MA,NA,NA,NA,23.60248447204969
01570,Worcester County,MA,NA,NA,NA,16.149068322981368
01571,Worcester County,MA,NA,NA,65.75342465753424,NA
01588,Worcester County,MA,NA,NA,NA,69.04761904761905
01603,Worcester County,MA,NA,2.1226415094339623,2.5875190258751903,NA
01604,Worcester County,MA,75.19083969465649,7.311320754716981,NA,NA
01605,Worcester County,MA,8.778625954198473,1.5330188679245282,NA,NA
01607,Worcester County,MA,NA,NA,36.5296803652968,NA
01609,Worcester County,MA,NA,NA,6.0882800608828,NA
01610,Worcester County,MA,NA,47.99528301886792,NA,NA
01701,Middlesex County,MA,NA,11.084905660377359,NA,NA
01756,Worcester County,MA,NA,NA,98.63013698630137,NA
01803,Middlesex County,MA,NA,NA,NA,1.3457556935817805
01821,Middlesex County,MA,NA,92.33490566037736,NA,6.935817805383023
01833,Essex County,MA,90.45801526717557,NA,76.71232876712328,NA
01843,Essex County,MA,NA,NA,NA,31.88405797101449
01844,Essex County,MA,NA,NA,NA,46.790890269151134
01845,Essex County,MA,NA,NA,10.6544901065449,NA
01851,Middlesex County,MA,NA,2.358490566037736,NA,NA
01852,Middlesex County,MA,12.213740458015266,NA,NA,NA
01854,Middlesex County,MA,29.389312977099237,NA,98.02130898021308,NA
01862,Middlesex County,MA,85.87786259541986,NA,NA,NA
01876,Middlesex County,MA,NA,NA,NA,58.281573498964804
01904,Essex County,MA,NA,11.202830188679245,NA,NA
01905,Essex County,MA,NA,NA,7.4581430745814306,NA
01907,Essex County,MA,NA,NA,NA,14.906832298136646
01930,Essex County,MA,NA,NA,NA,5.590062111801243
01945,Essex County,MA,NA,NA,NA,26.39751552795031
01960,Essex County,MA,NA,NA,0.60882800608828,NA
02035,Norfolk County,MA,NA,NA,23.59208523592085,NA
02072,Norfolk County,MA,NA,NA,NA,77.63975155279503
02116,Suffolk County,MA,NA,NA,3.34855403348554,NA
02118,Suffolk County,MA,NA,2.240566037735849,NA,NA
02119,Suffolk County,MA,NA,NA,0.30441400304414,NA
02120,Suffolk County,MA,NA,NA,95.4337899543379,NA
02122,Suffolk County,MA,NA,41.863207547169814,NA,NA
02124,Suffolk County,MA,0.7633587786259541,0,NA,NA
02126,Suffolk County,MA,NA,3.891509433962264,NA,NA
02128,Suffolk County,MA,NA,0.589622641509434,NA,NA
02130,Suffolk County,MA,NA,8.726415094339622,NA,NA
02139,Middlesex County,MA,NA,NA,NA,10.144927536231885
02140,Middlesex County,MA,NA,NA,78.53881278538812,NA
02149,Middlesex County,MA,NA,NA,1.5220700152207,NA
02151,Suffolk County,MA,NA,NA,0,NA
02155,Middlesex County,MA,NA,NA,0.91324200913242,NA
02180,Middlesex County,MA,NA,13.20754716981132,NA,NA
02184,Norfolk County,MA,NA,NA,NA,6.728778467908903
02301,Plymouth County,MA,15.267175572519085,NA,NA,NA
02330,Plymouth County,MA,NA,NA,NA,67.59834368530021
02368,Norfolk County,MA,NA,NA,NA,18.530020703933747
02382,Plymouth County,MA,NA,66.0377358490566,NA,NA
02451,Middlesex County,MA,NA,NA,17.65601217656012,NA
02467,Norfolk County,MA,NA,NA,NA,65.73498964803312
02476,Middlesex County,MA,NA,NA,NA,39.23395445134575
02532,Barnstable County,MA,NA,NA,NA,48.65424430641822
02538,Plymouth County,MA,NA,NA,85.69254185692542,NA
02601,Barnstable County,MA,NA,NA,21.91780821917808,NA
02632,Barnstable County,MA,NA,NA,52.96803652968036,NA
02645,Barnstable County,MA,NA,NA,NA,60.66252587991718
02664,Barnstable County,MA,NA,61.79245283018868,NA,NA
02668,Barnstable County,MA,NA,NA,88.73668188736681,NA
02673,Barnstable County,MA,NA,NA,NA,82.6086956521739
02717,Bristol County,MA,NA,NA,NA,90.47619047619048
02720,Bristol County,MA,4.580152671755725,NA,NA,NA
02721,Bristol County,MA,NA,0.7075471698113208,NA,NA
02739,Plymouth County,MA,NA,NA,87.21461187214612,NA
02740,Bristol County,MA,NA,3.1839622641509435,0.45662100456621,NA
02744,Bristol County,MA,NA,NA,33.789954337899545,NA
02746,Bristol County,MA,NA,14.858490566037736,NA,NA
02748,Bristol County,MA,NA,44.575471698113205,58.9041095890411,NA
02766,Bristol County,MA,NA,NA,NA,89.95859213250517
02771,Bristol County,MA,52.29007633587786,NA,NA,NA
02780,Bristol County,MA,2.2900763358778624,NA,NA,NA
48035,Macomb County,MI,NA,NA,8.980213089802131,NA
48045,Macomb County,MI,NA,NA,15.37290715372907,NA
48047,Macomb County,MI,NA,NA,NA,29.81366459627329
48066,Macomb County,MI,NA,NA,NA,6.211180124223603
48080,Macomb County,MI,NA,NA,NA,21.63561076604555
48082,Macomb County,MI,NA,NA,NA,79.39958592132506
48083,Oakland County,MI,NA,NA,NA,69.46169772256728
48091,Macomb County,MI,NA,NA,15.068493150684931,NA
48092,Macomb County,MI,NA,NA,20.54794520547945,NA
48093,Macomb County,MI,NA,NA,NA,54.45134575569358
48103,Washtenaw County,MI,NA,NA,NA,0.8281573498964804
48105,Washtenaw County,MI,NA,NA,NA,53.105590062111794
48118,Washtenaw County,MI,NA,NA,NA,25.465838509316768
48144,Monroe County,MI,NA,90.68396226415094,NA,NA
48150,Wayne County,MI,NA,NA,NA,45.03105590062112
48162,Monroe County,MI,NA,46.10849056603774,NA,NA
48169,Livingston County,MI,NA,53.77358490566038,NA,NA
48183,Wayne County,MI,NA,9.787735849056604,NA,NA
48184,Wayne County,MI,NA,16.9811320754717,24.3531202435312,NA
48187,Wayne County,MI,NA,NA,NA,6.3146997929606625
48198,Washtenaw County,MI,3.435114503816794,16.27358490566038,11.71993911719939,NA
48205,Wayne County,MI,NA,NA,NA,60.86956521739131
48206,Wayne County,MI,NA,NA,29.071537290715373,NA
48213,Wayne County,MI,NA,11.43867924528302,25.41856925418569,NA
48219,Wayne County,MI,NA,NA,NA,12.008281573498964
48221,Wayne County,MI,NA,NA,6.2404870624048705,NA
48234,Wayne County,MI,NA,NA,14.00304414003044,NA
48240,Wayne County,MI,NA,22.52358490566038,NA,NA
48309,Oakland County,MI,NA,NA,NA,20.70393374741201
48314,Macomb County,MI,NA,NA,NA,59.73084886128365
48322,Oakland County,MI,NA,NA,NA,2.7950310559006213
48329,Oakland County,MI,NA,NA,19.93911719939117,NA
48335,Oakland County,MI,NA,56.60377358490566,NA,NA
48336,Oakland County,MI,NA,NA,NA,25.672877846790893
48346,Oakland County,MI,NA,NA,NA,41.09730848861284
48348,Oakland County,MI,74.80916030534351,NA,NA,NA
48360,Oakland County,MI,NA,75.35377358490565,68.4931506849315,NA
48377,Oakland County,MI,NA,NA,NA,90.06211180124224
48430,Genesee County,MI,NA,NA,NA,18.219461697722565
48444,Lapeer County,MI,NA,NA,80.2130898021309,NA
48450,Sanilac County,MI,NA,NA,NA,83.436853002070393
48458,Genesee County,MI,NA,33.84433962264151,NA,NA
48473,Genesee County,MI,NA,48.2311320754717,NA,NA
48503,Genesee County,MI,NA,NA,18.72146118721461,NA
48504,Genesee County,MI,NA,19.10377358490566,NA,NA
48507,Genesee County,MI,NA,10.377358490566039,NA,NA
48601,Saginaw County,MI,NA,13.443396226415095,3.8051750380517504,NA
48612,Gladwin County,MI,NA,NA,50.076103500761036,NA
48616,Saginaw County,MI,97.32824427480917,NA,NA,NA
48617,Clare County,MI,NA,NA,NA,89.648033126294
48624,Gladwin County,MI,NA,NA,17.960426179604262,NA
48640,Midland County,MI,NA,NA,NA,3.5196687370600417
48706,Bay County,MI,NA,NA,1.97869101978691,1.6563146997929608
48708,Bay County,MI,31.679389312977097,8.372641509433961,NA,NA
48838,Montcalm County,MI,NA,NA,NA,36.85300207039337
48846,Ionia County,MI,NA,42.924528301886795,NA,NA
48867,Shiawassee County,MI,NA,NA,NA,6.107660455486543
48910,Ingham County,MI,NA,NA,NA,31.780538302277435
49022,Berrien County,MI,NA,NA,NA,15.942028985507244
49047,Cass County,MI,NA,NA,29.52815829528158,NA
49048,Kalamazoo County,MI,NA,18.632075471698112,NA,NA
49058,Barry County,MI,NA,33.72641509433962,NA,NA
49079,Van Buren County,MI,NA,73.93867924528303,50.38051750380518,NA
49080,Allegan County,MI,NA,NA,NA,55.175983436853
49085,Berrien County,MI,NA,NA,46.57534246575342,NA
49120,Berrien County,MI,NA,15.212264150943398,NA,NA
49201,Jackson County,MI,13.358778625954198,NA,NA,NA
49202,Jackson County,MI,NA,36.32075471698113,NA,20.80745341614907
49221,Lenawee County,MI,NA,NA,28.767123287671232,NA
49251,Ingham County,MI,NA,NA,NA,99.58592132505176
49343,Kent County,MI,NA,NA,NA,93.99585921325053
49345,Kent County,MI,NA,NA,63.31811263318112,NA
49420,Oceana County,MI,NA,75.11792452830188,NA,NA
49423,Ottawa County,MI,14.50381679389313,NA,NA,NA
49428,Ottawa County,MI,NA,NA,31.506849315068493,NA
49437,Muskegon County,MI,NA,NA,76.25570776255708,NA
49442,Muskegon County,MI,NA,3.30188679245283,NA,NA
49444,Muskegon County,MI,NA,NA,NA,19.461697722567287
49456,Ottawa County,MI,NA,NA,NA,17.70186335403727
49504,Kent County,MI,NA,NA,11.263318112633181,NA
49506,Kent County,MI,NA,NA,NA,16.35610766045549
49509,Kent County,MI,NA,NA,16.13394216133942,NA
49519,Kent County,MI,NA,NA,NA,32.091097308488614
49534,Kent County,MI,NA,63.79716981132076,NA,NA
49548,Kent County,MI,NA,8.018867924528301,NA,NA
49735,Otsego County,MI,NA,NA,NA,21.94616977225673
49749,Cheboygan County,MI,NA,NA,88.88888888888889,NA
49781,Mackinac County,MI,NA,98.93867924528303,NA,NA
49783,Chippewa County,MI,NA,NA,19.48249619482496,NA
49829,Delta County,MI,NA,NA,NA,25.77639751552795
49878,Delta County,MI,NA,NA,89.04109589041096,NA
49938,Gogebic County,MI,NA,NA,NA,55.6935817805383
55014,Anoka County,MN,NA,NA,NA,93.68530020703933
55021,Rice County,MN,58.01526717557252,NA,77.32115677321157,NA
55025,Washington County,MN,43.12977099236641,63.089622641509436,NA,NA
55042,Washington County,MN,NA,NA,83.71385083713851,NA
55056,Chisago County,MN,72.90076335877863,NA,NA,NA
55060,Steele County,MN,NA,NA,30.898021308980212,NA
55082,Washington County,MN,NA,NA,24.65753424657534,NA
55101,Ramsey County,MN,NA,70.51886792452831,NA,NA
55102,Ramsey County,MN,NA,32.075471698113205,NA,NA
55104,Ramsey County,MN,NA,NA,42.16133942161339,NA
55106,Ramsey County,MN,NA,6.8396226415094334,NA,NA
55113,Ramsey County,MN,NA,NA,49.467275494672755,NA
55117,Ramsey County,MN,NA,17.21698113207547,NA,NA
55124,Dakota County,MN,NA,NA,41.856925418569254,NA
55129,Washington County,MN,NA,NA,NA,86.5424430641822
55304,Anoka County,MN,19.84732824427481,NA,NA,NA
55306,Dakota County,MN,85.49618320610686,NA,NA,NA
55313,Wright County,MN,22.137404580152673,NA,NA,NA
55376,Wright County,MN,NA,NA,NA,95.13457556935818
55379,Scott County,MN,NA,NA,49.31506849315068,NA
55387,Carver County,MN,NA,NA,87.67123287671232,NA
55398,Sherburne County,MN,NA,NA,NA,97.9296066252588
55401,Hennepin County,MN,NA,69.33962264150944,NA,NA
55403,Hennepin County,MN,NA,25.117924528301888,37.595129375951295,NA
55404,Hennepin County,MN,NA,1.4150943396226416,NA,NA
55406,Hennepin County,MN,NA,NA,69.25418569254185,NA
55408,Hennepin County,MN,NA,12.028301886792454,NA,NA
55411,Hennepin County,MN,NA,17.92452830188679,NA,NA
55413,Hennepin County,MN,NA,NA,51.2937595129376,NA
55415,Hennepin County,MN,NA,90.91981132075472,NA,NA
55416,Hennepin County,MN,NA,47.64150943396226,NA,NA
55422,Hennepin County,MN,NA,33.25471698113208,NA,NA
55423,Hennepin County,MN,NA,21.580188679245282,NA,NA
55426,Hennepin County,MN,NA,80.4245283018868,NA,72.5672877846791
55427,Hennepin County,MN,NA,60.96698113207547,90.41095890410958,NA
55428,Hennepin County,MN,NA,NA,34.39878234398782,NA
55429,Hennepin County,MN,NA,66.98113207547169,NA,NA
55430,Hennepin County,MN,NA,55.660377358490564,NA,NA
55431,Hennepin County,MN,NA,NA,80.36529680365297,NA
55442,Hennepin County,MN,NA,93.51415094339622,NA,NA
55448,Anoka County,MN,NA,NA,65.44901065449011,NA
55720,Carlton County,MN,NA,NA,NA,36.85300207039337
55746,St. Louis County,MN,NA,NA,33.181126331811264,NA
55803,St. Louis County,MN,NA,72.05188679245283,NA,NA
55805,St. Louis County,MN,NA,50.235849056603776,NA,NA
55811,St. Louis County,MN,NA,32.90094339622642,NA,15.631469979296067
55902,Olmsted County,MN,NA,NA,NA,63.25051759834368
55904,Olmsted County,MN,NA,40.56603773584906,NA,NA
56001,Blue Earth County,MN,NA,69.69339622641509,NA,NA
56003,Nicollet County,MN,NA,NA,73.51598173515981,NA
56031,Martin County,MN,33.969465648854964,87.97169811320755,61.49162861491628,NA
56073,Brown County,MN,NA,61.67452830188679,NA,NA
56215,Swift County,MN,NA,NA,NA,85.71428571428571
56283,Redwood County,MN,NA,NA,86.91019786910198,NA
56301,Stearns County,MN,33.587786259541986,48.58490566037736,NA,NA
56303,Stearns County,MN,NA,NA,NA,49.58592132505176
56304,Sherburne County,MN,NA,66.15566037735849,NA,NA
56308,Douglas County,MN,8.015267175572518,NA,NA,NA
56362,Stearns County,MN,NA,NA,NA,83.64389233954451
56374,Stearns County,MN,93.12977099236642,NA,NA,NA
56379,Benton County,MN,NA,67.9245283018868,NA,NA
56501,Becker County,MN,73.2824427480916,NA,NA,15.631469979296067
56520,Wilkin County,MN,NA,79.36320754716981,NA,NA
56537,Otter Tail County,MN,NA,19.339622641509436,9.1324200913242,0.7246376811594203
56560,Clay County,MN,NA,NA,NA,0.4140786749482402
56601,Beltrami County,MN,NA,5.89622641509434,NA,0.6211180124223602
56621,Clearwater County,MN,NA,NA,NA,31.262939958592135
56721,Polk County,MN,NA,NA,NA,30.848861283643892
38635,Marshall County,MS,NA,77.83018867924528,NA,NA
38676,Tunica County,MS,96.18320610687023,NA,NA,97.30848861283644
38762,Bolivar County,MS,NA,99.41037735849056,NA,NA
38801,Lee County,MS,15.648854961832063,NA,NA,NA
38858,Monroe County,MS,NA,NA,NA,99.17184265010351
38965,Yalobusha County,MS,NA,NA,NA,66.87370600414079
39059,Copiah County,MS,NA,NA,NA,83.74741200828157
39120,Adams County,MS,NA,46.22641509433962,NA,NA
39157,Madison County,MS,NA,71.22641509433963,NA,NA
39170,Hinds County,MS,NA,84.55188679245283,NA,NA
39175,Hinds County,MS,NA,97.99528301886792,NA,NA
39305,Lauderdale County,MS,NA,NA,NA,48.75776397515528
39437,Jones County,MS,NA,NA,79.29984779299848,NA
39440,Jones County,MS,NA,64.15094339622641,NA,NA
39452,George County,MS,NA,NA,21.15677321156773,NA
39465,Forrest County,MS,NA,NA,NA,64.28571428571429
39520,Hancock County,MS,NA,NA,NA,53.62318840579711
39531,Harrison County,MS,51.908396946564885,NA,NA,NA
39532,Harrison County,MS,30.15267175572519,NA,NA,NA
39553,Jackson County,MS,NA,50.35377358490566,NA,NA
39560,Harrison County,MS,NA,NA,42.465753424657535,12.422360248447205
39601,Lincoln County,MS,57.63358778625955,NA,NA,NA
39645,Amite County,MS,NA,NA,92.3896499238965,NA
39705,Lowndes County,MS,NA,NA,85.84474885844749,NA
63028,Jefferson County,MO,NA,26.7688679245283,NA,NA
63031,St. Louis County,MO,NA,18.867924528301888,NA,NA
63042,St. Louis County,MO,NA,51.886792452830186,NA,NA
63043,St. Louis County,MO,NA,59.08018867924528,NA,NA
63084,Franklin County,MO,NA,NA,NA,40.993788819875775
63114,St. Louis County,MO,NA,NA,NA,35.40372670807454
63115,St. Louis city,MO,NA,NA,59.96955859969558,58.17805383022774
63118,St. Louis city,MO,NA,NA,46.42313546423135,NA
63120,St. Louis city,MO,NA,69.10377358490565,NA,NA
63134,St. Louis County,MO,NA,46.69811320754717,NA,NA
63139,St. Louis city,MO,NA,74.52830188679245,NA,NA
63147,St. Louis city,MO,NA,85.61320754716981,NA,NA
63301,St. Charles County,MO,NA,13.797169811320757,4.10958904109589,1.9668737060041408
63304,St. Charles County,MO,NA,NA,NA,15.113871635610765
63366,St. Charles County,MO,NA,NA,NA,7.971014492753622
63367,St. Charles County,MO,NA,NA,NA,20.496894409937887
63368,St. Charles County,MO,NA,NA,20.395738203957382,NA
63376,St. Charles County,MO,NA,NA,NA,2.898550724637681
63385,St. Charles County,MO,20.610687022900763,NA,NA,NA
63390,Warren County,MO,NA,NA,NA,66.66666666666666
63501,Adair County,MO,NA,NA,NA,66.66666666666666
63552,Macon County,MO,NA,NA,87.97564687975647,NA
63775,Perry County,MO,NA,40.2122641509434,NA,20.39337474120083
63830,Pemiscot County,MO,NA,NA,NA,92.85714285714286
64024,Clay County,MO,NA,19.221698113207548,NA,NA
64030,Jackson County,MO,NA,NA,17.04718417047184,NA
64050,Jackson County,MO,NA,16.15566037735849,NA,NA
64055,Jackson County,MO,NA,NA,7.610350076103501,NA
64060,Clay County,MO,NA,51.061320754716974,NA,NA
64075,Jackson County,MO,NA,NA,NA,84.67908902691511
64081,Jackson County,MO,NA,51.29716981132076,NA,NA
64093,Johnson County,MO,42.74809160305343,NA,NA,NA
64098,Platte County,MO,NA,97.64150943396226,NA,NA
64106,Jackson County,MO,NA,29.71698113207547,NA,NA
64111,Jackson County,MO,NA,65.68396226415094,NA,99.4824016563147
64119,Clay County,MO,NA,11.320754716981133,NA,NA
64129,Jackson County,MO,NA,55.188679245283026,NA,NA
64130,Jackson County,MO,NA,30.070754716981128,NA,NA
64131,Jackson County,MO,NA,15.09433962264151,NA,NA
64133,Jackson County,MO,NA,23.2311320754717,NA,NA
64150,Platte County,MO,NA,NA,95.12937595129375,NA
64155,Clay County,MO,20.99236641221374,NA,NA,NA
64424,Harrison County,MO,NA,NA,NA,61.49068322981367
64454,Clinton County,MO,NA,96.58018867924528,NA,NA
64601,Livingston County,MO,NA,54.95283018867924,NA,NA
64628,Linn County,MO,NA,87.61792452830188,NA,NA
64683,Grundy County,MO,NA,65.80188679245283,NA,NA
64772,Vernon County,MO,NA,45.87264150943396,NA,NA
64836,Jasper County,MO,NA,NA,28.462709284627092,13.561076604554865
65043,Callaway County,MO,NA,NA,NA,85.81780538302277
65049,Camden County,MO,NA,97.40566037735849,NA,NA
65251,Callaway County,MO,NA,32.31132075471698,NA,47.61904761904761
65301,Pettis County,MO,12.595419847328243,3.5377358490566038,NA,NA
65340,Saline County,MO,34.35114503816794,NA,NA,NA
65536,Laclede County,MO,NA,NA,NA,61.697722567287784
65622,Dallas County,MO,NA,NA,NA,55.27950310559007
65686,Stone County,MO,NA,NA,NA,88.50931677018633
65712,Lawrence County,MO,67.93893129770993,NA,NA,NA
65747,Barry County,MO,NA,NA,NA,97.51552795031056
65785,Cedar County,MO,75.95419847328245,NA,NA,NA
65791,Oregon County,MO,NA,NA,NA,88.50931677018633
65807,Greene County,MO,NA,29.245283018867923,15.52511415525114,NA
59044,Yellowstone County,MT,NA,NA,81.88736681887366,NA
59047,Park County,MT,NA,NA,NA,48.24016563146998
59102,Yellowstone County,MT,NA,48.82075471698113,NA,NA
59404,Cascade County,MT,NA,NA,NA,10.662525879917183
59405,Cascade County,MT,NA,30.89622641509434,NA,NA
59715,Gallatin County,MT,NA,NA,NA,55.90062111801242
59912,Flathead County,MT,NA,76.29716981132076,NA,NA
68025,Dodge County,NE,NA,NA,NA,37.78467908902691
68104,Douglas County,NE,37.404580152671755,NA,NA,NA
68116,Douglas County,NE,NA,NA,NA,71.32505175983437
68133,Sarpy County,NE,NA,NA,92.69406392694064,NA
68516,Lancaster County,NE,NA,70.75471698113208,NA,43.47826086956522
68801,Hall County,NE,NA,NA,72.29832572298326,NA
69001,Red Willow County,NE,NA,95.75471698113208,NA,NA
89103,Clark County,NV,69.46564885496184,NA,NA,NA
89104,Clark County,NV,36.6412213740458,42.57075471698113,NA,NA
89106,Clark County,NV,NA,53.41981132075472,NA,NA
89130,Clark County,NV,NA,60.49528301886793,NA,NA
89143,Clark County,NV,NA,NA,95.8904109589041,NA
89147,Clark County,NV,NA,45.40094339622642,NA,NA
89165,Clark County,NV,NA,96.81603773584906,NA,NA
89502,Washoe County,NV,NA,NA,NA,69.66873706004141
89815,Elko County,NV,NA,85.73113207547169,NA,NA
03031,Hillsborough County,NH,NA,81.01415094339622,NA,54.14078674948241
03054,Hillsborough County,NH,54.19847328244275,NA,NA,NA
03060,Hillsborough County,NH,NA,6.60377358490566,NA,NA
03063,Hillsborough County,NH,NA,NA,NA,33.643892339544514
03102,Hillsborough County,NH,46.94656488549619,NA,NA,NA
03103,Hillsborough County,NH,2.6717557251908395,5.660377358490567,9.43683409436834,NA
03275,Merrimack County,NH,52.67175572519084,NA,NA,NA
03301,Merrimack County,NH,NA,70.75471698113208,NA,NA
03431,Cheshire County,NH,NA,31.25,27.701674277016743,NA
03570,Coos County,NH,93.89312977099237,NA,NA,NA
03773,Sullivan County,NH,NA,98.82075471698113,NA,NA
03835,Strafford County,NH,NA,86.6745283018868,NA,NA
03867,Strafford County,NH,NA,75.94339622641509,NA,NA
07003,Essex County,NJ,NA,NA,NA,31.15942028985507
07010,Bergen County,NJ,NA,NA,NA,44.409937888198755
07013,Passaic County,NJ,NA,NA,NA,49.17184265010352
07030,Hudson County,NJ,NA,NA,27.54946727549467,NA
07035,Morris County,NJ,NA,NA,NA,99.37888198757764
07036,Union County,NJ,NA,NA,NA,29.08902691511387
07054,Morris County,NJ,NA,NA,NA,32.50517598343685
07060,Union County,NJ,NA,6.721698113207547,NA,NA
07066,Union County,NJ,NA,NA,NA,45.65217391304348
07093,Hudson County,NJ,NA,NA,NA,4.761904761904762
07104,Essex County,NJ,NA,0.9433962264150944,NA,NA
07106,Essex County,NJ,NA,4.363207547169811,NA,NA
07107,Essex County,NJ,NA,NA,5.6316590563165905,NA
07108,Essex County,NJ,NA,NA,17.80821917808219,NA
07111,Essex County,NJ,NA,76.76886792452831,NA,NA
07304,Hudson County,NJ,NA,NA,5.0228310502283104,NA
07306,Hudson County,NJ,NA,4.716981132075472,NA,NA
07410,Bergen County,NJ,NA,NA,NA,31.366459627329192
07436,Bergen County,NJ,NA,NA,91.01978691019787,NA
07442,Passaic County,NJ,NA,NA,78.23439878234399,NA
07628,Bergen County,NJ,NA,NA,NA,43.68530020703933
07731,Monmouth County,NJ,NA,NA,NA,91.09730848861284
07739,Monmouth County,NJ,NA,97.16981132075472,NA,NA
07834,Morris County,NJ,NA,NA,93.30289193302892,NA
07882,Warren County,NJ,NA,99.88207547169812,NA,NA
08002,Camden County,NJ,NA,NA,NA,35.61076604554865
08004,Camden County,NJ,NA,62.382075471698116,NA,NA
08021,Camden County,NJ,NA,0.4716981132075472,NA,NA
08036,Burlington County,NJ,NA,88.44339622641509,NA,NA
08043,Camden County,NJ,NA,48.34905660377358,NA,NA
08053,Burlington County,NJ,NA,NA,NA,12.732919254658384
08059,Camden County,NJ,NA,NA,96.80365296803653,NA
08060,Burlington County,NJ,NA,16.50943396226415,NA,NA
08070,Salem County,NJ,NA,54.363207547169814,NA,NA
08075,Burlington County,NJ,NA,NA,NA,60.14492753623188
08080,Gloucester County,NJ,NA,11.674528301886793,NA,NA
08088,Burlington County,NJ,NA,NA,26.94063926940639,NA
08090,Gloucester County,NJ,NA,NA,87.06240487062405,NA
08103,Camden County,NJ,NA,4.009433962264151,NA,NA
08210,Cape May County,NJ,NA,41.74528301886792,NA,NA
08226,Cape May County,NJ,91.98473282442748,NA,NA,NA
08251,Cape May County,NJ,NA,57.193396226415096,NA,NA
08302,Cumberland County,NJ,5.7251908396946565,NA,NA,NA
08332,Cumberland County,NJ,NA,NA,NA,39.54451345755693
08361,Cumberland County,NJ,NA,NA,NA,45.3416149068323
08401,Atlantic County,NJ,4.198473282442748,NA,NA,NA
08518,Burlington County,NJ,NA,84.90566037735849,NA,NA
08536,Middlesex County,NJ,NA,NA,96.04261796042618,NA
08618,Mercer County,NJ,7.633587786259542,NA,NA,NA
08619,Mercer County,NJ,NA,54.009433962264154,NA,NA
08648,Mercer County,NJ,NA,NA,41.400304414003045,NA
08690,Mercer County,NJ,NA,NA,NA,47.4120082815735
08742,Ocean County,NJ,45.038167938931295,NA,NA,NA
08753,Ocean County,NJ,NA,82.78301886792453,NA,NA
08759,Ocean County,NJ,NA,10.849056603773585,NA,NA
08822,Hunterdon County,NJ,NA,25.35377358490566,35.31202435312024,NA
08837,Middlesex County,NJ,NA,68.51415094339622,NA,NA
08844,Somerset County,NJ,NA,NA,NA,57.86749482401656
08848,Hunterdon County,NJ,NA,93.98584905660378,NA,NA
87102,Bernalillo County,NM,NA,23.702830188679243,NA,NA
87107,Bernalillo County,NM,NA,35.7311320754717,NA,40.26915113871636
87108,Bernalillo County,NM,NA,6.485849056603773,NA,NA
87110,Bernalillo County,NM,7.251908396946565,NA,NA,NA
87111,Bernalillo County,NM,NA,NA,NA,3.4161490683229814
87120,Bernalillo County,NM,NA,39.03301886792453,11.56773211567732,NA
87401,San Juan County,NM,NA,17.806603773584907,NA,NA
87413,San Juan County,NM,NA,NA,NA,87.06004140786749
87505,Santa Fe County,NM,NA,4.481132075471698,NA,NA
88101,Curry County,NM,NA,NA,NA,4.451345755693581
88210,Eddy County,NM,NA,NA,95.58599695585997,NA
10010,New York County,NY,NA,NA,63.62252663622526,NA
10011,New York County,NY,NA,42.924528301886795,NA,NA
10013,New York County,NY,NA,NA,NA,84.16149068322981
10016,New York County,NY,61.06870229007634,NA,NA,NA
10018,New York County,NY,97.70992366412213,NA,NA,NA
10025,New York County,NY,NA,NA,1.82648401826484,NA
10028,New York County,NY,NA,NA,NA,16.563146997929607
10033,New York County,NY,NA,NA,NA,12.215320910973086
10034,New York County,NY,NA,37.14622641509434,NA,NA
10035,New York County,NY,NA,5.306603773584905,NA,NA
10037,New York County,NY,NA,NA,NA,41.61490683229814
10040,New York County,NY,NA,NA,NA,29.19254658385093
10306,Richmond County,NY,NA,20.754716981132077,NA,NA
10309,Richmond County,NY,NA,NA,81.12633181126331,NA
10314,Richmond County,NY,NA,NA,24.80974124809741,NA
10452,Bronx County,NY,NA,NA,1.36986301369863,NA
10453,Bronx County,NY,NA,1.0613207547169812,NA,NA
10455,Bronx County,NY,NA,NA,42.77016742770167,14.078674948240167
10456,Bronx County,NY,NA,0.2358490566037736,NA,NA
10457,Bronx County,NY,NA,4.834905660377359,NA,8.902691511387163
10469,Bronx County,NY,NA,NA,NA,3.2091097308488616
10472,Bronx County,NY,NA,NA,NA,13.664596273291925
10473,Bronx County,NY,NA,24.056603773584907,NA,NA
10475,Bronx County,NY,NA,NA,NA,5.175983436853002
10512,Putnam County,NY,NA,NA,NA,62.11180124223602
10573,Westchester County,NY,NA,NA,NA,28.05383022774327
10701,Westchester County,NY,NA,1.8867924528301887,4.26179604261796,NA
10801,Westchester County,NY,NA,NA,33.181126331811264,NA
10940,Orange County,NY,NA,17.57075471698113,NA,NA
10977,Rockland County,NY,NA,NA,64.38356164383562,NA
10990,Orange County,NY,NA,NA,NA,89.13043478260869
11023,Nassau County,NY,NA,NA,NA,87.68115942028986
11102,Queens County,NY,NA,52.358490566037744,NA,NA
11204,Kings County,NY,NA,30.306603773584907,NA,NA
11205,Kings County,NY,NA,13.089622641509436,NA,NA
11206,Kings County,NY,NA,NA,NA,3.9337474120082816
11210,Kings County,NY,NA,NA,20.54794520547945,NA
11212,Kings County,NY,NA,1.2971698113207548,1.21765601217656,NA
11220,Kings County,NY,NA,NA,4.71841704718417,NA
11225,Kings County,NY,NA,NA,14.45966514459665,NA
11233,Kings County,NY,6.106870229007633,NA,NA,NA
11355,Queens County,NY,NA,NA,NA,13.250517598343686
11357,Queens County,NY,NA,77.12264150943396,NA,NA
11372,Queens County,NY,NA,NA,NA,7.453416149068323
11374,Queens County,NY,NA,NA,NA,55.90062111801242
11375,Queens County,NY,NA,NA,NA,5.383022774327122
11377,Queens County,NY,NA,NA,NA,17.28778467908903
11378,Queens County,NY,72.51908396946564,NA,NA,NA
11417,Queens County,NY,NA,55.306603773584904,NA,NA
11420,Queens County,NY,NA,52.948113207547166,NA,NA
11432,Queens County,NY,NA,NA,NA,24.12008281573499
11436,Queens County,NY,NA,89.62264150943396,NA,NA
11554,Nassau County,NY,NA,NA,NA,20.80745341614907
11580,Nassau County,NY,NA,NA,NA,26.70807453416149
11581,Nassau County,NY,NA,NA,NA,66.45962732919256
11716,Suffolk County,NY,NA,96.93396226415094,NA,NA
11717,Suffolk County,NY,NA,20.047169811320757,NA,NA
11727,Suffolk County,NY,NA,NA,NA,36.542443064182194
11762,Nassau County,NY,NA,NA,NA,38.405797101449274
11784,Suffolk County,NY,NA,71.93396226415094,NA,NA
12010,Montgomery County,NY,NA,NA,69.86301369863014,NA
12020,Saratoga County,NY,NA,21.462264150943398,25.8751902587519,NA
12118,Saratoga County,NY,79.77099236641222,NA,57.8386605783866,NA
12138,Rensselaer County,NY,NA,98.34905660377359,NA,NA
12159,Albany County,NY,NA,NA,NA,92.54658385093167
12205,Albany County,NY,NA,59.66981132075472,NA,NA
12206,Albany County,NY,NA,NA,NA,93.7888198757764
12208,Albany County,NY,51.526717557251914,NA,NA,NA
12210,Albany County,NY,63.358778625954194,NA,NA,NA
12304,Schenectady County,NY,NA,32.193396226415096,NA,NA
12308,Schenectady County,NY,56.87022900763359,NA,NA,NA
12309,Schenectady County,NY,NA,NA,67.88432267884322,74.63768115942028
12538,Dutchess County,NY,NA,NA,NA,50.828157349896486
12570,Dutchess County,NY,NA,NA,NA,95.34161490683229
12822,Saratoga County,NY,87.02290076335878,NA,NA,NA
12839,Washington County,NY,NA,NA,NA,53.83022774327122
12944,Essex County,NY,NA,77.94811320754717,NA,NA
13035,Madison County,NY,NA,NA,NA,94.51345755693582
13037,Madison County,NY,NA,66.86320754716981,NA,NA
13069,Oswego County,NY,88.93129770992367,4.599056603773585,NA,NA
13073,Tompkins County,NY,NA,NA,NA,99.06832298136646
13088,Onondaga County,NY,69.8473282442748,NA,NA,NA
13208,Onondaga County,NY,NA,45.5188679245283,NA,NA
13215,Onondaga County,NY,NA,NA,NA,69.66873706004141
13348,Otsego County,NY,NA,NA,98.17351598173516,NA
13617,St. Lawrence County,NY,NA,NA,NA,42.339544513457554
13619,Jefferson County,NY,NA,NA,NA,32.815734989648035
13754,Broome County,NY,NA,74.88207547169812,NA,NA
13760,Broome County,NY,NA,NA,NA,70.28985507246377
13815,Chenango County,NY,NA,NA,11.415525114155251,65.0103519668737
13827,Tioga County,NY,NA,24.29245283018868,NA,NA
13856,Delaware County,NY,NA,NA,38.20395738203957,88.71635610766046
14052,Erie County,NY,NA,NA,59.665144596651444,NA
14075,Erie County,NY,NA,NA,33.181126331811264,9.109730848861282
14150,Erie County,NY,NA,NA,5.78386605783866,15.527950310559005
14212,Erie County,NY,NA,NA,77.77777777777779,NA
14214,Erie County,NY,NA,NA,46.727549467275495,NA
14215,Erie County,NY,NA,NA,6.8493150684931505,NA
14220,Erie County,NY,11.450381679389313,NA,NA,NA
14223,Erie County,NY,NA,NA,40.63926940639269,NA
14224,Erie County,NY,NA,5.070754716981132,NA,NA
14225,Erie County,NY,NA,9.433962264150944,15.67732115677321,NA
14227,Erie County,NY,NA,25.943396226415093,NA,NA
14425,Ontario County,NY,NA,NA,NA,91.40786749482402
14445,Monroe County,NY,80.53435114503816,NA,NA,NA
14464,Monroe County,NY,NA,57.78301886792453,NA,NA
14534,Monroe County,NY,NA,NA,NA,23.395445134575567
14551,Wayne County,NY,NA,NA,70.92846270928462,NA
14569,Wyoming County,NY,NA,70.28301886792453,NA,NA
14580,Monroe County,NY,NA,1.179245283018868,NA,NA
14605,Monroe County,NY,NA,NA,NA,68.53002070393374
14616,Monroe County,NY,NA,NA,7.91476407914764,NA
14619,Monroe County,NY,NA,NA,NA,86.43892339544513
14621,Monroe County,NY,NA,0.8254716981132075,NA,NA
14623,Monroe County,NY,NA,17.68867924528302,NA,NA
14624,Monroe County,NY,NA,NA,NA,8.695652173913043
14845,Chemung County,NY,NA,NA,NA,30.33126293995859
14892,Tioga County,NY,NA,NA,61.339421613394215,NA
27017,Surry County,NC,NA,NA,52.35920852359208,NA
27030,Surry County,NC,NA,NA,13.698630136986301,NA
27048,Rockingham County,NC,NA,NA,NA,82.09109730848861
27052,Stokes County,NC,92.74809160305344,NA,NA,58.69565217391305
27103,Forsyth County,NC,NA,NA,8.21917808219178,NA
27104,Forsyth County,NC,NA,31.132075471698112,NA,2.1739130434782608
27105,Forsyth County,NC,3.816793893129771,NA,NA,NA
27106,Forsyth County,NC,NA,NA,3.1963470319634704,NA
27107,Forsyth County,NC,NA,NA,NA,1.0351966873706004
27127,Forsyth County,NC,NA,NA,NA,4.658385093167702
27217,Alamance County,NC,NA,47.40566037735849,NA,NA
27244,Alamance County,NC,NA,NA,80.36529680365297,NA
27282,Guilford County,NC,NA,NA,NA,98.4472049689441
27284,Forsyth County,NC,45.038167938931295,7.193396226415095,NA,1.7598343685300208
27295,Davidson County,NC,NA,21.816037735849054,NA,NA
27317,Randolph County,NC,NA,59.31603773584906,NA,74.43064182194618
27377,Guilford County,NC,NA,NA,NA,80.95238095238095
27511,Wake County,NC,NA,69.45754716981132,NA,33.22981366459628
27521,Harnett County,NC,NA,NA,NA,92.7536231884058
27534,Wayne County,NC,NA,39.50471698113208,NA,NA
27539,Wake County,NC,NA,NA,NA,98.34368530020704
27549,Franklin County,NC,NA,NA,33.94216133942161,NA
27596,Franklin County,NC,NA,NA,NA,76.60455486542443
27613,Wake County,NC,NA,NA,NA,53.002070393374744
27615,Wake County,NC,NA,NA,NA,10.559006211180124
27616,Wake County,NC,NA,NA,38.660578386605785,NA
27703,Durham County,NC,NA,NA,NA,59.3167701863354
27713,Durham County,NC,NA,NA,NA,15.010351966873706
27807,Nash County,NC,NA,92.9245283018868,NA,NA
27823,Halifax County,NC,NA,78.65566037735849,NA,NA
27828,Pitt County,NC,NA,89.38679245283019,NA,NA
27856,Nash County,NC,NA,79.83490566037736,NA,NA
27858,Pitt County,NC,NA,27.830188679245282,44.29223744292237,NA
27889,Beaufort County,NC,NA,NA,22.67884322678843,NA
27909,Pasquotank County,NC,NA,NA,10.95890410958904,NA
27958,Currituck County,NC,NA,NA,NA,93.58178053830227
28001,Stanly County,NC,NA,NA,NA,84.36853002070393
28027,Cabarrus County,NC,NA,NA,NA,19.358178053830226
28075,Cabarrus County,NC,NA,NA,NA,75.46583850931677
28079,Union County,NC,NA,NA,NA,39.02691511387164
28081,Cabarrus County,NC,NA,23.93867924528302,NA,NA
28086,Cleveland County,NC,NA,NA,NA,43.89233954451346
28092,Lincoln County,NC,NA,NA,NA,38.612836438923395
28112,Union County,NC,NA,NA,37.13850837138508,32.608695652173914
28127,Stanly County,NC,NA,NA,84.32267884322678,NA
28144,Rowan County,NC,NA,38.67924528301887,NA,NA
28146,Rowan County,NC,NA,36.08490566037736,NA,NA
28152,Cleveland County,NC,NA,NA,66.05783866057838,NA
28164,Gaston County,NC,NA,NA,77.77777777777779,52.27743271221532
28174,Union County,NC,NA,95.87264150943396,91.32420091324201,NA
28205,Mecklenburg County,NC,NA,NA,26.17960426179604,NA
28206,Mecklenburg County,NC,NA,NA,68.79756468797564,NA
28207,Mecklenburg County,NC,NA,NA,NA,82.09109730848861
28208,Mecklenburg County,NC,NA,9.90566037735849,NA,NA
28213,Mecklenburg County,NC,NA,28.537735849056606,NA,NA
28226,Mecklenburg County,NC,NA,NA,47.1841704718417,NA
28227,Mecklenburg County,NC,NA,NA,NA,23.809523809523807
28301,Cumberland County,NC,NA,41.509433962264154,NA,NA
28314,Cumberland County,NC,6.488549618320611,33.60849056603774,NA,78.05383022774328
28348,Cumberland County,NC,NA,NA,41.70471841704718,NA
28358,Robeson County,NC,NA,NA,NA,52.0703933747412
28390,Harnett County,NC,NA,NA,NA,65.94202898550725
28401,New Hanover County,NC,NA,10.61320754716981,NA,NA
28409,New Hanover County,NC,NA,NA,15.82952815829528,NA
28412,New Hanover County,NC,NA,16.037735849056602,NA,NA
28461,Brunswick County,NC,NA,NA,7.15372907153729,NA
28463,Columbus County,NC,NA,75.58962264150944,NA,NA
28466,Duplin County,NC,NA,72.52358490566037,NA,NA
28513,Pitt County,NC,NA,82.0754716981132,NA,NA
28540,Onslow County,NC,NA,NA,67.12328767123287,NA
28562,Craven County,NC,NA,NA,NA,67.18426501035196
28580,Greene County,NC,NA,NA,96.34703196347031,NA
28602,Catawba County,NC,NA,23.349056603773587,NA,NA
28613,Catawba County,NC,NA,NA,NA,68.73706004140787
28655,Burke County,NC,NA,NA,NA,7.142857142857142
28675,Alleghany County,NC,NA,NA,NA,77.22567287784679
28716,Haywood County,NC,NA,NA,43.07458143074581,NA
28746,Rutherford County,NC,NA,NA,NA,99.27536231884058
28771,Graham County,NC,NA,NA,79.1476407914764,NA
28792,Henderson County,NC,NA,NA,NA,0.3105590062111801
58103,Cass County,ND,NA,7.547169811320755,NA,NA
58104,Cass County,ND,11.83206106870229,NA,NA,2.070393374741201
58501,Burleigh County,ND,NA,57.54716981132076,NA,NA
58503,Burleigh County,ND,NA,NA,NA,6.521739130434782
58701,Ward County,ND,NA,NA,8.37138508371385,13.768115942028986
58801,Williams County,ND,NA,NA,54.18569254185692,NA
43026,Franklin County,OH,NA,NA,62.86149162861492,NA
43050,Knox County,OH,54.58015267175572,NA,NA,NA
43081,Franklin County,OH,NA,NA,NA,20.28985507246377
43113,Pickaway County,OH,NA,NA,NA,6.418219461697723
43123,Franklin County,OH,NA,8.13679245283019,NA,NA
43125,Franklin County,OH,NA,NA,66.36225266362253,NA
43130,Fairfield County,OH,NA,NA,2.43531202435312,NA
43146,Pickaway County,OH,NA,NA,NA,97.10144927536231
43201,Franklin County,OH,NA,52.00471698113207,NA,NA
43206,Franklin County,OH,3.0534351145038165,12.853773584905662,NA,NA
43213,Franklin County,OH,NA,NA,NA,39.33747412008282
43220,Franklin County,OH,NA,NA,55.25114155251142,37.267080745341616
43223,Franklin County,OH,NA,NA,25.11415525114155,NA
43224,Franklin County,OH,NA,NA,13.08980213089802,NA
43227,Franklin County,OH,NA,NA,NA,72.98136645962732
43229,Franklin County,OH,0,NA,NA,NA
43230,Franklin County,OH,NA,16.62735849056604,NA,NA
43315,Morrow County,OH,NA,NA,69.71080669710807,NA
43351,Wyandot County,OH,NA,NA,NA,45.8592132505176
43402,Wood County,OH,36.25954198473282,NA,12.93759512937595,NA
43420,Sandusky County,OH,NA,NA,NA,18.219461697722565
43526,Defiance County,OH,NA,51.17924528301887,NA,NA
43537,Lucas County,OH,NA,NA,11.87214611872146,NA
43545,Henry County,OH,NA,NA,46.87975646879756,NA
43604,Lucas County,OH,NA,NA,58.143074581430746,NA
43605,Lucas County,OH,NA,2.5943396226415096,NA,53.31262939958592
43607,Lucas County,OH,NA,5.778301886792453,NA,NA
43608,Lucas County,OH,NA,9.080188679245282,47.03196347031963,NA
43609,Lucas County,OH,NA,NA,NA,77.01863354037268
43611,Lucas County,OH,NA,14.268867924528303,NA,NA
43614,Lucas County,OH,NA,NA,9.74124809741248,52.69151138716356
43935,Belmont County,OH,NA,53.06603773584906,NA,NA
44004,Ashtabula County,OH,NA,2.4764150943396226,NA,12.836438923395447
44017,Cuyahoga County,OH,77.09923664122137,NA,NA,NA
44028,Lorain County,OH,NA,NA,NA,83.12629399585921
44030,Ashtabula County,OH,NA,NA,12.785388127853881,NA
44035,Lorain County,OH,1.1450381679389312,0.3537735849056604,0.15220700152207,NA
44055,Lorain County,OH,NA,NA,NA,11.283643892339544
44057,Lake County,OH,NA,NA,16.43835616438356,NA
44060,Lake County,OH,NA,NA,1.06544901065449,NA
44074,Lorain County,OH,NA,81.48584905660378,NA,NA
44077,Lake County,OH,NA,NA,NA,0.10351966873706005
44081,Lake County,OH,NA,NA,NA,78.15734989648033
44087,Summit County,OH,NA,45.87264150943396,NA,NA
44092,Lake County,OH,NA,NA,NA,8.178053830227745
44095,Lake County,OH,NA,NA,43.22678843226788,NA
44105,Cuyahoga County,OH,NA,NA,0.76103500761035,1.8633540372670807
44108,Cuyahoga County,OH,NA,37.85377358490566,NA,NA
44114,Cuyahoga County,OH,NA,34.90566037735849,NA,NA
44116,Cuyahoga County,OH,NA,NA,NA,4.140786749482402
44124,Cuyahoga County,OH,NA,NA,NA,0
44125,Cuyahoga County,OH,NA,NA,NA,34.47204968944099
44129,Cuyahoga County,OH,NA,NA,12.02435312024353,NA
44130,Cuyahoga County,OH,NA,NA,1.67427701674277,NA
44135,Cuyahoga County,OH,NA,3.0660377358490565,NA,21.325051759834366
44136,Cuyahoga County,OH,32.44274809160305,NA,NA,NA
44138,Cuyahoga County,OH,NA,NA,22.831050228310502,NA
44139,Cuyahoga County,OH,37.786259541984734,NA,NA,NA
44143,Cuyahoga County,OH,NA,37.971698113207545,NA,0.9316770186335404
44144,Cuyahoga County,OH,NA,12.5,NA,NA
44145,Cuyahoga County,OH,NA,18.160377358490564,NA,NA
44149,Cuyahoga County,OH,44.274809160305345,NA,NA,10.662525879917183
44202,Portage County,OH,NA,NA,NA,72.36024844720497
44221,Summit County,OH,NA,NA,NA,11.387163561076605
44240,Portage County,OH,NA,29.36320754716981,NA,NA
44287,Wayne County,OH,NA,84.66981132075472,NA,NA
44302,Summit County,OH,NA,95.51886792452831,NA,NA
44311,Summit County,OH,NA,NA,86.7579908675799,NA
44314,Summit County,OH,NA,NA,NA,68.32298136645963
44406,Mahoning County,OH,NA,NA,NA,20.600414078674948
44420,Trumbull County,OH,NA,41.15566037735849,NA,NA
44502,Mahoning County,OH,NA,47.16981132075472,NA,NA
44511,Mahoning County,OH,NA,25.471698113207548,NA,NA
44707,Stark County,OH,NA,NA,NA,85.61076604554866
44714,Stark County,OH,NA,88.67924528301887,76.56012176560122,NA
44721,Stark County,OH,NA,NA,NA,91.51138716356108
44805,Ashland County,OH,NA,NA,NA,2.2774327122153206
44811,Sandusky County,OH,NA,34.7877358490566,NA,NA
44857,Huron County,OH,NA,24.528301886792452,NA,NA
44870,Erie County,OH,NA,NA,18.11263318112633,NA
44883,Seneca County,OH,NA,18.75,NA,53.72670807453416
44907,Richland County,OH,NA,NA,30.74581430745814,NA
45002,Hamilton County,OH,NA,NA,NA,90.1656314699793
45011,Butler County,OH,NA,2.5943396226415096,NA,NA
45036,Warren County,OH,NA,NA,25.72298325722983,NA
45040,Warren County,OH,NA,NA,NA,21.11801242236025
45044,Butler County,OH,NA,NA,11.11111111111111,NA
45103,Clermont County,OH,NA,28.891509433962266,NA,NA
45107,Clinton County,OH,NA,NA,NA,67.28778467908903
45150,Clermont County,OH,41.603053435114504,NA,NA,33.126293995859214
45205,Hamilton County,OH,NA,23.58490566037736,NA,NA
45206,Hamilton County,OH,NA,59.7877358490566,NA,NA
45212,Hamilton County,OH,NA,31.957547169811324,NA,NA
45217,Hamilton County,OH,NA,86.43867924528303,NA,NA
45239,Hamilton County,OH,NA,17.452830188679243,NA,38.19875776397515
45241,Hamilton County,OH,NA,NA,39.26940639269406,NA
45247,Hamilton County,OH,NA,65.91981132075472,NA,NA
45251,Hamilton County,OH,60.68702290076335,NA,NA,NA
45309,Montgomery County,OH,NA,NA,NA,41.511387163561075
45322,Montgomery County,OH,NA,43.514150943396224,NA,NA
45344,Clark County,OH,NA,92.45283018867924,NA,NA
45356,Miami County,OH,NA,14.622641509433961,NA,NA
45373,Miami County,OH,NA,NA,10.50228310502283,NA
45385,Greene County,OH,10.687022900763358,NA,NA,NA
45402,Montgomery County,OH,57.25190839694656,NA,84.779299847793,NA
45416,Montgomery County,OH,NA,85.84905660377359,NA,NA
45420,Montgomery County,OH,NA,NA,NA,40.57971014492754
45426,Montgomery County,OH,NA,57.66509433962265,NA,NA
45429,Montgomery County,OH,NA,NA,NA,15.838509316770185
45458,Montgomery County,OH,22.900763358778626,NA,NA,NA
45640,Jackson County,OH,NA,7.0754716981132075,NA,NA
45653,Scioto County,OH,NA,93.27830188679245,NA,NA
45662,Scioto County,OH,NA,NA,NA,2.484472049689441
45701,Athens County,OH,NA,67.33490566037736,NA,NA
45804,Allen County,OH,NA,12.14622641509434,NA,NA
45807,Allen County,OH,NA,NA,NA,81.98757763975155
45840,Hancock County,OH,NA,2.94811320754717,NA,NA
73020,Oklahoma County,OK,NA,NA,NA,58.59213250517599
73049,Oklahoma County,OK,NA,NA,88.2800608828006,NA
73064,Canadian County,OK,NA,NA,NA,39.75155279503105
73065,McClain County,OK,NA,NA,78.6910197869102,NA
73084,Oklahoma County,OK,NA,NA,NA,73.18840579710145
73096,Custer County,OK,NA,NA,81.12633181126331,NA
73110,Oklahoma County,OK,NA,NA,NA,10.973084886128365
73120,Oklahoma County,OK,NA,NA,NA,12.939958592132506
73130,Oklahoma County,OK,NA,67.09905660377359,NA,NA
73132,Oklahoma County,OK,NA,NA,47.336377473363775,NA
73139,Oklahoma County,OK,NA,60.49528301886793,NA,57.86749482401656
73159,Oklahoma County,OK,NA,NA,26.027397260273972,NA
73162,Oklahoma County,OK,NA,NA,16.894977168949772,NA
73165,Cleveland County,OK,NA,NA,NA,92.2360248447205
73170,Cleveland County,OK,NA,NA,NA,6.935817805383023
73538,Comanche County,OK,NA,NA,99.39117199391173,NA
73601,Custer County,OK,NA,NA,NA,71.11801242236024
74012,Tulsa County,OK,NA,NA,NA,7.556935817805383
74020,Pawnee County,OK,NA,87.61792452830188,NA,NA
74063,Tulsa County,OK,NA,NA,NA,48.24016563146998
74105,Tulsa County,OK,NA,42.45283018867924,NA,NA
74133,Tulsa County,OK,NA,NA,NA,76.91511387163561
74135,Tulsa County,OK,NA,NA,45.81430745814307,NA
74354,Ottawa County,OK,39.31297709923664,NA,NA,NA
74601,Kay County,OK,NA,48.34905660377358,NA,NA
74604,Kay County,OK,NA,NA,NA,49.06832298136646
74631,Kay County,OK,NA,95.63679245283019,NA,NA
74801,Pottawatomie County,OK,NA,NA,NA,37.47412008281574
74820,Pontotoc County,OK,NA,NA,NA,58.7991718426501
74868,Seminole County,OK,NA,NA,67.42770167427702,NA
74948,Sequoyah County,OK,NA,68.75,NA,NA
97005,Washington County,OR,NA,80.30660377358491,NA,NA
97008,Washington County,OR,NA,NA,NA,34.368530020703936
97034,Clackamas County,OR,95.41984732824427,NA,NA,NA
97048,Columbia County,OR,NA,90.44811320754717,NA,NA
97055,Clackamas County,OR,NA,NA,55.8599695585997,NA
97078,Washington County,OR,NA,89.50471698113208,64.53576864535768,NA
97103,Clatsop County,OR,NA,NA,50.68493150684932,NA
97116,Washington County,OR,NA,NA,NA,50
97123,Washington County,OR,NA,22.169811320754718,NA,19.565217391304348
97128,Yamhill County,OR,NA,19.92924528301887,NA,NA
97206,Multnomah County,OR,NA,13.679245283018867,NA,NA
97209,Multnomah County,OR,NA,41.9811320754717,NA,NA
97213,Multnomah County,OR,NA,NA,NA,52.484472049689444
97217,Multnomah County,OR,NA,45.04716981132076,NA,NA
97223,Washington County,OR,NA,29.83490566037736,NA,41.40786749482402
97225,Washington County,OR,NA,75.70754716981132,NA,NA
97233,Multnomah County,OR,NA,NA,NA,83.9544513457557
97236,Multnomah County,OR,NA,NA,NA,57.039337474120074
97301,Marion County,OR,NA,76.17924528301887,NA,NA
97302,Marion County,OR,77.48091603053436,NA,NA,NA
97305,Marion County,OR,NA,27.830188679245282,NA,NA
97330,Benton County,OR,NA,56.367924528301884,NA,NA
97368,Lincoln County,OR,NA,NA,99.54337899543378,NA
97386,Linn County,OR,NA,54.12735849056604,NA,NA
97394,Lincoln County,OR,NA,NA,NA,69.04761904761905
97402,Lane County,OR,NA,NA,NA,8.385093167701864
97404,Lane County,OR,NA,NA,NA,53.93374741200828
97415,Curry County,OR,NA,NA,25.266362252663622,NA
97426,Lane County,OR,NA,NA,NA,59.93788819875776
97439,Lane County,OR,NA,NA,NA,15.217391304347828
97459,Coos County,OR,NA,NA,76.86453576864535,NA
97477,Lane County,OR,NA,NA,30.28919330289193,NA
97520,Jackson County,OR,NA,NA,52.054794520547944,NA
97527,Josephine County,OR,NA,49.88207547169811,NA,NA
97603,Klamath County,OR,NA,21.22641509433962,NA,NA
15009,Beaver County,PA,NA,NA,NA,31.987577639751553
15063,Washington County,PA,NA,NA,NA,58.90269151138716
15101,Allegheny County,PA,NA,NA,NA,11.076604554865424
15133,Allegheny County,PA,NA,NA,NA,87.47412008281573
15136,Allegheny County,PA,NA,NA,NA,78.57142857142857
15146,Allegheny County,PA,NA,52.594339622641506,32.42009132420091,25.87991718426501
15147,Allegheny County,PA,NA,NA,74.5814307458143,NA
15206,Allegheny County,PA,64.8854961832061,18.278301886792452,NA,NA
15210,Allegheny County,PA,NA,15.44811320754717,NA,NA
15212,Allegheny County,PA,NA,26.179245283018872,NA,70.39337474120083
15216,Allegheny County,PA,NA,NA,NA,49.68944099378882
15219,Allegheny County,PA,NA,35.02358490566038,NA,NA
15221,Allegheny County,PA,NA,54.59905660377359,NA,NA
15234,Allegheny County,PA,NA,NA,NA,47.10144927536232
15237,Allegheny County,PA,NA,NA,NA,62.83643892339544
15501,Somerset County,PA,NA,NA,NA,43.581780538302276
15601,Westmoreland County,PA,NA,NA,NA,0.2070393374741201
15690,Westmoreland County,PA,NA,NA,NA,94.20289855072464
15701,Indiana County,PA,NA,22.995283018867923,NA,NA
15825,Jefferson County,PA,NA,NA,NA,25.15527950310559
15846,Elk County,PA,NA,94.33962264150944,NA,NA
15853,Elk County,PA,NA,NA,NA,85.30020703933747
15904,Cambria County,PA,NA,NA,73.82039573820396,NA
15905,Cambria County,PA,77.86259541984732,NA,NA,NA
16066,Butler County,PA,NA,NA,NA,37.68115942028986
16117,Lawrence County,PA,NA,NA,NA,22.87784679089027
16323,Venango County,PA,NA,NA,36.07305936073059,NA
16441,Erie County,PA,NA,NA,NA,80.95238095238095
16502,Erie County,PA,NA,48.113207547169814,NA,NA
16830,Clearfield County,PA,NA,NA,70.0152207001522,71.635610766045545
16841,Centre County,PA,NA,NA,NA,78.4679089026915
17015,Cumberland County,PA,55.72519083969466,NA,NA,NA
17019,York County,PA,NA,NA,NA,64.07867494824016
17022,Lancaster County,PA,NA,NA,13.698630136986301,NA
17042,Lebanon County,PA,NA,NA,5.93607305936073,NA
17046,Lebanon County,PA,NA,NA,NA,44.20289855072464
17050,Cumberland County,PA,NA,NA,9.28462709284627,NA
17053,Perry County,PA,NA,NA,NA,90.89026915113871
17062,Perry County,PA,96.56488549618321,NA,NA,NA
17103,Dauphin County,PA,17.557251908396946,NA,NA,NA
17104,Dauphin County,PA,70.61068702290076,NA,NA,NA
17109,Dauphin County,PA,NA,NA,NA,27.32919254658385
17111,Dauphin County,PA,NA,NA,6.69710806697108,34.679089026915115
17112,Dauphin County,PA,NA,NA,NA,10.351966873706004
17201,Franklin County,PA,NA,NA,NA,14.596273291925465
17222,Franklin County,PA,NA,NA,NA,33.54037267080746
17268,Franklin County,PA,NA,NA,NA,13.457556935817806
17363,York County,PA,94.65648854961832,NA,NA,NA
17366,York County,PA,NA,87.14622641509435,NA,NA
17404,York County,PA,NA,NA,NA,12.111801242236025
17512,Lancaster County,PA,NA,NA,45.20547945205479,NA
17603,Lancaster County,PA,NA,NA,8.52359208523592,NA
17754,Lycoming County,PA,NA,NA,NA,24.84472049689441
17756,Lycoming County,PA,NA,76.41509433962264,NA,NA
17777,Northumberland County,PA,NA,NA,NA,77.32919254658384
17801,Northumberland County,PA,NA,NA,NA,29.91718426501035
17834,Northumberland County,PA,NA,NA,NA,81.67701863354037
17842,Snyder County,PA,NA,NA,NA,74.94824016563147
17901,Schuylkill County,PA,16.030534351145036,NA,NA,NA
18015,Northampton County,PA,9.541984732824428,NA,NA,NA
18018,Lehigh County,PA,NA,25.117924528301888,NA,NA
18042,Northampton County,PA,NA,NA,5.32724505327245,NA
18052,Lehigh County,PA,NA,20.87264150943396,NA,NA
18252,Schuylkill County,PA,NA,NA,NA,58.07453416149069
18360,Monroe County,PA,NA,NA,NA,12.939958592132506
18407,Lackawanna County,PA,NA,52.240566037735846,NA,NA
18428,Pike County,PA,NA,NA,NA,51.5527950310559
18431,Wayne County,PA,NA,NA,61.03500761035008,NA
18504,Lackawanna County,PA,NA,33.490566037735846,NA,NA
18634,Luzerne County,PA,NA,NA,45.81430745814307,NA
18640,Luzerne County,PA,NA,NA,NA,18.633540372670808
18705,Luzerne County,PA,NA,58.490566037735846,NA,NA
18902,Bucks County,PA,NA,NA,NA,73.49896480331263
18960,Bucks County,PA,NA,NA,NA,86.64596273291926
18964,Montgomery County,PA,NA,91.62735849056604,NA,NA
18966,Bucks County,PA,NA,NA,NA,9.420289855072465
19007,Bucks County,PA,NA,27.594339622641513,NA,NA
19026,Delaware County,PA,NA,18.514150943396228,NA,NA
19040,Montgomery County,PA,NA,NA,48.55403348554033,NA
19054,Bucks County,PA,NA,NA,86.60578386605783,NA
19056,Bucks County,PA,NA,NA,NA,74.32712215320912
19070,Delaware County,PA,NA,88.08962264150944,NA,NA
19096,Montgomery County,PA,86.64122137404581,NA,NA,NA
19107,Philadelphia County,PA,NA,78.18396226415094,NA,NA
19114,Philadelphia County,PA,NA,20.16509433962264,NA,NA
19119,Philadelphia County,PA,NA,NA,59.05631659056316,NA
19121,Philadelphia County,PA,NA,37.735849056603776,NA,NA
19128,Philadelphia County,PA,NA,NA,NA,31.573498964803314
19131,Philadelphia County,PA,16.412213740458014,NA,NA,NA
19132,Philadelphia County,PA,NA,50.70754716981132,NA,NA
19133,Philadelphia County,PA,17.938931297709924,NA,NA,NA
19135,Philadelphia County,PA,NA,15.683962264150944,NA,NA
19144,Philadelphia County,PA,NA,4.127358490566038,NA,NA
19312,Chester County,PA,NA,70.16509433962264,NA,NA
19320,Chester County,PA,NA,39.15094339622642,10.80669710806697,NA
19342,Delaware County,PA,NA,NA,NA,23.70600414078675
19363,Chester County,PA,NA,95.04716981132076,NA,NA
19380,Chester County,PA,NA,NA,NA,44.3064182194617
19390,Chester County,PA,NA,82.19339622641509,NA,NA
19403,Montgomery County,PA,NA,NA,6.392694063926941,NA
19428,Montgomery County,PA,NA,NA,NA,73.39544513457557
19446,Montgomery County,PA,NA,NA,NA,5.693581780538302
19475,Chester County,PA,NA,79.24528301886792,NA,71.01449275362319
19520,Chester County,PA,NA,NA,NA,75.46583850931677
19525,Montgomery County,PA,NA,NA,91.17199391171994,NA
19533,Berks County,PA,NA,NA,86.14916286149162,NA
19602,Berks County,PA,NA,11.79245283018868,NA,NA
19604,Berks County,PA,NA,NA,37.74733637747336,NA
19608,Berks County,PA,69.08396946564885,NA,NA,NA
19610,Berks County,PA,NA,NA,NA,21.73913043478261
02806,Bristol County,RI,68.32061068702289,NA,NA,NA
02852,Washington County,RI,58.778625954198475,NA,NA,NA
02857,Providence County,RI,NA,NA,NA,91.61490683229813
02860,Providence County,RI,NA,81.60377358490565,NA,3.8302277432712217
02878,Newport County,RI,NA,NA,57.99086757990868,NA
02879,Washington County,RI,NA,NA,NA,30.53830227743271
02891,Washington County,RI,NA,NA,NA,18.73706004140787
02905,Providence County,RI,NA,NA,45.20547945205479,NA
02908,Providence County,RI,14.122137404580155,NA,NA,25.56935817805383
02911,Providence County,RI,NA,NA,NA,63.56107660455487
02914,Providence County,RI,NA,NA,NA,21.532091097308488
02917,Providence County,RI,NA,81.83962264150944,NA,NA
29036,Lexington County,SC,NA,NA,NA,70.4968944099379
29045,Kershaw County,SC,NA,76.65094339622641,NA,NA
29108,Newberry County,SC,NA,63.32547169811321,NA,NA
29130,Fairfield County,SC,NA,NA,92.69406392694064,NA
29138,Saluda County,SC,NA,NA,NA,96.79089026915115
29203,Richland County,SC,29.770992366412212,NA,NA,NA
29205,Richland County,SC,NA,NA,NA,66.35610766045549
29212,Lexington County,SC,NA,NA,NA,49.378881987577635
29307,Spartanburg County,SC,NA,NA,72.6027397260274,46.06625258799172
29323,Spartanburg County,SC,NA,60.259433962264154,NA,NA
29341,Cherokee County,SC,NA,NA,NA,92.02898550724638
29349,Spartanburg County,SC,NA,NA,61.948249619482496,NA
29406,Charleston County,SC,NA,27.240566037735846,NA,NA
29414,Charleston County,SC,41.221374045801525,35.84905660377358,NA,NA
29485,Dorchester County,SC,NA,29.127358490566035,NA,NA
29512,Marlboro County,SC,NA,61.438679245283026,NA,79.5031055900621
29527,Horry County,SC,NA,54.83490566037735,NA,NA
29532,Darlington County,SC,NA,67.80660377358491,56.01217656012176,NA
29541,Florence County,SC,83.58778625954199,NA,NA,NA
29550,Darlington County,SC,NA,NA,NA,36.231884057971016
29576,Horry County,SC,NA,NA,47.792998477929984,NA
29577,Horry County,SC,NA,68.39622641509435,NA,NA
29588,Horry County,SC,NA,NA,9.58904109589041,NA
29596,Marlboro County,SC,NA,100,NA,NA
29611,Greenville County,SC,NA,NA,NA,63.56107660455487
29625,Anderson County,SC,NA,NA,27.397260273972602,NA
29640,Pickens County,SC,NA,NA,NA,28.778467908902694
29644,Greenville County,SC,NA,NA,90.25875190258752,NA
29645,Laurens County,SC,NA,NA,NA,86.33540372670807
29649,Greenwood County,SC,NA,NA,60.12176560121766,NA
29662,Greenville County,SC,88.16793893129771,68.86792452830188,NA,NA
29682,Pickens County,SC,NA,NA,NA,100
29692,Laurens County,SC,NA,92.80660377358491,NA,NA
29706,Chester County,SC,NA,NA,NA,97.61904761904762
29710,York County,SC,NA,NA,NA,46.8944099378882
29730,York County,SC,NA,NA,36.83409436834094,NA
29732,York County,SC,NA,NA,23.13546423135464,18.012422360248447
29801,Aiken County,SC,NA,NA,50.83713850837138,NA
29902,Beaufort County,SC,59.16030534351145,NA,NA,NA
57103,Minnehaha County,SD,NA,NA,NA,4.968944099378882
57108,Lincoln County,SD,NA,NA,77.6255707762557,NA
57339,Buffalo County,SD,NA,99.29245283018868,NA,NA
57747,Fall River County,SD,NA,NA,71.68949771689498,NA
37015,Cheatham County,TN,71.37404580152672,NA,NA,NA
37027,Williamson County,TN,NA,NA,21.61339421613394,NA
37034,Marshall County,TN,NA,83.9622641509434,96.9558599695586,NA
37040,Montgomery County,TN,NA,NA,33.63774733637747,NA
37043,Montgomery County,TN,NA,39.740566037735846,NA,NA
37049,Robertson County,TN,NA,99.64622641509435,NA,NA
37055,Dickson County,TN,NA,NA,45.50989345509893,59.006211180124225
37064,Williamson County,TN,NA,NA,14.00304414003044,20.082815734989648
37072,Davidson County,TN,NA,34.08018867924528,NA,NA
37073,Robertson County,TN,79.38931297709924,87.5,NA,NA
37075,Sumner County,TN,NA,52.12264150943396,NA,NA
37076,Davidson County,TN,NA,NA,31.65905631659056,NA
37110,Warren County,TN,NA,17.33490566037736,24.961948249619482,24.74120082815735
37115,Davidson County,TN,NA,12.382075471698114,22.07001522070015,NA
37127,Rutherford County,TN,NA,67.57075471698113,80.82191780821918,NA
37128,Rutherford County,TN,NA,NA,NA,63.87163561076604
37130,Rutherford County,TN,NA,22.40566037735849,NA,NA
37146,Cheatham County,TN,NA,93.86792452830188,NA,NA
37148,Sumner County,TN,NA,43.86792452830189,NA,NA
37166,DeKalb County,TN,NA,NA,63.77473363774734,NA
37167,Rutherford County,TN,NA,29.009433962264154,NA,NA
37204,Davidson County,TN,NA,NA,89.95433789954338,NA
37211,Davidson County,TN,NA,21.34433962264151,NA,16.459627329192546
37331,McMinn County,TN,NA,NA,NA,64.38923395445134
37334,Lincoln County,TN,NA,NA,29.98477929984779,NA
37343,Hamilton County,TN,NA,NA,20.85235920852359,NA
37381,Rhea County,TN,NA,NA,NA,65.42443064182196
37398,Franklin County,TN,NA,78.30188679245283,NA,NA
37412,Hamilton County,TN,NA,NA,65.29680365296804,NA
37415,Hamilton County,TN,NA,64.50471698113208,NA,NA
37421,Hamilton County,TN,NA,NA,28.61491628614916,NA
37618,Sullivan County,TN,NA,91.74528301886792,NA,NA
37620,Sullivan County,TN,NA,NA,56.3165905631659,NA
37642,Hawkins County,TN,NA,NA,52.054794520547944,NA
37660,Sullivan County,TN,NA,NA,NA,8.799171842650104
37663,Sullivan County,TN,59.541984732824424,NA,NA,NA
37665,Sullivan County,TN,NA,84.08018867924528,NA,NA
37683,Johnson County,TN,NA,NA,NA,63.975155279503106
37721,Knox County,TN,NA,NA,NA,80.12422360248446
37737,Blount County,TN,NA,NA,NA,94.09937888198758
37748,Roane County,TN,NA,NA,NA,37.88819875776397
37771,Loudon County,TN,NA,60.259433962264154,NA,NA
37801,Blount County,TN,24.045801526717558,15.919811320754718,NA,NA
37804,Blount County,TN,90.83969465648855,NA,NA,NA
37814,Hamblen County,TN,NA,NA,NA,30.020703933747413
37818,Greene County,TN,NA,NA,NA,98.75776397515527
37820,Jefferson County,TN,NA,NA,87.36681887366818,93.37474120082815
37821,Cocke County,TN,NA,NA,29.22374429223744,NA
37840,Roane County,TN,NA,76.88679245283019,NA,NA
37876,Sevier County,TN,NA,NA,NA,33.95445134575569
37879,Claiborne County,TN,85.1145038167939,NA,73.0593607305936,NA
37880,Meigs County,TN,NA,97.52358490566037,NA,NA
37882,Blount County,TN,NA,NA,NA,98.86128364389234
37912,Knox County,TN,34.73282442748092,NA,NA,NA
37917,Knox County,TN,NA,53.655660377358494,NA,NA
37918,Knox County,TN,NA,14.38679245283019,NA,NA
37922,Knox County,TN,NA,NA,55.70776255707762,NA
37938,Knox County,TN,NA,NA,69.40639269406392,66.0455486542443
38008,Hardeman County,TN,NA,NA,NA,74.12008281573499
38017,Shelby County,TN,NA,NA,NA,43.99585921325052
38058,Tipton County,TN,NA,NA,NA,96.37681159420289
38111,Shelby County,TN,NA,60.73113207547169,NA,NA
38114,Shelby County,TN,NA,NA,33.02891933028919,NA
38118,Shelby County,TN,NA,19.81132075471698,NA,NA
38128,Shelby County,TN,NA,NA,36.22526636225266,NA
38139,Shelby County,TN,NA,NA,NA,79.8136645962733
38242,Henry County,TN,NA,NA,40.33485540334855,NA
38256,Henry County,TN,NA,NA,NA,97.20496894409938
38301,Madison County,TN,18.3206106870229,10.25943396226415,NA,NA
38305,Madison County,TN,NA,10.023584905660378,46.118721461187214,NA
38310,McNairy County,TN,NA,NA,NA,83.85093167701864
38351,Henderson County,TN,NA,NA,NA,37.060041407867494
38401,Maury County,TN,NA,7.665094339622641,7.30593607305936,17.080745341614907
38474,Maury County,TN,NA,80.66037735849056,NA,NA
38478,Giles County,TN,NA,62.735849056603776,NA,NA
38501,Putnam County,TN,NA,56.95754716981132,16.7427701674277,NA
38555,Cumberland County,TN,NA,NA,42.00913242009132,NA
38558,Cumberland County,TN,NA,NA,NA,73.70600414078675
38571,Cumberland County,TN,NA,60.84905660377359,NA,NA
38583,White County,TN,NA,65.44811320754717,28.15829528158295,NA
75002,Collin County,TX,NA,NA,27.24505327245053,NA
75023,Collin County,TX,48.473282442748086,NA,36.986301369863014,NA
75028,Denton County,TX,NA,NA,39.5738203957382,NA
75043,Dallas County,TX,12.977099236641221,NA,NA,25.25879917184265
75052,Dallas County,TX,NA,18.04245283018868,NA,NA
75056,Denton County,TX,NA,NA,34.09436834094368,NA
75071,Collin County,TX,27.480916030534353,NA,NA,NA
75075,Collin County,TX,NA,NA,NA,44.616977225672876
75081,Dallas County,TX,NA,NA,53.12024353120244,NA
75090,Grayson County,TX,NA,NA,62.55707762557078,54.45134575569358
75092,Grayson County,TX,NA,NA,53.272450532724505,NA
75098,Collin County,TX,NA,NA,NA,57.34989648033127
75126,Kaufman County,TX,38.93129770992366,NA,45.662100456621005,NA
75137,Dallas County,TX,NA,NA,NA,60.76604554865425
75154,Ellis County,TX,NA,NA,44.1400304414003,NA
75169,Van Zandt County,TX,NA,NA,71.23287671232876,NA
75189,Rockwall County,TX,NA,NA,81.43074581430746,NA
75206,Dallas County,TX,NA,56.014150943396224,NA,NA
75211,Dallas County,TX,NA,NA,21.3089802130898,NA
75225,Dallas County,TX,NA,NA,NA,30.745341614906835
75227,Dallas County,TX,NA,20.5188679245283,NA,NA
75228,Dallas County,TX,NA,52.83018867924528,NA,NA
75232,Dallas County,TX,NA,50.117924528301884,NA,NA
75235,Dallas County,TX,NA,NA,NA,84.05797101449275
75248,Dallas County,TX,NA,NA,26.636225266362253,NA
75402,Hunt County,TX,NA,NA,56.62100456621004,NA
75418,Fannin County,TX,NA,NA,NA,85.5072463768116
75472,Rains County,TX,98.09160305343512,NA,NA,NA
75482,Hopkins County,TX,NA,NA,NA,38.612836438923395
75494,Wood County,TX,NA,NA,NA,54.865424430641816
75501,Bowie County,TX,NA,34.55188679245283,NA,NA
75503,Bowie County,TX,NA,NA,NA,23.18840579710145
75604,Gregg County,TX,NA,NA,NA,73.29192546583852
75654,Rusk County,TX,NA,NA,NA,59.21325051759835
75672,Harrison County,TX,NA,NA,NA,56.52173913043478
75701,Smith County,TX,NA,NA,NA,4.244306418219462
75707,Smith County,TX,38.54961832061068,NA,NA,NA
75752,Henderson County,TX,NA,NA,NA,89.23395445134575
75757,Smith County,TX,NA,79.00943396226415,NA,NA
75765,Wood County,TX,NA,NA,NA,95.75569358178055
75773,Wood County,TX,NA,NA,27.85388127853881,NA
75801,Anderson County,TX,NA,NA,NA,68.01242236024845
75904,Angelina County,TX,NA,38.20754716981132,NA,NA
76012,Tarrant County,TX,33.20610687022901,NA,NA,NA
76013,Tarrant County,TX,NA,NA,NA,24.32712215320911
76015,Tarrant County,TX,NA,81.95754716981132,NA,NA
76018,Tarrant County,TX,NA,64.38679245283019,NA,NA
76033,Johnson County,TX,NA,NA,NA,51.86335403726709
76039,Tarrant County,TX,NA,NA,66.21004566210046,NA
76048,Hood County,TX,NA,NA,71.0806697108067,NA
76060,Tarrant County,TX,93.89312977099237,NA,NA,NA
76065,Ellis County,TX,NA,44.10377358490566,NA,NA
76102,Tarrant County,TX,NA,75.8254716981132,NA,NA
76103,Tarrant County,TX,NA,NA,70.31963470319634,NA
76105,Tarrant County,TX,17.17557251908397,20.99056603773585,NA,NA
76112,Tarrant County,TX,NA,13.915094339622641,NA,NA
76116,Tarrant County,TX,NA,NA,51.44596651445966,16.77018633540373
76117,Tarrant County,TX,NA,38.56132075471698,38.81278538812785,NA
76119,Tarrant County,TX,NA,33.9622641509434,NA,NA
76131,Tarrant County,TX,NA,55.89622641509434,68.18873668188736,86.23188405797102
76133,Tarrant County,TX,NA,20.28301886792453,NA,NA
76134,Tarrant County,TX,NA,78.89150943396226,NA,60.97308488612836
76140,Tarrant County,TX,NA,42.21698113207547,NA,NA
76148,Tarrant County,TX,88.54961832061069,NA,NA,NA
76177,Tarrant County,TX,NA,96.4622641509434,NA,NA
76179,Tarrant County,TX,NA,31.014150943396224,NA,NA
76182,Tarrant County,TX,NA,NA,NA,52.484472049689444
76209,Denton County,TX,NA,NA,79.90867579908677,NA
76248,Tarrant County,TX,NA,NA,NA,38.81987577639752
76450,Young County,TX,83.20610687022901,NA,NA,NA
76462,Hood County,TX,98.85496183206108,NA,NA,NA
76520,Milam County,TX,NA,NA,NA,66.45962732919256
76528,Coryell County,TX,NA,NA,12.32876712328767,NA
76549,Bell County,TX,NA,NA,31.65905631659056,NA
76574,Williamson County,TX,NA,NA,20.24353120243531,NA
76661,Falls County,TX,NA,92.9245283018868,NA,NA
76704,McLennan County,TX,NA,NA,98.78234398782344,NA
76705,McLennan County,TX,26.717557251908396,NA,NA,NA
76710,McLennan County,TX,NA,NA,NA,11.801242236024844
76712,McLennan County,TX,NA,NA,NA,4.554865424430641
76801,Brown County,TX,NA,NA,50.076103500761036,NA
77004,Harris County,TX,NA,NA,47.64079147640791,NA
77012,Harris County,TX,NA,NA,NA,89.44099378881988
77018,Harris County,TX,NA,87.02830188679245,NA,NA
77023,Harris County,TX,NA,NA,NA,92.33954451345755
77028,Harris County,TX,NA,NA,NA,49.79296066252588
77045,Harris County,TX,NA,64.03301886792453,NA,85.40372670807453
77057,Harris County,TX,NA,NA,62.86149162861492,NA
77062,Harris County,TX,NA,NA,NA,54.761904761904766
77065,Harris County,TX,NA,NA,NA,36.024844720496894
77066,Harris County,TX,NA,71.81603773584906,NA,NA
77070,Harris County,TX,NA,51.29716981132076,NA,NA
77071,Harris County,TX,NA,NA,67.27549467275495,NA
77072,Harris County,TX,NA,59.551886792452834,NA,NA
77073,Harris County,TX,NA,58.9622641509434,NA,NA
77077,Harris County,TX,NA,49.29245283018868,NA,NA
77082,Harris County,TX,26.33587786259542,NA,NA,NA
77301,Montgomery County,TX,NA,NA,NA,80.02070393374741
77327,Liberty County,TX,NA,NA,NA,69.46169772256728
77331,San Jacinto County,TX,NA,NA,91.62861491628614,NA
77355,Montgomery County,TX,NA,65.33018867924528,NA,NA
77357,Montgomery County,TX,56.10687022900763,NA,NA,NA
77365,Montgomery County,TX,NA,NA,NA,98.55072463768117
77384,Montgomery County,TX,NA,NA,NA,62.11180124223602
77385,Montgomery County,TX,NA,86.20283018867924,NA,NA
77414,Matagorda County,TX,NA,NA,43.987823439878234,NA
77450,Harris County,TX,NA,NA,NA,38.405797101449274
77471,Fort Bend County,TX,NA,NA,65.14459665144597,NA
77489,Fort Bend County,TX,60.30534351145038,NA,NA,75.87991718426501
77506,Harris County,TX,NA,66.62735849056604,NA,NA
77518,Galveston County,TX,NA,NA,92.54185692541856,NA
77520,Harris County,TX,NA,NA,NA,51.345755693581786
77521,Harris County,TX,NA,NA,32.26788432267884,NA
77539,Galveston County,TX,NA,21.933962264150946,NA,NA
77546,Galveston County,TX,NA,28.066037735849058,NA,NA
77550,Galveston County,TX,53.43511450381679,NA,NA,NA
77562,Harris County,TX,NA,NA,NA,84.9896480331263
77573,Galveston County,TX,NA,NA,NA,56.418219461697724
77591,Galveston County,TX,NA,NA,NA,50.828157349896486
77701,Jefferson County,TX,82.44274809160305,NA,NA,NA
77802,Brazos County,TX,54.961832061068705,NA,NA,NA
77833,Washington County,TX,NA,50.82547169811321,NA,12.318840579710146
77901,Victoria County,TX,NA,NA,NA,62.52587991718427
77995,Lavaca County,TX,NA,82.54716981132076,NA,NA
78009,Medina County,TX,NA,NA,NA,96.16977225672878
78045,Webb County,TX,NA,NA,NA,64.18219461697723
78046,Webb County,TX,NA,NA,25.570776255707763,NA
78132,Comal County,TX,NA,NA,NA,78.67494824016563
78201,Bexar County,TX,NA,NA,19.17808219178082,NA
78207,Bexar County,TX,NA,22.641509433962266,NA,19.151138716356108
78210,Bexar County,TX,NA,NA,NA,50.31055900621118
78212,Bexar County,TX,NA,NA,NA,78.26086956521739
78218,Bexar County,TX,NA,80.77830188679245,NA,NA
78219,Bexar County,TX,82.44274809160305,NA,NA,NA
78232,Bexar County,TX,NA,NA,NA,51.5527950310559
78233,Bexar County,TX,27.099236641221374,NA,NA,NA
78238,Bexar County,TX,50,NA,NA,NA
78245,Bexar County,TX,NA,25.825471698113205,NA,NA
78247,Bexar County,TX,74.42748091603053,NA,NA,NA
78258,Bexar County,TX,25.954198473282442,NA,NA,NA
78363,Kleberg County,TX,NA,NA,65.60121765601218,NA
78368,San Patricio County,TX,91.22137404580153,88.20754716981132,NA,NA
78404,Nueces County,TX,NA,NA,85.99695585996956,NA
78504,Hidalgo County,TX,NA,43.278301886792455,NA,NA
78516,Hidalgo County,TX,NA,NA,54.49010654490106,52.79503105590062
78520,Cameron County,TX,NA,NA,NA,57.7639751552795
78521,Cameron County,TX,NA,NA,NA,43.2712215320911
78541,Hidalgo County,TX,NA,55.54245283018868,NA,NA
78570,Hidalgo County,TX,NA,NA,66.81887366818874,NA
78576,Hidalgo County,TX,NA,NA,98.32572298325722,NA
78586,Cameron County,TX,NA,NA,NA,26.91511387163561
78613,Williamson County,TX,NA,NA,NA,5.279503105590062
78617,Travis County,TX,58.01526717557252,NA,NA,NA
78629,Gonzales County,TX,NA,90.56603773584906,NA,NA
78644,Caldwell County,TX,NA,71.69811320754717,NA,NA
78654,Burnet County,TX,NA,NA,NA,12.525879917184266
78660,Travis County,TX,NA,28.77358490566038,NA,NA
78666,Hays County,TX,NA,NA,NA,18.84057971014493
78681,Williamson County,TX,NA,NA,NA,61.07660455486542
78702,Travis County,TX,NA,NA,79.45205479452055,NA
78728,Travis County,TX,NA,NA,97.56468797564688,NA
78744,Travis County,TX,44.656488549618324,NA,NA,NA
78747,Travis County,TX,NA,NA,NA,92.13250517598344
78749,Travis County,TX,NA,90.2122641509434,NA,NA
78752,Travis County,TX,87.02290076335878,NA,NA,NA
78759,Travis County,TX,NA,81.25,NA,NA
78840,Val Verde County,TX,NA,NA,NA,39.44099378881988
79331,Dawson County,TX,NA,NA,NA,58.281573498964804
79403,Lubbock County,TX,NA,56.60377358490566,NA,NA
79404,Lubbock County,TX,NA,78.77358490566037,NA,NA
79603,Taylor County,TX,NA,NA,34.70319634703196,40.165631469979296
79606,Taylor County,TX,NA,NA,NA,27.639751552795033
79707,Midland County,TX,NA,37.14622641509434,NA,NA
79762,Ector County,TX,20.229007633587788,NA,NA,NA
79764,Ector County,TX,NA,NA,NA,90.47619047619048
79836,El Paso County,TX,NA,NA,NA,99.68944099378882
79904,El Paso County,TX,NA,NA,NA,67.59834368530021
79924,El Paso County,TX,NA,NA,NA,17.805383022774325
79927,El Paso County,TX,NA,NA,NA,89.02691511387164
79935,El Paso County,TX,NA,NA,NA,82.91925465838509
84009,Salt Lake County,UT,NA,NA,NA,79.29606625258799
84010,Davis County,UT,NA,NA,NA,19.979296066252587
84029,Tooele County,UT,NA,65.09433962264151,NA,NA
84041,Davis County,UT,NA,40.68396226415094,NA,NA
84050,Morgan County,UT,NA,NA,91.47640791476408,NA
84081,Salt Lake County,UT,NA,NA,NA,94.40993788819875
84109,Salt Lake County,UT,NA,NA,NA,29.296066252587995
84111,Salt Lake County,UT,NA,77.12264150943396,NA,NA
84116,Salt Lake County,UT,55.343511450381676,NA,NA,80.22774327122153
84119,Salt Lake County,UT,NA,NA,NA,33.74741200828157
84120,Salt Lake County,UT,NA,NA,61.64383561643836,NA
84124,Salt Lake County,UT,NA,NA,NA,48.55072463768116
84401,Weber County,UT,NA,NA,54.64231354642314,NA
84606,Utah County,UT,NA,88.56132075471697,NA,NA
84663,Utah County,UT,95.0381679389313,NA,NA,NA
84770,Washington County,UT,NA,42.68867924528302,NA,NA
84790,Washington County,UT,NA,NA,NA,3.2091097308488616
05201,Bennington County,VT,NA,NA,21.461187214611872,NA
05401,Chittenden County,VT,NA,NA,NA,45.75569358178054
05478,Franklin County,VT,NA,91.39150943396226,NA,21.842650103519667
05602,Washington County,VT,NA,NA,37.13850837138508,NA
05819,Caledonia County,VT,NA,NA,NA,66.0455486542443
20110,Manassas city,VA,NA,NA,64.23135464231355,NA
20111,Prince William County,VA,NA,NA,NA,77.32919254658384
20120,Fairfax County,VA,NA,58.608490566037744,NA,NA
20170,Fairfax County,VA,NA,69.22169811320755,NA,NA
20194,Fairfax County,VA,NA,90.2122641509434,NA,NA
22003,Fairfax County,VA,NA,33.37264150943396,NA,NA
22030,Fairfax County,VA,NA,32.78301886792453,NA,NA
22031,Fairfax County,VA,NA,69.92924528301887,NA,NA
22033,Fairfax County,VA,NA,66.50943396226415,NA,NA
22079,Fairfax County,VA,43.12977099236641,NA,NA,NA
22150,Fairfax County,VA,NA,NA,NA,22.15320910973085
22152,Fairfax County,VA,NA,NA,NA,34.26501035196687
22191,Prince William County,VA,NA,NA,70.77625570776256,NA
22204,Arlington County,VA,NA,NA,NA,59.62732919254658
22306,Fairfax County,VA,NA,31.25,NA,NA
22405,Stafford County,VA,NA,NA,58.44748858447488,NA
22406,Stafford County,VA,NA,NA,NA,81.78053830227742
22546,Caroline County,VA,NA,NA,NA,87.88819875776397
22551,Spotsylvania County,VA,NA,NA,NA,73.91304347826086
22657,Shenandoah County,VA,62.97709923664122,NA,NA,NA
22701,Culpeper County,VA,NA,NA,17.19939117199391,NA
22802,Harrisonburg city,VA,NA,26.06132075471698,NA,NA
22835,Page County,VA,NA,66.27358490566037,NA,NA
22853,Rockingham County,VA,NA,NA,89.3455098934551,NA
22901,Albemarle County,VA,30.53435114503817,NA,NA,NA
22902,Charlottesville city,VA,NA,NA,34.24657534246575,NA
22960,Orange County,VA,NA,94.22169811320755,NA,NA
23005,Hanover County,VA,NA,77.35849056603774,NA,NA
23116,Hanover County,VA,NA,NA,NA,50.621118012422365
23188,James City County,VA,NA,NA,18.2648401826484,NA
23220,Richmond city,VA,NA,68.16037735849056,NA,NA
23222,Richmond city,VA,NA,NA,28.9193302891933,NA
23223,Henrico County,VA,NA,3.4198113207547167,NA,NA
23227,Henrico County,VA,NA,NA,37.89954337899543,NA
23314,Isle of Wight County,VA,NA,NA,82.64840182648402,NA
23322,Chesapeake city,VA,NA,NA,NA,13.871635610766045
23323,Chesapeake city,VA,53.05343511450382,NA,35.46423135464231,NA
23350,Northampton County,VA,NA,NA,97.71689497716895,NA
23435,Suffolk city,VA,25.190839694656486,NA,NA,NA
23455,Virginia Beach city,VA,NA,92.09905660377359,NA,13.146997929606624
23456,Virginia Beach city,VA,NA,NA,8.82800608828006,NA
23462,Virginia Beach city,VA,74.04580152671755,NA,NA,NA
23502,Norfolk city,VA,NA,NA,NA,38.302277432712216
23508,Norfolk city,VA,NA,NA,NA,67.3913043478261
23509,Norfolk city,VA,NA,NA,85.38812785388129,NA
23602,Newport News city,VA,NA,NA,NA,8.488612836438923
23605,Newport News city,VA,NA,NA,NA,81.46997929606626
23608,Newport News city,VA,NA,NA,35.920852359208524,NA
23669,Hampton city,VA,NA,NA,NA,7.246376811594203
23692,York County,VA,NA,NA,NA,72.98136645962732
23703,Portsmouth city,VA,NA,NA,29.68036529680365,NA
23805,Petersburg city,VA,NA,NA,NA,63.35403726708074
23831,Chesterfield County,VA,NA,41.27358490566038,NA,NA
23834,Colonial Heights city,VA,NA,NA,NA,57.34989648033127
23836,Chesterfield County,VA,NA,NA,87.36681887366818,NA
23860,Hopewell city,VA,37.02290076335878,NA,NA,NA
24018,Roanoke County,VA,NA,NA,NA,7.349896480331262
24095,Bedford County,VA,99.23664122137404,NA,NA,NA
24179,Roanoke County,VA,NA,NA,NA,46.273291925465834
24184,Franklin County,VA,NA,NA,NA,93.16770186335404
24244,Scott County,VA,NA,NA,94.3683409436834,NA
24256,Dickenson County,VA,NA,NA,94.67275494672755,NA
24301,Pulaski County,VA,NA,63.91509433962265,NA,NA
24333,Galax city,VA,NA,NA,57.3820395738204,NA
24343,Carroll County,VA,NA,NA,75.64687975646879,NA
24354,Smyth County,VA,NA,75.23584905660378,NA,NA
24382,Wythe County,VA,84.35114503816794,NA,NA,NA
24401,Staunton city,VA,NA,NA,NA,4.865424430641822
24426,Alleghany County,VA,NA,51.76886792452831,NA,60.55900621118012
24501,Lynchburg city,VA,NA,30.18867924528302,NA,NA
24504,Lynchburg city,VA,NA,85.49528301886792,NA,NA
24541,Danville city,VA,NA,39.62264150943396,NA,34.886128364389236
24551,Bedford County,VA,NA,NA,NA,51.0351966873706
24592,Halifax County,VA,NA,30.660377358490564,NA,NA
98001,King County,WA,NA,47.16981132075472,NA,NA
98002,King County,WA,NA,NA,37.13850837138508,NA
98003,King County,WA,NA,29.952830188679247,NA,22.87784679089027
98004,King County,WA,NA,NA,NA,32.91925465838509
98005,King County,WA,NA,NA,NA,47.9296066252588
98007,King County,WA,NA,NA,NA,50.20703933747412
98008,King County,WA,NA,NA,NA,28.88198757763975
98021,Snohomish County,WA,NA,61.556603773584904,NA,NA
98026,Snohomish County,WA,NA,NA,NA,82.6086956521739
98027,King County,WA,NA,NA,NA,52.17391304347826
98031,King County,WA,NA,46.34433962264151,NA,NA
98033,King County,WA,NA,NA,94.52054794520548,NA
98036,Snohomish County,WA,NA,NA,41.55251141552511,NA
98053,King County,WA,NA,NA,NA,46.3768115942029
98075,King County,WA,NA,82.90094339622641,NA,NA
98104,King County,WA,32.06106870229007,NA,NA,85.92132505175984
98105,King County,WA,NA,NA,75.49467275494672,NA
98115,King County,WA,NA,40.44811320754717,NA,NA
98133,King County,WA,NA,30.424528301886795,NA,9.213250517598343
98168,King County,WA,NA,35.49528301886792,NA,NA
98199,King County,WA,69.8473282442748,NA,NA,NA
98201,Snohomish County,WA,NA,NA,50.98934550989346,NA
98204,Snohomish County,WA,NA,28.30188679245283,NA,NA
98221,Skagit County,WA,NA,NA,NA,14.389233954451347
98223,Snohomish County,WA,NA,NA,59.51293759512938,NA
98226,Whatcom County,WA,NA,NA,NA,9.834368530020704
98239,Island County,WA,NA,NA,89.8021308980213,NA
98258,Snohomish County,WA,18.702290076335878,NA,NA,NA
98270,Snohomish County,WA,NA,NA,31.35464231354642,57.2463768115942
98273,Skagit County,WA,NA,NA,14.61187214611872,NA
98274,Skagit County,WA,NA,NA,44.44444444444444,NA
98282,Island County,WA,NA,NA,77.1689497716895,42.65010351966873
98290,Snohomish County,WA,NA,47.05188679245283,NA,NA
98292,Snohomish County,WA,NA,NA,40.182648401826484,NA
98332,Pierce County,WA,NA,NA,58.29528158295282,NA
98354,Pierce County,WA,NA,NA,NA,79.19254658385093
98370,Kitsap County,WA,NA,NA,NA,52.38095238095239
98374,Pierce County,WA,NA,NA,43.83561643835616,NA
98382,Clallam County,WA,NA,NA,2.73972602739726,NA
98390,Pierce County,WA,NA,78.30188679245283,NA,NA
98391,Pierce County,WA,NA,14.74056603773585,NA,NA
98404,Pierce County,WA,NA,36.20283018867924,NA,NA
98503,Thurston County,WA,NA,NA,54.18569254185692,NA
98506,Thurston County,WA,NA,79.48113207547169,NA,73.80952380952381
98563,Grays Harbor County,WA,NA,92.57075471698113,NA,69.97929606625259
98580,Pierce County,WA,NA,87.85377358490565,NA,NA
98597,Thurston County,WA,NA,NA,79.90867579908677,84.78260869565217
98604,Clark County,WA,NA,NA,75.95129375951294,NA
98620,Klickitat County,WA,NA,96.69811320754717,NA,62.422360248447205
98626,Cowlitz County,WA,NA,NA,30.59360730593607,NA
97003,NA,NA,NA,59.31603773584906,NA,NA
98632,Cowlitz County,WA,NA,NA,NA,1.4492753623188406
98661,Clark County,WA,NA,NA,NA,37.060041407867494
98663,Clark County,WA,NA,79.59905660377359,NA,NA
98801,Chelan County,WA,NA,NA,NA,27.74327122153209
98815,Chelan County,WA,NA,89.03301886792453,NA,NA
98822,Chelan County,WA,NA,NA,99.23896499238964,NA
98902,Yakima County,WA,NA,NA,NA,11.904761904761903
99004,Spokane County,WA,NA,NA,NA,86.0248447204969
99016,Spokane County,WA,NA,NA,NA,75.67287784679088
99021,Spokane County,WA,NA,96.22641509433963,NA,NA
99114,Stevens County,WA,NA,93.75,NA,NA
99201,Spokane County,WA,NA,NA,83.10502283105022,NA
99203,Spokane County,WA,NA,85.14150943396226,NA,NA
99205,Spokane County,WA,NA,NA,NA,79.91718426501035
99216,Spokane County,WA,NA,NA,NA,56.10766045548654
99217,Spokane County,WA,NA,81.01415094339622,NA,NA
99223,Spokane County,WA,84.7328244274809,NA,NA,NA
99320,Benton County,WA,NA,NA,NA,94.92753623188406
99336,Benton County,WA,NA,12.971698113207546,NA,NA
99337,Benton County,WA,NA,NA,NA,34.161490683229815
99338,Benton County,WA,48.854961832061065,NA,NA,NA
99352,Benton County,WA,NA,NA,NA,19.66873706004141
20009,District of Columbia,DC,NA,34.31603773584906,NA,NA
20010,District of Columbia,DC,NA,NA,81.7351598173516,NA
20015,District of Columbia,DC,NA,NA,NA,67.08074534161491
24701,Mercer County,WV,NA,NA,28.31050228310502,NA
24874,Wyoming County,WV,NA,99.1745283018868,NA,NA
25053,Boone County,WV,NA,NA,91.78082191780823,NA
25064,Kanawha County,WV,NA,56.485849056603776,NA,NA
25276,Roane County,WV,NA,NA,73.36377473363774,NA
25314,Kanawha County,WV,NA,60.02358490566038,NA,NA
25403,Berkeley County,WV,NA,NA,72.90715372907154,NA
25427,Berkeley County,WV,NA,NA,71.84170471841705,NA
25541,Cabell County,WV,NA,NA,NA,75.36231884057972
25570,Wayne County,WV,NA,NA,NA,86.64596273291926
25701,Cabell County,WV,NA,16.86320754716981,NA,NA
25840,Fayette County,WV,NA,NA,82.49619482496195,NA
25901,Fayette County,WV,NA,NA,NA,84.472049689441
26003,Ohio County,WV,NA,4.952830188679245,NA,NA
26037,Brooke County,WV,NA,NA,NA,70.4968944099379
26104,Wood County,WV,NA,40.09433962264151,NA,NA
26105,Wood County,WV,NA,NA,45.053272450532724,NA
26170,Pleasants County,WV,NA,97.05188679245283,NA,NA
26187,Wood County,WV,NA,NA,NA,50.103519668737064
26241,Randolph County,WV,NA,NA,23.43987823439878,NA
26253,Randolph County,WV,NA,99.76415094339622,NA,NA
26288,Webster County,WV,NA,NA,NA,78.67494824016563
26301,Harrison County,WV,NA,7.900943396226415,NA,NA
26354,Taylor County,WV,NA,55.07075471698113,NA,NA
26416,Barbour County,WV,NA,NA,42.31354642313546,NA
26431,Harrison County,WV,NA,NA,NA,80.43478260869566
26501,Monongalia County,WV,NA,NA,NA,34.679089026915115
26505,Monongalia County,WV,NA,10.141509433962264,NA,NA
26554,Marion County,WV,NA,3.6556603773584904,NA,NA
26601,Braxton County,WV,NA,NA,NA,95.8592132505176
53018,Waukesha County,WI,90.07633587786259,NA,NA,NA
53045,Waukesha County,WI,NA,NA,NA,17.494824016563147
53051,Waukesha County,WI,22.519083969465647,NA,NA,NA
53081,Sheboygan County,WI,NA,NA,NA,91.2008281573499
53083,Sheboygan County,WI,NA,NA,64.07914764079148,NA
53090,Washington County,WI,NA,NA,55.403348554033485,NA
53094,Jefferson County,WI,NA,46.81603773584906,NA,NA
53095,Washington County,WI,27.86259541984733,NA,NA,NA
53110,Milwaukee County,WI,NA,NA,NA,27.12215320910973
53114,Walworth County,WI,95.80152671755725,NA,NA,NA
53140,Kenosha County,WI,23.66412213740458,NA,NA,22.67080745341615
53179,Kenosha County,WI,67.17557251908397,NA,NA,NA
53188,Waukesha County,WI,NA,24.882075471698112,NA,NA
53205,Milwaukee County,WI,NA,2.8301886792452833,NA,NA
53216,Milwaukee County,WI,NA,6.014150943396227,NA,NA
53217,Milwaukee County,WI,NA,NA,NA,11.697722567287784
53218,Milwaukee County,WI,NA,NA,NA,72.46376811594203
53219,Milwaukee County,WI,NA,18.278301886792452,NA,NA
53220,Milwaukee County,WI,NA,NA,24.200913242009133,13.354037267080745
53221,Milwaukee County,WI,NA,21.108490566037734,NA,NA
53223,Milwaukee County,WI,NA,17.099056603773587,NA,NA
53224,Milwaukee County,WI,NA,NA,NA,93.06418219461698
53406,Racine County,WI,10.305343511450381,48.93867924528302,NA,NA
53511,Rock County,WI,NA,19.45754716981132,NA,NA
53520,Green County,WI,NA,NA,NA,27.432712215320908
53538,Jefferson County,WI,80.91603053435115,89.26886792452831,NA,NA
53566,Green County,WI,NA,NA,60.4261796042618,NA
53704,Dane County,WI,NA,NA,15.981735159817351,NA
53711,Dane County,WI,NA,NA,14.00304414003044,44.927536231884055
53714,Dane County,WI,64.8854961832061,NA,NA,NA
53719,Dane County,WI,NA,NA,NA,57.34989648033127
53901,Columbia County,WI,NA,72.40566037735849,NA,79.71014492753623
53948,Juneau County,WI,NA,84.7877358490566,NA,NA
54001,Polk County,WI,NA,56.839622641509436,NA,NA
54130,Outagamie County,WI,NA,64.85849056603774,NA,NA
54166,Shawano County,WI,NA,NA,NA,44.72049689440994
54220,Manitowoc County,WI,NA,NA,2.13089802130898,7.763975155279502
54302,Brown County,WI,NA,NA,NA,51.345755693581786
54304,Brown County,WI,NA,NA,NA,19.772256728778466
54311,Brown County,WI,NA,NA,NA,19.25465838509317
54401,Marathon County,WI,78.2442748091603,NA,NA,NA
54455,Marathon County,WI,NA,NA,NA,75.67287784679088
54501,Oneida County,WI,NA,NA,NA,15.320910973084887
54601,La Crosse County,WI,NA,32.42924528301887,NA,NA
54615,Jackson County,WI,NA,NA,80.6697108066971,NA
54646,Juneau County,WI,NA,85.37735849056604,NA,NA
54650,La Crosse County,WI,NA,NA,NA,20.18633540372671
54660,Monroe County,WI,NA,NA,51.598173515981735,NA
54703,Eau Claire County,WI,NA,NA,NA,32.71221532091098
54751,Dunn County,WI,NA,NA,NA,9.730848861283643
54822,Barron County,WI,NA,NA,97.26027397260275,NA
54843,Sawyer County,WI,NA,NA,NA,62.939958592132506
54868,Barron County,WI,NA,NA,49.16286149162861,NA
54880,Douglas County,WI,NA,15.330188679245282,3.50076103500761,NA
54911,Outagamie County,WI,NA,93.39622641509435,NA,NA
54915,Outagamie County,WI,NA,NA,82.1917808219178,54.14078674948241
54935,Fond du Lac County,WI,NA,79.12735849056604,NA,3.7267080745341614
54952,Winnebago County,WI,NA,NA,39.87823439878234,NA
82072,Albany County,WY,NA,NA,96.49923896499239,NA
