ZipCode,county,state,Adult,Retirement,Geriatric
35040,Shelby County,AL,NA,59.44444444444444,NA
35064,Jefferson County,AL,64.83180428134557,NA,NA
35444,Tuscaloosa County,AL,91.74311926605505,NA,NA
35611,Limestone County,AL,NA,72.22222222222221,NA
35630,Lauderdale County,AL,19.26605504587156,NA,NA
35633,Lauderdale County,AL,60.550458715596335,NA,NA
35650,Lawrence County,AL,NA,33.33333333333333,NA
36037,Butler County,AL,NA,NA,92.85714285714286
36541,Mobile County,AL,57.49235474006116,NA,NA
36561,Baldwin County,AL,NA,69.72222222222221,NA
36605,Mobile County,AL,NA,38.88888888888889,NA
99503,Anchorage Municipality,AK,67.58409785932722,NA,NA
99504,Anchorage Municipality,AK,NA,32.22222222222222,NA
99507,Anchorage Municipality,AK,NA,39.72222222222222,NA
99508,Anchorage Municipality,AK,36.69724770642202,NA,NA
99669,Kenai Peninsula Borough,AK,81.34556574923548,NA,NA
85015,Maricopa County,AZ,NA,NA,51.33928571428571
85140,Pinal County,AZ,NA,34.72222222222222,NA
85210,Maricopa County,AZ,40.97859327217125,NA,NA
85234,Maricopa County,AZ,21.100917431192663,NA,NA
85248,Maricopa County,AZ,NA,NA,6.25
85304,Maricopa County,AZ,39.75535168195719,NA,NA
85308,Maricopa County,AZ,NA,NA,61.60714285714286
85310,Maricopa County,AZ,NA,59.72222222222222,NA
85326,Maricopa County,AZ,NA,62.22222222222222,NA
85345,Maricopa County,AZ,NA,8.61111111111111,NA
85706,Pima County,AZ,0.9174311926605505,NA,NA
85735,Pima County,AZ,NA,76.11111111111111,NA
86314,Yavapai County,AZ,NA,80.27777777777779,NA
71854,Miller County,AR,26.299694189602445,NA,NA
71901,Garland County,AR,NA,35.55555555555556,NA
72117,Pulaski County,AR,58.40978593272171,NA,NA
72211,Pulaski County,AR,86.23853211009175,NA,NA
72712,Benton County,AR,NA,31.666666666666664,NA
72714,Benton County,AR,NA,NA,53.125
72764,Washington County,AR,NA,44.72222222222222,NA
90065,Los Angeles County,CA,71.55963302752293,NA,NA
90255,Los Angeles County,CA,NA,87.5,NA
90272,Los Angeles County,CA,NA,NA,56.25
90278,Los Angeles County,CA,44.03669724770643,NA,NA
90293,Los Angeles County,CA,NA,86.38888888888889,NA
90660,Los Angeles County,CA,55.35168195718655,NA,NA
90701,Los Angeles County,CA,NA,NA,79.46428571428571
90745,Los Angeles County,CA,NA,NA,19.196428571428573
90802,Los Angeles County,CA,37.61467889908257,NA,NA
91326,Los Angeles County,CA,67.2782874617737,NA,NA
91354,Los Angeles County,CA,57.18654434250765,NA,NA
91355,Los Angeles County,CA,NA,NA,54.91071428571429
91360,Ventura County,CA,NA,38.333333333333336,NA
91387,Los Angeles County,CA,33.94495412844037,NA,NA
91402,Los Angeles County,CA,14.984709480122325,NA,NA
91764,San Bernardino County,CA,23.853211009174313,NA,NA
91765,Los Angeles County,CA,47.09480122324159,NA,NA
91780,Los Angeles County,CA,NA,51.94444444444445,NA
91786,San Bernardino County,CA,NA,57.49999999999999,NA
91915,San Diego County,CA,66.66666666666666,NA,NA
91942,San Diego County,CA,NA,NA,69.19642857142857
92009,San Diego County,CA,NA,33.05555555555556,NA
92021,San Diego County,CA,NA,10.833333333333334,NA
92054,San Diego County,CA,32.415902140672785,NA,NA
92126,San Diego County,CA,33.63914373088685,NA,NA
92129,San Diego County,CA,42.50764525993883,NA,NA
92227,Imperial County,CA,29.66360856269113,NA,NA
92240,Riverside County,CA,NA,29.166666666666668,NA
92342,San Bernardino County,CA,NA,88.33333333333333,NA
92373,San Bernardino County,CA,NA,81.94444444444444,NA
92404,San Bernardino County,CA,NA,22.77777777777778,NA
92506,Riverside County,CA,NA,NA,42.857142857142854
92530,Riverside County,CA,69.1131498470948,NA,NA
92592,Riverside County,CA,NA,20,NA
92630,Orange County,CA,NA,NA,56.69642857142857
92688,Orange County,CA,NA,NA,73.21428571428571
92692,Orange County,CA,NA,16.944444444444446,NA
92708,Orange County,CA,NA,11.38888888888889,NA
92801,Orange County,CA,47.40061162079511,NA,NA
92804,Orange County,CA,NA,NA,66.96428571428571
92886,Orange County,CA,NA,58.88888888888889,NA
93003,Ventura County,CA,NA,13.61111111111111,NA
93033,Ventura County,CA,7.033639143730887,NA,NA
93257,Tulare County,CA,51.681957186544345,NA,NA
93307,Kern County,CA,7.951070336391437,NA,NA
93420,San Luis Obispo County,CA,NA,36.388888888888886,NA
93458,Santa Barbara County,CA,NA,NA,39.732142857142854
93536,Los Angeles County,CA,31.49847094801223,NA,NA
93644,Madera County,CA,NA,75.27777777777777,NA
93704,Fresno County,CA,NA,70,NA
94066,San Mateo County,CA,NA,NA,9.821428571428571
94102,San Francisco County,CA,4.892966360856269,26.944444444444443,NA
94103,San Francisco County,CA,NA,41.11111111111111,NA
94124,San Francisco County,CA,NA,45.55555555555556,NA
94501,Alameda County,CA,63.30275229357798,NA,NA
94513,Contra Costa County,CA,73.70030581039755,NA,NA
94523,Contra Costa County,CA,NA,NA,68.30357142857143
94536,Alameda County,CA,NA,15.277777777777779,NA
94556,Contra Costa County,CA,NA,97.5,NA
94558,Napa County,CA,NA,4.444444444444445,NA
94585,Solano County,CA,NA,61.38888888888889,NA
94587,Alameda County,CA,NA,NA,93.75
94605,Alameda County,CA,53.21100917431193,NA,NA
94707,Alameda County,CA,96.3302752293578,NA,NA
94952,Sonoma County,CA,NA,30,NA
95023,San Benito County,CA,NA,69.44444444444444,NA
95035,Santa Clara County,CA,97.55351681957187,NA,NA
95054,Santa Clara County,CA,92.96636085626912,NA,NA
95065,Santa Cruz County,CA,88.9908256880734,NA,NA
95121,Santa Clara County,CA,86.23853211009175,NA,44.19642857142857
95123,Santa Clara County,CA,NA,NA,27.67857142857143
95127,Santa Clara County,CA,NA,35.27777777777778,NA
95301,Merced County,CA,NA,73.61111111111111,NA
95337,San Joaquin County,CA,28.134556574923547,NA,NA
95453,Lake County,CA,NA,65,NA
95461,Lake County,CA,NA,98.88888888888889,NA
95476,Sonoma County,CA,NA,57.77777777777777,NA
95482,Mendocino County,CA,24.464831804281346,NA,NA
95616,Yolo County,CA,74.92354740061162,NA,NA
95624,Sacramento County,CA,35.47400611620795,NA,NA
95688,Solano County,CA,46.788990825688074,NA,NA
95973,Butte County,CA,61.46788990825688,NA,NA
96003,Shasta County,CA,NA,17.5,NA
96094,Siskiyou County,CA,NA,56.666666666666664,NA
80013,Arapahoe County,CO,NA,62.77777777777778,NA
80016,Arapahoe County,CO,NA,41.66666666666667,NA
80104,Douglas County,CO,41.896024464831804,NA,NA
80121,Arapahoe County,CO,87.46177370030581,NA,NA
80126,Douglas County,CO,57.798165137614674,NA,NA
80202,Denver County,CO,NA,97.77777777777777,NA
80207,Denver County,CO,30.886850152905197,NA,NA
80219,Denver County,CO,NA,15.555555555555555,NA
80237,Denver County,CO,52.90519877675841,NA,NA
80301,Boulder County,CO,88.68501529051987,NA,NA
80524,Larimer County,CO,NA,73.33333333333333,NA
80621,Weld County,CO,NA,65.27777777777779,NA
80921,El Paso County,CO,NA,NA,64.73214285714286
80923,El Paso County,CO,44.342507645259936,70.27777777777777,NA
81006,Pueblo County,CO,NA,93.88888888888889,NA
81240,Fremont County,CO,NA,NA,80.35714285714286
81323,Montezuma County,CO,NA,80,NA
06040,Hartford County,CT,NA,43.888888888888886,NA
06062,Hartford County,CT,73.39449541284404,NA,NA
06066,Tolland County,CT,NA,NA,18.75
06076,Tolland County,CT,NA,NA,92.41071428571429
06095,Hartford County,CT,NA,NA,38.839285714285715
06098,Litchfield County,CT,NA,84.72222222222221,NA
06112,Hartford County,CT,NA,NA,53.57142857142857
06226,Windham County,CT,NA,89.44444444444444,NA
06249,New London County,CT,62.079510703363916,NA,NA
06260,Windham County,CT,98.47094801223241,NA,NA
06281,Windham County,CT,NA,78.33333333333333,NA
06461,New Haven County,CT,NA,NA,78.125
06475,Middlesex County,CT,NA,47.77777777777778,NA
06513,New Haven County,CT,NA,6.111111111111111,NA
06762,New Haven County,CT,NA,NA,95.98214285714286
06840,Fairfield County,CT,NA,NA,58.48214285714286
19713,New Castle County,DE,NA,NA,61.16071428571429
19720,New Castle County,DE,1.2232415902140672,NA,NA
32043,Clay County,FL,33.33333333333333,NA,NA
32114,Volusia County,FL,67.88990825688074,NA,NA
32129,Volusia County,FL,NA,NA,77.23214285714286
32132,Volusia County,FL,NA,NA,75.44642857142857
32136,Flagler County,FL,NA,60.27777777777777,NA
32169,Volusia County,FL,NA,52.22222222222223,NA
32216,Duval County,FL,NA,21.666666666666668,NA
32224,Duval County,FL,43.11926605504588,NA,NA
32244,Duval County,FL,NA,32.5,NA
32250,Duval County,FL,43.730886850152906,NA,NA
32257,Duval County,FL,NA,48.888888888888886,NA
32258,Duval County,FL,60.550458715596335,NA,NA
32413,Bay County,FL,NA,42.22222222222222,NA
32435,Walton County,FL,56.88073394495413,NA,NA
32505,Escambia County,FL,85.3211009174312,NA,NA
32578,Okaloosa County,FL,NA,44.44444444444444,NA
32583,Santa Rosa County,FL,NA,16.666666666666664,NA
32608,Alachua County,FL,4.587155963302752,NA,NA
32680,Dixie County,FL,76.14678899082568,NA,NA
32703,Orange County,FL,11.926605504587156,NA,NA
32724,Volusia County,FL,NA,49.44444444444444,NA
32807,Orange County,FL,NA,NA,34.82142857142857
32826,Orange County,FL,78.89908256880734,NA,NA
32937,Brevard County,FL,NA,48.333333333333336,NA
32963,Indian River County,FL,NA,41.388888888888886,NA
33030,Miami-Dade County,FL,32.7217125382263,NA,NA
33034,Miami-Dade County,FL,NA,92.22222222222223,NA
33069,Broward County,FL,48.62385321100918,NA,NA
33076,Broward County,FL,NA,56.111111111111114,NA
33169,Miami-Dade County,FL,29.96941896024465,NA,NA
33186,Miami-Dade County,FL,37.920489296636084,NA,NA
33404,Palm Beach County,FL,25.382262996941897,NA,NA
33455,Martin County,FL,62.69113149847095,NA,NA
33486,Palm Beach County,FL,83.4862385321101,NA,NA
33544,Pasco County,FL,NA,78.61111111111111,NA
33805,Polk County,FL,NA,84.44444444444444,NA
33870,Highlands County,FL,84.40366972477065,20.555555555555554,NA
33901,Lee County,FL,NA,NA,55.80357142857143
33908,Lee County,FL,NA,NA,1.3392857142857142
33920,Lee County,FL,NA,85.55555555555556,NA
34108,Collier County,FL,NA,NA,27.232142857142854
34112,Collier County,FL,NA,NA,18.303571428571427
34119,Collier County,FL,NA,NA,17.410714285714285
34120,Collier County,FL,23.24159021406728,NA,NA
34229,Sarasota County,FL,NA,NA,60.71428571428571
34243,Manatee County,FL,NA,NA,33.482142857142854
34736,Lake County,FL,72.17125382262996,NA,NA
34759,Polk County,FL,NA,34.166666666666664,NA
34772,Osceola County,FL,87.1559633027523,NA,NA
34787,Orange County,FL,42.813455657492355,NA,NA
34952,St. Lucie County,FL,NA,NA,48.660714285714285
34987,St. Lucie County,FL,NA,66.66666666666666,NA
34990,Martin County,FL,NA,NA,22.767857142857142
30044,Gwinnett County,GA,39.44954128440367,NA,NA
30087,DeKalb County,GA,NA,NA,91.51785714285714
30135,Douglas County,GA,NA,NA,36.160714285714285
30188,Cherokee County,GA,11.62079510703364,NA,NA
30286,Upson County,GA,37.308868501529055,NA,NA
30338,DeKalb County,GA,NA,57.22222222222222,NA
30436,Toombs County,GA,NA,65.55555555555556,NA
30705,Murray County,GA,18.654434250764528,NA,NA
31088,Houston County,GA,NA,14.722222222222223,NA
31411,Chatham County,GA,NA,NA,54.46428571428571
31820,Muscogee County,GA,NA,71.38888888888889,NA
31904,Muscogee County,GA,NA,NA,13.392857142857142
96720,Hawaii County,HI,73.08868501529052,NA,NA
96816,Honolulu County,HI,19.877675840978593,NA,NA
83440,Madison County,ID,90.21406727828746,NA,NA
83646,Ada County,ID,NA,NA,84.82142857142857
83814,Kootenai County,ID,NA,61.66666666666667,NA
60014,McHenry County,IL,72.47706422018348,NA,19.642857142857142
60016,Cook County,IL,NA,NA,85.71428571428571
60044,Lake County,IL,86.85015290519877,NA,NA
60045,Lake County,IL,NA,16.11111111111111,NA
60047,Lake County,IL,NA,89.72222222222223,NA
60062,Cook County,IL,NA,3.3333333333333335,NA
60126,DuPage County,IL,NA,56.94444444444444,NA
60134,Kane County,IL,33.02752293577982,NA,NA
60142,McHenry County,IL,NA,NA,2.232142857142857
60148,DuPage County,IL,NA,77.5,NA
60153,Cook County,IL,27.217125382262996,NA,NA
60162,Cook County,IL,NA,NA,100
60172,DuPage County,IL,76.75840978593273,NA,NA
60178,DeKalb County,IL,85.93272171253822,NA,NA
60410,Will County,IL,NA,NA,62.5
60423,Will County,IL,NA,48.05555555555556,NA
60438,Cook County,IL,66.36085626911316,NA,NA
60440,Will County,IL,NA,NA,73.66071428571429
60467,Cook County,IL,NA,NA,12.946428571428573
60517,DuPage County,IL,NA,NA,38.392857142857146
60540,DuPage County,IL,NA,74.44444444444444,NA
60543,Kendall County,IL,23.547400611620795,NA,NA
60558,Cook County,IL,NA,95.55555555555556,NA
60564,Will County,IL,NA,64.72222222222223,NA
60601,Cook County,IL,NA,NA,99.55357142857143
60613,Cook County,IL,15.902140672782874,NA,NA
60620,Cook County,IL,NA,NA,3.125
60631,Cook County,IL,NA,NA,21.875
60633,Cook County,IL,49.54128440366973,NA,NA
60636,Cook County,IL,NA,19.166666666666668,NA
60641,Cook County,IL,NA,NA,50
60643,Cook County,IL,NA,NA,7.5892857142857135
60653,Cook County,IL,NA,NA,24.107142857142858
60901,Kankakee County,IL,NA,9.444444444444445,NA
61061,Ogle County,IL,NA,61.94444444444444,NA
61853,Champaign County,IL,76.45259938837921,NA,NA
61856,Piatt County,IL,NA,39.166666666666664,NA
62221,St. Clair County,IL,93.88379204892966,NA,NA
62301,Adams County,IL,78.59327217125383,NA,NA
62821,White County,IL,NA,NA,88.39285714285714
46012,Madison County,IN,NA,NA,29.910714285714285
46235,Marion County,IN,10.703363914373089,NA,NA
46319,Lake County,IN,NA,95.27777777777777,NA
46342,Lake County,IN,3.3639143730886847,NA,NA
46383,Porter County,IN,38.837920489296636,NA,NA
46517,Elkhart County,IN,NA,75.83333333333333,NA
46835,Allen County,IN,88.07339449541286,NA,NA
47041,Ripley County,IN,83.79204892966361,NA,NA
47130,Clark County,IN,5.81039755351682,NA,NA
47374,Wayne County,IN,NA,2.5,48.214285714285715
47501,Daviess County,IN,49.84709480122324,NA,NA
47710,Vanderburgh County,IN,NA,45,NA
47711,Vanderburgh County,IN,NA,18.61111111111111,NA
47933,Montgomery County,IN,NA,35.833333333333336,NA
50009,Polk County,IA,NA,71.66666666666667,NA
50401,Cerro Gordo County,IA,50.764525993883794,NA,1.7857142857142856
50613,Black Hawk County,IA,NA,NA,63.39285714285714
50701,Black Hawk County,IA,NA,18.055555555555554,NA
51537,Shelby County,IA,70.03058103975535,NA,NA
52732,Clinton County,IA,NA,19.166666666666668,NA
52748,Scott County,IA,65.74923547400611,NA,NA
66043,Leavenworth County,KS,NA,79.16666666666666,NA
66203,Johnson County,KS,77.98165137614679,NA,NA
66219,Johnson County,KS,88.37920489296636,NA,NA
66441,Geary County,KS,98.77675840978594,NA,NA
67114,Harvey County,KS,NA,50.27777777777778,NA
67205,Sedgwick County,KS,NA,NA,82.14285714285714
67357,Labette County,KS,75.84097859327217,NA,NA
40065,Shelby County,KY,65.13761467889908,NA,NA
40222,Jefferson County,KY,NA,54.166666666666664,NA
40242,Jefferson County,KY,79.51070336391437,NA,NA
40272,Jefferson County,KY,31.19266055045872,NA,NA
40515,Fayette County,KY,NA,40.833333333333336,NA
40744,Laurel County,KY,65.4434250764526,NA,NA
40831,Harlan County,KY,NA,NA,85.26785714285714
41015,Kenton County,KY,14.067278287461773,NA,NA
41042,Boone County,KY,3.669724770642202,NA,NA
41048,Boone County,KY,61.773700305810394,NA,NA
41164,Carter County,KY,NA,25.833333333333336,NA
41537,Letcher County,KY,69.41896024464832,NA,NA
42101,Warren County,KY,NA,11.666666666666666,NA
42345,Muhlenberg County,KY,NA,82.5,NA
42602,Clinton County,KY,NA,58.333333333333336,NA
70001,Jefferson Parish,LA,NA,6.944444444444445,NA
70053,Jefferson Parish,LA,NA,49.72222222222222,NA
70068,St. John the Baptist Parish,LA,NA,80.83333333333333,NA
70094,Jefferson Parish,LA,47.706422018348626,NA,NA
70403,Tangipahoa Parish,LA,NA,90.83333333333333,NA
70438,Washington Parish,LA,NA,10.277777777777777,NA
70508,Lafayette Parish,LA,NA,13.055555555555557,NA
70706,Livingston Parish,LA,20.489296636085626,NA,NA
70711,Livingston Parish,LA,NA,NA,76.33928571428571
70739,East Baton Rouge Parish,LA,NA,55.55555555555556,NA
70754,Livingston Parish,LA,NA,68.88888888888889,NA
70778,Ascension Parish,LA,91.74311926605505,NA,NA
71107,Caddo Parish,LA,1.529051987767584,NA,NA
71220,Morehouse Parish,LA,96.63608562691131,NA,NA
04011,Cumberland County,ME,NA,NA,97.32142857142857
04072,York County,ME,NA,NA,30.80357142857143
04102,Cumberland County,ME,NA,29.444444444444446,NA
04210,Androscoggin County,ME,NA,6.388888888888888,NA
04401,Penobscot County,ME,NA,0.2777777777777778,NA
04976,Somerset County,ME,NA,NA,15.178571428571427
20707,Prince George's County,MD,NA,NA,72.32142857142857
20737,Prince George's County,MD,NA,NA,90.17857142857143
20876,Montgomery County,MD,79.20489296636084,NA,NA
20904,Montgomery County,MD,43.425076452599384,NA,NA
21042,Howard County,MD,NA,46.94444444444444,NA
21043,Howard County,MD,NA,33.88888888888889,NA
21128,Baltimore County,MD,NA,NA,58.03571428571429
21207,Baltimore County,MD,NA,NA,15.625
21209,Baltimore County,MD,NA,51.66666666666667,NA
21222,Baltimore County,MD,2.7522935779816518,1.1111111111111112,NA
21227,Baltimore County,MD,NA,NA,58.92857142857143
21550,Garrett County,MD,NA,NA,41.964285714285715
01027,Hampshire County,MA,NA,NA,96.875
01033,Hampshire County,MA,NA,NA,72.76785714285714
01085,Hampden County,MA,NA,41.94444444444444,NA
01089,Hampden County,MA,NA,NA,23.214285714285715
01420,Worcester County,MA,45.25993883792049,NA,NA
01432,Middlesex County,MA,80.1223241590214,NA,NA
01473,Worcester County,MA,50.15290519877675,NA,NA
01570,Worcester County,MA,NA,NA,16.964285714285715
01602,Worcester County,MA,NA,14.166666666666666,NA
01746,Middlesex County,MA,NA,92.77777777777779,NA
01757,Worcester County,MA,NA,55.27777777777778,NA
01773,Middlesex County,MA,NA,88.05555555555556,NA
01775,Middlesex County,MA,NA,72.77777777777777,NA
01826,Middlesex County,MA,2.1406727828746175,NA,NA
01841,Essex County,MA,NA,29.72222222222222,2.6785714285714284
01844,Essex County,MA,NA,NA,3.571428571428571
01860,Essex County,MA,NA,68.33333333333333,NA
01960,Essex County,MA,NA,NA,0
01982,Essex County,MA,NA,94.44444444444444,NA
02043,Plymouth County,MA,NA,NA,45.982142857142854
02062,Norfolk County,MA,NA,8.055555555555555,NA
02066,Plymouth County,MA,NA,NA,46.42857142857143
02072,Norfolk County,MA,NA,NA,9.375
02090,Norfolk County,MA,NA,NA,65.17857142857143
02093,Norfolk County,MA,89.29663608562691,NA,NA
02129,Suffolk County,MA,NA,65.83333333333333,NA
02149,Middlesex County,MA,NA,NA,55.35714285714286
02155,Middlesex County,MA,91.13149847094802,NA,0.8928571428571428
02169,Norfolk County,MA,NA,12.5,NA
02171,Norfolk County,MA,85.62691131498471,NA,NA
02188,Norfolk County,MA,NA,NA,91.96428571428571
02332,Plymouth County,MA,97.85932721712538,NA,NA
02359,Plymouth County,MA,NA,50.55555555555556,NA
02364,Plymouth County,MA,NA,53.333333333333336,NA
02446,Norfolk County,MA,NA,NA,8.035714285714286
02451,Middlesex County,MA,NA,12.5,NA
02540,Barnstable County,MA,NA,NA,30.357142857142854
02631,Barnstable County,MA,NA,37.22222222222222,NA
02633,Barnstable County,MA,NA,88.88888888888889,NA
02664,Barnstable County,MA,NA,NA,31.69642857142857
02673,Barnstable County,MA,NA,NA,41.07142857142857
02720,Bristol County,MA,NA,4.722222222222222,NA
02723,Bristol County,MA,NA,2.7777777777777777,NA
02724,Bristol County,MA,NA,3.6111111111111107,NA
02746,Bristol County,MA,68.50152905198776,NA,NA
48026,Macomb County,MI,22.93577981651376,NA,NA
48045,Macomb County,MI,12.844036697247708,NA,NA
48070,Oakland County,MI,100,NA,NA
48071,Oakland County,MI,13.455657492354739,NA,NA
48082,Macomb County,MI,NA,28.055555555555557,NA
48089,Macomb County,MI,63.608562691131496,NA,NA
48095,Macomb County,MI,NA,91.11111111111111,NA
48104,Washtenaw County,MI,NA,25.833333333333336,NA
48135,Wayne County,MI,NA,17.22222222222222,NA
48152,Wayne County,MI,21.100917431192663,NA,NA
48154,Wayne County,MI,NA,5,NA
48161,Monroe County,MI,18.960244648318042,NA,NA
48178,Oakland County,MI,89.60244648318043,NA,NA
48192,Wayne County,MI,NA,23.88888888888889,NA
48195,Wayne County,MI,NA,6.666666666666667,NA
48197,Washtenaw County,MI,NA,0.8333333333333334,NA
48224,Wayne County,MI,NA,45.83333333333333,NA
48225,Wayne County,MI,50.45871559633027,NA,NA
48312,Macomb County,MI,13.149847094801222,NA,NA
48314,Macomb County,MI,NA,28.888888888888886,NA
48315,Macomb County,MI,NA,NA,24.107142857142858
48326,Oakland County,MI,38.226299694189606,NA,NA
48329,Oakland County,MI,21.712538226299692,NA,NA
48380,Oakland County,MI,NA,NA,98.66071428571429
48393,Oakland County,MI,34.862385321100916,NA,NA
48415,Saginaw County,MI,NA,52.77777777777778,NA
48430,Genesee County,MI,NA,81.66666666666667,NA
48506,Genesee County,MI,42.201834862385326,NA,NA
48602,Saginaw County,MI,NA,7.777777777777778,NA
48618,Midland County,MI,87.76758409785933,NA,NA
48623,Saginaw County,MI,31.804281345565748,NA,NA
48638,Saginaw County,MI,NA,NA,50.89285714285714
48642,Midland County,MI,38.53211009174312,NA,NA
48658,Arenac County,MI,NA,94.16666666666667,NA
48708,Bay County,MI,NA,5.277777777777778,NA
48723,Tuscola County,MI,NA,NA,36.607142857142854
49001,Kalamazoo County,MI,59.32721712538226,NA,NA
49002,Kalamazoo County,MI,NA,92.5,NA
49007,Kalamazoo County,MI,63.91437308868502,NA,NA
49015,Calhoun County,MI,NA,54.44444444444444,NA
49057,Van Buren County,MI,77.67584097859327,NA,NA
49412,Newaygo County,MI,NA,46.38888888888889,NA
49415,Muskegon County,MI,NA,63.61111111111111,NA
49417,Ottawa County,MI,NA,4.166666666666666,NA
49441,Muskegon County,MI,7.64525993883792,NA,NA
49444,Muskegon County,MI,NA,NA,89.73214285714286
49601,Wexford County,MI,54.74006116207951,NA,NA
49696,Grand Traverse County,MI,NA,77.77777777777779,NA
49720,Charlevoix County,MI,NA,52.5,NA
49746,Montmorency County,MI,NA,NA,87.5
49837,Delta County,MI,NA,66.94444444444444,NA
49855,Marquette County,MI,NA,NA,52.23214285714286
49866,Marquette County,MI,NA,86.94444444444444,NA
49913,Houghton County,MI,NA,NA,91.07142857142857
49953,Ontonagon County,MI,NA,73.05555555555556,NA
55014,Anoka County,MN,NA,83.61111111111111,NA
55025,Washington County,MN,41.59021406727829,NA,NA
55051,Kanabec County,MN,NA,30.555555555555557,NA
55066,Goodhue County,MN,NA,NA,8.928571428571429
55103,Ramsey County,MN,NA,58.05555555555556,NA
55106,Ramsey County,MN,61.16207951070336,NA,NA
55110,Ramsey County,MN,36.391437308868504,NA,NA
55119,Ramsey County,MN,60.24464831804281,NA,NA
55124,Dakota County,MN,NA,72.5,NA
55128,Washington County,MN,95.71865443425077,NA,NA
55311,Hennepin County,MN,NA,96.66666666666667,NA
55345,Hennepin County,MN,NA,NA,66.07142857142857
55349,Wright County,MN,99.69418960244649,NA,NA
55426,Hennepin County,MN,16.207951070336392,NA,NA
55435,Hennepin County,MN,NA,NA,50.44642857142857
55436,Hennepin County,MN,98.1651376146789,NA,NA
55437,Hennepin County,MN,NA,99.16666666666667,NA
55804,St. Louis County,MN,NA,NA,66.51785714285714
55811,St. Louis County,MN,NA,3.888888888888889,NA
55904,Olmsted County,MN,NA,28.61111111111111,NA
55912,Mower County,MN,NA,NA,0.4464285714285714
56093,Waseca County,MN,NA,NA,87.05357142857143
56156,Rock County,MN,NA,NA,32.589285714285715
56701,Pennington County,MN,NA,NA,86.60714285714286
39046,Madison County,MS,NA,42.77777777777778,NA
39073,Rankin County,MS,NA,49.166666666666664,NA
39212,Hinds County,MS,11.009174311926607,NA,NA
63033,St. Louis County,MO,46.48318042813456,NA,NA
63116,St. Louis city,MO,48.318042813455655,NA,NA
63123,St. Louis County,MO,NA,NA,71.42857142857143
63368,St. Charles County,MO,NA,15,NA
63628,St. Francois County,MO,NA,NA,57.14285714285714
63645,Madison County,MO,55.35168195718655,NA,NA
63841,Stoddard County,MO,NA,60.83333333333333,NA
64080,Cass County,MO,NA,78.88888888888889,NA
64116,Clay County,MO,52.59938837920489,NA,NA
64131,Jackson County,MO,NA,25.555555555555554,NA
64138,Jackson County,MO,6.422018348623854,NA,NA
64836,Jasper County,MO,NA,19.72222222222222,NA
65401,Phelps County,MO,25.688073394495415,NA,NA
65559,Phelps County,MO,NA,NA,63.83928571428571
65804,Greene County,MO,18.04281345565749,NA,NA
59401,Cascade County,MT,94.80122324159022,NA,NA
59457,Fergus County,MT,NA,NA,27.67857142857143
59602,Lewis and Clark County,MT,NA,NA,33.035714285714285
59644,Broadwater County,MT,96.94189602446484,NA,NA
68310,Gage County,NE,NA,67.77777777777779,NA
68526,Lancaster County,NE,NA,NA,95.53571428571429
68801,Hall County,NE,64.52599388379205,NA,NA
89121,Clark County,NV,NA,22.22222222222222,NA
89403,Lyon County,NV,NA,71.94444444444444,NA
89408,Lyon County,NV,NA,77.22222222222223,NA
03051,Hillsborough County,NH,40.67278287461774,NA,NA
03060,Hillsborough County,NH,NA,8.333333333333332,NA
03063,Hillsborough County,NH,72.78287461773701,NA,NA
03249,Belknap County,NH,NA,NA,83.92857142857143
03303,Merrimack County,NH,71.25382262996942,NA,NA
03833,Rockingham County,NH,NA,27.500000000000004,NA
03865,Rockingham County,NH,NA,76.94444444444444,NA
03867,Strafford County,NH,NA,78.05555555555556,NA
03868,Strafford County,NH,NA,NA,37.05357142857143
03878,Strafford County,NH,NA,NA,82.58928571428571
07016,Union County,NJ,NA,NA,83.48214285714286
07060,Union County,NJ,3.9755351681957185,NA,NA
07083,Union County,NJ,9.480122324159021,NA,NA
07087,Hudson County,NJ,NA,NA,4.464285714285714
07112,Essex County,NJ,1.834862385321101,NA,NA
07302,Hudson County,NJ,74.00611620795107,NA,NA
07403,Passaic County,NJ,NA,91.66666666666666,NA
07417,Bergen County,NJ,66.97247706422019,NA,74.55357142857143
07607,Bergen County,NJ,54.12844036697248,NA,NA
07649,Bergen County,NJ,NA,90.27777777777779,NA
07748,Monmouth County,NJ,17.431192660550458,NA,NA
08021,Camden County,NJ,0,NA,NA
08030,Camden County,NJ,NA,48.61111111111111,NA
08048,Burlington County,NJ,NA,85.55555555555556,NA
08086,Gloucester County,NJ,NA,100,NA
08108,Camden County,NJ,NA,83.33333333333334,NA
08360,Cumberland County,NJ,NA,NA,17.857142857142858
08527,Ocean County,NJ,NA,NA,45.535714285714285
08540,Mercer County,NJ,NA,NA,25.892857142857146
08648,Mercer County,NJ,NA,NA,41.517857142857146
08835,Somerset County,NJ,NA,84.16666666666667,NA
87120,Bernalillo County,NM,48.01223241590214,NA,NA
87144,Sandoval County,NM,NA,NA,71.875
87401,San Juan County,NM,NA,61.111111111111114,NA
88005,Doa Ana County,NM,30.275229357798167,NA,NA
88012,Doa Ana County,NM,22.018348623853214,NA,NA
88220,Eddy County,NM,NA,71.11111111111111,NA
10009,New York County,NY,5.5045871559633035,NA,NA
10031,New York County,NY,20.795107033639145,NA,NA
10040,New York County,NY,20.18348623853211,NA,NA
10075,New York County,NY,NA,NA,42.410714285714285
10305,Richmond County,NY,NA,NA,26.339285714285715
10458,Bronx County,NY,NA,82.77777777777777,NA
10469,Bronx County,NY,NA,NA,23.660714285714285
10473,Bronx County,NY,40.0611620795107,NA,NA
10475,Bronx County,NY,NA,NA,84.375
10580,Westchester County,NY,NA,NA,31.25
10589,Westchester County,NY,NA,96.11111111111111,NA
10598,Westchester County,NY,NA,63.05555555555556,NA
10801,Westchester County,NY,NA,NA,29.464285714285715
10927,Rockland County,NY,NA,96.38888888888889,NA
11105,Queens County,NY,93.57798165137615,NA,NA
11218,Kings County,NY,NA,NA,29.017857142857146
11223,Kings County,NY,NA,NA,4.910714285714286
11385,Queens County,NY,NA,31.944444444444443,NA
11552,Nassau County,NY,NA,NA,45.089285714285715
11561,Nassau County,NY,NA,23.333333333333332,NA
11720,Suffolk County,NY,NA,NA,57.58928571428571
11741,Suffolk County,NY,NA,NA,70.53571428571429
11901,Suffolk County,NY,NA,NA,47.767857142857146
11940,Suffolk County,NY,NA,91.38888888888889,NA
11967,Suffolk County,NY,NA,64.44444444444444,NA
12189,Albany County,NY,27.82874617737003,NA,NA
12302,Schenectady County,NY,NA,NA,25
12534,Columbia County,NY,8.868501529051988,NA,NA
12983,Franklin County,NY,NA,96.94444444444444,NA
13031,Onondaga County,NY,32.11009174311927,NA,NA
13057,Onondaga County,NY,35.77981651376147,NA,NA
13152,Onondaga County,NY,NA,NA,87.94642857142857
13208,Onondaga County,NY,7.339449541284404,NA,NA
13365,Herkimer County,NY,NA,NA,89.28571428571429
13760,Broome County,NY,0.6116207951070336,NA,NA
13820,Otsego County,NY,NA,73.88888888888889,NA
14174,Niagara County,NY,59.021406727828754,NA,NA
14212,Erie County,NY,NA,NA,81.69642857142857
14445,Monroe County,NY,NA,53.888888888888886,NA
14456,Ontario County,NY,NA,3.0555555555555554,NA
14510,Livingston County,NY,NA,97.22222222222221,NA
14513,Wayne County,NY,NA,1.6666666666666667,NA
14516,Wayne County,NY,NA,95.83333333333334,NA
14564,Ontario County,NY,93.27217125382263,NA,NA
14626,Monroe County,NY,NA,2.2222222222222223,NA
14701,Chautauqua County,NY,NA,28.333333333333332,NA
14760,Cattaraugus County,NY,6.116207951070336,NA,NA
14810,Steuben County,NY,19.571865443425075,NA,NA
14882,Tompkins County,NY,80.73394495412845,NA,NA
14891,Schuyler County,NY,NA,60.55555555555555,NA
14904,Chemung County,NY,NA,31.38888888888889,NA
27030,Surry County,NC,NA,0.5555555555555556,NA
27105,Forsyth County,NC,NA,NA,6.696428571428571
27106,Forsyth County,NC,58.71559633027523,NA,NA
27292,Davidson County,NC,NA,NA,4.017857142857143
27405,Guilford County,NC,NA,9.166666666666666,NA
27524,Johnston County,NC,NA,76.38888888888889,NA
27529,Wake County,NC,NA,NA,90.625
27577,Johnston County,NC,NA,NA,51.78571428571429
27597,Wake County,NC,37.00305810397553,NA,NA
27703,Durham County,NC,NA,7.5,NA
27891,Nash County,NC,NA,81.11111111111111,NA
28083,Cabarrus County,NC,18.04281345565749,NA,NA
28110,Union County,NC,11.314984709480122,NA,NA
28115,Iredell County,NC,NA,21.944444444444443,NA
28210,Mecklenburg County,NC,NA,46.666666666666664,NA
28277,Mecklenburg County,NC,28.74617737003058,NA,NA
28303,Cumberland County,NC,40.36697247706422,NA,NA
28337,Bladen County,NC,NA,50.83333333333333,NA
28401,New Hanover County,NC,NA,68.61111111111111,NA
28409,New Hanover County,NC,27.522935779816514,NA,NA
28412,New Hanover County,NC,NA,18.333333333333332,NA
28428,New Hanover County,NC,NA,76.66666666666667,NA
28540,Onslow County,NC,13.761467889908257,NA,NA
28625,Iredell County,NC,9.785932721712538,NA,NA
28638,Caldwell County,NC,NA,NA,47.32142857142857
28730,Buncombe County,NC,NA,NA,75.89285714285714
28759,Henderson County,NC,NA,NA,44.642857142857146
28782,Polk County,NC,NA,98.61111111111111,NA
58503,Burleigh County,ND,NA,74.16666666666667,NA
58554,Morton County,ND,NA,87.22222222222223,NA
43021,Delaware County,OH,70.33639143730886,NA,NA
43055,Licking County,OH,NA,0,39.285714285714285
43110,Franklin County,OH,NA,30.833333333333336,NA
43130,Fairfield County,OH,NA,42.5,NA
43204,Franklin County,OH,NA,36.666666666666664,77.67857142857143
43606,Lucas County,OH,NA,23.88888888888889,NA
43609,Lucas County,OH,3.058103975535168,NA,NA
43612,Lucas County,OH,NA,11.944444444444445,NA
43614,Lucas County,OH,25.076452599388375,NA,NA
43953,Jefferson County,OH,NA,51.11111111111111,NA
44021,Geauga County,OH,NA,NA,68.75
44023,Geauga County,OH,95.10703363914374,NA,NA
44081,Lake County,OH,NA,89.16666666666667,NA
44108,Cuyahoga County,OH,NA,67.5,NA
44112,Cuyahoga County,OH,NA,NA,16.071428571428573
44121,Cuyahoga County,OH,NA,8.88888888888889,NA
44130,Cuyahoga County,OH,2.4464831804281344,NA,46.875
44132,Cuyahoga County,OH,12.232415902140673,NA,NA
44135,Cuyahoga County,OH,10.091743119266056,NA,NA
44147,Cuyahoga County,OH,NA,NA,98.21428571428571
44202,Portage County,OH,NA,NA,34.375
44203,Summit County,OH,NA,NA,5.803571428571429
44224,Summit County,OH,NA,5.833333333333333,NA
44236,Summit County,OH,82.56880733944955,NA,NA
44314,Summit County,OH,NA,79.44444444444444,NA
44615,Carroll County,OH,NA,NA,95.08928571428571
44676,Wayne County,OH,99.38837920489296,NA,NA
44685,Summit County,OH,NA,15.833333333333332,NA
44691,Wayne County,OH,4.281345565749235,NA,NA
44857,Huron County,OH,83.18042813455658,NA,NA
45066,Warren County,OH,NA,37.77777777777778,NA
45159,Clinton County,OH,99.08256880733946,NA,NA
45240,Hamilton County,OH,NA,63.33333333333333,NA
45347,Preble County,OH,NA,75.55555555555556,NA
45356,Miami County,OH,8.56269113149847,NA,NA
45365,Shelby County,OH,NA,9.722222222222223,NA
45424,Montgomery County,OH,NA,7.222222222222221,NA
45459,Montgomery County,OH,44.64831804281346,NA,NA
45601,Ross County,OH,NA,32.77777777777778,NA
45612,Ross County,OH,NA,NA,70.08928571428571
45804,Allen County,OH,NA,NA,65.625
45885,Auglaize County,OH,28.440366972477065,NA,NA
73025,Oklahoma County,OK,70.64220183486239,NA,NA
73096,Custer County,OK,92.35474006116208,NA,NA
73662,Beckham County,OK,81.03975535168195,NA,NA
74011,Tulsa County,OK,NA,63.888888888888886,NA
74137,Tulsa County,OK,NA,43.05555555555556,NA
74426,McIntosh County,OK,NA,NA,62.05357142857143
74467,Wagoner County,OK,97.24770642201835,NA,NA
74962,Sequoyah County,OK,NA,82.22222222222221,NA
97027,Clackamas County,OR,NA,98.33333333333333,NA
97211,Multnomah County,OR,NA,NA,79.01785714285714
97219,Multnomah County,OR,NA,87.77777777777777,NA
97229,Washington County,OR,22.629969418960243,NA,NA
97233,Multnomah County,OR,NA,26.666666666666668,NA
97321,Linn County,OR,15.29051987767584,64.16666666666667,NA
97355,Linn County,OR,64.22018348623854,NA,NA
97367,Lincoln County,OR,NA,93.05555555555556,NA
97405,Lane County,OR,NA,NA,40.17857142857143
97478,Lane County,OR,25.993883792048926,NA,NA
97524,Jackson County,OR,NA,47.5,NA
97527,Josephine County,OR,NA,NA,20.535714285714285
97838,Umatilla County,OR,84.09785932721712,NA,NA
15044,Allegheny County,PA,NA,NA,20.089285714285715
15139,Allegheny County,PA,NA,NA,53.57142857142857
15145,Allegheny County,PA,66.05504587155964,NA,NA
15146,Allegheny County,PA,NA,24.72222222222222,NA
15206,Allegheny County,PA,NA,NA,13.839285714285715
15227,Allegheny County,PA,NA,47.22222222222222,NA
15232,Allegheny County,PA,NA,90,NA
15701,Indiana County,PA,NA,NA,11.160714285714286
15801,Clearfield County,PA,NA,44.166666666666664,NA
15825,Jefferson County,PA,NA,34.44444444444444,NA
15902,Cambria County,PA,30.58103975535168,NA,NA
15904,Cambria County,PA,NA,27.22222222222222,NA
15906,Cambria County,PA,41.284403669724774,NA,NA
16125,Mercer County,PA,62.38532110091744,NA,NA
16602,Blair County,PA,90.82568807339449,NA,NA
16652,Huntingdon County,PA,NA,93.61111111111111,NA
16801,Centre County,PA,26.911314984709477,NA,NA
16823,Centre County,PA,NA,39.44444444444444,NA
17020,Perry County,PA,NA,NA,78.57142857142857
17033,Dauphin County,PA,NA,NA,21.428571428571427
17055,Cumberland County,PA,55.96330275229357,NA,NA
17257,Cumberland County,PA,51.37614678899083,NA,NA
17350,Adams County,PA,NA,NA,25.44642857142857
17545,Lancaster County,PA,NA,NA,14.732142857142858
17752,Lycoming County,PA,NA,99.72222222222223,NA
18104,Lehigh County,PA,NA,37.5,NA
18232,Carbon County,PA,82.26299694189603,NA,NA
18411,Lackawanna County,PA,NA,43.611111111111114,NA
18612,Luzerne County,PA,NA,NA,60.26785714285714
18706,Luzerne County,PA,26.605504587155966,NA,NA
18964,Montgomery County,PA,NA,70.83333333333334,NA
19015,Delaware County,PA,24.159021406727827,NA,NA
19026,Delaware County,PA,10.397553516819572,NA,NA
19083,Delaware County,PA,NA,NA,22.321428571428573
19111,Philadelphia County,PA,39.14373088685015,NA,NA
19121,Philadelphia County,PA,NA,16.38888888888889,NA
19122,Philadelphia County,PA,34.25076452599388,NA,NA
19128,Philadelphia County,PA,56.574923547400616,NA,NA
19131,Philadelphia County,PA,NA,1.3888888888888888,NA
19134,Philadelphia County,PA,NA,10.555555555555555,NA
19320,Chester County,PA,NA,NA,16.517857142857142
19446,Montgomery County,PA,NA,11.11111111111111,NA
19468,Montgomery County,PA,96.02446483180428,NA,NA
19608,Berks County,PA,44.95412844036697,NA,NA
02809,Bristol County,RI,94.18960244648318,NA,NA
02814,Providence County,RI,79.81651376146789,NA,NA
02818,Kent County,RI,NA,33.611111111111114,NA
02840,Newport County,RI,51.681957186544345,NA,NA
02852,Washington County,RI,NA,18.88888888888889,NA
02915,Providence County,RI,NA,43.333333333333336,NA
02920,Providence County,RI,17.431192660550458,NA,NA
29229,Richland County,SC,NA,NA,67.85714285714286
29341,Cherokee County,SC,53.822629969418955,NA,NA
29369,Spartanburg County,SC,NA,53.05555555555556,NA
29461,Berkeley County,SC,NA,NA,37.5
29483,Dorchester County,SC,NA,NA,42.857142857142854
29485,Dorchester County,SC,14.678899082568808,NA,NA
29526,Horry County,SC,24.770642201834864,NA,NA
29572,Horry County,SC,92.66055045871559,NA,NA
29605,Greenville County,SC,NA,74.72222222222223,NA
29611,Greenville County,SC,58.103975535168196,NA,NA
29661,Greenville County,SC,68.19571865443424,NA,NA
29687,Greenville County,SC,NA,NA,14.285714285714285
29693,Oconee County,SC,NA,59.166666666666664,NA
29801,Aiken County,SC,NA,36.11111111111111,NA
29926,Beaufort County,SC,NA,NA,99.10714285714286
57006,Brookings County,SD,45.56574923547401,NA,12.053571428571429
57078,Yankton County,SD,NA,NA,80.80357142857143
57401,Brown County,SD,85.01529051987767,NA,NA
37130,Rutherford County,TN,NA,23.055555555555557,NA
37205,Davidson County,TN,NA,40.27777777777778,NA
37303,McMinn County,TN,NA,NA,35.267857142857146
37321,Rhea County,TN,16.819571865443425,NA,NA
37354,Monroe County,TN,NA,62.5,NA
37377,Hamilton County,TN,NA,13.88888888888889,NA
37643,Carter County,TN,NA,5.555555555555555,NA
37660,Sullivan County,TN,5.198776758409786,NA,NA
37748,Roane County,TN,59.9388379204893,NA,NA
37752,Claiborne County,TN,NA,83.05555555555556,NA
37840,Roane County,TN,71.86544342507645,NA,NA
37871,Jefferson County,TN,NA,59.72222222222222,NA
37918,Knox County,TN,8.256880733944955,NA,NA
38017,Shelby County,TN,NA,40,NA
38058,Tipton County,TN,70.9480122324159,NA,NA
38141,Shelby County,TN,35.16819571865443,NA,NA
38310,McNairy County,TN,NA,66.38888888888889,NA
75013,Collin County,TX,36.08562691131498,NA,NA
75061,Dallas County,TX,84.70948012232415,NA,NA
75070,Collin County,TX,9.174311926605505,NA,NA
75071,Collin County,TX,NA,94.72222222222221,NA
75075,Collin County,TX,NA,25,NA
75149,Dallas County,TX,NA,21.11111111111111,NA
75160,Kaufman County,TX,45.87155963302752,NA,NA
75225,Dallas County,TX,NA,69.16666666666667,NA
75474,Hunt County,TX,NA,85,NA
75840,Freestone County,TX,NA,NA,81.25
76001,Tarrant County,TX,NA,88.61111111111111,NA
76028,Johnson County,TX,NA,17.77777777777778,NA
76126,Tarrant County,TX,53.51681957186545,NA,NA
76240,Cooke County,TX,NA,26.38888888888889,NA
76528,Coryell County,TX,16.819571865443425,NA,NA
76543,Bell County,TX,NA,NA,5.357142857142857
76549,Bell County,TX,51.07033639143731,NA,NA
76706,McLennan County,TX,94.4954128440367,NA,NA
76710,McLennan County,TX,NA,NA,12.5
77030,Harris County,TX,NA,NA,94.64285714285714
77095,Harris County,TX,NA,74.72222222222223,NA
77382,Montgomery County,TX,46.17737003058104,NA,NA
77479,Fort Bend County,TX,NA,NA,26.785714285714285
77713,Jefferson County,TX,NA,86.66666666666667,NA
77802,Brazos County,TX,69.41896024464832,NA,NA
78258,Bexar County,TX,NA,NA,52.67857142857143
78263,Bexar County,TX,NA,86.11111111111111,NA
78408,Nueces County,TX,NA,NA,83.03571428571429
78415,Nueces County,TX,NA,NA,49.107142857142854
78504,Hidalgo County,TX,NA,35,NA
78516,Hidalgo County,TX,NA,38.611111111111114,NA
78702,Travis County,TX,74.61773700305811,NA,67.41071428571429
78735,Travis County,TX,NA,98.05555555555556,NA
78840,Val Verde County,TX,NA,12.222222222222221,NA
79110,Randall County,TX,77.06422018348624,NA,NA
79336,Hockley County,TX,80.42813455657493,NA,NA
79601,Taylor County,TX,81.65137614678899,NA,NA
84037,Davis County,UT,NA,53.61111111111111,NA
84047,Salt Lake County,UT,14.37308868501529,NA,NA
84067,Weber County,UT,NA,NA,93.30357142857143
84109,Salt Lake County,UT,90.51987767584097,NA,NA
84129,,UT,56.269113149847094,NA,NA
84341,Cache County,UT,62.99694189602446,NA,NA
84655,Utah County,UT,75.53516819571865,NA,NA
84765,Washington County,UT,NA,99.44444444444444,NA
84780,Washington County,UT,NA,90.55555555555556,NA
05301,Windham County,VT,NA,20.27777777777778,NA
05401,Chittenden County,VT,NA,85.27777777777777,NA
05452,Chittenden County,VT,NA,NA,37.94642857142857
05602,Washington County,VT,NA,NA,70.98214285714286
05676,Washington County,VT,74.31192660550458,NA,NA
05701,Rutland County,VT,NA,67.22222222222223,NA
05733,Rutland County,VT,NA,NA,69.64285714285714
20110,Manassas city,VA,22.32415902140673,NA,NA
20155,Prince William County,VA,NA,80.55555555555556,NA
22039,Fairfax County,VA,59.63302752293578,NA,NA
22152,Fairfax County,VA,NA,NA,33.92857142857143
22203,Arlington County,VA,NA,NA,62.94642857142857
22204,Arlington County,VA,55.04587155963303,NA,NA
22405,Stafford County,VA,NA,68.05555555555556,NA
22485,King George County,VA,NA,NA,96.42857142857143
22546,Caroline County,VA,NA,55.00000000000001,NA
22551,Spotsylvania County,VA,NA,54.72222222222223,NA
22801,Harrisonburg city,VA,NA,NA,20.982142857142858
22802,Harrisonburg city,VA,52.293577981651374,NA,NA
22902,Charlottesville city,VA,12.538226299694188,NA,NA
22960,Orange County,VA,NA,NA,59.375
22968,Greene County,VA,91.43730886850153,NA,NA
23116,Hanover County,VA,82.87461773700305,NA,NA
23227,Henrico County,VA,NA,27.77777777777778,NA
23320,Chesapeake city,VA,15.59633027522936,NA,NA
23435,Suffolk city,VA,NA,25.27777777777778,NA
23453,Virginia Beach city,VA,NA,NA,75
23462,Virginia Beach city,VA,NA,51.388888888888886,NA
23602,Newport News city,VA,NA,NA,8.482142857142858
23666,Hampton city,VA,NA,NA,7.142857142857142
24014,Roanoke city,VA,NA,21.38888888888889,NA
24228,Dickenson County,VA,49.235474006116206,NA,NA
24502,Lynchburg city,VA,NA,NA,10.267857142857142
98003,King County,WA,16.51376146788991,NA,NA
98005,King County,WA,NA,66.11111111111111,NA
98020,Snohomish County,WA,NA,46.111111111111114,NA
98026,Snohomish County,WA,NA,23.61111111111111,NA
98031,King County,WA,29.357798165137616,NA,NA
98032,King County,WA,78.2874617737003,NA,NA
98034,King County,WA,NA,10,NA
98058,King County,WA,NA,14.444444444444443,NA
98105,King County,WA,NA,NA,43.75
98110,Kitsap County,WA,NA,70.55555555555556,NA
98118,King County,WA,29.051987767584098,NA,NA
98125,King County,WA,NA,NA,74.10714285714286
98126,King County,WA,NA,50,NA
98168,King County,WA,NA,20.833333333333336,NA
98188,King County,WA,NA,45,NA
98221,Skagit County,WA,NA,13.333333333333334,NA
98270,Snohomish County,WA,NA,55.833333333333336,NA
98335,Pierce County,WA,NA,NA,28.57142857142857
98367,Kitsap County,WA,NA,NA,40.625
98375,Pierce County,WA,81.9571865443425,NA,NA
98541,Grays Harbor County,WA,75.22935779816514,NA,NA
98597,Thurston County,WA,68.80733944954129,NA,NA
98604,Clark County,WA,NA,NA,76.78571428571429
98626,Cowlitz County,WA,NA,22.5,NA
98663,Clark County,WA,54.43425076452599,NA,NA
98664,Clark County,WA,NA,56.388888888888886,NA
99016,Spokane County,WA,NA,NA,64.28571428571429
99109,Stevens County,WA,NA,79.72222222222223,NA
99206,Spokane County,WA,34.5565749235474,NA,NA
99301,Franklin County,WA,NA,NA,35.714285714285715
20007,District of Columbia,DC,NA,NA,59.82142857142857
25311,Kanawha County,WV,NA,NA,49.55357142857143
25514,Wayne County,WV,77.37003058103976,NA,NA
25550,Mason County,WV,NA,24.444444444444443,NA
25901,Fayette County,WV,NA,NA,97.76785714285714
26034,Hancock County,WV,89.90825688073394,NA,NA
26241,Randolph County,WV,NA,NA,86.16071428571429
26508,Monongalia County,WV,NA,83.88888888888889,NA
26757,Hampshire County,WV,NA,93.33333333333333,NA
53072,Waukesha County,WI,NA,31.11111111111111,NA
53149,Waukesha County,WI,NA,30.277777777777775,NA
53150,Waukesha County,WI,NA,58.611111111111114,NA
53205,Milwaukee County,WI,NA,36.94444444444444,NA
53214,Milwaukee County,WI,6.727828746177369,NA,NA
53217,Milwaukee County,WI,NA,NA,11.607142857142858
53226,Milwaukee County,WI,48.92966360856269,NA,NA
53228,Milwaukee County,WI,NA,95,NA
53406,Racine County,WI,NA,40.55555555555556,NA
53511,Rock County,WI,0.3058103975535168,NA,NA
53531,Dane County,WI,95.41284403669725,NA,NA
53711,Dane County,WI,NA,NA,10.714285714285714
53718,Dane County,WI,NA,91.94444444444444,NA
54636,La Crosse County,WI,NA,38.05555555555556,NA
54853,Polk County,WI,NA,NA,88.83928571428571
54880,Douglas County,WI,NA,1.9444444444444444,NA
54956,Winnebago County,WI,NA,NA,31.69642857142857
54971,Fond du Lac County,WI,NA,NA,79.91071428571429
82520,Fremont County,WY,NA,NA,94.19642857142857
82604,Natrona County,WY,NA,81.38888888888889,NA
